0186825860999992000010112004-05200-039300FM-12+021199999V0200501N005110450019N0200001N1+02861+02161100931ADDAA106000091GF106991021031008001011001KA1240N+02321MA1999999098571MD1999999-0021REMSYN076AAXX  01124 82586 32598 60510 10286 20216 39857 40093 82310 333 20232 59002;EQDQ01  00002PRCP06
0167825860999992000010118004-05200-039300FM-12+021199999V0201401N002112200019N0200001N1+03321+01781100611ADDAA106000091GF104991999021008001001001MA1999999098271MD1999999-0161REMSYN070AAXX  01184 82586 32598 41404 10332 20178 39827 40061 83200 333 59016;EQDQ01  00002PRCP06
0196825860999992000010200004-05200-039300FM-12+021199999V0203601N003112200019N0010001N1+02821+02101100871ADDAA106000091GA1001+999999999GF100991001001999999001001KA1240M+03371MA1999999098451MD1999999-0071REMSYN070AAXX  02004 82586 32994 03606 10282 20210 39845 40087 333 10337 59007;EQDQ01  00002PRCP06
0186825860999992000010212004-05200-039300FM-12+021199999V0200501N004112200019N0200001N1+02831+02021100911ADDAA106000091GF104991041021008001001001KA1240N+02381MA1999999098551MD1999999-0021REMSYN076AAXX  02124 82586 32598 40508 10283 20202 39855 40091 84200 333 20238 59002;EQDQ01  00002PRCP06
0167825860999992000010218004-05200-039300FM-12+021199999V0201801N003110075019N0200001N1+03321+01781100591ADDAA106000091GF105991051021008001001001MA1999999098251MD1999999-0021REMSYN070AAXX  02184 82586 32598 51806 10332 20178 39825 40059 85200 333 59002;EQDQ01  00002PRCP06
0196825860999992000010300004-05200-039300FM-12+021199999V0203601N003112200019N0010001N1+02831+02101100751ADDAA106000091GA1001+999999999GF100991001001999999001001KA1240M+03351MA1999999098411MD1999999-0041REMSYN070AAXX  03004 82586 32994 03606 10283 20210 39841 40075 333 10335 59004;EQDQ01  00002PRCP06
0186825860999992000010312004-05200-039300FM-12+021199999V0200501N004610075019N0200001N1+02781+02251100871ADDAA106000091GF106991061041008001001001KA1240N+02441MA1999999098521MD1999999-0031REMSYN076AAXX  03124 82586 32598 60509 10278 20225 39852 40087 86400 333 20244 59003;EQDQ01  00002PRCP06
0167825860999992000010318004-05200-039300FM-12+021199999V0201401N003110450019N0200001N1+03321+02041100491ADDAA106000091GF106991031041008001021001MA1999999098151MD1999999-0101REMSYN070AAXX  03184 82586 32598 61406 10332 20204 39815 40049 83420 333 59010;EQDQ01  00002PRCP06
0180825860999992000010400004-05200-039300FM-12+021199999V0203601N003112200019N0010001N1+02741+02361100771ADDAA106000091GF104991999999999999999999KA1240M+03331MA1999999098411MD1999999+0001REMSYN070AAXX  04004 82586 32994 43606 10274 20236 39841 40077 333 10333 58000;EQDQ01  00002PRCP06
0186825860999992000010412004-05200-039300FM-12+021199999V0200501N001510075019N0200001N1+02761+02321100981ADDAA106000091GF106991061041008001001001KA1240N+02501MA1999999098621MD1999999+0101REMSYN076AAXX  04124 82586 32598 60503 10276 20232 39862 40098 86400 333 20250 58010;EQDQ01  00002PRCP06
0182825860999992000010418004-05200-039300FM-12+021199999V0201801N005110075019N0200001N1+02731+02341100811ADDAA106006191AY161061AY221061GF108991081071008001999999MA1999999098451MD1999999+0301MW1031REMSYN082AAXX  04184 82586 21598 81810 10273 20234 39845 40081 70362 887// 333 58030 60061;
0186825860999992000010500004-05200-039300FM-12+021199999V0209999C000010075019N0010001N1+02461+02281100831ADDAA106000091GF108991081071008001999999KA1240M+03011MA1999999098451MD1999999+0041REMSYN076AAXX  05004 82586 32594 80000 10246 20228 39845 40083 887// 333 10301 58004;EQDQ01  00002PRCP06
0173825860999992000010512004-05200-039300FM-12+021199999V0200501N001510450019N0200001N1+02641+02331101031ADDAA124006191GF107991041041008001051001KA1240N+02381MA1999999098651MD1999999+0031REMSYN082AAXX  05124 82586 22598 70503 10264 20233 39865 40103 84450 333 20238 58003 60064;
0167825860999992000010518004-05200-039300FM-12+021199999V0200501N005110075019N0200001N1+03171+02171100711ADDAA106000091GF106991061041008001001001MA1999999098351MD1999999-0101REMSYN070AAXX  05184 82586 32598 60510 10317 20217 39835 40071 86400 333 59010;EQDQ01  00002PRCP06
0173825860999992000010612004-05200-039300FM-12+021199999V0200901N004610075019N0200001N1+02861+02231101011ADDAA124000191GF106991061041008001001001KA1240N+02421MA1999999098651MD1999999+0001REMSYN082AAXX  06124 82586 22598 60909 10286 20223 39865 40101 86400 333 20242 58000 69924;
0201825860999992000010700004-05200-039300FM-12+021199999V0209999C000010075019N0010001N1+02441+02351100981ADDAA106000591AY151061AY221061GF108991081091008001999999KA1240M+03151MA1999999098621MD1999999+0071MW1131REMSYN088AAXX  07004 82586 21594 80000 10244 20235 39862 40098 71352 889// 333 10315 58007 69941;
0173825860999992000010712004-05200-039300FM-12+021199999V0200501N003110075019N0200001N1+02601+02331101021ADDAA124019191GF106991061041008001001001KA1240N+02221MA1999999098631MD1999999-0021REMSYN082AAXX  07124 82586 22598 60506 10260 20233 39863 40102 86400 333 20222 59002 60194;
0167825860999992000010718004-05200-039300FM-12+021199999V02099999999990075019N0200001N1+03051+02301100721ADDAA106000091GF106991061041008001001001MA1999999098351MD1999999-0111REMSYN070AAXX  07184 82586 32598 614// 10305 20230 39835 40072 86400 333 59011;EQDQ01  00002PRCP06
0214825860999992000010800004-05200-039300FM-12+021199999V0203601N005110075019N0010001N1+02731+02391100901ADDAA106000091AY121061AY221061GF106991061021008001001001KA1240M+03101MA1999999098461MD1999999-0161MW1131REMSYN082AAXX  08004 82586 31594 63610 10273 20239 39846 40090 71322 86200 333 10310 59016;EQDQ01  00002PRCP06
0201825860999992000010812004-05200-039300FM-12+021199999V0200901N004110075019N0200001N1+02481+02381100971ADDAA124005191AY161061AY251061GF108991081071008001999999KA1240N+02221MA1999999098601MD1999999-0031MW1021REMSYN088AAXX  08124 82586 21598 80908 10248 20238 39860 40097 70265 887// 333 20222 59003 60054;
0167825860999992000010818004-05200-039300FM-12+021199999V0202301N001512200019N0200001N1+02901+02341100671ADDAA106000091GF106991031041008001001041MA1999999098301MD1999999-0051REMSYN070AAXX  08184 82586 32598 62303 10290 20234 39830 40067 83404 333 59005;EQDQ01  00002PRCP06
0201825860999992000010900004-05200-039300FM-12+021199999V0203601N001510075019N0010001N1+02351+02311101021ADDAA106001091AY191061AY261061GF108991081091008001999999KA1240M+03131MA1999999098621MD1999999+0161MW1131REMSYN088AAXX  09004 82586 21594 83603 10235 20231 39862 40102 71396 889// 333 10313 58016 60011;
0201825860999992000010912004-05200-039300FM-12+021199999V0201401N003110075019N0200001N1+02401+02231101131ADDAA124006191AY191061AY281061GF108991081071008001999999KA1240N+02221MA1999999098731MD1999999+0131MW1031REMSYN088AAXX  09124 82586 21598 81406 10240 20223 39873 40113 70398 887// 333 20222 58013 60064;
0201825860999992000010918004-05200-039300FM-12+021199999V02099999999999999999N0200001N1+02891+02481100821ADDAA106000591AY151061AY221061GF106991999021008001001001MA1999999098451MD1999999+0151MW1031REMSYN082AAXX  09184 82586 21598 618// 10289 20248 39845 40082 70352 83200 333 58015 69951;EQDQ01+000032SCOTLC
0201825860999992000011000004-05200-039300FM-12+021199999V0203601N001510075019N0010001N1+02491+02271101021ADDAA106008991AY161061AY221061GF108991081051008001999999KA1240M+03041MA1999999098641MD1999999+0001MW1131REMSYN088AAXX  10004 82586 21594 83603 10249 20227 39864 40102 71362 885// 333 10304 58000 60091;
0201825860999992000011012004-05200-039300FM-12+021199999V0200501N003110075019N0200001N1+02581+02481101131ADDAA124014091AY161061AY251061GF108991081071008001999999KA1240N+02501MA1999999098751MD1999999+0021MW1031REMSYN088AAXX  10124 82586 21598 80506 10258 20248 39875 40113 70365 887// 333 20250 58002 60144;
0167825860999992000011018004-05200-039300FM-12+021199999V0201401N003110075019N0200001N1+03541+02101100761ADDAA106000091GF106991061041008001001001MA1999999098411MD1999999-0041REMSYN070AAXX  10184 82586 32598 61406 10354 20210 39841 40076 86400 333 59004;EQDQ01  00002PRCP06
0186825860999992000011100004-05200-039300FM-12+021199999V0200501N001010075019N0010001N1+02681+02201100941ADDAA106000091GF106991061021008001001001KA1240M+03191MA1999999098551MD1999999-0071REMSYN076AAXX  11004 82586 32594 60502 10268 20220 39855 40094 86200 333 10319 59007;EQDQ01  00002PRCP06
0186825860999992000011112004-05200-039300FM-12+021199999V0200901N001510450019N0200001N1+02681+02221101011ADDAA106000091GF106991041041008001021001KA1240N+02481MA1999999098651MD1999999-0101REMSYN076AAXX  11124 82586 32598 60903 10268 20222 39865 40101 84420 333 20248 59010;EQDQ01  00002PRCP06
0167825860999992000011118004-05200-039300FM-12+021199999V0200501N002110075019N0200001N1+03131+02111100771ADDAA106000091GF107991071041008001001001MA1999999098421MD1999999+0011REMSYN070AAXX  11184 82586 32598 70504 10313 20211 39842 40077 87400 333 58001;EQDQ01  00002PRCP06
0186825860999992000011200004-05200-039300FM-12+021199999V02099999999990075019N0010001N1+02701+02171100851ADDAA106000091GF106991061041008001001001KA1240M+03171MA1999999098491MD1999999-0061REMSYN076AAXX  12004 82586 32594 6//// 10270 20217 39849 40085 86400 333 10317 59006;EQDQ01  00002PRCP06
0186825860999992000011212004-05200-039300FM-12+021199999V0200501N005112200019N0200001N1+02821+02101100991ADDAA106000091GF105991031021008001001041KA1240N+02461MA1999999098631MD1999999-0021REMSYN076AAXX  12124 82586 32598 50510 10282 20210 39863 40099 83204 333 20246 59002;EQDQ01  00002PRCP06
0167825860999992000011218004-05200-039300FM-12+021199999V0201801N001512200019N0200001N1+03221+01911100731ADDAA106000091GF104991041021008001001001MA1999999098381MD1999999-0041REMSYN070AAXX  12184 82586 32598 41803 10322 20191 39838 40073 84200 333 59004;EQDQ01  00002PRCP06
0125825860999992000011312004-05200-039300FM-12+021199999V0200901N004119999999N0200001N1+02481+02381999999ADDGF108991999999008001999999REMSYN087AAXX  13124 82586 21598 80908 10248 20238 3984 40111 70362 887// 333 20238 58011 60014;
0182825860999992000011318004-05200-039300FM-12+021199999V0201801N003110450019N0200001N1+02961+02101100811ADDAA106002091AY161061AY221061GF108991041031008001021999MA1999999098451MD1999999+0071MW1031REMSYN082AAXX  13184 82586 21598 81806 10296 20210 39845 40081 70362 8432/ 333 58007 60021;
0190825860999992000011400004-05200-039300FM-12+021199999V0203601N001010075019N0010001N1+02631+02121100901ADDAA199000091GF106991061021008001001001KA1240M+03081MA1999999098521MD1999999-0011REMSYN080    AAXX  14004 82586 32594 63602 10263 20212 39852 40090 86200 333 10308 59001;EQDQ01  00002PRCP99
0177825860999992000011412004-05200-039300FM-12+021199999V0200501N003610075019N0200001N1+02761+02281100971ADDAA124002091GF106991061041008001001001KA1240N+02441MA1999999098611MD1999999-0131REMSYN086    AAXX  14124 82586 22598 60507 10276 20228 39861 40097 86400 333 20244 59013 60024;
0171825860999992000011418004-05200-039300FM-12+021199999V0201801N003612200019N0200001N1+03201+01961100701ADDAA199000091GF106991031021008001001041MA1999999098351MD1999999-0101REMSYN074    AAXX  14184 82586 32598 61807 10320 20196 39835 40070 83204 333 59010;EQDQ01  00002PRCP99
0184825860999992000011500004-05200-039300FM-12+021199999V0200501N001512200019N0010001N1+02741+02261100791ADDAA199000091GF103991999999999999999999KA1240M+03251MA1999999098431MD1999999-0091REMSYN074    AAXX  15004 82586 32994 30503 10274 20226 39843 40079 333 10325 59009;EQDQ01  00002PRCP99
0205825860999992000011512004-05200-039300FM-12+021199999V0200501N001010075019N0200001N1+02401+02331100991ADDAA124003091AY161061AY261061GF108991081051008001999999KA1240N+02401MA1999999098621MD1999999+0011MW1611REMSYN092    AAXX  15124 82586 21598 80502 10240 20233 39862 40099 76166 885// 333 20240 58001 60034;
0205825860999992000011518004-05200-039300FM-12+021199999V02099999999999999999N0200001N1+02301+02181100831ADDAA106008991AY191061AY261061GF108991999011008001001001MA1999999098431MD1999999+0081MW1031REMSYN086    AAXX  15184 82586 21598 818// 10230 20218 39843 40083 70396 82100 333 58008 60091;EQDQ01+000022SCOTLC
0171825860999992000011600004-05200-039300FM-12+021199999V0200501N001010120019N0010001N1+02321+01961100911ADDAA199000021GF107991071021012501001001KA1240M+02761MA1999999098511MD1999999+0081REMSYN080    AAXX  16004 82586 32694 70502 10232 20196 39851 40091 87200 333 10276 58008;
0177825860999992000011612004-05200-039300FM-12+021199999V0201801N002110075019N0200001N1+02321+02271101061ADDAA124008991GF108991081071008001999999KA1240N+02101MA1999999098661MD1999999+0041REMSYN086    AAXX  16124 82586 22598 81804 10232 20227 39866 40106 887// 333 20210 58004 60094;
0186825860999992000011618004-05200-039300FM-12+021199999V0201401N001010075019N0200001N1+02521+02381100931ADDAA106005191AY161061AY251061GF108991081071008001999999MA1999999098531MD1999999+0101MW1031REMSYN086    AAXX  16184 82586 21598 81402 10252 20238 39853 40093 70365 887// 333 58010 60051;
0205825860999992000011700004-05200-039300FM-12+021199999V0209999C000012200019N0010001N1+02361+02091100951ADDAA106000191AY151061AY221061GF104991041021008001001001KA1240M+02751MA1999999098551MD1999999+0041MW1031REMSYN092    AAXX  17004 82586 21594 40000 10236 20209 39855 40095 70352 84200 333 10275 58004 69921;
0177825860999992000011712004-05200-039300FM-12+021199999V02099999999990075019N0200001N1+02581+02371101041ADDAA124006191GF108991081071008001999999KA1240N+02221MA1999999098651MD1999999-0011REMSYN086    AAXX  17124 82586 22598 814// 10258 20237 39865 40104 887// 333 20222 59001 60064;
0171825860999992000011718004-05200-039300FM-12+021199999V0200501N003110075019N0200001N1+02701+02431100891ADDAA199000091GF108991051021008001021999MA1999999098511MD1999999-0021REMSYN074    AAXX  17184 82586 32598 80506 10270 20243 39851 40089 8522/ 333 59002;EQDQ01  00002PRCP99
0190825860999992000011800004-05200-039300FM-12+021199999V0200501N002112200019N0010001N1+02481+02301101061ADDAA199000091GF104991041021008001001001KA1240M+02981MA1999999098681MD1999999+0131REMSYN080    AAXX  18004 82586 32594 40504 10248 20230 39868 40106 84200 333 10298 58013;EQDQ01  00002PRCP99
0190825860999992000011812004-05200-039300FM-12+021199999V0200901N003610075019N0200001N1+02661+02311101171ADDAA199000091GF106991061041008001001001KA1240N+02281MA1999999098791MD1999999+0141REMSYN080    AAXX  18124 82586 32598 60907 10266 20231 39879 40117 86400 333 20228 58014;EQDQ01  00002PRCP99
0171825860999992000011818004-05200-039300FM-12+021199999V0201401N001510450019N0200001N1+03061+02141100811ADDAA199000091GF106991031021008001021001MA1999999098451MD1999999-0061REMSYN074    AAXX  18184 82586 32598 61403 10306 20214 39845 40081 83220 333 59006;EQDQ01  00002PRCP99
0200825860999992000011900004-05200-039300FM-12+021199999V0203601N001512200019N0010001N1+02521+02211101031ADDAA199000091GA1001+999999999GF100991001001999999001001KA1240M+03131MA1999999098661MD1999999-0021REMSYN074    AAXX  19004 82586 32994 03603 10252 20221 39866 40103 333 10313 59002;EQDQ01  00002PRCP99
0205825860999992000011912004-05200-039300FM-12+021199999V0200501N003610075019N0200001N1+02741+02301101111ADDAA124000191AY151061AY221061GF106991061041008001001001KA1240N+02341MA1999999098741MD1999999-0051MW1031REMSYN092    AAXX  19124 82586 21598 60507 10274 20230 39874 40111 70352 86400 333 20234 59005 69924;
0167825860999992000011918004-05200-039300FM-12+021199999V0200901N003112200019N0200001N1+03231+02081100761ADDAA199000091GF104991041021008001001001MA1999999098421MD1999999-0031REMSYN070AAXX  19184 82586 32598 40906 10323 20208 39842 40076 84200 333 59003;EQDQ01  00002PRCP99
0196825860999992000012000004-05200-039300FM-12+021199999V0200501N001512200019N0010001N1+02671+02221100971ADDAA199000091GA1001+999999999GF100991001001999999001001KA1240M+03271MA1999999098611MD1999999-0051REMSYN070AAXX  20004 82586 32994 00503 10267 20222 39861 40097 333 10327 59005;EQDQ01  00002PRCP99
0167825860999992000012018004-05200-039300FM-12+021199999V02099999999990075019N0200001N1+03031+02181100781ADDAA199000091GF106991061041008001001001MA1999999098421MD1999999+0001REMSYN070AAXX  20184 82586 32598 614// 10303 20218 39842 40078 86400 333 58000;EQDQ01  00002PRCP99
0186825860999992000012100004-05200-039300FM-12+021199999V02099999999990120019N0010001N1+02571+02191101021ADDAA199000091GF105991051021012501001001KA1240M+03231MA1999999098651MD1999999+0041REMSYN076AAXX  21004 82586 32694 527// 10257 20219 39865 40102 85200 333 10323 58004;EQDQ01  00002PRCP99
0173825860999992000012112004-05200-039300FM-12+021199999V0200901N004610075019N0200001N1+02861+02231101011ADDAA124000191GF106991061041008001001001KA1240N+02421MA1999999098651MD1999999+0001REMSYN082AAXX  21124 82586 22598 60909 10286 20223 39865 40101 86400 333 20242 58000 69924;
0167825860999992000012118004-05200-039300FM-12+021199999V0200501N003611050019N0200001N1+03321+01891100731ADDAA199000091GF106991031021008001001021MA1999999098381MD1999999-0041REMSYN070AAXX  21184 82586 32598 60507 10332 20189 39838 40073 83202 333 59004;EQDQ01  00002PRCP99
0186825860999992000012200004-05200-039300FM-12+021199999V0203601N002610120019N0010001N1+02741+02301100961ADDAA199000091GF105991051021012501001001KA1240M+03351MA1999999098601MD1999999-0051REMSYN076AAXX  22004 82586 32694 53605 10274 20230 39860 40096 85200 333 10335 59005;EQDQ01  00002PRCP99
0186825860999992000012212004-05200-039300FM-12+021199999V0200901N001510075019N0200001N1+02721+02301101121ADDAA199000091GF106991061041008001001001KA1240N+02221MA1999999098761MD1999999+0081REMSYN076AAXX  22124 82586 32598 60903 10272 20230 39876 40112 86400 333 20222 58008;EQDQ01  00002PRCP99
0152825860999992000012218004-05200-039300FM-12+021199999V0203601N005119999999N0200001N1+03191+02041999999ADDAA199000091GF106991999999008001999999MA1999999098481REMSYN069AAXX  22184 82586 32598 63610 10319 20204 39848 4003 86400 333 58010;EQDQ01  00002PRCP99
0186825860999992000012300004-05200-039300FM-12+021199999V0203601N005110120019N0010001N1+02641+02201101011ADDAA199000091GF106991061001012501021001KA1240M+03371MA1999999098651MD1999999+0051REMSYN076AAXX  23004 82586 32694 63610 10264 20220 39865 40101 86020 333 10337 58005;EQDQ01  00002PRCP99
0202825860999992000012312004-05200-039300FM-12+021199999V02099999999999999999N0200001N1+02731+02261101081ADDAA199000091GF107991999021008001001001KA1240N+02251MA1999999098721MD1999999-0041REMSYN076AAXX  23124 82586 32598 736// 10273 20226 39872 40108 83200 333 20225 59004;EQDQ01+000032SCOTLCQ02  00002PRCP99
0183825860999992000012318004-05200-039300FM-12+021199999V0200501N005119999999N0200001N1+03141+02161100801ADDAA199000091GF107991999021008001001001MA1999999098451MD1999999-0031REMSYN070AAXX  23184 82586 32598 70510 10314 20216 39845 40080 83200 333 59003;EQDQ01+000032SCOTLCQ02  00002PRCP99
0214825860999992000012400004-05200-039300FM-12+021199999V0203601N004610075019N0010001N1+02701+02131100951ADDAA199000091AY121061AY221061GF106991061021008001001001KA1240M+03201MA1999999098591MD1999999-0061MW1131REMSYN082AAXX  24004 82586 31594 63609 10270 20213 39859 40095 71322 86200 333 10320 59006;EQDQ01  00002PRCP99
0186825860999992000012412004-05200-039300FM-12+021199999V0200501N004610075019N0200001N1+02741+02141101021ADDAA199000091GF106991061041008001001001KA1240N+02421MA1999999098661MD1999999-0061REMSYN076AAXX  24124 82586 32598 60509 10274 20214 39866 40102 86400 333 20242 59006;EQDQ01  00002PRCP99
0167825860999992000012418004-05200-039300FM-12+021199999V0200501N003110075019N0200001N1+03261+01951100801ADDAA199000091GF106991061021008001001001MA1999999098451MD1999999+0001REMSYN070AAXX  24184 82586 32598 60506 10326 20195 39845 40080 86200 333 58000;EQDQ01  00002PRCP99
0196825860999992000012500004-05200-039300FM-12+021199999V0200501N003112200019N0010001N1+02701+01991100931ADDAA199000091GA1001+999999999GF100991001001999999001001KA1240M+03301MA1999999098571MD1999999-0021REMSYN070AAXX  25004 82586 32994 00506 10270 20199 39857 40093 333 10330 59002;EQDQ01  00002PRCP99
0186825860999992000012512004-05200-039300FM-12+021199999V0200501N004110075019N0200001N1+02741+02261101121ADDAA199000091GF106991061041008001001001KA1240N+02301MA1999999098751MD1999999+0091REMSYN076AAXX  25124 82586 32598 60508 10274 20226 39875 40112 86400 333 20230 58009;EQDQ01  00002PRCP99
0167825860999992000012518004-05200-039300FM-12+021199999V0201801N002112200019N0200001N1+03261+01721100911ADDAA199000091GF104991031021008001001021MA1999999098551MD1999999+0101REMSYN070AAXX  25184 82586 32598 41804 10326 20172 39855 40091 83202 333 58010;EQDQ01  00002PRCP99
0196825860999992000012600004-05200-039300FM-12+021199999V0200901N005112200019N0010001N1+02701+02111100991ADDAA199000091GA1001+999999999GF100991001001999999001001KA1240M+03321MA1999999098631MD1999999+0061REMSYN070AAXX  26004 82586 32994 00910 10270 20211 39863 40099 333 10332 58006;EQDQ01  00002PRCP99
0186825860999992000012612004-05200-039300FM-12+021199999V0201401N003110075019N0200001N1+02701+02221101211ADDAA199000091GF106991061041008001001001KA1240N+02361MA1999999098841MD1999999+0091REMSYN076AAXX  26124 82586 32598 61406 10270 20222 39884 40121 86400 333 20236 58009;EQDQ01  00002PRCP99
0167825860999992000012618004-05200-039300FM-12+021199999V0201401N002612200019N0200001N1+03261+01911100861ADDAA199000091GF104991041021008001001001MA1999999098511MD1999999-0041REMSYN070AAXX  26184 82586 32598 41405 10326 20191 39851 40086 84200 333 59004;EQDQ01  00002PRCP99
0196825860999992000012700004-05200-039300FM-12+021199999V0200901N005112200019N0010001N1+02771+02041100971ADDAA199000091GA1001+999999999GF100991001001999999001001KA1240M+03301MA1999999098611MD1999999-0021REMSYN070AAXX  27004 82586 32994 00910 10277 20204 39861 40097 333 10330 59002;EQDQ01  00002PRCP99
0186825860999992000012712004-05200-039300FM-12+021199999V0200901N003610075019N0200001N1+02841+02401101151ADDAA199000091GF106991061021008001001001KA1240N+02481MA1999999098791MD1999999-0051REMSYN076AAXX  27124 82586 32598 60907 10284 20240 39879 40115 86200 333 20248 59005;EQDQ01  00002PRCP99
0167825860999992000012718004-05200-039300FM-12+021199999V0201401N002612200019N0200001N1+03421+01831100791ADDAA199000091GF104991041021008001001001MA1999999098451MD1999999-0061REMSYN070AAXX  27184 82586 32598 41405 10342 20183 39845 40079 84200 333 59006;EQDQ01  00002PRCP99
0167825860999992000012818004-05200-039300FM-12+021199999V0201801N003612200019N0200001N1+03361+01931100761ADDAA199000091GF106991031021008001001041MA1999999098421MD1999999-0031REMSYN070AAXX  28184 82586 32598 61807 10336 20193 39842 40076 83204 333 59003;EQDQ01  00002PRCP99
0196825860999992000012900004-05200-039300FM-12+021199999V0200501N005112200019N0010001N1+02821+02201100891ADDAA199000091GA1001+999999999GF100991001001999999001001KA1240M+03391MA1999999098541MD1999999-0111REMSYN070AAXX  29004 82586 32994 00510 10282 20220 39854 40089 333 10339 59011;EQDQ01  00002PRCP99
0202825860999992000012912004-05200-039300FM-12+021199999V0200901N004119999999N0200001N1+02741+02211101191ADDAA199000091GF105991999021008001001001KA1240N+02501MA1999999098791MD1999999+0041REMSYN076AAXX  29124 82586 32598 50908 10274 20221 39879 40119 84200 333 20250 58004;EQDQ01+000042SCOTLCQ02  00002PRCP99
0137825860999992000012918004-05200-039300FM-12+021199999V0200901N003119999999N0200001N1+03321+01781999999ADDAA199000091GF105991999999008001999999REMSYN069AAXX  29184 82586 32598 50906 10332 20178 9848 40082 82100 333 58006;EQDQ01  00002PRCP99
0196825860999992000013000004-05200-039300FM-12+021199999V0200501N005112200019N0010001N1+02741+02101100981ADDAA199000091GA1001+999999999GF100991001001999999001001KA1240M+03391MA1999999098621MD1999999+0081REMSYN070AAXX  30004 82586 32994 00510 10274 20210 39862 40098 333 10339 58008;EQDQ01  00002PRCP99
0186825860999992000013012004-05200-039300FM-12+021199999V0201401N005110075019N0200001N1+02811+02251101221ADDAA199000091GF106991061041008001001001KA1240N+02431MA1999999098851MD1999999+0061REMSYN076AAXX  30124 82586 32598 61410 10281 20225 39885 40122 86400 333 20243 58006;EQDQ01  00002PRCP99
0167825860999992000013018004-05200-039300FM-12+021199999V0201801N007210075019N0200001N1+02661+02391101001ADDAA199000091GF108991081071008001999999MA1999999098621MD1999999+0141REMSYN070AAXX  30184 82586 32598 81814 10266 20239 39862 40100 887// 333 58014;EQDQ01  00002PRCP99
0201825860999992000013100004-05200-039300FM-12+021199999V02099999999992200019N0010001N1+02621+02251101121ADDAA106003091AY161061AY221061GF104991041021008001001001KA1240M+03251MA1999999098751MD1999999+0131MW1031REMSYN088AAXX  31004 82586 21594 4//// 10262 20225 39875 40112 70362 84200 333 10325 58013 60031;
0173825860999992000013112004-05200-039300FM-12+021199999V0200901N001011050019N0200001N1+02701+02281101251ADDAA124003091GF105991021011008001001021KA1240N+02281MA1999999098881MD1999999+0031REMSYN082AAXX  31124 82586 22598 50902 10270 20228 39888 40125 82102 333 20228 58003 60034;
0167825860999992000013118004-05200-039300FM-12+021199999V0201801N003112200019N0200001N1+03361+02021101001ADDAA199000091GF106991041011008001001011MA1999999098651MD1999999+0031REMSYN070AAXX  31184 82586 32598 61806 10336 20202 39865 40100 84101 333 58003;EQDQ01  00002PRCP99
0196825860999992000020100004-05200-039300FM-12+021199999V0203601N001012200019N0010001N1+02961+01961101031ADDAA199000091GA1001+999999999GF100991001001999999001001KA1240M+03431MA1999999098671MD1999999-0081REMSYN070AAXX  01004 82586 32994 03602 10296 20196 39867 40103 333 10343 59008;EQDQ01  00002PRCP99
0186825860999992000020112004-05200-039300FM-12+021199999V0200901N004612200019N0200001N1+02941+02191101241ADDAA199000091GF102991021011008001001001KA1240N+02521MA1999999098891MD1999999+0011REMSYN076AAXX  01124 82586 32598 20909 10294 20219 39889 40124 82100 333 20252 58001;EQDQ01  00002PRCP99
0167825860999992000020118004-05200-039300FM-12+021199999V0200901N003112200019N0200001N1+03541+01891100891ADDAA199000091GF104991041011008001001001MA1999999098551MD1999999-0101REMSYN070AAXX  01184 82586 32598 40906 10354 20189 39855 40089 84100 333 59010;EQDQ01  00002PRCP99
0196825860999992000020200004-05200-039300FM-12+021199999V0200501N004112200019N0010001N1+03001+02141100991ADDAA199000091GA1001+999999999GF100991001001999999001001KA1240M+03601MA1999999098651MD1999999-0021REMSYN070AAXX  02004 82586 32994 00508 10300 20214 39865 40099 333 10360 59002;EQDQ01  00002PRCP99
0186825860999992000020212004-05200-039300FM-12+021199999V0200901N004110075019N0200001N1+02881+02411101161ADDAA199000091GF106991061021008001001001KA1240N+02521MA1999999098811MD1999999-0081REMSYN076AAXX  02124 82586 32598 60908 10288 20241 39881 40116 86200 333 20252 59008;EQDQ01  00002PRCP99
0180825860999992000020300004-05200-039300FM-12+021199999V0200501N003612200019N0010001N1+02781+02251101011ADDAA199000091GF104991999999999999999999KA1240M+03481MA1999999098651MD1999999+0001REMSYN070AAXX  03004 82586 32994 40507 10278 20225 39865 40101 333 10348 58000;EQDQ01  00002PRCP99
0186825860999992000020312004-05200-039300FM-12+021199999V0200501N003110075019N0200001N1+02801+02341101111ADDAA199000091GF106991061041008001001001KA1240N+02441MA1999999098751MD1999999-0061REMSYN076AAXX  03124 82586 32598 60506 10280 20234 39875 40111 86400 333 20244 59006;EQDQ01  00002PRCP99
0167825860999992000020318004-05200-039300FM-12+021199999V0200901N003110075019N0200001N1+03441+01961100711ADDAA199000091GF106991061041008001001001MA1999999098371MD1999999-0121REMSYN070AAXX  03184 82586 32598 60906 10344 20196 39837 40071 86400 333 59012;EQDQ01  00002PRCP99
0196825860999992000020400004-05200-039300FM-12+021199999V0200501N003612200019N0010001N1+02741+02261101011ADDAA199000091GA1001+999999999GF100991001001999999001001KA1240M+03491MA1999999098651MD1999999+0001REMSYN070AAXX  04004 82586 32994 00507 10274 20226 39865 40101 333 10349 58000;EQDQ01  00002PRCP99
0186825860999992000020412004-05200-039300FM-12+021199999V0200501N003110075019N0200001N1+02861+02231101151ADDAA199000091GF106991061041008001001001KA1240N+02361MA1999999098791MD1999999+0041REMSYN076AAXX  04124 82586 32598 60506 10286 20223 39879 40115 86400 333 20236 58004;EQDQ01  00002PRCP99
0167825860999992000020418004-05200-039300FM-12+021199999V0200501N005110075019N0200001N1+03311+01951100911ADDAA199000091GF107991071021008001001001MA1999999098551MD1999999+0181REMSYN070AAXX  04184 82586 32598 70510 10331 20195 39855 40091 87200 333 58018;EQDQ01  00002PRCP99
0196825860999992000020500004-05200-039300FM-12+021199999V0200501N003112200019N0010001N1+02751+02261100981ADDAA199000091GA1001+999999999GF100991001001999999001001KA1240M+03371MA1999999098621MD1999999-0031REMSYN070AAXX  05004 82586 32994 00506 10275 20226 39862 40098 333 10337 59003;EQDQ01  00002PRCP99
0186825860999992000020512004-05200-039300FM-12+021199999V0200901N003610075019N0200001N1+02801+02251101221ADDAA199000091GF106991061041008001001001KA1240N+02381MA1999999098851MD1999999+0061REMSYN076AAXX  05124 82586 32598 60907 10280 20225 39885 40122 86400 333 20238 58006;EQDQ01  00002PRCP99
0167825860999992000020518004-05200-039300FM-12+021199999V0200501N004110075019N0200001N1+03401+02071100911ADDAA199000091GF106991061021008001001001MA1999999098551MD1999999+0001REMSYN070AAXX  05184 82586 32598 60508 10340 20207 39855 40091 86200 333 58000;EQDQ01  00002PRCP99
0186825860999992000020612004-05200-039300FM-12+021199999V0200901N002110075019N0200001N1+02791+02271101211ADDAA199000091GF106991061021008001001001KA1240N+02451MA1999999098551MD1999999+0001REMSYN076AAXX  06124 82586 32598 60904 10279 20227 39855 40121 86200 333 20245 58000;EQDQ01  00002PRCP99
0183825860999992000020618004-05200-039300FM-12+021199999V0201801N004619999999N0200001N1+03441+01921100891ADDAA199000091GF106991999021008001001001MA1999999098551MD1999999+0001REMSYN070AAXX  06184 82586 32598 61809 10344 20192 39855 40089 83200 333 58000;EQDQ01+000032SCOTLCQ02  00002PRCP99
0214825860999992000020700004-05200-039300FM-12+021199999V0200501N005110075019N0010001N1+02811+02311101011ADDAA199000091AY121061AY221061GF106991061021008001001001KA1240M+03501MA1999999098651MD1999999-0101MW1131REMSYN082AAXX  07004 82586 31594 60510 10281 20231 39865 40101 71322 86200 333 10350 59010;EQDQ01  00002PRCP99
0186825860999992000020712004-05200-039300FM-12+021199999V0200901N002110075019N0200001N1+02861+02311101111ADDAA199000091GF106991061041008001001001KA1240N+02461MA1999999098751MD1999999-0171REMSYN076AAXX  07124 82586 32598 60904 10286 20231 39875 40111 86400 333 20246 59017;EQDQ01  00002PRCP99
0167825860999992000020718004-05200-039300FM-12+021199999V0200501N003110450019N0200001N1+03371+01771100921ADDAA199000091GF108991031041008001021999MA1999999098581MD1999999+0031REMSYN070AAXX  07184 82586 32598 80506 10337 20177 39858 40092 8342/ 333 58003;EQDQ01  00002PRCP99
0180825860999992000020800004-05200-039300FM-12+021199999V0200501N003619999999N0010001N1+02811+02201101111ADDAA199000091GF105991999999999999999999KA1240M+03421MA1999999098751MD1999999+0101REMSYN070AAXX  08004 82586 32994 50507 10281 20220 39875 40111 333 10342 58010;EQDQ01  00002PRCP99
0186825860999992000020812004-05200-039300FM-12+021199999V0200901N002610075019N0200001N1+02901+02391101161ADDAA199000091GF106991061041008001001001KA1240N+02441MA1999999098801MD1999999+0051REMSYN076AAXX  08124 82586 32598 60905 10290 20239 39880 40116 86400 333 20244 58005;EQDQ01  00002PRCP99
0167825860999992000020818004-05200-039300FM-12+021199999V0201801N003112200019N0200001N1+03161+01901100911ADDAA199000091GF107991041041008001001041MA1999999098551MD1999999-0031REMSYN070AAXX  08184 82586 32598 71806 10316 20190 39855 40091 84404 333 59003;EQDQ01  00002PRCP99
0201825860999992000020900004-05200-039300FM-12+021199999V0200501N003110075019N0010001N1+02601+02351101131ADDAA106000191AY151061AY221061GF106991061021008001001001KA1240M+03221MA1999999098771MD1999999+0021MW1131REMSYN088AAXX  09004 82586 21594 60506 10260 20235 39877 40113 71352 86200 333 10322 58002 69921;
0201825860999992000020912004-05200-039300FM-12+021199999V0200901N003110075019N0200001N1+02401+02301101251ADDAA124015091AY161061AY251061GF108991081071008001999999KA1240N+02201MA1999999098871MD1999999+0071MW1521REMSYN088AAXX  09124 82586 21598 80906 10240 20230 39887 40125 75265 887// 333 20220 58007 60154;
0182825860999992000020918004-05200-039300FM-12+021199999V0201801N003110450019N0200001N1+03061+01831100871ADDAA106000191AY151061AY221061GF107991041021008001021001MA1999999098511MD1999999-0041MW1031REMSYN082AAXX  09184 82586 21598 71806 10306 20183 39851 40087 70352 84220 333 59004 69921;
0167825860999992000021000004-05200-039300FM-12+021199999V0200501N003112200019N0010001N1+02641+02141101041ADDAA199000021GF104991041021008001001001KA1240M+03101MA1999999098651MD1999999-0121REMSYN076AAXX  10004 82586 32594 40506 10264 20214 39865 40104 84200 333 10310 59012;
0173825860999992000021012004-05200-039300FM-12+021199999V0200901N004110075019N0200001N1+02681+02281101191ADDAA124000191GF106991061041008001001001KA1240N+02321MA1999999098811MD1999999-0061REMSYN082AAXX  10124 82586 22598 60908 10268 20228 39881 40119 86400 333 20232 59006 69924;
0182825860999992000021018004-05200-039300FM-12+021199999V0200501N001510075019N0200001N1+02621+02411100941ADDAA106003091AY161061AY221061GF108991081071008001999999MA1999999098551MD1999999+0041MW1611REMSYN082AAXX  10184 82586 21598 80503 10262 20241 39855 40094 76162 887// 333 58004 60031;
0167825860999992000021100004-05200-039300FM-12+021199999V0200501N002610075019N0200001N1+02661+02291101081ADDAA199000021GF106991061021008001001001KA1240M+03381MA1999999098691MD1999999+0041REMSYN076AAXX  11004 82586 32598 60505 10266 20229 39869 40108 86200 333 10338 58004;
0173825860999992000021112004-05200-039300FM-12+021199999V0201401N003110075019N0200001N1+02761+02281101121ADDAA124002091GF106991061041008001001001KA1240N+02341MA1999999098751MD1999999-0061REMSYN082AAXX  11124 82586 22598 61406 10276 20228 39875 40112 86400 333 20234 59006 60024;
0167825860999992000021118004-05200-039300FM-12+021199999V0201801N003110075019N0200001N1+03361+01771100821ADDAA199000091GF105991051021008001001001MA1999999098481MD1999999-0071REMSYN070AAXX  11184 82586 32598 51806 10336 20177 39848 40082 85200 333 59007;EQDQ01  00002PRCP99
0218825860999992000021200004-05200-039300FM-12+021199999V0200501N003119999999N0010001N1+02711+02261101021ADDAA199000091GF105991051001008001051001KA1240M+03401MA1999999999999MD1999999-0031REMSYN076AAXX  12004 82586 32594 50506 10271 20226 39666 40102 85050 333 10340 59003;EQDQ01+096663APOSP Q02  00002PRCP99Q03 096663APOSP 
0202825860999992000021212004-05200-039300FM-12+021199999V0201401N004119999999N0200001N1+02781+02251101071ADDAA199000091GF106991999011008001001001KA1240N+02401MA1999999098711MD1999999-0041REMSYN076AAXX  12124 82586 32598 61408 10278 20225 39871 40107 82100 333 20240 59004;EQDQ01+000022SCOTLCQ02  00002PRCP99
0167825860999992000021218004-05200-039300FM-12+021199999V0201801N003610075019N0200001N1+03411+01641100661ADDAA199000091GF106991061021008001001001MA1999999098351MD1999999-0131REMSYN070AAXX  12184 82586 32598 61807 10341 20164 39835 40066 86200 333 59013;EQDQ01  00002PRCP99
0214825860999992000021300004-05200-039300FM-12+021199999V0200501N005110075019N0010001N1+02781+02161100921ADDAA199000091AY121061AY221061GF105991051021008001001001KA1240M+03441MA1999999098551MD1999999-0111MW1131REMSYN082AAXX  13004 82586 31594 50510 10278 20216 39855 40092 71322 85200 333 10344 59011;EQDQ01  00002PRCP99
0186825860999992000021312004-05200-039300FM-12+021199999V0201401N003610075019N0200001N1+02681+02161101081ADDAA199000091GF107991071041008001001001KA1240N+02361MA1999999098721MD1999999+0011REMSYN076AAXX  13124 82586 32598 71407 10268 20216 39872 40108 87400 333 20236 58001;EQDQ01  00002PRCP99
0167825860999992000021318004-05200-039300FM-12+021199999V0200901N003110075019N0200001N1+03411+01811100751ADDAA199000091GF106991061021008001001001MA1999999098411MD1999999+0061REMSYN070AAXX  13184 82586 32598 60906 10341 20181 39841 40075 86200 333 58006;EQDQ01  00002PRCP99
0214825860999992000021400004-05200-039300FM-12+021199999V0209999C000010075019N0010001N1+02731+02301101011ADDAA199000091AY121061AY221061GF106991061031008001001001KA1240M+03491MA1999999098651MD1999999+0101MW1131REMSYN082AAXX  14004 82586 31594 60000 10273 20230 39865 40101 71322 86300 333 10349 58010;EQDQ01  00002PRCP99
0186825860999992000021412004-05200-039300FM-12+021199999V0201801N002110075019N0200001N1+02501+02071101191ADDAA199000091GF107991071071008001001001KA1240N+02201MA1999999098811MD1999999+0091REMSYN076AAXX  14124 82586 32598 71804 10250 20207 39881 40119 87700 333 20220 58009;EQDQ01  00002PRCP99
0167825860999992000021418004-05200-039300FM-12+021199999V02099999999990075019N0200001N1+03181+01941100871ADDAA199000091GF106991061021008001001001MA1999999098511MD1999999+0101REMSYN070AAXX  14184 82586 32598 618// 10318 20194 39851 40087 86200 333 58010;EQDQ01  00002PRCP99
0214825860999992000021500004-05200-039300FM-12+021199999V02099999999990075019N0040001N1+02801+02221101081ADDAA199000091AY121061AY221061GF106991061021008001001001KA1240M+03271MA1999999098711MD1999999+0061MW1131REMSYN082AAXX  15004 82586 31596 605// 10280 20222 39871 40108 71322 86200 333 10327 58006;EQDQ01  00002PRCP99
0201825860999992000021512004-05200-039300FM-12+021199999V02099999999990075019N0200001N1+02481+02231101101ADDAA124003091AY161061AY251061GF106991061041008001001001KA1240N+02181MA1999999098731MD1999999-0081MW1031REMSYN088AAXX  15124 82586 21598 618// 10248 20223 39873 40110 70365 86400 333 20218 59008 60034;
0167825860999992000021518004-05200-039300FM-12+021199999V0201801N002111050019N0200001N1+03121+01951100851ADDAA199000091GF106991041021008001001021MA1999999098491MD1999999-0021REMSYN070AAXX  15184 82586 32598 61804 10312 20195 39849 40085 84202 333 59002;EQDQ01  00002PRCP99
0201825860999992000021600004-05200-039300FM-12+021199999V0203601N003110075019N0010001N1+02421+02211101151ADDAA106004191AY161061AY221061GF106991061031008001001001KA1240M+03191MA1999999098751MD1999999+0041MW1131REMSYN088AAXX  16004 82586 21594 63606 10242 20221 39875 40115 71362 86300 333 10319 58004 60041;
0173825860999992000021612004-05200-039300FM-12+021199999V02099999999990075019N0200001N1+02521+02231101151ADDAA124004191GF108991081071008001999999KA1240N+02281MA1999999098751MD1999999+0021REMSYN082AAXX  16124 82586 22598 827// 10252 20223 39875 40115 887// 333 20228 58002 60044;
0167825860999992000021618004-05200-039300FM-12+021199999V02099999999990075019N0200001N1+03321+01851100701ADDAA199000091GF106991061021008001001001MA1999999098351MD1999999-0141REMSYN070AAXX  16184 82586 32598 618// 10332 20185 39835 40070 86200 333 59014;EQDQ01  00002PRCP99
0186825860999992000021712004-05200-039300FM-12+021199999V0200501N002610075019N0200001N1+02761+02401101131ADDAA199000091GF107991071041008001001001KA1240N+02361MA1999999098761MD1999999+0011REMSYN076AAXX  17124 82586 32598 70505 10276 20240 39876 40113 87400 333 20236 58001;EQDQ01  00002PRCP99
0182825860999992000021718004-05200-039300FM-12+021199999V0200501N003110075019N0200001N1+02661+02241100831ADDAA106001091AY191061AY261061GF107991071041008001001001MA1999999098451MD1999999+0101MW1031REMSYN082AAXX  17184 82586 21598 70506 10266 20224 39845 40083 70396 87400 333 58010 60011;
0186825860999992000021800004-05200-039300FM-12+021199999V0200501N002119999999N0010001N1+02561+02211101131ADDAA199000091GF106991061001008001051001KA1240M+03311MA1999999098751MD1999999+0111REMSYN076AAXX  18004 82586 32594 60504 10256 20221 39875 40113 86050 333 10331 58011;EQDQ01  00002PRCP99
0201825860999992000021812004-05200-039300FM-12+021199999V0201801N001510075019N0200001N1+02501+02361101161ADDAA124002091AY151061AY221061GF106991061041008001001001KA1240N+02261MA1999999098781MD1999999+0021MW1031REMSYN088AAXX  18124 82586 21598 61803 10250 20236 39878 40116 70352 86400 333 20226 58002 60024;
0167825860999992000021818004-05200-039300FM-12+021199999V0201801N003110075019N0200001N1+03061+02171100811ADDAA199000091GF107991071041008001001001MA1999999098451MD1999999+0001REMSYN070AAXX  18184 82586 32598 71806 10306 20217 39845 40081 87400 333 58000;EQDQ01  00002PRCP99
0214825860999992000021900004-05200-039300FM-12+021199999V0201801N000510075019N0010001N1+02521+02311101111ADDAA199000091AY121061AY221061GF107991071031008001001001KA1240M+03101MA1999999098721MD1999999-0031MW1131REMSYN082AAXX  19004 82586 31594 71801 10252 20231 39872 40111 71322 87300 333 10310 59003;EQDQ01  00002PRCP99
0201825860999992000021912004-05200-039300FM-12+021199999V0201801N001512200019N0200001N1+02561+02421101151ADDAA124022191AY191061AY261061GF105991031021008001001041KA1240N+02141MA1999999098751MD1999999-0031MW1031REMSYN088AAXX  19124 82586 21598 51803 10256 20242 39875 40115 70396 83204 333 20214 59003 60224;
0167825860999992000021918004-05200-039300FM-12+021199999V02099999999991050019N0200001N1+03161+02121100861ADDAA199000091GF106991031021008001001021MA1999999098501MD1999999+0051REMSYN070AAXX  19184 82586 32598 618// 10316 20212 39850 40086 83202 333 58005;EQDQ01  00002PRCP99
0180825860999992000022000004-05200-039300FM-12+021199999V02099999999999999999N0010001N1+02641+02331101061ADDAA199000091GF105991999999999999999999KA1240M+03181MA1999999098691MD1999999-0031REMSYN070AAXX  20004 82586 32994 505// 10264 20233 39869 40106 333 10318 59003;EQDQ01  00002PRCP99
0186825860999992000022012004-05200-039300FM-12+021199999V0201801N001510075019N0200001N1+02541+02441101221ADDAA199000091GF108991081051008001999999KA1240N+02281MA1999999098851MD1999999+0101REMSYN076AAXX  20124 82586 32598 81803 10254 20244 39885 40122 885// 333 20228 58010;EQDQ01  00002PRCP99
0167825860999992000022018004-05200-039300FM-12+021199999V0203201N002610075019N0200001N1+02721+02281100931ADDAA199000091GF106991061021008001001001MA1999999098551MD1999999+0051REMSYN070AAXX  20184 82586 32598 63205 10272 20228 39855 40093 86200 333 58005;EQDQ01  00002PRCP99
0201825860999992000022100004-05200-039300FM-12+021199999V0203601N001510075019N0010001N1+02351+02271101161ADDAA106008991AY191061AY261061GF108991081071008001999999KA1240M+03111MA1999999098761MD1999999+0071MW1031REMSYN088AAXX  21004 82586 21594 83603 10235 20227 39876 40116 70396 887// 333 10311 58007 60091;
0167825860999992000022118004-05200-039300FM-12+021199999V0201401N003110075019N0200001N1+03081+02161100861ADDAA199000091GF106991061041008001001001MA1999999098501MD1999999-0051REMSYN070AAXX  21184 82586 32598 61406 10308 20216 39850 40086 86400 333 59005;EQDQ01  00002PRCP99
0214825860999992000022200004-05200-039300FM-12+021199999V0203601N003110075019N0200001N1+02521+02231101051ADDAA199000091AY121061AY221061GF106991061031008001001001KA1240M+03121MA1999999098661MD1999999-0101MW1131REMSYN082AAXX  22004 82586 31598 63606 10252 20223 39866 40105 71322 86300 333 10312 59010;EQDQ01  00002PRCP99
0186825860999992000022212004-05200-039300FM-12+021199999V0200501N001510075019N0200001N1+02641+02311101131ADDAA199000091GF106991061041008001001001KA1240N+02231MA1999999098751MD1999999-0081REMSYN076AAXX  22124 82586 32598 60503 10264 20231 39875 40113 86400 333 20223 59008;EQDQ01  00002PRCP99
0167825860999992000022218004-05200-039300FM-12+021199999V0202301N002610075019N0200001N1+02801+02381100871ADDAA199000091GF106991061071008001001001MA1999999098491MD1999999-0011REMSYN070AAXX  22184 82586 32598 62305 10280 20238 39849 40087 86700 333 59001;EQDQ01  00002PRCP99
0201825860999992000022300004-05200-039300FM-12+021199999V0200501N001010075019N0010001N1+02401+02231101191ADDAA106003091AY191061AY261061GF108991081071008001999999KA1240M+03111MA1999999098801MD1999999+0141MW1031REMSYN088AAXX  23004 82586 21594 80502 10240 20223 39880 40119 70396 887// 333 10311 58014 60031;
0173825860999992000022312004-05200-039300FM-12+021199999V0202701N001512200019N0200001N1+02521+02331101171ADDAA124003091GF104991041021008001001001KA1240N+02161MA1999999098781MD1999999+0031REMSYN082AAXX  23124 82586 22598 42703 10252 20233 39878 40117 84200 333 20216 58003 60034;
0186825860999992000022400004-05200-039300FM-12+021199999V0200501N001010075019N0010001N1+02541+02451101071ADDAA199000091GF108991081071008001999999KA1240M+03221MA1999999098691MD1999999+0111REMSYN076AAXX  24004 82586 32594 80502 10254 20245 39869 40107 887// 333 10322 58011;EQDQ01  00002PRCP99
0186825860999992000022412004-05200-039300FM-12+021199999V0200901N001510075019N0200001N1+02621+02371101041ADDAA199000091GF108991081071008001999999KA1240N+02301MA1999999098671MD1999999-0111REMSYN076AAXX  24124 82586 32598 80903 10262 20237 39867 40104 887// 333 20230 59011;EQDQ01  00002PRCP99
0195825860999992000022418004-05200-039300FM-12+021199999V0203601N002610075019N0200001N1+03151+02181100811ADDAA199000091AY121061AY221061GF106991061071008001001001MA1999999098451MD1999999+0001MW1131REMSYN076AAXX  24184 82586 31598 63605 10315 20218 39845 40081 71322 86700 333 58000;EQDQ01  00002PRCP99
0214825860999992000022500004-05200-039300FM-12+021199999V0203601N001510075019N0010001N1+02521+02311101031ADDAA199000091AY121061AY221061GF106991061021008001001001KA1240M+03191MA1999999098651MD1999999-0041MW1131REMSYN082AAXX  25004 82586 31594 63603 10252 20231 39865 40103 71322 86200 333 10319 59004;EQDQ01  00002PRCP99
0173825860999992000022512004-05200-039300FM-12+021199999V0200501N005110075019N0200001N1+02621+02311101101ADDAA124001091GF106991061041008001001001KA1240N+02221MA1999999098721MD1999999+0051REMSYN082AAXX  25124 82586 22598 60510 10262 20231 39872 40110 86400 333 20222 58005 60014;
0167825860999992000022518004-05200-039300FM-12+021199999V0203601N003110075019N0200001N1+02901+02201100931ADDAA199000091GF106991061041008001001001MA1999999098551MD1999999+0101REMSYN070AAXX  25184 82586 32598 63606 10290 20220 39855 40093 86400 333 58010;EQDQ01  00002PRCP99
0186825860999992000022600004-05200-039300FM-12+021199999V0203601N001510075019N0010001N1+02561+02291101041ADDAA199000091GF106991061041008001001001KA1240M+03151MA1999999098671MD1999999+0021REMSYN076AAXX  26004 82586 32594 63603 10256 20229 39867 40104 86400 333 10315 58002;EQDQ01  00002PRCP99
0186825860999992000022612004-05200-039300FM-12+021199999V0200501N004112200019N0010001N1+02741+02401101151ADDAA199000091GF104991041021008001001001KA1240N+02241MA1999999098771MD1999999+0051REMSYN076AAXX  26124 82586 32594 40508 10274 20240 39877 40115 84200 333 20224 58005;EQDQ01  00002PRCP99
0182825860999992000022618004-05200-039300FM-12+021199999V0200501N001010075019N0200001N1+02321+02151100961ADDAA106005191AY191061AY261061GF108991081091008001999999MA1999999098561MD1999999+0011MW1151REMSYN082AAXX  26184 82586 21598 80502 10232 20215 39856 40096 71596 889// 333 58001 60051;
0201825860999992000022700004-05200-039300FM-12+021199999V0203601N001010075019N0010001N1+02221+02081101141ADDAA106002091AY161061AY221061GF108991081071008001999999KA1240M+03221MA1999999098751MD1999999+0081MW1031REMSYN088AAXX  27004 82586 21594 83602 10222 20208 39875 40114 70362 887// 333 10322 58008 60021;
0192825860999992000022712004-05200-039300FM-12+021199999V0201401N002619999999N0200001N1+02411+02241101141ADDAA124007191GF105991999051008001999999KA1240N+02181MA1999999098741MD1999999-0031REMSYN082AAXX  27124 82586 22598 51405 10241 20224 39874 40114 885// 333 20218 59003 60074;EQDQ01+000082SCOTLC
0167825860999992000022718004-05200-039300FM-12+021199999V02099999999990075019N0200001N1+03151+02071100831ADDAA199000091GF106991061021008001001001MA1999999098471MD1999999-0091REMSYN070AAXX  27184 82586 32598 605// 10315 20207 39847 40083 86200 333 59009;EQDQ01  00002PRCP99
0201825860999992000022800004-05200-039300FM-12+021199999V0203601N001510075019N0010001N1+02331+02181101071ADDAA106008991AY191061AY261061GF108991081051008001999999KA1240M+03171MA1999999098671MD1999999-0081MW1131REMSYN088AAXX  28004 82586 21594 83603 10233 20218 39867 40107 71396 885// 333 10317 59008 60091;
0201825860999992000022812004-05200-039300FM-12+021199999V0200501N003110075019N0200001N1+02621+02481101081ADDAA124010991AY161061AY251061GF106991061071008001001001KA1240N+02231MA1999999098691MD1999999-0051MW1031REMSYN088AAXX  28124 82586 21598 60506 10262 20248 39869 40108 70365 86700 333 20223 59005 60114;
0167825860999992000022818004-05200-039300FM-12+021199999V0200501N004112200019N0200001N1+03141+02071100851ADDAA199000091GF104991041021008001001001MA1999999098491MD1999999+0021REMSYN070AAXX  28184 82586 32598 40508 10314 20207 39849 40085 84200 333 58002;EQDQ01  00002PRCP99
0196825860999992000022900004-05200-039300FM-12+021199999V0209999C000012200019N0010001N1+02631+02181100991ADDAA199000091GA1001+999999999GF100991001001999999001001KA1240M+03161MA1999999098621MD1999999-0051REMSYN070AAXX  29004 82586 32594 00000 10263 20218 39862 40099 333 10316 59005;EQDQ01  00002PRCP99
0186825860999992000022912004-05200-039300FM-12+021199999V0203601N003610450019N0200001N1+02681+02451101231ADDAA199000091GF106991031021008001051001KA1240N+02441MA1999999098851MD1999999+0141REMSYN076AAXX  29124 82586 32598 63607 10268 20245 39885 40123 83250 333 20244 58014;EQDQ01  00002PRCP99
0182825860999992000022918004-05200-039300FM-12+021199999V0203601N003110450019N0200001N1+02601+02191100961ADDAA106000591AY151061AY221061GF106991031041008001021001MA1999999098571MD1999999+0081MW1031REMSYN082AAXX  29184 82586 21598 63606 10260 20219 39857 40096 70352 83420 333 58008 69961;
0214825860999992000030100004-05200-039300FM-12+021199999V0209999C000010075019N0010001N1+02541+02251101161ADDAA199000091AY121061AY221061GF106991061031008001001001KA1240M+03031MA1999999098781MD1999999+0161MW1131REMSYN082AAXX  01004 82586 31594 60000 10254 20225 39878 40116 71322 86300 333 10303 58016;EQDQ01  00002PRCP99
0173825860999992000030112004-05200-039300FM-12+021199999V0200901N003110075019N0200001N1+02701+02461101211ADDAA124000591GF107991071041008001001001KA1240N+02321MA1999999098831MD1999999-0021REMSYN082AAXX  01124 82586 22598 70906 10270 20246 39883 40121 87400 333 20232 59002 69964;
0182825860999992000030118004-05200-039300FM-12+021199999V0203601N001510075019N0200001N1+02921+02581100921ADDAA106000591AY151061AY221061GF106991061021008001001001MA1999999098561MD1999999-0011MW1031REMSYN082AAXX  01184 82586 21598 63603 10292 20258 39856 40092 70352 86200 333 59001 69951;
0214825860999992000030200004-05200-039300FM-12+021199999V0209999C000010075019N0010001N1+02521+02311101131ADDAA199000091AY121061AY221061GF108991081091008001999999KA1240M+03191MA1999999098751MD1999999-0031MW1131REMSYN082AAXX  02004 82586 31594 80000 10252 20231 39875 40113 71322 889// 333 10319 59003;EQDQ01  00002PRCP99
0201825860999992000030212004-05200-039300FM-12+021199999V0200501N002610075019N0200001N1+02541+02491101131ADDAA124005191AY161061AY251061GF108991081071008001999999KA1240N+02301MA1999999098751MD1999999-0081MW1031REMSYN088AAXX  02124 82586 21598 80505 10254 20249 39875 40113 70365 887// 333 20230 59008 60054;
0182825860999992000030218004-05200-039300FM-12+021199999V0201801N003610075019N0200001N1+02661+02571100921ADDAA106007991AY161061AY261061GF106991061041008001001001MA1999999098531MD1999999-0031MW1611REMSYN082AAXX  02184 82586 21598 61807 10266 20257 39853 40092 76166 86400 333 59003 60081;
0201825860999992000030300004-05200-039300FM-12+021199999V0203601N000510075019N0010001N1+02491+02271101081ADDAA106002091AY161061AY221061GF108991081071008001999999KA1240M+02971MA1999999098691MD1999999-0061MW1031REMSYN088AAXX  03004 82586 21594 83601 10249 20227 39869 40108 70362 887// 333 10297 59006 60021;
0201825860999992000030312004-05200-039300FM-12+021199999V0200501N002610075019N0200001N1+02681+02331101131ADDAA124014091AY161061AY221061GF106991061041008001001001KA1240N+02321MA1999999098751MD1999999+0001MW1031REMSYN088AAXX  03124 82586 21598 60505 10268 20233 39875 40113 70362 86400 333 20232 58000 60144;
0167825860999992000030318004-05200-039300FM-12+021199999V02099999999991050019N0200001N1+03141+02071100841ADDAA199000091GF106991031021008001001021MA1999999098481MD1999999-0051REMSYN070AAXX  03184 82586 32598 605// 10314 20207 39848 40084 83202 333 59005;EQDQ01  00002PRCP99
0186825860999992000030400004-05200-039300FM-12+021199999V0203601N005112200019N0010001N1+02671+02311101001ADDAA199000091GF102991021011008001001001KA1240M+03171MA1999999098681MD1999999-0051REMSYN076AAXX  04004 82586 32594 23610 10267 20231 39868 40100 82100 333 10317 59005;EQDQ01  00002PRCP99
0201825860999992000030412004-05200-039300FM-12+021199999V0200501N004610075019N0200001N1+02661+02311101151ADDAA124035191AY161061AY261061GF106991061041008001001001KA1240N+02201MA1999999098781MD1999999+0031MW1031REMSYN088AAXX  04124 82586 21598 60509 10266 20231 39878 40115 70366 86400 333 20220 58003 60354;
0167825860999992000030418004-05200-039300FM-12+021199999V0200501N002111050019N0200001N1+03141+02071100911ADDAA199000091GF106991031021008001001021MA1999999098551MD1999999+0071REMSYN070AAXX  04184 82586 32598 60504 10314 20207 39855 40091 83202 333 58007;EQDQ01  00002PRCP99
0186825860999992000030500004-05200-039300FM-12+021199999V0203601N003112200019N0010001N1+02631+02311101021ADDAA199000091GF102991021021008001001001KA1240M+03171MA1999999098651MD1999999+0011REMSYN076AAXX  05004 82586 32594 23606 10263 20231 39865 40102 82200 333 10317 58001;EQDQ01  00002PRCP99
0202825860999992000030512004-05200-039300FM-12+021199999V0200601N002119999999N0200001N1+02611+02331101161ADDAA199000091GF105991999041008001001001KA1240N+02351MA1999999098781MD1999999+0001REMSYN076AAXX  05124 82586 32598 50604 10261 20233 39878 40116 86400 333 20235 58000;EQDQ01+000062SCOTLCQ02  00002PRCP99
0167825860999992000030518004-05200-039300FM-12+021199999V0200501N003610075019N0200001N1+03141+02161100861ADDAA199000091GF106991061021008001001001MA1999999098511MD1999999-0041REMSYN070AAXX  05184 82586 32598 60507 10314 20216 39851 40086 86200 333 59004;EQDQ01  00002PRCP99
0202825860999992000030600004-05200-039300FM-12+021199999V0201801N001019999999N0010001N1+02711+02261100981ADDAA199000091GF105991999021008001001001KA1240M+03201MA1999999098621MD1999999-0031REMSYN076AAXX  06004 82586 32594 51802 10271 20226 39862 40098 84200 333 10320 59003;EQDQ01+000042SCOTLCQ02  00002PRCP99
0186825860999992000030612004-05200-039300FM-12+021199999V0200501N004111050019N0200001N1+02741+02381101141ADDAA199000091GF106991041021008001001021KA1240N+02481MA1999999098771MD1999999-0011REMSYN076AAXX  06124 82586 32598 60508 10274 20238 39877 40114 84202 333 20248 59001;EQDQ01  00002PRCP99
0167825860999992000030618004-05200-039300FM-12+021199999V0200501N003111050019N0200001N1+03131+02051100861ADDAA199000091GF106991031021008001001051MA1999999098511MD1999999+0001REMSYN070AAXX  06184 82586 32598 60506 10313 20205 39851 40086 83205 333 58000;EQDQ01  00002PRCP99
0196825860999992000030700004-05200-039300FM-12+021199999V0209999C000012200019N0010001N1+02671+02331101031ADDAA199000091GA1001+999999999GF100991001001999999001001KA1240M+03191MA1999999098671MD1999999+0051REMSYN070AAXX  07004 82586 32994 00000 10267 20233 39867 40103 333 10319 58005;EQDQ01  00002PRCP99
0186825860999992000030712004-05200-039300FM-12+021199999V0200501N003110075019N0200001N1+02881+02281101051ADDAA199000091GF106991061041008001001001KA1240N+02461MA1999999098691MD1999999-0081REMSYN076AAXX  07124 82586 32598 60506 10288 20228 39869 40105 86400 333 20246 59008;EQDQ01  00002PRCP99
0183825860999992000030718004-05200-039300FM-12+021199999V0200501N003119999999N0200001N1+03061+02081100841ADDAA199000091GF106991001001999999001041MA1999999098491MD1999999-0021REMSYN070AAXX  07184 82586 32598 60506 10306 20208 39849 40084 80004 333 59002;EQDQ01+008002SCOLCBQ02  00002PRCP99
0186825860999992000030800004-05200-039300FM-12+021199999V0200501N001512200019N0010001N1+02641+02291100951ADDAA199000091GF104991041001012501051001KA1240M+03171MA1999999098591MD1999999-0081REMSYN076AAXX  08004 82586 32694 40503 10264 20229 39859 40095 84050 333 10317 59008;EQDQ01  00002PRCP99
0186825860999992000030812004-05200-039300FM-12+021199999V0200501N003610075019N0200001N1+02661+02441101071ADDAA199000091GF107991071071008001001001KA1240N+02321MA1999999098701MD1999999+0011REMSYN076AAXX  08124 82586 32598 70507 10266 20244 39870 40107 87700 333 20232 58001;EQDQ01  00002PRCP99
0195825860999992000030818004-05200-039300FM-12+021199999V0200501N005710450019N0200001N1+03041+02281100811ADDAA199000091AY121061AY221061GF108991041041008001021999MA1999999098451MD1999999-0041MW1151REMSYN076AAXX  08184 82586 31598 80511 10304 20228 39845 40081 71522 8442/ 333 59004;EQDQ01  00002PRCP99
0186825860999992000030900004-05200-039300FM-12+021199999V0200501N002610120019N0010001N1+02621+02311101041ADDAA199000091GF106991061001012501021001KA1240M+03191MA1999999098671MD1999999+0081REMSYN076AAXX  09004 82586 32694 60505 10262 20231 39867 40104 86020 333 10319 58008;EQDQ01  00002PRCP99
0182825860999992000030918004-05200-039300FM-12+021199999V0203601N001510075019N0200001N1+02621+02411100841ADDAA106000191AY151061AY221061GF108991081071008001999999MA1999999098471MD1999999+0021MW1151REMSYN082AAXX  09184 82586 21598 83603 10262 20241 39847 40084 71552 887// 333 58002 69921;
0186825860999992000031000004-05200-039300FM-12+021199999V0203601N001510075019N0010001N1+02541+02271100991ADDAA199000091GF106991061021008001001001KA1240M+03201MA1999999098631MD1999999-0041REMSYN076AAXX  10004 82586 32594 63603 10254 20227 39863 40099 86200 333 10320 59004;EQDQ01  00002PRCP99
0173825860999992000031012004-05200-039300FM-12+021199999V0200501N002610075019N0200001N1+02641+02421101151ADDAA124000191GF106991061041008001001001KA1240N+02361MA1999999098771MD1999999+0021REMSYN082AAXX  10124 82586 22598 60505 10264 20242 39877 40115 86400 333 20236 58002 69924;
0182825860999992000031018004-05200-039300FM-12+021199999V0203601N001510075019N0200001N1+02381+02241100951ADDAA106015091AY191061AY261061GF108991081071008001999999MA1999999098551MD1999999+0081MW1151REMSYN082AAXX  10184 82586 21598 83603 10238 20224 39855 40095 71596 887// 333 58008 60151;
0186825860999992000031100004-05200-039300FM-12+021199999V0201401N001010075019N0200001N1+02421+02301101161ADDAA199000091GF108991081071008001999999KA1240M+03161MA1999999098781MD1999999+0151REMSYN076AAXX  11004 82586 32598 81402 10242 20230 39878 40116 887// 333 10316 58015;EQDQ01  00002PRCP99
0175825860999992000031112004-05200-039300FM-12+021199999V02099999999999999999N0200001N1+02661+02411101101ADDGF107991999071008001001001KA1240N+02351MA1999999098721MD1999999-0061REMSYN076AAXX  11124 82586 22598 705// 10266 20241 39872 40110 89700 333 20235 59006;EQDQ01+000092SCOTLC
0183825860999992000031118004-05200-039300FM-12+021199999V0200501N003119999999N0200001N1+03181+02131100841ADDAA199000091GF106991999021008001001001MA1999999098491MD1999999-0061REMSYN070AAXX  11184 82586 32598 60506 10318 20213 39849 40084 83200 333 59006;EQDQ01+000032SCOTLCQ02  00002PRCP99
0196825860999992000031200004-05200-039300FM-12+021199999V0203201N002612200019N0010001N1+02601+02171100911ADDAA199000091GA1001+999999999GF100991001001999999001001KA1240M+03201MA1999999098551MD1999999-0231REMSYN070AAXX  12004 82586 32994 03205 10260 20217 39855 40091 333 10320 59023;EQDQ01  00002PRCP99
0186825860999992000031212004-05200-039300FM-12+021199999V0200501N004610075019N0200001N1+02721+02241101021ADDAA199000091GF106991061041008001001001KA1240N+02401MA1999999098651MD1999999-0071REMSYN076AAXX  12124 82586 32598 60509 10272 20224 39865 40102 86400 333 20240 59007;EQDQ01  00002PRCP99
0167825860999992000031218004-05200-039300FM-12+021199999V0200501N001512200019N0200001N1+03181+02041100731ADDAA199000091GF104991041021008001001001MA1999999098391MD1999999-0101REMSYN070AAXX  12184 82586 32598 40503 10318 20204 39839 40073 84200 333 59010;EQDQ01  00002PRCP99
0196825860999992000031300004-05200-039300FM-12+021199999V0209999C000012200019N0010001N1+02641+02271100881ADDAA199000091GA1001+999999999GF100991001001999999001001KA1240M+03201MA1999999098521MD1999999-0031REMSYN070AAXX  13004 82586 32994 00000 10264 20227 39852 40088 333 10320 59003;EQDQ01  00002PRCP99
0186825860999992000031312004-05200-039300FM-12+021199999V0203601N003110075019N0200001N1+02741+02401100981ADDAA199000091GF105991051021008001001001KA1240N+02301MA1999999098621MD1999999-0031REMSYN076AAXX  13124 82586 32598 53606 10274 20240 39862 40098 85200 333 20230 59003;EQDQ01  00002PRCP99
0177825860999992000031318004-05200-039300FM-12+021199999V0200501N003612200019N0200001N1+03241+02221100711ADDAA199000091GA1001+999999999GF100991001001999999001001MA1999999098351MD1999999-0041REMSYN064AAXX  13184 82586 32598 00507 10324 20222 39835 40071 333 59004;EQDQ01  00002PRCP99
0214825860999992000031400004-05200-039300FM-12+021199999V0200501N003110075019N0010001N1+02651+02271101011ADDAA199000091AY121061AY221061GF106991061021008001001001KA1240M+03201MA1999999098651MD1999999+0131MW1131REMSYN082AAXX  14004 82586 31594 60506 10265 20227 39865 40101 71322 86200 333 10320 58013;EQDQ01  00002PRCP99
0186825860999992000031412004-05200-039300FM-12+021199999V0203601N002610075019N0200001N1+02761+02461101051ADDAA199000091GF108991051071008001021999KA1240N+02381MA1999999098691MD1999999+0071REMSYN076AAXX  14124 82586 32598 83605 10276 20246 39869 40105 8572/ 333 20238 58007;EQDQ01  00002PRCP99
0167825860999992000031418004-05200-039300FM-12+021199999V0200501N004110075019N0200001N1+02901+02201100811ADDAA199000091GF108991081071008001999999MA1999999098451MD1999999+0101REMSYN070AAXX  14184 82586 32598 80508 10290 20220 39845 40081 887// 333 58010;EQDQ01  00002PRCP99
0180825860999992000031500004-05200-039300FM-12+021199999V0200501N003119999999N0010001N1+02631+02251101051ADDAA199000091GF106991999999999999999999KA1240M+03231MA1999999098691MD1999999+0041REMSYN070AAXX  15004 82586 32994 60506 10263 20225 39869 40105 333 10323 58004;EQDQ01  00002PRCP99
0182825860999992000031518004-05200-039300FM-12+021199999V0200501N003112200019N0200001N1+02401+02201100851ADDAA106000591AY161061AY221061GF104991041021008001001001MA1999999098491MD1999999+0041MW1031REMSYN082AAXX  15184 82586 21598 40506 10240 20220 39849 40085 70362 84200 333 58004 69961;
0196825860999992000031600004-05200-039300FM-12+021199999V02099999999992200019N0010001N1+02601+02121101061ADDAA199000091GA1001+999999999GF100991001001999999001001KA1240M+03301MA1999999098701MD1999999+0011REMSYN070AAXX  16004 82586 32994 036// 10260 20212 39870 40106 333 10330 58001;EQDQ01  00002PRCP99
0173825860999992000031612004-05200-039300FM-12+021199999V0200501N004110075019N0200001N1+02741+02261101081ADDAA124000591GF106991061041008001001001KA1240N+02321MA1999999098721MD1999999-0041REMSYN082AAXX  16124 82586 22598 60508 10274 20226 39872 40108 86400 333 20232 59004 69964;
0167825860999992000031618004-05200-039300FM-12+021199999V02099999999992200019N0200001N1+03261+01911100771ADDAA199000091GF104991041021008001001001MA1999999098731MD1999999-0061REMSYN070AAXX  16184 82586 32598 436// 10326 20191 39873 40077 84200 333 59006;EQDQ01  00002PRCP99
0196825860999992000031700004-05200-039300FM-12+021199999V0203601N003612200019N0010001N1+02701+02171100981ADDAA199000091GA1001+999999999GF100991001001999999001001KA1240M+03331MA1999999098621MD1999999-0081REMSYN070AAXX  17004 82586 32994 03607 10270 20217 39862 40098 333 10333 59008;EQDQ01  00002PRCP99
0186825860999992000031712004-05200-039300FM-12+021199999V0200501N005110075019N0200001N1+02731+02191101061ADDAA199000091GF106991061041008001001001KA1240N+02321MA1999999098701MD1999999-0021REMSYN076AAXX  17124 82586 32598 60510 10273 20219 39870 40106 86400 333 20232 59002;EQDQ01  00002PRCP99
0167825860999992000031718004-05200-039300FM-12+021199999V0200501N002110075019N0200001N1+03261+01841100711ADDAA199000091GF105991051021008001001001MA1999999098371MD1999999-0061REMSYN070AAXX  17184 82586 32598 50504 10326 20184 39837 40071 85200 333 59006;EQDQ01  00002PRCP99
0186825860999992000031800004-05200-039300FM-12+021199999V0203601N001012200019N0010001N1+02801+02301100811ADDAA199000091GF104991041021012501001001KA1240M+03301MA1999999098511MD1999999+0001REMSYN076AAXX  18004 82586 32694 43602 10280 20230 39851 40081 84200 333 10330 58000;EQDQ01  00002PRCP99
0201825860999992000031812004-05200-039300FM-12+021199999V0200501N002610075019N0200001N1+02721+02561101011ADDAA124015091AY161061AY261061GF107991071041008001001001KA1240N+02301MA1999999098651MD1999999-0051MW1031REMSYN088AAXX  18124 82586 21598 70505 10272 20256 39865 40101 70366 87400 333 20230 59005 60154;
0167825860999992000031818004-05200-039300FM-12+021199999V0203601N001510075019N0200001N1+02931+02451100771ADDAA199000091GF106991061071008001001001MA1999999098411MD1999999+0041REMSYN070AAXX  18184 82586 32598 63603 10293 20245 39841 40077 86700 333 58004;EQDQ01  00002PRCP99
0180825860999992000031900004-05200-039300FM-12+021199999V0203601N001019999999N0010001N1+02421+02191100931ADDAA199000091GF106991999999999999999999KA1240M+03231MA1999999098551MD1999999+0041REMSYN070AAXX  19004 82586 32994 63602 10242 20219 39855 40093 333 10323 58004;EQDQ01  00002PRCP99
0186825860999992000031912004-05200-039300FM-12+021199999V0200501N002610075019N0200001N1+02761+02401101001ADDAA199000091GF106991061021008001001001KA1240N+02321MA1999999098631MD1999999-0021REMSYN076AAXX  19124 82586 32598 60505 10276 20240 39863 40100 86200 333 20232 59002;EQDQ01  00002PRCP99
0167825860999992000031918004-05200-039300FM-12+021199999V0203601N005110075019N0200001N1+02991+01891100711ADDAA199000091GF106991061021008001001001MA1999999098351MD1999999-0061REMSYN070AAXX  19184 82586 32598 63610 10299 20189 39835 40071 86200 333 59006;EQDQ01  00002PRCP99
0186825860999992000032000004-05200-039300FM-12+021199999V0201801N000510075019N0010001N1+02531+02311100911ADDAA199000091GF105991051051008001001001KA1240M+03321MA1999999098551MD1999999+0001REMSYN076AAXX  20004 82586 32594 51801 10253 20231 39855 40091 85500 333 10332 58000;EQDQ01  00002PRCP99
0167825860999992000032018004-05200-039300FM-12+021199999V0201801N003110075019N0200001N1+03301+02041100691ADDAA199000091GF106991061041008001001001MA1999999098341MD1999999-0011REMSYN070AAXX  20184 82586 32598 61806 10330 20204 39834 40069 86400 333 59001;EQDQ01  00002PRCP99
0196825860999992000032100004-05200-039300FM-12+021199999V02099999999992200019N0010001N1+02731+02451100841ADDAA199000091GA1001+999999999GF100991001001999999001001KA1240M+03381MA1999999098481MD1999999-0071REMSYN070AAXX  21004 82586 32994 036// 10273 20245 39848 40084 333 10338 59007;EQDQ01  00002PRCP99
0186825860999992000032112004-05200-039300FM-12+021199999V02099999999990075019N0200001N1+02761+02341100951ADDAA199000091GF106991061041008001001001KA1240N+02481MA1999999098591MD1999999-0061REMSYN076AAXX  21124 82586 32598 605// 10276 20234 39859 40095 86400 333 20248 59006;EQDQ01  00002PRCP99
0167825860999992000032118004-05200-039300FM-12+021199999V02099999999992200019N0200001N1+03321+01881100621ADDAA199000091GF104991041021008001001001MA1999999098281MD1999999-0061REMSYN070AAXX  21184 82586 32598 405// 10332 20188 39828 40062 84200 333 59006;EQDQ01  00002PRCP99
0196825860999992000032200004-05200-039300FM-12+021199999V02099999999992200019N0010001N1+02671+02431100831ADDAA199000091GA1001+999999999GF100991001001999999001001KA1240M+03351MA1999999098471MD1999999-0011REMSYN070AAXX  22004 82586 32994 036// 10267 20243 39847 40083 333 10335 59001;EQDQ01  00002PRCP99
0186825860999992000032212004-05200-039300FM-12+021199999V0200901N003612200019N0200001N1+02861+02061100971ADDAA199000091GF104991041021008001001001KA1240N+02361MA1999999098611MD1999999+0021REMSYN076AAXX  22124 82586 32598 40907 10286 20206 39861 40097 84200 333 20236 58002;EQDQ01  00002PRCP99
0167825860999992000032218004-05200-039300FM-12+021199999V0203601N003110075019N0200001N1+03421+01781100651ADDAA199000091GF106991061021008001001001MA1999999098311MD1999999+0031REMSYN070AAXX  22184 82586 32598 63606 10342 20178 39831 40065 86200 333 58003;EQDQ01  00002PRCP99
0186825860999992000032300004-05200-039300FM-12+021199999V0203601N003112200019N0010001N1+02821+02361100801ADDAA199000091GF104991041001012501051001KA1240M+03441MA1999999098451MD1999999-0021REMSYN076AAXX  23004 82586 32694 43606 10282 20236 39845 40080 84050 333 10344 59002;EQDQ01  00002PRCP99
0186825860999992000032312004-05200-039300FM-12+021199999V0200901N003612200019N0200001N1+02821+02331100911ADDAA199000091GF104991041021008001001001KA1240N+02441MA1999999098551MD1999999-0061REMSYN076AAXX  23124 82586 32598 40907 10282 20233 39855 40091 84200 333 20244 59006;EQDQ01  00002PRCP99
0167825860999992000032318004-05200-039300FM-12+021199999V02099999999990075019N0200001N1+03371+02071100661ADDAA199000091GF106991061041008001001001MA1999999098321MD1999999+0011REMSYN070AAXX  23184 82586 32598 605// 10337 20207 39832 40066 86400 333 58001;EQDQ01  00002PRCP99
0186825860999992000032400004-05200-039300FM-12+021199999V0203601N003112200019N0010001N1+02721+02431100871ADDAA199000091GF102991021011012501001001KA1240M+03421MA1999999098511MD1999999+0061REMSYN076AAXX  24004 82586 32694 23606 10272 20243 39851 40087 82100 333 10342 58006;EQDQ01  00002PRCP99
0186825860999992000032412004-05200-039300FM-12+021199999V02099999999990075019N0200001N1+02901+02201101011ADDAA199000091GF105991051021008001001001KA1240N+02521MA1999999098651MD1999999+0101REMSYN076AAXX  24124 82586 32598 509// 10290 20220 39865 40101 85200 333 20252 58010;EQDQ01  00002PRCP99
0167825860999992000032418004-05200-039300FM-12+021199999V0200901N003110075019N0200001N1+03411+02001100661ADDAA199000091GF106991061021008001001001MA1999999098331MD1999999+0011REMSYN070AAXX  24184 82586 32598 60906 10341 20200 39833 40066 86200 333 58001;EQDQ01  00002PRCP99
0201825860999992000032500004-05200-039300FM-12+021199999V0203601N003110075019N0010001N1+02681+02561100911ADDAA106003091AY161061AY221061GF106991061031008001001001KA1240M+03461MA1999999098551MD1999999+0041MW1131REMSYN088AAXX  25004 82586 21594 63606 10268 20256 39855 40091 71362 86300 333 10346 58004 60031;
0201825860999992000032512004-05200-039300FM-12+021199999V0200901N001010075019N0200001N1+02461+02341101071ADDAA124011991AY161061AY251061GF108991081071008001999999KA1240N+02101MA1999999098701MD1999999+0051MW1031REMSYN088AAXX  25124 82586 21598 80902 10246 20234 39870 40107 70365 887// 333 20210 58005 60124;
0167825860999992000032518004-05200-039300FM-12+021199999V02099999999990075019N0200001N1+03121+02171100741ADDAA199000091GF106991061041008001001001MA1999999098371MD1999999+0041REMSYN070AAXX  25184 82586 32598 609// 10312 20217 39837 40074 86400 333 58004;EQDQ01  00002PRCP99
0214825860999992000032600004-05200-039300FM-12+021199999V0200501N001510075019N0010001N1+02601+02511100881ADDAA199000091AY121061AY221061GF108991081091008001999999KA1240M+03141MA1999999098521MD1999999-0031MW1131REMSYN082AAXX  26004 82586 31594 80503 10260 20251 39852 40088 71322 889// 333 10314 59003;EQDQ01  00002PRCP99
0201825860999992000032612004-05200-039300FM-12+021199999V0200501N001010075019N0200001N1+02741+02471100941ADDAA124003091AY161061AY251061GF106991061021008001001001KA1240N+02351MA1999999098571MD1999999-0151MW1021REMSYN088AAXX  26124 82586 21598 60502 10274 20247 39857 40094 70265 86200 333 20235 59015 60034;
0183825860999992000032618004-05200-039300FM-12+021199999V0201401N003119999999N0200001N1+03121+02141100861ADDAA199000091GF106991999021008001001001MA1999999098241MD1999999-0111REMSYN070AAXX  26184 82586 32598 61406 10312 20214 39824 40086 84200 333 59011;EQDQ01+000042SCOTLCQ02  00002PRCP99
0230825860999992000032700004-05200-039300FM-12+021199999V0200901N001512200019N0010001N1+02621+02371100002ADDAA199000091AY121061AY221061GF104991041031008001001001KA1240M+03191MA1999999098481MD1999999-0041MW1131REMSYN082AAXX  27004 82586 31594 40903 10262 20237 39848 40000 71322 84300 333 10319 59004;EQDQ01+100003APOSLPQ02  00002PRCP99
0186825860999992000032712004-05200-039300FM-12+021199999V0200901N003110075019N0200001N1+02721+02431100871ADDAA199000091GF106991061041008001001001KA1240N+02381MA1999999098511MD1999999-0061REMSYN076AAXX  27124 82586 32598 60906 10272 20243 39851 40087 86400 333 20238 59006;EQDQ01  00002PRCP99
0167825860999992000032718004-05200-039300FM-12+021199999V0201801N003112200019N0200001N1+03201+02151100641ADDAA199000091GF106991031021008001001041MA1999999098291MD1999999+0031REMSYN070AAXX  27184 82586 32598 61806 10320 20215 39829 40064 83204 333 58003;EQDQ01  00002PRCP99
0220825860999992000032800004-05200-039300FM-12+021199999V0203201N002619999999N0010001N1+02421+02281100901ADDAA106000191AY151061AY221061GF108991999011008001001001KA1240M+03251MA1999999098521MD1999999+0041MW1031REMSYN088AAXX  28004 82586 21594 83205 10242 20228 39852 40090 70352 82100 333 10325 58004 69921;EQDQ01+000022SCOTLC
0173825860999992000032812004-05200-039300FM-12+021199999V0202301N001510450019N0200001N1+02541+02211101041ADDAA124000191GF108991041041008001021001KA1240N+02301MA1999999098651MD1999999+0141REMSYN082AAXX  28124 82586 22598 82303 10254 20221 39865 40104 84420 333 20230 58014 69924;
0167825860999992000032818004-05200-039300FM-12+021199999V0200901N001510075019N0200001N1+03021+02241100671ADDAA199000091GF106991061021008001001001MA1999999098311MD1999999+0021REMSYN070AAXX  28184 82586 32598 60903 10302 20224 39831 40067 86200 333 58002;EQDQ01  00002PRCP99
0214825860999992000032900004-05200-039300FM-12+021199999V0203601N003110075019N0010001N1+02581+02441100001ADDAA199000091AY121061AY221061GF108991081091008001999999KA1240M+03181MA1999999098521MD1999999+0001MW1131REMSYN082AAXX  29004 82586 31594 83606 10258 20244 39852 40000 71322 889// 333 10318 58000;EQDQ01  00002PRCP99
0182825860999992000032918004-05200-039300FM-12+021199999V0201401N001510450019N0200001N1+02821+02221100881ADDAA106002091AY161061AY221061GF108991041021008001021999MA1999999098501MD1999999+0191MW1031REMSYN082AAXX  29184 82586 21598 81403 10282 20222 39850 40088 70362 8422/ 333 58019 60021;
0186825860999992000033000004-05200-039300FM-12+021199999V0200901N003110075019N0010001N1+02481+02231100981ADDAA199000091GF106991061021008001001001KA1240M+03851MA1999999098581MD1999999+0021REMSYN076AAXX  30004 82586 32594 60906 10248 20223 39858 40098 86200 333 10385 58002;EQDQ01  00002PRCP99
0173825860999992000033012004-05200-039300FM-12+021199999V0201801N000510075019N0200001N1+02541+02421101081ADDAA124002091GF108991081071008001999999KA1240N+02301MA1999999098691MD1999999+0001REMSYN082AAXX  30124 82586 22598 81801 10254 20242 39869 40108 887// 333 20230 58000 60024;
0182825860999992000033018004-05200-039300FM-12+021199999V0201801N001510075019N0200001N1+02361+02281100881ADDAA106029091AY191061AY261061GF108991081091008001999999MA1999999098481MD1999999-0021MW1511REMSYN082AAXX  30184 82586 21598 81803 10236 20228 39848 40088 75196 889// 333 59002 60291;
0201825860999992000033100004-05200-039300FM-12+021199999V0200501N001510075019N0010001N1+02341+02071101091ADDAA106000191AY151061AY221061GF106991061041008001001001KA1240M+03001MA1999999098691MD1999999+0111MW1031REMSYN088AAXX  31004 82586 21594 60503 10234 20207 39869 40109 70352 86400 333 10300 58011 69921;
0201825860999992000033112004-05200-039300FM-12+021199999V0200901N004110075019N0200001N1+02581+02481101091ADDAA124030091AY151061AY221061GF107991071071008001001001KA1240N+02281MA1999999098701MD1999999+0011MW1031REMSYN088AAXX  31124 82586 21598 70908 10258 20248 39870 40109 70352 87700 333 20228 58001 60304;
0167825860999992000033118004-05200-039300FM-12+021199999V0200901N002110075019N0200001N1+03021+02161100751ADDAA199000091GF106991061041008001001001MA1999999098391MD1999999-0091REMSYN070AAXX  31184 82586 32598 60904 10302 20216 39839 40075 86400 333 59009;EQDQ01  00002PRCP99
0186825860999992000040100004-05200-039300FM-12+021199999V0209999C000010075019N0010001N1+02441+02151101071ADDAA199000091GF106991061021008001001001KA1240M+03061MA1999999098681MD1999999-0011REMSYN076AAXX  01004 82586 32594 60000 10244 20215 39868 40107 86200 333 10306 59001;EQDQ01  00002PRCP99
0186825860999992000040112004-05200-039300FM-12+021199999V0201401N003110075019N0200001N1+02621+02411101131ADDAA199000091GF106991061041008001001001KA1240N+02261MA1999999098751MD1999999+0051REMSYN076AAXX  01124 82586 32598 61406 10262 20241 39875 40113 86400 333 20226 58005;EQDQ01  00002PRCP99
0167825860999992000040118004-05200-039300FM-12+021199999V0200901N002610075019N0200001N1+03201+02151100751ADDAA199000091GF106991061021008001001001MA1999999098401MD1999999+0011REMSYN070AAXX  01184 82586 32598 60905 10320 20215 39840 40075 86200 333 58001;EQDQ01  00002PRCP99
0201825860999992000040200004-05200-039300FM-12+021199999V0200501N001010075019N0010001N1+02441+02221100931ADDAA106002091AY161061AY221061GF106991061031008001001001KA1240M+03221MA1999999098551MD1999999-0131MW1131REMSYN088AAXX  02004 82586 21594 60502 10244 20222 39855 40093 71362 86300 333 10322 59013 60021;
0173825860999992000040212004-05200-039300FM-12+021199999V0201801N002110075019N0200001N1+02621+02311101131ADDAA124002091GF106991061041008001001001KA1240N+02331MA1999999098751MD1999999+0001REMSYN082AAXX  02124 82586 22598 61804 10262 20231 39875 40113 86400 333 20233 58000 60024;
0167825860999992000040218004-05200-039300FM-12+021199999V0201801N001512200019N0200001N1+03181+02041100821ADDAA199000091GF104991041021008001001001MA1999999098471MD1999999+0071REMSYN070AAXX  02184 82586 32598 41803 10318 20204 39847 40082 84200 333 58007;EQDQ01  00002PRCP99
0201825860999992000040300004-05200-039300FM-12+021199999V0201801N000510075019N0010001N1+02391+02011101081ADDAA106002091AY161061AY221061GF105991051041008001001001KA1240M+03191MA1999999098691MD1999999+0141MW1031REMSYN088AAXX  03004 82586 21594 51801 10239 20201 39869 40108 70362 85400 333 10319 58014 60021;
0173825860999992000040312004-05200-039300FM-12+021199999V0200901N003110075019N0200001N1+02701+02431101131ADDAA124002091GF106991061041008001001001KA1240N+02261MA1999999098751MD1999999+0001REMSYN082AAXX  03124 82586 22598 60906 10270 20243 39875 40113 86400 333 20226 58000 60024;
0167825860999992000040318004-05200-039300FM-12+021199999V0201801N003612200019N0200001N1+03231+01771100841ADDAA199000091GF104991041021008001001001MA1999999098481MD1999999+0011REMSYN070AAXX  03184 82586 32598 41807 10323 20177 39848 40084 84200 333 58001;EQDQ01  00002PRCP99
0196825860999992000040400004-05200-039300FM-12+021199999V0209999C000012200019N0010001N1+02681+02041101011ADDAA199000091GA1001+999999999GF100991001001999999001001KA1240M+03301MA1999999098651MD1999999-0041REMSYN070AAXX  04004 82586 32994 00000 10268 20204 39865 40101 333 10330 59004;EQDQ01  00002PRCP99
0186825860999992000040412004-05200-039300FM-12+021199999V0201801N001012200019N0200001N1+02821+02291101161ADDAA199000091GF104991041021008001001001KA1240N+02301MA1999999098801MD1999999+0051REMSYN076AAXX  04124 82586 32598 41802 10282 20229 39880 40116 84200 333 20230 58005;EQDQ01  00002PRCP99
0167825860999992000040418004-05200-039300FM-12+021199999V0201801N003112200019N0200001N1+03221+02011100841ADDAA199000091GF104991041021008001001001MA1999999098481MD1999999+0001REMSYN070AAXX  04184 82586 32598 41806 10322 20201 39848 40084 84200 333 58000;EQDQ01  00002PRCP99
0196825860999992000040500004-05200-039300FM-12+021199999V0209999C000012200019N0010001N1+02661+02221101031ADDAA199000091GA1001+999999999GF100991001001999999001001KA1240M+03281MA1999999098671MD1999999+0021REMSYN070AAXX  05004 82586 32994 00000 10266 20222 39867 40103 333 10328 58002;EQDQ01  00002PRCP99
0167825860999992000040518004-05200-039300FM-12+021199999V0201801N002112200019N0200001N1+03291+01931100861ADDAA199000091GF104991041021008001001001MA1999999098511MD1999999+0031REMSYN070AAXX  05184 82586 32598 41804 10329 20193 39851 40086 84200 333 58003;EQDQ01  00002PRCP99
0196825860999992000040600004-05200-039300FM-12+021199999V0200501N003112200019N0010001N1+02671+02071101041ADDAA199000091GA1001+999999999GF100991001001999999001001KA1240M+03321MA1999999098681MD1999999+0011REMSYN070AAXX  06004 82586 32994 00506 10267 20207 39868 40104 333 10332 58001;EQDQ01  00002PRCP99
0186825860999992000040612004-05200-039300FM-12+021199999V0201401N005712200019N0200001N1+02801+02251101091ADDAA199000091GF104991041021008001001001KA1240N+02401MA1999999098731MD1999999-0021REMSYN076AAXX  06124 82586 32598 41411 10280 20225 39873 40109 84200 333 20240 59002;EQDQ01  00002PRCP99
0182825860999992000040618004-05200-039300FM-12+021199999V0200501N003110075019N0200001N1+02751+02321100791ADDAA106004191AY161061AY221061GF108991081071008001999999MA1999999098421MD1999999-0091MW1151REMSYN082AAXX  06184 82586 21598 80506 10275 20232 39842 40079 71562 887// 333 59009 60041;
0173825860999992000040712004-05200-039300FM-12+021199999V0201801N004610075019N0200001N1+02701+02281100981ADDAA124004191GF107991071041008001001001KA1240N+02361MA1999999098621MD1999999-0111REMSYN082AAXX  07124 82586 22598 71809 10270 20228 39862 40098 87400 333 20236 59011 60044;
0182825860999992000040718004-05200-039300FM-12+021199999V0201801N004112200019N0200001N1+03101+02031100791ADDAA106000591AY151061AY221061GF104991041021008001001001MA1999999098351MD1999999-0071MW1031REMSYN082AAXX  07184 82586 21598 41808 10310 20203 39835 40079 70352 84200 333 59007 69951;
0201825860999992000040800004-05200-039300FM-12+021199999V0203601N001510075019N0010001N1+02401+02171100961ADDAA106000591AY151061AY221061GF105991051041008001001001KA1240M+03181MA1999999098581MD1999999-0011MW1031REMSYN088AAXX  08004 82586 21594 53603 10240 20217 39858 40096 70352 85400 333 10318 59001 69941;
0173825860999992000040812004-05200-039300FM-12+021199999V0201401N002612200019N0200001N1+02781+02231101001ADDAA124001091GF104991041011008001001001KA1240N+02201MA1999999098631MD1999999+0011REMSYN082AAXX  08124 82586 22598 41405 10278 20223 39863 40100 84100 333 20220 58001 69994;
0167825860999992000040818004-05200-039300FM-12+021199999V0201801N003112200019N0200001N1+03341+01801100711ADDAA199000091GF104991041021008001001001MA1999999098351MD1999999-0071REMSYN070AAXX  08184 82586 32598 41806 10334 20180 39835 40071 84200 333 59007;EQDQ01  00002PRCP99
0214825860999992000040900004-05200-039300FM-12+021199999V0200501N003110075019N0010001N1+02681+02111100931ADDAA199000091AY121061AY221061GF105991051031008001001001KA1240M+03341MA1999999098571MD1999999-0011MW1131REMSYN082AAXX  09004 82586 31594 50506 10268 20211 39857 40093 71322 85300 333 10334 59001;EQDQ01  00002PRCP99
0201825860999992000040912004-05200-039300FM-12+021199999V0201401N001510450019N0200001N1+02481+02341101051ADDAA124003091AY161061AY251061GF107991041041008001021001KA1240N+02161MA1999999098681MD1999999+0051MW1031REMSYN088AAXX  09124 82586 21598 71403 10248 20234 39868 40105 70365 84420 333 20216 58005 60034;
0167825860999992000040918004-05200-039300FM-12+021199999V0200501N003612200019N0200001N1+03141+02001100741ADDAA199000091GF106991031021008001001041MA1999999098321MD1999999+0031REMSYN070AAXX  09184 82586 32598 60507 10314 20200 39832 40074 83204 333 58003;EQDQ01  00002PRCP99
0186825860999992000041000004-05200-039300FM-12+021199999V0203601N000510075019N0010001N1+02561+01991100991ADDAA199000091GF105991051041008001001001KA1240M+03141MA1999999098601MD1999999+0031REMSYN076AAXX  10004 82586 32594 53601 10256 20199 39860 40099 85400 333 10314 58003;EQDQ01  00002PRCP99
0201825860999992000041012004-05200-039300FM-12+021199999V0200901N004112200019N0200001N1+02661+02441101021ADDAA124002091AY161061AY261061GF106991041041008001001011KA1240N+02361MA1999999098651MD1999999-0031MW1511REMSYN088AAXX  10124 82586 21598 60908 10266 20244 39865 40102 75166 84401 333 20236 59003 60024;
0182825860999992000041018004-05200-039300FM-12+021199999V0200501N006210075019N0200001N1+02671+02481100801ADDAA106006191AY161061AY221061GF108991081071008001999999MA1999999098421MD1999999+0041MW1031REMSYN082AAXX  10184 82586 21598 80512 10267 20248 39842 40080 70362 887// 333 58004 60061;
0201825860999992000041100004-05200-039300FM-12+021199999V0202701N001510075019N0010001N1+02501+02291100951ADDAA106004191AY161061AY251061GF106991061031008001001001KA1240M+03031MA1999999098581MD1999999-0021MW1131REMSYN088AAXX  11004 82586 21594 62703 10250 20229 39858 40095 71365 86300 333 10303 59002 60041;
0201825860999992000041112004-05200-039300FM-12+021199999V0200901N001511050019N0200001N1+02601+02501101051ADDAA124023991AY161061AY251061GF105991031021008001001021KA1240N+02141MA1999999098691MD1999999+0041MW1031REMSYN088AAXX  11124 82586 21598 50903 10260 20250 39869 40105 70365 83202 333 20214 58004 60244;
0167825860999992000041118004-05200-039300FM-12+021199999V0201401N001510075019N0200001N1+03101+02181100761ADDAA199000091GF106991061021008001001001MA1999999098421MD1999999+0001REMSYN070AAXX  11184 82586 32598 61403 10310 20218 39842 40076 86200 333 58000;EQDQ01  00002PRCP99
0214825860999992000041200004-05200-039300FM-12+021199999V0200501N002612200019N0010001N1+02601+02191100951ADDAA199000091AY121061AY221061GF104991041031008001001001KA1240M+03151MA1999999098581MD1999999+0001MW1131REMSYN082AAXX  12004 82586 31594 40505 10260 20219 39858 40095 71322 84300 333 10315 58000;EQDQ01  00002PRCP99
0201825860999992000041212004-05200-039300FM-12+021199999V0201401N001511050019N0200001N1+02621+02521101011ADDAA124002091AY161061AY221061GF106991031021008001001021KA1240N+02361MA1999999098641MD1999999-0051MW1031REMSYN088AAXX  12124 82586 21598 61403 10262 20252 39864 40101 70362 83202 333 20236 59005 60024;
0167825860999992000041218004-05200-039300FM-12+021199999V0201801N001512200019N0200001N1+03121+02281100661ADDAA199000091GF106991031021008001001041MA1999999098301MD1999999-0121REMSYN070AAXX  12184 82586 32598 61803 10312 20228 39830 40066 83204 333 59012;EQDQ01  00002PRCP99
0186825860999992000041300004-05200-039300FM-12+021199999V0201401N001019999999N0010001N1+02531+02251100931ADDAA199000091GF106991061001012501051001KA1240M+03161MA1999999098551MD1999999-0031REMSYN076AAXX  13004 82586 32694 61402 10253 20225 39855 40093 86050 333 10316 59003;EQDQ01  00002PRCP99
0201825860999992000041312004-05200-039300FM-12+021199999V0201801N001010075019N0200001N1+02621+02531101001ADDAA124004191AY161061AY221061GF108991081071008001999999KA1240N+02341MA1999999098631MD1999999-0011MW1511REMSYN088AAXX  13124 82586 21598 81802 10262 20253 39863 40100 75162 887// 333 20234 59001 60044;
0182825860999992000041318004-05200-039300FM-12+021199999V0201801N001510075019N0200001N1+02461+02391100761ADDAA106014091AY191061AY261061GF108991081071008001999999MA1999999098371MD1999999+0071MW1611REMSYN082AAXX  13184 82586 21598 81803 10246 20239 39837 40076 76196 887// 333 58007 60141;
0201825860999992000041400004-05200-039300FM-12+021199999V0201801N004110075019N0010001N1+02221+02191101081ADDAA106006191AY191061AY261061GF108991081071008001999999KA1240M+02911MA1999999098681MD1999999+0131MW1931REMSYN088AAXX  14004 82586 21594 81808 10222 20219 39868 40108 79396 887// 333 10291 58013 60061;
0167825860999992000041418004-05200-039300FM-12+021199999V0201801N002112200019N0200001N1+02941+02241100851ADDAA199000091GF105991031021008001001041MA1999999098471MD1999999+0101REMSYN070AAXX  14184 82586 32598 51804 10294 20224 39847 40085 83204 333 58010;EQDQ01  00002PRCP99
0202825860999992000041500004-05200-039300FM-12+021199999V02099999999992200019N0010001N1+02521+02071101071ADDAA199000091GF103991999021008001001001KA1240M+02991MA1999999098681MD1999999+0001REMSYN076AAXX  15004 82586 32594 305// 10252 20207 39868 40107 84200 333 10299 58000;EQDQ01+000042SCOTLCQ02  00002PRCP99
0202825860999992000041512004-05200-039300FM-12+021199999V0200501N001510075019N0200001N1+02701+02431101231ADDAA199000091GF106991999041008001001001KA1240N+02261MA1999999098851MD1999999+0151REMSYN076AAXX  15124 82586 32598 60503 10270 20243 39885 40123 85400 333 20226 58015;EQDQ01+000052SCOTLCQ02  00002PRCP99
0182825860999992000041518004-05200-039300FM-12+021199999V0200901N000510075019N0200001N1+02611+02011100841ADDAA106002091AY161061AY251061GF108991081071008001999999MA1999999098451MD1999999-0021MW1611REMSYN082AAXX  15184 82586 21598 80901 10261 20201 39845 40084 76165 887// 333 59002 60021;
0201825860999992000041600004-05200-039300FM-12+021199999V0203601N003110075019N0010001N1+02621+02351101201ADDAA106001091AY161061AY221061GF108991081071008001999999KA1240M+03141MA1999999098831MD1999999+0151MW1031REMSYN088AAXX  16004 82586 21594 83606 10262 20235 39883 40120 70362 887// 333 10314 58015 60011;
0173825860999992000041612004-05200-039300FM-12+021199999V0201801N001512200019N0200001N1+02541+02251101141ADDAA124003091GF103991031001012501031001KA1240N+02231MA1999999098761MD1999999-0091REMSYN082AAXX  16124 82586 22698 31803 10254 20225 39876 40114 83030 333 20223 59009 60034;
0195825860999992000041618004-05200-039300FM-12+021199999V0202301N001510075019N0200001N1+03091+02321100791ADDAA199000091AY121061AY221061GF108991081071008001999999MA1999999098421MD1999999-0021MW1151REMSYN076AAXX  16184 82586 31598 82303 10309 20232 39842 40079 71522 887// 333 59002;EQDQ01  00002PRCP99
0214825860999992000041700004-05200-039300FM-12+021199999V0203601N003110075019N0010001N1+02421+02181101121ADDAA199000091AY121061AY221061GF108991081031008001999999KA1240M+03101MA1999999098751MD1999999-0081MW1131REMSYN082AAXX  17004 82586 31594 83606 10242 20218 39875 40112 71322 883// 333 10310 59008;EQDQ01  00002PRCP99
0186825860999992000041712004-05200-039300FM-12+021199999V0202701N001510075019N0200001N1+02641+02331101151ADDAA199000091GF107991071071008001001001KA1240N+02261MA1999999098771MD1999999+0011REMSYN076AAXX  17124 82586 32598 72703 10264 20233 39877 40115 87700 333 20226 58001;EQDQ01  00002PRCP99
0195825860999992000041718004-05200-039300FM-12+021199999V0200501N002610075019N0200001N1+03041+02501100811ADDAA199000091AY121061AY221061GF107991071071008001001001MA1999999098451MD1999999+0021MW1131REMSYN076AAXX  17184 82586 31598 70505 10304 20250 39845 40081 71322 87700 333 58002;EQDQ01  00002PRCP99
0201825860999992000041800004-05200-039300FM-12+021199999V0201801N001510075019N0010001N1+02421+02071101111ADDAA106005191AY191061AY261061GF108991081071008001999999KA1240M+03151MA1999999098731MD1999999-0021MW1031REMSYN088AAXX  18004 82586 21594 81803 10242 20207 39873 40111 70396 887// 333 10315 59002 60051;
0173825860999992000041812004-05200-039300FM-12+021199999V0200901N001010075019N0200001N1+02601+02501101171ADDAA124005191GF106991061041008001001001KA1240N+02261MA1999999098781MD1999999+0011REMSYN082AAXX  18124 82586 22598 60902 10260 20250 39878 40117 86400 333 20226 58001 60054;
0167825860999992000041818004-05200-039300FM-12+021199999V02099999999990075019N0200001N1+03141+02161100811ADDAA199000091GF105991051041008001001001MA1999999098451MD1999999+0001REMSYN070AAXX  18184 82586 32598 509// 10314 20216 39845 40081 85400 333 58000;EQDQ01  00002PRCP99
0201825860999992000041900004-05200-039300FM-12+021199999V0203201N000510075019N0010001N1+02301+02091101081ADDAA106022191AY161061AY261061GF108991081071008001999999KA1240M+03161MA1999999098681MD1999999-0051MW1031REMSYN088AAXX  19004 82586 21594 83201 10230 20209 39868 40108 70366 887// 333 10316 59005 60221;
0201825860999992000041912004-05200-039300FM-12+021199999V0200901N001510075019N0200001N1+02601+02461101181ADDAA124027991AY191061AY261061GF108991081071008001999999KA1240N+02221MA1999999098781MD1999999+0001MW1031REMSYN088AAXX  19124 82586 21598 80903 10260 20246 39878 40118 70396 887// 333 20222 58000 60284;
0182825860999992000041918004-05200-039300FM-12+021199999V0201401N005110075019N0200001N1+03051+02431100841ADDAA106000191AY151061AY221061GF106991061071008001001001MA1999999098481MD1999999+0031MW1151REMSYN082AAXX  19184 82586 21598 61410 10305 20243 39848 40084 71552 86700 333 58003 69921;
0201825860999992000042000004-05200-039300FM-12+021199999V0200501N001019999999N0200001N1+02491+02271101081ADDAA106000191AY151061AY221061GF108991071999008001999999KA1240M+03101MA1999999098651MD1999999-0031MW1031REMSYN088AAXX  20004 82586 21598 80502 10249 20227 39865 40108 70352 87/// 333 10310 59003 69921;
0201825860999992000042012004-05200-039300FM-12+021199999V0200901N001510075019N0200001N1+02701+02561101111ADDAA124000591AY151061AY221061GF108991081071008001999999KA1240N+02361MA1999999098741MD1999999-0041MW1031REMSYN088AAXX  20124 82586 21598 80903 10270 20256 39874 40111 70352 887// 333 20236 59004 69964;
0167825860999992000042018004-05200-039300FM-12+021199999V0200901N003110075019N0200001N1+03161+02341100801ADDAA199000091GF105991051021008001001001MA1999999098441MD1999999-0041REMSYN070AAXX  20184 82586 32598 50906 10316 20234 39844 40080 85200 333 59004;EQDQ01  00002PRCP99
0201825860999992000042112004-05200-039300FM-12+021199999V0200501N004610075019N0200001N1+02761+02441101021ADDAA124005191AY161061AY221061GF106991061041008001001001KA1240N+02381MA1999999098661MD1999999-0081MW1031REMSYN088AAXX  21124 82586 21598 60509 10276 20244 39866 40102 70362 86400 333 20238 59008 60054;
0167825860999992000042118004-05200-039300FM-12+021199999V0201401N002612200019N0200001N1+03151+02271100711ADDAA199000091GF104991041021008001001001MA1999999098351MD1999999-0091REMSYN070AAXX  21184 82586 32598 41405 10315 20227 39835 40071 84200 333 59009;EQDQ01  00002PRCP99
0196825860999992000042200004-05200-039300FM-12+021199999V0200501N002112200019N0010001N1+02621+02051100951ADDAA199000091GA1001+999999999GF100991001001999999001001KA1240M+03191MA1999999098591MD1999999-0081REMSYN070AAXX  22004 82586 32994 00504 10262 20205 39859 40095 333 10319 59008;EQDQ01  00002PRCP99
0167825860999992000042218004-05200-039300FM-12+021199999V0200901N002110075019N0200001N1+03201+02331100721ADDAA199000091GF106991061041008001001001MA1999999098371MD1999999+0021REMSYN070AAXX  22184 82586 32598 60904 10320 20233 39837 40072 86400 333 58002;EQDQ01  00002PRCP99
0196825860999992000042300004-05200-039300FM-12+021199999V0200501N001012200019N0010001N1+02621+02141100961ADDAA199000091GA1001+999999999GF100991001001999999001001KA1240M+03251MA1999999098601MD1999999+0011REMSYN070AAXX  23004 82586 32994 00502 10262 20214 39860 40096 333 10325 58001;EQDQ01  00002PRCP99
0186825860999992000042312004-05200-039300FM-12+021199999V0200901N003110075019N0200001N1+02661+02481101081ADDAA199000091GF106991061041008001001001KA1240N+02231MA1999999098711MD1999999+0031REMSYN076AAXX  23124 82586 32598 60906 10266 20248 39871 40108 86400 333 20223 58003;EQDQ01  00002PRCP99
0182825860999992000042318004-05200-039300FM-12+021199999V0200501N003110075019N0200001N1+02561+02291100911ADDAA106015091AY161061AY221061GF108991081071008001999999MA1999999098521MD1999999+0151MW1211REMSYN082AAXX  23184 82586 21598 80506 10256 20229 39852 40091 72162 887// 333 58015 60151;
0201825860999992000042400004-05200-039300FM-12+021199999V0200501N001010075019N0010001N1+02421+02241101071ADDAA106004191AY161061AY221061GF108991081071008001999999KA1240M+03241MA1999999098691MD1999999+0091MW1031REMSYN088AAXX  24004 82586 21594 80502 10242 20224 39869 40107 70362 887// 333 10324 58009 60041;
0167825860999992000042418004-05200-039300FM-12+021199999V0201401N002110075019N0200001N1+02961+02351100781ADDAA199000091GF106991061041008001001001MA1999999098421MD1999999-0101REMSYN070AAXX  24184 82586 32598 61404 10296 20235 39842 40078 86400 333 59010;EQDQ01  00002PRCP99
0214825860999992000042500004-05200-039300FM-12+021199999V02099999999990075019N0010001N1+02401+01891101011ADDAA199000091AY121061AY221061GF106991061031008001001001KA1240M+03061MA1999999098621MD1999999-0071MW1131REMSYN082AAXX  25004 82586 31594 636// 10240 20189 39862 40101 71322 86300 333 10306 59007;EQDQ01  00002PRCP99
0201825860999992000042512004-05200-039300FM-12+021199999V02099999999990075019N0200001N1+02541+02211101071ADDAA124019191AY161061AY251061GF107991071041008001001001KA1240N+02231MA1999999098701MD1999999+0041MW1031REMSYN088AAXX  25124 82586 21598 705// 10254 20221 39870 40107 70365 87400 333 20223 58004 60194;
0182825860999992000042518004-05200-039300FM-12+021199999V0200501N001510075019N0200001N1+02951+02361100851ADDAA106000191AY151061AY221061GF106991061041008001001001MA1999999098481MD1999999+0061MW1031REMSYN082AAXX  25184 82586 21598 60503 10295 20236 39848 40085 70352 86400 333 58006 69921;
0201825860999992000042600004-05200-039300FM-12+021199999V0200501N004610075019N0010001N1+02221+02191101131ADDAA106003091AY161061AY261061GF108991081071008001999999KA1240M+03031MA1999999098731MD1999999+0111MW1611REMSYN088AAXX  26004 82586 21594 80509 10222 20219 39873 40113 76166 887// 333 10303 58011 60031;
0201825860999992000042612004-05200-039300FM-12+021199999V0201801N001510075019N0200001N1+02281+02231101261ADDAA124007991AY161061AY251061GF108991081071008001999999KA1240N+02201MA1999999098851MD1999999+0151MW1211REMSYN088AAXX  26124 82586 21598 81803 10228 20223 39885 40126 72165 887// 333 20220 58015 60084;
0182825860999992000042618004-05200-039300FM-12+021199999V0203601N003110075019N0200001N1+02361+02281101011ADDAA106001091AY161061AY221061GF108991081071008001999999MA1999999098611MD1999999+0031MW1211REMSYN082AAXX  26184 82586 21598 83606 10236 20228 39861 40101 72162 887// 333 58003 60011;
0201825860999992000042700004-05200-039300FM-12+021199999V0209999C000012200019N0010001N1+02321+02031101191ADDAA106006191AY161061AY261061GF104991041041008001001001KA1240M+02831MA1999999098781MD1999999+0051MW1031REMSYN088AAXX  27004 82586 21594 40000 10232 20203 39878 40119 70366 84400 333 10283 58005 60061;
0201825860999992000042712004-05200-039300FM-12+021199999V0200901N002610075019N0200001N1+02521+02431101231ADDAA124007991AY151061AY221061GF108991081071008001999999KA1240N+02201MA1999999098831MD1999999-0021MW1031REMSYN088AAXX  27124 82586 21598 80905 10252 20243 39883 40123 70352 887// 333 20220 59002 60084;
0167825860999992000042718004-05200-039300FM-12+021199999V0200901N003112200019N0200001N1+03001+01491100941ADDAA199000091GF104991041021008001001001MA1999999098581MD1999999-0031REMSYN070AAXX  27184 82586 32598 40906 10300 20149 39858 40094 84200 333 59003;EQDQ01  00002PRCP99
0196825860999992000042800004-05200-039300FM-12+021199999V0209999C000012200019N0010001N1+02441+02011101141ADDAA199000091GA1001+999999999GF100991001001999999001001KA1240M+03031MA1999999098751MD1999999-0031REMSYN070AAXX  28004 82586 32994 00000 10244 20201 39875 40114 333 10303 59003;EQDQ01  00002PRCP99
0186825860999992000042812004-05200-039300FM-12+021199999V0201401N001510075019N0200001N1+02621+02351101211ADDAA199000091GF106991061041008001001001KA1240N+02141MA1999999098831MD1999999+0001REMSYN076AAXX  28124 82586 32598 61403 10262 20235 39883 40121 86400 333 20214 58000;EQDQ01  00002PRCP99
0201825860999992000042818004-05200-039300FM-12+021199999V0200901N003110450019N0040001N1+02661+02441101061ADDAA106000591AY161061AY251061GF108991041071008001021999MA1999999100332MD1999999+0161MW1141REMSYN082AAXX  28184 82586 21596 80906 10266 20244 30033 40106 71465 8472/ 333 58016 69941;EQDQ01+100333APOSP 
0186825860999992000042912004-05200-039300FM-12+021199999V0201801N001510075019N0200001N1+02601+02331101211ADDAA199000091GF106991061041008001001001KA1240N+02261MA1999999098831MD1999999+0001REMSYN076AAXX  29124 82586 32598 61803 10260 20233 39883 40121 86400 333 20226 58000;EQDQ01  00002PRCP99
0167825860999992000042918004-05200-039300FM-12+021199999V02099999999991050019N0200001N1+02931+02221100921ADDAA199000091GF106991031021008001001021MA1999999098571MD1999999+0011REMSYN070AAXX  29184 82586 32598 618// 10293 20222 39857 40092 83202 333 58001;EQDQ01  00002PRCP99
0201825860999992000043000004-05200-039300FM-12+021199999V0203601N001510075019N0010001N1+02241+02161101221ADDAA106011991AY161061AY251061GF108991081071008001999999KA1240M+03011MA1999999098821MD1999999-0011MW1611REMSYN088AAXX  30004 82586 21594 83603 10224 20216 39882 40122 76165 887// 333 10301 59001 60121;
0201825860999992000043012004-05200-039300FM-12+021199999V0201401N002110075019N0200001N1+02601+02331101251ADDAA124013091AY151061AY251061GF106991061041008001001001KA1240N+02161MA1999999098851MD1999999+0021MW1031REMSYN088AAXX  30124 82586 21598 61404 10260 20233 39885 40125 70355 86400 333 20216 58002 60134;
0167825860999992000043018004-05200-039300FM-12+021199999V0200901N003112200019N0200001N1+02981+01981100961ADDAA199000091GF104991041021008001001001MA1999999098591MD1999999+0021REMSYN070AAXX  30184 82586 32598 40906 10298 20198 39859 40096 84200 333 58002;EQDQ01  00002PRCP99
0196825860999992000050100004-05200-039300FM-12+021199999V0209999C000012200019N0010001N1+02441+01641101161ADDAA199000091GA1001+999999999GF100991001001999999001001KA1240M+03011MA1999999098771MD1999999-0051REMSYN070AAXX  01004 82586 32994 00000 10244 20164 39877 40116 333 10301 59005;EQDQ01  00002PRCP99
0186825860999992000050112004-05200-039300FM-12+021199999V0200901N005112200019N0200001N1+02741+02051101181ADDAA199000091GF104991031011008001001011KA1240N+02321MA1999999098801MD1999999-0051REMSYN076AAXX  01124 82586 32598 40910 10274 20205 39880 40118 83101 333 20232 59005;EQDQ01  00002PRCP99
0167825860999992000050118004-05200-039300FM-12+021199999V0201401N002112200019N0200001N1+03041+02031100901ADDAA199000091GF106991031021008001001041MA1999999098541MD1999999-0051REMSYN070AAXX  01184 82586 32598 61404 10304 20203 39854 40090 83204 333 59005;EQDQ01  00002PRCP99
0196825860999992000050200004-05200-039300FM-12+021199999V0209999C000012200019N0010001N1+02561+02291101021ADDAA199000091GA1001+999999999GF100991001001999999001001KA1240M+03081MA1999999098651MD1999999-0121REMSYN070AAXX  02004 82586 32294 00000 10256 20229 39865 40102 333 10308 59012;EQDQ01  00002PRCP99
0186825860999992000050212004-05200-039300FM-12+021199999V0200501N002612200019N0200001N1+02681+02451101131ADDAA199000091GF102991021011008001001001KA1240N+02201MA1999999098751MD1999999-0051REMSYN076AAXX  02124 82586 32598 20505 10268 20245 39875 40113 82100 333 20220 59005;EQDQ01  00002PRCP99
0167825860999992000050218004-05200-039300FM-12+021199999V0200901N002610075019N0200001N1+03061+02221100811ADDAA199000091GF106991061021008001001001MA1999999098451MD1999999-0091REMSYN070AAXX  02184 82586 32598 60905 10306 20222 39845 40081 86200 333 59009;EQDQ01  00002PRCP99
0201825860999992000050300004-05200-039300FM-12+021199999V0201401N001010075019N0010001N1+02381+02311101061ADDAA106001091AY161061AY221061GF108991081051008001999999KA1240M+03111MA1999999098361MD1999999+0031MW1211REMSYN088AAXX  03004 82586 21594 81402 10238 20231 39836 40106 72162 885// 333 10311 58003 60011;
0201825860999992000050312004-05200-039300FM-12+021199999V0200901N003610075019N0200001N1+02581+02381101121ADDAA124003091AY161061AY251061GF106991061041008001001001KA1240N+02241MA1999999098731MD1999999-0021MW1031REMSYN088AAXX  03124 82586 21598 60907 10258 20238 39873 40112 70365 86400 333 20224 59002 60034;
0167825860999992000050318004-05200-039300FM-12+021199999V0203601N000510075019N0200001N1+02901+02341100831ADDAA199000091GF106991061041008001001001MA1999999098481MD1999999+0031REMSYN070AAXX  03184 82586 32598 63601 10290 20234 39848 40083 86400 333 58003;EQDQ01  00002PRCP99
0201825860999992000050400004-05200-039300FM-12+021199999V0203601N001010075019N0010001N1+02501+02231100991ADDAA106000191AY151061AY221061GF105991051021008001001001KA1240M+02971MA1999999098611MD1999999-0071MW1031REMSYN088AAXX  04004 82586 21594 53602 10250 20223 39861 40099 70352 85200 333 10297 59007 69921;
0201825860999992000050412004-05200-039300FM-12+021199999V0200501N002610075019N0200001N1+02481+02391101131ADDAA124016091AY161061AY251061GF108991081071008001999999KA1240N+02261MA1999999098741MD1999999+0011MW1031REMSYN088AAXX  04124 82586 21598 80505 10248 20239 39874 40113 70365 887// 333 20226 58001 60164;
0167825860999992000050418004-05200-039300FM-12+021199999V0201801N003110075019N0200001N1+02921+02431100851ADDAA199000091GF106991061041008001001001MA1999999098481MD1999999-0011REMSYN070AAXX  04184 82586 32598 61806 10292 20243 39848 40085 86400 333 59001;EQDQ01  00002PRCP99
0201825860999992000050500004-05200-039300FM-12+021199999V0209999C000010075019N0200001N1+02451+01861100981ADDAA106004191AY161061AY221061GF106991061021008001001001KA1240M+02971MA1999999098591MD1999999-0021MW1031REMSYN088AAXX  05004 82586 21598 60000 10245 20186 39859 40098 70362 86200 333 10297 59002 60041;
0201825860999992000050512004-05200-039300FM-12+021199999V0200901N003110075019N0200001N1+02541+02401101181ADDAA124003091AY151061AY221061GF108991081051008001999999KA1240N+02321MA1999999098791MD1999999+0051MW1031REMSYN088AAXX  05124 82586 21598 80906 10254 20240 39879 40118 70352 885// 333 20232 58005 60034;
0167825860999992000050518004-05200-039300FM-12+021199999V02099999999990075019N0200001N1+02861+02161100911ADDAA199000091GF107991071051008001001001MA1999999098531MD1999999+0051REMSYN070AAXX  05184 82586 32598 709// 10286 20216 39853 40091 87500 333 58005;EQDQ01  00002PRCP99
0201825860999992000050600004-05200-039300FM-12+021199999V0200501N005110075019N0010001N1+02331+02201101151ADDAA106001091AY161061AY221061GF108991081071008001999999KA1240M+02971MA1999999098751MD1999999+0161MW1611REMSYN088AAXX  06004 82586 21594 80510 10233 20220 39875 40115 76162 887// 333 10297 58016 60011;
0201825860999992000050612004-05200-039300FM-12+021199999V0201401N001510075019N0200001N1+02501+02361101101ADDAA124006191AY161061AY251061GF106991061011008001001001KA1240N+02161MA1999999098701MD1999999-0091MW1031REMSYN088AAXX  06124 82586 21598 61403 10250 20236 39870 40110 70365 86100 333 20216 59009 60064;
0167825860999992000050618004-05200-039300FM-12+021199999V02099999999990075019N0200001N1+02961+02041100831ADDAA199000091GF106991061041008001001001MA1999999098461MD1999999-0071REMSYN070AAXX  06184 82586 32598 614// 10296 20204 39846 40083 86400 333 59007;EQDQ01  00002PRCP99
0214825860999992000050700004-05200-039300FM-12+021199999V0209999C000010075019N0010001N1+02601+02191100971ADDAA199000091AY121061AY221061GF106991061031008001001001KA1240M+03031MA1999999098591MD1999999-0161MW1131REMSYN082AAXX  07004 82586 31594 60000 10260 20219 39859 40097 71322 86300 333 10303 59016;EQDQ01  00002PRCP99
0201825860999992000050712004-05200-039300FM-12+021199999V0201401N001512200019N0200001N1+02561+02351101071ADDAA124008991AY161061AY251061GF104991041021008001001001KA1240N+02121MA1999999098771MD1999999+0001MW1031REMSYN088AAXX  07124 82586 21598 41403 10256 20235 39877 40107 70365 84200 333 20212 58000 60094;
0183825860999992000050718004-05200-039300FM-12+021199999V0201401N002619999999N0200001N1+03061+02081100851ADDAA199000091GF105991999021008001001001MA1999999098491MD1999999+0031REMSYN070AAXX  07184 82586 32598 51405 10306 20208 39849 40085 84200 333 58003;EQDQ01+000042SCOTLCQ02  00002PRCP99
0214825860999992000050800004-05200-039300FM-12+021199999V0209999C000010075019N0010001N1+02551+02111101031ADDAA199000091AY121061AY221061GF106991061021008001001001KA1240M+03201MA1999999098651MD1999999+0061MW1131REMSYN082AAXX  08004 82586 31594 60000 10255 20211 39865 40103 71322 86200 333 10320 58006;EQDQ01  00002PRCP99
0201825860999992000050812004-05200-039300FM-12+021199999V0200501N002110075019N0200001N1+02561+02471101171ADDAA124006191AY161061AY251061GF108991081071008001999999KA1240N+02301MA1999999098791MD1999999+0091MW1201REMSYN088AAXX  08124 82586 21598 80504 10256 20247 39879 40117 72065 887// 333 20230 58009 60064;
0148825860999992000050818004-05200-039300FM-12+021199999V0201401N003612200019N0200001N1+03001+02271100941ADDAA199000021GF106991031011008001001041MA1999999098581MD1999999+0091REMSYN070AAXX  08184 82586 32598 61407 10300 20227 39858 40094 83104 333 58009;
0167825860999992000050900004-05200-039300FM-12+021199999V0209999C000012200019N0010001N1+02581+02101101081ADDAA199000021GF104991041021008001001001KA1240M+03031MA1999999098701MD1999999+0051REMSYN076AAXX  09004 82586 32594 40000 10258 20210 39870 40108 84200 333 10303 58005;
0186825860999992000050912004-05200-039300FM-12+021199999V0201401N003110075019N0200001N1+02701+02371101211ADDAA199000091GF106991061041008001001001KA1240N+02421MA1999999098831MD1999999+0041REMSYN076AAXX  09124 82586 32598 61406 10270 20237 39883 40121 86400 333 20242 58004;EQDQ01  00002PRCP99
0167825860999992000050918004-05200-039300FM-12+021199999V02099999999990075019N0200001N1+03031+02021100981ADDAA199000091GF105991051021008001001001MA1999999098621MD1999999+0041REMSYN070AAXX  09184 82586 32598 514// 10303 20202 39862 40098 85200 333 58004;EQDQ01  00002PRCP99
0196825860999992000051000004-05200-039300FM-12+021199999V0209999C000012200019N0010001N1+02521+02251101091ADDAA199000091GA1001+999999999GF100991001001999999001001KA1240M+03111MA1999999098721MD1999999+0021REMSYN070AAXX  10004 82586 32994 00000 10252 20225 39872 40109 333 10311 58002;EQDQ01  00002PRCP99
0201825860999992000051012004-05200-039300FM-12+021199999V0200501N001510075019N0200001N1+02541+02491101301ADDAA124000191AY151061AY221061GF107991071071008001001001KA1240N+02201MA1999999098921MD1999999+0091MW1201REMSYN088AAXX  10124 82586 21598 70503 10254 20249 39892 40130 72052 87700 333 20220 58009 69924;
0148825860999992000051018004-05200-039300FM-12+021199999V0201401N002610075019N0200001N1+03061+02051101041ADDAA199000021GF106991061041008001001001MA1999999098671MD1999999+0051REMSYN070AAXX  10184 82586 32598 61405 10306 20205 39867 40104 86400 333 58005;
0167825860999992000051100004-05200-039300FM-12+021199999V0200501N001010075019N0010001N1+02571+02451101151ADDAA199000021GF105991051021008001001001KA1240M+03131MA1999999098771MD1999999+0051REMSYN076AAXX  11004 82586 32594 50502 10257 20245 39877 40115 85200 333 10313 58005;
0186825860999992000051112004-05200-039300FM-12+021199999V0201401N003110075019N0200001N1+02761+02401101221ADDAA199000091GF106991061021008001001001KA1240N+02281MA1999999098851MD1999999-0071REMSYN076AAXX  11124 82586 32598 61406 10276 20240 39885 40122 86200 333 20228 59007;EQDQ01  00002PRCP99
0183825860999992000051118004-05200-039300FM-12+021199999V0201801N002619999999N0200001N1+03101+02201100941ADDAA199000091GF107991999021008001001001MA1999999098581MD1999999-0091REMSYN070AAXX  11184 82586 32598 71805 10310 20220 39858 40094 83200 333 59009;EQDQ01+000032SCOTLCQ02  00002PRCP99
0186825860999992000051200004-05200-039300FM-12+021199999V0200901N001010075019N0010001N1+02681+02451101011ADDAA199000091GF106991061051008001001001KA1240M+03101MA1999999098651MD1999999-0121REMSYN076AAXX  12004 82586 32594 60902 10268 20245 39865 40101 86500 333 10310 59012;EQDQ01  00002PRCP99
0220825860999992000051212004-05200-039300FM-12+021199999V0201801N003119999999N0200001N1+02661+02391101161ADDAA124000191AY151061AY221061GF106991999041008001001001KA1240N+02451MA1999999098781MD1999999-0071MW1031REMSYN088AAXX  12124 82586 21598 61806 10266 20239 39878 40116 70352 87400 333 20245 59007 69924;EQDQ01+000072SCOTLC
0167825860999992000051218004-05200-039300FM-12+021199999V0201801N003110075019N0200001N1+03011+02001100941ADDAA199000091GF106991061021008001001001MA1999999098581MD1999999+0001REMSYN070AAXX  12184 82586 32598 61806 10301 20200 39858 40094 86200 333 58000;EQDQ01  00002PRCP99
0186825860999992000051300004-05200-039300FM-12+021199999V0201801N001012200019N0010001N1+02521+02151101061ADDAA199000091GF102991021051008001001001KA1240M+03041MA1999999098691MD1999999+0041REMSYN076AAXX  13004 82586 32594 21802 10252 20215 39869 40106 82500 333 10304 58004;EQDQ01  00002PRCP99
0201825860999992000051312004-05200-039300FM-12+021199999V0201801N004612200019N0200001N1+02561+02351101201ADDAA124004191AY161061AY221061GF104991041011008001001001KA1240N+02241MA1999999098821MD1999999+0041MW1031REMSYN088AAXX  13124 82586 21598 41809 10256 20235 39882 40120 70362 84100 333 20224 58004 60044;
0167825860999992000051318004-05200-039300FM-12+021199999V0201801N003110075019N0200001N1+02901+02121100961ADDAA199000091GF106991061041008001001001MA1999999098591MD1999999+0011REMSYN070AAXX  13184 82586 32598 61806 10290 20212 39859 40096 86400 333 58001;EQDQ01  00002PRCP99
0201825860999992000051400004-05200-039300FM-12+021199999V0209999C000010075019N0010001N1+02451+02271101141ADDAA106000191AY151061AY221061GF106991061021008001001001KA1240M+02991MA1999999098751MD1999999+0061MW1031REMSYN088AAXX  14004 82586 21594 60000 10245 20227 39875 40114 70352 86200 333 10299 58006 69921;
0173825860999992000051412004-05200-039300FM-12+021199999V0201801N003610075019N0200001N1+02461+02251101231ADDAA124000191GF106991061041008001001001KA1240N+02261MA1999999098831MD1999999+0011REMSYN082AAXX  14124 82586 22598 61807 10246 20225 39883 40123 86400 333 20226 58001 69924;
0182825860999992000051418004-05200-039300FM-12+021199999V02099999999990075019N0200001N1+02481+02381101071ADDAA106002091AY161061AY221061GF108991081051008001999999MA1999999098671MD1999999+0081MW1211REMSYN082AAXX  14184 82586 21598 814// 10248 20238 39867 40107 72162 885// 333 58008 60021;
0173825860999992000051512004-05200-039300FM-12+021199999V0201801N001510075019N0200001N1+02561+02351101131ADDAA124002091GF106991061041008001001001KA1240N+02261MA1999999098751MD1999999-0081REMSYN082AAXX  15124 82586 22598 61803 10256 20235 39875 40113 86400 333 20226 59008 60024;
0167825860999992000051518004-05200-039300FM-12+021199999V0201801N003610075019N0200001N1+02941+02081100901ADDAA199000091GF105991051021008001001001MA1999999098531MD1999999-0141REMSYN070AAXX  15184 82586 32598 51807 10294 20208 39853 40090 85200 333 59014;EQDQ01  00002PRCP99
0186825860999992000051600004-05200-039300FM-12+021199999V0202301N000510075019N0010001N1+02631+02441100981ADDAA199000091GF108991081051008001999999KA1240M+03011MA1999999098611MD1999999-0111REMSYN076AAXX  16004 82586 32594 82301 10263 20244 39861 40098 885// 333 10301 59011;EQDQ01  00002PRCP99
0186825860999992000051612004-05200-039300FM-12+021199999V0201401N001510075019N0200001N1+02601+02511101161ADDAA199000091GF108991081071008001999999KA1240N+02261MA1999999098781MD1999999+0031REMSYN076AAXX  16124 82586 32598 81403 10260 20251 39878 40116 887// 333 20226 58003;EQDQ01  00002PRCP99
0167825860999992000051618004-05200-039300FM-12+021199999V0201401N003112200019N0200001N1+03001+02141100891ADDAA199000091GF104991041021008001001001MA1999999098531MD1999999+0001REMSYN070AAXX  16184 82586 32598 41406 10300 20214 39853 40089 84200 333 58000;EQDQ01  00002PRCP99
0186825860999992000051700004-05200-039300FM-12+021199999V0209999C000010075019N0010001N1+02541+02271101091ADDAA199000091GF108991081021008001001001KA1240M+03101MA1999999098711MD1999999+0101REMSYN076AAXX  17004 82586 32594 80000 10254 20227 39871 40109 88200 333 10310 58010;EQDQ01  00002PRCP99
0201825860999992000051712004-05200-039300FM-12+021199999V0200501N003110075019N0200001N1+02641+02501101201ADDAA124016091AY161061AY251061GF108991081071008001999999KA1240N+02251MA1999999098821MD1999999+0041MW1031REMSYN088AAXX  17124 82586 21598 80506 10264 20250 39882 40120 70365 887// 333 20225 58004 60164;
0167825860999992000051718004-05200-039300FM-12+021199999V0201401N003110075019N0200001N1+02921+02321100961ADDAA199000091GF106991061021008001001001MA1999999098581MD1999999+0051REMSYN070AAXX  17184 82586 32598 61406 10292 20232 39858 40096 86200 333 58005;EQDQ01  00002PRCP99
0186825860999992000051800004-05200-039300FM-12+021199999V0203601N001510075019N0010001N1+02521+02381101091ADDAA199000091GF108991081071008001999999KA1240M+02961MA1999999098711MD1999999+0001REMSYN076AAXX  18004 82586 32594 83603 10252 20238 39871 40109 887// 333 10296 58000;EQDQ01  00002PRCP99
0201825860999992000051812004-05200-039300FM-12+021199999V0200901N003110075019N0200001N1+02581+02491101231ADDAA124022191AY161061AY261061GF108991081071008001999999KA1240N+02261MA1999999098851MD1999999+0031MW1031REMSYN088AAXX  18124 82586 21598 80906 10258 20249 39885 40123 70366 887// 333 20226 58003 60224;
0167825860999992000051818004-05200-039300FM-12+021199999V0203601N003112200019N0200001N1+03021+02291100941ADDAA199000091GF104991041021008001001001MA1999999098581MD1999999+0001REMSYN070AAXX  18184 82586 32598 43606 10302 20229 39858 40094 84200 333 58000;EQDQ01  00002PRCP99
0186825860999992000051900004-05200-039300FM-12+021199999V0203601N001012200019N0010001N1+02511+02291101071ADDAA199000091GF102991021011008001001001KA1240M+03061MA1999999098691MD1999999-0021REMSYN076AAXX  19004 82586 32594 23602 10251 20229 39869 40107 82100 333 10306 59002;EQDQ01  00002PRCP99
0186825860999992000051912004-05200-039300FM-12+021199999V0200501N004612200019N0200001N1+02721+02281101261ADDAA199000091GF104991041011008001001001KA1240N+02301MA1999999098881MD1999999+0031REMSYN076AAXX  19124 82586 32598 40509 10272 20228 39888 40126 84100 333 20230 58003;EQDQ01  00002PRCP99
0167825860999992000051918004-05200-039300FM-12+021199999V0200501N002112200019N0200001N1+02961+02171101051ADDAA199000091GF106991031011008001001041MA1999999098681MD1999999+0101REMSYN070AAXX  19184 82586 32598 60504 10296 20217 39868 40105 83104 333 58010;EQDQ01  00002PRCP99
0196825860999992000052000004-05200-039300FM-12+021199999V0203201N001012200019N0010001N1+02501+02131101151ADDAA199000091GA1001+999999999GF100991001001999999001001KA1240M+03041MA1999999098771MD1999999+0081REMSYN070AAXX  20004 82586 32594 03202 10250 20213 39877 40115 333 10304 58008;EQDQ01  00002PRCP99
0186825860999992000052012004-05200-039300FM-12+021199999V0200501N002112200019N0200001N1+02721+02281101361ADDAA199000091GF102991021011008001001001KA1240N+02281MA1999999098981MD1999999+0101REMSYN076AAXX  20124 82586 32598 20504 10272 20228 39898 40136 82100 333 20228 58010;EQDQ01  00002PRCP99
0167825860999992000052018004-05200-039300FM-12+021199999V0200501N002612200019N0200001N1+03001+02141101131ADDAA199000091GF104991041021008001001001MA1999999098751MD1999999+0071REMSYN070AAXX  20184 82586 32598 40505 10300 20214 39875 40113 84200 333 58007;EQDQ01  00002PRCP99
0196825860999992000052100004-05200-039300FM-12+021199999V0202301N000512200019N0010001N1+02471+02091101281ADDAA199000091GA1001+999999999GF100991001001999999001001KA1240M+03031MA1999999098901MD1999999+0131REMSYN070AAXX  21004 82586 32994 02301 10247 20209 39890 40128 333 10303 58013;EQDQ01  00002PRCP99
0186825860999992000052112004-05200-039300FM-12+021199999V0200901N005112200019N0200001N1+02681+02161101381ADDAA199000091GF102991021011008001001001KA1240N+02261MA1999999098991MD1999999+0011REMSYN076AAXX  21124 82586 32598 20910 10268 20216 39899 40138 82100 333 20226 58001;EQDQ01  00002PRCP99
0167825860999992000052118004-05200-039300FM-12+021199999V0200901N003112200019N0200001N1+03021+01921101151ADDAA199000091GF104991041011008001001001MA1999999098781MD1999999+0031REMSYN070AAXX  21184 82586 32598 40906 10302 20192 39878 40115 84100 333 58003;EQDQ01  00002PRCP99
0186825860999992000052200004-05200-039300FM-12+021199999V0209999C000012200019N0010001N1+02481+02051101331ADDAA199000091GF102991021011008001001001KA1240M+03081MA1999999098951MD1999999+0051REMSYN076AAXX  22004 82586 32594 20000 10248 20205 39895 40133 82100 333 10308 58005;EQDQ01  00002PRCP99
0186825860999992000052212004-05200-039300FM-12+021199999V0201401N003112200019N0200001N1+02641+02161101471ADDAA199000091GF105991031041008001001011KA1240N+02341MA1999999099091MD1999999+0101REMSYN076AAXX  22124 82586 32598 51406 10264 20216 39909 40147 83401 333 20234 58010;EQDQ01  00002PRCP99
0167825860999992000052218004-05200-039300FM-12+021199999V0201801N003112200019N0200001N1+03001+01841101251ADDAA199000091GF102991021011008001001001MA1999999098881MD1999999+0101REMSYN070AAXX  22184 82586 32598 21806 10300 20184 39888 40125 82100 333 58010;EQDQ01  00002PRCP99
0202825860999992000052300004-05200-039300FM-12+021199999V0200501N001012200019N9999999N1+02421+01841101421ADDAA199000091GF102991999021008001001001KA1240M+03041MA1999999099031MD1999999+0081REMSYN076AAXX  23004 82586 325// 20502 10242 20184 39903 40142 86200 333 10304 58008;EQDQ01+000062SCOTLCQ02  00002PRCP99
0186825860999992000052312004-05200-039300FM-12+021199999V0201401N004110075019N0200001N1+02621+02161101581ADDAA199000091GF106991061021008001001001KA1240N+02201MA1999999099181MD1999999+0091REMSYN076AAXX  23124 82586 32598 61408 10262 20216 39918 40158 86200 333 20220 58009;EQDQ01  00002PRCP99
0167825860999992000052318004-05200-039300FM-12+021199999V0201401N005110075019N0200001N1+02901+02171101301ADDAA199000091GF105991051021008001001001MA1999999098921MD1999999+0041REMSYN070AAXX  23184 82586 32598 51410 10290 20217 39892 40130 85200 333 58004;EQDQ01  00002PRCP99
0196825860999992000052400004-05200-039300FM-12+021199999V0203601N001012200019N0010001N1+02461+02091101441ADDAA199000091GA1001+999999999GF100991001001999999001001KA1240M+02981MA1999999099051MD1999999+0021REMSYN070AAXX  24004 82586 32994 03602 10246 20209 39905 40144 333 10298 58002;EQDQ01  00002PRCP99
0186825860999992000052412004-05200-039300FM-12+021199999V0201401N004110075019N0200001N1+02561+02151101511ADDAA199000091GF106991061041008001001001KA1240N+02141MA1999999099111MD1999999-0071REMSYN076AAXX  24124 82586 32598 61408 10256 20215 39911 40151 86400 333 20214 59007;EQDQ01  00002PRCP99
0167825860999992000052418004-05200-039300FM-12+021199999V0201401N002610075019N0200001N1+02941+02031101201ADDAA199000091GF105991051021008001001001MA1999999098821MD1999999-0101REMSYN070AAXX  24184 82586 32598 51405 10294 20203 39882 40120 85200 333 59010;EQDQ01  00002PRCP99
0196825860999992000052500004-05200-039300FM-12+021199999V0202301N001012200019N0010001N1+02331+99999101361ADDAA199000091GA1001+999999999GF100991001001999999001001KA1240M+02961MA1999999098961MD1999999-0091REMSYN070AAXX  25004 82586 32994 02302 10233 20235 39896 40136 333 10296 59009;EQDQ01  00002PRCP99
0186825860999992000052512004-05200-039300FM-12+021199999V0201401N002110075019N0200001N1+02481+02231101471ADDAA199000091GF106991061041008001001001KA1240N+02101MA1999999099041MD1999999-0071REMSYN076AAXX  25124 82586 32598 61404 10248 20223 39904 40147 86400 333 20210 59007;EQDQ01  00002PRCP99
0167825860999992000052518004-05200-039300FM-12+021199999V0201401N003112200019N0200001N1+02961+01871101161ADDAA199000091GF104991021021008001001011MA1999999098781MD1999999-0041REMSYN070AAXX  25184 82586 32598 41406 10296 20187 39878 40116 82201 333 59004;EQDQ01  00002PRCP99
0196825860999992000052600004-05200-039300FM-12+021199999V0209999C000012200019N0010001N1+02381+02011101281ADDAA199000091GA1001+999999999GF100991001001999999001001KA1240M+02991MA1999999098881MD1999999-0081REMSYN070AAXX  26004 82586 32994 00000 10238 20201 39888 40128 333 10299 59008;EQDQ01  00002PRCP99
0186825860999992000052612004-05200-039300FM-12+021199999V0201401N003110075019N0200001N1+02581+02371100141ADDAA199000091GF106991061041008001001001KA1240N+02061MA1999999098981MD1999999-0061REMSYN076AAXX  26124 82586 32598 61406 10258 20237 39898 40014 86400 333 20206 59006;EQDQ01  00002PRCP99
0167825860999992000052618004-05200-039300FM-12+021199999V0201401N003110075019N0200001N1+03001+02001101101ADDAA199000091GF105991051021008001001001MA1999999098721MD1999999-0061REMSYN070AAXX  26184 82586 32598 51406 10300 20200 39872 40110 85200 333 59006;EQDQ01  00002PRCP99
0196825860999992000052700004-05200-039300FM-12+021199999V0202301N001512200019N0010001N1+02341+02131101321ADDAA199000091GA1001+999999999GF100991001001999999001001KA1240M+03061MA1999999098921MD1999999+0041REMSYN070AAXX  27004 82586 32994 02303 10234 20213 39892 40132 333 10306 58004;EQDQ01  00002PRCP99
0186825860999992000052712004-05200-039300FM-12+021199999V0200901N003110075019N0200001N1+02461+02411101311ADDAA199000091GF108991081071008001999999KA1240N+02081MA1999999098011MD1999999-0071REMSYN076AAXX  27124 82586 32598 80906 10246 20241 39801 40131 887// 333 20208 59007;EQDQ01  00002PRCP99
0167825860999992000052718004-05200-039300FM-12+021199999V02099999999992200019N0200001N1+03011+02081101081ADDAA199000091GF102991021011008001001001MA1999999098711MD1999999-0021REMSYN070AAXX  27184 82586 32598 214// 10301 20208 39871 40108 82100 333 59002;EQDQ01  00002PRCP99
0196825860999992000052800004-05200-039300FM-12+021199999V0209999C000012200019N0010001N1+02391+02091101231ADDAA199000091GA1001+999999999GF100991001001999999001001KA1240M+03071MA1999999098731MD1999999-0191REMSYN070AAXX  28004 82586 32994 00000 10239 20209 39873 40123 333 10307 59019;EQDQ01  00002PRCP99
0186825860999992000052812004-05200-039300FM-12+021199999V0200901N001510075019N0200001N1+02581+02331101221ADDAA199000091GF108991081071008001999999KA1240N+02101MA1999999098831MD1999999-0081REMSYN076AAXX  28124 82586 32598 80903 10258 20233 39883 40122 887// 333 20210 59008;EQDQ01  00002PRCP99
0167825860999992000052818004-05200-039300FM-12+021199999V0201401N001512200019N0200001N1+03051+02061100881ADDAA199000091GF103991031011008001001001MA1999999098521MD1999999-0191REMSYN070AAXX  28184 82586 32598 31403 10305 20206 39852 40088 83100 333 59019;EQDQ01  00002PRCP99
0196825860999992000052900004-05200-039300FM-12+021199999V0200501N001012200019N0010001N1+02461+02031101061ADDAA199000091GA1001+999999999GF100991001001999999001001KA1240M+03111MA1999999098671MD1999999-0061REMSYN070AAXX  29004 82586 32994 00502 10246 20203 39867 40106 333 10311 59006;EQDQ01  00002PRCP99
0186825860999992000052912004-05200-039300FM-12+021199999V0200901N002110075019N0200001N1+02601+02331101131ADDAA199000091GF106991061021008001001001KA1240N+02161MA1999999098751MD1999999-0081REMSYN076AAXX  29124 82586 32598 60904 10260 20233 39875 40113 86200 333 20216 59008;EQDQ01  00002PRCP99
0167825860999992000052918004-05200-039300FM-12+021199999V0200901N003110075019N0200001N1+03101+02031100851ADDAA199000091GF105991051011008001001001MA1999999098491MD1999999-0031REMSYN070AAXX  29184 82586 32598 50906 10310 20203 39849 40085 85100 333 59003;EQDQ01  00002PRCP99
0201825860999992000053000004-05200-039300FM-12+021199999V0209999C000010075019N0010001N1+02441+02341101061ADDAA106003091AY161061AY221061GF108991081071008001999999KA1240M+03151MA1999999098671MD1999999+0001MW1031REMSYN088AAXX  30004 82586 21594 80000 10244 20234 39867 40106 70362 887// 333 10315 58000 60031;
0173825860999992000053012004-05200-039300FM-12+021199999V0200901N002610075019N0200001N1+02691+02431101201ADDAA124003091GF106991061041008001001001KA1240N+02361MA1999999098821MD1999999+0071REMSYN082AAXX  30124 82586 22598 60905 10269 20243 39882 40120 86400 333 20236 58007 60034;
0167825860999992000053018004-05200-039300FM-12+021199999V0200901N003112200019N0200001N1+03001+02321100941ADDAA199000091GF106991031021008001001041MA1999999098581MD1999999+0091REMSYN070AAXX  30184 82586 32598 60906 10300 20232 39858 40094 83204 333 58009;EQDQ01  00002PRCP99
0196825860999992000053100004-05200-039300FM-12+021199999V0203601N001512200019N0010001N1+02461+01881101091ADDAA199000091GA1001+999999999GF100991001001999999001001KA1240M+03111MA1999999098711MD1999999+0041REMSYN070AAXX  31004 82586 32994 03603 10246 20188 39871 40109 333 10311 58004;EQDQ01  00002PRCP99
0186825860999992000053112004-05200-039300FM-12+021199999V0201401N002610075019N0200001N1+02561+02421101261ADDAA199000091GF108991081071008001999999KA1240N+02341MA1999999098871MD1999999+0051REMSYN076AAXX  31124 82586 32598 81405 10256 20242 39887 40126 887// 333 20234 58005;EQDQ01  00002PRCP99
0167825860999992000053118004-05200-039300FM-12+021199999V02099999999992200019N0200001N1+03101+02031100931ADDAA199000091GF106991031011008001001011MA1999999098571MD1999999-0011REMSYN070AAXX  31184 82586 32598 609// 10310 20203 39857 40093 83101 333 59001;EQDQ01  00002PRCP99
0186825860999992000060100004-05200-039300FM-12+021199999V0200501N002610075019N0010001N1+02421+02191101201ADDAA199000091GF106991061041008001001001KA1240M+03131MA1999999098811MD1999999+0101REMSYN076AAXX  01004 82586 32594 60505 10242 20219 39881 40120 86400 333 10313 58010;EQDQ01  00002PRCP99
0201825860999992000060112004-05200-039300FM-12+021199999V0200501N005111050019N0200001N1+02761+02481101271ADDAA124000191AY151061AY221061GF106991041041008001001021KA1240N+02281MA1999999098891MD1999999+0021MW1031REMSYN088AAXX  01124 82586 21598 60510 10276 20248 39889 40127 70352 84402 333 20228 58002 69924;
0167825860999992000060118004-05200-039300FM-12+021199999V0200501N003112200019N0200001N1+03101+02031101051ADDAA199000091GF106991031021008001001041MA1999999098691MD1999999+0121REMSYN070AAXX  01184 82586 32598 60506 10310 20203 39869 40105 83204 333 58012;EQDQ01  00002PRCP99
0196825860999992000060200004-05200-039300FM-12+021199999V0203201N000512200019N0010001N1+02521+02151101171ADDAA199000091GA1001+999999999GF100991001001999999001001KA1240M+03161MA1999999098791MD1999999-0021REMSYN070AAXX  02004 82586 32994 03201 10252 20215 39879 40117 333 10316 59002;EQDQ01  00002PRCP99
0186825860999992000060212004-05200-039300FM-12+021199999V0201401N002610075019N0200001N1+02561+02351101271ADDAA199000091GF106991061071008001001001KA1240N+02201MA1999999098891MD1999999+0001REMSYN076AAXX  02124 82586 32598 61405 10256 20235 39889 40127 86700 333 20220 58000;EQDQ01  00002PRCP99
0167825860999992000060218004-05200-039300FM-12+021199999V0201401N003110075019N0200001N1+03161+01961101051ADDAA199000091GF105991051021008001001001MA1999999098691MD1999999+0001REMSYN070AAXX  02184 82586 32598 51406 10316 20196 39869 40105 85200 333 58000;EQDQ01  00002PRCP99
0196825860999992000060300004-05200-039300FM-12+021199999V0209999C000012200019N0010001N1+02461+02191101141ADDAA199000091GA1001+999999999GF100991001001999999001001KA1240M+03201MA1999999098751MD1999999-0041REMSYN070AAXX  03004 82586 32994 00000 10246 20219 39875 40114 333 10320 59004;EQDQ01  00002PRCP99
0202825860999992000060312004-05200-039300FM-12+021199999V0201401N003119999999N0200001N1+02601+02331101381ADDAA199000091GF105991999011008001001001KA1240N+02281MA1999999098991MD1999999+0101REMSYN076AAXX  03124 82586 32598 51406 10260 20233 39899 40138 82100 333 20228 58010;EQDQ01+000022SCOTLCQ02  00002PRCP99
0183825860999992000060318004-05200-039300FM-12+021199999V0201401N003112200019N0200001N1+03141+01801101191ADDAA199000091GF104991999011008001001001MA1999999098821MD1999999+0131REMSYN070AAXX  03184 82586 32598 41406 10314 20180 39882 40119 82100 333 58013;EQDQ01+000022SCOTLCQ02  00002PRCP99
0196825860999992000060400004-05200-039300FM-12+021199999V02099999999992200019N0010001N1+02401+02111101291ADDAA199000091GA1001+999999999GF100991001001999999001001KA1240M+03161MA1999999098901MD1999999+0151REMSYN070AAXX  04004 82586 32994 005// 10240 20211 39890 40129 333 10316 58015;EQDQ01  00002PRCP99
0186825860999992000060412004-05200-039300FM-12+021199999V0201801N003112200019N0200001N1+02641+01901101481ADDAA199000091GF103991011011008001001041KA1240N+02081MA1999999099081MD1999999+0091REMSYN076AAXX  04124 82586 32598 31806 10264 20190 39908 40148 81104 333 20208 58009;EQDQ01  00002PRCP99
0167825860999992000060418004-05200-039300FM-12+021199999V0200901N004112200019N0200001N1+03101+01661101241ADDAA199000091GF102991021011008001001001MA1999999098861MD1999999+0041REMSYN070AAXX  04184 82586 32598 20908 10310 20166 39886 40124 82100 333 58004;EQDQ01  00002PRCP99
0196825860999992000060500004-05200-039300FM-12+021199999V0201801N001012200019N0010001N1+02341+02031101371ADDAA199000091GA1001+999999999GF100991001001999999001001KA1240M+03131MA1999999098981MD1999999+0081REMSYN070AAXX  05004 82586 32994 01802 10234 20203 39898 40137 333 10313 58008;EQDQ01  00002PRCP99
0186825860999992000060512004-05200-039300FM-12+021199999V0200901N002112200019N0200001N1+02601+02191101451ADDAA199000091GF102991021011008001001001KA1240N+01901MA1999999099051MD1999999-0031REMSYN076AAXX  05124 82586 32598 20904 10260 20219 39905 40145 82100 333 20190 59003;EQDQ01  00002PRCP99
0167825860999992000060518004-05200-039300FM-12+021199999V02099999999992200019N0200001N1+03141+01841101221ADDAA199000091GF102991021011008001001001MA1999999098841MD1999999-0021REMSYN070AAXX  05184 82586 32598 214// 10314 20184 39884 40122 82100 333 59002;EQDQ01  00002PRCP99
0196825860999992000060600004-05200-039300FM-12+021199999V02099999999992200019N0010001N1+02381+01911101351ADDAA199000091GA1001+999999999GF100991001001999999001001KA1240M+03161MA1999999098951MD1999999-0031REMSYN070AAXX  06004 82586 32994 005// 10238 20191 39895 40135 333 10316 59003;EQDQ01  00002PRCP99
0201825860999992000060612004-05200-039300FM-12+021199999V0201801N001510075019N0200001N1+02441+02251101461ADDAA124000391AY151061AY221061GF108991081071008001999999KA1240N+02101MA1999999099051MD1999999+0001MW1031REMSYN088AAXX  06124 82586 21598 81803 10244 20225 39905 40146 70352 887// 333 20210 58000 69934;
0167825860999992000060618004-05200-039300FM-12+021199999V0201801N002110075019N0200001N1+02941+02081101231ADDAA199000091GF106991061041008001001001MA1999999098851MD1999999+0011REMSYN070AAXX  06184 82586 32598 61804 10294 20208 39885 40123 86400 333 58001;EQDQ01  00002PRCP99
0186825860999992000060700004-05200-039300FM-12+021199999V0209999C000010075019N0010001N1+02381+02111101391ADDAA199000091GF106991061041008001001001KA1240M+03021MA1999999098981MD1999999+0031REMSYN076AAXX  07004 82586 32594 60000 10238 20211 39898 40139 86400 333 10302 58003;EQDQ01  00002PRCP99
0186825860999992000060712004-05200-039300FM-12+021199999V0201401N003610075019N0200001N1+02481+02231101431ADDAA199000091GF108991081071008001999999KA1240N+02241MA1999999099031MD1999999-0021REMSYN076AAXX  07124 82586 32598 81407 10248 20223 39903 40143 887// 333 20224 59002;EQDQ01  00002PRCP99
0167825860999992000060718004-05200-039300FM-12+021199999V0201401N003110075019N0200001N1+02921+02061101211ADDAA199000091GF108991081071008001999999MA1999999098831MD1999999-0021REMSYN070AAXX  07184 82586 32598 81406 10292 20206 39883 40121 887// 333 59002;EQDQ01  00002PRCP99
0201825860999992000060800004-05200-039300FM-12+021199999V0200501N001010075019N0010001N1+02471+02281101351ADDAA106000891AY121061AY221061GF108991081071008001999999KA1240M+02931MA1999999098951MD1999999-0031MW1611REMSYN088AAXX  08004 82586 21594 80502 10247 20228 39895 40135 76122 887// 333 10293 59003 69971;
0201825860999992000060812004-05200-039300FM-12+021199999V0201401N003110075019N0200001N1+02501+02361101401ADDAA124005191AY161061AY251061GF106991061041008001001001KA1240N+02241MA1999999099001MD1999999-0031MW1031REMSYN088AAXX  08124 82586 21598 61406 10250 20236 39900 40140 70365 86400 333 20224 59003 60054;
0167825860999992000060818004-05200-039300FM-12+021199999V0201401N001510075019N0200001N1+02801+02201101241ADDAA199000091GF106991061041008001001001MA1999999098851MD1999999+0021REMSYN070AAXX  08184 82586 32598 61403 10280 20220 39885 40124 86400 333 58002;EQDQ01  00002PRCP99
0186825860999992000060900004-05200-039300FM-12+021199999V0209999C000010075019N0010001N1+02441+02231101351ADDAA199000091GF107991071041008001001001KA1240M+02861MA1999999098951MD1999999+0001REMSYN076AAXX  09004 82586 32594 70000 10244 20223 39895 40135 87400 333 10286 58000;EQDQ01  00002PRCP99
0201825860999992000060912004-05200-039300FM-12+021199999V0201401N002610075019N0200001N1+02381+02331101461ADDAA124033091AY161061AY261061GF108991081071008001999999KA1240N+02201MA1999999099051MD1999999+0051MW1031REMSYN088AAXX  09124 82586 21598 81405 10238 20233 39905 40146 70366 887// 333 20220 58005 60334;
0183825860999992000060918004-05200-039300FM-12+021199999V0201401N001510075019N0200001N1+02811+01921101211ADDAA199000091GF108991081071008001999999MA1999999098232MD1999999-0021REMSYN070AAXX  09184 82586 32598 81403 10281 20192 39823 40121 887// 333 59002;EQDQ01+098233APOSP Q02  00002PRCP99
0186825860999992000061000004-05200-039300FM-12+021199999V02099999999990075019N0010001N1+02421+02151101361ADDAA199000091GF108991081051008001999999KA1240M+02831MA1999999098951MD1999999+0001REMSYN076AAXX  10004 82586 32594 836// 10242 20215 39895 40136 885// 333 10283 58000;EQDQ01  00002PRCP99
0186825860999992000061012004-05200-039300FM-12+021199999V0201401N001510075019N0200001N1+02541+02351101321ADDAA199000091GF106991061021008001001001KA1240N+02141MA1999999098981MD1999999-0071REMSYN076AAXX  10124 82586 32598 61403 10254 20235 39898 40132 86200 333 20214 59007;EQDQ01  00002PRCP99
0167825860999992000061018004-05200-039300FM-12+021199999V0201401N003110075019N0200001N1+02951+02081101151ADDAA199000091GF106991061021008001001001MA1999999098771MD1999999-0061REMSYN070AAXX  10184 82586 32598 61406 10295 20208 39877 40115 86200 333 59006;EQDQ01  00002PRCP99
0186825860999992000061100004-05200-039300FM-12+021199999V0202301N001010120019N0010001N1+02571+02291101311ADDAA199000091GF106991061021012501001001KA1240M+03011MA1999999098931MD1999999-0021REMSYN076AAXX  11004 82586 32694 62302 10257 20229 39893 40131 86200 333 10301 59002;EQDQ01  00002PRCP99
0220825860999992000061112004-05200-039300FM-12+021199999V0201401N002610075019N0200001N1+02341+02291101381ADDAA124000191AY151061AY221061GF106991061041008001001001KA1240N+99999MA1999999098981MD1999999+0001MW1031REMSYN088AAXX  11124 82586 21598 61405 10234 20229 39898 40138 70352 86400 333 20255 58000 69924;EQDQ01 +02552ATMN  
0167825860999992000061118004-05200-039300FM-12+021199999V0200901N002610075019N0200001N1+02241+99999101181ADDAA199000091GF106991061041008001001001MA1999999098801MD1999999+0031REMSYN070AAXX  11184 82586 32598 60905 10224 20235 39880 40118 86400 333 58003;EQDQ01  00002PRCP99
0201825860999992000061200004-05200-039300FM-12+021199999V0209999C000010075019N0010001N1+02441+02151101361ADDAA112000791AY151061AY221061GF106991061051008001001001KA1240M+02991MA1999999098951MD1999999-0021MW1031REMSYN088AAXX  12004 82586 21594 60000 10244 20215 39895 40136 70352 86500 333 10299 59002 69902;
0201825860999992000061212004-05200-039300FM-12+021199999V0200901N002110075019N0200001N1+02481+02381101441ADDAA124014091AY161061AY251061GF108991081071008001999999KA1240N+02161MA1999999099041MD1999999+0061MW1031REMSYN088AAXX  12124 82586 21598 80904 10248 20238 39904 40144 70365 887// 333 20216 58006 60144;
0167825860999992000061218004-05200-039300FM-12+021199999V0200501N001512200019N0200001N1+03001+02241101131ADDAA199000091GF104991041021008001001001MA1999999098751MD1999999-0051REMSYN070AAXX  12184 82586 32598 40503 10300 20224 39875 40113 84200 333 59005;EQDQ01  00002PRCP99
0196825860999992000061300004-05200-039300FM-12+021199999V0203601N001012200019N0010001N1+02421+02051101131ADDAA199000091GA1001+999999999GF100991001001999999001001KA1240M+03031MA1999999098731MD1999999-0221REMSYN070AAXX  13004 82586 32994 03602 10242 20205 39873 40113 333 10303 59022;EQDQ01  00002PRCP99
0186825860999992000061312004-05200-039300FM-12+021199999V0201401N001510075019N0200001N1+02521+02431101311ADDAA199000091GF106991061041008001001001KA1240N+02221MA1999999098421MD1999999-0121REMSYN076AAXX  13124 82586 32598 61403 10252 20243 39842 40131 86400 333 20222 59012;EQDQ01  00002PRCP99
0167825860999992000061318004-05200-039300FM-12+021199999V0200901N003112200019N0200001N1+03061+02051101021ADDAA199000091GF102991021011008001001001MA1999999098651MD1999999-0101REMSYN070AAXX  13184 82586 32598 20906 10306 20205 39865 40102 82100 333 59010;EQDQ01  00002PRCP99
0180825860999992000061400004-05190-039300FM-12+021199999V0209999C000012200019N0010001N1+02441+02031101171ADDAA199000091GF103991999999999999999999KA1240M+03121MA1999999098781MD1999999+0051REMSYN070AAXX  14004 82586 32994 30000 10244 20203 39878 40117 333 10312 58005;EQDQ01  00002PRCP99
0186825860999992000061412004-05190-039300FM-12+021199999V0201801N003110075019N0200001N1+02541+02351101221ADDAA199000091GF105991051011008001001001KA1240N+02251MA1999999098891MD1999999-0031REMSYN076AAXX  14124 82586 32598 51806 10254 20235 39889 40122 85100 333 20225 59003;EQDQ01  00002PRCP99
0167825860999992000061418004-05190-039300FM-12+021199999V0201401N003110075019N0200001N1+03021+02161101021ADDAA199000091GF106991061041008001001001MA1999999098651MD1999999+0001REMSYN070AAXX  14184 82586 32598 61406 10302 20216 39865 40102 86400 333 58000;EQDQ01  00002PRCP99
0186825860999992000061500004-05190-039300FM-12+021199999V0203601N001512200019N0010001N1+02461+02031101171ADDAA199000091GF102991021001012501051001KA1240M+03091MA1999999098781MD1999999+0001REMSYN076AAXX  15004 82586 32694 23603 10246 20203 39878 40117 82050 333 10309 58000;EQDQ01  00002PRCP99
0186825860999992000061512004-05190-039300FM-12+021199999V0201401N003110075019N0200001N1+02541+02401101291ADDAA199000091GF107991071071008001001001KA1240N+02201MA1999999098901MD1999999+0011REMSYN076AAXX  15124 82586 32598 71406 10254 20240 39890 40129 87700 333 20220 58001;EQDQ01  00002PRCP99
0182825860999992000061518004-05190-039300FM-12+021199999V0201401N001010075019N0200001N1+02801+02381101071ADDAA106000191AY151061AY221061GF107991071051008001001001MA1999999098681MD1999999+0031MW1031REMSYN082AAXX  15184 82586 21598 71402 10280 20238 39868 40107 70352 87500 333 58003 69921;
0201825860999992000061600004-05190-039300FM-12+021199999V0203601N001010075019N0010001N1+02301+02221101201ADDAA106006191AY161061AY251061GF108991081071008001999999KA1240M+02921MA1999999098801MD1999999+0021MW1031REMSYN088AAXX  16004 82586 21594 83602 10230 20222 39880 40120 70365 887// 333 10292 58002 60061;
0201825860999992000061612004-05190-039300FM-12+021199999V0201401N002110075019N0200001N1+02221+02191101381ADDAA124022191AY161061AY251061GF108991081071008001999999KA1240N+02061MA1999999098971MD1999999+0071MW1031REMSYN088AAXX  16124 82586 21598 81404 10222 20219 39897 40138 70365 887// 333 20206 58007 60224;
0167825860999992000061618004-05190-039300FM-12+021199999V0201401N000510075019N0200001N1+02741+02301101091ADDAA199000091GF106991061041008001001001MA1999999098691MD1999999+0011REMSYN070AAXX  16184 82586 32598 61401 10274 20230 39869 40109 86400 333 58001;EQDQ01  00002PRCP99
0201825860999992000061712004-05190-039300FM-12+021199999V0201401N002110075019N0200001N1+02421+02391101341ADDAA124006191AY161061AY251061GF108991081071008001999999KA1240N+02181MA1999999098921MD1999999-0051MW1031REMSYN088AAXX  17124 82586 21598 81404 10242 20239 39892 40134 70365 887// 333 20218 59005 60064;
0201825860999992000061718004-05190-039300FM-12+021199999V0200901N002119999999N0200001N1+02941+02161101041ADDAA106000391AY151061AY221061GF105991999021008001001001MA1999999098691MD1999999-0021MW1031REMSYN082AAXX  17184 82586 21598 50904 10294 20216 39869 40104 70352 83200 333 59002 69931;EQDQ01+000032SCOTLC
0186825860999992000061800004-05190-039300FM-12+021199999V0203601N002112200019N0010001N1+02421+02051101181ADDAA199000091GF102991021011012501001001KA1240M+02991MA1999999098741MD1999999-0051REMSYN076AAXX  18004 82586 32694 23604 10242 20205 39874 40118 82100 333 10299 59005;EQDQ01  00002PRCP99
0173825860999992000061812004-05190-039300FM-12+021199999V0200901N004610075019N0200001N1+02641+02371101311ADDAA124000391GF105991051021008001001001KA1240N+02221MA1999999098931MD1999999+0011REMSYN082AAXX  18124 82586 22598 50909 10264 20237 39893 40131 85200 333 20222 58001 69934;
0167825860999992000061818004-05190-039300FM-12+021199999V0200901N003612200019N0200001N1+03101+02261101011ADDAA199000091GF104991041011008001001001MA1999999098651MD1999999-0021REMSYN070AAXX  18184 82586 32598 40907 10310 20226 39865 40101 84100 333 59002;EQDQ01  00002PRCP99
0186825860999992000061900004-05190-039300FM-12+021199999V02099999999992200019N0010001N1+02561+02191101141ADDAA199000091GF103991031051008001001001KA1240M+03131MA1999999098761MD1999999-0021REMSYN076AAXX  19004 82586 32594 327// 10256 20219 39876 40114 83500 333 10313 59002;EQDQ01  00002PRCP99
0186825860999992000061912004-05190-039300FM-12+021199999V0201401N001010075019N0200001N1+02541+02351101301ADDAA199000091GF106991061041008001001001KA1240N+02201MA1999999098921MD1999999-0011REMSYN076AAXX  19124 82586 32598 61402 10254 20235 39892 40130 86400 333 20220 59001;EQDQ01  00002PRCP99
0167825860999992000061918004-05190-039300FM-12+021199999V0200901N002110075019N0200001N1+03061+02301101081ADDAA199000091GF106991061021008001001001MA1999999098721MD1999999+0071REMSYN070AAXX  19184 82586 32598 60904 10306 20230 39872 40108 86200 333 58007;EQDQ01  00002PRCP99
0186825860999992000062000004-05190-039300FM-12+021199999V0209999C000012200019N0010001N1+02521+02091101181ADDAA199000091GF104991041021012501001001KA1240M+03111MA1999999098801MD1999999+0041REMSYN076AAXX  20004 82586 32694 40000 10252 20209 39880 40118 84200 333 10311 58004;EQDQ01  00002PRCP99
0201825860999992000062012004-05190-039300FM-12+021199999V0200901N002110075019N0200001N1+02621+02521101361ADDAA124003091AY161061AY221061GF106991061041008001001001KA1240N+02321MA1999999098981MD1999999+0061MW1031REMSYN088AAXX  20124 82586 21598 60904 10262 20252 39898 40136 70362 86400 333 20232 58006 60034;
0167825860999992000062018004-05190-039300FM-12+021199999V0200501N003110075019N0200001N1+03031+02171101121ADDAA199000091GF106991061041008001001001MA1999999098751MD1999999+0031REMSYN070AAXX  20184 82586 32598 60506 10303 20217 39875 40112 86400 333 58003;EQDQ01  00002PRCP99
0196825860999992000062100004-05190-039300FM-12+021199999V0209999C000012200019N0010001N1+02441+02071101271ADDAA199000091GA1001+999999999GF100991001001999999001001KA1240M+03081MA1999999098891MD1999999+0091REMSYN070AAXX  21004 82586 32994 00000 10244 20207 39889 40127 333 10308 58009;EQDQ01  00002PRCP99
0167825860999992000062118004-05190-039300FM-12+021199999V0203601N001510075019N0200001N1+03061+02321101171ADDAA199000091GF106991061071008001001001MA1999999098791MD1999999+0041REMSYN070AAXX  21184 82586 32598 63603 10306 20232 39879 40117 86700 333 58004;EQDQ01  00002PRCP99
0196825860999992000062200004-05190-039300FM-12+021199999V0200501N001512200019N0010001N1+02461+02031101291ADDAA199000091GA1001+999999999GF100991001001999999001001KA1240M+03091MA1999999098891MD1999999+0001REMSYN070AAXX  22004 82586 32994 00503 10246 20203 39889 40129 333 10309 58000;EQDQ01  00002PRCP99
0186825860999992000062212004-05190-039300FM-12+021199999V0200901N003112200019N0200001N1+02621+02311101421ADDAA199000091GF104991041021008001001001KA1240N+02241MA1999999099031MD1999999+0051REMSYN076AAXX  22124 82586 32598 40906 10262 20231 39903 40142 84200 333 20224 58005;EQDQ01  00002PRCP99
0167825860999992000062218004-05190-039300FM-12+021199999V0200501N003612200019N0200001N1+03081+02321101101ADDAA199000091GF104991041021008001001001MA1999999098731MD1999999-0061REMSYN070AAXX  22184 82586 32598 40507 10308 20232 39873 40110 84200 333 59006;EQDQ01  00002PRCP99
0196825860999992000062300004-05190-039300FM-12+021199999V0200501N002612200019N0010001N1+02501+01981101211ADDAA199000091GA1001+999999999GF100991001001999999001001KA1240M+03131MA1999999098831MD1999999-0061REMSYN070AAXX  23004 82586 32994 00505 10250 20198 39883 40121 333 10313 59006;EQDQ01  00002PRCP99
0186825860999992000062312004-05190-039300FM-12+021199999V0200901N004612200019N0200001N1+02721+02281101361ADDAA199000091GF102991021011008001001001KA1240N+02341MA1999999098981MD1999999-0051REMSYN076AAXX  23124 82586 32598 20909 10272 20228 39898 40136 82100 333 20234 59005;EQDQ01  00002PRCP99
0167825860999992000062318004-05190-039300FM-12+021199999V0201401N001012200019N0200001N1+03101+02031101051ADDAA199000091GF104991041011008001001001MA1999999098691MD1999999-0041REMSYN070AAXX  23184 82586 32598 41402 10310 20203 39869 40105 84100 333 59004;EQDQ01  00002PRCP99
0196825860999992000062400004-05190-039300FM-12+021199999V0209999C000012200019N0010001N1+02551+02191101231ADDAA199000091GA1001+999999999GF100991001001999999001001KA1240M+03151MA1999999098851MD1999999+0021REMSYN070AAXX  24004 82586 32994 00000 10255 20219 39885 40123 333 10315 58002;EQDQ01  00002PRCP99
0186825860999992000062412004-05190-039300FM-12+021199999V0201401N001512200019N0200001N1+02581+02041101401ADDAA199000091GF102991021011008001001001KA1240N+02101MA1999999099021MD1999999+0041REMSYN076AAXX  24124 82586 32598 21403 10258 20204 39902 40140 82100 333 20210 58004;EQDQ01  00002PRCP99
0167825860999992000062418004-05190-039300FM-12+021199999V0200901N005112200019N0200001N1+03141+01871101051ADDAA199000091GF103991031011008001001001MA1999999098691MD1999999+0001REMSYN070AAXX  24184 82586 32598 30910 10314 20187 39869 40105 83100 333 58000;EQDQ01  00002PRCP99
0196825860999992000062500004-05190-039300FM-12+021199999V0209999C000012200019N0010001N1+02601+02151100981ADDAA199000091GA1001+999999999GF100991001001999999001001KA1240M+03181MA1999999098601MD1999999-0251REMSYN070AAXX  25004 82586 32994 00000 10260 20215 39860 40098 333 10318 59025;EQDQ01  00002PRCP99
0202825860999992000062512004-05190-039300FM-12+021199999V0201801N003119999999N0200001N1+02761+02031101311ADDAA199000091GF105991999031008001001001KA1240N+02261MA1999999098921MD1999999-0101REMSYN076AAXX  25124 82586 32598 51806 10276 20203 39892 40131 87300 333 20226 59010;EQDQ01+000072SCOTLCQ02  00002PRCP99
0167825860999992000062518004-05190-039300FM-12+021199999V0200901N003610075019N0200001N1+03041+02001101021ADDAA199000091GF106991061021008001001001MA1999999098651MD1999999-0041REMSYN070AAXX  25184 82586 32598 60907 10304 20200 39865 40102 86200 333 59004;EQDQ01  00002PRCP99
0196825860999992000062600004-05190-039300FM-12+021199999V02099999999992200019N0010001N1+02461+02111101171ADDAA199000091GA1001+999999999GF100991001001999999001001KA1240M+03131MA1999999098771MD1999999+0171REMSYN070AAXX  26004 82586 32994 014// 10246 20211 39877 40117 333 10313 58017;EQDQ01  00002PRCP99
0186825860999992000062612004-05190-039300FM-12+021199999V0201801N002112200019N0200001N1+02581+02251101241ADDAA199000091GF105991031011008001001011KA1240N+02181MA1999999098851MD1999999-0071REMSYN076AAXX  26124 82586 32598 51804 10258 20225 39885 40124 83101 333 20218 59007;EQDQ01  00002PRCP99
0167825860999992000062618004-05190-039300FM-12+021199999V0201401N004110075019N0200001N1+03141+02001101041ADDAA199000091GF106991061041008001001001MA1999999098681MD1999999+0031REMSYN070AAXX  26184 82586 32598 61408 10314 20200 39868 40104 86400 333 58003;EQDQ01  00002PRCP99
0201825860999992000062700004-05190-039300FM-12+021199999V0200901N001510075019N0200001N1+02281+02211101381ADDAA106009991AY161061AY261061GF108991081071008001999999KA1240M+03091MA1999999098981MD1999999+0211MW1201REMSYN088AAXX  27004 82586 21598 80903 10228 20221 39898 40138 72066 887// 333 10309 58021 60101;
0173825860999992000062712004-05190-039300FM-12+021199999V0200901N003110075019N0200001N1+02461+02251101361ADDAA124009991GF106991061041008001001001KA1240N+02161MA1999999098951MD1999999+0101REMSYN082AAXX  27124 82586 22598 60906 10246 20225 39895 40136 86400 333 20216 58010 60104;
0167825860999992000062718004-05190-039300FM-12+021199999V0200501N003110075019N0200001N1+02961+02281101101ADDAA199000091GF105991051011008001001001MA1999999098731MD1999999+0051REMSYN070AAXX  27184 82586 32598 50506 10296 20228 39873 40110 85100 333 58005;EQDQ01  00002PRCP99
0186825860999992000062800004-05190-039300FM-12+021199999V0203601N001510075019N0010001N1+02441+02211101261ADDAA199000091GF106991061021008001001001KA1240M+03001MA1999999098861MD1999999-0121REMSYN076AAXX  28004 82586 32594 63603 10244 20221 39886 40126 86200 333 10300 59012;EQDQ01  00002PRCP99
0186825860999992000062812004-05190-039300FM-12+021199999V0201401N002110075019N0200001N1+02601+02191101321ADDAA199000091GF106991061041008001001001KA1240N+02281MA1999999098931MD1999999-0021REMSYN076AAXX  28124 82586 32598 61404 10260 20219 39893 40132 86400 333 20228 59002;EQDQ01  00002PRCP99
0167825860999992000062818004-05190-039300FM-12+021199999V0200501N003110450019N0200001N1+03121+02141101041ADDAA199000091GF106991031061008001051001MA1999999098681MD1999999-0051REMSYN070AAXX  28184 82586 32598 60506 10312 20214 39868 40104 83650 333 59005;EQDQ01  00002PRCP99
0186825860999992000062900004-05190-039300FM-12+021199999V0203601N002112200019N0010001N1+02621+02331101171ADDAA199000091GF104991041021008001001001KA1240M+03161MA1999999098791MD1999999-0071REMSYN076AAXX  29004 82586 32594 43604 10262 20233 39879 40117 84200 333 10316 59007;EQDQ01  00002PRCP99
0186825860999992000062912004-05190-039300FM-12+021199999V0200901N003112200019N0200001N1+02601+02031101291ADDAA199000091GF104991021011008001001011KA1240N+02181MA1999999098911MD1999999-0021REMSYN076AAXX  29124 82586 32598 40906 10260 20203 39891 40129 82101 333 20218 59002;EQDQ01  00002PRCP99
0167825860999992000062918004-05190-039300FM-12+021199999V0200901N003110075019N0200001N1+02901+01871101061ADDAA199000091GF108991081071008001999999MA1999999098691MD1999999+0011REMSYN070AAXX  29184 82586 32598 80906 10290 20187 39869 40106 887// 333 58001;EQDQ01  00002PRCP99
0196825860999992000063000004-05190-039300FM-12+021199999V0203601N001512200019N0010001N1+02531+02111101211ADDAA199000091GA1001+999999999GF100991001001999999001001KA1240M+02971MA1999999098831MD1999999+0031REMSYN070AAXX  30004 82586 32994 03603 10253 20211 39883 40121 333 10297 58003;EQDQ01  00002PRCP99
0186825860999992000063012004-05190-039300FM-12+021199999V0200901N002610075019N0200001N1+02561+02211101361ADDAA199000091GF107991071051008001001001KA1240N+02261MA1999999098971MD1999999+0061REMSYN076AAXX  30124 82586 32598 70905 10256 20221 39897 40136 87500 333 20226 58006;EQDQ01  00002PRCP99
0196825860999992000070100004-05190-039300FM-12+021199999V0203601N000512200019N0010001N1+02491+02151101291ADDAA199000091GA1001+999999999GF100991001001999999001001KA1240M+03071MA1999999098901MD1999999+0071REMSYN070AAXX  01004 82586 32994 03601 10249 20215 39890 40129 333 10307 58007;EQDQ01  00002PRCP99
0201825860999992000072000004-05190-039300FM-12+021199999V0201801N001510075019N9999999N1+02101+02051101561ADDAA106018091AY161061AY261061GF108991081071008001999999KA1240M+02741MA1999999100821MD1999999+0131MW1501REMSYN088AAXX  20004 82586 215// 81803 10210 20205 30082 40156 75066 887// 333 10274 58013 60181;
0166825860999992000072112004-05190-039300FM-12+021199999V0200501N003610075019N0200001N1+02701+02121999999ADDAA199000091GF106991061041008001001001KA1999N+02501MA1999999098851REMSYN070AAXX  21124 82586 32598 60507 10270 20212 39885 4//// 86400 333 20250;EQDQ01  00002PRCP99
0168825860999992000072118004-05190-039300FM-12+021199999V0201401N001512200019N0200001N1+03171+02291999999ADDAA106000191AY151061AY221061GF104991041021008001001001MA1999999098521MW1031REMSYN082AAXX  21184 82586 21598 41403 10317 20229 39852 4//// 70352 84200 333 59/// 69921;
0166825860999992000072200004-05190-039300FM-12+021199999V0200501N003110075019N0010001N1+02491+02211101241ADDAA199000091GF106991061041008001001001KA1999M+03201MA1999999098861REMSYN070AAXX  22004 82586 32594 60506 10249 20221 39886 40124 86400 333 10320;EQDQ01  00002PRCP99
0201825860999992000072212004-05190-039300FM-12+021199999V0201401N003612200019N0200001N1+02541+02401101321ADDAA124006191AY161061AY221061GF103991031021008001001001KA1240N+02141MA1999999098831MD1999999+0021MW1031REMSYN088AAXX  22124 82586 21598 31407 10254 20240 39883 40132 70362 83200 333 20214 58002 60064;
0183825860999992000072218004-05190-039300FM-12+021199999V0201401N003119999999N0200001N1+03181+02331100981ADDAA199000091GF105991999011008001001001MA1999999098621MD1999999+0121REMSYN070AAXX  22184 82586 32598 51406 10318 20233 39862 40098 82100 333 58012;EQDQ01+000022SCOTLCQ02  00002PRCP99
0186825860999992000072300004-05190-039300FM-12+021199999V0200501N002112200019N0010001N1+02631+02331101231ADDAA199000091GF104991041021008001001001KA1240M+03231MA1999999098851MD1999999-0011REMSYN076AAXX  23004 82586 32594 40504 10263 20233 39885 40123 84200 333 10323 59001;EQDQ01  00002PRCP99
0186825860999992000072312004-05190-039300FM-12+021199999V0201401N005112200019N0200001N1+02611+02171101251ADDAA199000091GF102991021011008001001001KA1240N+02081MA1999999098871MD1999999+0041REMSYN076AAXX  23124 82586 32598 21410 10261 20217 39887 40125 82100 333 20208 58004;EQDQ01  00002PRCP99
0167825860999992000072318004-05190-039300FM-12+021199999V0200901N002112200019N0010001N1+03221+02171100871ADDAA199000091GF104991011011008001001041MA1999999098571MD1999999-0111REMSYN070AAXX  23184 82586 32594 40904 10322 20217 39857 40087 81104 333 59011;EQDQ01  00002PRCP99
0196825860999992000072400004-05190-039300FM-12+021199999V0200501N001512200019N0010001N1+02521+02131101221ADDAA199000091GA1001+999999999GF100991001001999999001001KA1240M+03271MA1999999098841MD1999999-0011REMSYN070AAXX  24004 82586 32994 00503 10252 20213 39884 40122 333 10327 59001;EQDQ01  00002PRCP99
0186825860999992000072412004-05190-039300FM-12+021199999V0200901N001512200019N0200001N1+02621+02161101261ADDAA199000091GF104991041021008001001001KA1240N+02141MA1999999098881MD1999999+0011REMSYN076AAXX  24124 82586 32598 40903 10262 20216 39888 40126 84200 333 20214 58001;EQDQ01  00002PRCP99
0167825860999992000072418004-05190-039300FM-12+021199999V0203601N003112200019N0200001N1+03131+01681100931ADDAA199000091GF106991031021008001001041MA1999999098571MD1999999+0061REMSYN070AAXX  24184 82586 32598 63606 10313 20168 39857 40093 83204 333 58006;EQDQ01  00002PRCP99
0196825860999992000072500004-05190-039300FM-12+021199999V0200501N004612200019N0010001N1+02601+02191101071ADDAA199000091GA1001+999999999GF100991001001999999001001KA1240M+03231MA1999999098701MD1999999-0141REMSYN070AAXX  25004 82586 32994 00509 10260 20219 39870 40107 333 10323 59014;EQDQ01  00002PRCP99
0186825860999992000072512004-05190-039300FM-12+021199999V0200901N001510075019N0200001N1+02701+02281101201ADDAA199000091GF105991051021008001001001KA1240N+02221MA1999999098821MD1999999-0061REMSYN076AAXX  25124 82586 32598 50903 10270 20228 39882 40120 85200 333 20222 59006;EQDQ01  00002PRCP99
0167825860999992000072518004-05190-039300FM-12+021199999V0200501N003112200019N0200001N1+03321+02041100941ADDAA199000091GF103991031021008001001001MA1999999098581MD1999999+0011REMSYN070AAXX  25184 82586 32598 30506 10332 20204 39858 40094 83200 333 58001;EQDQ01  00002PRCP99
0196825860999992000072600004-05190-039300FM-12+021199999V02099999999992200019N0010001N1+02531+02051101131ADDAA199000091GA1001+999999999GF100991001001999999001001KA1240M+03371MA1999999098751MD1999999+0051REMSYN070AAXX  26004 82586 32994 009// 10253 20205 39875 40113 333 10337 58005;EQDQ01  00002PRCP99
0201825860999992000072612004-05190-039300FM-12+021199999V02099999999992200019N0200001N1+02601+02461101261ADDAA124008991AY161061AY251061GF104991041021008001001001KA1240N+02241MA1999999098881MD1999999+0061MW1031REMSYN088AAXX  26124 82586 21598 409// 10260 20246 39888 40126 70365 84200 333 20224 58006 60094;
0167825860999992000072618004-05190-039300FM-12+021199999V02099999999990075019N0200001N1+03121+01951100971ADDAA199000091GF105991051021008001001001MA1999999098601MD1999999+0021REMSYN070AAXX  26184 82586 32598 514// 10312 20195 39860 40097 85200 333 58002;EQDQ01  00002PRCP99
0196825860999992000072700004-05190-039300FM-12+021199999V0200501N002112200019N0010001N1+02541+02111101051ADDAA199000091GA1001+999999999GF100991001001999999001001KA1240M+03181MA1999999098671MD1999999-0081REMSYN070AAXX  27004 82586 32594 00504 10254 20211 39867 40105 333 10318 59008;EQDQ01  00002PRCP99
0186825860999992000072712004-05190-039300FM-12+021199999V0200901N003110075019N0200001N1+02501+02361101271ADDAA199000091GF108991081071008001999999KA1240N+02301MA1999999098881MD1999999+0001REMSYN076AAXX  27124 82586 32598 80906 10250 20236 39888 40127 887// 333 20230 58000;EQDQ01  00002PRCP99
0182825860999992000072718004-05190-039300FM-12+021199999V0201801N001512200019N0200001N1+02941+02291100941ADDAA106014091AY161061AY221061GF104991041021008001001001MA1999999098581MD1999999-0021MW1031REMSYN082AAXX  27184 82586 21598 41803 10294 20229 39858 40094 70362 84200 333 59002 60141;
0201825860999992000072800004-05190-039300FM-12+021199999V0203601N001510075019N0010001N1+02361+02191101091ADDAA106010991AY191061AY261061GF108991081091008001999999KA1240M+03071MA1999999098691MD1999999+0021MW1131REMSYN088AAXX  28004 82586 21594 83603 10236 20219 39869 40109 71396 889// 333 10307 58002 60111;
0201825860999992000072812004-05190-039300FM-12+021199999V0201801N003110075019N0200001N1+02381+02241101381ADDAA124027991AY161061AY251061GF106991061041008001001001KA1240N+02161MA1999999098971MD1999999+0091MW1031REMSYN088AAXX  28124 82586 21598 61806 10238 20224 39897 40138 70365 86400 333 20216 58009 60284;
0167825860999992000072818004-05190-039300FM-12+021199999V0201401N005110075019N0200001N1+03001+02141100991ADDAA199000091GF106991061041008001001001MA1999999098621MD1999999+0041REMSYN070AAXX  28184 82586 32598 61410 10300 20214 39862 40099 86400 333 58004;EQDQ01  00002PRCP99
0196825860999992000072900004-05190-039300FM-12+021199999V0203601N001512200019N0010001N1+02481+01981101221ADDAA199000091GA1001+999999999GF100991001001999999001001KA1240M+03041MA1999999098821MD1999999+0131REMSYN070AAXX  29004 82586 32994 03603 10248 20198 39882 40122 333 10304 58013;EQDQ01  00002PRCP99
0202825860999992000072912004-05190-039300FM-12+021199999V0200901N003619999999N0200001N1+02461+01811101301ADDAA199000091GF106991999011008001001001KA1240N+02001MA1999999098901MD1999999-0071REMSYN076AAXX  29124 82586 32598 60907 10246 20181 39890 40130 82100 333 20200 59007;EQDQ01+000022SCOTLCQ02  00002PRCP99
0183825860999992000072918004-05190-039300FM-12+021199999V0201401N004119999999N0200001N1+03001+01051100941ADDAA199000091GF106991999011008001001001MA1999999098571MD1999999-0051REMSYN070AAXX  29184 82586 32598 61408 10300 20105 39857 40094 82100 333 59005;EQDQ01+000022SCOTLCQ02  00002PRCP99
0196825860999992000073000004-05190-039300FM-12+021199999V0209999C000012200019N0010001N1+02341+02091101081ADDAA199000091GA1001+999999999GF100991001001999999001001KA1240M+03161MA1999999098681MD1999999-0141REMSYN070AAXX  30004 82586 32994 00000 10234 20209 39868 40108 333 10316 59014;EQDQ01  00002PRCP99
0167825860999992000073018004-05190-039300FM-12+021199999V0201401N002610075019N0200001N1+03121+01791100921ADDAA199000091GF106991061021008001001001MA1999999098561MD1999999-0011REMSYN070AAXX  30184 82586 32598 61405 10312 20179 39856 40092 86200 333 59001;EQDQ01  00002PRCP99
0196825860999992000073100004-05190-039300FM-12+021199999V0200501N001512200019N0010001N1+02701+01911100971ADDAA199000091GA1001+999999999GF100991001001999999001001KA1240M+03211MA1999999098591MD1999999-0091REMSYN070AAXX  31004 82586 32994 00503 10270 20191 39859 40097 333 10321 59009;EQDQ01  00002PRCP99
0186825860999992000073112004-05190-039300FM-12+021199999V0201801N003610075019N0200001N1+02661+02001101191ADDAA199000091GF106991061011008001001001KA1240N+02221MA1999999098821MD1999999-0051REMSYN076AAXX  31124 82586 32598 61807 10266 20200 39882 40119 86100 333 20222 59005;EQDQ01  00002PRCP99
0167825860999992000073118004-05190-039300FM-12+021199999V0201801N003110075019N0200001N1+03161+01921100891ADDAA199000091GF105991051021008001001001MA1999999098531MD1999999-0031REMSYN070AAXX  31184 82586 32598 51806 10316 20192 39853 40089 85200 333 59003;EQDQ01  00002PRCP99
0201825860999992000080100004-05190-039300FM-12+021199999V0203601N001010075019N0200001N1+02521+02091101081ADDAA106000391AY151061AY221061GF105991051041008001001001KA1240M+03321MA1999999098711MD1999999+0121MW1031REMSYN088AAXX  01004 82586 21598 53602 10252 20209 39871 40108 70352 85400 333 10332 58012 69931;
0201825860999992000080112004-05190-039300FM-12+021199999V0201801N003610075019N0200001N1+02441+02251101221ADDAA124004191AY161061AY251061GF106991061041008001001001KA1240N+02181MA1999999098831MD1999999+0011MW1031REMSYN088AAXX  01124 82586 21598 61807 10244 20225 39883 40122 70365 86400 333 20218 58001 60044;
0182825860999992000080118004-05190-039300FM-12+021199999V0201801N003110075019N0200001N1+02821+02241100951ADDAA106000591AY151061AY221061GF107991071071008001001001MA1999999098561MD1999999+0031MW1031REMSYN082AAXX  01184 82586 21598 71806 10282 20224 39856 40095 70352 87700 333 58003 69941;
0201825860999992000080200004-05190-039300FM-12+021199999V0200901N001510075019N0010001N1+02281+02201101291ADDAA106004191AY161061AY251061GF108991081071008001999999KA1240M+02881MA1999999098891MD1999999+0181MW1611REMSYN088AAXX  02004 82586 21594 80903 10228 20220 39889 40129 76165 887// 333 10288 58018 60041;
0201825860999992000080212004-05190-039300FM-12+021199999V0200901N004610075019N0200001N1+02221+02191101411ADDAA124016091AY161061AY251061GF108991081071008001999999KA1240N+02061MA1999999098991MD1999999+0161MW1031REMSYN088AAXX  02124 82586 21598 80909 10222 20219 39899 40141 70365 887// 333 20206 58016 60164;
0167825860999992000080218004-05190-039300FM-12+021199999V0201401N001510075019N0200001N1+02721+02081101191ADDAA199000091GF108991081071008001999999MA1999999098791MD1999999+0231REMSYN070AAXX  02184 82586 32598 81403 10272 20208 39879 40119 887// 333 58023;EQDQ01  00002PRCP99
0186825860999992000080300004-05190-039300FM-12+021199999V0209999C000012200019N0010001N1+02421+02211101251ADDAA199000091GF104991041021008001001001KA1240M+02711MA1999999098841MD1999999-0051REMSYN076AAXX  03004 82586 32594 40000 10242 20221 39884 40125 84200 333 10271 59005;EQDQ01  00002PRCP99
0186825860999992000080312004-05190-039300FM-12+021199999V0201401N004610075019N0200001N1+02541+02041101381ADDAA199000091GF105991051021008001001001KA1240N+02161MA1999999098981MD1999999-0011REMSYN076AAXX  03124 82586 32598 51409 10254 20204 39898 40138 85200 333 20216 59001;EQDQ01  00002PRCP99
0167825860999992000080318004-05190-039300FM-12+021199999V0201401N002610075019N0200001N1+03001+02001101111ADDAA199000091GF107991071041008001001001MA1999999098741MD1999999-0051REMSYN070AAXX  03184 82586 32598 71405 10300 20200 39874 40111 87400 333 59005;EQDQ01  00002PRCP99
0186825860999992000080400004-05190-039300FM-12+021199999V02099999999992200019N0010001N1+02521+02151101261ADDAA199000091GF104991041021008001001001KA1240M+03051MA1999999098881MD1999999+0041REMSYN076AAXX  04004 82586 32594 436// 10252 20215 39888 40126 84200 333 10305 58004;EQDQ01  00002PRCP99
0186825860999992000080412004-05190-039300FM-12+021199999V0200901N003110075019N0200001N1+02621+02211101321ADDAA199000091GF105991051021008001001001KA1240N+02101MA1999999098941MD1999999-0041REMSYN076AAXX  04124 82586 32598 50906 10262 20221 39894 40132 85200 333 20210 59004;EQDQ01  00002PRCP99
0167825860999992000080418004-05190-039300FM-12+021199999V0200901N003112200019N0200001N1+03141+01801100991ADDAA199000091GF102991021011008001001001MA1999999098631MD1999999-0111REMSYN070AAXX  04184 82586 32598 20906 10314 20180 39863 40099 82100 333 59011;EQDQ01  00002PRCP99
0196825860999992000080500004-05190-039300FM-12+021199999V0203601N002612200019N0010001N1+02501+02051101141ADDAA199000091GA1001+999999999GF100991001001999999001001KA1240M+03181MA1999999098761MD1999999-0111REMSYN070AAXX  05004 82586 32994 03605 10250 20205 39876 40114 333 10318 59011;EQDQ01  00002PRCP99
0186825860999992000080512004-05190-039300FM-12+021199999V0200501N002610075019N0200001N1+02501+02211101271ADDAA199000091GF107991071041008001001001KA1240N+02261MA1999999098891MD1999999-0051REMSYN076AAXX  05124 82586 32598 70505 10250 20221 39889 40127 87400 333 20226 59005;EQDQ01  00002PRCP99
0167825860999992000080518004-05190-039300FM-12+021199999V0201401N005110075019N0200001N1+03161+02121101001ADDAA199000091GF105991051021008001001001MA1999999098641MD1999999+0011REMSYN070AAXX  05184 82586 32598 51410 10316 20212 39864 40100 85200 333 58001;EQDQ01  00002PRCP99
0196825860999992000080600004-05190-039300FM-12+021199999V0200501N003612200019N0010001N1+02581+02151101091ADDAA199000091GA1001+999999999GF100991001001999999001001KA1240M+03211MA1999999098731MD1999999-0031REMSYN070AAXX  06004 82586 32994 00507 10258 20215 39873 40109 333 10321 59003;EQDQ01  00002PRCP99
0201825860999992000080612004-05190-039300FM-12+021199999V0200501N002610075019N0200001N1+02161+02091101421ADDAA124026991AY161061AY251061GF108991081071008001999999KA1240N+02041MA1999999100041MD1999999+0131MW1611REMSYN088AAXX  06124 82586 21598 80505 10216 20209 30004 40142 76165 887// 333 20204 58013 60274;
0201825860999992000080618004-05190-039300FM-12+021199999V0200501N001010075019N0200001N1+02601+02371101161ADDAA106007191AY161061AY251061GF108991081051008001999999MA1999999098752MD1999999+0111MW1151REMSYN082AAXX  06184 82586 21598 80502 10260 20237 39875 40116 71565 885// 333 58011 60071;EQDQ01+098753APOSP 
0201825860999992000080700004-05190-039300FM-12+021199999V0209999C000010075019N0010001N1+02421+02261101331ADDAA106002091AY161061AY221061GF106991061041008001001001KA1240M+02671MA1999999098921MD1999999+0191MW1031REMSYN088AAXX  07004 82586 21594 60000 10242 20226 39892 40133 70362 86400 333 10267 58019 60021;
0161825860999992000080712004-05190-039300FM-12+021199999V0200901N002619999999N0200001N1+02481+02231101401ADDGF106991999999008001999999KA1240N+02161MA1999999098981MD1999999-0041REMSYN081AAXX  07124 82586 22598 60905 10248 20223 39898 40140 8600 333 20216 59004 60094;
0167825860999992000080718004-05190-039300FM-12+021199999V0201801N001510075019N0200001N1+02801+02081101131ADDAA199000091GF106991061021008001001001MA1999999098731MD1999999-0031REMSYN070AAXX  07184 82586 32598 61803 10280 20208 39873 40113 86200 333 59003;EQDQ01  00002PRCP99
0201825860999992000080800004-05190-039300FM-12+021199999V0203601N003110075019N0010001N1+02261+02161101151ADDAA106000191AY151061AY221061GF108991081071008001999999KA1240M+02811MA1999999098751MD1999999-0171MW1031REMSYN088AAXX  08004 82586 21594 83606 10226 20216 39875 40115 70352 887// 333 10281 59017 69921;
0173825860999992000080812004-05190-039300FM-12+021199999V0200901N001510075019N0200001N1+02521+02211101381ADDAA124000191GF106991061041008001001001KA1240N+02101MA1999999098971MD1999999-0011REMSYN082AAXX  08124 82586 22598 60903 10252 20221 39897 40138 86400 333 20210 59001 69924;
0167825860999992000080818004-05190-039300FM-12+021199999V0200501N003610075019N0200001N1+03101+01971101091ADDAA199000091GF106991061021008001001001MA1999999098721MD1999999-0011REMSYN070AAXX  08184 82586 32598 60507 10310 20197 39872 40109 86200 333 59001;EQDQ01  00002PRCP99
0202825860999992000080900004-05190-039300FM-12+021199999V0200501N001019999999N0010001N1+02341+02261101321ADDAA199000091GF108991999011008001001001KA1240M+03141MA1999999098981MD1999999+0231REMSYN076AAXX  09004 82586 32594 80502 10234 20226 39898 40132 82100 333 10314 58023;EQDQ01+000022SCOTLCQ02  00002PRCP99
0186825860999992000080912004-05190-039300FM-12+021199999V0200501N002610075019N0200001N1+02541+02211101431ADDAA199000091GF106991061041008001001001KA1240N+02221MA1999999099031MD1999999+0061REMSYN076AAXX  09124 82586 32598 60505 10254 20221 39903 40143 86400 333 20222 58006;EQDQ01  00002PRCP99
0167825860999992000080918004-05190-039300FM-12+021199999V0201401N004110075019N0200001N1+02701+02501101201ADDAA199000091GF108991081071008001999999MA1999999098801MD1999999+0081REMSYN070AAXX  09184 82586 32598 81408 10270 20250 39880 40120 887// 333 58008;EQDQ01  00002PRCP99
0173825860999992000081012004-05190-039300FM-12+021199999V0201401N003110075019N0200001N1+02541+02211101491ADDAA124000191GF106991061041008001001001KA1240N+02181MA1999999099091MD1999999+0061REMSYN082AAXX  10124 82586 22598 61406 10254 20221 39909 40149 86400 333 20218 58006 69924;
0167825860999992000081018004-05190-039300FM-12+021199999V0201401N004610075019N0200001N1+03151+01501101281ADDAA199000091GF105991051051008001001001MA1999999098901MD1999999+0101REMSYN070AAXX  10184 82586 32598 51409 10315 20150 39890 40128 85500 333 58010;EQDQ01  00002PRCP99
0186825860999992000081100004-05190-039300FM-12+021199999V02099999999990075019N0010001N1+02501+02211101401ADDAA199000091GF106991061021008001001001KA1240M+03171MA1999999099001MD1999999-0011REMSYN076AAXX  11004 82586 32594 636// 10250 20221 39900 40140 86200 333 10317 59001;EQDQ01  00002PRCP99
0186825860999992000081112004-05190-039300FM-12+021199999V0200901N002612200019N0200001N1+02501+02001101451ADDAA199000091GF102991021011008001001001KA1240N+02121MA1999999099051MD1999999-0041REMSYN076AAXX  11124 82586 32598 20905 10250 20200 39905 40145 82100 333 20212 59004;EQDQ01  00002PRCP99
0167825860999992000081118004-05190-039300FM-12+021199999V0201401N002610075019N0200001N1+03101+01771101111ADDAA199000091GF106991061021008001001001MA1999999098741MD1999999-0161REMSYN070AAXX  11184 82586 32598 61405 10310 20177 39874 40111 86200 333 59016;EQDQ01  00002PRCP99
0196825860999992000081200004-05190-039300FM-12+021199999V0203601N001512200019N0010001N1+02521+01931101241ADDAA199000091GA1001+999999999GF100991001001999999001001KA1240M+03131MA1999999098851MD1999999-0151REMSYN070AAXX  12004 82586 32994 03603 10252 20193 39885 40124 333 10313 59015;EQDQ01  00002PRCP99
0186825860999992000081212004-05190-039300FM-12+021199999V0200901N004612200019N0200001N1+02541+02041101391ADDAA199000091GF102991021011008001001001KA1240N+02061MA1999999099001MD1999999-0051REMSYN076AAXX  12124 82586 32598 20909 10254 20204 39900 40139 82100 333 20206 59005;EQDQ01  00002PRCP99
0167825860999992000081218004-05190-039300FM-12+021199999V0200501N001512200019N0200001N1+03161+00991100991ADDAA199000091GF103991031021008001001001MA1999999098641MD1999999-0111REMSYN070AAXX  12184 82586 32598 30503 10316 20099 39864 40099 83200 333 59011;EQDQ01  00002PRCP99
0212825860999992000081300004-05190-039300FM-12+021199999V02099999999992200019N0010001N1+02511+02051101191ADDAA199000091GA1001+999999999GF100991001001999999001001KA1240M+03201MA1999999099822MD1999999-0051REMSYN070AAXX  13004 82586 32994 036// 10251 20205 39982 40119 333 10320 59005;EQDQ01+099823APOSP Q02  00002PRCP99
0202825860999992000081312004-05190-039300FM-12+021199999V0201401N003112200019N0200001N1+02621+02161101441ADDAA199000091GF104991999011008001001001KA1240N+02101MA1999999099051MD1999999+0051REMSYN076AAXX  13124 82586 32598 41406 10262 20216 39905 40144 83100 333 20210 58005;EQDQ01+000032SCOTLCQ02  00002PRCP99
0167825860999992000081318004-05190-039300FM-12+021199999V0200501N002612200019N0200001N1+03161+01861100991ADDAA199000091GF104991041011008001001001MA1999999098631MD1999999+0001REMSYN070AAXX  13184 82586 32598 40505 10316 20186 39863 40099 84100 333 58000;EQDQ01  00002PRCP99
0186825860999992000081400004-05190-039300FM-12+021199999V0200501N003110075019N0010001N1+02581+01991101271ADDAA199000091GF105991051011008001001001KA1240M+03191MA1999999098891MD1999999+0091REMSYN076AAXX  14004 82586 32594 50506 10258 20199 39889 40127 85100 333 10319 58009;EQDQ01  00002PRCP99
0186825860999992000081412004-05190-039300FM-12+021199999V0201401N003610075019N0200001N1+02521+02091101371ADDAA199000091GF105991051041008001001001KA1240N+02121MA1999999098981MD1999999-0071REMSYN076AAXX  14124 82586 32598 51407 10252 20209 39898 40137 85400 333 20212 59007;EQDQ01  00002PRCP99
0167825860999992000081418004-05190-039300FM-12+021199999V0201401N003110075019N0200001N1+03161+01921101131ADDAA199000091GF106991061041008001001001MA1999999098771MD1999999+0141REMSYN070AAXX  14184 82586 32598 61406 10316 20192 39877 40113 86400 333 58014;EQDQ01  00002PRCP99
0202825860999992000081500004-05190-039300FM-12+021199999V0201501N003119999999N0010001N1+02611+02151101341ADDAA199000091GF108991999011008001001001KA1240M+03221MA1999999098951MD1999999+0061REMSYN076AAXX  15004 82586 32594 81506 10261 20215 39895 40134 82100 333 10322 58006;EQDQ01+000022SCOTLCQ02  00002PRCP99
0211825860999992000081512004-05190-039300FM-12+021199999V0201801N005112200019N0200001N1+02521+01741101451ADDAA124000391AY151061AY221061GA1001+999999999GF100991001001999999001001KA1240N+02121MA1999999099071MD1999999+0091MW1021REMSYN082AAXX  15124 82586 21998 01810 10252 20174 39907 40145 70252 333 20212 58009 69934;
0167825860999992000081518004-05190-039300FM-12+021199999V0201401N003112200019N0200001N1+03201+01671101151ADDAA199000091GF104991041011008001001001MA1999999098781MD1999999+0011REMSYN070AAXX  15184 82586 32598 41406 10320 20167 39878 40115 84100 333 58001;EQDQ01  00002PRCP99
0202825860999992000081600004-05190-039300FM-12+021199999V0209999C000012200019N0010001N1+02641+01831101241ADDAA199000091GF102991999001012501051001KA1240M+03201MA1999999098861MD1999999-0091REMSYN076AAXX  16004 82586 32694 20000 10264 20183 39886 40124 83050 333 10320 59009;EQDQ01+000032SCOTLCQ02  00002PRCP99
0196825860999992000081612004-05190-039300FM-12+021199999V0201401N003612200019N0200001N1+02621+01731101401ADDAA199000091GA1001+999999999GF100991001001999999001001KA1240N+02001MA1999999099021MD1999999-0051REMSYN070AAXX  16124 82586 32998 01407 10262 20173 39902 40140 333 20200 59005;EQDQ01  00002PRCP99
0167825860999992000081618004-05190-039300FM-12+021199999V0200901N003112200019N0200001N1+03181+01801101081ADDAA199000091GF104991041011008001001001MA1999999098721MD1999999-0061REMSYN070AAXX  16184 82586 32598 40906 10318 20180 39872 40108 84100 333 59006;EQDQ01  00002PRCP99
0186825860999992000081712004-05190-039300FM-12+021199999V0201801N003112200019N0200001N1+02501+02071101231ADDAA199000091GF102991021011008001001001KA1240N+02081MA1999999098951MD1999999-0071REMSYN076AAXX  17124 82586 32598 21806 10250 20207 39895 40123 82100 333 20208 59007;EQDQ01  00002PRCP99
0167825860999992000081718004-05190-039300FM-12+021199999V0201401N003112200019N0200001N1+03261+01561100981ADDAA199000091GF103991031011008001001001MA1999999098621MD1999999-0101REMSYN070AAXX  17184 82586 32598 31406 10326 20156 39862 40098 83100 333 59010;EQDQ01  00002PRCP99
0196825860999992000081800004-05190-039300FM-12+021199999V0200501N005112200019N0010001N1+02621+02271101201ADDAA199000091GA1001+999999999GF100991001001999999001001KA1240M+03321MA1999999098821MD1999999-0031REMSYN070AAXX  18004 82586 32994 00510 10262 20227 39882 40120 333 10332 59003;EQDQ01  00002PRCP99
0186825860999992000081812004-05190-039300FM-12+021199999V0200901N002112200019N0200001N1+02601+02191101331ADDAA199000091GF102991021011008001001001KA1240N+02141MA1999999098951MD1999999+0001REMSYN076AAXX  18124 82586 32598 20904 10260 20219 39895 40133 82100 333 20214 58000;EQDQ01  00002PRCP99
0167825860999992000081818004-05190-039300FM-12+021199999V0201401N005112200019N0200001N1+03261+01801101021ADDAA199000091GF102991021011008001001001MA1999999098661MD1999999+0041REMSYN070AAXX  18184 82586 32598 21410 10326 20180 39866 40102 82100 333 58004;EQDQ01  00002PRCP99
0196825860999992000081900004-05190-039300FM-12+021199999V0203501N002612200019N0010001N1+02721+02001101161ADDAA199000091GA1001+999999999GF100991001001999999001001KA1240M+03301MA1999999098781MD1999999-0041REMSYN070AAXX  19004 82586 32594 03505 10272 20200 39878 40116 333 10330 59004;EQDQ01  00002PRCP99
0186825860999992000081912004-05190-039300FM-12+021199999V0200901N003110075019N0200001N1+02701+02131101301ADDAA199000091GF106991061041008001001001KA1240N+02241MA1999999098931MD1999999-0021REMSYN076AAXX  19124 82586 32598 60906 10270 20213 39893 40130 86400 333 20224 59002;EQDQ01  00002PRCP99
0167825860999992000081918004-05190-039300FM-12+021199999V02099999999990075019N0200001N1+03301+02121100981ADDAA199000091GF105991051021008001001001MA1999999098621MD1999999-0041REMSYN070AAXX  19184 82586 32598 505// 10330 20212 39862 40098 85200 333 59004;EQDQ01  00002PRCP99
0196825860999992000082000004-05190-039300FM-12+021199999V02099999999992200019N0010001N1+02701+02111101171ADDAA199000091GA1001+999999999GF100991001001999999001001KA1240M+03351MA1999999098801MD1999999+0021REMSYN070AAXX  20004 82586 32994 005// 10270 20211 39880 40117 333 10335 58002;EQDQ01  00002PRCP99
0202825860999992000082012004-05190-039300FM-12+021199999V0201801N004119999999N0200001N1+02581+02041101431ADDAA199000091GF108991999011008001001001KA1240N+02301MA1999999099051MD1999999+0121REMSYN076AAXX  20124 82586 32598 81808 10258 20204 39905 40143 82100 333 20230 58012;EQDQ01+000022SCOTLCQ02  00002PRCP99
0183825860999992000082018004-05190-039300FM-12+021199999V0200501N003610075019N0200001N1+03081+02011101141ADDAA199000091GF107991999021008001001001MA1999999098781MD1999999+0161REMSYN070AAXX  20184 82586 32598 70507 10308 20201 39878 40114 85200 333 58016;EQDQ01+000052SCOTLCQ02  00002PRCP99
0186825860999992000082112004-05190-039300FM-12+021199999V0201401N004612200019N0200001N1+02661+01921101391ADDAA199000091GF102991021011008001001001KA1240N+02181MA1999999099011MD1999999-0041REMSYN076AAXX  21124 82586 32598 21409 10266 20192 39901 40139 82100 333 20218 59004;EQDQ01  00002PRCP99
0167825860999992000082118004-05190-039300FM-12+021199999V0200901N002612200019N0200001N1+03261+01561101041ADDAA199000091GF103991031011008001001001MA1999999098681MD1999999-0101REMSYN070AAXX  21184 82586 32598 30905 10326 20156 39868 40104 83100 333 59010;EQDQ01  00002PRCP99
0196825860999992000082200004-05190-039300FM-12+021199999V0200501N001012200019N0010001N1+02881+01731101191ADDAA199000091GA1001+999999999GF100991001001999999001001KA1240M+03321MA1999999098831MD1999999-0061REMSYN070AAXX  22004 82586 32994 00502 10288 20173 39883 40119 333 10332 59006;EQDQ01  00002PRCP99
0186825860999992000082212004-05190-039300FM-12+021199999V02099999999992200019N0200001N1+02681+01971101301ADDAA199000091GF102991021011008001001001KA1240N+02201MA1999999098941MD1999999-0071REMSYN076AAXX  22124 82586 32598 214// 10268 20197 39894 40130 82100 333 20220 59007;EQDQ01  00002PRCP99
0167825860999992000082218004-05190-039300FM-12+021199999V02099999999992200019N0200001N1+03261+01641100971ADDAA199000091GF102991011011008001001011MA1999999098611MD1999999-0071REMSYN070AAXX  22184 82586 32598 214// 10326 20164 39861 40097 81101 333 59007;EQDQ01  00002PRCP99
0196825860999992000082300004-05190-039300FM-12+021199999V0201401N005112200019N0010001N1+02661+02001101111ADDAA199000091GA1001+999999999GF100991001001999999001001KA1240M+03341MA1999999098741MD1999999-0091REMSYN070AAXX  23004 82586 32994 01410 10266 20200 39874 40111 333 10334 59009;EQDQ01  00002PRCP99
0186825860999992000082312004-05190-039300FM-12+021199999V0200901N005712200019N0200001N1+02701+01881101351ADDAA199000091GF102991021011008001001001KA1240N+02161MA1999999098981MD1999999+0041REMSYN076AAXX  23124 82586 32598 20911 10270 20188 39898 40135 82100 333 20216 58004;EQDQ01  00002PRCP99
0167825860999992000082318004-05190-039300FM-12+021199999V0201401N003112200019N0200001N1+03341+01351100971ADDAA199000091GF101991011011008001001001MA1999999098611MD1999999+0001REMSYN070AAXX  23184 82586 32598 11406 10334 20135 39861 40097 81100 333 58000;EQDQ01  00002PRCP99
0196825860999992000082400004-05190-039300FM-12+021199999V02099999999992200019N0010001N1+02701+02011101121ADDAA199000091GA1001+999999999GF100991001001999999001001KA1240M+03371MA1999999098751MD1999999+0011REMSYN070AAXX  24004 82586 32994 005// 10270 20201 39875 40112 333 10337 58001;EQDQ01  00002PRCP99
0186825860999992000082412004-05190-039300FM-12+021199999V0200901N004610075019N0200001N1+02701+02221101321ADDAA199000091GF106991061041008001001001KA1240N+02241MA1999999098951MD1999999-0031REMSYN076AAXX  24124 82586 32598 60909 10270 20222 39895 40132 86400 333 20224 59003;EQDQ01  00002PRCP99
0156825860999992000082418004-05190-039300FM-12+021199999V0200501N003110075019N0200001N1+02821+02291101071ADDAY151061AY221061GF106991061041008001001001MA1999999098691MW1031REMSYN081AAXX  24184 82586 21598 60506 10282 20229 39869 40107 70352 86400 33 58008 69931;
0196825860999992000082500004-05190-039300FM-12+021199999V0200501N005112200019N0010001N1+02541+02401101211ADDAA199000091GA1001+999999999GF100991001001999999001001KA1240M+03051MA1999999098831MD1999999+0081REMSYN070AAXX  25004 82586 32994 00510 10254 20240 39883 40121 333 10305 58008;EQDQ01  00002PRCP99
0173825860999992000082512004-05190-039300FM-12+021199999V0200901N004610075019N0200001N1+02581+02191101351ADDAA124000391GF107991071041008001001001KA1240N+02301MA1999999098971MD1999999+0021REMSYN082AAXX  25124 82586 22598 70909 10258 20219 39897 40135 87400 333 20230 58002 69934;
0167825860999992000082518004-05190-039300FM-12+021199999V0200901N005112200019N0200001N1+03261+01561100941ADDAA199000091GF102991021011008001001001MA1999999098581MD1999999-0111REMSYN070AAXX  25184 82586 32598 20910 10326 20156 39858 40094 82100 333 59011;EQDQ01  00002PRCP99
0196825860999992000082600004-05190-039300FM-12+021199999V0200501N005112200019N0010001N1+02581+02211101161ADDAA199000091GA1001+999999999GF100991001001999999001001KA1240M+03301MA1999999098781MD1999999-0051REMSYN070AAXX  26004 82586 32994 00510 10258 20221 39878 40116 333 10330 59005;EQDQ01  00002PRCP99
0186825860999992000082612004-05190-039300FM-12+021199999V0200901N008710075019N0200001N1+02761+01971101251ADDAA199000091GF106991061021008001001001KA1240N+02121MA1999999098881MD1999999-0091REMSYN076AAXX  26124 82586 32598 60917 10276 20197 39888 40125 86200 333 20212 59009;EQDQ01  00002PRCP99
0167825860999992000082618004-05190-039300FM-12+021199999V0200901N003110075019N0200001N1+03061+01991100941ADDAA199000091GF106991061021008001001001MA1999999098581MD1999999+0001REMSYN070AAXX  26184 82586 32598 60906 10306 20199 39858 40094 86200 333 58000;EQDQ01  00002PRCP99
0196825860999992000082700004-05190-039300FM-12+021199999V0203601N004112200019N0010001N1+02621+02181101041ADDAA199000091GF104991999999999999999999KA1240M+03171MA1999999099682MD1999999-0101REMSYN070AAXX  27004 82586 32994 43608 10262 20218 30968 40104 333 10317 59010;EQDQ01+099683APOSP Q02  00002PRCP99
0186825860999992000082712004-05190-039300FM-12+021199999V0201401N003112200019N0200001N1+02581+01921101111ADDAA199000091GF102991021011008001001001KA1240N+02081MA1999999098741MD1999999-0141REMSYN076AAXX  27124 82586 32598 21406 10258 20192 39874 40111 82100 333 20208 59014;EQDQ01  00002PRCP99
0177825860999992000082718004-05190-039300FM-12+021199999V0200901N003112200019N0200001N1+03321+01381100791ADDAA199000091GA1001+999999999GF100991001001999999001001MA1999999098431MD1999999-0151REMSYN064AAXX  27184 82586 32998 00906 10332 20138 39843 40079 333 59015;EQDQ01  00002PRCP99
0196825860999992000082800004-05190-039300FM-12+021199999V02099999999992200019N0010001N1+02641+01981100971ADDAA199000091GA1001+999999999GF100991001001999999001001KA1240M+03331MA1999999098601MD1999999-0081REMSYN070AAXX  28004 82586 32994 005// 10264 20198 39860 40097 333 10333 59008;EQDQ01  00002PRCP99
0186825860999992000082812004-05190-039300FM-12+021199999V0200901N003110075019N0200001N1+02621+02161101161ADDAA199000091GF106991061041008001001001KA1240N+02161MA1999999098781MD1999999+0041REMSYN076AAXX  28124 82586 32598 60906 10262 20216 39878 40116 86400 333 20216 58004;EQDQ01  00002PRCP99
0186825860999992000082912004-05190-039300FM-12+021199999V0200501N003112200019N0200001N1+02701+02131101201ADDAA199000091GF102991021011008001001001KA1240N+02161MA1999999098831MD1999999+0051REMSYN076AAXX  29124 82586 32598 20506 10270 20213 39883 40120 82100 333 20216 58005;EQDQ01  00002PRCP99
0167825860999992000082918004-05190-039300FM-12+021199999V0200501N003112200019N0200001N1+03331+01891100911ADDAA199000091GF102991021011008001001001MA1999999098551MD1999999+0091REMSYN070AAXX  29184 82586 32598 20506 10333 20189 39855 40091 82100 333 58009;EQDQ01  00002PRCP99
0196825860999992000083000004-05190-039300FM-12+021199999V02099999999992200019N0010001N1+02601+02231101081ADDAA199000091GA1001+999999999GF100991001001999999001001KA1240M+03321MA1999999098711MD1999999+0061REMSYN070AAXX  30004 82586 32994 005// 10260 20223 39871 40108 333 10332 58006;EQDQ01  00002PRCP99
0186825860999992000083012004-05190-039300FM-12+021199999V0200501N004610075019N0200001N1+02701+02201101311ADDAA199000091GF105991051021008001001001KA1240N+02321MA1999999098931MD1999999+0101REMSYN076AAXX  30124 82586 32598 50509 10270 20220 39893 40131 85200 333 20232 58010;EQDQ01  00002PRCP99
0167825860999992000083018004-05190-039300FM-12+021199999V0201401N005112200019N0200001N1+03281+01741100911ADDAA199000091GF104991041021008001001001MA1999999098551MD1999999+0001REMSYN070AAXX  30184 82586 32598 41410 10328 20174 39855 40091 84200 333 58000;EQDQ01  00002PRCP99
0196825860999992000083100004-05190-039300FM-12+021199999V0200501N005112200019N0010001N1+02581+02331101081ADDAA199000091GA1001+999999999GF100991001001999999001001KA1240M+03341MA1999999098711MD1999999+0001REMSYN070AAXX  31004 82586 32994 00510 10258 20233 39871 40108 333 10334 58000;EQDQ01  00002PRCP99
0186825860999992000083112004-05190-039300FM-12+021199999V0201401N004612200019N0200001N1+02721+02121101201ADDAA199000091GF104991041021008001001001KA1240N+02261MA1999999098821MD1999999-0111REMSYN076AAXX  31124 82586 32598 41409 10272 20212 39882 40120 84200 333 20226 59011;EQDQ01  00002PRCP99
0167825860999992000083118004-05190-039300FM-12+021199999V0200501N005112200019N0200001N1+03301+01951100831ADDAA199000091GF102991021011008001001001MA1999999098481MD1999999-0071REMSYN070AAXX  31184 82586 32598 20510 10330 20195 39848 40083 82100 333 59007;EQDQ01  00002PRCP99
0196825860999992000090100004-05190-039300FM-12+021199999V0200501N004612200019N0010001N1+02641+02271101041ADDAA199000091GA1001+999999999GF100991001001999999001001KA1240M+03331MA1999999098681MD1999999-0031REMSYN070AAXX  01004 82586 32994 00509 10264 20227 39868 40104 333 10333 59003;EQDQ01  00002PRCP99
0186825860999992000090112004-05190-039300FM-12+021199999V0200901N003112200019N0200001N1+02721+01901101181ADDAA199000091GF102991021011008001001001KA1240N+02141MA1999999098811MD1999999-0011REMSYN076AAXX  01124 82586 32598 20906 10272 20190 39881 40118 82100 333 20214 59001;EQDQ01  00002PRCP99
0167825860999992000090118004-05190-039300FM-12+021199999V0201801N004112200019N0200001N1+03391+01381100801ADDAA199000091GF102991021011008001001001MA1999999098451MD1999999-0031REMSYN070AAXX  01184 82586 32598 21808 10339 20138 39845 40080 82100 333 59003;EQDQ01  00002PRCP99
0196825860999992000090200004-05190-039300FM-12+021199999V0200501N004112200019N0010001N1+02581+02311100951ADDAA199000091GA1001+999999999GF100991001001999999001001KA1240M+03421MA1999999098591MD1999999-0091REMSYN070AAXX  02004 82586 32994 00508 10258 20231 39859 40095 333 10342 59009;EQDQ01  00002PRCP99
0186825860999992000090212004-05190-039300FM-12+021199999V0200901N003112200019N0200001N1+02641+02161101151ADDAA199000091GF104991041021008001001001KA1240N+02161MA1999999098781MD1999999-0031REMSYN076AAXX  02124 82586 32598 40906 10264 20216 39878 40115 84200 333 20216 59003;EQDQ01  00002PRCP99
0167825860999992000090218004-05190-039300FM-12+021199999V0201401N003112200019N0200001N1+03301+01761100771ADDAA199000091GF104991041021008001001001MA1999999098421MD1999999-0031REMSYN070AAXX  02184 82586 32598 41406 10330 20176 39842 40077 84200 333 59003;EQDQ01  00002PRCP99
0196825860999992000090300004-05190-039300FM-12+021199999V0203601N005112200019N0020001N1+02621+02251100991ADDAA199000091GA1001+999999999GF100991001001999999001001KA1240M+03361MA1999999098631MD1999999+0021REMSYN070AAXX  03004 82586 32595 03610 10262 20225 39863 40099 333 10336 58002;EQDQ01  00002PRCP99
0196825860999992000090312004-05190-039300FM-12+021199999V0200901N002612200019N0200001N1+02621+01861101161ADDAA199000091GA1001+999999999GF100991001001999999001001KA1240N+02181MA1999999098781MD1999999+0001REMSYN070AAXX  03124 82586 32998 00905 10262 20186 39878 40116 333 20218 58000;EQDQ01  00002PRCP99
0167825860999992000090318004-05190-039300FM-12+021199999V0201401N003112200019N0200001N1+03341+01581100821ADDAA199000091GF103991011011008001001041MA1999999098471MD1999999+0051REMSYN070AAXX  03184 82586 32598 31406 10334 20158 39847 40082 81104 333 58005;EQDQ01  00002PRCP99
0196825860999992000090400004-05190-039300FM-12+021199999V0200501N003112200019N0010001N1+02611+02141100951ADDAA199000091GA1001+999999999GF100991001001999999001001KA1240M+03401MA1999999098591MD1999999-0041REMSYN070AAXX  04004 82586 32994 00506 10261 20214 39859 40095 333 10340 59004;EQDQ01  00002PRCP99
0186825860999992000090412004-05190-039300FM-12+021199999V0200501N005710075019N0200001N1+02661+02161101281ADDAA199000091GF106991061041008001001001KA1240N+02281MA1999999098901MD1999999+0121REMSYN076AAXX  04124 82586 32598 60511 10266 20216 39890 40128 86400 333 20228 58012;EQDQ01  00002PRCP99
0167825860999992000090418004-05190-039300FM-12+021199999V0200501N004612200019N0200001N1+03401+01891100851ADDAA199000091GF104991041011008001001001MA1999999098501MD1999999+0031REMSYN070AAXX  04184 82586 32598 40509 10340 20189 39850 40085 84100 333 58003;EQDQ01  00002PRCP99
0196825860999992000090500004-05190-039300FM-12+021199999V0200501N005112200019N0010001N1+02661+02331101151ADDAA199000091GA1001+999999999GF100991001001999999001001KA1240M+03431MA1999999098771MD1999999+0181REMSYN070AAXX  05004 82586 32994 00510 10266 20233 39877 40115 333 10343 58018;EQDQ01  00002PRCP99
0186825860999992000090512004-05190-039300FM-12+021199999V0200501N004610075019N0200001N1+02681+02281101281ADDAA199000091GF108991081071008001999999KA1240N+02381MA1999999098911MD1999999+0011REMSYN076AAXX  05124 82586 32598 80509 10268 20228 39891 40128 887// 333 20238 58001;EQDQ01  00002PRCP99
0167825860999992000090518004-05190-039300FM-12+021199999V0200501N003112200019N0200001N1+03331+01801100891ADDAA199000091GF104991041021008001001001MA1999999098541MD1999999+0041REMSYN070AAXX  05184 82586 32598 40506 10333 20180 39854 40089 84200 333 58004;EQDQ01  00002PRCP99
0196825860999992000090600004-05190-039300FM-12+021199999V0200501N005712200019N0010001N1+02561+02271101061ADDAA199000091GA1001+999999999GF100991001001999999001001KA1240M+03331MA1999999098691MD1999999-0081REMSYN070AAXX  06004 82586 32994 00511 10256 20227 39869 40106 333 10333 59008;EQDQ01  00002PRCP99
0186825860999992000090612004-05190-039300FM-12+021199999V0200501N001010075019N0200001N1+02661+02161101211ADDAA199000091GF108991081071008001999999KA1240N+02261MA1999999098831MD1999999-0081REMSYN076AAXX  06124 82586 32598 80502 10266 20216 39883 40121 887// 333 20226 59008;EQDQ01  00002PRCP99
0167825860999992000090618004-05190-039300FM-12+021199999V0200501N001512200019N0200001N1+03321+01851100831ADDAA199000091GF104991041021008001001001MA1999999098481MD1999999-0061REMSYN070AAXX  06184 82586 32598 40503 10332 20185 39848 40083 84200 333 59006;EQDQ01  00002PRCP99
0196825860999992000090700004-05190-039300FM-12+021199999V0200501N005112200019N0010001N1+02501+02291100991ADDAA199000091GA1001+999999999GF100991001001999999001001KA1240M+03381MA1999999098621MD1999999-0071REMSYN070AAXX  07004 82586 32994 00510 10250 20229 39862 40099 333 10338 59007;EQDQ01  00002PRCP99
0186825860999992000090712004-05190-039300FM-12+021199999V02099999999990075019N0200001N1+02541+02361101181ADDAA199000091GF108991081071008001999999KA1240N+02351MA1999999098791MD1999999-0041REMSYN076AAXX  07124 82586 32598 805// 10254 20236 39879 40118 887// 333 20235 59004;EQDQ01  00002PRCP99
0167825860999992000090718004-05190-039300FM-12+021199999V0200501N001512200019N0200001N1+03351+01911100751ADDAA199000091GF104991041021008001001001MA1999999098411MD1999999-0071REMSYN070AAXX  07184 82586 32598 40503 10335 20191 39841 40075 84200 333 59007;EQDQ01  00002PRCP99
0196825860999992000090800004-05190-039300FM-12+021199999V02099999999992200019N0010001N1+02621+02411100961ADDAA199000091GA1001+999999999GF100991001001999999001001KA1240M+03391MA1999999098581MD1999999-0041REMSYN070AAXX  08004 82586 32994 005// 10262 20241 39858 40096 333 10339 59004;EQDQ01  00002PRCP99
0167825860999992000090818004-05190-039300FM-12+021199999V02099999999992200019N0200001N1+03401+01891100751ADDAA199000091GF104991041011008001001001MA1999999098411MD1999999+0001REMSYN070AAXX  08184 82586 32598 409// 10340 20189 39841 40075 84100 333 58000;EQDQ01  00002PRCP99
0196825860999992000090900004-05190-039300FM-12+021199999V0200501N008212200019N0010001N1+02561+02231100951ADDAA199000091GA1001+999999999GF100991001001999999001001KA1240M+03351MA1999999098591MD1999999+0011REMSYN070AAXX  09004 82586 32994 00516 10256 20223 39859 40095 333 10335 58001;EQDQ01  00002PRCP99
0186825860999992000090912004-05190-039300FM-12+021199999V0200901N006210075019N0200001N1+02761+02281101061ADDAA199000091GF106991061041008001001001KA1240N+02461MA1999999098701MD1999999-0091REMSYN076AAXX  09124 82586 32598 60912 10276 20228 39870 40106 86400 333 20246 59009;EQDQ01  00002PRCP99
0196825860999992000091000004-05190-039300FM-12+021199999V0200501N003612200019N0010001N1+02641+02201101041ADDAA199000091GA1001+999999999GF100991001001999999001001KA1240M+03401MA1999999098671MD1999999+0081REMSYN070AAXX  10004 82586 32994 00507 10264 20220 39867 40104 333 10340 58008;EQDQ01  00002PRCP99
0186825860999992000091012004-05190-039300FM-12+021199999V0200901N005112200019N0200001N1+02761+02141101211ADDAA199000091GF104991041021008001001001KA1240N+02351MA1999999098851MD1999999+0151REMSYN076AAXX  10124 82586 32598 40910 10276 20214 39885 40121 84200 333 20235 58015;EQDQ01  00002PRCP99
0167825860999992000091018004-05190-039300FM-12+021199999V0201401N003110075019N0200001N1+03341+01911100821ADDAA199000091GF105991051021008001001001MA1999999098481MD1999999-0031REMSYN070AAXX  10184 82586 32598 51406 10334 20191 39848 40082 85200 333 59003;EQDQ01  00002PRCP99
0186825860999992000091100004-05190-039300FM-12+021199999V0200501N003612200019N0010001N1+02621+02331101031ADDAA199000091GF102991021021008001001001KA1240M+03411MA1999999098671MD1999999+0001REMSYN076AAXX  11004 82586 32594 20507 10262 20233 39867 40103 82200 333 10341 58000;EQDQ01  00002PRCP99
0202825860999992000091112004-05190-039300FM-12+021199999V0200901N003619999999N0200001N1+02681+02161101161ADDAA199000091GF106991999071008001001001KA1240N+02321MA1999999098781MD1999999-0071REMSYN076AAXX  11124 82586 32598 60907 10268 20216 39878 40116 87700 333 20232 59007;EQDQ01+000072SCOTLCQ02  00002PRCP99
0167825860999992000091118004-05190-039300FM-12+021199999V0200901N002610075019N0200001N1+03361+01851100801ADDAA199000091GF105991051021008001001001MA1999999098451MD1999999-0031REMSYN070AAXX  11184 82586 32598 50905 10336 20185 39845 40080 85200 333 59003;EQDQ01  00002PRCP99
0196825860999992000091200004-05190-039300FM-12+021199999V0200501N003612200019N0010001N1+02621+02311101151ADDAA199000091GA1001+999999999GF100991001001999999001001KA1240M+03381MA1999999098771MD1999999+0101REMSYN070AAXX  12004 82586 32994 00507 10262 20231 39877 40115 333 10338 58010;EQDQ01  00002PRCP99
0186825860999992000091212004-05190-039300FM-12+021199999V0200501N003110075019N0200001N1+02621+02291101161ADDAA199000091GF107991071071008001001001KA1240N+02321MA1999999098781MD1999999+0001REMSYN076AAXX  12124 82586 32598 70506 10262 20229 39878 40116 87700 333 20232 58000;EQDQ01  00002PRCP99
0167825860999992000091218004-05190-039300FM-12+021199999V0201401N003110075019N0200001N1+03341+01831100781ADDAA199000091GF106991061041008001001001MA1999999098441MD1999999-0011REMSYN070AAXX  12184 82586 32598 61406 10334 20183 39844 40078 86400 333 59001;EQDQ01  00002PRCP99
0186825860999992000091300004-05190-039300FM-12+021199999V02099999999999999999N0010001N1+02481+02271101071ADDAA199000091GF107991999999008001999999KA1240M+03371MA1999999098691MD1999999-0081REMSYN076AAXX  13004 82586 32594 705// 10248 20227 39869 40107 8//// 333 10337 59008;EQDQ01  00002PRCP99
0186825860999992000091312004-05190-039300FM-12+021199999V0201401N003610075019N0200001N1+02701+02131101261ADDAA199000091GF106991061041008001001001KA1240N+02321MA1999999098881MD1999999+0101REMSYN076AAXX  13124 82586 32598 61407 10270 20213 39888 40126 86400 333 20232 58010;EQDQ01  00002PRCP99
0167825860999992000091318004-05190-039300FM-12+021199999V0200901N003610075019N0200001N1+03401+01851100861ADDAA199000091GF106991061021008001001001MA1999999098521MD1999999+0081REMSYN070AAXX  13184 82586 32598 60907 10340 20185 39852 40086 86200 333 58008;EQDQ01  00002PRCP99
0196825860999992000091400004-05190-039300FM-12+021199999V0200501N005112200019N0010001N1+02661+02411101021ADDAA199000091GA1001+999999999GF100991001001999999001001KA1240M+03441MA1999999098661MD1999999-0031REMSYN070AAXX  14004 82586 32994 00510 10266 20241 39866 40102 333 10344 59003;EQDQ01  00002PRCP99
0186825860999992000091412004-05190-039300FM-12+021199999V0200901N003110075019N0200001N1+02661+02241101321ADDAA199000091GF108991081071008001999999KA1240N+02241MA1999999098951MD1999999+0071REMSYN076AAXX  14124 82586 32598 80906 10266 20224 39895 40132 887// 333 20224 58007;EQDQ01  00002PRCP99
0167825860999992000091418004-05190-039300FM-12+021199999V0200901N003110075019N0200001N1+03281+01861100931ADDAA199000091GF106991061041008001001001MA1999999098571MD1999999+0051REMSYN070AAXX  14184 82586 32598 60906 10328 20186 39857 40093 86400 333 58005;EQDQ01  00002PRCP99
0186825860999992000091500004-05190-039300FM-12+021199999V0200501N003612200019N0010001N1+02521+02341101161ADDAA199000091GF104991041001012501051001KA1240M+03321MA1999999098791MD1999999+0131REMSYN076AAXX  15004 82586 32694 40507 10252 20234 39879 40116 84050 333 10332 58013;EQDQ01  00002PRCP99
0186825860999992000091512004-05190-039300FM-12+021199999V0200901N005110075019N0200001N1+02751+02071101311ADDAA199000091GF105991051021008001001001KA1240N+02141MA1999999098941MD1999999-0011REMSYN076AAXX  15124 82586 32598 50910 10275 20207 39894 40131 85200 333 20214 59001;EQDQ01  00002PRCP99
0167825860999992000091518004-05190-039300FM-12+021199999V0200901N003110075019N0200001N1+03271+01981100921ADDAA199000091GF106991061021008001001001MA1999999098561MD1999999-0011REMSYN070AAXX  15184 82586 32598 60906 10327 20198 39856 40092 86200 333 59001;EQDQ01  00002PRCP99
0201825860999992000091600004-05190-039300FM-12+021199999V0200901N000512200019N0010001N1+02441+02301101211ADDAA106002091AY161061AY221061GF102991021011008001001001KA1240M+03301MA1999999098831MD1999999+0041MW1031REMSYN088AAXX  16004 82586 21594 20901 10244 20230 39883 40121 70362 82100 333 10330 58004 60021;
0173825860999992000091612004-05190-039300FM-12+021199999V0200901N004610075019N0200001N1+02781+02161101231ADDAA124002091GF106991061041008001001001KA1240N+02341MA1999999098851MD1999999-0091REMSYN082AAXX  16124 82586 22598 60909 10278 20216 39885 40123 86400 333 20234 59009 60024;
0167825860999992000091618004-05190-039300FM-12+021199999V0200501N003110075019N0200001N1+03341+01981100861ADDAA199000091GF105991051021008001001001MA1999999098511MD1999999-0051REMSYN070AAXX  16184 82586 32598 50506 10334 20198 39851 40086 85200 333 59005;EQDQ01  00002PRCP99
0186825860999992000091700004-05190-039300FM-12+021199999V0200501N002612200019N0010001N1+02721+02281101031ADDAA199000091GF102991021001012501051001KA1240M+03391MA1999999098671MD1999999-0161REMSYN076AAXX  17004 82586 32694 20505 10272 20228 39867 40103 82050 333 10339 59016;EQDQ01  00002PRCP99
0201825860999992000091712004-05190-039300FM-12+021199999V0201401N004110075019N0040001N1+02561+02471101261ADDAA124013091AY161061AY251061GF108991081051008001999999KA1240N+02301MA1999999098881MD1999999+0031MW1031REMSYN088AAXX  17124 82586 21596 81408 10256 20247 39888 40126 70365 885// 333 20230 58003 60134;
0167825860999992000091718004-05190-039300FM-12+021199999V0200901N005110075019N0200001N1+02911+02341100991ADDAA199000091GF108991081071008001001001MA1999999098621MD1999999+0111REMSYN070AAXX  17184 82586 32598 80910 10291 20234 39862 40099 88700 333 58011;EQDQ01  00002PRCP99
0201825860999992000091800004-05190-039300FM-12+021199999V0200501N000510075019N0010001N1+02461+02371101231ADDAA106000891AY161061AY221061GF108991081071008001999999KA1240M+03221MA1999999098841MD1999999+0171MW1031REMSYN088AAXX  18004 82586 21594 80501 10246 20237 39884 40123 70362 887// 333 10322 58017 69981;
0173825860999992000091812004-05190-039300FM-12+021199999V0201401N003110075019N0200001N1+02741+02001101231ADDAA124000891GF106991061041008001001001KA1240N+02161MA1999999098851MD1999999-0031REMSYN082AAXX  18124 82586 22598 61406 10274 20200 39885 40123 86400 333 20216 59003 69984;
0167825860999992000091818004-05190-039300FM-12+021199999V0200901N001510075019N0200001N1+03301+01641100961ADDAA199000091GF105991051021008001001001MA1999999098601MD1999999-0021REMSYN070AAXX  18184 82586 32598 50903 10330 20164 39860 40096 85200 333 59002;EQDQ01  00002PRCP99
0196825860999992000091900004-05190-039300FM-12+021199999V0200501N005112200019N0010001N1+02741+02261101151ADDAA199000091GA1001+999999999GF100991001001999999001001KA1240M+03351MA1999999098771MD1999999-0071REMSYN070AAXX  19004 82586 32994 00510 10274 20226 39877 40115 333 10335 59007;EQDQ01  00002PRCP99
0201825860999992000091912004-05190-039300FM-12+021199999V0201401N003610075019N0200001N1+02321+02251101361ADDAA124019191AY161061AY251061GF108991081071008001999999KA1240N+02141MA1999999098971MD1999999+0121MW1611REMSYN088AAXX  19124 82586 21598 81407 10232 20225 39897 40136 76165 887// 333 20214 58012 60194;
0148825860999992000091918004-05190-039300FM-12+021199999V0201401N001510075019N0200001N1+03121+01791100991ADDAA199000021GF106991061041008001001001MA1999999098621MD1999999+0021REMSYN070AAXX  19184 82586 32598 61403 10312 20179 39862 40099 86400 333 58002;
0167825860999992000092000004-05190-039300FM-12+021199999V0203601N001512200019N0010001N1+02621+02181101021ADDAA199000021GF104991041021008001001001KA1240M+03161MA1999999098621MD1999999-0151REMSYN076AAXX  20004 82586 32594 43603 10262 20218 39862 40102 84200 333 10316 59015;
0186825860999992000092012004-05190-039300FM-12+021199999V0200901N004612200019N0200001N1+02741+01811101251ADDAA199000091GF101991011011008001001001KA1240N+02221MA1999999098881MD1999999-0091REMSYN076AAXX  20124 82586 32598 10909 10274 20181 39888 40125 81100 333 20222 59009;EQDQ01  00002PRCP99
0167825860999992000092018004-05190-039300FM-12+021199999V0201401N004112200019N0200001N1+03341+01491100871ADDAA199000091GF102991021011008001001001MA1999999098521MD1999999-0101REMSYN070AAXX  20184 82586 32598 21408 10334 20149 39852 40087 82100 333 59010;EQDQ01  00002PRCP99
0196825860999992000092100004-05190-039300FM-12+021199999V0200501N005712200019N0010001N1+02641+02291101051ADDAA199000091GA1001+999999999GF100991001001999999001001KA1240M+03361MA1999999098691MD1999999+0071REMSYN070AAXX  21004 82586 32994 00511 10264 20229 39869 40105 333 10336 58007;EQDQ01  00002PRCP99
0186825860999992000092112004-05190-039300FM-12+021199999V0201401N002610075019N0200001N1+02641+02161101211ADDAA199000091GF105991051041008001001001KA1240N+02201MA1999999098831MD1999999-0051REMSYN076AAXX  21124 82586 32598 51405 10264 20216 39883 40121 85400 333 20220 59005;EQDQ01  00002PRCP99
0167825860999992000092118004-05190-039300FM-12+021199999V02099999999992200019N0200001N1+03321+01611100861ADDAA199000091GF102991021021008001001001MA1999999098511MD1999999-0011REMSYN070AAXX  21184 82586 32598 214// 10332 20161 39851 40086 82200 333 59001;EQDQ01  00002PRCP99
0186825860999992000092212004-05190-039300FM-12+021199999V0201401N003112200019N0200001N1+02781+01981101231ADDAA199000091GF102991021011008001001001KA1240N+02201MA1999999098861MD1999999+0031REMSYN076AAXX  22124 82586 32598 21406 10278 20198 39886 40123 82100 333 20220 58003;EQDQ01  00002PRCP99
0167825860999992000092218004-05190-039300FM-12+021199999V0200901N002612200019N0200001N1+03421+01411100881ADDAA199000091GF103991031021008001001001MA1999999098531MD1999999+0021REMSYN070AAXX  22184 82586 32598 30905 10342 20141 39853 40088 83200 333 58002;EQDQ01  00002PRCP99
0196825860999992000092300004-05190-039300FM-12+021199999V0200501N003112200019N0010001N1+02661+02311101091ADDAA199000091GA1001+999999999GF100991001001999999001001KA1240M+03481MA1999999098731MD1999999+0011REMSYN070AAXX  23004 82586 32994 00506 10266 20231 39873 40109 333 10348 58001;EQDQ01  00002PRCP99
0186825860999992000092312004-05190-039300FM-12+021199999V0200901N004612200019N0200001N1+02841+01911101231ADDAA199000091GF102991021011008001001001KA1240N+02201MA1999999098861MD1999999+0001REMSYN076AAXX  23124 82586 32598 20909 10284 20191 39886 40123 82100 333 20220 58000;EQDQ01  00002PRCP99
0167825860999992000092318004-05190-039300FM-12+021199999V0200901N003110075019N0200001N1+03401+01811100831ADDAA199000091GF105991051021008001001001MA1999999098481MD1999999-0051REMSYN070AAXX  23184 82586 32598 50906 10340 20181 39848 40083 85200 333 59005;EQDQ01  00002PRCP99
0196825860999992000092400004-05190-039300FM-12+021199999V0200501N004112200019N0010001N1+02701+02261100981ADDAA199000091GA1001+999999999GF100991001001999999001001KA1240M+03481MA1999999098621MD1999999-0101REMSYN070AAXX  24004 82586 32994 00508 10270 20226 39862 40098 333 10348 59010;EQDQ01  00002PRCP99
0186825860999992000092412004-05190-039300FM-12+021199999V0200901N004110075019N0200001N1+02641+02071101221ADDAA199000091GF108991081071008001999999KA1240N+02351MA1999999098841MD1999999-0021REMSYN076AAXX  24124 82586 32598 80908 10264 20207 39884 40122 887// 333 20235 59002;EQDQ01  00002PRCP99
0167825860999992000092418004-05190-039300FM-12+021199999V0200901N003112200019N0200001N1+03241+01861100851ADDAA199000091GF104991041021008001001001MA1999999098501MD1999999+0021REMSYN070AAXX  24184 82586 32598 40906 10324 20186 39850 40085 84200 333 58002;EQDQ01  00002PRCP99
0196825860999992000092500004-05190-039300FM-12+021199999V0200501N005112200019N0010001N1+02621+02351101071ADDAA199000091GA1001+999999999GF100991001001999999001001KA1240M+03291MA1999999098701MD1999999+0081REMSYN070AAXX  25004 82586 32994 00510 10262 20235 39870 40107 333 10329 58008;EQDQ01  00002PRCP99
0167825860999992000092518004-05190-039300FM-12+021199999V0200901N003612200019N0200001N1+03541+01711100861ADDAA199000091GF102991021021008001001001MA1999999098521MD1999999+0001REMSYN070AAXX  25184 82586 32598 20907 10354 20171 39852 40086 82200 333 58000;EQDQ01  00002PRCP99
0196825860999992000092600004-05190-039300FM-12+021199999V0200501N005112200019N0010001N1+02621+02251101101ADDAA199000091GA1001+999999999GF100991001001999999001001KA1240M+03551MA1999999098741MD1999999+0041REMSYN070AAXX  26004 82586 32994 00510 10262 20225 39874 40110 333 10355 58004;EQDQ01  00002PRCP99
0186825860999992000092612004-05190-039300FM-12+021199999V0200501N005112200019N0200001N1+02881+02211101361ADDAA199000091GF104991041021008001001001KA1240N+02321MA1999999098991MD1999999+0141REMSYN076AAXX  26124 82586 32598 40510 10288 20221 39899 40136 84200 333 20232 58014;EQDQ01  00002PRCP99
0167825860999992000092618004-05190-039300FM-12+021199999V0201401N004612200019N0200001N1+03441+01921100921ADDAA199000091GF103991031021008001001001MA1999999098581MD1999999+0061REMSYN070AAXX  26184 82586 32598 31409 10344 20192 39858 40092 83200 333 58006;EQDQ01  00002PRCP99
0196825860999992000092700004-05190-039300FM-12+021199999V0200501N005112200019N0010001N1+02561+02271101161ADDAA199000091GA1001+999999999GF100991001001999999001001KA1240M+03491MA1999999098791MD1999999+0051REMSYN070AAXX  27004 82586 32994 00510 10256 20227 39879 40116 333 10349 58005;EQDQ01  00002PRCP99
0186825860999992000092712004-05190-039300FM-12+021199999V0200901N005110075019N0200001N1+02761+02121101341ADDAA199000091GF106991061041008001001001KA1240N+02241MA1999999098971MD1999999-0021REMSYN076AAXX  27124 82586 32598 60910 10276 20212 39897 40134 86400 333 20224 59002;EQDQ01  00002PRCP99
0167825860999992000092718004-05190-039300FM-12+021199999V0201401N003112200019N0200001N1+03381+01821100881ADDAA199000091GF106991031011008001001041MA1999999098531MD1999999-0051REMSYN070AAXX  27184 82586 32598 61406 10338 20182 39853 40088 83104 333 59005;EQDQ01  00002PRCP99
0228825860999992000092800004-05190-039300FM-12+021199999V0200501N004612200019N0010001N1+02621+02211101041ADDAA199000091GA1001+999999999GF100991001001999999001001KA1240M+03341MA1999999999999MD1999999-0111REMSYN070AAXX  28004 82586 32994 00509 10262 20221 39664 40104 333 10334 59011;EQDQ01+096643APOSP Q02  00002PRCP99Q03 096643APOSP 
0186825860999992000092812004-05190-039300FM-12+021199999V0200901N004610075019N0200001N1+02821+02071101221ADDAA199000091GF105991051041008001001001KA1240N+02321MA1999999098911MD1999999-0061REMSYN076AAXX  28124 82586 32598 50909 10282 20207 39891 40122 85400 333 20232 59006;EQDQ01  00002PRCP99
0167825860999992000092818004-05190-039300FM-12+021199999V0201401N003112200019N0200001N1+03341+01711100861ADDAA199000091GF104991041021008001001001MA1999999098511MD1999999-0021REMSYN070AAXX  28184 82586 32598 41406 10334 20171 39851 40086 84200 333 59002;EQDQ01  00002PRCP99
0196825860999992000092900004-05190-039300FM-12+021199999V0203601N004612200019N0010001N1+02621+02331101081ADDAA199000091GA1001+999999999GF100991001001999999001001KA1240M+03421MA1999999098721MD1999999-0041REMSYN070AAXX  29004 82586 32994 03609 10262 20233 39872 40108 333 10342 59004;EQDQ01  00002PRCP99
0167825860999992000092918004-05190-039300FM-12+021199999V02099999999992200019N0200001N1+03421+01611100871ADDAA199000091GF104991021011008001001041MA1999999098531MD1999999+0021REMSYN070AAXX  29184 82586 32598 418// 10342 20161 39853 40087 82104 333 58002;EQDQ01  00002PRCP99
0196825860999992000093000004-05190-039300FM-12+021199999V0200901N002612200019N0010001N1+02731+02191101091ADDAA199000091GA1001+999999999GF100991001001999999001001KA1240M+03461MA1999999098731MD1999999+0021REMSYN070AAXX  30004 82586 32994 00905 10273 20219 39873 40109 333 10346 58002;EQDQ01  00002PRCP99
0186825860999992000093012004-05190-039300FM-12+021199999V0201401N005112200019N0200001N1+02861+02011101261ADDAA199000091GF104991041021008001001001KA1240N+02301MA1999999098901MD1999999-0061REMSYN076AAXX  30124 82586 32598 41410 10286 20201 39890 40126 84200 333 20230 59006;EQDQ01  00002PRCP99
0167825860999992000093018004-05190-039300FM-12+021199999V0200901N003110075019N0200001N1+03401+01721100931ADDAA199000091GF105991051021008001001001MA1999999098591MD1999999+0061REMSYN070AAXX  30184 82586 32598 50906 10340 20172 39859 40093 85200 333 58006;EQDQ01  00002PRCP99
0196825860999992000100100004-05190-039300FM-12+021199999V0200501N004112200019N0010001N1+02701+02281101151ADDAA199000091GA1001+999999999GF100991001001999999001001KA1240M+03501MA1999999098791MD1999999+0061REMSYN070AAXX  01004 82586 32994 00508 10270 20228 39879 40115 333 10350 58006;EQDQ01  00002PRCP99
0186825860999992000100112004-05190-039300FM-12+021199999V0201401N004612200019N0200001N1+02761+01991101371ADDAA199000091GF102991021011008001001001KA1240N+02231MA1999999099001MD1999999+0101REMSYN076AAXX  01124 82586 32598 21409 10276 20199 39900 40137 82100 333 20223 58010;EQDQ01  00002PRCP99
0167825860999992000100118004-05190-039300FM-12+021199999V0201401N001512200019N0200001N1+02461+01641100981ADDAA199000091GF103991031021008001001001MA1999999098641MD1999999+0051REMSYN070AAXX  01184 82586 32598 31403 10246 20164 39864 40098 83200 333 58005;EQDQ01  00002PRCP99
0186825860999992000100212004-05190-039300FM-12+021199999V02099999999992200019N0200001N1+02801+01921101391ADDAA199000091GF103991021011008001001011KA1240N+02281MA1999999099021MD1999999+0021REMSYN076AAXX  02124 82586 32598 309// 10280 20192 39902 40139 82101 333 20228 58002;EQDQ01  00002PRCP99
0196825860999992000100300004-05190-039300FM-12+021199999V0200501N005112200019N0010001N1+02621+02201101151ADDAA199000091GA1001+999999999GF100991001001999999001001KA1240M+03481MA1999999098781MD1999999+0001REMSYN070AAXX  03004 82586 32994 00510 10262 20220 39878 40115 333 10348 58000;EQDQ01  00002PRCP99
0186825860999992000100312004-05190-039300FM-12+021199999V0200501N002612200019N0200001N1+02861+02061101161ADDAA199000091GF102991021011008001001001KA1240N+02321MA1999999098801MD1999999-0221REMSYN076AAXX  03124 82586 32598 20505 10286 20206 39880 40116 82100 333 20232 59022;EQDQ01  00002PRCP99
0167825860999992000100318004-05190-039300FM-12+021199999V0201401N003112200019N0200001N1+03501+01581100881ADDAA199000091GF102991021011008001001001MA1999999098511MD1999999-0141REMSYN070AAXX  03184 82586 32598 21406 10350 20158 39851 40088 82100 333 59014;EQDQ01  00002PRCP99
0196825860999992000100400004-05190-039300FM-12+021199999V0200501N005112200019N0010001N1+02641+02231101121ADDAA199000091GA1001+999999999GF100991001001999999001001KA1240M+03501MA1999999098751MD1999999-0031REMSYN070AAXX  04004 82586 32994 00510 10264 20223 39875 40112 333 10350 59003;EQDQ01  00002PRCP99
0186825860999992000100412004-05190-039300FM-12+021199999V0200501N004112200019N0200001N1+02881+02131101281ADDAA199000091GF103991031011008001001001KA1240N+02221MA1999999098921MD1999999+0121REMSYN076AAXX  04124 82586 32598 30508 10288 20213 39892 40128 83100 333 20222 58012;EQDQ01  00002PRCP99
0167825860999992000100418004-05190-039300FM-12+021199999V0200901N002612200019N0200001N1+03531+01551100761ADDAA199000091GF102991021011008001001001MA1999999098421MD1999999-0091REMSYN070AAXX  04184 82586 32598 20905 10353 20155 39842 40076 82100 333 59009;EQDQ01  00002PRCP99
0196825860999992000100500004-05190-039300FM-12+021199999V0200501N003612200019N0010001N1+02641+02141101011ADDAA199000091GA1001+999999999GF100991001001999999001001KA1240M+03561MA1999999098651MD1999999-0101REMSYN070AAXX  05004 82586 32994 00507 10264 20214 39865 40101 333 10356 59010;EQDQ01  00002PRCP99
0186825860999992000100512004-05190-039300FM-12+021199999V0200501N003112200019N0200001N1+02891+02181101191ADDAA199000091GF104991041021008001001001KA1240N+02321MA1999999098831MD1999999-0091REMSYN076AAXX  05124 82586 32598 40506 10289 20218 39883 40119 84200 333 20232 59009;EQDQ01  00002PRCP99
0167825860999992000100518004-05190-039300FM-12+021199999V0200501N003112200019N0200001N1+03561+01431100821ADDAA199000091GF102991021011008001001001MA1999999098481MD1999999+0061REMSYN070AAXX  05184 82586 32598 20506 10356 20143 39848 40082 82100 333 58006;EQDQ01  00002PRCP99
0196825860999992000100600004-05190-039300FM-12+021199999V0200501N005712200019N0010001N1+02621+02051101001ADDAA199000091GA1001+999999999GF100991001001999999001001KA1240M+03541MA1999999098641MD1999999-0011REMSYN070AAXX  06004 82586 32994 00511 10262 20205 39864 40100 333 10354 59001;EQDQ01  00002PRCP99
0186825860999992000100612004-05190-039300FM-12+021199999V0200501N002612200019N0200001N1+02841+02071101161ADDAA199000091GF104991041021008001001001KA1240N+02321MA1999999098801MD1999999-0031REMSYN076AAXX  06124 82586 32598 40505 10284 20207 39880 40116 84200 333 20232 59003;EQDQ01  00002PRCP99
0167825860999992000100618004-05190-039300FM-12+021199999V0201401N001510075019N0200001N1+03381+01791100761ADDAA199000091GF105991051011008001001001MA1999999098421MD1999999-0061REMSYN070AAXX  06184 82586 32598 51403 10338 20179 39842 40076 85100 333 59006;EQDQ01  00002PRCP99
0196825860999992000100700004-05190-039300FM-12+021199999V0200501N005112200019N0010001N1+02621+02181101051ADDAA199000091GA1001+999999999GF100991001001999999001001KA1240M+03391MA1999999098691MD1999999+0051REMSYN070AAXX  07004 82586 32594 00510 10262 20218 39869 40105 333 10339 58005;EQDQ01  00002PRCP99
0186825860999992000100712004-05190-039300FM-12+021199999V0200501N003112200019N0020001N1+02801+01921101271ADDAA199000091GF102991021011008001001001KA1240N+02301MA1999999098901MD1999999+0101REMSYN076AAXX  07124 82586 32595 20506 10280 20192 39890 40127 82100 333 20230 58010;EQDQ01  00002PRCP99
0183825860999992000100718004-05190-039300FM-12+021199999V0200901N005112200019N0200001N1+03461+01561100881ADDAA199000091GF103991999011008001001001MA1999999098541MD1999999+0121REMSYN070AAXX  07184 82586 32598 30910 10346 20156 39854 40088 82100 333 58012;EQDQ01+000022SCOTLCQ02  00002PRCP99
0196825860999992000100800004-05190-039300FM-12+021199999V0200501N003112200019N0010001N1+02581+02211101131ADDAA199000091GA1001+999999999GF100991001001999999001001KA1240M+03501MA1999999098761MD1999999+0071REMSYN070AAXX  08004 82586 32994 00506 10258 20221 39876 40113 333 10350 58007;EQDQ01  00002PRCP99
0186825860999992000100812004-05190-039300FM-12+021199999V0200501N003612200019N0200001N1+02761+02041101351ADDAA199000091GF104991041011008001001001KA1240N+02201MA1999999098971MD1999999+0071REMSYN076AAXX  08124 82586 32598 40507 10276 20204 39897 40135 84100 333 20220 58007;EQDQ01  00002PRCP99
0167825860999992000100818004-05190-039300FM-12+021199999V0201401N003112200019N0200001N1+03461+01691100901ADDAA199000091GF102991021011008001001001MA1999999098551MD1999999+0011REMSYN070AAXX  08184 82586 32598 21406 10346 20169 39855 40090 82100 333 58001;EQDQ01  00002PRCP99
0167825860999992000100918004-05190-039300FM-12+021199999V0201401N003112200019N0200001N1+03401+01721100941ADDAA199000091GF103991031011008001001001MA1999999098581MD1999999+0031REMSYN070AAXX  09184 82586 32598 31406 10340 20172 39858 40094 83100 333 58003;EQDQ01  00002PRCP99
0196825860999992000101000004-05190-039300FM-12+021199999V0200501N005712200019N0010001N1+02701+02281101131ADDAA199000091GA1001+999999999GF100991001001999999001001KA1240M+03431MA1999999098761MD1999999+0041REMSYN070AAXX  10004 82586 32994 00511 10270 20228 39876 40113 333 10343 58004;EQDQ01  00002PRCP99
0186825860999992000101012004-05190-039300FM-12+021199999V0201401N003112200019N0200001N1+02761+01891101121ADDAA199000091GF101991011011008001001001KA1240N+02281MA1999999098761MD1999999-0191REMSYN076AAXX  10124 82586 32598 11406 10276 20189 39876 40112 81100 333 20228 59019;EQDQ01  00002PRCP99
0167825860999992000101018004-05190-039300FM-12+021199999V02099999999992200019N0200001N1+03561+01591100731ADDAA199000091GF101991011011008001001001MA1999999098391MD1999999-0191REMSYN070AAXX  10184 82586 32598 102// 10356 20159 39839 40073 81100 333 59019;EQDQ01  00002PRCP99
0196825860999992000101100004-05190-039300FM-12+021199999V0200501N005112200019N0010001N1+02741+02241101051ADDAA199000091GA1001+999999999GF100991001001999999001001KA1240M+03591MA1999999098691MD1999999-0071REMSYN070AAXX  11004 82586 32994 00510 10274 20224 39869 40105 333 10359 59007;EQDQ01  00002PRCP99
0186825860999992000101112004-05190-039300FM-12+021199999V0201401N005712200019N0200001N1+02921+01891101161ADDAA199000091GF101991011011008001001001KA1240N+02321MA1999999098801MD1999999+0041REMSYN076AAXX  11124 82586 32598 11411 10292 20189 39880 40116 81100 333 20232 58004;EQDQ01  00002PRCP99
0167825860999992000101118004-05190-039300FM-12+021199999V0200501N005112200019N0200001N1+03501+02021100801ADDAA199000091GF104991041021008001001001MA1999999098461MD1999999+0071REMSYN070AAXX  11184 82586 32598 40510 10350 20202 39846 40080 84200 333 58007;EQDQ01  00002PRCP99
0196825860999992000101200004-05190-039300FM-12+021199999V0200501N003112200019N0010001N1+03001+02001100971ADDAA199000091GA1001+999999999GF100991001001999999001001KA1240M+03581MA1999999098631MD1999999-0061REMSYN070AAXX  12004 82586 32994 00506 10300 20200 39863 40097 333 10358 59006;EQDQ01  00002PRCP99
0186825860999992000101212004-05190-039300FM-12+021199999V0200901N001510075019N0200001N1+02921+02191101231ADDAA199000091GF106991061041008001001001KA1240N+02361MA1999999098881MD1999999+0081REMSYN076AAXX  12124 82586 32598 60903 10292 20219 39888 40123 86400 333 20236 58008;EQDQ01  00002PRCP99
0167825860999992000101218004-05190-039300FM-12+021199999V0200501N001510075019N0200001N1+03401+01891100921ADDAA199000091GF106991061021008001001001MA1999999098581MD1999999+0121REMSYN070AAXX  12184 82586 32598 60503 10340 20189 39858 40092 86200 333 58012;EQDQ01  00002PRCP99
0196825860999992000101300004-05190-039300FM-12+021199999V0200501N004112200019N0010001N1+02821+02201101181ADDAA199000091GA1001+999999999GF100991001001999999001001KA1240M+03461MA1999999098821MD1999999+0191REMSYN070AAXX  13004 82586 32994 00508 10282 20220 39882 40118 333 10346 58019;EQDQ01  00002PRCP99
0186825860999992000101312004-05190-039300FM-12+021199999V0201401N004610075019N0200001N1+02861+02011101361ADDAA199000091GF106991061021008001001001KA1240N+02261MA1999999099001MD1999999+0121REMSYN076AAXX  13124 82586 32598 61409 10286 20201 39900 40136 86200 333 20226 58012;EQDQ01  00002PRCP99
0167825860999992000101318004-05190-039300FM-12+021199999V0200901N003112200019N0200001N1+03461+01981100971ADDAA199000091GF104991041021008001001001MA1999999098621MD1999999+0041REMSYN070AAXX  13184 82586 32598 40906 10346 20198 39862 40097 84200 333 58004;EQDQ01  00002PRCP99
0186825860999992000101400004-05190-039300FM-12+021199999V0200501N004112200019N0010001N1+02721+02391101161ADDAA199000091GF102991021021008001001001KA1240M+03521MA1999999098801MD1999999-0021REMSYN076AAXX  14004 82586 32594 20508 10272 20239 39880 40116 82200 333 10352 59002;EQDQ01  00002PRCP99
0186825860999992000101412004-05190-039300FM-12+021199999V0200901N004612200019N0200001N1+02821+01911101271ADDAA199000091GF103991031011008001001001KA1240N+02341MA1999999098911MD1999999-0101REMSYN076AAXX  14124 82586 32598 30909 10282 20191 39891 40127 83100 333 20234 59010;EQDQ01  00002PRCP99
0167825860999992000101418004-05190-039300FM-12+021199999V0201401N003112200019N0200001N1+03501+01771100901ADDAA199000091GF102991021011008001001001MA1999999098561MD1999999-0061REMSYN070AAXX  14184 82586 32598 21406 10350 20177 39856 40090 82100 333 59006;EQDQ01  00002PRCP99
0196825860999992000101500004-05190-039300FM-12+021199999V0200901N005112200019N0010001N1+02681+02261101141ADDAA199000091GA1001+999999999GF100991001001999999001001KA1240M+03541MA1999999098781MD1999999-0021REMSYN070AAXX  15004 82586 32994 00910 10268 20226 39878 40114 333 10354 59002;EQDQ01  00002PRCP99
0186825860999992000101512004-05190-039300FM-12+021199999V0200901N003112200019N0200001N1+02861+02061101251ADDAA199000091GF102991021011008001001001KA1240N+02231MA1999999098891MD1999999-0061REMSYN076AAXX  15124 82586 32598 20906 10286 20206 39889 40125 82100 333 20223 59006;EQDQ01  00002PRCP99
0167825860999992000101518004-05190-039300FM-12+021199999V02099999999992200019N0200001N1+03551+01761100811ADDAA199000091GF103991021011008001001041MA1999999098471MD1999999-0091REMSYN070AAXX  15184 82586 32598 309// 10355 20176 39847 40081 82104 333 59009;EQDQ01  00002PRCP99
0228825860999992000101600004-05190-039300FM-12+021199999V0200501N005112200019N0010001N1+02701+02351101041ADDAA199000091GA1001+999999999GF100991001001999999001001KA1240M+03571MA1999999999999MD1999999-0101REMSYN070AAXX  16004 82586 32994 00510 10270 20235 39568 40104 333 10357 59010;EQDQ01+095683APOSP Q02  00002PRCP99Q03 095683APOSP 
0186825860999992000101612004-05190-039300FM-12+021199999V0200901N004612200019N0200001N1+02881+02051101251ADDAA199000091GF103991031011008001001041KA1240N+02381MA1999999098891MD1999999+0001REMSYN076AAXX  16124 82586 32598 30909 10288 20205 39889 40125 83104 333 20238 58000;EQDQ01  00002PRCP99
0167825860999992000101618004-05190-039300FM-12+021199999V0201401N002612200019N0200001N1+03521+01871100801ADDAA199000091GF104991041021008001001001MA1999999098461MD1999999-0011REMSYN070AAXX  16184 82586 32598 41405 10352 20187 39846 40080 84200 333 59001;EQDQ01  00002PRCP99
0196825860999992000101700004-05190-039300FM-12+021199999V0200501N003112200019N0010001N1+02721+02301101051ADDAA199000091GA1001+999999999GF100991001001999999001001KA1240M+03561MA1999999098691MD1999999+0011REMSYN070AAXX  17004 82586 32994 00506 10272 20230 39869 40105 333 10356 58001;EQDQ01  00002PRCP99
0186825860999992000101712004-05190-039300FM-12+021199999V0201401N005112200019N0200001N1+02941+02081101241ADDAA199000091GF104991041021008001001001KA1240N+02381MA1999999098881MD1999999-0011REMSYN076AAXX  17124 82586 32598 41410 10294 20208 39888 40124 84200 333 20238 59001;EQDQ01  00002PRCP99
0167825860999992000101718004-05190-039300FM-12+021199999V0200901N004112200019N0200001N1+03501+01771100911ADDAA199000091GF104991041021008001001001MA1999999098571MD1999999+0111REMSYN070AAXX  17184 82586 32598 40908 10350 20177 39857 40091 84200 333 58011;EQDQ01  00002PRCP99
0196825860999992000101800004-05190-039300FM-12+021199999V02099999999992200019N0010001N1+02651+02251101141ADDAA199000091GA1001+999999999GF100991001001999999001001KA1240M+03581MA1999999098781MD1999999+0091REMSYN070AAXX  18004 82586 32994 005// 10265 20225 39878 40114 333 10358 58009;EQDQ01  00002PRCP99
0186825860999992000101812004-05190-039300FM-12+021199999V0200901N003610075019N0200001N1+02901+02041101391ADDAA199000091GF105991051021008001001001KA1240N+02301MA1999999099021MD1999999+0141REMSYN076AAXX  18124 82586 32598 50907 10290 20204 39902 40139 85200 333 20230 58014;EQDQ01  00002PRCP99
0167825860999992000101818004-05190-039300FM-12+021199999V0201401N003112200019N0200001N1+03461+01981101001ADDAA199000091GF103991031021008001001001MA1999999098651MD1999999+0081REMSYN070AAXX  18184 82586 32598 31406 10346 20198 39865 40100 83200 333 58008;EQDQ01  00002PRCP99
0196825860999992000101900004-05190-039300FM-12+021199999V0200501N005112200019N0010001N1+02721+02241101171ADDAA199000091GA1001+999999999GF100991001001999999001001KA1240M+03551MA1999999098811MD1999999+0031REMSYN070AAXX  19004 82586 32994 00510 10272 20224 39881 40117 333 10355 58003;EQDQ01  00002PRCP99
0186825860999992000101912004-05190-039300FM-12+021199999V0200901N004612200019N0200001N1+02901+02201101251ADDAA199000091GF102991021011008001001001KA1240N+02281MA1999999098891MD1999999-0131REMSYN076AAXX  19124 82586 32598 20909 10290 20220 39889 40125 82100 333 20228 59013;EQDQ01  00002PRCP99
0167825860999992000101918004-05190-039300FM-12+021199999V02099999999992200019N0200001N1+03501+01941100811ADDAA199000091GF104991041021008001001001MA1999999098471MD1999999-0181REMSYN070AAXX  19184 82586 32598 405// 10350 20194 39847 40081 84200 333 59018;EQDQ01  00002PRCP99
0196825860999992000102000004-05190-039300FM-12+021199999V02099999999992200019N0010001N1+02701+02131101011ADDAA199000091GA1001+999999999GF100991001001999999001001KA1240M+03551MA1999999098651MD1999999-0161REMSYN070AAXX  20004 82586 32994 005// 10270 20213 39865 40101 333 10355 59016;EQDQ01  00002PRCP99
0186825860999992000102012004-05190-039300FM-12+021199999V0200901N003110075019N0200001N1+02781+02111101181ADDAA199000091GF105991051011008001001001KA1240N+02261MA1999999098821MD1999999-0071REMSYN076AAXX  20124 82586 32598 50906 10278 20211 39882 40118 85100 333 20226 59007;EQDQ01  00002PRCP99
0167825860999992000102018004-05190-039300FM-12+021199999V0200901N003112200019N0200001N1+03481+01831100831ADDAA199000091GF102991021011008001001001MA1999999098491MD1999999+0021REMSYN070AAXX  20184 82586 32598 20906 10348 20183 39849 40083 82100 333 58002;EQDQ01  00002PRCP99
0196825860999992000102100004-05190-039300FM-12+021199999V0200501N004112200019N0010001N1+02671+01961101011ADDAA199000091GA1001+999999999GF100991001001999999001001KA1240M+03521MA1999999098651MD1999999+0001REMSYN070AAXX  21004 82586 32994 00508 10267 20196 39865 40101 333 10352 58000;EQDQ01  00002PRCP99
0186825860999992000102112004-05190-039300FM-12+021199999V0200901N003110075019N0200001N1+02781+02211101091ADDAA199000091GF106991061021008001001001KA1240N+02341MA1999999098821MD1999999-0091REMSYN076AAXX  21124 82586 32598 60906 10278 20221 39882 40109 86200 333 20234 59009;EQDQ01  00002PRCP99
0167825860999992000102118004-05190-039300FM-12+021199999V0200901N001510075019N0200001N1+03411+01961100721ADDAA199000091GF105991051021008001001001MA1999999098381MD1999999-0111REMSYN070AAXX  21184 82586 32598 50903 10341 20196 39838 40072 85200 333 59011;EQDQ01  00002PRCP99
0196825860999992000102200004-05190-039300FM-12+021199999V0200501N003112200019N0010001N1+02581+02311100971ADDAA199000091GA1001+999999999GF100991001001999999001001KA1240M+03481MA1999999098611MD1999999-0041REMSYN070AAXX  22004 82586 32994 00506 10258 20231 39861 40097 333 10348 59004;EQDQ01  00002PRCP99
0186825860999992000102212004-05190-039300FM-12+021199999V0200901N002110075019N0200001N1+02761+02281101081ADDAA199000091GF107991071071008001001001KA1240N+02261MA1999999098721MD1999999-0011REMSYN076AAXX  22124 82586 32598 70904 10276 20228 39872 40108 87700 333 20226 59001;EQDQ01  00002PRCP99
0167825860999992000102218004-05190-039300FM-12+021199999V0200501N001512200019N0200001N1+03501+01941100731ADDAA199000091GF102991021011008001001001MA1999999098391MD1999999+0011REMSYN070AAXX  22184 82586 32598 20503 10350 20194 39839 40073 82100 333 58001;EQDQ01  00002PRCP99
0196825860999992000102300004-05190-039300FM-12+021199999V02099999999992200019N0010001N1+02541+02211100951ADDAA199000091GA1001+999999999GF100991001001999999001001KA1240M+03551MA1999999098591MD1999999-0021REMSYN070AAXX  23004 82586 32994 005// 10254 20221 39859 40095 333 10355 59002;EQDQ01  00002PRCP99
0186825860999992000102312004-05190-039300FM-12+021199999V0200501N006210075019N0200001N1+02821+02071101171ADDAA199000091GF106991061041008001001001KA1240N+02321MA1999999098801MD1999999+0081REMSYN076AAXX  23124 82586 32598 60512 10282 20207 39880 40117 86400 333 20232 58008;EQDQ01  00002PRCP99
0167825860999992000102318004-05190-039300FM-12+021199999V0200901N005112200019N0200001N1+03501+01771100751ADDAA199000091GF102991021011008001001001MA1999999098411MD1999999+0021REMSYN070AAXX  23184 82586 32598 20910 10350 20177 39841 40075 82100 333 58002;EQDQ01  00002PRCP99
0196825860999992000102400004-05190-039300FM-12+021199999V02099999999992200019N0010001N1+02721+02301100941ADDAA199000091GA1001+999999999GF100991001001999999001001KA1240M+03541MA1999999098581MD1999999-0011REMSYN070AAXX  24004 82586 32994 005// 10272 20230 39858 40094 333 10354 59001;EQDQ01  00002PRCP99
0186825860999992000102412004-05190-039300FM-12+021199999V0200501N004610075019N0200001N1+02701+02131101091ADDAA199000091GF106991061041008001001001KA1240N+02301MA1999999098731MD1999999-0071REMSYN076AAXX  24124 82586 32598 60509 10270 20213 39873 40109 86400 333 20230 59007;EQDQ01  00002PRCP99
0167825860999992000102418004-05190-039300FM-12+021199999V0200901N002612200019N0200001N1+03461+01821100691ADDAA199000091GF103991031011008001001001MA1999999098351MD1999999-0061REMSYN070AAXX  24184 82586 32598 30905 10346 20182 39835 40069 83100 333 59006;EQDQ01  00002PRCP99
0196825860999992000102500004-05190-039300FM-12+021199999V02099999999992200019N0010001N1+02651+02271100941ADDAA199000091GA1001+999999999GF100991001001999999001001KA1240M+03521MA1999999098571MD1999999-0011REMSYN070AAXX  25004 82586 32994 036// 10265 20227 39857 40094 333 10352 59001;EQDQ01  00002PRCP99
0186825860999992000102512004-05190-039300FM-12+021199999V0203601N003112200019N0200001N1+02851+02121100991ADDAA199000091GF102991021011008001001001KA1240N+02291MA1999999098631MD1999999-0101REMSYN076AAXX  25124 82586 32598 23606 10285 20212 39863 40099 82100 333 20229 59010;EQDQ01  00002PRCP99
0167825860999992000102518004-05190-039300FM-12+021199999V02099999999992200019N0200001N1+03561+01781100611ADDAA199000091GF102991021011008001001001MA1999999098271MD1999999+0081REMSYN070AAXX  25184 82586 32598 205// 10356 20178 39827 40061 82100 333 58008;EQDQ01  00002PRCP99
0196825860999992000102600004-05190-039300FM-12+021199999V0203601N005112200019N0010001N1+02641+02231100821ADDAA199000091GA1001+999999999GF100991001001999999001001KA1240M+03581MA1999999098461MD1999999-0111REMSYN070AAXX  26004 82586 32994 03610 10264 20223 39846 40082 333 10358 59011;EQDQ01  00002PRCP99
0186825860999992000102612004-05190-039300FM-12+021199999V0200901N004612200019N0200001N1+02861+02061101051ADDAA199000091GF102991021021008001001001KA1240N+02301MA1999999098691MD1999999+0061REMSYN076AAXX  26124 82586 32598 20909 10286 20206 39869 40105 82200 333 20230 58006;EQDQ01  00002PRCP99
0183825860999992000102618004-05190-039300FM-12+021199999V0200901N001519999999N0200001N1+03461+02061100691ADDAA199000091GF107991999021008001001001MA1999999098351MD1999999+0081REMSYN070AAXX  26184 82586 32598 70903 10346 20206 39835 40069 84200 333 58008;EQDQ01+000042SCOTLCQ02  00002PRCP99
0196825860999992000102700004-05190-039300FM-12+021199999V0200501N005112200019N0010001N1+02641+02291100921ADDAA199000091GA1001+999999999GF100991001001999999001001KA1240M+03401MA1999999098561MD1999999+0101REMSYN070AAXX  27004 82586 32994 00510 10264 20229 39856 40092 333 10340 58010;EQDQ01  00002PRCP99
0186825860999992000102712004-05190-039300FM-12+021199999V0200901N005110075019N0200001N1+02801+02081101171ADDAA199000091GF106991061041008001001001KA1240N+02341MA1999999098801MD1999999+0111REMSYN076AAXX  27124 82586 32598 60910 10280 20208 39880 40117 86400 333 20234 58011;EQDQ01  00002PRCP99
0167825860999992000102718004-05190-039300FM-12+021199999V02099999999990075019N0200001N1+03401+01891100821ADDAA199000091GF106991061021008001001001MA1999999098481MD1999999+0131REMSYN070AAXX  27184 82586 32598 605// 10340 20189 39848 40082 86200 333 58013;EQDQ01  00002PRCP99
0196825860999992000102800004-05190-039300FM-12+021199999V0203601N005112200019N0010001N1+02661+02221100991ADDAA199000091GA1001+999999999GF100991001001999999001001KA1240M+03511MA1999999098651MD1999999+0071REMSYN070AAXX  28004 82586 32994 03610 10266 20222 39865 40099 333 10351 58007;EQDQ01  00002PRCP99
0186825860999992000102812004-05190-039300FM-12+021199999V0200501N005110075019N0200001N1+02881+02161101151ADDAA199000091GF106991061011008001001001KA1240N+02321MA1999999098791MD1999999-0011REMSYN076AAXX  28124 82586 32598 60510 10288 20216 39879 40115 86100 333 20232 59001;EQDQ01  00002PRCP99
0167825860999992000102818004-05190-039300FM-12+021199999V0200501N004110450019N0200001N1+03471+01981100801ADDAA199000091GF106991041011008001051001MA1999999098461MD1999999-0021REMSYN070AAXX  28184 82586 32598 60508 10347 20198 39846 40080 84150 333 59002;EQDQ01  00002PRCP99
0196825860999992000102900004-05190-039300FM-12+021199999V0203601N005112200019N0010001N1+02701+02131100991ADDAA199000091GA1001+999999999GF100991001001999999001001KA1240M+03501MA1999999098631MD1999999+0001REMSYN070AAXX  29004 82586 32994 03610 10270 20213 39863 40099 333 10350 58000;EQDQ01  00002PRCP99
0186825860999992000102912004-05190-039300FM-12+021199999V0200901N005710075019N0200001N1+02761+02191101161ADDAA199000091GF107991071041008001001001KA1240N+02401MA1999999098801MD1999999+0011REMSYN076AAXX  29124 82586 32598 70911 10276 20219 39880 40116 87400 333 20240 58001;EQDQ01  00002PRCP99
0167825860999992000102918004-05190-039300FM-12+021199999V0200501N001512200019N0200001N1+03491+02001100781ADDAA199000091GF102991021011008001001001MA1999999098441MD1999999-0021REMSYN070AAXX  29184 82586 32598 20503 10349 20200 39844 40078 82100 333 59002;EQDQ01  00002PRCP99
0196825860999992000103000004-05190-039300FM-12+021199999V0200501N005112200019N0010001N1+02721+02241100961ADDAA199000091GA1001+999999999GF100991001001999999001001KA1240M+03501MA1999999098601MD1999999-0031REMSYN070AAXX  30004 82586 32994 00510 10272 20224 39860 40096 333 10350 59003;EQDQ01  00002PRCP99
0186825860999992000103012004-05190-039300FM-12+021199999V0200501N006210075019N0200001N1+02861+02231101141ADDAA199000091GF106991061011008001001001KA1240N+02361MA1999999098781MD1999999-0021REMSYN076AAXX  30124 82586 32598 60512 10286 20223 39878 40114 86100 333 20236 59002;EQDQ01  00002PRCP99
0167825860999992000103018004-05190-039300FM-12+021199999V0200501N004112200019N0200001N1+03561+01991100691ADDAA199000091GF103991031021008001001001MA1999999098351MD1999999-0091REMSYN070AAXX  30184 82586 32598 30508 10356 20199 39835 40069 83200 333 59009;EQDQ01  00002PRCP99
0196825860999992000103100004-05190-039300FM-12+021199999V0203601N003112200019N0010001N1+02671+02311100951ADDAA199000091GA1001+999999999GF100991001001999999001001KA1240M+03621MA1999999098591MD1999999-0011REMSYN070AAXX  31004 82586 32994 03606 10267 20231 39859 40095 333 10362 59001;EQDQ01  00002PRCP99
0186825860999992000103112004-05190-039300FM-12+021199999V0200901N003110075019N0200001N1+02721+02281101091ADDAA199000091GF107991071041008001001001KA1240N+02341MA1999999098731MD1999999-0051REMSYN076AAXX  31124 82586 32598 70906 10272 20228 39873 40109 87400 333 20234 59005;EQDQ01  00002PRCP99
0167825860999992000103118004-05190-039300FM-12+021199999V0200901N003610075019N0200001N1+03411+01961100691ADDAA199000091GF106991061021008001001001MA1999999098351MD1999999+0001REMSYN070AAXX  31184 82586 32598 60907 10341 20196 39835 40069 86200 333 58000;EQDQ01  00002PRCP99
0196825860999992000110100004-05190-039300FM-12+021199999V0200501N003112200019N0010001N1+02651+01231100841ADDAA199000091GA1001+999999999GF100991001001999999001001KA1240M+03461MA1999999098481MD1999999-0111REMSYN070AAXX  01004 82586 32994 00506 10265 20123 39848 40084 333 10346 59011;EQDQ01  00002PRCP99
0186825860999992000110112004-05190-039300FM-12+021199999V0200901N004110075019N0200001N1+02801+02251101011ADDAA199000091GF106991061021008001001001KA1240N+02351MA1999999098651MD1999999-0081REMSYN076AAXX  01124 82586 32598 60908 10280 20225 39865 40101 86200 333 20235 59008;EQDQ01  00002PRCP99
0167825860999992000110118004-05190-039300FM-12+021199999V0201401N001512200019N0200001N1+03541+01801100581ADDAA199000091GF104991041011008001001001MA1999999098241MD1999999-0111REMSYN070AAXX  01184 82586 32598 41403 10354 20180 39824 40058 84100 333 59011;EQDQ01  00002PRCP99
0196825860999992000110200004-05190-039300FM-12+021199999V0203601N003112200019N0010001N1+02731+02241100781ADDAA199000091GA1001+999999999GF100991001001999999001001KA1240M+03581MA1999999098421MD1999999-0061REMSYN070AAXX  02004 82586 32994 03606 10273 20224 39842 40078 333 10358 59006;EQDQ01  00002PRCP99
0186825860999992000110212004-05190-039300FM-12+021199999V0200501N005110075019N0200001N1+02821+02241100981ADDAA199000091GF106991061041008001001001KA1240N+02381MA1999999098621MD1999999-0031REMSYN076AAXX  02124 82586 32598 60510 10282 20224 39862 40098 86400 333 20238 59003;EQDQ01  00002PRCP99
0196825860999992000110300004-05190-039300FM-12+021199999V0203601N005712200019N0010001N1+02671+02221100771ADDAA199000091GA1001+999999999GF100991001001999999001001KA1240M+03551MA1999999098411MD1999999-0011REMSYN070AAXX  03004 82586 32694 03611 10267 20222 39841 40077 333 10355 59001;EQDQ01  00002PRCP99
0202825860999992000110312004-05190-039300FM-12+021199999V0200901N005119999999N0200001N1+02841+02041100881ADDAA199000091GF107991999021008001001001KA1240N+02341MA1999999098521MD1999999-0101REMSYN076AAXX  03124 82586 32598 70910 10284 20204 39852 40088 84200 333 20234 59010;EQDQ01+000042SCOTLCQ02  00002PRCP99
0167825860999992000110318004-05190-039300FM-12+021199999V0200501N002610075019N0200001N1+03421+01981100491ADDAA199000091GF106991061021008001001001MA1999999098151MD1999999-0081REMSYN070AAXX  03184 82586 32598 60505 10342 20198 39815 40049 86200 333 59008;EQDQ01  00002PRCP99
0196825860999992000110400004-05190-039300FM-12+021199999V02099999999992200019N0010001N1+02671+02131100701ADDAA199000091GA1001+999999999GF100991001001999999001001KA1240M+03551MA1999999098341MD1999999-0071REMSYN070AAXX  04004 82586 32994 005// 10267 20213 39834 40070 333 10355 59007;EQDQ01  00002PRCP99
0196825860999992000110500004-05190-039300FM-12+021199999V0203601N005112200019N0010001N1+02581+02231100741ADDAA199000091GA1001+999999999GF100991001001999999001001KA1240M+03371MA1999999098301MD1999999+0031REMSYN070AAXX  05004 82586 32994 03610 10258 20223 39830 40074 333 10337 58003;EQDQ01  00002PRCP99
0186825860999992000110512004-05190-039300FM-12+021199999V0200501N003110075019N0200001N1+02821+01941100911ADDAA199000091GF106991061041008001001001KA1240N+02351MA1999999098551MD1999999+0111REMSYN076AAXX  05124 82586 32598 60506 10282 20194 39855 40091 86400 333 20235 58011;EQDQ01  00002PRCP99
0167825860999992000110518004-05190-039300FM-12+021199999V0200501N003110075019N0200001N1+03461+01731100581ADDAA199000091GF106991061021008001001001MA1999999098241MD1999999+0061REMSYN070AAXX  05184 82586 32598 60506 10346 20173 39824 40058 86200 333 58006;EQDQ01  00002PRCP99
0186825860999992000110600004-05190-039300FM-12+021199999V02099999999992200019N0010001N1+02711+02131100831ADDAA199000091GF102991021011008001001001KA1240M+03521MA1999999098471MD1999999+0101REMSYN076AAXX  06004 82586 32594 205// 10271 20213 39847 40083 82100 333 10352 58010;EQDQ01  00002PRCP99
0167825860999992000110618004-05190-039300FM-12+021199999V02099999999992200019N0200001N1+03531+01741100591ADDAA199000091GF104991041011008001001001MA1999999098251MD1999999+0011REMSYN070AAXX  06184 82586 32598 409// 10353 20174 39825 40059 84100 333 58001;EQDQ01  00002PRCP99
0196825860999992000110700004-05190-039300FM-12+021199999V02099999999992200019N0010001N1+02701+01941100831ADDAA199000091GA1001+999999999GF100991001001999999001001KA1240M+03601MA1999999098471MD1999999+0001REMSYN070AAXX  07004 82586 32994 005// 10270 20194 39847 40083 333 10360 58000;EQDQ01  00002PRCP99
0186825860999992000110712004-05190-039300FM-12+021199999V0200501N004612200019N0200001N1+02861+02141100881ADDAA199000091GF104991041021008001001001KA1240N+02261MA1999999098531MD1999999+0011REMSYN076AAXX  07124 82586 32598 40509 10286 20214 39853 40088 84200 333 20226 58001;EQDQ01  00002PRCP99
0167825860999992000110718004-05190-039300FM-12+021199999V0200901N003112200019N0200001N1+03541+01671100471ADDAA199000091GF101991011011008001001001MA1999999098141MD1999999-0091REMSYN070AAXX  07184 82586 32598 10906 10354 20167 39814 40047 81100 333 59009;EQDQ01  00002PRCP99
0196825860999992000110800004-05190-039300FM-12+021199999V02099999999992200019N0010001N1+02671+02091100681ADDAA199000091GA1001+999999999GF100991001001999999001001KA1240M+03601MA1999999098321MD1999999-0151REMSYN070AAXX  08004 82586 32994 005// 10267 20209 39832 40068 333 10360 59015;EQDQ01  00002PRCP99
0186825860999992000110812004-05190-039300FM-12+021199999V0200901N002610075019N0200001N1+02661+02241100761ADDAA199000091GF107991071071008001001001KA1240N+02281MA1999999098401MD1999999-0131REMSYN076AAXX  08124 82586 32598 70905 10266 20224 39840 40076 87700 333 20228 59013;EQDQ01  00002PRCP99
0183825860999992000110818004-05190-039300FM-12+021199999V0200901N001519999999N0200001N1+03341+01871100421ADDAA199000091GF108991999021008001001001MA1999999098081MD1999999-0061REMSYN070AAXX  08184 82586 32598 80903 10334 20187 39808 40042 83200 333 59006;EQDQ01+000032SCOTLCQ02  00002PRCP99
0186825860999992000110912004-05190-039300FM-12+021199999V0200501N003110075019N0200001N1+02701+02281100861ADDAA199000091GF108991081071008001999999KA1240N+02381MA1999999098501MD1999999+0101REMSYN076AAXX  09124 82586 32598 80506 10270 20228 39850 40086 887// 333 20238 58010;EQDQ01  00002PRCP99
0167825860999992000110918004-05190-039300FM-12+021199999V0200501N004110075019N0200001N1+03121+01991100531ADDAA199000091GF108991081051008001999999MA1999999098171MD1999999+0091REMSYN070AAXX  09184 82586 32598 80508 10312 20199 39817 40053 885// 333 58009;EQDQ01  00002PRCP99
0196825860999992000111000004-05190-039300FM-12+021199999V0200501N001512200019N0010001N1+02651+02161100741ADDAA199000091GA1001+999999999GF100991001001999999001001KA1240M+03161MA1999999098381MD1999999-0011REMSYN070AAXX  10004 82586 32994 00503 10265 20216 39838 40074 333 10316 59001;EQDQ01  00002PRCP99
0186825860999992000111012004-05190-039300FM-12+021199999V0200901N003110075019N0200001N1+02781+02161100911ADDAA199000091GF108991081071008001999999KA1240N+02281MA1999999098551MD1999999+0051REMSYN076AAXX  10124 82586 32598 80906 10278 20216 39855 40091 887// 333 20228 58005;EQDQ01  00002PRCP99
0167825860999992000111018004-05190-039300FM-12+021199999V0200501N001510450019N0200001N1+03351+01831100561ADDAA199000091GF106991031021008001021001MA1999999098221MD1999999+0051REMSYN070AAXX  10184 82586 32598 60503 10335 20183 39822 40056 83220 333 58005;EQDQ01  00002PRCP99
0180825860999992000111100004-05190-039300FM-12+021199999V0200501N003112200019N0010001N1+02661+02181100791ADDAA199000091GF102991999999999999999999KA1240M+03411MA1999999098431MD1999999+0051REMSYN070AAXX  11004 82586 32994 20506 10266 20218 39843 40079 333 10341 58005;EQDQ01  00002PRCP99
0186825860999992000111112004-05190-039300FM-12+021199999V0200501N002110075019N0200001N1+02761+02281100881ADDAA199000091GF107991071071008001001001KA1240N+02341MA1999999098521MD1999999-0031REMSYN076AAXX  11124 82586 32598 70504 10276 20228 39852 40088 87700 333 20234 59003;EQDQ01  00002PRCP99
0167825860999992000111118004-05190-039300FM-12+021199999V0200501N002110075019N0200001N1+03361+01811100591ADDAA199000091GF106991061041008001001001MA1999999098241MD1999999+0021REMSYN070AAXX  11184 82586 32598 60504 10336 20181 39824 40059 86400 333 58002;EQDQ01  00002PRCP99
0196825860999992000111200004-05190-039300FM-12+021199999V0200501N003112200019N0010001N1+02701+02031100781ADDAA199000091GA1001+999999999GF100991001001999999001001KA1240M+03521MA1999999098421MD1999999-0011REMSYN070AAXX  12004 82586 32994 00506 10270 20203 39842 40078 333 10352 59001;EQDQ01  00002PRCP99
0186825860999992000111212004-05190-039300FM-12+021199999V0200901N004610075019N0200001N1+02821+02201100861ADDAA199000091GF106991061041008001001001KA1240N+02261MA1999999098501MD1999999-0021REMSYN076AAXX  12124 82586 32598 60909 10282 20220 39850 40086 86400 333 20226 59002;EQDQ01  00002PRCP99
0167825860999992000111218004-05190-039300FM-12+021199999V0200901N002110075019N0200001N1+03501+01721100571ADDAA199000091GF105991051021008001001001MA1999999098231MD1999999-0011REMSYN070AAXX  12184 82586 32598 50904 10350 20172 39823 40057 85200 333 59001;EQDQ01  00002PRCP99
0196825860999992000111300004-05190-039300FM-12+021199999V0200501N004112200019N0010001N1+02621+02181100821ADDAA199000091GA1001+999999999GF100991001001999999001001KA1240M+03551MA1999999098481MD1999999+0041REMSYN070AAXX  13004 82586 32994 00508 10262 20218 39848 40082 333 10355 58004;EQDQ01  00002PRCP99
0186825860999992000111312004-05190-039300FM-12+021199999V02099999999990075019N0200001N1+02821+02071100921ADDAA199000091GF105991051041008001001001KA1240N+02321MA1999999098561MD1999999+0061REMSYN076AAXX  13124 82586 32598 509// 10282 20207 39856 40092 85400 333 20232 58006;EQDQ01  00002PRCP99
0183825860999992000111318004-05190-039300FM-12+021199999V0200901N003119999999N0200001N1+03501+01681100521ADDAA199000091GF106991999021008001001001MA1999999098181MD1999999-0051REMSYN070AAXX  13184 82586 32598 60906 10350 20168 39818 40052 83200 333 59005;EQDQ01+000032SCOTLCQ02  00002PRCP99
0196825860999992000111400004-05190-039300FM-12+021199999V02099999999992200019N0010001N1+02661+02151100781ADDAA199000091GA1001+999999999GF100991001001999999001001KA1240M+03351MA1999999098421MD1999999-0041REMSYN070AAXX  14004 82586 32994 005// 10266 20215 39842 40078 333 10335 59004;EQDQ01  00002PRCP99
0183825860999992000111418004-05190-039300FM-12+021199999V0200501N004112200019N0200001N1+03521+01651100521ADDAA199000091GF101991999041008001001001MA1999999098171MD1999999-0011REMSYN070AAXX  14184 82586 32598 10508 10352 20165 39817 40052 84400 333 59001;EQDQ01+000042SCOTLCQ02  00002PRCP99
0196825860999992000111500004-05190-039300FM-12+021199999V0200501N003112200019N0010001N1+02661+01851100731ADDAA199000091GA1001+999999999GF100991001001999999001001KA1240M+03561MA1999999098381MD1999999-0041REMSYN070AAXX  15004 82586 32994 00506 10266 20185 39838 40073 333 10356 59004;EQDQ01  00002PRCP99
0186825860999992000111512004-05190-039300FM-12+021199999V0200901N003612200019N0200001N1+02821+01911100961ADDAA199000091GF104991041021008001001001KA1240N+02261MA1999999098601MD1999999+0011REMSYN076AAXX  15124 82586 32598 40907 10282 20191 39860 40096 84200 333 20226 58001;EQDQ01  00002PRCP99
0161825860999992000111518004-05190-039300FM-12+021199999V0200901N002112200019N0200001N1+03541+01571100541ADDAA199000091GF102991999999999999999999MA1999999098201MD1999999+0031REMSYN064AAXX  15184 82586 32998 20904 10354 20157 39820 40054 333 58003;EQDQ01  00002PRCP99
0196825860999992000111600004-05190-039300FM-12+021199999V02099999999992200019N0010001N1+02631+01811100821ADDAA199000091GA1001+999999999GF100991001001999999001001KA1240M+03631MA1999999098461MD1999999+0081REMSYN070AAXX  16004 82586 32994 005// 10263 20181 39846 40082 333 10363 58008;EQDQ01  00002PRCP99
0186825860999992000111612004-05190-039300FM-12+021199999V0200901N005112200019N0200001N1+02921+02041101021ADDAA199000091GF104991041021008001001001KA1240N+02301MA1999999098661MD1999999+0061REMSYN076AAXX  16124 82586 32598 40910 10292 20204 39866 40102 84200 333 20230 58006;EQDQ01  00002PRCP99
0183825860999992000111618004-05190-039300FM-12+021199999V0201401N003112200019N0200001N1+03461+01551100691ADDAA199000091GF101991999011008001001001MA1999999098351MD1999999+0151REMSYN070AAXX  16184 82586 32598 11406 10346 20155 39835 40069 84100 333 58015;EQDQ01+000042SCOTLCQ02  00002PRCP99
0196825860999992000111700004-05190-039300FM-12+021199999V0200501N005712200019N0010001N1+02721+01951100881ADDAA199000091GA1001+999999999GF100991001001999999001001KA1240M+03521MA1999999098531MD1999999+0071REMSYN070AAXX  17004 82586 32994 00511 10272 20195 39853 40088 333 10352 58007;EQDQ01  00002PRCP99
0186825860999992000111712004-05190-039300FM-12+021199999V0200901N001512200019N0200001N1+02821+01911101041ADDAA199000091GF104991041021008001001001KA1240N+02361MA1999999098681MD1999999+0021REMSYN076AAXX  17124 82586 32598 40903 10282 20191 39868 40104 84200 333 20236 58002;EQDQ01  00002PRCP99
0167825860999992000111718004-05190-039300FM-12+021199999V0200901N003112200019N0200001N1+03421+01651100701ADDAA199000091GF104991041021008001001001MA1999999098401MD1999999+0051REMSYN070AAXX  17184 82586 32598 40906 10342 20165 39840 40070 84200 333 58005;EQDQ01  00002PRCP99
0196825860999992000111800004-05190-039300FM-12+021199999V0200501N004112200019N0010001N1+02731+02241100981ADDAA199000091GA1001+999999999GF100991001001999999001001KA1240M+03501MA1999999098621MD1999999+0091REMSYN070AAXX  18004 82586 32994 00508 10273 20224 39862 40098 333 10350 58009;EQDQ01  00002PRCP99
0186825860999992000111812004-05190-039300FM-12+021199999V0201401N004110075019N0200001N1+02701+02131101121ADDAA199000091GF108991081071008001999999KA1240N+02421MA1999999098751MD1999999+0071REMSYN076AAXX  18124 82586 32598 81408 10270 20213 39875 40112 887// 333 20242 58007;EQDQ01  00002PRCP99
0167825860999992000111818004-05190-039300FM-12+021199999V0201401N005112200019N0200001N1+03461+01691100691ADDAA199000091GF103991031021008001001001MA1999999098351MD1999999-0051REMSYN070AAXX  18184 82586 32598 31410 10346 20169 39835 40069 83200 333 59005;EQDQ01  00002PRCP99
0196825860999992000111900004-05190-039300FM-12+021199999V0200501N003112200019N0010001N1+02761+02321100821ADDAA199000091GA1001+999999999GF100991001001999999001001KA1240M+03501MA1999999098461MD1999999-0161REMSYN070AAXX  19004 82586 32994 00506 10276 20232 39846 40082 333 10350 59016;EQDQ01  00002PRCP99
0186825860999992000111912004-05190-039300FM-12+021199999V0201401N003110075019N0200001N1+02941+02001101051ADDAA199000091GF105991051021008001001001KA1240N+02301MA1999999098691MD1999999-0061REMSYN076AAXX  19124 82586 32598 51406 10294 20200 39869 40105 85200 333 20230 59006;EQDQ01  00002PRCP99
0167825860999992000111918004-05190-039300FM-12+021199999V0200901N003112200019N0200001N1+03521+01651100711ADDAA199000091GF103991031011008001001001MA1999999098371MD1999999+0021REMSYN070AAXX  19184 82586 32598 30906 10352 20165 39837 40071 83100 333 58002;EQDQ01  00002PRCP99
0196825860999992000112000004-05190-039300FM-12+021199999V0200501N005112200019N0010001N1+02761+02341100911ADDAA199000091GA1001+999999999GF100991001001999999001001KA1240M+03551MA1999999098551MD1999999+0091REMSYN070AAXX  20004 82586 32994 00510 10276 20234 39855 40091 333 10355 58009;EQDQ01  00002PRCP99
0202825860999992000112012004-05190-039300FM-12+021199999V0201401N004619999999N0200001N1+02841+02271101131ADDAA199000091GF105991999041008001001001KA1240N+02401MA1999999098771MD1999999+0081REMSYN076AAXX  20124 82586 32598 51409 10284 20227 39877 40113 86400 333 20240 58008;EQDQ01+000062SCOTLCQ02  00002PRCP99
0167825860999992000112018004-05190-039300FM-12+021199999V0201401N002612200019N0200001N1+03441+01631100761ADDAA199000091GF102991021011008001001001MA1999999098361MD1999999-0011REMSYN070AAXX  20184 82586 32598 21405 10344 20163 39836 40076 82100 333 59001;EQDQ01  00002PRCP99
0196825860999992000112100004-05190-039300FM-12+021199999V0200501N005112200019N0010001N1+02651+02291100941ADDAA199000091GA1001+999999999GF100991001001999999001001KA1240M+03501MA1999999098581MD1999999+0031REMSYN070AAXX  21004 82586 32994 00510 10265 20229 39858 40094 333 10350 58003;EQDQ01  00002PRCP99
0186825860999992000112112004-05190-039300FM-12+021199999V0200901N004610075019N0200001N1+02881+02051101151ADDAA199000091GF105991051041008001001001KA1240N+02361MA1999999098791MD1999999+0021REMSYN076AAXX  21124 82586 32598 50909 10288 20205 39879 40115 85400 333 20236 58002;EQDQ01  00002PRCP99
0167825860999992000112118004-05190-039300FM-12+021199999V0200901N004612200019N0200001N1+03461+01821100821ADDAA199000091GF104991041021008001001001MA1999999098481MD1999999+0121REMSYN070AAXX  21184 82586 32598 40909 10346 20182 39848 40082 84200 333 58012;EQDQ01  00002PRCP99
0196825860999992000112200004-05190-039300FM-12+021199999V02099999999992200019N0010001N1+02641+02161100941ADDAA199000091GA1001+999999999GF100991001001999999001001KA1240M+03501MA1999999098611MD1999999+0031REMSYN070AAXX  22004 82586 32994 005// 10264 20216 39861 40094 333 10350 58003;EQDQ01  00002PRCP99
0186825860999992000112212004-05190-039300FM-12+021199999V0200901N004612200019N0200001N1+02881+02051101211ADDAA199000091GF104991041021008001001001KA1240N+02321MA1999999098851MD1999999+0061REMSYN076AAXX  22124 82586 32598 40909 10288 20205 39885 40121 84200 333 20232 58006;EQDQ01  00002PRCP99
0183825860999992000112218004-05190-039300FM-12+021199999V0201401N004119999999N0200001N1+03401+01631100801ADDAA199000091GF105991999011008001001001MA1999999098451MD1999999-0031REMSYN070AAXX  22184 82586 32598 51408 10340 20163 39845 40080 82100 333 59003;EQDQ01+000022SCOTLCQ02  00002PRCP99
0196825860999992000112300004-05190-039300FM-12+021199999V0200501N003112200019N0010001N1+02661+02311101011ADDAA199000091GA1001+999999999GF100991001001999999001001KA1240M+03501MA1999999098651MD1999999+0041REMSYN070AAXX  23004 82586 32994 00506 10266 20231 39865 40101 333 10350 58004;EQDQ01  00002PRCP99
0167825860999992000112318004-05190-039300FM-12+021199999V0201801N002612200019N0200001N1+03521+01501100731ADDAA199000091GF102991021011008001001001MA1999999098391MD1999999-0061REMSYN070AAXX  23184 82586 32598 21805 10352 20150 39839 40073 82100 333 59006;EQDQ01  00002PRCP99
0196825860999992000112400004-05190-039300FM-12+021199999V0200501N005112200019N0010001N1+02661+02091100811ADDAA199000091GA1001+999999999GF100991001001999999001001KA1240M+03351MA1999999098521MD1999999-0131REMSYN070AAXX  24004 82586 32994 00510 10266 20209 39852 40081 333 10335 59013;EQDQ01  00002PRCP99
0186825860999992000112412004-05190-039300FM-12+021199999V0200901N003612200019N0200001N1+02841+01911101111ADDAA199000091GF104991021001008001011041KA1240N+02201MA1999999098751MD1999999-0011REMSYN076AAXX  24124 82586 32598 40907 10284 20191 39875 40111 82014 333 20220 59001;EQDQ01  00002PRCP99
0167825860999992000112718004-05190-039300FM-12+021199999V0200501N003112200019N0200001N1+03521+01791100781ADDAA199000091GF104991041021008001001001MA1999999098441MD1999999-0011REMSYN070AAXX  27184 82586 32598 40506 10352 20179 39844 40078 84200 333 59001;EQDQ01  00002PRCP99
0196825860999992000112800004-05190-039300FM-12+021199999V0200501N003112200019N0010001N1+02661+02241101011ADDAA199000091GA1001+999999999GF100991001001999999001001KA1240M+03561MA1999999098651MD1999999+0041REMSYN070AAXX  28004 82586 32994 00506 10266 20224 39865 40101 333 10356 58004;EQDQ01  00002PRCP99
0186825860999992000112812004-05190-039300FM-12+021199999V0200901N005710075019N0200001N1+02981+02301101151ADDAA199000091GF106991061041008001001001KA1240N+02381MA1999999098791MD1999999+0041REMSYN076AAXX  28124 82586 32598 60911 10298 20230 39879 40115 86400 333 20238 58004;EQDQ01  00002PRCP99
0183825860999992000112818004-05190-039300FM-12+021199999V0200501N003112200019N0200001N1+03571+01891100771ADDAA199000091GF104991999021008001001001MA1999999098431MD1999999-0101REMSYN070AAXX  28184 82586 32598 40506 10357 20189 39843 40077 85200 333 59010;EQDQ01+000052SCOTLCQ02  00002PRCP99
0196825860999992000112900004-05190-039300FM-12+021199999V0200501N003612200019N0010001N1+02661+02221101011ADDAA199000091GA1001+999999999GF100991001001999999001001KA1240M+03601MA1999999098651MD1999999+0001REMSYN070AAXX  29004 82586 32994 00507 10266 20222 39865 40101 333 10360 58000;EQDQ01  00002PRCP99
0186825860999992000112912004-05190-039300FM-12+021199999V0200501N006210075019N0200001N1+02881+02211101131ADDAA199000091GF105991051021008001001001KA1240N+02281MA1999999098771MD1999999-0021REMSYN076AAXX  29124 82586 32598 50512 10288 20221 39877 40113 85200 333 20228 59002;EQDQ01  00002PRCP99
0167825860999992000120118004-05190-039300FM-12+021199999V0203601N003112200019N0200001N1+03561+01821100761ADDAA199000091GF104991041021008001001001MA1999999098421MD1999999+0061REMSYN070AAXX  01184 82586 32598 43606 10356 20182 39842 40076 84200 333 58006;EQDQ01  00002PRCP99
0196825860999992000120200004-05190-039300FM-12+021199999V0200501N004112200019N0010001N1+02801+02111100941ADDAA199000091GA1001+999999999GF100991001001999999001001KA1240M+03661MA1999999098581MD1999999+0101REMSYN070AAXX  02004 82586 32994 00508 10280 20211 39858 40094 333 10366 58010;EQDQ01  00002PRCP99
0202825860999992000120212004-05190-039300FM-12+021199999V0200501N003619999999N0200001N1+02961+02331101061ADDAA199000091GF106991999071008001001001KA1240N+02361MA1999999098711MD1999999-0021REMSYN076AAXX  02124 82586 32598 60507 10296 20233 39871 40106 88700 333 20236 59002;EQDQ01+000082SCOTLCQ02  00002PRCP99
0167825860999992000120218004-05190-039300FM-12+021199999V0200501N003612200019N0200001N1+03561+01911100721ADDAA199000091GF103991031021008001001001MA1999999098381MD1999999-0041REMSYN070AAXX  02184 82586 32598 30507 10356 20191 39838 40072 83200 333 59004;EQDQ01  00002PRCP99
0196825860999992000120300004-05190-039300FM-12+021199999V0200501N004612200019N0010001N1+02721+02281100931ADDAA199000091GA1001+999999999GF100991001001999999001001KA1240M+03621MA1999999098571MD1999999-0011REMSYN070AAXX  03004 82586 32994 00509 10272 20228 39857 40093 333 10362 59001;EQDQ01  00002PRCP99
0186825860999992000120312004-05190-039300FM-12+021199999V0200501N005110075019N0200001N1+02801+02251101071ADDAA199000091GF105991051021008001001001KA1240N+02401MA1999999098711MD1999999+0001REMSYN076AAXX  03124 82586 32598 50510 10280 20225 39871 40107 85200 333 20240 58000;EQDQ01  00002PRCP99
0167825860999992000120318004-05190-039300FM-12+021199999V0200501N003612200019N0200001N1+03561+01871100741ADDAA199000091GF102991021011008001001001MA1999999098401MD1999999+0021REMSYN070AAXX  03184 82586 32598 20507 10356 20187 39840 40074 82100 333 58002;EQDQ01  00002PRCP99
0196825860999992000120400004-05190-039300FM-12+021199999V0200501N005712200019N0010001N1+02681+02091100911ADDAA199000091GA1001+999999999GF100991001001999999001001KA1240M+03581MA1999999098551MD1999999-0021REMSYN070AAXX  04004 82586 32994 00511 10268 20209 39855 40091 333 10358 59002;EQDQ01  00002PRCP99
0186825860999992000120412004-05190-039300FM-12+021199999V0200501N004610075019N0200001N1+02761+02121101061ADDAA199000091GF106991061041008001001001KA1240N+02341MA1999999098791MD1999999-0011REMSYN076AAXX  04124 82586 32598 60509 10276 20212 39879 40106 86400 333 20234 59001;EQDQ01  00002PRCP99
0167825860999992000120418004-05190-039300FM-12+021199999V0200901N003612200019N0200001N1+03491+01661100621ADDAA199000091GF102991021011008001001001MA1999999098281MD1999999-0121REMSYN070AAXX  04184 82586 32598 20907 10349 20166 39828 40062 82100 333 59012;EQDQ01  00002PRCP99
0196825860999992000120500004-05190-039300FM-12+021199999V0200501N005112200019N0010001N1+02661+02091100881ADDAA199000091GA1001+999999999GF100991001001999999001001KA1240M+03521MA1999999098521MD1999999-0031REMSYN070AAXX  05004 82586 32994 00510 10266 20209 39852 40088 333 10352 59003;EQDQ01  00002PRCP99
0186825860999992000120512004-05190-039300FM-12+021199999V0200501N004110075019N0200001N1+02901+02201100971ADDAA199000091GF106991061041008001001001KA1240N+02361MA1999999098611MD1999999-0091REMSYN076AAXX  05124 82586 32598 60508 10290 20220 39861 40097 86400 333 20236 59009;EQDQ01  00002PRCP99
0167825860999992000120518004-05190-039300FM-12+021199999V0200501N003612200019N0200001N1+03501+01771100611ADDAA199000091GF102991021011008001001001MA1999999098211MD1999999-0011REMSYN070AAXX  05184 82586 32598 20507 10350 20177 39821 40061 82100 333 59001;EQDQ01  00002PRCP99
0196825860999992000120600004-05190-039300FM-12+021199999V0200501N004112200019N0010001N1+02721+02081100871ADDAA199000091GA1001+999999999GF100991001001999999001001KA1240M+03551MA1999999098521MD1999999+0001REMSYN070AAXX  06004 82586 32994 00508 10272 20208 39852 40087 333 10355 58000;EQDQ01  00002PRCP99
0186825860999992000120612004-05190-039300FM-12+021199999V0200501N002610075019N0200001N1+02971+02241100991ADDAA199000091GF106991061021008001001001KA1240N+02361MA1999999098631MD1999999+0021REMSYN076AAXX  06124 82586 32598 60505 10297 20224 39863 40099 86200 333 20236 58002;EQDQ01  00002PRCP99
0167825860999992000120618004-05190-039300FM-12+021199999V0200501N002110075019N0040001N1+03581+01841100661ADDAA199000091GF105991051011008001001001MA1999999098331MD1999999+0061REMSYN070AAXX  06184 82586 32596 50504 10358 20184 39833 40066 85100 333 58006;EQDQ01  00002PRCP99
0196825860999992000120700004-05190-039300FM-12+021199999V0203601N003112200019N0010001N1+02821+02101100841ADDAA199000091GA1001+999999999GF100991001001999999001001KA1240M+03621MA1999999098501MD1999999-0021REMSYN070AAXX  07004 82586 32994 03606 10282 20210 39850 40084 333 10362 59002;EQDQ01  00002PRCP99
0202825860999992000120712004-05190-039300FM-12+021199999V02099999999999999999N0200001N1+02921+02191100931ADDAA199000091GF106991999011008001001001KA1240N+02441MA1999999098581MD1999999+0051REMSYN076AAXX  07124 82586 32598 609// 10292 20219 39858 40093 82100 333 20244 58005;EQDQ01+000022SCOTLCQ02  00002PRCP99
0167825860999992000120718004-05190-039300FM-12+021199999V0200501N003110075019N0200001N1+03601+01901100691ADDAA199000091GF105991051021008001001001MA1999999098351MD1999999+0021REMSYN070AAXX  07184 82586 32598 50506 10360 20190 39835 40069 85200 333 58002;EQDQ01  00002PRCP99
0196825860999992000120800004-05190-039300FM-12+021199999V0200501N003112200019N0010001N1+02801+02131100951ADDAA199000091GA1001+999999999GF100991001001999999001001KA1240M+03661MA1999999098591MD1999999+0091REMSYN070AAXX  08004 82586 32994 00506 10280 20213 39859 40095 333 10366 58009;EQDQ01  00002PRCP99
0186825860999992000120812004-05190-039300FM-12+021199999V02099999999990075019N0200001N1+02881+02321101081ADDAA199000091GF106991061021008001001001KA1240N+02421MA1999999098721MD1999999+0151REMSYN076AAXX  08124 82586 32598 605// 10288 20232 39872 40108 86200 333 20242 58015;EQDQ01  00002PRCP99
0167825860999992000120818004-05190-039300FM-12+021199999V0200501N004112200019N0200001N1+03541+01801100731ADDAA199000091GF104991041021008001001001MA1999999098391MD1999999+0041REMSYN070AAXX  08184 82586 32598 40508 10354 20180 39839 40073 84200 333 58004;EQDQ01  00002PRCP99
0196825860999992000120900004-05190-039300FM-12+021199999V0200501N004612200019N0010001N1+02761+02231100941ADDAA199000091GA1001+999999999GF100991001001999999001001KA1240M+03621MA1999999098581MD1999999-0011REMSYN070AAXX  09004 82586 32994 00509 10276 20223 39858 40094 333 10362 59001;EQDQ01  00002PRCP99
0186825860999992000120912004-05190-039300FM-12+021199999V0200501N005710075019N0200001N1+02861+02111101051ADDAA199000091GF105991051041008001001001KA1240N+02381MA1999999098691MD1999999-0041REMSYN076AAXX  09124 82586 32598 50511 10286 20211 39869 40105 85400 333 20238 59004;EQDQ01  00002PRCP99
0167825860999992000120918004-05190-039300FM-12+021199999V0200501N004112200019N0200001N1+03561+01781100711ADDAA199000091GF103991031011008001001001MA1999999098371MD1999999-0021REMSYN070AAXX  09184 82586 32598 30508 10356 20178 39837 40071 83100 333 59002;EQDQ01  00002PRCP99
0196825860999992000121000004-05190-039300FM-12+021199999V0200501N005112200019N0010001N1+02681+02181100891ADDAA199000091GA1001+999999999GF100991001001999999001001KA1240M+03581MA1999999098541MD1999999-0041REMSYN070AAXX  10004 82586 32994 00510 10268 20218 39854 40089 333 10358 59004;EQDQ01  00002PRCP99
0186825860999992000121012004-05190-039300FM-12+021199999V0200501N003110075019N0200001N1+02801+02221100981ADDAA199000091GF106991061021008001001001KA1240N+02381MA1999999098621MD1999999-0071REMSYN076AAXX  10124 82586 32598 60506 10280 20222 39862 40098 86200 333 20238 59007;EQDQ01  00002PRCP99
0183825860999992000121018004-05190-039300FM-12+021199999V0203601N004110075019N0200001N1+05422+01911100671ADDAA199000091GF106991061021008001001001MA1999999098331MD1999999-0041REMSYN070AAXX  10184 82586 32598 63608 10542 20191 39833 40067 86200 333 59004;EQDQ01+005423ATOT  Q02  00002PRCP99
0186825860999992000121112004-05190-039300FM-12+021199999V0203601N005110075019N0200001N1+02821+02201100881ADDAA199000091GF107991071071008001001001KA1240N+02381MA1999999098531MD1999999-0061REMSYN076AAXX  11124 82586 32598 73610 10282 20220 39853 40088 87700 333 20238 59006;EQDQ01  00002PRCP99
0167825860999992000121118004-05190-039300FM-12+021199999V0200501N003110075019N0200001N1+03461+01821100591ADDAA199000091GF106991061041008001001001MA1999999098251MD1999999-0081REMSYN070AAXX  11184 82586 32598 60506 10346 20182 39825 40059 86400 333 59008;EQDQ01  00002PRCP99
0186825860999992000121200004-05190-039300FM-12+021199999V0200501N003610075019N0010001N1+02811+02081100831ADDAA199000091GF106991061071008001001001KA1240M+03541MA1999999098481MD1999999+0041REMSYN076AAXX  12004 82586 32594 60507 10281 20208 39848 40083 86700 333 10354 58004;EQDQ01  00002PRCP99
0186825860999992000121212004-05190-039300FM-12+021199999V0200501N003610075019N0200001N1+02901+02201100921ADDAA199000091GF106991061041008001001001KA1240N+02361MA1999999098561MD1999999+0031REMSYN076AAXX  12124 82586 32598 60507 10290 20220 39856 40092 86400 333 20236 58003;EQDQ01  00002PRCP99
0186825860999992000121300004-05190-039300FM-12+021199999V02099999999999999999N0010001N1+02761+02281100821ADDAA199000091GF106991061001012501051001KA1240M+03461MA1999999098471MD1999999-0011REMSYN076AAXX  13004 82586 32694 605// 10276 20228 39847 40082 86050 333 10346 59001;EQDQ01  00002PRCP99
0186825860999992000121312004-05190-039300FM-12+021199999V02099999999992200019N0200001N1+03001+02321100901ADDAA199000091GF104991041021008001001001KA1240N+02451MA1999999098551MD1999999-0011REMSYN076AAXX  13124 82586 32598 405// 10300 20232 39855 40090 84200 333 20245 59001;EQDQ01  00002PRCP99
0167825860999992000121318004-05190-039300FM-12+021199999V0200501N006210075019N0200001N1+03321+02141100611ADDAA199000091GF106991061041008001001001MA1999999098271MD1999999-0031REMSYN070AAXX  13184 82586 32598 60512 10332 20214 39827 40061 86400 333 59003;EQDQ01  00002PRCP99
0156825860999992000121400004-05190-039300FM-12+021199999V0200501N004119999999N0010001N1+02741+02211999999ADDAA199000091GF105991999999008001999999KA1240M+03441REMSYN075AAXX  14004 82586 32594 50508 10274 20221 3984 40081 85100 333 10344 59002;EQDQ01  00002PRCP99
0201825860999992000121412004-05190-039300FM-12+021199999V0200501N003610075019N0200001N1+02781+02251100841ADDAA124001091AY161061AY251061GF108991081071008001999999KA1240N+02421MA1999999098491MD1999999-0061MW1031REMSYN088AAXX  14124 82586 21598 80507 10278 20225 39849 40084 70365 887// 333 20242 59006 60014;
0167825860999992000121418004-05190-039300FM-12+021199999V0203601N003110075019N0200001N1+03101+02121100581ADDAA199000091GF108991081071008001999999MA1999999098221MD1999999-0051REMSYN070AAXX  14184 82586 32598 83606 10310 20212 39822 40058 887// 333 59005;EQDQ01  00002PRCP99
0201825860999992000121500004-05190-039300FM-12+021199999V02099999999990075019N0010001N1+02651+02481100831ADDAA106000591AY121061AY221061GF108991081051008001999999KA1240M+03121MA1999999098471MD1999999+0021MW1511REMSYN088AAXX  15004 82586 21594 836// 10265 20248 39847 40083 75122 885// 333 10312 58002 69941;
0201825860999992000121512004-05190-039300FM-12+021199999V0200901N001510075019N0200001N1+02301+02161100871ADDAA124010991AY161061AY251061GF108991081071008001999999KA1240N+02061MA1999999098491MD1999999+0001MW1031REMSYN088AAXX  15124 82586 21598 80903 10230 20216 39849 40087 70365 887// 333 20206 58000 60114;
0201825860999992000121600004-05190-039300FM-12+021199999V0200501N002110075019N0010001N1+02301+02201100881ADDAA106003091AY161061AY251061GF108991081071008001999999KA1240M+02551MA1999999098481MD1999999+0011MW1511REMSYN088AAXX  16004 82586 21594 80504 10230 20220 39848 40088 75165 887// 333 10255 58001 60031;
0201825860999992000121612004-05190-039300FM-12+021199999V0203601N001510075019N0200001N1+02201+02131100951ADDAA124018091AY161061AY251061GF108991081071008001999999KA1240N+02081MA1999999098551MD1999999+0061MW1611REMSYN088AAXX  16124 82586 21598 83603 10220 20213 39855 40095 76165 887// 333 20208 58006 60184;
0182825860999992000121618004-05190-039300FM-12+021199999V0202701N001010450019N0200001N1+02401+02191100811ADDAA124001091AY161061AY251061GF108991041071008001021999MA1999999098421MD1999999+0181MW1031REMSYN082AAXX  16184 82586 21598 82702 10240 20219 39842 40081 70365 8472/ 333 58018 60014;
0167825860999992000121700004-05190-039300FM-12+021199999V0209999C000010075019N0200001N1+02301+02161100961ADDAA199000021GF108991081051008001999999KA1240M+02471MA1999999098561MD1999999+0081REMSYN076AAXX  17004 82586 32598 80000 10230 20216 39856 40096 885// 333 10247 58008;
0192825860999992000121712004-05190-039300FM-12+021199999V0209999C000019999999N0200001N1+02761+02271101031ADDAA124001091GF108991999021008001001001KA1240N+02141MA1999999098631MD1999999+0081REMSYN082AAXX  17124 82586 22598 80000 10276 20227 39863 40103 84200 333 20214 58008 60014;EQDQ01+000042SCOTLC
0167825860999992000121718004-05190-039300FM-12+021199999V0200901N001510075019N0200001N1+02841+02121100911ADDAA199000091GF108991081071008001999999MA1999999098531MD1999999+0111REMSYN070AAXX  17184 82586 32598 80903 10284 20212 39853 40091 887// 333 58011;EQDQ01  00002PRCP99
0202825860999992000121800004-05190-039300FM-12+021199999V0203601N001519999999N0010001N1+02601+02391100941ADDAA199000091GF108991999011008001001001KA1240M+02891MA1999999098551MD1999999-0021REMSYN076AAXX  18004 82586 32594 83603 10260 20239 39855 40094 82100 333 10289 59002;EQDQ01+000022SCOTLCQ02  00002PRCP99
0167825860999992000121818004-05190-039300FM-12+021199999V0200501N003610450019N0200001N1+03321+02141100821ADDAA199000091GF106991021011008001051011MA1999999098481MD1999999-0051REMSYN070AAXX  18184 82586 32598 60507 10332 20214 39848 40082 82151 333 59005;EQDQ01  00002PRCP99
0186825860999992000121900004-05190-039300FM-12+021199999V0200501N003110075019N0010001N1+02761+02481101001ADDAA199000091GF106991061021008001001001KA1240M+03371MA1999999098641MD1999999+0091REMSYN076AAXX  19004 82586 32594 60506 10276 20248 39864 40100 86200 333 10337 58009;EQDQ01  00002PRCP99
0186825860999992000121912004-05190-039300FM-12+021199999V0200901N003110075019N0200001N1+02801+02381101001ADDAA199000091GF106991061041008001001001KA1240N+02481MA1999999098701MD1999999+0081REMSYN076AAXX  19124 82586 32598 60906 10280 20238 39870 40100 86400 333 20248 58008;EQDQ01  00002PRCP99
0167825860999992000121918004-05190-039300FM-12+021199999V0200901N003110075019N0200001N1+03411+01591100771ADDAA199000091GF106991061021008001001001MA1999999098411MD1999999-0071REMSYN070AAXX  19184 82586 32598 60906 10341 20159 39841 40077 86200 333 59007;EQDQ01  00002PRCP99
0196825860999992000122000004-05190-039300FM-12+021199999V0200501N003612200019N0010001N1+02691+02201100981ADDAA199000091GA1001+999999999GF100991001001999999001001KA1240M+03451MA1999999098621MD1999999-0021REMSYN070AAXX  20004 82586 32994 00507 10269 20220 39862 40098 333 10345 59002;EQDQ01  00002PRCP99
0167825860999992000122018004-05190-039300FM-12+021199999V0200901N002612200019N0200001N1+03371+01601100881ADDAA199000091GF104991041011008001001001MA1999999098531MD1999999+0121REMSYN070AAXX  20184 82586 32598 40905 10337 20160 39853 40088 84100 333 58012;EQDQ01  00002PRCP99
0196825860999992000122100004-05190-039300FM-12+021199999V02099999999992200019N0010001N1+02801+02081100901ADDAA199000091GA1001+999999999GF100991001001999999001001KA1240M+03491MA1999999098621MD1999999+0001REMSYN070AAXX  21004 82586 32994 036// 10280 20208 39862 40090 333 10349 58000;EQDQ01  00002PRCP99
0186825860999992000122112004-05190-039300FM-12+021199999V0203601N002610075019N0200001N1+02781+02251101201ADDAA199000091GF105991051041008001001001KA1240N+02281MA1999999098841MD1999999+0041REMSYN076AAXX  21124 82586 32598 53605 10278 20225 39884 40120 85400 333 20228 58004;EQDQ01  00002PRCP99
0167825860999992000122118004-05190-039300FM-12+021199999V0200501N002612200019N0200001N1+03411+01891100911ADDAA199000091GF104991041021008001001001MA1999999098551MD1999999+0021REMSYN070AAXX  21184 82586 32598 40505 10341 20189 39855 40091 84200 333 58002;EQDQ01  00002PRCP99
0196825860999992000122200004-05190-039300FM-12+021199999V0203601N001512200019N0200001N1+02851+02201101011ADDAA199000091GA1001+999999999GF100991001001999999001001KA1240M+03491MA1999999098651MD1999999+0031REMSYN070AAXX  22004 82586 32598 03603 10285 20220 39865 40101 333 10349 58003;EQDQ01  00002PRCP99
0186825860999992000122212004-05190-039300FM-12+021199999V0200501N002610075019N0200001N1+02741+02671101191ADDAA199000091GF108991081071008001999999KA1240N+02421MA1999999098831MD1999999-0011REMSYN076AAXX  22124 82586 32598 80505 10274 20267 39883 40119 887// 333 20242 59001;EQDQ01  00002PRCP99
0167825860999992000122218004-05190-039300FM-12+021199999V02099999999990075019N0200001N1+03331+01851100881ADDAA199000091GF106991061021008001001001MA1999999098531MD1999999-0021REMSYN070AAXX  22184 82586 32598 614// 10333 20185 39853 40088 86200 333 59002;EQDQ01  00002PRCP99
0196825860999992000122300004-05190-039300FM-12+021199999V0200501N005112200019N0010001N1+02801+02251100981ADDAA199000091GA1001+999999999GF100991001001999999001001KA1240M+03451MA1999999098621MD1999999-0031REMSYN070AAXX  23004 82586 32994 00510 10280 20225 39862 40098 333 10345 59003;EQDQ01  00002PRCP99
0186825860999992000122312004-05190-039300FM-12+021199999V0200501N003110075019N0200001N1+02741+02381101161ADDAA199000091GF108991081071008001999999KA1240N+02461MA1999999098801MD1999999-0031REMSYN076AAXX  23124 82586 32598 80506 10274 20238 39880 40116 887// 333 20246 59003;EQDQ01  00002PRCP99
0167825860999992000122318004-05190-039300FM-12+021199999V0200501N003612200019N0200001N1+03441+01741100941ADDAA199000091GF104991041021008001001001MA1999999098601MD1999999+0071REMSYN070AAXX  23184 82586 32598 40507 10344 20174 39860 40094 84200 333 58007;EQDQ01  00002PRCP99
0196825860999992000122400004-05190-039300FM-12+021199999V0200501N005112200019N0010001N1+02741+02211101001ADDAA199000091GA1001+999999999GF100991001001999999001001KA1240M+03501MA1999999098641MD1999999+0021REMSYN070AAXX  24004 82586 32994 00510 10274 20221 39864 40100 333 10350 58002;EQDQ01  00002PRCP99
0201825860999992000122412004-05190-039300FM-12+021199999V02099999999990075019N0200001N1+02751+02321101241ADDAA124000191AY151061AY221061GF106991061021008001001001KA1240N+02321MA1999999098871MD1999999+0071MW1031REMSYN088AAXX  24124 82586 21598 605// 10275 20232 39887 40124 70352 86200 333 20232 58007 69924;
0167825860999992000122418004-05190-039300FM-12+021199999V0201401N002112200019N0200001N1+03361+01851100821ADDAA199000091GF104991041021008001001001MA1999999098481MD1999999-0101REMSYN070AAXX  24184 82586 32598 41404 10336 20185 39848 40082 84200 333 59010;EQDQ01  00002PRCP99
0196825860999992000122500004-05190-039300FM-12+021199999V02099999999992200019N0010001N1+02781+02131100991ADDAA199000091GA1001+999999999GF100991001001999999001001KA1240M+03401MA1999999098631MD1999999-0011REMSYN070AAXX  25004 82586 32994 005// 10278 20213 39863 40099 333 10340 59001;EQDQ01  00002PRCP99
0186825860999992000122512004-05190-039300FM-12+021199999V0200501N003610075019N0200001N1+02641+02311101191ADDAA199000091GF106991061041008001001001KA1240N+02381MA1999999098821MD1999999-0051REMSYN076AAXX  25124 82586 32598 60507 10264 20231 39882 40119 86400 333 20238 59005;EQDQ01  00002PRCP99
0167825860999992000122518004-05190-039300FM-12+021199999V02099999999990075019N0200001N1+03361+01851100821ADDAA199000091GF105991051021008001001001MA1999999098471MD1999999-0011REMSYN070AAXX  25184 82586 32598 514// 10336 20185 39847 40082 85200 333 59001;EQDQ01  00002PRCP99
0196825860999992000122600004-05190-039300FM-12+021199999V0200501N005112200019N0010001N1+02261+01781100941ADDAA199000091GA1001+999999999GF100991001001999999001001KA1240M+03411MA1999999098581MD1999999-0051REMSYN070AAXX  26004 82586 32994 00510 10226 20178 39858 40094 333 10341 59005;EQDQ01  00002PRCP99
0186825860999992000122612004-05190-039300FM-12+021199999V0200501N003610075019N0200001N1+02741+02261101021ADDAA199000091GF106991061041008001001001KA1240N+02301MA1999999098661MD1999999-0161REMSYN076AAXX  26124 82586 32598 60507 10274 20226 39866 40102 86400 333 20230 59016;EQDQ01  00002PRCP99
0167825860999992000122618004-05190-039300FM-12+021199999V0201401N003112200019N0200001N1+03451+01671100791ADDAA199000091GF105991031021008001001041MA1999999098451MD1999999-0021REMSYN070AAXX  26184 82586 32598 51406 10345 20167 39845 40079 83204 333 59002;EQDQ01  00002PRCP99
0196825860999992000122700004-05190-039300FM-12+021199999V0200501N003112200019N0010001N1+02761+02341100951ADDAA199000091GA1001+999999999GF100991001001999999001001KA1240M+03491MA1999999098591MD1999999+0011REMSYN070AAXX  27004 82586 32594 00506 10276 20234 39859 40095 333 10349 58001;EQDQ01  00002PRCP99
0186825860999992000122712004-05190-039300FM-12+021199999V0200901N003610075019N0200001N1+02681+02261101051ADDAA199000091GF106991061041008001001001KA1240N+02441MA1999999098691MD1999999+0031REMSYN076AAXX  27124 82586 32598 60907 10268 20226 39869 40105 86400 333 20244 58003;EQDQ01  00002PRCP99
0167825860999992000122718004-05190-039300FM-12+021199999V0200501N002110075019N0200001N1+03301+01841100841ADDAA199000091GF105991051021008001001001MA1999999098491MD1999999+0041REMSYN070AAXX  27184 82586 32598 50504 10330 20184 39849 40084 85200 333 58004;EQDQ01  00002PRCP99
0196825860999992000122800004-05190-039300FM-12+021199999V02099999999992200019N0010001N1+02831+01831100971ADDAA199000091GA1001+999999999GF100991001001999999001001KA1240M+03361MA1999999098611MD1999999+0021REMSYN070AAXX  28004 82586 32994 005// 10283 20183 39861 40097 333 10336 58002;EQDQ01  00002PRCP99
0186825860999992000122812004-05190-039300FM-12+021199999V0200501N001512200019N0200001N1+02841+01911101111ADDAA199000091GF102991011011008001001011KA1240N+02301MA1999999098751MD1999999+0061REMSYN076AAXX  28124 82586 32598 20503 10284 20191 39875 40111 81101 333 20230 58006;EQDQ01  00002PRCP99
0167825860999992000122818004-05190-039300FM-12+021199999V0200501N002612200019N0200001N1+03451+01631100771ADDAA199000091GF104991041011008001001001MA1999999098431MD1999999-0061REMSYN070AAXX  28184 82586 32598 40505 10345 20163 39843 40077 84100 333 59006;EQDQ01  00002PRCP99
0196825860999992000122900004-05190-039300FM-12+021199999V0200901N001512200019N0010001N1+02821+02151100881ADDAA199000091GA1001+999999999GF100991001001999999001001KA1240M+03521MA1999999098531MD1999999-0081REMSYN070AAXX  29004 82586 32994 00903 10282 20215 39853 40088 333 10352 59008;EQDQ01  00002PRCP99
0186825860999992000122912004-05190-039300FM-12+021199999V0200501N002612200019N0200001N1+02841+02121101041ADDAA199000091GF104991041011008001001001KA1240N+02361MA1999999098681MD1999999-0071REMSYN076AAXX  29124 82586 32598 40505 10284 20212 39868 40104 84100 333 20236 59007;EQDQ01  00002PRCP99
0167825860999992000122918004-05190-039300FM-12+021199999V0201401N003110075019N0200001N1+03351+01761100721ADDAA199000091GF105991051021008001001001MA1999999098381MD1999999-0021REMSYN070AAXX  29184 82586 32598 51406 10335 20176 39838 40072 85200 333 59002;EQDQ01  00002PRCP99
0196825860999992000123000004-05190-039300FM-12+021199999V0200501N005112200019N0010001N1+02801+02111100891ADDAA199000091GA1001+999999999GF100991001001999999001001KA1240M+03521MA1999999098541MD1999999+0011REMSYN070AAXX  30004 82586 32994 00510 10280 20211 39854 40089 333 10352 58001;EQDQ01  00002PRCP99
0186825860999992000123012004-05190-039300FM-12+021199999V0200501N003112200019N0020001N1+02731+02311101061ADDAA199000091GF104991031021008001011001KA1240N+02431MA1999999098471MD1999999+0031REMSYN076AAXX  30124 82586 32595 40506 10273 20231 39847 40106 83210 333 20243 58003;EQDQ01  00002PRCP99
0167825860999992000123018004-05190-039300FM-12+021199999V0201401N003110075019N0200001N1+03471+01731100761ADDAA199000091GF105991051021008001001001MA1999999098421MD1999999+0041REMSYN070AAXX  30184 82586 32598 51406 10347 20173 39842 40076 85200 333 58004;EQDQ01  00002PRCP99
0196825860999992000123100004-05190-039300FM-12+021199999V0200501N003112200019N0010001N1+02801+02081100911ADDAA199000091GA1001+999999999GF100991001001999999001001KA1240M+03551MA1999999098551MD1999999+0011REMSYN070AAXX  31004 82586 32994 00506 10280 20208 39855 40091 333 10355 58001;EQDQ01  00002PRCP99
0186825860999992000123112004-05190-039300FM-12+021199999V0200901N001510075019N0200001N1+02821+02251101051ADDAA199000091GF105991051021008001001001KA1240N+02321MA1999999098691MD1999999-0031REMSYN076AAXX  31124 82586 32598 50903 10282 20225 39869 40105 85200 333 20232 59003;EQDQ01  00002PRCP99
0167825860999992000123118004-05190-039300FM-12+021199999V0201401N003112200019N0200001N1+03501+01941100771ADDAA199000091GF104991041021008001001001MA1999999098431MD1999999+0011REMSYN070AAXX  31184 82586 32598 41406 10350 20194 39843 40077 84200 333 58001;EQDQ01  00002PRCP99
