0186825960999992000011200004-05650-035420FM-12+006199999V0200901N000512200019N9999999N1+02561+02191100941ADDAA106000091GF101991011011008001001001KA1240M+03141MA1999999100221MD1999999-0071REMSYN076AAXX  12004 82596 325// 10901 10256 20219 30022 40094 81100 333 10314 59007;EQDQ01  00002PRCP06
0186825960999992000011212004-05650-035420FM-12+006199999V0200901N003110075019N0040001N1+02861+02221100951ADDAA106000091GF106991061021008001001001KA1240N+02271MA1999999100231MD1999999-0021REMSYN076AAXX  12124 82596 32596 60906 10286 20222 30023 40095 86200 333 20227 59002;EQDQ01  00002PRCP06
0167825960999992000022518004-05650-035420FM-12+006199999V0200501N003110450019N0040001N1+02721+02221100991ADDAA199000091GF106991031051008001061011MA1999999100261MD1999999+0211REMSYN070AAXX  25184 82596 32596 60506 10272 20222 30026 40099 83561 333 58021;EQDQ01  00002PRCP99
0183825960999992000061718004-05640-035420FM-12+006199999V0201401N001019999999N0040001N1+02801+02131101041ADDAA199000091GF106991999011008001001001MA1999999100311MD1999999+0031REMSYN070AAXX  17184 82596 32596 61402 10280 20213 30031 40104 82100 333 58003;EQDQ01+000022SCOTLCQ02  00002PRCP99
0167825960999992000082818004-05640-035420FM-12+006199999V0201401N005110075019N0040001N1+02841+02171101021ADDAA199000091GF106991061021008001001001MA1999999100291MD1999999+0071REMSYN070AAXX  28184 82596 32596 61410 10284 20217 30029 40102 86200 333 58007;EQDQ01  00002PRCP99
