0173826780999992000010112004-06770-043020FM-12+013899999V0209999C000010075019N0200001N1+02621+02251101021ADDAA124000591GF108991999021008001001001KA1240N+02181MA1999999099441MD1999999-0141REMSYN082AAXX  01124 82678 22598 80000 10262 20225 39944 40102 85200 333 20218 59014 69944;
0167826780999992000010118004-06770-043020FM-12+013899999V0200501N001019999999N0200001N1+03081+02321100661ADDAA106000091GF105991999021008001001001MA1999999099091MD1999999-0221REMSYN070AAXX  01184 82678 32598 50502 10308 20232 39909 40066 83200 333 59022;EQDQ01  00002PRCP06
0196826780999992000010200004-06770-043020FM-12+013899999V0209999C000012200019N9999999N1+02681+02501100761ADDAA106000091GA1001+999999999GF100991001001999999001001KA1240M+03181MA1999999099191MD1999999-0241REMSYN070AAXX  02004 82678 329// 00000 10268 20250 39919 40076 333 10318 59024;EQDQ01  00002PRCP06
0186826780999992000010212004-06770-043020FM-12+013899999V0200501N000510075019N0200001N1+02781+02361100941ADDAA106000091GF106991061021008001001001KA1240N+02341MA1999999099371MD1999999-0071REMSYN076AAXX  02124 82678 32598 60501 10278 20236 39937 40094 86200 333 20234 59007;EQDQ01  00002PRCP06
0167826780999992000010218004-06770-043020FM-12+013899999V0209999C000011050019N0200001N1+03321+02141100691ADDAA106000091GF105991041031008001001021MA1999999099101MD1999999+0011REMSYN070AAXX  02184 82678 32598 50000 10332 20214 39910 40069 84302 333 58001;EQDQ01  00002PRCP06
0196826780999992000010300004-06770-043020FM-12+013899999V0209999C000012200019N9999999N1+02751+02341100811ADDAA106000091GA1001+999999999GF100991001001999999001001KA1240M+03351MA1999999099251MD1999999+0061REMSYN070AAXX  03004 82678 329// 00000 10275 20234 39925 40081 333 10335 58006;EQDQ01  00002PRCP06
0201826780999992000010312004-06770-043020FM-12+013899999V0200501N000510450019N0200001N1+02221+02171101021ADDAA124023991AY161061AY291061GF108991041061008001021021KA1240N+02021MA1999999099441MD1999999+0071MW1021REMSYN088AAXX  03124 82678 21598 80501 10222 20217 39944 40102 70269 84622 333 20202 58007 60244;
0167826780999992000010318004-06770-043020FM-12+013899999V0202701N000510075019N0200001N1+02971+02351100661ADDAA106000091GF108991061051008001031999MA1999999099091MD1999999-0011REMSYN070AAXX  03184 82678 32598 82701 10297 20235 39909 40066 8653/ 333 59001;EQDQ01  00002PRCP06
0196826780999992000010400004-06770-043020FM-12+013899999V0202701N000512200019N9999999N1+02591+02461100871ADDAA106000091GA1001+999999999GF100991001001999999001001KA1240M+03041MA1999999099281MD1999999+0031REMSYN070AAXX  04004 82678 329// 02701 10259 20246 39928 40087 333 10304 58003;EQDQ01  00002PRCP06
0201826780999992000010412004-06770-043020FM-12+013899999V0209999C000010075019N0200001N1+02361+02261101281ADDAA124003091AY161061AY211061GF108991051071008001021999KA1240N+02141MA1999999099691MD1999999+0251MW1021REMSYN088AAXX  04124 82678 21598 80000 10236 20226 39969 40128 70261 8572/ 333 20214 58025 60034;
0182826780999992000010418004-06770-043020FM-12+013899999V0209999C000010450019N0200001N1+02661+02291100841ADDAA106001091AY161061AY281061GF108991041051008001031011MA1999999099261MD1999999+0171MW1021REMSYN082AAXX  04184 82678 21598 80000 10266 20229 39926 40084 70268 84531 333 58017 60011;
0196826780999992000010500004-06770-043020FM-12+013899999V0209999C000012200019N9999999N1+02421+02331101021ADDAA106000091GA1001+999999999GF100991001001999999001001KA1240M+02601MA1999999099431MD1999999+0151REMSYN070AAXX  05004 82678 329// 00000 10242 20233 39943 40102 333 10260 58015;EQDQ01  00002PRCP06
0173826780999992000010512004-06770-043020FM-12+013899999V0209999C000010075019N0200001N1+02571+02291101251ADDAA124001091GF108991081051008001999999KA1240N+02161MA1999999099661MD1999999-0031REMSYN082AAXX  05124 82678 22598 80000 10257 20229 39966 40125 885// 333 20216 59003 60014;
0167826780999992000010518004-06770-043020FM-12+013899999V0201401N001510075019N0200001N1+02901+02251100911ADDAA106000091GF108991081051008001999999MA1999999099331MD1999999+0071REMSYN070AAXX  05184 82678 32598 81403 10290 20225 39933 40091 885// 333 58007;EQDQ01  00002PRCP06
0186826780999992000010612004-06770-043020FM-12+013899999V0209999C000010075019N0200001N1+02401+02211101301ADDAA106000091GF108991061051008001021999KA1240N+02061MA1999999099701MD1999999+0041REMSYN076AAXX  06124 82678 32598 80000 10240 20221 39970 40130 8652/ 333 20206 58004;EQDQ01  00002PRCP06
0186826780999992000010700004-06770-043020FM-12+013899999V0201401N001512200019N9999999N1+02631+02251101031ADDAA106000091GF102991011001017501031021KA1240M+03131MA1999999099451MD1999999+0011REMSYN076AAXX  07004 82678 327// 21403 10263 20225 39945 40103 81032 333 10313 58001;EQDQ01  00002PRCP06
0201826780999992000010712004-06770-043020FM-12+013899999V0200501N000510075019N0200001N1+02621+02351101201ADDAA124002091AY161061AY281061GF108991051051008001021011KA1240N+02201MA1999999099621MD1999999-0081MW1021REMSYN088AAXX  07124 82678 21598 80501 10262 20235 39962 40120 70268 85521 333 20220 59008 60024;
0167826780999992000010718004-06770-043020FM-12+013899999V02099999999992200019N0200001N1+03221+02291100711ADDAA106000091GF104991031021008001001021MA1999999099151MD1999999-0081REMSYN070AAXX  07184 82678 32598 405// 10322 20229 39915 40071 83202 333 59008;EQDQ01  00002PRCP06
0196826780999992000010800004-06770-043020FM-12+013899999V0209999C000012200019N9999999N1+02501+02341100871ADDAA106000091GA1001+999999999GF100991001001999999001001KA1240M+03281MA1999999099291MD1999999-0161REMSYN070AAXX  08004 82678 329// 00000 10250 20234 39929 40087 333 10328 59016;EQDQ01  00002PRCP06
0186826780999992000010812004-06770-043020FM-12+013899999V02099999999990450019N0200001N1+02621+02351101171ADDAA106000091GF108991041061008001011021KA1240N+02271MA1999999099591MD1999999-0031REMSYN076AAXX  08124 82678 32598 827// 10262 20235 39959 40117 84612 333 20227 59003;EQDQ01  00002PRCP06
0182826780999992000010818004-06770-043020FM-12+013899999V0201401N002111050019N0200001N1+03101+02261100711ADDAA106002091AY161061AY221061GF108991041081008001001021MA1999999099141MD1999999-0011MW1021REMSYN082AAXX  08184 82678 21598 81404 10310 20226 39914 40071 70262 84802 333 59001 60021;
0201826780999992000010900004-06770-043020FM-12+013899999V0209999C000010075019N9999999N1+02321+02271101241ADDAA106011991AY161061AY261061GF108991081051008001999999KA1240M+03161MA1999999099651MD1999999+0361MW1511REMSYN088AAXX  09004 82678 215// 80000 10232 20227 39965 40124 75166 885// 333 10316 58036 60121;
0220826780999992000010912004-06770-043020FM-12+013899999V02099999999990075019N0200001N1+02381+02211101441ADDAA124021191AY161061AY261061GF108991999021008001001001KA1240N+02171MA1999999099141MD1999999+0211MW1021REMSYN088AAXX  09124 82678 21598 814// 10238 20221 39914 40144 70266 85200 333 20217 58021 60214;EQDQ01+000052SCOTLC
0183826780999992000010918004-06770-043020FM-12+013899999V02099999999999999999N0200001N1+02681+02161101081ADDAA106000091GF108991999021008001001001MA1999999099491MD1999999+0351REMSYN070AAXX  09184 82678 32598 818// 10268 20216 39949 40108 83200 333 58035;EQDQ01+000032SCOTLCQ02  00002PRCP06
0202826780999992000011000004-06770-043020FM-12+013899999V02099999999999999999N9999999N1+02361+02191100301ADDAA106000091GF108991999011008001001001KA1240M+02701MA1999999099721MD1999999+0051REMSYN076AAXX  10004 82678 325// 809// 10236 20219 39972 40030 82100 333 10270 58005;EQDQ01+000022SCOTLCQ02  00002PRCP06
0201826780999992000011012004-06770-043020FM-12+013899999V02099999999992200019N0200001N1+02601+02231101291ADDAA124000191AY121061AY261061GF104991031021008001001011KA1240N+02141MA1999999099701MD1999999-0141MW1011REMSYN088AAXX  10124 82678 21598 418// 10260 20223 39970 40129 70126 83201 333 20214 59014 69924;
0167826780999992000011018004-06770-043020FM-12+013899999V02099999999991050019N0200001N1+03161+02141100771ADDAA106000091GF105991041021008001001021MA1999999099201MD1999999-0291REMSYN070AAXX  10184 82678 32598 514// 10316 20214 39920 40077 84202 333 59029;EQDQ01  00002PRCP06
0196826780999992000011100004-06770-043020FM-12+013899999V0209999C000012200019N9999999N1+02681+02311101001ADDAA106000091GA1001+999999999GF100991001001999999001001KA1240M+03241MA1999999099431MD1999999-0271REMSYN070AAXX  11004 82678 329// 00000 10268 20231 39943 40100 333 10324 59027;EQDQ01  00002PRCP06
0186826780999992000011112004-06770-043020FM-12+013899999V02099999999992200019N0200001N1+02831+02201101191ADDAA106000091GF103991011011008001031011KA1240N+02151MA1999999099621MD1999999-0081REMSYN076AAXX  11124 82678 32598 314// 10283 20220 39962 40119 81131 333 20215 59008;EQDQ01  00002PRCP06
0167826780999992000011118004-06770-043020FM-12+013899999V0200901N001011050019N0200001N1+03251+02101100791ADDAA106000091GF106991041021008001001021MA1999999099231MD1999999+0031REMSYN070AAXX  11184 82678 32598 60902 10325 20210 39923 40079 84202 333 58003;EQDQ01  00002PRCP06
0186826780999992000011200004-06770-043020FM-12+013899999V0209999C000012200019N9999999N1+02611+02331100821ADDAA106000091GF101991011001017501011001KA1240M+03321MA1999999099251MD1999999-0181REMSYN076AAXX  12004 82678 327// 10000 10261 20233 39925 40082 81010 333 10332 59018;EQDQ01  00002PRCP06
0186826780999992000011212004-06770-043020FM-12+013899999V0209999C000011050019N0200001N1+02661+02371101151ADDAA106000091GF106991041021008001001021KA1240N+02221MA1999999099571MD1999999-0051REMSYN076AAXX  12124 82678 32598 60000 10266 20237 39957 40115 84202 333 20222 59005;EQDQ01  00002PRCP06
0167826780999992000011218004-06770-043020FM-12+013899999V0201401N001512200019N0200001N1+03181+02411100711ADDAA106000091GF104991021021008001001011MA1999999099151MD1999999-0081REMSYN070AAXX  12184 82678 32598 41403 10318 20241 39915 40071 82201 333 59008;EQDQ01  00002PRCP06
0195826780999992000011300004-06770-043020FM-12+013899999V0209999C000012200019N9999999N1+02661+02331100901ADDAA106000591AY161061AY251061GF103991999999999999999999KA1240M+02881MA1999999099331MD1999999+0071MW1031REMSYN082AAXX  13004 82678 219// 30000 10266 20233 39933 40090 70365 333 10288 58007 69941;
0201826780999992000011312004-06770-043020FM-12+013899999V0209999C000010075019N0200001N1+02581+02371101251ADDAA124002091AY121061AY261061GF108991051051008001021999KA1240N+02351MA1999999099671MD1999999+0101MW1021REMSYN088AAXX  13124 82678 21598 80000 10258 20237 39967 40125 70226 8552/ 333 20235 58010 60024;
0167826780999992000011318004-06770-043020FM-12+013899999V0201401N000510450019N0200001N1+02851+02311100921ADDAA106000091GF108991031021008001021999MA1999999099351MD1999999+0201REMSYN070AAXX  13184 82678 32598 81401 10285 20231 39935 40092 8322/ 333 58020;EQDQ01  00002PRCP06
0206826780999992000011400004-06770-043020FM-12+013899999V0209999C000012200019N9999999N1+02511+02381100991ADDAA199000091GF103991999021017501001001KA1240M+02881MA1999999099411MD1999999+0081REMSYN080    AAXX  14004 82678 327// 30000 10251 20238 39941 40099 81200 333 10288 58008;EQDQ01+000012SCOTLCQ02  00002PRCP99
0190826780999992000011412004-06770-043020FM-12+013899999V0201401N000510120019N0200001N1+02701+02431101121ADDAA199000091GF108991061081008001041999KA1240N+02301MA1999999099541MD1999999-0131REMSYN080    AAXX  14124 82678 32598 81401 10270 20243 39954 40112 8684/ 333 20230 59013;EQDQ01  00002PRCP99
0171826780999992000011418004-06770-043020FM-12+013899999V0200901N003610450019N0200001N1+02961+02401100811ADDAA199000091GF107991041031008001071021MA1999999099241MD1999999-0111REMSYN074    AAXX  14184 82678 32598 70907 10296 20240 39924 40081 84372 333 59011;EQDQ01  00002PRCP99
0190826780999992000011500004-06770-043020FM-12+013899999V0200501N000510450019N9999999N1+02561+02251100861ADDAA199000091GF106991041041008001031001KA1240M+03201MA1999999099291MD1999999-0121REMSYN080    AAXX  15004 82678 325// 60501 10256 20225 39929 40086 84430 333 10320 59012;EQDQ01  00002PRCP99
0206826780999992000011512004-06770-043020FM-12+013899999V0203601N001010075019N0200001N1+02641+02311101191ADDAA199000091GF108991999071008001021001KA1240N+02241MA1999999099611MD1999999+0071REMSYN080    AAXX  15124 82678 32598 83602 10264 20231 39961 40119 88720 333 20224 58007;EQDQ01+000082SCOTLCQ02  00002PRCP99
0186826780999992000011518004-06770-043020FM-12+013899999V0200501N001010450019N0200001N1+02401+02261100871ADDAA106013091AY191061AY221061GF108991041051008001021001MA1999999099281MD1999999+0041MW1021REMSYN086    AAXX  15184 82678 21598 80502 10240 20226 39928 40087 70292 84520 333 58004 60131;
0206826780999992000011600004-06770-043020FM-12+013899999V0209999C000012200019N9999999N1+02301+02251100921ADDAA199000091GF104991999011008001001001KA1240M+03221MA1999999099131MD1999999+0041REMSYN080    AAXX  16004 82678 325// 40000 10230 20225 39913 40092 82100 333 10322 58004;EQDQ01+000022SCOTLCQ02  00002PRCP99
0177826780999992000011612004-06770-043020FM-12+013899999V0202301N000510075019N0200001N1+02491+02101101201ADDAA124013091GF108991071041008001021999KA1240N+02131MA1999999099611MD1999999+0001REMSYN086    AAXX  16124 82678 22598 82301 10249 20210 39961 40120 8742/ 333 20213 58000 60134;
0171826780999992000011618004-06770-043020FM-12+013899999V0200501N001510075019N0200001N1+03151+02451100871ADDAA199000091GF105991051021008001001021MA1999999099241MD1999999-0041REMSYN074    AAXX  16184 82678 32598 50503 10315 20245 39924 40087 85202 333 59004;EQDQ01  00002PRCP99
0200826780999992000011700004-06770-043020FM-12+013899999V0200501N000512200019N9999999N1+02601+02401100861ADDAA199000091GA1001+999999999GF100991001001999999001001KA1240M+03301MA1999999099281MD1999999-0051REMSYN074    AAXX  17004 82678 329// 00501 10260 20240 39928 40086 333 10330 59005;EQDQ01  00002PRCP99
0190826780999992000011712004-06770-043020FM-12+013899999V0200501N001010120019N0200001N1+02671+02431101221ADDAA199000091GF107991061081008001041001KA1240N+02221MA1999999099641MD1999999+0031REMSYN080    AAXX  17124 82678 32598 70502 10267 20243 39964 40122 86840 333 20222 58003;EQDQ01  00002PRCP99
0171826780999992000011718004-06770-043020FM-12+013899999V0200501N001512200019N0200001N1+03181+02391100811ADDAA199000091GF103991021021008001001021MA1999999099251MD1999999+0011REMSYN074    AAXX  17184 82678 32598 30503 10318 20239 39925 40081 82202 333 58001;EQDQ01  00002PRCP99
0190826780999992000011800004-06770-043020FM-12+013899999V0200901N000510150019N9999999N1+02741+02341101061ADDAA199000091GF107991071021017501001001KA1240M+03281MA1999999099491MD1999999+0211REMSYN080    AAXX  18004 82678 327// 70901 10274 20234 39949 40106 87200 333 10328 58021;EQDQ01  00002PRCP99
0190826780999992000011812004-06770-043020FM-12+013899999V0200501N002110075019N0200001N1+02751+02321101351ADDAA199000091GF106991061021008001001001KA1240N+02311MA1999999099781MD1999999+0141REMSYN080    AAXX  18124 82678 32598 60504 10275 20232 39978 40135 86200 333 20231 58014;EQDQ01  00002PRCP99
0171826780999992000011818004-06770-043020FM-12+013899999V0200901N001512200019N0200001N1+03191+02311100861ADDAA199000091GF104991031021008001001011MA1999999099301MD1999999+0051REMSYN074    AAXX  18184 82678 32598 40903 10319 20231 39930 40086 83201 333 58005;EQDQ01  00002PRCP99
0205826780999992000011900004-06770-043020FM-12+013899999V0200501N000510120019N9999999N1+02511+02341101131ADDAA106000591AY121061AY221061GF108991061081008001011999KA1240M+03361MA1999999099551MD1999999+0061MW1291REMSYN092    AAXX  19004 82678 215// 80501 10251 20234 39955 40113 72922 8681/ 333 10336 58006 69961;
0177826780999992000011912004-06770-043020FM-12+013899999V0200501N001010075019N0200001N1+02661+02371101391ADDAA124000891GF108991051051008001021999KA1240N+02221MA1999999099811MD1999999+0031REMSYN086    AAXX  19124 82678 22598 80502 10266 20237 39981 40139 8552/ 333 20222 58003 69984;
0167826780999992000011918004-06770-043020FM-12+013899999V0200501N001012200019N0200001N1+03241+02391100871ADDAA199000091GF104991021021008001001021MA1999999099311MD1999999+0011REMSYN070AAXX  19184 82678 32598 40502 10324 20239 39931 40087 82202 333 58001;EQDQ01  00002PRCP99
0180826780999992000012000004-06770-043020FM-12+013899999V0209999C000012200019N9999999N1+02801+02441101091ADDAA199000091GF104991999999999999999999KA1240M+03341MA1999999099521MD1999999-0031REMSYN070AAXX  20004 82678 329// 40000 10280 20244 39952 40109 333 10334 59003;EQDQ01  00002PRCP99
0186826780999992000012012004-06770-043020FM-12+013899999V0200501N003110075019N0200001N1+02731+02371101321ADDAA199000091GF107991071041008001001001KA1240N+02341MA1999999099751MD1999999-0061REMSYN076AAXX  20124 82678 32598 70506 10273 20237 39975 40132 87400 333 20234 59006;EQDQ01  00002PRCP99
0167826780999992000012018004-06770-043020FM-12+013899999V0200501N002611050019N0200001N1+03271+02411100871ADDAA199000091GF108991021021008001001021MA1999999099311MD1999999+0001REMSYN070AAXX  20184 82678 32598 80505 10327 20241 39931 40087 82202 333 58000;EQDQ01  00002PRCP99
0180826780999992000012100004-06770-043020FM-12+013899999V0200901N000519999999N9999999N1+02721+02391101101ADDAA199000091GF107991999999999999999999KA1240M+03371MA1999999099531MD1999999+0011REMSYN070AAXX  21004 82678 329// 70901 10272 20239 39953 40110 333 10337 58001;EQDQ01  00002PRCP99
0186826780999992000012112004-06770-043020FM-12+013899999V0209999C000010075019N0200001N1+02401+02211101301ADDAA199000091GF108991061051008001021999KA1240N+02061MA1999999099701MD1999999+0041REMSYN076AAXX  21124 82678 32598 80000 10240 20221 39970 40130 8652/ 333 20206 58004;EQDQ01  00002PRCP99
0167826780999992000012118004-06770-043020FM-12+013899999V0202701N001010450019N0200001N1+03201+02271100831ADDAA199000091GF106991031021008001021011MA1999999099271MD1999999-0041REMSYN070AAXX  21184 82678 32598 62702 10320 20227 39927 40083 83221 333 59004;EQDQ01  00002PRCP99
0186826780999992000012200004-06770-043020FM-12+013899999V0200501N000512200019N9999999N1+02681+02351101181ADDAA199000091GF104991041021008001001001KA1240M+03341MA1999999099601MD1999999+0071REMSYN076AAXX  22004 82678 325// 40501 10268 20235 39960 40118 84200 333 10334 58007;EQDQ01  00002PRCP99
0186826780999992000012212004-06770-043020FM-12+013899999V0209999C000010075019N0200001N1+02561+02111101451ADDAA199000091GF108991061041008001021999KA1240N+02251MA1999999099861MD1999999+0121REMSYN076AAXX  22124 82678 32598 80000 10256 20211 39986 40145 8642/ 333 20225 58012;EQDQ01  00002PRCP99
0167826780999992000012218004-06770-043020FM-12+013899999V0200501N001510450019N0200001N1+03231+02261100941ADDAA199000091GF106991031021008001031021MA1999999099381MD1999999+0111REMSYN070AAXX  22184 82678 32598 60503 10323 20226 39938 40094 83232 333 58011;EQDQ01  00002PRCP99
0186826780999992000012300004-06770-043020FM-12+013899999V0201401N000512200019N9999999N1+02681+02451101121ADDAA199000091GF102991011001017501031021KA1240M+03311MA1999999099541MD1999999-0061REMSYN076AAXX  23004 82678 327// 21401 10268 20245 39954 40112 81032 333 10331 59006;EQDQ01  00002PRCP99
0220826780999992000012312004-06770-043020FM-12+013899999V0202701N001010075019N0200001N1+02331+02251101281ADDAA124006191AY161061AY261061GF108991999021008001001001KA1240N+02141MA1999999099791MD1999999-0071MW1021REMSYN088AAXX  23124 82678 21598 82702 10233 20225 39979 40128 70266 86200 333 20214 59007 60064;EQDQ01+000062SCOTLC
0183826780999992000012318004-06770-043020FM-12+013899999V0203201N002119999999N0200001N1+02981+02401100941ADDAA199000091GF108991999021008001001001MA1999999099361MD1999999-0021REMSYN070AAXX  23184 82678 32598 83204 10298 20240 39936 40094 83200 333 59002;EQDQ01+000032SCOTLCQ02  00002PRCP99
0186826780999992000012400004-06770-043020FM-12+013899999V0201401N001012200019N9999999N1+02701+02391101031ADDAA199000091GF102991021011004501001001KA1240M+03511MA1999999099451MD1999999-0091REMSYN076AAXX  24004 82678 324// 21402 10270 20239 39945 40103 82100 333 10351 59009;EQDQ01  00002PRCP99
0186826780999992000012412004-06770-043020FM-12+013899999V0203201N000510450019N0200001N1+02571+02151101271ADDAA199000091GF108991031051008001031021KA1240N+02171MA1999999099691MD1999999-0101REMSYN076AAXX  24124 82678 32598 83201 10257 20215 39969 40127 83532 333 20217 59010;EQDQ01  00002PRCP99
0214826780999992000012500004-06770-043020FM-12+013899999V0201401N002610075019N9999999N1+02511+02251101211ADDAA199000091AY191061AY221061GF108991081071008001999999KA1240M+03321MA1999999099631MD1999999+0181MW1291REMSYN082AAXX  25004 82678 315// 81405 10251 20225 39963 40121 72992 887// 333 10332 58018;EQDQ01  00002PRCP99
0173826780999992000012512004-06770-043020FM-12+013899999V0200901N001010075019N0200001N1+02561+02331101331ADDAA124003091GF108991051021008001001031KA1240N+02241MA1999999099741MD1999999+0051REMSYN082AAXX  25124 82678 22598 80902 10256 20233 39974 40133 85203 333 20224 58005 60034;
0167826780999992000012518004-06770-043020FM-12+013899999V0201401N001510075019N0200001N1+02701+02411101021ADDAA199000091GF108991061021008001001021MA1999999099431MD1999999+0191REMSYN070AAXX  25184 82678 32598 81403 10270 20241 39943 40102 86202 333 58019;EQDQ01  00002PRCP99
0196826780999992000012600004-06770-043020FM-12+013899999V0209999C000012200019N9999999N1+02541+02311101111ADDAA199000091GA1001+999999999GF100991001001999999001001KA1240M+03041MA1999999099531MD1999999-0101REMSYN070AAXX  26004 82678 329// 00000 10254 20231 39953 40111 333 10304 59010;EQDQ01  00002PRCP99
0230826780999992000012612004-06770-043020FM-12+013899999V0200501N001510075019N0200001N1+02501+02411101481ADDAA199000091AY121061AY201061GF108991061071008001021999KA1240N+02241MA1999999099891MD1999999+0151MW1021REMSYN082AAXX  26124 82678 31598 80503 10250 20241 39989 40148 70227 8672/ 333 20224 58015;EQDQ01+000072PSTWM2Q02  00002PRCP99
0167826780999992000012618004-06770-043020FM-12+013899999V0200501N001510075019N0200001N1+03201+02331100981ADDAA199000091GF106991051021008001001021MA1999999099411MD1999999-0021REMSYN070AAXX  26184 82678 32598 60503 10320 20233 39941 40098 85202 333 59002;EQDQ01  00002PRCP99
0186826780999992000012700004-06770-043020FM-12+013899999V0209999C000012200019N9999999N1+02751+02431101101ADDAA199000091GF102991021021008001001001KA1240M+03351MA1999999099521MD1999999-0011REMSYN076AAXX  27004 82678 325// 20000 10275 20243 39952 40110 82200 333 10335 59001;EQDQ01  00002PRCP99
0186826780999992000012712004-06770-043020FM-12+013899999V0200501N001512200019N0200001N1+02841+02331101331ADDAA199000091GF103991011021008001001021KA1240N+02361MA1999999099761MD1999999-0131REMSYN076AAXX  27124 82678 32598 30503 10284 20233 39976 40133 81202 333 20236 59013;EQDQ01  00002PRCP99
0167826780999992000012718004-06770-043020FM-12+013899999V0200501N001512200019N0200001N1+03391+02261100891ADDAA199000091GF105991041021008001001011MA1999999099341MD1999999-0071REMSYN070AAXX  27184 82678 32598 50503 10339 20226 39934 40089 84201 333 59007;EQDQ01  00002PRCP99
0202826780999992000012800004-06770-043020FM-12+013899999V0200901N000512200019N9999999N1+02801+02381101141ADDAA199000091GF102991999021017501001001KA1240M+03481MA1999999099571MD1999999+0051REMSYN076AAXX  28004 82678 327// 20901 10280 20238 39957 40114 81200 333 10348 58005;EQDQ01+000012SCOTLCQ02  00002PRCP99
0173826780999992000012812004-06770-043020FM-12+013899999V0201401N001512200019N0200001N1+02661+02111101361ADDAA124000391GF105991031021008001001011KA1240N+02141MA1999999099791MD1999999+0031REMSYN082AAXX  28124 82678 22598 51403 10266 20211 39979 40136 83201 333 20214 58003 69934;
0167826780999992000012818004-06770-043020FM-12+013899999V0201401N001511050019N0200001N1+03401+02271100811ADDAA199000091GF105991021021008001001021MA1999999099251MD1999999-0091REMSYN070AAXX  28184 82678 32598 51403 10340 20227 39925 40081 82202 333 59009;EQDQ01  00002PRCP99
0186826780999992000012900004-06770-043020FM-12+013899999V0209999C000012200019N9999999N1+02831+02461101031ADDAA199000091GF101991011001017501031001KA1240M+03451MA1999999099461MD1999999-0111REMSYN076AAXX  29004 82678 327// 10000 10283 20246 39946 40103 81030 333 10345 59011;EQDQ01  00002PRCP99
0201826780999992000012912004-06770-043020FM-12+013899999V0201401N002110075019N0200001N1+02401+02301101031ADDAA124002091AY121061AY221061GF108991061051008001021001KA1240N+02331MA1999999099741MD1999999-0051MW1211REMSYN088AAXX  29124 82678 21598 81404 10240 20230 39974 40103 72122 86520 333 20233 59005 60024;
0201826780999992000012918004-06770-043020FM-12+013899999V0202301N001019999999N0200001N1+02971+02181100881ADDAA106000391AY121061AY221061GF106991999031008001001001MA1999999099321MD1999999+0071MW1121REMSYN082AAXX  29184 82678 21598 62302 10297 20218 39932 40088 71222 84300 333 58007 69931;EQDQ01+000042SCOTLC
0211826780999992000013000004-06770-043020FM-12+013899999V0201401N000512200019N9999999N1+02371+02311101081ADDAA106003091AY161061AY211061GA1001+999999999GF100991001001999999001001KA1240M+03151MA1999999099491MD1999999+0031MW1021REMSYN082AAXX  30004 82678 219// 01401 10237 20231 39949 40108 70261 333 10315 58003 60031;
0201826780999992000013012004-06770-043020FM-12+013899999V0200501N000510120019N0200001N1+02661+02431101411ADDAA124005191AY121061AY261061GF105991051081008001001001KA1240N+02261MA1999999099821MD1999999+0081MW1021REMSYN088AAXX  30124 82678 21598 50501 10266 20243 39982 40141 70226 85800 333 20226 58008 60054;
0167826780999992000013018004-06770-043020FM-12+013899999V0201401N003112200019N0200001N1+03171+02231101051ADDAA199000091GF104991041081008001001001MA1999999099481MD1999999+0161REMSYN070AAXX  30184 82678 32598 41406 10317 20223 39948 40105 84800 333 58016;EQDQ01  00002PRCP99
0196826780999992000013100004-06770-043020FM-12+013899999V0209999C000012200019N9999999N1+02631+02481101201ADDAA199000091GA1001+999999999GF100991001001999999001001KA1240M+03331MA1999999099621MD1999999+0131REMSYN070AAXX  31004 82678 329// 00000 10263 20248 39962 40120 333 10333 58013;EQDQ01  00002PRCP99
0202826780999992000013112004-06770-043020FM-12+013899999V0209999C000010120019N0200001N1+02681+02331101541ADDAA199000091GF108991999081008001001001KA1240N+02301MA1999999099961MD1999999+0141REMSYN076AAXX  31124 82678 32598 80000 10268 20233 39996 40154 86800 333 20230 58014;EQDQ01+000062SCOTLCQ02  00002PRCP99
0167826780999992000013118004-06770-043020FM-12+013899999V0201401N002610450019N0200001N1+03341+02151101161ADDAA199000091GF108991041021008001011021MA1999999099601MD1999999+0121REMSYN070AAXX  31184 82678 32598 81405 10334 20215 39960 40116 84212 333 58012;EQDQ01  00002PRCP99
0196826780999992000020100004-06770-043020FM-12+013899999V0209999C000012200019N9999999N1+02721+02501101301ADDAA199000091GA1001+999999999GF100991001001999999001001KA1240M+03401MA1999999099721MD1999999+0101REMSYN070AAXX  01004 82678 329// 00000 10272 20250 39972 40130 333 10340 58010;EQDQ01  00002PRCP99
0186826780999992000020112004-06770-043020FM-12+013899999V0200501N000512200019N0200001N1+02801+02361101571ADDAA199000091GF104991011011008001031011KA1240N+02241MA1999999099991MD1999999+0031REMSYN076AAXX  01124 82678 32598 40501 10280 20236 39999 40157 81131 333 20224 58003;EQDQ01  00002PRCP99
0167826780999992000020118004-06770-043020FM-12+013899999V0200501N001512200019N0200001N1+03401+02311101081ADDAA199000091GF104991041021008001001001MA1999999099521MD1999999-0081REMSYN070AAXX  01184 82678 32598 40503 10340 20231 39952 40108 84200 333 59008;EQDQ01  00002PRCP99
0196826780999992000020200004-06770-043020FM-12+013899999V0209999C000012200019N9999999N1+02761+02441101151ADDAA199000091GA1001+999999999GF100991001001999999001001KA1240M+03481MA1999999099581MD1999999-0141REMSYN070AAXX  02004 82678 329// 00000 10276 20244 39958 40115 333 10348 59014;EQDQ01  00002PRCP99
0186826780999992000020212004-06770-043020FM-12+013899999V0203201N001511050019N0200001N1+02801+02361101401ADDAA199000091GF105991021011008001031021KA1240N+02311MA1999999099831MD1999999-0161REMSYN076AAXX  02124 82678 32598 53203 10280 20236 39983 40140 82132 333 20231 59016;EQDQ01  00002PRCP99
0196826780999992000020300004-06770-043020FM-12+013899999V0200901N000512200019N9999999N1+02801+02381101091ADDAA199000091GA1001+999999999GF100991001001999999001001KA1240M+03321MA1999999099521MD1999999-0061REMSYN070AAXX  03004 82678 329// 00901 10280 20238 39952 40109 333 10332 59006;EQDQ01  00002PRCP99
0186826780999992000020312004-06770-043020FM-12+013899999V0203201N000510075019N0200001N1+02701+02411101321ADDAA199000091GF108991071051008001061999KA1240N+02421MA1999999099751MD1999999-0081REMSYN076AAXX  03124 82678 32598 83201 10270 20241 39975 40132 8756/ 333 20242 59008;EQDQ01  00002PRCP99
0182826780999992000020318004-06770-043020FM-12+013899999V0200901N000510075019N0200001N1+03021+02501100891ADDAA106000391AY161061AY221061GF108991061051008001071999MA1999999099331MD1999999-0101MW1021REMSYN082AAXX  03184 82678 21598 80901 10302 20250 39933 40089 70262 8657/ 333 59010 69931;
0186826780999992000020400004-06770-043020FM-12+013899999V0209999C000010075019N9999999N1+02541+02351101101ADDAA199000091GF107991051051008001031001KA1240M+03021MA1999999099521MD1999999+0001REMSYN076AAXX  04004 82678 325// 70000 10254 20235 39952 40110 85530 333 10302 58000;EQDQ01  00002PRCP99
0201826780999992000020412004-06770-043020FM-12+013899999V0209999C000010075019N0200001N1+02481+02431101411ADDAA124004191AY161061AY221061GF108991051051008001071999KA1240N+02381MA1999999099821MD1999999+0071MW1021REMSYN088AAXX  04124 82678 21598 80000 10248 20243 39982 40141 70262 8557/ 333 20238 58007 60044;
0167826780999992000020418004-06770-043020FM-12+013899999V0200501N001010450019N0200001N1+02901+02521101121ADDAA199000091GF108991041051008001021999MA1999999099551MD1999999+0221REMSYN070AAXX  04184 82678 32598 80502 10290 20252 39955 40112 8452/ 333 58022;EQDQ01  00002PRCP99
0202826780999992000020500004-06770-043020FM-12+013899999V0209999C000010075019N0200001N1+02481+02381101321ADDAA199000091GF108991999021008001001001KA1240M+03041MA1999999099731MD1999999+0211REMSYN076AAXX  05004 82678 32598 80000 10248 20238 39973 40132 86200 333 10304 58021;EQDQ01+000062SCOTLCQ02  00002PRCP99
0201826780999992000020512004-06770-043020FM-12+013899999V0200501N001510075019N0200001N1+02291+02231101541ADDAA124007191AY121061AY261061GF108991071071008001021999KA1240N+02181MA1999999099941MD1999999+0121MW1211REMSYN088AAXX  05124 82678 21598 80503 10229 20223 39994 40154 72126 8772/ 333 20218 58012 60074;
0148826780999992000020518004-06770-043020FM-12+013899999V0203601N001510450019N0200001N1+03001+02461101171ADDAA199000021GF108991021041008001031021MA1999999099601MD1999999+0051REMSYN070AAXX  05184 82678 32598 83603 10300 20246 39960 40117 82432 333 58005;
0220826780999992000020612004-06770-043020FM-12+013899999V0209999C000019999999N0200001N1+02361+02261101581ADDAA124000191AY121061AY261061GF106991999021017501001001KA1240N+02081MA1999999099991MD1999999+0051MW1021REMSYN088AAXX  06124 82678 21798 60000 10236 20226 39999 40158 70226 83200 333 20208 58005 69924;EQDQ01+000032SCOTLC
0183826780999992000020618004-06770-043020FM-12+013899999V0200501N000510075019N0200001N1+03121+02471101241ADDAA199000091GF107991999021008001001001MA1999999099651MD1999999+0051REMSYN070AAXX  06184 82678 32598 70501 10312 20247 39965 40124 85200 333 58005;EQDQ01+000052SCOTLCQ02  00002PRCP99
0196826780999992000020700004-06770-043020FM-12+013899999V0209999C000012200019N9999999N1+02581+02331101311ADDAA199000091GA1001+999999999GF100991001001999999001001KA1240M+03201MA1999999099721MD1999999-0051REMSYN070AAXX  07004 82678 329// 00000 10258 20233 39972 40131 333 10320 59005;EQDQ01  00002PRCP99
0201826780999992000020712004-06770-043020FM-12+013899999V0200901N002110075019N0200001N1+02301+02111101591ADDAA124005191AY161061AY221061GF108991051051008001021999KA1240N+02241MA1999999099991MD1999999+0001MW1021REMSYN088AAXX  07124 82678 21598 80904 10230 20211 39999 40159 70262 8552/ 333 20224 58000 60054;
0154826780999992000020718004-06770-043020FM-12+013899999V0209999C000010075019N0200001N1+02641+02271101411ADDAA106002091GF108991061051008001031001MA1999999099821MD1999999+0171REMSYN076AAXX  07184 82678 22598 80000 10264 20227 39982 40141 86530 333 58017 60021;
0196826780999992000020800004-06770-043020FM-12+013899999V0209999C000012200019N9999999N1+02361+02311101431ADDAA199000091GA1001+999999999GF100991001001999999001001KA1240M+03181MA1999999099841MD1999999+0121REMSYN070AAXX  08004 82678 329// 00000 10236 20231 39984 40143 333 10318 58012;EQDQ01  00002PRCP99
0220826780999992000020812004-06770-043020FM-12+013899999V0200901N001510120019N0200001N1+02401+02301101561ADDAA124002091AY121061AY201061GF108991061081008001011999KA1240N+02121MA1999999099961MD1999999-0031MW1021REMSYN088AAXX  08124 82678 21598 80903 10240 20230 39996 40156 70227 8681/ 333 20212 59003 60024;EQDQ01+000072PSTWM2
0167826780999992000020818004-06770-043020FM-12+013899999V0201801N001011050019N0200001N1+03201+02351101021ADDAA199000091GF105991041021008001001021MA1999999099451MD1999999-0371REMSYN070AAXX  08184 82678 32598 51802 10320 20235 39945 40102 84202 333 59037;EQDQ01  00002PRCP99
0196826780999992000020900004-06770-043020FM-12+013899999V0200901N001012200019N9999999N1+02631+02371101251ADDAA199000091GA1001+999999999GF100991001001999999001001KA1240M+03261MA1999999099661MD1999999-0181REMSYN070AAXX  09004 82678 329// 00902 10263 20237 39966 40125 333 10326 59018;EQDQ01  00002PRCP99
0186826780999992000020912004-06770-043020FM-12+013899999V0200501N002110075019N0200001N1+02631+02311101461ADDAA199000091GF106991061041008001001001KA1240N+02241MA1999999099871MD1999999-0091REMSYN076AAXX  09124 82678 32598 60504 10263 20231 39987 40146 86400 333 20224 59009;EQDQ01  00002PRCP99
0167826780999992000020918004-06770-043020FM-12+013899999V0200901N001010450019N0200001N1+02881+02321101061ADDAA199000091GF107991041031008001071021MA1999999099481MD1999999+0031REMSYN070AAXX  09184 82678 32598 70902 10288 20232 39948 40106 84372 333 58003;EQDQ01  00002PRCP99
0201826780999992000021000004-06770-043020FM-12+013899999V0203601N000510075019N9999999N1+02491+02381101221ADDAA106000591AY161061AY221061GF108991081051008001999999KA1240M+03121MA1999999099641MD1999999-0021MW1021REMSYN088AAXX  10004 82678 215// 83601 10249 20238 39964 40122 70262 885// 333 10312 59002 69941;
0173826780999992000021012004-06770-043020FM-12+013899999V0200901N001510075019N0200001N1+02681+02331101351ADDAA124000591GF108991051051008001021999KA1240N+02201MA1999999099781MD1999999-0091REMSYN082AAXX  10124 82678 22598 80903 10268 20233 39978 40135 8552/ 333 20220 59009 69944;
0167826780999992000021018004-06770-043020FM-12+013899999V0201801N001510450019N0200001N1+02901+02341101011ADDAA199000091GF108991041051008001031021MA1999999099431MD1999999-0031REMSYN070AAXX  10184 82678 32598 81803 10290 20234 39943 40101 84532 333 59003;EQDQ01  00002PRCP99
0202826780999992000021100004-06770-043020FM-12+013899999V0209999C000010075019N9999999N1+02561+02401101201ADDAA199000091GF108991999021008001001001KA1240M+03181MA1999999099621MD1999999-0021REMSYN076AAXX  11004 82678 325// 80000 10256 20240 39962 40120 85200 333 10318 59002;EQDQ01+000052SCOTLCQ02  00002PRCP99
0201826780999992000021112004-06770-043020FM-12+013899999V0209999C000010450019N0200001N1+02461+02271101421ADDAA124001091AY161061AY221061GF106991041051008001031001KA1240N+02161MA1999999099831MD1999999+0051MW1021REMSYN088AAXX  11124 82678 21598 60000 10246 20227 39983 40142 70262 84530 333 20216 58005 60014;
0182826780999992000021118004-06770-043020FM-12+013899999V0200501N001510450019N0200001N1+02781+02561101081ADDAA106023991AY161061AY221061GF108991041051008001021999MA1999999099501MD1999999+0071MW1621REMSYN082AAXX  11184 82678 21598 80503 10278 20256 39950 40108 76262 8452/ 333 58007 60241;
0177826780999992000021200004-06770-043020FM-12+013899999V0209999C000012200019N9999999N1+02541+02401101171ADDAA199000021GA1001+999999999GF100991001001999999001001KA1240M+03001MA1999999099581MD1999999-0041REMSYN070AAXX  12004 82678 329// 00000 10254 20240 39958 40117 333 10300 59004;
0173826780999992000021212004-06770-043020FM-12+013899999V0200501N000510075019N0200001N1+02581+02371101361ADDAA124023991GF107991071051008001001001KA1240N+02241MA1999999099771MD1999999-0061REMSYN082AAXX  12124 82678 22598 70501 10258 20237 39977 40136 87500 333 20224 59006 60244;
0182826780999992000021218004-06770-043020FM-12+013899999V0203601N000510075019N0200001N1+03181+02361100921ADDAA106000891AY161061AY221061GF106991061021008001001001MA1999999099351MD1999999-0151MW1021REMSYN082AAXX  12184 82678 21598 63601 10318 20236 39935 40092 70262 86200 333 59015 69971;
0196826780999992000021300004-06770-043020FM-12+013899999V0209999C000012200019N9999999N1+02621+02461100911ADDAA199000091GA1001+999999999GF100991001001999999001001KA1240M+03201MA1999999099431MD1999999-0151REMSYN070AAXX  13004 82678 329// 00000 10262 20246 39943 40091 333 10320 59015;EQDQ01  00002PRCP99
0173826780999992000021312004-06770-043020FM-12+013899999V0201401N001010075019N0200001N1+02601+02351101341ADDAA124000891GF108991061051008001021999KA1240N+02181MA1999999099761MD1999999-0011REMSYN082AAXX  13124 82678 22598 81402 10260 20235 39976 40134 8652/ 333 20218 59001 69974;
0167826780999992000021318004-06770-043020FM-12+013899999V0200901N000512200019N0200001N1+03141+02531100941ADDAA199000091GF104991031021008001001021MA1999999099371MD1999999+0021REMSYN070AAXX  13184 82678 32598 40901 10314 20253 39937 40094 83202 333 58002;EQDQ01  00002PRCP99
0186826780999992000021400004-06770-043020FM-12+013899999V0209999C000010075019N9999999N1+02341+02201101241ADDAA199000091GF108991061051008001021999KA1240M+03321MA1999999099651MD1999999+0221REMSYN076AAXX  14004 82678 325// 80000 10234 20220 39965 40124 8652/ 333 10332 58022;EQDQ01  00002PRCP99
0201826780999992000021412004-06770-043020FM-12+013899999V0209999C000010075019N0200001N1+02241+02161101581ADDAA124010991AY161061AY221061GF108991061051008001021999KA1240N+02041MA1999999099971MD1999999+0211MW1911REMSYN088AAXX  14124 82678 21598 80000 10224 20216 39997 40158 79162 8652/ 333 20204 58021 60114;
0182826780999992000021418004-06770-043020FM-12+013899999V0209999C000010075019N0200001N1+02341+02261101311ADDAA106005191AY161061AY221061GF108991071051008001021999MA1999999099701MD1999999+0331MW1611REMSYN082AAXX  14184 82678 21598 80000 10234 20226 39970 40131 76162 8752/ 333 58033 60051;
0201826780999992000021500004-06770-043020FM-12+013899999V0209999C000010075019N9999999N1+02301+02231101371ADDAA106000591AY161061AY221061GF108991051031008001021001KA1240M+02801MA1999999099761MD1999999+0111MW1021REMSYN088AAXX  15004 82678 215// 80000 10230 20223 39976 40137 70262 85320 333 10280 58011 69961;
0173826780999992000021512004-06770-043020FM-12+013899999V0209999C000010075019N0200001N1+02341+02291101371ADDAA124006191GF108991051051008001031999KA1240N+02041MA1999999099771MD1999999-0201REMSYN082AAXX  15124 82678 22598 80000 10234 20229 39977 40137 8553/ 333 20204 59020 60064;
0182826780999992000021518004-06770-043020FM-12+013899999V0200901N000510450019N0200001N1+02881+02371101331ADDAA106005191AY161061AY221061GF107991041051008001031001MA1999999099491MD1999999-0211MW1011REMSYN082AAXX  15184 82678 21598 70901 10288 20237 39949 40133 70162 84530 333 59021 60051;
0201826780999992000021600004-06770-043020FM-12+013899999V0201401N002110075019N9999999N1+02481+02381101211ADDAA106000591AY161061AY221061GF108991051051008001031999KA1240M+03041MA1999999099621MD1999999-0141MW1021REMSYN088AAXX  16004 82678 215// 81404 10248 20238 39962 40121 70262 8553/ 333 10304 59014 69961;
0173826780999992000021612004-06770-043020FM-12+013899999V0200501N001010075019N0200001N1+02341+02221101361ADDAA124008991GF108991051051008001021999KA1240N+02121MA1999999099761MD1999999-0011REMSYN082AAXX  16124 82678 22598 80502 10234 20222 39976 40136 8552/ 333 20212 59001 60094;
0167826780999992000021618004-06770-043020FM-12+013899999V0200501N001510450019N0200001N1+02861+02461100961ADDAA199000091GF108991041051008001031999MA1999999099381MD1999999-0111REMSYN070AAXX  16184 82678 32598 80503 10286 20246 39938 40096 8453/ 333 59011;EQDQ01  00002PRCP99
0202826780999992000021700004-06770-043020FM-12+013899999V0209999C000012200019N9999999N1+02541+02441101231ADDAA199000091GF104991999021008001001001KA1240M+03051MA1999999099641MD1999999+0021REMSYN076AAXX  17004 82678 325// 40000 10254 20244 39964 40123 83200 333 10305 58002;EQDQ01+000032SCOTLCQ02  00002PRCP99
0201826780999992000021712004-06770-043020FM-12+013899999V0200901N001510075019N0200001N1+02191+02081101581ADDAA124023991AY161061AY261061GF108991051051008001021999KA1240N+02051MA1999999099981MD1999999+0221MW1201REMSYN088AAXX  17124 82678 21598 80903 10219 20208 39998 40158 72066 8552/ 333 20205 58022 60244;
0148826780999992000021718004-06770-043020FM-12+013899999V0200501N001511050019N0200001N1+02721+02321101021ADDAA199000021GF107991021021008001001021MA1999999099431MD1999999+0051REMSYN070AAXX  17184 82678 32598 70503 10272 20232 39943 40102 82202 333 58005;
0167826780999992000021800004-06770-043020FM-12+013899999V0200901N000510075019N9999999N1+02431+02321101231ADDAA199000021GF108991081041008001999999KA1240M+02851MA1999999099631MD1999999-0011REMSYN076AAXX  18004 82678 325// 80901 10243 20232 39963 40123 884// 333 10285 59001;
0201826780999992000021812004-06770-043020FM-12+013899999V0200501N000510075019N0200001N1+02281+02161101561ADDAA124005191AY161061AY221061GF108991051051008001021999KA1240N+02181MA1999999099961MD1999999-0021MW1611REMSYN088AAXX  18124 82678 21598 80501 10228 20216 39996 40156 76162 8552/ 333 20218 59002 60054;
0201826780999992000021900004-06770-043020FM-12+013899999V0209999C000010075019N9999999N1+02341+02291101421ADDAA106003091AY161061AY211061GF108991061051008001021999KA1240M+02861MA1999999099821MD1999999+0191MW1021REMSYN088AAXX  19004 82678 215// 80000 10234 20229 39982 40142 70261 8652/ 333 10286 58019 60031;
0201826780999992000021912004-06770-043020FM-12+013899999V0209999C000010075019N0200001N1+02241+02161101611ADDAA124018091AY161061AY211061GF108991051051008001021999KA1240N+02141MA1999999100001MD1999999+0041MW1021REMSYN088AAXX  19124 82678 21598 80000 10224 20216 30000 40161 70261 8552/ 333 20214 58004 60184;
0182826780999992000021918004-06770-043020FM-12+013899999V0209999C000011050019N0200001N1+02721+02321101171ADDAA106004191AY161061AY221061GF106991041021008001001021MA1999999099581MD1999999+0031MW1021REMSYN082AAXX  19184 82678 21598 60000 10272 20232 39958 40117 70262 84202 333 58003 60041;
0196826780999992000022000004-06770-043020FM-12+013899999V0209999C000012200019N9999999N1+02441+02171101291ADDAA199000091GA1001+999999999GF100991001001999999001001KA1240M+03031MA1999999099691MD1999999-0131REMSYN070AAXX  20004 82678 329// 00000 10244 20217 39969 40129 333 10303 59013;EQDQ01  00002PRCP99
0192826780999992000022012004-06770-043020FM-12+013899999V0202701N001019999999N0200001N1+02501+02251101551ADDAA124004191GF105991999021008001001001KA1240N+02101MA1999999099951MD1999999-0021REMSYN082AAXX  20124 82678 22598 52702 10250 20225 39995 40155 83200 333 20210 59002 60044;EQDQ01+000032SCOTLC
0167826780999992000022018004-06770-043020FM-12+013899999V0200501N001510075019N0200001N1+03131+02381101061ADDAA199000091GF106991051021008001001021MA1999999099481MD1999999-0101REMSYN070AAXX  20184 82678 32598 60503 10313 20238 39948 40106 85202 333 59010;EQDQ01  00002PRCP99
0202826780999992000022100004-06770-043020FM-12+013899999V0209999C000019999999N9999999N1+02631+02411101201ADDAA199000091GF106991999011008001001001KA1240M+03241MA1999999099621MD1999999-0071REMSYN076AAXX  21004 82678 325// 60000 10263 20241 39962 40120 82100 333 10324 59007;EQDQ01+000022SCOTLCQ02  00002PRCP99
0167826780999992000022118004-06770-043020FM-12+013899999V0201401N001010075019N0200001N1+03131+02411100971ADDAA199000091GF105991051021008001001001MA1999999099401MD1999999-0081REMSYN070AAXX  21184 82678 32598 51402 10313 20241 39940 40097 85200 333 59008;EQDQ01  00002PRCP99
0202826780999992000022200004-06770-043020FM-12+013899999V0209999C000012200019N9999999N1+02681+02461101111ADDAA199000091GF102991999001017501031001KA1240M+03301MA1999999099531MD1999999-0091REMSYN076AAXX  22004 82678 327// 20000 10268 20246 39953 40111 83030 333 10330 59009;EQDQ01+000032SCOTLCQ02  00002PRCP99
0183826780999992000022218004-06770-043020FM-12+013899999V0201401N003119999999N0200001N1+03041+02411100921ADDAA199000091GF108991999021008001001001MA1999999099351MD1999999-0051REMSYN070AAXX  22184 82678 32598 81406 10304 20241 39935 40092 84200 333 59005;EQDQ01+000042SCOTLCQ02  00002PRCP99
0196826780999992000022300004-06770-043020FM-12+013899999V0209999C000012200019N9999999N1+02581+02441101231ADDAA199000091GA1001+999999999GF100991001001999999001001KA1240M+03041MA1999999099641MD1999999+0111REMSYN070AAXX  23004 82678 329// 00000 10258 20244 39964 40123 333 10304 58011;EQDQ01  00002PRCP99
0201826780999992000022312004-06770-043020FM-12+013899999V0209999C000010075019N0200001N1+02561+02191101421ADDAA124023191AY121061AY261061GF106991051051008001001021KA1240N+02121MA1999999099831MD1999999+0011MW1021REMSYN088AAXX  23124 82678 21598 60000 10256 20219 39983 40142 70226 85502 333 20212 58001 60234;
0186826780999992000022400004-06770-043020FM-12+013899999V0209999C000012200019N9999999N1+02541+02451101151ADDAA199000091GF104991041051008001001001KA1240M+03021MA1999999099571MD1999999-0071REMSYN076AAXX  24004 82678 325// 40000 10254 20245 39957 40115 84500 333 10302 59007;EQDQ01  00002PRCP99
0201826780999992000022412004-06770-043020FM-12+013899999V0209999C000010075019N0200001N1+02461+02211101321ADDAA124033091AY121061AY261061GF107991051051008001031001KA1240N+02141MA1999999099731MD1999999-0101MW1021REMSYN088AAXX  24124 82678 21598 70000 10246 20221 39973 40132 70226 85530 333 20214 59010 60334;
0167826780999992000022418004-06770-043020FM-12+013899999V0200901N000510075019N0200001N1+02971+02351100981ADDAA199000091GF107991061051008001001021MA1999999099411MD1999999+0011REMSYN070AAXX  24184 82678 32598 70901 10297 20235 39941 40098 86502 333 58001;EQDQ01  00002PRCP99
0201826780999992000022500004-06770-043020FM-12+013899999V0209999C000010450019N9999999N1+02601+02501101151ADDAA106000891AY121061AY261061GF105991021051008001021001KA1240M+03021MA1999999099571MD1999999+0001MW1021REMSYN088AAXX  25004 82678 215// 50000 10260 20250 39957 40115 70226 82520 333 10302 58000 69971;
0173826780999992000022512004-06770-043020FM-12+013899999V0200901N001012200019N0200001N1+02661+02391101261ADDAA124000891GF108991031021008001001011KA1240N+02241MA1999999099681MD1999999-0051REMSYN082AAXX  25124 82678 22598 80902 10266 20239 39968 40126 83201 333 20224 59005 69974;
0167826780999992000022518004-06770-043020FM-12+013899999V0200501N000510450019N0200001N1+02981+02401100861ADDAA199000091GF108991041021008001031011MA1999999099291MD1999999-0121REMSYN070AAXX  25184 82678 32598 80501 10298 20240 39929 40086 84231 333 59012;EQDQ01  00002PRCP99
0230826780999992000022612004-06770-043020FM-12+013899999V0200501N000512200019N0200001N1+02481+02341101311ADDAA199000091AY121061AY241061GF102991999011008001001001KA1240N+02081MA1999999099721MD1999999+0041MW1031REMSYN082AAXX  26124 82678 31598 20501 10248 20234 39972 40131 70324 83100 333 20208 58004;EQDQ01+000032SCOTLCQ02  00002PRCP99
0167826780999992000022618004-06770-043020FM-12+013899999V0200901N002110075019N0200001N1+03241+02311100891ADDAA199000091GF106991061021008001001001MA1999999099381MD1999999+0031REMSYN070AAXX  26184 82678 32598 60904 10324 20231 39938 40089 86200 333 58003;EQDQ01  00002PRCP99
0201826780999992000022718004-06770-043020FM-12+013899999V0200501N000510075019N0200001N1+03031+02611100881ADDAA106000191AY131061AY221061GF108991999021008001001001MA1999999099311MD1999999-0011MW1201REMSYN082AAXX  27184 82678 21598 80501 10303 20261 39931 40088 72032 85200 333 59001 69911;EQDQ01+000052SCOTLC
0201826780999992000022800004-06770-043020FM-12+013899999V0200501N000510075019N9999999N1+02431+02331101151ADDAA106007991AY191061AY261061GF105991051021008001001001KA1240M+03221MA1999999099561MD1999999+0051MW1031REMSYN088AAXX  28004 82678 215// 50501 10243 20233 39956 40115 70396 85200 333 10322 58005 60081;
0201826780999992000022812004-06770-043020FM-12+013899999V0200901N001010075019N0200001N1+02521+02311101331ADDAA124008991AY161061AY221061GF108991061051008001021999KA1240N+02251MA1999999099741MD1999999+0061MW1021REMSYN088AAXX  28124 82678 21598 80902 10252 20231 39974 40133 70262 8652/ 333 20225 58006 60094;
0182826780999992000022818004-06770-043020FM-12+013899999V0200501N001010075019N0200001N1+02621+02501101041ADDAA106002091AY161061AY211061GF108991051051008001031999MA1999999099451MD1999999+0141MW1021REMSYN082AAXX  28184 82678 21598 80502 10262 20250 39945 40104 70261 8553/ 333 58014 60021;
0201826780999992000022912004-06770-043020FM-12+013899999V0209999C000010075019N0200001N1+02401+02311101481ADDAA124002091AY121061AY241061GF108991081051008001999999KA1240N+02161MA1999999099881MD1999999+0141MW1021REMSYN088AAXX  29124 82678 21598 80000 10240 20231 39988 40148 70224 885// 333 20216 58014 60024;
0167826780999992000022918004-06770-043020FM-12+013899999V0200901N00101220001CN0200001N1+03101+02391101121ADDAA199000091GF108991031021008001001041MA1999999099551MD1999999+0101REMSYN070AAXX  29184 82678 32598 80902 10310 20239 39955 40112 83204 333 58010;EQDQ01  00002PRCP99
0186826780999992000030100004-06770-043020FM-12+013899999V0200501N001010075019N9999999N1+02651+02421101311ADDAA199000091GF108991061071008001021999KA1240M+03121MA1999999099721MD1999999+0121REMSYN076AAXX  01004 82678 325// 80502 10265 20242 39972 40131 8672/ 333 10312 58012;EQDQ01  00002PRCP99
0186826780999992000030112004-06770-043020FM-12+013899999V0209999C000010450019N0200001N1+02701+02371101421ADDAA199000091GF106991041051008001031001KA1240N+02321MA1999999099851MD1999999-0031REMSYN076AAXX  01124 82678 32598 60000 10270 20237 39985 40142 84530 333 20232 59003;EQDQ01  00002PRCP99
0182826780999992000030118004-06770-043020FM-12+013899999V0202701N000510450019N0200001N1+02741+02481101071ADDAA106005191AY161061AY221061GF106991041051008001021021MA1999999099491MD1999999-0061MW1021REMSYN082AAXX  01184 82678 21598 62701 10274 20248 39949 40107 70262 84522 333 59006 60051;
0201826780999992000030200004-06770-043020FM-12+013899999V0209999C000010075019N9999999N1+02401+02301101271ADDAA106000591AY161061AY221061GF105991051051008001001001KA1240M+03021MA1999999099681MD1999999-0041MW1021REMSYN088AAXX  02004 82678 215// 50000 10240 20230 39968 40127 70262 85500 333 10302 59004 69941;
0173826780999992000030212004-06770-043020FM-12+013899999V0209999C000010075019N0200001N1+02521+02331101441ADDAA124005191GF108991061051008001021001KA1240N+02401MA1999999099851MD1999999+0001REMSYN082AAXX  02124 82678 22598 80000 10252 20233 39985 40144 86520 333 20240 58000 60054;
0167826780999992000030218004-06770-043020FM-12+013899999V0200901N001012200019N0200001N1+03221+02261100831ADDAA199000091GF104991031021008001001021MA1999999099271MD1999999-0221REMSYN070AAXX  02184 82678 32598 40902 10322 20226 39927 40083 83202 333 59022;EQDQ01  00002PRCP99
0156826780999992000030300004-06770-043020FM-12+013899999V0200501N001519999999N0200001N1+99999+99999999999ADDAA199000091GF108991999999008001999999KA1240M+03291REMSYN075AAXX  03004 82678 32598 80503 1052 20231 39962 40121 8552/ 333 10329 59006;EQDQ01  00002PRCP99
0186826780999992000030312004-06770-043020FM-12+013899999V0200501N001010075019N0200001N1+02541+02351101361ADDAA199000091GF108991061051008001021999KA1240N+02201MA1999999099771MD1999999-0081REMSYN076AAXX  03124 82678 32598 80502 10254 20235 39977 40136 8652/ 333 20220 59008;EQDQ01  00002PRCP99
0182826780999992000030318004-06770-043020FM-12+013899999V0200501N002110075019N0200001N1+02831+02461101031ADDAA106021191AY161061AY221061GF107991051051008001071001MA1999999099451MD1999999+0181MW1031REMSYN082AAXX  03184 82678 21598 70504 10283 20246 39945 40103 70362 85570 333 58018 60211;
0196826780999992000030400004-06770-043020FM-12+013899999V0209999C000012200019N9999999N1+02561+02461101111ADDAA199000091GA1001+999999999GF100991001001999999001001KA1240M+02861MA1999999099531MD1999999-0091REMSYN070AAXX  04004 82678 329// 00000 10256 20246 39953 40111 333 10286 59009;EQDQ01  00002PRCP99
0167826780999992000030418004-06770-043020FM-12+013899999V0200901N000510075019N0200001N1+03181+02191101011ADDAA199000091GF105991051011008001001001MA1999999099451MD1999999+0001REMSYN070AAXX  04184 82678 32598 50901 10318 20219 39945 40101 85100 333 58000;EQDQ01  00002PRCP99
0196826780999992000030500004-06770-043020FM-12+013899999V0209999C000012200019N9999999N1+02701+02221101061ADDAA199000091GA1001+999999999GF100991001001999999001001KA1240M+03201MA1999999099481MD1999999-0051REMSYN070AAXX  05004 82678 329// 00000 10270 20222 39948 40106 333 10320 59005;EQDQ01  00002PRCP99
0186826780999992000030512004-06770-043020FM-12+013899999V0200901N001010450019N0200001N1+02581+02401101401ADDAA199000091GF108991041051008001021001KA1240N+02291MA1999999099821MD1999999+0011REMSYN076AAXX  05124 82678 32598 80902 10258 20240 39982 40140 84520 333 20229 58001;EQDQ01  00002PRCP99
0182826780999992000030518004-06770-043020FM-12+013899999V0200901N001510450019N0200001N1+03101+02361100981ADDAA106001091AY121061AY261061GF106991021021008001011001MA1999999099411MD1999999-0041MW1021REMSYN082AAXX  05184 82678 21598 60903 10310 20236 39941 40098 70226 82210 333 59004 69991;
0196826780999992000030600004-06770-043020FM-12+013899999V0209999C000012200019N9999999N1+02671+02461101131ADDAA199000091GA1001+999999999GF100991001001999999001001KA1240M+03211MA1999999099551MD1999999+0071REMSYN070AAXX  06004 82678 329// 00000 10267 20246 39955 40113 333 10321 58007;EQDQ01  00002PRCP99
0173826780999992000030612004-06770-043020FM-12+013899999V0201401N001510450019N0200001N1+02681+02201101431ADDAA124001091GF108991031041008001021999KA1240N+02281MA1999999099851MD1999999+0031REMSYN082AAXX  06124 82678 22598 81403 10268 20220 39985 40143 8342/ 333 20228 58003 69994;
0167826780999992000030618004-06770-043020FM-12+013899999V0201801N000511050019N0200001N1+02901+02151101031ADDAA199000091GF108991041021008001001021MA1999999099451MD1999999+0041REMSYN070AAXX  06184 82678 32598 81801 10290 20215 39945 40103 84202 333 58004;EQDQ01  00002PRCP99
0186826780999992000030712004-06770-043020FM-12+013899999V0200901N000512200019N0200001N1+02601+02271101281ADDAA199000091GF103991011011008001031011KA1240N+02101MA1999999099691MD1999999-0161REMSYN076AAXX  07124 82678 32598 30901 10260 20227 39969 40128 81131 333 20210 59016;EQDQ01  00002PRCP99
0167826780999992000030718004-06770-043020FM-12+013899999V0201401N000510450019N0200001N1+03201+02271100951ADDAA199000091GF107991041011008001031021MA1999999099381MD1999999-0071REMSYN070AAXX  07184 82678 32598 71401 10320 20227 39938 40095 84132 333 59007;EQDQ01  00002PRCP99
0186826780999992000030800004-06770-043020FM-12+013899999V0209999C000010075019N9999999N1+02621+02411100981ADDAA199000091GF105991051051008001001001KA1240M+03221MA1999999099401MD1999999-0251REMSYN076AAXX  08004 82678 325// 50000 10262 20241 39940 40098 85500 333 10322 59025;EQDQ01  00002PRCP99
0201826780999992000030812004-06770-043020FM-12+013899999V0200901N001510075019N0200001N1+02661+02371101271ADDAA124000891AY121061AY261061GF108991051011008001031021KA1240N+02441MA1999999099691MD1999999+0001MW1021REMSYN088AAXX  08124 82678 21598 80903 10266 20237 39969 40127 70226 85132 333 20244 58000 69974;
0167826780999992000030818004-06770-043020FM-12+013899999V0200501N000512200019N0200001N1+03221+02231100751ADDAA199000091GF103991021011008001001011MA1999999099191MD1999999-0191REMSYN070AAXX  08184 82678 32598 30501 10322 20223 39919 40075 82101 333 59019;EQDQ01  00002PRCP99
0173826780999992000030912004-06770-043020FM-12+013899999V0202701N000510450019N0200001N1+02561+02271101351ADDAA124033091GF108991031021008001021999KA1240N+02231MA1999999099761MD1999999+0071REMSYN082AAXX  09124 82678 22598 82701 10256 20227 39976 40135 8322/ 333 20223 58007 60334;
0167826780999992000030918004-06770-043020FM-12+013899999V0200501N002110450019N0200001N1+03161+02341100881ADDAA199000091GF108991031031008001011021MA1999999099311MD1999999+0121REMSYN070AAXX  09184 82678 32598 80504 10316 20234 39931 40088 83312 333 58012;EQDQ01  00002PRCP99
0220826780999992000031000004-06770-043020FM-12+013899999V0202701N002119999999N9999999N1+02451+02271101161ADDAA106004191AY121061AY221061GF108991999021008001001001KA1240M+03261MA1999999099571MD1999999+0011MW1291REMSYN088AAXX  10004 82678 215// 82704 10245 20227 39957 40116 72922 84200 333 10326 58001 60041;EQDQ01+000042SCOTLC
0201826780999992000031012004-06770-043020FM-12+013899999V0209999C000010075019N0200001N1+02521+02331101421ADDAA124007191AY121061AY261061GF107991061051008001001021KA1240N+02201MA1999999099831MD1999999+0071MW1021REMSYN088AAXX  10124 82678 21598 70000 10252 20233 39983 40142 70226 86502 333 20220 58007 60074;
0167826780999992000031018004-06770-043020FM-12+013899999V0209999C000010075019N0200001N1+03041+02381100931ADDAA199000091GF107991051051008001001021MA1999999099361MD1999999+0051REMSYN070AAXX  10184 82678 32598 70000 10304 20238 39936 40093 85502 333 58005;EQDQ01  00002PRCP99
0201826780999992000031100004-06770-043020FM-12+013899999V0200901N000510075019N9999999N1+02321+02291101231ADDAA106007991AY161061AY221061GF108991061051008001021999KA1240M+03161MA1999999099641MD1999999+0071MW1911REMSYN088AAXX  11004 82678 215// 80901 10232 20229 39964 40123 79162 8652/ 333 10316 58007 60081;
0201826780999992000031112004-06770-043020FM-12+013899999V0201401N001010075019N0200001N1+02541+02291101361ADDAA124016091AY121061AY261061GF108991071071008001001021KA1240N+02221MA1999999099701MD1999999-0061MW1021REMSYN088AAXX  11124 82678 21598 81402 10254 20229 39970 40136 70226 87702 333 20222 59006 60164;
0183826780999992000031118004-06770-043020FM-12+013899999V0200501N001019999999N0200001N1+03131+02281100871ADDAA199000091GF106991999021008001001001MA1999999099311MD1999999-0061REMSYN070AAXX  11184 82678 32598 60502 10313 20228 39931 40087 84200 333 59006;EQDQ01+000042SCOTLCQ02  00002PRCP99
0202826780999992000031200004-06770-043020FM-12+013899999V0209999C000012200019N9999999N1+02581+02441101051ADDAA199000091GF104991999011008001001001KA1240M+03241MA1999999099471MD1999999-0171REMSYN076AAXX  12004 82678 325// 40000 10258 20244 39947 40105 82100 333 10324 59017;EQDQ01+000022SCOTLCQ02  00002PRCP99
0201826780999992000031212004-06770-043020FM-12+013899999V0209999C000011050019N0200001N1+02641+02251101151ADDAA124020191AY161061AY221061GF106991021011008001001021KA1240N+02201MA1999999099571MD1999999-0201MW1021REMSYN088AAXX  12124 82678 21598 60000 10264 20225 39957 40115 70262 82102 333 20220 59020 60204;
0167826780999992000031218004-06770-043020FM-12+013899999V0209999C000011050019N0200001N1+03221+02201100731ADDAA199000091GF107991041021008001001021MA1999999099171MD1999999-0131REMSYN070AAXX  12184 82678 32598 70000 10322 20220 39917 40073 84202 333 59013;EQDQ01  00002PRCP99
0186826780999992000031300004-06770-043020FM-12+013899999V0209999C000010150019N9999999N1+02621+02461100971ADDAA199000091GF108991061001017501011021KA1240M+03281MA1999999099401MD1999999-0071REMSYN076AAXX  13004 82678 327// 80000 10262 20246 39940 40097 86012 333 10328 59007;EQDQ01  00002PRCP99
0201826780999992000031312004-06770-043020FM-12+013899999V0209999C000010075019N0200001N1+02321+02291101231ADDAA124011991AY121061AY261061GF108991051051008001021999KA1240N+02181MA1999999099641MD1999999+0071MW1611REMSYN088AAXX  13124 82678 21598 80000 10232 20229 39964 40123 76126 8552/ 333 20218 58007 60124;
0167826780999992000031318004-06770-043020FM-12+013899999V02099999999999999999N0200001N1+02981+02351100791ADDAA199000021GF107991999021008001001001MA1999999099231MD1999999+0061REMSYN070AAXX  13184 82678 32598 732// 10298 20235 39923 40079 84200 333 58006;EQDQ01+000042SCOTLC
0186826780999992000031400004-06770-043020FM-12+013899999V0209999C000019999999N9999999N1+02581+02461101041ADDAA199000021GF108991999021017501001001KA1240M+03021MA1999999099451MD1999999+0051REMSYN076AAXX  14004 82678 327// 80000 10258 20246 39945 40104 84200 333 10302 58005;EQDQ01+000042SCOTLC
0201826780999992000031412004-06770-043020FM-12+013899999V0209999C000010075019N0200001N1+02201+02121101431ADDAA124077091AY161061AY221061GF108991051051008001021999KA1240N+02101MA1999999099831MD1999999+0191MW1611REMSYN088AAXX  14124 82678 21598 80000 10220 20212 39983 40143 76162 8552/ 333 20210 58019 60774;
0182826780999992000031418004-06770-043020FM-12+013899999V0209999C000010450019N0200001N1+02501+02251100981ADDAA106001091AY121061AY261061GF108991041051008001021011MA1999999099391MD1999999+0161MW1611REMSYN082AAXX  14184 82678 21598 80000 10250 20225 39939 40098 76126 84521 333 58016 60011;
0167826780999992000031500004-06770-043020FM-12+013899999V0209999C000010450019N9999999N1+02401+02281101201ADDAA199000021GF108991041031008001041001KA1240M+02741MA1999999099601MD1999999+0151REMSYN076AAXX  15004 82678 325// 80000 10240 20228 39960 40120 84340 333 10274 58015;
0182826780999992000031518004-06770-043020FM-12+013899999V0201401N001010075019N0200001N1+03091+02421100841ADDAA106000191AY121061AY261061GF108991061071008001021999MA1999999099271MD1999999-0121MW1291REMSYN082AAXX  15184 82678 21598 81402 10309 20242 39927 40084 72926 8672/ 333 59012 69911;
0186826780999992000031600004-06770-043020FM-12+013899999V0209999C000010150019N9999999N1+02441+02411101161ADDAA199000091GF108991081051017501999999KA1240M+03121MA1999999099571MD1999999-0031REMSYN076AAXX  16004 82678 327// 80000 10244 20241 39957 40116 885// 333 10312 59003;EQDQ01  00002PRCP99
0173826780999992000031612004-06770-043020FM-12+013899999V0209999C000010075019N0200001N1+02561+02401101311ADDAA124000191GF108991071051008001031999KA1240N+02221MA1999999099721MD1999999-0021REMSYN082AAXX  16124 82678 22598 80000 10256 20240 39972 40131 8753/ 333 20222 59002 69914;
0167826780999992000031618004-06770-043020FM-12+013899999V0200501N000510075019N0200001N1+03141+02241100861ADDAA199000091GF107991051051008001031011MA1999999099291MD1999999+0021REMSYN070AAXX  16184 82678 32598 70501 10314 20224 39929 40086 85531 333 58002;EQDQ01  00002PRCP99
0201826780999992000031700004-06770-043020FM-12+013899999V0209999C000010075019N0200001N1+02501+02361100981ADDAA106007191AY161061AY221061GF108991081051008001999999KA1240M+03181MA1999999099401MD1999999-0171MW1031REMSYN088AAXX  17004 82678 21598 80000 10250 20236 39940 40098 70362 885// 333 10318 59017 60071;
0173826780999992000031712004-06770-043020FM-12+013899999V0201801N001010075019N0200001N1+02561+02351101281ADDAA124003091GF108991061051008001021999KA1240N+02321MA1999999099691MD1999999-0031REMSYN082AAXX  17124 82678 21598 81802 10256 20235 39969 40128 8652/ 333 20232 59003 60034;
0167826780999992000031718004-06770-043020FM-12+013899999V0200901N001010075019N0200001N1+03081+02211100731ADDAA199000091GF108991051021008001001011MA1999999099171MD1999999-0121REMSYN070AAXX  17184 82678 32598 80902 10308 20221 39917 40073 85201 333 59012;EQDQ01  00002PRCP99
0220826780999992000031800004-06770-043020FM-12+013899999V0209999C000010075019N0200001N1+02481+02341100891ADDAA106002091AY121061AY261061GF108991999021008001001001KA1240M+03211MA1999999099311MD1999999-0091MW1021REMSYN088AAXX  18004 82678 21598 80000 10248 20234 39931 40089 70226 86200 333 10321 59009 60021;EQDQ01+000062SCOTLC
0173826780999992000031812004-06770-043020FM-12+013899999V0200901N001012200019N0200001N1+02661+02331101131ADDAA124002091GF104991021021008001031021KA1240N+02181MA1999999099551MD1999999-0141REMSYN082AAXX  18124 82678 22598 40902 10266 20233 39955 40113 82232 333 20218 59014 60024;
0167826780999992000031818004-06770-043020FM-12+013899999V0200901N002612200019N0200001N1+03181+02131100671ADDAA199000091GF103991021021008001001021MA1999999099111MD1999999-0061REMSYN070AAXX  18184 82678 32598 30905 10318 20213 39911 40067 82202 333 59006;EQDQ01  00002PRCP99
0196826780999992000031900004-06770-043020FM-12+013899999V0201401N000512200019N9999999N1+02581+02381100851ADDAA199000091GA1001+999999999GF100991001001999999001001KA1240M+03241MA1999999099271MD1999999-0041REMSYN070AAXX  19004 82678 329// 01401 10258 20238 39927 40085 333 10324 59004;EQDQ01  00002PRCP99
0186826780999992000031912004-06770-043020FM-12+013899999V0200501N001010450019N0200001N1+02581+02271101061ADDAA199000091GF106991031021008001031001KA1240N+02221MA1999999099501MD1999999-0051REMSYN076AAXX  19124 82678 32598 60502 10258 20227 39950 40106 83230 333 20222 59005;EQDQ01  00002PRCP99
0167826780999992000031918004-06770-043020FM-12+013899999V0200501N000511050019N0200001N1+03101+02261100751ADDAA199000091GF105991021011008001011031MA1999999099181MD1999999+0071REMSYN070AAXX  19184 82678 32598 50501 10310 20226 39918 40075 82113 333 58007;EQDQ01  00002PRCP99
0202826780999992000032000004-06770-043020FM-12+013899999V0209999C000012200019N9999999N1+02601+02401100951ADDAA199000091GF103991999011017501001001KA1240M+03181MA1999999099371MD1999999+0101REMSYN076AAXX  20004 82678 327// 30000 10260 20240 39937 40095 82100 333 10318 58010;EQDQ01+000022SCOTLCQ02  00002PRCP99
0201826780999992000032012004-06770-043020FM-12+013899999V0201801N000512200019N0200001N1+02621+02251101241ADDAA124052191AY161061AY221061GF104991021011008001001011KA1240N+02041MA1999999099661MD1999999+0161MW1021REMSYN088AAXX  20124 82678 21598 41801 10262 20225 39966 40124 70262 82101 333 20204 58016 60524;
0167826780999992000032018004-06770-043020FM-12+013899999V0209999C000012200019N0200001N1+03121+02361100781ADDAA199000091GF105991031021008001001011MA1999999099211MD1999999+0031REMSYN070AAXX  20184 82678 32598 50000 10312 20236 39921 40078 83201 333 58003;EQDQ01  00002PRCP99
0196826780999992000032100004-06770-043020FM-12+013899999V0209999C000012200019N9999999N1+02641+02521100981ADDAA199000091GA1001+999999999GF100991001001999999001001KA1240M+03081MA1999999099411MD1999999+0041REMSYN070AAXX  21004 82678 329// 00000 10264 20252 39941 40098 333 10308 58004;EQDQ01  00002PRCP99
0201826780999992000032112004-06770-043020FM-12+013899999V0201401N000510075019N0200001N1+02301+02221101101ADDAA124007191AY121061AY261061GF108991061051008001021999KA1240N+02141MA1999999099511MD1999999-0151MW1291REMSYN088AAXX  21124 82678 21598 81401 10230 20222 39951 40110 72926 8652/ 333 20214 59015 60074;
0182826780999992000032118004-06770-043020FM-12+013899999V0209999C000010450019N0200001N1+03021+02461100761ADDAA106000591AY161061AY221061GF107991031081008001021021MA1999999099201MD1999999-0011MW1021REMSYN082AAXX  21184 82678 21598 70000 10302 20246 39920 40076 70262 83822 333 59001 69961;
0202826780999992000032200004-06770-043020FM-12+013899999V0201401N000519999999N9999999N1+02501+02361101011ADDAA199000091GF107991999021017501001001KA1240M+03101MA1999999099421MD1999999+0011REMSYN076AAXX  22004 82678 327// 71401 10250 20236 39942 40101 83200 333 10310 58001;EQDQ01+000032SCOTLCQ02  00002PRCP99
0173826780999992000032212004-06770-043020FM-12+013899999V0200901N001512200019N0200001N1+02641+02141101221ADDAA124000591GF103991011011008001031011KA1240N+02121MA1999999099641MD1999999+0131REMSYN082AAXX  22124 82678 22598 30903 10264 20214 39964 40122 81131 333 20212 58013 69964;
0167826780999992000032218004-06770-043020FM-12+013899999V0200901N001512200019N0200001N1+03141+02031100881ADDAA199000091GF104991041021008001001001MA1999999099311MD1999999+0111REMSYN070AAXX  22184 82678 32598 40903 10314 20203 39931 40088 84200 333 58011;EQDQ01  00002PRCP99
0186826780999992000032300004-06770-043020FM-12+013899999V0209999C000010150019N9999999N1+02561+02351100901ADDAA199000091GF105991051001017501031001KA1240M+03201MA1999999099321MD1999999-0101REMSYN076AAXX  23004 82678 327// 50000 10256 20235 39932 40090 85030 333 10320 59010;EQDQ01  00002PRCP99
0186826780999992000032312004-06770-043020FM-12+013899999V0200901N004112200019N0200001N1+02781+02131101201ADDAA199000091GF103991021011008001001011KA1240N+02081MA1999999099621MD1999999-0021REMSYN076AAXX  23124 82678 32598 30908 10278 20213 39962 40120 82101 333 20208 59002;EQDQ01  00002PRCP99
0167826780999992000032318004-06770-043020FM-12+013899999V0201401N002610075019N0200001N1+03171+02141100831ADDAA199000091GF105991051021008001001001MA1999999099261MD1999999-0051REMSYN070AAXX  23184 82678 32598 51405 10317 20214 39926 40083 85200 333 59005;EQDQ01  00002PRCP99
0201826780999992000032400004-06770-043020FM-12+013899999V0200901N002110075019N9999999N1+02541+02351101051ADDAA106000591AY161061AY221061GF106991061021008001001001KA1240M+03201MA1999999099471MD1999999+0151MW1021REMSYN088AAXX  24004 82678 215// 60904 10254 20235 39947 40105 70262 86200 333 10320 58015 69951;
0167826780999992000032418004-06770-043020FM-12+013899999V0201401N001510075019N0200001N1+03161+02321100901ADDAA199000091GF108991051021008001001011MA1999999099331MD1999999+0071REMSYN070AAXX  24184 82678 32598 81403 10316 20232 39933 40090 85201 333 58007;EQDQ01  00002PRCP99
0186826780999992000032500004-06770-043020FM-12+013899999V0209999C000010150019N9999999N1+02611+02241101041ADDAA199000091GF106991061001017501021001KA1240M+03211MA1999999099461MD1999999-0011REMSYN076AAXX  25004 82678 327// 60000 10261 20224 39946 40104 86020 333 10321 59001;EQDQ01  00002PRCP99
0186826780999992000032512004-06770-043020FM-12+013899999V0200901N001511050019N0200001N1+02801+02251101221ADDAA199000091GF105991021011008001001021KA1240N+02221MA1999999099651MD1999999-0071REMSYN076AAXX  25124 82678 32598 50903 10280 20225 39965 40122 82102 333 20222 59007;EQDQ01  00002PRCP99
0167826780999992000032518004-06770-043020FM-12+013899999V0201401N001511050019N0200001N1+03101+02181100911ADDAA199000091GF105991031021008001001021MA1999999099341MD1999999+0011REMSYN070AAXX  25184 82678 32598 51403 10310 20218 39934 40091 83202 333 58001;EQDQ01  00002PRCP99
0196826780999992000032600004-06770-043020FM-12+013899999V0209999C000012200019N9999999N1+02681+02451100981ADDAA199000091GA1001+999999999GF100991001001999999001001KA1240M+03181MA1999999099411MD1999999-0051REMSYN070AAXX  26004 82678 329// 00000 10268 20245 39941 40098 333 10318 59005;EQDQ01  00002PRCP99
0202826780999992000032612004-06770-043020FM-12+013899999V0200901N001519999999N0200001N1+02681+02331101161ADDAA199000091GF106991999021008001001001KA1240N+02241MA1999999099591MD1999999-0061REMSYN076AAXX  26124 82678 32598 60903 10268 20233 39959 40116 84200 333 20224 59006;EQDQ01+000042SCOTLCQ02  00002PRCP99
0183826780999992000032618004-06770-043020FM-12+013899999V0201401N001019999999N0200001N1+03241+02391100701ADDAA199000091GF105991999021008001001001MA1999999099141MD1999999-0201REMSYN070AAXX  26184 82678 32598 51402 10324 20239 39914 40070 83200 333 59020;EQDQ01+000032SCOTLCQ02  00002PRCP99
0173826780999992000032712004-06770-043020FM-12+013899999V0200901N001510075019N0200001N1+02591+02291101221ADDAA124007191GF108991051041008001011021KA1240N+02221MA1999999099631MD1999999+0041REMSYN082AAXX  27124 82678 22598 80903 10259 20229 39963 40122 85412 333 20222 58004 60074;
0167826780999992000032718004-06770-043020FM-12+013899999V0202301N001510450019N0200001N1+03161+02291100691ADDAA199000091GF108991031031008001031021MA1999999099131MD1999999-0011REMSYN070AAXX  27184 82678 32598 82303 10316 20229 39913 40069 83332 333 59001;EQDQ01  00002PRCP99
0201826780999992000032800004-06770-043020FM-12+013899999V0203601N000510075019N9999999N1+02421+02331101091ADDAA106006191AY161061AY221061GF108991081051008001999999KA1240M+03221MA1999999099501MD1999999-0051MW1021REMSYN088AAXX  28004 82678 215// 83601 10242 20233 39950 40109 70262 885// 333 10322 59005 60061;
0193826780999992000032812004-06770-043020FM-12+013899999V0203601N000510075019N0200001N1+02421+02281101361ADDAA124007191AY161061GF108991071051008001021001KA1240N+02201MA1999999099761MD1999999+0131MW1031REMSYN088AAXX  28124 82678 21598 83601 10242 20228 39976 40136 7036/ 87520 333 20220 58013 60074;
0167826780999992000032818004-06770-043020FM-12+013899999V0200501N000510075019N0200001N1+03021+02411100911ADDAA199000091GF108991061051008001031999MA1999999099341MD1999999+0211REMSYN070AAXX  28184 82678 32598 80501 10302 20241 39934 40091 8653/ 333 58021;EQDQ01  00002PRCP99
0186826780999992000032900004-06770-043020FM-12+013899999V0200901N000510075019N9999999N1+02471+02391101081ADDAA199000091GF105991051041008001001001KA1240M+03081MA1999999099491MD1999999-0011REMSYN076AAXX  29004 82678 325// 50901 10247 20239 39949 40108 85400 333 10308 59001;EQDQ01  00002PRCP99
0186826780999992000032912004-06770-043020FM-12+013899999V0200901N001010075019N0200001N1+02601+02391101261ADDAA199000091GF108991061051008001021999KA1240N+02291MA1999999099661MD1999999-0101REMSYN076AAXX  29124 82678 32598 80902 10260 20239 39966 40126 8652/ 333 20229 59010;EQDQ01  00002PRCP99
0182826780999992000032918004-06770-043020FM-12+013899999V0200901N001510075019N0200001N1+03021+02361100921ADDAA106000891AY161061AY221061GF108991051021008001001021MA1999999099351MD1999999+0011MW1031REMSYN082AAXX  29184 82678 21598 80903 10302 20236 39935 40092 70362 85202 333 58001 69981;
0202826780999992000033000004-06770-043020FM-12+013899999V0203601N001019999999N9999999N1+02461+02321101191ADDAA199000091GF106991999041008001001001KA1240M+03081MA1999999099611MD1999999+0021REMSYN076AAXX  30004 82678 325// 63602 10246 20232 39961 40119 82400 333 10308 58002;EQDQ01+000022SCOTLCQ02  00002PRCP99
0173826780999992000033012004-06770-043020FM-12+013899999V0203601N001510075019N0200001N1+02421+02191101311ADDAA124000891GF108991081071008001999999KA1240N+02181MA1999999099721MD1999999+0061REMSYN082AAXX  30124 82678 22598 83603 10242 20219 39972 40131 887// 333 20218 58006 69984;
0167826780999992000033018004-06770-043020FM-12+013899999V0202701N001511050019N0200001N1+02921+02241100901ADDAA199000091GF105991031031008001001021MA1999999099321MD1999999-0031REMSYN070AAXX  30184 82678 32598 52703 10292 20224 39932 40090 83302 333 59003;EQDQ01  00002PRCP99
0186826780999992000033100004-06770-043020FM-12+013899999V0200901N000512200019N9999999N1+02461+02371101151ADDAA199000091GF104991041021008001001001KA1240M+03001MA1999999099561MD1999999-0051REMSYN076AAXX  31004 82678 325// 40901 10246 20237 39956 40115 84200 333 10300 59005;EQDQ01  00002PRCP99
0186826780999992000033112004-06770-043020FM-12+013899999V0201401N000510450019N0200001N1+02501+02271101301ADDAA199000091GF106991021011008001031021KA1240N+02141MA1999999099711MD1999999-0011REMSYN076AAXX  31124 82678 32598 61401 10250 20227 39971 40130 82132 333 20214 59001;EQDQ01  00002PRCP99
0167826780999992000033118004-06770-043020FM-12+013899999V0200901N001010075019N0200001N1+03101+02311100931ADDAA199000091GF106991051051008001031001MA1999999099361MD1999999+0041REMSYN070AAXX  31184 82678 32598 60902 10310 20231 39936 40093 85530 333 58004;EQDQ01  00002PRCP99
0202826780999992000040100004-06770-043020FM-12+013899999V0200901N001510075019N9999999N1+02541+02351101151ADDAA199000091GF108991999021008001001001KA1240M+03201MA1999999099561MD1999999+0001REMSYN076AAXX  01004 82678 325// 80903 10254 20235 39956 40115 86200 333 10320 58000;EQDQ01+000062SCOTLCQ02  00002PRCP99
0201826780999992000040112004-06770-043020FM-12+013899999V0200901N001510450019N0200001N1+02561+02351101351ADDAA124003091AY161061AY211061GF108991041021008001031021KA1240N+02241MA1999999099781MD1999999+0071MW1021REMSYN088AAXX  01124 82678 21598 80903 10256 20235 39978 40135 70261 84232 333 20224 58007 60034;
0182826780999992000040118004-06770-043020FM-12+013899999V0200501N000510075019N0200001N1+02581+02271100931ADDAA106000391AY161061AY211061GF108991051051008001021999MA1999999099251MD1999999-0011MW1021REMSYN082AAXX  01184 82678 21598 80501 10258 20227 39925 40093 70261 8552/ 333 59001 69931;
0201826780999992000040200004-06770-043020FM-12+013899999V0209999C000010075019N9999999N1+02421+02371101331ADDAA106006191AY161061AY211061GF108991061051008001021999KA1240M+03121MA1999999099741MD1999999+0181MW1611REMSYN088AAXX  02004 82678 215// 80000 10242 20237 39974 40133 76161 8652/ 333 10312 58018 60061;
0201826780999992000040212004-06770-043020FM-12+013899999V0200901N001012200019N0200001N1+02501+02291101441ADDAA124013091AY161061AY221061GF105991031021008001001011KA1240N+02141MA1999999099851MD1999999+0071MW1031REMSYN088AAXX  02124 82678 21598 50902 10250 20229 39985 40144 70362 83201 333 20214 58007 60134;
0182826780999992000040218004-06770-043020FM-12+013899999V0200501N000510075019N0200001N1+02461+02321101071ADDAA106019191AY121061AY221061GF108991061071008001021011MA1999999099481MD1999999+0131MW1291REMSYN082AAXX  02184 82678 21598 80501 10246 20232 39948 40107 72922 86721 333 58013 60191;
0186826780999992000040300004-06770-043020FM-12+013899999V0209999C000012200019N9999999N1+02361+02311101291ADDAA199000091GF104991041041008001001001KA1240M+03061MA1999999099701MD1999999-0041REMSYN076AAXX  03004 82678 325// 40000 10236 20231 39970 40129 84400 333 10306 59004;EQDQ01  00002PRCP99
0173826780999992000040312004-06770-043020FM-12+013899999V0203601N000510075019N0200001N1+02461+02361101451ADDAA124019191GF107991071051008001001001KA1240N+02161MA1999999099851MD1999999+0001REMSYN082AAXX  03124 82678 22598 73601 10246 20236 39985 40145 87500 333 20216 58000 60194;
0167826780999992000040318004-06770-043020FM-12+013899999V0200901N001511050019N0200001N1+03061+02301101041ADDAA199000091GF105991031021008001001021MA1999999099471MD1999999-0011REMSYN070AAXX  03184 82678 32598 50903 10306 20230 39947 40104 83202 333 59001;EQDQ01  00002PRCP99
0196826780999992000040400004-06770-043020FM-12+013899999V0209999C000012200019N9999999N1+02601+02391101201ADDAA199000091GA1001+999999999GF100991001001999999001001KA1240M+03161MA1999999099621MD1999999-0081REMSYN070AAXX  04004 82678 325// 00000 10260 20239 39962 40120 333 10316 59008;EQDQ01  00002PRCP99
0186826780999992000040412004-06770-043020FM-12+013899999V0200901N002110450019N0200001N1+02721+02191101401ADDAA199000091GF105991031031008001021011KA1240N+02151MA1999999099821MD1999999-0031REMSYN076AAXX  04124 82678 32598 50904 10272 20219 39982 40140 83321 333 20215 59003;EQDQ01  00002PRCP99
0167826780999992000040418004-06770-043020FM-12+013899999V0200901N003112200019N0200001N1+03181+02251101021ADDAA199000091GF104991021021008001001021MA1999999099451MD1999999-0021REMSYN070AAXX  04184 82678 32598 40906 10318 20225 39945 40102 82202 333 59002;EQDQ01  00002PRCP99
0196826780999992000040500004-06770-043020FM-12+013899999V0209999C000012200019N0200001N1+02561+02381101181ADDAA199000091GA1001+999999999GF100991001001999999001001KA1240M+03211MA1999999099601MD1999999-0021REMSYN070AAXX  05004 82678 32998 00000 10256 20238 39960 40118 333 10321 59002;EQDQ01  00002PRCP99
0186826780999992000040512004-06770-043020FM-12+013899999V0201401N002610450019N0200001N1+02741+02211101441ADDAA199000091GF106991041021008001041011KA1240N+02171MA1999999099861MD1999999+0041REMSYN076AAXX  05124 82678 32598 61405 10274 20221 39986 40144 84241 333 20217 58004;EQDQ01  00002PRCP99
0167826780999992000040518004-06770-043020FM-12+013899999V0201401N003611050019N0200001N1+03181+02191100991ADDAA199000091GF105991041021008001001021MA1999999099421MD1999999-0031REMSYN070AAXX  05184 82678 32598 51407 10318 20219 39942 40099 84202 333 59003;EQDQ01  00002PRCP99
0196826780999992000040600004-06770-043020FM-12+013899999V0201801N001012200019N9999999N1+02561+02361101201ADDAA199000091GA1001+999999999GF100991001001999999001001KA1240M+03211MA1999999099621MD1999999+0021REMSYN070AAXX  06004 82678 329// 01802 10256 20236 39962 40120 333 10321 58002;EQDQ01  00002PRCP99
0186826780999992000040612004-06770-043020FM-12+013899999V0201401N004611050019N0200001N1+02751+02191101381ADDAA199000091GF105991031011008001001021KA1240N+02151MA1999999099801MD1999999-0061REMSYN076AAXX  06124 82678 32598 51409 10275 20219 39980 40138 83102 333 20215 59006;EQDQ01  00002PRCP99
0167826780999992000040618004-06770-043020FM-12+013899999V0201401N003110075019N0200001N1+03181+02391100971ADDAA199000091GF106991051041008001001021MA1999999099401MD1999999-0021REMSYN070AAXX  06184 82678 32598 61406 10318 20239 39940 40097 85402 333 59002;EQDQ01  00002PRCP99
0196826780999992000040700004-06770-043020FM-12+013899999V0209999C000012200019N9999999N1+02571+02331101101ADDAA199000091GA1001+999999999GF100991001001999999001001KA1240M+03211MA1999999099521MD1999999-0101REMSYN070AAXX  07004 82678 329// 00000 10257 20233 39952 40110 333 10321 59010;EQDQ01  00002PRCP99
0201826780999992000040712004-06770-043020FM-12+013899999V0201401N001510450019N0200001N1+02601+02211101241ADDAA124002091AY121061AY261061GF107991041051008001031001KA1240N+02241MA1999999099661MD1999999-0141MW1021REMSYN088AAXX  07124 82678 21598 71403 10260 20221 39966 40124 70226 84530 333 20224 59014 60024;
0182826780999992000040718004-06770-043020FM-12+013899999V0200901N002610075019N0200001N1+02761+02401101031ADDAA106000591AY161061AY221061GF108991061051008001021999MA1999999099451MD1999999+0051MW1031REMSYN082AAXX  07184 82678 21598 80905 10276 20240 39945 40103 70362 8652/ 333 58005 69951;
0186826780999992000040800004-06770-043020FM-12+013899999V0202301N000510075019N9999999N1+02561+02471101151ADDAA199000091GF108991051051008001021999KA1240M+03021MA1999999099571MD1999999+0051REMSYN076AAXX  08004 82678 325// 82301 10256 20247 39957 40115 8552/ 333 10302 58005;EQDQ01  00002PRCP99
0173826780999992000040812004-06770-043020FM-12+013899999V0209999C000010450019N0200001N1+02501+02341101331ADDAA124000591GF108991041051008001021011KA1240N+02201MA1999999099741MD1999999+0081REMSYN082AAXX  08124 82678 22598 80000 10250 20234 39974 40133 84521 333 20220 58008 69954;
0167826780999992000040818004-06770-043020FM-12+013899999V0201401N001511050019N0200001N1+03141+02551100911ADDAA199000091GF106991041021008001001021MA1999999099341MD1999999-0111REMSYN070AAXX  08184 82678 32598 61403 10314 20255 39934 40091 84202 333 59011;EQDQ01  00002PRCP99
0196826780999992000040900004-06770-043020FM-12+013899999V0209999C000012200019N9999999N1+02601+02501101071ADDAA199000091GA1001+999999999GF100991001001999999001001KA1240M+03211MA1999999099491MD1999999-0081REMSYN070AAXX  09004 82678 329// 00000 10260 20250 39949 40107 333 10321 59008;EQDQ01  00002PRCP99
0186826780999992000040912004-06770-043020FM-12+013899999V0201401N000512200019N0200001N1+02641+02161101321ADDAA199000091GF103991011011008001031011KA1240N+02181MA1999999099741MD1999999+0001REMSYN076AAXX  09124 82678 32598 31401 10264 20216 39974 40132 81131 333 20218 58000;EQDQ01  00002PRCP99
0167826780999992000040918004-06770-043020FM-12+013899999V0201401N002610450019N0200001N1+03221+02171100741ADDAA199000091GF106991031021008001021011MA1999999099191MD1999999-0151REMSYN070AAXX  09184 82678 32598 61405 10322 20217 39919 40074 83221 333 59015;EQDQ01  00002PRCP99
0201826780999992000041000004-06770-043020FM-12+013899999V0209999C000010075019N9999999N1+02341+02221101121ADDAA106002091AY121061AY261061GF108991081041008001999999KA1240M+03251MA1999999099531MD1999999+0041MW1021REMSYN088AAXX  10004 82678 215// 80000 10234 20222 39953 40112 70226 884// 333 10325 58004 60021;
0201826780999992000041012004-06770-043020FM-12+013899999V0200901N000510450019N0200001N1+02431+02321101331ADDAA124030091AY161061AY251061GF108991041041008001031021KA1240N+02071MA1999999099731MD1999999-0011MW1021REMSYN088AAXX  10124 82678 21598 80901 10243 20232 39973 40133 70265 84432 333 20207 59001 60304;
0182826780999992000041018004-06770-043020FM-12+013899999V0200501N001010075019N0200001N1+02591+02401100961ADDAA106000191AY121061AY251061GF108991061071008001021999MA1999999099371MD1999999+0181MW1021REMSYN082AAXX  10184 82678 21598 80502 10259 20240 39937 40096 70225 8672/ 333 58018 69911;
0186826780999992000041100004-06770-043020FM-12+013899999V0201401N000510450019N9999999N1+02411+02301101191ADDAA199000091GF108991041051008001021999KA1240M+02971MA1999999099601MD1999999+0071REMSYN076AAXX  11004 82678 325// 81401 10241 20230 39960 40119 8452/ 333 10297 58007;EQDQ01  00002PRCP99
0201826780999992000041112004-06770-043020FM-12+013899999V0209999C000010075019N0200001N1+02421+02331101391ADDAA124001091AY121061AY261061GF108991061051008001021999KA1240N+02301MA1999999099791MD1999999+0061MW1031REMSYN088AAXX  11124 82678 21598 80000 10242 20233 39979 40139 70326 8652/ 333 20230 58006 60014;
0167826780999992000041118004-06770-043020FM-12+013899999V0200901N002610450019N0200001N1+03061+02351100931ADDAA199000091GF105991031021008001071021MA1999999099361MD1999999-0011REMSYN070AAXX  11184 82678 32598 50905 10306 20235 39936 40093 83272 333 59001;EQDQ01  00002PRCP99
0180826780999992000041200004-06770-043020FM-12+013899999V0201401N001012200019N9999999N1+02561+02461101061ADDAA199000091GF103991999999999999999999KA1240M+03131MA1999999099481MD1999999-0121REMSYN070AAXX  12004 82678 329// 31402 10256 20246 39948 40106 333 10313 59012;EQDQ01  00002PRCP99
0186826780999992000041212004-06770-043020FM-12+013899999V0201401N001010075019N0200001N1+02641+02311101301ADDAA199000091GF108991051021008001001021KA1240N+02241MA1999999099721MD1999999-0071REMSYN076AAXX  12124 82678 32598 81402 10264 20231 39972 40130 85202 333 20224 59007;EQDQ01  00002PRCP99
0167826780999992000041218004-06770-043020FM-12+013899999V0201401N001512200019N0200001N1+03161+02341100771ADDAA199000091GF106991041021008001001011MA1999999099211MD1999999-0151REMSYN070AAXX  12184 82678 32598 61403 10316 20234 39921 40077 84201 333 59015;EQDQ01  00002PRCP99
0186826780999992000041300004-06770-043020FM-12+013899999V0200901N003610075019N0200001N1+02661+02241101121ADDAA199000091GF108991051051008001021999KA1240M+03211MA1999999099551MD1999999+0071REMSYN076AAXX  13004 82678 32598 80907 10266 20224 39955 40112 8552/ 333 10321 58007;EQDQ01  00002PRCP99
0201826780999992000041312004-06770-043020FM-12+013899999V0201401N001010075019N0200001N1+02301+02251101411ADDAA124029091AY191061AY261061GF108991061051008001021999KA1240N+02201MA1999999099821MD1999999+0101MW1211REMSYN088AAXX  13124 82678 21598 81402 10230 20225 39982 40141 72196 8652/ 333 20220 58010 60294;
0148826780999992000041318004-06770-043020FM-12+013899999V0200901N001510450019N0200001N1+02811+02381100891ADDAA199000021GF108991031041008001011021MA1999999099311MD1999999+0101REMSYN070AAXX  13184 82678 32598 80903 10281 20238 39931 40089 83412 333 58010;
0167826780999992000041400004-06770-043020FM-12+013899999V0209999C000012200019N9999999N1+02481+02391101121ADDAA199000021GF106991021001017501031011KA1240M+02871MA1999999099531MD1999999-0021REMSYN076AAXX  14004 82678 327// 60000 10248 20239 39953 40112 82031 333 10287 59002;
0201826780999992000041412004-06770-043020FM-12+013899999V0209999C000010075019N0200001N1+02341+02311101491ADDAA124055991AY161061AY261061GF108991081071008001999999KA1240N+02141MA1999999099891MD1999999+0071MW1601REMSYN088AAXX  14124 82678 21598 80000 10234 20231 39989 40149 76066 887// 333 20214 58007 60564;
0182826780999992000041418004-06770-043020FM-12+013899999V0209999C000010450019N0200001N1+02661+02461101071ADDAA106000591AY161061AY251061GF108991041051008001021999MA1999999099491MD1999999+0181MW1021REMSYN082AAXX  14184 82678 21598 80000 10266 20246 39949 40107 70265 8452/ 333 58018 69961;
0167826780999992000041500004-06770-043020FM-12+013899999V0200901N001510450019N9999999N1+02441+02321101321ADDAA199000021GF108991021041008001021999KA1240M+02761MA1999999099721MD1999999+0191REMSYN076AAXX  15004 82678 325// 80903 10244 20232 39972 40132 8242/ 333 10276 58019;
0173826780999992000041512004-06770-043020FM-12+013899999V0209999C000012200019N0200001N1+02601+02371101521ADDAA124000591GF104991021011008001001021KA1240N+02181MA1999999099931MD1999999+0041REMSYN082AAXX  15124 82678 22598 40000 10260 20237 39993 40152 82102 333 20218 58004 69964;
0167826780999992000041518004-06770-043020FM-12+013899999V0200501N001510450019N0200001N1+02941+02431101081ADDAA199000091GF108991041031008001041021MA1999999099501MD1999999+0011REMSYN070AAXX  15184 82678 32598 80503 10294 20243 39950 40108 84342 333 58001;EQDQ01  00002PRCP99
0186826780999992000041600004-06770-043020FM-12+013899999V0209999C000012200019N9999999N1+02571+02321101341ADDAA199000091GF104991011001017501031021KA1240M+03121MA1999999099761MD1999999+0041REMSYN076AAXX  16004 82678 327// 40000 10257 20232 39976 40134 81032 333 10312 58004;EQDQ01  00002PRCP99
0187826780999992000041612004-06770-043020FM-12+013899999V0200901N000519999999N0200001N1+02421+02281101611ADDGF108991999031008001021061KA1240N+02141MA1999999100021MD1999999+0091REMSYN088AAXX  16124 82678 21598 80901 10242 20228 30002 40161 80326 8672/ 333 20214 58009 60044;EQDQ01+000002SCOTLC
0167826780999992000041618004-06770-043020FM-12+013899999V0201401N001011050019N0200001N1+03111+02391101001ADDAA199000091GF106991021021008001001021MA1999999099431MD1999999-0071REMSYN070AAXX  16184 82678 32598 61402 10311 20239 39943 40100 82202 333 59007;EQDQ01  00002PRCP99
0186826780999992000041700004-06770-043020FM-12+013899999V0209999C000012200019N9999999N1+02541+02441101181ADDAA199000091GF102991011001017501031011KA1240M+03141MA1999999099591MD1999999-0171REMSYN076AAXX  17004 82678 327// 20000 10254 20244 39959 40118 81031 333 10314 59017;EQDQ01  00002PRCP99
0201826780999992000041712004-06770-043020FM-12+013899999V0200501N000510075019N0200001N1+02301+02251101581ADDAA124016091AY161061AY221061GF108991051051008001021999KA1240N+02141MA1999999099981MD1999999-0041MW1611REMSYN088AAXX  17124 82678 21598 80501 10230 20225 39998 40158 76162 8552/ 333 20214 59004 60164;
0182826780999992000041718004-06770-043020FM-12+013899999V0201401N000510075019N0200001N1+02861+02391101041ADDAA106003091AY161061AY221061GF108991061051008001031999MA1999999099461MD1999999+0031MW1021REMSYN082AAXX  17184 82678 21598 81401 10286 20239 39946 40104 70262 8653/ 333 58003 60031;
0167826780999992000041800004-06770-043020FM-12+013899999V0200501N000512200019N9999999N1+02481+02411101191ADDAA199000021GF104991041001017501031001KA1240M+02921MA1999999099601MD1999999+0011REMSYN076AAXX  18004 82678 327// 40501 10248 20241 39960 40119 84030 333 10292 58001;
0173826780999992000041812004-06770-043020FM-12+013899999V0209999C000010075019N0200001N1+02541+02331101431ADDAA124003091GF106991051051008001001011KA1240N+02221MA1999999099841MD1999999-0141REMSYN082AAXX  18124 82678 22598 60000 10254 20233 39984 40143 85501 333 20222 59014 60034;
0167826780999992000041818004-06770-043020FM-12+013899999V0200901N001510075019N0200001N1+02901+02411101041ADDAA199000091GF107991071051008001001001MA1999999099461MD1999999+0001REMSYN070AAXX  18184 82678 32598 70903 10290 20241 39946 40104 87500 333 58000;EQDQ01  00002PRCP99
0186826780999992000041900004-06770-043020FM-12+013899999V0200901N000510075019N9999999N1+02541+02361101261ADDAA199000091GF108991051051008001031999KA1240M+03181MA1999999099671MD1999999+0071REMSYN076AAXX  19004 82678 325// 80901 10254 20236 39967 40126 8553/ 333 10318 58007;EQDQ01  00002PRCP99
0201826780999992000041912004-06770-043020FM-12+013899999V0200901N000510075019N0200001N1+02501+02341101461ADDAA124008991AY121061AY261061GF108991061051008001061999KA1240N+02181MA1999999099871MD1999999+0031MW1021REMSYN088AAXX  19124 82678 21598 80901 10250 20234 39987 40146 70226 8656/ 333 20218 58003 60094;
0167826780999992000041918004-06770-043020FM-12+013899999V0209999C000010450019N0200001N1+02881+02371101051ADDAA199000091GF106991031051008001031011MA1999999099471MD1999999+0011REMSYN070AAXX  19184 82678 32598 60000 10288 20237 39947 40105 83531 333 58001;EQDQ01  00002PRCP99
0186826780999992000042000004-06770-043020FM-12+013899999V0209999C000010075019N0200001N1+02541+02451101211ADDAA199000091GF108991051051008001021999KA1240M+03141MA1999999099631MD1999999-0041REMSYN076AAXX  20004 82678 32598 80000 10254 20245 39963 40121 8552/ 333 10314 59004;EQDQ01  00002PRCP99
0186826780999992000042012004-06770-043020FM-12+013899999V0200901N000510075019N0200001N1+02721+02321101371ADDAA199000091GF108991061021008001001081KA1240N+02241MA1999999099791MD1999999-0081REMSYN076AAXX  20124 82678 32598 80901 10272 20232 39979 40137 86208 333 20224 59008;EQDQ01  00002PRCP99
0186826780999992000042112004-06770-043020FM-12+013899999V0203601N000510450019N0200001N1+02841+02311101301ADDAA199000091GF106991031021008001031021KA1240N+02301MA1999999099731MD1999999-0061REMSYN076AAXX  21124 82678 32598 63601 10284 20231 39973 40130 83232 333 20230 59006;EQDQ01  00002PRCP99
0167826780999992000042118004-06770-043020FM-12+013899999V0203601N000511050019N0200001N1+03181+02471100841ADDAA199000091GF105991031021008001001021MA1999999099281MD1999999-0051REMSYN070AAXX  21184 82678 32598 53601 10318 20247 39928 40084 83202 333 59005;EQDQ01  00002PRCP99
0186826780999992000042200004-06770-043020FM-12+013899999V0209999C000012200019N9999999N1+02641+02441101031ADDAA199000091GF102991021001017501031001KA1240M+03301MA1999999099461MD1999999-0161REMSYN076AAXX  22004 82678 327// 20000 10264 20244 39946 40103 82030 333 10330 59016;EQDQ01  00002PRCP99
0182826780999992000042218004-06770-043020FM-12+013899999V0209999C000010075019N0200001N1+02781+02561100901ADDAA106002091AY161061AY211061GF108991051051008001021999MA1999999099331MD1999999+0031MW1611REMSYN082AAXX  22184 82678 21598 80000 10278 20256 39933 40090 76161 8552/ 333 58003 60021;
0177826780999992000042300004-06770-043020FM-12+013899999V0209999C000012200019N9999999N1+02521+02431101181ADDAA199000021GA1001+999999999GF100991001001999999001001KA1240M+03111MA1999999099601MD1999999+0141REMSYN070AAXX  23004 82678 329// 00000 10252 20243 39960 40118 333 10311 58014;
0173826780999992000042312004-06770-043020FM-12+013899999V0203201N000510450019N0200001N1+02641+02411101341ADDAA124002091GF107991041021008001031011KA1240N+02281MA1999999099761MD1999999+0041REMSYN082AAXX  23124 82678 22598 73201 10264 20241 39976 40134 84231 333 20228 58004 60024;
0167826780999992000042318004-06770-043020FM-12+013899999V0203601N000511050019N0200001N1+03241+02391100871ADDAA199000091GF108991041021008001001021MA1999999099301MD1999999-0031REMSYN070AAXX  23184 82678 32598 83601 10324 20239 39930 40087 84202 333 59003;EQDQ01  00002PRCP99
0186826780999992000042400004-06770-043020FM-12+013899999V0200901N001012200019N9999999N1+02681+02411101171ADDAA199000091GF103991031001017501011001KA1240M+03311MA1999999099591MD1999999-0011REMSYN076AAXX  24004 82678 327// 30902 10268 20241 39959 40117 83010 333 10331 59001;EQDQ01  00002PRCP99
0182826780999992000042418004-06770-043020FM-12+013899999V0201801N001512200019N0200001N1+03061+02501100851ADDAA106000191AY121061AY221061GF106991041081008001001011MA1999999099281MD1999999-0021MW1601REMSYN082AAXX  24184 82678 21598 61803 10306 20250 39928 40085 76022 84801 333 59002 69921;
0177826780999992000042500004-06770-043020FM-12+013899999V0209999C000012200019N9999999N1+02621+02461101161ADDAA199000021GA1001+999999999GF100991001001999999001001KA1240M+03221MA1999999099591MD1999999+0001REMSYN070AAXX  25004 82678 329// 00000 10262 20246 39959 40116 333 10322 58000;
0201826780999992000042512004-06770-043020FM-12+013899999V0200901N005110075019N0200001N1+02761+02251101301ADDAA124001091AY121061AY221061GF108991061021008001001011KA1240N+02241MA1999999099721MD1999999-0021MW1601REMSYN088AAXX  25124 82678 21598 80910 10276 20225 39972 40130 76022 86201 333 20224 59002 60014;
0182826780999992000042518004-06770-043020FM-12+013899999V0209999C000010075019N0200001N1+02861+02441100981ADDAA106001091AY161061AY211061GF108991051021008001001021MA1999999099421MD1999999+0141MW1021REMSYN082AAXX  25184 82678 21598 80000 10286 20244 39942 40098 70261 85202 333 58014 60011;
0201826780999992000042600004-06770-043020FM-12+013899999V0201401N000510075019N9999999N1+02481+02321101301ADDAA106001091AY161061AY221061GF106991061041008001001001KA1240M+03061MA1999999099721MD1999999+0131MW1021REMSYN088AAXX  26004 82678 215// 61401 10248 20232 39972 40130 70262 86400 333 10306 58013 60011;
0173826780999992000042612004-06770-043020FM-12+013899999V0200901N001519999999N0200001N1+02621+02251101491ADDAA124002091GF108991051001008001031021KA1240N+02131MA1999999099901MD1999999+0181REMSYN082AAXX  26124 82678 22598 80903 10262 20225 39990 40149 85032 333 20213 58018 60024;
0167826780999992000042618004-06770-043020FM-12+013899999V0201401N002610450019N0200001N1+02931+02121101111ADDAA199000091GF108991031021008001021021MA1999999099531MD1999999+0111REMSYN070AAXX  26184 82678 32598 81405 10293 20212 39953 40111 83222 333 58011;EQDQ01  00002PRCP99
0196826780999992000042700004-06770-043020FM-12+013899999V0209999C000012200019N9999999N1+02471+02301101331ADDAA199000091GA1001+999999999GF100991001001999999001001KA1240M+02981MA1999999099741MD1999999+0021REMSYN070AAXX  27004 82678 329// 00000 10247 20230 39974 40133 333 10298 58002;EQDQ01  00002PRCP99
0186826780999992000042712004-06770-043020FM-12+013899999V0200901N002612200019N0200001N1+02761+02141101481ADDAA199000091GF102991021011008001001001KA1240N+02301MA1999999099891MD1999999-0011REMSYN076AAXX  27124 82678 32598 20905 10276 20214 39989 40148 82100 333 20230 59001;EQDQ01  00002PRCP99
0167826780999992000042718004-06770-043020FM-12+013899999V0200901N001510075019N0200001N1+03121+02171101151ADDAA199000091GF105991051021008001001001MA1999999099581MD1999999+0051REMSYN070AAXX  27184 82678 32598 50903 10312 20217 39958 40115 85200 333 58005;EQDQ01  00002PRCP99
0196826780999992000042800004-06770-043020FM-12+013899999V0209999C000012200019N9999999N1+02501+02321101331ADDAA199000091GA1001+999999999GF100991001001999999001001KA1240M+03161MA1999999099751MD1999999+0011REMSYN070AAXX  28004 82678 329// 00000 10250 20232 39975 40133 333 10316 58001;EQDQ01  00002PRCP99
0196826780999992000042812004-06770-043020FM-12+013899999V0200901N002612200019N0200001N1+02861+02111101511ADDAA199000091GA1001+999999999GF100991001001999999001001KA1240N+02181MA1999999099931MD1999999+0041REMSYN070AAXX  28124 82678 32998 00905 10286 20211 39993 40151 333 20218 58004;EQDQ01  00002PRCP99
0167826780999992000042818004-06770-043020FM-12+013899999V0200901N003612200019N0200001N1+03241+02161101061ADDAA199000091GF105991031021008001001011MA1999999099491MD1999999-0091REMSYN070AAXX  28184 82678 32598 50907 10324 20216 39949 40106 83201 333 59009;EQDQ01  00002PRCP99
0196826780999992000042900004-06770-043020FM-12+013899999V0209999C000012200019N9999999N1+02601+02401101291ADDAA199000091GA1001+999999999GF100991001001999999001001KA1240M+03271MA1999999099721MD1999999-0031REMSYN070AAXX  29004 82678 329// 00000 10260 20240 39972 40129 333 10327 59003;EQDQ01  00002PRCP99
0201826780999992000042912004-06770-043020FM-12+013899999V0203601N001010450019N0200001N1+02521+02341101611ADDAA124041991AY121061AY261061GF108991041021008001031011KA1240N+02161MA1999999100021MD1999999+0091MW1021REMSYN088AAXX  29124 82678 21598 83602 10252 20234 30002 40161 70226 84231 333 20216 58009 60424;
0167826780999992000042918004-06770-043020FM-12+013899999V0202301N001511050019N0200001N1+03121+02281101101ADDAA199000091GF106991041021008001001021MA1999999099521MD1999999+0031REMSYN070AAXX  29184 82678 32598 62303 10312 20228 39952 40110 84202 333 58003;EQDQ01  00002PRCP99
0186826780999992000043000004-06770-043020FM-12+013899999V0209999C000012200019N9999999N1+02581+02461101201ADDAA199000091GF104991031021008001001011KA1240M+03181MA1999999099711MD1999999-0011REMSYN076AAXX  30004 82678 325// 40000 10258 20246 39971 40120 83201 333 10318 59001;EQDQ01  00002PRCP99
0186826780999992000043012004-06770-043020FM-12+013899999V0200901N002612200019N0200001N1+02801+02181101501ADDAA199000091GF102991011011008001001011KA1240N+02241MA1999999099921MD1999999-0101REMSYN076AAXX  30124 82678 32598 20905 10280 20218 39992 40150 81101 333 20224 59010;EQDQ01  00002PRCP99
0167826780999992000043018004-06770-043020FM-12+013899999V0200901N003110075019N0200001N1+03101+02181101101ADDAA199000091GF106991061021008001001001MA1999999099531MD1999999+0011REMSYN070AAXX  30184 82678 32598 60906 10310 20218 39953 40110 86200 333 58001;EQDQ01  00002PRCP99
0196826780999992000050100004-06770-043020FM-12+013899999V0209999C000012200019N9999999N1+02581+02441101221ADDAA199000091GA1001+999999999GF100991001001999999001001KA1240M+03181MA1999999099701MD1999999-0011REMSYN070AAXX  01004 82678 329// 00000 10258 20244 39970 40122 333 10318 59001;EQDQ01  00002PRCP99
0186826780999992000050112004-06770-043020FM-12+013899999V0200901N003112200019N0200001N1+02821+02151101471ADDAA199000091GF102991011011008001001021KA1240N+02211MA1999999099891MD1999999-0031REMSYN076AAXX  01124 82678 32598 20906 10282 20215 39989 40147 81102 333 20221 59003;EQDQ01  00002PRCP99
0167826780999992000050118004-06770-043020FM-12+013899999V0201401N002610075019N0200001N1+03141+02131101101ADDAA199000091GF105991051021008001001001MA1999999099531MD1999999+0001REMSYN070AAXX  01184 82678 32598 51405 10314 20213 39953 40110 85200 333 58000;EQDQ01  00002PRCP99
0196826780999992000050200004-06770-043020FM-12+013899999V0209999C000012200019N9999999N1+02501+02341101231ADDAA199000091GA1001+999999999GF100991001001999999001001KA1240M+03201MA1999999099651MD1999999-0051REMSYN070AAXX  02004 82678 329// 00000 10250 20234 39965 40123 333 10320 59005;EQDQ01  00002PRCP99
0186826780999992000050212004-06770-043020FM-12+013899999V0201401N005112200019N0200001N1+02761+02121101361ADDAA199000091GF104991021011008001001011KA1240N+02011MA1999999099781MD1999999-0111REMSYN076AAXX  02124 82678 32598 41410 10276 20212 39978 40136 82101 333 20201 59011;EQDQ01  00002PRCP99
0167826780999992000050218004-06770-043020FM-12+013899999V0201401N002612200019N0200001N1+03181+02131100921ADDAA199000091GF102991021011008001001001MA1999999099251MD1999999-0181REMSYN070AAXX  02184 82678 32598 21405 10318 20213 39925 40092 82100 333 59018;EQDQ01  00002PRCP99
0196826780999992000050300004-06770-043020FM-12+013899999V0209999C000012200019N9999999N1+02531+02311101161ADDAA199000091GA1001+999999999GF100991001001999999001001KA1240M+03241MA1999999099581MD1999999-0071REMSYN070AAXX  03004 82678 329// 00000 10253 20231 39958 40116 333 10324 59007;EQDQ01  00002PRCP99
0186826780999992000050312004-06770-043020FM-12+013899999V0201401N002612200019N0200001N1+02781+02111101411ADDAA199000091GF104991021011008001001011KA1240N+02251MA1999999099831MD1999999+0051REMSYN076AAXX  03124 82678 32598 41405 10278 20211 39983 40141 82101 333 20225 58005;EQDQ01  00002PRCP99
0167826780999992000050318004-06770-043020FM-12+013899999V0201401N003110450019N0200001N1+03071+02221100951ADDAA199000091GF107991031081008001031011MA1999999099381MD1999999+0031REMSYN070AAXX  03184 82678 32598 71406 10307 20222 39938 40095 83831 333 58003;EQDQ01  00002PRCP99
0186826780999992000050400004-06770-043020FM-12+013899999V0209999C000010075019N9999999N1+02691+02411101121ADDAA199000091GF108991051041008001021999KA1240M+03171MA1999999099551MD1999999-0031REMSYN076AAXX  04004 82678 325// 80000 10269 20241 39955 40112 8542/ 333 10317 59003;EQDQ01  00002PRCP99
0186826780999992000050412004-06770-043020FM-12+013899999V0201401N004112200019N0200001N1+02761+01971101381ADDAA199000091GF104991011001017501031011KA1240N+02201MA1999999099801MD1999999-0031REMSYN076AAXX  04124 82678 32798 41408 10276 20197 39980 40138 81031 333 20220 59003;EQDQ01  00002PRCP99
0167826780999992000050418004-06770-043020FM-12+013899999V0201401N003612200019N0200001N1+03131+01951100941ADDAA199000091GF104991021021008001001011MA1999999099381MD1999999+0001REMSYN070AAXX  04184 82678 32598 41407 10313 20195 39938 40094 82201 333 58000;EQDQ01  00002PRCP99
0186826780999992000050512004-06770-043020FM-12+013899999V0201401N001512200019N0200001N1+02821+02071101351ADDAA199000091GF103991011011008001031011KA1240N+02181MA1999999099771MD1999999-0031REMSYN076AAXX  05124 82678 32598 31403 10282 20207 39977 40135 81131 333 20218 59003;EQDQ01  00002PRCP99
0167826780999992000050518004-06770-043020FM-12+013899999V0201401N003110075019N0200001N1+03141+02181100941ADDAA199000091GF107991051021008001001021MA1999999099351MD1999999+0001REMSYN070AAXX  05184 82678 32598 71406 10314 20218 39935 40094 85202 333 58000;EQDQ01  00002PRCP99
0196826780999992000050600004-06770-043020FM-12+013899999V0201401N001012200019N9999999N1+02561+02331101081ADDAA199000091GA1001+999999999GF100991001001999999001001KA1240M+03181MA1999999099511MD1999999-0141REMSYN070AAXX  06004 82678 329// 01402 10256 20233 39951 40108 333 10318 59014;EQDQ01  00002PRCP99
0186826780999992000050612004-06770-043020FM-12+013899999V0201401N001012200019N0200001N1+02761+02191101231ADDAA199000091GF104991021011008001001021KA1240N+02221MA1999999099651MD1999999-0121REMSYN076AAXX  06124 82678 32598 41402 10276 20219 39965 40123 82102 333 20222 59012;EQDQ01  00002PRCP99
0167826780999992000050618004-06770-043020FM-12+013899999V0201401N002610075019N0200001N1+03081+02291100951ADDAA199000091GF108991061021008001001021MA1999999099381MD1999999+0001REMSYN070AAXX  06184 82678 32598 81405 10308 20229 39938 40095 86202 333 58000;EQDQ01  00002PRCP99
0196826780999992000050700004-06770-043020FM-12+013899999V0209999C000012200019N9999999N1+02531+02361101121ADDAA199000091GA1001+999999999GF100991001001999999001001KA1240M+03161MA1999999099541MD1999999+0031REMSYN070AAXX  07004 82678 329// 00000 10253 20236 39954 40112 333 10316 58003;EQDQ01  00002PRCP99
0202826780999992000050712004-06770-043020FM-12+013899999V0200901N001010075019N0200001N1+02841+02261101201ADDAA199000091GF108991999021008001001001KA1240N+02141MA1999999099631MD1999999-0021REMSYN076AAXX  07124 82678 32598 80902 10284 20226 39963 40120 86200 333 20214 59002;EQDQ01+000062SCOTLCQ02  00002PRCP99
0183826780999992000050718004-06770-043020FM-12+013899999V0201401N001519999999N0200001N1+03241+02281100871ADDAA199000091GF107991999021008001001001MA1999999099301MD1999999-0081REMSYN070AAXX  07184 82678 32598 71403 10324 20228 39930 40087 84200 333 59008;EQDQ01+000042SCOTLCQ02  00002PRCP99
0186826780999992000050800004-06770-043020FM-12+013899999V0200901N001012200019N9999999N1+02661+02441101131ADDAA199000091GF104991041021008001001001KA1240M+03301MA1999999099561MD1999999+0021REMSYN076AAXX  08004 82678 325// 40902 10266 20244 39956 40113 84200 333 10330 58002;EQDQ01  00002PRCP99
0186826780999992000050812004-06770-043020FM-12+013899999V0200501N001511050019N0200001N1+02781+02401101421ADDAA199000091GF107991021041008001001021KA1240N+02241MA1999999099841MD1999999+0211REMSYN076AAXX  08124 82678 32598 70503 10278 20240 39984 40142 82402 333 20224 58021;EQDQ01  00002PRCP99
0167826780999992000050818004-06770-043020FM-12+013899999V0201401N001511050019N0200001N1+03281+02201100971ADDAA199000091GF106991031021008001001021MA1999999099411MD1999999+0111REMSYN070AAXX  08184 82678 32598 61403 10328 20220 39941 40097 83202 333 58011;EQDQ01  00002PRCP99
0202826780999992000050900004-06770-043020FM-12+013899999V0209999C000012200019N9999999N1+02631+02441101171ADDAA199000091GF103991999011017501001001KA1240M+03301MA1999999099601MD1999999+0041REMSYN076AAXX  09004 82678 327// 30000 10263 20244 39960 40117 82100 333 10330 58004;EQDQ01+000022SCOTLCQ02  00002PRCP99
0186826780999992000050912004-06770-043020FM-12+013899999V0201401N001010120019N0200001N1+02821+02331101481ADDAA199000091GF108991061081008001001021KA1240N+02231MA1999999099901MD1999999+0061REMSYN076AAXX  09124 82678 32598 81402 10282 20233 39990 40148 86802 333 20223 58006;EQDQ01  00002PRCP99
0167826780999992000050918004-06770-043020FM-12+013899999V0200901N001510450019N0200001N1+03241+02281101031ADDAA199000091GF108991031021008001011021MA1999999099471MD1999999+0061REMSYN070AAXX  09184 82678 32598 80903 10324 20228 39947 40103 83212 333 58006;EQDQ01  00002PRCP99
0186826780999992000051000004-06770-043020FM-12+013899999V0209999C000010150019N9999999N1+02621+02411101261ADDAA199000091GF106991051001017501011021KA1240M+03301MA1999999099681MD1999999+0081REMSYN076AAXX  10004 82678 327// 60000 10262 20241 39968 40126 85012 333 10330 58008;EQDQ01  00002PRCP99
0202826780999992000051012004-06770-043020FM-12+013899999V0201801N001012200019N0100001N1+02341+01911101281ADDAA199000091GF102991021021008001001001KA1240N+01741MA1999999999999MD1999999+0181REMSYN076AAXX  10124 82678 32597 21802 10234 20191 39460 40128 82200 333 20174 58018;EQDQ01  00002PRCP99Q02 094603APOSP 
0183826780999992000051018004-06770-043020FM-12+013899999V0203201N001012200019N0200001N1+03261+02301101141ADDAA199000091GF106991041021008001001011MA1999999099582MD1999999+0111REMSYN070AAXX  10184 82678 32598 63202 10326 20230 39958 40114 84201 333 58011;EQDQ01+099583APOSP Q02  00002PRCP99
0202826780999992000051100004-06770-043020FM-12+013899999V0200501N001510150019N9999999N1+02681+02431101331ADDAA199000091GF108991999021017501001001KA1240M+03321MA1999999099751MD1999999+0071REMSYN076AAXX  11004 82678 327// 80503 10268 20243 39975 40133 85200 333 10332 58007;EQDQ01+000052SCOTLCQ02  00002PRCP99
0186826780999992000051112004-06770-043020FM-12+013899999V0201401N002110450019N0200001N1+02771+02341101521ADDAA199000091GF106991031081008001031021KA1240N+02331MA1999999099941MD1999999-0051REMSYN076AAXX  11124 82678 32598 61404 10277 20234 39994 40152 83832 333 20233 59005;EQDQ01  00002PRCP99
0167826780999992000051118004-06770-043020FM-12+013899999V0201401N002612200019N0200001N1+03241+02251101001ADDAA199000091GF106991021021008001001041MA1999999099441MD1999999-0141REMSYN070AAXX  11184 82678 32598 61405 10324 20225 39944 40100 82204 333 59014;EQDQ01  00002PRCP99
0196826780999992000051200004-06770-043020FM-12+013899999V0209999C000012200019N9999999N1+02601+02441101151ADDAA199000091GA1001+999999999GF100991001001999999001001KA1240M+03221MA1999999099481MD1999999-0171REMSYN070AAXX  12004 82678 329// 00000 10260 20244 39948 40115 333 10322 59017;EQDQ01  00002PRCP99
0186826780999992000051212004-06770-043020FM-12+013899999V0201401N008211050019N0200001N1+02781+02041101391ADDAA199000091GF105991031081008001001021KA1240N+02241MA1999999099811MD1999999-0131REMSYN076AAXX  12124 82678 32598 51416 10278 20204 39981 40139 83802 333 20224 59013;EQDQ01  00002PRCP99
0167826780999992000051218004-06770-043020FM-12+013899999V0201401N002110075019N0200001N1+03201+02091100961ADDAA199000091GF108991051021008001001021MA1999999099401MD1999999-0041REMSYN070AAXX  12184 82678 32598 81404 10320 20209 39940 40096 85202 333 59004;EQDQ01  00002PRCP99
0186826780999992000051300004-06770-043020FM-12+013899999V0201401N000512200019N9999999N1+02681+02111101251ADDAA199000091GF103991021021008001001011KA1240M+03261MA1999999099681MD1999999+0101REMSYN076AAXX  13004 82678 325// 31401 10268 20211 39968 40125 82201 333 10326 58010;EQDQ01  00002PRCP99
0186826780999992000051312004-06770-043020FM-12+013899999V0200901N003112200019N0200001N1+02641+01981101561ADDAA199000091GF103991011011008001001011KA1240N+02141MA1999999099981MD1999999+0171REMSYN076AAXX  13124 82678 32598 30906 10264 20198 39998 40156 81101 333 20214 58017;EQDQ01  00002PRCP99
0167826780999992000051318004-06770-043020FM-12+013899999V0200901N001512200019N0200001N1+03141+02041101171ADDAA199000091GF103991031011008001001001MA1999999099601MD1999999+0201REMSYN070AAXX  13184 82678 32598 30903 10314 20204 39960 40117 83100 333 58020;EQDQ01  00002PRCP99
0196826780999992000051400004-06770-043020FM-12+013899999V0209999C000012200019N9999999N1+02441+02211101291ADDAA199000091GA1001+999999999GF100991001001999999001001KA1240M+03171MA1999999099701MD1999999+0021REMSYN070AAXX  14004 82678 329// 00000 10244 20221 39970 40129 333 10317 58002;EQDQ01  00002PRCP99
0202826780999992000051412004-06770-043020FM-12+013899999V0201401N003112200019N0200001N1+02661+01931101481ADDAA199000091GF103991999011008001001001KA1240N+02211MA1999999099891MD1999999-0091REMSYN076AAXX  14124 82678 32598 31406 10266 20193 39989 40148 82100 333 20221 59009;EQDQ01+000022SCOTLCQ02  00002PRCP99
0183826780999992000051418004-06770-043020FM-12+013899999V0201401N002619999999N0200001N1+03101+02001101101ADDAA199000091GF105991999021008001001001MA1999999099531MD1999999-0071REMSYN070AAXX  14184 82678 32598 51405 10310 20200 39953 40110 83200 333 59007;EQDQ01+000032SCOTLCQ02  00002PRCP99
0196826780999992000051500004-06770-043020FM-12+013899999V0209999C000012200019N9999999N1+02441+02071101291ADDAA199000091GA1001+999999999GF100991001001999999001001KA1240M+03161MA1999999099701MD1999999+0001REMSYN070AAXX  15004 82678 329// 00000 10244 20207 39970 40129 333 10316 58000;EQDQ01  00002PRCP99
0186826780999992000051512004-06770-043020FM-12+013899999V0201401N005112200019N0200001N1+02641+01851101441ADDAA199000091GF106991021011008001001011KA1240N+01911MA1999999099851MD1999999-0041REMSYN076AAXX  15124 82678 32598 61410 10264 20185 39985 40144 82101 333 20191 59004;EQDQ01  00002PRCP99
0167826780999992000051518004-06770-043020FM-12+013899999V0200901N002112200019N0200001N1+03121+01951100941ADDAA199000091GF104991031011008001001011MA1999999099361MD1999999-0171REMSYN070AAXX  15184 82678 32598 40904 10312 20195 39936 40094 83101 333 59017;EQDQ01  00002PRCP99
0196826780999992000051600004-06770-043020FM-12+013899999V0209999C000012200019N9999999N1+02501+02181101091ADDAA199000091GA1001+999999999GF100991001001999999001001KA1240M+03191MA1999999099511MD1999999-0191REMSYN070AAXX  16004 82678 329// 00000 10250 20218 39951 40109 333 10319 59019;EQDQ01  00002PRCP99
0196826780999992000051612004-06770-043020FM-12+013899999V0200901N002112200019N0200001N1+02771+01941101321ADDAA199000091GA1001+999999999GF100991001001999999001001KA1240N+02151MA1999999099741MD1999999-0111REMSYN070AAXX  16124 82678 32998 00904 10277 20194 39974 40132 333 20215 59011;EQDQ01  00002PRCP99
0167826780999992000051618004-06770-043020FM-12+013899999V0201401N001510075019N0200001N1+03301+02051100891ADDAA199000091GF105991051021008001001001MA1999999099331MD1999999-0031REMSYN070AAXX  16184 82678 32598 51403 10330 20205 39933 40089 85200 333 59003;EQDQ01  00002PRCP99
0196826780999992000051700004-06770-043020FM-12+013899999V0209999C000012200019N9999999N1+02681+02391101121ADDAA199000091GA1001+999999999GF100991001001999999001001KA1240M+03351MA1999999099551MD1999999+0041REMSYN070AAXX  17004 82678 329// 00000 10268 20239 39955 40112 333 10335 58004;EQDQ01  00002PRCP99
0186826780999992000051712004-06770-043020FM-12+013899999V0201401N001512200019N0200001N1+02861+02161101411ADDAA199000091GF103991031001008001031001KA1240N+02321MA1999999099841MD1999999+0101REMSYN076AAXX  17124 82678 32598 31403 10286 20216 39984 40141 83030 333 20232 58010;EQDQ01  00002PRCP99
0167826780999992000051718004-06770-043020FM-12+013899999V0201401N001512200019N0200001N1+03341+02091100871ADDAA199000091GF104991041021008001001001MA1999999099311MD1999999-0021REMSYN070AAXX  17184 82678 32598 41403 10334 20209 39931 40087 84200 333 59002;EQDQ01  00002PRCP99
0186826780999992000051800004-06770-043020FM-12+013899999V0209999C000012200019N9999999N1+02641+02391101071ADDAA199000091GF103991031001017501031001KA1240M+03401MA1999999099501MD1999999-0051REMSYN076AAXX  18004 82678 327// 30000 10264 20239 39950 40107 83030 333 10340 59005;EQDQ01  00002PRCP99
0186826780999992000051812004-06770-043020FM-12+013899999V0200501N001510450019N0200001N1+02831+02361101371ADDAA199000091GF107991031081008001031001KA1240N+02321MA1999999099801MD1999999-0041REMSYN076AAXX  18124 82678 32598 70503 10283 20236 39980 40137 83830 333 20232 59004;EQDQ01  00002PRCP99
0167826780999992000051818004-06770-043020FM-12+013899999V0203201N001510450019N0200001N1+03271+02331100841ADDAA199000091GF106991021021008001031021MA1999999099281MD1999999-0031REMSYN070AAXX  18184 82678 32598 63203 10327 20233 39928 40084 82232 333 59003;EQDQ01  00002PRCP99
0202826780999992000051900004-06770-043020FM-12+013899999V0202301N001019999999N0200001N1+02701+02221101171ADDAA199000091GF106991999021008001001001KA1240M+03351MA1999999099601MD1999999+0101REMSYN076AAXX  19004 82678 32598 62302 10270 20222 39960 40117 84200 333 10335 58010;EQDQ01+000042SCOTLCQ02  00002PRCP99
0201826780999992000051912004-06770-043020FM-12+013899999V0202701N001010450019N0200001N1+02501+02341101451ADDAA124008991AY161061AY221061GF108991041021008001031011KA1240N+02201MA1999999099861MD1999999+0061MW1021REMSYN088AAXX  19124 82678 21598 82702 10250 20234 39986 40145 70262 84231 333 20220 58006 60094;
0167826780999992000051918004-06770-043020FM-12+013899999V0200901N001510075019N0200001N1+02561+02421101211ADDAA199000091GF108991051051008001021999MA1999999099621MD1999999+0341REMSYN070AAXX  19184 82678 32598 80903 10256 20242 39962 40121 8552/ 333 58034;EQDQ01  00002PRCP99
0186826780999992000052000004-06770-043020FM-12+013899999V0202301N001510450019N9999999N1+02421+02321101471ADDAA199000091GF107991041051008001031011KA1240M+02881MA1999999099871MD1999999+0271REMSYN076AAXX  20004 82678 325// 72303 10242 20232 39987 40147 84531 333 10288 58027;EQDQ01  00002PRCP99
0192826780999992000052012004-06770-043020FM-12+013899999V0200901N001010075019N0200001N1+02641+02331101611ADDAA124001091GF107991999041008001001001KA1240N+02241MA1999999100021MD1999999+0161REMSYN082AAXX  20124 82678 22598 70902 10264 20233 30002 40161 86400 333 20224 58016 60014;EQDQ01+000062SCOTLC
0167826780999992000052018004-06770-043020FM-12+013899999V0202701N000512200019N0200001N1+03181+02281101131ADDAA199000091GF104991041021008001001001MA1999999099561MD1999999-0061REMSYN070AAXX  20184 82678 32598 42701 10318 20228 39956 40113 84200 333 59006;EQDQ01  00002PRCP99
0186826780999992000052100004-06770-043020FM-12+013899999V0200501N000512200019N9999999N1+02681+02451101331ADDAA199000091GF101991011021017501001001KA1240M+03231MA1999999099751MD1999999-0121REMSYN076AAXX  21004 82678 327// 10501 10268 20245 39975 40133 81200 333 10323 59012;EQDQ01  00002PRCP99
0201826780999992000052112004-06770-043020FM-12+013899999V0200501N000511050019N0002001N1+02601+02291101571ADDAA124018091AY121061AY261061GF105991021011008001001021KA1240N+02201MA1999999099991MD1999999-0031MW1011REMSYN088AAXX  21124 82678 21592 50501 10260 20229 39999 40157 70126 82102 333 20220 59003 60184;
0167826780999992000052118004-06770-043020FM-12+013899999V0200901N002612200019N0200001N1+03101+02091101301ADDAA199000091GF104991041021008001001001MA1999999099731MD1999999+0171REMSYN070AAXX  21184 82678 32598 40905 10310 20209 39973 40130 84200 333 58017;EQDQ01  00002PRCP99
0196826780999992000052200004-06770-043020FM-12+013899999V0209999C000012200019N9999999N1+02561+02401101501ADDAA199000091GA1001+999999999GF100991001001999999001001KA1240M+03221MA1999999099911MD1999999+0161REMSYN070AAXX  22004 82678 329// 00000 10256 20240 39991 40150 333 10322 58016;EQDQ01  00002PRCP99
0186826780999992000052212004-06770-043020FM-12+013899999V0200901N004112200019N0200001N1+02761+02091101741ADDAA199000091GF104991021021008001001011KA1240N+02141MA1999999100151MD1999999+0161REMSYN076AAXX  22124 82678 32598 40908 10276 20209 30015 40174 82201 333 20214 58016;EQDQ01  00002PRCP99
0167826780999992000052218004-06770-043020FM-12+013899999V0200901N002612200019N0200001N1+03141+02041101351ADDAA199000091GF104991021021008001041011MA1999999099771MD1999999+0041REMSYN070AAXX  22184 82678 32598 40905 10314 20204 39977 40135 82241 333 58004;EQDQ01  00002PRCP99
0196826780999992000052300004-06770-043020FM-12+013899999V0201401N001512200019N9999999N1+02661+02241101541ADDAA199000091GA1001+999999999GF100991001001999999001001KA1240M+03281MA1999999099961MD1999999+0051REMSYN070AAXX  23004 82678 329// 01403 10266 20224 39996 40154 333 10328 58005;EQDQ01  00002PRCP99
0186826780999992000052312004-06770-043020FM-12+013899999V0200901N003612200019N0200001N1+02741+02021101871ADDAA199000091GF104991031021008001001031KA1240N+02241MA1999999100281MD1999999+0131REMSYN076AAXX  23124 82678 32598 40907 10274 20202 30028 40187 83203 333 20224 58013;EQDQ01  00002PRCP99
0167826780999992000052318004-06770-043020FM-12+013899999V0200901N003112200019N0200001N1+03091+02011101441ADDAA199000091GF105991031021008001001011MA1999999099861MD1999999+0091REMSYN070AAXX  23184 82678 32598 50906 10309 20201 39986 40144 83201 333 58009;EQDQ01  00002PRCP99
0186826780999992000052400004-06770-043020FM-12+013899999V0201401N001512200019N9999999N1+02501+02071101581ADDAA199000091GF101991011001017501031001KA1240M+03141MA1999999099991MD1999999+0031REMSYN076AAXX  24004 82678 327// 11403 10250 20207 39999 40158 81030 333 10314 58003;EQDQ01  00002PRCP99
0186826780999992000052412004-06770-043020FM-12+013899999V0201401N005110075019N0200001N1+02601+02031101801ADDAA199000091GF105991051021008001001001KA1240N+02061MA1999999100211MD1999999-0071REMSYN076AAXX  24124 82678 32598 51410 10260 20203 30021 40180 85200 333 20206 59007;EQDQ01  00002PRCP99
0167826780999992000052418004-06770-043020FM-12+013899999V0201401N003110075019N0200001N1+02951+02111101391ADDAA199000091GF106991061021008001001001MA1999999099811MD1999999-0051REMSYN070AAXX  24184 82678 32598 61406 10295 20211 39981 40139 86200 333 59005;EQDQ01  00002PRCP99
0196826780999992000052500004-06770-043020FM-12+013899999V0200501N000512200019N9999999N1+02341+02151101521ADDAA199000091GA1001+999999999GF100991001001999999001001KA1240M+03001MA1999999099921MD1999999+0001REMSYN070AAXX  25004 82678 329// 00501 10234 20215 39992 40152 333 10300 59000;EQDQ01  00002PRCP99
0186826780999992000052512004-06770-043020FM-12+013899999V0200901N005112200019N0200001N1+02521+01911101701ADDAA199000091GF102991021011008001001001KA1240N+02041MA1999999100101MD1999999-0111REMSYN076AAXX  25124 82678 32598 20910 10252 20191 30010 40170 82100 333 20204 59011;EQDQ01  00002PRCP99
0167826780999992000052518004-06770-043020FM-12+013899999V0200901N001512200019N0200001N1+03121+02051101331ADDAA199000091GF103991031011008001001001MA1999999099751MD1999999-0061REMSYN070AAXX  25184 82678 32598 30903 10312 20205 39975 40133 83100 333 59006;EQDQ01  00002PRCP99
0196826780999992000052600004-06770-043020FM-12+013899999V0209999C000012200019N9999999N1+02401+02171101421ADDAA199000091GA1001+999999999GF100991001001999999001001KA1240M+03171MA1999999099831MD1999999-0091REMSYN070AAXX  26004 82678 329// 00000 10240 20217 39983 40142 333 10317 59009;EQDQ01  00002PRCP99
0186826780999992000052612004-06770-043020FM-12+013899999V0201401N004611050019N0200001N1+02641+02031101571ADDAA199000091GF105991031021008001001021KA1240N+01951MA1999999099981MD1999999-0121REMSYN076AAXX  26124 82678 32598 51409 10264 20203 39998 40157 83202 333 20195 59012;EQDQ01  00002PRCP99
0167826780999992000052618004-06770-043020FM-12+013899999V0200901N001512200019N0200001N1+03141+01941101161ADDAA199000091GF105991021021008001001011MA1999999099581MD1999999-0171REMSYN070AAXX  26184 82678 32598 50903 10314 20194 39958 40116 82201 333 59017;EQDQ01  00002PRCP99
0180826780999992000052700004-06770-043020FM-12+013899999V0202301N000512200019N9999999N1+02401+02211101281ADDAA199000091GF104991999999999999999999KA1240M+03201MA1999999099691MD1999999-0141REMSYN070AAXX  27004 82678 329// 42301 10240 20221 39969 40128 333 10320 59014;EQDQ01  00002PRCP99
0196826780999992000052712004-06770-043020FM-12+013899999V0200901N004112200019N0200001N1+02591+02011101431ADDAA199000091GA1001+999999999GF100991001001999999001001KA1240N+01921MA1999999099841MD1999999-0141REMSYN070AAXX  27124 82678 32998 00908 10259 20201 39984 40143 333 20192 59014;EQDQ01  00002PRCP99
0167826780999992000052718004-06770-043020FM-12+013899999V0201401N001510075019N0200001N1+03201+01991100971ADDAA199000091GF105991051021008001001001MA1999999099401MD1999999-0181REMSYN070AAXX  27184 82678 32598 51403 10320 20199 39940 40097 85200 333 59018;EQDQ01  00002PRCP99
0196826780999992000052800004-06770-043020FM-12+013899999V0202301N000512200019N9999999N1+02441+02251101171ADDAA199000091GA1001+999999999GF100991001001999999001001KA1240M+03241MA1999999099581MD1999999-0111REMSYN070AAXX  28004 82678 329// 02301 10244 20225 39958 40117 333 10324 59011;EQDQ01  00002PRCP99
0196826780999992000052812004-06770-043020FM-12+013899999V0200901N002112200019N0200001N1+02631+02051101351ADDAA199000091GA1001+999999999GF100991001001999999001001KA1240N+01881MA1999999099761MD1999999+0081REMSYN070AAXX  28124 82678 32998 00904 10263 20205 39976 40135 333 20188 58008;EQDQ01  00002PRCP99
0152826780999992000052818004-06770-043020FM-12+013899999V0200901N001512200019N0200001N1+03261+01681999999ADDAA199000091GF102991999999008001999999MA1999999099391REMSYN069AAXX  28184 82678 32598 20903 10326 20168 39939 4096 86200 333 59001;EQDQ01  00002PRCP99
0196826780999992000052900004-06770-043020FM-12+013899999V0209999C000012200019N9999999N1+02341+02091101051ADDAA199000091GA1001+999999999GF100991001001999999001001KA1240M+03221MA1999999099461MD1999999-0121REMSYN070AAXX  29004 82678 329// 00000 10234 20209 39946 40105 333 10322 59012;EQDQ01  00002PRCP99
0186826780999992000052912004-06770-043020FM-12+013899999V0203601N000511050019N0200001N1+02661+02161101291ADDAA199000091GF105991011011008001001021KA1240N+01881MA1999999099701MD1999999-0061REMSYN076AAXX  29124 82678 32598 53601 10266 20216 39970 40129 81102 333 20188 59006;EQDQ01  00002PRCP99
0167826780999992000052918004-06770-043020FM-12+013899999V0203201N000511050019N0200001N1+03321+02071100861ADDAA199000091GF106991021011008001001021MA1999999099301MD1999999-0091REMSYN070AAXX  29184 82678 32598 63201 10332 20207 39930 40086 82102 333 59009;EQDQ01  00002PRCP99
0196826780999992000053000004-06770-043020FM-12+013899999V0209999C000012200019N9999999N1+02501+02401101021ADDAA199000091GA1001+999999999GF100991001001999999001001KA1240M+03331MA1999999099441MD1999999-0021REMSYN070AAXX  30004 82678 329// 00000 10250 20240 39944 40102 333 10333 59002;EQDQ01  00002PRCP99
0186826780999992000053012004-06770-043020FM-12+013899999V0202701N001012200019N0200001N1+02721+02341101331ADDAA199000091GF104991021011008001001011KA1240N+02081MA1999999099761MD1999999+0061REMSYN076AAXX  30124 82678 32598 42702 10272 20234 39976 40133 82101 333 20208 58006;EQDQ01  00002PRCP99
0167826780999992000053018004-06770-043020FM-12+013899999V0201401N001512200019N0200001N1+03321+02071100921ADDAA199000091GF105991031021008001001011MA1999999099351MD1999999+0031REMSYN070AAXX  30184 82678 32598 51403 10332 20207 39935 40092 83201 333 58003;EQDQ01  00002PRCP99
0196826780999992000053100004-06770-043020FM-12+013899999V0209999C000012200019N9999999N1+02541+02251101241ADDAA199000091GA1001+999999999GF100991001001999999001001KA1240M+03341MA1999999099661MD1999999+0221REMSYN070AAXX  31004 82678 329// 00000 10254 20225 39966 40124 333 10334 58022;EQDQ01  00002PRCP99
0186826780999992000053112004-06770-043020FM-12+013899999V0200901N003110150019N0200001N1+02841+01991101411ADDAA199000091GF107991051001017501031021KA1240N+02181MA1999999099831MD1999999+0071REMSYN076AAXX  31124 82678 32798 70906 10284 20199 39983 40141 85032 333 20218 58007;EQDQ01  00002PRCP99
0167826780999992000053118004-06770-043020FM-12+013899999V0200901N002111050019N0200001N1+03281+01821100951ADDAA199000091GF105991021011008001031021MA1999999099391MD1999999+0041REMSYN070AAXX  31184 82678 32598 50904 10328 20182 39939 40095 82132 333 58004;EQDQ01  00002PRCP99
0196826780999992000060100004-06770-043020FM-12+013899999V0209999C000012200019N9999999N1+02471+02051101151ADDAA199000091GA1001+999999999GF100991001001999999001001KA1240M+03321MA1999999099571MD1999999+0011REMSYN070AAXX  01004 82678 329// 00000 10247 20205 39957 40115 333 10332 58001;EQDQ01  00002PRCP99
0186826780999992000060112004-06770-043020FM-12+013899999V0209999C000010450019N0200001N1+02631+02211101491ADDAA199000091GF108991011031008001031041KA1240N+02001MA1999999099901MD1999999+0071REMSYN076AAXX  01124 82678 32598 80000 10263 20221 39990 40149 81334 333 20200 58007;EQDQ01  00002PRCP99
0167826780999992000060118004-06770-043020FM-12+013899999V0200801N002110120019N0200001N1+03211+02031101051ADDAA199000091GF108991051081008001031011MA1999999099481MD1999999+0091REMSYN070AAXX  01184 82678 32598 80804 10321 20203 39948 40105 85831 333 58009;EQDQ01  00002PRCP99
0186826780999992000060212004-06770-043020FM-12+013899999V0200501N002612200019N0200001N1+02861+02231999999ADDAA199000091GF102991021001017501031001KA1240N+02301MA1999999099891MD1999999-0011REMSYN076AAXX  02124 82678 32798 20505 10286 20223 39989 4//// 82030 333 20230 59001;EQDQ01  00002PRCP99
0167826780999992000060218004-06770-043020FM-12+013899999V0200901N001512200019N0200001N1+03281+02231101031ADDAA199000091GF103991031021008001001001MA1999999099471MD1999999-0011REMSYN070AAXX  02184 82678 32598 30903 10328 20223 39947 40103 83200 333 59001;EQDQ01  00002PRCP99
0176826780999992000060300004-06770-043020FM-12+013899999V0209999C000012200019N9999999N1+02521+02341101231ADDAA199000091GA1001+999999999GF100991001001999999001001KA1999M+03321MA1999999099651REMSYN064AAXX  03004 82678 329// 00000 10252 20234 39965 40123 333 10332;EQDQ01  00002PRCP99
0202826780999992000060312004-06770-043020FM-12+013899999V0201401N005112200019N0200001N1+02821+02101101661ADDAA199000091GF103991999011008001001001KA1240N+02711MA1999999100071MD1999999+0181REMSYN076AAXX  03124 82678 32598 31410 10282 20210 30007 40166 82100 333 20271 58018;EQDQ01+000022SCOTLCQ02  00002PRCP99
0183826780999992000060318004-06770-043020FM-12+013899999V0201401N002619999999N0200001N1+03221+01981101251ADDAA199000091GF105991999021008001001001MA1999999099681MD1999999+0211REMSYN070AAXX  03184 82678 32598 51405 10322 20198 39968 40125 83200 333 58021;EQDQ01+000032SCOTLCQ02  00002PRCP99
0196826780999992000060400004-06770-043020FM-12+013899999V0209999C000012200019N9999999N1+02401+02031101431ADDAA199000091GA1001+999999999GF100991001001999999001001KA1240M+03261MA1999999099851MD1999999+0201REMSYN070AAXX  04004 82678 329// 00000 10240 20203 39985 40143 333 10326 58020;EQDQ01  00002PRCP99
0196826780999992000060412004-06770-043020FM-12+013899999V0201401N004112200019N0200001N1+02541+02001101751ADDAA199000091GA1001+999999999GF100991001001999999001001KA1240N+01841MA1999999100161MD1999999+0091REMSYN070AAXX  04124 82678 32998 01408 10254 20200 30016 40175 333 20184 58009;EQDQ01  00002PRCP99
0167826780999992000060418004-06770-043020FM-12+013899999V0201401N002612200019N0200001N1+03191+01871101361ADDAA199000091GF104991041021008001001001MA1999999099781MD1999999+0101REMSYN070AAXX  04184 82678 32598 41405 10319 20187 39978 40136 84200 333 58010;EQDQ01  00002PRCP99
0196826780999992000060500004-06770-043020FM-12+013899999V0201401N001512200019N9999999N1+02471+01991101501ADDAA199000091GA1001+999999999GF100991001001999999001001KA1240M+03231MA1999999099911MD1999999+0061REMSYN070AAXX  05004 82678 329// 01403 10247 20199 39991 40150 333 10323 58006;EQDQ01  00002PRCP99
0186826780999992000060512004-06770-043020FM-12+013899999V0200901N005112200019N0200001N1+02661+01921101741ADDAA199000091GF101991011011008001001001KA1240N+02421MA1999999100151MD1999999-0011REMSYN076AAXX  05124 82678 32598 10910 10266 20192 30015 40174 81100 333 20242 59001;EQDQ01  00002PRCP99
0167826780999992000060518004-06770-043020FM-12+013899999V0200901N001512200019N0200001N1+03181+01821101361ADDAA199000091GF104991041021008001001001MA1999999099781MD1999999+0001REMSYN070AAXX  05184 82678 32598 40903 10318 20182 39978 40136 84200 333 58000;EQDQ01  00002PRCP99
0186826780999992000060600004-06770-043020FM-12+013899999V0201401N004112200019N9999999N1+02661+02001101541ADDAA199000091GF104991041021017501001001KA1240M+03221MA1999999099961MD1999999+0051REMSYN076AAXX  06004 82678 327// 41408 10266 20200 39996 40154 84200 333 10322 58005;EQDQ01  00002PRCP99
0186826780999992000060612004-06770-043020FM-12+013899999V0201401N005112200019N0200001N1+02621+01881101771ADDAA199000091GF105991031021008001001011KA1240N+02141MA1999999100181MD1999999+0031REMSYN076AAXX  06124 82678 32598 51410 10262 20188 30018 40177 83201 333 20214 58003;EQDQ01  00002PRCP99
0167826780999992000060618004-06770-043020FM-12+013899999V0201401N002611050019N0200001N1+03101+01971101391ADDAA199000091GF106991041021008001001021MA1999999099811MD1999999+0031REMSYN070AAXX  06184 82678 32598 61405 10310 20197 39981 40139 84202 333 58003;EQDQ01  00002PRCP99
0186826780999992000060700004-06770-043020FM-12+013899999V0201401N001510075019N9999999N1+02681+01891101561ADDAA199000091GF108991081051008001999999KA1240M+03251MA1999999099981MD1999999+0021REMSYN076AAXX  07004 82678 325// 81403 10268 20189 39998 40156 885// 333 10325 58002;EQDQ01  00002PRCP99
0186826780999992000060712004-06770-043020FM-12+013899999V0201401N005712200019N0200001N1+02601+01891101691ADDAA199000091GF104991031021008001041001KA1240N+02081MA1999999100101MD1999999-0081REMSYN076AAXX  07124 82678 32598 41411 10260 20189 30010 40169 83240 333 20208 59008;EQDQ01  00002PRCP99
0167826780999992000060718004-06770-043020FM-12+013899999V0201401N004610075019N0200001N1+03101+01771101381ADDAA199000091GF105991051021008001001001MA1999999099801MD1999999-0011REMSYN070AAXX  07184 82678 32598 51409 10310 20177 39980 40138 85200 333 59001;EQDQ01  00002PRCP99
0175826780999992000060800004-06770-043020FM-12+013899999V0209999C000012200019N9999999N1+02581+01991101511ADDAA199000091GA1001+999999999GF100991001001999999001001KA1240M+03141MD1999999-0061REMSYN064AAXX  08004 82678 329// 00000 10258 20199 40151 333 10314 59006;EQDQ01  00002PRCP99
0202826780999992000060812004-06770-043020FM-12+013899999V0201401N005112200019N0200001N1+02661+02001101641ADDAA199000091GF103991999011008001001001KA1240N+01901MA1999999100051MD1999999-0051REMSYN076AAXX  08124 82678 32598 31410 10266 20200 30005 40164 82100 333 20190 59005;EQDQ01+000022SCOTLCQ02  00002PRCP99
0167826780999992000060818004-06770-043020FM-12+013899999V0200901N001510450019N0200001N1+03081+02191101371ADDAA199000091GF106991041051008001031001MA1999999099791MD1999999-0011REMSYN070AAXX  08184 82678 32598 60903 10308 20219 39979 40137 84530 333 59001;EQDQ01  00002PRCP99
0186826780999992000060900004-06770-043020FM-12+013899999V0201401N000510450019N9999999N1+02511+02211101481ADDAA199000091GF107991041051008001031001KA1240M+03181MA1999999099891MD1999999-0031REMSYN076AAXX  09004 82678 325// 71401 10251 20221 39989 40148 84530 333 10318 59003;EQDQ01  00002PRCP99
0186826780999992000060912004-06770-043020FM-12+013899999V0200901N002610075019N0200001N1+02621+02051101691ADDAA199000091GF108991051051008001031011KA1240N+02281MA1999999100101MD1999999+0051REMSYN076AAXX  09124 82678 32598 80905 10262 20205 30010 40169 85531 333 20228 58005;EQDQ01  00002PRCP99
0167826780999992000060918004-06770-043020FM-12+013899999V0201401N001510075019N0200001N1+03021+02071101321ADDAA199000091GF108991061051008001021001MA1999999099741MD1999999-0051REMSYN070AAXX  09184 82678 32598 81403 10302 20207 39974 40132 86520 333 59005;EQDQ01  00002PRCP99
0186826780999992000061000004-06770-043020FM-12+013899999V0209999C000010075019N9999999N1+02641+02141101501ADDAA199000091GF108991061051008001031001KA1240M+03181MA1999999099921MD1999999+0031REMSYN076AAXX  10004 82678 325// 80000 10264 20214 39992 40150 86530 333 10318 58003;EQDQ01  00002PRCP99
0180826780999992000061012004-06770-043020FM-12+013899999V0200901N005112200019N0200001N1+02631+01831101681ADDAA199000091GF104991999999999999999999KA1240N+02021MA1999999100091MD1999999-0011REMSYN070AAXX  10124 82678 32998 40910 10263 20183 30009 40168 333 20202 59001;EQDQ01  00002PRCP99
0183826780999992000061018004-06770-043020FM-12+013899999V0201401N002110150019N0200001N1+03061+01871101221ADDAA199000091GF106991999021017501001001MA1999999099651MD1999999-0091REMSYN070AAXX  10184 82678 32798 61404 10306 20187 39965 40122 85200 333 59009;EQDQ01+000052SCOTLCQ02  00002PRCP99
0202826780999992000061100004-06770-043020FM-12+013899999V0200901N002119999999N9999999N1+02391+02011101431ADDAA199000091GF106991999011017501001001KA1240M+03201MA1999999099841MD1999999-0081REMSYN076AAXX  11004 82678 327// 60904 10239 20201 39984 40143 82100 333 10320 59008;EQDQ01+000022SCOTLCQ02  00002PRCP99
0196826780999992000061112004-06770-043020FM-12+013899999V0200901N003612200019N0200001N1+02761+01971101621ADDAA199000091GA1001+999999999GF100991001001999999001001KA1240N+01901MA1999999100031MD1999999-0061REMSYN070AAXX  11124 82678 32598 00907 10276 20197 30003 40162 333 20190 59006;EQDQ01  00002PRCP99
0167826780999992000061118004-06770-043020FM-12+013899999V0200901N001510075019N0200001N1+03261+02021101261ADDAA199000091GF105991051021008001001001MA1999999099681MD1999999+0031REMSYN070AAXX  11184 82678 32598 50903 10326 20202 39968 40126 85200 333 58003;EQDQ01  00002PRCP99
0196826780999992000061200004-06770-043020FM-12+013899999V0209999C000012200019N9999999N1+02541+02131101371ADDAA199000091GA1001+999999999GF100991001001999999001001KA1240M+03301MA1999999099791MD1999999-0051REMSYN070AAXX  12004 82678 329// 00000 10254 20213 39979 40137 333 10330 59005;EQDQ01  00002PRCP99
0186826780999992000061212004-06770-043020FM-12+013899999V0200901N003610150019N0200001N1+02631+02011101601ADDAA199000091GF106991061001017501031001KA1240N+02041MA1999999100011MD1999999-0021REMSYN076AAXX  12124 82678 32798 60907 10263 20201 30001 40160 86030 333 20204 59002;EQDQ01  00002PRCP99
0167826780999992000061218004-06770-043020FM-12+013899999V0201401N001510075019N0200001N1+03241+02061101121ADDAA199000091GF108991061021008001001031MA1999999099551MD1999999-0131REMSYN070AAXX  12184 82678 32598 81403 10324 20206 39955 40112 86203 333 59013;EQDQ01  00002PRCP99
0196826780999992000061300004-06770-043020FM-12+013899999V0209999C000012200019N9999999N1+02561+02191101311ADDAA199000091GA1001+999999999GF100991001001999999001001KA1240M+03341MA1999999099731MD1999999-0061REMSYN070AAXX  13004 82678 329// 00000 10256 20219 39973 40131 333 10334 59006;EQDQ01  00002PRCP99
0196826780999992000061312004-06770-043020FM-12+013899999V0200901N005112200019N0200001N1+02721+01881101501ADDAA199000091GA1001+999999999GF100991001001999999001001KA1240N+02181MA1999999099921MD1999999-0091REMSYN070AAXX  13124 82678 32998 00910 10272 20188 39992 40150 333 20218 59009;EQDQ01  00002PRCP99
0167826780999992000061318004-06770-043020FM-12+013899999V0201401N001512200019N0200001N1+03241+01861101021ADDAA199000091GF103991031011008001001001MA1999999099461MD1999999-0091REMSYN070AAXX  13184 82678 32598 31403 10324 20186 39946 40102 83100 333 59009;EQDQ01  00002PRCP99
0202826780999992000061400004-06760-043190FM-12+013899999V0201401N001012200019N9999999N1+02471+02011101241ADDAA199000091GF104991999011017501001001KA1240M+03301MA1999999099661MD1999999-0071REMSYN076AAXX  14004 82678 327// 41402 10247 20201 39966 40124 82100 333 10330 59007;EQDQ01+000022SCOTLCQ02  00002PRCP99
0186826780999992000061412004-06760-043190FM-12+013899999V0201401N004112200019N0200001N1+02701+01961101501ADDAA199000091GF102991021011008001001001KA1240N+01981MA1999999099911MD1999999-0011REMSYN076AAXX  14124 82678 32598 21408 10270 20196 39991 40150 82100 333 20198 59001;EQDQ01  00002PRCP99
0167826780999992000061418004-06760-043190FM-12+013899999V0200901N003612200019N0200001N1+03301+01911101011ADDAA199000091GF105991041021008001001011MA1999999099441MD1999999-0021REMSYN070AAXX  14184 82678 32598 50907 10330 20191 39944 40101 84201 333 59002;EQDQ01  00002PRCP99
0196826780999992000061500004-06760-043190FM-12+013899999V0209999C000012200019N9999999N1+02601+02101101201ADDAA199000091GA1001+999999999GF100991001001999999001001KA1240M+03341MA1999999099621MD1999999-0041REMSYN070AAXX  15004 82678 329// 00000 10260 20210 39962 40120 333 10334 59004;EQDQ01  00002PRCP99
0186826780999992000061512004-06760-043190FM-12+013899999V0200901N004612200019N0200001N1+02701+01801101411ADDAA199000091GF106991021001017501031011KA1240N+02121MA1999999099831MD1999999-0081REMSYN076AAXX  15124 82678 32798 60909 10270 20180 39983 40141 82031 333 20212 59008;EQDQ01  00002PRCP99
0167826780999992000061518004-06760-043190FM-12+013899999V0201401N001511050019N0200001N1+03141+01941101061ADDAA199000091GF106991031021008001001021MA1999999099491MD1999999+0051REMSYN070AAXX  15184 82678 32598 61403 10314 20194 39949 40106 83202 333 58005;EQDQ01  00002PRCP99
0202826780999992000061600004-06760-043190FM-12+013899999V0209999C000012200019N0200001N1+02411+02031101271ADDAA199000091GF104991999011008001001001KA1240M+03241MA1999999099671MD1999999+0051REMSYN076AAXX  16004 82678 32598 40000 10241 20203 39967 40127 82100 333 10324 58005;EQDQ01+000022SCOTLCQ02  00002PRCP99
0186826780999992000061612004-06760-043190FM-12+013899999V0201401N001510075019N0200001N1+02601+01891101531ADDAA199000091GF108991071051008001001021KA1240N+02101MA1999999099841MD1999999+0111REMSYN076AAXX  16124 82678 32598 81403 10260 20189 39984 40153 87502 333 20210 58011;EQDQ01  00002PRCP99
0167826780999992000061618004-06760-043190FM-12+013899999V0201401N001512200019N0200001N1+03201+01821101091ADDAA199000091GF104991021021008001001021MA1999999099521MD1999999+0031REMSYN070AAXX  16184 82678 32598 41403 10320 20182 39952 40109 82202 333 58003;EQDQ01  00002PRCP99
0167826780999992000061718004-06760-043190FM-12+013899999V0200901N000510450019N0200001N1+03321+02001101111ADDAA199000091GF106991031021008001031021MA1999999099551MD1999999+0031REMSYN070AAXX  17184 82678 32598 60901 10332 20200 39955 40111 83232 333 58003;EQDQ01  00002PRCP99
0186826780999992000061800004-06760-043190FM-12+013899999V0209999C000012200019N9999999N1+02541+02171101191ADDAA199000091GF102991011001017501031011KA1240M+03361MA1999999099611MD1999999-0031REMSYN076AAXX  18004 82678 327// 20000 10254 20217 39961 40119 81031 333 10336 59003;EQDQ01  00002PRCP99
0186826780999992000061812004-06760-043190FM-12+013899999V0200901N001512200019N0200001N1+02861+01981101471ADDAA199000091GF103991021011008001001011KA1240N+02111MA1999999099891MD1999999+0001REMSYN076AAXX  18124 82678 32598 30903 10286 20198 39989 40147 82101 333 20211 58000;EQDQ01  00002PRCP99
0167826780999992000061818004-06760-043190FM-12+013899999V0200901N001512200019N0200001N1+03361+01971101041ADDAA199000091GF104991021021008001031021MA1999999099471MD1999999-0081REMSYN070AAXX  18184 82678 32598 40903 10336 20197 39947 40104 82232 333 59008;EQDQ01  00002PRCP99
0196826780999992000061900004-06760-043190FM-12+013899999V0209999C000012200019N9999999N1+02621+02211101151ADDAA199000091GA1001+999999999GF100991001001999999001001KA1240M+03441MA1999999099581MD1999999-0031REMSYN070AAXX  19004 82678 329// 00000 10262 20221 39958 40115 333 10344 59003;EQDQ01  00002PRCP99
0186826780999992000061912004-06760-043190FM-12+013899999V0201401N004112200019N0200001N1+02861+01981101541ADDAA199000091GF102991021001017501031001KA1240N+02171MA1999999099961MD1999999+0071REMSYN076AAXX  19124 82678 32798 21408 10286 20198 39996 40154 82030 333 20217 58007;EQDQ01  00002PRCP99
0167826780999992000061918004-06760-043190FM-12+013899999V0201401N001512200019N0200001N1+03341+01911101101ADDAA199000091GF104991031021008001031001MA1999999099541MD1999999+0071REMSYN070AAXX  19184 82678 32598 41403 10334 20191 39954 40110 83230 333 58007;EQDQ01  00002PRCP99
0186826780999992000062000004-06760-043190FM-12+013899999V0209999C000012200019N9999999N1+02601+02191101251ADDAA199000091GF104991041001017501031001KA1240M+03421MA1999999099681MD1999999+0101REMSYN076AAXX  20004 82678 327// 40000 10260 20219 39968 40125 84030 333 10342 58010;EQDQ01  00002PRCP99
0186826780999992000062012004-06760-043190FM-12+013899999V0200901N000510450019N0200001N1+02761+02231101591ADDAA199000091GF106991011011008001031021KA1240N+02101MA1999999100011MD1999999+0051REMSYN076AAXX  20124 82678 32598 60901 10276 20223 30001 40159 81132 333 20210 58005;EQDQ01  00002PRCP99
0167826780999992000062018004-06760-043190FM-12+013899999V0200901N000510075019N0200001N1+03241+02131101251ADDAA199000091GF106991061051008001001001MA1999999099681MD1999999+0141REMSYN070AAXX  20184 82678 32598 60901 10324 20213 39968 40125 86500 333 58014;EQDQ01  00002PRCP99
0196826780999992000062100004-06760-043190FM-12+013899999V0209999C000012200019N9999999N1+02541+02151101391ADDAA199000091GA1001+999999999GF100991001001999999001001KA1240M+03401MA1999999099811MD1999999+0131REMSYN070AAXX  21004 82678 329// 00000 10254 20215 39981 40139 333 10340 58013;EQDQ01  00002PRCP99
0182826780999992000062118004-06760-043190FM-12+013899999V0209999C000010450019N0200001N1+02601+02231101341ADDAA106004191AY161061AY221061GF108991031021008001051021MA1999999099751MD1999999+0071MW1021REMSYN082AAXX  21184 82678 21598 80000 10260 20223 39975 40134 70262 83252 333 58007 60041;
0196826780999992000062200004-06760-043190FM-12+013899999V0200501N000512200019N9999999N1+02411+02301101421ADDAA199000091GA1001+999999999GF100991001001999999001001KA1240M+02821MA1999999099831MD1999999+0021REMSYN070AAXX  22004 82678 329// 00501 10241 20230 39983 40142 333 10282 58002;EQDQ01  00002PRCP99
0173826780999992000062212004-06760-043190FM-12+013899999V0200501N001511050019N0200001N1+02691+02261101581ADDAA124004191GF105991021021008001031021KA1240N+02201MA1999999099991MD1999999-0111REMSYN082AAXX  22124 82678 22598 50503 10269 20226 39999 40158 82232 333 20220 59011 60044;
0167826780999992000062218004-06760-043190FM-12+013899999V0203601N001510075019N0200001N1+03221+02171101141ADDAA199000091GF105991051021008001001001MA1999999099571MD1999999-0181REMSYN070AAXX  22184 82678 32598 53603 10322 20217 39957 40114 85200 333 59018;EQDQ01  00002PRCP99
0180826780999992000062300004-06760-043190FM-12+013899999V0209999C000012200019N9999999N1+02561+02171101241ADDAA199000091GF101991999999999999999999KA1240M+03331MA1999999099661MD1999999-0171REMSYN070AAXX  23004 82678 329// 10000 10256 20217 39966 40124 333 10333 59017;EQDQ01  00002PRCP99
0186826780999992000062312004-06760-043190FM-12+013899999V0200901N002612200019N0200001N1+02821+01971101591ADDAA199000091GF102991021011008001001001KA1240N+02141MA1999999100011MD1999999+0021REMSYN076AAXX  23124 82678 32598 20905 10282 20197 30001 40159 82100 333 20214 58002;EQDQ01  00002PRCP99
0167826780999992000062318004-06760-043190FM-12+013899999V0200901N001510075019N0200001N1+03221+01981101181ADDAA199000091GF105991051021008001001001MA1999999099611MD1999999+0041REMSYN070AAXX  23184 82678 32598 50903 10322 20198 39961 40118 85200 333 58004;EQDQ01  00002PRCP99
0196826780999992000062400004-06760-043190FM-12+013899999V0209999C000012200019N9999999N1+02501+02001101301ADDAA199000091GA1001+999999999GF100991001001999999001001KA1240M+03301MA1999999099721MD1999999+0061REMSYN070AAXX  24004 82678 329// 00000 10250 20200 39972 40130 333 10330 58006;EQDQ01  00002PRCP99
0186826780999992000062412004-06760-043190FM-12+013899999V0200901N003112200019N0200001N1+02651+01801101691ADDAA199000091GF103991031011008001001001KA1240N+02241MA1999999100101MD1999999+0091REMSYN076AAXX  24124 82678 32598 30906 10265 20180 30010 40169 83100 333 20224 58009;EQDQ01  00002PRCP99
0167826780999992000062418004-06760-043190FM-12+013899999V0200901N003112200019N0200001N1+03231+01611101181ADDAA199000091GF102991021011008001001001MA1999999099611MD1999999+0001REMSYN070AAXX  24184 82678 32598 20906 10323 20161 39961 40118 82100 333 58000;EQDQ01  00002PRCP99
0196826780999992000062500004-06760-043190FM-12+013899999V0201401N001012200019N9999999N1+02601+01841101361ADDAA199000091GA1001+999999999GF100991001001999999001001KA1240M+03261MA1999999099781MD1999999+0061REMSYN070AAXX  25004 82678 329// 01402 10260 20184 39978 40136 333 10326 58006;EQDQ01  00002PRCP99
0186826780999992000062512004-06760-043190FM-12+013899999V0201401N004112200019N0200001N1+02601+01871101581ADDAA199000091GF103991031011008001001001KA1240N+01921MA1999999099991MD1999999-0111REMSYN076AAXX  25124 82678 32598 31408 10260 20187 39999 40158 83100 333 20192 59011;EQDQ01  00002PRCP99
0183826780999992000062518004-06760-043190FM-12+013899999V0201401N002119999999N0200001N1+03141+01871101161ADDAA199000091GF105991999021008001001001MA1999999099591MD1999999-0021REMSYN070AAXX  25184 82678 32598 51404 10314 20187 39959 40116 84200 333 59002;EQDQ01+000042SCOTLCQ02  00002PRCP99
0196826780999992000062600004-06760-043190FM-12+013899999V0201401N001012200019N9999999N1+02541+01761101371ADDAA199000091GA1001+999999999GF100991001001999999001001KA1240M+03181MA1999999099781MD1999999+0001REMSYN070AAXX  26004 82678 329// 01402 10254 20176 39978 40137 333 10318 58000;EQDQ01  00002PRCP99
0186826780999992000062612004-06760-043190FM-12+013899999V0201401N004111050019N0200001N1+02621+01831101551ADDAA199000091GF105991011011008001031021KA1240N+01941MA1999999099961MD1999999-0031REMSYN076AAXX  26124 82678 32598 51408 10262 20183 39996 40155 81132 333 20194 59003;EQDQ01  00002PRCP99
0167826780999992000062618004-06760-043190FM-12+013899999V0200901N003110450019N0200001N1+03101+01971101231ADDAA199000091GF107991021021008001031001MA1999999099651MD1999999+0061REMSYN070AAXX  26184 82678 32598 70906 10310 20197 39965 40123 82230 333 58006;EQDQ01  00002PRCP99
0196826780999992000062700004-06760-043190FM-12+013899999V0200901N001012200019N9999999N1+02681+02021101401ADDAA199000091GA1001+999999999GF100991001001999999001001KA1240M+03221MA1999999099821MD1999999+0041REMSYN070AAXX  27004 82678 329// 00902 10268 20202 39982 40140 333 10322 58004;EQDQ01  00002PRCP99
0186826780999992000062712004-06760-043190FM-12+013899999V0200901N003110450019N0200001N1+02621+01911101561ADDAA199000091GF108991011011008001031021KA1240N+02121MA1999999099981MD1999999+0021REMSYN076AAXX  27124 82678 32598 80906 10262 20191 39998 40156 81132 333 20212 58002;EQDQ01  00002PRCP99
0167826780999992000062718004-06760-043190FM-12+013899999V0200901N002110075019N0200001N1+03001+02051101221ADDAA199000091GF108991051021008001001021MA1999999099641MD1999999-0011REMSYN070AAXX  27184 82678 32598 80904 10300 20205 39964 40122 85202 333 59001;EQDQ01  00002PRCP99
0196826780999992000062800004-06760-043190FM-12+013899999V0201401N000512200019N9999999N1+02481+02051101331ADDAA199000091GA1001+999999999GF100991001001999999001001KA1240M+03141MA1999999099741MD1999999-0081REMSYN070AAXX  28004 82678 329// 01401 10248 20205 39974 40133 333 10314 59008;EQDQ01  00002PRCP99
0186826780999992000062812004-06760-043190FM-12+013899999V0200901N005112200019N0200001N1+02681+02021101541ADDAA199000091GF103991031011008001001001KA1240N+02141MA1999999099951MD1999999-0031REMSYN076AAXX  28124 82678 32598 30910 10268 20202 39995 40154 83100 333 20214 59003;EQDQ01  00002PRCP99
0167826780999992000062818004-06760-043190FM-12+013899999V0200901N003610450019N0200001N1+03151+01841101101ADDAA199000091GF105991031021008001031011MA1999999099531MD1999999-0111REMSYN070AAXX  28184 82678 32598 50907 10315 20184 39953 40110 83231 333 59011;EQDQ01  00002PRCP99
0196826780999992000062900004-06760-043190FM-12+013899999V0209999C000012200019N9999999N1+02501+01981101261ADDAA199000091GA1001+999999999GF100991001001999999001001KA1240M+03301MA1999999099681MD1999999-0061REMSYN070AAXX  29004 82678 329// 00000 10250 20198 39968 40126 333 10330 59006;EQDQ01  00002PRCP99
0186826780999992000062912004-06760-043190FM-12+013899999V0201401N004112200019N0200001N1+02521+01771101501ADDAA199000091GF104991031001017501031021KA1240N+02021MA1999999099911MD1999999-0041REMSYN076AAXX  29124 82678 32798 41408 10252 20177 39991 40150 83032 333 20202 59004;EQDQ01  00002PRCP99
0167826780999992000062918004-06760-043190FM-12+013899999V0200901N001010075019N0200001N1+03201+01891101141ADDAA199000091GF105991051021008001001001MA1999999099571MD1999999+0041REMSYN070AAXX  29184 82678 32598 50902 10320 20189 39957 40114 85200 333 58004;EQDQ01  00002PRCP99
0186826780999992000063000004-06760-043190FM-12+013899999V0209999C000012200019N9999999N1+02621+02071101251ADDAA199000091GF104991021021008001001011KA1240M+03281MA1999999099671MD1999999-0011REMSYN076AAXX  30004 82678 325// 40000 10262 20207 39967 40125 82201 333 10328 59001;EQDQ01  00002PRCP99
0186826780999992000063012004-06760-043190FM-12+013899999V0201401N003110450019N0200001N1+02681+01971999999ADDAA199000091GF105991011011008001031001KA1240N+02301MA1999999100021MD1999999+0111REMSYN076AAXX  30124 82678 32598 51406 10268 20197 30002 46160 81130 333 20230 58011;EQDQ01  00002PRCP99
0183826780999992000063018004-06760-043190FM-12+013899999V0201401N001510075019N0200001N1+03301+01951101111ADDAA199000091GF108991999021008001001001MA1999999099551MD1999999-0021REMSYN070AAXX  30184 82678 32598 81403 10330 20195 39955 40111 85200 333 59002;EQDQ01+000052SCOTLCQ02  00002PRCP99
0196826780999992000070100004-06760-043190FM-12+013899999V0209999C000012200019N9999999N1+02621+01811101301ADDAA199000091GA1001+999999999GF100991001001999999001001KA1240M+03381MA1999999099721MD1999999+0051REMSYN070AAXX  01004 82678 329// 00000 10262 20181 39972 40130 333 10338 58005;EQDQ01  00002PRCP99
0202826780999992000070112004-06760-043190FM-12+013899999V0200501N003112200019N0200001N1+02761+01831101541ADDAA199000091GF103991999011008001001001KA1240N+02221MA1999999099961MD1999999-0061REMSYN076AAXX  01124 82678 32598 30506 10276 20183 39996 40154 82100 333 20222 59006;EQDQ01+000022SCOTLCQ02  00002PRCP99
0196826780999992000070200004-06760-043190FM-12+013899999V0201401N000512200019N9999999N1+02461+01881101171ADDAA199000091GA1001+999999999GF100991001001999999001001KA1240M+03381MA1999999099591MD1999999-0131REMSYN070AAXX  02004 82678 329// 01401 10246 20188 39959 40117 333 10338 59013;EQDQ01  00002PRCP99
0186826780999992000070212004-06760-043190FM-12+013899999V0200901N000510075019N0200001N1+02601+01761101541ADDAA199000091GF107991051051008001031001KA1240N+02181MA1999999099951MD1999999-0011REMSYN076AAXX  02124 82678 32598 70901 10260 20176 39995 40154 85530 333 20218 59001;EQDQ01  00002PRCP99
0167826780999992000070218004-06760-043190FM-12+013899999V0200901N001010075019N0200001N1+03001+02001101221ADDAA199000091GF108991071051008001031999MA1999999099651MD1999999+0341REMSYN070AAXX  02184 82678 32598 80902 10300 20200 39965 40122 8753/ 333 58034;EQDQ01  00002PRCP99
0186826780999992000070300004-06760-043190FM-12+013899999V0209999C000011050019N9999999N1+02651+02031101351ADDAA199000091GF106991021001017501011021KA1240M+03151MA1999999099771MD1999999+0181REMSYN076AAXX  03004 82678 327// 60000 10265 20203 39977 40135 82012 333 10315 58018;EQDQ01  00002PRCP99
0186826780999992000070312004-06760-043190FM-12+013899999V0201401N003112200019N0200001N1+02641+01691101601ADDAA199000091GF103991011011008001001011KA1240N+02121MA1999999100021MD1999999+0071REMSYN076AAXX  03124 82678 32598 31406 10264 20169 30002 40160 81101 333 20212 58007;EQDQ01  00002PRCP99
0167826780999992000070318004-06760-043190FM-12+013899999V0201401N001512200019N0200001N1+03341+01631101151ADDAA199000091GF103991021011008001001021MA1999999099591MD1999999-0061REMSYN070AAXX  03184 82678 32598 31403 10334 20163 39959 40115 82102 333 59006;EQDQ01  00002PRCP99
0196826780999992000070400004-06760-043190FM-12+013899999V0209999C000012200019N9999999N1+02441+01661101291ADDAA199000091GA1001+999999999GF100991001001999999001001KA1240M+03421MA1999999099711MD1999999-0061REMSYN070AAXX  04004 82678 329// 00000 10244 20166 39971 40129 333 10342 59006;EQDQ01  00002PRCP99
0196826780999992000070412004-06760-043190FM-12+013899999V0201401N003612200019N9999999N1+02601+01711101571ADDAA199000091GA1001+999999999GF100991001001999999001001KA1240N+02201MA1999999099981MD1999999-0041REMSYN070AAXX  04124 82678 329// 01407 10260 20171 39998 40157 333 20220 59004;EQDQ01  00002PRCP99
0167826780999992000070418004-06760-043190FM-12+013899999V0201401N002112200019N0200001N1+03281+01781101081ADDAA199000091GF105991031021008001001011MA1999999099521MD1999999-0071REMSYN070AAXX  04184 82678 32598 51404 10328 20178 39952 40108 83201 333 59007;EQDQ01  00002PRCP99
0186826780999992000070500004-06760-043190FM-12+013899999V0209999C000012200019N0200001N1+02701+01751101341ADDAA199000091GF103991011011008001001011KA1240M+03311MA1999999099761MD1999999+0051REMSYN076AAXX  05004 82678 32598 30000 10270 20175 39976 40134 81101 333 10331 58005;EQDQ01  00002PRCP99
0186826780999992000070512004-06760-043190FM-12+013899999V0201401N005112200019N0200001N1+02561+01801101501ADDAA199000091GF102991011011008001001011KA1240N+02181MA1999999099921MD1999999-0061REMSYN076AAXX  05124 82678 32598 21410 10256 20180 39992 40150 81101 333 20218 59006;EQDQ01  00002PRCP99
0196826780999992000070600004-06760-043190FM-12+013899999V0201401N000512200019N9999999N1+02581+01741101351ADDAA199000091GA1001+999999999GF100991001001999999001001KA1240M+03281MA1999999099761MD1999999+0001REMSYN070AAXX  06004 82678 329// 01401 10258 20174 39976 40135 333 10328 58000;EQDQ01  00002PRCP99
0186826780999992000070612004-06760-043190FM-12+013899999V0201401N004112200019N0200001N1+02541+01541101521ADDAA199000091GF102991011001017501031011KA1240N+02101MA1999999099931MD1999999+0011REMSYN076AAXX  06124 82678 32798 21408 10254 20154 39993 40152 81031 333 20210 58001;EQDQ01  00002PRCP99
0167826780999992000070618004-06760-043190FM-12+013899999V0201401N002612200019N0200001N1+03261+01601101091ADDAA199000091GF102991011011008001001011MA1999999099521MD1999999-0091REMSYN070AAXX  06184 82678 32598 21405 10326 20160 39952 40109 81101 333 59009;EQDQ01  00002PRCP99
0196826780999992000070700004-06760-043190FM-12+013899999V0209999C000012200019N9999999N1+02381+01731101341ADDAA199000091GA1001+999999999GF100991001001999999001001KA1240M+03311MA1999999099751MD1999999-0011REMSYN070AAXX  07004 82678 329// 00000 10238 20173 39975 40134 333 10331 59001;EQDQ01  00002PRCP99
0196826780999992000070712004-06760-043190FM-12+013899999V0200901N003112200019N0200001N1+02541+01481101651ADDAA199000091GA1001+999999999GF100991001001999999001001KA1240N+01701MA1999999100061MD1999999+0131REMSYN070AAXX  07124 82678 32998 00906 10254 20148 30006 40165 333 20170 58013;EQDQ01  00002PRCP99
0167826780999992000070718004-06760-043190FM-12+013899999V0200901N001512200019N0200001N1+03261+01721101221ADDAA199000091GF101991011011008001001001MA1999999099641MD1999999+0121REMSYN070AAXX  07184 82678 32598 10903 10326 20172 39964 40122 81100 333 58012;EQDQ01  00002PRCP99
0196826780999992000070800004-06760-043190FM-12+013899999V0209999C000012200019N9999999N1+02341+01691101031ADDAA199000091GA1001+999999999GF100991001001999999001001KA1240M+03341MA1999999099741MD1999999-0011REMSYN070AAXX  08004 82678 329// 00000 10234 20169 39974 40103 333 10334 59001;EQDQ01  00002PRCP99
0186826780999992000070812004-06760-043190FM-12+013899999V0201401N003112200019N0200001N1+02661+01651101551ADDAA199000091GF101991011001017501031001KA1240N+01841MA1999999099961MD1999999-0101REMSYN076AAXX  08124 82678 32798 11406 10266 20165 39996 40155 81030 333 20184 59010;EQDQ01  00002PRCP99
0167826780999992000070818004-06760-043190FM-12+013899999V0200901N001512200019N0200001N1+03321+01651101061ADDAA199000091GF103991021011008001031001MA1999999099491MD1999999-0151REMSYN070AAXX  08184 82678 32598 30903 10332 20165 39949 40106 82130 333 59015;EQDQ01  00002PRCP99
0180826780999992000070900004-06760-043190FM-12+013899999V0201801N001012200019N9999999N1+02501+01891101211ADDAA199000091GF101991999999999999999999KA1240M+03361MA1999999099631MD1999999-0111REMSYN070AAXX  09004 82678 329// 11802 10250 20189 39963 40121 333 10336 59011;EQDQ01  00002PRCP99
0202826780999992000070912004-06760-043190FM-12+013899999V0201401N003119999999N0200001N1+02571+01831101491ADDAA199000091GF106991999051008001001001KA1240N+02151MA1999999099901MD1999999-0061REMSYN076AAXX  09124 82678 32598 61406 10257 20183 39990 40149 84500 333 20215 59006;EQDQ01+000042SCOTLCQ02  00002PRCP99
0167826780999992000070918004-06760-043190FM-12+013899999V0201401N003110450019N0200001N1+03271+01681101011ADDAA199000091GF105991041051008001021001MA1999999099451MD1999999-0041REMSYN070AAXX  09184 82678 32598 51406 10327 20168 39945 40101 84520 333 59004;EQDQ01  00002PRCP99
0196826780999992000071000004-06760-043190FM-12+013899999V0201401N001012200019N9999999N1+02501+01981101251ADDAA199000091GA1001+999999999GF100991001001999999001001KA1240M+03381MA1999999099661MD1999999+0031REMSYN070AAXX  10004 82678 329// 01402 10250 20198 39966 40125 333 10338 58003;EQDQ01  00002PRCP99
0196826780999992000071012004-06760-043190FM-12+013899999V0200901N004112200019N0200001N1+02721+01881101511ADDAA199000091GA1001+999999999GF100991001001999999001001KA1240N+02301MA1999999099921MD1999999+0021REMSYN070AAXX  10124 82678 32998 00908 10272 20188 39992 40151 333 20230 58002;EQDQ01  00002PRCP99
0167826780999992000071018004-06760-043190FM-12+013899999V0200901N002612200019N0200001N1+03301+01841101091ADDAA199000091GF103991031011008001001001MA1999999099531MD1999999+0081REMSYN070AAXX  10184 82678 32598 30905 10330 20184 39953 40109 83100 333 58008;EQDQ01  00002PRCP99
0186826780999992000071100004-06760-043190FM-12+013899999V0209999C000010075019N9999999N1+02921+01861101161ADDAA199000091GF108991051051008001031999KA1240M+03381MA1999999099591MD1999999-0071REMSYN076AAXX  11004 82678 325// 80000 10292 20186 39959 40116 8553/ 333 10338 59007;EQDQ01  00002PRCP99
0186826780999992000071112004-06760-043190FM-12+013899999V0200901N003110150019N0200001N1+02841+01911101551ADDAA199000091GF105991051001017501031001KA1240N+02321MA1999999099981MD1999999+0061REMSYN076AAXX  11124 82678 32798 50906 10284 20191 39998 40155 85030 333 20232 58006;EQDQ01  00002PRCP99
0167826780999992000071118004-06760-043190FM-12+013899999V0200901N004110120019N0200001N1+03301+01911101061ADDAA199000091GF106991051081008001031001MA1999999099501MD1999999-0031REMSYN070AAXX  11184 82678 32598 60908 10330 20191 39950 40106 85830 333 59003;EQDQ01  00002PRCP99
0186826780999992000071200004-06760-043190FM-12+013899999V0209999C000012200019N9999999N1+02721+01981101311ADDAA199000091GF104991041021017501001001KA1240M+03361MA1999999099741MD1999999+0151REMSYN076AAXX  12004 82678 327// 40000 10272 20198 39974 40131 84200 333 10336 58015;EQDQ01  00002PRCP99
0185826780999992000071212004-06760-043190FM-12+013899999V0200901N004110450019N0200001N1+02841+02121101591ADDAA199000091GF105991011011008001031001KA1240N+02461MA1999999100021MD1999999+0041REMSYN075AAXX  12124 82678 32598 50908 10284 2021230002 40159 81130 333 20246 58004;EQDQ01  00002PRCP99
0167826780999992000071218004-06760-043190FM-12+013899999V0201401N002612200019N0200001N1+03441+01721101101ADDAA199000091GF104991041021008001001001MA1999999099551MD1999999+0051REMSYN070AAXX  12184 82678 32598 41405 10344 20172 39955 40110 84200 333 58005;EQDQ01  00002PRCP99
0196826780999992000071300004-06760-043190FM-12+013899999V0209999C000012200019N9999999N1+02671+02001101391ADDAA199000091GA1001+999999999GF100991001001999999001001KA1240M+03481MA1999999099821MD1999999+0081REMSYN070AAXX  13004 82678 329// 00000 10267 20200 39982 40139 333 10348 58008;EQDQ01  00002PRCP99
0186826780999992000071312004-06760-043190FM-12+013899999V0200901N005112200019N0200001N1+02701+01751101771ADDAA199000091GF102991011001017501031011KA1240N+02061MA1999999100191MD1999999+0171REMSYN076AAXX  13124 82678 32798 20910 10270 20175 30019 40177 81031 333 20206 58017;EQDQ01  00002PRCP99
0167826780999992000071318004-06760-043190FM-12+013899999V0200901N002112200019N0200001N1+03311+01461101271ADDAA199000091GF105991031001017501031011MA1999999099701MD1999999+0151REMSYN070AAXX  13184 82678 32798 50904 10331 20146 39970 40127 83031 333 58015;EQDQ01  00002PRCP99
0186826780999992000071412004-06760-043190FM-12+013899999V0201401N003112200019N0200001N1+02741+01611101701ADDAA199000091GF106991021001017501011011KA1240N+02161MA1999999100111MD1999999-0081REMSYN076AAXX  14124 82678 32798 61406 10274 20161 30011 40170 82011 333 20216 59008;EQDQ01  00002PRCP99
0167826780999992000071418004-06760-043190FM-12+013899999V0200901N003112200019N0200001N1+03331+01651101121ADDAA199000091GF104991031021008001001011MA1999999099561MD1999999-0141REMSYN070AAXX  14184 82678 32598 40906 10333 20165 39956 40112 83201 333 59014;EQDQ01  00002PRCP99
0196826780999992000071500004-06760-043190FM-12+013899999V0209999C000012200019N9999999N1+02591+01801101381ADDAA199000091GA1001+999999999GF100991001001999999001001KA1240M+03381MA1999999099891MD1999999-0041REMSYN070AAXX  15004 82678 329// 00000 10259 20180 39989 40138 333 10338 59004;EQDQ01  00002PRCP99
0186826780999992000071512004-06760-043190FM-12+013899999V0200901N005110450019N0200001N1+02621+01761101621ADDAA199000091GF106991011011008001031001KA1240N+02221MA1999999100931MD1999999-0081REMSYN076AAXX  15124 82678 32598 60910 10262 20176 30093 40162 81130 333 20222 59008;EQDQ01  00002PRCP99
0183826780999992000071518004-06760-043190FM-12+013899999V0200901N001512200019N0200001N1+03321+01591101131ADDAA199000091GF103991031011008001001001MA1999999099572MD1999999+0011REMSYN070AAXX  15184 82678 32598 30903 10332 20159 39957 40113 83100 333 58001;EQDQ01+099573APOSP Q02  00002PRCP99
0196826780999992000071600004-06760-043010FM-12+013899999V0209999C000012200019N9999999N1+02541+01761101301ADDAA199000091GA1001+999999999GF100991001001999999001001KA1240M+03401MA1999999099721MD1999999-0081REMSYN070AAXX  16004 82678 329// 00000 10254 20176 39972 40130 333 10340 59008;EQDQ01  00002PRCP99
0196826780999992000071600004-06760-043190FM-12+013899999V0209999C000012200019N9999999N1+02541+01761101301ADDAA199000091GA1001+999999999GF100991001001999999001001KA1240M+03401MA1999999099721MD1999999-0081REMSYN070AAXX  16004 82678 329// 00000 10254 20176 39972 40130 333 10340 59008;EQDQ01  00002PRCP99
0186826780999992000071612004-06760-043190FM-12+013899999V0200901N004112200019N0200001N1+02781+01611101591ADDAA199000091GF102991011011008001031001KA1240N+02001MA1999999100011MD1999999-0011REMSYN076AAXX  16124 82678 32598 20908 10278 20161 30001 40159 81130 333 20200 59001;EQDQ01  00002PRCP99
0167826780999992000071618004-06760-043190FM-12+013899999V0201801N001512200019N0200001N1+03441+01581100981ADDAA199000091GF102991021011008001001001MA1999999099421MD1999999-0151REMSYN070AAXX  16184 82678 32598 21803 10344 20158 39942 40098 82100 333 59015;EQDQ01  00002PRCP99
0196826780999992000071700004-06760-043190FM-12+013899999V0203201N001012200019N9999999N1+02741+01871101221ADDAA199000091GA1001+999999999GF100991001001999999001001KA1240M+03531MA1999999099651MD1999999-0071REMSYN070AAXX  17004 82678 329// 03202 10274 20187 39965 40122 333 10353 59007;EQDQ01  00002PRCP99
0186826780999992000071712004-06760-043190FM-12+013899999V0203201N001010075019N0200001N1+02501+02171101491ADDAA199000091GF108991081051008001999999KA1240N+01971MA1999999099901MD1999999-0111REMSYN076AAXX  17124 82678 32598 83202 10250 20217 39990 40149 885// 333 20197 59011;EQDQ01  00002PRCP99
0167826780999992000071718004-06760-043190FM-12+013899999V0203201N002612200019N0200001N1+03281+02031101041ADDAA199000091GF103991031021008001001001MA1999999099471MD1999999+0051REMSYN070AAXX  17184 82678 32598 33205 10328 20203 39947 40104 83200 333 58005;EQDQ01  00002PRCP99
0196826780999992000071800004-06760-043010FM-12+013899999V0200501N001012200019N9999999N1+02651+02031101221ADDAA199000091GA1001+999999999GF100991001001999999001001KA1240M+03341MA1999999099641MD1999999-0011REMSYN070AAXX  18004 82678 329// 00502 10265 20203 39964 40122 333 10334 59001;EQDQ01  00002PRCP99
0186826780999992000071812004-06760-043010FM-12+013899999V0203201N001510075019N0200001N1+02521+02191101531ADDAA199000091GF108991081051008001999999KA1240N+02131MA1999999099941MD1999999+0041REMSYN076AAXX  18124 82678 32598 83203 10252 20219 39994 40153 885// 333 20213 58004;EQDQ01  00002PRCP99
0167826780999992000071818004-06760-043010FM-12+013899999V0203601N001510075019N0200001N1+03201+02301101101ADDAA199000091GF107991061051008001031001MA1999999099531MD1999999+0061REMSYN070AAXX  18184 82678 32598 73603 10320 20230 39953 40110 86530 333 58006;EQDQ01  00002PRCP99
0220826780999992000071900004-06760-043010FM-12+013899999V0209999C000010075019N9999999N1+02381+02211101331ADDAA106007191AY161061AY221061GF107991999021008001001001KA1240M+03401MA1999999099741MD1999999+0101MW1021REMSYN088AAXX  19004 82678 215// 70000 10238 20221 39974 40133 70262 85200 333 10340 58010 60071;EQDQ01+000052SCOTLC
0201826780999992000071912004-06760-043010FM-12+013899999V0209999C000010075019N0200001N1+02461+02271101651ADDAA124007191AY161061AY221061GF108991081051008001999999KA1240N+02161MA1999999100051MD1999999+0111MW1031REMSYN088AAXX  19124 82678 21598 80000 10246 20227 30005 40165 70362 885// 333 20216 58011 60074;
0167826780999992000071918004-06760-043010FM-12+013899999V0200901N000510450019N0200001N1+03081+02071101221ADDAA199000091GF107991041051008001031011MA1999999099651MD1999999+0121REMSYN070AAXX  19184 82678 32598 70901 10308 20207 39965 40122 84531 333 58012;EQDQ01  00002PRCP99
0186826780999992000072000004-06760-043010FM-12+013899999V0209999C000012200019N9999999N1+02581+02271101361ADDAA199000091GF103991031021017501001001KA1240M+03141MA1999999099771MD1999999+0031REMSYN076AAXX  20004 82678 327// 30000 10258 20227 39977 40136 83200 333 10314 58003;EQDQ01  00002PRCP99
0186826780999992000072012004-06760-043010FM-12+013899999V0200901N001512200019N0200001N1+02721+01981101551ADDAA199000091GF102991011001017501031011KA1240N+02001MA1999999099971MD1999999-0081REMSYN076AAXX  20124 82678 32798 20903 10272 20198 39997 40155 81031 333 20200 59008;EQDQ01  00002PRCP99
0167826780999992000072018004-06760-043010FM-12+013899999V0200901N002610075019N0200001N1+03321+01851100981ADDAA199000091GF106991061021008001001001MA1999999099411MD1999999-0241REMSYN070AAXX  20184 82678 32598 60905 10332 20185 39941 40098 86200 333 59024;EQDQ01  00002PRCP99
0186826780999992000072100004-06760-043010FM-12+013899999V0200901N002612200019N9999999N1+02631+02051101121ADDAA199000091GF102991021041008001001001KA1240M+03441MA1999999099551MD1999999-0021REMSYN076AAXX  21004 82678 325// 20905 10263 20205 39955 40112 82400 333 10344 59002;EQDQ01  00002PRCP99
0186826780999992000072112004-06760-043010FM-12+013899999V0203601N001512200019N0200001N1+02741+02141101391ADDAA199000091GF103991011021008001031091KA1240N+02121MA1999999099811MD1999999-0161REMSYN076AAXX  21124 82678 32598 33603 10274 20214 39981 40139 81239 333 20212 59016;EQDQ01  00002PRCP99
0167826780999992000072118004-06760-043010FM-12+013899999V0200901N003110450019N0200001N1+03221+01911100991ADDAA199000091GF106991041081008001031001MA1999999099431MD1999999+0021REMSYN070AAXX  21184 82678 32598 60906 10322 20191 39943 40099 84830 333 58002;EQDQ01  00002PRCP99
0186826780999992000072200004-06760-043010FM-12+013899999V0200501N002610075019N9999999N1+02671+02091101221ADDAA199000091GF106991061041008001001001KA1240M+03341MA1999999099651MD1999999+0101REMSYN076AAXX  22004 82678 325// 60505 10267 20209 39965 40122 86400 333 10334 58010;EQDQ01  00002PRCP99
0202826780999992000072212004-06760-043010FM-12+013899999V0200901N001510012019N0020001N1+02781+01851101511ADDAA199000091GA1091+999999999GF109991091999999999999999KA1240N+02101MA1999999099931MD1999999+0121REMSYN076AAXX  22124 82678 32495 90903 10278 20185 39993 40151 85030 333 20210 58012;EQDQ01  00002PRCP99
0167826780999992000072218004-06760-043010FM-12+013899999V0200901N002610150019N0200001N1+03341+01581101071ADDAA199000091GF106991061021017501001001MA1999999099511MD1999999+0081REMSYN070AAXX  22184 82678 32798 60905 10334 20158 39951 40107 86200 333 58008;EQDQ01  00002PRCP99
0196826780999992000072300004-06760-043010FM-12+013899999V0209999C000012200019N9999999N1+02801+01841101221ADDAA199000091GA1001+999999999GF100991001001999999001001KA1240M+03461MA1999999099651MD1999999+0001REMSYN070AAXX  23004 82678 325// 00000 10280 20184 39965 40122 333 10346 58000;EQDQ01  00002PRCP99
0196826780999992000072312004-06760-043010FM-12+013899999V0200901N001512200019N0200001N1+02781+01731101531ADDAA199000091GA1001+999999999GF100991001001999999001001KA1240N+02141MA1999999099961MD1999999+0031REMSYN070AAXX  23124 82678 32998 00903 10278 20173 39996 40153 333 20214 58003;EQDQ01  00002PRCP99
0167826780999992000072318004-06760-043010FM-12+013899999V0201401N001012200019N0200001N1+03421+01741101051ADDAA199000091GF103991021011008001001011MA1999999099501MD1999999-0011REMSYN070AAXX  23184 82678 32598 31402 10342 20174 39950 40105 82101 333 59001;EQDQ01  00002PRCP99
0196826780999992000072400004-06760-043010FM-12+013899999V0209999C000012200019N9999999N1+02621+01861101211ADDAA199000091GA1001+999999999GF100991001001999999001001KA1240M+03501MA1999999099641MD1999999-0011REMSYN070AAXX  24004 82678 329// 00000 10262 20186 39964 40121 333 10350 59001;EQDQ01  00002PRCP99
0186826780999992000072412004-06760-043010FM-12+013899999V0200901N001512200019N0200001N1+02871+01581101441ADDAA199000091GF101991011011008001001001KA1240N+01961MA1999999099871MD1999999-0091REMSYN076AAXX  24124 82678 32598 10903 10287 20158 39987 40144 81100 333 20196 59009;EQDQ01  00002PRCP99
0167826780999992000072418004-06760-043010FM-12+013899999V0201401N002612200019N0200001N1+03541+01521100921ADDAA199000091GF105991031021008001001011MA1999999099361MD1999999-0141REMSYN070AAXX  24184 82678 32598 51405 10354 20152 39936 40092 83201 333 59014;EQDQ01  00002PRCP99
0196826780999992000072500004-06760-043010FM-12+013899999V0200901N001512200019N9999999N1+02711+01751101081ADDAA199000091GA1001+999999999GF100991001001999999001001KA1240M+03621MA1999999099511MD1999999-0131REMSYN070AAXX  25004 82678 329// 00903 10271 20175 39951 40108 333 10362 59013;EQDQ01  00002PRCP99
0186826780999992000072512004-06760-043010FM-12+013899999V0200501N002112200019N0200001N1+02741+02071101581ADDAA199000091GF103991031051008001001001KA1240N+01981MA1999999100001MD1999999-0131REMSYN076AAXX  25124 82678 32598 30504 10274 20207 30000 40158 83500 333 20198 59013;EQDQ01  00002PRCP99
0167826780999992000072518004-06760-043010FM-12+013899999V0201401N002610075019N0200001N1+03371+01561101141ADDAA199000091GF105991051021008001001001MA1999999099571MD1999999+0211REMSYN070AAXX  25184 82678 32598 51405 10337 20156 39957 40114 85200 333 58021;EQDQ01  00002PRCP99
0196826780999992000072600004-06760-043010FM-12+013899999V0201801N001012200019N9999999N1+02561+01731101331ADDAA199000091GA1001+999999999GF100991001001999999001001KA1240M+03461MA1999999099751MD1999999+0241REMSYN070AAXX  26004 82678 329// 01802 10256 20173 39975 40133 333 10346 58024;EQDQ01  00002PRCP99
0196826780999992000072612004-06760-043010FM-12+013899999V0200901N005112200019N0200001N1+02701+01691101621ADDAA199000091GA1001+999999999GF100991001001999999001001KA1240N+01841MA1999999100041MD1999999+0041REMSYN070AAXX  26124 82678 32998 00910 10270 20169 30004 40162 333 20184 58004;EQDQ01  00002PRCP99
0167826780999992000072618004-06760-043010FM-12+013899999V0200501N001512200019N0200001N1+03341+01541101111ADDAA199000091GF102991021011008001001001MA1999999099541MD1999999-0031REMSYN070AAXX  26184 82678 32598 20503 10334 20154 39954 40111 82100 333 59003;EQDQ01  00002PRCP99
0196826780999992000072700004-06760-043010FM-12+013899999V0209999C000012200019N9999999N1+02581+01741101241ADDAA199000091GA1001+999999999GF100991001001999999001001KA1240M+03401MA1999999099661MD1999999-0091REMSYN070AAXX  27004 82678 329// 00000 10258 20174 39966 40124 333 10340 59009;EQDQ01  00002PRCP99
0167826780999992000072718004-06760-043010FM-12+013899999V0201801N000510075019N0200001N1+03361+01851101111ADDAA199000091GF106991061051008001001001MA1999999099541MD1999999+0001REMSYN070AAXX  27184 82678 32598 61801 10336 20185 39954 40111 86500 333 58000;EQDQ01  00002PRCP99
0186826780999992000072800004-06760-043010FM-12+013899999V0209999C000012200019N9999999N1+02681+01971101221ADDAA199000091GF102991021011008001001001KA1240M+03441MA1999999099641MD1999999-0021REMSYN076AAXX  28004 82678 325// 20000 10268 20197 39964 40122 82100 333 10344 59002;EQDQ01  00002PRCP99
0186826780999992000072812004-06760-043010FM-12+013899999V0201401N005112200019N0200001N1+02751+01671101611ADDAA199000091GF103991011001017501031011KA1240N+02301MA1999999100031MD1999999-0021REMSYN076AAXX  28124 82678 32798 31410 10275 20167 30003 40161 81031 333 20230 59002;EQDQ01  00002PRCP99
0167826780999992000072818004-06760-043010FM-12+013899999V0201801N003112200019N0200001N1+03441+01481101061ADDAA199000091GF105991031011008001001011MA1999999099511MD1999999-0031REMSYN070AAXX  28184 82678 32598 51806 10344 20148 39951 40106 83101 333 59003;EQDQ01  00002PRCP99
0196826780999992000072900004-06760-043010FM-12+013899999V0201401N002612200019N9999999N1+02811+01561101311ADDAA199000091GA1001+999999999GF100991001001999999001001KA1240M+03461MA1999999099741MD1999999+0101REMSYN070AAXX  29004 82678 329// 01405 10281 20156 39974 40131 333 10346 58010;EQDQ01  00002PRCP99
0186826780999992000072912004-06760-043010FM-12+013899999V0201401N005712200019N0200001N1+02641+01691101581ADDAA199000091GF103991011011008001001011KA1240N+02201MA1999999100001MD1999999-0031REMSYN076AAXX  29124 82678 32598 31411 10264 20169 30000 40158 81101 333 20220 59003;EQDQ01  00002PRCP99
0183826780999992000072918004-06760-043010FM-12+013899999V0201401N002610075019N0200001N1+03281+01621101071ADDAA199000091GF106991999021008001001001MA1999999099511MD1999999+0001REMSYN070AAXX  29184 82678 32598 61405 10328 20162 39951 40107 85200 333 58000;EQDQ01+000052SCOTLCQ02  00002PRCP99
0196826780999992000073000004-06760-043010FM-12+013899999V0201401N002612200019N9999999N1+02681+01551101311ADDAA199000091GA1001+999999999GF100991001001999999001001KA1240M+03351MA1999999099731MD1999999-0011REMSYN070AAXX  30004 82678 329// 01405 10268 20155 39973 40131 333 10335 59001;EQDQ01  00002PRCP99
0186826780999992000073012004-06760-043010FM-12+013899999V0201401N005112200019N0200001N1+02521+01771101601ADDAA199000091GF102991021011008001001001KA1240N+02061MA1999999100011MD1999999+0011REMSYN076AAXX  30124 82678 32598 21410 10252 20177 30001 40160 82100 333 20206 58001;EQDQ01  00002PRCP99
0167826780999992000073018004-06760-043010FM-12+013899999V0201401N001512200019N0200001N1+03341+01711101121ADDAA199000091GF104991041011008001001001MA1999999099561MD1999999+0051REMSYN070AAXX  30184 82678 32598 41403 10334 20171 39956 40112 84100 333 58005;EQDQ01  00002PRCP99
0196826780999992000073100004-06760-043010FM-12+013899999V0209999C000512200019N9999999N1+02601+01681101221ADDAA199000091GA1001+999999999GF100991001001999999001001KA1240M+03401MA1999999099641MD1999999-0091REMSYN070AAXX  31004 82678 329// 00001 10260 20168 39964 40122 333 10340 59009;EQDQ01  00002PRCP99
0186826780999992000073112004-06760-043010FM-12+013899999V0200901N004110450019N0200001N1+02621+01591101601ADDAA199000091GF105991031051008001031001KA1240N+02021MA1999999100011MD1999999+0001REMSYN076AAXX  31124 82678 32598 50908 10262 20159 30001 40160 83530 333 20202 58000;EQDQ01  00002PRCP99
0167826780999992000073118004-06760-043010FM-12+013899999V0201401N001510075019N0200001N1+03441+01481101101ADDAA199000091GF105991051011008001001001MA1999999099541MD1999999-0021REMSYN070AAXX  31184 82678 32598 51403 10344 20148 39954 40110 85100 333 59002;EQDQ01  00002PRCP99
0196826780999992000080100004-06760-043010FM-12+013899999V0209999C000012200019N9999999N1+02601+01871101181ADDAA199000091GA1001+999999999GF100991001001999999001001KA1240M+03501MA1999999099601MD1999999-0041REMSYN070AAXX  01004 82678 329// 00000 10260 20187 39960 40118 333 10350 59004;EQDQ01  00002PRCP99
0186826780999992000080112004-06760-043010FM-12+013899999V0201401N005112200019N0200001N1+02781+01611101511ADDAA199000091GF103991031001017501031001KA1240N+02131MA1999999099931MD1999999-0081REMSYN076AAXX  01124 82678 32798 31410 10278 20161 39993 40151 83030 333 20213 59008;EQDQ01  00002PRCP99
0167826780999992000080118004-06760-043010FM-12+013899999V0200901N003111050019N0200001N1+03471+01641100941ADDAA199000091GF105991021011008001031031MA1999999099391MD1999999-0151REMSYN070AAXX  01184 82678 32598 50906 10347 20164 39939 40094 82133 333 59015;EQDQ01  00002PRCP99
0186826780999992000080200004-06760-043010FM-12+013899999V0201401N002112200019N9999999N1+02921+01571101161ADDAA199000091GF101991011021008001001001KA1240M+03541MA1999999099601MD1999999+0001REMSYN076AAXX  02004 82678 325// 11404 10292 20157 39960 40116 81200 333 10354 58000;EQDQ01  00002PRCP99
0186826780999992000080212004-06760-043010FM-12+013899999V0201401N004610450019N0200001N1+02721+01791101561ADDAA199000091GF108991041051008001031021KA1240N+02321MA1999999099961MD1999999+0031REMSYN076AAXX  02124 82678 32598 81409 10272 20179 39996 40156 84532 333 20232 58003;EQDQ01  00002PRCP99
0183826780999992000080218004-06760-043010FM-12+013899999V0200901N003119999999N0200001N1+03431+01651101121ADDAA199000091GF107991999021008001001001MA1999999099561MD1999999+0171REMSYN070AAXX  02184 82678 32598 70906 10343 20165 39956 40112 84200 333 58017;EQDQ01+000042SCOTLCQ02  00002PRCP99
0202826780999992000080300004-06760-043010FM-12+013899999V0209999C000012200019N9999999N1+02701+01781101291ADDAA199000091GF101991999011008001001001KA1240M+03501MA1999999099711MD1999999+0111REMSYN076AAXX  03004 82678 325// 10000 10270 20178 39971 40129 82100 333 10350 58011;EQDQ01+000022SCOTLCQ02  00002PRCP99
0186826780999992000080312004-06760-043010FM-12+013899999V0200901N005112200019N0200001N1+02681+01781101671ADDAA199000091GF104991021001017501031011KA1240N+02381MA1999999100091MD1999999+0131REMSYN076AAXX  03124 82678 32798 40910 10268 20178 30009 40167 82031 333 20238 58013;EQDQ01  00002PRCP99
0167826780999992000080318004-06760-043010FM-12+013899999V0200901N001510075019N0200001N1+03361+01731101281ADDAA199000091GF105991051021008001001001MA1999999099721MD1999999+0161REMSYN070AAXX  03184 82678 32598 50903 10336 20173 39972 40128 85200 333 58016;EQDQ01  00002PRCP99
0196826780999992000080400004-06760-043010FM-12+013899999V0209999C000012200019N9999999N1+02621+01761101391ADDAA199000091GA1001+999999999GF100991001001999999001001KA1240M+03421MA1999999099811MD1999999+0101REMSYN070AAXX  04004 82678 329// 00000 10262 20176 39981 40139 333 10342 58010;EQDQ01  00002PRCP99
0186826780999992000080412004-06760-043010FM-12+013899999V0200901N003112200019N0200001N1+02861+01651101531ADDAA199000091GF102991021011008001001001KA1240N+02021MA1999999099951MD1999999-0141REMSYN076AAXX  04124 82678 32598 20906 10286 20165 39995 40153 82100 333 20202 59014;EQDQ01  00002PRCP99
0196826780999992000080500004-06760-043010FM-12+013899999V0209999C000512200019N9999999N1+02801+01841101191ADDAA199000091GA1001+999999999GF100991001001999999001001KA1240M+03561MA1999999099631MD1999999-0051REMSYN070AAXX  05004 82678 329// 00001 10280 20184 39963 40119 333 10356 59005;EQDQ01  00002PRCP99
0186826780999992000080512004-06760-043010FM-12+013899999V0201401N004110450019N0200001N1+02911+01691101501ADDAA199000091GF105991021021008001031001KA1240N+02061MA1999999099931MD1999999-0021REMSYN076AAXX  05124 82678 32598 51408 10291 20169 39993 40150 82230 333 20206 59002;EQDQ01  00002PRCP99
0167826780999992000080518004-06760-043010FM-12+013899999V0201401N004110075019N0200001N1+03441+01531101051ADDAA199000091GF105991051021008001001001MA1999999099481MD1999999-0071REMSYN070AAXX  05184 82678 32598 51408 10344 20153 39948 40105 85200 333 59007;EQDQ01  00002PRCP99
0196826780999992000080600004-06760-043010FM-12+013899999V0201401N001012200019N9999999N1+02641+01771101221ADDAA199000091GA1001+999999999GF100991001001999999001001KA1240M+03541MA1999999099651MD1999999+0021REMSYN070AAXX  06004 82678 329// 01402 10264 20177 39965 40122 333 10354 58002;EQDQ01  00002PRCP99
0186826780999992000080612004-06760-043010FM-12+013899999V0200901N003112200019N0200001N1+02791+01731101651ADDAA199000091GF102991011011008001031001KA1240N+02251MA1999999100071MD1999999-0141REMSYN076AAXX  06124 82678 32598 20906 10279 20173 30007 40165 81130 333 20225 59014;EQDQ01  00002PRCP99
0167826780999992000080618004-06760-043010FM-12+013899999V0201401N003110075019N0200001N1+03401+01641101161ADDAA199000091GF105991051021008001001001MA1999999099611MD1999999+0131REMSYN070AAXX  06184 82678 32598 51406 10340 20164 39961 40116 85200 333 58013;EQDQ01  00002PRCP99
0186826780999992000080700004-06760-043010FM-12+013899999V0201401N001512200019N9999999N1+02821+01581101371ADDAA199000091GF103991011001017501031021KA1240M+03481MA1999999099801MD1999999+0151REMSYN076AAXX  07004 82678 327// 31403 10282 20158 39980 40137 81032 333 10348 58015;EQDQ01  00002PRCP99
0186826780999992000080712004-06760-043010FM-12+013899999V0200901N004110075019N0200001N1+02641+01851101741ADDAA199000091GF106991061051008001001001KA1240N+02241MA1999999100161MD1999999+0091REMSYN076AAXX  07124 82678 32598 60908 10264 20185 30016 40174 86500 333 20224 58009;EQDQ01  00002PRCP99
0167826780999992000080718004-06760-043010FM-12+013899999V0200901N001010075019N0200001N1+03261+01841101311ADDAA199000091GF106991051051008001031001MA1999999099751MD1999999+0141REMSYN070AAXX  07184 82678 32598 60902 10326 20184 39975 40131 85530 333 58014;EQDQ01  00002PRCP99
0186826780999992000080800004-06760-043010FM-12+013899999V0209999C000012200019N9999999N1+02521+01841101371ADDAA199000091GF102991021001017501031001KA1240M+03281MA1999999099791MD1999999-0011REMSYN076AAXX  08004 82678 327// 20000 10252 20184 39979 40137 82030 333 10328 59001;EQDQ01  00002PRCP99
0186826780999992000080812004-06760-043010FM-12+013899999V0200901N003612200019N0200001N1+02801+01841101651ADDAA199000091GF104991021021008001001011KA1240N+02161MA1999999100061MD1999999-0101REMSYN076AAXX  08124 82678 32598 40907 10280 20184 30006 40165 82201 333 20216 59010;EQDQ01  00002PRCP99
0167826780999992000080818004-06760-043010FM-12+013899999V0201401N001511050019N0200001N1+03461+01781101121ADDAA199000091GF105991031021008001001021MA1999999099571MD1999999-0181REMSYN070AAXX  08184 82678 32598 51403 10346 20178 39957 40112 83202 333 59018;EQDQ01  00002PRCP99
0196826780999992000080900004-06760-043010FM-12+013899999V0209999C000012200019N9999999N1+02821+01891101381ADDAA199000091GA1001+999999999GF100991001001999999001001KA1240M+03521MA1999999099811MD1999999+0021REMSYN070AAXX  09004 82678 329// 00000 10282 20189 39981 40138 333 10352 58002;EQDQ01  00002PRCP99
0186826780999992000080912004-06760-043010FM-12+013899999V0200901N002110450019N0200001N1+02841+02011101701ADDAA199000091GF108991041081008001031011KA1240N+02231MA1999999100131MD1999999+0071REMSYN076AAXX  09124 82678 32598 80904 10284 20201 30013 40170 84831 333 20223 58007;EQDQ01  00002PRCP99
0167826780999992000080918004-06760-043010FM-12+013899999V0203601N002610120019N0200001N1+03101+01971101241ADDAA199000091GF107991061081008001031001MA1999999099671MD1999999+0101REMSYN070AAXX  09184 82678 32598 73605 10310 20197 39967 40124 86830 333 58010;EQDQ01  00002PRCP99
0186826780999992000081000004-06760-043010FM-12+013899999V0200901N004610075019N9999999N1+02561+02111101741ADDAA199000091GF108991081041008001999999KA1240M+03351MA1999999100161MD1999999+0351REMSYN076AAXX  10004 82678 325// 80909 10256 20211 30016 40174 884// 333 10335 58035;EQDQ01  00002PRCP99
0201826780999992000081012004-06760-043010FM-12+013899999V0200901N001512200019N0200001N1+02681+01971101841ADDAA124003091AY161061AY221061GF103991011011008001001021KA1240N+02141MA1999999100251MD1999999+0121MW1011REMSYN088AAXX  10124 82678 21598 30903 10268 20197 30025 40184 70162 81102 333 20214 58012 60034;
0177826780999992000081018004-06760-043010FM-12+013899999V0200901N001512200019N0200001N1+03481+01571101331ADDAA199000091GA1001+999999999GF100991001001999999001001MA1999999099771MD1999999+0101REMSYN064AAXX  10184 82678 32598 00903 10348 20157 39977 40133 333 58010;EQDQ01  00002PRCP99
0186826780999992000081112004-06760-043010FM-12+013899999V0201401N002612200019N0200001N1+02901+01721101761ADDAA199000091GF103991021011008001001021KA1240N+01821MA1999999100181MD1999999-0071REMSYN076AAXX  11124 82678 32598 31405 10290 20172 30018 40176 82102 333 20182 59007;EQDQ01  00002PRCP99
0167826780999992000081118004-06760-043010FM-12+013899999V0201401N001512200019N0200001N1+03501+02811101181ADDAA199000091GF104991031021008001001021MA1999999099611MD1999999-0161REMSYN070AAXX  11184 82678 32598 41403 10350 20281 39961 40118 83202 333 59016;EQDQ01  00002PRCP99
0196826780999992000081200004-06760-043010FM-12+013899999V0209999C000012200019N9999999N1+02681+01971101331ADDAA199000091GA1001+999999999GF100991001001999999001001KA1240M+03621MA1999999099761MD1999999-0081REMSYN070AAXX  12004 82678 329// 00000 10268 20197 39976 40133 333 10362 59008;EQDQ01  00002PRCP99
0196826780999992000081212004-06760-043010FM-12+013899999V0203601N001512200019N0200001N1+02871+02011101591ADDAA199000091GA1001+999999999GF100991001001999999001001KA1240N+02071MA1999999100021MD1999999-0161REMSYN070AAXX  12124 82678 32998 03603 10287 20201 30002 40159 333 20207 59016;EQDQ01  00002PRCP99
0167826780999992000081218004-06760-043010FM-12+013899999V0200901N001510075019N0200001N1+03491+01661101031ADDAA199000091GF106991061021008001001001MA1999999099471MD1999999-0141REMSYN070AAXX  12184 82678 32598 60903 10349 20166 39947 40103 86200 333 59014;EQDQ01  00002PRCP99
0186826780999992000081300004-06760-043010FM-12+013899999V0209999C000012200019N9999999N1+02721+01791101171ADDAA199000091GF101991011011008001001001KA1240M+03521MA1999999099621MD1999999-0161REMSYN076AAXX  13004 82678 325// 10000 10272 20179 39962 40117 81100 333 10352 59016;EQDQ01  00002PRCP99
0186826780999992000081312004-06760-043010FM-12+013899999V0200501N000512200019N0200001N1+02921+01861101691ADDAA199000091GF103991011011008001031001KA1240N+02021MA1999999100111MD1999999+0091REMSYN076AAXX  13124 82678 32598 30501 10292 20186 30011 40169 81130 333 20202 58009;EQDQ01  00002PRCP99
0167826780999992000081318004-06760-043010FM-12+013899999V0200901N001510075019N0200001N1+03481+01791101211ADDAA199000091GF106991061021008001001001MA1999999099631MD1999999+0161REMSYN070AAXX  13184 82678 32598 60903 10348 20179 39963 40121 86200 333 58016;EQDQ01  00002PRCP99
0186826780999992000081400004-06760-043010FM-12+013899999V0209999C000012200019N9999999N1+02661+01851101421ADDAA199000091GF102991021001017501031001KA1240M+03501MA1999999099851MD1999999+0251REMSYN076AAXX  14004 82678 327// 20000 10266 20185 39985 40142 82030 333 10350 58025;EQDQ01  00002PRCP99
0186826780999992000081412004-06760-043010FM-12+013899999V0200901N002111050019N0200001N1+02741+01811101771ADDAA199000091GF106991041021008001001021KA1240N+02301MA1999999100191MD1999999+0081REMSYN076AAXX  14124 82678 32598 60904 10274 20181 30019 40177 84202 333 20230 58008;EQDQ01  00002PRCP99
0167826780999992000081418004-06760-043010FM-12+013899999V0201401N001512200019N0200001N1+03381+01791101251ADDAA199000091GF104991021021008001001011MA1999999099691MD1999999+0061REMSYN070AAXX  14184 82678 32598 41403 10338 20179 39969 40125 82201 333 58006;EQDQ01  00002PRCP99
0196826780999992000081500004-06760-043010FM-12+013899999V0201401N002112200019N9999999N1+02941+01401101501ADDAA199000091GA1001+999999999GF100991001001999999001001KA1240M+03451MA1999999099931MD1999999+0081REMSYN070AAXX  15004 82678 329// 01404 10294 20140 39993 40150 333 10345 58008;EQDQ01  00002PRCP99
0196826780999992000081512004-06760-043010FM-12+013899999V0200901N003112200019N0200001N1+02641+01581101811ADDAA199000091GA1001+999999999GF100991001001999999001001KA1240N+02121MA1999999100231MD1999999+0041REMSYN070AAXX  15124 82678 32598 00906 10264 20158 30023 40181 333 20212 58004;EQDQ01  00002PRCP99
0161826780999992000081518004-06760-043010FM-12+013899999V0200901N005119999999N0200001N1+03421+01251101301ADDAA199000091GF105991999999999999999999MA1999999099731MD1999999+0041REMSYN064AAXX  15184 82678 32998 50910 10342 20125 39973 40130 333 58004;EQDQ01  00002PRCP99
0180826780999992000081600004-06760-043010FM-12+013899999V0201401N002612200019N9999999N1+02741+01221101191ADDAA199000091GF102991999999999999999999KA1240M+03461MA1999999099911MD1999999-0021REMSYN070AAXX  16004 82678 329// 21405 10274 20122 39991 40119 333 10346 59002;EQDQ01  00002PRCP99
0196826780999992000081612004-06760-043010FM-12+013899999V0201401N004112200019N0200001N1+02621+01591101811ADDAA199000091GA1001+999999999GF100991001001999999001001KA1240N+01981MA1999999100231MD1999999+0001REMSYN070AAXX  16124 82678 32998 01408 10262 20159 30023 40181 333 20198 58000;EQDQ01  00002PRCP99
0167826780999992000081618004-06760-043010FM-12+013899999V0202701N002610075019N0200001N1+03401+01541101281ADDAA199000091GF106991061021008001001001MA1999999099711MD1999999-0021REMSYN070AAXX  16184 82678 32598 62705 10340 20154 39971 40128 86200 333 59002;EQDQ01  00002PRCP99
0167826780999992000081718004-06760-043010FM-12+013899999V0201801N003112200019N0200001N1+03421+01361101131ADDAA199000091GF103991031011008001001001MA1999999099561MD1999999-0151REMSYN070AAXX  17184 82678 32598 31806 10342 20136 39956 40113 83100 333 59015;EQDQ01  00002PRCP99
0196826780999992000081800004-06760-043010FM-12+013899999V0209999C000012200019N9999999N1+02641+01541101421ADDAA199000091GA1001+999999999GF100991001001999999001001KA1240M+03521MA1999999099841MD1999999+0071REMSYN070AAXX  18004 82678 329// 00000 10264 20154 39984 40142 333 10352 58007;EQDQ01  00002PRCP99
0196826780999992000081812004-06760-043010FM-12+013899999V0201401N002612200019N0200001N1+02721+01621101661ADDAA199000091GA1001+999999999GF100991001001999999001001KA1240N+02201MA1999999100081MD1999999+0021REMSYN070AAXX  18124 82678 32598 01405 10272 20162 30008 40166 333 20220 58002;EQDQ01  00002PRCP99
0167826780999992000081818004-06760-043010FM-12+013899999V0200901N001512200019N0200001N1+03441+01481101181ADDAA199000091GF104991021021008001001011MA1999999099621MD1999999+0061REMSYN070AAXX  18184 82678 32598 40903 10344 20148 39962 40118 82201 333 58006;EQDQ01  00002PRCP99
0196826780999992000081900004-06760-043010FM-12+013899999V0209999C000012200019N9999999N1+02641+01601101301ADDAA199000091GA1001+999999999GF100991001001999999001001KA1240M+03541MA1999999099721MD1999999-0121REMSYN070AAXX  19004 82678 329// 00000 10264 20160 39972 40130 333 10354 59012;EQDQ01  00002PRCP99
0196826780999992000081912004-06760-043010FM-12+013899999V0200901N003112200019N0200001N1+02841+01671101611ADDAA199000091GA1001+999999999GF100991001001999999001001KA1240N+01841MA1999999100031MD1999999-0051REMSYN070AAXX  19124 82678 32998 00906 10284 20167 30003 40161 333 20184 59005;EQDQ01  00002PRCP99
0167826780999992000081918004-06760-043010FM-12+013899999V0200901N001510075019N0200001N1+03441+01841101171ADDAA199000091GF105991051021008001001001MA1999999099601MD1999999-0021REMSYN070AAXX  19184 82678 32598 50903 10344 20184 39960 40117 85200 333 59002;EQDQ01  00002PRCP99
0196826780999992000082000004-06760-043010FM-12+013899999V0209999C000012200019N9999999N1+02681+01731101221ADDAA199000091GA1001+999999999GF100991001001999999001001KA1240M+03601MA1999999099711MD1999999-0011REMSYN070AAXX  20004 82678 329// 00000 10268 20173 39971 40122 333 10360 59001;EQDQ01  00002PRCP99
0202826780999992000082012004-06760-043010FM-12+013899999V0200901N001512200019N0200001N1+02881+01861101731ADDAA199000091GF103991999011008001001001KA1240N+02111MA1999999100151MD1999999+0121REMSYN076AAXX  20124 82678 32598 30903 10288 20186 30015 40173 82100 333 20211 58012;EQDQ01+000022SCOTLCQ02  00002PRCP99
0167826780999992000082018004-06760-043010FM-12+013899999V0201401N002612200019N0200001N1+03501+01681101181ADDAA199000091GF104991021021008001001011MA1999999099621MD1999999+0021REMSYN070AAXX  20184 82678 32598 41405 10350 20168 39962 40118 82201 333 58002;EQDQ01  00002PRCP99
0186826780999992000082112004-06760-043010FM-12+013899999V0200901N006212200019N0200001N1+02781+01671101741ADDAA199000091GF101991011011008001001001KA1240N+02341MA1999999100171MD1999999+0021REMSYN076AAXX  21124 82678 32598 10912 10278 20167 30017 40174 81100 333 20234 58002;EQDQ01  00002PRCP99
0167826780999992000082118004-06760-043010FM-12+013899999V0201401N004110075019N0200001N1+03541+01621101131ADDAA199000091GF105991051021008001001001MA1999999099581MD1999999-0041REMSYN070AAXX  21184 82678 32598 51408 10354 20162 39958 40113 85200 333 59004;EQDQ01  00002PRCP99
0196826780999992000082200004-06760-043010FM-12+013899999V0201401N001512200019N9999999N1+02961+01531101381ADDAA199000091GA1001+999999999GF100991001001999999001001KA1240M+03591MA1999999099811MD1999999+0031REMSYN070AAXX  22004 82678 329// 01403 10296 20153 39981 40138 333 10359 58003;EQDQ01  00002PRCP99
0196826780999992000082212004-06760-043010FM-12+013899999V0200901N004112200019N0200001N1+02901+01781101781ADDAA199000091GA1001+999999999GF100991001001999999001001KA1240N+02341MA1999999100021MD1999999-0151REMSYN070AAXX  22124 82678 32998 00908 10290 20178 30002 40178 333 20234 59015;EQDQ01  00002PRCP99
0167826780999992000082218004-06760-043010FM-12+013899999V0201401N002110075019N0200001N1+03531+01501101011ADDAA199000091GF105991051011008001001001MA1999999099461MD1999999-0121REMSYN070AAXX  22184 82678 32598 51404 10353 20150 39946 40101 85100 333 59012;EQDQ01  00002PRCP99
0196826780999992000082300004-06760-043010FM-12+013899999V0201401N001012200019N9999999N1+02761+01621101211ADDAA199000091GA1001+999999999GF100991001001999999001001KA1240M+03601MA1999999099651MD1999999-0161REMSYN070AAXX  23004 82678 329// 01402 10276 20162 39965 40121 333 10360 59016;EQDQ01  00002PRCP99
0186826780999992000082312004-06760-043010FM-12+013899999V0200901N003112200019N0200001N1+02921+01711101611ADDAA199000091GF104991021011008001001011KA1240N+02161MA1999999100041MD1999999+0021REMSYN076AAXX  23124 82678 32598 40906 10292 20171 30004 40161 82101 333 20216 58002;EQDQ01  00002PRCP99
0167826780999992000082318004-06760-043010FM-12+013899999V0201401N001512200019N0200001N1+03621+01531101051ADDAA199000091GF105991041021008001001011MA1999999099491MD1999999+0031REMSYN070AAXX  23184 82678 32598 51403 10362 20153 39949 40105 84201 333 58003;EQDQ01  00002PRCP99
0196826780999992000082400004-06760-043010FM-12+013899999V0209999C000012200019N9999999N1+02601+01631101211ADDAA199000091GA1001+999999999GF100991001001999999001001KA1240M+03661MA1999999099641MD1999999-0011REMSYN070AAXX  24004 82678 329// 00000 10260 20163 39964 40121 333 10366 59001;EQDQ01  00002PRCP99
0180826780999992000082412004-06760-043010FM-12+013899999V0200901N005112200019N0200001N1+02861+01721101591ADDAA199000091GF101991999999999999999999KA1240N+02131MA1999999100011MD1999999-0031REMSYN070AAXX  24124 82678 32998 10910 10286 20172 30001 40159 333 20213 59003;EQDQ01  00002PRCP99
0167826780999992000082418004-06760-043010FM-12+013899999V0201401N003110450019N0200001N1+03611+01521100981ADDAA199000091GF105991031021008001031031MA1999999099431MD1999999-0061REMSYN070AAXX  24184 82678 32598 51406 10361 20152 39943 40098 83233 333 59006;EQDQ01  00002PRCP99
0202826780999992000082500004-06760-043010FM-12+013899999V0209999C000019999999N9999999N1+03121+01641101181ADDAA199000091GF105991999021008001001001KA1240M+03701MA1999999099631MD1999999-0011REMSYN076AAXX  25004 82678 325// 50000 10312 20164 39963 40118 83200 333 10370 59001;EQDQ01+000032SCOTLCQ02  00002PRCP99
0186826780999992000082512004-06760-043010FM-12+013899999V0200901N003110075019N0200001N1+03001+02001101591ADDAA199000091GF105991051011008001001001KA1240N+02561MA1999999100031MD1999999+0021REMSYN076AAXX  25124 82678 32598 50906 10300 20200 30003 40159 85100 333 20256 58002;EQDQ01  00002PRCP99
0167826780999992000082518004-06760-043010FM-12+013899999V0200901N003110075019N0200001N1+03581+01881101011ADDAA199000091GF105991051021008001001001MA1999999099461MD1999999+0031REMSYN070AAXX  25184 82678 32598 50906 10358 20188 39946 40101 85200 333 58003;EQDQ01  00002PRCP99
0186826780999992000082600004-06760-043010FM-12+013899999V0209999C000012200019N9999999N1+02881+01831101101ADDAA199000091GF102991021001017501031001KA1240M+03641MA1999999099541MD1999999-0091REMSYN076AAXX  26004 82678 327// 20000 10288 20183 39954 40110 82030 333 10364 59009;EQDQ01  00002PRCP99
0196826780999992000082612004-06760-043010FM-12+013899999V0200901N004112200019N0200001N1+03031+01761101361ADDAA199000091GA1001+999999999GF100991001001999999001001KA1240N+02231MA1999999099801MD1999999-0231REMSYN070AAXX  26124 82678 32998 00908 10303 20176 39980 40136 333 20223 59023;EQDQ01  00002PRCP99
0183826780999992000082618004-06760-043010FM-12+013899999V0201401N003119999999N0200001N1+03651+01501100801ADDAA199000091GF105991999011008001001001MA1999999099261MD1999999-0201REMSYN070AAXX  26184 82678 32598 51406 10365 20150 39926 40080 82100 333 59020;EQDQ01+000022SCOTLCQ02  00002PRCP99
0196826780999992000082700004-06760-043010FM-12+013899999V0200901N001512200019N9999999N1+03111+01421101031ADDAA199000091GA1001+999999999GF100991001001999999001001KA1240M+03711MA1999999099481MD1999999-0061REMSYN070AAXX  27004 82678 329// 00903 10311 20142 39948 40103 333 10371 59006;EQDQ01  00002PRCP99
0196826780999992000082712004-06760-043010FM-12+013899999V0200901N004112200019N0200001N1+02941+01551101341ADDAA199000091GA1001+999999999GF100991001001999999001001KA1240N+02001MA1999999099781MD1999999-0021REMSYN070AAXX  27124 82678 32998 00908 10294 20155 39978 40134 333 20200 59002;EQDQ01  00002PRCP99
0177826780999992000082718004-06760-043010FM-12+013899999V0201401N003112200019N0200001N1+03691+01091100661ADDAA199000091GA1001+999999999GF100991001001999999001001MA1999999099111MD1999999-0151REMSYN064AAXX  27184 82678 32998 01406 10369 20109 39911 40066 333 59015;EQDQ01  00002PRCP99
0196826780999992000082800004-06760-043010FM-12+013899999V0209999C000012200019N9999999N1+02631+01051100891ADDAA199000091GA1001+999999999GF100991001001999999001001KA1240M+03761MA1999999099331MD1999999-0151REMSYN070AAXX  28004 82678 329// 00000 10263 20105 39933 40089 333 10376 59015;EQDQ01  00002PRCP99
0180826780999992000082812004-06760-043010FM-12+013899999V0209999C000012200019N0200001N1+02841+01931101301ADDAA199000091GF102991999999999999999999KA1240N+01781MA1999999099731MD1999999-0051REMSYN070AAXX  28124 82678 32998 20000 10284 20193 39973 40130 333 20178 59005;EQDQ01  00002PRCP99
0196826780999992000082900004-06760-043010FM-12+013899999V0209999C000012200019N9999999N1+03041+01531100871ADDAA199000091GA1001+999999999GF100991001001999999001001KA1240M+03841MA1999999099921MD1999999-0011REMSYN070AAXX  29004 82678 329// 00000 10304 20153 39992 40087 333 10384 59001;EQDQ01  00002PRCP99
0180826780999992000082912004-06760-043010FM-12+013899999V0200501N001512200019N0200001N1+03081+02041101361ADDAA199000091GF103991999999999999999999KA1240N+02151MA1999999099811MD1999999+0081REMSYN070AAXX  29124 82678 32998 30503 10308 20204 39981 40136 333 20215 58008;EQDQ01  00002PRCP99
0167826780999992000082918004-06760-043010FM-12+013899999V0200901N001512200019N0200001N1+03721+01621100801ADDAA199000091GF105991031021008001001011MA1999999099251MD1999999+0081REMSYN070AAXX  29184 82678 32598 50903 10372 20162 39925 40080 83201 333 58008;EQDQ01  00002PRCP99
0196826780999992000083000004-06760-043010FM-12+013899999V0209999C000012200019N9999999N1+02941+01791100981ADDAA199000091GA1001+999999999GF100991001001999999001001KA1240M+03841MA1999999099431MD1999999+0111REMSYN070AAXX  30004 82678 329// 00000 10294 20179 39943 40098 333 10384 58011;EQDQ01  00002PRCP99
0186826780999992000083012004-06760-043010FM-12+013899999V0202701N001012200019N0200001N1+03041+02181101381ADDAA199000091GF103991021011008001001011KA1240N+02181MA1999999099821MD1999999+0011REMSYN076AAXX  30124 82678 32598 32702 10304 20218 39982 40138 82101 333 20218 58001;EQDQ01  00002PRCP99
0167826780999992000083018004-06760-043010FM-12+013899999V0201401N004612200019N0200001N1+03701+01601100831ADDAA199000091GF104991041021008001001001MA1999999099291MD1999999+0051REMSYN070AAXX  30184 82678 32598 41409 10370 20160 39929 40083 84200 333 58005;EQDQ01  00002PRCP99
0196826780999992000083100004-06760-043010FM-12+013899999V0201401N000512200019N9999999N1+03161+01551101021ADDAA199000091GA1001+999999999GF100991001001999999001001KA1240M+03781MA1999999099461MD1999999+0031REMSYN070AAXX  31004 82678 329// 01401 10316 20155 39946 40102 333 10378 58003;EQDQ01  00002PRCP99
0180826780999992000083112004-06760-043010FM-12+013899999V0200901N005712200019N0200001N1+02861+01521101401ADDAA199000091GF102991999999999999999999KA1240N+02061MA1999999099841MD1999999+0021REMSYN070AAXX  31124 82678 32998 20911 10286 20152 39984 40140 333 20206 58002;EQDQ01  00002PRCP99
0167826780999992000083118004-06760-043010FM-12+013899999V0201401N004112200019N0200001N1+03531+01551100941ADDAA199000091GF103991011011008001001021MA1999999099381MD1999999+0091REMSYN070AAXX  31184 82678 32598 31408 10353 20155 39938 40094 81102 333 58009;EQDQ01  00002PRCP99
0196826780999992000090100004-06760-043010FM-12+013899999V0201801N001012200019N9999999N1+02721+01321101031ADDAA199000091GA1001+999999999GF100991001001999999001001KA1240M+03631MA1999999099471MD1999999+0011REMSYN070AAXX  01004 82678 329// 01802 10272 20132 39947 40103 333 10363 58001;EQDQ01  00002PRCP99
0196826780999992000090112004-06760-043010FM-12+013899999V0200901N002612200019N0200001N1+02941+01591101441ADDAA199000091GA1001+999999999GF100991001001999999001001KA1240N+02101MA1999999099871MD1999999+0031REMSYN070AAXX  01124 82678 32998 00905 10294 20159 39987 40144 333 20210 58003;EQDQ01  00002PRCP99
0196826780999992000090200004-06760-043010FM-12+013899999V0209999C000012200019N9999999N1+02921+01341100921ADDAA199000091GA1001+999999999GF100991001001999999001001KA1240M+03661MA1999999099371MD1999999-0101REMSYN070AAXX  02004 82678 329// 00000 10292 20134 39937 40092 333 10366 59010;EQDQ01  00002PRCP99
0202826780999992000090212004-06760-043010FM-12+013899999V0200501N001519999999N0200001N1+03001+01531101301ADDAA199000091GF105991999011008001001001KA1240N+01951MA1999999099741MD1999999-0131REMSYN076AAXX  02124 82678 32598 50503 10300 20153 39974 40130 82100 333 20195 59013;EQDQ01+000022SCOTLCQ02  00002PRCP99
0183826780999992000090218004-06760-043010FM-12+013899999V0200501N002619999999N0200001N1+03521+01581100851ADDAA199000091GF107991999011008001001001MA1999999099291MD1999999+0051REMSYN070AAXX  02184 82678 32598 70505 10352 20158 39929 40085 82100 333 58005;EQDQ01+000022SCOTLCQ02  00002PRCP99
0196826780999992000090300004-06760-043010FM-12+013899999V0201801N001512200019N9999999N1+02681+01671100991ADDAA199000091GA1001+999999999GF100991001001999999001001KA1240M+03621MA1999999099431MD1999999+0061REMSYN070AAXX  03004 82678 329// 01803 10268 20167 39943 40099 333 10362 58006;EQDQ01  00002PRCP99
0186826780999992000090312004-06760-043010FM-12+013899999V0200901N000512200019N0200001N1+02901+02021101271ADDAA199000091GF102991011011008001001011KA1240N+02121MA1999999099711MD1999999-0031REMSYN076AAXX  03124 82678 32598 20901 10290 20202 39971 40127 81101 333 20212 59003;EQDQ01  00002PRCP99
0167826780999992000090318004-06760-043010FM-12+013899999V0203601N000510075019N0200001N1+03641+01941100811ADDAA199000091GF105991051021008001001001MA1999999099261MD1999999-0031REMSYN070AAXX  03184 82678 32598 53601 10364 20194 39926 40081 85200 333 59003;EQDQ01  00002PRCP99
0186826780999992000090400004-06760-043010FM-12+013899999V0209999C000012200019N9999999N1+03021+01991100961ADDAA199000091GF102991021001017501031001KA1240M+03721MA1999999099411MD1999999-0021REMSYN076AAXX  04004 82678 327// 20000 10302 20199 39941 40096 82030 333 10372 59002;EQDQ01  00002PRCP99
0186826780999992000090412004-06760-043010FM-12+013899999V0202701N001511050019N0200001N1+02981+02171101411ADDAA199000091GF106991031011008001001031KA1240N+02261MA1999999099851MD1999999+0141REMSYN076AAXX  04124 82678 32598 62703 10298 20217 39985 40141 83103 333 20226 58014;EQDQ01  00002PRCP99
0167826780999992000090418004-06760-043010FM-12+013899999V0202701N001012200019N0200001N1+03611+01941100821ADDAA199000091GF105991041021008001001011MA1999999099271MD1999999+0011REMSYN070AAXX  04184 82678 32598 52702 10361 20194 39927 40082 84201 333 58001;EQDQ01  00002PRCP99
0196826780999992000090500004-06760-043010FM-12+013899999V0209999C000012200019N9999999N1+03041+02091100971ADDAA199000091GA1001+999999999GF100991001001999999001001KA1240M+03721MA1999999099421MD1999999+0011REMSYN070AAXX  05004 82678 329// 00000 10304 20209 39942 40097 333 10372 58001;EQDQ01  00002PRCP99
0201826780999992000090512004-06760-043010FM-12+013899999V0200901N005110075019N0200001N1+02501+02191101431ADDAA124000191AY161061AY211061GF108991051021008001031011KA1240N+02381MA1999999099851MD1999999+0001MW1021REMSYN088AAXX  05124 82678 21598 80910 10250 20219 39985 40143 70261 85231 333 20238 58000 69924;
0167826780999992000090518004-06760-043010FM-12+013899999V0202301N003110450019N0200001N1+03071+02191100911ADDAA199000091GF108991031081008001021999MA1999999099351MD1999999+0081REMSYN070AAXX  05184 82678 32598 82306 10307 20219 39935 40091 8382/ 333 58008;EQDQ01  00002PRCP99
0186826780999992000090600004-06760-043010FM-12+013899999V0202301N001510120019N9999999N1+02701+02221101111ADDAA199000091GF107991071081008001001001KA1240M+03241MA1999999099531MD1999999+0111REMSYN076AAXX  06004 82678 325// 72303 10270 20222 39953 40111 87800 333 10324 58011;EQDQ01  00002PRCP99
0201826780999992000090612004-06760-043010FM-12+013899999V0203601N000510075019N0200001N1+02821+02241101371ADDAA124000591AY161061AY221061GF107991071051008001001001KA1240N+02311MA1999999099801MD1999999-0051MW1031REMSYN088AAXX  06124 82678 21598 73601 10282 20224 39980 40137 70362 87500 333 20231 59005 69954;
0167826780999992000090618004-06760-043010FM-12+013899999V0200501N000510450019N0200001N1+03541+01801100831ADDAA199000091GF107991041021008001031011MA1999999099281MD1999999-0071REMSYN070AAXX  06184 82678 32598 70501 10354 20180 39928 40083 84231 333 59007;EQDQ01  00002PRCP99
0202826780999992000090700004-06760-043010FM-12+013899999V0209999C000010075019N9999999N1+03001+02031100961ADDAA199000091GF107991999021008001001001KA1240M+03581MA1999999099401MD1999999-0131REMSYN076AAXX  07004 82678 325// 70000 10300 20203 39940 40096 86200 333 10358 59013;EQDQ01+000062SCOTLCQ02  00002PRCP99
0186826780999992000090712004-06760-043010FM-12+013899999V0203201N001510075019N0200001N1+02721+02101101381ADDAA199000091GF108991051021008001031011KA1240N+02401MA1999999099811MD1999999+0011REMSYN076AAXX  07124 82678 32598 83203 10272 20210 39981 40138 85231 333 20240 58001;EQDQ01  00002PRCP99
0167826780999992000090718004-06760-043010FM-12+013899999V0202301N001510075019N0200001N1+03381+01951100781ADDAA199000091GF108991061021008001001021MA1999999099231MD1999999-0051REMSYN070AAXX  07184 82678 32598 82303 10338 20195 39923 40078 86202 333 59005;EQDQ01  00002PRCP99
0196826780999992000090800004-06760-043010FM-12+013899999V0202301N001012200019N9999999N1+02881+02031100971ADDAA199000091GA1001+999999999GF100991001001999999001001KA1240M+03461MA1999999099411MD1999999+0011REMSYN070AAXX  08004 82678 329// 02302 10288 20203 39941 40097 333 10346 58001;EQDQ01  00002PRCP99
0167826780999992000090818004-06760-043010FM-12+013899999V0200901N001510450019N0200001N1+03431+01871100831ADDAA199000091GF106991031021008001031021MA1999999099281MD1999999+0051REMSYN070AAXX  08184 82678 32598 60903 10343 20187 39928 40083 83232 333 58005;EQDQ01  00002PRCP99
0186826780999992000090900004-06760-043010FM-12+013899999V0200501N001012200019N9999999N1+02791+01961101011ADDAA199000091GF102991011001017501031021KA1240M+03481MA1999999099441MD1999999+0031REMSYN076AAXX  09004 82678 327// 20502 10279 20196 39944 40101 81032 333 10348 58003;EQDQ01  00002PRCP99
0186826780999992000090912004-06760-043010FM-12+013899999V0201401N001010450019N0200001N1+02901+01871101351ADDAA199000091GF106991031051008001031011KA1240N+02301MA1999999099781MD1999999-0071REMSYN076AAXX  09124 82678 32598 61402 10290 20187 39978 40135 83531 333 20230 59007;EQDQ01  00002PRCP99
0167826780999992000090918004-06760-043010FM-12+013899999V0200901N001510450019N0200001N1+03461+01901100901ADDAA199000091GF106991041021008001031011MA1999999099351MD1999999+0071REMSYN070AAXX  09184 82678 32598 60903 10346 20190 39935 40090 84231 333 58007;EQDQ01  00002PRCP99
0196826780999992000091000004-06760-043010FM-12+013899999V0209999C000012200019N9999999N1+02901+01901100981ADDAA199000091GA1001+999999999GF100991001001999999001001KA1240M+03561MA1999999099421MD1999999-0021REMSYN070AAXX  10004 82678 329// 00000 10290 20190 39942 40098 333 10356 59002;EQDQ01  00002PRCP99
0202826780999992000091012004-06760-043010FM-12+013899999V0203601N001010075019N0020001N1+03001+02111101381ADDAA199000091GF108991999021008001001001KA1240N+02501MA1999999099821MD1999999-0041REMSYN076AAXX  10124 82678 32595 83602 10300 20211 39982 40138 86200 333 20250 59004;EQDQ01+000062SCOTLCQ02  00002PRCP99
0183826780999992000091018004-06760-043010FM-12+013899999V0201401N001519999999N0200001N1+03601+01861100791ADDAA199000091GF106991999021008001001001MA1999999099251MD1999999-0101REMSYN070AAXX  10184 82678 32598 61403 10360 20186 39925 40079 83200 333 59010;EQDQ01+000032SCOTLCQ02  00002PRCP99
0196826780999992000091100004-06760-043010FM-12+013899999V0209999C000012200019N9999999N1+02901+01991100961ADDAA199000091GA1001+999999999GF100991001001999999001001KA1240M+03661MA1999999099411MD1999999-0011REMSYN070AAXX  11004 82678 329// 00000 10290 20199 39941 40096 333 10366 59001;EQDQ01  00002PRCP99
0186826780999992000091112004-06760-043010FM-12+013899999V0200901N002612200019N0200001N1+03001+01841101341ADDAA199000091GF104991041011008001001001KA1240N+02201MA1999999099781MD1999999-0041REMSYN076AAXX  11124 82678 32598 40905 10300 20184 39978 40134 84100 333 20220 59004;EQDQ01  00002PRCP99
0167826780999992000091118004-06760-043010FM-12+013899999V0200901N001012200019N0200001N1+03331+01701100751ADDAA199000091GF104991041021008001001001MA1999999099201MD1999999-0051REMSYN070AAXX  11184 82678 32598 40902 10333 20170 39920 40075 84200 333 59005;EQDQ01  00002PRCP99
0186826780999992000091200004-06760-043010FM-12+013899999V0201401N001510075019N9999999N1+02951+01881100991ADDAA199000091GF105991051021008001001001KA1240M+03631MA1999999099441MD1999999+0031REMSYN076AAXX  12004 82678 325// 51403 10295 20188 39944 40099 85200 333 10363 58003;EQDQ01  00002PRCP99
0186826780999992000091212004-06760-043010FM-12+013899999V0200901N004110075019N0200001N1+02901+01901101301ADDAA199000091GF107991071051008001001001KA1240N+02581MA1999999099741MD1999999+0041REMSYN076AAXX  12124 82678 32598 70908 10290 20190 39974 40130 87500 333 20258 58004;EQDQ01  00002PRCP99
0167826780999992000091218004-06760-043010FM-12+013899999V0200901N001510075019N0200001N1+03581+01791100801ADDAA199000091GF106991061021008001001001MA1999999099261MD1999999+0061REMSYN070AAXX  12184 82678 32598 60903 10358 20179 39926 40080 86200 333 58006;EQDQ01  00002PRCP99
0186826780999992000091300004-06760-043010FM-12+013899999V0201401N001010120019N9999999N1+02921+01861101001ADDAA199000091GF107991051081008001031001KA1240M+03701MA1999999099441MD1999999+0001REMSYN076AAXX  13004 82678 325// 71402 10292 20186 39944 40100 85830 333 10370 58000;EQDQ01  00002PRCP99
0173826780999992000091312004-06760-043010FM-12+013899999V0200901N001510075019N0200001N1+02881+02051101521ADDAA124001091GF108991051051008001001011KA1240N+02321MA1999999099951MD1999999+0211REMSYN082AAXX  13124 82678 22598 80903 10288 20205 39995 40152 85501 333 20232 58021 60014;
0167826780999992000091318004-06760-043010FM-12+013899999V0200901N002610450019N0200001N1+03491+01841100951ADDAA199000091GF105991041021008001031001MA1999999099401MD1999999+0141REMSYN070AAXX  13184 82678 32598 50905 10349 20184 39940 40095 84230 333 58014;EQDQ01  00002PRCP99
0186826780999992000091400004-06760-043010FM-12+013899999V0209999C000012200019N9999999N1+02921+01831101081ADDAA199000091GF105991031021008001001011KA1240M+03561MA1999999099521MD1999999+0081REMSYN076AAXX  14004 82678 325// 50000 10292 20183 39952 40108 83201 333 10356 58008;EQDQ01  00002PRCP99
0186826780999992000091412004-06760-043010FM-12+013899999V0200501N001512200019N0200001N1+03081+01921101451ADDAA199000091GF102991011011008001031001KA1240N+02401MA1999999099891MD1999999-0061REMSYN076AAXX  14124 82678 32598 20503 10308 20192 39989 40145 81130 333 20240 59006;EQDQ01  00002PRCP99
0167826780999992000091418004-06760-043010FM-12+013899999V0200901N003110075019N0200001N1+03621+01741100901ADDAA199000091GF106991061021008001001001MA1999999099361MD1999999-0041REMSYN070AAXX  14184 82678 32598 60906 10362 20174 39936 40090 86200 333 59004;EQDQ01  00002PRCP99
0186826780999992000091500004-06760-043010FM-12+013899999V0200501N002610075019N9999999N1+03051+01821101181ADDAA199000091GF108991071041008001031999KA1240M+03681MA1999999099631MD1999999+0111REMSYN076AAXX  15004 82678 325// 80505 10305 20182 39963 40118 8743/ 333 10368 58011;EQDQ01  00002PRCP99
0186826780999992000091512004-06760-043010FM-12+013899999V0200901N004110450019N0200001N1+03021+01961101441ADDAA199000091GF105991041021008001031001KA1240N+02601MA1999999099881MD1999999-0011REMSYN076AAXX  15124 82678 32598 50908 10302 20196 39988 40144 84230 333 20260 59001;EQDQ01  00002PRCP99
0183826780999992000091518004-06760-043010FM-12+013899999V0200901N004119999999N0200001N1+03601+01621100971ADDAA199000091GF105991999011008001001001MA1999999099441MD1999999+0081REMSYN070AAXX  15184 82678 32598 50908 10360 20162 39944 40097 84100 333 58008;EQDQ01+000042SCOTLCQ02  00002PRCP99
0202826780999992000091600004-06760-043010FM-12+013899999V0200501N002110075019N9999999N1+03091+01681101161ADDAA199000091GF106991999041008001001001KA1240M+03661MA1999999099611MD1999999-0021REMSYN076AAXX  16004 82678 325// 60504 10309 20168 39961 40116 85400 333 10366 59002;EQDQ01+000052SCOTLCQ02  00002PRCP99
0186826780999992000091612004-06760-043010FM-12+013899999V0200901N003610075019N0200001N1+02981+01981101471ADDAA199000091GF108991051021008001001031KA1240N+02541MA1999999099921MD1999999+0041REMSYN076AAXX  16124 82678 32598 80907 10298 20198 39992 40147 85203 333 20254 58004;EQDQ01  00002PRCP99
0167826780999992000091618004-06760-043010FM-12+013899999V0201401N003111050019N0200001N1+03581+01791100941ADDAA199000091GF105991031021008001001021MA1999999099401MD1999999-0041REMSYN070AAXX  16184 82678 32598 51406 10358 20179 39940 40094 83202 333 59004;EQDQ01  00002PRCP99
0196826780999992000091700004-06760-043010FM-12+013899999V0209999C000012200019N9999999N1+03001+01841101141ADDAA199000091GA1001+999999999GF100991001001999999001001KA1240M+03621MA1999999099591MD1999999-0031REMSYN070AAXX  17004 82678 329// 00000 10300 20184 39959 40114 333 10362 59003;EQDQ01  00002PRCP99
0202826780999992000091712004-06760-043010FM-12+013899999V0200901N003612200019N0020001N1+02961+01861101501ADDAA199000091GF103991999021008001001001KA1240N+02451MA1999999099941MD1999999+0021REMSYN076AAXX  17124 82678 32595 30907 10296 20186 39994 40150 86200 333 20245 58002;EQDQ01+000062SCOTLCQ02  00002PRCP99
0167826780999992000091718004-06760-043010FM-12+013899999V0200901N004112200019N0200001N1+03601+01721100941ADDAA199000091GF104991041021008001001001MA1999999099391MD1999999-0011REMSYN070AAXX  17184 82678 32598 40908 10360 20172 39939 40094 84200 333 59001;EQDQ01  00002PRCP99
0186826780999992000091800004-06760-043010FM-12+013899999V0200501N001510075019N9999999N1+02981+01921101261ADDAA199000091GF106991061021008001001001KA1240M+03641MA1999999099701MD1999999+0111REMSYN076AAXX  18004 82678 325// 60503 10298 20192 39970 40126 86200 333 10364 58011;EQDQ01  00002PRCP99
0186826780999992000091812004-06760-043010FM-12+013899999V0200901N005112200019N0200001N1+02921+01571101601ADDAA199000091GF101991011011008001001001KA1240N+02341MA1999999100041MD1999999+0101REMSYN076AAXX  18124 82678 32598 10910 10292 20157 30004 40160 81100 333 20234 58010;EQDQ01  00002PRCP99
0167826780999992000091818004-06760-043010FM-12+013899999V0200901N003110075019N0200001N1+03601+01771101071ADDAA199000091GF105991051021008001001001MA1999999099511MD1999999+0121REMSYN070AAXX  18184 82678 32598 50906 10360 20177 39951 40107 85200 333 58012;EQDQ01  00002PRCP99
0196826780999992000091900004-06760-043010FM-12+013899999V0200901N001512200019N9999999N1+03121+01601101271ADDAA199000091GA1001+999999999GF100991001001999999001001KA1240M+03641MA1999999099711MD1999999+0011REMSYN070AAXX  19004 82678 329// 00903 10312 20160 39971 40127 333 10364 58001;EQDQ01  00002PRCP99
0196826780999992000091912004-06760-043010FM-12+013899999V0201401N003612200019N0200001N1+02941+01511101591ADDAA199000091GA1001+999999999GF100991001001999999001001KA1240N+02411MA1999999100031MD1999999-0011REMSYN070AAXX  19124 82678 32998 01407 10294 20151 30003 40159 333 20241 59001;EQDQ01  00002PRCP99
0167826780999992000091918004-06760-043010FM-12+013899999V0201401N003110075019N0200001N1+03481+01571101041ADDAA199000091GF108991061021008001001021MA1999999099501MD1999999-0011REMSYN070AAXX  19184 82678 32598 81406 10348 20157 39950 40104 86202 333 59001;EQDQ01  00002PRCP99
0196826780999992000092000004-06760-043010FM-12+013899999V0209999C000012200019N9999999N1+02981+01881101211ADDAA199000091GA1001+999999999GF100991001001999999001001KA1240M+03541MA1999999099651MD1999999-0061REMSYN070AAXX  20004 82678 329// 00000 10298 20188 39965 40121 333 10354 59006;EQDQ01  00002PRCP99
0186826780999992000092012004-06760-043010FM-12+013899999V0201401N004612200019N0200001N1+02991+01661101491ADDAA199000091GF102991021001017501031001KA1240N+02501MA1999999099931MD1999999-0101REMSYN076AAXX  20124 82678 32798 21409 10299 20166 39993 40149 82030 333 20250 59010;EQDQ01  00002PRCP99
0167826780999992000092018004-06760-043010FM-12+013899999V0201401N001012200019N0200001N1+03651+01381100901ADDAA199000091GF104991041021008001001001MA1999999099361MD1999999-0141REMSYN070AAXX  20184 82678 32598 41402 10365 20138 39936 40090 84200 333 59014;EQDQ01  00002PRCP99
0186826780999992000092100004-06760-043010FM-12+013899999V0209999C000012200019N9999999N1+02851+01431101561ADDAA199000091GF101991011001017501031001KA1240M+03711MA1999999099501MD1999999-0151REMSYN076AAXX  21004 82678 327// 10000 10285 20143 39950 40156 81030 333 10371 59015;EQDQ01  00002PRCP99
0186826780999992000092112004-06760-043010FM-12+013899999V0200901N004112200019N0200001N1+02921+01711101401ADDAA199000091GF101991011011008001001001KA1240N+02401MA1999999099841MD1999999-0091REMSYN076AAXX  21124 82678 32598 10908 10292 20171 39984 40140 81100 333 20240 59009;EQDQ01  00002PRCP99
0167826780999992000092118004-06760-043010FM-12+013899999V0201401N001512200019N0200001N1+03621+01591100961ADDAA199000091GF104991041011008001001001MA1999999099421MD1999999+0061REMSYN070AAXX  21184 82678 32598 41403 10362 20159 39942 40096 84100 333 58006;EQDQ01  00002PRCP99
0186826780999992000092212004-06760-043010FM-12+013899999V0200901N004112200019N0200001N1+02941+01401101581ADDAA199000091GF103991021011008001001011KA1240N+02401MA1999999100011MD1999999+0171REMSYN076AAXX  22124 82678 32598 30908 10294 20140 30001 40158 82101 333 20240 58017;EQDQ01  00002PRCP99
0167826780999992000092218004-06760-043010FM-12+013899999V0200901N001512200019N0200001N1+03641+01381100971ADDAA199000091GF102991021021008001001011MA1999999099431MD1999999+0011REMSYN070AAXX  22184 82678 32598 20903 10364 20138 39943 40097 82201 333 58001;EQDQ01  00002PRCP99
0196826780999992000092300004-06760-043010FM-12+013899999V0209999C000012200019N9999999N1+02941+01721101091ADDAA199000091GA1001+999999999GF100991001001999999001001KA1240M+03241MA1999999099531MD1999999-0021REMSYN070AAXX  23004 82678 329// 00000 10294 20172 39953 40109 333 10324 59002;EQDQ01  00002PRCP99
0196826780999992000092312004-06760-043010FM-12+013899999V0200901N003112200019N0200001N1+03091+01681101361ADDAA199000091GA1001+999999999GF100991001001999999001001KA1240N+02251MA1999999099801MD1999999-0211REMSYN070AAXX  23124 82678 32998 00906 10309 20168 39980 40136 333 20225 59021;EQDQ01  00002PRCP99
0167826780999992000092318004-06760-043010FM-12+013899999V0203201N001512200019N0200001N1+03701+01491100771ADDAA199000091GF103991031021008001001001MA1999999099231MD1999999-0201REMSYN070AAXX  23184 82678 32598 33203 10370 20149 39923 40077 83200 333 59020;EQDQ01  00002PRCP99
0196826780999992000092400004-06760-043010FM-12+013899999V0209999C000012200019N9999999N1+02921+01461100951ADDAA199000091GA1001+999999999GF100991001001999999001001KA1240M+03741MA1999999099401MD1999999-0131REMSYN070AAXX  24004 82678 329// 00000 10292 20146 39940 40095 333 10374 59013;EQDQ01  00002PRCP99
0186826780999992000092412004-06760-043010FM-12+013899999V0200901N001510450019N0200001N1+03101+01701101301ADDAA199000091GF105991031011008001031001KA1240N+02291MA1999999099741MD1999999-0061REMSYN076AAXX  24124 82678 32598 50903 10310 20170 39974 40130 83130 333 20229 59006;EQDQ01  00002PRCP99
0167826780999992000092418004-06760-043010FM-12+013899999V0200901N001510450019N0200001N1+03641+01651100771ADDAA199000091GF105991041021008001031001MA1999999099231MD1999999+0001REMSYN070AAXX  24184 82678 32598 50903 10364 20165 39923 40077 84230 333 58000;EQDQ01  00002PRCP99
0196826780999992000092500004-06760-043010FM-12+013899999V0209999C000012200019N9999999N1+03121+01601100861ADDAA199000091GA1001+999999999GF100991001001999999001001KA1240M+03741MA1999999099321MD1999999-0081REMSYN070AAXX  25004 82678 329// 00000 10312 20160 39932 40086 333 10374 59008;EQDQ01  00002PRCP99
0167826780999992000092518004-06760-043010FM-12+013899999V0200901N001012200019N0200001N1+03781+01671100791ADDAA199000091GF105991031021008001001011MA1999999099621MD1999999+0031REMSYN070AAXX  25184 82678 32598 50902 10378 20167 39962 40079 83201 333 58003;EQDQ01  00002PRCP99
0202826780999992000092600004-06760-043010FM-12+013899999V0209999C000019999999N0200001N1+03341+01541101041ADDAA199000091GF108991999021008001001001KA1240M+03941MA1999999099501MD1999999+0181REMSYN076AAXX  26004 82678 32598 80000 10334 20154 39950 40104 84200 333 10394 58018;EQDQ01+000042SCOTLCQ02  00002PRCP99
0186826780999992000092612004-06760-043010FM-12+013899999V0200501N000512200019N0200001N1+03061+02141101481ADDAA199000091GF103991021021008001001011KA1240N+02381MA1999999099931MD1999999+0161REMSYN076AAXX  26124 82678 32598 30501 10306 20214 39993 40148 82201 333 20238 58016;EQDQ01  00002PRCP99
0167826780999992000092618004-06760-043010FM-12+013899999V0200901N002610075019N0200001N1+03701+01711100931ADDAA199000091GF105991051021008001001001MA1999999099391MD1999999+0131REMSYN070AAXX  26184 82678 32598 50905 10370 20171 39939 40093 85200 333 58013;EQDQ01  00002PRCP99
0180826780999992000092700004-06760-043010FM-12+013899999V0201401N001512200019N9999999N1+03211+01321101071ADDAA199000091GF101991999999999999999999KA1240M+03801MA1999999099531MD1999999+0031REMSYN070AAXX  27004 82678 329// 11403 10321 20132 39953 40107 333 10380 58003;EQDQ01  00002PRCP99
0186826780999992000092712004-06760-043010FM-12+013899999V0200901N002612200019N0200001N1+03061+01801101491ADDAA199000091GF106991041011008001001011KA1240N+02561MA1999999099941MD1999999+0011REMSYN076AAXX  27124 82678 32598 60905 10306 20180 39994 40149 84101 333 20256 58001;EQDQ01  00002PRCP99
0167826780999992000092718004-06760-043010FM-12+013899999V0200901N003112200019N0200001N1+03581+01441100841ADDAA199000091GF106991031021008001001011MA1999999099311MD1999999-0081REMSYN070AAXX  27184 82678 32598 60906 10358 20144 39931 40084 83201 333 59008;EQDQ01  00002PRCP99
0186826780999992000092800004-06760-043010FM-12+013899999V0201401N000512200019N9999999N1+03181+01351101011ADDAA199000091GF103991031021017501001001KA1240M+03681MA1999999099461MD1999999-0071REMSYN076AAXX  28004 82678 327// 31401 10318 20135 39946 40101 83200 333 10368 59007;EQDQ01  00002PRCP99
0186826780999992000092812004-06760-043010FM-12+013899999V0200901N003110075019N0200001N1+02901+01691101541ADDAA199000091GF108991051021008001001011KA1240N+02561MA1999999099981MD1999999+0041REMSYN076AAXX  28124 82678 32598 80906 10290 20169 39998 40154 85201 333 20256 58004;EQDQ01  00002PRCP99
0167826780999992000092818004-06760-043010FM-12+013899999V0200901N001011050019N0200001N1+03581+01651100891ADDAA199000091GF105991041021008001001021MA1999999099351MD1999999+0041REMSYN070AAXX  28184 82678 32598 50902 10358 20165 39935 40089 84202 333 58004;EQDQ01  00002PRCP99
0196826780999992000092900004-06760-043010FM-12+013899999V0209999C000012200019N9999999N1+03021+01351101171ADDAA199000091GA1001+999999999GF100991001001999999001001KA1240M+03621MA1999999099611MD1999999+0151REMSYN070AAXX  29004 82678 329// 00000 10302 20135 39961 40117 333 10362 58015;EQDQ01  00002PRCP99
0186826780999992000092912004-06760-043010FM-12+013899999V0200901N002610075019N0200001N1+02941+01791101571ADDAA199000091GF106991061051008001001001KA1240N+02401MA1999999100011MD1999999+0031REMSYN076AAXX  29124 82678 32598 60905 10294 20179 30001 40157 86500 333 20240 58003;EQDQ01  00002PRCP99
0167826780999992000092918004-06760-043010FM-12+013899999V0200901N002612200019N0200001N1+03601+01521100931ADDAA199000091GF104991041021008001001001MA1999999099391MD1999999+0041REMSYN070AAXX  29184 82678 32598 40905 10360 20152 39939 40093 84200 333 58004;EQDQ01  00002PRCP99
0186826780999992000093000004-06760-043010FM-12+013899999V0201401N002612200019N9999999N1+03131+01351101131ADDAA199000091GF101991011041008001001001KA1240M+03681MA1999999099581MD1999999-0031REMSYN076AAXX  30004 82678 325// 11405 10313 20135 39958 40113 81400 333 10368 59003;EQDQ01  00002PRCP99
0186826780999992000093012004-06760-043010FM-12+013899999V0201401N004112200019N0200001N1+03011+01751101571ADDAA199000091GF104991041021008001001001KA1240N+02541MA1999999100011MD1999999+0001REMSYN076AAXX  30124 82678 32598 41408 10301 20175 30001 40157 84200 333 20254 58000;EQDQ01  00002PRCP99
0167826780999992000093018004-06760-043010FM-12+013899999V0200901N001510450019N0200001N1+03601+01771100981ADDAA199000091GF105991041021008001031001MA1999999099441MD1999999+0051REMSYN070AAXX  30184 82678 32598 50903 10360 20177 39944 40098 84230 333 58005;EQDQ01  00002PRCP99
0196826780999992000100100004-06760-043010FM-12+013899999V0201401N001012200019N9999999N1+03101+01581101101ADDAA199000091GA1001+999999999GF100991001001999999001001KA1240M+03661MA1999999099551MD1999999-0031REMSYN070AAXX  01004 82678 329// 01402 10310 20158 39955 40110 333 10366 59003;EQDQ01  00002PRCP99
0202826780999992000100112004-06760-043010FM-12+013899999V0201401N003619999999N0200001N1+03121+01791101541ADDAA199000091GF108991999021008001001001KA1240N+02251MA1999999099991MD1999999-0021REMSYN076AAXX  01124 82678 32598 81407 10312 20179 39999 40154 84200 333 20225 59002;EQDQ01+000042SCOTLCQ02  00002PRCP99
0183826780999992000100118004-06760-043010FM-12+013899999V0200901N002612200019N0200001N1+03681+01641100981ADDAA199000091GF104991999021008001001001MA1999999099441MD1999999+0001REMSYN070AAXX  01184 82678 32598 40905 10368 20164 39944 40098 83200 333 58000;EQDQ01+000032SCOTLCQ02  00002PRCP99
0180826780999992000100212004-06760-043010FM-12+013899999V0200501N003119999999N0200001N1+03171+01671101551ADDAA199000091GF106991999999999999999999KA1240N+02621MA1999999100001MD1999999+0011REMSYN070AAXX  02124 82678 32998 60506 10317 20167 30000 40155 333 20262 58001;EQDQ01  00002PRCP99
0186826780999992000100300004-06760-043010FM-12+013899999V0201401N001512200019N9999999N1+03181+01611101131ADDAA199000091GF104991041041008001001001KA1240M+03721MA1999999099591MD1999999+0051REMSYN076AAXX  03004 82678 325// 41403 10318 20161 39959 40113 84400 333 10372 58005;EQDQ01  00002PRCP99
0186826780999992000100312004-06760-043010FM-12+013899999V0203601N000511050019N0200001N1+02941+02031101401ADDAA199000091GF106991031011008001001021KA1240N+02261MA1999999099851MD1999999-0151REMSYN076AAXX  03124 82678 32598 63601 10294 20203 39985 40140 83102 333 20226 59015;EQDQ01  00002PRCP99
0167826780999992000100318004-06760-043010FM-12+013899999V0203601N000510075019N0200001N1+03621+01921100881ADDAA199000091GF106991051021008001001021MA1999999099351MD1999999-0111REMSYN070AAXX  03184 82678 32598 63601 10362 20192 39935 40088 85202 333 59011;EQDQ01  00002PRCP99
0186826780999992000100400004-06760-043010FM-12+013899999V0209999C000012200019N9999999N1+03061+01931101031ADDAA199000091GF104991041041008001001001KA1240M+03781MA1999999099481MD1999999-0111REMSYN076AAXX  04004 82678 325// 40000 10306 20193 39948 40103 84400 333 10378 59011;EQDQ01  00002PRCP99
0186826780999992000100412004-06760-043010FM-12+013899999V0200901N002610075019N0200001N1+02821+02241101531ADDAA199000091GF108991051011008001001021KA1240N+02381MA1999999099971MD1999999+0121REMSYN076AAXX  04124 82678 32598 80905 10282 20224 39997 40153 85102 333 20238 58012;EQDQ01  00002PRCP99
0167826780999992000100418004-06760-043010FM-12+013899999V0203601N001511050019N0200001N1+03501+01941100831ADDAA199000091GF105991031021008001001021MA1999999099281MD1999999-0071REMSYN070AAXX  04184 82678 32598 53603 10350 20194 39928 40083 83202 333 59007;EQDQ01  00002PRCP99
0196826780999992000100500004-06760-043010FM-12+013899999V0202301N001512200019N9999999N1+02961+02101101041ADDAA199000091GA1001+999999999GF100991001001999999001001KA1240M+03621MA1999999099481MD1999999+0001REMSYN070AAXX  05004 82678 329// 02303 10296 20210 39948 40104 333 10362 58000;EQDQ01  00002PRCP99
0201826780999992000100512004-06760-043010FM-12+013899999V0203201N000510075019N0200001N1+02601+02141101531ADDAA124002091AY161061AY221061GF108991061051008001001021KA1240N+02281MA1999999099961MD1999999-0011MW1021REMSYN088AAXX  05124 82678 21598 83201 10260 20214 39996 40153 70262 86502 333 20228 59001 60024;
0167826780999992000100518004-06760-043010FM-12+013899999V0203601N001010450019N0200001N1+02701+02201101161ADDAA199000091GF108991021051008001021021MA1999999099591MD1999999+0311REMSYN070AAXX  05184 82678 32598 83602 10270 20220 39959 40116 82522 333 58031;EQDQ01  00002PRCP99
0186826780999992000100600004-06760-043010FM-12+013899999V0209999C000012200019N9999999N1+02491+02111101151ADDAA199000091GF101991011021017501001001KA1240M+02971MA1999999099571MD1999999+0091REMSYN076AAXX  06004 82678 327// 10000 10249 20211 39957 40115 81200 333 10297 58009;EQDQ01  00002PRCP99
0186826780999992000100612004-06760-043010FM-12+013899999V0203201N000510075019N0200001N1+02721+02121101411ADDAA199000091GF107991051051008001001021KA1240N+02101MA1999999099831MD1999999-0131REMSYN076AAXX  06124 82678 32598 73201 10272 20212 39983 40141 85502 333 20210 59013;EQDQ01  00002PRCP99
0167826780999992000100618004-06760-043010FM-12+013899999V0203201N000511050019N0200001N1+03441+02001100871ADDAA199000091GF106991041021008001001021MA1999999099291MD1999999-0301REMSYN070AAXX  06184 82678 32598 63201 10344 20200 39929 40087 84202 333 59030;EQDQ01  00002PRCP99
0196826780999992000100700004-06760-043010FM-12+013899999V0209999C000012200019N9999999N1+02961+01991100971ADDAA199000091GA1001+999999999GF100991001001999999001001KA1240M+03581MA1999999099411MD1999999-0161REMSYN070AAXX  07004 82678 329// 00000 10296 20199 39941 40097 333 10358 59016;EQDQ01  00002PRCP99
0186826780999992000100712004-06760-043010FM-12+013899999V0203201N002610450019N0200001N1+02821+02101101501ADDAA199000091GF108991031051008001021001KA1240N+02291MA1999999099931MD1999999+0101REMSYN076AAXX  07124 82678 32598 83205 10282 20210 39993 40150 83520 333 20229 58010;EQDQ01  00002PRCP99
0167826780999992000100718004-06760-043010FM-12+013899999V0202301N001510075019N0200001N1+03561+01911100931ADDAA199000091GF106991061021008001001001MA1999999099381MD1999999+0091REMSYN070AAXX  07184 82678 32598 62303 10356 20191 39938 40093 86200 333 58009;EQDQ01  00002PRCP99
0196826780999992000100800004-06760-043010FM-12+013899999V0202701N000512200019N9999999N1+03011+02081101051ADDAA199000091GA1001+999999999GF100991001001999999001001KA1240M+03661MA1999999099491MD1999999+0081REMSYN070AAXX  08004 82678 329// 02701 10301 20208 39949 40105 333 10366 58008;EQDQ01  00002PRCP99
0195826780999992000100812004-06760-043010FM-12+013899999V0202301N001010075019N0200001N1+99999+99999101601ADDAA124005191AY121061AY211061GF108991051071008001021011KA1240N+02201MA1999999100021MD1999999+0091MW1621REMSYN082AAXX  08124 82678 21598 82302 20205 30002 40160 76221 85721 333 20220 58009 60054;
0148826780999992000100818004-06760-043010FM-12+013899999V0200901N001510450019N0200001N1+03511+01811100941ADDAA199000021GF108991041021008001011021MA1999999099381MD1999999+0001REMSYN070AAXX  08184 82678 32598 80903 10351 20181 39938 40094 84212 333 58000;
0186826780999992000100912004-06760-043010FM-12+013899999V0203601N000512200019N0200001N1+03001+01751101481ADDAA199000091GF102991011011008001001011KA1240N+02161MA1999999099911MD1999999-0101REMSYN076AAXX  09124 82678 32598 23601 10300 20175 39991 40148 81101 333 20216 59010;EQDQ01  00002PRCP99
0183826780999992000100918004-06760-043010FM-12+013899999V0200901N001519999999N0200001N1+03721+01671100981ADDAA199000091GF105991999021008001001001MA1999999099451MD1999999+0071REMSYN070AAXX  09184 82678 32598 50903 10372 20167 39945 40098 84200 333 58007;EQDQ01+000042SCOTLCQ02  00002PRCP99
0196826780999992000101000004-06760-043010FM-12+013899999V0200901N002612200019N9999999N1+03201+01551101191ADDAA199000091GA1001+999999999GF100991001001999999001001KA1240M+03741MA1999999099641MD1999999+0111REMSYN070AAXX  10004 82678 329// 00905 10320 20155 39964 40119 333 10374 58011;EQDQ01  00002PRCP99
0196826780999992000101012004-06760-043010FM-12+013899999V0200901N004112200019N0200001N1+03121+01641101321ADDAA199000091GA1001+999999999GF100991001001999999001001KA1240N+02541MA1999999099771MD1999999-0141REMSYN070AAXX  10124 82678 32998 00908 10312 20164 39977 40132 333 20254 59014;EQDQ01  00002PRCP99
0167826780999992000101018004-06760-043010FM-12+013899999V0200901N002112200019N0200001N1+02721+01261100831ADDAA199000091GF103991021011008001001011MA1999999099261MD1999999-0191REMSYN070AAXX  10184 82678 32598 30904 10272 20126 39926 40083 82101 333 59019;EQDQ01  00002PRCP99
0196826780999992000101100004-06760-043010FM-12+013899999V0201401N002112200019N9999999N1+03101+01281101051ADDAA199000091GA1001+999999999GF100991001001999999001001KA1240M+03781MA1999999099501MD1999999-0141REMSYN070AAXX  11004 82678 329// 01404 10310 20128 39950 40105 333 10378 59014;EQDQ01  00002PRCP99
0186826780999992000101112004-06760-043010FM-12+013899999V0201401N004112200019N0200001N1+03081+01641101461ADDAA199000091GF103991011071008001021011KA1240N+02501MA1999999099911MD1999999+0141REMSYN076AAXX  11124 82678 32598 31408 10308 20164 39991 40146 81721 333 20250 58014;EQDQ01  00002PRCP99
0167826780999992000101118004-06760-043010FM-12+013899999V0201401N004612200019N0200001N1+03721+01451100821ADDAA199000091GF104991041021008001001001MA1999999099281MD1999999+0021REMSYN070AAXX  11184 82678 32598 41409 10372 20145 39928 40082 84200 333 58002;EQDQ01  00002PRCP99
0196826780999992000101200004-06760-043010FM-12+013899999V0201401N001512200019N9999999N1+03141+01501101081ADDAA199000091GA1001+999999999GF100991001001999999001001KA1240M+03781MA1999999099531MD1999999+0031REMSYN070AAXX  12004 82678 329// 01403 10314 20150 39953 40108 333 10378 58003;EQDQ01  00002PRCP99
0186826780999992000101212004-06760-043010FM-12+013899999V0200901N004612200019N0200001N1+03121+01921101401ADDAA199000091GF102991011011008001001011KA1240N+02581MA1999999099851MD1999999-0061REMSYN076AAXX  12124 82678 32598 20909 10312 20192 39985 40140 81101 333 20258 59006;EQDQ01  00002PRCP99
0167826780999992000101218004-06760-043010FM-12+013899999V0200901N003112200019N0200001N1+03721+01721100921ADDAA199000091GF105991031011008001001011MA1999999099391MD1999999+0111REMSYN070AAXX  12184 82678 32598 50906 10372 20172 39939 40092 83101 333 58011;EQDQ01  00002PRCP99
0186826780999992000101300004-06760-043010FM-12+013899999V0209999C000010450019N9999999N1+03061+01581101131ADDAA199000091GF106991041051008001031001KA1240M+03761MA1999999099581MD1999999+0051REMSYN076AAXX  13004 82678 325// 60000 10306 20158 39958 40113 84530 333 10376 58005;EQDQ01  00002PRCP99
0196826780999992000101312004-06760-043010FM-12+013899999V0200901N003112200019N0200001N1+03181+01841101541ADDAA199000091GA1001+999999999GF100991001001999999001001KA1240N+02461MA1999999099991MD1999999+0141REMSYN070AAXX  13124 82678 32998 00906 10318 20184 39999 40154 333 20246 58014;EQDQ01  00002PRCP99
0167826780999992000101318004-06760-043010FM-12+013899999V0201401N003112200019N0200001N1+03801+01331100901ADDAA199000091GF105991041021008001001011MA1999999099371MD1999999-0021REMSYN070AAXX  13184 82678 32598 51406 10380 20133 39937 40090 84201 333 59002;EQDQ01  00002PRCP99
0196826780999992000101400004-06760-043010FM-12+013899999V0201401N001512200019N9999999N1+03141+01541101171ADDAA199000091GA1001+999999999GF100991001001999999001001KA1240M+03841MA1999999099631MD1999999+0051REMSYN070AAXX  14004 82678 329// 01403 10314 20154 39963 40117 333 10384 58005;EQDQ01  00002PRCP99
0180826780999992000101412004-06760-043010FM-12+013899999V0200901N008212200019N0200001N1+03101+01581101451ADDAA199000091GF101991999999999999999999KA1240N+02161MA1999999099901MD1999999-0091REMSYN070AAXX  14124 82678 32998 10916 10310 20158 39990 40145 333 20216 59009;EQDQ01  00002PRCP99
0161826780999992000101418004-06760-043010FM-12+013899999V0201401N003612200019N0200001N1+03771+01001100981ADDAA199000091GF102991999999999999999999MA1999999099431MD1999999+0061REMSYN064AAXX  14184 82678 32998 21407 10377 20100 39943 40098 333 58006;EQDQ01  00002PRCP99
0186826780999992000101500004-06760-043010FM-12+013899999V0200901N000512200019N9999999N1+03081+02011101151ADDAA199000091GF102991011001017501031011KA1240M+03841MA1999999099581MD1999999-0051REMSYN076AAXX  15004 82678 327// 20901 10308 20201 39958 40115 81031 333 10384 59005;EQDQ01  00002PRCP99
0180826780999992000101512004-06760-043010FM-12+013899999V0200901N003612200019N0200001N1+03061+01801101431ADDAA199000091GF102991999999999999999999KA1240N+02501MA1999999099871MD1999999-0031REMSYN070AAXX  15124 82678 32998 20907 10306 20180 39987 40143 333 20250 59003;EQDQ01  00002PRCP99
0183826780999992000101518004-06760-043010FM-12+013899999V0201401N000512200019N0200001N1+03741+01521100881ADDAA199000091GF103991999011008001001001MA1999999099351MD1999999-0081REMSYN070AAXX  15184 82678 32598 31401 10374 20152 39935 40088 82100 333 59008;EQDQ01+000022SCOTLCQ02  00002PRCP99
0186826780999992000101600004-06760-043010FM-12+013899999V0201401N000512200019N9999999N1+02981+01551101031ADDAA199000091GF102991021011017501001001KA1240M+03791MA1999999099481MD1999999+0101REMSYN076AAXX  16004 82678 327// 21401 10298 20155 39948 40103 82100 333 10379 58010;EQDQ01  00002PRCP99
0186826780999992000101612004-06760-043010FM-12+013899999V0200901N004112200019N0200001N1+03141+01661101551ADDAA199000091GF103991011011008001001011KA1240N+02381MA1999999099991MD1999999+0121REMSYN076AAXX  16124 82678 32598 30908 10314 20166 39999 40155 81101 333 20238 58012;EQDQ01  00002PRCP99
0167826780999992000101618004-06760-043010FM-12+013899999V0201401N002112200019N0200001N1+03681+01471100991ADDAA199000091GF105991041021008001001011MA1999999099451MD1999999+0101REMSYN070AAXX  16184 82678 32598 51404 10368 20147 39945 40099 84201 333 58010;EQDQ01  00002PRCP99
0196826780999992000101700004-06760-043010FM-12+013899999V0209999C000012200019N9999999N1+03021+01591101161ADDAA199000091GA1001+999999999GF100991001001999999001001KA1240M+03741MA1999999099611MD1999999+0131REMSYN070AAXX  17004 82678 329// 00000 10302 20159 39961 40116 333 10374 58013;EQDQ01  00002PRCP99
0186826780999992000101712004-06760-043010FM-12+013899999V0200901N001512200019N0200001N1+03141+01661101541ADDAA199000091GF103991021011008001001011KA1240N+02721MA1999999099991MD1999999+0001REMSYN076AAXX  17124 82678 32598 30903 10314 20166 39999 40154 82101 333 20272 58000;EQDQ01  00002PRCP99
0167826780999992000101718004-06760-043010FM-12+013899999V0201401N003612200019N0200001N1+03661+01511101061ADDAA199000091GF104991041021008001001001MA1999999099531MD1999999+0081REMSYN070AAXX  17184 82678 32598 41407 10366 20151 39953 40106 84200 333 58008;EQDQ01  00002PRCP99
0196826780999992000101800004-06760-043010FM-12+013899999V0200901N001012200019N9999999N1+02921+01771101211ADDAA199000091GA1001+999999999GF100991001001999999001001KA1240M+03781MA1999999099661MD1999999+0051REMSYN070AAXX  18004 82678 329// 00902 10292 20177 39966 40121 333 10378 58005;EQDQ01  00002PRCP99
0186826780999992000101812004-06760-043010FM-12+013899999V0200901N002612200019N0200001N1+03121+01751101631ADDAA199000091GF103991031011008001001001KA1240N+02421MA1999999100071MD1999999+0021REMSYN076AAXX  18124 82678 32598 30905 10312 20175 30007 40163 83100 333 20242 58002;EQDQ01  00002PRCP99
0167826780999992000101818004-06760-043010FM-12+013899999V0201401N001512200019N0200001N1+03701+01761101081ADDAA199000091GF102991021011008001001001MA1999999099551MD1999999+0021REMSYN070AAXX  18184 82678 32598 21403 10370 20176 39955 40108 82100 333 58002;EQDQ01  00002PRCP99
0196826780999992000101900004-06760-043010FM-12+013899999V0209999C000012200019N9999999N1+03021+01661101171ADDAA199000091GA1001+999999999GF100991001001999999001001KA1240M+03781MA1999999099621MD1999999-0041REMSYN070AAXX  19004 82678 329// 00000 10302 20166 39962 40117 333 10378 59004;EQDQ01  00002PRCP99
0196826780999992000101912004-06760-043010FM-12+013899999V0200901N003112200019N0200001N1+03221+01611101421ADDAA199000091GA1001+999999999GF100991001001999999001001KA1240N+02501MA1999999099871MD1999999-0201REMSYN070AAXX  19124 82678 32998 00906 10322 20161 39987 40142 333 20250 59020;EQDQ01  00002PRCP99
0167826780999992000101918004-06760-043010FM-12+013899999V0201401N001512200019N0200001N1+03721+01561100891ADDAA199000091GF103991021021008001001011MA1999999099361MD1999999-0161REMSYN070AAXX  19184 82678 32598 31403 10372 20156 39936 40089 82201 333 59016;EQDQ01  00002PRCP99
0196826780999992000102000004-06760-043010FM-12+013899999V0209999C000012200019N9999999N1+03001+01681101041ADDAA199000091GA1001+999999999GF100991001001999999001001KA1240M+03761MA1999999099491MD1999999-0131REMSYN070AAXX  20004 82678 329// 00000 10300 20168 39949 40104 333 10376 59013;EQDQ01  00002PRCP99
0186826780999992000102012004-06760-043010FM-12+013899999V0203601N002610075019N0200001N1+03061+01991101351ADDAA199000091GF106991061021008001001001KA1240N+02361MA1999999099801MD1999999-0071REMSYN076AAXX  20124 82678 32598 63605 10306 20199 39980 40135 86200 333 20236 59007;EQDQ01  00002PRCP99
0183826780999992000102018004-06760-043010FM-12+013899999V0200901N001010075019N0200001N1+03721+01561100851ADDAA199000091GF107991999021008001001001MA1999999099311MD1999999-0051REMSYN070AAXX  20184 82678 32598 70902 10372 20156 39931 40085 85200 333 59005;EQDQ01+000052SCOTLCQ02  00002PRCP99
0196826780999992000102100004-06760-043010FM-12+013899999V0201401N005112200019N9999999N1+03021+01591100971ADDAA199000091GA1001+999999999GF100991001001999999001001KA1240M+03831MA1999999099421MD1999999-0071REMSYN070AAXX  21004 82678 329// 01410 10302 20159 39942 40097 333 10383 59007;EQDQ01  00002PRCP99
0186826780999992000102112004-06760-043010FM-12+013899999V0200501N000511050019N0200001N1+02961+02021101321ADDAA199000091GF105991021011008001031011KA1240N+02361MA1999999099761MD1999999-0041REMSYN076AAXX  21124 82678 32598 50501 10296 20202 39976 40132 82131 333 20236 59004;EQDQ01  00002PRCP99
0167826780999992000102118004-06760-043010FM-12+013899999V0200901N000512200019N0200001N1+03701+01851100701ADDAA199000091GF106991041021008001001011MA1999999099161MD1999999-0151REMSYN070AAXX  21184 82678 32598 60901 10370 20185 39916 40070 84201 333 59015;EQDQ01  00002PRCP99
0196826780999992000102200004-06760-043010FM-12+013899999V0200901N001012200019N9999999N1+03141+01691100881ADDAA199000091GA1001+999999999GF100991001001999999001001KA1240M+03801MA1999999099331MD1999999-0091REMSYN070AAXX  22004 82678 329// 00902 10314 20169 39933 40088 333 10380 59009;EQDQ01  00002PRCP99
0186826780999992000102212004-06760-043010FM-12+013899999V0201401N001512200019N0200001N1+03081+02131101251ADDAA199000091GF105991031021008001001011KA1240N+02411MA1999999099701MD1999999-0071REMSYN076AAXX  22124 82678 32598 51403 10308 20213 39970 40125 83201 333 20241 59007;EQDQ01  00002PRCP99
0167826780999992000102218004-06760-043010FM-12+013899999V0200501N001512200019N0200001N1+03701+01811100641ADDAA199000091GF104991021021008001001021MA1999999099111MD1999999-0051REMSYN070AAXX  22184 82678 32598 40503 10370 20181 39911 40064 82202 333 59005;EQDQ01  00002PRCP99
0196826780999992000102300004-06760-043010FM-12+013899999V0200501N001512200019N9999999N1+03161+01791100921ADDAA199000091GA1001+999999999GF100991001001999999001001KA1240M+03841MA1999999099381MD1999999+0051REMSYN070AAXX  23004 82678 329// 00503 10316 20179 39938 40092 333 10384 58005;EQDQ01  00002PRCP99
0186826780999992000102312004-06760-043010FM-12+013899999V0203601N000510450019N0200001N1+03001+02031101321ADDAA199000091GF107991041021008001031011KA1240N+02421MA1999999099771MD1999999+0071REMSYN076AAXX  23124 82678 32598 73601 10300 20203 39977 40132 84231 333 20242 58007;EQDQ01  00002PRCP99
0167826780999992000102318004-06760-043010FM-12+013899999V0203601N001510450019N0200001N1+03561+02031100751ADDAA199000091GF107991041081008001031011MA1999999099211MD1999999+0101REMSYN070AAXX  23184 82678 32598 73603 10356 20203 39921 40075 84831 333 58010;EQDQ01  00002PRCP99
0186826780999992000102400004-06760-043010FM-12+013899999V0200501N002112200019N9999999N1+02981+01921100961ADDAA199000091GF104991041041008001001001KA1240M+03661MA1999999099411MD1999999+0031REMSYN076AAXX  24004 82678 325// 40504 10298 20192 39941 40096 84400 333 10366 58003;EQDQ01  00002PRCP99
0186826780999992000102412004-06760-043010FM-12+013899999V0203601N000510450019N0200001N1+03001+02171101271ADDAA199000091GF107991041051008001031011KA1240N+02501MA1999999099711MD1999999-0061REMSYN076AAXX  24124 82678 32598 73601 10300 20217 39971 40127 84531 333 20250 59006;EQDQ01  00002PRCP99
0183826780999992000102418004-06760-043010FM-12+013899999V0200501N000519999999N0200001N1+03661+01861100731ADDAA199000091GF106991999021008001001001MA1999999099201MD1999999-0011REMSYN070AAXX  24184 82678 32598 60501 10366 20186 39920 40073 84200 333 59001;EQDQ01+000042SCOTLCQ02  00002PRCP99
0201826780999992000102500004-06760-043010FM-12+013899999V0209999C000012200019N9999999N1+02901+02321100861ADDAA106000191AY121061AY291061GF103991031001017501031001KA1240M+03741MA1999999099311MD1999999-0101MW1011REMSYN088AAXX  25004 82678 217// 30000 10290 20232 39931 40086 70129 83030 333 10374 59010 69911;
0173826780999992000102512004-06760-043010FM-12+013899999V0200901N001510075019N0200001N1+03081+02161101131ADDAA124000191GF108991051021008001031021KA1240N+02411MA1999999099581MD1999999-0131REMSYN082AAXX  25124 82678 22598 80903 10308 20216 39958 40113 85232 333 20241 59013 69914;
0167826780999992000102518004-06760-043010FM-12+013899999V0200901N001512200019N0200001N1+03581+01841100661ADDAA199000091GF105991031021008001001011MA1999999099121MD1999999-0081REMSYN070AAXX  25184 82678 32598 50903 10358 20184 39912 40066 83201 333 59008;EQDQ01  00002PRCP99
0196826780999992000102600004-06760-043010FM-12+013899999V0209999C000012200019N9999999N1+03001+01881100821ADDAA199000091GA1001+999999999GF100991001001999999001001KA1240M+03681MA1999999099271MD1999999-0041REMSYN070AAXX  26004 82678 329// 00000 10300 20188 39927 40082 333 10368 59004;EQDQ01  00002PRCP99
0186826780999992000102612004-06760-043010FM-12+013899999V0200501N001012200019N0200001N1+03161+01711101221ADDAA199000091GF105991031021008001001011KA1240N+02421MA1999999099671MD1999999+0091REMSYN076AAXX  26124 82678 32598 50502 10316 20171 39967 40122 83201 333 20242 58009;EQDQ01  00002PRCP99
0167826780999992000102618004-06760-043010FM-12+013899999V0201401N002610075019N0200001N1+03541+01521100671ADDAA199000091GF105991051021008001001001MA1999999099131MD1999999+0011REMSYN070AAXX  26184 82678 32598 51405 10354 20152 39913 40067 85200 333 58001;EQDQ01  00002PRCP99
0186826780999992000102700004-06760-043010FM-12+013899999V0200901N004610150019N9999999N1+03081+01711100911ADDAA199000091GF105991051001017501021001KA1240M+03701MA1999999099371MD1999999+0101REMSYN076AAXX  27004 82678 327// 50909 10308 20171 39937 40091 85020 333 10370 58010;EQDQ01  00002PRCP99
0167826780999992000102718004-06760-043010FM-12+013899999V0200901N001510075019N0200001N1+03541+01891101151ADDAA199000091GF107991061051008001031001MA1999999099341MD1999999+0211REMSYN070AAXX  27184 82678 32598 70903 10354 20189 39934 40115 86530 333 58021;EQDQ01  00002PRCP99
0186826780999992000102800004-06760-043010FM-12+013899999V0200501N001012200019N9999999N1+03021+01861101011ADDAA199000091GF103991031001017501031001KA1240M+03601MA1999999099461MD1999999+0091REMSYN076AAXX  28004 82678 327// 30502 10302 20186 39946 40101 83030 333 10360 58009;EQDQ01  00002PRCP99
0186826780999992000102812004-06760-043010FM-12+013899999V0200501N001512200019N0200001N1+03041+02061101311ADDAA199000091GF104991021011008001001011KA1240N+02451MA1999999099761MD1999999+0031REMSYN076AAXX  28124 82678 32598 40503 10304 20206 39976 40131 82101 333 20245 58003;EQDQ01  00002PRCP99
0167826780999992000102818004-06760-043010FM-12+013899999V0200501N002111050019N0200001N1+03701+01851100821ADDAA199000091GF105991031021008001001021MA1999999099281MD1999999-0061REMSYN070AAXX  28184 82678 32598 50504 10370 20185 39928 40082 83202 333 59006;EQDQ01  00002PRCP99
0196826780999992000102900004-06760-043010FM-12+013899999V0203201N001512200019N9999999N1+03141+01911101031ADDAA199000091GA1001+999999999GF100991001001999999001001KA1240M+03721MA1999999099481MD1999999+0021REMSYN070AAXX  29004 82678 329// 03203 10314 20191 39948 40103 333 10372 58002;EQDQ01  00002PRCP99
0186826780999992000102912004-06760-043010FM-12+013899999V0200501N002612200019N0200001N1+03181+01981101291ADDAA199000091GF102991011011008001031001KA1240N+02551MA1999999099741MD1999999-0021REMSYN076AAXX  29124 82678 32598 20505 10318 20198 39974 40129 81130 333 20255 59002;EQDQ01  00002PRCP99
0167826780999992000102918004-06760-043010FM-12+013899999V0201401N001510450019N0200001N1+03731+01721100701ADDAA199000091GF106991041021008001031001MA1999999099161MD1999999-0121REMSYN070AAXX  29184 82678 32598 61403 10373 20172 39916 40070 84230 333 59012;EQDQ01  00002PRCP99
0186826780999992000103000004-06760-043010FM-12+013899999V0209999C000012200019N9999999N1+03281+01821100911ADDAA199000091GF104991041041008001001001KA1240M+03821MA1999999099381MD1999999-0101REMSYN076AAXX  30004 82678 325// 40000 10328 20182 39938 40091 84400 333 10382 59010;EQDQ01  00002PRCP99
0186826780999992000103012004-06760-043010FM-12+013899999V0202701N000510075019N0200001N1+02981+02151101321ADDAA199000091GF108991061041008001021999KA1240N+02581MA1999999099771MD1999999+0031REMSYN076AAXX  30124 82678 32598 82701 10298 20215 39977 40132 8642/ 333 20258 58003;EQDQ01  00002PRCP99
0201826780999992000103018004-06760-043010FM-12+013899999V0202701N000519999999N0200001N1+03061+02271100901ADDAA106011991AY161061AY221061GF105991999021008001001001MA1999999099351MD1999999+0191MW1011REMSYN082AAXX  30184 82678 21598 52701 10306 20227 39935 40090 70162 83200 333 58019 60121;EQDQ01+000032SCOTLC
0173826780999992000103112004-06760-043010FM-12+013899999V0203601N003110075019N0200001N1+03141+02161101191ADDAA124011991GF108991061021008001021011KA1240N+02281MA1999999099641MD1999999-0131REMSYN082AAXX  31124 82678 22598 83606 10314 20216 39964 40119 86221 333 20228 59013 60124;
0183826780999992000103118004-06760-043010FM-12+013899999V0201401N001512200019N0200001N1+03621+01921100661ADDAA199000091GF104991999021008001001001MA1999999099121MD1999999-0231REMSYN070AAXX  31184 82678 32598 41403 10362 20192 39912 40066 82200 333 59023;EQDQ01+000022SCOTLCQ02  00002PRCP99
0201826780999992000110100004-06760-043010FM-12+013899999V0209999C000010075019N9999999N1+02761+02211100921ADDAA106001091AY161061AY211061GF108991051051008001021999KA1240M+03741MA1999999099371MD1999999-0051MW1021REMSYN088AAXX  01004 82678 215// 80000 10276 20221 39937 40092 70261 8552/ 333 10374 59005 60011;
0173826780999992000110112004-06760-043010FM-12+013899999V0200501N003110120019N0200001N1+02991+02251101201ADDAA124001091GF108991051081008001001021KA1240N+02281MA1999999099641MD1999999+0001REMSYN082AAXX  01124 82678 22598 80506 10299 20225 39964 40120 85802 333 20228 58000 60014;
0183826780999992000110118004-06760-043010FM-12+013899999V0203601N002119999999N0200001N1+03571+01871100621ADDAA199000091GF108991999021008001001001MA1999999099071MD1999999-0041REMSYN070AAXX  01184 82678 32598 83604 10357 20187 39907 40062 84200 333 59004;EQDQ01+000042SCOTLCQ02  00002PRCP99
0180826780999992000110200004-06760-043010FM-12+013899999V0202301N000512200019N9999999N1+03031+02241100751ADDAA199000091GF102991999999999999999999KA1240M+03701MA1999999099201MD1999999-0171REMSYN070AAXX  02004 82678 329// 22301 10303 20224 39920 40075 333 10370 59017;EQDQ01  00002PRCP99
0186826780999992000110212004-06760-043010FM-12+013899999V0209999C000010075019N0200001N1+02881+02281101131ADDAA199000091GF108991071051008001061999KA1240N+02481MA1999999099561MD1999999-0081REMSYN076AAXX  02124 82678 32598 80000 10288 20228 39956 40113 8756/ 333 20248 59008;EQDQ01  00002PRCP99
0182826780999992000110218004-06760-043010FM-12+013899999V0202301N000510075019N0200001N1+02501+02361100851ADDAA106004191AY161061AY221061GF108991061051008001071999MA1999999099271MD1999999+0201MW1031REMSYN082AAXX  02184 82678 21598 82301 10250 20236 39927 40085 70362 8657/ 333 58020 60041;
0218826780999992000110300004-06760-043010FM-12+013899999V0209999C000019999999N0200001N1+02621+02481100791ADDAA199000091GF106991999021008001001001KA1240M+03161MA1999999999999MD1999999+0021REMSYN076AAXX  03004 82678 32598 60000 10262 20248 39623 40079 84200 333 10316 58002;EQDQ01+000042SCOTLCQ02  00002PRCP99Q03 096233APOSP 
0192826780999992000110312004-06760-043010FM-12+013899999V0209999C000019999999N0200001N1+02921+02291101021ADDAA124004191GF105991999021008001001001KA1240N+02341MA1999999099451MD1999999-0111REMSYN082AAXX  03124 82678 22598 50000 10292 20229 39945 40102 83200 333 20234 59011 60044;EQDQ01+000032SCOTLC
0201826780999992000110318004-06760-043010FM-12+013899999V0201401N001519999999N0200001N1+02381+02241100811ADDAA106002091AY161061AY211061GF108991999011008001001001MA1999999099161MD1999999-0141MW1031REMSYN082AAXX  03184 82678 21598 81403 10238 20224 39916 40081 70361 82100 333 59014 60021;EQDQ01+000022SCOTLC
0201826780999992000110400004-06760-043010FM-12+013899999V0209999C000010075019N9999999N1+02481+02321100801ADDAA106002091AY161061AY221061GF108991051051008001031999KA1240M+03311MA1999999099231MD1999999+0001MW1031REMSYN088AAXX  04004 82678 215// 80000 10248 20232 39923 40080 70362 8553/ 333 10331 58000 60021;
0201826780999992000110412004-06760-043010FM-12+013899999V0203601N001510075019N0200001N1+02511+02341101001ADDAA124004191AY121061AY221061GF108991081071008001999999KA1240N+02221MA1999999099431MD1999999-0031MW1601REMSYN088AAXX  04124 82678 21598 83603 10251 20234 39943 40100 76022 887// 333 20222 59003 60044;
0167826780999992000110500004-06760-043010FM-12+013899999V0201401N000510075019N9999999N1+02381+02291100881ADDAA199000021GF108991081071008001999999KA1240M+02541MA1999999099291MD1999999+0061REMSYN076AAXX  05004 82678 325// 81401 10238 20229 39929 40088 887// 333 10254 58006;
0173826780999992000110512004-06760-043010FM-12+013899999V0209999C000010075019N0200001N1+02541+02331101141ADDAA124007991GF108991071051008001061999KA1240N+02221MA1999999099541MD1999999+0121REMSYN082AAXX  05124 82678 22598 80000 10254 20233 39954 40114 8756/ 333 20222 58012 60084;
0182826780999992000110518004-06760-043010FM-12+013899999V0201401N000510075019N0200001N1+02341+02291100971ADDAA106061091AY161061AY261061GF108991061051008001021999MA1999999099381MD1999999+0191MW1211REMSYN082AAXX  05184 82678 21598 81401 10234 20229 39938 40097 72166 8652/ 333 58019 60611;
0167826780999992000110600004-06760-043010FM-12+013899999V0209999C000012200019N9999999N1+02381+02291100981ADDAA199000021GF106991041051008001001011KA1240M+02901MA1999999099391MD1999999+0101REMSYN076AAXX  06004 82678 325// 60000 10238 20229 39939 40098 84501 333 10290 58010;
0167826780999992000110618004-06760-043010FM-12+013899999V0200501N000512200019N0200001N1+03481+02151100551ADDAA199000091GF104991021021008001001021MA1999999099001MD1999999-0381REMSYN070AAXX  06184 82678 32598 40501 10348 20215 39900 40055 82202 333 59038;EQDQ01  00002PRCP99
0196826780999992000110700004-06760-043010FM-12+013899999V0209999C000012200019N9999999N1+02821+02401100641ADDAA199000091GA1001+999999999GF100991001001999999001001KA1240M+03541MA1999999099071MD1999999-0321REMSYN070AAXX  07004 82678 329// 00000 10282 20240 39907 40064 333 10354 59032;EQDQ01  00002PRCP99
0186826780999992000110712004-06760-043010FM-12+013899999V0203201N001012200019N0200001N1+02981+02041100951ADDAA199000091GF102991021001017501031001KA1240N+02401MA1999999099391MD1999999-0101REMSYN076AAXX  07124 82678 32798 23202 10298 20204 39939 40095 82030 333 20240 59010;EQDQ01  00002PRCP99
0183826780999992000110718004-06760-043010FM-12+013899999V0202301N001519999999N0200001N1+03591+02051100381ADDAA199000091GF105991999021008001001001MA1999999098841MD1999999-0161REMSYN070AAXX  07184 82678 32598 52303 10359 20205 39884 40038 83200 333 59016;EQDQ01+000032SCOTLCQ02  00002PRCP99
0186826780999992000110800004-06760-043010FM-12+013899999V0202301N000510150019N9999999N1+02981+02351100581ADDAA199000091GF108991081001017501021999KA1240M+03641MA1999999099041MD1999999-0031REMSYN076AAXX  08004 82678 327// 82301 10298 20235 39904 40058 8802/ 333 10364 59003;EQDQ01  00002PRCP99
0201826780999992000110812004-06760-043010FM-12+013899999V0209999C000010075019N0200001N1+02761+02231100851ADDAA124001091AY121061AY261061GF108991071051008001001011KA1240N+02381MA1999999099291MD1999999-0101MW1031REMSYN088AAXX  08124 82678 21598 80000 10276 20223 39929 40085 70326 87501 333 20238 59010 60014;
0183826780999992000110818004-06760-043010FM-12+013899999V0203601N001019999999N0200001N1+03241+02311100411ADDAA199000091GF107991999021008001001001MA1999999098861MD1999999+0021REMSYN070AAXX  08184 82678 32598 73602 10324 20231 39886 40041 83200 333 58002;EQDQ01+000032SCOTLCQ02  00002PRCP99
0173826780999992000110912004-06760-043010FM-12+013899999V0203201N001510075019N0200001N1+02621+02251100891ADDAA124003091GF108991051031008001021999KA1240N+02381MA1999999099321MD1999999+0031REMSYN082AAXX  09124 82678 22598 83203 10262 20225 39932 40089 8532/ 333 20238 58003 60034;
0201826780999992000110918004-06760-043010FM-12+013899999V0200901N001010075019N0200001N1+02721+02481100641ADDAA106003091AY161061AY211061GF108991999021008001001001MA1999999099071MD1999999+0021MW1611REMSYN082AAXX  09184 82678 21598 80902 10272 20248 39907 40064 76161 85200 333 58002 60031;EQDQ01+000052SCOTLC
0201826780999992000111000004-06760-043010FM-12+013899999V0201801N002110075019N9999999N1+02301+02161100951ADDAA106009991AY191061AY261061GF108991061071008001021999KA1240M+02891MA1999999099361MD1999999+0311MW1291REMSYN088AAXX  10004 82678 215// 81804 10230 20216 39936 40095 72996 8672/ 333 10289 58031 60101;
0173826780999992000111012004-06760-043010FM-12+013899999V0203601N001510075019N0200001N1+02481+02191101081ADDAA124013091GF108991051031008001021011KA1240N+02051MA1999999099491MD1999999+0171REMSYN082AAXX  10124 82678 22598 83603 10248 20219 39949 40108 85321 333 20205 58017 60134;
0183826780999992000111018004-06760-043010FM-12+013899999V0200501N002119999999N0200001N1+03131+02171100601ADDAA199000091GF107991999011008001001001MA1999999099041MD1999999-0031REMSYN070AAXX  10184 82678 32598 70504 10313 20217 39904 40060 82100 333 59003;EQDQ01+000022SCOTLCQ02  00002PRCP99
0186826780999992000111100004-06760-043010FM-12+013899999V0209999C000011050019N9999999N1+02741+02431100861ADDAA199000091GF106991041001017501031021KA1240M+03241MA1999999099281MD1999999-0081REMSYN076AAXX  11004 82678 327// 60000 10274 20243 39928 40086 84032 333 10324 59008;EQDQ01  00002PRCP99
0186826780999992000111112004-06760-043010FM-12+013899999V0203601N000510450019N0200001N1+02841+02261101081ADDAA199000091GF107991041051008001071001KA1240N+02841MA1999999099501MD1999999+0011REMSYN076AAXX  11124 82678 32598 73601 10284 20226 39950 40108 84570 333 20284 58001;EQDQ01  00002PRCP99
0167826780999992000111118004-06760-043010FM-12+013899999V0202301N000510075019N0200001N1+03241+02281100621ADDAA199000091GF107991051021008001001021MA1999999099071MD1999999+0031REMSYN070AAXX  11184 82678 32598 72301 10324 20228 39907 40062 85202 333 58003;EQDQ01  00002PRCP99
0186826780999992000111200004-06760-043010FM-12+013899999V0209999C000010075019N9999999N1+02741+02241100801ADDAA199000091GF108991061051008001001021KA1240M+03301MA1999999099241MD1999999-0041REMSYN076AAXX  12004 82678 325// 80000 10274 20224 39924 40080 86502 333 10330 59004;EQDQ01  00002PRCP99
0186826780999992000111212004-06760-043010FM-12+013899999V0200901N001010450019N0200001N1+02861+02191101021ADDAA199000091GF108991041051008001071001KA1240N+02281MA1999999099451MD1999999-0051REMSYN076AAXX  12124 82678 32598 80902 10286 20219 39945 40102 84570 333 20228 59005;EQDQ01  00002PRCP99
0167826780999992000111218004-06760-043010FM-12+013899999V0209999C000012200019N0200001N1+03501+02091101471ADDAA199000091GF105991031021008001001011MA1999999099891MD1999999-0081REMSYN070AAXX  12184 82678 32598 50000 10350 20209 39989 40147 83201 333 59008;EQDQ01  00002PRCP99
0196826780999992000111300004-06760-043010FM-12+013899999V0202301N001512200019N9999999N1+02881+02181100801ADDAA199000091GA1001+999999999GF100991001001999999001001KA1240M+03531MA1999999099241MD1999999+0001REMSYN070AAXX  13004 82678 329// 02303 10288 20218 39924 40080 333 10353 58000;EQDQ01  00002PRCP99
0186826780999992000111312004-06760-043010FM-12+013899999V0203601N001011050019N0200001N1+02861+02281101021ADDAA199000091GF105991031021008001001021KA1240N+02321MA1999999099461MD1999999+0011REMSYN076AAXX  13124 82678 32598 53602 10286 20228 39946 40102 83202 333 20232 58001;EQDQ01  00002PRCP99
0183826780999992000111318004-06760-043010FM-12+013899999V0203601N001019999999N0200001N1+03471+02031100541ADDAA199000091GF108991999021008001001001MA1999999099001MD1999999-0011REMSYN070AAXX  13184 82678 32598 83602 10347 20203 39900 40054 83200 333 59001;EQDQ01+000032SCOTLCQ02  00002PRCP99
0186826780999992000111400004-06760-043010FM-12+013899999V0201801N001010120019N9999999N1+02991+02301100791ADDAA199000091GF106991051081008001001011KA1240M+03521MA1999999099241MD1999999+0001REMSYN076AAXX  14004 82678 325// 61802 10299 20230 39924 40079 85801 333 10352 58000;EQDQ01  00002PRCP99
0201826780999992000111412004-06760-043010FM-12+013899999V0203601N000510450019N0200001N1+02701+02301101071ADDAA124004191AY121061AY261061GF105991031051008001031001KA1240N+02341MA1999999099491MD1999999+0031MW1011REMSYN088AAXX  14124 82678 21598 53601 10270 20230 39949 40107 70126 83530 333 20234 58003 60044;
0167826780999992000111418004-06760-043010FM-12+013899999V0203601N000510075019N0200001N1+03001+02001100581ADDAA199000091GF105991051021008001001001MA1999999099021MD1999999+0021REMSYN070AAXX  14184 82678 32598 53601 10300 20200 39902 40058 85200 333 58002;EQDQ01  00002PRCP99
0196826780999992000111500004-06760-043010FM-12+013899999V0209999C000012200019N9999999N1+02881+02461100681ADDAA199000091GA1001+999999999GF100991001001999999001001KA1240M+03541MA1999999099121MD1999999-0121REMSYN070AAXX  15004 82678 329// 00000 10288 20246 39912 40068 333 10354 59012;EQDQ01  00002PRCP99
0196826780999992000111512004-06760-043010FM-12+013899999V0203201N001012200019N0200001N1+02921+02121101071ADDAA199000091GA1001+999999999GF100991001001999999001001KA1240N+02251MA1999999099501MD1999999+0011REMSYN070AAXX  15124 82678 32998 03202 10292 20212 39950 40107 333 20225 58001;EQDQ01  00002PRCP99
0167826780999992000111518004-06760-043010FM-12+013899999V0201401N001512200019N0200001N1+03481+02071100611ADDAA199000091GF104991021021008001001011MA1999999099061MD1999999+0041REMSYN070AAXX  15184 82678 32598 41403 10348 20207 39906 40061 82201 333 58004;EQDQ01  00002PRCP99
0196826780999992000111600004-06760-043010FM-12+013899999V0209999C000012200019N9999999N1+02861+02351100831ADDAA199000091GA1001+999999999GF100991001001999999001001KA1240M+03521MA1999999099271MD1999999+0151REMSYN070AAXX  16004 82678 329// 00000 10286 20235 39927 40083 333 10352 58015;EQDQ01  00002PRCP99
0201826780999992000111612004-06760-043010FM-12+013899999V0203601N000512200019N0200001N1+02721+02221101171ADDAA124000191AY161061AY221061GF103991031021008001001001KA1240N+02361MA1999999099601MD1999999+0101MW1011REMSYN088AAXX  16124 82678 21598 33601 10272 20222 39960 40117 70162 83200 333 20236 58010 69924;
0167826780999992000111618004-06760-043010FM-12+013899999V0201401N001512200019N0200001N1+03401+01721100741ADDAA199000091GF104991041021008001001001MA1999999099191MD1999999+0131REMSYN070AAXX  16184 82678 32598 41403 10340 20172 39919 40074 84200 333 58013;EQDQ01  00002PRCP99
0186826780999992000111700004-06760-043010FM-12+013899999V0201801N000512200019N9999999N1+02811+02111100951ADDAA199000091GF103991031041008001001001KA1240M+03541MA1999999099381MD1999999+0111REMSYN076AAXX  17004 82678 325// 31801 10281 20211 39938 40095 83400 333 10354 58011;EQDQ01  00002PRCP99
0186826780999992000111712004-06760-043010FM-12+013899999V0203601N000510075019N0200001N1+02821+02241101241ADDAA199000091GF105991051021008001001001KA1240N+02161MA1999999099671MD1999999+0071REMSYN076AAXX  17124 82678 32598 53601 10282 20224 39967 40124 85200 333 20216 58007;EQDQ01  00002PRCP99
0183826780999992000111718004-06760-043010FM-12+013899999V0203601N000519999999N0200001N1+03481+01941100851ADDAA199000091GF106991999021008001001001MA1999999099301MD1999999+0111REMSYN070AAXX  17184 82678 32598 63601 10348 20194 39930 40085 83200 333 58011;EQDQ01+000032SCOTLCQ02  00002PRCP99
0186826780999992000111800004-06760-043010FM-12+013899999V0201401N000512200019N9999999N1+02881+01971101041ADDAA199000091GF103991031021008001001001KA1240M+03531MA1999999099481MD1999999+0101REMSYN076AAXX  18004 82678 325// 31401 10288 20197 39948 40104 83200 333 10353 58010;EQDQ01  00002PRCP99
0186826780999992000111812004-06760-043010FM-12+013899999V0200901N002112200019N0200001N1+03081+01951101291ADDAA199000091GF104991021021008001001011KA1240N+02211MA1999999099731MD1999999+0061REMSYN076AAXX  18124 82678 32598 40904 10308 20195 39973 40129 82201 333 20221 58006;EQDQ01  00002PRCP99
0167826780999992000111818004-06760-043010FM-12+013899999V0200901N003112200019N0200001N1+03581+01841100751ADDAA199000091GF103991021021008001001021MA1999999099201MD1999999-0101REMSYN070AAXX  18184 82678 32598 30906 10358 20184 39920 40075 82202 333 59010;EQDQ01  00002PRCP99
0196826780999992000111900004-06760-043010FM-12+013899999V0201401N001512200019N9999999N1+02901+01751100851ADDAA199000091GA1001+999999999GF100991001001999999001001KA1240M+03621MA1999999099301MD1999999-0181REMSYN070AAXX  19004 82678 329// 01403 10290 20175 39930 40085 333 10362 59018;EQDQ01  00002PRCP99
0186826780999992000111912004-06760-043010FM-12+013899999V0201401N002112200019N0200001N1+02831+01941101291ADDAA199000091GF103991031011008001001001KA1240N+02131MA1999999099721MD1999999-0011REMSYN076AAXX  19124 82678 32598 31404 10283 20194 39972 40129 83100 333 20213 59001;EQDQ01  00002PRCP99
0167826780999992000111918004-06760-043010FM-12+013899999V0200901N001012200019N0200001N1+03471+01821100801ADDAA199000091GF104991041021008001001001MA1999999099251MD1999999+0051REMSYN070AAXX  19184 82678 32598 40902 10347 20182 39925 40080 84200 333 58005;EQDQ01  00002PRCP99
0196826780999992000112000004-06760-043010FM-12+013899999V0201401N001512200019N9999999N1+03031+01831100951ADDAA199000091GA1001+999999999GF100991001001999999001001KA1240M+03621MA1999999099401MD1999999+0101REMSYN070AAXX  20004 82678 329// 01403 10303 20183 39940 40095 333 10362 58010;EQDQ01  00002PRCP99
0186826780999992000112012004-06760-043010FM-12+013899999V0200901N004612200019N0200001N1+03081+01951101341ADDAA199000091GF103991021021008001001011KA1240N+02281MA1999999099781MD1999999+0061REMSYN076AAXX  20124 82678 32598 30909 10308 20195 39978 40134 82201 333 20228 58006;EQDQ01  00002PRCP99
0167826780999992000112018004-06760-043010FM-12+013899999V0201401N001512200019N0200001N1+03571+01681100811ADDAA199000091GF104991041021008001001001MA1999999099261MD1999999+0011REMSYN070AAXX  20184 82678 32598 41403 10357 20168 39926 40081 84200 333 58001;EQDQ01  00002PRCP99
0186826780999992000112100004-06760-043010FM-12+013899999V0201801N000512200019N9999999N1+03021+01891100991ADDAA199000091GF103991031041008001001001KA1240M+03681MA1999999099441MD1999999+0041REMSYN076AAXX  21004 82678 325// 31801 10302 20189 39944 40099 83400 333 10368 58004;EQDQ01  00002PRCP99
0172826780999992000112212004-06760-043010FM-12+013899999V0203601N002112200019N0200001N1+02931+02011999999ADDAA199000091GF103991011011008001001021KA1240N+02181MA1999999099891REMSYN076AAXX  22124 82678 32598 33604 10293 20201 39989 4//// 81102 333 20218 58///;EQDQ01  00002PRCP99
0183826780999992000112218004-06760-043010FM-12+013899999V0200901N003119999999N0200001N1+03601+01771999999ADDAA199000091GF105991999011008001001001MA1999999099361MD1999999+0001REMSYN070AAXX  22184 82678 32598 50906 10360 20177 39936 4//// 82100 333 58000;EQDQ01+000022SCOTLCQ02  00002PRCP99
0180826780999992000112300004-06760-043010FM-12+013899999V0201401N001512200019N9999999N1+02941+01821101141ADDAA199000091GF101991999999999999999999KA1240M+03641MA1999999099581MD1999999+0001REMSYN070AAXX  23004 82678 329// 11403 10294 20182 39958 40114 333 10364 58000;EQDQ01  00002PRCP99
0183826780999992000112318004-06760-043010FM-12+013899999V0201401N004112200019N0200001N1+03531+01551100881ADDAA199000091GF104991999011008001001001MA1999999099341MD1999999-0021REMSYN070AAXX  23184 82678 32598 41408 10353 20155 39934 40088 83100 333 59002;EQDQ01+000032SCOTLCQ02  00002PRCP99
0196826780999992000112400004-06760-043010FM-12+013899999V0209999C000012200019N9999999N1+02831+01741101091ADDAA199000091GA1001+999999999GF100991001001999999001001KA1240M+03641MA1999999099521MD1999999-0061REMSYN070AAXX  24004 82678 329// 00000 10283 20174 39952 40109 333 10364 59006;EQDQ01  00002PRCP99
0196826780999992000112412004-06760-043010FM-12+013899999V0200901N004612200019N0200001N1+03021+01831101341ADDAA199000091GA1001+999999999GF100991001001999999001001KA1240N+02201MA1999999099781MD1999999+0001REMSYN070AAXX  24124 82678 32598 00909 10302 20183 39978 40134 333 20220 58000;EQDQ01  00002PRCP99
0183826780999992000112718004-06760-043010FM-12+013899999V0201401N001019999999N0200001N1+03501+01971100871ADDAA199000091GF105991999021008001001001MA1999999099321MD1999999-0011REMSYN070AAXX  27184 82678 32598 51402 10350 20197 39932 40087 83200 333 59001;EQDQ01+000032SCOTLCQ02  00002PRCP99
0196826780999992000112800004-06760-043010FM-12+013899999V0209999C000012200019N9999999N1+02821+02271101071ADDAA199000091GA1001+999999999GF100991001001999999001001KA1240M+03621MA1999999099511MD1999999+0021REMSYN070AAXX  28004 82678 329// 00000 10282 20227 39951 40107 333 10362 58002;EQDQ01  00002PRCP99
0186826780999992000112812004-06760-043010FM-12+013899999V0201401N001510450019N0200001N1+02921+01981101411ADDAA199000091GF106991041021008001031001KA1240N+02391MA1999999099841MD1999999+0011REMSYN076AAXX  28124 82678 32598 61403 10292 20198 39984 40141 84230 333 20239 58001;EQDQ01  00002PRCP99
0167826780999992000112818004-06760-043010FM-12+013899999V0200501N003112200019N0200001N1+03541+01851100881ADDAA199000091GF104991041021008001001001MA1999999099341MD1999999+0021REMSYN070AAXX  28184 82678 32598 40506 10354 20185 39934 40088 84200 333 58002;EQDQ01  00002PRCP99
0186826780999992000112900004-06760-043010FM-12+013899999V0201401N001012200019N9999999N1+02721+02081101131ADDAA199000091GF102991021001017501021001KA1240M+03711MA1999999099561MD1999999+0051REMSYN076AAXX  29004 82678 327// 21402 10272 20208 39956 40113 82020 333 10371 58005;EQDQ01  00002PRCP99
0186826780999992000112912004-06760-043010FM-12+013899999V0203201N000512200019N0200001N1+02921+02061101421ADDAA199000091GF103991021011008001001011KA1240N+02211MA1999999099831MD1999999-0011REMSYN076AAXX  29124 82678 32598 33201 10292 20206 39983 40142 82101 333 20221 59001;EQDQ01  00002PRCP99
0183826780999992000120118004-06760-043010FM-12+013899999V0203601N002119999999N0200001N1+03481+02071100791ADDAA199000091GF105991999021008001001001MA1999999099251MD1999999+0001REMSYN070AAXX  01184 82678 32598 53604 10348 20207 39925 40079 84200 333 58000;EQDQ01+000042SCOTLCQ02  00002PRCP99
0186826780999992000120200004-06760-043010FM-12+013899999V0201401N000510075019N9999999N1+02911+01871101001ADDAA199000091GF106991061041008001001001KA1240M+03701MA1999999099441MD1999999+0101REMSYN076AAXX  02004 82678 325// 61401 10291 20187 39944 40100 86400 333 10370 58010;EQDQ01  00002PRCP99
0186826780999992000120212004-06760-043010FM-12+013899999V0200501N000511050019N0200001N1+03001+02171101241ADDAA199000091GF105991021011008001031021KA1240N+02401MA1999999099681MD1999999+0041REMSYN076AAXX  02124 82678 32598 50501 10300 20217 39968 40124 82132 333 20240 58004;EQDQ01  00002PRCP99
0167826780999992000120218004-06760-043010FM-12+013899999V0202701N000510450019N0200001N1+03541+02161100781ADDAA199000091GF107991041051008001031011MA1999999099241MD1999999-0011REMSYN070AAXX  02184 82678 32598 72701 10354 20216 39924 40078 84531 333 59001;EQDQ01  00002PRCP99
0186826780999992000120300004-06760-043010FM-12+013899999V0209999C000012200019N9999999N1+02881+02321100961ADDAA199000091GF102991021001017501031001KA1240M+03661MA1999999099411MD1999999-0031REMSYN076AAXX  03004 82678 327// 20000 10288 20232 39941 40096 82030 333 10366 59003;EQDQ01  00002PRCP99
0186826780999992000120312004-06760-043010FM-12+013899999V0200901N001510450019N0200001N1+02961+02131101271ADDAA199000091GF108991041081008001011011KA1240N+02481MA1999999099711MD1999999+0031REMSYN076AAXX  03124 82678 32598 80903 10296 20213 39971 40127 84811 333 20248 58003;EQDQ01  00002PRCP99
0167826780999992000120318004-06760-043010FM-12+013899999V0202301N001012200019N0200001N1+03551+02051100711ADDAA199000091GF106991041021008001001011MA1999999099171MD1999999-0071REMSYN070AAXX  03184 82678 32598 62302 10355 20205 39917 40071 84201 333 59007;EQDQ01  00002PRCP99
0196826780999992000120400004-06760-043010FM-12+013899999V0209999C000012200019N9999999N1+02941+02211100881ADDAA199000091GA1001+999999999GF100991001001999999001001KA1240M+03641MA1999999099321MD1999999-0091REMSYN070AAXX  04004 82678 329// 00000 10294 20221 39932 40088 333 10364 59009;EQDQ01  00002PRCP99
0186826780999992000120412004-06760-043010FM-12+013899999V0203201N001510120019N0200001N1+02931+02171101181ADDAA199000091GF106991051081008001031001KA1240N+02401MA1999999099621MD1999999-0091REMSYN076AAXX  04124 82678 32598 63203 10293 20217 39962 40118 85830 333 20240 59009;EQDQ01  00002PRCP99
0183826780999992000120418004-06760-043010FM-12+013899999V0203601N001512200019N0200001N1+03401+01771100601ADDAA199000091GF103991999021008001001001MA1999999099061MD1999999-0111REMSYN070AAXX  04184 82678 32598 33603 10340 20177 39906 40060 84200 333 59011;EQDQ01+000042SCOTLCQ02  00002PRCP99
0186826780999992000120500004-06760-043010FM-12+013899999V0202301N001011050019N9999999N1+02921+02171100841ADDAA199000091GF105991041001017501031021KA1240M+03821MA1999999099221MD1999999-0041REMSYN076AAXX  05004 82678 327// 52302 10292 20217 39922 40084 84032 333 10382 59004;EQDQ01  00002PRCP99
0180826780999992000120512004-06760-043010FM-12+013899999V0200501N000519999999N0200001N1+02901+02041101201ADDAA199000091GF105991999999999999999999KA1240N+02301MA1999999099641MD1999999+0021REMSYN070AAXX  05124 82678 32998 50501 10290 20204 39964 40120 333 20230 58002;EQDQ01  00002PRCP99
0183826780999992000120518004-06760-043010FM-12+013899999V0200501N001019999999N0200001N1+03621+01871100661ADDAA199000091GF105991999021008001001001MA1999999099121MD1999999+0061REMSYN070AAXX  05184 82678 32598 50502 10362 20187 39912 40066 83200 333 58006;EQDQ01+000032SCOTLCQ02  00002PRCP99
0186826780999992000120600004-06760-043010FM-12+013899999V0202301N000510450019N9999999N1+03181+01941100851ADDAA199000091GF106991041051008001031001KA1240M+03721MA1999999099301MD1999999+0021REMSYN076AAXX  06004 82678 325// 62301 10318 20194 39930 40085 84530 333 10372 58002;EQDQ01  00002PRCP99
0192826780999992000120612004-06760-043010FM-12+013899999V0200901N001512200019N0200001N1+03081+01981101201ADDAA124000591GF104991999021008001001001KA1240N+02461MA1999999099651MD1999999+0011REMSYN082AAXX  06124 82678 22598 40903 10308 20198 39965 40120 83200 333 20246 58001 69964;EQDQ01+000032SCOTLC
0183826780999992000120618004-06760-043010FM-12+013899999V0202701N001510075019N0200001N1+03501+01901100761ADDAA199000091GF108991999021008001001001MA1999999099281MD1999999+0101REMSYN070AAXX  06184 82678 32598 82703 10350 20190 39928 40076 85200 333 58010;EQDQ01+000052SCOTLCQ02  00002PRCP99
0186826780999992000120700004-06760-043010FM-12+013899999V0209999C000010450019N9999999N1+02941+02191101051ADDAA199000091GF105991031051008001031001KA1240M+03521MA1999999099501MD1999999+0201REMSYN076AAXX  07004 82678 325// 50000 10294 20219 39950 40105 83530 333 10352 58020;EQDQ01  00002PRCP99
0186826780999992000120712004-06760-043010FM-12+013899999V0202301N000512200019N0200001N1+02981+02091101221ADDAA199000091GF102991011011008001001011KA1240N+02441MA1999999099661MD1999999+0011REMSYN076AAXX  07124 82678 32598 22301 10298 20209 39966 40122 81101 333 20244 58001;EQDQ01  00002PRCP99
0167826780999992000120718004-06760-043010FM-12+013899999V0201801N001510120019N0200001N1+03601+01941100751ADDAA199000091GF106991051081008001061001MA1999999099211MD1999999-0011REMSYN070AAXX  07184 82678 32598 61803 10360 20194 39921 40075 85860 333 59001;EQDQ01  00002PRCP99
0201826780999992000120800004-06760-043010FM-12+013899999V0201401N001010450019N9999999N1+02641+02271101111ADDAA106023191AY161061AY221061GF107991041041008001031011KA1240M+03601MA1999999099541MD1999999+0041MW1021REMSYN088AAXX  08004 82678 215// 71402 10264 20227 39954 40111 70262 84431 333 10360 58004 60231;
0220826780999992000120812004-06760-043010FM-12+013899999V0202701N000519999999N0200001N1+02461+02301101401ADDAA124029091AY161061AY221061GF108991999021008001001001KA1240N+02421MA1999999099811MD1999999+0151MW1031REMSYN088AAXX  08124 82678 21598 82701 10246 20230 39981 40140 70362 83200 333 20242 58015 60294;EQDQ01+000032SCOTLC
0201826780999992000120818004-06760-043010FM-12+013899999V0202301N001019999999N0200001N1+03121+02331101081ADDAA106000191AY151061AY221061GF108991999021008001001001MA1999999099511MD1999999+0301MW1021REMSYN082AAXX  08184 82678 21598 82302 10312 20233 39951 40108 70252 83200 333 58030 69911;EQDQ01+000032SCOTLC
0201826780999992000120900004-06760-043010FM-12+013899999V0202301N001510075019N9999999N1+02421+02281101411ADDAA106000191AY191061AY221061GF108991051041008001021999KA1240M+03181MA1999999099821MD1999999+0281MW1611REMSYN088AAXX  09004 82678 215// 82303 10242 20228 39982 40141 76192 8542/ 333 10318 58028 69921;
0201826780999992000120912004-06760-043010FM-12+013899999V0202701N001010450019N0040001N1+02801+02561101541ADDAA124000591AY161061AY211061GF106991031021008001031011KA1240N+02411MA1999999099951MD1999999+0141MW1021REMSYN088AAXX  09124 82678 21596 62702 10280 20256 39995 40154 70261 83231 333 20241 58014 69944;
0167826780999992000120918004-06760-043010FM-12+013899999V0203601N001512200019N0040001N1+03381+02681101081ADDAA199000091GF104991021021008001001021MA1999999099521MD1999999+0011REMSYN070AAXX  09184 82678 32596 43603 10338 20268 39952 40108 82202 333 58001;EQDQ01  00002PRCP99
0186826780999992000121000004-06760-043010FM-12+013899999V0203601N001010450019N0002001N1+02721+02321101301ADDAA199000091GF108991041051008001021999KA1240M+03481MA1999999099731MD1999999+0091REMSYN076AAXX  10004 82678 32592 83602 10272 20232 39973 40130 8452/ 333 10348 58009;EQDQ01  00002PRCP99
0186826780999992000121012004-06760-043010FM-12+013899999V0200501N001510450019N0040001N1+02721+02431101431ADDAA199000091GF105991031051008001021011KA1240N+02321MA1999999099851MD1999999-0011REMSYN076AAXX  10124 82678 32596 50503 10272 20243 39985 40143 83521 333 20232 59001;EQDQ01  00002PRCP99
0186826780999992000121112004-06760-043010FM-12+013899999V0203601N001510075019N0040001N1+02601+02231101281ADDAA199000091GF107991051051008001031001KA1240N+02501MA1999999099701MD1999999-0151REMSYN076AAXX  11124 82678 32596 73603 10260 20223 39970 40128 85530 333 20250 59015;EQDQ01  00002PRCP99
0167826780999992000121118004-06760-043010FM-12+013899999V0203601N000510075019N0040001N1+03141+02551100971ADDAA199000091GF107991061051008001031001MA1999999099411MD1999999-0121REMSYN070AAXX  11184 82678 32596 73601 10314 20255 39941 40097 86530 333 59012;EQDQ01  00002PRCP99
0201826780999992000121200004-06760-043010FM-12+013899999V0209999C000012200019N0002001N1+02481+02321101071ADDAA106001091AY161061AY221061GF106991031001017501031011KA1240M+03311MA1999999099491MD1999999-0031MW1011REMSYN088AAXX  12004 82678 21792 60000 10248 20232 39949 40107 70162 83031 333 10331 59003 60011;
0201826780999992000121212004-06760-043010FM-12+013899999V0209999C000010075019N0040001N1+02381+02291101491ADDAA124010991AY161061AY221061GF108991051051008001021999KA1240N+02311MA1999999099891MD1999999+0191MW1621REMSYN088AAXX  12124 82678 21596 80000 10238 20229 39989 40149 76262 8552/ 333 20231 58019 60114;
0182826780999992000121218004-06760-043010FM-12+013899999V0201401N001510075019N0040001N1+02681+02391101161ADDAA106002091AY161061AY221061GF108991061051008001021001MA1999999099601MD1999999+0191MW1021REMSYN082AAXX  12184 82678 21596 81403 10268 20239 39960 40116 70262 86520 333 58019 60021;
0167826780999992000121300004-06760-043010FM-12+013899999V0202301N000510075019N0002001N1+02591+02371101301ADDAA199000021GF108991061051008001021999KA1240M+02831MA1999999099711MD1999999+0221REMSYN076AAXX  13004 82678 32592 82301 10259 20237 39971 40130 8652/ 333 10283 58022;
0201826780999992000121312004-06760-043010FM-12+013899999V0209999C000010450019N0040001N1+02441+02251101441ADDAA124002091AY151061AY221061GF108991041051008001021999KA1240N+02321MA1999999099851MD1999999-0041MW1021REMSYN088AAXX  13124 82678 21596 80000 10244 20225 39985 40144 70252 8452/ 333 20232 59004 60024;
0182826780999992000121318004-06760-043010FM-12+013899999V0202701N001010075019N0040001N1+02501+02381101151ADDAA106000591AY151061AY201061GF108991051051008001021999MA1999999099561MD1999999-0041MW1021REMSYN082AAXX  13184 82678 21596 82702 10250 20238 39956 40115 70250 8552/ 333 59004 69941;
0201826780999992000121400004-06760-043010FM-12+013899999V0209999C000010075019N0002001N1+02461+02361101231ADDAA106000191AY161061AY221061GF108991071051008001021999KA1240M+02731MA1999999099641MD1999999-0071MW1021REMSYN088AAXX  14004 82678 21592 80000 10246 20236 39964 40123 70262 8752/ 333 10273 59007 69911;
0201826780999992000121412004-06760-043010FM-12+013899999V0200501N002610075019N0040001N1+02161+02091101341ADDAA124006191AY161061AY221061GF108991061051008001021999KA1240N+02171MA1999999099741MD1999999-0111MW1611REMSYN088AAXX  14124 82678 21596 80505 10216 20209 39974 40134 76162 8652/ 333 20217 59011 60064;
0182826780999992000121418004-06760-043010FM-12+013899999V0209999C000010075019N0040001N1+02381+02211101111ADDAA106007991AY161061AY221061GF108991051051008001021999MA1999999099521MD1999999-0041MW1021REMSYN082AAXX  14184 82678 21596 80000 10238 20221 39952 40111 70262 8552/ 333 59004 60081;
0167826780999992000121500004-06760-043010FM-12+013899999V0209999C000010450019N0020001N1+02401+02111101221ADDAA199000021GF108991041051008001021001KA1240M+02511MA1999999099621MD1999999-0021REMSYN076AAXX  15004 82678 32595 80000 10240 20211 39962 40122 84520 333 10251 59002;
0201826780999992000121512004-06760-043010FM-12+013899999V0209999C000010075019N0040001N1+02401+02281101231ADDAA124007991AY161061AY211061GF108991051051008001021999KA1240N+02191MA1999999099641MD1999999-0101MW1611REMSYN088AAXX  15124 82678 21596 80000 10240 20228 39964 40123 76161 8552/ 333 20219 59010 60084;
0201826780999992000121600004-06760-043010FM-12+013899999V0200501N000510042019N0002001N1+02361+02331101111ADDAA106007991AY161061AY261061GF108991081071004501999999KA1240M+02591MA1999999099521MD1999999-0101MW1511REMSYN088AAXX  16004 82678 21492 80501 10236 20233 39952 40111 75166 887// 333 10259 59010 60081;
0201826780999992000121612004-06760-043010FM-12+013899999V0203601N002110042019N0200001N1+02251+02171101421ADDAA124019191AY161061AY261061GF108991081071004501999999KA1240N+02251MA1999999099821MD1999999+0181MW1511REMSYN088AAXX  16124 82678 21498 83604 10225 20217 39982 40142 75166 887// 333 20225 58018 60194;
0182826780999992000121618004-06760-043010FM-12+013899999V0203601N000510042019N0040001N1+02321+02201101201ADDAA106010991AY151061AY251061GF108991081071004501999999MA1999999099601MD1999999+0291MW1511REMSYN082AAXX  16184 82678 21496 83601 10232 20220 39960 40120 75155 887// 333 58029 60111;
0201826780999992000121700004-06760-043010FM-12+013899999V0200501N000510075019N0002001N1+02231+02171101431ADDAA106013091AY161061AY251061GF108991081071008001999999KA1240M+02531MA1999999099821MD1999999+0301MW1511REMSYN088AAXX  17004 82678 21592 80501 10223 20217 39982 40143 75165 887// 333 10253 58030 60131;
0201826780999992000121712004-06760-043010FM-12+013899999V0200501N000510075019N0040001N1+02341+02291101401ADDAA124026991AY161061AY261061GF108991061051008001021001KA1240N+02221MA1999999099801MD1999999-0021MW1021REMSYN088AAXX  17124 82678 21596 80501 10234 20229 39980 40140 70266 86520 333 20222 59002 60274;
0167826780999992000121718004-06760-043010FM-12+013899999V0200501N000510075019N0040001N1+02801+02361101181ADDAA199000091GF108991061051008001021001MA1999999099591MD1999999-0011REMSYN070AAXX  17184 82678 32596 80501 10280 20236 39959 40118 86520 333 59001;EQDQ01  00002PRCP99
0186826780999992000121800004-06760-043010FM-12+013899999V0209999C000010075019N0002001N1+02541+02271101401ADDAA199000091GF108991051051008001021001KA1240M+02911MA1999999099811MD1999999-0011REMSYN076AAXX  18004 82678 32592 80000 10254 20227 39981 40140 85520 333 10291 59001;EQDQ01  00002PRCP99
0186826780999992000121812004-06760-043010FM-12+013899999V0201401N001010075019N0040001N1+02611+02331101601ADDAA199000091GF108991061051008001021999KA1240N+02381MA1999999100011MD1999999+0011REMSYN076AAXX  18124 82678 32596 81402 10261 20233 30001 40160 8652/ 333 20238 58001;EQDQ01  00002PRCP99
0167826780999992000121818004-06760-043010FM-12+013899999V0202301N001510120019N0040001N1+03101+02341101161ADDAA199000091GF108991051081008001031021MA1999999099591MD1999999+0001REMSYN070AAXX  18184 82678 32596 82303 10310 20234 39959 40116 85832 333 58000;EQDQ01  00002PRCP99
0202826780999992000121900004-06760-043010FM-12+013899999V0201401N000519999999N0002001N1+02641+02421101411ADDAA199000091GF106991999021008001001001KA1240M+03191MA1999999099831MD1999999+0021REMSYN076AAXX  19004 82678 32592 61401 10264 20242 39983 40141 83200 333 10319 58002;EQDQ01+000032SCOTLCQ02  00002PRCP99
0201826780999992000121912004-06760-043010FM-12+013899999V0202701N001010075019N0040001N1+02641+02331101501ADDAA124001091AY151061AY221061GF108991051051008001021011KA1240N+02241MA1999999099921MD1999999-0091MW1021REMSYN088AAXX  19124 82678 21596 82702 10264 20233 39992 40150 70252 85521 333 20224 59009 60014;
0167826780999992000121918004-06760-043010FM-12+013899999V0202701N003610075019N0040001N1+03201+02431101091ADDAA199000091GF108991061021008001001021MA1999999099531MD1999999-0061REMSYN070AAXX  19184 82678 32596 82707 10320 20243 39953 40109 86202 333 59006;EQDQ01  00002PRCP99
0186826780999992000122000004-06760-043010FM-12+013899999V0209999C000012200019N0002001N1+02681+02371101391ADDAA199000091GF105991031021008001001011KA1240M+03281MA1999999099811MD1999999-0021REMSYN076AAXX  20004 82678 32592 50000 10268 20237 39981 40139 83201 333 10328 59002;EQDQ01  00002PRCP99
0186826780999992000122012004-06760-043010FM-12+013899999V0200501N000511050019N0040001N1+02741+02381101611ADDAA199000091GF106991041051008001001021KA1240N+02441MA1999999100031MD1999999+0111REMSYN076AAXX  20124 82678 32596 60501 10274 20238 30003 40161 84502 333 20244 58011;EQDQ01  00002PRCP99
0167826780999992000122018004-06760-043010FM-12+013899999V0202701N000510450019N0040001N1+03081+02471101281ADDAA199000091GF107991041051008001031021MA1999999099711MD1999999+0181REMSYN070AAXX  20184 82678 32596 72701 10308 20247 39971 40128 84532 333 58018;EQDQ01  00002PRCP99
0186826780999992000122100004-06760-043010FM-12+013899999V0209999C000010075019N0002001N1+02761+02401101421ADDAA199000091GF106991061021008001001001KA1240M+03211MA1999999099851MD1999999+0041REMSYN076AAXX  21004 82678 32592 60000 10276 20240 39985 40142 86200 333 10321 58004;EQDQ01  00002PRCP99
0186826780999992000122112004-06760-043010FM-12+013899999V0203201N001010075019N0040001N1+02681+02291101741ADDAA199000091GF106991051021008001001021KA1240N+02281MA1999999100161MD1999999+0131REMSYN076AAXX  21124 82678 32596 63202 10268 20229 30016 40174 85202 333 20228 58013;EQDQ01  00002PRCP99
0167826780999992000122118004-06760-043010FM-12+013899999V0203201N001010450019N0040001N1+03241+02391101271ADDAA199000091GF105991031021008001011021MA1999999099701MD1999999-0011REMSYN070AAXX  21184 82678 32596 53202 10324 20239 39970 40127 83212 333 59001;EQDQ01  00002PRCP99
0186826780999992000122200004-06760-043010FM-12+013899999V0200901N000512200019N0002001N1+02701+02411101431ADDAA199000091GF103991031051008001001001KA1240M+03251MA1999999099851MD1999999+0001REMSYN076AAXX  22004 82678 32592 30901 10270 20241 39985 40143 83500 333 10325 58000;EQDQ01  00002PRCP99
0186826780999992000122212004-06760-043010FM-12+013899999V0200501N001011050019N0040001N1+02781+02361101641ADDAA199000091GF108991031021008001001021KA1240N+02301MA1999999100061MD1999999-0101REMSYN076AAXX  22124 82678 32596 80502 10278 20236 30006 40164 83202 333 20230 59010;EQDQ01  00002PRCP99
0167826780999992000122218004-06760-043010FM-12+013899999V0201801N002111050019N0040001N1+03421+02501101151ADDAA199000091GF106991031021008001001021MA1999999099591MD1999999-0111REMSYN070AAXX  22184 82678 32596 61804 10342 20250 39959 40115 83202 333 59011;EQDQ01  00002PRCP99
0202826780999992000122300004-06760-043010FM-12+013899999V0200501N001512200019N0002001N1+02771+02481101361ADDAA199000091GF103991999021008001001001KA1240M+03481MA1999999099791MD1999999-0061REMSYN076AAXX  23004 82678 32592 30503 10277 20248 39979 40136 86200 333 10348 59006;EQDQ01+000062SCOTLCQ02  00002PRCP99
0186826780999992000122312004-06760-043010FM-12+013899999V0209999C000012200019N0100001N1+02841+02381101651ADDAA199000091GF106991041021008001001011KA1240N+02421MA1999999100071MD1999999+0011REMSYN076AAXX  23124 82678 32597 60000 10284 20238 30007 40165 84201 333 20242 58001;EQDQ01  00002PRCP99
0167826780999992000122318004-06760-043010FM-12+013899999V0200901N000512200019N0040001N1+03301+02391101211ADDAA199000091GF105991031011008001001011MA1999999099651MD1999999+0061REMSYN070AAXX  23184 82678 32596 50901 10330 20239 39965 40121 83101 333 58006;EQDQ01  00002PRCP99
0196826780999992000122400004-06760-043010FM-12+013899999V0200901N000512200019N0002001N1+02641+02311101241ADDAA199000091GA1001+999999999GF100991001001999999001001KA1240M+03411MA1999999099671MD1999999-0121REMSYN070AAXX  24004 82678 32992 00901 10264 20231 39967 40124 333 10341 59012;EQDQ01  00002PRCP99
0173826780999992000122512004-06760-043010FM-12+013899999V0201401N002112200019N0040001N1+02821+02271101651ADDAA106003091GF105991041021008001001011KA1240N+02321MA1999999100061MD1999999-0041REMSYN082AAXX  25124 82678 22596 51404 10282 20227 30006 40165 84201 333 20232 59004 60031;
0167826780999992000122518004-06760-043010FM-12+013899999V0200901N002611050019N0200001N1+03221+02341101271ADDAA199000091GF105991041021008001001021MA1999999099701MD1999999+0071REMSYN070AAXX  25184 82678 32598 50905 10322 20234 39970 40127 84202 333 58007;EQDQ01  00002PRCP99
0186826780999992000122612004-06760-043010FM-12+013899999V0201401N000512200019N0040001N1+02801+02221101501ADDAA199000091GF103991021001017501031021KA1240N+02301MA1999999099921MD1999999-0141REMSYN076AAXX  26124 82678 32796 31401 10280 20222 39992 40150 82032 333 20230 59014;EQDQ01  00002PRCP99
0167826780999992000122618004-06760-043010FM-12+013899999V0201401N001511050019N0040001N1+03301+02331101211ADDAA199000091GF106991031021008001001021MA1999999099651MD1999999-0051REMSYN070AAXX  26184 82678 32596 61403 10330 20233 39965 40121 83202 333 59005;EQDQ01  00002PRCP99
0186826780999992000122700004-06760-043010FM-12+013899999V0209999C000012200019N0002001N1+02721+02241101301ADDAA199000091GF102991021011017501001001KA1240M+03371MA1999999099731MD1999999-0021REMSYN076AAXX  27004 82678 32792 20000 10272 20224 39973 40130 82100 333 10337 59002;EQDQ01  00002PRCP99
0186826780999992000122712004-06760-043010FM-12+013899999V0203201N003612200019N0040001N1+02821+02241101461ADDAA199000091GF104991021021008001001011KA1240N+02231MA1999999099891MD1999999-0031REMSYN076AAXX  27124 82678 32596 43207 10282 20224 39989 40146 82201 333 20223 59003;EQDQ01  00002PRCP99
0167826780999992000122718004-06760-043010FM-12+013899999V0209999C000010450019N0040001N1+03241+02361101231ADDAA199000091GF108991041021008001031011MA1999999099661MD1999999+0011REMSYN070AAXX  27184 82678 32596 80000 10324 20236 39966 40123 84231 333 58001;EQDQ01  00002PRCP99
0201826780999992000122800004-06760-043010FM-12+013899999V0200501N004110075019N0002001N1+02481+02191101561ADDAA106001091AY161061AY211061GF108991051051008001021999KA1240M+03321MA1999999099981MD1999999+0251MW1021REMSYN088AAXX  28004 82678 21592 80508 10248 20219 39998 40156 70261 8552/ 333 10332 58025 60011;
0195826780999992000122812004-06760-043010FM-12+013899999V0200501N002112200019N0040001N1+02711+02261101611ADDAA124002091AY111061AY211061GF102991999999999999999999KA1240N+02231MA1999999100021MD1999999+0131MW1011REMSYN082AAXX  28124 82678 21996 20504 10271 20226 30002 40161 70111 333 20223 58013 60024;
0167826780999992000122818004-06760-043010FM-12+013899999V0200901N002110075019N0040001N1+03321+02201101121ADDAA199000091GF106991051021008001001011MA1999999099551MD1999999-0111REMSYN070AAXX  28184 82678 32596 60904 10332 20220 39955 40112 85201 333 59011;EQDQ01  00002PRCP99
0180826780999992000122900004-06760-043010FM-12+013899999V0209999C000012200019N0002001N1+02791+02401101241ADDAA199000091GF103991999999999999999999KA1240M+03421MA1999999099671MD1999999-0311REMSYN070AAXX  29004 82678 32992 30000 10279 20240 39967 40124 333 10342 59031;EQDQ01  00002PRCP99
0186826780999992000122912004-06760-043010FM-12+013899999V0200501N000512200019N0040001N1+02841+02381101431ADDAA199000091GF102991021001017501031001KA1240N+02341MA1999999099861MD1999999-0161REMSYN076AAXX  29124 82678 32796 20501 10284 20238 39986 40143 82030 333 20234 59016;EQDQ01  00002PRCP99
0167826780999992000122918004-06760-043010FM-12+013899999V0200501N000512200019N0040001N1+03421+02161101091ADDAA199000091GF104991041011008001001001MA1999999099531MD1999999-0021REMSYN070AAXX  29184 82678 32596 40501 10342 20216 39953 40109 84100 333 59002;EQDQ01  00002PRCP99
0196826780999992000123000004-06760-043010FM-12+013899999V0209999C000012200019N0002001N1+02881+02371101151ADDAA199000091GA1001+999999999GF100991001001999999001001KA1240M+03531MA1999999099591MD1999999-0081REMSYN070AAXX  30004 82678 32992 00000 10288 20237 39959 40115 333 10353 59008;EQDQ01  00002PRCP99
0202826780999992000123012004-06760-043010FM-12+013899999V0203601N001519999999N0040001N1+02841+02311101481ADDAA199000091GF106991999021017501001001KA1240N+02441MA1999999099911MD1999999+0051REMSYN076AAXX  30124 82678 32796 63603 10284 20231 39991 40148 81200 333 20244 58005;EQDQ01+000012SCOTLCQ02  00002PRCP99
0183826780999992000123018004-06760-043010FM-12+013899999V0201401N001019999999N0200001N1+03461+02541101071ADDAA199000091GF105991999021008001001001MA1999999099521MD1999999-0011REMSYN070AAXX  30184 82678 32598 51402 10346 20254 39952 40107 84200 333 59001;EQDQ01+000042SCOTLCQ02  00002PRCP99
0201826780999992000123100004-06760-043010FM-12+013899999V0201801N000510450019N0020001N1+02591+02271101261ADDAA106000191AY191061AY261061GF106991041041008001011001KA1240M+03531MA1999999099651MD1999999+0091MW1021REMSYN088AAXX  31004 82678 21595 61801 10259 20227 39965 40126 70296 84410 333 10353 58009 69911;
0173826780999992000123112004-06760-043010FM-12+013899999V0203601N001510075019N0040001N1+02651+02231101591ADDAA124000191GF108991051041008001031021KA1240N+02381MA1999999100001MD1999999+0091REMSYN082AAXX  31124 82678 22596 83603 10265 20223 30000 40159 85432 333 20238 58009 69914;
0167826780999992000123118004-06760-043010FM-12+013899999V0203201N000510450019N0040001N1+03301+02181101121ADDAA199000091GF107991021021008001031021MA1999999099561MD1999999+0041REMSYN070AAXX  31184 82678 32596 73201 10330 20218 39956 40112 82232 333 58004;EQDQ01  00002PRCP99
