0201827650999992000010112004-07330-047470FM-12+021299999V0209999C000010075019N0100001N1+02301+02251101221ADDAA124053191AY151061AY251061GF108991081051008001999999KA1240N+02091MA1999999098801MD1999999-0151MW1511REMSYN088AAXX  01124 82765 21597 80000 10230 20225 39880 40122 75155 885// 333 20209 59015 60534;
0160827650999992000010118004-07330-047470FM-12+021299999V0203601N001510075019N0200001N1+02681+02201101281ADDAA106000191GF108991081051008001999999MA1999999098871MD1999999+0361REMSYN082AAXX  01184 82765 21598 83603 10268 20220 39887 40128 7//55 885// 333 58036 69911;
0173827650999992000010212004-07330-047470FM-12+021299999V0209999C000010120019N0200001N1+02401+02171101181ADDAA106000191GF108991081081008001999999KA1240N+02031MA1999999098771MD1999999-0071REMSYN082AAXX  02124 82765 22598 80000 10240 20217 39877 40118 888// 333 20203 59007 69911;
0167827650999992000010218004-07330-047470FM-12+021299999V0202701N001510120019N0200001N1+02661+02311100891ADDAA106000091GF107991051081008001021001MA1999999098491MD1999999-0381REMSYN070AAXX  02184 82765 32598 72703 10266 20231 39849 40089 85820 333 59038;EQDQ01  00002PRCP06
0198827650999992000010312004-07330-047470FM-12+021299999V0209999C000010120019N0200001N1+02341+02221101141ADDAA124000191GF108991999081008001021999KA1240N+02071MA1999999098731MD1999999-0041REMSYN088AAXX  03124 82765 21598 80000 10234 20222 39873 40114 7//55 8882/ 333 20207 59004 69924;EQDQ01+000082SCOTLC
0167827650999992000010318004-07330-047470FM-12+021299999V0202701N003110120019N0200001N1+02441+02151100931ADDAA106000091GF108991061081008001041999MA1999999098511MD1999999+0021REMSYN070AAXX  03184 82765 32598 82706 10244 20215 39851 40093 8684/ 333 58002;EQDQ01  00002PRCP06
0186827650999992000010412004-07330-047470FM-12+021299999V0209999C000012200019N0200001N1+02501+02131101121ADDAA106000091GF104991021011008001041001KA1240N+02251MA1999999098721MD1999999-0011REMSYN076AAXX  04124 82765 32598 40000 10250 20213 39872 40112 82140 333 20225 59001;EQDQ01  00002PRCP06
0182827650999992000010418004-07330-047470FM-12+021299999V0200501N005110450019N0200001N1+02781+01961100891ADDAA106000591AY151061AY251061GF105991031021008001041001MA1999999098501MD1999999-0011MW1161REMSYN082AAXX  04184 82765 21598 50510 10278 20196 39850 40089 71655 83240 333 59001 69961;
0208827650999992000010500004-07330-047470FM-12+021299999V0209999C000019999999N0200001N1+02401+02171101151ADDAA106000091GA1091+999999999GF109991091999999999999999KA1240M+03101MA1999999098741MD1999999+0051REMSYN082AAXX  05004 82765 32/98 90000 10240 20217 39874 40115 333 10310 29078 55019 58005;EQDQ01  00002PRCP06
0173827650999992000010512004-07330-047470FM-12+021299999V0202701N000510120019N0200001N1+02461+02091101431ADDAA124000591GF107991051081008001041001KA1240N+02091MA1999999099021MD1999999+0301REMSYN082AAXX  05124 82765 22598 72701 10246 20209 39902 40143 85840 333 20209 58030 69964;
0167827650999992000010518004-07330-047470FM-12+021299999V0200501N001010450019N0200001N1+02981+02121100951ADDAA106000091GF105991041021008001041001MA1999999098561MD1999999+0061REMSYN070AAXX  05184 82765 32598 50502 10298 20212 39856 40095 84240 333 58006;EQDQ01  00002PRCP06
0186827650999992000010612004-07330-047470FM-12+021299999V0209999C000012200019N0200001N1+02461+02251101311ADDAA106000091GF104991021011008001041001KA1240N+02271MA1999999098911MD1999999-0111REMSYN076AAXX  06124 82765 32598 40000 10246 20225 39891 40131 82140 333 20227 59011;EQDQ01  00002PRCP06
0201827650999992000010700004-07330-047470FM-12+021299999V0209999C000019999999N0200001N1+02381+02211101161ADDAA106000891GA1091+999999999GF109991091999999999999999KA1240M+02561MA1999999098751MD1999999+0071REMSYN094AAXX  07004 82765 21/98 90000 10238 20221 39875 40116 7//55 333 10256 29089 55021 58007 69981;
0173827650999992000010712004-07330-047470FM-12+021299999V0209999C000012200019N0200001N1+02521+02211101261ADDAA124006191GF104991031011008001031001KA1240N+02191MA1999999098851MD1999999-0061REMSYN082AAXX  07124 82765 22598 40000 10252 20221 39885 40126 83130 333 20219 59006 60064;
0195827650999992000010718004-07330-047470FM-12+021299999V0200901N004110075019N0200001N1+02961+02151100911ADDAA106000091AY191061AY291061GF108991061031008001021999MA1999999098521MD1999999-0121MW1171REMSYN076AAXX  07184 82765 31598 80908 10296 20215 39852 40091 71799 8632/ 333 59012;EQDQ01  00002PRCP06
0208827650999992000010800004-07330-047470FM-12+021299999V0209999C000019999999N0200001N1+02401+02171101001ADDAA106000091GA1091+999999999GF109991091999999999999999KA1240M+03061MA1999999098601MD1999999-0151REMSYN082AAXX  08004 82765 32/98 90000 10240 20217 39860 40100 333 10306 29079 55050 59015;EQDQ01  00002PRCP06
0160827650999992000010818004-07330-047470FM-12+021299999V0200501N000510075019N0200001N1+02241+02191101131ADDAA106061091GF108991081051008001999999MA1999999098711MD1999999+0191REMSYN082AAXX  08184 82765 21598 80501 10224 20219 39871 40113 7//96 885// 333 58019 60611;
0208827650999992000010900004-07330-047470FM-12+021299999V0209999C000019999999N0200001N1+02301+02161101281ADDAA106000091GA1091+999999999GF109991091999999999999999KA1240M+02401MA1999999098851MD1999999+0251REMSYN082AAXX  09004 82765 32/98 90000 10230 20216 39885 40128 333 10240 29097 55000 58025;EQDQ01  00002PRCP06
0173827650999992000010912004-07330-047470FM-12+021299999V0209999C000010120019N0200001N1+02461+02251101431ADDAA124061091GF107991061081008001041001KA1240N+02051MA1999999099011MD1999999+0091REMSYN082AAXX  09124 82765 22598 70000 10246 20225 39901 40143 86840 333 20205 58009 60614;
0195827650999992000010918004-07330-047470FM-12+021299999V0200901N003110450019N0200001N1+02341+02051101211ADDAA106000091AY191061AY291061GF107991041031008001041001MA1999999098791MD1999999+0081MW1161REMSYN076AAXX  09184 82765 31598 70906 10234 20205 39879 40121 71699 84340 333 58008;EQDQ01  00002PRCP06
0201827650999992000011000004-07330-047470FM-12+021299999V0209999C000019999999N0200001N1+02301+02251101381ADDAA106002091GA1091+999999999GF109991091999999999999999KA1240M+02901MA1999999098951MD1999999+0101REMSYN094AAXX  10004 82765 21/98 90000 10230 20225 39895 40138 7//66 333 10290 29091 55010 58010 60021;
0173827650999992000011012004-07330-047470FM-12+021299999V0200501N000512200019N0200001N1+02621+02211101511ADDAA124002091GF104991041011008001001001KA1240N+02271MA1999999099071MD1999999+0061REMSYN082AAXX  10124 82765 22598 40501 10262 20221 39907 40151 84100 333 20227 58006 60024;
0167827650999992000011018004-07330-047470FM-12+021299999V0200901N001512200019N0200001N1+03201+02061100901ADDAA106000091GF104991031011008001031001MA1999999098531MD1999999-0261REMSYN070AAXX  10184 82765 32598 40903 10320 20206 39853 40090 83130 333 59026;EQDQ01  00002PRCP06
0220827650999992000011100004-07330-047470FM-12+021299999V0202701N001519999999N0200001N1+02681+02161101111ADDAA106000091GA1091+999999999GF109991091999999999999999KA1240M+03261MA1999999098721MD1999999-0231MW1131REMSYN088AAXX  11004 82765 31/98 92703 10268 20216 39872 40111 713// 333 10326 29068 50083 59023;EQDQ01  00002PRCP06
0186827650999992000011112004-07330-047470FM-12+021299999V0202701N001510075019N0200001N1+02601+02291101331ADDAA106000091GF107991061021008001031001KA1240N+02071MA1999999098941MD1999999-0131REMSYN076AAXX  11124 82765 32598 72703 10260 20229 39894 40133 86230 333 20207 59013;EQDQ01  00002PRCP06
0182827650999992000011118004-07330-047470FM-12+021299999V0200901N002110450019N0200001N1+02401+02261101051ADDAA106002091AY191061AY261061GF107991041031008001021001MA1999999098641MD1999999+0111MW1171REMSYN082AAXX  11184 82765 21598 70904 10240 20226 39864 40105 71796 84320 333 58011 60021;
0223827650999992000011200004-07330-047470FM-12+021299999V0209999C000019999999N0200001N1+02381+02281101051ADDAA106000891AY191061AY261061GA1091+999999999GF109991091999999999999999KA1240M+03061MA1999999098651MD1999999-0071MW1131REMSYN094AAXX  12004 82765 21/98 90000 10238 20228 39865 40105 71396 333 10306 29090 55045 59007 69971;
0173827650999992000011212004-07330-047470FM-12+021299999V0209999C000010120019N0200001N1+02401+02211101241ADDAA124003091GF108991081081008001999999KA1240N+02271MA1999999098831MD1999999-0111REMSYN082AAXX  12124 82765 22598 80000 10240 20221 39883 40124 888// 333 20227 59011 60034;
0182827650999992000011218004-07330-047470FM-12+021299999V0200901N002612200019N0200001N1+02721+02121100871ADDAA106007991AY191061AY261061GF104991021031008001021001MA1999999098471MD1999999-0171MW1171REMSYN082AAXX  12184 82765 21598 40905 10272 20212 39847 40087 71796 82320 333 59017 60081;
0236827650999992000011300004-07330-047470FM-12+021299999V0202701N000519999999N0200001N1+02401+02031101121ADDAA106000091AY191061AY291061GA1091+999999999GF109991091999999999999999KA1240M+02901MA1999999098711MD1999999+0061MW1131REMSYN088AAXX  13004 82765 31/98 92701 10240 20203 39871 40112 71399 333 10290 29084 55020 58006;EQDQ01  00002PRCP06
0173827650999992000011312004-07330-047470FM-12+021299999V0209999C000010450019N0200001N1+02461+02031101421ADDAA124007991GF106991041021008001041001KA1240N+02211MA1999999099011MD1999999+0181REMSYN082AAXX  13124 82765 22598 60000 10246 20203 39901 40142 84240 333 20221 58018 60084;
0167827650999992000011318004-07330-047470FM-12+021299999V0202701N003110120019N0200001N1+02861+02281101001ADDAA106000091GF107991051081008001041001MA1999999098611MD1999999+0141REMSYN070AAXX  13184 82765 32598 72706 10286 20228 39861 40100 85840 333 58014;EQDQ01  00002PRCP06
0227827650999992000011400004-07330-047470FM-12+021299999V0209999C000019999999N0200001N1+02201+02121101231ADDAA106007991AY191061AY261061GA1091+999999999GF109991091999999999999999KA1240M+03041MA1999999098821MD1999999+0111MW1601REMSYN098    AAXX  14004 82765 21/98 90000 10220 20212 39882 40123 76096 333 10304 29084 55038 58011 60081;
0177827650999992000011412004-07330-047470FM-12+021299999V0209999C000010450019N0200001N1+02421+02051101341ADDAA124008991GF106991041021008001041001KA1240N+02031MA1999999098921MD1999999+0091REMSYN086    AAXX  14124 82765 22598 60000 10242 20205 39892 40134 84240 333 20203 58009 60094;
0171827650999992000011418004-07330-047470FM-12+021299999V0209999C000010450019N0200001N1+03121+02331100841ADDAA199000091GF106991041021008001031001MA1999999098461MD1999999+0041REMSYN074    AAXX  14184 82765 32598 60000 10312 20233 39846 40084 84230 333 58004;EQDQ01  00002PRCP99
0177827650999992000011512004-07330-047470FM-12+021299999V0209999C000010450019N0200001N1+02441+02091101301ADDAA124002091GF105991031021008001041001KA1240N+02211MA1999999098881MD1999999-0041REMSYN086    AAXX  15124 82765 22598 50000 10244 20209 39888 40130 83240 333 20221 59004 60024;
0205827650999992000011600004-07330-047470FM-12+021299999V0209999C000019999999N0200001N1+02581+02441100941ADDAA106007991GA1091+999999999GF109991091999999999999999KA1240M+03181MA1999999098541MD1999999-0201REMSYN098    AAXX  16004 82765 21/98 90000 10258 20244 39854 40094 7//96 333 10318 29085 55058 59020 60081;
0177827650999992000011612004-07330-047470FM-12+021299999V0200501N001510450019N0200001N1+02661+02271101291ADDAA124007991GF106991041021008001041001KA1240N+02331MA1999999098891MD1999999+0011REMSYN086    AAXX  16124 82765 22598 60503 10266 20227 39889 40129 84240 333 20233 58001 60084;
0171827650999992000011618004-07330-047470FM-12+021299999V0209999C000010450019N0200001N1+03201+02181100891ADDAA199000091GF106991041021008001041001MA1999999098521MD1999999+0071REMSYN074    AAXX  16184 82765 32598 60000 10320 20218 39852 40089 84240 333 58007;EQDQ01  00002PRCP99
0212827650999992000011700004-07330-047470FM-12+021299999V0209999C000012200019N0200001N1+02601+02351101021ADDAA199000091GA1001+999999999GF100991001001999999001001KA1240M+03261MA1999999098641MD1999999+0101REMSYN086    AAXX  17004 82765 32998 00000 10260 20235 39864 40102 333 10326 29076 55061 58010;EQDQ01  00002PRCP99
0190827650999992000011712004-07330-047470FM-12+021299999V0209999C000010450019N0200001N1+02721+02301101341ADDAA199000091GF106991041021008001041001KA1240N+02271MA1999999098951MD1999999+0061REMSYN080    AAXX  17124 82765 32598 63600 10272 20230 39895 40134 84240 333 20227 58006;EQDQ01  00002PRCP99
0171827650999992000011718004-07330-047470FM-12+021299999V0203601N003110450019N0200001N1+03281+02131100921ADDAA199000091GF105991031021008001041001MA1999999098551MD1999999+0031REMSYN074    AAXX  17184 82765 32598 53606 10328 20213 39855 40092 83240 333 58003;EQDQ01  00002PRCP99
0202827650999992000011800004-07330-047470FM-12+021299999V0209999C000010075019N0200001N1+02761+02441101121ADDAA199000091GF106991061021008001001001KA1240M+03321MA1999999098741MD1999999+0101REMSYN092    AAXX  18004 82765 32598 60000 10276 20244 39874 40112 86200 333 10332 29073 55081 58010;EQDQ01  00002PRCP99
0183827650999992000011812004-07330-047470FM-12+021299999V0203601N001010075019N0200001N1+02681+02281101501ADDAA124014091GF107991061021008001041001KA1240N+02291MA1999999099111MD1999999+0161REMSYN092    AAXX  18124 82765 21598 73602 10268 20228 39911 40150 7//96 86240 333 20229 58016 60144;
0171827650999992000011818004-07330-047470FM-12+021299999V0203601N001510450019N0200001N1+03201+02181101051ADDAA199000091GF105991041021008001041001MA1999999098671MD1999999+0121REMSYN074    AAXX  18184 82765 32598 53603 10320 20218 39867 40105 84240 333 58012;EQDQ01  00002PRCP99
0227827650999992000011900004-07330-047470FM-12+021299999V0209999C000019999999N0200001N1+02301+02071101361ADDAA106000891AY191061AY251061GA1091+999999999GF109991091999999999999999KA1240M+03361MA1999999098951MD1999999+0211MW1171REMSYN098    AAXX  19004 82765 21/98 90000 10230 20207 39895 40136 71795 333 10336 29074 55078 58021 69971;
0183827650999992000011912004-07330-047470FM-12+021299999V0209999C000010450019N0200001N1+02461+02091101621ADDAA124002091GF106991031021008001041001KA1240N+02071MA1999999099201MD1999999+0091REMSYN092    AAXX  19124 82765 21598 60000 10246 20209 39920 40162 7//96 83240 333 20207 58009 60024;
0167827650999992000011918004-07330-047470FM-12+021299999V0201401N001010450019N0200001N1+03001+02171101171ADDAA199000091GF106991041021008001041001MA1999999098781MD1999999+0111REMSYN070AAXX  19184 82765 32598 61402 10300 20217 39878 40117 84240 333 58011;EQDQ01  00002PRCP99
0198827650999992000012000004-07330-047470FM-12+021299999V0209999C000012200019N0200001N1+02661+02391101261ADDAA199000091GF102991011011008001031001KA1240M+03141MA1999999098861MD1999999-0081REMSYN088AAXX  20004 82765 32598 20000 10266 20239 39886 40126 81130 333 10314 29077 55058 59008;EQDQ01  00002PRCP99
0186827650999992000012012004-07330-047470FM-12+021299999V0202701N002610450019N0200001N1+02641+02311101511ADDAA199000091GF106991041021008001041001KA1240N+02331MA1999999099111MD1999999-0091REMSYN076AAXX  20124 82765 32598 62705 10264 20231 39911 40151 84240 333 20233 59009;EQDQ01  00002PRCP99
0160827650999992000012018004-07330-047470FM-12+021299999V0209999C000010450019N0200001N1+02861+02351101081ADDAA106000591GF106991041021008001041001MA1999999098691MD1999999-0091REMSYN082AAXX  20184 82765 21598 60000 10286 20235 39869 40108 7//55 84240 333 59009 69951;
0198827650999992000012100004-07330-047470FM-12+021299999V0209999C000010450019N0200001N1+02501+02291101271ADDAA199000091GF106991041081008001041001KA1240M+03201MA1999999098871MD1999999+0011REMSYN088AAXX  21004 82765 32598 60000 10250 20229 39887 40127 84840 333 10320 29083 55050 58001;EQDQ01  00002PRCP99
0173827650999992000012112004-07330-047470FM-12+021299999V0203601N001012200019N0200001N1+02741+02301101341ADDAA124000591GF103991021031008001021001KA1240N+02371MA1999999098941MD1999999-0171REMSYN082AAXX  21124 82765 22598 33602 10274 20230 39894 40134 82320 333 20237 59017 69954;
0167827650999992000012118004-07330-047470FM-12+021299999V0203601N002610450019N0200001N1+03201+02181100921ADDAA199000091GF105991031021008001041001MA1999999098551MD1999999-0141REMSYN070AAXX  21184 82765 32598 53605 10320 20218 39855 40092 83240 333 59014;EQDQ01  00002PRCP99
0223827650999992000012200004-07330-047470FM-12+021299999V0209999C000019999999N0200001N1+02441+02131101311ADDAA106004191AY191061AY261061GA1091+999999999GF109991091999999999999999KA1240M+03321MA1999999098911MD1999999+0041MW1131REMSYN094AAXX  22004 82765 21/98 90000 10244 20213 39891 40131 71396 333 10332 29074 55078 58004 60041;
0179827650999992000012212004-07330-047470FM-12+021299999V0209999C000010075019N0200001N1+02501+02191101551ADDAA124005191GF106991051021008001041001KA1240N+02251MA1999999099141MD1999999+0201REMSYN088AAXX  22124 82765 21598 60000 10250 20219 39914 40155 7//55 85240 333 20225 58020 60054;
0160827650999992000012218004-07330-047470FM-12+021299999V0202701N000510450019N0200001N1+02941+02191101111ADDAA106003091GF105991041021008001041001MA1999999098721MD1999999+0171REMSYN082AAXX  22184 82765 21598 52701 10294 20219 39872 40111 7//96 84240 333 58017 60031;
0223827650999992000012300004-07330-047470FM-12+021299999V0209999C000019999999N0200001N1+02301+02221101411ADDAA106045091AY191061AY261061GA1091+999999999GF109991091999999999999999KA1240M+03001MA1999999099011MD1999999+0101MW1611REMSYN094AAXX  23004 82765 21/98 90000 10230 20222 39901 40141 76196 333 10300 29084 55017 58010 60451;
0179827650999992000012312004-07330-047470FM-12+021299999V0209999C000010075019N0200001N1+02401+02351101501ADDAA124051191GF108991081051008001999999KA1240N+02291MA1999999099071MD1999999-0071REMSYN088AAXX  23124 82765 21598 80000 10240 20235 39907 40150 7//66 885// 333 20229 59007 60514;
0220827650999992000012400004-07330-047470FM-12+021299999V0200501N001519999999N0200001N1+02661+02371101271ADDAA199000091GA1091+999999999GF109991091999999999999999KA1240M+03121MA1999999098841MD1999999-0171MW1131REMSYN088AAXX  24004 82765 31/98 90503 10266 20237 39884 40127 713// 333 10312 29081 55056 59017;EQDQ01  00002PRCP99
0201827650999992000012412004-07330-047470FM-12+021299999V0209999C000010075019N0040001N1+02301+02221101501ADDAA124059991AY161061AY261061GF108991061051008001021999KA1240N+02231MA1999999099091MD1999999+0021MW1621REMSYN088AAXX  24124 82765 21596 80000 10230 20222 39909 40150 76266 8652/ 333 20223 58002 60604;
0160827650999992000012418004-07330-047470FM-12+021299999V0200501N002610120019N0200001N1+02661+02221101121ADDAA106006191GF107991051081008001041001MA1999999098711MD1999999+0091REMSYN082AAXX  24184 82765 21598 70505 10266 20222 39871 40112 7//66 85840 333 58009 60061;
0189827650999992000012500004-07330-047470FM-12+021299999V0209999C000019999999N0200001N1+02521+02361101381ADDAA199000021GA1091+999999999GF109991091999999999999999KA1240M+03781MA1999999098961MD1999999+0121REMSYN082AAXX  25004 82765 32/98 90000 10252 20236 39896 40138 333 10378 29088 55010 58012;
0173827650999992000012512004-07330-047470FM-12+021299999V0209999C000010450019N0200001N1+02541+02211101441ADDAA124006191GF105991031021008001041001KA1240N+02191MA1999999099041MD1999999-0051REMSYN082AAXX  25124 82765 22598 50000 10254 20221 39904 40144 83240 333 20219 59005 60064;
0167827650999992000012518004-07330-047470FM-12+021299999V0203601N001010450019N0200001N1+03201+02151100951ADDAA199000091GF106991041021008001041001MA1999999098571MD1999999-0141REMSYN070AAXX  25184 82765 32598 63602 10320 20215 39857 40095 84240 333 59014;EQDQ01  00002PRCP99
0201827650999992000012600004-07330-047470FM-12+021299999V0209999C000019999999N0200001N1+02421+02281101221ADDAA106006191GA1091+999999999GF109991091999999999999999KA1240M+03221MA1999999098821MD1999999-0141REMSYN094AAXX  26004 82765 21/98 90000 10242 20228 39882 40122 7//96 333 10322 29080 55071 59014 60061;
0173827650999992000012612004-07330-047470FM-12+021299999V0209999C000010450019N0200001N1+02541+02351101551ADDAA124006191GF106991041021008001041001KA1240N+02131MA1999999099141MD1999999+0101REMSYN082AAXX  26124 82765 22598 60000 10254 20235 39914 40155 84240 333 20213 58010 60064;
0167827650999992000012618004-07330-047470FM-12+021299999V0200501N002110075019N0200001N1+03201+02181101111ADDAA199000091GF106991051021008001041001MA1999999098731MD1999999+0161REMSYN070AAXX  26184 82765 32598 60504 10320 20218 39873 40111 85240 333 58016;EQDQ01  00002PRCP99
0208827650999992000012700004-07330-047470FM-12+021299999V0209999C000019999999N0200001N1+02661+02331101261ADDAA199000091GA1091+999999999GF109991091999999999999999KA1240M+03241MA1999999098861MD1999999+0041REMSYN082AAXX  27004 82765 32/98 90000 10266 20233 39886 40126 333 10324 29076 55079 58004;EQDQ01  00002PRCP99
0186827650999992000012712004-07330-047470FM-12+021299999V0209999C000010450019N0200001N1+02621+02291101441ADDAA199000091GF106991041021008001041001KA1240N+02251MA1999999099051MD1999999-0091REMSYN076AAXX  27124 82765 32598 60000 10262 20229 39905 40144 84240 333 20225 59009;EQDQ01  00002PRCP99
0167827650999992000012718004-07330-047470FM-12+021299999V0200501N001010450019N0200001N1+03221+02201101081ADDAA199000091GF106991041021008001041001MA1999999098701MD1999999-0031REMSYN070AAXX  27184 82765 32598 60502 10322 20220 39870 40108 84240 333 59003;EQDQ01  00002PRCP99
0214827650999992000012800004-07330-047470FM-12+021299999V0209999C000019999999N0200001N1+02641+02091101231ADDAA199000091GA1091+999999999GF109991091999999999999999KA1240M+03401MA1999999098841MD1999999-0021REMSYN088AAXX  28004 82765 31/98 90000 10264 20209 39884 40123 7//99 333 10340 29069 55097 59002;EQDQ01  00002PRCP99
0186827650999992000012812004-07330-047470FM-12+021299999V0209999C000012200019N0200001N1+02721+02281101391ADDAA199000091GF104991011011008001041001KA1240N+02011MA1999999099001MD1999999-0051REMSYN076AAXX  28124 82765 32598 40000 10272 20228 39900 40139 81140 333 20201 59005;EQDQ01  00002PRCP99
0167827650999992000012818004-07330-047470FM-12+021299999V0201801N000510450019N0200001N1+03221+02201100961ADDAA199000091GF106991031011008001041001MA1999999098591MD1999999-0111REMSYN070AAXX  28184 82765 32598 61801 10322 20220 39859 40096 83140 333 59011;EQDQ01  00002PRCP99
0223827650999992000012900004-07330-047470FM-12+021299999V0209999C000019999999N0200001N1+02181+02061101171ADDAA106006191AY191061AY261061GA1091+999999999GF109991091999999999999999KA1240M+03341MA1999999098791MD1999999-0051MW1511REMSYN094AAXX  29004 82765 21/98 90000 10218 20206 39879 40117 75196 333 10334 29079 55068 59005 60061;
0179827650999992000012912004-07330-047470FM-12+021299999V0209999C000010450019N0200001N1+02561+02191101401ADDAA124006191GF106991041021008001041001KA1240N+02071MA1999999098981MD1999999-0021REMSYN088AAXX  29124 82765 21598 60000 10256 20219 39898 40140 7//55 84240 333 20207 59002 60064;
0223827650999992000013000004-07330-047470FM-12+021299999V0209999C000019999999N0200001N1+02461+02271101211ADDAA106004191AY191061AY261061GA1091+999999999GF109991091999999999999999KA1240M+03281MA1999999098811MD1999999+0021MW1131REMSYN094AAXX  30004 82765 21/98 90000 10246 20227 39881 40121 71396 333 10328 29079 55057 58002 60041;
0173827650999992000013012004-07330-047470FM-12+021299999V0209999C000010120019N0200001N1+02461+02321101521ADDAA124005191GF108991081081008001999999KA1240N+02271MA1999999099101MD1999999+0121REMSYN082AAXX  30124 82765 22598 80000 10246 20232 39910 40152 888// 333 20227 58012 60054;
0208827650999992000013100004-07330-047470FM-12+021299999V0209999C000012200019N0200001N1+02601+02401101411ADDAA199000091GA1001+999999999GF100991001001999999001001KA1240M+03061MA1999999099011MD1999999+0201REMSYN082AAXX  31004 82765 32998 00000 10260 20240 39901 40141 333 10306 29084 55033 58020;EQDQ01  00002PRCP99
0167827650999992000013118004-07330-047470FM-12+021299999V0203601N001010450019N0200001N1+03181+02361101291ADDAA199000091GF106991041021008001041001MA1999999098911MD1999999+0051REMSYN070AAXX  31184 82765 32598 63602 10318 20236 39891 40129 84240 333 58005;EQDQ01  00002PRCP99
0208827650999992000020100004-07330-047470FM-12+021299999V0209999C000019999999N0200001N1+02541+02351101361ADDAA199000091GA1091+999999999GF109991091999999999999999KA1240M+03261MA1999999098961MD1999999-0051REMSYN082AAXX  01004 82765 32/98 90000 10254 20235 39896 40136 333 10326 29081 55060 59005;EQDQ01  00002PRCP99
0186827650999992000020112004-07330-047470FM-12+021299999V0209999C000012200019N0200001N1+02621+02311101741ADDAA199000091GF104991031021008001041001KA1240N+02211MA1999999099331MD1999999+0081REMSYN076AAXX  01124 82765 32598 40000 10262 20231 39933 40174 83240 333 20221 58008;EQDQ01  00002PRCP99
0179827650999992000020118004-07330-047470FM-12+021299999V0200501N001512200019N0200001N1+03081+02371101311ADDAA199000091GF103991011031008001041001MA1999999098921MD1999999+0011MW1171REMSYN076AAXX  01184 82765 31598 30503 10308 20237 39892 40131 717// 81340 333 58001;EQDQ01  00002PRCP99
0220827650999992000020200004-07330-047470FM-12+021299999V0209999C000019999999N0200001N1+02681+02351101271ADDAA199000091GA1091+999999999GF109991091999999999999999KA1240M+03201MA1999999098881MD1999999-0081MW1131REMSYN088AAXX  02004 82765 31/98 90000 10268 20235 39888 40127 713// 333 10320 29078 55087 59008;EQDQ01  00002PRCP99
0201827650999992000020212004-07330-047470FM-12+021299999V0209999C000012200019N0200001N1+02581+02251101471ADDAA124000891AY161061AY211061GF103991031011008001001001KA1240N+02251MA1999999099071MD1999999-0261MW1021REMSYN088AAXX  02124 82765 21598 30000 10258 20225 39907 40147 70261 83100 333 20225 59026 69984;
0208827650999992000020300004-07330-047470FM-12+021299999V0203601N001012200019N0200001N1+02631+02311101331ADDAA199000091GA1001+999999999GF100991001001999999001001KA1240M+03191MA1999999098931MD1999999+0051REMSYN082AAXX  03004 82765 32998 03602 10263 20231 39893 40133 333 10319 29078 55086 58005;EQDQ01  00002PRCP99
0186827650999992000020312004-07330-047470FM-12+021299999V0203201N002610075019N0200001N1+02731+02241101421ADDAA199000091GF106991061011008001001001KA1240N+02301MA1999999099031MD1999999-0041REMSYN076AAXX  03124 82765 32598 63205 10273 20224 39903 40142 86100 333 20230 59004;EQDQ01  00002PRCP99
0167827650999992000020318004-07330-047470FM-12+021299999V0203201N002110075019N0200001N1+03211+02241100971ADDAA199000091GF105991051021008001001001MA1999999098601MD1999999-0201REMSYN070AAXX  03184 82765 32598 53204 10321 20224 39860 40097 85200 333 59020;EQDQ01  00002PRCP99
0224827650999992000020400004-07330-047470FM-12+021299999V0201201N041120024019N0100001N1+02801+02401101161ADDAA199000091GA1091+999999999GF109991091999999999999999KA1240M+03311MA1999999098781MD1999999-0151REMSYN082AAXX  04004 82765 31/97 91280 10280 20240 39878 40116 333 10331 29072 55073 59015;EQDQ01+004113WOSPD Q02  00002PRCP99
0186827650999992000020412004-07330-047470FM-12+021299999V0209999C000010075019N0200001N1+02601+02271101491ADDAA199000091GF108991051011008001021999KA1240N+02491MA1999999099101MD1999999+0071REMSYN076AAXX  04124 82765 32598 80000 10260 20227 39910 40149 8512/ 333 20249 58007;EQDQ01  00002PRCP99
0182827650999992000020418004-07330-047470FM-12+021299999V0200501N006710075019N0200001N1+02691+02201101191ADDAA106000391AY161061AY221061GF108991051021008001021999MA1999999098801MD1999999+0201MW1031REMSYN082AAXX  04184 82765 21598 80513 10269 20220 39880 40119 70362 8522/ 333 58020 69931;
0223827650999992000020500004-07330-047470FM-12+021299999V0209999C000010024019N0100001N1+02421+02051101401ADDAA106000391AY161061AY221061GA1091+999999999GF109991091999999999999999KA1240M+02951MA1999999098991MD1999999+0211MW1501REMSYN094AAXX  05004 82765 21/97 90000 10242 20205 39899 40140 75062 333 10295 29079 55001 58021 69931;
0167827650999992000020512004-07330-047470FM-12+021299999V0209999C000012200019N0200001N1+02641+02251101581ADDAA199000021GF104991031011008001031001KA1240N+02251MA1999999099171MD1999999+0071REMSYN076AAXX  05124 82765 32598 40000 10264 20225 39917 40158 83130 333 20225 58007;
0160827650999992000020518004-07330-047470FM-12+021299999V0203601N002110450019N0200001N1+02841+02221101381ADDAA106001091GF106991041081008001021001MA1999999098901MD1999999+0101REMSYN082AAXX  05184 82765 21598 63604 10284 20222 39890 40138 7//95 84820 333 58010 60011;
0201827650999992000020600004-07330-047470FM-12+021299999V0209999C000019999999N0200001N1+02401+02351101361ADDAA106000891GA1091+999999999GF109991091999999999999999KA1240M+02861MA1999999099151MD1999999+0161REMSYN094AAXX  06004 82765 21/98 90000 10240 20235 39915 40136 7//55 333 10286 29085 55027 58016 69971;
0173827650999992000020612004-07330-047470FM-12+021299999V0209999C000010120019N0200001N1+02501+02291101701ADDAA124002091GF108991061081008001021999KA1240N+02211MA1999999099281MD1999999+0111REMSYN082AAXX  06124 82765 22598 80000 10250 20229 39928 40170 8682/ 333 20221 58011 60024;
0160827650999992000020618004-07330-047470FM-12+021299999V0200501N003610120019N0200001N1+02361+02171101461ADDAA106003091GF108991051081008001021999MA1999999099041MD1999999+0141REMSYN082AAXX  06184 82765 21598 80507 10236 20217 39904 40146 7//65 8582/ 333 58014 60031;
0208827650999992000020700004-07330-047470FM-12+021299999V0200901N001019999999N0200001N1+02241+02031101561ADDAA199000091GA1091+999999999GF109991091999999999999999KA1240M+02741MA1999999099141MD1999999-0011REMSYN082AAXX  07004 82765 32/98 90902 10224 20203 39914 40156 333 10274 29088 55000 59001;EQDQ01  00002PRCP99
0173827650999992000020712004-07330-047470FM-12+021299999V0202701N000510120019N0200001N1+02381+02131101741ADDAA124003091GF107991061081008001041001KA1240N+02051MA1999999099301MD1999999+0021REMSYN082AAXX  07124 82765 22598 72701 10238 20213 39930 40174 86840 333 20205 58002 60034;
0167827650999992000020718004-07330-047470FM-12+021299999V0201801N001510450019N0200001N1+03021+02181101371ADDAA199000091GF106991041021008001041001MA1999999098981MD1999999-0061REMSYN070AAXX  07184 82765 32598 61803 10302 20218 39898 40137 84240 333 59006;EQDQ01  00002PRCP99
0220827650999992000020800004-07330-047470FM-12+021299999V0209999C000019999999N0200001N1+02561+02251101511ADDAA199000091GA1091+999999999GF109991091999999999999999KA1240M+03061MA1999999099101MD1999999-0041MW1131REMSYN088AAXX  08004 82765 31/98 90000 10256 20225 39910 40151 713// 333 10306 29075 55052 59004;EQDQ01  00002PRCP99
0186827650999992000020812004-07330-047470FM-12+021299999V0209999C000012200019N0200001N1+02681+02241101571ADDAA199000091GF102991021011008001001001KA1240N+02251MA1999999099171MD1999999-0131REMSYN076AAXX  08124 82765 32598 20000 10268 20224 39917 40157 82100 333 20225 59013;EQDQ01  00002PRCP99
0167827650999992000020818004-07330-047470FM-12+021299999V0200501N004110450019N0200001N1+03281+02231101101ADDAA199000091GF106991041021008001041001MA1999999098731MD1999999-0251REMSYN070AAXX  08184 82765 32598 60508 10328 20223 39873 40110 84240 333 59025;EQDQ01  00002PRCP99
0220827650999992000020900004-07330-047470FM-12+021299999V0209999C000019999999N0200001N1+02641+02251101291ADDAA199000091GA1091+999999999GF109991091999999999999999KA1240M+03321MA1999999098911MD1999999-0201MW1131REMSYN088AAXX  09004 82765 31/98 90000 10264 20225 39891 40129 713// 333 10332 29072 55080 59020;EQDQ01  00002PRCP99
0179827650999992000020912004-07330-047470FM-12+021299999V0203601N001010120019N0200001N1+02421+02251101571ADDAA124004191GF108991061081008001021999KA1240N+02151MA1999999099161MD1999999-0011REMSYN088AAXX  09124 82765 21598 83602 10242 20225 39916 40157 7//66 8682/ 333 20215 59001 60044;
0160827650999992000020918004-07330-047470FM-12+021299999V0202301N002110120019N0200001N1+02621+02251101231ADDAA106021191GF107991051081008001041001MA1999999098831MD1999999+0101REMSYN082AAXX  09184 82765 21598 72304 10262 20225 39883 40123 7//66 85840 333 58010 60211;
0214827650999992000021000004-07330-047470FM-12+021299999V0209999C000019999999N0200001N1+02421+02231101391ADDAA199000091GA1091+999999999GF109991091999999999999999KA1240M+02761MA1999999098971MD1999999+0061REMSYN088AAXX  10004 82765 31/98 90000 10242 20223 39897 40139 7//99 333 10276 29087 55004 58006;EQDQ01  00002PRCP99
0201827650999992000021012004-07330-047470FM-12+021299999V0209999C000010075019N0200001N1+02241+02121101541ADDAA124031091AY161061AY261061GF108991081051008001999999KA1240N+02071MA1999999099111MD1999999-0051MW1511REMSYN088AAXX  10124 82765 21598 80000 10224 20212 39911 40154 75166 885// 333 20207 59005 60314;
0182827650999992000021018004-07330-047470FM-12+021299999V0201801N001510450019N0200001N1+02881+02281101181ADDAA106000391AY151061AY251061GF107991031031008001021001MA1999999098791MD1999999-0041MW1171REMSYN082AAXX  10184 82765 21598 71803 10288 20228 39879 40118 71755 83320 333 59004 69931;
0201827650999992000021100004-07330-047470FM-12+021299999V0209999C000019999999N0200001N1+02541+02251101361ADDAA199000021GA1091+999999999GF109991091999999999999999KA1240M+02901MA1999999098941MD1999999-0031MW1131REMSYN088AAXX  11004 82765 31/98 90000 10254 20225 39894 40136 713// 333 10290 29083 55018 59003;
0179827650999992000021112004-07330-047470FM-12+021299999V0209999C000010120019N0200001N1+02501+02291101561ADDAA124002091GF107991051081008001041001KA1240N+02311MA1999999099151MD1999999+0041REMSYN088AAXX  11124 82765 21598 70000 10250 20229 39915 40156 7//65 85840 333 20231 58004 60024;
0160827650999992000021118004-07330-047470FM-12+021299999V0200501N002610120019N0200001N1+02601+02291101321ADDAA106002091GF107991051081008001041001MA1999999098911MD1999999+0121REMSYN082AAXX  11184 82765 21598 70505 10260 20229 39891 40132 7//65 85840 333 58012 60021;
0208827650999992000021200004-07330-047470FM-12+021299999V0209999C000019999999N0200001N1+02561+02291101291ADDAA199000091GA1091+999999999GF109991091999999999999999KA1240M+03001MA1999999098891MD1999999-0051REMSYN082AAXX  12004 82765 32/98 90000 10256 20229 39889 40129 333 10300 29085 55025 59005;EQDQ01  00002PRCP99
0173827650999992000021212004-07330-047470FM-12+021299999V0209999C000012200019N0200001N1+02571+02351101411ADDAA124002091GF103991031011008001001001KA1240N+02251MA1999999099011MD1999999+0071REMSYN082AAXX  12124 82765 22598 30000 10257 20235 39901 40141 83100 333 20225 58007 60024;
0182827650999992000021218004-07330-047470FM-12+021299999V0200501N002110075019N0200001N1+02951+02261100971ADDAA106007191AY161061AY221061GF108991051021008001021999MA1999999098581MD1999999-0331MW1031REMSYN082AAXX  12184 82765 21598 80504 10295 20226 39858 40097 70362 8522/ 333 59033 60071;
0213827650999992000021300004-07330-047470FM-12+021299999V0209999C000012200019N0200001N1+02311+02181101251ADDAA106000191AY161061AY221061GF103991031011008001001001KA1240M+03011MA1999999098841MD1999999-0051MW1131REMSYN100AAXX  13004 82765 21598 30000 10231 20218 39884 40125 71362 83100 333 10301 29085 55045 59005 69911;
0154827650999992000021312004-07330-047470FM-12+021299999V0202701N000510075019N0200001N1+02551+02251101541ADDAA124007191GF108991051031008001021999MA1999999099121MD1999999+0111REMSYN076AAXX  13124 82765 22598 82701 10255 20225 39912 40154 8532/ 333 58011 60074;
0182827650999992000021318004-07330-047470FM-12+021299999V0203201N001510042019N0100001N1+02631+02101101281ADDAA106002091AY161061AY221061GF108991051021004501021999MA1999999098861MD1999999+0281MW1151REMSYN082AAXX  13184 82765 21497 83203 10263 20210 39886 40128 71562 8522/ 333 58028 60021;
0201827650999992000021400004-07330-047470FM-12+021299999V0209999C000010024019N0100001N1+02251+02161101491ADDAA106001091GA1091+999999999GF109991091999999999999999KA1240M+03011MA1999999099071MD1999999+0231REMSYN094AAXX  14004 82765 21/97 90000 10225 20216 39907 40149 7//62 333 10301 29087 55042 58023 60011;
0201827650999992000021412004-07330-047470FM-12+021299999V0209999C000010090019N0200001N1+02331+02221101701ADDAA124003091AY141061AY221061GF108991081081004501999999KA1240N+02121MA1999999099261MD1999999+0141MW1031REMSYN088AAXX  14124 82765 21498 80000 10233 20222 39926 40170 70342 888// 333 20212 58014 60034;
0167827650999992000021418004-07330-047470FM-12+021299999V0209999C000010075019N0200001N1+02991+02151101281ADDAA199000091GF108991051021008001021999MA1999999098881MD1999999+0021REMSYN070AAXX  14184 82765 32598 80000 10299 20215 39888 40128 8522/ 333 58002;EQDQ01  00002PRCP99
0198827650999992000021500004-07330-047470FM-12+021299999V0209999C000012200019N0200001N1+02261+02111101531ADDAA199000091GF103991031011008001001001KA1240M+02271MA1999999099051MD1999999-0021REMSYN088AAXX  15004 82765 32598 30000 10226 20211 39905 40153 83100 333 10227 29081 55043 59002;EQDQ01  00002PRCP99
0186827650999992000021512004-07330-047470FM-12+021299999V0209999C000012200019N0200001N1+02391+02191101521ADDAA199000091GF104991041011008001001001KA1240N+02071MA1999999099091MD1999999-0171REMSYN076AAXX  15124 82765 32598 40000 10239 20219 39909 40152 84100 333 20207 59017;EQDQ01  00002PRCP99
0167827650999992000021518004-07330-047470FM-12+021299999V0201401N001510075019N0200001N1+03171+02201101041ADDAA199000091GF105991051021008001001001MA1999999098651MD1999999-0231REMSYN070AAXX  15184 82765 32598 51403 10317 20220 39865 40104 85200 333 59023;EQDQ01  00002PRCP99
0213827650999992000021600004-07330-047470FM-12+021299999V0209999C000010120019N0100001N1+02461+02251101291ADDAA106000191AY161061AY221061GF108991081081008001999999KA1240M+03251MA1999999098871MD1999999-0181MW1131REMSYN100AAXX  16004 82765 21597 80000 10246 20225 39887 40129 71362 888// 333 10325 29080 55070 59018 69921;
0201827650999992000021612004-07330-047470FM-12+021299999V0209999C000010090019N0200001N1+02421+02321101551ADDAA124039991AY161061AY221061GF106991061081004501001001KA1240N+02161MA1999999099131MD1999999+0041MW1031REMSYN088AAXX  16124 82765 21498 60000 10242 20232 39913 40155 70362 86800 333 20216 58004 60404;
0182827650999992000021618004-07330-047470FM-12+021299999V0201401N001510021019N0100001N1+02331+02241101291ADDAA106005191AY161061AY261061GF108991051071002501021999MA1999999098861MD1999999+0211MW1601REMSYN082AAXX  16184 82765 21397 81403 10233 20224 39886 40129 76066 8572/ 333 58021 60051;
0201827650999992000021712004-07330-047470FM-12+021299999V0209999C000010042019N0200001N1+02311+02231101591ADDAA124006191AY161061AY221061GF108991051071004501021999KA1240N+02161MA1999999099151MD1999999+0021MW1031REMSYN088AAXX  17124 82765 21498 80000 10231 20223 39915 40159 70362 8572/ 333 20216 58002 60064;
0182827650999992000021718004-07330-047470FM-12+021299999V0203201N001510042019N0100001N1+02841+02331101101ADDAA106000191AY161061AY221061GF106991061021004501001001MA1999999098701MD1999999-0161MW1151REMSYN082AAXX  17184 82765 21497 63203 10284 20233 39870 40110 71562 86200 333 59016 69911;
0201827650999992000021812004-07330-047470FM-12+021299999V0209999C000010090019N0200001N1+02351+02201101641ADDAA124019191AY161061AY221061GF108991061081004501021999KA1240N+02191MA1999999099221MD1999999+0071MW1031REMSYN088AAXX  18124 82765 21498 80000 10235 20220 39922 40164 70362 8682/ 333 20219 58007 60194;
0182827650999992000021818004-07330-047470FM-12+021299999V0203201N002112200019N0200001N1+02661+02001101261ADDAA106005191AY161061AY221061GF104991041041008001001001MA1999999098851MD1999999+0151MW1021REMSYN082AAXX  18184 82765 21598 43204 10266 20200 39885 40126 70262 84400 333 58015 60051;
0198827650999992000021900004-07330-047470FM-12+021299999V0209999C000010075019N0200001N1+02451+02251101501ADDAA199000091GF107991071011008001001001KA1240M+02861MA1999999099081MD1999999+0181REMSYN088AAXX  19004 82765 32598 70000 10245 20225 39908 40150 87100 333 10286 29084 55027 58018;EQDQ01  00002PRCP99
0173827650999992000021912004-07330-047470FM-12+021299999V0209999C000010075019N0200001N1+02511+02251101501ADDAA124005191GF105991051021008001001001KA1240N+02251MA1999999099091MD1999999-0131REMSYN082AAXX  19124 82765 22598 50000 10251 20225 39909 40150 85200 333 20225 59013 60054;
0182827650999992000021918004-07330-047470FM-12+021299999V0202301N000510075019N0200001N1+02871+02351101131ADDAA106001091AY161061AY221061GF106991061031008001001001MA1999999098731MD1999999-0121MW1031REMSYN082AAXX  19184 82765 21598 62301 10287 20235 39873 40113 70362 86300 333 59012 60011;
0198827650999992000022000004-07330-047470FM-12+021299999V0209999C000010075019N0200001N1+02421+02301101351ADDAA199000091GF105991051021008001001001KA1240M+02981MA1999999098941MD1999999-0171REMSYN088AAXX  20004 82765 32598 50000 10242 20230 39894 40135 85200 333 10298 29086 55016 59017;EQDQ01  00002PRCP99
0182827650999992000022018004-07330-047470FM-12+021299999V0209999C000010042019N0200001N1+02591+02271100971ADDAA106002091AY161061AY221061GF105991051091004501001001MA1999999098561MD1999999-0171MW1031REMSYN082AAXX  20184 82765 21498 50000 10259 20227 39856 40097 70362 85900 333 59017 60021;
0198827650999992000022100004-07330-047470FM-12+021299999V0209999C000010450019N0200001N1+02491+02171101291ADDAA199000091GF105991031021008001021001KA1240M+03071MA1999999098881MD1999999-0061REMSYN088AAXX  21004 82765 32598 50000 10249 20217 39888 40129 83220 333 10307 29083 55066 59006;EQDQ01  00002PRCP99
0167827650999992000022118004-07330-047470FM-12+021299999V0202301N000510075019N0200001N1+03101+02201101121ADDAA199000091GF107991051021008001041001MA1999999098741MD1999999-0091REMSYN070AAXX  21184 82765 32598 72301 10310 20220 39874 40112 85240 333 59009;EQDQ01  00002PRCP99
0208827650999992000022200004-07330-047470FM-12+021299999V0209999C000019999999N0200001N1+02561+02331101331ADDAA199000091GA1091+999999999GF109991091999999999999999KA1240M+03141MA1999999098931MD1999999+0051REMSYN082AAXX  22004 82765 32/98 90000 10256 20233 39893 40133 333 10314 29079 55063 58005;EQDQ01  00002PRCP99
0186827650999992000022212004-07330-047470FM-12+021299999V0201801N000510450019N0200001N1+02541+02251101501ADDAA199000091GF105991021011008001041001KA1240N+02151MA1999999099091MD1999999-0051REMSYN076AAXX  22124 82765 32598 51801 10254 20225 39909 40150 82140 333 20215 59005;EQDQ01  00002PRCP99
0179827650999992000022218004-07330-047470FM-12+021299999V0200501N002610450019N0200001N1+03081+02211101031ADDAA199000091GF106991041031008001041001MA1999999098651MD1999999+0091MW1171REMSYN076AAXX  22184 82765 31598 60505 10308 20221 39865 40103 717// 84340 333 58009;EQDQ01  00002PRCP99
0223827650999992000022300004-07330-047470FM-12+021299999V0209999C000019999999N0200001N1+02341+02201101361ADDAA106001091AY151061AY251061GA1091+999999999GF109991091999999999999999KA1240M+03181MA1999999098971MD1999999+0041MW1131REMSYN094AAXX  23004 82765 21/98 90000 10234 20220 39897 40136 71355 333 10318 29082 55059 58004 60011;
0179827650999992000022312004-07330-047470FM-12+021299999V0203601N000510120019N0200001N1+02341+02071101701ADDAA124087191GF107991051081008001041001KA1240N+02131MA1999999099271MD1999999+0181REMSYN088AAXX  23124 82765 21598 73601 10234 20207 39927 40170 7//66 85840 333 20213 58018 60874;
0201827650999992000022400004-07330-047470FM-12+021299999V0209999C000019999999N0200001N1+02441+02341101341ADDAA106002091GA1091+999999999GF109991091999999999999999KA1240M+02941MA1999999098921MD1999999-0051REMSYN094AAXX  24004 82765 21/98 90000 10244 20234 39892 40134 7//66 333 10294 29086 55021 59005 60021;
0173827650999992000022412004-07330-047470FM-12+021299999V0200501N000510120019N0200001N1+02541+02231101361ADDAA124002091GF106991051081008001041001KA1240N+02231MA1999999098951MD1999999-0321REMSYN082AAXX  24124 82765 22598 60501 10254 20223 39895 40136 85840 333 20223 59032 60024;
0167827650999992000022418004-07330-047470FM-12+021299999V0200501N000510450019N0200001N1+03001+02221101011ADDAA199000091GF106991041021008001041001MA1999999098631MD1999999-0091REMSYN070AAXX  24184 82765 32598 60501 10300 20222 39863 40101 84240 333 59009;EQDQ01  00002PRCP99
0236827650999992000022500004-07330-047470FM-12+021299999V0209999C000019999999N0200001N1+02561+02231101141ADDAA199000091AY191061AY291061GA1091+999999999GF109991091999999999999999KA1240M+03061MA1999999098741MD1999999-0191MW1131REMSYN088AAXX  25004 82765 31/98 90000 10256 20223 39874 40114 71399 333 10306 29078 55031 59019;EQDQ01  00002PRCP99
0186827650999992000022512004-07330-047470FM-12+021299999V0209999C000012200019N0200001N1+02601+02191101361ADDAA199000091GF104991021011008001051001KA1240N+02261MA1999999098961MD1999999+0011REMSYN076AAXX  25124 82765 32598 40000 10260 20219 39896 40136 82150 333 20226 58001;EQDQ01  00002PRCP99
0182827650999992000022518004-07330-047470FM-12+021299999V0202701N000510450019N0100001N1+02711+02301101001ADDAA106003091AY191061AY261061GF107991041031004501021001MA1999999098601MD1999999-0031MW1291REMSYN082AAXX  25184 82765 21497 72701 10271 20230 39860 40100 72996 84320 333 59003 60031;
0201827650999992000022612004-07330-047470FM-12+021299999V0209999C000012200019N0200001N1+02641+02331101441ADDAA124029091AY161061AY221061GF104991021021008001031001KA1240N+02281MA1999999099031MD1999999+0071MW1021REMSYN088AAXX  26124 82765 21598 40000 10264 20233 39903 40144 70262 82230 333 20228 58007 60294;
0182827650999992000022618004-07330-047470FM-12+021299999V0209999C000010075019N0200001N1+02561+02401101061ADDAA106011991AY161061AY221061GF106991061031008001001001MA1999999098651MD1999999+0051MW1031REMSYN082AAXX  26184 82765 21598 60000 10256 20240 39865 40106 70362 86300 333 58005 60121;
0226827650999992000022700004-07330-047470FM-12+021299999V0202301N001010075019N0100001N1+02601+02441101211ADDAA199000091AY121061AY221061GF107991071031008001001001KA1240M+02971MA1999999098821MD1999999-0031MW1131REMSYN094AAXX  27004 82765 31597 72302 10260 20244 39882 40121 71322 87300 333 10297 29088 55051 59003;EQDQ01  00002PRCP99
0173827650999992000022712004-07330-047470FM-12+021299999V0209999C000010075019N0200001N1+02561+02251101441ADDAA124011991GF105991051011008001001001KA1240N+02151MA1999999099041MD1999999+0011REMSYN082AAXX  27124 82765 22598 50000 10256 20225 39904 40144 85100 333 20215 58001 60124;
0167827650999992000022718004-07330-047470FM-12+021299999V0209999C000010120019N0200001N1+03211+02301100931ADDAA199000091GF105991051081008001001001MA1999999098551MD1999999-0011REMSYN070AAXX  27184 82765 32598 50000 10321 20230 39855 40093 85800 333 59001;EQDQ01  00002PRCP99
0173827650999992000022812004-07330-047470FM-12+021299999V0209999C000010120019N0200001N1+02561+02271101471ADDAA124000191GF107991071081008001001001KA1240N+02321MA1999999099061MD1999999+0021REMSYN082AAXX  28124 82765 22598 70000 10256 20227 39906 40147 87800 333 20232 58002 69914;
0201827650999992000022900004-07330-047470FM-12+021299999V0209999C000019999999N0200001N1+02461+02271101401ADDAA106015091GA1091+999999999GF109991091999999999999999KA1240M+03021MA1999999098941MD1999999+0161REMSYN094AAXX  29004 82765 21/98 90000 10246 20227 39894 40140 7//66 333 10302 29085 55017 58016 60151;
0173827650999992000022912004-07330-047470FM-12+021299999V0209999C000012200019N0200001N1+02501+02131101581ADDAA124015091GF104991021011008001041001KA1240N+02091MA1999999099171MD1999999+0111REMSYN082AAXX  29124 82765 22598 40000 10250 20213 39917 40158 82140 333 20209 58011 60154;
0160827650999992000022918004-07330-047470FM-12+021299999V0201801N000510450019N0200001N1+02821+02271101221ADDAA106007191GF105991031021008001041001MA1999999098821MD1999999+0131REMSYN082AAXX  29184 82765 21598 51801 10282 20227 39882 40122 7//66 83240 333 58013 60071;
0236827650999992000030100004-07330-047470FM-12+021299999V0209999C000019999999N0200001N1+02561+02311101401ADDAA199000091AY191061AY291061GA1091+999999999GF109991091999999999999999KA1240M+03101MA1999999099001MD1999999+0061MW1131REMSYN088AAXX  01004 82765 31/98 90000 10256 20231 39900 40140 71399 333 10310 29081 55073 58006;EQDQ01  00002PRCP99
0179827650999992000030112004-07330-047470FM-12+021299999V0209999C000010450019N0200001N1+02681+02331101571ADDAA124009991GF105991031011008001041001KA1240N+02311MA1999999099171MD1999999+0001REMSYN088AAXX  01124 82765 21598 50000 10268 20233 39917 40157 7//66 83140 333 20231 58000 60104;
0160827650999992000030118004-07330-047470FM-12+021299999V0203201N001010450019N0200001N1+02701+02281101161ADDAA106006191GF106991041021008001041001MA1999999098761MD1999999-0061REMSYN082AAXX  01184 82765 21598 63202 10270 20228 39876 40116 7//96 84240 333 59006 60061;
0173827650999992000030212004-07330-047470FM-12+021299999V0209999C000010120019N0040001N1+02561+02351101571ADDAA124006191GF107991051081008001041001KA1240N+02091MA1999999099161MD1999999+0011REMSYN082AAXX  02124 82765 22596 70000 10256 20235 39916 40157 85840 333 20209 58001 60064;
0160827650999992000030218004-07330-047470FM-12+021299999V0209999C000010120019N0200001N1+02441+02251101131ADDAA106003091GF107991051081008001021001MA1999999098721MD1999999-0041REMSYN082AAXX  02184 82765 21598 70000 10244 20225 39872 40113 7//96 85820 333 59004 60031;
0220827650999992000030300004-07330-047470FM-12+021299999V0209999C000019999999N0200001N1+02501+02361101341ADDAA199000091GA1091+999999999GF109991091999999999999999KA1240M+02961MA1999999098941MD1999999-0041MW1131REMSYN088AAXX  03004 82765 31/98 90000 10250 20236 39894 40134 713// 333 10296 29090 55027 59004;EQDQ01  00002PRCP99
0173827650999992000030312004-07330-047470FM-12+021299999V0209999C000010120019N0200001N1+02441+02191101501ADDAA124003091GF108991081081008001999999KA1240N+02231MA1999999099091MD1999999-0071REMSYN082AAXX  03124 82765 22598 80000 10244 20219 39909 40150 888// 333 20223 59007 60034;
0167827650999992000030318004-07330-047470FM-12+021299999V0201801N000510450019N0200001N1+03041+02261100981ADDAA199000091GF105991041021008001041001MA1999999098601MD1999999-0121REMSYN070AAXX  03184 82765 32598 51801 10304 20226 39860 40098 84240 333 59012;EQDQ01  00002PRCP99
0223827650999992000030400004-07330-047470FM-12+021299999V0201801N000519999999N0200001N1+02521+02361101211ADDAA106002091AY191061AY261061GA1091+999999999GF109991091999999999999999KA1240M+03141MA1999999098811MD1999999-0131MW1131REMSYN094AAXX  04004 82765 21/98 91801 10252 20236 39881 40121 71396 333 10314 29083 55067 59013 60021;
0173827650999992000030412004-07330-047470FM-12+021299999V0200501N000512200019N0200001N1+02631+02251101431ADDAA124002091GF104991041021008001001001KA1240N+02261MA1999999099031MD1999999-0061REMSYN082AAXX  04124 82765 22598 40501 10263 20225 39903 40143 84200 333 20226 59006 60024;
0167827650999992000030418004-07330-047470FM-12+021299999V0203201N000510450019N0200001N1+03081+02371101081ADDAA199000091GF106991031021008001021001MA1999999098691MD1999999+0091REMSYN070AAXX  04184 82765 32598 63201 10308 20237 39869 40108 83220 333 58009;EQDQ01  00002PRCP99
0213827650999992000030500004-07330-047470FM-12+021299999V0200901N002610021019N0040001N1+02411+02281101281ADDAA106047091AY161061AY261061GF108991081071002501999999KA1240M+03181MA1999999098871MD1999999+0061MW1631REMSYN100AAXX  05004 82765 21396 80905 10241 20228 39887 40128 76366 887// 333 10318 29083 55078 58006 60471;
0201827650999992000030512004-07330-047470FM-12+021299999V0200501N001012200019N0200001N1+02641+02411101511ADDAA124059991AY161061AY221061GF103991031021008001001001KA1240N+02241MA1999999099101MD1999999+0071MW1031REMSYN088AAXX  05124 82765 21598 30502 10264 20241 39910 40151 70362 83200 333 20224 58007 60604;
0182827650999992000030518004-07330-047470FM-12+021299999V0201801N001510450019N0200001N1+02661+02331101131ADDAA106002091AY161061AY221061GF106991041021008001021001MA1999999098721MD1999999+0031MW1031REMSYN082AAXX  05184 82765 21598 61803 10266 20233 39872 40113 70362 84220 333 58003 60021;
0198827650999992000030600004-07330-047470FM-12+021299999V0209999C000010120019N0200001N1+02431+02251101211ADDAA199000091GF108991081081008001999999KA1240M+03051MA1999999098811MD1999999-0061REMSYN088AAXX  06004 82765 32598 80000 10243 20225 39881 40121 888// 333 10305 29087 55056 59006;EQDQ01  00002PRCP99
0173827650999992000030612004-07330-047470FM-12+021299999V0209999C000010120019N0200001N1+02441+02341101151ADDAA124002091GF106991061081008001041001KA1240N+02211MA1999999099091MD1999999-0011REMSYN082AAXX  06124 82765 22598 60000 10244 20234 39909 40115 86840 333 20221 59001 60024;
0160827650999992000030618004-07330-047470FM-12+021299999V0200501N000510075019N0200001N1+02301+02181101291ADDAA106031091GF108991061051008001021999MA1999999098861MD1999999+0141REMSYN082AAXX  06184 82765 21598 80501 10230 20218 39886 40129 7//96 8652/ 333 58014 60311;
0208827650999992000030700004-07330-047470FM-12+021299999V0209999C000019999999N0200001N1+02361+02261101271ADDAA199000091GA1091+999999999GF109991091999999999999999KA1240M+02941MA1999999098861MD1999999+0051REMSYN082AAXX  07004 82765 32/98 90000 10236 20226 39886 40127 333 10294 29094 55021 58005;EQDQ01  00002PRCP99
0173827650999992000030712004-07330-047470FM-12+021299999V0209999C004612200019N0200001N1+02521+02521101381ADDAA124039191GF104991031021008001041001KA1240N+02551MA1999999098971MD1999999-0121REMSYN082AAXX  07124 82765 22598 40009 10252 20252 39897 40138 83240 333 20255 59012 60394;
0160827650999992000030718004-07330-047470FM-12+021299999V0209999C000010450019N0200001N1+02701+02411101011ADDAA106010991GF106991041021008001041001MA1999999098611MD1999999-0251REMSYN082AAXX  07184 82765 21598 60000 10270 20241 39861 40101 7//66 84240 333 59025 60111;
0208827650999992000030800004-07330-047470FM-12+021299999V0209999C000019999999N0200001N1+02541+02291101161ADDAA199000091GA1091+999999999GF109991091999999999999999KA1240M+03041MA1999999098761MD1999999-0101REMSYN082AAXX  08004 82765 32/98 90000 10254 20229 39876 40116 333 10304 29084 55044 59010;EQDQ01  00002PRCP99
0173827650999992000030812004-07330-047470FM-12+021299999V0209999C000010450019N0200001N1+02501+02311101341ADDAA124010991GF107991031021008001021001KA1240N+02251MA1999999098931MD1999999-0041REMSYN082AAXX  08124 82765 22598 70000 10250 20231 39893 40134 83220 333 20225 59004 60114;
0182827650999992000030818004-07330-047470FM-12+021299999V0200501N002110075019N0200001N1+02401+02231101031ADDAA106009991AY191061AY261061GF108991061051008001021999MA1999999098621MD1999999+0011MW1551REMSYN082AAXX  08184 82765 21598 80504 10240 20223 39862 40103 75596 8652/ 333 58001 60101;
0223827650999992000030900004-07330-047470FM-12+021299999V0209999C000019999999N0200001N1+02401+02301101271ADDAA106002091AY191061AY251061GA1091+999999999GF109991091999999999999999KA1240M+03141MA1999999098861MD1999999+0101MW1131REMSYN094AAXX  09004 82765 21/98 90000 10240 20230 39886 40127 71395 333 10314 29092 55024 58010 60021;
0201827650999992000030912004-07330-047470FM-12+021299999V0209999C000010042019N0200001N1+02261+02211101571ADDAA124057991AY161061AY261061GF108991051021004501021999KA1240N+02151MA1999999099141MD1999999+0211MW1031REMSYN088AAXX  09124 82765 21498 80000 10226 20221 39914 40157 70366 8522/ 333 20215 58021 60584;
0195827650999992000030918004-07330-047470FM-12+021299999V0209999C000010450019N0200001N1+02901+02171101171ADDAA199000091AY121061AY221061GF107991041021004501021001MA1999999098771MD1999999+0151MW1291REMSYN076AAXX  09184 82765 31498 70000 10290 20217 39877 40117 72922 84220 333 58015;EQDQ01  00002PRCP99
0223827650999992000031000004-07330-047470FM-12+021299999V0209999C000010024019N0100001N1+02301+02251101351ADDAA106002091AY161061AY221061GA1091+999999999GF109991091999999999999999KA1240M+02901MA1999999098921MD1999999+0061MW1131REMSYN094AAXX  10004 82765 21/97 90000 10230 20225 39892 40135 71362 333 10290 29089 55021 58006 60021;
0173827650999992000031012004-07330-047470FM-12+021299999V0209999C000010042019N0200001N1+02461+02301101611ADDAA124002091GF107991071071004501001001KA1240N+02251MA1999999099191MD1999999+0041REMSYN082AAXX  10124 82765 22498 70000 10246 20230 39919 40161 87700 333 20225 58004 60024;
0167827650999992000031018004-07330-047470FM-12+021299999V0209999C000010450019N0200001N1+02831+02271101171ADDAA199000091GF107991041021008001021001MA1999999098771MD1999999+0001REMSYN070AAXX  10184 82765 32598 70000 10283 20227 39877 40117 84220 333 58000;EQDQ01  00002PRCP99
0208827650999992000031100004-07330-047470FM-12+021299999V0209999C000019999999N0200001N1+02501+02291101311ADDAA199000091GA1091+999999999GF109991091999999999999999KA1240M+02881MA1999999098901MD1999999-0021REMSYN082AAXX  11004 82765 32/98 90000 10250 20229 39890 40131 333 10288 29085 55021 59002;EQDQ01  00002PRCP99
0201827650999992000031112004-07330-047470FM-12+021299999V0200501N001510090019N0200001N1+02581+02291101441ADDAA124031091AY161061AY221061GF106991061081004501001001KA1240N+02251MA1999999099041MD1999999-0151MW1031REMSYN088AAXX  11124 82765 21498 60503 10258 20229 39904 40144 70362 86800 333 20225 59015 60314;
0167827650999992000031118004-07330-047470FM-12+021299999V0202301N001010075019N0200001N1+03011+02291100971ADDAA199000091GF105991051031008001001001MA1999999098591MD1999999-0181REMSYN070AAXX  11184 82765 32598 52302 10301 20229 39859 40097 85300 333 59018;EQDQ01  00002PRCP99
0201827650999992000031200004-07330-047470FM-12+021299999V0209999C000010024019N0100001N1+02481+02381101201ADDAA106003091GA1091+999999999GF109991091999999999999999KA1240M+03131MA1999999098801MD1999999-0101REMSYN094AAXX  12004 82765 21/97 90000 10248 20238 39880 40120 7//62 333 10313 29084 55051 59010 60031;
0179827650999992000031212004-07330-047470FM-12+021299999V0209999C000010120019N0200001N1+02461+02361101441ADDAA124006191GF108991081081008001999999KA1240N+02331MA1999999099031MD1999999-0011REMSYN088AAXX  12124 82765 21598 80000 10246 20236 39903 40144 7//65 888// 333 20233 59001 60064;
0167827650999992000031218004-07330-047470FM-12+021299999V0201801N001510120019N0200001N1+02941+02311100951ADDAA199000091GF107991061081008001041001MA1999999098571MD1999999-0021REMSYN070AAXX  12184 82765 32598 71803 10294 20231 39857 40095 86840 333 59002;EQDQ01  00002PRCP99
0201827650999992000031312004-07330-047470FM-12+021299999V0209999C000010075019N0200001N1+02221+02101101451ADDAA124010991AY161061AY261061GF108991081051008001999999KA1240N+02091MA1999999099031MD1999999+0001MW1511REMSYN088AAXX  13124 82765 21598 80000 10222 20210 39903 40145 75166 885// 333 20209 58000 60114;
0160827650999992000031318004-07330-047470FM-12+021299999V0209999C000010450019N0200001N1+02701+02261100961ADDAA106000191GF106991041021008001041001MA1999999098561MD1999999-0011REMSYN082AAXX  13184 82765 21598 60000 10270 20226 39856 40096 7//55 84240 333 59001 69921;
0201827650999992000031400004-07330-047470FM-12+021299999V0209999C000019999999N0200001N1+02521+02361101121ADDAA199000021GA1091+999999999GF109991091999999999999999KA1240M+02761MA1999999098711MD1999999-0021MW1131REMSYN088AAXX  14004 82765 31/98 90000 10252 20236 39871 40112 713// 333 10276 29088 55000 59002;
0179827650999992000031412004-07330-047470FM-12+021299999V0209999C000010120019N0100001N1+02381+02091101351ADDAA124000591GF107991061081008001041001KA1240N+02251MA1999999098841MD1999999-0081REMSYN088AAXX  14124 82765 21597 70000 10238 20209 39884 40135 7//55 86840 333 20225 59008 69944;
0167827650999992000031418004-07330-047470FM-12+021299999V0203601N001510450019N0200001N1+03061+02331100911ADDAA199000091GF106991041021008001041001MA1999999098541MD1999999-0021REMSYN070AAXX  14184 82765 32598 63603 10306 20233 39854 40091 84240 333 59002;EQDQ01  00002PRCP99
0208827650999992000031500004-07330-047470FM-12+021299999V0209999C000019999999N0200001N1+02621+02351101201ADDAA199000091GA1091+999999999GF109991091999999999999999KA1240M+03121MA1999999098821MD1999999+0111REMSYN082AAXX  15004 82765 32/98 90000 10262 20235 39882 40120 333 10312 29080 55043 58011;EQDQ01  00002PRCP99
0201827650999992000031512004-07330-047470FM-12+021299999V0209999C000010090019N0200001N1+02581+02331101401ADDAA124009991AY161061AY221061GF106991061081004501001001KA1240N+02301MA1999999099001MD1999999+0061MW1031REMSYN088AAXX  15124 82765 21498 60000 10258 20233 39900 40140 70362 86800 333 20230 58006 60104;
0182827650999992000031518004-07330-047470FM-12+021299999V0200501N001510450019N0200001N1+03041+02261100991ADDAA106002091AY161061AY221061GF106991041031008001021001MA1999999098611MD1999999+0071MW1031REMSYN082AAXX  15184 82765 21598 60503 10304 20226 39861 40099 70362 84320 333 58007 60021;
0192827650999992000031600004-07330-047470FM-12+021299999V0209999C000019999999N0200001N1+02471+02281101271ADDAA199000091GF107991999999008001999999KA1240M+03061MA1999999098861MD1999999+0041REMSYN082AAXX  16004 82765 32598 70000 10247 20228 39886 40127 333 10306 29082 55019 58004;EQDQ01  00002PRCP99
0201827650999992000031612004-07330-047470FM-12+021299999V0209999C000010060019N0200001N1+02461+02321101481ADDAA124003091AY161061AY221061GF107991071081002501001001KA1240N+02381MA1999999099061MD1999999+0061MW1031REMSYN088AAXX  16124 82765 21398 70000 10246 20232 39906 40148 70362 87800 333 20238 58006 60034;
0182827650999992000031618004-07330-047470FM-12+021299999V0203201N002610450019N0100001N1+02711+02301100991ADDAA106007991AY161061AY221061GF108991041081004501021999MA1999999098601MD1999999-0011MW1151REMSYN082AAXX  16184 82765 32497 83205 10271 20230 39860 40099 71562 8482/ 333 59001 60081;
0213827650999992000031700004-07330-047470FM-12+021299999V0209999C000010450019N0200001N1+02331+02251101251ADDAA106001091AY161061AY221061GF108991041081008001021999KA1240M+02771MA1999999098841MD1999999-0021MW1131REMSYN100AAXX  17004 82765 21598 80000 10233 20225 39884 40125 71362 8482/ 333 10277 29091 55020 59002 60011;
0201827650999992000031712004-07330-047470FM-12+021299999V0209999C000010450019N0200001N1+02351+02241101431ADDAA124039991AY161061AY221061GF108991041081004501021999KA1240N+02211MA1999999099011MD1999999-0051MW1031REMSYN088AAXX  17124 82765 21498 80000 10235 20224 39901 40143 70362 8482/ 333 20221 59005 60404;
0213827650999992000031800004-07330-047470FM-12+021299999V0202301N000510120019N0200001N1+02401+02231101101ADDAA106001091AY161061AY221061GF108991081081008001999999KA1240M+03171MA1999999098691MD1999999-0151MW1131REMSYN100AAXX  18004 82765 21598 82301 10240 20223 39869 40110 71362 888// 333 10317 29084 55074 59015 60011;
0198827650999992000031812004-07330-047470FM-12+021299999V0209999C000019999999N0200001N1+02541+02291101341ADDAA124031091GF107991999081008001001001KA1240N+02271MA1999999098931MD1999999-0081REMSYN088AAXX  18124 82765 21598 70000 10254 20229 39893 40134 7//66 88800 333 20227 59008 60314;EQDQ01+000082SCOTLC
0167827650999992000031818004-07330-047470FM-12+021299999V0202701N001512200019N0200001N1+03061+02221100871ADDAA199000091GF103991031021008001001001MA1999999098501MD1999999+0071REMSYN070AAXX  18184 82765 32598 32703 10306 20222 39850 40087 83200 333 58007;EQDQ01  00002PRCP99
0210827650999992000031900004-07330-047470FM-12+021299999V0203201N001012200019N0200001N1+02601+02331100931ADDAA199000091GF102991021031008001001001KA1240M+03141MA1999999098541MD1999999-0151MW1131REMSYN094AAXX  19004 82765 31598 23202 10260 20233 39854 40093 713// 82300 333 10314 29079 55079 59015;EQDQ01  00002PRCP99
0186827650999992000031912004-07330-047470FM-12+021299999V0203601N002110075019N0200001N1+02561+02231101301ADDAA199000091GF105991051021008001001001KA1240N+02291MA1999999098901MD1999999-0031REMSYN076AAXX  19124 82765 32598 53604 10256 20223 39890 40130 85200 333 20229 59003;EQDQ01  00002PRCP99
0167827650999992000031918004-07330-047470FM-12+021299999V0209999C000010450019N0200001N1+03161+02391100831ADDAA199000091GF105991041021008001041001MA1999999098461MD1999999-0041REMSYN070AAXX  19184 82765 32598 50000 10316 20239 39846 40083 84240 333 59004;EQDQ01  00002PRCP99
0186827650999992000032012004-07330-047470FM-12+021299999V0209999C000012200019N0200001N1+02621+02071101331ADDAA199000091GF101991011021008001001001KA1240N+02331MA1999999098931MD1999999+0031REMSYN076AAXX  20124 82765 32598 10000 10262 20207 39893 40133 81200 333 20233 58003;EQDQ01  00002PRCP99
0167827650999992000032018004-07330-047470FM-12+021299999V0200901N001010450019N0200001N1+03081+02241100941ADDAA199000091GF105991041021008001041001MA1999999098561MD1999999+0101REMSYN070AAXX  20184 82765 32598 50902 10308 20224 39856 40094 84240 333 58010;EQDQ01  00002PRCP99
0192827650999992000032100004-07330-047470FM-12+021299999V0209999C000012200019N0200001N1+02601+02331101061ADDAA199000091GF104991999999008001999999KA1240M+03121MA1999999098671MD1999999-0011REMSYN082AAXX  21004 82765 32598 40000 10260 20233 39867 40106 333 10312 29076 55081 59001;EQDQ01  00002PRCP99
0186827650999992000032112004-07330-047470FM-12+021299999V0209999C000012200019N0200001N1+02711+02281101241ADDAA199000091GF103991031011008001001001KA1240N+02321MA1999999098851MD1999999-0081REMSYN076AAXX  21124 82765 32598 30000 10271 20228 39885 40124 83100 333 20232 59008;EQDQ01  00002PRCP99
0182827650999992000032118004-07330-047470FM-12+021299999V0200501N000510450019N0040001N1+02511+02191101011ADDAA106000191AY191061AY221061GF107991041031004501021001MA1999999098601MD1999999+0041MW1291REMSYN082AAXX  21184 82765 21496 70501 10251 20219 39860 40101 72992 84320 333 58004 69911;
0213827650999992000032200004-07330-047470FM-12+021299999V0209999C000012200019N0200001N1+02311+02181101171ADDAA106000191AY161061AY221061GF103991031011008001001001KA1240M+03241MA1999999098771MD1999999+0101MW1021REMSYN100AAXX  22004 82765 21598 30000 10231 20218 39877 40117 70262 83100 333 10324 29087 55062 58010 69911;
0201827650999992000032212004-07330-047470FM-12+021299999V0209999C000010090019N0200001N1+02481+02321101241ADDAA124000391AY161061AY221061GF107991071081004501001001KA1240N+02081MA1999999098831MD1999999-0021MW1031REMSYN088AAXX  22124 82765 21498 70000 10248 20232 39883 40124 70362 87800 333 20208 59002 69934;
0167827650999992000032218004-07330-047470FM-12+021299999V0201401N002110450019N0200001N1+03281+02031100871ADDAA199000091GF105991031021008001051001MA1999999098491MD1999999-0111REMSYN070AAXX  22184 82765 32598 51404 10328 20203 39849 40087 83250 333 59011;EQDQ01  00002PRCP99
0208827650999992000032300004-07330-047470FM-12+021299999V0209999C000012200019N0200001N1+02701+02221100941ADDAA199000091GA1001+999999999GF100991001001999999001001KA1240M+03321MA1999999098551MD1999999-0221REMSYN082AAXX  23004 82765 32998 00000 10270 20222 39855 40094 333 10332 29072 55086 59022;EQDQ01  00002PRCP99
0186827650999992000032312004-07330-047470FM-12+021299999V0209999C000012200019N0200001N1+02681+02161101141ADDAA199000091GF102991021011008001001001KA1240N+02261MA1999999098761MD1999999-0071REMSYN076AAXX  23124 82765 32598 20000 10268 20216 39876 40114 82100 333 20226 59007;EQDQ01  00002PRCP99
0167827650999992000032318004-07330-047470FM-12+021299999V0201401N001512200019N0200001N1+03301+02051100811ADDAA199000091GF104991041021008001001001MA1999999098451MD1999999-0041REMSYN070AAXX  23184 82765 32598 41403 10330 20205 39845 40081 84200 333 59004;EQDQ01  00002PRCP99
0208827650999992000032400004-07330-047470FM-12+021299999V0209999C000012200019N0200001N1+02641+02291101021ADDAA199000091GA1001+999999999GF100991001001999999001001KA1240M+03351MA1999999098641MD1999999+0091REMSYN082AAXX  24004 82765 32998 00000 10264 20229 39864 40102 333 10335 29071 55103 58009;EQDQ01  00002PRCP99
0196827650999992000032412004-07330-047470FM-12+021299999V0209999C000012200019N0200001N1+02681+02241101381ADDAA199000091GA1001+999999999GF100991001001999999001001KA1240N+02271MA1999999098991MD1999999+0231REMSYN070AAXX  24124 82765 32998 00000 10268 20224 39899 40138 333 20227 58023;EQDQ01  00002PRCP99
0167827650999992000032418004-07330-047470FM-12+021299999V0201401N001010450019N0200001N1+03301+02151101031ADDAA199000091GF105991041021008001041001MA1999999098661MD1999999+0211REMSYN070AAXX  24184 82765 32598 51402 10330 20215 39866 40103 84240 333 58021;EQDQ01  00002PRCP99
0208827650999992000032500004-07330-047470FM-12+021299999V0209999C000012200019N0200001N1+02841+01961101121ADDAA199000091GA1001+999999999GF100991001001999999001001KA1240M+03361MA1999999098741MD1999999+0101REMSYN082AAXX  25004 82765 32998 00000 10284 20196 39874 40112 333 10336 29066 55107 58010;EQDQ01  00002PRCP99
0186827650999992000032512004-07330-047470FM-12+021299999V0209999C000010450019N0200001N1+02601+02331101371ADDAA199000091GF106991041021008001041001KA1240N+02091MA1999999098981MD1999999-0011REMSYN076AAXX  25124 82765 32598 60000 10260 20233 39898 40137 84240 333 20209 59001;EQDQ01  00002PRCP99
0167827650999992000032518004-07330-047470FM-12+021299999V0209999C000012200019N0200001N1+03401+02001100931ADDAA199000091GF104991041021008001001001MA1999999098571MD1999999-0091REMSYN070AAXX  25184 82765 32598 40000 10340 20200 39857 40093 84200 333 59009;EQDQ01  00002PRCP99
0220827650999992000032600004-07330-047470FM-12+021299999V0209999C000019999999N0200001N1+02841+02311101001ADDAA199000091GA1091+999999999GF109991091999999999999999KA1240M+03441MA1999999098621MD1999999-0121MW1131REMSYN088AAXX  26004 82765 31/98 90000 10284 20231 39862 40100 713// 333 10344 29069 55086 59012;EQDQ01  00002PRCP99
0186827650999992000032612004-07330-047470FM-12+021299999V0209999C000010450019N0200001N1+02801+02391101171ADDAA199000091GF106991021021008001041001KA1240N+02111MA1999999098801MD1999999-0181REMSYN076AAXX  26124 82765 32598 60000 10280 20239 39880 40117 82240 333 20211 59018;EQDQ01  00002PRCP99
0179827650999992000032618004-07330-047470FM-12+021299999V0209999C000010450019N0200001N1+03201+02211101831ADDAA199000091GF106991021031008001041001MA1999999098471MD1999999-0101MW1171REMSYN076AAXX  26184 82765 31598 60000 10320 20221 39847 40183 717// 82340 333 59010;EQDQ01  00002PRCP99
0208827650999992000032700004-07330-047470FM-12+021299999V0209999C000019999999N0200001N1+02521+02271101141ADDAA199000091GA1091+999999999GF109991091999999999999999KA1240M+03321MA1999999098751MD1999999+0131REMSYN082AAXX  27004 82765 32/98 90000 10252 20227 39875 40114 333 10332 29076 55058 58013;EQDQ01  00002PRCP99
0186827650999992000032712004-07330-047470FM-12+021299999V0209999C000010075019N0200001N1+02631+02211101341ADDAA199000091GF106991061021008001001001KA1240N+02371MA1999999098941MD1999999+0141REMSYN076AAXX  27124 82765 32598 60000 10263 20221 39894 40134 86200 333 20237 58014;EQDQ01  00002PRCP99
0195827650999992000032718004-07330-047470FM-12+021299999V0201801N001010450019N0100001N1+03141+02131100821ADDAA199000091AY121061AY221061GF106991041021008001021001MA1999999098451MD1999999-0021MW1291REMSYN076AAXX  27184 82765 31597 61802 10314 20213 39845 40082 72922 84220 333 59002;EQDQ01  00002PRCP99
0220827650999992000032800004-07330-047470FM-12+021299999V0209999C000019999999N0200001N1+02521+02231101201ADDAA199000091GA1091+999999999GF109991091999999999999999KA1240M+03241MA1999999098801MD1999999+0051MW1131REMSYN088AAXX  28004 82765 31/98 90000 10252 20223 39880 40120 713// 333 10324 29075 55047 58005;EQDQ01  00002PRCP99
0186827650999992000032812004-07330-047470FM-12+021299999V0203201N002110120019N0200001N1+02521+02231101491ADDAA199000091GF108991081081008001999999KA1240N+02191MA1999999099081MD1999999+0141REMSYN076AAXX  28124 82765 32598 83204 10252 20223 39908 40149 888// 333 20219 58014;EQDQ01  00002PRCP99
0182827650999992000032818004-07330-047470FM-12+021299999V0209999C000010450019N0200001N1+02591+02331101151ADDAA106010991AY161061AY221061GF107991041081004501021001MA1999999098741MD1999999+0291MW1031REMSYN082AAXX  28184 82765 21498 70000 10259 20233 39874 40115 70362 84820 333 58029 60111;
0208827650999992000032900004-07330-047470FM-12+021299999V0209999C000010024019N0100001N1+02361+02291101211ADDAA199000091GA1091+999999999GF109991091999999999999999KA1240M+02711MA1999999098801MD1999999+0001REMSYN082AAXX  29004 82765 32/97 90000 10236 20229 39880 40121 333 10271 29090 55001 58000;EQDQ01  00002PRCP99
0173827650999992000032912004-07330-047470FM-12+021299999V0209999C000010021019N0200001N1+02411+02301101451ADDAA124010991GF108991081071002501999999KA1240N+02241MA1999999099031MD1999999-0051REMSYN082AAXX  29124 82765 22398 80000 10241 20230 39903 40145 887// 333 20224 59005 60114;
0182827650999992000032918004-07330-047470FM-12+021299999V0200901N002610450019N0040001N1+02471+02231101061ADDAA106000191AY161061AY221061GF107991041031002501021001MA1999999098651MD1999999-0091MW1291REMSYN082AAXX  29184 82765 21396 70905 10247 20223 39865 40106 72962 84320 333 59009 69911;
0208827650999992000033000004-07330-047470FM-12+021299999V0209999C000010024019N0100001N1+02281+02141101311ADDAA199000091GA1091+999999999GF109991091999999999999999KA1240M+03041MA1999999098891MD1999999+0091REMSYN082AAXX  30004 82765 32/97 90000 10228 20214 39889 40131 333 10304 29091 55032 58009;EQDQ01  00002PRCP99
0173827650999992000033012004-07330-047470FM-12+021299999V0209999C000010120019N0200001N1+02401+02211101441ADDAA124000191GF108991081081008001999999KA1240N+02191MA1999999099021MD1999999-0011REMSYN082AAXX  30124 82765 22598 80000 10240 20221 39902 40144 888// 333 20219 59001 69914;
0214827650999992000033100004-07330-047470FM-12+021299999V0209999C000019999999N0200001N1+02481+02091101181ADDAA199000091GA1091+999999999GF109991091999999999999999KA1240M+03221MA1999999098771MD1999999-0121REMSYN088AAXX  31004 82765 31/98 90000 10248 20209 39877 40118 7//99 333 10322 29076 55054 59012;EQDQ01  00002PRCP99
0179827650999992000033112004-07330-047470FM-12+021299999V0209999C000012200019N0200001N1+02641+02121101421ADDAA124002091GF103991011011008001031001KA1240N+02641MA1999999099021MD1999999+0001REMSYN088AAXX  31124 82765 21598 30000 10264 20212 39902 40142 7//95 81130 333 20264 58000 60024;
0167827650999992000033118004-07330-047470FM-12+021299999V0200501N002610450019N0200001N1+03101+02121100931ADDAA199000091GF106991031021008001041001MA1999999098561MD1999999-0021REMSYN070AAXX  31184 82765 32598 60505 10310 20212 39856 40093 83240 333 59002;EQDQ01  00002PRCP99
0220827650999992000040100004-07330-047470FM-12+021299999V0209999C000019999999N0200001N1+02601+02231101171ADDAA199000091GA1091+999999999GF109991091999999999999999KA1240M+03241MA1999999098781MD1999999+0011MW1131REMSYN088AAXX  01004 82765 31/98 90000 10260 20223 39878 40117 713// 333 10324 29073 55010 58001;EQDQ01  00002PRCP99
0186827650999992000040112004-07330-047470FM-12+021299999V0202701N000510120019N0200001N1+02621+02291101581ADDAA199000091GF107991051081008001041001KA1240N+02051MA1999999099181MD1999999+0161REMSYN076AAXX  01124 82765 32598 72701 10262 20229 39918 40158 85840 333 20205 58016;EQDQ01  00002PRCP99
0182827650999992000040118004-07330-047470FM-12+021299999V0200501N002610450019N0200001N1+02801+02221101141ADDAA106001091AY191061AY251061GF108991041031008001021999MA1999999099761MD1999999+0201MW1291REMSYN082AAXX  01184 82765 21598 80505 10280 20222 39976 40114 72995 8432/ 333 58020 60011;
0224827650999992000040200004-07330-047470FM-12+021299999V0209999C000019999999N0200001N1+02501+02311101311ADDAA199000091GA1091+999999999GF109991091999999999999999KA1240M+03041MA1999999098912MD1999999+0131REMSYN082AAXX  02004 82765 32/98 90000 10250 20231 39891 40131 333 10304 29083 55017 58013;EQDQ01+098913APOSP Q02  00002PRCP99
0173827650999992000040212004-07330-047470FM-12+021299999V0209999C000010120019N0200001N1+02491+02211101531ADDAA124001091GF107991071081008001001001KA1240N+02301MA1999999099121MD1999999-0061REMSYN082AAXX  02124 82765 22598 70000 10249 20221 39912 40153 87800 333 20230 59006 60014;
0167827650999992000040218004-07330-047470FM-12+021299999V0202301N001510075019N0200001N1+03161+02171101081ADDAA199000091GF106991061021008001001001MA1999999098701MD1999999-0061REMSYN070AAXX  02184 82765 32598 62303 10316 20217 39870 40108 86200 333 59006;EQDQ01  00002PRCP99
0223827650999992000040300004-07330-047470FM-12+021299999V0209999C000010024019N0100001N1+02441+02341101371ADDAA106004191AY161061AY221061GA1091+999999999GF109991091999999999999999KA1240M+03251MA1999999098961MD1999999+0051MW1131REMSYN094AAXX  03004 82765 21/97 90000 10244 20234 39896 40137 71362 333 10325 29082 55066 58005 60041;
0173827650999992000040312004-07330-047470FM-12+021299999V0201401N001510075019N0200001N1+02611+02191101541ADDAA124004191GF105991051021008001001001KA1240N+02321MA1999999099131MD1999999+0011REMSYN082AAXX  03124 82765 22598 51403 10261 20219 39913 40154 85200 333 20232 58001 60044;
0167827650999992000040318004-07330-047470FM-12+021299999V0201401N001510075019N0200001N1+03121+02221101031ADDAA199000091GF105991051031008001001001MA1999999098651MD1999999-0051REMSYN070AAXX  03184 82765 32598 51403 10312 20222 39865 40103 85300 333 59005;EQDQ01  00002PRCP99
0220827650999992000040400004-07330-047470FM-12+021299999V0209999C000019999999N0200001N1+02521+02331101391ADDAA199000091GA1091+999999999GF109991091999999999999999KA1240M+03161MA1999999098991MD1999999+0031MW1291REMSYN088AAXX  04004 82765 31/98 90000 10252 20233 39899 40139 729// 333 10316 29079 55087 58003;EQDQ01  00002PRCP99
0201827650999992000040412004-07330-047470FM-12+021299999V0209999C000010450019N0200001N1+02561+02271101521ADDAA124020191AY161061AY221061GF105991031011008001031001KA1240N+02171MA1999999099111MD1999999-0021MW1021REMSYN088AAXX  04124 82765 21598 50000 10256 20227 39911 40152 70262 83130 333 20217 59002 60204;
0182827650999992000040418004-07330-047470FM-12+021299999V0203201N000510450019N0200001N1+02791+02341101101ADDAA106003091AY161061AY221061GF105991031031008001021001MA1999999098701MD1999999+0051MW1031REMSYN082AAXX  04184 82765 21598 53201 10279 20234 39870 40110 70362 83320 333 58005 60031;
0208827650999992000040500004-07330-047470FM-12+021299999V0209999C000010024019N0100001N1+02561+02421101321ADDAA199000091GA1091+999999999GF109991091999999999999999KA1240M+03091MA1999999098921MD1999999-0071REMSYN082AAXX  05004 82765 32/97 90000 10256 20242 39892 40132 333 10309 29086 55076 59007;EQDQ01  00002PRCP99
0173827650999992000040512004-07330-047470FM-12+021299999V0209999C000010450019N0200001N1+02661+02331101521ADDAA124003091GF105991031021008001041001KA1240N+02211MA1999999099131MD1999999+0021REMSYN082AAXX  05124 82765 22598 50000 10266 20233 39913 40152 83240 333 20221 58002 60034;
0167827650999992000040518004-07330-047470FM-12+021299999V0200501N000510075019N0200001N1+03201+02181101111ADDAA199000091GF106991051021008001041001MA1999999098741MD1999999+0041REMSYN070AAXX  05184 82765 32598 60501 10320 20218 39874 40111 85240 333 58004;EQDQ01  00002PRCP99
0220827650999992000040600004-07330-047470FM-12+021299999V0209999C000019999999N0200001N1+02741+02301101281ADDAA199000091GA1091+999999999GF109991091999999999999999KA1240M+03281MA1999999098881MD1999999-0041MW1131REMSYN088AAXX  06004 82765 31/98 90000 10274 20230 39888 40128 713// 333 10328 29073 55094 59004;EQDQ01  00002PRCP99
0192827650999992000040612004-07330-047470FM-12+021299999V0209999C000011050019N0200001N1+02601+02321101471ADDAA199000091GF105991021011008001041041KA1240N+02251MA1999999099071MD1999999-0061REMSYN082AAXX  06124 82765 31598 50000 10260 20232 39907 40147 7//99 82144 333 20225 59006;EQDQ01  00002PRCP99
0167827650999992000040618004-07330-047470FM-12+021299999V0200501N000510450019N0200001N1+03241+02061101091ADDAA199000091GF106991031011008001031071MA1999999098721MD1999999-0021REMSYN070AAXX  06184 82765 32598 60501 10324 20206 39872 40109 83137 333 59002;EQDQ01  00002PRCP99
0220827650999992000040700004-07330-047470FM-12+021299999V0209999C000019999999N0200001N1+02721+02371101241ADDAA199000091GA1091+999999999GF109991091999999999999999KA1240M+03261MA1999999098851MD1999999-0031MW1131REMSYN088AAXX  07004 82765 31/98 90000 10272 20237 39885 40124 713// 333 10326 29073 55073 59003;EQDQ01  00002PRCP99
0186827650999992000040712004-07330-047470FM-12+021299999V0209999C000010450019N0200001N1+02561+02251101321ADDAA199000091GF106991041081008001041001KA1240N+02331MA1999999098931MD1999999-0141REMSYN076AAXX  07124 82765 32598 60000 10256 20225 39893 40132 84840 333 20233 59014;EQDQ01  00002PRCP99
0167827650999992000040718004-07330-047470FM-12+021299999V0201401N001510450019N0200001N1+03201+02241100941ADDAA199000091GF106991031021008001041071MA1999999098581MD1999999-0141REMSYN070AAXX  07184 82765 32598 61403 10320 20224 39858 40094 83247 333 59014;EQDQ01  00002PRCP99
0208827650999992000040800004-07330-047470FM-12+021299999V0209999C000019999999N0200001N1+02701+02281101181ADDAA199000091GA1091+999999999GF109991091999999999999999KA1240M+03241MA1999999098791MD1999999-0061REMSYN082AAXX  08004 82765 32/98 90000 10270 20228 39879 40118 333 10324 29074 55058 59006;EQDQ01  00002PRCP99
0186827650999992000040812004-07330-047470FM-12+021299999V0200501N001510120019N0200001N1+02581+02291101391ADDAA199000091GF107991071081008001001001KA1240N+02191MA1999999099001MD1999999+0071REMSYN076AAXX  08124 82765 32598 70503 10258 20229 39900 40139 87800 333 20219 58007;EQDQ01  00002PRCP99
0167827650999992000040818004-07330-047470FM-12+021299999V0209999C000010120019N0200001N1+02751+02241101121ADDAA199000091GF107991071081008001001001MA1999999098711MD1999999+0131REMSYN070AAXX  08184 82765 32598 70000 10275 20224 39871 40112 87800 333 58013;EQDQ01  00002PRCP99
0208827650999992000040900004-07330-047470FM-12+021299999V0209999C000012200019N0200001N1+02461+02301101171ADDAA199000091GA1001+999999999GF100991001001999999001001KA1240M+02941MA1999999098771MD1999999-0021REMSYN082AAXX  09004 82765 32998 00000 10246 20230 39877 40117 333 10294 29085 55022 59002;EQDQ01  00002PRCP99
0186827650999992000040912004-07330-047470FM-12+021299999V0209999C000010450019N0200001N1+02511+02361101381ADDAA199000091GF106991041081008001031001KA1240N+02251MA1999999098971MD1999999-0031REMSYN076AAXX  09124 82765 32598 60000 10251 20236 39897 40138 84830 333 20225 59003;EQDQ01  00002PRCP99
0167827650999992000040918004-07330-047470FM-12+021299999V0209999C000010450019N0200001N1+03161+02231100941ADDAA199000091GF107991041021008001021001MA1999999098561MD1999999-0151REMSYN070AAXX  09184 82765 32598 70000 10316 20223 39856 40094 84220 333 59015;EQDQ01  00002PRCP99
0208827650999992000041000004-07330-047470FM-12+021299999V0209999C000019999999N0200001N1+02671+02331101101ADDAA199000091GA1091+999999999GF109991091999999999999999KA1240M+03271MA1999999098711MD1999999-0061REMSYN082AAXX  10004 82765 32/98 90000 10267 20233 39871 40110 333 10327 29078 55053 59006;EQDQ01  00002PRCP99
0186827650999992000041012004-07330-047470FM-12+021299999V0209999C000010450019N0200001N1+02621+02311101361ADDAA199000091GF107991041081008001021001KA1240N+02371MA1999999098971MD1999999+0001REMSYN076AAXX  10124 82765 32598 70000 10262 20231 39897 40136 84820 333 20237 58000;EQDQ01  00002PRCP99
0182827650999992000041018004-07330-047470FM-12+021299999V0201401N001510450019N0200001N1+02511+02191101031ADDAA106000191AY161061AY221061GF108991041021008001021999MA1999999098631MD1999999+0071MW1031REMSYN082AAXX  10184 82765 21598 81403 10251 20219 39863 40103 70362 8422/ 333 58007 69911;
0208827650999992000041100004-07330-047470FM-12+021299999V02099999999999999999N0200001N1+02361+02261101301ADDAA199000091GA1091+999999999GF109991091999999999999999KA1240M+02721MA1999999098891MD1999999+0181REMSYN082AAXX  11004 82765 32/98 9000/ 10236 20226 39889 40130 333 10272 29094 55001 58018;EQDQ01  00002PRCP99
0173827650999992000041112004-07330-047470FM-12+021299999V0209999C000010450019N0200001N1+02601+02121101521ADDAA124000191GF106991041021008001041001KA1240N+02251MA1999999099111MD1999999+0141REMSYN082AAXX  11124 82765 22598 60000 10260 20212 39911 40152 84240 333 20225 58014 69914;
0179827650999992000041118004-07330-047470FM-12+021299999V0209999C000010450019N0200001N1+03101+02091101031ADDAA199000091GF106991021031008001041001MA1999999098651MD1999999+0021MW1291REMSYN076AAXX  11184 82765 31598 60000 10310 20209 39865 40103 729// 82340 333 58002;EQDQ01  00002PRCP99
0220827650999992000041200004-07330-047470FM-12+021299999V0200501N001019999999N0200001N1+02421+02251101331ADDAA199000091GA1091+999999999GF109991091999999999999999KA1240M+03161MA1999999098921MD1999999+0031MW1131REMSYN088AAXX  12004 82765 31/98 90502 10242 20225 39892 40133 713// 333 10316 29078 55067 58003;EQDQ01  00002PRCP99
0179827650999992000041212004-07330-047470FM-12+021299999V0209999C000010450019N0200001N1+02461+02211101441ADDAA124001091GF108991031081008001021999KA1240N+02231MA1999999099031MD1999999-0091REMSYN088AAXX  12124 82765 21598 80000 10246 20221 39903 40144 7//55 8382/ 333 20223 59009 60014;
0173827650999992000041218004-07330-047470FM-12+021299999V0209999C000010450019N0200001N1+03061+02081101041ADDAA199000091GF106991041021008001041001MA1999999098661MD1999999+0011REMSYN076AAXX  12184 82765 31598 60000 10306 20208 39866 40104 7//99 84240 333 58001;EQDQ01  00002PRCP99
0214827650999992000041300004-07330-047470FM-12+021299999V0209999C000019999999N0200001N1+02461+02301101321ADDAA199000091GA1091+999999999GF109991091999999999999999KA1240M+03181MA1999999098911MD1999999-0011REMSYN088AAXX  13004 82765 31/98 90000 10246 20230 39891 40132 7//99 333 10318 29081 55026 59001;EQDQ01  00002PRCP99
0186827650999992000041312004-07330-047470FM-12+021299999V0209999C000010120019N0200001N1+02481+02191101541ADDAA199000091GF108991081081008001999999KA1240N+02211MA1999999099131MD1999999+0101REMSYN076AAXX  13124 82765 32598 80000 10248 20219 39913 40154 888// 333 20221 58010;EQDQ01  00002PRCP99
0167827650999992000041318004-07330-047470FM-12+021299999V0209999C000010450019N0200001N1+03061+02221101001ADDAA199000091GF106991041021008001041001MA1999999098671MD1999999+0011REMSYN070AAXX  13184 82765 32598 60000 10306 20222 39867 40100 84240 333 58001;EQDQ01  00002PRCP99
0198827650999992000041400004-07330-047470FM-12+021299999V0209999C000012200019N0200001N1+02621+02311101151ADDAA199000091GF103991021011008001031001KA1240M+03181MA1999999098751MD1999999-0161REMSYN088AAXX  14004 82765 32598 30000 10262 20231 39875 40115 82130 333 10318 29078 55057 59016;EQDQ01  00002PRCP99
0182827650999992000041418004-07330-047470FM-12+021299999V0209999C000010450019N0200001N1+02211+02081101331ADDAA106020191AY161061AY221061GF108991041081004501021999MA1999999098891MD1999999+0221MW1031REMSYN082AAXX  14184 82765 21498 80000 10221 20208 39889 40133 70362 8482/ 333 58022 60201;
0198827650999992000041500004-07330-047470FM-12+021299999V0209999C000010450019N0200001N1+02221+02141101401ADDAA199000091GF108991041081004501021999KA1240M+02611MA1999999098981MD1999999+0231REMSYN088AAXX  15004 82765 32498 80000 10222 20214 39898 40140 8482/ 333 10261 29094 55001 58023;EQDQ01  00002PRCP99
0173827650999992000041512004-07330-047470FM-12+021299999V0209999C000010120019N0200001N1+02441+02191101721ADDAA124020191GF108991081081008001999999KA1240N+02211MA1999999099291MD1999999+0161REMSYN082AAXX  15124 82765 22598 80000 10244 20219 39929 40172 888// 333 20221 58016 60204;
0167827650999992000041518004-07330-047470FM-12+021299999V0209999C000010450019N0200001N1+03041+02481101211ADDAA199000091GF105991041021008001041001MA1999999098831MD1999999-0061REMSYN070AAXX  15184 82765 32598 50000 10304 20248 39883 40121 84240 333 59006;EQDQ01  00002PRCP99
0198827650999992000041600004-07330-047470FM-12+021299999V0209999C000012200019N0200001N1+02561+02361101421ADDAA199000091GF102991011011008001031001KA1240M+03121MA1999999099011MD1999999+0031REMSYN088AAXX  16004 82765 32598 20000 10256 20236 39901 40142 81130 333 10312 29082 55052 58003;EQDQ01  00002PRCP99
0201827650999992000041612004-07330-047470FM-12+021299999V0209999C000010120019N0200001N1+02581+02391101731ADDAA124004191AY161061AY221061GF107991071081008001001001KA1240N+02231MA1999999099321MD1999999+0031MW1031REMSYN088AAXX  16124 82765 21598 70000 10258 20239 39932 40173 70362 87800 333 20223 58003 60044;
0167827650999992000041618004-07330-047470FM-12+021299999V0209999C000010450019N0200001N1+03221+02201101061ADDAA199000091GF105991031031008001041001MA1999999098681MD1999999-0151REMSYN070AAXX  16184 82765 32598 50000 10322 20220 39868 40106 83340 333 59015;EQDQ01  00002PRCP99
0198827650999992000041700004-07330-047470FM-12+021299999V0209999C000012200019N0200001N1+02671+02371101271ADDAA199000091GF103991031011008001001001KA1240M+03291MA1999999098871MD1999999-0141REMSYN088AAXX  17004 82765 32598 30000 10267 20237 39887 40127 83100 333 10329 29078 55086 59014;EQDQ01  00002PRCP99
0186827650999992000041712004-07330-047470FM-12+021299999V0200501N000510450019N0200001N1+02701+02371101501ADDAA199000091GF106991041021008001041001KA1240N+02331MA1999999099111MD1999999-0151REMSYN076AAXX  17124 82765 32598 60501 10270 20237 39911 40150 84240 333 20233 59015;EQDQ01  00002PRCP99
0179827650999992000041718004-07330-047470FM-12+021299999V0200501N001010450019N0200001N1+03141+02211101071ADDAA199000091GF106991021031008001041001MA1999999098701MD1999999+0021MW1291REMSYN076AAXX  17184 82765 31598 60502 10314 20221 39870 40107 729// 82340 333 58002;EQDQ01  00002PRCP99
0191827650999992000041800004-07330-047470FM-12+021299999V0209999C000010120019N0200001N1+02301+02181101311ADDAA106030091GF108991081081008001999999KA1240M+03241MA1999999098901MD1999999+0031REMSYN100AAXX  18004 82765 21598 80000 10230 20218 39890 40131 7//96 888// 333 10324 29082 55070 58003 60301;
0173827650999992000041812004-07330-047470FM-12+021299999V0209999C000010120019N0200001N1+02521+02211101591ADDAA124030091GF105991051081008001001001KA1240N+02191MA1999999099171MD1999999+0061REMSYN082AAXX  18124 82765 22598 50000 10252 20221 39917 40159 85800 333 20219 58006 60304;
0167827650999992000041818004-07330-047470FM-12+021299999V0209999C000010450019N0200001N1+02781+02231101141ADDAA199000091GF105991041021008001041001MA1999999098741MD1999999+0041REMSYN070AAXX  18184 82765 32598 50000 10278 20223 39874 40114 84240 333 58004;EQDQ01  00002PRCP99
0192827650999992000041900004-07330-047470FM-12+021299999V0209999C000012200019N0200001N1+02541+02331101301ADDAA199000091GF103991999999008001999999KA1240M+03061MA1999999098901MD1999999+0001REMSYN082AAXX  19004 82765 32598 30000 10254 20233 39890 40130 333 10306 29083 55062 58000;EQDQ01  00002PRCP99
0186827650999992000041912004-07330-047470FM-12+021299999V0209999C000010120019N0200001N1+02541+02351101571ADDAA199000091GF107991061081008001041001KA1240N+02231MA1999999099161MD1999999-0011REMSYN076AAXX  19124 82765 32598 70000 10254 20235 39916 40157 86840 333 20223 59001;EQDQ01  00002PRCP99
0179827650999992000041918004-07330-047470FM-12+021299999V0200501N002110450019N0200001N1+03061+02301101081ADDAA199000091GF105991021031008001041001MA1999999098701MD1999999-0041MW1291REMSYN076AAXX  19184 82765 31598 50504 10306 20230 39870 40108 729// 82340 333 59004;EQDQ01  00002PRCP99
0210827650999992000042000004-07330-047470FM-12+021299999V0209999C000012200019N0200001N1+02621+02351101281ADDAA199000091GF104991031021008001041001KA1240M+03141MA1999999098881MD1999999-0021MW1131REMSYN094AAXX  20004 82765 31598 40000 10262 20235 39888 40128 713// 83240 333 10314 29081 55062 59002;EQDQ01  00002PRCP99
0186827650999992000042012004-07330-047470FM-12+021299999V0203601N001510450019N0200001N1+02621+02251101531ADDAA199000091GF107991041081008001021001KA1240N+02111MA1999999099011MD1999999-0031REMSYN076AAXX  20124 82765 32598 73603 10262 20225 39901 40153 84820 333 20211 59003;EQDQ01  00002PRCP99
0182827650999992000042118004-07330-047470FM-12+021299999V0209999C000010075019N0200001N1+02651+02391100981ADDAA106000591AY161061AY221061GF105991051031008001001001MA1999999098581MD1999999-0071MW1031REMSYN082AAXX  21184 82765 21598 50000 10265 20239 39858 40098 70362 85300 333 59007 69941;
0236827650999992000042200004-07330-047470FM-12+021299999V0209999C000010024019N0100001N1+02571+02401101221ADDAA199000091AY121061AY221061GA1091+999999999GF109991091999999999999999KA1240M+03161MA1999999098831MD1999999-0111MW1131REMSYN088AAXX  22004 82765 31/97 90000 10257 20240 39883 40122 71322 333 10316 29088 55056 59011;EQDQ01  00002PRCP99
0167827650999992000042218004-07330-047470FM-12+021299999V0203201N000510450019N0200001N1+03151+02301100971ADDAA199000091GF106991031021008001041001MA1999999098591MD1999999+0011REMSYN070AAXX  22184 82765 32598 63201 10315 20230 39859 40097 83240 333 58001;EQDQ01  00002PRCP99
0223827650999992000042300004-07330-047470FM-12+021299999V0209999C000010024019N0100001N1+02501+02311101291ADDAA106001091AY161061AY221061GA1091+999999999GF109991091999999999999999KA1240M+03261MA1999999098881MD1999999+0051MW1131REMSYN094AAXX  23004 82765 21/97 90000 10250 20231 39888 40129 71362 333 10326 29082 55075 58005 69991;
0173827650999992000042312004-07330-047470FM-12+021299999V0209999C000010120019N0200001N1+02521+02331101491ADDAA124001091GF108991081081008001999999KA1240N+02331MA1999999098081MD1999999+0081REMSYN082AAXX  23124 82765 22598 80000 10252 20233 39808 40149 888// 333 20233 58008 69994;
0179827650999992000042318004-07330-047470FM-12+021299999V0201801N000510450019N0200001N1+03021+02391101111ADDAA199000091GF105991021031008001041001MA1999999098731MD1999999+0141MW1291REMSYN076AAXX  23184 82765 31598 51801 10302 20239 39873 40111 729// 82340 333 58014;EQDQ01  00002PRCP99
0220827650999992000042400004-07330-047470FM-12+021299999V0209999C000019999999N0200001N1+02701+02411101301ADDAA199000091GA1091+999999999GF109991091999999999999999KA1240M+03201MA1999999098901MD1999999+0021MW1131REMSYN088AAXX  24004 82765 31/98 90000 10270 20241 39890 40130 713// 333 10320 29082 55066 58002;EQDQ01  00002PRCP99
0195827650999992000042418004-07330-047470FM-12+021299999V0200501N001010450019N0200001N1+02861+02371101111ADDAA199000091AY191061AY291061GF105991021031008001041001MA1999999098711MD1999999-0021MW1291REMSYN076AAXX  24184 82765 31598 50502 10286 20237 39871 40111 72999 82340 333 59002;EQDQ01  00002PRCP99
0236827650999992000042500004-07330-047470FM-12+021299999V0209999C000019999999N0200001N1+02521+02231101321ADDAA199000091AY191061AY291061GA1091+999999999GF109991091999999999999999KA1240M+03001MA1999999098911MD1999999+0011MW1131REMSYN088AAXX  25004 82765 31/98 90000 10252 20223 39891 40132 71399 333 10300 29082 55044 58001;EQDQ01  00002PRCP99
0179827650999992000042512004-07330-047470FM-12+021299999V0209999C000010120019N0200001N1+02321+02201101451ADDAA124015091GF108991061081008001021999KA1240N+02211MA1999999099041MD1999999+0081REMSYN088AAXX  25124 82765 21598 80000 10232 20220 39904 40145 7//66 8682/ 333 20221 58008 60154;
0160827650999992000042518004-07330-047470FM-12+021299999V0209999C000010120019N0200001N1+02641+02331101091ADDAA106014091GF107991051081008001021001MA1999999098701MD1999999-0011REMSYN082AAXX  25184 82765 21598 70000 10264 20233 39870 40109 7//66 85820 333 59001 60141;
0236827650999992000042600004-07330-047470FM-12+021299999V0209999C000019999999N0200001N1+02401+02301101451ADDAA199000091AY191061AY291061GA1091+999999999GF109991091999999999999999KA1240M+02781MA1999999099031MD1999999+0121MW1131REMSYN088AAXX  26004 82765 31/98 90000 10240 20230 39903 40145 71399 333 10278 29091 55004 58012;EQDQ01  00002PRCP99
0201827650999992000042612004-07330-047470FM-12+021299999V0209999C000010042019N0200001N1+02561+02331101551ADDAA124016091AY161061AY221061GF106991061021004501001001KA1240N+02301MA1999999099141MD1999999+0101MW1031REMSYN088AAXX  26124 82765 21498 60000 10256 20233 39914 40155 70362 86200 333 20230 58010 60164;
0167827650999992000042618004-07330-047470FM-12+021299999V0200901N001010450019N0200001N1+03091+02071101111ADDAA199000091GF105991031021008001061041MA1999999098731MD1999999+0031REMSYN070AAXX  26184 82765 32598 50902 10309 20207 39873 40111 83264 333 58003;EQDQ01  00002PRCP99
0208827650999992000042700004-07330-047470FM-12+021299999V0209999C000012200019N0200001N1+02571+02271101361ADDAA199000091GA1001+999999999GF100991001001999999001001KA1240M+03181MA1999999098961MD1999999-0071REMSYN082AAXX  27004 82765 32998 00000 10257 20227 39896 40136 333 10318 29078 55085 59007;EQDQ01  00002PRCP99
0186827650999992000042712004-07330-047470FM-12+021299999V0209999C000012200019N0200001N1+02691+02221101601ADDAA199000091GF102991011011012501061001KA1240N+02191MA1999999099201MD1999999+0061REMSYN076AAXX  27124 82765 32698 20000 10269 20222 39920 40160 81160 333 20219 58006;EQDQ01  00002PRCP99
0167827650999992000042718004-07330-047470FM-12+021299999V0209999C000012200019N0200001N1+03141+02101101201ADDAA199000091GF104991041021008001001001MA1999999098811MD1999999+0081REMSYN070AAXX  27184 82765 32598 40000 10314 20210 39881 40120 84200 333 58008;EQDQ01  00002PRCP99
0208827650999992000042800004-07330-047470FM-12+021299999V0209999C000012200019N0200001N1+02621+02271101361ADDAA199000091GA1001+999999999GF100991001001999999001001KA1240M+03231MA1999999098971MD1999999+0011REMSYN082AAXX  28004 82765 32998 00000 10262 20227 39897 40136 333 10323 29073 55104 58001;EQDQ01  00002PRCP99
0196827650999992000042812004-07330-047470FM-12+021299999V0209999C000012200019N0200001N1+02741+02171101581ADDAA199000091GA1001+999999999GF100991001001999999001001KA1240N+02121MA1999999099191MD1999999-0011REMSYN070AAXX  28124 82765 32998 00000 10274 20217 39919 40158 333 20212 59001;EQDQ01  00002PRCP99
0167827650999992000042818004-07330-047470FM-12+021299999V0201801N001512200019N0200001N1+03221+01981101241ADDAA199000091GF102991021021008001001001MA1999999098851MD1999999+0041REMSYN070AAXX  28184 82765 32598 21803 10322 20198 39885 40124 82200 333 58004;EQDQ01  00002PRCP99
0208827650999992000042900004-07330-047470FM-12+021299999V0209999C000012200019N0200001N1+02581+02291101391ADDAA199000091GA1001+999999999GF100991001001999999001001KA1240M+03251MA1999999099001MD1999999+0031REMSYN082AAXX  29004 82765 32998 00000 10258 20229 39900 40139 333 10325 29072 55107 58003;EQDQ01  00002PRCP99
0186827650999992000042912004-07330-047470FM-12+021299999V0209999C000012200019N0200001N1+02661+02221101611ADDAA199000091GF102991021011008001001001KA1240N+02211MA1999999099211MD1999999+0021REMSYN076AAXX  29124 82765 32598 20000 10266 20222 39921 40161 82100 333 20221 58002;EQDQ01  00002PRCP99
0179827650999992000042918004-07330-047470FM-12+021299999V0200501N002110450019N0200001N1+03101+02151101291ADDAA199000091GF107991021031008001041001MA1999999098861MD1999999+0011MW1291REMSYN076AAXX  29184 82765 31598 70504 10310 20215 39886 40129 729// 82340 333 58001;EQDQ01  00002PRCP99
0224827650999992000043000004-07330-047470FM-12+021299999V0209999C000019999999N0200001N1+02481+02271101441ADDAA199000091GA1091+999999999GF109991091999999999999999KA1240M+03161MA1999999100942MD1999999+0041REMSYN082AAXX  30004 82765 32/98 90000 10248 20227 30094 40144 333 10316 29078 55049 58004;EQDQ01+100943APOSP Q02  00002PRCP99
0186827650999992000043012004-07330-047470FM-12+021299999V0209999C000012200019N0200001N1+02661+02241101551ADDAA199000091GF102991021011008001001001KA1240N+02191MA1999999099151MD1999999-0061REMSYN076AAXX  30124 82765 32598 20000 10266 20224 39915 40155 82100 333 20219 59006;EQDQ01  00002PRCP99
0167827650999992000043018004-07330-047470FM-12+021299999V0209999C000012200019N0200001N1+03101+02181101121ADDAA199000091GF104991031021008001041001MA1999999098731MD1999999-0131REMSYN070AAXX  30184 82765 32598 40000 10310 20218 39873 40112 83240 333 59013;EQDQ01  00002PRCP99
0208827650999992000050100004-07330-047470FM-12+021299999V0209999C000012200019N0200001N1+02701+02371101331ADDAA199000091GA1001+999999999GF100991001001999999001001KA1240M+03241MA1999999098941MD1999999-0101REMSYN082AAXX  01004 82765 32998 00000 10270 20237 39894 40133 333 10324 29075 55067 59010;EQDQ01  00002PRCP99
0179827650999992000050112004-07330-047470FM-12+021299999V0209999C000012200019N0200001N1+02641+02331101461ADDAA124009991GF104991031021008001041001KA1240N+02371MA1999999099071MD1999999-0011REMSYN088AAXX  01124 82765 21598 40000 10264 20233 39907 40146 7//66 83240 333 20237 59001 60104;
0167827650999992000050118004-07330-047470FM-12+021299999V0209999C000012200019N0200001N1+03321+02011101091ADDAA199000091GF104991041021008001041001MA1999999098731MD1999999+0001REMSYN070AAXX  01184 82765 32598 40000 10332 20201 39873 40109 84240 333 58000;EQDQ01  00002PRCP99
0208827650999992000050200004-07330-047470FM-12+021299999V0209999C000019999999N0200001N1+02601+02271101321ADDAA199000091GA1091+999999999GF109991091999999999999999KA1240M+03341MA1999999098921MD1999999-0021REMSYN082AAXX  02004 82765 32/98 90000 10260 20227 39892 40132 333 10334 29074 55080 59002;EQDQ01  00002PRCP99
0186827650999992000050212004-07330-047470FM-12+021299999V0209999C000012200019N0200001N1+02791+02301101421ADDAA199000091GF103991011011012501051041KA1240N+02271MA1999999099031MD1999999-0041REMSYN076AAXX  02124 82765 32698 30000 10279 20230 39903 40142 81154 333 20227 59004;EQDQ01  00002PRCP99
0167827650999992000050218004-07330-047470FM-12+021299999V0201401N001512200019N0200001N1+03281+02071101001ADDAA199000091GF103991031021008001001001MA1999999098631MD1999999-0101REMSYN070AAXX  02184 82765 32598 31403 10328 20207 39863 40100 83200 333 59010;EQDQ01  00002PRCP99
0208827650999992000050300004-07330-047470FM-12+021299999V0209999C000012200019N0200001N1+02661+02371101351ADDAA199000091GA1001+999999999GF100991001001999999001001KA1240M+03301MA1999999098961MD1999999+0041REMSYN082AAXX  03004 82765 32998 00000 10266 20237 39896 40135 333 10330 29073 55102 58004;EQDQ01  00002PRCP99
0186827650999992000050312004-07330-047470FM-12+021299999V0201401N001512200019N0200001N1+02761+02141101451ADDAA199000091GF102991011011012501051001KA1240N+02281MA1999999099061MD1999999+0031REMSYN076AAXX  03124 82765 32698 21403 10276 20214 39906 40145 81150 333 20228 58003;EQDQ01  00002PRCP99
0167827650999992000050318004-07330-047470FM-12+021299999V0201401N003112200019N0200001N1+03231+02011101001ADDAA199000091GF103991021021008001021001MA1999999098631MD1999999+0001REMSYN070AAXX  03184 82765 32598 31406 10323 20201 39863 40100 82220 333 58000;EQDQ01  00002PRCP99
0208827650999992000050400004-07330-047470FM-12+021299999V0209999C000012200019N0200001N1+02621+02271101171ADDAA199000091GA1001+999999999GF100991001001999999001001KA1240M+03261MA1999999098791MD1999999-0171REMSYN082AAXX  04004 82765 32998 00000 10262 20227 39879 40117 333 10326 29070 55105 59017;EQDQ01  00002PRCP99
0202827650999992000050512004-07330-047470FM-12+021299999V0200901N000512200019N0200001N1+02641+02071101421ADDAA199000091GF101991999011008001001001KA1240N+02171MA1999999099041MD1999999+0031REMSYN076AAXX  05124 82765 32598 10901 10264 20207 39904 40142 85100 333 20217 58003;EQDQ01+000052SCOTLCQ02  00002PRCP99
0167827650999992000050518004-07330-047470FM-12+021299999V0200901N001510450019N0200001N1+03261+02051101051ADDAA199000091GF106991041021008001041001MA1999999098671MD1999999+0021REMSYN070AAXX  05184 82765 32598 60903 10326 20205 39867 40105 84240 333 58002;EQDQ01  00002PRCP99
0208827650999992000050600004-07330-047470FM-12+021299999V0209999C000012200019N0200001N1+02641+02231101161ADDAA199000091GA1001+999999999GF100991001001999999001001KA1240M+03281MA1999999098771MD1999999+0001REMSYN082AAXX  06004 82765 32998 00000 10264 20223 39877 40116 333 10328 29069 55106 58000;EQDQ01  00002PRCP99
0186827650999992000050612004-07330-047470FM-12+021299999V0209999C000012200019N0200001N1+02601+02211101381ADDAA199000091GF103991021011008001041001KA1240N+02251MA1999999098981MD1999999-0061REMSYN076AAXX  06124 82765 32598 30000 10260 20221 39898 40138 82140 333 20225 59006;EQDQ01  00002PRCP99
0167827650999992000050618004-07330-047470FM-12+021299999V0200501N000510450019N0200001N1+03221+02111100981ADDAA199000091GF107991041011008001041071MA1999999098611MD1999999-0061REMSYN070AAXX  06184 82765 32598 70501 10322 20211 39861 40098 84147 333 59006;EQDQ01  00002PRCP99
0220827650999992000050700004-07330-047470FM-12+021299999V0209999C000019999999N0200001N1+02721+02301101171ADDAA199000091GA1091+999999999GF109991091999999999999999KA1240M+03261MA1999999098781MD1999999+0011MW1131REMSYN088AAXX  07004 82765 31/98 90000 10272 20230 39878 40117 713// 333 10326 29072 55063 58001;EQDQ01  00002PRCP99
0167827650999992000050718004-07330-047470FM-12+021299999V0200901N001510450019N0200001N1+03241+02361100981ADDAA199000091GF107991031021008001041071MA1999999098621MD1999999+0011REMSYN070AAXX  07184 82765 32598 70903 10324 20236 39862 40098 83247 333 58001;EQDQ01  00002PRCP99
0201827650999992000050800004-07330-047470FM-12+021299999V0209999C000019999999N0200001N1+02741+02381101211ADDAA106007991GA1091+999999999GF109991091999999999999999KA1240M+03321MA1999999098831MD1999999+0051REMSYN094AAXX  08004 82765 21/98 90000 10274 20238 39883 40121 7//66 333 10332 29076 55067 58005 60081;
0179827650999992000050812004-07330-047470FM-12+021299999V0209999C000010450019N0200001N1+02521+02311101601ADDAA124022191GF107991041081008001041001KA1240N+02271MA1999999099201MD1999999+0241REMSYN088AAXX  08124 82765 21598 70000 10252 20231 39920 40160 7//96 84840 333 20227 58024 60224;
0167827650999992000050818004-07330-047470FM-12+021299999V0209999C000010450019N0200001N1+03161+02341101191ADDAA199000091GF106991041021008001041001MA1999999098821MD1999999+0201REMSYN070AAXX  08184 82765 32598 60000 10316 20234 39882 40119 84240 333 58020;EQDQ01  00002PRCP99
0220827650999992000050900004-07330-047470FM-12+021299999V0209999C000019999999N0200001N1+02721+02451101351ADDAA199000091GA1091+999999999GF109991091999999999999999KA1240M+03241MA1999999098951MD1999999+0121MW1131REMSYN088AAXX  09004 82765 31/98 90000 10272 20245 39895 40135 713// 333 10324 29080 55073 58012;EQDQ01  00002PRCP99
0186827650999992000050912004-07330-047470FM-12+021299999V0209999C000010450019N0200001N1+02561+02401101661ADDAA199000091GF107991041081008001041001KA1240N+02371MA1999999099261MD1999999+0061REMSYN076AAXX  09124 82765 32598 70000 10256 20240 39926 40166 84840 333 20237 58006;EQDQ01  00002PRCP99
0167827650999992000050918004-07330-047470FM-12+021299999V0209999C000010450019N0200001N1+03161+02341101181ADDAA199000091GF107991031021008001041071MA1999999098811MD1999999-0011REMSYN070AAXX  09184 82765 32598 70000 10316 20234 39881 40118 83247 333 59001;EQDQ01  00002PRCP99
0208827650999992000051000004-07330-047470FM-12+021299999V0209999C000019999999N0200001N1+02661+02461101441ADDAA199000091GA1091+999999999GF109991091999999999999999KA1240M+03221MA1999999099041MD1999999+0091REMSYN082AAXX  10004 82765 32/98 90000 10266 20246 39904 40144 333 10322 29083 55037 58009;EQDQ01  00002PRCP99
0186827650999992000051012004-07330-047470FM-12+021299999V0209999C000010450019N0200001N1+02641+02331101681ADDAA199000091GF106991041021008001041001KA1240N+02311MA1999999099271MD1999999+0011REMSYN076AAXX  10124 82765 32598 60000 10264 20233 39927 40168 84240 333 20231 58001;EQDQ01  00002PRCP99
0214827650999992000051100004-07330-047470FM-12+021299999V0209999C000019999999N0200001N1+02501+02311101531ADDAA199000091GA1091+999999999GF109991091999999999999999KA1240M+03301MA1999999099121MD1999999+0081REMSYN088AAXX  11004 82765 31/98 90000 10250 20231 39912 40153 7//99 333 10330 29081 55061 58008;EQDQ01  00002PRCP99
0186827650999992000051112004-07330-047470FM-12+021299999V0209999C000012200019N0200001N1+02721+02301101541ADDAA199000091GF103991011011008001041001KA1240N+02231MA1999999099141MD1999999-0131REMSYN076AAXX  11124 82765 32598 30000 10272 20230 39914 40154 81140 333 20223 59013;EQDQ01  00002PRCP99
0167827650999992000051118004-07330-047470FM-12+021299999V0200501N001012200019N0200001N1+03321+02171101061ADDAA199000091GF104991041021008001001001MA1999999098691MD1999999-0201REMSYN070AAXX  11184 82765 32598 40502 10332 20217 39869 40106 84200 333 59020;EQDQ01  00002PRCP99
0198827650999992000051200004-07330-047470FM-12+021299999V0209999C000012200019N0200001N1+02761+02441101231ADDAA199000091GF103991021011008001041001KA1240M+03361MA1999999098851MD1999999-0071REMSYN088AAXX  12004 82765 32598 30000 10276 20244 39885 40123 82140 333 10336 29074 55105 59007;EQDQ01  00002PRCP99
0186827650999992000051212004-07330-047470FM-12+021299999V0209999C000012200019N0200001N1+02621+02351101521ADDAA199000091GF103991021011008001041001KA1240N+02271MA1999999099131MD1999999-0011REMSYN076AAXX  12124 82765 32598 30000 10262 20235 39913 40152 82140 333 20227 59001;EQDQ01  00002PRCP99
0167827650999992000051218004-07330-047470FM-12+021299999V0200901N002110450019N0200001N1+03301+02271101051ADDAA199000091GF106991021021008001041001MA1999999098681MD1999999-0011REMSYN070AAXX  12184 82765 32598 60904 10330 20227 39868 40105 82240 333 59001;EQDQ01  00002PRCP99
0208827650999992000051300004-07330-047470FM-12+021299999V0209999C000012200019N0200001N1+02641+02311101311ADDAA199000091GA1001+999999999GF100991001001999999001001KA1240M+03321MA1999999098921MD1999999+0071REMSYN082AAXX  13004 82765 32998 00000 10264 20231 39892 40131 333 10332 29076 55089 58007;EQDQ01  00002PRCP99
0186827650999992000051312004-07330-047470FM-12+021299999V0200901N002612200019N0200001N1+02741+01951101531ADDAA199000091GF102991011011008001041001KA1240N+02271MA1999999099141MD1999999+0041REMSYN076AAXX  13124 82765 32598 20905 10274 20195 39914 40153 81140 333 20227 58004;EQDQ01  00002PRCP99
0167827650999992000051318004-07330-047470FM-12+021299999V0201801N001512200019N0200001N1+03221+02911101191ADDAA199000091GF103991021011008001041001MA1999999098811MD1999999+0131REMSYN070AAXX  13184 82765 32598 31803 10322 20291 39881 40119 82140 333 58013;EQDQ01  00002PRCP99
0167827650999992000051418004-07330-047470FM-12+021299999V0200901N001012200019N0200001N1+03181+01941101211ADDAA199000091GF103991021021008001041001MA1999999098831MD1999999+0151REMSYN070AAXX  14184 82765 32598 30902 10318 20194 39883 40121 82240 333 58015;EQDQ01  00002PRCP99
0167827650999992000051518004-07330-047470FM-12+021299999V0201401N001512200019N0200001N1+03201+01891101071ADDAA199000091GF102991021011008001001001MA1999999098671MD1999999-0161REMSYN070AAXX  15184 82765 32598 21403 10320 20189 39867 40107 82100 333 59016;EQDQ01  00002PRCP99
0208827650999992000051600004-07330-047470FM-12+021299999V0209999C000012200019N0200001N1+02561+02191101201ADDAA199000091GA1001+999999999GF100991001001999999001001KA1240M+03101MA1999999098801MD1999999-0241REMSYN082AAXX  16004 82765 32998 00000 10256 20219 39880 40120 333 10310 29070 55107 59024;EQDQ01  00002PRCP99
0186827650999992000051612004-07330-047470FM-12+021299999V0209999C000010075019N0200001N1+02521+02091101431ADDAA199000091GF106991061011008001001001KA1240N+02041MA1999999099031MD1999999-0051REMSYN076AAXX  16124 82765 32598 60000 10252 20209 39903 40143 86100 333 20204 59005;EQDQ01  00002PRCP99
0167827650999992000051618004-07330-047470FM-12+021299999V0209999C000012200019N0200001N1+03291+01821100981ADDAA199000091GF101991011011008001001001MA1999999098601MD1999999-0071REMSYN070AAXX  16184 82765 32598 10000 10329 20182 39860 40098 81100 333 59007;EQDQ01  00002PRCP99
0198827650999992000051700004-07330-047470FM-12+021299999V0209999C000012200019N0200001N1+02671+02181101261ADDAA199000091GF103991031011008001001001KA1240M+03331MA1999999098861MD1999999+0061REMSYN088AAXX  17004 82765 32598 30000 10267 20218 39886 40126 83100 333 10333 29067 55098 58006;EQDQ01  00002PRCP99
0186827650999992000051712004-07330-047470FM-12+021299999V0209999C000012200019N0200001N1+02881+02181101451ADDAA199000091GF102991011011008001041001KA1240N+02431MA1999999099061MD1999999+0031REMSYN076AAXX  17124 82765 32598 20000 10288 20218 39906 40145 81140 333 20243 58003;EQDQ01  00002PRCP99
0167827650999992000051718004-07330-047470FM-12+021299999V0200901N001012200019N0200001N1+03441+02001100971ADDAA199000091GF103991031011008001001001MA1999999098621MD1999999+0021REMSYN070AAXX  17184 82765 32598 30902 10344 20200 39862 40097 83100 333 58002;EQDQ01  00002PRCP99
0198827650999992000051800004-07330-047470FM-12+021299999V0209999C000012200019N0200001N1+02821+02271101241ADDAA199000091GF101991011011008001001001KA1240M+03461MA1999999098861MD1999999+0001REMSYN088AAXX  18004 82765 32598 10000 10282 20227 39886 40124 81100 333 10346 29063 55105 58000;EQDQ01  00002PRCP99
0186827650999992000051812004-07330-047470FM-12+021299999V0202701N001012200019N0200001N1+02861+02601101481ADDAA199000091GF103991021011008001041001KA1240N+02071MA1999999099101MD1999999+0041REMSYN076AAXX  18124 82765 32598 32702 10286 20260 39910 40148 82140 333 20207 58004;EQDQ01  00002PRCP99
0167827650999992000051818004-07330-047470FM-12+021299999V0209999C000010450019N0200001N1+03321+01951101071ADDAA199000091GF106991041081008001041001MA1999999098711MD1999999+0091REMSYN070AAXX  18184 82765 32598 60000 10332 20195 39871 40107 84840 333 58009;EQDQ01  00002PRCP99
0204827650999992000051900004-07330-047470FM-12+021299999V0209999C000012200019N0200001N1+02761+02341101271ADDAA199000091GF103991999999008001999999KA1240M+03361MA1999999098891MD1999999+0031MW1131REMSYN088AAXX  19004 82765 31598 30000 10276 20234 39889 40127 713// 333 10336 29072 55087 58003;EQDQ01  00002PRCP99
0201827650999992000051912004-07330-047470FM-12+021299999V0209999C000010075019N0200001N1+02371+02221101711ADDAA124010991AY161061AY261061GF108991081051008001999999KA1240N+02131MA1999999099301MD1999999+0201MW1611REMSYN088AAXX  19124 82765 21598 80000 10237 20222 39930 40171 76166 885// 333 20213 58020 60114;
0160827650999992000051918004-07330-047470FM-12+021299999V0209999C000010450019N0200001N1+02881+02251101291ADDAA106000891GF106991041021008001041001MA1999999098901MD1999999+0191REMSYN082AAXX  19184 82765 21598 60000 10288 20225 39890 40129 7//55 84240 333 58019 69971;
0189827650999992000052000004-07330-047470FM-12+021299999V0209999C000019999999N0200001N1+02561+02361101541ADDAA199000021GA1091+999999999GF109991091999999999999999KA1240M+02921MA1999999099121MD1999999+0231REMSYN082AAXX  20004 82765 32/98 90000 10256 20236 39912 40154 333 10292 29085 55017 58023;
0201827650999992000052012004-07330-047470FM-12+021299999V0209999C000010450019N0200001N1+02631+02291101721ADDAA124001091AY161061AY221061GF106991041011008001031001KA1240N+02061MA1999999099311MD1999999+0011MW1021REMSYN088AAXX  20124 82765 21598 60000 10263 20229 39931 40172 70262 84130 333 20206 58001 69994;
0167827650999992000052018004-07330-047470FM-12+021299999V0201801N001012200019N0200001N1+03161+02141101261ADDAA199000091GF104991041021008001001001MA1999999098861MD1999999-0041REMSYN070AAXX  20184 82765 32598 41802 10316 20214 39886 40126 84200 333 59004;EQDQ01  00002PRCP99
0198827650999992000052100004-07330-047470FM-12+021299999V0209999C000012200019N0200001N1+02601+02331101451ADDAA199000091GF101991011011008001001001KA1240M+03221MA1999999099051MD1999999-0071REMSYN088AAXX  21004 82765 32598 10000 10260 20233 39905 40145 81100 333 10322 29077 55090 59007;EQDQ01  00002PRCP99
0201827650999992000052112004-07330-047470FM-12+021299999V0209999C000010075019N0200001N1+02551+02311101641ADDAA124022191AY161061AY221061GF107991061011008001031001KA1240N+02351MA1999999099241MD1999999-0071MW1021REMSYN088AAXX  21124 82765 21598 70000 10255 20231 39924 40164 70262 86130 333 20235 59007 60224;
0182827650999992000052118004-07330-047470FM-12+021299999V0209999C000010075019N0200001N1+02411+02261101451ADDAA106003091AY161061AY221061GF108991051071008001021999MA1999999099031MD1999999+0171MW1031REMSYN082AAXX  21184 82765 21598 80000 10241 20226 39903 40145 70362 8572/ 333 58017 60031;
0208827650999992000052200004-07330-047470FM-12+021299999V0209999C000010024019N0100001N1+02351+02241101631ADDAA199000091GA1091+999999999GF109991091999999999999999KA1240M+02911MA1999999099221MD1999999+0171REMSYN082AAXX  22004 82765 32/97 90000 10235 20224 39922 40163 333 10291 29081 55015 58017;EQDQ01  00002PRCP99
0173827650999992000052212004-07330-047470FM-12+021299999V0209999C000010042019N0200001N1+02451+02301101821ADDAA124003091GF107991071071004501001001KA1240N+02151MA1999999099391MD1999999+0151REMSYN082AAXX  22124 82765 22498 70000 10245 20230 39939 40182 87700 333 20215 58015 60034;
0167827650999992000052218004-07330-047470FM-12+021299999V0200501N001010075019N0200001N1+03091+02161101421ADDAA199000091GF106991061021008001001001MA1999999099021MD1999999-0011REMSYN070AAXX  22184 82765 32598 60502 10309 20216 39902 40142 86200 333 59001;EQDQ01  00002PRCP99
0186827650999992000052312004-07330-047470FM-12+021299999V0200501N003110075019N0200001N1+02661+02091101931ADDAA199000091GF105991051021008001001001KA1240N+02131MA1999999099521MD1999999+0131REMSYN076AAXX  23124 82765 32598 50506 10266 20209 39952 40193 85200 333 20213 58013;EQDQ01  00002PRCP99
0167827650999992000052318004-07330-047470FM-12+021299999V0200501N001012200019N0200001N1+03081+01851101541ADDAA199000091GF104991031021008001041001MA1999999099151MD1999999+0131REMSYN070AAXX  23184 82765 32598 40502 10308 20185 39915 40154 83240 333 58013;EQDQ01  00002PRCP99
0208827650999992000052400004-07330-047470FM-12+021299999V0209999C000019999999N0200001N1+02561+02191101651ADDAA199000091GA1091+999999999GF109991091999999999999999KA1240M+03141MA1999999099241MD1999999+0121REMSYN082AAXX  24004 82765 32/98 90000 10256 20219 39924 40165 333 10314 29070 55086 58012;EQDQ01  00002PRCP99
0196827650999992000052412004-07330-047470FM-12+021299999V0200901N003112200019N0200001N1+02561+02061101811ADDAA199000091GA1001+999999999GF100991001001999999001001KA1240N+02151MA1999999099401MD1999999-0121REMSYN070AAXX  24124 82765 32998 00906 10256 20206 39940 40181 333 20215 59012;EQDQ01  00002PRCP99
0167827650999992000052418004-07330-047470FM-12+021299999V0200901N001512200019N0200001N1+03061+01961101451ADDAA199000091GF104991041021008001001001MA1999999099051MD1999999-0101REMSYN070AAXX  24184 82765 32598 40903 10306 20196 39905 40145 84200 333 59010;EQDQ01  00002PRCP99
0208827650999992000052500004-07330-047470FM-12+021299999V0209999C000012200019N0200001N1+02501+02051101581ADDAA199000091GA1001+999999999GF100991001001999999001001KA1240M+03141MA1999999099171MD1999999-0071REMSYN082AAXX  25004 82765 32998 00000 10250 20205 39917 40158 333 10314 29070 55108 59007;EQDQ01  00002PRCP99
0196827650999992000052512004-07330-047470FM-12+021299999V0200501N001512200019N0200001N1+02481+02031101711ADDAA199000091GA1001+999999999GF100991001001999999001001KA1240N+02171MA1999999099291MD1999999-0111REMSYN070AAXX  25124 82765 32998 00503 10248 20203 39929 40171 333 20217 59011;EQDQ01  00002PRCP99
0167827650999992000052518004-07330-047470FM-12+021299999V0200901N002112200019N0200001N1+03161+01821101351ADDAA199000091GF101991011011008001001001MA1999999098961MD1999999-0091REMSYN070AAXX  25184 82765 32598 10904 10316 20182 39896 40135 81100 333 59009;EQDQ01  00002PRCP99
0208827650999992000052600004-07330-047470FM-12+021299999V0209999C000012200019N0200001N1+02521+02091101511ADDAA199000091GA1001+999999999GF100991001001999999001001KA1240M+03181MA1999999099101MD1999999-0071REMSYN082AAXX  26004 82765 32998 00000 10252 20209 39910 40151 333 10318 29069 55107 59007;EQDQ01  00002PRCP99
0196827650999992000052612004-07330-047470FM-12+021299999V0209999C000012200019N0200001N1+02491+01961101621ADDAA199000091GA1001+999999999GF100991001001999999001001KA1240N+02001MA1999999099211MD1999999-0081REMSYN070AAXX  26124 82765 32998 00000 10249 20196 39921 40162 333 20200 59008;EQDQ01  00002PRCP99
0167827650999992000052618004-07330-047470FM-12+021299999V0209999C000012200019N0200001N1+03231+01771101221ADDAA199000091GF101991011011008001001001MA1999999098831MD1999999-0131REMSYN070AAXX  26184 82765 32598 10000 10323 20177 39883 40122 81100 333 59013;EQDQ01  00002PRCP99
0208827650999992000052700004-07330-047470FM-12+021299999V0209999C000012200019N0200001N1+02511+02051101411ADDAA199000091GA1001+999999999GF100991001001999999001001KA1240M+03271MA1999999099001MD1999999-0101REMSYN082AAXX  27004 82765 32998 00000 10251 20205 39900 40141 333 10327 29067 55107 59010;EQDQ01  00002PRCP99
0186827650999992000052712004-07330-047470FM-12+021299999V0209999C000012200019N0200001N1+02511+02111101521ADDAA199000091GF101991011011008001001001KA1240N+01971MA1999999099111MD1999999-0101REMSYN076AAXX  27124 82765 32598 10000 10251 20211 39911 40152 81100 333 20197 59010;EQDQ01  00002PRCP99
0167827650999992000052718004-07330-047470FM-12+021299999V0201401N000512200019N0200001N1+03261+01801101111ADDAA199000091GF103991031021008001001001MA1999999098721MD1999999-0111REMSYN070AAXX  27184 82765 32598 31401 10326 20180 39872 40111 83200 333 59011;EQDQ01  00002PRCP99
0208827650999992000052800004-07330-047470FM-12+021299999V0209999C000012200019N0200001N1+02501+02071101291ADDAA199000091GA1001+999999999GF100991001001999999001001KA1240M+03291MA1999999098881MD1999999-0121REMSYN082AAXX  28004 82765 32998 00000 10250 20207 39888 40129 333 10329 29069 55106 59012;EQDQ01  00002PRCP99
0167827650999992000052818004-07330-047470FM-12+021299999V0209999C000012200019N0200001N1+03271+01561101041ADDAA199000091GF104991021011008001061001MA1999999098651MD1999999-0071REMSYN070AAXX  28184 82765 32598 40000 10327 20156 39865 40104 82160 333 59007;EQDQ01  00002PRCP99
0208827650999992000052900004-07330-047470FM-12+021299999V0209999C000012200019N0200001N1+02521+02111101181ADDAA199000091GA1001+999999999GF100991001001999999001001KA1240M+03331MA1999999098781MD1999999-0101REMSYN082AAXX  29004 82765 32998 00000 10252 20211 39878 40118 333 10333 29066 55109 59010;EQDQ01  00002PRCP99
0186827650999992000052912004-07330-047470FM-12+021299999V0209999C000012200019N0200001N1+02671+02041101331ADDAA199000091GF102991011011012501061001KA1240N+02031MA1999999098931MD1999999-0141REMSYN076AAXX  29124 82765 32698 20000 10267 20204 39893 40133 81160 333 20203 59014;EQDQ01  00002PRCP99
0167827650999992000052918004-07330-047470FM-12+021299999V0202301N000510450019N0200001N1+03281+01621100931ADDAA199000091GF106991031021008001061001MA1999999098551MD1999999-0101REMSYN070AAXX  29184 82765 32598 62301 10328 20162 39855 40093 83260 333 59010;EQDQ01  00002PRCP99
0208827650999992000053000004-07330-047470FM-12+021299999V0209999C000012200019N0200001N1+02611+02141101171ADDAA199000091GA1001+999999999GF100991001001999999001001KA1240M+03381MA1999999098781MD1999999+0001REMSYN082AAXX  30004 82765 32998 00000 10261 20214 39878 40117 333 10338 29064 55082 58000;EQDQ01  00002PRCP99
0186827650999992000053012004-07330-047470FM-12+021299999V0203201N000512200019N0200001N1+02621+02181101451ADDAA199000091GF102991011011012501031001KA1240N+02011MA1999999099051MD1999999+0121REMSYN076AAXX  30124 82765 32698 23201 10262 20218 39905 40145 81130 333 20201 58012;EQDQ01  00002PRCP99
0167827650999992000053018004-07330-047470FM-12+021299999V0201401N001512200019N0200001N1+03361+01851101051ADDAA199000091GF103991021021008001021001MA1999999098671MD1999999+0121REMSYN070AAXX  30184 82765 32598 31403 10336 20185 39867 40105 82220 333 58012;EQDQ01  00002PRCP99
0208827650999992000053100004-07330-047470FM-12+021299999V0209999C000012200019N0200001N1+02661+02181101231ADDAA199000091GA1001+999999999GF100991001001999999001001KA1240M+03391MA1999999098841MD1999999+0061REMSYN082AAXX  31004 82765 32998 00000 10266 20218 39884 40123 333 10339 29067 55106 58006;EQDQ01  00002PRCP99
0186827650999992000053112004-07330-047470FM-12+021299999V0209999C000010450019N0200001N1+02561+02151101491ADDAA199000091GF105991021011008001041001KA1240N+02091MA1999999099091MD1999999+0041REMSYN076AAXX  31124 82765 32598 50000 10256 20215 39909 40149 82140 333 20209 58004;EQDQ01  00002PRCP99
0173827650999992000053118004-07330-047470FM-12+021299999V0209999C000010450019N0200001N1+03141+02071101101ADDAA199000091GF106991021021008001041001MA1999999098721MD1999999+0051REMSYN076AAXX  31184 82765 31598 60000 10314 20207 39872 40110 7//99 82240 333 58005;EQDQ01  00002PRCP99
0208827650999992000060100004-07330-047470FM-12+021299999V0209999C000019999999N0200001N1+02601+02391101241ADDAA199000091GA1091+999999999GF109991091999999999999999KA1240M+03261MA1999999098851MD1999999+0011REMSYN082AAXX  01004 82765 32/98 90000 10260 20239 39885 40124 333 10326 29074 55093 58001;EQDQ01  00002PRCP99
0186827650999992000060112004-07330-047470FM-12+021299999V0209999C000012200019N0200001N1+02601+02271101511ADDAA199000091GF102991021011008001001001KA1240N+02171MA1999999099111MD1999999+0021REMSYN076AAXX  01124 82765 32598 20000 10260 20227 39911 40151 82100 333 20217 58002;EQDQ01  00002PRCP99
0167827650999992000060118004-07330-047470FM-12+021299999V0209999C000010075019N0200001N1+03181+02071101101ADDAA199000091GF106991061021008001001001MA1999999098721MD1999999+0001REMSYN070AAXX  01184 82765 32598 60000 10318 20207 39872 40110 86200 333 58000;EQDQ01  00002PRCP99
0208827650999992000060200004-07330-047470FM-12+021299999V0209999C000010024019N0100001N1+02491+02191101381ADDAA199000091GA1091+999999999GF109991091999999999999999KA1240M+03291MA1999999098981MD1999999+0131REMSYN082AAXX  02004 82765 32/97 90000 10249 20219 39898 40138 333 10329 29076 55065 58013;EQDQ01  00002PRCP99
0186827650999992000060212004-07330-047470FM-12+021299999V0209999C000012200019N0200001N1+02701+02221101591ADDAA199000091GF103991011011008001051041KA1240N+02181MA1999999099191MD1999999+0081REMSYN076AAXX  02124 82765 32598 30000 10270 20222 39919 40159 81154 333 20218 58008;EQDQ01  00002PRCP99
0195827650999992000060218004-07330-047470FM-12+021299999V0209999C000010075019N0040001N1+03321+02071101171ADDAA199000091AY121061AY221061GF105991051031008001001001MA1999999098791MD1999999+0071MW1151REMSYN076AAXX  02184 82765 31596 50000 10332 20207 39879 40117 71522 85300 333 58007;EQDQ01  00002PRCP99
0208827650999992000060300004-07330-047470FM-12+021299999V0209999C000012200019N0200001N1+02631+02331101371ADDAA199000091GA1001+999999999GF100991001001999999001001KA1240M+03391MA1999999098981MD1999999+0001REMSYN082AAXX  03004 82765 32998 00000 10263 20233 39898 40137 333 10339 29073 55094 58000;EQDQ01  00002PRCP99
0186827650999992000060312004-07330-047470FM-12+021299999V0201401N000510120019N0200001N1+02701+02261101681ADDAA199000091GF105991051011012501001001KA1240N+02261MA1999999099271MD1999999+0081REMSYN076AAXX  03124 82765 32698 51401 10270 20226 39927 40168 85100 333 20226 58008;EQDQ01  00002PRCP99
0167827650999992000060318004-07330-047470FM-12+021299999V0201401N001512200019N0200001N1+03321+01971101281ADDAA199000091GF104991041011008001001001MA1999999098901MD1999999+0111REMSYN070AAXX  03184 82765 32598 41403 10332 20197 39890 40128 84100 333 58011;EQDQ01  00002PRCP99
0208827650999992000060400004-07330-047470FM-12+021299999V0209999C000012200019N0200001N1+02641+02091101481ADDAA199000091GA1001+999999999GF100991001001999999001001KA1240M+03351MA1999999099081MD1999999+0101REMSYN082AAXX  04004 82765 32998 00000 10264 20209 39908 40148 333 10335 29066 55094 58010;EQDQ01  00002PRCP99
0186827650999992000060412004-07330-047470FM-12+021299999V0200901N002612200019N0200001N1+02661+01821101791ADDAA199000091GF101991011011012501001001KA1240N+02051MA1999999099391MD1999999+0121REMSYN076AAXX  04124 82765 32698 10905 10266 20182 39939 40179 81100 333 20205 58012;EQDQ01  00002PRCP99
0167827650999992000060418004-07330-047470FM-12+021299999V0201401N001512200019N0200001N1+03271+01841101431ADDAA199000091GF102991021011008001001001MA1999999099041MD1999999+0141REMSYN070AAXX  04184 82765 32598 21403 10327 20184 39904 40143 82100 333 58014;EQDQ01  00002PRCP99
0208827650999992000060500004-07330-047470FM-12+021299999V0209999C000012200019N0200001N1+02551+01981101601ADDAA199000091GA1001+999999999GF100991001001999999001001KA1240M+03281MA1999999099201MD1999999+0121REMSYN082AAXX  05004 82765 32998 00000 10255 20198 39920 40160 333 10328 29061 55109 58012;EQDQ01  00002PRCP99
0196827650999992000060512004-07330-047470FM-12+021299999V0200901N001512200019N0200001N1+02601+01941101851ADDAA199000091GA1001+999999999GF100991001001999999001001KA1240N+02071MA1999999099441MD1999999+0051REMSYN070AAXX  05124 82765 32998 00903 10260 20194 39944 40185 333 20207 58005;EQDQ01  00002PRCP99
0167827650999992000060518004-07330-047470FM-12+021299999V0200501N002112200019N0200001N1+03221+01771101441ADDAA199000091GF103991031011008001001001MA1999999099051MD1999999+0011REMSYN070AAXX  05184 82765 32598 30504 10322 20177 39905 40144 83100 333 58001;EQDQ01  00002PRCP99
0208827650999992000060600004-07330-047470FM-12+021299999V0209999C000012200019N0200001N1+02441+01811101591ADDAA199000091GA1001+999999999GF100991001001999999001001KA1240M+03261MA1999999099181MD1999999-0021REMSYN082AAXX  06004 82765 32998 00000 10244 20181 39918 40159 333 10326 29061 55107 59002;EQDQ01  00002PRCP99
0196827650999992000060612004-07330-047470FM-12+021299999V0200901N002112200019N0200001N1+02641+01851101881ADDAA199000091GA1001+999999999GF100991001001999999001001KA1240N+02091MA1999999099461MD1999999+0021REMSYN070AAXX  06124 82765 32998 00904 10264 20185 39946 40188 333 20209 58002;EQDQ01  00002PRCP99
0167827650999992000060618004-07330-047470FM-12+021299999V0200501N002610075019N0200001N1+03161+01891101511ADDAA199000091GF105991051021008001001001MA1999999099111MD1999999+0101REMSYN070AAXX  06184 82765 32598 50505 10316 20189 39911 40151 85200 333 58010;EQDQ01  00002PRCP99
0208827650999992000060700004-07330-047470FM-12+021299999V0209999C000012200019N0200001N1+02521+01981101671ADDAA199000091GA1001+999999999GF100991001001999999001001KA1240M+03201MA1999999099261MD1999999+0081REMSYN082AAXX  07004 82765 32998 00000 10252 20198 39926 40167 333 10320 29063 55107 58008;EQDQ01  00002PRCP99
0196827650999992000060712004-07330-047470FM-12+021299999V0200901N003112200019N0200001N1+02751+01871101701ADDAA199000091GA1001+999999999GF100991001001999999001001KA1240N+02011MA1999999099301MD1999999-0161REMSYN070AAXX  07124 82765 32998 00906 10275 20187 39930 40170 333 20201 59016;EQDQ01  00002PRCP99
0167827650999992000060718004-07330-047470FM-12+021299999V0200901N004112200019N0200001N1+03261+01721101421ADDAA199000091GF103991031011008001001001MA1999999099031MD1999999-0051REMSYN070AAXX  07184 82765 32598 30908 10326 20172 39903 40142 83100 333 59005;EQDQ01  00002PRCP99
0202827650999992000060800004-07330-047470FM-12+021299999V0209999C000012200019N0200001N1+02521+01961999999ADDAA199000091GA1001+999999999GF100991001001999999001001KA1240M+03291MA1999999099151MD1999999-0111REMSYN076AAXX  08004 82765 32998 00000 10252 20196 39915 333 10329 29060 55095 59011;EQDQ01  00002PRCP99
0196827650999992000060812004-07330-047470FM-12+021299999V0201401N001512200019N0200001N1+02531+01771101651ADDAA199000091GA1001+999999999GF100991001001999999001001KA1240N+01941MA1999999099241MD1999999-0061REMSYN070AAXX  08124 82765 32998 01403 10253 20177 39924 40165 333 20194 59006;EQDQ01  00002PRCP99
0167827650999992000060818004-07330-047470FM-12+021299999V0201401N000510075019N0200001N1+03211+01751101431ADDAA199000091GF105991051011008001001001MA1999999099031MD1999999+0001REMSYN070AAXX  08184 82765 32598 51401 10321 20175 39903 40143 85100 333 58000;EQDQ01  00002PRCP99
0198827650999992000060900004-07330-047470FM-12+021299999V0209999C000012200019N0200001N1+02531+02071101611ADDAA199000091GF103991031011008001001001KA1240M+03251MA1999999099201MD1999999+0051REMSYN088AAXX  09004 82765 32598 30000 10253 20207 39920 40161 83100 333 10325 29064 55104 58005;EQDQ01  00002PRCP99
0186827650999992000060912004-07330-047470FM-12+021299999V0209999C000012200019N0200001N1+02641+02001101701ADDAA199000091GF103991031011008001001001KA1240N+02031MA1999999099291MD1999999+0051REMSYN076AAXX  09124 82765 32598 30000 10264 20200 39929 40170 83100 333 20203 58005;EQDQ01  00002PRCP99
0167827650999992000060918004-07330-047470FM-12+021299999V0200901N002612200019N0200001N1+03291+01821101311ADDAA199000091GF103991031011008001001001MA1999999098921MD1999999-0111REMSYN070AAXX  09184 82765 32598 30905 10329 20182 39892 40131 83100 333 59011;EQDQ01  00002PRCP99
0208827650999992000061000004-07330-047470FM-12+021299999V0209999C000012200019N0200001N1+02551+02021101571ADDAA199000091GA1001+999999999GF100991001001999999001001KA1240M+03311MA1999999099171MD1999999-0031REMSYN082AAXX  10004 82765 32998 00000 10255 20202 39917 40157 333 10331 29064 55097 59003;EQDQ01  00002PRCP99
0196827650999992000061012004-07330-047470FM-12+021299999V0200901N003112200019N0200001N1+02721+01901101751ADDAA199000091GA1001+999999999GF100991001001999999001001KA1240N+02091MA1999999099351MD1999999+0061REMSYN070AAXX  10124 82765 32998 00906 10272 20190 39935 40175 333 20209 58006;EQDQ01  00002PRCP99
0167827650999992000061018004-07330-047470FM-12+021299999V0200501N000512200019N0200001N1+03301+01721101331ADDAA199000091GF102991021011008001001001MA1999999098951MD1999999+0031REMSYN070AAXX  10184 82765 32598 20501 10330 20172 39895 40133 82100 333 58003;EQDQ01  00002PRCP99
0208827650999992000061100004-07330-047470FM-12+021299999V0209999C000012200019N0200001N1+02601+01991101541ADDAA199000091GA1001+999999999GF100991001001999999001001KA1240M+03301MA1999999099131MD1999999-0041REMSYN082AAXX  11004 82765 32998 00000 10260 20199 39913 40154 333 10330 29060 55106 59004;EQDQ01  00002PRCP99
0167827650999992000061118004-07330-047470FM-12+021299999V0200901N000512200019N0200001N1+03451+01751101321ADDAA199000091GF102991021011008001001001MA1999999098931MD1999999-0021REMSYN070AAXX  11184 82765 32598 20901 10345 20175 39893 40132 82100 333 59002;EQDQ01  00002PRCP99
0196827650999992000061212004-07330-047470FM-12+021299999V0209999C000012200019N0200001N1+02521+01931101691ADDAA199000091GA1001+999999999GF100991001001999999001001KA1240N+02071MA1999999099281MD1999999-0011REMSYN070AAXX  12124 82765 32998 00000 10252 20193 39928 40169 333 20207 59001;EQDQ01  00002PRCP99
0167827650999992000061218004-07330-047470FM-12+021299999V0200501N000512200019N0200001N1+03421+01741101171ADDAA199000091GF102991021011008001001001MA1999999098801MD1999999-0131REMSYN070AAXX  12184 82765 32598 20501 10342 20174 39880 40117 82100 333 59013;EQDQ01  00002PRCP99
0208827650999992000061300004-07330-047470FM-12+021299999V0209999C000012200019N0200001N1+02681+01991101341ADDAA199000091GA1001+999999999GF100991001001999999001001KA1240M+03421MA1999999098941MD1999999-0121REMSYN082AAXX  13004 82765 32998 00000 10268 20199 39894 40134 333 10342 29060 55103 59012;EQDQ01  00002PRCP99
0186827650999992000061312004-07330-047470FM-12+021299999V0209999C000012200019N0200001N1+02651+02071101471ADDAA199000091GF101991011011008001001001KA1240N+02031MA1999999099071MD1999999-0211REMSYN076AAXX  13124 82765 32598 10000 10265 20207 39907 40147 81100 333 20203 59021;EQDQ01  00002PRCP99
0167827650999992000061318004-07330-047470FM-12+021299999V0200501N001012200019N0200001N1+03351+01751101131ADDAA199000091GF103991031011008001001001MA1999999098751MD1999999-0051REMSYN070AAXX  13184 82765 32598 30502 10335 20175 39875 40113 83100 333 59005;EQDQ01  00002PRCP99
0198827650999992000061400004-07320-047460FM-12+021299999V0209999C000012200019N0200001N1+02691+02041101311ADDAA199000091GF101991011011012501001001KA1240M+03381MA1999999098921MD1999999-0021REMSYN088AAXX  14004 82765 32698 10000 10269 20204 39892 40131 81100 333 10338 29062 55107 59002;EQDQ01  00002PRCP99
0186827650999992000061412004-07320-047460FM-12+021299999V0200901N001012200019N0200001N1+02801+01901101451ADDAA199000091GF101991011011012501001001KA1240N+02061MA1999999099061MD1999999-0011REMSYN076AAXX  14124 82765 32698 10902 10280 20190 39906 40145 81100 333 20206 59001;EQDQ01  00002PRCP99
0167827650999992000061418004-07320-047460FM-12+021299999V0200901N001012200019N0200001N1+03371+01731101041ADDAA199000091GF103991011011008001041041MA1999999098661MD1999999-0091REMSYN070AAXX  14184 82765 32598 30902 10337 20173 39866 40104 81144 333 59009;EQDQ01  00002PRCP99
0208827650999992000061500004-07320-047460FM-12+021299999V0209999C000012200019N0200001N1+02671+01871101241ADDAA199000091GA1001+999999999GF100991001001999999001001KA1240M+03411MA1999999098861MD1999999-0061REMSYN082AAXX  15004 82765 32998 00000 10267 20187 39886 40124 333 10341 29055 55107 59006;EQDQ01  00002PRCP99
0186827650999992000061512004-07320-047460FM-12+021299999V0200901N001512200019N0200001N1+02731+01651101471ADDAA199000091GF102991021011008001001001KA1240N+01921MA1999999099081MD1999999+0021REMSYN076AAXX  15124 82765 32598 20903 10273 20165 39908 40147 82100 333 20192 58002;EQDQ01  00002PRCP99
0167827650999992000061518004-07320-047460FM-12+021299999V0201401N001012200019N0200001N1+03311+01641101071ADDAA199000091GF103991021011008001051001MA1999999098681MD1999999+0021REMSYN070AAXX  15184 82765 32598 31402 10331 20164 39868 40107 82150 333 58002;EQDQ01  00002PRCP99
0198827650999992000061600004-07320-047460FM-12+021299999V0209999C000012200019N0200001N1+02581+01821101291ADDAA199000091GF102991021011008001001001KA1240M+03351MA1999999098901MD1999999+0041REMSYN088AAXX  16004 82765 32598 20000 10258 20182 39890 40129 82100 333 10335 29054 55106 58004;EQDQ01  00002PRCP99
0186827650999992000061612004-07320-047460FM-12+021299999V0209999C000012200019N0200001N1+02541+01781101581ADDAA199000091GF102991011011008001041001KA1240N+02131MA1999999099181MD1999999+0101REMSYN076AAXX  16124 82765 32598 20000 10254 20178 39918 40158 81140 333 20213 58010;EQDQ01  00002PRCP99
0167827650999992000061618004-07320-047460FM-12+021299999V0209999C000012200019N0200001N1+03241+01671101171ADDAA199000091GF103991031011008001001001MA1999999098791MD1999999+0111REMSYN070AAXX  16184 82765 32598 30000 10324 20167 39879 40117 83100 333 58011;EQDQ01  00002PRCP99
0167827650999992000061718004-07320-047460FM-12+021299999V0209999C000012200019N0200001N1+03281+01781101211ADDAA199000091GF103991031011008001001001MA1999999098831MD1999999+0041REMSYN070AAXX  17184 82765 32598 30000 10328 20178 39883 40121 83100 333 58004;EQDQ01  00002PRCP99
0208827650999992000061800004-07320-047460FM-12+021299999V0209999C000012200019N0200001N1+02641+02141101331ADDAA199000091GA1001+999999999GF100991001001999999001001KA1240M+03301MA1999999098921MD1999999+0001REMSYN082AAXX  18004 82765 32998 00000 10264 20214 39892 40133 333 10330 29067 55081 58000;EQDQ01  00002PRCP99
0196827650999992000061812004-07320-047460FM-12+021299999V0209999C000012200019N0200001N1+02601+01991101571ADDAA199000091GA1001+999999999GF100991001001999999001001KA1240N+02171MA1999999099171MD1999999-0021REMSYN070AAXX  18124 82765 32998 00000 10260 20199 39917 40157 333 20217 59002;EQDQ01  00002PRCP99
0167827650999992000061818004-07320-047460FM-12+021299999V0209999C000012200019N0200001N1+03401+01891101141ADDAA199000091GF103991031011008001001001MA1999999098771MD1999999-0061REMSYN070AAXX  18184 82765 32598 30000 10340 20189 39877 40114 83100 333 59006;EQDQ01  00002PRCP99
0208827650999992000061900004-07320-047460FM-12+021299999V0209999C000012200019N0200001N1+02741+02001101301ADDAA199000091GA1001+999999999GF100991001001999999001001KA1240M+03441MA1999999098911MD1999999-0011REMSYN082AAXX  19004 82765 32998 00000 10274 20200 39891 40130 333 10344 29060 55089 59001;EQDQ01  00002PRCP99
0186827650999992000061912004-07320-047460FM-12+021299999V0201801N000512200019N0200001N1+02661+02111101661ADDAA199000091GF104991031011008001031001KA1240N+02201MA1999999099261MD1999999+0091REMSYN076AAXX  19124 82765 32598 41801 10266 20211 39926 40166 83130 333 20220 58009;EQDQ01  00002PRCP99
0167827650999992000061918004-07320-047460FM-12+021299999V0201401N000512200019N0200001N1+03401+01771101221ADDAA199000091GF104991041021008001001001MA1999999098851MD1999999+0081REMSYN070AAXX  19184 82765 32598 41401 10340 20177 39885 40122 84200 333 58008;EQDQ01  00002PRCP99
0198827650999992000062000004-07320-047460FM-12+021299999V0209999C000012200019N0200001N1+02721+02001101361ADDAA199000091GF103991031021008001001001KA1240M+03461MA1999999098971MD1999999+0061REMSYN088AAXX  20004 82765 32598 30000 10272 20200 39897 40136 83200 333 10346 29060 55083 58006;EQDQ01  00002PRCP99
0186827650999992000062012004-07320-047460FM-12+021299999V0209999C000010450019N0200001N1+02831+02451101571ADDAA199000091GF105991031021008001021001KA1240N+02221MA1999999099191MD1999999-0071REMSYN076AAXX  20124 82765 32598 50000 10283 20245 39919 40157 83220 333 20222 59007;EQDQ01  00002PRCP99
0167827650999992000062018004-07320-047460FM-12+021299999V0201401N000510450019N0200001N1+03261+01951101241ADDAA199000091GF106991041021008001021001MA1999999098861MD1999999+0011REMSYN070AAXX  20184 82765 32598 61401 10326 20195 39886 40124 84220 333 58001;EQDQ01  00002PRCP99
0208827650999992000062100004-07320-047460FM-12+021299999V0209999C000019999999N0200001N1+02721+02151101491ADDAA199000091GA1091+999999999GF109991091999999999999999KA1240M+03421MA1999999099111MD1999999+0141REMSYN082AAXX  21004 82765 32/98 90000 10272 20215 39911 40149 333 10342 29064 55064 58014;EQDQ01  00002PRCP99
0167827650999992000062118004-07320-047460FM-12+021299999V0200501N000512200019N0200001N1+03271+01951101271ADDAA199000091GF104991031021008001061001MA1999999098891MD1999999+0031REMSYN070AAXX  21184 82765 32598 40501 10327 20195 39889 40127 83260 333 58003;EQDQ01  00002PRCP99
0208827650999992000062200004-07320-047460FM-12+021299999V0209999C000019999999N0200001N1+02691+02161101421ADDAA199000091GA1091+999999999GF109991091999999999999999KA1240M+03381MA1999999099031MD1999999-0081REMSYN082AAXX  22004 82765 32/98 90000 10269 20216 39903 40142 333 10338 29067 55082 59008;EQDQ01  00002PRCP99
0186827650999992000062212004-07320-047460FM-12+021299999V0209999C000012200019N0200001N1+02761+02121101601ADDAA199000091GF102991011011008001041001KA1240N+02331MA1999999099211MD1999999-0111REMSYN076AAXX  22124 82765 32598 20000 10276 20212 39921 40160 81140 333 20233 59011;EQDQ01  00002PRCP99
0167827650999992000062218004-07320-047460FM-12+021299999V0209999C000010450019N0200001N1+03441+01761101151ADDAA199000091GF106991041021008001041001MA1999999098791MD1999999-0101REMSYN070AAXX  22184 82765 32598 60000 10344 20176 39879 40115 84240 333 59010;EQDQ01  00002PRCP99
0208827650999992000062300004-07320-047460FM-12+021299999V0209999C000012200019N0200001N1+02621+02231101351ADDAA199000091GA1001+999999999GF100991001001999999001001KA1240M+03461MA1999999098961MD1999999-0071REMSYN082AAXX  23004 82765 32998 00000 10262 20223 39896 40135 333 10346 29066 55090 59007;EQDQ01  00002PRCP99
0186827650999992000062312004-07320-047460FM-12+021299999V0209999C000010450019N0200001N1+02721+02121101611ADDAA199000091GF105991021011008001041001KA1240N+02151MA1999999099211MD1999999+0001REMSYN076AAXX  23124 82765 32598 50000 10272 20212 39921 40161 82140 333 20215 58000;EQDQ01  00002PRCP99
0167827650999992000062318004-07320-047460FM-12+021299999V0209999C000012200019N0200001N1+03361+01851101181ADDAA199000091GF104991041021008001001001MA1999999098811MD1999999-0251REMSYN070AAXX  23184 82765 32598 40000 10336 20185 39881 40118 84200 333 59025;EQDQ01  00002PRCP99
0208827650999992000062400004-07320-047460FM-12+021299999V0209999C000012200019N0200001N1+02661+02001101411ADDAA199000091GA1001+999999999GF100991001001999999001001KA1240M+03381MA1999999099021MD1999999+0061REMSYN082AAXX  24004 82765 32998 00000 10266 20200 39902 40141 333 10338 29061 55099 58006;EQDQ01  00002PRCP99
0186827650999992000062412004-07320-047460FM-12+021299999V0200901N005112200019N0200001N1+02721+01771101631ADDAA199000091GF101991011011012501001001KA1240N+02081MA1999999099241MD1999999+0031REMSYN076AAXX  24124 82765 32698 10910 10272 20177 39924 40163 81100 333 20208 58003;EQDQ01  00002PRCP99
0167827650999992000062418004-07320-047460FM-12+021299999V0200501N003112200019N0200001N1+03301+01641101231ADDAA199000091GF103991031011008001001001MA1999999098851MD1999999+0041REMSYN070AAXX  24184 82765 32598 30506 10330 20164 39885 40123 83100 333 58004;EQDQ01  00002PRCP99
0208827650999992000062500004-07320-047460FM-12+021299999V0209999C000019999999N0200001N1+02521+01821101421ADDAA199000091GA1091+999999999GF109991091999999999999999KA1240M+03331MA1999999099021MD1999999+0001REMSYN082AAXX  25004 82765 32/98 90000 10252 20182 39902 40142 333 10333 29056 55108 58000;EQDQ01  00002PRCP99
0196827650999992000062512004-07320-047460FM-12+021299999V0200501N003112200019N0200001N1+02541+01651101701ADDAA199000091GA1001+999999999GF100991001001999999001001KA1240N+02171MA1999999099291MD1999999+0041REMSYN070AAXX  25124 82765 32998 00506 10254 20165 39929 40170 333 20217 58004;EQDQ01  00002PRCP99
0167827650999992000062518004-07320-047460FM-12+021299999V0209999C000012200019N0200001N1+03201+01711101251ADDAA199000091GF104991041011008001001001MA1999999098861MD1999999+0011REMSYN070AAXX  25184 82765 32598 40000 10320 20171 39886 40125 84100 333 58001;EQDQ01  00002PRCP99
0208827650999992000062600004-07320-047460FM-12+021299999V0209999C000012200019N0200001N1+02621+01861101421ADDAA199000091GA1001+999999999GF100991001001999999001001KA1240M+03241MA1999999099021MD1999999+0001REMSYN082AAXX  26004 82765 32998 00000 10262 20186 39902 40142 333 10324 29056 55108 58000;EQDQ01  00002PRCP99
0196827650999992000062612004-07320-047460FM-12+021299999V0200501N001012200019N0200001N1+02681+01731101591ADDAA199000091GA1001+999999999GF100991001001999999001001KA1240N+01971MA1999999099191MD1999999-0101REMSYN070AAXX  26124 82765 32998 00502 10268 20173 39919 40159 333 20197 59010;EQDQ01  00002PRCP99
0167827650999992000062618004-07320-047460FM-12+021299999V0209999C000012200019N0200001N1+03291+01741101211ADDAA199000091GF103991031011008001001001MA1999999098821MD1999999-0041REMSYN070AAXX  26184 82765 32598 30000 10329 20174 39882 40121 83100 333 59004;EQDQ01  00002PRCP99
0208827650999992000062700004-07320-047460FM-12+021299999V0209999C000012200019N0200001N1+02621+01831101421ADDAA199000091GA1001+999999999GF100991001001999999001001KA1240M+03361MA1999999099031MD1999999+0011REMSYN082AAXX  27004 82765 32998 00000 10262 20183 39903 40142 333 10336 29055 55107 58001;EQDQ01  00002PRCP99
0186827650999992000062712004-07320-047460FM-12+021299999V0200501N001012200019N0200001N1+02811+01841101601ADDAA199000091GF101991011011008001001001KA1240N+02051MA1999999099211MD1999999+0021REMSYN076AAXX  27124 82765 32598 10502 10281 20184 39921 40160 81100 333 20205 58002;EQDQ01  00002PRCP99
0167827650999992000062718004-07320-047460FM-12+021299999V0201401N001512200019N0200001N1+03371+01691101171ADDAA199000091GF104991031011008001031001MA1999999098791MD1999999-0031REMSYN070AAXX  27184 82765 32598 41403 10337 20169 39879 40117 83130 333 59003;EQDQ01  00002PRCP99
0208827650999992000062800004-07320-047460FM-12+021299999V0209999C000019999999N0200001N1+02671+01871101311ADDAA199000091GA1091+999999999GF109991091999999999999999KA1240M+03431MA1999999098931MD1999999-0101REMSYN082AAXX  28004 82765 32/98 90000 10267 20187 39893 40131 333 10343 29054 55105 59010;EQDQ01  00002PRCP99
0196827650999992000062812004-07320-047460FM-12+021299999V0209999C000012200019N0200001N1+02741+01921101531ADDAA199000091GA1001+999999999GF100991001001999999001001KA1240N+02131MA1999999099141MD1999999-0071REMSYN070AAXX  28124 82765 32998 00000 10274 20192 39914 40153 333 20213 59007;EQDQ01  00002PRCP99
0167827650999992000062818004-07320-047460FM-12+021299999V0209999C000012200019N0200001N1+03381+01571101111ADDAA199000091GF104991041021008001001001MA1999999098731MD1999999-0061REMSYN070AAXX  28184 82765 32598 40000 10338 20157 39873 40111 84200 333 59006;EQDQ01  00002PRCP99
0208827650999992000062900004-07320-047460FM-12+021299999V0209999C000012200019N0200001N1+02761+01891101291ADDAA199000091GA1001+999999999GF100991001001999999001001KA1240M+03381MA1999999098911MD1999999-0021REMSYN082AAXX  29004 82765 32998 00000 10276 20189 39891 40129 333 10338 29054 55105 59002;EQDQ01  00002PRCP99
0186827650999992000062912004-07320-047460FM-12+021299999V0200501N000512200019N0200001N1+02701+01691101521ADDAA199000091GF101991011011008001001001KA1240N+02091MA1999999099131MD1999999+0011REMSYN076AAXX  29124 82765 32598 10501 10270 20169 39913 40152 81100 333 20209 58001;EQDQ01  00002PRCP99
0167827650999992000062918004-07320-047460FM-12+021299999V0200501N001012200019N0200001N1+03341+01491101121ADDAA199000091GF101991011011008001001001MA1999999098751MD1999999+0031REMSYN070AAXX  29184 82765 32598 10502 10334 20149 39875 40112 81100 333 58003;EQDQ01  00002PRCP99
0208827650999992000063000004-07320-047460FM-12+021299999V0209999C000019999999N0200001N1+02641+01771101391ADDAA199000091GA1091+999999999GF109991091999999999999999KA1240M+03341MA1999999099001MD1999999+0091REMSYN082AAXX  30004 82765 32/98 90000 10264 20177 39900 40139 333 10334 29051 55092 58009;EQDQ01  00002PRCP99
0186827650999992000063012004-07320-047460FM-12+021299999V0209999C000012200019N0200001N1+02581+01851101581ADDAA199000091GF103991011011008001031001KA1240N+02111MA1999999099181MD1999999+0051REMSYN076AAXX  30124 82765 32598 30000 10258 20185 39918 40158 81130 333 20211 58005;EQDQ01  00002PRCP99
0167827650999992000063018004-07320-047460FM-12+021299999V0209999C000012200019N0200001N1+03481+01571101141ADDAA199000091GF104991021011008001041001MA1999999098761MD1999999+0011REMSYN070AAXX  30184 82765 32598 40000 10348 20157 39876 40114 82140 333 58001;EQDQ01  00002PRCP99
0186827650999992000070112004-07320-047460FM-12+021299999V0200501N000510075019N0200001N1+02501+02151101561ADDAA199000091GF107991071021008001001001KA1240N+02281MA1999999099181MD1999999+0001REMSYN076AAXX  01124 82765 32598 70501 10250 20215 39918 40156 87200 333 20228 58000;EQDQ01  00002PRCP99
0167827650999992000070118004-07320-047460FM-12+021299999V0200501N001010075019N0200001N1+03451+01921101051ADDAA199000091GF105991051021008001001001MA1999999098681MD1999999-0081REMSYN070AAXX  01184 82765 32598 50502 10345 20192 39868 40105 85200 333 59008;EQDQ01  00002PRCP99
0208827650999992000070200004-07320-047460FM-12+021299999V0209999C000019999999N0200001N1+02761+01891101301ADDAA199000091GA1091+999999999GF109991091999999999999999KA1240M+03451MA1999999098911MD1999999-0181REMSYN082AAXX  02004 82765 32/98 90000 10276 20189 39891 40130 333 10345 29060 55077 59018;EQDQ01  00002PRCP99
0202827650999992000070212004-07320-047460FM-12+021299999V0200501N001012200019N0200001N1+02711+01751101561ADDAA199000091GF102991021011008001001001KA1240N+99999MA1999999099171MD1999999-0011REMSYN076AAXX  02124 82765 32598 20502 10271 20175 39917 40156 82100 333 20294 59001;EQDQ01  00002PRCP99Q02 +02942ATMN  
0167827650999992000070218004-07320-047460FM-12+021299999V0201401N001010075019N0200001N1+03311+01411101201ADDAA199000091GF105991051011008001001001MA1999999098811MD1999999+0131REMSYN070AAXX  02184 82765 32598 51402 10331 20141 39881 40120 85100 333 58013;EQDQ01  00002PRCP99
0208827650999992000070300004-07320-047460FM-12+021299999V0200901N000519999999N0200001N1+02751+01781101411ADDAA199000091GA1091+999999999GF109991091999999999999999KA1240M+03371MA1999999099031MD1999999+0121REMSYN082AAXX  03004 82765 32/98 90901 10275 20178 39903 40141 333 10337 29050 55078 58012;EQDQ01  00002PRCP99
0186827650999992000070312004-07320-047460FM-12+021299999V0200901N000512200019N0200001N1+02831+01801101631ADDAA199000091GF104991021011008001031001KA1240N+02361MA1999999099251MD1999999+0081REMSYN076AAXX  03124 82765 32598 40901 10283 20180 39925 40163 82130 333 20236 58008;EQDQ01  00002PRCP99
0167827650999992000070318004-07320-047460FM-12+021299999V0200501N000512200019N0200001N1+03361+01411101251ADDAA199000091GF104991041011008001001001MA1999999098881MD1999999+0071REMSYN070AAXX  03184 82765 32598 40501 10336 20141 39888 40125 84100 333 58007;EQDQ01  00002PRCP99
0208827650999992000070400004-07320-047460FM-12+021299999V0209999C000019999999N0200001N1+02901+01521101411ADDAA199000091GA1091+999999999GF109991091999999999999999KA1240M+03401MA1999999099041MD1999999+0011REMSYN082AAXX  04004 82765 32/98 90000 10290 20152 39904 40141 333 10340 29043 55079 58001;EQDQ01  00002PRCP99
0196827650999992000070412004-07320-047460FM-12+021299999V0200501N001512200019N0200001N1+02601+01411101591ADDAA199000091GA1001+999999999GF100991001001999999001001KA1240N+01991MA1999999099201MD1999999-0051REMSYN070AAXX  04124 82765 32998 00503 10260 20141 39920 40159 333 20199 59005;EQDQ01  00002PRCP99
0167827650999992000070418004-07320-047460FM-12+021299999V0200901N001512200019N0200001N1+03301+01501101241ADDAA199000091GF102991021011008001001001MA1999999098851MD1999999-0031REMSYN070AAXX  04184 82765 32598 20903 10330 20150 39885 40124 82100 333 59003;EQDQ01  00002PRCP99
0208827650999992000070500004-07320-047460FM-12+021299999V0209999C000019999999N0200001N1+02681+02671101371ADDAA199000091GA1091+999999999GF109991091999999999999999KA1240M+03361MA1999999098981MD1999999-0061REMSYN082AAXX  05004 82765 32/98 90000 10268 20267 39898 40137 333 10336 29048 55105 59006;EQDQ01  00002PRCP99
0186827650999992000070512004-07320-047460FM-12+021299999V0200501N001512200019N0200001N1+02601+01481101571ADDAA199000091GF104991031011008001031001KA1240N+01971MA1999999099171MD1999999-0031REMSYN076AAXX  05124 82765 32598 40503 10260 20148 39917 40157 83130 333 20197 59003;EQDQ01  00002PRCP99
0167827650999992000070518004-07320-047460FM-12+021299999V0200501N001512200019N0200001N1+03341+01241101191ADDAA199000091GF103991031011008001001001MA1999999098811MD1999999-0041REMSYN070AAXX  05184 82765 32598 30503 10334 20124 39881 40119 83100 333 59004;EQDQ01  00002PRCP99
0208827650999992000070600004-07320-047460FM-12+021299999V0209999C000019999999N0200001N1+02761+02561101351ADDAA199000091GA1091+999999999GF109991091999999999999999KA1240M+03361MA1999999098961MD1999999-0021REMSYN082AAXX  06004 82765 32/98 90000 10276 20256 39896 40135 333 10336 29044 55092 59002;EQDQ01  00002PRCP99
0186827650999992000070612004-07320-047460FM-12+021299999V0200501N001012200019N0200001N1+02661+01561101521ADDAA199000091GF101991011011008001001001KA1240N+01971MA1999999099131MD1999999-0041REMSYN076AAXX  06124 82765 32598 10502 10266 20156 39913 40152 81100 333 20197 59004;EQDQ01  00002PRCP99
0167827650999992000070618004-07320-047460FM-12+021299999V0209999C000012200019N0200001N1+03321+01381101181ADDAA199000091GF103991021011008001031001MA1999999098811MD1999999+0001REMSYN070AAXX  06184 82765 32598 30000 10332 20138 39881 40118 82130 333 58000;EQDQ01  00002PRCP99
0208827650999992000070700004-07320-047460FM-12+021299999V0209999C000012200019N0200001N1+02681+01581101431ADDAA199000091GA1001+999999999GF100991001001999999001001KA1240M+03341MA1999999099041MD1999999+0081REMSYN082AAXX  07004 82765 32998 00000 10268 20158 39904 40143 333 10334 29046 55107 58008;EQDQ01  00002PRCP99
0196827650999992000070712004-07320-047460FM-12+021299999V0200501N001012200019N0200001N1+02631+01431101611ADDAA199000091GA1001+999999999GF100991001001999999001001KA1240N+01871MA1999999099211MD1999999+0081REMSYN070AAXX  07124 82765 32998 00502 10263 20143 39921 40161 333 20187 58008;EQDQ01  00002PRCP99
0167827650999992000070718004-07320-047460FM-12+021299999V0200901N001012200019N0200001N1+03341+01241101211ADDAA199000091GF102991021001017501051001MA1999999098821MD1999999+0011REMSYN070AAXX  07184 82765 32798 20902 10334 20124 39882 40121 82050 333 58001;EQDQ01  00002PRCP99
0208827650999992000070800004-07320-047460FM-12+021299999V0209999C000012200019N0200001N1+02471+01501101401ADDAA199000091GA1001+999999999GF100991001001999999001001KA1240M+03361MA1999999099001MD1999999-0041REMSYN082AAXX  08004 82765 32998 00000 10247 20150 39900 40140 333 10336 29046 55108 59004;EQDQ01  00002PRCP99
0186827650999992000070812004-07320-047460FM-12+021299999V0201401N000512200019N0200001N1+02671+01441101621ADDAA199000091GF101991011011012501001001KA1240N+01751MA1999999099211MD1999999+0001REMSYN076AAXX  08124 82765 32698 11401 10267 20144 39921 40162 81100 333 20175 58000;EQDQ01  00002PRCP99
0177827650999992000070818004-07320-047460FM-12+021299999V0200901N001012200019N0200001N1+03321+01051101211ADDAA199000091GA1001+999999999GF100991001001999999001001MA1999999098811MD1999999-0011REMSYN064AAXX  08184 82765 32998 00902 10332 20105 39881 40121 333 59001;EQDQ01  00002PRCP99
0208827650999992000070900004-07320-047460FM-12+021299999V0201401N000512200019N0200001N1+02571+01441101311ADDAA199000091GA1001+999999999GF100991001001999999001001KA1240M+03381MA1999999098911MD1999999-0091REMSYN082AAXX  09004 82765 32998 01401 10257 20144 39891 40131 333 10338 29043 55108 59009;EQDQ01  00002PRCP99
0196827650999992000070912004-07320-047460FM-12+021299999V0200901N001512200019N0200001N1+02561+01561101561ADDAA199000091GA1001+999999999GF100991001001999999001001KA1240N+01971MA1999999099151MD1999999-0061REMSYN070AAXX  09124 82765 32998 00903 10256 20156 39915 40156 333 20197 59006;EQDQ01  00002PRCP99
0167827650999992000070918004-07320-047460FM-12+021299999V0200901N001012200019N0200001N1+03361+01511101161ADDAA199000091GF102991021011008001001001MA1999999098771MD1999999-0041REMSYN070AAXX  09184 82765 32598 20902 10336 20151 39877 40116 82100 333 59004;EQDQ01  00002PRCP99
0208827650999992000071000004-07320-047460FM-12+021299999V0209999C000012200019N0200001N1+02741+02641101291ADDAA199000091GA1001+999999999GF100991001001999999001001KA1240M+03381MA1999999098901MD1999999-0071REMSYN082AAXX  10004 82765 32998 00000 10274 20264 39890 40129 333 10338 29047 55107 59007;EQDQ01  00002PRCP99
0186827650999992000071012004-07320-047460FM-12+021299999V0200501N001012200019N0200001N1+02601+01711101521ADDAA199000091GF101991011011008001001001KA1240N+01951MA1999999099121MD1999999-0031REMSYN076AAXX  10124 82765 32598 10502 10260 20171 39912 40152 81100 333 20195 59003;EQDQ01  00002PRCP99
0167827650999992000071018004-07320-047460FM-12+021299999V0200501N001510075019N0200001N1+03321+01571101111ADDAA199000091GF105991051011008001001001MA1999999098731MD1999999-0041REMSYN070AAXX  10184 82765 32598 50503 10332 20157 39873 40111 85100 333 59004;EQDQ01  00002PRCP99
0208827650999992000071100004-07320-047460FM-12+021299999V0209999C000019999999N0200001N1+02861+01811101311ADDAA199000091GA1091+999999999GF109991091999999999999999KA1240M+03381MA1999999098931MD1999999+0031REMSYN082AAXX  11004 82765 32/98 90000 10286 20181 39893 40131 333 10338 29050 55084 58003;EQDQ01  00002PRCP99
0186827650999992000071112004-07320-047460FM-12+021299999V0209999C000010120019N0200001N1+02561+02061101631ADDAA199000091GF107991061081008001041001KA1240N+02451MA1999999099241MD1999999+0121REMSYN076AAXX  11124 82765 32598 70000 10256 20206 39924 40163 86840 333 20245 58012;EQDQ01  00002PRCP99
0167827650999992000071118004-07320-047460FM-12+021299999V0200501N001010075019N0200001N1+03441+01671101141ADDAA199000091GF105991051021008001001001MA1999999098791MD1999999+0061REMSYN070AAXX  11184 82765 32598 50502 10344 20167 39879 40114 85200 333 58006;EQDQ01  00002PRCP99
0198827650999992000071200004-07320-047460FM-12+021299999V0209999C000012200019N0200001N1+02861+01781101391ADDAA199000091GF103991031021008001001001KA1240M+03481MA1999999099001MD1999999+0071REMSYN088AAXX  12004 82765 32598 30000 10286 20178 39900 40139 83200 333 10348 29053 55082 58007;EQDQ01  00002PRCP99
0186827650999992000071212004-07320-047460FM-12+021299999V0209999C000012200019N0200001N1+02901+02021101681ADDAA199000091GF104991041021008001001001KA1240N+02451MA1999999099301MD1999999-0061REMSYN076AAXX  12124 82765 32598 40000 10290 20202 39930 40168 84200 333 20245 59006;EQDQ01  00002PRCP99
0167827650999992000071218004-07320-047460FM-12+021299999V0209999C000010075019N0200001N1+03441+01761101191ADDAA199000091GF106991051021008001041001MA1999999098841MD1999999+0051REMSYN070AAXX  12184 82765 32598 60000 10344 20176 39884 40119 85240 333 58005;EQDQ01  00002PRCP99
0186827650999992000071312004-07320-047460FM-12+021299999V0200501N001012200019N0200001N1+02871+01921101741ADDAA199000091GF104991021021008001041001KA1240N+02441MA1999999099361MD1999999+0061REMSYN076AAXX  13124 82765 32598 40502 10287 20192 39936 40174 82240 333 20244 58006;EQDQ01  00002PRCP99
0186827650999992000071412004-07320-047460FM-12+021299999V0200901N000512200019N0200001N1+02751+01871101751ADDAA199000091GF103991021011008001001041KA1240N+01951MA1999999099351MD1999999-0011REMSYN076AAXX  14124 82765 32598 30901 10275 20187 39935 40175 82104 333 20195 59001;EQDQ01  00002PRCP99
0167827650999992000071418004-07320-047460FM-12+021299999V0201401N001012200019N0200001N1+03381+01661101211ADDAA199000091GF104991041011008001001001MA1999999098821MD1999999-0161REMSYN070AAXX  14184 82765 32598 41402 10338 20166 39882 40121 84100 333 59016;EQDQ01  00002PRCP99
0208827650999992000071500004-07320-047460FM-12+021299999V0201401N000512200019N0200001N1+02751+01641101451ADDAA199000091GA1001+999999999GF100991001001999999001001KA1240M+03421MA1999999099061MD1999999-0071REMSYN082AAXX  15004 82765 32998 01401 10275 20164 39906 40145 333 10342 29048 55100 59007;EQDQ01  00002PRCP99
0186827650999992000071512004-07320-047460FM-12+021299999V0201401N001512200019N0200001N1+02731+01791101631ADDAA199000091GF102991011011012501031001KA1240N+01991MA1999999099241MD1999999-0111REMSYN076AAXX  15124 82765 32698 21403 10273 20179 39924 40163 81130 333 20199 59011;EQDQ01  00002PRCP99
0167827650999992000071518004-07320-047460FM-12+021299999V0201401N000512200019N0200001N1+03371+01461101221ADDAA199000091GF103991031011008001001001MA1999999098841MD1999999+0021REMSYN070AAXX  15184 82765 32598 31401 10337 20146 39884 40122 83100 333 58002;EQDQ01  00002PRCP99
0208827650999992000071600004-07320-047460FM-12+021299999V0209999C000012200019N0200001N1+02721+01651101371ADDAA199000091GA1001+999999999GF100991001001999999001001KA1240M+03431MA1999999098981MD1999999-0081REMSYN082AAXX  16004 82765 32998 00000 10272 20165 39898 40137 333 10343 29048 55104 59008;EQDQ01  00002PRCP99
0186827650999992000071612004-07320-047460FM-12+021299999V0209999C000012200019N0200001N1+02561+01801101621ADDAA199000091GF104991041011012501001001KA1240N+02051MA1999999099221MD1999999-0021REMSYN076AAXX  16124 82765 32698 40000 10256 20180 39922 40162 84100 333 20205 59002;EQDQ01  00002PRCP99
0167827650999992000071618004-07320-047460FM-12+021299999V0201401N000510075019N0200001N1+03301+01681101131ADDAA199000091GF105991051021008001001001MA1999999098751MD1999999-0091REMSYN070AAXX  16184 82765 32598 51401 10330 20168 39875 40113 85200 333 59009;EQDQ01  00002PRCP99
0198827650999992000071700004-07320-047460FM-12+021299999V0209999C000012200019N0200001N1+02801+01901101371ADDAA199000091GF103991021011008001031001KA1240M+03471MA1999999098981MD1999999+0001REMSYN088AAXX  17004 82765 32598 30000 10280 20190 39898 40137 82130 333 10347 29054 55063 58000;EQDQ01  00002PRCP99
0185827650999992000071712004-07320-047460FM-12+021299999V0209999C000010075019N0200001N1+02381+02131101681ADDAA124002091GF108991081051008001999999KA1240N+02311MA1999999099271MD1999999+0051MW1611REMSYN088AAXX  17124 82765 21598 80000 10238 20213 39927 40168 761// 885// 333 20231 58005 60024;
0160827650999992000071718004-07320-047460FM-12+021299999V0209999C000010120019N0200001N1+02721+02101101291ADDAA106003091GF107991051081008001041001MA1999999098891MD1999999+0141REMSYN082AAXX  17184 82765 21598 70000 10272 20210 39889 40129 7//65 85840 333 58014 60031;
0179827650999992000071800004-07320-047460FM-12+021299999V0209999C000010450019N0200001N1+02461+02171101371ADDAA199000021GF105991031011008001031001KA1240M+02821MA1999999098951MD1999999-0031REMSYN088AAXX  18004 82765 32598 50000 10246 20217 39895 40137 83130 333 10282 29081 55001 59003;
0201827650999992000071812004-07320-047460FM-12+021299999V0209999C000010075019N0040001N1+02261+02121101671ADDAA124009991AY191061AY261061GF108991081051008001999999KA1240N+01891MA1999999099241MD1999999-0031MW1611REMSYN088AAXX  18124 82765 21596 80000 10226 20212 39924 40167 76196 885// 333 20189 59003 60104;
0160827650999992000071818004-07320-047460FM-12+021299999V0200901N001010120019N0200001N1+02701+02111101341ADDAA106002091GF107991071081008001001001MA1999999098941MD1999999+0051REMSYN082AAXX  18184 82765 21598 70902 10270 20211 39894 40134 7//95 87800 333 58005 60021;
0189827650999992000071900004-07320-047460FM-12+021299999V0209999C000019999999N0200001N1+02481+02171101501ADDAA199000021GA1091+999999999GF109991091999999999999999KA1240M+02741MA1999999099061MD1999999+0111REMSYN082AAXX  19004 82765 32/98 90000 10248 20217 39906 40150 333 10274 29082 55007 58011;
0201827650999992000071912004-07320-047460FM-12+021299999V0209999C000010090019N0040001N1+02311+02201101691ADDAA124007191AY161061AY201061GF108991051081004501021999KA1240N+02261MA1999999099261MD1999999+0021MW1611REMSYN088AAXX  19124 82765 21496 80000 10231 20220 39926 40169 76160 8582/ 333 20226 58002 60074;
0182827650999992000071918004-07320-047460FM-12+021299999V02099999999990450019N0200001N1+02231+02101101471ADDAA106040991AY191061AY261061GF108991041071008001021999MA1999999099041MD1999999+0101MW1031REMSYN082AAXX  19184 82765 21598 8000/ 10223 20210 39904 40147 70396 8472/ 333 58010 60411;
0189827650999992000072000004-07320-047460FM-12+021299999V0209999C000019999999N0200001N1+02211+02101101601ADDAA199000021GA1091+999999999GF109991091999999999999999KA1240M+02491MA1999999099161MD1999999+0101REMSYN082AAXX  20004 82765 32/98 90000 10221 20210 39916 40160 333 10249 29094 55000 58010;
0173827650999992000072012004-07320-047460FM-12+021299999V0209999C000010042019N0040001N1+02201+02151101761ADDAA124040991GF108991081071004501999999KA1240N+02031MA1999999099311MD1999999+0051REMSYN082AAXX  20124 82765 21496 80000 10220 20215 39931 40176 887// 333 20203 58005 60414;
0167827650999992000072018004-07320-047460FM-12+021299999V0201401N001012200019N0200001N1+03121+02051101141ADDAA199000091GF104991041011008001001001MA1999999098751MD1999999-0291REMSYN070AAXX  20184 82765 32598 41402 10312 20205 39875 40114 84100 333 59029;EQDQ01  00002PRCP99
0208827650999992000072100004-07320-047460FM-12+021299999V0209999C000012200019N0200001N1+02571+02311101231ADDAA199000091GA1001+999999999GF100991001001999999001001KA1240M+03211MA1999999098821MD1999999-0341REMSYN082AAXX  21004 82765 32998 00000 10257 20231 39882 40123 333 10321 29080 55060 59034;EQDQ01  00002PRCP99
0186827650999992000072112004-07320-047460FM-12+021299999V0200501N001012200019N0200001N1+02601+02191101411ADDAA199000091GF103991031021008001001001KA1240N+02111MA1999999099011MD1999999-0301REMSYN076AAXX  21124 82765 32598 30502 10260 20219 39901 40141 83200 333 20211 59030;EQDQ01  00002PRCP99
0154827650999992000072118004-07320-047460FM-12+021299999V0203601N001010450019N0100001N1+02361+02201101231ADDAA106038191GF107991041021004501021001MA1999999098801MD1999999+0051REMSYN076AAXX  21184 82765 21497 73602 10236 20220 39880 40123 84220 333 58005 60381;
0198827650999992000072200004-07320-047460FM-12+021299999V0209999C000010075019N0200001N1+02401+02231101301ADDAA199000091GF107991071021008001001001KA1240M+03251MA1999999098891MD1999999+0071REMSYN088AAXX  22004 82765 32598 70000 10240 20223 39889 40130 87200 333 10325 29087 55065 58007;EQDQ01  00002PRCP99
0173827650999992000072212004-07320-047460FM-12+021299999V0209999C000012200019N0200001N1+02561+02231101581ADDAA124038191GF102991021011008001001001KA1240N+02141MA1999999099171MD1999999+0161REMSYN082AAXX  22124 82765 22598 20000 10256 20223 39917 40158 82100 333 20214 58016 60384;
0167827650999992000072218004-07320-047460FM-12+021299999V0200501N001010075019N0200001N1+03301+01871101141ADDAA199000091GF106991061021008001001001MA1999999098771MD1999999-0031REMSYN070AAXX  22184 82765 32598 60502 10330 20187 39877 40114 86200 333 59003;EQDQ01  00002PRCP99
0208827650999992000072300004-07320-047460FM-12+021299999V0209999C000012200019N0200001N1+02701+02031101351ADDAA199000091GA1001+999999999GF100991001001999999001001KA1240M+03341MA1999999098961MD1999999+0071REMSYN082AAXX  23004 82765 32998 00000 10270 20203 39896 40135 333 10334 29065 55102 58007;EQDQ01  00002PRCP99
0196827650999992000072312004-07320-047460FM-12+021299999V0201801N000512200019N0200001N1+02601+02121101601ADDAA199000091GA1001+999999999GF100991001001999999001001KA1240N+02091MA1999999099201MD1999999+0031REMSYN070AAXX  23124 82765 32998 01801 10260 20212 39920 40160 333 20209 58003;EQDQ01  00002PRCP99
0167827650999992000072318004-07320-047460FM-12+021299999V0200501N000512200019N0200001N1+03401+01641101161ADDAA199000091GF104991041021008001001001MA1999999098801MD1999999+0031REMSYN070AAXX  23184 82765 32598 40501 10340 20164 39880 40116 84200 333 58003;EQDQ01  00002PRCP99
0196827650999992000072412004-07320-047460FM-12+021299999V0203201N000512200019N0200001N1+02601+01961101541ADDAA199000091GA1001+999999999GF100991001001999999001001KA1240N+01991MA1999999099141MD1999999-0061REMSYN070AAXX  24124 82765 32998 03201 10260 20196 39914 40154 333 20199 59006;EQDQ01  00002PRCP99
0167827650999992000072418004-07320-047460FM-12+021299999V0200501N001512200019N0200001N1+03441+01721101071ADDAA199000091GF104991031021008001041001MA1999999098701MD1999999-0101REMSYN070AAXX  24184 82765 32598 40503 10344 20172 39870 40107 83240 333 59010;EQDQ01  00002PRCP99
0208827650999992000072500004-07320-047460FM-12+021299999V0209999C000012200019N0200001N1+02701+01961101251ADDAA199000091GA1001+999999999GF100991001001999999001001KA1240M+03501MA1999999098861MD1999999-0121REMSYN082AAXX  25004 82765 32998 00000 10270 20196 39886 40125 333 10350 29058 55106 59012;EQDQ01  00002PRCP99
0186827650999992000072512004-07320-047460FM-12+021299999V0209999C000012200019N0200001N1+02651+02091101581ADDAA199000091GF102991021011012501001001KA1240N+02171MA1999999099191MD1999999+0051REMSYN076AAXX  25124 82765 32698 20000 10265 20209 39919 40158 82100 333 20217 58005;EQDQ01  00002PRCP99
0167827650999992000072518004-07320-047460FM-12+021299999V0200501N001012200019N0200001N1+03401+01811101171ADDAA199000091GF103991031011008001001001MA1999999098801MD1999999+0101REMSYN070AAXX  25184 82765 32598 30502 10340 20181 39880 40117 83100 333 58010;EQDQ01  00002PRCP99
0208827650999992000072600004-07320-047460FM-12+021299999V0209999C000012200019N0200001N1+02651+01901101411ADDAA199000091GA1001+999999999GF100991001001999999001001KA1240M+03471MA1999999099021MD1999999+0161REMSYN082AAXX  26004 82765 32998 00000 10265 20190 39902 40141 333 10347 29060 55109 58016;EQDQ01  00002PRCP99
0196827650999992000072612004-07320-047460FM-12+021299999V0200901N000512200019N0200001N1+02671+01821101611ADDAA199000091GA1001+999999999GF100991001001999999001001KA1240N+01981MA1999999099211MD1999999+0021REMSYN070AAXX  26124 82765 32998 00901 10267 20182 39921 40161 333 20198 58002;EQDQ01  00002PRCP99
0167827650999992000072618004-07320-047460FM-12+021299999V0200901N000512200019N0200001N1+03401+01291101131ADDAA199000091GF101991011011008001001001MA1999999098751MD1999999-0051REMSYN070AAXX  26184 82765 32598 10901 10340 20129 39875 40113 81100 333 59005;EQDQ01  00002PRCP99
0208827650999992000072700004-07320-047460FM-12+021299999V0209999C000012200019N0200001N1+02591+01721101321ADDAA199000091GA1001+999999999GF100991001001999999001001KA1240M+03471MA1999999098931MD1999999-0091REMSYN082AAXX  27004 82765 32998 00000 10259 20172 39893 40132 333 10347 29052 55107 59009;EQDQ01  00002PRCP99
0186827650999992000072712004-07320-047460FM-12+021299999V0209999C000012200019N0200001N1+02601+01891101681ADDAA199000091GF101991011001022501051001KA1240N+01911MA1999999099271MD1999999+0061REMSYN076AAXX  27124 82765 32898 10000 10260 20189 39927 40168 81050 333 20191 58006;EQDQ01  00002PRCP99
0167827650999992000072718004-07320-047460FM-12+021299999V0201401N001012200019N0200001N1+03361+01511101161ADDAA199000091GF103991031011008001001001MA1999999098771MD1999999+0021REMSYN070AAXX  27184 82765 32598 31402 10336 20151 39877 40116 83100 333 58002;EQDQ01  00002PRCP99
0208827650999992000072800004-07320-047460FM-12+021299999V0209999C000012200019N0200001N1+02701+01801101321ADDAA199000091GA1001+999999999GF100991001001999999001001KA1240M+03421MA1999999098931MD1999999+0001REMSYN082AAXX  28004 82765 32998 00000 10270 20180 39893 40132 333 10342 29054 55108 58000;EQDQ01  00002PRCP99
0196827650999992000072812004-07320-047460FM-12+021299999V0200901N001012200019N0200001N1+02621+01861101671ADDAA199000091GA1001+999999999GF100991001001999999001001KA1240N+02071MA1999999099271MD1999999+0001REMSYN070AAXX  28124 82765 32998 00902 10262 20186 39927 40167 333 20207 58000;EQDQ01  00002PRCP99
0167827650999992000072818004-07320-047460FM-12+021299999V0200501N001012200019N0200001N1+03381+01571101221ADDAA199000091GF103991031011008001001001MA1999999098841MD1999999+0071REMSYN070AAXX  28184 82765 32598 30502 10338 20157 39884 40122 83100 333 58007;EQDQ01  00002PRCP99
0208827650999992000072900004-07320-047460FM-12+021299999V0209999C000019999999N0200001N1+02721+01901101321ADDAA199000091GA1091+999999999GF109991091999999999999999KA1240M+03401MA1999999098931MD1999999+0001REMSYN082AAXX  29004 82765 32/98 90000 10272 20190 39893 40132 333 10340 29055 55107 58000;EQDQ01  00002PRCP99
0196827650999992000072912004-07320-047460FM-12+021299999V0200501N002612200019N0200001N1+02741+01611101591ADDAA199000091GA1001+999999999GF100991001001999999001001KA1240N+01991MA1999999099171MD1999999-0101REMSYN070AAXX  29124 82765 32998 00505 10274 20161 39917 40159 333 20199 59010;EQDQ01  00002PRCP99
0167827650999992000072918004-07320-047460FM-12+021299999V0200501N001510075019N0200001N1+03381+01661101131ADDAA199000091GF105991051021008001001001MA1999999098751MD1999999-0091REMSYN070AAXX  29184 82765 32598 50503 10338 20166 39875 40113 85200 333 59009;EQDQ01  00002PRCP99
0208827650999992000073000004-07320-047460FM-12+021299999V0209999C000012200019N0200001N1+02701+01631101311ADDAA199000091GA1001+999999999GF100991001001999999001001KA1240M+03401MA1999999098921MD1999999-0011REMSYN082AAXX  30004 82765 32998 00000 10270 20163 39892 40131 333 10340 29048 55092 59001;EQDQ01  00002PRCP99
0196827650999992000073012004-07320-047460FM-12+021299999V0200901N001012200019N0200001N1+02661+01651101571ADDAA199000091GA1001+999999999GF100991001001999999001001KA1240N+02071MA1999999099171MD1999999+0001REMSYN070AAXX  30124 82765 32998 00902 10266 20165 39917 40157 333 20207 58000;EQDQ01  00002PRCP99
0167827650999992000073018004-07320-047460FM-12+021299999V0200901N001010450019N0200001N1+03421+01201101111ADDAA199000091GF106991041021008001041001MA1999999098741MD1999999-0011REMSYN070AAXX  30184 82765 32598 60902 10342 20120 39874 40111 84240 333 59001;EQDQ01  00002PRCP99
0208827650999992000073100004-07320-047460FM-12+021299999V0209999C000012200019N0200001N1+02721+01741101281ADDAA199000091GA1001+999999999GF100991001001999999001001KA1240M+03421MA1999999098891MD1999999-0031REMSYN082AAXX  31004 82765 32998 00000 10272 20174 39889 40128 333 10342 29048 55106 59003;EQDQ01  00002PRCP99
0196827650999992000073112004-07320-047460FM-12+021299999V0209999C000012200019N0200001N1+02661+01771101521ADDAA199000091GA1001+999999999GF100991001001999999001001KA1240N+01961MA1999999099131MD1999999-0041REMSYN070AAXX  31124 82765 32998 00000 10266 20177 39913 40152 333 20196 59004;EQDQ01  00002PRCP99
0167827650999992000073118004-07320-047460FM-12+021299999V0200901N001012200019N0200001N1+03431+01251101131ADDAA199000091GF103991021011008001031001MA1999999098751MD1999999+0011REMSYN070AAXX  31184 82765 32598 30902 10343 20125 39875 40113 82130 333 58001;EQDQ01  00002PRCP99
0208827650999992000080100004-07320-047460FM-12+021299999V0209999C000012200019N0200001N1+02641+01481101251ADDAA199000091GA1001+999999999GF100991001001999999001001KA1240M+03461MA1999999098861MD1999999-0071REMSYN082AAXX  01004 82765 32998 00000 10264 20148 39886 40125 333 10346 29046 55109 59007;EQDQ01  00002PRCP99
0186827650999992000080112004-07320-047460FM-12+021299999V0209999C000012200019N0200001N1+02321+01761101551ADDAA199000091GF102991011011012501061001KA1240N+01811MA1999999099141MD1999999+0011REMSYN076AAXX  01124 82765 32698 20000 10232 20176 39914 40155 81160 333 20181 58001;EQDQ01  00002PRCP99
0167827650999992000080118004-07320-047460FM-12+021299999V0201401N001512200019N0200001N1+03421+01411101061ADDAA199000091GF104991041011008001001001MA1999999098671MD1999999-0081REMSYN070AAXX  01184 82765 32598 41403 10342 20141 39867 40106 84100 333 59008;EQDQ01  00002PRCP99
0208827650999992000080200004-07320-047460FM-12+021299999V0209999C000012200019N0200001N1+02711+01721101221ADDAA199000091GA1001+999999999GF100991001001999999001001KA1240M+03471MA1999999098871MD1999999+0011REMSYN082AAXX  02004 82765 32998 00000 10271 20172 39887 40122 333 10347 29053 55108 58001;EQDQ01  00002PRCP99
0186827650999992000080212004-07320-047460FM-12+021299999V0200901N001012200019N0200001N1+02681+01911101611ADDAA199000091GF103991031021008001001001KA1240N+02011MA1999999099221MD1999999+0081REMSYN076AAXX  02124 82765 32598 30902 10268 20191 39922 40161 83200 333 20201 58008;EQDQ01  00002PRCP99
0167827650999992000080218004-07320-047460FM-12+021299999V0200901N001012200019N0200001N1+03351+01711101201ADDAA199000091GF104991031021008001061001MA1999999098821MD1999999+0151REMSYN070AAXX  02184 82765 32598 40902 10335 20171 39882 40120 83260 333 58015;EQDQ01  00002PRCP99
0208827650999992000080300004-07320-047460FM-12+021299999V0200901N001012200019N0200001N1+02721+01771101391ADDAA199000091GA1001+999999999GF100991001001999999001001KA1240M+03451MA1999999099001MD1999999+0131REMSYN082AAXX  03004 82765 32998 00902 10272 20177 39900 40139 333 10345 29053 55094 58013;EQDQ01  00002PRCP99
0186827650999992000080312004-07320-047460FM-12+021299999V0200501N001012200019N0200001N1+02821+02021101651ADDAA199000091GF102991011011008001061001KA1240N+02151MA1999999099261MD1999999+0041REMSYN076AAXX  03124 82765 32598 20502 10282 20202 39926 40165 81160 333 20215 58004;EQDQ01  00002PRCP99
0167827650999992000080318004-07320-047460FM-12+021299999V0200501N001510075019N0200001N1+03301+01761101311ADDAA199000091GF105991051021008001001001MA1999999098921MD1999999+0101REMSYN070AAXX  03184 82765 32598 50503 10330 20176 39892 40131 85200 333 58010;EQDQ01  00002PRCP99
0208827650999992000080400004-07320-047460FM-12+021299999V0209999C000012200019N0200001N1+02681+01861101471ADDAA199000091GA1001+999999999GF100991001001999999001001KA1240M+03411MA1999999099081MD1999999+0081REMSYN082AAXX  04004 82765 32998 00000 10268 20186 39908 40147 333 10341 29056 55100 58008;EQDQ01  00002PRCP99
0202827650999992000080412004-07320-047460FM-12+021299999V0201401N000512200019N0200001N1+02721+01931101581ADDAA199000091GF103991999011012501001001KA1240N+02051MA1999999099191MD1999999-0071REMSYN076AAXX  04124 82765 32698 31401 10272 20193 39919 40158 82100 333 20205 59007;EQDQ01+000022SCOTLCQ02  00002PRCP99
0208827650999992000080500004-07320-047460FM-12+021299999V0209999C000012200019N0200001N1+02671+01821101311ADDAA199000091GA1001+999999999GF100991001001999999001001KA1240M+03421MA1999999098921MD1999999-0161REMSYN082AAXX  05004 82765 32998 00000 10267 20182 39892 40131 333 10342 29053 55096 59016;EQDQ01  00002PRCP99
0167827650999992000080518004-07320-047460FM-12+021299999V0201401N002612200019N0200001N1+03461+01601101121ADDAA199000091GF104991041021008001001001MA1999999098741MD1999999-0051REMSYN070AAXX  05184 82765 32598 41405 10346 20160 39874 40112 84200 333 59005;EQDQ01  00002PRCP99
0208827650999992000080600004-07320-047460FM-12+021299999V0200501N000512200019N0200001N1+02751+01571101311ADDAA199000091GA1001+999999999GF100991001001999999001001KA1240M+03511MA1999999098931MD1999999+0011REMSYN082AAXX  06004 82765 32998 00501 10275 20157 39893 40131 333 10351 29048 55093 58001;EQDQ01  00002PRCP99
0186827650999992000080612004-07320-047460FM-12+021299999V0201401N001512200019N0200001N1+02671+01621101671ADDAA199000091GF101991011001022501051001KA1240N+02011MA1999999099271MD1999999+0111REMSYN076AAXX  06124 82765 32898 11403 10267 20162 39927 40167 81050 333 20201 58011;EQDQ01  00002PRCP99
0167827650999992000080618004-07320-047460FM-12+021299999V0201401N002612200019N0200001N1+03421+01611101251ADDAA199000091GF102991021011008001001001MA1999999098861MD1999999+0121REMSYN070AAXX  06184 82765 32598 21405 10342 20161 39886 40125 82100 333 58012;EQDQ01  00002PRCP99
0198827650999992000080700004-07320-047460FM-12+021299999V0209999C000012200019N0200001N1+02691+01581101381ADDAA199000091GF104991041011012501001001KA1240M+03461MA1999999098991MD1999999+0061REMSYN088AAXX  07004 82765 32698 40000 10269 20158 39899 40138 84100 333 10346 29047 55108 58006;EQDQ01  00002PRCP99
0196827650999992000080712004-07320-047460FM-12+021299999V0200901N003112200019N0200001N1+02761+01691101701ADDAA199000091GA1001+999999999GF100991001001999999001001KA1240N+02081MA1999999099301MD1999999+0031REMSYN070AAXX  07124 82765 32998 00906 10276 20169 39930 40170 333 20208 58003;EQDQ01  00002PRCP99
0167827650999992000080718004-07320-047460FM-12+021299999V0200501N001512200019N0200001N1+03411+01591101221ADDAA199000091GF103991031011008001001999MA1999999098841MD1999999-0021REMSYN070AAXX  07184 82765 32598 30503 10341 20159 39884 40122 8310/ 333 59002;EQDQ01  00002PRCP99
0208827650999992000080800004-07320-047460FM-12+021299999V0200501N000512200019N0200001N1+02721+01711101401ADDAA199000091GA1001+999999999GF100991001001999999001001KA1240M+03451MA1999999099021MD1999999+0031REMSYN082AAXX  08004 82765 32998 00501 10272 20171 39902 40140 333 10345 29048 55110 58003;EQDQ01  00002PRCP99
0186827650999992000080812004-07320-047460FM-12+021299999V0200501N000512200019N0200001N1+02851+01851101631ADDAA199000091GF104991041011008001001001KA1240N+02311MA1999999099251MD1999999-0051REMSYN076AAXX  08124 82765 32598 40501 10285 20185 39925 40163 84100 333 20231 59005;EQDQ01  00002PRCP99
0167827650999992000080818004-07320-047460FM-12+021299999V0200501N003110075019N0200001N1+03431+01781101201ADDAA199000091GF106991061021008001001001MA1999999098831MD1999999-0011REMSYN070AAXX  08184 82765 32598 60506 10343 20178 39883 40120 86200 333 59001;EQDQ01  00002PRCP99
0208827650999992000080900004-07320-047460FM-12+021299999V0209999C000012200019N0200001N1+02771+01831101391ADDAA199000091GA1001+999999999GF100991001001999999001001KA1240M+03451MA1999999099011MD1999999-0011REMSYN082AAXX  09004 82765 32998 00000 10277 20183 39901 40139 333 10345 29052 55092 59001;EQDQ01  00002PRCP99
0186827650999992000080912004-07320-047460FM-12+021299999V0200501N001012200019N0200001N1+02741+02271101741ADDAA199000091GF102991021011008001001001KA1240N+02321MA1999999099351MD1999999+0101REMSYN076AAXX  09124 82765 32598 20502 10274 20227 39935 40174 82100 333 20232 58010;EQDQ01  00002PRCP99
0167827650999992000080918004-07320-047460FM-12+021299999V0200501N001512200019N0200001N1+03371+01891101321ADDAA199000091GF104991041021008001001001MA1999999098951MD1999999+0121REMSYN070AAXX  09184 82765 32598 40503 10337 20189 39895 40132 84200 333 58012;EQDQ01  00002PRCP99
0201827650999992000081012004-07320-047460FM-12+021299999V0200501N001512200019N0200001N1+02721+02101101921ADDAA124002091AY161061AY221061GF104991031021008001061001KA1240N+02331MA1999999099511MD1999999+0161MW1021REMSYN088AAXX  10124 82765 21598 40503 10272 20210 39951 40192 70262 83260 333 20233 58016 60024;
0167827650999992000081018004-07320-047460FM-12+021299999V0200501N001010450019N0200001N1+03351+01871101391ADDAA199000091GF107991041021008001021001MA1999999099021MD1999999+0071REMSYN070AAXX  10184 82765 32598 70502 10335 20187 39902 40139 84220 333 58007;EQDQ01  00002PRCP99
0186827650999992000081112004-07320-047460FM-12+021299999V0209999C000012200019N0200001N1+02651+02141101801ADDAA199000091GF101991011011008001001001KA1240N+02161MA1999999099401MD1999999-0111REMSYN076AAXX  11124 82765 32598 10000 10265 20214 39940 40180 81100 333 20216 59011;EQDQ01  00002PRCP99
0167827650999992000081118004-07320-047460FM-12+021299999V0200501N001010075019N0200001N1+03421+01701101301ADDAA199000091GF105991051021008001001001MA1999999098921MD1999999-0101REMSYN070AAXX  11184 82765 32598 50502 10342 20170 39892 40130 85200 333 59010;EQDQ01  00002PRCP99
0208827650999992000081200004-07320-047460FM-12+021299999V0209999C000012200019N0200001N1+02741+01891101441ADDAA199000091GA1001+999999999GF100991001001999999001001KA1240M+03481MA1999999099051MD1999999-0161REMSYN082AAXX  12004 82765 32998 00000 10274 20189 39905 40144 333 10348 29058 55107 59016;EQDQ01  00002PRCP99
0186827650999992000081212004-07320-047460FM-12+021299999V0203201N000510075019N0200001N1+02761+02071101651ADDAA199000091GF106991061021008001001001KA1240N+02241MA1999999099261MD1999999-0141REMSYN076AAXX  12124 82765 32598 63201 10276 20207 39926 40165 86200 333 20224 59014;EQDQ01  00002PRCP99
0167827650999992000081218004-07320-047460FM-12+021299999V0200501N000512200019N0200001N1+03451+01841101151ADDAA199000091GF104991041021008001001001MA1999999098781MD1999999-0131REMSYN070AAXX  12184 82765 32598 40501 10345 20184 39878 40115 84200 333 59013;EQDQ01  00002PRCP99
0182827650999992000081318004-07320-047460FM-12+021299999V0200501N001510450019N0200001N1+02751+02581101231ADDAA106029091AY161061AY221061GF108991041081008001021999MA1999999098821MD1999999+0041MW1021REMSYN082AAXX  13184 82765 21598 80503 10275 20258 39882 40123 70262 8482/ 333 58004 60291;
0208827650999992000081400004-07320-047460FM-12+021299999V0209999C000012200019N0200001N1+02541+02361101541ADDAA199000091GA1001+999999999GF100991001001999999001001KA1240M+03081MA1999999099111MD1999999-0171REMSYN082AAXX  14004 82765 32998 00000 10254 20236 39911 40154 333 10308 29086 55028 59017;EQDQ01  00002PRCP99
0173827650999992000081412004-07320-047460FM-12+021299999V0209999C000012200019N0200001N1+02681+02161101811ADDAA124029091GF102991021011008001001001KA1240N+02071MA1999999099401MD1999999+0121REMSYN082AAXX  14124 82765 22598 20000 10268 20216 39940 40181 82100 333 20207 58012 60294;
0198827650999992000081500004-07320-047460FM-12+021299999V0209999C000010075019N0200001N1+02701+01961101481ADDAA199000091GF105991051021008001001001KA1240M+03341MA1999999099091MD1999999-0021REMSYN088AAXX  15004 82765 32598 50000 10270 20196 39909 40148 85200 333 10334 29060 55106 59002;EQDQ01  00002PRCP99
0196827650999992000081512004-07320-047460FM-12+021299999V0200901N002612200019N0200001N1+02681+01581101781ADDAA199000091GA1001+999999999GF100991001001999999001001KA1240N+02121MA1999999099381MD1999999-0021REMSYN070AAXX  15124 82765 32998 00905 10268 20158 39938 40178 333 20212 59002;EQDQ01  00002PRCP99
0167827650999992000081518004-07320-047460FM-12+021299999V0200501N001012200019N0200001N1+03351+01401101381ADDAA199000091GF101991011011008001001001MA1999999099001MD1999999+0021REMSYN070AAXX  15184 82765 32598 10502 10335 20140 39900 40138 81100 333 58002;EQDQ01  00002PRCP99
0208827650999992000081600004-07320-047460FM-12+021299999V0209999C000012200019N0200001N1+02661+01711101511ADDAA199000091GA1001+999999999GF100991001001999999001001KA1240M+03391MA1999999099111MD1999999+0021REMSYN082AAXX  16004 82765 32998 00000 10266 20171 39911 40151 333 10339 29048 55108 58002;EQDQ01  00002PRCP99
0196827650999992000081612004-07320-047460FM-12+021299999V0200901N002612200019N0200001N1+02631+01501101781ADDAA199000091GA1001+999999999GF100991001001999999001001KA1240N+01861MA1999999099381MD1999999+0001REMSYN070AAXX  16124 82765 32998 00905 10263 20150 39938 40178 333 20186 58000;EQDQ01  00002PRCP99
0177827650999992000081618004-07320-047460FM-12+021299999V0200901N001512200019N0200001N1+03381+01481101231ADDAA199000091GA1001+999999999GF100991001001999999001001MA1999999098841MD1999999-0161REMSYN064AAXX  16184 82765 32998 00903 10338 20148 39884 40123 333 59016;EQDQ01  00002PRCP99
0208827650999992000081700004-07320-047460FM-12+021299999V0209999C000012200019N0200001N1+02591+01691101371ADDAA199000091GA1001+999999999GF100991001001999999001001KA1240M+03421MA1999999098971MD1999999-0141REMSYN082AAXX  17004 82765 32998 00000 10259 20169 39897 40137 333 10342 29050 55110 59014;EQDQ01  00002PRCP99
0208827650999992000081800004-07320-047460FM-12+021299999V0209999C000012200019N0200001N1+02661+01791101431ADDAA199000091GA1001+999999999GF100991001001999999001001KA1240M+03411MA1999999099041MD1999999+0071REMSYN082AAXX  18004 82765 32998 00000 10266 20179 39904 40143 333 10341 29052 55109 58007;EQDQ01  00002PRCP99
0167827650999992000081818004-07320-047460FM-12+021299999V0200501N000512200019N0200001N1+03431+01251101311ADDAA199000091GF102991021011012501001001MA1999999098921MD1999999+0091REMSYN070AAXX  18184 82765 32698 20501 10343 20125 39892 40131 82100 333 58009;EQDQ01  00002PRCP99
0208827650999992000081900004-07320-047460FM-12+021299999V0209999C000012200019N0200001N1+02661+01651101351ADDAA199000091GA1001+999999999GF100991001001999999001001KA1240M+03511MA1999999098971MD1999999-0071REMSYN082AAXX  19004 82765 32998 00000 10266 20165 39897 40135 333 10351 29043 55108 59007;EQDQ01  00002PRCP99
0186827650999992000081912004-07320-047460FM-12+021299999V0209999C000012200019N0200001N1+02701+01721101581ADDAA199000091GF101991011061012501001001KA1240N+01901MA1999999099191MD1999999-0131REMSYN076AAXX  19124 82765 32698 10000 10270 20172 39919 40158 81600 333 20190 59013;EQDQ01  00002PRCP99
0167827650999992000081918004-07320-047460FM-12+021299999V0200501N001012200019N0200001N1+03521+01201101181ADDAA199000091GF101991011061012501001001MA1999999098801MD1999999-0121REMSYN070AAXX  19184 82765 32698 10502 10352 20120 39880 40118 81600 333 59012;EQDQ01  00002PRCP99
0208827650999992000082000004-07320-047460FM-12+021299999V0209999C000012200019N0200001N1+02521+01631101391ADDAA199000091GA1001+999999999GF100991001001999999001001KA1240M+03541MA1999999098991MD1999999+0021REMSYN082AAXX  20004 82765 32998 00000 10252 20163 39899 40139 333 10354 29049 55109 58002;EQDQ01  00002PRCP99
0186827650999992000082012004-07320-047460FM-12+021299999V0200501N000512200019N0200001N1+02761+01831101691ADDAA199000091GF101991011011012501001001KA1240N+01981MA1999999099291MD1999999+0101REMSYN076AAXX  20124 82765 32698 10501 10276 20183 39929 40169 81100 333 20198 58010;EQDQ01  00002PRCP99
0167827650999992000082018004-07320-047460FM-12+021299999V0201401N000512200019N0200001N1+03541+01241101281ADDAA199000091GF104991041011008001001001MA1999999098881MD1999999-0111REMSYN070AAXX  20184 82765 32598 41401 10354 20124 39888 40128 84100 333 59011;EQDQ01  00002PRCP99
0186827650999992000082112004-07320-047460FM-12+021299999V0200501N000510450019N0200001N1+02801+01721101681ADDAA199000091GF106991021021008001041001KA1240N+02131MA1999999099291MD1999999+0001REMSYN076AAXX  21124 82765 32598 60501 10280 20172 39929 40168 82240 333 20213 58000;EQDQ01  00002PRCP99
0167827650999992000082118004-07320-047460FM-12+021299999V0200501N001510450019N0200001N1+03501+01481101241ADDAA199000091GF106991031021008001041001MA1999999098861MD1999999-0021REMSYN070AAXX  21184 82765 32598 60503 10350 20148 39886 40124 83240 333 59002;EQDQ01  00002PRCP99
0208827650999992000082200004-07320-047460FM-12+021299999V0209999C000012200019N0200001N1+02921+01571101371ADDAA199000091GA1001+999999999GF100991001001999999001001KA1240M+03521MA1999999099001MD1999999-0011REMSYN082AAXX  22004 82765 32998 00000 10292 20157 39900 40137 333 10352 29042 55096 59001;EQDQ01  00002PRCP99
0196827650999992000082212004-07320-047460FM-12+021299999V0200501N000512200019N0200001N1+02861+01621101571ADDAA199000091GA1001+999999999GF100991001001999999001001KA1240N+02171MA1999999099201MD1999999-0091REMSYN070AAXX  22124 82765 32998 00501 10286 20162 39920 40157 333 20217 59009;EQDQ01  00002PRCP99
0167827650999992000082218004-07320-047460FM-12+021299999V0200501N001012200019N0200001N1+03601+01411101121ADDAA199000091GF103991031011008001001001MA1999999098761MD1999999-0101REMSYN070AAXX  22184 82765 32598 30502 10360 20141 39876 40112 83100 333 59010;EQDQ01  00002PRCP99
0208827650999992000082300004-07320-047460FM-12+021299999V0209999C000012200019N0200001N1+02841+01701101261ADDAA199000091GA1001+999999999GF100991001001999999001001KA1240M+03621MA1999999098891MD1999999-0111REMSYN082AAXX  23004 82765 32998 00000 10284 20170 39889 40126 333 10362 29044 55109 59011;EQDQ01  00002PRCP99
0186827650999992000082312004-07320-047460FM-12+021299999V0200501N000512200019N0200001N1+02941+01511101551ADDAA199000091GF101991011011008001001001KA1240N+02111MA1999999099181MD1999999-0021REMSYN076AAXX  23124 82765 32598 10501 10294 20151 39918 40155 81100 333 20211 59002;EQDQ01  00002PRCP99
0167827650999992000082318004-07320-047460FM-12+021299999V0200501N000510075019N0200001N1+03641+01321101071ADDAA199000091GF106991061021008001001001MA1999999098711MD1999999-0051REMSYN070AAXX  23184 82765 32598 60501 10364 20132 39871 40107 86200 333 59005;EQDQ01  00002PRCP99
0208827650999992000082400004-07320-047460FM-12+021299999V0209999C000012200019N0200001N1+02801+01631101211ADDAA199000091GA1001+999999999GF100991001001999999001001KA1240M+03261MA1999999098851MD1999999-0041REMSYN082AAXX  24004 82765 32998 00000 10280 20163 39885 40121 333 10326 29041 55108 59004;EQDQ01  00002PRCP99
0196827650999992000082412004-07320-047460FM-12+021299999V0200501N001012200019N0200001N1+02921+01601101561ADDAA199000091GA1001+999999999GF100991001001999999001001KA1240N+02061MA1999999099181MD1999999+0001REMSYN070AAXX  24124 82765 32998 00502 10292 20160 39918 40156 333 20206 58000;EQDQ01  00002PRCP99
0167827650999992000082418004-07320-047460FM-12+021299999V0200901N001012200019N0200001N1+03551+01241101061ADDAA199000091GF101991011011008001001001MA1999999098691MD1999999-0021REMSYN070AAXX  24184 82765 32598 10902 10355 20124 39869 40106 81100 333 59002;EQDQ01  00002PRCP99
0208827650999992000082500004-07320-047460FM-12+021299999V0209999C000012200019N0200001N1+02811+01601101221ADDAA199000091GA1001+999999999GF100991001001999999001001KA1240M+03601MA1999999098851MD1999999+0001REMSYN082AAXX  25004 82765 32998 00000 10281 20160 39885 40122 333 10360 29042 55110 58000;EQDQ01  00002PRCP99
0186827650999992000082512004-07320-047460FM-12+021299999V0200501N001512200019N0200001N1+02871+01811101571ADDAA199000091GF102991011011012501051001KA1240N+02171MA1999999099191MD1999999+0011REMSYN076AAXX  25124 82765 32698 20503 10287 20181 39919 40157 81150 333 20217 58001;EQDQ01  00002PRCP99
0167827650999992000082518004-07320-047460FM-12+021299999V0203601N001012200019N0200001N1+03571+01821101041ADDAA199000091GF104991041021008001001001MA1999999098671MD1999999-0021REMSYN070AAXX  25184 82765 32598 43602 10357 20182 39867 40104 84200 333 59002;EQDQ01  00002PRCP99
0208827650999992000082600004-07320-047460FM-12+021299999V0209999C000012200019N0200001N1+02791+01981101171ADDAA199000091GA1001+999999999GF100991001001999999001001KA1240M+03581MA1999999098801MD1999999-0051REMSYN082AAXX  26004 82765 32998 00000 10279 20198 39880 40117 333 10358 29053 55107 59005;EQDQ01  00002PRCP99
0196827650999992000082612004-07320-047460FM-12+021299999V0200501N000512200019N0200001N1+02981+01921101421ADDAA199000091GA1001+999999999GF100991001001999999001001KA1240N+02311MA1999999099051MD1999999-0141REMSYN070AAXX  26124 82765 32998 00501 10298 20192 39905 40142 333 20231 59014;EQDQ01  00002PRCP99
0167827650999992000082618004-07320-047460FM-12+021299999V0200501N001510075019N0200001N1+03641+01441100911ADDAA199000091GF106991061021008001001001MA1999999098561MD1999999-0111REMSYN070AAXX  26184 82765 32598 60503 10364 20144 39856 40091 86200 333 59011;EQDQ01  00002PRCP99
0208827650999992000082700004-07320-047460FM-12+021299999V0209999C000012200019N0200001N1+02921+01571101071ADDAA199000091GA1001+999999999GF100991001001999999001001KA1240M+03561MA1999999098711MD1999999-0091REMSYN082AAXX  27004 82765 32998 00000 10292 20157 39871 40107 333 10356 29042 55106 59009;EQDQ01  00002PRCP99
0196827650999992000082712004-07320-047460FM-12+021299999V0200501N001512200019N0200001N1+02941+02001101351ADDAA199000091GA1001+999999999GF100991001001999999001001KA1240N+02301MA1999999098991MD1999999-0061REMSYN070AAXX  27124 82765 32998 00503 10294 20200 39899 40135 333 20230 59006;EQDQ01  00002PRCP99
0167827650999992000082718004-07320-047460FM-12+021299999V0203601N001012200019N0200001N1+03521+01701101121ADDAA199000091GF104991041021008001001001MA1999999098761MD1999999+0021REMSYN070AAXX  27184 82765 32598 43602 10352 20170 39876 40112 84200 333 58002;EQDQ01  00002PRCP99
0208827650999992000082800004-07320-047460FM-12+021299999V0209999C000012200019N0200001N1+02861+01921101031ADDAA199000091GA1001+999999999GF100991001001999999001001KA1240M+03631MA1999999098671MD1999999-0041REMSYN082AAXX  28004 82765 32998 00000 10286 20192 39867 40103 333 10363 29051 55110 59004;EQDQ01  00002PRCP99
0196827650999992000082812004-07320-047460FM-12+021299999V0203601N000512200019N0200001N1+02861+02111101271ADDAA199000091GA1001+999999999GF100991001001999999001001KA1240N+02311MA1999999098901MD1999999-0091REMSYN070AAXX  28124 82765 32998 03601 10286 20211 39890 40127 333 20231 59009;EQDQ01  00002PRCP99
0167827650999992000082818004-07320-047460FM-12+021299999V0200501N000512200019N0200001N1+03641+02551100851ADDAA199000091GF103991031011008001001001MA1999999098501MD1999999+0011REMSYN070AAXX  28184 82765 32598 30501 10364 20255 39850 40085 83100 333 58001;EQDQ01  00002PRCP99
0208827650999992000082900004-07320-047460FM-12+021299999V0209999C000012200019N0200001N1+03001+01611100991ADDAA199000091GA1001+999999999GF100991001001999999001001KA1240M+03721MA1999999098641MD1999999-0031REMSYN082AAXX  29004 82765 32998 00000 10300 20161 39864 40099 333 10372 29045 55107 59003;EQDQ01  00002PRCP99
0196827650999992000082912004-07320-047460FM-12+021299999V0209999C000012200019N0200001N1+02861+01981101311ADDAA199000091GA1001+999999999GF100991001001999999001001KA1240N+02311MA1999999098951MD1999999+0051REMSYN070AAXX  29124 82765 32998 00000 10286 20198 39895 40131 333 20231 58005;EQDQ01  00002PRCP99
0167827650999992000082918004-07320-047460FM-12+021299999V0200501N001010075019N0200001N1+03781+01241100911ADDAA199000091GF106991061021008001001001MA1999999098571MD1999999+0071REMSYN070AAXX  29184 82765 32598 60502 10378 20124 39857 40091 86200 333 58007;EQDQ01  00002PRCP99
0208827650999992000083000004-07320-047460FM-12+021299999V0209999C000012200019N0200001N1+03021+01551101131ADDAA199000091GA1001+999999999GF100991001001999999001001KA1240M+03761MA1999999098741MD1999999+0131REMSYN082AAXX  30004 82765 32998 00000 10302 20155 39874 40113 333 10376 29041 55101 58013;EQDQ01  00002PRCP99
0186827650999992000083012004-07320-047460FM-12+021299999V0200501N001012200019N0200001N1+02991+02031101441ADDAA199000091GF102991021011008001001001KA1240N+02311MA1999999099081MD1999999+0131REMSYN076AAXX  30124 82765 32598 20502 10299 20203 39908 40144 82100 333 20231 58013;EQDQ01  00002PRCP99
0167827650999992000083018004-07320-047460FM-12+021299999V0202701N001512200019N0200001N1+03551+01941100741ADDAA199000091GF104991041021008001001001MA1999999098591MD1999999+0021REMSYN070AAXX  30184 82765 32598 42703 10355 20194 39859 40074 84200 333 58002;EQDQ01  00002PRCP99
0208827650999992000083100004-07320-047460FM-12+021299999V0203601N001010024019N0100001N1+03001+02051101141ADDAA199000091GA1091+999999999GF109991091999999999999999KA1240M+03601MA1999999098791MD1999999+0051REMSYN082AAXX  31004 82765 32/97 93602 10300 20205 39879 40114 333 10360 29052 55092 58005;EQDQ01  00002PRCP99
0186827650999992000083112004-07320-047460FM-12+021299999V0200501N001010075019N0200001N1+02941+02161101401ADDAA199000091GF106991061011008001001001KA1240N+02421MA1999999099041MD1999999-0041REMSYN076AAXX  31124 82765 32598 60502 10294 20216 39904 40140 86100 333 20242 59004;EQDQ01  00002PRCP99
0167827650999992000083118004-07320-047460FM-12+021299999V0200501N002612200019N0200001N1+03501+01261100981ADDAA199000091GF104991041011008001001001MA1999999098631MD1999999+0041REMSYN070AAXX  31184 82765 32598 40505 10350 20126 39863 40098 84100 333 58004;EQDQ01  00002PRCP99
0208827650999992000090100004-07320-047460FM-12+021299999V0209999C000012200019N0200001N1+02761+01321101131ADDAA199000091GA1001+999999999GF100991001001999999001001KA1240M+03551MA1999999098761MD1999999-0031REMSYN082AAXX  01004 82765 32998 00000 10276 20132 39876 40113 333 10355 29043 55073 59003;EQDQ01  00002PRCP99
0186827650999992000090112004-07320-047460FM-12+021299999V0203601N000512200019N0200001N1+02761+01591101341ADDAA199000091GF103991031011008001001001KA1240N+02001MA1999999098961MD1999999-0081REMSYN076AAXX  01124 82765 32598 33601 10276 20159 39896 40134 83100 333 20200 59008;EQDQ01  00002PRCP99
0167827650999992000090118004-07320-047460FM-12+021299999V0200501N001510450019N0200001N1+03661+01071100851ADDAA199000091GF106991031011008001041001MA1999999098491MD1999999-0141REMSYN070AAXX  01184 82765 32598 60503 10366 20107 39849 40085 83140 333 59014;EQDQ01  00002PRCP99
0208827650999992000090200004-07320-047460FM-12+021299999V0200501N000519999999N0200001N1+02801+01391101001ADDAA199000091GA1091+999999999GF109991091999999999999999KA1240M+03681MA1999999098631MD1999999-0131REMSYN082AAXX  02004 82765 32/98 90501 10280 20139 39863 40100 333 10368 29038 55101 59013;EQDQ01  00002PRCP99
0186827650999992000090212004-07320-047460FM-12+021299999V0202701N000512200019N0200001N1+02841+01851101321ADDAA199000091GF102991021011008001001001KA1240N+02331MA1999999098941MD1999999-0021REMSYN076AAXX  02124 82765 32598 22701 10284 20185 39894 40132 82100 333 20233 59002;EQDQ01  00002PRCP99
0167827650999992000090218004-07320-047460FM-12+021299999V0203601N000510075019N0200001N1+02621+01531100901ADDAA199000091GF106991061021008001001001MA1999999098551MD1999999+0061REMSYN070AAXX  02184 82765 32598 63601 10262 20153 39855 40090 86200 333 58006;EQDQ01  00002PRCP99
0208827650999992000090300004-07320-047460FM-12+021299999V0209999C000012200019N0200001N1+03001+01781101091ADDAA199000091GA1001+999999999GF100991001001999999001001KA1240M+03621MA1999999098731MD1999999+0101REMSYN082AAXX  03004 82765 32998 00000 10300 20178 39873 40109 333 10362 29040 55010 58010;EQDQ01  00002PRCP99
0186827650999992000090312004-07320-047460FM-12+021299999V0203201N000512200019N0200001N1+02861+02031101371ADDAA199000091GF102991021011008001001001KA1240N+02351MA1999999099011MD1999999+0071REMSYN076AAXX  03124 82765 32598 23201 10286 20203 39901 40137 82100 333 20235 58007;EQDQ01  00002PRCP99
0167827650999992000090318004-07320-047460FM-12+021299999V0200501N000510450019N0200001N1+03621+01741100891ADDAA199000091GF106991041021008001041001MA1999999098551MD1999999+0001REMSYN070AAXX  03184 82765 32598 60501 10362 20174 39855 40089 84240 333 58000;EQDQ01  00002PRCP99
0208827650999992000090400004-07320-047460FM-12+021299999V0209999C000019999999N0200001N1+03121+01951101071ADDAA199000091GA1091+999999999GF109991091999999999999999KA1240M+03741MA1999999098721MD1999999-0011REMSYN082AAXX  04004 82765 32/98 90000 10312 20195 39872 40107 333 10374 29048 55099 59001;EQDQ01  00002PRCP99
0173827650999992000090412004-07320-047460FM-12+021299999V0200901N000510120019N0200001N1+02361+02221101511ADDAA124014091GF108991081081008001999999KA1240N+02271MA1999999099121MD1999999+0181REMSYN082AAXX  04124 82765 21598 80901 10236 20222 39912 40151 888// 333 20227 58018 60144;
0167827650999992000090418004-07320-047460FM-12+021299999V0203201N000510450019N0200001N1+03241+02061101031ADDAA199000091GF106991041021008001041001MA1999999098661MD1999999+0111REMSYN070AAXX  04184 82765 32598 63201 10324 20206 39866 40103 84240 333 58011;EQDQ01  00002PRCP99
0208827650999992000090500004-07320-047460FM-12+021299999V0209999C000019999999N0200001N1+02761+02301101151ADDAA199000091GA1091+999999999GF109991091999999999999999KA1240M+03281MA1999999098751MD1999999+0021REMSYN082AAXX  05004 82765 32/98 90000 10276 20230 39875 40115 333 10328 29074 55012 58002;EQDQ01  00002PRCP99
0201827650999992000090512004-07320-047460FM-12+021299999V0209999C000010075019N0200001N1+02401+02231101451ADDAA124005191AY161061AY221061GF108991051071008001021999KA1240N+02291MA1999999099051MD1999999-0071MW1031REMSYN088AAXX  05124 82765 21598 80000 10240 20223 39905 40145 70362 8572/ 333 20229 59007 60054;
0182827650999992000090518004-07320-047460FM-12+021299999V0203601N000510042019N0100001N1+02441+02341101261ADDAA106005191AY161061AY221061GF108991051071004501021999MA1999999098841MD1999999+0181MW1511REMSYN082AAXX  05184 82765 21497 83601 10244 20234 39884 40126 75162 8572/ 333 58018 60051;
0207827650999992000090600004-07320-047460FM-12+021299999V0209999C000019999999N0200001N1+02331+02241101351ADDAA106000191AY161061AY221061GF108991999999008001999999KA1240M+02981MA1999999098931MD1999999+0181MW1031REMSYN094AAXX  06004 82765 21598 80000 10233 20224 39893 40135 70362 333 10298 29094 55005 58018 69921;
0201827650999992000090612004-07320-047460FM-12+021299999V0200501N001510042019N0100001N1+02301+02221101641ADDAA124008991AY161061AY221061GF108991051071004501021999KA1240N+02281MA1999999099211MD1999999+0161MW1031REMSYN088AAXX  06124 82765 21497 80503 10230 20222 39921 40164 70362 8572/ 333 20228 58016 60094;
0182827650999992000090618004-07320-047460FM-12+021299999V0200901N001010075019N0200001N1+02901+02201101141ADDAA106001091AY161061AY221061GF106991061021008001001001MA1999999098751MD1999999-0091MW1031REMSYN082AAXX  06184 82765 21598 60902 10290 20220 39875 40114 70362 86200 333 59009 60011;
0198827650999992000090700004-07320-047460FM-12+021299999V0203601N000510450019N0200001N1+02571+02231101271ADDAA199000091GF107991041011008001061001KA1240M+03001MA1999999098861MD1999999-0071REMSYN088AAXX  07004 82765 32598 73601 10257 20223 39886 40127 84160 333 10300 29081 55012 59007;EQDQ01  00002PRCP99
0173827650999992000090712004-07320-047460FM-12+021299999V0209999C000010120019N0200001N1+02641+02271101501ADDAA124001091GF108991051081008001021999KA1240N+02231MA1999999099101MD1999999-0111REMSYN082AAXX  07124 82765 22598 80000 10264 20227 39910 40150 8582/ 333 20223 59011 60014;
0182827650999992000090718004-07320-047460FM-12+021299999V0202301N000510075019N0200001N1+02101+99999100951ADDAA106001091AY161061AY221061GF106991061021008001001001MA1999999098571MD1999999-0181MW1031REMSYN082AAXX  07184 82765 21598 62301 10210 20220 39857 40095 70362 86200 333 59018 60011;
0198827650999992000090800004-07320-047460FM-12+021299999V0201401N001010075019N0200001N1+02481+02091101361ADDAA199000091GF108991081071008001999999KA1240M+03171MA1999999098961MD1999999+0101REMSYN088AAXX  08004 82765 32598 81402 10248 20209 39896 40136 887// 333 10317 29074 55014 58010;EQDQ01  00002PRCP99
0167827650999992000090818004-07320-047460FM-12+021299999V0200901N001010450019N0200001N1+03161+01961101121ADDAA199000091GF107991041081008001021001MA1999999098741MD1999999+0171REMSYN070AAXX  08184 82765 32598 70902 10316 20196 39874 40112 84820 333 58017;EQDQ01  00002PRCP99
0208827650999992000090900004-07320-047460FM-12+021299999V0209999C000019999999N0200001N1+02801+02181101161ADDAA199000091GA1091+999999999GF109991091999999999999999KA1240M+03201MA1999999098771MD1999999-0191REMSYN082AAXX  09004 82765 32/98 90000 10280 20218 39877 40116 333 10320 29067 55017 59019;EQDQ01  00002PRCP99
0186827650999992000090912004-07320-047460FM-12+021299999V0209999C000010450019N0200001N1+02821+02291101381ADDAA199000091GF106991041081008001021001KA1240N+02351MA1999999099001MD1999999-0081REMSYN076AAXX  09124 82765 32598 60000 10282 20229 39900 40138 84820 333 20235 59008;EQDQ01  00002PRCP99
0195827650999992000090918004-07320-047460FM-12+021299999V0203201N000510450019N0200001N1+02741+02141101061ADDAA199000091AY191061AY291061GF106991031031008001021001MA1999999098661MD1999999-0081MW1291REMSYN076AAXX  09184 82765 31598 63201 10274 20214 39866 40106 72999 83320 333 59008;EQDQ01  00002PRCP99
0198827650999992000091000004-07320-047460FM-12+021299999V0209999C000012200019N0200001N1+02601+02271101181ADDAA199000091GF104991021011008001031001KA1240M+03261MA1999999098801MD1999999+0031REMSYN088AAXX  10004 82765 32598 40000 10260 20227 39880 40118 82130 333 10326 29075 55032 58003;EQDQ01  00002PRCP99
0186827650999992000091012004-07320-047460FM-12+021299999V0203601N000510075019N0200001N1+02761+02211101431ADDAA199000091GF105991051021008001001001KA1240N+02271MA1999999099041MD1999999+0041REMSYN076AAXX  10124 82765 32598 53601 10276 20221 39904 40143 85200 333 20227 58004;EQDQ01  00002PRCP99
0167827650999992000091018004-07320-047460FM-12+021299999V0200501N000510075019N0200001N1+03421+01981100931ADDAA199000091GF106991061021008001001001MA1999999098581MD1999999-0081REMSYN070AAXX  10184 82765 32598 60501 10342 20198 39858 40093 86200 333 59008;EQDQ01  00002PRCP99
0208827650999992000091100004-07320-047460FM-12+021299999V0209999C000012200019N0200001N1+02881+02081101061ADDAA199000091GA1001+999999999GF100991001001999999001001KA1240M+03461MA1999999098691MD1999999-0111REMSYN082AAXX  11004 82765 32998 00000 10288 20208 39869 40106 333 10346 29060 55094 59011;EQDQ01  00002PRCP99
0186827650999992000091112004-07320-047460FM-12+021299999V0209999C000010075019N0200001N1+02781+02211101321ADDAA199000091GF107991071021008001001001KA1240N+02231MA1999999098951MD1999999-0091REMSYN076AAXX  11124 82765 32598 70000 10278 20221 39895 40132 87200 333 20223 59009;EQDQ01  00002PRCP99
0182827650999992000091118004-07320-047460FM-12+021299999V0200501N001010450019N0200001N1+03201+02031100891ADDAA106004191AY161061AY221061GF106991041021008001021001MA1999999098511MD1999999-0071MW1031REMSYN082AAXX  11184 82765 21598 60502 10320 20203 39851 40089 70362 84220 333 59007 60041;
0208827650999992000091200004-07320-047460FM-12+021299999V0209999C000012200019N0200001N1+02641+02251101151ADDAA199000091GA1001+999999999GF100991001001999999001001KA1240M+03221MA1999999098771MD1999999+0081REMSYN082AAXX  12004 82765 32998 00000 10264 20225 39877 40115 333 10322 29070 55040 58008;EQDQ01  00002PRCP99
0186827650999992000091212004-07320-047460FM-12+021299999V0209999C000010075019N0200001N1+02621+02351101411ADDAA199000091GF105991051021008001001001KA1240N+02221MA1999999099021MD1999999+0071REMSYN076AAXX  12124 82765 32598 50000 10262 20235 39902 40141 85200 333 20222 58007;EQDQ01  00002PRCP99
0167827650999992000091218004-07320-047460FM-12+021299999V0200501N001510075019N0200001N1+03011+02141101071ADDAA199000091GF106991061021008001001001MA1999999098681MD1999999+0171REMSYN070AAXX  12184 82765 32598 60503 10301 20214 39868 40107 86200 333 58017;EQDQ01  00002PRCP99
0208827650999992000091300004-07320-047460FM-12+021299999V0209999C000012200019N0200001N1+02671+02291101161ADDAA199000091GA1001+999999999GF100991001001999999001001KA1240M+03201MA1999999098771MD1999999+0001REMSYN082AAXX  13004 82765 32998 00000 10267 20229 39877 40116 333 10320 29076 55024 58000;EQDQ01  00002PRCP99
0186827650999992000091312004-07320-047460FM-12+021299999V0201401N000510075019N0200001N1+02721+02281101541ADDAA199000091GF107991071021008001001001KA1240N+02201MA1999999099151MD1999999+0131REMSYN076AAXX  13124 82765 32598 71401 10272 20228 39915 40154 87200 333 20220 58013;EQDQ01  00002PRCP99
0167827650999992000091318004-07320-047460FM-12+021299999V0203601N000510075019N0200001N1+03211+02031101161ADDAA199000091GF105991051091008001001001MA1999999098781MD1999999+0101REMSYN070AAXX  13184 82765 32598 53601 10321 20203 39878 40116 85900 333 58010;EQDQ01  00002PRCP99
0208827650999992000091400004-07320-047460FM-12+021299999V0209999C000012200019N0200001N1+02731+02191101211ADDAA199000091GA1001+999999999GF100991001001999999001001KA1240M+03291MA1999999098831MD1999999+0061REMSYN082AAXX  14004 82765 32998 00000 10273 20219 39883 40121 333 10329 29068 55070 58006;EQDQ01  00002PRCP99
0186827650999992000091412004-07320-047460FM-12+021299999V0200501N001010450019N0200001N1+02541+02111101641ADDAA199000091GF106991041081008001041001KA1240N+02291MA1999999099241MD1999999+0091REMSYN076AAXX  14124 82765 32598 60502 10254 20211 39924 40164 84840 333 20229 58009;EQDQ01  00002PRCP99
0167827650999992000091418004-07320-047460FM-12+021299999V0200501N001510075019N0200001N1+03481+01791101081ADDAA199000091GF106991051021008001041001MA1999999098721MD1999999-0061REMSYN070AAXX  14184 82765 32598 60503 10348 20179 39872 40108 85240 333 59006;EQDQ01  00002PRCP99
0198827650999992000091500004-07320-047460FM-12+021299999V0209999C000012200019N0200001N1+02861+02161101201ADDAA199000091GF101991011021008001001001KA1240M+03481MA1999999098821MD1999999-0011REMSYN088AAXX  15004 82765 32598 10000 10286 20216 39882 40120 81200 333 10348 29062 55078 59001;EQDQ01  00002PRCP99
0179827650999992000091512004-07320-047460FM-12+021299999V0209999C000010450019N0200001N1+02601+02231101551ADDAA124003091GF105991021011008001041001KA1240N+02231MA1999999099161MD1999999-0081REMSYN088AAXX  15124 82765 21598 50000 10260 20223 39916 40155 7//66 82140 333 20223 59008 60034;
0167827650999992000091518004-07320-047460FM-12+021299999V0200501N000510450019N0200001N1+03441+01841101121ADDAA199000091GF106991021021008001041001MA1999999098771MD1999999+0051REMSYN070AAXX  15184 82765 32598 60501 10344 20184 39877 40112 82240 333 58005;EQDQ01  00002PRCP99
0220827650999992000091600004-07320-047460FM-12+021299999V0209999C000019999999N0200001N1+02761+02021101011ADDAA199000091GA1091+999999999GF109991091999999999999999KA1240M+03441MA1999999098631MD1999999-0191MW1131REMSYN088AAXX  16004 82765 31/98 90000 10276 20202 39863 40101 713// 333 10344 29062 55092 59019;EQDQ01  00002PRCP99
0179827650999992000091612004-07320-047460FM-12+021299999V0209999C000010450019N0200001N1+02561+02191101611ADDAA124002091GF105991031021008001041001KA1240N+02251MA1999999099221MD1999999+0061REMSYN088AAXX  16124 82765 21598 50000 10256 20219 39922 40161 7//66 83240 333 20225 58006 60024;
0167827650999992000091618004-07320-047460FM-12+021299999V0203601N000510075019N0200001N1+03281+02031101161ADDAA199000091GF105991051021008001001001MA1999999098791MD1999999+0021REMSYN070AAXX  16184 82765 32598 53601 10328 20203 39879 40116 85200 333 58002;EQDQ01  00002PRCP99
0220827650999992000091700004-07320-047460FM-12+021299999V0209999C000019999999N0200001N1+02841+02091101301ADDAA199000091GA1091+999999999GF109991091999999999999999KA1240M+03341MA1999999098911MD1999999+0091MW1131REMSYN088AAXX  17004 82765 31/98 90000 10284 20209 39891 40130 713// 333 10334 29064 55084 58009;EQDQ01  00002PRCP99
0186827650999992000091712004-07320-047460FM-12+021299999V0201801N001010075019N0200001N1+02791+02131101631ADDAA199000091GF105991051021008001001001KA1240N+02011MA1999999099251MD1999999+0031REMSYN076AAXX  17124 82765 32598 51802 10279 20213 39925 40163 85200 333 20201 58003;EQDQ01  00002PRCP99
0167827650999992000091718004-07320-047460FM-12+021299999V0200901N001012200019N0200001N1+03481+01751101061ADDAA199000091GF104991041021008001001001MA1999999098681MD1999999-0111REMSYN070AAXX  17184 82765 32598 40902 10348 20175 39868 40106 84200 333 59011;EQDQ01  00002PRCP99
0208827650999992000091800004-07320-047460FM-12+021299999V0209999C000019999999N0200001N1+02891+02211101261ADDAA199000091GA1091+999999999GF109991091999999999999999KA1240M+03491MA1999999098891MD1999999-0021REMSYN082AAXX  18004 82765 32/98 90000 10289 20221 39889 40126 333 10349 29060 55092 59002;EQDQ01  00002PRCP99
0201827650999992000091812004-07320-047460FM-12+021299999V0200501N001512200019N0200001N1+02801+02151101531ADDAA124001091AY161061AY221061GF104991031011008001061001KA1240N+02301MA1999999099151MD1999999-0101MW1021REMSYN088AAXX  18124 82765 21598 40503 10280 20215 39915 40153 70262 83160 333 20230 59010 60014;
0167827650999992000091818004-07320-047460FM-12+021299999V0200501N001010075019N0200001N1+03511+01981101051ADDAA199000091GF106991061021008001001001MA1999999098691MD1999999+0011REMSYN070AAXX  18184 82765 32598 60502 10351 20198 39869 40105 86200 333 58001;EQDQ01  00002PRCP99
0208827650999992000091900004-07320-047460FM-12+021299999V0209999C000019999999N0200001N1+02841+01881101251ADDAA199000091GA1091+999999999GF109991091999999999999999KA1240M+03501MA1999999098871MD1999999-0031REMSYN082AAXX  19004 82765 32/98 90000 10284 20188 39887 40125 333 10350 29096 55056 59003;EQDQ01  00002PRCP99
0186827650999992000091912004-07320-047460FM-12+021299999V0201401N001012200019N0200001N1+02841+02291101591ADDAA199000091GF104991041021008001001001KA1240N+02341MA1999999099211MD1999999+0061REMSYN076AAXX  19124 82765 32598 41402 10284 20229 39921 40159 84200 333 20234 58006;EQDQ01  00002PRCP99
0167827650999992000091918004-07320-047460FM-12+021299999V0209999C000012200019N0200001N1+03501+01681100991ADDAA199000091GF104991041021008001001001MA1999999098631MD1999999-0061REMSYN070AAXX  19184 82765 32598 40000 10350 20168 39863 40099 84200 333 59006;EQDQ01  00002PRCP99
0208827650999992000092000004-07320-047460FM-12+021299999V0209999C000019999999N0200001N1+02881+02051101251ADDAA199000091GA1091+999999999GF109991091999999999999999KA1240M+03521MA1999999098891MD1999999+0021REMSYN082AAXX  20004 82765 32/98 90000 10288 20205 39889 40125 333 10352 29057 55088 58002;EQDQ01  00002PRCP99
0196827650999992000092012004-07320-047460FM-12+021299999V0200501N000512200019N0200001N1+02921+01801101561ADDAA199000091GA1001+999999999GF100991001001999999001001KA1240N+02371MA1999999099191MD1999999-0021REMSYN070AAXX  20124 82765 32998 00501 10292 20180 39919 40156 333 20237 59002;EQDQ01  00002PRCP99
0167827650999992000092018004-07320-047460FM-12+021299999V0209999C000010075019N0200001N1+03501+01321101101ADDAA199000091GF105991051021008001001001MA1999999098741MD1999999+0111REMSYN070AAXX  20184 82765 32598 50000 10350 20132 39874 40110 85200 333 58011;EQDQ01  00002PRCP99
0208827650999992000092100004-07320-047460FM-12+021299999V0209999C000019999999N0200001N1+02851+01931101121ADDAA199000091GA1091+999999999GF109991091999999999999999KA1240M+03581MA1999999098761MD1999999-0131REMSYN082AAXX  21004 82765 32/98 90000 10285 20193 39876 40112 333 10358 29048 55098 59013;EQDQ01  00002PRCP99
0186827650999992000092112004-07320-047460FM-12+021299999V0200501N000512200019N0200001N1+03021+01451101371ADDAA199000091GF102991021011008001001001KA1240N+02271MA1999999099011MD1999999-0181REMSYN076AAXX  21124 82765 32598 20501 10302 20145 39901 40137 82100 333 20227 59018;EQDQ01  00002PRCP99
0167827650999992000092118004-07320-047460FM-12+021299999V0200901N000512200019N0200001N1+03521+01391101061ADDAA199000091GF104991041021008001001001MA1999999098701MD1999999-0041REMSYN070AAXX  21184 82765 32598 40901 10352 20139 39870 40106 84200 333 59004;EQDQ01  00002PRCP99
0186827650999992000092212004-07320-047460FM-12+021299999V0200901N001012200019N0200001N1+02961+01531101581ADDAA199000091GF102991021011008001001001KA1240N+02251MA1999999099211MD1999999+0201REMSYN076AAXX  22124 82765 32598 20902 10296 20153 39921 40158 82100 333 20225 58020;EQDQ01  00002PRCP99
0167827650999992000092218004-07320-047460FM-12+021299999V0200901N000512200019N0200001N1+03561+01761101101ADDAA199000091GF102991021021008001001001MA1999999098741MD1999999+0041REMSYN070AAXX  22184 82765 32598 20901 10356 20176 39874 40110 82200 333 58004;EQDQ01  00002PRCP99
0208827650999992000092300004-07320-047460FM-12+021299999V0209999C000019999999N0200001N1+02961+01531101171ADDAA199000091GA1091+999999999GF109991091999999999999999KA1240M+03561MA1999999098811MD1999999-0061REMSYN082AAXX  23004 82765 32/98 90000 10296 20153 39881 40117 333 10356 29039 55087 59006;EQDQ01  00002PRCP99
0186827650999992000092312004-07320-047460FM-12+021299999V0200501N001010075019N0200001N1+02961+01871101371ADDAA199000091GF106991061011008001001001KA1240N+02201MA1999999099011MD1999999-0201REMSYN076AAXX  23124 82765 32598 60502 10296 20187 39901 40137 86100 333 20220 59020;EQDQ01  00002PRCP99
0167827650999992000092318004-07320-047460FM-12+021299999V0203201N000510075019N0200001N1+03531+01701100921ADDAA199000091GF105991051021008001001001MA1999999098561MD1999999-0181REMSYN070AAXX  23184 82765 32598 53201 10353 20170 39856 40092 85200 333 59018;EQDQ01  00002PRCP99
0208827650999992000092400004-07320-047460FM-12+021299999V0209999C000019999999N0200001N1+02891+01911101051ADDAA199000091GA1091+999999999GF109991091999999999999999KA1240M+03561MA1999999098691MD1999999-0121REMSYN082AAXX  24004 82765 32/98 90000 10289 20191 39869 40105 333 10356 29050 55092 59012;EQDQ01  00002PRCP99
0196827650999992000092412004-07320-047460FM-12+021299999V0200501N000512200019N0200001N1+02841+02011101341ADDAA199000091GA1001+999999999GF100991001001999999001001KA1240N+02211MA1999999098971MD1999999-0041REMSYN070AAXX  24124 82765 32998 00501 10284 20201 39897 40134 333 20221 59004;EQDQ01  00002PRCP99
0167827650999992000092418004-07320-047460FM-12+021299999V0200501N001012200019N0200001N1+03401+01931100951ADDAA199000091GF101991011011008001001001MA1999999098611MD1999999+0101REMSYN070AAXX  24184 82765 32598 10502 10340 20193 39861 40095 81100 333 58010;EQDQ01  00002PRCP99
0208827650999992000092500004-07320-047460FM-12+021299999V0209999C000019999999N0200001N1+02921+02011101021ADDAA199000091GA1091+999999999GF109991091999999999999999KA1240M+03421MA1999999098661MD1999999-0031REMSYN082AAXX  25004 82765 32/98 90000 10292 20201 39866 40102 333 10342 29055 55103 59003;EQDQ01  00002PRCP99
0182827650999992000092518004-07320-047460FM-12+021299999V0200501N001010075019N0200001N1+03081+02131101041ADDAA106002091AY161061AY221061GF105991051021008001001001MA1999999098651MD1999999+0041MW1031REMSYN082AAXX  25184 82765 21598 50502 10308 20213 39865 40104 70362 85200 333 58004 60021;
0173827650999992000092612004-07320-047460FM-12+021299999V0203601N000510450019N0200001N1+02841+02191101581ADDAA124002091GF106991041081008001041001KA1240N+02291MA1999999099201MD1999999+0171REMSYN082AAXX  26124 82765 22598 63601 10284 20219 39920 40158 84840 333 20229 58017 60024;
0167827650999992000092618004-07320-047460FM-12+021299999V0209999C000010120019N0200001N1+03001+02111101181ADDAA199000091GF108991061081008001041001MA1999999098801MD1999999+0151REMSYN070AAXX  26184 82765 32598 80000 10300 20211 39880 40118 86840 333 58015;EQDQ01  00002PRCP99
0208827650999992000092700004-07320-047460FM-12+021299999V0209999C000019999999N0200001N1+02621+02211101321ADDAA199000091GA1091+999999999GF109991091999999999999999KA1240M+03181MA1999999098941MD1999999+0101REMSYN082AAXX  27004 82765 32/98 90000 10262 20221 39894 40132 333 10318 29071 55041 58010;EQDQ01  00002PRCP99
0185827650999992000092712004-07320-047460FM-12+021299999V0200501N000510120019N0200001N1+02341+02071101631ADDAA124000591GF108991061081008001999999KA1240N+02251MA1999999099221MD1999999+0021MW1291REMSYN088AAXX  27124 82765 21598 80501 10234 20207 39922 40163 729// 868// 333 20225 58002 69964;
0160827650999992000092718004-07320-047460FM-12+021299999V0209999C000010120019N0200001N1+02401+02261101341ADDAA106015091GF108991061081008001021999MA1999999098911MD1999999+0111REMSYN082AAXX  27184 82765 21598 80000 10240 20226 39891 40134 7//96 8682/ 333 58011 60151;
0208827650999992000092800004-07320-047460FM-12+021299999V0209999C000019999999N0200001N1+02321+02131101431ADDAA199000091GA1091+999999999GF109991091999999999999999KA1240M+02621MA1999999099011MD1999999+0071REMSYN082AAXX  28004 82765 32/98 90000 10232 20213 39901 40143 333 10262 29089 55000 58007;EQDQ01  00002PRCP99
0173827650999992000092812004-07320-047460FM-12+021299999V0209999C000010120019N0200001N1+02471+02151101601ADDAA124015091GF107991071081008001001001KA1240N+02081MA1999999099181MD1999999-0041REMSYN082AAXX  28124 82765 22598 70000 10247 20215 39918 40160 87800 333 20208 59004 60154;
0208827650999992000092900004-07320-047460FM-12+021299999V0209999C000019999999N0200001N1+02541+02171101391ADDAA199000091GA1091+999999999GF109991091999999999999999KA1240M+03281MA1999999098981MD1999999-0031REMSYN082AAXX  29004 82765 32/98 90000 10254 20217 39898 40139 333 10328 29077 55041 59003;EQDQ01  00002PRCP99
0201827650999992000092912004-07320-047460FM-12+021299999V0203601N001010450019N0200001N1+02401+02261101641ADDAA124000391AY161061AY221061GF107991041081008001021001KA1240N+02311MA1999999099221MD1999999+0041MW1031REMSYN088AAXX  29124 82765 21598 73602 10240 20226 39922 40164 70362 84820 333 20231 58004 69934;
0167827650999992000092918004-07320-047460FM-12+021299999V0203201N001510450019N0200001N1+02901+02201101221ADDAA199000091GF107991041021008001021001MA1999999098831MD1999999+0101REMSYN070AAXX  29184 82765 32598 73203 10290 20220 39883 40122 84220 333 58010;EQDQ01  00002PRCP99
0208827650999992000093000004-07320-047460FM-12+021299999V0209999C000019999999N0200001N1+02481+02211101381ADDAA199000091GA1091+999999999GF109991091999999999999999KA1240M+02921MA1999999098971MD1999999-0011REMSYN082AAXX  30004 82765 32/98 90000 10248 20221 39897 40138 333 10292 29082 55001 59001;EQDQ01  00002PRCP99
0186827650999992000093012004-07320-047460FM-12+021299999V0209999C000010075019N0200001N1+02671+02141101601ADDAA199000091GF106991061011008001001001KA1240N+02221MA1999999099201MD1999999-0021REMSYN076AAXX  30124 82765 32598 60000 10267 20214 39920 40160 86100 333 20222 59002;EQDQ01  00002PRCP99
0167827650999992000093018004-07320-047460FM-12+021299999V0203201N001510450019N0200001N1+03001+02241101221ADDAA199000091GF107991041021008001021001MA1999999098831MD1999999+0001REMSYN070AAXX  30184 82765 32598 73203 10300 20224 39883 40122 84220 333 58000;EQDQ01  00002PRCP99
0208827650999992000100100004-07320-047460FM-12+021299999V0209999C000019999999N0200001N1+02571+02271101291ADDAA199000091GA1091+999999999GF109991091999999999999999KA1240M+03171MA1999999098891MD1999999+0081REMSYN082AAXX  01004 82765 32/98 90000 10257 20227 39889 40129 333 10317 29076 55034 58008;EQDQ01  00002PRCP99
0186827650999992000100112004-07320-047460FM-12+021299999V0200501N000510450019N0200001N1+02701+02201101701ADDAA199000091GF106991031021008001041001KA1240N+02161MA1999999099301MD1999999+0101REMSYN076AAXX  01124 82765 32598 60501 10270 20220 39930 40170 83240 333 20216 58010;EQDQ01  00002PRCP99
0195827650999992000100118004-07320-047460FM-12+021299999V0202701N001010450019N0200001N1+03101+02201101241ADDAA199000091AY121061AY221061GF108991041031008001021999MA1999999098851MD1999999+0021MW1171REMSYN076AAXX  01184 82765 31598 82702 10310 20220 39885 40124 71722 8432/ 333 58002;EQDQ01  00002PRCP99
0208827650999992000100200004-07320-047460FM-12+021299999V0209999C000019999999N0200001N1+02551+02211101341ADDAA199000091GA1091+999999999GF109991091999999999999999KA1240M+03161MA1999999098941MD1999999+0051REMSYN082AAXX  02004 82765 32/98 90000 10255 20221 39894 40134 333 10316 29074 55032 58005;EQDQ01  00002PRCP99
0186827650999992000100212004-07320-047460FM-12+021299999V0201801N000510450019N0200001N1+02661+02271101781ADDAA199000091GF106991041081008001041001KA1240N+02231MA1999999099371MD1999999+0081REMSYN076AAXX  02124 82765 32598 61801 10266 20227 39937 40178 84840 333 20223 58008;EQDQ01  00002PRCP99
0167827650999992000100218004-07320-047460FM-12+021299999V0203601N000510120019N0200001N1+03281+02101101291ADDAA199000091GF106991051081008001041001MA1999999098911MD1999999+0061REMSYN070AAXX  02184 82765 32598 63601 10328 20210 39891 40129 85840 333 58006;EQDQ01  00002PRCP99
0208827650999992000100300004-07320-047460FM-12+021299999V0209999C000019999999N0200001N1+02521+02151101341ADDAA199000091GA1091+999999999GF109991091999999999999999KA1240M+03361MA1999999098941MD1999999+0001REMSYN082AAXX  03004 82765 32/98 90000 10252 20215 39894 40134 333 10336 29072 55062 58000;EQDQ01  00002PRCP99
0186827650999992000100312004-07320-047460FM-12+021299999V0203601N000510120019N0200001N1+02721+02101101611ADDAA199000091GF107991071081008001001001KA1240N+02171MA1999999099211MD1999999-0161REMSYN076AAXX  03124 82765 32598 73601 10272 20210 39921 40161 87800 333 20217 59016;EQDQ01  00002PRCP99
0167827650999992000100318004-07320-047460FM-12+021299999V0203201N000510450019N0200001N1+03301+01981101141ADDAA199000091GF105991041021008001041001MA1999999098771MD1999999-0141REMSYN070AAXX  03184 82765 32598 53201 10330 20198 39877 40114 84240 333 59014;EQDQ01  00002PRCP99
0208827650999992000100400004-07320-047460FM-12+021299999V0209999C000019999999N0200001N1+02841+02121101351ADDAA199000091GA1091+999999999GF109991091999999999999999KA1240M+03291MA1999999098971MD1999999+0031REMSYN082AAXX  04004 82765 32/98 90000 10284 20212 39897 40135 333 10329 29050 55070 58003;EQDQ01  00002PRCP99
0198827650999992000100412004-07320-047460FM-12+021299999V0200501N000510450019N0200001N1+02741+02241101591ADDAA199000091GF106991041031008001041001KA1240N+02291MA1999999099211MD1999999+0001MW1291REMSYN082AAXX  04124 82765 31598 60501 10274 20224 39921 40159 729// 84340 333 20229 58000;EQDQ01  00002PRCP99
0179827650999992000100418004-07320-047460FM-12+021299999V0201801N001010450019N0200001N1+02681+01861101351ADDAA199000091GF108991031031008001041001MA1999999098941MD1999999+0171MW1291REMSYN076AAXX  04184 82765 31598 81802 10268 20186 39894 40135 729// 83340 333 58017;EQDQ01  00002PRCP99
0208827650999992000100500004-07320-047460FM-12+021299999V0209999C000019999999N0200001N1+02301+01981101411ADDAA199000091GA1091+999999999GF109991091999999999999999KA1240M+03041MA1999999099001MD1999999+0031REMSYN082AAXX  05004 82765 32/98 90000 10230 20198 39900 40141 333 10304 29075 55021 58003;EQDQ01  00002PRCP99
0186827650999992000100512004-07320-047460FM-12+021299999V0209999C000010450019N0200001N1+02551+02091101651ADDAA199000091GF105991031081008001021001KA1240N+02061MA1999999099231MD1999999+0021REMSYN076AAXX  05124 82765 32598 50000 10255 20209 39923 40165 83820 333 20206 58002;EQDQ01  00002PRCP99
0167827650999992000100518004-07320-047460FM-12+021299999V0202301N000512200019N0200001N1+03291+02161101181ADDAA199000091GF104991041021008001001001MA1999999098801MD1999999-0141REMSYN070AAXX  05184 82765 32598 42301 10329 20216 39880 40118 84200 333 59014;EQDQ01  00002PRCP99
0198827650999992000100600004-07320-047460FM-12+021299999V0209999C000012200019N0200001N1+02661+02201101331ADDAA199000091GF102991021011008001001001KA1240M+03321MA1999999098931MD1999999-0071REMSYN088AAXX  06004 82765 32598 20000 10266 20220 39893 40133 82100 333 10332 29070 55081 59007;EQDQ01  00002PRCP99
0186827650999992000100612004-07320-047460FM-12+021299999V0203601N001012200019N0200001N1+02921+02221101421ADDAA199000091GF102991021011008001001001KA1240N+02331MA1999999099041MD1999999-0191REMSYN076AAXX  06124 82765 32598 23602 10292 20222 39904 40142 82100 333 20233 59019;EQDQ01  00002PRCP99
0167827650999992000100618004-07320-047460FM-12+021299999V0203201N001510075019N0200001N1+03381+01981100971ADDAA199000091GF106991061031008001001001MA1999999098591MD1999999+0211REMSYN070AAXX  06184 82765 32598 63203 10338 20198 39859 40097 86300 333 58021;EQDQ01  00002PRCP99
0198827650999992000100700004-07320-047460FM-12+021299999V0201801N002610120019N0200001N1+02921+02121101171ADDAA199000091GF108991081081008001999999KA1240M+03461MA1999999098811MD1999999-0121REMSYN088AAXX  07004 82765 32598 81805 10292 20212 39881 40117 888// 333 10346 29058 55087 59012;EQDQ01  00002PRCP99
0186827650999992000100712004-07320-047460FM-12+021299999V0203601N001512200019N0200001N1+02941+02191101491ADDAA199000091GF104991041031008001001001KA1240N+02341MA1999999099121MD1999999+0081REMSYN076AAXX  07124 82765 32598 43603 10294 20219 39912 40149 84300 333 20234 58008;EQDQ01  00002PRCP99
0167827650999992000100718004-07320-047460FM-12+021299999V0203601N001510075019N0200001N1+03411+02111101091ADDAA199000091GF107991071031008001001001MA1999999098731MD1999999+0141REMSYN070AAXX  07184 82765 32598 73603 10341 20211 39873 40109 87300 333 58014;EQDQ01  00002PRCP99
0198827650999992000100800004-07320-047460FM-12+021299999V0209999C000010120019N0200001N1+02511+02191101311ADDAA199000091GF108991081001012501021999KA1240M+03411MA1999999098921MD1999999+0111REMSYN088AAXX  08004 82765 32698 80000 10251 20219 39892 40131 8802/ 333 10341 29069 55046 58011;EQDQ01  00002PRCP99
0186827650999992000100812004-07320-047460FM-12+021299999V0200501N001010120019N0200001N1+02701+02131101631ADDAA199000091GF107991061081008001041001KA1240N+02211MA1999999099231MD1999999+0111REMSYN076AAXX  08124 82765 32598 70502 10270 20213 39923 40163 86840 333 20221 58011;EQDQ01  00002PRCP99
0201827650999992000100818004-07320-047460FM-12+021299999V0200501N001010120019N0200001N1+02601+01891101311ADDAA106001091AY191061AY251061GF108991999081008001021999MA1999999098901MD1999999+0171MW1601REMSYN082AAXX  08184 82765 21598 80502 10260 20189 39890 40131 76095 8882/ 333 58017 60011;EQDQ01+000082SCOTLC
0173827650999992000100912004-07320-047460FM-12+021299999V0201801N000510450019N0200001N1+02621+02311101581ADDAA124002091GF105991041021008001041001KA1240N+02171MA1999999099171MD1999999-0061REMSYN082AAXX  09124 82765 22598 51801 10262 20231 39917 40158 84240 333 20217 59006 60024;
0160827650999992000100918004-07320-047460FM-12+021299999V0203601N000510075019N0200001N1+02761+02141101331ADDAA106000191GF106991051021008001041001MA1999999098931MD1999999+0031REMSYN082AAXX  09184 82765 21598 63601 10276 20214 39893 40133 7//95 85240 333 58003 69921;
0208827650999992000101000004-07320-047460FM-12+021299999V0209999C000019999999N0200001N1+02561+02151101311ADDAA199000091GA1091+999999999GF109991091999999999999999KA1240M+03121MA1999999098911MD1999999-0071REMSYN082AAXX  10004 82765 32/98 90000 10256 20215 39891 40131 333 10312 29077 55043 59007;EQDQ01  00002PRCP99
0185827650999992000101012004-07320-047460FM-12+021299999V0200501N001012200019N0040001N1+02801+02181101501ADDAA124000191GF102991021011008001041001KA1240N+02211MA1999999099111MD1999999-0061MW1041REMSYN088AAXX  10124 82765 21596 20502 10280 20218 39911 40150 704// 82140 333 20221 59006 69924;
0167827650999992000101018004-07320-047460FM-12+021299999V0203601N000510450019N0200001N1+03441+01671101011ADDAA199000091GF106991041021008001041001MA1999999098651MD1999999-0281REMSYN070AAXX  10184 82765 32598 63601 10344 20167 39865 40101 84240 333 59028;EQDQ01  00002PRCP99
0208827650999992000101100004-07320-047460FM-12+021299999V0209999C000012200019N0200001N1+02801+02131101141ADDAA199000091GA1001+999999999GF100991001001999999001001KA1240M+03541MA1999999098771MD1999999-0141REMSYN082AAXX  11004 82765 32998 00000 10280 20213 39877 40114 333 10354 29060 55013 59014;EQDQ01  00002PRCP99
0224827650999992000101112004-07320-047460FM-12+021299999V0200501N001012200019N0100001N1+03031+01891101471ADDAA199000091AY101061AY201061GA1001+999999999GF100991001001999999001001KA1240N+02261MA1999999099101MD1999999-0011MW1051REMSYN076AAXX  11124 82765 31997 00502 10303 20189 39910 40147 70500 333 20226 59001;EQDQ01  00002PRCP99
0195827650999992000101118004-07320-047460FM-12+021299999V0200501N001512200019N0100001N1+03621+01531100961ADDAA199000091AY111061AY211061GF103991031011008001001001MA1999999098611MD1999999-0041MW1051REMSYN076AAXX  11184 82765 31597 30503 10362 20153 39861 40096 70511 83100 333 59004;EQDQ01  00002PRCP99
0208827650999992000101200004-07320-047460FM-12+021299999V0209999C000012200019N0200001N1+02821+02021101021ADDAA199000091GA1001+999999999GF100991001001999999001001KA1240M+03641MA1999999098661MD1999999-0111REMSYN082AAXX  12004 82765 32998 00000 10282 20202 39866 40102 333 10364 29051 55098 59011;EQDQ01  00002PRCP99
0224827650999992000101212004-07320-047460FM-12+021299999V0209999C000012200019N0040001N1+03101+01941101481ADDAA199000091AY101061AY201061GA1001+999999999GF100991001001999999001001KA1240N+02271MA1999999099111MD1999999+0011MW1051REMSYN076AAXX  12124 82765 31996 00000 10310 20194 39911 40148 70500 333 20227 58001;EQDQ01  00002PRCP99
0189827650999992000101218004-07320-047460FM-12+021299999V0200901N001519999999N0100001N1+03641+01601100981ADDAA199000091AY101061AY201061GF105991999999008001999999MA1999999098631MD1999999+0021MW1051REMSYN070AAXX  12184 82765 31597 50903 10364 20160 39863 40098 70500 333 58002;EQDQ01  00002PRCP99
0198827650999992000101300004-07320-047460FM-12+021299999V0200901N001012200019N0200001N1+02981+01921101151ADDAA199000091GF104991041021008001001001KA1240M+03621MA1999999098801MD1999999+0141REMSYN088AAXX  13004 82765 32598 40902 10298 20192 39880 40115 84200 333 10362 29046 55100 58014;EQDQ01  00002PRCP99
0224827650999992000101312004-07320-047460FM-12+021299999V0203601N001512200019N0200001N1+02911+01991101621ADDAA199000091AY101061AY201061GA1001+999999999GF100991001001999999001001KA1240N+02391MA1999999099251MD1999999+0141MW1051REMSYN076AAXX  13124 82765 31998 03603 10291 20199 39925 40162 70500 333 20239 58014;EQDQ01  00002PRCP99
0195827650999992000101318004-07320-047460FM-12+021299999V0200501N001510075019N0040001N1+03581+01881101061ADDAA199000091AY111061AY211061GF105991051031008001001001MA1999999098711MD1999999+0081MW1051REMSYN076AAXX  13184 82765 31596 50503 10358 20188 39871 40106 70511 85300 333 58008;EQDQ01  00002PRCP99
0236827650999992000101400004-07320-047460FM-12+021299999V0209999C000010024019N0040001N1+02921+02121101271ADDAA199000091AY121061AY221061GA1091+999999999GF109991091999999999999999KA1240M+03621MA1999999098901MD1999999+0101MW1051REMSYN088AAXX  14004 82765 31/96 90000 10292 20212 39890 40127 70522 333 10362 29055 55083 58010;EQDQ01  00002PRCP99
0208827650999992000101412004-07320-047460FM-12+021299999V0203601N000512200019N0040001N1+02841+01961101611ADDAA199000091GA1001+999999999GF100991001001999999001001KA1240N+02271MA1999999099241MD1999999-0011MW1051REMSYN076AAXX  14124 82765 31996 03601 10284 20196 39924 40161 705// 333 20227 59001;EQDQ01  00002PRCP99
0167827650999992000101418004-07320-047460FM-12+021299999V0200501N000512200019N0200001N1+03561+01681101121ADDAA199000091GF104991031021008001041001MA1999999098761MD1999999+0051REMSYN070AAXX  14184 82765 32598 40501 10356 20168 39876 40112 83240 333 58005;EQDQ01  00002PRCP99
0208827650999992000101500004-07320-047460FM-12+021299999V0209999C000012200019N0200001N1+02901+02101101281ADDAA199000091GA1001+999999999GF100991001001999999001001KA1240M+03621MA1999999098911MD1999999+0011REMSYN082AAXX  15004 82765 32998 00000 10290 20210 39891 40128 333 10362 29048 55096 58001;EQDQ01  00002PRCP99
0198827650999992000101512004-07320-047460FM-12+021299999V0202701N000512200019N0040001N1+02981+01951101501ADDAA199000091GF102991021011008001041001KA1240N+02351MA1999999099131MD1999999-0111MW1051REMSYN082AAXX  15124 82765 31596 22701 10298 20195 39913 40150 705// 82140 333 20235 59011;EQDQ01  00002PRCP99
0167827650999992000101518004-07320-047460FM-12+021299999V0200501N000510075019N0200001N1+03581+01501101061ADDAA199000091GF105991051021008001001001MA1999999098701MD1999999-0061REMSYN070AAXX  15184 82765 32598 50501 10358 20150 39870 40106 85200 333 59006;EQDQ01  00002PRCP99
0214827650999992000101600004-07320-047460FM-12+021299999V0209999C000012200019N0200001N1+02941+02001101101ADDAA199000091GF102991999011008001001001KA1240M+03621MA1999999098741MD1999999-0171REMSYN088AAXX  16004 82765 32598 20000 10294 20200 39874 40110 81100 333 10362 29049 55097 59017;EQDQ01+000012SCOTLCQ02  00002PRCP99
0198827650999992000101612004-07320-047460FM-12+021299999V0200501N000512200019N0200001N1+02941+02111101631ADDAA199000091GF104991041021008001001001KA1240N+02391MA1999999099261MD1999999+0131MW1051REMSYN082AAXX  16124 82765 31598 40501 10294 20211 39926 40163 705// 84200 333 20239 58013;EQDQ01  00002PRCP99
0173827650999992000101618004-07320-047460FM-12+021299999V0202301N000510120019N0200001N1+02641+02001101331ADDAA199000091GF108991061081008001021999MA1999999098921MD1999999+0221REMSYN076AAXX  16184 82765 31598 82301 10264 20200 39892 40133 7//99 8682/ 333 58022;EQDQ01  00002PRCP99
0186827650999992000101712004-07320-047460FM-12+021299999V0200901N000512200019N0100001N1+02781+01981101751ADDAA199000091GF103991031011008001001001KA1240N+02071MA1999999099341MD1999999+0081REMSYN076AAXX  17124 82765 31597 30901 10278 20198 39934 40175 83100 333 20207 58008;EQDQ01  00002PRCP99
0195827650999992000101718004-07320-047460FM-12+021299999V0203601N002610075019N0100001N1+03511+01901101241ADDAA199000091AY121061AY221061GF106991061031008001001001MA1999999098861MD1999999-0061MW1051REMSYN076AAXX  17184 82765 31597 63605 10351 20190 39886 40124 70522 86300 333 59006;EQDQ01  00002PRCP99
0236827650999992000101800004-07320-047460FM-12+021299999V0209999C000010024019N0100001N1+02681+01921101341ADDAA199000091AY111061AY211061GA1091+999999999GF109991091999999999999999KA1240M+03501MA1999999098961MD1999999-0041MW1051REMSYN088AAXX  18004 82765 32/97 90000 10268 20192 39896 40134 70511 333 10350 29057 55072 59004;EQDQ01  00002PRCP99
0198827650999992000101812004-07320-047460FM-12+021299999V0200501N001012200019N0040001N1+02941+02001101731ADDAA199000091GF104991021011008001041001KA1240N+02191MA1999999099341MD1999999+0001MW1051REMSYN082AAXX  18124 82765 31596 40502 10294 20200 39934 40173 705// 82140 333 20219 58000;EQDQ01  00002PRCP99
0182827650999992000101818004-07320-047460FM-12+021299999V0202701N001510075019N0100001N1+02881+02301101391ADDAA106007991AY161061AY261061GF105991051021008001001001MA1999999098991MD1999999+0131MW1051REMSYN082AAXX  18184 82765 21597 52703 10288 20230 39899 40139 70566 85200 333 58013 60081;
0236827650999992000101900004-07320-047460FM-12+021299999V0209999C000010024019N0100001N1+02501+02291101371ADDAA199000091AY111061AY211061GA1091+999999999GF109991091999999999999999KA1240M+03151MA1999999098981MD1999999+0021MW1051REMSYN088AAXX  19004 82765 31/97 90000 10250 20229 39898 40137 70511 333 10315 29076 55042 58002;EQDQ01  00002PRCP99
0195827650999992000101912004-07320-047460FM-12+021299999V0200501N001510024019N0040001N1+02881+02181101631ADDAA124007991GA1091+999999999GF109991091999999999999999KA1240N+02141MA1999999099241MD1999999-0101MW1051REMSYN082AAXX  19124 82765 21/96 90503 10288 20218 39924 40163 705// 333 20214 59010 60084;
0195827650999992000101918004-07320-047460FM-12+021299999V0201401N000510075019N0100001N1+03461+01941101121ADDAA199000091AY111061AY211061GF105991051021008001001001MA1999999098751MD1999999-0241MW1051REMSYN076AAXX  19184 82765 31597 51401 10346 20194 39875 40112 70511 85200 333 59024;EQDQ01  00002PRCP99
0220827650999992000102000004-07320-047460FM-12+021299999V0209999C000010024019N0100001N1+02801+02151101161ADDAA199000091GA1091+999999999GF109991091999999999999999KA1240M+03551MA1999999098791MD1999999-0191MW1051REMSYN088AAXX  20004 82765 31/97 90000 10280 20215 39879 40116 705// 333 10355 29061 55090 59019;EQDQ01  00002PRCP99
0198827650999992000102012004-07320-047460FM-12+021299999V0200501N001010120019N0200001N1+02801+02151101521ADDAA199000091GF108991081081008001999999KA1240N+02241MA1999999099141MD1999999-0101MW1051REMSYN082AAXX  20124 82765 31598 80502 10280 20215 39914 40152 705// 888// 333 20224 59010;EQDQ01  00002PRCP99
0167827650999992000102018004-07320-047460FM-12+021299999V0203601N000512200019N0200001N1+03421+02021101001ADDAA199000091GF104991041021008001041001MA1999999098641MD1999999-0111REMSYN070AAXX  20184 82765 32598 43601 10342 20202 39864 40100 84240 333 59011;EQDQ01  00002PRCP99
0208827650999992000102100004-07320-047460FM-12+021299999V0209999C000019999999N0200001N1+02901+02151101191ADDAA199000091GA1091+999999999GF109991091999999999999999KA1240M+03501MA1999999098821MD1999999+0031REMSYN082AAXX  21004 82765 32/98 90000 10290 20215 39882 40119 333 10350 29060 55074 58003;EQDQ01  00002PRCP99
0186827650999992000102112004-07320-047460FM-12+021299999V0203601N000510120019N0200001N1+02821+02201101391ADDAA199000091GF108991061081008001041999KA1240N+02331MA1999999099021MD1999999-0121REMSYN076AAXX  21124 82765 32598 83601 10282 20220 39902 40139 8684/ 333 20233 59012;EQDQ01  00002PRCP99
0167827650999992000102118004-07320-047460FM-12+021299999V0203601N001010075019N0200001N1+03421+01981100911ADDAA199000091GF105991051021008001001011MA1999999098551MD1999999-0091REMSYN070AAXX  21184 82765 32598 53602 10342 20198 39855 40091 85201 333 59009;EQDQ01  00002PRCP99
0208827650999992000102200004-07320-047460FM-12+021299999V0209999C000019999999N0200001N1+02881+02031101091ADDAA199000091GA1091+999999999GF109991091999999999999999KA1240M+03461MA1999999098721MD1999999-0101REMSYN082AAXX  22004 82765 32/98 90000 10288 20203 39872 40109 333 10346 29058 55079 59010;EQDQ01  00002PRCP99
0223827650999992000102300004-07320-047460FM-12+021299999V0200501N001519999999N0200001N1+02361+02051101331ADDAA106021191AY191061AY261061GA1091+999999999GF109991091999999999999999KA1240M+03541MA1999999098931MD1999999+0211MW1291REMSYN094AAXX  23004 82765 21/98 90503 10236 20205 39893 40133 72996 333 10354 29067 55082 58021 60211;
0201827650999992000102312004-07320-047460FM-12+021299999V0209999C000010075019N0200001N1+02441+02211101521ADDAA124023991AY161061AY221061GF108991051021008001021999KA1240N+01911MA1999999099101MD1999999+0131MW1031REMSYN088AAXX  23124 82765 21598 80000 10244 20221 39910 40152 70362 8522/ 333 20191 58013 60244;
0167827650999992000102318004-07320-047460FM-12+021299999V0209999C000010075019N0200001N1+03281+02451101001ADDAA199000091GF105991051021008001001001MA1999999098611MD1999999+0121REMSYN070AAXX  23184 82765 32598 50000 10328 20245 39861 40100 85200 333 58012;EQDQ01  00002PRCP99
0173827650999992000102412004-07320-047460FM-12+021299999V0201401N000510090019N0200001N1+02541+02151101441ADDAA124003091GF107991051081004501021001KA1240N+02191MA1999999099031MD1999999-0071REMSYN082AAXX  24124 82765 22498 71401 10254 20215 39903 40144 85820 333 20219 59007 60034;
0167827650999992000102418004-07320-047460FM-12+021299999V0200501N000510075019N0200001N1+03101+02061101051ADDAA199000091GF105991051021008001001001MA1999999098661MD1999999+0011REMSYN070AAXX  24184 82765 32598 50501 10310 20206 39866 40105 85200 333 58001;EQDQ01  00002PRCP99
0208827650999992000102500004-07320-047460FM-12+021299999V0209999C000012200019N0200001N1+02491+02251101141ADDAA199000091GA1001+999999999GF100991001001999999001001KA1240M+03151MA1999999098741MD1999999-0191REMSYN082AAXX  25004 82765 32998 00000 10249 20225 39874 40114 333 10315 29077 55044 59019;EQDQ01  00002PRCP99
0214827650999992000102512004-07320-047460FM-12+021299999V0200901N000510075019N0200001N1+02671+02221101311ADDAA199000091AY111061AY211061GF105991051011008001001001KA1240N+02261MA1999999098911MD1999999-0121MW1051REMSYN082AAXX  25124 82765 31598 50901 10267 20222 39891 40131 70511 85100 333 20226 59012;EQDQ01  00002PRCP99
0182827650999992000102518004-07320-047460FM-12+021299999V02099999999990450019N0200001N1+02581+02171100961ADDAA106004191AY161061AY221061GF108991041021008001021999MA1999999098551MD1999999-0111MW1031REMSYN082AAXX  25184 82765 21598 8000/ 10258 20217 39855 40096 70362 8422/ 333 59011 60041;
0208827650999992000102600004-07320-047460FM-12+021299999V0209999C000012200019N0200001N1+02521+02341101031ADDAA199000091GA1001+999999999GF100991001001999999001001KA1240M+03251MA1999999098641MD1999999-0101REMSYN082AAXX  26004 82765 32998 00000 10252 20234 39864 40103 333 10325 29084 55041 59010;EQDQ01  00002PRCP99
0201827650999992000102612004-07320-047460FM-12+021299999V0209999C000010075019N0100001N1+02841+02351101331ADDAA124004191AY121061AY221061GF107991071021008001001001KA1240N+02371MA1999999098941MD1999999+0031MW1051REMSYN088AAXX  26124 82765 21597 70000 10284 20235 39894 40133 70522 87200 333 20237 58003 60044;
0182827650999992000102618004-07320-047460FM-12+021299999V0203201N001510042019N0040001N1+02261+02051101161ADDAA106000391AY191061AY221061GF108991051071004501021999MA1999999098741MD1999999+0191MW1161REMSYN082AAXX  26184 82765 21496 83203 10226 20205 39874 40116 71692 8572/ 333 58019 69931;
0223827650999992000102700004-07320-047460FM-12+021299999V0209999C000010024019N0100001N1+02341+02221101141ADDAA106000191AY161061AY221061GA1091+999999999GF109991091999999999999999KA1240M+03221MA1999999098751MD1999999+0111MW1131REMSYN094AAXX  27004 82765 21/97 90000 10234 20222 39875 40114 71362 333 10322 29087 55051 58011 69921;
0185827650999992000102712004-07320-047460FM-12+021299999V0209999C000010120019N0100001N1+02521+02271101511ADDAA124000591GF108991081081008001999999KA1240N+02231MA1999999099091MD1999999+0151MW1051REMSYN088AAXX  27124 82765 22597 80000 10252 20227 39909 40151 705// 888// 333 20223 58015 69954;
0179827650999992000102718004-07320-047460FM-12+021299999V0203601N000510450019N0100001N1+03061+02271101071ADDAA199000091GF106991041021008001041001MA1999999098681MD1999999-0061MW1291REMSYN076AAXX  27184 82765 31597 63601 10306 20227 39868 40107 729// 84240 333 59006;EQDQ01  00002PRCP99
0214827650999992000102800004-07320-047460FM-12+021299999V0209999C000019999999N0200001N1+02501+02131101201ADDAA199000091GA1091+999999999GF109991091999999999999999KA1240M+03121MA1999999098801MD1999999+0051REMSYN088AAXX  28004 82765 31/98 90000 10250 20213 39880 40120 7//99 333 10312 29077 55025 58005;EQDQ01  00002PRCP99
0186827650999992000102812004-07320-047460FM-12+021299999V0200501N000510450019N0200001N1+02701+02201101511ADDAA199000091GF106991041021008001041001KA1240N+02251MA1999999099111MD1999999+0021REMSYN076AAXX  28124 82765 32598 60501 10270 20220 39911 40151 84240 333 20225 58002;EQDQ01  00002PRCP99
0167827650999992000102818004-07320-047460FM-12+021299999V0200501N000510450019N0200001N1+03241+02061101051ADDAA199000091GF106991041021008001041001MA1999999098681MD1999999+0001REMSYN070AAXX  28184 82765 32598 60501 10324 20206 39868 40105 84240 333 58000;EQDQ01  00002PRCP99
0208827650999992000102900004-07320-047460FM-12+021299999V0209999C000019999999N0200001N1+02741+02171101121ADDAA199000091GA1091+999999999GF109991091999999999999999KA1240M+03341MA1999999098741MD1999999-0061REMSYN082AAXX  29004 82765 32/98 90000 10274 20217 39874 40112 333 10334 29066 55056 59006;EQDQ01  00002PRCP99
0186827650999992000102912004-07320-047460FM-12+021299999V0200501N000510075019N0200001N1+02781+02161101491ADDAA199000091GF107991051021008001041001KA1240N+02231MA1999999099101MD1999999-0011REMSYN076AAXX  29124 82765 32598 70501 10278 20216 39910 40149 85240 333 20223 59001;EQDQ01  00002PRCP99
0167827650999992000102918004-07320-047460FM-12+021299999V0203601N000510450019N0200001N1+03221+01981101001ADDAA199000091GF106991041021008001041001MA1999999098651MD1999999-0031REMSYN070AAXX  29184 82765 32598 63601 10322 20198 39865 40100 84240 333 59003;EQDQ01  00002PRCP99
0236827650999992000103000004-07320-047460FM-12+021299999V0209999C000019999999N0200001N1+02721+02151101321ADDAA199000091AY191061AY291061GA1091+999999999GF109991091999999999999999KA1240M+03281MA1999999098941MD1999999+0201MW1291REMSYN088AAXX  30004 82765 31/98 90000 10272 20215 39894 40132 72999 333 10328 29065 55054 58020;EQDQ01  00002PRCP99
0186827650999992000103012004-07320-047460FM-12+021299999V0201401N001010450019N0200001N1+02611+02251101501ADDAA199000091GF107991041081008001021001KA1240N+02631MA1999999099101MD1999999+0001REMSYN076AAXX  30124 82765 32598 71402 10261 20225 39910 40150 84820 333 20263 58000;EQDQ01  00002PRCP99
0182827650999992000103018004-07320-047460FM-12+021299999V0201401N001510450019N0200001N1+02601+02211101201ADDAA106000591AY161061AY221061GF108991041021008001021999MA1999999098801MD1999999+0151MW1021REMSYN082AAXX  30184 82765 21598 81403 10260 20221 39880 40120 70262 8422/ 333 58015 69941;
0208827650999992000103100004-07320-047460FM-12+021299999V0209999C000019999999N0200001N1+02361+02191101291ADDAA199000091GA1091+999999999GF109991091999999999999999KA1240M+03281MA1999999098881MD1999999-0061REMSYN082AAXX  31004 82765 32/98 90000 10236 20219 39888 40129 333 10328 29085 55033 59006;EQDQ01  00002PRCP99
0173827650999992000103112004-07320-047460FM-12+021299999V0209999C000010075019N0200001N1+02591+02251101361ADDAA124000591GF107991071011008001001001KA1240N+02141MA1999999098951MD1999999-0151REMSYN082AAXX  31124 82765 22598 70000 10259 20225 39895 40136 87100 333 20214 59015 69944;
0167827650999992000103118004-07320-047460FM-12+021299999V0202301N001510075019N0200001N1+03291+02131100851ADDAA199000091GF106991061021008001001001MA1999999098471MD1999999-0331REMSYN070AAXX  31184 82765 32598 62303 10329 20213 39847 40085 86200 333 59033;EQDQ01  00002PRCP99
0208827650999992000110100004-07320-047460FM-12+021299999V0209999C000019999999N0200001N1+02791+02271101061ADDAA199000091GA1091+999999999GF109991091999999999999999KA1240M+03351MA1999999098681MD1999999-0201REMSYN082AAXX  01004 82765 32/98 90000 10279 20227 39868 40106 333 10335 29070 55056 59020;EQDQ01  00002PRCP99
0201827650999992000110112004-07320-047460FM-12+021299999V0209999C000010075019N0200001N1+02361+02221101381ADDAA124001091AY191061AY291061GF108991081051008001999999KA1240N+02331MA1999999098981MD1999999+0031MW1611REMSYN088AAXX  01124 82765 21598 80000 10236 20222 39898 40138 76199 885// 333 20233 58003 60014;
0160827650999992000110118004-07320-047460FM-12+021299999V0209999C000010120019N0200001N1+02321+02181101151ADDAA106055991GF108991081081008001999999MA1999999098741MD1999999+0271REMSYN082AAXX  01184 82765 21598 80000 10232 20218 39874 40115 7//96 888// 333 58027 60561;
0189827650999992000110200004-07320-047460FM-12+021299999V0209999C000019999999N0200001N1+02301+02181101161ADDAA199000021GA1091+999999999GF109991091999999999999999KA1240M+02801MA1999999098761MD1999999+0081REMSYN082AAXX  02004 82765 32/98 90000 10230 20218 39876 40116 333 10280 29092 55000 58008;
0185827650999992000110212004-07320-047460FM-12+021299999V0209999C000010120019N0040001N1+02301+02181101411ADDAA124055991GF108991081081008001999999KA1240N+01931MA1999999098981MD1999999+0001MW1101REMSYN088AAXX  02124 82765 22596 80000 10230 20218 39898 40141 710// 888// 333 20193 58000 60564;
0167827650999992000110218004-07320-047460FM-12+021299999V0200501N000510450019N0200001N1+03061+02271100951ADDAA199000091GF106991041021008001041001MA1999999098571MD1999999-0171REMSYN070AAXX  02184 82765 32598 60501 10306 20227 39857 40095 84240 333 59017;EQDQ01  00002PRCP99
0208827650999992000110300004-07320-047460FM-12+021299999V0209999C000019999999N0200001N1+02741+02321101061ADDAA199000091GA1091+999999999GF109991091999999999999999KA1240M+03141MA1999999098661MD1999999-0101REMSYN082AAXX  03004 82765 32/98 90000 10274 20232 39866 40106 333 10314 29078 55047 59010;EQDQ01  00002PRCP99
0186827650999992000110312004-07320-047460FM-12+021299999V0203601N000510450019N0200001N1+02701+02301101151ADDAA199000091GF106991041021008001041001KA1240N+02351MA1999999098771MD1999999-0211REMSYN076AAXX  03124 82765 32598 63601 10270 20230 39877 40115 84240 333 20235 59021;EQDQ01  00002PRCP99
0195827650999992000110318004-07320-047460FM-12+021299999V0200501N000510450019N0200001N1+02741+02321100771ADDAA199000091AY191061AY291061GF108991031031008001021999MA1999999098381MD1999999-0191MW1291REMSYN076AAXX  03184 82765 31598 80501 10274 20232 39838 40077 72999 8332/ 333 59019;EQDQ01  00002PRCP99
0208827650999992000110400004-07320-047460FM-12+021299999V0209999C000019999999N0200001N1+02421+02281100971ADDAA199000091GA1091+999999999GF109991091999999999999999KA1240M+03041MA1999999098581MD1999999-0081REMSYN082AAXX  04004 82765 32/98 90000 10242 20228 39858 40097 333 10304 29085 55019 59008;EQDQ01  00002PRCP99
0186827650999992000110412004-07320-047460FM-12+021299999V0209999C000010075019N0200001N1+02731+02281101071ADDAA199000091GF106991061021008001001001KA1240N+02341MA1999999098681MD1999999-0091REMSYN076AAXX  04124 82765 32598 60000 10273 20228 39868 40107 86200 333 20234 59009;EQDQ01  00002PRCP99
0182827650999992000110418004-07320-047460FM-12+021299999V0201401N001010450019N0040001N1+02241+02171100861ADDAA106008991AY191061AY261061GF108991041071004501021999MA1999999098451MD1999999+0071MW1631REMSYN082AAXX  04184 82765 21496 81402 10224 20217 39845 40086 76396 8472/ 333 58007 60091;
0213827650999992000110500004-07320-047460FM-12+021299999V0202301N001010450019N0200001N1+02291+02231101031ADDAA106003091AY161061AY221061GF108991041071004501021999KA1240M+03141MA1999999098631MD1999999+0051MW1031REMSYN100AAXX  05004 82765 21498 82302 10229 20223 39863 40103 70362 8472/ 333 10314 29092 55036 58005 60031;
0201827650999992000110512004-07320-047460FM-12+021299999V0200501N001010450019N0200001N1+02281+02201101271ADDAA124071991AY161061AY261061GF108991041071004501021999KA1240N+02101MA1999999098851MD1999999+0171MW1031REMSYN088AAXX  05124 82765 21498 80502 10228 20220 39885 40127 70366 8472/ 333 20210 58017 60724;
0167827650999992000110518004-07320-047460FM-12+021299999V0200501N001510450019N0200001N1+02711+02201100881ADDAA199000091GF108991031081004501021999MA1999999098471MD1999999+0021REMSYN070AAXX  05184 82765 32498 80503 10271 20220 39847 40088 8382/ 333 58002;EQDQ01  00002PRCP99
0198827650999992000110600004-07320-047460FM-12+021299999V0209999C000010075019N0200001N1+02521+02271101011ADDAA199000091GF106991061011008001001001KA1240M+02751MA1999999098601MD1999999-0031REMSYN088AAXX  06004 82765 32598 60000 10252 20227 39860 40101 86100 333 10275 29085 55002 59003;EQDQ01  00002PRCP99
0167827650999992000110618004-07320-047460FM-12+021299999V0200501N001010075019N0200001N1+03291+02131100731ADDAA199000091GF105991051021008001001001MA1999999098361MD1999999-0111REMSYN070AAXX  06184 82765 32598 50502 10329 20213 39836 40073 85200 333 59011;EQDQ01  00002PRCP99
0208827650999992000110700004-07320-047460FM-12+021299999V0209999C000012200019N0200001N1+02821+02291100801ADDAA199000091GA1001+999999999GF100991001001999999001001KA1240M+03341MA1999999098431MD1999999-0171REMSYN082AAXX  07004 82765 32998 00000 10282 20229 39843 40080 333 10334 29068 55095 59017;EQDQ01  00002PRCP99
0198827650999992000110712004-07320-047460FM-12+021299999V0203601N000512200019N0100001N1+02821+02201101181ADDAA199000091GF103991021011008001041001KA1240N+02471MA1999999098811MD1999999+0031MW1051REMSYN082AAXX  07124 82765 31597 33601 10282 20220 39881 40118 705// 82140 333 20247 58003;EQDQ01  00002PRCP99
0179827650999992000110718004-07320-047460FM-12+021299999V0203201N000510450019N0100001N1+03241+02191100731ADDAA199000091GF105991031011008001041001MA1999999098381MD1999999+0021MW1041REMSYN076AAXX  07184 82765 31597 53201 10324 20219 39838 40073 704// 83140 333 58002;EQDQ01  00002PRCP99
0208827650999992000110800004-07320-047460FM-12+021299999V0209999C000019999999N0200001N1+02561+02291100921ADDAA199000091GA1091+999999999GF109991091999999999999999KA1240M+03281MA1999999098541MD1999999+0111REMSYN082AAXX  08004 82765 32/98 90000 10256 20229 39854 40092 333 10328 29073 55057 58011;EQDQ01  00002PRCP99
0196827650999992000110812004-07320-047460FM-12+021299999V0202701N000512200019N0200001N1+02661+02241101061ADDAA199000091GA1001+999999999GF100991001001999999001001KA1240N+02191MA1999999098671MD1999999-0141REMSYN070AAXX  08124 82765 32998 02701 10266 20224 39867 40106 333 20219 59014;EQDQ01  00002PRCP99
0173827650999992000110818004-07320-047460FM-12+021299999V0200901N001010450019N0200001N1+02801+02081100641ADDAA199000091GF107991041081008001021001MA1999999098261MD1999999-0121REMSYN076AAXX  08184 82765 31598 70902 10280 20208 39826 40064 7//99 84820 333 59012;EQDQ01  00002PRCP99
0226827650999992000110900004-07320-047460FM-12+021299999V0209999C000010075019N0200001N1+02581+02291100781ADDAA199000091AY191061AY291061GF106991061011008001001001KA1240M+03201MA1999999098401MD1999999-0141MW1131REMSYN094AAXX  09004 82765 31598 60000 10258 20229 39840 40078 71399 86100 333 10320 29078 55056 59014;EQDQ01  00002PRCP99
0201827650999992000110912004-07320-047460FM-12+021299999V0209999C000010120019N0200001N1+02481+02381101081ADDAA124004191AY191061AY261061GF108991061081008001021999KA1240N+02231MA1999999098681MD1999999+0011MW1291REMSYN088AAXX  09124 82765 21598 80000 10248 20238 39868 40108 72996 8682/ 333 20223 58001 60044;
0160827650999992000110918004-07320-047460FM-12+021299999V0200501N001510120019N0200001N1+02761+02341100761ADDAA106014091GF108991061081008001021999MA1999999098381MD1999999+0121REMSYN082AAXX  09184 82765 21598 80503 10276 20234 39838 40076 7//96 8682/ 333 58012 60141;
0213827650999992000111000004-07320-047460FM-12+021299999V0202701N001510042019N0040001N1+02231+02101101081ADDAA106017091AY121061AY221061GF108991081071004501999999KA1240M+02781MA1999999098681MD1999999+0281MW1631REMSYN100AAXX  10004 82765 21496 82703 10223 20210 39868 40108 76322 887// 333 10278 29090 55000 58028 60171;
0201827650999992000111012004-07320-047460FM-12+021299999V0200501N001510450019N0200001N1+02381+02221101261ADDAA124041991AY161061AY221061GF108991041081004501021999KA1240N+02231MA1999999098841MD1999999+0161MW1031REMSYN088AAXX  10124 82765 21498 80503 10238 20222 39884 40126 70362 8482/ 333 20223 58016 60424;
0182827650999992000111018004-07320-047460FM-12+021299999V0200501N001010450019N0200001N1+02781+02251100901ADDAA106001091AY161061AY221061GF108991041081008001021999MA1999999098501MD1999999+0121MW1021REMSYN082AAXX  10184 82765 21598 80502 10278 20225 39850 40090 70262 8482/ 333 58012 60011;
0201827650999992000111112004-07320-047460FM-12+021299999V0200501N001010450019N0200001N1+02421+02321101351ADDAA124025991AY161061AY221061GF108991041081004501021999KA1240N+02261MA1999999098941MD1999999+0101MW1031REMSYN088AAXX  11124 82765 21498 80502 10242 20232 39894 40135 70362 8482/ 333 20226 58010 60264;
0167827650999992000111118004-07320-047460FM-12+021299999V0203601N000510450019N0200001N1+02971+02331100861ADDAA199000091GF107991041081008001061001MA1999999098471MD1999999-0031REMSYN070AAXX  11184 82765 32598 73601 10297 20233 39847 40086 84860 333 59003;EQDQ01  00002PRCP99
0198827650999992000111200004-07320-047460FM-12+021299999V0209999C000012200019N0200001N1+02651+02371101061ADDAA199000091GF104991021011008001031001KA1240M+03021MA1999999098661MD1999999-0081REMSYN088AAXX  12004 82765 32598 40000 10265 20237 39866 40106 82130 333 10302 29083 55017 59008;EQDQ01  00002PRCP99
0186827650999992000111212004-07320-047460FM-12+021299999V0209999C000010450019N0200001N1+02671+02441101251ADDAA199000091GF108991041071008001021999KA1240N+02271MA1999999098861MD1999999-0081REMSYN076AAXX  12124 82765 32598 80000 10267 20244 39886 40125 8472/ 333 20227 59008;EQDQ01  00002PRCP99
0195827650999992000111218004-07320-047460FM-12+021299999V0200501N002110450019N0200001N1+03071+02351100851ADDAA199000091AY121061AY221061GF108991041021008001021999MA1999999098481MD1999999+0011MW1051REMSYN076AAXX  12184 82765 31598 80504 10307 20235 39848 40085 70522 8422/ 333 58001;EQDQ01  00002PRCP99
0198827650999992000111300004-07320-047460FM-12+021299999V0209999C000010450019N0200001N1+02801+02501101001ADDAA199000091GF108991041081008001021999KA1240M+03211MA1999999098631MD1999999-0031REMSYN088AAXX  13004 82765 32598 80000 10280 20250 39863 40100 8482/ 333 10321 29079 55053 59003;EQDQ01  00002PRCP99
0167827650999992000111318004-07320-047460FM-12+021299999V0200501N002110450019N0200001N1+03201+02351100741ADDAA199000091GF105991031021008001041001MA1999999098391MD1999999-0091REMSYN070AAXX  13184 82765 32598 50504 10320 20235 39839 40074 83240 333 59009;EQDQ01  00002PRCP99
0198827650999992000111400004-07320-047460FM-12+021299999V0200901N001510075019N0200001N1+02901+02321101031ADDAA199000091GF105991051021008001001001KA1240M+03381MA1999999098661MD1999999+0031REMSYN088AAXX  14004 82765 32598 50903 10290 20232 39866 40103 85200 333 10338 29069 55076 58003;EQDQ01  00002PRCP99
0186827650999992000111412004-07320-047460FM-12+021299999V0200501N002612200019N0200001N1+02861+02281101181ADDAA199000091GF103991021011008001041001KA1240N+02451MA1999999098841MD1999999+0091REMSYN076AAXX  14124 82765 32598 30505 10286 20228 39884 40118 82140 333 20245 58009;EQDQ01  00002PRCP99
0167827650999992000111418004-07320-047460FM-12+021299999V0203601N002110075019N0200001N1+03361+02331100791ADDAA199000091GF105991051021008001001001MA1999999098451MD1999999+0061REMSYN070AAXX  14184 82765 32598 53604 10336 20233 39845 40079 85200 333 58006;EQDQ01  00002PRCP99
0220827650999992000111500004-07320-047460FM-12+021299999V0209999C000019999999N0200001N1+02961+02491101061ADDAA199000091GA1091+999999999GF109991091999999999999999KA1240M+03381MA1999999098701MD1999999+0041MW1131REMSYN088AAXX  15004 82765 31/98 90000 10296 20249 39870 40106 713// 333 10338 29070 55099 58004;EQDQ01  00002PRCP99
0201827650999992000111512004-07320-047460FM-12+021299999V0209999C000010120019N0200001N1+02601+02251101291ADDAA124000591AY161061AY221061GF107991071081008001001001KA1240N+02321MA1999999098911MD1999999+0091MW1031REMSYN088AAXX  15124 82765 21598 70000 10260 20225 39891 40129 70362 87800 333 20232 58009 69944;
0167827650999992000111518004-07320-047460FM-12+021299999V0202301N001010450019N0200001N1+03051+02301101011ADDAA199000091GF107991041021008001021001MA1999999098631MD1999999+0181REMSYN070AAXX  15184 82765 32598 72302 10305 20230 39863 40101 84220 333 58018;EQDQ01  00002PRCP99
0208827650999992000111600004-07320-047460FM-12+021299999V0209999C000019999999N0200001N1+02791+02541101141ADDAA199000091GA1091+999999999GF109991091999999999999999KA1240M+03131MA1999999098761MD1999999+0061REMSYN082AAXX  16004 82765 32/98 90000 10279 20254 39876 40114 333 10313 29080 55027 58006;EQDQ01  00002PRCP99
0186827650999992000111612004-07320-047460FM-12+021299999V0200501N001012200019N0200001N1+02861+02501101261ADDAA199000091GF103991021011008001041001KA1240N+02531MA1999999098881MD1999999-0031REMSYN076AAXX  16124 82765 32598 30502 10286 20250 39888 40126 82140 333 20253 59003;EQDQ01  00002PRCP99
0182827650999992000111618004-07320-047460FM-12+021299999V0203201N000510120019N0200001N1+03061+02431100951ADDAA106016091AY191061AY261061GF108991051081008001021999MA1999999098581MD1999999-0041MW1291REMSYN082AAXX  16184 82765 21598 83201 10306 20243 39858 40095 72996 8582/ 333 59004 60161;
0223827650999992000111700004-07320-047460FM-12+021299999V0209999C000019999999N0200001N1+02421+02251101271ADDAA106007991AY191061AY261061GA1091+999999999GF109991091999999999999999KA1240M+03161MA1999999098881MD1999999+0121MW1131REMSYN094AAXX  17004 82765 21/98 90000 10242 20225 39888 40127 71396 333 10316 29082 55054 58012 60081;
0173827650999992000111712004-07320-047460FM-12+021299999V0209999C000010450019N0200001N1+02471+02341101531ADDAA124024991GF107991041081004501021001KA1240N+02271MA1999999099111MD1999999+0231REMSYN082AAXX  17124 82765 22498 70000 10247 20234 39911 40153 84820 333 20227 58023 60254;
0167827650999992000111718004-07320-047460FM-12+021299999V0202301N000510450019N0200001N1+02891+02441101171ADDAA199000091GF107991041021008001021001MA1999999098781MD1999999+0201REMSYN070AAXX  17184 82765 32598 72301 10289 20244 39878 40117 84220 333 58020;EQDQ01  00002PRCP99
0208827650999992000111800004-07320-047460FM-12+021299999V0209999C000019999999N0200001N1+02541+02251101351ADDAA199000091GA1091+999999999GF109991091999999999999999KA1240M+03081MA1999999098941MD1999999+0061REMSYN082AAXX  18004 82765 32/98 90000 10254 20225 39894 40135 333 10308 29084 55014 58006;EQDQ01  00002PRCP99
0186827650999992000111812004-07320-047460FM-12+021299999V0209999C000012200019N0200001N1+02641+02391101471ADDAA199000091GF104991021011008001051001KA1240N+02221MA1999999099071MD1999999-0041REMSYN076AAXX  18124 82765 32598 40000 10264 20239 39907 40147 82150 333 20222 59004;EQDQ01  00002PRCP99
0167827650999992000111818004-07320-047460FM-12+021299999V0201401N002112200019N0200001N1+03311+02151101001ADDAA199000091GF104991041021008001001001MA1999999098631MD1999999-0151REMSYN070AAXX  18184 82765 32598 41404 10331 20215 39863 40100 84200 333 59015;EQDQ01  00002PRCP99
0208827650999992000111900004-07320-047460FM-12+021299999V0209999C000012200019N0200001N1+02881+02281101081ADDAA199000091GA1001+999999999GF100991001001999999001001KA1240M+03381MA1999999098701MD1999999-0241REMSYN082AAXX  19004 82765 32998 00000 10288 20228 39870 40108 333 10338 29069 55109 59024;EQDQ01  00002PRCP99
0186827650999992000111912004-07320-047460FM-12+021299999V0200501N004112200019N0200001N1+02881+02051101411ADDAA199000091GF102991021011008001001001KA1240N+02371MA1999999099041MD1999999-0031REMSYN076AAXX  19124 82765 32598 20508 10288 20205 39904 40141 82100 333 20237 59003;EQDQ01  00002PRCP99
0167827650999992000111918004-07320-047460FM-12+021299999V0200501N001512200019N0200001N1+03361+02041101141ADDAA199000091GF104991021011008001041001MA1999999098721MD1999999+0091REMSYN070AAXX  19184 82765 32598 40503 10336 20204 39872 40114 82140 333 58009;EQDQ01  00002PRCP99
0208827650999992000112000004-07320-047460FM-12+021299999V0209999C000012200019N0200001N1+02821+02401101201ADDAA199000091GA1001+999999999GF100991001001999999001001KA1240M+03421MA1999999098831MD1999999+0131REMSYN082AAXX  20004 82765 32998 00000 10282 20240 39883 40120 333 10342 29066 55111 58013;EQDQ01  00002PRCP99
0186827650999992000112012004-07320-047460FM-12+021299999V0209999C000010450019N0200001N1+02761+02481101551ADDAA199000091GF106991041021008001041001KA1240N+02371MA1999999099161MD1999999+0121REMSYN076AAXX  20124 82765 32598 60000 10276 20248 39916 40155 84240 333 20237 58012;EQDQ01  00002PRCP99
0173827650999992000112018004-07320-047460FM-12+021299999V0209999C000010075019N0200001N1+02801+02061101191ADDAA199000091GF106991051021008001021001MA1999999098801MD1999999+0081REMSYN076AAXX  20184 82765 31598 60000 10280 20206 39880 40119 7//99 85220 333 58008;EQDQ01  00002PRCP99
0208827650999992000112100004-07320-047460FM-12+021299999V0209999C000019999999N0200001N1+02621+02351101351ADDAA199000091GA1091+999999999GF109991091999999999999999KA1240M+03141MA1999999098961MD1999999+0131REMSYN082AAXX  21004 82765 32/98 90000 10262 20235 39896 40135 333 10314 29080 55045 58013;EQDQ01  00002PRCP99
0186827650999992000112112004-07320-047460FM-12+021299999V0209999C000010075019N0200001N1+02641+02251101691ADDAA199000091GF107991051021008001041001KA1240N+02271MA1999999099291MD1999999+0131REMSYN076AAXX  21124 82765 32598 70000 10264 20225 39929 40169 85240 333 20227 58013;EQDQ01  00002PRCP99
0179827650999992000112118004-07320-047460FM-12+021299999V0209999C000010075019N0200001N1+03101+02291101191ADDAA199000091GF106991051021008001041001MA1999999098801MD1999999+0001MW1291REMSYN076AAXX  21184 82765 31598 60000 10310 20229 39880 40119 729// 85240 333 58000;EQDQ01  00002PRCP99
0201827650999992000112200004-07320-047460FM-12+021299999V0209999C000019999999N0200001N1+02441+02191101431ADDAA106000891GA1091+999999999GF109991091999999999999999KA1240M+03141MA1999999099031MD1999999+0071REMSYN094AAXX  22004 82765 21/98 90000 10244 20219 39903 40143 7//95 333 10314 29078 55074 58007 69971;
0201827650999992000112212004-07320-047460FM-12+021299999V0209999C000010450019N0200001N1+02301+02201101771ADDAA124008991AY161061AY221061GF107991041021004501021001KA1240N+02221MA1999999099341MD1999999+0051MW1031REMSYN088AAXX  22124 82765 21498 70000 10230 20220 39934 40177 70362 84220 333 20222 58005 60094;
0167827650999992000112218004-07320-047460FM-12+021299999V0203201N001010450019N0200001N1+02811+02381101371ADDAA199000091GF107991041021008001021001MA1999999098961MD1999999+0161REMSYN070AAXX  22184 82765 32598 73202 10281 20238 39896 40137 84220 333 58016;EQDQ01  00002PRCP99
0208827650999992000112300004-07320-047460FM-12+021299999V0209999C000019999999N0200001N1+02621+02481101411ADDAA199000091GA1091+999999999GF109991091999999999999999KA1240M+02881MA1999999099001MD1999999-0031REMSYN082AAXX  23004 82765 32/98 90000 10262 20248 39900 40141 333 10288 29089 55016 59003;EQDQ01  00002PRCP99
0186827650999992000112312004-07320-047460FM-12+021299999V0209999C000010042019N0200001N1+02511+02381101741ADDAA199000091GF107991071071004501001001KA1240N+02301MA1999999099331MD1999999-0011REMSYN076AAXX  23124 82765 32498 70000 10251 20238 39933 40174 87700 333 20230 59001;EQDQ01  00002PRCP99
0167827650999992000112318004-07320-047460FM-12+021299999V0201401N001510075019N0200001N1+03261+02151101171ADDAA199000091GF106991061021008001001001MA1999999098801MD1999999-0161REMSYN070AAXX  23184 82765 32598 61403 10326 20215 39880 40117 86200 333 59016;EQDQ01  00002PRCP99
0208827650999992000112400004-07320-047460FM-12+021299999V0209999C000019999999N0200001N1+02921+02431101271ADDAA199000091GA1091+999999999GF109991091999999999999999KA1240M+03361MA1999999098881MD1999999-0121REMSYN082AAXX  24004 82765 32/98 90000 10292 20243 39888 40127 333 10336 29074 55087 59012;EQDQ01  00002PRCP99
0186827650999992000112412004-07320-047460FM-12+021299999V0200501N003112200019N0200001N1+02831+02071101561ADDAA199000091GF102991021021008001001001KA1240N+02371MA1999999099181MD1999999-0151REMSYN076AAXX  24124 82765 32598 20506 10283 20207 39918 40156 82200 333 20237 59015;EQDQ01  00002PRCP99
0167827650999992000112718004-07320-047460FM-12+021299999V0209999C000010075019N0200001N1+03221+02321101191ADDAA199000091GF107991051021008001041001MA1999999098821MD1999999+0071REMSYN070AAXX  27184 82765 32598 70000 10322 20232 39882 40119 85240 333 58007;EQDQ01  00002PRCP99
0208827650999992000112800004-07320-047460FM-12+021299999V0209999C000012200019N0200001N1+02841+02541101361ADDAA199000091GA1001+999999999GF100991001001999999001001KA1240M+03241MA1999999098981MD1999999+0071REMSYN082AAXX  28004 82765 32998 00000 10284 20254 39898 40136 333 10324 29078 55037 58007;EQDQ01  00002PRCP99
0201827650999992000112812004-07320-047460FM-12+021299999V0201401N000510450019N0200001N1+02511+02361101671ADDAA124000591AY121061AY211061GF108991041081004501021999KA1240N+02311MA1999999099271MD1999999+0001MW1211REMSYN088AAXX  28124 82765 21498 81401 10251 20236 39927 40167 72121 8482/ 333 20231 58000 69954;
0182827650999992000112818004-07320-047460FM-12+021299999V0209999C000010450019N0200001N1+02711+02281101381ADDAA106015091AY161061AY221061GF107991041021008001021001MA1999999098981MD1999999+0161MW1021REMSYN082AAXX  28184 82765 21598 70000 10271 20228 39898 40138 70262 84220 333 58016 60151;
0173827650999992000112912004-07320-047460FM-12+021299999V0200501N001010075019N0200001N1+02541+02381101721ADDAA124015091GF105991051021008001001001KA1240N+02311MA1999999099311MD1999999+0041REMSYN082AAXX  29124 82765 22598 50502 10254 20238 39931 40172 85200 333 20231 58004 60154;
0167827650999992000120118004-07320-047460FM-12+021299999V0209999C000010450019N0200001N1+03241+02221101151ADDAA199000091GF106991041011008001041001MA1999999098781MD1999999+0011REMSYN070AAXX  01184 82765 32598 60000 10324 20222 39878 40115 84140 333 58001;EQDQ01  00002PRCP99
0208827650999992000120200004-07320-047460FM-12+021299999V0209999C000019999999N0200001N1+02941+02521101271ADDAA199000091GA1091+999999999GF109991091999999999999999KA1240M+03301MA1999999098891MD1999999+0031REMSYN082AAXX  02004 82765 32/98 90000 10294 20252 39889 40127 333 10330 29075 55078 58003;EQDQ01  00002PRCP99
0186827650999992000120212004-07320-047460FM-12+021299999V0209999C000010450019N0200001N1+02821+02461101551ADDAA199000091GF105991031021008001041001KA1240N+02451MA1999999099181MD1999999-0071REMSYN076AAXX  02124 82765 32598 50000 10282 20246 39918 40155 83240 333 20245 59007;EQDQ01  00002PRCP99
0160827650999992000120218004-07320-047460FM-12+021299999V0200501N001510450019N0200001N1+03201+02581101101ADDAA106015091GF106991041021008001041001MA1999999098741MD1999999-0041REMSYN082AAXX  02184 82765 21598 60503 10320 20258 39874 40110 7//96 84240 333 59004 60151;
0208827650999992000120300004-07320-047460FM-12+021299999V0209999C000019999999N0200001N1+02521+02341101391ADDAA199000091GA1091+999999999GF109991091999999999999999KA1240M+03221MA1999999099001MD1999999+0111REMSYN082AAXX  03004 82765 32/98 90000 10252 20234 39900 40139 333 10322 29080 55055 58011;EQDQ01  00002PRCP99
0179827650999992000120312004-07320-047460FM-12+021299999V0209999C000010120019N0200001N1+02461+02341101631ADDAA124015091GF108991081081008001999999KA1240N+02331MA1999999099221MD1999999+0041REMSYN088AAXX  03124 82765 21598 80000 10246 20234 39922 40163 7//99 888// 333 20233 58004 60154;
0167827650999992000120318004-07320-047460FM-12+021299999V0203201N001510075019N0200001N1+03141+02321101111ADDAA199000091GF106991051021008001041001MA1999999098731MD1999999-0011REMSYN070AAXX  03184 82765 32598 63203 10314 20232 39873 40111 85240 333 59001;EQDQ01  00002PRCP99
0208827650999992000120400004-07320-047460FM-12+021299999V0209999C000019999999N0200001N1+03201+02521101271ADDAA199000091GA1091+999999999GF109991091999999999999999KA1240M+03201MA1999999098881MD1999999-0121REMSYN082AAXX  04004 82765 32/98 90000 10320 20252 39888 40127 333 10320 29080 55054 59012;EQDQ01  00002PRCP99
0186827650999992000120412004-07320-047460FM-12+021299999V0209999C000010075019N0200001N1+02661+02391101531ADDAA199000091GF107991071021008001001001KA1240N+02471MA1999999099161MD1999999-0061REMSYN076AAXX  04124 82765 32598 70000 10266 20239 39916 40153 87200 333 20247 59006;EQDQ01  00002PRCP99
0167827650999992000120418004-07320-047460FM-12+021299999V0203601N003110450019N0200001N1+02931+02271101021ADDAA199000091GF107991041021008001021001MA1999999098651MD1999999-0081REMSYN070AAXX  04184 82765 32598 73606 10293 20227 39865 40102 84220 333 59008;EQDQ01  00002PRCP99
0220827650999992000120500004-07320-047460FM-12+021299999V0209999C000019999999N0200001N1+02741+02481101211ADDAA199000091GA1091+999999999GF109991091999999999999999KA1240M+03161MA1999999098831MD1999999-0051MW1131REMSYN088AAXX  05004 82765 31/98 90000 10274 20248 39883 40121 713// 333 10316 29081 55064 59005;EQDQ01  00002PRCP99
0201827650999992000120512004-07320-047460FM-12+021299999V0203601N001510450019N0020001N1+02411+02231101481ADDAA124000191AY151061AY241061GF108991041071004501021999KA1240N+02421MA1999999099081MD1999999-0081MW1101REMSYN088AAXX  05124 82765 21495 83603 10241 20223 39908 40148 71054 8472/ 333 20242 59008 69914;
0182827650999992000120518004-07320-047460FM-12+021299999V0202701N001510450019N0040001N1+02581+02311101211ADDAA106000191AY151061AY241061GF108991041071008001021999MA1999999098811MD1999999+0161MW1281REMSYN082AAXX  05184 82765 21596 82703 10258 20231 39881 40121 72854 8472/ 333 58016 69911;
0198827650999992000120600004-07320-047460FM-12+021299999V0209999C000010450019N0200001N1+02431+02301101361ADDAA199000091GF108991031071008001021999KA1240M+02741MA1999999098941MD1999999+0111REMSYN088AAXX  06004 82765 32598 80000 10243 20230 39894 40136 8372/ 333 10274 29090 55000 58011;EQDQ01  00002PRCP99
0201827650999992000120612004-07320-047460FM-12+021299999V0209999C000010450019N0040001N1+02391+02281101621ADDAA124000191AY161061AY241061GF108991041071004501021999KA1240N+02291MA1999999099201MD1999999+0121MW1281REMSYN088AAXX  06124 82765 21496 80000 10239 20228 39920 40162 72864 8472/ 333 20229 58012 69924;
0182827650999992000120618004-07320-047460FM-12+021299999V0209999C000010075019N0100001N1+02991+02401101171ADDAA106000191AY161061AY241061GF106991061031008001001001MA1999999098781MD1999999-0031MW1281REMSYN082AAXX  06184 82765 21597 60000 10299 20240 39878 40117 72864 86300 333 59003 69911;
0223827650999992000120700004-07320-047460FM-12+021299999V0209999C000012200019N0200001N1+02701+02501101371ADDAA106001091AY161061AY221061GA1001+999999999GF100991001001999999001001KA1240M+03051MA1999999098971MD1999999+0031MW1021REMSYN094AAXX  07004 82765 21998 00000 10270 20250 39897 40137 70262 333 10305 29086 55028 58003 60011;
0179827650999992000120712004-07320-047460FM-12+021299999V0209999C000010120019N0200001N1+02461+02371101591ADDAA124005191GF108991061081008001021999KA1240N+02351MA1999999099191MD1999999-0011REMSYN088AAXX  07124 82765 21598 80000 10246 20237 39919 40159 7//66 8682/ 333 20235 59001 60054;
0167827650999992000120718004-07320-047460FM-12+021299999V0202701N000510450019N0200001N1+03201+02301101161ADDAA199000091GF105991031011008001041001MA1999999098791MD1999999+0011REMSYN070AAXX  07184 82765 32598 52701 10320 20230 39879 40116 83140 333 58001;EQDQ01  00002PRCP99
0208827650999992000120800004-07320-047460FM-12+021299999V0209999C000012200019N0200001N1+02821+02561101421ADDAA199000091GA1001+999999999GF100991001001999999001001KA1240M+03261MA1999999099031MD1999999+0061REMSYN082AAXX  08004 82765 32998 00000 10282 20256 39903 40142 333 10326 29082 55047 58006;EQDQ01  00002PRCP99
0179827650999992000120812004-07320-047460FM-12+021299999V0200501N001010120019N0200001N1+02401+02241101761ADDAA124013091GF108991081081008001999999KA1240N+02291MA1999999099351MD1999999+0161REMSYN088AAXX  08124 82765 21598 80502 10240 20224 39935 40176 7//66 888// 333 20229 58016 60134;
0160827650999992000120818004-07320-047460FM-12+021299999V0209999C000010120019N0200001N1+02641+02231101421ADDAA106001091GF108991061081008001021999MA1999999099021MD1999999+0231REMSYN082AAXX  08184 82765 21598 80000 10264 20223 39902 40142 7//65 8682/ 333 58023 60011;
0208827650999992000120900004-07320-047460FM-12+021299999V0209999C000019999999N0200001N1+02461+02321101611ADDAA199000091GA1091+999999999GF109991091999999999999999KA1240M+02821MA1999999099191MD1999999+0161REMSYN082AAXX  09004 82765 32/98 90000 10246 20232 39919 40161 333 10282 29088 55000 58016;EQDQ01  00002PRCP99
0173827650999992000120912004-07320-047460FM-12+021299999V0209999C000010120019N0200001N1+02401+02281101741ADDAA124001091GF108991081081008001999999KA1240N+02311MA1999999099321MD1999999-0031REMSYN082AAXX  09124 82765 22598 80000 10240 20228 39932 40174 888// 333 20231 59003 60014;
0167827650999992000120918004-07320-047460FM-12+021299999V0200901N000510120019N0200001N1+02801+02271101391ADDAA199000091GF108991061081008001021999MA1999999098991MD1999999-0031REMSYN070AAXX  09184 82765 32598 80901 10280 20227 39899 40139 8682/ 333 59003;EQDQ01  00002PRCP99
0198827650999992000121000004-07320-047460FM-12+021299999V0209999C000010450019N0200001N1+02561+02331101431ADDAA199000091GF107991041011008001031001KA1240M+02781MA1999999099021MD1999999-0171REMSYN088AAXX  10004 82765 32598 70000 10256 20233 39902 40143 84130 333 10278 29085 55008 59017;EQDQ01  00002PRCP99
0186827650999992000121012004-07320-047460FM-12+021299999V0209999C000010450019N0200001N1+02681+02411101521ADDAA199000091GF105991031021008001031001KA1240N+02351MA1999999099121MD1999999-0201REMSYN076AAXX  10124 82765 32598 50000 10268 20241 39912 40152 83230 333 20235 59020;EQDQ01  00002PRCP99
0167827650999992000121018004-07320-047460FM-12+021299999V0209999C000010075019N0200001N1+03081+02351101051ADDAA199000091GF106991061031008001001001MA1999999098671MD1999999-0321REMSYN070AAXX  10184 82765 32598 60000 10308 20235 39867 40105 86300 333 59032;EQDQ01  00002PRCP99
0186827650999992000121112004-07320-047460FM-12+021299999V0203601N000510450019N0200001N1+02601+02311101361ADDAA199000091GF107991041021008001021001KA1240N+02441MA1999999098961MD1999999-0161REMSYN076AAXX  11124 82765 32598 73601 10260 20231 39896 40136 84220 333 20244 59016;EQDQ01  00002PRCP99
0167827650999992000121118004-07320-047460FM-12+021299999V0200901N001010075019N0200001N1+03081+02291101001ADDAA199000091GF105991051031008001001001MA1999999098631MD1999999-0041REMSYN070AAXX  11184 82765 32598 50902 10308 20229 39863 40100 85300 333 59004;EQDQ01  00002PRCP99
0198827650999992000121200004-07320-047460FM-12+021299999V0209999C000010450019N0200001N1+02741+02481101221ADDAA199000091GF105991031011008001031001KA1240M+03141MA1999999098841MD1999999+0051REMSYN088AAXX  12004 82765 32598 50000 10274 20248 39884 40122 83130 333 10314 29080 55048 58005;EQDQ01  00002PRCP99
0201827650999992000121212004-07320-047460FM-12+021299999V0203601N001010042019N0040001N1+02261+02121101601ADDAA124029091AY161061AY221061GF108991081071004501999999KA1240N+02261MA1999999099191MD1999999+0231MW1611REMSYN088AAXX  12124 82765 21496 83602 10226 20212 39919 40160 76162 887// 333 20226 58023 60294;
0182827650999992000121218004-07320-047460FM-12+021299999V0209999C000010450019N0040001N1+02341+02261101341ADDAA106015091AY161061AY261061GF108991031071004501021999MA1999999098931MD1999999+0301MW1511REMSYN082AAXX  12184 82765 21496 80000 10234 20226 39893 40134 75166 8372/ 333 58030 60151;
0232827650999992000121300004-07320-047460FM-12+021299999V0209999C000010042019N0200001N1+02321+02241101391ADDAA106000591AY161061AY221061GF108991999071004501021999KA1240M+02721MA1999999098961MD1999999+0121MW1031REMSYN100AAXX  13004 82765 21498 80000 10232 20224 39896 40139 70362 8872/ 333 10272 29094 55000 58012 69961;EQDQ01+000082SCOTLC
0173827650999992000121312004-07320-047460FM-12+021299999V0209999C000010120019N0200001N1+02421+02281101541ADDAA124015091GF107991061081008001021001KA1240N+02211MA1999999099121MD1999999-0071REMSYN082AAXX  13124 82765 22598 70000 10242 20228 39912 40154 86820 333 20221 59007 60154;
0167827650999992000121318004-07320-047460FM-12+021299999V0203201N001510450019N0200001N1+03061+02351101141ADDAA199000091GF106991041021008001041001MA1999999098751MD1999999-0181REMSYN070AAXX  13184 82765 32598 63203 10306 20235 39875 40114 84240 333 59018;EQDQ01  00002PRCP99
0223827650999992000121400004-07320-047460FM-12+021299999V0209999C000019999999N0200001N1+02521+02341101361ADDAA106000591AY191061AY291061GA1091+999999999GF109991091999999999999999KA1240M+03061MA1999999098951MD1999999-0011MW1511REMSYN094AAXX  14004 82765 21/98 90000 10252 20234 39895 40136 75199 333 10306 29084 55028 59001 69941;
0201827650999992000121412004-07320-047460FM-12+021299999V0203601N000510075019N0040001N1+02421+02331101411ADDAA124016091AY161061AY251061GF108991081051008001999999KA1240N+02351MA1999999099001MD1999999-0121MW1291REMSYN088AAXX  14124 82765 21596 83601 10242 20233 39900 40141 72965 885// 333 20235 59012 60164;
0160827650999992000121418004-07320-047460FM-12+021299999V0209999C000010120019N0200001N1+02361+02281101071ADDAA106043991GF107991051081008001041001MA1999999098661MD1999999-0091REMSYN082AAXX  14184 82765 21598 70000 10236 20228 39866 40107 7//96 85840 333 59009 60441;
0208827650999992000121500004-07320-047460FM-12+021299999V0209999C000019999999N0200001N1+02421+02301101251ADDAA199000091GA1091+999999999GF109991091999999999999999KA1240M+02501MA1999999098841MD1999999-0111REMSYN082AAXX  15004 82765 32/98 90000 10242 20230 39884 40125 333 10250 29094 55003 59011;EQDQ01  00002PRCP99
0201827650999992000121512004-07320-047460FM-12+021299999V0209999C000010120019N0200001N1+02381+02291101331ADDAA124049091AY161061AY251061GF108991061081008001021999KA1240N+02251MA1999999098911MD1999999-0091MW1511REMSYN088AAXX  15124 82765 21598 80000 10238 20229 39891 40133 75165 8682/ 333 20225 59009 60494;
0182827650999992000121518004-07320-047460FM-12+021299999V0209999C000010075019N0200001N1+02421+02301100961ADDAA106006191AY161061AY261061GF108991081051008001999999MA1999999098551MD1999999-0111MW1511REMSYN082AAXX  15184 82765 21598 80000 10242 20230 39855 40096 75166 885// 333 59011 60061;
0223827650999992000121600004-07320-047460FM-12+021299999V0209999C000019999999N0200001N1+02321+02201101261ADDAA106014091AY161061AY261061GA1091+999999999GF109991091999999999999999KA1240M+02641MA1999999098841MD1999999+0001MW1511REMSYN094AAXX  16004 82765 22/98 90000 10232 20220 39884 40126 75166 333 10264 29094 55001 58000 60141;
0201827650999992000121612004-07320-047460FM-12+021299999V0203601N002110450019N0040001N1+02351+02201101411ADDAA124021191AY161061AY261061GF108991041071002501021999KA1240N+02261MA1999999098991MD1999999+0081MW1621REMSYN088AAXX  16124 82765 21396 83604 10235 20220 39899 40141 76266 8472/ 333 20226 58008 60214;
0182827650999992000121618004-07320-047460FM-12+021299999V0203601N000510450019N0200001N1+02371+02281101111ADDAA106015091AY161061AY261061GF108991041071004501021999MA1999999098691MD1999999+0141MW1031REMSYN082AAXX  16184 82765 21498 83601 10237 20228 39869 40111 70366 8472/ 333 58014 60151;
0179827650999992000121700004-07320-047460FM-12+021299999V0209999C000010042019N0200001N1+02351+02171101381ADDAA199000021GF108991081071004501999999KA1240M+02581MA1999999098961MD1999999+0121REMSYN088AAXX  17004 82765 32498 80000 10235 20217 39896 40138 887// 333 10258 29092 55000 58012;
0201827650999992000121712004-07320-047460FM-12+021299999V0203601N002110450019N0200001N1+02331+02071101611ADDAA124016091AY161061AY221061GF108991031081004501021999KA1240N+02191MA1999999099181MD1999999+0191MW1031REMSYN088AAXX  17124 82765 21498 83604 10233 20207 39918 40161 70362 8382/ 333 20219 58019 60164;
0182827650999992000121718004-07320-047460FM-12+021299999V0203601N001010450019N0200001N1+02541+02351101191ADDAA106004191AY161061AY261061GF108991041081004501021999MA1999999098771MD1999999+0081MW1031REMSYN082AAXX  17184 82765 21498 83602 10254 20235 39877 40119 70366 8482/ 333 58008 60041;
0213827650999992000121800004-07320-047460FM-12+021299999V0200901N001010042019N0100001N1+02281+02091101501ADDAA106005191AY161061AY261061GF108991081071004501999999KA1240M+02701MA1999999099071MD1999999+0111MW1031REMSYN100AAXX  18004 82765 21497 80902 10228 20209 39907 40150 70366 887// 333 10270 29088 55000 58011 60051;
0201827650999992000121812004-07320-047460FM-12+021299999V0209999C000010450019N0200001N1+02201+02101101671ADDAA124024991AY161061AY261061GF108991041071004501021999KA1240N+02051MA1999999099231MD1999999+0051MW1031REMSYN088AAXX  18124 82765 21498 80000 10220 20210 39923 40167 70366 8472/ 333 20205 58005 60254;
0167827650999992000121818004-07320-047460FM-12+021299999V0209999C000012200019N0200001N1+03091+02211101171ADDAA199000091GF104991041021008001001001MA1999999098781MD1999999+0011REMSYN070AAXX  18184 82765 32598 40000 10309 20221 39878 40117 84200 333 58001;EQDQ01  00002PRCP99
0208827650999992000121900004-07320-047460FM-12+021299999V0209999C000012200019N0200001N1+02741+02481101441ADDAA199000091GA1001+999999999GF100991001001999999001001KA1240M+03201MA1999999099031MD1999999-0041REMSYN082AAXX  19004 82765 32998 00000 10274 20248 39903 40144 333 10320 29082 55067 59004;EQDQ01  00002PRCP99
0186827650999992000121912004-07320-047460FM-12+021299999V0209999C000010450019N0200001N1+02601+02311101641ADDAA199000091GF105991031021008001041001KA1240N+02231MA1999999099241MD1999999+0011REMSYN076AAXX  19124 82765 32598 50000 10260 20231 39924 40164 83240 333 20223 58001;EQDQ01  00002PRCP99
0167827650999992000121918004-07320-047460FM-12+021299999V0201801N002610075019N0200001N1+03001+02441101181ADDAA199000091GF108991061021008001041001MA1999999098801MD1999999+0021REMSYN070AAXX  19184 82765 32598 81805 10300 20244 39880 40118 86240 333 58002;EQDQ01  00002PRCP99
0214827650999992000122000004-07320-047460FM-12+021299999V0209999C000019999999N0200001N1+02561+02381101521ADDAA199000091GA1091+999999999GF109991091999999999999999KA1240M+03201MA1999999099121MD1999999+0091REMSYN088AAXX  20004 82765 31/98 90000 10256 20238 39912 40152 7//99 333 10320 29084 55060 58009;EQDQ01  00002PRCP99
0179827650999992000122012004-07320-047460FM-12+021299999V0209999C000010120019N0200001N1+02521+02311101711ADDAA124000391GF108991081081008001999999KA1240N+02331MA1999999099301MD1999999+0061REMSYN088AAXX  20124 82765 21598 80000 10252 20231 39930 40171 7//55 888// 333 20233 58006 69934;
0160827650999992000122018004-07320-047460FM-12+021299999V0203201N000510120019N0200001N1+02501+02361101431ADDAA106043991GF108991081081008001999999MA1999999099021MD1999999+0221REMSYN082AAXX  20184 82765 21598 83201 10250 20236 39902 40143 7//96 888// 333 58022 60441;
0201827650999992000122100004-07320-047460FM-12+021299999V0209999C000019999999N0200001N1+02361+02281101641ADDAA106009991GA1091+999999999GF109991091999999999999999KA1240M+02641MA1999999099221MD1999999+0101REMSYN094AAXX  21004 82765 21/98 90000 10236 20228 39922 40164 7//66 333 10264 29092 55000 58010 60101;
0173827650999992000122112004-07320-047460FM-12+021299999V0202301N001010120019N0200001N1+02361+02221101931ADDAA124054191GF108991081081008001999999KA1240N+02311MA1999999099491MD1999999+0191REMSYN082AAXX  21124 82765 22598 82302 10236 20222 39949 40193 888// 333 20231 58019 60544;
0167827650999992000122118004-07320-047460FM-12+021299999V0209999C000010075019N0200001N1+02981+02441101411ADDAA199000091GF106991051021008001041001MA1999999099021MD1999999+0001REMSYN070AAXX  21184 82765 32598 60000 10298 20244 39902 40141 85240 333 58000;EQDQ01  00002PRCP99
0208827650999992000122200004-07320-047460FM-12+021299999V0209999C000019999999N0200001N1+02721+02451101591ADDAA199000091GA1091+999999999GF109991091999999999999999KA1240M+03141MA1999999099181MD1999999-0041REMSYN082AAXX  22004 82765 32/98 90000 10272 20245 39918 40159 333 10314 29084 55042 59004;EQDQ01  00002PRCP99
0186827650999992000122212004-07320-047460FM-12+021299999V0201801N001010450019N0200001N1+02611+02251101701ADDAA199000091GF105991031011008001041001KA1240N+02281MA1999999099301MD1999999-0191REMSYN076AAXX  22124 82765 32598 51802 10261 20225 39930 40170 83140 333 20228 59019;EQDQ01  00002PRCP99
0167827650999992000122218004-07320-047460FM-12+021299999V0201401N000510450019N0200001N1+03281+02371101291ADDAA199000091GF106991031021008001031001MA1999999098911MD1999999-0111REMSYN070AAXX  22184 82765 32598 61401 10328 20237 39891 40129 83230 333 59011;EQDQ01  00002PRCP99
0208827650999992000122300004-07320-047460FM-12+021299999V0209999C000012200019N0200001N1+03001+02551101321ADDAA199000091GA1001+999999999GF100991001001999999001001KA1240M+03361MA1999999098951MD1999999-0231REMSYN082AAXX  23004 82765 32998 00000 10300 20255 39895 40132 333 10336 29074 55097 59023;EQDQ01  00002PRCP99
0185827650999992000122312004-07320-047460FM-12+021299999V0209999C000010075019N0200001N1+02791+02361101601ADDAA199000091GF106991051021008001051001KA1240N+02441MA1999999099231MD1999999-0071REMSYN075AAXX  23124 82765 32598 60000 1027920236 39923 40160 85250 333 20244 59007;EQDQ01  00002PRCP99
0182827650999992000122318004-07320-047460FM-12+021299999V0200501N003110075019N0200001N1+02941+02261101181ADDAA106010991AY161061AY221061GF105991051031008001001001MA1999999098801MD1999999-0111MW1171REMSYN082AAXX  23184 82765 21598 50506 10294 20226 39880 40118 71762 85300 333 59011 60111;
0236827650999992000122400004-07320-047460FM-12+021299999V0209999C000019999999N0200001N1+02731+02601101371ADDAA199000091AY121061AY211061GA1091+999999999GF109991091999999999999999KA1240M+03241MA1999999098991MD1999999+0041MW1131REMSYN088AAXX  24004 82765 31/98 90000 10273 20260 39899 40137 71321 333 10324 29083 55080 58004;EQDQ01  00002PRCP99
0201827650999992000122412004-07320-047460FM-12+021299999V0200501N001510090019N0200001N1+02631+02391101691ADDAA124011991AY161061AY221061GF108991081081004501999999KA1240N+02381MA1999999099291MD1999999+0061MW1031REMSYN088AAXX  24124 82765 21498 80503 10263 20239 39929 40169 70362 888// 333 20238 58006 60124;
0182827650999992000122418004-07320-047460FM-12+021299999V0209999C000010042019N0100001N1+02541+02311101321ADDAA106017091AY161061AY221061GF107991071021004501001001MA1999999098911MD1999999+0111MW1291REMSYN082AAXX  24184 82765 21497 70000 10254 20231 39891 40132 72962 87200 333 58011 60171;
0201827650999992000122500004-07320-047460FM-12+021299999V0200901N001510024019N0100001N1+02421+02171101331ADDAA106000191GA1091+999999999GF109991091999999999999999KA1240M+03161MA1999999098921MD1999999-0071REMSYN094AAXX  25004 82765 21/97 90903 10242 20217 39892 40133 7//62 333 10316 29086 55049 59007 69911;
0173827650999992000122512004-07320-047460FM-12+021299999V0209999C000010450019N0200001N1+02641+02371101661ADDAA124017091GF107991041021008001041001KA1240N+02271MA1999999099251MD1999999-0041REMSYN082AAXX  25124 82765 22598 70000 10264 20237 39925 40166 84240 333 20227 59004 60174;
0160827650999992000122518004-07320-047460FM-12+021299999V0209999C000010450019N0200001N1+02641+02351101481ADDAA106005191GF106991031021008001041001MA1999999099071MD1999999+0161REMSYN082AAXX  25184 82765 21598 60000 10264 20235 39907 40148 7//96 83240 333 58016 60051;
0208827650999992000122600004-07320-047460FM-12+021299999V0209999C000019999999N0200001N1+02541+02401101421ADDAA199000091GA1091+999999999GF109991091999999999999999KA1240M+03161MA1999999099021MD1999999+0101REMSYN082AAXX  26004 82765 32/98 90000 10254 20240 39902 40142 333 10316 29088 55063 58010;EQDQ01  00002PRCP99
0173827650999992000122612004-07320-047460FM-12+021299999V0209999C000012200019N0200001N1+02641+02411101581ADDAA124005191GF103991021011008001031001KA1240N+02231MA1999999099181MD1999999-0071REMSYN082AAXX  26124 82765 22598 30000 10264 20241 39918 40158 82130 333 20223 59007 60054;
0167827650999992000122618004-07320-047460FM-12+021299999V0201401N003112200019N0200001N1+03281+02201101161ADDAA199000091GF104991031021008001041001MA1999999098781MD1999999-0291REMSYN070AAXX  26184 82765 32598 41406 10328 20220 39878 40116 83240 333 59029;EQDQ01  00002PRCP99
0208827650999992000122700004-07320-047460FM-12+021299999V0209999C000012200019N0200001N1+02861+02441101281ADDAA199000091GA1001+999999999GF100991001001999999001001KA1240M+03361MA1999999098901MD1999999-0121REMSYN082AAXX  27004 82765 32998 00000 10286 20244 39890 40128 333 10336 29074 55112 59012;EQDQ01  00002PRCP99
0202827650999992000122712004-07320-047460FM-12+021299999V0209999C000012200019N0200001N1+02681+02201101551ADDAA199000091GF102991999011008001001001KA1240N+02291MA1999999099161MD1999999-0021REMSYN076AAXX  27124 82765 32598 20000 10268 20220 39916 40155 81100 333 20229 59002;EQDQ01+000012SCOTLCQ02  00002PRCP99
0167827650999992000122718004-07320-047460FM-12+021299999V0209999C000010075019N0200001N1+03271+02251101261ADDAA199000091GF105991051021008001001001MA1999999098881MD1999999+0101REMSYN070AAXX  27184 82765 32598 50000 10327 20225 39888 40126 85200 333 58010;EQDQ01  00002PRCP99
0201827650999992000122800004-07320-047460FM-12+021299999V0209999C000019999999N0200001N1+02641+02351101391ADDAA106001091GA1091+999999999GF109991091999999999999999KA1240M+03341MA1999999099001MD1999999+0101REMSYN094AAXX  28004 82765 21/98 90000 10264 20235 39900 40139 7//95 333 10334 29075 55090 58010 60011;
0173827650999992000122812004-07320-047460FM-12+021299999V0200901N003110450019N0200001N1+02761+02361101571ADDAA124001091GF106991041021008001051001KA1240N+02311MA1999999099181MD1999999+0021REMSYN082AAXX  28124 82765 22598 60906 10276 20236 39918 40157 84250 333 20231 58002 60014;
0167827650999992000122818004-07320-047460FM-12+021299999V0201401N001512200019N0200001N1+03301+02391101141ADDAA199000091GF103991031021008001001001MA1999999098771MD1999999-0111REMSYN070AAXX  28184 82765 32598 31403 10330 20239 39877 40114 83200 333 59011;EQDQ01  00002PRCP99
0208827650999992000122900004-07320-047460FM-12+021299999V0209999C000012200019N0200001N1+02961+02381101241ADDAA199000091GA1001+999999999GF100991001001999999001001KA1240M+03421MA1999999098871MD1999999-0131REMSYN082AAXX  29004 82765 32998 00000 10296 20238 39887 40124 333 10342 29070 55108 59013;EQDQ01  00002PRCP99
0186827650999992000122912004-07320-047460FM-12+021299999V0209999C000012200019N0200001N1+02771+02281101491ADDAA199000091GF103991031011008001001001KA1240N+02381MA1999999099111MD1999999-0071REMSYN076AAXX  29124 82765 32598 30000 10277 20228 39911 40149 83100 333 20238 59007;EQDQ01  00002PRCP99
0167827650999992000122918004-07320-047460FM-12+021299999V0200901N002110075019N0200001N1+03321+02321101101ADDAA199000091GF105991051021008001001001MA1999999098741MD1999999-0031REMSYN070AAXX  29184 82765 32598 50904 10332 20232 39874 40110 85200 333 59003;EQDQ01  00002PRCP99
0226827650999992000123000004-07320-047460FM-12+021299999V0209999C000012200019N0200001N1+02741+02341101251ADDAA199000091AY111061AY211061GF104991041021008001001001KA1240M+03441MA1999999098871MD1999999+0001MW1131REMSYN094AAXX  30004 82765 31598 40000 10274 20234 39887 40125 71311 84200 333 10344 29072 55098 58000;EQDQ01  00002PRCP99
0186827650999992000123012004-07320-047460FM-12+021299999V0209999C000010450019N0200001N1+02591+02271101561ADDAA199000091GF105991021011008001031001KA1240N+02301MA1999999099161MD1999999+0051REMSYN076AAXX  30124 82765 32598 50000 10259 20227 39916 40156 82130 333 20230 58005;EQDQ01  00002PRCP99
0167827650999992000123018004-07320-047460FM-12+021299999V0202701N001010075019N0200001N1+03301+02331101101ADDAA199000091GF105991051021008001001001MA1999999098731MD1999999-0011REMSYN070AAXX  30184 82765 32598 52702 10330 20233 39873 40110 85200 333 59001;EQDQ01  00002PRCP99
0198827650999992000123100004-07320-047460FM-12+021299999V0209999C000012200019N0200001N1+02761+02341101321ADDAA199000091GF104991041011008001001001KA1240M+03451MA1999999098931MD1999999+0061REMSYN088AAXX  31004 82765 32598 40000 10276 20234 39893 40132 84100 333 10345 29074 55069 58006;EQDQ01  00002PRCP99
0201827650999992000123112004-07320-047460FM-12+021299999V0209999C000010120019N0200001N1+02261+02211101741ADDAA124041991AY161061AY261061GF108991061081008001021999KA1240N+02151MA1999999099321MD1999999+0161MW1511REMSYN088AAXX  31124 82765 21598 80000 10226 20221 39932 40174 75166 8682/ 333 20215 58016 60424;
0148827650999992000123118004-07320-047460FM-12+021299999V0203201N001510450019N0200001N1+03021+02361101341ADDAA199000021GF105991031021008001041001MA1999999098941MD1999999+0211REMSYN070AAXX  31184 82765 32598 53203 10302 20236 39894 40134 83240 333 58021;
