0186827840999992000010112004-07320-039300FM-12+040999999V0200901N000511050019N0200001N1+02711+01991101071ADDAA106000091GF106991041021008001001021KA1240N+02311MA1999999096431MD1999999-0131REMSYN076AAXX  01124 82784 32598 60901 10271 20199 39643 40107 84202 333 20231 59013;EQDQ01  00002PRCP06
0167827840999992000010118004-07320-039300FM-12+040999999V0203601N001012200019N0200001N1+03111+01971100661ADDAA106000091GF102991999021008001001001MA1999999096051MD1999999-0101REMSYN070AAXX  01184 82784 32598 23602 10311 20197 39605 40066 81200 333 59010;EQDQ01  00002PRCP06
0196827840999992000010200004-07320-039300FM-12+040999999V0201801N001012200019N0010001N1+02521+01791100921ADDAA106000091GA1001+999999999GF100991001001999999001001KA1240M+03231MA1999999096281MD1999999-0121REMSYN070AAXX  02004 82784 32994 01802 10252 20179 39628 40092 333 10323 59012;EQDQ01  00002PRCP06
0186827840999992000010212004-07320-039300FM-12+040999999V0200501N003110075019N0200001N1+02611+02011101071ADDAA106000091GF108991081021008001999999KA1240N+02131MA1999999096421MD1999999-0011REMSYN076AAXX  02124 82784 32598 80506 10261 20201 39642 40107 882// 333 20213 59001;EQDQ01  00002PRCP06
0167827840999992000010218004-07320-039300FM-12+040999999V0200501N002112200019N0200001N1+03181+01611100741ADDAA106000091GF103991031021012501001001MA1999999096121MD1999999+0071REMSYN070AAXX  02184 82784 32698 30504 10318 20161 39612 40074 83200 333 58007;EQDQ01  00002PRCP06
0196827840999992000010300004-07320-039300FM-12+040999999V0209999C000012200019N0010001N1+02521+01891100901ADDAA106000091GA1001+999999999GF100991001001999999001001KA1240M+03251MA1999999096251MD1999999-0021REMSYN070AAXX  03004 82784 32994 00000 10252 20189 39625 40090 333 10325 59002;EQDQ01  00002PRCP06
0186827840999992000010312004-07320-039300FM-12+040999999V0203601N001010120019N0200001N1+02581+02011101091ADDAA106000091GF107991051081008001011001KA1240N+02171MA1999999096441MD1999999+0021REMSYN076AAXX  03124 82784 32598 73602 10258 20201 39644 40109 85810 333 20217 58002;EQDQ01  00002PRCP06
0167827840999992000010318004-07320-039300FM-12+040999999V0200501N001510450019N0200001N1+03081+01921100621ADDAA106000091GF107991021021008001071001MA1999999096011MD1999999-0111REMSYN070AAXX  03184 82784 32598 70503 10308 20192 39601 40062 82270 333 59011;EQDQ01  00002PRCP06
0218827840999992000010400004-07320-039300FM-12+040999999V0209999C000010075019N0010001N1+02521+02021100871ADDAA106000091GF108991081021008001001001KA1240M+03171MA1999999999999MD1999999-0021REMSYN076AAXX  04004 82784 32594 80000 10252 20202 30163 40087 88200 333 10317 59002;EQDQ01+101633APOSP Q02  00002PRCP06Q03 101633APOSP 
0201827840999992000010412004-07320-039300FM-12+040999999V0200901N001510075019N0010001N1+02271+02121101271ADDAA124031091AY191061AY261061GF108991081071008001999999KA1240N+02001MA1999999096601MD1999999+0161MW1631REMSYN088AAXX  04124 82784 21594 80903 10227 20212 39660 40127 76396 887// 333 20200 58016 60314;
0182827840999992000010418004-07320-039300FM-12+040999999V0202701N002110120019N0040001N1+02281+02181100951ADDAA106023991AY191061AY261061GF108991081081008001999999MA1999999096261MD1999999+0251MW1021REMSYN082AAXX  04184 82784 21596 82704 10228 20218 39626 40095 70296 888// 333 58025 60241;
0201827840999992000010500004-07320-039300FM-12+040999999V0201801N001010075019N0020001N1+02161+02081101221ADDAA106004191AY161061AY221061GF108991081071008001999999KA1240M+02591MA1999999096531MD1999999+0301MW1201REMSYN088AAXX  05004 82784 21595 81802 10216 20208 39653 40122 72062 887// 333 10259 58030 60041;
0173827840999992000010512004-07320-039300FM-12+040999999V0203601N000510450019N0200001N1+02441+02051101261ADDAA124027991GF108991031021008001031999KA1240N+02121MA1999999096581MD1999999-0021REMSYN082AAXX  05124 82784 22598 83601 10244 20205 39658 40126 8323/ 333 20212 59002 60284;
0167827840999992000010518004-07320-039300FM-12+040999999V0200901N003110120019N0200001N1+03001+01911100801ADDAA106000091GF106991061021012501001001MA1999999096161MD1999999-0101REMSYN070AAXX  05184 82784 32698 60906 10300 20191 39616 40080 86200 333 59010;EQDQ01  00002PRCP06
0201827840999992000010612004-07320-039300FM-12+040999999V0202701N000510075019N0040001N1+02151+02041101311ADDAA124014091AY191061AY261061GF108991081071008001999999KA1240N+01981MA1999999096631MD1999999+0051MW1021REMSYN088AAXX  06124 82784 21596 82701 10215 20204 39663 40131 70296 887// 333 20198 58005 60144;
0196827840999992000010700004-07320-039300FM-12+040999999V0202301N000512200019N0020001N1+02301+01981101161ADDAA106000091GA1001+999999999GF100991001001999999001001KA1240M+02961MA1999999096471MD1999999-0021REMSYN070AAXX  07004 82784 32995 02301 10230 20198 39647 40116 333 10296 59002;EQDQ01  00002PRCP06
0201827840999992000010712004-07320-039300FM-12+040999999V0202701N001510075019N0040001N1+02271+02141101231ADDAA124004191AY161061AY211061GF108991081071008001999999KA1240N+02141MA1999999096551MD1999999-0081MW1021REMSYN088AAXX  07124 82784 21596 82703 10227 20214 39655 40123 70261 887// 333 20214 59008 60044;
0182827840999992000010718004-07320-039300FM-12+040999999V0201801N002110120019N0010001N1+02221+02101100971ADDAA106005191AY121061AY221061GF107991071081008001001001MA1999999096291MD1999999+0041MW1951REMSYN082AAXX  07184 82784 21594 71804 10222 20210 39629 40097 79522 87800 333 58004 60051;
0211827840999992000010800004-07320-039300FM-12+040999999V0202701N001012200019N0020001N1+02241+02121100901ADDAA106000391AY191061AY251061GA1001+999999999GF100991001001999999001001KA1240M+02811MA1999999096321MD1999999-0151MW1021REMSYN082AAXX  08004 82784 21995 02702 10224 20212 39632 40090 70295 333 10281 59015 69931;
0201827840999992000010812004-07320-039300FM-12+040999999V0200901N001010120019N0200001N1+02461+02171101241ADDAA124006191AY151061AY211061GF108991081081008001999999KA1240N+02201MA1999999096561MD1999999+0011MW1021REMSYN088AAXX  08124 82784 21598 80902 10246 20217 39656 40124 70251 888// 333 20220 58001 60064;
0167827840999992000010818004-07320-039300FM-12+040999999V0200901N002110075019N0200001N1+03061+02081100711ADDAA106000091GF107991051021008001011001MA1999999096091MD1999999-0201REMSYN070AAXX  08184 82784 32598 70904 10306 20208 39609 40071 85210 333 59020;EQDQ01  00002PRCP06
0201827840999992000010900004-07320-039300FM-12+040999999V0202701N000510042019N0002001N1+02221+02171101151ADDAA106001091AY191061AY221061GF108991081071004501999999KA1240M+03101MA1999999096481MD1999999+0161MW1521REMSYN088AAXX  09004 82784 21492 82701 10222 20217 39648 40115 75292 887// 333 10310 58016 69991;
0201827840999992000010912004-07320-039300FM-12+040999999V0202301N001510042019N0002001N1+02241+02141101431ADDAA124018091AY151061AY221061GF108991081051004501999999KA1240N+02171MA1999999096741MD1999999+0181MW1621REMSYN088AAXX  09124 82784 21492 82303 10224 20214 39674 40143 76252 885// 333 20217 58018 60184;
0182827840999992000010918004-07320-039300FM-12+040999999V0200901N002110075019N0100001N1+02621+02231101091ADDAA106000591AY151061AY221061GF108991081051008001999999MA1999999096431MD1999999+0341MW1151REMSYN082AAXX  09184 82784 21597 80904 10262 20223 39643 40109 71552 885// 333 58034 69961;
0211827840999992000011000004-07320-039300FM-12+040999999V0209999C000012200019N0020001N1+02361+02261101231ADDAA106002091AY161061AY221061GA1001+999999999GF100991001001999999001001KA1240M+02731MA1999999096551MD1999999+0071MW1001REMSYN082AAXX  10004 82784 21995 00000 10236 20226 39655 40123 70062 333 10273 58007 60021;
0173827840999992000011012004-07320-039300FM-12+040999999V0201401N002112200019N0200001N1+02671+02071101241ADDAA124002091GF103991021021008001011001KA1240N+02201MA1999999096521MD1999999-0161REMSYN082AAXX  10124 82784 22598 31404 10267 20207 39652 40124 82210 333 20220 59016 60024;
0167827840999992000011018004-07320-039300FM-12+040999999V0201401N003112200019N0200001N1+03101+01901100831ADDAA106000091GF102991021021008001011001MA1999999096201MD1999999-0221REMSYN070AAXX  10184 82784 32598 21406 10310 20190 39620 40083 82210 333 59022;EQDQ01  00002PRCP06
0196827840999992000011100004-07320-039300FM-12+040999999V0201401N001012200019N0020001N1+02541+01911101071ADDAA106000091GA1001+999999999GF100991001001999999001001KA1240M+03191MA1999999096431MD1999999-0121REMSYN070AAXX  11004 82784 32995 01402 10254 20191 39643 40107 333 10319 59012;EQDQ01  00002PRCP06
0186827840999992000011112004-07320-039300FM-12+040999999V0200901N002612200019N0200001N1+02771+01801101211ADDAA106000091GF102991011021008001001021KA1240N+02221MA1999999096561MD1999999-0021REMSYN076AAXX  11124 82784 32598 20905 10277 20180 39656 40121 81202 333 20222 59002;EQDQ01  00002PRCP06
0167827840999992000011118004-07320-039300FM-12+040999999V0201801N002110150019N0200001N1+03151+01771100801ADDAA106000091GF107991071081012501001001MA1999999096181MD1999999-0021REMSYN070AAXX  11184 82784 32698 71804 10315 20177 39618 40080 87800 333 59002;EQDQ01  00002PRCP06
0186827840999992000011200004-07320-039300FM-12+040999999V0209999C000012200019N0020001N1+02561+01901100971ADDAA106000091GF101991011021008001001001KA1240M+03211MA1999999096341MD1999999-0091REMSYN076AAXX  12004 82784 32595 10000 10256 20190 39634 40097 81200 333 10321 59009;EQDQ01  00002PRCP06
0186827840999992000011212004-07320-039300FM-12+040999999V0200501N002110075019N0200001N1+02651+02051101231ADDAA106000091GF107991071021008001001001KA1240N+02161MA1999999096581MD1999999+0021REMSYN076AAXX  12124 82784 32598 70504 10265 20205 39658 40123 87200 333 20216 58002;EQDQ01  00002PRCP06
0167827840999992000011218004-07320-039300FM-12+040999999V0200501N002612200019N0200001N1+03141+01971100801ADDAA106000091GF102991011021008001071001MA1999999096181MD1999999+0001REMSYN070AAXX  12184 82784 32598 20505 10314 20197 39618 40080 81270 333 58000;EQDQ01  00002PRCP06
0196827840999992000011300004-07320-039300FM-12+040999999V0203601N000512200019N0020001N1+02461+02091100981ADDAA106000091GA1001+999999999GF100991001001999999001001KA1240M+03191MA1999999096341MD1999999+0001REMSYN070AAXX  13004 82784 32995 03601 10246 20209 39634 40098 333 10319 58000;EQDQ01  00002PRCP06
0201827840999992000011312004-07320-039300FM-12+040999999V0200501N001510120019N0200001N1+02521+02171101321ADDAA124001091AY161061AY211061GF108991081081008001999999KA1240N+02521MA1999999096651MD1999999+0071MW1021REMSYN088AAXX  13124 82784 21598 80503 10252 20217 39665 40132 70261 888// 333 20252 58007 60014;
0167827840999992000011318004-07320-039300FM-12+040999999V0201801N002110120019N0200001N1+02961+02051100871ADDAA106000091GF108991081061012501999999MA1999999096241MD1999999+0061REMSYN070AAXX  13184 82784 32698 81804 10296 20205 39624 40087 886// 333 58006;EQDQ01  00002PRCP06
0206827840999992000011400004-07320-039300FM-12+040999999V0209999C000010075019N0020001N1+02521+02171101041ADDAA199000091GF107991999021008001001001KA1240M+03011MA1999999096391MD1999999+0051REMSYN080    AAXX  14004 82784 32595 70000 10252 20217 39639 40104 86200 333 10301 58005;EQDQ01+000062SCOTLCQ02  00002PRCP99
0205827840999992000011412004-07320-039300FM-12+040999999V0203601N001010075019N0040001N1+02251+02171101241ADDAA124043991AY191061AY261061GF108991081071008001999999KA1240N+02231MA1999999096571MD1999999-0081MW1211REMSYN092    AAXX  14124 82784 21596 83602 10225 20217 39657 40124 72196 887// 333 20223 59008 60444;
0186827840999992000011418004-07320-039300FM-12+040999999V0202301N000510450019N0200001N1+02801+02251100841ADDAA106000191AY151061AY221061GF107991021021008001071001MA1999999096201MD1999999-0041MW1021REMSYN086    AAXX  14184 82784 21598 72301 10280 20225 39620 40084 70252 82270 333 59004 69921;
0171827840999992000011500004-07320-039300FM-12+040999999V0202301N001012200019N0020001N1+02391+02211100961ADDAA199000021GF102991021081008001001001KA1240M+02871MA1999999096291MD1999999-0101REMSYN080    AAXX  15004 82784 32595 22302 10239 20221 39629 40096 82800 333 10287 59010;
0205827840999992000011512004-07320-039300FM-12+040999999V0201401N001010075019N0010001N1+02361+02191101201ADDAA124000591AY151061AY211061GF108991081051008001999999KA1240N+02261MA1999999096531MD1999999-0041MW1461REMSYN092    AAXX  15124 82784 21594 81402 10236 20219 39653 40120 74651 885// 333 20226 59004 69964;
0205827840999992000011518004-07320-039300FM-12+040999999V0200501N001010075019N0040001N1+02261+02231101011ADDAA106002091AY151061AY221061GF108991999021008001001001MA1999999096341MD1999999+0131MW1611REMSYN086    AAXX  15184 82784 21596 80502 10226 20223 39634 40101 76152 85200 333 58013 60021;EQDQ01+000052SCOTLC
0205827840999992000011600004-07320-039300FM-12+040999999V0201801N001510075019N0020001N1+02261+02121101011ADDAA106000191AY151061AY221061GF108991081051008001999999KA1240M+02751MA1999999096341MD1999999+0051MW1021REMSYN092    AAXX  16004 82784 21595 81803 10226 20212 39634 40101 70252 885// 333 10275 58005 69911;
0177827840999992000011612004-07320-039300FM-12+040999999V0203601N001010120019N0200001N1+02461+01921101201ADDAA124003091GF108991081081008001999999KA1240N+02141MA1999999096531MD1999999+0001REMSYN086    AAXX  16124 82784 22598 83602 10246 20192 39653 40120 888// 333 20214 58000 60034;
0171827840999992000011618004-07320-039300FM-12+040999999V0201801N003112200019N0200001N1+03061+02041100801ADDAA199000091GF102991021081012501001001MA1999999096171MD1999999-0171REMSYN074    AAXX  16184 82784 32698 21806 10306 20204 39617 40080 82800 333 59017;EQDQ01  00002PRCP99
0218827840999992000011700004-07320-039300FM-12+040999999V0202701N002610120019N0020001N1+02561+02251101051ADDAA199000091AY191061AY221061GF108991081081008001999999KA1240M+03171MA1999999096401MD1999999+0061MW1171REMSYN086    AAXX  17004 82784 31595 82705 10256 20225 39640 40105 71792 888// 333 10317 58006;EQDQ01  00002PRCP99
0190827840999992000011712004-07320-039300FM-12+040999999V0200501N001510075019N0200001N1+02541+02151101311ADDAA199000091GF106991051021008001041001KA1240N+02261MA1999999096651MD1999999+0121REMSYN080    AAXX  17124 82784 32598 60503 10254 20215 39665 40131 85240 333 20226 58012;EQDQ01  00002PRCP99
0171827840999992000011718004-07320-039300FM-12+040999999V0200501N002110450019N0200001N1+03001+02051100921ADDAA199000091GF106991021021008001071001MA1999999096291MD1999999+0121REMSYN074    AAXX  17184 82784 32598 60504 10300 20205 39629 40092 82270 333 58012;EQDQ01  00002PRCP99
0206827840999992000011800004-07320-039300FM-12+040999999V0202701N000519999999N0020001N1+02561+02291101181ADDAA199000091GF108991999021008001001001KA1240M+03111MA1999999096531MD1999999+0131REMSYN080    AAXX  18004 82784 32595 82701 10256 20229 39653 40118 84200 333 10311 58013;EQDQ01+000042SCOTLCQ02  00002PRCP99
0205827840999992000011812004-07320-039300FM-12+040999999V0200501N002110120019N0100001N1+02471+02111101461ADDAA124004191AY161061AY221061GF107991071081008001001001KA1240N+02321MA1999999096791MD1999999+0141MW1021REMSYN092    AAXX  18124 82784 21597 70504 10247 20211 39679 40146 70262 87800 333 20232 58014 60044;
0171827840999992000011818004-07320-039300FM-12+040999999V0200501N002610450019N0200001N1+03041+02261101001ADDAA199000091GF105991041021008001011001MA1999999096371MD1999999+0081REMSYN074    AAXX  18184 82784 32598 50505 10304 20226 39637 40100 84210 333 58008;EQDQ01  00002PRCP99
0200827840999992000011900004-07320-039300FM-12+040999999V0201801N000512200019N0020001N1+02541+02231101481ADDAA199000091GA1001+999999999GF100991001001999999001001KA1240M+03111MA1999999096521MD1999999-0011REMSYN074    AAXX  19004 82784 32995 01801 10254 20223 39652 40148 333 10311 59001;EQDQ01  00002PRCP99
0190827840999992000011912004-07320-039300FM-12+040999999V0203601N001510120019N0200001N1+02601+02231101401ADDAA199000091GF108991081081008001999999KA1240N+02241MA1999999096741MD1999999-0051REMSYN080    AAXX  19124 82784 32598 83603 10260 20223 39674 40140 888// 333 20224 59005;EQDQ01  00002PRCP99
0167827840999992000011918004-07320-039300FM-12+040999999V0203601N003112200019N0200001N1+03081+02131100921ADDAA199000091GF104991031021008001061001MA1999999096291MD1999999-0081REMSYN070AAXX  19184 82784 32598 43606 10308 20213 39629 40092 83260 333 59008;EQDQ01  00002PRCP99
0186827840999992000012000004-07320-039300FM-12+040999999V0201401N000512200019N0020001N1+02431+02171101221ADDAA199000091GF104991041061008001001001KA1240M+03171MA1999999096561MD1999999+0041REMSYN076AAXX  20004 82784 32595 41401 10243 20217 39656 40122 84600 333 10317 58004;EQDQ01  00002PRCP99
0186827840999992000012012004-07320-039300FM-12+040999999V0202701N001510120019N0200001N1+02561+02081101341ADDAA199000091GF108991081081008001999999KA1240N+02221MA1999999096671MD1999999-0071REMSYN076AAXX  20124 82784 32598 82703 10256 20208 39667 40134 888// 333 20222 59007;EQDQ01  00002PRCP99
0167827840999992000012018004-07320-039300FM-12+040999999V0203601N002612200019N0200001N1+03061+02141100841ADDAA199000091GF104991041021008001001001MA1999999096211MD1999999-0081REMSYN070AAXX  20184 82784 32598 43605 10306 20214 39621 40084 84200 333 59008;EQDQ01  00002PRCP99
0186827840999992000012100004-07320-039300FM-12+040999999V0209999C000010075019N0020001N1+02501+02191101191ADDAA199000091GF106991061021008001001001KA1240M+03121MA1999999096541MD1999999-0021REMSYN076AAXX  21004 82784 32595 60000 10250 20219 39654 40119 86200 333 10312 59002;EQDQ01  00002PRCP99
0201827840999992000012112004-07320-039300FM-12+040999999V0202701N000510075019N0040001N1+02151+02041101311ADDAA124014091AY191061AY261061GF108991081071008001999999KA1240N+01981MA1999999096631MD1999999+0051MW1021REMSYN088AAXX  21124 82784 21596 82701 10215 20204 39663 40131 70296 887// 333 20198 58005 60144;
0195827840999992000012118004-07320-039300FM-12+040999999V0203601N002110120019N0200001N1+02881+02181100901ADDAA199000091AY121061AY221061GF108991081081008001999999MA1999999096271MD1999999+0061MW1151REMSYN076AAXX  21184 82784 31598 83604 10288 20218 39627 40090 71522 888// 333 58006;EQDQ01  00002PRCP99
0186827840999992000012200004-07320-039300FM-12+040999999V0209999C000010075019N0020001N1+02441+02211101251ADDAA199000091GF106991061021008001001001KA1240M+03011MA1999999096591MD1999999+0051REMSYN076AAXX  22004 82784 32595 60000 10244 20221 39659 40125 86200 333 10301 58005;EQDQ01  00002PRCP99
0201827840999992000012212004-07320-039300FM-12+040999999V0203601N001510120019N0200001N1+02611+02191101471ADDAA124000191AY151061AY221061GF107991071081008001001001KA1240N+02181MA1999999096801MD1999999+0151MW1021REMSYN088AAXX  22124 82784 21598 73603 10261 20219 39680 40147 70252 87800 333 20218 58015 69914;
0167827840999992000012218004-07320-039300FM-12+040999999V0203601N002610450019N0200001N1+03041+02231100951ADDAA199000091GF106991041021008001021001MA1999999096311MD1999999+0041REMSYN070AAXX  22184 82784 32598 63605 10304 20223 39631 40095 84220 333 58004;EQDQ01  00002PRCP99
0186827840999992000012300004-07320-039300FM-12+040999999V0200501N001010120019N0020001N1+02441+02231101301ADDAA199000091GF108991081081008001999999KA1240M+03191MA1999999096641MD1999999+0051REMSYN076AAXX  23004 82784 32595 80502 10244 20223 39664 40130 888// 333 10319 58005;EQDQ01  00002PRCP99
0201827840999992000012312004-07320-039300FM-12+040999999V0202301N001010075019N0100001N1+02491+02251101371ADDAA124000891AY151061AY221061GF108991081051008001999999KA1240N+02361MA1999999096701MD1999999-0101MW1511REMSYN088AAXX  23124 82784 21597 82302 10249 20225 39670 40137 75152 885// 333 20236 59010 69974;
0148827840999992000012318004-07320-039300FM-12+040999999V0201801N000510120019N0200001N1+02741+02301100931ADDAA199000021GF108991081051012501999999MA1999999096291MD1999999-0021REMSYN070AAXX  23184 82784 32698 81801 10274 20230 39629 40093 885// 333 59002;
0167827840999992000012400004-07320-039300FM-12+040999999V0200901N000510075019N0020001N1+02361+02261101221ADDAA199000021GF108991081051008001999999KA1240M+02801MA1999999096561MD1999999-0081REMSYN076AAXX  24004 82784 32595 80901 10236 20226 39656 40122 885// 333 10280 59008;
0201827840999992000012412004-07320-039300FM-12+040999999V0200501N002610120019N0040001N1+02461+02191101371ADDAA124000391AY151061AY221061GF108991081081008001999999KA1240N+02231MA1999999096691MD1999999-0011MW1021REMSYN088AAXX  24124 82784 21596 80505 10246 20219 39669 40137 70252 888// 333 20223 59001 69934;
0196827840999992000012500004-07320-039300FM-12+040999999V0202301N000512200019N0020001N1+02441+02131101171ADDAA199000091GA1001+999999999GF100991001001999999001001KA1240M+03021MA1999999096511MD1999999-0051REMSYN070AAXX  25004 82784 32995 02301 10244 20213 39651 40117 333 10302 59005;EQDQ01  00002PRCP99
0201827840999992000012512004-07320-039300FM-12+040999999V0203201N001010075019N0200001N1+02521+02211101411ADDAA124002091AY161061AY211061GF108991081021008001999999KA1240N+02271MA1999999096741MD1999999+0051MW1021REMSYN088AAXX  25124 82784 21598 83202 10252 20221 39674 40141 70261 882// 333 20227 58005 60024;
0167827840999992000012518004-07320-039300FM-12+040999999V0200501N002612200019N0200001N1+03061+02191100951ADDAA199000091GF102991021021012501001001MA1999999096321MD1999999+0011REMSYN070AAXX  25184 82784 32698 20505 10306 20219 39632 40095 82200 333 58001;EQDQ01  00002PRCP99
0202827840999992000012600004-07320-039300FM-12+040999999V0201801N000512200019N0020001N1+02421+02071101181ADDAA199000091GA1001+999999999GF100991001001999999001001KA1240M+03111MA1999999096521MD1999999+0011REMSYN076AAXX  26004 82784 32595 01801 10242 20207 39652 40118 83200 333 10311 58001;EQDQ01  00002PRCP99
0186827840999992000012612004-07320-039300FM-12+040999999V0203601N001010075019N0200001N1+02581+02191101531ADDAA199000091GF106991061021008001001001KA1240N+02111MA1999999096851MD1999999+0111REMSYN076AAXX  26124 82784 32598 63602 10258 20219 39685 40153 86200 333 20211 58011;EQDQ01  00002PRCP99
0167827840999992000012618004-07320-039300FM-12+040999999V0200901N001012200019N0200001N1+03141+02211101011ADDAA199000091GF102991021021008001021001MA1999999096371MD1999999+0051REMSYN070AAXX  26184 82784 32598 20902 10314 20221 39637 40101 82220 333 58005;EQDQ01  00002PRCP99
0228827840999992000012700004-07320-039300FM-12+040999999V0201801N001512200019N0020001N1+02561+02171101041ADDAA199000091GA1001+999999999GF100991001001999999001001KA1240M+02981MA1999999999999MD1999999+0031REMSYN070AAXX  27004 82784 32995 01803 10256 20217 39004 40104 333 10298 58003;EQDQ01+090043APOSP Q02  00002PRCP99Q03 090043APOSP 
0186827840999992000012712004-07320-039300FM-12+040999999V0201401N001010120019N0200001N1+02651+02231101431ADDAA199000091GF108991081081008001999999KA1240N+02161MA1999999096771MD1999999-0081REMSYN076AAXX  27124 82784 32598 81402 10265 20223 39677 40143 888// 333 20216 59008;EQDQ01  00002PRCP99
0167827840999992000012718004-07320-039300FM-12+040999999V0203601N002612200019N0200001N1+03101+02181100951ADDAA199000091GF102991021021012501001001MA1999999096311MD1999999-0061REMSYN070AAXX  27184 82784 32698 23605 10310 20218 39631 40095 82200 333 59006;EQDQ01  00002PRCP99
0196827840999992000012800004-07320-039300FM-12+040999999V0201801N001012200019N0020001N1+02501+02131101221ADDAA199000091GA1001+999999999GF100991001001999999001001KA1240M+03191MA1999999096571MD1999999-0011REMSYN070AAXX  28004 82784 32995 01802 10250 20213 39657 40122 333 10319 59001;EQDQ01  00002PRCP99
0167827840999992000012818004-07320-039300FM-12+040999999V0203601N002612200019N0200001N1+03231+02261100841ADDAA199000091GF104991021021008001071001MA1999999096221MD1999999-0091REMSYN070AAXX  28184 82784 32598 43605 10323 20226 39622 40084 82270 333 59009;EQDQ01  00002PRCP99
0224827840999992000012900004-07320-039300FM-12+040999999V0202301N000512200019N0020001N1+02481+02211101111ADDAA199000091AY191061AY201061GA1001+999999999GF100991001001999999001001KA1240M+03331MA1999999096461MD1999999-0111MW1011REMSYN076AAXX  29004 82784 31995 02301 10248 20221 39646 40111 70190 333 10333 59011;EQDQ01  00002PRCP99
0186827840999992000012912004-07320-039300FM-12+040999999V0200501N002110075019N0200001N1+02661+02311101421ADDAA199000091GF106991061021008001001001KA1240N+02341MA1999999096751MD1999999+0041REMSYN076AAXX  29124 82784 32598 60504 10266 20231 39675 40142 86200 333 20234 58004;EQDQ01  00002PRCP99
0167827840999992000012918004-07320-039300FM-12+040999999V0203601N003612200019N0200001N1+03141+02071100941ADDAA199000091GF101991011021008001001001MA1999999096311MD1999999+0091REMSYN070AAXX  29184 82784 32598 13607 10314 20207 39631 40094 81200 333 58009;EQDQ01  00002PRCP99
0196827840999992000013000004-07320-039300FM-12+040999999V0201401N001012200019N0020001N1+02501+02001101231ADDAA199000091GA1001+999999999GF100991001001999999001001KA1240M+03251MA1999999096581MD1999999+0121REMSYN070AAXX  30004 82784 32995 01402 10250 20200 39658 40123 333 10325 58012;EQDQ01  00002PRCP99
0186827840999992000013012004-07320-039300FM-12+040999999V0200501N003110075019N0200001N1+02731+01981101521ADDAA199000091GF106991061021008001001001KA1240N+02261MA1999999096851MD1999999+0101REMSYN076AAXX  30124 82784 32598 60506 10273 20198 39685 40152 86200 333 20226 58010;EQDQ01  00002PRCP99
0167827840999992000013018004-07320-039300FM-12+040999999V0203601N002610120019N0200001N1+03181+01841101071ADDAA199000091GF106991061021012501011001MA1999999096441MD1999999+0131REMSYN070AAXX  30184 82784 32698 63605 10318 20184 39644 40107 86210 333 58013;EQDQ01  00002PRCP99
0186827840999992000013100004-07320-039300FM-12+040999999V0200501N000512200019N0020001N1+02501+02071101341ADDAA199000091GF102991021081008001001001KA1240M+03251MA1999999096681MD1999999+0131REMSYN076AAXX  31004 82784 32595 20501 10250 20207 39668 40134 82800 333 10325 58013;EQDQ01  00002PRCP99
0186827840999992000013112004-07320-039300FM-12+040999999V0200501N001510450019N0200001N1+02661+01971101661ADDAA199000091GF106991031021008001061081KA1240N+02251MA1999999096991MD1999999+0141REMSYN076AAXX  31124 82784 32598 60503 10266 20197 39699 40166 83268 333 20225 58014;EQDQ01  00002PRCP99
0167827840999992000013118004-07320-039300FM-12+040999999V0201401N003610450019N0200001N1+03331+01971101171ADDAA199000091GF106991041021008001011001MA1999999096541MD1999999+0101REMSYN070AAXX  31184 82784 32598 61407 10333 20197 39654 40117 84210 333 58010;EQDQ01  00002PRCP99
0186827840999992000020112004-07320-039300FM-12+040999999V0203601N001512200019N0200001N1+02421+02151101661ADDAA199000091GF103991031021008001001001KA1240N+02201MA1999999096991MD1999999+0001REMSYN076AAXX  01124 82784 32598 33603 10242 20215 39699 40166 83200 333 20220 58000;EQDQ01  00002PRCP99
0167827840999992000020118004-07320-039300FM-12+040999999V0202701N001512200019N0200001N1+03291+02101101101ADDAA199000091GF102991021021008001001001MA1999999096471MD1999999-0071REMSYN070AAXX  01184 82784 32598 22703 10329 20210 39647 40110 82200 333 59007;EQDQ01  00002PRCP99
0196827840999992000020200004-07320-039300FM-12+040999999V0209999C000012200019N0020001N1+02641+02081101241ADDAA199000091GA1001+999999999GF100991001001999999001001KA1240M+03351MA1999999096601MD1999999-0131REMSYN070AAXX  02004 82784 32995 00000 10264 20208 39660 40124 333 10335 59013;EQDQ01  00002PRCP99
0186827840999992000020212004-07320-039300FM-12+040999999V0203601N001510450019N0200001N1+02741+02171101421ADDAA199000091GF106991031021008001031001KA1240N+02351MA1999999096771MD1999999-0221REMSYN076AAXX  02124 82784 32598 63603 10274 20217 39677 40142 83230 333 20235 59022;EQDQ01  00002PRCP99
0196827840999992000020300004-07320-039300FM-12+040999999V0201401N001012200019N0020001N1+02501+02001101211ADDAA199000091GA1001+999999999GF100991001001999999001001KA1240M+03251MA1999999096561MD1999999-0041REMSYN070AAXX  03004 82784 32995 01402 10250 20200 39656 40121 333 10325 59004;EQDQ01  00002PRCP99
0186827840999992000020312004-07320-039300FM-12+040999999V0203201N002110120019N0200001N1+02641+02161101401ADDAA199000091GF107991071081008001001001KA1240N+02261MA1999999096741MD1999999-0031REMSYN076AAXX  03124 82784 32598 73204 10264 20216 39674 40140 87800 333 20226 59003;EQDQ01  00002PRCP99
0167827840999992000020318004-07320-039300FM-12+040999999V0203601N003110450019N0200001N1+02961+02101100951ADDAA199000091GF106991021021008001011001MA1999999096311MD1999999-0051REMSYN070AAXX  03184 82784 32598 63606 10296 20210 39631 40095 82210 333 59005;EQDQ01  00002PRCP99
0196827840999992000020400004-07320-039300FM-12+040999999V0209999C000012200019N0020001N1+02511+02091101141ADDAA199000091GA1001+999999999GF100991001001999999001001KA1240M+03051MA1999999096491MD1999999-0071REMSYN070AAXX  04004 82784 32995 00000 10251 20209 39649 40114 333 10305 59007;EQDQ01  00002PRCP99
0186827840999992000020412004-07320-039300FM-12+040999999V0203601N001510120019N0200001N1+02591+02121101481ADDAA199000091GF108991081081008001999999KA1240N+02331MA1999999096811MD1999999+0071REMSYN076AAXX  04124 82784 32598 83603 10259 20212 39681 40148 888// 333 20233 58007;EQDQ01  00002PRCP99
0167827840999992000020418004-07320-039300FM-12+040999999V0203601N001510450019N0200001N1+02921+02041101151ADDAA199000091GF108991011081012501021999MA1999999096511MD1999999+0201REMSYN070AAXX  04184 82784 32698 83603 10292 20204 39651 40115 8182/ 333 58020;EQDQ01  00002PRCP99
0196827840999992000020500004-07320-039300FM-12+040999999V0201801N003112200019N0020001N1+02481+02091101271ADDAA199000091GA1001+999999999GF100991001001999999001001KA1240M+03001MA1999999096611MD1999999+0121REMSYN070AAXX  05004 82784 32995 01806 10248 20209 39661 40127 333 10300 58012;EQDQ01  00002PRCP99
0186827840999992000020512004-07320-039300FM-12+040999999V0200501N000510120019N0200001N1+02551+02131101571ADDAA199000091GF108991081081008001999999KA1240N+02371MA1999999096891MD1999999+0081REMSYN076AAXX  05124 82784 32598 80501 10255 20213 39689 40157 888// 333 20237 58008;EQDQ01  00002PRCP99
0186827840999992000020612004-07320-039300FM-12+040999999V0200901N001510075019N0200001N1+02721+02151101521ADDAA199000091GF108991081021008001001001KA1240N+02201MA1999999096841MD1999999-0051REMSYN076AAXX  06124 82784 32598 80903 10272 20215 39684 40152 88200 333 20220 59005;EQDQ01  00002PRCP99
0183827840999992000020618004-07320-039300FM-12+040999999V0203601N003112200019N0200001N1+03221+01981101031ADDAA199000091GF103991999011008001001001MA1999999096401MD1999999-0071REMSYN070AAXX  06184 82784 32598 33606 10322 20198 39640 40103 82100 333 59007;EQDQ01+000022SCOTLCQ02  00002PRCP99
0196827840999992000020700004-07320-039300FM-12+040999999V0209999C000012200019N0020001N1+02481+01981101291ADDAA199000091GA1001+999999999GF100991001001999999001001KA1240M+03291MA1999999096641MD1999999+0011REMSYN070AAXX  07004 82784 32995 00000 10248 20198 39664 40129 333 10329 58001;EQDQ01  00002PRCP99
0186827840999992000020712004-07320-039300FM-12+040999999V0202701N002110075019N0200001N1+02621+02141101501ADDAA199000091GF106991061021008001001001KA1240N+02241MA1999999096831MD1999999-0011REMSYN076AAXX  07124 82784 32598 62704 10262 20214 39683 40150 86200 333 20224 59001;EQDQ01  00002PRCP99
0167827840999992000020718004-07320-039300FM-12+040999999V0200501N002110120019N0200001N1+03081+02241101061ADDAA199000091GF107991071081008001001001MA1999999096431MD1999999+0031REMSYN070AAXX  07184 82784 32598 70504 10308 20224 39643 40106 87800 333 58003;EQDQ01  00002PRCP99
0214827840999992000020800004-07320-039300FM-12+040999999V0202701N002110120019N0020001N1+02581+02011101401ADDAA199000091AY121061AY221061GF108991081081008001999999KA1240M+03331MA1999999096741MD1999999+0101MW1171REMSYN082AAXX  08004 82784 31595 82704 10258 20201 39674 40140 71722 888// 333 10333 58010;EQDQ01  00002PRCP99
0201827840999992000020812004-07320-039300FM-12+040999999V0201401N001010075019N0100001N1+02281+02091101591ADDAA124016091AY161061AY221061GF108991061061008001031999KA1240N+02031MA1999999096911MD1999999+0081MW1011REMSYN088AAXX  08124 82784 21597 81402 10228 20209 39691 40159 70162 8663/ 333 20203 58008 60164;
0167827840999992000020818004-07320-039300FM-12+040999999V0200501N001010450019N0200001N1+03001+02141101031ADDAA199000091GF106991041021012501071001MA1999999096381MD1999999-0051REMSYN070AAXX  08184 82784 32698 60502 10300 20214 39638 40103 84270 333 59005;EQDQ01  00002PRCP99
0230827840999992000020900004-07320-039300FM-12+040999999V0203601N002119999999N0020001N1+02461+02051101391ADDAA199000091AY191061AY221061GF105991999051008001999999KA1240M+03091MA1999999096711MD1999999-0031MW1171REMSYN082AAXX  09004 82784 31595 53604 10246 20205 39671 40139 71792 885// 333 10309 59003;EQDQ01+000082SCOTLCQ02  00002PRCP99
0201827840999992000020912004-07320-039300FM-12+040999999V0203201N003610075019N0040001N1+02241+02071101591ADDAA124005191AY191061AY261061GF108991081061008001999999KA1240N+02071MA1999999096901MD1999999-0011MW1021REMSYN088AAXX  09124 82784 21596 83207 10224 20207 39690 40159 70296 886// 333 20207 59001 60054;
0167827840999992000020918004-07320-039300FM-12+040999999V0200501N000510450019N0200001N1+02831+02171101131ADDAA199000091GF106991041021008001071001MA1999999096471MD1999999+0091REMSYN070AAXX  09184 82784 32598 60501 10283 20217 39647 40113 84270 333 58009;EQDQ01  00002PRCP99
0196827840999992000021000004-07320-039300FM-12+040999999V0209999C000012200019N0020001N1+02391+02151101251ADDAA199000091GA1001+999999999GF100991001001999999001001KA1240M+02931MA1999999096571MD1999999-0141REMSYN070AAXX  10004 82784 32995 00000 10239 20215 39657 40125 333 10293 59014;EQDQ01  00002PRCP99
0201827840999992000021012004-07320-039300FM-12+040999999V0200501N002610075019N0200001N1+02501+02191101491ADDAA124009991AY161061AY251061GF107991051021008001031001KA1240N+02151MA1999999096811MD1999999-0091MW1011REMSYN088AAXX  10124 82784 21598 70505 10250 20219 39681 40149 70165 85230 333 20215 59009 60104;
0167827840999992000021018004-07320-039300FM-12+040999999V0203601N001510450019N0200001N1+02841+02191101031ADDAA199000091GF108991031081012501021999MA1999999096381MD1999999-0091REMSYN070AAXX  10184 82784 32698 83603 10284 20219 39638 40103 8382/ 333 59009;EQDQ01  00002PRCP99
0211827840999992000021100004-07320-039300FM-12+040999999V0202701N001512200019N0020001N1+02241+02161101401ADDAA106001091AY191061AY251061GA1001+999999999GF100991001001999999001001KA1240M+02951MA1999999096721MD1999999+0151MW1011REMSYN082AAXX  11004 82784 21995 02703 10224 20216 39672 40140 70195 333 10295 58015 60011;
0173827840999992000021112004-07320-039300FM-12+040999999V0200901N002110450019N0200001N1+02631+02121101411ADDAA124001091GF106991021021008001051001KA1240N+02081MA1999999096741MD1999999-0071REMSYN082AAXX  11124 82784 22598 60904 10263 20212 39674 40141 82250 333 20208 59007 60014;
0167827840999992000021118004-07320-039300FM-12+040999999V0200901N002110450019N0200001N1+03061+01991101051ADDAA199000091GF106991021021008001061001MA1999999096411MD1999999+0031REMSYN070AAXX  11184 82784 32598 60904 10306 20199 39641 40105 82260 333 58003;EQDQ01  00002PRCP99
0186827840999992000021200004-07320-039300FM-12+040999999V0201801N001510450019N0020001N1+02481+02151101271ADDAA199000091GF106991011081008001051001KA1240M+03131MA1999999096611MD1999999-0111REMSYN076AAXX  12004 82784 32595 61803 10248 20215 39661 40127 81850 333 10313 59011;EQDQ01  00002PRCP99
0201827840999992000021212004-07320-039300FM-12+040999999V0203601N001010075019N0200001N1+02591+02151101361ADDAA124001091AY151061AY221061GF105991051021008001001001KA1240N+02281MA1999999096701MD1999999-0041MW1011REMSYN088AAXX  12124 82784 21598 53602 10259 20215 39670 40136 70152 85200 333 20228 59004 69994;
0183827840999992000021218004-07320-039300FM-12+040999999V0200901N002112200019N0200001N1+03211+01861100891ADDAA199000091GF103991999011008001001001MA1999999096261MD1999999-0151REMSYN070AAXX  12184 82784 32598 30904 10321 20186 39626 40089 82100 333 59015;EQDQ01+000022SCOTLCQ02  00002PRCP99
0196827840999992000021300004-07320-039300FM-12+040999999V0201401N001012200019N0020001N1+02521+01771101091ADDAA199000091GA1001+999999999GF100991001001999999001001KA1240M+03291MA1999999096441MD1999999-0151REMSYN070AAXX  13004 82784 32995 01402 10252 20177 39644 40109 333 10329 59015;EQDQ01  00002PRCP99
0201827840999992000021312004-07320-039300FM-12+040999999V0203201N001010120019N0100001N1+02461+02191101361ADDAA124000591AY191061AY251061GF108991081081008001999999KA1240N+02161MA1999999096701MD1999999+0001MW1021REMSYN088AAXX  13124 82784 21597 83202 10246 20219 39670 40136 70295 888// 333 20216 58000 69944;
0167827840999992000021318004-07320-039300FM-12+040999999V0202701N003110120019N0200001N1+02931+02141100971ADDAA199000091GF107991071041012501001001MA1999999096331MD1999999+0071REMSYN070AAXX  13184 82784 32698 72706 10293 20214 39633 40097 87400 333 58007;EQDQ01  00002PRCP99
0201827840999992000021400004-07320-039300FM-12+040999999V0201801N005710450019N0002001N1+02021+01831101441ADDAA106009991AY191061AY221061GF108991031071004501021999KA1240M+03071MA1999999096761MD1999999+0231MW1971REMSYN088AAXX  14004 82784 21492 81811 10202 20183 39676 40144 79792 8372/ 333 10307 58023 60101;
0201827840999992000021412004-07320-039300FM-12+040999999V0201801N000510120019N0040001N1+02421+02071101511ADDAA124020191AY191061AY261061GF108991081081008001999999KA1240N+02241MA1999999096831MD1999999+0131MW1021REMSYN088AAXX  14124 82784 21596 81801 10242 20207 39683 40151 70296 888// 333 20224 58013 60204;
0195827840999992000021418004-07320-039300FM-12+040999999V0202701N001510450019N0200001N1+02731+02191101031ADDAA199000091AY191061AY221061GF107991041081008001021001MA1999999096371MD1999999+0041MW1171REMSYN076AAXX  14184 82784 31598 72703 10273 20219 39637 40103 71792 84820 333 58004;EQDQ01  00002PRCP99
0201827840999992000021500004-07320-039300FM-12+040999999V0202701N001010075019N0020001N1+02101+02051101461ADDAA106027991AY191061AY261061GF108991081051008001999999KA1240M+02821MA1999999096761MD1999999+0001MW1021REMSYN088AAXX  15004 82784 21595 82702 10210 20205 39676 40146 70296 885// 333 10282 58000 60281;
0201827840999992000021512004-07320-039300FM-12+040999999V0202701N001510120019N0040001N1+02301+02141101461ADDAA124034091AY161061AY221061GF108991081081008001999999KA1240N+02101MA1999999096751MD1999999-0081MW1021REMSYN088AAXX  15124 82784 21596 82703 10230 20214 39675 40146 70262 888// 333 20210 59008 60344;
0167827840999992000021518004-07320-039300FM-12+040999999V0200901N002112200019N0200001N1+03001+02141100881ADDAA199000091GF102991021021012501001001MA1999999096241MD1999999-0131REMSYN070AAXX  15184 82784 32698 20904 10300 20214 39624 40088 82200 333 59013;EQDQ01  00002PRCP99
0201827840999992000021600004-07320-039300FM-12+040999999V0203601N010810075019N0020001N1+02231+02151101401ADDAA106007191AY191061AY261061GF108991081071008001999999KA1240M+03111MA1999999096711MD1999999-0051MW1201REMSYN088AAXX  16004 82784 21595 83621 10223 20215 39671 40140 72096 887// 333 10311 59005 60071;
0201827840999992000021612004-07320-039300FM-12+040999999V0202701N001010120019N0200001N1+02461+02151101411ADDAA124007191AY151061AY221061GF107991061081008001031001KA1240N+02201MA1999999096731MD1999999-0021MW1021REMSYN088AAXX  16124 82784 21598 72702 10246 20215 39673 40141 70252 86830 333 20220 59002 60074;
0167827840999992000021618004-07320-039300FM-12+040999999V0203601N002110450019N0200001N1+02901+02101100901ADDAA199000091GF106991041021008001021001MA1999999096261MD1999999+0021REMSYN070AAXX  16184 82784 32598 63604 10290 20210 39626 40090 84220 333 58002;EQDQ01  00002PRCP99
0202827840999992000021700004-07320-039300FM-12+040999999V0209999C000010075019N0020001N1+02471+02271101271ADDAA199000091GF107991999021008001001001KA1240M+02961MA1999999096601MD1999999-0111REMSYN076AAXX  17004 82784 32595 70000 10247 20227 39660 40127 86200 333 10296 59011;EQDQ01+000062SCOTLCQ02  00002PRCP99
0201827840999992000021712004-07320-039300FM-12+040999999V0203601N001010075019N0040001N1+02461+02131101481ADDAA124015091AY191061AY261061GF108991081071008001999999KA1240N+02031MA1999999096801MD1999999+0071MW1021REMSYN088AAXX  17124 82784 21596 83602 10246 20213 39680 40148 70296 887// 333 20203 58007 60154;
0195827840999992000021718004-07320-039300FM-12+040999999V0200501N000510075019N0200001N1+02881+02101100951ADDAA199000091AY121061AY221061GF106991051021008001021001MA1999999096301MD1999999+0041MW1291REMSYN076AAXX  17184 82784 31598 60501 10288 20210 39630 40095 72922 85220 333 58004;EQDQ01  00002PRCP99
0186827840999992000021800004-07320-039300FM-12+040999999V0200901N000510075019N0020001N1+02401+02151101271ADDAA199000091GF108991081061008001999999KA1240M+03011MA1999999096601MD1999999+0001REMSYN076AAXX  18004 82784 32595 80901 10240 20215 39660 40127 886// 333 10301 58000;EQDQ01  00002PRCP99
0201827840999992000021812004-07320-039300FM-12+040999999V0203601N001510120019N0100001N1+02481+02131101511ADDAA124006191AY161061AY221061GF107991071081008001001001KA1240N+02151MA1999999096831MD1999999+0031MW1011REMSYN088AAXX  18124 82784 21597 73603 10248 20213 39683 40151 70162 87800 333 20215 58003 60064;
0182827840999992000021818004-07320-039300FM-12+040999999V0200901N003610450019N0200001N1+02901+02121100981ADDAA106000591AY151061AY221061GF108991031021012501071999MA1999999096341MD1999999+0041MW1031REMSYN082AAXX  18184 82784 21698 80907 10290 20212 39634 40098 70352 8327/ 333 58004 69951;
0186827840999992000021900004-07320-039300FM-12+040999999V0202301N001012200019N0020001N1+02421+02111101381ADDAA199000091GF103991031021008001001001KA1240M+02971MA1999999096711MD1999999+0111REMSYN076AAXX  19004 82784 32595 32302 10242 20211 39671 40138 83200 333 10297 58011;EQDQ01  00002PRCP99
0167827840999992000021918004-07320-039300FM-12+040999999V0201401N002612200019N0200001N1+03111+01971101031ADDAA199000091GF103991021021008001011001MA1999999096391MD1999999+0051REMSYN070AAXX  19184 82784 32598 31405 10311 20197 39639 40103 82210 333 58005;EQDQ01  00002PRCP99
0196827840999992000022000004-07320-039300FM-12+040999999V0203201N001512200019N0020001N1+02381+02071101301ADDAA199000091GA1001+999999999GF100991001001999999001001KA1240M+03151MA1999999096641MD1999999-0071REMSYN070AAXX  20004 82784 32995 03203 10238 20207 39664 40130 333 10315 59007;EQDQ01  00002PRCP99
0186827840999992000022012004-07320-039300FM-12+040999999V0200901N001512200019N0200001N1+02681+01991101471ADDAA199000091GF102991021011008001001001KA1240N+02251MA1999999096801MD1999999-0021REMSYN076AAXX  20124 82784 32598 20903 10268 20199 39680 40147 82100 333 20225 59002;EQDQ01  00002PRCP99
0167827840999992000022018004-07320-039300FM-12+040999999V0201401N003610075019N0200001N1+03041+01941101021ADDAA199000091GF108991081021008001999999MA1999999096391MD1999999+0001REMSYN070AAXX  20184 82784 32598 81407 10304 20194 39639 40102 882// 333 58000;EQDQ01  00002PRCP99
0196827840999992000022100004-07320-039300FM-12+040999999V0209999C000012200019N0020001N1+02361+01951101281ADDAA199000091GA1001+999999999GF100991001001999999001001KA1240M+03091MA1999999096621MD1999999-0021REMSYN070AAXX  21004 82784 32995 00000 10236 20195 39662 40128 333 10309 59002;EQDQ01  00002PRCP99
0167827840999992000022118004-07320-039300FM-12+040999999V0203601N001510075019N0200001N1+02921+02091100961ADDAA199000091GF105991051021008001001001MA1999999096381MD1999999-0071REMSYN070AAXX  21184 82784 32598 53603 10292 20209 39638 40096 85200 333 59007;EQDQ01  00002PRCP99
0214827840999992000022200004-07320-039300FM-12+040999999V0201801N001510075019N0020001N1+02541+01951101261ADDAA199000091AY121061AY221061GF108991081071008001999999KA1240M+03061MA1999999096611MD1999999-0011MW1291REMSYN082AAXX  22004 82784 31595 81803 10254 20195 39661 40126 72922 887// 333 10306 59001;EQDQ01  00002PRCP99
0201827840999992000022212004-07320-039300FM-12+040999999V0201401N001012200019N0200001N1+02671+02091101371ADDAA124017091AY161061AY211061GF104991031021008001031001KA1240N+02201MA1999999096711MD1999999-0081MW1011REMSYN088AAXX  22124 82784 21598 41402 10267 20209 39671 40137 70161 83230 333 20220 59008 60174;
0167827840999992000022218004-07320-039300FM-12+040999999V0203601N002112200019N0200001N1+03051+02061100901ADDAA199000091GF104991041021008001001001MA1999999096271MD1999999-0051REMSYN070AAXX  22184 82784 32598 43604 10305 20206 39627 40090 84200 333 59005;EQDQ01  00002PRCP99
0201827840999992000022300004-07320-039300FM-12+040999999V0201401N002610075019N0010001N1+02401+02131101391ADDAA106000391AY191061AY251061GF108991081071008001999999KA1240M+03101MA1999999096731MD1999999+0121MW1951REMSYN088AAXX  23004 82784 21594 81405 10240 20213 39673 40139 79595 887// 333 10310 58012 69931;
0201827840999992000022312004-07320-039300FM-12+040999999V0202701N001010075019N0040001N1+02241+02101101461ADDAA124029091AY191061AY261061GF108991081071008001999999KA1240N+02101MA1999999096771MD1999999+0061MW1021REMSYN088AAXX  23124 82784 21596 82702 10224 20210 39677 40146 70296 887// 333 20210 58006 60294;
0186827840999992000022400004-07320-039300FM-12+040999999V0201401N000510075019N0020001N1+02471+02301101251ADDAA199000091AY191061AY221061GF108991081071008001999999MA1999999096571MW1171REMSYN081AAXX  24004 82784 31595 81401 10247 20230 39657 40125 71792 887// 333 1021 59016;EQDQ01  00002PRCP99
0201827840999992000022412004-07320-039300FM-12+040999999V0203601N002110120019N0100001N1+02521+02191101371ADDAA124006191AY191061AY261061GF107991071081008001001001KA1240N+02241MA1999999096701MD1999999-0071MW1021REMSYN088AAXX  24124 82784 21597 73604 10252 20219 39670 40137 70296 87800 333 20224 59007 60064;
0167827840999992000022418004-07320-039300FM-12+040999999V0203601N001510150019N0200001N1+02751+02211100941ADDAA199000091GF108991051081012501071999MA1999999096291MD1999999-0041REMSYN070AAXX  24184 82784 32698 83603 10275 20221 39629 40094 8587/ 333 59004;EQDQ01  00002PRCP99
0211827840999992000022500004-07320-039300FM-12+040999999V0209999C000012200019N0020001N1+02281+02251101241ADDAA106003091AY191061AY261061GA1001+999999999GF100991001001999999001001KA1240M+02931MA1999999096571MD1999999+0001MW1011REMSYN082AAXX  25004 82784 21995 00000 10228 20225 39657 40124 70196 333 10293 58000 60031;
0201827840999992000022512004-07320-039300FM-12+040999999V0200201N001010120019N0100001N1+02531+02211101401ADDAA124004191AY151061AY211061GF107991071081008001001001KA1240N+02161MA1999999096721MD1999999+0021MW1011REMSYN088AAXX  25124 82784 21597 70202 10253 20221 39672 40140 70151 87800 333 20216 58002 60044;
0167827840999992000022518004-07320-039300FM-12+040999999V0203601N001510450019N0200001N1+02861+02091101061ADDAA199000091GF106991031021008001071001MA1999999096411MD1999999+0121REMSYN070AAXX  25184 82784 32598 63603 10286 20209 39641 40106 83270 333 58012;EQDQ01  00002PRCP99
0186827840999992000022612004-07320-039300FM-12+040999999V0200501N001010075019N0200001N1+02621+02071101341ADDAA199000091GF107991071021008001001001KA1240N+02141MA1999999096671MD1999999-0051REMSYN076AAXX  26124 82784 32598 70502 10262 20207 39667 40134 87200 333 20214 59005;EQDQ01  00002PRCP99
0167827840999992000022618004-07320-039300FM-12+040999999V0200901N002112200019N0200001N1+03111+02031100951ADDAA199000091GF103991011021008001021011MA1999999096321MD1999999-0091REMSYN070AAXX  26184 82784 32598 30904 10311 20203 39632 40095 81221 333 59009;EQDQ01  00002PRCP99
0186827840999992000022700004-07320-039300FM-12+040999999V0200901N002110075019N0020001N1+02321+02051101461ADDAA199000091GF108991081071008001999999KA1240M+03151MA1999999096781MD1999999+0181REMSYN076AAXX  27004 82784 32595 80904 10232 20205 39678 40146 887// 333 10315 58018;EQDQ01  00002PRCP99
0201827840999992000022712004-07320-039300FM-12+040999999V0200901N002110120019N0200001N1+02671+02091101391ADDAA124027991AY191061AY261061GF108991071081008001011001KA1240N+02191MA1999999096721MD1999999+0051MW1031REMSYN088AAXX  27124 82784 21598 80904 10267 20209 39672 40139 70396 87810 333 20219 58005 60284;
0167827840999992000022718004-07320-039300FM-12+040999999V0203601N001510120019N0200001N1+02851+02221100971ADDAA199000091GF107991051041012501021001MA1999999096331MD1999999+0011REMSYN070AAXX  27184 82784 32698 73603 10285 20222 39633 40097 85420 333 58001;EQDQ01  00002PRCP99
0201827840999992000022800004-07320-039300FM-12+040999999V0200501N000510075019N0020001N1+02281+02251101231ADDAA106015091AY191061AY261061GF107991071021008001001001KA1240M+03091MA1999999096571MD1999999-0211MW1021REMSYN088AAXX  28004 82784 21595 70501 10228 20225 39657 40123 70296 87200 333 10309 59021 60151;
0201827840999992000022812004-07320-039300FM-12+040999999V0200501N001510120019N0100001N1+02551+02151101361ADDAA124018091AY161061AY251061GF107991051081008001051001KA1240N+02251MA1999999096681MD1999999-0041MW1011REMSYN088AAXX  28124 82784 21597 70503 10255 20215 39668 40136 70165 85850 333 20225 59004 60184;
0167827840999992000022818004-07320-039300FM-12+040999999V0200901N002612200019N0200001N1+03001+02141100961ADDAA199000091GF104991021021008001021001MA1999999096331MD1999999+0001REMSYN070AAXX  28184 82784 32598 40905 10300 20214 39633 40096 82220 333 58000;EQDQ01  00002PRCP99
0196827840999992000022900004-07320-039300FM-12+040999999V0202301N001012200019N0020001N1+02381+02071101261ADDAA199000091GA1001+999999999GF100991001001999999001001KA1240M+03051MA1999999096591MD1999999+0021REMSYN070AAXX  29004 82784 32995 02302 10238 20207 39659 40126 333 10305 58002;EQDQ01  00002PRCP99
0201827840999992000022912004-07320-039300FM-12+040999999V0203201N000510075019N0040001N1+02411+02171101511ADDAA124003091AY191061AY261061GF108991081071008001999999KA1240N+02161MA1999999096831MD1999999+0151MW1021REMSYN088AAXX  29124 82784 21596 83201 10241 20217 39683 40151 70296 887// 333 20216 58015 60034;
0167827840999992000022918004-07320-039300FM-12+040999999V0200901N002110450019N0200001N1+02841+02121101141ADDAA199000091GF107991041081008001071001MA1999999096481MD1999999+0151REMSYN070AAXX  29184 82784 32598 70904 10284 20212 39648 40114 84870 333 58015;EQDQ01  00002PRCP99
0196827840999992000030100004-07320-039300FM-12+040999999V0202701N001012200019N0020001N1+02381+02241101421ADDAA199000091GA1001+999999999GF100991001001999999001001KA1240M+03021MA1999999096741MD1999999+0151REMSYN070AAXX  01004 82784 32995 02702 10238 20224 39674 40142 333 10302 58015;EQDQ01  00002PRCP99
0201827840999992000030112004-07320-039300FM-12+040999999V0201801N001010075019N0100001N1+02411+02171101551ADDAA124000191AY111061AY211061GF107991051061008001041001KA1240N+02191MA1999999096861MD1999999+0031MW1201REMSYN088AAXX  01124 82784 21597 71802 10241 20217 39686 40155 72011 85640 333 20219 58003 69914;
0148827840999992000030118004-07320-039300FM-12+040999999V0200901N001510450019N0200001N1+02951+02111101131ADDAA199000021GF107991041021008001031001MA1999999096481MD1999999+0001REMSYN070AAXX  01184 82784 32598 70903 10295 20211 39648 40113 84230 333 58000;
0177827840999992000030200004-07320-039300FM-12+040999999V0209999C000012200019N0020001N1+02391+02131101381ADDAA199000021GA1001+999999999GF100991001001999999001001KA1240M+03081MA1999999096701MD1999999-0041REMSYN070AAXX  02004 82784 32995 00000 10239 20213 39670 40138 333 10308 59004;
0186827840999992000030212004-07320-039300FM-12+040999999V0202701N000510120019N0200001N1+02471+02071101471ADDAA199000091GF108991081081008001999999KA1240N+02181MA1999999096791MD1999999-0071REMSYN076AAXX  02124 82784 32598 82701 10247 20207 39679 40147 888// 333 20218 59007;EQDQ01  00002PRCP99
0167827840999992000030218004-07320-039300FM-12+040999999V0200501N001010120019N0200001N1+02881+02161101011ADDAA199000091GF108991061081008001011001MA1999999096361MD1999999-0121REMSYN070AAXX  02184 82784 32598 80502 10288 20216 39636 40101 86810 333 59012;EQDQ01  00002PRCP99
0211827840999992000030300004-07320-039300FM-12+040999999V0209999C000012200019N0020001N1+02281+02201101261ADDAA106004191AY191061AY261061GA1001+999999999GF100991001001999999001001KA1240M+02991MA1999999096591MD1999999-0111MW1011REMSYN082AAXX  03004 82784 21995 00000 10228 20220 39659 40126 70196 333 10299 59011 60041;
0201827840999992000030312004-07320-039300FM-12+040999999V0203601N001510075019N0040001N1+02351+02131101411ADDAA124004191AY151061AY211061GF108991081071008001999999KA1240N+02151MA1999999096731MD1999999-0061MW1021REMSYN088AAXX  03124 82784 21596 83603 10235 20213 39673 40141 70251 887// 333 20215 59006 60044;
0167827840999992000030318004-07320-039300FM-12+040999999V0203201N002110120019N0200001N1+02741+02211101031ADDAA199000091GF108991051081008001021999MA1999999096371MD1999999+0011REMSYN070AAXX  03184 82784 32598 83204 10274 20221 39637 40103 8582/ 333 58001;EQDQ01  00002PRCP99
0196827840999992000030400004-07320-039300FM-12+040999999V0201401N001012200019N0020001N1+02421+02251101261ADDAA199000091GA1001+999999999GF100991001001999999001001KA1240M+02891MA1999999096591MD1999999+0001REMSYN070AAXX  04004 82784 32995 01402 10242 20225 39659 40126 333 10289 58000;EQDQ01  00002PRCP99
0201827840999992000030412004-07320-039300FM-12+040999999V0203601N001010120019N0200001N1+02551+02131101481ADDAA124004191AY161061AY211061GF107991071081008001001001KA1240N+02111MA1999999096811MD1999999+0081MW1021REMSYN088AAXX  04124 82784 21598 73602 10255 20213 39681 40148 70261 87800 333 20211 58008 60044;
0167827840999992000030418004-07320-039300FM-12+040999999V0200501N001010450019N0200001N1+02781+02181101151ADDAA199000091GF106991041021008001071001MA1999999096491MD1999999+0121REMSYN070AAXX  04184 82784 32598 60502 10278 20218 39649 40115 84270 333 58012;EQDQ01  00002PRCP99
0196827840999992000030500004-07320-039300FM-12+040999999V0209999C000012200019N0020001N1+02361+02221101291ADDAA199000091GA1001+999999999GF100991001001999999001001KA1240M+02991MA1999999096621MD1999999+0031REMSYN070AAXX  05004 82784 32995 00000 10236 20222 39662 40129 333 10299 58003;EQDQ01  00002PRCP99
0201827840999992000030512004-07320-039300FM-12+040999999V0200501N002110120019N0200001N1+02661+02141101431ADDAA124001091AY161061AY211061GF108991061081008001071091KA1240N+02231MA1999999096761MD1999999-0051MW1031REMSYN088AAXX  05124 82784 21598 80504 10266 20214 39676 40143 70361 86879 333 20223 59005 69994;
0183827840999992000030518004-07320-039300FM-12+040999999V0201401N002110120019N0200001N1+03001+02081101001ADDAA199000091GF108991999021012501001001MA1999999096361MD1999999-0131REMSYN070AAXX  05184 82784 32698 81404 10300 20208 39636 40100 86200 333 59013;EQDQ01+000062SCOTLCQ02  00002PRCP99
0196827840999992000030600004-07320-039300FM-12+040999999V0201801N000512200019N0020001N1+02421+02011101251ADDAA199000091GA1001+999999999GF100991001001999999001001KA1240M+03071MA1999999096591MD1999999-0031REMSYN070AAXX  06004 82784 32995 01801 10242 20201 39659 40125 333 10307 59003;EQDQ01  00002PRCP99
0186827840999992000030612004-07320-039300FM-12+040999999V0200501N001010450019N0200001N1+02531+01931101491ADDAA199000091GF108991021011008001021999KA1240N+02321MA1999999096821MD1999999+0061REMSYN076AAXX  06124 82784 32598 80502 10253 20193 39682 40149 8212/ 333 20232 58006;EQDQ01  00002PRCP99
0167827840999992000030618004-07320-039300FM-12+040999999V0200901N001510450019N0200001N1+02941+01911101041ADDAA199000091GF106991021021008001021001MA1999999096401MD1999999+0041REMSYN070AAXX  06184 82784 32598 60903 10294 20191 39640 40104 82220 333 58004;EQDQ01  00002PRCP99
0196827840999992000030700004-07320-039300FM-12+040999999V0202301N000512200019N0020001N1+02321+02091101221ADDAA199000091GA1001+999999999GF100991001001999999001001KA1240M+03011MA1999999096551MD1999999-0041REMSYN070AAXX  07004 82784 32995 02301 10232 20209 39655 40122 333 10301 59004;EQDQ01  00002PRCP99
0186827840999992000030712004-07320-039300FM-12+040999999V0200901N001510120019N0200001N1+02581+02121101351ADDAA199000091GF107991071081008001001001KA1240N+02191MA1999999096681MD1999999-0141REMSYN076AAXX  07124 82784 32598 70903 10258 20212 39668 40135 87800 333 20219 59014;EQDQ01  00002PRCP99
0167827840999992000030718004-07320-039300FM-12+040999999V0200901N001510120019N0200001N1+02661+01901101011ADDAA199000091GF108991081081008001999999MA1999999096361MD1999999-0041REMSYN070AAXX  07184 82784 32598 80903 10266 20190 39636 40101 888// 333 59004;EQDQ01  00002PRCP99
0186827840999992000030800004-07320-039300FM-12+040999999V0202301N000510120019N0020001N1+02401+02211101151ADDAA199000091GF108991081081008001999999KA1240M+03031MA1999999096491MD1999999-0061REMSYN076AAXX  08004 82784 32595 82301 10240 20221 39649 40115 888// 333 10303 59006;EQDQ01  00002PRCP99
0201827840999992000030812004-07320-039300FM-12+040999999V0200501N002110075019N0200001N1+02671+02091101331ADDAA124000591AY151061AY221061GF107991071021008001001001KA1240N+02301MA1999999096671MD1999999-0011MW1011REMSYN088AAXX  08124 82784 21598 70504 10267 20209 39667 40133 70152 87200 333 20230 59001 69964;
0167827840999992000030818004-07320-039300FM-12+040999999V0200501N002112200019N0200001N1+03021+01961100851ADDAA199000091GF103991031021008001001001MA1999999096221MD1999999-0141REMSYN070AAXX  08184 82784 32598 30504 10302 20196 39622 40085 83200 333 59014;EQDQ01  00002PRCP99
0196827840999992000030900004-07320-039300FM-12+040999999V0209999C000012200019N0020001N1+02361+02051101241ADDAA199000091GA1001+999999999GF100991001001999999001001KA1240M+03091MA1999999096581MD1999999+0091REMSYN070AAXX  09004 82784 32995 00000 10236 20205 39658 40124 333 10309 58009;EQDQ01  00002PRCP99
0186827840999992000030912004-07320-039300FM-12+040999999V0200901N001010120019N0200001N1+02621+02161101411ADDAA199000091GF108991071081008001011999KA1240N+02231MA1999999096741MD1999999+0071REMSYN076AAXX  09124 82784 32598 80902 10262 20216 39674 40141 8781/ 333 20223 58007;EQDQ01  00002PRCP99
0182827840999992000030918004-07320-039300FM-12+040999999V0200501N001510120019N0100001N1+02791+02181100971ADDAA106001091AY161061AY221061GF106991061081008001001001MA1999999096331MD1999999+0111MW1151REMSYN082AAXX  09184 82784 21597 60503 10279 20218 39633 40097 71562 86800 333 58011 60011;
0201827840999992000031000004-07320-039300FM-12+040999999V0200501N000510075019N0020001N1+02251+02101101321ADDAA106000591AY191061AY251061GF108991081051008001999999KA1240M+03011MA1999999096651MD1999999+0071MW1021REMSYN088AAXX  10004 82784 21595 80501 10225 20210 39665 40132 70295 885// 333 10301 58007 69941;
0201827840999992000031012004-07320-039300FM-12+040999999V0200901N001510120019N0200001N1+02721+02191101381ADDAA124003091AY161061AY221061GF107991071081008001001001KA1240N+02201MA1999999096711MD1999999-0031MW1021REMSYN088AAXX  10124 82784 21598 70903 10272 20219 39671 40138 70262 87800 333 20220 59003 60034;
0182827840999992000031018004-07320-039300FM-12+040999999V0200501N002610120019N0200001N1+02861+02211101051ADDAA106007191AY161061AY221061GF108991061081008001011999MA1999999096401MD1999999+0071MW1021REMSYN082AAXX  10184 82784 21598 80505 10286 20221 39640 40105 70262 8681/ 333 58007 60071;
0196827840999992000031100004-07320-039300FM-12+040999999V0209999C000012200019N0020001N1+02421+02251101351ADDAA199000091GA1001+999999999GF100991001001999999001001KA1240M+02931MA1999999096691MD1999999+0041REMSYN070AAXX  11004 82784 32995 00000 10242 20225 39669 40135 333 10293 58004;EQDQ01  00002PRCP99
0173827840999992000031112004-07320-039300FM-12+040999999V0200501N002112200019N0200001N1+02641+02051101391ADDAA124007191GF104991041021008001001001KA1240N+02271MA1999999096721MD1999999+0011REMSYN082AAXX  11124 82784 22598 40504 10264 20205 39672 40139 84200 333 20227 58001 60074;
0167827840999992000031118004-07320-039300FM-12+040999999V0200501N002112200019N0200001N1+02941+01941100971ADDAA199000091GF103991031021008001001001MA1999999096331MD1999999-0071REMSYN070AAXX  11184 82784 32598 30504 10294 20194 39633 40097 83200 333 59007;EQDQ01  00002PRCP99
0196827840999992000031200004-07320-039300FM-12+040999999V0201801N001012200019N0020001N1+02341+02071101141ADDAA199000091GA1001+999999999GF100991001001999999001001KA1240M+03031MA1999999096481MD1999999-0211REMSYN070AAXX  12004 82784 32995 01802 10234 20207 39648 40114 333 10303 59021;EQDQ01  00002PRCP99
0186827840999992000031212004-07320-039300FM-12+040999999V0200501N001510120019N0200001N1+02621+02211101291ADDAA199000091GF108991081081008001999999KA1240N+02161MA1999999096631MD1999999-0091REMSYN076AAXX  12124 82784 32598 80503 10262 20221 39663 40129 888// 333 20216 59009;EQDQ01  00002PRCP99
0167827840999992000031218004-07320-039300FM-12+040999999V0203601N002110450019N0200001N1+02901+02071100811ADDAA199000091GF107991031041012501071001MA1999999096171MD1999999-0161REMSYN070AAXX  12184 82784 32698 73604 10290 20207 39617 40081 83470 333 59016;EQDQ01  00002PRCP99
0196827840999992000031300004-07320-039300FM-12+040999999V0201401N004112200019N0020001N1+02241+01981101081ADDAA199000091GA1001+999999999GF100991001001999999001001KA1240M+03071MA1999999096421MD1999999-0061REMSYN070AAXX  13004 82784 32995 01408 10224 20198 39642 40108 333 10307 59006;EQDQ01  00002PRCP99
0186827840999992000031312004-07320-039300FM-12+040999999V0203601N001010120019N0200001N1+02561+02081101261ADDAA199000091GF108991081081008001999999KA1240N+02111MA1999999096591MD1999999-0041REMSYN076AAXX  13124 82784 32598 83602 10256 20208 39659 40126 888// 333 20211 59004;EQDQ01  00002PRCP99
0167827840999992000031318004-07320-039300FM-12+040999999V0203601N001512200019N0200001N1+03011+02031100791ADDAA199000091GF102991021021008001001001MA1999999096151MD1999999-0011REMSYN070AAXX  13184 82784 32598 23603 10301 20203 39615 40079 82200 333 59001;EQDQ01  00002PRCP99
0196827840999992000031400004-07320-039300FM-12+040999999V0201401N001012200019N0020001N1+02371+02151101161ADDAA199000091GA1001+999999999GF100991001001999999001001KA1240M+03051MA1999999096501MD1999999+0081REMSYN070AAXX  14004 82784 32595 01402 10237 20215 39650 40116 333 10305 58008;EQDQ01  00002PRCP99
0167827840999992000031418004-07320-039300FM-12+040999999V0200501N002610120019N0200001N1+02921+02091100931ADDAA199000091GF108991051021012501011999MA1999999096291MD1999999-0141REMSYN070AAXX  14184 82784 32698 80505 10292 20209 39629 40093 8521/ 333 59014;EQDQ01  00002PRCP99
0186827840999992000031500004-07320-039300FM-12+040999999V0200501N000510075019N0020001N1+02421+02251101191ADDAA199000091GF108991081061008001999999KA1240M+03011MA1999999096531MD1999999+0031REMSYN076AAXX  15004 82784 32595 80501 10242 20225 39653 40119 886// 333 10301 58003;EQDQ01  00002PRCP99
0182827840999992000031518004-07320-039300FM-12+040999999V0202301N002110450019N0200001N1+02661+02311101001ADDAA106009991AY161061AY221061GF108991031021008001071061MA1999999096341MD1999999+0051MW1211REMSYN082AAXX  15184 82784 21598 82304 10266 20231 39634 40100 72162 83276 333 58005 60101;
0177827840999992000031600004-07320-039300FM-12+040999999V0209999C000012200019N0020001N1+02381+02281101221ADDAA199000021GA1001+999999999GF100991001001999999001001KA1240M+02961MA1999999096551MD1999999+0021REMSYN070AAXX  16004 82784 32995 00000 10238 20228 39655 40122 333 10296 58002;
0201827840999992000031612004-07320-039300FM-12+040999999V0203601N001010120019N0200001N1+02501+02071101361ADDAA124009991AY151061AY221061GF108991051081008001031999KA1240N+02281MA1999999096691MD1999999+0051MW1021REMSYN088AAXX  16124 82784 21598 83602 10250 20207 39669 40136 70252 8583/ 333 20228 58005 60104;
0167827840999992000031618004-07320-039300FM-12+040999999V0201801N001010120019N0200001N1+02981+01981100901ADDAA199000091GF106991061021012501001001MA1999999096271MD1999999-0071REMSYN070AAXX  16184 82784 32698 61802 10298 20198 39627 40090 86200 333 59007;EQDQ01  00002PRCP99
0196827840999992000031700004-07320-039300FM-12+040999999V0201401N000512200019N0020001N1+02361+02171101131ADDAA199000091GA1001+999999999GF100991001001999999001001KA1240M+03091MA1999999096471MD1999999-0081REMSYN070AAXX  17004 82784 32995 01401 10236 20217 39647 40113 333 10309 59008;EQDQ01  00002PRCP99
0201827840999992000031712004-07320-039300FM-12+040999999V0200501N001010120019N0200001N1+02481+02091101391ADDAA124005191AY161061AY221061GF108991081081008001999999KA1240N+02201MA1999999096711MD1999999+0021MW1021REMSYN088AAXX  17124 82784 21598 80502 10248 20209 39671 40139 70262 888// 333 20220 58002 60054;
0167827840999992000031718004-07320-039300FM-12+040999999V0202301N001010120019N0200001N1+02881+01911100841ADDAA199000091GF106991051021012501071001MA1999999096201MD1999999-0071REMSYN070AAXX  17184 82784 32698 62302 10288 20191 39620 40084 85270 333 59007;EQDQ01  00002PRCP99
0196827840999992000031800004-07320-039300FM-12+040999999V0201801N000512200019N0020001N1+02301+02111101061ADDAA199000091GA1001+999999999GF100991001001999999001001KA1240M+03091MA1999999096401MD1999999-0071REMSYN070AAXX  18004 82784 32995 01801 10230 20211 39640 40106 333 10309 59007;EQDQ01  00002PRCP99
0186827840999992000031812004-07320-039300FM-12+040999999V0200501N001510075019N0200001N1+02581+02061101071ADDAA199000091GF106991051021008001061001KA1240N+02031MA1999999096601MD1999999-0111REMSYN076AAXX  18124 82784 32598 60503 10258 20206 39660 40107 85260 333 20203 59011;EQDQ01  00002PRCP99
0167827840999992000031818004-07320-039300FM-12+040999999V0200501N002610450019N0200001N1+02741+02051100881ADDAA199000091GF107991041081008001061001MA1999999096221MD1999999+0021REMSYN070AAXX  18184 82784 32598 70505 10274 20205 39622 40088 84860 333 58002;EQDQ01  00002PRCP99
0186827840999992000031900004-07320-039300FM-12+040999999V0209999C000012200019N0020001N1+02281+02111101011ADDAA199000091GF101991011081008001001001KA1240M+02861MA1999999096351MD1999999-0051REMSYN076AAXX  19004 82784 32595 10000 10228 20211 39635 40101 81800 333 10286 59005;EQDQ01  00002PRCP99
0186827840999992000031912004-07320-039300FM-12+040999999V0200501N001010075019N0100001N1+02401+02091101251ADDAA199000091GF108991081051008001999999KA1240N+01981MA1999999096571MD1999999-0031REMSYN076AAXX  19124 82784 32597 80502 10240 20209 39657 40125 885// 333 20198 59003;EQDQ01  00002PRCP99
0183827840999992000031918004-07320-039300FM-12+040999999V0200901N002110120019N0200001N1+02841+02121100851ADDAA199000091GF106991999021012501001001MA1999999096191MD1999999-0031REMSYN070AAXX  19184 82784 32698 60904 10284 20212 39619 40085 85200 333 59003;EQDQ01+000052SCOTLCQ02  00002PRCP99
0196827840999992000032000004-07320-039300FM-12+040999999V0202701N001012200019N0020001N1+02261+02071101121ADDAA199000091GA1001+999999999GF100991001001999999001001KA1240M+03001MA1999999096461MD1999999+0111REMSYN070AAXX  20004 82784 32995 02702 10226 20207 39646 40112 333 10300 58011;EQDQ01  00002PRCP99
0201827840999992000032012004-07320-039300FM-12+040999999V0201401N001510075019N0200001N1+02671+02141101301ADDAA124003091AY191061AY261061GF106991061021008001001001KA1240N+02061MA1999999096631MD1999999+0061MW1011REMSYN088AAXX  20124 82784 21598 61403 10267 20214 39663 40130 70196 86200 333 20206 58006 60034;
0167827840999992000032018004-07320-039300FM-12+040999999V0203601N002612200019N0200001N1+03101+02181100801ADDAA199000091GF103991031021008001001001MA1999999096171MD1999999-0021REMSYN070AAXX  20184 82784 32598 33605 10310 20218 39617 40080 83200 333 59002;EQDQ01  00002PRCP99
0186827840999992000032100004-07320-039300FM-12+040999999V0202701N001010075019N0020001N1+02421+02171101091ADDAA199000091GF108991081071008001999999KA1240M+03171MA1999999096441MD1999999-0021REMSYN076AAXX  21004 82784 32595 82702 10242 20217 39644 40109 887// 333 10317 59002;EQDQ01  00002PRCP99
0186827840999992000032112004-07320-039300FM-12+040999999V0200501N002112200019N0200001N1+02731+02001101261ADDAA199000091GF103991011011008001071001KA1240N+02231MA1999999096611MD1999999-0021REMSYN076AAXX  21124 82784 32598 30504 10273 20200 39661 40126 81170 333 20223 59002;EQDQ01  00002PRCP99
0167827840999992000032118004-07320-039300FM-12+040999999V0201401N002610120019N0200001N1+03051+02001100761ADDAA199000091GF106991061021012501001001MA1999999096141MD1999999-0031REMSYN070AAXX  21184 82784 32698 61405 10305 20200 39614 40076 86200 333 59003;EQDQ01  00002PRCP99
0186827840999992000032200004-07320-039300FM-12+040999999V0201401N000512200019N0020001N1+02341+01951101061ADDAA199000091GF103991031021008001001001KA1240M+03091MA1999999096411MD1999999-0031REMSYN076AAXX  22004 82784 32595 31401 10234 20195 39641 40106 83200 333 10309 59003;EQDQ01  00002PRCP99
0186827840999992000032212004-07320-039300FM-12+040999999V0200901N001010075019N0200001N1+02661+02091101321ADDAA199000091GF105991051021008001001001KA1240N+02101MA1999999096651MD1999999+0041REMSYN076AAXX  22124 82784 32598 50902 10266 20209 39665 40132 85200 333 20210 58004;EQDQ01  00002PRCP99
0167827840999992000032218004-07320-039300FM-12+040999999V0200501N001512200019N0200001N1+03061+01771100841ADDAA199000091GF102991021021008001001001MA1999999096211MD1999999+0071REMSYN070AAXX  22184 82784 32598 20503 10306 20177 39621 40084 82200 333 58007;EQDQ01  00002PRCP99
0196827840999992000032300004-07320-039300FM-12+040999999V0202301N000512200019N0020001N1+02191+01841101061ADDAA199000091GA1001+999999999GF100991001001999999001001KA1240M+03131MA1999999096401MD1999999-0011REMSYN070AAXX  23004 82784 32995 02301 10219 20184 39640 40106 333 10313 59001;EQDQ01  00002PRCP99
0186827840999992000032312004-07320-039300FM-12+040999999V0200901N003110075019N0200001N1+02691+02061101231ADDAA199000091GF106991061021008001001001KA1240N+02001MA1999999096561MD1999999-0091REMSYN076AAXX  23124 82784 32598 60906 10269 20206 39656 40123 86200 333 20200 59009;EQDQ01  00002PRCP99
0167827840999992000032318004-07320-039300FM-12+040999999V0200901N001010075019N0200001N1+03041+01971100911ADDAA199000091GF107991051021008001061001MA1999999096271MD1999999+0061REMSYN070AAXX  23184 82784 32598 70902 10304 20197 39627 40091 85260 333 58006;EQDQ01  00002PRCP99
0196827840999992000032400004-07320-039300FM-12+040999999V0201401N001012200019N0020001N1+02281+02051101111ADDAA199000091GA1001+999999999GF100991001001999999001001KA1240M+03131MA1999999096451MD1999999+0051REMSYN070AAXX  24004 82784 32995 01402 10228 20205 39645 40111 333 10313 58005;EQDQ01  00002PRCP99
0186827840999992000032412004-07320-039300FM-12+040999999V0200501N002110450019N0200001N1+02621+02121101351ADDAA199000091GF106991031021008001071001KA1240N+02241MA1999999096681MD1999999+0121REMSYN076AAXX  24124 82784 32598 60504 10262 20212 39668 40135 83270 333 20224 58012;EQDQ01  00002PRCP99
0167827840999992000032418004-07320-039300FM-12+040999999V0201401N003110075019N0200001N1+03061+02081100901ADDAA199000091GF106991061021008001001001MA1999999096281MD1999999+0011REMSYN070AAXX  24184 82784 32598 61406 10306 20208 39628 40090 86200 333 58001;EQDQ01  00002PRCP99
0196827840999992000032500004-07320-039300FM-12+040999999V0200901N001512200019N0020001N1+02601+01991101171ADDAA199000091GA1001+999999999GF100991001001999999001001KA1240M+03651MA1999999096521MD1999999+0071REMSYN070AAXX  25004 82784 32995 00903 10260 20199 39652 40117 333 10365 58007;EQDQ01  00002PRCP99
0186827840999992000032512004-07320-039300FM-12+040999999V0201401N003110450019N0200001N1+02681+01941101311ADDAA199000091GF107991041021008001071001KA1240N+02401MA1999999096661MD1999999-0021REMSYN076AAXX  25124 82784 32598 71406 10268 20194 39666 40131 84270 333 20240 59002;EQDQ01  00002PRCP99
0167827840999992000032518004-07320-039300FM-12+040999999V0201401N000510075019N0200001N1+02821+02051100961ADDAA199000091GF108991081051008001999999MA1999999096331MD1999999+0051REMSYN070AAXX  25184 82784 32598 81401 10282 20205 39633 40096 885// 333 58005;EQDQ01  00002PRCP99
0196827840999992000032600004-07320-039300FM-12+040999999V0201801N001012200019N0020001N1+02251+02031101091ADDAA199000091GA1001+999999999GF100991001001999999001001KA1240M+02911MA1999999096431MD1999999-0091REMSYN070AAXX  26004 82784 32995 01802 10225 20203 39643 40109 333 10291 59009;EQDQ01  00002PRCP99
0201827840999992000032612004-07320-039300FM-12+040999999V0202701N001010075019N0200001N1+02441+02191101261ADDAA124002091AY161061AY211061GF108991081051008001999999KA1240N+02091MA1999999096581MD1999999-0081MW1021REMSYN088AAXX  26124 82784 21598 82702 10244 20219 39658 40126 70261 885// 333 20209 59008 60024;
0183827840999992000032618004-07320-039300FM-12+040999999V0200601N001512200019N0200001N1+02921+02141100721ADDAA199000091GF103991999021012501001001MA1999999096091MD1999999-0021REMSYN070AAXX  26184 82784 32698 30603 10292 20214 39609 40072 84200 333 59002;EQDQ01+000042SCOTLCQ02  00002PRCP99
0167827840999992000032718004-07320-039300FM-12+040999999V0200501N002612200019N0200001N1+03041+02001100731ADDAA199000091GF103991021021008001071001MA1999999096101MD1999999+0011REMSYN070AAXX  27184 82784 32598 30505 10304 20200 39610 40073 82270 333 58001;EQDQ01  00002PRCP99
0196827840999992000032800004-07320-039300FM-12+040999999V0200901N000512200019N0020001N1+02361+02051101071ADDAA199000091GA1001+999999999GF100991001001999999001001KA1240M+03171MA1999999096421MD1999999-0021REMSYN070AAXX  28004 82784 32595 00901 10236 20205 39642 40107 333 10317 59002;EQDQ01  00002PRCP99
0201827840999992000032812004-07320-039300FM-12+040999999V0200901N002112200019N0200001N1+02681+02161101281ADDAA124022191AY161061AY211061GF104991031021008001061001KA1240N+02211MA1999999096621MD1999999+0081MW1011REMSYN088AAXX  28124 82784 21598 40904 10268 20216 39662 40128 70161 83260 333 20221 58008 60224;
0167827840999992000032818004-07320-039300FM-12+040999999V0201401N003110450019N0200001N1+03061+02021100751ADDAA199000091GF106991021021008001071001MA1999999096131MD1999999+0031REMSYN070AAXX  28184 82784 32598 61406 10306 20202 39613 40075 82270 333 58003;EQDQ01  00002PRCP99
0196827840999992000032900004-07320-039300FM-12+040999999V0201801N001012200019N0020001N1+02461+02031101091ADDAA199000091GA1001+999999999GF100991001001999999001001KA1240M+03131MA1999999096441MD1999999+0021REMSYN070AAXX  29004 82784 32995 01802 10246 20203 39644 40109 333 10313 58002;EQDQ01  00002PRCP99
0167827840999992000032918004-07320-039300FM-12+040999999V0200501N002110450019N0200001N1+03001+01941100841ADDAA199000091GF106991031021008001071001MA1999999096211MD1999999+0081REMSYN070AAXX  29184 82784 32598 60504 10300 20194 39621 40084 83270 333 58008;EQDQ01  00002PRCP99
0186827840999992000033000004-07320-039300FM-12+040999999V0201401N001010075019N0020001N1+02501+02131101141ADDAA199000091GF107991071021008001001001KA1240M+03091MA1999999096491MD1999999+0051REMSYN076AAXX  30004 82784 32595 71402 10250 20213 39649 40114 87200 333 10309 58005;EQDQ01  00002PRCP99
0201827840999992000033012004-07320-039300FM-12+040999999V0203201N000510075019N0040001N1+02311+02161101351ADDAA124003091AY161061AY251061GF108991081071008001999999KA1240N+02201MA1999999096671MD1999999+0031MW1021REMSYN088AAXX  30124 82784 21596 83201 10231 20216 39667 40135 70265 887// 333 20220 58003 60034;
0167827840999992000033018004-07320-039300FM-12+040999999V0203201N000510120019N0200001N1+02711+02171100931ADDAA199000091GF108991081081008001999999MA1999999096281MD1999999+0071REMSYN070AAXX  30184 82784 32598 83201 10271 20217 39628 40093 888// 333 58007;EQDQ01  00002PRCP99
0186827840999992000033100004-07320-039300FM-12+040999999V0209999C000010075019N0020001N1+02441+02341101261ADDAA199000091GF108991081071008001999999KA1240M+02771MA1999999096591MD1999999-0101REMSYN076AAXX  31004 82784 32595 80000 10244 20234 39659 40126 887// 333 10277 59010;EQDQ01  00002PRCP99
0201827840999992000033112004-07320-039300FM-12+040999999V0200501N002610450019N0200001N1+02581+02101101391ADDAA124005191AY161061AY221061GF105991031021008001071001KA1240N+02021MA1999999096721MD1999999+0051MW1021REMSYN088AAXX  31124 82784 21598 50505 10258 20210 39672 40139 70262 83270 333 20202 58005 60054;
0167827840999992000033118004-07320-039300FM-12+040999999V0200501N001512200019N0200001N1+02961+02021100911ADDAA199000091GF104991041021008001001001MA1999999096271MD1999999-0011REMSYN070AAXX  31184 82784 32598 40503 10296 20202 39627 40091 84200 333 59001;EQDQ01  00002PRCP99
0201827840999992000040100004-07320-039300FM-12+040999999V0202301N001510042019N0002001N1+02081+02031101411ADDAA106029091AY191061AY261061GF108991081051004501999999KA1240M+03011MA1999999096731MD1999999+0141MW1951REMSYN088AAXX  01004 82784 21492 82303 10208 20203 39673 40141 79596 885// 333 10301 58014 60291;
0201827840999992000040112004-07320-039300FM-12+040999999V0200901N002612200019N0200001N1+02711+02061101441ADDAA124030091AY161061AY211061GF103991031021008001001001KA1240N+02041MA1999999096761MD1999999+0041MW1011REMSYN088AAXX  01124 82784 21598 30905 10271 20206 39676 40144 70161 83200 333 20204 58004 60304;
0167827840999992000040118004-07320-039300FM-12+040999999V0200501N001010450019N0200001N1+02901+02201100931ADDAA199000091GF105991031021008001061001MA1999999096281MD1999999+0011REMSYN070AAXX  01184 82784 32598 50502 10290 20220 39628 40093 83260 333 58001;EQDQ01  00002PRCP99
0201827840999992000040200004-07320-039300FM-12+040999999V0202301N000510120019N0020001N1+02331+02221101281ADDAA106004191AY161061AY221061GF108991081081008001999999KA1240M+02951MA1999999096631MD1999999-0081MW1131REMSYN088AAXX  02004 82784 21595 82301 10233 20222 39663 40128 71362 888// 333 10295 59008 60041;
0201827840999992000040212004-07320-039300FM-12+040999999V0200901N001512200019N0200001N1+02481+02191101491ADDAA124023191AY161061AY211061GF103991031081008001001001KA1240N+02031MA1999999096811MD1999999+0051MW1031REMSYN088AAXX  02124 82784 21598 30903 10248 20219 39681 40149 70361 83800 333 20203 58005 60234;
0168827840999992000040218004-07320-039300FM-12+040999999V0200501N002110120019N0200001N1+03021+02021101001ADDAA199000091GF106991061021012501001001MD1999999+0071REMSYN070AAXX  02184 82784 32698 60504 10302 20202 39435 40100 86200 333 58007;EQDQ01+094353APOSP Q02  00002PRCP99
0201827840999992000040300004-07320-039300FM-12+040999999V0202701N000510075019N0020001N1+02201+02131101451ADDAA106002091AY191061AY261061GF106991061021008001001001KA1240M+03071MA1999999096671MD1999999+0041MW1201REMSYN088AAXX  03004 82784 21595 62701 10220 20213 39667 40145 72096 86200 333 10307 58004 60021;
0173827840999992000040312004-07320-039300FM-12+040999999V0201401N001010075019N0200001N1+02641+02031101471ADDAA124002091GF105991051021008001001001KA1240N+02161MA1999999096791MD1999999-0021REMSYN082AAXX  03124 82784 22598 51402 10264 20203 39679 40147 85200 333 20216 59002 60024;
0167827840999992000040318004-07320-039300FM-12+040999999V0200901N001512200019N0200001N1+03041+01971101071ADDAA199000091GF102991021011008001001001MA1999999096431MD1999999+0081REMSYN070AAXX  03184 82784 32598 20903 10304 20197 39643 40107 82100 333 58008;EQDQ01  00002PRCP99
0186827840999992000040400004-07320-039300FM-12+040999999V0202301N000510075019N0020001N1+02361+02131101351ADDAA199000091GF107991071021008001001001KA1240M+03111MA1999999096601MD1999999-0071REMSYN076AAXX  04004 82784 32595 72301 10236 20213 39660 40135 87200 333 10311 59007;EQDQ01  00002PRCP99
0186827840999992000040412004-07320-039300FM-12+040999999V0200901N003112200019N0200001N1+02701+01911101471ADDAA199000091GF102991011011008001011001KA1240N+02181MA1999999096801MD1999999+0011REMSYN076AAXX  04124 82784 32598 20906 10270 20191 39680 40147 81110 333 20218 58001;EQDQ01  00002PRCP99
0167827840999992000040418004-07320-039300FM-12+040999999V0201801N001012200019N0200001N1+03061+02141101021ADDAA199000091GF102991011021012501011001MA1999999096391MD1999999-0041REMSYN070AAXX  04184 82784 32698 21802 10306 20214 39639 40102 81210 333 59004;EQDQ01  00002PRCP99
0196827840999992000040500004-07320-039300FM-12+040999999V0209999C000012200019N0020001N1+02341+02111101321ADDAA199000091GA1001+999999999GF100991001001999999001001KA1240M+03111MA1999999096651MD1999999+0051REMSYN070AAXX  05004 82784 32995 00000 10234 20211 39665 40132 333 10311 58005;EQDQ01  00002PRCP99
0186827840999992000040512004-07320-039300FM-12+040999999V0200901N003112200019N0200001N1+02751+01921101521ADDAA199000091GF101991011011008001001001KA1240N+02241MA1999999096851MD1999999+0051REMSYN076AAXX  05124 82784 32598 10906 10275 20192 39685 40152 81100 333 20224 58005;EQDQ01  00002PRCP99
0167827840999992000040518004-07320-039300FM-12+040999999V0200901N002112200019N0200001N1+03071+02021101041ADDAA199000091GF102991011021008001011001MA1999999096411MD1999999+0021REMSYN070AAXX  05184 82784 32598 20904 10307 20202 39641 40104 81210 333 58002;EQDQ01  00002PRCP99
0186827840999992000040600004-07320-039300FM-12+040999999V0209999C000010075019N0020001N1+02441+02071101291ADDAA199000091GF107991071021008001001001KA1240M+03111MA1999999096641MD1999999-0011REMSYN076AAXX  06004 82784 32595 70000 10244 20207 39664 40129 87200 333 10311 59001;EQDQ01  00002PRCP99
0186827840999992000040612004-07320-039300FM-12+040999999V0201401N004110450019N0200001N1+02721+01951101451ADDAA199000091GF105991031021008001011001KA1240N+02231MA1999999096791MD1999999-0061REMSYN076AAXX  06124 82784 32598 51408 10272 20195 39679 40145 83210 333 20223 59006;EQDQ01  00002PRCP99
0167827840999992000040618004-07320-039300FM-12+040999999V0200501N001012200019N0200001N1+03081+02041100981ADDAA199000091GF103991031021012501001001MA1999999096581MD1999999-0071REMSYN070AAXX  06184 82784 32698 30502 10308 20204 39658 40098 83200 333 59007;EQDQ01  00002PRCP99
0201827840999992000040700004-07320-039300FM-12+040999999V0209999C000010120019N0020001N1+02361+02281101241ADDAA106004191AY161061AY211061GF108991081081008001999999KA1240M+03131MA1999999096581MD1999999-0061MW1031REMSYN088AAXX  07004 82784 21595 80000 10236 20228 39658 40124 70361 888// 333 10313 59006 60041;
0201827840999992000040712004-07320-039300FM-12+040999999V0201401N003112200019N0200001N1+02701+02031101291ADDAA124007191AY161061AY251061GF102991011021008001011001KA1240N+02241MA1999999096631MD1999999-0161MW1011REMSYN088AAXX  07124 82784 21598 21406 10270 20203 39663 40129 70165 81210 333 20224 59016 60074;
0167827840999992000040718004-07320-039300FM-12+040999999V0200501N002112200019N0200001N1+03041+01971100921ADDAA199000091GF102991011021008001071001MA1999999096291MD1999999-0051REMSYN070AAXX  07184 82784 32598 20504 10304 20197 39629 40092 81270 333 59005;EQDQ01  00002PRCP99
0180827840999992000040800004-07320-039300FM-12+040999999V0201801N001010120019N0020001N1+02351+99999101141ADDAA199000091GF108991081081008001999999KA1240M+03071MA1999999096491MD1999999-0091REMSYN070AAXX  08004 82784 32595 81802 10235 39649 40114 888// 333 10307 59009;EQDQ01  00002PRCP99
0186827840999992000040812004-07320-039300FM-12+040999999V0200901N002112200019N0200001N1+02761+02021101281ADDAA199000091GF101991011011008001001001KA1240N+02181MA1999999096621MD1999999-0011REMSYN076AAXX  08124 82784 32598 10904 10276 20202 39662 40128 81100 333 20218 59001;EQDQ01  00002PRCP99
0167827840999992000040818004-07320-039300FM-12+040999999V0201801N002112200019N0200001N1+03141+01871100841ADDAA199000091GF101991011011012501001001MA1999999096221MD1999999-0071REMSYN070AAXX  08184 82784 32698 11804 10314 20187 39622 40084 81100 333 59007;EQDQ01  00002PRCP99
0186827840999992000040900004-07320-039300FM-12+040999999V0201801N000510120019N0020001N1+02561+02111101211ADDAA199000091GF108991081081008001999999KA1240M+03221MA1999999096561MD1999999+0071REMSYN076AAXX  09004 82784 32595 81801 10256 20211 39656 40121 888// 333 10322 58007;EQDQ01  00002PRCP99
0186827840999992000040912004-07320-039300FM-12+040999999V0200901N002112200019N0020001N1+02781+02091101311ADDAA199000091GF102991021021008001001001KA1240N+02111MA1999999096661MD1999999+0041REMSYN076AAXX  09124 82784 32595 20904 10278 20209 39666 40131 82200 333 20211 58004;EQDQ01  00002PRCP99
0167827840999992000040918004-07320-039300FM-12+040999999V0200501N002110450019N0200001N1+03001+02031100831ADDAA199000091GF106991021021012501011001MA1999999096201MD1999999-0021REMSYN070AAXX  09184 82784 32698 60504 10300 20203 39620 40083 82210 333 59002;EQDQ01  00002PRCP99
0186827840999992000041000004-07320-039300FM-12+040999999V0201401N002110120019N0020001N1+02471+02211101211ADDAA199000091GF108991081081008001999999KA1240M+03051MA1999999096561MD1999999+0001REMSYN076AAXX  10004 82784 32595 81404 10247 20221 39656 40121 888// 333 10305 58000;EQDQ01  00002PRCP99
0201827840999992000041012004-07320-039300FM-12+040999999V0202301N000510075019N0040001N1+02361+02221101421ADDAA124030091AY191061AY261061GF108991081071008001999999KA1240N+02221MA1999999096741MD1999999+0081MW1021REMSYN088AAXX  10124 82784 21596 82301 10236 20222 39674 40142 70296 887// 333 20222 58008 60304;
0167827840999992000041018004-07320-039300FM-12+040999999V0200501N001510450019N0200001N1+02961+02071100891ADDAA199000091GF106991041021008001031081MA1999999096251MD1999999+0051REMSYN070AAXX  10184 82784 32598 60503 10296 20207 39625 40089 84238 333 58005;EQDQ01  00002PRCP99
0201827840999992000041100004-07320-039300FM-12+040999999V0202701N001010042019N0002001N1+02181+02131101371ADDAA106019191AY191061AY261061GF108991081071004501999999KA1240M+03071MA1999999096681MD1999999+0121MW1951REMSYN088AAXX  11004 82784 21492 82702 10218 20213 39668 40137 79596 887// 333 10307 58012 60191;
0201827840999992000041112004-07320-039300FM-12+040999999V0201401N002612200019N0200001N1+02711+01781101371ADDAA124022191AY161061AY211061GF102991011011008001011001KA1240N+02121MA1999999096701MD1999999-0041MW1011REMSYN088AAXX  11124 82784 21598 21405 10271 20178 39670 40137 70161 81110 333 20212 59004 60224;
0183827840999992000041118004-07320-039300FM-12+040999999V0200901N001512200019N0200001N1+02951+02031100981ADDAA199000091GF103991999021008001001001MA1999999096341MD1999999+0091REMSYN070AAXX  11184 82784 32598 30903 10295 20203 39634 40098 82200 333 58009;EQDQ01+000022SCOTLCQ02  00002PRCP99
0186827840999992000041200004-07320-039300FM-12+040999999V0201801N000512200019N0020001N1+02281+02091101141ADDAA199000091GF101991011011008001001001KA1240M+03001MA1999999096451MD1999999-0201REMSYN076AAXX  12004 82784 32595 11801 10228 20209 39645 40114 81100 333 10300 59020;EQDQ01  00002PRCP99
0201827840999992000041212004-07320-039300FM-12+040999999V0203601N001010075019N0040001N1+02371+02131101351ADDAA124001091AY151061AY211061GF108991081071008001999999KA1240N+02201MA1999999096671MD1999999-0031MW1021REMSYN088AAXX  12124 82784 21596 83602 10237 20213 39667 40135 70251 887// 333 20220 59003 60014;
0195827840999992000041218004-07320-039300FM-12+040999999V0202701N002110120019N0040001N1+03001+02321100801ADDAA199000091AY121061AY221061GF107991061081008001061001MA1999999096171MD1999999-0171MW1151REMSYN076AAXX  12184 82784 31596 72704 10300 20232 39617 40080 71522 86860 333 59017;EQDQ01  00002PRCP99
0201827840999992000041300004-07320-039300FM-12+040999999V0203201N001010075019N0020001N1+02441+02301101151ADDAA106004191AY161061AY221061GF108991081071008001999999KA1240M+03071MA1999999096481MD1999999+0001MW1131REMSYN088AAXX  13004 82784 21595 83202 10244 20230 39648 40115 71362 887// 333 10307 58000 60041;
0201827840999992000041312004-07320-039300FM-12+040999999V0200901N001510450019N0200001N1+02711+02221101261ADDAA124017091AY161061AY221061GF106991031021008001031021KA1240N+02101MA1999999096611MD1999999-0061MW1021REMSYN088AAXX  13124 82784 21598 60903 10271 20222 39661 40126 70262 83232 333 20210 59006 60174;
0195827840999992000041318004-07320-039300FM-12+040999999V0201801N003110120019N0010001N1+02781+02251100811ADDAA199000091AY121061AY221061GF108991081081008001999999MA1999999096161MD1999999-0011MW1171REMSYN076AAXX  13184 82784 31594 81806 10278 20225 39616 40081 71722 888// 333 59001;EQDQ01  00002PRCP99
0201827840999992000041400004-07320-039300FM-12+040999999V0201401N001010075019N0020001N1+02281+02231101221ADDAA106006191AY191061AY261061GF108991081071008001999999KA1240M+03071MA1999999096561MD1999999+0081MW1021REMSYN088AAXX  14004 82784 21595 81402 10228 20223 39656 40122 70296 887// 333 10307 58008 60061;
0167827840999992000041418004-07320-039300FM-12+040999999V0200901N002112200019N0200001N1+02921+01951101011ADDAA199000091GF103991021021008001011021MA1999999096361MD1999999+0201REMSYN070AAXX  14184 82784 32598 30904 10292 20195 39636 40101 82212 333 58020;EQDQ01  00002PRCP99
0196827840999992000041500004-07320-039300FM-12+040999999V0202301N001012200019N0020001N1+02141+01911101361ADDAA199000091GA1001+999999999GF100991001001999999001001KA1240M+02981MA1999999096681MD1999999+0121REMSYN070AAXX  15004 82784 32995 02302 10214 20191 39668 40136 333 10298 58012;EQDQ01  00002PRCP99
0186827840999992000041512004-07320-039300FM-12+040999999V0203601N002110120019N0200001N1+02671+02161101511ADDAA199000091GF107991051081008001071001KA1240N+02001MA1999999096831MD1999999+0071REMSYN076AAXX  15124 82784 32598 73604 10267 20216 39683 40151 85870 333 20200 58007;EQDQ01  00002PRCP99
0167827840999992000041518004-07320-039300FM-12+040999999V0201401N000510075019N0200001N1+03021+02131101041ADDAA199000091GF106991051021008001061001MA1999999096391MD1999999+0031REMSYN070AAXX  15184 82784 32598 61401 10302 20213 39639 40104 85260 333 58003;EQDQ01  00002PRCP99
0201827840999992000041612004-07320-039300FM-12+040999999V0203601N001510120019N0200001N1+02671+02111101491ADDAA124006191AY161061AY221061GF106991061081008001001001KA1240N+02161MA1999999096821MD1999999-0011MW1031REMSYN088AAXX  16124 82784 21598 63603 10267 20211 39682 40149 70362 86800 333 20216 59001 60064;
0182827840999992000041618004-07320-039300FM-12+040999999V0202301N001510120019N0200001N1+02581+02251100981ADDAA106001091AY161061AY221061GF107991061081008001071001MA1999999096321MD1999999-0071MW1031REMSYN082AAXX  16184 82784 21598 72303 10258 20225 39632 40098 70362 86870 333 59007 60011;
0201827840999992000041712004-07320-039300FM-12+040999999V0202701N001510075019N0040001N1+02321+02181101551ADDAA124063091AY161061AY221061GF108991081071008001999999KA1240N+02131MA1999999096851MD1999999+0031MW1211REMSYN088AAXX  17124 82784 21596 82703 10232 20218 39685 40155 72162 887// 333 20213 58003 60634;
0176827840999992000041718004-07320-039300FM-12+040999999V0202301N001010450019N0040001N1+02861+02161100951ADDAA199000021AY121061AY221061GF106991041081008001031021MA1999999096311MD1999999-0011MW1151REMSYN076AAXX  17184 82784 31596 62302 10286 20216 39631 40095 71522 84832 333 59001;
0201827840999992000041812004-07320-039300FM-12+040999999V0203601N001510120019N0040001N1+02561+02191101461ADDAA124029091AY161061AY221061GF108991081081008001999999KA1240N+02181MA1999999096781MD1999999-0071MW1021REMSYN088AAXX  18124 82784 21596 83603 10256 20219 39678 40146 70262 888// 333 20218 59007 60294;
0167827840999992000041818004-07320-039300FM-12+040999999V0200901N002110450019N0200001N1+02821+02051101041ADDAA199000091GF106991041021008001061001MA1999999096391MD1999999+0081REMSYN070AAXX  18184 82784 32598 60904 10282 20205 39639 40104 84260 333 58008;EQDQ01  00002PRCP99
0201827840999992000041900004-07320-039300FM-12+040999999V0202301N000512200019N0020001N1+02311+02201101361ADDAA106001091AY161061AY211061GF102991011041008001031001KA1240M+02881MA1999999096691MD1999999-0041MW1021REMSYN088AAXX  19004 82784 21595 22301 10231 20220 39669 40136 70261 81430 333 10288 59004 60011;
0201827840999992000041912004-07320-039300FM-12+040999999V0200901N000510075019N0010001N1+02281+02201101581ADDAA124014091AY161061AY211061GF108991081071008001999999KA1240N+02021MA1999999096881MD1999999+0101MW1611REMSYN088AAXX  19124 82784 21594 80901 10228 20220 39688 40158 76161 887// 333 20202 58010 60144;
0182827840999992000041918004-07320-039300FM-12+040999999V0200901N001512200019N0200001N1+02961+02231101031ADDAA106002091AY161061AY211061GF104991041021008001001001MA1999999096381MD1999999-0011MW1021REMSYN082AAXX  19184 82784 21598 40903 10296 20223 39638 40103 70261 84200 333 59001 60021;
0167827840999992000042000004-07320-039300FM-12+040999999V0209999C000012200019N0020001N1+02341+02221101321ADDAA199000021GF101991011081008001001001KA1240M+03001MA1999999096641MD1999999-0051REMSYN076AAXX  20004 82784 32595 10000 10234 20222 39664 40132 81800 333 10300 59005;
0201827840999992000042012004-07320-039300FM-12+040999999V0203601N001510075019N0200001N1+02671+02201101401ADDAA124002091AY151061AY211061GF106991061021008001001001KA1240N+02241MA1999999096731MD1999999-0151MW1021REMSYN088AAXX  20124 82784 21598 63603 10267 20220 39673 40140 70251 86200 333 20224 59015 60024;
0183827840999992000042018004-07320-039300FM-12+040999999V0200501N002619999999N0200001N1+02921+02221100951ADDAA199000091GF105991999081008001001001MA1999999096311MD1999999-0071REMSYN070AAXX  20184 82784 32598 50505 10292 20222 39631 40095 84800 333 59007;EQDQ01+000042SCOTLCQ02  00002PRCP99
0201827840999992000042112004-07320-039300FM-12+040999999V0203201N001510450019N0200001N1+02561+02251101341ADDAA124007991AY161061AY221061GF106991021021008001061001KA1240N+02201MA1999999096671MD1999999-0061MW1021REMSYN088AAXX  21124 82784 21598 63203 10256 20225 39667 40134 70262 82260 333 20220 59006 60084;
0167827840999992000042118004-07320-039300FM-12+040999999V0203601N001510075019N0200001N1+03021+02241100871ADDAA199000091GF107991071021008001001001MA1999999096241MD1999999-0071REMSYN070AAXX  21184 82784 32598 73603 10302 20224 39624 40087 87200 333 59007;EQDQ01  00002PRCP99
0201827840999992000042200004-07320-039300FM-12+040999999V0201401N000512200019N0020001N1+02361+02261101201ADDAA106000391AY151061AY211061GF101991011001017501061001KA1240M+03101MA1999999096541MD1999999-0071MW1011REMSYN088AAXX  22004 82784 21795 11401 10236 20226 39654 40120 70151 81060 333 10310 59007 69931;
0167827840999992000042218004-07320-039300FM-12+040999999V0200501N002112200019N0200001N1+02961+02131100971ADDAA199000091GF103991011021008001011001MA1999999096341MD1999999+0101REMSYN070AAXX  22184 82784 32598 30504 10296 20213 39634 40097 81210 333 58010;EQDQ01  00002PRCP99
0196827840999992000042300004-07320-039300FM-12+040999999V0202301N000512200019N0020001N1+02341+02151101261ADDAA199000091GA1001+999999999GF100991001001999999001001KA1240M+03061MA1999999096601MD1999999+0061REMSYN070AAXX  23004 82784 32995 02301 10234 20215 39660 40126 333 10306 58006;EQDQ01  00002PRCP99
0186827840999992000042312004-07320-039300FM-12+040999999V0203201N001010075019N0200001N1+02691+02201101421ADDAA199000091GF108991081021008001999999KA1240N+02121MA1999999096601MD1999999+0121REMSYN076AAXX  23124 82784 32598 83202 10269 20220 39660 40142 882// 333 20212 58012;EQDQ01  00002PRCP99
0167827840999992000042318004-07320-039300FM-12+040999999V0200501N002110450019N0200001N1+03001+02191100951ADDAA199000091GF105991041021012501031001MA1999999096311MD1999999-0031REMSYN070AAXX  23184 82784 32698 50504 10300 20219 39631 40095 84230 333 59003;EQDQ01  00002PRCP99
0196827840999992000042400004-07320-039300FM-12+040999999V0202301N000512200019N0020001N1+02301+02161101301ADDAA199000091GA1001+999999999GF100991001001999999001001KA1240M+03111MA1999999096641MD1999999+0041REMSYN070AAXX  24004 82784 32995 02301 10230 20216 39664 40130 333 10311 58004;EQDQ01  00002PRCP99
0167827840999992000042418004-07320-039300FM-12+040999999V0200901N002112200019N0200001N1+02981+01981100951ADDAA199000091GF102991021021008001001001MA1999999096311MD1999999+0001REMSYN070AAXX  24184 82784 32598 20904 10298 20198 39631 40095 82200 333 58000;EQDQ01  00002PRCP99
0196827840999992000042500004-07320-039300FM-12+040999999V0202701N000512200019N0020001N1+02161+01931101261ADDAA199000091GA1001+999999999GF100991001001999999001001KA1240M+03091MA1999999096591MD1999999-0051REMSYN070AAXX  25004 82784 32995 02701 10216 20193 39659 40126 333 10309 59005;EQDQ01  00002PRCP99
0186827840999992000042512004-07320-039300FM-12+040999999V0201401N005110450019N0200001N1+02651+01951101401ADDAA199000091GF107991021021008001021001KA1240N+02051MA1999999096721MD1999999+0031REMSYN076AAXX  25124 82784 32598 71410 10265 20195 39672 40140 82220 333 20205 58003;EQDQ01  00002PRCP99
0167827840999992000042518004-07320-039300FM-12+040999999V0201401N003110450019N0200001N1+02841+01991101061ADDAA199000091GF108991031021008001021999MA1999999096411MD1999999+0101REMSYN070AAXX  25184 82784 32598 81406 10284 20199 39641 40106 8322/ 333 58010;EQDQ01  00002PRCP99
0186827840999992000042600004-07320-039300FM-12+040999999V0200901N003112200019N0020001N1+02361+01891101421ADDAA199000091GF104991041011008001001001KA1240M+02931MA1999999096751MD1999999+0161REMSYN076AAXX  26004 82784 32595 40906 10236 20189 39675 40142 84100 333 10293 58016;EQDQ01  00002PRCP99
0186827840999992000042612004-07320-039300FM-12+040999999V0200901N001510120019N0200001N1+02481+02011101571ADDAA199000091GF108991081081008001999999KA1240N+02241MA1999999096881MD1999999+0161REMSYN076AAXX  26124 82784 32598 80903 10248 20201 39688 40157 888// 333 20224 58016;EQDQ01  00002PRCP99
0167827840999992000042618004-07320-039300FM-12+040999999V0201401N004612200019N0200001N1+02771+02091101151ADDAA199000091GF104991031081008001021001MA1999999096491MD1999999+0081REMSYN070AAXX  26184 82784 32598 41409 10277 20209 39649 40115 83820 333 58008;EQDQ01  00002PRCP99
0186827840999992000042700004-07320-039300FM-12+040999999V0200501N001010120019N0020001N1+02391+01951101481ADDAA199000091GF108991081081008001999999KA1240M+02831MA1999999096801MD1999999+0051REMSYN076AAXX  27004 82784 32595 80502 10239 20195 39680 40148 888// 333 10283 58005;EQDQ01  00002PRCP99
0186827840999992000042712004-07320-039300FM-12+040999999V0201401N002610450019N0200001N1+02621+02031101561ADDAA199000091GF107991041081008001061001KA1240N+02221MA1999999096881MD1999999+0001REMSYN076AAXX  27124 82784 32598 71405 10262 20203 39688 40156 84860 333 20222 58000;EQDQ01  00002PRCP99
0167827840999992000042718004-07320-039300FM-12+040999999V0200501N002112200019N0200001N1+02951+01971101131ADDAA199000091GF104991041021008001001001MA1999999096481MD1999999-0011REMSYN070AAXX  27184 82784 32598 40504 10295 20197 39648 40113 84200 333 59001;EQDQ01  00002PRCP99
0186827840999992000042800004-07320-039300FM-12+040999999V0200901N001010075019N0020001N1+02341+02011101461ADDAA199000091GF108991081051008001999999KA1240M+03021MA1999999096791MD1999999-0011REMSYN076AAXX  28004 82784 32595 80902 10234 20201 39679 40146 885// 333 10302 59001;EQDQ01  00002PRCP99
0186827840999992000042812004-07320-039300FM-12+040999999V0200501N003112200019N0200001N1+02721+02081101611ADDAA199000091GF102991021021008001001001KA1240N+02081MA1999999096941MD1999999+0061REMSYN076AAXX  28124 82784 32598 20506 10272 20208 39694 40161 82200 333 20208 58006;EQDQ01  00002PRCP99
0167827840999992000042818004-07320-039300FM-12+040999999V0200501N001510120019N0200001N1+03041+02091101121ADDAA199000091GF106991061021012501001001MA1999999096481MD1999999+0001REMSYN070AAXX  28184 82784 32698 60503 10304 20209 39648 40112 86200 333 58000;EQDQ01  00002PRCP99
0196827840999992000042900004-07320-039300FM-12+040999999V0209999C000012200019N0020001N1+02301+02011101471ADDAA199000091GA1001+999999999GF100991001001999999001001KA1240M+03071MA1999999096801MD1999999+0011REMSYN070AAXX  29004 82784 32995 00000 10230 20201 39680 40147 333 10307 58001;EQDQ01  00002PRCP99
0201827840999992000042912004-07320-039300FM-12+040999999V0200901N002610450019N0200001N1+02701+02011101591ADDAA124000191AY151061AY211061GF107991011021008001011001KA1240N+02171MA1999999096911MD1999999-0031MW1021REMSYN088AAXX  29124 82784 21598 70905 10270 20201 39691 40159 70251 81210 333 20217 59003 69924;
0167827840999992000042918004-07320-039300FM-12+040999999V0201401N002110450019N0200001N1+02881+02001101181ADDAA199000091GF107991011011008001071001MA1999999096531MD1999999+0051REMSYN070AAXX  29184 82784 32598 71404 10288 20200 39653 40118 81170 333 58005;EQDQ01  00002PRCP99
0186827840999992000043000004-07320-039300FM-12+040999999V0201801N001010120019N0020001N1+02341+02111101431ADDAA199000091GF108991081081008001999999KA1240M+02991MA1999999096761MD1999999-0041REMSYN076AAXX  30004 82784 32595 81802 10234 20211 39676 40143 888// 333 10299 59004;EQDQ01  00002PRCP99
0186827840999992000043012004-07320-039300FM-12+040999999V0200901N002112200019N0200001N1+02701+01911101481ADDAA199000091GF101991011011008001001001KA1240N+02141MA1999999096811MD1999999-0101REMSYN076AAXX  30124 82784 32598 10904 10270 20191 39681 40148 81100 333 20214 59010;EQDQ01  00002PRCP99
0167827840999992000043018004-07320-039300FM-12+040999999V0200901N003110120019N0200001N1+02941+02031101151ADDAA199000091GF107991051021012501021061MA1999999096501MD1999999-0031REMSYN070AAXX  30184 82784 32698 70906 10294 20203 39650 40115 85226 333 59003;EQDQ01  00002PRCP99
0196827840999992000050100004-07320-039300FM-12+040999999V0203601N000512200019N0020001N1+02161+01931101471ADDAA199000091GA1001+999999999GF100991001001999999001001KA1240M+03011MA1999999096791MD1999999+0031REMSYN070AAXX  01004 82784 32995 03601 10216 20193 39679 40147 333 10301 58003;EQDQ01  00002PRCP99
0186827840999992000050112004-07320-039300FM-12+040999999V0201401N001510075019N0200001N1+02531+02091101561ADDAA199000091GF106991051021008001011001KA1240N+02041MA1999999096871MD1999999+0061REMSYN076AAXX  01124 82784 32598 61403 10253 20209 39687 40156 85210 333 20204 58006;EQDQ01  00002PRCP99
0167827840999992000050118004-07320-039300FM-12+040999999V0200901N001510450019N0200001N1+02911+01931101081ADDAA199000091GF107991021021008001071001MA1999999096431MD1999999-0071REMSYN070AAXX  01184 82784 32598 70903 10291 20193 39643 40108 82270 333 59007;EQDQ01  00002PRCP99
0196827840999992000050200004-07320-039300FM-12+040999999V0209999C000012200019N0020001N1+02101+01861101381ADDAA199000091GA1001+999999999GF100991001001999999001001KA1240M+03041MA1999999096691MD1999999-0101REMSYN070AAXX  02004 82784 32995 00000 10210 20186 39669 40138 333 10304 59010;EQDQ01  00002PRCP99
0186827840999992000050212004-07320-039300FM-12+040999999V0201401N002112200019N0200001N1+02721+02051101441ADDAA199000091GF104991041021008001001001KA1240N+01991MA1999999096761MD1999999-0111REMSYN076AAXX  02124 82784 32598 41404 10272 20205 39676 40144 84200 333 20199 59011;EQDQ01  00002PRCP99
0167827840999992000050218004-07320-039300FM-12+040999999V0200901N001512200019N0200001N1+02961+02021101021ADDAA199000091GF104991041021008001001001MA1999999096371MD1999999-0061REMSYN070AAXX  02184 82784 32598 40903 10296 20202 39637 40102 84200 333 59006;EQDQ01  00002PRCP99
0186827840999992000050300004-07320-039300FM-12+040999999V0201401N001512200019N0020001N1+02241+02051101351ADDAA199000091GF102991021011008001001001KA1240M+03061MA1999999096681MD1999999-0011REMSYN076AAXX  03004 82784 32595 21403 10224 20205 39668 40135 82100 333 10306 59001;EQDQ01  00002PRCP99
0201827840999992000050312004-07320-039300FM-12+040999999V0200901N003112200019N0200001N1+02681+01921101441ADDAA124011991AY161061AY201061GF101991011021008001001001KA1240N+02041MA1999999096761MD1999999+0001MW1011REMSYN088AAXX  03124 82784 21598 10906 10268 20192 39676 40144 70160 81200 333 20204 58000 60124;
0167827840999992000050318004-07320-039300FM-12+040999999V0201401N003112200019N0200001N1+02861+01981101041ADDAA199000091GF104991041021008001001001MA1999999096381MD1999999+0011REMSYN070AAXX  03184 82784 32598 41406 10286 20198 39638 40104 84200 333 58001;EQDQ01  00002PRCP99
0201827840999992000050400004-07320-039300FM-12+040999999V0202301N000512200019N0020001N1+02271+02191101261ADDAA106000191AY151061AY201061GF103991031021008001001001KA1240M+03011MA1999999096601MD1999999-0081MW1011REMSYN088AAXX  04004 82784 21595 32301 10227 20219 39660 40126 70150 83200 333 10301 59008 69911;
0173827840999992000050412004-07320-039300FM-12+040999999V0200901N003110120019N0200001N1+02591+02011101441ADDAA124000191GF107991051081008001061001KA1240N+02241MA1999999096761MD1999999+0001REMSYN082AAXX  04124 82784 22598 70906 10259 20201 39676 40144 85860 333 20224 58000 69914;
0167827840999992000050418004-07320-039300FM-12+040999999V0201401N002110450019N0200001N1+02861+02091101041ADDAA199000091GF106991041081008001041001MA1999999096401MD1999999+0021REMSYN070AAXX  04184 82784 32598 61404 10286 20209 39640 40104 84840 333 58002;EQDQ01  00002PRCP99
0186827840999992000050500004-07320-039300FM-12+040999999V0201801N000510075019N9999999N1+02311+02031101261ADDAA199000091GF106991061021008001001001KA1240M+02891MA1999999096591MD1999999-0011REMSYN076AAXX  05004 82784 325// 61801 10231 20203 39659 40126 86200 333 10289 59001;EQDQ01  00002PRCP99
0186827840999992000050512004-07320-039300FM-12+040999999V0200901N002610075019N0200001N1+02661+01971101461ADDAA199000091GF106991051021008001031001KA1240N+02241MA1999999096791MD1999999+0031REMSYN076AAXX  05124 82784 32598 60905 10266 20197 39679 40146 85230 333 20224 58003;EQDQ01  00002PRCP99
0167827840999992000050518004-07320-039300FM-12+040999999V0201401N002110450019N0200001N1+02981+02011101001ADDAA199000091GF106991031021008001031071MA1999999096361MD1999999-0041REMSYN070AAXX  05184 82784 32598 61404 10298 20201 39636 40100 83237 333 59004;EQDQ01  00002PRCP99
0186827840999992000050600004-07320-039300FM-12+040999999V0201401N000510120019N0020001N1+02311+02131101301ADDAA199000091GF107991071081008001001001KA1240M+03031MA1999999096641MD1999999+0051REMSYN076AAXX  06004 82784 32595 71401 10231 20213 39664 40130 87800 333 10303 58005;EQDQ01  00002PRCP99
0201827840999992000050612004-07320-039300FM-12+040999999V0201401N002110450019N0200001N1+02561+02081101331ADDAA124016091AY161061AY251061GF106991011011008001071001KA1240N+02001MA1999999096661MD1999999-0131MW1021REMSYN088AAXX  06124 82784 21598 61404 10256 20208 39666 40133 70265 81170 333 20200 59013 60164;
0167827840999992000050618004-07320-039300FM-12+040999999V0201401N002110450019N0200001N1+02821+02151101041ADDAA199000091GF107991021021008001041051MA1999999096381MD1999999+0021REMSYN070AAXX  06184 82784 32598 71404 10282 20215 39638 40104 82245 333 58002;EQDQ01  00002PRCP99
0186827840999992000050700004-07320-039300FM-12+040999999V0200901N001012200019N0020001N1+02221+02121101251ADDAA199000091GF103991011001017501041051KA1240M+02871MA1999999096581MD1999999-0061REMSYN076AAXX  07004 82784 32795 30902 10222 20212 39658 40125 81045 333 10287 59006;EQDQ01  00002PRCP99
0202827840999992000050712004-07320-039300FM-12+040999999V0200901N002119999999N0200001N1+02641+02091101351ADDAA199000091GF107991999041008001001001KA1240N+02141MA1999999096681MD1999999+0021REMSYN076AAXX  07124 82784 32598 70904 10264 20209 39668 40135 82400 333 20214 58002;EQDQ01+000022SCOTLCQ02  00002PRCP99
0167827840999992000050718004-07320-039300FM-12+040999999V0200901N001012200019N0200001N1+02961+02131100951ADDAA199000091GF103991031021008001001001MA1999999096311MD1999999-0051REMSYN070AAXX  07184 82784 32598 30902 10296 20213 39631 40095 83200 333 59005;EQDQ01  00002PRCP99
0186827840999992000050800004-07320-039300FM-12+040999999V0202701N000510075019N0020001N1+02371+02191101281ADDAA199000091GF106991061021008001001001KA1240M+03071MA1999999096621MD1999999+0041REMSYN076AAXX  08004 82784 32595 62701 10237 20219 39662 40128 86200 333 10307 58004;EQDQ01  00002PRCP99
0186827840999992000050812004-07320-039300FM-12+040999999V0200901N003110075019N0200001N1+02871+02161101481ADDAA199000091GF106991061021008001001001KA1240N+02041MA1999999096821MD1999999+0141REMSYN076AAXX  08124 82784 32598 60906 10287 20216 39682 40148 86200 333 20204 58014;EQDQ01  00002PRCP99
0167827840999992000050818004-07320-039300FM-12+040999999V0201401N002112200019N0200001N1+03021+01991101131ADDAA199000091GF101991011011008001001001MA1999999096491MD1999999+0181REMSYN070AAXX  08184 82784 32598 11404 10302 20199 39649 40113 81100 333 58018;EQDQ01  00002PRCP99
0186827840999992000050900004-07320-039300FM-12+040999999V0201801N001012200019N0020001N1+02181+01971101321ADDAA199000091GF102991021011008001001001KA1240M+03071MA1999999096661MD1999999+0041REMSYN076AAXX  09004 82784 32595 21802 10218 20197 39666 40132 82100 333 10307 58004;EQDQ01  00002PRCP99
0186827840999992000050912004-07320-039300FM-12+040999999V0200501N002610450019N0200001N1+02741+01971101671ADDAA199000091GF106991041021008001061041KA1240N+02161MA1999999096981MD1999999+0161REMSYN076AAXX  09124 82784 32598 60505 10274 20197 39698 40167 84264 333 20216 58016;EQDQ01  00002PRCP99
0167827840999992000050918004-07320-039300FM-12+040999999V0200901N001510450019N0200001N1+02971+02131101141ADDAA199000091GF106991031021008001081051MA1999999096501MD1999999+0011REMSYN070AAXX  09184 82784 32598 60903 10297 20213 39650 40114 83285 333 58001;EQDQ01  00002PRCP99
0186827840999992000051000004-07320-039300FM-12+040999999V0201401N000512200019N0020001N1+02351+02181101371ADDAA199000091GF103991031021008001001001KA1240M+03061MA1999999096711MD1999999+0051REMSYN076AAXX  10004 82784 32595 31401 10235 20218 39671 40137 83200 333 10306 58005;EQDQ01  00002PRCP99
0186827840999992000051012004-07320-039300FM-12+040999999V0203201N001512200019N0200001N1+02741+02051101651ADDAA199000091GF102991011021008001011001KA1240N+02021MA1999999096971MD1999999-0011REMSYN076AAXX  10124 82784 32598 23203 10274 20205 39697 40165 81210 333 20202 59001;EQDQ01  00002PRCP99
0167827840999992000051018004-07320-039300FM-12+040999999V0200501N002112200019N0200001N1+03101+01971101211ADDAA199000091GF104991011021008001001021MA1999999096561MD1999999+0061REMSYN070AAXX  10184 82784 32598 40504 10310 20197 39656 40121 81202 333 58006;EQDQ01  00002PRCP99
0180827840999992000051100004-07320-039300FM-12+040999999V0209999C000019999999N0020001N1+02261+02071101451ADDAA199000091GF106991999999999999999999KA1240M+03151MA1999999096781MD1999999+0071REMSYN070AAXX  11004 82784 32995 60000 10226 20207 39678 40145 333 10315 58007;EQDQ01  00002PRCP99
0186827840999992000051112004-07320-039300FM-12+040999999V0200501N001512200019N0200001N1+02731+02121101551ADDAA199000091GF103991031021008001001001KA1240N+02081MA1999999096871MD1999999-0101REMSYN076AAXX  11124 82784 32598 30503 10273 20212 39687 40155 83200 333 20208 59010;EQDQ01  00002PRCP99
0167827840999992000051118004-07320-039300FM-12+040999999V0200901N002112200019N0200001N1+03101+01971101061ADDAA199000091GF103991021011008001001081MA1999999096421MD1999999-0141REMSYN070AAXX  11184 82784 32598 30904 10310 20197 39642 40106 82108 333 59014;EQDQ01  00002PRCP99
0196827840999992000051200004-07320-039300FM-12+040999999V0201401N002112200019N0020001N1+02321+01741101401ADDAA199000091GA1001+999999999GF100991001001999999001001KA1240M+03201MA1999999096741MD1999999-0041REMSYN070AAXX  12004 82784 32995 01404 10232 20174 39674 40140 333 10320 59004;EQDQ01  00002PRCP99
0186827840999992000051212004-07320-039300FM-12+040999999V0200901N003110120019N0200001N1+02521+02001101501ADDAA199000091GF107991071081008001071001KA1240N+02241MA1999999096821MD1999999-0051REMSYN076AAXX  12124 82784 32598 70906 10252 20200 39682 40150 87870 333 20224 59005;EQDQ01  00002PRCP99
0167827840999992000051218004-07320-039300FM-12+040999999V0200901N003612200019N0200001N1+02841+01961101161ADDAA199000091GF102991021021008001001001MA1999999096511MD1999999+0091REMSYN070AAXX  12184 82784 32598 20907 10284 20196 39651 40116 82200 333 58009;EQDQ01  00002PRCP99
0186827840999992000051300004-07320-039300FM-12+040999999V0201401N002612200019N0020001N1+02411+01891101461ADDAA199000091GF101991011021008001001001KA1240M+02911MA1999999096781MD1999999+0041REMSYN076AAXX  13004 82784 32595 11405 10241 20189 39678 40146 81200 333 10291 58004;EQDQ01  00002PRCP99
0186827840999992000051312004-07320-039300FM-12+040999999V0201401N003110120019N0200001N1+02461+01941101581ADDAA199000091GF106991061081008001001001KA1240N+02231MA1999999096901MD1999999+0081REMSYN076AAXX  13124 82784 32598 61406 10246 20194 39690 40158 86800 333 20223 58008;EQDQ01  00002PRCP99
0167827840999992000051318004-07320-039300FM-12+040999999V0201401N004112200019N0200001N1+02721+02001101211ADDAA199000091GF104991041021008001001001MA1999999096551MD1999999+0041REMSYN070AAXX  13184 82784 32598 41408 10272 20200 39655 40121 84200 333 58004;EQDQ01  00002PRCP99
0196827840999992000051400004-07320-039300FM-12+040999999V0201401N001512200019N0020001N1+02281+01811101471ADDAA199000091GA1001+999999999GF100991001001999999001001KA1240M+02911MA1999999096781MD1999999+0001REMSYN070AAXX  14004 82784 32995 01403 10228 20181 39678 40147 333 10291 58000;EQDQ01  00002PRCP99
0183827840999992000051418004-07320-039300FM-12+040999999V0201401N001510075019N0200001N1+02741+01891101231ADDAA199000091GF106991999021008001001001MA1999999096561MD1999999+0011REMSYN070AAXX  14184 82784 32598 61403 10274 20189 39656 40123 85200 333 58001;EQDQ01+000052SCOTLCQ02  00002PRCP99
0202827840999992000051500004-07320-039300FM-12+040999999V0201401N001019999999N0020001N1+02361+01891101441ADDAA199000091GF107991999021008001001001KA1240M+02881MA1999999096771MD1999999-0011REMSYN076AAXX  15004 82784 32595 71402 10236 20189 39677 40144 84200 333 10288 59001;EQDQ01+000042SCOTLCQ02  00002PRCP99
0186827840999992000051512004-07320-039300FM-12+040999999V0201401N003112200019N0200001N1+02501+01671101541ADDAA199000091GF102991011011008001001011KA1240N+02151MA1999999096861MD1999999+0011REMSYN076AAXX  15124 82784 32598 21406 10250 20167 39686 40154 81101 333 20215 58001;EQDQ01  00002PRCP99
0167827840999992000051518004-07320-039300FM-12+040999999V0200901N001512200019N0200001N1+02951+01661100991ADDAA199000091GF102991011011008001031011MA1999999096351MD1999999-0211REMSYN070AAXX  15184 82784 32598 20903 10295 20166 39635 40099 81131 333 59021;EQDQ01  00002PRCP99
0186827840999992000051600004-07320-039300FM-12+040999999V0201401N002110075019N9999999N1+02601+02481101241ADDAA199000091GF107991071021008001001001KA1240M+03001MA1999999096581MD1999999-0191REMSYN076AAXX  16004 82784 325// 71404 10260 20248 39658 40124 87200 333 10300 59019;EQDQ01  00002PRCP99
0186827840999992000051612004-07320-039300FM-12+040999999V0201401N001010450019N0200001N1+02721+01791101421ADDAA199000091GF107991011051008001031001KA1240N+02161MA1999999096761MD1999999-0101REMSYN076AAXX  16124 82784 32598 71402 10272 20179 39676 40142 81530 333 20216 59010;EQDQ01  00002PRCP99
0167827840999992000051618004-07320-039300FM-12+040999999V0200901N002112200019N0200001N1+03081+01921101001ADDAA199000091GF103991031021008001001001MA1999999096361MD1999999+0011REMSYN070AAXX  16184 82784 32598 30904 10308 20192 39636 40100 83200 333 58001;EQDQ01  00002PRCP99
0186827840999992000051700004-07320-039300FM-12+040999999V0201401N001510075019N0020001N1+02101+02011101331ADDAA199000091GF108991081051008001999999KA1240M+03171MA1999999096681MD1999999+0101REMSYN076AAXX  17004 82784 32595 81403 10210 20201 39668 40133 885// 333 10317 58010;EQDQ01  00002PRCP99
0186827840999992000051712004-07320-039300FM-12+040999999V0200901N001510120019N0200001N1+02501+02051101581ADDAA199000091GF108991081081008001999999KA1240N+02041MA1999999096911MD1999999+0151REMSYN076AAXX  17124 82784 32598 80903 10250 20205 39691 40158 888// 333 20204 58015;EQDQ01  00002PRCP99
0182827840999992000051718004-07320-039300FM-12+040999999V0200901N001010120019N0040001N1+02701+02281101061ADDAA106001091AY121061AY221061GF107991051081008001061001MA1999999096401MD1999999+0041MW1211REMSYN082AAXX  17184 82784 21596 70902 10270 20228 39640 40106 72122 85860 333 58004 60011;
0167827840999992000051800004-07320-039300FM-12+040999999V0200901N000510075019N0020001N1+02321+02241101341ADDAA199000021GF108991081071008001999999KA1240M+03141MA1999999096661MD1999999-0021REMSYN076AAXX  18004 82784 32595 80901 10232 20224 39666 40134 887// 333 10314 59002;
0201827840999992000051812004-07320-039300FM-12+040999999V0200901N002110120019N0040001N1+02501+02171101471ADDAA124003091AY151061AY221061GF107991051081008001061001KA1240N+02201MA1999999096791MD1999999-0121MW1021REMSYN088AAXX  18124 82784 21596 70904 10250 20217 39679 40147 70252 85860 333 20220 59012 60034;
0167827840999992000051818004-07320-039300FM-12+040999999V0203601N002112200019N0200001N1+02941+02241101041ADDAA199000091GF103991031021008001001001MA1999999096401MD1999999+0001REMSYN070AAXX  18184 82784 32598 33604 10294 20224 39640 40104 83200 333 58000;EQDQ01  00002PRCP99
0220827840999992000051900004-07320-039300FM-12+040999999V0202701N001012200019N0020001N1+02281+02231101341ADDAA106005191AY161061AY221061GF104991999011008001001001KA1240M+03011MA1999999096661MD1999999+0001MW1011REMSYN088AAXX  19004 82784 21595 42702 10228 20223 39666 40134 70162 82100 333 10301 58000 60051;EQDQ01+000022SCOTLC
0201827840999992000051912004-07320-039300FM-12+040999999V0200501N003112200019N0200001N1+02691+02041101531ADDAA124006191AY151061AY211061GF104991041021008001001001KA1240N+02201MA1999999096851MD1999999+0091MW1011REMSYN088AAXX  19124 82784 21598 40506 10269 20204 39685 40153 70151 84200 333 20220 58009 60064;
0167827840999992000051918004-07320-039300FM-12+040999999V0203601N001512200019N0200001N1+02961+01901101181ADDAA199000091GF103991021021008001001011MA1999999096531MD1999999+0131REMSYN070AAXX  19184 82784 32598 33603 10296 20190 39653 40118 82201 333 58013;EQDQ01  00002PRCP99
0186827840999992000052000004-07320-039300FM-12+040999999V0209999C000010150019N0020001N1+02251+02071101411ADDAA199000091GF106991061001017501061001KA1240M+03031MA1999999096741MD1999999+0081REMSYN076AAXX  20004 82784 32795 60000 10225 20207 39674 40141 86060 333 10303 58008;EQDQ01  00002PRCP99
0202827840999992000052012004-07320-039300FM-12+040999999V0202301N001519999999N0200001N1+02711+01991101651ADDAA199000091GF108991999021008001001001KA1240N+02011MA1999999096971MD1999999+0131REMSYN076AAXX  20124 82784 32598 82303 10271 20199 39697 40165 81200 333 20201 58013;EQDQ01+000012SCOTLCQ02  00002PRCP99
0167827840999992000052018004-07320-039300FM-12+040999999V0203601N001512200019N0200001N1+03081+02071101181ADDAA199000091GF104991041021008001001001MA1999999096531MD1999999+0001REMSYN070AAXX  20184 82784 32598 43603 10308 20207 39653 40118 84200 333 58000;EQDQ01  00002PRCP99
0186827840999992000052100004-07320-039300FM-12+040999999V0209999C000012200019N0020001N1+02301+02181101501ADDAA199000091GF102991021011008001001001KA1240M+03191MA1999999096831MD1999999+0091REMSYN076AAXX  21004 82784 32595 20000 10230 20218 39683 40150 82100 333 10319 58009;EQDQ01  00002PRCP99
0186827840999992000052112004-07320-039300FM-12+040999999V0200901N002612200019N0200001N1+02741+01731101641ADDAA199000091GF102991011011008001001011KA1240N+01841MA1999999096961MD1999999-0011REMSYN076AAXX  21124 82784 32598 20905 10274 20173 39696 40164 81101 333 20184 59001;EQDQ01  00002PRCP99
0167827840999992000052118004-07320-039300FM-12+040999999V0201401N002112200019N0200001N1+03071+01831101321ADDAA199000091GF103991021021008001001011MA1999999096661MD1999999+0131REMSYN070AAXX  21184 82784 32598 31404 10307 20183 39666 40132 82201 333 58013;EQDQ01  00002PRCP99
0186827840999992000052212004-07320-039300FM-12+040999999V0200501N001012200019N0200001N1+02621+01881101801ADDAA199000091GF106991011021008001001011KA1240N+01821MA1999999097151MD1999999+0191REMSYN076AAXX  22124 82784 32598 60502 10262 20188 39715 40180 81201 333 20182 58019;EQDQ01  00002PRCP99
0167827840999992000052218004-07320-039300FM-12+040999999V0200901N002610120019N0200001N1+03011+01881101421ADDAA199000091GF107991051081008001061001MA1999999096751MD1999999+0091REMSYN070AAXX  22184 82784 32598 70905 10301 20188 39675 40142 85860 333 58009;EQDQ01  00002PRCP99
0234827840999992000052300004-07320-039300FM-12+040999999V0201401N001510075019N0020001N1+02481+01961101701ADDAA199000091GF108991999021008001001001KA1240M+03051MA1999999999999MD1999999+0071REMSYN076AAXX  23004 82784 32595 81403 10248 20196 39402 40170 86200 333 10305 58007;EQDQ01+000062SCOTLCQ02+094023APOSP Q03  00002PRCP99Q04 094023APOSP 
0186827840999992000052312004-07320-039300FM-12+040999999V0201401N003110120019N0200001N1+02521+01911101921ADDAA199000091GF108991081081008001999999KA1240N+02281MA1999999097231MD1999999+0081REMSYN076AAXX  23124 82784 32598 81406 10252 20191 39723 40192 888// 333 20228 58008;EQDQ01  00002PRCP99
0167827840999992000052318004-07320-039300FM-12+040999999V0200901N001510120019N0200001N1+02901+01811101471ADDAA199000091GF107991061081008001031001MA1999999096811MD1999999+0061REMSYN070AAXX  23184 82784 32598 70903 10290 20181 39681 40147 86830 333 58006;EQDQ01  00002PRCP99
0186827840999992000052400004-07320-039300FM-12+040999999V0200501N001010075019N0020001N1+02321+02131101781ADDAA199000091GF108991081071008001999999KA1240M+02971MA1999999097081MD1999999+0061REMSYN076AAXX  24004 82784 32595 80502 10232 20213 39708 40178 887// 333 10297 58006;EQDQ01  00002PRCP99
0201827840999992000052412004-07320-039300FM-12+040999999V0200901N003112200019N0200001N1+02501+01721101861ADDAA124002091AY161061AY251061GF104991041021008001001001KA1240N+02161MA1999999097161MD1999999-0071MW1011REMSYN088AAXX  24124 82784 21598 40906 10250 20172 39716 40186 70165 84200 333 20216 59007 60024;
0167827840999992000052418004-07320-039300FM-12+040999999V0201401N003112200019N0200001N1+02891+01671101371ADDAA199000091GF102991021021008001001001MA1999999096711MD1999999-0101REMSYN070AAXX  24184 82784 32598 21406 10289 20167 39671 40137 82200 333 59010;EQDQ01  00002PRCP99
0196827840999992000052500004-07320-039300FM-12+040999999V0201401N002112200019N0020001N1+02161+01611101651ADDAA199000091GA1001+999999999GF100991001001999999001001KA1240M+03001MA1999999096951MD1999999-0131REMSYN070AAXX  25004 82784 32595 01404 10216 20161 39695 40165 333 10300 59013;EQDQ01  00002PRCP99
0186827840999992000052512004-07320-039300FM-12+040999999V0201401N003112200019N0200001N1+02631+01831101701ADDAA199000091GF101991011011008001001001KA1240N+02021MA1999999097011MD1999999-0151REMSYN076AAXX  25124 82784 32598 11406 10263 20183 39701 40170 81100 333 20202 59015;EQDQ01  00002PRCP99
0167827840999992000052518004-07320-039300FM-12+040999999V0201401N003112200019N0200001N1+03031+01621101281ADDAA199000091GF102991021011008001001001MA1999999096621MD1999999-0091REMSYN070AAXX  25184 82784 32598 21406 10303 20162 39662 40128 82100 333 59009;EQDQ01  00002PRCP99
0196827840999992000052600004-07320-039300FM-12+040999999V0200901N001512200019N0020001N1+02121+01681101501ADDAA199000091GA1001+999999999GF100991001001999999001001KA1240M+03091MA1999999096821MD1999999-0131REMSYN070AAXX  26004 82784 32995 00903 10212 20168 39682 40150 333 10309 59013;EQDQ01  00002PRCP99
0186827840999992000052612004-07320-039300FM-12+040999999V0203601N001512200019N0200001N1+02641+01931101651ADDAA199000091GF102991021021008001001001KA1240N+02071MA1999999096961MD1999999-0051REMSYN076AAXX  26124 82784 32598 23603 10264 20193 39696 40165 82200 333 20207 59005;EQDQ01  00002PRCP99
0167827840999992000052618004-07320-039300FM-12+040999999V0200901N002612200019N0200001N1+02961+01741101231ADDAA199000091GF102991021011008001001001MA1999999096581MD1999999-0041REMSYN070AAXX  26184 82784 32598 20905 10296 20174 39658 40123 82100 333 59004;EQDQ01  00002PRCP99
0196827840999992000052700004-07320-039300FM-12+040999999V0209999C000012200019N0200001N1+02041+01801101441ADDAA199000091GA1001+999999999GF100991001001999999001001KA1240M+03081MA1999999096751MD1999999-0071REMSYN070AAXX  27004 82784 32998 00000 10204 20180 39675 40144 333 10308 59007;EQDQ01  00002PRCP99
0186827840999992000052712004-07320-039300FM-12+040999999V0203601N001512200019N0200001N1+02651+02001101501ADDAA199000091GF104991041021008001001001KA1240N+01851MA1999999096811MD1999999-0151REMSYN076AAXX  27124 82784 32598 43603 10265 20200 39681 40150 84200 333 20185 59015;EQDQ01  00002PRCP99
0167827840999992000052718004-07320-039300FM-12+040999999V0200501N001512200019N0200001N1+03161+01631101001ADDAA199000091GF101991011011008001001001MA1999999096351MD1999999-0231REMSYN070AAXX  27184 82784 32598 10503 10316 20163 39635 40100 81100 333 59023;EQDQ01  00002PRCP99
0196827840999992000052800004-07320-039300FM-12+040999999V0201401N000512200019N0020001N1+02041+01741101281ADDAA199000091GA1001+999999999GF100991001001999999001001KA1240M+03281MA1999999096601MD1999999-0151REMSYN070AAXX  28004 82784 32995 01401 10204 20174 39660 40128 333 10328 59015;EQDQ01  00002PRCP99
0202827840999992000052812004-07320-039300FM-12+040999999V0200901N001512200019N0200001N1+02671+01791101451ADDAA199000091GF101991999021008001001001KA1240N+01671MA1999999096761MD1999999-0051REMSYN076AAXX  28124 82784 32598 10903 10267 20179 39676 40145 86200 333 20167 59005;EQDQ01+000062SCOTLCQ02  00002PRCP99
0146827840999992000052818004-07320-039300FM-12+040999999V0201401N001512200019N0200001N1+03191+01491100891ADDAA199000091GF101991011011008001001001MD1999999-0101REMSYN064AAXX  28184 82784 32598 11403 10319 20149 40089 81100 333 59010;EQDQ01  00002PRCP99
0196827840999992000052912004-07320-039300FM-12+040999999V0200501N001012200019N0200001N1+02681+01841101361ADDAA199000091GA1001+999999999GF100991001001999999001001KA1240N+01671MA1999999096671MD1999999-0091REMSYN070AAXX  29124 82784 32998 00502 10268 20184 39667 40136 333 20167 59009;EQDQ01  00002PRCP99
0167827840999992000052918004-07320-039300FM-12+040999999V0203601N002612200019N0200001N1+03141+01801100881ADDAA199000091GF102991011021008001001011MA1999999096231MD1999999-0021REMSYN070AAXX  29184 82784 32598 23605 10314 20180 39623 40088 81201 333 59002;EQDQ01  00002PRCP99
0186827840999992000053000004-07320-039300FM-12+040999999V0201401N000510075019N0020001N1+02261+01981101221ADDAA199000091GF106991061021008001001001KA1240M+03231MA1999999096551MD1999999-0021REMSYN076AAXX  30004 82784 32595 61401 10226 20198 39655 40122 86200 333 10323 59002;EQDQ01  00002PRCP99
0186827840999992000053012004-07320-039300FM-12+040999999V0202701N000512200019N0200001N1+02721+02001101451ADDAA199000091GF104991011011008001031001KA1240N+02101MA1999999096781MD1999999+0111REMSYN076AAXX  30124 82784 32598 42701 10272 20200 39678 40145 81130 333 20210 58011;EQDQ01  00002PRCP99
0167827840999992000053018004-07320-039300FM-12+040999999V0201401N002112200019N0200001N1+03291+01441100921ADDAA199000091GF102991011011008001061001MA1999999096301MD1999999+0071REMSYN070AAXX  30184 82784 32598 21404 10329 20144 39630 40092 81160 333 58007;EQDQ01  00002PRCP99
0196827840999992000053100004-07320-039300FM-12+040999999V0201401N001512200019N0020001N1+02601+01601101281ADDAA199000091GA1001+999999999GF100991001001999999001001KA1240M+03361MA1999999096631MD1999999+0081REMSYN070AAXX  31004 82784 32995 01403 10260 20160 39663 40128 333 10336 58008;EQDQ01  00002PRCP99
0186827840999992000053112004-07320-039300FM-12+040999999V0201401N002112200019N0200001N1+02761+01751101471ADDAA199000091GF102991011011008001021001KA1240N+02021MA1999999096821MD1999999+0041REMSYN076AAXX  31124 82784 32598 21404 10276 20175 39682 40147 81120 333 20202 58004;EQDQ01  00002PRCP99
0167827840999992000053118004-07320-039300FM-12+040999999V0203601N002111050019N0200001N1+03121+01681101041ADDAA199000091GF106991011011008001001021MA1999999096401MD1999999+0101REMSYN070AAXX  31184 82784 32598 63604 10312 20168 39640 40104 81102 333 58010;EQDQ01  00002PRCP99
0196827840999992000060100004-07320-039300FM-12+040999999V0201401N000512200019N0020001N1+02191+01821101341ADDAA199000091GA1001+999999999GF100991001001999999001001KA1240M+03191MA1999999096671MD1999999+0041REMSYN070AAXX  01004 82784 32995 01401 10219 20182 39667 40134 333 10319 58004;EQDQ01  00002PRCP99
0186827840999992000060112004-07320-039300FM-12+040999999V0203201N000510120019N0200001N1+02601+02121101551ADDAA199000091GF107991071081008001001001KA1240N+02081MA1999999096861MD1999999+0041REMSYN076AAXX  01124 82784 32598 73201 10260 20212 39686 40155 87800 333 20208 58004;EQDQ01  00002PRCP99
0182827840999992000060118004-07320-039300FM-12+040999999V0201801N002110120019N0040001N1+02431+02261101241ADDAA106002091AY121061AY221061GF107991071081008001001001MA1999999096561MD1999999+0161MW1291REMSYN082AAXX  01184 82784 21596 71804 10243 20226 39656 40124 72922 87800 333 58016 60021;
0186827840999992000060200004-07320-039300FM-12+040999999V0209999C000019999999N0020001N1+02301+02071101411ADDAA199000091GF108991081999008001999999KA1240M+03121MA1999999096741MD1999999+0071REMSYN076AAXX  02004 82784 32595 80000 10230 20207 39674 40141 88/// 333 10312 58007;EQDQ01  00002PRCP99
0173827840999992000060212004-07320-039300FM-12+040999999V0200901N001510075019N0200001N1+02601+02081101621ADDAA124002091GF106991061021008001001001KA1240N+02201MA1999999096941MD1999999+0081REMSYN082AAXX  02124 82784 22598 60903 10260 20208 39694 40162 86200 333 20220 58008 60024;
0177827840999992000060218004-07320-039300FM-12+040999999V0201401N003112200019N0200001N1+03141+01911101131ADDAA199000091GA1001+999999999GF100991001001999999001001MA1999999096491MD1999999-0071REMSYN064AAXX  02184 82784 32998 01406 10314 20191 39649 40113 333 59007;EQDQ01  00002PRCP99
0196827840999992000060300004-07320-039300FM-12+040999999V0201401N003112200019N0200001N1+02641+01801101341ADDAA199000091GA1001+999999999GF100991001001999999001001KA1240M+03181MA1999999096681MD1999999+0061REMSYN070AAXX  03004 82784 32998 01406 10264 20180 39668 40134 333 10318 58006;EQDQ01  00002PRCP99
0186827840999992000060312004-07320-039300FM-12+040999999V0201401N004112200019N0200001N1+02661+01791101731ADDAA199000091GF102991021011008001001001KA1240N+02221MA1999999097061MD1999999+0121REMSYN076AAXX  03124 82784 32598 21408 10266 20179 39706 40173 82100 333 20222 58012;EQDQ01  00002PRCP99
0167827840999992000060318004-07320-039300FM-12+040999999V0201401N003112200019N0200001N1+03021+01511101351ADDAA199000091GF102991021011008001001001MA1999999096701MD1999999+0211REMSYN070AAXX  03184 82784 32598 21406 10302 20151 39670 40135 82100 333 58021;EQDQ01  00002PRCP99
0196827840999992000060400004-07320-039300FM-12+040999999V0201401N003112200019N0020001N1+02401+01521101551ADDAA199000091GA1001+999999999GF100991001001999999001001KA1240M+03091MA1999999096881MD1999999+0201REMSYN070AAXX  04004 82784 32995 01406 10240 20152 39688 40155 333 10309 58020;EQDQ01  00002PRCP99
0196827840999992000060412004-07320-039300FM-12+040999999V0201401N004612200019N0020001N1+02641+01351101821ADDAA199000091GA1001+999999999GF100991001001999999001001KA1240N+01921MA1999999097131MD1999999+0071REMSYN070AAXX  04124 82784 32995 01409 10264 20135 39713 40182 333 20192 58007;EQDQ01  00002PRCP99
0167827840999992000060418004-07320-039300FM-12+040999999V0201401N004112200019N0200001N1+03071+01551101401ADDAA199000091GF101991011011012501001001MA1999999096741MD1999999+0041REMSYN070AAXX  04184 82784 32698 11408 10307 20155 39674 40140 81100 333 58004;EQDQ01  00002PRCP99
0196827840999992000060500004-07320-039300FM-12+040999999V0201401N001512200019N0020001N1+02421+01821101681ADDAA199000091GA1001+999999999GF100991001001999999001001KA1240M+03111MA1999999097001MD1999999+0121REMSYN070AAXX  05004 82784 32995 01403 10242 20182 39700 40168 333 10311 58012;EQDQ01  00002PRCP99
0186827840999992000060512004-07320-039300FM-12+040999999V0200901N001510075019N0200001N1+02561+01881101761ADDAA199000091GF106991061021008001001001KA1240N+01911MA1999999097071MD1999999-0061REMSYN076AAXX  05124 82784 32598 60903 10256 20188 39707 40176 86200 333 20191 59006;EQDQ01  00002PRCP99
0167827840999992000060518004-07320-039300FM-12+040999999V0200501N001010075019N0200001N1+02821+01891101411ADDAA199000091GF106991061021008001001001MA1999999096741MD1999999+0001REMSYN070AAXX  05184 82784 32598 60502 10282 20189 39674 40141 86200 333 58000;EQDQ01  00002PRCP99
0202827840999992000060600004-07320-039300FM-12+040999999V0201401N002112200019N0020001N1+02401+01891101611ADDAA199000091GF101991999011017501001001KA1240M+02991MA1999999096931MD1999999-0071REMSYN076AAXX  06004 82784 32795 11404 10240 20189 39693 40161 82100 333 10299 59007;EQDQ01+000022SCOTLCQ02  00002PRCP99
0186827840999992000060612004-07320-039300FM-12+040999999V0201401N006210120019N0200001N1+02461+01811101751ADDAA199000091GF106991061081008001001001KA1240N+02181MA1999999097061MD1999999-0011REMSYN076AAXX  06124 82784 32598 61412 10246 20181 39706 40175 86800 333 20218 59001;EQDQ01  00002PRCP99
0167827840999992000060618004-07320-039300FM-12+040999999V0201401N003110150019N0200001N1+02901+01781101391ADDAA199000091GF106991061081012501001001MA1999999096731MD1999999-0011REMSYN070AAXX  06184 82784 32698 61406 10290 20178 39673 40139 86800 333 59001;EQDQ01  00002PRCP99
0186827840999992000060700004-07320-039300FM-12+040999999V0201401N001512200019N0020001N1+02421+01721101681ADDAA199000091GF103991031061008001001001KA1240M+02951MA1999999096981MD1999999+0051REMSYN076AAXX  07004 82784 32595 31403 10242 20172 39698 40168 83600 333 10295 58005;EQDQ01  00002PRCP99
0186827840999992000060712004-07320-039300FM-12+040999999V0201401N004610120019N0200001N1+02411+01821101731ADDAA199000091GF106991061081008001001001KA1240N+02171MA1999999097041MD1999999-0021REMSYN076AAXX  07124 82784 32598 61409 10241 20182 39704 40173 86800 333 20217 59002;EQDQ01  00002PRCP99
0167827840999992000060718004-07320-039300FM-12+040999999V0200901N002110120019N0200001N1+02731+01901101461ADDAA199000091GF107991071081008001001001MA1999999096781MD1999999+0051REMSYN070AAXX  07184 82784 32598 70904 10273 20190 39678 40146 87800 333 58005;EQDQ01  00002PRCP99
0186827840999992000060800004-07320-039300FM-12+040999999V0200901N001510075019N0020001N1+02441+01821101591ADDAA199000091GF108991081051008001999999KA1240M+02841MA1999999096911MD1999999-0071REMSYN076AAXX  08004 82784 32595 80903 10244 20182 39691 40159 885// 333 10284 59007;EQDQ01  00002PRCP99
0186827840999992000060812004-07320-039300FM-12+040999999V0201401N003110450019N0200001N1+02581+01871101631ADDAA199000091GF106991011011008001051001KA1240N+02221MA1999999096951MD1999999-0091REMSYN076AAXX  08124 82784 32598 61406 10258 20187 39695 40163 81150 333 20222 59009;EQDQ01  00002PRCP99
0167827840999992000060818004-07320-039300FM-12+040999999V0201401N003610150019N0200001N1+02781+01911101381ADDAA199000091GF108991081081012501999999MA1999999096711MD1999999-0071REMSYN070AAXX  08184 82784 32698 81407 10278 20191 39671 40138 888// 333 59007;EQDQ01  00002PRCP99
0186827840999992000060900004-07320-039300FM-12+040999999V0201401N001510075019N0020001N1+02441+01921101681ADDAA199000091GF108991081071008001999999KA1240M+03031MA1999999097001MD1999999+0091REMSYN076AAXX  09004 82784 32595 81403 10244 20192 39700 40168 887// 333 10303 58009;EQDQ01  00002PRCP99
0201827840999992000060912004-07320-039300FM-12+040999999V0201801N004112200019N0200001N1+02601+01741101721ADDAA124000191AY151061AY211061GF102991021021008001001001KA1240N+02221MA1999999097041MD1999999+0091MW1011REMSYN088AAXX  09124 82784 21598 21808 10260 20174 39704 40172 70151 82200 333 20222 58009 69914;
0167827840999992000060918004-07320-039300FM-12+040999999V0201401N002110120019N0200001N1+02751+01731101411ADDAA199000091GF107991071081008001001001MA1999999096741MD1999999+0031REMSYN070AAXX  09184 82784 32598 71404 10275 20173 39674 40141 87800 333 58003;EQDQ01  00002PRCP99
0196827840999992000061000004-07320-039300FM-12+040999999V0201401N003112200019N0020001N1+02221+01551101651ADDAA199000091GA1001+999999999GF100991001001999999001001KA1240M+02901MA1999999096961MD1999999-0041REMSYN070AAXX  10004 82784 32995 01406 10222 20155 39696 40165 333 10290 59004;EQDQ01  00002PRCP99
0202827840999992000061012004-07320-039300FM-12+040999999V0201401N004112200019N0200001N1+02481+01781101761ADDAA199000091GF101991999011008001001001KA1240N+01911MA1999999097061MD1999999+0021REMSYN076AAXX  10124 82784 32598 11408 10248 20178 39706 40176 82100 333 20191 58002;EQDQ01+000022SCOTLCQ02  00002PRCP99
0167827840999992000061018004-07320-039300FM-12+040999999V0201401N002110075019N0200001N1+02841+01791101321ADDAA199000091GF108991081051008001999999MA1999999096651MD1999999-0091REMSYN070AAXX  10184 82784 32598 81404 10284 20179 39665 40132 885// 333 59009;EQDQ01  00002PRCP99
0186827840999992000061100004-07320-039300FM-12+040999999V0200901N001012200019N0020001N1+02441+01691101601ADDAA199000091GF102991021011008001001001KA1240M+03011MA1999999096921MD1999999-0041REMSYN076AAXX  11004 82784 32595 20902 10244 20169 39692 40160 82100 333 10301 59004;EQDQ01  00002PRCP99
0186827840999992000061112004-07320-039300FM-12+040999999V0201401N002610075019N0200001N1+02541+01781101701ADDAA199000091GF108991071021008001031001KA1240N+02221MA1999999097021MD1999999-0041REMSYN076AAXX  11124 82784 32598 81405 10254 20178 39702 40170 87230 333 20222 59004;EQDQ01  00002PRCP99
0167827840999992000061118004-07320-039300FM-12+040999999V0201401N001510120019N0200001N1+02841+01881101291ADDAA199000091GF108991081071012501999999MA1999999096631MD1999999-0021REMSYN070AAXX  11184 82784 32698 81403 10284 20188 39663 40129 887// 333 59002;EQDQ01  00002PRCP99
0186827840999992000061200004-07320-039300FM-12+040999999V0201801N001510120019N0020001N1+02401+02091101611ADDAA199000091GF108991081081008001999999KA1240M+02911MA1999999096931MD1999999+0011REMSYN076AAXX  12004 82784 32595 81803 10240 20209 39693 40161 888// 333 10291 58001;EQDQ01  00002PRCP99
0186827840999992000061212004-07320-039300FM-12+040999999V0200901N002112200019N0200001N1+02671+01921101711ADDAA199000091GF103991021021008001061001KA1240N+02211MA1999999097031MD1999999-0011REMSYN076AAXX  12124 82784 32598 30904 10267 20192 39703 40171 82260 333 20221 59001;EQDQ01  00002PRCP99
0167827840999992000061218004-07320-039300FM-12+040999999V0201401N003112200019N0200001N1+03141+01361101221ADDAA199000091GF102991011011008001041001MA1999999096581MD1999999-0051REMSYN070AAXX  12184 82784 32598 21406 10314 20136 39658 40122 81140 333 59005;EQDQ01  00002PRCP99
0196827840999992000061300004-07320-039300FM-12+040999999V0200901N000512200019N0020001N1+02391+01661101441ADDAA199000091GA1001+999999999GF100991001001999999001001KA1240M+03191MA1999999096771MD1999999-0161REMSYN070AAXX  13004 82784 32995 00901 10239 20166 39677 40144 333 10319 59016;EQDQ01  00002PRCP99
0186827840999992000061312004-07320-039300FM-12+040999999V0201401N003112200019N0200001N1+02591+01661101591ADDAA199000091GF102991011011008001001011KA1240N+02071MA1999999096911MD1999999-0121REMSYN076AAXX  13124 82784 32598 21406 10259 20166 39691 40159 81101 333 20207 59012;EQDQ01  00002PRCP99
0167827840999992000061318004-07320-039300FM-12+040999999V0201401N003112200019N0200001N1+02941+01761101171ADDAA199000091GF101991011011012501001001MA1999999096521MD1999999-0061REMSYN070AAXX  13184 82784 32698 11406 10294 20176 39652 40117 81100 333 59006;EQDQ01  00002PRCP99
0196827840999992000061400004-07310-039300FM-12+040999999V0201401N001512200019N0020001N1+02301+01851101461ADDAA199000091GA1001+999999999GF100991001001999999001001KA1240M+03031MA1999999096781MD1999999+0011REMSYN070AAXX  14004 82784 32995 01403 10230 20185 39678 40146 333 10303 58001;EQDQ01  00002PRCP99
0186827840999992000061412004-07310-039300FM-12+040999999V0201401N003612200019N0200001N1+02571+01831101561ADDAA199000091GF104991041021008001001001KA1240N+02161MA1999999096881MD1999999-0031REMSYN076AAXX  14124 82784 32598 41407 10257 20183 39688 40156 84200 333 20216 59003;EQDQ01  00002PRCP99
0167827840999992000061418004-07310-039300FM-12+040999999V0201401N002612200019N0200001N1+02971+01781101201ADDAA199000091GF104991041021008001001001MA1999999096551MD1999999+0031REMSYN070AAXX  14184 82784 32598 41405 10297 20178 39655 40120 84200 333 58003;EQDQ01  00002PRCP99
0186827840999992000061500004-07310-039300FM-12+040999999V0201401N001510075019N0020001N1+02441+01761101421ADDAA199000091GF108991081021008001999999KA1240M+03011MA1999999096751MD1999999-0031REMSYN076AAXX  15004 82784 32595 81403 10244 20176 39675 40142 882// 333 10301 59003;EQDQ01  00002PRCP99
0186827840999992000061512004-07310-039300FM-12+040999999V0201401N003610450019N0200001N1+02551+01781101551ADDAA199000091GF106991021021008001061001KA1240N+02161MA1999999096871MD1999999-0011REMSYN076AAXX  15124 82784 32598 61407 10255 20178 39687 40155 82260 333 20216 59001;EQDQ01  00002PRCP99
0167827840999992000061518004-07310-039300FM-12+040999999V0201401N000510120019N0200001N1+02961+01741101141ADDAA199000091GF107991051081008001061001MA1999999096501MD1999999-0051REMSYN070AAXX  15184 82784 32598 71401 10296 20174 39650 40114 85860 333 59005;EQDQ01  00002PRCP99
0186827840999992000061600004-07310-039300FM-12+040999999V0201401N002610075019N0020001N1+02521+01771101421ADDAA199000091GF108991081051008001999999KA1240M+03051MA1999999096751MD1999999+0001REMSYN076AAXX  16004 82784 32595 81405 10252 20177 39675 40142 885// 333 10305 58000;EQDQ01  00002PRCP99
0186827840999992000061612004-07310-039300FM-12+040999999V0201401N001510120019N0040001N1+02441+01901101611ADDAA199000091GF108991081081008001999999KA1240N+02261MA1999999096931MD1999999+0061REMSYN076AAXX  16124 82784 32596 81403 10244 20190 39693 40161 888// 333 20226 58006;EQDQ01  00002PRCP99
0182827840999992000061618004-07310-039300FM-12+040999999V0201401N002110120019N0040001N1+02521+02071101281ADDAA106000191AY121061AY221061GF108991081081008001999999MA1999999096611MD1999999+0111MW1201REMSYN082AAXX  16184 82784 21596 81404 10252 20207 39661 40128 72022 888// 333 58011 69921;
0192827840999992000061712004-07310-039300FM-12+040999999V0201401N002619999999N0200001N1+02561+01931101511ADDAA124000191GF106991999021008001001001KA1240N+02111MA1999999096861MD1999999-0071REMSYN082AAXX  17124 82784 22598 61405 10256 20193 39686 40151 84200 333 20211 59007 69924;EQDQ01+000042SCOTLC
0183827840999992000061718004-07310-039300FM-12+040999999V0201801N001510075019N0200001N1+02921+01891101181ADDAA199000091GF107991999021008001001001MA1999999096531MD1999999-0081REMSYN070AAXX  17184 82784 32598 71803 10292 20189 39653 40118 85200 333 59008;EQDQ01+000052SCOTLCQ02  00002PRCP99
0196827840999992000061800004-07310-039300FM-12+040999999V0201401N001512200019N0200001N1+02441+01831101341ADDAA199000091GA1001+999999999GF100991001001999999001001KA1240M+03051MA1999999096671MD1999999-0161REMSYN070AAXX  18004 82784 32998 01403 10244 20183 39667 40134 333 10305 59016;EQDQ01  00002PRCP99
0186827840999992000061812004-07310-039300FM-12+040999999V0201401N002110120019N0200001N1+02521+01981101641ADDAA199000091GF108991081081008001999999KA1240N+02301MA1999999096961MD1999999+0101REMSYN076AAXX  18124 82784 32598 81404 10252 20198 39696 40164 888// 333 20230 58010;EQDQ01  00002PRCP99
0167827840999992000061818004-07310-039300FM-12+040999999V0201801N003112200019N0200001N1+03121+01821101121ADDAA199000091GF101991011021012501001001MA1999999096491MD1999999-0041REMSYN070AAXX  18184 82784 32698 11806 10312 20182 39649 40112 81200 333 59004;EQDQ01  00002PRCP99
0196827840999992000061900004-07310-039300FM-12+040999999V0201401N001512200019N0020001N1+02341+01871101381ADDAA199000091GA1001+999999999GF100991001001999999001001KA1240M+03171MA1999999096711MD1999999+0041REMSYN070AAXX  19004 82784 32995 01403 10234 20187 39671 40138 333 10317 58004;EQDQ01  00002PRCP99
0186827840999992000061912004-07310-039300FM-12+040999999V0201401N002612200019N0200001N1+02701+01911101621ADDAA199000091GF102991021021008001001001KA1240N+02321MA1999999096941MD1999999-0021REMSYN076AAXX  19124 82784 32598 21405 10270 20191 39694 40162 82200 333 20232 59002;EQDQ01  00002PRCP99
0167827840999992000061918004-07310-039300FM-12+040999999V0201801N003112200019N0200001N1+03241+01781101191ADDAA199000091GF102991021021008001001001MA1999999096561MD1999999+0071REMSYN070AAXX  19184 82784 32598 21806 10324 20178 39656 40119 82200 333 58007;EQDQ01  00002PRCP99
0196827840999992000062000004-07310-039300FM-12+040999999V0200901N001512200019N0020001N1+02351+01761101471ADDAA199000091GA1001+999999999GF100991001001999999001001KA1240M+03251MA1999999096801MD1999999+0091REMSYN070AAXX  20004 82784 32595 00903 10235 20176 39680 40147 333 10325 58009;EQDQ01  00002PRCP99
0186827840999992000062012004-07310-039300FM-12+040999999V0201401N003610075019N0200001N1+02741+01921101671ADDAA199000091GF106991061021008001001001KA1240N+02231MA1999999096991MD1999999+0051REMSYN076AAXX  20124 82784 32598 61407 10274 20192 39699 40167 86200 333 20223 58005;EQDQ01  00002PRCP99
0167827840999992000062018004-07310-039300FM-12+040999999V0200901N001512200019N0200001N1+03061+01701101211ADDAA199000091GF102991021021012501001001MA1999999096571MD1999999+0011REMSYN070AAXX  20184 82784 32698 20903 10306 20170 39657 40121 82200 333 58001;EQDQ01  00002PRCP99
0196827840999992000062100004-07310-039300FM-12+040999999V0202301N000512200019N0020001N1+02241+01731101481ADDAA199000091GA1001+999999999GF100991001001999999001001KA1240M+03191MA1999999096841MD1999999+0011REMSYN070AAXX  21004 82784 32995 02301 10224 20173 39684 40148 333 10319 58001;EQDQ01  00002PRCP99
0167827840999992000062118004-07310-039300FM-12+040999999V0201401N002110120019N0200001N1+03221+01771101221ADDAA199000091GF106991061081008001001001MA1999999096581MD1999999+0011REMSYN070AAXX  21184 82784 32598 61404 10322 20177 39658 40122 86800 333 58001;EQDQ01  00002PRCP99
0196827840999992000062200004-07310-039300FM-12+040999999V0209999C000012200019N0020001N1+02401+01771101471ADDAA199000091GA1001+999999999GF100991001001999999001001KA1240M+03281MA1999999096801MD1999999-0041REMSYN070AAXX  22004 82784 32995 00000 10240 20177 39680 40147 333 10328 59004;EQDQ01  00002PRCP99
0186827840999992000062212004-07310-039300FM-12+040999999V0200501N001010075019N0200001N1+02681+02021101691ADDAA199000091GF106991061021008001001001KA1240N+01961MA1999999097011MD1999999+0041REMSYN076AAXX  22124 82784 32598 60502 10268 20202 39701 40169 86200 333 20196 58004;EQDQ01  00002PRCP99
0167827840999992000062218004-07310-039300FM-12+040999999V0200501N001512200019N0200001N1+03221+01611101151ADDAA199000091GF102991011021012501071001MA1999999096511MD1999999-0071REMSYN070AAXX  22184 82784 32698 20503 10322 20161 39651 40115 81270 333 59007;EQDQ01  00002PRCP99
0196827840999992000062300004-07310-039300FM-12+040999999V0201401N001512200019N0020001N1+02621+01671101381ADDAA199000091GA1001+999999999GF100991001001999999001001KA1240M+03351MA1999999096731MD1999999-0071REMSYN070AAXX  23004 82784 32995 01403 10262 20167 39673 40138 333 10335 59007;EQDQ01  00002PRCP99
0186827840999992000062312004-07310-039300FM-12+040999999V0200901N003610120019N0200001N1+02521+01791101761ADDAA199000091GF108991081081008001999999KA1240N+02241MA1999999097081MD1999999+0071REMSYN076AAXX  23124 82784 32598 80907 10252 20179 39708 40176 888// 333 20224 58007;EQDQ01  00002PRCP99
0167827840999992000062318004-07310-039300FM-12+040999999V0201401N003110075019N0200001N1+03011+01491101261ADDAA199000091GF105991051021008001001001MA1999999096621MD1999999+0111REMSYN070AAXX  23184 82784 32598 51406 10301 20149 39662 40126 85200 333 58011;EQDQ01  00002PRCP99
0196827840999992000062400004-07310-039300FM-12+040999999V0201401N002612200019N0020001N1+02501+01621101441ADDAA199000091GA1001+999999999GF100991001001999999001001KA1240M+03171MA1999999096821MD1999999+0091REMSYN070AAXX  24004 82784 32995 01405 10250 20162 39682 40144 333 10317 58009;EQDQ01  00002PRCP99
0186827840999992000062412004-07310-039300FM-12+040999999V0200901N004612200019N0200001N1+02571+01641101741ADDAA199000091GF103991031021008001001001KA1240N+02081MA1999999097061MD1999999-0021REMSYN076AAXX  24124 82784 32598 30909 10257 20164 39706 40174 83200 333 20208 59002;EQDQ01  00002PRCP99
0167827840999992000062418004-07310-039300FM-12+040999999V0201401N003612200019N0200001N1+03121+01391101241ADDAA199000091GF101991011011008001001001MA1999999096591MD1999999-0031REMSYN070AAXX  24184 82784 32598 11407 10312 20139 39659 40124 81100 333 59003;EQDQ01  00002PRCP99
0186827840999992000062500004-07310-039300FM-12+040999999V0201401N003112200019N0020001N1+02591+01461101461ADDAA199000091GF102991021051008001001001KA1240M+03181MA1999999096801MD1999999-0021REMSYN076AAXX  25004 82784 32595 21406 10259 20146 39680 40146 82500 333 10318 59002;EQDQ01  00002PRCP99
0186827840999992000062512004-07310-039300FM-12+040999999V0201801N001510075019N0200001N1+02551+01811101601ADDAA199000091GF108991081051008001999999KA1240N+02031MA1999999096931MD1999999-0131REMSYN076AAXX  25124 82784 32598 81803 10255 20181 39693 40160 885// 333 20203 59013;EQDQ01  00002PRCP99
0183827840999992000062518004-07310-039300FM-12+040999999V0201401N004619999999N0200001N1+02981+01661101231ADDAA199000091GF108991999021012501001001MA1999999096571MD1999999-0021REMSYN070AAXX  25184 82784 32698 81409 10298 20166 39657 40123 81200 333 59002;EQDQ01+000012SCOTLCQ02  00002PRCP99
0202827840999992000062600004-07310-039300FM-12+040999999V0201401N003612200019N0020001N1+02381+01871101461ADDAA199000091GF101991999011008001001001KA1240M+03031MA1999999096781MD1999999-0021REMSYN076AAXX  26004 82784 32595 11407 10238 20187 39678 40146 82100 333 10303 59002;EQDQ01+000022SCOTLCQ02  00002PRCP99
0186827840999992000062612004-07310-039300FM-12+040999999V0200901N003610120019N0200001N1+02471+01901101541ADDAA199000091GF108991081081008001999999KA1240N+02201MA1999999096861MD1999999-0071REMSYN076AAXX  26124 82784 32598 80907 10247 20190 39686 40154 888// 333 20220 59007;EQDQ01  00002PRCP99
0182827840999992000062618004-07310-039300FM-12+040999999V0201401N002110075019N0200001N1+02521+02071101351ADDAA106000391AY121061AY221061GF108991081071008001999999MA1999999096671MD1999999+0101MW1201REMSYN082AAXX  26184 82784 21598 81404 10252 20207 39667 40135 72022 887// 333 58010 69931;
0201827840999992000062700004-07310-039300FM-12+040999999V0202301N000510075019N0020001N1+02181+02101101661ADDAA106007991AY161061AY221061GF108991081071008001999999KA1240M+02771MA1999999096961MD1999999+0181MW1021REMSYN088AAXX  27004 82784 21595 82301 10218 20210 39696 40166 70262 887// 333 10277 58018 60081;
0201827840999992000062712004-07310-039300FM-12+040999999V0200901N002612200019N0200001N1+02651+01751101641ADDAA124007991AY151061AY221061GF102991011011008001031001KA1240N+02081MA1999999096951MD1999999+0091MW1011REMSYN088AAXX  27124 82784 21598 20905 10265 20175 39695 40164 70152 81130 333 20208 58009 60084;
0167827840999992000062718004-07310-039300FM-12+040999999V0200901N002110075019N0200001N1+03071+01731101181ADDAA199000091GF106991061021008001001001MA1999999096541MD1999999-0131REMSYN070AAXX  27184 82784 32598 60904 10307 20173 39654 40118 86200 333 59013;EQDQ01  00002PRCP99
0186827840999992000062800004-07310-039300FM-12+040999999V0209999C000012200019N0020001N1+02421+01841101471ADDAA199000091GF101991011011008001001001KA1240M+03121MA1999999096801MD1999999-0161REMSYN076AAXX  28004 82784 32595 10000 10242 20184 39680 40147 81100 333 10312 59016;EQDQ01  00002PRCP99
0186827840999992000062812004-07310-039300FM-12+040999999V0201401N003110450019N0200001N1+02541+01651101681ADDAA199000091GF106991021021008001061001KA1240N+02171MA1999999097001MD1999999+0051REMSYN076AAXX  28124 82784 32598 61406 10254 20165 39700 40168 82260 333 20217 58005;EQDQ01  00002PRCP99
0167827840999992000062818004-07310-039300FM-12+040999999V0201401N003110450019N0200001N1+03021+01511101181ADDAA199000091GF105991011011008001071001MA1999999096541MD1999999+0001REMSYN070AAXX  28184 82784 32598 51406 10302 20151 39654 40118 81170 333 58000;EQDQ01  00002PRCP99
0186827840999992000062900004-07310-039300FM-12+040999999V0201401N002610120019N0020001N1+02601+01631101401ADDAA199000091GF108991081081008001999999KA1240M+03091MA1999999096741MD1999999-0061REMSYN076AAXX  29004 82784 32595 81405 10260 20163 39674 40140 888// 333 10309 59006;EQDQ01  00002PRCP99
0186827840999992000062912004-07310-039300FM-12+040999999V0201401N004610450019N0200001N1+02491+01751101611ADDAA199000091GF106991041021008001031001KA1240N+02201MA1999999096941MD1999999-0061REMSYN076AAXX  29124 82784 32598 61409 10249 20175 39694 40161 84230 333 20220 59006;EQDQ01  00002PRCP99
0167827840999992000062918004-07310-039300FM-12+040999999V0201401N003110120019N0200001N1+02861+01721101191ADDAA199000091GF107991051081008001031001MA1999999096541MD1999999+0001REMSYN070AAXX  29184 82784 32598 71406 10286 20172 39654 40119 85830 333 58000;EQDQ01  00002PRCP99
0202827840999992000063000004-07310-039300FM-12+040999999V0200901N000512200019N0020001N1+02461+01831101461ADDAA199000091GF101991999011008001001001KA1240M+02991MA1999999096791MD1999999+0051REMSYN076AAXX  30004 82784 32595 10901 10246 20183 39679 40146 82100 333 10299 58005;EQDQ01+000022SCOTLCQ02  00002PRCP99
0186827840999992000063012004-07310-039300FM-12+040999999V0203601N002110150019N0200001N1+02511+01621101631ADDAA199000091GF107991071001017501031001KA1240N+02011MA1999999096951MD1999999+0011REMSYN076AAXX  30124 82784 32798 73604 10251 20162 39695 40163 87030 333 20201 58001;EQDQ01  00002PRCP99
0186827840999992000070100004-07310-039300FM-12+040999999V0200501N003112200019N0020001N1+02501+01721101471ADDAA199000091GF103991031021012501001001KA1240M+03201MA1999999096801MD1999999+0011REMSYN076AAXX  01004 82784 32695 30506 10250 20172 39680 40147 83200 333 10320 58001;EQDQ01  00002PRCP99
0186827840999992000070112004-07310-039300FM-12+040999999V0200901N003110120019N0020001N1+02611+01921101611ADDAA199000091GF108991081081008001999999KA1240N+02281MA1999999096941MD1999999-0011REMSYN076AAXX  01124 82784 32595 80906 10261 20192 39694 40161 888// 333 20228 59001;EQDQ01  00002PRCP99
0186827840999992000070200004-07310-039300FM-12+040999999V0201401N002110120019N0020001N1+02441+01761101461ADDAA199000091GF108991081081008001999999KA1240M+02951MA1999999096791MD1999999-0011REMSYN076AAXX  02004 82784 32595 81404 10244 20176 39679 40146 888// 333 10295 59001;EQDQ01  00002PRCP99
0186827840999992000070212004-07310-039300FM-12+040999999V0200901N002610120019N0200001N1+02371+01711101631ADDAA199000091GF108991081081008001999999KA1240N+02101MA1999999096931MD1999999+0001REMSYN076AAXX  02124 82784 32598 80905 10237 20171 39693 40163 888// 333 20210 58000;EQDQ01  00002PRCP99
0167827840999992000070218004-07310-039300FM-12+040999999V0200901N002610120019N0200001N1+02841+01531101241ADDAA199000091GF108991081081008001999999MA1999999096581MD1999999+0071REMSYN070AAXX  02184 82784 32598 80905 10284 20153 39658 40124 888// 333 58007;EQDQ01  00002PRCP99
0186827840999992000070300004-07310-039300FM-12+040999999V0201401N001010120019N0020001N1+02531+01631101501ADDAA199000091GF108991081081008001999999KA1240M+02931MA1999999096821MD1999999+0031REMSYN076AAXX  03004 82784 32595 81402 10253 20163 39682 40150 888// 333 10293 58003;EQDQ01  00002PRCP99
0196827840999992000070312004-07310-039300FM-12+040999999V0201401N004112200019N0200001N1+02501+01641101661ADDAA199000091GA1001+999999999GF100991001001999999001001KA1240N+02181MA1999999096981MD1999999+0041REMSYN070AAXX  03124 82784 32998 01408 10250 20164 39698 40166 333 20218 58004;EQDQ01  00002PRCP99
0167827840999992000070318004-07310-039300FM-12+040999999V0201401N004110150019N0200001N1+02861+01721101331ADDAA199000091GF107991051081012501071091MA1999999096671MD1999999+0091REMSYN070AAXX  03184 82784 32698 71408 10286 20172 39667 40133 85879 333 58009;EQDQ01  00002PRCP99
0186827840999992000070400004-07310-039300FM-12+040999999V0201401N004110120019N0020001N1+02321+01831101631ADDAA199000091GF108991081081008001999999KA1240M+03091MA1999999096941MD1999999+0121REMSYN076AAXX  04004 82784 32595 81408 10232 20183 39694 40163 888// 333 10309 58012;EQDQ01  00002PRCP99
0201827840999992000070412004-07310-039300FM-12+040999999V0201401N002110120019N0200001N1+02461+01681101641ADDAA124000591AY151061AY221061GF107991071081008001001001KA1240N+02021MA1999999096951MD1999999-0031MW1021REMSYN088AAXX  04124 82784 21598 71404 10246 20168 39695 40164 70252 87800 333 20202 59003 69964;
0167827840999992000070418004-07310-039300FM-12+040999999V0201401N005710150019N0200001N1+02701+01751101321ADDAA199000091GF106991061081012501001001MA1999999096651MD1999999-0021REMSYN070AAXX  04184 82784 32698 61411 10270 20175 39665 40132 86800 333 59002;EQDQ01  00002PRCP99
0196827840999992000070500004-07310-039300FM-12+040999999V0201401N004112200019N0020001N1+02321+01531101491ADDAA199000091GA1001+999999999GF100991001001999999001001KA1240M+02901MA1999999096811MD1999999-0131REMSYN070AAXX  05004 82784 32995 01408 10232 20153 39681 40149 333 10290 59013;EQDQ01  00002PRCP99
0186827840999992000070512004-07310-039300FM-12+040999999V0201401N005112200019N0200001N1+02521+01741101521ADDAA199000091GF102991021021008001001001KA1240N+02061MA1999999096841MD1999999-0111REMSYN076AAXX  05124 82784 32598 21410 10252 20174 39684 40152 82200 333 20206 59011;EQDQ01  00002PRCP99
0167827840999992000070518004-07310-039300FM-12+040999999V0201401N004112200019N0200001N1+02811+01811101251ADDAA199000091GF102991021021012501001001MA1999999096591MD1999999-0101REMSYN070AAXX  05184 82784 32698 21408 10281 20181 39659 40125 82200 333 59010;EQDQ01  00002PRCP99
0196827840999992000070600004-07310-039300FM-12+040999999V0201401N003112200019N0020001N1+02261+01661101521ADDAA199000091GA1001+999999999GF100991001001999999001001KA1240M+02991MA1999999096841MD1999999-0031REMSYN070AAXX  06004 82784 32995 01406 10226 20166 39684 40152 333 10299 59003;EQDQ01  00002PRCP99
0186827840999992000070612004-07310-039300FM-12+040999999V0201401N003112200019N0200001N1+02421+01571101651ADDAA199000091GF102991021021008001001001KA1240N+02021MA1999999096951MD1999999+0111REMSYN076AAXX  06124 82784 32598 21406 10242 20157 39695 40165 82200 333 20202 58011;EQDQ01  00002PRCP99
0167827840999992000070618004-07310-039300FM-12+040999999V0201801N003110120019N0200001N1+03001+01331101191ADDAA199000091GF106991061021012501001001MA1999999096541MD1999999-0051REMSYN070AAXX  06184 82784 32698 61806 10300 20133 39654 40119 86200 333 59005;EQDQ01  00002PRCP99
0186827840999992000070700004-07310-039300FM-12+040999999V0201401N002610120019N0020001N1+02471+01471101481ADDAA199000091GF108991081081008001999999KA1240M+03091MA1999999096801MD1999999-0041REMSYN076AAXX  07004 82784 32595 81405 10247 20147 39680 40148 888// 333 10309 59004;EQDQ01  00002PRCP99
0196827840999992000070712004-07310-039300FM-12+040999999V0201401N002112200019N0200001N1+02521+01581101651ADDAA199000091GA1001+999999999GF100991001001999999001001KA1240N+01961MA1999999096971MD1999999+0021REMSYN070AAXX  07124 82784 32998 01404 10252 20158 39697 40165 333 20196 58002;EQDQ01  00002PRCP99
0167827840999992000070718004-07310-039300FM-12+040999999V0201401N001510120019N0200001N1+03001+01451101211ADDAA199000091GF106991061021012501001001MA1999999096551MD1999999+0011REMSYN070AAXX  07184 82784 32698 61403 10300 20145 39655 40121 86200 333 58001;EQDQ01  00002PRCP99
0186827840999992000070800004-07310-039300FM-12+040999999V0201401N001510075019N0020001N1+02601+01481101441ADDAA199000091GF108991081051008001999999KA1240M+03141MA1999999096771MD1999999-0031REMSYN076AAXX  08004 82784 32595 81403 10260 20148 39677 40144 885// 333 10314 59003;EQDQ01  00002PRCP99
0186827840999992000070812004-07310-039300FM-12+040999999V0200901N002619999999N0200001N1+02561+01441101591ADDAA199000091GF108991081001022501001011KA1240N+02121MA1999999096921MD1999999-0051REMSYN076AAXX  08124 82784 32898 80905 10256 20144 39692 40159 88001 333 20212 59005;EQDQ01  00002PRCP99
0167827840999992000070818004-07310-039300FM-12+040999999V0201401N003110150019N0200001N1+03001+01641101281ADDAA199000091GF108991081081012501999999MA1999999096541MD1999999-0011REMSYN070AAXX  08184 82784 32698 81406 10300 20164 39654 40128 888// 333 59001;EQDQ01  00002PRCP99
0186827840999992000070900004-07310-039300FM-12+040999999V0200901N002612200019N0020001N1+02451+01741101461ADDAA199000091GF101991011081008001001001KA1240M+03041MA1999999096791MD1999999+0021REMSYN076AAXX  09004 82784 32595 10905 10245 20174 39679 40146 81800 333 10304 58002;EQDQ01  00002PRCP99
0186827840999992000070912004-07310-039300FM-12+040999999V0201401N004112200019N0200001N1+02401+01731101661ADDAA199000091GF104991041081008001001001KA1240N+02131MA1999999096971MD1999999+0051REMSYN076AAXX  09124 82784 32598 41408 10240 20173 39697 40166 84800 333 20213 58005;EQDQ01  00002PRCP99
0167827840999992000070918004-07310-039300FM-12+040999999V0201401N002110120019N0200001N1+02941+01551101271ADDAA199000091GF107991071021012501001001MA1999999096611MD1999999+0071REMSYN070AAXX  09184 82784 32698 71404 10294 20155 39661 40127 87200 333 58007;EQDQ01  00002PRCP99
0186827840999992000071000004-07310-039300FM-12+040999999V0201401N001510075019N0020001N1+02541+01571101501ADDAA199000091GF108991081051008001999999KA1240M+03031MA1999999096821MD1999999+0021REMSYN076AAXX  10004 82784 32595 81403 10254 20157 39682 40150 885// 333 10303 58002;EQDQ01  00002PRCP99
0186827840999992000071012004-07310-039300FM-12+040999999V0201401N002612200019N0200001N1+02681+01731101541ADDAA199000091GF101991011011008001001001KA1240N+02091MA1999999096871MD1999999-0101REMSYN076AAXX  10124 82784 32598 11405 10268 20173 39687 40154 81100 333 20209 59010;EQDQ01  00002PRCP99
0167827840999992000071018004-07310-039300FM-12+040999999V0200901N002110150019N0200001N1+02901+01591101191ADDAA199000091GF108991081081012501999999MA1999999096541MD1999999-0071REMSYN070AAXX  10184 82784 32698 80904 10290 20159 39654 40119 888// 333 59007;EQDQ01  00002PRCP99
0186827840999992000071100004-07310-039300FM-12+040999999V0200901N002110075019N0020001N1+02541+01711101491ADDAA199000091GF108991081071008001999999KA1240M+03191MA1999999096831MD1999999+0011REMSYN076AAXX  11004 82784 32595 80904 10254 20171 39683 40149 887// 333 10319 58001;EQDQ01  00002PRCP99
0201827840999992000071112004-07310-039300FM-12+040999999V0201401N002110120019N0200001N1+02461+01971101691ADDAA124003091AY161061AY221061GF108991081081008001999999KA1240N+02111MA1999999097011MD1999999+0141MW1021REMSYN088AAXX  11124 82784 21598 81404 10246 20197 39701 40169 70262 888// 333 20211 58014 60034;
0167827840999992000071118004-07310-039300FM-12+040999999V0200501N002610150019N0200001N1+02721+01901101251ADDAA199000091GF108991081081012501999999MA1999999096581MD1999999+0041REMSYN070AAXX  11184 82784 32698 80505 10272 20190 39658 40125 888// 333 58004;EQDQ01  00002PRCP99
0186827840999992000071200004-07310-039300FM-12+040999999V0201401N003610075019N0020001N1+02541+01911101501ADDAA199000091GF107991071021008001001001KA1240M+02951MA1999999096831MD1999999+0001REMSYN076AAXX  12004 82784 32595 71407 10254 20191 39683 40150 87200 333 10295 58000;EQDQ01  00002PRCP99
0186827840999992000071212004-07310-039300FM-12+040999999V0201401N004610120019N0200001N1+02481+01901101761ADDAA199000091GF108991081081008001999999KA1240N+02251MA1999999097071MD1999999+0061REMSYN076AAXX  12124 82784 32598 81409 10248 20190 39707 40176 888// 333 20225 58006;EQDQ01  00002PRCP99
0167827840999992000071218004-07310-039300FM-12+040999999V0201401N002110120019N0200001N1+02881+01701101351ADDAA199000091GF107991061021012501001091MA1999999096691MD1999999+0111REMSYN070AAXX  12184 82784 32698 71404 10288 20170 39669 40135 86209 333 58011;EQDQ01  00002PRCP99
0196827840999992000071300004-07310-039300FM-12+040999999V0201401N002112200019N0020001N1+02121+01441101701ADDAA199000091GA1001+999999999GF100991001001999999001001KA1240M+02941MA1999999097001MD1999999+0171REMSYN070AAXX  13004 82784 32995 01404 10212 20144 39700 40170 333 10294 58017;EQDQ01  00002PRCP99
0186827840999992000071312004-07310-039300FM-12+040999999V0203601N001512200019N0200001N1+02481+01391101871ADDAA199000091GF101991011021008001001001KA1240N+01701MA1999999097161MD1999999+0091REMSYN076AAXX  13124 82784 32598 13603 10248 20139 39716 40187 81200 333 20170 58009;EQDQ01  00002PRCP99
0186827840999992000071412004-07310-039300FM-12+040999999V0200901N003110120019N0040001N1+02561+01801101771ADDAA199000091GF107991071081008001001001KA1240N+02081MA1999999097081MD1999999-0081REMSYN076AAXX  14124 82784 32596 70906 10256 20180 39708 40177 87800 333 20208 59008;EQDQ01  00002PRCP99
0167827840999992000071418004-07310-039300FM-12+040999999V0201401N003610450019N0200001N1+02891+01731101361ADDAA199000091GF105991041021012501031001MA1999999096691MD1999999-0021REMSYN070AAXX  14184 82784 32698 51407 10289 20173 39669 40136 84230 333 59002;EQDQ01  00002PRCP99
0186827840999992000071500004-07310-039300FM-12+040999999V0200901N000510120019N0020001N1+02261+01691101581ADDAA199000091GF108991081051012501999999KA1240M+02991MA1999999096891MD1999999-0031REMSYN076AAXX  15004 82784 32695 80901 10226 20169 39689 40158 885// 333 10299 59003;EQDQ01  00002PRCP99
0186827840999992000071512004-07310-039300FM-12+040999999V0201401N003112200019N0200001N1+02591+01691101701ADDAA199000091GF103991031021008001001001KA1240N+02021MA1999999097011MD1999999-0071REMSYN076AAXX  15124 82784 32598 31406 10259 20169 39701 40170 83200 333 20202 59007;EQDQ01  00002PRCP99
0167827840999992000071518004-07310-039300FM-12+040999999V0201401N003610120019N0200001N1+02981+01551101201ADDAA199000091GF106991061021012501001001MA1999999096551MD1999999-0141REMSYN070AAXX  15184 82784 32698 61407 10298 20155 39655 40120 86200 333 59014;EQDQ01  00002PRCP99
0196827840999992000071600004-07310-039300FM-12+040999999V0200901N001512200019N0020001N1+02401+01501101471ADDAA199000091GA1001+999999999GF100991001001999999001001KA1240M+03071MA1999999096801MD1999999-0091REMSYN070AAXX  16004 82784 32995 00903 10240 20150 39680 40147 333 10307 59009;EQDQ01  00002PRCP99
0196827840999992000071612004-07310-039300FM-12+040999999V0200501N001512200019N0200001N1+02621+01701101611ADDAA199000091GA1001+999999999GF100991001001999999001001KA1240N+01991MA1999999096931MD1999999-0081REMSYN070AAXX  16124 82784 32998 00503 10262 20170 39693 40161 333 20199 59008;EQDQ01  00002PRCP99
0167827840999992000071618004-07310-039300FM-12+040999999V0201801N003610120019N0200001N1+03301+01361101031ADDAA199000091GF105991051021012501001001MA1999999096401MD1999999-0151REMSYN070AAXX  16184 82784 32698 51807 10330 20136 39640 40103 85200 333 59015;EQDQ01  00002PRCP99
0196827840999992000071700004-07310-039300FM-12+040999999V0209999C000012200019N0020001N1+02191+01541101351ADDAA199000091GA1001+999999999GF100991001001999999001001KA1240M+03351MA1999999096671MD1999999-0131REMSYN070AAXX  17004 82784 32995 00000 10219 20154 39667 40135 333 10335 59013;EQDQ01  00002PRCP99
0186827840999992000071712004-07310-039300FM-12+040999999V0203201N001510120019N0200001N1+02501+01891101581ADDAA199000091GF108991081081008001999999KA1240N+01701MA1999999096891MD1999999-0041REMSYN076AAXX  17124 82784 32598 83203 10250 20189 39689 40158 888// 333 20170 59004;EQDQ01  00002PRCP99
0167827840999992000071718004-07310-039300FM-12+040999999V0201801N001012200019N0200001N1+03181+01731101091ADDAA199000091GF102991021021012501001001MA1999999096441MD1999999+0041REMSYN070AAXX  17184 82784 32698 21802 10318 20173 39644 40109 82200 333 58004;EQDQ01  00002PRCP99
0196827840999992000071800004-07310-039300FM-12+040999999V0209999C000012200019N0020001N1+02291+01731101341ADDAA199000091GA1001+999999999GF100991001001999999001001KA1240M+03351MA1999999096661MD1999999-0011REMSYN070AAXX  18004 82784 32995 00000 10229 20173 39666 40134 333 10335 59001;EQDQ01  00002PRCP99
0186827840999992000071812004-07310-039300FM-12+040999999V0200501N001012200019N0200001N1+02681+01991101581ADDAA199000091GF102991021021008001001001KA1240N+01961MA1999999096901MD1999999+0011REMSYN076AAXX  18124 82784 32598 20502 10268 20199 39690 40158 82200 333 20196 58001;EQDQ01  00002PRCP99
0183827840999992000071818004-07310-039300FM-12+040999999V0200901N002610120019N0200001N1+03341+01541101081ADDAA199000091GF108991999041012501071999MA1999999096451MD1999999+0011REMSYN070AAXX  18184 82784 32698 80905 10334 20154 39645 40108 8847/ 333 58001;EQDQ01+000082SCOTLCQ02  00002PRCP99
0186827840999992000071900004-07310-039300FM-12+040999999V0201401N002612200019N0020001N1+02681+01701101451ADDAA199000091GF103991031021008001001001KA1240M+03411MA1999999096801MD1999999+0141REMSYN076AAXX  19004 82784 32595 31405 10268 20170 39680 40145 83200 333 10341 58014;EQDQ01  00002PRCP99
0186827840999992000071912004-07310-039300FM-12+040999999V0200901N003112200019N0200001N1+02701+01631101591ADDAA199000091GF101991011011008001001001KA1240N+02121MA1999999096931MD1999999+0031REMSYN076AAXX  19124 82784 32598 10906 10270 20163 39693 40159 81100 333 20212 58003;EQDQ01  00002PRCP99
0167827840999992000071918004-07310-039300FM-12+040999999V0200901N002612200019N0200001N1+03171+01551101281ADDAA199000091GF105991011021012501061091MA1999999096521MD1999999+0041REMSYN070AAXX  19184 82784 32698 50905 10317 20155 39652 40128 81269 333 58004;EQDQ01  00002PRCP99
0202827840999992000072000004-07310-039300FM-12+040999999V0203601N001519999999N0020001N1+02491+99999101471ADDAA199000091GF108991999011008001001001KA1240M+03251MA1999999096811MD1999999+0011REMSYN076AAXX  20004 82784 32595 83603 10249 20287 39681 40147 82100 333 10325 58001;EQDQ01+000022SCOTLCQ02  00002PRCP99
0186827840999992000072012004-07310-039300FM-12+040999999V0201401N001010450019N0200001N1+02491+01941101641ADDAA199000091GF108991041081008001071999KA1240N+02181MA1999999096961MD1999999+0031REMSYN076AAXX  20124 82784 32598 81402 10249 20194 39696 40164 8487/ 333 20218 58003;EQDQ01  00002PRCP99
0167827840999992000072018004-07310-039300FM-12+040999999V0203601N002610150019N0200001N1+02891+01771101141ADDAA199000091GF108991081081012501999999MA1999999096491MD1999999-0061REMSYN070AAXX  20184 82784 32698 83605 10289 20177 39649 40114 888// 333 59006;EQDQ01  00002PRCP99
0186827840999992000072100004-07310-039300FM-12+040999999V0201801N001012200019N0020001N1+02201+01951101391ADDAA199000091GF103991031081008001001001KA1240M+03091MA1999999096711MD1999999-0101REMSYN076AAXX  21004 82784 32595 31802 10220 20195 39671 40139 83800 333 10309 59010;EQDQ01  00002PRCP99
0186827840999992000072112004-07310-039300FM-12+040999999V0201401N003112200019N0200001N1+02641+01911101541ADDAA199000091GF102991021081008001001001KA1240N+01971MA1999999096851MD1999999-0111REMSYN076AAXX  21124 82784 32598 21406 10264 20191 39685 40154 82800 333 20197 59011;EQDQ01  00002PRCP99
0167827840999992000072118004-07310-039300FM-12+040999999V0201401N002610120019N0200001N1+03051+01781101081ADDAA199000091GF108991061081008001051999MA1999999096431MD1999999-0061REMSYN070AAXX  21184 82784 32598 81405 10305 20178 39643 40108 8685/ 333 59006;EQDQ01  00002PRCP99
0186827840999992000072200004-07310-039300FM-12+040999999V0200901N002610075019N0020001N1+02361+01931101511ADDAA199000091GF108991081071008001999999KA1240M+03191MA1999999096841MD1999999+0111REMSYN076AAXX  22004 82784 32595 80905 10236 20193 39684 40151 887// 333 10319 58011;EQDQ01  00002PRCP99
0186827840999992000072212004-07310-039300FM-12+040999999V0201401N004610120019N0200001N1+02491+01801101601ADDAA199000091GF108991081081008001999999KA1240N+02201MA1999999096921MD1999999+0071REMSYN076AAXX  22124 82784 32598 81409 10249 20180 39692 40160 888// 333 20220 58007;EQDQ01  00002PRCP99
0167827840999992000072218004-07310-039300FM-12+040999999V0201401N002610120019N0200001N1+02911+01721101151ADDAA199000091GF108991081051012501999999MA1999999096501MD1999999+0071REMSYN070AAXX  22184 82784 32698 81405 10291 20172 39650 40115 885// 333 58007;EQDQ01  00002PRCP99
0202827840999992000072300004-07310-039300FM-12+040999999V0201401N001019999999N0020001N1+02601+01741101431ADDAA199000091GF108991999011008001001001KA1240M+02991MA1999999096761MD1999999-0081REMSYN076AAXX  23004 82784 32595 81402 10260 20174 39676 40143 82100 333 10299 59008;EQDQ01+000022SCOTLCQ02  00002PRCP99
0182827840999992000072312004-07310-039300FM-12+040999999V0200501N002112200019N0200001N1+02601+01321101591ADDAA199000091GA1001+999999999GF100991001001999999001001KA1240N+01601MA1999999096921REMSYN070AAXX  23124 82784 32998 00504 10260 20132 39692 40159 333 20160 50000;EQDQ01  00002PRCP99
0167827840999992000072318004-07310-039300FM-12+040999999V0201801N002612200019N0200001N1+03251+01311101071ADDAA199000091GF105991031021012501001011MA1999999096421MD1999999-0081REMSYN070AAXX  23184 82784 32698 51805 10325 20131 39642 40107 83201 333 59008;EQDQ01  00002PRCP99
0186827840999992000072400004-07310-039300FM-12+040999999V0201801N001510075019N0020001N1+02561+01501101441ADDAA199000091GF106991061021008001001001KA1240M+03351MA1999999096781MD1999999+0021REMSYN076AAXX  24004 82784 32595 61803 10256 20150 39678 40144 86200 333 10335 58002;EQDQ01  00002PRCP99
0196827840999992000072412004-07310-039300FM-12+040999999V0203601N001512200019N0200001N1+02651+01661101571ADDAA199000091GA1001+999999999GF100991001001999999001001KA1240N+02131MA1999999096901MD1999999-0021REMSYN070AAXX  24124 82784 32998 03603 10265 20166 39690 40157 333 20213 59002;EQDQ01  00002PRCP99
0167827840999992000072418004-07310-039300FM-12+040999999V0201401N002612200019N0200001N1+03361+01261101021ADDAA199000091GF103991031061012501001011MA1999999096401MD1999999-0021REMSYN070AAXX  24184 82784 32698 31405 10336 20126 39640 40102 83601 333 59002;EQDQ01  00002PRCP99
0196827840999992000072500004-07310-039300FM-12+040999999V0203201N001012200019N0020001N1+02221+01301101331ADDAA199000091GA1001+999999999GF100991001001999999001001KA1240M+03411MA1999999096661MD1999999-0111REMSYN070AAXX  25004 82784 32995 03202 10222 20130 39666 40133 333 10341 59011;EQDQ01  00002PRCP99
0186827840999992000072512004-07310-039300FM-12+040999999V0201801N003610450019N0200001N1+02621+01861101681ADDAA199000091GF108991021021008001051091KA1240N+01981MA1999999096991MD1999999+0091REMSYN076AAXX  25124 82784 32598 81807 10262 20186 39699 40168 82259 333 20198 58009;EQDQ01  00002PRCP99
0167827840999992000072518004-07310-039300FM-12+040999999V0201801N003112200019N0200001N1+03161+01711101191ADDAA199000091GF103991031021012501001001MA1999999096541MD1999999+0141REMSYN070AAXX  25184 82784 32698 31806 10316 20171 39654 40119 83200 333 58014;EQDQ01  00002PRCP99
0186827840999992000072600004-07310-039300FM-12+040999999V0201401N002112200019N0020001N1+02741+01511101481ADDAA199000091GF102991021011008001001001KA1240M+03231MA1999999096831MD1999999+0171REMSYN076AAXX  26004 82784 32595 21404 10274 20151 39683 40148 82100 333 10323 58017;EQDQ01  00002PRCP99
0186827840999992000072612004-07310-039300FM-12+040999999V0201401N002610075019N0200001N1+02481+01701101701ADDAA199000091GF108991081021008001999999KA1240N+02161MA1999999097031MD1999999+0041REMSYN076AAXX  26124 82784 32598 81405 10248 20170 39703 40170 882// 333 20216 58004;EQDQ01  00002PRCP99
0167827840999992000072618004-07310-039300FM-12+040999999V0201401N003612200019N0200001N1+03001+01781101211ADDAA199000091GF103991021021012501001091MA1999999096561MD1999999+0021REMSYN070AAXX  26184 82784 32698 31407 10300 20178 39656 40121 82209 333 58002;EQDQ01  00002PRCP99
0196827840999992000072700004-07310-039300FM-12+040999999V0201401N003112200019N0020001N1+02541+01781101431ADDAA199000091GA1001+999999999GF100991001001999999001001KA1240M+03201MA1999999096761MD1999999-0071REMSYN070AAXX  27004 82784 32995 01406 10254 20178 39676 40143 333 10320 59007;EQDQ01  00002PRCP99
0167827840999992000072718004-07310-039300FM-12+040999999V0201401N004610150019N0200001N1+02811+01751101251ADDAA199000091GF108991081081012501999999MA1999999096591MD1999999+0031REMSYN070AAXX  27184 82784 32698 81409 10281 20175 39659 40125 888// 333 58003;EQDQ01  00002PRCP99
0196827840999992000072800004-07310-039300FM-12+040999999V0201401N001512200019N0020001N1+02091+01641101551ADDAA199000091GA1001+999999999GF100991001001999999001001KA1240M+02871MA1999999096861MD1999999+0101REMSYN070AAXX  28004 82784 32995 01403 10209 20164 39686 40155 333 10287 58010;EQDQ01  00002PRCP99
0186827840999992000072812004-07310-039300FM-12+040999999V0201401N002112200019N0200001N1+02451+01661101761ADDAA199000091GF103991031021008001001001KA1240N+01881MA1999999097051MD1999999+0071REMSYN076AAXX  28124 82784 32598 31404 10245 20166 39705 40176 83200 333 20188 58007;EQDQ01  00002PRCP99
0167827840999992000072818004-07310-039300FM-12+040999999V0200901N004610120019N0200001N1+03101+01461101191ADDAA199000091GF107991071021012501001001MA1999999096541MD1999999-0051REMSYN070AAXX  28184 82784 32698 70909 10310 20146 39654 40119 87200 333 59005;EQDQ01  00002PRCP99
0196827840999992000072900004-07310-039300FM-12+040999999V0201401N002612200019N0020001N1+02491+01571101551ADDAA199000091GA1001+999999999GF100991001001999999001001KA1240M+03171MA1999999096871MD1999999+0011REMSYN070AAXX  29004 82784 32995 01405 10249 20157 39687 40155 333 10317 58001;EQDQ01  00002PRCP99
0186827840999992000072912004-07310-039300FM-12+040999999V0201401N005110075019N0200001N1+02361+01511101751ADDAA199000091GF108991081021008001999999KA1240N+02031MA1999999097061MD1999999+0011REMSYN076AAXX  29124 82784 32598 81410 10236 20151 39706 40175 882// 333 20203 58001;EQDQ01  00002PRCP99
0183827840999992000072918004-07310-039300FM-12+040999999V0201801N005119999999N0200001N1+02821+01441101261ADDAA199000091GF108991999021012501001001MA1999999096591MD1999999+0051REMSYN070AAXX  29184 82784 32698 81810 10282 20144 39659 40126 83200 333 58005;EQDQ01+000032SCOTLCQ02  00002PRCP99
0196827840999992000073000004-07310-039300FM-12+040999999V0201401N003112200019N0020001N1+02361+01471101491ADDAA199000091GA1001+999999999GF100991001001999999001001KA1240M+02851MA1999999096801MD1999999-0071REMSYN070AAXX  30004 82784 32995 01406 10236 20147 39680 40149 333 10285 59007;EQDQ01  00002PRCP99
0167827840999992000073018004-07310-039300FM-12+040999999V0200901N002610120019N0200001N1+03001+01531101191ADDAA199000091GF108991081081008001999999MA1999999096531MD1999999-0061REMSYN070AAXX  30184 82784 32598 80905 10300 20153 39653 40119 888// 333 59006;EQDQ01  00002PRCP99
0186827840999992000073100004-07310-039300FM-12+040999999V0201401N002610120019N0020001N1+02581+01521101441ADDAA199000091GF108991081081008001999999KA1240M+03111MA1999999096771MD1999999-0031REMSYN076AAXX  31004 82784 32595 81405 10258 20152 39677 40144 888// 333 10311 59003;EQDQ01  00002PRCP99
0186827840999992000073112004-07310-039300FM-12+040999999V0201401N003112200019N0200001N1+02621+01641101641ADDAA199000091GF102991021021008001001001KA1240N+02031MA1999999096971MD1999999+0011REMSYN076AAXX  31124 82784 32598 21406 10262 20164 39697 40164 82200 333 20203 58001;EQDQ01  00002PRCP99
0167827840999992000073118004-07310-039300FM-12+040999999V0201401N004110075019N0200001N1+02921+01741101211ADDAA199000091GF107991071021008001001001MA1999999096571MD1999999+0041REMSYN070AAXX  31184 82784 32598 71408 10292 20174 39657 40121 87200 333 58004;EQDQ01  00002PRCP99
0186827840999992000080100004-07310-039300FM-12+040999999V0200901N002610120019N0020001N1+02471+01731101521ADDAA199000091GF108991081081008001999999KA1240M+03051MA1999999096851MD1999999+0081REMSYN076AAXX  01004 82784 32595 80905 10247 20173 39685 40152 888// 333 10305 58008;EQDQ01  00002PRCP99
0214827840999992000080112004-07310-039300FM-12+040999999V0201401N003110120019N0040001N1+02361+01781101681ADDAA199000091AY121061AY221061GF107991061081008001031001KA1240N+02171MA1999999096991MD1999999+0021MW1151REMSYN082AAXX  01124 82784 31596 71406 10236 20178 39699 40168 71522 86830 333 20217 58002;EQDQ01  00002PRCP99
0167827840999992000080118004-07310-039300FM-12+040999999V0201401N003610075019N0200001N1+02821+01651101251ADDAA199000091GF108991081051008001999999MA1999999096591MD1999999+0021REMSYN070AAXX  01184 82784 32598 81407 10282 20165 39659 40125 885// 333 58002;EQDQ01  00002PRCP99
0186827840999992000080200004-07310-039300FM-12+040999999V0201401N003110120019N0020001N1+02301+01831101571ADDAA199000091GF108991081081008001999999KA1240M+02911MA1999999096881MD1999999+0031REMSYN076AAXX  02004 82784 32595 81406 10230 20183 39688 40157 888// 333 10291 58003;EQDQ01  00002PRCP99
0186827840999992000080212004-07310-039300FM-12+040999999V0201401N004110450019N0200001N1+02501+01721101751ADDAA199000091GF108991011011008001021999KA1240N+02181MA1999999097051MD1999999+0061REMSYN076AAXX  02124 82784 32598 81408 10250 20172 39705 40175 8112/ 333 20218 58006;EQDQ01  00002PRCP99
0167827840999992000080218004-07310-039300FM-12+040999999V0201401N002110120019N0200001N1+02901+01811101361ADDAA199000091GF108991061081008001011999MA1999999096701MD1999999+0111REMSYN070AAXX  02184 82784 32598 81404 10290 20181 39670 40136 8681/ 333 58011;EQDQ01  00002PRCP99
0202827840999992000080300004-07310-039300FM-12+040999999V0201401N002612200019N0020001N1+02441+01811101621ADDAA199000091GF101991999021008001001001KA1240M+03031MA1999999096941MD1999999+0061REMSYN076AAXX  03004 82784 32595 11405 10244 20181 39694 40162 83200 333 10303 58006;EQDQ01+000032SCOTLCQ02  00002PRCP99
0186827840999992000080312004-07310-039300FM-12+040999999V0200901N002610450019N0200001N1+02541+01651101781ADDAA199000091GF106991031081008001031001KA1240N+01861MA1999999097101MD1999999+0051REMSYN076AAXX  03124 82784 32598 60905 10254 20165 39710 40178 83830 333 20186 58005;EQDQ01  00002PRCP99
0167827840999992000080318004-07310-039300FM-12+040999999V0201401N002110075019N0200001N1+03051+01711101291ADDAA199000091GF106991061021008001001001MA1999999096641MD1999999-0061REMSYN070AAXX  03184 82784 32598 61404 10305 20171 39664 40129 86200 333 59006;EQDQ01  00002PRCP99
0186827840999992000080400004-07310-039300FM-12+040999999V0201401N001512200019N0020001N1+02541+01451101551ADDAA199000091GF102991021021008001001001KA1240M+03211MA1999999096881MD1999999-0061REMSYN076AAXX  04004 82784 32595 21403 10254 20145 39688 40155 82200 333 10321 59006;EQDQ01  00002PRCP99
0186827840999992000080412004-07310-039300FM-12+040999999V0201401N001512200019N0200001N1+02601+01761101681ADDAA199000091GF104991041021008001001001KA1240N+02121MA1999999097001MD1999999-0101REMSYN076AAXX  04124 82784 32598 41403 10260 20176 39700 40168 84200 333 20212 59010;EQDQ01  00002PRCP99
0167827840999992000080418004-07310-039300FM-12+040999999V0201801N001510120019N0200001N1+03181+01491101171ADDAA199000091GF106991061021012501001001MA1999999096541MD1999999-0101REMSYN070AAXX  04184 82784 32698 61803 10318 20149 39654 40117 86200 333 59010;EQDQ01  00002PRCP99
0186827840999992000080500004-07310-039300FM-12+040999999V0201401N001512200019N0020001N1+02481+01601101451ADDAA199000091GF102991021011008001001001KA1240M+03271MA1999999096781MD1999999-0101REMSYN076AAXX  05004 82784 32595 21403 10248 20160 39678 40145 82100 333 10327 59010;EQDQ01  00002PRCP99
0186827840999992000080512004-07310-039300FM-12+040999999V0201401N003610450019N0200001N1+02581+01941101731ADDAA199000091GF106991041021008001061001KA1240N+01971MA1999999097051MD1999999+0051REMSYN076AAXX  05124 82784 32598 61407 10258 20194 39705 40173 84260 333 20197 58005;EQDQ01  00002PRCP99
0167827840999992000080518004-07310-039300FM-12+040999999V0201401N003610075019N0200001N1+03121+01561101251ADDAA199000091GF106991061021008001001001MA1999999096601MD1999999+0061REMSYN070AAXX  05184 82784 32598 61407 10312 20156 39660 40125 86200 333 58006;EQDQ01  00002PRCP99
0196827840999992000080600004-07310-039300FM-12+040999999V0201401N004612200019N0020001N1+02641+01631101611ADDAA199000091GA1001+999999999GF100991001001999999001001KA1240M+03311MA1999999096801MD1999999+0021REMSYN070AAXX  06004 82784 32995 01409 10264 20163 39680 40161 333 10331 58002;EQDQ01  00002PRCP99
0186827840999992000080612004-07310-039300FM-12+040999999V0201401N003110075019N0200001N1+02471+01761101771ADDAA199000091GF108991081051008001999999KA1240N+02231MA1999999097091MD1999999+0041REMSYN076AAXX  06124 82784 32598 81406 10247 20176 39709 40177 885// 333 20223 58004;EQDQ01  00002PRCP99
0167827840999992000080618004-07310-039300FM-12+040999999V0201801N005110120019N0200001N1+02941+01791101351ADDAA199000091GF108991081021012501999999MA1999999096691MD1999999+0011REMSYN070AAXX  06184 82784 32698 81810 10294 20179 39669 40135 882// 333 58001;EQDQ01  00002PRCP99
0201827840999992000080700004-07310-039300FM-12+040999999V0200901N001510075019N0010001N1+02221+02011101741ADDAA106000591AY151061AY221061GF108991081071008001999999KA1240M+03051MA1999999097041MD1999999+0241MW1511REMSYN088AAXX  07004 82784 21594 80903 10222 20201 39704 40174 75152 887// 333 10305 58024 69941;
0201827840999992000080712004-07310-039300FM-12+040999999V0200901N003112200019N0200001N1+02601+01841101781ADDAA124002091AY161061AY251061GF103991031021008001001001KA1240N+02041MA1999999097081MD1999999-0011MW1011REMSYN088AAXX  07124 82784 21598 30906 10260 20184 39708 40178 70165 83200 333 20204 59001 60024;
0167827840999992000080718004-07310-039300FM-12+040999999V0201401N002110075019N0200001N1+03041+01641101291ADDAA199000091GF106991061021008001001001MA1999999096641MD1999999-0051REMSYN070AAXX  07184 82784 32598 61404 10304 20164 39664 40129 86200 333 59005;EQDQ01  00002PRCP99
0196827840999992000080800004-07310-039300FM-12+040999999V0201401N006212200019N0020001N1+02241+01731101561ADDAA199000091GA1001+999999999GF100991001001999999001001KA1240M+03151MA1999999096891MD1999999-0171REMSYN070AAXX  08004 82784 32995 01412 10224 20173 39689 40156 333 10315 59017;EQDQ01  00002PRCP99
0186827840999992000080812004-07310-039300FM-12+040999999V0201401N003112200019N0200001N1+02651+01751101721ADDAA199000091GF102991011011008001061001KA1240N+02011MA1999999097031MD1999999-0051REMSYN076AAXX  08124 82784 32598 21406 10265 20175 39703 40172 81160 333 20201 59005;EQDQ01  00002PRCP99
0167827840999992000080818004-07310-039300FM-12+040999999V0200901N002610150019N0200001N1+03061+01731101271ADDAA199000091GF108991081081012501999999MA1999999096631MD1999999-0011REMSYN070AAXX  08184 82784 32698 80905 10306 20173 39663 40127 888// 333 59001;EQDQ01  00002PRCP99
0201827840999992000080900004-07310-039300FM-12+040999999V0203201N000510075019N0020001N1+02131+01961101801ADDAA106002091AY101061AY201061GF108991081071008001999999KA1240M+03191MA1999999097101MD1999999+0211MW1211REMSYN088AAXX  09004 82784 21595 83201 10213 20196 39710 40180 72100 887// 333 10319 58021 60021;
0201827840999992000080912004-07310-039300FM-12+040999999V0203601N001510120019N0040001N1+02441+02091101861ADDAA124002091AY151061AY221061GF108991081081008001999999KA1240N+02021MA1999999097151MD1999999-0121MW1021REMSYN088AAXX  09124 82784 21596 83603 10244 20209 39715 40186 70252 888// 333 20202 59012 60024;
0182827840999992000080918004-07310-039300FM-12+040999999V0202701N002610120019N0200001N1+02741+02211101441ADDAA106009991AY161061AY221061GF105991051081008001001001MA1999999096761MD1999999+0131MW1021REMSYN082AAXX  09184 82784 21598 52705 10274 20221 39676 40144 70262 85800 333 58013 60101;
0173827840999992000081012004-07310-039300FM-12+040999999V0201401N002612200019N0200001N1+02701+01411101891ADDAA124009991GF101991011001017501011001KA1240N+02051MA1999999097201MD1999999+0051REMSYN082AAXX  10124 82784 22798 11405 10270 20141 39720 40189 81010 333 20205 58005 60104;
0167827840999992000081018004-07310-039300FM-12+040999999V0200901N002112200019N0200001N1+03221+01431101481ADDAA199000091GF101991011011012501001001MA1999999096821MD1999999+0061REMSYN070AAXX  10184 82784 32698 10904 10322 20143 39682 40148 81100 333 58006;EQDQ01  00002PRCP99
0196827840999992000081100004-07310-039300FM-12+040999999V0201401N001012200019N0020001N1+02461+01611101691ADDAA199000091GA1001+999999999GF100991001001999999001001KA1240M+03071MA1999999097021MD1999999-0061REMSYN070AAXX  11004 82784 32995 01402 10246 20161 39702 40169 333 10307 59006;EQDQ01  00002PRCP99
0186827840999992000081112004-07310-039300FM-12+040999999V0200901N004112200019N0200001N1+02671+01591101851ADDAA199000091GF101991011011008001001001KA1240N+01921MA1999999097161MD1999999-0041REMSYN076AAXX  11124 82784 32598 10908 10267 20159 39716 40185 81100 333 20192 59004;EQDQ01  00002PRCP99
0186827840999992000081200004-07310-039300FM-12+040999999V0201401N001512200019N0020001N1+02481+01701101591ADDAA199000091GF101991011011008001001001KA1240M+03251MA1999999096921MD1999999-0101REMSYN076AAXX  12004 82784 32595 11403 10248 20170 39692 40159 81100 333 10325 59010;EQDQ01  00002PRCP99
0186827840999992000081212004-07310-039300FM-12+040999999V0200501N001512200019N0200001N1+02561+01831101741ADDAA199000091GF102991021011008001001001KA1240N+01721MA1999999097051MD1999999-0111REMSYN076AAXX  12124 82784 32598 20503 10256 20183 39705 40174 82100 333 20172 59011;EQDQ01  00002PRCP99
0167827840999992000081218004-07310-039300FM-12+040999999V0200901N001512200019N0200001N1+03191+01531101161ADDAA199000091GF103991031021008001001001MA1999999096511MD1999999-0131REMSYN070AAXX  12184 82784 32598 30903 10319 20153 39651 40116 83200 333 59013;EQDQ01  00002PRCP99
0196827840999992000081300004-07310-039300FM-12+040999999V0209999C000012200019N0020001N1+02521+01631101501ADDAA199000091GA1001+999999999GF100991001001999999001001KA1240M+03351MA1999999096831MD1999999-0091REMSYN070AAXX  13004 82784 32595 00000 10252 20163 39683 40150 333 10335 59009;EQDQ01  00002PRCP99
0186827840999992000081312004-07310-039300FM-12+040999999V0200901N003112200019N0200001N1+02571+01591101811ADDAA199000091GF102991021021008001001001KA1240N+02001MA1999999097131MD1999999+0081REMSYN076AAXX  13124 82784 32598 20906 10257 20159 39713 40181 82200 333 20200 58008;EQDQ01  00002PRCP99
0177827840999992000081318004-07310-039300FM-12+040999999V0201401N004112200019N0200001N1+03201+01321101281ADDAA199000091GA1001+999999999GF100991001001999999001001MA1999999096641MD1999999+0131REMSYN064AAXX  13184 82784 32998 01408 10320 20132 39664 40128 333 58013;EQDQ01  00002PRCP99
0196827840999992000081400004-07310-039300FM-12+040999999V0201401N003112200019N0020001N1+02571+01381101691ADDAA199000091GA1001+999999999GF100991001001999999001001KA1240M+03271MA1999999097011MD1999999+0181REMSYN070AAXX  14004 82784 32995 01406 10257 20138 39701 40169 333 10327 58018;EQDQ01  00002PRCP99
0186827840999992000081412004-07310-039300FM-12+040999999V0201401N004610075019N0200001N1+02421+01841101911ADDAA199000091GF106991061021008001001001KA1240N+02201MA1999999097221MD1999999+0091REMSYN076AAXX  14124 82784 32598 61409 10242 20184 39722 40191 86200 333 20220 58009;EQDQ01  00002PRCP99
0167827840999992000081418004-07310-039300FM-12+040999999V0201401N005110120019N0200001N1+02741+01761101531ADDAA199000091GF108991081081008001999999MA1999999096861MD1999999+0221REMSYN070AAXX  14184 82784 32598 81410 10274 20176 39686 40153 888// 333 58022;EQDQ01  00002PRCP99
0186827840999992000081500004-07310-039300FM-12+040999999V0201401N004610075019N0020001N1+02461+01631101871ADDAA199000091GF108991081051008001999999KA1240M+02961MA1999999097171MD1999999+0161REMSYN076AAXX  15004 82784 32595 81409 10246 20163 39717 40187 885// 333 10296 58016;EQDQ01  00002PRCP99
0186827840999992000081512004-07310-039300FM-12+040999999V0201401N003612200019N0200001N1+02551+01571101931ADDAA199000091GF101991011011008001001001KA1240N+01961MA1999999097241MD1999999+0021REMSYN076AAXX  15124 82784 32598 11407 10255 20157 39724 40193 81100 333 20196 58002;EQDQ01  00002PRCP99
0167827840999992000081518004-07310-039300FM-12+040999999V0201801N003112200019N0200001N1+02981+01471101481ADDAA199000091GF102991021011008001011001MA1999999096811MD1999999-0051REMSYN070AAXX  15184 82784 32598 21806 10298 20147 39681 40148 82110 333 59005;EQDQ01  00002PRCP99
0186827840999992000081612004-07310-039300FM-12+040999999V0201401N003612200019N0200001N1+02441+01531101931ADDAA199000091GF102991021021008001001001KA1240N+01921MA1999999097221MD1999999-0021REMSYN076AAXX  16124 82784 32598 21407 10244 20153 39722 40193 82200 333 20192 59002;EQDQ01  00002PRCP99
0167827840999992000081618004-07310-039300FM-12+040999999V0201801N002612200019N0200001N1+02991+01471101401ADDAA199000091GF102991021011008001001001MA1999999096731MD1999999-0081REMSYN070AAXX  16184 82784 32598 21805 10299 20147 39673 40140 82100 333 59008;EQDQ01  00002PRCP99
0196827840999992000081700004-07310-039300FM-12+040999999V0201401N001012200019N0020001N1+02291+01301101711ADDAA199000091GA1001+999999999GF100991001001999999001001KA1240M+03031MA1999999096921MD1999999-0171REMSYN070AAXX  17004 82784 32995 01402 10229 20130 39692 40171 333 10303 59017;EQDQ01  00002PRCP99
0167827840999992000081718004-07310-039300FM-12+040999999V0201401N003112200019N0200001N1+03071+01341101311ADDAA199000091GF102991021011008001001001MA1999999096651MD1999999-0081REMSYN070AAXX  17184 82784 32598 21406 10307 20134 39665 40131 82100 333 59008;EQDQ01  00002PRCP99
0196827840999992000081800004-07310-039300FM-12+040999999V0201401N002612200019N0020001N1+02501+01161101551ADDAA199000091GA1001+999999999GF100991001001999999001001KA1240M+03171MA1999999096881MD1999999-0041REMSYN070AAXX  18004 82784 32995 01405 10250 20116 39688 40155 333 10317 59004;EQDQ01  00002PRCP99
0196827840999992000081812004-07310-039300FM-12+040999999V0201401N002612200019N0200001N1+02651+01581101751ADDAA199000091GA1001+999999999GF100991001001999999001001KA1240N+01801MA1999999097071MD1999999-0011REMSYN070AAXX  18124 82784 32998 01405 10265 20158 39707 40175 333 20180 59001;EQDQ01  00002PRCP99
0177827840999992000081818004-07310-039300FM-12+040999999V0203201N003112200019N0200001N1+03231+01281101241ADDAA199000091GA1001+999999999GF100991001001999999001001MA1999999096591MD1999999-0061REMSYN064AAXX  18184 82784 32998 03206 10323 20128 39659 40124 333 59006;EQDQ01  00002PRCP99
0228827840999992000081900004-07310-039300FM-12+040999999V0201401N001512200019N0500001N1+02501+01561101501ADDAA199000091GA1001+999999999GF100991001001999999001001KA1240M+03301MA1999999999999MD1999999-0041REMSYN070AAXX  19004 82784 32699 01403 10250 20156 30184 40150 333 10330 59004;EQDQ01+101843APOSP Q02  00002PRCP99Q03 101843APOSP 
0186827840999992000081912004-07310-039300FM-12+040999999V0201401N003110120019N0200001N1+02561+01751101781ADDAA199000091GF108991081081008001999999KA1240N+01901MA1999999097091MD1999999+0021REMSYN076AAXX  19124 82784 32598 81406 10256 20175 39709 40178 888// 333 20190 58002;EQDQ01  00002PRCP99
0167827840999992000081918004-07310-039300FM-12+040999999V0200501N002612200019N0200001N1+03101+01421101241ADDAA199000091GF103991031021012501001001MA1999999096591MD1999999+0001REMSYN070AAXX  19184 82784 32698 30505 10310 20142 39659 40124 83200 333 58000;EQDQ01  00002PRCP99
0196827840999992000082000004-07310-039300FM-12+040999999V0201401N002612200019N0020001N1+02501+01641101501ADDAA199000091GA1001+999999999GF100991001001999999001001KA1240M+03271MA1999999096831MD1999999-0011REMSYN070AAXX  20004 82784 32595 01405 10250 20164 39683 40150 333 10327 59001;EQDQ01  00002PRCP99
0186827840999992000082012004-07310-039300FM-12+040999999V0201401N003110075019N0200001N1+02741+01681101871ADDAA199000091GF106991061021008001001001KA1240N+02121MA1999999097181MD1999999+0091REMSYN076AAXX  20124 82784 32598 61406 10274 20168 39718 40187 86200 333 20212 58009;EQDQ01  00002PRCP99
0183827840999992000082018004-07310-039300FM-12+040999999V0201801N005112200019N0200001N1+03201+01551101291ADDAA199000091GF104991041021012501001001MA1999999101652MD1999999+0061REMSYN070AAXX  20184 82784 32698 41810 10320 20155 30165 40129 84200 333 58006;EQDQ01+101653APOSP Q02  00002PRCP99
0186827840999992000082112004-07310-039300FM-12+040999999V0201401N004612200019N0200001N1+02601+01541101881ADDAA199000091GF103991031021008001001001KA1240N+02221MA1999999097201MD1999999+0021REMSYN076AAXX  21124 82784 32598 31409 10260 20154 39720 40188 83200 333 20222 58002;EQDQ01  00002PRCP99
0167827840999992000082118004-07310-039300FM-12+040999999V0201401N005112200019N0200001N1+03121+01391101351ADDAA199000091GF104991041021008001001001MA1999999096701MD1999999+0051REMSYN070AAXX  21184 82784 32598 41410 10312 20139 39670 40135 84200 333 58005;EQDQ01  00002PRCP99
0196827840999992000082200004-07310-039300FM-12+040999999V0201401N003112200019N0200001N1+02621+01301101631ADDAA199000091GA1001+999999999GF100991001001999999001001KA1240M+03221MA1999999096961MD1999999+0011REMSYN070AAXX  22004 82784 32998 01406 10262 20130 39696 40163 333 10322 58001;EQDQ01  00002PRCP99
0186827840999992000082212004-07310-039300FM-12+040999999V0201401N003612200019N0200001N1+02601+01631101741ADDAA199000091GF101991011001017501011001KA1240N+02051MA1999999097061MD1999999-0141REMSYN076AAXX  22124 82784 32798 11407 10260 20163 39706 40174 81010 333 20205 59014;EQDQ01  00002PRCP99
0167827840999992000082218004-07310-039300FM-12+040999999V0200901N003110120019N0200001N1+03161+01431101221ADDAA199000091GF106991051021012501001021MA1999999096581MD1999999-0121REMSYN070AAXX  22184 82784 32698 60906 10316 20143 39658 40122 85202 333 59012;EQDQ01  00002PRCP99
0196827840999992000082300004-07310-039300FM-12+040999999V0201801N003612200019N0020001N1+02611+01411101441ADDAA199000091GA1001+999999999GF100991001001999999001001KA1240M+03281MA1999999096781MD1999999-0181REMSYN070AAXX  23004 82784 32995 01807 10261 20141 39678 40144 333 10328 59018;EQDQ01  00002PRCP99
0186827840999992000082312004-07310-039300FM-12+040999999V0201401N003110120019N0200001N1+02521+01691101791ADDAA199000091GF108991081081008001999999KA1240N+01941MA1999999097101MD1999999+0041REMSYN076AAXX  23124 82784 32598 81406 10252 20169 39710 40179 888// 333 20194 58004;EQDQ01  00002PRCP99
0167827840999992000082318004-07310-039300FM-12+040999999V0201801N001512200019N0200001N1+03321+01221101201ADDAA199000091GF103991021011008001001011MA1999999096561MD1999999-0021REMSYN070AAXX  23184 82784 32598 31803 10332 20122 39656 40120 82101 333 59002;EQDQ01  00002PRCP99
0196827840999992000082400004-07310-039300FM-12+040999999V0201801N004612200019N0020001N1+02621+01191101421ADDAA199000091GA1001+999999999GF100991001001999999001001KA1240M+03351MA1999999096751MD1999999-0031REMSYN070AAXX  24004 82784 32995 01809 10262 20119 39675 40142 333 10335 59003;EQDQ01  00002PRCP99
0186827840999992000082412004-07310-039300FM-12+040999999V0200901N003612200019N0200001N1+02741+01611101721ADDAA199000091GF102991011011008001061001KA1240N+02271MA1999999097051MD1999999-0031REMSYN076AAXX  24124 82784 32598 20907 10274 20161 39705 40172 81160 333 20227 59003;EQDQ01  00002PRCP99
0167827840999992000082418004-07310-039300FM-12+040999999V0200901N002610075019N0200001N1+03231+01571101171ADDAA199000091GF106991061021008001001001MA1999999096541MD1999999-0021REMSYN070AAXX  24184 82784 32598 60905 10323 20157 39654 40117 86200 333 59002;EQDQ01  00002PRCP99
0202827840999992000082500004-07310-039300FM-12+040999999V0200901N001510075019N0020001N1+02761+01591101461ADDAA199000091GF107991999041008001001001KA1240M+03311MA1999999096811MD1999999+0061REMSYN076AAXX  25004 82784 32595 70903 10276 20159 39681 40146 85400 333 10331 58006;EQDQ01+000052SCOTLCQ02  00002PRCP99
0186827840999992000082512004-07310-039300FM-12+040999999V0200901N004610075019N0200001N1+02761+01771101751ADDAA199000091GF106991061021008001001001KA1240N+02281MA1999999097091MD1999999+0041REMSYN076AAXX  25124 82784 32598 60909 10276 20177 39709 40175 86200 333 20228 58004;EQDQ01  00002PRCP99
0167827840999992000082518004-07310-039300FM-12+040999999V0201401N002612200019N0200001N1+03381+01431101131ADDAA199000091GF104991041021008001001001MA1999999096511MD1999999-0031REMSYN070AAXX  25184 82784 32598 41405 10338 20143 39651 40113 84200 333 59003;EQDQ01  00002PRCP99
0186827840999992000082600004-07310-039300FM-12+040999999V0201401N000510075019N0020001N1+02841+01531101381ADDAA199000091GF108991081021008001999999KA1240M+03461MA1999999096741MD1999999-0071REMSYN076AAXX  26004 82784 32595 81401 10284 20153 39674 40138 882// 333 10346 59007;EQDQ01  00002PRCP99
0186827840999992000082612004-07310-039300FM-12+040999999V0200901N003110075019N0200001N1+02521+01791101631ADDAA199000091GF107991071051008001001001KA1240N+01901MA1999999096971MD1999999-0121REMSYN076AAXX  26124 82784 32598 70906 10252 20179 39697 40163 87500 333 20190 59012;EQDQ01  00002PRCP99
0183827840999992000082618004-07310-039300FM-12+040999999V0200901N002112200019N0200001N1+03181+01611101021ADDAA199000091GF103991999011008001001001MA1999999096391MD1999999-0121REMSYN070AAXX  26184 82784 32598 30904 10318 20161 39639 40102 82100 333 59012;EQDQ01+000022SCOTLCQ02  00002PRCP99
0196827840999992000082700004-07310-039300FM-12+040999999V0200901N002112200019N0020001N1+02641+01171101361ADDAA199000091GA1001+999999999GF100991001001999999001001KA1240M+03271MA1999999096701MD1999999-0041REMSYN070AAXX  27004 82784 32995 00904 10264 20117 39670 40136 333 10327 59004;EQDQ01  00002PRCP99
0196827840999992000082712004-07310-039300FM-12+040999999V0201401N003112200019N0200001N1+02661+01121101541ADDAA199000091GA1001+999999999GF100991001001999999001001KA1240N+01671MA1999999096881MD1999999-0091REMSYN070AAXX  27124 82784 32998 01406 10266 20112 39688 40154 333 20167 59009;EQDQ01  00002PRCP99
0177827840999992000082718004-07310-039300FM-12+040999999V0200901N002112200019N0200001N1+03321+00931100851ADDAA199000091GA1001+999999999GF100991001001999999001001MA1999999096231MD1999999-0161REMSYN064AAXX  27184 82784 32998 00904 10332 20093 39623 40085 333 59016;EQDQ01  00002PRCP99
0196827840999992000082800004-07310-039300FM-12+040999999V0202701N000512200019N0020001N1+02341+01011101161ADDAA199000091GA1001+999999999GF100991001001999999001001KA1240M+03411MA1999999096501MD1999999-0201REMSYN070AAXX  28004 82784 32995 02701 10234 20101 39650 40116 333 10341 59020;EQDQ01  00002PRCP99
0186827840999992000082812004-07310-039300FM-12+040999999V0200501N002112200019N0200001N1+02701+01721101451ADDAA199000091GF104991041021008001001001KA1240N+01821MA1999999096781MD1999999-0101REMSYN076AAXX  28124 82784 32598 40504 10270 20172 39678 40145 84200 333 20182 59010;EQDQ01  00002PRCP99
0202827840999992000082900004-07310-039300FM-12+040999999V0200501N001512200019N0020001N1+02591+01401101171ADDAA199000091GF101991999011008001001001KA1240M+03501MA1999999096531MD1999999+0031REMSYN076AAXX  29004 82784 32595 10503 10259 20140 39653 40117 82100 333 10350 58003;EQDQ01+000022SCOTLCQ02  00002PRCP99
0195827840999992000082912004-07310-039300FM-12+040999999V0200901N000519999999N0200001N1+02741+01951101571ADDAA124000591AY151061AY211061GF106991999999999999999999KA1240N+02041MA1999999096911MD1999999+0131MW1021REMSYN082AAXX  29124 82784 21998 60901 10274 20195 39691 40157 70251 333 20204 58013 69944;
0167827840999992000082918004-07310-039300FM-12+040999999V0201401N002112200019N0200001N1+03571+00921100921ADDAA199000091GF102991021021008001001011MA1999999096321MD1999999+0071REMSYN070AAXX  29184 82784 32598 21404 10357 20092 39632 40092 82201 333 58007;EQDQ01  00002PRCP99
0196827840999992000083000004-07310-039300FM-12+040999999V0202301N000512200019N0020001N1+02481+01271101331ADDAA199000091GA1001+999999999GF100991001001999999001001KA1240M+03711MA1999999096661MD1999999+0131REMSYN070AAXX  30004 82784 32995 02301 10248 20127 39666 40133 333 10371 58013;EQDQ01  00002PRCP99
0186827840999992000083012004-07310-039300FM-12+040999999V0201401N002110120019N0200001N1+02581+01821101711ADDAA199000091GF108991081081008001999999KA1240N+02101MA1999999097031MD1999999+0121REMSYN076AAXX  30124 82784 32598 81404 10258 20182 39703 40171 888// 333 20210 58012;EQDQ01  00002PRCP99
0167827840999992000083018004-07310-039300FM-12+040999999V0201401N004612200019N0200001N1+03311+01361101091ADDAA199000091GF102991021021008001001001MA1999999096451MD1999999+0131REMSYN070AAXX  30184 82784 32598 21409 10331 20136 39645 40109 82200 333 58013;EQDQ01  00002PRCP99
0196827840999992000083100004-07310-039300FM-12+040999999V0200901N001512200019N0020001N1+02731+01241101361ADDAA199000091GA1001+999999999GF100991001001999999001001KA1240M+03391MA1999999096711MD1999999+0051REMSYN070AAXX  31004 82784 32995 00903 10273 20124 39671 40136 333 10339 58005;EQDQ01  00002PRCP99
0186827840999992000083112004-07310-039300FM-12+040999999V0201401N003612200019N0200001N1+02691+01391101571ADDAA199000091GF101991011011008001001001KA1240N+02081MA1999999096911MD1999999-0121REMSYN076AAXX  31124 82784 32598 11407 10269 20139 39691 40157 81100 333 20208 59012;EQDQ01  00002PRCP99
0167827840999992000083118004-07310-039300FM-12+040999999V0200901N003112200019N0200001N1+03351+01071101011ADDAA199000091GF104991021021008001001011MA1999999096391MD1999999-0061REMSYN070AAXX  31184 82784 32598 40906 10335 20107 39639 40101 82201 333 59006;EQDQ01  00002PRCP99
0196827840999992000090100004-07310-039300FM-12+040999999V0201801N001512200019N0020001N1+02741+01341101301ADDAA199000091GA1001+999999999GF100991001001999999001001KA1240M+03411MA1999999096651MD1999999-0061REMSYN070AAXX  01004 82784 32995 01803 10274 20134 39665 40130 333 10341 59006;EQDQ01  00002PRCP99
0196827840999992000090112004-07310-039300FM-12+040999999V0201401N002112200019N0200001N1+02761+01391101531ADDAA199000091GA1001+999999999GF100991001001999999001001KA1240N+02041MA1999999096881MD1999999-0031REMSYN070AAXX  01124 82784 32998 01404 10276 20139 39688 40153 333 20204 59003;EQDQ01  00002PRCP99
0167827840999992000090118004-07310-039300FM-12+040999999V0200901N002612200019N0200001N1+03311+01151100931ADDAA199000091GF104991041021008001001001MA1999999096311MD1999999-0081REMSYN070AAXX  01184 82784 32598 40905 10331 20115 39631 40093 84200 333 59008;EQDQ01  00002PRCP99
0186827840999992000090200004-07310-039300FM-12+040999999V0201401N002610120019N0020001N1+02601+01681101221ADDAA199000091GF108991081051012501999999KA1240M+03411MA1999999096581MD1999999-0071REMSYN076AAXX  02004 82784 32695 81405 10260 20168 39658 40122 885// 333 10341 59007;EQDQ01  00002PRCP99
0186827840999992000090212004-07310-039300FM-12+040999999V0200901N001510075019N0200001N1+02721+01621101491ADDAA199000091GF106991061021008001001001KA1240N+02231MA1999999096831MD1999999-0051REMSYN076AAXX  02124 82784 32598 60903 10272 20162 39683 40149 86200 333 20223 59005;EQDQ01  00002PRCP99
0167827840999992000090218004-07310-039300FM-12+040999999V0201401N002610075019N0200001N1+03191+01491100951ADDAA199000091GF106991061021008001001001MA1999999096331MD1999999+0021REMSYN070AAXX  02184 82784 32598 61405 10319 20149 39633 40095 86200 333 58002;EQDQ01  00002PRCP99
0186827840999992000090300004-07310-039300FM-12+040999999V0202301N000510075019N0020001N1+02421+01491101211ADDAA199000091GF106991061021008001001001KA1240M+03311MA1999999096551MD1999999-0031REMSYN076AAXX  03004 82784 32595 62301 10242 20149 39655 40121 86200 333 10331 59003;EQDQ01  00002PRCP99
0196827840999992000090312004-07310-039300FM-12+040999999V0200901N001512200019N0200001N1+02641+01661101471ADDAA199000091GA1001+999999999GF100991001001999999001001KA1240N+01781MA1999999096801MD1999999-0031REMSYN070AAXX  03124 82784 32998 00903 10264 20166 39680 40147 333 20178 59003;EQDQ01  00002PRCP99
0167827840999992000090318004-07310-039300FM-12+040999999V0201801N002612200019N0200001N1+03401+01291100881ADDAA199000091GF102991021021012501001001MA1999999096251MD1999999-0081REMSYN070AAXX  03184 82784 32698 21805 10340 20129 39625 40088 82200 333 59008;EQDQ01  00002PRCP99
0196827840999992000090400004-07310-039300FM-12+040999999V0201801N002112200019N0020001N1+02761+00941101191ADDAA199000091GA1001+999999999GF100991001001999999001001KA1240M+03511MA1999999096551MD1999999+0001REMSYN070AAXX  04004 82784 32995 01804 10276 20094 39655 40119 333 10351 59000;EQDQ01  00002PRCP99
0186827840999992000090412004-07310-039300FM-12+040999999V0200901N002612200019N0200001N1+02641+01661101591ADDAA199000091GF102991011011008001001011KA1240N+01731MA1999999096931MD1999999+0131REMSYN076AAXX  04124 82784 32598 20905 10264 20166 39693 40159 81101 333 20173 58013;EQDQ01  00002PRCP99
0167827840999992000090418004-07310-039300FM-12+040999999V0201401N002112200019N0200001N1+03381+01521100991ADDAA199000091GF102991021021008001001011MA1999999096361MD1999999+0111REMSYN070AAXX  04184 82784 32598 21404 10338 20152 39636 40099 82201 333 58011;EQDQ01  00002PRCP99
0196827840999992000090500004-07310-039300FM-12+040999999V0203201N000512200019N0020001N1+02671+01501101201ADDAA199000091GA1001+999999999GF100991001001999999001001KA1240M+03501MA1999999096551MD1999999+0001REMSYN070AAXX  05004 82784 32995 03201 10267 20150 39655 40120 333 10350 58000;EQDQ01  00002PRCP99
0186827840999992000090512004-07310-039300FM-12+040999999V0200901N003110120019N0200001N1+02601+01961101621ADDAA199000091GF108991081081008001999999KA1240N+02291MA1999999096951MD1999999+0021REMSYN076AAXX  05124 82784 32598 80906 10260 20196 39695 40162 888// 333 20229 58002;EQDQ01  00002PRCP99
0167827840999992000090518004-07310-039300FM-12+040999999V0203601N001510120019N0200001N1+03261+01641101031ADDAA199000091GF106991061021012501001001MA1999999096411MD1999999+0051REMSYN070AAXX  05184 82784 32698 63603 10326 20164 39641 40103 86200 333 58005;EQDQ01  00002PRCP99
0186827840999992000090600004-07310-039300FM-12+040999999V0201401N002110120019N0020001N1+02781+01701101241ADDAA199000091GF108991081081008001999999KA1240M+03351MA1999999096601MD1999999+0051REMSYN076AAXX  06004 82784 32595 81404 10278 20170 39660 40124 888// 333 10335 58005;EQDQ01  00002PRCP99
0201827840999992000090612004-07310-039300FM-12+040999999V0200501N001010042019N0002001N1+02161+02111101641ADDAA124003091AY161061AY251061GF108991081071004501999999KA1240N+02141MA1999999096951MD1999999+0001MW1441REMSYN088AAXX  06124 82784 21492 80502 10216 20211 39695 40164 74465 887// 333 20214 58000 60034;
0182827840999992000090618004-07310-039300FM-12+040999999V0200501N002112200019N0200001N1+02941+01941101041ADDAA106001091AY161061AY241061GF103991021021008001061001MA1999999096411MD1999999+0001MW1011REMSYN082AAXX  06184 82784 21598 30504 10294 20194 39641 40104 70164 82260 333 58000 60011;
0196827840999992000090700004-07310-039300FM-12+040999999V0209999C000012200019N0020001N1+02381+02091101221ADDAA199000091GA1001+999999999GF100991001001999999001001KA1240M+03071MA1999999096531MD1999999-0071REMSYN070AAXX  07004 82784 32995 00000 10238 20209 39653 40122 333 10307 59007;EQDQ01  00002PRCP99
0173827840999992000090712004-07310-039300FM-12+040999999V0200901N001510120019N0200001N1+02571+01971101471ADDAA124001091GF108991081081008001999999KA1240N+02161MA1999999096801MD1999999-0151REMSYN082AAXX  07124 82784 22598 80903 10257 20197 39680 40147 888// 333 20216 59015 60014;
0167827840999992000090718004-07310-039300FM-12+040999999V0200901N003110120019N0200001N1+03141+01621100891ADDAA199000091GF107991051021012501011001MA1999999096261MD1999999-0151REMSYN070AAXX  07184 82784 32698 70906 10314 20162 39626 40089 85210 333 59015;EQDQ01  00002PRCP99
0186827840999992000090800004-07310-039300FM-12+040999999V0201401N001512200019N0020001N1+02631+01631101131ADDAA199000091GF104991041021008001001001KA1240M+03231MA1999999096481MD1999999-0051REMSYN076AAXX  08004 82784 32595 41403 10263 20163 39648 40113 84200 333 10323 59005;EQDQ01  00002PRCP99
0167827840999992000090818004-07310-039300FM-12+040999999V0200901N002112200019N0200001N1+03181+01651100971ADDAA199000091GF102991021021008001001001MA1999999096351MD1999999+0091REMSYN070AAXX  08184 82784 32598 20904 10318 20165 39635 40097 82200 333 58009;EQDQ01  00002PRCP99
0186827840999992000090900004-07310-039300FM-12+040999999V0201401N003110150019N0020001N1+02681+01701101211ADDAA199000091GF106991061001017501031001KA1240M+03271MA1999999096551MD1999999+0071REMSYN076AAXX  09004 82784 32795 61406 10268 20170 39655 40121 86030 333 10327 58007;EQDQ01  00002PRCP99
0186827840999992000090912004-07310-039300FM-12+040999999V0201401N003110075019N0200001N1+02711+01731101561ADDAA199000091GF106991051021008001031001KA1240N+02181MA1999999096901MD1999999+0061REMSYN076AAXX  09124 82784 32598 61406 10271 20173 39690 40156 85230 333 20218 58006;EQDQ01  00002PRCP99
0186827840999992000091000004-07310-039300FM-12+040999999V0200901N001510075019N0020001N1+02801+01631101291ADDAA199000091GF108991081051008001999999KA1240M+03421MA1999999096651MD1999999+0101REMSYN076AAXX  10004 82784 32595 80903 10280 20163 39665 40129 885// 333 10342 58010;EQDQ01  00002PRCP99
0186827840999992000091012004-07310-039300FM-12+040999999V0201401N002610075019N0200001N1+02571+01801101571ADDAA199000091GF108991081051008001999999KA1240N+02321MA1999999096911MD1999999+0011REMSYN076AAXX  10124 82784 32598 81405 10257 20180 39691 40157 885// 333 20232 58001;EQDQ01  00002PRCP99
0167827840999992000091018004-07310-039300FM-12+040999999V0203601N003110120019N0040001N1+03281+01581100961ADDAA199000091GF107991071021012501001001MA1999999096341MD1999999-0031REMSYN070AAXX  10184 82784 32696 73606 10328 20158 39634 40096 87200 333 59003;EQDQ01  00002PRCP99
0186827840999992000091100004-07310-039300FM-12+040999999V0209999C000010075019N0020001N1+02601+01921101321ADDAA199000091GF108991081051008001999999KA1240M+03351MA1999999096661MD1999999+0011REMSYN076AAXX  11004 82784 32595 80000 10260 20192 39666 40132 885// 333 10335 58001;EQDQ01  00002PRCP99
0201827840999992000091112004-07310-039300FM-12+040999999V0200901N003110120019N0200001N1+02551+01951101541ADDAA124006191AY161061AY251061GF108991081081008001999999KA1240N+02171MA1999999096871MD1999999-0041MW1021REMSYN088AAXX  11124 82784 21598 80906 10255 20195 39687 40154 70265 888// 333 20217 59004 60064;
0167827840999992000091118004-07310-039300FM-12+040999999V0200501N001512200019N0200001N1+03201+01671100931ADDAA199000091GF104991041021008001001001MA1999999096301MD1999999-0041REMSYN070AAXX  11184 82784 32598 40503 10320 20167 39630 40093 84200 333 59004;EQDQ01  00002PRCP99
0186827840999992000091200004-07310-039300FM-12+040999999V0201401N003110075019N0020001N1+02621+01861101241ADDAA199000091GF107991071021008001001001KA1240M+03311MA1999999096591MD1999999-0071REMSYN076AAXX  12004 82784 32595 71406 10262 20186 39659 40124 87200 333 10331 59007;EQDQ01  00002PRCP99
0186827840999992000091212004-07310-039300FM-12+040999999V0200901N002610075019N0200001N1+02711+01861101501ADDAA199000091GF107991061021008001061001KA1240N+02281MA1999999096841MD1999999-0031REMSYN076AAXX  12124 82784 32598 70905 10271 20186 39684 40150 86260 333 20228 59003;EQDQ01  00002PRCP99
0167827840999992000091218004-07310-039300FM-12+040999999V0201401N002112200019N0200001N1+03371+01651100891ADDAA199000091GF104991041021008001001001MA1999999096281MD1999999-0021REMSYN070AAXX  12184 82784 32598 41404 10337 20165 39628 40089 84200 333 59002;EQDQ01  00002PRCP99
0201827840999992000091300004-07310-039300FM-12+040999999V0203601N001010075019N0010001N1+02181+02061101481ADDAA106002091AY161061AY221061GF108991081071008001999999KA1240M+03411MA1999999096801MD1999999+0211MW1611REMSYN088AAXX  13004 82784 21594 83602 10218 20206 39680 40148 76162 887// 333 10341 58021 60021;
0201827840999992000091312004-07310-039300FM-12+040999999V0200501N004612200019N0200001N1+02681+01861101671ADDAA124008991AY161061AY211061GF102991011011008001011001KA1240N+02161MA1999999096981MD1999999+0141MW1011REMSYN088AAXX  13124 82784 21598 20509 10268 20186 39698 40167 70161 81110 333 20216 58014 60094;
0167827840999992000091318004-07310-039300FM-12+040999999V0200901N002612200019N0200001N1+03341+01631101061ADDAA199000091GF103991031021008001001001MA1999999096431MD1999999+0151REMSYN070AAXX  13184 82784 32598 30905 10334 20163 39643 40106 83200 333 58015;EQDQ01  00002PRCP99
0186827840999992000091400004-07310-039300FM-12+040999999V0209999C000012200019N0020001N1+02661+01951101321ADDAA199000091GF101991011081008001001001KA1240M+03391MA1999999096671MD1999999-0131REMSYN076AAXX  14004 82784 32595 10000 10266 20195 39667 40132 81800 333 10339 59013;EQDQ01  00002PRCP99
0186827840999992000091412004-07310-039300FM-12+040999999V0200901N002110120019N0200001N1+02741+01841101701ADDAA199000091GF107991071081008001001001KA1240N+02211MA1999999097041MD1999999+0061REMSYN076AAXX  14124 82784 32598 70904 10274 20184 39704 40170 87800 333 20221 58006;EQDQ01  00002PRCP99
0167827840999992000091418004-07310-039300FM-12+040999999V0200901N003112200019N0200001N1+03281+01621101141ADDAA199000091GF104991031021008001011001MA1999999096511MD1999999+0081REMSYN070AAXX  14184 82784 32598 40906 10328 20162 39651 40114 83210 333 58008;EQDQ01  00002PRCP99
0201827840999992000091500004-07310-039300FM-12+040999999V0201401N002110075019N0010001N1+02331+02021101481ADDAA106000591AY121061AY221061GF108991081071008001999999KA1240M+03351MA1999999096811MD1999999+0141MW1511REMSYN088AAXX  15004 82784 21594 81404 10233 20202 39681 40148 75122 887// 333 10335 58014 69941;
0201827840999992000091512004-07310-039300FM-12+040999999V0200901N002610120019N0200001N1+02641+01881101721ADDAA124000591AY151061AY221061GF107991071081008001001001KA1240N+02121MA1999999097041MD1999999+0001MW1021REMSYN088AAXX  15124 82784 21598 70905 10264 20188 39704 40172 70252 87800 333 20212 58000 69954;
0167827840999992000091518004-07310-039300FM-12+040999999V0200501N003112200019N0200001N1+03241+01631101131ADDAA199000091GF102991021021012501001001MA1999999096491MD1999999-0021REMSYN070AAXX  15184 82784 32698 20506 10324 20163 39649 40113 82200 333 59002;EQDQ01  00002PRCP99
0202827840999992000091600004-07310-039300FM-12+040999999V0202701N000512200019N0020001N1+02481+01921101511ADDAA199000091GF102991999051008001999999KA1240M+03291MA1999999096841MD1999999+0031REMSYN076AAXX  16004 82784 32595 22701 10248 20192 39684 40151 885// 333 10329 58003;EQDQ01+000082SCOTLCQ02  00002PRCP99
0186827840999992000091612004-07310-039300FM-12+040999999V0201401N003610075019N0200001N1+02781+01761101671ADDAA199000091GF107991061021008001031001KA1240N+02151MA1999999097001MD1999999-0041REMSYN076AAXX  16124 82784 32598 71407 10278 20176 39700 40167 86230 333 20215 59004;EQDQ01  00002PRCP99
0167827840999992000091618004-07310-039300FM-12+040999999V0200901N003110075019N0200001N1+03331+01611101001ADDAA199000091GF106991061021008001001001MA1999999096371MD1999999-0121REMSYN070AAXX  16184 82784 32598 60906 10333 20161 39637 40100 86200 333 59012;EQDQ01  00002PRCP99
0186827840999992000091700004-07310-039300FM-12+040999999V0200901N001510075019N0020001N1+02561+01851101561ADDAA199000091GF108991081071008001999999KA1240M+03381MA1999999096901MD1999999+0061REMSYN076AAXX  17004 82784 32595 80903 10256 20185 39690 40156 887// 333 10338 58006;EQDQ01  00002PRCP99
0202827840999992000091712004-07310-039300FM-12+040999999V0200901N003610075019N0200001N1+02681+01971101631ADDAA199000091GF107991999021008001001001KA1240N+02361MA1999999096961MD1999999-0041REMSYN076AAXX  17124 82784 32598 70907 10268 20197 39696 40163 85200 333 20236 59004;EQDQ01+000052SCOTLCQ02  00002PRCP99
0167827840999992000091718004-07310-039300FM-12+040999999V0201401N001010120019N0200001N1+03121+01791101121ADDAA199000091GF105991051021012501001001MA1999999096491MD1999999+0121REMSYN070AAXX  17184 82784 32698 51402 10312 20179 39649 40112 85200 333 58012;EQDQ01  00002PRCP99
0186827840999992000091800004-07310-039300FM-12+040999999V0209999C000012200019N0020001N1+02341+01951101591ADDAA199000091GF104991041021008001001001KA1240M+03291MA1999999096911MD1999999+0011REMSYN076AAXX  18004 82784 32595 40000 10234 20195 39691 40159 84200 333 10329 58001;EQDQ01  00002PRCP99
0186827840999992000091812004-07310-039300FM-12+040999999V0201401N004110120019N0200001N1+02581+01821101741ADDAA199000091GF107991071081008001001001KA1240N+02141MA1999999097051MD1999999+0091REMSYN076AAXX  18124 82784 32598 71408 10258 20182 39705 40174 87800 333 20214 58009;EQDQ01  00002PRCP99
0167827840999992000091818004-07310-039300FM-12+040999999V0201401N006210120019N0200001N1+03041+01821101271ADDAA199000091GF105991051081008001001001MA1999999096621MD1999999+0131REMSYN070AAXX  18184 82784 32598 51412 10304 20182 39662 40127 85800 333 58013;EQDQ01  00002PRCP99
0186827840999992000091900004-07310-039300FM-12+040999999V0200901N003112200019N0020001N1+02621+01561101531ADDAA199000091GF104991041081008001001001KA1240M+03171MA1999999096861MD1999999-0051REMSYN076AAXX  19004 82784 32595 40906 10262 20156 39686 40153 84800 333 10317 59005;EQDQ01  00002PRCP99
0167827840999992000091918004-07310-039300FM-12+040999999V0201401N003610120019N0200001N1+03151+01221101221ADDAA199000091GF106991061021012501001001MA1999999096581MD1999999-0041REMSYN070AAXX  19184 82784 32698 61407 10315 20122 39658 40122 86200 333 59004;EQDQ01  00002PRCP99
0196827840999992000092000004-07310-039300FM-12+040999999V0201401N002612200019N0020001N1+02461+01681101431ADDAA199000091GA1001+999999999GF100991001001999999001001KA1240M+03281MA1999999096761MD1999999-0101REMSYN070AAXX  20004 82784 32995 01405 10246 20168 39676 40143 333 10328 59010;EQDQ01  00002PRCP99
0186827840999992000092012004-07310-039300FM-12+040999999V0201401N003110075019N0200001N1+02621+01671101701ADDAA199000091GF106991061021008001001001KA1240N+02121MA1999999097021MD1999999-0071REMSYN076AAXX  20124 82784 32598 61406 10262 20167 39702 40170 86200 333 20212 59007;EQDQ01  00002PRCP99
0167827840999992000092018004-07310-039300FM-12+040999999V0201401N003612200019N0200001N1+03171+01601101161ADDAA199000091GF102991021021008001001001MA1999999096521MD1999999-0061REMSYN070AAXX  20184 82784 32598 21407 10317 20160 39652 40116 82200 333 59006;EQDQ01  00002PRCP99
0196827840999992000092100004-07310-039300FM-12+040999999V0201401N001512200019N0020001N1+02561+01471101341ADDAA199000091GA1001+999999999GF100991001001999999001001KA1240M+03271MA1999999096681MD1999999-0081REMSYN070AAXX  21004 82784 32995 01403 10256 20147 39668 40134 333 10327 59008;EQDQ01  00002PRCP99
0186827840999992000092112004-07310-039300FM-12+040999999V0200901N004612200019N0200001N1+02601+01561101591ADDAA199000091GF101991011011008001001001KA1240N+02101MA1999999096921MD1999999-0101REMSYN076AAXX  21124 82784 32598 10909 10260 20156 39692 40159 81100 333 20210 59010;EQDQ01  00002PRCP99
0167827840999992000092118004-07310-039300FM-12+040999999V0201801N003110120019N0200001N1+03221+01391101051ADDAA199000091GF106991061021012501001001MA1999999096421MD1999999-0101REMSYN070AAXX  21184 82784 32698 61806 10322 20139 39642 40105 86200 333 59010;EQDQ01  00002PRCP99
0196827840999992000092212004-07310-039300FM-12+040999999V0201401N003612200019N0200001N1+02761+01461101661ADDAA199000091GA1001+999999999GF100991001001999999001001KA1240N+02071MA1999999097001MD1999999+0081REMSYN070AAXX  22124 82784 32998 01407 10276 20146 39700 40166 333 20207 58008;EQDQ01  00002PRCP99
0167827840999992000092218004-07310-039300FM-12+040999999V0201401N002112200019N0200001N1+03241+01211101161ADDAA199000091GF102991021021008001001001MA1999999096521MD1999999+0101REMSYN070AAXX  22184 82784 32598 21404 10324 20121 39652 40116 82200 333 58010;EQDQ01  00002PRCP99
0196827840999992000092300004-07310-039300FM-12+040999999V0200901N002112200019N0020001N1+02641+01541101411ADDAA199000091GA1001+999999999GF100991001001999999001001KA1240M+03411MA1999999096761MD1999999-0011REMSYN070AAXX  23004 82784 32995 00904 10264 20154 39676 40141 333 10341 59001;EQDQ01  00002PRCP99
0196827840999992000092312004-07310-039300FM-12+040999999V0200901N003112200019N0200001N1+02721+01491101551ADDAA199000091GA1001+999999999GF100991001001999999001001KA1240N+01821MA1999999096891MD1999999-0111REMSYN070AAXX  23124 82784 32998 00906 10272 20149 39689 40155 333 20182 59011;EQDQ01  00002PRCP99
0183827840999992000092318004-07310-039300FM-12+040999999V0200901N002612200019N0200001N1+03391+01331100951ADDAA199000091GF102991999021008001001001MA1999999096321MD1999999-0201REMSYN070AAXX  23184 82784 32598 20905 10339 20133 39632 40095 83200 333 59020;EQDQ01+000032SCOTLCQ02  00002PRCP99
0196827840999992000092400004-07310-039300FM-12+040999999V0201401N003112200019N0020001N1+02841+01311101261ADDAA199000091GA1001+999999999GF100991001001999999001001KA1240M+03411MA1999999096621MD1999999-0141REMSYN070AAXX  24004 82784 32995 01406 10284 20131 39662 40126 333 10341 59014;EQDQ01  00002PRCP99
0196827840999992000092412004-07310-039300FM-12+040999999V0200501N003112200019N0200001N1+02781+01411101501ADDAA199000091GA1001+999999999GF100991001001999999001001KA1240N+02041MA1999999096851MD1999999-0041REMSYN070AAXX  24124 82784 32998 00506 10278 20141 39685 40150 333 20204 59004;EQDQ01  00002PRCP99
0167827840999992000092418004-07310-039300FM-12+040999999V0202701N002110120019N0200001N1+03321+01281100881ADDAA199000091GF106991061021012501001001MA1999999096261MD1999999-0061REMSYN070AAXX  24184 82784 32698 62704 10332 20128 39626 40088 86200 333 59006;EQDQ01  00002PRCP99
0196827840999992000092500004-07310-039300FM-12+040999999V0201401N002112200019N0020001N1+02901+01241101231ADDAA199000091GA1001+999999999GF100991001001999999001001KA1240M+03471MA1999999096601MD1999999-0021REMSYN070AAXX  25004 82784 32995 01404 10290 20124 39660 40123 333 10347 59002;EQDQ01  00002PRCP99
0167827840999992000092518004-07310-039300FM-12+040999999V0201801N002612200019N0200001N1+03531+01161100981ADDAA199000091GF103991031021008001001001MA1999999096371MD1999999+0111REMSYN070AAXX  25184 82784 32598 31805 10353 20116 39637 40098 83200 333 58011;EQDQ01  00002PRCP99
0186827840999992000092600004-07310-039300FM-12+040999999V0201401N001510075019N0020001N1+02921+01461101321ADDAA199000091GF106991061061008001021001KA1240M+03591MA1999999096691MD1999999+0091REMSYN076AAXX  26004 82784 32595 61403 10292 20146 39669 40132 86620 333 10359 58009;EQDQ01  00002PRCP99
0186827840999992000092612004-07310-039300FM-12+040999999V0201401N002612200019N0200001N1+02801+01721101711ADDAA199000091GF101991011011008001001001KA1240N+02221MA1999999097061MD1999999+0171REMSYN076AAXX  26124 82784 32598 11405 10280 20172 39706 40171 81100 333 20222 58017;EQDQ01  00002PRCP99
0167827840999992000092618004-07310-039300FM-12+040999999V0200901N003112200019N0200001N1+03521+01161101131ADDAA199000091GF101991011011008001001001MA1999999096521MD1999999+0151REMSYN070AAXX  26184 82784 32598 10906 10352 20116 39652 40113 81100 333 58015;EQDQ01  00002PRCP99
0196827840999992000092700004-07310-039300FM-12+040999999V0200901N002612200019N0020001N1+02851+01501101411ADDAA199000091GA1001+999999999GF100991001001999999001001KA1240M+03571MA1999999096771MD1999999+0081REMSYN070AAXX  27004 82784 32995 00905 10285 20150 39677 40141 333 10357 58008;EQDQ01  00002PRCP99
0186827840999992000092712004-07310-039300FM-12+040999999V0200901N004112200019N0200001N1+02741+01611101741ADDAA199000091GF102991021021008001001001KA1240N+02171MA1999999097081MD1999999+0021REMSYN076AAXX  27124 82784 32598 20908 10274 20161 39708 40174 82200 333 20217 58002;EQDQ01  00002PRCP99
0167827840999992000092718004-07310-039300FM-12+040999999V0200901N002110450019N0200001N1+03401+01241101061ADDAA199000091GF105991041021008001011001MA1999999096441MD1999999-0081REMSYN070AAXX  27184 82784 32598 50904 10340 20124 39644 40106 84210 333 59008;EQDQ01  00002PRCP99
0196827840999992000092800004-07310-039300FM-12+040999999V0200901N002112200019N0020001N1+02741+01341101401ADDAA199000091GA1001+999999999GF100991001001999999001001KA1240M+03431MA1999999096751MD1999999-0021REMSYN070AAXX  28004 82784 32995 00904 10274 20134 39675 40140 333 10343 59002;EQDQ01  00002PRCP99
0186827840999992000092812004-07310-039300FM-12+040999999V0200901N003110120019N0200001N1+02611+01601101691ADDAA199000091GF108991081081008001999999KA1240N+02301MA1999999097031MD1999999-0051REMSYN076AAXX  28124 82784 32598 80906 10261 20160 39703 40169 888// 333 20230 59005;EQDQ01  00002PRCP99
0167827840999992000092818004-07310-039300FM-12+040999999V0200901N002612200019N0200001N1+03321+01331101101ADDAA199000091GF104991041021008001001001MA1999999096471MD1999999+0031REMSYN070AAXX  28184 82784 32598 40905 10332 20133 39647 40110 84200 333 58003;EQDQ01  00002PRCP99
0186827840999992000092900004-07310-039300FM-12+040999999V0201401N004110120019N0020001N1+02801+01691101431ADDAA199000091GF106991061081008001001001KA1240M+03361MA1999999096781MD1999999+0031REMSYN076AAXX  29004 82784 32595 61408 10280 20169 39678 40143 86800 333 10336 58003;EQDQ01  00002PRCP99
0201827840999992000092912004-07310-039300FM-12+040999999V0200901N002612200019N0200001N1+02731+01621101741ADDAA124000591AY151061AY211061GF104991041021008001001001KA1240N+02181MA1999999097081MD1999999+0051MW1021REMSYN088AAXX  29124 82784 21598 40905 10273 20162 39708 40174 70251 84200 333 20218 58005 69954;
0167827840999992000092918004-07310-039300FM-12+040999999V0200901N003112200019N0200001N1+03361+01141101091ADDAA199000091GF101991011011012501001001MA1999999096471MD1999999+0001REMSYN070AAXX  29184 82784 32698 10906 10336 20114 39647 40109 81100 333 58000;EQDQ01  00002PRCP99
0196827840999992000093000004-07310-039300FM-12+040999999V0200901N001512200019N0020001N1+02781+01551101421ADDAA199000091GA1001+999999999GF100991001001999999001001KA1240M+03431MA1999999096771MD1999999-0011REMSYN070AAXX  30004 82784 32995 00903 10278 20155 39677 40142 333 10343 59001;EQDQ01  00002PRCP99
0186827840999992000093012004-07310-039300FM-12+040999999V0200901N002110075019N0200001N1+02621+01641101751ADDAA199000091GF108991081051008001999999KA1240N+02281MA1999999097081MD1999999+0001REMSYN076AAXX  30124 82784 32598 80904 10262 20164 39708 40175 885// 333 20228 58000;EQDQ01  00002PRCP99
0167827840999992000093018004-07310-039300FM-12+040999999V0200901N002612200019N0200001N1+03241+01411101151ADDAA199000091GF104991041021008001001001MA1999999096521MD1999999+0051REMSYN070AAXX  30184 82784 32598 40905 10324 20141 39652 40115 84200 333 58005;EQDQ01  00002PRCP99
0186827840999992000100100004-07310-039300FM-12+040999999V0201401N002110075019N0020001N1+02771+01591101461ADDAA199000091GF108991081071008001999999KA1240M+03431MA1999999096811MD1999999+0041REMSYN076AAXX  01004 82784 32595 81404 10277 20159 39681 40146 887// 333 10343 58004;EQDQ01  00002PRCP99
0186827840999992000100112004-07310-039300FM-12+040999999V0201401N002112200019N0200001N1+02721+01771101771ADDAA199000091GF102991021011008001001001KA1240N+02191MA1999999097111MD1999999+0031REMSYN076AAXX  01124 82784 32598 21404 10272 20177 39711 40177 82100 333 20219 58003;EQDQ01  00002PRCP99
0152827840999992000100118004-07310-039300FM-12+040999999V0200901N003612200019N0200001N1+03401+00991101211ADDAA199000091GF101991999999012501999999MA1999999096581REMSYN069AAXX  01184 82784 32698 10907 10340 20099 39658 40121 8110 333 58006;EQDQ01  00002PRCP99
0186827840999992000100212004-07310-039300FM-12+040999999V0201401N003112200019N0200001N1+02801+01561101791ADDAA199000091GF102991011011008001001011KA1240N+02101MA1999999097111MD1999999+0001REMSYN076AAXX  02124 82784 32598 21406 10280 20156 39711 40179 81101 333 20210 58000;EQDQ01  00002PRCP99
0196827840999992000100300004-07310-039300FM-12+040999999V0201401N002112200019N0020001N1+02751+01301101391ADDAA199000091GA1001+999999999GF100991001001999999001001KA1240M+03491MA1999999096751MD1999999-0031REMSYN070AAXX  03004 82784 32995 01404 10275 20130 39675 40139 333 10349 59003;EQDQ01  00002PRCP99
0186827840999992000100312004-07310-039300FM-12+040999999V0200501N004112200019N0200001N1+02771+01591101541ADDAA199000091GF102991011001017501031021KA1240N+01991MA1999999096891MD1999999-0221REMSYN076AAXX  03124 82784 32798 20508 10277 20159 39689 40154 81032 333 20199 59022;EQDQ01  00002PRCP99
0167827840999992000100318004-07310-039300FM-12+040999999V0201401N002112200019N0200001N1+03481+01121100971ADDAA199000091GF101991011021012501001001MA1999999096361MD1999999-0121REMSYN070AAXX  03184 82784 32698 11404 10348 20112 39636 40097 81200 333 59012;EQDQ01  00002PRCP99
0202827840999992000100400004-07310-039300FM-12+040999999V0201801N002619999999N0020001N1+02861+01291101291ADDAA199000091GF108991999011008001001001KA1240M+03551MA1999999096671MD1999999-0101REMSYN076AAXX  04004 82784 32595 81805 10286 20129 39667 40129 82100 333 10355 59010;EQDQ01+000022SCOTLCQ02  00002PRCP99
0186827840999992000100412004-07310-039300FM-12+040999999V0200501N002612200019N0200001N1+02801+01661101611ADDAA199000091GF101991011011008001001001KA1240N+02041MA1999999096961MD1999999+0071REMSYN076AAXX  04124 82784 32598 10505 10280 20166 39696 40161 81100 333 20204 58007;EQDQ01  00002PRCP99
0167827840999992000100418004-07310-039300FM-12+040999999V0203201N002112200019N0200001N1+03491+01411100891ADDAA199000091GF104991031021008001011001MA1999999096281MD1999999-0081REMSYN070AAXX  04184 82784 32598 43204 10349 20141 39628 40089 83210 333 59008;EQDQ01  00002PRCP99
0196827840999992000100500004-07310-039300FM-12+040999999V0209999C000012200019N0020001N1+02641+01321101141ADDAA199000091GA1001+999999999GF100991001001999999001001KA1240M+03531MA1999999096501MD1999999-0151REMSYN070AAXX  05004 82784 32995 00000 10264 20132 39650 40114 333 10353 59015;EQDQ01  00002PRCP99
0186827840999992000100512004-07310-039300FM-12+040999999V0200501N002112200019N0200001N1+02801+01811101531ADDAA199000091GF104991041021008001001001KA1240N+02131MA1999999096871MD1999999-0091REMSYN076AAXX  05124 82784 32598 40504 10280 20181 39687 40153 84200 333 20213 59009;EQDQ01  00002PRCP99
0167827840999992000100518004-07310-039300FM-12+040999999V0200901N001512200019N0200001N1+03421+01251100931ADDAA199000091GF102991021021012501001001MA1999999096321MD1999999+0041REMSYN070AAXX  05184 82784 32698 20903 10342 20125 39632 40093 82200 333 58004;EQDQ01  00002PRCP99
0196827840999992000100600004-07310-039300FM-12+040999999V0201401N000512200019N0020001N1+02571+01281101151ADDAA199000091GA1001+999999999GF100991001001999999001001KA1240M+03491MA1999999096511MD1999999+0011REMSYN070AAXX  06004 82784 32995 01401 10257 20128 39651 40115 333 10349 58001;EQDQ01  00002PRCP99
0186827840999992000100612004-07310-039300FM-12+040999999V0203601N001512200019N0200001N1+02741+01781101451ADDAA199000091GF101991011011008001001001KA1240N+02131MA1999999096791MD1999999-0081REMSYN076AAXX  06124 82784 32598 13603 10274 20178 39679 40145 81100 333 20213 59008;EQDQ01  00002PRCP99
0167827840999992000100618004-07310-039300FM-12+040999999V0200501N003112200019N0200001N1+03461+01401100881ADDAA199000091GF103991031021008001001001MA1999999096261MD1999999-0061REMSYN070AAXX  06184 82784 32598 30506 10346 20140 39626 40088 83200 333 59006;EQDQ01  00002PRCP99
0186827840999992000100700004-07310-039300FM-12+040999999V0200901N000510075019N0020001N1+02661+01331101201ADDAA199000091GF107991071021008001001001KA1240M+03501MA1999999096561MD1999999+0051REMSYN076AAXX  07004 82784 32595 70901 10266 20133 39656 40120 87200 333 10350 58005;EQDQ01  00002PRCP99
0186827840999992000100712004-07310-039300FM-12+040999999V0200501N003112200019N0200001N1+02761+01621101621ADDAA199000091GF101991011011008001001001KA1240N+02241MA1999999096961MD1999999+0171REMSYN076AAXX  07124 82784 32598 10506 10276 20162 39696 40162 81100 333 20224 58017;EQDQ01  00002PRCP99
0167827840999992000100718004-07310-039300FM-12+040999999V0200901N003112200019N0200001N1+03461+01551101001ADDAA199000091GF103991031021008001001001MA1999999096381MD1999999+0121REMSYN070AAXX  07184 82784 32598 30906 10346 20155 39638 40100 83200 333 58012;EQDQ01  00002PRCP99
0202827840999992000100800004-07310-039300FM-12+040999999V0209999C000012200019N0020001N1+02821+01251101271ADDAA199000091GF101991999011008001001001KA1240M+03511MA1999999096641MD1999999+0081REMSYN076AAXX  08004 82784 32595 10000 10282 20125 39664 40127 82100 333 10351 58008;EQDQ01+000022SCOTLCQ02  00002PRCP99
0196827840999992000100812004-07310-039300FM-12+040999999V0200501N003112200019N0200001N1+02741+01571101691ADDAA199000091GA1001+999999999GF100991001001999999001001KA1240N+02031MA1999999097041MD1999999+0081REMSYN070AAXX  08124 82784 32998 00506 10274 20157 39704 40169 333 20203 58008;EQDQ01  00002PRCP99
0167827840999992000100818004-07310-039300FM-12+040999999V0200901N002112200019N0200001N1+03441+01091101051ADDAA199000091GF102991021021012501001001MA1999999096431MD1999999+0051REMSYN070AAXX  08184 82784 32698 20904 10344 20109 39643 40105 82200 333 58005;EQDQ01  00002PRCP99
0167827840999992000100918004-07310-039300FM-12+040999999V0201401N002110075019N0200001N1+03301+01501101151ADDAA199000091GF106991061021008001001001MA1999999096531MD1999999+0101REMSYN070AAXX  09184 82784 32598 61404 10330 20150 39653 40115 86200 333 58010;EQDQ01  00002PRCP99
0196827840999992000101000004-07310-039300FM-12+040999999V0201401N004112200019N0020001N1+02781+01551101421ADDAA199000091GA1001+999999999GF100991001001999999001001KA1240M+03391MA1999999096771MD1999999+0061REMSYN070AAXX  10004 82784 32995 01408 10278 20155 39677 40142 333 10339 58006;EQDQ01  00002PRCP99
0186827840999992000101012004-07310-039300FM-12+040999999V0200901N003112200019N0200001N1+02761+01531101511ADDAA199000091GF102991021021008001001001KA1240N+02071MA1999999096861MD1999999-0201REMSYN076AAXX  10124 82784 32598 20906 10276 20153 39686 40151 82200 333 20207 59020;EQDQ01  00002PRCP99
0183827840999992000101018004-07310-039300FM-12+040999999V0201401N004619999999N0200001N1+03381+01431100921ADDAA199000091GF106991999021012501001001MA1999999096301MD1999999-0231REMSYN070AAXX  10184 82784 32698 61409 10338 20143 39630 40092 88200 333 59023;EQDQ01+000082SCOTLCQ02  00002PRCP99
0196827840999992000101100004-07310-039300FM-12+040999999V0201401N003612200019N0020001N1+02861+01481101321ADDAA199000091GA1001+999999999GF100991001001999999001001KA1240M+03491MA1999999096681MD1999999-0051REMSYN070AAXX  11004 82784 32995 01407 10286 20148 39668 40132 333 10349 59005;EQDQ01  00002PRCP99
0186827840999992000101112004-07310-039300FM-12+040999999V0201401N004612200019N0200001N1+02831+01551101581ADDAA199000091GF101991011011008001001001KA1240N+02141MA1999999096941MD1999999+0081REMSYN076AAXX  11124 82784 32598 11409 10283 20155 39694 40158 81100 333 20214 58008;EQDQ01  00002PRCP99
0167827840999992000101118004-07310-039300FM-12+040999999V0200901N003110075019N0200001N1+03321+01521100991ADDAA199000091GF105991051021008001001001MA1999999096371MD1999999+0071REMSYN070AAXX  11184 82784 32598 50906 10332 20152 39637 40099 85200 333 58007;EQDQ01  00002PRCP99
0186827840999992000101200004-07310-039300FM-12+040999999V0201401N003110120019N0020001N1+02851+01731101401ADDAA199000091GF108991081081008001999999KA1240M+03421MA1999999096761MD1999999+0081REMSYN076AAXX  12004 82784 32595 81406 10285 20173 39676 40140 888// 333 10342 58008;EQDQ01  00002PRCP99
0156827840999992000101212004-07310-039300FM-12+040999999V0200901N005112200019N0200001N1+02881+01671999999ADDAA199000091GF103991999999008001999999KA1240N+02221REMSYN075AAXX  12124 82784 32598 30910 10288 20167 9695 40160 83200 333 20222 58001;EQDQ01  00002PRCP99
0167827840999992000101218004-07310-039300FM-12+040999999V0200501N003610075019N0200001N1+03411+01291101111ADDAA199000091GF105991051021008001001001MA1999999096491MD1999999+0121REMSYN070AAXX  12184 82784 32598 50507 10341 20129 39649 40111 85200 333 58012;EQDQ01  00002PRCP99
0186827840999992000101300004-07310-039300FM-12+040999999V0201401N000510120019N0020001N1+02761+01321101441ADDAA199000091GF108991081081008001999999KA1240M+03491MA1999999096801MD1999999+0041REMSYN076AAXX  13004 82784 32595 81401 10276 20132 39680 40144 888// 333 10349 58004;EQDQ01  00002PRCP99
0186827840999992000101312004-07310-039300FM-12+040999999V0200901N004612200019N0200001N1+02841+01501101781ADDAA199000091GF101991011011008001001001KA1240N+02081MA1999999097121MD1999999+0171REMSYN076AAXX  13124 82784 32598 10909 10284 20150 39712 40178 81100 333 20208 58017;EQDQ01  00002PRCP99
0167827840999992000101318004-07310-039300FM-12+040999999V0200901N002610120019N0200001N1+03461+01231101131ADDAA199000091GF106991061021012501001001MA1999999096511MD1999999+0021REMSYN070AAXX  13184 82784 32698 60905 10346 20123 39651 40113 86200 333 58002;EQDQ01  00002PRCP99
0186827840999992000101400004-07310-039300FM-12+040999999V0200501N001510075019N0020001N1+02861+01291101451ADDAA199000091GF108991081051008001999999KA1240M+03531MA1999999096811MD1999999+0011REMSYN076AAXX  14004 82784 32595 80503 10286 20129 39681 40145 885// 333 10353 58001;EQDQ01  00002PRCP99
0186827840999992000101412004-07310-039300FM-12+040999999V0200901N002112200019N0200001N1+02781+01551101681ADDAA199000091GF101991011011008001001001KA1240N+02131MA1999999097031MD1999999-0091REMSYN076AAXX  14124 82784 32598 10904 10278 20155 39703 40168 81100 333 20213 59009;EQDQ01  00002PRCP99
0167827840999992000101418004-07310-039300FM-12+040999999V0201401N003612200019N0200001N1+03441+01031101121ADDAA199000091GF101991011011008001001001MA1999999096501MD1999999-0011REMSYN070AAXX  14184 82784 32598 11407 10344 20103 39650 40112 81100 333 59001;EQDQ01  00002PRCP99
0196827840999992000101500004-07310-039300FM-12+040999999V0200501N002612200019N0020001N1+02841+01431101391ADDAA199000091GA1001+999999999GF100991001001999999001001KA1240M+03511MA1999999096751MD1999999-0061REMSYN070AAXX  15004 82784 32995 00505 10284 20143 39675 40139 333 10351 59006;EQDQ01  00002PRCP99
0196827840999992000101512004-07310-039300FM-12+040999999V0200901N003112200019N0200001N1+02801+01461101451ADDAA199000091GA1001+999999999GF100991001001999999001001KA1240N+02001MA1999999096951MD1999999-0081REMSYN070AAXX  15124 82784 32998 00906 10280 20146 39695 40145 333 20200 59008;EQDQ01  00002PRCP99
0177827840999992000101518004-07310-039300FM-12+040999999V0200501N002612200019N0200001N1+03441+01091100991ADDAA199000091GA1001+999999999GF100991001001999999001001MA1999999096371MD1999999-0131REMSYN064AAXX  15184 82784 32998 00505 10344 20109 39637 40099 333 59013;EQDQ01  00002PRCP99
0196827840999992000101600004-07310-039300FM-12+040999999V0201401N003612200019N0020001N1+02861+01211101281ADDAA199000091GA1001+999999999GF100991001001999999001001KA1240M+03551MA1999999096651MD1999999-0101REMSYN070AAXX  16004 82784 32995 01407 10286 20121 39665 40128 333 10355 59010;EQDQ01  00002PRCP99
0186827840999992000101612004-07310-039300FM-12+040999999V0200901N002610450019N0200001N1+02761+01721101711ADDAA199000091GF107991031021008001011001KA1240N+02291MA1999999097051MD1999999+0101REMSYN076AAXX  16124 82784 32598 70905 10276 20172 39705 40171 83210 333 20229 58010;EQDQ01  00002PRCP99
0167827840999992000101618004-07310-039300FM-12+040999999V0200901N002612200019N0200001N1+03321+01481101211ADDAA199000091GF104991031021008001011001MA1999999096581MD1999999+0211REMSYN070AAXX  16184 82784 32598 40905 10332 20148 39658 40121 83210 333 58021;EQDQ01  00002PRCP99
0196827840999992000101700004-07310-039300FM-12+040999999V0200901N001012200019N0020001N1+02661+01471101411ADDAA199000091GA1001+999999999GF100991001001999999001001KA1240M+03401MA1999999096761MD1999999+0111REMSYN070AAXX  17004 82784 32995 00902 10266 20147 39676 40141 333 10340 58011;EQDQ01  00002PRCP99
0186827840999992000101712004-07310-039300FM-12+040999999V0200901N003612200019N0200001N1+02831+01651101731ADDAA199000091GF103991031021008001001001KA1240N+02221MA1999999097071MD1999999+0021REMSYN076AAXX  17124 82784 32598 30907 10283 20165 39707 40173 83200 333 20222 58002;EQDQ01  00002PRCP99
0167827840999992000101718004-07310-039300FM-12+040999999V0201801N003612200019N0200001N1+03481+01301101201ADDAA199000091GF102991021021008001001001MA1999999096581MD1999999+0001REMSYN070AAXX  17184 82784 32598 21807 10348 20130 39658 40120 82200 333 58000;EQDQ01  00002PRCP99
0196827840999992000101800004-07310-039300FM-12+040999999V0201401N002612200019N0020001N1+02801+01201101461ADDAA199000091GA1001+999999999GF100991001001999999001001KA1240M+03541MA1999999096821MD1999999+0061REMSYN070AAXX  18004 82784 32995 01405 10280 20120 39682 40146 333 10354 58006;EQDQ01  00002PRCP99
0186827840999992000101812004-07310-039300FM-12+040999999V0201401N003610075019N0200001N1+02781+01661101821ADDAA199000091GF106991061021008001001001KA1240N+02301MA1999999098161MD1999999+0091REMSYN076AAXX  18124 82784 32598 61407 10278 20166 39816 40182 86200 333 20230 58009;EQDQ01  00002PRCP99
0183827840999992000101818004-07310-039300FM-12+040999999V0201401N004612200019N0020001N1+03451+01271101211ADDAA199000091GF101991011021012501001001MA1999999096592MD1999999+0011REMSYN070AAXX  18184 82784 32695 11409 10345 20127 39659 40121 81200 333 58001;EQDQ01+096593APOSP Q02  00002PRCP99
0196827840999992000101900004-07310-039300FM-12+040999999V0200501N001512200019N0020001N1+02671+01301101491ADDAA199000091GA1001+999999999GF100991001001999999001001KA1240M+03511MA1999999096841MD1999999+0021REMSYN070AAXX  19004 82784 32995 00503 10267 20130 39684 40149 333 10351 58002;EQDQ01  00002PRCP99
0186827840999992000101912004-07310-039300FM-12+040999999V0200901N003112200019N0200001N1+02711+01631101661ADDAA199000091GF102991021021008001001001KA1240N+02201MA1999999097001MD1999999-0161REMSYN076AAXX  19124 82784 32598 20906 10271 20163 39700 40166 82200 333 20220 59016;EQDQ01  00002PRCP99
0167827840999992000101918004-07310-039300FM-12+040999999V0201401N002612200019N0200001N1+03501+01261101031ADDAA199000091GF102991021011012501001001MA1999999096421MD1999999-0171REMSYN070AAXX  19184 82784 32698 21405 10350 20126 39642 40103 82100 333 59017;EQDQ01  00002PRCP99
0196827840999992000102000004-07310-039300FM-12+040999999V0201401N005112200019N0020001N1+03001+00841101251ADDAA199000091GA1001+999999999GF100991001001999999001001KA1240M+03591MA1999999096631MD1999999-0211REMSYN070AAXX  20004 82784 32995 01410 10300 20084 39663 40125 333 10359 59021;EQDQ01  00002PRCP99
0186827840999992000102012004-07310-039300FM-12+040999999V0202301N001510075019N0200001N1+02761+01831101501ADDAA199000091GF106991061021008001001001KA1240N+02421MA1999999096861MD1999999-0141REMSYN076AAXX  20124 82784 32598 62303 10276 20183 39686 40150 86200 333 20242 59014;EQDQ01  00002PRCP99
0167827840999992000102018004-07310-039300FM-12+040999999V0200901N002612200019N0200001N1+03441+01481100931ADDAA199000091GF103991031021008001001001MA1999999096331MD1999999-0091REMSYN070AAXX  20184 82784 32598 30905 10344 20148 39633 40093 83200 333 59009;EQDQ01  00002PRCP99
0186827840999992000102100004-07310-039300FM-12+040999999V0201401N001512200019N0020001N1+02961+01211101201ADDAA199000091GF101991011021008001001001KA1240M+03531MA1999999096571MD1999999-0061REMSYN076AAXX  21004 82784 32595 11403 10296 20121 39657 40120 81200 333 10353 59006;EQDQ01  00002PRCP99
0167827840999992000102118004-07310-039300FM-12+040999999V0201401N001012200019N0200001N1+03481+01521100751ADDAA199000091GF103991031021008001001001MA1999999096151MD1999999-0181REMSYN070AAXX  21184 82784 32598 31402 10348 20152 39615 40075 83200 333 59018;EQDQ01  00002PRCP99
0186827840999992000102200004-07310-039300FM-12+040999999V0201401N002610075019N0020001N1+02891+01531101161ADDAA199000091GF106991061021008001001001KA1240M+03571MA1999999096491MD1999999-0081REMSYN076AAXX  22004 82784 32595 61405 10289 20153 39649 40116 86200 333 10357 59008;EQDQ01  00002PRCP99
0186827840999992000102212004-07310-039300FM-12+040999999V0203601N002619999999N0200001N1+02601+01921101381ADDAA199000091GF108991021021008001999999KA1240N+02121MA1999999096741MD1999999+0011REMSYN076AAXX  22124 82784 32598 83605 10260 20192 39674 40138 822// 333 20212 58001;EQDQ01  00002PRCP99
0167827840999992000102218004-07310-039300FM-12+040999999V0201401N001512200019N0200001N1+03381+01751100831ADDAA199000091GF104991041021012501001001MA1999999096231MD1999999+0081REMSYN070AAXX  22184 82784 32698 41403 10338 20175 39623 40083 84200 333 58008;EQDQ01  00002PRCP99
0196827840999992000102300004-07310-039300FM-12+040999999V0201801N001012200019N0020001N1+02671+01621101151ADDAA199000091GA1001+999999999GF100991001001999999001001KA1240M+03501MA1999999096511MD1999999+0031REMSYN070AAXX  23004 82784 32995 01802 10267 20162 39651 40115 333 10350 58003;EQDQ01  00002PRCP99
0186827840999992000102312004-07310-039300FM-12+040999999V0201401N002610450019N0200001N1+02841+01671101491ADDAA199000091GF106991011021008001061011KA1240N+02261MA1999999096841MD1999999+0101REMSYN076AAXX  23124 82784 32598 61405 10284 20167 39684 40149 81261 333 20226 58010;EQDQ01  00002PRCP99
0183827840999992000102318004-07310-039300FM-12+040999999V0200501N002112200019N0200001N1+03441+01481100911ADDAA199000091GF104991999021008001001001MA1999999096301MD1999999+0071REMSYN070AAXX  23184 82784 32598 40504 10344 20148 39630 40091 83200 333 58007;EQDQ01+000032SCOTLCQ02  00002PRCP99
0186827840999992000102400004-07310-039300FM-12+040999999V0201401N001510120019N0020001N1+02891+01501101221ADDAA199000091GF107991071081008001001001KA1240M+03531MA1999999096591MD1999999+0081REMSYN076AAXX  24004 82784 32595 71403 10289 20150 39659 40122 87800 333 10353 58008;EQDQ01  00002PRCP99
0186827840999992000102412004-07310-039300FM-12+040999999V0200501N002612200019N0200001N1+02741+01611101421ADDAA199000091GF104991031021008001001011KA1240N+02221MA1999999096781MD1999999-0061REMSYN076AAXX  24124 82784 32598 40505 10274 20161 39678 40142 83201 333 20222 59006;EQDQ01  00002PRCP99
0168827840999992000102418004-07310-039300FM-12+040999999V0200501N001512200019N0200001N1+03381+02221100821ADDAA199000091GF103991031021012501001001MD1999999-0081REMSYN070AAXX  24184 82784 32698 30503 10338 20222 39322 40082 83200 333 59008;EQDQ01+093223APOSP Q02  00002PRCP99
0186827840999992000102500004-07310-039300FM-12+040999999V0209999C000010120019N0020001N1+02741+01391101141ADDAA199000091GF108991081081008001999999KA1240M+03491MA1999999096511MD1999999-0081REMSYN076AAXX  25004 82784 32595 80000 10274 20139 39651 40114 888// 333 10349 59008;EQDQ01  00002PRCP99
0196827840999992000102512004-07310-039300FM-12+040999999V0200501N003612200019N0200001N1+02871+01621101301ADDAA199000091GA1001+999999999GF100991001001999999001001KA1240N+02121MA1999999096671MD1999999-0111REMSYN070AAXX  25124 82784 32998 00507 10287 20162 39667 40130 333 20212 59011;EQDQ01  00002PRCP99
0167827840999992000102518004-07310-039300FM-12+040999999V0201401N003110075019N0200001N1+03381+01231100751ADDAA199000091GF108991081051008001999999MA1999999096151MD1999999-0071REMSYN070AAXX  25184 82784 32598 81406 10338 20123 39615 40075 885// 333 59007;EQDQ01  00002PRCP99
0196827840999992000102600004-07310-039300FM-12+040999999V0201401N002612200019N0020001N1+02901+01401101041ADDAA199000091GA1001+999999999GF100991001001999999001001KA1240M+03571MA1999999096431MD1999999-0081REMSYN070AAXX  26004 82784 32995 01405 10290 20140 39643 40104 333 10357 59008;EQDQ01  00002PRCP99
0186827840999992000102612004-07310-039300FM-12+040999999V0200901N004110075019N0200001N1+02801+01601101361ADDAA199000091GF105991051021008001001001KA1240N+02131MA1999999096731MD1999999+0061REMSYN076AAXX  26124 82784 32598 50908 10280 20160 39673 40136 85200 333 20213 58006;EQDQ01  00002PRCP99
0183827840999992000102618004-07310-039300FM-12+040999999V0200901N001519999999N0200001N1+03301+01361100851ADDAA199000091GF107991999021012501001001MA1999999096241MD1999999+0091REMSYN070AAXX  26184 82784 32698 70903 10330 20136 39624 40085 84200 333 58009;EQDQ01+000042SCOTLCQ02  00002PRCP99
0186827840999992000102700004-07310-039300FM-12+040999999V0200501N001012200019N0020001N1+02801+01311101171ADDAA199000091GF101991011021008001001001KA1240M+03401MA1999999096541MD1999999+0111REMSYN076AAXX  27004 82784 32595 10502 10280 20131 39654 40117 81200 333 10340 58011;EQDQ01  00002PRCP99
0183827840999992000102718004-07310-039300FM-12+040999999V0203601N001510075019N0200001N1+03281+01491101001ADDAA199000091GF108991999021008001001001MA1999999096381MD1999999+0141REMSYN070AAXX  27184 82784 32598 83603 10328 20149 39638 40100 86200 333 58014;EQDQ01+000062SCOTLCQ02  00002PRCP99
0186827840999992000102800004-07310-039300FM-12+040999999V0201401N002110075019N0020001N1+02861+01651101231ADDAA199000091GF108991081071008001999999KA1240M+03351MA1999999096601MD1999999+0061REMSYN076AAXX  28004 82784 32595 81404 10286 20165 39660 40123 887// 333 10335 58006;EQDQ01  00002PRCP99
0201827840999992000102812004-07310-039300FM-12+040999999V0200501N001510450019N0200001N1+02791+01961101481ADDAA124001091AY161061AY221061GF106991041021008001031001KA1240N+02221MA1999999096841MD1999999+0011MW1021REMSYN088AAXX  28124 82784 21598 60503 10279 20196 39684 40148 70262 84230 333 20222 58001 60014;
0167827840999992000102818004-07310-039300FM-12+040999999V0200901N001510120019N0200001N1+03271+01601100991ADDAA199000091GF107991071081008001001001MA1999999096371MD1999999-0011REMSYN070AAXX  28184 82784 32598 70903 10327 20160 39637 40099 87800 333 59001;EQDQ01  00002PRCP99
0196827840999992000102900004-07310-039300FM-12+040999999V0201801N000512200019N0020001N1+02681+01641101261ADDAA199000091GA1001+999999999GF100991001001999999001001KA1240M+03371MA1999999096621MD1999999+0021REMSYN070AAXX  29004 82784 32995 01801 10268 20164 39662 40126 333 10337 58002;EQDQ01  00002PRCP99
0186827840999992000102912004-07310-039300FM-12+040999999V0200901N003610075019N0200001N1+02721+01821101491ADDAA199000091GF108991081021008001999999KA1240N+02341MA1999999096841MD1999999+0001REMSYN076AAXX  29124 82784 32598 80907 10272 20182 39684 40149 882// 333 20234 58000;EQDQ01  00002PRCP99
0167827840999992000102918004-07310-039300FM-12+040999999V0200501N003110120019N0200001N1+03521+01391100841ADDAA199000091GF106991061021012501001001MA1999999096241MD1999999-0131REMSYN070AAXX  29184 82784 32698 60506 10352 20139 39624 40084 86200 333 59013;EQDQ01  00002PRCP99
0196827840999992000103000004-07310-039300FM-12+040999999V0209999C000012200019N0020001N1+02761+01391101151ADDAA199000091GA1001+999999999GF100991001001999999001001KA1240M+03631MA1999999096521MD1999999-0101REMSYN070AAXX  30004 82784 32995 00000 10276 20139 39652 40115 333 10363 59010;EQDQ01  00002PRCP99
0186827840999992000103012004-07310-039300FM-12+040999999V0200501N002610075019N0200001N1+02791+01791101481ADDAA199000091GF106991061021008001001001KA1240N+02401MA1999999096841MD1999999+0001REMSYN076AAXX  30124 82784 32598 60505 10279 20179 39684 40148 86200 333 20240 58000;EQDQ01  00002PRCP99
0167827840999992000103018004-07310-039300FM-12+040999999V0201401N002112200019N0200001N1+03501+01531100851ADDAA199000091GF103991031021008001001001MA1999999096251MD1999999+0011REMSYN070AAXX  30184 82784 32598 31404 10350 20153 39625 40085 83200 333 58001;EQDQ01  00002PRCP99
0186827840999992000103100004-07310-039300FM-12+040999999V0200901N000519999999N0020001N1+03001+01781101121ADDAA199000091GF108991021999008001999999KA1240M+03631MA1999999096501MD1999999-0021REMSYN076AAXX  31004 82784 32595 80901 10300 20178 39650 40112 82/// 333 10363 59002;EQDQ01  00002PRCP99
0186827840999992000103112004-07310-039300FM-12+040999999V0200901N002610120019N0200001N1+02821+01911101371ADDAA199000091GF108991081081008001999999KA1240N+02501MA1999999096741MD1999999-0101REMSYN076AAXX  31124 82784 32598 80905 10282 20191 39674 40137 888// 333 20250 59010;EQDQ01  00002PRCP99
0167827840999992000103118004-07310-039300FM-12+040999999V0202701N001012200019N0200001N1+03351+01651100821ADDAA199000091GF104991041021008001001001MA1999999096221MD1999999-0031REMSYN070AAXX  31184 82784 32598 42702 10335 20165 39622 40082 84200 333 59003;EQDQ01  00002PRCP99
0186827840999992000110100004-07310-039300FM-12+040999999V0200901N001010075019N0020001N1+03001+01571101031ADDAA199000091GF107991071021008001001001KA1240M+03491MA1999999096421MD1999999-0081REMSYN076AAXX  01004 82784 32595 70902 10300 20157 39642 40103 87200 333 10349 59008;EQDQ01  00002PRCP99
0186827840999992000110112004-07310-039300FM-12+040999999V0200901N002110120019N0200001N1+02781+01911101341ADDAA199000091GF107991071081008001001001KA1240N+02471MA1999999096711MD1999999-0031REMSYN076AAXX  01124 82784 32598 70904 10278 20191 39671 40134 87800 333 20247 59003;EQDQ01  00002PRCP99
0183827840999992000110118004-07310-039300FM-12+040999999V0201401N002612200019N0200001N1+03501+01381100691ADDAA199000091GF104991999021008001001001MA1999999096101MD1999999-0121REMSYN070AAXX  01184 82784 32598 41405 10350 20138 39610 40069 83200 333 59012;EQDQ01+000032SCOTLCQ02  00002PRCP99
0186827840999992000110200004-07310-039300FM-12+040999999V0209999C000010075019N0020001N1+02751+01481100921ADDAA199000091GF106991061021008001001001KA1240M+03561MA1999999096301MD1999999-0121REMSYN076AAXX  02004 82784 32595 60000 10275 20148 39630 40092 86200 333 10356 59012;EQDQ01  00002PRCP99
0186827840999992000110212004-07310-039300FM-12+040999999V0200901N002110120019N0200001N1+02721+01851101331ADDAA199000091GF108991081081008001999999KA1240N+02381MA1999999096691MD1999999-0021REMSYN076AAXX  02124 82784 32598 80904 10272 20185 39669 40133 888// 333 20238 59002;EQDQ01  00002PRCP99
0167827840999992000110218004-07310-039300FM-12+040999999V0203201N002110450019N0200001N1+03511+01381100651ADDAA199000091GF105991031021008001041001MA1999999096061MD1999999-0041REMSYN070AAXX  02184 82784 32598 53204 10351 20138 39606 40065 83240 333 59004;EQDQ01  00002PRCP99
0186827840999992000110300004-07310-039300FM-12+040999999V0201801N005110075019N0020001N1+02981+01661100891ADDAA199000091GF108991081051008001999999KA1240M+03601MA1999999096281MD1999999-0021REMSYN076AAXX  03004 82784 32595 81810 10298 20166 39628 40089 885// 333 10360 59002;EQDQ01  00002PRCP99
0201827840999992000110312004-07310-039300FM-12+040999999V0201401N002110075019N0200001N1+02541+02111101161ADDAA124001091AY161061AY251061GF108991081051008001999999KA1240N+02261MA1999999096531MD1999999-0161MW1021REMSYN088AAXX  03124 82784 21598 81404 10254 20211 39653 40116 70265 885// 333 20226 59016 60014;
0183827840999992000110318004-07310-039300FM-12+040999999V0200901N002619999999N0200001N1+03341+01671100511ADDAA199000091GF105991999021008001001001MA1999999095921MD1999999-0141REMSYN070AAXX  03184 82784 32598 50905 10334 20167 39592 40051 84200 333 59014;EQDQ01+000042SCOTLCQ02  00002PRCP99
0186827840999992000110400004-07310-039300FM-12+040999999V0201401N001510120019N0020001N1+02861+01811100771ADDAA199000091GF108991081081008001999999KA1240M+03451MA1999999096151MD1999999-0131REMSYN076AAXX  04004 82784 32595 81403 10286 20181 39615 40077 888// 333 10345 59013;EQDQ01  00002PRCP99
0201827840999992000110412004-07310-039300FM-12+040999999V0200501N002110075019N0040001N1+02521+02001101071ADDAA124003091AY161061AY251061GF108991081071008001999999KA1240N+02281MA1999999096441MD1999999-0091MW1021REMSYN088AAXX  04124 82784 21596 80504 10252 20200 39644 40107 70265 887// 333 20228 59009 60034;
0186827840999992000110500004-07310-039300FM-12+040999999V0203201N000510075019N0020001N1+02811+02061100761ADDAA199000091GF108991081071008001999999KA1240M+03391MA1999999096141MD1999999-0011REMSYN076AAXX  05004 82784 32595 83201 10281 20206 39614 40076 887// 333 10339 59001;EQDQ01  00002PRCP99
0186827840999992000110512004-07310-039300FM-12+040999999V0203601N004610120019N0200001N1+02731+01681101171ADDAA199000091GF108991081081008001999999KA1240N+02331MA1999999096541MD1999999+0101REMSYN076AAXX  05124 82784 32598 83609 10273 20168 39654 40117 888// 333 20233 58010;EQDQ01  00002PRCP99
0167827840999992000110518004-07310-039300FM-12+040999999V0203601N002112200019N0200001N1+03141+01661100781ADDAA199000091GF102991021021012501001001MA1999999096161MD1999999+0231REMSYN070AAXX  05184 82784 32698 23604 10314 20166 39616 40078 82200 333 58023;EQDQ01  00002PRCP99
0196827840999992000110600004-07310-039300FM-12+040999999V0201401N000512200019N0020001N1+02661+01711100991ADDAA199000091GA1001+999999999GF100991001001999999001001KA1240M+03251MA1999999096361MD1999999+0221REMSYN070AAXX  06004 82784 32995 01401 10266 20171 39636 40099 333 10325 58022;EQDQ01  00002PRCP99
0167827840999992000110618004-07310-039300FM-12+040999999V0200501N003112200019N0200001N1+03411+01541100641ADDAA199000091GF101991011011008001001001MA1999999096041MD1999999-0121REMSYN070AAXX  06184 82784 32598 10506 10341 20154 39604 40064 81100 333 59012;EQDQ01  00002PRCP99
0196827840999992000110700004-07310-039300FM-12+040999999V0201401N000512200019N0020001N1+02861+01551100811ADDAA199000091GA1001+999999999GF100991001001999999001001KA1240M+03511MA1999999096191MD1999999-0171REMSYN070AAXX  07004 82784 32995 01401 10286 20155 39619 40081 333 10351 59017;EQDQ01  00002PRCP99
0186827840999992000110712004-07310-039300FM-12+040999999V0203601N002112200019N0200001N1+02821+01651101041ADDAA199000091GF101991011011008001001001KA1240N+02341MA1999999096421MD1999999-0121REMSYN076AAXX  07124 82784 32598 13604 10282 20165 39642 40104 81100 333 20234 59012;EQDQ01  00002PRCP99
0167827840999992000110718004-07310-039300FM-12+040999999V0203601N002612200019N0200001N1+03511+01531100461ADDAA199000091GF102991021021012501001001MA1999999095881MD1999999-0161REMSYN070AAXX  07184 82784 32698 23605 10351 20153 39588 40046 82200 333 59016;EQDQ01  00002PRCP99
0186827840999992000110800004-07310-039300FM-12+040999999V0201801N001510075019N0020001N1+02961+01531100721ADDAA199000091GF108991081071008001999999KA1240M+03571MA1999999096121MD1999999-0071REMSYN076AAXX  08004 82784 32595 81803 10296 20153 39612 40072 887// 333 10357 59007;EQDQ01  00002PRCP99
0201827840999992000110812004-07310-039300FM-12+040999999V0203601N001510120019N0200001N1+02661+01791100951ADDAA124000591AY151061AY221061GF108991081081008001999999KA1240N+02291MA1999999096331MD1999999-0091MW1021REMSYN088AAXX  08124 82784 21598 83603 10266 20179 39633 40095 70252 888// 333 20229 59009 69954;
0167827840999992000110818004-07310-039300FM-12+040999999V0200901N001510075019N0200001N1+03281+01781100431ADDAA199000091GF107991071051008001001001MA1999999095841MD1999999-0041REMSYN070AAXX  08184 82784 32598 70903 10328 20178 39584 40043 87500 333 59004;EQDQ01  00002PRCP99
0201827840999992000110912004-07310-039300FM-12+040999999V0200501N001010075019N0040001N1+02241+02071101051ADDAA124001091AY151061AY221061GF108991081071008001999999KA1240N+02241MA1999999096401MD1999999+0071MW1201REMSYN088AAXX  09124 82784 21596 80502 10224 20207 39640 40105 72052 887// 333 20224 58007 69994;
0167827840999992000110918004-07310-039300FM-12+040999999V0203601N002619999999N0200001N1+02921+01861101581ADDAA199000021GF108991999021012501001001MA1999999095961MD1999999+0121REMSYN070AAXX  09184 82784 32698 83605 10292 20186 39596 40158 83200 333 58012;EQDQ01+000032SCOTLC
0167827840999992000111000004-07310-039300FM-12+040999999V0201401N000510075019N0020001N1+02631+01961100921ADDAA199000021GF108991081071008001999999KA1240M+02991MA1999999096271MD1999999+0191REMSYN076AAXX  10004 82784 32595 81401 10263 20196 39627 40092 887// 333 10299 58019;
0186827840999992000111012004-07310-039300FM-12+040999999V0200901N001510120019N0200001N1+02591+01921101181ADDAA199000091GF108991081081008001999999KA1240N+02251MA1999999096531MD1999999+0131REMSYN076AAXX  10124 82784 32598 80903 10259 20192 39653 40118 888// 333 20225 58013;EQDQ01  00002PRCP99
0183827840999992000111018004-07310-039300FM-12+040999999V0200501N002110075019N0200001N1+03041+01851100681ADDAA199000091GF108991999021008001001001MA1999999096061MD1999999+0101REMSYN070AAXX  10184 82784 32598 80504 10304 20185 39606 40068 86200 333 58010;EQDQ01+000062SCOTLCQ02  00002PRCP99
0186827840999992000111100004-07310-039300FM-12+040999999V0201801N001010075019N0020001N1+02621+01781100951ADDAA199000091GF108991081071008001999999KA1240M+03101MA1999999096311MD1999999+0041REMSYN076AAXX  11004 82784 32595 81802 10262 20178 39631 40095 887// 333 10310 58004;EQDQ01  00002PRCP99
0186827840999992000111112004-07310-039300FM-12+040999999V0203601N001510120019N0200001N1+02631+01931101151ADDAA199000091GF108991081081008001999999KA1240N+02281MA1999999096511MD1999999-0021REMSYN076AAXX  11124 82784 32598 83603 10263 20193 39651 40115 888// 333 20228 59002;EQDQ01  00002PRCP99
0167827840999992000111118004-07310-039300FM-12+040999999V0203601N002112200019N0200001N1+03141+01731100701ADDAA199000091GF103991021021008001061001MA1999999096081MD1999999+0021REMSYN070AAXX  11184 82784 32598 33604 10314 20173 39608 40070 82260 333 58002;EQDQ01  00002PRCP99
0196827840999992000111200004-07310-039300FM-12+040999999V0202301N001012200019N0020001N1+02541+01651100921ADDAA199000091GA1001+999999999GF100991001001999999001001KA1240M+03411MA1999999096281MD1999999-0031REMSYN070AAXX  12004 82784 32995 02302 10254 20165 39628 40092 333 10341 59003;EQDQ01  00002PRCP99
0186827840999992000111212004-07310-039300FM-12+040999999V0203601N002612200019N0200001N1+02801+01781101101ADDAA199000091GF102991021021008001001001KA1240N+02301MA1999999096461MD1999999-0051REMSYN076AAXX  12124 82784 32598 23605 10280 20178 39646 40110 82200 333 20230 59005;EQDQ01  00002PRCP99
0167827840999992000111218004-07310-039300FM-12+040999999V0203601N002110120019N0200001N1+03501+01531100541ADDAA199000091GF106991061021012501001001MA1999999095951MD1999999-0131REMSYN070AAXX  12184 82784 32698 63604 10350 20153 39595 40054 86200 333 59013;EQDQ01  00002PRCP99
0186827840999992000111300004-07310-039300FM-12+040999999V0202701N001012200019N0020001N1+02941+01401100831ADDAA199000091GF101991011081008001001001KA1240M+03611MA1999999096281MD1999999-0061REMSYN076AAXX  13004 82784 32595 12702 10294 20140 39628 40083 81800 333 10361 59006;EQDQ01  00002PRCP99
0186827840999992000111312004-07310-039300FM-12+040999999V0200501N003612200019N0200001N1+02831+01681101201ADDAA199000091GF103991021011008001011001KA1240N+02221MA1999999096581MD1999999+0121REMSYN076AAXX  13124 82784 32598 30507 10283 20168 39658 40120 82110 333 20222 58012;EQDQ01  00002PRCP99
0183827840999992000111318004-07310-039300FM-12+040999999V0200901N002619999999N0200001N1+03441+01531100601ADDAA199000091GF105991999021008001001001MA1999999096011MD1999999+0061REMSYN070AAXX  13184 82784 32598 50905 10344 20153 39601 40060 83200 333 58006;EQDQ01+000032SCOTLCQ02  00002PRCP99
0196827840999992000111400004-07310-039300FM-12+040999999V0202301N000512200019N0020001N1+02751+01261100891ADDAA199000091GA1001+999999999GF100991001001999999001001KA1240M+03511MA1999999096271MD1999999+0051REMSYN070AAXX  14004 82784 32995 02301 10275 20126 39627 40089 333 10351 58005;EQDQ01  00002PRCP99
0186827840999992000111412004-07310-039300FM-12+040999999V0203601N002610120019N0200001N1+02541+01861101311ADDAA199000091GF108991081081008001999999KA1240N+02221MA1999999096661MD1999999+0081REMSYN076AAXX  14124 82784 32598 83605 10254 20186 39666 40131 888// 333 20222 58008;EQDQ01  00002PRCP99
0167827840999992000111418004-07310-039300FM-12+040999999V0203601N003112200019N0200001N1+03321+01481100651ADDAA199000091GF102991011011008001011001MA1999999096051MD1999999+0041REMSYN070AAXX  14184 82784 32598 23606 10332 20148 39605 40065 81110 333 58004;EQDQ01  00002PRCP99
0196827840999992000111500004-07310-039300FM-12+040999999V0201801N000512200019N0020001N1+02541+01081100941ADDAA199000091GA1001+999999999GF100991001001999999001001KA1240M+03401MA1999999096261MD1999999+0021REMSYN070AAXX  15004 82784 32995 01801 10254 20108 39626 40094 333 10340 58002;EQDQ01  00002PRCP99
0180827840999992000111512004-07310-039300FM-12+040999999V0200501N002119999999N0200001N1+02741+01571101251ADDAA199000091GF105991999999999999999999KA1240N+01911MA1999999096601MD1999999-0061REMSYN070AAXX  15124 82784 32998 50504 10274 20157 39660 40125 333 20191 59006;EQDQ01  00002PRCP99
0161827840999992000111518004-07310-039300FM-12+040999999V0200501N003119999999N0200001N1+03611+01091100641ADDAA199000091GF106991999999999999999999MA1999999096041MD1999999-0011REMSYN064AAXX  15184 82784 32998 60506 10361 20109 39604 40064 333 59001;EQDQ01  00002PRCP99
0196827840999992000111600004-07310-039300FM-12+040999999V0202701N000512200019N0020001N1+02681+00961100951ADDAA199000091GA1001+999999999GF100991001001999999001001KA1240M+03651MA1999999096321MD1999999+0061REMSYN070AAXX  16004 82784 32995 02701 10268 20096 39632 40095 333 10365 58006;EQDQ01  00002PRCP99
0196827840999992000111612004-07310-039300FM-12+040999999V0200501N003112200019N0200001N1+02881+01421101321ADDAA199000091GA1001+999999999GF100991001001999999001001KA1240N+02071MA1999999096681MD1999999+0081REMSYN070AAXX  16124 82784 32998 00506 10288 20142 39668 40132 333 20207 58008;EQDQ01  00002PRCP99
0167827840999992000111618004-07310-039300FM-12+040999999V0200501N003612200019N0200001N1+03461+01231100781ADDAA199000091GF102991021011008001001001MA1999999096171MD1999999+0131REMSYN070AAXX  16184 82784 32598 20507 10346 20123 39617 40078 82100 333 58013;EQDQ01  00002PRCP99
0196827840999992000111700004-07310-039300FM-12+040999999V0202301N000512200019N0020001N1+02701+01021101061ADDAA199000091GA1001+999999999GF100991001001999999001001KA1240M+03571MA1999999096441MD1999999+0121REMSYN070AAXX  17004 82784 32995 02301 10270 20102 39644 40106 333 10357 58012;EQDQ01  00002PRCP99
0186827840999992000111712004-07310-039300FM-12+040999999V0200501N004612200019N0200001N1+02861+01651101441ADDAA199000091GF104991041021008001001001KA1240N+02311MA1999999096801MD1999999+0121REMSYN076AAXX  17124 82784 32598 40509 10286 20165 39680 40144 84200 333 20231 58012;EQDQ01  00002PRCP99
0183827840999992000111718004-07310-039300FM-12+040999999V0203601N004119999999N0200001N1+03401+01291100891ADDAA199000091GF107991999011012501001001MA1999999096281MD1999999+0111REMSYN070AAXX  17184 82784 32698 73608 10340 20129 39628 40089 82100 333 58011;EQDQ01+000022SCOTLCQ02  00002PRCP99
0186827840999992000111800004-07310-039300FM-12+040999999V0200501N001010120019N0020001N1+02881+01461101231ADDAA199000091GF108991081081008001999999KA1240M+03571MA1999999096601MD1999999+0161REMSYN076AAXX  18004 82784 32595 80502 10288 20146 39660 40123 888// 333 10357 58016;EQDQ01  00002PRCP99
0186827840999992000111812004-07310-039300FM-12+040999999V0200901N004110450019N0200001N1+02921+01601101471ADDAA199000091GF106991021021008001061001KA1240N+02101MA1999999096841MD1999999+0041REMSYN076AAXX  18124 82784 32598 60908 10292 20160 39684 40147 82260 333 20210 58004;EQDQ01  00002PRCP99
0167827840999992000111818004-07310-039300FM-12+040999999V0201401N004110450019N0200001N1+03081+01601100991ADDAA199000091GF108991031021008001021999MA1999999096361MD1999999+0081REMSYN070AAXX  18184 82784 32598 81408 10308 20160 39636 40099 8322/ 333 58008;EQDQ01  00002PRCP99
0196827840999992000111900004-07310-039300FM-12+040999999V0200901N002112200019N0020001N1+02641+01661101091ADDAA199000091GA1001+999999999GF100991001001999999001001KA1240M+03151MA1999999096461MD1999999-0141REMSYN070AAXX  19004 82784 32995 00904 10264 20166 39646 40109 333 10315 59014;EQDQ01  00002PRCP99
0186827840999992000111912004-07310-039300FM-12+040999999V0200501N002612200019N0200001N1+02901+01621101341ADDAA199000091GF102991021011008001001001KA1240N+02241MA1999999096701MD1999999-0141REMSYN076AAXX  19124 82784 32598 20505 10290 20162 39670 40134 82100 333 20224 59014;EQDQ01  00002PRCP99
0167827840999992000111918004-07310-039300FM-12+040999999V0203201N001510450019N0200001N1+03501+01081100831ADDAA199000091GF106991031021012501051071MA1999999096231MD1999999-0131REMSYN070AAXX  19184 82784 32698 63203 10350 20108 39623 40083 83257 333 59013;EQDQ01  00002PRCP99
0196827840999992000112000004-07310-039300FM-12+040999999V0209999C000012200019N0020001N1+02661+01151101121ADDAA199000091GA1001+999999999GF100991001001999999001001KA1240M+03201MA1999999096501MD1999999+0041REMSYN070AAXX  20004 82784 32995 00000 10266 20115 39650 40112 333 10320 58004;EQDQ01  00002PRCP99
0186827840999992000112012004-07310-039300FM-12+040999999V0200501N002110120019N0200001N1+02701+01861101531ADDAA199000091GF107991061081008001061001KA1240N+02361MA1999999096871MD1999999+0171REMSYN076AAXX  20124 82784 32598 70504 10270 20186 39687 40153 86860 333 20236 58017;EQDQ01  00002PRCP99
0167827840999992000112018004-07310-039300FM-12+040999999V0200501N003111050019N0200001N1+03361+01461100991ADDAA199000091GF106991031021008001001021MA1999999096381MD1999999+0151REMSYN070AAXX  20184 82784 32598 60506 10336 20146 39638 40099 83202 333 58015;EQDQ01  00002PRCP99
0163827840999992000112100004-07310-039300FM-12+040999999V0209999C000012200019N0020001N1+02691+99999999999ADDAA199000091GA1001+999999999GF100991001001999999001001KA1240M+03471MD1999999+0051REMSYN052AAXX  21004 82784 32995 00000 10269 333 10347 58005;EQDQ01  00002PRCP99
0186827840999992000112112004-07310-039300FM-12+040999999V0200501N002610450019N0200001N1+02761+01721101641ADDAA199000091GF106991041021008001061001KA1240N+02421MA1999999096981MD1999999+0111REMSYN076AAXX  21124 82784 32598 60505 10276 20172 39698 40164 84260 333 20242 58011;EQDQ01  00002PRCP99
0167827840999992000112118004-07310-039300FM-12+040999999V0200901N003112200019N0200001N1+03491+01301100981ADDAA199000091GF102991021011012501001001MA1999999096371MD1999999-0011REMSYN070AAXX  21184 82784 32698 20906 10349 20130 39637 40098 82100 333 59001;EQDQ01  00002PRCP99
0186827840999992000112200004-07310-039300FM-12+040999999V0201401N002610075019N0020001N1+02941+01361101221ADDAA199000091GF108991081071008001999999KA1240M+03551MA1999999096591MD1999999+0041REMSYN076AAXX  22004 82784 32595 81405 10294 20136 39659 40122 887// 333 10355 58004;EQDQ01  00002PRCP99
0186827840999992000112212004-07310-039300FM-12+040999999V0201401N002112200019N0200001N1+02941+01591101571ADDAA199000091GF102991021021008001001001KA1240N+02481MA1999999096941MD1999999-0041REMSYN076AAXX  22124 82784 32598 21404 10294 20159 39694 40157 82200 333 20248 59004;EQDQ01  00002PRCP99
0183827840999992000112218004-07310-039300FM-12+040999999V0200901N003610075019N0200001N1+03431+01201101011ADDAA199000091GF106991999021008001001001MA1999999096401MD1999999+0031REMSYN070AAXX  22184 82784 32598 60907 10343 20120 39640 40101 85200 333 58003;EQDQ01+000052SCOTLCQ02  00002PRCP99
0196827840999992000112300004-07310-039300FM-12+040999999V0201401N005112200019N0020001N1+02941+01281101241ADDAA199000091GA1001+999999999GF100991001001999999001001KA1240M+03591MA1999999096631MD1999999+0021REMSYN070AAXX  23004 82784 32995 01410 10294 20128 39663 40124 333 10359 58002;EQDQ01  00002PRCP99
0167827840999992000112318004-07310-039300FM-12+040999999V0200901N003612200019N0200001N1+03521+00961100951ADDAA199000091GF101991011011012501001001MA1999999096351MD1999999-0051REMSYN070AAXX  23184 82784 32698 10907 10352 20096 39635 40095 81100 333 59005;EQDQ01  00002PRCP99
0186827840999992000112400004-07310-039300FM-12+040999999V0200901N001512200019N0020001N1+02921+00931101191ADDAA199000091GF104991041021008001001001KA1240M+03611MA1999999096571MD1999999-0051REMSYN076AAXX  24004 82784 32595 40903 10292 20093 39657 40119 84200 333 10361 59005;EQDQ01  00002PRCP99
0186827840999992000112412004-07310-039300FM-12+040999999V0201801N001512200019N0200001N1+02871+01681101441ADDAA199000091GF101991011011008001001001KA1240N+02111MA1999999096811MD1999999-0091REMSYN076AAXX  24124 82784 32598 11803 10287 20168 39681 40144 81100 333 20211 59009;EQDQ01  00002PRCP99
0167827840999992000112718004-07310-039300FM-12+040999999V0200501N003112200019N0200001N1+03521+01451101001ADDAA199000091GF104991041021008001001001MA1999999096391MD1999999+0031REMSYN070AAXX  27184 82784 32598 40506 10352 20145 39639 40100 84200 333 58003;EQDQ01  00002PRCP99
0201827840999992000112812004-07310-039300FM-12+040999999V0200901N001510120019N0200001N1+02641+02121101591ADDAA124004191AY161061AY251061GF108991081081008001999999KA1240N+02251MA1999999096941MD1999999+0061MW1021REMSYN088AAXX  28124 82784 21598 80903 10264 20212 39694 40159 70265 888// 333 20225 58006 60044;
0167827840999992000112818004-07310-039300FM-12+040999999V0200501N003112200019N0200001N1+03321+01431101071ADDAA199000091GF104991041021008001001001MA1999999096451MD1999999+0061REMSYN070AAXX  28184 82784 32598 40506 10332 20143 39645 40107 84200 333 58006;EQDQ01  00002PRCP99
0186827840999992000112900004-07310-039300FM-12+040999999V0200901N001010075019N0020001N1+02771+01801101301ADDAA199000091GF106991061021008001001001KA1240M+03461MA1999999096651MD1999999+0081REMSYN076AAXX  29004 82784 32595 60902 10277 20180 39665 40130 86200 333 10346 58008;EQDQ01  00002PRCP99
0186827840999992000112912004-07310-039300FM-12+040999999V0200501N004112200019N0200001N1+02811+01691101561ADDAA199000091GF102991021011008001001001KA1240N+02161MA1999999096911MD1999999-0031REMSYN076AAXX  29124 82784 32598 20508 10281 20169 39691 40156 82100 333 20216 59003;EQDQ01  00002PRCP99
0177827840999992000120118004-07310-039300FM-12+040999999V0203601N002612200019N0200001N1+03501+01081100901ADDAA199000091GA1001+999999999GF100991001001999999001001MA1999999096301MD1999999+0031REMSYN064AAXX  01184 82784 32998 03605 10350 20108 39630 40090 333 58003;EQDQ01  00002PRCP99
0196827840999992000120200004-07310-039300FM-12+040999999V0202701N000512200019N0020001N1+02751+01061101121ADDAA199000091GA1001+999999999GF100991001001999999001001KA1240M+03591MA1999999096491MD1999999+0061REMSYN070AAXX  02004 82784 32995 02701 10275 20106 39649 40112 333 10359 58006;EQDQ01  00002PRCP99
0186827840999992000120212004-07310-039300FM-12+040999999V0200501N003112200019N0200001N1+02881+01731101421ADDAA199000091GF102991011021008001061001KA1240N+02151MA1999999096781MD1999999-0041REMSYN076AAXX  02124 82784 32598 20506 10288 20173 39678 40142 81260 333 20215 59004;EQDQ01  00002PRCP99
0167827840999992000120218004-07310-039300FM-12+040999999V0203601N003112200019N0200001N1+03521+01281100881ADDAA199000091GF102991021021008001001001MA1999999096271MD1999999-0031REMSYN070AAXX  02184 82784 32598 23606 10352 20128 39627 40088 82200 333 59003;EQDQ01  00002PRCP99
0196827840999992000120300004-07310-039300FM-12+040999999V0202301N001512200019N0020001N1+02701+01371101131ADDAA199000091GA1001+999999999GF100991001001999999001001KA1240M+03571MA1999999096501MD1999999+0011REMSYN070AAXX  03004 82784 32995 02303 10270 20137 39650 40113 333 10357 58001;EQDQ01  00002PRCP99
0186827840999992000120312004-07310-039300FM-12+040999999V0203601N002110450019N0010001N1+02781+01671101421ADDAA199000091GF106991011011008001011001KA1240N+02361MA1999999096771MD1999999-0011REMSYN076AAXX  03124 82784 32594 63604 10278 20167 39677 40142 81110 333 20236 59001;EQDQ01  00002PRCP99
0177827840999992000120318004-07310-039300FM-12+040999999V0200501N002612200019N0200001N1+03501+01141100781ADDAA199000091GA1001+999999999GF100991001001999999001001MA1999999096191MD1999999-0081REMSYN064AAXX  03184 82784 32998 00505 10350 20114 39619 40078 333 59008;EQDQ01  00002PRCP99
0186827840999992000120412004-07310-039300FM-12+040999999V0200501N002112200019N0200001N1+02731+01561101421ADDAA199000091GF101991011011008001001001KA1240N+02231MA1999999096771MD1999999+0001REMSYN076AAXX  04124 82784 32598 10504 10273 20156 39677 40142 81100 333 20223 58000;EQDQ01  00002PRCP99
0167827840999992000120418004-07310-039300FM-12+040999999V0200501N002112200019N0200001N1+03441+01331100731ADDAA199000091GF104991041021008001001001MA1999999096131MD1999999-0061REMSYN070AAXX  04184 82784 32598 40504 10344 20133 39613 40073 84200 333 59006;EQDQ01  00002PRCP99
0186827840999992000120500004-07310-039300FM-12+040999999V0201401N000512200019N0020001N1+02821+01211101011ADDAA199000091GF103991011081008001031001KA1240M+03551MA1999999096391MD1999999-0051REMSYN076AAXX  05004 82784 32595 31401 10282 20121 39639 40101 81830 333 10355 59005;EQDQ01  00002PRCP99
0180827840999992000120512004-07310-039300FM-12+040999999V0200501N003112200019N0200001N1+02841+01501101311ADDAA199000091GF102991999999999999999999KA1240N+02261MA1999999096681MD1999999-0091REMSYN070AAXX  05124 82784 32998 20506 10284 20150 39668 40131 333 20226 59009;EQDQ01  00002PRCP99
0183827840999992000120518004-07310-039300FM-12+040999999V0200501N004119999999N0200001N1+03481+01411100731ADDAA199000091GF105991999011012501001001MA1999999096141MD1999999+0011REMSYN070AAXX  05184 82784 32698 50508 10348 20141 39614 40073 82100 333 58001;EQDQ01+000022SCOTLCQ02  00002PRCP99
0186827840999992000120600004-07310-039300FM-12+040999999V0200901N000510075019N0020001N1+03081+01361100991ADDAA199000091GF108991081071008001999999KA1240M+03591MA1999999096381MD1999999-0011REMSYN076AAXX  06004 82784 32595 80901 10308 20136 39638 40099 887// 333 10359 59001;EQDQ01  00002PRCP99
0186827840999992000120612004-07310-039300FM-12+040999999V0203601N003110075019N0200001N1+02801+01871101351ADDAA199000091GF107991071051008001001001KA1240N+02371MA1999999096731MD1999999+0051REMSYN076AAXX  06124 82784 32598 73606 10280 20187 39673 40135 87500 333 20237 58005;EQDQ01  00002PRCP99
0183827840999992000120618004-07310-039300FM-12+040999999V0203601N002112200019N0200001N1+03521+01391100841ADDAA199000091GF103991999011008001001001MA1999999096241MD1999999+0101REMSYN070AAXX  06184 82784 32598 33604 10352 20139 39624 40084 82100 333 58010;EQDQ01+000022SCOTLCQ02  00002PRCP99
0196827840999992000120700004-07310-039300FM-12+040999999V0200501N000512200019N0020001N1+02861+01331101111ADDAA199000091GA1001+999999999GF100991001001999999001001KA1240M+03531MA1999999096491MD1999999+0111REMSYN070AAXX  07004 82784 32995 00501 10286 20133 39649 40111 333 10353 58011;EQDQ01  00002PRCP99
0186827840999992000120712004-07310-039300FM-12+040999999V0200501N002112200019N0200001N1+02911+01901101401ADDAA199000091GF104991041021008001001001KA1240N+02221MA1999999096771MD1999999+0041REMSYN076AAXX  07124 82784 32598 40504 10291 20190 39677 40140 84200 333 20222 58004;EQDQ01  00002PRCP99
0167827840999992000120718004-07310-039300FM-12+040999999V0203601N004110120019N0200001N1+03551+01301100851ADDAA199000091GF107991061021012501001061MA1999999096251MD1999999+0011REMSYN070AAXX  07184 82784 32698 73608 10355 20130 39625 40085 86206 333 58001;EQDQ01  00002PRCP99
0186827840999992000120800004-07310-039300FM-12+040999999V0202701N002110120019N0020001N1+02901+01361101231ADDAA199000091GF108991081081008001999999KA1240M+03631MA1999999096591MD1999999+0121REMSYN076AAXX  08004 82784 32595 82704 10290 20136 39659 40123 888// 333 10363 58012;EQDQ01  00002PRCP99
0202827840999992000120812004-07310-039300FM-12+040999999V0200501N002612200019N0200001N1+03001+01751101441ADDAA199000091GF102991999021008001001001KA1240N+02541MA1999999096811MD1999999+0041REMSYN076AAXX  08124 82784 32598 20505 10300 20175 39681 40144 81200 333 20254 58004;EQDQ01+000012SCOTLCQ02  00002PRCP99
0183827840999992000120818004-07310-039300FM-12+040999999V0200901N003119999999N0200001N1+03551+01301100891ADDAA199000091GF105991999021008001001001MA1999999096301MD1999999+0051REMSYN070AAXX  08184 82784 32598 50906 10355 20130 39630 40089 83200 333 58005;EQDQ01+000032SCOTLCQ02  00002PRCP99
0186827840999992000120900004-07310-039300FM-12+040999999V0200901N000510075019N0020001N1+03181+01441101151ADDAA199000091GF108991081071008001999999KA1240M+03651MA1999999096551MD1999999-0041REMSYN076AAXX  09004 82784 32595 80901 10318 20144 39655 40115 887// 333 10365 59004;EQDQ01  00002PRCP99
0201827840999992000120912004-07310-039300FM-12+040999999V0200901N002110075019N0200001N1+02721+01931101431ADDAA124002091AY161061AY221061GF105991051021008001001001KA1240N+02361MA1999999096801MD1999999-0011MW1021REMSYN088AAXX  09124 82784 21598 50904 10272 20193 39680 40143 70262 85200 333 20236 59001 60024;
0167827840999992000120918004-07310-039300FM-12+040999999V0200501N002612200019N0200001N1+03531+01161100871ADDAA199000091GF102991021021008001001001MA1999999096271MD1999999-0031REMSYN070AAXX  09184 82784 32598 20505 10353 20116 39627 40087 82200 333 59003;EQDQ01  00002PRCP99
0186827840999992000121000004-07310-039300FM-12+040999999V0201801N001010075019N0020001N1+02771+01321101081ADDAA199000091GF107991061021008001031001KA1240M+03631MA1999999096451MD1999999-0101REMSYN076AAXX  10004 82784 32595 71802 10277 20132 39645 40108 86230 333 10363 59010;EQDQ01  00002PRCP99
0186827840999992000121012004-07310-039300FM-12+040999999V0203601N002110450019N0200001N1+02751+01871101231ADDAA199000091GF107991021081008001031001KA1240N+02371MA1999999096641MD1999999-0161REMSYN076AAXX  10124 82784 32598 73604 10275 20187 39664 40123 82830 333 20237 59016;EQDQ01  00002PRCP99
0173827840999992000121112004-07310-039300FM-12+040999999V0200501N003610120019N0200001N1+02641+01881101201ADDAA124000191GF107991051081008001031001KA1240N+02421MA1999999096561MD1999999-0081REMSYN082AAXX  11124 82784 22598 70507 10264 20188 39656 40120 85830 333 20242 59008 69924;
0167827840999992000121118004-07310-039300FM-12+040999999V0203201N003610120019N0200001N1+03091+01781100831ADDAA199000091GF108991081081008001999999MA1999999096221MD1999999+0121REMSYN070AAXX  11184 82784 32598 83207 10309 20178 39622 40083 888// 333 58012;EQDQ01  00002PRCP99
0186827840999992000121200004-07310-039300FM-12+040999999V0202701N001010075019N0020001N1+02861+01751101041ADDAA199000091GF108991081071008001999999KA1240M+03201MA1999999096411MD1999999+0011REMSYN076AAXX  12004 82784 32595 82702 10286 20175 39641 40104 887// 333 10320 58001;EQDQ01  00002PRCP99
0201827840999992000121212004-07310-039300FM-12+040999999V0201401N001510075019N0040001N1+02261+02051101461ADDAA124003091AY161061AY221061GF108991081071008001999999KA1240N+02231MA1999999096791MD1999999+0231MW1211REMSYN088AAXX  12124 82784 21596 81403 10226 20205 39679 40146 72162 887// 333 20223 58023 60034;
0167827840999992000121218004-07310-039300FM-12+040999999V0203601N000510075019N0200001N1+02861+01851101001ADDAA199000021GF107991999021008001001001MA1999999096361MD1999999+0141REMSYN070AAXX  12184 82784 32598 73601 10286 20185 39636 40100 85200 333 58014;EQDQ01+000052SCOTLC
0167827840999992000121300004-07310-039300FM-12+040999999V0201401N000510075019N0020001N1+02481+02091101161ADDAA199000021GF108991081071008001999999KA1240M+02951MA1999999096491MD1999999+0081REMSYN076AAXX  13004 82784 32595 81401 10248 20209 39649 40116 887// 333 10295 58008;
0201827840999992000121312004-07310-039300FM-12+040999999V0200501N002110075019N0200001N1+02661+02111101281ADDAA124002091AY161061AY221061GF106991061021008001001001KA1240N+02261MA1999999096621MD1999999-0171MW1021REMSYN088AAXX  13124 82784 21598 60504 10266 20211 39662 40128 70262 86200 333 20226 59017 60024;
0167827840999992000121318004-07310-039300FM-12+040999999V0200501N001510075019N0200001N1+03101+01801100831ADDAA199000091GF108991081051008001999999MA1999999096211MD1999999-0151REMSYN070AAXX  13184 82784 32598 80503 10310 20180 39621 40083 885// 333 59015;EQDQ01  00002PRCP99
0186827840999992000121400004-07310-039300FM-12+040999999V0200501N004110075019N0020001N1+02661+01851101181ADDAA199000091GF108991081071008001999999KA1240M+03231MA1999999096541MD1999999+0051REMSYN076AAXX  14004 82784 32595 80508 10266 20185 39654 40118 887// 333 10323 58005;EQDQ01  00002PRCP99
0201827840999992000121412004-07310-039300FM-12+040999999V0203201N000510120019N0200001N1+02441+01991101171ADDAA124055991AY161061AY221061GF108991081081008001999999KA1240N+01981MA1999999096521MD1999999-0101MW1021REMSYN088AAXX  14124 82784 21598 83201 10244 20199 39652 40117 70262 888// 333 20198 59010 60564;
0167827840999992000121418004-07310-039300FM-12+040999999V0200501N000510075019N0200001N1+02851+01931100761ADDAA199000091GF108991081071008001999999MA1999999096131MD1999999-0081REMSYN070AAXX  14184 82784 32598 80501 10285 20193 39613 40076 887// 333 59008;EQDQ01  00002PRCP99
0220827840999992000121500004-07310-039300FM-12+040999999V0209999C000019999999N0010001N1+02171+02051101081ADDAA106002091AY161061AY221061GF108991999011008001001001KA1240M+02911MA1999999096401MD1999999-0141MW1611REMSYN088AAXX  15004 82784 21594 80000 10217 20205 39640 40108 76162 82100 333 10291 59014 60021;EQDQ01+000022SCOTLC
0201827840999992000121512004-07310-039300FM-12+040999999V0201801N000510042019N0005001N1+02061+01981101241ADDAA124031091AY161061AY251061GF108991081071004501999999KA1240N+02011MA1999999096541MD1999999+0021MW1631REMSYN088AAXX  15124 82784 21493 81801 10206 20198 39654 40124 76365 887// 333 20201 58002 60314;
0182827840999992000121518004-07310-039300FM-12+040999999V0203201N001510042019N0005001N1+02091+01931100981ADDAA106007191AY161061AY251061GF108991081071004501999999MA1999999096291MD1999999+0161MW1631REMSYN082AAXX  15184 82784 21493 83203 10209 20193 39629 40098 76365 887// 333 58016 60071;
0201827840999992000121600004-07310-039300FM-12+040999999V0200901N000510075019N0020001N1+02041+01961101221ADDAA106004191AY161061AY261061GF108991081071008001999999KA1240M+02221MA1999999096511MD1999999+0111MW1211REMSYN088AAXX  16004 82784 21595 80901 10204 20196 39651 40122 72166 887// 333 10222 58011 60041;
0201827840999992000121612004-07310-039300FM-12+040999999V0200501N001010075019N0040001N1+02201+01971101271ADDAA124013091AY151061AY221061GF108991081071008001999999KA1240N+02041MA1999999096561MD1999999+0021MW1021REMSYN088AAXX  16124 82784 21596 80502 10220 20197 39656 40127 70252 887// 333 20204 58002 60134;
0201827840999992000121700004-07310-039300FM-12+040999999V0201401N000510120019N0020001N1+02121+02051101281ADDAA106003091AY161061AY221061GF108991081081008001999999KA1240M+02391MA1999999096581MD1999999+0071MW1021REMSYN088AAXX  17004 82784 21595 81401 10212 20205 39658 40128 70262 888// 333 10239 58007 60031;
0173827840999992000121712004-07310-039300FM-12+040999999V0200501N001510120019N0200001N1+02261+02091101421ADDAA124003091GF108991081081008001999999KA1240N+02121MA1999999096721MD1999999+0161REMSYN082AAXX  17124 82784 22598 80503 10226 20209 39672 40142 888// 333 20212 58016 60034;
0167827840999992000121718004-07310-039300FM-12+040999999V0201401N001010075019N0200001N1+02631+01981101141ADDAA199000091GF108991081051008001999999MA1999999096471MD1999999+0101REMSYN070AAXX  17184 82784 32598 81402 10263 20198 39647 40114 885// 333 58010;EQDQ01  00002PRCP99
0186827840999992000121800004-07310-039300FM-12+040999999V0201401N000510075019N0020001N1+02371+02051101361ADDAA199000091GF108991081051008001999999KA1240M+02701MA1999999096671MD1999999+0091REMSYN076AAXX  18004 82784 32595 81401 10237 20205 39667 40136 885// 333 10270 58009;EQDQ01  00002PRCP99
0159827840999992000121812004-07310-039300FM-12+040999999V0200501N001519999999N0200001N1+02641+02051101391ADDAA199000091GF106991999011008001031999MA1999999096721REMSYN060AAXX  18124 82784 32598 60503 10264 20205 39672 40139 8013/;EQDQ01+000002SCOTLCQ02  00002PRCP99
0167827840999992000121818004-07310-039300FM-12+040999999V0203601N003110120019N0200001N1+03091+01851100981ADDAA199000091GF108991061081008001031999MA1999999096351MD1999999-0121REMSYN070AAXX  18184 82784 32598 83606 10309 20185 39635 40098 8683/ 333 59012;EQDQ01  00002PRCP99
0202827840999992000121900004-07310-039300FM-12+040999999V0201401N002119999999N0020001N1+02681+01921101331ADDAA199000091GF105991999021008001001001KA1240M+03291MA1999999096681MD1999999+0011REMSYN076AAXX  19004 82784 32595 51404 10268 20192 39668 40133 86200 333 10329 58001;EQDQ01+000062SCOTLCQ02  00002PRCP99
0186827840999992000121912004-07310-039300FM-12+040999999V0201401N001010075019N0200001N1+02771+02091101411ADDAA199000091GF106991051021008001061001KA1240N+02371MA1999999096761MD1999999+0041REMSYN076AAXX  19124 82784 32598 61402 10277 20209 39676 40141 85260 333 20237 58004;EQDQ01  00002PRCP99
0167827840999992000121918004-07310-039300FM-12+040999999V0200501N002110150019N0200001N1+03271+01641100861ADDAA199000091GF108991071081012501071999MA1999999096251MD1999999-0101REMSYN070AAXX  19184 82784 32698 80504 10327 20164 39625 40086 8787/ 333 59010;EQDQ01  00002PRCP99
0196827840999992000122000004-07310-039300FM-12+040999999V0201401N001012200019N0020001N1+02551+01861101241ADDAA199000091GA1001+999999999GF100991001001999999001001KA1240M+03341MA1999999096591MD1999999-0091REMSYN070AAXX  20004 82784 32995 01402 10255 20186 39659 40124 333 10334 59009;EQDQ01  00002PRCP99
0186827840999992000122012004-07310-039300FM-12+040999999V0200501N002610120019N0200001N1+02641+01851101541ADDAA199000091GF108991081081008001999999KA1240N+02261MA1999999096871MD1999999-0111REMSYN076AAXX  20124 82784 32598 80505 10264 20185 39687 40154 888// 333 20226 59011;EQDQ01  00002PRCP99
0167827840999992000122018004-07310-039300FM-12+040999999V0203201N001012200019N0200001N1+03321+01431101001ADDAA199000091GF101991011011012501001001MA1999999096391MD1999999+0141REMSYN070AAXX  20184 82784 32698 13202 10332 20143 39639 40100 81100 333 58014;EQDQ01  00002PRCP99
0196827840999992000122100004-07310-039300FM-12+040999999V0209999C000012200019N0020001N1+02521+01861101341ADDAA199000091GA1001+999999999GF100991001001999999001001KA1240M+03391MA1999999096681MD1999999+0091REMSYN070AAXX  21004 82784 32995 00000 10252 20186 39668 40134 333 10339 58009;EQDQ01  00002PRCP99
0167827840999992000122118004-07310-039300FM-12+040999999V0203601N003112200019N0200001N1+03211+01751101181ADDAA199000091GF103991031021008001001001MA1999999096541MD1999999+0151REMSYN070AAXX  21184 82784 32598 33606 10321 20175 39654 40118 83200 333 58015;EQDQ01  00002PRCP99
0196827840999992000122200004-07310-039300FM-12+040999999V0209999C000012200019N0020001N1+02581+01991101321ADDAA199000091GA1001+999999999GF100991001001999999001001KA1240M+03321MA1999999096671MD1999999-0011REMSYN070AAXX  22004 82784 32995 00000 10258 20199 39667 40132 333 10332 59001;EQDQ01  00002PRCP99
0186827840999992000122212004-07310-039300FM-12+040999999V0200501N001510075019N0200001N1+02791+02061101581ADDAA199000091GF106991061021008001001001KA1240N+02221MA1999999096921MD1999999+0001REMSYN076AAXX  22124 82784 32598 60503 10279 20206 39692 40158 86200 333 20222 58000;EQDQ01  00002PRCP99
0167827840999992000122218004-07310-039300FM-12+040999999V0200901N002110075019N0200001N1+03281+01821101021ADDAA199000091GF106991061021008001001001MA1999999096401MD1999999+0141REMSYN070AAXX  22184 82784 32598 60904 10328 20182 39640 40102 86200 333 58014;EQDQ01  00002PRCP99
0196827840999992000122300004-07310-039300FM-12+040999999V0200901N001012200019N0020001N1+02621+01931101311ADDAA199000091GA1001+999999999GF100991001001999999001001KA1240M+03441MA1999999096661MD1999999-0011REMSYN070AAXX  23004 82784 32995 00902 10262 20193 39666 40131 333 10344 59001;EQDQ01  00002PRCP99
0186827840999992000122312004-07310-039300FM-12+040999999V0200501N003110075019N0200001N1+02741+02121101561ADDAA199000091GF107991071021008001001001KA1240N+02421MA1999999096901MD1999999-0021REMSYN076AAXX  23124 82784 32598 70506 10274 20212 39690 40156 87200 333 20242 59002;EQDQ01  00002PRCP99
0167827840999992000122318004-07310-039300FM-12+040999999V0200501N003112200019N0200001N1+03341+01671101031ADDAA199000091GF104991031021008001011001MA1999999096421MD1999999+0021REMSYN070AAXX  23184 82784 32598 40506 10334 20167 39642 40103 83210 333 58002;EQDQ01  00002PRCP99
0186827840999992000122400004-07310-039300FM-12+040999999V0201801N001510075019N0020001N1+02641+01831101231ADDAA199000091GF106991061051008001001001KA1240M+03751MA1999999096591MD1999999-0071REMSYN076AAXX  24004 82784 32595 61803 10264 20183 39659 40123 86500 333 10375 59007;EQDQ01  00002PRCP99
0201827840999992000122412004-07310-039300FM-12+040999999V0203601N002110075019N0200001N1+02521+02001101631ADDAA124005191AY161061AY221061GF108991081051008001999999KA1240N+02321MA1999999096961MD1999999+0061MW1021REMSYN088AAXX  24124 82784 21598 83604 10252 20200 39696 40163 70262 885// 333 20232 58006 60054;
0167827840999992000122418004-07310-039300FM-12+040999999V0200901N002110120019N0200001N1+03021+01831101121ADDAA199000091GF105991051021012501001001MA1999999096481MD1999999+0061REMSYN070AAXX  24184 82784 32698 50904 10302 20183 39648 40112 85200 333 58006;EQDQ01  00002PRCP99
0196827840999992000122500004-07310-039300FM-12+040999999V0201801N000512200019N0020001N1+02461+02131101281ADDAA199000091GA1001+999999999GF100991001001999999001001KA1240M+03101MA1999999096621MD1999999+0031REMSYN070AAXX  25004 82784 32995 01801 10246 20213 39662 40128 333 10310 58003;EQDQ01  00002PRCP99
0186827840999992000122512004-07310-039300FM-12+040999999V0200501N001512200019N0200001N1+02721+01621101631ADDAA199000091GF102991011021008001061001KA1240N+02201MA1999999096961MD1999999+0001REMSYN076AAXX  25124 82784 32598 20503 10272 20162 39696 40163 81260 333 20220 58000;EQDQ01  00002PRCP99
0167827840999992000122518004-07310-039300FM-12+040999999V0201401N002612200019N0200001N1+03271+01511101261ADDAA199000091GF104991021021008001001021MA1999999096531MD1999999+0051REMSYN070AAXX  25184 82784 32598 41405 10327 20151 39653 40126 82202 333 58005;EQDQ01  00002PRCP99
0186827840999992000122600004-07310-039300FM-12+040999999V0201401N000512200019N0020001N1+02531+01741101291ADDAA199000091GF101991011021008001001001KA1240M+03331MA1999999096641MD1999999+0021REMSYN076AAXX  26004 82784 32595 11401 10253 20174 39664 40129 81200 333 10333 58002;EQDQ01  00002PRCP99
0186827840999992000122612004-07310-039300FM-12+040999999V0201401N002110075019N0200001N1+02681+01951101451ADDAA199000091GF106991061021008001001001KA1240N+02331MA1999999096791MD1999999-0171REMSYN076AAXX  26124 82784 32598 61404 10268 20195 39679 40145 86200 333 20233 59017;EQDQ01  00002PRCP99
0167827840999992000122618004-07310-039300FM-12+040999999V0201401N002112200019N0200001N1+03271+01561100951ADDAA199000091GF106991041021008001001041MA1999999096341MD1999999-0191REMSYN070AAXX  26184 82784 32598 61404 10327 20156 39634 40095 84204 333 59019;EQDQ01  00002PRCP99
0196827840999992000122700004-07310-039300FM-12+040999999V0201401N000512200019N0020001N1+02801+01601101231ADDAA199000091GA1001+999999999GF100991001001999999001001KA1240M+03391MA1999999096581MD1999999-0051REMSYN070AAXX  27004 82784 32995 01401 10280 20160 39658 40123 333 10339 59005;EQDQ01  00002PRCP99
0186827840999992000122712004-07310-039300FM-12+040999999V0200501N002110075019N0200001N1+02801+01921101371ADDAA199000091GF107991051021008001061001KA1240N+02401MA1999999096731MD1999999-0061REMSYN076AAXX  27124 82784 32598 70504 10280 20192 39673 40137 85260 333 20240 59006;EQDQ01  00002PRCP99
0167827840999992000122718004-07310-039300FM-12+040999999V0200501N002110450019N0200001N1+03211+01711101081ADDAA199000091GF105991041021008001011001MA1999999096461MD1999999+0121REMSYN070AAXX  27184 82784 32598 50504 10321 20171 39646 40108 84210 333 58012;EQDQ01  00002PRCP99
0196827840999992000122800004-07310-039300FM-12+040999999V0209999C000012200019N0020001N1+02601+01891101341ADDAA199000091GA1001+999999999GF100991001001999999001001KA1240M+03291MA1999999096691MD1999999+0111REMSYN070AAXX  28004 82784 32995 00000 10260 20189 39669 40134 333 10329 58011;EQDQ01  00002PRCP99
0186827840999992000122812004-07310-039300FM-12+040999999V0200501N002610075019N0200001N1+02611+01921101581ADDAA199000091GF107991051021008001001041KA1240N+02321MA1999999096911MD1999999+0181REMSYN076AAXX  28124 82784 32598 70505 10261 20192 39691 40158 85204 333 20232 58018;EQDQ01  00002PRCP99
0167827840999992000122818004-07310-039300FM-12+040999999V0200501N002612200019N0200001N1+03261+01601101011ADDAA199000091GF103991031021008001001001MA1999999096391MD1999999-0071REMSYN070AAXX  28184 82784 32598 30505 10326 20160 39639 40101 83200 333 59007;EQDQ01  00002PRCP99
0196827840999992000122900004-07310-039300FM-12+040999999V0201801N001012200019N0020001N1+02441+01451101271ADDAA199000091GA1001+999999999GF100991001001999999001001KA1240M+03341MA1999999096611MD1999999-0081REMSYN070AAXX  29004 82784 32995 01802 10244 20145 39661 40127 333 10334 59008;EQDQ01  00002PRCP99
0186827840999992000122912004-07310-039300FM-12+040999999V0200501N003112200019N0200001N1+02751+01811101491ADDAA199000091GF102991011021008001011001KA1240N+02141MA1999999096831MD1999999-0081REMSYN076AAXX  29124 82784 32598 20506 10275 20181 39683 40149 81210 333 20214 59008;EQDQ01  00002PRCP99
0167827840999992000122918004-07310-039300FM-12+040999999V0200501N002612200019N0200001N1+03361+01461100981ADDAA199000091GF104991031021012501011001MA1999999096361MD1999999-0031REMSYN070AAXX  29184 82784 32698 40505 10336 20146 39636 40098 83210 333 59003;EQDQ01  00002PRCP99
0186827840999992000123000004-07310-039300FM-12+040999999V0209999C000010075019N0020001N1+02781+01851101411ADDAA199000091GF108991081021008001999999KA1240M+03431MA1999999096571MD1999999-0041REMSYN076AAXX  30004 82784 32595 80000 10278 20185 39657 40141 882// 333 10343 59004;EQDQ01  00002PRCP99
0186827840999992000123012004-07310-039300FM-12+040999999V0200501N002610075019N0200001N1+02781+01931101481ADDAA199000091GF106991061021008001001001KA1240N+02351MA1999999096841MD1999999+0011REMSYN076AAXX  30124 82784 32598 60505 10278 20193 39684 40148 86200 333 20235 58001;EQDQ01  00002PRCP99
0167827840999992000123018004-07310-039300FM-12+040999999V0200501N002112200019N0200001N1+03151+01801101011ADDAA199000091GF104991041021008001001001MA1999999096391MD1999999+0031REMSYN070AAXX  30184 82784 32598 40504 10315 20180 39639 40101 84200 333 58003;EQDQ01  00002PRCP99
0186827840999992000123100004-07310-039300FM-12+040999999V0209999C000012200019N0020001N1+02781+01911101191ADDAA199000091GF102991021011017501001001KA1240M+03301MA1999999096561MD1999999-0011REMSYN076AAXX  31004 82784 32795 20000 10278 20191 39656 40119 82100 333 10330 59001;EQDQ01  00002PRCP99
0186827840999992000123112004-07310-039300FM-12+040999999V0200901N001510450019N0200001N1+02781+02041101401ADDAA199000091GF108991041021008001051999KA1240N+02431MA1999999096761MD1999999-0081REMSYN076AAXX  31124 82784 32598 80903 10278 20204 39676 40140 8425/ 333 20243 59008;EQDQ01  00002PRCP99
0167827840999992000123118004-07310-039300FM-12+040999999V0200501N002110150019N0200001N1+03221+01841100991ADDAA199000091GF108991051081012501071999MA1999999096381MD1999999-0011REMSYN070AAXX  31184 82784 32698 80504 10322 20184 39638 40099 8587/ 333 59001;EQDQ01  00002PRCP99
