0201829000999992000010112004-08050-034920FM-12+000799999V0200901N003110075019N0100001N1+02731+02281101091ADDAA124004191AY161061AY241061GF105991051021008001001001KA1240N+02241MA1999999101061MD1999999-0141MW1021REMSYN088AAXX  01124 82900 21597 50906 10273 20228 30106 40109 70264 85200 333 20224 59014 60044;
0167829000999992000010118004-08050-034920FM-12+000799999V0201401N003110075019N0020001N1+02871+02161100761ADDAA106000091GF106991061021008001001001MA1999999100671MD1999999-0211REMSYN070AAXX  01184 82900 32595 61406 10287 20216 30067 40076 86200 333 59021;EQDQ01  00002PRCP06
0186829000999992000010200004-08050-034920FM-12+000799999V0201401N001510075019N0020001N1+02641+02231101011ADDAA106000091GF106991061021008001001001KA1240M+02961MA1999999100921MD1999999-0061REMSYN076AAXX  02004 82900 32595 61403 10264 20223 30092 40101 86200 333 10296 59006;EQDQ01  00002PRCP06
0201829000999992000010212004-08050-034920FM-12+000799999V0200901N002610450019N0100001N1+02871+02131100991ADDAA124003091AY161061AY221061GF105991041021008001031001KA1240N+02261MA1999999100901MD1999999-0101MW1021REMSYN088AAXX  02124 82900 21597 50905 10287 20213 30090 40099 70262 84230 333 20226 59010 60034;
0167829000999992000010218004-08050-034920FM-12+000799999V0201401N005110450019N0100001N1+02921+02221100811ADDAA106000091GF106991041021008001031001MA1999999100721MD1999999+0051REMSYN070AAXX  02184 82900 32597 61410 10292 20222 30072 40081 84230 333 58005;EQDQ01  00002PRCP06
0186829000999992000010300004-08050-034920FM-12+000799999V0200901N003610075019N0020001N1+02701+02281101041ADDAA106000091GF106991061021008001001001KA1240M+02961MA1999999100951MD1999999+0031REMSYN076AAXX  03004 82900 32595 60907 10270 20228 30095 40104 86200 333 10296 58003;EQDQ01  00002PRCP06
0220829000999992000010312004-08050-034920FM-12+000799999V0200901N002119999999N0100001N1+02801+02311100971ADDAA124003091AY161061AY221061GF105991999021008001001001KA1240N+02471MA1999999100881MD1999999-0021MW1031REMSYN088AAXX  03124 82900 21597 50904 10280 20231 30088 40097 70362 86200 333 20247 59002 60034;EQDQ01+000062SCOTLC
0201829000999992000010318004-08050-034920FM-12+000799999V0203201N001510075019N0100001N1+02501+02341999999ADDAA106007991AY161061AY261061GF107991071031008001001001MA1999999100741MD1999999+0021MW1031REMSYN082AAXX  03184 82900 21597 73203 10250 20234 30074 40183 70366 87300 333 58002 60081;EQDQ01+101833APOSLP
0186829000999992000010400004-08050-034920FM-12+000799999V0209999C000010075019N0020001N1+02451+02351100981ADDAA106000091GF106991061021008001001001KA1240M+02871MA1999999100891MD1999999-0061REMSYN076AAXX  04004 82900 32595 60000 10245 20235 30089 40098 86200 333 10287 59006;EQDQ01  00002PRCP06
0201829000999992000010412004-08050-034920FM-12+000799999V0200901N003110075019N0100001N1+02761+02281101071ADDAA124016091AY161061AY251061GF108991081021008001001001KA1240N+02301MA1999999100981MD1999999-0101MW1031REMSYN088AAXX  04124 82900 21597 80906 10276 20228 30098 40107 70365 88200 333 20230 59010 60164;
0167829000999992000010418004-08050-034920FM-12+000799999V0200901N003110075019N0100001N1+02901+02391100811ADDAA106000091GF105991051021008001001001MA1999999100721MD1999999-0021REMSYN070AAXX  04184 82900 32597 50906 10290 20239 30072 40081 85200 333 59002;EQDQ01  00002PRCP06
0186829000999992000010500004-08050-034920FM-12+000799999V0201401N001512200019N0020001N1+02671+02291101031ADDAA106000091GF104991031011008001031001KA1240M+02961MA1999999100941MD1999999+0051REMSYN076AAXX  05004 82900 32595 41403 10267 20229 30094 40103 83130 333 10296 58005;EQDQ01  00002PRCP06
0201829000999992000010512004-08050-034920FM-12+000799999V0201401N003110075019N0100001N1+02801+02291101111ADDAA124013091AY161061AY221061GF106991061031008001001001KA1240N+02281MA1999999101021MD1999999+0041MW1021REMSYN088AAXX  05124 82900 21597 61406 10280 20229 30102 40111 70262 86300 333 20228 58004 60134;
0182829000999992000010518004-08050-034920FM-12+000799999V0203601N002110075019N0100001N1+02541+02291101001ADDAA106000891AY161061AY261061GF108991081071008001999999MA1999999100911MD1999999+0191MW1031REMSYN082AAXX  05184 82900 21597 83604 10254 20229 30091 40100 70366 887// 333 58019 69981;
0201829000999992000010612004-08050-034920FM-12+000799999V0201801N001510075019N0100001N1+02481+02381101271ADDAA124026991AY161061AY261061GF107991051031008001031001KA1240N+02291MA1999999101181MD1999999+0161MW1031REMSYN088AAXX  06124 82900 21597 71803 10248 20238 30118 40127 70366 85330 333 20229 58016 60274;
0201829000999992000010700004-08050-034920FM-12+000799999V0202301N001510075019N0020001N1+02351+02261101131ADDAA106019191AY161061AY261061GF107991071071008001001001KA1240M+02891MA1999999101041MD1999999+0011MW1011REMSYN088AAXX  07004 82900 21595 72303 10235 20226 30104 40113 70166 87700 333 10289 58001 60191;
0201829000999992000010712004-08050-034920FM-12+000799999V0203201N001510075019N0100001N1+02241+02101101191ADDAA124115191AY161061AY251061GF108991081021008001001001KA1240N+02261MA1999999101101MD1999999-0081MW1031REMSYN088AAXX  07124 82900 21597 83203 10224 20210 30110 40119 70365 88200 333 20226 59008 61154;
0182829000999992000010718004-08050-034920FM-12+000799999V0202301N001510075019N0100001N1+02431+02231100991ADDAA106005191AY161061AY231061GF106991061021008001001001MA1999999100901MD1999999-0021MW1021REMSYN082AAXX  07184 82900 21597 62303 10243 20223 30090 40099 70263 86200 333 59002 60051;
0201829000999992000010800004-08050-034920FM-12+000799999V0209999C000010075019N0020001N1+02431+02391101001ADDAA106002091AY161061AY221061GF106991061021008001001001KA1240M+02721MA1999999100911MD1999999-0131MW1031REMSYN088AAXX  08004 82900 21595 60000 10243 20239 30091 40100 70362 86200 333 10272 59013 60021;
0201829000999992000010812004-08050-034920FM-12+000799999V0200901N004610075019N0100001N1+02711+02331101101ADDAA124023991AY161061AY261061GF107991071051008001001001KA1240N+02301MA1999999101011MD1999999-0091MW1021REMSYN088AAXX  08124 82900 21597 70909 10271 20233 30101 40110 70266 87500 333 20230 59009 60244;
0182829000999992000010818004-08050-034920FM-12+000799999V0200901N003110075019N0100001N1+02631+02411100981ADDAA106009991AY161061AY261061GF107991071071008001001001MA1999999100891MD1999999-0011MW1031REMSYN082AAXX  08184 82900 21597 70906 10263 20241 30089 40098 70366 87700 333 59001 60101;
0201829000999992000010900004-08050-034920FM-12+000799999V0201401N001510075019N0020001N1+02531+02331101051ADDAA106009991AY161061AY261061GF107991071071008001001001KA1240M+02781MA1999999100961MD1999999+0051MW1031REMSYN088AAXX  09004 82900 21595 71403 10253 20233 30096 40105 70366 87700 333 10278 58005 60101;
0201829000999992000010912004-08050-034920FM-12+000799999V0201401N003610075019N0100001N1+02751+02321101241ADDAA124024991AY161061AY261061GF106991061021008001001001KA1240N+02301MA1999999101151MD1999999+0141MW1021REMSYN088AAXX  09124 82900 21597 61407 10275 20232 30115 40124 70266 86200 333 20230 58014 60254;
0186829000999992000011000004-08050-034920FM-12+000799999V0201401N001512200019N0020001N1+02631+02231101351ADDAA106000091GF102991021011008001001001KA1240M+02941MA1999999101261MD1999999+0041REMSYN076AAXX  10004 82900 32595 21403 10263 20223 30126 40135 82100 333 10294 58004;EQDQ01  00002PRCP06
0201829000999992000011012004-08050-034920FM-12+000799999V0201801N003110075019N0100001N1+02811+02081101191ADDAA124005191AY161061AY221061GF106991061021008001001001KA1240N+02401MA1999999101101MD1999999-0051MW1031REMSYN088AAXX  10124 82900 21597 61806 10281 20208 30110 40119 70362 86200 333 20240 59005 60054;
0167829000999992000011018004-08050-034920FM-12+000799999V0201801N003610075019N0100001N1+02891+02101100891ADDAA106000091GF105991051021008001001001MA1999999100801MD1999999-0231REMSYN070AAXX  10184 82900 32597 51807 10289 20210 30080 40089 85200 333 59023;EQDQ01  00002PRCP06
0186829000999992000011100004-08050-034920FM-12+000799999V0201801N001512200019N0020001N1+02561+02111101111ADDAA106000091GF101991011021008001001001KA1240M+02941MA1999999101021MD1999999-0241REMSYN076AAXX  11004 82900 32595 11803 10256 20211 30102 40111 81200 333 10294 59024;EQDQ01  00002PRCP06
0186829000999992000011112004-08050-034920FM-12+000799999V0201801N002112200019N0100001N1+02761+02141101121ADDAA106000091GF104991041021008001001001KA1240N+02161MA1999999101031MD1999999-0071REMSYN076AAXX  11124 82900 32597 41804 10276 20214 30103 40112 84200 333 20216 59007;EQDQ01  00002PRCP06
0167829000999992000011118004-08050-034920FM-12+000799999V0201801N005112200019N0100001N1+02881+02301100891ADDAA106000091GF103991031021008001001001MA1999999100801MD1999999+0001REMSYN070AAXX  11184 82900 32597 31810 10288 20230 30080 40089 83200 333 58000;EQDQ01  00002PRCP06
0186829000999992000011200004-08050-034920FM-12+000799999V0201801N001510075019N0020001N1+02581+02271100951ADDAA106000091GF106991061021008001001001KA1240M+02941MA1999999100861MD1999999-0161REMSYN076AAXX  12004 82900 32595 61803 10258 20227 30086 40095 86200 333 10294 59016;EQDQ01  00002PRCP06
0201829000999992000011212004-08050-034920FM-12+000799999V0202301N001510450019N0100001N1+02721+02261101111ADDAA124000391AY161061AY221061GF106991041021008001041001KA1240N+02231MA1999999101021MD1999999-0011MW1021REMSYN088AAXX  12124 82900 21597 62303 10272 20226 30102 40111 70262 84240 333 20223 59001 69934;
0167829000999992000011218004-08050-034920FM-12+000799999V0200901N003112200019N0100001N1+02861+02181100991ADDAA106000091GF101991011011008001021001MA1999999100901MD1999999+0101REMSYN070AAXX  12184 82900 32597 10906 10286 20218 30090 40099 81120 333 58010;EQDQ01  00002PRCP06
0186829000999992000011300004-08050-034920FM-12+000799999V0200901N002110075019N0020001N1+02691+02221101151ADDAA106000091GF106991061021008001001001KA1240M+02951MA1999999101061MD1999999+0201REMSYN076AAXX  13004 82900 32595 60904 10269 20222 30106 40115 86200 333 10295 58020;EQDQ01  00002PRCP06
0186829000999992000011312004-08050-034920FM-12+000799999V0201401N001510075019N0100001N1+02841+02351101191ADDAA106000091GF106991061021008001001001KA1240N+02281MA1999999101101MD1999999+0081REMSYN076AAXX  13124 82900 32597 61403 10284 20235 30110 40119 86200 333 20228 58008;EQDQ01  00002PRCP06
0167829000999992000011318004-08050-034920FM-12+000799999V0201401N003110075019N0100001N1+02961+02351101031ADDAA106000091GF105991051021008001001001MA1999999100941MD1999999+0041REMSYN070AAXX  13184 82900 32597 51406 10296 20235 30094 40103 85200 333 58004;EQDQ01  00002PRCP06
0190829000999992000011400004-08050-034920FM-12+000799999V0201801N003110075019N0020001N1+02671+02351101101ADDAA199000091GF106991061021008001001001KA1240M+02981MA1999999101011MD1999999-0051REMSYN080    AAXX  14004 82900 32595 61806 10267 20235 30101 40110 86200 333 10298 59005;EQDQ01  00002PRCP99
0205829000999992000011412004-08050-034920FM-12+000799999V0201401N003610075019N0100001N1+02781+02361101011ADDAA124002091AY161061AY221061GF106991061031008001001001KA1240N+02341MA1999999100921MD1999999-0181MW1021REMSYN092    AAXX  14124 82900 21597 61407 10278 20236 30092 40101 70262 86300 333 20234 59018 60024;
0171829000999992000011418004-08050-034920FM-12+000799999V0200901N004610075019N0100001N1+02741+02401100801ADDAA199000091GF107991061051008001041001MA1999999100711MD1999999-0231REMSYN074    AAXX  14184 82900 32597 70909 10274 20240 30071 40080 86540 333 59023;EQDQ01  00002PRCP99
0205829000999992000011500004-08050-034920FM-12+000799999V0201801N002610075019N0020001N1+02541+02351100951ADDAA106009991AY161061AY221061GF107991071071008001001001KA1240M+02971MA1999999100861MD1999999-0151MW1601REMSYN092    AAXX  15004 82900 21595 71805 10254 20235 30086 40095 76062 87700 333 10297 59015 60101;
0224829000999992000011512004-08050-034920FM-12+000799999V0200901N002119999999N0100001N1+02871+02231101111ADDAA124010991AY161061AY221061GF105991999021008001001001KA1240N+02471MA1999999101021MD1999999+0101MW1021REMSYN092    AAXX  15124 82900 21597 50904 10287 20223 30102 40111 70262 84200 333 20247 58010 60114;EQDQ01+000042SCOTLC
0171829000999992000011518004-08050-034920FM-12+000799999V0201801N003112200019N0100001N1+02921+02081100871ADDAA199000091GF102991021011008001001001MA1999999100781MD1999999+0071REMSYN074    AAXX  15184 82900 32597 21806 10292 20208 30078 40087 82100 333 58007;EQDQ01  00002PRCP99
0206829000999992000011600004-08050-034920FM-12+000799999V0201401N001012200019N0020001N1+02471+02271100991ADDAA199000091GF103991999011008001001001KA1240M+03031MA1999999100881MD1999999+0021REMSYN080    AAXX  16004 82900 32595 31402 10247 20227 30088 40099 82100 333 10303 58002;EQDQ01+000022SCOTLCQ02  00002PRCP99
0190829000999992000011612004-08050-034920FM-12+000799999V0200901N002110075019N0100001N1+02881+02301101031ADDAA199000091GF106991061021008001001001KA1240N+02161MA1999999100941MD1999999-0081REMSYN080    AAXX  16124 82900 32597 60904 10288 20230 30094 40103 86200 333 20216 59008;EQDQ01  00002PRCP99
0171829000999992000011618004-08050-034920FM-12+000799999V0200901N003110075019N0100001N1+02951+02261100931ADDAA199000091GF106991061021008001001001MA1999999100841MD1999999+0061REMSYN074    AAXX  16184 82900 32597 60906 10295 20226 30084 40093 86200 333 58006;EQDQ01  00002PRCP99
0190829000999992000011700004-08050-034920FM-12+000799999V0200901N001510075019N0020001N1+02731+02301101061ADDAA199000091GF106991061041008001001001KA1240M+03001MA1999999100971MD1999999+0091REMSYN080    AAXX  17004 82900 32595 60903 10273 20230 30097 40106 86400 333 10300 58009;EQDQ01  00002PRCP99
0190829000999992000011712004-08050-034920FM-12+000799999V0200501N002610075019N0100001N1+02821+02401101191ADDAA199000091GF106991051031008001021001KA1240N+02341MA1999999101101MD1999999+0161REMSYN080    AAXX  17124 82900 32597 60505 10282 20240 30110 40119 85320 333 20234 58016;EQDQ01  00002PRCP99
0171829000999992000011718004-08050-034920FM-12+000799999V0200901N005110075019N0100001N1+02941+02361100991ADDAA199000091GF106991061021008001001001MA1999999100901MD1999999+0061REMSYN074    AAXX  17184 82900 32597 60910 10294 20236 30090 40099 86200 333 58006;EQDQ01  00002PRCP99
0205829000999992000011800004-08050-034920FM-12+000799999V0200501N003110075019N0020001N1+02721+02211101241ADDAA106006191AY161061AY221061GF106991061021008001001001KA1240M+02991MA1999999101151MD1999999+0181MW1031REMSYN092    AAXX  18004 82900 21595 60506 10272 20221 30115 40124 70362 86200 333 10299 58018 60061;
0205829000999992000011812004-08050-034920FM-12+000799999V0200901N003610075019N0100001N1+02901+02271101371ADDAA124013091AY161061AY261061GF106991061021008001001001KA1240N+02241MA1999999101281MD1999999+0181MW1021REMSYN092    AAXX  18124 82900 21597 60907 10290 20227 30128 40137 70266 86200 333 20224 58018 60134;
0186829000999992000011818004-08050-034920FM-12+000799999V0200901N003610075019N0100001N1+02861+02191101051ADDAA106001091AY161061AY261061GF106991061021008001001001MA1999999100961MD1999999+0061MW1031REMSYN086    AAXX  18184 82900 21597 60907 10286 20219 30096 40105 70366 86200 333 58006 60011;
0190829000999992000011900004-08050-034920FM-12+000799999V0200901N003110075019N0020001N1+02671+02291101181ADDAA199000091GF106991061021008001001001KA1240M+02981MA1999999101091MD1999999-0061REMSYN080    AAXX  19004 82900 32595 60906 10267 20229 30109 40118 86200 333 10298 59006;EQDQ01  00002PRCP99
0177829000999992000011912004-08050-034920FM-12+000799999V0200901N003110075019N0100001N1+02871+02081101271ADDAA124001091GF105991051021008001001001KA1240N+02331MA1999999101181MD1999999-0101REMSYN086    AAXX  19124 82900 22597 50906 10287 20208 30118 40127 85200 333 20233 59010 60014;
0167829000999992000011918004-08050-034920FM-12+000799999V0200901N001510075019N0100001N1+02951+02101101021ADDAA199000091GF106991061021008001001001MA1999999100931MD1999999-0031REMSYN070AAXX  19184 82900 32597 60903 10295 20210 30093 40102 86200 333 59003;EQDQ01  00002PRCP99
0186829000999992000012000004-08050-034920FM-12+000799999V0200501N001512200019N0020001N1+02651+02181100991ADDAA199000091GF102991021011008001001001KA1240M+03021MA1999999100901MD1999999-0191REMSYN076AAXX  20004 82900 32595 20503 10265 20218 30090 40099 82100 333 10302 59019;EQDQ01  00002PRCP99
0186829000999992000012012004-08050-034920FM-12+000799999V0203601N002110075019N0100001N1+02801+02271101171ADDAA199000091GF105991051021008001001001KA1240N+02101MA1999999101081MD1999999-0101REMSYN076AAXX  20124 82900 32597 53604 10280 20227 30108 40117 85200 333 20210 59010;EQDQ01  00002PRCP99
0167829000999992000012018004-08050-034920FM-12+000799999V0200501N004112200019N0100001N1+03071+02301100791ADDAA199000091GF103991031011008001001001MA1999999100701MD1999999-0231REMSYN070AAXX  20184 82900 32597 30508 10307 20230 30070 40079 83100 333 59023;EQDQ01  00002PRCP99
0186829000999992000012100004-08050-034920FM-12+000799999V0203601N001510075019N0020001N1+02721+02321101091ADDAA199000091GF106991061021008001001001KA1240M+03191MA1999999101001MD1999999+0101REMSYN076AAXX  21004 82900 32595 63603 10272 20232 30100 40109 86200 333 10319 58010;EQDQ01  00002PRCP99
0201829000999992000012112004-08050-034920FM-12+000799999V0201801N001510075019N0100001N1+02481+02381101271ADDAA124026991AY161061AY261061GF107991051031008001031001KA1240N+02291MA1999999101181MD1999999+0161MW1031REMSYN088AAXX  21124 82900 21597 71803 10248 20238 30118 40127 70366 85330 333 20229 58016 60274;
0167829000999992000012118004-08050-034920FM-12+000799999V0200901N003110075019N0100001N1+03031+02311100961ADDAA199000091GF106991061021008001001001MA1999999100871MD1999999+0171REMSYN070AAXX  21184 82900 32597 60906 10303 20231 30087 40096 86200 333 58017;EQDQ01  00002PRCP99
0186829000999992000012200004-08050-034920FM-12+000799999V0200501N003110075019N0020001N1+02771+02441101161ADDAA199000091GF106991061021008001001001KA1240M+03191MA1999999101071MD1999999+0071REMSYN076AAXX  22004 82900 32595 60506 10277 20244 30107 40116 86200 333 10319 58007;EQDQ01  00002PRCP99
0186829000999992000012212004-08050-034920FM-12+000799999V0200501N002110450019N0100001N1+02961+02281101321ADDAA199000091GF106991041021008001031001KA1240N+02421MA1999999101291MD1999999+0111REMSYN076AAXX  22124 82900 32597 60504 10296 20228 30129 40132 84230 333 20242 58011;EQDQ01  00002PRCP99
0167829000999992000012218004-08050-034920FM-12+000799999V0200901N004110450019N0100001N1+02971+02371100981ADDAA199000091GF106991041021008001031001MA1999999100891MD1999999+0021REMSYN070AAXX  22184 82900 32597 60908 10297 20237 30089 40098 84230 333 58002;EQDQ01  00002PRCP99
0186829000999992000012300004-08050-034920FM-12+000799999V0200501N002110075019N0020001N1+02751+02341101251ADDAA199000091GF106991061021008001001001KA1240M+03101MA1999999101161MD1999999+0091REMSYN076AAXX  23004 82900 32595 60504 10275 20234 30116 40125 86200 333 10310 58009;EQDQ01  00002PRCP99
0186829000999992000012312004-08050-034920FM-12+000799999V0200501N001010075019N0100001N1+02861+02261101191ADDAA199000091GF105991051021008001001001KA1240N+02271MA1999999101101MD1999999-0191REMSYN076AAXX  23124 82900 32597 50502 10286 20226 30110 40119 85200 333 20227 59019;EQDQ01  00002PRCP99
0183829000999992000012318004-08050-034920FM-12+000799999V0200501N004619999999N0100001N1+02951+02261100991ADDAA199000091GF106991999021008001001001MA1999999100901MD1999999+0011REMSYN070AAXX  23184 82900 32597 60509 10295 20226 30090 40099 84200 333 58001;EQDQ01+000042SCOTLCQ02  00002PRCP99
0202829000999992000012400004-08050-034920FM-12+000799999V0209999C000010075019N0020001N1+02591+02391101121ADDAA199000091GF106991999021008001001001KA1240M+03021MA1999999101031MD1999999-0131REMSYN076AAXX  24004 82900 32595 60000 10259 20239 30103 40112 85200 333 10302 59013;EQDQ01+000052SCOTLCQ02  00002PRCP99
0186829000999992000012412004-08050-034920FM-12+000799999V0200501N002110450019N0100001N1+02831+02101101191ADDAA199000091GF106991041021008001041001KA1240N+02261MA1999999101101MD1999999+0001REMSYN076AAXX  24124 82900 32597 60504 10283 20210 30110 40119 84240 333 20226 58000;EQDQ01  00002PRCP99
0186829000999992000012500004-08050-034920FM-12+000799999V0200501N001512200019N0020001N1+02701+02281101131ADDAA199000091GF102991021011008001001001KA1240M+03121MA1999999101041MD1999999+0011REMSYN076AAXX  25004 82900 32595 20503 10270 20228 30104 40113 82100 333 10312 58001;EQDQ01  00002PRCP99
0186829000999992000012512004-08050-034920FM-12+000799999V0200501N001510075019N0100001N1+02861+02311101231ADDAA199000091GF105991051021008001001001KA1240N+02241MA1999999101141MD1999999+0041REMSYN076AAXX  25124 82900 32597 50503 10286 20231 30114 40123 85200 333 20224 58004;EQDQ01  00002PRCP99
0167829000999992000012518004-08050-034920FM-12+000799999V0200901N003612200019N0100001N1+02971+02331101061ADDAA199000091GF103991031021008001001001MA1999999100971MD1999999+0081REMSYN070AAXX  25184 82900 32597 30907 10297 20233 30097 40106 83200 333 58008;EQDQ01  00002PRCP99
0186829000999992000012600004-08050-034920FM-12+000799999V0200501N002610075019N0020001N1+02751+02341101181ADDAA199000091GF105991051021008001001001KA1240M+03151MA1999999101091MD1999999+0011REMSYN076AAXX  26004 82900 32595 50505 10275 20234 30109 40118 85200 333 10315 58001;EQDQ01  00002PRCP99
0201829000999992000012612004-08050-034920FM-12+000799999V0200901N003610075019N0100001N1+02841+02311101401ADDAA124004191AY161061AY221061GF105991051021008001001001KA1240N+02271MA1999999101311MD1999999+0171MW1021REMSYN088AAXX  26124 82900 21597 50907 10284 20231 30131 40140 70262 85200 333 20227 58017 60044;
0167829000999992000012618004-08050-034920FM-12+000799999V0200901N003610075019N0100001N1+02961+02351101071ADDAA199000091GF106991061021008001001001MA1999999100981MD1999999+0011REMSYN070AAXX  26184 82900 32597 60907 10296 20235 30098 40107 86200 333 58001;EQDQ01  00002PRCP99
0202829000999992000012700004-08050-034920FM-12+000799999V0202001N046829999999N0020001N1+99999+99999999999ADDAA199000091KA1240M+03351MA1999999999999MD1999999+0101REMSYN070AAXX  27004 82900 32595 /2091 20909 39791 4//// 82200 333 10335 58010;EQDQ01+004683WOSPD Q02+097913APOSP Q03  00002PRCP99Q04 097913APOSP 
0186829000999992000012712004-08050-034920FM-12+000799999V0200901N001510075019N0100001N1+02801+02081101311ADDAA199000091GF106991061021008001001001KA1240N+02301MA1999999101221MD1999999-0091REMSYN076AAXX  27124 82900 32597 60903 10280 20208 30122 40131 86200 333 20230 59009;EQDQ01  00002PRCP99
0167829000999992000012718004-08050-034920FM-12+000799999V0200901N003110075019N0100001N1+02971+02121100981ADDAA199000091GF105991051021008001001001MA1999999100891MD1999999-0091REMSYN070AAXX  27184 82900 32597 50906 10297 20212 30089 40098 85200 333 59009;EQDQ01  00002PRCP99
0186829000999992000012800004-08050-034920FM-12+000799999V0200901N001512200019N0020001N1+02711+02391101231ADDAA199000091GF104991041021008001001001KA1240M+03061MA1999999101141MD1999999+0001REMSYN076AAXX  28004 82900 32595 40903 10271 20239 30114 40123 84200 333 10306 58000;EQDQ01  00002PRCP99
0206829000999992000012812004-08050-034920FM-12+000799999V0200201N006712200019N0200001N1+99999+99999101331ADDAA199000091GF102991999011008001001001KA1240N+02341MA1999999999999MD1999999+0021REMSYN064AAXX  28124 82900 32598 20213 39719 40133 85100 333 20234 58002;EQDQ01+000052SCOTLCQ02  00002PRCP99Q03 097193APOSP 
0183829000999992000012818004-08050-034920FM-12+000799999V0200901N004612200019N0100001N1+02981+02301100951ADDAA199000091GF103991031021008001001001MA1999999100862MD1999999-0031REMSYN070AAXX  28184 82900 32597 30909 10298 20230 30086 40095 83200 333 59003;EQDQ01+100863APOSP Q02  00002PRCP99
0186829000999992000012900004-08050-034920FM-12+000799999V0200901N001512200019N0020001N1+02711+02281101171ADDAA199000091GF103991031021008001001001KA1240M+03061MA1999999101081MD1999999-0061REMSYN076AAXX  29004 82900 32595 30903 10271 20228 30108 40117 83200 333 10306 59006;EQDQ01  00002PRCP99
0186829000999992000012912004-08050-034920FM-12+000799999V0200901N002110075019N0100001N1+02961+02281101281ADDAA199000091GF105991051021008001001001KA1240N+02281MA1999999101191MD1999999+0031REMSYN076AAXX  29124 82900 32597 50904 10296 20228 30119 40128 85200 333 20228 58003;EQDQ01  00002PRCP99
0167829000999992000012918004-08050-034920FM-12+000799999V0200901N003110075019N0100001N1+02981+02251101111ADDAA199000091GF106991061021008001001001MA1999999101021MD1999999-0061REMSYN070AAXX  29184 82900 32597 60906 10298 20225 30102 40111 86200 333 59006;EQDQ01  00002PRCP99
0202829000999992000013000004-08050-034920FM-12+000799999V0200901N003119999999N0020001N1+02771+02231101161ADDAA199000091GF105991999011008001001001KA1240M+03081MA1999999101041MD1999999-0051REMSYN076AAXX  30004 82900 32595 50906 10277 20223 30104 40116 82100 333 10308 59005;EQDQ01+000022SCOTLCQ02  00002PRCP99
0186829000999992000013012004-08050-034920FM-12+000799999V0201401N003110075019N0100001N1+02921+02361101421ADDAA199000091GF106991061021008001001001KA1240N+02651MA1999999101331MD1999999+0141REMSYN076AAXX  30124 82900 32597 61406 10292 20236 30133 40142 86200 333 20265 58014;EQDQ01  00002PRCP99
0167829000999992000013018004-08050-034920FM-12+000799999V0200901N005110075019N0100001N1+02851+02351101211ADDAA199000091GF106991061071008001001001MA1999999101121MD1999999-0101REMSYN070AAXX  30184 82900 32597 60910 10285 20235 30112 40121 86700 333 59010;EQDQ01  00002PRCP99
0201829000999992000013100004-08050-034920FM-12+000799999V0202301N001010075019N0020001N1+02671+02431101371ADDAA106005191AY161061AY221061GF107991071071008001001001KA1240M+03041MA1999999101281MD1999999+0211MW1011REMSYN088AAXX  31004 82900 21595 72302 10267 20243 30128 40137 70162 87700 333 10304 58021 60051;
0173829000999992000013112004-08050-034920FM-12+000799999V0201401N003110075019N0100001N1+02881+02321101591ADDAA124005191GF106991061021008001001001KA1240N+02201MA1999999101501MD1999999+0171REMSYN082AAXX  31124 82900 22597 61406 10288 20232 30150 40159 86200 333 20220 58017 60054;
0167829000999992000013118004-08050-034920FM-12+000799999V0201801N004110075019N0100001N1+02891+02281101291ADDAA199000091GF105991051021008001001001MA1999999101201MD1999999+0081REMSYN070AAXX  31184 82900 32597 51808 10289 20228 30120 40129 85200 333 58008;EQDQ01  00002PRCP99
0186829000999992000020100004-08050-034920FM-12+000799999V0201801N003112200019N0020001N1+02681+02291101431ADDAA199000091GF103991031021008001001001KA1240M+03011MA1999999101341MD1999999+0061REMSYN076AAXX  01004 82900 32595 31806 10268 20229 30134 40143 83200 333 10301 58006;EQDQ01  00002PRCP99
0201829000999992000020112004-08050-034920FM-12+000799999V0201401N004610075019N0100001N1+02901+02301101521ADDAA124007991AY161061AY221061GF107991061051008001031001KA1240N+02301MA1999999101431MD1999999-0071MW1031REMSYN088AAXX  01124 82900 21597 71409 10290 20230 30143 40152 70362 86530 333 20230 59007 60084;
0167829000999992000020118004-08050-034920FM-12+000799999V0201401N003610075019N0100001N1+02921+02241101211ADDAA199000091GF105991051021008001001001MA1999999101121MD1999999-0081REMSYN070AAXX  01184 82900 32597 51407 10292 20224 30112 40121 85200 333 59008;EQDQ01  00002PRCP99
0186829000999992000020200004-08050-034920FM-12+000799999V0200901N002610075019N0020001N1+02691+02311101441ADDAA199000091GF105991051011008001001001KA1240M+02961MA1999999101351MD1999999+0011REMSYN076AAXX  02004 82900 32595 50905 10269 20231 30135 40144 85100 333 10296 58001;EQDQ01  00002PRCP99
0186829000999992000020212004-08050-034920FM-12+000799999V0209999C000010075019N0100001N1+02851+02331101271ADDAA199000091GF105991051021008001001001KA1240N+02281MA1999999101181MD1999999-0101REMSYN076AAXX  02124 82900 32597 50000 10285 20233 30118 40127 85200 333 20228 59010;EQDQ01  00002PRCP99
0186829000999992000020300004-08050-034920FM-12+000799999V0203601N001012200019N0020001N1+02711+02411101281ADDAA199000091GF102991021011008001001001KA1240M+03161MA1999999101131MD1999999-0221REMSYN076AAXX  03004 82900 32595 23602 10271 20241 30113 40128 82100 333 10316 59022;EQDQ01  00002PRCP99
0186829000999992000020312004-08050-034920FM-12+000799999V0203601N003110450019N0100001N1+02831+02381101191ADDAA199000091GF106991041021008001041001KA1240N+02341MA1999999101101MD1999999-0141REMSYN076AAXX  03124 82900 32597 63606 10283 20238 30110 40119 84240 333 20234 59014;EQDQ01  00002PRCP99
0167829000999992000020318004-08050-034920FM-12+000799999V0200501N003112200019N0100001N1+03081+02211100821ADDAA199000091GF101991011021008001001001MA1999999100731MD1999999-0251REMSYN070AAXX  03184 82900 32597 10506 10308 20221 30073 40082 81200 333 59025;EQDQ01  00002PRCP99
0196829000999992000020400004-08050-034920FM-12+000799999V0203601N001512200019N0020001N1+02691+02371101081ADDAA199000091GA1001+999999999GF100991001001999999001001KA1240M+03191MA1999999100991MD1999999-0141REMSYN070AAXX  04004 82900 32995 03603 10269 20237 30099 40108 333 10319 59014;EQDQ01  00002PRCP99
0186829000999992000020412004-08050-034920FM-12+000799999V0203601N002110075019N0100001N1+02871+02371101371ADDAA199000091GF106991051041008001021001KA1240N+02341MA1999999101281MD1999999+0181REMSYN076AAXX  04124 82900 32597 63604 10287 20237 30128 40137 85420 333 20234 58018;EQDQ01  00002PRCP99
0167829000999992000020418004-08050-034920FM-12+000799999V0200501N005712200019N0100001N1+03131+02181101091ADDAA199000091GF102991021001008001031001MA1999999101001MD1999999+0271REMSYN070AAXX  04184 82900 32597 20511 10313 20218 30100 40109 82030 333 58027;EQDQ01  00002PRCP99
0202829000999992000020500004-08050-034920FM-12+000799999V0200501N001512200019N0020001N1+02731+02401101161ADDAA199000091GF101991999011008001001001KA1240M+03201MA1999999101071MD1999999+0081REMSYN076AAXX  05004 82900 32595 10503 10273 20240 30107 40116 82100 333 10320 58008;EQDQ01+000022SCOTLCQ02  00002PRCP99
0186829000999992000020512004-08050-034920FM-12+000799999V0200501N002110075019N0100001N1+02941+02291101441ADDAA199000091GF106991061021008001001001KA1240N+02261MA1999999101351MD1999999+0071REMSYN076AAXX  05124 82900 32597 60504 10294 20229 30135 40144 86200 333 20226 58007;EQDQ01  00002PRCP99
0167829000999992000020518004-08050-034920FM-12+000799999V0200901N004612200019N0100001N1+03091+02371101201ADDAA199000091GF104991041011008001001001MA1999999101111MD1999999+0111REMSYN070AAXX  05184 82900 32597 40909 10309 20237 30111 40120 84100 333 58011;EQDQ01  00002PRCP99
0186829000999992000020612004-08050-034920FM-12+000799999V0200901N003110075019N0100001N1+02981+02331101381ADDAA199000091GF105991051021008001001001KA1240N+02341MA1999999101291MD1999999-0061REMSYN076AAXX  06124 82900 32597 50906 10298 20233 30129 40138 85200 333 20234 59006;EQDQ01  00002PRCP99
0167829000999992000020618004-08050-034920FM-12+000799999V0200901N004610075019N0100001N1+02961+02401101161ADDAA199000091GF106991061021008001001001MA1999999101071MD1999999-0041REMSYN070AAXX  06184 82900 32597 60909 10296 20240 30107 40116 86200 333 59004;EQDQ01  00002PRCP99
0186829000999992000020700004-08050-034920FM-12+000799999V0200501N002112200019N0020001N1+02741+02301101291ADDAA199000091GF104991041021008001001001KA1240M+03041MA1999999101201MD1999999-0031REMSYN076AAXX  07004 82900 32595 40504 10274 20230 30120 40129 84200 333 10304 59003;EQDQ01  00002PRCP99
0201829000999992000020712004-08050-034920FM-12+000799999V0200901N003110075019N0100001N1+02831+02241101351ADDAA124001091AY161061AY211061GF106991061021008001001001KA1240N+02381MA1999999101261MD1999999-0031MW1031REMSYN088AAXX  07124 82900 21597 60906 10283 20224 30126 40135 70361 86200 333 20238 59003 60014;
0167829000999992000020718004-08050-034920FM-12+000799999V0200901N002610075019N0100001N1+02961+02261101101ADDAA199000091GF105991051021008001001001MA1999999101011MD1999999-0061REMSYN070AAXX  07184 82900 32597 50905 10296 20226 30101 40110 85200 333 59006;EQDQ01  00002PRCP99
0186829000999992000020800004-08050-034920FM-12+000799999V0200901N003110075019N0020001N1+02751+02281101311ADDAA199000091GF105991051021008001001001KA1240M+03121MA1999999101221MD1999999+0021REMSYN076AAXX  08004 82900 32595 50906 10275 20228 30122 40131 85200 333 10312 58002;EQDQ01  00002PRCP99
0201829000999992000020812004-08050-034920FM-12+000799999V0200901N004110075019N0100001N1+02921+02361101501ADDAA124015091AY161061AY221061GF107991061071008001021001KA1240N+02361MA1999999101411MD1999999+0151MW1011REMSYN088AAXX  08124 82900 21597 70908 10292 20236 30141 40150 70162 86720 333 20236 58015 60154;
0167829000999992000020818004-08050-034920FM-12+000799999V0200901N003112200019N0100001N1+02941+02291101111ADDAA199000091GF104991031021008001031001MA1999999101051MD1999999+0011REMSYN070AAXX  08184 82900 32597 40906 10294 20229 30105 40111 83230 333 58001;EQDQ01  00002PRCP99
0186829000999992000020900004-08050-034920FM-12+000799999V0200901N003112200019N0020001N1+02761+02281101371ADDAA199000091GF104991041021008001001001KA1240M+03021MA1999999101281MD1999999+0061REMSYN076AAXX  09004 82900 32595 40906 10276 20228 30128 40137 84200 333 10302 58006;EQDQ01  00002PRCP99
0186829000999992000020912004-08050-034920FM-12+000799999V0201401N004110075019N0100001N1+02921+02321101421ADDAA199000091GF106991061021008001001001KA1240N+02251MA1999999101331MD1999999-0081REMSYN076AAXX  09124 82900 32597 61408 10292 20232 30133 40142 86200 333 20225 59008;EQDQ01  00002PRCP99
0167829000999992000020918004-08050-034920FM-12+000799999V0201401N004110075019N0100001N1+02941+02241101191ADDAA199000091GF106991061021008001001001MA1999999101101MD1999999+0081REMSYN070AAXX  09184 82900 32597 61408 10294 20224 30110 40119 86200 333 58008;EQDQ01  00002PRCP99
0186829000999992000021000004-08050-034920FM-12+000799999V0200901N002110450019N0020001N1+02671+02331101291ADDAA199000091GF105991031011008001051001KA1240M+03041MA1999999101201MD1999999-0081REMSYN076AAXX  10004 82900 32595 50904 10267 20233 30120 40129 83150 333 10304 59008;EQDQ01  00002PRCP99
0201829000999992000021012004-08050-034920FM-12+000799999V0200901N002110075019N0100001N1+02741+02261101371ADDAA124000591AY151061AY231061GF106991061021008001001001KA1240N+02461MA1999999101281MD1999999-0051MW1021REMSYN088AAXX  10124 82900 21597 60904 10274 20226 30128 40137 70253 86200 333 20246 59005 69944;
0167829000999992000021018004-08050-034920FM-12+000799999V0200901N003110075019N0100001N1+02921+02321101131ADDAA199000091GF106991061021008001001001MA1999999101041MD1999999-0061REMSYN070AAXX  10184 82900 32597 60906 10292 20232 30104 40113 86200 333 59006;EQDQ01  00002PRCP99
0186829000999992000021100004-08050-034920FM-12+000799999V0200901N003110075019N0020001N1+02771+02321101161ADDAA199000091GF106991061021008001001001KA1240M+03061MA1999999101071MD1999999-0131REMSYN076AAXX  11004 82900 32595 60906 10277 20232 30107 40116 86200 333 10306 59013;EQDQ01  00002PRCP99
0186829000999992000021112004-08050-034920FM-12+000799999V0201401N003110075019N0100001N1+02861+02161101211ADDAA199000091GF105991051021008001001001KA1240N+02381MA1999999101121MD1999999-0161REMSYN076AAXX  11124 82900 32597 51406 10286 20216 30112 40121 85200 333 20238 59016;EQDQ01  00002PRCP99
0167829000999992000021118004-08050-034920FM-12+000799999V0201401N005110075019N0100001N1+02931+02241101111ADDAA199000091GF106991061021008001001001MA1999999101021MD1999999-0021REMSYN070AAXX  11184 82900 32597 61410 10293 20224 30102 40111 86200 333 59002;EQDQ01  00002PRCP99
0186829000999992000021200004-08050-034920FM-12+000799999V0201401N003112200019N0020001N1+02731+02191101161ADDAA199000091GF102991021011008001001001KA1240M+03041MA1999999101071MD1999999+0001REMSYN076AAXX  12004 82900 32595 21406 10273 20219 30107 40116 82100 333 10304 58000;EQDQ01  00002PRCP99
0202829000999992000021212004-08050-034920FM-12+000799999V0201401N003110075019N0100001N1+02891+02221101361ADDAA199000091GF106991999021008001001001KA1240N+02101MA1999999101271MD1999999+0151REMSYN076AAXX  12124 82900 32597 61406 10289 20222 30127 40136 85200 333 20210 58015;EQDQ01+000052SCOTLCQ02  00002PRCP99
0167829000999992000021218004-08050-034920FM-12+000799999V0201401N003610075019N0100001N1+02961+02211101091ADDAA199000091GF105991051021008001001001MA1999999101001MD1999999-0051REMSYN070AAXX  12184 82900 32597 51407 10296 20221 30100 40109 85200 333 59005;EQDQ01  00002PRCP99
0186829000999992000021300004-08050-034920FM-12+000799999V0201401N001510075019N0020001N1+02761+02341101181ADDAA199000091GF105991051021008001001001KA1240M+03081MA1999999101091MD1999999+0021REMSYN076AAXX  13004 82900 32595 51403 10276 20234 30109 40118 85200 333 10308 58002;EQDQ01  00002PRCP99
0186829000999992000021312004-08050-034920FM-12+000799999V0201801N005710075019N0100001N1+02821+02291101231ADDAA199000091GF107991061051008001041001KA1240N+02221MA1999999101141MD1999999-0131REMSYN076AAXX  13124 82900 32597 71811 10282 20229 30114 40123 86540 333 20222 59013;EQDQ01  00002PRCP99
0182829000999992000021318004-08050-034920FM-12+000799999V0201401N003110450019N0100001N1+02921+02321100961ADDAA106002091AY161061AY221061GF106991041071008001031001MA1999999100871MD1999999-0131MW1011REMSYN082AAXX  13184 82900 21597 61406 10292 20232 30087 40096 70162 84730 333 59013 60021;
0186829000999992000021400004-08050-034920FM-12+000799999V0209999C000010075019N0020001N1+02641+02391101231ADDAA199000091GF106991061021008001001001KA1240M+03011MA1999999101141MD1999999+0051REMSYN076AAXX  14004 82900 32595 60000 10264 20239 30114 40123 86200 333 10301 58005;EQDQ01  00002PRCP99
0201829000999992000021412004-08050-034920FM-12+000799999V0201801N003610075019N0100001N1+02731+02431101291ADDAA124007191AY161061AY291061GF107991061071008001021001KA1240N+02301MA1999999101201MD1999999+0061MW1031REMSYN088AAXX  14124 82900 21597 71807 10273 20243 30120 40129 70369 86720 333 20230 58006 60074;
0167829000999992000021418004-08050-034920FM-12+000799999V0201801N003110075019N0100001N1+02891+02251101131ADDAA199000091GF106991051071008001061001MA1999999101041MD1999999+0171REMSYN070AAXX  14184 82900 32597 61806 10289 20225 30104 40113 85760 333 58017;EQDQ01  00002PRCP99
0186829000999992000021500004-08050-034920FM-12+000799999V0202701N002110075019N0020001N1+02521+02191101221ADDAA199000091GF107991071021008001001001KA1240M+03021MA1999999101131MD1999999-0011REMSYN076AAXX  15004 82900 32595 72704 10252 20219 30113 40122 87200 333 10302 59001;EQDQ01  00002PRCP99
0186829000999992000021512004-08050-034920FM-12+000799999V0202301N001510075019N0100001N1+02821+02401101181ADDAA199000091GF106991061021008001001001KA1240N+02301MA1999999101091MD1999999-0111REMSYN076AAXX  15124 82900 32597 62303 10282 20240 30109 40118 86200 333 20230 59011;EQDQ01  00002PRCP99
0167829000999992000021518004-08050-034920FM-12+000799999V0200901N005110075019N0100001N1+02931+02381100921ADDAA199000091GF106991061021008001001001MA1999999100831MD1999999-0211REMSYN070AAXX  15184 82900 32597 60910 10293 20238 30083 40092 86200 333 59021;EQDQ01  00002PRCP99
0186829000999992000021600004-08050-034920FM-12+000799999V0209999C000010075019N0020001N1+02541+02401101201ADDAA199000091GF107991071071008001001001KA1240M+03141MA1999999101111MD1999999-0021REMSYN076AAXX  16004 82900 32595 70000 10254 20240 30111 40120 87700 333 10314 59002;EQDQ01  00002PRCP99
0201829000999992000021612004-08050-034920FM-12+000799999V0201801N002610075019N0100001N1+02571+02521101291ADDAA124006191AY161061AY221061GF107991061071008001021001KA1240N+02371MA1999999101201MD1999999+0111MW1011REMSYN088AAXX  16124 82900 21597 71805 10257 20252 30120 40129 70162 86720 333 20237 58011 60064;
0182829000999992000021618004-08050-034920FM-12+000799999V0201401N004110450019N0100001N1+02871+02371100901ADDAA106004191AY191061AY261061GF105991041041008001031001MA1999999100811MD1999999+0021MW1011REMSYN082AAXX  16184 82900 21597 51408 10287 20237 30081 40090 70196 84430 333 58002 60041;
0186829000999992000021700004-08050-034920FM-12+000799999V0202301N001010075019N0020001N1+02611+02371101241ADDAA199000091GF106991061021008001001001KA1240M+02901MA1999999101151MD1999999+0041REMSYN076AAXX  17004 82900 32595 62302 10261 20237 30115 40124 86200 333 10290 58004;EQDQ01  00002PRCP99
0201829000999992000021712004-08050-034920FM-12+000799999V0201801N004110075019N0100001N1+02801+02381101241ADDAA124008991AY161061AY261061GF105991051021008001001001KA1240N+02251MA1999999101151MD1999999-0051MW1031REMSYN088AAXX  17124 82900 21597 51808 10280 20238 30115 40124 70366 85200 333 20225 59005 60094;
0167829000999992000021718004-08050-034920FM-12+000799999V0201401N005712200019N0100001N1+02931+02341100931ADDAA199000091GF104991041021008001001001MA1999999100841MD1999999+0031REMSYN070AAXX  17184 82900 32597 41411 10293 20234 30084 40093 84200 333 58003;EQDQ01  00002PRCP99
0186829000999992000021800004-08050-034920FM-12+000799999V0201401N005110075019N0020001N1+02781+02401101231ADDAA199000091GF106991061021008001001001KA1240M+03011MA1999999101141MD1999999-0011REMSYN076AAXX  18004 82900 32595 61410 10278 20240 30114 40123 86200 333 10301 59001;EQDQ01  00002PRCP99
0186829000999992000021812004-08050-034920FM-12+000799999V0201401N004110075019N0100001N1+02941+02191101321ADDAA199000091GF106991061021008001001001KA1240N+02641MA1999999101231MD1999999+0081REMSYN076AAXX  18124 82900 32597 61408 10294 20219 30123 40132 86200 333 20264 58008;EQDQ01  00002PRCP99
0167829000999992000021818004-08050-034920FM-12+000799999V0201401N004112200019N0100001N1+03041+02181101051ADDAA199000091GF102991021021008001001001MA1999999100961MD1999999+0121REMSYN070AAXX  18184 82900 32597 21408 10304 20218 30096 40105 82200 333 58012;EQDQ01  00002PRCP99
0186829000999992000021900004-08050-034920FM-12+000799999V0201801N003110075019N0020001N1+02721+02261101231ADDAA199000091GF106991061021008001001001KA1240M+03081MA1999999101441MD1999999+0001REMSYN076AAXX  19004 82900 32595 61806 10272 20226 30144 40123 86200 333 10308 58000;EQDQ01  00002PRCP99
0202829000999992000021912004-08050-034920FM-12+000799999V0201401N003119999999N0100001N1+02891+02231101301ADDAA199000091GF106991999021008001001001KA1240N+02371MA1999999101211MD1999999-0021REMSYN076AAXX  19124 82900 32597 61406 10289 20223 30121 40130 84200 333 20237 59002;EQDQ01+000042SCOTLCQ02  00002PRCP99
0167829000999992000021918004-08050-034920FM-12+000799999V0201801N003110450019N0100001N1+03001+02221101061ADDAA199000091GF105991041021008001021001MA1999999100971MD1999999+0011REMSYN070AAXX  19184 82900 32597 51806 10300 20222 30097 40106 84220 333 58001;EQDQ01  00002PRCP99
0186829000999992000022000004-08050-034920FM-12+000799999V0202301N001510450019N0020001N1+02711+02321101231ADDAA199000091GF105991031021008001031001KA1240M+03141MA1999999101141MD1999999+0001REMSYN076AAXX  20004 82900 32595 52303 10271 20232 30114 40123 83230 333 10314 58000;EQDQ01  00002PRCP99
0201829000999992000022012004-08050-034920FM-12+000799999V0200901N001010075019N0100001N1+02471+02361101471ADDAA124000591AY191061AY221061GF108991081071008001001001KA1240N+02441MA1999999101381MD1999999+0171MW1501REMSYN088AAXX  20124 82900 21597 80902 10247 20236 30138 40147 75092 88700 333 20244 58017 69964;
0201829000999992000022018004-08050-034920FM-12+000799999V0203201N003110075019N0100001N1+02811+02221101021ADDAA106001091AY161061AY221061GF107991999071008001001001MA1999999100931MD1999999-0041MW1011REMSYN082AAXX  20184 82900 21597 73206 10281 20222 30093 40102 70162 85700 333 59004 60011;EQDQ01+000052SCOTLC
0167829000999992000022100004-08050-034920FM-12+000799999V0201401N001510075019N0020001N1+02631+02331101221ADDAA199000021GF106991061021008001001001KA1240M+02851MA1999999101131MD1999999-0011REMSYN076AAXX  21004 82900 32595 61403 10263 20233 30113 40122 86200 333 10285 59001;
0167829000999992000022118004-08050-034920FM-12+000799999V0201401N004110075019N0100001N1+02911+02361100941ADDAA199000091GF106991061021008001001001MA1999999100851MD1999999-0081REMSYN070AAXX  21184 82900 32597 61408 10291 20236 30085 40094 86200 333 59008;EQDQ01  00002PRCP99
0186829000999992000022200004-08050-034920FM-12+000799999V0201401N001512200019N0020001N1+02771+02421101211ADDAA199000091GF102991021021008001001001KA1240M+03041MA1999999101121MD1999999-0011REMSYN076AAXX  22004 82900 32595 21403 10277 20242 30112 40121 82200 333 10304 59001;EQDQ01  00002PRCP99
0201829000999992000022212004-08050-034920FM-12+000799999V0202301N001010075019N0100001N1+02701+02431101231ADDAA124011991AY161061AY231061GF108991081071008001999999KA1240N+02331MA1999999101141MD1999999-0011MW1031REMSYN088AAXX  22124 82900 21597 82302 10270 20243 30114 40123 70363 887// 333 20233 59001 60124;
0182829000999992000022218004-08050-034920FM-12+000799999V0201401N002110450019N0100001N1+02871+02351100981ADDAA106002091AY161061AY291061GF106991041021008001021001MA1999999100891MD1999999+0041MW1021REMSYN082AAXX  22184 82900 21597 61404 10287 20235 30089 40098 70269 84220 333 58004 60021;
0186829000999992000022300004-08050-034920FM-12+000799999V0209999C000010075019N0020001N1+02561+02441101201ADDAA199000091GF107991071071008001001001KA1240M+02891MA1999999101111MD1999999-0011REMSYN076AAXX  23004 82900 32595 70000 10256 20244 30111 40120 87700 333 10289 59001;EQDQ01  00002PRCP99
0201829000999992000022312004-08050-034920FM-12+000799999V0202301N003110075019N0100001N1+02441+02231101251ADDAA124006191AY191061AY261061GF106991061021008001001001KA1240N+02361MA1999999101161MD1999999+0021MW1021REMSYN088AAXX  23124 82900 21597 62306 10244 20223 30116 40125 70296 86200 333 20236 58002 60064;
0186829000999992000022400004-08050-034920FM-12+000799999V0209999C000012200019N0020001N1+02371+02351101221ADDAA199000091GF102991021011008001001001KA1240M+02601MA1999999101131MD1999999+0021REMSYN076AAXX  24004 82900 32595 20000 10237 20235 30113 40122 82100 333 10260 58002;EQDQ01  00002PRCP99
0201829000999992000022412004-08050-034920FM-12+000799999V0201401N003110075019N0100001N1+02781+02381101191ADDAA124011991AY161061AY221061GF107991061071008001021001KA1240N+02261MA1999999101101MD1999999-0061MW1031REMSYN088AAXX  24124 82900 21597 71406 10278 20238 30110 40119 70362 86720 333 20226 59006 60124;
0167829000999992000022418004-08050-034920FM-12+000799999V0201401N004110450019N0100001N1+02921+02341101031ADDAA199000091GF105991041021008001031001MA1999999100941MD1999999+0041REMSYN070AAXX  24184 82900 32597 51408 10292 20234 30094 40103 84230 333 58004;EQDQ01  00002PRCP99
0186829000999992000022500004-08050-034920FM-12+000799999V0209999C000012200019N0020001N1+02491+02271101161ADDAA199000091GF102991021011008001001001KA1240M+02991MA1999999101071MD1999999-0061REMSYN076AAXX  25004 82900 32595 20000 10249 20227 30107 40116 82100 333 10299 59006;EQDQ01  00002PRCP99
0186829000999992000022512004-08050-034920FM-12+000799999V0209999C000010075019N0100001N1+02721+02411101241ADDAA199000091GF106991051051008001031001KA1240N+02181MA1999999101151MD1999999-0051REMSYN076AAXX  25124 82900 32597 60000 10272 20241 30115 40124 85530 333 20218 59005;EQDQ01  00002PRCP99
0167829000999992000022518004-08050-034920FM-12+000799999V0200901N001510450019N0100001N1+02911+02321101111ADDAA199000091GF105991031021008001021001MA1999999101021MD1999999+0081REMSYN070AAXX  25184 82900 32597 50903 10291 20232 30102 40111 83220 333 58008;EQDQ01  00002PRCP99
0186829000999992000022612004-08050-034920FM-12+000799999V0201401N000510450019N0100001N1+02861+02351101211ADDAA199000091GF106991041021008001031001KA1240N+02321MA1999999101121MD1999999-0031REMSYN076AAXX  26124 82900 32597 61401 10286 20235 30112 40121 84230 333 20232 59003;EQDQ01  00002PRCP99
0182829000999992000022618004-08050-034920FM-12+000799999V0200501N001510075019N0100001N1+02471+02301101091ADDAA106006191AY161061AY261061GF107991071061008001001001MA1999999101001MD1999999-0111MW1011REMSYN082AAXX  26184 82900 21597 70503 10247 20230 30100 40109 70166 87600 333 59011 60061;
0201829000999992000022700004-08050-034920FM-12+000799999V0201401N003110075019N0020001N1+02681+02381101231ADDAA106004191AY161061AY221061GF105991051021008001001001KA1240M+02981MA1999999101141MD1999999+0031MW1021REMSYN088AAXX  27004 82900 21595 51406 10268 20238 30114 40123 70262 85200 333 10298 58003 60041;
0167829000999992000022718004-08050-034920FM-12+000799999V0201401N003110075019N0100001N1+02931+02141101001ADDAA199000091GF106991061021008001001001MA1999999100911MD1999999-0091REMSYN070AAXX  27184 82900 32597 61406 10293 20214 30091 40100 86200 333 59009;EQDQ01  00002PRCP99
0186829000999992000022800004-08050-034920FM-12+000799999V0201401N003110120019N0020001N1+02771+02341101281ADDAA199000091GF105991051081008001001001KA1240M+03021MA1999999101121MD1999999-0021REMSYN076AAXX  28004 82900 32595 51406 10277 20234 30112 40128 85800 333 10302 59002;EQDQ01  00002PRCP99
0186829000999992000022812004-08050-034920FM-12+000799999V0201401N003110075019N0100001N1+02891+02221101191ADDAA199000091GF107991061021008001031001KA1240N+02271MA1999999101101MD1999999-0031REMSYN076AAXX  28124 82900 32597 71406 10289 20222 30110 40119 86230 333 20227 59003;EQDQ01  00002PRCP99
0167829000999992000022818004-08050-034920FM-12+000799999V0201401N004610075019N0100001N1+02971+02281100991ADDAA199000091GF106991051021008001031001MA1999999100901MD1999999-0011REMSYN070AAXX  28184 82900 32597 61409 10297 20228 30090 40099 85230 333 59001;EQDQ01  00002PRCP99
0186829000999992000022900004-08050-034920FM-12+000799999V0201401N003110075019N0020001N1+02711+02341101161ADDAA199000091GF106991061021008001001001KA1240M+03041MA1999999101071MD1999999-0051REMSYN076AAXX  29004 82900 32595 61406 10271 20234 30107 40116 86200 333 10304 59005;EQDQ01  00002PRCP99
0186829000999992000022912004-08050-034920FM-12+000799999V0201401N003610075019N0100001N1+02961+02211101311ADDAA199000091GF106991061021008001001001KA1240N+02301MA1999999101221MD1999999+0121REMSYN076AAXX  29124 82900 32597 61407 10296 20221 30122 40131 86200 333 20230 58012;EQDQ01  00002PRCP99
0167829000999992000022918004-08050-034920FM-12+000799999V0201401N003610450019N0100001N1+02961+02331101091ADDAA199000091GF105991031021008001021001MA1999999101001MD1999999+0101REMSYN070AAXX  29184 82900 32597 51407 10296 20233 30100 40109 83220 333 58010;EQDQ01  00002PRCP99
0186829000999992000030100004-08050-034920FM-12+000799999V0201401N003110075019N0020001N1+02771+02301101331ADDAA199000091GF105991051021008001001001KA1240M+03051MA1999999101241MD1999999+0171REMSYN076AAXX  01004 82900 32595 51406 10277 20230 30124 40133 85200 333 10305 58017;EQDQ01  00002PRCP99
0201829000999992000030112004-08050-034920FM-12+000799999V0200501N001510075019N0100001N1+02791+02321101361ADDAA124005191AY161061AY231061GF106991061021008001001001KA1240N+02281MA1999999101271MD1999999+0051MW1021REMSYN088AAXX  01124 82900 21597 60503 10279 20232 30127 40136 70263 86200 333 20228 58005 60054;
0167829000999992000030118004-08050-034920FM-12+000799999V0201401N003110075019N0100001N1+02941+02471101141ADDAA199000091GF105991051021008001001001MA1999999101051MD1999999+0051REMSYN070AAXX  01184 82900 32597 51406 10294 20247 30105 40114 85200 333 58005;EQDQ01  00002PRCP99
0186829000999992000030200004-08050-034920FM-12+000799999V0201401N003112200019N0020001N1+02751+02281101311ADDAA199000091GF104991041021008001001001KA1240M+03001MA1999999101221MD1999999-0021REMSYN076AAXX  02004 82900 32595 41406 10275 20228 30122 40131 84200 333 10300 59002;EQDQ01  00002PRCP99
0201829000999992000030212004-08050-034920FM-12+000799999V0201401N003110450019N0100001N1+02921+02271101301ADDAA124001091AY161061AY221061GF105991031021008001021001KA1240N+02371MA1999999101211MD1999999-0061MW1021REMSYN088AAXX  02124 82900 21597 51406 10292 20227 30121 40130 70262 83220 333 20237 59006 60014;
0167829000999992000030218004-08050-034920FM-12+000799999V0201401N002110450019N0100001N1+02921+02321101171ADDAA199000091GF105991031021008001021001MA1999999101081MD1999999+0031REMSYN070AAXX  02184 82900 32597 51404 10292 20232 30108 40117 83220 333 58003;EQDQ01  00002PRCP99
0186829000999992000030300004-08050-034920FM-12+000799999V0201401N001012200019N0020001N1+02751+02281101191ADDAA199000091GF104991041021008001001001KA1240M+03071MA1999999101101MD1999999-0121REMSYN076AAXX  03004 82900 32595 41402 10275 20228 30110 40119 84200 333 10307 59012;EQDQ01  00002PRCP99
0201829000999992000030312004-08050-034920FM-12+000799999V0203201N003110075019N0100001N1+02471+02341101351ADDAA124013091AY161061AY221061GF108991081031008001999999KA1240N+02291MA1999999101261MD1999999+0051MW1031REMSYN088AAXX  03124 82900 21597 83206 10247 20234 30126 40135 70362 883// 333 20229 58005 60134;
0182829000999992000030318004-08050-034920FM-12+000799999V0200901N004110075019N0100001N1+02971+02351100951ADDAA106002091AY161061AY221061GF106991051021008001031001MA1999999100861MD1999999-0221MW1011REMSYN082AAXX  03184 82900 21597 60908 10297 20235 30086 40095 70162 85230 333 59022 60021;
0202829000999992000030400004-08050-034920FM-12+000799999V0201401N001512200019N0020001N1+02731+02261101241ADDAA199000091GF103991999021008001001001KA1240M+02981MA1999999101151MD1999999+0151REMSYN076AAXX  04004 82900 32595 31403 10273 20226 30115 40124 84200 333 10298 58015;EQDQ01+000042SCOTLCQ02  00002PRCP99
0167829000999992000030418004-08050-034920FM-12+000799999V0201401N005110075019N0100001N1+02931+02361101101ADDAA199000091GF106991061071008001001001MA1999999101011MD1999999+0151REMSYN070AAXX  04184 82900 32597 61410 10293 20236 30101 40110 86700 333 58015;EQDQ01  00002PRCP99
0186829000999992000030500004-08050-034920FM-12+000799999V0201401N003110075019N0020001N1+02771+02341101341ADDAA199000091GF106991061021008001001001KA1240M+03041MA1999999101251MD1999999+0101REMSYN076AAXX  05004 82900 32595 61406 10277 20234 30125 40134 86200 333 10304 58010;EQDQ01  00002PRCP99
0220829000999992000030512004-08050-034920FM-12+000799999V0201401N003119999999N0100001N1+02871+02281101331ADDAA124005191AY161061AY221061GF105991999021008001001001KA1240N+02321MA1999999101241MD1999999+0011MW1021REMSYN088AAXX  05124 82900 21597 51406 10287 20228 30124 40133 70262 83200 333 20232 58001 60054;EQDQ01+000032SCOTLC
0182829000999992000030518004-08050-034920FM-12+000799999V0201401N003110450019N0100001N1+02861+02481101121ADDAA106000191AY151061AY211061GF106991041071008001031001MA1999999101031MD1999999+0021MW1011REMSYN082AAXX  05184 82900 21597 61406 10286 20248 30103 40112 70151 84730 333 58002 69911;
0186829000999992000030600004-08050-034920FM-12+000799999V0201401N003112200019N0020001N1+02761+02281101291ADDAA199000091GF104991041021008001001001KA1240M+03021MA1999999101201MD1999999-0051REMSYN076AAXX  06004 82900 32595 41406 10276 20228 30120 40129 84200 333 10302 59005;EQDQ01  00002PRCP99
0173829000999992000030612004-08050-034920FM-12+000799999V0201401N003110075019N0100001N1+02931+02311101311ADDAA124000191GF106991061021008001001001KA1240N+02351MA1999999101221MD1999999-0021REMSYN082AAXX  06124 82900 22597 61406 10293 20231 30122 40131 86200 333 20235 59002 69914;
0167829000999992000030618004-08050-034920FM-12+000799999V0201401N003110075019N0020001N1+02971+02351100981ADDAA199000091GF106991061021008001001001MA1999999100891MD1999999-0141REMSYN070AAXX  06184 82900 32595 61406 10297 20235 30089 40098 86200 333 59014;EQDQ01  00002PRCP99
0186829000999992000030700004-08050-034920FM-12+000799999V0201401N003110075019N0020001N1+02791+02291101181ADDAA199000091GF105991051021008001001001KA1240M+03041MA1999999101091MD1999999-0111REMSYN076AAXX  07004 82900 32595 51406 10279 20229 30109 40118 85200 333 10304 59011;EQDQ01  00002PRCP99
0201829000999992000030712004-08050-034920FM-12+000799999V0202701N001010075019N0100001N1+02581+02421101191ADDAA124016091AY161061AY221061GF106991051041008001031001KA1240N+02361MA1999999101101MD1999999-0121MW1011REMSYN088AAXX  07124 82900 21597 62702 10258 20242 30110 40119 70162 85430 333 20236 59012 60164;
0182829000999992000030718004-08050-034920FM-12+000799999V0201401N003110075019N0100001N1+02891+02411100961ADDAA106001091AY151061AY221061GF107991071071008001001001MA1999999100871MD1999999-0021MW1011REMSYN082AAXX  07184 82900 21597 71406 10289 20241 30087 40096 70152 87700 333 59002 69991;
0186829000999992000030800004-08050-034920FM-12+000799999V0203601N002610075019N0020001N1+02511+02451101091ADDAA199000091GF106991061021008001001001KA1240M+02951MA1999999101001MD1999999-0091REMSYN076AAXX  08004 82900 32595 63605 10251 20245 30100 40109 86200 333 10295 59009;EQDQ01  00002PRCP99
0201829000999992000030812004-08050-034920FM-12+000799999V0200901N002610075019N0100001N1+02861+02421101181ADDAA124001091AY161061AY221061GF107991051051008001031001KA1240N+02241MA1999999101091MD1999999-0011MW1031REMSYN088AAXX  08124 82900 21597 70905 10286 20242 30109 40118 70362 85530 333 20224 59001 69994;
0167829000999992000030818004-08050-034920FM-12+000799999V0201401N004112200019N0100001N1+02961+02401100901ADDAA199000091GF104991031021008001041001MA1999999100811MD1999999-0061REMSYN070AAXX  08184 82900 32597 41408 10296 20240 30081 40090 83240 333 59006;EQDQ01  00002PRCP99
0201829000999992000030900004-08050-034920FM-12+000799999V0201401N003110075019N0020001N1+02791+02381101061ADDAA106000191AY151061AY221061GF105991051031008001001001KA1240M+03071MA1999999100971MD1999999-0031MW1031REMSYN088AAXX  09004 82900 21595 51406 10279 20238 30097 40106 70352 85300 333 10307 59003 69921;
0201829000999992000030912004-08050-034920FM-12+000799999V0201401N003610075019N0100001N1+02911+02341101331ADDAA124005191AY161061AY221061GF106991061021008001001001KA1240N+02401MA1999999101241MD1999999+0151MW1021REMSYN088AAXX  09124 82900 21597 61407 10291 20234 30124 40133 70262 86200 333 20240 58015 60054;
0167829000999992000030918004-08050-034920FM-12+000799999V0201401N003610450019N0100001N1+02961+02421100951ADDAA199000091GF106991031021008001031001MA1999999100861MD1999999+0051REMSYN070AAXX  09184 82900 32597 61407 10296 20242 30086 40095 83230 333 58005;EQDQ01  00002PRCP99
0201829000999992000031000004-08050-034920FM-12+000799999V0201401N001510075019N0020001N1+02671+02351101211ADDAA106002091AY161061AY221061GF106991061021008001001001KA1240M+03041MA1999999101121MD1999999+0151MW1011REMSYN088AAXX  10004 82900 21595 61403 10267 20235 30112 40121 70162 86200 333 10304 58015 60021;
0201829000999992000031012004-08050-034920FM-12+000799999V0200901N003610075019N0100001N1+02851+02421101281ADDAA124002091AY161061AY221061GF107991071061008001001001KA1240N+02401MA1999999101191MD1999999-0051MW1031REMSYN088AAXX  10124 82900 21597 70907 10285 20242 30119 40128 70362 87600 333 20240 59005 60024;
0167829000999992000031018004-08050-034920FM-12+000799999V0201401N003110075019N0100001N1+02881+02411101081ADDAA199000091GF108991081071008001001001MA1999999100991MD1999999+0031REMSYN070AAXX  10184 82900 32597 81406 10288 20241 30099 40108 88700 333 58003;EQDQ01  00002PRCP99
0186829000999992000031100004-08050-034920FM-12+000799999V0201401N002610075019N0020001N1+02761+02301101281ADDAA199000091GF106991061021008001001001KA1240M+02941MA1999999101191MD1999999+0071REMSYN076AAXX  11004 82900 32595 61405 10276 20230 30119 40128 86200 333 10294 58007;EQDQ01  00002PRCP99
0201829000999992000031112004-08050-034920FM-12+000799999V0201401N001510075019N0100001N1+02741+02301101121ADDAA124001091AY161061AY211061GF106991061021008001001001KA1240N+02301MA1999999101031MD1999999+0101MW1021REMSYN088AAXX  11124 82900 21597 61403 10274 20230 30103 40112 70261 86200 333 20230 58010 60014;
0167829000999992000031118004-08050-034920FM-12+000799999V0201401N003112200019N0100001N1+02971+02281100961ADDAA199000091GF104991041021008001001001MA1999999100871MD1999999-0121REMSYN070AAXX  11184 82900 32597 41406 10297 20228 30087 40096 84200 333 59012;EQDQ01  00002PRCP99
0186829000999992000031200004-08050-034920FM-12+000799999V0200901N001512200019N0020001N1+02811+02221101061ADDAA199000091GF102991021011008001001001KA1240M+03051MA1999999100971MD1999999-0221REMSYN076AAXX  12004 82900 32595 20903 10281 20222 30097 40106 82100 333 10305 59022;EQDQ01  00002PRCP99
0186829000999992000031212004-08050-034920FM-12+000799999V0201401N003110075019N0100001N1+02921+02241101121ADDAA199000091GF105991051021008001001001KA1240N+02201MA1999999101031MD1999999+0001REMSYN076AAXX  12124 82900 32597 51406 10292 20224 30103 40112 85200 333 20220 58000;EQDQ01  00002PRCP99
0167829000999992000031218004-08050-034920FM-12+000799999V0201401N003112200019N0100001N1+03051+01971100791ADDAA199000091GF101991011011008001001001MA1999999100701MD1999999+0101REMSYN070AAXX  12184 82900 32597 11406 10305 20197 30070 40079 81100 333 58010;EQDQ01  00002PRCP99
0186829000999992000031300004-08050-034920FM-12+000799999V0201401N001012200019N0020001N1+02751+02281100931ADDAA199000091GF101991011011008001001001KA1240M+03101MA1999999100841MD1999999-0131REMSYN076AAXX  13004 82900 32595 11402 10275 20228 30084 40093 81100 333 10310 59013;EQDQ01  00002PRCP99
0186829000999992000031312004-08050-034920FM-12+000799999V0200501N002110450019N0100001N1+02861+02331101091ADDAA199000091GF106991041021008001021001KA1240N+02401MA1999999101001MD1999999-0031REMSYN076AAXX  13124 82900 32597 60504 10286 20233 30100 40109 84220 333 20240 59003;EQDQ01  00002PRCP99
0167829000999992000031318004-08050-034920FM-12+000799999V0200901N003612200019N0100001N1+03041+02431100801ADDAA199000091GF103991031021008001001001MA1999999100711MD1999999-0011REMSYN070AAXX  13184 82900 32597 30907 10304 20243 30071 40080 83200 333 59001;EQDQ01  00002PRCP99
0186829000999992000031400004-08050-034920FM-12+000799999V0200501N003110075019N0020001N1+02791+02311101011ADDAA199000091GF106991061021008001001001KA1240M+03151MA1999999100921MD1999999+0081REMSYN076AAXX  14004 82900 32595 60506 10279 20231 30092 40101 86200 333 10315 58008;EQDQ01  00002PRCP99
0201829000999992000031412004-08050-034920FM-12+000799999V0200501N001510075019N0100001N1+02731+02431101211ADDAA124002091AY161061AY221061GF106991061021008001001001KA1240N+02311MA1999999101121MD1999999+0121MW1031REMSYN088AAXX  14124 82900 21597 60503 10273 20243 30112 40121 70362 86200 333 20231 58012 60024;
0167829000999992000031418004-08050-034920FM-12+000799999V0200901N003110450019N0100001N1+02941+02381101051ADDAA199000091GF105991031021008001021001MA1999999100961MD1999999+0251REMSYN070AAXX  14184 82900 32597 50906 10294 20238 30096 40105 83220 333 58025;EQDQ01  00002PRCP99
0165829000999992000031500004-08050-034920FM-12+000799999V0200901N004110075019N0020001N1+02831+02361101171ADDAA199000091GF106991061021008001001001KA1240M+03131MD1999999+0161REMSYN070AAXX  15004 82900 32595 60908 10283 20236 40117 86200 333 10313 58016;EQDQ01  00002PRCP99
0167829000999992000031518004-08050-034920FM-12+000799999V0201401N003612200019N0100001N1+02961+02181101161ADDAA199000091GF102991021021008001031001MA1999999101071MD1999999+0111REMSYN070AAXX  15184 82900 32597 21407 10296 20218 30107 40116 82230 333 58011;EQDQ01  00002PRCP99
0202829000999992000031600004-08050-034920FM-12+000799999V0201401N003112200019N0020001N1+02701+02181101191ADDAA199000091GF102991999021008001001001KA1240M+03091MA1999999101101MD1999999+0021REMSYN076AAXX  16004 82900 32595 21406 10270 20218 30110 40119 83200 333 10309 58002;EQDQ01+000032SCOTLCQ02  00002PRCP99
0186829000999992000031612004-08050-034920FM-12+000799999V0201401N004110075019N0100001N1+02971+02181101211ADDAA199000091GF106991061021008001001001KA1240N+02401MA1999999101121MD1999999-0111REMSYN076AAXX  16124 82900 32597 61408 10297 20218 30112 40121 86200 333 20240 59011;EQDQ01  00002PRCP99
0167829000999992000031618004-08050-034920FM-12+000799999V0201401N004110075019N0100001N1+02961+02071100941ADDAA199000091GF106991061021008001001001MA1999999100851MD1999999-0221REMSYN070AAXX  16184 82900 32597 61408 10296 20207 30085 40094 86200 333 59022;EQDQ01  00002PRCP99
0186829000999992000031700004-08050-034920FM-12+000799999V0200901N001510075019N0020001N1+02761+02231101051ADDAA199000091GF106991061021008001001001KA1240M+03071MA1999999100961MD1999999-0141REMSYN076AAXX  17004 82900 32595 60903 10276 20223 30096 40105 86200 333 10307 59014;EQDQ01  00002PRCP99
0186829000999992000031712004-08050-034920FM-12+000799999V0201801N003110450019N0100001N1+02931+02081101161ADDAA199000091GF105991041021008001011001KA1240N+02291MA1999999101071MD1999999-0051REMSYN076AAXX  17124 82900 32597 51806 10293 20208 30107 40116 84210 333 20229 59005;EQDQ01  00002PRCP99
0167829000999992000031718004-08050-034920FM-12+000799999V0201401N004612200019N0100001N1+02981+02061101741ADDAA199000091GF103991021021008001041001MA1999999101651MD1999999-0201REMSYN070AAXX  17184 82900 32597 31409 10298 20206 30165 40174 82240 333 59020;EQDQ01  00002PRCP99
0186829000999992000031800004-08050-034920FM-12+000799999V0201401N003110075019N0020001N1+02071+99999101001ADDAA199000091GF106991061021008001001001KA1240M+03081MA1999999100911MD1999999-0051REMSYN076AAXX  18004 82900 32595 61406 10207 20234 30091 40100 86200 333 10308 59005;EQDQ01  00002PRCP99
0186829000999992000031812004-08050-034920FM-12+000799999V0201401N001510450019N0100001N1+02921+02291101071ADDAA199000091GF106991041071008001031001KA1240N+02321MA1999999100981MD1999999-0091REMSYN076AAXX  18124 82900 32597 61403 10292 20229 30098 40107 84730 333 20232 59009;EQDQ01  00002PRCP99
0167829000999992000031818004-08050-034920FM-12+000799999V0200901N003110075019N0100001N1+03011+02221100741ADDAA199000091GF106991061021008001001001MA1999999100651MD1999999-0261REMSYN070AAXX  18184 82900 32597 60906 10301 20222 30065 40074 86200 333 59026;EQDQ01  00002PRCP99
0186829000999992000031900004-08050-034920FM-12+000799999V0200901N001512200019N0020001N1+02801+02271101001ADDAA199000091GF104991041011008001001001KA1240M+03091MA1999999100911MD1999999+0001REMSYN076AAXX  19004 82900 32595 40903 10280 20227 30091 40100 84100 333 10309 58000;EQDQ01  00002PRCP99
0202829000999992000031912004-08050-034920FM-12+000799999V0201401N002619999999N0100001N1+02931+02311101121ADDAA199000091GF105991999021008001001001KA1240N+02361MA1999999101031MD1999999+0051REMSYN076AAXX  19124 82900 32597 51405 10293 20231 30103 40112 84200 333 20236 58005;EQDQ01+000042SCOTLCQ02  00002PRCP99
0183829000999992000031918004-08050-034920FM-12+000799999V0201401N004610075019N0100001N1+02991+02271100831ADDAA199000091GF106991999021008001001001MA1999999100741MD1999999+0091REMSYN070AAXX  19184 82900 32597 61409 10299 20227 30074 40083 85200 333 58009;EQDQ01+000052SCOTLCQ02  00002PRCP99
0186829000999992000032000004-08050-034920FM-12+000799999V0201401N001512200019N0020001N1+02771+02301101101ADDAA199000091GF103991031021008001001001KA1240M+03101MA1999999101011MD1999999+0101REMSYN076AAXX  20004 82900 32595 31403 10277 20230 30101 40110 83200 333 10310 58010;EQDQ01  00002PRCP99
0201829000999992000032012004-08050-034920FM-12+000799999V0201401N001510075019N0100001N1+02871+02281101191ADDAA124003091AY161061AY221061GF106991061021008001001001KA1240N+02471MA1999999101101MD1999999+0071MW1021REMSYN088AAXX  20124 82900 21597 61403 10287 20228 30110 40119 70262 86200 333 20247 58007 60034;
0167829000999992000032018004-08050-034920FM-12+000799999V0201401N001512200019N0100001N1+02901+02201100991ADDAA199000091GF104991041021008001001001MA1999999100901MD1999999+0161REMSYN070AAXX  20184 82900 32597 41403 10290 20220 30090 40099 84200 333 58016;EQDQ01  00002PRCP99
0186829000999992000032100004-08050-034920FM-12+000799999V0201801N003110075019N0020001N1+02791+02221101071ADDAA199000091GF105991051021008001001001KA1240M+03071MA1999999100981MD1999999-0031REMSYN076AAXX  21004 82900 32595 51806 10279 20222 30098 40107 85200 333 10307 59003;EQDQ01  00002PRCP99
0201829000999992000032112004-08050-034920FM-12+000799999V0201801N002110450019N0100001N1+02721+02341101211ADDAA124014091AY161061AY221061GF106991031021008001031001KA1240N+02301MA1999999101121MD1999999+0021MW1021REMSYN088AAXX  21124 82900 21597 61804 10272 20234 30112 40121 70262 83230 333 20230 58002 60144;
0167829000999992000032118004-08050-034920FM-12+000799999V0201401N003112200019N0100001N1+02971+02081100891ADDAA199000091GF102991021021008001001001MA1999999100801MD1999999-0101REMSYN070AAXX  21184 82900 32597 21406 10297 20208 30080 40089 82200 333 59010;EQDQ01  00002PRCP99
0186829000999992000032200004-08050-034920FM-12+000799999V0201801N003112200019N0020001N1+02711+02151101041ADDAA199000091GF102991021011008001001001KA1240M+03021MA1999999100951MD1999999-0021REMSYN076AAXX  22004 82900 32595 21806 10271 20215 30095 40104 82100 333 10302 59002;EQDQ01  00002PRCP99
0186829000999992000032212004-08050-034920FM-12+000799999V0200901N001510075019N0100001N1+02911+02061101191ADDAA199000091GF106991061021008001001001KA1240N+02101MA1999999101101MD1999999-0021REMSYN076AAXX  22124 82900 32597 60903 10291 20206 30110 40119 86200 333 20210 59002;EQDQ01  00002PRCP99
0167829000999992000032218004-08050-034920FM-12+000799999V0201401N003112200019N0100001N1+02981+02171100861ADDAA199000091GF103991031021008001001001MA1999999100771MD1999999-0031REMSYN070AAXX  22184 82900 32597 31406 10298 20217 30077 40086 83200 333 59003;EQDQ01  00002PRCP99
0186829000999992000032300004-08050-034920FM-12+000799999V0201801N003112200019N0020001N1+02751+02191101091ADDAA199000091GF102991021011008001001001KA1240M+03071MA1999999101001MD1999999+0051REMSYN076AAXX  23004 82900 32595 21806 10275 20219 30100 40109 82100 333 10307 58005;EQDQ01  00002PRCP99
0201829000999992000032312004-08050-034920FM-12+000799999V0201401N003110075019N0100001N1+02951+02311101091ADDAA124000891AY151061AY221061GF106991051041008001021001KA1240N+02291MA1999999101001MD1999999-0101MW1011REMSYN088AAXX  23124 82900 21597 61406 10295 20231 30100 40109 70152 85420 333 20229 59010 69974;
0167829000999992000032318004-08050-034920FM-12+000799999V0201401N005112200019N0100001N1+02971+02351100951ADDAA199000091GF104991031021008001011001MA1999999100861MD1999999+0091REMSYN070AAXX  23184 82900 32597 41410 10297 20235 30086 40095 83210 333 58009;EQDQ01  00002PRCP99
0186829000999992000032400004-08050-034920FM-12+000799999V0200401N003110075019N0020001N1+02791+02291101051ADDAA199000091GF106991061021008001001001KA1240M+03061MA1999999100961MD1999999-0041REMSYN076AAXX  24004 82900 32595 60406 10279 20229 30096 40105 86200 333 10306 59004;EQDQ01  00002PRCP99
0201829000999992000032412004-08050-034920FM-12+000799999V0202301N001510075019N0100001N1+02661+02461101231ADDAA124010991AY161061AY261061GF106991061031008001001001KA1240N+02391MA1999999101141MD1999999+0141MW1031REMSYN088AAXX  24124 82900 21597 62303 10266 20246 30114 40123 70366 86300 333 20239 58014 60114;
0182829000999992000032418004-08050-034920FM-12+000799999V0201401N003610075019N0100001N1+02871+02281100951ADDAA115014091AY161061AY221061GF105991051021008001001001MA1999999100861MD1999999+0001MW1021REMSYN082AAXX  24184 82900 21597 51407 10287 20228 30086 40095 70262 85200 333 58000 60140;
0186829000999992000032500004-08050-034920FM-12+000799999V0201801N003110075019N0020001N1+02711+02371101191ADDAA199000091GF105991051021008001001001KA1240M+03021MA1999999101101MD1999999+0141REMSYN076AAXX  25004 82900 32595 51806 10271 20237 30110 40119 85200 333 10302 58014;EQDQ01  00002PRCP99
0201829000999992000032512004-08050-034920FM-12+000799999V0201801N003110075019N0100001N1+02731+02451101101ADDAA124019191AY161061AY251061GF106991061021008001001001KA1240N+02021MA1999999101011MD1999999-0131MW1031REMSYN088AAXX  25124 82900 21597 61806 10273 20245 30101 40110 70365 86200 333 20202 59013 60194;
0167829000999992000032518004-08050-034920FM-12+000799999V0201401N005110075019N0100001N1+02961+01971100851ADDAA199000091GF106991061071008001031001MA1999999100761MD1999999-0101REMSYN070AAXX  25184 82900 32597 61410 10296 20197 30076 40085 86730 333 59010;EQDQ01  00002PRCP99
0201829000999992000032600004-08050-034920FM-12+000799999V0209999C000010120019N0020001N1+02391+02301101191ADDAA106004191AY161061AY221061GF108991081081008001999999KA1240M+03021MA1999999101091MD1999999-0011MW1601REMSYN088AAXX  26004 82900 21595 80000 10239 20230 30109 40119 76062 888// 333 10302 59001 60041;
0201829000999992000032612004-08050-034920FM-12+000799999V0201801N002110075019N0100001N1+02861+02481101191ADDAA124009991AY161061AY221061GF106991061021008001001001KA1240N+02341MA1999999101101MD1999999-0011MW1021REMSYN088AAXX  26124 82900 21597 61804 10286 20248 30110 40119 70262 86200 333 20234 59001 60104;
0183829000999992000032618004-08050-034920FM-12+000799999V0201401N003119999999N0100001N1+02941+02311100801ADDAA199000091GF106991999021008001001001MA1999999100711MD1999999-0121REMSYN070AAXX  26184 82900 32597 61406 10294 20231 30071 40080 84200 333 59012;EQDQ01+000042SCOTLCQ02  00002PRCP99
0186829000999992000032700004-08050-034920FM-12+000799999V0201401N001510075019N0020001N1+02761+02301101061ADDAA199000091GF105991051021008001001001KA1240M+03001MA1999999100971MD1999999-0121REMSYN076AAXX  27004 82900 32595 51403 10276 20230 30097 40106 85200 333 10300 59012;EQDQ01  00002PRCP99
0201829000999992000032712004-08050-034920FM-12+000799999V0201401N005110075019N0100001N1+02821+02291101071ADDAA124023191AY161061AY221061GF106991051071008001021001KA1240N+02361MA1999999100981MD1999999-0221MW1011REMSYN088AAXX  27124 82900 21597 61410 10282 20229 30098 40107 70162 85720 333 20236 59022 60234;
0167829000999992000032718004-08050-034920FM-12+000799999V0201401N004610450019N0100001N1+02891+02391100921ADDAA199000091GF105991041061008001031001MA1999999100831MD1999999+0121REMSYN070AAXX  27184 82900 32597 51409 10289 20239 30083 40092 84630 333 58012;EQDQ01  00002PRCP99
0186829000999992000032800004-08050-034920FM-12+000799999V0201801N004610075019N0020001N1+02771+02381101061ADDAA199000091GF106991061021008001001001KA1240M+03001MA1999999100971MD1999999+0001REMSYN076AAXX  28004 82900 32595 61809 10277 20238 30097 40106 86200 333 10300 58000;EQDQ01  00002PRCP99
0201829000999992000032812004-08050-034920FM-12+000799999V0201801N002610075019N0100001N1+02801+02481101111ADDAA124009991AY161061AY221061GF107991071031008001001001KA1240N+02381MA1999999101021MD1999999+0041MW1031REMSYN088AAXX  28124 82900 21597 71805 10280 20248 30102 40111 70362 87300 333 20238 58004 60104;
0182829000999992000032818004-08050-034920FM-12+000799999V0201801N005710075019N0100001N1+02921+02291100801ADDAA106000391AY161061AY221061GF107991051031008001041001MA1999999100711MD1999999-0121MW1021REMSYN082AAXX  28184 82900 21597 71811 10292 20229 30071 40080 70262 85340 333 59012 69931;
0186829000999992000032900004-08050-034920FM-12+000799999V0201801N002112200019N0020001N1+02661+02331100991ADDAA199000091GF104991041021008001001001KA1240M+02991MA1999999100901MD1999999-0071REMSYN076AAXX  29004 82900 32595 41804 10266 20233 30090 40099 84200 333 10299 59007;EQDQ01  00002PRCP99
0201829000999992000032912004-08050-034920FM-12+000799999V0201801N001010075019N0100001N1+02721+02411101201ADDAA124001091AY161061AY221061GF107991051031008001021001KA1240N+02451MA1999999101111MD1999999+0091MW1021REMSYN088AAXX  29124 82900 21597 71802 10272 20241 30111 40120 70262 85320 333 20245 58009 60014;
0167829000999992000032918004-08050-034920FM-12+000799999V0201401N002110450019N0100001N1+02861+02331100991ADDAA199000091GF105991031021008001031001MA1999999100901MD1999999+0191REMSYN070AAXX  29184 82900 32597 51404 10286 20233 30090 40099 83230 333 58019;EQDQ01  00002PRCP99
0202829000999992000033000004-08050-034920FM-12+000799999V0201401N001519999999N0020001N1+02731+02361101061ADDAA199000091GF106991999021008001001001KA1240M+02971MA1999999100971MD1999999+0071REMSYN076AAXX  30004 82900 32595 61403 10273 20236 30097 40106 83200 333 10297 58007;EQDQ01+000032SCOTLCQ02  00002PRCP99
0201829000999992000033012004-08050-034920FM-12+000799999V0202301N003110075019N0100001N1+02361+02191101201ADDAA124027991AY161061AY251061GF106991061021008001001001KA1240N+02251MA1999999101111MD1999999+0001MW1031REMSYN088AAXX  30124 82900 21597 62306 10236 20219 30111 40120 70365 86200 333 20225 58000 60284;
0182829000999992000033018004-08050-034920FM-12+000799999V0201801N003110075019N0100001N1+02541+02251101091ADDAA106000191AY151061AY211061GF106991061021008001001001MA1999999101001MD1999999+0101MW1021REMSYN082AAXX  30184 82900 21597 61806 10254 20225 30100 40109 70251 86200 333 58010 69911;
0201829000999992000033100004-08050-034920FM-12+000799999V0209999C000010075019N0020001N1+02411+02281101261ADDAA106001091AY151061AY221061GF107991071061008001001001KA1240M+02781MA1999999101171MD1999999+0201MW1031REMSYN088AAXX  31004 82900 21595 70000 10241 20228 30117 40126 70352 87600 333 10278 58020 69991;
0201829000999992000033112004-08050-034920FM-12+000799999V0201801N001010450019N0100001N1+02781+02381101381ADDAA124003091AY161061AY221061GF106991031021008001031001KA1240N+02241MA1999999101291MD1999999+0181MW1021REMSYN088AAXX  31124 82900 21597 61802 10278 20238 30129 40138 70262 83230 333 20224 58018 60034;
0167829000999992000033118004-08050-034920FM-12+000799999V0201401N002110075019N0100001N1+02691+02241101081ADDAA199000091GF106991061041008001001001MA1999999100991MD1999999-0011REMSYN070AAXX  31184 82900 32597 61404 10269 20224 30099 40108 86400 333 59001;EQDQ01  00002PRCP99
0186829000999992000040100004-08050-034920FM-12+000799999V0202301N001512200019N0020001N1+02531+02331101261ADDAA199000091GF102991021011008001001001KA1240M+02971MA1999999101131MD1999999+0001REMSYN076AAXX  01004 82900 32595 22303 10253 20233 30113 40126 82100 333 10297 58000;EQDQ01  00002PRCP99
0201829000999992000040112004-08050-034920FM-12+000799999V0202301N001510075019N0100001N1+02631+02411101301ADDAA124021191AY161061AY261061GF107991071061008001001001KA1240N+02311MA1999999101211MD1999999-0061MW1031REMSYN088AAXX  01124 82900 21597 72303 10263 20241 30121 40130 70366 87600 333 20231 59006 60214;
0182829000999992000040118004-08050-034920FM-12+000799999V0201401N003110075019N0100001N1+02831+02481101001ADDAA106002091AY161061AY221061GF106991061071008001001001MA1999999100911MD1999999-0081MW1031REMSYN082AAXX  01184 82900 21597 61406 10283 20248 30091 40100 70362 86700 333 59008 60021;
0186829000999992000040200004-08050-034920FM-12+000799999V0201401N002112200019N0020001N1+02721+02431101211ADDAA199000091GF104991041021008001001001KA1240M+03001MA1999999101121MD1999999-0051REMSYN076AAXX  02004 82900 32595 41404 10272 20243 30112 40121 84200 333 10300 59005;EQDQ01  00002PRCP99
0201829000999992000040212004-08050-034920FM-12+000799999V0201401N005110075019N0100001N1+02901+02321101331ADDAA124002091AY161061AY221061GF106991051021008001031001KA1240N+02621MA1999999101241MD1999999+0031MW1011REMSYN088AAXX  02124 82900 21597 61410 10290 20232 30124 40133 70162 85230 333 20262 58003 60024;
0167829000999992000040218004-08050-034920FM-12+000799999V0201801N003110075019N0100001N1+02951+02331101051ADDAA199000091GF106991061021008001001001MA1999999100961MD1999999+0051REMSYN070AAXX  02184 82900 32597 61806 10295 20233 30096 40105 86200 333 58005;EQDQ01  00002PRCP99
0202829000999992000040300004-08050-034920FM-12+000799999V0201801N001510075019N0020001N1+02771+02341101291ADDAA199000091GF106991999021008001001001KA1240M+03031MA1999999101201MD1999999+0081REMSYN076AAXX  03004 82900 32595 61803 10277 20234 30120 40129 85200 333 10303 58008;EQDQ01+000052SCOTLCQ02  00002PRCP99
0201829000999992000040312004-08050-034920FM-12+000799999V0201801N005110075019N0100001N1+02831+02381101391ADDAA124001091AY161061AY211061GF106991061021008001001001KA1240N+02361MA1999999101301MD1999999+0061MW1031REMSYN088AAXX  03124 82900 21597 61810 10283 20238 30130 40139 70361 86200 333 20236 58006 60014;
0167829000999992000040318004-08050-034920FM-12+000799999V0201801N003110075019N0100001N1+02941+02211101031ADDAA199000091GF105991051021008001001001MA1999999100941MD1999999-0021REMSYN070AAXX  03184 82900 32597 51806 10294 20221 30094 40103 85200 333 59002;EQDQ01  00002PRCP99
0201829000999992000040400004-08050-034920FM-12+000799999V0202301N001510075019N0020001N1+02471+02431101351ADDAA106034091AY191061AY261061GF107991071071008001001001KA1240M+03001MA1999999101261MD1999999+0061MW1011REMSYN088AAXX  04004 82900 21595 72303 10247 20243 30126 40135 70196 87700 333 10300 58006 60341;
0201829000999992000040412004-08050-034920FM-12+000799999V0201401N006210450019N0100001N1+02881+02301101341ADDAA124040991AY191061AY261061GF105991041071008001031001KA1240N+02381MA1999999101251MD1999999-0051MW1011REMSYN088AAXX  04124 82900 21597 51412 10288 20230 30125 40134 70196 84730 333 20238 59005 60414;
0167829000999992000040418004-08050-034920FM-12+000799999V0201801N005110075019N0100001N1+02961+02281101021ADDAA199000091GF106991051041008001021001MA1999999100931MD1999999-0011REMSYN070AAXX  04184 82900 32597 61810 10296 20228 30093 40102 85420 333 59001;EQDQ01  00002PRCP99
0186829000999992000040500004-08050-034920FM-12+000799999V0201801N003112200019N0020001N1+02781+02181101331ADDAA199000091GF104991041011008001001001KA1240M+02991MA1999999101241MD1999999-0021REMSYN076AAXX  05004 82900 32595 41806 10278 20218 30124 40133 84100 333 10299 59002;EQDQ01  00002PRCP99
0186829000999992000040512004-08050-034920FM-12+000799999V0201801N003110075019N0100001N1+02881+02281101381ADDAA199000091GF105991051021008001001001KA1240N+02281MA1999999101291MD1999999+0041REMSYN076AAXX  05124 82900 32597 51806 10288 20228 30129 40138 85200 333 20228 58004;EQDQ01  00002PRCP99
0167829000999992000040518004-08050-034920FM-12+000799999V0201801N005112200019N0100001N1+02961+02311101081ADDAA199000091GF104991041021008001001001MA1999999100991MD1999999+0061REMSYN070AAXX  05184 82900 32597 41810 10296 20231 30099 40108 84200 333 58006;EQDQ01  00002PRCP99
0186829000999992000040600004-08050-034920FM-12+000799999V0201801N003110075019N0020001N1+02781+02401101311ADDAA199000091GF106991061021008001001001KA1240M+03011MA1999999101221MD1999999-0021REMSYN076AAXX  06004 82900 32595 61806 10278 20240 30122 40131 86200 333 10301 59002;EQDQ01  00002PRCP99
0201829000999992000040612004-08050-034920FM-12+000799999V0201401N003110450019N0100001N1+02921+02341101211ADDAA124018091AY161061AY221061GF105991031021008001041001KA1240N+02351MA1999999101121MD1999999-0171MW1021REMSYN088AAXX  06124 82900 21597 51406 10292 20234 30112 40121 70262 83240 333 20235 59017 60184;
0182829000999992000040618004-08050-034920FM-12+000799999V0201801N003610450019N0100001N1+02901+02341101051ADDAA106000391AY161061AY221061GF106991041021008001021001MA1999999100961MD1999999-0021MW1021REMSYN082AAXX  06184 82900 21597 61807 10290 20234 30096 40105 70262 84220 333 59002 69931;
0186829000999992000040700004-08050-034920FM-12+000799999V0202301N001510075019N0020001N1+02711+02411101241ADDAA199000091GF106991061071008001001001KA1240M+02991MA1999999101151MD1999999-0071REMSYN076AAXX  07004 82900 32595 62303 10271 20241 30115 40124 86700 333 10299 59007;EQDQ01  00002PRCP99
0173829000999992000040712004-08050-034920FM-12+000799999V0201801N005110075019N0100001N1+02811+02221101091ADDAA124000391GF106991061021008001001001KA1240N+02221MA1999999101001MD1999999-0121REMSYN082AAXX  07124 82900 22597 61810 10281 20222 30100 40109 86200 333 20222 59012 69934;
0167829000999992000040718004-08050-034920FM-12+000799999V0201801N003110075019N0100001N1+02931+02381100901ADDAA199000091GF105991051021008001001001MA1999999100811MD1999999-0151REMSYN070AAXX  07184 82900 32597 51806 10293 20238 30081 40090 85200 333 59015;EQDQ01  00002PRCP99
0201829000999992000040800004-08050-034920FM-12+000799999V0201801N001512200019N0020001N1+02521+02361101161ADDAA106001091AY151061AY221061GF102991021011008001001001KA1240M+03021MA1999999101071MD1999999-0081MW1011REMSYN088AAXX  08004 82900 21595 21803 10252 20236 30107 40116 70152 82100 333 10302 59008 69991;
0201829000999992000040812004-08050-034920FM-12+000799999V0202301N000510075019N0100001N1+02531+02401101181ADDAA124020191AY161061AY261061GF108991071071008001031001KA1240N+02261MA1999999101091MD1999999+0091MW1211REMSYN088AAXX  08124 82900 21597 82301 10253 20240 30109 40118 72166 87730 333 20226 58009 60204;
0182829000999992000040818004-08050-034920FM-12+000799999V0202701N001510120019N0100001N1+02401+02371101021ADDAA106061091AY191061AY261061GF108991081081008001999999MA1999999100931MD1999999+0121MW1611REMSYN082AAXX  08184 82900 21597 82703 10240 20237 30093 40102 76196 888// 333 58012 60611;
0201829000999992000040900004-08050-034920FM-12+000799999V0201801N001510075019N0020001N1+02351+02331101211ADDAA106027991AY161061AY261061GF108991081071008001001001KA1240M+02751MA1999999101121MD1999999+0051MW1211REMSYN088AAXX  09004 82900 21595 81803 10235 20233 30112 40121 72166 88700 333 10275 58005 60281;
0201829000999992000040912004-08050-034920FM-12+000799999V0201801N003110075019N0100001N1+02641+02301101211ADDAA124117191AY161061AY261061GF108991081051008001999999KA1240N+02201MA1999999101101MD1999999+0031MW1031REMSYN088AAXX  09124 82900 21597 81806 10264 20230 30110 40121 70366 885// 333 20220 58003 61174;
0167829000999992000040918004-08050-034920FM-12+000799999V0201801N002110075019N0100001N1+02761+02281101061ADDAA199000091GF107991071071008001001001MA1999999100971MD1999999+0041REMSYN070AAXX  09184 82900 32597 71804 10276 20228 30097 40106 87700 333 58004;EQDQ01  00002PRCP99
0186829000999992000041000004-08050-034920FM-12+000799999V0202301N002110075019N0020001N1+02521+02421101221ADDAA199000091GF106991061031008001001001KA1240M+02841MA1999999101131MD1999999+0011REMSYN076AAXX  10004 82900 32595 62304 10252 20242 30113 40122 86300 333 10284 58001;EQDQ01  00002PRCP99
0201829000999992000041012004-08050-034920FM-12+000799999V0209999C000010075019N0100001N1+02541+02481101361ADDAA124000591AY191061AY261061GF108991081031008001999999KA1240N+02471MA1999999101271MD1999999+0151MW1611REMSYN088AAXX  10124 82900 21597 80000 10254 20248 30127 40136 76196 883// 333 20247 58015 69964;
0182829000999992000041018004-08050-034920FM-12+000799999V0201801N003610450019N0100001N1+02851+02351100991ADDAA106002091AY161061AY221061GF105991041021008001021001MA1999999100901MD1999999-0071MW1021REMSYN082AAXX  10184 82900 21597 51807 10285 20235 30090 40099 70262 84220 333 59007 60021;
0167829000999992000041100004-08050-034920FM-12+000799999V0202301N001010075019N0020001N1+02551+02311101171ADDAA199000021GF106991061021008001001001KA1240M+02901MA1999999101081MD1999999-0051REMSYN076AAXX  11004 82900 32595 62302 10255 20231 30108 40117 86200 333 10290 59005;
0201829000999992000041112004-08050-034920FM-12+000799999V0202301N001510075019N0100001N1+02571+02561101451ADDAA124016091AY191061AY261061GF106991061021008001001001KA1240N+02281MA1999999101361MD1999999-0211MW1031REMSYN088AAXX  11124 82900 21597 62303 10257 20256 30136 40145 70396 86200 333 20228 59021 60164;
0182829000999992000041118004-08050-034920FM-12+000799999V0201401N001510075019N0100001N1+02931+02641101141ADDAA106004191AY161061AY231061GF105991051021008001001001MA1999999101051MD1999999+0151MW1021REMSYN082AAXX  11184 82900 21597 51403 10293 20264 30105 40114 70263 85200 333 58015 60041;
0201829000999992000041200004-08050-034920FM-12+000799999V0200901N002110075019N0020001N1+02541+02421101191ADDAA106009991AY161061AY221061GF107991071071008001001001KA1240M+02941MA1999999101101MD1999999+0021MW1601REMSYN088AAXX  12004 82900 21595 70904 10254 20242 30110 40119 76062 87700 333 10294 58002 60101;
0201829000999992000041212004-08050-034920FM-12+000799999V0202301N002110075019N0100001N1+02801+02481101191ADDAA124023191AY161061AY221061GF106991051041008001021001KA1240N+02361MA1999999101101MD1999999+0261MW1031REMSYN088AAXX  12124 82900 21597 62304 10280 20248 30110 40119 70362 85420 333 20236 58026 60234;
0182829000999992000041218004-08050-034920FM-12+000799999V0201401N003110075019N0100001N1+02551+02441100881ADDAA106011991AY191061AY261061GF108991081071008001001001MA1999999100791MD1999999+0261MW1631REMSYN082AAXX  12184 82900 21597 81406 10255 20244 30079 40088 76396 88700 333 58026 60121;
0201829000999992000041300004-08050-034920FM-12+000799999V0201801N001010075019N0020001N1+02641+02331101001ADDAA106003091AY161061AY221061GF107991071031008001001001KA1240M+02921MA1999999100911MD1999999-0191MW1031REMSYN088AAXX  13004 82900 21595 71802 10264 20233 30091 40100 70362 87300 333 10292 59019 60031;
0201829000999992000041312004-08050-034920FM-12+000799999V0201401N002110075019N0100001N1+02881+02391101211ADDAA124020191AY161061AY221061GF106991061031008001001001KA1240N+02391MA1999999101121MD1999999+0021MW1021REMSYN088AAXX  13124 82900 21597 61404 10288 20239 30112 40121 70262 86300 333 20239 58002 60204;
0167829000999992000041318004-08050-034920FM-12+000799999V0201401N004110075019N0100001N1+02891+02301101011ADDAA199000091GF105991051021008001001001MA1999999100921MD1999999+0131REMSYN070AAXX  13184 82900 32597 51408 10289 20230 30092 40101 85200 333 58013;EQDQ01  00002PRCP99
0201829000999992000041400004-08050-034920FM-12+000799999V0201801N001510075019N0020001N1+02571+02441101261ADDAA106000591AY151061AY221061GF107991071061008001001001KA1240M+02951MA1999999101171MD1999999+0261MW1031REMSYN088AAXX  14004 82900 21595 71803 10257 20244 30117 40126 70352 87600 333 10295 58026 69961;
0167829000999992000041418004-08050-034920FM-12+000799999V0201401N001510450019N0100001N1+02851+02421100991ADDAA199000091GF106991031021008001031001MA1999999100901MD1999999-0021REMSYN070AAXX  14184 82900 32597 61403 10285 20242 30090 40099 83230 333 59002;EQDQ01  00002PRCP99
0242829000999992000041500004-08050-034920FM-12+000799999V0209999C000019999999N0020001N1+02611+02441101281ADDAA106000491AY121061AY211061GA1999+000159999GF107991071071008001001001KA1240M+03001MA1999999101191MD1999999+0021MW1601REMSYN094AAXX  15004 82900 21595 70000 10261 20244 30119 40128 76021 87700 333 10300 58002 69941 8022/;EQDQ01    003SCCGA1
0201829000999992000041512004-08050-034920FM-12+000799999V0202701N001510450019N0100001N1+02711+02481101391ADDAA124005191AY161061AY221061GF106991041021008001041001KA1240N+02381MA1999999101301MD1999999+0161MW1031REMSYN088AAXX  15124 82900 21597 62703 10271 20248 30130 40139 70362 84240 333 20238 58016 60054;
0167829000999992000041518004-08050-034920FM-12+000799999V0201401N003110075019N0100001N1+02931+02361101171ADDAA199000091GF105991051021008001001001MA1999999101081MD1999999+0181REMSYN070AAXX  15184 82900 32597 51406 10293 20236 30108 40117 85200 333 58018;EQDQ01  00002PRCP99
0186829000999992000041600004-08050-034920FM-12+000799999V0209999C000010075019N0020001N1+02581+02461101371ADDAA199000091GF106991061031008001001001KA1240M+03001MA1999999101281MD1999999+0091REMSYN076AAXX  16004 82900 32595 60000 10258 20246 30128 40137 86300 333 10300 58009;EQDQ01  00002PRCP99
0201829000999992000041612004-08050-034920FM-12+000799999V0201801N002110075019N0100001N1+02711+02481101341ADDAA124000191AY191061AY251061GF108991071071008001021001KA1240N+02461MA1999999101251MD1999999-0051MW1031REMSYN088AAXX  16124 82900 21597 81804 10271 20248 30125 40134 70395 87720 333 20246 59005 69924;
0167829000999992000041618004-08050-034920FM-12+000799999V0201401N004110450019N0100001N1+02851+02351100931ADDAA199000091GF105991041051008001031001MA1999999100841MD1999999-0241REMSYN070AAXX  16184 82900 32597 51408 10285 20235 30084 40093 84530 333 59024;EQDQ01  00002PRCP99
0201829000999992000041700004-08050-034920FM-12+000799999V0201801N001510075019N0020001N1+02641+02441101321ADDAA106007991AY121061AY211061GF107991071021008001001001KA1240M+02971MA1999999101231MD1999999-0051MW1611REMSYN088AAXX  17004 82900 21595 71803 10264 20244 30123 40132 76121 87200 333 10297 59005 60081;
0201829000999992000041712004-08050-034920FM-12+000799999V0202301N001010075019N0100001N1+02531+02381101371ADDAA124025991AY161061AY261061GF108991081071008001999999KA1240N+02301MA1999999101281MD1999999+0031MW1031REMSYN088AAXX  17124 82900 21597 82302 10253 20238 30128 40137 70366 887// 333 20230 58003 60264;
0182829000999992000041718004-08050-034920FM-12+000799999V0201401N002110075019N0100001N1+02661+02351100991ADDAA106000391AY161061AY261061GF108991081051008001001001MA1999999100901MD1999999+0061MW1031REMSYN082AAXX  17184 82900 21597 81404 10266 20235 30090 40099 70366 88500 333 58006 69931;
0186829000999992000041800004-08050-034920FM-12+000799999V0202301N001010075019N0020001N1+02461+02391101211ADDAA199000091GF106991061021008001001001KA1240M+02651MA1999999101121MD1999999-0111REMSYN076AAXX  18004 82900 32595 62302 10246 20239 30112 40121 86200 333 10265 59011;EQDQ01  00002PRCP99
0201829000999992000041812004-08050-034920FM-12+000799999V0209999C000010450019N0100001N1+02741+02431101451ADDAA124003091AY161061AY221061GF106991041021008001031001KA1240N+02241MA1999999101361MD1999999+0081MW1021REMSYN088AAXX  18124 82900 21597 60000 10274 20243 30136 40145 70262 84230 333 20224 58008 60034;
0167829000999992000041818004-08050-034920FM-12+000799999V0201401N003110450019N0100001N1+02821+02381101091ADDAA199000091GF105991031021008001041001MA1999999101001MD1999999+0101REMSYN070AAXX  18184 82900 32597 51406 10282 20238 30100 40109 83240 333 58010;EQDQ01  00002PRCP99
0186829000999992000041900004-08050-034920FM-12+000799999V0209999C000010075019N0020001N1+02441+02371101351ADDAA199000091GF105991051021008001001001KA1240M+02951MA1999999101261MD1999999+0141REMSYN076AAXX  19004 82900 32595 50000 10244 20237 30126 40135 85200 333 10295 58014;EQDQ01  00002PRCP99
0201829000999992000041912004-08050-034920FM-12+000799999V0209999C000010075019N0100001N1+02531+02361101401ADDAA124009991AY161061AY241061GF107991051021008001041001KA1240N+01941MA1999999101311MD1999999-0051MW1031REMSYN088AAXX  19124 82900 21597 70000 10253 20236 30131 40140 70364 85240 333 20194 59005 60104;
0167829000999992000041918004-08050-034920FM-12+000799999V0201401N003110075019N0100001N1+02861+02441101141ADDAA199000091GF105991051021008001001001MA1999999101051MD1999999+0051REMSYN070AAXX  19184 82900 32597 51406 10286 20244 30105 40114 85200 333 58005;EQDQ01  00002PRCP99
0201829000999992000042000004-08050-034920FM-12+000799999V0209999C000012200019N0020001N1+02491+02411101351ADDAA106000191AY151061AY221061GF102991021011008001001001KA1240M+03011MA1999999101261MD1999999+0001MW1011REMSYN088AAXX  20004 82900 21595 20000 10249 20241 30126 40135 70152 82100 333 10301 58000 69921;
0201829000999992000042012004-08050-034920FM-12+000799999V0201801N001012200019N0100001N1+02741+02401101301ADDAA124000391AY151061AY221061GF104991031041008001021001KA1240N+02391MA1999999101211MD1999999-0101MW1011REMSYN088AAXX  20124 82900 21597 41802 10274 20240 30121 40130 70152 83420 333 20239 59010 69934;
0201829000999992000042112004-08050-034920FM-12+000799999V0200901N001010075019N0100001N1+02841+02481101201ADDAA124004191AY161061AY221061GF105991051021008001001001KA1240N+02381MA1999999101111MD1999999-0101MW1021REMSYN088AAXX  21124 82900 21597 50902 10284 20248 30111 40120 70262 85200 333 20238 59010 60044;
0167829000999992000042118004-08050-034920FM-12+000799999V0201401N003112200019N0100001N1+02961+02401100821ADDAA199000091GF102991021021008001001001MA1999999100731MD1999999-0141REMSYN070AAXX  21184 82900 32597 21406 10296 20240 30073 40082 82200 333 59014;EQDQ01  00002PRCP99
0186829000999992000042200004-08050-034920FM-12+000799999V0200901N001510075019N0020001N1+02711+02391101151ADDAA199000091GF105991051021008001001001KA1240M+03011MA1999999101061MD1999999-0121REMSYN076AAXX  22004 82900 32595 50903 10271 20239 30106 40115 85200 333 10301 59012;EQDQ01  00002PRCP99
0167829000999992000042218004-08050-034920FM-12+000799999V0200901N001512200019N0100001N1+03051+02361100921ADDAA199000091GF103991031011008001001001MA1999999100831MD1999999+0101REMSYN070AAXX  22184 82900 32597 30903 10305 20236 30083 40092 83100 333 58010;EQDQ01  00002PRCP99
0186829000999992000042300004-08050-034920FM-12+000799999V0209999C000012200019N0020001N1+02541+02401101151ADDAA199000091GF101991011011008001001001KA1240M+03121MA1999999101061MD1999999+0001REMSYN076AAXX  23004 82900 32595 10000 10254 20240 30106 40115 81100 333 10312 58000;EQDQ01  00002PRCP99
0186829000999992000042312004-08050-034920FM-12+000799999V0200901N001512200019N0100001N1+02911+02371101331ADDAA199000091GF104991041021008001001001KA1240N+02221MA1999999101241MD1999999+0061REMSYN076AAXX  23124 82900 32597 40903 10291 20237 30124 40133 84200 333 20222 58006;EQDQ01  00002PRCP99
0167829000999992000042318004-08050-034920FM-12+000799999V0201401N003110075019N0100001N1+02981+02401101041ADDAA199000091GF106991061031008001001001MA1999999100951MD1999999+0121REMSYN070AAXX  23184 82900 32597 61406 10298 20240 30095 40104 86300 333 58012;EQDQ01  00002PRCP99
0167829000999992000042418004-08050-034920FM-12+000799999V0201801N004112200019N0100001N1+02881+02371100991ADDAA199000091GF104991031021008001041001MA1999999100901MD1999999-0051REMSYN070AAXX  24184 82900 32597 41808 10288 20237 30090 40099 83240 333 59005;EQDQ01  00002PRCP99
0201829000999992000042500004-08050-034920FM-12+000799999V0202301N001512200019N0020001N1+02551+02361101191ADDAA106001091AY161061AY221061GF102991021021008001001001KA1240M+03011MA1999999101101MD1999999-0031MW1011REMSYN088AAXX  25004 82900 21595 22303 10255 20236 30110 40119 70162 82200 333 10301 59003 60011;
0201829000999992000042512004-08050-034920FM-12+000799999V0201801N003110075019N0100001N1+02781+02321101141ADDAA124015091AY161061AY221061GF107991061031008001041001KA1240N+02341MA1999999101051MD1999999-0121MW1031REMSYN088AAXX  25124 82900 21597 71806 10278 20232 30105 40114 70362 86340 333 20234 59012 60154;
0182829000999992000042518004-08050-034920FM-12+000799999V0201401N004610075019N0100001N1+02841+02311101021ADDAA106000191AY161061AY261061GF108991081061008001999999MA1999999100931MD1999999+0031MW1031REMSYN082AAXX  25184 82900 21597 81409 10284 20231 30093 40102 70366 886// 333 58003 69921;
0201829000999992000042600004-08050-034920FM-12+000799999V0202301N002110075019N0020001N1+02361+02291101341ADDAA106041991AY161061AY261061GF107991071071008001001001KA1240M+02961MA1999999101251MD1999999+0151MW1031REMSYN088AAXX  26004 82900 21595 72304 10236 20229 30125 40134 70366 87700 333 10296 58015 60421;
0201829000999992000042612004-08050-034920FM-12+000799999V0202301N003610075019N0100001N1+02411+02241101461ADDAA124052191AY161061AY261061GF107991061071008001021001KA1240N+02221MA1999999101371MD1999999+0321MW1031REMSYN088AAXX  26124 82900 21597 72307 10241 20224 30137 40146 70366 86720 333 20222 58032 60524;
0182829000999992000042618004-08050-034920FM-12+000799999V0201801N002110075019N0100001N1+02831+02121101191ADDAA106001091AY161061AY221061GF106991051021008001041001MA1999999101101MD1999999+0171MW1011REMSYN082AAXX  26184 82900 21597 61804 10283 20212 30110 40119 70162 85240 333 58017 60011;
0186829000999992000042700004-08050-034920FM-12+000799999V0202301N001512200019N0020001N1+02471+02281101421ADDAA199000091GF102991021021008001001001KA1240M+02841MA1999999101331MD1999999+0081REMSYN076AAXX  27004 82900 32595 22303 10247 20228 30133 40142 82200 333 10284 58008;EQDQ01  00002PRCP99
0173829000999992000042712004-08050-034920FM-12+000799999V0201801N003110075019N0100001N1+02791+02291101381ADDAA124001091GF106991061021008001001001KA1240N+02141MA1999999101291MD1999999-0061REMSYN082AAXX  27124 82900 22597 61806 10279 20229 30129 40138 86200 333 20214 59006 60014;
0167829000999992000042718004-08050-034920FM-12+000799999V0201401N003110075019N0100001N1+02931+02361101111ADDAA199000091GF105991051021008001001001MA1999999101021MD1999999-0081REMSYN070AAXX  27184 82900 32597 51406 10293 20236 30102 40111 85200 333 59008;EQDQ01  00002PRCP99
0186829000999992000042800004-08050-034920FM-12+000799999V0202301N002112200019N0020001N1+02561+02401101431ADDAA199000091GF104991041021008001001001KA1240M+02961MA1999999101341MD1999999+0011REMSYN076AAXX  28004 82900 32595 42304 10256 20240 30134 40143 84200 333 10296 58001;EQDQ01  00002PRCP99
0201829000999992000042812004-08050-034920FM-12+000799999V0202301N001510450019N0100001N1+02651+02371101531ADDAA124013091AY161061AY221061GF106991041021008001031001KA1240N+02361MA1999999101441MD1999999+0151MW1031REMSYN088AAXX  28124 82900 21597 62303 10265 20237 30144 40153 70362 84230 333 20236 58015 60134;
0167829000999992000042818004-08050-034920FM-12+000799999V0201401N003610450019N0100001N1+02891+02321101211ADDAA199000091GF105991031021008001021001MA1999999101121MD1999999+0101REMSYN070AAXX  28184 82900 32597 51407 10289 20232 30112 40121 83220 333 58010;EQDQ01  00002PRCP99
0201829000999992000042900004-08050-034920FM-12+000799999V0201401N001510075019N0020001N1+02711+02341101511ADDAA106000191AY151061AY221061GF106991061021008001001001KA1240M+02981MA1999999101421MD1999999+0081MW1031REMSYN088AAXX  29004 82900 21595 61403 10271 20234 30142 40151 70352 86200 333 10298 58008 69921;
0201829000999992000042912004-08050-034920FM-12+000799999V0201801N003110450019N0100001N1+02821+02391101481ADDAA124017091AY161061AY261061GF106991041021008001031001KA1240N+02401MA1999999101391MD1999999-0051MW1031REMSYN088AAXX  29124 82900 21597 61806 10282 20239 30139 40148 70366 84230 333 20240 59005 60174;
0167829000999992000042918004-08050-034920FM-12+000799999V0201801N004610075019N0100001N1+02871+02211101211ADDAA199000091GF106991061021008001001001MA1999999101121MD1999999+0001REMSYN070AAXX  29184 82900 32597 61809 10287 20221 30112 40121 86200 333 58000;EQDQ01  00002PRCP99
0202829000999992000043000004-08050-034920FM-12+000799999V0201801N004612200019N0020001N1+02711+02261101411ADDAA199000091GF102991999011008001001001KA1240M+02951MA1999999101321MD1999999-0101REMSYN076AAXX  30004 82900 32595 21809 10271 20226 30132 40141 83100 333 10295 59010;EQDQ01+000032SCOTLCQ02  00002PRCP99
0201829000999992000043012004-08050-034920FM-12+000799999V0201801N003110450019N0100001N1+02851+02331101381ADDAA124000391AY161061AY221061GF105991031021008001021001KA1240N+02351MA1999999101291MD1999999-0101MW1021REMSYN088AAXX  30124 82900 21597 51806 10285 20233 30129 40138 70262 83220 333 20235 59010 69934;
0167829000999992000043018004-08050-034920FM-12+000799999V0201801N003110075019N0100001N1+02841+02351101241ADDAA199000091GF107991071071008001001001MA1999999101151MD1999999+0031REMSYN070AAXX  30184 82900 32597 71806 10284 20235 30115 40124 87700 333 58003;EQDQ01  00002PRCP99
0186829000999992000050100004-08050-034920FM-12+000799999V0202301N001012200019N0020001N1+02531+02421101351ADDAA199000091GF104991041021008001001001KA1240M+02961MA1999999101261MD1999999-0061REMSYN076AAXX  01004 82900 32595 42302 10253 20242 30126 40135 84200 333 10296 59006;EQDQ01  00002PRCP99
0201829000999992000050112004-08050-034920FM-12+000799999V0201401N001510075019N0100001N1+02881+02251101391ADDAA124007191AY161061AY231061GF106991061021008001001001KA1240N+02001MA1999999101301MD1999999+0011MW1021REMSYN088AAXX  01124 82900 21597 61403 10288 20225 30130 40139 70263 86200 333 20200 58001 60074;
0167829000999992000050118004-08050-034920FM-12+000799999V0201401N003610075019N0100001N1+02911+02341101131ADDAA199000091GF106991061021008001001001MA1999999101041MD1999999-0111REMSYN070AAXX  01184 82900 32597 61407 10291 20234 30104 40113 86200 333 59011;EQDQ01  00002PRCP99
0201829000999992000050200004-08050-034920FM-12+000799999V0201801N003112200019N0020001N1+02691+02281101341ADDAA106000191AY151061AY221061GF102991021031008001001001KA1240M+02981MA1999999101351MD1999999-0011MW1031REMSYN088AAXX  02004 82900 21595 21806 10269 20228 30135 40134 70352 82300 333 10298 59001 69911;
0201829000999992000050212004-08050-034920FM-12+000799999V0201401N005710075019N0100001N1+02651+02411101361ADDAA124008991AY161061AY221061GF107991061071008001021001KA1240N+02341MA1999999101271MD1999999-0031MW1031REMSYN088AAXX  02124 82900 21597 71411 10265 20241 30127 40136 70362 86720 333 20234 59003 60094;
0182829000999992000050218004-08050-034920FM-12+000799999V0203201N001510075019N0100001N1+02611+02421101041ADDAA106007991AY161061AY261061GF108991071071008001021001MA1999999100951MD1999999-0091MW1031REMSYN082AAXX  02184 82900 21597 83203 10261 20242 30095 40104 70366 87720 333 59009 60081;
0201829000999992000050300004-08050-034920FM-12+000799999V0202401N002110075019N0020001N1+02241+02211101371ADDAA106016091AY161061AY261061GF107991071071008001001001KA1240M+02781MA1999999101281MD1999999+0031MW1601REMSYN088AAXX  03004 82900 21595 72404 10224 20221 30128 40137 76066 87700 333 10278 58003 60161;
0201829000999992000050312004-08050-034920FM-12+000799999V0201801N002110075019N0100001N1+02741+02471101271ADDAA124025991AY161061AY261061GF106991061021008001001001KA1240N+02161MA1999999101181MD1999999-0091MW1031REMSYN088AAXX  03124 82900 21597 61804 10274 20247 30118 40127 70366 86200 333 20216 59009 60264;
0182829000999992000050318004-08050-034920FM-12+000799999V0201401N003610450019N0100001N1+02691+02351100991ADDAA106004191AY161061AY221061GF105991031021008001021001MA1999999100901MD1999999-0051MW1031REMSYN082AAXX  03184 82900 21597 51407 10269 20235 30090 40099 70362 83220 333 59005 60041;
0201829000999992000050400004-08050-034920FM-12+000799999V0201801N001510075019N0020001N1+02401+02341101361ADDAA106004191AY161061AY221061GF107991071071008001001001KA1240M+02941MA1999999101271MD1999999-0011MW1031REMSYN088AAXX  04004 82900 21595 71803 10240 20234 30127 40136 70362 87700 333 10294 59001 60041;
0201829000999992000050412004-08050-034920FM-12+000799999V0201801N001510075019N0100001N1+02741+02401101111ADDAA124021191AY161061AY251061GF106991061021008001001001KA1240N+02201MA1999999101021MD1999999-0161MW1031REMSYN088AAXX  04124 82900 21597 61803 10274 20240 30102 40111 70365 86200 333 20220 59016 60214;
0182829000999992000050418004-08050-034920FM-12+000799999V0201401N003110075019N0100001N1+02661+02371100911ADDAA106001091AY161061AY211061GF106991061021008001001001MA1999999100821MD1999999-0081MW1021REMSYN082AAXX  04184 82900 21597 61406 10266 20237 30082 40091 70261 86200 333 59008 60011;
0186829000999992000050500004-08050-034920FM-12+000799999V0202301N001512200019N0020001N1+02531+02381101171ADDAA199000091GF104991041021008001001001KA1240M+02941MA1999999101081MD1999999-0191REMSYN076AAXX  05004 82900 32595 42303 10253 20238 30108 40117 84200 333 10294 59019;EQDQ01  00002PRCP99
0135829000999992000050512004-08050-034920FM-12+000799999V0200901N001519999999N0100001N1+02471+02281101091ADDAY161061AY201061GF106991999999008001999999MA1999999101001MW1031REMSYN060AAXX  05124 82900 21597 60903 10247 20228 30100 40109 70360;
0167829000999992000050518004-08050-034920FM-12+000799999V0201401N003110075019N0100001N1+02731+02431100911ADDAA199000091GF105991051021008001001001MA1999999100821MD1999999+0001REMSYN070AAXX  05184 82900 32597 51406 10273 20243 30082 40091 85200 333 58000;EQDQ01  00002PRCP99
0201829000999992000050600004-08050-034920FM-12+000799999V0202701N001510075019N0020001N1+02391+02371101301ADDAA106041991AY161061AY261061GF106991061071008001001001KA1240M+02931MA1999999101211MD1999999+0131MW1031REMSYN088AAXX  06004 82900 21595 62703 10239 20237 30121 40130 70366 86700 333 10293 58013 60421;
0201829000999992000050612004-08050-034920FM-12+000799999V0202301N002110075019N0100001N1+02661+02441101231ADDAA124041991AY161061AY261061GF107991071061008001001001KA1240N+02271MA1999999101141MD1999999+0141MW1031REMSYN088AAXX  06124 82900 21597 72304 10266 20244 30114 40123 70366 87600 333 20227 58014 60424;
0182829000999992000050618004-08050-034920FM-12+000799999V0201801N003110075019N0100001N1+02671+02461101061ADDAA106030091AY161061AY261061GF106991061071008001001001MA1999999100971MD1999999+0151MW1011REMSYN082AAXX  06184 82900 21597 61806 10267 20246 30097 40106 70166 86700 333 58015 60301;
0186829000999992000050700004-08050-034920FM-12+000799999V0202701N001510075019N0020001N1+02511+02491101071ADDAA199000091GF106991061071008001001001KA1240M+02861MA1999999100981MD1999999-0231REMSYN076AAXX  07004 82900 32595 62703 10251 20249 30098 40107 86700 333 10286 59023;EQDQ01  00002PRCP99
0201829000999992000050712004-08050-034920FM-12+000799999V0201801N002610075019N0100001N1+02761+02481101171ADDAA124039191AY161061AY221061GF108991081051008001999999KA1240N+02301MA1999999101081MD1999999-0061MW1601REMSYN088AAXX  07124 82900 21597 81805 10276 20248 30108 40117 76062 885// 333 20230 59006 60394;
0182829000999992000050718004-08050-034920FM-12+000799999V0201401N001510075019N0100001N1+02721+02451101061ADDAA106006191AY161061AY221061GF107991071071008001001001MA1999999100971MD1999999+0001MW1011REMSYN082AAXX  07184 82900 21597 71403 10272 20245 30097 40106 70162 87700 333 58000 60061;
0167829000999992000050800004-08050-034920FM-12+000799999V0202301N001510075019N0020001N1+02531+02441101291ADDAA199000021GF107991071071008001001001KA1240M+02931MA1999999101201MD1999999+0221REMSYN076AAXX  08004 82900 32595 72303 10253 20244 30120 40129 87700 333 10293 58022;
0201829000999992000050812004-08050-034920FM-12+000799999V0201801N003610075019N0100001N1+02881+02461101421ADDAA124014091AY161061AY221061GF105991051021008001001001KA1240N+02371MA1999999101331MD1999999+0251MW1021REMSYN088AAXX  08124 82900 21597 51807 10288 20246 30133 40142 70262 85200 333 20237 58025 60144;
0167829000999992000050818004-08050-034920FM-12+000799999V0201401N003110075019N0100001N1+02881+02351101231ADDAA199000091GF105991051021008001001001MA1999999101141MD1999999+0171REMSYN070AAXX  08184 82900 32597 51406 10288 20235 30114 40123 85200 333 58017;EQDQ01  00002PRCP99
0186829000999992000050900004-08050-034920FM-12+000799999V0202301N002110075019N0020001N1+02581+02421101341ADDAA199000091GF106991061021008001001001KA1240M+02991MA1999999101251MD1999999+0051REMSYN076AAXX  09004 82900 32595 62304 10258 20242 30125 40134 86200 333 10299 58005;EQDQ01  00002PRCP99
0186829000999992000050912004-08050-034920FM-12+000799999V0201801N003110075019N0100001N1+02871+02311101391ADDAA199000091GF105991051021008001001001KA1240N+02021MA1999999101301MD1999999-0031REMSYN076AAXX  09124 82900 32597 51806 10287 20231 30130 40139 85200 333 20202 59003;EQDQ01  00002PRCP99
0182829000999992000050918004-08050-034920FM-12+000799999V0201801N003110075019N0100001N1+02841+02241101111ADDAA106004191AY161061AY221061GF106991061021008001001001MA1999999101021MD1999999-0121MW1031REMSYN082AAXX  09184 82900 21597 61806 10284 20224 30102 40111 70362 86200 333 59012 60041;
0180829000999992000051000004-08050-034920FM-12+000799999V0202301N001519999999N0020001N1+02571+02381999999ADDAA199000091GF105991999999008001999999KA1240M+02981MA1999999101271MD1999999+0031REMSYN070AAXX  10004 82900 32595 52303 10257 20238 30127 4//// 333 10298 58003;EQDQ01  00002PRCP99
0201829000999992000051012004-08050-034920FM-12+000799999V0201801N003110075019N0100001N1+02711+02411101501ADDAA124004191AY161061AY261061GF107991061071008001021001KA1240N+02301MA1999999101411MD1999999+0111MW1031REMSYN088AAXX  10124 82900 21597 71806 10271 20241 30141 40150 70366 86720 333 20230 58011 60044;
0182829000999992000051018004-08050-034920FM-12+000799999V0201401N002110075019N0100001N1+02841+02351101201ADDAA106000391AY151061AY221061GF106991051041008001051001MA1999999101111MD1999999+0091MW1011REMSYN082AAXX  10184 82900 21597 61404 10284 20235 30111 40120 70152 85450 333 58009 69931;
0186829000999992000051100004-08050-034920FM-12+000799999V0209999C000012200019N0020001N1+02431+02351101411ADDAA199000091GF104991041021008001001001KA1240M+02941MA1999999101321MD1999999+0051REMSYN076AAXX  11004 82900 32595 40000 10243 20235 30132 40141 84200 333 10294 58005;EQDQ01  00002PRCP99
0201829000999992000051112004-08050-034920FM-12+000799999V0201801N004110075019N0100001N1+02781+02321101461ADDAA124000391AY161061AY221061GF105991051021008001001001KA1240N+02261MA1999999101371MD1999999-0041MW1031REMSYN088AAXX  11124 82900 21597 51808 10278 20232 30137 40146 70362 85200 333 20226 59004 69934;
0167829000999992000051118004-08050-034920FM-12+000799999V0201801N004610075019N0100001N1+02861+02231101211ADDAA199000091GF107991061041008001031001MA1999999101121MD1999999-0111REMSYN070AAXX  11184 82900 32597 71809 10286 20223 30112 40121 86430 333 59011;EQDQ01  00002PRCP99
0186829000999992000051200004-08050-034920FM-12+000799999V0202301N001510075019N0020001N1+02561+02271101371ADDAA199000091GF105991051021008001001001KA1240M+02971MA1999999101281MD1999999-0041REMSYN076AAXX  12004 82900 32595 52303 10256 20227 30128 40137 85200 333 10297 59004;EQDQ01  00002PRCP99
0201829000999992000051212004-08050-034920FM-12+000799999V0201801N006212200019N0100001N1+02821+02221101391ADDAA124000591AY161061AY221061GF104991041021008001001001KA1240N+02291MA1999999101301MD1999999-0061MW1021REMSYN088AAXX  12124 82900 21597 41812 10282 20222 30130 40139 70262 84200 333 20229 59006 69944;
0182829000999992000051218004-08050-034920FM-12+000799999V0201801N005110450019N0100001N1+02701+02391101101ADDAA106000191AY161061AY221061GF105991031021008001031001MA1999999101011MD1999999-0111MW1021REMSYN082AAXX  12184 82900 21597 51810 10270 20239 30101 40110 70262 83230 333 59011 69921;
0201829000999992000051300004-08050-034920FM-12+000799999V0202301N002110075019N0020001N1+02451+02251101391ADDAA106000191AY151061AY221061GF107991071071008001001001KA1240M+02961MA1999999101301MD1999999+0021MW1031REMSYN088AAXX  13004 82900 21595 72304 10245 20225 30130 40139 70352 87700 333 10296 58002 69911;
0201829000999992000051312004-08050-034920FM-12+000799999V0202301N002610075019N0100001N1+02521+02381101441ADDAA124003091AY161061AY221061GF107991071071008001001001KA1240N+02251MA1999999101351MD1999999+0051MW1031REMSYN088AAXX  13124 82900 21597 72305 10252 20238 30135 40144 70362 87700 333 20225 58005 60034;
0167829000999992000051318004-08050-034920FM-12+000799999V0201801N006710450019N0100001N1+02861+02261101081ADDAA199000091GF106991041031008001031001MA1999999100991MD1999999-0021REMSYN070AAXX  13184 82900 32597 61813 10286 20226 30099 40108 84330 333 59002;EQDQ01  00002PRCP99
0186829000999992000051400004-08050-034920FM-12+000799999V0202701N002110075019N0020001N1+02581+02331101411ADDAA199000091GF106991061021008001001001KA1240M+02901MA1999999101311MD1999999+0011REMSYN076AAXX  14004 82900 32595 62704 10258 20233 30131 40141 86200 333 10290 58001;EQDQ01  00002PRCP99
0201829000999992000051412004-08050-034920FM-12+000799999V0202301N004610075019N0100001N1+02451+02281101551ADDAA124010991AY161061AY221061GF108991081051008001999999KA1240N+02361MA1999999101461MD1999999+0111MW1031REMSYN088AAXX  14124 82900 21597 82309 10245 20228 30146 40155 70362 885// 333 20236 58011 60114;
0182829000999992000051418004-08050-034920FM-12+000799999V0201801N006710075019N0100001N1+02761+02281101151ADDAA106001091AY161061AY221061GF107991071051008001001001MA1999999101061MD1999999+0051MW1031REMSYN082AAXX  14184 82900 21597 71813 10276 20228 30106 40115 70362 87500 333 58005 60011;
0186829000999992000051500004-08050-034920FM-12+000799999V0202301N003110075019N0020001N1+02541+02171101441ADDAA199000091GF106991061021008001001001KA1240M+02901MA1999999101351MD1999999+0041REMSYN076AAXX  15004 82900 32595 62306 10254 20217 30135 40144 86200 333 10290 58004;EQDQ01  00002PRCP99
0167829000999992000051518004-08050-034920FM-12+000799999V0201801N005110075019N0100001N1+02781+02111101071ADDAA199000091GF107991071051008001001001MA1999999100681MD1999999-0081REMSYN070AAXX  15184 82900 32597 71810 10278 20211 30068 40107 87500 333 59008;EQDQ01  00002PRCP99
0201829000999992000051600004-08050-034920FM-12+000799999V0201801N003110075019N0020001N1+02571+02151101261ADDAA106000391AY151061AY221061GF107991071051008001001001KA1240M+02871MA1999999101171MD1999999-0151MW1011REMSYN088AAXX  16004 82900 21595 71806 10257 20215 30117 40126 70152 87500 333 10287 59015 69931;
0201829000999992000051612004-08050-034920FM-12+000799999V0209999C000010075019N0100001N1+02391+02311101381ADDAA124007191AY161061AY221061GF108991081051008001999999KA1240N+02241MA1999999101291MD1999999-0021MW1611REMSYN088AAXX  16124 82900 21597 80000 10239 20231 30129 40138 76162 885// 333 20224 59002 60074;
0182829000999992000051618004-08050-034920FM-12+000799999V0201801N001510450019N0100001N1+02781+02331100991ADDAA106008991AY161061AY221061GF106991041021008001021001MA1999999100901MD1999999-0081MW1021REMSYN082AAXX  16184 82900 21597 61803 10278 20233 30090 40099 70262 84220 333 59008 60091;
0201829000999992000051700004-08050-034920FM-12+000799999V0202301N001510075019N0020001N1+02451+02391101361ADDAA106023991AY161061AY261061GF108991081051008001999999KA1240M+02781MA1999999101271MD1999999+0101MW1601REMSYN088AAXX  17004 82900 21595 82303 10245 20239 30127 40136 76066 885// 333 10278 58010 60241;
0201829000999992000051712004-08050-034920FM-12+000799999V0201801N003110075019N0100001N1+02771+02581101361ADDAA124040991AY161061AY251061GF106991061021008001001001KA1240N+02341MA1999999101271MD1999999-0021MW1031REMSYN088AAXX  17124 82900 21597 61806 10277 20258 30127 40136 70365 86200 333 20234 59002 60414;
0167829000999992000051718004-08050-034920FM-12+000799999V0201401N003110075019N0100001N1+02851+02401101111ADDAA199000091GF105991051021008001001001MA1999999101021MD1999999+0121REMSYN070AAXX  17184 82900 32597 51406 10285 20240 30102 40111 85200 333 58012;EQDQ01  00002PRCP99
0201829000999992000051800004-08050-034920FM-12+000799999V0209999C000010075019N0020001N1+02511+02421101281ADDAA106000391AY151061AY221061GF105991051021008001001001KA1240M+02941MA1999999101191MD1999999-0081MW1011REMSYN088AAXX  18004 82900 21595 50000 10251 20242 30119 40128 70152 85200 333 10294 59008 69931;
0201829000999992000051812004-08050-034920FM-12+000799999V0201401N002610075019N0100001N1+02831+02331101341ADDAA124000591AY151061AY221061GF106991051041008001021001KA1240N+02291MA1999999101251MD1999999-0021MW1011REMSYN088AAXX  18124 82900 21597 61405 10283 20233 30125 40134 70152 85420 333 20229 59002 69964;
0167829000999992000051818004-08050-034920FM-12+000799999V0201401N003112200019N0100001N1+02901+02301101091ADDAA199000091GF104991041021008001001001MA1999999101001MD1999999-0021REMSYN070AAXX  18184 82900 32597 41406 10290 20230 30100 40109 84200 333 59002;EQDQ01  00002PRCP99
0186829000999992000051900004-08050-034920FM-12+000799999V0201401N002612200019N0020001N1+02621+02331101301ADDAA199000091GF103991031021008001001001KA1240M+02901MA1999999101021MD1999999+0021REMSYN076AAXX  19004 82900 32595 31405 10262 20233 30102 40130 83200 333 10290 58002;EQDQ01  00002PRCP99
0186829000999992000051912004-08050-034920FM-12+000799999V0200901N002610075019N0100001N1+02861+02261101411ADDAA199000091GF105991051021008001001001KA1240N+02181MA1999999101321MD1999999+0071REMSYN076AAXX  19124 82900 32597 50905 10286 20226 30132 40141 85200 333 20218 58007;EQDQ01  00002PRCP99
0167829000999992000051918004-08050-034920FM-12+000799999V0201401N002612200019N0100001N1+02901+02271101161ADDAA199000091GF104991041021008001001001MA1999999101071MD1999999+0071REMSYN070AAXX  19184 82900 32597 41405 10290 20227 30107 40116 84200 333 58007;EQDQ01  00002PRCP99
0186829000999992000052000004-08050-034920FM-12+000799999V0200901N001512200019N0020001N1+02571+02271101371ADDAA199000091GF103991031011008001001001KA1240M+03001MA1999999101281MD1999999+0071REMSYN076AAXX  20004 82900 32595 30903 10257 20227 30128 40137 83100 333 10300 58007;EQDQ01  00002PRCP99
0186829000999992000052012004-08050-034920FM-12+000799999V0201401N003110075019N0100001N1+02871+02191101531ADDAA199000091GF106991061021008001001001KA1240N+02121MA1999999101441MD1999999+0121REMSYN076AAXX  20124 82900 32597 61406 10287 20219 30144 40153 86200 333 20212 58012;EQDQ01  00002PRCP99
0167829000999992000052018004-08050-034920FM-12+000799999V0201401N002610075019N0100001N1+02881+02081101271ADDAA199000091GF105991051021008001001001MA1999999101181MD1999999+0111REMSYN070AAXX  20184 82900 32597 51405 10288 20208 30118 40127 85200 333 58011;EQDQ01  00002PRCP99
0186829000999992000052100004-08050-034920FM-12+000799999V0209999C000012200019N0020001N1+02331+02241101461ADDAA199000091GF103991031021008001001001KA1240M+02951MA1999999101371MD1999999+0091REMSYN076AAXX  21004 82900 32595 30000 10233 20224 30137 40146 83200 333 10295 58009;EQDQ01  00002PRCP99
0201829000999992000052112004-08050-034920FM-12+000799999V0201401N003610450019N0100001N1+02791+02211101531ADDAA124001091AY161061AY221061GF105991031021008001021001KA1240N+02161MA1999999101441MD1999999+0001MW1021REMSYN088AAXX  21124 82900 21597 51407 10279 20221 30144 40153 70262 83220 333 20216 58000 60014;
0167829000999992000052118004-08050-034920FM-12+000799999V0201801N003610450019N0100001N1+02851+02181101391ADDAA199000091GF105991031021008001021001MA1999999101301MD1999999+0121REMSYN070AAXX  21184 82900 32597 51807 10285 20218 30130 40139 83220 333 58012;EQDQ01  00002PRCP99
0186829000999992000052200004-08050-034920FM-12+000799999V0201801N001512200019N0020001N1+02531+02211101611ADDAA199000091GF103991031021008001001001KA1240M+02851MA1999999101521MD1999999+0151REMSYN076AAXX  22004 82900 32595 31803 10253 20221 30152 40161 83200 333 10285 58015;EQDQ01  00002PRCP99
0186829000999992000052212004-08050-034920FM-12+000799999V0201401N005110075019N0100001N1+02791+02281101691ADDAA199000091GF107991061041008001021001KA1240N+02281MA1999999101601MD1999999+0161REMSYN076AAXX  22124 82900 32597 71410 10279 20228 30160 40169 86420 333 20228 58016;EQDQ01  00002PRCP99
0167829000999992000052218004-08050-034920FM-12+000799999V0201401N004110075019N0100001N1+02901+02151101461ADDAA199000091GF106991051021008001031001MA1999999101371MD1999999+0071REMSYN070AAXX  22184 82900 32597 61408 10290 20215 30137 40146 85230 333 58007;EQDQ01  00002PRCP99
0201829000999992000052300004-08050-034920FM-12+000799999V0209999C000010075019N0020001N1+02431+02321101701ADDAA106002091AY161061AY221061GF106991061021008001001001KA1240M+02911MA1999999101311MD1999999+0091MW1031REMSYN088AAXX  23004 82900 21595 60000 10243 20232 30131 40170 70362 86200 333 10291 58009 60021;
0201829000999992000052312004-08050-034920FM-12+000799999V0201401N005110075019N0100001N1+02671+02221101721ADDAA124007191AY161061AY261061GF108991081051008001999999KA1240N+02351MA1999999101631MD1999999+0031MW1631REMSYN088AAXX  23124 82900 21597 81410 10267 20222 30163 40172 76366 885// 333 20235 58003 60074;
0182829000999992000052318004-08050-034920FM-12+000799999V0201801N003610450019N0100001N1+02781+02251101521ADDAA106006191AY161061AY221061GF106991041021008001031001MA1999999101431MD1999999+0061MW1021REMSYN082AAXX  23184 82900 21597 61807 10278 20225 30143 40152 70262 84230 333 58006 60061;
0201829000999992000052400004-08050-034920FM-12+000799999V0201801N002112200019N0020001N1+02571+02211101681ADDAA106002091AY161061AY221061GF103991031011008001001001KA1240M+02921MA1999999101591MD1999999-0021MW1011REMSYN088AAXX  24004 82900 21595 31804 10257 20221 30159 40168 70162 83100 333 10292 59002 60021;
0201829000999992000052412004-08050-034920FM-12+000799999V0201801N001510450019N0100001N1+02471+02371101741ADDAA124018091AY161061AY221061GF106991041021008001031001KA1240N+02231MA1999999101651MD1999999+0021MW1031REMSYN088AAXX  24124 82900 21597 61803 10247 20237 30165 40174 70362 84230 333 20223 58002 60184;
0167829000999992000052418004-08050-034920FM-12+000799999V0201801N005110075019N0100001N1+02741+02141101391ADDAA199000091GF105991051021008001001001MA1999999101301MD1999999-0131REMSYN070AAXX  24184 82900 32597 51810 10274 20214 30130 40139 85200 333 59013;EQDQ01  00002PRCP99
0186829000999992000052500004-08050-034920FM-12+000799999V0202301N002612200019N0020001N1+02391+02091101591ADDAA199000091GF101991011011008001001001KA1240M+02871MA1999999101501MD1999999-0091REMSYN076AAXX  25004 82900 32595 12305 10239 20209 30150 40159 81100 333 10287 59009;EQDQ01  00002PRCP99
0186829000999992000052512004-08050-034920FM-12+000799999V0201801N001512200019N0100001N1+02691+02241101601ADDAA199000091GF104991041021008001001001KA1240N+02091MA1999999101511MD1999999-0151REMSYN076AAXX  25124 82900 32597 41803 10269 20224 30151 40160 84200 333 20209 59015;EQDQ01  00002PRCP99
0167829000999992000052518004-08050-034920FM-12+000799999V0201801N003110075019N0100001N1+02831+02271101301ADDAA199000091GF106991061021008001001001MA1999999101211MD1999999-0091REMSYN070AAXX  25184 82900 32597 61806 10283 20227 30121 40130 86200 333 59009;EQDQ01  00002PRCP99
0186829000999992000052600004-08050-034920FM-12+000799999V0201401N002110075019N0020001N1+02631+02231101521ADDAA199000091GF105991051021008001001001KA1240M+02911MA1999999101431MD1999999-0071REMSYN076AAXX  26004 82900 32595 51404 10263 20223 30143 40152 85200 333 10291 59007;EQDQ01  00002PRCP99
0201829000999992000052612004-08050-034920FM-12+000799999V0201401N003110075019N0100001N1+02781+02251101511ADDAA124001091AY161061AY221061GF106991051021008001031001KA1240N+02241MA1999999101421MD1999999-0091MW1011REMSYN088AAXX  26124 82900 21597 61406 10278 20225 30142 40151 70162 85230 333 20224 59009 60014;
0167829000999992000052618004-08050-034920FM-12+000799999V0201401N005110075019N0100001N1+02811+02221101261ADDAA199000091GF106991051041008001021001MA1999999101171MD1999999-0071REMSYN070AAXX  26184 82900 32597 61410 10281 20222 30117 40126 85420 333 59007;EQDQ01  00002PRCP99
0186829000999992000052700004-08050-034920FM-12+000799999V0201401N001510075019N0020001N1+02601+02141101471ADDAA199000091GF106991061021008001001001KA1240M+02941MA1999999101381MD1999999-0051REMSYN076AAXX  27004 82900 32595 61403 10260 20214 30138 40147 86200 333 10294 59005;EQDQ01  00002PRCP99
0186829000999992000052712004-08050-034920FM-12+000799999V0201801N004112200019N0100001N1+02781+02341101381ADDAA199000091GF103991031021008001001001KA1240N+02041MA1999999101291MD1999999-0131REMSYN076AAXX  27124 82900 32597 31808 10278 20234 30129 40138 83200 333 20204 59013;EQDQ01  00002PRCP99
0167829000999992000052718004-08050-034920FM-12+000799999V0201801N003110075019N0100001N1+02821+02201101091ADDAA199000091GF106991061021008001001001MA1999999101001MD1999999-0171REMSYN070AAXX  27184 82900 32597 61806 10282 20220 30100 40109 86200 333 59017;EQDQ01  00002PRCP99
0186829000999992000052800004-08050-034920FM-12+000799999V0201801N001510075019N0020001N1+02521+02251101271ADDAA199000091GF106991061021008001001001KA1240M+02931MA1999999101181MD1999999-0201REMSYN076AAXX  28004 82900 32595 61803 10252 20225 30118 40127 86200 333 10293 59020;EQDQ01  00002PRCP99
0186829000999992000052812004-08050-034920FM-12+000799999V0201801N001510075019N0100001N1+02731+02141101311ADDAA199000091GF106991061021008001001001KA1240N+02161MA1999999101221MD1999999-0071REMSYN076AAXX  28124 82900 32597 61803 10273 20214 30122 40131 86200 333 20216 59007;EQDQ01  00002PRCP99
0153829000999992000052818004-08050-034920FM-12+000799999V0201401N003112200019N0100001N1+02851+02141100961ADDAA199000091GF104991041021008001001001MA1999999100871REMSYN070AAXX  28184 82900 32597 41406 10285 20214 30087 40096 84200 333 5901/;EQDQ01  00002PRCP99
0186829000999992000052900004-08050-034920FM-12+000799999V0209999C000012200019N0020001N1+02331+02021101261ADDAA199000091GF104991041021008001001001KA1240M+02951MA1999999101171MD1999999-0011REMSYN076AAXX  29004 82900 32595 40000 10233 20202 30117 40126 84200 333 10295 59001;EQDQ01  00002PRCP99
0186829000999992000052912004-08050-034920FM-12+000799999V0201801N001510075019N0100001N1+02731+02281101191ADDAA199000091GF106991061021008001001001KA1240N+02161MA1999999101101MD1999999-0121REMSYN076AAXX  29124 82900 32597 61803 10273 20228 30110 40119 86200 333 20216 59012;EQDQ01  00002PRCP99
0167829000999992000052918004-08050-034920FM-12+000799999V0201401N003110075019N0100001N1+02791+02201100951ADDAA199000091GF105991051021008001001001MA1999999100861MD1999999-0011REMSYN070AAXX  29184 82900 32597 51406 10279 20220 30086 40095 85200 333 59001;EQDQ01  00002PRCP99
0186829000999992000053000004-08050-034920FM-12+000799999V0201401N002610075019N0020001N1+02761+02191101231ADDAA199000091GF106991061021008001001001KA1240M+02941MA1999999101141MD1999999-0031REMSYN076AAXX  30004 82900 32595 61405 10276 20219 30114 40123 86200 333 10294 59003;EQDQ01  00002PRCP99
0186829000999992000053012004-08050-034920FM-12+000799999V0201801N004110075019N0100001N1+02811+02311101371ADDAA199000091GF107991061041008001021001KA1240N+02241MA1999999101281MD1999999+0181REMSYN076AAXX  30124 82900 32597 71808 10281 20231 30128 40137 86420 333 20224 58018;EQDQ01  00002PRCP99
0167829000999992000053018004-08050-034920FM-12+000799999V0201801N004110075019N0100001N1+02841+02331101041ADDAA199000091GF106991051071008001021001MA1999999100951MD1999999+0091REMSYN070AAXX  30184 82900 32597 61808 10284 20233 30095 40104 85720 333 58009;EQDQ01  00002PRCP99
0186829000999992000053100004-08050-034920FM-12+000799999V0202301N002610075019N0020001N1+02561+02311101301ADDAA199000091GF106991061051008001001001KA1240M+02921MA1999999101211MD1999999+0071REMSYN076AAXX  31004 82900 32595 62305 10256 20231 30121 40130 86500 333 10292 58007;EQDQ01  00002PRCP99
0201829000999992000053112004-08050-034920FM-12+000799999V0201801N002110120019N0100001N1+02701+02431101361ADDAA124005191AY161061AY221061GF108991081081008001999999KA1240N+02301MA1999999101271MD1999999-0011MW1601REMSYN088AAXX  31124 82900 21597 81804 10270 20243 30127 40136 76062 888// 333 20230 59001 60054;
0182829000999992000053118004-08050-034920FM-12+000799999V0201801N003110075019N0040001N1+02581+02501101141ADDAA106004191AY161061AY261061GF108991081091008001999999MA1999999101051MD1999999+0101MW1601REMSYN082AAXX  31184 82900 21596 81806 10258 20250 30105 40114 76066 889// 333 58010 60041;
0201829000999992000060100004-08050-034920FM-12+000799999V0209999C000010075019N0020001N1+02361+02331101331ADDAA106013091AY161061AY261061GF107991071071008001001001KA1240M+02891MA1999999101241MD1999999+0031MW1011REMSYN088AAXX  01004 82900 21595 70000 10236 20233 30124 40133 70166 87700 333 10289 58003 60131;
0201829000999992000060112004-08050-034920FM-12+000799999V0209999C000010450019N0100001N1+02751+02361101321ADDAA124039191AY161061AY221061GF106991031021008001021001KA1240N+02271MA1999999101231MD1999999-0041MW1021REMSYN088AAXX  01124 82900 21597 60000 10275 20236 30123 40132 70262 83220 333 20227 59004 60394;
0186829000999992000060200004-08050-034920FM-12+000799999V0201401N001510075019N0020001N1+02651+02331101381ADDAA199000091GF106991061021008001001001KA1240M+02971MA1999999101291MD1999999+0051REMSYN076AAXX  02004 82900 32595 61403 10265 20233 30129 40138 86200 333 10297 58005;EQDQ01  00002PRCP99
0186829000999992000060212004-08050-034920FM-12+000799999V0201801N003610450019N0100001N1+02781+02271101531ADDAA199000091GF105991031021008001031001KA1240N+02181MA1999999101441MD1999999+0211REMSYN076AAXX  02124 82900 32597 51807 10278 20227 30144 40153 83230 333 20218 58021;EQDQ01  00002PRCP99
0183829000999992000060218004-08050-034920FM-12+000799999V0201401N005119999999N0100001N1+02821+02241101331ADDAA199000091GF105991999021008001001001MA1999999101241MD1999999+0141REMSYN070AAXX  02184 82900 32597 51410 10282 20224 30124 40133 84200 333 58014;EQDQ01+000042SCOTLCQ02  00002PRCP99
0186829000999992000060300004-08050-034920FM-12+000799999V0201801N003112200019N0020001N1+02651+02141101541ADDAA199000091GF103991031011008001001001KA1240M+02951MA1999999101451MD1999999+0161REMSYN076AAXX  03004 82900 32595 31806 10265 20214 30145 40154 83100 333 10295 58016;EQDQ01  00002PRCP99
0182829000999992000060318004-08050-034920FM-12+000799999V0201801N003110075019N0100001N1+02701+02151101441ADDAA106000891AY151061AY221061GF107991071071008001001001MA1999999101351MD1999999+0011MW1011REMSYN082AAXX  03184 82900 21597 71806 10270 20215 30135 40144 70152 87700 333 58001 69971;
0220829000999992000060400004-08050-034920FM-12+000799999V0201801N003119999999N0020001N1+02351+02221101611ADDAA106004191AY161061AY221061GF107991999021008001001001KA1240M+02851MA1999999101521MD1999999+0071MW1011REMSYN088AAXX  04004 82900 21595 71806 10235 20222 30152 40161 70162 84200 333 10285 58007 60041;EQDQ01+000042SCOTLC
0201829000999992000060412004-08050-034920FM-12+000799999V0201801N005112200019N0100001N1+02821+02001101701ADDAA124007991AY161061AY261061GF102991021021008001001001KA1240N+02101MA1999999101611MD1999999+0101MW1021REMSYN088AAXX  04124 82900 21597 21810 10282 20200 30161 40170 70266 82200 333 20210 58010 60084;
0182829000999992000060418004-08050-034920FM-12+000799999V0201401N005110075019N0100001N1+02621+02271101471ADDAA106000391AY151061AY221061GF107991071071008001001001MA1999999101381MD1999999+0031MW1031REMSYN082AAXX  04184 82900 21597 71410 10262 20227 30138 40147 70352 87700 333 58003 69931;
0186829000999992000060500004-08050-034920FM-12+000799999V0209999C000012200019N0020001N1+02231+02171101661ADDAA199000091GF103991031011008001001001KA1240M+02901MA1999999101571MD1999999+0051REMSYN076AAXX  05004 82900 32595 30000 10223 20217 30157 40166 83100 333 10290 58005;EQDQ01  00002PRCP99
0173829000999992000060512004-08050-034920FM-12+000799999V0201401N003110075019N0100001N1+02761+02161101641ADDAA124000391GF106991061021008001001001KA1240N+02051MA1999999101551MD1999999-0141REMSYN082AAXX  05124 82900 22597 61406 10276 20216 30155 40164 86200 333 20205 59014 69934;
0167829000999992000060518004-08050-034920FM-12+000799999V0201801N003110075019N0100001N1+02871+02311101471ADDAA199000091GF105991051021008001001001MA1999999101381MD1999999+0001REMSYN070AAXX  05184 82900 32597 51806 10287 20231 30138 40147 85200 333 58000;EQDQ01  00002PRCP99
0201829000999992000060600004-08050-034920FM-12+000799999V0203201N001010075019N0020001N1+02461+02321101651ADDAA106001091AY161061AY221061GF106991061021008001001001KA1240M+02921MA1999999101561MD1999999-0011MW1011REMSYN088AAXX  06004 82900 21595 63202 10246 20232 30156 40165 70162 86200 333 10292 59001 60011;
0201829000999992000060612004-08050-034920FM-12+000799999V0202301N001010075019N0100001N1+02431+02301101691ADDAA124017091AY161061AY261061GF108991081071008001001001KA1240N+02191MA1999999101601MD1999999+0051MW1011REMSYN088AAXX  06124 82900 21597 82302 10243 20230 30160 40169 70166 88700 333 20219 58005 60174;
0182829000999992000060618004-08050-034920FM-12+000799999V0201801N002610075019N0100001N1+02411+02331101441ADDAA106011991AY161061AY221061GF108991081071008001001001MA1999999101351MD1999999-0031MW1211REMSYN082AAXX  06184 82900 21597 81805 10241 20233 30135 40144 72162 88700 333 59003 60121;
0201829000999992000060700004-08050-034920FM-12+000799999V0201401N005110075019N0020001N1+02381+02291101641ADDAA106025991AY161061AY261061GF107991071071008001001001KA1240M+02661MA1999999101551MD1999999-0011MW1601REMSYN088AAXX  07004 82900 21595 71410 10238 20229 30155 40164 76066 87700 333 10266 59001 60261;
0201829000999992000060712004-08050-034920FM-12+000799999V0201401N003110075019N0100001N1+02281+02231101731ADDAA124118191AY161061AY261061GF108991081051008001999999KA1240N+02191MA1999999101641MD1999999+0041MW1641REMSYN088AAXX  07124 82900 21597 81406 10228 20223 30164 40173 76466 885// 333 20219 58004 61184;
0182829000999992000060718004-08050-034920FM-12+000799999V0201801N003110075019N0040001N1+02621+02371101411ADDAA106020191AY161061AY261061GF107991071051008001001001MA1999999101321MD1999999-0031MW1031REMSYN082AAXX  07184 82900 21596 71806 10262 20237 30132 40141 70366 87500 333 59003 60201;
0167829000999992000060800004-08050-034920FM-12+000799999V0201801N003110075019N0020001N1+02561+02251101591ADDAA199000021GF107991071071008001001001KA1240M+02631MA1999999101501MD1999999-0051REMSYN076AAXX  08004 82900 32595 71806 10256 20225 30150 40159 87700 333 10263 59005;
0201829000999992000060812004-08050-034920FM-12+000799999V0201801N001510075019N0100001N1+02431+02321101591ADDAA124040991AY161061AY251061GF108991081021008001001001KA1240N+01941MA1999999101501MD1999999-0141MW1031REMSYN088AAXX  08124 82900 21597 81803 10243 20232 30150 40159 70365 88200 333 20194 59014 60414;
0182829000999992000060818004-08050-034920FM-12+000799999V0201801N001510075019N0100001N1+02391+02241101421ADDAA106009991AY161061AY241061GF108991081021008001001001MA1999999101331MD1999999+0011MW1021REMSYN082AAXX  08184 82900 21597 81803 10239 20224 30133 40142 70264 88200 333 58001 60101;
0201829000999992000060900004-08050-034920FM-12+000799999V0201801N003610120019N0020001N1+02401+02281101571ADDAA106045091AY161061AY261061GF108991081081008001999999KA1240M+02621MA1999999101481MD1999999-0021MW1601REMSYN088AAXX  09004 82900 21595 81807 10240 20228 30148 40157 76066 888// 333 10262 59002 60451;
0201829000999992000060912004-08050-034920FM-12+000799999V0201801N003610075019N0100001N1+02631+02211101621ADDAA124077091AY161061AY261061GF107991071071008001001001KA1240N+02291MA1999999101531MD1999999+0031MW1011REMSYN088AAXX  09124 82900 21597 71807 10263 20221 30153 40162 70166 87700 333 20229 58003 60774;
0167829000999992000060918004-08050-034920FM-12+000799999V0201801N005710075019N0100001N1+02771+02251101351ADDAA199000091GF106991051041008001021001MA1999999101261MD1999999-0071REMSYN070AAXX  09184 82900 32597 61811 10277 20225 30126 40135 85420 333 59007;EQDQ01  00002PRCP99
0201829000999992000061000004-08050-034920FM-12+000799999V0202301N001510075019N0020001N1+02341+02271101571ADDAA106007991AY161061AY261061GF107991071071008001001001KA1240M+02821MA1999999101481MD1999999+0001MW1601REMSYN088AAXX  10004 82900 21595 72303 10234 20227 30148 40157 76066 87700 333 10282 58000 60081;
0220829000999992000061012004-08050-034920FM-12+000799999V0201801N003119999999N0100001N1+02461+02251101641ADDAA124016091AY161061AY261061GF107991999051008001001001KA1240N+02131MA1999999101551MD1999999+0021MW1031REMSYN088AAXX  10124 82900 21597 71806 10246 20225 30155 40164 70366 88500 333 20213 58002 60164;EQDQ01+000082SCOTLC
0182829000999992000061018004-08050-034920FM-12+000799999V0201801N002610075019N0100001N1+02571+02251101321ADDAA106004191AY161061AY221061GF107991071071008001001001MA1999999101231MD1999999-0031MW1031REMSYN082AAXX  10184 82900 21597 71805 10257 20225 30123 40132 70362 87700 333 59003 60041;
0201829000999992000061100004-08050-034920FM-12+000799999V0202701N001010075019N0020001N1+02361+02261101691ADDAA106009991AY161061AY261061GF106991061071008001001001KA1240M+02701MA1999999101601MD1999999+0121MW1011REMSYN088AAXX  11004 82900 21595 62702 10236 20226 30160 40169 70166 86700 333 10270 58012 60101;
0201829000999992000061112004-08050-034920FM-12+000799999V0201801N001510075019N0100001N1+02481+02321101591ADDAA124015091AY161061AY241061GF106991061021008001001001KA1240N+02131MA1999999101501MD1999999-0051MW1021REMSYN088AAXX  11124 82900 21597 61803 10248 20232 30150 40159 70264 86200 333 20213 59005 60154;
0167829000999992000061118004-08050-034920FM-12+000799999V0201401N003110075019N0100001N1+02761+02421101331ADDAA199000091GF105991051021008001001001MA1999999101241MD1999999+0011REMSYN070AAXX  11184 82900 32597 51406 10276 20242 30124 40133 85200 333 58001;EQDQ01  00002PRCP99
0186829000999992000061200004-08050-034920FM-12+000799999V0209999C000012200019N0020001N1+02301+02201101681ADDAA199000091GF102991021011008001001001KA1240M+02841MA1999999101591MD1999999-0011REMSYN076AAXX  12004 82900 32595 20000 10230 20220 30159 40168 82100 333 10284 59001;EQDQ01  00002PRCP99
0201829000999992000061212004-08050-034920FM-12+000799999V0201801N002610075019N0100001N1+02631+02271101521ADDAA124000191AY151061AY221061GF106991051041008001021001KA1240N+02141MA1999999101431MD1999999-0071MW1011REMSYN088AAXX  12124 82900 21597 61805 10263 20227 30143 40152 70152 85420 333 20214 59007 69924;
0167829000999992000061218004-08050-034920FM-12+000799999V0201801N004112200019N0100001N1+02791+02151101311ADDAA199000091GF104991031021008001011001MA1999999101221MD1999999-0021REMSYN070AAXX  12184 82900 32597 41808 10279 20215 30122 40131 83210 333 59002;EQDQ01  00002PRCP99
0186829000999992000061300004-08050-034920FM-12+000799999V0202701N001512200019N0020001N1+02411+02371101491ADDAA199000091GF102991021011008001001001KA1240M+02871MA1999999101401MD1999999-0191REMSYN076AAXX  13004 82900 32595 22703 10241 20237 30140 40149 82100 333 10287 59019;EQDQ01  00002PRCP99
0201829000999992000061312004-08050-034920FM-12+000799999V0201801N001510075019N0100001N1+02461+02361101531ADDAA124009991AY161061AY221061GF108991081071008001999999KA1240N+02241MA1999999101441MD1999999+0011MW1031REMSYN088AAXX  13124 82900 21597 81803 10246 20236 30144 40153 70362 887// 333 20224 58001 60104;
0182829000999992000061318004-08050-034920FM-12+000799999V0201801N005110120019N0040001N1+02771+02381101191ADDAA106000591AY161061AY261061GF108991081081008001999999MA1999999101091MD1999999-0131MW1601REMSYN082AAXX  13184 82900 21596 81810 10277 20238 30109 40119 76066 888// 333 59013 69961;
0201829000999992000061400004-08500-034920FM-12+000799999V0201801N004610075019N0100001N1+02541+02271101441ADDAA106007991AY161061AY261061GF107991071061008001001001KA1240M+02791MA1999999101351MD1999999-0041MW1031REMSYN088AAXX  14004 82900 21597 71809 10254 20227 30135 40144 70366 87600 333 10279 59004 60081;
0201829000999992000061412004-08500-034920FM-12+000799999V0201801N003110075019N0100001N1+02491+02251101451ADDAA124027991AY161061AY241061GF106991061021008001001001KA1240N+01981MA1999999101361MD1999999-0081MW1031REMSYN088AAXX  14124 82900 21597 61806 10249 20225 30136 40145 70364 86200 333 20198 59008 60284;
0182829000999992000061418004-08500-034920FM-12+000799999V0201801N005110075019N0100001N1+02591+02231101251ADDAA106000391AY151061AY241061GF107991071021008001001001MA1999999101161MD1999999+0071MW1031REMSYN082AAXX  14184 82900 21597 71810 10259 20223 30116 40125 70354 87200 333 58007 69931;
0186829000999992000061500004-08500-034920FM-12+000799999V0202301N002610075019N0020001N1+02281+02161101431ADDAA199000091GF106991061031008001001001KA1240M+02721MA1999999101341MD1999999-0011REMSYN076AAXX  15004 82900 32595 62305 10228 20216 30134 40143 86300 333 10272 59001;EQDQ01  00002PRCP99
0201829000999992000061512004-08500-034920FM-12+000799999V0202301N002110075019N0100001N1+02351+02151101461ADDAA124006191AY161061AY221061GF108991081071008001001001KA1240N+02171MA1999999101371MD1999999+0011MW1511REMSYN088AAXX  15124 82900 21597 82304 10235 20215 30137 40146 75162 88700 333 20217 58001 60064;
0182829000999992000061518004-08500-034920FM-12+000799999V0202701N000510075019N0100001N1+02461+02361101181ADDAA106001091AY161061AY221061GF107991071071008001001001MA1999999101091MD1999999-0071MW1501REMSYN082AAXX  15184 82900 21597 72701 10246 20236 30109 40118 75062 87700 333 59007 60011;
0201829000999992000061600004-08500-034920FM-12+000799999V0202301N000510075019N0020001N1+02341+02311101441ADDAA106016091AY161061AY261061GF106991061071008001001001KA1240M+02701MA1999999101351MD1999999+0011MW1011REMSYN088AAXX  16004 82900 21595 62301 10234 20231 30135 40144 70166 86700 333 10270 58001 60161;
0201829000999992000061612004-08500-034920FM-12+000799999V0200901N001510075019N0040001N1+02281+02231101451ADDAA124073991AY161061AY261061GF108991081091008001999999KA1240N+02151MA1999999101361MD1999999-0011MW1611REMSYN088AAXX  16124 82900 21596 80903 10228 20223 30136 40145 76166 889// 333 20215 59001 60744;
0182829000999992000061618004-08500-034920FM-12+000799999V0201801N002110075019N0100001N1+02561+02311101251ADDAA106003091AY161061AY221061GF107991071031008001001001MA1999999101161MD1999999+0071MW1011REMSYN082AAXX  16184 82900 21597 71804 10256 20231 30116 40125 70162 87300 333 58007 60031;
0167829000999992000061718004-08500-034920FM-12+000799999V0201801N003110075019N0100001N1+02771+02251101271ADDAA199000091GF105991051021008001001001MA1999999101181MD1999999+0021REMSYN070AAXX  17184 82900 32597 51806 10277 20225 30118 40127 85200 333 58002;EQDQ01  00002PRCP99
0186829000999992000061800004-08500-034920FM-12+000799999V0202301N000510075019N0020001N1+02461+02341101411ADDAA199000091GF106991061021008001001001KA1240M+02881MA1999999101321MD1999999-0021REMSYN076AAXX  18004 82900 32595 62301 10246 20234 30132 40141 86200 333 10288 59002;EQDQ01  00002PRCP99
0186829000999992000061812004-08500-034920FM-12+000799999V0201801N002110075019N0100001N1+02681+02351101581ADDAA199000091GF106991061021008001001001KA1240N+02191MA1999999101491MD1999999+0191REMSYN076AAXX  18124 82900 32597 61804 10268 20235 30149 40158 86200 333 20219 58019;EQDQ01  00002PRCP99
0182829000999992000061818004-08500-034920FM-12+000799999V0201401N004110075019N0100001N1+02691+02111101291ADDAA106000191AY151061AY221061GF106991051071008001021001MA1999999101201MD1999999+0021MW1011REMSYN082AAXX  18184 82900 21597 61408 10269 20211 30120 40129 70152 85720 333 58002 69921;
0201829000999992000061900004-08500-034920FM-12+000799999V0201801N001510075019N0020001N1+02381+02261101441ADDAA106002091AY161061AY221061GF107991071031008001001001KA1240M+02881MA1999999101351MD1999999+0031MW1031REMSYN088AAXX  19004 82900 21595 71803 10238 20226 30135 40144 70362 87300 333 10288 58003 60021;
0201829000999992000061912004-08500-034920FM-12+000799999V0201801N002110450019N0100001N1+02661+02391101461ADDAA124007191AY161061AY261061GF105991041031008001041001KA1240N+02301MA1999999101371MD1999999-0121MW1021REMSYN088AAXX  19124 82900 21597 51804 10266 20239 30137 40146 70266 84340 333 20230 59012 60074;
0182829000999992000061918004-08500-034920FM-12+000799999V0201401N004110075019N0100001N1+02761+02281101291ADDAA106000591AY161061AY221061GF106991061021008001001001MA1999999101201MD1999999+0001MW1021REMSYN082AAXX  19184 82900 21597 61408 10276 20228 30120 40129 70262 86200 333 58000 69941;
0201829000999992000062000004-08500-034920FM-12+000799999V0201801N001510075019N0020001N1+02531+02101101511ADDAA106000891AY151061AY221061GF107991071071008001001001KA1240M+02851MA1999999101421MD1999999-0071MW1011REMSYN088AAXX  20004 82900 21595 71803 10253 20210 30142 40151 70152 87700 333 10285 59007 69971;
0201829000999992000062012004-08500-034920FM-12+000799999V0201801N003110075019N0100001N1+02571+02231101451ADDAA124016091AY161061AY251061GF106991061021008001001001KA1240N+02261MA1999999101361MD1999999-0011MW1031REMSYN088AAXX  20124 82900 21597 61806 10257 20223 30136 40145 70365 86200 333 20226 59001 60164;
0167829000999992000062018004-08500-034920FM-12+000799999V0201401N003110075019N0100001N1+02771+02251101291ADDAA199000091GF105991051021008001001001MA1999999101201MD1999999+0001REMSYN070AAXX  20184 82900 32597 51406 10277 20225 30120 40129 85200 333 58000;EQDQ01  00002PRCP99
0186829000999992000062100004-08500-034920FM-12+000799999V0209999C000012200019N0020001N1+02291+02231101511ADDAA199000091GF104991041011008001001001KA1240M+02841MA1999999101421MD1999999+0001REMSYN076AAXX  21004 82900 32595 40000 10229 20223 30142 40151 84100 333 10284 58000;EQDQ01  00002PRCP99
0182829000999992000062118004-08500-034920FM-12+000799999V0201401N001510075019N0100001N1+02651+02331101461ADDAA106009991AY161061AY261061GF106991061021008001001001MA1999999101371MD1999999+0171MW1031REMSYN082AAXX  21184 82900 21597 61403 10265 20233 30137 40146 70366 86200 333 58017 60101;
0186829000999992000062200004-08500-034920FM-12+000799999V0202301N001510075019N0020001N1+02411+02301101521ADDAA199000091GF106991061071008001001001KA1240M+02741MA1999999101431MD1999999+0011REMSYN076AAXX  22004 82900 32595 62303 10241 20230 30143 40152 86700 333 10274 58001;EQDQ01  00002PRCP99
0201829000999992000062212004-08500-034920FM-12+000799999V0201801N003610075019N0100001N1+02681+02281101611ADDAA124010991AY161061AY221061GF107991051031008001041001KA1240N+02201MA1999999101521MD1999999+0001MW1021REMSYN088AAXX  22124 82900 21597 71807 10268 20228 30152 40161 70262 85340 333 20220 58000 60114;
0167829000999992000062218004-08500-034920FM-12+000799999V0201401N002110075019N0100001N1+02781+02341101331ADDAA199000091GF106991061011008001001001MA1999999101241MD1999999-0131REMSYN070AAXX  22184 82900 32597 61404 10278 20234 30124 40133 86100 333 59013;EQDQ01  00002PRCP99
0186829000999992000062300004-08500-034920FM-12+000799999V0202301N000510075019N0020001N1+02441+02321101501ADDAA199000091GF105991051021008001001001KA1240M+02831MA1999999101411MD1999999-0021REMSYN076AAXX  23004 82900 32595 52301 10244 20232 30141 40150 85200 333 10283 59002;EQDQ01  00002PRCP99
0201829000999992000062312004-08500-034920FM-12+000799999V0201801N003110450019N0100001N1+02671+02221101491ADDAA124009991AY161061AY241061GF106991041021008001041001KA1240N+02321MA1999999101401MD1999999-0121MW1021REMSYN088AAXX  23124 82900 21597 61806 10267 20222 30140 40149 70264 84240 333 20232 59012 60104;
0167829000999992000062318004-08500-034920FM-12+000799999V0201801N005110075019N0100001N1+02751+02231101381ADDAA199000091GF106991061021008001001001MA1999999101291MD1999999+0051REMSYN070AAXX  23184 82900 32597 61810 10275 20223 30129 40138 86200 333 58005;EQDQ01  00002PRCP99
0186829000999992000062400004-08500-034920FM-12+000799999V0201401N004610075019N0020001N1+02591+02191101561ADDAA199000091GF106991061021008001001001KA1240M+02851MA1999999101471MD1999999+0061REMSYN076AAXX  24004 82900 32595 61409 10259 20219 30147 40156 86200 333 10285 58006;EQDQ01  00002PRCP99
0186829000999992000062412004-08500-034920FM-12+000799999V0201801N005710075019N0100001N1+02761+02141101591ADDAA199000091GF106991051021008001031001KA1240N+02541MA1999999101501MD1999999+0101REMSYN076AAXX  24124 82900 32597 61811 10276 20214 30150 40159 85230 333 20254 58010;EQDQ01  00002PRCP99
0167829000999992000062418004-08500-034920FM-12+000799999V0201801N005110075019N0100001N1+02721+02151101351ADDAA199000091GF105991051021008001001001MA1999999101261MD1999999-0031REMSYN070AAXX  24184 82900 32597 51810 10272 20215 30126 40135 85200 333 59003;EQDQ01  00002PRCP99
0186829000999992000062500004-08500-034920FM-12+000799999V0201801N001012200019N0020001N1+02541+02091101501ADDAA199000091GF104991041011008001001001KA1240M+02851MA1999999101411MD1999999-0061REMSYN076AAXX  25004 82900 32595 41802 10254 20209 30141 40150 84100 333 10285 59006;EQDQ01  00002PRCP99
0201829000999992000062512004-08500-034920FM-12+000799999V0202301N001010120019N0100001N1+02461+02361101431ADDAA124007191AY161061AY221061GF108991081081008001999999KA1240N+02251MA1999999101341MD1999999-0161MW1601REMSYN088AAXX  25124 82900 21597 82302 10246 20236 30134 40143 76062 888// 333 20225 59016 60074;
0182829000999992000062518004-08500-034920FM-12+000799999V0202701N000510120019N0020001N1+02311+02241101281ADDAA106039191AY161061AY261061GF108991081081008001999999MA1999999101191MD1999999-0071MW1601REMSYN082AAXX  25184 82900 21595 82701 10231 20224 30119 40128 76066 888// 333 59007 60391;
0201829000999992000062600004-08500-034920FM-12+000799999V0202301N000510075019N0020001N1+02231+02191101371ADDAA106024991AY161061AY261061GF107991071021008001001001KA1240M+02591MA1999999101281MD1999999-0131MW1611REMSYN088AAXX  26004 82900 21595 72301 10223 20219 30128 40137 76166 87200 333 10259 59013 60251;
0201829000999992000062612004-08500-034920FM-12+000799999V0201401N001510075019N0100001N1+02491+02271101471ADDAA124104991AY161061AY251061GF107991071021008001001001KA1240N+02261MA1999999101381MD1999999+0041MW1031REMSYN088AAXX  26124 82900 21597 71403 10249 20227 30138 40147 70365 87200 333 20226 58004 61054;
0186829000999992000062700004-08500-034920FM-12+000799999V0209999C000010075019N0020001N1+02301+02231101411ADDAA199000091GF107991071021008001001001KA1240M+02841MA1999999101321MD1999999+0041REMSYN076AAXX  27004 82900 32595 70000 10230 20223 30132 40141 87200 333 10284 58004;EQDQ01  00002PRCP99
0201829000999992000062712004-08500-034920FM-12+000799999V0201401N003610075019N0100001N1+02661+02271101511ADDAA124003091AY151061AY221061GF107991061071008001031001KA1240N+02201MA1999999101421MD1999999+0041MW1211REMSYN088AAXX  27124 82900 21597 71407 10266 20227 30142 40151 72152 86730 333 20220 58004 60034;
0182829000999992000062718004-08500-034920FM-12+000799999V0201401N003110075019N0100001N1+02711+02191101311ADDAA106002091AY161061AY221061GF107991071031008001001001MA1999999101221MD1999999+0021MW1011REMSYN082AAXX  27184 82900 21597 71406 10271 20219 30122 40131 70162 87300 333 58002 60021;
0167829000999992000062800004-08500-034920FM-12+000799999V0201801N001510075019N0020001N1+02591+02231101521ADDAA199000021GF106991061021008001001001KA1240M+02811MA1999999101431MD1999999+0111REMSYN076AAXX  28004 82900 32595 61803 10259 20223 30143 40152 86200 333 10281 58011;
0201829000999992000062812004-08500-034920FM-12+000799999V0201801N004110075019N0100001N1+02701+02031101611ADDAA124006191AY161061AY221061GF107991051031008001041001KA1240N+02301MA1999999101521MD1999999+0101MW1031REMSYN088AAXX  28124 82900 21597 71808 10270 20203 30152 40161 70362 85340 333 20230 58010 60064;
0167829000999992000062818004-08500-034920FM-12+000799999V0201801N005110075019N0100001N1+02701+02151101361ADDAA199000091GF106991061031008001001001MA1999999101271MD1999999+0051REMSYN070AAXX  28184 82900 32597 61810 10270 20215 30127 40136 86300 333 58005;EQDQ01  00002PRCP99
0186829000999992000062900004-08500-034920FM-12+000799999V0201801N003112200019N0020001N1+02511+02071101501ADDAA199000091GF102991021011008001001001KA1240M+02821MA1999999101411MD1999999-0021REMSYN076AAXX  29004 82900 32595 21806 10251 20207 30141 40150 82100 333 10282 59002;EQDQ01  00002PRCP99
0186829000999992000062912004-08500-034920FM-12+000799999V0201401N003112200019N0100001N1+02671+02041101391ADDAA199000091GF104991041021008001001001KA1240N+02101MA1999999101301MD1999999-0221REMSYN076AAXX  29124 82900 32597 41406 10267 20204 30130 40139 84200 333 20210 59022;EQDQ01  00002PRCP99
0167829000999992000062918004-08500-034920FM-12+000799999V0201401N002110075019N0100001N1+02771+02181101261ADDAA199000091GF105991051021008001001001MA1999999101171MD1999999-0101REMSYN070AAXX  29184 82900 32597 51404 10277 20218 30117 40126 85200 333 59010;EQDQ01  00002PRCP99
0201829000999992000063000004-08500-034920FM-12+000799999V0201801N000512200019N0020001N1+02461+02251101501ADDAA106000191AY151061AY221061GF103991031021008001001001KA1240M+02851MA1999999101411MD1999999+0001MW1011REMSYN088AAXX  30004 82900 21595 31801 10246 20225 30141 40150 70152 83200 333 10285 58000 69911;
0201829000999992000063012004-08500-034920FM-12+000799999V0201401N003110075019N0100001N1+02541+02441101491ADDAA124005191AY161061AY221061GF107991071071008001001001KA1240N+02301MA1999999101401MD1999999+0101MW1031REMSYN088AAXX  30124 82900 21597 71406 10254 20244 30140 40149 70362 87700 333 20230 58010 60054;
0182829000999992000063018004-08500-034920FM-12+000799999V0201401N001010075019N0100001N1+02411+02331101361ADDAA106047091AY161061AY261061GF107991071071008001001001MA1999999101271MD1999999+0101MW1211REMSYN082AAXX  30184 82900 21597 71402 10241 20233 30127 40136 72166 87700 333 58010 60471;
0201829000999992000070100004-08500-034920FM-12+000799999V0202301N000510075019N0020001N1+02411+02331101521ADDAA106016091AY161061AY261061GF107991071071008001001001KA1240M+02621MA1999999101431MD1999999+0021MW1021REMSYN088AAXX  01004 82900 21595 72301 10241 20233 30143 40152 70266 87700 333 10262 58002 60161;
0201829000999992000070112004-08500-034920FM-12+000799999V0202301N002110075019N0100001N1+02541+02251101511ADDAA124069191AY161061AY261061GF107991071021008001001001KA1240N+02201MA1999999101421MD1999999+0021MW1031REMSYN088AAXX  01124 82900 21597 72304 10254 20225 30142 40151 70366 87200 333 20220 58002 60694;
0201829000999992000070200004-08500-034920FM-12+000799999V0203201N000510075019N0020001N1+02301+02231101451ADDAA106004191AY161061AY221061GF106991061071008001001001KA1240M+02791MA1999999101361MD1999999-0071MW1011REMSYN088AAXX  02004 82900 21595 63201 10230 20223 30136 40145 70162 86700 333 10279 59007 60041;
0167829000999992000070218004-08500-034920FM-12+000799999V0201801N005110075019N0100001N1+02691+02111101221ADDAA199000091GF105991051021008001001001MA1999999101131MD1999999+0001REMSYN070AAXX  02184 82900 32597 51810 10269 20211 30113 40122 85200 333 58000;EQDQ01  00002PRCP99
0186829000999992000070300004-08500-034920FM-12+000799999V0202301N002110075019N0020001N1+02401+02111101451ADDAA199000091GF106991061071008001001001KA1240M+02801MA1999999101361MD1999999+0001REMSYN076AAXX  03004 82900 32595 62304 10240 20211 30136 40145 86700 333 10280 58000;EQDQ01  00002PRCP99
0201829000999992000070312004-08500-034920FM-12+000799999V0202301N002110075019N0040001N1+02271+02191101531ADDAA124053191AY161061AY261061GF108991081071008001001001KA1240N+02171MA1999999101441MD1999999+0071MW1511REMSYN088AAXX  03124 82900 21596 82304 10227 20219 30144 40153 75166 88700 333 20217 58007 60534;
0182829000999992000070318004-08500-034920FM-12+000799999V0202301N001510075019N0040001N1+02351+02261101421ADDAA106016091AY161061AY261061GF108991081071008001001001MA1999999101331MD1999999+0201MW1211REMSYN082AAXX  03184 82900 21596 82303 10235 20226 30133 40142 72166 88700 333 58020 60161;
0201829000999992000070400004-08500-034920FM-12+000799999V0202301N001010075019N0020001N1+02291+02201101551ADDAA106005191AY161061AY221061GF107991071061008001001001KA1240M+02441MA1999999101461MD1999999+0101MW1031REMSYN088AAXX  04004 82900 21595 72302 10229 20220 30146 40155 70362 87600 333 10244 58010 60051;
0220829000999992000070412004-08500-034920FM-12+000799999V0201801N004119999999N0100001N1+02441+02231101531ADDAA124024991AY161061AY261061GF107991999061008001999999KA1240N+02201MA1999999101441MD1999999+0001MW1601REMSYN088AAXX  04124 82900 21597 71808 10244 20223 30144 40153 76066 886// 333 20220 58000 60254;EQDQ01+000082SCOTLC
0176829000999992000070418004-08500-034920FM-12+000799999V0201801N004610075019N0100001N1+02701+99999101291ADDAA106005191AY161061AY261061GF106991051021008001041001MA1999999101201MD1999999-0131MW1031REMSYN076AAXX  04184 82900 21597 61809 10270 30120 40129 70366 85240 333 59013 60051;
0167829000999992000070500004-08500-034920FM-12+000799999V0201801N001512200019N0020001N1+02261+02191101391ADDAA199000021GF104991041021008001001001KA1240M+02731MA1999999101301MD1999999-0161REMSYN076AAXX  05004 82900 32595 41803 10226 20219 30130 40139 84200 333 10273 59016;
0201829000999992000070512004-08500-034920FM-12+000799999V0201401N003610075019N0100001N1+02571+02101101321ADDAA124016091AY161061AY241061GF105991051021008001001001KA1240N+02221MA1999999101231MD1999999-0211MW1021REMSYN088AAXX  05124 82900 21597 51407 10257 20210 30123 40132 70264 85200 333 20222 59021 60164;
0201829000999992000070600004-08500-034920FM-12+000799999V0202301N001010075019N0020001N1+02271+02231101461ADDAA106000191AY151061AY221061GF106991061021008001001001KA1240M+02761MA1999999101371MD1999999+0071MW1011REMSYN088AAXX  06004 82900 21595 62302 10227 20223 30137 40146 70152 86200 333 10276 58007 69911;
0201829000999992000070612004-08500-034920FM-12+000799999V0202301N003110075019N0100001N1+02451+02211101471ADDAA124003091AY161061AY221061GF106991061031008001001001KA1240N+02101MA1999999101381MD1999999+0151MW1021REMSYN088AAXX  06124 82900 21597 62306 10245 20221 30138 40147 70262 86300 333 20210 58015 60034;
0182829000999992000070618004-08500-034920FM-12+000799999V0201801N002610450019N0100001N1+02461+02171101341ADDAA106002091AY161061AY221061GF105991031021008001031001MA1999999101251MD1999999+0131MW1021REMSYN082AAXX  06184 82900 21597 51805 10246 20217 30125 40134 70262 83230 333 58013 60021;
0201829000999992000070700004-08500-034920FM-12+000799999V0202301N000510075019N0020001N1+02411+02111101491ADDAA106000191AY151061AY221061GF107991071071008001001001KA1240M+02671MA1999999101401MD1999999+0031MW1031REMSYN088AAXX  07004 82900 21595 72301 10241 20211 30140 40149 70352 87700 333 10267 58003 69921;
0201829000999992000070712004-08500-034920FM-12+000799999V0201801N002610075019N0100001N1+02341+02151101631ADDAA124015091AY161061AY221061GF107991071071008001001001KA1240N+02101MA1999999101541MD1999999+0061MW1501REMSYN088AAXX  07124 82900 21597 71805 10234 20215 30154 40163 75062 87700 333 20210 58006 60154;
0182829000999992000070718004-08500-034920FM-12+000799999V0201801N002610075019N0100001N1+02521+02071101411ADDAA106000591AY151061AY221061GF107991071071008001001001MA1999999101321MD1999999+0071MW1031REMSYN082AAXX  07184 82900 21597 71805 10252 20207 30132 40141 70352 87700 333 58007 69951;
0201829000999992000070800004-08500-034920FM-12+000799999V0202301N001010075019N0020001N1+02311+02181101531ADDAA106000191AY151061AY221061GF106991061021008001001001KA1240M+02561MA1999999101441MD1999999+0041MW1031REMSYN088AAXX  08004 82900 21595 62302 10231 20218 30144 40153 70352 86200 333 10256 58004 69921;
0201829000999992000070812004-08500-034920FM-12+000799999V0201801N005110075019N0100001N1+02561+02331101581ADDAA124007991AY161061AY261061GF107991061051008001031001KA1240N+02131MA1999999101491MD1999999-0051MW1031REMSYN088AAXX  08124 82900 21597 71810 10256 20233 30149 40158 70366 86530 333 20213 59005 60084;
0167829000999992000070818004-08500-034920FM-12+000799999V0201801N005110075019N0100001N1+02681+02061101381ADDAA199000091GF106991061051008001001001MA1999999101291MD1999999-0031REMSYN070AAXX  08184 82900 32597 61810 10268 20206 30129 40138 86500 333 59003;EQDQ01  00002PRCP99
0186829000999992000070900004-08500-034920FM-12+000799999V0201801N001012200019N0020001N1+02431+02031101491ADDAA199000091GF102991021011008001001001KA1240M+02741MA1999999101401MD1999999-0041REMSYN076AAXX  09004 82900 32595 21802 10243 20203 30140 40149 82100 333 10274 59004;EQDQ01  00002PRCP99
0201829000999992000070912004-08500-034920FM-12+000799999V0201401N003110075019N0100001N1+02631+02031101481ADDAA124000591AY111061AY241061GF105991051021008001001001KA1240N+02051MA1999999101351MD1999999-0101MW1021REMSYN088AAXX  09124 82900 21597 51406 10263 20203 30135 40148 70214 85200 333 20205 59010 69954;
0167829000999992000070918004-08500-034920FM-12+000799999V0201801N005110075019N0100001N1+02691+02161101351ADDAA199000091GF106991061021008001001001MA1999999101261MD1999999-0031REMSYN070AAXX  09184 82900 32597 61810 10269 20216 30126 40135 86200 333 59003;EQDQ01  00002PRCP99
0186829000999992000071000004-08500-034920FM-12+000799999V0202301N001510075019N0020001N1+02431+02191101541ADDAA199000091GF106991061021008001001001KA1240M+02821MA1999999101451MD1999999+0051REMSYN076AAXX  10004 82900 32595 62303 10243 20219 30145 40154 86200 333 10282 58005;EQDQ01  00002PRCP99
0201829000999992000071012004-08500-034920FM-12+000799999V0202301N002110075019N0100001N1+02471+02281101561ADDAA124007991AY161061AY261061GF108991081051008001999999KA1240N+02101MA1999999101471MD1999999+0081MW1511REMSYN088AAXX  10124 82900 21597 82304 10247 20228 30147 40156 75166 885// 333 20210 58008 60084;
0182829000999992000071018004-08500-034920FM-12+000799999V0201801N001510075019N0100001N1+02551+02351101381ADDAA106013091AY161061AY261061GF107991071031008001001001MA1999999101291MD1999999+0021MW1031REMSYN082AAXX  10184 82900 21597 71803 10255 20235 30129 40138 70366 87300 333 58002 60131;
0167829000999992000071100004-08500-034920FM-12+000799999V0209999C000010075019N0020001N1+02411+02311101511ADDAA199000021GF107991071071008001001001KA1240M+03591MA1999999101421MD1999999-0031REMSYN076AAXX  11004 82900 32595 70000 10241 20231 30142 40151 87700 333 10359 59003;
0201829000999992000071112004-08500-034920FM-12+000799999V0203201N000510075019N0100001N1+02501+02401101541ADDAA124054191AY161061AY261061GF108991081071008001001001KA1240N+02261MA1999999101451MD1999999-0021MW1211REMSYN088AAXX  11124 82900 21597 83201 10250 20240 30145 40154 72166 88700 333 20226 59002 60544;
0182829000999992000071118004-08500-034920FM-12+000799999V0201801N003110075019N0100001N1+02601+02351101281ADDAA106034091AY161061AY261061GF107991061061008001021001MA1999999101191MD1999999-0101MW1611REMSYN082AAXX  11184 82900 21597 71806 10260 20235 30119 40128 76166 86620 333 59010 60341;
0201829000999992000071200004-08500-034920FM-12+000799999V0201801N003110075019N0020001N1+02471+02301101531ADDAA106008991AY161061AY261061GF107991071021008001001001KA1240M+02681MA1999999101441MD1999999+0021MW1611REMSYN088AAXX  12004 82900 21595 71806 10247 20230 30144 40153 76166 87200 333 10268 58002 60091;
0201829000999992000071212004-08500-034920FM-12+000799999V0201801N003112200019N0100001N1+02681+02261101661ADDAA124045091AY161061AY221061GF104991031021008001031001KA1240N+02301MA1999999101541MD1999999+0121MW1021REMSYN088AAXX  12124 82900 21597 41806 10268 20226 30154 40166 70262 83230 333 20230 58012 60454;
0182829000999992000071218004-08500-034920FM-12+000799999V0201801N003112200019N0100001N1+02681+02241101421ADDAA106005191AY151061AY221061GF104991041031008001031001MA1999999101331MD1999999+0141MW1021REMSYN082AAXX  12184 82900 21597 41806 10268 20224 30133 40142 70252 84330 333 58014 60051;
0201829000999992000071300004-08500-034920FM-12+000799999V0202301N001010075019N0020001N1+02301+02201101631ADDAA106000891AY151061AY221061GF107991071071008001001001KA1240M+02751MA1999999101541MD1999999+0101MW1011REMSYN088AAXX  13004 82900 21595 72302 10230 20220 30154 40163 70152 87700 333 10275 58010 69971;
0201829000999992000071312004-08500-034920FM-12+000799999V0201801N003610075019N0100001N1+02651+02141101781ADDAA124005191AY161061AY221061GF106991061021008001001001KA1240N+02161MA1999999101691MD1999999+0121MW1031REMSYN088AAXX  13124 82900 21597 61807 10265 20214 30169 40178 70362 86200 333 20216 58012 60054;
0167829000999992000071318004-08500-034920FM-12+000799999V0201801N005112200019N0100001N1+02631+02181101431ADDAA199000091GF104991031021008001041001MA1999999101341MD1999999+0011REMSYN070AAXX  13184 82900 32597 41810 10263 20218 30134 40143 83240 333 58001;EQDQ01  00002PRCP99
0182829000999992000071418004-08500-034920FM-12+000799999V0201801N001510075019N0100001N1+02341+02311101441ADDAA106023191AY161061AY251061GF108991081021008001001001MA1999999101351MD1999999+0011MW1021REMSYN082AAXX  14184 82900 21597 81803 10234 20231 30135 40144 70265 88200 333 58001 60231;
0201829000999992000071500004-08500-034920FM-12+000799999V0202301N000510075019N0020001N1+02301+02221101591ADDAA106013091AY161061AY261061GF107991071021008001001001KA1240M+02581MA1999999101501MD1999999-0061MW1011REMSYN088AAXX  15004 82900 21595 72301 10230 20222 30150 40159 70166 87200 333 10258 59006 60131;
0201829000999992000071512004-08500-034920FM-12+000799999V0202301N000510075019N0100001N1+02391+02301101581ADDAA124058991AY161061AY261061GF108991081051008001999999KA1240N+02201MA1999999101491MD1999999-0071MW1211REMSYN088AAXX  15124 82900 21597 82301 10239 20230 30149 40158 72166 885// 333 20220 59007 60594;
0182829000999992000071518004-08500-034920FM-12+000799999V0201401N002110075019N0100001N1+02611+02171101281ADDAA106003091AY161061AY221061GF107991071031008001001001MA1999999101191MD1999999-0161MW1011REMSYN082AAXX  15184 82900 21597 71404 10261 20217 30119 40128 70162 87300 333 59016 60031;
0201829000999992000071600004-08040-034920FM-12+000799999V0209999C000010075019N0020001N1+02351+02191101491ADDAA106000391AY151061AY221061GF106991051041008001021001KA1240M+02621MA1999999101401MD1999999-0101MW1011REMSYN088AAXX  16004 82900 21595 60000 10235 20219 30140 40149 70152 85420 333 10262 59010 69931;
0201829000999992000071600004-08500-034920FM-12+000799999V0209999C000010075019N0020001N1+02351+02191101491ADDAA106000391AY151061AY221061GF106991051041008001021001KA1240M+02621MA1999999101401MD1999999-0101MW1011REMSYN088AAXX  16004 82900 21595 60000 10235 20219 30140 40149 70152 85420 333 10262 59010 69931;
0201829000999992000071612004-08500-034920FM-12+000799999V0202301N002110075019N0100001N1+02381+02191101521ADDAA124003091AY161061AY261061GF107991071051008001001001KA1240N+02071MA1999999101431MD1999999-0061MW1031REMSYN088AAXX  16124 82900 21597 72304 10238 20219 30143 40152 70366 87500 333 20207 59006 60034;
0167829000999992000071618004-08500-034920FM-12+000799999V0201801N004610075019N0100001N1+02671+02181101161ADDAA199000091GF106991061021008001001001MA1999999101071MD1999999-0121REMSYN070AAXX  16184 82900 32597 61809 10267 20218 30107 40116 86200 333 59012;EQDQ01  00002PRCP99
0186829000999992000071700004-08500-034920FM-12+000799999V0209999C000012200019N0020001N1+02311+02251101421ADDAA199000091GF102991021011008001001001KA1240M+02751MA1999999101331MD1999999-0071REMSYN076AAXX  17004 82900 32595 20000 10231 20225 30133 40142 82100 333 10275 59007;EQDQ01  00002PRCP99
0186829000999992000071712004-08500-034920FM-12+000799999V0209999C000010075019N0100001N1+02531+02211101441ADDAA199000091GF105991051021008001001001KA1240N+02081MA1999999101351MD1999999-0081REMSYN076AAXX  17124 82900 32597 50000 10253 20221 30135 40144 85200 333 20208 59008;EQDQ01  00002PRCP99
0167829000999992000071718004-08500-034920FM-12+000799999V0200901N003110075019N0100001N1+02661+02181101851ADDAA199000091GF105991051021008001001001MA1999999101161MD1999999+0091REMSYN070AAXX  17184 82900 32597 50906 10266 20218 30116 40185 85200 333 58009;EQDQ01  00002PRCP99
0186829000999992000071800004-08040-034920FM-12+000799999V0209999C000012200019N0020001N1+02351+02261101381ADDAA199000091GF102991021011008001001001KA1240M+02861MA1999999101291MD1999999+0221REMSYN076AAXX  18004 82900 32595 20000 10235 20226 30129 40138 82100 333 10286 58022;EQDQ01  00002PRCP99
0186829000999992000071812004-08040-034920FM-12+000799999V0201401N002110450019N0100001N1+02641+02271101561ADDAA199000091GF106991041021008001031001KA1240N+02041MA1999999101471MD1999999+0151REMSYN076AAXX  18124 82900 32597 61404 10264 20227 30147 40156 84230 333 20204 58015;EQDQ01  00002PRCP99
0167829000999992000071818004-08040-034920FM-12+000799999V0201801N003110075019N0100001N1+02771+02361101361ADDAA199000091GF105991051021008001001001MA1999999101271MD1999999+0111REMSYN070AAXX  18184 82900 32597 51806 10277 20236 30127 40136 85200 333 58011;EQDQ01  00002PRCP99
0186829000999992000071900004-08040-034920FM-12+000799999V0209999C000012200019N0020001N1+02441+02251101551ADDAA199000091GF104991041021008001001001KA1240M+02871MA1999999101461MD1999999+0171REMSYN076AAXX  19004 82900 32595 40000 10244 20225 30146 40155 84200 333 10287 58017;EQDQ01  00002PRCP99
0201829000999992000071912004-08040-034920FM-12+000799999V0201801N005710075019N0100001N1+02751+02281101511ADDAA124000891AY151061AY221061GF106991051041008001021001KA1240N+02221MA1999999101421MD1999999-0051MW1011REMSYN088AAXX  19124 82900 21597 61811 10275 20228 30142 40151 70152 85420 333 20222 59005 69974;
0201829000999992000072000004-08040-034920FM-12+000799999V0209999C000010075019N0020001N1+02231+02171101621ADDAA106034091AY161061AY261061GF108991081051008001999999KA1240M+02791MA1999999101531MD1999999+0071MW1601REMSYN088AAXX  20004 82900 21595 80000 10223 20217 30153 40162 76066 885// 333 10279 58007 60341;
0201829000999992000072012004-08040-034920FM-12+000799999V0201801N002612200019N0100001N1+02641+02231101561ADDAA124056991AY161061AY261061GF104991041021008001001001KA1240N+02061MA1999999101471MD1999999+0051MW1031REMSYN088AAXX  20124 82900 21597 41805 10264 20223 30147 40156 70366 84200 333 20206 58005 60574;
0167829000999992000072018004-08040-034920FM-12+000799999V0201401N002110450019N0100001N1+02521+02171101351ADDAA199000091GF106991041021008001031001MA1999999101261MD1999999-0061REMSYN070AAXX  20184 82900 32597 61404 10252 20217 30126 40135 84230 333 59006;EQDQ01  00002PRCP99
0201829000999992000072100004-08040-034920FM-12+000799999V0209999C000010075019N0020001N1+02381+02311101381ADDAA106001091AY161061AY221061GF106991061071008001001001KA1240M+02821MA1999999101291MD1999999-0241MW1031REMSYN088AAXX  21004 82900 21595 60000 10238 20231 30129 40138 70362 86700 333 10282 59024 60011;
0201829000999992000072112004-08040-034920FM-12+000799999V0201401N003110075019N0100001N1+02701+02281101421ADDAA124005191AY161061AY231061GF106991061021008001001001KA1240N+02201MA1999999101331MD1999999-0141MW1031REMSYN088AAXX  21124 82900 21597 61406 10270 20228 30133 40142 70363 86200 333 20220 59014 60054;
0167829000999992000072118004-08040-034920FM-12+000799999V0201401N003110075019N0100001N1+02661+02091101231ADDAA199000091GF106991061021008001001001MA1999999101141MD1999999-0121REMSYN070AAXX  21184 82900 32597 61406 10266 20209 30114 40123 86200 333 59012;EQDQ01  00002PRCP99
0186829000999992000072200004-08040-034920FM-12+000799999V0201801N001510075019N0020001N1+02511+02231101451ADDAA199000091GF106991061021008001001001KA1240M+02861MA1999999101361MD1999999+0071REMSYN076AAXX  22004 82900 32595 61803 10251 20223 30136 40145 86200 333 10286 58007;EQDQ01  00002PRCP99
0182829000999992000072218004-08040-034920FM-12+000799999V0201801N002110075019N0100001N1+02591+02271101361ADDAA106000191AY161061AY221061GF105991051021008001001001MA1999999101271MD1999999+0131MW1021REMSYN082AAXX  22184 82900 21597 51804 10259 20227 30127 40136 70262 85200 333 58013 69921;
0220829000999992000072300004-08040-034920FM-12+000799999V0209999C000019999999N0020001N1+02491+02321101491ADDAA106002091AY161061AY221061GF106991999021008001001001KA1240M+02801MA1999999101401MD1999999+0041MW1011REMSYN088AAXX  23004 82900 21595 60000 10249 20232 30140 40149 70162 83200 333 10280 58004 60021;EQDQ01+000032SCOTLC
0201829000999992000072312004-08040-034920FM-12+000799999V0201801N002610075019N0100001N1+02521+02271101511ADDAA124005191AY161061AY221061GF106991051041008001021001KA1240N+02161MA1999999101421MD1999999-0041MW1011REMSYN088AAXX  23124 82900 21597 61805 10252 20227 30142 40151 70162 85420 333 20216 59004 60054;
0167829000999992000072318004-08040-034920FM-12+000799999V0201801N003110075019N0100001N1+02491+02111101321ADDAA199000091GF107991071061008001001001MA1999999101341MD1999999-0041REMSYN070AAXX  23184 82900 32597 71806 10249 20211 30134 40132 87600 333 59004;EQDQ01  00002PRCP99
0201829000999992000072400004-08040-034920FM-12+000799999V0201801N001010075019N0020001N1+02271+02141101511ADDAA106000591AY151061AY221061GF107991071071008001001001KA1240M+02771MA1999999101421MD1999999+0021MW1501REMSYN088AAXX  24004 82900 21595 71802 10227 20214 30142 40151 75052 87700 333 10277 58002 69941;
0173829000999992000072412004-08040-034920FM-12+000799999V0202301N004112200019N0100001N1+02561+02151101501ADDAA124000591GF103991031021008001001001KA1240N+02141MA1999999101411MD1999999-0011REMSYN082AAXX  24124 82900 22597 32308 10256 20215 30141 40150 83200 333 20214 59001 69944;
0167829000999992000072418004-08040-034920FM-12+000799999V0201801N004610075019N0100001N1+02721+02171101321ADDAA199000091GF107991061031008001041001MA1999999101231MD1999999+0001REMSYN070AAXX  24184 82900 32597 71809 10272 20217 30123 40132 86340 333 58000;EQDQ01  00002PRCP99
0186829000999992000072500004-08040-034920FM-12+000799999V0209999C000010075019N0020001N1+02461+02231101431ADDAA199000091GF107991071071008001001001KA1240M+02801MA1999999101341MD1999999-0081REMSYN076AAXX  25004 82900 32595 70000 10246 20223 30134 40143 87700 333 10280 59008;EQDQ01  00002PRCP99
0201829000999992000072512004-08040-034920FM-12+000799999V0202301N001510075019N0100001N1+02551+02271101521ADDAA124011991AY161061AY241061GF106991061021008001001001KA1240N+02281MA1999999101431MD1999999+0021MW1031REMSYN088AAXX  25124 82900 21597 62303 10255 20227 30143 40152 70364 86200 333 20228 58002 60124;
0167829000999992000072518004-08040-034920FM-12+000799999V0200901N003110075019N0100001N1+02631+02251101311ADDAA199000091GF106991061021008001001001MA1999999101221MD1999999-0011REMSYN070AAXX  25184 82900 32597 60906 10263 20225 30122 40131 86200 333 59001;EQDQ01  00002PRCP99
0202829000999992000072600004-08040-034920FM-12+000799999V0202301N001512200019N0020001N1+02361+02191101561ADDAA199000091GF102991999021008001001001KA1240M+02881MA1999999101471MD1999999+0031REMSYN076AAXX  26004 82900 32595 22303 10236 20219 30147 40156 83200 333 10288 58003;EQDQ01+000032SCOTLCQ02  00002PRCP99
0182829000999992000072618004-08040-034920FM-12+000799999V0209999C000010075019N0100001N1+02471+02231101341ADDAA106005191AY161061AY261061GF108991081051008001999999MA1999999101251MD1999999+0031MW1021REMSYN082AAXX  26184 82900 21597 80000 10247 20223 30125 40134 70266 885// 333 58003 60051;
0201829000999992000072700004-08040-034920FM-12+000799999V0209999C000010075019N0020001N1+02291+02231101471ADDAA106000591AY151061AY221061GF106991061071008001001001KA1240M+02501MA1999999101381MD1999999-0091MW1031REMSYN088AAXX  27004 82900 21595 60000 10229 20223 30138 40147 70352 86700 333 10250 59009 69961;
0201829000999992000072712004-08040-034920FM-12+000799999V0209999C000010075019N0100001N1+02431+02221101561ADDAA124027991AY161061AY261061GF106991051041008001021001KA1240N+02221MA1999999101471MD1999999-0011MW1011REMSYN088AAXX  27124 82900 21597 60000 10243 20222 30147 40156 70166 85420 333 20222 59001 60284;
0182829000999992000072718004-08040-034920FM-12+000799999V0201801N005710450019N0100001N1+02711+02051101261ADDAA106000591AY151061AY221061GF105991041021008001011001MA1999999101171MD1999999-0081MW1011REMSYN082AAXX  27184 82900 21597 51811 10271 20205 30117 40126 70152 84210 333 59008 69961;
0186829000999992000072800004-08040-034920FM-12+000799999V0202301N001510075019N0020001N1+02311+02051101541ADDAA199000091GF107991071071008001001001KA1240M+02741MA1999999101451MD1999999+0071REMSYN076AAXX  28004 82900 32595 72303 10231 20205 30145 40154 87700 333 10274 58007;EQDQ01  00002PRCP99
0201829000999992000072812004-08040-034920FM-12+000799999V0201801N002110450019N0100001N1+02481+02321101671ADDAA124010991AY161061AY221061GF105991031021008001031001KA1240N+02201MA1999999101581MD1999999+0111MW1021REMSYN088AAXX  28124 82900 21597 51804 10248 20232 30158 40167 70262 83230 333 20220 58011 60114;
0182829000999992000072818004-08040-034920FM-12+000799999V0201801N005110450019N0100001N1+02621+01981101431ADDAA106000591AY161061AY221061GF105991031021008001021001MA1999999101341MD1999999+0171MW1021REMSYN082AAXX  28184 82900 21597 51810 10262 20198 30134 40143 70262 83220 333 58017 69961;
0186829000999992000072900004-08040-034920FM-12+000799999V0201801N003110075019N0020001N1+02481+02011101551ADDAA199000091GF106991061021008001001001KA1240M+02771MA1999999101461MD1999999+0011REMSYN076AAXX  29004 82900 32595 61806 10248 20201 30146 40155 86200 333 10277 58001;EQDQ01  00002PRCP99
0173829000999992000072912004-08040-034920FM-12+000799999V0209999C000010075019N0100001N1+02391+02091101531ADDAA124000591GF106991061021008001001001KA1240N+02061MA1999999101431MD1999999-0151REMSYN082AAXX  29124 82900 22597 60000 10239 20209 30143 40153 86200 333 20206 59015 69964;
0183829000999992000072918004-08040-034920FM-12+000799999V0201801N003119999999N0100001N1+02641+01931101311ADDAA199000091GF107991999011008001001001MA1999999101221MD1999999-0121REMSYN070AAXX  29184 82900 32597 71806 10264 20193 30122 40131 82100 333 59012;EQDQ01+000022SCOTLCQ02  00002PRCP99
0180829000999992000073000004-08040-034920FM-12+000799999V0209999C000010075019N0020001N1+02161+99999101611ADDAA106000591AY121061AY251061GF107991071071008001001001KA1240M+02691MD1999999+0061MW1501REMSYN082AAXX  30004 82900 21595 70000 10216 20220 40161 75025 87700 333 10269 58006 69961;
0201829000999992000073012004-08040-034920FM-12+000799999V0202301N002110075019N0100001N1+02171+02151101611ADDAA124026991AY161061AY261061GF108991081051008001999999KA1240N+02001MA1999999101521MD1999999+0091MW1031REMSYN088AAXX  30124 82900 21597 82304 10217 20215 30152 40161 70366 885// 333 20200 58009 60274;
0182829000999992000073018004-08040-034920FM-12+000799999V0201801N002610075019N0100001N1+02371+02261101301ADDAA106008991AY161061AY261061GF108991081071008001999999MA1999999101211MD1999999-0011MW1031REMSYN082AAXX  30184 82900 21597 81805 10237 20226 30121 40130 70366 887// 333 59001 60091;
0201829000999992000073100004-08040-034920FM-12+000799999V0201801N001510120019N0020001N1+02221+02151101481ADDAA106005191AY161061AY261061GF108991081081008001999999KA1240M+02401MA1999999101391MD1999999-0131MW1611REMSYN088AAXX  31004 82900 21595 81803 10222 20215 30139 40148 76166 888// 333 10240 59013 60051;
0201829000999992000073112004-08040-034920FM-12+000799999V0202301N001010075019N0040001N1+02181+02151101491ADDAA124126091AY161061AY261061GF108991081071008001001001KA1240N+02161MA1999999101401MD1999999-0121MW1651REMSYN088AAXX  31124 82900 21596 82302 10218 20215 30140 40149 76566 88700 333 20216 59012 61264;
0182829000999992000073118004-08040-034920FM-12+000799999V0201801N000510075019N0100001N1+02251+02171101351ADDAA106071991AY161061AY261061GF108991081071008001001001MA1999999101261MD1999999+0051MW1511REMSYN082AAXX  31184 82900 21597 81801 10225 20217 30126 40135 75166 88700 333 58005 60721;
0201829000999992000080100004-08040-034920FM-12+000799999V0209999C000010075019N0020001N1+02221+02191101631ADDAA106020191AY161061AY261061GF108991081071008001999999KA1240M+02271MA1999999101541MD1999999+0051MW1651REMSYN088AAXX  01004 82900 21595 80000 10222 20219 30154 40163 76566 887// 333 10227 58005 60201;
0201829000999992000080112004-08040-034920FM-12+000799999V0209999C000010075019N0040001N1+02281+02201101581ADDAA124185991AY161061AY261061GF108991081091008001999999KA1240N+02161MA1999999101491MD1999999+0091MW1611REMSYN088AAXX  01124 82900 21596 80000 10228 20220 30149 40158 76166 889// 333 20216 58009 61864;
0182829000999992000080118004-08040-034920FM-12+000799999V0209999C000010075019N0040001N1+02281+02231101331ADDAA106027991AY161061AY261061GF108991081091008001999999MA1999999101241MD1999999-0021MW1031REMSYN082AAXX  01184 82900 21596 80000 10228 20223 30124 40133 70366 889// 333 59002 60281;
0220829000999992000080200004-08040-034920FM-12+000799999V0201801N005110450019N0020001N1+02521+02191101481ADDAA106025991AY161061AY261061GF106991041071008001051001KA1240M+99999MA1999999101391MD1999999-0151MW1031REMSYN088AAXX  02004 82900 21595 61810 10252 20219 30139 40148 70366 84750 333 10237 59015 60261;EQDQ01 +02372ATMX  
0201829000999992000080212004-08040-034920FM-12+000799999V0201401N002110075019N0100001N1+02651+02121101661ADDAA124055991AY161061AY261061GF108991081051008001999999KA1240N+02101MA1999999101571MD1999999+0081MW1611REMSYN088AAXX  02124 82900 21597 81404 10265 20212 30157 40166 76166 885// 333 20210 58008 60564;
0182829000999992000080218004-08040-034920FM-12+000799999V0209999C000010075019N0100001N1+02251+02051101471ADDAA106022191AY161061AY261061GF108991081051008001999999MA1999999101381MD1999999+0141MW1621REMSYN082AAXX  02184 82900 21597 80000 10225 20205 30138 40147 76266 885// 333 58014 60221;
0201829000999992000080300004-08040-034920FM-12+000799999V0209999C000010075019N0020001N1+02231+02151101631ADDAA106001091AY161061AY221061GF107991071051008001001001KA1240M+02671MA1999999101541MD1999999+0151MW1031REMSYN088AAXX  03004 82900 21595 70000 10223 20215 30154 40163 70362 87500 333 10267 58015 60011;
0201829000999992000080312004-08040-034920FM-12+000799999V0209999C000012200019N0100001N1+02491+02151101711ADDAA124020191AY161061AY261061GF104991041021008001001001KA1240N+02121MA1999999101621MD1999999+0051MW1011REMSYN088AAXX  03124 82900 21597 40000 10249 20215 30162 40171 70166 84200 333 20212 58005 60204;
0167829000999992000080318004-08040-034920FM-12+000799999V0201801N004112200019N0100001N1+02721+02121101491ADDAA199000091GF103991021021008001041001MA1999999101401MD1999999+0021REMSYN070AAXX  03184 82900 32597 31808 10272 20212 30140 40149 82240 333 58002;EQDQ01  00002PRCP99
0186829000999992000080400004-08040-034920FM-12+000799999V0209999C000012200019N0020001N1+02341+02221101641ADDAA199000091GF102991021021008001001001KA1240M+02771MA1999999101551MD1999999+0001REMSYN076AAXX  04004 82900 32595 20000 10234 20222 30155 40164 82200 333 10277 58000;EQDQ01  00002PRCP99
0186829000999992000080412004-08040-034920FM-12+000799999V0202301N002112200019N0100001N1+02571+02171101611ADDAA199000091GF104991041021008001001001KA1240N+02071MA1999999101521MD1999999-0041REMSYN076AAXX  04124 82900 32597 42304 10257 20217 30152 40161 84200 333 20207 59004;EQDQ01  00002PRCP99
0202829000999992000080500004-08040-034920FM-12+000799999V0209999C000019999999N0020001N1+02361+02201101561ADDAA199000091GF107991999011008001001001KA1240M+02801MA1999999101471MD1999999-0081REMSYN076AAXX  05004 82900 32595 70000 10236 20220 30147 40156 82100 333 10280 59008;EQDQ01+000022SCOTLCQ02  00002PRCP99
0201829000999992000080512004-08040-034920FM-12+000799999V0202301N002110075019N0100001N1+02551+02271101641ADDAA124004191AY161061AY221061GF108991081031008001999999KA1240N+02201MA1999999101551MD1999999+0031MW1031REMSYN088AAXX  05124 82900 21597 82304 10255 20227 30155 40164 70362 883// 333 20220 58003 60044;
0182829000999992000080518004-08040-034920FM-12+000799999V0201801N003110075019N0100001N1+02491+02231101421ADDAA106007191AY161061AY221061GF107991071071008001001001MA1999999101331MD1999999+0061MW1011REMSYN082AAXX  05184 82900 21597 71806 10249 20223 30133 40142 70162 87700 333 58006 60071;
0220829000999992000080612004-08040-034920FM-12+000799999V0209999C000010075019N0100001N1+02431+02251101661ADDAA124009991AY161061AY221061GF107991999021008001001001KA1240N+02141MA1999999101571MD1999999+0051MW1031REMSYN088AAXX  06124 82900 21597 70000 10243 20225 30157 40166 70362 86200 333 20214 58005 60104;EQDQ01+000062SCOTLC
0182829000999992000080618004-08040-034920FM-12+000799999V0201401N005110075019N0100001N1+02731+02301101571ADDAA106002091AY161061AY221061GF106991061021008001001001MA1999999101481MD1999999+0151MW1011REMSYN082AAXX  06184 82900 21597 61410 10273 20230 30148 40157 70162 86200 333 58015 60021;
0186829000999992000080700004-08040-034920FM-12+000799999V0209999C000010075019N0020001N1+02441+02211101661ADDAA199000091GF106991061021008001001001KA1240M+02781MA1999999101571MD1999999+0021REMSYN076AAXX  07004 82900 32595 60000 10244 20221 30157 40166 86200 333 10278 58002;EQDQ01  00002PRCP99
0201829000999992000080712004-08040-034920FM-12+000799999V0201801N002110075019N0100001N1+02461+02211101611ADDAA124021191AY121061AY261061GF108991081091008001999999KA1240N+02261MA1999999101521MD1999999-0071MW1631REMSYN088AAXX  07124 82900 21597 81804 10246 20221 30152 40161 76326 889// 333 20226 59007 60214;
0182829000999992000080718004-08040-034920FM-12+000799999V0201801N005710075019N0100001N1+02661+02181101401ADDAA106002091AY161061AY221061GF107991051031008001041001MA1999999101311MD1999999-0171MW1011REMSYN082AAXX  07184 82900 21597 71811 10266 20218 30131 40140 70162 85340 333 59017 60021;
0167829000999992000080800004-08040-034920FM-12+000799999V0201801N001510075019N0020001N1+02431+02171101671ADDAA199000021GF107991071071008001001001KA1240M+02701MA1999999101581MD1999999+0011REMSYN076AAXX  08004 82900 32595 71803 10243 20217 30158 40167 87700 333 10270 58001;
0201829000999992000080812004-08040-034920FM-12+000799999V0201401N002110075019N0100001N1+02451+02281101651ADDAA124008991AY161061AY261061GF107991051031008001021001KA1240N+02151MA1999999101561MD1999999+0041MW1031REMSYN088AAXX  08124 82900 21597 71404 10245 20228 30156 40165 70366 85320 333 20215 58004 60094;
0182829000999992000080818004-08040-034920FM-12+000799999V0201401N001010075019N0100001N1+02391+02351101461ADDAA106006191AY161061AY221061GF108991081031008001999999MA1999999101371MD1999999+0061MW1031REMSYN082AAXX  08184 82900 21597 81402 10239 20235 30137 40146 70362 883// 333 58006 60061;
0201829000999992000080900004-08040-034920FM-12+000799999V0209999C000010075019N0020001N1+02291+02201101631ADDAA106016091AY161061AY261061GF108991081051008001999999KA1240M+02491MA1999999101541MD1999999-0041MW1621REMSYN088AAXX  09004 82900 21595 80000 10229 20220 30154 40163 76266 885// 333 10249 59004 60161;
0201829000999992000080912004-08040-034920FM-12+000799999V0201801N004610075019N0100001N1+02681+02131101811ADDAA124027991AY161061AY261061GF106991051061008001031001KA1240N+02241MA1999999101721MD1999999+0161MW1011REMSYN088AAXX  09124 82900 21597 61809 10268 20213 30172 40181 70166 85630 333 20224 58016 60284;
0167829000999992000080918004-08040-034920FM-12+000799999V0201801N005110075019N0100001N1+02681+02161101521ADDAA199000091GF106991051041008001021001MA1999999101431MD1999999+0061REMSYN070AAXX  09184 82900 32597 61810 10268 20216 30143 40152 85420 333 58006;EQDQ01  00002PRCP99
0186829000999992000081000004-08040-034920FM-12+000799999V0209999C000010075019N0020001N1+02351+02191101791ADDAA199000091GF105991051021008001001001KA1240M+02801MA1999999101701MD1999999+0161REMSYN076AAXX  10004 82900 32595 50000 10235 20219 30170 40179 85200 333 10280 58016;EQDQ01  00002PRCP99
0201829000999992000081012004-08040-034920FM-12+000799999V0201801N004110075019N0100001N1+02701+02151101851ADDAA124002091AY161061AY221061GF106991061021008001001001KA1240N+02201MA1999999101761MD1999999+0041MW1021REMSYN088AAXX  10124 82900 21597 61808 10270 20215 30176 40185 70262 86200 333 20220 58004 60024;
0167829000999992000081018004-08040-034920FM-12+000799999V0201801N003110075019N0100001N1+02701+02081101601ADDAA199000091GF106991061021008001001001MA1999999101511MD1999999+0081REMSYN070AAXX  10184 82900 32597 61806 10270 20208 30151 40160 86200 333 58008;EQDQ01  00002PRCP99
0201829000999992000081100004-08040-034920FM-12+000799999V0201801N002110075019N0020001N1+02371+02211101831ADDAA106000191AY151061AY221061GF107991071021008001001001KA1240M+02811MA1999999101741MD1999999+0041MW1011REMSYN088AAXX  11004 82900 21595 71804 10237 20221 30174 40183 70152 87200 333 10281 58004 69921;
0220829000999992000081112004-08040-034920FM-12+000799999V0201401N003110075019N0100001N1+02661+02161101861ADDAA124004191AY161061AY221061GF106991999021008001001001KA1240N+02271MA1999999101771MD1999999+0011MW1021REMSYN088AAXX  11124 82900 21597 61406 10266 20216 30177 40186 70262 85200 333 20227 58001 60044;EQDQ01+000052SCOTLC
0167829000999992000081118004-08040-034920FM-12+000799999V0201401N003610450019N0100001N1+02631+02141101501ADDAA199000091GF105991031021008001031001MA1999999101411MD1999999-0101REMSYN070AAXX  11184 82900 32597 51407 10263 20214 30141 40150 83230 333 59010;EQDQ01  00002PRCP99
0202829000999992000081212004-08040-034920FM-12+000799999V0209999C000012200019N0100001N1+02581+02131101161ADDAA199000091GF103991999011008001001001KA1240N+01901MA1999999101581MD1999999-0191REMSYN076AAXX  12124 82900 32597 30000 10258 20213 30158 40116 82100 333 20190 59019;EQDQ01+000022SCOTLCQ02  00002PRCP99
0167829000999992000081218004-08040-034920FM-12+000799999V0201801N003612200019N0100001N1+02731+02001101341ADDAA199000091GF102991021021008001001001MA1999999101231MD1999999-0181REMSYN070AAXX  12184 82900 32597 21807 10273 20200 30123 40134 82200 333 59018;EQDQ01  00002PRCP99
0196829000999992000081300004-08040-034920FM-12+000799999V0209999C000012200019N0020001N1+02141+02091101681ADDAA199000091GA1001+999999999GF100991001001999999001001KA1240M+02841MA1999999101591MD1999999+0001REMSYN070AAXX  13004 82900 32995 00000 10214 20209 30159 40168 333 10284 58000;EQDQ01  00002PRCP99
0186829000999992000081312004-08040-034920FM-12+000799999V0201801N002610075019N0100001N1+02601+02101101771ADDAA199000091GF106991061021008001001001KA1240N+01981MA1999999101681MD1999999+0101REMSYN076AAXX  13124 82900 32597 61805 10260 20210 30168 40177 86200 333 20198 58010;EQDQ01  00002PRCP99
0167829000999992000081318004-08040-034920FM-12+000799999V0201801N005112200019N0100001N1+02721+02081101491ADDAA199000091GF102991021011008001001001MA1999999101401MD1999999+0171REMSYN070AAXX  13184 82900 32597 21810 10272 20208 30140 40149 82100 333 58017;EQDQ01  00002PRCP99
0186829000999992000081400004-08040-034920FM-12+000799999V0202301N001012200019N0020001N1+02411+02091101751ADDAA199000091GF102991021011008001001001KA1240M+02851MA1999999101661MD1999999+0071REMSYN076AAXX  14004 82900 32595 22302 10241 20209 30166 40175 82100 333 10285 58007;EQDQ01  00002PRCP99
0186829000999992000081412004-08040-034920FM-12+000799999V0201801N005110075019N0100001N1+02321+02181101951ADDAA199000091GF108991081051008001999999KA1240N+02021MA1999999101861MD1999999+0181REMSYN076AAXX  14124 82900 32597 81810 10232 20218 30186 40195 885// 333 20202 58018;EQDQ01  00002PRCP99
0182829000999992000081418004-08040-034920FM-12+000799999V0201801N005110075019N0100001N1+02541+02081101641ADDAA106006191AY161061AY221061GF108991081031008001999999MA1999999101551MD1999999+0151MW1021REMSYN082AAXX  14184 82900 21597 81810 10254 20208 30155 40164 70262 883// 333 58015 60061;
0186829000999992000081500004-08040-034920FM-12+000799999V0201801N003110075019N0020001N1+02451+01881101871ADDAA199000091GF106991061021008001001001KA1240M+02601MA1999999101781MD1999999+0121REMSYN076AAXX  15004 82900 32595 61806 10245 20188 30178 40187 86200 333 10260 58012;EQDQ01  00002PRCP99
0201829000999992000081512004-08040-034920FM-12+000799999V0202301N004110075019N0100001N1+02471+02071101831ADDAA124006191AY161061AY221061GF106991051041008001021001KA1240N+02091MA1999999101741MD1999999-0121MW1031REMSYN088AAXX  15124 82900 21597 62308 10247 20207 30174 40183 70362 85420 333 20209 59012 60064;
0167829000999992000081518004-08040-034920FM-12+000799999V0201801N005110075019N0100001N1+02671+02041101601ADDAA199000091GF106991051061008001021001MA1999999101511MD1999999-0041REMSYN070AAXX  15184 82900 32597 61810 10267 20204 30151 40160 85620 333 59004;EQDQ01  00002PRCP99
0186829000999992000081600004-08040-034920FM-12+000799999V0202301N001510075019N0020001N1+02341+02001101781ADDAA199000091GF107991071071008001001001KA1240M+02751MA1999999101691MD1999999-0091REMSYN076AAXX  16004 82900 32595 72303 10234 20200 30169 40178 87700 333 10275 59009;EQDQ01  00002PRCP99
0186829000999992000081612004-08040-034920FM-12+000799999V0201801N004110075019N0100001N1+02621+01911101771ADDAA199000091GF107991061041008001031001KA1240N+02081MA1999999101681MD1999999-0061REMSYN076AAXX  16124 82900 32597 71808 10262 20191 30168 40177 86430 333 20208 59006;EQDQ01  00002PRCP99
0167829000999992000081618004-08040-034920FM-12+000799999V0201801N005710075019N0100001N1+02741+01781101491ADDAA199000091GF105991051021008001001001MA1999999101401MD1999999-0111REMSYN070AAXX  16184 82900 32597 51811 10274 20178 30140 40149 85200 333 59011;EQDQ01  00002PRCP99
0186829000999992000081700004-08040-034920FM-12+000799999V0203601N000510075019N0020001N1+02341+02071101711ADDAA199000091GF106991061021008001001001KA1240M+02811MA1999999101621MD1999999-0071REMSYN076AAXX  17004 82900 32595 63601 10234 20207 30162 40171 86200 333 10281 59007;EQDQ01  00002PRCP99
0201829000999992000081712004-08040-034920FM-12+000799999V0201801N001010075019N0100001N1+02251+02141101871ADDAA124002091AY161061AY221061GF108991081031008001999999KA1240N+02001MA1999999101781MD1999999+0101MW1611REMSYN088AAXX  17124 82900 21597 81802 10225 20214 30178 40187 76162 883// 333 20200 58010 60024;
0182829000999992000081718004-08040-034920FM-12+000799999V0201801N003110075019N0100001N1+02621+02121101511ADDAA106004191AY161061AY221061GF105991051031008001001001MA1999999101421MD1999999+0021MW1021REMSYN082AAXX  17184 82900 21597 51806 10262 20212 30142 40151 70262 85300 333 58002 60041;
0201829000999992000081800004-08040-034920FM-12+000799999V0201801N001510075019N0020001N1+02171+02041101731ADDAA106002091AY161061AY221061GF106991061071008001001001KA1240M+02661MA1999999101641MD1999999+0021MW1031REMSYN088AAXX  18004 82900 21595 61803 10217 20204 30164 40173 70362 86700 333 10266 58002 60021;
0201829000999992000081812004-08040-034920FM-12+000799999V0201401N003110075019N0100001N1+02471+02251101641ADDAA124046091AY161061AY261061GF107991061071008001021001KA1240N+02141MA1999999101551MD1999999-0231MW1031REMSYN088AAXX  18124 82900 21597 71406 10247 20225 30155 40164 70366 86720 333 20214 59023 60464;
0182829000999992000081818004-08040-034920FM-12+000799999V0201401N004110075019N0100001N1+02551+02251101461ADDAA106001091AY161061AY221061GF107991061071008001021001MA1999999101371MD1999999-0051MW1031REMSYN082AAXX  18184 82900 21597 71408 10255 20225 30137 40146 70362 86720 333 59005 60011;
0201829000999992000081900004-08040-034920FM-12+000799999V0201401N003110075019N0020001N1+02271+02181101691ADDAA106003091AY161061AY221061GF108991081061008001999999KA1240M+02661MA1999999101601MD1999999-0041MW1621REMSYN088AAXX  19004 82900 21595 81406 10227 20218 30160 40169 76262 886// 333 10266 59004 60031;
0201829000999992000081912004-08040-034920FM-12+000799999V0201401N003610075019N0100001N1+02721+02171101681ADDAA124018091AY161061AY261061GF106991061021008001001001KA1240N+02201MA1999999101591MD1999999+0041MW1021REMSYN088AAXX  19124 82900 21597 61407 10272 20217 30159 40168 70266 86200 333 20220 58004 60184;
0182829000999992000081918004-08040-034920FM-12+000799999V0201401N005110075019N0100001N1+02711+02121101401ADDAA106000191AY151061AY221061GF106991061021008001001001MA1999999101311MD1999999-0061MW1011REMSYN082AAXX  19184 82900 21597 61410 10271 20212 30131 40140 70152 86200 333 59006 69911;
0186829000999992000082000004-08040-034920FM-12+000799999V0201801N003112200019N0020001N1+02511+02131101711ADDAA199000091GF102991021021008001001001KA1240M+02771MA1999999101621MD1999999+0021REMSYN076AAXX  20004 82900 32595 21806 10251 20213 30162 40171 82200 333 10277 58002;EQDQ01  00002PRCP99
0173829000999992000082012004-08040-034920FM-12+000799999V0201801N002110075019N0100001N1+02681+02131101861ADDAA124000191GF105991051021008001001001KA1240N+02371MA1999999101771MD1999999+0181REMSYN082AAXX  20124 82900 22597 51804 10268 20213 30177 40186 85200 333 20237 58018 69914;
0167829000999992000082018004-08040-034920FM-12+000799999V0201801N003610075019N0100001N1+02671+02081101621ADDAA199000091GF105991051021008001001001MA1999999101531MD1999999+0221REMSYN070AAXX  20184 82900 32597 51807 10267 20208 30153 40162 85200 333 58022;EQDQ01  00002PRCP99
0201829000999992000082112004-08040-034920FM-12+000799999V0201801N001512200019N0100001N1+02651+02081101851ADDAA124003091AY161061AY221061GF104991041021008001001001KA1240N+02141MA1999999101761MD1999999+0011MW1021REMSYN088AAXX  21124 82900 21597 41803 10265 20208 30176 40185 70262 84200 333 20214 58001 60034;
0167829000999992000082118004-08040-034920FM-12+000799999V0201801N003110075019N0100001N1+02661+02111101541ADDAA199000091GF106991051041008001021001MA1999999101451MD1999999-0081REMSYN070AAXX  21184 82900 32597 61806 10266 20211 30145 40154 85420 333 59008;EQDQ01  00002PRCP99
0186829000999992000082200004-08040-034920FM-12+000799999V0202301N001510075019N0020001N1+02381+02131101801ADDAA199000091GF105991051021008001001001KA1240M+02781MA1999999101711MD1999999+0021REMSYN076AAXX  22004 82900 32595 52303 10238 20213 30171 40180 85200 333 10278 58002;EQDQ01  00002PRCP99
0201829000999992000082212004-08040-034920FM-12+000799999V0201801N001510075019N0100001N1+02591+02101101721ADDAA124000191AY151061AY201061GF106991061021008001001001KA1240N+02061MA1999999101631MD1999999-0131MW1021REMSYN088AAXX  22124 82900 21597 61803 10259 20210 30163 40172 70250 86200 333 20206 59013 69914;
0167829000999992000082218004-08040-034920FM-12+000799999V0201801N003110075019N0100001N1+02671+01951101391ADDAA199000091GF105991051021008001001001MA1999999101301MD1999999-0151REMSYN070AAXX  22184 82900 32597 51806 10267 20195 30130 40139 85200 333 59015;EQDQ01  00002PRCP99
0186829000999992000082300004-08040-034920FM-12+000799999V0201401N003610075019N0020001N1+02561+02131101641ADDAA199000091GF106991061071008001001001KA1240M+02831MA1999999101551MD1999999-0161REMSYN076AAXX  23004 82900 32595 61407 10256 20213 30155 40164 86700 333 10283 59016;EQDQ01  00002PRCP99
0186829000999992000082312004-08040-034920FM-12+000799999V0201801N002612200019N0100001N1+02721+01981101681ADDAA199000091GF103991031021008001001001KA1240N+02341MA1999999101591MD1999999-0041REMSYN076AAXX  23124 82900 32597 31805 10272 20198 30159 40168 83200 333 20234 59004;EQDQ01  00002PRCP99
0167829000999992000082318004-08040-034920FM-12+000799999V0201801N004110075019N0100001N1+02741+02141101361ADDAA199000091GF106991061021008001001001MA1999999101271MD1999999-0031REMSYN070AAXX  23184 82900 32597 61808 10274 20214 30127 40136 86200 333 59003;EQDQ01  00002PRCP99
0201829000999992000082400004-08040-034920FM-12+000799999V0201401N002110075019N0020001N1+02391+02231101651ADDAA106000391AY151061AY221061GF107991071071008001001001KA1240M+02841MA1999999101561MD1999999+0011MW1031REMSYN088AAXX  24004 82900 21595 71404 10239 20223 30156 40165 70352 87700 333 10284 58001 69931;
0201829000999992000082412004-08040-034920FM-12+000799999V0201801N001010075019N0100001N1+02361+02281101741ADDAA124010991AY161061AY221061GF108991081031008001999999KA1240N+02201MA1999999101651MD1999999+0061MW1631REMSYN088AAXX  24124 82900 21597 81802 10236 20228 30165 40174 76362 883// 333 20220 58006 60114;
0182829000999992000082418004-08040-034920FM-12+000799999V0209999C000010075019N0100001N1+02591+02351101431ADDAA106003091AY161061AY221061GF107991071031008001001001MA1999999101341MD1999999+0071MW1031REMSYN082AAXX  24184 82900 21597 70000 10259 20235 30134 40143 70362 87300 333 58007 60031;
0186829000999992000082500004-08040-034920FM-12+000799999V0209999C000012200019N0020001N1+02371+02101101661ADDAA199000021GF102991999021008001001001KA1240M+02601MA1999999101571MD1999999+0011REMSYN076AAXX  25004 82900 32595 20000 10237 20210 30157 40166 83200 333 10260 58001;EQDQ01+000032SCOTLC
0201829000999992000082512004-08040-034920FM-12+000799999V0201401N003110075019N0100001N1+02721+02241101731ADDAA124003091AY161061AY221061GF106991051041008001021001KA1240N+02021MA1999999101641MD1999999-0011MW1011REMSYN088AAXX  25124 82900 21597 61406 10272 20224 30164 40173 70162 85420 333 20202 59001 60034;
0167829000999992000082518004-08040-034920FM-12+000799999V0201401N003112200019N0100001N1+02781+02111101391ADDAA199000091GF104991031021008001011001MA1999999101301MD1999999-0041REMSYN070AAXX  25184 82900 32597 41406 10278 20211 30130 40139 83210 333 59004;EQDQ01  00002PRCP99
0201829000999992000082600004-08040-034920FM-12+000799999V0201401N003110075019N0020001N1+02331+02271101641ADDAA106003091AY161061AY221061GF107991071071008001001001KA1240M+02841MA1999999101551MD1999999-0021MW1031REMSYN088AAXX  26004 82900 21595 71406 10233 20227 30155 40164 70362 87700 333 10284 59002 60031;
0189829000999992000082612004-08040-034920FM-12+000799999V02099999999990075019N0100001N1+99999+99999101601ADDAA124010991AY161061AY241061GF105991051021008001001001KA1240N+02001MA1999999101511MD1999999-0131MW1021REMSYN076AAXX  26124 82900 21597 51/// 30151 40160 70264 85200 333 20200 59013 60114;
0168829000999992000082618004-08040-034920FM-12+000799999V0201801N003110075019N0100001N1+02771+01761101241ADDAA199000091GF105991051021008001001001MD1999999-0151REMSYN070AAXX  26184 82900 32597 51806 10277 20176 39115 40124 85200 333 59015;EQDQ01+091153APOSP Q02  00002PRCP99
0186829000999992000082700004-08040-034920FM-12+000799999V0209999C000010075019N0020001N1+02301+02181101491ADDAA199000091GF106991061021008001001001KA1240M+02821MA1999999101401MD1999999-0151REMSYN076AAXX  27004 82900 32595 60000 10230 20218 30140 40149 86200 333 10282 59015;EQDQ01  00002PRCP99
0186829000999992000082712004-08040-034920FM-12+000799999V0201401N002110075019N0100001N1+02741+02191101471ADDAA199000091GF105991051021008001001001KA1240N+02001MA1999999101381MD1999999-0131REMSYN076AAXX  27124 82900 32597 51404 10274 20219 30138 40147 85200 333 20200 59013;EQDQ01  00002PRCP99
0167829000999992000082718004-08040-034920FM-12+000799999V0201401N003610075019N0100001N1+02721+02241101111ADDAA199000091GF106991061021008001001001MA1999999101021MD1999999-0131REMSYN070AAXX  27184 82900 32597 61407 10272 20224 30102 40111 86200 333 59013;EQDQ01  00002PRCP99
0186829000999992000082800004-08040-034920FM-12+000799999V0201401N001510075019N0020001N1+02541+02231101371ADDAA199000091GF106991061021008001001001KA1240M+02831MA1999999101281MD1999999-0121REMSYN076AAXX  28004 82900 32595 61403 10254 20223 30128 40137 86200 333 10283 59012;EQDQ01  00002PRCP99
0202829000999992000082812004-08040-034920FM-12+000799999V0201401N003610075019N0100001N1+02771+02181101441ADDAA199000091GF108991999021008001001001KA1240N+02001MA1999999101351MD1999999-0031REMSYN076AAXX  28124 82900 32597 81407 10277 20218 30135 40144 86200 333 20200 59003;EQDQ01+000062SCOTLCQ02  00002PRCP99
0186829000999992000082900004-08040-034920FM-12+000799999V0201401N001512200019N0020001N1+02521+02131101391ADDAA199000091GF102991021011008001001001KA1240M+02821MA1999999101301MD1999999+0021REMSYN076AAXX  29004 82900 32595 21403 10252 20213 30130 40139 82100 333 10282 58002;EQDQ01  00002PRCP99
0186829000999992000082912004-08040-034920FM-12+000799999V0201401N003110075019N0100001N1+02731+02171101491ADDAA199000091GF106991051041008001021001KA1240N+02001MA1999999101401MD1999999+0051REMSYN076AAXX  29124 82900 32597 61406 10273 20217 30140 40149 85420 333 20200 58005;EQDQ01  00002PRCP99
0167829000999992000082918004-08040-034920FM-12+000799999V0201401N002610450019N0100001N1+02771+02251101281ADDAA199000091GF105991041041008001021001MA1999999101191MD1999999+0151REMSYN070AAXX  29184 82900 32597 51405 10277 20225 30119 40128 84420 333 58015;EQDQ01  00002PRCP99
0186829000999992000083000004-08040-034920FM-12+000799999V0201401N002110075019N0020001N1+02581+02231101521ADDAA199000091GF106991061041008001001001KA1240M+02851MA1999999101431MD1999999+0131REMSYN076AAXX  30004 82900 32595 61404 10258 20223 30143 40152 86400 333 10285 58013;EQDQ01  00002PRCP99
0201829000999992000083012004-08040-034920FM-12+000799999V0201401N003110075019N0100001N1+02771+02181101671ADDAA124001091AY161061AY221061GF106991061021008001001001KA1240N+02101MA1999999101581MD1999999+0181MW1031REMSYN088AAXX  30124 82900 21597 61406 10277 20218 30158 40167 70362 86200 333 20210 58018 60014;
0167829000999992000083018004-08040-034920FM-12+000799999V0201401N003110075019N0100001N1+02761+02211101331ADDAA199000091GF106991061021008001001001MA1999999101241MD1999999+0051REMSYN070AAXX  30184 82900 32597 61406 10276 20221 30124 40133 86200 333 58005;EQDQ01  00002PRCP99
0186829000999992000083100004-08040-034920FM-12+000799999V0201401N004610075019N0020001N1+02601+02061101611ADDAA199000091GF106991061021008001001001KA1240M+02841MA1999999101521MD1999999+0091REMSYN076AAXX  31004 82900 32595 61409 10260 20206 30152 40161 86200 333 10284 58009;EQDQ01  00002PRCP99
0202829000999992000083112004-08040-034920FM-12+000799999V0201401N003612200019N0100001N1+02781+01961101591ADDAA199000091GF101991999021008001001001KA1240N+02441MA1999999101501MD1999999-0081REMSYN076AAXX  31124 82900 32597 11407 10278 20196 30150 40159 82200 333 20244 59008;EQDQ01+000022SCOTLCQ02  00002PRCP99
0167829000999992000083118004-08040-034920FM-12+000799999V0201801N002610075019N0100001N1+02741+02181101331ADDAA199000091GF105991051021008001001001MA1999999101241MD1999999+0011REMSYN070AAXX  31184 82900 32597 51805 10274 20218 30124 40133 85200 333 58001;EQDQ01  00002PRCP99
0186829000999992000090100004-08040-034920FM-12+000799999V0201801N001012200019N0020001N1+02561+02131101551ADDAA199000091GF104991041021008001001001KA1240M+02871MA1999999101461MD1999999-0061REMSYN076AAXX  01004 82900 32595 41802 10256 20213 30146 40155 84200 333 10287 59006;EQDQ01  00002PRCP99
0201829000999992000090112004-08040-034920FM-12+000799999V0201401N005112200019N0100001N1+02781+02161101511ADDAA124007191AY161061AY221061GF103991031021008001001001KA1240N+02201MA1999999101421MD1999999-0051MW1021REMSYN088AAXX  01124 82900 21597 31410 10278 20216 30142 40151 70262 83200 333 20220 59005 60074;
0182829000999992000090118004-08040-034920FM-12+000799999V0201801N005110450019N0100001N1+02671+02161101231ADDAA106013091AY161061AY221061GF105991031021008001031001MA1999999101141MD1999999-0111MW1021REMSYN082AAXX  01184 82900 21597 51810 10267 20216 30114 40123 70262 83230 333 59011 60131;
0186829000999992000090200004-08040-034920FM-12+000799999V0201401N001512200019N0020001N1+02501+02031101391ADDAA199000091GF102991021021008001001001KA1240M+02821MA1999999101301MD1999999-0161REMSYN076AAXX  02004 82900 32595 21403 10250 20203 30130 40139 82200 333 10282 59016;EQDQ01  00002PRCP99
0201829000999992000090212004-08040-034920FM-12+000799999V0201401N004612200019N0100001N1+02741+02051101411ADDAA124014091AY151061AY211061GF104991041021008001001001KA1240N+02231MA1999999101321MD1999999-0101MW1011REMSYN088AAXX  02124 82900 21597 41409 10274 20205 30132 40141 70151 84200 333 20223 59010 60144;
0183829000999992000090218004-08040-034920FM-12+000799999V0201401N003119999999N0100001N1+02721+02001101161ADDAA199000091GF107991999011008001001001MA1999999101071MD1999999-0071REMSYN070AAXX  02184 82900 32597 71406 10272 20200 30107 40116 84100 333 59007;EQDQ01+000042SCOTLCQ02  00002PRCP99
0202829000999992000090300004-08040-034920FM-12+000799999V0201401N003112200019N0020001N1+02511+01931101471ADDAA199000091GF103991999011008001001001KA1240M+02781MA1999999101381MD1999999+0081REMSYN076AAXX  03004 82900 32595 31406 10251 20193 30138 40147 82100 333 10278 58008;EQDQ01+000022SCOTLCQ02  00002PRCP99
0186829000999992000090312004-08040-034920FM-12+000799999V0201401N002112200019N0100001N1+02691+01491101451ADDAA199000091GF104991041021008001001001KA1240N+01881MA1999999101361MD1999999+0041REMSYN076AAXX  03124 82900 32597 41404 10269 20149 30136 40145 84200 333 20188 58004;EQDQ01  00002PRCP99
0167829000999992000090318004-08040-034920FM-12+000799999V0201401N002110075019N0100001N1+02731+02051101091ADDAA199000091GF105991051021008001001001MA1999999101001MD1999999-0071REMSYN070AAXX  03184 82900 32597 51404 10273 20205 30100 40109 85200 333 59007;EQDQ01  00002PRCP99
0186829000999992000090400004-08040-034920FM-12+000799999V0209999C000012200019N0020001N1+02201+02121101411ADDAA199000091GF101991011011008001001001KA1240M+02821MA1999999101321MD1999999-0061REMSYN076AAXX  04004 82900 32595 10000 10220 20212 30132 40141 81100 333 10282 59006;EQDQ01  00002PRCP99
0201829000999992000090412004-08040-034920FM-12+000799999V0200901N000510075019N0100001N1+02761+02191101591ADDAA124000191AY151061AY231061GF106991061021008001001001KA1240N+02001MA1999999101501MD1999999+0141MW1021REMSYN088AAXX  04124 82900 21597 60901 10276 20219 30150 40159 70253 86200 333 20200 58014 69924;
0186829000999992000090500004-08040-034920FM-12+000799999V0201401N001512200019N0020001N1+02581+02291101441ADDAA199000091GF103991031021008001001001KA1240M+02941MA1999999101351MD1999999-0031REMSYN076AAXX  05004 82900 32595 31403 10258 20229 30135 40144 83200 333 10294 59003;EQDQ01  00002PRCP99
0201829000999992000090512004-08040-034920FM-12+000799999V0209999C000010075019N0100001N1+02401+02311101561ADDAA124006191AY161061AY241061GF108991081021008001001001KA1240N+01941MA1999999101471MD1999999-0031MW1031REMSYN088AAXX  05124 82900 21597 80000 10240 20231 30147 40156 70364 88200 333 20194 59003 60064;
0182829000999992000090518004-08040-034920FM-12+000799999V0200901N001510450019N0100001N1+02761+02231101241ADDAA106002091AY161061AY221061GF106991041021008001031001MA1999999101151MD1999999+0051MW1021REMSYN082AAXX  05184 82900 21597 60903 10276 20223 30115 40124 70262 84230 333 58005 60021;
0186829000999992000090600004-08040-034920FM-12+000799999V0209999C000012200019N0020001N1+02401+02261101441ADDAA199000091GF103991031021008001001001KA1240M+02861MA1999999101351MD1999999+0001REMSYN076AAXX  06004 82900 32595 30000 10240 20226 30135 40144 83200 333 10286 58000;EQDQ01  00002PRCP99
0201829000999992000090612004-08040-034920FM-12+000799999V0201401N003110075019N0100001N1+02711+02241101441ADDAA124002091AY161061AY221061GF106991051041008001021001KA1240N+02141MA1999999101351MD1999999-0121MW1011REMSYN088AAXX  06124 82900 21597 61406 10271 20224 30135 40144 70162 85420 333 20214 59012 60024;
0167829000999992000090618004-08040-034920FM-12+000799999V0201401N002110450019N0100001N1+02811+02181101231ADDAA199000091GF105991041021008001011001MA1999999101141MD1999999-0011REMSYN070AAXX  06184 82900 32597 51404 10281 20218 30114 40123 84210 333 59001;EQDQ01  00002PRCP99
0186829000999992000090700004-08040-034920FM-12+000799999V0202301N001510075019N0020001N1+02421+02301101321ADDAA199000091GF107991071071008001999999KA1240M+02901MA1999999101231MD1999999-0121REMSYN076AAXX  07004 82900 32595 72303 10242 20230 30123 40132 877// 333 10290 59012;EQDQ01  00002PRCP99
0201829000999992000090712004-08040-034920FM-12+000799999V0209999C000010075019N0100001N1+02621+02351101491ADDAA124005191AY161061AY221061GF107991071051008001999999KA1240N+02201MA1999999101401MD1999999+0051MW1031REMSYN088AAXX  07124 82900 21597 70000 10262 20235 30140 40149 70362 875// 333 20220 58005 60054;
0182829000999992000090718004-08040-034920FM-12+000799999V0201401N001510075019N0100001N1+02701+02201101061ADDAA106000891AY151061AY221061GF107991071031008001001001MA1999999100971MD1999999-0171MW1011REMSYN082AAXX  07184 82900 21597 71403 10270 20220 30097 40106 70152 87300 333 59017 69971;
0202829000999992000090800004-08040-034920FM-12+000799999V0201401N001019999999N0020001N1+02591+02271101301ADDAA199000091GF107991999021008001001001KA1240M+02801MA1999999101211MD1999999-0021REMSYN076AAXX  08004 82900 32595 71402 10259 20227 30121 40130 84200 333 10280 59002;EQDQ01+000042SCOTLCQ02  00002PRCP99
0182829000999992000090818004-08040-034920FM-12+000799999V0201401N004110075019N0100001N1+02561+02211101431ADDAA106001091AY161061AY261061GF107991071031008001001001MA1999999101341MD1999999+0111MW1031REMSYN082AAXX  08184 82900 21597 71408 10256 20221 30134 40143 70366 87300 333 58011 60011;
0201829000999992000090912004-08040-034920FM-12+000799999V0201401N002110075019N0100001N1+02331+02261101561ADDAA124004191AY161061AY221061GF107991071071008001001001KA1240N+02101MA1999999101471MD1999999+0081MW1031REMSYN088AAXX  09124 82900 21597 71404 10233 20226 30147 40156 70362 87700 333 20210 58008 60044;
0167829000999992000090918004-08040-034920FM-12+000799999V0201401N001510075019N0100001N1+02561+02231101261ADDAA199000091GF107991071031008001001001MA1999999101171MD1999999+0091REMSYN070AAXX  09184 82900 32597 71403 10256 20223 30117 40126 87300 333 58009;EQDQ01  00002PRCP99
0201829000999992000091000004-08040-034920FM-12+000799999V0209999C000010075019N0020001N1+02251+02191101561ADDAA106010991AY161061AY261061GF108991081061008001999999KA1240M+02751MA1999999101471MD1999999+0151MW1611REMSYN088AAXX  10004 82900 21595 80000 10225 20219 30147 40156 76166 886// 333 10275 58015 60111;
0201829000999992000091012004-08040-034920FM-12+000799999V0209999C000010075019N0100001N1+02581+02331101561ADDAA124036191AY161061AY221061GF107991061041008001021001KA1240N+02201MA1999999101471MD1999999+0001MW1031REMSYN088AAXX  10124 82900 21597 70000 10258 20233 30147 40156 70362 86420 333 20220 58000 60364;
0182829000999992000091018004-08040-034920FM-12+000799999V0201401N001010075019N0100001N1+02701+02261101201ADDAA106000891AY151061AY211061GF107991071031008001001001MA1999999101111MD1999999-0061MW1031REMSYN082AAXX  10184 82900 21597 71402 10270 20226 30111 40120 70351 87300 333 59006 69971;
0186829000999992000091100004-08040-034920FM-12+000799999V0209999C000010075019N0020001N1+02361+02281101441ADDAA199000091GF106991061041008001001001KA1240M+02761MA1999999101351MD1999999-0121REMSYN076AAXX  11004 82900 32595 60000 10236 20228 30135 40144 86400 333 10276 59012;EQDQ01  00002PRCP99
0201829000999992000091112004-08040-034920FM-12+000799999V0201401N003110075019N0100001N1+02561+02401101461ADDAA124006191AY161061AY241061GF108991081021008001001001KA1240N+02201MA1999999101371MD1999999-0101MW1031REMSYN088AAXX  11124 82900 21597 81406 10256 20240 30137 40146 70364 88200 333 20220 59010 60064;
0182829000999992000091118004-08040-034920FM-12+000799999V0201401N002610075019N0100001N1+02691+02221101131ADDAA106009991AY161061AY241061GF106991061021008001001001MA1999999101041MD1999999-0071MW1021REMSYN082AAXX  11184 82900 21597 61405 10269 20222 30104 40113 70264 86200 333 59007 60101;
0186829000999992000091200004-08040-034920FM-12+000799999V0209999C000012200019N0020001N1+02531+02171101451ADDAA199000091GF104991041021008001001001KA1240M+02771MA1999999101361MD1999999+0011REMSYN076AAXX  12004 82900 32595 40000 10253 20217 30136 40145 84200 333 10277 58001;EQDQ01  00002PRCP99
0173829000999992000091212004-08040-034920FM-12+000799999V0201401N001510075019N0100001N1+02821+02291101431ADDAA124009991GF106991061021008001001001KA1240N+02261MA1999999101341MD1999999-0031REMSYN082AAXX  12124 82900 22597 61403 10282 20229 30134 40143 86200 333 20226 59003 60104;
0167829000999992000091218004-08040-034920FM-12+000799999V02099999999990075019N0100001N1+02781+02251101191ADDAA199000091GF105991051021008001001001MA1999999101101MD1999999+0061REMSYN070AAXX  12184 82900 32597 514// 10278 20225 30110 40119 85200 333 58006;EQDQ01  00002PRCP99
0201829000999992000091300004-08040-034920FM-12+000799999V02099999999990075019N0020001N1+02581+02211101471ADDAA106011991AY161061AY261061GF106991061021008001001001KA1240M+02871MA1999999101381MD1999999+0021MW1011REMSYN088AAXX  13004 82900 21595 614// 10258 20221 30138 40147 70166 86200 333 10287 58002 60121;
0201829000999992000091312004-08040-034920FM-12+000799999V02099999999990075019N0100001N1+02781+02271101501ADDAA124014091AY161061AY241061GF106991061021008001001001KA1240N+02021MA1999999101411MD1999999+0071MW1021REMSYN088AAXX  13124 82900 21597 614// 10278 20227 30141 40150 70264 86200 333 20202 58007 60144;
0182829000999992000091318004-08040-034920FM-12+000799999V0201801N003110075019N0100001N1+02581+02371101291ADDAA106001091AY161061AY231061GF108991081021008001001001MA1999999101201MD1999999+0101MW1031REMSYN082AAXX  13184 82900 21597 81806 10258 20237 30120 40129 70363 88200 333 58010 60011;
0201829000999992000091400004-08040-034920FM-12+000799999V02099999999990075019N0020001N1+02461+02281101531ADDAA106013091AY161061AY261061GF107991071071008001001001KA1240M+02881MA1999999101441MD1999999+0061MW1031REMSYN088AAXX  14004 82900 21595 714// 10246 20228 30144 40153 70366 87700 333 10288 58006 60131;
0201829000999992000091412004-08040-034920FM-12+000799999V0201801N001510075019N0100001N1+02451+02231101741ADDAA124023191AY161061AY221061GF107991061071008001021001KA1240N+02301MA1999999101651MD1999999+0241MW1011REMSYN088AAXX  14124 82900 21597 71803 10245 20223 30165 40174 70162 86720 333 20230 58024 60234;
0182829000999992000091418004-08040-034920FM-12+000799999V0201801N004610075019N0100001N1+02691+02241101411ADDAA106003091AY161061AY261061GF106991051041008001021001MA1999999101321MD1999999+0121MW1011REMSYN082AAXX  14184 82900 21597 61809 10269 20224 30132 40141 70166 85420 333 58012 60031;
0186829000999992000091500004-08040-034920FM-12+000799999V0201401N001510075019N0020001N1+02561+02271101661ADDAA199000091GF107991071071008001001001KA1240M+02801MA1999999101571MD1999999+0131REMSYN076AAXX  15004 82900 32595 71403 10256 20227 30157 40166 87700 333 10280 58013;EQDQ01  00002PRCP99
0201829000999992000091512004-08040-034920FM-12+000799999V0201801N003110075019N0100001N1+02771+02231101621ADDAA124005191AY161061AY221061GF107991071031008001001001KA1240N+02201MA1999999101531MD1999999-0121MW1021REMSYN088AAXX  15124 82900 21597 71806 10277 20223 30153 40162 70262 87300 333 20220 59012 60054;
0182829000999992000091518004-08040-034920FM-12+000799999V0209999C000012200019N0100001N1+02611+02281101331ADDAA106007991AY161061AY221061GF103991021021008001031001MA1999999101241MD1999999-0081MW1021REMSYN082AAXX  15184 82900 21597 30000 10261 20228 30124 40133 70262 82230 333 59008 60081;
0201829000999992000091600004-08040-034920FM-12+000799999V0201401N001510075019N0020001N1+02561+02331101601ADDAA106000391AY151061AY221061GF106991061021008001001001KA1240M+02891MA1999999101511MD1999999-0061MW1031REMSYN088AAXX  16004 82900 21595 61403 10256 20233 30151 40160 70352 86200 333 10289 59006 69931;
0201829000999992000091612004-08040-034920FM-12+000799999V0201401N006210075019N0100001N1+02701+02411101531ADDAA124030091AY161061AY261061GF107991071071008001999999KA1240N+02351MA1999999101441MD1999999-0091MW1601REMSYN088AAXX  16124 82900 21597 71412 10270 20241 30144 40153 76066 877// 333 20235 59009 60304;
0182829000999992000091618004-08040-034920FM-12+000799999V0201401N003110120019N0100001N1+02711+02371101351ADDAA106003091AY161061AY261061GF108991081081008001999999MA1999999101261MD1999999-0251MW1601REMSYN082AAXX  16184 82900 21597 81406 10271 20237 30126 40135 76066 888// 333 59025 60031;
0201829000999992000091700004-08040-034920FM-12+000799999V0201801N001510075019N0020001N1+02541+02381101531ADDAA106004191AY161061AY221061GF107991071071008001001001KA1240M+02811MA1999999101441MD1999999-0071MW1031REMSYN088AAXX  17004 82900 21595 71803 10254 20238 30144 40153 70362 87700 333 10281 59007 60041;
0201829000999992000091712004-08040-034920FM-12+000799999V0201401N003610075019N0100001N1+02291+02271101871ADDAA124109091AY191061AY261061GF108991081051008001999999KA1240N+02041MA1999999101781MD1999999+0341MW1611REMSYN088AAXX  17124 82900 21597 81407 10229 20227 30178 40187 76196 885// 333 20204 58034 61094;
0182829000999992000091718004-08040-034920FM-12+000799999V0201801N004610075019N0100001N1+02671+02241101411ADDAA106005191AY161061AY221061GF108991081051008001999999MA1999999101321MD1999999+0061MW1031REMSYN082AAXX  17184 82900 21597 81809 10267 20224 30132 40141 70362 885// 333 58006 60051;
0167829000999992000091800004-08040-034920FM-12+000799999V0201801N003110075019N0020001N1+02501+02211101611ADDAA199000021GF106991061021008001001001KA1240M+02691MA1999999101531MD1999999+0001REMSYN076AAXX  18004 82900 32595 61806 10250 20221 30153 40161 86200 333 10269 58000;
0201829000999992000091812004-08040-034920FM-12+000799999V0201401N003110450019N0100001N1+02671+02281101741ADDAA124016091AY161061AY261061GF105991031021008001031001KA1240N+02201MA1999999101651MD1999999-0131MW1031REMSYN088AAXX  18124 82900 21597 51406 10267 20228 30165 40174 70366 83230 333 20220 59013 60164;
0182829000999992000091818004-08040-034920FM-12+000799999V0201401N005110075019N0100001N1+02371+02281101441ADDAA106015091AY161061AY221061GF108991081071008001001001MA1999999101351MD1999999+0031MW1031REMSYN082AAXX  18184 82900 21597 81410 10237 20228 30135 40144 70362 88700 333 58003 60151;
0201829000999992000091900004-08040-034920FM-12+000799999V0201801N003110075019N0020001N1+02431+02191101681ADDAA106005191AY161061AY221061GF107991071071008001001001KA1240M+02791MA1999999101591MD1999999+0071MW1011REMSYN088AAXX  19004 82900 21595 71806 10243 20219 30159 40168 70162 87700 333 10279 58007 60051;
0201829000999992000091912004-08040-034920FM-12+000799999V0201801N001510075019N0100001N1+02611+02231101751ADDAA124025991AY161061AY251061GF106991061021008001001001KA1240N+01921MA1999999101661MD1999999+0011MW1031REMSYN088AAXX  19124 82900 21597 61803 10261 20223 30166 40175 70365 86200 333 20192 58001 60264;
0167829000999992000091918004-08040-034920FM-12+000799999V0201801N003110075019N0100001N1+02731+02171101491ADDAA199000091GF105991051021008001001001MA1999999101401MD1999999+0051REMSYN070AAXX  19184 82900 32597 51806 10273 20217 30140 40149 85200 333 58005;EQDQ01  00002PRCP99
0186829000999992000092000004-08040-034920FM-12+000799999V0209999C000010075019N0020001N1+02401+02171101611ADDAA199000091GF106991061021008001001001KA1240M+02831MA1999999101521MD1999999-0071REMSYN076AAXX  20004 82900 32595 60000 10240 20217 30152 40161 86200 333 10283 59007;EQDQ01  00002PRCP99
0201829000999992000092012004-08040-034920FM-12+000799999V0201801N005110075019N0100001N1+02661+02181101721ADDAA124000391AY161061AY211061GF106991061021008001001001KA1240N+02181MA1999999101631MD1999999-0031MW1021REMSYN088AAXX  20124 82900 21597 61810 10266 20218 30163 40172 70261 86200 333 20218 59003 69934;
0182829000999992000092018004-08040-034920FM-12+000799999V0201801N005110075019N0100001N1+02661+02141101361ADDAA106000191AY161061AY261061GF106991061031008001001001MA1999999101271MD1999999-0131MW1031REMSYN082AAXX  20184 82900 21597 61810 10266 20214 30127 40136 70366 86300 333 59013 69921;
0186829000999992000092100004-08040-034920FM-12+000799999V0202301N003110075019N0020001N1+02411+02071101561ADDAA199000091GF107991071071008001001001KA1240M+02771MA1999999101471MD1999999+0051REMSYN076AAXX  21004 82900 32595 72306 10241 20207 30147 40156 87700 333 10277 58005;EQDQ01  00002PRCP99
0201829000999992000092112004-08040-034920FM-12+000799999V0201801N003110075019N0100001N1+02681+02061101681ADDAA124004191AY161061AY231061GF105991051021008001001001KA1240N+02101MA1999999101591MD1999999-0041MW1021REMSYN088AAXX  21124 82900 21597 51806 10268 20206 30159 40168 70263 85200 333 20210 59004 60044;
0167829000999992000092118004-08040-034920FM-12+000799999V0201801N003110075019N0100001N1+02691+02061101401ADDAA199000091GF106991061021008001001001MA1999999101311MD1999999+0041REMSYN070AAXX  21184 82900 32597 61806 10269 20206 30131 40140 86200 333 58004;EQDQ01  00002PRCP99
0201829000999992000092212004-08040-034920FM-12+000799999V0201801N005110075019N0100001N1+02561+02171101691ADDAA124003091AY161061AY221061GF107991061031008001041001KA1240N+02101MA1999999101601MD1999999+0011MW1031REMSYN088AAXX  22124 82900 21597 71810 10256 20217 30160 40169 70362 86340 333 20210 58001 60034;
0167829000999992000092218004-08040-034920FM-12+000799999V0201401N003110075019N0100001N1+02621+02121101441ADDAA199000091GF108991071071008001999999MA1999999101351MD1999999+0041REMSYN070AAXX  22184 82900 32597 81406 10262 20212 30135 40144 877// 333 58004;EQDQ01  00002PRCP99
0186829000999992000092300004-08040-034920FM-12+000799999V0202701N001010075019N0020001N1+02351+02171101641ADDAA199000091GF105991051021008001001001KA1240M+02801MA1999999101551MD1999999+0001REMSYN076AAXX  23004 82900 32595 52702 10235 20217 30155 40164 85200 333 10280 58000;EQDQ01  00002PRCP99
0201829000999992000092312004-08040-034920FM-12+000799999V0201801N003110075019N0100001N1+02591+02171101641ADDAA124003091AY161061AY221061GF106991061021008001001001KA1240N+02101MA1999999101551MD1999999-0051MW1021REMSYN088AAXX  23124 82900 21597 61806 10259 20217 30155 40164 70262 86200 333 20210 59005 60034;
0201829000999992000092318004-08040-034920FM-12+000799999V0201801N004119999999N0100001N1+02671+02181101361ADDAA106000591AY161061AY221061GF105991999021008001001001MA1999999101271MD1999999-0081MW1021REMSYN082AAXX  23184 82900 21597 51808 10267 20218 30127 40136 70262 83200 333 59008 69961;EQDQ01+000032SCOTLC
0186829000999992000092400004-08040-034920FM-12+000799999V0201801N001512200019N0020001N1+02471+02071101521ADDAA199000091GF103991031011008001001001KA1240M+02781MA1999999101431MD1999999-0121REMSYN076AAXX  24004 82900 32595 31803 10247 20207 30143 40152 83100 333 10278 59012;EQDQ01  00002PRCP99
0173829000999992000092412004-08040-034920FM-12+000799999V0201801N003110075019N0100001N1+02721+02121101531ADDAA124000591GF106991061021008001001001KA1240N+02061MA1999999101441MD1999999-0111REMSYN082AAXX  24124 82900 22597 61806 10272 20212 30144 40153 86200 333 20206 59011 69964;
0167829000999992000092418004-08040-034920FM-12+000799999V0201801N003112200019N0100001N1+02801+02221101181ADDAA199000091GF102991021011008001001001MA1999999101091MD1999999-0181REMSYN070AAXX  24184 82900 32597 21806 10280 20222 30109 40118 82100 333 59018;EQDQ01  00002PRCP99
0201829000999992000092500004-08040-034920FM-12+000799999V0201401N003110075019N0020001N1+02521+02231101411ADDAA106000191AY151061AY221061GF106991061071008001001001KA1240M+02861MA1999999101321MD1999999-0111MW1031REMSYN088AAXX  25004 82900 21595 61406 10252 20223 30132 40141 70352 86700 333 10286 59011 69911;
0167829000999992000092518004-08040-034920FM-12+000799999V0201401N002110450019N0100001N1+02691+02171101411ADDAA199000091GF106991041021008001031001MA1999999101321MD1999999-0201REMSYN070AAXX  25184 82900 32597 61404 10269 20217 30132 40141 84230 333 59020;EQDQ01  00002PRCP99
0186829000999992000092600004-08040-034920FM-12+000799999V0201401N000510075019N0020001N1+02531+02151101601ADDAA199000091GF106991061021008001001001KA1240M+03501MA1999999101511MD1999999+0131REMSYN076AAXX  26004 82900 32595 61401 10253 20215 30151 40160 86200 333 10350 58013;EQDQ01  00002PRCP99
0167829000999992000092618004-08040-034920FM-12+000799999V0201401N003110075019N0100001N1+02761+02141101481ADDAA199000091GF106991051061008001041001MA1999999101391MD1999999+0051REMSYN070AAXX  26184 82900 32597 61406 10276 20214 30139 40148 85640 333 58005;EQDQ01  00002PRCP99
0186829000999992000092700004-08040-034920FM-12+000799999V0201801N001512200019N0020001N1+02531+02231101711ADDAA199000091GF104991041031008001001001KA1240M+02861MA1999999101621MD1999999+0111REMSYN076AAXX  27004 82900 32595 41803 10253 20223 30162 40171 84300 333 10286 58011;EQDQ01  00002PRCP99
0201829000999992000092712004-08040-034920FM-12+000799999V0201401N001510075019N0100001N1+02811+02181101801ADDAA124000591AY161061AY201061GF105991051021008001001001KA1240N+02061MA1999999101711MD1999999-0051MW1021REMSYN088AAXX  27124 82900 21597 51403 10281 20218 30171 40180 70260 85200 333 20206 59005 69964;
0167829000999992000092718004-08040-034920FM-12+000799999V0201401N003110075019N0100001N1+02701+02111101421ADDAA199000091GF106991061021008001001001MA1999999101331MD1999999-0061REMSYN070AAXX  27184 82900 32597 61406 10270 20211 30133 40142 86200 333 59006;EQDQ01  00002PRCP99
0186829000999992000092800004-08040-034920FM-12+000799999V0201801N002110075019N0020001N1+02581+02211101611ADDAA199000091GF106991061021008001001001KA1240M+02901MA1999999101521MD1999999-0101REMSYN076AAXX  28004 82900 32595 61804 10258 20221 30152 40161 86200 333 10290 59010;EQDQ01  00002PRCP99
0201829000999992000092812004-08040-034920FM-12+000799999V0201401N005110075019N0100001N1+02701+02151101661ADDAA124004191AY161061AY221061GF106991061031008001001001KA1240N+02261MA1999999101571MD1999999-0141MW1031REMSYN088AAXX  28124 82900 21597 61410 10270 20215 30157 40166 70362 86300 333 20226 59014 60044;
0167829000999992000092818004-08040-034920FM-12+000799999V0201401N004610075019N0100001N1+02701+02171101371ADDAA199000091GF106991061021008001001001MA1999999101281MD1999999-0051REMSYN070AAXX  28184 82900 32597 61409 10270 20217 30128 40137 86200 333 59005;EQDQ01  00002PRCP99
0186829000999992000092900004-08040-034920FM-12+000799999V0201801N002610075019N0020001N1+02561+02061101661ADDAA199000091GF105991051021008001001001KA1240M+02841MA1999999101571MD1999999+0051REMSYN076AAXX  29004 82900 32595 51805 10256 20206 30157 40166 85200 333 10284 58005;EQDQ01  00002PRCP99
0186829000999992000092912004-08040-034920FM-12+000799999V0201801N003110075019N0100001N1+02711+02191101681ADDAA199000091GF106991061021008001001001KA1240N+02161MA1999999101591MD1999999+0021REMSYN076AAXX  29124 82900 32597 61806 10271 20219 30159 40168 86200 333 20216 58002;EQDQ01  00002PRCP99
0182829000999992000092918004-08040-034920FM-12+000799999V0201801N003610450019N0100001N1+02731+02151101421ADDAA106000891AY161061AY221061GF105991031021008001031001MA1999999101331MD1999999+0051MW1021REMSYN082AAXX  29184 82900 21597 51807 10273 20215 30133 40142 70262 83230 333 58005 69981;
0201829000999992000093000004-08040-034920FM-12+000799999V0201801N003110075019N0020001N1+02591+02141101661ADDAA106001091AY161061AY221061GF105991051021008001001001KA1240M+02861MA1999999101571MD1999999+0001MW1031REMSYN088AAXX  30004 82900 21595 51806 10259 20214 30157 40166 70362 85200 333 10286 58000 60011;
0173829000999992000093012004-08040-034920FM-12+000799999V0201801N005110075019N0100001N1+02691+02201101731ADDAA124002091GF105991051021008001001001KA1240N+02491MA1999999101641MD1999999+0051REMSYN082AAXX  30124 82900 22597 51810 10269 20220 30164 40173 85200 333 20249 58005 60024;
0167829000999992000093018004-08040-034920FM-12+000799999V0201801N005110075019N0100001N1+02731+02171101491ADDAA199000091GF107991071071008001001001MA1999999101401MD1999999+0071REMSYN070AAXX  30184 82900 32597 71810 10273 20217 30140 40149 87700 333 58007;EQDQ01  00002PRCP99
0186829000999992000100100004-08040-034920FM-12+000799999V0201801N004610075019N0020001N1+02581+02061101851ADDAA199000091GF107991071071008001001001KA1240M+02881MA1999999101761MD1999999+0191REMSYN076AAXX  01004 82900 32595 71809 10258 20206 30176 40185 87700 333 10288 58019;EQDQ01  00002PRCP99
0186829000999992000100112004-08040-034920FM-12+000799999V0201401N003110075019N0100001N1+02731+02141101771ADDAA199000091GF106991061021008001001001KA1240N+02071MA1999999101681MD1999999+0041REMSYN076AAXX  01124 82900 32597 61406 10273 20214 30168 40177 86200 333 20207 58004;EQDQ01  00002PRCP99
0199829000999992000100118004-08040-034920FM-12+000799999V0201401N003110075019N0100001N1+02771+01981101461ADDAA199000091GF105991051021008001001001MA1999999999999MD1999999-0031REMSYN070AAXX  01184 82900 32597 51406 10277 20198 39013 40146 85200 333 59003;EQDQ01+090133APOSP Q02  00002PRCP99Q03 090133APOSP 
0186829000999992000100200004-08040-034920FM-12+000799999V0201801N003110075019N0200001N1+02561+02151101581ADDAA199000091GF105991051021008001001001KA1240M+02901MA1999999101491MD1999999-0271REMSYN076AAXX  02004 82900 32598 51806 10256 20215 30149 40158 85200 333 10290 59027;EQDQ01  00002PRCP99
0201829000999992000100212004-08040-034920FM-12+000799999V0201801N005712200019N0100001N1+02781+02041101771ADDAA124000191AY161061AY221061GF103991031021008001001001KA1240N+02441MA1999999101681MD1999999+0001MW1021REMSYN088AAXX  02124 82900 21597 31811 10278 20204 30168 40177 70262 83200 333 20244 58000 69924;
0186829000999992000100300004-08040-034920FM-12+000799999V0201801N003112200019N0020001N1+02761+02251101691ADDAA199000091GF102991021021008001001001KA1240M+02961MA1999999101601MD1999999+0111REMSYN076AAXX  03004 82900 32595 21806 10276 20225 30160 40169 82200 333 10296 58011;EQDQ01  00002PRCP99
0186829000999992000100312004-08040-034920FM-12+000799999V0201401N003610075019N0100001N1+02771+02161101611ADDAA199000091GF105991051021008001001001KA1240N+02641MA1999999101521MD1999999-0161REMSYN076AAXX  03124 82900 32597 51407 10277 20216 30152 40161 85200 333 20264 59016;EQDQ01  00002PRCP99
0167829000999992000100318004-08040-034920FM-12+000799999V0201801N002612200019N0100001N1+02861+02031101311ADDAA199000091GF103991021021008001031001MA1999999101221MD1999999-0121REMSYN070AAXX  03184 82900 32597 31805 10286 20203 30122 40131 82230 333 59012;EQDQ01  00002PRCP99
0186829000999992000100400004-08040-034920FM-12+000799999V0209999C000012200019N0020001N1+02691+02201101561ADDAA199000091GF102991021011008001001001KA1240M+02951MA1999999101471MD1999999-0101REMSYN076AAXX  04004 82900 32595 20000 10269 20220 30147 40156 82100 333 10295 59010;EQDQ01  00002PRCP99
0186829000999992000100412004-08040-034920FM-12+000799999V0201401N002610075019N0100001N1+02821+02201101541ADDAA199000091GF106991051041008001021001KA1240N+02241MA1999999101451MD1999999-0071REMSYN076AAXX  04124 82900 32597 61405 10282 20220 30145 40154 85420 333 20224 59007;EQDQ01  00002PRCP99
0167829000999992000100418004-08040-034920FM-12+000799999V0201401N004112200019N0100001N1+02901+02151101191ADDAA199000091GF103991031021008001001001MA1999999101101MD1999999-0121REMSYN070AAXX  04184 82900 32597 31408 10290 20215 30110 40119 83200 333 59012;EQDQ01  00002PRCP99
0186829000999992000100500004-08040-034920FM-12+000799999V0201401N001512200019N0020001N1+02581+02231101361ADDAA199000091GF102991021011008001001001KA1240M+02981MA1999999101271MD1999999-0201REMSYN076AAXX  05004 82900 32595 21403 10258 20223 30127 40136 82100 333 10298 59020;EQDQ01  00002PRCP99
0186829000999992000100512004-08040-034920FM-12+000799999V0200901N003110075019N0100001N1+02761+02041101471ADDAA199000091GF105991051021008001001001KA1240N+02161MA1999999101381MD1999999-0071REMSYN076AAXX  05124 82900 32597 50906 10276 20204 30138 40147 85200 333 20216 59007;EQDQ01  00002PRCP99
0167829000999992000100518004-08040-034920FM-12+000799999V0200901N003110075019N0100001N1+02831+02121101171ADDAA199000091GF105991051021008001001001MA1999999101081MD1999999-0021REMSYN070AAXX  05184 82900 32597 50906 10283 20212 30108 40117 85200 333 59002;EQDQ01  00002PRCP99
0186829000999992000100600004-08040-034920FM-12+000799999V0209999C000012200019N0020001N1+02361+02201101451ADDAA199000091GF103991031021008001001001KA1240M+03001MA1999999101361MD1999999+0091REMSYN076AAXX  06004 82900 32595 30000 10236 20220 30136 40145 83200 333 10300 58009;EQDQ01  00002PRCP99
0186829000999992000100612004-08040-034920FM-12+000799999V0201401N005110075019N0100001N1+02801+02081101451ADDAA199000091GF105991051021008001001001KA1240N+02051MA1999999101361MD1999999-0021REMSYN076AAXX  06124 82900 32597 51410 10280 20208 30136 40145 85200 333 20205 59002;EQDQ01  00002PRCP99
0167829000999992000100618004-08040-034920FM-12+000799999V0201401N001510075019N0100001N1+02841+02041101131ADDAA199000091GF105991051021008001001001MA1999999101041MD1999999-0041REMSYN070AAXX  06184 82900 32597 51403 10284 20204 30104 40113 85200 333 59004;EQDQ01  00002PRCP99
0186829000999992000100700004-08040-034920FM-12+000799999V0201401N003112200019N0020001N1+02561+02061101421ADDAA199000091GF103991031021008001001001KA1240M+02941MA1999999101331MD1999999-0031REMSYN076AAXX  07004 82900 32595 31406 10256 20206 30133 40142 83200 333 10294 59003;EQDQ01  00002PRCP99
0201829000999992000100712004-08040-034920FM-12+000799999V0201401N004112200019N0100001N1+02801+01981101611ADDAA124001091AY161061AY221061GF104991041021008001001001KA1240N+02141MA1999999101521MD1999999+0061MW1021REMSYN088AAXX  07124 82900 21597 41408 10280 20198 30152 40161 70262 84200 333 20214 58006 60014;
0167829000999992000100718004-08040-034920FM-12+000799999V0201401N001512200019N0100001N1+02791+02061101331ADDAA199000091GF103991031021008001001001MA1999999101241MD1999999-0091REMSYN070AAXX  07184 82900 32597 31403 10279 20206 30124 40133 83200 333 59009;EQDQ01  00002PRCP99
0186829000999992000100800004-08040-034920FM-12+000799999V0201401N003110075019N0020001N1+02611+02061101511ADDAA199000091GF106991061071008001001001KA1240M+02901MA1999999101511MD1999999+0181REMSYN076AAXX  08004 82900 32595 61406 10261 20206 30151 40151 86700 333 10290 58018;EQDQ01  00002PRCP99
0201829000999992000100812004-08040-034920FM-12+000799999V0201401N003110075019N0100001N1+02781+02091101751ADDAA124003091AY161061AY221061GF107991061071008001021001KA1240N+02261MA1999999101661MD1999999+0141MW1031REMSYN088AAXX  08124 82900 21597 71406 10278 20209 30166 40175 70362 86720 333 20226 58014 60034;
0167829000999992000100818004-08040-034920FM-12+000799999V0201401N003110075019N0100001N1+02811+02081101361ADDAA199000091GF106991061021008001001001MA1999999101271MD1999999+0031REMSYN070AAXX  08184 82900 32597 61406 10281 20208 30127 40136 86200 333 58003;EQDQ01  00002PRCP99
0186829000999992000100912004-08040-034920FM-12+000799999V0201401N005110075019N0100001N1+02791+02111101711ADDAA199000091GF105991051021008001001001KA1240N+02281MA1999999101621MD1999999-0041REMSYN076AAXX  09124 82900 32597 51410 10279 20211 30162 40171 85200 333 20228 59004;EQDQ01  00002PRCP99
0182829000999992000100918004-08040-034920FM-12+000799999V0201801N003612200019N0100001N1+02771+02111101391ADDAA106000591AY161061AY221061GF104991041021008001001001MA1999999101301MD1999999+0031MW1021REMSYN082AAXX  09184 82900 21597 41807 10277 20211 30130 40139 70262 84200 333 58003 69951;
0186829000999992000101000004-08040-034920FM-12+000799999V0201801N004612200019N0020001N1+02551+02101101631ADDAA199000091GF103991031021008001001001KA1240M+02901MA1999999101541MD1999999+0021REMSYN076AAXX  10004 82900 32595 31809 10255 20210 30154 40163 83200 333 10290 58002;EQDQ01  00002PRCP99
0201829000999992000101012004-08040-034920FM-12+000799999V0201801N005110075019N0100001N1+02641+02121101491ADDAA124000591AY151061AY221061GF106991061041008001001001KA1240N+02541MA1999999101401MD1999999-0221MW1011REMSYN088AAXX  10124 82900 21597 61810 10264 20212 30140 40149 70152 86400 333 20254 59022 69944;
0167829000999992000101018004-08040-034920FM-12+000799999V0201801N006210075019N0100001N1+02801+01921101221ADDAA199000091GF107991061021008001031001MA1999999101131MD1999999-0171REMSYN070AAXX  10184 82900 32597 71812 10280 20192 30113 40122 86230 333 59017;EQDQ01  00002PRCP99
0186829000999992000101100004-08040-034920FM-12+000799999V0201801N005110075019N0020001N1+02651+02071101511ADDAA199000091GF107991071071008001001001KA1240M+02931MA1999999101421MD1999999-0121REMSYN076AAXX  11004 82900 32595 71810 10265 20207 30142 40151 87700 333 10293 59012;EQDQ01  00002PRCP99
0201829000999992000101112004-08040-034920FM-12+000799999V0201401N003110075019N0100001N1+02391+02351101541ADDAA124015091AY161061AY261061GF108991081051008001999999KA1240N+02301MA1999999101451MD1999999+0051MW1031REMSYN088AAXX  11124 82900 21597 81406 10239 20235 30145 40154 70366 885// 333 20230 58005 60154;
0182829000999992000101118004-08040-034920FM-12+000799999V0201801N003610075019N0100001N1+02701+02301101241ADDAA106007991AY161061AY221061GF106991061031008001001001MA1999999101151MD1999999+0021MW1631REMSYN082AAXX  11184 82900 21597 61807 10270 20230 30115 40124 76362 86300 333 58002 60081;
0220829000999992000101200004-08040-034920FM-12+000799999V0201801N003110075019N0020001N1+02531+02271101561ADDAA106000591AY151061AY221061GF107991999071008001001001KA1240M+02801MA1999999101471MD1999999+0021MW1031REMSYN088AAXX  12004 82900 21595 71806 10253 20227 30147 40156 70352 85700 333 10280 58002 69941;EQDQ01+000052SCOTLC
0173829000999992000101212004-08040-034920FM-12+000799999V0201401N005110075019N0100001N1+02791+02181101501ADDAA124008991GF106991061021008001001001KA1240N+02131MA1999999101411MD1999999-0041REMSYN082AAXX  12124 82900 22597 61410 10279 20218 30141 40150 86200 333 20213 59004 60094;
0167829000999992000101218004-08040-034920FM-12+000799999V0201801N003110075019N0100001N1+02781+02061101291ADDAA199000091GF106991061021008001001001MA1999999101201MD1999999+0051REMSYN070AAXX  12184 82900 32597 61806 10278 20206 30120 40129 86200 333 58005;EQDQ01  00002PRCP99
0186829000999992000101300004-08040-034920FM-12+000799999V0201801N003110075019N0020001N1+02591+02011101561ADDAA199000091GF105991051021008001001001KA1240M+02881MA1999999101471MD1999999+0001REMSYN076AAXX  13004 82900 32595 51806 10259 20201 30147 40156 85200 333 10288 58000;EQDQ01  00002PRCP99
0201829000999992000101312004-08040-034920FM-12+000799999V0201801N004110075019N0100001N1+02601+02251101851ADDAA124006191AY161061AY221061GF108991081071008001001001KA1240N+02201MA1999999101761MD1999999+0351MW1031REMSYN088AAXX  13124 82900 21597 81808 10260 20225 30176 40185 70362 88700 333 20220 58035 60064;
0182829000999992000101318004-08040-034920FM-12+000799999V0201801N005710450019N0100001N1+02701+02221101451ADDAA106003091AY161061AY261061GF105991041041008001021001MA1999999101361MD1999999+0161MW1011REMSYN082AAXX  13184 82900 21597 51811 10270 20222 30136 40145 70166 84420 333 58016 60031;
0186829000999992000101400004-08040-034920FM-12+000799999V0201401N003110075019N0020001N1+02581+02081101761ADDAA199000091GF105991051021008001001001KA1240M+02821MA1999999101671MD1999999+0201REMSYN076AAXX  14004 82900 32595 51406 10258 20208 30167 40176 85200 333 10282 58020;EQDQ01  00002PRCP99
0201829000999992000101412004-08040-034920FM-12+000799999V0201801N004610075019N0100001N1+02701+02131101681ADDAA124006191AY161061AY221061GF106991061021008001001001KA1240N+02161MA1999999101591MD1999999-0171MW1031REMSYN088AAXX  14124 82900 21597 61809 10270 20213 30159 40168 70362 86200 333 20216 59017 60064;
0167829000999992000101418004-08040-034920FM-12+000799999V0201801N005710075019N0100001N1+02721+02031101451ADDAA199000091GF106991061021008001001001MA1999999101361MD1999999+0001REMSYN070AAXX  14184 82900 32597 61811 10272 20203 30136 40145 86200 333 58000;EQDQ01  00002PRCP99
0202829000999992000101500004-08040-034920FM-12+000799999V0201801N002619999999N0020001N1+02541+02091101651ADDAA199000091GF106991999021008001001001KA1240M+02851MA1999999101561MD1999999-0111REMSYN076AAXX  15004 82900 32595 61805 10254 20209 30156 40165 83200 333 10285 59011;EQDQ01+000032SCOTLCQ02  00002PRCP99
0186829000999992000101512004-08040-034920FM-12+000799999V0201801N002610075019N0100001N1+02691+02131101531ADDAA199000091GF106991061021008001001001KA1240N+02001MA1999999101451MD1999999-0161REMSYN076AAXX  15124 82900 32597 61805 10269 20213 30145 40153 86200 333 20200 59016;EQDQ01  00002PRCP99
0186829000999992000101600004-08040-034920FM-12+000799999V0201801N002110075019N0020001N1+02571+02121101591ADDAA199000091GF105991051021008001001001KA1240M+02901MA1999999101501MD1999999-0061REMSYN076AAXX  16004 82900 32595 51804 10257 20212 30150 40159 85200 333 10290 59006;EQDQ01  00002PRCP99
0201829000999992000101612004-08040-034920FM-12+000799999V0201401N005110450019N0100001N1+02781+02161101691ADDAA124001091AY161061AY221061GF105991041041008001021001KA1240N+02241MA1999999101601MD1999999+0171MW1011REMSYN088AAXX  16124 82900 21597 51410 10278 20216 30160 40169 70162 84420 333 20224 58017 60014;
0167829000999992000101618004-08040-034920FM-12+000799999V0201801N005110075019N0100001N1+02771+02161101481ADDAA199000091GF106991051031008001021001MA1999999101391MD1999999+0171REMSYN070AAXX  16184 82900 32597 61810 10277 20216 30139 40148 85320 333 58017;EQDQ01  00002PRCP99
0201829000999992000101700004-08040-034920FM-12+000799999V0201801N002612200019N0020001N1+02561+02171101671ADDAA106000191AY151061AY221061GF104991041021008001001001KA1240M+02921MA1999999101581MD1999999+0081MW1011REMSYN088AAXX  17004 82900 21595 41805 10256 20217 30158 40167 70152 84200 333 10292 58008 69911;
0173829000999992000101712004-08040-034920FM-12+000799999V0201801N003110075019N0100001N1+02691+02061101691ADDAA124000191GF106991061021008001001001KA1240N+02061MA1999999101601MD1999999+0001REMSYN082AAXX  17124 82900 22597 61806 10269 20206 30160 40169 86200 333 20206 58000 69914;
0186829000999992000101800004-08040-034920FM-12+000799999V0201801N003110075019N0020001N1+02611+02121101801ADDAA199000091GF107991071071008001001001KA1240M+02861MA1999999101711MD1999999+0131REMSYN076AAXX  18004 82900 32595 71806 10261 20212 30171 40180 87700 333 10286 58013;EQDQ01  00002PRCP99
0201829000999992000101812004-08040-034920FM-12+000799999V0201801N005110075019N0100001N1+02761+02161101881ADDAA124007191AY161061AY221061GF106991061021008001001001KA1240N+02321MA1999999101791MD1999999+0191MW1021REMSYN088AAXX  18124 82900 21597 61810 10276 20216 30179 40188 70262 86200 333 20232 58019 60074;
0183829000999992000101818004-08040-034920FM-12+000799999V0201801N005119999999N0100001N1+02751+01971101521ADDAA199000091GF106991999031008001001001MA1999999101431MD1999999+0011REMSYN070AAXX  18184 82900 32597 61810 10275 20197 30143 40152 84300 333 58001;EQDQ01+000042SCOTLCQ02  00002PRCP99
0201829000999992000101900004-08040-034920FM-12+000799999V0201801N001510075019N0020001N1+02441+02211101771ADDAA106001091AY161061AY221061GF107991071071008001001001KA1240M+02891MA1999999101681MD1999999-0031MW1011REMSYN088AAXX  19004 82900 21595 71803 10244 20221 30168 40177 70162 87700 333 10289 59003 60011;
0173829000999992000101912004-08040-034920FM-12+000799999V0201401N003110075019N0100001N1+02701+01911101721ADDAA124001091GF106991061021008001001001KA1240N+02191MA1999999101631MD1999999-0161REMSYN082AAXX  19124 82900 22597 61406 10270 20191 30163 40172 86200 333 20219 59016 60014;
0167829000999992000101918004-08040-034920FM-12+000799999V0201401N003112200019N0100001N1+02721+02051101421ADDAA199000091GF104991041021008001001001MA1999999101331MD1999999-0101REMSYN070AAXX  19184 82900 32597 41406 10272 20205 30133 40142 84200 333 59010;EQDQ01  00002PRCP99
0186829000999992000102000004-08040-034920FM-12+000799999V0201801N002610075019N0020001N1+02561+02081101601ADDAA199000091GF107991071071008001001001KA1240M+02871MA1999999101511MD1999999-0171REMSYN076AAXX  20004 82900 32595 71805 10256 20208 30151 40160 87700 333 10287 59017;EQDQ01  00002PRCP99
0201829000999992000102012004-08040-034920FM-12+000799999V0201401N004610075019N0100001N1+02691+02091101521ADDAA124000391AY151061AY221061GF107991061071008001021001KA1240N+02501MA1999999101431MD1999999+0101MW1031REMSYN088AAXX  20124 82900 21597 71409 10269 20209 30143 40152 70352 86720 333 20250 58010 69934;
0167829000999992000102018004-08040-034920FM-12+000799999V0201401N002110075019N0100001N1+02721+02151101341ADDAA199000091GF105991051021008001001001MA1999999101251MD1999999-0081REMSYN070AAXX  20184 82900 32597 51404 10272 20215 30125 40134 85200 333 59008;EQDQ01  00002PRCP99
0186829000999992000102100004-08040-034920FM-12+000799999V0201401N003110075019N0020001N1+02601+02141101491ADDAA199000091GF107991071071008001001001KA1240M+02871MA1999999101401MD1999999-0111REMSYN076AAXX  21004 82900 32595 71406 10260 20214 30140 40149 87700 333 10287 59011;EQDQ01  00002PRCP99
0186829000999992000102112004-08040-034920FM-12+000799999V0201401N003110075019N0100001N1+02731+02151101421ADDAA199000091GF106991061021008001001001KA1240N+02501MA1999999101331MD1999999-0101REMSYN076AAXX  21124 82900 32597 61406 10273 20215 30133 40142 86200 333 20250 59010;EQDQ01  00002PRCP99
0167829000999992000102118004-08040-034920FM-12+000799999V0201401N002110450019N0100001N1+02721+02081101201ADDAA199000091GF106991041021008001031001MA1999999101111MD1999999-0141REMSYN070AAXX  21184 82900 32597 61404 10272 20208 30111 40120 84230 333 59014;EQDQ01  00002PRCP99
0186829000999992000102200004-08040-034920FM-12+000799999V0201401N001510075019N0020001N1+02601+02101101361ADDAA199000091GF107991071021008001001001KA1240M+02991MA1999999101271MD1999999-0131REMSYN076AAXX  22004 82900 32595 71403 10260 20210 30127 40136 87200 333 10299 59013;EQDQ01  00002PRCP99
0186829000999992000102212004-08040-034920FM-12+000799999V0201401N004610075019N0100001N1+02821+02151101391ADDAA199000091GF106991061021008001001001KA1240N+02501MA1999999101301MD1999999-0031REMSYN076AAXX  22124 82900 32597 61409 10282 20215 30130 40139 86200 333 20250 59003;EQDQ01  00002PRCP99
0167829000999992000102218004-08040-034920FM-12+000799999V0201401N003110075019N0100001N1+02751+02161101241ADDAA199000091GF106991061021008001001001MA1999999101151MD1999999-0121REMSYN070AAXX  22184 82900 32597 61406 10275 20216 30115 40124 86200 333 59012;EQDQ01  00002PRCP99
0186829000999992000102300004-08040-034920FM-12+000799999V0201401N001510075019N0020001N1+02571+02191101451ADDAA199000091GF105991051021008001001001KA1240M+02951MA1999999101361MD1999999+0091REMSYN076AAXX  23004 82900 32595 51403 10257 20219 30136 40145 85200 333 10295 58009;EQDQ01  00002PRCP99
0186829000999992000102312004-08040-034920FM-12+000799999V0201401N003110075019N0100001N1+02711+02261101491ADDAA199000091GF106991061021008001001001KA1240N+02251MA1999999101401MD1999999+0101REMSYN076AAXX  23124 82900 32597 61406 10271 20226 30140 40149 86200 333 20225 58010;EQDQ01  00002PRCP99
0167829000999992000102318004-08040-034920FM-12+000799999V0201401N003110075019N0100001N1+02781+02181101271ADDAA199000091GF105991051021008001001001MA1999999101181MD1999999+0031REMSYN070AAXX  23184 82900 32597 51406 10278 20218 30118 40127 85200 333 58003;EQDQ01  00002PRCP99
0186829000999992000102400004-08040-034920FM-12+000799999V0201401N003110075019N0020001N1+02621+02211101441ADDAA199000091GF105991051021008001001001KA1240M+02901MA1999999101351MD1999999-0011REMSYN076AAXX  24004 82900 32595 51406 10262 20221 30135 40144 85200 333 10290 59001;EQDQ01  00002PRCP99
0186829000999992000102412004-08040-034920FM-12+000799999V0201401N005110450019N0100001N1+02811+02081101491ADDAA199000091GF105991041051008001031001KA1240N+02501MA1999999101401MD1999999+0001REMSYN076AAXX  24124 82900 32597 51410 10281 20208 30140 40149 84530 333 20250 58000;EQDQ01  00002PRCP99
0182829000999992000102418004-08040-034920FM-12+000799999V0201401N003110120019N0100001N1+02731+02191101201ADDAA106000591AY101061AY211061GF106991051081008001021001MA1999999101111MD1999999-0071MW1511REMSYN082AAXX  24184 82900 21597 61406 10273 20219 30111 40120 75101 85820 333 59007 69961;
0201829000999992000102500004-08040-034920FM-12+000799999V0201801N003110075019N0020001N1+02601+02141101401ADDAA106000391AY151061AY221061GF106991061021008001001001KA1240M+02921MA1999999101311MD1999999-0041MW1011REMSYN088AAXX  25004 82900 21595 61806 10260 20214 30131 40140 70152 86200 333 10292 59004 69931;
0173829000999992000102512004-08040-034920FM-12+000799999V0201401N001510075019N0100001N1+02811+02131101351ADDAA124001091GF105991051021008001001001KA1240N+02091MA1999999101261MD1999999-0141REMSYN082AAXX  25124 82900 22597 51403 10281 20213 30126 40135 85200 333 20209 59014 69994;
0182829000999992000102518004-08040-034920FM-12+000799999V0201801N002610075019N0100001N1+02641+02091101091ADDAA106000191AY151061AY211061GF106991061021008001001001MA1999999101001MD1999999-0111MW1031REMSYN082AAXX  25184 82900 21597 61805 10264 20209 30100 40109 70351 86200 333 59011 69921;
0201829000999992000102600004-08040-034920FM-12+000799999V0201801N002112200019N0020001N1+02591+02081101351ADDAA106000191AY151061AY221061GF104991041011008001001001KA1240M+02901MA1999999101261MD1999999-0051MW1011REMSYN088AAXX  26004 82900 21595 41804 10259 20208 30126 40135 70152 84100 333 10290 59005 69921;
0173829000999992000102612004-08040-034920FM-12+000799999V0201401N004110075019N0100001N1+02801+02111101451ADDAA124000591GF106991061021008001001001KA1240N+02441MA1999999101361MD1999999+0101REMSYN082AAXX  26124 82900 22597 61408 10280 20211 30136 40145 86200 333 20244 58010 69944;
0167829000999992000102618004-08040-034920FM-12+000799999V0201401N003610075019N0100001N1+02821+02101101151ADDAA199000091GF105991051021008001001001MA1999999101061MD1999999+0061REMSYN070AAXX  26184 82900 32597 51407 10282 20210 30106 40115 85200 333 58006;EQDQ01  00002PRCP99
0186829000999992000102700004-08040-034920FM-12+000799999V0201401N003110075019N0020001N1+02591+02141101401ADDAA199000091GF106991061021008001001001KA1240M+02921MA1999999101311MD1999999+0051REMSYN076AAXX  27004 82900 32595 61406 10259 20214 30131 40140 86200 333 10292 58005;EQDQ01  00002PRCP99
0201829000999992000102712004-08040-034920FM-12+000799999V0201801N002110075019N0100001N1+02721+02181101441ADDAA124003091AY161061AY221061GF105991051021008001001001KA1240N+02291MA1999999101351MD1999999-0011MW1021REMSYN088AAXX  27124 82900 21597 51804 10272 20218 30135 40144 70262 85200 333 20229 59001 60034;
0183829000999992000102718004-08040-034920FM-12+000799999V0201401N003119999999N0100001N1+02741+02181101211ADDAA199000091GF105991999021008001001001MA1999999101121MD1999999+0061REMSYN070AAXX  27184 82900 32597 51406 10274 20218 30112 40121 83200 333 58006;EQDQ01+000032SCOTLCQ02  00002PRCP99
0186829000999992000102800004-08040-034920FM-12+000799999V0201401N003110075019N0020001N1+02621+02211101451ADDAA199000091GF106991061021008001001001KA1240M+02891MA1999999101361MD1999999+0051REMSYN076AAXX  28004 82900 32595 61406 10262 20221 30136 40145 86200 333 10289 58005;EQDQ01  00002PRCP99
0201829000999992000102812004-08040-034920FM-12+000799999V0201401N001510450019N0100001N1+02681+02261101531ADDAA124000391AY161061AY221061GF105991031021008001031001KA1240N+02481MA1999999101441MD1999999+0091MW1021REMSYN088AAXX  28124 82900 21597 51403 10268 20226 30144 40153 70262 83230 333 20248 58009 69934;
0167829000999992000102818004-08040-034920FM-12+000799999V0201401N003110450019N0100001N1+02831+02201101211ADDAA199000091GF106991041021008001051001MA1999999101121MD1999999+0001REMSYN070AAXX  28184 82900 32597 61406 10283 20220 30112 40121 84250 333 58000;EQDQ01  00002PRCP99
0186829000999992000102900004-08040-034920FM-12+000799999V0200901N003610075019N0020001N1+02611+02211101491ADDAA199000091GF106991061021008001001001KA1240M+02951MA1999999101401MD1999999+0041REMSYN076AAXX  29004 82900 32595 60907 10261 20221 30140 40149 86200 333 10295 58004;EQDQ01  00002PRCP99
0186829000999992000102912004-08040-034920FM-12+000799999V0201401N003110075019N0100001N1+02691+02261101431ADDAA199000091GF106991061021008001001001KA1240N+02181MA1999999101341MD1999999-0101REMSYN076AAXX  29124 82900 32597 61406 10269 20226 30134 40143 86200 333 20218 59010;EQDQ01  00002PRCP99
0167829000999992000102918004-08040-034920FM-12+000799999V0201401N003110075019N0100001N1+02841+02121101171ADDAA199000091GF105991051021008001001001MA1999999101081MD1999999-0041REMSYN070AAXX  29184 82900 32597 51406 10284 20212 30108 40117 85200 333 59004;EQDQ01  00002PRCP99
0186829000999992000103000004-08040-034920FM-12+000799999V0201401N001510075019N0020001N1+02631+02161101421ADDAA199000091GF107991071071008001001001KA1240M+02941MA1999999101331MD1999999-0071REMSYN076AAXX  30004 82900 32595 71403 10263 20216 30133 40142 87700 333 10294 59007;EQDQ01  00002PRCP99
0201829000999992000103012004-08040-034920FM-12+000799999V0201401N004110075019N0100001N1+02861+02191101501ADDAA124000191AY161061AY221061GF106991061021008001001001KA1240N+02441MA1999999101411MD1999999+0071MW1021REMSYN088AAXX  30124 82900 21597 61408 10286 20219 30141 40150 70262 86200 333 20244 58007 69914;
0167829000999992000103018004-08040-034920FM-12+000799999V0201401N005112200019N0100001N1+02771+02131101241ADDAA199000091GF104991041021008001001001MA1999999101171MD1999999+0061REMSYN070AAXX  30184 82900 32597 41410 10277 20213 30117 40124 84200 333 58006;EQDQ01  00002PRCP99
0186829000999992000103100004-08040-034920FM-12+000799999V0201401N003110075019N0020001N1+02621+02141101411ADDAA199000091GF106991061021008001001001KA1240M+02901MA1999999101321MD1999999-0011REMSYN076AAXX  31004 82900 32595 61406 10262 20214 30132 40141 86200 333 10290 59001;EQDQ01  00002PRCP99
0186829000999992000103112004-08040-034920FM-12+000799999V0201401N002110075019N0100001N1+02671+02181101421ADDAA199000091GF105991051021008001001001KA1240N+02391MA1999999101331MD1999999-0081REMSYN076AAXX  31124 82900 32597 51404 10267 20218 30133 40142 85200 333 20239 59008;EQDQ01  00002PRCP99
0167829000999992000103118004-08040-034920FM-12+000799999V0201801N002612200019N0100001N1+03841+02181101211ADDAA199000091GF104991041021008001001001MA1999999101121MD1999999-0021REMSYN070AAXX  31184 82900 32597 41805 10384 20218 30112 40121 84200 333 59002;EQDQ01  00002PRCP99
0186829000999992000110100004-08040-034920FM-12+000799999V0201801N003110075019N0020001N1+02621+02211101311ADDAA199000091GF105991051021008001001001KA1240M+03971MA1999999101221MD1999999-0101REMSYN076AAXX  01004 82900 32595 51806 10262 20221 30122 40131 85200 333 10397 59010;EQDQ01  00002PRCP99
0186829000999992000110112004-08040-034920FM-12+000799999V0201401N002610075019N0100001N1+02841+02171101301ADDAA199000091GF106991051041008001021001KA1240N+02241MA1999999101211MD1999999-0121REMSYN076AAXX  01124 82900 32597 61405 10284 20217 30121 40130 85420 333 20224 59012;EQDQ01  00002PRCP99
0183829000999992000110118004-08040-034920FM-12+000799999V0201401N004112200019N0100001N1+02871+02191100991ADDAA199000091GF104991999031008001021001MA1999999100901MD1999999-0221REMSYN070AAXX  01184 82900 32597 41408 10287 20219 30090 40099 88320 333 59022;EQDQ01+000082SCOTLCQ02  00002PRCP99
0186829000999992000110200004-08040-034920FM-12+000799999V0201801N003110075019N0020001N1+02611+02141101241ADDAA199000091GF106991061021008001001001KA1240M+02991MA1999999101151MD1999999-0071REMSYN076AAXX  02004 82900 32595 61806 10261 20214 30115 40124 86200 333 10299 59007;EQDQ01  00002PRCP99
0186829000999992000110212004-08040-034920FM-12+000799999V0201401N003110075019N0100001N1+02871+02231101221ADDAA199000091GF106991061021008001001001KA1240N+02161MA1999999101131MD1999999-0081REMSYN076AAXX  02124 82900 32597 61406 10287 20223 30113 40122 86200 333 20216 59008;EQDQ01  00002PRCP99
0167829000999992000110218004-08040-034920FM-12+000799999V0201401N003110075019N0100001N1+02841+02091100951ADDAA199000091GF105991051021008001001001MA1999999100861MD1999999-0041REMSYN070AAXX  02184 82900 32597 51406 10284 20209 30086 40095 85200 333 59004;EQDQ01  00002PRCP99
0186829000999992000110300004-08040-034920FM-12+000799999V0201401N003110075019N0020001N1+02621+02231101181ADDAA199000091GF106991061021008001001001KA1240M+02971MA1999999101091MD1999999-0061REMSYN076AAXX  03004 82900 32595 61406 10262 20223 30109 40118 86200 333 10297 59006;EQDQ01  00002PRCP99
0201829000999992000110312004-08040-034920FM-12+000799999V0201401N003110075019N0100001N1+02761+02161101111ADDAA124002091AY161061AY221061GF106991061021008001001001KA1240N+02451MA1999999101021MD1999999-0111MW1021REMSYN088AAXX  03124 82900 21597 61406 10276 20216 30102 40111 70262 86200 333 20245 59011 60024;
0183829000999992000110318004-08040-034920FM-12+000799999V0201401N003119999999N0100001N1+02831+02141100921ADDAA199000091GF105991999021008001001001MA1999999100831MD1999999-0031REMSYN070AAXX  03184 82900 32597 51406 10283 20214 30083 40092 83200 333 59003;EQDQ01+000032SCOTLCQ02  00002PRCP99
0186829000999992000110400004-08040-034920FM-12+000799999V0201401N002110075019N0020001N1+02621+02211101151ADDAA199000091GF107991071021008001001001KA1240M+02931MA1999999101061MD1999999-0031REMSYN076AAXX  04004 82900 32595 71404 10262 20221 30106 40115 87200 333 10293 59003;EQDQ01  00002PRCP99
0167829000999992000110412004-08040-034920FM-12+000799999V0201401N004110075019N0100001N1+02881+02131101061ADDAA199000091GF106991061021008001001001MA1999999100971MD1999999-0051REMSYN070AAXX  04124 82900 32597 61408 10288 20213 30097 40106 86200 333 59005;EQDQ01  00002PRCP99
0167829000999992000110418004-08040-034920FM-12+000799999V0201401N003110075019N0100001N1+02861+02031100791ADDAA199000091GF105991051021008001001001MA1999999100701MD1999999-0131REMSYN070AAXX  04184 82900 32597 51406 10286 20203 30070 40079 85200 333 59013;EQDQ01  00002PRCP99
0186829000999992000110500004-08040-034920FM-12+000799999V0200901N003112200019N0020001N1+02611+02101101021ADDAA199000091GF102991021011008001001001KA1240M+02961MA1999999100931MD1999999-0131REMSYN076AAXX  05004 82900 32595 20906 10261 20210 30093 40102 82100 333 10296 59013;EQDQ01  00002PRCP99
0167829000999992000110518004-08040-034920FM-12+000799999V0201401N003110075019N0100001N1+02831+02071100881ADDAA199000091GF106991061031008001001001MA1999999100791MD1999999+0091REMSYN070AAXX  05184 82900 32597 61406 10283 20207 30079 40088 86300 333 58009;EQDQ01  00002PRCP99
0186829000999992000110600004-08040-034920FM-12+000799999V0200901N003110075019N0020001N1+02621+02211101251ADDAA199000091GF106991061021008001001001KA1240M+03001MA1999999101161MD1999999+0231REMSYN076AAXX  06004 82900 32595 60906 10262 20221 30116 40125 86200 333 10300 58023;EQDQ01  00002PRCP99
0167829000999992000110618004-08040-034920FM-12+000799999V0201401N001510075019N0100001N1+02831+02201101011ADDAA199000091GF105991051021008001001001MA1999999100931MD1999999+0131REMSYN070AAXX  06184 82900 32597 51403 10283 20220 30093 40101 85200 333 58013;EQDQ01  00002PRCP99
0186829000999992000110700004-08040-034920FM-12+000799999V0200901N001512200019N0020001N1+02601+02141101251ADDAA199000091GF104991041021008001001001KA1240M+02941MA1999999101161MD1999999+0001REMSYN076AAXX  07004 82900 32595 40903 10260 20214 30116 40125 84200 333 10294 58000;EQDQ01  00002PRCP99
0186829000999992000110712004-08040-034920FM-12+000799999V0201401N003110075019N0100001N1+02861+02011101021ADDAA199000091GF105991051021008001001001KA1240N+02101MA1999999100931MD1999999+0221REMSYN076AAXX  07124 82900 32597 51406 10286 20201 30093 40102 85200 333 20210 58022;EQDQ01  00002PRCP99
0167829000999992000110718004-08040-034920FM-12+000799999V0201401N003110075019N0100001N1+02881+02031100551ADDAA199000091GF105991051021008001001001MA1999999100681MD1999999-0241REMSYN070AAXX  07184 82900 32597 51406 10288 20203 30068 40055 85200 333 59024;EQDQ01  00002PRCP99
0196829000999992000110800004-08040-034920FM-12+000799999V0200901N001512200019N0020001N1+02591+02121100881ADDAA199000091GA1001+999999999GF100991001001999999001001KA1240M+03041MA1999999100791MD1999999-0371REMSYN070AAXX  08004 82900 32995 00903 10259 20212 30079 40088 333 10304 59037;EQDQ01  00002PRCP99
0186829000999992000110812004-08040-034920FM-12+000799999V0200901N001510075019N0100001N1+02811+02061100961ADDAA199000091GF106991061021008001001001KA1240N+02141MA1999999100871MD1999999-0061REMSYN076AAXX  08124 82900 32597 60903 10281 20206 30087 40096 86200 333 20214 59006;EQDQ01  00002PRCP99
0183829000999992000110818004-08040-034920FM-12+000799999V0201401N004119999999N0100001N1+02851+02091100581ADDAA199000091GF105991999021008001001001MA1999999100491MD1999999-0191REMSYN070AAXX  08184 82900 32597 51408 10285 20209 30049 40058 84200 333 59019;EQDQ01+000042SCOTLCQ02  00002PRCP99
0186829000999992000110912004-08040-034920FM-12+000799999V0200901N001510075019N0100001N1+02781+02161101031ADDAA199000091GF106991061021008001001001KA1240N+02281MA1999999100941MD1999999+0071REMSYN076AAXX  09124 82900 32597 60903 10278 20216 30094 40103 86200 333 20228 58007;EQDQ01  00002PRCP99
0167829000999992000110918004-08040-034920FM-12+000799999V0200901N004110075019N0100001N1+02791+02341100731ADDAA199000091GF107991061041008001021001MA1999999100641MD1999999+0151REMSYN070AAXX  09184 82900 32597 70908 10279 20234 30064 40073 86420 333 58015;EQDQ01  00002PRCP99
0186829000999992000111000004-08040-034920FM-12+000799999V0200901N001510450019N0020001N1+02621+02211100961ADDAA199000091GF106991041011008001031001KA1240M+02921MA1999999100871MD1999999+0121REMSYN076AAXX  10004 82900 32595 60903 10262 20221 30087 40096 84130 333 10292 58012;EQDQ01  00002PRCP99
0201829000999992000111012004-08040-034920FM-12+000799999V0203601N001010075019N0100001N1+02471+02361101121ADDAA124014091AY161061AY261061GF107991051031008001031001KA1240N+02041MA1999999101031MD1999999+0091MW1031REMSYN088AAXX  10124 82900 21597 73602 10247 20236 30103 40112 70366 85330 333 20204 58009 60144;
0182829000999992000111018004-08040-034920FM-12+000799999V0200901N002110075019N0100001N1+02741+02211100911ADDAA106000191AY161061AY221061GF105991051021008001001001MA1999999100921MD1999999+0181MW1021REMSYN082AAXX  10184 82900 21597 50904 10274 20221 30092 40091 70262 85200 333 58018 69921;
0186829000999992000111100004-08040-034920FM-12+000799999V0200901N001510075019N0020001N1+02611+02251101061ADDAA199000091GF105991051021008001001001KA1240M+02821MA1999999100971MD1999999+0101REMSYN076AAXX  11004 82900 32595 50903 10261 20225 30097 40106 85200 333 10282 58010;EQDQ01  00002PRCP99
0201829000999992000111112004-08040-034920FM-12+000799999V0200901N004610075019N0100001N1+02841+02141101161ADDAA124000591AY161061AY221061GF106991061021008001001001KA1240N+02201MA1999999101071MD1999999+0041MW1031REMSYN088AAXX  11124 82900 21597 60909 10284 20214 30107 40116 70362 86200 333 20220 58004 69944;
0167829000999992000111118004-08040-034920FM-12+000799999V0200901N003112200019N0100001N1+02931+02191100861ADDAA199000091GF102991021011008001001001MA1999999100771MD1999999-0051REMSYN070AAXX  11184 82900 32597 20906 10293 20219 30077 40086 82100 333 59005;EQDQ01  00002PRCP99
0186829000999992000111200004-08040-034920FM-12+000799999V0200901N001512200019N0020001N1+02591+02251101051ADDAA199000091GF102991021011008001001001KA1240M+03011MA1999999100961MD1999999-0011REMSYN076AAXX  12004 82900 32595 20903 10259 20225 30096 40105 82100 333 10301 59001;EQDQ01  00002PRCP99
0186829000999992000111212004-08040-034920FM-12+000799999V0200901N003110075019N0100001N1+02801+02201101211ADDAA199000091GF106991061021008001001001KA1240N+02151MA1999999101121MD1999999+0051REMSYN076AAXX  12124 82900 32597 60906 10280 20220 30112 40121 86200 333 20215 58005;EQDQ01  00002PRCP99
0167829000999992000111218004-08040-034920FM-12+000799999V0200901N002110450019N0100001N1+02881+02131100961ADDAA199000091GF105991041021008001021001MA1999999100871MD1999999+0101REMSYN070AAXX  12184 82900 32597 50904 10288 20213 30087 40096 84220 333 58010;EQDQ01  00002PRCP99
0186829000999992000111300004-08040-034920FM-12+000799999V0209999C000012200019N0020001N1+02441+02211101061ADDAA199000091GF102991021011008001001001KA1240M+03001MA1999999100971MD1999999+0011REMSYN076AAXX  13004 82900 32595 20000 10244 20221 30097 40106 82100 333 10300 58001;EQDQ01  00002PRCP99
0186829000999992000111312004-08040-034920FM-12+000799999V0201401N003110450019N0100001N1+02811+02111101201ADDAA199000091GF105991041041008001021001KA1240N+02101MA1999999101111MD1999999-0011REMSYN076AAXX  13124 82900 32597 51406 10281 20211 30111 40120 84420 333 20210 59001;EQDQ01  00002PRCP99
0167829000999992000111318004-08040-034920FM-12+000799999V0200901N001510075019N0100001N1+02851+02071100961ADDAA199000091GF105991051021008001001001MA1999999100841MD1999999+0001REMSYN070AAXX  13184 82900 32597 50903 10285 20207 30084 40096 85200 333 58000;EQDQ01  00002PRCP99
0186829000999992000111400004-08040-034920FM-12+000799999V0200901N001512200019N0020001N1+02551+02151101111ADDAA199000091GF102991021011008001001001KA1240M+02991MA1999999101021MD1999999+0051REMSYN076AAXX  14004 82900 32595 20903 10255 20215 30102 40111 82100 333 10299 58005;EQDQ01  00002PRCP99
0186829000999992000111412004-08040-034920FM-12+000799999V0201401N003110075019N0100001N1+02851+02121101191ADDAA199000091GF105991051021008001001001KA1240N+02001MA1999999101101MD1999999-0011REMSYN076AAXX  14124 82900 32597 51406 10285 20212 30110 40119 85200 333 20200 59001;EQDQ01  00002PRCP99
0167829000999992000111418004-08040-034920FM-12+000799999V0200901N003110450019N0100001N1+02931+01971100901ADDAA199000091GF105991041051012501021001MA1999999100811MD1999999-0061REMSYN070AAXX  14184 82900 32697 50906 10293 20197 30081 40090 84520 333 59006;EQDQ01  00002PRCP99
0186829000999992000111500004-08040-034920FM-12+000799999V0209999C000012200019N0020001N1+02431+02151101261ADDAA199000091GF102991021021008001001001KA1240M+03081MA1999999101171MD1999999+0141REMSYN076AAXX  15004 82900 32595 20000 10243 20215 30117 40126 82200 333 10308 58014;EQDQ01  00002PRCP99
0186829000999992000111512004-08040-034920FM-12+000799999V0200901N002110075019N0100001N1+02841+02091101171ADDAA199000091GF107991071041008001001001KA1240N+02061MA1999999101081MD1999999-0021REMSYN076AAXX  15124 82900 32597 70904 10284 20209 30108 40117 87400 333 20206 59002;EQDQ01  00002PRCP99
0167829000999992000111518004-08040-034920FM-12+000799999V0201401N003110075019N0100001N1+02871+02111100861ADDAA199000091GF105991051011008001001001MA1999999100771MD1999999-0041REMSYN070AAXX  15184 82900 32597 51406 10287 20211 30077 40086 85100 333 59004;EQDQ01  00002PRCP99
0186829000999992000111600004-08040-034920FM-12+000799999V0201401N001512200019N0020001N1+02601+02101101211ADDAA199000091GF103991031021008001001001KA1240M+03011MA1999999101121MD1999999-0051REMSYN076AAXX  16004 82900 32595 31403 10260 20210 30112 40121 83200 333 10301 59005;EQDQ01  00002PRCP99
0186829000999992000111612004-08040-034920FM-12+000799999V0201801N002110075019N0100001N1+02841+02171101361ADDAA199000091GF106991061021008001001001KA1240N+02091MA1999999101271MD1999999+0191REMSYN076AAXX  16124 82900 32597 61804 10284 20217 30127 40136 86200 333 20209 58019;EQDQ01  00002PRCP99
0201829000999992000111618004-08040-034920FM-12+000799999V0201401N003119999999N0100001N1+02851+02171101061ADDAA106000191AY161061AY221061GF106991999021008001001001MA1999999101001MD1999999+0231MW1021REMSYN082AAXX  16184 82900 21597 61406 10285 20217 30100 40106 70262 83200 333 58023 69921;EQDQ01+000032SCOTLC
0186829000999992000111700004-08040-034920FM-12+000799999V0201401N003110075019N0020001N1+02671+02111101331ADDAA199000091GF106991061051008001001001KA1240M+02941MA1999999101241MD1999999+0121REMSYN076AAXX  17004 82900 32595 61406 10267 20211 30124 40133 86500 333 10294 58012;EQDQ01  00002PRCP99
0173829000999992000111712004-08040-034920FM-12+000799999V0201801N005110075019N0100001N1+02871+02191101411ADDAA124000191GF106991061061008001001001KA1240N+02381MA1999999101321MD1999999+0051REMSYN082AAXX  17124 82900 22597 61810 10287 20219 30132 40141 86600 333 20238 58005 69924;
0167829000999992000111718004-08040-034920FM-12+000799999V0201401N005110075019N0100001N1+02871+02191101331ADDAA199000091GF105991051031008001001001MA1999999101241MD1999999+0241REMSYN070AAXX  17184 82900 32597 51410 10287 20219 30124 40133 85300 333 58024;EQDQ01  00002PRCP99
0186829000999992000111800004-08040-034920FM-12+000799999V0201801N003112200019N0020001N1+02631+02271101381ADDAA199000091GF104991041021008001001001KA1240M+03001MA1999999101291MD1999999+0051REMSYN076AAXX  18004 82900 32595 41806 10263 20227 30129 40138 84200 333 10300 58005;EQDQ01  00002PRCP99
0201829000999992000111812004-08040-034920FM-12+000799999V0201801N004612200019N0100001N1+02881+02131101471ADDAA124006191AY161061AY221061GF103991021021008001031001KA1240N+02301MA1999999101381MD1999999+0061MW1021REMSYN088AAXX  18124 82900 21597 31809 10288 20213 30138 40147 70262 82230 333 20230 58006 60064;
0182829000999992000111818004-08040-034920FM-12+000799999V0201801N003110075019N0100001N1+02881+02051101151ADDAA106000191AY151061AY211061GF105991051021008001001001MA1999999101061MD1999999-0181MW1021REMSYN082AAXX  18184 82900 21597 51806 10288 20205 30106 40115 70251 85200 333 59018 69921;
0186829000999992000111900004-08040-034920FM-12+000799999V0201801N001512200019N0020001N1+02631+02121101361ADDAA199000091GF104991041021008001001001KA1240M+02961MA1999999101271MD1999999-0021REMSYN076AAXX  19004 82900 32595 41803 10263 20212 30127 40136 84200 333 10296 59002;EQDQ01  00002PRCP99
0201829000999992000111912004-08040-034920FM-12+000799999V0201801N003610075019N0100001N1+02861+02211101321ADDAA124000391AY161061AY221061GF106991061021008001001001KA1240N+02151MA1999999101231MD1999999-0151MW1021REMSYN088AAXX  19124 82900 21597 61807 10286 20221 30123 40132 70262 86200 333 20215 59015 69934;
0167829000999992000111918004-08040-034920FM-12+000799999V0201401N003110075019N0100001N1+02791+02271101091ADDAA199000091GF107991071021008001001001MA1999999101001MD1999999-0061REMSYN070AAXX  19184 82900 32597 71406 10279 20227 30100 40109 87200 333 59006;EQDQ01  00002PRCP99
0186829000999992000112000004-08040-034920FM-12+000799999V0201801N003110075019N0020001N1+02641+02231101361ADDAA199000091GF105991051021008001001001KA1240M+02981MA1999999101271MD1999999+0001REMSYN076AAXX  20004 82900 32595 51806 10264 20223 30127 40136 85200 333 10298 58000;EQDQ01  00002PRCP99
0186829000999992000112012004-08040-034920FM-12+000799999V0201401N002110075019N0100001N1+02881+02211101481ADDAA199000091GF105991051021008001001001KA1240N+02291MA1999999101391MD1999999+0061REMSYN076AAXX  20124 82900 32597 51404 10288 20221 30139 40148 85200 333 20229 58006;EQDQ01  00002PRCP99
0167829000999992000112018004-08040-034920FM-12+000799999V0201401N003612200019N0100001N1+02901+02201101251ADDAA199000091GF103991031021008001001001MA1999999101161MD1999999+0131REMSYN070AAXX  20184 82900 32597 31407 10290 20220 30116 40125 83200 333 58013;EQDQ01  00002PRCP99
0186829000999992000112100004-08040-034920FM-12+000799999V0201401N003110075019N0020001N1+02661+02221101441ADDAA199000091GF106991061021008001001001KA1240M+03001MA1999999101351MD1999999+0081REMSYN076AAXX  21004 82900 32595 61406 10266 20222 30135 40144 86200 333 10300 58008;EQDQ01  00002PRCP99
0186829000999992000112112004-08040-034920FM-12+000799999V0201401N003110075019N0100001N1+02831+02151101601ADDAA199000091GF107991071051008001001001KA1240N+02541MA1999999101511MD1999999+0121REMSYN076AAXX  21124 82900 32597 71406 10283 20215 30151 40160 87500 333 20254 58012;EQDQ01  00002PRCP99
0167829000999992000112118004-08040-034920FM-12+000799999V0201401N003110075019N0100001N1+02821+02101101291ADDAA199000091GF105991051021008001001001MA1999999101201MD1999999+0041REMSYN070AAXX  21184 82900 32597 51406 10282 20210 30120 40129 85200 333 58004;EQDQ01  00002PRCP99
0186829000999992000112200004-08040-034920FM-12+000799999V0201801N001510075019N0020001N1+02621+02121101541ADDAA199000091GF106991061021008001001001KA1240M+02961MA1999999101451MD1999999+0101REMSYN076AAXX  22004 82900 32595 61803 10262 20212 30145 40154 86200 333 10296 58010;EQDQ01  00002PRCP99
0186829000999992000112212004-08040-034920FM-12+000799999V0201401N004110075019N0100001N1+02831+02171101721ADDAA199000091GF105991051041008001001001KA1240N+02461MA1999999101631MD1999999+0121REMSYN076AAXX  22124 82900 32597 51408 10283 20217 30163 40172 85400 333 20246 58012;EQDQ01  00002PRCP99
0167829000999992000112218004-08040-034920FM-12+000799999V0201801N003110075019N0100001N1+02871+02061101311ADDAA199000091GF105991051021008001001001MA1999999101221MD1999999+0021REMSYN070AAXX  22184 82900 32597 51806 10287 20206 30122 40131 85200 333 58002;EQDQ01  00002PRCP99
0186829000999992000112300004-08040-034920FM-12+000799999V0201401N003110075019N0020001N1+02651+02071101481ADDAA199000091GF105991051021008001001001KA1240M+02991MA1999999101391MD1999999-0061REMSYN076AAXX  23004 82900 32595 51406 10265 20207 30139 40148 85200 333 10299 59006;EQDQ01  00002PRCP99
0167829000999992000112318004-08040-034920FM-12+000799999V0201401N003612200019N0100001N1+02901+02041101331ADDAA199000091GF103991021021008001021001MA1999999101241MD1999999+0021REMSYN070AAXX  23184 82900 32597 31407 10290 20204 30124 40133 82220 333 58002;EQDQ01  00002PRCP99
0186829000999992000112400004-08040-034920FM-12+000799999V0201801N003110075019N0020001N1+02621+02251101471ADDAA199000091GF106991061021008001001001KA1240M+03001MA1999999101381MD1999999-0011REMSYN076AAXX  24004 82900 32595 61806 10262 20225 30138 40147 86200 333 10300 59001;EQDQ01  00002PRCP99
0186829000999992000112412004-08040-034920FM-12+000799999V0201401N003110075019N0100001N1+02861+02141101301ADDAA199000091GF105991051021008001001001KA1240N+02201MA1999999101211MD1999999-0301REMSYN076AAXX  24124 82900 32597 51406 10286 20214 30121 40130 85200 333 20220 59030;EQDQ01  00002PRCP99
0201829000999992000112718004-08040-034920FM-12+000799999V0201401N004610075019N0100001N1+02701+02261101371ADDAA106000591AY161061AY261061GF107991999041008001001001MA1999999101281MD1999999+0141MW1031REMSYN082AAXX  27184 82900 21597 71409 10270 20226 30128 40137 70366 86400 333 58014 69951;EQDQ01+000062SCOTLC
0201829000999992000112812004-08040-034920FM-12+000799999V0201401N004110075019N0100001N1+02831+02241101661ADDAA124006191AY161061AY261061GF106991061021008001001001KA1240N+02361MA1999999101571MD1999999+0131MW1021REMSYN088AAXX  28124 82900 21597 61408 10283 20224 30157 40166 70266 86200 333 20236 58013 60064;
0167829000999992000112818004-08040-034920FM-12+000799999V0201401N003110075019N0100001N1+02801+02131101371ADDAA199000091GF106991061021008001001001MA1999999101281MD1999999+0001REMSYN070AAXX  28184 82900 32597 61406 10280 20213 30128 40137 86200 333 58000;EQDQ01  00002PRCP99
0186829000999992000112900004-08040-034920FM-12+000799999V0201401N002610075019N0020001N1+02611+02251101611ADDAA199000091GF106991061021008001001001KA1240M+02771MA1999999101521MD1999999+0071REMSYN076AAXX  29004 82900 32595 61405 10261 20225 30152 40161 86200 333 10277 58007;EQDQ01  00002PRCP99
0186829000999992000112912004-08040-034920FM-12+000799999V0201401N003610075019N0100001N1+02851+02171101541ADDAA199000091GF106991061021008001001001KA1240N+02501MA1999999101451MD1999999-0121REMSYN076AAXX  29124 82900 32597 61407 10285 20217 30145 40154 86200 333 20250 59012;EQDQ01  00002PRCP99
0167829000999992000120118004-08040-034920FM-12+000799999V0201401N004112200019N0100001N1+02861+02161101191ADDAA199000091GF104991041021008001001001MA1999999101101MD1999999+0001REMSYN070AAXX  01184 82900 32597 41408 10286 20216 30110 40119 84200 333 58000;EQDQ01  00002PRCP99
0186829000999992000120200004-08040-034920FM-12+000799999V0201401N002612200019N0020001N1+02631+02181101331ADDAA199000091GF103991031021008001001001KA1240M+02961MA1999999101241MD1999999-0031REMSYN076AAXX  02004 82900 32595 31405 10263 20218 30124 40133 83200 333 10296 59003;EQDQ01  00002PRCP99
0186829000999992000120212004-08040-034920FM-12+000799999V0201401N002610075019N0100001N1+02891+02181101441ADDAA199000091GF106991061021008001001001KA1240N+02031MA1999999101351MD1999999-0111REMSYN076AAXX  02124 82900 32597 61405 10289 20218 30135 40144 86200 333 20203 59011;EQDQ01  00002PRCP99
0167829000999992000120218004-08040-034920FM-12+000799999V0200901N001510075019N0100001N1+02881+02181101231ADDAA199000091GF105991051021008001001001MA1999999101141MD1999999+0041REMSYN070AAXX  02184 82900 32597 50903 10288 20218 30114 40123 85200 333 58004;EQDQ01  00002PRCP99
0186829000999992000120300004-08040-034920FM-12+000799999V0200501N000512200019N0020001N1+02621+02211101371ADDAA199000091GF102991021021008001001001KA1240M+03021MA1999999101281MD1999999+0041REMSYN076AAXX  03004 82900 32595 20501 10262 20221 30128 40137 82200 333 10302 58004;EQDQ01  00002PRCP99
0186829000999992000120312004-08040-034920FM-12+000799999V0200901N003110075019N0100001N1+02881+02081101431ADDAA199000091GF105991051021008001001001KA1240N+02081MA1999999101341MD1999999-0011REMSYN076AAXX  03124 82900 32597 50906 10288 20208 30134 40143 85200 333 20208 59001;EQDQ01  00002PRCP99
0167829000999992000120318004-08040-034920FM-12+000799999V0200901N001510075019N0100001N1+02921+02041101131ADDAA199000091GF105991051021008001001001MA1999999101041MD1999999-0101REMSYN070AAXX  03184 82900 32597 50903 10292 20204 30104 40113 85200 333 59010;EQDQ01  00002PRCP99
0212829000999992000120400004-08040-034920FM-12+000799999V0200901N001512200019N0020001N1+02651+99999100911ADDAA199000091GF102991999999008001999999KA1240M+03501MA1999999999999MD1999999+0071REMSYN070AAXX  04004 82900 32595 20903 10265 2085/ 39683 40091 333 10350 58007;EQDQ01+096833APOSP Q02  00002PRCP99Q03 096833APOSP 
0186829000999992000120412004-08040-034920FM-12+000799999V0200901N003110075019N0100001N1+02251+02091101381ADDAA199000091GF105991051021008001001001KA1240N+02241MA1999999101291MD1999999-0051REMSYN076AAXX  04124 82900 32597 50906 10225 20209 30129 40138 85200 333 20224 59005;EQDQ01  00002PRCP99
0167829000999992000120418004-08040-034920FM-12+000799999V0200901N003110075019N0100001N1+02851+02011101061ADDAA199000091GF105991051021008001001001MA1999999100971MD1999999-0071REMSYN070AAXX  04184 82900 32597 50906 10285 20201 30097 40106 85200 333 59007;EQDQ01  00002PRCP99
0186829000999992000120500004-08040-034920FM-12+000799999V0200901N001510075019N0020001N1+02651+02071101261ADDAA199000091GF106991061021008001001001KA1240M+03001MA1999999101171MD1999999-0051REMSYN076AAXX  05004 82900 32595 60903 10265 20207 30117 40126 86200 333 10300 59005;EQDQ01  00002PRCP99
0186829000999992000120512004-08040-034920FM-12+000799999V0200901N004110075019N0100001N1+02881+02081101451ADDAA199000091GF106991051041008001021001KA1240N+02081MA1999999101361MD1999999+0071REMSYN076AAXX  05124 82900 32597 60908 10288 20208 30136 40145 85420 333 20208 58007;EQDQ01  00002PRCP99
0167829000999992000120518004-08040-034920FM-12+000799999V0200901N003110075019N0100001N1+02851+02171101051ADDAA199000091GF105991051021008001001001MA1999999100961MD1999999-0011REMSYN070AAXX  05184 82900 32597 50906 10285 20217 30096 40105 85200 333 59001;EQDQ01  00002PRCP99
0186829000999992000120600004-08040-034920FM-12+000799999V0200901N001510075019N0020001N1+02641+02271101261ADDAA199000091GF106991061021008001001001KA1240M+03021MA1999999101171MD1999999+0001REMSYN076AAXX  06004 82900 32595 60903 10264 20227 30117 40126 86200 333 10302 58000;EQDQ01  00002PRCP99
0202829000999992000120612004-08040-034920FM-12+000799999V0200901N003119999999N0100001N1+02881+02251101321ADDAA199000091GF106991999021008001001001KA1240N+02221MA1999999101231MD1999999-0131REMSYN076AAXX  06124 82900 32597 60906 10288 20225 30123 40132 83200 333 20222 59013;EQDQ01+000032SCOTLCQ02  00002PRCP99
0167829000999992000120618004-08040-034920FM-12+000799999V0200901N001510075019N0100001N1+02911+02191101171ADDAA199000091GF105991051021008001001001MA1999999101081MD1999999+0121REMSYN070AAXX  06184 82900 32597 50903 10291 20219 30108 40117 85200 333 58012;EQDQ01  00002PRCP99
0186829000999992000120700004-08040-034920FM-12+000799999V0200901N001512200019N0020001N1+02651+02231101301ADDAA199000091GF102991021011008001001001KA1240M+03021MA1999999101211MD1999999+0041REMSYN076AAXX  07004 82900 32595 20903 10265 20223 30121 40130 82100 333 10302 58004;EQDQ01  00002PRCP99
0202829000999992000120712004-08040-034920FM-12+000799999V0200901N002119999999N0100001N1+02921+02081101301ADDAA199000091GF105991999011008001001001KA1240N+02201MA1999999101241MD1999999-0021REMSYN076AAXX  07124 82900 32597 50904 10292 20208 30124 40130 82100 333 20220 59002;EQDQ01+000022SCOTLCQ02  00002PRCP99
0137829000999992000120718004-08040-034920FM-12+000799999V0200901N001512200019N0100001N1+99999+99999999999ADDAA199000091GF104991999999008001999999REMSYN069AAXX  07184 82900 32597 40903 1292 20224 30110 40119 84200 333 58002;EQDQ01  00002PRCP99
0186829000999992000120800004-08040-034920FM-12+000799999V0200901N002612200019N0020001N1+02701+02281101521ADDAA199000091GF103991031011008001001001KA1240M+03041MA1999999101431MD1999999+0221REMSYN076AAXX  08004 82900 32595 30905 10270 20228 30143 40152 83100 333 10304 58022;EQDQ01  00002PRCP99
0202829000999992000120812004-08040-034920FM-12+000799999V0200901N004110075019N0100001N1+02891+02301101471ADDAA199000091GF107991999021008001001001KA1240N+02361MA1999999101381MD1999999+0171REMSYN076AAXX  08124 82900 32597 70908 10289 20230 30138 40147 86200 333 20236 58017;EQDQ01+000062SCOTLCQ02  00002PRCP99
0183829000999992000120818004-08040-034920FM-12+000799999V0201401N003119999999N0100001N1+02961+02271101331ADDAA199000091GF106991999021008001001001MA1999999101241MD1999999+0141REMSYN070AAXX  08184 82900 32597 61406 10296 20227 30124 40133 84200 333 58014;EQDQ01+000042SCOTLCQ02  00002PRCP99
0186829000999992000120900004-08040-034920FM-12+000799999V0201401N001510450019N0020001N1+02651+02231101441ADDAA199000091GF106991041021008001031001KA1240M+03021MA1999999101351MD1999999-0081REMSYN076AAXX  09004 82900 32595 61403 10265 20223 30135 40144 84230 333 10302 59008;EQDQ01  00002PRCP99
0186829000999992000120912004-08040-034920FM-12+000799999V0201401N002110075019N0100001N1+02891+02211101471ADDAA199000091GF106991061021008001001001KA1240N+02401MA1999999101381MD1999999+0001REMSYN076AAXX  09124 82900 32597 61404 10289 20221 30138 40147 86200 333 20240 58000;EQDQ01  00002PRCP99
0167829000999992000120918004-08040-034920FM-12+000799999V0201401N003610075019N0100001N1+02851+02081101191ADDAA199000091GF105991051021008001001001MA1999999101101MD1999999-0141REMSYN070AAXX  09184 82900 32597 51407 10285 20208 30110 40119 85200 333 59014;EQDQ01  00002PRCP99
0186829000999992000121000004-08040-034920FM-12+000799999V0201401N002110075019N0020001N1+02661+02181101331ADDAA199000091GF106991061021008001001001KA1240M+03011MA1999999101241MD1999999+0111REMSYN076AAXX  10004 82900 32595 61404 10266 20218 30124 40133 86200 333 10301 58011;EQDQ01  00002PRCP99
0186829000999992000121012004-08040-034920FM-12+000799999V0201401N002110075019N0100001N1+02881+02101101351ADDAA199000091GF105991051021008001001001KA1240N+02201MA1999999101261MD1999999-0121REMSYN076AAXX  10124 82900 32597 51404 10288 20210 30126 40135 85200 333 20220 59012;EQDQ01  00002PRCP99
0186829000999992000121112004-08040-034920FM-12+000799999V0200501N002110450019N0100001N1+02781+02181101191ADDAA199000091GF105991041041008001021001KA1240N+02101MA1999999101091MD1999999-0171REMSYN076AAXX  11124 82900 32597 50504 10278 20218 30109 40119 84420 333 20210 59017;EQDQ01  00002PRCP99
0183829000999992000121118004-08040-034920FM-12+000799999V0200501N004112200019N0100001N1+02921+02171999999ADDAA199000091GF104991041011008001021001MA1999999100931MD1999999-0021REMSYN070AAXX  11184 82900 32597 40508 10292 20217 30093 40012 84120 333 59002;EQDQ01+100123APOSLPQ02  00002PRCP99
0186829000999992000121200004-08040-034920FM-12+000799999V0200901N003110075019N0020001N1+02691+02241101181ADDAA199000091GF106991061021008001001001KA1240M+03061MA1999999101091MD1999999+0101REMSYN076AAXX  12004 82900 32595 60906 10269 20224 30109 40118 86200 333 10306 58010;EQDQ01  00002PRCP99
0201829000999992000121212004-08040-034920FM-12+000799999V0203201N001510075019N0100001N1+02631+02461101291ADDAA124001091AY161061AY211061GF106991061021008001001001KA1240N+02121MA1999999101201MD1999999+0111MW1031REMSYN088AAXX  12124 82900 21597 63203 10263 20246 30120 40129 70361 86200 333 20212 58011 60014;
0182829000999992000121218004-08040-034920FM-12+000799999V0200501N001510075019N0100001N1+02701+02151101091ADDAA106004191AY161061AY231061GF106991061021008001001001MA1999999101001MD1999999+0071MW1021REMSYN082AAXX  12184 82900 21597 60503 10270 20215 30100 40109 70263 86200 333 58007 60041;
0186829000999992000121300004-08040-034920FM-12+000799999V0200901N001510075019N0020001N1+02651+02391101211ADDAA199000091GF106991061071008001001001KA1240M+02741MA1999999101121MD1999999+0031REMSYN076AAXX  13004 82900 32595 60903 10265 20239 30112 40121 86700 333 10274 58003;EQDQ01  00002PRCP99
0201829000999992000121312004-08040-034920FM-12+000799999V0200501N001510075019N0100001N1+02331+02201101311ADDAA124019191AY161061AY261061GF107991061071008001021001KA1240N+02201MA1999999101221MD1999999+0021MW1031REMSYN088AAXX  13124 82900 21597 70503 10233 20220 30122 40131 70366 86720 333 20220 58002 60194;
0167829000999992000121318004-08040-034920FM-12+000799999V0200901N003110075019N0100001N1+02631+02251101091ADDAA199000091GF108991071071008001021001MA1999999101001MD1999999+0001REMSYN070AAXX  13184 82900 32597 80906 10263 20225 30100 40109 87720 333 58000;EQDQ01  00002PRCP99
0201829000999992000121400004-08040-034920FM-12+000799999V0200901N001510075019N0020001N1+02491+02191101201ADDAA106000191AY151061AY221061GF106991061071008001001001KA1240M+02871MA1999999101111MD1999999-0011MW1031REMSYN088AAXX  14004 82900 21595 60903 10249 20219 30111 40120 70352 86700 333 10287 59001 69921;
0201829000999992000121412004-08040-034920FM-12+000799999V0203601N001010075019N0100001N1+02641+02351101011ADDAA124001091AY151061AY221061GF108991081071008001001001KA1240N+02261MA1999999100921MD1999999-0301MW1021REMSYN088AAXX  14124 82900 21597 83602 10264 20235 30092 40101 70252 88700 333 20226 59030 69994;
0182829000999992000121418004-08040-034920FM-12+000799999V0200501N004110075019N0100001N1+02651+02161100821ADDAA106000891AY151061AY221061GF108991081071008001001001MA1999999100731MD1999999-0271MW1511REMSYN082AAXX  14184 82900 21597 80508 10265 20216 30073 40082 75152 88700 333 59027 69971;
0220829000999992000121500004-08040-034920FM-12+000799999V0209999C000010075019N0020001N1+02291+02211101031ADDAA106020191AY161061AY221061GF107991999021008001001001KA1240M+02721MA1999999100941MD1999999-0151MW1611REMSYN088AAXX  15004 82900 21595 70000 10229 20221 30094 40103 76162 85200 333 10272 59015 60201;EQDQ01+000052SCOTLC
0201829000999992000121512004-08040-034920FM-12+000799999V0203601N001510075019N0100001N1+02261+02111101091ADDAA124053191AY161061AY251061GF108991081021008001001001KA1240N+02101MA1999999101001MD1999999+0081MW1031REMSYN088AAXX  15124 82900 21597 83603 10226 20211 30100 40109 70365 88200 333 20210 58008 60534;
0201829000999992000121600004-08040-034920FM-12+000799999V0209999C000010075019N0020001N1+02211+02151101101ADDAA106002091AY161061AY221061GF107991071071008001001001KA1240M+02501MA1999999101011MD1999999+0071MW1501REMSYN088AAXX  16004 82900 21595 70000 10221 20215 30101 40110 75062 87700 333 10250 58007 60021;
0201829000999992000121612004-08040-034920FM-12+000799999V0203201N001010075019N0100001N1+02421+02281101061ADDAA124023191AY191061AY261061GF108991081071008001999999KA1240N+02101MA1999999100971MD1999999-0031MW1031REMSYN088AAXX  16124 82900 21597 83202 10242 20228 30097 40106 70396 887// 333 20210 59003 60234;
0145829000999992000121618004-08040-034920FM-12+000799999V0202701N001010075019N0100001N1+02181+02151101001ADDAY161061AY261061GF108991081051008001999999MA1999999100911MW1611REMSYN070AAXX  16184 82900 21597 82702 10218 20215 30091 40100 76166 885// 333;
0201829000999992000121712004-08040-034920FM-12+000799999V0203201N001010075019N0100001N1+02461+02371101261ADDAA124077091AY161061AY261061GF108991081051008001999999KA1240N+02121MA1999999101171MD1999999+0261MW1031REMSYN088AAXX  17124 82900 21597 83202 10246 20237 30117 40126 70366 885// 333 20212 58026 60774;
0167829000999992000121718004-08040-034920FM-12+000799999V0201801N001010075019N0100001N1+02641+02331101081ADDAA199000091GF107991071071008001001001MA1999999100991MD1999999+0081REMSYN070AAXX  17184 82900 32597 71802 10264 20233 30099 40108 87700 333 58008;EQDQ01  00002PRCP99
0186829000999992000121800004-08040-034920FM-12+000799999V0209999C000010075019N0020001N1+02411+02351101361ADDAA199000091GF106991061071008001001001KA1240M+02681MA1999999101271MD1999999+0141REMSYN076AAXX  18004 82900 32595 60000 10241 20235 30127 40136 86700 333 10268 58014;EQDQ01  00002PRCP99
0201829000999992000121812004-08040-034920FM-12+000799999V0201401N003110075019N0100001N1+02701+02461101291ADDAA124000191AY151061AY211061GF106991061021008001001001KA1240N+02301MA1999999101201MD1999999+0031MW1021REMSYN088AAXX  18124 82900 21597 61406 10270 20246 30120 40129 70251 86200 333 20230 58003 69914;
0167829000999992000121818004-08040-034920FM-12+000799999V0201401N003110075019N0100001N1+02771+02421101111ADDAA199000091GF106991061021008001001001MA1999999101021MD1999999+0031REMSYN070AAXX  18184 82900 32597 61406 10277 20242 30102 40111 86200 333 58003;EQDQ01  00002PRCP99
0186829000999992000121900004-08040-034920FM-12+000799999V0209999C000010075019N0020001N1+02631+02411101391ADDAA199000091GF106991061021008001001001KA1240M+02941MA1999999101301MD1999999+0031REMSYN076AAXX  19004 82900 32595 60000 10263 20241 30130 40139 86200 333 10294 58003;EQDQ01  00002PRCP99
0186829000999992000121912004-08040-034920FM-12+000799999V0201401N002110450019N0100001N1+02821+02271101451ADDAA199000091GF105991031021008001031001KA1240N+02491MA1999999101361MD1999999+0161REMSYN076AAXX  19124 82900 32597 51404 10282 20227 30136 40145 83230 333 20249 58016;EQDQ01  00002PRCP99
0167829000999992000121918004-08040-034920FM-12+000799999V0200901N002110075019N0100001N1+02751+02171101111ADDAA199000091GF107991051031008001031001MA1999999101021MD1999999+0001REMSYN070AAXX  19184 82900 32597 70904 10275 20217 30102 40111 85330 333 58000;EQDQ01  00002PRCP99
0186829000999992000122000004-08040-034920FM-12+000799999V0209999C000010075019N0020001N1+02391+02281101331ADDAA199000091GF106991061021008001001001KA1240M+02911MA1999999101241MD1999999-0061REMSYN076AAXX  20004 82900 32595 60000 10239 20228 30124 40133 86200 333 10291 59006;EQDQ01  00002PRCP99
0186829000999992000122012004-08040-034920FM-12+000799999V0200901N001010075019N0100001N1+02721+02151101401ADDAA199000091GF107991061041008001021001KA1240N+02041MA1999999101311MD1999999-0051REMSYN076AAXX  20124 82900 32597 70902 10272 20215 30131 40140 86420 333 20204 59005;EQDQ01  00002PRCP99
0167829000999992000122018004-08040-034920FM-12+000799999V0201401N004112200019N0100001N1+02901+02071101241ADDAA199000091GF103991031021008001001001MA1999999101151MD1999999+0131REMSYN070AAXX  20184 82900 32597 31408 10290 20207 30115 40124 83200 333 58013;EQDQ01  00002PRCP99
0196829000999992000122100004-08040-034920FM-12+000799999V0200901N002112200019N0020001N1+02551+02191101401ADDAA199000091GA1001+999999999GF100991001001999999001001KA1240M+02981MA1999999101311MD1999999+0071REMSYN070AAXX  21004 82900 32995 00904 10255 20219 30131 40140 333 10298 58007;EQDQ01  00002PRCP99
0186829000999992000122112004-08040-034920FM-12+000799999V0201401N001510075019N0100001N1+02801+02271101481ADDAA199000091GF105991051021008001001001KA1240N+02081MA1999999101391MD1999999+0081REMSYN076AAXX  21124 82900 32597 51403 10280 20227 30139 40148 85200 333 20208 58008;EQDQ01  00002PRCP99
0167829000999992000122118004-08040-034920FM-12+000799999V0201401N003112200019N0100001N1+02881+02251101271ADDAA199000091GF103991031021008001001001MA1999999101181MD1999999+0031REMSYN070AAXX  21184 82900 32597 31406 10288 20225 30118 40127 83200 333 58003;EQDQ01  00002PRCP99
0186829000999992000122200004-08040-034920FM-12+000799999V0200901N003110075019N0020001N1+02661+02311101421ADDAA199000091GF106991061021008001001001KA1240M+02981MA1999999101331MD1999999+0021REMSYN076AAXX  22004 82900 32595 60906 10266 20231 30133 40142 86200 333 10298 58002;EQDQ01  00002PRCP99
0186829000999992000122212004-08040-034920FM-12+000799999V0201401N002110075019N0100001N1+02871+02311101521ADDAA199000091GF105991051021008001001001KA1240N+02441MA1999999101431MD1999999+0041REMSYN076AAXX  22124 82900 32597 51404 10287 20231 30143 40152 85200 333 20244 58004;EQDQ01  00002PRCP99
0167829000999992000122218004-08040-034920FM-12+000799999V0201401N003610075019N0100001N1+02881+02321101211ADDAA199000091GF105991051021008001001001MA1999999101121MD1999999-0061REMSYN070AAXX  22184 82900 32597 51407 10288 20232 30112 40121 85200 333 59006;EQDQ01  00002PRCP99
0202829000999992000122300004-08040-034920FM-12+000799999V0201401N003112200019N0020001N1+02651+02271101451ADDAA199000091GF102991999021008001001001KA1240M+02991MA1999999101361MD1999999+0031REMSYN076AAXX  23004 82900 32595 21406 10265 20227 30136 40145 83200 333 10299 58003;EQDQ01+000032SCOTLCQ02  00002PRCP99
0186829000999992000122312004-08040-034920FM-12+000799999V0201401N003110450019N0100001N1+02851+02241101511ADDAA199000091GF105991041041008001021001KA1240N+02301MA1999999101421MD1999999-0011REMSYN076AAXX  23124 82900 32597 51406 10285 20224 30142 40151 84420 333 20230 59001;EQDQ01  00002PRCP99
0167829000999992000122318004-08040-034920FM-12+000799999V0201401N003110075019N0100001N1+02871+02231101261ADDAA199000091GF106991061021008001001001MA1999999101171MD1999999+0051REMSYN070AAXX  23184 82900 32597 61406 10287 20223 30117 40126 86200 333 58005;EQDQ01  00002PRCP99
0186829000999992000122400004-08040-034920FM-12+000799999V0200901N003112200019N0020001N1+02621+02211101431ADDAA199000091GF103991031011008001001001KA1240M+02981MA1999999101341MD1999999-0021REMSYN076AAXX  24004 82900 32595 30906 10262 20221 30134 40143 83100 333 10298 59002;EQDQ01  00002PRCP99
0186829000999992000122412004-08040-034920FM-12+000799999V0201401N001510075019N0100001N1+02851+02191101531ADDAA199000091GF105991051021008001001001KA1240N+02201MA1999999101441MD1999999+0021REMSYN076AAXX  24124 82900 32597 51403 10285 20219 30144 40153 85200 333 20220 58002;EQDQ01  00002PRCP99
0167829000999992000122418004-08040-034920FM-12+000799999V0201401N003112200019N0100001N1+02881+02131101161ADDAA199000091GF102991021011008001001001MA1999999101071MD1999999-0101REMSYN070AAXX  24184 82900 32597 21406 10288 20213 30107 40116 82100 333 59010;EQDQ01  00002PRCP99
0202829000999992000122500004-08040-034920FM-12+000799999V0201401N003112200019N0020001N1+02591+02271101431ADDAA199000091GF102991999021008001001001KA1240M+02981MA1999999101341MD1999999+0001REMSYN076AAXX  25004 82900 32595 21406 10259 20227 30134 40143 83200 333 10298 58000;EQDQ01+000032SCOTLCQ02  00002PRCP99
0186829000999992000122512004-08040-034920FM-12+000799999V0201401N001510075019N0100001N1+02801+02251101501ADDAA199000091GF105991051021008001001001KA1240N+02301MA1999999101411MD1999999-0031REMSYN076AAXX  25124 82900 32597 51403 10280 20225 30141 40150 85200 333 20230 59003;EQDQ01  00002PRCP99
0167829000999992000122518004-08040-034920FM-12+000799999V0201401N003610075019N0100001N1+02841+02241101291ADDAA199000091GF106991061021008001001001MA1999999101201MD1999999+0131REMSYN070AAXX  25184 82900 32597 61407 10284 20224 30120 40129 86200 333 58013;EQDQ01  00002PRCP99
0186829000999992000122600004-08040-034920FM-12+000799999V0201401N002110075019N0020001N1+02661+02241101421ADDAA199000091GF105991051021008001001001KA1240M+02981MA1999999101331MD1999999-0011REMSYN076AAXX  26004 82900 32595 51404 10266 20224 30133 40142 85200 333 10298 59001;EQDQ01  00002PRCP99
0201829000999992000122612004-08040-034920FM-12+000799999V0201401N004110450019N0100001N1+02761+02231101371ADDAA124001091AY161061AY221061GF105991041041008001021001KA1240N+02401MA1999999101281MD1999999-0131MW1011REMSYN088AAXX  26124 82900 21597 51408 10276 20223 30128 40137 70162 84420 333 20240 59013 60014;
0167829000999992000122618004-08040-034920FM-12+000799999V0201401N004110075019N0100001N1+02841+02221101111ADDAA199000091GF105991051021008001001001MA1999999101021MD1999999-0181REMSYN070AAXX  26184 82900 32597 51408 10284 20222 30102 40111 85200 333 59018;EQDQ01  00002PRCP99
0186829000999992000122700004-08040-034920FM-12+000799999V0201801N001510075019N0020001N1+02651+02181101381ADDAA199000091GF105991051021008001001001KA1240M+02981MA1999999101291MD1999999-0041REMSYN076AAXX  27004 82900 32595 51803 10265 20218 30129 40138 85200 333 10298 59004;EQDQ01  00002PRCP99
0186829000999992000122712004-08040-034920FM-12+000799999V0201401N002610450019N0100001N1+02821+02151101311ADDAA199000091GF105991031021008001021001KA1240N+02291MA1999999101221MD1999999-0061REMSYN076AAXX  27124 82900 32597 51405 10282 20215 30122 40131 83220 333 20229 59006;EQDQ01  00002PRCP99
0167829000999992000122718004-08040-034920FM-12+000799999V0201401N003110075019N0100001N1+02891+02131101211ADDAA199000091GF105991051021008001001001MA1999999101121MD1999999+0101REMSYN070AAXX  27184 82900 32597 51406 10289 20213 30112 40121 85200 333 58010;EQDQ01  00002PRCP99
0186829000999992000122800004-08040-034920FM-12+000799999V0201401N001512200019N0020001N1+02601+02191101371ADDAA199000091GF102991021011008001001001KA1240M+02991MA1999999101281MD1999999-0011REMSYN076AAXX  28004 82900 32595 21403 10260 20219 30128 40137 82100 333 10299 59001;EQDQ01  00002PRCP99
0186829000999992000122812004-08040-034920FM-12+000799999V0201401N002610075019N0100001N1+02841+02181101391ADDAA199000091GF105991051021008001001001KA1240N+02101MA1999999101301MD1999999+0081REMSYN076AAXX  28124 82900 32597 51405 10284 20218 30130 40139 85200 333 20210 58008;EQDQ01  00002PRCP99
0167829000999992000122818004-08040-034920FM-12+000799999V0201401N002110450019N0100001N1+02821+02271101191ADDAA199000091GF105991031021008001021001MA1999999101101MD1999999-0021REMSYN070AAXX  28184 82900 32597 51404 10282 20227 30110 40119 83220 333 59002;EQDQ01  00002PRCP99
0186829000999992000122900004-08040-034920FM-12+000799999V0201401N001512200019N0020001N1+02611+02141101431ADDAA199000091GF103991031021008001001001KA1240M+03041MA1999999101341MD1999999+0061REMSYN076AAXX  29004 82900 32595 31403 10261 20214 30134 40143 83200 333 10304 58006;EQDQ01  00002PRCP99
0167829000999992000122918004-08040-034920FM-12+000799999V0201401N003110075019N0100001N1+02881+02281101211ADDAA199000091GF105991051021008001001001MA1999999101121MD1999999+0021REMSYN070AAXX  29184 82900 32597 51406 10288 20228 30112 40121 85200 333 58002;EQDQ01  00002PRCP99
0186829000999992000123000004-08040-034920FM-12+000799999V0201401N001010075019N0020001N1+02651+02271101381ADDAA199000091GF105991051021008001001001KA1240M+02921MA1999999101291MD1999999-0051REMSYN076AAXX  30004 82900 32595 51402 10265 20227 30129 40138 85200 333 10292 59005;EQDQ01  00002PRCP99
0201829000999992000123012004-08040-034920FM-12+000799999V0201401N003610075019N0100001N1+02811+02361101381ADDAA124002091AY161061AY221061GF106991061021008001001001KA1240N+02301MA1999999101291MD1999999-0101MW1021REMSYN088AAXX  30124 82900 21597 61407 10281 20236 30129 40138 70262 86200 333 20230 59010 60024;
0167829000999992000123018004-08040-034920FM-12+000799999V0201401N003110075019N0100001N1+02921+02291101181ADDAA199000091GF106991061021008001001001MA1999999101091MD1999999-0031REMSYN070AAXX  30184 82900 32597 61406 10292 20229 30109 40118 86200 333 59003;EQDQ01  00002PRCP99
0186829000999992000123100004-08040-034920FM-12+000799999V0200901N001510075019N0020001N1+02661+02311101371ADDAA199000091GF106991061021008001001001KA1240M+02971MA1999999101281MD1999999-0011REMSYN076AAXX  31004 82900 32595 60903 10266 20231 30128 40137 86200 333 10297 59001;EQDQ01  00002PRCP99
0186829000999992000123112004-08040-034920FM-12+000799999V0201401N004610075019N0100001N1+02861+02211101441ADDAA199000091GF106991061021008001001001KA1240N+02251MA1999999101351MD1999999+0061REMSYN076AAXX  31124 82900 32597 61409 10286 20221 30135 40144 86200 333 20225 58006;EQDQ01  00002PRCP99
0167829000999992000123118004-08040-034920FM-12+000799999V0201401N003110075019N0100001N1+02871+02141101271ADDAA199000091GF105991051011008001001001MA1999999101181MD1999999+0091REMSYN070AAXX  31184 82900 32597 51406 10287 20214 30118 40127 85100 333 58009;EQDQ01  00002PRCP99
