0201829750999992000010112004-09100-044120FM-12+033199999V0209999C000019999999N0040001N1+01961+01931101091ADDAA124013091AY161061AY231061GF107991999021008001001001KA1240N+01571MA1999999097111MD1999999-0011MW1091REMSYN088AAXX  01124 82975 21596 70000 10196 20193 39711 40109 70963 81200 333 20157 59001 60134;
0167829750999992000010118004-09100-044120FM-12+033199999V0203201N002619999999N0020001N1+02811+02071100751ADDAA106000091GF106991999011008001001001MA1999999096861MD1999999-0191REMSYN070AAXX  01184 82975 32595 63205 10281 20207 39686 40075 82100 333 59019;EQDQ01  00002PRCP06
0202829750999992000010200004-09100-044120FM-12+033199999V0209999C000019999999N0020001N1+02311+02091100681ADDAA106000091GF105991999011004501001001KA1240M+02931MA1999999096551MD1999999-0211REMSYN076AAXX  02004 82975 32495 50000 10231 20209 39655 40068 82100 333 10293 59021;EQDQ01+000022SCOTLCQ02  00002PRCP06
0201829750999992000010212004-09100-044120FM-12+033199999V0209999C000010450019N0100001N1+02161+02011100871ADDAA124006191AY161061AY231061GF107991021031008001021041KA1240N+01741MA1999999096951MD1999999-0161MW1091REMSYN088AAXX  02124 82975 21597 70000 10216 20201 39695 40087 70963 82324 333 20174 59016 60064;
0201829750999992000010218004-09100-044120FM-12+033199999V0201801N002610450019N0200001N1+02861+02311100731ADDAA106007191AY161061AY261061GF108991011021008001031061MA1999999096851MD1999999-0011MW1221REMSYN082AAXX  02184 82975 21598 81805 10286 20231 39685 40073 72266 81236 333 59001 60071;EQDQ01+000002PRSWM1
0201829750999992000010300004-09100-044120FM-12+033199999V0203201N002610450019N0100001N1+02031+01851100831ADDAA106007991AY161061AY231061GF108991021031008001021051KA1240M+02791MA1999999096861MD1999999+0111MW1091REMSYN088AAXX  03004 82975 21597 83205 10203 20185 39686 40083 70963 82325 333 10279 58011 60081;
0173829750999992000010312004-09100-044120FM-12+033199999V0201801N002610450019N0100001N1+02181+02131100921ADDAA124015091GF106991031021008001041021KA1240N+01821MA1999999096971MD1999999+0021REMSYN082AAXX  03124 82975 22597 61805 10218 20213 39697 40092 83242 333 20182 58002 60154;
0167829750999992000010318004-09100-044120FM-12+033199999V0201801N002611050019N0040001N1+02811+02201100761ADDAA106000091GF106991011031008001021041MA1999999096861MD1999999+0011REMSYN070AAXX  03184 82975 32596 61805 10281 20220 39686 40076 81324 333 58001;EQDQ01  00002PRCP06
0202829750999992000010400004-09100-044120FM-12+033199999V0203601N002619999999N0040001N1+02341+02091100811ADDAA106000091GF105991999011008001001001KA1240M+03041MA1999999096871MD1999999+0011REMSYN076AAXX  04004 82975 32596 53605 10234 20209 39687 40081 82100 333 10304 58001;EQDQ01+000022SCOTLCQ02  00002PRCP06
0201829750999992000010412004-09100-044120FM-12+033199999V0200501N003610450019N0040001N1+01911+01871101201ADDAA124007991AY161061AY231061GF106991031021008001041021KA1240N+01621MA1999999097211MD1999999+0241MW1091REMSYN088AAXX  04124 82975 21596 60507 10191 20187 39721 40120 70963 83242 333 20162 58024 60084;
0186829750999992000010500004-09100-044120FM-12+033199999V0202701N003610450019N0100001N1+02111+02071100901ADDAA106000091GF106991021031008001051021KA1240M+02861MA1999999096941MD1999999+0071REMSYN076AAXX  05004 82975 32597 62707 10211 20207 39694 40090 82352 333 10286 58007;EQDQ01  00002PRCP06
0220829750999992000010512004-09100-044120FM-12+033199999V0209999C000010450019N0200001N1+02011+01971101311ADDAA124002091AY161061AY281061GF108991011031008001021061KA1240N+01711MA1999999097331MD1999999+0121MW1221REMSYN088AAXX  05124 82975 21598 80000 10201 20197 39733 40131 72268 81326 333 20171 58012 60024;EQDQ01+000002PRSWM1
0148829750999992000010518004-09100-044120FM-12+033199999V0202301N002611050019N0040001N1+02961+02381100951ADDAA106000021GF106991021021004501011061MA1999999097061MD1999999-0201REMSYN070AAXX  05184 82975 32496 62305 10296 20238 39706 40095 82216 333 59020;
0186829750999992000010612004-09100-044120FM-12+033199999V0201401N002610450019N0020001N1+01981+01931101251ADDAA106000091GF106991031021012501031041KA1240N+01641MA1999999097271MD1999999-0061REMSYN076AAXX  06124 82975 32695 61405 10198 20193 39727 40125 83234 333 20164 59006;EQDQ01  00002PRCP06
0186829750999992000010700004-09100-044120FM-12+033199999V0203201N002611050019N0010001N1+02661+02241100961ADDAA106000091GF105991011021008001011041KA1240M+03021MA1999999097051MD1999999+0041REMSYN076AAXX  07004 82975 32594 53205 10266 20224 39705 40096 81214 333 10302 58004;EQDQ01  00002PRCP06
0173829750999992000010712004-09100-044120FM-12+033199999V0200501N002611050019N0020001N1+02011+01971101221ADDAA124001091GF105991011021008001011031KA1240N+01701MA1999999097241MD1999999-0031REMSYN082AAXX  07124 82975 22595 50505 10201 20197 39724 40122 81213 333 20170 59003 60014;
0167829750999992000010718004-09100-044120FM-12+033199999V0202301N002611050019N0040001N1+02911+02171100931ADDAA106000091GF106991021031008001021041MA1999999097041MD1999999-0121REMSYN070AAXX  07184 82975 32596 62305 10291 20217 39704 40093 82324 333 59012;EQDQ01  00002PRCP06
0220829750999992000010800004-09100-044120FM-12+033199999V0200501N003612200019N0010001N1+02211+02171100891ADDAA106011991AY161061AY231061GF104991999011008001001001KA1240M+03161MA1999999096921MD1999999-0151MW1091REMSYN088AAXX  08004 82975 21594 40507 10221 20217 39692 40089 70963 82100 333 10316 59015 60121;EQDQ01+000022SCOTLC
0173829750999992000010812004-09100-044120FM-12+033199999V0203201N002612200019N0010001N1+02121+02091101111ADDAA124011991GF104991021021008001011031KA1240N+01611MA1999999097141MD1999999-0101REMSYN082AAXX  08124 82975 22594 43205 10212 20209 39714 40111 82213 333 20161 59010 60124;
0182829750999992000010818004-09100-044120FM-12+033199999V0201801N003611050019N0100001N1+02511+01911100981ADDAA106003091AY161061AY261061GF106991011031008001021041MA1999999097051MD1999999+0011MW1221REMSYN082AAXX  08184 82975 21597 61807 10251 20191 39705 40098 72266 81324 333 58001 60031;
0167829750999992000010900004-09100-044120FM-12+033199999V0200501N002611050019N0010001N1+02311+02251101051ADDAA106000021GF105991021021008001011031KA1240M+03051MA1999999097101MD1999999+0181REMSYN076AAXX  09004 82975 32594 50505 10231 20225 39710 40105 82213 333 10305 58018;
0220829750999992000010912004-09100-044120FM-12+033199999V0209999C000019999999N0200001N1+01911+01871101401ADDAA124035191AY161061AY231061GF108991999011008001001001KA1240N+01591MA1999999097401MD1999999+0261MW1091REMSYN088AAXX  09124 82975 21598 80000 10191 20187 39740 40140 70963 82100 333 20159 58026 60354;EQDQ01+000022SCOTLC
0217829750999992000010918004-09100-044120FM-12+033199999V0209999C000019999999N0200001N1+02021+01991101501ADDAA106004191AY161061AY261061GF108991999011008001001001MA1999999097511MD1999999+0461MW1221REMSYN082AAXX  09184 82975 21598 80000 10202 20199 39751 40150 72266 82100 333 58046 60041;EQDQ01+000022SCOTLCQ02+000002PRSWM1
0186829750999992000011000004-09100-044120FM-12+033199999V0203201N002619999999N0040001N1+02211+02121101171ADDAA106000021GF106991999011008001001001KA1240M+02981MA1999999097211MD1999999+0111REMSYN076AAXX  10004 82975 32596 63205 10221 20212 39721 40117 82100 333 10298 58011;EQDQ01+000022SCOTLC
0173829750999992000011012004-09100-044120FM-12+033199999V0200501N002610450019N0040001N1+02111+01961101391ADDAA124004191GF106991011021008001011051KA1240N+01721MA1999999097411MD1999999+0011REMSYN082AAXX  10124 82975 22596 60505 10211 20196 39741 40139 81215 333 20172 58001 60044;
0182829750999992000011018004-09100-044120FM-12+033199999V0201801N002611050019N0100001N1+02511+02231100981ADDAA115000591AY161061AY231061GF106991011031008001021041MA1999999097051MD1999999-0461MW1091REMSYN082AAXX  10184 82975 21597 61805 10251 20223 39705 40098 70963 81324 333 59046 69950;
0186829750999992000011100004-09100-044120FM-12+033199999V0201401N002611050019N0040001N1+02311+02161101051ADDAA106000091GF105991021021008001031021KA1240M+02961MA1999999097101MD1999999-0111REMSYN076AAXX  11004 82975 32596 51405 10231 20216 39710 40105 82232 333 10296 59011;EQDQ01  00002PRCP06
0173829750999992000011112004-09100-044120FM-12+033199999V0203201N002612200019N0002001N1+02311+02031101261ADDAA124000591GF103991011011008001021011KA1240N+01881MA1999999097301MD1999999-0111REMSYN082AAXX  11124 82975 22592 33205 10231 20203 39730 40126 81121 333 20188 59011 69954;
0167829750999992000011118004-09100-044120FM-12+033199999V0202301N002612200019N0005001N1+03101+02231100911ADDAA106000091GF104991021021008001011031MA1999999097041MD1999999-0011REMSYN070AAXX  11184 82975 32593 42305 10310 20223 39704 40091 82213 333 59001;EQDQ01  00002PRCP06
0186829750999992000011200004-09100-044120FM-12+033199999V0203601N002612200019N0010001N1+02711+02111100861ADDAA106000091GF104991021011012501031021KA1240M+03241MA1999999096951MD1999999-0151REMSYN076AAXX  12004 82975 32694 43605 10271 20211 39695 40086 82132 333 10324 59015;EQDQ01  00002PRCP06
0186829750999992000011212004-09100-044120FM-12+033199999V0200901N002611050019N0020001N1+02011+01871101241ADDAA106000091GF105991011021004501031031KA1240N+01731MA1999999097261MD1999999-0041REMSYN076AAXX  12124 82975 32495 50905 10201 20187 39726 40124 81233 333 20173 59004;EQDQ01  00002PRCP06
0167829750999992000011218004-09100-044120FM-12+033199999V0203201N002611050019N0040001N1+03011+02291100821ADDAA106000091GF106991011031008001021041MA1999999096941MD1999999-0101REMSYN070AAXX  12184 82975 32596 63205 10301 20229 39694 40082 81324 333 59010;EQDQ01  00002PRCP06
0186829750999992000011300004-09100-044120FM-12+033199999V0203201N002611050019N0010001N1+02611+02191100951ADDAA106000091GF105991021021008001011031KA1240M+03161MA1999999097031MD1999999+0081REMSYN076AAXX  13004 82975 32594 53205 10261 20219 39703 40095 82213 333 10316 58008;EQDQ01  00002PRCP06
0186829750999992000011312004-09100-044120FM-12+033199999V0200501N005110450019N0020001N1+02421+02191101261ADDAA106000091GF106991031021012501041021KA1240N+01931MA1999999097311MD1999999+0051REMSYN076AAXX  13124 82975 32695 60510 10242 20219 39731 40126 83242 333 20193 58005;EQDQ01  00002PRCP06
0167829750999992000011318004-09100-044120FM-12+033199999V0202301N002611050019N0040001N1+03011+02391100931ADDAA106000091GF106991021021008001031041MA1999999097051MD1999999+0111REMSYN070AAXX  13184 82975 32596 62305 10301 20239 39705 40093 82234 333 58011;EQDQ01  00002PRCP06
0206829750999992000011400004-09100-044120FM-12+033199999V0202301N002619999999N0010001N1+02711+02331100901ADDAA199000091GF105991999011008001001001KA1240M+03241MA1999999096991MD1999999-0041REMSYN080    AAXX  14004 82975 32594 52305 10271 20233 39699 40090 82100 333 10324 59004;EQDQ01+000022SCOTLCQ02  00002PRCP99
0190829750999992000011412004-09100-044120FM-12+033199999V0201801N002610450019N0040001N1+02121+02091101211ADDAA199000091GF106991011041008001021021KA1240N+01771MA1999999097241MD1999999-0081REMSYN080    AAXX  14124 82975 32596 61805 10212 20209 39724 40121 81422 333 20177 59008;EQDQ01  00002PRCP99
0171829750999992000011418004-09100-044120FM-12+033199999V0202301N002611050019N0020001N1+02911+02301100891ADDAA199000091GF105991011031008001011021MA1999999097001MD1999999-0051REMSYN074    AAXX  14184 82975 32595 52305 10291 20230 39700 40089 81312 333 59005;EQDQ01  00002PRCP99
0206829750999992000011512004-09100-044120FM-12+033199999V0201801N002612200019N0005001N1+02311+02251101101ADDAA199000091GF104991999011008001001001KA1240N+01941MA1999999097151MD1999999-0091REMSYN080    AAXX  15124 82975 32593 41805 10231 20225 39715 40110 82100 333 20194 59009;EQDQ01+000022SCOTLCQ02  00002PRCP99
0187829750999992000011518004-09100-044120FM-12+033199999V0201801N002612200019N0020001N1+03161+02191101051ADDAA199000091GF103991999011004501001001MA1999999097051MD1999999+0051REMSYN074    AAXX  15184 82975 32495 31805 10316 20219 39705 40105 82100 333 58005;EQDQ01+000022SCOTLCQ02  00002PRCP99
0190829750999992000011612004-09100-044120FM-12+033199999V0200901N002610450019N0040001N1+02211+02031101231ADDAA199000091GF106991021011008001041021KA1240N+01851MA1999999097261MD1999999+0111REMSYN080    AAXX  16124 82975 32596 60905 10221 20203 39726 40123 82142 333 20185 58011;EQDQ01  00002PRCP99
0171829750999992000011618004-09100-044120FM-12+033199999V0202301N002612200019N0200001N1+03311+02211100911ADDAA199000091GF103991021021004501011021MA1999999097051MD1999999+0001REMSYN074    AAXX  16184 82975 32498 32305 10331 20221 39705 40091 82212 333 58000;EQDQ01  00002PRCP99
0190829750999992000011700004-09100-044120FM-12+033199999V0201801N002612200019N0005001N1+02821+02151100801ADDAA199000091GF104991021011004501021031KA1240M+03281MA1999999096901MD1999999+0141REMSYN080    AAXX  17004 82975 32493 41805 10282 20215 39690 40080 82123 333 10328 58014;EQDQ01  00002PRCP99
0190829750999992000011712004-09100-044120FM-12+033199999V0201401N003611050019N0020001N1+02341+02131101211ADDAA199000091GF105991021021008001011041KA1240N+01931MA1999999097261MD1999999+0001REMSYN080    AAXX  17124 82975 32595 51407 10234 20213 39726 40121 82214 333 20193 58000;EQDQ01  00002PRCP99
0171829750999992000011718004-09100-044120FM-12+033199999V0202301N002611050019N0010001N1+03101+02091100881ADDAA199000091GF105991021011008001021031MA1999999097011MD1999999-0041REMSYN074    AAXX  17184 82975 32594 52305 10310 20209 39701 40088 82123 333 59004;EQDQ01  00002PRCP99
0205829750999992000011800004-09100-044120FM-12+033199999V0203201N002611050019N0010001N1+02511+02291100991ADDAA106001091AY161061AY231061GF105991031011008001001021KA1240M+03191MA1999999097061MD1999999+0161MW1091REMSYN092    AAXX  18004 82975 21594 53205 10251 20229 39706 40099 70963 83102 333 10319 58016 60011;
0177829750999992000011812004-09100-044120FM-12+033199999V0201801N002611050019N0040001N1+02311+02111101331ADDAA124001091GF105991021031008001011021KA1240N+01861MA1999999097371MD1999999+0111REMSYN086    AAXX  18124 82975 22596 51805 10231 20211 39737 40133 82312 333 20186 58011 60014;
0205829750999992000011818004-09100-044120FM-12+033199999V0202301N002610450019N0200001N1+02011+01921101221ADDAA106007191AY161061AY261061GF108991021041008001021051MA1999999097241MD1999999+0231MW1221REMSYN086    AAXX  18184 82975 21598 82305 10201 20192 39724 40122 72266 82425 333 58023 60071;EQDQ01+000002PRSWM1
0171829750999992000011900004-09100-044120FM-12+033199999V0202701N002611050019N0100001N1+02011+01951101151ADDAA199000021GF106991011021008001031041KA1240M+02871MA1999999097171MD1999999+0111REMSYN080    AAXX  19004 82975 32597 62705 10201 20195 39717 40115 81234 333 10287 58011;
0177829750999992000011912004-09100-044120FM-12+033199999V0203201N002610450019N0040001N1+01811+01771101411ADDAA124007191GF107991021031008001041021KA1240N+01741MA1999999097401MD1999999+0031REMSYN086    AAXX  19124 82975 22596 73205 10181 20177 39740 40141 82342 333 20174 58003 60074;
0167829750999992000011918004-09100-044120FM-12+033199999V0201801N002612200019N0020001N1+03021+02171101121ADDAA199000091GF103991021011004501031021MA1999999097251MD1999999+0011REMSYN070AAXX  19184 82975 32495 31805 10302 20217 39725 40112 82132 333 58001;EQDQ01  00002PRCP99
0167829750999992000012018004-09100-044120FM-12+033199999V0200501N002612200019N0005001N1+02511+02231101071ADDAA199000091GF104991021021008001011021MA1999999097141MD1999999-0141REMSYN070AAXX  20184 82975 32593 40505 10251 20223 39714 40107 82212 333 59014;EQDQ01  00002PRCP99
0202829750999992000012100004-09100-044120FM-12+033199999V0200901N003619999999N9999999N1+02811+02421101011ADDAA199000091GF105991999021004501001001KA1240M+03301MA1999999097101MD1999999+0051REMSYN076AAXX  21004 82975 324// 50907 10281 20242 39710 40101 83200 333 10330 58005;EQDQ01+000032SCOTLCQ02  00002PRCP99
0186829750999992000012112004-09100-044120FM-12+033199999V0201401N002610450019N0020001N1+01981+01931101251ADDAA199000091GF106991031021012501031041KA1240N+01641MA1999999097271MD1999999-0061REMSYN076AAXX  21124 82975 32695 61405 10198 20193 39727 40125 83234 333 20164 59006;EQDQ01  00002PRCP99
0167829750999992000012118004-09100-044120FM-12+033199999V0203601N004112200019N0010001N1+02141+99999101131ADDAA199000091GF104991021031008001011031MA1999999097161MD1999999+0011REMSYN070AAXX  21184 82975 32594 43608 10214 20215 39716 40113 82313 333 58001;EQDQ01  00002PRCP99
0202829750999992000012200004-09100-044120FM-12+033199999V0201401N003619999999N0040001N1+02281+02211101061ADDAA199000091GF106991999011008001001001KA1240M+03041MA1999999097111MD1999999+0011REMSYN076AAXX  22004 82975 32596 61407 10228 20221 39711 40106 82100 333 10304 58001;EQDQ01+000022SCOTLCQ02  00002PRCP99
0201829750999992000012212004-09100-044120FM-12+033199999V0201801N002611050019N0040001N1+01961+01931101401ADDAA124000591AY161061AY231061GF106991021031008001021041KA1240N+01681MA1999999097411MD1999999+0081MW1091REMSYN088AAXX  22124 82975 21596 61805 10196 20193 39741 40140 70963 82324 333 20168 58008 69944;
0182829750999992000012218004-09100-044120FM-12+033199999V0202301N002610450019N0100001N1+02511+02321101211ADDAA106004191AY161061AY231061GF106991031021008001031041MA1999999097271MD1999999+0111MW1091REMSYN082AAXX  22184 82975 21597 62305 10251 20232 39727 40121 70963 83234 333 58011 60041;
0201829750999992000012300004-09100-044120FM-12+033199999V0203601N002610450019N0200001N1+02201+02171101121ADDAA106002091AY161061AY231061GF107991021021008001041021KA1240M+02931MA1999999097161MD1999999+0051MW1091REMSYN088AAXX  23004 82975 21598 73605 10220 20217 39716 40112 70963 82242 333 10293 58005 60021;
0192829750999992000012312004-09100-044120FM-12+033199999V0202701N002619999999N0100001N1+02101+02071101391ADDAA124006191GF107991999011008001001001KA1240N+01741MA1999999097411MD1999999+0001REMSYN082AAXX  23124 82975 22597 72705 10210 20207 39741 40139 82100 333 20174 58000 60064;EQDQ01+000022SCOTLC
0201829750999992000012318004-09100-044120FM-12+033199999V0209999C000019999999N0100001N1+02111+02021101211ADDAA106017091AY161061AY231061GF107991999011008001001001MA1999999097241MD1999999-0061MW1091REMSYN082AAXX  23184 82975 21597 70000 10211 20202 39724 40121 70963 82100 333 59006 60171;EQDQ01+000022SCOTLC
0202829750999992000012400004-09100-044120FM-12+033199999V0209999C000010075019N0100001N1+02101+02071101161ADDAA199000091GF108991999021008001001001KA1240M+02891MA1999999097191MD1999999+0031REMSYN076AAXX  24004 82975 32597 80000 10210 20207 39719 40116 86200 333 10289 58003;EQDQ01+000062SCOTLCQ02  00002PRCP99
0173829750999992000012412004-09100-044120FM-12+033199999V0201401N002611050019N0040001N1+02211+02151101331ADDAA124017091GF106991021021008001041031KA1240N+01851MA1999999097361MD1999999-0051REMSYN082AAXX  24124 82975 22596 61405 10221 20215 39736 40133 82243 333 20185 59005 60174;
0182829750999992000012418004-09100-044120FM-12+033199999V0202301N003611050019N0040001N1+02711+02431100961ADDAA106000591AY161061AY231061GF106991021031008001021041MA1999999097051MD1999999-0191MW1091REMSYN082AAXX  24184 82975 21596 62307 10271 20243 39705 40096 70963 82324 333 59019 69941;
0220829750999992000012500004-09100-044120FM-12+033199999V0209999C000010450019N0040001N1+01931+01881101251ADDAA106019191AY161061AY261061GF107991031021008001051031KA1240M+02931MA1999999097261MD1999999+0071MW1221REMSYN088AAXX  25004 82975 21596 70000 10193 20188 39726 40125 72266 83253 333 10293 58007 60191;EQDQ01+000002PRSWM1
0201829750999992000012512004-09100-044120FM-12+033199999V0201801N002610450019N0040001N1+02911+01871101341ADDAA124020191AY161061AY231061GF106991031031008001021041KA1240N+01601MA1999999097351MD1999999-0011MW1091REMSYN088AAXX  25124 82975 21596 61805 10291 20187 39735 40134 70963 83324 333 20160 59001 60204;
0167829750999992000012518004-09100-044120FM-12+033199999V0209999C000010450019N0100001N1+02111+01641101171ADDAA199000091GF108991021041012501021051MA1999999097201MD1999999+0151REMSYN070AAXX  25184 82975 32697 80000 10211 20164 39720 40117 82425 333 58015;EQDQ01  00002PRCP99
0202829750999992000012600004-09100-044120FM-12+033199999V0209999C000019999999N0010001N1+02211+02121101071ADDAA199000091GF105991999011008001001001KA1240M+02981MA1999999097111MD1999999-0151REMSYN076AAXX  26004 82975 32594 50000 10221 20212 39711 40107 82100 333 10298 59015;EQDQ01+000022SCOTLCQ02  00002PRCP99
0186829750999992000012612004-09100-044120FM-12+033199999V0202301N002611050019N0020001N1+01911+01871101441ADDAA199000091GF105991021031004501011031KA1240N+01621MA1999999097441MD1999999+0091REMSYN076AAXX  26124 82975 32495 52305 10191 20187 39744 40144 82313 333 20162 58009;EQDQ01  00002PRCP99
0167829750999992000012618004-09100-044120FM-12+033199999V0201801N003612200019N0005001N1+02811+01951101151ADDAA199000091GF104991021021004501011031MA1999999097241MD1999999+0041REMSYN070AAXX  26184 82975 32493 41807 10281 20195 39724 40115 82213 333 58004;EQDQ01  00002PRCP99
0186829750999992000012700004-09100-044120FM-12+033199999V0201801N002611050019N0010001N1+02911+02171101011ADDAA199000091GF105991021021008001011041KA1240M+03341MA1999999097111MD1999999+0001REMSYN076AAXX  27004 82975 32594 51805 10291 20217 39711 40101 82214 333 10334 58000;EQDQ01  00002PRCP99
0186829750999992000012712004-09100-044120FM-12+033199999V0202301N002610450019N0040001N1+02011+01951101401ADDAA199000091GF106991011021008001041021KA1240N+01731MA1999999097411MD1999999-0031REMSYN076AAXX  27124 82975 32596 62305 10201 20195 39741 40140 81242 333 20173 59003;EQDQ01  00002PRCP99
0167829750999992000012718004-09100-044120FM-12+033199999V0201801N002611050019N0005001N1+03201+02241101021ADDAA199000091GF105991021031008001021021MA1999999097151MD1999999+0041REMSYN070AAXX  27184 82975 32593 51805 10320 20224 39715 40102 82322 333 58004;EQDQ01  00002PRCP99
0202829750999992000012800004-09100-044120FM-12+033199999V0209999C000012200019N0020001N1+02401+02151101111ADDAA199000091GF104991999021004501001001KA1240M+03261MA1999999097161MD1999999+0051REMSYN076AAXX  28004 82975 32495 40000 10240 20215 39716 40111 83200 333 10326 58005;EQDQ01+000032SCOTLCQ02  00002PRCP99
0167829750999992000012818004-09100-044120FM-12+033199999V0209999C000010450019N0005001N1+02811+02271101151ADDAA199000091GF105991031021008001011031MA1999999097241MD1999999-0091REMSYN070AAXX  28184 82975 32593 50000 10281 20227 39724 40115 83213 333 59009;EQDQ01  00002PRCP99
0186829750999992000012900004-09100-044120FM-12+033199999V02099999999991050019N0005001N1+02661+02351100921ADDAA199000091GF105991021031008001021021KA1240M+03341MA1999999097011MD1999999-0151REMSYN076AAXX  29004 82975 32593 5//// 10266 20235 39701 40092 82322 333 10334 59015;EQDQ01  00002PRCP99
0202829750999992000012912004-09100-044120FM-12+033199999V0202301N002619999999N0040001N1+02011+01951101281ADDAA199000091GF105991999021004501001001KA1240N+01741MA1999999097301MD1999999+0021REMSYN076AAXX  29124 82975 32496 52305 10201 20195 39730 40128 83200 333 20174 58002;EQDQ01+000032SCOTLCQ02  00002PRCP99
0183829750999992000012918004-09100-044120FM-12+033199999V0202301N003619999999N0005001N1+02811+02311101111ADDAA199000091GF105991999021008001001001MA1999999097201MD1999999-0041REMSYN070AAXX  29184 82975 32593 52307 10281 20231 39720 40111 83200 333 59004;EQDQ01+000032SCOTLCQ02  00002PRCP99
0202829750999992000013000004-09100-044120FM-12+033199999V0201401N004112200019N0020001N1+03001+02191101001ADDAA199000091GF104991999021004501001001KA1240M+03461MA1999999097111MD1999999+0101REMSYN076AAXX  30004 82975 32495 41408 10300 20219 39711 40100 83200 333 10346 58010;EQDQ01+000032SCOTLCQ02  00002PRCP99
0186829750999992000013012004-09100-044120FM-12+033199999V0200901N002611050019N0010001N1+02131+02021101441ADDAA199000091GF105991011021008001031031KA1240N+01851MA1999999097461MD1999999+0161REMSYN076AAXX  30124 82975 32594 50905 10213 20202 39746 40144 81233 333 20185 58016;EQDQ01  00002PRCP99
0167829750999992000013018004-09100-044120FM-12+033199999V0202301N003611050019N0005001N1+03001+02321101241ADDAA199000091GF105991021031004501021021MA1999999097341MD1999999+0141REMSYN070AAXX  30184 82975 32493 52307 10300 20232 39734 40124 82322 333 58014;EQDQ01  00002PRCP99
0186829750999992000013100004-09100-044120FM-12+033199999V0201801N003612200019N0010001N1+02601+02121101161ADDAA199000091GF103991011021008001011031KA1240M+03271MA1999999097231MD1999999+0121REMSYN076AAXX  31004 82975 32594 31807 10260 20212 39723 40116 81213 333 10327 58012;EQDQ01  00002PRCP99
0186829750999992000013112004-09100-044120FM-12+033199999V0200501N004110450019N0020001N1+02421+02031101611ADDAA199000091GF105991031021004501031021KA1240N+02011MA1999999097651MD1999999+0191REMSYN076AAXX  31124 82975 32495 50508 10242 20203 39765 40161 83232 333 20201 58019;EQDQ01  00002PRCP99
0167829750999992000013118004-09100-044120FM-12+033199999V0202301N003612200019N0005001N1+03211+01751101431ADDAA199000091GF104991021021004501011031MA1999999097551MD1999999+0231REMSYN070AAXX  31184 82975 32493 42307 10321 20175 39755 40143 82213 333 58023;EQDQ01  00002PRCP99
0186829750999992000020112004-09100-044120FM-12+033199999V0200501N004112200019N0010001N1+02461+02151101571ADDAA199000091GF103991021011008001021021KA1240N+02051MA1999999097621MD1999999-0031REMSYN076AAXX  01124 82975 32594 30508 10246 20215 39762 40157 82122 333 20205 59003;EQDQ01  00002PRCP99
0167829750999992000020118004-09100-044120FM-12+033199999V0209999C000012200019N0002001N1+03311+01951101321ADDAA199000091GF103991021021004501011021MA1999999097451MD1999999-0101REMSYN070AAXX  01184 82975 32492 30000 10331 20195 39745 40132 82212 333 59010;EQDQ01  00002PRCP99
0186829750999992000020200004-09100-044120FM-12+033199999V0203201N003612200019N0005001N1+02841+02071101041ADDAA199000091GF104991021011008001031021KA1240M+03431MA1999999097141MD1999999-0191REMSYN076AAXX  02004 82975 32593 43207 10284 20207 39714 40104 82132 333 10343 59019;EQDQ01  00002PRCP99
0186829750999992000020212004-09100-044120FM-12+033199999V0201401N005112200019N0010001N1+02101+02071101351ADDAA199000091GF103991021011004501021021KA1240N+01931MA1999999097371MD1999999-0251REMSYN076AAXX  02124 82975 32494 31410 10210 20207 39737 40135 82122 333 20193 59025;EQDQ01  00002PRCP99
0202829750999992000020300004-09100-044120FM-12+033199999V0201801N002619999999N0010001N1+02911+02301100961ADDAA199000091GF105991999011008001001001KA1240M+03351MA1999999097061MD1999999-0081REMSYN076AAXX  03004 82975 32594 51805 10291 20230 39706 40096 82100 333 10335 59008;EQDQ01+000022SCOTLCQ02  00002PRCP99
0186829750999992000020312004-09100-044120FM-12+033199999V0209999C000012200019N0005001N1+02111+02071101221ADDAA199000091GF104991021021004501011031KA1240N+01961MA1999999097251MD1999999-0121REMSYN076AAXX  03124 82975 32493 40000 10211 20207 39725 40122 82213 333 20196 59012;EQDQ01  00002PRCP99
0167829750999992000020318004-09100-044120FM-12+033199999V0209999C000010450019N0040001N1+03211+02331100981ADDAA199000091GF106991031031008001021041MA1999999097111MD1999999-0101REMSYN070AAXX  03184 82975 32596 60000 10321 20233 39711 40098 83324 333 59010;EQDQ01  00002PRCP99
0186829750999992000020400004-09100-044120FM-12+033199999V0209999C000011050019N0005001N1+02511+02251100971ADDAA199000091GF105991021021008001011031KA1240M+03121MA1999999097041MD1999999-0021REMSYN076AAXX  04004 82975 32593 50000 10251 20225 39704 40097 82213 333 10312 59002;EQDQ01  00002PRCP99
0186829750999992000020412004-09100-044120FM-12+033199999V0200501N006710450019N0200001N1+02131+02091101441ADDAA199000091GF107991031021008001041021KA1240N+01831MA1999999097461MD1999999+0211REMSYN076AAXX  04124 82975 32598 70513 10213 20209 39746 40144 83242 333 20183 58021;EQDQ01  00002PRCP99
0167829750999992000020418004-09100-044120FM-12+033199999V0202301N003610450019N0100001N1+03061+02801101191ADDAA199000091GF107991031031008001021051MA1999999097301MD1999999+0191REMSYN070AAXX  04184 82975 32597 72307 10306 20280 39730 40119 83325 333 58019;EQDQ01  00002PRCP99
0202829750999992000020500004-09100-044120FM-12+033199999V0201801N002619999999N0100001N1+02201+02171101381ADDAA199000091GF106991999021012501001001KA1240M+03041MA1999999097411MD1999999+0371REMSYN076AAXX  05004 82975 32697 61805 10220 20217 39741 40138 83200 333 10304 58037;EQDQ01+000032SCOTLCQ02  00002PRCP99
0186829750999992000020512004-09100-044120FM-12+033199999V0201801N002610450019N0100001N1+01971+01951101351ADDAA199000091GF106991031021008001021041KA1240N+01621MA1999999097361MD1999999-0101REMSYN076AAXX  05124 82975 32597 61805 10197 20195 39736 40135 83224 333 20162 59010;EQDQ01  00002PRCP99
0156829750999992000020612004-09100-044120FM-12+033199999V0200901N003619999999N0100001N1+02211+02131999999ADDAA199000091GF107991999999008001999999KA1240N+01731REMSYN075AAXX  06124 82975 32597 70907 10221 20213 3976 40144 82100 333 20173 58010;EQDQ01  00002PRCP99
0183829750999992000020618004-09100-044120FM-12+033199999V0209999C000019999999N0100001N1+02911+02171101251ADDAA199000091GF106991999011004501001001MA1999999097351MD1999999-0051REMSYN070AAXX  06184 82975 32497 60000 10291 20217 39735 40125 82100 333 59005;EQDQ01+000022SCOTLCQ02  00002PRCP99
0220829750999992000020700004-09100-044120FM-12+033199999V0203601N002619999999N0040001N1+02211+02171101321ADDAA106014091AY161061AY231061GF106991999011008001001001KA1240M+03051MA1999999097351MD1999999+0001MW1091REMSYN088AAXX  07004 82975 21596 63605 10221 20217 39735 40132 70963 82100 333 10305 58000 60141;EQDQ01+000022SCOTLC
0173829750999992000020712004-09100-044120FM-12+033199999V0201801N002610450019N0040001N1+02231+02191101531ADDAA124014091GF106991031021008001041031KA1240N+01761MA1999999097561MD1999999+0101REMSYN082AAXX  07124 82975 22596 61805 10223 20219 39756 40153 83243 333 20176 58010 60144;
0167829750999992000020718004-09100-044120FM-12+033199999V0200501N002611050019N0010001N1+02811+02111101321ADDAA199000091GF105991021031008001021021MA1999999097401MD1999999+0051REMSYN070AAXX  07184 82975 32594 50505 10281 20211 39740 40132 82322 333 58005;EQDQ01  00002PRCP99
0186829750999992000020800004-09100-044120FM-12+033199999V0201401N005110450019N0020001N1+02411+02131101371ADDAA199000091GF106991031021004501031021KA1240M+03091MA1999999097421MD1999999+0071REMSYN076AAXX  08004 82975 32495 61410 10241 20213 39742 40137 83232 333 10309 58007;EQDQ01  00002PRCP99
0186829750999992000020812004-09100-044120FM-12+033199999V0209999C000010450019N0010001N1+02011+01971101391ADDAA199000091GF105991031021008001011041KA1240N+01521MA1999999097401MD1999999-0161REMSYN076AAXX  08124 82975 32594 50000 10201 20197 39740 40139 83214 333 20152 59016;EQDQ01  00002PRCP99
0167829750999992000020818004-09100-044120FM-12+033199999V0202301N002612200019N0005001N1+03011+02141101091ADDAA199000091GF104991031021008001011031MA1999999097201MD1999999-0201REMSYN070AAXX  08184 82975 32593 42305 10301 20214 39720 40109 83213 333 59020;EQDQ01  00002PRCP99
0186829750999992000020900004-09100-044120FM-12+033199999V0209999C000012200019N0002001N1+02611+02371101231ADDAA199000091GF103991031021004501001001KA1240M+03251MA1999999097301MD1999999-0121REMSYN076AAXX  09004 82975 32492 30000 10261 20237 39730 40123 83200 333 10325 59012;EQDQ01  00002PRCP99
0186829750999992000020912004-09100-044120FM-12+033199999V0202701N003611050019N0040001N1+02211+02131101441ADDAA199000091GF106991021031008001021031KA1240N+01671MA1999999097461MD1999999+0061REMSYN076AAXX  09124 82975 32596 62707 10221 20213 39746 40144 82323 333 20167 58006;EQDQ01  00002PRCP99
0182829750999992000020918004-09100-044120FM-12+033199999V0209999C000011050019N0010001N1+02711+02391101121ADDAA106001091AY161061AY231061GF105991021021008001031021MA1999999097201MD1999999+0001MW1091REMSYN082AAXX  09184 82975 21594 50000 10271 20239 39720 40112 70963 82232 333 58000 60011;
0186829750999992000021000004-09100-044120FM-12+033199999V0201801N002610450019N0020001N1+02501+02251101201ADDAA199000091GF106991021011004501041021KA1240M+03151MA1999999097261MD1999999-0041REMSYN076AAXX  10004 82975 32495 61805 10250 20225 39726 40120 82142 333 10315 59004;EQDQ01  00002PRCP99
0173829750999992000021012004-09100-044120FM-12+033199999V0202301N002611050019N0010001N1+02231+02171101331ADDAA124001091GF105991021031008001041021KA1240N+01711MA1999999097361MD1999999-0101REMSYN082AAXX  10124 82975 22594 52305 10223 20217 39736 40133 82342 333 20171 59010 60014;
0168829750999992000021018004-09100-044120FM-12+033199999V0202301N003611050019N0020001N1+03011+02141101101ADDAA199000091GF106991021031008001021041MD1999999+0001REMSYN070AAXX  10184 82975 32595 62307 10301 20214 39521 40110 82324 333 58000;EQDQ01+095213APOSP Q02  00002PRCP99
0202829750999992000021100004-09100-044120FM-12+033199999V0201401N003612200019N0005001N1+02811+02351101121ADDAA199000091GF104991999011008001001001KA1240M+03291MA1999999097211MD1999999-0051REMSYN076AAXX  11004 82975 32593 41407 10281 20235 39721 40112 82100 333 10329 59005;EQDQ01+000022SCOTLCQ02  00002PRCP99
0201829750999992000021112004-09100-044120FM-12+033199999V0200901N004110450019N0040001N1+02141+02111101441ADDAA124001091AY161061AY231061GF107991031021008001041031KA1240N+01571MA1999999097461MD1999999+0101MW1091REMSYN088AAXX  11124 82975 21596 70908 10214 20211 39746 40144 70963 83243 333 20157 58010 60014;
0167829750999992000021118004-09100-044120FM-12+033199999V0202301N003611050019N0010001N1+03011+02171101211ADDAA199000091GF105991021031008001011021MA1999999097311MD1999999+0101REMSYN070AAXX  11184 82975 32594 52307 10301 20217 39731 40121 82312 333 58010;EQDQ01  00002PRCP99
0186829750999992000021200004-09100-044120FM-12+033199999V0203601N002610450019N0010001N1+02501+02251101141ADDAA199000091GF106991011021008001051021KA1240M+03191MA1999999097201MD1999999-0011REMSYN076AAXX  12004 82975 32594 63605 10250 20225 39720 40114 81252 333 10319 59001;EQDQ01  00002PRCP99
0202829750999992000021212004-09100-044120FM-12+033199999V0200501N004119999999N0020001N1+02371+02241101361ADDAA199000091GF106991999011004501001001KA1240N+01721MA1999999097411MD1999999-0051REMSYN076AAXX  12124 82975 32495 60508 10237 20224 39741 40136 82100 333 20172 59005;EQDQ01+000022SCOTLCQ02  00002PRCP99
0183829750999992000021218004-09100-044120FM-12+033199999V0203201N005112200019N0020001N1+03201+02171101181ADDAA199000091GF104991999011004501001001MA1999999097251MD1999999-0101REMSYN070AAXX  12184 82975 32495 43210 10320 20217 39725 40118 82100 333 59010;EQDQ01+000022SCOTLCQ02  00002PRCP99
0202829750999992000021300004-09100-044120FM-12+033199999V0202701N002612200019N0020001N1+03011+02001100891ADDAA199000091GF104991999021004501001001KA1240M+03381MA1999999097011MD1999999-0191REMSYN076AAXX  13004 82975 32495 42705 10301 20200 39701 40089 85200 333 10338 59019;EQDQ01+000052SCOTLCQ02  00002PRCP99
0186829750999992000021312004-09100-044120FM-12+033199999V0209999C000011050019N0040001N1+02511+02431101291ADDAA199000091GF106991021041008001021031KA1240N+01931MA1999999097351MD1999999-0071REMSYN076AAXX  13124 82975 32596 60000 10251 20243 39735 40129 82423 333 20193 59007;EQDQ01  00002PRCP99
0167829750999992000021318004-09100-044120FM-12+033199999V0203201N003612200019N0010001N1+03111+01941101051ADDAA199000091GF104991011021008001031021MA1999999097171MD1999999-0041REMSYN070AAXX  13184 82975 32594 43207 10311 20194 39717 40105 81232 333 59004;EQDQ01  00002PRCP99
0186829750999992000021400004-09100-044120FM-12+033199999V0201801N002611050019N0005001N1+03101+02031101121ADDAA199000091GF105991021031004501021031KA1240M+03411MA1999999097241MD1999999+0231REMSYN076AAXX  14004 82975 32493 51805 10310 20203 39724 40112 82323 333 10341 58023;EQDQ01  00002PRCP99
0201829750999992000021412004-09100-044120FM-12+033199999V0209999C000010450019N0200001N1+02011+01921101631ADDAA124000591AY161061AY231061GF108991031041008001021051KA1240N+01501MA1999999097631MD1999999+0281MW1091REMSYN088AAXX  14124 82975 21598 80000 10201 20192 39763 40163 70963 83425 333 20150 58028 69944;
0167829750999992000021418004-09100-044120FM-12+033199999V0203201N003611050019N0010001N1+02611+01941101191ADDAA199000091GF105991021021008001031021MA1999999097261MD1999999+0091REMSYN070AAXX  14184 82975 32594 53207 10261 20194 39726 40119 82232 333 58009;EQDQ01  00002PRCP99
0202829750999992000021500004-09100-044120FM-12+033199999V0200901N004119999999N0020001N1+02341+02001101381ADDAA199000091GF106991999011004501001001KA1240M+03041MA1999999097421MD1999999+0181REMSYN076AAXX  15004 82975 32495 60908 10234 20200 39742 40138 82100 333 10304 58018;EQDQ01+000022SCOTLCQ02  00002PRCP99
0186829750999992000021512004-09100-044120FM-12+033199999V0200501N003611050019N0010001N1+02201+02051101411ADDAA199000091GF106991021021008001031041KA1240N+01701MA1999999097441MD1999999-0191REMSYN076AAXX  15124 82975 32594 60507 10220 20205 39744 40141 82234 333 20170 59019;EQDQ01  00002PRCP99
0167829750999992000021518004-09100-044120FM-12+033199999V0201401N003611050019N0010001N1+03151+02151101071ADDAA199000091GF105991011031008001021031MA1999999097201MD1999999-0061REMSYN070AAXX  15184 82975 32594 51407 10315 20215 39720 40107 81323 333 59006;EQDQ01  00002PRCP99
0186829750999992000021600004-09100-044120FM-12+033199999V0202301N002611050019N0020001N1+02501+02321101161ADDAA199000091GF105991021011004501031021KA1240M+03121MA1999999097221MD1999999-0201REMSYN076AAXX  16004 82975 32495 52305 10250 20232 39722 40116 82132 333 10312 59020;EQDQ01  00002PRCP99
0201829750999992000021612004-09100-044120FM-12+033199999V0209999C000011050019N0040001N1+02111+02001101491ADDAA124000591AY161061AY231061GF106991021021008001031041KA1240N+01621MA1999999097511MD1999999+0071MW1091REMSYN088AAXX  16124 82975 21596 60000 10211 20200 39751 40149 70963 82234 333 20162 58007 69954;
0167829750999992000021618004-09100-044120FM-12+033199999V0209999C000010450019N0020001N1+02911+02101101071ADDAA199000091GF105991031021004501011031MA1999999097171MD1999999-0031REMSYN070AAXX  16184 82975 32495 50000 10291 20210 39717 40107 83213 333 59003;EQDQ01  00002PRCP99
0202829750999992000021700004-09100-044120FM-12+033199999V0203601N002619999999N0040001N1+02601+02331101131ADDAA199000091GF106991999011008001001001KA1240M+03201MA1999999097201MD1999999-0021REMSYN076AAXX  17004 82975 32596 63605 10260 20233 39720 40113 82100 333 10320 59002;EQDQ01+000022SCOTLCQ02  00002PRCP99
0201829750999992000021712004-09100-044120FM-12+033199999V0200901N002610450019N0100001N1+01911+01801101471ADDAA124037191AY161061AY231061GF108991021031008001051031KA1240N+01481MA1999999097471MD1999999-0041MW1091REMSYN088AAXX  17124 82975 21597 80905 10191 20180 39747 40147 70963 82353 333 20148 59004 60374;
0167829750999992000021718004-09100-044120FM-12+033199999V0209999C000011050019N0010001N1+02711+02171101161ADDAA199000091GF106991011021008001031031MA1999999097241MD1999999+0071REMSYN070AAXX  17184 82975 32594 60000 10271 20217 39724 40116 81233 333 58007;EQDQ01  00002PRCP99
0186829750999992000021800004-09100-044120FM-12+033199999V0209999C000010450019N0100001N1+02311+02201101161ADDAA199000091GF106991021031008001031021KA1240M+03151MA1999999097211MD1999999+0011REMSYN076AAXX  18004 82975 32597 60000 10231 20220 39721 40116 82332 333 10315 58001;EQDQ01  00002PRCP99
0201829750999992000021812004-09100-044120FM-12+033199999V0209999C000011050019N0010001N1+02061+02031101381ADDAA124003091AY161061AY231061GF105991021021008001011041KA1240N+01571MA1999999097401MD1999999-0071MW1091REMSYN088AAXX  18124 82975 21594 50000 10206 20203 39740 40138 70963 82214 333 20157 59007 60034;
0183829750999992000021818004-09100-044120FM-12+033199999V0203601N004110075019N0040001N1+02811+02201101151ADDAA199000091GF107991999021008001001001MA1999999097241MD1999999+0001REMSYN070AAXX  18184 82975 32596 73608 10281 20220 39724 40115 85200 333 58000;EQDQ01+000052SCOTLCQ02  00002PRCP99
0236829750999992000021900004-09100-044120FM-12+033199999V0201801N003619999999N0100001N1+01911+01871101411ADDAA106027991AY161061AY261061GF108991999011008001001001KA1240M+02931MA1999999097451MD1999999+0201MW1221REMSYN088AAXX  19004 82975 21597 81807 10191 20187 39745 40141 72266 82100 333 10293 58020 60281;EQDQ01+000022SCOTLCQ02+000002PRSWM1
0201829750999992000021912004-09100-044120FM-12+033199999V0200901N002610450019N0040001N1+01911+01831101581ADDAA124033091AY161061AY231061GF107991031021008001051021KA1240N+01371MA1999999097571MD1999999-0171MW1091REMSYN088AAXX  19124 82975 21596 70905 10191 20183 39757 40158 70963 83252 333 20137 59017 60334;
0182829750999992000021918004-09100-044120FM-12+033199999V0201401N004110450019N0100001N1+02061+02011101381ADDAA106016091AY161061AY231061GF108991031021008001061021MA1999999097401MD1999999+0161MW1091REMSYN082AAXX  19184 82975 21597 81408 10206 20201 39740 40138 70963 83262 333 58016 60161;
0186829750999992000022000004-09100-044120FM-12+033199999V0203201N003610450019N0100001N1+02201+01951101241ADDAA199000091GF107991031021004501041041KA1240M+02981MA1999999097261MD1999999-0151REMSYN076AAXX  20004 82975 32497 73207 10220 20195 39726 40124 83244 333 10298 59015;EQDQ01  00002PRCP99
0192829750999992000022012004-09100-044120FM-12+033199999V0200501N005119999999N0040001N1+02111+02071101501ADDAA124016091GF107991999011008001001001KA1240N+01491MA1999999097521MD1999999-0051REMSYN082AAXX  20124 82975 22596 70510 10211 20207 39752 40150 82100 333 20149 59005 60164;EQDQ01+000022SCOTLC
0183829750999992000022018004-09100-044120FM-12+033199999V0203601N004119999999N0010001N1+03201+02271101271ADDAA199000091GF105991999011004501001001MA1999999097391MD1999999-0011REMSYN070AAXX  20184 82975 32494 53608 10320 20227 39739 40127 82100 333 59001;EQDQ01+000022SCOTLCQ02  00002PRCP99
0202829750999992000022100004-09100-044120FM-12+033199999V0203201N002612200019N0005001N1+02801+02071101071ADDAA199000091GF104991999011008001001001KA1240M+03291MA1999999097161MD1999999-0101REMSYN076AAXX  21004 82975 32593 43205 10280 20207 39716 40107 82100 333 10329 59010;EQDQ01+000022SCOTLCQ02  00002PRCP99
0201829750999992000022118004-09100-044120FM-12+033199999V0209999C000011050019N0010001N1+02201+02171101171ADDAA106004191AY161061AY261061GF105991021011008001021031MA1999999097211MD1999999-0181MW1221REMSYN082AAXX  21184 82975 21594 50000 10220 20217 39721 40117 72266 82123 333 59018 60041;EQDQ01+000002PRSWM1
0167829750999992000022200004-09100-044120FM-12+033199999V0202301N003611050019N0020001N1+01911+01851101251ADDAA199000021GF106991021031004501021031KA1240M+02971MA1999999097261MD1999999+0101REMSYN076AAXX  22004 82975 32495 62307 10191 20185 39726 40125 82323 333 10297 58010;
0182829750999992000022218004-09100-044120FM-12+033199999V0209999C000011050019N0010001N1+02401+02371101201ADDAA106010991AY161061AY231061GF106991011031008001021031MA1999999097251MD1999999+0041MW1091REMSYN082AAXX  22184 82975 21594 60000 10240 20237 39725 40120 70963 81323 333 58004 60111;
0202829750999992000022300004-09100-044120FM-12+033199999V0209999C000019999999N0100001N1+02501+02471101191ADDAA199000091GF108991999021008001001001KA1240M+03281MA1999999097251MD1999999-0011REMSYN076AAXX  23004 82975 32597 80000 10250 20247 39725 40119 83200 333 10328 59001;EQDQ01+000032SCOTLCQ02  00002PRCP99
0201829750999992000022312004-09100-044120FM-12+033199999V0201801N003610450019N0040001N1+02121+02051101491ADDAA124017091AY161061AY231061GF107991021031008001051021KA1240N+01461MA1999999097511MD1999999+0091MW1091REMSYN088AAXX  23124 82975 21596 71807 10212 20205 39751 40149 70963 82352 333 20146 58009 60174;
0220829750999992000022400004-09100-044120FM-12+033199999V0201801N002610450019N0100001N1+02211+02171101281ADDAA106006191AY161061AY261061GF107991021031008001051031KA1240M+03131MA1999999097311MD1999999+0061MW1221REMSYN088AAXX  24004 82975 21597 71805 10221 20217 39731 40128 72266 82353 333 10313 58006 60061;EQDQ01+000002PRSWM1
0173829750999992000022412004-09100-044120FM-12+033199999V0209999C000010450019N0200001N1+02051+02011101431ADDAA124022191GF108991031031008001021061KA1240N+01391MA1999999097451MD1999999-0061REMSYN082AAXX  24124 82975 22598 80000 10205 20201 39745 40143 83326 333 20139 59006 60224;
0167829750999992000022418004-09100-044120FM-12+033199999V0201801N005110450019N0100001N1+02911+02391101041ADDAA199000091GF108991021021008001041051MA1999999097141MD1999999-0111REMSYN070AAXX  24184 82975 32597 81810 10291 20239 39714 40104 82245 333 59011;EQDQ01  00002PRCP99
0186829750999992000022500004-09100-044120FM-12+033199999V0203601N003610450019N0005001N1+02311+02201101071ADDAA199000091GF105991021011008001031051KA1240M+03181MA1999999097311MD1999999-0191REMSYN076AAXX  25004 82975 32593 53607 10231 20220 39731 40107 82135 333 10318 59019;EQDQ01  00002PRCP99
0186829750999992000022512004-09100-044120FM-12+033199999V0200901N004110450019N0020001N1+02121+02001101361ADDAA199000091GF107991031021004501041031KA1240N+01501MA1999999097381MD1999999-0071REMSYN076AAXX  25124 82975 32495 70908 10212 20200 39738 40136 83243 333 20150 59007;EQDQ01  00002PRCP99
0167829750999992000022518004-09100-044120FM-12+033199999V0203201N005111050019N0010001N1+03011+02351101071ADDAA199000091GF105991021011008001041021MA1999999097101MD1999999-0041REMSYN070AAXX  25184 82975 32594 53210 10301 20235 39710 40107 82142 333 59004;EQDQ01  00002PRCP99
0186829750999992000022612004-09100-044120FM-12+033199999V0200501N003611050019N0010001N1+02211+02171101311ADDAA199000091GF105991021021008001011041KA1240N+01611MA1999999097341MD1999999-0041REMSYN076AAXX  26124 82975 32594 50507 10221 20217 39734 40131 82214 333 20161 59004;EQDQ01  00002PRCP99
0167829750999992000022618004-09100-044120FM-12+033199999V0200501N002611050019N0040001N1+02811+02501101151ADDAA199000091GF106991021031008001021041MA1999999097241MD1999999+0131REMSYN070AAXX  26184 82975 32596 60505 10281 20250 39724 40115 82324 333 58013;EQDQ01  00002PRCP99
0201829750999992000022700004-09100-044120FM-12+033199999V0200901N002611050019N0040001N1+02301+02221101091ADDAA106009991AY161061AY231061GF106991021021008001031041KA1240M+03121MA1999999097131MD1999999-0081MW1091REMSYN088AAXX  27004 82975 21596 60905 10230 20222 39713 40109 70963 82234 333 10312 59008 60101;
0183829750999992000022718004-09100-044120FM-12+033199999V0209999C000012200019N0005001N1+03011+02341101091ADDAA199000091GF104991999011008001001001MA1999999097201MD1999999-0041REMSYN070AAXX  27184 82975 32593 40000 10301 20234 39720 40109 82100 333 59004;EQDQ01+000022SCOTLCQ02  00002PRCP99
0202829750999992000022800004-09100-044120FM-12+033199999V0209999C000019999999N0040001N1+03011+02141100991ADDAA199000091GF106991999011008001001001KA1240M+03301MA1999999097101MD1999999-0031REMSYN076AAXX  28004 82975 32596 60000 10301 20214 39710 40099 82100 333 10330 59003;EQDQ01+000022SCOTLCQ02  00002PRCP99
0186829750999992000022812004-09100-044120FM-12+033199999V0200801N005110450019N0040001N1+02381+02281101421ADDAA199000091GF106991011021008001041021KA1240N+01681MA1999999097461MD1999999+0221REMSYN076AAXX  28124 82975 32596 60810 10238 20228 39746 40142 81242 333 20168 58022;EQDQ01  00002PRCP99
0182829750999992000022818004-09100-044120FM-12+033199999V0203201N004111050019N0010001N1+02831+02321101281ADDAA106004191AY161061AY231061GF106991021031008001011031MA1999999097311MD1999999+0111MW1091REMSYN082AAXX  28184 82975 21594 63208 10283 20232 39731 40128 70963 82313 333 58011 60041;
0202829750999992000022900004-09100-044120FM-12+033199999V0201801N003619999999N0100001N1+02521+02341101191ADDAA199000091GF106991999011008001001001KA1240M+03571MA1999999097251MD1999999+0151REMSYN076AAXX  29004 82975 32597 61807 10252 20234 39725 40119 82100 333 10357 58015;EQDQ01+000022SCOTLCQ02  00002PRCP99
0173829750999992000022912004-09100-044120FM-12+033199999V0201801N003610450019N0040001N1+02111+02001101551ADDAA124004191GF107991011021008001041021KA1240N+01561MA1999999097561MD1999999+0101REMSYN082AAXX  29124 82975 22596 71807 10211 20200 39756 40155 81242 333 20156 58010 60044;
0182829750999992000022918004-09100-044120FM-12+033199999V0203201N003611050019N0010001N1+02811+02311101281ADDAA106005191AY161061AY261061GF105991021021008001011031MA1999999097361MD1999999+0051MW1221REMSYN082AAXX  29184 82975 21594 53207 10281 20231 39736 40128 72266 82213 333 58005 60051;
0167829750999992000030100004-09100-044120FM-12+033199999V0200501N002610450019N0020001N1+02461+02281101251ADDAA199000021GF106991021031004501031021KA1240M+03181MA1999999097311MD1999999+0061REMSYN076AAXX  01004 82975 32495 60505 10246 20228 39731 40125 82332 333 10318 58006;
0173829750999992000030112004-09100-044120FM-12+033199999V0201401N002610450019N0020001N1+02101+02001101571ADDAA124005191GF107991021031008001051021KA1240N+01501MA1999999097581MD1999999+0021REMSYN082AAXX  01124 82975 22595 71405 10210 20200 39758 40157 82352 333 20150 58002 60054;
0167829750999992000030118004-09100-044120FM-12+033199999V0202701N004110450019N0040001N1+02851+02241101361ADDAA199000091GF107991021031004501041021MA1999999097401MD1999999+0041REMSYN070AAXX  01184 82975 32496 72708 10285 20224 39740 40136 82342 333 58004;EQDQ01  00002PRCP99
0220829750999992000030200004-09100-044120FM-12+033199999V0201801N002619999999N0200001N1+02711+02281101291ADDAA106005191AY161061AY231061GF108991999021008001001001KA1240M+03301MA1999999097371MD1999999+0061MW1091REMSYN088AAXX  02004 82975 21598 81805 10271 20228 39737 40129 70963 83200 333 10330 58006 60051;EQDQ01+000032SCOTLC
0220829750999992000030212004-09100-044120FM-12+033199999V0203601N002610450019N0200001N1+02101+02001101481ADDAA124005191AY161061AY261061GF108991011041008001081031KA1240N+01521MA1999999097501MD1999999-0081MW1221REMSYN088AAXX  02124 82975 21598 83605 10210 20200 39750 40148 72266 81483 333 20152 59008 60054;EQDQ01+000002PRSWM1
0148829750999992000030218004-09100-044120FM-12+033199999V0202701N002611050019N0010001N1+03101+02231101081ADDAA199000021GF105991021021008001011031MA1999999097201MD1999999-0201REMSYN070AAXX  02184 82975 32594 52705 10310 20223 39720 40108 82213 333 59020;
0201829750999992000030300004-09100-044120FM-12+033199999V0203201N002611050019N0040001N1+02511+02341101081ADDAA106001091AY161061AY231061GF106991011031008001021041KA1240M+03181MA1999999097151MD1999999-0221MW1091REMSYN088AAXX  03004 82975 21596 63205 10251 20234 39715 40108 70963 81324 333 10318 59022 60011;
0201829750999992000030312004-09100-044120FM-12+033199999V0202301N002611050019N0100001N1+02011+01901101281ADDAA124001091AY161061AY231061GF106991011031008001021041KA1240N+01501MA1999999097301MD1999999-0201MW1091REMSYN088AAXX  03124 82975 21597 62305 10201 20190 39730 40128 70963 81324 333 20150 59020 60014;
0182829750999992000030318004-09100-044120FM-12+033199999V0202301N002612200019N0002001N1+02711+02221101161ADDAA106000391AY161061AY231061GF103991021021008001011021MA1999999097241MD1999999+0041MW1091REMSYN082AAXX  03184 82975 21592 32305 10271 20222 39724 40116 70963 82212 333 58004 69931;
0186829750999992000030400004-09100-044120FM-12+033199999V0202301N003612200019N0005001N1+02361+02151101081ADDAA199000091GF104991021021008001011001KA1240M+03051MA1999999097131MD1999999-0021REMSYN076AAXX  04004 82975 32593 42307 10236 20215 39713 40108 82210 333 10305 59002;EQDQ01  00002PRCP99
0182829750999992000030418004-09100-044120FM-12+033199999V0202301N002611050019N0040001N1+03011+02321101201ADDAA106001091AY161061AY231061GF106991011031008001021041MA1999999097301MD1999999+0061MW1091REMSYN082AAXX  04184 82975 21596 62305 10301 20232 39730 40120 70963 81324 333 58006 60011;
0201829750999992000030500004-09100-044120FM-12+033199999V0200901N004111050019N0010001N1+02211+02051101111ADDAA106005191AY161061AY231061GF105991021021008001011031KA1240M+02971MA1999999097151MD1999999+0021MW1091REMSYN088AAXX  05004 82975 21594 50908 10221 20205 39715 40111 70963 82213 333 10297 58002 60051;
0236829750999992000030512004-09100-044120FM-12+033199999V0200901N003619999999N0100001N1+02021+01921101491ADDAA124026991AY161061AY261061GF108991999021008001001001KA1240N+01661MA1999999097501MD1999999+0161MW1221REMSYN088AAXX  05124 82975 21597 80907 10202 20192 39750 40149 72266 83200 333 20166 58016 60274;EQDQ01+000032SCOTLCQ02+000002PRSWM1
0148829750999992000030518004-09100-044120FM-12+033199999V0203601N003610042019N0040001N1+03031+02261101251ADDAA199000021GF106991061021004501001001MA1999999097361MD1999999+0061REMSYN070AAXX  05184 82975 32496 63607 10303 20226 39736 40125 86200 333 58006;
0186829750999992000030600004-09100-044120FM-12+033199999V0201801N002619999999N0010001N1+02711+02281101081ADDAA199000021GF105991999011008001001001KA1240M+03151MA1999999097161MD1999999+0011REMSYN076AAXX  06004 82975 32594 51805 10271 20228 39716 40108 82100 333 10315 58001;EQDQ01+000022SCOTLC
0186829750999992000030612004-09100-044120FM-12+033199999V0202301N002611050019N0010001N1+02411+02031101521ADDAA199000091GF105991021021008001011031KA1240N+01731MA1999999097571MD1999999+0071REMSYN076AAXX  06124 82975 32594 52305 10241 20203 39757 40152 82213 333 20173 58007;EQDQ01  00002PRCP99
0167829750999992000030618004-09100-044120FM-12+033199999V0203201N002611050019N0040001N1+02911+02301101101ADDAA199000091GF106991011031008001021041MA1999999097201MD1999999-0161REMSYN070AAXX  06184 82975 32596 63205 10291 20230 39720 40110 81324 333 59016;EQDQ01  00002PRCP99
0116829750999992000030700004-09100-044120FM-12+033199999V0203201N002619999999N0010001N1+02411+02171999999ADDAA199000091GF105991999999008001999999REMSYN048AAXX  07004 82975 32594 53205 10241 20217 59006;EQDQ01  00002PRCP99
0186829750999992000030712004-09100-044120FM-12+033199999V0203601N002611050019N0010001N1+02311+02131101361ADDAA199000091GF105991011021008001021031KA1240N+01621MA1999999097401MD1999999-0171REMSYN076AAXX  07124 82975 32594 53605 10231 20213 39740 40136 81223 333 20162 59017;EQDQ01  00002PRCP99
0167829750999992000030718004-09100-044120FM-12+033199999V0202301N003611050019N0010001N1+02911+02171100931ADDAA199000091GF105991021031008001011021MA1999999097041MD1999999-0151REMSYN070AAXX  07184 82975 32594 52307 10291 20217 39704 40093 82312 333 59015;EQDQ01  00002PRCP99
0186829750999992000030800004-09100-044120FM-12+033199999V0203201N002610450019N0040001N1+02511+02131101081ADDAA199000091GF106991011031008001041021KA1240M+03021MA1999999097151MD1999999-0101REMSYN076AAXX  08004 82975 32596 63205 10251 20213 39715 40108 81342 333 10302 59010;EQDQ01  00002PRCP99
0186829750999992000030812004-09100-044120FM-12+033199999V0203201N002610450019N0100001N1+02011+01921101261ADDAA199000091GF107991021021008001031041KA1240N+01451MA1999999097281MD1999999-0121REMSYN076AAXX  08124 82975 32597 73205 10201 20192 39728 40126 82234 333 20145 59012;EQDQ01  00002PRCP99
0186829750999992000030900004-09100-044120FM-12+033199999V0202301N002611050019N0010001N1+02321+02201101161ADDAA199000091GF105991011021008001031021KA1240M+02971MA1999999097211MD1999999+0061REMSYN076AAXX  09004 82975 32594 52305 10232 20220 39721 40116 81232 333 10297 58006;EQDQ01  00002PRCP99
0201829750999992000030912004-09100-044120FM-12+033199999V0201801N002610450019N0200001N1+02111+02021101381ADDAA124005191AY161061AY231061GF108991031041008001021051KA1240N+01491MA1999999097401MD1999999+0121MW1091REMSYN088AAXX  09124 82975 21598 81805 10211 20202 39740 40138 70963 83425 333 20149 58012 60054;
0167829750999992000030918004-09100-044120FM-12+033199999V0203601N003610450019N0100001N1+02311+02181101121ADDAA199000091GF108991021051008001031021MA1999999097201MD1999999+0201REMSYN070AAXX  09184 82975 32597 83607 10231 20218 39720 40112 82532 333 58020;EQDQ01  00002PRCP99
0202829750999992000031000004-09100-044120FM-12+033199999V0200901N002612200019N0020001N1+02611+02331101241ADDAA199000091GF104991999021004501001001KA1240M+03131MA1999999097311MD1999999+0101REMSYN076AAXX  10004 82975 32495 40905 10261 20233 39731 40124 81200 333 10313 58010;EQDQ01+000012SCOTLCQ02  00002PRCP99
0186829750999992000031012004-09100-044120FM-12+033199999V0200901N002610450019N0200001N1+02111+02021101481ADDAA199000091GF108991021041012501021051KA1240N+01481MA1999999097501MD1999999+0101REMSYN076AAXX  10124 82975 32698 80905 10211 20202 39750 40148 82425 333 20148 58010;EQDQ01  00002PRCP99
0201829750999992000031018004-09100-044120FM-12+033199999V0203601N003610450019N0200001N1+02201+02121101281ADDAA106039991AY161061AY261061GF108991021041008001031031MA1999999097311MD1999999+0111MW1221REMSYN082AAXX  10184 82975 21598 83607 10220 20212 39731 40128 72266 82433 333 58011 60401;EQDQ01+000002PRSWM1
0167829750999992000031100004-09100-044120FM-12+033199999V0203201N002610450019N0200001N1+01911+01801101241ADDAA199000021GF108991021021008001041031KA1240M+02671MA1999999097251MD1999999-0061REMSYN076AAXX  11004 82975 32598 83205 10191 20180 39725 40124 82243 333 10267 59006;
0173829750999992000031112004-09100-044120FM-12+033199999V0203201N002610450019N0200001N1+01861+01831101511ADDAA124039991GF108991031021008001021051KA1240N+01371MA1999999097501MD1999999+0001REMSYN082AAXX  11124 82975 22598 83205 10186 20183 39750 40151 83225 333 20137 58000 60404;
0167829750999992000031118004-09100-044120FM-12+033199999V0202301N002611050019N0040001N1+02411+02231101081ADDAA199000091GF105991021021008001011031MA1999999097151MD1999999-0161REMSYN070AAXX  11184 82975 32596 52305 10241 20223 39715 40108 82213 333 59016;EQDQ01  00002PRCP99
0202829750999992000031200004-09100-044120FM-12+033199999V0203201N002619999999N0040001N1+02361+02241101101ADDAA199000091GF105991999021008001001001KA1240M+02981MA1999999097151MD1999999-0101REMSYN076AAXX  12004 82975 32596 53205 10236 20224 39715 40110 83200 333 10298 59010;EQDQ01+000032SCOTLCQ02  00002PRCP99
0186829750999992000031212004-09100-044120FM-12+033199999V0203201N002611050019N0040001N1+02011+01921101321ADDAA199000091GF106991011041008001021031KA1240N+01581MA1999999097341MD1999999-0161REMSYN076AAXX  12124 82975 32596 63205 10201 20192 39734 40132 81423 333 20158 59016;EQDQ01  00002PRCP99
0167829750999992000031218004-09100-044120FM-12+033199999V0202701N000511050019N0010001N1+03041+02341101041ADDAA199000091GF105991011021008001031021MA1999999097061MD1999999-0091REMSYN070AAXX  12184 82975 32594 52701 10304 20234 39706 40104 81232 333 59009;EQDQ01  00002PRCP99
0186829750999992000031300004-09100-044120FM-12+033199999V0203201N003611050019N0010001N1+02211+02081101111ADDAA199000091GF105991021021008001011031KA1240M+02841MA1999999097151MD1999999+0001REMSYN076AAXX  13004 82975 32594 53207 10221 20208 39715 40111 82213 333 10284 58000;EQDQ01  00002PRCP99
0186829750999992000031312004-09100-044120FM-12+033199999V0201801N002610450019N0040001N1+02101+02031101281ADDAA199000091GF107991021021008001041021KA1240N+01651MA1999999097301MD1999999-0041REMSYN076AAXX  13124 82975 32596 71805 10210 20203 39730 40128 82242 333 20165 59004;EQDQ01  00002PRCP99
0201829750999992000031318004-09100-044120FM-12+033199999V0201801N002619999999N0040001N1+02141+99999100991ADDAA106030091AY161061AY231061GF106991999011008001001001MA1999999097061MD1999999+0001MW1091REMSYN082AAXX  13184 82975 21596 61805 10214 20246 39706 40099 70963 82100 333 58000 60301;EQDQ01+000022SCOTLC
0202829750999992000031400004-09100-044120FM-12+033199999V0201401N003619999999N0100001N1+02201+02101101121ADDAA199000091GF107991999021008001001001KA1240M+02831MA1999999097161MD1999999+0011REMSYN076AAXX  14004 82975 32597 71407 10220 20210 39716 40112 83200 333 10283 58001;EQDQ01+000032SCOTLCQ02  00002PRCP99
0201829750999992000031412004-09100-044120FM-12+033199999V0200901N002611050019N0040001N1+02211+02121101391ADDAA124030091AY161061AY231061GF106991011021008001041031KA1240N+01701MA1999999097421MD1999999+0121MW1091REMSYN088AAXX  14124 82975 21596 60905 10221 20212 39742 40139 70963 81243 333 20170 58012 60304;
0167829750999992000031418004-09100-044120FM-12+033199999V0203601N003610450019N0040001N1+02311+02141101171ADDAA199000091GF107991021031008001041021MA1999999097201MD1999999+0141REMSYN070AAXX  14184 82975 32596 73607 10231 20214 39720 40117 82342 333 58014;EQDQ01  00002PRCP99
0186829750999992000031500004-09100-044120FM-12+033199999V0203201N002610450019N0040001N1+02251+02171101131ADDAA199000091GF107991021031004501051021KA1240M+02941MA1999999097171MD1999999+0021REMSYN076AAXX  15004 82975 32496 73205 10225 20217 39717 40113 82352 333 10294 58002;EQDQ01  00002PRCP99
0167829750999992000031518004-09100-044120FM-12+033199999V0202301N003610450019N0200001N1+02811+02311101071ADDAA199000091GF108991021021008001041031MA1999999097161MD1999999-0041REMSYN070AAXX  15184 82975 32598 82307 10281 20231 39716 40107 82243 333 59004;EQDQ01  00002PRCP99
0202829750999992000031600004-09100-044120FM-12+033199999V0200501N003619999999N0020001N1+02701+02331101231ADDAA199000091GF106991999011004501001001KA1240M+03161MA1999999097311MD1999999+0141REMSYN076AAXX  16004 82975 32495 60507 10270 20233 39731 40123 82100 333 10316 58014;EQDQ01+000022SCOTLCQ02  00002PRCP99
0201829750999992000031612004-09100-044120FM-12+033199999V0202701N004110450019N0100001N1+02111+02021101391ADDAA124001091AY161061AY231061GF108991021031008001051031KA1240N+01611MA1999999097411MD1999999-0101MW1091REMSYN088AAXX  16124 82975 21597 82708 10211 20202 39741 40139 70963 82353 333 20161 59010 60014;
0182829750999992000031618004-09100-044120FM-12+033199999V0202301N003611050019N0010001N1+02511+02291101031ADDAA106002091AY161061AY231061GF105991021021008001011031MA1999999097101MD1999999-0061MW1091REMSYN082AAXX  16184 82975 21594 52307 10251 20229 39710 40103 70963 82213 333 59006 60021;
0186829750999992000031700004-09100-044120FM-12+033199999V0201401N002610450019N0040001N1+02211+02101101131ADDAA199000091GF107991021031004501041031KA1240M+02941MA1999999097171MD1999999-0141REMSYN076AAXX  17004 82975 32496 71405 10221 20210 39717 40113 82343 333 10294 59014;EQDQ01  00002PRCP99
0173829750999992000031712004-09100-044120FM-12+033199999V0203201N004110450019N0040001N1+02261+02161101381ADDAA124002091GF107991011021008001051031KA1240N+01671MA1999999097411MD1999999+0001REMSYN082AAXX  17124 82975 22596 73208 10226 20216 39741 40138 81253 333 20167 58000 60024;
0202829750999992000031800004-09100-044120FM-12+033199999V0203601N003612200019N0002001N1+02531+02151100911ADDAA199000091GF103991999021008001001001KA1240M+03191MA1999999096981MD1999999-0191REMSYN076AAXX  18004 82975 32592 33607 10253 20215 39698 40091 86200 333 10319 59019;EQDQ01+000062SCOTLCQ02  00002PRCP99
0186829750999992000031812004-09100-044120FM-12+033199999V0201801N002611050019N0020001N1+01931+01841101251ADDAA199000091GF105991011021004501031031KA1240N+01621MA1999999097261MD1999999-0151REMSYN076AAXX  18124 82975 32495 51805 10193 20184 39726 40125 81233 333 20162 59015;EQDQ01  00002PRCP99
0167829750999992000031818004-09100-044120FM-12+033199999V0201401N003612200019N0005001N1+03011+02271100971ADDAA199000091GF103991021011008001001031MA1999999097001MD1999999-0141REMSYN070AAXX  18184 82975 32593 31407 10301 20227 39700 40097 82103 333 59014;EQDQ01  00002PRCP99
0186829750999992000031900004-09100-044120FM-12+033199999V0200901N002612200019N0002001N1+02611+02121100891ADDAA199000091GF104991011021004501031021KA1240M+03231MA1999999096971MD1999999-0011REMSYN076AAXX  19004 82975 32492 40905 10261 20212 39697 40089 81232 333 10323 59001;EQDQ01  00002PRCP99
0202829750999992000031912004-09100-044120FM-12+033199999V0201801N002619999999N0010001N1+02121+02021101181ADDAA199000091GF105991999011008001001001KA1240N+01781MA1999999097211MD1999999-0051REMSYN076AAXX  19124 82975 32594 51805 10212 20202 39721 40118 82100 333 20178 59005;EQDQ01+000022SCOTLCQ02  00002PRCP99
0167829750999992000031918004-09100-044120FM-12+033199999V0202301N002612200019N0020001N1+03041+02251100821ADDAA199000091GF103991031011004501021001MA1999999096951MD1999999-0051REMSYN070AAXX  19184 82975 32495 32305 10304 20225 39695 40082 83120 333 59005;EQDQ01  00002PRCP99
0186829750999992000032000004-09100-044120FM-12+033199999V0203201N002612200019N0005001N1+02811+02201100881ADDAA199000091GF103991021011004501021031KA1240M+03271MA1999999096981MD1999999+0011REMSYN076AAXX  20004 82975 32493 33205 10281 20220 39698 40088 82123 333 10327 58001;EQDQ01  00002PRCP99
0186829750999992000032012004-09100-044120FM-12+033199999V0209999C000012200019N0002001N1+02111+02001101381ADDAA199000091GF103991021021004501011021KA1240N+01761MA1999999097041MD1999999+0191REMSYN076AAXX  20124 82975 32492 30000 10211 20200 39704 40138 82212 333 20176 58019;EQDQ01  00002PRCP99
0167829750999992000032018004-09100-044120FM-12+033199999V0203601N003611050019N0040001N1+02931+02191100991ADDAA199000091GF106991011031008001021031MA1999999097101MD1999999+0151REMSYN070AAXX  20184 82975 32596 63607 10293 20219 39710 40099 81323 333 58015;EQDQ01  00002PRCP99
0186829750999992000032100004-09100-044120FM-12+033199999V0201801N002611050019N0010001N1+02411+02231100991ADDAA199000091GF106991011021008001031041KA1240M+03141MA1999999097051MD1999999+0071REMSYN076AAXX  21004 82975 32594 61805 10241 20223 39705 40099 81234 333 10314 58007;EQDQ01  00002PRCP99
0186829750999992000032112004-09100-044120FM-12+033199999V0203601N002612200019N0005001N1+02411+02261101291ADDAA199000091GF104991021021008001011031KA1240N+01921MA1999999097341MD1999999-0061REMSYN076AAXX  21124 82975 32593 43605 10241 20226 39734 40129 82213 333 20192 59006;EQDQ01  00002PRCP99
0167829750999992000032118004-09100-044120FM-12+033199999V0201401N002612200019N0005001N1+03051+02171101071ADDAA199000091GF104991021011008001021031MA1999999097101MD1999999+0001REMSYN070AAXX  21184 82975 32593 41405 10305 20217 39710 40107 82123 333 58000;EQDQ01  00002PRCP99
0202829750999992000032200004-09100-044120FM-12+033199999V0203201N002612200019N0005001N1+02511+02291100991ADDAA199000091GF103991999011004501001001KA1240M+03271MA1999999097061MD1999999+0011REMSYN076AAXX  22004 82975 32493 33205 10251 20229 39706 40099 82100 333 10327 58001;EQDQ01+000022SCOTLCQ02  00002PRCP99
0186829750999992000032212004-09100-044120FM-12+033199999V0201401N002611050019N0020001N1+02101+02001101341ADDAA199000091GF105991011021004501031021KA1240N+01781MA1999999097361MD1999999+0021REMSYN076AAXX  22124 82975 32495 51405 10210 20200 39736 40134 81232 333 20178 58002;EQDQ01  00002PRCP99
0167829750999992000032218004-09100-044120FM-12+033199999V0202701N002612200019N0005001N1+03081+02251101011ADDAA199000091GF104991021011008001021031MA1999999097131MD1999999+0031REMSYN070AAXX  22184 82975 32593 42705 10308 20225 39713 40101 82123 333 58003;EQDQ01  00002PRCP99
0186829750999992000032300004-09100-044120FM-12+033199999V0201401N002612200019N0010001N1+02531+01951100941ADDAA199000091GF104991011021008001021031KA1240M+03291MA1999999097021MD1999999-0041REMSYN076AAXX  23004 82975 32594 41405 10253 20195 39702 40094 81223 333 10329 59004;EQDQ01  00002PRCP99
0186829750999992000032312004-09100-044120FM-12+033199999V0203601N002612200019N0005001N1+02311+02011101261ADDAA199000091GF104991021021008001011031KA1240N+01871MA1999999097301MD1999999-0061REMSYN076AAXX  23124 82975 32593 43605 10231 20201 39730 40126 82213 333 20187 59006;EQDQ01  00002PRCP99
0196829750999992000032400004-09100-044120FM-12+033199999V0200901N002612200019N0005001N1+02811+02151101021ADDAA199000091GA1001+999999999GF100991001001999999001001KA1240M+03371MA1999999097111MD1999999+0021REMSYN070AAXX  24004 82975 32593 00905 10281 20215 39711 40102 333 10337 58002;EQDQ01  00002PRCP99
0186829750999992000032412004-09100-044120FM-12+033199999V0200501N003612200019N0002001N1+02411+02031101421ADDAA199000091GF103991011021004501001031KA1240N+01951MA1999999097461MD1999999+0161REMSYN076AAXX  24124 82975 32492 30507 10241 20203 39746 40142 81203 333 20195 58016;EQDQ01  00002PRCP99
0167829750999992000032418004-09100-044120FM-12+033199999V0200501N003612200019N0005001N1+03101+01941101031ADDAA199000091GF103991021011004501021001MA1999999097151MD1999999+0031REMSYN070AAXX  24184 82975 32493 30507 10310 20194 39715 40103 82120 333 58003;EQDQ01  00002PRCP99
0196829750999992000032500004-09100-044120FM-12+033199999V0201801N002612200019N0020001N1+02911+02171101081ADDAA199000091GA1001+999999999GF100991001001999999001001KA1240M+03391MA1999999097181MD1999999+0071REMSYN070AAXX  25004 82975 32495 01805 10291 20217 39718 40108 333 10339 58007;EQDQ01  00002PRCP99
0186829750999992000032512004-09100-044120FM-12+033199999V0200501N002611050019N0010001N1+02211+01971101371ADDAA199000091GF105991021021008001011031KA1240N+01741MA1999999097401MD1999999-0061REMSYN076AAXX  25124 82975 32594 50505 10221 20197 39740 40137 82213 333 20174 59006;EQDQ01  00002PRCP99
0167829750999992000032518004-09100-044120FM-12+033199999V0202301N004112200019N0005001N1+03211+02031100971ADDAA199000091GF104991021021008001031011MA1999999097101MD1999999-0101REMSYN070AAXX  25184 82975 32593 42308 10321 20203 39710 40097 82231 333 59010;EQDQ01  00002PRCP99
0186829750999992000032600004-09100-044120FM-12+033199999V0202301N002611050019N0010001N1+02811+01951100991ADDAA199000091GF105991021011008001021031KA1240M+03301MA1999999097081MD1999999-0101REMSYN076AAXX  26004 82975 32594 52305 10281 20195 39708 40099 82123 333 10330 59010;EQDQ01  00002PRCP99
0202829750999992000032612004-09100-044120FM-12+033199999V0201401N004112200019N0005001N1+02411+02011101271ADDAA199000091GF104991999011004501001001KA1240N+01891MA1999999097341MD1999999-0081REMSYN076AAXX  26124 82975 32493 41408 10241 20201 39734 40127 82100 333 20189 59008;EQDQ01+000022SCOTLCQ02  00002PRCP99
0183829750999992000032618004-09100-044120FM-12+033199999V0201801N002612200019N0005001N1+03181+02031100941ADDAA199000091GF104991999011008001001001MA1999999097051MD1999999-0051REMSYN070AAXX  26184 82975 32593 41805 10318 20203 39705 40094 82100 333 59005;EQDQ01+000022SCOTLCQ02  00002PRCP99
0202829750999992000032700004-09100-044120FM-12+033199999V0203601N002612200019N0002001N1+02801+02111100911ADDAA199000091GF103991999011004501001001KA1240M+03271MA1999999097051MD1999999-0071REMSYN076AAXX  27004 82975 32492 33605 10280 20211 39705 40091 82100 333 10327 59007;EQDQ01+000022SCOTLCQ02  00002PRCP99
0186829750999992000032712004-09100-044120FM-12+033199999V0202701N002611050019N0010001N1+02311+02111101401ADDAA199000091GF106991011021008001041031KA1240N+01841MA1999999097361MD1999999+0041REMSYN076AAXX  27124 82975 32594 62705 10231 20211 39736 40140 81243 333 20184 58004;EQDQ01  00002PRCP99
0167829750999992000032718004-09100-044120FM-12+033199999V0202301N002611050019N0010001N1+02811+01721100901ADDAA199000091GF105991021011008001031021MA1999999097001MD1999999-0051REMSYN070AAXX  27184 82975 32594 52305 10281 20172 39700 40090 82132 333 59005;EQDQ01  00002PRCP99
0202829750999992000032800004-09100-044120FM-12+033199999V0203601N002619999999N0020001N1+02601+02011101141ADDAA199000091GF105991999011004501001001KA1240M+03191MA1999999097211MD1999999+0021REMSYN076AAXX  28004 82975 32495 53605 10260 20201 39721 40114 82100 333 10319 58002;EQDQ01+000022SCOTLCQ02  00002PRCP99
0201829750999992000032812004-09100-044120FM-12+033199999V0203601N002610450019N0040001N1+02511+02231101391ADDAA124000191AY161061AY231061GF106991021021008001011051KA1240N+01981MA1999999097451MD1999999+0091MW1091REMSYN088AAXX  28124 82975 21596 63605 10251 20223 39745 40139 70963 82215 333 20198 58009 69924;
0201829750999992000032818004-09100-044120FM-12+033199999V0201801N002610450019N0200001N1+02811+02361101131ADDAA106000591AY161061AY261061GF108991021031008001021051MA1999999097221MD1999999+0221MW1221REMSYN082AAXX  28184 82975 21598 81805 10281 20236 39722 40113 72266 82325 333 58022 69951;EQDQ01+000002PRSWM1
0201829750999992000032900004-09100-044120FM-12+033199999V0200901N002610450019N0040001N1+02321+02141101321ADDAA106001091AY161061AY231061GF107991031041008001021031KA1240M+03071MA1999999097361MD1999999+0151MW1091REMSYN088AAXX  29004 82975 21596 70905 10232 20214 39736 40132 70963 83423 333 10307 58015 60011;
0201829750999992000032912004-09100-044120FM-12+033199999V0200501N003610450019N0040001N1+02011+01871101421ADDAA124018091AY161061AY231061GF107991021031008001051041KA1240N+01621MA1999999097431MD1999999-0011MW1091REMSYN088AAXX  29124 82975 21596 70507 10201 20187 39743 40142 70963 82354 333 20162 59001 60184;
0182829750999992000032918004-09100-044120FM-12+033199999V0209999C000011050019N0040001N1+02711+02391101131ADDAA106002091AY161061AY231061GF106991021021008001031041MA1999999097211MD1999999-0011MW1091REMSYN082AAXX  29184 82975 21596 60000 10271 20239 39721 40113 70963 82234 333 59001 60021;
0220829750999992000033000004-09100-044120FM-12+033199999V0201801N001519999999N0010001N1+02261+02171101111ADDAA106004191AY161061AY221061GF106991999011008001001001KA1240M+03091MA1999999097321MD1999999-0101MW1091REMSYN088AAXX  30004 82975 21594 61803 10226 20217 39732 40111 70962 82100 333 10309 59010 60041;EQDQ01+000022SCOTLC
0173829750999992000033012004-09100-044120FM-12+033199999V0202301N002610450019N0040001N1+02311+02201101361ADDAA124002091GF107991031021008001051031KA1240N+01711MA1999999097401MD1999999-0031REMSYN082AAXX  30124 82975 22596 72305 10231 20220 39740 40136 83253 333 20171 59003 60024;
0182829750999992000033018004-09100-044120FM-12+033199999V0202301N003611050019N0040001N1+02711+02331101121ADDAA106003091AY161061AY231061GF106991011021008001031031MA1999999097201MD1999999-0011MW1091REMSYN082AAXX  30184 82975 21596 62307 10271 20233 39720 40112 70963 81233 333 59001 60031;
0186829750999992000033100004-09100-044120FM-12+033199999V0201801N002610450019N0040001N1+02311+02141101271ADDAA199000091GF107991021031008001041031KA1240M+03011MA1999999097311MD1999999+0051REMSYN076AAXX  31004 82975 32596 71805 10231 20214 39731 40127 82343 333 10301 58005;EQDQ01  00002PRCP99
0173829750999992000033112004-09100-044120FM-12+033199999V0201401N003611050019N0010001N1+02201+02101101491ADDAA124003091GF105991011021008001031031KA1240N+01671MA1999999097511MD1999999+0111REMSYN082AAXX  31124 82975 22594 51407 10220 20210 39751 40149 81233 333 20167 58011 60034;
0167829750999992000033118004-09100-044120FM-12+033199999V0202701N002611050019N0005001N1+03051+02031101171ADDAA199000091GF105991021031008001021031MA1999999097301MD1999999+0101REMSYN070AAXX  31184 82975 32593 52705 10305 20203 39730 40117 82323 333 58010;EQDQ01  00002PRCP99
0202829750999992000040100004-09100-044120FM-12+033199999V0203201N002619999999N0010001N1+02121+99999101091ADDAA199000091GF105991999011008001001001KA1240M+03231MA1999999097151MD1999999-0131REMSYN076AAXX  01004 82975 32594 53205 10212 20221 39715 40109 82100 333 10323 59013;EQDQ01+000022SCOTLCQ02  00002PRCP99
0186829750999992000040112004-09100-044120FM-12+033199999V0202301N002611050019N0020001N1+02401+02171101401ADDAA199000091GF106991011021004501031041KA1240N+01841MA1999999097451MD1999999-0061REMSYN076AAXX  01124 82975 32495 62305 10240 20217 39745 40140 81234 333 20184 59006;EQDQ01  00002PRCP99
0167829750999992000040118004-09100-044120FM-12+033199999V0200901N005110450019N0040001N1+03011+02251101081ADDAA199000091GF107991031041008001031021MA1999999097201MD1999999-0101REMSYN070AAXX  01184 82975 32596 70910 10301 20225 39720 40108 83432 333 59010;EQDQ01  00002PRCP99
0201829750999992000040200004-09100-044120FM-12+033199999V0201801N002610450019N0040001N1+02351+02161101221ADDAA106003091AY161061AY231061GF107991021031008001051031KA1240M+03181MA1999999097261MD1999999+0081MW1091REMSYN088AAXX  02004 82975 21596 71805 10235 20216 39726 40122 70963 82353 333 10318 58008 60031;
0201829750999992000040212004-09100-044120FM-12+033199999V0200501N003610450019N0100001N1+02061+01941101541ADDAA124016091AY161061AY231061GF107991031021008001051031KA1240N+01721MA1999999097551MD1999999+0101MW1091REMSYN088AAXX  02124 82975 21597 70507 10206 20194 39755 40154 70963 83253 333 20172 58010 60164;
0182829750999992000040218004-09100-044120FM-12+033199999V0203201N002610450019N0100001N1+02051+01951101241ADDAA106011991AY161061AY231061GF108991031041008001051021MA1999999097351MD1999999+0151MW1091REMSYN082AAXX  02184 82975 21597 83205 10205 20195 39735 40124 70963 83452 333 58015 60121;
0186829750999992000040300004-09100-044120FM-12+033199999V0209999C000011050019N0010001N1+02211+02031101371ADDAA199000091GF106991011021008001041031KA1240M+03081MA1999999097401MD1999999+0141REMSYN076AAXX  03004 82975 32594 60000 10221 20203 39740 40137 81243 333 10308 58014;EQDQ01  00002PRCP99
0173829750999992000040312004-09100-044120FM-12+033199999V0203601N002610450019N0100001N1+02101+01911101591ADDAA124011991GF107991021031008001021041KA1240N+01741MA1999999097601MD1999999+0011REMSYN082AAXX  03124 82975 22597 73605 10210 20191 39760 40159 82324 333 20174 58001 60124;
0182829750999992000040318004-09100-044120FM-12+033199999V0209999C000011050019N0010001N1+03101+02441101131ADDAA106000191AY161061AY231061GF105991021021008001011031MA1999999097251MD1999999-0101MW1091REMSYN082AAXX  03184 82975 21594 50000 10310 20244 39725 40113 70963 82213 333 59010 69921;
0186829750999992000040400004-09100-044120FM-12+033199999V0200901N002611050019N0005001N1+02511+02311101351ADDAA199000091GF105991011021008001031021KA1240M+03161MA1999999097411MD1999999+0011REMSYN076AAXX  04004 82975 32593 50905 10251 20231 39741 40135 81232 333 10316 58001;EQDQ01  00002PRCP99
0173829750999992000040412004-09100-044120FM-12+033199999V0209999C000011050019N0010001N1+02311+02131101521ADDAA124000191GF105991021021008001011031KA1240N+01931MA1999999097551MD1999999-0051REMSYN082AAXX  04124 82975 22594 50000 10231 20213 39755 40152 82213 333 20193 59005 69924;
0167829750999992000040418004-09100-044120FM-12+033199999V0203201N002611050019N0020001N1+03111+02261101221ADDAA199000091GF106991011031008001021031MA1999999097331MD1999999+0081REMSYN070AAXX  04184 82975 32595 63205 10311 20226 39733 40122 81323 333 58008;EQDQ01  00002PRCP99
0186829750999992000040500004-09100-044120FM-12+033199999V0201801N002612200019N0005001N1+02711+02331101231ADDAA199000091GF104991011021008001021031KA1240M+03211MA1999999097311MD1999999-0101REMSYN076AAXX  05004 82975 32593 41805 10271 20233 39731 40123 81223 333 10321 59010;EQDQ01  00002PRCP99
0186829750999992000040512004-09100-044120FM-12+033199999V0202701N002610450019N0040001N1+02411+02111101611ADDAA199000091GF107991031021008001051031KA1240N+02041MA1999999097651MD1999999+0101REMSYN076AAXX  05124 82975 32596 72705 10241 20211 39765 40161 83253 333 20204 58010;EQDQ01  00002PRCP99
0167829750999992000040518004-09100-044120FM-12+033199999V0202301N002611050019N0020001N1+03111+02181101231ADDAA199000091GF106991011021008001031031MA1999999097341MD1999999+0011REMSYN070AAXX  05184 82975 32595 62305 10311 20218 39734 40123 81233 333 58001;EQDQ01  00002PRCP99
0186829750999992000040600004-09100-044120FM-12+033199999V0209999C000012200019N0005001N1+02651+02291101291ADDAA199000091GF104991021011008001021031KA1240M+03171MA1999999097361MD1999999+0051REMSYN076AAXX  06004 82975 32593 40000 10265 20229 39736 40129 82123 333 10317 58005;EQDQ01  00002PRCP99
0186829750999992000040612004-09100-044120FM-12+033199999V0200501N003611050019N0010001N1+02411+02171101541ADDAA199000091GF105991021021008001011031KA1240N+02061MA1999999097581MD1999999-0071REMSYN076AAXX  06124 82975 32594 50507 10241 20217 39758 40154 82213 333 20206 59007;EQDQ01  00002PRCP99
0167829750999992000040618004-09100-044120FM-12+033199999V0202301N004111050019N0010001N1+03211+02241101161ADDAA199000091GF105991021011008001021031MA1999999097281MD1999999-0061REMSYN070AAXX  06184 82975 32594 52308 10321 20224 39728 40116 82123 333 59006;EQDQ01  00002PRCP99
0186829750999992000040700004-09100-044120FM-12+033199999V0209999C000012200019N0010001N1+02661+02181101141ADDAA199000091GF104991021021008001011021KA1240M+03191MA1999999097221MD1999999-0041REMSYN076AAXX  07004 82975 32594 40000 10266 20218 39722 40114 82212 333 10319 59004;EQDQ01  00002PRCP99
0186829750999992000040712004-09100-044120FM-12+033199999V0200901N005110450019N0020001N1+02651+02161101351ADDAA199000091GF106991031021008001041021KA1240N+02141MA1999999097421MD1999999-0161REMSYN076AAXX  07124 82975 32595 60910 10265 20216 39742 40135 83242 333 20214 59016;EQDQ01  00002PRCP99
0167829750999992000040718004-09100-044120FM-12+033199999V0201401N004111050019N0005001N1+03101+02251101091ADDAA199000091GF106991021041008001021031MA1999999097201MD1999999-0081REMSYN070AAXX  07184 82975 32593 61408 10310 20225 39720 40109 82423 333 59008;EQDQ01  00002PRCP99
0186829750999992000040812004-09100-044120FM-12+033199999V0209999C000010450019N0040001N1+02211+01951101421ADDAA199000091GF106991021021008001011051KA1240N+01851MA1999999097451MD1999999+0031REMSYN076AAXX  08124 82975 32596 60000 10221 20195 39745 40142 82215 333 20185 58003;EQDQ01  00002PRCP99
0167829750999992000040818004-09100-044120FM-12+033199999V0202301N002610450019N0100001N1+03011+02291101141ADDAA199000091GF107991011031008001021041MA1999999097251MD1999999+0051REMSYN070AAXX  08184 82975 32597 72305 10301 20229 39725 40114 81324 333 58005;EQDQ01  00002PRCP99
0186829750999992000040900004-09100-044120FM-12+033199999V0209999C000011050019N0010001N1+02611+02371101161ADDAA199000091GF105991021021008001011031KA1240M+03131MA1999999097231MD1999999-0021REMSYN076AAXX  09004 82975 32594 50000 10261 20237 39723 40116 82213 333 10313 59002;EQDQ01  00002PRCP99
0186829750999992000040912004-09100-044120FM-12+033199999V0203601N002611050019N0010001N1+02401+02191101401ADDAA199000091GF105991021011008001021031KA1240N+01981MA1999999097451MD1999999+0001REMSYN076AAXX  09124 82975 32594 53605 10240 20219 39745 40140 82123 333 20198 58000;EQDQ01  00002PRCP99
0167829750999992000040918004-09100-044120FM-12+033199999V0203201N002612200019N0005001N1+03111+02201101131ADDAA199000091GF104991021021008001011031MA1999999097251MD1999999+0001REMSYN070AAXX  09184 82975 32593 43205 10311 20220 39725 40113 82213 333 58000;EQDQ01  00002PRCP99
0186829750999992000041000004-09100-044120FM-12+033199999V0209999C000011050019N0010001N1+02621+02331101171ADDAA199000091GF105991011031008001021021KA1240M+03141MA1999999097241MD1999999+0011REMSYN076AAXX  10004 82975 32594 50000 10262 20233 39724 40117 81322 333 10314 58001;EQDQ01  00002PRCP99
0186829750999992000041012004-09100-044120FM-12+033199999V0201801N003610450019N0040001N1+02531+02151101411ADDAA199000091GF107991021031008001051021KA1240N+02051MA1999999097461MD1999999+0011REMSYN076AAXX  10124 82975 32596 71807 10253 20215 39746 40141 82352 333 20205 58001;EQDQ01  00002PRCP99
0167829750999992000041018004-09100-044120FM-12+033199999V0202301N002611050019N0020001N1+02761+02211101161ADDAA199000091GF106991011021008001031031MA1999999097251MD1999999+0001REMSYN070AAXX  10184 82975 32595 62305 10276 20221 39725 40116 81233 333 58000;EQDQ01  00002PRCP99
0186829750999992000041100004-09100-044120FM-12+033199999V0201401N002610450019N0040001N1+02481+02131101211ADDAA199000091GF107991031021008001051041KA1240M+03091MA1999999097271MD1999999+0031REMSYN076AAXX  11004 82975 32596 71405 10248 20213 39727 40121 83254 333 10309 58003;EQDQ01  00002PRCP99
0186829750999992000041112004-09100-044120FM-12+033199999V0200501N003610450019N0020001N1+02321+02181101471ADDAA199000091GF107991021021004501041031KA1240N+01901MA1999999097501MD1999999+0041REMSYN076AAXX  11124 82975 32495 70507 10232 20218 39750 40147 82243 333 20190 58004;EQDQ01  00002PRCP99
0167829750999992000041118004-09100-044120FM-12+033199999V0203201N002611050019N0010001N1+03141+02171101141ADDAA199000091GF106991011031008001021031MA1999999097261MD1999999+0011REMSYN070AAXX  11184 82975 32594 63205 10314 20217 39726 40114 81323 333 58001;EQDQ01  00002PRCP99
0186829750999992000041200004-09100-044120FM-12+033199999V0201401N002610450019N0040001N1+02401+02151101161ADDAA199000091GF107991021041008001031021KA1240M+03161MA1999999097211MD1999999-0061REMSYN076AAXX  12004 82975 32596 71405 10240 20215 39721 40116 82432 333 10316 59006;EQDQ01  00002PRCP99
0186829750999992000041212004-09100-044120FM-12+033199999V0202701N004110450019N0010001N1+02381+02261101361ADDAA199000091GF107991021031008001041021KA1240N+01961MA1999999097411MD1999999-0091REMSYN076AAXX  12124 82975 32594 72708 10238 20226 39741 40136 82342 333 20196 59009;EQDQ01  00002PRCP99
0167829750999992000041218004-09100-044120FM-12+033199999V0203601N003610450019N0100001N1+02651+02141101071ADDAA199000091GF108991021051008001031041MA1999999097201MD1999999-0061REMSYN070AAXX  12184 82975 32597 83607 10265 20214 39720 40107 82534 333 59006;EQDQ01  00002PRCP99
0186829750999992000041300004-09100-044120FM-12+033199999V0200901N002610450019N0020001N1+02511+01911101161ADDAA199000091GF107991021031004501021031KA1240M+03071MA1999999097221MD1999999+0011REMSYN076AAXX  13004 82975 32495 70905 10251 20191 39722 40116 82323 333 10307 58001;EQDQ01  00002PRCP99
0186829750999992000041312004-09100-044120FM-12+033199999V0203201N002611050019N0040001N1+02311+02201101471ADDAA199000091GF106991011021008001021031KA1240N+01921MA1999999097501MD1999999+0091REMSYN076AAXX  13124 82975 32596 63205 10231 20220 39750 40147 81223 333 20192 58009;EQDQ01  00002PRCP99
0167829750999992000041418004-09100-044120FM-12+033199999V0201401N003610450019N0040001N1+02101+02041101121ADDAA199000091GF108991031051008001021031MA1999999097231MD1999999+0031REMSYN070AAXX  14184 82975 32596 81407 10210 20204 39723 40112 83523 333 58003;EQDQ01  00002PRCP99
0186829750999992000041500004-09100-044120FM-12+033199999V0209999C000011050019N0040001N1+02361+02281101381ADDAA199000091GF106991011031008001021041KA1240M+02951MA1999999097401MD1999999+0241REMSYN076AAXX  15004 82975 32596 60000 10236 20228 39740 40138 81324 333 10295 58024;EQDQ01  00002PRCP99
0201829750999992000041512004-09100-044120FM-12+033199999V0203201N002610450019N0200001N1+02201+02151101091ADDAA124000391AY161061AY231061GF108991011041008001021051KA1240N+01731MA1999999097131MD1999999-0381MW1091REMSYN088AAXX  15124 82975 21598 83205 10220 20215 39713 40109 70963 81425 333 20173 59038 69934;
0167829750999992000041518004-09100-044120FM-12+033199999V0201801N002611050019N0010001N1+03061+02191101241ADDAA199000091GF105991021021008001011031MA1999999097351MD1999999+0121REMSYN070AAXX  15184 82975 32594 51805 10306 20219 39735 40124 82213 333 58012;EQDQ01  00002PRCP99
0186829750999992000041600004-09100-044120FM-12+033199999V0209999C000010450019N0100001N1+02561+02381101341ADDAA199000091GF107991021041008001021031KA1240M+03091MA1999999097401MD1999999+0001REMSYN076AAXX  16004 82975 32597 70000 10256 20238 39740 40134 82423 333 10309 58000;EQDQ01  00002PRCP99
0186829750999992000041612004-09100-044120FM-12+033199999V0201801N002610450019N0100001N1+02121+02001101651ADDAA199000091GF108991021031008001051041KA1240N+01681MA1999999097661MD1999999+0061REMSYN076AAXX  16124 82975 32597 81805 10212 20200 39766 40165 82354 333 20168 58006;EQDQ01  00002PRCP99
0167829750999992000041618004-09100-044120FM-12+033199999V0200501N003612200019N0010001N1+03001+02241101291ADDAA199000091GF104991011031008001021031MA1999999097401MD1999999+0051REMSYN070AAXX  16184 82975 32594 40507 10300 20224 39740 40129 81323 333 58005;EQDQ01  00002PRCP99
0186829750999992000041700004-09100-044120FM-12+033199999V0203201N002611050019N0010001N1+02731+02121101121ADDAA199000091GF105991021021008001041021KA1240M+03061MA1999999097211MD1999999-0191REMSYN076AAXX  17004 82975 32594 53205 10273 20212 39721 40112 82242 333 10306 59019;EQDQ01  00002PRCP99
0220829750999992000041712004-09100-044120FM-12+033199999V0202301N003610450019N0100001N1+02011+01921101611ADDAA124027991AY161061AY261061GF108991031031008001051031KA1240N+01601MA1999999097611MD1999999-0051MW1221REMSYN088AAXX  17124 82975 21597 82307 10201 20192 39761 40161 72266 83353 333 20160 59005 60284;EQDQ01+000002PRSWM1
0148829750999992000041718004-09100-044120FM-12+033199999V0201401N005110450019N0040001N1+02101+02021101201ADDAA199000021GF107991021041008001031021MA1999999097301MD1999999-0101REMSYN070AAXX  17184 82975 32596 71410 10210 20202 39730 40120 82432 333 59010;
0167829750999992000041800004-09100-044120FM-12+033199999V0209999C000011050019N0010001N1+02281+02111101151ADDAA199000021GF105991011021008001031031KA1240M+02961MA1999999097201MD1999999-0011REMSYN076AAXX  18004 82975 32594 50000 10228 20211 39720 40115 81233 333 10296 59001;
0186829750999992000041812004-09100-044120FM-12+033199999V0209999C000010450019N0040001N1+02301+02181101521ADDAA199000091GF106991021021008001011051KA1240N+01821MA1999999097551MD1999999-0061REMSYN076AAXX  18124 82975 32596 60000 10230 20218 39755 40152 82215 333 20182 59006;EQDQ01  00002PRCP99
0167829750999992000041818004-09100-044120FM-12+033199999V0202301N002612200019N0010001N1+03011+02321101141ADDAA199000091GF104991011021008001011031MA1999999097251MD1999999-0051REMSYN070AAXX  18184 82975 32594 42305 10301 20232 39725 40114 81213 333 59005;EQDQ01  00002PRCP99
0186829750999992000041900004-09100-044120FM-12+033199999V0209999C000011050019N0010001N1+02411+02301101211ADDAA199000091GF105991021011008001021041KA1240M+03081MA1999999097261MD1999999+0061REMSYN076AAXX  19004 82975 32594 50000 10241 20230 39726 40121 82124 333 10308 58006;EQDQ01  00002PRCP99
0201829750999992000041912004-09100-044120FM-12+033199999V0209999C000011050019N0040001N1+02161+02081101581ADDAA124001091AY161061AY231061GF106991011021008001031041KA1240N+01721MA1999999097601MD1999999+0051MW1091REMSYN088AAXX  19124 82975 21596 60000 10216 20208 39760 40158 70963 81234 333 20172 58005 60014;
0182829750999992000041918004-09100-044120FM-12+033199999V0202301N002612200019N0010001N1+02721+02221101061ADDAA106013091AY161061AY231061GF104991021021008001011031MA1999999097151MD1999999-0101MW1091REMSYN082AAXX  19184 82975 21594 42305 10272 20222 39715 40106 70963 82213 333 59010 60131;
0201829750999992000042000004-09100-044120FM-12+033199999V0209999C000012200019N0005001N1+02111+02021101171ADDAA106008991AY161061AY231061GF103991021021008001011021KA1240M+02911MA1999999097201MD1999999-0061MW1091REMSYN088AAXX  20004 82975 21593 30000 10211 20202 39720 40117 70963 82212 333 10291 59006 60091;
0186829750999992000042112004-09100-044120FM-12+033199999V0201801N002610450019N0040001N1+02101+02051101331ADDAA199000091GF107991021031008001051031KA1240N+01681MA1999999097351MD1999999-0101REMSYN076AAXX  21124 82975 32596 71805 10210 20205 39735 40133 82353 333 20168 59010;EQDQ01  00002PRCP99
0167829750999992000042118004-09100-044120FM-12+033199999V0203601N003610450019N0040001N1+02511+02231100981ADDAA199000091GF107991011031008001021041MA1999999097051MD1999999-0201REMSYN070AAXX  21184 82975 32596 73607 10251 20223 39705 40098 81324 333 59020;EQDQ01  00002PRCP99
0186829750999992000042200004-09100-044120FM-12+033199999V0209999C000010450019N0010001N1+02321+02151101061ADDAA199000091GF107991011021008001051031KA1240M+03071MA1999999097111MD1999999-0091REMSYN076AAXX  22004 82975 32594 70000 10232 20215 39711 40106 81253 333 10307 59009;EQDQ01  00002PRCP99
0167829750999992000042218004-09100-044120FM-12+033199999V0201401N002611050019N0005001N1+02931+02341100971ADDAA199000091GF106991021031008001021031MA1999999097001MD1999999-0051REMSYN070AAXX  22184 82975 32593 61405 10293 20234 39700 40097 82323 333 59005;EQDQ01  00002PRCP99
0220829750999992000042300004-09100-044120FM-12+033199999V0200501N005110450019N0100001N1+02011+01921101291ADDAA106031091AY161061AY261061GF108991021031008001051041KA1240M+03131MA1999999097311MD1999999+0201MW1221REMSYN088AAXX  23004 82975 21597 80510 10201 20192 39731 40129 72266 82354 333 10313 58020 60311;EQDQ01+000002PRSWM1
0201829750999992000042312004-09100-044120FM-12+033199999V0201801N002610450019N0040001N1+02151+02061101391ADDAA124032091AY161061AY231061GF108991021031008001051021KA1240N+01651MA1999999097411MD1999999+0111MW1091REMSYN088AAXX  23124 82975 21596 81805 10215 20206 39741 40139 70963 82352 333 20165 58011 60324;
0167829750999992000042418004-09100-044120FM-12+033199999V0200501N004110450019N0020001N1+02851+02461101001ADDAA199000091GF106991011031008001021021MA1999999097101MD1999999-0161REMSYN070AAXX  24184 82975 32595 60508 10285 20246 39710 40100 81322 333 59016;EQDQ01  00002PRCP99
0186829750999992000042500004-09100-044120FM-12+033199999V0209999C000011050019N0010001N1+02501+02321101141ADDAA199000091GF105991021021008001011031KA1240M+03121MA1999999097201MD1999999-0011REMSYN076AAXX  25004 82975 32594 50000 10250 20232 39720 40114 82213 333 10312 59001;EQDQ01  00002PRCP99
0186829750999992000042512004-09100-044120FM-12+033199999V0203601N002612200019N0002001N1+02431+02131101351ADDAA199000091GF103991011021004501011021KA1240N+01931MA1999999097401MD1999999-0051REMSYN076AAXX  25124 82975 32492 33605 10243 20213 39740 40135 81212 333 20193 59005;EQDQ01  00002PRCP99
0167829750999992000042518004-09100-044120FM-12+033199999V0209999C000010450019N0040001N1+02711+02461101061ADDAA199000091GF107991021031008001021041MA1999999097151MD1999999+0051REMSYN070AAXX  25184 82975 32596 70000 10271 20246 39715 40106 82324 333 58005;EQDQ01  00002PRCP99
0186829750999992000042612004-09100-044120FM-12+033199999V0200501N003610450019N0020001N1+02111+01981101551ADDAA199000091GF106991021031004501041021KA1240N+01781MA1999999097561MD1999999+0161REMSYN076AAXX  26124 82975 32495 60507 10211 20198 39756 40155 82342 333 20178 58016;EQDQ01  00002PRCP99
0167829750999992000042618004-09100-044120FM-12+033199999V0201401N002612200019N0005001N1+03001+02241101141ADDAA199000091GF104991011021008001031021MA1999999097251MD1999999+0101REMSYN070AAXX  26184 82975 32593 41405 10300 20224 39725 40114 81232 333 58010;EQDQ01  00002PRCP99
0186829750999992000042700004-09100-044120FM-12+033199999V0209999C000012200019N0005001N1+02521+02071101261ADDAA199000091GF103991011021008001011021KA1240M+03141MA1999999097321MD1999999-0081REMSYN076AAXX  27004 82975 32593 30000 10252 20207 39732 40126 81212 333 10314 59008;EQDQ01  00002PRCP99
0186829750999992000042712004-09100-044120FM-12+033199999V0200901N004111050019N0010001N1+02301+02091101521ADDAA199000091GF105991011021008001031021KA1240N+01811MA1999999097551MD1999999-0011REMSYN076AAXX  27124 82975 32594 50908 10230 20209 39755 40152 81232 333 20181 59001;EQDQ01  00002PRCP99
0167829750999992000042718004-09100-044120FM-12+033199999V0203201N003612200019N0005001N1+03211+01931101181ADDAA199000091GF104991021011008001021031MA1999999097301MD1999999+0051REMSYN070AAXX  27184 82975 32593 43207 10321 20193 39730 40118 82123 333 58005;EQDQ01  00002PRCP99
0186829750999992000042800004-09100-044120FM-12+033199999V0209999C000012200019N0010001N1+02571+02081101341ADDAA199000091GF104991021011008001031031KA1240M+03191MA1999999097401MD1999999+0081REMSYN076AAXX  28004 82975 32594 40000 10257 20208 39740 40134 82133 333 10319 58008;EQDQ01  00002PRCP99
0186829750999992000042812004-09100-044120FM-12+033199999V0202701N004111050019N0010001N1+02411+01991101561ADDAA199000091GF106991011021008001041031KA1240N+01921MA1999999097601MD1999999+0051REMSYN076AAXX  28124 82975 32594 62708 10241 20199 39760 40156 81243 333 20192 58005;EQDQ01  00002PRCP99
0167829750999992000042818004-09100-044120FM-12+033199999V0203601N003612200019N0005001N1+03211+02031101201ADDAA199000091GF104991021001004501031021MA1999999097321MD1999999+0021REMSYN070AAXX  28184 82975 32493 43607 10321 20203 39732 40120 82032 333 58002;EQDQ01  00002PRCP99
0186829750999992000042900004-09100-044120FM-12+033199999V0201801N002612200019N0005001N1+02511+01981101341ADDAA199000091GF104991021011008001021031KA1240M+03141MA1999999097401MD1999999+0001REMSYN076AAXX  29004 82975 32593 41805 10251 20198 39740 40134 82123 333 10314 58000;EQDQ01  00002PRCP99
0186829750999992000042912004-09100-044120FM-12+033199999V0203201N002612200019N0002001N1+02411+02091101601ADDAA199000091GF103991011021004501011021KA1240N+01931MA1999999097641MD1999999+0041REMSYN076AAXX  29124 82975 32492 33205 10241 20209 39764 40160 81212 333 20193 58004;EQDQ01  00002PRCP99
0182829750999992000042918004-09100-044120FM-12+033199999V0209999C000010450019N0020001N1+03201+02271101181ADDAA106000391AY161061AY231061GF106991021031008001021021MA1999999097201MD1999999-0021MW1091REMSYN082AAXX  29184 82975 21595 60000 10320 20227 39720 40118 70963 82322 333 59002 69931;
0186829750999992000043000004-09100-044120FM-12+033199999V0209999C000011050019N0010001N1+02401+02091101351ADDAA199000091GF105991021021008001011031KA1240M+03031MA1999999097401MD1999999+0001REMSYN076AAXX  30004 82975 32594 50000 10240 20209 39740 40135 82213 333 10303 58000;EQDQ01  00002PRCP99
0173829750999992000043012004-09100-044120FM-12+033199999V0209999C000011050019N0040001N1+02511+02131101561ADDAA124000391GF106991011031008001021041KA1240N+02011MA1999999097601MD1999999-0041REMSYN082AAXX  30124 82975 22596 60000 10251 20213 39760 40156 81324 333 20201 59004 69934;
0167829750999992000043018004-09100-044120FM-12+033199999V0203201N002611050019N0020001N1+03261+02271101071ADDAA199000091GF106991021021008001011041MA1999999097201MD1999999-0101REMSYN070AAXX  30184 82975 32595 63205 10326 20227 39720 40107 82214 333 59010;EQDQ01  00002PRCP99
0186829750999992000050100004-09100-044120FM-12+033199999V0201401N002612200019N0005001N1+02701+02201101231ADDAA199000091GF104991011021008001031021KA1240M+03161MA1999999097311MD1999999-0091REMSYN076AAXX  01004 82975 32593 41405 10270 20220 39731 40123 81232 333 10316 59009;EQDQ01  00002PRCP99
0186829750999992000050112004-09100-044120FM-12+033199999V0209999C000012200019N0005001N1+02411+01971101561ADDAA199000091GF104991011021008001011031KA1240N+01951MA1999999097601MD1999999+0001REMSYN076AAXX  01124 82975 32593 40000 10241 20197 39760 40156 81213 333 20195 58000;EQDQ01  00002PRCP99
0167829750999992000050118004-09100-044120FM-12+033199999V0203601N002611050019N0040001N1+03111+02261101081ADDAA199000091GF106991011031008001021031MA1999999097201MD1999999+0001REMSYN070AAXX  01184 82975 32596 63605 10311 20226 39720 40108 81323 333 58000;EQDQ01  00002PRCP99
0186829750999992000050200004-09100-044120FM-12+033199999V0209999C000011050019N0010001N1+02571+02131101291ADDAA199000091GF105991021031008001011021KA1240M+03081MA1999999097311MD1999999+0041REMSYN076AAXX  02004 82975 32594 50000 10257 20213 39731 40129 82312 333 10308 58004;EQDQ01  00002PRCP99
0186829750999992000050212004-09100-044120FM-12+033199999V0200901N004112200019N0005001N1+02511+02151101451ADDAA199000091GF103991011011008001021031KA1240N+02021MA1999999097501MD1999999-0101REMSYN076AAXX  02124 82975 32593 30908 10251 20215 39750 40145 81123 333 20202 59010;EQDQ01  00002PRCP99
0167829750999992000050218004-09100-044120FM-12+033199999V0201401N003612200019N0005001N1+03211+01991101081ADDAA199000091GF104991011021008001011031MA1999999097211MD1999999+0011REMSYN070AAXX  02184 82975 32593 41407 10321 20199 39721 40108 81213 333 58001;EQDQ01  00002PRCP99
0202829750999992000050300004-09100-044120FM-12+033199999V0202301N002619999999N0005001N1+02621+01811101181ADDAA199000091GF105991999011004501001001KA1240M+03141MA1999999097251MD1999999-0101REMSYN076AAXX  03004 82975 32493 52305 10262 20181 39725 40118 82100 333 10314 59010;EQDQ01+000022SCOTLCQ02  00002PRCP99
0186829750999992000050312004-09100-044120FM-12+033199999V0209999C000012200019N0010001N1+02541+02111101531ADDAA199000091GF103991021011008001021031KA1240N+02071MA1999999097571MD1999999+0071REMSYN076AAXX  03124 82975 32594 30000 10254 20211 39757 40153 82123 333 20207 58007;EQDQ01  00002PRCP99
0167829750999992000050318004-09100-044120FM-12+033199999V0202301N002611050019N0010001N1+03161+02081101081ADDAA199000091GF105991021021008001011031MA1999999097201MD1999999-0011REMSYN070AAXX  03184 82975 32594 52305 10316 20208 39720 40108 82213 333 59001;EQDQ01  00002PRCP99
0186829750999992000050400004-09100-044120FM-12+033199999V0201801N002612200019N0005001N1+02611+02011101161ADDAA199000091GF104991011021008001031021KA1240M+03121MA1999999097231MD1999999-0021REMSYN076AAXX  04004 82975 32593 41805 10261 20201 39723 40116 81232 333 10312 59002;EQDQ01  00002PRCP99
0186829750999992000050412004-09100-044120FM-12+033199999V0200901N005112200019N0010001N1+02411+01991101471ADDAA199000091GF103991011011008001021031KA1240N+01921MA1999999097511MD1999999-0061REMSYN076AAXX  04124 82975 32594 30910 10241 20199 39751 40147 81123 333 20192 59006;EQDQ01  00002PRCP99
0167829750999992000050418004-09100-044120FM-12+033199999V0203601N002612200019N0005001N1+03181+02251101101ADDAA199000091GF103991011021008001001031MA1999999097211MD1999999+0011REMSYN070AAXX  04184 82975 32593 33605 10318 20225 39721 40110 81203 333 58001;EQDQ01  00002PRCP99
0202829750999992000050500004-09100-044120FM-12+033199999V0209999C000019999999N0010001N1+02511+01911101191ADDAA199000091GF105991999011008001001001KA1240M+03081MA1999999097251MD1999999+0021REMSYN076AAXX  05004 82975 32594 50000 10251 20191 39725 40119 82100 333 10308 58002;EQDQ01+000022SCOTLCQ02  00002PRCP99
0186829750999992000050512004-09100-044120FM-12+033199999V0200501N004111050019N0010001N1+02411+02031101361ADDAA199000091GF105991011021008001021031KA1240N+01901MA1999999097411MD1999999-0101REMSYN076AAXX  05124 82975 32594 50508 10241 20203 39741 40136 81223 333 20190 59010;EQDQ01  00002PRCP99
0167829750999992000050518004-09100-044120FM-12+033199999V0202301N003612200019N0005001N1+03111+02141101031ADDAA199000091GF104991021021008001011031MA1999999097151MD1999999-0061REMSYN070AAXX  05184 82975 32593 42307 10311 20214 39715 40103 82213 333 59006;EQDQ01  00002PRCP99
0186829750999992000050600004-09100-044120FM-12+033199999V0209999C000011050019N0010001N1+02611+02061101131ADDAA199000091GF105991011031008001021021KA1240M+03231MA1999999097201MD1999999-0051REMSYN076AAXX  06004 82975 32594 50000 10261 20206 39720 40113 81322 333 10323 59005;EQDQ01  00002PRCP99
0186829750999992000050612004-09100-044120FM-12+033199999V0200501N002612200019N0005001N1+02301+02111101361ADDAA199000091GF103991011021004501001021KA1240N+01861MA1999999097401MD1999999-0011REMSYN076AAXX  06124 82975 32493 30505 10230 20211 39740 40136 81202 333 20186 59001;EQDQ01  00002PRCP99
0167829750999992000050618004-09100-044120FM-12+033199999V0202301N002611050019N0020001N1+03211+02151100971ADDAA199000091GF106991011031008001021031MA1999999097101MD1999999-0051REMSYN070AAXX  06184 82975 32595 62305 10321 20215 39710 40097 81323 333 59005;EQDQ01  00002PRCP99
0186829750999992000050700004-09100-044120FM-12+033199999V0203201N003610450019N0040001N1+02611+02291101121ADDAA199000091GF107991011041008001021031KA1240M+03211MA1999999097191MD1999999-0011REMSYN076AAXX  07004 82975 32596 73207 10261 20229 39719 40112 81423 333 10321 59001;EQDQ01  00002PRCP99
0202829750999992000050712004-09100-044120FM-12+033199999V0203601N002619999999N0040001N1+02511+02131101291ADDAA199000091GF106991999021008001001001KA1240N+02041MA1999999097351MD1999999-0051REMSYN076AAXX  07124 82975 32596 63605 10251 20213 39735 40129 81200 333 20204 59005;EQDQ01+000012SCOTLCQ02  00002PRCP99
0183829750999992000050718004-09100-044120FM-12+033199999V0202301N002619999999N0040001N1+03301+02271100961ADDAA199000091GF106991999041008001001001MA1999999097101MD1999999+0001REMSYN070AAXX  07184 82975 32596 62305 10330 20227 39710 40096 82400 333 58000;EQDQ01+000022SCOTLCQ02  00002PRCP99
0186829750999992000050800004-09100-044120FM-12+033199999V0209999C000010450019N0010001N1+02711+02201101121ADDAA199000091GF105991011031008001021001KA1240M+03301MA1999999097201MD1999999+0011REMSYN076AAXX  08004 82975 32594 50000 10271 20220 39720 40112 81320 333 10330 58001;EQDQ01  00002PRCP99
0186829750999992000050812004-09100-044120FM-12+033199999V0201801N002610450019N0040001N1+02541+02131101441ADDAA199000091GF106991011021008001041021KA1240N+02071MA1999999097501MD1999999+0151REMSYN076AAXX  08124 82975 32596 61805 10254 20213 39750 40144 81242 333 20207 58015;EQDQ01  00002PRCP99
0167829750999992000050818004-09100-044120FM-12+033199999V0201401N002611050019N0010001N1+03321+02201101111ADDAA199000091GF105991021011008001031021MA1999999097251MD1999999+0151REMSYN070AAXX  08184 82975 32594 51405 10332 20220 39725 40111 82132 333 58015;EQDQ01  00002PRCP99
0202829750999992000050900004-09100-044120FM-12+033199999V0209999C000012200019N0005001N1+02701+02151101271ADDAA199000091GF104991999011008001001001KA1240M+03341MA1999999097351MD1999999+0151REMSYN076AAXX  09004 82975 32593 40000 10270 20215 39735 40127 82100 333 10334 58015;EQDQ01+000022SCOTLCQ02  00002PRCP99
0186829750999992000050912004-09100-044120FM-12+033199999V0200901N003610450019N0010001N1+02411+02111101591ADDAA199000091GF106991021031008001041021KA1240N+02011MA1999999097611MD1999999+0111REMSYN076AAXX  09124 82975 32594 60907 10241 20211 39761 40159 82342 333 20201 58011;EQDQ01  00002PRCP99
0167829750999992000050918004-09100-044120FM-12+033199999V0203601N003611050019N0005001N1+03201+02121101191ADDAA199000091GF105991011021008001031021MA1999999097311MD1999999+0061REMSYN070AAXX  09184 82975 32593 53607 10320 20212 39731 40119 81232 333 58006;EQDQ01  00002PRCP99
0202829750999992000051000004-09100-044120FM-12+033199999V0209999C000012200019N0005001N1+02611+02101101281ADDAA199000091GF104991011011008001021031KA1240M+03281MA1999999999999MD1999999+0001REMSYN076AAXX  10004 82975 32593 40000 10261 20210 30035 40128 81123 333 10328 58000;EQDQ01  00002PRCP99Q02 100353APOSP 
0186829750999992000051012004-09100-044120FM-12+033199999V0209999C000012200019N0010001N1+02451+02131101611ADDAA199000091GF104991021021008001041021KA1240N+02061MA1999999097651MD1999999+0041REMSYN076AAXX  10124 82975 32594 40000 10245 20213 39765 40161 82242 333 20206 58004;EQDQ01  00002PRCP99
0167829750999992000051018004-09100-044120FM-12+033199999V0203201N002612200019N0010001N1+03341+02141101281ADDAA199000091GF103991021031008001021031MA1999999097401MD1999999+0091REMSYN070AAXX  10184 82975 32594 33205 10334 20214 39740 40128 82323 333 58009;EQDQ01  00002PRCP99
0186829750999992000051100004-09100-044120FM-12+033199999V0209999C000012200019N0005001N1+02831+02171101261ADDAA199000091GF104991011021008001021031KA1240M+03511MA1999999097351MD1999999+0001REMSYN076AAXX  11004 82975 32593 40000 10283 20217 39735 40126 81223 333 10351 58000;EQDQ01  00002PRCP99
0186829750999992000051112004-09100-044120FM-12+033199999V0209999C000010450019N0020001N1+02111+01981101641ADDAA199000091GF106991011031008001021021KA1240N+01821MA1999999097651MD1999999+0001REMSYN076AAXX  11124 82975 32595 60000 10211 20198 39765 40164 81322 333 20182 58000;EQDQ01  00002PRCP99
0167829750999992000051118004-09100-044120FM-12+033199999V0201801N003611050019N0010001N1+03101+02261101241ADDAA199000091GF105991021031008001021011MA1999999097351MD1999999-0051REMSYN070AAXX  11184 82975 32594 51807 10310 20226 39735 40124 82321 333 59005;EQDQ01  00002PRCP99
0186829750999992000051200004-09100-044120FM-12+033199999V0203201N002611050019N0040001N1+02561+02311101241ADDAA199000091GF106991011041008001021031KA1240M+03381MA1999999097301MD1999999-0051REMSYN076AAXX  12004 82975 32596 63205 10256 20231 39730 40124 81423 333 10338 59005;EQDQ01  00002PRCP99
0186829750999992000051212004-09100-044120FM-12+033199999V0202301N003612200019N0002001N1+02411+02031101541ADDAA199000091GF103991011061004501011021KA1240N+02091MA1999999097581MD1999999-0071REMSYN076AAXX  12124 82975 32492 32307 10241 20203 39758 40154 81612 333 20209 59007;EQDQ01  00002PRCP99
0167829750999992000051218004-09100-044120FM-12+033199999V0202301N003611050019N0010001N1+03111+02001101131ADDAA199000091GF105991021031008001021021MA1999999097251MD1999999-0101REMSYN070AAXX  12184 82975 32594 52307 10311 20200 39725 40113 82322 333 59010;EQDQ01  00002PRCP99
0186829750999992000051300004-09100-044120FM-12+033199999V0209999C000012200019N0010001N1+02511+02051101321ADDAA199000091GF104991021021008001011031KA1240M+03311MA1999999097381MD1999999+0081REMSYN076AAXX  13004 82975 32594 40000 10251 20205 39738 40132 82213 333 10331 58008;EQDQ01  00002PRCP99
0186829750999992000051312004-09100-044120FM-12+033199999V0203201N002612200019N0005001N1+02211+01841101631ADDAA199000091GF103991011001004501021021KA1240N+01911MA1999999097651MD1999999+0071REMSYN076AAXX  13124 82975 32493 33205 10221 20184 39765 40163 81022 333 20191 58007;EQDQ01  00002PRCP99
0167829750999992000051318004-09100-044120FM-12+033199999V0202301N002612200019N0010001N1+03011+01841101301ADDAA199000091GF104991021011008001021021MA1999999097401MD1999999+0151REMSYN070AAXX  13184 82975 32594 42305 10301 20184 39740 40130 82122 333 58015;EQDQ01  00002PRCP99
0186829750999992000051400004-09100-044120FM-12+033199999V0209999C000010450019N0020001N1+02411+01631101351ADDAA199000091GF106991011031008001021021KA1240M+03131MA1999999097401MD1999999+0021REMSYN076AAXX  14004 82975 32595 60000 10241 20163 39740 40135 81322 333 10313 58002;EQDQ01  00002PRCP99
0202829750999992000051412004-09100-044120FM-12+033199999V0203601N002619999999N0020001N1+02111+01781101641ADDAA199000091GF106991999011008001001001KA1240N+01831MA1999999097651MD1999999+0001REMSYN076AAXX  14124 82975 32595 63605 10211 20178 39765 40164 82100 333 20183 58000;EQDQ01+000022SCOTLCQ02  00002PRCP99
0183829750999992000051418004-09100-044120FM-12+033199999V0202301N003619999999N0010001N1+03011+01841101251ADDAA199000091GF105991999021008001001001MA1999999097351MD1999999-0051REMSYN070AAXX  14184 82975 32594 52307 10301 20184 39735 40125 83200 333 59005;EQDQ01+000032SCOTLCQ02  00002PRCP99
0202829750999992000051500004-09100-044120FM-12+033199999V0209999C000012200019N0010001N1+02431+01591101361ADDAA199000091GF104991999011008001001001KA1240M+03151MA1999999097411MD1999999+0011REMSYN076AAXX  15004 82975 32594 40000 10243 20159 39741 40136 82100 333 10315 58001;EQDQ01+000022SCOTLCQ02  00002PRCP99
0186829750999992000051512004-09100-044120FM-12+033199999V0202301N003612200019N0005001N1+02241+01881101581ADDAA199000091GF104991011021008001031021KA1240N+01871MA1999999097611MD1999999-0041REMSYN076AAXX  15124 82975 32593 42307 10224 20188 39761 40158 81232 333 20187 59004;EQDQ01  00002PRCP99
0167829750999992000051518004-09100-044120FM-12+033199999V0203201N004112200019N0010001N1+03051+01881101161ADDAA199000091GF104991021011008001021021MA1999999097271MD1999999-0081REMSYN070AAXX  15184 82975 32594 43208 10305 20188 39727 40116 82122 333 59008;EQDQ01  00002PRCP99
0202829750999992000051600004-09100-044120FM-12+033199999V0201401N002612200019N0005001N1+02501+01801101251ADDAA199000091GF103991999011008001001001KA1240M+03181MA1999999097311MD1999999-0101REMSYN076AAXX  16004 82975 32593 31405 10250 20180 39731 40125 82100 333 10318 59010;EQDQ01+000022SCOTLCQ02  00002PRCP99
0186829750999992000051612004-09100-044120FM-12+033199999V0201801N002612200019N0010001N1+02211+01691101481ADDAA199000091GF104991021011008001031021KA1240N+01781MA1999999097501MD1999999-0111REMSYN076AAXX  16124 82975 32594 41805 10221 20169 39750 40148 82132 333 20178 59011;EQDQ01  00002PRCP99
0167829750999992000051618004-09100-044120FM-12+033199999V0201401N002612200019N0005001N1+03021+02031101141ADDAA199000091GF103991021011008001021031MA1999999097251MD1999999-0021REMSYN070AAXX  16184 82975 32593 31405 10302 20203 39725 40114 82123 333 59002;EQDQ01  00002PRCP99
0186829750999992000051700004-09100-044120FM-12+033199999V0200501N002612200019N0010001N1+02611+01791101231ADDAA199000091GF104991021011008001001031KA1240M+03211MA1999999097301MD1999999-0011REMSYN076AAXX  17004 82975 32594 40505 10261 20179 39730 40123 82103 333 10321 59001;EQDQ01  00002PRCP99
0186829750999992000051712004-09100-044120FM-12+033199999V0200901N002612200019N0010001N1+02431+01951101511ADDAA199000091GF103991011021008001031001KA1240N+01871MA1999999097551MD1999999+0051REMSYN076AAXX  17124 82975 32594 30905 10243 20195 39755 40151 81230 333 20187 58005;EQDQ01  00002PRCP99
0167829750999992000051718004-09100-044120FM-12+033199999V0202701N003612200019N0005001N1+03311+01981101061ADDAA199000091GF104991021031008001001021MA1999999097201MD1999999-0051REMSYN070AAXX  17184 82975 32593 42707 10331 20198 39720 40106 82302 333 59005;EQDQ01  00002PRCP99
0186829750999992000051800004-09100-044120FM-12+033199999V0209999C000012200019N0010001N1+02711+01941101171ADDAA199000091GF103991011011008001031021KA1240M+03381MA1999999097251MD1999999-0051REMSYN076AAXX  18004 82975 32594 30000 10271 20194 39725 40117 81132 333 10338 59005;EQDQ01  00002PRCP99
0186829750999992000051812004-09100-044120FM-12+033199999V0209999C000010450019N0040001N1+02111+01981101601ADDAA199000091GF107991021031008001051021KA1240N+01691MA1999999097611MD1999999+0061REMSYN076AAXX  18124 82975 32596 70000 10211 20198 39761 40160 82352 333 20169 58006;EQDQ01  00002PRCP99
0167829750999992000051818004-09100-044120FM-12+033199999V0203601N002612200019N0005001N1+03251+01971101081ADDAA199000091GF103991011021008001021031MA1999999097301MD1999999+0101REMSYN070AAXX  18184 82975 32593 33605 10325 20197 39730 40108 81223 333 58010;EQDQ01  00002PRCP99
0202829750999992000051900004-09100-044120FM-12+033199999V0201401N002619999999N0010001N1+02521+02271101251ADDAA199000091GF105991999011008001001001KA1240M+03281MA1999999097311MD1999999+0061REMSYN076AAXX  19004 82975 32594 51405 10252 20227 39731 40125 82100 333 10328 58006;EQDQ01+000022SCOTLCQ02  00002PRCP99
0220829750999992000051912004-09100-044120FM-12+033199999V0202301N002610450019N0040001N1+02311+02221101521ADDAA124006191AY161061AY261061GF107991021041008001021031KA1240N+01921MA1999999097551MD1999999-0061MW1221REMSYN088AAXX  19124 82975 21596 72305 10231 20222 39755 40152 72266 82423 333 20192 59006 60064;EQDQ01+000002PRSWM1
0148829750999992000051918004-09100-044120FM-12+033199999V0203601N002610450019N0100001N1+02161+02081101481ADDAA199000021GF108991021051008001031021MA1999999097501MD1999999+0201REMSYN070AAXX  19184 82975 32597 83605 10216 20208 39750 40148 82532 333 58020;
0201829750999992000052000004-09100-044120FM-12+033199999V0209999C000010450019N0200001N1+02011+01971101601ADDAA106018091AY161061AY231061GF108991021041008001031031KA1240M+02861MA1999999097601MD1999999+0291MW1091REMSYN088AAXX  20004 82975 21598 80000 10201 20197 39760 40160 70963 82433 333 10286 58029 60181;
0201829750999992000052012004-09100-044120FM-12+033199999V0203601N002610450019N0100001N1+02061+01991101771ADDAA124020191AY161061AY231061GF108991021051008001031001KA1240N+01631MA1999999097761MD1999999+0211MW1091REMSYN088AAXX  20124 82975 21597 83605 10206 20199 39776 40177 70963 82530 333 20163 58021 60204;
0183829750999992000052018004-09100-044120FM-12+033199999V0200501N002619999999N0040001N1+03011+02221101301ADDAA199000091GF106991999021008001001001MA1999999097401MD1999999-0101REMSYN070AAXX  20184 82975 32596 60505 10301 20222 39740 40130 84200 333 59010;EQDQ01+000042SCOTLCQ02  00002PRCP99
0202829750999992000052100004-09100-044120FM-12+033199999V0201801N002619999999N0040001N1+02411+02231101461ADDAA199000091GF106991999021008001001001KA1240M+03151MA1999999097501MD1999999-0101REMSYN076AAXX  21004 82975 32596 61805 10241 20223 39750 40146 83200 333 10315 59010;EQDQ01+000032SCOTLCQ02  00002PRCP99
0186829750999992000052112004-09100-044120FM-12+033199999V0202301N002612200019N0010001N1+02611+01961101741ADDAA199000091GF104991021021008001011021KA1240N+02081MA1999999097781MD1999999+0021REMSYN076AAXX  21124 82975 32594 42305 10261 20196 39778 40174 82212 333 20208 58002;EQDQ01  00002PRCP99
0167829750999992000052118004-09100-044120FM-12+033199999V0203201N003610450019N0040001N1+03021+02081101401ADDAA199000091GF106991021041008001021021MA1999999097501MD1999999+0101REMSYN070AAXX  21184 82975 32596 63207 10302 20208 39750 40140 82422 333 58010;EQDQ01  00002PRCP99
0186829750999992000052212004-09100-044120FM-12+033199999V0201801N002610450019N0010001N1+02411+02071101821ADDAA199000091GF106991011021008001041021KA1240N+01921MA1999999097851MD1999999+0071REMSYN076AAXX  22124 82975 32594 61805 10241 20207 39785 40182 81242 333 20192 58007;EQDQ01  00002PRCP99
0167829750999992000052218004-09100-044120FM-12+033199999V0200901N003611050019N0040001N1+03071+02171101411ADDAA199000091GF106991021031008001021031MA1999999097511MD1999999+0011REMSYN070AAXX  22184 82975 32596 60907 10307 20217 39751 40141 82323 333 58001;EQDQ01  00002PRCP99
0220829750999992000052300004-09100-044120FM-12+033199999V0200501N003619999999N0040001N1+02421+02191101661ADDAA106004191AY161061AY231061GF107991999011008001001001KA1240M+03191MA1999999097691MD1999999+0091MW1091REMSYN088AAXX  23004 82975 21596 70507 10242 20219 39769 40166 70963 82100 333 10319 58009 60041;EQDQ01+000022SCOTLC
0201829750999992000052312004-09100-044120FM-12+033199999V0202301N003610450019N0100001N1+02211+02031102001ADDAA124004191AY161061AY231061GF108991031031008001041021KA1240N+01781MA1999999098001MD1999999+0151MW1091REMSYN088AAXX  23124 82975 21597 82307 10221 20203 39800 40200 70963 83342 333 20178 58015 60044;
0167829750999992000052318004-09100-044120FM-12+033199999V0201401N002610450019N0040001N1+02531+02141101721ADDAA199000091GF108991021051008001031021MA1999999097751MD1999999+0241REMSYN070AAXX  23184 82975 32596 81405 10253 20214 39775 40172 82532 333 58024;EQDQ01  00002PRCP99
0186829750999992000052400004-09100-044120FM-12+033199999V0203201N003610450019N0010001N1+02321+02111101781ADDAA199000091GF107991021031008001041031KA1240M+03011MA1999999097801MD1999999+0111REMSYN076AAXX  24004 82975 32594 73207 10232 20211 39780 40178 82343 333 10301 58011;EQDQ01  00002PRCP99
0186829750999992000052412004-09100-044120FM-12+033199999V0200901N004110450019N0040001N1+02311+01981101891ADDAA199000091GF107991031021008001041031KA1240N+01861MA1999999097911MD1999999-0091REMSYN076AAXX  24124 82975 32596 70908 10231 20198 39791 40189 83243 333 20186 59009;EQDQ01  00002PRCP99
0167829750999992000052418004-09100-044120FM-12+033199999V0202701N004112200019N0005001N1+03231+02051101541ADDAA199000091GF104991011031008001021031MA1999999097651MD1999999-0101REMSYN070AAXX  24184 82975 32593 42708 10323 20205 39765 40154 81323 333 59010;EQDQ01  00002PRCP99
0202829750999992000052500004-09100-044120FM-12+033199999V0201801N002619999999N0010001N1+02411+01891101561ADDAA199000091GF105991999011008001001001KA1240M+03281MA1999999097601MD1999999-0101REMSYN076AAXX  25004 82975 32594 51805 10241 20189 39760 40156 82100 333 10328 59010;EQDQ01+000022SCOTLCQ02  00002PRCP99
0186829750999992000052512004-09100-044120FM-12+033199999V0201801N002612200019N0010001N1+02211+01761101801ADDAA199000091GF103991021011008001031021KA1240N+01721MA1999999097811MD1999999-0101REMSYN076AAXX  25124 82975 32594 31805 10221 20176 39781 40180 82132 333 20172 59010;EQDQ01  00002PRCP99
0167829750999992000052518004-09100-044120FM-12+033199999V0200501N005112200019N0005001N1+03021+01711101451ADDAA199000091GF104991021031008001011031MA1999999097551MD1999999-0101REMSYN070AAXX  25184 82975 32593 40510 10302 20171 39755 40145 82313 333 59010;EQDQ01  00002PRCP99
0186829750999992000052600004-09100-044120FM-12+033199999V0203601N002612200019N0002001N1+02451+01861101491ADDAA199000091GF104991011021008001021031KA1240M+03181MA1999999097541MD1999999-0061REMSYN076AAXX  26004 82975 32592 43605 10245 20186 39754 40149 81223 333 10318 59006;EQDQ01  00002PRCP99
0186829750999992000052612004-09100-044120FM-12+033199999V0201801N002612200019N0005001N1+02261+01901101681ADDAA199000091GF104991011021008001031021KA1240N+01651MA1999999097701MD1999999-0111REMSYN076AAXX  26124 82975 32593 41805 10226 20190 39770 40168 81232 333 20165 59011;EQDQ01  00002PRCP99
0167829750999992000052618004-09100-044120FM-12+033199999V0200901N002612200019N0010001N1+03101+02031101271ADDAA199000091GF103991021011008001021031MA1999999097401MD1999999-0151REMSYN070AAXX  26184 82975 32594 30905 10310 20203 39740 40127 82123 333 59015;EQDQ01  00002PRCP99
0202829750999992000052700004-09100-044120FM-12+033199999V0201401N002612200019N0002001N1+02511+01801101391ADDAA199000091GF104991999021008001001001KA1240M+03241MA1999999097451MD1999999-0091REMSYN076AAXX  27004 82975 32592 41405 10251 20180 39745 40139 83200 333 10324 59009;EQDQ01+000032SCOTLCQ02  00002PRCP99
0186829750999992000052712004-09100-044120FM-12+033199999V0200501N003612200019N0010001N1+02211+01741101581ADDAA199000091GF104991021011008001031021KA1240N+01621MA1999999097601MD1999999-0101REMSYN076AAXX  27124 82975 32594 40507 10221 20174 39760 40158 82132 333 20162 59010;EQDQ01  00002PRCP99
0167829750999992000052718004-09100-044120FM-12+033199999V0201401N003612200019N0005001N1+03211+01961101141ADDAA199000091GF104991011021008001021031MA1999999097261MD1999999-0141REMSYN070AAXX  27184 82975 32593 41407 10321 20196 39726 40114 81223 333 59014;EQDQ01  00002PRCP99
0186829750999992000052800004-09100-044120FM-12+033199999V0201801N002610450019N0010001N1+02501+01841101291ADDAA199000091GF106991011031008001041021KA1240M+03231MA1999999097351MD1999999-0101REMSYN076AAXX  28004 82975 32594 61805 10250 20184 39735 40129 81342 333 10323 59010;EQDQ01  00002PRCP99
0212829750999992000052812004-09100-044120FM-12+033199999V0209999C000012200019N0002001N1+02041+01921101481ADDAA199000091GA1001+999999999GF100991001001999999001001KA1240N+99999MA1999999097461MD1999999-0111REMSYN070AAXX  28124 82975 32592 00000 10204 20192 39746 40148 333 20247 59011;EQDQ01  00002PRCP99Q02 +02472ATMN  
0183829750999992000052818004-09100-044120FM-12+033199999V0209999C000019999999N0010001N1+03211+01751101121ADDAA199000091GF105991999031008001001001MA1999999097251MD1999999-0011REMSYN070AAXX  28184 82975 32594 50000 10321 20175 39725 40112 81300 333 59001;EQDQ01+000012SCOTLCQ02  00002PRCP99
0202829750999992000052900004-09100-044120FM-12+033199999V0203201N002619999999N0020001N1+02561+01641101151ADDAA199000091GF105991999021008001001001KA1240M+03251MA1999999097281MD1999999-0131REMSYN076AAXX  29004 82975 32595 53205 10256 20164 39728 40115 84200 333 10325 59013;EQDQ01+000042SCOTLCQ02  00002PRCP99
0186829750999992000052912004-09100-044120FM-12+033199999V0209999C000010450019N0010001N1+02201+01941101371ADDAA199000091GF106991021031008001031011KA1240N+01561MA1999999097401MD1999999-0091REMSYN076AAXX  29124 82975 32594 60000 10220 20194 39740 40137 82331 333 20156 59009;EQDQ01  00002PRCP99
0167829750999992000052918004-09100-044120FM-12+033199999V0202301N003611050019N0040001N1+03261+02051100961ADDAA199000091GF106991011031008001021031MA1999999097101MD1999999-0151REMSYN070AAXX  29184 82975 32596 62307 10326 20205 39710 40096 81323 333 59015;EQDQ01  00002PRCP99
0186829750999992000053000004-09100-044120FM-12+033199999V0201801N003611050019N0010001N1+02601+01921101181ADDAA199000091GF105991011021008001031021KA1240M+03271MA1999999097251MD1999999+0021REMSYN076AAXX  30004 82975 32594 51807 10260 20192 39725 40118 81232 333 10327 58002;EQDQ01  00002PRCP99
0186829750999992000053012004-09100-044120FM-12+033199999V0209999C000012200019N0005001N1+02141+01931101581ADDAA199000091GF104991021031008001001021KA1240N+01521MA1999999097591MD1999999+0191REMSYN076AAXX  30124 82975 32593 40000 10214 20193 39759 40158 82302 333 20152 58019;EQDQ01  00002PRCP99
0167829750999992000053018004-09100-044120FM-12+033199999V0209999C000010450019N0020001N1+03261+01981101121ADDAA199000091GF106991021031008001021021MA1999999097251MD1999999+0151REMSYN070AAXX  30184 82975 32595 60000 10326 20198 39725 40112 82322 333 58015;EQDQ01  00002PRCP99
0234829750999992000053100004-09100-044120FM-12+033199999V0209999C000019999999N0010001N1+02661+01921101221ADDAA199000091GF105991999011008001001001KA1240M+03341MA1999999999999MD1999999+0041REMSYN076AAXX  31004 82975 32594 50000 10266 20192 39425 40122 82100 333 10334 58004;EQDQ01+000022SCOTLCQ02+094253APOSP Q03  00002PRCP99Q04 094253APOSP 
0186829750999992000053112004-09100-044120FM-12+033199999V0202701N002612200019N0002001N1+02211+01881101521ADDAA199000091GF103991011021008001001031KA1240N+01631MA1999999097541MD1999999-0051REMSYN076AAXX  31124 82975 32592 32705 10221 20188 39754 40152 81203 333 20163 59005;EQDQ01  00002PRCP99
0167829750999992000053118004-09100-044120FM-12+033199999V0203201N002612200019N0005001N1+03281+02151101121ADDAA199000091GF103991021011008001021031MA1999999097231MD1999999-0021REMSYN070AAXX  31184 82975 32593 33205 10328 20215 39723 40112 82123 333 59002;EQDQ01  00002PRCP99
0186829750999992000060100004-09100-044120FM-12+033199999V0201401N002612200019N0002001N1+02711+02011101181ADDAA199000091GF104991011021008001031011KA1240M+03391MA1999999097261MD1999999-0031REMSYN076AAXX  01004 82975 32592 41405 10271 20201 39726 40118 81231 333 10339 59003;EQDQ01  00002PRCP99
0186829750999992000060112004-09100-044120FM-12+033199999V0202301N003610450019N0040001N1+02341+01981101581ADDAA199000091GF107991021031008001041021KA1240N+01711MA1999999097611MD1999999+0071REMSYN076AAXX  01124 82975 32596 72307 10234 20198 39761 40158 82342 333 20171 58007;EQDQ01  00002PRCP99
0202829750999992000060200004-09100-044120FM-12+033199999V0203601N002619999999N0010001N1+02651+01961101221ADDAA199000091GF105991999011008001001001KA1240M+03271MA1999999097351MD1999999+0091REMSYN076AAXX  02004 82975 32594 53605 10265 20196 39735 40122 82100 333 10327 58009;EQDQ01+000022SCOTLCQ02  00002PRCP99
0186829750999992000060212004-09100-044120FM-12+033199999V0200901N002610450019N0040001N1+02111+01821101641ADDAA199000091GF107991021031008001051031KA1240N+01681MA1999999097651MD1999999-0041REMSYN076AAXX  02124 82975 32596 70905 10211 20182 39765 40164 82353 333 20168 59004;EQDQ01  00002PRCP99
0167829750999992000060218004-09100-044120FM-12+033199999V0200501N004112200019N0005001N1+03311+01911101211ADDAA199000091GF104991021011008001021031MA1999999097341MD1999999+0041REMSYN070AAXX  02184 82975 32593 40508 10331 20191 39734 40121 82123 333 58004;EQDQ01  00002PRCP99
0186829750999992000060300004-09100-044120FM-12+033199999V0209999C000011050019N0005001N1+02611+01891101341ADDAA199000091GF105991011021008001031011KA1240M+03361MA1999999097401MD1999999+0051REMSYN076AAXX  03004 82975 32593 50000 10261 20189 39740 40134 81231 333 10336 58005;EQDQ01  00002PRCP99
0202829750999992000060312004-09100-044120FM-12+033199999V0201801N003612200019N0002001N1+02311+01901101681ADDAA199000091GF104991999011008001001001KA1240N+01781MA1999999097711MD1999999+0061REMSYN076AAXX  03124 82975 32592 41807 10231 20190 39771 40168 82100 333 20178 58006;EQDQ01+000022SCOTLCQ02  00002PRCP99
0183829750999992000060318004-09100-044120FM-12+033199999V0203601N003612200019N0005001N1+03271+01921101291ADDAA199000091GF103991999011008001001001MA1999999097401MD1999999+0051REMSYN070AAXX  03184 82975 32593 33607 10327 20192 39740 40129 82100 333 58005;EQDQ01+000022SCOTLCQ02  00002PRCP99
0202829750999992000060400004-09100-044120FM-12+033199999V0203201N002619999999N0010001N1+02431+01841101511ADDAA199000091GF105991999011008001001001KA1240M+03241MA1999999097551MD1999999+0151REMSYN076AAXX  04004 82975 32594 53205 10243 20184 39755 40151 82100 333 10324 58015;EQDQ01+000022SCOTLCQ02  00002PRCP99
0167829750999992000060418004-09100-044120FM-12+033199999V0203601N004111050019N0040001N1+02811+02031101631ADDAA199000091GF106991021041008001021031MA1999999097701MD1999999+0301REMSYN070AAXX  04184 82975 32596 63608 10281 20203 39770 40163 82423 333 58030;EQDQ01  00002PRCP99
0186829750999992000060512004-09100-044120FM-12+033199999V0203601N002610450019N0040001N1+02121+01891101901ADDAA199000091GF107991021041008001031021KA1240N+01671MA1999999097901MD1999999+0001REMSYN076AAXX  05124 82975 32596 73605 10212 20189 39790 40190 82432 333 20167 58000;EQDQ01  00002PRCP99
0167829750999992000060518004-09100-044120FM-12+033199999V0202301N003610450019N0100001N1+03001+02001101591ADDAA199000091GF107991011031008001021041MA1999999097681MD1999999-0021REMSYN070AAXX  05184 82975 32597 72307 10300 20200 39768 40159 81324 333 59002;EQDQ01  00002PRCP99
0202829750999992000060600004-09100-044120FM-12+033199999V0203201N002619999999N0010001N1+02451+01901101661ADDAA199000091GF105991999011008001001001KA1240M+03271MA1999999097701MD1999999-0031REMSYN076AAXX  06004 82975 32594 53205 10245 20190 39770 40166 82100 333 10327 59003;EQDQ01+000022SCOTLCQ02  00002PRCP99
0186829750999992000060612004-09100-044120FM-12+033199999V0202701N003610450019N0100001N1+02401+01931101921ADDAA199000091GF107991021041008001031021KA1240N+01841MA1999999097951MD1999999+0051REMSYN076AAXX  06124 82975 32597 72707 10240 20193 39795 40192 82432 333 20184 58005;EQDQ01  00002PRCP99
0167829750999992000060618004-09100-044120FM-12+033199999V0203201N004111050019N0020001N1+03001+02001101561ADDAA199000091GF106991011031008001021031MA1999999097651MD1999999-0031REMSYN070AAXX  06184 82975 32595 63208 10300 20200 39765 40156 81323 333 59003;EQDQ01  00002PRCP99
0186829750999992000060700004-09100-044120FM-12+033199999V0203201N002610450019N0040001N1+02591+01741101651ADDAA199000091GF107991021041008001031021KA1240M+03341MA1999999097701MD1999999+0001REMSYN076AAXX  07004 82975 32596 73205 10259 20174 39770 40165 82432 333 10334 58000;EQDQ01  00002PRCP99
0186829750999992000060712004-09100-044120FM-12+033199999V0203201N004110450019N0040001N1+02221+01821101891ADDAA199000091GF106991011031008001021021KA1240N+01871MA1999999097901MD1999999-0051REMSYN076AAXX  07124 82975 32596 63208 10222 20182 39790 40189 81322 333 20187 59005;EQDQ01  00002PRCP99
0167829750999992000060718004-09100-044120FM-12+033199999V0203601N004110450019N0040001N1+03051+01711101511ADDAA199000091GF106991021041008001031021MA1999999097611MD1999999-0041REMSYN070AAXX  07184 82975 32596 63608 10305 20171 39761 40151 82432 333 59004;EQDQ01  00002PRCP99
0202829750999992000060800004-09100-044120FM-12+033199999V0203601N002612200019N0040001N1+02461+01631101561ADDAA199000091GF104991999011008001001001KA1240M+03171MA1999999097601MD1999999-0101REMSYN076AAXX  08004 82975 32596 43605 10246 20163 39760 40156 82100 333 10317 59010;EQDQ01+000022SCOTLCQ02  00002PRCP99
0186829750999992000060812004-09100-044120FM-12+033199999V0200901N004112200019N0002001N1+02231+01781101791ADDAA199000091GF103991011021008001001031KA1240N+01911MA1999999097811MD1999999-0091REMSYN076AAXX  08124 82975 32592 30908 10223 20178 39781 40179 81203 333 20191 59009;EQDQ01  00002PRCP99
0167829750999992000060818004-09100-044120FM-12+033199999V0201401N005112200019N0005001N1+03181+01841101381ADDAA199000091GF103991021011008001021021MA1999999097501MD1999999-0111REMSYN070AAXX  08184 82975 32593 31410 10318 20184 39750 40138 82122 333 59011;EQDQ01  00002PRCP99
0186829750999992000060900004-09100-044120FM-12+033199999V0202301N002611050019N0010001N1+02711+01801101481ADDAA199000091GF105991021011008001031021KA1240M+03261MA1999999097551MD1999999-0051REMSYN076AAXX  09004 82975 32594 52305 10271 20180 39755 40148 82132 333 10326 59005;EQDQ01  00002PRCP99
0186829750999992000060912004-09100-044120FM-12+033199999V0201801N004111050019N0005001N1+02311+01811101781ADDAA199000091GF105991011021008001031031KA1240N+02001MA1999999097801MD1999999-0011REMSYN076AAXX  09124 82975 32593 51808 10231 20181 39780 40178 81233 333 20200 59001;EQDQ01  00002PRCP99
0167829750999992000060918004-09100-044120FM-12+033199999V0203201N005112200019N0005001N1+03201+02031101371ADDAA199000091GF104991021031008001021031MA1999999097491MD1999999-0011REMSYN070AAXX  09184 82975 32593 43210 10320 20203 39749 40137 82323 333 59001;EQDQ01  00002PRCP99
0202829750999992000061000004-09100-044120FM-12+033199999V0202701N002619999999N0010001N1+02651+01791101461ADDAA199000091GF106991999011008001001001KA1240M+03231MA1999999097531MD1999999-0021REMSYN076AAXX  10004 82975 32594 62705 10265 20179 39753 40146 82100 333 10323 59002;EQDQ01+000022SCOTLCQ02  00002PRCP99
0186829750999992000061012004-09100-044120FM-12+033199999V0200901N004112200019N0005001N1+02411+01821101771ADDAA199000091GF104991021021008001031021KA1240N+02051MA1999999097801MD1999999+0001REMSYN076AAXX  10124 82975 32593 40908 10241 20182 39780 40177 82232 333 20205 58000;EQDQ01  00002PRCP99
0183829750999992000061018004-09100-044120FM-12+033199999V0201401N005119999999N0010001N1+03111+01841101291ADDAA199000091GF105991999011008001001001MA1999999097401MD1999999-0081REMSYN070AAXX  10184 82975 32594 51410 10311 20184 39740 40129 82100 333 59008;EQDQ01+000022SCOTLCQ02  00002PRCP99
0202829750999992000061100004-09100-044120FM-12+033199999V0202301N000512200019N0005001N1+02611+01761101491ADDAA199000091GF104991999011008001001001KA1240M+03211MA1999999097551MD1999999+0021REMSYN076AAXX  11004 82975 32593 42301 10261 20176 39755 40149 82100 333 10321 58002;EQDQ01+000022SCOTLCQ02  00002PRCP99
0167829750999992000061118004-09100-044120FM-12+033199999V0200501N004112200019N0005001N1+03211+01861101191ADDAA199000091GF103991011001008001031011MA1999999097311MD1999999-0091REMSYN070AAXX  11184 82975 32593 30508 10321 20186 39731 40119 81031 333 59009;EQDQ01  00002PRCP99
0186829750999992000061200004-09100-044120FM-12+033199999V0203201N002612200019N0005001N1+02741+01781101271ADDAA199000091GF104991021011008001031021KA1240M+03271MA1999999097351MD1999999-0201REMSYN076AAXX  12004 82975 32593 43205 10274 20178 39735 40127 82132 333 10327 59020;EQDQ01  00002PRCP99
0186829750999992000061212004-09100-044120FM-12+033199999V0203201N002612200019N0002001N1+02211+01921101681ADDAA199000091GF103991011021008001001021KA1240N+01851MA1999999097701MD1999999-0031REMSYN076AAXX  12124 82975 32592 33205 10221 20192 39770 40168 81202 333 20185 59003;EQDQ01  00002PRCP99
0167829750999992000061218004-09100-044120FM-12+033199999V0202301N002611050019N0010001N1+03261+02021101171ADDAA199000091GF105991021031008001021011MA1999999097301MD1999999-0011REMSYN070AAXX  12184 82975 32594 52305 10326 20202 39730 40117 82321 333 59001;EQDQ01  00002PRCP99
0186829750999992000061300004-09100-044120FM-12+033199999V0202301N002611050019N0020001N1+02571+01731101301ADDAA199000091GF106991011031008001021041KA1240M+03111MA1999999097361MD1999999+0011REMSYN076AAXX  13004 82975 32595 62305 10257 20173 39736 40130 81324 333 10311 58001;EQDQ01  00002PRCP99
0186829750999992000061312004-09100-044120FM-12+033199999V0202701N002612200019N0002001N1+02211+01821101581ADDAA199000091GF103991011031004501001021KA1240N+01821MA1999999097601MD1999999-0101REMSYN076AAXX  13124 82975 32492 32705 10221 20182 39760 40158 81302 333 20182 59010;EQDQ01  00002PRCP99
0167829750999992000061318004-09100-044120FM-12+033199999V0203601N003611050019N0010001N1+03201+01931101061ADDAA199000091GF105991011031008001021021MA1999999097201MD1999999-0101REMSYN070AAXX  13184 82975 32594 53607 10320 20193 39720 40106 81322 333 59010;EQDQ01  00002PRCP99
0202829750999992000061400004-09100-044110FM-12+033199999V0201801N002612200019N0005001N1+02521+01791101301ADDAA199000091GF104991999011008001001001KA1240M+03341MA1999999097351MD1999999-0011REMSYN076AAXX  14004 82975 32593 41805 10252 20179 39735 40130 82100 333 10334 59001;EQDQ01+000022SCOTLCQ02  00002PRCP99
0186829750999992000061412004-09100-044110FM-12+033199999V0209999C000012200019N0005001N1+02171+01741101591ADDAA199000091GF104991021031008001011021KA1240N+01761MA1999999097611MD1999999+0011REMSYN076AAXX  14124 82975 32593 40000 10217 20174 39761 40159 82312 333 20176 58001;EQDQ01  00002PRCP99
0167829750999992000061418004-09100-044110FM-12+033199999V0203201N003612200019N0002001N1+03201+01781101111ADDAA199000091GF103991011021008001001021MA1999999097241MD1999999+0041REMSYN070AAXX  14184 82975 32592 33207 10320 20178 39724 40111 81202 333 58004;EQDQ01  00002PRCP99
0186829750999992000061500004-09100-044110FM-12+033199999V0203601N002612200019N0005001N1+02501+01841101291ADDAA199000091GF104991011031008001021011KA1240M+03381MA1999999097351MD1999999+0001REMSYN076AAXX  15004 82975 32593 43605 10250 20184 39735 40129 81321 333 10338 58000;EQDQ01  00002PRCP99
0186829750999992000061512004-09100-044110FM-12+033199999V0202301N004111050019N0010001N1+02131+01761101591ADDAA199000091GF105991021031008001011021KA1240N+01741MA1999999097611MD1999999+0001REMSYN076AAXX  15124 82975 32594 52308 10213 20176 39761 40159 82312 333 20174 58000;EQDQ01  00002PRCP99
0167829750999992000061518004-09100-044110FM-12+033199999V0202701N002612200019N0005001N1+03201+01551101161ADDAA199000091GF103991011031008001001021MA1999999097281MD1999999+0041REMSYN070AAXX  15184 82975 32593 32705 10320 20155 39728 40116 81302 333 58004;EQDQ01  00002PRCP99
0202829750999992000061600004-09100-044110FM-12+033199999V0202701N002619999999N0010001N1+02411+01651101271ADDAA199000091GF105991999011008001001001KA1240M+03351MA1999999097321MD1999999-0061REMSYN076AAXX  16004 82975 32594 52705 10241 20165 39732 40127 82100 333 10335 59006;EQDQ01+000022SCOTLCQ02  00002PRCP99
0186829750999992000061612004-09100-044110FM-12+033199999V0200901N004112200019N0005001N1+02121+01781101601ADDAA199000091GF103991021011008001021021KA1240N+01701MA1999999097601MD1999999-0011REMSYN076AAXX  16124 82975 32593 30908 10212 20178 39760 40160 82122 333 20170 59001;EQDQ01  00002PRCP99
0202829750999992000061712004-09100-044110FM-12+033199999V0200501N000519999999N0010001N1+02111+01801101611ADDAA199000091GF105991999021008001001001KA1240N+01681MA1999999097611MD1999999+0011REMSYN076AAXX  17124 82975 32594 50501 10211 20180 39761 40161 81200 333 20168 58001;EQDQ01+000012SCOTLCQ02  00002PRCP99
0202829750999992000061800004-09100-044110FM-12+033199999V0203201N002612200019N0005001N1+02611+02011101241ADDAA199000091GF104991999011008001001001KA1240M+03231MA1999999097311MD1999999+0031REMSYN076AAXX  18004 82975 32593 43205 10261 20201 39731 40124 82100 333 10323 58003;EQDQ01+000022SCOTLCQ02  00002PRCP99
0186829750999992000061812004-09100-044110FM-12+033199999V0201801N003612200019N0002001N1+02321+01871101571ADDAA199000091GF103991011021008001011031KA1240N+01781MA1999999097601MD1999999-0011REMSYN076AAXX  18124 82975 32592 31807 10232 20187 39760 40157 81213 333 20178 59001;EQDQ01  00002PRCP99
0167829750999992000061818004-09100-044110FM-12+033199999V0202701N002611050019N0010001N1+03221+01951101281ADDAA199000091GF105991011031008001021021MA1999999097401MD1999999+0051REMSYN070AAXX  18184 82975 32594 52705 10322 20195 39740 40128 81322 333 58005;EQDQ01  00002PRCP99
0186829750999992000061900004-09100-044110FM-12+033199999V0203601N002612200019N0005001N1+02711+01861101221ADDAA199000091GF104991021011008001021031KA1240M+03281MA1999999097301MD1999999-0011REMSYN076AAXX  19004 82975 32593 43605 10271 20186 39730 40122 82123 333 10328 59001;EQDQ01  00002PRCP99
0186829750999992000061912004-09100-044110FM-12+033199999V0200901N003612200019N0005001N1+02211+01881101751ADDAA199000091GF104991011021008001031011KA1240N+01711MA1999999097761MD1999999+0161REMSYN076AAXX  19124 82975 32593 40907 10221 20188 39776 40175 81231 333 20171 58016;EQDQ01  00002PRCP99
0167829750999992000061918004-09100-044110FM-12+033199999V0201401N002612200019N0005001N1+03241+01951101381ADDAA199000091GF103991011031008001021021MA1999999097501MD1999999+0101REMSYN070AAXX  19184 82975 32593 31405 10324 20195 39750 40138 81322 333 58010;EQDQ01  00002PRCP99
0186829750999992000062000004-09100-044110FM-12+033199999V0200501N003612200019N0002001N1+02751+01841101371ADDAA199000091GF103991021021008001031021KA1240M+03301MA1999999097451MD1999999+0151REMSYN076AAXX  20004 82975 32592 30507 10275 20184 39745 40137 82232 333 10330 58015;EQDQ01  00002PRCP99
0186829750999992000062012004-09100-044110FM-12+033199999V0209999C000012200019N0005001N1+02111+01681101691ADDAA199000091GF103991011021008001001021KA1240N+01641MA1999999097701MD1999999-0061REMSYN076AAXX  20124 82975 32593 30000 10211 20168 39770 40169 81202 333 20164 59006;EQDQ01  00002PRCP99
0167829750999992000062018004-09100-044110FM-12+033199999V0202301N002611050019N0020001N1+03131+01851101341ADDAA199000091GF106991011031008001021041MA1999999097451MD1999999-0051REMSYN070AAXX  20184 82975 32595 62305 10313 20185 39745 40134 81324 333 59005;EQDQ01  00002PRCP99
0186829750999992000062100004-09100-044110FM-12+033199999V0209999C000011050019N0010001N1+02601+02031101381ADDAA199000091GF105991011031008001021021KA1240M+03211MA1999999097441MD1999999-0011REMSYN076AAXX  21004 82975 32594 50000 10260 20203 39744 40138 81322 333 10321 59001;EQDQ01  00002PRCP99
0167829750999992000062118004-09100-044110FM-12+033199999V0201401N004112200019N0005001N1+03231+01911101291ADDAA199000091GF104991021011008001021031MA1999999097411MD1999999-0041REMSYN070AAXX  21184 82975 32593 41408 10323 20191 39741 40129 82123 333 59004;EQDQ01  00002PRCP99
0202829750999992000062200004-09100-044110FM-12+033199999V0202701N002612200019N0002001N1+02731+01901101261ADDAA199000091GF103991999011008001001001KA1240M+03261MA1999999097431MD1999999-0011REMSYN076AAXX  22004 82975 32592 32705 10273 20190 39743 40126 82100 333 10326 59001;EQDQ01+000022SCOTLCQ02  00002PRCP99
0186829750999992000062212004-09100-044110FM-12+033199999V0209999C000012200019N0005001N1+02061+01851101681ADDAA199000091GF104991011031008001021001KA1240N+01581MA1999999097681MD1999999-0071REMSYN076AAXX  22124 82975 32593 40000 10206 20185 39768 40168 81320 333 20158 59007;EQDQ01  00002PRCP99
0167829750999992000062218004-09100-044110FM-12+033199999V0202301N004111050019N0020001N1+03121+01851101251ADDAA199000091GF106991011031008001021031MA1999999097361MD1999999-0051REMSYN070AAXX  22184 82975 32595 62308 10312 20185 39736 40125 81323 333 59005;EQDQ01  00002PRCP99
0186829750999992000062300004-09100-044110FM-12+033199999V0201801N003611050019N0010001N1+02711+01991101261ADDAA199000091GF105991011021008001021031KA1240M+03181MA1999999097341MD1999999-0091REMSYN076AAXX  23004 82975 32594 51807 10271 20199 39734 40126 81223 333 10318 59009;EQDQ01  00002PRCP99
0186829750999992000062312004-09100-044110FM-12+033199999V0200901N003612200019N0005001N1+02401+01841101671ADDAA199000091GF104991011021008001011031KA1240N+01731MA1999999097701MD1999999+0021REMSYN076AAXX  23124 82975 32593 40907 10240 20184 39770 40167 81213 333 20173 58002;EQDQ01  00002PRCP99
0167829750999992000062318004-09100-044110FM-12+033199999V0203201N003612200019N0005001N1+03211+01861101281ADDAA199000091GF103991021011008001031011MA1999999097401MD1999999+0041REMSYN070AAXX  23184 82975 32593 33207 10321 20186 39740 40128 82131 333 58004;EQDQ01  00002PRCP99
0202829750999992000062400004-09100-044110FM-12+033199999V0203601N002612200019N0002001N1+02741+01951101371ADDAA199000091GF104991999011008001001001KA1240M+03241MA1999999097451MD1999999+0111REMSYN076AAXX  24004 82975 32592 43605 10274 20195 39745 40137 82100 333 10324 58011;EQDQ01+000022SCOTLCQ02  00002PRCP99
0186829750999992000062412004-09100-044110FM-12+033199999V0203201N004112200019N0005001N1+02061+01701101801ADDAA199000091GF103991011021008001001021KA1240N+01511MA1999999097801MD1999999+0101REMSYN076AAXX  24124 82975 32593 33208 10206 20170 39780 40180 81202 333 20151 58010;EQDQ01  00002PRCP99
0167829750999992000062418004-09100-044110FM-12+033199999V0202701N005110450019N0020001N1+02821+01771101471ADDAA199000091GF106991021041008001021021MA1999999097551MD1999999+0151REMSYN070AAXX  24184 82975 32595 62710 10282 20177 39755 40147 82422 333 58015;EQDQ01  00002PRCP99
0186829750999992000062500004-09100-044110FM-12+033199999V0203601N003610450019N0040001N1+02311+01771101521ADDAA199000091GF107991011041008001021031KA1240M+03021MA1999999097551MD1999999+0101REMSYN076AAXX  25004 82975 32596 73607 10231 20177 39755 40152 81423 333 10302 58010;EQDQ01  00002PRCP99
0186829750999992000062512004-09100-044110FM-12+033199999V0202701N003610450019N0040001N1+02111+01681101771ADDAA199000091GF106991011031008001021001KA1240N+01561MA1999999097771MD1999999-0031REMSYN076AAXX  25124 82975 32596 62707 10211 20168 39777 40177 81320 333 20156 59003;EQDQ01  00002PRCP99
0183829750999992000062518004-09100-044110FM-12+033199999V0202301N000519999999N0020001N1+02831+01801101361ADDAA199000091GF106991999011008001001001MA1999999097451MD1999999-0101REMSYN070AAXX  25184 82975 32595 62301 10283 20180 39745 40136 82100 333 59010;EQDQ01+000022SCOTLCQ02  00002PRCP99
0186829750999992000062600004-09100-044110FM-12+033199999V0203201N004111050019N0010001N1+02311+02091101471ADDAA199000091GF105991011031008001021021KA1240M+03041MA1999999097501MD1999999-0051REMSYN076AAXX  26004 82975 32594 53208 10231 20209 39750 40147 81322 333 10304 59005;EQDQ01  00002PRCP99
0186829750999992000062612004-09100-044110FM-12+033199999V0201801N003612200019N0005001N1+02031+01721101241ADDAA199000091GF104991011021008001011031KA1240N+01871MA1999999097551MD1999999-0221REMSYN076AAXX  26124 82975 32593 41807 10203 20172 39755 40124 81213 333 20187 59022;EQDQ01  00002PRCP99
0167829750999992000062618004-09100-044110FM-12+033199999V0200501N003612200019N0002001N1+03101+01731101121ADDAA199000091GF104991011021008001021031MA1999999097241MD1999999-0211REMSYN070AAXX  26184 82975 32592 40507 10310 20173 39724 40112 81223 333 59021;EQDQ01  00002PRCP99
0186829750999992000062700004-09100-044110FM-12+033199999V0203201N002612200019N0005001N1+02601+01601101281ADDAA199000091GF103991021011008001031001KA1240M+03161MA1999999097351MD1999999-0151REMSYN076AAXX  27004 82975 32593 33205 10260 20160 39735 40128 82130 333 10316 59015;EQDQ01  00002PRCP99
0167829750999992000062718004-09100-044110FM-12+033199999V0201401N002612200019N0010001N1+03201+01861101181ADDAA199000091GF103991021031008001011031MA1999999097301MD1999999+0061REMSYN070AAXX  27184 82975 32594 31405 10320 20186 39730 40118 82313 333 58006;EQDQ01  00002PRCP99
0186829750999992000062800004-09100-044110FM-12+033199999V0201801N002612200019N0005001N1+03201+01981101271ADDAA199000091GF104991011021008001031021KA1240M+03251MA1999999097351MD1999999+0001REMSYN076AAXX  28004 82975 32593 41805 10320 20198 39735 40127 81232 333 10325 58000;EQDQ01  00002PRCP99
0186829750999992000062812004-09100-044110FM-12+033199999V0200901N004111050019N0010001N1+02411+01951101501ADDAA199000091GF105991021021008001041021KA1240N+02041MA1999999097541MD1999999-0071REMSYN076AAXX  28124 82975 32594 50908 10241 20195 39754 40150 82242 333 20204 59007;EQDQ01  00002PRCP99
0186829750999992000062900004-09100-044110FM-12+033199999V0201401N002612200019N0005001N1+02711+01801101171ADDAA199000091GF104991021011008001031021KA1240M+03241MA1999999097251MD1999999-0101REMSYN076AAXX  29004 82975 32593 41405 10271 20180 39725 40117 82132 333 10324 59010;EQDQ01  00002PRCP99
0186829750999992000062912004-09100-044110FM-12+033199999V0202701N005110450019N0010001N1+02511+01841101491ADDAA199000091GF106991031021008001041031KA1240N+01911MA1999999097511MD1999999-0031REMSYN076AAXX  29124 82975 32594 62710 10251 20184 39751 40149 83243 333 20191 59003;EQDQ01  00002PRCP99
0202829750999992000063000004-09100-044110FM-12+033199999V0209999C000019999999N0010001N1+02661+01871101281ADDAA199000091GF105991999011008001001001KA1240M+03201MA1999999097351MD1999999+0101REMSYN076AAXX  30004 82975 32594 50000 10266 20187 39735 40128 82100 333 10320 58010;EQDQ01+000022SCOTLCQ02  00002PRCP99
0186829750999992000063012004-09100-044110FM-12+033199999V0200501N002612200019N0002001N1+02211+01901101561ADDAA199000091GF103991011021008001001021KA1240N+02031MA1999999097581MD1999999+0071REMSYN076AAXX  30124 82975 32592 30505 10221 20190 39758 40156 81202 333 20203 58007;EQDQ01  00002PRCP99
0167829750999992000063018004-09100-044110FM-12+033199999V0202301N004111050019N0020001N1+03251+02131101101ADDAA199000091GF106991011041008001021031MA1999999097231MD1999999+0031REMSYN070AAXX  30184 82975 32595 62308 10325 20213 39723 40110 81423 333 58003;EQDQ01  00002PRCP99
0186829750999992000070100004-09100-044110FM-12+033199999V0202701N002610450019N0010001N1+02711+02081101221ADDAA199000091GF106991011031008001021021KA1240M+03241MA1999999097301MD1999999-0051REMSYN076AAXX  01004 82975 32594 62705 10271 20208 39730 40122 81322 333 10324 59005;EQDQ01  00002PRCP99
0202829750999992000070112004-09100-044110FM-12+033199999V0203201N002619999999N0010001N1+02411+01931101561ADDAA199000091GF105991999011008001001001KA1240N+02191MA1999999097601MD1999999+0021REMSYN076AAXX  01124 82975 32594 53205 10241 20193 39760 40156 82100 333 20219 58002;EQDQ01+000022SCOTLCQ02  00002PRCP99
0186829750999992000070200004-09100-044110FM-12+033199999V0209999C000011050019N0010001N1+02511+01451101201ADDAA199000091GF105991011021008001011031KA1240M+03081MA1999999097261MD1999999-0041REMSYN076AAXX  02004 82975 32594 50000 10251 20145 39726 40120 81213 333 10308 59004;EQDQ01  00002PRCP99
0167829750999992000070218004-09100-044110FM-12+033199999V0200501N002611050019N0010001N1+03111+01621101191ADDAA199000091GF105991021031008001011021MA1999999097301MD1999999+0001REMSYN070AAXX  02184 82975 32594 50505 10311 20162 39730 40119 82312 333 58000;EQDQ01  00002PRCP99
0186829750999992000070300004-09100-044110FM-12+033199999V0209999C000010450019N0040001N1+02711+01801101371ADDAA199000091GF107991011041008001021031KA1240M+03261MA1999999097441MD1999999+0181REMSYN076AAXX  03004 82975 32596 70000 10271 20180 39744 40137 81423 333 10326 58018;EQDQ01  00002PRCP99
0186829750999992000070312004-09100-044110FM-12+033199999V0203201N005112200019N0005001N1+02211+01631101691ADDAA199000091GF104991011021008001011031KA1240N+01931MA1999999097711MD1999999+0121REMSYN076AAXX  03124 82975 32593 43210 10221 20163 39771 40169 81213 333 20193 58012;EQDQ01  00002PRCP99
0167829750999992000070318004-09100-044110FM-12+033199999V0201401N004112200019N0002001N1+03151+01881101431ADDAA199000091GF103991011021008001021011MA1999999097451MD1999999+0151REMSYN070AAXX  03184 82975 32592 31408 10315 20188 39745 40143 81221 333 58015;EQDQ01  00002PRCP99
0186829750999992000070400004-09100-044110FM-12+033199999V0201801N003612200019N0005001N1+02611+01761101441ADDAA199000091GF104991011021008001031021KA1240M+03241MA1999999097501MD1999999+0061REMSYN076AAXX  04004 82975 32593 41807 10261 20176 39750 40144 81232 333 10324 58006;EQDQ01  00002PRCP99
0186829750999992000070412004-09100-044110FM-12+033199999V0202701N004112200019N0002001N1+02111+01701101691ADDAA199000091GF103991011021004501001021KA1240N+01851MA1999999097701MD1999999-0011REMSYN076AAXX  04124 82975 32492 32708 10211 20170 39770 40169 81202 333 20185 59001;EQDQ01  00002PRCP99
0167829750999992000070418004-09100-044110FM-12+033199999V0203201N005111050019N0020001N1+03011+01611101301ADDAA199000091GF106991011031008001021031MA1999999097401MD1999999-0051REMSYN070AAXX  04184 82975 32595 63210 10301 20161 39740 40130 81323 333 59005;EQDQ01  00002PRCP99
0186829750999992000070500004-09100-044110FM-12+033199999V0200901N003612200019N0005001N1+02411+01701101341ADDAA199000091GF104991021011008001031021KA1240M+03161MA1999999097391MD1999999-0011REMSYN076AAXX  05004 82975 32593 40907 10241 20170 39739 40134 82132 333 10316 59001;EQDQ01  00002PRCP99
0167829750999992000070518004-09100-044110FM-12+033199999V0203601N006712200019N0005001N1+02911+01811101321ADDAA199000091GF104991021031008001011031MA1999999097411MD1999999+0011REMSYN070AAXX  05184 82975 32593 43613 10291 20181 39741 40132 82313 333 58001;EQDQ01  00002PRCP99
0186829750999992000070600004-09100-044110FM-12+033199999V0201801N002612200019N0005001N1+02411+01771101461ADDAA199000091GF104991011021008001021031KA1240M+03121MA1999999097501MD1999999+0111REMSYN076AAXX  06004 82975 32593 41805 10241 20177 39750 40146 81223 333 10312 58011;EQDQ01  00002PRCP99
0186829750999992000070612004-09100-044110FM-12+033199999V0203201N004112200019N0002001N1+01911+01701101661ADDAA199000091GF103991011001008001021021KA1240N+01771MA1999999097651MD1999999+0001REMSYN076AAXX  06124 82975 32592 33208 10191 20170 39765 40166 81022 333 20177 58000;EQDQ01  00002PRCP99
0167829750999992000070618004-09100-044110FM-12+033199999V0203201N002612200019N0005001N1+03111+01421101241ADDAA199000091GF104991011031008001011021MA1999999097351MD1999999-0061REMSYN070AAXX  06184 82975 32593 43205 10311 20142 39735 40124 81312 333 59006;EQDQ01  00002PRCP99
0186829750999992000070700004-09100-044110FM-12+033199999V0203601N002611050019N0010001N1+02411+01231101401ADDAA199000091GF105991011031008001021021KA1240M+03101MA1999999097451MD1999999-0051REMSYN076AAXX  07004 82975 32594 53605 10241 20123 39745 40140 81322 333 10310 59005;EQDQ01  00002PRCP99
0186829750999992000070712004-09100-044110FM-12+033199999V0200901N005110450019N0005001N1+02121+01721101741ADDAA199000091GF105991031021008001031021KA1240N+01851MA1999999097751MD1999999+0101REMSYN076AAXX  07124 82975 32593 50910 10212 20172 39775 40174 83232 333 20185 58010;EQDQ01  00002PRCP99
0167829750999992000070718004-09100-044110FM-12+033199999V0201401N004112200019N0002001N1+03121+01521101241ADDAA199000091GF103991021011008001031021MA1999999097351MD1999999+0001REMSYN070AAXX  07184 82975 32592 31408 10312 20152 39735 40124 82132 333 58000;EQDQ01  00002PRCP99
0202829750999992000070800004-09100-044110FM-12+033199999V0203601N002612200019N0005001N1+02511+01291101361ADDAA199000091GF104991999011008001001001KA1240M+03171MA1999999097421MD1999999-0031REMSYN076AAXX  08004 82975 32593 43605 10251 20129 39742 40136 82100 333 10317 59003;EQDQ01+000022SCOTLCQ02  00002PRCP99
0186829750999992000070812004-09100-044110FM-12+033199999V0200501N003612200019N0005001N1+02031+01681101641ADDAA199000091GF104991011021008001011031KA1240N+01791MA1999999097651MD1999999-0101REMSYN076AAXX  08124 82975 32593 40507 10203 20168 39765 40164 81213 333 20179 59010;EQDQ01  00002PRCP99
0186829750999992000070900004-09100-044110FM-12+033199999V0202701N002612200019N0005001N1+02511+01261101291ADDAA199000091GF104991021021008001011031KA1240M+03161MA1999999097351MD1999999-0071REMSYN076AAXX  09004 82975 32593 42705 10251 20126 39735 40129 82213 333 10316 59007;EQDQ01  00002PRCP99
0202829750999992000070912004-09100-044110FM-12+033199999V0203601N002619999999N0010001N1+02011+01601101601ADDAA199000091GF105991999021008001001001KA1240N+01781MA1999999097601MD1999999-0021REMSYN076AAXX  09124 82975 32594 53605 10201 20160 39760 40160 81200 333 20178 59002;EQDQ01+000012SCOTLCQ02  00002PRCP99
0183829750999992000070918004-09100-044110FM-12+033199999V0202301N000519999999N0040001N1+03011+01781101221ADDAA199000091GF106991999021008001001001MA1999999097321MD1999999+0011REMSYN070AAXX  09184 82975 32596 62301 10301 20178 39732 40122 84200 333 58001;EQDQ01+000042SCOTLCQ02  00002PRCP99
0186829750999992000071000004-09100-044110FM-12+033199999V0202701N002610450019N0020001N1+02611+01541101231ADDAA199000091GF106991011041008001011021KA1240M+03231MA1999999097301MD1999999-0051REMSYN076AAXX  10004 82975 32595 62705 10261 20154 39730 40123 81412 333 10323 59005;EQDQ01  00002PRCP99
0186829750999992000071012004-09100-044110FM-12+033199999V0203201N004112200019N0010001N1+02111+01721101591ADDAA199000091GF104991011031008001001021KA1240N+01841MA1999999097601MD1999999+0001REMSYN076AAXX  10124 82975 32594 43208 10211 20172 39760 40159 81302 333 20184 58000;EQDQ01  00002PRCP99
0167829750999992000071018004-09100-044110FM-12+033199999V0202301N005111050019N0010001N1+03211+01591101071ADDAA199000091GF105991011031008001021021MA1999999097201MD1999999-0121REMSYN070AAXX  10184 82975 32594 52310 10321 20159 39720 40107 81322 333 59012;EQDQ01  00002PRCP99
0186829750999992000071100004-09100-044110FM-12+033199999V0202701N002610450019N0020001N1+02861+01651101231ADDAA199000091GF106991011041008001031021KA1240M+03371MA1999999097301MD1999999+0001REMSYN076AAXX  11004 82975 32595 62705 10286 20165 39730 40123 81432 333 10337 58000;EQDQ01  00002PRCP99
0186829750999992000071112004-09100-044110FM-12+033199999V0201801N002610450019N0040001N1+02321+01961101611ADDAA199000091GF107991021031008001051021KA1240N+01961MA1999999097641MD1999999+0041REMSYN076AAXX  11124 82975 32596 71805 10232 20196 39764 40161 82352 333 20196 58004;EQDQ01  00002PRCP99
0167829750999992000071118004-09100-044110FM-12+033199999V0203601N004111050019N0010001N1+03261+01981101121ADDAA199000091GF106991011021008001041031MA1999999097251MD1999999+0051REMSYN070AAXX  11184 82975 32594 63608 10326 20198 39725 40112 81243 333 58005;EQDQ01  00002PRCP99
0272829750999992000071200004-09100-044110FM-12+033199999V0201401N002619999999N0040001N1+02711+02081101261ADDAA199000091AJ199999999999999GF107991999021008001001001IA1029KA1240M+03381KA2240N+01671MA1999999097341MD1999999+0041REMSYN094AAXX  12004 82975 32596 71405 10271 20208 39734 40126 83200 333 10338 20167 39546 40129 58004;EQDQ01+000032SCOTLCQ02  00002PRCP99Q03  01292SNDP  
0186829750999992000071212004-09100-044110FM-12+033199999V0200901N005111050019N0010001N1+02301+01831101711ADDAA199000091GF105991011021008001011031KA1240N+01921MA1999999097741MD1999999+0101REMSYN076AAXX  12124 82975 32594 50910 10230 20183 39774 40171 81213 333 20192 58010;EQDQ01  00002PRCP99
0167829750999992000071218004-09100-044110FM-12+033199999V0200501N003612200019N0002001N1+03201+01861101281ADDAA199000091GF103991011001008001021031MA1999999097401MD1999999+0151REMSYN070AAXX  12184 82975 32592 30507 10320 20186 39740 40128 81023 333 58015;EQDQ01  00002PRCP99
0186829750999992000071300004-09100-044110FM-12+033199999V0202301N002612200019N0005001N1+02811+01841101281ADDAA199000091GF104991021011008001031011KA1240M+03341MA1999999097301MD1999999-0041REMSYN076AAXX  13004 82975 32593 42305 10281 20184 39730 40128 82131 333 10334 59004;EQDQ01  00002PRCP99
0186829750999992000071312004-09100-044110FM-12+033199999V0201801N003612200019N0005001N1+02341+01781101691ADDAA199000091GF104991021011008001031021KA1240N+02011MA1999999097721MD1999999-0021REMSYN076AAXX  13124 82975 32593 41807 10234 20178 39772 40169 82132 333 20201 59002;EQDQ01  00002PRCP99
0186829750999992000071412004-09100-044110FM-12+033199999V0203201N003612200019N0010001N1+02211+01901101581ADDAA199000091GF104991021011008001021021KA1240N+01901MA1999999097601MD1999999-0121REMSYN076AAXX  14124 82975 32594 43207 10221 20190 39760 40158 82122 333 20190 59012;EQDQ01  00002PRCP99
0167829750999992000071418004-09100-044110FM-12+033199999V0202701N002610450019N0020001N1+03201+01861101121ADDAA199000091GF106991021041008001011021MA1999999097251MD1999999-0091REMSYN070AAXX  14184 82975 32595 62705 10320 20186 39725 40112 82412 333 59009;EQDQ01  00002PRCP99
0186829750999992000071500004-09100-044110FM-12+033199999V0203601N002611050019N0020001N1+02651+01541101331ADDAA199000091GF106991011031008001021041KA1240M+03271MA1999999097401MD1999999+0001REMSYN076AAXX  15004 82975 32595 63605 10265 20154 39740 40133 81324 333 10327 58000;EQDQ01  00002PRCP99
0202829750999992000071512004-09100-044110FM-12+033199999V0203201N003612200019N0002001N1+02011+01701101611ADDAA199000091GF103991999011008001001001KA1240N+01731MA1999999097691MD1999999+0001REMSYN076AAXX  15124 82975 32592 33207 10201 20170 39769 40161 82100 333 20173 58000;EQDQ01+000022SCOTLCQ02  00002PRCP99
0183829750999992000071518004-09100-044110FM-12+033199999V0202701N002612200019N0005001N1+03111+01801101121ADDAA199000091GF104991999011008001001001MA1999999097241MD1999999-0011REMSYN070AAXX  15184 82975 32593 42705 10311 20180 39724 40112 82100 333 59001;EQDQ01+000022SCOTLCQ02  00002PRCP99
0186829750999992000071600004-09100-044110FM-12+033199999V0201801N002611050019N0010001N1+02511+01501101251ADDAA199000091GF105991021011008001031021KA1240M+03211MA1999999097311MD1999999-0091REMSYN076AAXX  16004 82975 32594 51805 10251 20150 39731 40125 82132 333 10321 59009;EQDQ01  00002PRCP99
0165829750999992000071612004-09100-044110FM-12+033199999V0209999C000012200019N0002001N1+01911+01571101571ADDAA199000091GF103991011001008001031021KA1240N+01651MD1999999-0041REMSYN070AAXX  16124 82975 32592 30000 10191 20157 40157 81032 333 20165 59004;EQDQ01  00002PRCP99
0167829750999992000071618004-09100-044110FM-12+033199999V0202301N002611050019N0010001N1+03151+01501101061ADDAA199000091GF105991011031008001021011MA1999999097181MD1999999-0061REMSYN070AAXX  16184 82975 32594 52305 10315 20150 39718 40106 81321 333 59006;EQDQ01  00002PRCP99
0186829750999992000071700004-09100-044110FM-12+033199999V0203201N002611050019N0020001N1+02611+01511101161ADDAA199000091GF106991021041008001021031KA1240M+03271MA1999999097231MD1999999-0081REMSYN076AAXX  17004 82975 32595 63205 10261 20151 39723 40116 82423 333 10327 59008;EQDQ01  00002PRCP99
0186829750999992000071712004-09100-044110FM-12+033199999V0202701N002612200019N0005001N1+02011+01601101501ADDAA199000091GF104991011021008001031011KA1240N+01731MA1999999097511MD1999999-0051REMSYN076AAXX  17124 82975 32593 42705 10201 20160 39751 40150 81231 333 20173 59005;EQDQ01  00002PRCP99
0167829750999992000071718004-09100-044110FM-12+033199999V0200901N002619999999N0010001N1+03321+01611100971ADDAA199000091GF105991021001008001011031MA1999999097111MD1999999-0121REMSYN070AAXX  17184 82975 32594 50905 10332 20161 39711 40097 82013 333 59012;EQDQ01  00002PRCP99
0202829750999992000071800004-09100-044110FM-12+033199999V0201401N002612200019N0005001N1+02811+01721101101ADDAA199000091GF104991999011008001001001KA1240M+03401MA1999999097191MD1999999-0041REMSYN076AAXX  18004 82975 32593 41405 10281 20172 39719 40110 82100 333 10340 59004;EQDQ01+000022SCOTLCQ02  00002PRCP99
0186829750999992000071812004-09100-044110FM-12+033199999V0202301N003610450019N0020001N1+02211+01941101521ADDAA199000091GF106991031021008001041031KA1240N+01811MA1999999097541MD1999999+0031REMSYN076AAXX  18124 82975 32595 62307 10221 20194 39754 40152 83243 333 20181 58003;EQDQ01  00002PRCP99
0167829750999992000071818004-09100-044110FM-12+033199999V0201801N002611050019N0010001N1+03281+01581101021ADDAA199000091GF105991021041008001021031MA1999999097141MD1999999+0031REMSYN070AAXX  18184 82975 32594 51805 10328 20158 39714 40102 82423 333 58003;EQDQ01  00002PRCP99
0202829750999992000071900004-09100-044110FM-12+033199999V0203601N001012200019N0005001N1+02621+01731101221ADDAA199000091GF104991999011008001001001KA1240M+03361MA1999999097291MD1999999+0101REMSYN076AAXX  19004 82975 32593 43602 10262 20173 39729 40122 82100 333 10336 58010;EQDQ01+000022SCOTLCQ02  00002PRCP99
0186829750999992000071912004-09100-044110FM-12+033199999V0201801N003610450019N0010001N1+02351+01981101621ADDAA199000091GF106991011021008001041021KA1240N+01921MA1999999097651MD1999999+0111REMSYN076AAXX  19124 82975 32594 61807 10235 20198 39765 40162 81242 333 20192 58011;EQDQ01  00002PRCP99
0167829750999992000071918004-09100-044110FM-12+033199999V0203601N002612200019N0005001N1+03311+01621101171ADDAA199000091GF104991011031008001021001MA1999999097301MD1999999+0161REMSYN070AAXX  19184 82975 32593 43605 10331 20162 39730 40117 81320 333 58016;EQDQ01  00002PRCP99
0202829750999992000072000004-09100-044110FM-12+033199999V0201401N002612200019N0002001N1+02601+01741101331ADDAA199000091GF104991999011008001001001KA1240M+03301MA1999999097391MD1999999+0101REMSYN076AAXX  20004 82975 32592 41405 10260 20174 39739 40133 82100 333 10330 58010;EQDQ01+000022SCOTLCQ02  00002PRCP99
0186829750999992000072012004-09100-044110FM-12+033199999V0202301N002612200019N0002001N1+02511+01941101611ADDAA199000091GF103991011031008001001011KA1240N+02081MA1999999097651MD1999999+0001REMSYN076AAXX  20124 82975 32592 32305 10251 20194 39765 40161 81301 333 20208 58000;EQDQ01  00002PRCP99
0167829750999992000072018004-09100-044110FM-12+033199999V0202301N002610450019N0040001N1+03071+01771101121ADDAA199000091GF107991011041008001021031MA1999999097231MD1999999-0071REMSYN070AAXX  20184 82975 32596 72305 10307 20177 39723 40112 81423 333 59007;EQDQ01  00002PRCP99
0186829750999992000072100004-09100-044110FM-12+033199999V0209999C000011050019N0005001N1+02551+01711101071ADDAA199000091GF105991011031008001021021KA1240M+03271MA1999999097141MD1999999-0251REMSYN076AAXX  21004 82975 32593 50000 10255 20171 39714 40107 81322 333 10327 59025;EQDQ01  00002PRCP99
0186829750999992000072112004-09100-044110FM-12+033199999V0201801N002612200019N0002001N1+02301+01791101471ADDAA199000091GF103991011021004501001021KA1240N+01871MA1999999097501MD1999999-0151REMSYN076AAXX  21124 82975 32492 31805 10230 20179 39750 40147 81202 333 20187 59015;EQDQ01  00002PRCP99
0167829750999992000072118004-09100-044110FM-12+033199999V0201401N004110450019N0020001N1+03101+01701101061ADDAA199000091GF106991021031008001031021MA1999999097181MD1999999-0051REMSYN070AAXX  21184 82975 32595 61408 10310 20170 39718 40106 82332 333 59005;EQDQ01  00002PRCP99
0186829750999992000072200004-09100-044110FM-12+033199999V0200901N002612200019N0002001N1+02611+01541101171ADDAA199000091GF103991021011008001031011KA1240M+03311MA1999999097241MD1999999+0101REMSYN076AAXX  22004 82975 32592 30905 10261 20154 39724 40117 82131 333 10331 58010;EQDQ01  00002PRCP99
0163829750999992000072212004-09100-044110FM-12+033199999V0203601N002612200019N0002001N1+02031+01661101591ADDAA199000091GF103991999001008001021001MA1999999097601REMSYN064AAXX  22124 82975 32592 33605 10203 20166 39760 40159 81020 333;EQDQ01+000012SCOTLCQ02  00002PRCP99
0183829750999992000072218004-09100-044110FM-12+033199999V0201401N002619999999N0010001N1+03101+01731101081ADDAA199000091GF105991999011008001001001MA1999999097201MD1999999+0021REMSYN070AAXX  22184 82975 32594 51405 10310 20173 39720 40108 83100 333 58002;EQDQ01+000032SCOTLCQ02  00002PRCP99
0186829750999992000072300004-09100-044110FM-12+033199999V0203201N002612200019N0005001N1+02631+01511101241ADDAA199000091GF104991021011008001021001KA1240M+03341MA1999999097311MD1999999+0071REMSYN076AAXX  23004 82975 32593 43205 10263 20151 39731 40124 82120 333 10334 58007;EQDQ01  00002PRCP99
0186829750999992000072312004-09100-044110FM-12+033199999V0201801N002612200019N0005001N1+02101+01641101601ADDAA199000091GF104991021011008001031011KA1240N+01781MA1999999097611MD1999999+0011REMSYN076AAXX  23124 82975 32593 41805 10210 20164 39761 40160 82131 333 20178 58001;EQDQ01  00002PRCP99
0167829750999992000072318004-09100-044110FM-12+033199999V0200901N003612200019N0005001N1+03131+01681101121ADDAA199000091GF104991021011008001031021MA1999999097241MD1999999+0041REMSYN070AAXX  23184 82975 32593 40907 10313 20168 39724 40112 82132 333 58004;EQDQ01  00002PRCP99
0186829750999992000072400004-09100-044110FM-12+033199999V0203601N002612200019N0005001N1+02511+01421101241ADDAA199000091GF103991011001008001021021KA1240M+03291MA1999999097301MD1999999-0011REMSYN076AAXX  24004 82975 32593 33605 10251 20142 39730 40124 81022 333 10329 59001;EQDQ01  00002PRCP99
0186829750999992000072412004-09100-044110FM-12+033199999V0202301N002611050019N0010001N1+02091+01581101531ADDAA199000091GF105991011021008001031011KA1240N+01731MA1999999097551MD1999999-0061REMSYN076AAXX  24124 82975 32594 52305 10209 20158 39755 40153 81231 333 20173 59006;EQDQ01  00002PRCP99
0167829750999992000072418004-09100-044110FM-12+033199999V0201401N002612200019N0010001N1+03151+01681101081ADDAA199000091GF104991021011008001031021MA1999999097201MD1999999-0041REMSYN070AAXX  24184 82975 32594 41405 10315 20168 39720 40108 82132 333 59004;EQDQ01  00002PRCP99
0186829750999992000072500004-09100-044110FM-12+033199999V0202701N002612200019N0005001N1+02691+01511101151ADDAA199000091GF104991011021008001031021KA1240M+03311MA1999999097231MD1999999-0071REMSYN076AAXX  25004 82975 32593 42705 10269 20151 39723 40115 81232 333 10331 59007;EQDQ01  00002PRCP99
0186829750999992000072512004-09100-044110FM-12+033199999V0202701N002612200019N0002001N1+02161+01591101621ADDAA199000091GF104991011021008001001031KA1240N+01821MA1999999097641MD1999999+0091REMSYN076AAXX  25124 82975 32592 42705 10216 20159 39764 40162 81203 333 20182 58009;EQDQ01  00002PRCP99
0146829750999992000072518004-09100-044110FM-12+033199999V0202301N002612200019N0002001N1+03211+01431101211ADDAA199000091GF103991011031004501001021MD1999999+0131REMSYN064AAXX  25184 82975 32492 32305 10321 20143 40121 81302 333 58013;EQDQ01  00002PRCP99
0202829750999992000072600004-09100-044110FM-12+033199999V0201801N001512200019N0005001N1+02541+01421101331ADDAA199000091GF104991999011004501001001KA1240M+03361MA1999999097391MD1999999+0161REMSYN076AAXX  26004 82975 32493 41803 10254 20142 39739 40133 82100 333 10336 58016;EQDQ01+000022SCOTLCQ02  00002PRCP99
0167829750999992000072618004-09100-044110FM-12+033199999V0203601N004112200019N0005001N1+03111+01241101191ADDAA199000091GF104991021021004501011031MA1999999097301MD1999999-0031REMSYN070AAXX  26184 82975 32493 43608 10311 20124 39730 40119 82213 333 59003;EQDQ01  00002PRCP99
0186829750999992000072700004-09100-044110FM-12+033199999V0201401N003612200019N0005001N1+02511+01121101291ADDAA199000091GF104991011021008001031021KA1240M+03311MA1999999097351MD1999999-0041REMSYN076AAXX  27004 82975 32593 41407 10251 20112 39735 40129 81232 333 10331 59004;EQDQ01  00002PRCP99
0186829750999992000072712004-09100-044110FM-12+033199999V0201801N002612200019N0002001N1+02011+99999101631ADDAA199000091GF103991021011008001031001KA1240N+01701MA1999999097631MD1999999-0071REMSYN076AAXX  27124 82975 32592 31805 10201 20250 39763 40163 82130 333 20170 59007;EQDQ01  00002PRCP99
0167829750999992000072718004-09100-044110FM-12+033199999V0203201N003612200019N0005001N1+03151+01541101201ADDAA199000091GF103991011001008001031021MA1999999097321MD1999999+0021REMSYN070AAXX  27184 82975 32593 33207 10315 20154 39732 40120 81032 333 58002;EQDQ01  00002PRCP99
0202829750999992000072800004-09100-044110FM-12+033199999V0200901N003612200019N0002001N1+02521+01061101281ADDAA199000091GF104991999021008001001001KA1240M+03351MA1999999097341MD1999999-0011REMSYN076AAXX  28004 82975 32592 40907 10252 20106 39734 40128 81200 333 10335 59001;EQDQ01+000012SCOTLCQ02  00002PRCP99
0186829750999992000072812004-09100-044110FM-12+033199999V0209999C000010450019N0040001N1+02211+01781101731ADDAA199000091GF107991021051008001031021KA1240N+01891MA1999999097751MD1999999+0121REMSYN076AAXX  28124 82975 32596 70000 10221 20178 39775 40173 82532 333 20189 58012;EQDQ01  00002PRCP99
0167829750999992000072818004-09100-044110FM-12+033199999V0202701N003611050019N0020001N1+03101+01771101231ADDAA199000091GF106991011041008001021031MA1999999097341MD1999999+0021REMSYN070AAXX  28184 82975 32595 62707 10310 20177 39734 40123 81423 333 58002;EQDQ01  00002PRCP99
0186829750999992000072900004-09100-044110FM-12+033199999V0200501N004111050019N0010001N1+02501+01481101341ADDAA199000091GF105991021011008001041031KA1240M+03311MA1999999097401MD1999999+0061REMSYN076AAXX  29004 82975 32594 50508 10250 20148 39740 40134 82143 333 10331 58006;EQDQ01  00002PRCP99
0202829750999992000072912004-09100-044110FM-12+033199999V0202701N004119999999N0020001N1+02011+01741101671ADDAA199000091GF106991999011008001001001KA1240N+01721MA1999999097671MD1999999-0081REMSYN076AAXX  29124 82975 32595 62708 10201 20174 39767 40167 82100 333 20172 59008;EQDQ01+000022SCOTLCQ02  00002PRCP99
0183829750999992000072918004-09100-044110FM-12+033199999V0202301N003619999999N0010001N1+02761+01801101301ADDAA199000091GF106991999011008001001001MA1999999097381MD1999999+0041REMSYN070AAXX  29184 82975 32594 62307 10276 20180 39738 40130 82100 333 58004;EQDQ01+000022SCOTLCQ02  00002PRCP99
0196829750999992000073000004-09100-044110FM-12+033199999V0203201N002612200019N0040001N1+02311+01611101451ADDAA199000091GA1001+999999999GF100991001001999999001001KA1240M+03131MA1999999097451MD1999999+0051REMSYN070AAXX  30004 82975 32596 03205 10231 20161 39745 40145 333 10313 58005;EQDQ01  00002PRCP99
0186829750999992000073012004-09100-044110FM-12+033199999V0201801N004112200019N0005001N1+02031+01541101711ADDAA199000091GF104991021031004501031021KA1240N+01821MA1999999097711MD1999999+0041REMSYN076AAXX  30124 82975 32493 41808 10203 20154 39771 40171 82332 333 20182 58004;EQDQ01  00002PRCP99
0167829750999992000073018004-09100-044110FM-12+033199999V0200901N004112200019N0005001N1+03101+01661101131ADDAA199000091GF104991011001002501021031MA1999999097251MD1999999-0131REMSYN070AAXX  30184 82975 32393 40908 10310 20166 39725 40113 81023 333 59013;EQDQ01  00002PRCP99
0186829750999992000073100004-09100-044110FM-12+033199999V0203201N002611050019N0010001N1+02431+01421101301ADDAA199000091GF105991011021008001031031KA1240M+03161MA1999999097351MD1999999-0101REMSYN076AAXX  31004 82975 32594 53205 10243 20142 39735 40130 81233 333 10316 59010;EQDQ01  00002PRCP99
0186829750999992000073112004-09100-044110FM-12+033199999V0200501N003612200019N0005001N1+02051+01521101591ADDAA199000091GF104991021011004501041021KA1240N+01861MA1999999097611MD1999999-0101REMSYN076AAXX  31124 82975 32493 40507 10205 20152 39761 40159 82142 333 20186 59010;EQDQ01  00002PRCP99
0167829750999992000073118004-09100-044110FM-12+033199999V0202701N005112200019N0005001N1+03211+01461101071ADDAA199000091GF104991011021008001031011MA1999999097201MD1999999-0051REMSYN070AAXX  31184 82975 32593 42710 10321 20146 39720 40107 81231 333 59005;EQDQ01  00002PRCP99
0202829750999992000080100004-09100-044110FM-12+033199999V0203601N002619999999N0005001N1+02561+01311101171ADDAA199000091GF105991999011008001001001KA1240M+03251MA1999999097241MD1999999-0111REMSYN076AAXX  01004 82975 32593 53605 10256 20131 39724 40117 82100 333 10325 59011;EQDQ01+000022SCOTLCQ02  00002PRCP99
0186829750999992000080112004-09100-044110FM-12+033199999V0203201N002611050019N0010001N1+01911+01511101551ADDAA199000091GF105991011021008001031021KA1240N+01741MA1999999097551MD1999999-0061REMSYN076AAXX  01124 82975 32594 53205 10191 20151 39755 40155 81232 333 20174 59006;EQDQ01  00002PRCP99
0183829750999992000080118004-09100-044110FM-12+033199999V0201401N002612200019N0002001N1+03231+01541101101ADDAA199000091GF104991999021008001011031MA1999999097231MD1999999+0031REMSYN070AAXX  01184 82975 32592 41405 10323 20154 39723 40110 80213 333 58003;EQDQ01+000002SCOTLCQ02  00002PRCP99
0186829750999992000080200004-09100-044110FM-12+033199999V0201801N003612200019N0005001N1+02611+01511101181ADDAA199000091GF104991021011004501021031KA1240M+03371MA1999999097251MD1999999+0011REMSYN076AAXX  02004 82975 32493 41807 10261 20151 39725 40118 82123 333 10337 58001;EQDQ01  00002PRCP99
0186829750999992000080212004-09100-044110FM-12+033199999V0203201N003612200019N0002001N1+02021+01621101651ADDAA199000091GF103991011021004501001021KA1240N+01821MA1999999097651MD1999999+0101REMSYN076AAXX  02124 82975 32492 33207 10202 20162 39765 40165 81202 333 20182 58010;EQDQ01  00002PRCP99
0167829750999992000080218004-09100-044110FM-12+033199999V0202701N005110450019N0020001N1+03211+01781101231ADDAA199000091GF106991041021008001021001MA1999999097351MD1999999+0121REMSYN070AAXX  02184 82975 32595 62710 10321 20178 39735 40123 84220 333 58012;EQDQ01  00002PRCP99
0202829750999992000080300004-09100-044110FM-12+033199999V0201801N002612200019N0002001N1+02631+01501101271ADDAA199000091GF103991999011004501001001KA1240M+03381MA1999999097351MD1999999+0091REMSYN076AAXX  03004 82975 32492 31805 10263 20150 39735 40127 82100 333 10338 58009;EQDQ01+000022SCOTLCQ02  00002PRCP99
0186829750999992000080312004-09100-044110FM-12+033199999V0200901N003610450019N0040001N1+02171+01721101691ADDAA199000091GF107991021031008001051021KA1240N+01801MA1999999097711MD1999999+0061REMSYN076AAXX  03124 82975 32596 70907 10217 20172 39771 40169 82352 333 20180 58006;EQDQ01  00002PRCP99
0167829750999992000080318004-09100-044110FM-12+033199999V0200501N005110450019N0020001N1+03021+01801101291ADDAA199000091GF107991021011004501041031MA1999999097391MD1999999+0041REMSYN070AAXX  03184 82975 32495 70510 10302 20180 39739 40129 82143 333 58004;EQDQ01  00002PRCP99
0186829750999992000080400004-09100-044110FM-12+033199999V0201401N003611050019N0005001N1+02511+01531101391ADDAA199000091GF106991011021004501031041KA1240M+03211MA1999999097451MD1999999+0111REMSYN076AAXX  04004 82975 32493 61407 10251 20153 39745 40139 81234 333 10321 58011;EQDQ01  00002PRCP99
0171829750999992000080412004-09100-044110FM-12+033199999V0201801N005119999999N0010001N1+02001+01601999999ADDAA199000091GF105991999999002501999999KA1240N+01711MA1999999097581REMSYN075AAXX  04124 82975 32394 51810 10200 20160 39758 4015 81233 333 20171 59013;EQDQ01  00002PRCP99
0202829750999992000080500004-09100-044110FM-12+033199999V0200901N002612200019N0005001N1+02621+01401101191ADDAA199000091GF104991999011008001001001KA1240M+03341MA1999999097261MD1999999-0151REMSYN076AAXX  05004 82975 32593 40905 10262 20140 39726 40119 82100 333 10334 59015;EQDQ01+000022SCOTLCQ02  00002PRCP99
0186829750999992000080512004-09100-044110FM-12+033199999V0203601N003610450019N0040001N1+01911+01551101611ADDAA199000091GF107991021041008001031021KA1240N+01651MA1999999097601MD1999999+0021REMSYN076AAXX  05124 82975 32596 73607 10191 20155 39760 40161 82432 333 20165 58002;EQDQ01  00002PRCP99
0167829750999992000080518004-09100-044110FM-12+033199999V0203201N004110450019N0010001N1+03311+01551101101ADDAA199000091GF106991011031008001021021MA1999999097241MD1999999-0061REMSYN070AAXX  05184 82975 32594 63208 10331 20155 39724 40110 81322 333 59006;EQDQ01  00002PRCP99
0202829750999992000080600004-09100-044110FM-12+033199999V0202701N002612200019N0002001N1+02561+01441101281ADDAA199000091GF103991999011008001001001KA1240M+03381MA1999999097351MD1999999+0061REMSYN076AAXX  06004 82975 32592 32705 10256 20144 39735 40128 82100 333 10338 58006;EQDQ01+000022SCOTLCQ02  00002PRCP99
0186829750999992000080612004-09100-044110FM-12+033199999V0202701N001012200019N0005001N1+02011+01601101751ADDAA199000091GF102991021011004501001001KA1240N+01761MA1999999097551MD1999999+0151REMSYN076AAXX  06124 82975 32493 22702 10201 20160 39755 40175 82100 333 20176 58015;EQDQ01  00002PRCP99
0183829750999992000080618004-09100-044110FM-12+033199999V0200501N003612200019N0005001N1+03231+01541101131ADDAA199000091GF103991999011008001001001MA1999999097251MD1999999+0011REMSYN070AAXX  06184 82975 32593 30507 10323 20154 39725 40113 82100 333 58001;EQDQ01+000022SCOTLCQ02  00002PRCP99
0186829750999992000080700004-09100-044110FM-12+033199999V0203601N002611050019N0005001N1+02611+01631101341ADDAA199000091GF105991011021004501031021KA1240M+03401MA1999999097401MD1999999+0051REMSYN076AAXX  07004 82975 32493 53605 10261 20163 39740 40134 81232 333 10340 58005;EQDQ01  00002PRCP99
0186829750999992000080712004-09100-044110FM-12+033199999V0201801N002611050019N0010001N1+02131+01681101731ADDAA199000091GF105991011021008001041031KA1240N+01831MA1999999097741MD1999999-0011REMSYN076AAXX  07124 82975 32594 51805 10213 20168 39774 40173 81243 333 20183 59001;EQDQ01  00002PRCP99
0167829750999992000080718004-09100-044110FM-12+033199999V0202301N005111050019N0020001N1+03151+01971101231ADDAA199000091GF106991021031008001021041MA1999999097351MD1999999+0001REMSYN070AAXX  07184 82975 32595 62310 10315 20197 39735 40123 82324 333 58000;EQDQ01  00002PRCP99
0186829750999992000080800004-09100-044110FM-12+033199999V0203201N004110450019N0040001N1+02611+01821101331ADDAA199000091GF107991031021008001051031KA1240M+03381MA1999999097391MD1999999-0011REMSYN076AAXX  08004 82975 32596 73208 10261 20182 39739 40133 83253 333 10338 59001;EQDQ01  00002PRCP99
0186829750999992000080812004-09100-044110FM-12+033199999V0200501N003610450019N0020001N1+02211+01671101671ADDAA199000091GF107991021031004501021041KA1240N+01861MA1999999097691MD1999999-0051REMSYN076AAXX  08124 82975 32495 70507 10221 20167 39769 40167 82324 333 20186 59005;EQDQ01  00002PRCP99
0167829750999992000080818004-09100-044110FM-12+033199999V0200901N003612200019N0005001N1+03291+01541101181ADDAA199000091GF104991011001008001031021MA1999999097301MD1999999-0051REMSYN070AAXX  08184 82975 32593 40907 10329 20154 39730 40118 81032 333 59005;EQDQ01  00002PRCP99
0202829750999992000080900004-09100-044110FM-12+033199999V0201401N002619999999N0020001N1+02711+01541101341ADDAA199000091GF107991999011008001001001KA1240M+03431MA1999999097411MD1999999+0021REMSYN076AAXX  09004 82975 32595 71405 10271 20154 39741 40134 82100 333 10343 58002;EQDQ01+000022SCOTLCQ02  00002PRCP99
0186829750999992000080912004-09100-044110FM-12+033199999V0202301N002612200019N0002001N1+02321+01701101781ADDAA199000091GF104991021011004501021031KA1240N+01931MA1999999097801MD1999999+0111REMSYN076AAXX  09124 82975 32492 42305 10232 20170 39780 40178 82123 333 20193 58011;EQDQ01  00002PRCP99
0167829750999992000080918004-09100-044110FM-12+033199999V0201801N002610450019N0010001N1+03241+01481101331ADDAA199000091GF107991031021008001041031MA1999999097451MD1999999+0151REMSYN070AAXX  09184 82975 32594 71805 10324 20148 39745 40133 83243 333 58015;EQDQ01  00002PRCP99
0186829750999992000081000004-09100-044110FM-12+033199999V0203201N003610450019N0040001N1+02611+01761101441ADDAA199000091GF107991011021008001051021KA1240M+03351MA1999999097501MD1999999+0091REMSYN076AAXX  10004 82975 32596 73207 10261 20176 39750 40144 81252 333 10335 58009;EQDQ01  00002PRCP99
0186829750999992000081012004-09100-044110FM-12+033199999V0202301N002612200019N0002001N1+02411+01841101811ADDAA199000091GF103991011021004501001021KA1240N+02011MA1999999097841MD1999999+0041REMSYN076AAXX  10124 82975 32492 32305 10241 20184 39784 40181 81202 333 20201 58004;EQDQ01  00002PRCP99
0167829750999992000081018004-09100-044110FM-12+033199999V0200901N005112200019N0005001N1+03351+01831101321ADDAA199000091GF104991021021004501011031MA1999999097451MD1999999+0001REMSYN070AAXX  10184 82975 32493 40910 10335 20183 39745 40132 82213 333 58000;EQDQ01  00002PRCP99
0202829750999992000081100004-09100-044110FM-12+033199999V0209999C000019999999N0010001N1+02811+01501101421ADDAA199000091GF105991999021008001001001KA1240M+03511MA1999999097501MD1999999+0001REMSYN076AAXX  11004 82975 32594 50000 10281 20150 39750 40142 81200 333 10351 58000;EQDQ01+000012SCOTLCQ02  00002PRCP99
0202829750999992000081112004-09100-044110FM-12+033199999V0200501N003612200019N0002001N1+02401+01861101761ADDAA199000091GF103991999021004501031001KA1240N+02001MA1999999097811MD1999999-0031REMSYN076AAXX  11124 82975 32492 30507 10240 20186 39781 40176 80230 333 20200 59003;EQDQ01+000002SCOTLCQ02  00002PRCP99
0167829750999992000081118004-09100-044110FM-12+033199999V0202301N002611050019N0005001N1+03351+01871101211ADDAA199000091GF105991021031008001021021MA1999999097351MD1999999-0101REMSYN070AAXX  11184 82975 32593 52305 10335 20187 39735 40121 82322 333 59010;EQDQ01  00002PRCP99
0202829750999992000081212004-09100-044110FM-12+033199999V0200501N004112200019N0002001N1+02421+01791101601ADDAA199000091GF103991999011008001001001KA1240N+02041MA1999999097641MD1999999-0171REMSYN076AAXX  12124 82975 32592 30508 10242 20179 39764 40160 82100 333 20204 59017;EQDQ01+000022SCOTLCQ02  00002PRCP99
0183829750999992000081218004-09100-044110FM-12+033199999V0200901N002619999999N0020001N1+03341+01951101091ADDAA199000091GF106991999011008001001001MA1999999097231MD1999999-0121REMSYN070AAXX  12184 82975 32595 60905 10334 20195 39723 40109 82100 333 59012;EQDQ01+000022SCOTLCQ02  00002PRCP99
0202829750999992000081300004-09100-044110FM-12+033199999V0203601N002619999999N0040001N1+02951+01721101151ADDAA199000091GF107991999011008001001001KA1240M+03571MA1999999097251MD1999999-0121REMSYN076AAXX  13004 82975 32596 73605 10295 20172 39725 40115 82100 333 10357 59012;EQDQ01+000022SCOTLCQ02  00002PRCP99
0186829750999992000081312004-09100-044110FM-12+033199999V0201801N006711050019N0010001N1+02321+01811101671ADDAA199000091GF105991011021008001031031KA1240N+01961MA1999999097701MD1999999+0061REMSYN076AAXX  13124 82975 32594 51813 10232 20181 39770 40167 81233 333 20196 58006;EQDQ01  00002PRCP99
0167829750999992000081318004-09100-044110FM-12+033199999V0202301N003610450019N0020001N1+03201+01961101231ADDAA199000091GF106991021041008001031021MA1999999097351MD1999999+0121REMSYN070AAXX  13184 82975 32595 62307 10320 20196 39735 40123 82432 333 58012;EQDQ01  00002PRCP99
0186829750999992000081400004-09100-044110FM-12+033199999V0203201N003610450019N0010001N1+02801+01661101321ADDAA199000091GF107991021011008001021041KA1240M+03381MA1999999097401MD1999999+0151REMSYN076AAXX  14004 82975 32594 73207 10280 20166 39740 40132 82124 333 10338 58015;EQDQ01  00002PRCP99
0186829750999992000081412004-09100-044110FM-12+033199999V0200901N006712200019N0005001N1+02211+01761101831ADDAA199000091GF104991021011004501021031KA1240N+01801MA1999999097841MD1999999+0141REMSYN076AAXX  14124 82975 32493 40913 10221 20176 39784 40183 82123 333 20180 58014;EQDQ01  00002PRCP99
0167829750999992000081418004-09100-044110FM-12+033199999V0201401N003612200019N0002001N1+03261+01541101371ADDAA199000091GF103991011001008001021031MA1999999097501MD1999999+0151REMSYN070AAXX  14184 82975 32592 31407 10326 20154 39750 40137 81023 333 58015;EQDQ01  00002PRCP99
0202829750999992000081500004-09100-044110FM-12+033199999V0202701N003612200019N0005001N1+02531+01491101491ADDAA199000091GF104991999011008001001001KA1240M+03291MA1999999097551MD1999999+0151REMSYN076AAXX  15004 82975 32593 42707 10253 20149 39755 40149 82100 333 10329 58015;EQDQ01+000022SCOTLCQ02  00002PRCP99
0186829750999992000081512004-09100-044110FM-12+033199999V0200901N007712200019N0005001N1+02011+01601101961ADDAA199000091GF104991021011004501031021KA1240N+01781MA1999999097951MD1999999+0111REMSYN076AAXX  15124 82975 32493 40915 10201 20160 39795 40196 82132 333 20178 58011;EQDQ01  00002PRCP99
0167829750999992000081518004-09100-044110FM-12+033199999V0203601N004112200019N0002001N1+03201+01741101481ADDAA199000091GF103991011001008001021031MA1999999097601MD1999999+0101REMSYN070AAXX  15184 82975 32592 33608 10320 20174 39760 40148 81023 333 58010;EQDQ01  00002PRCP99
0202829750999992000081600004-09100-044110FM-12+033199999V0202301N003612200019N0005001N1+02411+01581101491ADDAA199000091GF104991999021008001021031KA1240M+03251MA1999999097531MD1999999-0021REMSYN076AAXX  16004 82975 32593 42307 10241 20158 39753 40149 80223 333 10325 59002;EQDQ01+000002SCOTLCQ02  00002PRCP99
0186829750999992000081612004-09100-044110FM-12+033199999V0201801N003612200019N0010001N1+01981+01611101821ADDAA199000091GF103991011021008001001021KA1240N+01711MA1999999097811MD1999999-0141REMSYN076AAXX  16124 82975 32594 31807 10198 20161 39781 40182 81202 333 20171 59014;EQDQ01  00002PRCP99
0167829750999992000081618004-09100-044110FM-12+033199999V0203601N002612200019N0002001N1+03111+01701101341ADDAA199000091GF103991021031004501001011MA1999999097451MD1999999-0151REMSYN070AAXX  16184 82975 32492 33605 10311 20170 39745 40134 82301 333 59015;EQDQ01  00002PRCP99
0202829750999992000081700004-09100-044110FM-12+033199999V0201401N002612200019N0005001N1+02501+01391101341ADDAA199000091GF104991999011004501001001KA1240M+03301MA1999999097401MD1999999-0131REMSYN076AAXX  17004 82975 32493 41405 10250 20139 39740 40134 82100 333 10330 59013;EQDQ01+000022SCOTLCQ02  00002PRCP99
0186829750999992000081712004-09100-044110FM-12+033199999V0200901N004112200019N0002001N1+02051+01581101751ADDAA199000091GF104991011021004501001031KA1240N+01781MA1999999097751MD1999999-0061REMSYN076AAXX  17124 82975 32492 40908 10205 20158 39775 40175 81203 333 20178 59006;EQDQ01  00002PRCP99
0177829750999992000081718004-09100-044110FM-12+033199999V0201801N003612200019N0002001N1+03151+01761101291ADDAA199000091GA1001+999999999GF100991001001999999001001MA1999999097411MD1999999-0041REMSYN064AAXX  17184 82975 32592 01807 10315 20176 39741 40129 333 59004;EQDQ01  00002PRCP99
0186829750999992000081812004-09100-044110FM-12+033199999V0202701N005112200019N0005001N1+02101+01601101801ADDAA199000091GF103991011001004501031021KA1240N+01871MA1999999097801MD1999999+0051REMSYN076AAXX  18124 82975 32493 32710 10210 20160 39780 40180 81032 333 20187 58005;EQDQ01  00002PRCP99
0167829750999992000081818004-09100-044110FM-12+033199999V0200901N003612200019N0005001N1+03181+01761101341ADDAA199000091GF103991011001008001021031MA1999999097451MD1999999+0041REMSYN070AAXX  18184 82975 32593 30907 10318 20176 39745 40134 81023 333 58004;EQDQ01  00002PRCP99
0202829750999992000081900004-09100-044110FM-12+033199999V0201801N002612200019N0005001N1+02721+01681101411ADDAA199000091GF104991999011008001001001KA1240M+03421MA1999999097401MD1999999-0051REMSYN076AAXX  19004 82975 32593 41805 10272 20168 39740 40141 82100 333 10342 59005;EQDQ01+000022SCOTLCQ02  00002PRCP99
0186829750999992000081912004-09100-044110FM-12+033199999V0202701N002612200019N0002001N1+02011+01461101681ADDAA199000091GF103991021011004501001031KA1240N+01831MA1999999097681MD1999999-0121REMSYN076AAXX  19124 82975 32492 32705 10201 20146 39768 40168 82103 333 20183 59012;EQDQ01  00002PRCP99
0167829750999992000081918004-09100-044110FM-12+033199999V0202301N002612200019N0005001N1+03301+01511101171ADDAA199000091GF104991021031004501011021MA1999999097301MD1999999-0151REMSYN070AAXX  19184 82975 32493 42305 10330 20151 39730 40117 82312 333 59015;EQDQ01  00002PRCP99
0180829750999992000082000004-09100-044110FM-12+033199999V0209999C000010450019N0010001N1+99999+99999101341ADDAA199000091GF108991011031008001021021KA1240M+03311MA1999999097401MD1999999+0001REMSYN070AAXX  20004 82975 32594 80000 20123 39740 40134 81322 333 10331 58000;EQDQ01  00002PRCP99
0202829750999992000082012004-09100-044110FM-12+033199999V0202701N002619999999N0010001N1+02111+01581101741ADDAA199000091GF105991999011008001001001KA1240N+01891MA1999999097751MD1999999+0071REMSYN076AAXX  20124 82975 32594 52705 10211 20158 39775 40174 82100 333 20189 58007;EQDQ01+000022SCOTLCQ02  00002PRCP99
0183829750999992000082018004-09100-044110FM-12+033199999V0203601N002612200019N0020001N1+03201+01751101431ADDAA199000091GF103991999011008001001001MA1999999097441MD1999999+0121REMSYN070AAXX  20184 82975 32595 33605 10320 20175 39744 40143 82100 333 58012;EQDQ01+000022SCOTLCQ02  00002PRCP99
0186829750999992000082112004-09100-044110FM-12+033199999V0200501N012910450019N0010001N1+02351+01761101811ADDAA199000091GF105991031021008001011031KA1240N+01951MA1999999097841MD1999999+0091REMSYN076AAXX  21124 82975 32594 50525 10235 20176 39784 40181 83213 333 20195 58009;EQDQ01  00002PRCP99
0167829750999992000082118004-09100-044110FM-12+033199999V0202301N002610450019N0020001N1+03211+01821101331ADDAA199000091GF106991021041008001031021MA1999999097451MD1999999+0011REMSYN070AAXX  21184 82975 32595 62305 10321 20182 39745 40133 82432 333 58001;EQDQ01  00002PRCP99
0186829750999992000082200004-09100-044110FM-12+033199999V0201801N003612200019N0005001N1+02721+01521101441ADDAA199000091GF104991021011004501031031KA1240M+03381MA1999999097511MD1999999+0111REMSYN076AAXX  22004 82975 32493 41807 10272 20152 39751 40144 82133 333 10338 58011;EQDQ01  00002PRCP99
0186829750999992000082212004-09100-044110FM-12+033199999V0203201N012912200019N0002001N1+02201+01761101731ADDAA199000091GF104991021011002501031021KA1240N+01851MA1999999097751MD1999999-0091REMSYN076AAXX  22124 82975 32392 43225 10220 20176 39775 40173 82132 333 20185 59009;EQDQ01  00002PRCP99
0167829750999992000082218004-09100-044110FM-12+033199999V0201401N003611050019N0005001N1+03241+01781101181ADDAA199000091GF105991011021008001011031MA1999999097311MD1999999-0141REMSYN070AAXX  22184 82975 32593 51407 10324 20178 39731 40118 81213 333 59014;EQDQ01  00002PRCP99
0186829750999992000082300004-09100-044110FM-12+033199999V0203601N004111050019N0005001N1+02601+01711101341ADDAA199000091GF105991011021008001031021KA1240M+03311MA1999999097401MD1999999-0111REMSYN076AAXX  23004 82975 32593 53608 10260 20171 39740 40134 81232 333 10331 59011;EQDQ01  00002PRCP99
0186829750999992000082312004-09100-044110FM-12+033199999V0202701N004112200019N0005001N1+02311+01751101621ADDAA199000091GF103991011001004501021031KA1240N+01911MA1999999097651MD1999999-0101REMSYN076AAXX  23124 82975 32493 32708 10231 20175 39765 40162 81023 333 20191 59010;EQDQ01  00002PRCP99
0177829750999992000082318004-09100-044110FM-12+033199999V0200901N003612200019N0005001N1+03301+01741101131ADDAA199000091GA1001+999999999GF100991001001999999001001MA1999999097251MD1999999-0061REMSYN064AAXX  23184 82975 32493 00907 10330 20174 39725 40113 333 59006;EQDQ01  00002PRCP99
0186829750999992000082400004-09100-044110FM-12+033199999V0201801N002612200019N0002001N1+02811+01601101261ADDAA199000091GF103991011001002501031021KA1240M+03431MA1999999097351MD1999999-0051REMSYN076AAXX  24004 82975 32392 31805 10281 20160 39735 40126 81032 333 10343 59005;EQDQ01  00002PRCP99
0202829750999992000082412004-09100-044110FM-12+033199999V0200501N004112200019N0002001N1+02351+01761101651ADDAA199000091GF103991999011004501021021KA1240N+01951MA1999999097681MD1999999-0031REMSYN076AAXX  24124 82975 32492 30508 10235 20176 39768 40165 80122 333 20195 59003;EQDQ01+000002SCOTLCQ02  00002PRCP99
0177829750999992000082418004-09100-044110FM-12+033199999V0203601N003612200019N0005001N1+03431+01721101061ADDAA199000091GA1001+999999999GF100991001001999999001001MA1999999097211MD1999999-0041REMSYN064AAXX  24184 82975 32593 03607 10343 20172 39721 40106 333 59004;EQDQ01  00002PRCP99
0196829750999992000082500004-09100-044110FM-12+033199999V0201401N002612200019N0005001N1+02901+01621101211ADDAA199000091GA1001+999999999GF100991001001999999001001KA1240M+03481MA1999999097311MD1999999-0041REMSYN070AAXX  25004 82975 32593 01405 10290 20162 39731 40121 333 10348 59004;EQDQ01  00002PRCP99
0186829750999992000082512004-09100-044110FM-12+033199999V0200901N005111050019N0010001N1+02451+01861101671ADDAA199000091GF105991011021008001041021KA1240N+02051MA1999999097711MD1999999+0031REMSYN076AAXX  25124 82975 32594 50910 10245 20186 39771 40167 81242 333 20205 58003;EQDQ01  00002PRCP99
0177829750999992000082518004-09100-044110FM-12+033199999V0203201N004112200019N0005001N1+03411+01721101051ADDAA199000091GA1001+999999999GF100991001001999999001001MA1999999097201MD1999999-0011REMSYN064AAXX  25184 82975 32493 03208 10341 20172 39720 40105 333 59001;EQDQ01  00002PRCP99
0196829750999992000082600004-09100-044110FM-12+033199999V0202301N003612200019N0005001N1+02931+01621101201ADDAA199000091GA1001+999999999GF100991001001999999001001KA1240M+03491MA1999999097301MD1999999-0011REMSYN070AAXX  26004 82975 32593 02307 10293 20162 39730 40120 333 10349 59001;EQDQ01  00002PRCP99
0202829750999992000082612004-09100-044110FM-12+033199999V0201801N005112200019N0002001N1+02511+01891101491ADDAA199000091GF103991999011008001001001KA1240N+02121MA1999999097541MD1999999-0141REMSYN076AAXX  26124 82975 32592 31810 10251 20189 39754 40149 82100 333 20212 59014;EQDQ01+000022SCOTLCQ02  00002PRCP99
0183829750999992000082618004-09100-044110FM-12+033199999V0200901N004112200019N0005001N1+03381+01641101021ADDAA199000091GF103991999011008001001001MA1999999097151MD1999999-0051REMSYN070AAXX  26184 82975 32593 30908 10338 20164 39715 40102 82100 333 59005;EQDQ01+000022SCOTLCQ02  00002PRCP99
0202829750999992000082700004-09100-044110FM-12+033199999V0203601N002612200019N0005001N1+02821+01681101091ADDAA199000091GF104991999011004501001001KA1240M+03431MA1999999097181MD1999999-0121REMSYN076AAXX  27004 82975 32493 43605 10282 20168 39718 40109 82100 333 10343 59012;EQDQ01+000022SCOTLCQ02  00002PRCP99
0186829750999992000082712004-09100-044110FM-12+033199999V0202301N004112200019N0005001N1+02501+01871101341ADDAA199000091GF104991011031004501001021KA1240N+02101MA1999999097401MD1999999-0141REMSYN076AAXX  27124 82975 32493 42308 10250 20187 39740 40134 81302 333 20210 59014;EQDQ01  00002PRCP99
0167829750999992000082718004-09100-044110FM-12+033199999V0203201N003612200019N0002001N1+03491+01661100841ADDAA199000091GF103991011021004501001031MA1999999096991MD1999999-0161REMSYN070AAXX  27184 82975 32492 33207 10349 20166 39699 40084 81203 333 59016;EQDQ01  00002PRCP99
0186829750999992000082800004-09100-044110FM-12+033199999V0203601N002612200019N0002001N1+02711+01151100961ADDAA199000091GF103991011031004501001021KA1240M+03351MA1999999097051MD1999999-0131REMSYN076AAXX  28004 82975 32492 33605 10271 20115 39705 40096 81302 333 10335 59013;EQDQ01  00002PRCP99
0202829750999992000082900004-09100-044110FM-12+033199999V0209999C000019999999N0010001N1+02861+01441100901ADDAA199000091GF105991999011008001001001KA1240M+03481MA1999999097001MD1999999-0051REMSYN076AAXX  29004 82975 32594 50000 10286 20144 39700 40090 82100 333 10348 59005;EQDQ01+000022SCOTLCQ02  00002PRCP99
0202829750999992000082912004-09100-044110FM-12+033199999V0202301N002612200019N0002001N1+02211+01671101411ADDAA199000091GF103991999021004501021011KA1240N+01851MA1999999097441MD1999999+0141REMSYN076AAXX  29124 82975 32492 32305 10221 20167 39744 40141 80221 333 20185 58014;EQDQ01+000002SCOTLCQ02  00002PRCP99
0167829750999992000082918004-09100-044110FM-12+033199999V0202301N003612200019N0005001N1+03611+01721100841ADDAA199000091GF104991011031004501001021MA1999999097001MD1999999+0051REMSYN070AAXX  29184 82975 32493 42307 10361 20172 39700 40084 81302 333 58005;EQDQ01  00002PRCP99
0196829750999992000083000004-09100-044110FM-12+033199999V0201801N002612200019N0005001N1+03061+01511100981ADDAA199000091GA1001+999999999GF100991001001999999001001KA1240M+03651MA1999999097101MD1999999+0101REMSYN070AAXX  30004 82975 32593 01805 10306 20151 39710 40098 333 10365 58010;EQDQ01  00002PRCP99
0186829750999992000083012004-09100-044110FM-12+033199999V0200901N003612200019N0002001N1+02431+01691101571ADDAA199000091GF103991021011004501031021KA1240N+01941MA1999999097611MD1999999+1071REMSYN076AAXX  30124 82975 32492 30907 10243 20169 39761 40157 82132 333 20194 58107;EQDQ01  00002PRCP99
0177829750999992000083018004-09100-044110FM-12+033199999V0200501N003612200019N0002001N1+03421+01741100991ADDAA199000091GA1001+999999999GF100991001001999999001001MA1999999097141MD1999999+0141REMSYN064AAXX  30184 82975 32392 00507 10342 20174 39714 40099 333 58014;EQDQ01  00002PRCP99
0202829750999992000083100004-09100-044110FM-12+033199999V0209999C000012200019N0005001N1+02811+01531101161ADDAA199000091GF103991999011004501001001KA1240M+03481MA1999999097251MD1999999+0151REMSYN076AAXX  31004 82975 32493 30000 10281 20153 39725 40116 82100 333 10348 58015;EQDQ01+000022SCOTLCQ02  00002PRCP99
0186829750999992000083112004-09100-044110FM-12+033199999V0201801N007710450019N0010001N1+02211+01631101581ADDAA199000091GF106991021031008001041021KA1240N+01821MA1999999097601MD1999999-0011REMSYN076AAXX  31124 82975 32594 61815 10221 20163 39760 40158 82342 333 20182 59001;EQDQ01  00002PRCP99
0177829750999992000083118004-09100-044110FM-12+033199999V0201401N004112200019N0005001N1+03451+01721101071ADDAA199000091GA1001+999999999GF100991001001999999001001MA1999999097201MD1999999+0061REMSYN064AAXX  31184 82975 32593 01408 10345 20172 39720 40107 333 58006;EQDQ01  00002PRCP99
0196829750999992000090100004-09100-044110FM-12+033199999V0202701N002612200019N0005001N1+02611+01541101241ADDAA199000091GA1001+999999999GF100991001001999999001001KA1240M+03491MA1999999097311MD1999999+0061REMSYN070AAXX  01004 82975 32493 02705 10261 20154 39731 40124 333 10349 58006;EQDQ01  00002PRCP99
0186829750999992000090112004-09100-044110FM-12+033199999V0200901N004111050019N0005001N1+02351+01721101451ADDAA199000091GF105991011021004501031011KA1240N+01901MA1999999097491MD1999999-0111REMSYN076AAXX  01124 82975 32493 50908 10235 20172 39749 40145 81231 333 20190 59011;EQDQ01  00002PRCP99
0167829750999992000090118004-09100-044110FM-12+033199999V0201801N002610450019N0010001N1+03331+01891100901ADDAA199000091GF106991011031008001021021MA1999999097051MD1999999-0151REMSYN070AAXX  01184 82975 32594 61805 10333 20189 39705 40090 81322 333 59015;EQDQ01  00002PRCP99
0202829750999992000090200004-09100-044110FM-12+033199999V0203201N002619999999N0010001N1+02811+01561100941ADDAA199000091GF106991999011008001001001KA1240M+03431MA1999999097041MD1999999-0271REMSYN076AAXX  02004 82975 32594 63205 10281 20156 39704 40094 82100 333 10343 59027;EQDQ01+000022SCOTLCQ02  00002PRCP99
0202829750999992000090212004-09100-044110FM-12+033199999V0201801N002619999999N0005001N1+02351+01761101371ADDAA199000091GF105991999011008001001001KA1240N+01881MA1999999097391MD1999999-0101REMSYN076AAXX  02124 82975 32593 51805 10235 20176 39739 40137 82100 333 20188 59010;EQDQ01+000022SCOTLCQ02  00002PRCP99
0131829750999992000090218004-09100-044110FM-12+033199999V0202301N003619999999N0020001N1+03351+02091999999ADDAA199000091GF106991999999008001999999MA1999999097031REMSYN048AAXX  02184 82975 32595 62307 10335 20209 39703;EQDQ01  00002PRCP99
0196829750999992000090300004-09100-044110FM-12+033199999V0201801N002612200019N0002001N1+02801+01781101001ADDAA199000091GA1001+999999999GF100991001001999999001001KA1240M+03401MA1999999097091MD1999999+0051REMSYN070AAXX  03004 82975 32592 01805 10280 20178 39709 40100 333 10340 58005;EQDQ01  00002PRCP99
0186829750999992000090312004-09100-044110FM-12+033199999V0201401N004112200019N0005001N1+02611+01941101341ADDAA199000091GF104991011021008001031021KA1240N+01961MA1999999097401MD1999999+0011REMSYN076AAXX  03124 82975 32593 41408 10261 20194 39740 40134 81232 333 20196 58001;EQDQ01  00002PRCP99
0167829750999992000090318004-09100-044110FM-12+033199999V0201801N003610450019N0010001N1+03411+02001100931ADDAA199000091GF106991021041008001011021MA1999999097081MD1999999+0051REMSYN070AAXX  03184 82975 32594 61807 10341 20200 39708 40093 82412 333 58005;EQDQ01  00002PRCP99
0186829750999992000090400004-09100-044110FM-12+033199999V0202301N002610450019N0040001N1+03011+01811100951ADDAA199000091GF107991011041008001021031KA1240M+03631MA1999999097071MD1999999-0021REMSYN076AAXX  04004 82975 32596 72305 10301 20181 39707 40095 81423 333 10363 59002;EQDQ01  00002PRCP99
0186829750999992000090412004-09100-044110FM-12+033199999V0203201N004112200019N0005001N1+02711+01991101421ADDAA199000091GF103991011021004501001021KA1240N+02031MA1999999097491MD1999999-0161REMSYN076AAXX  04124 82975 32493 33208 10271 20199 39749 40142 81202 333 20203 59016;EQDQ01  00002PRCP99
0196829750999992000090500004-09100-044110FM-12+033199999V0203601N002612200019N0005001N1+03081+01851100911ADDAA199000091GA1001+999999999GF100991001001999999001001KA1240M+03521MA1999999097041MD1999999-0031REMSYN070AAXX  05004 82975 32593 03605 10308 20185 39704 40091 333 10352 59003;EQDQ01  00002PRCP99
0186829750999992000090512004-09100-044110FM-12+033199999V0202301N003610450019N0040001N1+02511+01871101381ADDAA199000091GF107991011031008001051021KA1240N+01961MA1999999097441MD1999999-0051REMSYN076AAXX  05124 82975 32596 72307 10251 20187 39744 40138 81352 333 20196 59005;EQDQ01  00002PRCP99
0167829750999992000090518004-09100-044110FM-12+033199999V0200901N004111050019N0010001N1+03231+01961100901ADDAA199000091GF106991021011008001041031MA1999999097041MD1999999+0041REMSYN070AAXX  05184 82975 32594 60908 10323 20196 39704 40090 82143 333 58004;EQDQ01  00002PRCP99
0186829750999992000090600004-09100-044110FM-12+033199999V0200501N003611050019N0005001N1+02701+01861101131ADDAA199000091GF105991011021008001031031KA1240M+03411MA1999999097211MD1999999+0171REMSYN076AAXX  06004 82975 32593 50507 10270 20186 39721 40113 81233 333 10341 58017;EQDQ01  00002PRCP99
0186829750999992000090612004-09100-044110FM-12+033199999V0201801N003611050019N0010001N1+02321+01851101461ADDAA199000091GF105991021011008001031021KA1240N+01891MA1999999097491MD1999999+0051REMSYN076AAXX  06124 82975 32594 51807 10232 20185 39749 40146 82132 333 20189 58005;EQDQ01  00002PRCP99
0167829750999992000090618004-09100-044110FM-12+033199999V0203601N004112200019N0002001N1+03311+01981100871ADDAA199000091GF103991011001004501021031MA1999999097011MD1999999-0031REMSYN070AAXX  06184 82975 32492 33608 10331 20198 39701 40087 81023 333 59003;EQDQ01  00002PRCP99
0202829750999992000090700004-09100-044110FM-12+033199999V0201401N002612200019N0005001N1+02831+01861100941ADDAA199000091GF103991999011008001001001KA1240M+03511MA1999999097041MD1999999-0171REMSYN076AAXX  07004 82975 32593 31405 10283 20186 39704 40094 82100 333 10351 59017;EQDQ01+000022SCOTLCQ02  00002PRCP99
0186829750999992000090712004-09100-044110FM-12+033199999V0202301N002610450019N0040001N1+02311+01901101401ADDAA199000091GF107991021031008001041021KA1240N+01871MA1999999097441MD1999999-0051REMSYN076AAXX  07124 82975 32596 72305 10231 20190 39744 40140 82342 333 20187 59005;EQDQ01  00002PRCP99
0167829750999992000090718004-09100-044110FM-12+033199999V0203201N002610450019N0010001N1+03011+02111100881ADDAA199000091GF107991021011008001041031MA1999999097001MD1999999-0011REMSYN070AAXX  07184 82975 32594 73205 10301 20211 39700 40088 82143 333 59001;EQDQ01  00002PRCP99
0202829750999992000090800004-09100-044110FM-12+033199999V0200501N007719999999N0010001N1+02321+02071101261ADDAA199000091GF107991999011008001001001KA1240M+03171MA1999999097301MD1999999+0261REMSYN076AAXX  08004 82975 32594 70515 10232 20207 39730 40126 82100 333 10317 58026;EQDQ01+000022SCOTLCQ02  00002PRCP99
0186829750999992000090812004-09100-044110FM-12+033199999V0201801N003610450019N0005001N1+02301+02011101471ADDAA199000091GF107991021031008001051021KA1240N+01851MA1999999097501MD1999999+0061REMSYN076AAXX  08124 82975 32593 71807 10230 20201 39750 40147 82352 333 20185 58006;EQDQ01  00002PRCP99
0167829750999992000090818004-09100-044110FM-12+033199999V0202301N004110450019N0020001N1+02811+02031101011ADDAA199000091GF107991021041008001031021MA1999999097101MD1999999+0101REMSYN070AAXX  08184 82975 32595 72308 10281 20203 39710 40101 82432 333 58010;EQDQ01  00002PRCP99
0186829750999992000090900004-09100-044110FM-12+033199999V0201401N002610450019N0005001N1+02601+01961101071ADDAA199000091GF107991021011008001041031KA1240M+03261MA1999999097151MD1999999-0151REMSYN076AAXX  09004 82975 32593 71405 10260 20196 39715 40107 82143 333 10326 59015;EQDQ01  00002PRCP99
0186829750999992000090912004-09100-044110FM-12+033199999V0202301N004110450019N0010001N1+02391+01891101461ADDAA199000091GF106991011021008001031021KA1240N+01941MA1999999097501MD1999999+0001REMSYN076AAXX  09124 82975 32594 62308 10239 20189 39750 40146 81232 333 20194 58000;EQDQ01  00002PRCP99
0186829750999992000091000004-09100-044110FM-12+033199999V0202701N002611050019N0010001N1+02711+01991101081ADDAA199000091GF105991011021008001031011KA1240M+03341MA1999999097161MD1999999+0011REMSYN076AAXX  10004 82975 32594 52705 10271 20199 39716 40108 81231 333 10334 58001;EQDQ01  00002PRCP99
0202829750999992000091012004-09100-044110FM-12+033199999V0200901N004112200019N0005001N1+02421+01841101501ADDAA199000091GF104991999011008001001001KA1240N+02001MA1999999097541MD1999999+0041REMSYN076AAXX  10124 82975 32593 40908 10242 20184 39754 40150 82100 333 20200 58004;EQDQ01+000022SCOTLCQ02  00002PRCP99
0183829750999992000091018004-09100-044110FM-12+033199999V0209999C000019999999N0020001N1+03401+02041101001ADDAA199000091GF107991999011008001001001MA1999999097151MD1999999+0011REMSYN070AAXX  10184 82975 32595 70000 10340 20204 39715 40100 82100 333 58001;EQDQ01+000022SCOTLCQ02  00002PRCP99
0202829750999992000091100004-09100-044110FM-12+033199999V0202301N004119999999N0010001N1+02851+01761100941ADDAA199000091GF106991999011008001001001KA1240M+03471MA1999999097041MD1999999-0121REMSYN076AAXX  11004 82975 32594 62308 10285 20176 39704 40094 82100 333 10347 59012;EQDQ01+000022SCOTLCQ02  00002PRCP99
0202829750999992000091112004-09100-044110FM-12+033199999V0202701N007712200019N0005001N1+02451+01851101461ADDAA199000091GF104991999011004501021031KA1240N+02051MA1999999097511MD1999999-0031REMSYN076AAXX  11124 82975 32493 42715 10245 20185 39751 40146 80123 333 20205 59003;EQDQ01+000002SCOTLCQ02  00002PRCP99
0167829750999992000091118004-09100-044110FM-12+033199999V0203601N004110450019N0010001N1+03241+01961100871ADDAA199000091GF106991011021008001041021MA1999999097011MD1999999-0141REMSYN070AAXX  11184 82975 32594 63608 10324 20196 39701 40087 81242 333 59014;EQDQ01  00002PRCP99
0202829750999992000091200004-09100-044110FM-12+033199999V0200501N003619999999N0040001N1+02801+01841101021ADDAA199000091GF107991999011008001001001KA1240M+03401MA1999999097111MD1999999+0071REMSYN076AAXX  12004 82975 32596 70507 10280 20184 39711 40102 82100 333 10340 58007;EQDQ01+000022SCOTLCQ02  00002PRCP99
0186829750999992000091212004-09100-044110FM-12+033199999V0201801N004112200019N0002001N1+02401+01911101461ADDAA199000091GF104991011021008001001031KA1240N+02011MA1999999097501MD1999999-0011REMSYN076AAXX  12124 82975 32592 41808 10240 20191 39750 40146 81203 333 20201 59001;EQDQ01  00002PRCP99
0167829750999992000091218004-09100-044110FM-12+033199999V0200901N003610450019N0010001N1+03201+01961100911ADDAA199000091GF107991021031008001021041MA1999999097041MD1999999+0031REMSYN070AAXX  12184 82975 32594 70907 10320 20196 39704 40091 82324 333 58003;EQDQ01  00002PRCP99
0186829750999992000091300004-09100-044110FM-12+033199999V0203201N002611050019N0005001N1+02801+01781100951ADDAA199000091GF105991021011008001041021KA1240M+03451MA1999999097051MD1999999-0061REMSYN076AAXX  13004 82975 32593 53205 10280 20178 39705 40095 82142 333 10345 59006;EQDQ01  00002PRCP99
0186829750999992000091312004-09100-044110FM-12+033199999V0202301N007710450019N0040001N1+02301+01901101571ADDAA199000091GF107991031021008001051031KA1240N+01951MA1999999097601MD1999999+0101REMSYN076AAXX  13124 82975 32596 72315 10230 20190 39760 40157 83253 333 20195 58010;EQDQ01  00002PRCP99
0183829750999992000091318004-09100-044110FM-12+033199999V0200501N003612200019N0002001N1+03251+01891101011ADDAA199000091GF104991999011008001031021MA1999999097151MD1999999+0111REMSYN070AAXX  13184 82975 32592 40507 10325 20189 39715 40101 80132 333 58011;EQDQ01+000002SCOTLCQ02  00002PRCP99
0186829750999992000091400004-09100-044110FM-12+033199999V0203601N002611050019N0010001N1+02531+01831101031ADDAA199000091GF106991011031008001021041KA1240M+03291MA1999999097101MD1999999+0051REMSYN076AAXX  14004 82975 32594 63605 10253 20183 39710 40103 81324 333 10329 58005;EQDQ01  00002PRCP99
0186829750999992000091412004-09100-044110FM-12+033199999V0200901N004112200019N0005001N1+02411+01911101611ADDAA199000091GF104991011021008001041021KA1240N+02021MA1999999097651MD1999999+0051REMSYN076AAXX  14124 82975 32593 40908 10241 20191 39765 40161 81242 333 20202 58005;EQDQ01  00002PRCP99
0167829750999992000091418004-09100-044110FM-12+033199999V0201401N004111050019N0010001N1+03511+02091100941ADDAA199000091GF105991011031008001021031MA1999999097101MD1999999-0051REMSYN070AAXX  14184 82975 32594 51408 10351 20209 39710 40094 81323 333 59005;EQDQ01  00002PRCP99
0186829750999992000091512004-09100-044110FM-12+033199999V0201801N007711050019N0005001N1+02431+01901101591ADDAA199000091GF105991011021008001041021KA1240N+02051MA1999999097631MD1999999-0021REMSYN076AAXX  15124 82975 32593 51815 10243 20190 39763 40159 81242 333 20205 59002;EQDQ01  00002PRCP99
0167829750999992000091518004-09100-044110FM-12+033199999V0201401N005112200019N0002001N1+03311+02021101071ADDAA199000091GF104991021011008001021031MA1999999097211MD1999999+0111REMSYN070AAXX  15184 82975 32592 41410 10331 20202 39721 40107 82123 333 58011;EQDQ01  00002PRCP99
0202829750999992000091600004-09100-044110FM-12+033199999V0200901N004112200019N0005001N1+02811+01721101151ADDAA199000091GF104991999011008001001001KA1240M+03581MA1999999097241MD1999999+0041REMSYN076AAXX  16004 82975 32593 40908 10281 20172 39724 40115 82100 333 10358 58004;EQDQ01+000022SCOTLCQ02  00002PRCP99
0186829750999992000091612004-09100-044110FM-12+033199999V0200501N005110450019N0010001N1+02411+01911101561ADDAA199000091GF106991031021008001041031KA1240N+02001MA1999999097601MD1999999-0031REMSYN076AAXX  16124 82975 32594 60510 10241 20191 39760 40156 83243 333 20200 59003;EQDQ01  00002PRCP99
0167829750999992000091618004-09100-044110FM-12+033199999V0203601N003612200019N0005001N1+03321+01891101001ADDAA199000091GF104991011021004501011031MA1999999097141MD1999999-0071REMSYN070AAXX  16184 82975 32493 43607 10332 20189 39714 40100 81213 333 59007;EQDQ01  00002PRCP99
0186829750999992000091700004-09100-044110FM-12+033199999V0201801N002611050019N0010001N1+02841+01701101131ADDAA199000091GF105991011031008001021011KA1240M+03621MA1999999097231MD1999999-0011REMSYN076AAXX  17004 82975 32594 51805 10284 20170 39723 40113 81321 333 10362 59001;EQDQ01  00002PRCP99
0202829750999992000091712004-09100-044110FM-12+033199999V0202701N007712200019N0005001N1+02431+01891101551ADDAA199000091GF104991999011008001001001KA1240N+02041MA1999999097591MD1999999-0011REMSYN076AAXX  17124 82975 32593 42715 10243 20189 39759 40155 82100 333 20204 59001;EQDQ01+000022SCOTLCQ02  00002PRCP99
0183829750999992000091718004-09100-044110FM-12+033199999V0202301N004119999999N0020001N1+03411+01931101051ADDAA199000091GF107991999011008001001001MA1999999097201MD1999999+0061REMSYN070AAXX  17184 82975 32595 72308 10341 20193 39720 40105 82100 333 58006;EQDQ01+000022SCOTLCQ02  00002PRCP99
0186829750999992000091800004-09100-044110FM-12+033199999V0201401N003611050019N0010001N1+02911+01691101191ADDAA199000091GF105991011021008001031011KA1240M+03651MA1999999097291MD1999999+0061REMSYN076AAXX  18004 82975 32594 51407 10291 20169 39729 40119 81231 333 10365 58006;EQDQ01  00002PRCP99
0186829750999992000091812004-09100-044110FM-12+033199999V0202301N005112200019N0005001N1+02451+01861101601ADDAA199000091GF104991011031008001021021KA1240N+02071MA1999999097651MD1999999+0061REMSYN076AAXX  18124 82975 32593 42310 10245 20186 39765 40160 81322 333 20207 58006;EQDQ01  00002PRCP99
0167829750999992000091818004-09100-044110FM-12+033199999V0203201N005110450019N0010001N1+03411+01641101041ADDAA199000091GF106991021041008001031021MA1999999097191MD1999999-0011REMSYN070AAXX  18184 82975 32594 63210 10341 20164 39719 40104 82432 333 59001;EQDQ01  00002PRCP99
0186829750999992000091900004-09100-044110FM-12+033199999V0201801N002612200019N0005001N1+02851+01531101261ADDAA199000091GF104991021021008001011031KA1240M+03541MA1999999097351MD1999999+0061REMSYN076AAXX  19004 82975 32593 41805 10285 20153 39735 40126 82213 333 10354 58006;EQDQ01  00002PRCP99
0186829750999992000091912004-09100-044110FM-12+033199999V0203201N004111050019N0010001N1+02411+01841101741ADDAA199000091GF105991011021008001021031KA1240N+02031MA1999999097771MD1999999+0121REMSYN076AAXX  19124 82975 32594 53208 10241 20184 39777 40174 81223 333 20203 58012;EQDQ01  00002PRCP99
0167829750999992000091918004-09100-044110FM-12+033199999V0203601N007710450019N0020001N1+03411+01771101171ADDAA199000091GF107991021041008001021031MA1999999097311MD1999999+0121REMSYN070AAXX  19184 82975 32595 73615 10341 20177 39731 40117 82423 333 58012;EQDQ01  00002PRCP99
0202829750999992000092000004-09100-044110FM-12+033199999V0203201N002612200019N0005001N1+02751+01371101261ADDAA199000091GF104991999011008001001001KA1240M+03451MA1999999097341MD1999999-0011REMSYN076AAXX  20004 82975 32593 43205 10275 20137 39734 40126 82100 333 10345 59001;EQDQ01+000022SCOTLCQ02  00002PRCP99
0186829750999992000092012004-09100-044110FM-12+033199999V0202301N005112200019N0010001N1+02391+01751101611ADDAA199000091GF104991011031008001001021KA1240N+02001MA1999999097651MD1999999-0121REMSYN076AAXX  20124 82975 32594 42310 10239 20175 39765 40161 81302 333 20200 59012;EQDQ01  00002PRCP99
0167829750999992000092018004-09100-044110FM-12+033199999V0203601N007711050019N0020001N1+03451+01721101061ADDAA199000091GF106991021041008001011031MA1999999097211MD1999999-0101REMSYN070AAXX  20184 82975 32595 63615 10345 20172 39721 40106 82413 333 59010;EQDQ01  00002PRCP99
0186829750999992000092100004-09100-044110FM-12+033199999V0200501N002612200019N0002001N1+02701+01371101161ADDAA199000091GF103991011021004501001021KA1240M+03481MA1999999097241MD1999999-0101REMSYN076AAXX  21004 82975 32492 30505 10270 20137 39724 40116 81202 333 10348 59010;EQDQ01  00002PRCP99
0202829750999992000092112004-09100-044110FM-12+033199999V0201801N005112200019N0002001N1+02321+01851101511ADDAA199000091GF103991999011008001031011KA1240N+01931MA1999999097541MD1999999-0111REMSYN076AAXX  21124 82975 32592 31810 10232 20185 39754 40151 80131 333 20193 59011;EQDQ01+000002SCOTLCQ02  00002PRCP99
0167829750999992000092118004-09100-044110FM-12+033199999V0203201N003612200019N0005001N1+03311+01641101011ADDAA199000091GF104991011021008001031001MA1999999097151MD1999999-0061REMSYN070AAXX  21184 82975 32593 43207 10331 20164 39715 40101 81230 333 59006;EQDQ01  00002PRCP99
0186829750999992000092212004-09100-044110FM-12+033199999V0200901N004112200019N0005001N1+02431+01791101601ADDAA199000091GF104991011021008001031011KA1240N+02011MA1999999097641MD1999999+0101REMSYN076AAXX  22124 82975 32593 40908 10243 20179 39764 40160 81231 333 20201 58010;EQDQ01  00002PRCP99
0167829750999992000092218004-09100-044110FM-12+033199999V0200501N004112200019N0010001N1+03351+01641101131ADDAA199000091GF103991011001008001031011MA1999999097251MD1999999+0101REMSYN070AAXX  22184 82975 32594 30508 10335 20164 39725 40113 81031 333 58010;EQDQ01  00002PRCP99
0186829750999992000092300004-09100-044110FM-12+033199999V0203201N002612200019N0002001N1+02811+01501101211ADDAA199000091GF103991011001008001021031KA1240M+03431MA1999999097301MD1999999+0011REMSYN076AAXX  23004 82975 32592 33205 10281 20150 39730 40121 81023 333 10343 58001;EQDQ01  00002PRCP99
0186829750999992000092312004-09100-044110FM-12+033199999V0202701N005111050019N0010001N1+02501+01771101461ADDAA199000091GF105991011021008001031021KA1240N+02061MA1999999097511MD1999999-0131REMSYN076AAXX  23124 82975 32594 52710 10250 20177 39751 40146 81232 333 20206 59013;EQDQ01  00002PRCP99
0183829750999992000092318004-09100-044110FM-12+033199999V0200901N003612200019N0002001N1+03411+01641100891ADDAA199000091GF103991999011008001001001MA1999999097041MD1999999-0121REMSYN070AAXX  23184 82975 32592 30907 10341 20164 39704 40089 82100 333 59012;EQDQ01+000022SCOTLCQ02  00002PRCP99
0202829750999992000092400004-09100-044110FM-12+033199999V0203601N002612200019N0002001N1+02831+01631101011ADDAA199000091GF104991999011008001001001KA1240M+03461MA1999999097101MD1999999-0201REMSYN076AAXX  24004 82975 32592 43605 10283 20163 39710 40101 82100 333 10346 59020;EQDQ01+000022SCOTLCQ02  00002PRCP99
0186829750999992000092412004-09100-044110FM-12+033199999V0200901N008212200019N0005001N1+02531+01781101351ADDAA199000091GF104991011021008001011031KA1240N+02091MA1999999097411MD1999999-0101REMSYN076AAXX  24124 82975 32593 40916 10253 20178 39741 40135 81213 333 20209 59010;EQDQ01  00002PRCP99
0167829750999992000092418004-09100-044110FM-12+033199999V0201401N003612200019N0002001N1+03471+01861100851ADDAA199000091GF103991021001008001031021MA1999999097011MD1999999-0031REMSYN070AAXX  24184 82975 32592 31407 10347 20186 39701 40085 82032 333 59003;EQDQ01  00002PRCP99
0186829750999992000092500004-09100-044110FM-12+033199999V0201801N002612200019N0005001N1+03011+01841100971ADDAA199000091GF103991021011008001001031KA1240M+03561MA1999999097081MD1999999-0021REMSYN076AAXX  25004 82975 32593 31805 10301 20184 39708 40097 82103 333 10356 59002;EQDQ01  00002PRCP99
0183829750999992000092518004-09100-044110FM-12+033199999V0201401N004112200019N0002001N1+03711+01851100881ADDAA199000091GF103991999011008001031021MA1999999097041MD1999999+0031REMSYN070AAXX  25184 82975 32592 31408 10371 20185 39704 40088 80132 333 58003;EQDQ01+000002SCOTLCQ02  00002PRCP99
0186829750999992000092612004-09100-044110FM-12+033199999V0201801N005111050019N0010001N1+02711+01781101541ADDAA199000091GF106991021011008001051031KA1240N+02181MA1999999097611MD1999999+0161REMSYN076AAXX  26124 82975 32594 61810 10271 20178 39761 40154 82153 333 20218 58016;EQDQ01  00002PRCP99
0186829750999992000092700004-09100-044110FM-12+033199999V0202301N008210450019N0040001N1+02941+01791101241ADDAA199000091GF107991021021008001051031KA1240M+03581MA1999999097341MD1999999+0201REMSYN076AAXX  27004 82975 32596 72316 10294 20179 39734 40124 82253 333 10358 58020;EQDQ01  00002PRCP99
0186829750999992000092712004-09100-044110FM-12+033199999V0202701N008210450019N0010001N1+02311+01681101671ADDAA199000091GF107991011031008001041021KA1240N+01951MA1999999097701MD1999999+0091REMSYN076AAXX  27124 82975 32594 72716 10231 20168 39770 40167 81342 333 20195 58009;EQDQ01  00002PRCP99
0167829750999992000092718004-09100-044110FM-12+033199999V0203601N004110450019N0010001N1+03311+01761101071ADDAA199000091GF106991021011008001031021MA1999999097211MD1999999+0081REMSYN070AAXX  27184 82975 32594 63608 10331 20176 39721 40107 82132 333 58008;EQDQ01  00002PRCP99
0186829750999992000092800004-09100-044110FM-12+033199999V0201401N002611050019N0010001N1+02831+01701101201ADDAA199000091GF105991021011008001041031KA1240M+03461MA1999999097301MD1999999-0041REMSYN076AAXX  28004 82975 32594 51405 10283 20170 39730 40120 82143 333 10346 59004;EQDQ01  00002PRCP99
0186829750999992000092812004-09100-044110FM-12+033199999V0201801N005112200019N0005001N1+02411+01681101681ADDAA199000091GF104991021011008001031021KA1240N+02031MA1999999097711MD1999999+0011REMSYN076AAXX  28124 82975 32593 41810 10241 20168 39771 40168 82132 333 20203 58001;EQDQ01  00002PRCP99
0167829750999992000092818004-09100-044110FM-12+033199999V0203201N004110450019N0010001N1+03321+01641101181ADDAA199000091GF106991021031008001041021MA1999999097301MD1999999+0091REMSYN070AAXX  28184 82975 32594 63208 10332 20164 39730 40118 82342 333 58009;EQDQ01  00002PRCP99
0186829750999992000092900004-09100-044110FM-12+033199999V0202301N002612200019N0005001N1+02861+01681101221ADDAA199000091GF104991011021008001001041KA1240M+03491MA1999999097321MD1999999+0021REMSYN076AAXX  29004 82975 32593 42305 10286 20168 39732 40122 81204 333 10349 58002;EQDQ01  00002PRCP99
0186829750999992000092912004-09100-044110FM-12+033199999V0200901N008210450019N0040001N1+02251+01881101721ADDAA199000091GF107991031021008001051031KA1240N+01911MA1999999097741MD1999999+0031REMSYN076AAXX  29124 82975 32596 70916 10225 20188 39774 40172 83253 333 20191 58003;EQDQ01  00002PRCP99
0167829750999992000092918004-09100-044110FM-12+033199999V0202301N003610450019N0020001N1+03191+02011101121ADDAA199000091GF107991021031008001041021MA1999999097251MD1999999-0051REMSYN070AAXX  29184 82975 32595 72307 10319 20201 39725 40112 82342 333 59005;EQDQ01  00002PRCP99
0202829750999992000093000004-09100-044110FM-12+033199999V0201801N002619999999N0010001N1+02821+01831101251ADDAA199000091GF107991999021008001001001KA1240M+03291MA1999999097341MD1999999+0021REMSYN076AAXX  30004 82975 32594 71805 10282 20183 39734 40125 83200 333 10329 58002;EQDQ01+000032SCOTLCQ02  00002PRCP99
0186829750999992000093012004-09100-044110FM-12+033199999V0200501N008211050019N0005001N1+02411+01911101691ADDAA199000091GF105991021011008001021041KA1240N+02011MA1999999097721MD1999999-0021REMSYN076AAXX  30124 82975 32593 50516 10241 20191 39772 40169 82124 333 20201 59002;EQDQ01  00002PRCP99
0167829750999992000093018004-09100-044110FM-12+033199999V0201401N002610450019N0010001N1+03101+01641101171ADDAA199000091GF107991031051008001031021MA1999999097301MD1999999+0051REMSYN070AAXX  30184 82975 32594 71405 10310 20164 39730 40117 83532 333 58005;EQDQ01  00002PRCP99
0186829750999992000100100004-09100-044110FM-12+033199999V0202701N002612200019N0005001N1+02711+01751101251ADDAA199000091GF104991021011008001021041KA1240M+03251MA1999999097331MD1999999-0011REMSYN076AAXX  01004 82975 32593 42705 10271 20175 39733 40125 82124 333 10325 59001;EQDQ01  00002PRCP99
0202829750999992000100112004-09100-044110FM-12+033199999V0202301N000512200019N0005001N1+02631+01931101691ADDAA199000091GF104991999011008001001001KA1240N+01751MA1999999097751MD1999999+0031REMSYN076AAXX  01124 82975 32593 42301 10263 20193 39775 40169 82100 333 20175 58003;EQDQ01+000022SCOTLCQ02  00002PRCP99
0183829750999992000100118004-09100-044110FM-12+033199999V0203201N004119999999N0020001N1+03411+02071101211ADDAA199000091GF106991999011008001001001MA1999999097351MD1999999+0051REMSYN070AAXX  01184 82975 32595 63208 10341 20207 39735 40121 82100 333 58005;EQDQ01+000022SCOTLCQ02  00002PRCP99
0186829750999992000100212004-09100-044110FM-12+033199999V0201801N003611050019N0010001N1+02511+01841101491ADDAA199000091GF106991021031008001021041KA1240N+02091MA1999999097541MD1999999-0211REMSYN076AAXX  02124 82975 32594 61807 10251 20184 39754 40149 82324 333 20209 59021;EQDQ01  00002PRCP99
0202829750999992000100300004-09100-044110FM-12+033199999V0203201N002612200019N0005001N1+02911+02021101101ADDAA199000091GF104991999011008001031021KA1240M+03451MA1999999097301MD1999999-0101REMSYN076AAXX  03004 82975 32593 43205 10291 20202 39730 40110 80132 333 10345 59010;EQDQ01+000002SCOTLCQ02  00002PRCP99
0186829750999992000100312004-09100-044110FM-12+033199999V0202301N003612200019N0010001N1+02641+01931101381ADDAA199000091GF104991021011008001041021KA1240N+02141MA1999999097451MD1999999-0091REMSYN076AAXX  03124 82975 32594 42307 10264 20193 39745 40138 82142 333 20214 59009;EQDQ01  00002PRCP99
0167829750999992000100318004-09100-044110FM-12+033199999V0203601N003610450019N0040001N1+03241+02001100911ADDAA199000091GF107991021031008001051021MA1999999097051MD1999999-0101REMSYN070AAXX  03184 82975 32596 73607 10324 20200 39705 40091 82352 333 59010;EQDQ01  00002PRCP99
0202829750999992000100400004-09100-044110FM-12+033199999V0203201N002619999999N0010001N1+02931+01951101031ADDAA199000091GF106991999021008001001001KA1240M+03481MA1999999097141MD1999999-0061REMSYN076AAXX  04004 82975 32594 63205 10293 20195 39714 40103 81200 333 10348 59006;EQDQ01+000012SCOTLCQ02  00002PRCP99
0186829750999992000100412004-09100-044110FM-12+033199999V0202301N003612200019N0002001N1+02661+02021101431ADDAA199000091GF103991011021004501001021KA1240N+02171MA1999999097501MD1999999+0051REMSYN076AAXX  04124 82975 32492 32307 10266 20202 39750 40143 81202 333 20217 58005;EQDQ01  00002PRCP99
0167829750999992000100418004-09100-044110FM-12+033199999V0202701N004110450019N0020001N1+03431+02061100801ADDAA199000091GF107991021041008001031021MA1999999096961MD1999999-0091REMSYN070AAXX  04184 82975 32595 72708 10343 20206 39696 40080 82432 333 59009;EQDQ01  00002PRCP99
0186829750999992000100500004-09100-044110FM-12+033199999V0201801N012910450019N0040001N1+02611+02141101001ADDAA199000091GF107991021031008001021041KA1240M+03471MA1999999097161MD1999999+0021REMSYN076AAXX  05004 82975 32596 71825 10261 20214 39716 40100 82324 333 10347 58002;EQDQ01  00002PRCP99
0186829750999992000100512004-09100-044110FM-12+033199999V0200901N006710450019N0010001N1+02451+01921101361ADDAA199000091GF106991031021008001051031KA1240N+02061MA1999999097491MD1999999-0011REMSYN076AAXX  05124 82975 32594 60913 10245 20192 39749 40136 83253 333 20206 59001;EQDQ01  00002PRCP99
0183829750999992000100518004-09100-044110FM-12+033199999V0201401N003612200019N0005001N1+03501+01941100691ADDAA199000091GF103991999011008001031021MA1999999097001MD1999999+0041REMSYN070AAXX  05184 82975 32593 31407 10350 20194 39700 40069 80132 333 58004;EQDQ01+000002SCOTLCQ02  00002PRCP99
0220829750999992000100600004-09100-044110FM-12+033199999V0201801N008210450019N0010001N1+02011+01781101241ADDAA102005191AY161061AY261061GF108991021031008001051031KA1240M+03541MA1999999097301MD1999999+0141MW1221REMSYN088AAXX  06004 82975 21594 81816 10201 20178 39730 40124 72266 82353 333 10354 58014 60056;EQDQ01+000002PRSWM1
0173829750999992000100612004-09100-044110FM-12+033199999V0202301N003611050019N0010001N1+02311+01921101241ADDAA124005191GF105991021011008001041021KA1240N+02021MA1999999097351MD1999999-0141REMSYN082AAXX  06124 82975 22594 52307 10231 20192 39735 40124 82142 333 20202 59014 60054;
0167829750999992000100618004-09100-044110FM-12+033199999V0201401N002612200019N0002001N1+03411+01761100601ADDAA199000091GF103991011001008001041021MA1999999096901MD1999999-0101REMSYN070AAXX  06184 82975 32592 31405 10341 20176 39690 40060 81042 333 59010;EQDQ01  00002PRCP99
0202829750999992000100700004-09100-044110FM-12+033199999V0203601N002612200019N0005001N1+03031+01751100761ADDAA199000091GF104991999011008001031021KA1240M+03471MA1999999097001MD1999999-0301REMSYN076AAXX  07004 82975 32593 43605 10303 20175 39700 40076 80132 333 10347 59030;EQDQ01+000002SCOTLCQ02  00002PRCP99
0202829750999992000100712004-09100-044110FM-12+033199999V0202301N002619999999N0020001N1+02791+01981101261ADDAA199000091GF106991999011008001001001KA1240N+02281MA1999999097451MD1999999+0101REMSYN076AAXX  07124 82975 32595 62305 10279 20198 39745 40126 82100 333 20228 58010;EQDQ01+000022SCOTLCQ02  00002PRCP99
0183829750999992000100718004-09100-044110FM-12+033199999V0200501N005119999999N0040001N1+03311+01841101021ADDAA199000091GF107991999021008001001001MA1999999097511MD1999999+0251REMSYN070AAXX  07184 82975 32596 70510 10331 20184 39751 40102 83200 333 58025;EQDQ01+000032SCOTLCQ02  00002PRCP99
0202829750999992000100800004-09100-044110FM-12+033199999V0203201N002619999999N0020001N1+02611+02061100971ADDAA199000091GF107991999021008001001001KA1240M+03381MA1999999097141MD1999999+0141REMSYN076AAXX  08004 82975 32595 73205 10261 20206 39714 40097 84200 333 10338 58014;EQDQ01+000042SCOTLCQ02  00002PRCP99
0186829750999992000100812004-09100-044110FM-12+033199999V0202301N002611050019N0010001N1+02611+01841101451ADDAA199000091GF105991021031008001011021KA1240N+02141MA1999999097601MD1999999+0151REMSYN076AAXX  08124 82975 32594 52305 10261 20184 39760 40145 82312 333 20214 58015;EQDQ01  00002PRCP99
0167829750999992000100818004-09100-044110FM-12+033199999V0201801N005111050019N0020001N1+03511+01721100741ADDAA199000091GF106991021041008001011031MA1999999097051MD1999999-0101REMSYN070AAXX  08184 82975 32595 61810 10351 20172 39705 40074 82413 333 59010;EQDQ01  00002PRCP99
0186829750999992000100912004-09100-044110FM-12+033199999V0201801N003612200019N0005001N1+02711+01861101441ADDAA199000091GF104991021011008001031021KA1240N+02171MA1999999097601MD1999999+0081REMSYN076AAXX  09124 82975 32593 41807 10271 20186 39760 40144 82132 333 20217 58008;EQDQ01  00002PRCP99
0167829750999992000100918004-09100-044110FM-12+033199999V0200901N006712200019N0002001N1+03431+01741100841ADDAA199000091GF103991011001008001021031MA1999999097141MD1999999+0091REMSYN070AAXX  09184 82975 32592 30913 10343 20174 39714 40084 81023 333 58009;EQDQ01  00002PRCP99
0202829750999992000101000004-09100-044110FM-12+033199999V0203601N002612200019N0005001N1+02831+01501101041ADDAA199000091GF104991999021008001001001KA1240M+03461MA1999999097241MD1999999+0051REMSYN076AAXX  10004 82975 32593 43605 10283 20150 39724 40104 81200 333 10346 58005;EQDQ01+000012SCOTLCQ02  00002PRCP99
0202829750999992000101012004-09100-044110FM-12+033199999V0202701N006712200019N0005001N1+02611+01821101251ADDAA199000091GF104991999011008001021041KA1240N+02081MA1999999097411MD1999999-0191REMSYN076AAXX  10124 82975 32593 42713 10261 20182 39741 40125 80124 333 20208 59019;EQDQ01+000002SCOTLCQ02  00002PRCP99
0167829750999992000101018004-09100-044110FM-12+033199999V0200501N003612200019N0005001N1+03521+01741100691ADDAA199000091GF104991011001008001031021MA1999999097001MD1999999-0141REMSYN070AAXX  10184 82975 32593 40507 10352 20174 39700 40069 81032 333 59014;EQDQ01  00002PRCP99
0186829750999992000101100004-09100-044110FM-12+033199999V0203601N002612200019N0002001N1+02821+01551100941ADDAA199000091GF103991011001008001021041KA1240M+03591MA1999999097141MD1999999-0101REMSYN076AAXX  11004 82975 32592 33605 10282 20155 39714 40094 81024 333 10359 59010;EQDQ01  00002PRCP99
0186829750999992000101112004-09100-044110FM-12+033199999V0202701N004112200019N0002001N1+02601+01711101401ADDAA199000091GF103991011031004501001021KA1240N+02051MA1999999097551MD1999999+0141REMSYN076AAXX  11124 82975 32492 32708 10260 20171 39755 40140 81302 333 20205 58014;EQDQ01  00002PRCP99
0167829750999992000101118004-09100-044110FM-12+033199999V0203201N003611050019N0020001N1+03511+01571100691ADDAA199000091GF106991021041008001011031MA1999999097001MD1999999+0001REMSYN070AAXX  11184 82975 32595 63207 10351 20157 39700 40069 82413 333 58000;EQDQ01  00002PRCP99
0202829750999992000101200004-09100-044110FM-12+033199999V0202701N004119999999N0010001N1+02911+01401100931ADDAA199000091GF106991999011008001001001KA1240M+03631MA1999999097151MD1999999+0011REMSYN076AAXX  12004 82975 32594 62708 10291 20140 39715 40093 82100 333 10363 58001;EQDQ01+000022SCOTLCQ02  00002PRCP99
0180829750999992000101212004-09100-044110FM-12+033199999V0200901N008212200019N0005001N1+99999+99999101361ADDAA199000091GF104991011021008001001041KA1240N+02011MA1999999097501MD1999999-0051REMSYN070AAXX  12124 82975 32593 40916 20178 39750 40136 81204 333 20201 59005;EQDQ01  00002PRCP99
0183829750999992000101218004-09100-044110FM-12+033199999V0200501N003612200019N0002001N1+03421+01781100891ADDAA199000091GF103991999011008001021031MA1999999097031MD1999999+0031REMSYN070AAXX  12184 82975 32592 30507 10342 20178 39703 40089 80123 333 58003;EQDQ01+000002SCOTLCQ02  00002PRCP99
0186829750999992000101300004-09100-044110FM-12+033199999V0201401N002610450019N0010001N1+02901+01591100981ADDAA199000091GF106991011031008001041021KA1240M+03601MA1999999097191MD1999999+0041REMSYN076AAXX  13004 82975 32594 61405 10290 20159 39719 40098 81342 333 10360 58004;EQDQ01  00002PRCP99
0186829750999992000101312004-09100-044110FM-12+033199999V0201801N004112200019N0010001N1+02641+01801101461ADDAA199000091GF103991011001008001021031KA1240N+02101MA1999999097621MD1999999+0121REMSYN076AAXX  13124 82975 32594 31808 10264 20180 39762 40146 81023 333 20210 58012;EQDQ01  00002PRCP99
0167829750999992000101318004-09100-044110FM-12+033199999V0203201N008210450019N0020001N1+03601+01721100791ADDAA199000091GF106991021041008001031021MA1999999097101MD1999999+0071REMSYN070AAXX  13184 82975 32595 63216 10360 20172 39710 40079 82432 333 58007;EQDQ01  00002PRCP99
0167829750999992000101418004-09100-044110FM-12+033199999V0203201N002612200019N0002001N1+03661+01671100831ADDAA199000091GF103991011021004501001021MA1999999097141MD1999999+0041REMSYN070AAXX  14184 82975 32492 33205 10366 20167 39714 40083 81202 333 58004;EQDQ01  00002PRCP99
0186829750999992000101500004-09100-044110FM-12+033199999V0201801N002611050019N0005001N1+02911+01201101041ADDAA199000091GF105991021031008001011021KA1240M+03691MA1999999097251MD1999999+0011REMSYN076AAXX  15004 82975 32593 51805 10291 20120 39725 40104 82312 333 10369 58001;EQDQ01  00002PRCP99
0202829750999992000101512004-09100-044110FM-12+033199999V0201801N002612200019N0005001N1+02611+01891101291ADDAA199000091GF104991999021008001031021KA1240N+02121MA1999999097451MD1999999-0081REMSYN076AAXX  15124 82975 32593 41805 10261 20189 39745 40129 80232 333 20212 59008;EQDQ01+000002SCOTLCQ02  00002PRCP99
0167829750999992000101518004-09100-044110FM-12+033199999V0202701N006710450019N0010001N1+03511+01631100741ADDAA199000091GF105991021041008001011001MA1999999097051MD1999999-0091REMSYN070AAXX  15184 82975 32594 52713 10351 20163 39705 40074 82410 333 59009;EQDQ01  00002PRCP99
0202829750999992000101600004-09100-044110FM-12+033199999V0203601N003619999999N0010001N1+02911+01201100871ADDAA199000091GF106991999021008001001001KA1240M+03641MA1999999097091MD1999999-0161REMSYN076AAXX  16004 82975 32594 63607 10291 20120 39709 40087 83200 333 10364 59016;EQDQ01+000032SCOTLCQ02  00002PRCP99
0202829750999992000101612004-09100-044110FM-12+033199999V0200901N005119999999N0010001N1+02711+01801101481ADDAA199000091GF105991999021008001041021KA1240N+02161MA1999999097641MD1999999+0191REMSYN076AAXX  16124 82975 32594 50910 10271 20180 39764 40148 80242 333 20216 58019;EQDQ01+000002SCOTLCQ02  00002PRCP99
0167829750999992000101618004-09100-044110FM-12+033199999V0203201N005119999999N0010001N1+03531+01831100901ADDAA199000091GF105991011001008001051021MA1999999097201MD1999999+0151REMSYN070AAXX  16184 82975 32594 53210 10353 20183 39720 40090 81052 333 58015;EQDQ01  00002PRCP99
0202829750999992000101700004-09100-044110FM-12+033199999V0202301N002612200019N0005001N1+03101+01661101001ADDAA199000091GF104991999011008001021031KA1240M+03681MA1999999097241MD1999999+0151REMSYN076AAXX  17004 82975 32593 42305 10310 20166 39724 40100 80123 333 10368 58015;EQDQ01+000002SCOTLCQ02  00002PRCP99
0186829750999992000101712004-09100-044110FM-12+033199999V0202701N006712200019N0005001N1+02631+01861101551ADDAA199000091GF104991011031008001021031KA1240N+02101MA1999999097701MD1999999+0061REMSYN076AAXX  17124 82975 32593 42713 10263 20186 39770 40155 81323 333 20210 58006;EQDQ01  00002PRCP99
0183829750999992000101718004-09100-044110FM-12+033199999V0201401N002612200019N0002001N1+03501+01841101121ADDAA199000091GF103991999021008001001031MA1999999097251MD1999999+0051REMSYN070AAXX  17184 82975 32592 31405 10350 20184 39725 40112 80203 333 58005;EQDQ01+000002SCOTLCQ02  00002PRCP99
0202829750999992000101800004-09100-044110FM-12+033199999V0200901N003619999999N0005001N1+03021+01691101121ADDAA199000091GF105991999021008001031011KA1240M+03651MA1999999097341MD1999999+0101REMSYN076AAXX  18004 82975 32593 50907 10302 20169 39734 40112 80231 333 10365 58010;EQDQ01+000002SCOTLCQ02  00002PRCP99
0186829750999992000101812004-09100-044110FM-12+033199999V0203601N003612200019N0002001N1+02611+01831101651ADDAA199000091GF103991021031004501001011KA1240N+02071MA1999999097791MD1999999+0091REMSYN076AAXX  18124 82975 32492 33607 10261 20183 39779 40165 82301 333 20207 58009;EQDQ01  00002PRCP99
0183829750999992000101818004-09100-044110FM-12+033199999V0202301N000519999999N0005001N1+03711+01811100941ADDAA199000091GF105991999031008001001001MA1999999097241MD1999999-0011REMSYN070AAXX  18184 82975 32593 52301 10371 20181 39724 40094 82300 333 59001;EQDQ01+000022SCOTLCQ02  00002PRCP99
0186829750999992000101900004-09100-044110FM-12+033199999V0209999C000011050019N0020001N1+03021+01301101091ADDAA199000091GF106991021041008001021031KA1240M+03791MA1999999097311MD1999999+0031REMSYN076AAXX  19004 82975 32595 60000 10302 20130 39731 40109 82423 333 10379 58003;EQDQ01  00002PRCP99
0186829750999992000101912004-09100-044110FM-12+033199999V0201801N005112200019N0005001N1+02701+01861101371ADDAA199000091GF104991011001008001031021KA1240N+02131MA1999999097541MD1999999-0251REMSYN076AAXX  19124 82975 32593 41810 10270 20186 39754 40137 81032 333 20213 59025;EQDQ01  00002PRCP99
0167829750999992000101918004-09100-044110FM-12+033199999V0202301N000512200019N0010001N1+03711+01711100781ADDAA199000091GF102991021011008001001001MA1999999097091MD1999999-0151REMSYN070AAXX  19184 82975 32594 22301 10371 20171 39709 40078 82100 333 59015;EQDQ01  00002PRCP99
0186829750999992000102000004-09100-044110FM-12+033199999V0202301N002612200019N0002001N1+03011+01291100921ADDAA199000091GF104991011031004501001021KA1240M+03781MA1999999097151MD1999999-0161REMSYN076AAXX  20004 82975 32492 42305 10301 20129 39715 40092 81302 333 10378 59016;EQDQ01  00002PRCP99
0202829750999992000102012004-09100-044110FM-12+033199999V0200501N004119999999N0010001N1+02631+01901101291ADDAA199000091GF105991999021008001041031KA1240N+02081MA1999999097451MD1999999-0091REMSYN076AAXX  20124 82975 32594 50508 10263 20190 39745 40129 80243 333 20208 59009;EQDQ01+000002SCOTLCQ02  00002PRCP99
0183829750999992000102018004-09100-044110FM-12+033199999V0203601N003612200019N0002001N1+03731+01901100731ADDAA199000091GF103991999021008001001031MA1999999097051MD1999999-0041REMSYN070AAXX  20184 82975 32592 33607 10373 20190 39705 40073 80203 333 59004;EQDQ01+000002SCOTLCQ02  00002PRCP99
0189829750999992000102100004-09100-044110FM-12+033199999V0201401N002612200019N0005001N1+03101+01581100751ADDAA199000091GF104991999021008001041011MA1999999097001MD1999999-0151REMSYN076AAXX  21004 82975 32593 41405 10310 20158 39700 40075 80241 333 03825 59015;EQDQ01+000002SCOTLCQ02  00002PRCP99
0186829750999992000102112004-09100-044110FM-12+033199999V0201801N002611050019N0010001N1+02841+01881101141ADDAA199000091GF106991011021008001051031KA1240N+02141MA1999999097351MD1999999-0101REMSYN076AAXX  21124 82975 32594 61805 10284 20188 39735 40114 81253 333 20214 59010;EQDQ01  00002PRCP99
0183829750999992000102118004-09100-044110FM-12+033199999V0203201N003619999999N0005001N1+03431+01741100531ADDAA199000091GF105991999031008001021041MA1999999096851MD1999999-0201REMSYN070AAXX  21184 82975 32593 53207 10343 20174 39685 40053 80324 333 59020;EQDQ01+000002SCOTLCQ02  00002PRCP99
0186829750999992000102200004-09100-044110FM-12+033199999V0200901N004111050019N0010001N1+02921+02011100721ADDAA199000091GF106991021011008001031031KA1240M+03561MA1999999096941MD1999999-0061REMSYN076AAXX  22004 82975 32594 60908 10292 20201 39694 40072 82133 333 10356 59006;EQDQ01  00002PRCP99
0220829750999992000102212004-09100-044110FM-12+033199999V0201801N002610450019N0040001N1+01811+01721101361ADDAA124004191AY161061AY261061GF107991021041008001031021KA1240N+01531MA1999999097391MD1999999+0041MW1221REMSYN088AAXX  22124 82975 21596 71805 10181 20172 39739 40136 72266 82432 333 20153 58004 60044;EQDQ01+000002PRSWM1
0148829750999992000102218004-09100-044110FM-12+033199999V0201801N003610450019N0020001N1+02621+02031100831ADDAA199000021GF107991021041008001031031MA1999999097001MD1999999+0151REMSYN070AAXX  22184 82975 32595 71807 10262 20203 39700 40083 82433 333 58015;
0167829750999992000102300004-09100-044110FM-12+033199999V0201801N002610450019N0010001N1+02431+02111100881ADDAA199000021GF106991011031008001041021KA1240M+03031MA1999999097031MD1999999-0091REMSYN076AAXX  23004 82975 32594 61805 10243 20211 39703 40088 81342 333 10303 59009;
0186829750999992000102312004-09100-044110FM-12+033199999V0209999C000010450019N0020001N1+02311+02091101371ADDAA199000091GF106991021031008001051021KA1240N+01821MA1999999097471MD1999999+0081REMSYN076AAXX  23124 82975 32595 60000 10231 20209 39747 40137 82352 333 20182 58008;EQDQ01  00002PRCP99
0183829750999992000102318004-09100-044110FM-12+033199999V0200901N005119999999N0005001N1+02751+01891100851ADDAA199000091GF106991999021008001001001MA1999999097051MD1999999+0051REMSYN070AAXX  23184 82975 32593 60910 10275 20189 39705 40085 81200 333 58005;EQDQ01+000012SCOTLCQ02  00002PRCP99
0186829750999992000102400004-09100-044110FM-12+033199999V0200901N002611050019N0005001N1+02411+02031100971ADDAA199000091GF105991021031008001011021KA1240M+03011MA1999999097101MD1999999+0071REMSYN076AAXX  24004 82975 32593 50905 10241 20203 39710 40097 82312 333 10301 58007;EQDQ01  00002PRCP99
0186829750999992000102412004-09100-044110FM-12+033199999V0200501N003611050019N0010001N1+02321+01871101301ADDAA199000091GF106991021031008001051031KA1240N+01871MA1999999097411MD1999999-0061REMSYN076AAXX  24124 82975 32594 60507 10232 20187 39741 40130 82353 333 20187 59006;EQDQ01  00002PRCP99
0167829750999992000102418004-09100-044110FM-12+033199999V0202701N004111050019N0020001N1+03311+01721100721ADDAA199000091GF106991011021008001041031MA1999999097001MD1999999-0051REMSYN070AAXX  24184 82975 32595 62708 10331 20172 39700 40072 81243 333 59005;EQDQ01  00002PRCP99
0186829750999992000102500004-09100-044110FM-12+033199999V0203201N002610450019N0040001N1+02611+01711100871ADDAA199000091GF107991021031008001041031KA1240M+03391MA1999999097041MD1999999-0061REMSYN076AAXX  25004 82975 32596 73205 10261 20171 39704 40087 82343 333 10339 59006;EQDQ01  00002PRCP99
0186829750999992000102512004-09100-044110FM-12+033199999V0200901N002610450019N0010001N1+02431+01811101171ADDAA199000091GF107991021031008001021051KA1240N+01961MA1999999097301MD1999999-0111REMSYN076AAXX  25124 82975 32594 70905 10243 20181 39730 40117 82325 333 20196 59011;EQDQ01  00002PRCP99
0183829750999992000102518004-09100-044110FM-12+033199999V0201801N004119999999N0040001N1+03341+01581100611ADDAA199000091GF107991999011008001001001MA1999999096911MD1999999-0071REMSYN070AAXX  25184 82975 32596 71808 10334 20158 39691 40061 82100 333 59007;EQDQ01+000022SCOTLCQ02  00002PRCP99
0186829750999992000102600004-09100-044110FM-12+033199999V0202301N003610450019N0010001N1+02841+01601100731ADDAA199000091GF107991021041008001031051KA1240M+03451MA1999999096951MD1999999-0091REMSYN076AAXX  26004 82975 32594 72307 10284 20160 39695 40073 82435 333 10345 59009;EQDQ01  00002PRCP99
0186829750999992000102612004-09100-044110FM-12+033199999V0201801N004110450019N0005001N1+02621+01781101151ADDAA199000091GF107991031021008001051031KA1240N+02061MA1999999097311MD1999999+0011REMSYN076AAXX  26124 82975 32593 71808 10262 20178 39731 40115 83253 333 20206 58001;EQDQ01  00002PRCP99
0167829750999992000102618004-09100-044110FM-12+033199999V0203201N004110450019N0020001N1+03101+01701100631ADDAA199000091GF107991021031008001041021MA1999999096891MD1999999-0021REMSYN070AAXX  26184 82975 32595 73208 10310 20170 39689 40063 82342 333 59002;EQDQ01  00002PRCP99
0202829750999992000102700004-09100-044110FM-12+033199999V0201401N002612200019N0005001N1+02851+01821100721ADDAA199000091GF104991999011008001031021KA1240M+03481MA1999999096941MD1999999-0011REMSYN076AAXX  27004 82975 32593 41405 10285 20182 39694 40072 80132 333 10348 59001;EQDQ01+000002SCOTLCQ02  00002PRCP99
0186829750999992000102712004-09100-044110FM-12+033199999V0201401N002612200019N0002001N1+02501+01701101281ADDAA199000091GF104991021031008001011021KA1240N+01951MA1999999097421MD1999999+0111REMSYN076AAXX  27124 82975 32592 41405 10250 20170 39742 40128 82312 333 20195 58011;EQDQ01  00002PRCP99
0183829750999992000102718004-09100-044110FM-12+033199999V0203201N002619999999N0005001N1+03361+01691100711ADDAA199000091GF105991999011008001001001MA1999999097001MD1999999-0111REMSYN070AAXX  27184 82975 32593 53205 10336 20169 39700 40071 82100 333 59011;EQDQ01+000022SCOTLCQ02  00002PRCP99
0186829750999992000102800004-09100-044110FM-12+033199999V0202701N002610450019N0010001N1+03001+01571100791ADDAA199000091GF106991011031008001021021KA1240M+03571MA1999999097031MD1999999-0091REMSYN076AAXX  28004 82975 32594 62705 10300 20157 39703 40079 81322 333 10357 59009;EQDQ01  00002PRCP99
0186829750999992000102812004-09100-044110FM-12+033199999V0200501N003610450019N0040001N1+02611+02081101191ADDAA199000091GF107991031021008001051031KA1240N+02041MA1999999097351MD1999999-0071REMSYN076AAXX  28124 82975 32596 70507 10261 20208 39735 40119 83253 333 20204 59007;EQDQ01  00002PRCP99
0167829750999992000102818004-09100-044110FM-12+033199999V0203601N002611050019N0010001N1+03421+01841100731ADDAA199000091GF105991021011008001041021MA1999999096951MD1999999-0051REMSYN070AAXX  28184 82975 32594 53605 10342 20184 39695 40073 82142 333 59005;EQDQ01  00002PRCP99
0186829750999992000102900004-09100-044110FM-12+033199999V0202301N002610450019N0010001N1+02811+01751100801ADDAA199000091GF106991011031008001051021KA1240M+03511MA1999999097001MD1999999-0031REMSYN076AAXX  29004 82975 32594 62305 10281 20175 39700 40080 81352 333 10351 59003;EQDQ01  00002PRCP99
0201829750999992000102912004-09100-044110FM-12+033199999V0200901N003610450019N0040001N1+02211+01951101311ADDAA124001091AY161061AY231061GF107991021031008001051031KA1240N+01901MA1999999097401MD1999999+0051MW1091REMSYN088AAXX  29124 82975 21596 70907 10221 20195 39740 40131 70963 82353 333 20190 58005 60014;
0167829750999992000102918004-09100-044110FM-12+033199999V0201401N002611050019N0010001N1+03311+01781100731ADDAA199000091GF106991021041008001021031MA1999999097001MD1999999+0051REMSYN070AAXX  29184 82975 32594 61405 10331 20178 39700 40073 82423 333 58005;EQDQ01  00002PRCP99
0186829750999992000103000004-09100-044110FM-12+033199999V0201801N002610450019N0010001N1+02501+02001100891ADDAA199000091GF107991011021008001051021KA1240M+03351MA1999999097041MD1999999+0041REMSYN076AAXX  30004 82975 32594 71805 10250 20200 39704 40089 81252 333 10335 58004;EQDQ01  00002PRCP99
0186829750999992000103012004-09100-044110FM-12+033199999V0201801N002610450019N0100001N1+02321+01961101411ADDAA199000091GF108991021031008001041031KA1240N+01961MA1999999097511MD1999999+0111REMSYN076AAXX  30124 82975 32597 81805 10232 20196 39751 40141 82343 333 20196 58011;EQDQ01  00002PRCP99
0183829750999992000103018004-09100-044110FM-12+033199999V0203601N006719999999N0010001N1+03041+01961100801ADDAA199000091GF106991999011008001001001MA1999999097041MD1999999+0041REMSYN070AAXX  30184 82975 32594 63613 10304 20196 39704 40080 82100 333 58004;EQDQ01+000022SCOTLCQ02  00002PRCP99
0186829750999992000103100004-09100-044110FM-12+033199999V0203201N002611050019N0005001N1+02541+02001101021ADDAA199000091GF106991021031008001021041KA1240M+03371MA1999999097181MD1999999+0141REMSYN076AAXX  31004 82975 32593 63205 10254 20200 39718 40102 82324 333 10337 58014;EQDQ01  00002PRCP99
0186829750999992000103112004-09100-044110FM-12+033199999V0200901N006710450019N0010001N1+02611+02011101181ADDAA199000091GF106991031021008001041031KA1240N+02051MA1999999097341MD1999999-0171REMSYN076AAXX  31124 82975 32594 60913 10261 20201 39734 40118 83243 333 20205 59017;EQDQ01  00002PRCP99
0183829750999992000103118004-09100-044110FM-12+033199999V0200501N003619999999N0005001N1+03351+01811100601ADDAA199000091GF106991999021008001001001MA1999999096901MD1999999-0141REMSYN070AAXX  31184 82975 32593 60507 10335 20181 39690 40060 83200 333 59014;EQDQ01+000032SCOTLCQ02  00002PRCP99
0201829750999992000110100004-09100-044110FM-12+033199999V0201401N002610450019N0040001N1+02721+01861100811ADDAA106002091AY161061AY231061GF107991011021008001051031KA1240M+03451MA1999999097001MD1999999-0181MW1091REMSYN088AAXX  01004 82975 21596 71405 10272 20186 39700 40081 70963 81253 333 10345 59018 60021;
0201829750999992000110112004-09100-044110FM-12+033199999V0201801N002610450019N0020001N1+02531+02001101171ADDAA124006191AY161061AY231061GF107991011021008001021051KA1240N+01951MA1999999097311MD1999999-0031MW1091REMSYN088AAXX  01124 82975 21595 71805 10253 20200 39731 40117 70963 81225 333 20195 59003 60064;
0183829750999992000110118004-09100-044110FM-12+033199999V0203601N003619999999N0040001N1+03101+01801100691ADDAA199000091GF107991999021008001001001MA1999999096951MD1999999+0051REMSYN070AAXX  01184 82975 32596 73607 10310 20180 39695 40069 83200 333 58005;EQDQ01+000032SCOTLCQ02  00002PRCP99
0186829750999992000110200004-09100-044110FM-12+033199999V0202701N004110450019N0010001N1+02731+01691100701ADDAA199000091GF106991021011008001041021KA1240M+03241MA1999999096901MD1999999-0101REMSYN076AAXX  02004 82975 32594 62708 10273 20169 39690 40070 82142 333 10324 59010;EQDQ01  00002PRCP99
0186829750999992000110212004-09100-044110FM-12+033199999V0200501N004112200019N0005001N1+02451+01951101091ADDAA199000091GF104991011031008001001021KA1240N+01941MA1999999097231MD1999999+0081REMSYN076AAXX  02124 82975 32593 40508 10245 20195 39723 40109 81302 333 20194 58008;EQDQ01  00002PRCP99
0167829750999992000110218004-09100-044110FM-12+033199999V0202301N004111050019N0010001N1+03511+01631101321ADDAA199000091GF106991021041008001021031MA1999999096751MD1999999-0201REMSYN070AAXX  02184 82975 32594 62308 10351 20163 39675 40132 82423 333 59020;EQDQ01  00002PRCP99
0236829750999992000110300004-09100-044110FM-12+033199999V0200501N004119999999N0100001N1+02011+01871101031ADDAA106008991AY161061AY261061GF108991999021008001001001KA1240M+03541MA1999999097101MD1999999+0201MW1221REMSYN088AAXX  03004 82975 21597 80508 10201 20187 39710 40103 72266 81200 333 10354 58020 60091;EQDQ01+000012SCOTLCQ02+000002PRSWM1
0220829750999992000110312004-09100-044110FM-12+033199999V0200901N002619999999N0040001N1+02011+01921101081ADDAA124015091AY161061AY231061GF108991999021008001001001KA1240N+01841MA1999999097151MD1999999-0081MW1091REMSYN088AAXX  03124 82975 21596 80905 10201 20192 39715 40108 70963 83200 333 20184 59008 60154;EQDQ01+000032SCOTLC
0183829750999992000110318004-09100-044110FM-12+033199999V0203601N002619999999N0100001N1+02711+02061100511ADDAA199000091GF107991999011008001001001MA1999999096711MD1999999-0041REMSYN070AAXX  03184 82975 32597 73605 10271 20206 39671 40051 82100 333 59004;EQDQ01+000022SCOTLCQ02  00002PRCP99
0202829750999992000110400004-09100-044110FM-12+033199999V0201401N002619999999N0010001N1+02511+01981100741ADDAA199000091GF106991999021008001031041KA1240M+03091MA1999999096901MD1999999-0201REMSYN076AAXX  04004 82975 32594 61405 10251 20198 39690 40074 80234 333 10309 59020;EQDQ01+000002SCOTLCQ02  00002PRCP99
0201829750999992000110412004-09100-044110FM-12+033199999V0202701N004110450019N0100001N1+02101+01931100951ADDAA124002091AY161061AY261061GF108991021031008001061031KA1240N+01871MA1999999097041MD1999999-0111MW1221REMSYN088AAXX  04124 82975 21597 82708 10210 20193 39704 40095 72266 82363 333 20187 59011 60024;
0167829750999992000110500004-09100-044110FM-12+033199999V0203201N002610450019N0040001N1+01931+01851100881ADDAA199000021GF108991021041008001051021KA1240M+03001MA1999999096951MD1999999+0051REMSYN076AAXX  05004 82975 32596 83205 10193 20185 39695 40088 82452 333 10300 58005;
0201829750999992000110512004-09100-044110FM-12+033199999V0200901N002610450019N0010001N1+02001+01931101031ADDAA124002091AY161061AY231061GF107991011031008001041051KA1240N+01801MA1999999097101MD1999999+0061MW1091REMSYN088AAXX  05124 82975 21594 70905 10200 20193 39710 40103 70963 81345 333 20180 58006 60024;
0167829750999992000110518004-09100-044110FM-12+033199999V0203601N003611050019N0005001N1+02541+01931100771ADDAA199000091GF106991021031008001021041MA1999999096941MD1999999+0031REMSYN070AAXX  05184 82975 32593 63607 10254 20193 39694 40077 82324 333 58003;EQDQ01  00002PRCP99
0186829750999992000110600004-09100-044110FM-12+033199999V0202301N003610450019N0040001N1+02131+01971100911ADDAA199000091GF107991031041008001031021KA1240M+03061MA1999999097011MD1999999+0061REMSYN076AAXX  06004 82975 32596 72307 10213 20197 39701 40091 83432 333 10306 58006;EQDQ01  00002PRCP99
0186829750999992000110612004-09100-044110FM-12+033199999V0201801N002610450019N0040001N1+02011+01921101031ADDAA199000091GF107991011021008001051031KA1240N+01821MA1999999097101MD1999999+0001REMSYN076AAXX  06124 82975 32596 71805 10201 20192 39710 40103 81253 333 20182 58000;EQDQ01  00002PRCP99
0183829750999992000110618004-09100-044110FM-12+033199999V0203201N003612200019N0005001N1+03011+01961100881ADDAA199000091GF104991999011008001001001MA1999999096951MD1999999+0011REMSYN070AAXX  06184 82975 32593 43207 10301 20196 39695 40088 82100 333 58001;EQDQ01+000022SCOTLCQ02  00002PRCP99
0202829750999992000110700004-09100-044110FM-12+033199999V0201401N002612200019N0010001N1+02711+02031100621ADDAA199000091GF103991999011008001031021KA1240M+03191MA1999999096811MD1999999-0201REMSYN076AAXX  07004 82975 32594 31405 10271 20203 39681 40062 80132 333 10319 59020;EQDQ01+000002SCOTLCQ02  00002PRCP99
0186829750999992000110712004-09100-044110FM-12+033199999V0200901N002610450019N0010001N1+02511+02131100861ADDAA199000091GF107991031021008001051031KA1240N+02031MA1999999097011MD1999999-0091REMSYN076AAXX  07124 82975 32594 70905 10251 20213 39701 40086 83253 333 20203 59009;EQDQ01  00002PRCP99
0182829750999992000110718004-09100-044110FM-12+033199999V0201401N008210450019N0100001N1+02241+02071100571ADDAA106002091AY161061AY231061GF108991021031008001051031MA1999999096701MD1999999-0251MW1091REMSYN082AAXX  07184 82975 21597 81416 10224 20207 39670 40057 70963 82353 333 59025 60021;
0186829750999992000110800004-09100-044110FM-12+033199999V0202301N004110450019N0040001N1+02101+01981100851ADDAA199000091GF107991021031008001041031KA1240M+03041MA1999999096951MD1999999+0141REMSYN076AAXX  08004 82975 32596 72308 10210 20198 39695 40085 82343 333 10304 58014;EQDQ01  00002PRCP99
0201829750999992000110812004-09100-044110FM-12+033199999V0202701N002610450019N0040001N1+02031+01891100861ADDAA124003091AY161061AY231061GF107991011021008001061031KA1240N+01901MA1999999096951MD1999999-0061MW1091REMSYN088AAXX  08124 82975 21596 72705 10203 20189 39695 40086 70963 81263 333 20190 59006 60034;
0201829750999992000110818004-09100-044110FM-12+033199999V0203601N005119999999N0010001N1+02411+02071100281ADDAA106004191AY161061AY231061GF106991999021008001001001MA1999999096441MD1999999-0261MW1091REMSYN082AAXX  08184 82975 21594 63610 10241 20207 39644 40028 70963 83200 333 59026 60041;EQDQ01+000032SCOTLC
0173829750999992000110912004-09100-044110FM-12+033199999V0201801N002610450019N0010001N1+02211+02031100841ADDAA124006191GF107991021031008001041021KA1240N+01951MA1999999096951MD1999999+0001REMSYN082AAXX  09124 82975 22594 71805 10221 20203 39695 40084 82342 333 20195 58000 60064;
0183829750999992000110918004-09100-044110FM-12+033199999V0201801N002619999999N0020001N1+02261+01991100681ADDAA199000091GF107991999011008001001001MA1999999096801MD1999999+0361REMSYN070AAXX  09184 82975 32595 71805 10226 20199 39680 40068 82100 333 58036;EQDQ01+000022SCOTLCQ02  00002PRCP99
0201829750999992000111000004-09100-044110FM-12+033199999V0201401N002610450019N0100001N1+01811+01741100891ADDAA106008991AY161061AY231061GF108991021031008001061031KA1240M+02971MA1999999096941MD1999999+0241MW1091REMSYN088AAXX  10004 82975 21597 81405 10181 20174 39694 40089 70963 82363 333 10297 58024 60091;
0141829750999992000111012004-09100-044110FM-12+033199999V0202301N002611050019N0040001N1+01901+01821101041ADDAY161061AY231061GF106991021041008001021031MA1999999097101MW1091REMSYN066AAXX  10124 82975 21596 62305 10190 20182 39710 40104 70963 82423;
0186829750999992000111100004-09100-044110FM-12+033199999V0200501N008210450019N0020001N1+02021+01921100921ADDAA199000091GF108991021041008001031021KA1240M+02931MA1999999097001MD1999999+0061REMSYN076AAXX  11004 82975 32595 80516 10202 20192 39700 40092 82432 333 10293 58006;EQDQ01  00002PRCP99
0186829750999992000111112004-09100-044110FM-12+033199999V0203601N002610450019N0040001N1+02011+01921101071ADDAA199000091GF108991021051008001021031KA1240N+01821MA1999999097141MD1999999+0041REMSYN076AAXX  11124 82975 32596 83605 10201 20192 39714 40107 82523 333 20182 58004;EQDQ01  00002PRCP99
0182829750999992000111118004-09100-044110FM-12+033199999V0203201N002610450019N0100001N1+01711+01641100971ADDAA106001091AY161061AY261061GF108991021051008001031021MA1999999097001MD1999999+0141MW1221REMSYN082AAXX  11184 82975 21597 83205 10171 20164 39700 40097 72266 82532 333 58014 60011;
0201829750999992000111200004-09100-044110FM-12+033199999V0209999C000010450019N0020001N1+01741+01691101001ADDAA106000591AY161061AY231061GF107991021041008001031021KA1240M+02711MA1999999097041MD1999999+0041MW1091REMSYN088AAXX  12004 82975 21595 70000 10174 20169 39704 40100 70963 82432 333 10271 58004 69961;
0173829750999992000111212004-09100-044110FM-12+033199999V0209999C000010450019N0040001N1+01721+01661101131ADDAA124011991GF108991021051008001031021KA1240N+01611MA1999999097151MD1999999+0011REMSYN082AAXX  12124 82975 22596 80000 10172 20166 39715 40113 82532 333 20161 58001 60124;
0167829750999992000111218004-09100-044110FM-12+033199999V0201801N003610450019N0010001N1+02911+01811100501ADDAA199000091GF106991011041008001031021MA1999999096731MD1999999-0271REMSYN070AAXX  12184 82975 32594 61807 10291 20181 39673 40050 81432 333 59027;EQDQ01  00002PRCP99
0186829750999992000111300004-09100-044110FM-12+033199999V0201801N004110450019N0020001N1+02301+01961100761ADDAA199000091GF107991021031008001041021KA1240M+03101MA1999999096891MD1999999-0151REMSYN076AAXX  13004 82975 32595 71808 10230 20196 39689 40076 82342 333 10310 59015;EQDQ01  00002PRCP99
0167829750999992000111312004-09100-044110FM-12+033199999V0201801N002610450019N0040001N1+02011+01871101131ADDAA199000091GF107991011031008001051021MA1999999097201MD1999999+0051REMSYN070AAXX  13124 82975 32596 71805 10201 20187 39720 40113 81352 333 58005;EQDQ01  00002PRCP99
0183829750999992000111318004-09100-044110FM-12+033199999V0203601N002619999999N0010001N1+02511+01911100721ADDAA199000091GF106991999021008001001001MA1999999096911MD1999999+0181REMSYN070AAXX  13184 82975 32594 63605 10251 20191 39691 40072 83200 333 58018;EQDQ01+000032SCOTLCQ02  00002PRCP99
0186829750999992000111400004-09100-044110FM-12+033199999V0202301N003610450019N0040001N1+02241+02051100881ADDAA199000091GF107991011021008001051031KA1240M+03051MA1999999097001MD1999999+0111REMSYN076AAXX  14004 82975 32596 72307 10224 20205 39700 40088 81253 333 10305 58011;EQDQ01  00002PRCP99
0186829750999992000111412004-09100-044110FM-12+033199999V0202301N002612200019N0005001N1+02211+01941101061ADDAA199000091GF104991021031008001001021KA1240N+01871MA1999999097161MD1999999-0021REMSYN076AAXX  14124 82975 32593 42305 10221 20194 39716 40106 82302 333 20187 59002;EQDQ01  00002PRCP99
0183829750999992000111418004-09100-044110FM-12+033199999V0202301N000519999999N0010001N1+03141+02041100581ADDAA199000091GF105991999011008001001001MA1999999097781MD1999999-0131REMSYN070AAXX  14184 82975 32594 52301 10314 20204 39778 40058 82100 333 59013;EQDQ01+000022SCOTLCQ02  00002PRCP99
0186829750999992000111500004-09100-044110FM-12+033199999V0201801N002610450019N0010001N1+02561+02041100841ADDAA199000091GF106991011031008001021021KA1240M+03231MA1999999097001MD1999999+0001REMSYN076AAXX  15004 82975 32594 61805 10256 20204 39700 40084 81322 333 10323 58000;EQDQ01  00002PRCP99
0186829750999992000111512004-09100-044110FM-12+033199999V0200901N003611050019N0010001N1+02311+01981101081ADDAA199000091GF106991011021008001041031KA1240N+01931MA1999999097191MD1999999+0031REMSYN076AAXX  15124 82975 32594 60907 10231 20198 39719 40108 81243 333 20193 58003;EQDQ01  00002PRCP99
0183829750999992000111518004-09100-044110FM-12+033199999V0203201N002619999999N0005001N1+03151+01971100641ADDAA199000091GF105991999011008001001001MA1999999096901MD1999999+0121REMSYN070AAXX  15184 82975 32593 53205 10315 20197 39690 40064 82100 333 58012;EQDQ01+000022SCOTLCQ02  00002PRCP99
0220829750999992000111600004-09100-044110FM-12+033199999V0203601N004110450019N0100001N1+01911+01781101151ADDAA106032091AY161061AY261061GF108991021031008001061031KA1240M+03261MA1999999097201MD1999999+0201MW1221REMSYN088AAXX  16004 82975 21597 83608 10191 20178 39720 40115 72266 82363 333 10326 58020 60321;EQDQ01+000002PRSWM1
0201829750999992000111612004-09100-044110FM-12+033199999V0201401N002610450019N0040001N1+02101+01931101221ADDAA124033091AY161061AY231061GF107991011031008001051021KA1240N+01841MA1999999097301MD1999999+0111MW1091REMSYN088AAXX  16124 82975 21596 71405 10210 20193 39730 40122 70963 81352 333 20184 58011 60334;
0183829750999992000111618004-09100-044110FM-12+033199999V0202701N004119999999N0010001N1+03181+01871100631ADDAA199000091GF105991999011008001001001MA1999999096901MD1999999+0001REMSYN070AAXX  16184 82975 32594 52708 10318 20187 39690 40063 82100 333 58000;EQDQ01+000022SCOTLCQ02  00002PRCP99
0202829750999992000111700004-09100-044110FM-12+033199999V0201801N002619999999N0005001N1+02611+01761101001ADDAA199000091GF105991999021008001011031KA1240M+03291MA1999999097161MD1999999+0041REMSYN076AAXX  17004 82975 32593 51805 10261 20176 39716 40100 80213 333 10329 58004;EQDQ01+000002SCOTLCQ02  00002PRCP99
0186829750999992000111712004-09100-044110FM-12+033199999V0200501N003611050019N0010001N1+02311+01831101291ADDAA199000091GF105991011021008001031031KA1240N+01921MA1999999097401MD1999999+0101REMSYN076AAXX  17124 82975 32594 50507 10231 20183 39740 40129 81233 333 20192 58010;EQDQ01  00002PRCP99
0183829750999992000111718004-09100-044110FM-12+033199999V0203201N003612200019N0005001N1+03151+01911100641ADDAA199000091GF104991999011008001001001MA1999999096901MD1999999+0001REMSYN070AAXX  17184 82975 32593 43207 10315 20191 39690 40064 82100 333 58000;EQDQ01+000022SCOTLCQ02  00002PRCP99
0186829750999992000111812004-09100-044110FM-12+033199999V0203601N002612200019N0002001N1+02411+01861101381ADDAA199000091GF103991011031008001001021KA1240N+02011MA1999999097501MD1999999+0101REMSYN076AAXX  18124 82975 32592 33605 10241 20186 39750 40138 81302 333 20201 58010;EQDQ01  00002PRCP99
0167829750999992000111818004-09100-044110FM-12+033199999V0202301N002611050019N0010001N1+03101+01871100821ADDAA199000091GF105991021041008001011021MA1999999097111MD1999999+0211REMSYN070AAXX  18184 82975 32594 52305 10310 20187 39711 40082 82412 333 58021;EQDQ01  00002PRCP99
0186829750999992000111900004-09100-044110FM-12+033199999V0202301N002610450019N0010001N1+02451+01481101001ADDAA199000091GF106991011031008001021021KA1240M+03161MA1999999097141MD1999999-0061REMSYN076AAXX  19004 82975 32594 62305 10245 20148 39714 40100 81322 333 10316 59006;EQDQ01  00002PRCP99
0186829750999992000111912004-09100-044110FM-12+033199999V0202701N002612200019N0005001N1+02251+01671101291ADDAA199000091GF104991021031008001001021KA1240N+01891MA1999999097391MD1999999-0111REMSYN076AAXX  19124 82975 32593 42705 10225 20167 39739 40129 82302 333 20189 59011;EQDQ01  00002PRCP99
0167829750999992000111918004-09100-044110FM-12+033199999V0202301N003611050019N0010001N1+03221+01571100781ADDAA199000091GF105991021031008001011021MA1999999097051MD1999999-0061REMSYN070AAXX  19184 82975 32594 52307 10322 20157 39705 40078 82312 333 59006;EQDQ01  00002PRCP99
0186829750999992000112012004-09100-044110FM-12+033199999V0201801N002612200019N0010001N1+02431+01671101381ADDAA199000091GF103991011001008001031021KA1240N+01961MA1999999097511MD1999999+0121REMSYN076AAXX  20124 82975 32594 31805 10243 20167 39751 40138 81032 333 20196 58012;EQDQ01  00002PRCP99
0183829750999992000112018004-09100-044110FM-12+033199999V0203201N000512200019N0040001N1+03141+01691100741ADDAA199000091GF103991999011008001001001MA1999999097001MD1999999-0051REMSYN070AAXX  20184 82975 32596 33201 10314 20169 39700 40074 82100 333 59005;EQDQ01+000022SCOTLCQ02  00002PRCP99
0186829750999992000112100004-09100-044110FM-12+033199999V0201401N002611050019N0010001N1+02511+01801100991ADDAA199000091GF106991011021008001051031KA1240M+03201MA1999999097141MD1999999+0041REMSYN076AAXX  21004 82975 32594 61405 10251 20180 39714 40099 81253 333 10320 58004;EQDQ01  00002PRCP99
0202829750999992000112112004-09100-044110FM-12+033199999V0202301N003619999999N0010001N1+02401+01771101321ADDAA199000091GF105991999021008001001031KA1240N+01901MA1999999097441MD1999999-0071REMSYN076AAXX  21124 82975 32594 52307 10240 20177 39744 40132 80203 333 20190 59007;EQDQ01+000002SCOTLCQ02  00002PRCP99
0183829750999992000112118004-09100-044110FM-12+033199999V0200901N004112200019N0005001N1+03301+01591100711ADDAA199000091GF104991999011008001001001MA1999999097031MD1999999+0031REMSYN070AAXX  21184 82975 32593 40908 10330 20159 39703 40071 82100 333 58003;EQDQ01+000022SCOTLCQ02  00002PRCP99
0202829750999992000112200004-09100-044110FM-12+033199999V0203601N002619999999N0005001N1+02731+01671101021ADDAA199000091GF105991999011008001041021KA1240M+03421MA1999999097201MD1999999+0061REMSYN076AAXX  22004 82975 32593 53605 10273 20167 39720 40102 80142 333 10342 58006;EQDQ01+000002SCOTLCQ02  00002PRCP99
0186829750999992000112212004-09100-044110FM-12+033199999V0200901N003612200019N0005001N1+02511+01771101401ADDAA199000091GF104991011021008001031021KA1240N+02001MA1999999097541MD1999999+0101REMSYN076AAXX  22124 82975 32593 40907 10251 20177 39754 40140 81232 333 20200 58010;EQDQ01  00002PRCP99
0183829750999992000112218004-09100-044110FM-12+033199999V0200501N003612200019N0010001N1+03261+01741100861ADDAA199000091GF104991999011008001001001MA1999999097101MD1999999+0071REMSYN070AAXX  22184 82975 32594 40507 10326 20174 39710 40086 82100 333 58007;EQDQ01+000022SCOTLCQ02  00002PRCP99
0186829750999992000112300004-09100-044110FM-12+033199999V0202701N002610450019N0010001N1+02711+01751101121ADDAA199000091GF106991031021008001041021KA1240M+03351MA1999999097301MD1999999+0101REMSYN076AAXX  23004 82975 32594 62705 10271 20175 39730 40112 83242 333 10335 58010;EQDQ01  00002PRCP99
0183829750999992000112318004-09100-044110FM-12+033199999V0200501N004112200019N0005001N1+03311+01641100861ADDAA199000091GF104991999011008001001001MA1999999097141MD1999999+0041REMSYN070AAXX  23184 82975 32593 40508 10331 20164 39714 40086 82100 333 58004;EQDQ01+000022SCOTLCQ02  00002PRCP99
0186829750999992000112400004-09100-044110FM-12+033199999V0201801N002611050019N0010001N1+02741+01611101041ADDAA199000091GF105991011021008001001031KA1240M+03431MA1999999097231MD1999999-0071REMSYN076AAXX  24004 82975 32594 51805 10274 20161 39723 40104 81203 333 10343 59007;EQDQ01  00002PRCP99
0186829750999992000112412004-09100-044110FM-12+033199999V0202701N002612200019N0002001N1+02251+01841101331ADDAA199000091GF103991011031008001001021KA1240N+01801MA1999999097431MD1999999-0151REMSYN076AAXX  24124 82975 32592 32705 10225 20184 39743 40133 81302 333 20180 59015;EQDQ01  00002PRCP99
0183829750999992000112718004-09100-044110FM-12+033199999V0201401N005119999999N0040001N1+03211+01551100781ADDAA199000091GF106991999011008001001001MA1999999097781MD1999999+0051REMSYN070AAXX  27184 82975 32596 61410 10321 20155 39778 40078 82100 333 58005;EQDQ01+000022SCOTLCQ02  00002PRCP99
0201829750999992000112800004-09100-044110FM-12+033199999V0201801N002610450019N0040001N1+02311+01721101091ADDAA106007191AY161061AY231061GF107991031021008001051031KA1240M+03311MA1999999097201MD1999999+0141MW1091REMSYN088AAXX  28004 82975 21596 71805 10231 20172 39720 40109 70963 83253 333 10331 58014 60071;
0173829750999992000112812004-09100-044110FM-12+033199999V0200901N005110450019N0010001N1+02311+01721101411ADDAA124007191GF107991011021008001041031KA1240N+01871MA1999999097511MD1999999+0101REMSYN082AAXX  28124 82975 22594 70910 10231 20172 39751 40141 81243 333 20187 58010 60074;
0183829750999992000112818004-09100-044110FM-12+033199999V0203601N002612200019N0005001N1+03241+01681100861ADDAA199000091GF104991999021008001001001MA1999999097101MD1999999+0051REMSYN070AAXX  28184 82975 32593 43605 10324 20168 39710 40086 86200 333 58005;EQDQ01+000062SCOTLCQ02  00002PRCP99
0202829750999992000112900004-09100-044110FM-12+033199999V0201401N002619999999N0010001N1+02431+01611101111ADDAA199000091GF106991999021008001051021KA1240M+03371MA1999999097241MD1999999+0041REMSYN076AAXX  29004 82975 32594 61405 10243 20161 39724 40111 80252 333 10337 58004;EQDQ01+000002SCOTLCQ02  00002PRCP99
0186829750999992000112912004-09100-044110FM-12+033199999V0201801N003611050019N0010001N1+02531+01821101361ADDAA199000091GF106991011021008001041031KA1240N+01981MA1999999097501MD1999999-0011REMSYN076AAXX  29124 82975 32594 61807 10253 20182 39750 40136 81243 333 20198 59001;EQDQ01  00002PRCP99
0183829750999992000120118004-09100-044110FM-12+033199999V0200901N003619999999N0040001N1+03251+01781100671ADDAA199000091GF107991999011008001001001MA1999999096951MD1999999-0101REMSYN070AAXX  01184 82975 32596 70907 10325 20178 39695 40067 82100 333 59010;EQDQ01+000022SCOTLCQ02  00002PRCP99
0201829750999992000120200004-09100-044110FM-12+033199999V0201401N002610450019N0010001N1+02511+01911100901ADDAA106002091AY161061AY231061GF107991011021008001051031KA1240M+03371MA1999999097051MD1999999+0011MW1091REMSYN088AAXX  02004 82975 21594 71405 10251 20191 39705 40090 70963 81253 333 10337 58001 60021;
0173829750999992000120212004-09100-044110FM-12+033199999V0203601N002612200019N0005001N1+02401+02111101221ADDAA124002091GF104991021031008001011021KA1240N+01921MA1999999097351MD1999999+0001REMSYN082AAXX  02124 82975 22593 43605 10240 20211 39735 40122 82312 333 20192 58000 60024;
0182829750999992000120218004-09100-044110FM-12+033199999V0201801N004110450019N0020001N1+02011+01931101081ADDAA106014091AY161061AY231061GF106991021041008001031021MA1999999097151MD1999999+0201MW1091REMSYN082AAXX  02184 82975 21595 61808 10201 20193 39715 40108 70963 82432 333 58020 60141;
0186829750999992000120300004-09100-044110FM-12+033199999V0201801N002610450019N0020001N1+02011+01931101131ADDAA199000091GF107991021051008001041021KA1240M+02861MA1999999097201MD1999999+0151REMSYN076AAXX  03004 82975 32595 71805 10201 20193 39720 40113 82542 333 10286 58015;EQDQ01  00002PRCP99
0173829750999992000120312004-09100-044110FM-12+033199999V0203601N003610450019N0040001N1+01991+01921101321ADDAA124014091GF107991021051008001031021KA1240N+01631MA1999999097381MD1999999+0031REMSYN082AAXX  03124 82975 22596 73607 10199 20192 39738 40132 82532 333 20163 58003 60144;
0167829750999992000120318004-09100-044110FM-12+033199999V0203601N005111050019N0010001N1+02901+02071100781ADDAA199000091GF106991021041008001031031MA1999999097001MD1999999-0151REMSYN070AAXX  03184 82975 32594 63610 10290 20207 39700 40078 82433 333 59015;EQDQ01  00002PRCP99
0186829750999992000120400004-09100-044110FM-12+033199999V0200901N002610450019N0005001N1+02431+01881100961ADDAA199000091GF106991011031008001021021KA1240M+03251MA1999999097101MD1999999-0101REMSYN076AAXX  04004 82975 32593 60905 10243 20188 39710 40096 81322 333 10325 59010;EQDQ01  00002PRCP99
0186829750999992000120412004-09100-044110FM-12+033199999V0200901N002610450019N0010001N1+02311+01941101201ADDAA199000091GF107991021031008001041021KA1240N+01791MA1999999097311MD1999999-0071REMSYN076AAXX  04124 82975 32594 70905 10231 20194 39731 40120 82342 333 20179 59007;EQDQ01  00002PRCP99
0183829750999992000120418004-09100-044110FM-12+033199999V0202301N001519999999N0020001N1+03101+02091100821ADDAA199000091GF107991999011008001001001MA1999999096851MD1999999-0101REMSYN070AAXX  04184 82975 32595 72303 10310 20209 39685 40082 82100 333 59010;EQDQ01+000022SCOTLCQ02  00002PRCP99
0147829750999992000120500004-09100-044110FM-12+033199999V0202701N002619999999N0020001N1+99999+99999100911ADDAA199000091GF107991999999008001999999KA1240M+03301MD1999999+0061REMSYN052AAXX  05004 82975 32595 72705 40091 333 10330 58006;EQDQ01  00002PRCP99
0186829750999992000120512004-09100-044110FM-12+033199999V0209999C000010450019N0010001N1+01911+01821101271ADDAA199000091GF107991021041008001021031KA1240N+01581MA1999999097321MD1999999+0011REMSYN076AAXX  05124 82975 32594 70000 10191 20182 39732 40127 82423 333 20158 58001;EQDQ01  00002PRCP99
0183829750999992000120518004-09100-044110FM-12+033199999V0203201N003619999999N0040001N1+03011+02141100801ADDAA199000091GF107991999011008001001001MA1999999097041MD1999999+0191REMSYN070AAXX  05184 82975 32596 73207 10301 20214 39704 40080 82100 333 58019;EQDQ01+000022SCOTLCQ02  00002PRCP99
0186829750999992000120600004-09100-044110FM-12+033199999V0200901N002610450019N0010001N1+02011+01901101161ADDAA199000091GF107991011031008001021041KA1240M+03021MA1999999097231MD1999999+0181REMSYN076AAXX  06004 82975 32594 70905 10201 20190 39723 40116 81324 333 10302 58018;EQDQ01  00002PRCP99
0186829750999992000120612004-09100-044110FM-12+033199999V0203601N003610075019N0200001N1+02471+02091101271ADDAA199000091GF108991081051008001999999KA1240N+01881MA1999999097411MD1999999+0091REMSYN076AAXX  06124 82975 32598 83607 10247 20209 39741 40127 885// 333 20188 58009;EQDQ01  00002PRCP99
0195829750999992000120618004-09100-044110FM-12+033199999V0203201N003610450019N0200001N1+02751+02071101081ADDAA199000091AY101061AY221061GF106991041051008001021001MA1999999097261MD1999999+0021MW1131REMSYN076AAXX  06184 82975 31598 63207 10275 20207 39726 40108 71302 84520 333 58002;EQDQ01  00002PRCP99
0186829750999992000120700004-09100-044110FM-12+033199999V0203201N002612200019N0010001N1+02531+02071101221ADDAA199000091GF104991031001008001031011KA1240M+02911MA1999999097371MD1999999+0141REMSYN076AAXX  07004 82975 32594 43205 10253 20207 39737 40122 83031 333 10291 58014;EQDQ01  00002PRCP99
0186829750999992000120712004-09100-044110FM-12+033199999V0201801N004110450019N0200001N1+02711+02171101371ADDAA199000091GF107991041081008001031999KA1240N+02371MA1999999097541MD1999999+0031REMSYN076AAXX  07124 82975 32598 71808 10271 20217 39754 40137 8483/ 333 20237 58003;EQDQ01  00002PRCP99
0167829750999992000120718004-09100-044110FM-12+033199999V0209999C000010450019N0200001N1+03311+01801100921ADDAA199000091GF107991031081008001021999MA1999999097201MD1999999-0061REMSYN070AAXX  07184 82975 32598 70000 10331 20180 39720 40092 8382/ 333 59006;EQDQ01  00002PRCP99
0186829750999992000120800004-09100-044110FM-12+033199999V0203601N002610450019N0200001N1+02611+02061101441ADDAA199000091GF107991041081008001031999KA1240M+03041MA1999999097591MD1999999+0221REMSYN076AAXX  08004 82975 32598 73605 10261 20206 39759 40144 8483/ 333 10304 58022;EQDQ01  00002PRCP99
0202829750999992000120812004-09100-044110FM-12+033199999V0201801N004119999999N0200001N1+02611+02061101501ADDAA199000091GF107991999021008001001001KA1240N+02031MA1999999097651MD1999999+0111REMSYN076AAXX  08124 82975 32598 71808 10261 20206 39765 40150 84200 333 20203 58011;EQDQ01+000042SCOTLCQ02  00002PRCP99
0167829750999992000120818004-09100-044110FM-12+033199999V0203601N012910450019N0200001N1+02711+01961101161ADDAA199000091GF107991041081008001031001MA1999999097341MD1999999+0131REMSYN070AAXX  08184 82975 32598 73625 10271 20196 39734 40116 84830 333 58013;EQDQ01  00002PRCP99
0166829750999992000120900004-09100-044110FM-12+033199999V0202301N003610450019N0200001N1+02321+01891101531ADDAA199000091GF108991041081008001041031KA1999M+02791MA1999999097631REMSYN070AAXX  09004 82975 32598 82307 10232 20189 39763 40153 84843 333 10279;EQDQ01  00002PRCP99
0186829750999992000120912004-09100-044110FM-12+033199999V0200901N003610450019N0200001N1+02641+02051101481ADDAA199000091GF107991041081008001031021KA1240N+02071MA1999999097641MD1999999-0011REMSYN076AAXX  09124 82975 32598 70907 10264 20205 39764 40148 84832 333 20207 59001;EQDQ01  00002PRCP99
0167829750999992000120918004-09100-044110FM-12+033199999V0200901N003610450019N0200001N1+03411+01681100991ADDAA199000091GF106991041041008001031021MA1999999097281MD1999999-0061REMSYN070AAXX  09184 82975 32598 60907 10341 20168 39728 40099 84432 333 59006;EQDQ01  00002PRCP99
0202829750999992000121000004-09100-044110FM-12+033199999V0201401N002619999999N0100001N1+03011+01641101081ADDAA199000091GF106991999031008001031999KA1240M+03451MA1999999097301MD1999999-0331REMSYN076AAXX  10004 82975 32597 61405 10301 20164 39730 40108 8733/ 333 10345 59033;EQDQ01+000072SCOTLCQ02  00002PRCP99
0202829750999992000121012004-09100-044110FM-12+033199999V0202701N008219999999N0200001N1+02731+02101101261ADDAA199000091GF107991999041008001031999KA1240N+02131MA1999999097431MD1999999-0211REMSYN076AAXX  10124 82975 32598 72716 10273 20210 39743 40126 8843/ 333 20213 59021;EQDQ01+000082SCOTLCQ02  00002PRCP99
0202829750999992000121112004-09100-044110FM-12+033199999V0201801N003619999999N0100001N1+02531+01911101151ADDAA199000091GF106991999021008001001001KA1240N+02071MA1999999097301MD1999999-0131REMSYN076AAXX  11124 82975 32597 61807 10253 20191 39730 40115 83200 333 20207 59013;EQDQ01+000032SCOTLCQ02  00002PRCP99
0167829750999992000121118004-09100-044110FM-12+033199999V0203201N004110450019N0200001N1+03131+01841100751ADDAA199000091GF107991031081008001021999MA1999999097011MD1999999-0141REMSYN070AAXX  11184 82975 32598 73208 10313 20184 39701 40075 8382/ 333 59014;EQDQ01  00002PRCP99
0201829750999992000121200004-09100-044110FM-12+033199999V0202701N002610450019N0200001N1+02211+01821101311ADDAA106021191AY161061AY231061GF108991041081008001041031KA1240M+02941MA1999999097401MD1999999+0251MW1131REMSYN088AAXX  12004 82975 21598 82705 10221 20182 39740 40131 71363 84843 333 10294 58025 60211;
0201829750999992000121218004-09100-044110FM-12+033199999V0201401N003619999999N0200001N1+02101+01741101241ADDAA106007191AY161061AY211061GF108991999051008001001001MA1999999097321MD1999999+0311MW1131REMSYN082AAXX  12184 82975 21598 81407 10210 20174 39732 40124 71361 84500 333 58031 60071;EQDQ01+000042SCOTLC
0201829750999992000121300004-09100-044110FM-12+033199999V0201801N002610450019N0100001N1+02101+01741101371ADDAA106003091AY161061AY211061GF108991041081008001041031KA1240M+02821MA1999999097451MD1999999+0051MW1131REMSYN088AAXX  13004 82975 21597 81805 10210 20174 39745 40137 71361 84843 333 10282 58005 60031;
0173829750999992000121312004-09100-044110FM-12+033199999V0202301N002610450019N0100001N1+02241+01741101411ADDAA124009991GF107991031081008001041021KA1240N+01711MA1999999097501MD1999999-0011REMSYN082AAXX  13124 82975 22597 72305 10224 20174 39750 40141 83842 333 20171 59001 60104;
0167829750999992000121318004-09100-044110FM-12+033199999V0203201N003610450019N0100001N1+02611+01941101051ADDAA199000091GF106991031041008001031021MA1999999097211MD1999999-0111REMSYN070AAXX  13184 82975 32597 63207 10261 20194 39721 40105 83432 333 59011;EQDQ01  00002PRCP99
0186829750999992000121400004-09100-044110FM-12+033199999V0203601N002610450019N0200001N1+02431+01971101171ADDAA199000091GF108991031041008001081031KA1240M+02961MA1999999097301MD1999999-0151REMSYN076AAXX  14004 82975 32598 83605 10243 20197 39730 40117 83483 333 10296 59015;EQDQ01  00002PRCP99
0186829750999992000121412004-09100-044110FM-12+033199999V0202301N004110075019N0200001N1+02361+01991101221ADDAA199000091GF108991081071008001999999KA1240N+01881MA1999999097401MD1999999-0101REMSYN076AAXX  14124 82975 32598 82308 10236 20199 39740 40122 887// 333 20188 59010;EQDQ01  00002PRCP99
0167829750999992000121418004-09100-044110FM-12+033199999V0203201N004110450019N0100001N1+02711+01961100891ADDAA199000091GF108991041081008001041021MA1999999097071MD1999999-0141REMSYN070AAXX  14184 82975 32597 83208 10271 20196 39707 40089 84842 333 59014;EQDQ01  00002PRCP99
0201829750999992000121500004-09100-044110FM-12+033199999V0203201N000510075019N0200001N1+02111+01741101081ADDAA106007191AY131061AY261061GF108991081051008001999999KA1240M+02911MA1999999097161MD1999999-0141MW1031REMSYN088AAXX  15004 82975 21598 83201 10211 20174 39716 40108 70336 885// 333 10291 59014 60071;
0201829750999992000121512004-09100-044110FM-12+033199999V0200901N002610075019N0200001N1+02201+01841101151ADDAA124039991AY161061AY211061GF108991081071008001999999KA1240N+01721MA1999999097251MD1999999-0151MW1031REMSYN088AAXX  15124 82975 21598 80905 10220 20184 39725 40115 70361 887// 333 20172 59015 60404;
0201829750999992000121518004-09100-044110FM-12+033199999V0203601N003610075019N0200001N1+02601+02081100671ADDAA106001091AY161061AY211061GF108991999071008001031999MA1999999096851MD1999999-0221MW1031REMSYN082AAXX  15184 82975 21598 83607 10260 20208 39685 40067 70361 8873/ 333 59022 60011;EQDQ01+000082SCOTLC
0220829750999992000121600004-09100-044110FM-12+033199999V0201801N004110075019N0200001N1+02411+01951100901ADDAA106001091AY161061AY211061GF108991999071008001041999KA1240M+02811MA1999999097041MD1999999-0121MW1031REMSYN088AAXX  16004 82975 21598 81808 10241 20195 39704 40090 70361 8874/ 333 10281 59012 60011;EQDQ01+000082SCOTLC
0220829750999992000121612004-09100-044110FM-12+033199999V0200501N003610075019N0200001N1+02101+01781101161ADDAA124008991AY161061AY211061GF108991999071008001031999KA1240N+01651MA1999999097241MD1999999-0011MW1031REMSYN088AAXX  16124 82975 21598 80507 10210 20178 39724 40116 70361 8873/ 333 20165 59001 60094;EQDQ01+000082SCOTLC
0182829750999992000121618004-09100-044110FM-12+033199999V0201401N003610075019N0200001N1+02401+01991101951ADDAA106003091AY161061AY211061GF108991081071008001999999MA1999999097081MD1999999+0231MW1031REMSYN082AAXX  16184 82975 21598 81407 10240 20199 39708 40195 70361 887// 333 58023 60031;
0201829750999992000121700004-09100-044110FM-12+033199999V0203201N002610075019N0200001N1+02211+01801101201ADDAA106002091AY161061AY211061GF108991081071008001999999KA1240M+02701MA1999999097301MD1999999-0201MW1031REMSYN088AAXX  17004 82975 21598 83205 10221 20180 39730 40120 70361 887// 333 10270 59020 60021;
0201829750999992000121712004-09100-044110FM-12+033199999V0201801N002610075019N0200001N1+02211+01881101351ADDAA124017091AY161061AY211061GF108991081051008001999999KA1240N+01681MA1999999097441MD1999999+0201MW1031REMSYN088AAXX  17124 82975 21598 81805 10221 20188 39744 40135 70361 885// 333 20168 58020 60174;
0182829750999992000121718004-09100-044110FM-12+033199999V0200901N004110450019N0200001N1+02611+02061101041ADDAA106002091AY161061AY231061GF107991041081008001041021MA1999999097201MD1999999+0121MW1031REMSYN082AAXX  17184 82975 21598 70908 10261 20206 39720 40104 70363 84842 333 58012 60021;
0201829750999992000121800004-09100-044110FM-12+033199999V0200901N003610120019N0200001N1+02121+01781101491ADDAA106014091AY161061AY261061GF108991081081008001999999KA1240M+02781MA1999999097561MD1999999+0261MW1031REMSYN088AAXX  18004 82975 21598 80907 10212 20178 39756 40149 70366 888// 333 10278 58026 60141;
0201829750999992000121812004-09100-044110FM-12+033199999V0201801N002610075019N0200001N1+02111+01741101641ADDAA124037191AY161061AY211061GF108991081071008001999999KA1240N+01631MA1999999097701MD1999999+0261MW1031REMSYN088AAXX  18124 82975 21598 81805 10211 20174 39770 40164 70361 887// 333 20163 58026 60374;
0167829750999992000121818004-09100-044110FM-12+033199999V0200501N004110450019N0100001N1+03011+02001101241ADDAA199000091GF106991041081008001041021MA1999999097301MD1999999+0101REMSYN070AAXX  18184 82975 32597 60508 10301 20200 39730 40124 84842 333 58010;EQDQ01  00002PRCP99
0202829750999992000121900004-09100-044110FM-12+033199999V0200501N002619999999N0002001N1+02411+01951101331ADDAA199000091GF106991999021008001001001KA1240M+03131MA1999999097451MD1999999-0111REMSYN076AAXX  19004 82975 32592 60505 10241 20195 39745 40133 84200 333 10313 59011;EQDQ01+000042SCOTLCQ02  00002PRCP99
0186829750999992000121912004-09100-044110FM-12+033199999V0202301N002610450019N0005001N1+02641+01981101441ADDAA199000091GF106991041081008001041999KA1240N+01721MA1999999097601MD1999999-0101REMSYN076AAXX  19124 82975 32593 62305 10264 20198 39760 40144 8484/ 333 20172 59010;EQDQ01  00002PRCP99
0167829750999992000121918004-09100-044110FM-12+033199999V0202701N002610075019N0200001N1+02411+01931101281ADDAA199000091GF108991081071008001999999MA1999999097401MD1999999+0101REMSYN070AAXX  19184 82975 32598 82705 10241 20193 39740 40128 887// 333 58010;EQDQ01  00002PRCP99
0220829750999992000122000004-09100-044110FM-12+033199999V0203201N002619999999N0100001N1+02311+01981101331ADDAA106002091AY161061AY211061GF107991999071008001031999KA1240M+02871MA1999999097441MD1999999-0011MW1031REMSYN088AAXX  20004 82975 21597 73205 10231 20198 39744 40133 70361 8873/ 333 10287 59001 60021;EQDQ01+000082SCOTLC
0192829750999992000122012004-09100-044110FM-12+033199999V0200901N003619999999N0200001N1+02431+02031101591ADDAA124002091GF107991999071008001999999KA1240N+01671MA1999999097701MD1999999+0101REMSYN082AAXX  20124 82975 22598 70907 10243 20203 39770 40159 887// 333 20167 58010 60024;EQDQ01+000082SCOTLC
0201829750999992000122018004-09100-044110FM-12+033199999V0203601N002610075019N0100001N1+02211+01921101311ADDAA106015091AY161061AY211061GF108991999041008001071999MA1999999097401MD1999999+0001MW1031REMSYN082AAXX  20184 82975 21597 83605 10221 20192 39740 40131 70361 8847/ 333 58000 60151;EQDQ01+000082SCOTLC
0201829750999992000122100004-09100-044110FM-12+033199999V0201801N002610075019N0200001N1+02141+01881101531ADDAA106003091AY161061AY211061GF108991081051008001999999KA1240M+02801MA1999999097601MD1999999+0161MW1031REMSYN088AAXX  21004 82975 21598 81805 10214 20188 39760 40153 70361 885// 333 10280 58016 60031;
0173829750999992000122112004-09100-044110FM-12+033199999V0201801N003610075019N0200001N1+02201+01921101781ADDAA124018091GF108991081071008001999999KA1240N+01511MA1999999097851MD1999999+0151REMSYN082AAXX  21124 82975 22598 81807 10220 20192 39785 40178 887// 333 20151 58015 60184;
0183829750999992000122118004-09100-044110FM-12+033199999V0202701N003619999999N0010001N1+03231+02031101081ADDAA199000091GF106991999041008001031021MA1999999097341MD1999999-0061REMSYN070AAXX  21184 82975 32594 62707 10323 20203 39734 40108 87432 333 59006;EQDQ01+000072SCOTLCQ02  00002PRCP99
0202829750999992000122200004-09100-044110FM-12+033199999V0201801N002619999999N0100001N1+02621+02101101341ADDAA199000091GF106991999041008001031999KA1240M+03261MA1999999097491MD1999999-0111REMSYN076AAXX  22004 82975 32597 61805 10262 20210 39749 40134 8743/ 333 10326 59011;EQDQ01+000072SCOTLCQ02  00002PRCP99
0186829750999992000122212004-09100-044110FM-12+033199999V0202301N004110075019N0040001N1+02401+02031101591ADDAA199000091GF107991071041008001031999KA1240N+01681MA1999999097701MD1999999-0151REMSYN076AAXX  22124 82975 32596 72308 10240 20203 39770 40159 8743/ 333 20168 59015;EQDQ01  00002PRCP99
0167829750999992000122218004-09100-044110FM-12+033199999V0200501N004110075019N0200001N1+02631+01941101321ADDAA199000091GF107991071041008001999999MA1999999097451MD1999999-0151REMSYN070AAXX  22184 82975 32598 70508 10263 20194 39745 40132 874// 333 59015;EQDQ01  00002PRCP99
0202829750999992000122300004-09100-044110FM-12+033199999V0203601N002619999999N0100001N1+02731+01971101271ADDAA199000091GF106991999041008001031001KA1240M+03231MA1999999097451MD1999999-0041REMSYN076AAXX  23004 82975 32597 63605 10273 20197 39745 40127 87430 333 10323 59004;EQDQ01+000072SCOTLCQ02  00002PRCP99
0186829750999992000122312004-09100-044110FM-12+033199999V0201801N003610450019N0010001N1+02611+02061101561ADDAA199000091GF106991031031008001041999KA1240N+01761MA1999999097701MD1999999+0001REMSYN076AAXX  23124 82975 32594 61807 10261 20206 39770 40156 8334/ 333 20176 58000;EQDQ01  00002PRCP99
0167829750999992000122318004-09100-044110FM-12+033199999V0201401N004110075019N0010001N1+03011+01881101221ADDAA199000091GF107991051071008001031999MA1999999097441MD1999999-0011REMSYN070AAXX  23184 82975 32594 71408 10301 20188 39744 40122 8573/ 333 59001;EQDQ01  00002PRCP99
0186829750999992000122400004-09100-044110FM-12+033199999V0203601N002612200019N0005001N1+02811+01871101111ADDAA199000091GF104991041031008001041999KA1240M+03271MA1999999097301MD1999999-0151REMSYN076AAXX  24004 82975 32593 43605 10281 20187 39730 40111 8434/ 333 10327 59015;EQDQ01  00002PRCP99
0183829750999992000122518004-09100-044110FM-12+033199999V0201801N003619999999N0010001N1+03041+01841101271ADDAA199000091GF105991999031008001041999MA1999999097451MD1999999+0151REMSYN070AAXX  25184 82975 32594 51807 10304 20184 39745 40127 8734/ 333 58015;EQDQ01+000072SCOTLCQ02  00002PRCP99
0186829750999992000122600004-09100-044110FM-12+033199999V0203601N002610075019N0010001N1+02811+01871101221ADDAA199000091GF106991051041008001031021KA1240M+03191MA1999999097411MD1999999+0171REMSYN076AAXX  26004 82975 32594 63605 10281 20187 39741 40122 85432 333 10319 58017;EQDQ01  00002PRCP99
0167829750999992000122618004-09100-044110FM-12+033199999V0200901N003610075019N0040001N1+03411+01681100961ADDAA199000091GF106991061041008001031021MA1999999097251MD1999999-0201REMSYN070AAXX  26184 82975 32596 60907 10341 20168 39725 40096 86432 333 59020;EQDQ01  00002PRCP99
0196829750999992000122700004-09100-044110FM-12+033199999V0200901N002612200019N0002001N1+02811+01631101211ADDAA199000091GA1001+999999999GF100991001001999999001001KA1240M+03451MA1999999097401MD1999999-0011REMSYN070AAXX  27004 82975 32992 00905 10281 20163 39740 40121 333 10345 59001;EQDQ01  00002PRCP99
0186829750999992000122712004-09100-044110FM-12+033199999V0202301N003612200019N0005001N1+02601+01821101451ADDAA199000091GF104991021031008001021031KA1240N+01791MA1999999097601MD1999999-0021REMSYN076AAXX  27124 82975 32593 42307 10260 20182 39760 40145 82323 333 20179 59002;EQDQ01  00002PRCP99
0167829750999992000122718004-09100-044110FM-12+033199999V0200501N004110450019N0020001N1+03511+01771101031ADDAA199000091GF106991031041008001021031MA1999999097331MD1999999+0081REMSYN070AAXX  27184 82975 32595 60508 10351 20177 39733 40103 83423 333 58008;EQDQ01  00002PRCP99
0202829750999992000122800004-09100-044110FM-12+033199999V0209999C000019999999N0010001N1+02711+01911101231ADDAA199000091GF105991999041008001031021KA1240M+03531MA1999999097401MD1999999+0001REMSYN076AAXX  28004 82975 32594 50000 10271 20191 39740 40123 88432 333 10353 58000;EQDQ01+000082SCOTLCQ02  00002PRCP99
0196829750999992000122812004-09100-044110FM-12+033199999V0200901N002612200019N0002001N1+02611+02011101451ADDAA199000091GA1001+999999999GF100991001001999999001001KA1240N+01811MA1999999097601MD1999999+0001REMSYN070AAXX  28124 82975 32992 00905 10261 20201 39760 40145 333 20181 58000;EQDQ01  00002PRCP99
0167829750999992000122818004-09100-044110FM-12+033199999V0200901N002610450019N0020001N1+03511+01681100991ADDAA199000091GF106991041021008001031021MA1999999097291MD1999999-0031REMSYN070AAXX  28184 82975 32595 60905 10351 20168 39729 40099 84232 333 59003;EQDQ01  00002PRCP99
0186829750999992000122912004-09100-044110FM-12+033199999V0201801N003612200019N0005001N1+02711+01941101361ADDAA199000091GF104991021031008001999021KA1240N+01921MA1999999097531MD1999999-0071REMSYN076AAXX  29124 82975 32593 41807 10271 20194 39753 40136 823/2 333 20192 59007;EQDQ01  00002PRCP99
0167829750999992000122918004-09100-044110FM-12+033199999V0203601N003612200019N0005001N1+03501+01721100911ADDAA199000091GF104991021031008001031999MA1999999097211MD1999999-0081REMSYN070AAXX  29184 82975 32593 43607 10350 20172 39721 40091 8233/ 333 59008;EQDQ01  00002PRCP99
0186829750999992000123000004-09100-044110FM-12+033199999V0201401N002610450019N0010001N1+03031+01831101011ADDAA199000091GF105991031021008001041999KA1240M+03541MA1999999097251MD1999999+0001REMSYN076AAXX  30004 82975 32594 51405 10303 20183 39725 40101 8324/ 333 10354 58000;EQDQ01  00002PRCP99
0196829750999992000123012004-09100-044110FM-12+033199999V0209999C000012200019N0002001N1+02761+01991101271ADDAA199000091GA1001+999999999GF100991001001999999001001KA1240N+01961MA1999999097451MD1999999-0081REMSYN070AAXX  30124 82975 32992 00000 10276 20199 39745 40127 333 20196 59008;EQDQ01  00002PRCP99
0183829750999992000123018004-09100-044110FM-12+033199999V0209999C000019999999N0020001N1+03531+01501100991ADDAA199000091GF106991999041008001999999MA1999999097291MD1999999+0081REMSYN070AAXX  30184 82975 32595 60000 10353 20150 39729 40099 884// 333 58008;EQDQ01+000082SCOTLCQ02  00002PRCP99
0196829750999992000123100004-09100-044110FM-12+033199999V0202301N002612200019N0002001N1+03011+01681101081ADDAA199000091GA1001+999999999GF100991001001999999001001KA1240M+03551MA1999999097301MD1999999+0031REMSYN070AAXX  31004 82975 32992 02305 10301 20168 39730 40108 333 10355 58003;EQDQ01  00002PRCP99
0202829750999992000123112004-09100-044110FM-12+033199999V0202301N003619999999N0200001N1+02481+02131101321ADDAA199000091GF107991999071008001031021KA1240N+01731MA1999999097461MD1999999-0081REMSYN076AAXX  31124 82975 32598 72307 10248 20213 39746 40132 88732 333 20173 59008;EQDQ01+000082SCOTLCQ02  00002PRCP99
0183829750999992000123118004-09100-044110FM-12+033199999V0200501N003619999999N0200001N1+03111+02151101061ADDAA199000091GF107991999041008001031021MA1999999097301MD1999999-0011REMSYN070AAXX  31184 82975 32598 70507 10311 20215 39730 40106 88432 333 59001;EQDQ01+000082SCOTLCQ02  00002PRCP99
