0186829830999992000010112004-09380-040480FM-12+037099999V0200901N003112200019N0200001N1+02641+01661101001ADDAA106000091GF103991999011008001001001KA1240N+02381MA1999999096871MD1999999+0191REMSYN076AAXX  01124 82983 32598 30906 10264 20166 39687 40100 82100 333 20238 58019;EQDQ01  00002PRCP06
0167829830999992000010118004-09380-040480FM-12+037099999V0200501N002612200019N0200001N1+03041+01641100591ADDAA106000091GF103991011021008001021001MA1999999096501MD1999999-0061REMSYN070AAXX  01184 82983 32598 30505 10304 20164 39650 40059 81220 333 59006;EQDQ01  00002PRCP06
0196829830999992000010200004-09380-040480FM-12+037099999V0209999C000012200019N9999999N1+02661+02091100781ADDAA106000091GA1001+999999999GF100991001001999999001001KA1240M+03141MA1999999096661MD1999999-0111REMSYN070AAXX  02004 82983 329// 00000 10266 20209 39666 40078 333 10314 59011;EQDQ01  00002PRCP06
0202829830999992000010212004-09380-040480FM-12+037099999V0200901N004119999999N0020001N1+02561+01951100981ADDAA106000091GF105991999011008001001001KA1240N+02281MA1999999096851MD1999999-0021REMSYN076AAXX  02124 82983 32595 50908 10256 20195 39685 40098 86100 333 20228 59002;EQDQ01+000062SCOTLCQ02  00002PRCP06
0167829830999992000010218004-09380-040480FM-12+037099999V0200901N003110450019N0020001N1+03101+01941100561ADDAA106000091GF105991041011008001011011MA1999999096491MD1999999-0011REMSYN070AAXX  02184 82983 32595 50906 10310 20194 39649 40056 84111 333 59001;EQDQ01  00002PRCP06
0186829830999992000010300004-09380-040480FM-12+037099999V0201401N001512200019N0020001N1+02721+02031100821ADDAA106000091GF103991031011008001001001KA1240M+03141MA1999999096701MD1999999+0041REMSYN076AAXX  03004 82983 32595 31403 10272 20203 39670 40082 83100 333 10314 58004;EQDQ01  00002PRCP06
0186829830999992000010312004-09380-040480FM-12+037099999V0201401N003110450019N0020001N1+02421+01881101051ADDAA106000091GF106991031021008001031001KA1240N+02241MA1999999096911MD1999999+0061REMSYN076AAXX  03124 82983 32595 61406 10242 20188 39691 40105 83230 333 20224 58006;EQDQ01  00002PRCP06
0167829830999992000010318004-09380-040480FM-12+037099999V0200901N003110450019N0020001N1+02901+01841100671ADDAA106000091GF106991041021008001031001MA1999999096571MD1999999+0081REMSYN070AAXX  03184 82983 32595 60906 10290 20184 39657 40067 84230 333 58008;EQDQ01  00002PRCP06
0202829830999992000010400004-09380-040480FM-12+037099999V0200501N001512200019N0020001N1+02601+01991100811ADDAA106000091GF103991999011008001001001KA1240M+02941MA1999999096671MD1999999-0031REMSYN076AAXX  04004 82983 32595 30503 10260 20199 39667 40081 82100 333 10294 59003;EQDQ01+000022SCOTLCQ02  00002PRCP06
0186829830999992000010412004-09380-040480FM-12+037099999V0200901N005110075019N0020001N1+02621+01981101191ADDAA106000091GF106991051021008001031001KA1240N+02331MA1999999097051MD1999999+0141REMSYN076AAXX  04124 82983 32595 60910 10262 20198 39705 40119 85230 333 20233 58014;EQDQ01  00002PRCP06
0167829830999992000010418004-09380-040480FM-12+037099999V0200901N001510450019N0020001N1+03101+01941100691ADDAA106000091GF107991041021008001031001MA1999999096611MD1999999+0041REMSYN070AAXX  04184 82983 32595 70903 10310 20194 39661 40069 84230 333 58004;EQDQ01  00002PRCP06
0186829830999992000010500004-09380-040480FM-12+037099999V0200901N004112200019N0020001N1+02701+01841100941ADDAA106000091GF104991041021008001001001KA1240M+03131MA1999999096811MD1999999+0141REMSYN076AAXX  05004 82983 32595 40908 10270 20184 39681 40094 84200 333 10313 58014;EQDQ01  00002PRCP06
0186829830999992000010512004-09380-040480FM-12+037099999V0200901N003110450019N0020001N1+02541+01911101211ADDAA106000091GF106991041021008001031001KA1240N+02261MA1999999097071MD1999999+0021REMSYN076AAXX  05124 82983 32595 60906 10254 20191 39707 40121 84230 333 20226 58002;EQDQ01  00002PRCP06
0167829830999992000010518004-09380-040480FM-12+037099999V0200901N003110450019N0020001N1+02981+01861100881ADDAA106000091GF106991031021008001031001MA1999999096761MD1999999+0151REMSYN070AAXX  05184 82983 32595 60906 10298 20186 39676 40088 83230 333 58015;EQDQ01  00002PRCP06
0186829830999992000010612004-09380-040480FM-12+037099999V0200901N005110075019N0020001N1+02441+01861101241ADDAA106000091GF108991051021008001031999KA1240N+02261MA1999999097101MD1999999+0031REMSYN076AAXX  06124 82983 32595 80910 10244 20186 39710 40124 8523/ 333 20226 58003;EQDQ01  00002PRCP06
0186829830999992000010700004-09380-040480FM-12+037099999V0200901N002610075019N0020001N1+02661+01871101041ADDAA106000091GF106991061021008001001001KA1240M+02981MA1999999096901MD1999999+0011REMSYN076AAXX  07004 82983 32595 60905 10266 20187 39690 40104 86200 333 10298 58001;EQDQ01  00002PRCP06
0186829830999992000010712004-09380-040480FM-12+037099999V0200901N003110450019N0020001N1+02581+01901101171ADDAA106000091GF106991041021008001031001KA1240N+02271MA1999999097031MD1999999-0071REMSYN076AAXX  07124 82983 32595 60906 10258 20190 39703 40117 84230 333 20227 59007;EQDQ01  00002PRCP06
0167829830999992000010718004-09380-040480FM-12+037099999V0200901N003110450019N0020001N1+03041+01911100821ADDAA106000091GF105991021011008001031001MA1999999096701MD1999999-0051REMSYN070AAXX  07184 82983 32595 50906 10304 20191 39670 40082 82130 333 59005;EQDQ01  00002PRCP06
0202829830999992000010800004-09380-040480FM-12+037099999V0200901N001512200019N0020001N1+02761+01831100821ADDAA106000091GF102991999021008001001001KA1240M+03081MA1999999096701MD1999999-0201REMSYN076AAXX  08004 82983 32595 20903 10276 20183 39670 40082 83200 333 10308 59020;EQDQ01+000032SCOTLCQ02  00002PRCP06
0186829830999992000010812004-09380-040480FM-12+037099999V0200901N003110075019N0020001N1+02541+01881101181ADDAA106000091GF106991061021008001001001KA1240N+02361MA1999999097041MD1999999+0011REMSYN076AAXX  08124 82983 32595 60906 10254 20188 39704 40118 86200 333 20236 58001;EQDQ01  00002PRCP06
0167829830999992000010818004-09380-040480FM-12+037099999V0200901N003110450019N0020001N1+03001+01841100771ADDAA106000091GF105991041011008001011001MA1999999096671MD1999999-0031REMSYN070AAXX  08184 82983 32595 50906 10300 20184 39667 40077 84110 333 59003;EQDQ01  00002PRCP06
0201829830999992000010900004-09380-040480FM-12+037099999V0200901N002610075019N0020001N1+02401+02151101101ADDAA106006191AY151061AY261061GF107991071021008001001001KA1240M+03061MA1999999096941MD1999999+0241MW1211REMSYN088AAXX  09004 82983 21595 70905 10240 20215 39694 40110 72156 87200 333 10306 58024 60061;
0173829830999992000010912004-09380-040480FM-12+037099999V0200901N003110075019N0020001N1+02441+01921101391ADDAA124006191GF106991061021008001001001KA1240N+02281MA1999999097211MD1999999+0171REMSYN082AAXX  09124 82983 22595 60906 10244 20192 39721 40139 86200 333 20228 58017 60064;
0183829830999992000010918004-09380-040480FM-12+037099999V0200901N002610075019N0020001N1+02941+01971100991ADDAA106000091GF107991999021008001001001MA1999999096871MD1999999+0201REMSYN070AAXX  09184 82983 32595 70905 10294 20197 39687 40099 85200 333 58020;EQDQ01+000052SCOTLCQ02  00002PRCP06
0196829830999992000011000004-09380-040480FM-12+037099999V0209999C000012200019N0020001N1+02501+02191101161ADDAA106000091GA1001+999999999GF100991001001999999001001KA1240M+03001MA1999999097001MD1999999+0061REMSYN070AAXX  10004 82983 32995 00000 10250 20219 39700 40116 333 10300 58006;EQDQ01  00002PRCP06
0173829830999992000011012004-09380-040480FM-12+037099999V0200901N003110075019N0020001N1+02541+01861101321ADDAA124000891GF105991051011008001001001KA1240N+02241MA1999999097161MD1999999-0051REMSYN082AAXX  10124 82983 22595 50906 10254 20186 39716 40132 85100 333 20224 59005 69984;
0167829830999992000011018004-09380-040480FM-12+037099999V0200901N003112200019N0020001N1+03061+01661100881ADDAA106000091GF104991041011008001001001MA1999999096781MD1999999-0091REMSYN070AAXX  10184 82983 32595 40906 10306 20166 39678 40088 84100 333 59009;EQDQ01  00002PRCP06
0186829830999992000011100004-09380-040480FM-12+037099999V0200901N002610075019N0020001N1+02741+01781100931ADDAA106000091GF105991051051008001001001KA1240M+03161MA1999999096801MD1999999-0201REMSYN076AAXX  11004 82983 32595 50905 10274 20178 39680 40093 85500 333 10316 59020;EQDQ01  00002PRCP06
0186829830999992000011112004-09380-040480FM-12+037099999V0200901N003110075019N0020001N1+02501+01911101261ADDAA106000091GF106991061011008001001001KA1240N+02221MA1999999097121MD1999999-0041REMSYN076AAXX  11124 82983 32595 60906 10250 20191 39712 40126 86100 333 20222 59004;EQDQ01  00002PRCP06
0167829830999992000011118004-09380-040480FM-12+037099999V0200901N003112200019N0020001N1+03061+01731100841ADDAA106000091GF103991031011008001001001MA1999999096721MD1999999-0061REMSYN070AAXX  11184 82983 32595 30906 10306 20173 39672 40084 83100 333 59006;EQDQ01  00002PRCP06
0196829830999992000011200004-09380-040480FM-12+037099999V0200901N003112200019N0020001N1+02721+01851100851ADDAA106000091GA1001+999999999GF100991001001999999001001KA1240M+03181MA1999999096731MD1999999-0071REMSYN070AAXX  12004 82983 32995 00906 10272 20185 39673 40085 333 10318 59007;EQDQ01  00002PRCP06
0186829830999992000011212004-09380-040480FM-12+037099999V0200501N003110075019N0020001N1+02401+01861101261ADDAA106000091GF108991081021008001999999KA1240N+02261MA1999999097121MD1999999+0001REMSYN076AAXX  12124 82983 32595 80506 10240 20186 39712 40126 882// 333 20226 58000;EQDQ01  00002PRCP06
0167829830999992000011218004-09380-040480FM-12+037099999V0200501N002612200019N0200001N1+03121+01711100811ADDAA106000091GF106991041011008001001011MA1999999096691MD1999999-0031REMSYN070AAXX  12184 82983 32598 60505 10312 20171 39669 40081 84101 333 59003;EQDQ01  00002PRCP06
0186829830999992000011300004-09380-040480FM-12+037099999V0200901N004112200019N0020001N1+02741+01871100941ADDAA106000091GF103991031041008001001001KA1240M+03201MA1999999096801MD1999999+0071REMSYN076AAXX  13004 82983 32595 30908 10274 20187 39680 40094 83400 333 10320 58007;EQDQ01  00002PRCP06
0186829830999992000011312004-09380-040480FM-12+037099999V0200501N003110075019N0020001N1+02521+02001101271ADDAA106000091GF106991061011008001001001KA1240N+02401MA1999999097131MD1999999+0011REMSYN076AAXX  13124 82983 32595 60506 10252 20200 39713 40127 86100 333 20240 58001;EQDQ01  00002PRCP06
0167829830999992000011318004-09380-040480FM-12+037099999V0200501N003110075019N0020001N1+02921+01921100931ADDAA106000091GF108991081021008001999999MA1999999096801MD1999999+0111REMSYN070AAXX  13184 82983 32595 80506 10292 20192 39680 40093 882// 333 58011;EQDQ01  00002PRCP06
0205829830999992000011400004-09380-040480FM-12+037099999V0200901N001510075019N0020001N1+02541+02111100991ADDAA106000591AY151061AY251061GF105991051061008001001001KA1240M+03041MA1999999096851MD1999999+0051MW1011REMSYN092    AAXX  14004 82983 21595 50903 10254 20211 39685 40099 70155 85600 333 10304 58005 69941;
0171829830999992000011412004-09380-040480FM-12+037099999V0200501N003110075019N0020001N1+99999+99999101171ADDAA124000591GF106991061021008001001001KA1240N+02261MA1999999097031MD1999999-0101REMSYN080    AAXX  14124 82983 22595 60506 20202 39703 40117 86200 333 20226 59010 69944;
0171829830999992000011418004-09380-040480FM-12+037099999V0200501N003112200019N0020001N1+03061+01831100801ADDAA199000091GF104991041011008001001001MA1999999096691MD1999999-0111REMSYN074    AAXX  14184 82983 32595 40506 10306 20183 39669 40080 84100 333 59011;EQDQ01  00002PRCP99
0200829830999992000011500004-09380-040480FM-12+037099999V0200901N001512200019N0020001N1+02741+01921100751ADDAA199000091GA1001+999999999GF100991001001999999001001KA1240M+03161MA1999999096631MD1999999-0221REMSYN074    AAXX  15004 82983 32995 00903 10274 20192 39663 40075 333 10316 59022;EQDQ01  00002PRCP99
0200829830999992000011600004-09380-040480FM-12+037099999V0200501N002612200019N0020001N1+02841+01701100721ADDAA199000091GA1001+999999999GF100991001001999999001001KA1240M+03201MA1999999096611MD1999999-0021REMSYN074    AAXX  16004 82983 32995 00505 10284 20170 39661 40072 333 10320 59002;EQDQ01  00002PRCP99
0200829830999992000011612004-09380-040480FM-12+037099999V0200901N003112200019N0020001N1+02641+01801101071ADDAA199000091GA1001+999999999GF100991001001999999001001KA1240N+02281MA1999999096951MD1999999-0091REMSYN074    AAXX  16124 82983 32995 00906 10264 20180 39695 40107 333 20228 59009;EQDQ01  00002PRCP99
0200829830999992000011700004-09380-040480FM-12+037099999V0200901N001512200019N0020001N1+02961+01611100771ADDAA199000091GA1001+999999999GF100991001001999999001001KA1240M+03441MA1999999096691MD1999999+0081REMSYN074    AAXX  17004 82983 32995 00903 10296 20161 39669 40077 333 10344 58008;EQDQ01  00002PRCP99
0190829830999992000011712004-09380-040480FM-12+037099999V0200901N003112200019N0020001N1+02601+01871101151ADDAA199000091GF104991041011008001001001KA1240N+02321MA1999999097051MD1999999+0101REMSYN080    AAXX  17124 82983 32595 40906 10260 20187 39705 40115 84100 333 20232 58010;EQDQ01  00002PRCP99
0190829830999992000011800004-09380-040480FM-12+037099999V0200901N002612200019N0020001N1+03001+01531100941ADDAA199000091GF104991041011008001001001KA1240M+03381MA1999999096851MD1999999+0161REMSYN080    AAXX  18004 82983 32595 40905 10300 20153 39685 40094 84100 333 10338 58016;EQDQ01  00002PRCP99
0190829830999992000011812004-09380-040480FM-12+037099999V0200501N003110075019N0020001N1+02621+02101101581ADDAA199000091GF108991081051008001999999KA1240N+02541MA1999999097211MD1999999+0161REMSYN080    AAXX  18124 82983 32595 80506 10262 20210 39721 40158 885// 333 20254 58016;EQDQ01  00002PRCP99
0190829830999992000011900004-09380-040480FM-12+037099999V0209999C000012200019N0020001N1+02941+01941100891ADDAA199000091GF104991021011008001021001KA1240M+03441MA1999999096801MD1999999-0051REMSYN080    AAXX  19004 82983 32595 40000 10294 20194 39680 40089 82120 333 10344 59005;EQDQ01  00002PRCP99
0190829830999992000011912004-09380-040480FM-12+037099999V0200901N001510075019N0020001N1+02841+02091101241ADDAA199000091GF108991081051008001999999KA1240N+02561MA1999999097141MD1999999-0071REMSYN080    AAXX  19124 82983 32595 80903 10284 20209 39714 40124 885// 333 20256 59007;EQDQ01  00002PRCP99
0186829830999992000012000004-09380-040480FM-12+037099999V0202701N002612200019N0020001N1+02741+02071100921ADDAA199000091GF104991021011008001021001KA1240M+03321MA1999999096831MD1999999+0031REMSYN076AAXX  20004 82983 32595 42705 10274 20207 39683 40092 82120 333 10332 58003;EQDQ01  00002PRCP99
0201829830999992000012012004-09380-040480FM-12+037099999V0200501N002610075019N0020001N1+02301+02161101241ADDAA124005191AY161061AY251061GF108991081061008001999999KA1240N+02301MA1999999097091MD1999999-0051MW1611REMSYN088AAXX  20124 82983 21595 80505 10230 20216 39709 40124 76165 886// 333 20230 59005 60054;
0186829830999992000012100004-09380-040480FM-12+037099999V0202701N001519999999N0020001N1+02661+02021100931ADDAA199000021GF106991999011008001001001KA1240M+03161MA1999999096781MD1999999-0051REMSYN076AAXX  21004 82983 32595 62703 10266 20202 39678 40093 82100 333 10316 59005;EQDQ01+000022SCOTLC
0186829830999992000012112004-09380-040480FM-12+037099999V0200901N005110075019N0020001N1+02441+01861101241ADDAA199000091GF108991051021008001031999KA1240N+02261MA1999999097101MD1999999+0031REMSYN076AAXX  21124 82983 32595 80910 10244 20186 39710 40124 8523/ 333 20226 58003;EQDQ01  00002PRCP99
0201829830999992000012200004-09380-040480FM-12+037099999V0200901N001510075019N0020001N1+02461+02151101231ADDAA106002091AY151061AY251061GF106991061021008001001001KA1240M+02721MA1999999097071MD1999999+0291MW1031REMSYN088AAXX  22004 82983 21595 60903 10246 20215 39707 40123 70355 86200 333 10272 58029 60021;
0173829830999992000012212004-09380-040480FM-12+037099999V0202301N001510075019N0020001N1+02381+02151101341ADDAA124001091GF107991071061008001001001KA1240N+02201MA1999999097161MD1999999+0031REMSYN082AAXX  22124 82983 22595 72303 10238 20215 39716 40134 87600 333 20220 58003 60014;
0186829830999992000012300004-09380-040480FM-12+037099999V0201801N001510075019N0020001N1+02681+02161101091ADDAA199000091GF107991071021008001001001KA1240M+03261MA1999999096941MD1999999-0131REMSYN076AAXX  23004 82983 32595 71803 10268 20216 39694 40109 87200 333 10326 59013;EQDQ01  00002PRCP99
0201829830999992000012312004-09380-040480FM-12+037099999V0200901N001510075019N0020001N1+02381+02091101271ADDAA124021191AY161061AY251061GF105991051011008001001001KA1240N+02101MA1999999097131MD1999999-0031MW1011REMSYN088AAXX  23124 82983 21595 50903 10238 20209 39713 40127 70165 85100 333 20210 59003 60214;
0201829830999992000012400004-09380-040480FM-12+037099999V0209999C000012200019N0020001N1+02461+02171101081ADDAA106007191AY151061AY261061GF103991031021008001001001KA1240M+03141MA1999999096921MD1999999-0061MW1011REMSYN088AAXX  24004 82983 21595 30000 10246 20217 39692 40108 70156 83200 333 10314 59006 60071;
0173829830999992000012412004-09380-040480FM-12+037099999V0200901N001510075019N0020001N1+02641+02231101191ADDAA124007191GF107991071021008001001001KA1240N+02361MA1999999097051MD1999999-0081REMSYN082AAXX  24124 82983 22595 70903 10264 20223 39705 40119 87200 333 20236 59008 60074;
0186829830999992000012500004-09380-040480FM-12+037099999V0209999C000010075019N0020001N1+02401+02261101291ADDAA199000091GF106991061061008001001001KA1240M+02841MA1999999097141MD1999999+0221REMSYN076AAXX  25004 82983 32595 60000 10240 20226 39714 40129 86600 333 10284 58022;EQDQ01  00002PRCP99
0220829830999992000012512004-09380-040480FM-12+037099999V0202701N001510450019N0020001N1+02421+02191101331ADDAA124023191AY151061AY291061GF105991041011008001021001KA1240N+02081MA1999999097151MD1999999+0101MW1651REMSYN088AAXX  25124 82983 21595 52703 10242 20219 39715 40133 76559 84120 333 20208 58010 60234;EQDQ01+000652PRSWM1
0177829830999992000012600004-09380-040480FM-12+037099999V0209999C000012200019N9999999N1+02681+02241101001ADDAA199000021GA1001+999999999GF100991001001999999001001KA1240M+03101MA1999999096861MD1999999-0251REMSYN070AAXX  26004 82983 329// 00000 10268 20224 39686 40100 333 10310 59025;
0186829830999992000012612004-09380-040480FM-12+037099999V0200501N003110075019N0020001N1+02541+02151101401ADDAA199000091GF108991081051008001999999KA1240N+02361MA1999999097251MD1999999+0151REMSYN076AAXX  26124 82983 32595 80506 10254 20215 39725 40140 885// 333 20236 58015;EQDQ01  00002PRCP99
0196829830999992000012700004-09380-040480FM-12+037099999V0209999C000012200019N0020001N1+02781+02231101031ADDAA199000091GA1001+999999999GF100991001001999999001001KA1240M+03201MA1999999096901MD1999999+0041REMSYN070AAXX  27004 82983 32995 00000 10278 20223 39690 40103 333 10320 58004;EQDQ01  00002PRCP99
0186829830999992000012712004-09380-040480FM-12+037099999V0200901N001512200019N0020001N1+02741+02211101281ADDAA199000091GF104991041011008001001001KA1240N+02401MA1999999097171MD1999999-0081REMSYN076AAXX  27124 82983 32595 40903 10274 20221 39717 40128 84100 333 20240 59008;EQDQ01  00002PRCP99
0186829830999992000012800004-09380-040480FM-12+037099999V0200901N003112200019N0020001N1+02681+01631101181ADDAA199000091GF102991021011008001001001KA1240M+03361MA1999999096991MD1999999+0091REMSYN076AAXX  28004 82983 32595 20906 10268 20163 39699 40118 82100 333 10336 58009;EQDQ01  00002PRCP99
0186829830999992000012812004-09380-040480FM-12+037099999V0202301N002610075019N0020001N1+02681+02131101331ADDAA199000091GF105991051011008001001001KA1240N+02341MA1999999097191MD1999999+0021REMSYN076AAXX  28124 82983 32595 52305 10268 20213 39719 40133 85100 333 20234 58002;EQDQ01  00002PRCP99
0201829830999992000012900004-09380-040480FM-12+037099999V0202701N002610075019N0020001N1+02381+02151100991ADDAA106010991AY161061AY261061GF108991081071008001999999KA1240M+03301MA1999999096851MD1999999-0141MW1921REMSYN088AAXX  29004 82983 21595 82705 10238 20215 39685 40099 79266 887// 333 10330 59014 60111;
0192829830999992000012912004-09380-040480FM-12+037099999V0200901N001019999999N0020001N1+02541+99999101371ADDAA124010991GF105991999011008001001001KA1240N+02341MA1999999097201MD1999999+0011REMSYN082AAXX  29124 82983 22595 50902 10254 20297 39720 40137 82100 333 20234 58001 60114;EQDQ01+000022SCOTLC
0196829830999992000013000004-09380-040480FM-12+037099999V0200901N001512200019N0020001N1+02781+01911101091ADDAA199000091GA1001+999999999GF100991001001999999001001KA1240M+03261MA1999999096951MD1999999+0101REMSYN070AAXX  30004 82983 32995 00903 10278 20191 39695 40109 333 10326 58010;EQDQ01  00002PRCP99
0186829830999992000013012004-09380-040480FM-12+037099999V0200501N004112200019N0020001N1+02621+01911101481ADDAA199000091GF104991041011008001001001KA1240N+02361MA1999999097341MD1999999+0141REMSYN076AAXX  30124 82983 32595 40508 10262 20191 39734 40148 84100 333 20236 58014;EQDQ01  00002PRCP99
0186829830999992000013100004-09380-040480FM-12+037099999V0200901N001512200019N0020001N1+02841+01791101171ADDAA199000091GF102991021011008001001001KA1240M+03261MA1999999097051MD1999999+0101REMSYN076AAXX  31004 82983 32595 20903 10284 20179 39705 40117 82100 333 10326 58010;EQDQ01  00002PRCP99
0186829830999992000013112004-09380-040480FM-12+037099999V0200901N004110075019N0020001N1+02461+01831101721ADDAA199000091GF106991061011008001001001KA1240N+02261MA1999999097561MD1999999+0221REMSYN076AAXX  31124 82983 32595 60908 10246 20183 39756 40172 86100 333 20226 58022;EQDQ01  00002PRCP99
0186829830999992000020112004-09380-040480FM-12+037099999V0200901N004112200019N0020001N1+02561+01951101661ADDAA199000091GF104991041011008001001001KA1240N+02281MA1999999097521MD1999999-0041REMSYN076AAXX  01124 82983 32595 40908 10256 20195 39752 40166 84100 333 20228 59004;EQDQ01  00002PRCP99
0196829830999992000020200004-09380-040480FM-12+037099999V0200901N001512200019N0020001N1+02841+01821101081ADDAA199000091GA1001+999999999GF100991001001999999001001KA1240M+03261MA1999999096951MD1999999-0201REMSYN070AAXX  02004 82983 32995 00903 10284 20182 39695 40108 333 10326 59020;EQDQ01  00002PRCP99
0196829830999992000020212004-09380-040480FM-12+037099999V0200501N002612200019N0020001N1+02801+02111101271ADDAA199000091GA1001+999999999GF100991001001999999001001KA1240N+02281MA1999999097161MD1999999-0361REMSYN070AAXX  02124 82983 32995 00505 10280 20211 39716 40127 333 20228 59036;EQDQ01  00002PRCP99
0196829830999992000020300004-09380-040480FM-12+037099999V0202601N003112200019N0020001N1+02861+01901101271ADDAA199000091GA1001+999999999GF100991001001999999001001KA1240M+03501MA1999999096901MD1999999-0051REMSYN070AAXX  03004 82983 32995 02606 10286 20190 39690 40127 333 10350 59005;EQDQ01  00002PRCP99
0186829830999992000020312004-09380-040480FM-12+037099999V0200501N002610075019N0020001N1+02721+02081101161ADDAA199000091GF105991051021008001001001KA1240N+02381MA1999999097061MD1999999-0061REMSYN076AAXX  03124 82983 32595 50505 10272 20208 39706 40116 85200 333 20238 59006;EQDQ01  00002PRCP99
0186829830999992000020400004-09380-040480FM-12+037099999V0202701N002610075019N0020001N1+02721+02221100921ADDAA199000091GF105991051061008001001001KA1240M+03181MA1999999096861MD1999999-0041REMSYN076AAXX  04004 82983 32595 52705 10272 20222 39686 40092 85600 333 10318 59004;EQDQ01  00002PRCP99
0201829830999992000020412004-09380-040480FM-12+037099999V0203601N003110075019N0020001N1+02261+02121101371ADDAA124015091AY191061AY261061GF108991081051008001999999KA1240N+02281MA1999999097211MD1999999+0151MW1601REMSYN088AAXX  04124 82983 21595 83606 10226 20212 39721 40137 76096 885// 333 20228 58015 60154;
0201829830999992000020500004-09380-040480FM-12+037099999V0209999C000010075019N0020001N1+02361+02261101301ADDAA106025991AY191061AY261061GF108991081051008001999999KA1240M+02481MA1999999097121MD1999999+0261MW1031REMSYN088AAXX  05004 82983 21595 80000 10236 20226 39712 40130 70396 885// 333 10248 58026 60261;
0173829830999992000020512004-09380-040480FM-12+037099999V0203201N001510450019N0020001N1+02561+02171101431ADDAA124025991GF106991041021008001031001KA1240N+02211MA1999999097261MD1999999+0051REMSYN082AAXX  05124 82983 22595 63203 10256 20217 39726 40143 84230 333 20221 58005 60264;
0201829830999992000020612004-09380-040480FM-12+037099999V0200901N001512200019N0200001N1+02641+02031101441ADDAA124015091AY161061AY261061GF104991041021008001001001KA1240N+02201MA1999999097281MD1999999+0021MW1031REMSYN088AAXX  06124 82983 21598 40903 10264 20203 39728 40144 70366 84200 333 20220 58002 60154;
0186829830999992000020700004-09380-040480FM-12+037099999V0201801N001510075019N0020001N1+02681+02301101161ADDAA199000091GF105991051021008001001001KA1240M+03201MA1999999097021MD1999999-0081REMSYN076AAXX  07004 82983 32595 51803 10268 20230 39702 40116 85200 333 10320 59008;EQDQ01  00002PRCP99
0201829830999992000020712004-09380-040480FM-12+037099999V0200901N003112200019N0020001N1+02601+02101101421ADDAA106000891AY151061AY251061GF101991011011008001001001KA1240N+02301MA1999999097281MD1999999+0001MW1011REMSYN088AAXX  07124 82983 21595 10906 10260 20210 39728 40142 70155 81100 333 20230 58000 69981;
0196829830999992000020800004-09380-040480FM-12+037099999V0200901N001512200019N0020001N1+02741+02021101211ADDAA199000091GA1001+999999999GF100991001001999999001001KA1240M+03221MA1999999097071MD1999999+0051REMSYN070AAXX  08004 82983 32995 00903 10274 20202 39707 40121 333 10322 58005;EQDQ01  00002PRCP99
0202829830999992000020812004-09380-040480FM-12+037099999V0200901N002612200019N0020001N1+02661+01791101451ADDAA199000091GF102991999001008001011001KA1240N+02221MA1999999097311MD1999999+0031REMSYN076AAXX  08124 82983 32595 20905 10266 20179 39731 40145 80010 333 20222 58003;EQDQ01+000002SCOTLCQ02  00002PRCP99
0186829830999992000020900004-09380-040480FM-12+037099999V0200901N001512200019N0020001N1+02741+01971101141ADDAA199000091GF103991031021008001001001KA1240M+03161MA1999999097011MD1999999-0061REMSYN076AAXX  09004 82983 32595 30903 10274 20197 39701 40114 83200 333 10316 59006;EQDQ01  00002PRCP99
0186829830999992000020912004-09380-040480FM-12+037099999V0200901N004112200019N0020001N1+02601+01961101401ADDAA199000091GF102991021011008001001001KA1240N+02341MA1999999097261MD1999999-0051REMSYN076AAXX  09124 82983 32595 20908 10260 20196 39726 40140 82100 333 20234 59005;EQDQ01  00002PRCP99
0186829830999992000021000004-09380-040480FM-12+037099999V0200901N001510075019N0020001N1+02801+01721101051ADDAA199000091GF105991051061008001001001KA1240M+03201MA1999999096931MD1999999-0081REMSYN076AAXX  10004 82983 32595 50903 10280 20172 39693 40105 85600 333 10320 59008;EQDQ01  00002PRCP99
0186829830999992000021012004-09380-040480FM-12+037099999V0200901N003110075019N0020001N1+02501+01981101381ADDAA199000091GF106991061041008001001001KA1240N+02261MA1999999097241MD1999999-0021REMSYN076AAXX  10124 82983 32595 60906 10250 20198 39724 40138 86400 333 20226 59002;EQDQ01  00002PRCP99
0201829830999992000021100004-09380-040480FM-12+037099999V0200501N003110075019N0020001N1+02541+02061101241ADDAA106003091AY151061AY261061GF108991081051008001999999KA1240M+03101MA1999999097091MD1999999+0161MW1601REMSYN088AAXX  11004 82983 21595 80506 10254 20206 39709 40124 76056 885// 333 10310 58016 60031;
0173829830999992000021112004-09380-040480FM-12+037099999V0200501N003110075019N0020001N1+02501+02111101391ADDAA124003091GF108991081051008001999999KA1240N+02401MA1999999097231MD1999999-0011REMSYN082AAXX  11124 82983 22595 80506 10250 20211 39723 40139 885// 333 20240 59001 60034;
0186829830999992000021200004-09380-040480FM-12+037099999V0200501N001510075019N0020001N1+02861+01811101081ADDAA199000091GF106991061021008001001001KA1240M+03181MA1999999096951MD1999999-0141REMSYN076AAXX  12004 82983 32595 60503 10286 20181 39695 40108 86200 333 10318 59014;EQDQ01  00002PRCP99
0186829830999992000021212004-09380-040480FM-12+037099999V0200501N005110075019N0020001N1+02481+01801101391ADDAA199000091GF106991061021008001001001KA1240N+02171MA1999999097251MD1999999+0081REMSYN076AAXX  12124 82983 32595 60510 10248 20180 39725 40139 86200 333 20217 58008;EQDQ01  00002PRCP99
0196829830999992000021300004-09380-040480FM-12+037099999V0200901N001512200019N0020001N1+02701+01541100951ADDAA199000091GA1001+999999999GF100991001001999999001001KA1240M+03171MA1999999096821MD1999999-0131REMSYN070AAXX  13004 82983 32595 00903 10270 20154 39682 40095 333 10317 59013;EQDQ01  00002PRCP99
0186829830999992000021312004-09380-040480FM-12+037099999V0200901N003110075019N0020001N1+02541+01761101351ADDAA199000091GF106991061011008001001001KA1240N+02241MA1999999097201MD1999999-0051REMSYN076AAXX  13124 82983 32595 60906 10254 20176 39720 40135 86100 333 20224 59005;EQDQ01  00002PRCP99
0186829830999992000021400004-09380-040480FM-12+037099999V0200901N005110075019N0020001N1+02821+01941101141ADDAA199000091GF106991061021008001001001KA1240M+03281MA1999999097011MD1999999+0101REMSYN076AAXX  14004 82983 32595 60910 10282 20194 39701 40114 86200 333 10328 58010;EQDQ01  00002PRCP99
0201829830999992000021412004-09380-040480FM-12+037099999V0200901N003110075019N0020001N1+02561+01541101341ADDAA124042991AY191061AY261061GF106991061021008001001001KA1240N+02071MA1999999097351MD1999999+0151MW1031REMSYN088AAXX  14124 82983 21595 60906 10256 20154 39735 40134 70396 86200 333 20207 58015 60434;
0168829830999992000021418004-09380-040480FM-12+037099999V0200501N004110075019N0020001N1+02941+01941101081ADDAA106002091AY161061AY261061GF107991071021008001001001MA1999999096921MW1031REMSYN082AAXX  14184 82983 21595 70508 10294 20194 39692 40108 70366 87200 333 58/// 60021;
0186829830999992000021500004-09380-040480FM-12+037099999V0200901N001510075019N0020001N1+02721+02001101231ADDAA199000091GF108991081051008001999999KA1240M+03001MA1999999097091MD1999999+0081REMSYN076AAXX  15004 82983 32595 80903 10272 20200 39709 40123 885// 333 10300 58008;EQDQ01  00002PRCP99
0173829830999992000021512004-09380-040480FM-12+037099999V0200901N003110075019N0020001N1+02521+02021101341ADDAA124002091GF107991071021008001001001KA1240N+02201MA1999999097191MD1999999-0161REMSYN082AAXX  15124 82983 22595 70906 10252 20202 39719 40134 87200 333 20220 59016 60024;
0182829830999992000021518004-09380-040480FM-12+037099999V0203601N005110075019N0020001N1+02501+02051101011ADDAA106001091AY121061AY211061GF107991071021008001001001MA1999999096851MD1999999-0071MW1601REMSYN082AAXX  15184 82983 21595 73610 10250 20205 39685 40101 76021 87200 333 59007 60011;
0167829830999992000021600004-09380-040480FM-12+037099999V0200901N002610075019N0020001N1+02401+02111101201ADDAA199000021GF108991081051008001999999KA1240M+03101MA1999999097041MD1999999-0051REMSYN076AAXX  16004 82983 32595 80905 10240 20211 39704 40120 885// 333 10310 59005;
0173829830999992000021612004-09380-040480FM-12+037099999V0200901N003110075019N0020001N1+02401+02091101371ADDAA124001091GF108991081051008001999999KA1240N+02211MA1999999097191MD1999999+0001REMSYN082AAXX  16124 82983 22595 80906 10240 20209 39719 40137 885// 333 20221 58000 60014;
0167829830999992000021618004-09380-040480FM-12+037099999V0200501N001510450019N0020001N1+03101+02031100791ADDAA199000091GF106991041021008001031001MA1999999096671MD1999999-0181REMSYN070AAXX  16184 82983 32595 60503 10310 20203 39667 40079 84230 333 59018;EQDQ01  00002PRCP99
0201829830999992000021700004-09380-040480FM-12+037099999V0209999C000010075019N0020001N1+02301+02131101251ADDAA106029091AY191061AY261061GF108991081051008001999999KA1240M+03131MA1999999097071MD1999999+0031MW1031REMSYN088AAXX  17004 82983 21595 80000 10230 20213 39707 40125 70396 885// 333 10313 58003 60291;
0173829830999992000021712004-09380-040480FM-12+037099999V0200901N001510075019N0020001N1+02461+02171101391ADDAA124029091GF108991081051008001999999KA1240N+02221MA1999999097211MD1999999+0021REMSYN082AAXX  17124 82983 22595 80903 10246 20217 39721 40139 885// 333 20222 58002 60294;
0167829830999992000021718004-09380-040480FM-12+037099999V0203601N002610450019N0200001N1+02961+02051100921ADDAA199000091GF106991041021008001031001MA1999999096791MD1999999+0121REMSYN070AAXX  17184 82983 32598 63605 10296 20205 39679 40092 84230 333 58012;EQDQ01  00002PRCP99
0186829830999992000021800004-09380-040480FM-12+037099999V0209999C000010450019N0020001N1+02501+02111101151ADDAA199000091GF106991021011008001051001KA1240M+03001MA1999999097001MD1999999-0071REMSYN076AAXX  18004 82983 32595 60000 10250 20211 39700 40115 82150 333 10300 59007;EQDQ01  00002PRCP99
0201829830999992000021812004-09380-040480FM-12+037099999V0200901N001510075019N0020001N1+02461+02171101431ADDAA124000391AY151061AY251061GF107991071021008001001001KA1240N+02321MA1999999097271MD1999999+0061MW1031REMSYN088AAXX  18124 82983 21595 70903 10246 20217 39727 40143 70355 87200 333 20232 58006 69934;
0182829830999992000021818004-09380-040480FM-12+037099999V0200501N003112200019N0020001N1+02901+02071100961ADDAA106000591AY151061AY251061GF104991041051008001011001MA1999999096831MD1999999+0041MW1031REMSYN082AAXX  18184 82983 21595 40506 10290 20207 39683 40096 70355 84510 333 58004 69961;
0186829830999992000021900004-09380-040480FM-12+037099999V0209999C000010450019N0020001N1+02561+02111101211ADDAA199000091GF106991021011008001021001KA1240M+02981MA1999999097061MD1999999+0061REMSYN076AAXX  19004 82983 32595 60000 10256 20211 39706 40121 82120 333 10298 58006;EQDQ01  00002PRCP99
0173829830999992000021912004-09380-040480FM-12+037099999V0200901N003110075019N0020001N1+02401+01931101531ADDAA124000591GF105991051011008001001001KA1240N+02321MA1999999097361MD1999999+0091REMSYN082AAXX  19124 82983 22595 50906 10240 20193 39736 40153 85100 333 20232 58009 69964;
0167829830999992000021918004-09380-040480FM-12+037099999V0200901N003112200019N0020001N1+03061+01771101051ADDAA199000091GF102991021011008001001001MA1999999096941MD1999999+0111REMSYN070AAXX  19184 82983 32595 20906 10306 20177 39694 40105 82100 333 58011;EQDQ01  00002PRCP99
0196829830999992000022000004-09380-040480FM-12+037099999V0200901N001512200019N0020001N1+02761+01691101201ADDAA199000091GA1001+999999999GF100991001001999999001001KA1240M+03161MA1999999097031MD1999999+0001REMSYN070AAXX  20004 82983 32995 00903 10276 20169 39703 40120 333 10316 58000;EQDQ01  00002PRCP99
0186829830999992000022012004-09380-040480FM-12+037099999V0200901N003110075019N0020001N1+02441+01901101491ADDAA199000091GF106991061021008001001001KA1240N+02221MA1999999097341MD1999999-0021REMSYN076AAXX  20124 82983 32595 60906 10244 20190 39734 40149 86200 333 20222 59002;EQDQ01  00002PRCP99
0167829830999992000022018004-09380-040480FM-12+037099999V0200901N004112200019N0020001N1+03161+01341101101ADDAA199000091GF102991021011008001001001MA1999999096911MD1999999-0031REMSYN070AAXX  20184 82983 32595 20908 10316 20134 39691 40110 82100 333 59003;EQDQ01  00002PRCP99
0186829830999992000022100004-09380-040480FM-12+037099999V0200901N004110075019N0020001N1+02781+01911101161ADDAA199000091GF105991051041008001001001KA1240M+03221MA1999999097021MD1999999-0041REMSYN076AAXX  21004 82983 32595 50908 10278 20191 39702 40116 85400 333 10322 59004;EQDQ01  00002PRCP99
0167829830999992000022118004-09380-040480FM-12+037099999V0200501N002610075019N0020001N1+03061+01901100911ADDAA199000091GF106991061011008001001001MA1999999096821MD1999999-0091REMSYN070AAXX  21184 82983 32595 60505 10306 20190 39682 40091 86100 333 59009;EQDQ01  00002PRCP99
0196829830999992000022200004-09380-040480FM-12+037099999V0200901N001512200019N0020001N1+02621+01911101171ADDAA199000091GA1001+999999999GF100991001001999999001001KA1240M+03121MA1999999097031MD1999999+0011REMSYN070AAXX  22004 82983 32995 00903 10262 20191 39703 40117 333 10312 58001;EQDQ01  00002PRCP99
0186829830999992000022212004-09380-040480FM-12+037099999V0200901N003110450019N0020001N1+02581+01991101281ADDAA199000091GF106991041011008001021001KA1240N+02221MA1999999097141MD1999999-0161REMSYN076AAXX  22124 82983 32595 60906 10258 20199 39714 40128 84120 333 20222 59016;EQDQ01  00002PRCP99
0182829830999992000022218004-09380-040480FM-12+037099999V0200901N003110450019N0020001N1+02701+02221101011ADDAA106010991AY161061AY251061GF105991031011008001021001MA1999999096861MD1999999+0041MW1011REMSYN082AAXX  22184 82983 21595 50906 10270 20222 39686 40101 70165 83120 333 58004 60111;
0196829830999992000022300004-09380-040480FM-12+037099999V0200901N001512200019N0200001N1+02461+02071101171ADDAA199000091GA1001+999999999GF100991001001999999001001KA1240M+02881MA1999999097021MD1999999-0011REMSYN070AAXX  23004 82983 32998 00903 10246 20207 39702 40117 333 10288 59001;EQDQ01  00002PRCP99
0173829830999992000022312004-09380-040480FM-12+037099999V0200901N003110075019N0020001N1+02401+02031101381ADDAA124010991GF107991071021008001001001KA1240N+02281MA1999999097211MD1999999+0071REMSYN082AAXX  23124 82983 22595 70906 10240 20203 39721 40138 87200 333 20228 58007 60114;
0201829830999992000022400004-09380-040480FM-12+037099999V0200501N002612200019N0020001N1+02361+02171101231ADDAA106000591AY151061AY251061GF104991041021008001001001KA1240M+03101MA1999999097061MD1999999+0041MW1011REMSYN088AAXX  24004 82983 21595 40505 10236 20217 39706 40123 70155 84200 333 10310 58004 69941;
0173829830999992000022412004-09380-040480FM-12+037099999V0200901N003110075019N0020001N1+02501+02031101351ADDAA124000591GF105991051011008001001001KA1240N+02241MA1999999097181MD1999999-0031REMSYN082AAXX  24124 82983 22595 50906 10250 20203 39718 40135 85100 333 20224 59003 69944;
0183829830999992000022418004-09380-040480FM-12+037099999V0200501N001519999999N0020001N1+02961+01991100921ADDAA199000091GF107991999011008001001001MA1999999096791MD1999999+0021REMSYN070AAXX  24184 82983 32595 70503 10296 20199 39679 40092 84100 333 58002;EQDQ01+000042SCOTLCQ02  00002PRCP99
0186829830999992000022500004-09380-040480FM-12+037099999V0200501N001510075019N0020001N1+02621+02161101051ADDAA199000091GF105991051041008001001001KA1240M+03021MA1999999096911MD1999999-0151REMSYN076AAXX  25004 82983 32595 50503 10262 20216 39691 40105 85400 333 10302 59015;EQDQ01  00002PRCP99
0186829830999992000022512004-09380-040480FM-12+037099999V0200501N003110075019N0020001N1+02441+02071101331ADDAA199000091GF108991081021008001999999KA1240N+02341MA1999999097171MD1999999-0011REMSYN076AAXX  25124 82983 32595 80506 10244 20207 39717 40133 882// 333 20234 59001;EQDQ01  00002PRCP99
0167829830999992000022518004-09380-040480FM-12+037099999V0200501N001512200019N0020001N1+03041+02061100891ADDAA199000091GF106991031011008001001011MA1999999096771MD1999999-0021REMSYN070AAXX  25184 82983 32595 60503 10304 20206 39677 40089 83101 333 59002;EQDQ01  00002PRCP99
0186829830999992000022612004-09380-040480FM-12+037099999V0200901N003110075019N0020001N1+02601+02081101331ADDAA199000091GF107991071021008001001001KA1240N+02111MA1999999097181MD1999999+0011REMSYN076AAXX  26124 82983 32595 70906 10260 20208 39718 40133 87200 333 20211 58001;EQDQ01  00002PRCP99
0167829830999992000022618004-09380-040480FM-12+037099999V0200501N002610075019N0020001N1+03141+01801100881ADDAA199000091GF105991051021008001001001MA1999999096781MD1999999+0011REMSYN070AAXX  26184 82983 32595 50505 10314 20180 39678 40088 85200 333 58001;EQDQ01  00002PRCP99
0186829830999992000022700004-09380-040480FM-12+037099999V0200501N003110075019N0020001N1+02861+01871101091ADDAA199000091GF106991061021008001001001KA1240M+03181MA1999999096971MD1999999+0001REMSYN076AAXX  27004 82983 32595 60506 10286 20187 39697 40109 86200 333 10318 58000;EQDQ01  00002PRCP99
0186829830999992000022800004-09380-040480FM-12+037099999V0200901N001510075019N0020001N1+02801+02111101031ADDAA199000091GF106991061021008001001001KA1240M+03201MA1999999096921MD1999999-0051REMSYN076AAXX  28004 82983 32595 60903 10280 20211 39692 40103 86200 333 10320 59005;EQDQ01  00002PRCP99
0186829830999992000022812004-09380-040480FM-12+037099999V0200501N003110075019N0020001N1+02521+02001101281ADDAA199000091GF106991061021008001001001KA1240N+02301MA1999999097141MD1999999-0021REMSYN076AAXX  28124 82983 32595 60506 10252 20200 39714 40128 86200 333 20230 59002;EQDQ01  00002PRCP99
0167829830999992000022818004-09380-040480FM-12+037099999V0200501N003112200019N0020001N1+03141+01771100891ADDAA199000091GF104991041021008001031001MA1999999096801MD1999999+0081REMSYN070AAXX  28184 82983 32595 40506 10314 20177 39680 40089 84230 333 58008;EQDQ01  00002PRCP99
0186829830999992000022900004-09380-040480FM-12+037099999V0203601N001510075019N0020001N1+02801+02061101101ADDAA199000091GF105991051021008001001001KA1240M+03201MA1999999096961MD1999999+0041REMSYN076AAXX  29004 82983 32595 53603 10280 20206 39696 40110 85200 333 10320 58004;EQDQ01  00002PRCP99
0201829830999992000022912004-09380-040480FM-12+037099999V0200901N002610075019N0020001N1+02461+02031101431ADDAA124007191AY161061AY261061GF108991081051008001999999KA1240N+02291MA1999999097291MD1999999+0151MW1031REMSYN088AAXX  29124 82983 21595 80905 10246 20203 39729 40143 70366 885// 333 20229 58015 60074;
0167829830999992000022918004-09380-040480FM-12+037099999V0203601N003110075019N0020001N1+03021+01891101051ADDAA199000091GF106991061061008001001001MA1999999096921MD1999999+0121REMSYN070AAXX  29184 82983 32595 63606 10302 20189 39692 40105 86600 333 58012;EQDQ01  00002PRCP99
0186829830999992000030100004-09380-040480FM-12+037099999V0203601N001510075019N0020001N1+02621+02031101231ADDAA199000091GF105991051021008001001001KA1240M+03051MA1999999097091MD1999999+0131REMSYN076AAXX  01004 82983 32595 53603 10262 20203 39709 40123 85200 333 10305 58013;EQDQ01  00002PRCP99
0186829830999992000030112004-09380-040480FM-12+037099999V0200901N003110450019N0020001N1+02501+01981101511ADDAA199000091GF106991041021008001031001KA1240N+02321MA1999999097351MD1999999+0061REMSYN076AAXX  01124 82983 32595 60906 10250 20198 39735 40151 84230 333 20232 58006;EQDQ01  00002PRCP99
0167829830999992000030118004-09380-040480FM-12+037099999V0203601N003110075019N0020001N1+03101+01801101081ADDAA199000091GF108991081051008001999999MA1999999096961MD1999999+0041REMSYN070AAXX  01184 82983 32595 83606 10310 20180 39696 40108 885// 333 58004;EQDQ01  00002PRCP99
0196829830999992000030200004-09380-040480FM-12+037099999V0200501N001512200019N0020001N1+02761+01831101281ADDAA199000091GA1001+999999999GF100991001001999999001001KA1240M+03121MA1999999097141MD1999999+0051REMSYN070AAXX  02004 82983 32595 00503 10276 20183 39714 40128 333 10312 58005;EQDQ01  00002PRCP99
0186829830999992000030212004-09380-040480FM-12+037099999V0200901N003110075019N0020001N1+02481+01981101461ADDAA199000091GF105991051011008001001001KA1240N+02241MA1999999097311MD1999999-0041REMSYN076AAXX  02124 82983 32595 50906 10248 20198 39731 40146 85100 333 20224 59004;EQDQ01  00002PRCP99
0167829830999992000030218004-09380-040480FM-12+037099999V0200501N001512200019N0020001N1+03181+01731100871ADDAA199000091GF102991021011008001001001MA1999999096771MD1999999-0191REMSYN070AAXX  02184 82983 32595 20503 10318 20173 39677 40087 82100 333 59019;EQDQ01  00002PRCP99
0201829830999992000030300004-09380-040480FM-12+037099999V0209999C000010075019N0020001N1+02541+02061101111ADDAA106000591AY151061AY251061GF105991051041008001001001KA1240M+03281MA1999999096961MD1999999-0181MW1011REMSYN088AAXX  03004 82983 21595 50000 10254 20206 39696 40111 70155 85400 333 10328 59018 69961;
0173829830999992000030312004-09380-040480FM-12+037099999V0200901N003110075019N0020001N1+02501+01981101391ADDAA124000591GF107991071021008001001001KA1240N+02271MA1999999097231MD1999999-0081REMSYN082AAXX  03124 82983 22595 70906 10250 20198 39723 40139 87200 333 20227 59008 69964;
0167829830999992000030318004-09380-040480FM-12+037099999V0200501N001510075019N0020001N1+03201+01711100881ADDAA199000091GF106991061021008001001001MA1999999096791MD1999999+0021REMSYN070AAXX  03184 82983 32595 60503 10320 20171 39679 40088 86200 333 58002;EQDQ01  00002PRCP99
0186829830999992000030400004-09380-040480FM-12+037099999V0203601N002612200019N0020001N1+02941+01721101001ADDAA199000091GF102991021011008001001001KA1240M+03221MA1999999096881MD1999999-0081REMSYN076AAXX  04004 82983 32595 23605 10294 20172 39688 40100 82100 333 10322 59008;EQDQ01  00002PRCP99
0167829830999992000030418004-09380-040480FM-12+037099999V0200501N002610075019N0200001N1+03321+01651100951ADDAA199000091GF105991051021008001001001MA1999999096861MD1999999+0071REMSYN070AAXX  04184 82983 32598 50505 10332 20165 39686 40095 85200 333 58007;EQDQ01  00002PRCP99
0186829830999992000030500004-09380-040480FM-12+037099999V0200901N005112200019N0020001N1+02841+01881101131ADDAA199000091GF102991021011008001001001KA1240M+03351MA1999999097011MD1999999+0131REMSYN076AAXX  05004 82983 32595 20910 10284 20188 39701 40113 82100 333 10335 58013;EQDQ01  00002PRCP99
0186829830999992000030512004-09380-040480FM-12+037099999V0200901N003110075019N0020001N1+02661+01971101451ADDAA199000091GF105991051011008001001001KA1240N+02381MA1999999097331MD1999999+0071REMSYN076AAXX  05124 82983 32595 50906 10266 20197 39733 40145 85100 333 20238 58007;EQDQ01  00002PRCP99
0167829830999992000030518004-09380-040480FM-12+037099999V0200901N004110450019N0020001N1+03201+01751100981ADDAA199000091GF106991041011008001021001MA1999999096901MD1999999+0041REMSYN070AAXX  05184 82983 32595 60908 10320 20175 39690 40098 84120 333 58004;EQDQ01  00002PRCP99
0196829830999992000030600004-09380-040480FM-12+037099999V0200501N003112200019N0020001N1+02801+01871101181ADDAA199000091GA1001+999999999GF100991001001999999001001KA1240M+03241MA1999999097061MD1999999+0051REMSYN070AAXX  06004 82983 32595 00506 10280 20187 39706 40118 333 10324 58005;EQDQ01  00002PRCP99
0186829830999992000030612004-09380-040480FM-12+037099999V0200501N004110075019N0020001N1+02461+01941101471ADDAA199000091GF108991081021008001999999KA1240N+02281MA1999999097331MD1999999+0001REMSYN076AAXX  06124 82983 32595 80508 10246 20194 39733 40147 882// 333 20228 58000;EQDQ01  00002PRCP99
0167829830999992000030618004-09380-040480FM-12+037099999V0200901N001510450019N0020001N1+02961+01931101011ADDAA199000091GF108991021011008001021999MA1999999096891MD1999999-0011REMSYN070AAXX  06184 82983 32595 80903 10296 20193 39689 40101 8212/ 333 59001;EQDQ01  00002PRCP99
0186829830999992000030700004-09380-040480FM-12+037099999V0200901N003112200019N0020001N1+02661+01971101151ADDAA199000091GF102991021011008001001001KA1240M+02981MA1999999097011MD1999999-0051REMSYN076AAXX  07004 82983 32595 20906 10266 20197 39701 40115 82100 333 10298 59005;EQDQ01  00002PRCP99
0186829830999992000030712004-09380-040480FM-12+037099999V0200901N003110450019N0020001N1+02581+02041101241ADDAA199000091GF106991041021008001031001KA1240N+02361MA1999999097101MD1999999-0231REMSYN076AAXX  07124 82983 32595 60906 10258 20204 39710 40124 84230 333 20236 59023;EQDQ01  00002PRCP99
0183829830999992000030718004-09380-040480FM-12+037099999V0202601N002610075019N0020001N1+03021+01921100841ADDAA199000091GF107991999021008001001001MA1999999096751MD1999999-0141REMSYN070AAXX  07184 82983 32595 72605 10302 20192 39675 40084 85200 333 59014;EQDQ01+000052SCOTLCQ02  00002PRCP99
0196829830999992000030800004-09380-040480FM-12+037099999V0203601N003112200019N0020001N1+02721+02001100971ADDAA199000091GA1001+999999999GF100991001001999999001001KA1240M+03101MA1999999096841MD1999999-0171REMSYN070AAXX  08004 82983 32995 03606 10272 20200 39684 40097 333 10310 59017;EQDQ01  00002PRCP99
0186829830999992000030812004-09380-040480FM-12+037099999V0200901N003110075019N0020001N1+02681+02091101131ADDAA199000091GF106991061021008001001001KA1240N+02401MA1999999097091MD1999999-0011REMSYN076AAXX  08124 82983 32595 60906 10268 20209 39709 40113 86200 333 20240 59001;EQDQ01  00002PRCP99
0167829830999992000030818004-09380-040480FM-12+037099999V0203601N003110450019N0020001N1+03001+02031100821ADDAA199000091GF107991031011008001021001MA1999999096711MD1999999-0041REMSYN070AAXX  08184 82983 32595 73606 10300 20203 39671 40082 83120 333 59004;EQDQ01  00002PRCP99
0196829830999992000030900004-09380-040480FM-12+037099999V0203601N001512200019N0020001N1+02581+01971101071ADDAA199000091GA1001+999999999GF100991001001999999001001KA1240M+03041MA1999999096941MD1999999+0141REMSYN070AAXX  09004 82983 32995 03603 10258 20197 39694 40107 333 10304 58014;EQDQ01  00002PRCP99
0201829830999992000030912004-09380-040480FM-12+037099999V0200901N002610075019N0020001N1+02281+02141101451ADDAA124000191AY151061AY251061GF108991081021008001999999KA1240N+02301MA1999999097281MD1999999+0191MW1501REMSYN088AAXX  09124 82983 21595 80905 10228 20214 39728 40145 75055 882// 333 20230 58019 69924;
0201829830999992000030918004-09380-040480FM-12+037099999V0200501N001519999999N0020001N1+02881+01971100971ADDAA106002091AY151061AY251061GF106991999001008001021021MA1999999096841MD1999999+0131MW1011REMSYN082AAXX  09184 82983 21595 60503 10288 20197 39684 40097 70155 80022 333 58013 60021;EQDQ01+000002SCOTLC
0167829830999992000031000004-09380-040480FM-12+037099999V0203201N001510075019N0020001N1+02661+02161101101ADDAA199000021GF106991061041008001001001KA1240M+02961MA1999999096981MD1999999+0041REMSYN076AAXX  10004 82983 32595 63203 10266 20216 39698 40110 86400 333 10296 58004;
0201829830999992000031012004-09380-040480FM-12+037099999V0200901N001510075019N0020001N1+02441+02151101421ADDAA124010991AY151061AY261061GF107991071021008001001001KA1240N+02241MA1999999097261MD1999999-0021MW1031REMSYN088AAXX  10124 82983 21595 70903 10244 20215 39726 40142 70356 87200 333 20224 59002 60114;
0186829830999992000031100004-09380-040480FM-12+037099999V0200901N003112200019N0020001N1+02601+02061101181ADDAA199000091GF103991031041008001001001KA1240M+03141MA1999999097071MD1999999+0091REMSYN076AAXX  11004 82983 32595 30906 10260 20206 39707 40118 83400 333 10314 58009;EQDQ01  00002PRCP99
0186829830999992000031112004-09380-040480FM-12+037099999V0200901N001511050019N0020001N1+02581+01991101351ADDAA199000091GF105991011011008001021011KA1240N+02361MA1999999097201MD1999999-0061REMSYN076AAXX  11124 82983 32595 50903 10258 20199 39720 40135 81121 333 20236 59006;EQDQ01  00002PRCP99
0183829830999992000031118004-09380-040480FM-12+037099999V0200901N002612200019N0020001N1+03041+01971100891ADDAA199000091GF104991999011008001001001MA1999999096761MD1999999-0071REMSYN070AAXX  11184 82983 32595 40905 10304 20197 39676 40089 82100 333 59007;EQDQ01+000022SCOTLCQ02  00002PRCP99
0196829830999992000031200004-09380-040480FM-12+037099999V0203601N001512200019N0020001N1+02741+01971100971ADDAA199000091GA1001+999999999GF100991001001999999001001KA1240M+03161MA1999999096841MD1999999-0231REMSYN070AAXX  12004 82983 32995 03603 10274 20197 39684 40097 333 10316 59023;EQDQ01  00002PRCP99
0186829830999992000031212004-09380-040480FM-12+037099999V0200501N001512200019N0020001N1+02641+02031101181ADDAA199000091GF103991031011008001001001KA1240N+02311MA1999999097041MD1999999-0161REMSYN076AAXX  12124 82983 32595 30503 10264 20203 39704 40118 83100 333 20231 59016;EQDQ01  00002PRCP99
0167829830999992000031218004-09380-040480FM-12+037099999V0201401N002110450019N0020001N1+03201+01931100731ADDAA199000091GF108991041021008001031011MA1999999096631MD1999999-0131REMSYN070AAXX  12184 82983 32595 81404 10320 20193 39663 40073 84231 333 59013;EQDQ01  00002PRCP99
0201829830999992000031312004-09380-040480FM-12+037099999V0203601N002610075019N0020001N1+02461+02251101091ADDAA124008991AY121061AY221061GF108991081051008001999999KA1240N+02311MA1999999096961MD1999999-0081MW1601REMSYN088AAXX  13124 82983 21595 83605 10246 20225 39696 40109 76022 885// 333 20231 59008 60094;
0148829830999992000031318004-09380-040480FM-12+037099999V0202301N003110075019N0020001N1+02641+02181100771ADDAA199000021GF108991081051008001999999MA1999999096641MD1999999+0011REMSYN070AAXX  13184 82983 32595 82306 10264 20218 39664 40077 885// 333 58001;
0167829830999992000031400004-09380-040480FM-12+037099999V0201801N001510075019N0020001N1+02301+02251101041ADDAA199000021GF108991081051008001999999KA1240M+02841MA1999999096881MD1999999+0131REMSYN076AAXX  14004 82983 32595 81803 10230 20225 39688 40104 885// 333 10284 58013;
0201829830999992000031412004-09380-040480FM-12+037099999V0200501N001510075019N0020001N1+02261+02181101351ADDAA124029091AY191061AY261061GF108991081051008001999999KA1240N+02211MA1999999097161MD1999999+0201MW1021REMSYN088AAXX  14124 82983 21595 80503 10226 20218 39716 40135 70296 885// 333 20221 58020 60294;
0167829830999992000031418004-09380-040480FM-12+037099999V0202701N001510450019N0020001N1+02721+02171100931ADDAA199000091GF106991041021008001031001MA1999999096771MD1999999+0131REMSYN070AAXX  14184 82983 32595 62703 10272 20217 39677 40093 84230 333 58013;EQDQ01  00002PRCP99
0186829830999992000031500004-09380-040480FM-12+037099999V0202301N001510075019N0020001N1+02301+02161101161ADDAA199000091GF108991081051008001999999KA1240M+02801MA1999999096981MD1999999+0101REMSYN076AAXX  15004 82983 32595 82303 10230 20216 39698 40116 885// 333 10280 58010;EQDQ01  00002PRCP99
0167829830999992000031518004-09380-040480FM-12+037099999V0203601N002610075019N0020001N1+02821+02121100991ADDAA199000091GF107991051021008001031001MA1999999096831MD1999999+0061REMSYN070AAXX  15184 82983 32595 73605 10282 20212 39683 40099 85230 333 58006;EQDQ01  00002PRCP99
0186829830999992000031600004-09380-040480FM-12+037099999V0200901N001512200019N0020001N1+02341+02171101191ADDAA199000091GF103991031011008001001001KA1240M+02971MA1999999097011MD1999999+0031REMSYN076AAXX  16004 82983 32595 30903 10234 20217 39701 40119 83100 333 10297 58003;EQDQ01  00002PRCP99
0186829830999992000031612004-09380-040480FM-12+037099999V0200901N003110075019N0020001N1+02461+02031101371ADDAA199000091GF108991081051008001999999KA1240N+02321MA1999999097191MD1999999-0021REMSYN076AAXX  16124 82983 32595 80906 10246 20203 39719 40137 885// 333 20232 59002;EQDQ01  00002PRCP99
0167829830999992000031618004-09380-040480FM-12+037099999V0200501N003112200019N0020001N1+03061+01901100871ADDAA199000091GF102991021011008001001001MA1999999096751MD1999999-0081REMSYN070AAXX  16184 82983 32595 20506 10306 20190 39675 40087 82100 333 59008;EQDQ01  00002PRCP99
0186829830999992000031700004-09380-040480FM-12+037099999V0200501N001510075019N0020001N1+02761+01991100931ADDAA199000091GF107991071021008001001001KA1240M+03121MA1999999096801MD1999999-0211REMSYN076AAXX  17004 82983 32595 70503 10276 20199 39680 40093 87200 333 10312 59021;EQDQ01  00002PRCP99
0186829830999992000031712004-09380-040480FM-12+037099999V0200901N003110075019N0020001N1+02441+01861101271ADDAA199000091GF105991051011008001001001KA1240N+02181MA1999999097131MD1999999-0061REMSYN076AAXX  17124 82983 32595 50906 10244 20186 39713 40127 85100 333 20218 59006;EQDQ01  00002PRCP99
0167829830999992000031718004-09380-040480FM-12+037099999V0200901N002610075019N0020001N1+03001+01641100811ADDAA199000091GF105991051011008001001001MA1999999096691MD1999999-0061REMSYN070AAXX  17184 82983 32595 50905 10300 20164 39669 40081 85100 333 59006;EQDQ01  00002PRCP99
0186829830999992000031800004-09380-040480FM-12+037099999V0203601N002612200019N0020001N1+02561+01851100881ADDAA199000091GF102991021011008001001001KA1240M+03081MA1999999096741MD1999999-0061REMSYN076AAXX  18004 82983 32595 23605 10256 20185 39674 40088 82100 333 10308 59006;EQDQ01  00002PRCP99
0202829830999992000031812004-09380-040480FM-12+037099999V0200901N003119999999N0020001N1+02461+01901101201ADDAA199000091GF105991999011008001001001KA1240N+02121MA1999999097051MD1999999-0081REMSYN076AAXX  18124 82983 32595 50906 10246 20190 39705 40120 81100 333 20212 59008;EQDQ01+000012SCOTLCQ02  00002PRCP99
0167829830999992000031818004-09380-040480FM-12+037099999V0200901N002610075019N0020001N1+03081+01711100751ADDAA199000091GF105991051011008001001001MA1999999096631MD1999999-0061REMSYN070AAXX  18184 82983 32595 50905 10308 20171 39663 40075 85100 333 59006;EQDQ01  00002PRCP99
0196829830999992000031900004-09380-040480FM-12+037099999V0203601N001512200019N0020001N1+02541+01861100841ADDAA199000091GA1001+999999999GF100991001001999999001001KA1240M+03141MA1999999096701MD1999999-0041REMSYN070AAXX  19004 82983 32995 03603 10254 20186 39670 40084 333 10314 59004;EQDQ01  00002PRCP99
0186829830999992000031912004-09380-040480FM-12+037099999V0200901N002612200019N0020001N1+02601+02011101111ADDAA199000091GF102991021011008001001001KA1240N+02141MA1999999096971MD1999999-0081REMSYN076AAXX  19124 82983 32595 20905 10260 20201 39697 40111 82100 333 20214 59008;EQDQ01  00002PRCP99
0167829830999992000031918004-09380-040480FM-12+037099999V0200501N003112200019N0020001N1+03021+02071100781ADDAA199000091GF106991041011008001001011MA1999999096661MD1999999-0031REMSYN070AAXX  19184 82983 32595 60506 10302 20207 39666 40078 84101 333 59003;EQDQ01  00002PRCP99
0186829830999992000032000004-09380-040480FM-12+037099999V0203601N001510075019N0020001N1+02701+02171100931ADDAA199000091GF105991051041008001001001KA1240M+03161MA1999999096801MD1999999+0101REMSYN076AAXX  20004 82983 32595 53603 10270 20217 39680 40093 85400 333 10316 58010;EQDQ01  00002PRCP99
0186829830999992000032012004-09380-040480FM-12+037099999V0200901N003112200019N0020001N1+02681+02111101241ADDAA199000091GF102991021011008001001001KA1240N+02361MA1999999097111MD1999999+0141REMSYN076AAXX  20124 82983 32595 20906 10268 20211 39711 40124 82100 333 20236 58014;EQDQ01  00002PRCP99
0167829830999992000032018004-09380-040480FM-12+037099999V0200901N003112200019N0020001N1+03241+01961100741ADDAA199000091GF104991041011008001001001MA1999999096661MD1999999+0001REMSYN070AAXX  20184 82983 32595 40906 10324 20196 39666 40074 84100 333 58000;EQDQ01  00002PRCP99
0186829830999992000032100004-09380-040480FM-12+037099999V0200901N001510075019N0020001N1+02841+02121100891ADDAA199000091GF106991061011008001001001KA1240M+03281MA1999999096791MD1999999-0011REMSYN076AAXX  21004 82983 32595 60903 10284 20212 39679 40089 86100 333 10328 59001;EQDQ01  00002PRCP99
0186829830999992000032112004-09380-040480FM-12+037099999V0200501N005110075019N0020001N1+02521+01791101301ADDAA199000091GF106991061021008001001001KA1240N+02311MA1999999097161MD1999999+0051REMSYN076AAXX  21124 82983 32595 60510 10252 20179 39716 40130 86200 333 20231 58005;EQDQ01  00002PRCP99
0167829830999992000032118004-09380-040480FM-12+037099999V0200501N003110075019N0020001N1+03051+01751100821ADDAA199000091GF107991071021008001001001MA1999999096711MD1999999+0051REMSYN070AAXX  21184 82983 32595 70506 10305 20175 39671 40082 87200 333 58005;EQDQ01  00002PRCP99
0202829830999992000032200004-09380-040480FM-12+037099999V0200601N002612200019N0020001N1+02791+01811100971ADDAA199000091GF103991999021008001001001KA1240M+03081MA1999999096841MD1999999+0051REMSYN076AAXX  22004 82983 32595 30605 10279 20181 39684 40097 86200 333 10308 58005;EQDQ01+000062SCOTLCQ02  00002PRCP99
0186829830999992000032212004-09380-040480FM-12+037099999V0200501N003110075019N0020001N1+02481+01961101261ADDAA199000091GF105991051021008001001001KA1240N+02141MA1999999097151MD1999999-0011REMSYN076AAXX  22124 82983 32595 50506 10248 20196 39715 40126 85200 333 20214 59001;EQDQ01  00002PRCP99
0167829830999992000032218004-09380-040480FM-12+037099999V0200501N003110075019N0020001N1+03161+01631100811ADDAA199000091GF105991051021008001001001MA1999999096701MD1999999-0011REMSYN070AAXX  22184 82983 32595 50506 10316 20163 39670 40081 85200 333 59001;EQDQ01  00002PRCP99
0196829830999992000032300004-09380-040480FM-12+037099999V0200501N001512200019N0020001N1+02721+01851100931ADDAA199000091GA1001+999999999GF100991001001999999001001KA1240M+03171MA1999999096801MD1999999-0041REMSYN070AAXX  23004 82983 32995 00503 10272 20185 39680 40093 333 10317 59004;EQDQ01  00002PRCP99
0186829830999992000032312004-09380-040480FM-12+037099999V0200501N003110075019N0020001N1+02421+01841101261ADDAA199000091GF108991081051008001999999KA1240N+02231MA1999999097121MD1999999-0031REMSYN076AAXX  23124 82983 32595 80506 10242 20184 39712 40126 885// 333 20223 59003;EQDQ01  00002PRCP99
0167829830999992000032318004-09380-040480FM-12+037099999V0200501N001510075019N0020001N1+03171+01631100871ADDAA199000091GF106991061021008001001001MA1999999096751MD1999999+0051REMSYN070AAXX  23184 82983 32595 60503 10317 20163 39675 40087 86200 333 58005;EQDQ01  00002PRCP99
0186829830999992000032400004-09380-040480FM-12+037099999V0203601N002610075019N0020001N1+02901+02181101021ADDAA199000091GF108991081051008001999999KA1240M+03221MA1999999096481MD1999999+0091REMSYN076AAXX  24004 82983 32595 83605 10290 20218 39648 40102 885// 333 10322 58009;EQDQ01  00002PRCP99
0186829830999992000032412004-09380-040480FM-12+037099999V0200901N003110075019N0020001N1+02571+01971101341ADDAA199000091GF105991051021008001001001KA1240N+02291MA1999999097221MD1999999+0101REMSYN076AAXX  24124 82983 32595 50906 10257 20197 39722 40134 85200 333 20229 58010;EQDQ01  00002PRCP99
0167829830999992000032418004-09380-040480FM-12+037099999V0200901N003110450019N0020001N1+03201+01751100921ADDAA199000091GF106991041021008001031001MA1999999096821MD1999999+0071REMSYN070AAXX  24184 82983 32595 60906 10320 20175 39682 40092 84230 333 58007;EQDQ01  00002PRCP99
0186829830999992000032500004-09380-040480FM-12+037099999V0200901N001510075019N0020001N1+02901+01751101111ADDAA199000091GF105991051021008001001001KA1240M+03221MA1999999096991MD1999999+0101REMSYN076AAXX  25004 82983 32595 50903 10290 20175 39699 40111 85200 333 10322 58010;EQDQ01  00002PRCP99
0186829830999992000032512004-09380-040480FM-12+037099999V0200901N003110450019N0020001N1+02501+01871101361ADDAA199000091GF106991031011008001021001KA1240N+02311MA1999999097281MD1999999+0001REMSYN076AAXX  25124 82983 32595 60906 10250 20187 39728 40136 83120 333 20231 58000;EQDQ01  00002PRCP99
0167829830999992000032518004-09380-040480FM-12+037099999V0200901N003110450019N0020001N1+03181+01691100851ADDAA199000091GF106991021011008001051051MA1999999096751MD1999999-0071REMSYN070AAXX  25184 82983 32595 60906 10318 20169 39675 40085 82155 333 59007;EQDQ01  00002PRCP99
0196829830999992000032600004-09380-040480FM-12+037099999V0200901N003112200019N0020001N1+02781+01851100971ADDAA199000091GA1001+999999999GF100991001001999999001001KA1240M+03221MA1999999096841MD1999999-0141REMSYN070AAXX  26004 82983 32995 00906 10278 20185 39684 40097 333 10322 59014;EQDQ01  00002PRCP99
0186829830999992000032612004-09380-040480FM-12+037099999V0200501N004110075019N0020001N1+02341+01891101231ADDAA199000091GF106991061021008001001001KA1240N+02281MA1999999097091MD1999999-0131REMSYN076AAXX  26124 82983 32595 60508 10234 20189 39709 40123 86200 333 20228 59013;EQDQ01  00002PRCP99
0183829830999992000032618004-09380-040480FM-12+037099999V0203601N004119999999N0020001N1+03101+01621100771ADDAA199000091GF105991999011008001001001MA1999999096661MD1999999-0091REMSYN070AAXX  26184 82983 32595 53608 10310 20162 39666 40077 82100 333 59009;EQDQ01+000022SCOTLCQ02  00002PRCP99
0186829830999992000032700004-09380-040480FM-12+037099999V0209999C000010075019N0020001N1+02681+02041101011ADDAA199000091GF106991061021008001001001KA1240M+03161MA1999999096861MD1999999-0021REMSYN076AAXX  27004 82983 32595 60000 10268 20204 39686 40101 86200 333 10316 59002;EQDQ01  00002PRCP99
0186829830999992000032712004-09380-040480FM-12+037099999V0200901N003110075019N0020001N1+02641+02031101181ADDAA199000091GF107991071011008001001001KA1240N+02381MA1999999097041MD1999999-0051REMSYN076AAXX  27124 82983 32595 70906 10264 20203 39704 40118 87100 333 20238 59005;EQDQ01  00002PRCP99
0167829830999992000032718004-09380-040480FM-12+037099999V0200901N003110075019N0020001N1+03201+01781100671ADDAA199000091GF105991051011008001001001MA1999999096591MD1999999-0071REMSYN070AAXX  27184 82983 32595 50906 10320 20178 39659 40067 85100 333 59007;EQDQ01  00002PRCP99
0186829830999992000032800004-09380-040480FM-12+037099999V0200901N003112200019N0020001N1+02541+02021101131ADDAA199000091GF102991021011008001001001KA1240M+03261MA1999999096901MD1999999+0071REMSYN076AAXX  28004 82983 32595 20906 10254 20202 39690 40113 82100 333 10326 58007;EQDQ01  00002PRCP99
0201829830999992000032812004-09380-040480FM-12+037099999V0200901N003110450019N0020001N1+02521+02001101321ADDAA124003091AY161061AY251061GF106991041011008001021001KA1240N+02281MA1999999097161MD1999999+0121MW1031REMSYN088AAXX  28124 82983 21595 60906 10252 20200 39716 40132 70365 84120 333 20228 58012 60034;
0167829830999992000032818004-09380-040480FM-12+037099999V0200901N002610450019N0020001N1+03061+01931100801ADDAA199000091GF108991031011008001011011MA1999999096681MD1999999+0091REMSYN070AAXX  28184 82983 32595 80905 10306 20193 39668 40080 83111 333 58009;EQDQ01  00002PRCP99
0186829830999992000032900004-09380-040480FM-12+037099999V0203201N001510075019N0020001N1+02601+02081100961ADDAA199000091GF105991051011008001001001KA1240M+03061MA1999999096821MD1999999-0081REMSYN076AAXX  29004 82983 32595 53203 10260 20208 39682 40096 85100 333 10306 59008;EQDQ01  00002PRCP99
0186829830999992000032912004-09380-040480FM-12+037099999V0200901N003110450019N0020001N1+02601+01991101251ADDAA199000091GF108991041011008001011021KA1240N+02421MA1999999097111MD1999999-0051REMSYN076AAXX  29124 82983 32595 80906 10260 20199 39711 40125 84112 333 20242 59005;EQDQ01  00002PRCP99
0167829830999992000032918004-09380-040480FM-12+037099999V0200901N003110450019N0020001N1+03041+01881100821ADDAA199000091GF106991021011008001011011MA1999999096721MD1999999+0041REMSYN070AAXX  29184 82983 32595 60906 10304 20188 39672 40082 82111 333 58004;EQDQ01  00002PRCP99
0186829830999992000033000004-09380-040480FM-12+037099999V0200901N001512200019N0020001N1+02721+01931101001ADDAA199000091GF101991011011008001001001KA1240M+03141MA1999999096871MD1999999+0051REMSYN076AAXX  30004 82983 32595 10903 10272 20193 39687 40100 81100 333 10314 58005;EQDQ01  00002PRCP99
0186829830999992000033012004-09380-040480FM-12+037099999V0200501N004110075019N0020001N1+02441+01861101271ADDAA199000091GF108991081051008001999999KA1240N+02251MA1999999097131MD1999999+0021REMSYN076AAXX  30124 82983 32595 80508 10244 20186 39713 40127 885// 333 20225 58002;EQDQ01  00002PRCP99
0167829830999992000033018004-09380-040480FM-12+037099999V0200901N003110450019N0020001N1+03021+01661100841ADDAA199000091GF106991021011008001021011MA1999999096721MD1999999+0001REMSYN070AAXX  30184 82983 32595 60906 10302 20166 39672 40084 82121 333 58000;EQDQ01  00002PRCP99
0186829830999992000033100004-09380-040480FM-12+037099999V0200901N003110075019N0020001N1+02721+01971101171ADDAA199000091GF105991051021008001001001KA1240M+03041MA1999999097031MD1999999+0161REMSYN076AAXX  31004 82983 32595 50906 10272 20197 39703 40117 85200 333 10304 58016;EQDQ01  00002PRCP99
0186829830999992000033112004-09380-040480FM-12+037099999V0200901N003110450019N0020001N1+02541+01951101351ADDAA199000091GF106991031011008001051001KA1240N+02201MA1999999097211MD1999999+0081REMSYN076AAXX  31124 82983 32595 60906 10254 20195 39721 40135 83150 333 20220 58008;EQDQ01  00002PRCP99
0167829830999992000033118004-09380-040480FM-12+037099999V0200501N003110450019N0020001N1+03041+01751100881ADDAA199000091GF106991031011008001011021MA1999999096751MD1999999+0031REMSYN070AAXX  31184 82983 32595 60506 10304 20175 39675 40088 83112 333 58003;EQDQ01  00002PRCP99
0186829830999992000040100004-09380-040480FM-12+037099999V0200901N001510075019N0020001N1+02761+01891101151ADDAA199000091GF105991051021008001001001KA1240M+03081MA1999999097011MD1999999-0021REMSYN076AAXX  01004 82983 32595 50903 10276 20189 39701 40115 85200 333 10308 59002;EQDQ01  00002PRCP99
0186829830999992000040112004-09380-040480FM-12+037099999V0200901N003110075019N0020001N1+02441+01971101431ADDAA199000091GF108991081051008001999999KA1240N+02261MA1999999097281MD1999999+0071REMSYN076AAXX  01124 82983 32595 80906 10244 20197 39728 40143 885// 333 20226 58007;EQDQ01  00002PRCP99
0167829830999992000040118004-09380-040480FM-12+037099999V0200901N003110075019N0020001N1+03161+01861100831ADDAA199000091GF106991061021008001001001MA1999999096731MD1999999-0021REMSYN070AAXX  01184 82983 32595 60906 10316 20186 39673 40083 86200 333 59002;EQDQ01  00002PRCP99
0201829830999992000040200004-09380-040480FM-12+037099999V0200501N003110075019N0020001N1+02501+02171101291ADDAA106002091AY161061AY251061GF108991081021008001999999KA1240M+03201MA1999999097131MD1999999+0121MW1031REMSYN088AAXX  02004 82983 21595 80506 10250 20217 39713 40129 70365 882// 333 10320 58012 60021;
0201829830999992000040212004-09380-040480FM-12+037099999V0200501N003110075019N0020001N1+02541+02211101431ADDAA124009991AY161061AY261061GF106991061021008001001001KA1240N+02231MA1999999097271MD1999999-0011MW1031REMSYN088AAXX  02124 82983 21595 60506 10254 20221 39727 40143 70366 86200 333 20223 59001 60104;
0167829830999992000040218004-09380-040480FM-12+037099999V0200901N002610450019N0020001N1+02941+02051100971ADDAA199000091GF105991021021008001031001MA1999999096831MD1999999+0101REMSYN070AAXX  02184 82983 32595 50905 10294 20205 39683 40097 82230 333 58010;EQDQ01  00002PRCP99
0186829830999992000040300004-09380-040480FM-12+037099999V0200901N001510075019N0020001N1+02621+02031101241ADDAA199000091GF106991061021008001001001KA1240M+03101MA1999999097101MD1999999-0031REMSYN076AAXX  03004 82983 32595 60903 10262 20203 39710 40124 86200 333 10310 59003;EQDQ01  00002PRCP99
0186829830999992000040312004-09380-040480FM-12+037099999V0200501N003110075019N0020001N1+02561+02061101421ADDAA199000091GF106991061021008001001001KA1240N+02291MA1999999097271MD1999999+0001REMSYN076AAXX  03124 82983 32595 60506 10256 20206 39727 40142 86200 333 20229 58000;EQDQ01  00002PRCP99
0167829830999992000040318004-09380-040480FM-12+037099999V0200501N003110075019N0020001N1+03201+01751100971ADDAA199000091GF105991051011008001001001MA1999999096861MD1999999+0031REMSYN070AAXX  03184 82983 32595 50506 10320 20175 39686 40097 85100 333 58003;EQDQ01  00002PRCP99
0196829830999992000040400004-09380-040480FM-12+037099999V0200901N003112200019N0020001N1+02761+01991101211ADDAA199000091GA1001+999999999GF100991001001999999001001KA1240M+03241MA1999999097071MD1999999-0031REMSYN070AAXX  04004 82983 32995 00906 10276 20199 39707 40121 333 10324 59003;EQDQ01  00002PRCP99
0186829830999992000040412004-09380-040480FM-12+037099999V0200901N005110075019N0200001N1+02641+01961101461ADDAA199000091GF106991061021008001001001KA1240N+02301MA1999999097321MD1999999+0051REMSYN076AAXX  04124 82983 32598 60910 10264 20196 39732 40146 86200 333 20230 58005;EQDQ01  00002PRCP99
0167829830999992000040418004-09380-040480FM-12+037099999V0200501N005110075019N0200001N1+02921+02061101051ADDAA199000091GF106991061021008001001001MA1999999096921MD1999999+0061REMSYN070AAXX  04184 82983 32598 60510 10292 20206 39692 40105 86200 333 58006;EQDQ01  00002PRCP99
0196829830999992000040500004-09380-040480FM-12+037099999V0200501N004112200019N0020001N1+02681+01991101281ADDAA199000091GA1001+999999999GF100991001001999999001001KA1240M+03081MA1999999097141MD1999999+0071REMSYN070AAXX  05004 82983 32595 00508 10268 20199 39714 40128 333 10308 58007;EQDQ01  00002PRCP99
0186829830999992000040512004-09380-040480FM-12+037099999V0200901N003110075019N0020001N1+02521+02001101521ADDAA199000091GF106991061011008001001001KA1240N+02141MA1999999097361MD1999999+0041REMSYN076AAXX  05124 82983 32595 60906 10252 20200 39736 40152 86100 333 20214 58004;EQDQ01  00002PRCP99
0167829830999992000040518004-09380-040480FM-12+037099999V0200501N003112200019N0020001N1+03161+01891100991ADDAA199000091GF102991021011008001001001MA1999999096871MD1999999-0051REMSYN070AAXX  05184 82983 32595 20506 10316 20189 39687 40099 82100 333 59005;EQDQ01  00002PRCP99
0196829830999992000040600004-09380-040480FM-12+037099999V0200901N005112200019N0020001N1+02641+01951101261ADDAA199000091GA1001+999999999GF100991001001999999001001KA1240M+03241MA1999999097121MD1999999-0021REMSYN070AAXX  06004 82983 32995 00910 10264 20195 39712 40126 333 10324 59002;EQDQ01  00002PRCP99
0186829830999992000040612004-09380-040480FM-12+037099999V0200501N003110075019N0020001N1+02541+01981101451ADDAA199000091GF106991061021008001001001KA1240N+02241MA1999999097301MD1999999-0061REMSYN076AAXX  06124 82983 32595 60506 10254 20198 39730 40145 86200 333 20224 59006;EQDQ01  00002PRCP99
0182829830999992000040618004-09380-040480FM-12+037099999V0203201N002610450019N0020001N1+02401+02261101051ADDAA106007991AY161061AY261061GF107991021021008001071001MA1999999096881MD1999999+0011MW1601REMSYN082AAXX  06184 82983 21595 73205 10240 20226 39688 40105 76066 82270 333 58001 60081;
0201829830999992000040700004-09380-040480FM-12+037099999V0200901N001512200019N0020001N1+02481+02301101121ADDAA106005191AY161061AY261061GF104991041001008001001031KA1240M+03201MA1999999096971MD1999999-0141MW1031REMSYN088AAXX  07004 82983 21595 40903 10248 20230 39697 40112 70366 84003 333 10320 59014 60051;
0173829830999992000040712004-09380-040480FM-12+037099999V0200501N004110075019N0020001N1+02421+02011101321ADDAA124009991GF107991071021008001001001KA1240N+02121MA1999999097151MD1999999-0151REMSYN082AAXX  07124 82983 22595 70508 10242 20201 39715 40132 87200 333 20212 59015 60104;
0167829830999992000040718004-09380-040480FM-12+037099999V0200501N003110450019N0020001N1+03141+01661100841ADDAA199000091GF107991041021008001031001MA1999999096721MD1999999-0121REMSYN070AAXX  07184 82983 32595 70506 10314 20166 39672 40084 84230 333 59012;EQDQ01  00002PRCP99
0186829830999992000040800004-09380-040480FM-12+037099999V0200501N001512200019N0020001N1+02741+01811101031ADDAA199000091GF103991031011008001001001KA1240M+03161MA1999999096901MD1999999-0071REMSYN076AAXX  08004 82983 32595 30503 10274 20181 39690 40103 83100 333 10316 59007;EQDQ01  00002PRCP99
0186829830999992000040812004-09380-040480FM-12+037099999V0200501N003110450019N0020001N1+02401+01931101351ADDAA199000091GF107991021011008001031001KA1240N+02241MA1999999097191MD1999999+0041REMSYN076AAXX  08124 82983 32595 70506 10240 20193 39719 40135 82130 333 20224 58004;EQDQ01  00002PRCP99
0167829830999992000040818004-09380-040480FM-12+037099999V0200501N003119999999N0020001N1+02981+01791100951ADDAA199000091GF106991061001008001031001MA1999999096821MD1999999+0101REMSYN070AAXX  08184 82983 32595 60506 10298 20179 39682 40095 86030 333 58010;EQDQ01  00002PRCP99
0186829830999992000040900004-09380-040480FM-12+037099999V0200901N001510075019N0020001N1+02651+01751101151ADDAA199000091GF108991081051008001999999KA1240M+03101MA1999999097011MD1999999+0111REMSYN076AAXX  09004 82983 32595 80903 10265 20175 39701 40115 885// 333 10310 58011;EQDQ01  00002PRCP99
0186829830999992000040912004-09380-040480FM-12+037099999V0200901N003110075019N0020001N1+02621+02011101281ADDAA199000091GF105991051011008001001001KA1240N+02361MA1999999097141MD1999999-0031REMSYN076AAXX  09124 82983 32595 50906 10262 20201 39714 40128 85100 333 20236 59003;EQDQ01  00002PRCP99
0167829830999992000040918004-09380-040480FM-12+037099999V0200901N003110450019N0020001N1+03121+01821100821ADDAA199000091GF106991041011008001011011MA1999999096711MD1999999-0111REMSYN070AAXX  09184 82983 32595 60906 10312 20182 39671 40082 84111 333 59011;EQDQ01  00002PRCP99
0201829830999992000041000004-09380-040480FM-12+037099999V0200901N003110075019N0020001N1+02521+02021101141ADDAA106000591AY151061AY251061GF105991051021008001001001KA1240M+03201MA1999999097001MD1999999-0011MW1031REMSYN088AAXX  10004 82983 21595 50906 10252 20202 39700 40114 70355 85200 333 10320 59001 69941;
0173829830999992000041012004-09380-040480FM-12+037099999V0200901N003110075019N0020001N1+02501+01981101341ADDAA124000591GF108991081011008001999999KA1240N+02281MA1999999097181MD1999999+0041REMSYN082AAXX  10124 82983 22595 80906 10250 20198 39718 40134 881// 333 20228 58004 69944;
0167829830999992000041018004-09380-040480FM-12+037099999V0200901N002610450019N0020001N1+03041+01911100821ADDAA199000091GF106991041021008001031001MA1999999096701MD1999999-0011REMSYN070AAXX  10184 82983 32595 60905 10304 20191 39670 40082 84230 333 59001;EQDQ01  00002PRCP99
0186829830999992000041100004-09380-040480FM-12+037099999V0200901N002610075019N0020001N1+02741+01951101111ADDAA199000091GF106991061041008001001001KA1240M+03121MA1999999096971MD1999999-0031REMSYN076AAXX  11004 82983 32595 60905 10274 20195 39697 40111 86400 333 10312 59003;EQDQ01  00002PRCP99
0186829830999992000041112004-09380-040480FM-12+037099999V0200901N003112200019N0020001N1+02561+01881101331ADDAA199000091GF104991021011008001001021KA1240N+02301MA1999999097191MD1999999+0011REMSYN076AAXX  11124 82983 32595 40906 10256 20188 39719 40133 82102 333 20230 58001;EQDQ01  00002PRCP99
0167829830999992000041118004-09380-040480FM-12+037099999V0200901N002612200019N0020001N1+03221+01691100841ADDAA199000091GF104991041011008001001001MA1999999096751MD1999999+0051REMSYN070AAXX  11184 82983 32595 40905 10322 20169 39675 40084 84100 333 58005;EQDQ01  00002PRCP99
0196829830999992000041200004-09380-040480FM-12+037099999V0200901N003112200019N0020001N1+02841+01631101001ADDAA199000091GA1001+999999999GF100991001001999999001001KA1240M+03301MA1999999096881MD1999999-0091REMSYN070AAXX  12004 82983 32995 00906 10284 20163 39688 40100 333 10330 59009;EQDQ01  00002PRCP99
0186829830999992000041212004-09380-040480FM-12+037099999V0200901N003111050019N0020001N1+02521+01841101311ADDAA199000091GF106991031011008001001021KA1240N+02221MA1999999097171MD1999999-0021REMSYN076AAXX  12124 82983 32595 60906 10252 20184 39717 40131 83102 333 20222 59002;EQDQ01  00002PRCP99
0167829830999992000041218004-09380-040480FM-12+037099999V0200501N003110450019N0020001N1+03141+01661100771ADDAA199000091GF107991021011008001011021MA1999999096661MD1999999-0091REMSYN070AAXX  12184 82983 32595 70506 10314 20166 39666 40077 82112 333 59009;EQDQ01  00002PRCP99
0196829830999992000041300004-09380-040480FM-12+037099999V0200901N003112200019N0020001N1+02861+01751100991ADDAA199000091GA1001+999999999GF100991001001999999001001KA1240M+03181MA1999999096871MD1999999-0011REMSYN070AAXX  13004 82983 32995 00906 10286 20175 39687 40099 333 10318 59001;EQDQ01  00002PRCP99
0186829830999992000041312004-09380-040480FM-12+037099999V0200901N003110450019N0020001N1+02661+02071101261ADDAA199000091GF108991031011008001031999KA1240N+02441MA1999999097141MD1999999-0031REMSYN076AAXX  13124 82983 32595 80906 10266 20207 39714 40126 8313/ 333 20244 59003;EQDQ01  00002PRCP99
0167829830999992000041318004-09380-040480FM-12+037099999V0201801N003110450019N0020001N1+03081+02041100731ADDAA199000091GF106991031011008001021001MA1999999096631MD1999999-0031REMSYN070AAXX  13184 82983 32595 61806 10308 20204 39663 40073 83120 333 59003;EQDQ01  00002PRCP99
0201829830999992000041400004-09380-040480FM-12+037099999V0200501N004110075019N0020001N1+02581+02191101151ADDAA106002091AY161061AY221061GF108991081051008001999999KA1240M+03201MA1999999097011MD1999999+0141MW1031REMSYN088AAXX  14004 82983 21595 80508 10258 20219 39701 40115 70362 885// 333 10320 58014 60021;
0167829830999992000041418004-09380-040480FM-12+037099999V0200501N003110450019N0020001N1+03201+01551100911ADDAA199000091GF106991031021008001031001MA1999999096811MD1999999+0181REMSYN070AAXX  14184 82983 32595 60506 10320 20155 39681 40091 83230 333 58018;EQDQ01  00002PRCP99
0186829830999992000041500004-09380-040480FM-12+037099999V0200901N001510450019N0020001N1+02741+01641101211ADDAA199000091GF106991021011008001031001KA1240M+03211MA1999999097071MD1999999+0061REMSYN076AAXX  15004 82983 32595 60903 10274 20164 39707 40121 82130 333 10321 58006;EQDQ01  00002PRCP99
0186829830999992000041512004-09380-040480FM-12+037099999V0200901N003110450019N0020001N1+02561+02021101501ADDAA199000091GF106991041021008001031001KA1240N+02281MA1999999097351MD1999999+0141REMSYN076AAXX  15124 82983 32595 60906 10256 20202 39735 40150 84230 333 20228 58014;EQDQ01  00002PRCP99
0170829830999992000041518004-09380-040480FM-12+037099999V0200901N002619999999N0020001N1+03141+01731100991ADDAA199000021AY101061AY251061GF107991999999008001999999MA1999999096871MD1999999+0061MW1201REMSYN070AAXX  15184 82983 32595 70905 10314 20173 39687 40099 72005 333 58006;
0167829830999992000041600004-09380-040480FM-12+037099999V0200501N002610075019N0020001N1+02861+01901101301ADDAA199000021GF108991081051008001999999KA1240M+03241MA1999999097161MD1999999+0091REMSYN076AAXX  16004 82983 32595 80505 10286 20190 39716 40130 885// 333 10324 58009;
0186829830999992000041612004-09380-040480FM-12+037099999V0200901N001510075019N0020001N1+02481+02051101461ADDAA199000091GF108991081051008001999999KA1240N+02321MA1999999097321MD1999999-0031REMSYN076AAXX  16124 82983 32595 80903 10248 20205 39732 40146 885// 333 20232 59003;EQDQ01  00002PRCP99
0167829830999992000041618004-09380-040480FM-12+037099999V0200901N002610075019N0020001N1+03171+01891100961ADDAA199000091GF106991051021008001031001MA1999999096791MD1999999-0081REMSYN070AAXX  16184 82983 32595 60905 10317 20189 39679 40096 85230 333 59008;EQDQ01  00002PRCP99
0186829830999992000041712004-09380-040480FM-12+037099999V0200901N004110075019N0020001N1+02601+01891101431ADDAA199000091GF105991051021008001001001KA1240N+02351MA1999999097281MD1999999-0041REMSYN076AAXX  17124 82983 32595 50908 10260 20189 39728 40143 85200 333 20235 59004;EQDQ01  00002PRCP99
0167829830999992000041718004-09380-040480FM-12+037099999V0200501N002610075019N0020001N1+03201+01711100831ADDAA199000091GF106991061021008001001001MA1999999096731MD1999999-0061REMSYN070AAXX  17184 82983 32595 60505 10320 20171 39673 40083 86200 333 59006;EQDQ01  00002PRCP99
0186829830999992000041800004-09380-040480FM-12+037099999V0200501N003112200019N0020001N1+02701+02031101141ADDAA199000091GF103991031021008001001001KA1240M+03241MA1999999097001MD1999999-0101REMSYN076AAXX  18004 82983 32595 30506 10270 20203 39700 40114 83200 333 10324 59010;EQDQ01  00002PRCP99
0186829830999992000041812004-09380-040480FM-12+037099999V0200501N003110075019N0020001N1+02701+01991101351ADDAA199000091GF106991061021008001001001KA1240N+02411MA1999999097211MD1999999-0071REMSYN076AAXX  18124 82983 32595 60506 10270 20199 39721 40135 86200 333 20241 59007;EQDQ01  00002PRCP99
0167829830999992000041818004-09380-040480FM-12+037099999V0200501N005112200019N0020001N1+03101+01771100931ADDAA199000091GF104991041021008001001001MA1999999096811MD1999999+0081REMSYN070AAXX  18184 82983 32595 40510 10310 20177 39681 40093 84200 333 58008;EQDQ01  00002PRCP99
0186829830999992000041900004-09380-040480FM-12+037099999V0200501N002612200019N0020001N1+02801+01921101181ADDAA199000091GF103991031011008001001001KA1240M+03141MA1999999097061MD1999999+0061REMSYN076AAXX  19004 82983 32595 30505 10280 20192 39706 40118 83100 333 10314 58006;EQDQ01  00002PRCP99
0186829830999992000041912004-09380-040480FM-12+037099999V0200501N003110075019N0020001N1+02601+02061101461ADDAA199000091GF107991071021008001001001KA1240N+02431MA1999999097321MD1999999+0111REMSYN076AAXX  19124 82983 32595 70506 10260 20206 39732 40146 87200 333 20243 58011;EQDQ01  00002PRCP99
0167829830999992000041918004-09380-040480FM-12+037099999V0203601N003110075019N0020001N1+03181+01911100871ADDAA199000091GF106991061021008001001001MA1999999096781MD1999999-0031REMSYN070AAXX  19184 82983 32595 63606 10318 20191 39678 40087 86200 333 59003;EQDQ01  00002PRCP99
0186829830999992000042000004-09380-040480FM-12+037099999V0200901N001510075019N0020001N1+02541+02251101171ADDAA199000091GF106991061021008001001001KA1240M+03221MA1999999097031MD1999999-0031REMSYN076AAXX  20004 82983 32595 60903 10254 20225 39703 40117 86200 333 10322 59003;EQDQ01  00002PRCP99
0201829830999992000042012004-09380-040480FM-12+037099999V0200901N002610075019N0020001N1+02561+02231101371ADDAA124005191AY161061AY251061GF106991061021008001001001KA1240N+02321MA1999999097211MD1999999-0211MW1031REMSYN088AAXX  20124 82983 21595 60905 10256 20223 39721 40137 70365 86200 333 20232 59021 60054;
0167829830999992000042018004-09380-040480FM-12+037099999V0200501N001512200019N0020001N1+03241+02031100731ADDAA199000091GF104991041011008001001001MA1999999096651MD1999999-0131REMSYN070AAXX  20184 82983 32595 40503 10324 20203 39665 40073 84100 333 59013;EQDQ01  00002PRCP99
0201829830999992000042112004-09380-040480FM-12+037099999V0200501N001510075019N0020001N1+02601+02231101251ADDAA124025991AY161061AY251061GF105991051011008001001001KA1240N+02301MA1999999097111MD1999999-0101MW1031REMSYN088AAXX  21124 82983 21595 50503 10260 20223 39711 40125 70365 85100 333 20230 59010 60264;
0167829830999992000042118004-09380-040480FM-12+037099999V0200901N001512200019N0200001N1+03241+02331100681ADDAA199000091GF103991031011008001001001MA1999999096581MD1999999-0071REMSYN070AAXX  21184 82983 32598 30903 10324 20233 39658 40068 83100 333 59007;EQDQ01  00002PRCP99
0186829830999992000042200004-09380-040480FM-12+037099999V0203601N001510075019N0020001N1+02741+02241100931ADDAA199000091GF106991061011008001001001KA1240M+03301MA1999999096801MD1999999-0251REMSYN076AAXX  22004 82983 32595 63603 10274 20224 39680 40093 86100 333 10330 59025;EQDQ01  00002PRCP99
0167829830999992000042218004-09380-040480FM-12+037099999V0203601N002612200019N0020001N1+03261+01841100751ADDAA199000091GF102991021011008001001001MA1999999096631MD1999999+0051REMSYN070AAXX  22184 82983 32595 23605 10326 20184 39663 40075 82100 333 58005;EQDQ01  00002PRCP99
0186829830999992000042300004-09380-040480FM-12+037099999V0203201N001510075019N0020001N1+02761+02141101061ADDAA199000091GF105991051061008001001001KA1240M+03301MA1999999096931MD1999999+0131REMSYN076AAXX  23004 82983 32595 53203 10276 20214 39693 40106 85600 333 10330 58013;EQDQ01  00002PRCP99
0202829830999992000042312004-09380-040480FM-12+037099999V0201801N001519999999N0020001N1+02621+02141101371ADDAA199000091GF105991999011008001001001KA1240N+02321MA1999999097191MD1999999+0151REMSYN076AAXX  23124 82983 32595 51803 10262 20214 39719 40137 87100 333 20232 58015;EQDQ01+000072SCOTLCQ02  00002PRCP99
0167829830999992000042318004-09380-040480FM-12+037099999V0200501N001512200019N0020001N1+03281+02001100801ADDAA199000091GF104991021011008001001021MA1999999096681MD1999999+0051REMSYN070AAXX  23184 82983 32595 40503 10328 20200 39668 40080 82102 333 58005;EQDQ01  00002PRCP99
0186829830999992000042400004-09380-040480FM-12+037099999V0200901N001510075019N0020001N1+02681+02111100821ADDAA199000091GF105991051011008001001001KA1240M+03301MA1999999097081MD1999999+0151REMSYN076AAXX  24004 82983 32595 50903 10268 20211 39708 40082 85100 333 10330 58015;EQDQ01  00002PRCP99
0167829830999992000042418004-09380-040480FM-12+037099999V0200901N003110075019N0020001N1+03041+01971100951ADDAA199000091GF105991051011008001001001MA1999999096831MD1999999+0151REMSYN070AAXX  24184 82983 32595 50906 10304 20197 39683 40095 85100 333 58015;EQDQ01  00002PRCP99
0186829830999992000042500004-09380-040480FM-12+037099999V0200901N005112200019N0020001N1+02641+02051101201ADDAA199000091GF103991031011008001001001KA1240M+03141MA1999999097061MD1999999-0021REMSYN076AAXX  25004 82983 32595 30910 10264 20205 39706 40120 83100 333 10314 59002;EQDQ01  00002PRCP99
0186829830999992000042512004-09380-040480FM-12+037099999V0200901N004110075019N0020001N1+02401+02031101411ADDAA199000091GF108991081051008001999999KA1240N+02301MA1999999097251MD1999999+0061REMSYN076AAXX  25124 82983 32595 80908 10240 20203 39725 40141 885// 333 20230 58006;EQDQ01  00002PRCP99
0167829830999992000042518004-09380-040480FM-12+037099999V0200501N004112200019N0020001N1+02921+01801101051ADDAA199000091GF102991021011008001001021MA1999999096921MD1999999+0091REMSYN070AAXX  25184 82983 32595 20508 10292 20180 39692 40105 82102 333 58009;EQDQ01  00002PRCP99
0186829830999992000042600004-09380-040480FM-12+037099999V0200901N001510075019N0020001N1+02641+01931101361ADDAA199000091GF108991081061008001999999KA1240M+02941MA1999999097201MD1999999+0141REMSYN076AAXX  26004 82983 32595 80903 10264 20193 39720 40136 886// 333 10294 58014;EQDQ01  00002PRCP99
0186829830999992000042612004-09380-040480FM-12+037099999V0200901N003110075019N0020001N1+02321+01851101581ADDAA199000091GF108991051021008001021999KA1240N+02111MA1999999097411MD1999999+0161REMSYN076AAXX  26124 82983 32595 80906 10232 20185 39741 40158 8522/ 333 20211 58016;EQDQ01  00002PRCP99
0167829830999992000042618004-09380-040480FM-12+037099999V0200501N003110450019N0020001N1+02891+01691101111ADDAA199000091GF106991021011008001031001MA1999999096971MD1999999+0051REMSYN070AAXX  26184 82983 32595 60506 10289 20169 39697 40111 82130 333 58005;EQDQ01  00002PRCP99
0196829830999992000042700004-09380-040480FM-12+037099999V0200901N002612200019N0020001N1+02581+01741101341ADDAA199000091GA1001+999999999GF100991001001999999001001KA1240M+02881MA1999999097171MD1999999-0031REMSYN070AAXX  27004 82983 32595 00905 10258 20174 39717 40134 333 10288 59003;EQDQ01  00002PRCP99
0186829830999992000042712004-09380-040480FM-12+037099999V0200901N005110075019N0020001N1+02501+01841101561ADDAA199000091GF105991051021008001001001KA1240N+02191MA1999999097401MD1999999-0011REMSYN076AAXX  27124 82983 32595 50910 10250 20184 39740 40156 85200 333 20219 59001;EQDQ01  00002PRCP99
0167829830999992000042718004-09380-040480FM-12+037099999V0200501N003110075019N0020001N1+03061+01661101111ADDAA199000091GF106991061021008001001001MA1999999096971MD1999999+0001REMSYN070AAXX  27184 82983 32595 60506 10306 20166 39697 40111 86200 333 58000;EQDQ01  00002PRCP99
0196829830999992000042800004-09380-040480FM-12+037099999V0200901N001512200019N0020001N1+02681+01701101361ADDAA199000091GA1001+999999999GF100991001001999999001001KA1240M+03101MA1999999097221MD1999999+0051REMSYN070AAXX  28004 82983 32595 00903 10268 20170 39722 40136 333 10310 58005;EQDQ01  00002PRCP99
0167829830999992000042818004-09380-040480FM-12+037099999V0200901N002612200019N0020001N1+03001+01911101141ADDAA199000091GF104991031011008001031001MA1999999097001MD1999999+0031REMSYN070AAXX  28184 82983 32595 40905 10300 20191 39700 40114 83130 333 58003;EQDQ01  00002PRCP99
0186829830999992000042900004-09380-040480FM-12+037099999V0200901N004110075019N0020001N1+02621+02011101421ADDAA199000091GF106991061021008001001001KA1240M+03061MA1999999097261MD1999999+0041REMSYN076AAXX  29004 82983 32595 60908 10262 20201 39726 40142 86200 333 10306 58004;EQDQ01  00002PRCP99
0186829830999992000042912004-09380-040480FM-12+037099999V0200901N004110075019N0020001N1+02561+01881101631ADDAA199000091GF107991071021008001001001KA1240N+02291MA1999999097471MD1999999+0001REMSYN076AAXX  29124 82983 32595 70908 10256 20188 39747 40163 87200 333 20229 58000;EQDQ01  00002PRCP99
0167829830999992000042918004-09380-040480FM-12+037099999V0200501N003112200019N0020001N1+03141+01291101131ADDAA199000091GF104991031021008001011001MA1999999097001MD1999999+0001REMSYN070AAXX  29184 82983 32595 40506 10314 20129 39700 40113 83210 333 58000;EQDQ01  00002PRCP99
0196829830999992000043000004-09380-040480FM-12+037099999V0200501N003112200019N0020001N1+02681+01921101421ADDAA199000091GA1001+999999999GF100991001001999999001001KA1240M+03201MA1999999097271MD1999999+0011REMSYN070AAXX  30004 82983 32595 00506 10268 20192 39727 40142 333 10320 58001;EQDQ01  00002PRCP99
0186829830999992000043012004-09380-040480FM-12+037099999V0200501N005110075019N0020001N1+02541+01911101561ADDAA199000091GF105991051021008001001001KA1240N+02241MA1999999097401MD1999999-0071REMSYN076AAXX  30124 82983 32595 50510 10254 20191 39740 40156 85200 333 20224 59007;EQDQ01  00002PRCP99
0167829830999992000043018004-09380-040480FM-12+037099999V0203601N005110075019N0020001N1+03131+01641101081ADDAA199000091GF105991051021008001001001MA1999999096951MD1999999-0051REMSYN070AAXX  30184 82983 32595 53610 10313 20164 39695 40108 85200 333 59005;EQDQ01  00002PRCP99
0196829830999992000050100004-09380-040480FM-12+037099999V0200901N002612200019N0020001N1+02681+01761101321ADDAA199000091GA1001+999999999GF100991001001999999001001KA1240M+03151MA1999999097171MD1999999-0101REMSYN070AAXX  01004 82983 32595 00905 10268 20176 39717 40132 333 10315 59010;EQDQ01  00002PRCP99
0186829830999992000050112004-09380-040480FM-12+037099999V0200901N003110075019N0020001N1+02481+01921101551ADDAA199000091GF108991081051008001999999KA1240N+02241MA1999999097391MD1999999-0011REMSYN076AAXX  01124 82983 32595 80906 10248 20192 39739 40155 885// 333 20224 59001;EQDQ01  00002PRCP99
0167829830999992000050118004-09380-040480FM-12+037099999V0200501N004110450019N0020001N1+03101+01801101081ADDAA199000091GF107991041021008001031001MA1999999096891MD1999999-0061REMSYN070AAXX  01184 82983 32595 70508 10310 20180 39689 40108 84230 333 59006;EQDQ01  00002PRCP99
0196829830999992000050200004-09380-040480FM-12+037099999V0200901N003112200019N0020001N1+02661+01971101271ADDAA199000091GA1001+999999999GF100991001001999999001001KA1240M+03121MA1999999097131MD1999999-0041REMSYN070AAXX  02004 82983 32595 00906 10266 20197 39713 40127 333 10312 59004;EQDQ01  00002PRCP99
0186829830999992000050212004-09380-040480FM-12+037099999V0200901N003112200019N0020001N1+02521+01841101481ADDAA199000091GF104991041011008001001001KA1240N+02161MA1999999097331MD1999999-0061REMSYN076AAXX  02124 82983 32595 40906 10252 20184 39733 40148 84100 333 20216 59006;EQDQ01  00002PRCP99
0167829830999992000050218004-09380-040480FM-12+037099999V0200901N003112200019N0020001N1+03201+01511100951ADDAA199000091GF102991021011008001001001MA1999999096831MD1999999-0061REMSYN070AAXX  02184 82983 32595 20906 10320 20151 39683 40095 82100 333 59006;EQDQ01  00002PRCP99
0196829830999992000050300004-09380-040480FM-12+037099999V0200901N004112200019N0020001N1+02681+01781101281ADDAA199000091GA1001+999999999GF100991001001999999001001KA1240M+03241MA1999999097141MD1999999+0011REMSYN070AAXX  03004 82983 32995 00908 10268 20178 39714 40128 333 10324 58001;EQDQ01  00002PRCP99
0186829830999992000050312004-09380-040480FM-12+037099999V0200901N003110075019N0020001N1+02461+01941101481ADDAA199000091GF106991061011008001001001KA1240N+02281MA1999999097321MD1999999-0011REMSYN076AAXX  03124 82983 32595 60906 10246 20194 39732 40148 86100 333 20228 59001;EQDQ01  00002PRCP99
0167829830999992000050318004-09380-040480FM-12+037099999V0200501N003112200019N0020001N1+03181+01691100951ADDAA199000091GF104991041011008001001001MA1999999096831MD1999999+0001REMSYN070AAXX  03184 82983 32595 40506 10318 20169 39683 40095 84100 333 58000;EQDQ01  00002PRCP99
0196829830999992000050400004-09380-040480FM-12+037099999V0200901N002612200019N0020001N1+02701+01601101231ADDAA199000091GA1001+999999999GF100991001001999999001001KA1240M+03241MA1999999097091MD1999999-0051REMSYN070AAXX  04004 82983 32995 00905 10270 20160 39709 40123 333 10324 59005;EQDQ01  00002PRCP99
0186829830999992000050412004-09380-040480FM-12+037099999V0200901N004112200019N0020001N1+02541+01811101441ADDAA199000091GF104991041011008001001001KA1240N+02181MA1999999097291MD1999999-0031REMSYN076AAXX  04124 82983 32595 40908 10254 20181 39729 40144 84100 333 20218 59003;EQDQ01  00002PRCP99
0167829830999992000050418004-09380-040480FM-12+037099999V0200501N004112200019N0020001N1+03161+01601100991ADDAA199000091GF102991021011008001001001MA1999999096861MD1999999+0031REMSYN070AAXX  04184 82983 32595 20508 10316 20160 39686 40099 82100 333 58003;EQDQ01  00002PRCP99
0196829830999992000050500004-09380-040480FM-12+037099999V0200901N003112200019N0020001N1+02741+01701101161ADDAA199000091GA1001+999999999GF100991001001999999001001KA1240M+03181MA1999999097021MD1999999-0071REMSYN070AAXX  05004 82983 32995 00906 10274 20170 39702 40116 333 10318 59007;EQDQ01  00002PRCP99
0186829830999992000050512004-09380-040480FM-12+037099999V0200901N003110075019N0020001N1+02441+01861101401ADDAA199000091GF108991081051008001999999KA1240N+02261MA1999999097251MD1999999-0041REMSYN076AAXX  05124 82983 32595 80906 10244 20186 39725 40140 885// 333 20226 59004;EQDQ01  00002PRCP99
0167829830999992000050518004-09380-040480FM-12+037099999V0200501N004110075019N0020001N1+03121+01751100961ADDAA199000091GF105991051011008001001001MA1999999096831MD1999999-0031REMSYN070AAXX  05184 82983 32595 50508 10312 20175 39683 40096 85100 333 59003;EQDQ01  00002PRCP99
0186829830999992000050600004-09380-040480FM-12+037099999V0200901N003112200019N0020001N1+02761+01891101191ADDAA199000091GF104991041011008001001001KA1240M+03161MA1999999097051MD1999999+0031REMSYN076AAXX  06004 82983 32595 40906 10276 20189 39705 40119 84100 333 10316 58003;EQDQ01  00002PRCP99
0186829830999992000050612004-09380-040480FM-12+037099999V0200901N004112200019N0020001N1+02641+01951101291ADDAA199000091GF104991041011008001001001KA1240N+02301MA1999999097151MD1999999-0101REMSYN076AAXX  06124 82983 32595 40908 10264 20195 39715 40129 84100 333 20230 59010;EQDQ01  00002PRCP99
0167829830999992000050618004-09380-040480FM-12+037099999V0200501N003110120019N0020001N1+02961+01841100981ADDAA199000091GF108991051081008001061999MA1999999096851MD1999999+0021REMSYN070AAXX  06184 82983 32595 80506 10296 20184 39685 40098 8586/ 333 58002;EQDQ01  00002PRCP99
0186829830999992000050700004-09380-040480FM-12+037099999V0200901N002612200019N0020001N1+02701+01991101161ADDAA199000091GF104991041011008001001001KA1240M+03021MA1999999097021MD1999999-0031REMSYN076AAXX  07004 82983 32595 40905 10270 20199 39702 40116 84100 333 10302 59003;EQDQ01  00002PRCP99
0186829830999992000050712004-09380-040480FM-12+037099999V0200901N003110075019N0020001N1+02621+02031101311ADDAA199000091GF106991061021008001001001KA1240N+02321MA1999999097171MD1999999+0021REMSYN076AAXX  07124 82983 32595 60906 10262 20203 39717 40131 86200 333 20232 58002;EQDQ01  00002PRCP99
0137829830999992000050718004-09380-040480FM-12+037099999V0200901N003119999999N0020001N1+99999+99999999999ADDAA199000091GF106991999999008001999999REMSYN069AAXX  07184 82983 32595 60906 1318 20180 39677 40087 84101 333 59008;EQDQ01  00002PRCP99
0196829830999992000050800004-09380-040480FM-12+037099999V0200901N001512200019N0020001N1+02701+01881101171ADDAA199000091GA1001+999999999GF100991001001999999001001KA1240M+03221MA1999999097031MD1999999+0011REMSYN070AAXX  08004 82983 32995 00903 10270 20188 39703 40117 333 10322 58001;EQDQ01  00002PRCP99
0186829830999992000050812004-09380-040480FM-12+037099999V0200501N005110075019N0020001N1+02641+01951101481ADDAA199000091GF108991081051008001999999KA1240N+02411MA1999999097341MD1999999+0171REMSYN076AAXX  08124 82983 32595 80510 10264 20195 39734 40148 885// 333 20241 58017;EQDQ01  00002PRCP99
0167829830999992000050818004-09380-040480FM-12+037099999V0200501N004110075019N0020001N1+03281+01861100991ADDAA199000091GF106991061021008001001001MA1999999096901MD1999999+0131REMSYN070AAXX  08184 82983 32595 60508 10328 20186 39690 40099 86200 333 58013;EQDQ01  00002PRCP99
0196829830999992000050900004-09380-040480FM-12+037099999V0200501N002612200019N0020001N1+02801+01781101221ADDAA199000091GA1001+999999999GF100991001001999999001001KA1240M+03301MA1999999097091MD1999999+0061REMSYN070AAXX  09004 82983 32595 00505 10280 20178 39709 40122 333 10330 58006;EQDQ01  00002PRCP99
0186829830999992000050912004-09380-040480FM-12+037099999V0200901N003110075019N0020001N1+02481+01981101551ADDAA199000091GF108991081051008001999999KA1240N+02221MA1999999097401MD1999999+0061REMSYN076AAXX  09124 82983 32595 80906 10248 20198 39740 40155 885// 333 20222 58006;EQDQ01  00002PRCP99
0167829830999992000050918004-09380-040480FM-12+037099999V0203601N005110450019N0020001N1+03001+02171101111ADDAA199000091GF106991041021008001031001MA1999999096971MD1999999+0071REMSYN070AAXX  09184 82983 32595 63610 10300 20217 39697 40111 84230 333 58007;EQDQ01  00002PRCP99
0196829830999992000051012004-09380-040480FM-12+037099999V0200501N002612200019N0020001N1+02601+01891101581ADDAA199000091GA1001+999999999GF100991001001999999001001KA1240N+02241MA1999999097421MD1999999+0021REMSYN070AAXX  10124 82983 32995 00505 10260 20189 39742 40158 333 20224 58002;EQDQ01  00002PRCP99
0167829830999992000051018004-09380-040480FM-12+037099999V0203601N003112200019N0020001N1+03371+01651101031ADDAA199000091GF104991021021008001031001MA1999999096941MD1999999-0031REMSYN070AAXX  10184 82983 32595 43606 10337 20165 39694 40103 82230 333 59003;EQDQ01  00002PRCP99
0196829830999992000051100004-09380-040480FM-12+037099999V0200901N002612200019N0020001N1+02901+01691101301ADDAA199000091GA1001+999999999GF100991001001999999001001KA1240M+03401MA1999999097181MD1999999+0011REMSYN070AAXX  11004 82983 32595 00905 10290 20169 39718 40130 333 10340 58001;EQDQ01  00002PRCP99
0186829830999992000051112004-09380-040480FM-12+037099999V0200901N003112200019N0020001N1+02601+01841101551ADDAA199000091GF102991021011008001001001KA1240N+02271MA1999999097421MD1999999+0001REMSYN076AAXX  11124 82983 32595 20906 10260 20184 39742 40155 82100 333 20227 58000;EQDQ01  00002PRCP99
0167829830999992000051118004-09380-040480FM-12+037099999V0200901N005110450019N0020001N1+03201+01711101021ADDAA199000091GF106991041011008001031001MA1999999096911MD1999999-0031REMSYN070AAXX  11184 82983 32595 60910 10320 20171 39691 40102 84130 333 59003;EQDQ01  00002PRCP99
0196829830999992000051200004-09380-040480FM-12+037099999V0200901N005112200019N0020001N1+02801+01901101301ADDAA199000091GA1001+999999999GF100991001001999999001001KA1240M+03241MA1999999097161MD1999999-0021REMSYN070AAXX  12004 82983 32995 00910 10280 20190 39716 40130 333 10324 59002;EQDQ01  00002PRCP99
0186829830999992000051212004-09380-040480FM-12+037099999V0200901N004110075019N0020001N1+02441+01861101571ADDAA199000091GF108991081051008001999999KA1240N+02281MA1999999097411MD1999999-0011REMSYN076AAXX  12124 82983 32595 80908 10244 20186 39741 40157 885// 333 20228 59001;EQDQ01  00002PRCP99
0167829830999992000051218004-09380-040480FM-12+037099999V0200901N004110075019N0020001N1+02721+01771101211ADDAA199000091GF108991081051008001999999MA1999999097061MD1999999+0151REMSYN070AAXX  12184 82983 32595 80908 10272 20177 39706 40121 885// 333 58015;EQDQ01  00002PRCP99
0186829830999992000051300004-09380-040480FM-12+037099999V0200901N005112200019N0020001N1+02441+01861101531ADDAA199000091GF103991031041008001001001KA1240M+02801MA1999999097351MD1999999+0191REMSYN076AAXX  13004 82983 32595 30910 10244 20186 39735 40153 83400 333 10280 58019;EQDQ01  00002PRCP99
0186829830999992000051312004-09380-040480FM-12+037099999V0200901N005112200019N0020001N1+02341+01641101651ADDAA199000091GF104991041011008001001001KA1240N+02101MA1999999097471MD1999999+0061REMSYN076AAXX  13124 82983 32595 40910 10234 20164 39747 40165 84100 333 20210 58006;EQDQ01  00002PRCP99
0167829830999992000051318004-09380-040480FM-12+037099999V0200901N003110075019N0020001N1+02881+01571101231ADDAA199000091GF107991071051008001001001MA1999999097091MD1999999+0031REMSYN070AAXX  13184 82983 32595 70906 10288 20157 39709 40123 87500 333 58003;EQDQ01  00002PRCP99
0186829830999992000051400004-09380-040480FM-12+037099999V0200901N001510075019N0020001N1+02621+01501101451ADDAA199000091GF107991071051008001001001KA1240M+02941MA1999999097291MD1999999-0061REMSYN076AAXX  14004 82983 32595 70903 10262 20150 39729 40145 87500 333 10294 59006;EQDQ01  00002PRCP99
0186829830999992000051412004-09380-040480FM-12+037099999V0200901N003110075019N0020001N1+02341+01721101631ADDAA199000091GF106991061021008001001001KA1240N+02081MA1999999097461MD1999999-0011REMSYN076AAXX  14124 82983 32595 60906 10234 20172 39746 40163 86200 333 20208 59001;EQDQ01  00002PRCP99
0185829830999992000051418004-09380-040480FM-12+037099999V0200901N003110001519N0020001N1+03001+01531101171ADDAA199000091GA1061+000159089GF199999051011008001001001MA1999999097031REMSYN070AAXX  14184 82983 32595 50906 10300 20153 39703 40117 85100 333 86200;EQDQ01+000052SCOTCVQ02  00002PRCP99
0196829830999992000051500004-09380-040480FM-12+037099999V0200901N003112200019N9999999N1+02541+01651101461ADDAA199000091GA1001+999999999GF100991001001999999001001KA1240M+03081MA1999999097291MD1999999+0001REMSYN070AAXX  15004 82983 329// 00906 10254 20165 39729 40146 333 10308 58000;EQDQ01  00002PRCP99
0167829830999992000051518004-09380-040480FM-12+037099999V0200901N003112200019N0020001N1+03061+01381100971ADDAA199000091GF104991041011008001001001MA1999999096851MD1999999-0181REMSYN070AAXX  15184 82983 32595 40906 10306 20138 39685 40097 84100 333 59018;EQDQ01  00002PRCP99
0196829830999992000051600004-09380-040480FM-12+037099999V0200901N002612200019N0020001N1+02561+01471101251ADDAA199000091GA1001+999999999GF100991001001999999001001KA1240M+03121MA1999999097091MD1999999-0201REMSYN070AAXX  16004 82983 32995 00905 10256 20147 39709 40125 333 10312 59020;EQDQ01  00002PRCP99
0186829830999992000051612004-09380-040480FM-12+037099999V0200901N003112200019N0020001N1+02421+01721101471ADDAA199000091GF102991021011008001001001KA1240N+02061MA1999999097311MD1999999-0071REMSYN076AAXX  16124 82983 32595 20906 10242 20172 39731 40147 82100 333 20206 59007;EQDQ01  00002PRCP99
0167829830999992000051618004-09380-040480FM-12+037099999V0200901N002612200019N0020001N1+03241+01581100941ADDAA199000091GF102991021011008001001001MA1999999096811MD1999999-0041REMSYN070AAXX  16184 82983 32595 20905 10324 20158 39681 40094 82100 333 59004;EQDQ01  00002PRCP99
0186829830999992000051700004-09380-040480FM-12+037099999V0200901N003112200019N0020001N1+02821+01651101211ADDAA199000091GF102991021011008001001001KA1240M+03281MA1999999097071MD1999999-0021REMSYN076AAXX  17004 82983 32595 20906 10282 20165 39707 40121 82100 333 10328 59002;EQDQ01  00002PRCP99
0186829830999992000051712004-09380-040480FM-12+037099999V0200901N003110075019N0020001N1+02441+01831101561ADDAA199000091GF106991061011008001001001KA1240N+02201MA1999999097411MD1999999+0101REMSYN076AAXX  17124 82983 32595 60906 10244 20183 39741 40156 86100 333 20220 58010;EQDQ01  00002PRCP99
0167829830999992000051718004-09380-040480FM-12+037099999V0200501N002610075019N0020001N1+03281+01661100911ADDAA199000091GF105991051011008001001001MA1999999096811MD1999999+0001REMSYN070AAXX  17184 82983 32595 50505 10328 20166 39681 40091 85100 333 58000;EQDQ01  00002PRCP99
0186829830999992000051800004-09380-040480FM-12+037099999V0200501N003110075019N0020001N1+02841+01701101111ADDAA199000091GF105991051011008001001001KA1240M+03361MA1999999096971MD1999999-0101REMSYN076AAXX  18004 82983 32595 50506 10284 20170 39697 40111 85100 333 10336 59010;EQDQ01  00002PRCP99
0186829830999992000051812004-09380-040480FM-12+037099999V0200901N003110450019N0020001N1+02721+02081101361ADDAA199000091GF106991031011008001031001KA1240N+02431MA1999999097251MD1999999-0161REMSYN076AAXX  18124 82983 32595 60906 10272 20208 39725 40136 83130 333 20243 59016;EQDQ01  00002PRCP99
0167829830999992000051818004-09380-040480FM-12+037099999V0200901N001510075019N0020001N1+03461+01781100751ADDAA199000091GF106991051021008001031001MA1999999096691MD1999999-0121REMSYN070AAXX  18184 82983 32595 60903 10346 20178 39669 40075 85230 333 59012;EQDQ01  00002PRCP99
0186829830999992000051900004-09380-040480FM-12+037099999V0200501N003110075019N0020001N1+03001+01681101021ADDAA199000091GF105991051021008001001001KA1240M+03531MA1999999096931MD1999999-0041REMSYN076AAXX  19004 82983 32595 50506 10300 20168 39693 40102 85200 333 10353 59004;EQDQ01  00002PRCP99
0186829830999992000051912004-09380-040480FM-12+037099999V0200901N003110075019N0020001N1+02761+02021101341ADDAA199000091GF107991051021008001031001KA1240N+02501MA1999999097231MD1999999-0021REMSYN076AAXX  19124 82983 32595 70906 10276 20202 39723 40134 85230 333 20250 59002;EQDQ01  00002PRCP99
0167829830999992000051918004-09380-040480FM-12+037099999V0202701N005710075019N0020001N1+02701+02151101161ADDAA199000091GF108991081051008001999999MA1999999097021MD1999999+0331REMSYN070AAXX  19184 82983 32595 82711 10270 20215 39702 40116 885// 333 58033;EQDQ01  00002PRCP99
0186829830999992000052000004-09380-040480FM-12+037099999V0202301N001510075019N0020001N1+02501+02211101301ADDAA199000091GF108991081051008001999999KA1240M+03081MA1999999097161MD1999999+0231REMSYN076AAXX  20004 82983 32595 82303 10250 20221 39716 40130 885// 333 10308 58023;EQDQ01  00002PRCP99
0202829830999992000052012004-09380-040480FM-12+037099999V0200901N001519999999N0020001N1+02701+02151101541ADDAA199000091GF106991999021008001001001KA1240N+02401MA1999999097381MD1999999+0151REMSYN076AAXX  20124 82983 31595 60903 10270 20215 39738 40154 84200 333 20240 58015;EQDQ01+000042SCOTLCQ02  00002PRCP99
0167829830999992000052018004-09380-040480FM-12+037099999V0200501N002610075019N0020001N1+03381+01661101011ADDAA199000091GF105991051021008001001001MA1999999096921MD1999999-0101REMSYN070AAXX  20184 82983 32595 50505 10338 20166 39692 40101 85200 333 59010;EQDQ01  00002PRCP99
0186829830999992000052100004-09380-040480FM-12+037099999V0200901N002610450019N0020001N1+02981+01591101301ADDAA199000091GF106991031011008001031001KA1240M+03461MA1999999097191MD1999999+0031REMSYN076AAXX  21004 82983 32595 60905 10298 20159 39719 40130 83130 333 10346 58003;EQDQ01  00002PRCP99
0186829830999992000052112004-09380-040480FM-12+037099999V0200901N003110075019N0020001N1+02521+01891101661ADDAA199000091GF106991061021008001001001KA1240N+02241MA1999999097531MD1999999+0151REMSYN076AAXX  21124 82983 32595 60906 10252 20189 39753 40166 86200 333 20224 58015;EQDQ01  00002PRCP99
0167829830999992000052118004-09380-040480FM-12+037099999V0200901N004110075019N0020001N1+03141+01661101231ADDAA199000091GF106991061021008001001001MA1999999097111MD1999999+0191REMSYN070AAXX  21184 82983 32595 60908 10314 20166 39711 40123 86200 333 58019;EQDQ01  00002PRCP99
0196829830999992000052200004-09380-040480FM-12+037099999V0200901N005112200019N0020001N1+02701+01941101551ADDAA199000091GA1001+999999999GF100991001001999999001001KA1240M+03211MA1999999097391MD1999999+0201REMSYN070AAXX  22004 82983 32995 00910 10270 20194 39739 40155 333 10321 58020;EQDQ01  00002PRCP99
0198829830999992000052212004-09380-040480FM-12+037099999V0200901N003110075019N0020001N1+02381+02031101871ADDAA199000091GF108991081051008001999999KA1240N+02271MA1999999097691MD1999999+0161REMSYN088AAXX  22124 82983 32595 80906 10238 20203 39769 40187 885// 333 20227 58016 58012 60024;EQDQ01  00002PRCP99
0182829830999992000052218004-09380-040480FM-12+037099999V0200501N003110075019N0020001N1+02521+02021101511ADDAA106002091AY121061AY261061GF108991081051008001999999MA1999999097331MD1999999+0221MW1501REMSYN082AAXX  22184 82983 21595 80506 10252 20202 39733 40151 75026 885// 333 58022 60021;
0201829830999992000052300004-09380-040480FM-12+037099999V0200901N003110075019N0020001N1+02161+02021101841ADDAA106006191AY161061AY261061GF108991081051008001999999KA1240M+02751MA1999999097621MD1999999+0231MW1501REMSYN088AAXX  23004 82983 21595 80906 10216 20202 39762 40184 75066 885// 333 10275 58023 60061;
0201829830999992000052312004-09380-040480FM-12+037099999V0200901N004110075019N0020001N1+02211+01951102041ADDAA124007991AY161061AY261061GF108991081051008001999999KA1240N+02021MA1999999097811MD1999999+0121MW1031REMSYN088AAXX  23124 82983 21595 80908 10221 20195 39781 40204 70366 885// 333 20202 58012 60084;
0182829830999992000052318004-09380-040480FM-12+037099999V0200901N003110075019N0020001N1+02261+02071101691ADDAA106002091AY161061AY261061GF108991081051008001999999MA1999999097461MD1999999+0131MW1501REMSYN082AAXX  23184 82983 21595 80906 10226 20207 39746 40169 75066 885// 333 58013 60021;
0201829830999992000052400004-09380-040480FM-12+037099999V0200901N003110075019N0020001N1+02121+01971101901ADDAA106002091AY161061AY261061GF108991081051008001999999KA1240M+02541MA1999999097661MD1999999+0041MW1031REMSYN088AAXX  24004 82983 21595 80906 10212 20197 39766 40190 70366 885// 333 10254 58004 60021;
0173829830999992000052412004-09380-040480FM-12+037099999V0200901N003110075019N0020001N1+02201+01761102001ADDAA124003091GF107991071021008001001001KA1240N+02041MA1999999097761MD1999999-0051REMSYN082AAXX  24124 82983 22595 70906 10220 20176 39776 40200 87200 333 20204 59005 60034;
0167829830999992000052418004-09380-040480FM-12+037099999V0200501N005110075019N0020001N1+02661+01781101491ADDAA199000091GF106991061021008001001001MA1999999097311MD1999999-0251REMSYN070AAXX  24184 82983 32595 60510 10266 20178 39731 40149 86200 333 59025;EQDQ01  00002PRCP99
0196829830999992000052500004-09380-040480FM-12+037099999V0200901N001512200019N0020001N1+02201+01841101691ADDAA199000091GA1001+999999999GF100991001001999999001001KA1240M+02741MA1999999097481MD1999999-0181REMSYN070AAXX  25004 82983 32995 00903 10220 20184 39748 40169 333 10274 59018;EQDQ01  00002PRCP99
0184829830999992000052512004-09380-040480FM-12+037099999V0200501N003110075019N0020001N1+02211+01761101831ADDAA199000091GF108991081051008001999999KA1240N+02101MA1999999097611REMSYN088AAXX  25124 82983 32595 80506 10221 20176 39761 40183 885// 333 20210 5900/ 58006 60014;EQDQ01  00002PRCP99
0167829830999992000052518004-09380-040480FM-12+037099999V0200901N003110075019N0020001N1+02781+01761101411ADDAA199000091GF106991061021008001001001MA1999999097231MD1999999-0081REMSYN070AAXX  25184 82983 32595 60906 10278 20176 39723 40141 86200 333 59008;EQDQ01  00002PRCP99
0196829830999992000052600004-09380-040480FM-12+037099999V0200901N003112200019N0020001N1+02301+01901101581ADDAA199000091GA1001+999999999GF100991001001999999001001KA1240M+02831MA1999999097381MD1999999-0101REMSYN070AAXX  26004 82983 32595 00906 10230 20190 39738 40158 333 10283 59010;EQDQ01  00002PRCP99
0186829830999992000052612004-09380-040480FM-12+037099999V0200901N002610075019N0020001N1+02241+01801101751ADDAA199000091GF108991081051008001999999KA1240N+02091MA1999999097541MD1999999-0071REMSYN076AAXX  26124 82983 32595 80905 10224 20180 39754 40175 885// 333 20209 59007;EQDQ01  00002PRCP99
0167829830999992000052618004-09380-040480FM-12+037099999V0200501N002610075019N0020001N1+03001+01611101191ADDAA199000091GF105991051011008001001001MA1999999097051MD1999999-0181REMSYN070AAXX  26184 82983 32595 50505 10300 20161 39705 40119 85100 333 59018;EQDQ01  00002PRCP99
0196829830999992000052700004-09380-040480FM-12+037099999V0200901N002612200019N0020001N1+02501+01721101401ADDAA199000091GA1001+999999999GF100991001001999999001001KA1240M+03041MA1999999097221MD1999999-0161REMSYN070AAXX  27004 82983 32595 00905 10250 20172 39722 40140 333 10304 59016;EQDQ01  00002PRCP99
0186829830999992000052712004-09380-040480FM-12+037099999V0200901N003110075019N0020001N1+02461+01811101551ADDAA199000091GF106991061011008001001001KA1240N+02161MA1999999097381MD1999999-0161REMSYN076AAXX  27124 82983 32595 60906 10246 20181 39738 40155 86100 333 20216 59016;EQDQ01  00002PRCP99
0167829830999992000052718004-09380-040480FM-12+037099999V0203601N002610075019N0020001N1+03131+01521101011ADDAA199000091GF105991051011008001001001MA1999999096881MD1999999-0171REMSYN070AAXX  27184 82983 32595 53605 10313 20152 39688 40101 85100 333 59017;EQDQ01  00002PRCP99
0186829830999992000052800004-09380-040480FM-12+037099999V0200901N003112200019N0020001N1+02651+01661101211ADDAA199000091GF103991031011008001001001KA1240M+03191MA1999999097071MD1999999-0151REMSYN076AAXX  28004 82983 32595 30906 10265 20166 39707 40121 83100 333 10319 59015;EQDQ01  00002PRCP99
0186829830999992000052812004-09380-040480FM-12+037099999V0200901N003110075019N0020001N1+02381+01871101401ADDAA199000091GF105991051011008001001001KA1240N+02141MA1999999097241MD1999999-0141REMSYN076AAXX  28124 82983 32595 50906 10238 20187 39724 40140 85100 333 20214 59014;EQDQ01  00002PRCP99
0167829830999992000052818004-09380-040480FM-12+037099999V0200501N001512200019N0020001N1+03181+01491100821ADDAA199000091GF102991021011008001001001MA1999999096711MD1999999-0171REMSYN070AAXX  28184 82983 32595 20503 10318 20149 39671 40082 82100 333 59017;EQDQ01  00002PRCP99
0196829830999992000052900004-09380-040480FM-12+037099999V0200901N003112200019N0020001N1+02681+01811101091ADDAA199000091GA1001+999999999GF100991001001999999001001KA1240M+03221MA1999999096951MD1999999-0121REMSYN070AAXX  29004 82983 32995 00906 10268 20181 39695 40109 333 10322 59012;EQDQ01  00002PRCP99
0196829830999992000052912004-09380-040480FM-12+037099999V0200901N002612200019N0020001N1+02561+01831101251ADDAA199000091GA1001+999999999GF100991001001999999001001KA1240N+02081MA1999999097111MD1999999-0131REMSYN070AAXX  29124 82983 32995 00905 10256 20183 39711 40125 333 20208 59013;EQDQ01  00002PRCP99
0167829830999992000052918004-09380-040480FM-12+037099999V0200501N001511050019N0020001N1+03261+01421100761ADDAA199000091GF105991021011008001001021MA1999999096661MD1999999-0051REMSYN070AAXX  29184 82983 32595 50503 10326 20142 39666 40076 82102 333 59005;EQDQ01  00002PRCP99
0196829830999992000053000004-09380-040480FM-12+037099999V0200901N003112200019N0020001N1+02781+01701101091ADDAA199000091GA1001+999999999GF100991001001999999001001KA1240M+03341MA1999999096951MD1999999+0001REMSYN070AAXX  30004 82983 32995 00906 10278 20170 39695 40109 333 10334 58000;EQDQ01  00002PRCP99
0186829830999992000053012004-09380-040480FM-12+037099999V0200901N003110075019N0020001N1+02401+01861101511ADDAA199000091GF106991061011008001001001KA1240N+02261MA1999999097351MD1999999+0241REMSYN076AAXX  30124 82983 32595 60906 10240 20186 39735 40151 86100 333 20226 58024;EQDQ01  00002PRCP99
0161829830999992000053018004-09380-040480FM-12+037099999V0200901N003112200019N0020001N1+03061+01581101031ADDAA199000091GF101991999999008001999999MA1999999096901MD1999999+0241REMSYN064AAXX  30184 82983 32595 10906 10306 20158 39690 40103 333 58024;EQDQ01  00002PRCP99
0196829830999992000053100004-09380-040480FM-12+037099999V0200901N003112200019N0020001N1+02621+01701101311ADDAA199000091GA1001+999999999GF100991001001999999001001KA1240M+03121MA1999999097151MD1999999+0201REMSYN070AAXX  31004 82983 32995 00906 10262 20170 39715 40131 333 10312 58020;EQDQ01  00002PRCP99
0186829830999992000053112004-09380-040480FM-12+037099999V0200901N003112200019N0020001N1+02341+01721101541ADDAA199000091GF105991021011008001001011KA1240N+02081MA1999999097371MD1999999+0021REMSYN076AAXX  31124 82983 32595 50906 10234 20172 39737 40154 82101 333 20208 58002;EQDQ01  00002PRCP99
0167829830999992000053118004-09380-040480FM-12+037099999V0200501N003112200019N0020001N1+03241+01161100971ADDAA199000091GF102991011011008001001011MA1999999096841MD1999999-0061REMSYN070AAXX  31184 82983 32595 20506 10324 20116 39684 40097 81101 333 59006;EQDQ01  00002PRCP99
0196829830999992000060100004-09380-040480FM-12+037099999V0200901N003112200019N0020001N1+02621+01391101211ADDAA199000091GA1001+999999999GF100991001001999999001001KA1240M+03281MA1999999097061MD1999999-0091REMSYN070AAXX  01004 82983 32995 00906 10262 20139 39706 40121 333 10328 59009;EQDQ01  00002PRCP99
0196829830999992000060112004-09380-040480FM-12+037099999V0200901N002612200019N0020001N1+02501+01941101511ADDAA199000091GA1001+999999999GF100991001001999999001001KA1240N+02071MA1999999097351MD1999999-0021REMSYN070AAXX  01124 82983 32595 00905 10250 20194 39735 40151 333 20207 59002;EQDQ01  00002PRCP99
0186829830999992000060200004-09380-040480FM-12+037099999V0200501N002610075019N0020001N1+02481+02111101381ADDAA199000091GF108991081051008001999999KA1240M+03301MA1999999097221MD1999999+0161REMSYN076AAXX  02004 82983 32595 80505 10248 20211 39722 40138 885// 333 10330 58016;EQDQ01  00002PRCP99
0186829830999992000060212004-09380-040480FM-12+037099999V0200901N003110075019N0020001N1+02501+01941101611ADDAA199000091GF108991081051008001999999KA1240N+02271MA1999999097441MD1999999+0091REMSYN076AAXX  02124 82983 32595 80906 10250 20194 39744 40161 885// 333 20227 58009;EQDQ01  00002PRCP99
0167829830999992000060218004-09380-040480FM-12+037099999V0200501N005110075019N0020001N1+03301+01501101091ADDAA199000091GF106991061021008001001001MA1999999096991MD1999999+0091REMSYN070AAXX  02184 82983 32595 60510 10330 20150 39699 40109 86200 333 58009;EQDQ01  00002PRCP99
0196829830999992000060300004-09380-040480FM-12+037099999V0200901N002612200019N0020001N1+02801+01691101361ADDAA199000091GA1001+999999999GF100991001001999999001001KA1240M+03321MA1999999097221MD1999999+0001REMSYN070AAXX  03004 82983 32595 00905 10280 20169 39722 40136 333 10332 58000;EQDQ01  00002PRCP99
0202829830999992000060312004-09380-040480FM-12+037099999V0200901N004119999999N0020001N1+02541+01781101741ADDAA199000091GF105991999051008001001001KA1240N+02201MA1999999097581MD1999999+0141REMSYN076AAXX  03124 82983 32595 50908 10254 20178 39758 40174 84500 333 20220 58014;EQDQ01+000042SCOTLCQ02  00002PRCP99
0167829830999992000060318004-09380-040480FM-12+037099999V0200501N003112200019N0020001N1+03041+01451101321ADDAA199000091GF104991041021008001001001MA1999999097241MD1999999+0251REMSYN070AAXX  03184 82983 32595 40506 10304 20145 39724 40132 84200 333 58025;EQDQ01  00002PRCP99
0186829830999992000060400004-09380-040480FM-12+037099999V0200901N004110075019N0020001N1+02541+01811101651ADDAA199000091GF106991061021008001001001KA1240M+03121MA1999999097481MD1999999+0261REMSYN076AAXX  04004 82983 32595 60908 10254 20181 39748 40165 86200 333 10312 58026;EQDQ01  00002PRCP99
0186829830999992000060412004-09380-040480FM-12+037099999V0200901N004110075019N0020001N1+02301+01961101851ADDAA199000091GF108991081051008001999999KA1240N+02081MA1999999097661MD1999999+0081REMSYN076AAXX  04124 82983 32595 80908 10230 20196 39766 40185 885// 333 20208 58008;EQDQ01  00002PRCP99
0167829830999992000060418004-09380-040480FM-12+037099999V0200501N004110075019N0020001N1+02861+01781101481ADDAA199000091GF108991081051008001999999MA1999999097321MD1999999-0081REMSYN070AAXX  04184 82983 32595 80508 10286 20178 39732 40148 885// 333 59008;EQDQ01  00002PRCP99
0186829830999992000060500004-09380-040480FM-12+037099999V0200901N004110075019N0020001N1+02371+01911101751ADDAA199000091GF108991081051008001999999KA1240M+02901MA1999999097551MD1999999+0071REMSYN076AAXX  05004 82983 32595 80908 10237 20191 39755 40175 885// 333 10290 58007;EQDQ01  00002PRCP99
0201829830999992000060512004-09380-040480FM-12+037099999V0200901N002610075019N0020001N1+02101+01981101871ADDAA124000591AY131061AY221061GF108991081051008001999999KA1240N+02111MA1999999097651MD1999999-0011MW1501REMSYN088AAXX  05124 82983 21595 80905 10210 20198 39765 40187 75032 885// 333 20211 59001 69964;
0148829830999992000060518004-09380-040480FM-12+037099999V0200501N005110075019N0020001N1+02541+01881101591ADDAA199000021GF108991081051008001999999MA1999999097391MD1999999+0071REMSYN070AAXX  05184 82983 32595 80510 10254 20188 39739 40159 885// 333 58007;
0167829830999992000060600004-09380-040480FM-12+037099999V0200901N004110075019N0020001N1+02181+01881101791ADDAA199000021GF106991061021008001001001KA1240M+02641MA1999999097561MD1999999+0011REMSYN076AAXX  06004 82983 32595 60908 10218 20188 39756 40179 86200 333 10264 58001;
0186829830999992000060612004-09380-040480FM-12+037099999V0200901N004110075019N0020001N1+02241+01551101891ADDAA199000091GF108991081051008001999999KA1240N+02141MA1999999097671MD1999999+0021REMSYN076AAXX  06124 82983 32595 80908 10224 20155 39767 40189 885// 333 20214 58002;EQDQ01  00002PRCP99
0167829830999992000060618004-09380-040480FM-12+037099999V0200901N005110075019N0020001N1+02521+01841101571ADDAA199000091GF106991061021008001001001MA1999999097371MD1999999-0021REMSYN070AAXX  06184 82983 32595 60910 10252 20184 39737 40157 86200 333 59002;EQDQ01  00002PRCP99
0186829830999992000060700004-09380-040480FM-12+037099999V0200901N003110075019N0020001N1+02261+01921101781ADDAA199000091GF106991061021008001001001KA1240M+02721MA1999999097561MD1999999+0001REMSYN076AAXX  07004 82983 32595 60906 10226 20192 39756 40178 86200 333 10272 58000;EQDQ01  00002PRCP99
0180829830999992000060712004-09380-040480FM-12+037099999V0200901N003112200019N0020001N1+02241+01751101861ADDAA199000091GF104991999999008001999999KA1240N+01981MA1999999097641MD1999999-0031REMSYN070AAXX  07124 82983 32595 40906 10224 20175 39764 40186 333 20198 59003;EQDQ01  00002PRCP99
0167829830999992000060718004-09380-040480FM-12+037099999V0200501N004110075019N0020001N1+02841+01531101461ADDAA199000091GF105991051011008001001001MA1999999097221MD1999999-0091REMSYN070AAXX  07184 82983 32595 50508 10284 20153 39722 40146 85100 333 59009;EQDQ01  00002PRCP99
0186829830999992000060800004-09380-040480FM-12+037099999V0200901N004110075019N0020001N1+02461+01731101661ADDAA199000091GF108991081061008001999999KA1240M+02921MA1999999097471MD1999999-0091REMSYN076AAXX  08004 82983 32595 80908 10246 20173 39747 40166 886// 333 10292 59009;EQDQ01  00002PRCP99
0186829830999992000060812004-09380-040480FM-12+037099999V0200901N004112200019N0020001N1+02361+01731101741ADDAA199000091GF103991031011008001001001KA1240N+02041MA1999999097551MD1999999-0091REMSYN076AAXX  08124 82983 32595 30908 10236 20173 39755 40174 83100 333 20204 59009;EQDQ01  00002PRCP99
0167829830999992000060818004-09380-040480FM-12+037099999V0200501N004112200019N0020001N1+02981+01621101321ADDAA199000091GF103991031011008001001001MA1999999097221MD1999999-0061REMSYN070AAXX  08184 82983 32595 30508 10298 20162 39722 40132 83100 333 59006;EQDQ01  00002PRCP99
0228829830999992000060900004-09380-040480FM-12+037099999V0200901N002612200019N0020001N1+02441+01741101661ADDAA199000091GA1001+999999999GF100991001001999999001001KA1240M+03021MA1999999999999MD1999999+0001REMSYN070AAXX  09004 82983 32995 00905 10244 20174 39547 40166 333 10302 58000;EQDQ01+095473APOSP Q02  00002PRCP99Q03 095473APOSP 
0186829830999992000060912004-09380-040480FM-12+037099999V0200901N004110075019N0020001N1+02341+01621101841ADDAA199000091GF105991051011008001001001KA1240N+02101MA1999999097651MD1999999+0101REMSYN076AAXX  09124 82983 32595 50908 10234 20162 39765 40184 85100 333 20210 58010;EQDQ01  00002PRCP99
0167829830999992000060918004-09380-040480FM-12+037099999V0200901N003110075019N0020001N1+02761+01531101451ADDAA199000091GF105991051011008001001001MA1999999097281MD1999999+0061REMSYN070AAXX  09184 82983 32595 50906 10276 20153 39728 40145 85100 333 58006;EQDQ01  00002PRCP99
0196829830999992000061000004-09380-040480FM-12+037099999V0200901N003112200019N0020001N1+02361+01731101661ADDAA199000091GA1001+999999999GF100991001001999999001001KA1240M+02841MA1999999097471MD1999999+0001REMSYN070AAXX  10004 82983 32995 00906 10236 20173 39747 40166 333 10284 58000;EQDQ01  00002PRCP99
0165829830999992000061012004-09380-040480FM-12+037099999V0200501N003119999999N0020001N1+02361+01021999999ADDAA124000591GF105991999021008001001001KA1240N+01861MD1999999+0051REMSYN070AAXX  10124 82983 32595 50506 10236 20102 87200 333 20186 58005 69954;EQDQ01+000072SCOTLC
0167829830999992000061018004-09380-040480FM-12+037099999V0200901N003112200019N0020001N1+02961+01421101311ADDAA199000091GF104991041011008001001001MA1999999097151MD1999999-0131REMSYN070AAXX  10184 82983 32595 40906 10296 20142 39715 40131 84100 333 59013;EQDQ01  00002PRCP99
0196829830999992000061100004-09380-040480FM-12+037099999V0200901N003112200019N0020001N1+02461+01611101591ADDAA199000091GA1001+999999999GF100991001001999999001001KA1240M+03021MA1999999097411MD1999999-0061REMSYN070AAXX  11004 82983 32995 00906 10246 20161 39741 40159 333 10302 59006;EQDQ01  00002PRCP99
0186829830999992000061112004-09380-040480FM-12+037099999V0200901N004110075019N0020001N1+02321+01611101761ADDAA199000091GF105991051011008001001001KA1240N+02061MA1999999097571MD1999999-0051REMSYN076AAXX  11124 82983 32595 50908 10232 20161 39757 40176 85100 333 20206 59005;EQDQ01  00002PRCP99
0167829830999992000061118004-09380-040480FM-12+037099999V0200501N003112200019N0020001N1+02941+01551101291ADDAA199000091GF102991021011008001001001MA1999999097141MD1999999-0011REMSYN070AAXX  11184 82983 32595 20506 10294 20155 39714 40129 82100 333 59001;EQDQ01  00002PRCP99
0196829830999992000061200004-09380-040480FM-12+037099999V0200501N002612200019N0020001N1+02561+01801101561ADDAA199000091GA1001+999999999GF100991001001999999001001KA1240M+03021MA1999999097381MD1999999-0031REMSYN070AAXX  12004 82983 32995 00505 10256 20180 39738 40156 333 10302 59003;EQDQ01  00002PRCP99
0186829830999992000061212004-09380-040480FM-12+037099999V0200901N003112200019N0020001N1+02441+01741101771ADDAA199000091GF104991041011008001001001KA1240N+02181MA1999999097591MD1999999+0041REMSYN076AAXX  12124 82983 32595 40906 10244 20174 39759 40177 84100 333 20218 58004;EQDQ01  00002PRCP99
0167829830999992000061218004-09380-040480FM-12+037099999V0200501N003112200019N0020001N1+03081+01521101211ADDAA199000091GF101991011011008001001001MA1999999097071MD1999999-0071REMSYN070AAXX  12184 82983 32595 10506 10308 20152 39707 40121 81100 333 59007;EQDQ01  00002PRCP99
0196829830999992000061300004-09380-040480FM-12+037099999V0200901N003112200019N0020001N1+02561+01701101461ADDAA199000091GA1001+999999999GF100991001001999999001001KA1240M+03141MA1999999097301MD1999999-0081REMSYN070AAXX  13004 82983 32995 00906 10256 20170 39730 40146 333 10314 59008;EQDQ01  00002PRCP99
0186829830999992000061312004-09380-040480FM-12+037099999V0200901N003112200019N0020001N1+02461+01711101661ADDAA199000091GF103991031011008001001001KA1240N+02051MA1999999097491MD1999999-0101REMSYN076AAXX  13124 82983 32595 30906 10246 20171 39749 40166 83100 333 20205 59010;EQDQ01  00002PRCP99
0167829830999992000061318004-09380-040480FM-12+037099999V0200501N005112200019N0020001N1+03101+01461101121ADDAA199000091GF102991021011008001001001MA1999999096981MD1999999-0091REMSYN070AAXX  13184 82983 32595 20510 10310 20146 39698 40112 82100 333 59009;EQDQ01  00002PRCP99
0196829830999992000061400004-09370-040480FM-12+037099999V0200501N004112200019N0020001N1+02541+01651101491ADDAA199000091GA1001+999999999GF100991001001999999001001KA1240M+03141MA1999999097331MD1999999+0031REMSYN070AAXX  14004 82983 32995 00508 10254 20165 39733 40149 333 10314 58003;EQDQ01  00002PRCP99
0186829830999992000061412004-09370-040480FM-12+037099999V0200901N005110075019N0020001N1+02361+01611101681ADDAA199000091GF106991061021008001001001KA1240N+02101MA1999999097501MD1999999+0011REMSYN076AAXX  14124 82983 32595 60910 10236 20161 39750 40168 86200 333 20210 58001;EQDQ01  00002PRCP99
0167829830999992000061418004-09370-040480FM-12+037099999V0200501N005112200019N0020001N1+03021+01511101181ADDAA199000091GF102991021011008001001001MA1999999097041MD1999999+0061REMSYN070AAXX  14184 82983 32595 20510 10302 20151 39704 40118 82100 333 58006;EQDQ01  00002PRCP99
0196829830999992000061500004-09370-040480FM-12+037099999V0200901N003112200019N0020001N1+02581+01561101491ADDAA199000091GA1001+999999999GF100991001001999999001001KA1240M+03061MA1999999097321MD1999999-0011REMSYN070AAXX  15004 82983 32995 00906 10258 20156 39732 40149 333 10306 59001;EQDQ01  00002PRCP99
0186829830999992000061512004-09370-040480FM-12+037099999V0200901N005110450019N0020001N1+02381+01611101601ADDAA199000091GF105991031021008001031001KA1240N+02071MA1999999097431MD1999999-0071REMSYN076AAXX  15124 82983 32595 50910 10238 20161 39743 40160 83230 333 20207 59007;EQDQ01  00002PRCP99
0167829830999992000061518004-09370-040480FM-12+037099999V0200901N004112200019N0020001N1+02901+01481101191ADDAA199000091GF104991021011008001031001MA1999999097041MD1999999+0001REMSYN070AAXX  15184 82983 32595 40908 10290 20148 39704 40119 82130 333 58000;EQDQ01  00002PRCP99
0196829830999992000061600004-09370-040480FM-12+037099999V0200901N002612200019N0020001N1+02501+01621101441ADDAA199000091GA1001+999999999GF100991001001999999001001KA1240M+02921MA1999999097271MD1999999-0051REMSYN070AAXX  16004 82983 32995 00905 10250 20162 39727 40144 333 10292 59005;EQDQ01  00002PRCP99
0167829830999992000061618004-09370-040480FM-12+037099999V0200501N003110075019N0020001N1+02881+01731101171ADDAA199000091GF108991081051008001999999MA1999999097031MD1999999-0011REMSYN070AAXX  16184 82983 32595 80506 10288 20173 39703 40117 885// 333 59001;EQDQ01  00002PRCP99
0167829830999992000061718004-09370-040480FM-12+037099999V0200501N003112200019N0020001N1+03001+01571101151ADDAA199000091GF104991041011008001001001MA1999999097031MD1999999+0001REMSYN070AAXX  17184 82983 32595 40506 10300 20157 39703 40115 84100 333 58000;EQDQ01  00002PRCP99
0196829830999992000061800004-09370-040480FM-12+037099999V0200901N003112200019N0020001N1+02581+01771101391ADDAA199000091GA1001+999999999GF100991001001999999001001KA1240M+03041MA1999999097231MD1999999-0011REMSYN070AAXX  18004 82983 32595 00906 10258 20177 39723 40139 333 10304 59001;EQDQ01  00002PRCP99
0186829830999992000061812004-09370-040480FM-12+037099999V0201401N004112200019N0020001N1+02481+01801101651ADDAA199000091GF104991041011008001001001KA1240N+02191MA1999999097451MD1999999+0031REMSYN076AAXX  18124 82983 32595 41408 10248 20180 39745 40165 84100 333 20219 58003;EQDQ01  00002PRCP99
0167829830999992000061818004-09370-040480FM-12+037099999V0200901N004112200019N0020001N1+03021+01661101151ADDAA199000091GF103991031011008001001001MA1999999097011MD1999999-0021REMSYN070AAXX  18184 82983 32595 30908 10302 20166 39701 40115 83100 333 59002;EQDQ01  00002PRCP99
0196829830999992000061900004-09370-040480FM-12+037099999V0200901N003112200019N0020001N1+02661+01711101381ADDAA199000091GA1001+999999999GF100991001001999999001001KA1240M+03201MA1999999097221MD1999999-0011REMSYN070AAXX  19004 82983 32595 00906 10266 20171 39722 40138 333 10320 59001;EQDQ01  00002PRCP99
0186829830999992000061912004-09370-040480FM-12+037099999V0200901N003110075019N0020001N1+02361+01681101851ADDAA199000091GF107991071011008001001001KA1240N+02201MA1999999097511MD1999999+0061REMSYN076AAXX  19124 82983 32595 70906 10236 20168 39751 40185 87100 333 20220 58006;EQDQ01  00002PRCP99
0167829830999992000061918004-09370-040480FM-12+037099999V0200501N004112200019N0020001N1+03061+01771101221ADDAA199000091GF102991021011008001001001MA1999999097081MD1999999+0071REMSYN070AAXX  19184 82983 32595 20508 10306 20177 39708 40122 82100 333 58007;EQDQ01  00002PRCP99
0196829830999992000062000004-09370-040480FM-12+037099999V0200901N003112200019N0020001N1+02641+01661101451ADDAA199000091GA1001+999999999GF100991001001999999001001KA1240M+03061MA1999999097291MD1999999+0071REMSYN070AAXX  20004 82983 32995 00906 10264 20166 39729 40145 333 10306 58007;EQDQ01  00002PRCP99
0186829830999992000062012004-09370-040480FM-12+037099999V0200901N003110075019N0020001N1+02461+01971101661ADDAA199000091GF106991061011008001001001KA1240N+02261MA1999999097491MD1999999-0021REMSYN076AAXX  20124 82983 32595 60906 10246 20197 39749 40166 86100 333 20226 59002;EQDQ01  00002PRCP99
0167829830999992000062018004-09370-040480FM-12+037099999V0200501N003112200019N0020001N1+03141+01661101191ADDAA199000091GF102991021011008001001001MA1999999097071MD1999999-0021REMSYN070AAXX  20184 82983 32595 20506 10314 20166 39707 40119 82100 333 59002;EQDQ01  00002PRCP99
0186829830999992000062100004-09370-040480FM-12+037099999V0200901N003112200019N0020001N1+02641+01881101421ADDAA199000091GF103991031011008001001001KA1240M+03201MA1999999097261MD1999999-0031REMSYN076AAXX  21004 82983 32595 30906 10264 20188 39726 40142 83100 333 10320 59003;EQDQ01  00002PRCP99
0167829830999992000062118004-09370-040480FM-12+037099999V0200501N003112200019N0020001N1+03161+01601101181ADDAA199000091GF104991041011008001001001MA1999999097061MD1999999-0011REMSYN070AAXX  21184 82983 32595 40506 10316 20160 39706 40118 84100 333 59001;EQDQ01  00002PRCP99
0196829830999992000062200004-09370-040480FM-12+037099999V0200901N003112200019N0020001N1+02661+01741101401ADDAA199000091GA1001+999999999GF100991001001999999001001KA1240M+03281MA1999999097231MD1999999-0031REMSYN070AAXX  22004 82983 32995 00906 10266 20174 39723 40140 333 10328 59003;EQDQ01  00002PRCP99
0186829830999992000062212004-09370-040480FM-12+037099999V0200901N003110075019N0020001N1+02461+01831101661ADDAA199000091GF105991051011008001001001KA1240N+02201MA1999999097491MD1999999-0071REMSYN076AAXX  22124 82983 32595 50906 10246 20183 39749 40166 85100 333 20220 59007;EQDQ01  00002PRCP99
0167829830999992000062218004-09370-040480FM-12+037099999V0200501N003112200019N0020001N1+03201+01511101151ADDAA199000091GF104991041011008001001001MA1999999097031MD1999999-0031REMSYN070AAXX  22184 82983 32595 40506 10320 20151 39703 40115 84100 333 59003;EQDQ01  00002PRCP99
0196829830999992000062300004-09370-040480FM-12+037099999V0200901N003112200019N0020001N1+02741+01641101401ADDAA199000091GA1001+999999999GF100991001001999999001001KA1240M+03221MA1999999097251MD1999999+0021REMSYN070AAXX  23004 82983 32995 00906 10274 20164 39725 40140 333 10322 58002;EQDQ01  00002PRCP99
0186829830999992000062312004-09370-040480FM-12+037099999V0200901N003110075019N0020001N1+02441+01761101731ADDAA199000091GF107991071011008001001001KA1240N+02281MA1999999097561MD1999999+0071REMSYN076AAXX  23124 82983 32595 70906 10244 20176 39756 40173 87100 333 20228 58007;EQDQ01  00002PRCP99
0167829830999992000062318004-09370-040480FM-12+037099999V0200501N004112200019N0020001N1+03021+01471101301ADDAA199000091GF103991031011008001001001MA1999999097161MD1999999+0131REMSYN070AAXX  23184 82983 32595 30508 10302 20147 39716 40130 83100 333 58013;EQDQ01  00002PRCP99
0196829830999992000062400004-09370-040480FM-12+037099999V0200901N005112200019N0020001N1+02381+01871101561ADDAA199000091GA1001+999999999GF100991001001999999001001KA1240M+03061MA1999999097321MD1999999+0131REMSYN070AAXX  24004 82983 32995 00910 10238 20187 39732 40156 333 10306 58013;EQDQ01  00002PRCP99
0186829830999992000062412004-09370-040480FM-12+037099999V0200901N003110120019N0020001N1+02241+01751101791ADDAA199000091GF108991081081008001999999KA1240N+02061MA1999999097581MD1999999+0021REMSYN076AAXX  24124 82983 32595 80906 10224 20175 39758 40179 888// 333 20206 58002;EQDQ01  00002PRCP99
0167829830999992000062418004-09370-040480FM-12+037099999V0200901N005110075019N0020001N1+02561+01801101471ADDAA199000091GF105991051011008001001001MA1999999097301MD1999999+0141REMSYN070AAXX  24184 82983 32595 50910 10256 20180 39730 40147 85100 333 58014;EQDQ01  00002PRCP99
0186829830999992000062500004-09370-040480FM-12+037099999V0200901N004112200019N0020001N1+02101+01741101701ADDAA199000091GF102991021011008001001001KA1240M+02601MA1999999097481MD1999999+0101REMSYN076AAXX  25004 82983 32595 20908 10210 20174 39748 40170 82100 333 10260 58010;EQDQ01  00002PRCP99
0186829830999992000062512004-09370-040480FM-12+037099999V0201801N005110075019N0020001N1+02321+01631101781ADDAA199000091GF106991061021008001001001KA1240N+02071MA1999999097561MD1999999-0021REMSYN076AAXX  25124 82983 32595 61810 10232 20163 39756 40178 86200 333 20207 59002;EQDQ01  00002PRCP99
0167829830999992000062518004-09370-040480FM-12+037099999V0200901N005110075019N0020001N1+02701+01601101371ADDAA199000091GF108991081051008001999999MA1999999097191MD1999999-0111REMSYN070AAXX  25184 82983 32595 80910 10270 20160 39719 40137 885// 333 59011;EQDQ01  00002PRCP99
0196829830999992000062600004-09370-040480FM-12+037099999V0200901N003112200019N0020001N1+02461+01731101501ADDAA199000091GA1001+999999999GF100991001001999999001001KA1240M+02741MA1999999097321MD1999999-0161REMSYN070AAXX  26004 82983 32995 00906 10246 20173 39732 40150 333 10274 59016;EQDQ01  00002PRCP99
0186829830999992000062612004-09370-040480FM-12+037099999V0200901N003110075019N0020001N1+02221+01711101691ADDAA199000091GF108991081051008001999999KA1240N+02011MA1999999097501MD1999999-0061REMSYN076AAXX  26124 82983 32595 80906 10222 20171 39750 40169 885// 333 20201 59006;EQDQ01  00002PRCP99
0167829830999992000062618004-09370-040480FM-12+037099999V0200901N003110075019N0020001N1+02641+01721101381ADDAA199000091GF108991081051008001999999MA1999999097201MD1999999+0011REMSYN070AAXX  26184 82983 32595 80906 10264 20172 39720 40138 885// 333 58001;EQDQ01  00002PRCP99
0186829830999992000062700004-09370-040480FM-12+037099999V0200901N002610075019N0020001N1+02501+01641101591ADDAA199000091GF108991081051008001999999KA1240M+02681MA1999999097401MD1999999+0081REMSYN076AAXX  27004 82983 32595 80905 10250 20164 39740 40159 885// 333 10268 58008;EQDQ01  00002PRCP99
0186829830999992000062712004-09370-040480FM-12+037099999V0200901N005110075019N0020001N1+02361+01831101661ADDAA199000091GF106991061021008001001001KA1240N+02101MA1999999097481MD1999999-0021REMSYN076AAXX  27124 82983 32595 60910 10236 20183 39748 40166 86200 333 20210 59002;EQDQ01  00002PRCP99
0167829830999992000062718004-09370-040480FM-12+037099999V0200901N004110075019N0020001N1+02821+01801101321ADDAA199000091GF105991051021008001001001MA1999999097161MD1999999-0041REMSYN070AAXX  27184 82983 32595 50908 10282 20180 39716 40132 85200 333 59004;EQDQ01  00002PRCP99
0201829830999992000062800004-09370-040480FM-12+037099999V0200901N003110075019N0020001N1+02271+02011101621ADDAA106000591AY111061AY221061GF108991081051008001999999KA1240M+02861MA1999999097421MD1999999+0021MW1501REMSYN088AAXX  28004 82983 21595 80906 10227 20201 39742 40162 75012 885// 333 10286 58002 69941;
0220829830999992000062812004-09370-040480FM-12+037099999V0200901N003110075019N0020001N1+02201+01901101751ADDAA124007991AY161061AY221061GF106991061021008001001001KA1240N+99999MA1999999097541MD1999999+0061MW1031REMSYN088AAXX  28124 82983 21595 60906 10220 20190 39754 40175 70362 86200 333 20226 58006 60084;EQDQ01 +02262ATMN  
0177829830999992000062818004-09370-040480FM-12+037099999V0200901N005112200019N0020001N1+02901+01551101201ADDAA199000091GA1001+999999999GF100991001001999999001001MA1999999097051MD1999999-0111REMSYN064AAXX  28184 82983 32995 00910 10290 20155 39705 40120 333 59011;EQDQ01  00002PRCP99
0228829830999992000062900004-09370-040480FM-12+037099999V0200901N002612200019N0020001N1+02421+01511101491ADDAA199000091GA1001+999999999GF100991001001999999001001KA1240M+02941MA1999999999999MD1999999-0121REMSYN070AAXX  29004 82983 32995 00905 10242 20151 39030 40149 333 10294 59012;EQDQ01+090303APOSP Q02  00002PRCP99Q03 090303APOSP 
0186829830999992000062912004-09370-040480FM-12+037099999V0200901N003112200019N0020001N1+02241+01691101701ADDAA199000091GF104991041021008001001001KA1240N+01971MA1999999097511MD1999999-0031REMSYN076AAXX  29124 82983 32595 40906 10224 20169 39751 40170 84200 333 20197 59003;EQDQ01  00002PRCP99
0167829830999992000062918004-09370-040480FM-12+037099999V0200901N003110450019N0020001N1+02781+01641101291ADDAA199000091GF106991041021008001031001MA1999999097121MD1999999+0071REMSYN070AAXX  29184 82983 32595 60906 10278 20164 39712 40129 84230 333 58007;EQDQ01  00002PRCP99
0196829830999992000063000004-09370-040480FM-12+037099999V0200901N003112200019N0020001N1+02361+01831101551ADDAA199000091GA1001+999999999GF100991001001999999001001KA1240M+02801MA1999999097351MD1999999+0051REMSYN070AAXX  30004 82983 32995 00906 10236 20183 39735 40155 333 10280 58005;EQDQ01  00002PRCP99
0186829830999992000063012004-09370-040480FM-12+037099999V0200901N005110075019N0020001N1+02401+01821101661ADDAA199000091GF106991061021008001001001KA1240N+02191MA1999999097481MD1999999-0031REMSYN076AAXX  30124 82983 32595 60910 10240 20182 39748 40166 86200 333 20219 59003;EQDQ01  00002PRCP99
0167829830999992000063018004-09370-040480FM-12+037099999V0200501N003110075019N0020001N1+02921+01741101231ADDAA199000091GF106991061021008001001001MA1999999097081MD1999999-0041REMSYN070AAXX  30184 82983 32595 60506 10292 20174 39708 40123 86200 333 59004;EQDQ01  00002PRCP99
0186829830999992000070100004-09370-040480FM-12+037099999V0200901N003112200019N0020001N1+02541+01711101511ADDAA199000091GF102991021011008001001001KA1240M+02961MA1999999097321MD1999999-0031REMSYN076AAXX  01004 82983 32595 20906 10254 20171 39732 40151 82100 333 10296 59003;EQDQ01  00002PRCP99
0196829830999992000070112004-09370-040480FM-12+037099999V0200901N003112200019N0020001N1+02361+01561101731ADDAA199000091GA1001+999999999GF100991001001999999001001KA1240N+02021MA1999999097551MD1999999+0071REMSYN070AAXX  01124 82983 32995 00906 10236 20156 39755 40173 333 20202 58007;EQDQ01  00002PRCP99
0186829830999992000070200004-09370-040480FM-12+037099999V0200901N002610075019N0020001N1+02521+01311101441ADDAA199000091GF105991051061008001001001KA1240M+02961MA1999999097271MD1999999-0051REMSYN076AAXX  02004 82983 32595 50905 10252 20131 39727 40144 85600 333 10296 59005;EQDQ01  00002PRCP99
0186829830999992000070212004-09370-040480FM-12+037099999V0200901N004112200019N0020001N1+02281+01591101671ADDAA199000091GF104991041011008001001001KA1240N+01961MA1999999097491MD1999999-0061REMSYN076AAXX  02124 82983 32595 40908 10228 20159 39749 40167 84100 333 20196 59006;EQDQ01  00002PRCP99
0167829830999992000070218004-09370-040480FM-12+037099999V0200501N003112200019N0020001N1+03061+00771101421ADDAA199000091GF101991011011008001001001MA1999999097271MD1999999+0221REMSYN070AAXX  02184 82983 32595 10506 10306 20077 39727 40142 81100 333 58022;EQDQ01  00002PRCP99
0196829830999992000070300004-09370-040480FM-12+037099999V0200901N003112200019N0020001N1+02481+01461101581ADDAA199000091GA1001+999999999GF100991001001999999001001KA1240M+03061MA1999999097401MD1999999+0131REMSYN070AAXX  03004 82983 32995 00906 10248 20146 39740 40158 333 10306 58013;EQDQ01  00002PRCP99
0186829830999992000070312004-09370-040480FM-12+037099999V0200901N005112200019N0020001N1+02281+01661101761ADDAA199000091GF102991021011008001001001KA1240N+01941MA1999999097571MD1999999+0081REMSYN076AAXX  03124 82983 32595 20910 10228 20166 39757 40176 82100 333 20194 58008;EQDQ01  00002PRCP99
0167829830999992000070318004-09370-040480FM-12+037099999V0200901N004110075019N0020001N1+02741+01701101451ADDAA199000091GF106991061011008001001001MA1999999097271MD1999999+0001REMSYN070AAXX  03184 82983 32595 60908 10274 20170 39727 40145 86100 333 58000;EQDQ01  00002PRCP99
0186829830999992000070400004-09370-040480FM-12+037099999V0200901N004112200019N0020001N1+02321+01831101681ADDAA199000091GF104991041011008001001001KA1240M+02841MA1999999097481MD1999999+0081REMSYN076AAXX  04004 82983 32595 40908 10232 20183 39748 40168 84100 333 10284 58008;EQDQ01  00002PRCP99
0186829830999992000070412004-09370-040480FM-12+037099999V0200901N005110075019N0020001N1+02301+01611101771ADDAA199000091GF106991061011008001001001KA1240N+02001MA1999999097561MD1999999-0011REMSYN076AAXX  04124 82983 32595 60910 10230 20161 39756 40177 86100 333 20200 59001;EQDQ01  00002PRCP99
0167829830999992000070418004-09370-040480FM-12+037099999V0200901N005110075019N0020001N1+02661+01561101431ADDAA199000091GF108991081061008001999999MA1999999097251MD1999999-0021REMSYN070AAXX  04184 82983 32595 80910 10266 20156 39725 40143 886// 333 59002;EQDQ01  00002PRCP99
0196829830999992000070500004-09370-040480FM-12+037099999V0200901N003112200019N0020001N1+02381+01481101511ADDAA199000091GA1001+999999999GF100991001001999999001001KA1240M+02721MA1999999097331MD1999999-0151REMSYN070AAXX  05004 82983 32995 00906 10238 20148 39733 40151 333 10272 59015;EQDQ01  00002PRCP99
0186829830999992000070600004-09370-040480FM-12+037099999V0200901N001510075019N0020001N1+02401+01521101381ADDAA199000091GF106991061021008001001001KA1240M+02681MA1999999097381MD1999999+0051REMSYN076AAXX  06004 82983 32595 60903 10240 20152 39738 40138 86200 333 10268 58005;EQDQ01  00002PRCP99
0186829830999992000070612004-09370-040480FM-12+037099999V0200901N003112200019N0020001N1+02221+01511101681ADDAA199000091GF102991021011008001001001KA1240N+01901MA1999999097481MD1999999+0001REMSYN076AAXX  06124 82983 32595 20906 10222 20151 39748 40168 82100 333 20190 58000;EQDQ01  00002PRCP99
0167829830999992000070618004-09370-040480FM-12+037099999V0200901N003112200019N0020001N1+02881+01221101231ADDAA199000091GF102991021011008001001001MA1999999097051MD1999999-0141REMSYN070AAXX  06184 82983 32595 20906 10288 20122 39705 40123 82100 333 59014;EQDQ01  00002PRCP99
0196829830999992000070700004-09370-040480FM-12+037099999V0200901N003112200019N0020001N1+02361+01321101531ADDAA199000091GA1001+999999999GF100991001001999999001001KA1240M+02961MA1999999097341MD1999999-0041REMSYN070AAXX  07004 82983 32995 00906 10236 20132 39734 40153 333 10296 59004;EQDQ01  00002PRCP99
0186829830999992000070712004-09370-040480FM-12+037099999V0200901N005112200019N0020001N1+02261+01571101771ADDAA199000091GF103991031011008001001001KA1240N+01861MA1999999097561MD1999999+0081REMSYN076AAXX  07124 82983 32595 30910 10226 20157 39756 40177 83100 333 20186 58008;EQDQ01  00002PRCP99
0177829830999992000070718004-09370-040480FM-12+037099999V0200501N004112200019N0020001N1+02941+01231101291ADDAA199000091GA1001+999999999GF100991001001999999001001MA1999999097121MD1999999+0071REMSYN064AAXX  07184 82983 32995 00508 10294 20123 39712 40129 333 58007;EQDQ01  00002PRCP99
0196829830999992000070800004-09370-040480FM-12+037099999V0200901N002612200019N0020001N1+02481+01371101491ADDAA199000091GA1001+999999999GF100991001001999999001001KA1240M+03001MA1999999097331MD1999999-0011REMSYN070AAXX  08004 82983 32995 00905 10248 20137 39733 40149 333 10300 59001;EQDQ01  00002PRCP99
0186829830999992000070812004-09370-040480FM-12+037099999V0200901N004110075019N0020001N1+02401+01651101691ADDAA199000091GF106991061021008001001001KA1240N+01931MA1999999097511MD1999999-0051REMSYN076AAXX  08124 82983 32595 60908 10240 20165 39751 40169 86200 333 20193 59005;EQDQ01  00002PRCP99
0167829830999992000070818004-09370-040480FM-12+037099999V0200901N004110450019N0020001N1+02821+01651101331ADDAA199000091GF106991041021008001031001MA1999999097151MD1999999+0031REMSYN070AAXX  08184 82983 32595 60908 10282 20165 39715 40133 84230 333 58003;EQDQ01  00002PRCP99
0186829830999992000070900004-09370-040480FM-12+037099999V0200901N005110075019N0020001N1+02321+01811101561ADDAA199000091GF108991081051008001999999KA1240M+02881MA1999999097371MD1999999+0041REMSYN076AAXX  09004 82983 32595 80910 10232 20181 39737 40156 885// 333 10288 58004;EQDQ01  00002PRCP99
0186829830999992000070912004-09370-040480FM-12+037099999V0200901N004110075019N0020001N1+02261+01751101691ADDAA199000091GF108991081051008001999999KA1240N+02001MA1999999097491MD1999999-0021REMSYN076AAXX  09124 82983 32595 80908 10226 20175 39749 40169 885// 333 20200 59002;EQDQ01  00002PRCP99
0167829830999992000070918004-09370-040480FM-12+037099999V0200901N004110075019N0020001N1+02841+01671101291ADDAA199000091GF106991061021008001001001MA1999999097131MD1999999-0021REMSYN070AAXX  09184 82983 32595 60908 10284 20167 39713 40129 86200 333 59002;EQDQ01  00002PRCP99
0244829830999992000071000004-09370-040480FM-12+037099999V0200901N003112200019N0020001N1+02371+01731999999ADDAA199000091GA1001+999999999GF100991001001999999001001KA1240M+02901MA1999999097972MD1999999+0001REMSYN070AAXX  10004 82983 32995 00906 10237 20173 39797 40557 333 10290 58000;EQDQ01+097973APOSP Q02+105573APOSLPQ03  00002PRCP99Q04 105573APOSLP
0186829830999992000071012004-09370-040480FM-12+037099999V0200901N004110075019N0020001N1+02401+01651101681ADDAA199000091GF108991081051008001999999KA1240N+01991MA1999999097501MD1999999+0011REMSYN076AAXX  10124 82983 32595 80908 10240 20165 39750 40168 885// 333 20199 58001;EQDQ01  00002PRCP99
0167829830999992000071018004-09370-040480FM-12+037099999V0200901N005110450019N0020001N1+02921+01671101211ADDAA199000091GF105991031021008001031001MA1999999097061MD1999999-0071REMSYN070AAXX  10184 82983 32595 50910 10292 20167 39706 40121 83230 333 59007;EQDQ01  00002PRCP99
0196829830999992000071100004-09370-040480FM-12+037099999V0200901N004112200019N0020001N1+02541+01601101481ADDAA199000091GA1001+999999999GF100991001001999999001001KA1240M+02961MA1999999097311MD1999999-0061REMSYN070AAXX  11004 82983 32995 00908 10254 20160 39731 40148 333 10296 59006;EQDQ01  00002PRCP99
0186829830999992000071112004-09370-040480FM-12+037099999V0200901N004112200019N0020001N1+02421+01671101691ADDAA199000091GF102991021011008001001001KA1240N+02131MA1999999097521MD1999999+0021REMSYN076AAXX  11124 82983 32595 20908 10242 20167 39752 40169 82100 333 20213 58002;EQDQ01  00002PRCP99
0167829830999992000071118004-09370-040480FM-12+037099999V0200901N004110075019N0020001N1+03041+01601101241ADDAA199000091GF105991051011008001001001MA1999999097101MD1999999+0041REMSYN070AAXX  11184 82983 32595 50908 10304 20160 39710 40124 85100 333 58004;EQDQ01  00002PRCP99
0196829830999992000071200004-09370-040480FM-12+037099999V0200901N003112200019N0020001N1+02601+01741101541ADDAA199000091GA1001+999999999GF100991001001999999001001KA1240M+03091MA1999999097371MD1999999+0061REMSYN070AAXX  12004 82983 32995 00906 10260 20174 39737 40154 333 10309 58006;EQDQ01  00002PRCP99
0186829830999992000071212004-09370-040480FM-12+037099999V0200901N005112200019N0020001N1+02421+01651101871ADDAA199000091GF104991041021008001001001KA1240N+02161MA1999999097691MD1999999+0171REMSYN076AAXX  12124 82983 32595 40910 10242 20165 39769 40187 84200 333 20216 58017;EQDQ01  00002PRCP99
0177829830999992000071218004-09370-040480FM-12+037099999V0200901N004112200019N0020001N1+03061+01421101251ADDAA199000091GA1001+999999999GF100991001001999999001001MA1999999097111MD1999999+0011REMSYN064AAXX  12184 82983 32995 00908 10306 20142 39711 40125 333 58001;EQDQ01  00002PRCP99
0190829830999992000071300004-09370-040480FM-12+037099999V0200901N003112200019N0020001N1+02521+01431999999ADDAA199000091GA1001+999999999GF100991001001999999001001KA1240M+03111MA1999999097461MD1999999+0091REMSYN064AAXX  13004 82983 32995 00906 10252 20143 39746 333 10311 58009;EQDQ01  00002PRCP99
0186829830999992000071312004-09370-040480FM-12+037099999V0200901N003110075019N0020001N1+02301+01751101881ADDAA199000091GF106991061011008001001001KA1240N+02101MA1999999097691MD1999999+0001REMSYN076AAXX  13124 82983 32595 60906 10230 20175 39769 40188 86100 333 20210 58000;EQDQ01  00002PRCP99
0167829830999992000071318004-09370-040480FM-12+037099999V0200501N003110075019N0020001N1+02881+01861101461ADDAA199000091GF105991051011008001001001MA1999999097281MD1999999+0171REMSYN070AAXX  13184 82983 32595 50506 10288 20186 39728 40146 85100 333 58017;EQDQ01  00002PRCP99
0186829830999992000071412004-09370-040480FM-12+037099999V0201401N003111050019N0020001N1+02261+01711101901ADDAA199000091GF106991031011008001001021KA1240N+01981MA1999999097701MD1999999+0011REMSYN076AAXX  14124 82983 32595 61406 10226 20171 39770 40190 83102 333 20198 58001;EQDQ01  00002PRCP99
0167829830999992000071418004-09370-040480FM-12+037099999V0200901N003110075019N0020001N1+02941+01361101331ADDAA199000091GF105991051011008001001001MA1999999097171MD1999999-0111REMSYN070AAXX  14184 82983 32595 50906 10294 20136 39717 40133 85100 333 59011;EQDQ01  00002PRCP99
0196829830999992000071500004-09370-040480FM-12+037099999V0200901N003112200019N0020001N1+02521+01431101611ADDAA199000091GA1001+999999999GF100991001001999999001001KA1240M+03001MA1999999097431MD1999999-0071REMSYN070AAXX  15004 82983 32995 00906 10252 20143 39743 40161 333 10300 59007;EQDQ01  00002PRCP99
0186829830999992000071512004-09370-040480FM-12+037099999V0200901N003112200019N0020001N1+02281+01641101801ADDAA199000091GF103991031021008001001001KA1240N+01941MA1999999097611MD1999999-0091REMSYN076AAXX  15124 82983 32595 30906 10228 20164 39761 40180 83200 333 20194 59009;EQDQ01  00002PRCP99
0167829830999992000071518004-09370-040480FM-12+037099999V0200901N003112200019N0020001N1+02221+01261101231ADDAA199000091GF101991011011008001001001MA1999999097081MD1999999-0091REMSYN070AAXX  15184 82983 32595 10906 10222 20126 39708 40123 81100 333 59009;EQDQ01  00002PRCP99
0196829830999992000071600004-09370-040480FM-12+037099999V0200901N003112200019N0020001N1+02461+01751101381ADDAA199000091GA1001+999999999GF100991001001999999001001KA1240M+03001MA1999999097201MD1999999-0231REMSYN070AAXX  16004 82983 32995 00906 10246 20175 39720 40138 333 10300 59023;EQDQ01  00002PRCP99
0196829830999992000071612004-09370-040480FM-12+037099999V0200901N003112200019N0020001N1+02301+01611101671ADDAA199000091GA1001+999999999GF100991001001999999001001KA1240N+01921MA1999999097491MD1999999-0121REMSYN070AAXX  16124 82983 32995 00906 10230 20161 39749 40167 333 20192 59012;EQDQ01  00002PRCP99
0167829830999992000071618004-09370-040480FM-12+037099999V0202701N001512200019N0020001N1+03181+01311101221ADDAA199000091GF102991021011008001001001MA1999999097081MD1999999+0001REMSYN070AAXX  16184 82983 32595 22703 10318 20131 39708 40122 82100 333 58000;EQDQ01  00002PRCP99
0196829830999992000071700004-09370-040480FM-12+037099999V0209999C000012200019N0020001N1+02561+01171101201ADDAA199000091GA1001+999999999GF100991001001999999001001KA1240M+03261MA1999999097041MD1999999-0161REMSYN070AAXX  17004 82983 32995 00000 10256 20117 39704 40120 333 10326 59016;EQDQ01  00002PRCP99
0196829830999992000071712004-09370-040480FM-12+037099999V0201401N001512200019N0020001N1+02501+01771101411ADDAA199000091GA1001+999999999GF100991001001999999001001KA1240N+01921MA1999999097251MD1999999-0241REMSYN070AAXX  17124 82983 32995 01403 10250 20177 39725 40141 333 20192 59024;EQDQ01  00002PRCP99
0167829830999992000071718004-09370-040480FM-12+037099999V0201401N003112200019N0020001N1+03441+01241100901ADDAA199000091GF103991031011008001001001MA1999999096801MD1999999-0281REMSYN070AAXX  17184 82983 32595 31406 10344 20124 39680 40090 83100 333 59028;EQDQ01  00002PRCP99
0186829830999992000071800004-09370-040480FM-12+037099999V0209999C000010075019N0020001N1+02781+01331101171ADDAA199000091GF105991051011008001001001KA1240M+03521MA1999999096941MD1999999-0101REMSYN076AAXX  18004 82983 32595 50000 10278 20133 39694 40117 85100 333 10352 59010;EQDQ01  00002PRCP99
0186829830999992000071812004-09370-040480FM-12+037099999V0200901N004110450019N0020001N1+02501+01941101551ADDAA199000091GF105991031011008001031001KA1240N+02341MA1999999097401MD1999999+0151REMSYN076AAXX  18124 82983 32595 50908 10250 20194 39740 40155 83130 333 20234 58015;EQDQ01  00002PRCP99
0167829830999992000071818004-09370-040480FM-12+037099999V0200501N004110075019N0020001N1+03201+01591101111ADDAA199000091GF105991051021008001001001MA1999999097011MD1999999+0211REMSYN070AAXX  18184 82983 32595 50508 10320 20159 39701 40111 85200 333 58021;EQDQ01  00002PRCP99
0196829830999992000071900004-09370-040480FM-12+037099999V0200901N003112200019N0020001N1+02641+01691101491ADDAA199000091GA1001+999999999GF100991001001999999001001KA1240M+03261MA1999999097331MD1999999+0391REMSYN070AAXX  19004 82983 32995 00906 10264 20169 39733 40149 333 10326 58039;EQDQ01  00002PRCP99
0186829830999992000071912004-09370-040480FM-12+037099999V0200901N003110075019N0020001N1+02441+01811101681ADDAA199000091GF106991061011008001001001KA1240N+02221MA1999999097511MD1999999+0111REMSYN076AAXX  19124 82983 32595 60906 10244 20181 39751 40168 86100 333 20222 58011;EQDQ01  00002PRCP99
0196829830999992000072000004-09370-040480FM-12+037099999V0200901N003112200019N0020001N1+02541+01681101551ADDAA199000091GA1001+999999999GF100991001001999999001001KA1240M+02941MA1999999097381MD1999999+0051REMSYN070AAXX  20004 82983 32995 00906 10254 20168 39738 40155 333 10294 58005;EQDQ01  00002PRCP99
0186829830999992000072012004-09370-040480FM-12+037099999V0200901N003110075019N0020001N1+02421+01841101661ADDAA199000091GF106991061011008001001001KA1240N+02161MA1999999097491MD1999999-0021REMSYN076AAXX  20124 82983 32595 60906 10242 20184 39749 40166 86100 333 20216 59002;EQDQ01  00002PRCP99
0186829830999992000072100004-09370-040480FM-12+037099999V0200901N002612200019N0020001N1+02701+01601101241ADDAA199000091GF102991021011008001001001KA1240M+03101MA1999999097101MD1999999-0281REMSYN076AAXX  21004 82983 32595 20905 10270 20160 39710 40124 82100 333 10310 59028;EQDQ01  00002PRCP99
0186829830999992000072112004-09370-040480FM-12+037099999V0200901N003110075019N0020001N1+02481+01851101521ADDAA199000091GF105991051011008001001001KA1240N+02161MA1999999097361MD1999999-0131REMSYN076AAXX  21124 82983 32595 50906 10248 20185 39736 40152 85100 333 20216 59013;EQDQ01  00002PRCP99
0196829830999992000072200004-09370-040480FM-12+037099999V0200901N003112200019N0020001N1+02541+01681101451ADDAA199000091GA1001+999999999GF100991001001999999001001KA1240M+03121MA1999999097291MD1999999+0191REMSYN070AAXX  22004 82983 32995 00906 10254 20168 39729 40145 333 10312 58019;EQDQ01  00002PRCP99
0202829830999992000072212004-09370-040480FM-12+037099999V0200901N004112200019N0020001N1+02221+01591101681ADDAA199000091GF102991999051008001999999KA1240N+01981MA1999999097501MD1999999+0141REMSYN076AAXX  22124 82983 32595 20908 10222 20159 39750 40168 885// 333 20198 58014;EQDQ01+000082SCOTLCQ02  00002PRCP99
0196829830999992000072300004-09370-040480FM-12+037099999V0200901N003112200019N0020001N1+02421+01791101471ADDAA199000091GA1001+999999999GF100991001001999999001001KA1240M+02981MA1999999097291MD1999999+0001REMSYN070AAXX  23004 82983 32995 00906 10242 20179 39729 40147 333 10298 58000;EQDQ01  00002PRCP99
0180829830999992000072312004-09370-040480FM-12+037099999V0200901N003110075019N0020001N1+02241+01711999999ADDAA199000091GF105991051011008001001001KA1240N+02001MA1999999097481MD1999999-0021REMSYN070AAXX  23124 82983 32595 50906 10224 20171 39748 85100 333 20200 59002;EQDQ01  00002PRCP99
0196829830999992000072400004-09370-040480FM-12+037099999V0200901N003112200019N0020001N1+02621+01461101441ADDAA199000091GA1001+999999999GF100991001001999999001001KA1240M+03181MA1999999097271MD1999999-0021REMSYN070AAXX  24004 82983 32995 00906 10262 20146 39727 40144 333 10318 59002;EQDQ01  00002PRCP99
0186829830999992000072412004-09370-040480FM-12+037099999V0200901N003112200019N0020001N1+02401+01171101191ADDAA199000091GF101991011011008001001001KA1240N+02041MA1999999097421MD1999999-0061REMSYN076AAXX  24124 82983 32595 10906 10240 20117 39742 40119 81100 333 20204 59006;EQDQ01  00002PRCP99
0196829830999992000072500004-09370-040480FM-12+037099999V0200901N003112200019N0020001N1+02701+01341101271ADDAA199000091GA1001+999999999GF100991001001999999001001KA1240M+03261MA1999999097131MD1999999-0141REMSYN070AAXX  25004 82983 32995 00906 10270 20134 39713 40127 333 10326 59014;EQDQ01  00002PRCP99
0202829830999992000072512004-09370-040480FM-12+037099999V0200901N004119999999N0020001N1+02301+01581101791ADDAA199000091GF105991999011008001001001KA1240N+02041MA1999999097611MD1999999+0191REMSYN076AAXX  25124 82983 32595 50908 10230 20158 39761 40179 86100 333 20204 58019;EQDQ01+000062SCOTLCQ02  00002PRCP99
0196829830999992000072600004-09370-040480FM-12+037099999V0200901N003112200019N0020001N1+02561+01501101571ADDAA199000091GA1001+999999999GF100991001001999999001001KA1240M+03041MA1999999097391MD1999999+0261REMSYN070AAXX  26004 82983 32995 00906 10256 20150 39739 40157 333 10304 58026;EQDQ01  00002PRCP99
0196829830999992000072700004-09370-040480FM-12+037099999V0200901N003112200019N0200001N1+02521+01521101451ADDAA199000091GA1001+999999999GF100991001001999999001001KA1240M+03041MA1999999097271MD1999999-0121REMSYN070AAXX  27004 82983 32998 00906 10252 20152 39727 40145 333 10304 59012;EQDQ01  00002PRCP99
0186829830999992000072712004-09370-040480FM-12+037099999V0200901N004112200019N0020001N1+02341+01551101741ADDAA199000091GF103991031011008001001001KA1240N+02081MA1999999097551MD1999999+0061REMSYN076AAXX  27124 82983 32595 30908 10234 20155 39755 40174 83100 333 20208 58006;EQDQ01  00002PRCP99
0196829830999992000072800004-09370-040480FM-12+037099999V0200901N003112200019N0020001N1+02541+01651101561ADDAA199000091GA1001+999999999GF100991001001999999001001KA1240M+03081MA1999999097381MD1999999+0111REMSYN070AAXX  28004 82983 32995 00906 10254 20165 39738 40156 333 10308 58011;EQDQ01  00002PRCP99
0186829830999992000072812004-09370-040480FM-12+037099999V0200901N003110075019N0020001N1+02301+01721101811ADDAA199000091GF106991061021008001001001KA1240N+02161MA1999999097621MD1999999+0071REMSYN076AAXX  28124 82983 32595 60906 10230 20172 39762 40181 86200 333 20216 58007;EQDQ01  00002PRCP99
0201829830999992000072900004-09370-040480FM-12+037099999V0200901N004112200019N0020001N1+02201+01761101701ADDAA106000591AY121061AY251061GF104991041061008001001001KA1240M+02841MA1999999097491MD1999999+0111MW1011REMSYN088AAXX  29004 82983 21595 40908 10220 20176 39749 40170 70125 84600 333 10284 58011 69941;
0173829830999992000072912004-09370-040480FM-12+037099999V0200901N004110075019N0020001N1+02161+01681101781ADDAA124000591GF106991061021008001001001KA1240N+01941MA1999999097561MD1999999-0061REMSYN082AAXX  29124 82983 22595 60908 10216 20168 39756 40178 86200 333 20194 59006 69944;
0186829830999992000073000004-09370-040480FM-12+037099999V0200901N003110075019N0020001N1+02041+01761101701ADDAA199000091GF106991061021008001001001KA1240M+02641MA1999999097471MD1999999-0021REMSYN076AAXX  30004 82983 32595 60906 10204 20176 39747 40170 86200 333 10264 59002;EQDQ01  00002PRCP99
0186829830999992000073012004-09370-040480FM-12+037099999V0200901N003112200019N0020001N1+02181+01521101821ADDAA199000091GF102991021011008001001001KA1240N+01821MA1999999097581MD1999999+0021REMSYN076AAXX  30124 82983 32595 20906 10218 20152 39758 40182 82100 333 20182 58002;EQDQ01  00002PRCP99
0196829830999992000073100004-09370-040480FM-12+037099999V0200901N003112200019N0020001N1+02441+01391101521ADDAA199000091GA1001+999999999GF100991001001999999001001KA1240M+02921MA1999999097331MD1999999-0141REMSYN070AAXX  31004 82983 32995 00906 10244 20139 39733 40152 333 10292 59014;EQDQ01  00002PRCP99
0186829830999992000073112004-09370-040480FM-12+037099999V0200901N004110075019N0020001N1+02201+01581101771ADDAA199000091GF105991051011008001001001KA1240N+01921MA1999999097561MD1999999-0021REMSYN076AAXX  31124 82983 32595 50908 10220 20158 39756 40177 85100 333 20192 59002;EQDQ01  00002PRCP99
0186829830999992000080100004-09370-040480FM-12+037099999V0200901N003112200019N0020001N1+02521+01401101521ADDAA199000091GF103991031011008001001001KA1240M+02961MA1999999097341MD1999999+0011REMSYN076AAXX  01004 82983 32595 30906 10252 20140 39734 40152 83100 333 10296 58001;EQDQ01  00002PRCP99
0202829830999992000080112004-09370-040480FM-12+037099999V0200901N004110075019N0020001N1+02181+01561101761ADDAA199000091GF105991051021008001001001KA1240M+99999MA1999999097561MD1999999+0001REMSYN076AAXX  01124 82983 32595 50908 10218 20156 39756 40176 85200 333 10196 58000;EQDQ01  00002PRCP99Q02 +01962ATMX  
0186829830999992000080200004-09370-040480FM-12+037099999V0200901N003110075019N0020001N1+02581+01581101561ADDAA199000091GF106991061061008001001001KA1240M+02981MA1999999097371MD1999999+0031REMSYN076AAXX  02004 82983 32595 60906 10258 20158 39737 40156 86600 333 10298 58003;EQDQ01  00002PRCP99
0186829830999992000080212004-09370-040480FM-12+037099999V0200901N005110450019N0020001N1+02401+01651101751ADDAA199000091GF106991041021008001031001KA1240N+02121MA1999999097571MD1999999+0011REMSYN076AAXX  02124 82983 32595 60910 10240 20165 39757 40175 84230 333 20212 58001;EQDQ01  00002PRCP99
0186829830999992000080300004-09370-040480FM-12+037099999V0200901N005112200019N0020001N1+02481+01701101651ADDAA199000091GF103991031021008001001001KA1240M+02941MA1999999097471MD1999999+0101REMSYN076AAXX  03004 82983 32595 30910 10248 20170 39747 40165 83200 333 10294 58010;EQDQ01  00002PRCP99
0186829830999992000080312004-09370-040480FM-12+037099999V0200901N004110075019N0020001N1+02261+01751101851ADDAA199000091GF108991081051008001999999KA1240N+01971MA1999999097651MD1999999+0081REMSYN076AAXX  03124 82983 32595 80908 10226 20175 39765 40185 885// 333 20197 58008;EQDQ01  00002PRCP99
0147829830999992000080318004-09370-040480FM-12+037099999V0200501N003110075019N0020001N1+03001+01331101371ADDAA199000091GF105991051021008001001001MA1999999097211REMSYN064AAXX  03184 82983 32595 50506 10300 20133 39721 40137 85200 333;EQDQ01  00002PRCP99
0186829830999992000080412004-09370-040480FM-12+037099999V0200901N004110120019N0020001N1+02401+01911101711ADDAA199000091GF108991081081008001999999KA1240N+02101MA1999999097531MD1999999-0121REMSYN076AAXX  04124 82983 32595 80908 10240 20191 39753 40171 888// 333 20210 59012;EQDQ01  00002PRCP99
0196829830999992000080500004-09370-040480FM-12+037099999V0200901N001512200019N0020001N1+02541+01451101451ADDAA199000091GA1001+999999999GF100991001001999999001001KA1240M+02941MA1999999097281MD1999999-0071REMSYN070AAXX  05004 82983 32995 00903 10254 20145 39728 40145 333 10294 59007;EQDQ01  00002PRCP99
0186829830999992000080512004-09370-040480FM-12+037099999V0200901N004112200019N0020001N1+02381+01611101791ADDAA199000091GF103991031011008001001001KA1240N+02081MA1999999097601MD1999999+0071REMSYN076AAXX  05124 82983 32595 30908 10238 20161 39760 40179 83100 333 20208 58007;EQDQ01  00002PRCP99
0167829830999992000080518004-09370-040480FM-12+037099999V0200901N004110075019N0020001N1+02921+01531101341ADDAA199000091GF106991061011008001001001MA1999999097181MD1999999+0091REMSYN070AAXX  05184 82983 32595 60908 10292 20153 39718 40134 86100 333 58009;EQDQ01  00002PRCP99
0196829830999992000080600004-09370-040480FM-12+037099999V0200901N005112200019N0020001N1+02381+01631101651ADDAA199000091GA1001+999999999GF100991001001999999001001KA1240M+03021MA1999999097471MD1999999+0191REMSYN070AAXX  06004 82983 32995 00910 10238 20163 39747 40165 333 10302 58019;EQDQ01  00002PRCP99
0202829830999992000080612004-09370-040480FM-12+037099999V0200901N005119999999N0020001N1+02101+01571101961ADDAA199000091GF107991999021008001001001KA1240N+02001MA1999999097741MD1999999+0141REMSYN076AAXX  06124 82983 32595 70910 10210 20157 39774 40196 84200 333 20200 58014;EQDQ01+000042SCOTLCQ02  00002PRCP99
0183829830999992000080618004-09370-040480FM-12+037099999V0200901N004119999999N0020001N1+02661+01621101511ADDAA199000091GF106991999011008001001001MA1999999097331MD1999999+0171REMSYN070AAXX  06184 82983 32595 60908 10266 20162 39733 40151 82100 333 58017;EQDQ01+000022SCOTLCQ02  00002PRCP99
0186829830999992000080700004-09370-040480FM-12+037099999V0200901N005110075019N0020001N1+02331+01701101771ADDAA199000091GF108991081051008001999999KA1240M+02701MA1999999097551MD1999999+0081REMSYN076AAXX  07004 82983 32595 80910 10233 20170 39755 40177 885// 333 10270 58008;EQDQ01  00002PRCP99
0186829830999992000080712004-09370-040480FM-12+037099999V0200901N003110075019N0020001N1+02241+01751101861ADDAA199000091GF106991061021008001001001KA1240N+02061MA1999999097651MD1999999+0091REMSYN076AAXX  07124 82983 32595 60906 10224 20175 39765 40186 86200 333 20206 58009;EQDQ01  00002PRCP99
0167829830999992000080718004-09370-040480FM-12+037099999V0200901N003110075019N0020001N1+02861+01651101401ADDAA199000091GF106991061021008001001001MA1999999097241MD1999999-0091REMSYN070AAXX  07184 82983 32595 60906 10286 20165 39724 40140 86200 333 59009;EQDQ01  00002PRCP99
0186829830999992000080800004-09370-040480FM-12+037099999V0200901N003112200019N0020001N1+02521+01661101591ADDAA199000091GF102991021011008001001001KA1240M+02921MA1999999097411MD1999999-0141REMSYN076AAXX  08004 82983 32595 20906 10252 20166 39741 40159 82100 333 10292 59014;EQDQ01  00002PRCP99
0202829830999992000080812004-09370-040480FM-12+037099999V0200901N005110075019N0020001N1+02381+01801101771ADDAA199000091GF106991061021008001001001KA1240M+99999MA1999999097581MD1999999-0071REMSYN076AAXX  08124 82983 32595 60910 10238 20180 39758 40177 86200 333 10210 59007;EQDQ01  00002PRCP99Q02 +02102ATMX  
0167829830999992000080818004-09370-040480FM-12+037099999V0200901N005110075019N0020001N1+03101+01621101271ADDAA199000091GF105991051021008001001001MA1999999097131MD1999999-0111REMSYN070AAXX  08184 82983 32595 50910 10310 20162 39713 40127 85200 333 59011;EQDQ01  00002PRCP99
0202829830999992000080900004-09370-040480FM-12+037099999V0200501N003119999999N0020001N1+02681+01731101551ADDAA199000091GF106991999011008001001001KA1240M+03121MA1999999097391MD1999999-0021REMSYN076AAXX  09004 82983 32595 60506 10268 20173 39739 40155 82100 333 10312 59002;EQDQ01+000022SCOTLCQ02  00002PRCP99
0186829830999992000080912004-09370-040480FM-12+037099999V0200901N004110075019N0020001N1+02281+01801101831ADDAA199000091GF108991081051008001999999KA1240N+01831MA1999999097651MD1999999+0071REMSYN076AAXX  09124 82983 32595 80908 10228 20180 39765 40183 885// 333 20183 58007;EQDQ01  00002PRCP99
0167829830999992000080918004-09370-040480FM-12+037099999V0200501N003110450019N0020001N1+02941+01591101371ADDAA199000091GF106991041021008001031001MA1999999097221MD1999999+0091REMSYN070AAXX  09184 82983 32595 60506 10294 20159 39722 40137 84230 333 58009;EQDQ01  00002PRCP99
0196829830999992000081000004-09370-040480FM-12+037099999V0200901N001512200019N0020001N1+02721+01521101691ADDAA199000091GA1001+999999999GF100991001001999999001001KA1240M+03061MA1999999097521MD1999999+0131REMSYN070AAXX  10004 82983 32995 00903 10272 20152 39752 40169 333 10306 58013;EQDQ01  00002PRCP99
0196829830999992000081012004-09370-040480FM-12+037099999V0200901N003112200019N0020001N1+02361+01661101941ADDAA199000091GA1001+999999999GF100991001001999999001001KA1240N+02021MA1999999097761MD1999999+0111REMSYN070AAXX  10124 82983 32995 00906 10236 20166 39776 40194 333 20202 58011;EQDQ01  00002PRCP99
0167829830999992000081018004-09370-040480FM-12+037099999V0200901N003112200019N0020001N1+03241+01361101361ADDAA199000091GF101991011011008001001001MA1999999097241MD1999999+0021REMSYN070AAXX  10184 82983 32595 10906 10324 20136 39724 40136 81100 333 58002;EQDQ01  00002PRCP99
0196829830999992000081100004-09370-040480FM-12+037099999V0200901N003112200019N0020001N1+02721+01521101661ADDAA199000091GA1001+999999999GF100991001001999999001001KA1240M+03321MA1999999097491MD1999999-0031REMSYN070AAXX  11004 82983 32995 00906 10272 20152 39749 40166 333 10332 59003;EQDQ01  00002PRCP99
0186829830999992000081112004-09370-040480FM-12+037099999V0200901N003110075019N0020001N1+02341+01691101861ADDAA199000091GF106991061011008001001001KA1240N+02181MA1999999097681MD1999999-0081REMSYN076AAXX  11124 82983 32595 60906 10234 20169 39768 40186 86100 333 20218 59008;EQDQ01  00002PRCP99
0167829830999992000081118004-09370-040480FM-12+037099999V0200901N003112200019N0020001N1+03141+01501101261ADDAA199000091GF103991031011008001001001MA1999999097141MD1999999-0101REMSYN070AAXX  11184 82983 32595 30906 10314 20150 39714 40126 83100 333 59010;EQDQ01  00002PRCP99
0196829830999992000081200004-09370-040480FM-12+037099999V0200901N003112200019N0020001N1+02661+01621101541ADDAA199000091GA1001+999999999GF100991001001999999001001KA1240M+03181MA1999999097371MD1999999-0121REMSYN070AAXX  12004 82983 32995 00906 10266 20162 39737 40154 333 10318 59012;EQDQ01  00002PRCP99
0186829830999992000081212004-09370-040480FM-12+037099999V0200901N003112200019N0020001N1+02481+01751101691ADDAA199000091GF102991021011008001001001KA1240N+02161MA1999999097521MD1999999-0161REMSYN076AAXX  12124 82983 32595 20906 10248 20175 39752 40169 82100 333 20216 59016;EQDQ01  00002PRCP99
0178829830999992000081218004-09370-040480FM-12+037099999V0200501N001512200019N0020001N1+03201+01421101181ADDAA199000091GA1001+999999999GF100991001001999999001001MD1999999-0151REMSYN064AAXX  12184 82983 32595 00503 10320 20142 39999 40118 333 59015;EQDQ01+099993APOSP Q02  00002PRCP99
0196829830999992000081300004-09370-040480FM-12+037099999V0200901N004112200019N0020001N1+02741+01421101421ADDAA199000091GA1001+999999999GF100991001001999999001001KA1240M+03261MA1999999097271MD1999999-0101REMSYN070AAXX  13004 82983 32995 00908 10274 20142 39727 40142 333 10326 59010;EQDQ01  00002PRCP99
0167829830999992000081318004-09370-040480FM-12+037099999V0200901N004110075019N0020001N1+02741+01811101481ADDAA199000091GF107991071011008001001001MA1999999097321MD1999999+0331REMSYN070AAXX  13184 82983 32595 70908 10274 20181 39732 40148 87100 333 58033;EQDQ01  00002PRCP99
0186829830999992000081400004-09370-040480FM-12+037099999V0200901N004110075019N0020001N1+02241+01821101731ADDAA199000091GF106991061011008001001001KA1240M+02841MA1999999097541MD1999999-0101REMSYN076AAXX  14004 82983 32595 60908 10224 20182 39754 40173 86100 333 10284 59010;EQDQ01  00002PRCP99
0186829830999992000081412004-09370-040480FM-12+037099999V0200901N005110075019N0020001N1+02201+01581102041ADDAA199000091GF106991061011008001001001KA1240N+02041MA1999999097811MD1999999+0171REMSYN076AAXX  14124 82983 32595 60910 10220 20158 39781 40204 86100 333 20204 58017;EQDQ01  00002PRCP99
0167829830999992000081418004-09370-040480FM-12+037099999V0200901N005110075019N0020001N1+02721+01421101651ADDAA199000091GF106991061021008001001001MA1999999097461MD1999999+0141REMSYN070AAXX  14184 82983 32595 60910 10272 20142 39746 40165 86200 333 58014;EQDQ01  00002PRCP99
0196829830999992000081500004-09370-040480FM-12+037099999V0200901N005112200019N0020001N1+02201+01581101901ADDAA199000091GA1001+999999999GF100991001001999999001001KA1240M+02781MA1999999097681MD1999999+0141REMSYN070AAXX  15004 82983 32995 00910 10220 20158 39768 40190 333 10278 58014;EQDQ01  00002PRCP99
0186829830999992000081512004-09370-040480FM-12+037099999V0200901N005110450019N0020001N1+02201+01391102181ADDAA199000091GF106991041021008001031001KA1240N+01981MA1999999097891MD1999999+0081REMSYN076AAXX  15124 82983 32595 60910 10220 20139 39789 40218 84230 333 20198 58008;EQDQ01  00002PRCP99
0167829830999992000081518004-09370-040480FM-12+037099999V0200501N005112200019N0020001N1+02701+01301101651ADDAA199000091GF103991031011008001001001MA1999999097451MD1999999-0011REMSYN070AAXX  15184 82983 32595 30510 10270 20130 39745 40165 83100 333 59001;EQDQ01  00002PRCP99
0196829830999992000081600004-09370-040480FM-12+037099999V0200901N003112200019N0020001N1+02281+01491101821ADDAA199000091GA1001+999999999GF100991001001999999001001KA1240M+02741MA1999999097601MD1999999-0081REMSYN070AAXX  16004 82983 32995 00906 10228 20149 39760 40182 333 10274 59008;EQDQ01  00002PRCP99
0186829830999992000081612004-09370-040480FM-12+037099999V0201401N003110075019N0020001N1+02171+01661101941ADDAA199000091GF108991081051008001999999KA1240N+01941MA1999999097721MD1999999-0171REMSYN076AAXX  16124 82983 32595 81406 10217 20166 39772 40194 885// 333 20194 59017;EQDQ01  00002PRCP99
0167829830999992000081618004-09370-040480FM-12+037099999V0200901N002612200019N0020001N1+02981+01311101411ADDAA199000091GF104991041011008001001001MA1999999097241MD1999999-0211REMSYN070AAXX  16184 82983 32595 40905 10298 20131 39724 40141 84100 333 59021;EQDQ01  00002PRCP99
0202829830999992000081700004-09370-040480FM-12+037099999V0200901N004112200019N0020001N1+02501+01421101621ADDAA199000091GF102991999021008001001001KA1240M+03001MA1999999097431MD1999999-0171REMSYN076AAXX  17004 82983 32595 20908 10250 20142 39743 40162 83200 333 10300 59017;EQDQ01+000032SCOTLCQ02  00002PRCP99
0186829830999992000081712004-09370-040480FM-12+037099999V0200901N003112200019N0020001N1+02301+01481101931ADDAA199000091GF103991031011008001001001KA1240N+01831MA1999999097741MD1999999+0021REMSYN076AAXX  17124 82983 32595 30906 10230 20148 39774 40193 83100 333 20183 58002;EQDQ01  00002PRCP99
0177829830999992000081718004-09370-040480FM-12+037099999V0200901N004112200019N0020001N1+02901+01161101391ADDAA199000091GA1001+999999999GF100991001001999999001001MA1999999097211MD1999999-0031REMSYN064AAXX  17184 82983 32595 00908 10290 20116 39721 40139 333 59003;EQDQ01  00002PRCP99
0196829830999992000081800004-09370-040480FM-12+037099999V0200901N002612200019N0020001N1+02441+01271101631ADDAA199000091GA1001+999999999GF100991001001999999001001KA1240M+03001MA1999999097441MD1999999+0011REMSYN070AAXX  18004 82983 32995 00905 10244 20127 39744 40163 333 10300 58001;EQDQ01  00002PRCP99
0186829830999992000081812004-09370-040480FM-12+037099999V0200901N004112200019N0020001N1+02281+01561101881ADDAA199000091GF103991031011008001001001KA1240N+01921MA1999999097681MD1999999-0061REMSYN076AAXX  18124 82983 32595 30908 10228 20156 39768 40188 83100 333 20192 59006;EQDQ01  00002PRCP99
0177829830999992000081818004-09370-040480FM-12+037099999V0200901N002612200019N0020001N1+03051+01231101331ADDAA199000091GA1001+999999999GF100991001001999999001001MA1999999097171MD1999999-0041REMSYN064AAXX  18184 82983 32595 00905 10305 20123 39717 40133 333 59004;EQDQ01  00002PRCP99
0196829830999992000081900004-09370-040480FM-12+037099999V0200901N002612200019N0020001N1+02661+01331101501ADDAA199000091GA1001+999999999GF100991001001999999001001KA1240M+03101MA1999999097331MD1999999-0111REMSYN070AAXX  19004 82983 32595 00905 10266 20133 39733 40150 333 10310 59011;EQDQ01  00002PRCP99
0186829830999992000081912004-09370-040480FM-12+037099999V0200901N004110075019N0020001N1+02381+01631101831ADDAA199000091GF108991081051008001999999KA1240N+02211MA1999999097651MD1999999-0031REMSYN076AAXX  19124 82983 32595 80908 10238 20163 39765 40183 885// 333 20221 59003;EQDQ01  00002PRCP99
0167829830999992000081918004-09370-040480FM-12+037099999V0200501N002610075019N0020001N1+03131+01301101221ADDAA199000091GF105991051011008001001001MA1999999097081MD1999999-0091REMSYN070AAXX  19184 82983 32595 50505 10313 20130 39708 40122 85100 333 59009;EQDQ01  00002PRCP99
0196829830999992000082000004-09370-040480FM-12+037099999V0200901N005112200019N0020001N1+02741+01611101541ADDAA199000091GA1001+999999999GF100991001001999999001001KA1240M+03161MA1999999097381MD1999999+0051REMSYN070AAXX  20004 82983 32995 00910 10274 20161 39738 40154 333 10316 58005;EQDQ01  00002PRCP99
0186829830999992000082012004-09370-040480FM-12+037099999V0200901N005110075019N0020001N1+02341+01721101931ADDAA199000091GF106991061021008001001001KA1240N+02091MA1999999097751MD1999999+0101REMSYN076AAXX  20124 82983 32595 60910 10234 20172 39775 40193 86200 333 20209 58010;EQDQ01  00002PRCP99
0167829830999992000082018004-09370-040480FM-12+037099999V0200901N005110075019N0020001N1+03081+01481101411ADDAA199000091GF105991051021008001001001MA1999999097271MD1999999+0191REMSYN070AAXX  20184 82983 32595 50910 10308 20148 39727 40141 85200 333 58019;EQDQ01  00002PRCP99
0186829830999992000082112004-09370-040480FM-12+037099999V0200901N004110075019N0020001N1+02261+01621102011ADDAA199000091GF107991071021008001001001KA1240N+02081MA1999999097791MD1999999+0041REMSYN076AAXX  21124 82983 32595 70908 10226 20162 39779 40201 87200 333 20208 58004;EQDQ01  00002PRCP99
0167829830999992000082118004-09370-040480FM-12+037099999V0200901N003110075019N0020001N1+02781+01641101481ADDAA199000091GF105991051011008001001001MA1999999097311MD1999999+0041REMSYN070AAXX  21184 82983 32595 50906 10278 20164 39731 40148 85100 333 58004;EQDQ01  00002PRCP99
0186829830999992000082200004-09370-040480FM-12+037099999V0200901N003112200019N0020001N1+02541+01541101701ADDAA199000091GF104991041011008001001001KA1240M+02901MA1999999097521MD1999999-0061REMSYN076AAXX  22004 82983 32595 40906 10254 20154 39752 40170 84100 333 10290 59006;EQDQ01  00002PRCP99
0186829830999992000082212004-09370-040480FM-12+037099999V0200901N003110120019N0020001N1+02261+01711101861ADDAA199000091GF108991081081008001999999KA1240N+02081MA1999999097671MD1999999-0121REMSYN076AAXX  22124 82983 32595 80906 10226 20171 39767 40186 888// 333 20208 59012;EQDQ01  00002PRCP99
0167829830999992000082218004-09370-040480FM-12+037099999V0200901N003112200019N0020001N1+03061+01381101311ADDAA199000091GF104991031011008001001011MA1999999097161MD1999999-0151REMSYN070AAXX  22184 82983 32595 40906 10306 20138 39716 40131 83101 333 59015;EQDQ01  00002PRCP99
0196829830999992000082300004-09370-040480FM-12+037099999V0200901N003112200019N0020001N1+02701+01411101491ADDAA199000091GA1001+999999999GF100991001001999999001001KA1240M+03101MA1999999097331MD1999999-0191REMSYN070AAXX  23004 82983 32995 00906 10270 20141 39733 40149 333 10310 59019;EQDQ01  00002PRCP99
0186829830999992000082312004-09370-040480FM-12+037099999V0200901N004110075019N0020001N1+02341+01781101751ADDAA199000091GF107991071021008001001001KA1240N+02121MA1999999097571MD1999999-0101REMSYN076AAXX  23124 82983 32595 70908 10234 20178 39757 40175 87200 333 20212 59010;EQDQ01  00002PRCP99
0183829830999992000082318004-09370-040480FM-12+037099999V0200901N003119999999N0020001N1+03081+01271101251ADDAA199000091GF105991999011008001001001MA1999999097111MD1999999-0051REMSYN070AAXX  23184 82983 32595 50906 10308 20127 39711 40125 86100 333 59005;EQDQ01+000062SCOTLCQ02  00002PRCP99
0196829830999992000082400004-09370-040480FM-12+037099999V0200901N004112200019N0020001N1+02661+01301101461ADDAA199000091GA1001+999999999GF100991001001999999001001KA1240M+03201MA1999999097301MD1999999-0031REMSYN070AAXX  24004 82983 32595 00908 10266 20130 39730 40146 333 10320 59003;EQDQ01  00002PRCP99
0186829830999992000082412004-09370-040480FM-12+037099999V0200901N004110075019N0020001N1+02361+01761101841ADDAA199000091GF107991071021008001001001KA1240N+02121MA1999999097661MD1999999+0091REMSYN076AAXX  24124 82983 32595 70908 10236 20176 39766 40184 87200 333 20212 58009;EQDQ01  00002PRCP99
0196829830999992000082500004-09370-040480FM-12+037099999V0200901N005112200019N0020001N1+02461+01941101561ADDAA199000091GA1001+999999999GF100991001001999999001001KA1240M+03161MA1999999097321MD1999999+0081REMSYN070AAXX  25004 82983 32995 00910 10246 20194 39732 40156 333 10316 58008;EQDQ01  00002PRCP99
0186829830999992000082512004-09370-040480FM-12+037099999V0200901N004110120019N0020001N1+02361+01781101821ADDAA199000091GF108991081081008001999999KA1240N+02141MA1999999097631MD1999999-0031REMSYN076AAXX  25124 82983 32595 80908 10236 20178 39763 40182 888// 333 20214 59003;EQDQ01  00002PRCP99
0167829830999992000082518004-09370-040480FM-12+037099999V0200901N005110075019N0020001N1+03061+01581101211ADDAA199000091GF106991061011008001001001MA1999999097071MD1999999-0041REMSYN070AAXX  25184 82983 32595 60910 10306 20158 39707 40121 86100 333 59004;EQDQ01  00002PRCP99
0196829830999992000082600004-09370-040480FM-12+037099999V0200901N003112200019N0020001N1+02701+01721101441ADDAA199000091GA1001+999999999GF100991001001999999001001KA1240M+03161MA1999999097281MD1999999-0101REMSYN070AAXX  26004 82983 32995 00906 10270 20172 39728 40144 333 10316 59010;EQDQ01  00002PRCP99
0186829830999992000082612004-09370-040480FM-12+037099999V0200901N003110075019N0020001N1+02601+01791101571ADDAA199000091GF107991071011008001001001KA1240N+02321MA1999999097421MD1999999-0121REMSYN076AAXX  26124 82983 32595 70906 10260 20179 39742 40157 87100 333 20232 59012;EQDQ01  00002PRCP99
0167829830999992000082618004-09370-040480FM-12+037099999V0200501N005112200019N0020001N1+03221+01391101001ADDAA199000091GF102991021011008001001001MA1999999096891MD1999999-0181REMSYN070AAXX  26184 82983 32595 20510 10322 20139 39689 40100 82100 333 59018;EQDQ01  00002PRCP99
0196829830999992000082700004-09370-040480FM-12+037099999V0200901N003112200019N0020001N1+02681+01451101291ADDAA199000091GA1001+999999999GF100991001001999999001001KA1240M+03261MA1999999097151MD1999999-0131REMSYN070AAXX  27004 82983 32995 00906 10268 20145 39715 40129 333 10326 59013;EQDQ01  00002PRCP99
0186829830999992000082712004-09370-040480FM-12+037099999V0200901N004112200019N0020001N1+02381+01631101561ADDAA199000091GF102991021011008001001001KA1240N+01891MA1999999097401MD1999999-0021REMSYN076AAXX  27124 82983 32595 20908 10238 20163 39740 40156 82100 333 20189 59002;EQDQ01  00002PRCP99
0177829830999992000082718004-09370-040480FM-12+037099999V0200501N004112200019N0020001N1+03361+00961100821ADDAA199000091GA1001+999999999GF100991001001999999001001MA1999999096711MD1999999-0181REMSYN064AAXX  27184 82983 32995 00508 10336 20096 39671 40082 333 59018;EQDQ01  00002PRCP99
0196829830999992000082800004-09370-040480FM-12+037099999V0200501N004112200019N0020001N1+02881+01091101101ADDAA199000091GA1001+999999999GF100991001001999999001001KA1240M+03421MA1999999096961MD1999999-0191REMSYN070AAXX  28004 82983 32995 00508 10288 20109 39696 40110 333 10342 59019;EQDQ01  00002PRCP99
0186829830999992000082812004-09370-040480FM-12+037099999V0201401N003110075019N0020001N1+02561+01851101391ADDAA199000091GF105991051011008001001001KA1240N+02131MA1999999097251MD1999999-0151REMSYN076AAXX  28124 82983 32595 51406 10256 20185 39725 40139 85100 333 20213 59015;EQDQ01  00002PRCP99
0196829830999992000082900004-09370-040480FM-12+037099999V0200901N001512200019N0020001N1+02761+01281101061ADDAA199000091GA1001+999999999GF100991001001999999001001KA1240M+03481MA1999999096931MD1999999-0031REMSYN070AAXX  29004 82983 32995 00903 10276 20128 39693 40106 333 10348 59003;EQDQ01  00002PRCP99
0186829830999992000082912004-09370-040480FM-12+037099999V0200901N004112200019N0020001N1+02581+01901101461ADDAA199000091GF102991021011008001001001KA1240N+02151MA1999999097321MD1999999+0071REMSYN076AAXX  29124 82983 32595 20908 10258 20190 39732 40146 82100 333 20215 58007;EQDQ01  00002PRCP99
0167829830999992000082918004-09370-040480FM-12+037099999V0200901N003112200019N0020001N1+03471+01481100881ADDAA199000091GF103991031011008001001001MA1999999096791MD1999999+0131REMSYN070AAXX  29184 82983 32595 30906 10347 20148 39679 40088 83100 333 58013;EQDQ01  00002PRCP99
0196829830999992000083000004-09370-040480FM-12+037099999V0200901N003112200019N0020001N1+02981+01311101181ADDAA199000091GA1001+999999999GF100991001001999999001001KA1240M+03511MA1999999097081MD1999999+0151REMSYN070AAXX  30004 82983 32995 00906 10298 20131 39708 40118 333 10351 58015;EQDQ01  00002PRCP99
0186829830999992000083012004-09370-040480FM-12+037099999V0200901N005110075019N0020001N1+02481+01731101611ADDAA199000091GF106991061021008001001001KA1240N+02301MA1999999097481MD1999999+0161REMSYN076AAXX  30124 82983 32595 60910 10248 20173 39748 40161 86200 333 20230 58016;EQDQ01  00002PRCP99
0177829830999992000083018004-09370-040480FM-12+037099999V0200901N005112200019N0020001N1+03321+01281101021ADDAA199000091GA1001+999999999GF100991001001999999001001MA1999999096931MD1999999+0141REMSYN064AAXX  30184 82983 32995 00910 10332 20128 39693 40102 333 58014;EQDQ01  00002PRCP99
0196829830999992000083100004-09370-040480FM-12+037099999V0200901N004112200019N0020001N1+02781+01411101411ADDAA199000091GA1001+999999999GF100991001001999999001001KA1240M+03361MA1999999097271MD1999999+0191REMSYN070AAXX  31004 82983 32995 00908 10278 20141 39727 40141 333 10336 58019;EQDQ01  00002PRCP99
0186829830999992000083112004-09370-040480FM-12+037099999V0200901N005110450019N0020001N1+02541+01651101591ADDAA199000091GF106991041021008001031001KA1240N+02081MA1999999097441MD1999999-0041REMSYN076AAXX  31124 82983 32595 60910 10254 20165 39744 40159 84230 333 20208 59004;EQDQ01  00002PRCP99
0167829830999992000083118004-09370-040480FM-12+037099999V0200901N005110450019N0020001N1+03041+01531101111ADDAA199000091GF106991041021008001021001MA1999999096971MD1999999+0041REMSYN070AAXX  31184 82983 32595 60910 10304 20153 39697 40111 84220 333 58004;EQDQ01  00002PRCP99
0196829830999992000090100004-09370-040480FM-12+037099999V0200901N003112200019N0020001N1+02621+01671101311ADDAA199000091GA1001+999999999GF100991001001999999001001KA1240M+03141MA1999999097161MD1999999-0111REMSYN070AAXX  01004 82983 32995 00906 10262 20167 39716 40131 333 10314 59011;EQDQ01  00002PRCP99
0186829830999992000090112004-09370-040480FM-12+037099999V0200901N004110075019N0020001N1+02481+01621101631ADDAA199000091GF106991061021008001001001KA1240N+02141MA1999999097461MD1999999+0021REMSYN076AAXX  01124 82983 32595 60908 10248 20162 39746 40163 86200 333 20214 58002;EQDQ01  00002PRCP99
0167829830999992000090118004-09370-040480FM-12+037099999V0200901N003112200019N0020001N1+03101+01241101001ADDAA199000091GF104991041011008001001001MA1999999096861MD1999999-0111REMSYN070AAXX  01184 82983 32595 40906 10310 20124 39686 40100 84100 333 59011;EQDQ01  00002PRCP99
0196829830999992000090200004-09370-040480FM-12+037099999V0200901N003112200019N0020001N1+02621+01741101231ADDAA199000091GA1001+999999999GF100991001001999999001001KA1240M+03161MA1999999097071MD1999999-0091REMSYN070AAXX  02004 82983 32995 00906 10262 20174 39707 40123 333 10316 59009;EQDQ01  00002PRCP99
0186829830999992000090212004-09370-040480FM-12+037099999V0200901N004110075019N0020001N1+02561+01761101461ADDAA199000091GF105991051011008001001001KA1240N+02221MA1999999097311MD1999999-0151REMSYN076AAXX  02124 82983 32595 50908 10256 20176 39731 40146 85100 333 20222 59015;EQDQ01  00002PRCP99
0183829830999992000090218004-09370-040480FM-12+037099999V0200901N003119999999N0020001N1+03241+01411100921ADDAA199000091GF105991999011008001001001MA1999999096801MD1999999-0061REMSYN070AAXX  02184 82983 32595 50906 10324 20141 39680 40092 82100 333 59006;EQDQ01+000022SCOTLCQ02  00002PRCP99
0196829830999992000090300004-09370-040480FM-12+037099999V0200901N003112200019N0020001N1+02861+01331101161ADDAA199000091GA1001+999999999GF100991001001999999001001KA1240M+03301MA1999999097031MD1999999-0041REMSYN070AAXX  03004 82983 32995 00906 10286 20133 39703 40116 333 10330 59004;EQDQ01  00002PRCP99
0186829830999992000090312004-09370-040480FM-12+037099999V0200901N003110075019N0020001N1+02321+01631101471ADDAA199000091GF107991071011008001001001KA1240N+02101MA1999999097321MD1999999+0021REMSYN076AAXX  03124 82983 32595 70906 10232 20163 39732 40147 87100 333 20210 58002;EQDQ01  00002PRCP99
0167829830999992000090318004-09370-040480FM-12+037099999V0200901N002612200019N0020001N1+03201+01321101011ADDAA199000091GF102991021011008001001001MA1999999096891MD1999999+0091REMSYN070AAXX  03184 82983 32595 20905 10320 20132 39689 40101 82100 333 58009;EQDQ01  00002PRCP99
0196829830999992000090400004-09370-040480FM-12+037099999V0200901N003112200019N0020001N1+02861+01521101121ADDAA199000091GA1001+999999999GF100991001001999999001001KA1240M+03281MA1999999096981MD1999999-0051REMSYN070AAXX  04004 82983 32995 00906 10286 20152 39698 40112 333 10328 59005;EQDQ01  00002PRCP99
0186829830999992000090412004-09370-040480FM-12+037099999V0200901N003112200019N0020001N1+02541+01651101541ADDAA199000091GF104991041011008001001001KA1240N+02181MA1999999097401MD1999999-0061REMSYN076AAXX  04124 82983 32595 40906 10254 20165 39740 40154 84100 333 20218 59006;EQDQ01  00002PRCP99
0147829830999992000090418004-09370-040480FM-12+037099999V0200901N003112200019N0020001N1+03321+01481100901ADDAA199000091GF104991041011008001001001MA1999999096811REMSYN064AAXX  04184 82983 32595 40906 10332 20148 39681 40090 84100 333;EQDQ01  00002PRCP99
0196829830999992000090500004-09370-040480FM-12+037099999V0200901N002612200019N0020001N1+02941+01361101111ADDAA199000091GA1001+999999999GF100991001001999999001001KA1240M+03401MA1999999096991MD1999999+0011REMSYN070AAXX  05004 82983 32995 00905 10294 20136 39699 40111 333 10340 58001;EQDQ01  00002PRCP99
0186829830999992000090512004-09370-040480FM-12+037099999V0200901N005110450019N0020001N1+02581+01661101581ADDAA199000091GF106991041011008001031001KA1240N+02241MA1999999097451MD1999999+0051REMSYN076AAXX  05124 82983 32595 60910 10258 20166 39745 40158 84130 333 20224 58005;EQDQ01  00002PRCP99
0167829830999992000090518004-09370-040480FM-12+037099999V0200901N003110075019N0020001N1+03081+01561101091ADDAA199000091GF105991051011008001001001MA1999999096961MD1999999+0151REMSYN070AAXX  05184 82983 32595 50906 10308 20156 39696 40109 85100 333 58015;EQDQ01  00002PRCP99
0186829830999992000090600004-09370-040480FM-12+037099999V0200901N005112200019N0020001N1+02681+01701101311ADDAA199000091GF101991011011008001001001KA1240M+03201MA1999999097171MD1999999+0181REMSYN076AAXX  06004 82983 32595 10910 10268 20170 39717 40131 81100 333 10320 58018;EQDQ01  00002PRCP99
0186829830999992000090612004-09370-040480FM-12+037099999V0200901N005110075019N0020001N1+02381+01841101551ADDAA199000091GF108991081051008001999999KA1240N+02171MA1999999097391MD1999999-0061REMSYN076AAXX  06124 82983 32595 80910 10238 20184 39739 40155 885// 333 20217 59006;EQDQ01  00002PRCP99
0167829830999992000090618004-09370-040480FM-12+037099999V0200901N004110075019N0020001N1+03001+01811101041ADDAA199000091GF105991051021008001001001MA1999999096901MD1999999-0061REMSYN070AAXX  06184 82983 32595 50908 10300 20181 39690 40104 85200 333 59006;EQDQ01  00002PRCP99
0196829830999992000090700004-09370-040480FM-12+037099999V0200901N003112200019N0020001N1+02601+01871101191ADDAA199000091GA1001+999999999GF100991001001999999001001KA1240M+03041MA1999999097041MD1999999-0131REMSYN070AAXX  07004 82983 32995 00906 10260 20187 39704 40119 333 10304 59013;EQDQ01  00002PRCP99
0186829830999992000090712004-09370-040480FM-12+037099999V0200901N003112200019N0020001N1+02541+01711101521ADDAA199000091GF104991041011008001001001KA1240N+02221MA1999999097361MD1999999-0031REMSYN076AAXX  07124 82983 32595 40906 10254 20171 39736 40152 84100 333 20222 59003;EQDQ01  00002PRCP99
0167829830999992000090718004-09370-040480FM-12+037099999V0200901N003110450019N0020001N1+03061+01701100921ADDAA199000091GF106991041011008001031001MA1999999096791MD1999999-0111REMSYN070AAXX  07184 82983 32595 60906 10306 20170 39679 40092 84130 333 59011;EQDQ01  00002PRCP99
0186829830999992000090800004-09370-040480FM-12+037099999V0200901N004110075019N0020001N1+02721+01741101201ADDAA199000091GF105991051041008001001001KA1240M+03121MA1999999097061MD1999999+0021REMSYN076AAXX  08004 82983 32595 50908 10272 20174 39706 40120 85400 333 10312 58002;EQDQ01  00002PRCP99
0167829830999992000090818004-09370-040480FM-12+037099999V0200901N003110450019N0020001N1+03121+01521100951ADDAA199000091GF106991041021008001031001MA1999999096811MD1999999+0021REMSYN070AAXX  08184 82983 32595 60906 10312 20152 39681 40095 84230 333 58002;EQDQ01  00002PRCP99
0186829830999992000090900004-09370-040480FM-12+037099999V0200901N005112200019N0020001N1+02551+01761101271ADDAA199000091GF102991021011008001001001KA1240M+03201MA1999999097121MD1999999+0061REMSYN076AAXX  09004 82983 32595 20910 10255 20176 39712 40127 82100 333 10320 58006;EQDQ01  00002PRCP99
0186829830999992000090912004-09370-040480FM-12+037099999V0200901N005110075019N0020001N1+02461+01781101581ADDAA199000091GF107991071021008001001001KA1240N+02211MA1999999097411MD1999999+0041REMSYN076AAXX  09124 82983 32595 70910 10246 20178 39741 40158 87200 333 20221 58004;EQDQ01  00002PRCP99
0167829830999992000090918004-09370-040480FM-12+037099999V0200901N003110075019N0020001N1+03161+01511101031ADDAA199000091GF105991051021008001001001MA1999999096911MD1999999+0101REMSYN070AAXX  09184 82983 32595 50906 10316 20151 39691 40103 85200 333 58010;EQDQ01  00002PRCP99
0196829830999992000091000004-09370-040480FM-12+037099999V0200901N003112200019N0020001N1+02781+01641101271ADDAA199000091GA1001+999999999GF100991001001999999001001KA1240M+03201MA1999999097131MD1999999+0011REMSYN070AAXX  10004 82983 32995 00906 10278 20164 39713 40127 333 10320 58001;EQDQ01  00002PRCP99
0186829830999992000091012004-09370-040480FM-12+037099999V0200901N003110075019N0020001N1+02481+01801101551ADDAA199000091GF108991081051008001999999KA1240N+02211MA1999999097401MD1999999+0011REMSYN076AAXX  10124 82983 32595 80906 10248 20180 39740 40155 885// 333 20221 58001;EQDQ01  00002PRCP99
0186829830999992000091100004-09370-040480FM-12+037099999V0200901N005112200019N0020001N1+02741+01701101221ADDAA199000091GF102991021011008001001001KA1240M+03221MA1999999097081MD1999999-0051REMSYN076AAXX  11004 82983 32595 20910 10274 20170 39708 40122 82100 333 10322 59005;EQDQ01  00002PRCP99
0186829830999992000091112004-09370-040480FM-12+037099999V0200901N004110075019N0020001N1+02421+01881101541ADDAA199000091GF108991081051008001999999KA1240N+02231MA1999999097381MD1999999-0021REMSYN076AAXX  11124 82983 32595 80908 10242 20188 39738 40154 885// 333 20223 59002;EQDQ01  00002PRCP99
0182829830999992000091118004-09370-040480FM-12+037099999V0200901N005110075019N0020001N1+03101+01731100981ADDAA124001091AY161061AY221061GF105991051021008001001001MA1999999096861MD1999999-0091MW1031REMSYN082AAXX  11184 82983 21595 50910 10310 20173 39686 40098 70362 85200 333 59009 60014;
0196829830999992000091200004-09370-040480FM-12+037099999V0200901N004112200019N0020001N1+02601+01871101291ADDAA199000091GA1001+999999999GF100991001001999999001001KA1240M+03141MA1999999097141MD1999999+0061REMSYN070AAXX  12004 82983 32595 00908 10260 20187 39714 40129 333 10314 58006;EQDQ01  00002PRCP99
0173829830999992000091212004-09370-040480FM-12+037099999V0200901N004110075019N0020001N1+02441+01921101541ADDAA124001091GF108991081051008001999999KA1240N+02241MA1999999097371MD1999999-0011REMSYN082AAXX  12124 82983 22595 80908 10244 20192 39737 40154 885// 333 20224 59001 60014;
0167829830999992000091218004-09370-040480FM-12+037099999V0200901N004112200019N0020001N1+03141+01661100981ADDAA199000091GF104991041011008001001001MA1999999096851MD1999999-0011REMSYN070AAXX  12184 82983 32595 40908 10314 20166 39685 40098 84100 333 59001;EQDQ01  00002PRCP99
0196829830999992000091300004-09370-040480FM-12+037099999V0200901N005112200019N0020001N1+02461+01981101371ADDAA199000091GA1001+999999999GF100991001001999999001001KA1240M+03181MA1999999097201MD1999999+0061REMSYN070AAXX  13004 82983 32995 00910 10246 20198 39720 40137 333 10318 58006;EQDQ01  00002PRCP99
0186829830999992000091312004-09370-040480FM-12+037099999V0200901N004110075019N0020001N1+02521+01791101641ADDAA199000091GF106991061011008001001001KA1240N+02221MA1999999097471MD1999999+0101REMSYN076AAXX  13124 82983 32595 60908 10252 20179 39747 40164 86100 333 20222 58010;EQDQ01  00002PRCP99
0167829830999992000091318004-09370-040480FM-12+037099999V0200901N003112200019N0020001N1+03221+01651101081ADDAA199000091GF104991041011008001001001MA1999999096961MD1999999+0111REMSYN070AAXX  13184 82983 32595 40906 10322 20165 39696 40108 84100 333 58011;EQDQ01  00002PRCP99
0196829830999992000091400004-09370-040480FM-12+037099999V0200901N005112200019N0020001N1+02701+02011101231ADDAA199000091GA1001+999999999GF100991001001999999001001KA1240M+03201MA1999999097181MD1999999-0021REMSYN070AAXX  14004 82983 32995 00910 10270 20201 39718 40123 333 10320 59002;EQDQ01  00002PRCP99
0186829830999992000091412004-09370-040480FM-12+037099999V0200901N003110120019N0020001N1+02441+01741101761ADDAA199000091GF108991081081008001999999KA1240N+02301MA1999999097581MD1999999+0111REMSYN076AAXX  14124 82983 32595 80906 10244 20174 39758 40176 888// 333 20230 58011;EQDQ01  00002PRCP99
0167829830999992000091418004-09370-040480FM-12+037099999V0200501N004112200019N0020001N1+03241+01321101141ADDAA199000091GF104991041011008001001001MA1999999097041MD1999999+0081REMSYN070AAXX  14184 82983 32595 40508 10324 20132 39704 40114 84100 333 58008;EQDQ01  00002PRCP99
0186829830999992000091512004-09370-040480FM-12+037099999V0200901N003110075019N0020001N1+02601+01781101741ADDAA199000091GF105991051011008001001001KA1240N+02221MA1999999097561MD1999999-0021REMSYN076AAXX  15124 82983 32595 50906 10260 20178 39756 40174 85100 333 20222 59002;EQDQ01  00002PRCP99
0167829830999992000091518004-09370-040480FM-12+037099999V0200901N004110075019N0020001N1+03081+01641101201ADDAA199000091GF105991051011008001001001MA1999999097061MD1999999+0021REMSYN070AAXX  15184 82983 32595 50908 10308 20164 39706 40120 85100 333 58002;EQDQ01  00002PRCP99
0196829830999992000091600004-09370-040480FM-12+037099999V0200901N004112200019N0020001N1+02841+01501101411ADDAA199000091GA1001+999999999GF100991001001999999001001KA1240M+03201MA1999999097271MD1999999-0051REMSYN070AAXX  16004 82983 32595 00908 10284 20150 39727 40141 333 10320 59005;EQDQ01  00002PRCP99
0186829830999992000091612004-09370-040480FM-12+037099999V0200901N004110075019N0020001N1+02541+01811101641ADDAA199000091GF105991051011008001001001KA1240N+02221MA1999999097501MD1999999-0061REMSYN076AAXX  16124 82983 32595 50908 10254 20181 39750 40164 85100 333 20222 59006;EQDQ01  00002PRCP99
0167829830999992000091618004-09370-040480FM-12+037099999V0200901N004112200019N0020001N1+03281+01581101071ADDAA199000091GF104991041011008001001001MA1999999096971MD1999999-0091REMSYN070AAXX  16184 82983 32595 40908 10328 20158 39697 40107 84100 333 59009;EQDQ01  00002PRCP99
0201829830999992000091700004-09370-040480FM-12+037099999V0200901N003110075019N0020001N1+02361+01991101501ADDAA106002091AY151061AY261061GF105991051021008001001001KA1240M+03301MA1999999097331MD1999999+0061MW1031REMSYN088AAXX  17004 82983 21595 50906 10236 20199 39733 40150 70356 85200 333 10330 58006 60021;
0173829830999992000091712004-09370-040480FM-12+037099999V0200901N003110075019N0020001N1+02441+01831101721ADDAA124002091GF108991081051008001999999KA1240N+02241MA1999999097541MD1999999+0041REMSYN082AAXX  17124 82983 22595 80906 10244 20183 39754 40172 885// 333 20224 58004 60024;
0167829830999992000091718004-09370-040480FM-12+037099999V0200501N005110120019N0020001N1+02941+01691101281ADDAA199000091GF107991071081008001001001MA1999999097141MD1999999+0171REMSYN070AAXX  17184 82983 32595 70510 10294 20169 39714 40128 87800 333 58017;EQDQ01  00002PRCP99
0196829830999992000091800004-09370-040480FM-12+037099999V0200901N003112200019N0020001N1+02641+01581101531ADDAA199000091GA1001+999999999GF100991001001999999001001KA1240M+02641MA1999999097371MD1999999+0041REMSYN070AAXX  18004 82983 32995 00906 10264 20158 39737 40153 333 10264 58004;EQDQ01  00002PRCP99
0186829830999992000091812004-09370-040480FM-12+037099999V0200901N005110075019N0020001N1+02381+01751101761ADDAA199000091GF107991071021008001001001KA1240N+02121MA1999999097581MD1999999+0041REMSYN076AAXX  18124 82983 32595 70910 10238 20175 39758 40176 87200 333 20212 58004;EQDQ01  00002PRCP99
0167829830999992000091818004-09370-040480FM-12+037099999V0200501N005110075019N0020001N1+03041+01321101321ADDAA199000091GF106991061011008001001001MA1999999097181MD1999999+0041REMSYN070AAXX  18184 82983 32595 60510 10304 20132 39718 40132 86100 333 58004;EQDQ01  00002PRCP99
0196829830999992000091900004-09370-040480FM-12+037099999V0200901N004112200019N0020001N1+02661+01441101611ADDAA199000091GA1001+999999999GF100991001001999999001001KA1240M+03121MA1999999097441MD1999999+0071REMSYN070AAXX  19004 82983 32995 00908 10266 20144 39744 40161 333 10312 58007;EQDQ01  00002PRCP99
0186829830999992000091912004-09370-040480FM-12+037099999V0200901N005112200019N0020001N1+02441+01591101801ADDAA199000091GF103991031011008001001001KA1240N+02091MA1999999097621MD1999999+0041REMSYN076AAXX  19124 82983 32595 30910 10244 20159 39762 40180 83100 333 20209 58004;EQDQ01  00002PRCP99
0167829830999992000091918004-09370-040480FM-12+037099999V0200501N005112200019N0020001N1+03161+01141101231ADDAA199000091GF103991031011008001001001MA1999999097091MD1999999-0091REMSYN070AAXX  19184 82983 32595 30510 10316 20114 39709 40123 83100 333 59009;EQDQ01  00002PRCP99
0196829830999992000092000004-09370-040480FM-12+037099999V0200901N003112200019N0020001N1+02781+01331101381ADDAA199000091GA1001+999999999GF100991001001999999001001KA1240M+03201MA1999999097231MD1999999-0211REMSYN070AAXX  20004 82983 32995 00906 10278 20133 39723 40138 333 10320 59021;EQDQ01  00002PRCP99
0186829830999992000092012004-09370-040480FM-12+037099999V0200901N005110075019N0020001N1+02461+01611101701ADDAA199000091GF106991061021008001001001KA1240N+02101MA1999999097541MD1999999-0081REMSYN076AAXX  20124 82983 32595 60910 10246 20161 39754 40170 86200 333 20210 59008;EQDQ01  00002PRCP99
0167829830999992000092018004-09370-040480FM-12+037099999V0200901N004110075019N0020001N1+03161+01431101191ADDAA199000091GF105991051021008001001001MA1999999097061MD1999999-0031REMSYN070AAXX  20184 82983 32595 50908 10316 20143 39706 40119 85200 333 59003;EQDQ01  00002PRCP99
0196829830999992000092100004-09370-040480FM-12+037099999V0200901N005712200019N0020001N1+02641+01581101411ADDAA199000091GA1001+999999999GF100991001001999999001001KA1240M+03221MA1999999097251MD1999999+0021REMSYN070AAXX  21004 82983 32995 00911 10264 20158 39725 40141 333 10322 58002;EQDQ01  00002PRCP99
0186829830999992000092112004-09370-040480FM-12+037099999V0200901N005110075019N0020001N1+02321+01701101661ADDAA199000091GF108991081051008001999999KA1240N+02101MA1999999097491MD1999999-0051REMSYN076AAXX  21124 82983 32595 80910 10232 20170 39749 40166 885// 333 20210 59005;EQDQ01  00002PRCP99
0167829830999992000092118004-09370-040480FM-12+037099999V0200901N006210075019N0020001N1+03001+01571101171ADDAA199000091GF105991051021008001001001MA1999999097031MD1999999-0061REMSYN070AAXX  21184 82983 32595 50912 10300 20157 39703 40117 85200 333 59006;EQDQ01  00002PRCP99
0196829830999992000092212004-09370-040480FM-12+037099999V0200901N005112200019N0020001N1+02461+01281101791ADDAA199000091GA1001+999999999GF100991001001999999001001KA1240N+01991MA1999999097611MD1999999+0161REMSYN070AAXX  22124 82983 32995 00910 10246 20128 39761 40179 333 20199 58016;EQDQ01  00002PRCP99
0186829830999992000092312004-09370-040480FM-12+037099999V0200901N004112200019N0020001N1+02381+01501101621ADDAA199000091GF103991031011008001001001KA1240N+02031MA1999999097461MD1999999-0151REMSYN076AAXX  23124 82983 32595 30908 10238 20150 39746 40162 83100 333 20203 59015;EQDQ01  00002PRCP99
0177829830999992000092318004-09370-040480FM-12+037099999V0200901N003112200019N0020001N1+03201+01171101001ADDAA199000091GA1001+999999999GF100991001001999999001001MA1999999096871MD1999999-0181REMSYN064AAXX  23184 82983 32995 00906 10320 20117 39687 40100 333 59018;EQDQ01  00002PRCP99
0196829830999992000092400004-09370-040480FM-12+037099999V0200901N003112200019N0020001N1+02841+01231101221ADDAA199000091GA1001+999999999GF100991001001999999001001KA1240M+03281MA1999999097081MD1999999-0151REMSYN070AAXX  24004 82983 32995 00906 10284 20123 39708 40122 333 10328 59015;EQDQ01  00002PRCP99
0196829830999992000092412004-09370-040480FM-12+037099999V0200901N004112200019N0020001N1+02401+01501101541ADDAA199000091GA1001+999999999GF100991001001999999001001KA1240N+02061MA1999999097381MD1999999-0081REMSYN070AAXX  24124 82983 32995 00908 10240 20150 39738 40154 333 20206 59008;EQDQ01  00002PRCP99
0167829830999992000092418004-09370-040480FM-12+037099999V0200901N003112200019N0020001N1+03341+01291100891ADDAA199000091GF103991031011008001001001MA1999999096801MD1999999-0071REMSYN070AAXX  24184 82983 32595 30906 10334 20129 39680 40089 83100 333 59007;EQDQ01  00002PRCP99
0196829830999992000092500004-09370-040480FM-12+037099999V0200901N002612200019N0020001N1+02901+01281101141ADDAA199000091GA1001+999999999GF100991001001999999001001KA1240M+03381MA1999999097001MD1999999-0081REMSYN070AAXX  25004 82983 32995 00905 10290 20128 39700 40114 333 10338 59008;EQDQ01  00002PRCP99
0167829830999992000092518004-09370-040480FM-12+037099999V0200901N003112200019N0020001N1+03421+01251100951ADDAA199000091GF103991031011008001001001MA1999999096861MD1999999+0061REMSYN070AAXX  25184 82983 32595 30906 10342 20125 39686 40095 83100 333 58006;EQDQ01  00002PRCP99
0202829830999992000092612004-09370-040480FM-12+037099999V0200901N004112200019N0020001N1+02461+01581101731ADDAA199000091GF103991031011008001001001KA1240N+99999MA1999999097581MD1999999+0211REMSYN076AAXX  26124 82983 32595 30908 10246 20158 39758 40173 83100 333 20254 58021;EQDQ01  00002PRCP99Q02 +02542ATMN  
0177829830999992000092618004-09370-040480FM-12+037099999V0200901N004112200019N0020001N1+03281+01291101131ADDAA199000091GA1001+999999999GF100991001001999999001001MA1999999097031MD1999999+0141REMSYN064AAXX  26184 82983 32995 00908 10328 20129 39703 40113 333 58014;EQDQ01  00002PRCP99
0196829830999992000092700004-09370-040480FM-12+037099999V0200901N004112200019N0020001N1+02801+01351101531ADDAA199000091GA1001+999999999GF100991001001999999001001KA1240M+03361MA1999999097321MD1999999+0251REMSYN070AAXX  27004 82983 32995 00908 10280 20135 39732 40153 333 10336 58025;EQDQ01  00002PRCP99
0186829830999992000092712004-09370-040480FM-12+037099999V0200901N004110075019N0020001N1+02501+01671101761ADDAA199000091GF106991061011008001001001KA1240N+02101MA1999999097621MD1999999+0041REMSYN076AAXX  27124 82983 32595 60908 10250 20167 39762 40176 86100 333 20210 58004;EQDQ01  00002PRCP99
0167829830999992000092718004-09370-040480FM-12+037099999V0200901N005112200019N0020001N1+03061+01471101221ADDAA199000091GF104991041011008001001001MA1999999097081MD1999999+0051REMSYN070AAXX  27184 82983 32595 40910 10306 20147 39708 40122 84100 333 58005;EQDQ01  00002PRCP99
0176829830999992000092800004-09370-040480FM-12+037099999V0200901N005112200019N0020001N1+02741+01511101451ADDAA199000091GA1001+999999999GF100991001001999999001001KA1999M+03141MA1999999097301REMSYN064AAXX  28004 82983 32995 00910 10274 20151 39730 40145 333 10314;EQDQ01  00002PRCP99
0186829830999992000092812004-09370-040480FM-12+037099999V0200901N004110075019N0020001N1+02481+01651101721ADDAA199000091GF106991061011008001001001KA1240N+02121MA1999999097551MD1999999-0071REMSYN076AAXX  28124 82983 32595 60908 10248 20165 39755 40172 86100 333 20212 59007;EQDQ01  00002PRCP99
0155829830999992000092818004-09370-040480FM-12+037099999V0200901N004112200019N0020001N1+02941+01621999999ADDAA199000091GF103991999999008001999999MA1999999097081MD1999999+0001REMSYN058AAXX  28184 82983 32595 30908 10294 20162 39708 333 58000;EQDQ01  00002PRCP99
0186829830999992000092900004-09370-040480FM-12+037099999V0200901N005110075019N0020001N1+02341+01871101611ADDAA199000091GF106991061021008001001001KA1240M+03061MA1999999097431MD1999999+0131REMSYN076AAXX  29004 82983 32595 60910 10234 20187 39743 40161 86200 333 10306 58013;EQDQ01  00002PRCP99
0186829830999992000092912004-09370-040480FM-12+037099999V0200901N003110075019N0020001N1+02281+01811101841ADDAA199000091GF108991081051008001999999KA1240N+02071MA1999999097631MD1999999+0091REMSYN076AAXX  29124 82983 32595 80906 10228 20181 39763 40184 885// 333 20207 58009;EQDQ01  00002PRCP99
0167829830999992000092918004-09370-040480FM-12+037099999V0200901N004112200019N0020001N1+03061+01731101241ADDAA199000091GF104991041011008001001001MA1999999097101MD1999999+0021REMSYN070AAXX  29184 82983 32595 40908 10306 20173 39710 40124 84100 333 58002;EQDQ01  00002PRCP99
0196829830999992000093000004-09370-040480FM-12+037099999V0200901N005112200019N0020001N1+02661+01621101531ADDAA199000091GA1001+999999999GF100991001001999999001001KA1240M+03141MA1999999097351MD1999999-0081REMSYN070AAXX  30004 82983 32995 00910 10266 20162 39735 40153 333 10314 59008;EQDQ01  00002PRCP99
0186829830999992000093012004-09370-040480FM-12+037099999V0200901N004110075019N0020001N1+02481+01621101791ADDAA199000091GF106991061011008001001001KA1240N+02201MA1999999097611MD1999999-0021REMSYN076AAXX  30124 82983 32595 60908 10248 20162 39761 40179 86100 333 20220 59002;EQDQ01  00002PRCP99
0167829830999992000093018004-09370-040480FM-12+037099999V0200901N003112200019N0020001N1+03221+01391101161ADDAA199000091GF104991041011008001001001MA1999999097031MD1999999-0071REMSYN070AAXX  30184 82983 32595 40906 10322 20139 39703 40116 84100 333 59007;EQDQ01  00002PRCP99
0201829830999992000100100004-09370-040480FM-12+037099999V0200901N003110075019N0020001N1+02321+01911101561ADDAA106005191AY161061AY251061GF108991081061008001999999KA1240M+03281MA1999999097321MD1999999+0031MW1511REMSYN088AAXX  01004 82983 21595 80906 10232 20191 39732 40156 75165 886// 333 10328 58003 60051;
0173829830999992000100112004-09370-040480FM-12+037099999V0200901N004110075019N0020001N1+02401+01771101871ADDAA124005191GF107991071021008001001001KA1240N+02241MA1999999097671MD1999999+0061REMSYN082AAXX  01124 82983 22595 70908 10240 20177 39767 40187 87200 333 20224 58006 60054;
0183829830999992000100118004-09370-040480FM-12+037099999V0200901N003112200019N0020001N1+03121+01481101271ADDAA199000091GF104991999021008001001001MA1999999097131MD1999999+0101REMSYN070AAXX  01184 82983 32595 40906 10312 20148 39713 40127 83200 333 58010;EQDQ01+000032SCOTLCQ02  00002PRCP99
0186829830999992000100200004-09370-040480FM-12+037099999V0200901N003112200019N0020001N1+02841+01351101411ADDAA199000091GF101991011011008001001001KA1240M+03241MA1999999097261MD1999999-0121REMSYN076AAXX  02004 82983 32595 10906 10284 20135 39726 40141 81100 333 10324 59012;EQDQ01  00002PRCP99
0186829830999992000100212004-09370-040480FM-12+037099999V0201401N003110075019N0020001N1+02361+01691101821ADDAA199000091GF108991081051008001999999KA1240N+02311MA1999999097651MD1999999-0021REMSYN076AAXX  02124 82983 32595 81406 10236 20169 39765 40182 885// 333 20231 59002;EQDQ01  00002PRCP99
0196829830999992000100300004-09370-040480FM-12+037099999V0200901N003112200019N0020001N1+02841+01351101381ADDAA199000091GA1001+999999999GF100991001001999999001001KA1240M+03261MA1999999097231MD1999999-0031REMSYN070AAXX  03004 82983 32995 00906 10284 20135 39723 40138 333 10326 59003;EQDQ01  00002PRCP99
0186829830999992000100312004-09370-040480FM-12+037099999V0200901N005112200019N0020001N1+02581+01721101531ADDAA199000091GF102991021011008001001001KA1240N+02171MA1999999097391MD1999999-0261REMSYN076AAXX  03124 82983 32595 20910 10258 20172 39739 40153 82100 333 20217 59026;EQDQ01  00002PRCP99
0167829830999992000100318004-09370-040480FM-12+037099999V0200501N003110450019N0020001N1+03341+01351100961ADDAA199000091GF106991041021008001031001MA1999999096871MD1999999-0181REMSYN070AAXX  03184 82983 32595 60506 10334 20135 39687 40096 84230 333 59018;EQDQ01  00002PRCP99
0196829830999992000100400004-09370-040480FM-12+037099999V0200901N003112200019N0020001N1+02921+01531101231ADDAA199000091GA1001+999999999GF100991001001999999001001KA1240M+03421MA1999999097111MD1999999-0121REMSYN070AAXX  04004 82983 32595 00906 10292 20153 39711 40123 333 10342 59012;EQDQ01  00002PRCP99
0196829830999992000100412004-09370-040480FM-12+037099999V0200901N003112200019N0020001N1+02641+01691101491ADDAA199000091GA1001+999999999GF100991001001999999001001KA1240N+02251MA1999999097371MD1999999-0021REMSYN070AAXX  04124 82983 32995 00906 10264 20169 39737 40149 333 20225 59002;EQDQ01  00002PRCP99
0167829830999992000100418004-09370-040480FM-12+037099999V0200901N001510450019N0020001N1+03461+01401100791ADDAA199000091GF106991041011008001021001MA1999999096711MD1999999-0161REMSYN070AAXX  04184 82983 32595 60903 10346 20140 39671 40079 84120 333 59016;EQDQ01  00002PRCP99
0196829830999992000100500004-09370-040480FM-12+037099999V0200901N001512200019N0020001N1+03021+01301100971ADDAA199000091GA1001+999999999GF100991001001999999001001KA1240M+03521MA1999999096881MD1999999-0231REMSYN070AAXX  05004 82983 32995 00903 10302 20130 39688 40097 333 10352 59023;EQDQ01  00002PRCP99
0186829830999992000100512004-09370-040480FM-12+037099999V0201401N002610075019N0020001N1+02801+01901101371ADDAA199000091GF105991051021008001001001KA1240N+02361MA1999999097261MD1999999-0111REMSYN076AAXX  05124 82983 32595 51405 10280 20190 39726 40137 85200 333 20236 59011;EQDQ01  00002PRCP99
0167829830999992000100518004-09370-040480FM-12+037099999V0200901N002610450019N0020001N1+03501+01261100801ADDAA199000091GF105991041021008001031001MA1999999096741MD1999999+0031REMSYN070AAXX  05184 82983 32595 50905 10350 20126 39674 40080 84230 333 58003;EQDQ01  00002PRCP99
0137829830999992000100612004-09370-040480FM-12+037099999V0203601N002612200019N0100001N1+02901+01681101281ADDAA199000091GF103991999999008001999999MA1999999097181REMSYN054AAXX  06124 82983 32597 33605 10290 20168 39718 40128;EQDQ01  00002PRCP99
0167829830999992000100618004-09370-040480FM-12+037099999V0200901N001510075019N0020001N1+03541+01301100711ADDAA199000091GF105991051021008001001001MA1999999096651MD1999999-0091REMSYN070AAXX  06184 82983 32595 50903 10354 20130 39665 40071 85200 333 59009;EQDQ01  00002PRCP99
0186829830999992000100700004-09370-040480FM-12+037099999V0201401N001512200019N0020001N1+03101+01461100931ADDAA199000091GF103991031011008001001001KA1240M+03641MA1999999096871MD1999999+0051REMSYN076AAXX  07004 82983 32595 31403 10310 20146 39687 40093 83100 333 10364 58005;EQDQ01  00002PRCP99
0196829830999992000100712004-09370-040480FM-12+037099999V0201401N004112200019N0020001N1+02801+01771101421ADDAA199000091GA1001+999999999GF100991001001999999001001KA1240N+02401MA1999999097321MD1999999+0141REMSYN070AAXX  07124 82983 32995 01408 10280 20177 39732 40142 333 20240 58014;EQDQ01  00002PRCP99
0167829830999992000100718004-09370-040480FM-12+037099999V0200901N003112200019N0020001N1+03461+01231100891ADDAA199000091GF101991011011008001001001MA1999999096831MD1999999+0181REMSYN070AAXX  07184 82983 32595 10906 10346 20123 39683 40089 81100 333 58018;EQDQ01  00002PRCP99
0186829830999992000100812004-09370-040480FM-12+037099999V0200901N004112200019N0020001N1+02581+01641101671ADDAA199000091GF105991041011008001001011KA1240N+02321MA1999999097551MD1999999+0231REMSYN076AAXX  08124 82983 32595 50908 10258 20164 39755 40167 84101 333 20232 58023;EQDQ01  00002PRCP99
0167829830999992000100818004-09370-040480FM-12+037099999V0200501N003112200019N0020001N1+03301+01211101061ADDAA199000091GF103991031011008001001001MA1999999096961MD1999999+0131REMSYN070AAXX  08184 82983 32595 30506 10330 20121 39696 40106 83100 333 58013;EQDQ01  00002PRCP99
0186829830999992000100912004-09370-040480FM-12+037099999V0200901N004110075019N0020001N1+02441+01531101781ADDAA199000091GF106991061011008001001001KA1240N+02181MA1999999097631MD1999999+0081REMSYN076AAXX  09124 82983 32595 60908 10244 20153 39763 40178 86100 333 20218 58008;EQDQ01  00002PRCP99
0196829830999992000101000004-09370-040480FM-12+037099999V0200901N004112200019N0020001N1+02841+01501101461ADDAA199000091GA1001+999999999GF100991001001999999001001KA1240M+03341MA1999999097321MD1999999+0151REMSYN070AAXX  10004 82983 32995 00908 10284 20150 39732 40146 333 10334 58015;EQDQ01  00002PRCP99
0186829830999992000101012004-09370-040480FM-12+037099999V0200901N004110075019N0020001N1+02461+01521101601ADDAA199000091GF105991051011008001001001KA1240N+02161MA1999999097451MD1999999-0181REMSYN076AAXX  10124 82983 32595 50908 10246 20152 39745 40160 85100 333 20216 59018;EQDQ01  00002PRCP99
0167829830999992000101018004-09370-040480FM-12+037099999V0200901N004112200019N0020001N1+03261+01331101021ADDAA199000091GF102991021011008001001001MA1999999096901MD1999999-0201REMSYN070AAXX  10184 82983 32595 20908 10326 20133 39690 40102 82100 333 59020;EQDQ01  00002PRCP99
0196829830999992000101100004-09370-040480FM-12+037099999V0200901N005112200019N0020001N1+02801+01431101421ADDAA199000091GA1001+999999999GF100991001001999999001001KA1240M+03321MA1999999097281MD1999999-0041REMSYN070AAXX  11004 82983 32995 00910 10280 20143 39728 40142 333 10332 59004;EQDQ01  00002PRCP99
0186829830999992000101112004-09370-040480FM-12+037099999V0200901N004110075019N0020001N1+02541+01651101741ADDAA199000091GF105991051011008001001001KA1240N+02221MA1999999097581MD1999999+0131REMSYN076AAXX  11124 82983 32595 50908 10254 20165 39758 40174 85100 333 20222 58013;EQDQ01  00002PRCP99
0167829830999992000101118004-09370-040480FM-12+037099999V0200901N004110075019N0020001N1+03241+01361101101ADDAA199000091GF105991051011008001001001MA1999999096981MD1999999+0081REMSYN070AAXX  11184 82983 32595 50908 10324 20136 39698 40110 85100 333 58008;EQDQ01  00002PRCP99
0196829830999992000101200004-09370-040480FM-12+037099999V0201401N003112200019N0020001N1+02761+01431101341ADDAA199000091GA1001+999999999GF100991001001999999001001KA1240M+03301MA1999999097201MD1999999-0081REMSYN070AAXX  12004 82983 32995 01406 10276 20143 39720 40134 333 10330 59008;EQDQ01  00002PRCP99
0186829830999992000101212004-09370-040480FM-12+037099999V0200901N005110075019N0020001N1+02601+01761101651ADDAA199000091GF106991061011008001001001KA1240N+02281MA1999999097511MD1999999-0071REMSYN076AAXX  12124 82983 32595 60910 10260 20176 39751 40165 86100 333 20228 59007;EQDQ01  00002PRCP99
0167829830999992000101218004-09370-040480FM-12+037099999V0200901N004110075019N0020001N1+03301+01361101111ADDAA199000091GF106991061011008001001001MA1999999096991MD1999999+0011REMSYN070AAXX  12184 82983 32595 60908 10330 20136 39699 40111 86100 333 58001;EQDQ01  00002PRCP99
0186829830999992000101300004-09370-040480FM-12+037099999V0200901N003112200019N0020001N1+02901+01401101381ADDAA199000091GF102991021011008001001001KA1240M+03361MA1999999097261MD1999999+0061REMSYN076AAXX  13004 82983 32595 20906 10290 20140 39726 40138 82100 333 10336 58006;EQDQ01  00002PRCP99
0186829830999992000101312004-09370-040480FM-12+037099999V0200901N004110075019N0020001N1+02521+01891101851ADDAA199000091GF106991061011008001001001KA1240N+02301MA1999999097701MD1999999+0191REMSYN076AAXX  13124 82983 32595 60908 10252 20189 39770 40185 86100 333 20230 58019;EQDQ01  00002PRCP99
0177829830999992000101318004-09370-040480FM-12+037099999V0200901N004112200019N0020001N1+03341+01191101141ADDAA199000091GA1001+999999999GF100991001001999999001001MA1999999097041MD1999999+0051REMSYN064AAXX  13184 82983 32995 00908 10334 20119 39704 40114 333 58005;EQDQ01  00002PRCP99
0196829830999992000101400004-09370-040480FM-12+037099999V0200901N003112200019N0020001N1+02921+01221101431ADDAA199000091GA1001+999999999GF100991001001999999001001KA1240M+03401MA1999999097291MD1999999+0031REMSYN070AAXX  14004 82983 32995 00906 10292 20122 39729 40143 333 10340 58003;EQDQ01  00002PRCP99
0186829830999992000101412004-09370-040480FM-12+037099999V0201401N003112200019N0020001N1+02501+01621101751ADDAA199000091GF102991021011008001001001KA1240N+02001MA1999999097601MD1999999-0101REMSYN076AAXX  14124 82983 32595 21406 10250 20162 39760 40175 82100 333 20200 59010;EQDQ01  00002PRCP99
0167829830999992000101418004-09370-040480FM-12+037099999V0200901N004110075019N0020001N1+03241+01411101241ADDAA199000091GF105991051021008001001001MA1999999097111MD1999999+0071REMSYN070AAXX  14184 82983 32595 50908 10324 20141 39711 40124 85200 333 58007;EQDQ01  00002PRCP99
0196829830999992000101500004-09370-040480FM-12+037099999V0200901N004112200019N0020001N1+02621+01761101541ADDAA199000091GA1001+999999999GF100991001001999999001001KA1240M+03301MA1999999097381MD1999999+0091REMSYN070AAXX  15004 82983 32995 00908 10262 20176 39738 40154 333 10330 58009;EQDQ01  00002PRCP99
0186829830999992000101512004-09370-040480FM-12+037099999V0201401N004110075019N0020001N1+02501+01531101731ADDAA199000091GF106991061021008001001001KA1240N+02131MA1999999097551MD1999999-0051REMSYN076AAXX  15124 82983 32595 61408 10250 20153 39755 40173 86200 333 20213 59005;EQDQ01  00002PRCP99
0177829830999992000101518004-09370-040480FM-12+037099999V0200501N003112200019N0020001N1+03281+01131101101ADDAA199000091GA1001+999999999GF100991001001999999001001MA1999999096981MD1999999-0121REMSYN064AAXX  15184 82983 32995 00506 10328 20113 39698 40110 333 59012;EQDQ01  00002PRCP99
0196829830999992000101600004-09370-040480FM-12+037099999V0200901N001512200019N0020001N1+02881+01351101311ADDAA199000091GA1001+999999999GF100991001001999999001001KA1240M+03321MA1999999097171MD1999999-0211REMSYN070AAXX  16004 82983 32995 00903 10288 20135 39717 40131 333 10332 59021;EQDQ01  00002PRCP99
0186829830999992000101612004-09370-040480FM-12+037099999V0201401N004110075019N0020001N1+02621+01701101751ADDAA199000091GF106991061021008001001001KA1240N+02291MA1999999097611MD1999999+0061REMSYN076AAXX  16124 82983 32595 61408 10262 20170 39761 40175 86200 333 20229 58006;EQDQ01  00002PRCP99
0167829830999992000101618004-09370-040480FM-12+037099999V0200901N003110075019N0020001N1+03301+01311101191ADDAA199000091GF105991051021008001001001MA1999999097091MD1999999+0111REMSYN070AAXX  16184 82983 32595 50906 10330 20131 39709 40119 85200 333 58011;EQDQ01  00002PRCP99
0186829830999992000101700004-09370-040480FM-12+037099999V0200901N004112200019N0020001N1+03001+01681101351ADDAA199000091GF102991021011008001001001KA1240M+03401MA1999999097241MD1999999+0071REMSYN076AAXX  17004 82983 32595 20908 10300 20168 39724 40135 82100 333 10340 58007;EQDQ01  00002PRCP99
0186829830999992000101712004-09370-040480FM-12+037099999V0201401N005110075019N0020001N1+02421+01651101821ADDAA199000091GF108991081051008001999999KA1240N+02161MA1999999097671MD1999999+0061REMSYN076AAXX  17124 82983 32595 81410 10242 20165 39767 40182 885// 333 20216 58006;EQDQ01  00002PRCP99
0177829830999992000101718004-09370-040480FM-12+037099999V0200901N004112200019N0020001N1+03361+01201101241ADDAA199000091GA1001+999999999GF100991001001999999001001MA1999999097141MD1999999+0051REMSYN064AAXX  17184 82983 32995 00908 10336 20120 39714 40124 333 58005;EQDQ01  00002PRCP99
0196829830999992000101800004-09370-040480FM-12+037099999V0200901N004112200019N0020001N1+02971+01211101481ADDAA199000091GA1001+999999999GF100991001001999999001001KA1240M+03411MA1999999097341MD1999999+0101REMSYN070AAXX  18004 82983 32995 00908 10297 20121 39734 40148 333 10341 58010;EQDQ01  00002PRCP99
0186829830999992000101812004-09370-040480FM-12+037099999V0200901N005112200019N0020001N1+02601+01681101821ADDAA199000091GF104991031011008001001011KA1240N+02191MA1999999097701MD1999999+0031REMSYN076AAXX  18124 82983 32595 40910 10260 20168 39770 40182 83101 333 20219 58003;EQDQ01  00002PRCP99
0167829830999992000101818004-09370-040480FM-12+037099999V0200901N005110075019N0020001N1+03401+01451101231ADDAA199000091GF105991051011008001001001MA1999999097131MD1999999-0011REMSYN070AAXX  18184 82983 32595 50910 10340 20145 39713 40123 85100 333 59001;EQDQ01  00002PRCP99
0196829830999992000101900004-09370-040480FM-12+037099999V0200901N004112200019N0020001N1+02921+02221101461ADDAA199000091GA1001+999999999GF100991001001999999001001KA1240M+03501MA1999999097341MD1999999+0001REMSYN070AAXX  19004 82983 32995 00908 10292 20222 39734 40146 333 10350 58000;EQDQ01  00002PRCP99
0186829830999992000101912004-09370-040480FM-12+037099999V0200901N004112200019N0020001N1+02481+01491101721ADDAA199000091GF104991041011008001001001KA1240N+02101MA1999999097571MD1999999-0131REMSYN076AAXX  19124 82983 32595 40908 10248 20149 39757 40172 84100 333 20210 59013;EQDQ01  00002PRCP99
0177829830999992000101918004-09370-040480FM-12+037099999V0200901N003112200019N0020001N1+03341+00741101071ADDAA199000091GA1001+999999999GF100991001001999999001001MA1999999096951MD1999999-0181REMSYN064AAXX  19184 82983 32995 00906 10334 20074 39695 40107 333 59018;EQDQ01  00002PRCP99
0196829830999992000102000004-09370-040480FM-12+037099999V0200901N003112200019N0020001N1+02881+00901101261ADDAA199000091GA1001+999999999GF100991001001999999001001KA1240M+03421MA1999999097131MD1999999-0211REMSYN070AAXX  20004 82983 32995 00906 10288 20090 39713 40126 333 10342 59021;EQDQ01  00002PRCP99
0186829830999992000102012004-09370-040480FM-12+037099999V0200901N003112200019N0020001N1+02481+01561101601ADDAA199000091GF104991041011008001001001KA1240N+02141MA1999999097421MD1999999-0151REMSYN076AAXX  20124 82983 32595 40906 10248 20156 39742 40160 84100 333 20214 59015;EQDQ01  00002PRCP99
0167829830999992000102018004-09370-040480FM-12+037099999V0200901N002612200019N0020001N1+03321+01221100941ADDAA199000091GF101991011011008001001001MA1999999096841MD1999999-0111REMSYN070AAXX  20184 82983 32595 10905 10332 20122 39684 40094 81100 333 59011;EQDQ01  00002PRCP99
0196829830999992000102100004-09370-040480FM-12+037099999V0200901N002612200019N0020001N1+02961+01161101091ADDAA199000091GA1001+999999999GF100991001001999999001001KA1240M+03441MA1999999096961MD1999999-0171REMSYN070AAXX  21004 82983 32995 00905 10296 20116 39696 40109 333 10344 59017;EQDQ01  00002PRCP99
0196829830999992000102112004-09370-040480FM-12+037099999V0200901N003112200019N0020001N1+02601+01651101341ADDAA199000091GA1001+999999999GF100991001001999999001001KA1240N+02241MA1999999097231MD1999999-0191REMSYN070AAXX  21124 82983 32995 00906 10260 20165 39723 40134 333 20224 59019;EQDQ01  00002PRCP99
0167829830999992000102118004-09370-040480FM-12+037099999V0200501N002612200019N0020001N1+03461+01401100711ADDAA199000091GF102991021011008001001001MA1999999096631MD1999999-0211REMSYN070AAXX  21184 82983 32595 20505 10346 20140 39663 40071 82100 333 59021;EQDQ01  00002PRCP99
0196829830999992000102200004-09370-040480FM-12+037099999V0200901N003112200019N0020001N1+03061+01151100931ADDAA199000091GA1001+999999999GF100991001001999999001001KA1240M+03501MA1999999096841MD1999999-0121REMSYN070AAXX  22004 82983 32995 00906 10306 20115 39684 40093 333 10350 59012;EQDQ01  00002PRCP99
0186829830999992000102212004-09370-040480FM-12+037099999V0200901N004110075019N0020001N1+02721+01791101301ADDAA199000091GF106991061011008001001001KA1240N+02321MA1999999097191MD1999999-0041REMSYN076AAXX  22124 82983 32595 60908 10272 20179 39719 40130 86100 333 20232 59004;EQDQ01  00002PRCP99
0167829830999992000102218004-09370-040480FM-12+037099999V0200501N003110075019N0020001N1+03481+01571100691ADDAA199000091GF105991051011008001001001MA1999999096631MD1999999+0001REMSYN070AAXX  22184 82983 32595 50506 10348 20157 39663 40069 85100 333 58000;EQDQ01  00002PRCP99
0196829830999992000102300004-09370-040480FM-12+037099999V0200901N003112200019N0020001N1+03041+01371100981ADDAA199000091GA1001+999999999GF100991001001999999001001KA1240M+03541MA1999999096891MD1999999+0051REMSYN070AAXX  23004 82983 32995 00906 10304 20137 39689 40098 333 10354 58005;EQDQ01  00002PRCP99
0186829830999992000102312004-09370-040480FM-12+037099999V0200901N003111050019N0020001N1+02661+01791101411ADDAA199000091GF105991021011008001011011KA1240N+02321MA1999999097301MD1999999+0111REMSYN076AAXX  23124 82983 32595 50906 10266 20179 39730 40141 82111 333 20232 58011;EQDQ01  00002PRCP99
0167829830999992000102318004-09370-040480FM-12+037099999V0200901N003110450019N0020001N1+03441+01241100851ADDAA199000091GF106991031011008001021001MA1999999096771MD1999999+0141REMSYN070AAXX  23184 82983 32595 60906 10344 20124 39677 40085 83120 333 58014;EQDQ01  00002PRCP99
0196829830999992000102400004-09370-040480FM-12+037099999V0200901N003112200019N0020001N1+02901+01321101051ADDAA199000091GA1001+999999999GF100991001001999999001001KA1240M+03461MA1999999096951MD1999999+0061REMSYN070AAXX  24004 82983 32995 00906 10290 20132 39695 40105 333 10346 58006;EQDQ01  00002PRCP99
0186829830999992000102412004-09370-040480FM-12+037099999V0200901N003110450019N0020001N1+02741+01671101381ADDAA199000091GF106991011011008001021011KA1240N+02441MA1999999097271MD1999999-0031REMSYN076AAXX  24124 82983 32595 60906 10274 20167 39727 40138 81121 333 20244 59003;EQDQ01  00002PRCP99
0183829830999992000102418004-09370-040480FM-12+037099999V0200901N003110075019N0200001N1+03141+01621100931ADDAA199000091GF108991999011008001001001MA1999999096841MD1999999+0071REMSYN070AAXX  24184 82983 32598 80906 10314 20162 39684 40093 85100 333 58007;EQDQ01+000052SCOTLCQ02  00002PRCP99
0196829830999992000102500004-09370-040480FM-12+037099999V0201401N003112200019N0020001N1+02881+01501101021ADDAA199000091GA1001+999999999GF100991001001999999001001KA1240M+03241MA1999999096931MD1999999-0021REMSYN070AAXX  25004 82983 32995 01406 10288 20150 39693 40102 333 10324 59002;EQDQ01  00002PRCP99
0186829830999992000102512004-09370-040480FM-12+037099999V0201401N003110075019N0020001N1+02501+01641101421ADDAA199000091GF108991081051008001999999KA1240N+02221MA1999999097281MD1999999+0011REMSYN076AAXX  25124 82983 32595 81406 10250 20164 39728 40142 885// 333 20222 58001;EQDQ01  00002PRCP99
0167829830999992000102518004-09370-040480FM-12+037099999V0200901N003110075019N0020001N1+03221+01341100871ADDAA199000091GF106991061011008001001001MA1999999096771MD1999999-0071REMSYN070AAXX  25184 82983 32595 60906 10322 20134 39677 40087 86100 333 59007;EQDQ01  00002PRCP99
0196829830999992000102600004-09370-040480FM-12+037099999V0200501N004112200019N0020001N1+02901+01441101041ADDAA199000091GA1001+999999999GF100991001001999999001001KA1240M+03301MA1999999096921MD1999999-0011REMSYN070AAXX  26004 82983 32995 00508 10290 20144 39692 40104 333 10330 59001;EQDQ01  00002PRCP99
0186829830999992000102612004-09370-040480FM-12+037099999V0201401N005110075019N0020001N1+02581+01721101411ADDAA199000091GF106991061021008001001001KA1240N+02221MA1999999097261MD1999999-0021REMSYN076AAXX  26124 82983 32595 61410 10258 20172 39726 40141 86200 333 20222 59002;EQDQ01  00002PRCP99
0196829830999992000102700004-09370-040480FM-12+037099999V0200901N002612200019N0020001N1+02701+01511101211ADDAA199000091GA1001+999999999GF100991001001999999001001KA1240M+03301MA1999999097071MD1999999+0151REMSYN070AAXX  27004 82983 32995 00905 10270 20151 39707 40121 333 10330 58015;EQDQ01  00002PRCP99
0186829830999992000102712004-09370-040480FM-12+037099999V0200901N004112200019N0020001N1+02621+01531101501ADDAA199000091GF102991021011008001001001KA1240N+02211MA1999999097351MD1999999+0091REMSYN076AAXX  27124 82983 32595 20908 10262 20153 39735 40150 82100 333 20221 58009;EQDQ01  00002PRCP99
0167829830999992000102718004-09370-040480FM-12+037099999V0200501N001510075019N0020001N1+03281+01291100931ADDAA199000091GF106991061021008001001001MA1999999096831MD1999999+0031REMSYN070AAXX  27184 82983 32595 60503 10328 20129 39683 40093 86200 333 58003;EQDQ01  00002PRCP99
0196829830999992000102800004-09370-040480FM-12+037099999V0200901N002612200019N0020001N1+03001+01371101091ADDAA199000091GA1001+999999999GF100991001001999999001001KA1240M+03341MA1999999096991MD1999999-0081REMSYN070AAXX  28004 82983 32995 00905 10300 20137 39699 40109 333 10334 59008;EQDQ01  00002PRCP99
0186829830999992000102812004-09370-040480FM-12+037099999V0200901N004112200019N0020001N1+02801+01781101321ADDAA199000091GF102991021011008001001001KA1240N+02331MA1999999097211MD1999999-0141REMSYN076AAXX  28124 82983 32595 20908 10280 20178 39721 40132 82100 333 20233 59014;EQDQ01  00002PRCP99
0167829830999992000102818004-09370-040480FM-12+037099999V0200501N003110075019N0020001N1+03501+01481100791ADDAA199000091GF105991051021008001001001MA1999999096721MD1999999-0111REMSYN070AAXX  28184 82983 32595 50506 10350 20148 39672 40079 85200 333 59011;EQDQ01  00002PRCP99
0186829830999992000102900004-09370-040480FM-12+037099999V0200901N003112200019N0020001N1+03101+01461101071ADDAA199000091GF104991041021008001001001KA1240M+03601MA1999999096991MD1999999+0001REMSYN076AAXX  29004 82983 32595 40906 10310 20146 39699 40107 84200 333 10360 58000;EQDQ01  00002PRCP99
0186829830999992000102912004-09370-040480FM-12+037099999V0200901N003112200019N0020001N1+02961+01901101251ADDAA199000091GF102991021071008001001001KA1240N+02571MA1999999097171MD1999999-0041REMSYN076AAXX  29124 82983 32595 20906 10296 20190 39717 40125 82700 333 20257 59004;EQDQ01  00002PRCP99
0167829830999992000102918004-09370-040480FM-12+037099999V0203601N004110075019N0020001N1+03621+01591100601ADDAA199000091GF105991051021008001001001MA1999999096561MD1999999-0141REMSYN070AAXX  29184 82983 32595 53608 10362 20159 39656 40060 85200 333 59014;EQDQ01  00002PRCP99
0201829830999992000103000004-09370-040480FM-12+037099999V0200901N004110075019N0020001N1+02701+01911101111ADDAA124002091AY161061AY211061GF108991081051008001999999KA1240M+03701MA1999999097011MD1999999+0021MW1031REMSYN088AAXX  30004 82983 21595 80908 10270 20191 39701 40111 70361 885// 333 10370 58002 60024;
0173829830999992000103012004-09370-040480FM-12+037099999V0201401N005110075019N0020001N1+02681+01991101461ADDAA124002091GF108991081051008001999999KA1240N+02461MA1999999097321MD1999999+0151REMSYN082AAXX  30124 82983 22595 81410 10268 20199 39732 40146 885// 333 20246 58015 60024;
0167829830999992000103018004-09370-040480FM-12+037099999V0200901N004110075019N0020001N1+03201+01751101071ADDAA199000091GF105991051021008001001001MA1999999096871MD1999999-0311REMSYN070AAXX  30184 82983 32595 50908 10320 20175 39687 40107 85200 333 59031;EQDQ01  00002PRCP99
0186829830999992000103112004-09370-040480FM-12+037099999V0201401N004110075019N0020001N1+02601+01871101381ADDAA199000091GF107991071021008001001001KA1240N+02441MA1999999097241MD1999999-0051REMSYN076AAXX  31124 82983 32595 71408 10260 20187 39724 40138 87200 333 20244 59005;EQDQ01  00002PRCP99
0167829830999992000103118004-09370-040480FM-12+037099999V0200901N004110075019N0020001N1+03301+01641100861ADDAA199000091GF105991051021008001001001MA1999999096771MD1999999-0101REMSYN070AAXX  31184 82983 32595 50908 10330 20164 39677 40086 85200 333 59010;EQDQ01  00002PRCP99
0186829830999992000110100004-09370-040480FM-12+037099999V0200901N003110075019N0020001N1+03001+01571101021ADDAA199000091GF105991051021008001001001KA1240M+03401MA1999999096931MD1999999-0021REMSYN076AAXX  01004 82983 32595 50906 10300 20157 39693 40102 85200 333 10340 59002;EQDQ01  00002PRCP99
0186829830999992000110112004-09370-040480FM-12+037099999V0200901N003112200019N0020001N1+02661+01681101291ADDAA199000091GF104991041011008001001001KA1240N+02221MA1999999097181MD1999999-0091REMSYN076AAXX  01124 82983 32595 40906 10266 20168 39718 40129 84100 333 20222 59009;EQDQ01  00002PRCP99
0167829830999992000110118004-09370-040480FM-12+037099999V0200901N003112200019N0020001N1+03341+01451100711ADDAA199000091GF102991021011008001001001MA1999999096631MD1999999-0141REMSYN070AAXX  01184 82983 32595 20906 10334 20145 39663 40071 82100 333 59014;EQDQ01  00002PRCP99
0186829830999992000110200004-09370-040480FM-12+037099999V0200901N002612200019N0020001N1+03061+01321100811ADDAA199000091GF102991021011008001001001KA1240M+03461MA1999999096731MD1999999-0201REMSYN076AAXX  02004 82983 32595 20905 10306 20132 39673 40081 82100 333 10346 59020;EQDQ01  00002PRCP99
0186829830999992000110212004-09370-040480FM-12+037099999V0200901N003110075019N0020001N1+02601+01921101241ADDAA199000091GF108991081051008001999999KA1240N+02491MA1999999097141MD1999999-0041REMSYN076AAXX  02124 82983 32595 80906 10260 20192 39714 40124 885// 333 20249 59004;EQDQ01  00002PRCP99
0140829830999992000110218004-09370-040480FM-12+037099999V0200901N002610450019N0020001N1+03661+99999100741ADDAA199000091GF107991041021008001031001MD1999999+0021REMSYN058AAXX  02184 82983 32595 70905 10366 40074 84230 333 58002;EQDQ01  00002PRCP99
0196829830999992000110300004-09370-040480FM-12+037099999V0200901N001512200019N0020001N1+03001+01681100811ADDAA199000091GA1001+999999999GF100991001001999999001001KA1240M+03301MA1999999096731MD1999999+0001REMSYN070AAXX  03004 82983 32995 00903 10300 20168 39673 40081 333 10330 58000;EQDQ01  00002PRCP99
0186829830999992000110312004-09370-040480FM-12+037099999V0200901N004111050019N0020001N1+02641+01801101081ADDAA199000091GF108991041011008001001021KA1240N+02481MA1999999096981MD1999999-0161REMSYN076AAXX  03124 82983 32595 80908 10264 20180 39698 40108 84102 333 20248 59016;EQDQ01  00002PRCP99
0167829830999992000110318004-09370-040480FM-12+037099999V0200901N002610075019N0020001N1+03261+01721100451ADDAA199000091GF105991051011008001001001MA1999999096391MD1999999-0161REMSYN070AAXX  03184 82983 32595 50905 10326 20172 39639 40045 85100 333 59016;EQDQ01  00002PRCP99
0186829830999992000110400004-09370-040480FM-12+037099999V0200901N002610075019N0020001N1+03101+01661100701ADDAA199000091GF105991051011008001001001KA1240M+03401MA1999999096621MD1999999-0111REMSYN076AAXX  04004 82983 32595 50905 10310 20166 39662 40070 85100 333 10340 59011;EQDQ01  00002PRCP99
0186829830999992000110412004-09370-040480FM-12+037099999V0200901N004110075019N0020001N1+02801+01871100861ADDAA199000091GF108991081051008001999999KA1240N+02541MA1999999096781MD1999999-0201REMSYN076AAXX  04124 82983 32595 80908 10280 20187 39678 40086 885// 333 20254 59020;EQDQ01  00002PRCP99
0186829830999992000110500004-09370-040480FM-12+037099999V0201801N001510075019N0020001N1+02461+02131100911ADDAA199000091GF105991051021008001001001KA1240M+03401MA1999999096781MD1999999+0161REMSYN076AAXX  05004 82983 32595 51803 10246 20213 39678 40091 85200 333 10340 58016;EQDQ01  00002PRCP99
0201829830999992000110512004-09370-040480FM-12+037099999V0203601N001510120019N0020001N1+02281+02141101211ADDAA124016091AY151061AY251061GF108991081081008001999999KA1240N+02221MA1999999097031MD1999999+0251MW1501REMSYN088AAXX  05124 82983 21595 83603 10228 20214 39703 40121 75055 888// 333 20222 58025 60164;
0182829830999992000110518004-09370-040480FM-12+037099999V0209999C000010120019N0020001N1+02581+02061100851ADDAA106001091AY151061AY251061GF108991081081008001999999MA1999999096701MD1999999+0431MW1031REMSYN082AAXX  05184 82983 21595 80000 10258 20206 39670 40085 70355 888// 333 58043 60011;
0167829830999992000110600004-09370-040480FM-12+037099999V0201401N001510075019N0020001N1+02401+02091100981ADDAA199000021GF106991061061008001001001KA1240M+02661MA1999999096811MD1999999+0031REMSYN076AAXX  06004 82983 32595 61403 10240 20209 39681 40098 86600 333 10266 58003;
0167829830999992000110618004-09370-040480FM-12+037099999V0203201N001512200019N0020001N1+03301+01801100561ADDAA199000091GF104991041021008001001001MA1999999096491MD1999999-0211REMSYN070AAXX  06184 82983 32595 43203 10330 20180 39649 40056 84200 333 59021;EQDQ01  00002PRCP99
0196829830999992000110700004-09370-040480FM-12+037099999V0200901N001512200019N0020001N1+02901+02121100631ADDAA199000091GA1001+999999999GF100991001001999999001001KA1240M+03421MA1999999096541MD1999999-0271REMSYN070AAXX  07004 82983 32995 00903 10290 20212 39654 40063 333 10342 59027;EQDQ01  00002PRCP99
0186829830999992000110712004-09370-040480FM-12+037099999V0203601N001512200019N0020001N1+02981+01951100811ADDAA199000091GF101991011011008001001001KA1240N+02541MA1999999096741MD1999999-0151REMSYN076AAXX  07124 82983 32595 13603 10298 20195 39674 40081 81100 333 20254 59015;EQDQ01  00002PRCP99
0167829830999992000110718004-09370-040480FM-12+037099999V0203601N001512200019N0020001N1+03441+01821100251ADDAA199000091GF103991021011008001011021MA1999999096211MD1999999-0281REMSYN070AAXX  07184 82983 32595 33603 10344 20182 39621 40025 82112 333 59028;EQDQ01  00002PRCP99
0186829830999992000110800004-09370-040480FM-12+037099999V0209999C000010075019N0020001N1+03141+02071100261ADDAA199000091GF106991061011008001021001KA1240M+03541MA1999999096351MD1999999-0191REMSYN076AAXX  08004 82983 32595 60000 10314 20207 39635 40026 86120 333 10354 59019;EQDQ01  00002PRCP99
0201829830999992000110812004-09370-040480FM-12+037099999V0200901N002610075019N0020001N1+02261+02121100901ADDAA124016091AY161061AY251061GF108991081061008001999999KA1240N+02241MA1999999096781MD1999999+0041MW1511REMSYN088AAXX  08124 82983 21595 80905 10226 20212 39678 40090 75165 886// 333 20224 58004 60164;
0167829830999992000110818004-09370-040480FM-12+037099999V0200501N002619999999N0020001N1+02761+02071100491ADDAA199000021GF108991999021008001001001MA1999999096371MD1999999+0161REMSYN070AAXX  08184 82983 32595 80505 10276 20207 39637 40049 83200 333 58016;EQDQ01+000032SCOTLC
0201829830999992000110912004-09370-040480FM-12+037099999V0200901N002610075019N0020001N1+02161+02081100921ADDAA124049091AY161061AY251061GF108991081051008001999999KA1240N+02101MA1999999096761MD1999999-0021MW1511REMSYN088AAXX  09124 82983 21595 80905 10216 20208 39676 40092 75165 885// 333 20210 59002 60494;
0182829830999992000110918004-09370-040480FM-12+037099999V0201801N003110075019N0020001N1+02161+02041100671ADDAA106019191AY161061AY251061GF108991081051008001999999MA1999999096571MD1999999+0201MW1531REMSYN082AAXX  09184 82983 21595 81806 10216 20204 39657 40067 75365 885// 333 58020 60191;
0201829830999992000111000004-09370-040480FM-12+037099999V0209999C000010120019N0020001N1+02241+02121100881ADDAA106006191AY161061AY251061GF108991081081008001999999KA1240M+02661MA1999999096701MD1999999+0211MW1021REMSYN088AAXX  10004 82983 21595 80000 10224 20212 39670 40088 70265 888// 333 10266 58021 60061;
0195829830999992000111012004-09370-040480FM-12+037099999V0203601N001519999999N0020001N1+02241+02121101161ADDAA124024991AY161061AY261061GF108991999999008001999999KA1240N+02131MA1999999096971MD1999999+0211MW1611REMSYN082AAXX  10124 82983 21595 83603 10224 20212 39697 40116 76166 333 20213 58021 60254;
0201829830999992000111018004-09370-040480FM-12+037099999V0200501N002619999999N0020001N1+02761+02081100681ADDAA106006191AY161061AY261061GF107991999021008001001001MA1999999096541MD1999999-0061MW1031REMSYN082AAXX  10184 82983 21595 70505 10276 20208 39654 40068 70366 84200 333 59006 60061;EQDQ01+000042SCOTLC
0167829830999992000111100004-09370-040480FM-12+037099999V0200501N001019999999N0020001N1+02581+02081100881ADDAA199000021GF106991061001008001051001KA1240M+02841MA1999999096731MD1999999+0031REMSYN076AAXX  11004 82983 32595 60502 10258 20208 39673 40088 86050 333 10284 58003;
0173829830999992000111112004-09370-040480FM-12+037099999V0200901N003110075019N0020001N1+02701+02131100961ADDAA124006191GF105991051011008001001001KA1240N+02341MA1999999096831MD1999999-0141REMSYN082AAXX  11124 82983 22595 50906 10270 20213 39683 40096 85100 333 20234 59014 60064;
0167829830999992000111118004-09370-040480FM-12+037099999V0202301N003110450019N0020001N1+02741+02211100541ADDAA199000091GF107991041011008001021001MA1999999096411MD1999999-0141REMSYN070AAXX  11184 82983 32595 72306 10274 20221 39641 40054 84120 333 59014;EQDQ01  00002PRCP99
0201829830999992000111200004-09370-040480FM-12+037099999V0209999C000010450019N0020001N1+02341+02151101021ADDAA106007191AY151061AY211061GF108991021011008001021999KA1240M+03261MA1999999096871MD1999999+0141MW1651REMSYN088AAXX  12004 82983 21595 80000 10234 20215 39687 40102 76551 8212/ 333 10326 58014 60071;
0201829830999992000111212004-09370-040480FM-12+037099999V0201401N001510075019N0020001N1+02441+02151101051ADDAA124011991AY161061AY261061GF108991081051008001999999KA1240N+02191MA1999999096891MD1999999+0061MW1031REMSYN088AAXX  12124 82983 21595 81403 10244 20215 39689 40105 70366 885// 333 20219 58006 60124;
0167829830999992000111218004-09370-040480FM-12+037099999V0202301N001510450019N0020001N1+03201+01891100591ADDAA199000091GF106991041021008001031001MA1999999096491MD1999999+0081REMSYN070AAXX  12184 82983 32595 62303 10320 20189 39649 40059 84230 333 58008;EQDQ01  00002PRCP99
0186829830999992000111300004-09370-040480FM-12+037099999V0209999C000012200019N0020001N1+02801+02361100741ADDAA199000091GF104991041021008001001001KA1240M+03251MA1999999096621MD1999999-0251REMSYN076AAXX  13004 82983 32595 40000 10280 20236 39662 40074 84200 333 10325 59025;EQDQ01  00002PRCP99
0220829830999992000111312004-09370-040480FM-12+037099999V0202301N001510075019N0100001N1+02441+02091101121ADDAA124000591AY151061AY251061GF108991999011008001021999KA1240N+02301MA1999999096981MD1999999+0091MW1031REMSYN088AAXX  13124 82983 21597 82303 10244 20209 39698 40112 70355 8812/ 333 20230 58009 69944;EQDQ01+000082SCOTLC
0183829830999992000111318004-09370-040480FM-12+037099999V0201801N002619999999N0200001N1+03061+02191100551ADDAA199000091GF105991999021008001001001MA1999999096481MD1999999-0011REMSYN070AAXX  13184 82983 32598 51805 10306 20219 39648 40055 83200 333 59001;EQDQ01+000032SCOTLCQ02  00002PRCP99
0186829830999992000111400004-09370-040480FM-12+037099999V0200901N003112200019N0020001N1+02701+02111100851ADDAA199000091GF103991031021008001001001KA1240M+03201MA1999999096721MD1999999+0101REMSYN076AAXX  14004 82983 32595 30906 10270 20211 39672 40085 83200 333 10320 58010;EQDQ01  00002PRCP99
0186829830999992000111412004-09370-040480FM-12+037099999V0200901N003110075019N0020001N1+02721+02151101011ADDAA199000091GF106991061011008001001001KA1240N+02321MA1999999096891MD1999999-0091REMSYN076AAXX  14124 82983 32595 60906 10272 20215 39689 40101 86100 333 20232 59009;EQDQ01  00002PRCP99
0198829830999992000111418004-09370-040480FM-12+037099999V0200501N003112200019N0020001N1+03281+01961100541ADDAA199000091GF104991041011008001001001IA1029KA1240N+01631MA1999999096471MD1999999+0041REMSYN082AAXX  14184 82983 32595 40506 10328 20196 39647 40054 84100 333 20163 39395 58004;EQDQ01  00002PRCP99
0196829830999992000111500004-09370-040480FM-12+037099999V0209999C000012200019N0020001N1+02841+02241100741ADDAA199000091GA1001+999999999GF100991001001999999001001KA1240M+03341MA1999999096661MD1999999-0061REMSYN070AAXX  15004 82983 32995 00000 10284 20224 39666 40074 333 10334 59006;EQDQ01  00002PRCP99
0196829830999992000111512004-09370-040480FM-12+037099999V0203601N003112200019N0020001N1+02761+01751101021ADDAA199000091GA1001+999999999GF100991001001999999001001KA1240N+02421MA1999999096931MD1999999+0041REMSYN070AAXX  15124 82983 32995 03606 10276 20175 39693 40102 333 20242 58004;EQDQ01  00002PRCP99
0167829830999992000111518004-09370-040480FM-12+037099999V0200901N002611050019N0020001N1+03321+01701100671ADDAA199000091GF105991011011008001001021MA1999999096571MD1999999-0091REMSYN070AAXX  15184 82983 32595 50905 10332 20170 39657 40067 81102 333 59009;EQDQ01  00002PRCP99
0186829830999992000111600004-09370-040480FM-12+037099999V0200901N002610075019N0020001N1+02861+02011100951ADDAA199000091GF105991051021008001001001KA1240M+03361MA1999999096851MD1999999+0191REMSYN076AAXX  16004 82983 32595 50905 10286 20201 39685 40095 85200 333 10336 58019;EQDQ01  00002PRCP99
0186829830999992000111612004-09370-040480FM-12+037099999V0200901N004110075019N0020001N1+02541+01951101331ADDAA199000091GF108991081051008001999999KA1240N+02321MA1999999097191MD1999999+0261REMSYN076AAXX  16124 82983 32595 80908 10254 20195 39719 40133 885// 333 20232 58026;EQDQ01  00002PRCP99
0167829830999992000111618004-09370-040480FM-12+037099999V0200501N004612200019N0200001N1+03121+01641100901ADDAA199000091GF104991041011008001001001MA1999999096801MD1999999+0231REMSYN070AAXX  16184 82983 32598 40509 10312 20164 39680 40090 84100 333 58023;EQDQ01  00002PRCP99
0196829830999992000111700004-09370-040480FM-12+037099999V0200901N003112200019N0020001N1+02741+01641101051ADDAA199000091GA1001+999999999GF100991001001999999001001KA1240M+03221MA1999999096921MD1999999+0171REMSYN070AAXX  17004 82983 32995 00906 10274 20164 39692 40105 333 10322 58017;EQDQ01  00002PRCP99
0186829830999992000111712004-09370-040480FM-12+037099999V0200901N004110075019N0020001N1+02581+01821101441ADDAA199000091GF106991061011008001001001KA1240N+02321MA1999999097301MD1999999+0111REMSYN076AAXX  17124 82983 32595 60908 10258 20182 39730 40144 86100 333 20232 58011;EQDQ01  00002PRCP99
0167829830999992000111718004-09370-040480FM-12+037099999V0200901N003110075019N0020001N1+03161+01631100971ADDAA199000091GF105991051011008001001001MA1999999096851MD1999999+0051REMSYN070AAXX  17184 82983 32595 50906 10316 20163 39685 40097 85100 333 58005;EQDQ01  00002PRCP99
0196829830999992000111800004-09370-040480FM-12+037099999V0200901N002612200019N0020001N1+02761+01751101201ADDAA199000091GA1001+999999999GF100991001001999999001001KA1240M+03241MA1999999097061MD1999999+0141REMSYN070AAXX  18004 82983 32995 00905 10276 20175 39706 40120 333 10324 58014;EQDQ01  00002PRCP99
0186829830999992000111812004-09370-040480FM-12+037099999V0200901N004110075019N0020001N1+02601+01841101481ADDAA199000091GF105991051021008001001001KA1240N+02261MA1999999097341MD1999999+0031REMSYN076AAXX  18124 82983 32595 50908 10260 20184 39734 40148 85200 333 20226 58003;EQDQ01  00002PRCP99
0167829830999992000111818004-09370-040480FM-12+037099999V0200501N003110075019N0020001N1+03081+01601101021ADDAA199000091GF107991071021008001001001MA1999999096891MD1999999+0041REMSYN070AAXX  18184 82983 32595 70506 10308 20160 39689 40102 87200 333 58004;EQDQ01  00002PRCP99
0186829830999992000111900004-09370-040480FM-12+037099999V0201401N002612200019N0020001N1+02621+01621101121ADDAA199000091GF102991021011008001001001KA1240M+03161MA1999999096981MD1999999-0081REMSYN076AAXX  19004 82983 32595 21405 10262 20162 39698 40112 82100 333 10316 59008;EQDQ01  00002PRCP99
0186829830999992000111912004-09370-040480FM-12+037099999V0200901N005110075019N0020001N1+02501+01821101431ADDAA199000091GF106991061021008001001001KA1240N+01741MA1999999097281MD1999999-0161REMSYN076AAXX  19124 82983 32595 60910 10250 20182 39728 40143 86200 333 20174 59016;EQDQ01  00002PRCP99
0196829830999992000112000004-09370-040480FM-12+037099999V0200901N004112200019N0020001N1+02621+01891101121ADDAA199000091GA1001+999999999GF100991001001999999001001KA1240M+03141MA1999999097081MD1999999+0101REMSYN070AAXX  20004 82983 32995 00908 10262 20189 39708 40112 333 10314 58010;EQDQ01  00002PRCP99
0186829830999992000112012004-09370-040480FM-12+037099999V0200901N004112200019N0020001N1+02601+01761101521ADDAA199000091GF104991041011008001001001KA1240N+02291MA1999999097351MD1999999+0071REMSYN076AAXX  20124 82983 32595 40908 10260 20176 39735 40152 84100 333 20229 58007;EQDQ01  00002PRCP99
0196829830999992000112100004-09370-040480FM-12+037099999V0200901N003112200019N0020001N1+02721+01651101211ADDAA199000091GA1001+999999999GF100991001001999999001001KA1240M+03201MA1999999097071MD1999999-0011REMSYN070AAXX  21004 82983 32995 00906 10272 20165 39707 40121 333 10320 59001;EQDQ01  00002PRCP99
0186829830999992000112112004-09370-040480FM-12+037099999V0200901N005112200019N0020001N1+02621+01881101561ADDAA199000091GF104991031011008001031001KA1240N+02251MA1999999097411MD1999999+0061REMSYN076AAXX  21124 82983 32595 40910 10262 20188 39741 40156 83130 333 20225 58006;EQDQ01  00002PRCP99
0196829830999992000112200004-09370-040480FM-12+037099999V0200901N002612200019N0020001N1+02761+01911101231ADDAA199000091GA1001+999999999GF100991001001999999001001KA1240M+03221MA1999999097101MD1999999+0031REMSYN070AAXX  22004 82983 32995 00905 10276 20191 39710 40123 333 10322 58003;EQDQ01  00002PRCP99
0186829830999992000112212004-09370-040480FM-12+037099999V0200901N005110075019N0020001N1+02561+01831101661ADDAA199000091GF106991061021008001001001KA1240N+02261MA1999999097511MD1999999+0101REMSYN076AAXX  22124 82983 32595 60910 10256 20183 39751 40166 86200 333 20226 58010;EQDQ01  00002PRCP99
0196829830999992000112300004-09370-040480FM-12+037099999V0200901N003112200019N0020001N1+02681+01971101431ADDAA199000091GA1001+999999999GF100991001001999999001001KA1240M+03061MA1999999097281MD1999999+0181REMSYN070AAXX  23004 82983 32995 00906 10268 20197 39728 40143 333 10306 58018;EQDQ01  00002PRCP99
0186829830999992000112400004-09370-040480FM-12+037099999V0200901N003112200019N0020001N1+02701+01661101261ADDAA199000091GF103991031011008001001001KA1240M+03201MA1999999097121MD1999999-0161REMSYN076AAXX  24004 82983 32595 30906 10270 20166 39712 40126 83100 333 10320 59016;EQDQ01  00002PRCP99
0186829830999992000112412004-09370-040480FM-12+037099999V0201401N003110075019N0020001N1+02461+02031101541ADDAA199000091GF107991071021008001001001KA1240N+02341MA1999999097381MD1999999-0121REMSYN076AAXX  24124 82983 32595 71406 10246 20203 39738 40154 87200 333 20234 59012;EQDQ01  00002PRCP99
0196829830999992000112800004-09370-040480FM-12+037099999V0201401N002612200019N0020001N1+02841+01671101211ADDAA199000091GA1001+999999999GF100991001001999999001001KA1240M+03281MA1999999097081MD1999999+0071REMSYN070AAXX  28004 82983 32995 01405 10284 20167 39708 40121 333 10328 58007;EQDQ01  00002PRCP99
0186829830999992000112812004-09370-040480FM-12+037099999V0200901N004110075019N0020001N1+02541+01981101571ADDAA199000091GF107991071021008001001001KA1240N+02351MA1999999097431MD1999999-0111REMSYN076AAXX  28124 82983 32595 70908 10254 20198 39743 40157 87200 333 20235 59011;EQDQ01  00002PRCP99
0196829830999992000112900004-09370-040480FM-12+037099999V0200901N001512200019N0020001N1+02741+01811101261ADDAA199000091GA1001+999999999GF100991001001999999001001KA1240M+03101MA1999999097121MD1999999+0031REMSYN070AAXX  29004 82983 32995 00903 10274 20181 39712 40126 333 10310 58003;EQDQ01  00002PRCP99
0186829830999992000112912004-09370-040480FM-12+037099999V0200901N005112200019N0020001N1+02561+01851101661ADDAA199000091GF104991041011008001001001KA1240N+02211MA1999999097511MD1999999-0081REMSYN076AAXX  29124 82983 32595 40910 10256 20185 39751 40166 84100 333 20221 59008;EQDQ01  00002PRCP99
0186829830999992000120200004-09370-040480FM-12+037099999V0209999C000010075019N0020001N1+02981+01891100981ADDAA199000091GF106991061021008001001001KA1240M+03461MA1999999096891MD1999999+0011REMSYN076AAXX  02004 82983 32595 60000 10298 20189 39689 40098 86200 333 10346 58001;EQDQ01  00002PRCP99
0196829830999992000120212004-09370-040480FM-12+037099999V0200901N005112200019N0020001N1+02881+01901101231ADDAA199000091GA1001+999999999GF100991001001999999001001KA1240N+02421MA1999999097141MD1999999-0071REMSYN070AAXX  02124 82983 32995 00910 10288 20190 39714 40123 333 20242 59007;EQDQ01  00002PRCP99
0196829830999992000120312004-09370-040480FM-12+037099999V0203601N004112200019N0020001N1+02861+01951101241ADDAA199000091GA1001+999999999GF100991001001999999001001KA1240N+02431MA1999999097161MD1999999+0021REMSYN070AAXX  03124 82983 32995 03608 10286 20195 39716 40124 333 20243 58002;EQDQ01  00002PRCP99
0186829830999992000120412004-09370-040480FM-12+037099999V0200901N003112200019N0020001N1+02761+01971101221ADDAA199000091GF104991041011008001001001KA1240N+02441MA1999999097121MD1999999-0041REMSYN076AAXX  04124 82983 32595 40906 10276 20197 39712 40122 84100 333 20244 59004;EQDQ01  00002PRCP99
0186829830999992000120500004-09370-040480FM-12+037099999V0200901N002610075019N0020001N1+03201+01591100811ADDAA199000091GF108991081051008001999999KA1240M+03501MA1999999096751MD1999999-0081REMSYN076AAXX  05004 82983 32595 80905 10320 20159 39675 40081 885// 333 10350 59008;EQDQ01  00002PRCP99
0186829830999992000120512004-09370-040480FM-12+037099999V0200901N005110450019N0020001N1+02821+01861101131ADDAA199000091GF105991021011008001091001KA1240N+02451MA1999999097061MD1999999-0061REMSYN076AAXX  05124 82983 32595 50910 10282 20186 39706 40113 82190 333 20245 59006;EQDQ01  00002PRCP99
0186829830999992000120600004-09370-040480FM-12+037099999V0209999C000010075019N0020001N1+03121+01821100851ADDAA199000091GF108991081051008001999999KA1240M+03401MA1999999096771MD1999999+0021REMSYN076AAXX  06004 82983 32595 80000 10312 20182 39677 40085 885// 333 10340 58002;EQDQ01  00002PRCP99
0192829830999992000120612004-09370-040480FM-12+037099999V0203601N005110075019N0020001N1+02901+01901101141ADDAA199000091GF105991051011008001001001KA1240N+02611MA1999999097061MD1999999+0001REMSYN082AAXX  06124 82983 32595 53610 10290 20190 39706 40114 85100 333 20261 58000 59014;EQDQ01  00002PRCP99
0196829830999992000120700004-09370-040480FM-12+037099999V0209999C000012200019N0020001N1+03081+01951100901ADDAA199000091GA1001+999999999GF100991001001999999001001KA1240M+03501MA1999999096841MD1999999+0071REMSYN070AAXX  07004 82983 32995 00000 10308 20195 39684 40090 333 10350 58007;EQDQ01  00002PRCP99
0202829830999992000120712004-09370-040480FM-12+037099999V0200501N002619999999N0020001N1+03041+01941101181ADDAA199000091GF105991999011008001001001KA1240N+02181MA1999999097111MD1999999+0051REMSYN076AAXX  07124 82983 32595 50505 10304 20194 39711 40118 84100 333 20218 58005;EQDQ01+000042SCOTLCQ02  00002PRCP99
0186829830999992000120800004-09370-040480FM-12+037099999V0203201N001510075019N0020001N1+03001+01941101141ADDAA199000091GF108991081051008001999999KA1240M+03601MA1999999097071MD1999999+0231REMSYN076AAXX  08004 82983 32595 83203 10300 20194 39707 40114 885// 333 10360 58023;EQDQ01  00002PRCP99
0186829830999992000120812004-09370-040480FM-12+037099999V0200901N005110075019N0020001N1+02621+01911101441ADDAA199000091GF108991081051008001999999KA1240N+02491MA1999999097331MD1999999+0221REMSYN076AAXX  08124 82983 32595 80910 10262 20191 39733 40144 885// 333 20249 58022;EQDQ01  00002PRCP99
0186829830999992000120912004-09370-040480FM-12+037099999V0200901N005110075019N0020001N1+02521+01961101451ADDAA199000091GF105991051011008001001001KA1240N+02321MA1999999097311MD1999999-0021REMSYN076AAXX  09124 82983 32595 50910 10252 20196 39731 40145 85100 333 20232 59002;EQDQ01  00002PRCP99
0196829830999992000121012004-09370-040480FM-12+037099999V0201401N004112200019N0020001N1+02661+01871101231ADDAA199000091GA1001+999999999GF100991001001999999001001KA1240N+02301MA1999999097131MD1999999-0181REMSYN070AAXX  10124 82983 32995 01408 10266 20187 39713 40123 333 20230 59018;EQDQ01  00002PRCP99
0186829830999992000121112004-09370-040480FM-12+037099999V0200501N001510075019N0020001N1+02721+01931101011ADDAA199000091GF106991061021008001001001KA1240N+02441MA1999999096921MD1999999-0211REMSYN076AAXX  11124 82983 32595 60503 10272 20193 39692 40101 86200 333 20244 59021;EQDQ01  00002PRCP99
0186829830999992000121200004-09370-040480FM-12+037099999V0201401N001510075019N0020001N1+02561+02061101121ADDAA199000091GF108991081051008001999999KA1240M+03341MA1999999096991MD1999999+0031REMSYN076AAXX  12004 82983 32595 81403 10256 20206 39699 40112 885// 333 10334 58003;EQDQ01  00002PRCP99
0201829830999992000121212004-09370-040480FM-12+037099999V0201401N001510075019N0020001N1+02241+02121101381ADDAA124033091AY161061AY261061GF108991081051008001999999KA1240N+02101MA1999999097201MD1999999+0281MW1511REMSYN088AAXX  12124 82983 21595 81403 10224 20212 39720 40138 75166 885// 333 20210 58028 60334;
0201829830999992000121300004-09370-040480FM-12+037099999V0209999C000010075019N0020001N1+02541+02111101171ADDAA106001091AY161061AY261061GF108991081051008001999999KA1240M+02621MA1999999097001MD1999999+0021MW1031REMSYN088AAXX  13004 82983 21595 80000 10254 20211 39700 40117 70366 885// 333 10262 58002 60011;
0201829830999992000121312004-09370-040480FM-12+037099999V0200901N003110450019N0020001N1+02501+02071101181ADDAA124003091AY161061AY261061GF107991041051008001031001KA1240N+02331MA1999999097031MD1999999-0171MW1031REMSYN088AAXX  13124 82983 21595 70906 10250 20207 39703 40118 70366 84530 333 20233 59017 60034;
0201829830999992000121400004-09370-040480FM-12+037099999V0200901N002610075019N0020001N1+02261+02121101181ADDAA106007191AY161061AY261061GF108991081051008001999999KA1240M+02941MA1999999097011MD1999999+0011MW1031REMSYN088AAXX  14004 82983 21595 80905 10226 20212 39701 40118 70366 885// 333 10294 58001 60071;
0201829830999992000121412004-09370-040480FM-12+037099999V0200901N003110075019N0020001N1+02201+02061101141ADDAA124009991AY161061AY261061GF108991081051008001999999KA1240N+02111MA1999999096951MD1999999-0081MW1031REMSYN088AAXX  14124 82983 21595 80906 10220 20206 39695 40114 70366 885// 333 20211 59008 60104;
0124829830999992000121500004-09370-040480FM-12+037099999V0202701N001019999999N0020001N1+02201+02061999999ADDAA106009991GF108991999999008001999999MA1999999096721REMSYN060AAXX  15004 82983 21595 82702 10220 20206 39672 59039 60101;
0201829830999992000121512004-09370-040480FM-12+037099999V0203601N001510075019N0020001N1+02181+02101101031ADDAA124045091AY161061AY261061GF108991081051008001999999KA1240N+02111MA1999999096841MD1999999-0111MW1611REMSYN088AAXX  15124 82983 21595 83603 10218 20210 39684 40103 76166 885// 333 20211 59011 60454;
0201829830999992000121600004-09370-040480FM-12+037099999V0203601N003110075019N0020001N1+02181+02131100891ADDAA106010991AY161061AY261061GF108991081051008001999999KA1240M+02441MA1999999096711MD1999999-0081MW1031REMSYN088AAXX  16004 82983 21595 83606 10218 20213 39671 40089 70366 885// 333 10244 59008 60111;
0201829830999992000121612004-09370-040480FM-12+037099999V0202601N003110075019N0020001N1+02061+01981101001ADDAA124015091AY161061AY261061GF108991081051008001999999KA1240N+02051MA1999999096801MD1999999-0041MW1501REMSYN088AAXX  16124 82983 21595 82606 10206 20198 39680 40100 75066 885// 333 20205 59004 60154;
0201829830999992000121700004-09370-040480FM-12+037099999V0203201N001510075019N0020001N1+02121+02001101171ADDAA106003091AY161061AY261061GF108991081051008001999999KA1240M+02301MA1999999096961MD1999999+0251MW1031REMSYN088AAXX  17004 82983 21595 83203 10212 20200 39696 40117 70366 885// 333 10230 58025 60031;
0173829830999992000121712004-09370-040480FM-12+037099999V0203601N003110075019N0020001N1+02281+02001101221ADDAA124003091GF108991081051008001999999KA1240N+02061MA1999999097131MD1999999+0031REMSYN082AAXX  17124 82983 22595 83606 10228 20200 39713 40122 885// 333 20206 58003 60034;
0186829830999992000121800004-09370-040480FM-12+037099999V0209999C000010075019N0020001N1+02261+02121101271ADDAA199000091GF108991081051008001999999KA1240M+02341MA1999999097081MD1999999+0121REMSYN076AAXX  18004 82983 32595 80000 10226 20212 39708 40127 885// 333 10234 58012;EQDQ01  00002PRCP99
0173829830999992000121812004-09370-040480FM-12+037099999V0201401N001510075019N0020001N1+02381+02131101431ADDAA124000591GF108991081051008001999999KA1240N+02201MA1999999097241MD1999999+0111REMSYN082AAXX  18124 82983 22595 81403 10238 20213 39724 40143 885// 333 20220 58011 69964;
0196829830999992000121900004-09370-040480FM-12+037099999V0200901N003112200019N0020001N1+02521+01861101251ADDAA199000091GA1001+999999999GF100991001001999999001001KA1240M+02841MA1999999097091MD1999999+0011REMSYN070AAXX  19004 82983 32995 00906 10252 20186 39709 40125 333 10284 58001;EQDQ01  00002PRCP99
0186829830999992000121912004-09370-040480FM-12+037099999V0200901N002610075019N0020001N1+02481+02171101381ADDAA199000091GF107991071021008001001001KA1240N+02271MA1999999097221MD1999999-0021REMSYN076AAXX  19124 82983 32595 70905 10248 20217 39722 40138 87200 333 20227 59002;EQDQ01  00002PRCP99
0202829830999992000122000004-09370-040480FM-12+037099999V0200901N001512200019N0020001N1+02621+02291101161ADDAA199000091GF104991999011008001001001KA1240M+03101MA1999999097021MD1999999-0071REMSYN076AAXX  20004 82983 32595 40903 10262 20229 39702 40116 83100 333 10310 59007;EQDQ01+000032SCOTLCQ02  00002PRCP99
0186829830999992000122012004-09370-040480FM-12+037099999V0200901N003112200019N0020001N1+02721+02001101391ADDAA199000091GF103991031041008001001001KA1240N+02441MA1999999097251MD1999999+0031REMSYN076AAXX  20124 82983 32595 30906 10272 20200 39725 40139 83400 333 20244 58003;EQDQ01  00002PRCP99
0196829830999992000122100004-09370-040480FM-12+037099999V0200901N001512200019N0020001N1+02801+01951101191ADDAA199000091GA1001+999999999GF100991001001999999001001KA1240M+03201MA1999999097051MD1999999+0031REMSYN070AAXX  21004 82983 32995 00903 10280 20195 39705 40119 333 10320 58003;EQDQ01  00002PRCP99
0186829830999992000122112004-09370-040480FM-12+037099999V0200901N002612200019N0020001N1+02641+02031101511ADDAA199000091GF103991031021008001001001KA1240N+02291MA1999999097371MD1999999+0121REMSYN076AAXX  21124 82983 32595 30905 10264 20203 39737 40151 83200 333 20229 58012;EQDQ01  00002PRCP99
0196829830999992000122200004-09370-040480FM-12+037099999V0209999C000012200019N0020001N1+02801+02111101231ADDAA199000091GA1001+999999999GF100991001001999999001001KA1240M+03191MA1999999097101MD1999999+0051REMSYN070AAXX  22004 82983 32995 00000 10280 20211 39710 40123 333 10319 58005;EQDQ01  00002PRCP99
0186829830999992000122212004-09370-040480FM-12+037099999V0200901N003110075019N0020001N1+02401+02031101551ADDAA199000091GF108991081051008001999999KA1240N+02351MA1999999097391MD1999999+0021REMSYN076AAXX  22124 82983 32595 80906 10240 20203 39739 40155 885// 333 20235 58002;EQDQ01  00002PRCP99
0196829830999992000122300004-09370-040480FM-12+037099999V0200901N002612200019N0020001N1+02681+02091101261ADDAA199000091GA1001+999999999GF100991001001999999001001KA1240M+03061MA1999999097121MD1999999+0021REMSYN070AAXX  23004 82983 32995 00905 10268 20209 39712 40126 333 10306 58002;EQDQ01  00002PRCP99
0186829830999992000122312004-09370-040480FM-12+037099999V0200901N002610075019N0020001N1+02501+02071101571ADDAA199000091GF106991061021008001001001KA1240N+02321MA1999999097411MD1999999+0021REMSYN076AAXX  23124 82983 32595 60905 10250 20207 39741 40157 86200 333 20232 58002;EQDQ01  00002PRCP99
0202829830999992000122412004-09370-040480FM-12+037099999V0200901N003119999999N0020001N1+02581+02041101371ADDAA199000091GF105991999011008001001001KA1240N+02321MA1999999097411MD1999999+0001REMSYN076AAXX  24124 82983 32595 50906 10258 20204 39741 40137 82100 333 20232 58000;EQDQ01+000022SCOTLCQ02  00002PRCP99
0196829830999992000122500004-09370-040480FM-12+037099999V0200901N002612200019N0020001N1+02621+02071101151ADDAA199000091GA1001+999999999GF100991001001999999001001KA1240M+03141MA1999999097011MD1999999+0011REMSYN070AAXX  25004 82983 32995 00905 10262 20207 39701 40115 333 10314 58001;EQDQ01  00002PRCP99
0186829830999992000122512004-09370-040480FM-12+037099999V0200901N003112200019N0020001N1+02581+02001101551ADDAA199000091GF101991011011008001001001KA1240N+02301MA1999999097391MD1999999-0021REMSYN076AAXX  25124 82983 32595 10906 10258 20200 39739 40155 81100 333 20230 59002;EQDQ01  00002PRCP99
0167829830999992000122518004-09370-040480FM-12+037099999V0200901N002612200019N0020001N1+03001+02141101251ADDAA199000091GF104991041011008001001001MA1999999097111MD1999999+0111REMSYN070AAXX  25184 82983 32595 40905 10300 20214 39711 40125 84100 333 58011;EQDQ01  00002PRCP99
0196829830999992000122600004-09370-040480FM-12+037099999V0200901N001512200019N0020001N1+02681+02041101231ADDAA199000091GA1001+999999999GF100991001001999999001001KA1240M+03101MA1999999097091MD1999999+0081REMSYN070AAXX  26004 82983 32995 00903 10268 20204 39709 40123 333 10310 58008;EQDQ01  00002PRCP99
0186829830999992000122612004-09370-040480FM-12+037099999V0200901N003110075019N0020001N1+02541+02041101521ADDAA199000091GF106991061011008001001001KA1240N+02221MA1999999097361MD1999999-0061REMSYN076AAXX  26124 82983 32595 60906 10254 20204 39736 40152 86100 333 20222 59006;EQDQ01  00002PRCP99
0167829830999992000122618004-09370-040480FM-12+037099999V0200901N003112200019N0020001N1+03061+02141101111ADDAA199000091GF104991041011008001001001MA1999999096981MD1999999-0131REMSYN070AAXX  26184 82983 32595 40906 10306 20214 39698 40111 84100 333 59013;EQDQ01  00002PRCP99
0186829830999992000122700004-09370-040480FM-12+037099999V0200901N003110075019N0020001N1+02661+02091101231ADDAA199000091GF105991051021008001001001KA1240M+03161MA1999999097091MD1999999+0001REMSYN076AAXX  27004 82983 32595 50906 10266 20209 39709 40123 85200 333 10316 58000;EQDQ01  00002PRCP99
0186829830999992000122712004-09370-040480FM-12+037099999V0200901N004110075019N0020001N1+02361+01931101451ADDAA199000091GF108991081051008001999999KA1240N+02201MA1999999097291MD1999999-0071REMSYN076AAXX  27124 82983 32595 80908 10236 20193 39729 40145 885// 333 20220 59007;EQDQ01  00002PRCP99
0167829830999992000122718004-09370-040480FM-12+037099999V0200501N003112200019N0020001N1+02961+02051101191ADDAA199000091GF104991041011008001001001MA1999999097051MD1999999+0071REMSYN070AAXX  27184 82983 32595 40506 10296 20205 39705 40119 84100 333 58007;EQDQ01  00002PRCP99
0196829830999992000122800004-09370-040480FM-12+037099999V0209999C000012200019N0020001N1+02661+02161101281ADDAA199000091GA1001+999999999GF100991001001999999001001KA1240M+03081MA1999999097131MD1999999+0041REMSYN070AAXX  28004 82983 32995 00000 10266 20216 39713 40128 333 10308 58004;EQDQ01  00002PRCP99
0186829830999992000122812004-09370-040480FM-12+037099999V0200901N003112200019N0020001N1+02561+02041101471ADDAA199000091GF102991021011008001001001KA1240N+02201MA1999999097321MD1999999+0031REMSYN076AAXX  28124 82983 32595 20906 10256 20204 39732 40147 82100 333 20220 58003;EQDQ01  00002PRCP99
0167829830999992000122818004-09370-040480FM-12+037099999V0200901N003112200019N0020001N1+03061+02251101071ADDAA199000091GF103991031011008001001001MA1999999096931MD1999999-0121REMSYN070AAXX  28184 82983 32595 30906 10306 20225 39693 40107 83100 333 59012;EQDQ01  00002PRCP99
0196829830999992000122900004-09370-040480FM-12+037099999V0200901N002612200019N0020001N1+02761+02071101131ADDAA199000091GA1001+999999999GF100991001001999999001001KA1240M+03181MA1999999096991MD1999999-0141REMSYN070AAXX  29004 82983 32995 00905 10276 20207 39699 40113 333 10318 59014;EQDQ01  00002PRCP99
0196829830999992000122912004-09370-040480FM-12+037099999V0200901N004112200019N0020001N1+02681+01991101401ADDAA199000091GA1001+999999999GF100991001001999999001001KA1240N+02301MA1999999097261MD1999999-0061REMSYN070AAXX  29124 82983 32995 00908 10268 20199 39726 40140 333 20230 59006;EQDQ01  00002PRCP99
0167829830999992000122918004-09370-040480FM-12+037099999V0200901N002610075019N0020001N1+03281+02161100971ADDAA199000091GF105991051011008001001001MA1999999096881MD1999999-0051REMSYN070AAXX  29184 82983 32595 50905 10328 20216 39688 40097 85100 333 59005;EQDQ01  00002PRCP99
0186829830999992000123000004-09370-040480FM-12+037099999V0209999C000012200019N0020001N1+02901+02041101031ADDAA199000091GF102991021011008001001001KA1240M+03361MA1999999096941MD1999999-0051REMSYN076AAXX  30004 82983 32595 20000 10290 20204 39694 40103 82100 333 10336 59005;EQDQ01  00002PRCP99
0202829830999992000123012004-09370-040480FM-12+037099999V0200901N003112200019N0020001N1+02661+02161101351ADDAA199000091GF104991999011008001001001KA1240N+02261MA1999999097241MD1999999-0021REMSYN076AAXX  30124 82983 32595 40906 10266 20216 39724 40135 82100 333 20226 59002;EQDQ01+000022SCOTLCQ02  00002PRCP99
0167829830999992000123018004-09370-040480FM-12+037099999V0200901N003110075019N0020001N1+03261+02081100971ADDAA199000091GF105991051011008001001001MA1999999096881MD1999999+0001REMSYN070AAXX  30184 82983 32595 50906 10326 20208 39688 40097 85100 333 58000;EQDQ01  00002PRCP99
0186829830999992000123100004-09370-040480FM-12+037099999V0201401N001512200019N0020001N1+02881+02281101071ADDAA199000091GF102991021021008001001001KA1240M+03321MA1999999096951MD1999999+0011REMSYN076AAXX  31004 82983 32595 21403 10288 20228 39695 40107 82200 333 10332 58001;EQDQ01  00002PRCP99
0186829830999992000123112004-09370-040480FM-12+037099999V0200901N003110075019N0020001N1+02561+02171101391ADDAA199000091GF105991051011008001001001KA1240N+02401MA1999999097251MD1999999+0011REMSYN076AAXX  31124 82983 32595 50906 10256 20217 39725 40139 85100 333 20240 58001;EQDQ01  00002PRCP99
0184829830999992000123118004-09370-040480FM-12+037099999V0200501N003119999999N0020001N1+03181+02321999999ADDAA199000091GF105991999021008001001001MD1999999+0141REMSYN070AAXX  31184 82983 32595 50506 10318 20232 30096 4//// 83200 333 58014;EQDQ01+000032SCOTLCQ02+100963APOSP Q03  00002PRCP99
