0186829940999992000011200004-09670-035700FM-12+008999999V0200901N001510450019N9999999N1+02451+02131100791ADDAA106000091GF106991021031008001021001KA1240M+02921MA1999999100251MD1999999-0081REMSYN076AAXX  12004 82994 325// 60903 10245 20213 30025 40079 82320 333 10292 59008;EQDQ01  00002PRCP06
0186829940999992000011212004-09670-035700FM-12+008999999V0200901N003110075019N0500001N1+02691+02151101041ADDAA106000091GF105991051031008001001001KA1240N+02101MA1999999100311MD1999999+0011REMSYN076AAXX  12124 82994 32599 50906 10269 20215 30031 40104 85300 333 20210 58001;EQDQ01  00002PRCP06
0167829940999992000022518004-09670-035700FM-12+008999999V0200501N004112200019N0500001N1+02871+02181101001ADDAA199000091GF104991041011008001001001MA1999999100271MD1999999+0151REMSYN070AAXX  25184 82994 32599 40508 10287 20218 30027 40100 84100 333 58015;EQDQ01  00002PRCP99
0201829940999992000061718004-09660-035690FM-12+008999999V0200901N002619999999N0040001N1+02661+02161101161ADDAA106000891AY161061AY211061GF106991999021012501001001MA1999999100421MD1999999-0031MW1031REMSYN082AAXX  17184 82994 21696 60905 10266 20216 30042 40116 70361 84200 333 59003 69981;EQDQ01+000042SCOTLC
0167829940999992000082818004-09660-035690FM-12+008999999V0201401N004110450019N0040001N1+02741+02021101331ADDAA199000091GF105991021021017501061001MA1999999100301MD1999999-0021REMSYN070AAXX  28184 82994 32796 51408 10274 20202 30030 40133 82260 333 59002;EQDQ01  00002PRCP99
0201829940999992000121812004-09660-035690FM-12+008999999V0200901N002110450019N0040001N1+02721+02301101501ADDAA124000391AY161061AY211061GF106991031031012501041001KA1240N+02041MA1999999100471MD1999999+0111MW1031REMSYN088AAXX  18124 82994 21696 60904 10272 20230 30047 40150 70361 83340 333 20204 58011 69934;
