0186830960999992000010100004-10920-037050FM-12+000699999V0200901N002612200019N9999999N1+02601+02391100991ADDAA106000091GF102991021051012501001001KA1240M+02941MA1999999100921MD1999999-0111REMSYN076AAXX  01004 83096 326// 20905 10260 20239 30092 40099 82500 333 10294 59011;EQDQ01  00002PRCP06
0186830960999992000010112004-10920-037050FM-12+000699999V0200901N002112200019N0200001N1+02801+02311101011ADDAA106000091GF102991011051012501031001KA1240N+02141MA1999999100941MD1999999-0121REMSYN076AAXX  01124 83096 32698 20904 10280 20231 30094 40101 81530 333 20214 59012;EQDQ01  00002PRCP06
0167830960999992000010118004-10920-037050FM-12+000699999V0200901N002112200019N0200001N1+02801+02381100881ADDAA106000091GF101991011051012501001001MA1999999100811MD1999999-0031REMSYN070AAXX  01184 83096 32698 10904 10280 20238 30081 40088 81500 333 59003;EQDQ01  00002PRCP06
0186830960999992000010200004-10920-037050FM-12+000699999V0200901N002612200019N9999999N1+02621+02371100871ADDAA106000091GF101991011051012501001001KA1240M+02901MA1999999100801MD1999999-0121REMSYN076AAXX  02004 83096 326// 10905 10262 20237 30080 40087 81500 333 10290 59012;EQDQ01  00002PRCP06
0186830960999992000010212004-10920-037050FM-12+000699999V0200901N002112200019N0200001N1+02741+02301100991ADDAA106000091GF103991021051012501031001KA1240N+02261MA1999999100921MD1999999-0021REMSYN076AAXX  02124 83096 32698 30904 10274 20230 30092 40099 82530 333 20226 59002;EQDQ01  00002PRCP06
0167830960999992000010218004-10920-037050FM-12+000699999V0200901N003112200019N0200001N1+02721+02321100881ADDAA106000091GF104991021051012501031001MA1999999100811MD1999999+0001REMSYN070AAXX  02184 83096 32698 40906 10272 20232 30081 40088 82530 333 58000;EQDQ01  00002PRCP06
0186830960999992000010300004-10920-037050FM-12+000699999V0200901N003112200019N9999999N1+02621+02291100911ADDAA106000091GF101991011051012501001001KA1240M+02901MA1999999100841MD1999999+0041REMSYN076AAXX  03004 83096 326// 10906 10262 20229 30084 40091 81500 333 10290 58004;EQDQ01  00002PRCP06
0186830960999992000010312004-10920-037050FM-12+000699999V0200901N003112200019N0200001N1+02761+02341100951ADDAA106000091GF102991021051012501001001KA1240N+02221MA1999999100881MD1999999+0041REMSYN076AAXX  03124 83096 32698 20906 10276 20234 30088 40095 82500 333 20222 58004;EQDQ01  00002PRCP06
0167830960999992000010318004-10920-037050FM-12+000699999V0200901N003612200019N0200001N1+02761+02341100891ADDAA106000091GF101991011051012501001001MA1999999100821MD1999999+0011REMSYN070AAXX  03184 83096 32698 10907 10276 20234 30082 40089 81500 333 58001;EQDQ01  00002PRCP06
0186830960999992000010400004-10920-037050FM-12+000699999V0200901N004112200019N9999999N1+02681+02311100911ADDAA106000091GF101991011051012501001001KA1240M+02901MA1999999100841MD1999999+0001REMSYN076AAXX  04004 83096 326// 10908 10268 20231 30084 40091 81500 333 10290 58000;EQDQ01  00002PRCP06
0160830960999992000010412004-10920-037050FM-12+000699999V0203601N001510120019N0200001N1+02561+02251101171ADDAA124002091GF106991061051012501001001MA1999999101101MD1999999+0221REMSYN082AAXX  04124 83096 22698 63603 10256 20225 30110 40117 86500 333 20/// 58022 60024;
0167830960999992000010418004-10920-037050FM-12+000699999V0201801N001510120019N0200001N1+02521+02211101131ADDAA106000091GF106991061051012501001001MA1999999101061MD1999999+0241REMSYN070AAXX  04184 83096 32698 61803 10252 20221 30106 40113 86500 333 58024;EQDQ01  00002PRCP06
0186830960999992000010500004-10920-037050FM-12+000699999V0201801N001512200019N9999999N1+02501+02191100991ADDAA106000091GF101991011051012501001001KA1240M+02821MA1999999100921MD1999999+0081REMSYN076AAXX  05004 83096 326// 11803 10250 20219 30092 40099 81500 333 10282 58008;EQDQ01  00002PRCP06
0186830960999992000010512004-10920-037050FM-12+000699999V0200901N002110450019N0200001N1+02681+02241101131ADDAA106000091GF106991041051012501031001KA1240N+02081MA1999999101061MD1999999-0041REMSYN076AAXX  05124 83096 32698 60904 10268 20224 30106 40113 84530 333 20208 59004;EQDQ01  00002PRCP06
0167830960999992000010518004-10920-037050FM-12+000699999V0200901N002110450019N0200001N1+02781+02321101021ADDAA106000091GF105991021051012501031001MA1999999100951MD1999999-0111REMSYN070AAXX  05184 83096 32698 50904 10278 20232 30095 40102 82530 333 59011;EQDQ01  00002PRCP06
0186830960999992000010612004-10920-037050FM-12+000699999V0200901N001510120019N0200001N1+02701+02261101091ADDAA106000091GF105991051051012501001001KA1240N+02021MA1999999101021MD1999999-0041REMSYN076AAXX  06124 83096 32698 50903 10270 20226 30102 40109 85500 333 20202 59004;EQDQ01  00002PRCP06
0186830960999992000010700004-10920-037050FM-12+000699999V0200901N002112200019N9999999N1+02561+02271101071ADDAA106000091GF101991011051012501001001KA1240M+02861MA1999999101001MD1999999+0001REMSYN076AAXX  07004 83096 326// 10904 10256 20227 30100 40107 81500 333 10286 58000;EQDQ01  00002PRCP06
0186830960999992000010712004-10920-037050FM-12+000699999V0200901N002112200019N0200001N1+02661+02391101091ADDAA106000091GF104991021051012501031001KA1240N+02041MA1999999101021MD1999999+0001REMSYN076AAXX  07124 83096 32698 40904 10266 20239 30102 40109 82530 333 20204 58000;EQDQ01  00002PRCP06
0167830960999992000010718004-10920-037050FM-12+000699999V0201401N002112200019N0200001N1+02801+02361100981ADDAA106000091GF101991011051012501001001MA1999999100911MD1999999-0021REMSYN070AAXX  07184 83096 32698 11404 10280 20236 30091 40098 81500 333 59002;EQDQ01  00002PRCP06
0186830960999992000010800004-10920-037050FM-12+000699999V0200901N001512200019N9999999N1+02621+02251100971ADDAA106000091GF102991021051012501001001KA1240M+02941MA1999999100901MD1999999-0101REMSYN076AAXX  08004 83096 326// 20903 10262 20225 30090 40097 82500 333 10294 59010;EQDQ01  00002PRCP06
0167830960999992000010812004-10920-037050FM-12+000699999V0200901N002112200019N0200001N1+02841+02291101071ADDAA106000091GF103991031051012501001001MA1999999101001MD1999999-0021REMSYN070AAXX  08124 83096 32698 30904 10284 20229 30100 40107 83500 333 59002;EQDQ01  00002PRCP06
0167830960999992000010818004-10920-037050FM-12+000699999V0201401N002112200019N0200001N1+02861+02391101081ADDAA106000091GF103991021051012501031001MA1999999101011MD1999999+0101REMSYN070AAXX  08184 83096 32698 31404 10286 20239 30101 40108 82530 333 58010;EQDQ01  00002PRCP06
0186830960999992000010912004-10920-037050FM-12+000699999V0200901N002612200019N0200001N1+02861+02231101211ADDAA106000091GF103991031051012501001001KA1240N+02161MA1999999101141MD1999999+0141REMSYN076AAXX  09124 83096 32698 30905 10286 20223 30114 40121 83500 333 20216 58014;EQDQ01  00002PRCP06
0167830960999992000010918004-10920-037050FM-12+000699999V0201401N002112200019N0200001N1+02881+02231101181ADDAA106000091GF101991011051012501001001MA1999999101111MD1999999+0101REMSYN070AAXX  09184 83096 32698 11404 10288 20223 30111 40118 81500 333 58010;EQDQ01  00002PRCP06
0186830960999992000011000004-10920-037050FM-12+000699999V0201401N002112200019N9999999N1+02681+02131101211ADDAA106000091GF103991031051012501001001KA1240M+02961MA1999999101141MD1999999+0141REMSYN076AAXX  10004 83096 326// 31404 10268 20213 30114 40121 83500 333 10296 58014;EQDQ01  00002PRCP06
0186830960999992000011012004-10920-037050FM-12+000699999V0200901N003112200019N0200001N1+02701+02221101171ADDAA106000091GF103991021051012501031001KA1240N+02261MA1999999101101MD1999999-0041REMSYN076AAXX  10124 83096 32698 30906 10270 20222 30110 40117 82530 333 20226 59004;EQDQ01  00002PRCP06
0154830960999992000011018004-10920-037050FM-12+000699999V0201801N002112200019N0200001N1+02861+02211101091ADDAA106000891GF102991021051012501001001MA1999999101021MD1999999-0091REMSYN076AAXX  10184 83096 22698 21804 10286 20221 30102 40109 82500 333 59009 69981;
0186830960999992000011100004-10920-037050FM-12+000699999V0201401N002112200019N9999999N1+02661+02181101071ADDAA106000091GF102991021051012501001001KA1240M+02941MA1999999101001MD1999999-0141REMSYN076AAXX  11004 83096 326// 21404 10266 20218 30100 40107 82500 333 10294 59014;EQDQ01  00002PRCP06
0173830960999992000011112004-10920-037050FM-12+000699999V0201401N002112200019N0200001N1+02761+02251101091ADDAA124000891GF103991021051012501031001KA1240N+02021MA1999999101021MD1999999-0081REMSYN082AAXX  11124 83096 32698 31404 10276 20225 30102 40109 82530 333 20202 59008 69984;
0167830960999992000011118004-10920-037050FM-12+000699999V0201401N002112200019N0200001N1+02821+02201100981ADDAA106000091GF102991021051012501001001MA1999999100911MD1999999-0111REMSYN070AAXX  11184 83096 32698 21404 10282 20220 30091 40098 82500 333 59011;EQDQ01  00002PRCP06
0186830960999992000011200004-10920-037050FM-12+000699999V0201401N002112200019N9999999N1+02641+02311101011ADDAA106000091GF102991021051012501001001KA1240M+02981MA1999999100941MD1999999-0061REMSYN076AAXX  12004 83096 326// 21404 10264 20231 30094 40101 82500 333 10298 59006;EQDQ01  00002PRCP06
0173830960999992000011212004-10920-037050FM-12+000699999V0201801N001510450019N0200001N1+02521+02331101091ADDAA124000591GF106991041051012501031001KA1240N+02101MA1999999101021MD1999999+0001REMSYN082AAXX  12124 83096 22698 61803 10252 20233 30102 40109 84530 333 20210 58000 69964;
0154830960999992000011218004-10920-037050FM-12+000699999V0201401N002110450019N0200001N1+02881+02221100991ADDAA106000591GF105991031051012501031001MA1999999100921MD1999999+0011REMSYN076AAXX  12184 83096 22698 51404 10288 20222 30092 40099 83530 333 58001 69961;
0201830960999992000011300004-10920-037050FM-12+000699999V0201801N002110075019N9999999N1+02441+02251101071ADDAA106001091AY161061AY261061GF106991061051008001001001KA1240M+02981MA1999999101001MD1999999+0061MW1601REMSYN088AAXX  13004 83096 215// 61804 10244 20225 30100 40107 76066 86500 333 10298 58006 60011;
0173830960999992000011312004-10920-037050FM-12+000699999V0201401N002112200019N0200001N1+02681+02281101211ADDAA124005191GF104991041051012501001001KA1240N+02021MA1999999101141MD1999999+0121REMSYN082AAXX  13124 83096 22698 41404 10268 20228 30114 40121 84500 333 20202 58012 60054;
0167830960999992000011318004-10920-037050FM-12+000699999V0201401N003112200019N0200001N1+02861+02311101141ADDAA106000091GF102991021051012501001001MA1999999101071MD1999999+0151REMSYN070AAXX  13184 83096 32698 21406 10286 20231 30107 40114 82500 333 58015;EQDQ01  00002PRCP06
0190830960999992000011400004-10920-037050FM-12+000699999V0201401N002112200019N9999999N1+02681+02411101091ADDAA199000091GF102991021051012501001001KA1240M+02941MA1999999101021MD1999999+0021REMSYN080    AAXX  14004 83096 326// 21404 10268 20241 30102 40109 82500 333 10294 58002;EQDQ01  00002PRCP99
0190830960999992000011412004-10920-037050FM-12+000699999V0201801N001512200019N0200001N1+02841+02501101111ADDAA199000091GF104991021051012501031001KA1240N+02081MA1999999101041MD1999999+0101REMSYN080    AAXX  14124 83096 32698 41803 10284 20250 30104 40111 82530 333 20208 58010;EQDQ01  00002PRCP99
0158830960999992000011418004-10920-037050FM-12+000699999V0201801N003112200019N0200001N1+02781+02301100981ADDAA106004191GF103991021051012501031001MA1999999100911MD1999999-0161REMSYN080    AAXX  14184 83096 22698 31806 10278 20230 30091 40098 82530 333 59016 60041;
0190830960999992000011500004-10920-037050FM-12+000699999V0200901N002612200019N9999999N1+02641+02251100911ADDAA199000091GF101991011051012501001001KA1240M+02941MA1999999100841MD1999999-0181REMSYN080    AAXX  15004 83096 326// 10905 10264 20225 30084 40091 81500 333 10294 59018;EQDQ01  00002PRCP99
0183830960999992000011512004-10920-037050FM-12+000699999V0200901N001512200019N0200001N1+02821+02151100981ADDAA124004191GF101991011051012501001001KA1240N+02281MA1999999100911MD1999999-0131REMSYN092    AAXX  15124 83096 21698 10903 10282 20215 30091 40098 7//// 81500 333 20228 59013 60044;
0171830960999992000011518004-10920-037050FM-12+000699999V0200901N002112200019N0200001N1+02861+02111100901ADDAA199000091GF101991011051012501001001MA1999999100831MD1999999-0081REMSYN074    AAXX  15184 83096 32698 10904 10286 20211 30083 40090 81500 333 59008;EQDQ01  00002PRCP99
0190830960999992000011600004-10920-037050FM-12+000699999V0200901N002112200019N9999999N1+02621+02161100871ADDAA199000091GF102991021051012501001001KA1240M+02981MA1999999100801MD1999999-0041REMSYN080    AAXX  16004 83096 326// 20904 10262 20216 30080 40087 82500 333 10298 59004;EQDQ01  00002PRCP99
0190830960999992000011612004-10920-037050FM-12+000699999V0200901N002112200019N0200001N1+02821+02101100991ADDAA199000091GF102991021051012501001001KA1240N+01941MA1999999100921MD1999999+0011REMSYN080    AAXX  16124 83096 32698 20904 10282 20210 30092 40099 82500 333 20194 58001;EQDQ01  00002PRCP99
0171830960999992000011618004-10920-037050FM-12+000699999V0201401N002612200019N0200001N1+02881+02131100881ADDAA199000091GF101991011051012501001001MA1999999100811MD1999999-0021REMSYN074    AAXX  16184 83096 32698 11405 10288 20213 30081 40088 81500 333 59002;EQDQ01  00002PRCP99
0190830960999992000011700004-10920-037050FM-12+000699999V0200901N003612200019N9999999N1+02681+02181100971ADDAA199000091GF101991011051012501001001KA1240M+02961MA1999999100901MD1999999+0101REMSYN080    AAXX  17004 83096 326// 10907 10268 20218 30090 40097 81500 333 10296 58010;EQDQ01  00002PRCP99
0186830960999992000011712004-10920-037050FM-12+000699999V0200901N003612200019N0200001N1+02841+02401999999ADDAA124000891GF103991021051012501031001KA1240N+02101MA1999999101041MD1999999-0121ME1100119REMSYN086    AAXX  17124 83096 22698 30907 10284 20240 30104 41011 82530 333 20210 59012 69984;
0171830960999992000011718004-10920-037050FM-12+000699999V0200901N006712200019N0200001N1+02921+02361101001ADDAA199000091GF101991011051012501001001MA1999999100931MD1999999+0121REMSYN074    AAXX  17184 83096 32698 10913 10292 20236 30093 40100 81500 333 58012;EQDQ01  00002PRCP99
0190830960999992000011800004-10920-037050FM-12+000699999V0200901N005112200019N9999999N1+02701+02371101091ADDAA199000091GF102991021051012501001001KA1240M+03001MA1999999101021MD1999999+0121REMSYN080    AAXX  18004 83096 326// 20910 10270 20237 30102 40109 82500 333 10300 58012;EQDQ01  00002PRCP99
0190830960999992000011812004-10920-037050FM-12+000699999V0200901N002612200019N0200001N1+02861+02441101211ADDAA199000091GF102991021051012501001001KA1240N+02301MA1999999101141MD1999999+0101REMSYN080    AAXX  18124 83096 32698 20905 10286 20244 30114 40121 82500 333 20230 58010;EQDQ01  00002PRCP99
0171830960999992000011818004-10920-037050FM-12+000699999V0200901N005112200019N0200001N1+02881+02391101101ADDAA199000091GF101991011051012501001001MA1999999101031MD1999999+0101REMSYN074    AAXX  18184 83096 32698 10910 10288 20239 30103 40110 81500 333 58010;EQDQ01  00002PRCP99
0190830960999992000011900004-10920-037050FM-12+000699999V0200901N003112200019N9999999N1+02681+02351101071ADDAA199000091GF101991011051012501001001KA1240M+03001MA1999999101001MD1999999-0021REMSYN080    AAXX  19004 83096 326// 10906 10268 20235 30100 40107 81500 333 10300 59002;EQDQ01  00002PRCP99
0190830960999992000011912004-10920-037050FM-12+000699999V0200901N003112200019N0200001N1+02881+02301101091ADDAA199000091GF103991021051012501031001KA1240N+02221MA1999999101021MD1999999-0121REMSYN080    AAXX  19124 83096 32698 30906 10288 20230 30102 40109 82530 333 20222 59012;EQDQ01  00002PRCP99
0167830960999992000011918004-10920-037050FM-12+000699999V0200901N003612200019N0200001N1+02881+02391100891ADDAA199000091GF101991011051012501001001MA1999999100821MD1999999-0211REMSYN070AAXX  19184 83096 32698 10907 10288 20239 30082 40089 81500 333 59021;EQDQ01  00002PRCP99
0186830960999992000012000004-10920-037050FM-12+000699999V0200901N003612200019N9999999N1+02641+02371100871ADDAA199000091GF101991011051012501001001KA1240M+03001MA1999999100801MD1999999-0201REMSYN076AAXX  20004 83096 326// 10907 10264 20237 30080 40087 81500 333 10300 59020;EQDQ01  00002PRCP99
0186830960999992000012012004-10920-037050FM-12+000699999V0203601N002112200019N0200001N1+02921+02291100871ADDAA199000091GF101991011051012501001001KA1240N+02261MA1999999100801MD1999999-0221REMSYN076AAXX  20124 83096 32698 13604 10292 20229 30080 40087 81500 333 20226 59022;EQDQ01  00002PRCP99
0167830960999992000012018004-10920-037050FM-12+000699999V0200901N005112200019N0200001N1+02901+02411100701ADDAA199000091GF101991011051012501001001MA1999999100631MD1999999-0191REMSYN070AAXX  20184 83096 32698 10910 10290 20241 30063 40070 81500 333 59019;EQDQ01  00002PRCP99
0186830960999992000012100004-10920-037050FM-12+000699999V0203601N001510120019N9999999N1+02721+02431100811ADDAA199000091GF105991051051012501001001KA1240M+03221MA1999999100741MD1999999-0061REMSYN076AAXX  21004 83096 326// 53603 10272 20243 30074 40081 85500 333 10322 59006;EQDQ01  00002PRCP99
0173830960999992000012112004-10920-037050FM-12+000699999V0202701N002110120019N0200001N1+02421+02251101171ADDAA124042991GF105991051051012501001001KA1240N+01841MA1999999101101MD1999999+0301REMSYN082AAXX  21124 83096 22698 52704 10242 20225 30110 40117 85500 333 20184 58030 60434;
0167830960999992000012118004-10920-037050FM-12+000699999V0200901N001510120019N0200001N1+02821+02271100951ADDAA199000091GF105991051051012501001001MA1999999100881MD1999999+0251REMSYN070AAXX  21184 83096 32698 50903 10282 20227 30088 40095 85500 333 58025;EQDQ01  00002PRCP99
0173830960999992000012200004-10920-037050FM-12+000699999V0203601N002110120019N9999999N1+02321+02091101011ADDAA106007191GF106991061051012501001001KA1240M+02861MA1999999100941MD1999999+0201REMSYN082AAXX  22004 83096 226// 63604 10232 20209 30094 40101 86500 333 10286 58020 60071;
0173830960999992000012212004-10920-037050FM-12+000699999V0203601N001512200019N0200001N1+02721+02391101211ADDAA124007991GF103991021051012501031001KA1240N+02001MA1999999101141MD1999999+0041REMSYN082AAXX  22124 83096 22698 33603 10272 20239 30114 40121 82530 333 20200 58004 60084;
0167830960999992000012218004-10920-037050FM-12+000699999V0200901N004112200019N0200001N1+02861+02541100881ADDAA199000091GF101991011051012501001001MA1999999100811MD1999999-0071REMSYN070AAXX  22184 83096 32698 10908 10286 20254 30081 40088 81500 333 59007;EQDQ01  00002PRCP99
0186830960999992000012300004-10920-037050FM-12+000699999V0200901N002112200019N9999999N1+02701+02481101091ADDAA199000091GF103991031051012501001001KA1240M+02981MA1999999101021MD1999999+0081REMSYN076AAXX  23004 83096 326// 30904 10270 20248 30102 40109 83500 333 10298 58008;EQDQ01  00002PRCP99
0186830960999992000012312004-10920-037050FM-12+000699999V0200901N002612200019N0200001N1+02901+02101101091ADDAA199000091GF103991021051012501031001KA1240N+02221MA1999999101021MD1999999-0121REMSYN076AAXX  23124 83096 32698 30905 10290 20210 30102 40109 82530 333 20222 59012;EQDQ01  00002PRCP99
0167830960999992000012318004-10920-037050FM-12+000699999V0200901N004112200019N0200001N1+02901+02391100841ADDAA199000091GF101991011051012501001001MA1999999100771MD1999999-0041REMSYN070AAXX  23184 83096 32698 10908 10290 20239 30077 40084 81500 333 59004;EQDQ01  00002PRCP99
0186830960999992000012400004-10920-037050FM-12+000699999V0200901N003612200019N9999999N1+02661+02441100971ADDAA199000091GF101991011051012501001001KA1240M+03161MA1999999100901MD1999999-0121REMSYN076AAXX  24004 83096 326// 10907 10266 20244 30090 40097 81500 333 10316 59012;EQDQ01  00002PRCP99
0186830960999992000012412004-10920-037050FM-12+000699999V0200901N003112200019N0200001N1+02801+02341101031ADDAA199000091GF103991021051012501031001KA1240N+02181MA1999999100961MD1999999-0061REMSYN076AAXX  24124 83096 32698 30906 10280 20234 30096 40103 82530 333 20218 59006;EQDQ01  00002PRCP99
0186830960999992000012500004-10920-037050FM-12+000699999V0200901N003112200019N9999999N1+02661+02441100971ADDAA199000091GF101991011051012501001001KA1240M+02981MA1999999100901MD1999999+0001REMSYN076AAXX  25004 83096 326// 10906 10266 20244 30090 40097 81500 333 10298 58000;EQDQ01  00002PRCP99
0186830960999992000012512004-10920-037050FM-12+000699999V0200501N002112200019N0200001N1+02821+02361101201ADDAA199000091GF104991021051012501031001KA1240N+02221MA1999999101131MD1999999+0071REMSYN076AAXX  25124 83096 32698 40504 10282 20236 30113 40120 82530 333 20222 58007;EQDQ01  00002PRCP99
0167830960999992000012518004-10920-037050FM-12+000699999V0200901N003612200019N0200001N1+02921+02501101001ADDAA199000091GF101991011051012501001001MA1999999100931MD1999999+0121REMSYN070AAXX  25184 83096 32698 10907 10292 20250 30093 40100 81500 333 58012;EQDQ01  00002PRCP99
0186830960999992000012600004-10920-037050FM-12+000699999V0200901N004112200019N9999999N1+02681+02481101111ADDAA199000091GF101991011051012501001001KA1240M+03021MA1999999101041MD1999999+0141REMSYN076AAXX  26004 83096 326// 10908 10268 20248 30104 40111 81500 333 10302 58014;EQDQ01  00002PRCP99
0186830960999992000012612004-10920-037050FM-12+000699999V0200901N003612200019N0200001N1+02841+02421101271ADDAA199000091GF104991021051012501031001KA1240N+02321MA1999999101201MD1999999+0071REMSYN076AAXX  26124 83096 32698 40907 10284 20242 30120 40127 82530 333 20232 58007;EQDQ01  00002PRCP99
0167830960999992000012618004-10920-037050FM-12+000699999V0200901N005112200019N0200001N1+02901+02501101121ADDAA199000091GF101991011051012501001001MA1999999101071MD1999999+0041REMSYN070AAXX  26184 83096 32698 10910 10290 20250 30107 40112 81500 333 58004;EQDQ01  00002PRCP99
0186830960999992000012700004-10920-037050FM-12+000699999V0200901N002612200019N9999999N1+02681+02461101091ADDAA199000091GF101991011051012501001001KA1240M+02981MA1999999101021MD1999999-0021REMSYN076AAXX  27004 83096 326// 10905 10268 20246 30102 40109 81500 333 10298 59002;EQDQ01  00002PRCP99
0186830960999992000012712004-10920-037050FM-12+000699999V0200901N003612200019N0200001N1+02821+02291101221ADDAA199000091GF103991021051012501031001KA1240N+02201MA1999999101151MD1999999-0051REMSYN076AAXX  27124 83096 32698 30907 10282 20229 30115 40122 82530 333 20220 59005;EQDQ01  00002PRCP99
0167830960999992000012718004-10920-037050FM-12+000699999V0200901N005112200019N0200001N1+02861+02421101001ADDAA199000091GF101991011051012501001001MA1999999100931MD1999999-0141REMSYN070AAXX  27184 83096 32698 10910 10286 20242 30093 40100 81500 333 59014;EQDQ01  00002PRCP99
0186830960999992000012800004-10920-037050FM-12+000699999V0200901N003612200019N9999999N1+02681+02461101071ADDAA199000091GF101991011051012501001001KA1240M+02981MA1999999101001MD1999999-0021REMSYN076AAXX  28004 83096 326// 10907 10268 20246 30100 40107 81500 333 10298 59002;EQDQ01  00002PRCP99
0167830960999992000012818004-10920-037050FM-12+000699999V0200901N003112200019N0200001N1+02901+02501101001ADDAA199000091GF101991011051012501001001MA1999999100931MD1999999+0001REMSYN070AAXX  28184 83096 32698 10906 10290 20250 30093 40100 81500 333 58000;EQDQ01  00002PRCP99
0186830960999992000012900004-10920-037050FM-12+000699999V0200901N002112200019N9999999N1+02701+02461101111ADDAA199000091GF101991011051012501001001KA1240M+03001MA1999999101041MD1999999+0041REMSYN076AAXX  29004 83096 326// 10904 10270 20246 30104 40111 81500 333 10300 58004;EQDQ01  00002PRCP99
0186830960999992000012912004-10920-037050FM-12+000699999V0200901N001512200019N0200001N1+02821+02441101211ADDAA199000091GF104991021051012501031001KA1240N+02201MA1999999101141MD1999999+0011REMSYN076AAXX  29124 83096 32698 40903 10282 20244 30114 40121 82530 333 20220 58001;EQDQ01  00002PRCP99
0167830960999992000012918004-10920-037050FM-12+000699999V0200901N003112200019N0200001N1+02961+02471101161ADDAA199000091GF101991011051012501001001MA1999999101091MD1999999+0161REMSYN070AAXX  29184 83096 32698 10906 10296 20247 30109 40116 81500 333 58016;EQDQ01  00002PRCP99
0186830960999992000013000004-10920-037050FM-12+000699999V0200901N003612200019N9999999N1+02721+02431101231ADDAA199000091GF101991011051012501001001KA1240M+03021MA1999999101161MD1999999+0121REMSYN076AAXX  30004 83096 326// 10907 10272 20243 30116 40123 81500 333 10302 58012;EQDQ01  00002PRCP99
0186830960999992000013012004-10920-037050FM-12+000699999V0200901N001512200019N0200001N1+02841+02441101371ADDAA199000091GF102991021051012501001001KA1240N+02321MA1999999101301MD1999999+0161REMSYN076AAXX  30124 83096 32698 20903 10284 20244 30130 40137 82500 333 20232 58016;EQDQ01  00002PRCP99
0154830960999992000013018004-10920-037050FM-12+000699999V0200901N003112200019N0200001N1+02941+02431101291ADDAA106000591GF101991011051012501001001MA1999999101221MD1999999+0131REMSYN076AAXX  30184 83096 22698 10906 10294 20243 30122 40129 81500 333 58013 69961;
0186830960999992000013100004-10920-037050FM-12+000699999V0200901N003612200019N9999999N1+02721+02371101371ADDAA199000091GF101991011051012501001001KA1240M+03021MA1999999101301MD1999999+0141REMSYN076AAXX  31004 83096 326// 10907 10272 20237 30130 40137 81500 333 10302 58014;EQDQ01  00002PRCP99
0173830960999992000013112004-10920-037050FM-12+000699999V0200901N002112200019N0200001N1+02761+02281101471ADDAA124001091GF102991021051012501001001KA1240N+02221MA1999999101401MD1999999+0101REMSYN082AAXX  31124 83096 22698 20904 10276 20228 30140 40147 82500 333 20222 58010 60014;
0183830960999992000013118004-10920-037050FM-12+000699999V0201401N002112200019N0200001N1+02921+02391101321ADDAA199000091GF102991999011012501001001MA1999999101351MD1999999+0031REMSYN070AAXX  31184 83096 32698 21404 10292 20239 30135 40132 81100 333 58003;EQDQ01+000012SCOTLCQ02  00002PRCP99
0186830960999992000020100004-10920-037050FM-12+000699999V0200901N002112200019N9999999N1+02721+02281101371ADDAA199000091GF102991021051012501001001KA1240M+03041MA1999999101301MD1999999+0001REMSYN076AAXX  01004 83096 326// 20904 10272 20228 30130 40137 82500 333 10304 58000;EQDQ01  00002PRCP99
0186830960999992000020112004-10920-037050FM-12+000699999V0200501N003110450019N0200001N1+02831+02311101521ADDAA199000091GF106991041051012501031001KA1240N+02341MA1999999101451MD1999999+0201REMSYN076AAXX  01124 83096 32698 60506 10283 20231 30145 40152 84530 333 20234 58020;EQDQ01  00002PRCP99
0167830960999992000020118004-10920-037050FM-12+000699999V0200901N003112200019N0200001N1+02921+02581101181ADDAA199000091GF102991021051012501001001MA1999999101111MD1999999-0041REMSYN070AAXX  01184 83096 32698 20906 10292 20258 30111 40118 82500 333 59004;EQDQ01  00002PRCP99
0186830960999992000020200004-10920-037050FM-12+000699999V0200901N003612200019N9999999N1+02721+02371101171ADDAA199000091GF102991021051012501001001KA1240M+03041MA1999999101101MD1999999-0201REMSYN076AAXX  02004 83096 326// 20907 10272 20237 30110 40117 82500 333 10304 59020;EQDQ01  00002PRCP99
0186830960999992000020212004-10920-037050FM-12+000699999V0200501N001512200019N0200001N1+02801+02311101171ADDAA199000091GF101991011051012501001001KA1240N+02161MA1999999101101MD1999999-0351REMSYN076AAXX  02124 83096 32698 10503 10280 20231 30110 40117 81500 333 20216 59035;EQDQ01  00002PRCP99
0171830960999992000020300004-10920-037050FM-12+000699999V0200901N003612200019N9999999N1+02721+02501100911ADDAA199000091GF102991999999012501999999KA1240M+03021MA1999999100841REMSYN075AAXX  03004 83096 326// 20907 10272 20250 30084 40091 8200 333 10302 59026;EQDQ01  00002PRCP99
0186830960999992000020312004-10920-037050FM-12+000699999V0200501N002110120019N0200001N1+02961+02451100941ADDAA199000091GF106991061051012501001001KA1240N+02271MA1999999100871MD1999999-0231REMSYN076AAXX  03124 83096 32698 60504 10296 20245 30087 40094 86500 333 20227 59023;EQDQ01  00002PRCP99
0167830960999992000020318004-10920-037050FM-12+000699999V0200901N005110450019N0200001N1+02941+02431100521ADDAA199000091GF106991041051012501031001MA1999999100451MD1999999-0341REMSYN070AAXX  03184 83096 32698 60910 10294 20243 30045 40052 84530 333 59034;EQDQ01  00002PRCP99
0186830960999992000020400004-10920-037050FM-12+000699999V0200901N004112200019N9999999N1+02781+02501100791ADDAA199000091GF102991021051012501001001KA1240M+03101MA1999999100721MD1999999-0121REMSYN076AAXX  04004 83096 326// 20908 10278 20250 30072 40079 82500 333 10310 59012;EQDQ01  00002PRCP99
0186830960999992000020412004-10920-037050FM-12+000699999V0203601N002610120019N0040001N1+02801+02271101071ADDAA199000091GF105991051051012501001001KA1240N+02381MA1999999101001MD1999999+0131REMSYN076AAXX  04124 83096 32696 53605 10280 20227 30100 40107 85500 333 20238 58013;EQDQ01  00002PRCP99
0167830960999992000020418004-10920-037050FM-12+000699999V0203201N003610120019N0100001N1+03061+02171100981ADDAA199000091GF108991081051012501999999MA1999999100911MD1999999+0461REMSYN070AAXX  04184 83096 32697 83207 10306 20217 30091 40098 885// 333 58046;EQDQ01  00002PRCP99
0186830960999992000020500004-10920-037050FM-12+000699999V0201401N001512200019N9999999N1+02741+02471101091ADDAA199000091GF103991031051012501001001KA1240M+03111MA1999999101021MD1999999+0301REMSYN076AAXX  05004 83096 326// 31403 10274 20247 30102 40109 83500 333 10311 58030;EQDQ01  00002PRCP99
0186830960999992000020512004-10920-037050FM-12+000699999V0200501N003612200019N0200001N1+02861+02311101291ADDAA199000091GF102991021051012501001001KA1240N+02301MA1999999101221MD1999999+0221REMSYN076AAXX  05124 83096 32698 20507 10286 20231 30122 40129 82500 333 20230 58022;EQDQ01  00002PRCP99
0167830960999992000020518004-10920-037050FM-12+000699999V0200901N006212200019N0200001N1+02981+02471100981ADDAA199000091GF101991011011012501001001MA1999999100911MD1999999+0001REMSYN070AAXX  05184 83096 32698 10912 10298 20247 30091 40098 81100 333 58000;EQDQ01  00002PRCP99
0202830960999992000020612004-10920-037050FM-12+000699999V0200501N003112200019N0200001N1+02861+02441101341ADDAA199000091GF102991999051012501001001KA1240N+02291MA1999999101271MD1999999+0051REMSYN076AAXX  06124 83096 32698 20506 10286 20244 30127 40134 83500 333 20229 58005;EQDQ01+000032SCOTLCQ02  00002PRCP99
0167830960999992000020618004-10920-037050FM-12+000699999V0200901N005112200019N0200001N1+02951+02681101101ADDAA199000091GF102991021051012501001001MA1999999101031MD1999999+0121REMSYN070AAXX  06184 83096 32698 20910 10295 20268 30103 40110 82500 333 58012;EQDQ01  00002PRCP99
0186830960999992000020700004-10920-037050FM-12+000699999V0200901N004112200019N9999999N1+02701+02431101171ADDAA199000091GF101991011011012501001001KA1240M+03071MA1999999101101MD1999999+0041REMSYN076AAXX  07004 83096 326// 10908 10270 20243 30110 40117 81100 333 10307 58004;EQDQ01  00002PRCP99
0186830960999992000020712004-10920-037050FM-12+000699999V0200901N003112200019N0200001N1+02881+02301101411ADDAA199000091GF102991021051012501001001KA1240N+02181MA1999999101341MD1999999+0071REMSYN076AAXX  07124 83096 32698 20906 10288 20230 30134 40141 82500 333 20218 58007;EQDQ01  00002PRCP99
0167830960999992000020718004-10920-037050FM-12+000699999V0201401N002112200019N0200001N1+02951+02291101131ADDAA199000091GF101991011011012501001001MA1999999101061MD1999999+0031REMSYN070AAXX  07184 83096 32698 11404 10295 20229 30106 40113 81100 333 58003;EQDQ01  00002PRCP99
0186830960999992000020800004-10920-037050FM-12+000699999V0201401N002112200019N9999999N1+02741+02241101271ADDAA199000091GF101991011051012501001001KA1240M+03061MA1999999101201MD1999999+0101REMSYN076AAXX  08004 83096 326// 11404 10274 20224 30120 40127 81500 333 10306 58010;EQDQ01  00002PRCP99
0186830960999992000020812004-10920-037050FM-12+000699999V0200501N002112200019N0200001N1+02841+02291101431ADDAA199000091GF102991021051012501001001KA1240N+02061MA1999999101361MD1999999+0021REMSYN076AAXX  08124 83096 32698 20504 10284 20229 30136 40143 82500 333 20206 58002;EQDQ01  00002PRCP99
0167830960999992000020818004-10920-037050FM-12+000699999V0200901N005112200019N0200001N1+02941+02431101061ADDAA199000091GF102991021051012501001001MA1999999100991MD1999999-0071REMSYN070AAXX  08184 83096 32698 20910 10294 20243 30099 40106 82500 333 59007;EQDQ01  00002PRCP99
0186830960999992000020900004-10920-037050FM-12+000699999V0200901N004112200019N9999999N1+02741+02321101221ADDAA199000091GF101991011051012501001001KA1240M+03041MA1999999101161MD1999999-0041REMSYN076AAXX  09004 83096 326// 10908 10274 20232 30116 40122 81500 333 10304 59004;EQDQ01  00002PRCP99
0186830960999992000020912004-10920-037050FM-12+000699999V0200901N004112200019N0200001N1+02941+02331101381ADDAA199000091GF102991021051012501001001KA1240N+02281MA1999999101311MD1999999-0051REMSYN076AAXX  09124 83096 32698 20908 10294 20233 30131 40138 82500 333 20228 59005;EQDQ01  00002PRCP99
0167830960999992000020918004-10920-037050FM-12+000699999V0200901N004612200019N0200001N1+02961+02401101111ADDAA199000091GF101991011011012501001001MA1999999101041MD1999999+0051REMSYN070AAXX  09184 83096 32698 10909 10296 20240 30104 40111 81100 333 58005;EQDQ01  00002PRCP99
0173830960999992000021012004-10920-037050FM-12+000699999V0200501N002110120019N0200001N1+02501+02171101311ADDAA124000891GF106991061051012501001001KA1240N+02101MA1999999101241MD1999999-0071REMSYN082AAXX  10124 83096 22698 60504 10250 20217 30124 40131 86500 333 20210 59007 69984;
0167830960999992000021018004-10920-037050FM-12+000699999V0200901N004610120019N0200001N1+02751+02321101091ADDAA199000091GF107991071051012501001001MA1999999101021MD1999999-0021REMSYN070AAXX  10184 83096 32698 70909 10275 20232 30102 40109 87500 333 59002;EQDQ01  00002PRCP99
0186830960999992000021100004-10920-037050FM-12+000699999V0200901N002612200019N9999999N1+02721+02451101211ADDAA199000091GF104991041051012501001001KA1240M+02941MA1999999101141MD1999999+0021REMSYN076AAXX  11004 83096 326// 40905 10272 20245 30114 40121 84500 333 10294 58002;EQDQ01  00002PRCP99
0186830960999992000021112004-10920-037050FM-12+000699999V0201801N003112200019N0200001N1+02951+02331101371ADDAA199000091GF102991021051012501001001KA1240N+02281MA1999999101301MD1999999+0061REMSYN076AAXX  11124 83096 32698 21806 10295 20233 30130 40137 82500 333 20228 58006;EQDQ01  00002PRCP99
0167830960999992000021118004-10920-037050FM-12+000699999V0201801N003112200019N0200001N1+02961+02211101191ADDAA199000091GF101991011011012501001001MA1999999101121MD1999999+0101REMSYN070AAXX  11184 83096 32698 11806 10296 20221 30112 40119 81100 333 58010;EQDQ01  00002PRCP99
0186830960999992000021200004-10920-037050FM-12+000699999V0200901N002112200019N9999999N1+02701+02171101191ADDAA199000091GF101991011051012501001001KA1240M+03081MA1999999101121MD1999999-0021REMSYN076AAXX  12004 83096 326// 10904 10270 20217 30112 40119 81500 333 10308 59002;EQDQ01  00002PRCP99
0173830960999992000021212004-10920-037050FM-12+000699999V0200901N002112200019N0200001N1+02921+02361101271ADDAA124000191GF103991031051012501001001KA1240N+02321MA1999999101201MD1999999-0101REMSYN082AAXX  12124 83096 22698 30904 10292 20236 30120 40127 83500 333 20232 59010 69924;
0167830960999992000021218004-10920-037050FM-12+000699999V0200901N002612200019N0200001N1+02941+02331101181ADDAA199000091GF101991011051012501001001MA1999999101111MD1999999-0011REMSYN070AAXX  12184 83096 32698 10905 10294 20233 30111 40118 81500 333 59001;EQDQ01  00002PRCP99
0186830960999992000021300004-10920-037050FM-12+000699999V0201401N001512200019N9999999N1+02761+02281101091ADDAA199000091GF102991021051012501001001KA1240M+03021MA1999999101021MD1999999-0101REMSYN076AAXX  13004 83096 326// 21403 10276 20228 30102 40109 82500 333 10302 59010;EQDQ01  00002PRCP99
0173830960999992000021312004-10920-037050FM-12+000699999V0201801N001512200019N0200001N1+02541+02351101171ADDAA124017091GF102991021051012501001001KA1240N+02141MA1999999101101MD1999999-0101REMSYN082AAXX  13124 83096 22698 21803 10254 20235 30110 40117 82500 333 20214 59010 60174;
0154830960999992000021318004-10920-037050FM-12+000699999V0200901N001510120019N0200001N1+02741+02451101091ADDAA106000591GF105991051051012501001001MA1999999101021MD1999999-0091REMSYN076AAXX  13184 83096 22698 50903 10274 20245 30102 40109 85500 333 59009 69961;
0201830960999992000021400004-10920-037050FM-12+000699999V0201401N002110075019N9999999N1+02601+02231101191ADDAA106002091AY161061AY261061GF106991061051008001001001KA1240M+03001MA1999999101121MD1999999+0101MW1601REMSYN088AAXX  14004 83096 215// 61404 10260 20223 30112 40119 76066 86500 333 10300 58010 60021;
0173830960999992000021412004-10920-037050FM-12+000699999V0202701N001510120019N0200001N1+02341+02221101361ADDAA124137991GF106991061051012501001001KA1240N+01881MA1999999101291MD1999999+0191REMSYN082AAXX  14124 83096 22698 62703 10234 20222 30129 40136 86500 333 20188 58019 61384;
0167830960999992000021418004-10920-037050FM-12+000699999V0202201N001510075019N0100001N1+02701+02521101091ADDAA199000091GF108991081051008001999999MA1999999101021MD1999999+0001REMSYN070AAXX  14184 83096 32597 82203 10270 20252 30102 40109 885// 333 58000;EQDQ01  00002PRCP99
0186830960999992000021500004-10920-037050FM-12+000699999V0201401N001510120019N9999999N1+02621+02461101191ADDAA199000091GF105991051051012501001001KA1240M+02741MA1999999101121MD1999999+0001REMSYN076AAXX  15004 83096 326// 51403 10262 20246 30112 40119 85500 333 10274 58000;EQDQ01  00002PRCP99
0201830960999992000021512004-10920-037050FM-12+000699999V0200501N000510075019N0100001N1+02511+02291101231ADDAA124003091AY161061AY261061GF108991081051008001999999KA1240N+02131MA1999999101161MD1999999-0131MW1601REMSYN088AAXX  15124 83096 21597 80501 10251 20229 30116 40123 76066 885// 333 20213 59013 60034;
0182830960999992000021518004-10920-037050FM-12+000699999V0201801N001010075019N0100001N1+02641+02411101031ADDAA106005191AY161061AY261061GF108991081051008001999999MA1999999100961MD1999999-0061MW1601REMSYN082AAXX  15184 83096 21597 81802 10264 20241 30096 40103 76066 885// 333 59006 60051;
0173830960999992000021600004-10920-037050FM-12+000699999V0200901N001512200019N9999999N1+02481+02341101211ADDAA106000591GF104991041051012501001001KA1240M+02801MA1999999101141MD1999999+0021REMSYN082AAXX  16004 83096 226// 40903 10248 20234 30114 40121 84500 333 10280 58002 69941;
0201830960999992000021612004-10920-037050FM-12+000699999V0203601N001010075019N0100001N1+02461+02281101221ADDAA124019191AY161061AY261061GF108991081051008001999999KA1240N+02201MA1999999101151MD1999999-0011MW1601REMSYN088AAXX  16124 83096 21597 83602 10246 20228 30115 40122 76066 885// 333 20220 59001 60194;
0182830960999992000021618004-10920-037050FM-12+000699999V0201801N002610075019N0100001N1+02451+02231101071ADDAA106006191AY161061AY261061GF108991081051008001999999MA1999999101001MD1999999+0041MW1601REMSYN082AAXX  16184 83096 21597 81805 10245 20223 30100 40107 76066 885// 333 58004 60061;
0167830960999992000021700004-10920-037050FM-12+000699999V0200901N001510120019N9999999N1+02421+02301101161ADDAA199000021GF106991061051012501001001KA1240M+02591MA1999999101091MD1999999-0051REMSYN076AAXX  17004 83096 326// 60903 10242 20230 30109 40116 86500 333 10259 59005;
0173830960999992000021712004-10920-037050FM-12+000699999V0200501N002110450019N0200001N1+02801+02311101241ADDAA124011991GF105991031051012501031001KA1240N+02011MA1999999101171MD1999999+0171REMSYN082AAXX  17124 83096 22698 50504 10280 20231 30117 40124 83530 333 20201 58017 60124;
0167830960999992000021718004-10920-037050FM-12+000699999V0201801N003112200019N0200001N1+02881+02581100981ADDAA199000091GF103991011051012501031011MA1999999100911MD1999999-0091REMSYN070AAXX  17184 83096 32698 31806 10288 20258 30091 40098 81531 333 59009;EQDQ01  00002PRCP99
0186830960999992000021800004-10920-037050FM-12+000699999V0200901N003612200019N9999999N1+02721+02471101091ADDAA199000091GF102991021051012501001001KA1240M+02941MA1999999101021MD1999999-0071REMSYN076AAXX  18004 83096 326// 20907 10272 20247 30102 40109 82500 333 10294 59007;EQDQ01  00002PRCP99
0186830960999992000021812004-10920-037050FM-12+000699999V0200901N003612200019N0200001N1+02881+02391101211ADDAA199000091GF102991021051012501001001KA1240N+02381MA1999999101141MD1999999-0031REMSYN076AAXX  18124 83096 32698 20907 10288 20239 30114 40121 82500 333 20238 59003;EQDQ01  00002PRCP99
0167830960999992000021818004-10920-037050FM-12+000699999V0200901N003612200019N0200001N1+02901+02431101091ADDAA199000091GF102991021051012501001001MA1999999101021MD1999999+0111REMSYN070AAXX  18184 83096 32698 20907 10290 20243 30102 40109 82500 333 58011;EQDQ01  00002PRCP99
0186830960999992000021900004-10920-037050FM-12+000699999V0200901N002112200019N9999999N1+02721+02221101191ADDAA199000091GF101991011051012501001001KA1240M+02961MA1999999101121MD1999999+0101REMSYN076AAXX  19004 83096 326// 10904 10272 20222 30112 40119 81500 333 10296 58010;EQDQ01  00002PRCP99
0186830960999992000021912004-10920-037050FM-12+000699999V0201801N002112200019N0200001N1+02901+02341101321ADDAA199000091GF103991031051012501001001KA1240N+02081MA1999999101251MD1999999+0111REMSYN076AAXX  19124 83096 32698 31804 10290 20234 30125 40132 83500 333 20208 58011;EQDQ01  00002PRCP99
0167830960999992000021918004-10920-037050FM-12+000699999V0201401N003112200019N0200001N1+02921+02241101141ADDAA199000091GF103991031051012501001001MA1999999101071MD1999999+0051REMSYN070AAXX  19184 83096 32698 31406 10292 20224 30107 40114 83500 333 58005;EQDQ01  00002PRCP99
0186830960999992000022000004-10920-037050FM-12+000699999V0201401N003112200019N9999999N1+02731+02241101251ADDAA199000091GF104991041051012501001001KA1240M+03061MA1999999101181MD1999999+0061REMSYN076AAXX  20004 83096 326// 41406 10273 20224 30118 40125 84500 333 10306 58006;EQDQ01  00002PRCP99
0186830960999992000022012004-10920-037050FM-12+000699999V0201801N001010120019N0200001N1+02661+02161101381ADDAA199000091GF106991061051012501001001KA1240N+02291MA1999999101311MD1999999+0061REMSYN076AAXX  20124 83096 32698 61802 10266 20216 30131 40138 86500 333 20229 58006;EQDQ01  00002PRCP99
0154830960999992000022018004-10920-037050FM-12+000699999V0201801N003610075019N0100001N1+02681+02461101171ADDAA112001091GF108991081051008001999999MA1999999101101MD1999999+0031REMSYN076AAXX  20184 83096 21597 81807 10268 20246 30110 40117 885// 333 58003 60012;
0173830960999992000022100004-10920-037050FM-12+000699999V0201801N002110120019N9999999N1+02631+02331101231ADDAA106002091GF106991061051012501001001KA1240M+02921MA1999999101161MD1999999-0021REMSYN082AAXX  21004 83096 226// 61804 10263 20233 30116 40123 86500 333 10292 59002 60021;
0167830960999992000022118004-10920-037050FM-12+000699999V0201801N003112200019N0200001N1+02821+02481100961ADDAA199000091GF102991021051012501001001MA1999999100891MD1999999-0211REMSYN070AAXX  21184 83096 32698 21806 10282 20248 30089 40096 82500 333 59021;EQDQ01  00002PRCP99
0173830960999992000022200004-10920-037050FM-12+000699999V0201801N003112200019N9999999N1+02661+02351101111ADDAA106001091GF103991031051012501001001KA1240M+02861MA1999999101041MD1999999-0121REMSYN082AAXX  22004 83096 226// 31806 10266 20235 30104 40111 83500 333 10286 59012 60011;
0173830960999992000022212004-10920-037050FM-12+000699999V0202701N001510120019N0200001N1+02601+02401101261ADDAA124009991GF106991061051012501001001KA1240N+02041MA1999999101191MD1999999-0061REMSYN082AAXX  22124 83096 22698 62703 10260 20240 30119 40126 86500 333 20204 59006 60104;
0182830960999992000022218004-10920-037050FM-12+000699999V0201801N003110075019N0100001N1+02681+02521101051ADDAA106005191AY161061AY261061GF108991081051008001999999MA1999999100981MD1999999+0091MW1601REMSYN082AAXX  22184 83096 21597 81806 10268 20252 30098 40105 76066 885// 333 58009 60051;
0167830960999992000022300004-10920-037050FM-12+000699999V0201801N001512200019N9999999N1+02681+02371101131ADDAA199000021GF102991021051012501001001KA1240M+02741MA1999999101061MD1999999+0021REMSYN076AAXX  23004 83096 326// 21803 10268 20237 30106 40113 82500 333 10274 58002;
0201830960999992000022312004-10920-037050FM-12+000699999V0200901N002110075019N0100001N1+02331+02271101321ADDAA124036191AY161061AY261061GF108991081071008001999999KA1240N+02001MA1999999101251MD1999999+0061MW1601REMSYN088AAXX  23124 83096 21597 80904 10233 20227 30125 40132 76066 887// 333 20200 58006 60364;
0167830960999992000022400004-10920-037050FM-12+000699999V0200901N001512200019N9999999N1+02581+02331101131ADDAA199000021GF104991041051012501001001KA1240M+02571MA1999999101061MD1999999+0001REMSYN076AAXX  24004 83096 326// 40903 10258 20233 30106 40113 84500 333 10257 58000;
0173830960999992000022412004-10920-037050FM-12+000699999V0201801N001510120019N0200001N1+02341+02171101191ADDAA124018091GF106991061051012501001001KA1240N+01941MA1999999101121MD1999999-0131REMSYN082AAXX  24124 83096 22698 61803 10234 20217 30112 40119 86500 333 20194 59013 60184;
0167830960999992000022418004-10920-037050FM-12+000699999V0201801N002110120019N0200001N1+02621+02331101041ADDAA199000091GF107991071051012501001001MA1999999100971MD1999999+0011REMSYN070AAXX  24184 83096 32698 71804 10262 20233 30097 40104 87500 333 58001;EQDQ01  00002PRCP99
0186830960999992000022500004-10920-037050FM-12+000699999V0200901N001512200019N9999999N1+02561+02351101061ADDAA199000091GF101991011051012501001001KA1240M+02691MA1999999100991MD1999999-0071REMSYN076AAXX  25004 83096 326// 10903 10256 20235 30099 40106 81500 333 10269 59007;EQDQ01  00002PRCP99
0173830960999992000022512004-10920-037050FM-12+000699999V0200901N001510120019N0200001N1+02821+02521101231ADDAA124000591GF106991061051012501001001KA1240N+02021MA1999999101161MD1999999+0041REMSYN082AAXX  25124 83096 22698 60903 10282 20252 30116 40123 86500 333 20202 58004 69944;
0154830960999992000022518004-10920-037050FM-12+000699999V0201801N001510120019N0200001N1+02701+02371101071ADDAA106000191GF107991071051012501001001MA1999999101001MD1999999+0061REMSYN076AAXX  25184 83096 22698 71803 10270 20237 30100 40107 87500 333 58006 69911;
0186830960999992000022600004-10920-037050FM-12+000699999V0200901N003112200019N9999999N1+02681+02461101101ADDAA199000091GF102991021051012501001001KA1240M+02941MA1999999101031MD1999999+0041REMSYN076AAXX  26004 83096 326// 20906 10268 20246 30103 40110 82500 333 10294 58004;EQDQ01  00002PRCP99
0173830960999992000022612004-10920-037050FM-12+000699999V0200901N001512200019N0200001N1+02801+02481101211ADDAA124000391GF102991021051012501001001KA1240N+02061MA1999999101141MD1999999-0021REMSYN082AAXX  26124 83096 22698 20903 10280 20248 30114 40121 82500 333 20206 59002 69934;
0167830960999992000022618004-10920-037050FM-12+000699999V0200901N002612200019N0200001N1+02901+02391101101ADDAA199000091GF102991021051012501001001MA1999999101031MD1999999+0031REMSYN070AAXX  26184 83096 32698 20905 10290 20239 30103 40110 82500 333 58003;EQDQ01  00002PRCP99
0186830960999992000022700004-10920-037050FM-12+000699999V0200901N002612200019N9999999N1+02721+02371101111ADDAA199000091GF101991011051012501001001KA1240M+02961MA1999999101041MD1999999+0011REMSYN076AAXX  27004 83096 326// 10905 10272 20237 30104 40111 81500 333 10296 58001;EQDQ01  00002PRCP99
0186830960999992000022712004-10920-037050FM-12+000699999V0200901N002112200019N0200001N1+02881+02321101191ADDAA199000091GF102991021051012501001001KA1240N+02081MA1999999101121MD1999999-0021REMSYN076AAXX  27124 83096 32698 20904 10288 20232 30112 40119 82500 333 20208 59002;EQDQ01  00002PRCP99
0167830960999992000022718004-10920-037050FM-12+000699999V0200901N002112200019N0200001N1+02941+02361101081ADDAA199000091GF101991011051012501001001MA1999999101011MD1999999-0021REMSYN070AAXX  27184 83096 32698 10904 10294 20236 30101 40108 81500 333 59002;EQDQ01  00002PRCP99
0202830960999992000022800004-10920-037050FM-12+000699999V0200901N003112200019N9999999N1+02741+02341101111ADDAA199000091GF103991999051012501001001KA1240M+03021MA1999999101041MD1999999+0001REMSYN076AAXX  28004 83096 326// 30906 10274 20234 30104 40111 82500 333 10302 58000;EQDQ01+000022SCOTLCQ02  00002PRCP99
0153830960999992000022812004-10920-037050FM-12+000699999V0200901N001512200019N0200001N1+02801+02341101181ADDAA124002091GF102991021051012501001001KA1240N+02261MA1999999101111REMSYN076AAXX  28124 83096 22698 20903 10280 20234 30111 40118 82500 333 20226 60024;
0167830960999992000022818004-10920-037050FM-12+000699999V0200901N003112200019N0200001N1+02921+02321101081ADDAA199000091GF103991021051012501031001MA1999999101011MD1999999+0001REMSYN070AAXX  28184 83096 32698 30906 10292 20232 30101 40108 82530 333 58000;EQDQ01  00002PRCP99
0186830960999992000022900004-10920-037050FM-12+000699999V0201401N002612200019N9999999N1+02721+02281101111ADDAA199000091GF101991011051012501001001KA1240M+02981MA1999999101041MD1999999+0001REMSYN076AAXX  29004 83096 326// 11405 10272 20228 30104 40111 81500 333 10298 58000;EQDQ01  00002PRCP99
0186830960999992000022912004-10920-037050FM-12+000699999V0200901N001512200019N0200001N1+02741+02381101141ADDAA199000091GF103991021051012501031001KA1240N+02181MA1999999101071MD1999999-0041REMSYN076AAXX  29124 83096 32698 30903 10274 20238 30107 40114 82530 333 20218 59004;EQDQ01  00002PRCP99
0167830960999992000022918004-10920-037050FM-12+000699999V0200901N002612200019N0200001N1+02921+02291101241ADDAA199000091GF104991021051012501031001MA1999999101171MD1999999+0161REMSYN070AAXX  29184 83096 32698 40905 10292 20229 30117 40124 82530 333 58016;EQDQ01  00002PRCP99
0186830960999992000030100004-10920-037050FM-12+000699999V0201401N002112200019N9999999N1+02701+02171101231ADDAA199000091GF101991011051012501001001KA1240M+02981MA1999999101161MD1999999+0121REMSYN076AAXX  01004 83096 326// 11404 10270 20217 30116 40123 81500 333 10298 58012;EQDQ01  00002PRCP99
0173830960999992000030112004-10920-037050FM-12+000699999V0200901N001510120019N0200001N1+02521+02361101311ADDAA124004191GF106991061051012501001001KA1240N+02201MA1999999101241MD1999999+0171REMSYN082AAXX  01124 83096 22698 60903 10252 20236 30124 40131 86500 333 20220 58017 60044;
0167830960999992000030118004-10920-037050FM-12+000699999V0201801N003110075019N0100001N1+02861+02441101191ADDAA199000091GF108991081051008001999999MA1999999101121MD1999999-0051REMSYN070AAXX  01184 83096 32597 81806 10286 20244 30112 40119 885// 333 59005;EQDQ01  00002PRCP99
0186830960999992000030200004-10920-037050FM-12+000699999V0200901N002112200019N9999999N1+02721+02301101291ADDAA199000091GF103991031051012501001001KA1240M+02941MA1999999101221MD1999999+0061REMSYN076AAXX  02004 83096 326// 30904 10272 20230 30122 40129 83500 333 10294 58006;EQDQ01  00002PRCP99
0201830960999992000030212004-10920-037050FM-12+000699999V0200501N001510075019N0100001N1+02481+02431101401ADDAA124008991AY161061AY261061GF108991081051008001999999KA1240N+02061MA1999999101331MD1999999+0091MW1601REMSYN088AAXX  02124 83096 21597 80503 10248 20243 30133 40140 76066 885// 333 20206 58009 60094;
0148830960999992000030218004-10920-037050FM-12+000699999V0200901N002112200019N0200001N1+02901+02541101091ADDAA199000021GF102991021051012501001001MA1999999101021MD1999999-0101REMSYN070AAXX  02184 83096 32698 20904 10290 20254 30102 40109 82500 333 59010;
0167830960999992000030300004-10920-037050FM-12+000699999V0200901N002112200019N9999999N1+02721+02371101091ADDAA199000021GF102991021051012501001001KA1240M+03001MA1999999101021MD1999999-0201REMSYN076AAXX  03004 83096 326// 20904 10272 20237 30102 40109 82500 333 10300 59020;
0173830960999992000030312004-10920-037050FM-12+000699999V0200901N001512200019N0200001N1+02721+02391101231ADDAA124003091GF103991031051008001001001KA1240N+02121MA1999999101161MD1999999-0171REMSYN082AAXX  03124 83096 22598 30903 10272 20239 30116 40123 83500 333 20212 59017 60034;
0167830960999992000030318004-10920-037050FM-12+000699999V0200901N002112200019N0200001N1+02911+02501101001ADDAA199000091GF101991011051012501001001MA1999999100931MD1999999-0091REMSYN070AAXX  03184 83096 32698 10904 10291 20250 30093 40100 81500 333 59009;EQDQ01  00002PRCP99
0186830960999992000030400004-10920-037050FM-12+000699999V0200901N002112200019N9999999N1+02721+02321101111ADDAA199000091GF101991011051012501001001KA1240M+03011MA1999999101041MD1999999+0021REMSYN076AAXX  04004 83096 326// 10904 10272 20232 30104 40111 81500 333 10301 58002;EQDQ01  00002PRCP99
0167830960999992000030418004-10920-037050FM-12+000699999V0200901N002110450019N0200001N1+02861+02211101181ADDAA199000091GF106991041051012501031001MA1999999101111MD1999999+0181REMSYN070AAXX  04184 83096 32698 60904 10286 20221 30111 40118 84530 333 58018;EQDQ01  00002PRCP99
0201830960999992000030512004-10920-037050FM-12+000699999V0201801N001010075019N0100001N1+02741+02281101431ADDAA124010991AY161061AY261061GF108991081051008001999999KA1240N+02121MA1999999101361MD1999999+0121MW1601REMSYN088AAXX  05124 83096 21597 81802 10274 20228 30136 40143 76066 885// 333 20212 58012 60114;
0148830960999992000030518004-10920-037050FM-12+000699999V0201801N002110120019N0200001N1+02861+02421101171ADDAA199000021GF106991061051012501001001MA1999999101101MD1999999-0011REMSYN070AAXX  05184 83096 32698 61804 10286 20242 30110 40117 86500 333 59001;
0167830960999992000030600004-10920-037050FM-12+000699999V0201801N003112200019N9999999N1+02711+02411101361ADDAA199000021GF101991011051012501001001KA1240M+02981MA1999999101291MD1999999-0031REMSYN076AAXX  06004 83096 326// 11806 10271 20241 30129 40136 81500 333 10298 59003;
0201830960999992000030612004-10920-037050FM-12+000699999V0201801N003110075019N0100001N1+02611+02441101311ADDAA124002091AY161061AY261061GF108991081051008001999999KA1240N+02091MA1999999101241MD1999999-0121MW1601REMSYN088AAXX  06124 83096 21597 81806 10261 20244 30124 40131 76066 885// 333 20209 59012 60024;
0148830960999992000030618004-10920-037050FM-12+000699999V0201801N004112200019N0200001N1+02821+02461101071ADDAA199000021GF106991031051012501001011MA1999999101001MD1999999-0101REMSYN070AAXX  06184 83096 32698 61808 10282 20246 30100 40107 83501 333 59010;
0167830960999992000030700004-10920-037050FM-12+000699999V0201801N002112200019N9999999N1+02711+02461101181ADDAA199000021GF101991011011012501001001KA1240M+02971MA1999999101111MD1999999-0181REMSYN076AAXX  07004 83096 326// 11804 10271 20246 30111 40118 81100 333 10297 59018;
0173830960999992000030712004-10920-037050FM-12+000699999V0200901N002610450019N0200001N1+02771+02341101181ADDAA124002091GF106991021051012501031011KA1240N+02121MA1999999101111MD1999999-0131REMSYN082AAXX  07124 83096 22698 60905 10277 20234 30111 40118 82531 333 20212 59013 60024;
0167830960999992000030718004-10920-037050FM-12+000699999V0200901N002112200019N0200001N1+02901+02301101081ADDAA199000091GF103991021051012501031001MA1999999101011MD1999999+0011REMSYN070AAXX  07184 83096 32698 30904 10290 20230 30101 40108 82530 333 58001;EQDQ01  00002PRCP99
0186830960999992000030800004-10920-037050FM-12+000699999V0200901N002112200019N9999999N1+02721+02371101011ADDAA199000091GF102991021051012501001001KA1240M+02961MA1999999100711MD1999999-0171REMSYN076AAXX  08004 83096 326// 20904 10272 20237 30071 40101 82500 333 10296 59017;EQDQ01  00002PRCP99
0186830960999992000030812004-10920-037050FM-12+000699999V0203601N001519999999N9999999N1+02841+02421101041ADDAA199000091GF106991021051999999031011KA1240N+02121MA1999999100971MD1999999-0141REMSYN076AAXX  08124 83096 3298/ 63603 10284 20242 30097 40104 82531 333 20212 59014;EQDQ01  00002PRCP99
0167830960999992000030818004-10920-037050FM-12+000699999V0200901N002110450019N0200001N1+02811+02501100961ADDAA199000091GF106991021051012501031011MA1999999100891MD1999999-0121REMSYN070AAXX  08184 83096 32698 60904 10281 20250 30089 40096 82531 333 59012;EQDQ01  00002PRCP99
0186830960999992000030900004-10920-037050FM-12+000699999V0201401N002612200019N9999999N1+02771+02501101041ADDAA199000091GF104991041051012501001001KA1240M+02971MA1999999100971MD1999999+0031REMSYN076AAXX  09004 83096 326// 41405 10277 20250 30097 40104 84500 333 10297 58003;EQDQ01  00002PRCP99
0186830960999992000030912004-10920-037050FM-12+000699999V0200901N001510450019N0200001N1+02821+02401101171ADDAA199000091GF106991031051012501031011KA1240N+02201MA1999999101101MD1999999+0131REMSYN076AAXX  09124 83096 32698 60903 10282 20240 30110 40117 83531 333 20220 58013;EQDQ01  00002PRCP99
0167830960999992000030918004-10920-037050FM-12+000699999V0200901N003111050019N0200001N1+02881+02301101081ADDAA199000091GF105991021051012501031011MA1999999101011MD1999999+0121REMSYN070AAXX  09184 83096 32698 50906 10288 20230 30101 40108 82531 333 58012;EQDQ01  00002PRCP99
0186830960999992000031000004-10920-037050FM-12+000699999V0200901N004612200019N9999999N1+02761+02441101171ADDAA199000091GF102991021051012501001001KA1240M+03021MA1999999101101MD1999999+0131REMSYN076AAXX  10004 83096 326// 20909 10276 20244 30110 40117 82500 333 10302 58013;EQDQ01  00002PRCP99
0173830960999992000031012004-10920-037050FM-12+000699999V0200901N003112200019N0200001N1+02821+02461101211ADDAA124005191GF103991031051012501001001KA1240N+02281MA1999999101141MD1999999+0041REMSYN082AAXX  10124 83096 22698 30906 10282 20246 30114 40121 83500 333 20228 58004 60054;
0167830960999992000031018004-10920-037050FM-12+000699999V0201801N003110450019N0200001N1+02961+02661101061ADDAA199000091GF107991041051012501031001MA1999999100991MD1999999-0021REMSYN070AAXX  10184 83096 32698 71806 10296 20266 30099 40106 84530 333 59002;EQDQ01  00002PRCP99
0186830960999992000031100004-10920-037050FM-12+000699999V0200901N004612200019N9999999N1+02761+02441101171ADDAA199000091GF102991021051012501001001KA1240M+03021MA1999999101101MD1999999+0131REMSYN076AAXX  11004 83096 326// 20909 10276 20244 30110 40117 82500 333 10302 58013;EQDQ01  00002PRCP99
0173830960999992000031112004-10920-037050FM-12+000699999V0203601N001012200019N0200001N1+02801+02521101171ADDAA124003091GF104991041051012501001001KA1240N+02161MA1999999101101MD1999999-0041REMSYN082AAXX  11124 83096 22698 43602 10280 20252 30110 40117 84500 333 20216 59004 60034;
0167830960999992000031118004-10920-037050FM-12+000699999V0200901N001512200019N0200001N1+02921+02431101061ADDAA199000091GF103991021051012501031001MA1999999100991MD1999999+0001REMSYN070AAXX  11184 83096 32698 30903 10292 20243 30099 40106 82530 333 58000;EQDQ01  00002PRCP99
0186830960999992000031200004-10920-037050FM-12+000699999V0200901N003612200019N9999999N1+02761+02341101011ADDAA199000091GF101991011051012501001001KA1240M+03001MA1999999100941MD1999999-0241REMSYN076AAXX  12004 83096 326// 10907 10276 20234 30094 40101 81500 333 10300 59024;EQDQ01  00002PRCP99
0186830960999992000031212004-10920-037050FM-12+000699999V0203601N001512200019N0200001N1+02821+02401101011ADDAA199000091GF102991021051012501001001KA1240N+02101MA1999999100941MD1999999-0161REMSYN076AAXX  12124 83096 32698 23603 10282 20240 30094 40101 82500 333 20210 59016;EQDQ01  00002PRCP99
0167830960999992000031218004-10920-037050FM-12+000699999V0200901N003612200019N0200001N1+02941+02431100781ADDAA199000091GF102991021051012501001001MA1999999100711MD1999999-0231REMSYN070AAXX  12184 83096 32698 20907 10294 20243 30071 40078 82500 333 59023;EQDQ01  00002PRCP99
0186830960999992000031300004-10920-037050FM-12+000699999V0200901N003612200019N9999999N1+02761+02341100911ADDAA199000091GF101991011051012501001001KA1240M+03021MA1999999100841MD1999999-0101REMSYN076AAXX  13004 83096 326// 10907 10276 20234 30084 40091 81500 333 10302 59010;EQDQ01  00002PRCP99
0186830960999992000031312004-10920-037050FM-12+000699999V0203601N002612200019N0200001N1+02841+02221100931ADDAA199000091GF102991021051012501001001KA1240N+02181MA1999999100861MD1999999-0081REMSYN076AAXX  13124 83096 32698 23605 10284 20222 30086 40093 82500 333 20218 59008;EQDQ01  00002PRCP99
0167830960999992000031318004-10920-037050FM-12+000699999V0200901N004612200019N0200001N1+02941+02561100681ADDAA199000091GF101991011051012501001001MA1999999100611MD1999999-0101REMSYN070AAXX  13184 83096 32698 10909 10294 20256 30061 40068 81500 333 59010;EQDQ01  00002PRCP99
0186830960999992000031400004-10920-037050FM-12+000699999V0200501N004610120019N9999999N1+02771+02481100991ADDAA199000091GF106991061051012501001001KA1240M+03041MA1999999100921MD1999999+0081REMSYN076AAXX  14004 83096 326// 60509 10277 20248 30092 40099 86500 333 10304 58008;EQDQ01  00002PRCP99
0186830960999992000031412004-10920-037050FM-12+000699999V0203601N001512200019N0200001N1+02841+02261101091ADDAA199000091GF103991021051012501031001KA1240N+02181MA1999999101021MD1999999+0161REMSYN076AAXX  14124 83096 32698 33603 10284 20226 30102 40109 82530 333 20218 58016;EQDQ01  00002PRCP99
0167830960999992000031418004-10920-037050FM-12+000699999V0200901N005110450019N0200001N1+02941+02561100741ADDAA199000091GF106991021051012501031011MA1999999100671MD1999999+0061REMSYN070AAXX  14184 83096 32698 60910 10294 20256 30067 40074 82531 333 58006;EQDQ01  00002PRCP99
0186830960999992000031500004-10920-037050FM-12+000699999V0200501N003112200019N9999999N1+02761+02501101071ADDAA199000091GF101991011011012501001001KA1240M+03031MA1999999101001MD1999999+0081REMSYN076AAXX  15004 83096 326// 10506 10276 20250 30100 40107 81100 333 10303 58008;EQDQ01  00002PRCP99
0173830960999992000031512004-10920-037050FM-12+000699999V0200901N002612200019N0200001N1+02861+02441101211ADDAA124002091GF102991021051012501001001KA1240N+02221MA1999999101141MD1999999+0121REMSYN082AAXX  15124 83096 22698 20905 10286 20244 30114 40121 82500 333 20222 58012 60024;
0167830960999992000031518004-10920-037050FM-12+000699999V0200901N005112200019N0200001N1+02921+02431101071ADDAA199000091GF101991011051012501001001MA1999999101001MD1999999+0331REMSYN070AAXX  15184 83096 32698 10910 10292 20243 30100 40107 81500 333 58033;EQDQ01  00002PRCP99
0186830960999992000031600004-10920-037050FM-12+000699999V0200901N003112200019N9999999N1+02721+02341101201ADDAA199000091GF101991011011012501001001KA1240M+03001MA1999999101131MD1999999+0131REMSYN076AAXX  16004 83096 326// 10906 10272 20234 30113 40120 81100 333 10300 58013;EQDQ01  00002PRCP99
0186830960999992000031612004-10920-037050FM-12+000699999V0200901N002612200019N0200001N1+02901+02411101171ADDAA199000091GF103991031051012501001001KA1240N+02321MA1999999101101MD1999999-0041REMSYN076AAXX  16124 83096 32698 30905 10290 20241 30110 40117 83500 333 20232 59004;EQDQ01  00002PRCP99
0167830960999992000031618004-10920-037050FM-12+000699999V0200901N003112200019N0200001N1+02931+02561100981ADDAA199000091GF102991021051012501001001MA1999999100911MD1999999-0091REMSYN070AAXX  16184 83096 32698 20906 10293 20256 30091 40098 82500 333 59009;EQDQ01  00002PRCP99
0186830960999992000031700004-10920-037050FM-12+000699999V0200901N003112200019N9999999N1+02711+02241101041ADDAA199000091GF101991011011012501001001KA1240M+03041MA1999999100971MD1999999-0061REMSYN076AAXX  17004 83096 326// 10906 10271 20224 30097 40104 81100 333 10304 59006;EQDQ01  00002PRCP99
0186830960999992000031712004-10920-037050FM-12+000699999V0200901N001512200019N0200001N1+02881+02251101091ADDAA199000091GF102991021051012501001001KA1240N+02301MA1999999101021MD1999999-0081REMSYN076AAXX  17124 83096 32698 20903 10288 20225 30102 40109 82500 333 20230 59008;EQDQ01  00002PRCP99
0186830960999992000031800004-10920-037050FM-12+000699999V0201801N002112200019N9999999N1+02731+02321100991ADDAA199000091GF102991021051012501001001KA1240M+03001MA1999999100921MD1999999-0051REMSYN076AAXX  18004 83096 326// 21804 10273 20232 30092 40099 82500 333 10300 59005;EQDQ01  00002PRCP99
0186830960999992000031812004-10920-037050FM-12+000699999V0200901N001512200019N0200001N1+02911+02341101021ADDAA199000091GF102991021051012501001001KA1240N+02081MA1999999100951MD1999999-0071REMSYN076AAXX  18124 83096 32698 20903 10291 20234 30095 40102 82500 333 20208 59007;EQDQ01  00002PRCP99
0167830960999992000031818004-10920-037050FM-12+000699999V0200901N003112200019N0200001N1+02881+02371100731ADDAA199000091GF102991021051012501001001MA1999999100661MD1999999-0251REMSYN070AAXX  18184 83096 32698 20906 10288 20237 30066 40073 82500 333 59025;EQDQ01  00002PRCP99
0186830960999992000031900004-10920-037050FM-12+000699999V0200901N003112200019N9999999N1+02731+02411100861ADDAA199000091GF101991011051012501001001KA1240M+03061MA1999999100791MD1999999-0131REMSYN076AAXX  19004 83096 326// 10906 10273 20241 30079 40086 81500 333 10306 59013;EQDQ01  00002PRCP99
0173830960999992000031912004-10920-037050FM-12+000699999V0200501N003112200019N0200001N1+02881+02201101041ADDAA124000591GF104991041051012501001001KA1240N+02201MA1999999100971MD1999999+0021REMSYN082AAXX  19124 83096 22698 40506 10288 20220 30097 40104 84500 333 20220 58002 69944;
0167830960999992000031918004-10920-037050FM-12+000699999V0200901N005112200019N0200001N1+02941+02471100721ADDAA199000091GF101991011051012501001001MA1999999100651MD1999999-0011REMSYN070AAXX  19184 83096 32698 10910 10294 20247 30065 40072 81500 333 59001;EQDQ01  00002PRCP99
0186830960999992000032000004-10920-037050FM-12+000699999V0200901N004612200019N9999999N1+02751+02401101071ADDAA199000091GF101991011011012501001001KA1240M+03111MA1999999101001MD1999999+0211REMSYN076AAXX  20004 83096 326// 10909 10275 20240 30100 40107 81100 333 10311 58021;EQDQ01  00002PRCP99
0173830960999992000032012004-10920-037050FM-12+000699999V0200901N002612200019N0200001N1+02881+02411101071ADDAA124001091GF102991021051012501001001KA1240N+02221MA1999999101001MD1999999+0031REMSYN082AAXX  20124 83096 22698 20905 10288 20241 30100 40107 82500 333 20222 58003 60014;
0154830960999992000032018004-10920-037050FM-12+000699999V0200901N004612200019N0200001N1+02881+02441100931ADDAA106001091GF101991011011012501001001MA1999999100861MD1999999+0211REMSYN076AAXX  20184 83096 22698 10909 10288 20244 30086 40093 81100 333 58021 60011;
0186830960999992000032100004-10920-037050FM-12+000699999V0200901N003112200019N9999999N1+02681+02241101191ADDAA199000091GF101991011011012501001001KA1240M+03031MA1999999101121MD1999999+0121REMSYN076AAXX  21004 83096 326// 10906 10268 20224 30112 40119 81100 333 10303 58012;EQDQ01  00002PRCP99
0173830960999992000032112004-10920-037050FM-12+000699999V0201401N002112200019N0200001N1+02901+02221101171ADDAA124001091GF102991021051012501001001KA1240N+02321MA1999999101101MD1999999+0101REMSYN082AAXX  21124 83096 22698 21404 10290 20222 30110 40117 82500 333 20232 58010 60014;
0167830960999992000032118004-10920-037050FM-12+000699999V0201801N002112200019N0200001N1+02961+02101100981ADDAA199000091GF101991011051012501001001MA1999999100911MD1999999+0051REMSYN070AAXX  21184 83096 32698 11804 10296 20210 30091 40098 81500 333 58005;EQDQ01  00002PRCP99
0186830960999992000032200004-10920-037050FM-12+000699999V0201801N002110450019N9999999N1+02761+02211101061ADDAA199000091GF106991041051012501031001KA1240M+03201MA1999999100991MD1999999-0131REMSYN076AAXX  22004 83096 326// 61804 10276 20221 30099 40106 84530 333 10320 59013;EQDQ01  00002PRCP99
0173830960999992000032212004-10920-037050FM-12+000699999V0203601N001512200019N0200001N1+02781+02341101111ADDAA124013091GF102991021051012501001001KA1240N+01961MA1999999101041MD1999999-0061REMSYN082AAXX  22124 83096 22698 23603 10278 20234 30104 40111 82500 333 20196 59006 60134;
0167830960999992000032218004-10920-037050FM-12+000699999V0201401N002112200019N0200001N1+02881+02371100981ADDAA199000091GF101991011051012501001001MA1999999100911MD1999999+0001REMSYN070AAXX  22184 83096 32698 11404 10288 20237 30091 40098 81500 333 58000;EQDQ01  00002PRCP99
0186830960999992000032300004-10920-037050FM-12+000699999V0201801N003112200019N9999999N1+02731+02191101071ADDAA199000091GF101991011011012501001001KA1240M+02981MA1999999101001MD1999999+0011REMSYN076AAXX  23004 83096 326// 11806 10273 20219 30100 40107 81100 333 10298 58001;EQDQ01  00002PRCP99
0186830960999992000032312004-10920-037050FM-12+000699999V0201801N002110120019N0200001N1+02921+02271101131ADDAA199000091GF106991061051012501001001KA1240N+02321MA1999999101061MD1999999+0021REMSYN076AAXX  23124 83096 32698 61804 10292 20227 30106 40113 86500 333 20232 58002;EQDQ01  00002PRCP99
0154830960999992000032318004-10920-037050FM-12+000699999V0201801N001512200019N0200001N1+02821+02201101101ADDAA106000891GF103991031051012501001001MA1999999101031MD1999999+0121REMSYN076AAXX  23184 83096 22698 31803 10282 20220 30103 40110 83500 333 58012 69981;
0173830960999992000032400004-10920-037050FM-12+000699999V0200901N004110120019N9999999N1+02601+02351101291ADDAA106003091GF107991071051012501001001KA1240M+03021MA1999999101221MD1999999+0021REMSYN082AAXX  24004 83096 226// 70908 10260 20235 30122 40129 87500 333 10302 58002 60031;
0173830960999992000032412004-10920-037050FM-12+000699999V0201801N001512200019N0200001N1+02781+02441101271ADDAA124004191GF102991021051012501001001KA1240N+02081MA1999999101201MD1999999+0141REMSYN082AAXX  24124 83096 22698 21803 10278 20244 30120 40127 82500 333 20208 58014 60044;
0167830960999992000032418004-10920-037050FM-12+000699999V0201801N004612200019N0200001N1+02871+02351101041ADDAA199000091GF102991011051012501001011MA1999999100971MD1999999-0061REMSYN070AAXX  24184 83096 32698 21809 10287 20235 30097 40104 81501 333 59006;EQDQ01  00002PRCP99
0186830960999992000032500004-10920-037050FM-12+000699999V0201801N002110120019N9999999N1+02771+02251101341ADDAA199000091GF106991061051012501001001KA1240M+03021MA1999999101271MD1999999+0051REMSYN076AAXX  25004 83096 326// 61804 10277 20225 30127 40134 86500 333 10302 58005;EQDQ01  00002PRCP99
0186830960999992000032512004-10920-037050FM-12+000699999V0201801N001510120019N0200001N1+02841+02291101211ADDAA199000091GF105991051051012501001001KA1240N+02341MA1999999101141MD1999999-0061REMSYN076AAXX  25124 83096 32698 51803 10284 20229 30114 40121 85500 333 20234 59006;EQDQ01  00002PRCP99
0167830960999992000032518004-10920-037050FM-12+000699999V0201401N001512200019N0200001N1+02921+02221101081ADDAA199000091GF102991021051012501001001MA1999999101011MD1999999-0041REMSYN070AAXX  25184 83096 32698 21403 10292 20222 30101 40108 82500 333 59004;EQDQ01  00002PRCP99
0186830960999992000032600004-10920-037050FM-12+000699999V0200901N002112200019N9999999N1+02701+02201101061ADDAA199000091GF101991011051012501001001KA1240M+03001MA1999999100991MD1999999-0281REMSYN076AAXX  26004 83096 326// 10904 10270 20220 30099 40106 81500 333 10300 59028;EQDQ01  00002PRCP99
0173830960999992000032612004-10920-037050FM-12+000699999V0200901N001512200019N0200001N1+02801+02311101111ADDAA124000891GF102991021051012501001001KA1240N+02061MA1999999101041MD1999999-0101REMSYN082AAXX  26124 83096 22698 20903 10280 20231 30104 40111 82500 333 20206 59010 69974;
0167830960999992000032618004-10920-037050FM-12+000699999V0200901N002112200019N0200001N1+02841+02221100981ADDAA199000091GF104991021051012501031001MA1999999100911MD1999999-0101REMSYN070AAXX  26184 83096 32698 40904 10284 20222 30091 40098 82530 333 59010;EQDQ01  00002PRCP99
0186830960999992000032700004-10920-037050FM-12+000699999V0200901N002112200019N9999999N1+02701+02371101001ADDAA199000091GF104991041051012501001001KA1240M+03001MA1999999100931MD1999999-0061REMSYN076AAXX  27004 83096 326// 40904 10270 20237 30093 40100 84500 333 10300 59006;EQDQ01  00002PRCP99
0173830960999992000032712004-10920-037050FM-12+000699999V0200901N001510120019N0200001N1+02641+02421101091ADDAA124013091GF106991061051012501001001KA1240N+02041MA1999999101021MD1999999-0021REMSYN082AAXX  27124 83096 22698 60903 10264 20242 30102 40109 86500 333 20204 59002 60134;
0167830960999992000032718004-10920-037050FM-12+000699999V0201401N001512200019N0200001N1+02881+02351100901ADDAA199000091GF101991011051012501001001MA1999999100831MD1999999-0081REMSYN070AAXX  27184 83096 32698 11403 10288 20235 30083 40090 81500 333 59008;EQDQ01  00002PRCP99
0186830960999992000032812004-10920-037050FM-12+000699999V0201801N001512200019N0200001N1+02881+02351101071ADDAA199000091GF102991021051012501001001KA1240N+02161MA1999999101001MD1999999-0021REMSYN076AAXX  28124 83096 32698 21803 10288 20235 30100 40107 82500 333 20216 59002;EQDQ01  00002PRCP99
0167830960999992000032818004-10920-037050FM-12+000699999V0201801N002110120019N0200001N1+02781+02301100901ADDAA199000091GF106991061051012501001001MA1999999100831MD1999999+0001REMSYN070AAXX  28184 83096 32698 61804 10278 20230 30083 40090 86500 333 58000;EQDQ01  00002PRCP99
0186830960999992000032900004-10920-037050FM-12+000699999V0201801N002110120019N9999999N1+02641+02271101051ADDAA199000091GF106991061051012501001001KA1240M+03021MA1999999100981MD1999999-0051REMSYN076AAXX  29004 83096 326// 61804 10264 20227 30098 40105 86500 333 10302 59005;EQDQ01  00002PRCP99
0186830960999992000032912004-10920-037050FM-12+000699999V0200901N002112200019N0200001N1+02861+02371101071ADDAA199000091GF103991021051012501031001KA1240N+02101MA1999999101001MD1999999+0001REMSYN076AAXX  29124 83096 32698 30904 10286 20237 30100 40107 82530 333 20210 58000;EQDQ01  00002PRCP99
0154830960999992000032918004-10920-037050FM-12+000699999V0201401N002112200019N0200001N1+02921+02241100991ADDAA106002091GF103991031011012501001001MA1999999100921MD1999999+0091REMSYN076AAXX  29184 83096 22698 31404 10292 20224 30092 40099 83100 333 58009 60021;
0186830960999992000033000004-10920-037050FM-12+000699999V0201801N003110075019N9999999N1+02681+02201101051ADDAA199000091GF108991081051008001999999KA1240M+03001MA1999999100981MD1999999+0001REMSYN076AAXX  30004 83096 325// 81806 10268 20220 30098 40105 885// 333 10300 58000;EQDQ01  00002PRCP99
0173830960999992000033012004-10920-037050FM-12+000699999V0201801N001510450019N0200001N1+02721+02031101141ADDAA124002091GF106991041051012501031001KA1240N+02201MA1999999101071MD1999999+0071REMSYN082AAXX  30124 83096 22698 61803 10272 20203 30107 40114 84530 333 20220 58007 60024;
0167830960999992000033018004-10920-037050FM-12+000699999V0201401N003110450019N0200001N1+02831+02241100991ADDAA199000091GF107991041051012501031001MA1999999100921MD1999999+0001REMSYN070AAXX  30184 83096 32698 71406 10283 20224 30092 40099 84530 333 58000;EQDQ01  00002PRCP99
0186830960999992000033100004-10920-037050FM-12+000699999V0201801N002112200019N9999999N1+02711+02171101351ADDAA199000091GF103991031051012501001001KA1240M+02941MA1999999101281MD1999999+0301REMSYN076AAXX  31004 83096 326// 31804 10271 20217 30128 40135 83500 333 10294 58030;EQDQ01  00002PRCP99
0186830960999992000033112004-10920-037050FM-12+000699999V0201801N002610120019N0200001N1+02681+02351101211ADDAA199000091GF106991061051012501001001KA1240N+02081MA1999999101141MD1999999+0071REMSYN076AAXX  31124 83096 32698 61805 10268 20235 30114 40121 86500 333 20208 58007;EQDQ01  00002PRCP99
0167830960999992000033118004-10920-037050FM-12+000699999V0200901N002110120019N0200001N1+02761+02401101141ADDAA199000091GF106991061051012501001001MA1999999101071MD1999999+0151REMSYN070AAXX  31184 83096 32698 60904 10276 20240 30107 40114 86500 333 58015;EQDQ01  00002PRCP99
0173830960999992000040100004-10920-037050FM-12+000699999V0200901N003112200019N9999999N1+02621+02411101291ADDAA106006191GF104991041051012501001001KA1240M+02981MA1999999101221MD1999999-0061REMSYN082AAXX  01004 83096 226// 40906 10262 20241 30122 40129 84500 333 10298 59006 60061;
0173830960999992000040112004-10920-037050FM-12+000699999V0200501N000512200019N0200001N1+02841+02461101321ADDAA124007191GF104991031051012501031001KA1240N+02061MA1999999101251MD1999999+0111REMSYN082AAXX  01124 83096 22698 40501 10284 20246 30125 40132 83530 333 20206 58011 60074;
0154830960999992000040118004-10920-037050FM-12+000699999V0201801N001510120019N0200001N1+02581+02291101131ADDAA106004191GF107991071051012501001001MA1999999101061MD1999999-0011REMSYN076AAXX  01184 83096 22698 71803 10258 20229 30106 40113 87500 333 59001 60041;
0173830960999992000040200004-10920-037050FM-12+000699999V0200901N002610120019N9999999N1+02561+02351101311ADDAA106003091GF106991061051012501001001KA1240M+02961MA1999999101241MD1999999+0021REMSYN082AAXX  02004 83096 226// 60905 10256 20235 30124 40131 86500 333 10296 58002 60031;
0173830960999992000040212004-10920-037050FM-12+000699999V0201801N000510120019N0200001N1+02681+02521101371ADDAA124013091GF106991061051012501001001KA1240N+02061MA1999999101301MD1999999+0051REMSYN082AAXX  02124 83096 22698 61801 10268 20252 30130 40137 86500 333 20206 58005 60134;
0167830960999992000040218004-10920-037050FM-12+000699999V0201401N002112200019N0200001N1+02941+02471101071ADDAA199000091GF102991011051012501001011MA1999999101001MD1999999-0061REMSYN070AAXX  02184 83096 32698 21404 10294 20247 30100 40107 81501 333 59006;EQDQ01  00002PRCP99
0186830960999992000040300004-10920-037050FM-12+000699999V0201801N002612200019N9999999N1+02721+02321101361ADDAA199000091GF101991011011012501001001KA1240M+03041MA1999999101291MD1999999+0051REMSYN076AAXX  03004 83096 326// 11805 10272 20232 30129 40136 81100 333 10304 58005;EQDQ01  00002PRCP99
0186830960999992000040312004-10920-037050FM-12+000699999V0200901N002612200019N0200001N1+02881+02391101511ADDAA199000091GF103991031051012501001001KA1240N+02101MA1999999101441MD1999999+0141REMSYN076AAXX  03124 83096 32698 30905 10288 20239 30144 40151 83500 333 20210 58014;EQDQ01  00002PRCP99
0167830960999992000040318004-10920-037050FM-12+000699999V0201401N002112200019N0200001N1+02921+02341101181ADDAA199000091GF103991031051012501001001MA1999999101111MD1999999+0111REMSYN070AAXX  03184 83096 32698 31404 10292 20234 30111 40118 83500 333 58011;EQDQ01  00002PRCP99
0202830960999992000040400004-10920-037050FM-12+000699999V0201801N002112200019N9999999N1+02761+02321101201ADDAA199000091GF102991021051012501001001KA1240M+99999MA1999999101131MD1999999-0161REMSYN076AAXX  04004 83096 326// 21804 10276 20232 30113 40120 82500 333 10202 59016;EQDQ01  00002PRCP99Q02 +02022ATMX  
0173830960999992000040412004-10920-037050FM-12+000699999V0201801N003112200019N0200001N1+02931+02321101401ADDAA124003091GF101991011051012501001001KA1240N+02251MA1999999101331MD1999999-0111REMSYN082AAXX  04124 83096 22698 11806 10293 20232 30133 40140 81500 333 20225 59011 60034;
0167830960999992000040418004-10920-037050FM-12+000699999V0201401N003112200019N0200001N1+02881+02371101111ADDAA199000091GF102991021051012501001001MA1999999101041MD1999999+0071REMSYN070AAXX  04184 83096 32698 21406 10288 20237 30104 40111 82500 333 58007;EQDQ01  00002PRCP99
0186830960999992000040500004-10920-037050FM-12+000699999V0201801N003112200019N9999999N1+02741+02321101371ADDAA199000091GF102991021051012501001001KA1240M+03061MA1999999101301MD1999999+0171REMSYN076AAXX  05004 83096 326// 21806 10274 20232 30130 40137 82500 333 10306 58017;EQDQ01  00002PRCP99
0173830960999992000040512004-10920-037050FM-12+000699999V0201401N002612200019N0200001N1+02841+02421101311ADDAA124002091GF103991031051012501001001KA1240N+02241MA1999999101241MD1999999-0091REMSYN082AAXX  05124 83096 22698 31405 10284 20242 30124 40131 83500 333 20224 59009 60024;
0167830960999992000040518004-10920-037050FM-12+000699999V0200901N002112200019N0200001N1+02381+02381101261ADDAA199000091GF102991021051012501001001MA1999999101191MD1999999+0151REMSYN070AAXX  05184 83096 32698 20904 10238 20238 30119 40126 82500 333 58015;EQDQ01  00002PRCP99
0186830960999992000040600004-10920-037050FM-12+000699999V0201401N003612200019N9999999N1+02761+02361101271ADDAA199000091GF102991021051012501001001KA1240M+03011MA1999999101201MD1999999-0101REMSYN076AAXX  06004 83096 326// 21407 10276 20236 30120 40127 82500 333 10301 59010;EQDQ01  00002PRCP99
0173830960999992000040612004-10920-037050FM-12+000699999V0200901N004612200019N0200001N1+02831+02331101371ADDAA124003091GF102991021051012501001001KA1240N+02251MA1999999101301MD1999999+0061REMSYN082AAXX  06124 83096 22698 20909 10283 20233 30130 40137 82500 333 20225 58006 60034;
0167830960999992000040618004-10920-037050FM-12+000699999V0201401N003112200019N0200001N1+02931+02321100991ADDAA199000091GF101991011051012501001001MA1999999100921MD1999999-0271REMSYN070AAXX  06184 83096 32698 11406 10293 20232 30092 40099 81500 333 59027;EQDQ01  00002PRCP99
0173830960999992000040712004-10920-037050FM-12+000699999V0200901N002112200019N0200001N1+02901+02321101191ADDAA124001091GF101991011051012501001001KA1240N+02181MA1999999101121MD1999999-0181REMSYN082AAXX  07124 83096 22698 10904 10290 20232 30112 40119 81500 333 20218 59018 60014;
0167830960999992000040718004-10920-037050FM-12+000699999V0201401N003112200019N0200001N1+02901+02201101041ADDAA199000091GF102991021051012501001001MA1999999100971MD1999999+0051REMSYN070AAXX  07184 83096 32698 21406 10290 20220 30097 40104 82500 333 58005;EQDQ01  00002PRCP99
0186830960999992000040800004-10920-037050FM-12+000699999V0201801N001512200019N9999999N1+02761+02321101171ADDAA199000091GF104991041051012501001001KA1240M+03041MA1999999101101MD1999999-0061REMSYN076AAXX  08004 83096 326// 41803 10276 20232 30110 40117 84500 333 10304 59006;EQDQ01  00002PRCP99
0173830960999992000040812004-10920-037050FM-12+000699999V0202701N001510120019N0200001N1+02421+02191101241ADDAA124041991GF106991061051012501001001KA1240N+01941MA1999999101171MD1999999+0051REMSYN082AAXX  08124 83096 22698 62703 10242 20219 30117 40124 86500 333 20194 58005 60424;
0167830960999992000040818004-10920-037050FM-12+000699999V0201801N002110450019N0200001N1+02821+02331101111ADDAA199000091GF105991031051012501031001MA1999999101041MD1999999+0071REMSYN070AAXX  08184 83096 32698 51804 10282 20233 30104 40111 83530 333 58007;EQDQ01  00002PRCP99
0173830960999992000040900004-10920-037050FM-12+000699999V0202701N001510120019N9999999N1+02421+02321101131ADDAA106009991GF106991061051012501001001KA1240M+02901MA1999999101061MD1999999-0051REMSYN082AAXX  09004 83096 226// 62703 10242 20232 30106 40113 86500 333 10290 59005 60101;
0173830960999992000040912004-10920-037050FM-12+000699999V0200901N002612200019N0200001N1+02901+02201101141ADDAA124010991GF103991021051012501031001KA1240N+02101MA1999999101071MD1999999-0101REMSYN082AAXX  09124 83096 22698 30905 10290 20220 30107 40114 82530 333 20210 59010 60114;
0167830960999992000040918004-10920-037050FM-12+000699999V0200901N003112200019N0200001N1+02921+02221101061ADDAA199000091GF101991011051012501001001MA1999999100991MD1999999-0071REMSYN070AAXX  09184 83096 32698 10906 10292 20222 30099 40106 81500 333 59007;EQDQ01  00002PRCP99
0186830960999992000041000004-10920-037050FM-12+000699999V0200901N002112200019N9999999N1+02741+02261101111ADDAA199000091GF102991021051012501001001KA1240M+03001MA1999999101041MD1999999-0021REMSYN076AAXX  10004 83096 326// 20904 10274 20226 30104 40111 82500 333 10300 59002;EQDQ01  00002PRCP99
0186830960999992000041012004-10920-037050FM-12+000699999V0201801N002112200019N0200001N1+02861+02191101171ADDAA199000091GF102991021051012501001001KA1240N+02321MA1999999101101MD1999999+0031REMSYN076AAXX  10124 83096 32698 21804 10286 20219 30110 40117 82500 333 20232 58003;EQDQ01  00002PRCP99
0167830960999992000041018004-10920-037050FM-12+000699999V0201401N002112200019N0200001N1+02901+02151101081ADDAA199000091GF101991011051012501001001MA1999999101011MD1999999+0021REMSYN070AAXX  10184 83096 32698 11404 10290 20215 30101 40108 81500 333 58002;EQDQ01  00002PRCP99
0186830960999992000041100004-10920-037050FM-12+000699999V0201401N002112200019N9999999N1+02721+02191101091ADDAA199000091GF101991011051012501001001KA1240M+03001MA1999999101021MD1999999-0021REMSYN076AAXX  11004 83096 326// 11404 10272 20219 30102 40109 81500 333 10300 59002;EQDQ01  00002PRCP99
0186830960999992000041112004-10920-037050FM-12+000699999V0200901N002112200019N0200001N1+02861+02281101331ADDAA199000091GF102991011051012501001011KA1240N+02471MA1999999101261MD1999999+0161REMSYN076AAXX  11124 83096 32698 20904 10286 20228 30126 40133 81501 333 20247 58016;EQDQ01  00002PRCP99
0167830960999992000041118004-10920-037050FM-12+000699999V0201801N002112200019N0200001N1+02871+02261100991ADDAA199000091GF101991011011012501001001MA1999999100921MD1999999-0091REMSYN070AAXX  11184 83096 32698 11804 10287 20226 30092 40099 81100 333 59009;EQDQ01  00002PRCP99
0186830960999992000041200004-10920-037050FM-12+000699999V0201801N003112200019N9999999N1+02761+02301101071ADDAA199000091GF102991021051012501001001KA1240M+03021MA1999999101001MD1999999-0021REMSYN076AAXX  12004 83096 326// 21806 10276 20230 30100 40107 82500 333 10302 59002;EQDQ01  00002PRCP99
0201830960999992000041212004-10920-037050FM-12+000699999V0203601N001510075019N0100001N1+02501+02361101111ADDAA124010991AY161061AY261061GF108991081051008001999999KA1240N+02121MA1999999101041MD1999999-0221MW1601REMSYN088AAXX  12124 83096 21597 83603 10250 20236 30104 40111 76066 885// 333 20212 59022 60114;
0154830960999992000041218004-10920-037050FM-12+000699999V0201801N002110120019N0200001N1+02741+02401101041ADDAA106008991GF106991061051012501001001MA1999999100971MD1999999+0051REMSYN076AAXX  12184 83096 22698 61804 10274 20240 30097 40104 86500 333 58005 60091;
0167830960999992000041300004-10920-037050FM-12+000699999V0201801N002610120019N9999999N1+02641+02391101111ADDAA199000021GF106991061051012501001001KA1240M+02781MA1999999101041MD1999999+0041REMSYN076AAXX  13004 83096 326// 61805 10264 20239 30104 40111 86500 333 10278 58004;
0173830960999992000041312004-10920-037050FM-12+000699999V0201801N001510120019N0200001N1+02781+02401101221ADDAA124025991GF106991061051012501001001KA1240N+01981MA1999999101151MD1999999+0111REMSYN082AAXX  13124 83096 22698 61803 10278 20240 30115 40122 86500 333 20198 58011 60264;
0182830960999992000041318004-10920-037050FM-12+000699999V0200901N000510075019N0100001N1+02601+02351100931ADDAA106001091AY161061AY261061GF108991081051008001999999MA1999999100861MD1999999-0111MW1601REMSYN082AAXX  13184 83096 21597 80901 10260 20235 30086 40093 76066 885// 333 59011 60011;
0173830960999992000041400004-10920-037050FM-12+000699999V0201801N001510120019N9999999N1+02481+02341101231ADDAA106003091GF106991061051012501001001KA1240M+02781MA1999999101161MD1999999+0121REMSYN082AAXX  14004 83096 226// 61803 10248 20234 30116 40123 86500 333 10278 58012 60031;
0167830960999992000041418004-10920-037050FM-12+000699999V0201401N001510120019N0200001N1+02701+02351101111ADDAA199000091GF106991061051012501001001MA1999999101041MD1999999+0181REMSYN070AAXX  14184 83096 32698 61403 10270 20235 30104 40111 86500 333 58018;EQDQ01  00002PRCP99
0195830960999992000041500004-10920-037050FM-12+000699999V0201801N002119999999N9999999N1+02421+02331101211ADDAA106007191AY161061AY261061GF108991999999008001999999KA1240M+02961MA1999999101141MD1999999-0021MW1601REMSYN082AAXX  15004 83096 215// 81804 10242 20233 30114 40121 76066 333 10296 59002 60071;
0201830960999992000041512004-10920-037050FM-12+000699999V0202701N000510075019N0100001N1+02551+02331101331ADDAA124023191AY161061AY261061GF108991081051008001999999KA1240N+02041MA1999999101261MD1999999+0121MW1601REMSYN088AAXX  15124 83096 21597 82701 10255 20233 30126 40133 76066 885// 333 20204 58012 60234;
0182830960999992000041518004-10920-037050FM-12+000699999V0202301N002110075019N0100001N1+02541+02361101111ADDAA106004191AY161061AY261061GF108991081071008001999999MA1999999101041MD1999999+0001MW1601REMSYN082AAXX  15184 83096 21597 82304 10254 20236 30104 40111 76066 887// 333 58000 60041;
0173830960999992000041600004-10920-037050FM-12+000699999V0209999C000010075019N9999999N1+02611+02391101301ADDAA106000191GF108991081051008001999999KA1240M+02741MA1999999101231MD1999999+0091REMSYN082AAXX  16004 83096 215// 81800 10261 20239 30123 40130 885// 333 10274 58009 69921;
0201830960999992000041612004-10920-037050FM-12+000699999V0203201N000510075019N0100001N1+02451+02351101441ADDAA124033091AY161061AY261061GF108991081071008001999999KA1240N+02051MA1999999101371MD1999999+0111MW1601REMSYN088AAXX  16124 83096 21597 83201 10245 20235 30137 40144 76066 887// 333 20205 58011 60334;
0182830960999992000041618004-10920-037050FM-12+000699999V0201801N003610075019N0100001N1+02481+02431101031ADDAA106003091AY161061AY261061GF108991081071008001999999MA1999999100961MD1999999+0081MW1601REMSYN082AAXX  16184 83096 21597 81807 10248 20243 30096 40103 76066 887// 333 58008 60031;
0208830960999992000041700004-10920-037050FM-12+000699999V0203201N000510120019N9999999N1+02461+02371999999ADDAA106007191GF106991061051012501001001KA1240M+02711MA1999999101141MD1999999-0091REMSYN082AAXX  17004 83096 226// 63201 10246 20237 30114 40421 86500 333 10271 59009 60071;EQDQ01+104213APOSLPQ02 104213APOSLP
0173830960999992000041712004-10920-037050FM-12+000699999V0203601N001512200019N0200001N1+02521+02431101161ADDAA124071191GF104991021051012501031001KA1240N+01981MA1999999101091MD1999999-0281REMSYN082AAXX  17124 83096 22698 43603 10252 20243 30109 40116 82530 333 20198 59028 60714;
0167830960999992000041718004-10920-037050FM-12+000699999V0200901N002612200019N0200001N1+02821+02291101011ADDAA199000091GF101991011051012501001001MA1999999100941MD1999999-0021REMSYN070AAXX  17184 83096 32698 10905 10282 20229 30094 40101 81500 333 59002;EQDQ01  00002PRCP99
0186830960999992000041800004-10920-037050FM-12+000699999V0200901N002112200019N9999999N1+02661+02411101081ADDAA199000091GF102991021051012501001001KA1240M+02901MA1999999101011MD1999999-0131REMSYN076AAXX  18004 83096 326// 20904 10266 20241 30101 40108 82500 333 10290 59013;EQDQ01  00002PRCP99
0186830960999992000041812004-10920-037050FM-12+000699999V0201801N003110120019N0200001N1+02721+02371101331ADDAA199000091GF106991061051012501001001KA1240N+02061MA1999999101361MD1999999+0171REMSYN076AAXX  18124 83096 32698 61806 10272 20237 30136 40133 86500 333 20206 58017;EQDQ01  00002PRCP99
0154830960999992000041818004-10920-037050FM-12+000699999V0201801N002110450019N0200001N1+02781+02441101051ADDAA106009991GF106991041051012501031001MA1999999100981MD1999999+0041REMSYN076AAXX  18184 83096 22698 61804 10278 20244 30098 40105 84530 333 58004 60101;
0173830960999992000041900004-10920-037050FM-12+000699999V0202701N000510120019N9999999N1+02461+02251101301ADDAA106000591GF106991061051012501001001KA1240M+02811MA1999999101231MD1999999+0221REMSYN082AAXX  19004 83096 226// 62701 10246 20225 30123 40130 86500 333 10281 58022 69941;
0173830960999992000041912004-10920-037050FM-12+000699999V0201801N001510120019N0200001N1+02541+02451101231ADDAA124021191GF107991071051012501001001KA1240N+02021MA1999999101161MD1999999-0101REMSYN082AAXX  19124 83096 22698 71803 10254 20245 30116 40123 87500 333 20202 59010 60214;
0167830960999992000041918004-10920-037050FM-12+000699999V0200901N002112200019N0200001N1+02801+02441101111ADDAA199000091GF101991011051012501001001MA1999999101041MD1999999+0061REMSYN070AAXX  19184 83096 32698 10904 10280 20244 30104 40111 81500 333 58006;EQDQ01  00002PRCP99
0186830960999992000042000004-10920-037050FM-12+000699999V0200901N002112200019N9999999N1+02681+02411101071ADDAA199000091GF103991031051012501001001KA1240M+02881MA1999999101001MD1999999-0231REMSYN076AAXX  20004 83096 326// 30904 10268 20241 30100 40107 83500 333 10288 59023;EQDQ01  00002PRCP99
0173830960999992000042012004-10920-037050FM-12+000699999V0200901N002110120019N0200001N1+02601+02401101321ADDAA124027991GF106991061051012501001001KA1240N+02041MA1999999101251MD1999999+0091REMSYN082AAXX  20124 83096 22698 60904 10260 20240 30125 40132 86500 333 20204 58009 60284;
0186830960999992000042112004-10920-037050FM-12+000699999V0203601N002612200019N0200001N1+02821+02501101071ADDAA199000091GF102991021051012501001001KA1240N+02121MA1999999101001MD1999999-0251REMSYN076AAXX  21124 83096 32698 23605 10282 20250 30100 40107 82500 333 20212 59025;EQDQ01  00002PRCP99
0167830960999992000042118004-10920-037050FM-12+000699999V0200901N004112200019N9999999N1+02941+02521100881ADDAA199000091GF101991011051999999001001MA1999999100811MD1999999-0041REMSYN070AAXX  21184 83096 3298/ 10908 10294 20252 30081 40088 81500 333 59004;EQDQ01  00002PRCP99
0186830960999992000042200004-10920-037050FM-12+000699999V0200901N003612200019N9999999N1+02781+02501100871ADDAA199000091GF103991031051012501001001KA1240M+03051MA1999999100801MD1999999-0181REMSYN076AAXX  22004 83096 326// 30907 10278 20250 30080 40087 83500 333 10305 59018;EQDQ01  00002PRCP99
0167830960999992000042218004-10920-037050FM-12+000699999V0200901N004112200019N0200001N1+02921+02451100881ADDAA199000091GF101991011051012501001001MA1999999100811MD1999999+0001REMSYN070AAXX  22184 83096 32698 10908 10292 20245 30081 40088 81500 333 58000;EQDQ01  00002PRCP99
0186830960999992000042300004-10920-037050FM-12+000699999V0200901N003612200019N9999999N1+02781+02501100911ADDAA199000091GF101991011051012501001001KA1240M+03121MA1999999100841MD1999999+0041REMSYN076AAXX  23004 83096 326// 10907 10278 20250 30084 40091 81500 333 10312 58004;EQDQ01  00002PRCP99
0186830960999992000042312004-10920-037050FM-12+000699999V0200901N003612200019N0200001N1+02921+02541101111ADDAA199000091GF102991021051012501001001KA1240N+02221MA1999999101041MD1999999+0101REMSYN076AAXX  23124 83096 32698 20907 10292 20254 30104 40111 82500 333 20222 58010;EQDQ01  00002PRCP99
0167830960999992000042318004-10920-037050FM-12+000699999V0200901N002612200019N0200001N1+02881+02411101081ADDAA199000091GF103991021051012501031001MA1999999101011MD1999999+0201REMSYN070AAXX  23184 83096 32698 30905 10288 20241 30101 40108 82530 333 58020;EQDQ01  00002PRCP99
0186830960999992000042400004-10920-037050FM-12+000699999V0200901N003612200019N9999999N1+02781+02501100911ADDAA199000091GF101991011051012501001001KA1240M+03121MA1999999100841MD1999999+0041REMSYN076AAXX  24004 83096 326// 10907 10278 20250 30084 40091 81500 333 10312 58004;EQDQ01  00002PRCP99
0154830960999992000042418004-10920-037050FM-12+000699999V0200901N005110120019N0200001N1+02521+02431101081ADDAA106004191GF106991061051012501001001MA1999999101011MD1999999+0001REMSYN076AAXX  24184 83096 22698 60910 10252 20243 30101 40108 86500 333 58000 60041;
0220830960999992000042500004-10920-037050FM-12+000699999V0201801N004110075019N9999999N1+02581+02371101291ADDAA100040991AY161061AY261061GF108991081051008001999999KA1240M+99999MA1999999101221MD1999999+0111MW1601REMSYN088AAXX  25004 83096 215// 81808 10258 20237 30122 40129 76066 885// 333 10200 58011 6041/;EQDQ01 +02002ATMX  
0173830960999992000042512004-10920-037050FM-12+000699999V0201801N002610120019N0200001N1+02761+02191101221ADDAA124010991GF106991061051012501001001KA1240N+02061MA1999999101151MD1999999-0091REMSYN082AAXX  25124 83096 22698 61805 10276 20219 30115 40122 86500 333 20206 59009 60114;
0167830960999992000042518004-10920-037050FM-12+000699999V0201801N003610120019N0200001N1+02841+02121101181ADDAA199000091GF106991051051012501031001MA1999999101111MD1999999+0101REMSYN070AAXX  25184 83096 32698 61807 10284 20212 30111 40118 85530 333 58010;EQDQ01  00002PRCP99
0186830960999992000042600004-10920-037050FM-12+000699999V0201801N004110120019N9999999N1+02721+02191101211ADDAA199000091GF105991051051012501001001KA1240M+02961MA1999999101141MD1999999-0081REMSYN076AAXX  26004 83096 326// 51808 10272 20219 30114 40121 85500 333 10296 59008;EQDQ01  00002PRCP99
0173830960999992000042612004-10920-037050FM-12+000699999V0201801N002110120019N0200001N1+02661+02221101431ADDAA124002091GF106991061051012501001001KA1240N+02221MA1999999101361MD1999999+0211REMSYN082AAXX  26124 83096 22698 61804 10266 20222 30136 40143 86500 333 20222 58021 60024;
0167830960999992000042618004-10920-037050FM-12+000699999V0201801N003612200019N0200001N1+02821+02241101111ADDAA199000091GF104991041051012501001001MA1999999101041MD1999999-0071REMSYN070AAXX  26184 83096 32698 41807 10282 20224 30104 40111 84500 333 59007;EQDQ01  00002PRCP99
0186830960999992000042700004-10920-037050FM-12+000699999V0201801N002612200019N9999999N1+02621+02141101471ADDAA199000091GF103991031051012501001001KA1240M+02941MA1999999101401MD1999999+0261REMSYN076AAXX  27004 83096 326// 31805 10262 20214 30140 40147 83500 333 10294 58026;EQDQ01  00002PRCP99
0173830960999992000042712004-10920-037050FM-12+000699999V0202701N002112200019N0200001N1+02561+02351101331ADDAA124036191GF104991041051012501001001KA1240N+01921MA1999999101261MD1999999-0101REMSYN082AAXX  27124 83096 22698 42704 10256 20235 30126 40133 84500 333 20192 59010 60364;
0154830960999992000042718004-10920-037050FM-12+000699999V0201801N002612200019N0200001N1+02681+02281101231ADDAA106000591GF104991041051012501001001MA1999999101161MD1999999+0121REMSYN076AAXX  27184 83096 22698 41805 10268 20228 30116 40123 84500 333 58012 69961;
0186830960999992000042800004-10920-037050FM-12+000699999V0200901N002112200019N9999999N1+02621+02251101331ADDAA199000091GF102991021051012501001001KA1240M+02801MA1999999101261MD1999999-0141REMSYN076AAXX  28004 83096 326// 20904 10262 20225 30126 40133 82500 333 10280 59014;EQDQ01  00002PRCP99
0201830960999992000042812004-10920-037050FM-12+000699999V0200501N001510075019N0100001N1+02431+02251101611ADDAA124007991AY161061AY261061GF108991081071008001999999KA1240N+02021MA1999999101541MD1999999+0281MW1601REMSYN088AAXX  28124 83096 21597 80503 10243 20225 30154 40161 76066 887// 333 20202 58028 60084;
0154830960999992000042818004-10920-037050FM-12+000699999V0201801N001512200019N0200001N1+02761+02221101291ADDAA106002091GF103991031051012501001001MA1999999101221MD1999999+0061REMSYN076AAXX  28184 83096 22698 31803 10276 20222 30122 40129 83500 333 58006 60021;
0173830960999992000042900004-10920-037050FM-12+000699999V0202701N001510120019N9999999N1+02441+02301101411ADDAA106033091GF106991061051012501001001KA1240M+02861MA1999999101341MD1999999+0081REMSYN082AAXX  29004 83096 226// 62703 10244 20230 30134 40141 86500 333 10286 58008 60331;
0173830960999992000042912004-10920-037050FM-12+000699999V0200901N003112200019N0200001N1+02781+02271101521ADDAA124035191GF102991021051012501001001KA1240N+01881MA1999999101451MD1999999-0091REMSYN082AAXX  29124 83096 22698 20906 10278 20227 30145 40152 82500 333 20188 59009 60354;
0167830960999992000042918004-10920-037050FM-12+000699999V0201801N003112200019N0200001N1+02861+02501101281ADDAA199000091GF104991041051012501001001MA1999999101211MD1999999-0011REMSYN070AAXX  29184 83096 32698 41806 10286 20250 30121 40128 84500 333 59001;EQDQ01  00002PRCP99
0186830960999992000043000004-10920-037050FM-12+000699999V0200901N003112200019N9999999N1+02681+02201101471ADDAA199000091GF101991011011012501001001KA1240M+02981MA1999999101401MD1999999+0061REMSYN076AAXX  30004 83096 326// 10906 10268 20220 30140 40147 81100 333 10298 58006;EQDQ01  00002PRCP99
0173830960999992000043012004-10920-037050FM-12+000699999V0201801N002112200019N0200001N1+02861+02351101481ADDAA124002091GF102991021051012501001001KA1240N+02281MA1999999101411MD1999999-0041REMSYN082AAXX  30124 83096 22698 21804 10286 20235 30141 40148 82500 333 20228 59004 60024;
0167830960999992000043018004-10920-037050FM-12+000699999V0201801N001512200019N0200001N1+02711+02261101171ADDAA199000091GF102991021051012501001001MA1999999101001MD1999999-0111REMSYN070AAXX  30184 83096 32698 21803 10271 20226 30100 40117 82500 333 59011;EQDQ01  00002PRCP99
0186830960999992000050100004-10920-037050FM-12+000699999V0201801N003112200019N9999999N1+02681+02281101361ADDAA199000091GF104991041051012501001001KA1240M+02981MA1999999101291MD1999999-0111REMSYN076AAXX  01004 83096 326// 41806 10268 20228 30129 40136 84500 333 10298 59011;EQDQ01  00002PRCP99
0173830960999992000050112004-10920-037050FM-12+000699999V0202701N001510120019N0200001N1+02481+02391101361ADDAA124007191GF105991051051012501001001KA1240N+02001MA1999999101291MD1999999-0121REMSYN082AAXX  01124 83096 22698 52703 10248 20239 30129 40136 85500 333 20200 59012 60074;
0167830960999992000050118004-10920-037050FM-12+000699999V0201401N002112200019N0200001N1+02801+02271101191ADDAA199000091GF102991021051012501001001MA1999999101121MD1999999+0021REMSYN070AAXX  01184 83096 32698 21404 10280 20227 30112 40119 82500 333 58002;EQDQ01  00002PRCP99
0186830960999992000050200004-10920-037050FM-12+000699999V0201801N003112200019N9999999N1+02601+02281101391ADDAA199000091GF101991011051012501001001KA1240M+02921MA1999999101321MD1999999+0031REMSYN076AAXX  02004 83096 326// 11806 10260 20228 30132 40139 81500 333 10292 58003;EQDQ01  00002PRCP99
0186830960999992000050212004-10920-037050FM-12+000699999V0201801N002612200019N0200001N1+02841+02211101401ADDAA199000091GF103991031051012501001001KA1240N+02201MA1999999101331MD1999999+0041REMSYN076AAXX  02124 83096 32698 31805 10284 20221 30133 40140 83500 333 20220 58004;EQDQ01  00002PRCP99
0167830960999992000050218004-10920-037050FM-12+000699999V0201801N002612200019N0200001N1+02851+02421101061ADDAA199000091GF101991011051012501001001MA1999999100991MD1999999-0131REMSYN070AAXX  02184 83096 32698 11805 10285 20242 30099 40106 81500 333 59013;EQDQ01  00002PRCP99
0173830960999992000050312004-10920-037050FM-12+000699999V0201401N002112200019N0200001N1+02721+02391101291ADDAA124006191GF104991041051012501001001KA1240N+01981MA1999999101221MD1999999-0111REMSYN082AAXX  03124 83096 22698 41404 10272 20239 30122 40129 84500 333 20198 59011 60064;
0154830960999992000050318004-10920-037050FM-12+000699999V0201401N003112200019N0200001N1+02821+02151101191ADDAA106004191GF102991021051012501001001MA1999999101121MD1999999+0131REMSYN076AAXX  03184 83096 22698 21406 10282 20215 30112 40119 82500 333 58013 60041;
0186830960999992000050400004-10920-037050FM-12+000699999V0201801N002112200019N9999999N1+02721+02101101211ADDAA199000091GF103991031051012501001001KA1240M+02921MA1999999101141MD1999999-0181REMSYN076AAXX  04004 83096 326// 31804 10272 20210 30114 40121 83500 333 10292 59018;EQDQ01  00002PRCP99
0186830960999992000050412004-10920-037050FM-12+000699999V0201801N001512200019N0200001N1+02911+02251101371ADDAA199000091GF101991011051012501001001KA1240N+02321MA1999999101301MD1999999+0081REMSYN076AAXX  04124 83096 32698 11803 10291 20225 30130 40137 81500 333 20232 58008;EQDQ01  00002PRCP99
0167830960999992000050418004-10920-037050FM-12+000699999V0201801N003112200019N0200001N1+02861+02441101081ADDAA199000091GF101991011051012501001001MA1999999101011MD1999999-0111REMSYN070AAXX  04184 83096 32698 11806 10286 20244 30101 40108 81500 333 59011;EQDQ01  00002PRCP99
0186830960999992000050500004-10920-037050FM-12+000699999V0201801N002112200019N9999999N1+02711+02411101371ADDAA199000091GF102991021051012501001001KA1240M+02991MA1999999101301MD1999999+0161REMSYN076AAXX  05004 83096 326// 21804 10271 20241 30130 40137 82500 333 10299 58016;EQDQ01  00002PRCP99
0173830960999992000050512004-10920-037050FM-12+000699999V0200901N001512200019N0200001N1+02841+02401101211ADDAA124003091GF102991021051012501001001KA1240N+02121MA1999999101141MD1999999-0161REMSYN082AAXX  05124 83096 22698 20903 10284 20240 30114 40121 82500 333 20212 59016 60034;
0167830960999992000050518004-10920-037050FM-12+000699999V0201401N002112200019N0200001N1+02901+02341101161ADDAA199000091GF101991011051012501001001MA1999999101091MD1999999+0081REMSYN070AAXX  05184 83096 32698 11404 10290 20234 30109 40116 81500 333 58008;EQDQ01  00002PRCP99
0186830960999992000050600004-10920-037050FM-12+000699999V0201401N002112200019N9999999N1+02701+02301101111ADDAA199000091GF102991021051012501001001KA1240M+02961MA1999999101041MD1999999-0261REMSYN076AAXX  06004 83096 326// 21404 10270 20230 30104 40111 82500 333 10296 59026;EQDQ01  00002PRCP99
0173830960999992000050612004-10920-037050FM-12+000699999V0201401N001512200019N0200001N1+02801+02361101131ADDAA124000591GF104991041051012501001001KA1240N+02081MA1999999101061MD1999999-0081REMSYN082AAXX  06124 83096 22698 41403 10280 20236 30106 40113 84500 333 20208 59008 69944;
0167830960999992000050618004-10920-037050FM-12+000699999V0201401N002112200019N0200001N1+02861+02391101081ADDAA199000091GF102991021051012501001001MA1999999101011MD1999999-0081REMSYN070AAXX  06184 83096 32698 21404 10286 20239 30101 40108 82500 333 59008;EQDQ01  00002PRCP99
0186830960999992000050700004-10920-037050FM-12+000699999V0201401N002112200019N9999999N1+02721+02321101091ADDAA199000091GF102991021051012501001001KA1240M+02961MA1999999101021MD1999999-0021REMSYN076AAXX  07004 83096 326// 21404 10272 20232 30102 40109 82500 333 10296 59002;EQDQ01  00002PRCP99
0173830960999992000050712004-10920-037050FM-12+000699999V0202701N001512200019N0200001N1+02641+02501101171ADDAA124002091GF102991021051012501001001KA1240N+02101MA1999999101101MD1999999+0041REMSYN082AAXX  07124 83096 22698 22703 10264 20250 30110 40117 82500 333 20210 58004 60024;
0154830960999992000050718004-10920-037050FM-12+000699999V0201801N002112200019N0200001N1+02881+02411101081ADDAA106000591GF103991031051012501001001MA1999999101011MD1999999+0001REMSYN076AAXX  07184 83096 22698 31804 10288 20241 30101 40108 83500 333 58000 69941;
0186830960999992000050800004-10920-037050FM-12+000699999V0201401N002112200019N9999999N1+02721+02391101151ADDAA199000091GF102991021051012501001001KA1240M+03001MA1999999101081MD1999999+0061REMSYN076AAXX  08004 83096 326// 21404 10272 20239 30108 40115 82500 333 10300 58006;EQDQ01  00002PRCP99
0167830960999992000050818004-10920-037050FM-12+000699999V0201801N003112200019N0200001N1+02881+02521101271ADDAA199000091GF102991021051012501001001MA1999999101201MD1999999+0191REMSYN070AAXX  08184 83096 32698 21806 10288 20252 30120 40127 82500 333 58019;EQDQ01  00002PRCP99
0160830960999992000050900004-10920-037050FM-12+000699999V0201801N003110120019N9999999N1+02591+02371101351ADDAA106000591GF107991071051012501001001MA1999999101281MD1999999+0201REMSYN082AAXX  09004 83096 226// 71806 10259 20237 30128 40135 87500 333 1030/ 58020 69961;
0173830960999992000050912004-10920-037050FM-12+000699999V0201401N001512200019N0200001N1+02781+02381101411ADDAA124002091GF103991031051012501001001KA1240N+02241MA1999999101341MD1999999+0031REMSYN082AAXX  09124 83096 22698 31403 10278 20238 30134 40141 83500 333 20224 58003 60024;
0167830960999992000050918004-10920-037050FM-12+000699999V0201401N001512200019N0200001N1+02901+02301101291ADDAA199000091GF102991021051012501001001MA1999999101221MD1999999+0021REMSYN070AAXX  09184 83096 32698 21403 10290 20230 30122 40129 82500 333 58002;EQDQ01  00002PRCP99
0186830960999992000051012004-10920-037050FM-12+000699999V0203601N000510120019N0200001N1+02691+02371101511ADDAA199000091GF106991061051012501001001KA1240N+01941MA1999999101441MD1999999+0101REMSYN076AAXX  10124 83096 32698 63601 10269 20237 30144 40151 86500 333 20194 58010;EQDQ01  00002PRCP99
0186830960999992000051100004-10920-037050FM-12+000699999V0201801N002112200019N9999999N1+02641+02351101431ADDAA199000091GF101991011051012501001001KA1240M+02881MA1999999101361MD1999999+0141REMSYN076AAXX  11004 83096 326// 11804 10264 20235 30136 40143 81500 333 10288 58014;EQDQ01  00002PRCP99
0186830960999992000051112004-10920-037050FM-12+000699999V0201801N001512200019N0200001N1+02721+02321101431ADDAA199000091GF101991011051012501001001KA1240N+01881MA1999999101361MD1999999-0081REMSYN076AAXX  11124 83096 32698 11803 10272 20232 30136 40143 81500 333 20188 59008;EQDQ01  00002PRCP99
0167830960999992000051118004-10920-037050FM-12+000699999V0201801N002112200019N0200001N1+02861+02211101281ADDAA199000091GF101991011051012501001001MA1999999101211MD1999999+0011REMSYN070AAXX  11184 83096 32698 11804 10286 20221 30121 40128 81500 333 58001;EQDQ01  00002PRCP99
0186830960999992000051200004-10920-037050FM-12+000699999V0201801N001512200019N9999999N1+02721+02241101351ADDAA199000091GF102991021051012501001001KA1240M+02981MA1999999101281MD1999999-0081REMSYN076AAXX  12004 83096 326// 21803 10272 20224 30128 40135 82500 333 10298 59008;EQDQ01  00002PRCP99
0173830960999992000051212004-10920-037050FM-12+000699999V0201801N004610120019N0200001N1+02741+02321101491ADDAA124013091GF106991061051012501001001KA1240N+01981MA1999999101421MD1999999+0061REMSYN082AAXX  12124 83096 22698 61809 10274 20232 30142 40149 86500 333 20198 58006 60134;
0154830960999992000051218004-10920-037050FM-12+000699999V0201801N004110120019N0200001N1+02801+02271101231ADDAA106000191GF105991051051012501001001MA1999999101161MD1999999-0061REMSYN076AAXX  12184 83096 22698 51808 10280 20227 30116 40123 85500 333 59006 69921;
0201830960999992000051300004-10920-037050FM-12+000699999V0201801N004610075019N9999999N1+02441+02301101521ADDAA106002091AY161061AY261061GF108991081051008001999999KA1240M+02881MA1999999101451MD1999999+0171MW1601REMSYN088AAXX  13004 83096 215// 81809 10244 20230 30145 40152 76066 885// 333 10288 58017 60021;
0201830960999992000051312004-10920-037050FM-12+000699999V0201801N003110075019N0100001N1+02701+02111101561ADDAA124007991AY161061AY261061GF108991081051008001999999KA1240N+02001MA1999999101491MD1999999+0071MW1601REMSYN088AAXX  13124 83096 21597 81806 10270 20211 30149 40156 76066 885// 333 20200 58007 60084;
0154830960999992000051318004-10920-037050FM-12+000699999V0201801N003610450019N0200001N1+02731+02121101231ADDAA106001091GF106991041051012501031001MA1999999101161MD1999999+0001REMSYN076AAXX  13184 83096 22698 61807 10273 20212 30116 40123 84530 333 58000 60011;
0173830960999992000051412004-10920-037050FM-12+000699999V0201801N003112200019N0200001N1+02781+02061101521ADDAA124001091GF102991021051012501001001KA1240N+02011MA1999999101451MD1999999-0041REMSYN082AAXX  14124 83096 22698 21806 10278 20206 30145 40152 82500 333 20201 59004 60014;
0186830960999992000051500004-10920-037050FM-12+000699999V0201801N002112200019N9999999N1+02621+02031101551ADDAA199000091GF102991021051012501001001KA1240M+02911MA1999999101481MD1999999+0031REMSYN076AAXX  15004 83096 326// 21804 10262 20203 30148 40155 82500 333 10291 58003;EQDQ01  00002PRCP99
0186830960999992000051512004-10920-037050FM-12+000699999V0201801N002612200019N0200001N1+02781+02061101391ADDAA199000091GF103991031051012501001001KA1240N+02221MA1999999101321MD1999999-0131REMSYN076AAXX  15124 83096 32698 31805 10278 20206 30132 40139 83500 333 20222 59013;EQDQ01  00002PRCP99
0167830960999992000051518004-10920-037050FM-12+000699999V0201801N003112200019N0200001N1+02781+02041101211ADDAA199000091GF101991011051012501001001MA1999999101141MD1999999-0071REMSYN070AAXX  15184 83096 32698 11806 10278 20204 30114 40121 81500 333 59007;EQDQ01  00002PRCP99
0186830960999992000051600004-10920-037050FM-12+000699999V0201801N003612200019N9999999N1+02561+02131101211ADDAA199000091GF104991041051012501001001KA1240M+02861MA1999999101141MD1999999-0341REMSYN076AAXX  16004 83096 326// 41807 10256 20213 30114 40121 84500 333 10286 59034;EQDQ01  00002PRCP99
0173830960999992000051612004-10920-037050FM-12+000699999V0203201N001010120019N0200001N1+02501+02251101331ADDAA124000191GF106991061051012501001001KA1240N+01961MA1999999101261MD1999999-0061REMSYN082AAXX  16124 83096 22698 63202 10250 20225 30126 40133 86500 333 20196 59006 69924;
0167830960999992000051618004-10920-037050FM-12+000699999V0201801N002110120019N0200001N1+02721+01881101111ADDAA199000091GF107991071051012501001001MA1999999101041MD1999999-0101REMSYN070AAXX  16184 83096 32698 71804 10272 20188 30104 40111 87500 333 59010;EQDQ01  00002PRCP99
0186830960999992000051700004-10920-037050FM-12+000699999V0201801N000512200019N9999999N1+02431+02131101321ADDAA199000091GF101991011011012501001001KA1240M+02861MA1999999101251MD1999999+0111REMSYN076AAXX  17004 83096 326// 11801 10243 20213 30125 40132 81100 333 10286 58011;EQDQ01  00002PRCP99
0173830960999992000051712004-10920-037050FM-12+000699999V0202701N001510120019N0200001N1+02541+02331101301ADDAA124002091GF108991081051012501999999KA1240N+01981MA1999999101231MD1999999-0031REMSYN082AAXX  17124 83096 22698 82703 10254 20233 30123 40130 885// 333 20198 59003 60024;
0154830960999992000051718004-10920-037050FM-12+000699999V0200901N002112200019N0200001N1+02841+02291101171ADDAA106000591GF102991021051012501031001MA1999999101101MD1999999+0061REMSYN076AAXX  17184 83096 22698 20904 10284 20229 30110 40117 82530 333 58006 69941;
0186830960999992000051800004-10920-037050FM-12+000699999V0200901N002110120019N9999999N1+02701+02411101131ADDAA199000091GF106991061051012501001001KA1240M+02881MA1999999101061MD1999999-0191REMSYN076AAXX  18004 83096 326// 60904 10270 20241 30106 40113 86500 333 10288 59019;EQDQ01  00002PRCP99
0173830960999992000051812004-10920-037050FM-12+000699999V0203601N002612200019N0200001N1+02811+02271101311ADDAA124006191GF102991021051012501001001KA1240N+02111MA1999999101241MD1999999+0011REMSYN082AAXX  18124 83096 22698 23605 10281 20227 30124 40131 82500 333 20211 58001 60064;
0167830960999992000051818004-10920-037050FM-12+000699999V0200901N004112200019N0200001N1+02831+02331100981ADDAA199000091GF101991011051012501001001MA1999999100911MD1999999-0191REMSYN070AAXX  18184 83096 32698 10908 10283 20233 30091 40098 81500 333 59019;EQDQ01  00002PRCP99
0186830960999992000051900004-10920-037050FM-12+000699999V0200901N003112200019N9999999N1+02711+02331101311ADDAA199000091GF101991011011012501001001KA1240M+03021MA1999999101241MD1999999+0181REMSYN076AAXX  19004 83096 326// 10906 10271 20233 30124 40131 81100 333 10302 58018;EQDQ01  00002PRCP99
0186830960999992000051912004-10920-037050FM-12+000699999V0200501N002112200019N0200001N1+02721+02301101231ADDAA199000091GF102991021051012501001001KA1240N+02061MA1999999101161MD1999999-0081REMSYN076AAXX  19124 83096 32698 20504 10272 20230 30116 40123 82500 333 20206 59008;EQDQ01  00002PRCP99
0167830960999992000051918004-10920-037050FM-12+000699999V0200901N003612200019N0200001N1+02841+02351101181ADDAA199000091GF101991011051012501001001MA1999999101111MD1999999+0201REMSYN070AAXX  19184 83096 32698 10907 10284 20235 30111 40118 81500 333 58020;EQDQ01  00002PRCP99
0186830960999992000052000004-10920-037050FM-12+000699999V0200901N003612200019N9999999N1+02701+02301101131ADDAA199000091GF101991011051012501001001KA1240M+02841MA1999999101061MD1999999-0181REMSYN076AAXX  20004 83096 326// 10907 10270 20230 30106 40113 81500 333 10284 59018;EQDQ01  00002PRCP99
0186830960999992000052012004-10920-037050FM-12+000699999V0200901N001512200019N0200001N1+02781+02361101431ADDAA199000091GF101991011051012501001001KA1240N+01981MA1999999101361MD1999999+0201REMSYN076AAXX  20124 83096 32698 10903 10278 20236 30136 40143 81500 333 20198 58020;EQDQ01  00002PRCP99
0167830960999992000052018004-10920-037050FM-12+000699999V0200901N002112200019N0200001N1+02841+02381101261ADDAA199000091GF103991031051012501001001MA1999999101291MD1999999+0181REMSYN070AAXX  20184 83096 32698 30904 10284 20238 30129 40126 83500 333 58018;EQDQ01  00002PRCP99
0186830960999992000052100004-10920-037050FM-12+000699999V0201801N002112200019N9999999N1+02661+02241101391ADDAA199000091GF101991011051012501001001KA1240M+02921MA1999999101321MD1999999+0261REMSYN076AAXX  21004 83096 326// 11804 10266 20224 30132 40139 81500 333 10292 58026;EQDQ01  00002PRCP99
0186830960999992000052112004-10920-037050FM-12+000699999V0200901N002612200019N0200001N1+02821+02271101511ADDAA199000091GF101991011051012501001001KA1240N+02181MA1999999101441MD1999999+0081REMSYN076AAXX  21124 83096 32698 10905 10282 20227 30144 40151 81500 333 20218 58008;EQDQ01  00002PRCP99
0167830960999992000052118004-10920-037050FM-12+000699999V0200901N002612200019N0200001N1+02821+02241101441ADDAA199000091GF102991021051012501001001MA1999999101371MD1999999+0081REMSYN070AAXX  21184 83096 32698 20905 10282 20224 30137 40144 82500 333 58008;EQDQ01  00002PRCP99
0173830960999992000052200004-10920-037050FM-12+000699999V0203601N001510120019N9999999N1+02441+02251101491ADDAA106004191GF105991051051012501001001KA1240M+02961MA1999999101421MD1999999+0101REMSYN082AAXX  22004 83096 226// 53603 10244 20225 30142 40149 85500 333 10296 58010 60041;
0201830960999992000052212004-10920-037050FM-12+000699999V0201801N002110075019N0100001N1+02531+02231101821ADDAA124009991AY161061AY261061GF108991081051008001999999KA1240N+02041MA1999999101751MD1999999+0311MW1601REMSYN088AAXX  22124 83096 21597 81804 10253 20223 30175 40182 76066 885// 333 20204 58031 60104;
0182830960999992000052218004-10920-037050FM-12+000699999V0201801N004610075019N0100001N1+02521+02271101661ADDAA106015091AY161061AY261061GF108991081051008001999999MA1999999101591MD1999999+0221MW1601REMSYN082AAXX  22184 83096 21597 81809 10252 20227 30159 40166 76066 885// 333 58022 60151;
0173830960999992000052300004-10920-037050FM-12+000699999V0200901N002110120019N9999999N1+02421+02211101741ADDAA106000891GF106991061051012501001001KA1240M+02741MA1999999101671MD1999999+0251REMSYN082AAXX  23004 83096 226// 60904 10242 20221 30167 40174 86500 333 10274 58025 69981;
0173830960999992000052312004-10920-037050FM-12+000699999V0200901N002610120019N0200001N1+02421+02251101781ADDAA124017091GF106991061051012501001001KA1240N+01981MA1999999101711MD1999999-0041REMSYN082AAXX  23124 83096 22698 60905 10242 20225 30171 40178 86500 333 20198 59004 60174;
0154830960999992000052318004-10920-037050FM-12+000699999V0201801N002610120019N0200001N1+02721+02051101651ADDAA106000591GF106991061051012501001001MA1999999101581MD1999999-0011REMSYN076AAXX  23184 83096 22698 61805 10272 20205 30158 40165 86500 333 59001 69941;
0186830960999992000052400004-10920-037050FM-12+000699999V0201801N002610120019N9999999N1+02581+01971101691ADDAA199000091GF106991061051012501001001KA1240M+02801MA1999999101621MD1999999-0051REMSYN076AAXX  24004 83096 326// 61805 10258 20197 30162 40169 86500 333 10280 59005;EQDQ01  00002PRCP99
0173830960999992000052412004-10920-037050FM-12+000699999V0201801N003112200019N0200001N1+02741+01951101811ADDAA124001091GF104991041051012501001001KA1240N+02171MA1999999101741MD1999999+0031REMSYN082AAXX  24124 83096 22698 41806 10274 20195 30174 40181 84500 333 20217 58003 60014;
0167830960999992000052418004-10920-037050FM-12+000699999V0201801N003110120019N0200001N1+02731+02221101501ADDAA199000091GF106991061051012501001001MA1999999101431MD1999999-0151REMSYN070AAXX  24184 83096 32698 61806 10273 20222 30143 40150 86500 333 59015;EQDQ01  00002PRCP99
0173830960999992000052512004-10920-037050FM-12+000699999V0202701N002110120019N0200001N1+02621+02291101611ADDAA124003091GF106991061051012501001001KA1240N+01921MA1999999101541MD1999999-0201REMSYN082AAXX  25124 83096 22698 62704 10262 20229 30154 40161 86500 333 20192 59020 60034;
0167830960999992000052518004-10920-037050FM-12+000699999V0200901N002112200019N0200001N1+02781+02271101371ADDAA199000091GF101991011051012501001001MA1999999101301MD1999999+0131REMSYN070AAXX  25184 83096 32698 10904 10278 20227 30130 40137 81500 333 58013;EQDQ01  00002PRCP99
0186830960999992000052600004-10920-037050FM-12+000699999V0201801N001512200019N9999999N1+02601+02191101411ADDAA199000091GF101991011051012501001001KA1240M+02921MA1999999101341MD1999999-0231REMSYN076AAXX  26004 83096 326// 11803 10260 20219 30134 40141 81500 333 10292 59023;EQDQ01  00002PRCP99
0173830960999992000052612004-10920-037050FM-12+000699999V0203601N000512200019N0200001N1+02761+02341101541ADDAA124003091GF103991031051012501001001KA1240N+01921MA1999999101471MD1999999-0071REMSYN082AAXX  26124 83096 22698 33601 10276 20234 30147 40154 83500 333 20192 59007 60034;
0167830960999992000052618004-10920-037050FM-12+000699999V0201801N001512200019N0200001N1+02751+02341101311ADDAA199000091GF101991011051012501001001MA1999999101241MD1999999-0061REMSYN070AAXX  26184 83096 32698 11803 10275 20234 30124 40131 81500 333 59006;EQDQ01  00002PRCP99
0186830960999992000052700004-10920-037050FM-12+000699999V0201801N001512200019N9999999N1+02601+02091101411ADDAA199000091GF101991011011012501001001KA1240M+02901MA1999999101341MD1999999+0001REMSYN076AAXX  27004 83096 326// 11803 10260 20209 30134 40141 81100 333 10290 58000;EQDQ01  00002PRCP99
0186830960999992000052712004-10920-037050FM-12+000699999V0200501N000512200019N0200001N1+02751+02281101411ADDAA199000091GF102991021051012501001001KA1240N+01941MA1999999101341MD1999999-0131REMSYN076AAXX  27124 83096 32698 20501 10275 20228 30134 40141 82500 333 20194 59013;EQDQ01  00002PRCP99
0167830960999992000052718004-10920-037050FM-12+000699999V0200901N001512200019N0200001N1+02821+02151101181ADDAA199000091GF101991011051012501001001MA1999999101111MD1999999-0131REMSYN070AAXX  27184 83096 32698 10903 10282 20215 30111 40118 81500 333 59013;EQDQ01  00002PRCP99
0186830960999992000052800004-10920-037050FM-12+000699999V0201801N002112200019N9999999N1+02631+02051101201ADDAA199000091GF102991021011012501001001KA1240M+02901MA1999999101131MD1999999-0211REMSYN076AAXX  28004 83096 326// 21804 10263 20205 30113 40120 82100 333 10290 59021;EQDQ01  00002PRCP99
0156830960999992000052812004-10920-037050FM-12+000699999V0200901N000512200019N0200001N1+02771+02121101301ADDGF101991011051012501001001KA1240N+01781MA1999999101231MD1999999-0091REMSYN076AAXX  28124 83096 22698 10901 10277 20212 30123 40130 81500 333 20178 59009;
0167830960999992000052818004-10920-037050FM-12+000699999V0200901N003112200019N0200001N1+02761+02251100941ADDAA199000091GF101991011011012501001001MA1999999100871MD1999999-0241REMSYN070AAXX  28184 83096 32698 10906 10276 20225 30087 40094 81100 333 59024;EQDQ01  00002PRCP99
0186830960999992000052900004-10920-037050FM-12+000699999V0200901N002112200019N9999999N1+02551+02191101111ADDAA199000091GF101991011011012501001001KA1240M+02841MA1999999101041MD1999999-0091REMSYN076AAXX  29004 83096 326// 10904 10255 20219 30104 40111 81100 333 10284 59009;EQDQ01  00002PRCP99
0186830960999992000052912004-10920-037050FM-12+000699999V0203601N002112200019N0200001N1+02681+02281101131ADDAA199000091GF102991021051012501001001KA1240N+01781MA1999999101061MD1999999-0171REMSYN076AAXX  29124 83096 32698 23604 10268 20228 30106 40113 82500 333 20178 59017;EQDQ01  00002PRCP99
0167830960999992000052918004-10920-037050FM-12+000699999V0200901N001512200019N0200001N1+02821+02331100991ADDAA199000091GF101991011051012501001001MA1999999100921MD1999999+0051REMSYN070AAXX  29184 83096 32698 10903 10282 20233 30092 40099 81500 333 58005;EQDQ01  00002PRCP99
0186830960999992000053000004-10920-037050FM-12+000699999V0200901N001512200019N9999999N1+02641+02271101211ADDAA199000091GF101991011051012501001001KA1240M+02881MA1999999101141MD1999999+0101REMSYN076AAXX  30004 83096 326// 10903 10264 20227 30114 40121 81500 333 10288 58010;EQDQ01  00002PRCP99
0186830960999992000053012004-10920-037050FM-12+000699999V0201801N002112200019N0200001N1+02841+02221101431ADDAA199000091GF101991011051012501001001KA1240N+02211MA1999999101361MD1999999+0301REMSYN076AAXX  30124 83096 32698 11804 10284 20222 30136 40143 81500 333 20221 58030;EQDQ01  00002PRCP99
0167830960999992000053018004-10920-037050FM-12+000699999V0201801N002112200019N0200001N1+02811+02221101161ADDAA199000091GF101991011011012501001001MA1999999101091MD1999999+0171REMSYN070AAXX  30184 83096 32698 11804 10281 20222 30109 40116 81100 333 58017;EQDQ01  00002PRCP99
0186830960999992000053100004-10920-037050FM-12+000699999V0201801N000512200019N9999999N1+02561+02111101291ADDAA199000091GF102991021051012501001001KA1240M+02921MA1999999101221MD1999999+0081REMSYN076AAXX  31004 83096 326// 21801 10256 20211 30122 40129 82500 333 10292 58008;EQDQ01  00002PRCP99
0186830960999992000053112004-10920-037050FM-12+000699999V0201401N001512200019N0200001N1+02561+02231101401ADDAA199000091GF103991021051012501031001KA1240N+01821MA1999999101331MD1999999+0031REMSYN076AAXX  31124 83096 32698 31403 10256 20223 30133 40140 82530 333 20182 58003;EQDQ01  00002PRCP99
0167830960999992000053118004-10920-037050FM-12+000699999V0200901N003112200019N0200001N1+02781+02251101181ADDAA199000091GF101991011051012501001001MA1999999101111MD1999999+0021REMSYN070AAXX  31184 83096 32698 10906 10278 20225 30111 40118 81500 333 58002;EQDQ01  00002PRCP99
0186830960999992000060100004-10920-037050FM-12+000699999V0201401N001512200019N9999999N1+02661+02291101201ADDAA199000091GF102991021051012501001001KA1240M+02921MA1999999101131MD1999999-0091REMSYN076AAXX  01004 83096 326// 21403 10266 20229 30113 40120 82500 333 10292 59009;EQDQ01  00002PRCP99
0173830960999992000060112004-10920-037050FM-12+000699999V0201801N001510120019N0200001N1+02711+02371101401ADDAA124000891GF107991071051012501001001KA1240N+02061MA1999999101331MD1999999+0001REMSYN082AAXX  01124 83096 22698 71803 10271 20237 30133 40140 87500 333 20206 58000 69984;
0167830960999992000060118004-10920-037050FM-12+000699999V0200901N001510120019N0200001N1+02741+02431101191ADDAA199000091GF106991061051012501001001MA1999999101121MD1999999+0011REMSYN070AAXX  01184 83096 32698 60903 10274 20243 30112 40119 86500 333 58001;EQDQ01  00002PRCP99
0186830960999992000060200004-10920-037050FM-12+000699999V0201801N001510120019N9999999N1+02641+02331101461ADDAA199000091GF106991061051012501001001KA1240M+02911MA1999999101391MD1999999+0261REMSYN076AAXX  02004 83096 326// 61803 10264 20233 30139 40146 86500 333 10291 58026;EQDQ01  00002PRCP99
0186830960999992000060212004-10920-037050FM-12+000699999V0200901N002112200019N0200001N1+02761+02481101481ADDAA199000091GF102991021051012501001001KA1240N+02181MA1999999101411MD1999999+0081REMSYN076AAXX  02124 83096 32698 20904 10276 20248 30141 40148 82500 333 20218 58008;EQDQ01  00002PRCP99
0167830960999992000060218004-10920-037050FM-12+000699999V0201401N002112200019N0200001N1+02841+02351101391ADDAA199000091GF102991021051012501001001MA1999999101321MD1999999+0201REMSYN070AAXX  02184 83096 32698 21404 10284 20235 30132 40139 82500 333 58020;EQDQ01  00002PRCP99
0186830960999992000060300004-10920-037050FM-12+000699999V0201801N001512200019N9999999N1+02681+02201101371ADDAA199000091GF101991011051012501001001KA1240M+02941MA1999999101301MD1999999-0091REMSYN076AAXX  03004 83096 326// 11803 10268 20220 30130 40137 81500 333 10294 59009;EQDQ01  00002PRCP99
0173830960999992000060312004-10920-037050FM-12+000699999V0201801N002110120019N0200001N1+02441+02251101611ADDAA124005191GF106991061051012501001001KA1240N+02081MA1999999101541MD1999999+0131REMSYN082AAXX  03124 83096 22698 61804 10244 20225 30154 40161 86500 333 20208 58013 60054;
0167830960999992000060318004-10920-037050FM-12+000699999V0201801N002610120019N0200001N1+02781+02301101561ADDAA199000091GF105991051051012501001001MA1999999101491MD1999999+0171REMSYN070AAXX  03184 83096 32698 51805 10278 20230 30149 40156 85500 333 58017;EQDQ01  00002PRCP99
0186830960999992000060400004-10920-037050FM-12+000699999V0201801N003110120019N9999999N1+02561+02251101531ADDAA199000091GF106991061051012501001001KA1240M+02821MA1999999101461MD1999999+0161REMSYN076AAXX  04004 83096 326// 61806 10256 20225 30146 40153 86500 333 10282 58016;EQDQ01  00002PRCP99
0201830960999992000060412004-10920-037050FM-12+000699999V0201801N001510075019N0100001N1+02361+02261101541ADDAA124023991AY161061AY261061GF108991081051008001999999KA1240N+01861MA1999999101471MD1999999-0071MW1601REMSYN088AAXX  04124 83096 21597 81803 10236 20226 30147 40154 76066 885// 333 20186 59007 60244;
0148830960999992000060418004-10920-037050FM-12+000699999V0200901N002112200019N0200001N1+02741+02341101591ADDAA199000021GF102991021051012501001001MA1999999101521MD1999999+0031REMSYN070AAXX  04184 83096 32698 20904 10274 20234 30152 40159 82500 333 58003;
0167830960999992000060500004-10920-037050FM-12+000699999V0201801N002610120019N9999999N1+02621+02291101511ADDAA199000021GF105991051051012501001001KA1240M+02801MA1999999101441MD1999999-0021REMSYN076AAXX  05004 83096 326// 51805 10262 20229 30144 40151 85500 333 10280 59002;
0201830960999992000060512004-10920-037050FM-12+000699999V0201801N005110075019N0100001N1+02411+02171101771ADDAA124026991AY161061AY261061GF108991081071008001999999KA1240N+02001MA1999999101701MD1999999+0231MW1601REMSYN088AAXX  05124 83096 21597 81810 10241 20217 30170 40177 76066 887// 333 20200 58023 60274;
0182830960999992000060518004-10920-037050FM-12+000699999V0201801N005110075019N0100001N1+02601+02231101551ADDAA106007191AY161061AY261061GF108991081051008001999999MA1999999101481MD1999999-0041MW1601REMSYN082AAXX  05184 83096 21597 81810 10260 20223 30148 40155 76066 885// 333 59004 60071;
0137830960999992000060600004-10920-037050FM-12+000699999V0201801N003119999999N9999999N1+02581+02081999999ADDAA199000021GF106991999999012501999999KA1240M+02681REMSYN075AAXX  06004 83096 326// 61806 10258 20208 0160 40167 86500 333 10268 58016;
0173830960999992000060612004-10920-037050FM-12+000699999V0201801N002112200019N0200001N1+02481+02191101661ADDAA124009991GF104991041051012501001001KA1240N+01901MA1999999101591MD1999999-0111REMSYN082AAXX  06124 83096 22698 41804 10248 20219 30159 40166 84500 333 20190 59011 60104;
0167830960999992000060618004-10920-037050FM-12+000699999V0201801N002110120019N0200001N1+02721+02151101581ADDAA199000091GF105991051051012501001001MA1999999101511MD1999999+0031REMSYN070AAXX  06184 83096 32698 51804 10272 20215 30151 40158 85500 333 58003;EQDQ01  00002PRCP99
0173830960999992000060700004-10920-037050FM-12+000699999V0201801N002112200019N9999999N1+02601+02031101621ADDAA106000591GF102991021051012501001001KA1240M+02801MA1999999101551MD1999999-0051REMSYN082AAXX  07004 83096 226// 21804 10260 20203 30155 40162 82500 333 10280 59005 69961;
0173830960999992000060712004-10920-037050FM-12+000699999V0201801N003110120019N0200001N1+02521+02211101721ADDAA124005191GF107991071051012501001001KA1240N+02021MA1999999101651MD1999999+0061REMSYN082AAXX  07124 83096 22698 71806 10252 20221 30165 40172 87500 333 20202 58006 60054;
0154830960999992000060718004-10920-037050FM-12+000699999V0201801N003110120019N0200001N1+02721+02221101511ADDAA106000891GF106991061051012501001001MA1999999101441MD1999999-0071REMSYN076AAXX  07184 83096 22698 61806 10272 20222 30144 40151 86500 333 59007 69981;
0186830960999992000060800004-10920-037050FM-12+000699999V0201801N002610120019N9999999N1+02601+02251101601ADDAA199000091GF106991061051012501001001KA1240M+02771MA1999999101531MD1999999-0021REMSYN076AAXX  08004 83096 326// 61805 10260 20225 30153 40160 86500 333 10277 59002;EQDQ01  00002PRCP99
0173830960999992000060812004-10920-037050FM-12+000699999V0201801N002612200019N0200001N1+02741+02171101501ADDAA124000891GF102991021051012501001001KA1240N+02301MA1999999101431MD1999999-0221REMSYN082AAXX  08124 83096 22698 21805 10274 20217 30143 40150 82500 333 20230 59022 69984;
0167830960999992000060818004-10920-037050FM-12+000699999V0201801N003112200019N0200001N1+02681+02131101501ADDAA199000091GF102991021051012501001001MA1999999101431MD1999999-0011REMSYN070AAXX  08184 83096 32698 21806 10268 20213 30143 40150 82500 333 59001;EQDQ01  00002PRCP99
0186830960999992000060900004-10920-037050FM-12+000699999V0201801N002612200019N9999999N1+02601+02031101551ADDAA199000091GF104991041051012501001001KA1240M+02841MA1999999101481MD1999999-0051REMSYN076AAXX  09004 83096 326// 41805 10260 20203 30148 40155 84500 333 10284 59005;EQDQ01  00002PRCP99
0173830960999992000060912004-10920-037050FM-12+000699999V0201801N002612200019N0200001N1+02711+01991101751ADDAA124000191GF104991031051012501031001KA1240N+02011MA1999999101681MD1999999+0251REMSYN082AAXX  09124 83096 22698 41805 10271 20199 30168 40175 83530 333 20201 58025 69924;
0161830960999992000060918004-10920-037050FM-12+000699999V0201801N002112200019N0200001N1+02701+02111999999ADDAA199000091GF102991021051012501001001MA1999999101431MD1999999+0001REMSYN064AAXX  09184 83096 32698 21804 10270 20211 30143 82500 333 58000;EQDQ01  00002PRCP99
0186830960999992000061000004-10920-037050FM-12+000699999V0201801N003612200019N9999999N1+02551+02131101611ADDAA199000091GF101991011011012501001001KA1240M+02811MA1999999101541MD1999999+0161REMSYN076AAXX  10004 83096 326// 11807 10255 20213 30154 40161 81100 333 10281 58016;EQDQ01  00002PRCP99
0173830960999992000061012004-10920-037050FM-12+000699999V0203201N003110120019N0200001N1+02541+02231101711ADDAA124000591GF106991061051012501001001KA1240N+01841MA1999999101641MD1999999-0041REMSYN082AAXX  10124 83096 22698 63206 10254 20223 30164 40171 86500 333 20184 59004 69944;
0167830960999992000061018004-10920-037050FM-12+000699999V0201801N003112200019N0200001N1+02711+02261101391ADDAA199000091GF102991021051012501001001MA1999999101321MD1999999-0111REMSYN070AAXX  10184 83096 32698 21806 10271 20226 30132 40139 82500 333 59011;EQDQ01  00002PRCP99
0201830960999992000061112004-10920-037050FM-12+000699999V0200901N003110075019N0100001N1+02401+02151101741ADDAA124019191AY161061AY261061GF108991081071008001999999KA1240N+01841MA1999999101671MD1999999+0031MW1601REMSYN088AAXX  11124 83096 21597 80906 10240 20215 30167 40174 76066 887// 333 20184 58003 60194;
0148830960999992000061118004-10920-037050FM-12+000699999V0201801N001512200019N0200001N1+02721+02121101391ADDAA199000021GF102991021051012501001001MA1999999101321MD1999999+0001REMSYN070AAXX  11184 83096 32698 21803 10272 20212 30132 40139 82500 333 58000;
0159830960999992000061212004-10920-037050FM-12+000699999V0201801N001512200019N0200001N1+02721+02101101601ADDAA124001091GF101991011051012501001001KA1240N+02101MA1999999101531REMSYN082AAXX  12124 83096 22698 11803 10272 20210 30153 40160 81500 333 20210 54014 60014;
0167830960999992000061218004-10920-037050FM-12+000699999V0201801N002112200019N0200001N1+02721+02151101401ADDAA199000091GF103991031051012501001001MA1999999101331MD1999999+0011REMSYN070AAXX  12184 83096 32698 31804 10272 20215 30133 40140 83500 333 58001;EQDQ01  00002PRCP99
0186830960999992000061300004-10920-037050FM-12+000699999V0201801N002112200019N9999999N1+02561+02131101431ADDAA199000091GF101991011051012501001001KA1240M+02821MA1999999101361MD1999999-0131REMSYN076AAXX  13004 83096 326// 11804 10256 20213 30136 40143 81500 333 10282 59013;EQDQ01  00002PRCP99
0173830960999992000061312004-10920-037050FM-12+000699999V0201801N003612200019N0200001N1+02561+02191101621ADDAA124002091GF104991041051012501001001KA1240N+01981MA1999999101551MD1999999+0021REMSYN082AAXX  13124 83096 22698 41807 10256 20219 30155 40162 84500 333 20198 58002 60024;
0167830960999992000061318004-10920-037050FM-12+000699999V0201801N004110120019N0200001N1+02651+02141101331ADDAA199000091GF107991071051012501001001MA1999999101261MD1999999-0071REMSYN070AAXX  13184 83096 32698 71808 10265 20214 30126 40133 87500 333 59007;EQDQ01  00002PRCP99
0173830960999992000061400004-10910-037500FM-12+000699999V0201801N003112200019N9999999N1+02541+02151101531ADDAA106004191GF102991021051012501001001KA1240M+02781MA1999999101461MD1999999+0101REMSYN082AAXX  14004 83096 226// 21806 10254 20215 30146 40153 82500 333 10278 58010 60041;
0173830960999992000061412004-10910-037500FM-12+000699999V0201801N001512200019N0200001N1+02721+02121101501ADDAA124004191GF101991011051012501001001KA1240N+02181MA1999999101431MD1999999+0171REMSYN082AAXX  14124 83096 22698 11803 10272 20212 30143 40150 81500 333 20218 58017 60044;
0167830960999992000061418004-10910-037500FM-12+000699999V0201801N002112200019N0200001N1+02721+02051101411ADDAA199000091GF102991021051012501001001MA1999999101341MD1999999+0081REMSYN070AAXX  14184 83096 32698 21804 10272 20205 30134 40141 82500 333 58008;EQDQ01  00002PRCP99
0173830960999992000061500004-10910-037500FM-12+000699999V0201801N002112200019N9999999N1+02501+01981101411ADDAA106000191GF102991021051012501001001KA1240M+02801MA1999999101341MD1999999-0121REMSYN082AAXX  15004 83096 226// 21804 10250 20198 30134 40141 82500 333 10280 59012 69921;
0186830960999992000061512004-10910-037500FM-12+000699999V0201801N002612200019N0200001N1+02721+02121101521ADDAA199000091GF102991021051012501001001KA1240N+02101MA1999999101451MD1999999+0021REMSYN076AAXX  15124 83096 32698 21805 10272 20212 30145 40152 82500 333 20210 58002;EQDQ01  00002PRCP99
0167830960999992000061518004-10910-037500FM-12+000699999V0201801N003112200019N0200001N1+02711+02321101311ADDAA199000091GF102991021051012501001001MA1999999101241MD1999999-0101REMSYN070AAXX  15184 83096 32698 21806 10271 20232 30124 40131 82500 333 59010;EQDQ01  00002PRCP99
0201830960999992000061600004-10910-037500FM-12+000699999V0202201N000510075019N9999999N1+02281+02111101461ADDAA106007191AY161061AY261061GF108991081071008001999999KA1240M+02881MA1999999101391MD1999999+0051MW1601REMSYN088AAXX  16004 83096 215// 82201 10228 20211 30139 40146 76066 887// 333 10288 58005 60071;
0173830960999992000061612004-10910-037500FM-12+000699999V0201801N001510120019N0200001N1+02621+02071101381ADDAA124007991GF105991051051012501001001KA1240N+01941MA1999999101311MD1999999-0141REMSYN082AAXX  16124 83096 22698 51803 10262 20207 30131 40138 85500 333 20194 59014 60084;
0167830960999992000061618004-10910-037500FM-12+000699999V0201801N001512200019N0200001N1+02741+02121101291ADDAA199000091GF104991041051012501001001MA1999999101221MD1999999-0021REMSYN070AAXX  16184 83096 32698 41803 10274 20212 30122 40129 84500 333 59002;EQDQ01  00002PRCP99
0167830960999992000061718004-10910-037500FM-12+000699999V0201801N002110120019N0200001N1+02561+02251101291ADDAA199000091GF105991051051012501001001MA1999999101221MD1999999+0001REMSYN070AAXX  17184 83096 32698 51804 10256 20225 30122 40129 85500 333 58000;EQDQ01  00002PRCP99
0167830960999992000061818004-10910-037500FM-12+000699999V0201801N002110120019N0200001N1+02601+02391101311ADDAA199000091GF106991061051012501001001MA1999999101241MD1999999-0021REMSYN070AAXX  18184 83096 32698 61804 10260 20239 30124 40131 86500 333 59002;EQDQ01  00002PRCP99
0186830960999992000061912004-10910-037500FM-12+000699999V0203201N000512200019N0200001N1+02661+02391101591ADDAA199000091GF102991021051012501001001KA1240N+01951MA1999999101521MD1999999-0151REMSYN076AAXX  19124 83096 32698 23201 10266 20239 30152 40159 82500 333 20195 59015;EQDQ01  00002PRCP99
0167830960999992000061918004-10910-037500FM-12+000699999V0200901N003612200019N0200001N1+02721+02301101311ADDAA199000091GF104991041051012501001001MA1999999101241MD1999999+0001REMSYN070AAXX  19184 83096 32698 40907 10272 20230 30124 40131 84500 333 58000;EQDQ01  00002PRCP99
0186830960999992000062000004-10910-037500FM-12+000699999V0200901N001512200019N9999999N1+02611+02271101441ADDAA199000091GF102991021051012501001001KA1240M+02881MA1999999101371MD1999999+0131REMSYN076AAXX  20004 83096 326// 20903 10261 20227 30137 40144 82500 333 10288 58013;EQDQ01  00002PRCP99
0186830960999992000062012004-10910-037500FM-12+000699999V0200901N001510120019N0200001N1+02721+02221101491ADDAA199000091GF105991051051012501001001KA1240N+02021MA1999999101421MD1999999-0101REMSYN076AAXX  20124 83096 32698 50903 10272 20222 30142 40149 85500 333 20202 59010;EQDQ01  00002PRCP99
0167830960999992000062018004-10910-037500FM-12+000699999V0200901N002612200019N0200001N1+02781+02211101411ADDAA199000091GF101991011051012501001001MA1999999101341MD1999999+0101REMSYN070AAXX  20184 83096 32698 10905 10278 20221 30134 40141 81500 333 58010;EQDQ01  00002PRCP99
0186830960999992000062100004-10910-037500FM-12+000699999V0201401N001512200019N9999999N1+02601+02271101391ADDAA199000091GF101991011051012501001001KA1240M+02841MA1999999101321MD1999999-0051REMSYN076AAXX  21004 83096 326// 11403 10260 20227 30132 40139 81500 333 10284 59005;EQDQ01  00002PRCP99
0154830960999992000062118004-10910-037500FM-12+000699999V0201401N003112200019N0200001N1+02761+02361101381ADDAA106000191GF102991021051012501001001MA1999999101211MD1999999-0031REMSYN076AAXX  21184 83096 22698 21406 10276 20236 30121 40138 82500 333 59003 69921;
0186830960999992000062200004-10910-037500FM-12+000699999V0201401N004612200019N9999999N1+02581+02091101551ADDAA199000091GF101991011051012501001001KA1240M+02841MA1999999101481MD1999999+0161REMSYN076AAXX  22004 83096 326// 11409 10258 20209 30148 40155 81500 333 10284 58016;EQDQ01  00002PRCP99
0156830960999992000062212004-10910-037500FM-12+000699999V0203601N001512200019N0200001N1+02521+02311101441ADDGF103991031051012501001001KA1240N+01821MA1999999101371MD1999999-0121REMSYN076AAXX  22124 83096 22698 33603 10252 20231 30137 40144 83500 333 20182 59012;
0167830960999992000062218004-10910-037500FM-12+000699999V0201401N002112200019N0200001N1+02781+02301101391ADDAA199000091GF102991021051012501001001MA1999999101321MD1999999+0011REMSYN070AAXX  22184 83096 32698 21404 10278 20230 30132 40139 82500 333 58001;EQDQ01  00002PRCP99
0186830960999992000062300004-10910-037500FM-12+000699999V0201401N002112200019N9999999N1+02621+02231101501ADDAA199000091GF103991031051012501001001KA1240M+02841MA1999999101421MD1999999-0061REMSYN076AAXX  23004 83096 326// 31404 10262 20223 30142 40150 83500 333 10284 59006;EQDQ01  00002PRCP99
0186830960999992000062312004-10910-037500FM-12+000699999V0201801N003112200019N0200001N1+02731+02051101681ADDAA199000091GF102991021051012501001001KA1240N+02201MA1999999101611MD1999999+0241REMSYN076AAXX  23124 83096 32698 21806 10273 20205 30161 40168 82500 333 20220 58024;EQDQ01  00002PRCP99
0167830960999992000062318004-10910-037500FM-12+000699999V0201801N003112200019N0200001N1+02711+02171101471ADDAA199000091GF102991021051012501001001MA1999999101401MD1999999+0081REMSYN070AAXX  23184 83096 32698 21806 10271 20217 30140 40147 82500 333 58008;EQDQ01  00002PRCP99
0186830960999992000062400004-10910-037500FM-12+000699999V0201801N003112200019N9999999N1+02581+02171101591ADDAA199000091GF102991021051012501001001KA1240M+02811MA1999999101521MD1999999+0101REMSYN076AAXX  24004 83096 326// 21806 10258 20217 30152 40159 82500 333 10281 58010;EQDQ01  00002PRCP99
0201830960999992000062412004-10910-037500FM-12+000699999V0201801N003110075019N0100001N1+02361+02341101661ADDAA124010991AY161061AY261061GF108991081071008001999999KA1240N+01891MA1999999101591MD1999999-0021MW1601REMSYN088AAXX  24124 83096 21597 81806 10236 20234 30159 40166 76066 887// 333 20189 59002 60114;
0182830960999992000062418004-10910-037500FM-12+000699999V0201801N003110075019N0100001N1+02341+02201101491ADDAA106015091AY161061AY261061GF108991081071008001999999MA1999999101421MD1999999+0021MW1601REMSYN082AAXX  24184 83096 21597 81806 10234 20220 30142 40149 76066 887// 333 58002 60151;
0201830960999992000062500004-10910-037500FM-12+000699999V0201801N003610075019N9999999N1+02281+02161101581ADDAA106003091AY161061AY261061GF108991081071008001999999KA1240M+02601MA1999999101511MD1999999-0011MW1601REMSYN088AAXX  25004 83096 215// 81807 10228 20216 30151 40158 76066 887// 333 10260 59001 60031;
0201830960999992000062512004-10910-037500FM-12+000699999V0201801N004610075019N0100001N1+02561+02081101631ADDAA124050091AY161061AY261061GF108991081071008001999999KA1240N+01931MA1999999101561MD1999999-0031MW1601REMSYN088AAXX  25124 83096 21597 81809 10256 20208 30156 40163 76066 887// 333 20193 59003 60504;
0148830960999992000062518004-10910-037500FM-12+000699999V0201801N003610075019N0100001N1+02581+02121101341ADDAA199000021GF108991081071008001999999MA1999999101271MD1999999-0151REMSYN070AAXX  25184 83096 32597 81807 10258 20212 30127 40134 887// 333 59015;
0173830960999992000062600004-10910-037500FM-12+000699999V0201801N002612200019N0200001N1+02681+02021101441ADDAA124000591GF101991011051012501001001KA1240N+02081MA1999999101371MD1999999-0191REMSYN082AAXX  26004 83096 22698 11805 10268 20202 30137 40144 81500 333 20208 59019 69944;
0173830960999992000062612004-10910-037500FM-12+000699999V0201801N002612200019N0200001N1+02681+02021101441ADDAA124000591GF101991011051012501001001KA1240N+02081MA1999999101371MD1999999-0191REMSYN082AAXX  26124 83096 22698 11805 10268 20202 30137 40144 81500 333 20208 59019 69944;
0167830960999992000062618004-10910-037500FM-12+000699999V0201801N002112200019N0200001N1+02621+02251101391ADDAA199000091GF103991021051012501031001MA1999999101321MD1999999+0051REMSYN070AAXX  26184 83096 32698 31804 10262 20225 30132 40139 82530 333 58005;EQDQ01  00002PRCP99
0186830960999992000062700004-10910-037500FM-12+000699999V0201801N002110120019N9999999N1+02541+02211101441ADDAA199000091GF105991051051012501001001KA1240M+02761MA1999999101371MD1999999-0041REMSYN076AAXX  27004 83096 326// 51804 10254 20221 30137 40144 85500 333 10276 59004;EQDQ01  00002PRCP99
0201830960999992000062712004-10910-037500FM-12+000699999V0201801N002110075019N0100001N1+02401+02261101671ADDAA124023991AY161061AY261061GF108991081071008001999999KA1240N+01941MA1999999101601MD1999999+0231MW1601REMSYN088AAXX  27124 83096 21597 81804 10240 20226 30160 40167 76066 887// 333 20194 58023 60244;
0182830960999992000062718004-10910-037500FM-12+000699999V0200901N003110075019N0100001N1+02361+02171101461ADDAA106009991AY161061AY261061GF108991081071008001999999MA1999999101391MD1999999+0071MW1601REMSYN082AAXX  27184 83096 21597 80906 10236 20217 30139 40146 76066 887// 333 58007 60101;
0186830960999992000062800004-10910-037500FM-12+000699999V0200901N003112200019N9999999N1+02501+02071101621ADDAA199000021GF102991999051012501001001KA1240M+02621MA1999999101551MD1999999+0181REMSYN076AAXX  28004 83096 326// 20906 10250 20207 30155 40162 83500 333 10262 58018;EQDQ01+000032SCOTLC
0173830960999992000062812004-10910-037500FM-12+000699999V0201801N002112200019N0200001N1+02621+02141101561ADDAA124009991GF104991041051012501001001KA1240N+01761MA1999999101491MD1999999-0111REMSYN082AAXX  28124 83096 22698 41804 10262 20214 30149 40156 84500 333 20176 59011 60104;
0182830960999992000062818004-10910-037500FM-12+000699999V0200901N002110075019N0100001N1+02541+02251101451ADDAA106000591AY161061AY261061GF106991061051008001001001MA1999999101381MD1999999-0011MW1601REMSYN082AAXX  28184 83096 21597 60904 10254 20225 30138 40145 76066 86500 333 59001 69941;
0173830960999992000062900004-10910-037500FM-12+000699999V0201801N002112200019N9999999N1+02561+02021101561ADDAA106002091GF102991021051012501001001KA1240M+02801MA1999999101491MD1999999-0061REMSYN082AAXX  29004 83096 226// 21804 10256 20202 30149 40156 82500 333 10280 59006 60021;
0161830960999992000062912004-10910-037500FM-12+000699999V02099999999999999999N0200001N1+02601+02211999999ADDGF106991999999012501999999KA1240N+02021MA1999999101461MD1999999-0031REMSYN081AAXX  29124 83096 22698 6//// 10260 20221 30146 4153 86500 333 20202 59003 60054;
0167830960999992000062918004-10910-037500FM-12+000699999V02099999999990120019N0200001N1+02681+02331101391ADDAA199000091GF107991071051012501001001MA1999999101321MD1999999-0061REMSYN070AAXX  29184 83096 32698 7//// 10268 20233 30132 40139 87500 333 59006;EQDQ01  00002PRCP99
0186830960999992000063000004-10910-037500FM-12+000699999V0200501N003110120019N9999999N1+02621+02121101611ADDAA199000091GF106991061051012501001001KA1240M+02781MA1999999101541MD1999999+0051REMSYN076AAXX  30004 83096 326// 60506 10262 20212 30154 40161 86500 333 10278 58005;EQDQ01  00002PRCP99
0186830960999992000063012004-10910-037500FM-12+000699999V0200901N001512200019N0200001N1+02701+02221101641ADDAA199000091GF103991031051012501001001KA1240N+01961MA1999999101571MD1999999+0111REMSYN076AAXX  30124 83096 32698 30903 10270 20222 30157 40164 83500 333 20196 58011;EQDQ01  00002PRCP99
0167830960999992000063018004-10910-037500FM-12+000699999V0201801N002112200019N0200001N1+02701+02131101481ADDAA199000091GF102991021031012501001001MA1999999101411MD1999999+0091REMSYN070AAXX  30184 83096 32698 21804 10270 20213 30141 40148 82300 333 58009;EQDQ01  00002PRCP99
0186830960999992000070100004-10910-037500FM-12+000699999V0201401N002112200019N9999999N1+02561+02111101551ADDAA199000091GF101991011051012501001001KA1240M+02801MA1999999101481MD1999999-0061REMSYN076AAXX  01004 83096 326// 11404 10256 20211 30148 40155 81500 333 10280 59006;EQDQ01  00002PRCP99
0186830960999992000070112004-10910-037500FM-12+000699999V0201801N002112200019N0200001N1+02701+01861101701ADDAA199000091GF102991021031012501001001KA1240N+02401MA1999999101631MD1999999+0061REMSYN076AAXX  01124 83096 32698 21804 10270 20186 30163 40170 82300 333 20240 58006;EQDQ01  00002PRCP99
0167830960999992000070118004-10910-037500FM-12+000699999V0201401N002110120019N0200001N1+02701+01801101471ADDAA199000091GF105991051051012501001001MA1999999101401MD1999999-0011REMSYN070AAXX  01184 83096 32698 51404 10270 20180 30140 40147 85500 333 59001;EQDQ01  00002PRCP99
0186830960999992000070200004-10910-037500FM-12+000699999V0201401N001512200019N9999999N1+02481+01941101491ADDAA199000091GF101991011051012501001001KA1240M+02761MA1999999101421MD1999999-0061REMSYN076AAXX  02004 83096 326// 11403 10248 20194 30142 40149 81500 333 10276 59006;EQDQ01  00002PRCP99
0218830960999992000070212004-10910-037500FM-12+000699999V0201801N001512200019N0200001N1+02501+02111999999ADDAA199000091GF103991031031012501001001KA1240N+02061MA1999999999999MD1999999-0081REMSYN076AAXX  02124 83096 32698 31803 10250 20211 30555 40562 83300 333 20206 59008;EQDQ01  00002PRCP99Q02 095553APOSP Q03 105623APOSLP
0189830960999992000070218004-10910-037500FM-12+000699999V0201401N001512200019N0200001N1+02721+02111101512ADDAA106000591GF102991021031012501001001MA1999999101442MD1999999+0041REMSYN076AAXX  02184 83096 22698 21403 10272 20211 30144 40151 82300 333 58004 69961;EQDQ01+101443APOSP Q02+101513APOSLP
0173830960999992000070300004-10910-037500FM-12+000699999V0201801N001512200019N9999999N1+02441+02151101601ADDAA106000891GF101991011051012501001001KA1240M+02781MA1999999101521MD1999999+0111REMSYN082AAXX  03004 83096 226// 11803 10244 20215 30152 40160 81500 333 10278 58011 69981;
0201830960999992000070312004-10910-037500FM-12+000699999V0201801N001510075019N0100001N1+02341+02221101771ADDAA124018091AY161061AY261061GF108991081071008001999999KA1240N+02221MA1999999101701MD1999999+0151MW1601REMSYN088AAXX  03124 83096 21597 81803 10234 20222 30170 40177 76066 887// 333 20222 58015 60184;
0154830960999992000070318004-10910-037500FM-12+000699999V0201801N003610120019N0200001N1+02641+02051101581ADDAA106002091GF105991051051012501001001MA1999999101511MD1999999+0071REMSYN076AAXX  03184 83096 22698 51807 10264 20205 30151 40158 85500 333 58007 60021;
0167830960999992000070400004-10910-037500FM-12+000699999V0200901N003112200019N9999999N1+02521+02131101751ADDAA199000021GF102991021051012501001001KA1240M+02701MA1999999101681MD1999999+0151REMSYN076AAXX  04004 83096 326// 20906 10252 20213 30168 40175 82500 333 10270 58015;
0173830960999992000070412004-10910-037500FM-12+000699999V0201401N003112200019N0200001N1+02641+02121101601ADDAA124002091GF101991011051012501001001KA1240N+02151MA1999999101531MD1999999-0171REMSYN082AAXX  04124 83096 22698 11406 10264 20212 30153 40160 81500 333 20215 59017 60024;
0167830960999992000070418004-10910-037500FM-12+000699999V0201401N002612200019N0200001N1+02641+02121101511ADDAA199000091GF103991021051012501021001MA1999999101441MD1999999-0071REMSYN070AAXX  04184 83096 32698 31405 10264 20212 30144 40151 82520 333 59007;EQDQ01  00002PRCP99
0173830960999992000070500004-10910-037500FM-12+000699999V0200901N002110120019N9999999N1+02381+02091101501ADDAA106005191GF105991051051012501001001KA1240M+02751MA1999999101431MD1999999-0251REMSYN082AAXX  05004 83096 226// 50904 10238 20209 30143 40150 85500 333 10275 59025 60051;
0173830960999992000070512004-10910-037500FM-12+000699999V0201801N002612200019N0200001N1+02661+02091101671ADDAA124005191GF102991021051012501001001KA1240N+02271MA1999999101601MD1999999+0071REMSYN082AAXX  05124 83096 22698 21805 10266 20209 30160 40167 82500 333 20227 58007 60054;
0167830960999992000070518004-10910-037500FM-12+000699999V0201801N003112200019N0200001N1+02691+02061101491ADDAA199000091GF102991021051012501001001MA1999999101421MD1999999-0021REMSYN070AAXX  05184 83096 32698 21806 10269 20206 30142 40149 82500 333 59002;EQDQ01  00002PRCP99
0186830960999992000070600004-10910-037500FM-12+000699999V0201801N003112200019N9999999N1+02521+01961101651ADDAA199000091GF101991011011012501001001KA1240M+02751MA1999999101581MD1999999+0151REMSYN076AAXX  06004 83096 326// 11806 10252 20196 30158 40165 81100 333 10275 58015;EQDQ01  00002PRCP99
0186830960999992000070612004-10910-037500FM-12+000699999V0200901N002112200019N0200001N1+02651+01981101521ADDAA199000091GF101991011051012501001001KA1240N+02331MA1999999101451MD1999999-0151REMSYN076AAXX  06124 83096 32698 10904 10265 20198 30145 40152 81500 333 20233 59015;EQDQ01  00002PRCP99
0167830960999992000070618004-10910-037500FM-12+000699999V0201401N002612200019N0200001N1+02671+02141101471ADDAA199000091GF101991011011012501001001MA1999999101401MD1999999-0021REMSYN070AAXX  06184 83096 32698 11405 10267 20214 30140 40147 81100 333 59002;EQDQ01  00002PRCP99
0186830960999992000070700004-10910-037500FM-12+000699999V0200901N002112200019N9999999N1+02531+01931101551ADDAA199000091GF102991021051012501001001KA1240M+02831MA1999999101481MD1999999-0101REMSYN076AAXX  07004 83096 326// 20904 10253 20193 30148 40155 82500 333 10283 59010;EQDQ01  00002PRCP99
0186830960999992000070712004-10910-037500FM-12+000699999V0200901N003112200019N0200001N1+02671+01971101801ADDAA199000091GF102991021051012501001001KA1240N+02401MA1999999101731MD1999999+0281REMSYN076AAXX  07124 83096 32698 20906 10267 20197 30173 40180 82500 333 20240 58028;EQDQ01  00002PRCP99
0167830960999992000070718004-10910-037500FM-12+000699999V0201401N002112200019N0200001N1+02691+02131101471ADDAA199000091GF103991021051012501031001MA1999999101401MD1999999+0001REMSYN070AAXX  07184 83096 32698 31404 10269 20213 30140 40147 82530 333 58000;EQDQ01  00002PRCP99
0201830960999992000070800004-10910-037500FM-12+000699999V0201401N003610075019N9999999N1+02301+02251101671ADDAA106006191AY161061AY261061GF108991081071008001999999KA1240M+02811MA1999999101601MD1999999+0121MW1601REMSYN088AAXX  08004 83096 215// 81407 10230 20225 30160 40167 76066 887// 333 10281 58012 60061;
0220830960999992000070812004-10910-037500FM-12+000699999V0201401N001510075019N0100001N1+02331+02131101751ADDAA124017091AY161061AY261061GF108991081071008001999999KA1240M+99999MA1999999101681MD1999999+0051MW1601REMSYN088AAXX  08124 83096 21597 81403 10233 20213 30168 40175 76066 887// 333 10217 58005 60174;EQDQ01 +02172ATMX  
0148830960999992000070818004-10910-037500FM-12+000699999V0201401N003110075019N0100001N1+02611+02191101531ADDAA199000021GF108991081071008001999999MA1999999101461MD1999999+0061REMSYN070AAXX  08184 83096 32597 81406 10261 20219 30146 40153 887// 333 58006;
0201830960999992000070912004-10910-037500FM-12+000699999V0201801N002110075019N0100001N1+02351+02151101741ADDAA115013091AY161061AY261061GF108991081071008001999999KA1240N+02131MA1999999101651MD1999999-0011MW1601REMSYN088AAXX  09124 83096 21597 81804 10235 20215 30165 40174 76066 887// 333 20213 59001 60130;
0173830960999992000071000004-10910-037500FM-12+000699999V0201401N002110120019N9999999N1+02491+02151101571ADDAA106001091GF105991051051012501001001KA1240M+02731MA1999999101501MD1999999-0041REMSYN082AAXX  10004 83096 226// 51404 10249 20215 30150 40157 85500 333 10273 59004 60011;
0173830960999992000071012004-10910-037500FM-12+000699999V0200901N002112200019N0200001N1+02671+02161101521ADDAA124001091GF101991011051012501001001KA1240N+02151MA1999999101451MD1999999-0221REMSYN082AAXX  10124 83096 22698 10904 10267 20216 30145 40152 81500 333 20215 59022 60014;
0167830960999992000071018004-10910-037500FM-12+000699999V0200901N002612200019N0200001N1+02691+02041101511ADDAA199000091GF101991011051012501001001MA1999999101441MD1999999+0051REMSYN070AAXX  10184 83096 32698 10905 10269 20204 30144 40151 81500 333 58005;EQDQ01  00002PRCP99
0186830960999992000071100004-10910-037500FM-12+000699999V0200901N002112200019N9999999N1+02531+02091101511ADDAA199000091GF101991011051012501001001KA1240M+02791MA1999999101441MD1999999-0061REMSYN076AAXX  11004 83096 326// 10904 10253 20209 30144 40151 81500 333 10279 59006;EQDQ01  00002PRCP99
0173830960999992000071112004-10910-037500FM-12+000699999V0201401N001510120019N0200001N1+02501+02251101821ADDAA124000591GF107991051051012501031001KA1240N+02331MA1999999101751MD1999999+0301REMSYN082AAXX  11124 83096 22698 71403 10250 20225 30175 40182 85530 333 20233 58030 69954;
0154830960999992000071118004-10910-037500FM-12+000699999V0200901N003610075019N0100001N1+02541+02191101551ADDAA106000891GF108991081051008001999999MA1999999101481MD1999999+0041REMSYN076AAXX  11184 83096 22597 80907 10254 20219 30148 40155 885// 333 58004 69981;
0173830960999992000071200004-10910-037500FM-12+000699999V0201401N003110120019N9999999N1+02571+02111101681ADDAA106000191GF107991071051012501001001KA1240M+02641MA1999999101611MD1999999+0171REMSYN082AAXX  12004 83096 226// 71406 10257 20211 30161 40168 87500 333 10264 58017 69921;
0173830960999992000071212004-10910-037500FM-12+000699999V0201801N002112200019N0200001N1+02671+02001101611ADDAA124001091GF104991041051012501001001KA1240N+02471MA1999999101541MD1999999-0211REMSYN082AAXX  12124 83096 22698 41804 10267 20200 30154 40161 84500 333 20247 59021 60014;
0154830960999992000071218004-10910-037500FM-12+000699999V0201801N002112200019N0200001N1+02651+02181101591ADDAA106004191GF103991031051012501001001MA1999999101521MD1999999+0041REMSYN076AAXX  12184 83096 22698 31804 10265 20218 30152 40159 83500 333 58004 60041;
0186830960999992000071300004-10910-037500FM-12+000699999V0200901N001512200019N9999999N1+02471+02091101621ADDAA199000091GF103991031051012501001001KA1240M+02751MA1999999101551MD1999999-0061REMSYN076AAXX  13004 83096 326// 30903 10247 20209 30155 40162 83500 333 10275 59006;EQDQ01  00002PRCP99
0173830960999992000071312004-10910-037500FM-12+000699999V0200901N002112200019N0200001N1+02661+02221101831ADDAA124006191GF103991031051012501001001KA1240N+02271MA1999999101761MD1999999+0221REMSYN082AAXX  13124 83096 22698 30904 10266 20222 30176 40183 83500 333 20227 58022 60064;
0167830960999992000071318004-10910-037500FM-12+000699999V0200901N001512200019N0200001N1+02661+02291101681ADDAA199000091GF102991021051012501001001MA1999999101611MD1999999+0091REMSYN070AAXX  13184 83096 32698 20903 10266 20229 30161 40168 82500 333 58009;EQDQ01  00002PRCP99
0173830960999992000071412004-10910-037500FM-12+000699999V0200901N002112200019N0200001N1+02611+02101101721ADDAA124000891GF104991041051012501001001KA1240N+02331MA1999999101651MD1999999-0111REMSYN082AAXX  14124 83096 22698 40904 10261 20210 30165 40172 84500 333 20233 59011 69984;
0167830960999992000071418004-10910-037500FM-12+000699999V0200901N002112200019N0200001N1+02671+01951101611ADDAA199000091GF102991021031012501001001MA1999999101541MD1999999-0071REMSYN070AAXX  14184 83096 32698 20904 10267 20195 30154 40161 82300 333 59007;EQDQ01  00002PRCP99
0186830960999992000071500004-10910-037500FM-12+000699999V0201401N002112200019N9999999N1+02511+01961101611ADDAA199000091GF102991021051012501001001KA1240M+02791MA1999999101541MD1999999-0171REMSYN076AAXX  15004 83096 326// 21404 10251 20196 30154 40161 82500 333 10279 59017;EQDQ01  00002PRCP99
0186830960999992000071512004-10910-037500FM-12+000699999V0201801N002110450019N0200001N1+02571+01561101621ADDAA199000091GF105991031051012501031001KA1240N+02391MA1999999101551MD1999999-0101REMSYN076AAXX  15124 83096 32698 51804 10257 20156 30155 40162 83530 333 20239 59010;EQDQ01  00002PRCP99
0167830960999992000071518004-10910-037500FM-12+000699999V0201801N001512200019N0200001N1+02691+01991101431ADDAA199000091GF102991021051012501001001MA1999999101361MD1999999-0181REMSYN070AAXX  15184 83096 32698 21803 10269 20199 30136 40143 82500 333 59018;EQDQ01  00002PRCP99
0186830960999992000071600004-10910-037500FM-12+000699999V0201801N001510120019N9999999N1+02351+02071101501ADDAA199000091GF106991061051012501001001KA1240M+02791MA1999999101431MD1999999-0111REMSYN076AAXX  16004 83096 326// 61803 10235 20207 30143 40150 86500 333 10279 59011;EQDQ01  00002PRCP99
0173830960999992000071612004-10910-037500FM-12+000699999V0200901N001512200019N0200001N1+02351+02111101541ADDAA124005191GF102991021031012501001001KA1240N+02111MA1999999101471MD1999999-0081REMSYN082AAXX  16124 83096 22698 20903 10235 20211 30147 40154 82300 333 20211 59008 60054;
0167830960999992000071618004-10910-037500FM-12+000699999V0200901N001512200019N0200001N1+02491+02091101331ADDAA199000091GF102991021031012501001001MA1999999101261MD1999999-0101REMSYN070AAXX  16184 83096 32698 20903 10249 20209 30126 40133 82300 333 59010;EQDQ01  00002PRCP99
0186830960999992000071700004-10910-037500FM-12+000699999V0203601N001512200019N9999999N1+02411+02051101311ADDAA199000091GF101991011051012501001001KA1240M+02611MA1999999101241MD1999999-0191REMSYN076AAXX  17004 83096 326// 13603 10241 20205 30124 40131 81500 333 10261 59019;EQDQ01  00002PRCP99
0186830960999992000071712004-10910-037500FM-12+000699999V0203601N001512200019N0010001N1+02581+02231101421ADDAA199000091GF101991011051012501001001KA1240N+02091MA1999999101351MD1999999-0121REMSYN076AAXX  17124 83096 32694 13603 10258 20223 30135 40142 81500 333 20209 59012;EQDQ01  00002PRCP99
0167830960999992000071718004-10910-037500FM-12+000699999V0200901N004612200019N0010001N1+02671+02331101221ADDAA199000091GF101991011051012501001001MA1999999101151MD1999999-0111REMSYN070AAXX  17184 83096 32694 10909 10267 20233 30115 40122 81500 333 59011;EQDQ01  00002PRCP99
0186830960999992000071800004-10910-037050FM-12+000699999V0200901N004612200019N0010001N1+02541+02311101521ADDAA199000091GF101991011051012501001001KA1240M+02771MA1999999101451MD1999999+0211REMSYN076AAXX  18004 83096 32694 10909 10254 20231 30145 40152 81500 333 10277 58021;EQDQ01  00002PRCP99
0186830960999992000071812004-10910-037050FM-12+000699999V0200901N002612200019N0010001N1+02691+02281101601ADDAA199000091GF102991021051012501001001KA1240N+02491MA1999999101531MD1999999+0181REMSYN076AAXX  18124 83096 32694 20905 10269 20228 30153 40160 82500 333 20249 58018;EQDQ01  00002PRCP99
0167830960999992000071818004-10910-037050FM-12+000699999V0200901N002612200019N0010001N1+02731+02261101511ADDAA199000091GF102991021031012501001001MA1999999101441MD1999999+0291REMSYN070AAXX  18184 83096 32694 20905 10273 20226 30144 40151 82300 333 58029;EQDQ01  00002PRCP99
0186830960999992000071900004-10910-037050FM-12+000699999V0200901N002112200019N0010001N1+02591+02251101581ADDAA199000091GF102991021051012501001001KA1240M+02831MA1999999101511MD1999999+0061REMSYN076AAXX  19004 83096 32694 20904 10259 20225 30151 40158 82500 333 10283 58006;EQDQ01  00002PRCP99
0186830960999992000071912004-10910-037050FM-12+000699999V0201801N002610450019N0010001N1+02671+02221101741ADDAA199000091GF106991041051012501031001KA1240N+02471MA1999999101671MD1999999+0141REMSYN076AAXX  19124 83096 32694 61805 10267 20222 30167 40174 84530 333 20247 58014;EQDQ01  00002PRCP99
0154830960999992000071918004-10910-037050FM-12+000699999V0201801N003110120019N0010001N1+02661+02291101501ADDAA106000191GF106991061051012501001001MA1999999101431MD1999999-0011REMSYN076AAXX  19184 83096 22694 61806 10266 20229 30143 40150 86500 333 59001 69921;
0186830960999992000072000004-10910-037050FM-12+000699999V0200901N002110120019N0010001N1+02571+02191101691ADDAA199000091GF106991061051012501001001KA1240M+02791MA1999999101621MD1999999+0111REMSYN076AAXX  20004 83096 32694 60904 10257 20219 30162 40169 86500 333 10279 58011;EQDQ01  00002PRCP99
0173830960999992000072012004-10910-037050FM-12+000699999V0200901N001510450019N0010001N1+02611+02191101621ADDAA124000191GF105991021051012501031001KA1240N+02431MA1999999101551MD1999999-0121REMSYN082AAXX  20124 83096 22694 50903 10261 20219 30155 40162 82530 333 20243 59012 69924;
0167830960999992000072018004-10910-037050FM-12+000699999V0200501N001510450019N0010001N1+02631+02271101421ADDAA199000091GF106991041051012501031001MA1999999101351MD1999999-0081REMSYN070AAXX  20184 83096 32694 60503 10263 20227 30135 40142 84530 333 59008;EQDQ01  00002PRCP99
0186830960999992000072100004-10910-037050FM-12+000699999V0200901N001012200019N0010001N1+02571+02251101381ADDAA199000091GF104991021051012501031001KA1240M+02831MA1999999101311MD1999999-0311REMSYN076AAXX  21004 83096 32694 40902 10257 20225 30131 40138 82530 333 10283 59031;EQDQ01  00002PRCP99
0186830960999992000072112004-10910-037050FM-12+000699999V0200501N003112200019N0010001N1+02761+02231101641ADDAA199000091GF102991021051012501001001KA1240N+02521MA1999999101571MD1999999+0021REMSYN076AAXX  21124 83096 32694 20506 10276 20223 30157 40164 82500 333 20252 58002;EQDQ01  00002PRCP99
0167830960999992000072118004-10910-037050FM-12+000699999V0200901N003112200019N0010001N1+02671+02091101491ADDAA199000091GF103991021051012501031001MA1999999101421MD1999999+0071REMSYN070AAXX  21184 83096 32694 30906 10267 20209 30142 40149 82530 333 58007;EQDQ01  00002PRCP99
0186830960999992000072200004-10910-037050FM-12+000699999V0200901N003112200019N0010001N1+02531+02071101581ADDAA199000091GF102991021051012501001001KA1240M+02841MA1999999101511MD1999999+0201REMSYN076AAXX  22004 83096 32694 20906 10253 20207 30151 40158 82500 333 10284 58020;EQDQ01  00002PRCP99
0173830960999992000072212004-10910-037050FM-12+000699999V0200501N003612200019N0010001N1+02671+02271101701ADDAA124001091GF102991021051012501001001KA1240N+02351MA1999999101631MD1999999+0061REMSYN082AAXX  22124 83096 22694 20507 10267 20227 30163 40170 82500 333 20235 58006 60014;
0154830960999992000072218004-10910-037050FM-12+000699999V0200501N003112200019N0010001N1+02671+02071101431ADDAA106009991GF101991011011012501001001MA1999999101361MD1999999-0061REMSYN076AAXX  22184 83096 22694 10506 10267 20207 30136 40143 81100 333 59006 60101;
0173830960999992000072300004-10910-037050FM-12+000699999V0200501N003112200019N0010001N1+02511+02051101621ADDAA106000191GF102991021011012501001001KA1240M+02771MA1999999101551MD1999999+0041REMSYN082AAXX  23004 83096 22694 20506 10251 20205 30155 40162 82100 333 10277 58004 69921;
0173830960999992000072312004-10910-037050FM-12+000699999V0200501N002112200019N0010001N1+02671+02041101701ADDAA115009991GF101991011051012501001001KA1240N+02351MA1999999101631MD1999999+0001REMSYN082AAXX  23124 83096 22694 10504 10267 20204 30163 40170 81500 333 20235 58000 60100;
0167830960999992000072318004-10910-037050FM-12+000699999V0200501N002612200019N0010001N1+02651+02071101421ADDAA199000091GF101991011011012501001001MA1999999101351MD1999999-0011REMSYN070AAXX  23184 83096 32694 10505 10265 20207 30135 40142 81100 333 59001;EQDQ01  00002PRCP99
0186830960999992000072412004-10910-037050FM-12+000699999V0203601N001512200019N0010001N1+02491+02111101541ADDAA199000091GF101991011051012501001001KA1240N+01991MA1999999101471MD1999999-0161REMSYN076AAXX  24124 83096 32694 13603 10249 20211 30147 40154 81500 333 20199 59016;EQDQ01  00002PRCP99
0167830960999992000072418004-10910-037050FM-12+000699999V0200901N001512200019N0010001N1+02671+02001101401ADDAA199000091GF101991011051012501001001MA1999999101331MD1999999-0021REMSYN070AAXX  24184 83096 32694 10903 10267 20200 30133 40140 81500 333 59002;EQDQ01  00002PRCP99
0186830960999992000072500004-10910-037050FM-12+000699999V0200901N001512200019N0010001N1+02471+01921101491ADDAA199000091GF101991011051012501001001KA1240M+02751MA1999999101421MD1999999-0081REMSYN076AAXX  25004 83096 32694 10903 10247 20192 30142 40149 81500 333 10275 59008;EQDQ01  00002PRCP99
0186830960999992000072512004-10910-037050FM-12+000699999V0201801N001510120019N0010001N1+02491+02211101821ADDAA199000091GF106991061051012501001001KA1240N+02001MA1999999101751MD1999999+0281REMSYN076AAXX  25124 83096 32694 61803 10249 20221 30175 40182 86500 333 20200 58028;EQDQ01  00002PRCP99
0167830960999992000072518004-10910-037050FM-12+000699999V0201801N003612200019N0010001N1+02691+02091101561ADDAA199000091GF102991021051012501001001MA1999999101491MD1999999+0161REMSYN070AAXX  25184 83096 32694 21807 10269 20209 30149 40156 82500 333 58016;EQDQ01  00002PRCP99
0186830960999992000072600004-10910-037050FM-12+000699999V0201801N003112200019N0010001N1+02501+02001101791ADDAA199000091GF101991011011012501001001KA1240M+02811MA1999999101721MD1999999+0301REMSYN076AAXX  26004 83096 32694 11806 10250 20200 30172 40179 81100 333 10281 58030;EQDQ01  00002PRCP99
0186830960999992000072612004-10910-037050FM-12+000699999V0200901N002612200019N0010001N1+02651+02141101631ADDAA199000091GF103991021051012501031001KA1240N+02451MA1999999101571MD1999999-0181REMSYN076AAXX  26124 83096 32694 30905 10265 20214 30157 40163 82530 333 20245 59018;EQDQ01  00002PRCP99
0167830960999992000072618004-10910-037050FM-12+000699999V0201401N003110450019N0010001N1+02671+02111101471ADDAA199000091GF106991041051012501031001MA1999999101401MD1999999-0091REMSYN070AAXX  26184 83096 32694 61406 10267 20211 30140 40147 84530 333 59009;EQDQ01  00002PRCP99
0186830960999992000072700004-10910-037050FM-12+000699999V0200901N002112200019N0010001N1+02531+02091101511ADDAA199000091GF103991031051012501001001KA1240M+02771MA1999999101441MD1999999-0281REMSYN076AAXX  27004 83096 32694 30904 10253 20209 30144 40151 83500 333 10277 59028;EQDQ01  00002PRCP99
0186830960999992000072712004-10910-037050FM-12+000699999V0201801N003112200019N0010001N1+02631+01961101731ADDAA199000091GF102991021011012501001001KA1240N+02441MA1999999101661MD1999999+0091REMSYN076AAXX  27124 83096 32694 21806 10263 20196 30166 40173 82100 333 20244 58009;EQDQ01  00002PRCP99
0167830960999992000072718004-10910-037050FM-12+000699999V0201801N003112200019N0010001N1+02641+02031101501ADDAA199000091GF102991021011012501001001MA1999999101431MD1999999+0031REMSYN070AAXX  27184 83096 32694 21806 10264 20203 30143 40150 82100 333 58003;EQDQ01  00002PRCP99
0202830960999992000072800004-10910-037050FM-12+000699999V0200101N044722200019N0010001N1+02511+02051101711ADDAA199000091GF102991021011012501001001KA1240M+02731MA1999999101641MD1999999+0201REMSYN076AAXX  28004 83096 32694 20187 10251 20205 30164 40171 82100 333 10273 58020;EQDQ01+004473WOSPD Q02  00002PRCP99
0173830960999992000072812004-10910-037050FM-12+000699999V0200901N001510120019N0010001N1+02231+01921101761ADDAA124007191GF106991061051012501001001KA1240N+02131MA1999999101691MD1999999+0031REMSYN082AAXX  28124 83096 22694 60903 10223 20192 30169 40176 86500 333 20213 58003 60074;
0154830960999992000072818004-10910-037050FM-12+000699999V0200901N001510120019N0010001N1+02451+01971101611ADDAA106006191GF106991061051012501001001MA1999999101541MD1999999+0111REMSYN076AAXX  28184 83096 22694 60903 10245 20197 30154 40161 86500 333 58011 60061;
0186830960999992000072900004-10910-037050FM-12+000699999V0200901N002619999999N0140001N1+02511+01721101641ADDAA199000091GF105991051051999999001001KA1240M+02611MA1999999101571MD1999999-0071REMSYN076AAXX  29004 83096 32964 50905 10251 20172 30157 40164 85500 333 10261 59007;EQDQ01  00002PRCP99
0173830960999992000072912004-10910-037050FM-12+000699999V0200901N003110120019N0010001N1+02451+01951101681ADDAA124006191GF105991051051012501001001KA1240N+02351MA1999999101611MD1999999-0081REMSYN082AAXX  29124 83096 22694 50906 10245 20195 30161 40168 85500 333 20235 59008 60064;
0167830960999992000072918004-10910-037050FM-12+000699999V0200901N001010120019N0010001N1+02331+01941101551ADDAA199000091GF106991061051012501001001MA1999999101481MD1999999-0061REMSYN070AAXX  29184 83096 32694 60902 10233 20194 30148 40155 86500 333 59006;EQDQ01  00002PRCP99
0156830960999992000073000004-10910-037050FM-12+000699999V0201401N001512200019N0010001N1+02431+01791101561ADDGF102991021051012501001001KA1240M+02631MA1999999101491MD1999999-0081REMSYN076AAXX  30004 83096 22694 21403 10243 20179 30149 40156 82500 333 10263 59008;
0173830960999992000073012004-10910-037050FM-12+000699999V0201801N002612200019N0010001N1+02531+01771101541ADDAA124002091GF102991021051012501001001KA1240N+01871MA1999999101471MD1999999-0141REMSYN082AAXX  30124 83096 22694 21805 10253 20177 30147 40154 82500 333 20187 59014 60024;
0167830960999992000073018004-10910-037050FM-12+000699999V0201801N002612200019N0010001N1+02651+01751101501ADDAA199000091GF102991021031012501001001MA1999999101431MD1999999-0051REMSYN070AAXX  30184 83096 32694 21805 10265 20175 30143 40150 82300 333 59005;EQDQ01  00002PRCP99
0186830960999992000073100004-10910-037050FM-12+000699999V0201801N002612200019N0010001N1+02451+01791101541ADDAA199000091GF101991011051012501001001KA1240M+02731MA1999999101471MD1999999-0021REMSYN076AAXX  31004 83096 32694 11805 10245 20179 30147 40154 81500 333 10273 59002;EQDQ01  00002PRCP99
0201830960999992000073112004-10910-037050FM-12+000699999V0201801N004610075019N0010001N1+02321+02181101761ADDAA124004191AY161061AY261061GF108991081071008001999999KA1240N+02231MA1999999101691MD1999999+0161MW1601REMSYN088AAXX  31124 83096 21594 81809 10232 20218 30169 40176 76066 887// 333 20223 58016 60044;
0182830960999992000073118004-10910-037050FM-12+000699999V0201801N003610075019N0005001N1+02321+02161101551ADDAA106003091AY161061AY261061GF108991081071008001999999MA1999999101481MD1999999+0051MW1601REMSYN082AAXX  31184 83096 21593 81807 10232 20216 30148 40155 76066 887// 333 58005 60031;
0201830960999992000080100004-10910-037050FM-12+000699999V0201801N003110075019N0005001N1+02431+02051101701ADDAA106001091AY161061AY261061GF108991081071008001999999KA1240M+02551MA1999999101631MD1999999+0161MW1601REMSYN088AAXX  01004 83096 21593 81806 10243 20205 30163 40170 76066 887// 333 10255 58016 60011;
0173830960999992000080112004-10910-037050FM-12+000699999V0201801N001510120019N0010001N1+02511+02171101661ADDAA124004191GF105991051051012501001001KA1240N+02331MA1999999101591MD1999999-0101REMSYN082AAXX  01124 83096 22694 51803 10251 20217 30159 40166 85500 333 20233 59010 60044;
0167830960999992000080118004-10910-037050FM-12+000699999V0201401N002110120019N0010001N1+02571+02191101441ADDAA199000091GF105991051051012501001001MA1999999101371MD1999999-0111REMSYN070AAXX  01184 83096 32694 51404 10257 20219 30137 40144 85500 333 59011;EQDQ01  00002PRCP99
0186830960999992000080200004-10910-037050FM-12+000699999V0201401N002112200019N0010001N1+02531+02021101541ADDAA199000091GF102991021051012501001001KA1240M+02691MA1999999101471MD1999999-0161REMSYN076AAXX  02004 83096 32694 21404 10253 20202 30147 40154 82500 333 10269 59016;EQDQ01  00002PRCP99
0192830960999992000080212004-10910-037050FM-12+000699999V0201401N003110120019N0010001N1+02561+02111101791ADDAA124001091GF106991999061012501001001KA1240N+02191MA1999999101721MD1999999+0131REMSYN082AAXX  02124 83096 22694 61406 10256 20211 30172 40179 85600 333 20219 58013 60014;EQDQ01+000052SCOTLC
0167830960999992000080218004-10910-037050FM-12+000699999V0202701N004110450019N0010001N1+02681+02041101631ADDAA199000091GF105991031051012501031001MA1999999101561MD1999999+0191REMSYN070AAXX  02184 83096 32694 52708 10268 20204 30156 40163 83530 333 58019;EQDQ01  00002PRCP99
0186830960999992000080300004-10910-037050FM-12+000699999V0202701N003612200019N0010001N1+02491+02031101791ADDAA199000091GF102991021051012501001001KA1240M+02771MA1999999101721MD1999999+0251REMSYN076AAXX  03004 83096 32694 22707 10249 20203 30172 40179 82500 333 10277 58025;EQDQ01  00002PRCP99
0173830960999992000080312004-10910-037050FM-12+000699999V0202201N001512200019N0010001N1+02511+02071101741ADDAA124003091GF102991021031012501001001KA1240N+02231MA1999999101671MD1999999-0051REMSYN082AAXX  03124 83096 22694 22203 10251 20207 30167 40174 82300 333 20223 59005 60034;
0167830960999992000080318004-10910-037050FM-12+000699999V0203201N002612200019N0010001N1+02631+02121101591ADDAA199000091GF102991021031012501001001MA1999999101521MD1999999-0041REMSYN070AAXX  03184 83096 32694 23205 10263 20212 30152 40159 82300 333 59004;EQDQ01  00002PRCP99
0186830960999992000080400004-10910-037050FM-12+000699999V0203601N001512200019N0010001N1+02351+02171101621ADDAA199000091GF104991041051012501001001KA1240M+02711MA1999999101551MD1999999-0171REMSYN076AAXX  04004 83096 32694 43603 10235 20217 30155 40162 84500 333 10271 59017;EQDQ01  00002PRCP99
0173830960999992000080412004-10910-037050FM-12+000699999V0203601N001510075019N0005001N1+02311+02221101731ADDAA199000091GF108991081071008001999999MA1999999101661MD1999999-0011REMSYN076AAXX  04124 83096 32593 83603 10231 20222 30166 40173 887// 333 2015/ 59001;EQDQ01  00002PRCP99
0186830960999992000080500004-10910-037050FM-12+000699999V0203601N004112200019N0010001N1+02411+02171101641ADDAA199000091GF103991031051012501001001KA1240M+02731MA1999999101571MD1999999+0021REMSYN076AAXX  05004 83096 32694 33608 10241 20217 30157 40164 83500 333 10273 58002;EQDQ01  00002PRCP99
0173830960999992000080512004-10910-037050FM-12+000699999V0203601N005710120019N0010001N1+02591+02171101741ADDAA124000191GF105991051051012501001001KA1240N+02191MA1999999101671MD1999999+0011REMSYN082AAXX  05124 83096 22694 53611 10259 20217 30167 40174 85500 333 20219 58001 69924;
0154830960999992000080518004-10910-037050FM-12+000699999V0203601N006210120019N0010001N1+02591+02191101611ADDAA106000191GF106991061051012501001001MA1999999101541MD1999999+0221REMSYN076AAXX  05184 83096 22694 63612 10259 20219 30154 40161 86500 333 58022 69921;
0186830960999992000080600004-10910-037050FM-12+000699999V0203601N002612200019N0010001N1+02471+02051101621ADDAA199000091GF102991021051012501001001KA1240M+02781MA1999999101551MD1999999-0021REMSYN076AAXX  06004 83096 32694 23605 10247 20205 30155 40162 82500 333 10278 59002;EQDQ01  00002PRCP99
0201830960999992000080612004-10910-037050FM-12+000699999V0203601N003610075019N0005001N1+02291+02161101641ADDAA124004191AY161061AY261061GF108991081051008001001001KA1240N+02211MA1999999101571MD1999999-0101MW1601REMSYN088AAXX  06124 83096 21593 83607 10229 20216 30157 40164 76066 88500 333 20221 59010 60044;
0182830960999992000080618004-10910-037050FM-12+000699999V0203601N003110075019N0005001N1+02371+02131101681ADDAA106013091AY161061AY261061GF108991081051008001999999MA1999999101611MD1999999+0071MW1601REMSYN082AAXX  06184 83096 21593 83606 10237 20213 30161 40168 76066 885// 333 58007 60131;
0173830960999992000080700004-10910-037050FM-12+000699999V0202701N003112200019N0010001N1+02431+02171101661ADDAA106001091GF102991021051012501001001KA1240M+02511MA1999999101591MD1999999+0041REMSYN082AAXX  07004 83096 22694 22706 10243 20217 30159 40166 82500 333 10251 58004 60011;
0173830960999992000080712004-10910-037050FM-12+000699999V0203201N001512200019N0010001N1+02511+02151101861ADDAA124015091GF103991021051012501031001KA1240N+02031MA1999999101791MD1999999+0221REMSYN082AAXX  07124 83096 22694 33203 10251 20215 30179 40186 82530 333 20203 58022 60154;
0154830960999992000080718004-10910-037050FM-12+000699999V0203201N002110450019N0010001N1+02551+02091101601ADDAA106002091GF105991031051012501031001MA1999999101531MD1999999-0081REMSYN076AAXX  07184 83096 22694 53204 10255 20209 30153 40160 83530 333 59008 60021;
0186830960999992000080800004-10910-037050FM-12+000699999V0202701N001512200019N0010001N1+02431+02171101601ADDAA199000091GF102991021051012501001001KA1240M+02691MA1999999101531MD1999999-0061REMSYN076AAXX  08004 83096 32694 22703 10243 20217 30153 40160 82500 333 10269 59006;EQDQ01  00002PRCP99
0173830960999992000080812004-10910-037050FM-12+000699999V0202301N002110120019N0010001N1+02631+02251101801ADDAA124002091GF106991061051012501001001KA1240N+02071MA1999999101731MD1999999-0061REMSYN082AAXX  08124 83096 22694 62304 10263 20225 30173 40180 86500 333 20207 59006 60024;
0167830960999992000080818004-10910-037050FM-12+000699999V0202301N002612200019N0010001N1+02671+02181101591ADDAA199000091GF102991021051012501001001MA1999999101521MD1999999-0011REMSYN070AAXX  08184 83096 32694 22305 10267 20218 30152 40159 82500 333 59001;EQDQ01  00002PRCP99
0186830960999992000080900004-10910-037050FM-12+000699999V0202201N002112200019N0010001N1+02511+02171101841ADDAA199000091GF101991011051012501001001KA1240M+02791MA1999999101771MD1999999+0241REMSYN076AAXX  09004 83096 32694 12204 10251 20217 30177 40184 81500 333 10279 58024;EQDQ01  00002PRCP99
0173830960999992000080912004-10910-037050FM-12+000699999V0202201N002112200019N0010001N1+02511+02191101821ADDAA124000591GF102991021051012501001001KA1240N+02311MA1999999101751MD1999999+0021REMSYN082AAXX  09124 83096 22694 22204 10251 20219 30175 40182 82500 333 20231 58002 69944;
0167830960999992000080918004-10910-037050FM-12+000699999V0202701N001510120019N0010001N1+02671+02161101671ADDAA199000091GF106991061051012501001001MA1999999101601MD1999999+0081REMSYN070AAXX  09184 83096 32694 62703 10267 20216 30160 40167 86500 333 58008;EQDQ01  00002PRCP99
0173830960999992000081000004-10910-037050FM-12+000699999V0203601N001512200019N0010001N1+02331+02151101821ADDAA106002091GF102991021051012501001001KA1240M+02771MA1999999101751MD1999999-0021REMSYN082AAXX  10004 83096 22694 23603 10233 20215 30175 40182 82500 333 10277 59002 60021;
0173830960999992000081012004-10910-037050FM-12+000699999V0202701N002112200019N0010001N1+02661+02181101921ADDAA124002091GF101991011051012501001001KA1240N+02031MA1999999101851MD1999999+0101REMSYN082AAXX  10124 83096 22694 12704 10266 20218 30185 40192 81500 333 20203 58010 60024;
0167830960999992000081018004-10910-037050FM-12+000699999V0200901N002112200019N0010001N1+02671+02181101751ADDAA199000091GF101991011011012501001001MA1999999101681MD1999999+0081REMSYN070AAXX  10184 83096 32694 10904 10267 20218 30168 40175 81100 333 58008;EQDQ01  00002PRCP99
0186830960999992000081100004-10910-037050FM-12+000699999V0202701N002610120019N0010001N1+02431+02171101941ADDAA199000091GF105991051051012501001001KA1240M+02751MA1999999101871MD1999999+0121REMSYN076AAXX  11004 83096 32694 52705 10243 20217 30187 40194 85500 333 10275 58012;EQDQ01  00002PRCP99
0173830960999992000081112004-10910-037050FM-12+000699999V0201401N001010120019N0010001N1+02411+02211101821ADDAA124006191GF106991061051012501001001KA1240N+02171MA1999999101751MD1999999-0101REMSYN082AAXX  11124 83096 22694 61402 10241 20221 30175 40182 86500 333 20217 59010 60064;
0154830960999992000081118004-10910-037050FM-12+000699999V0202701N002612200019N0010001N1+02611+02121101501ADDAA106002091GF104991041051012501001001MA1999999101431MD1999999-0251REMSYN076AAXX  11184 83096 22694 42705 10261 20212 30143 40150 84500 333 59025 60021;
0186830960999992000081200004-10910-037050FM-12+000699999V0202701N002612200019N0010001N1+02491+02051101621ADDAA199000091GF102991021051012501001001KA1240M+02731MA1999999101551MD1999999-0321REMSYN076AAXX  12004 83096 32694 22705 10249 20205 30155 40162 82500 333 10273 59032;EQDQ01  00002PRCP99
0173830960999992000081212004-10910-037050FM-12+000699999V0201801N001512200019N0010001N1+02551+02151101621ADDAA124002091GF102991021051012501001001KA1240N+02111MA1999999101551MD1999999-0201REMSYN082AAXX  12124 83096 22694 21803 10255 20215 30155 40162 82500 333 20211 59020 60024;
0167830960999992000081218004-10910-037050FM-12+000699999V0202701N001512200019N0010001N1+02671+02091101471ADDAA199000091GF101991011051012501001001MA1999999101401MD1999999-0031REMSYN070AAXX  12184 83096 32694 12703 10267 20209 30140 40147 81500 333 59003;EQDQ01  00002PRCP99
0186830960999992000081312004-10910-037050FM-12+000699999V0203201N002112200019N0010001N1+02611+02031101721ADDAA199000091GF102991021031012501001001KA1240N+02031MA1999999101651MD1999999+0101REMSYN076AAXX  13124 83096 32694 23204 10261 20203 30165 40172 82300 333 20203 58010;EQDQ01  00002PRCP99
0154830960999992000081318004-10910-037050FM-12+000699999V0202701N003610120019N0010001N1+02471+02111101711ADDAA106002091GF106991061051012501001001MA1999999101641MD1999999+0241REMSYN076AAXX  13184 83096 22694 62707 10247 20211 30164 40171 86500 333 58024 60021;
0173830960999992000081400004-10910-037050FM-12+000699999V0202701N003610120019N0010001N1+02431+02011101761ADDAA106000591GF105991051051012501001001KA1240M+02751MA1999999101691MD1999999+0171REMSYN082AAXX  14004 83096 22694 52707 10243 20201 30169 40176 85500 333 10275 58017 69961;
0173830960999992000081412004-10910-037050FM-12+000699999V0203201N003610120019N0010001N1+02501+01871102031ADDAA124003091GF106991061051012501001001KA1240N+02321MA1999999101961MD1999999+0311REMSYN082AAXX  14124 83096 22694 63207 10250 20187 30196 40203 86500 333 20232 58031 60034;
0173830960999992000081500004-10910-037050FM-12+000699999V0203201N002612200019N0010001N1+02371+01801102081ADDAA106000591GF101991011011012501001001KA1240M+02691MA1999999102011MD1999999+0321REMSYN082AAXX  15004 83096 22694 13205 10237 20180 30201 40208 81100 333 10269 58032 69941;
0173830960999992000081512004-10910-037050FM-12+000699999V0203201N002112200019N0010001N1+02471+01811102041ADDAA124002091GF102991021031012501001001KA1240N+02071MA1999999101971MD1999999+0011REMSYN082AAXX  15124 83096 22694 23204 10247 20181 30197 40204 82300 333 20207 58001 60024;
0154830960999992000081518004-10910-037050FM-12+000699999V0202701N002112200019N0010001N1+02511+01961101811ADDAA106000191GF103991031031012501001001MA1999999101741MD1999999-0111REMSYN076AAXX  15184 83096 22694 32704 10251 20196 30174 40181 83300 333 59011 69911;
0173830960999992000081600004-10910-037050FM-12+000699999V0202701N001512200019N0010001N1+02391+01841101821ADDAA106000891GF103991031051012501001001KA1240M+02671MA1999999101751MD1999999-0261REMSYN082AAXX  16004 83096 22694 32703 10239 20184 30175 40182 83500 333 10267 59026 69971;
0173830960999992000081612004-10910-037050FM-12+000699999V0203201N003610450019N0010001N1+02531+01771101941ADDAA124001091GF106991041051012501031001KA1240N+02231MA1999999101871MD1999999-0101REMSYN082AAXX  16124 83096 22694 63207 10253 20177 30187 40194 84530 333 20223 59010 60014;
0167830960999992000081618004-10910-037050FM-12+000699999V0203201N003110450019N0010001N1+02571+01881101701ADDAA199000091GF106991041051012501031001MA1999999101631MD1999999-0111REMSYN070AAXX  16184 83096 32694 63206 10257 20188 30163 40170 84530 333 59011;EQDQ01  00002PRCP99
0186830960999992000081700004-10910-037050FM-12+000699999V0203201N002112200019N0010001N1+02401+01751101821ADDAA199000091GF101991011011012501001001KA1240M+02691MA1999999101751MD1999999+0001REMSYN076AAXX  17004 83096 32694 13204 10240 20175 30175 40182 81100 333 10269 58000;EQDQ01  00002PRCP99
0186830960999992000081712004-10910-037050FM-12+000699999V0202701N002612200019N0010001N1+02591+01851101821ADDAA199000091GF102991021031012501001001KA1240N+01991MA1999999101751MD1999999-0121REMSYN076AAXX  17124 83096 32694 22705 10259 20185 30175 40182 82300 333 20199 59012;EQDQ01  00002PRCP99
0167830960999992000081718004-10910-037050FM-12+000699999V0203201N002612200019N0010001N1+02671+01791101671ADDAA199000091GF101991011031012501001001MA1999999101601MD1999999-0031REMSYN070AAXX  17184 83096 32694 13205 10267 20179 30160 40167 81300 333 59003;EQDQ01  00002PRCP99
0186830960999992000081800004-10910-037050FM-12+000699999V0200301N002112200019N0010001N1+02451+01831101721ADDAA199000091GF102991021051012501001001KA1240M+02771MA1999999101651MD1999999-0101REMSYN076AAXX  18004 83096 32694 20304 10245 20183 30165 40172 82500 333 10277 59010;EQDQ01  00002PRCP99
0156830960999992000081812004-10910-037050FM-12+000699999V0203601N001510075019N0005001N1+02371+02051101891ADDGF108991081051008001999999KA1240N+02021MA1999999101821MD1999999+0071REMSYN076AAXX  18124 83096 22593 83603 10237 20205 30182 40189 885// 333 20202 58007;
0167830960999992000081818004-10910-037050FM-12+000699999V0203201N005110075019N0005001N1+02511+02131101651ADDAA199000091GF108991081051008001999999MA1999999101581MD1999999-0021REMSYN070AAXX  18184 83096 32593 83210 10251 20213 30158 40165 885// 333 59002;EQDQ01  00002PRCP99
0186830960999992000081900004-10910-037050FM-12+000699999V0203201N003110120019N0010001N1+02381+02131101821ADDAA199000091GF106991061051012501001001KA1240M+02671MA1999999101751MD1999999+0101REMSYN076AAXX  19004 83096 32694 63206 10238 20213 30175 40182 86500 333 10267 58010;EQDQ01  00002PRCP99
0173830960999992000081912004-10910-037050FM-12+000699999V0203201N001510120019N0010001N1+02321+02221101781ADDAA124014091GF106991061051012501001001KA1240N+02131MA1999999101711MD1999999-0111REMSYN082AAXX  19124 83096 22694 63203 10232 20222 30171 40178 86500 333 20213 59011 60144;
0154830960999992000081918004-10910-037050FM-12+000699999V0202701N003110120019N0010001N1+02591+02251101551ADDAA106002091GF107991051051012501031001MA1999999101481MD1999999-0101REMSYN076AAXX  19184 83096 22694 72706 10259 20225 30148 40155 85530 333 59010 60021;
0201830960999992000082000004-10910-037050FM-12+000699999V0203201N002110075019N0005001N1+02291+02141101851ADDAA106001091AY161061AY261061GF108991081051008001999999KA1240M+02631MA1999999101781MD1999999+0031MW1601REMSYN088AAXX  20004 83096 21593 83204 10229 20214 30178 40185 76066 885// 333 10263 58003 60011;
0201830960999992000082012004-10910-037050FM-12+000699999V0203201N003110075019N0005001N1+02271+01981102011ADDAA124006191AY161061AY261061GF108991081071008001999999KA1240N+02051MA1999999101941MD1999999+0231MW1601REMSYN088AAXX  20124 83096 21593 83206 10227 20198 30194 40201 76066 887// 333 20205 58023 60064;
0182830960999992000082018004-10910-037050FM-12+000699999V0203201N005110075019N0005001N1+02291+02051101831ADDAA106002091AY161061AY261061GF108991081071008001999999MA1999999101761MD1999999+0281MW1601REMSYN082AAXX  20184 83096 21593 83210 10229 20205 30176 40183 76066 887// 333 58028 60021;
0173830960999992000082112004-10910-037050FM-12+000699999V0202701N001512200019N0010001N1+02591+01921101841ADDAA124008991GF101991011031012501001001KA1240N+02111MA1999999101771MD1999999-0171REMSYN082AAXX  21124 83096 22694 12703 10259 20192 30177 40184 81300 333 20211 59017 60094;
0167830960999992000082118004-10910-037050FM-12+000699999V0202701N002112200019N0010001N1+02571+02131101831ADDAA199000091GF102991021051012501001001MA1999999101761MD1999999+0001REMSYN070AAXX  21184 83096 32694 22704 10257 20213 30176 40183 82500 333 58000;EQDQ01  00002PRCP99
0186830960999992000082200004-10910-037050FM-12+000699999V0203601N001512200019N0010001N1+02391+02031101821ADDAA199000091GF102991021051012501001001KA1240M+02751MA1999999101751MD1999999-0121REMSYN076AAXX  22004 83096 32694 23603 10239 20203 30175 40182 82500 333 10275 59012;EQDQ01  00002PRCP99
0173830960999992000082212004-10910-037050FM-12+000699999V0203201N001010120019N0010001N1+02541+02211101831ADDAA124000891GF106991061051012501001001KA1240N+01991MA1999999101761MD1999999-0011REMSYN082AAXX  22124 83096 22694 63202 10254 20221 30176 40183 86500 333 20199 59001 69984;
0167830960999992000082218004-10910-037050FM-12+000699999V0202701N003110120019N0010001N1+02611+02141101541ADDAA199000091GF106991061051012501001001MA1999999101471MD1999999-0301REMSYN070AAXX  22184 83096 32694 62706 10261 20214 30147 40154 86500 333 59030;EQDQ01  00002PRCP99
0173830960999992000082300004-10910-037050FM-12+000699999V0202201N004110450019N0010001N1+02411+02171101761ADDAA106000191GF106991041051012501031001KA1240M+02781MA1999999101691MD1999999-0061REMSYN082AAXX  23004 83096 22694 62208 10241 20217 30169 40176 84530 333 10278 59006 69921;
0173830960999992000082312004-10910-037050FM-12+000699999V0202701N002112200019N0010001N1+02631+01961101721ADDAA124000591GF101991011031012501001001KA1240N+02231MA1999999101651MD1999999-0111REMSYN082AAXX  23124 83096 22694 12704 10263 20196 30165 40172 81300 333 20223 59011 69944;
0167830960999992000082318004-10910-037050FM-12+000699999V0202701N002110450019N0010001N1+02671+02021101611ADDAA199000091GF105991031051012501031001MA1999999101541MD1999999+0071REMSYN070AAXX  23184 83096 32694 52704 10267 20202 30154 40161 83530 333 58007;EQDQ01  00002PRCP99
0173830960999992000082400004-10910-037050FM-12+000699999V0201801N001512200019N0010001N1+02271+02141101701ADDAA106002091GF103991031051012501001001KA1240M+02771MA1999999101631MD1999999-0061REMSYN082AAXX  24004 83096 22694 31803 10227 20214 30163 40170 83500 333 10277 59006 60021;
0173830960999992000082412004-10910-037050FM-12+000699999V0203201N003110120019N0010001N1+02411+02171101841ADDAA124011991GF106991061051012501001001KA1240N+02171MA1999999101771MD1999999+0121REMSYN082AAXX  24124 83096 22694 63206 10241 20217 30177 40184 86500 333 20217 58012 60124;
0154830960999992000082418004-10910-037050FM-12+000699999V0202301N003110450019N0010001N1+02631+02231101511ADDAA106004191GF105991031051012501031001MA1999999101441MD1999999-0101REMSYN076AAXX  24184 83096 22694 52306 10263 20223 30144 40151 83530 333 59010 60041;
0156830960999992000082500004-10910-037050FM-12+000699999V0202701N001512200019N0010001N1+02511+02171101701ADDGF103991031051012501001001KA1240M+02691MA1999999101631MD1999999+0001REMSYN076AAXX  25004 83096 22694 32703 10251 20217 30163 40170 83500 333 10269 58000;
0173830960999992000082512004-10910-037050FM-12+000699999V0201801N001512200019N0010001N1+02491+02301101761ADDAA124006191GF102991021031012501001001KA1240N+02191MA1999999101691MD1999999-0081REMSYN082AAXX  25124 83096 22694 21803 10249 20230 30169 40176 82300 333 20219 59008 60064;
0167830960999992000082518004-10910-037050FM-12+000699999V0202701N003112200019N0010001N1+02671+02241101471ADDAA199000091GF103991021051012501031001MA1999999101401MD1999999-0041REMSYN070AAXX  25184 83096 32694 32706 10267 20224 30140 40147 82530 333 59004;EQDQ01  00002PRCP99
0173830960999992000082600004-10910-037050FM-12+000699999V0202701N002610120019N0010001N1+02451+02301101601ADDAA106000191GF106991061051012501001001KA1240M+02791MA1999999101531MD1999999-0101REMSYN082AAXX  26004 83096 22694 62705 10245 20230 30153 40160 86500 333 10279 59010 69921;
0173830960999992000082612004-10910-037050FM-12+000699999V0202701N003112200019N0010001N1+02671+02021101641ADDAA124001091GF102991021031012501001001KA1240N+02291MA1999999101571MD1999999-0121REMSYN082AAXX  26124 83096 22694 22706 10267 20202 30157 40164 82300 333 20229 59012 60014;
0167830960999992000082618004-10910-037050FM-12+000699999V0202701N002112200019N0010001N1+02691+02021101431ADDAA199000091GF101991011031012501001001MA1999999101361MD1999999-0041REMSYN070AAXX  26184 83096 32694 12704 10269 20202 30136 40143 81300 333 59004;EQDQ01  00002PRCP99
0186830960999992000082700004-10910-037050FM-12+000699999V0202701N002112200019N0010001N1+02451+02071101431ADDAA199000091GF101991011051012501001001KA1240M+02791MA1999999101261MD1999999-0171REMSYN076AAXX  27004 83096 32694 12704 10245 20207 30126 40143 81500 333 10279 59017;EQDQ01  00002PRCP99
0173830960999992000082712004-10910-037050FM-12+000699999V0201801N001012200019N0010001N1+02531+02211101561ADDAA124001091GF101991011051012501001001KA1240N+02251MA1999999101491MD1999999-0081REMSYN082AAXX  27124 83096 22694 11802 10253 20221 30149 40156 81500 333 20225 59008 60014;
0167830960999992000082718004-10910-037050FM-12+000699999V0202701N001512200019N0010001N1+02711+02131101331ADDAA199000091GF101991011051012501001001MA1999999101261MD1999999-0101REMSYN070AAXX  27184 83096 32694 12703 10271 20213 30126 40133 81500 333 59010;EQDQ01  00002PRCP99
0186830960999992000082800004-10910-037050FM-12+000699999V0202701N002112200019N0010001N1+02471+02171101291ADDAA199000091GF102991021051012501001001KA1240M+02811MA1999999101221MD1999999-0141REMSYN076AAXX  28004 83096 32694 22704 10247 20217 30122 40129 82500 333 10281 59014;EQDQ01  00002PRCP99
0173830960999992000082812004-10910-037050FM-12+000699999V0202201N004610120019N0010001N1+02651+02231101551ADDAA124002091GF107991051051012501031001KA1240N+02151MA1999999101481MD1999999-0011REMSYN082AAXX  28124 83096 22694 72209 10265 20223 30148 40155 85530 333 20215 59001 60024;
0186830960999992000082900004-10910-037050FM-12+000699999V0202201N004612200019N0010001N1+02511+02191101401ADDAA199000091GF104991041051012501001001KA1240M+02801MA1999999101331MD1999999+0111REMSYN076AAXX  29004 83096 32694 42209 10251 20219 30133 40140 84500 333 10280 58011;EQDQ01  00002PRCP99
0186830960999992000082912004-10910-037050FM-12+000699999V0202201N003112200019N0010001N1+02591+02251101531ADDAA199000091GF102991021051012501001001KA1240N+02231MA1999999101461MD1999999-0021REMSYN076AAXX  29124 83096 32694 22206 10259 20225 30146 40153 82500 333 20223 59002;EQDQ01  00002PRCP99
0167830960999992000082918004-10910-037050FM-12+000699999V0202701N003612200019N0010001N1+02711+02261101391ADDAA199000091GF101991011051012501001001MA1999999101321MD1999999+0221REMSYN070AAXX  29184 83096 32694 12707 10271 20226 30132 40139 81500 333 58022;EQDQ01  00002PRCP99
0186830960999992000083000004-10910-037050FM-12+000699999V0202701N003612200019N0010001N1+02531+02231101491ADDAA199000091GF103991031051012501001001KA1240M+02811MA1999999101421MD1999999+0091REMSYN076AAXX  30004 83096 32694 32707 10253 20223 30142 40149 83500 333 10281 58009;EQDQ01  00002PRCP99
0186830960999992000083012004-10910-037050FM-12+000699999V0202201N003112200019N0010001N1+02711+02281101791ADDAA199000091GF103991031051012501001001KA1240N+02331MA1999999101721MD1999999+0261REMSYN076AAXX  30124 83096 32694 32206 10271 20228 30172 40179 83500 333 20233 58026;EQDQ01  00002PRCP99
0167830960999992000083018004-10910-037050FM-12+000699999V0202701N003112200019N0010001N1+02701+02131101541ADDAA199000091GF102991021051012501001001MA1999999101471MD1999999+0151REMSYN070AAXX  30184 83096 32694 22706 10270 20213 30147 40154 82500 333 58015;EQDQ01  00002PRCP99
0186830960999992000083100004-10910-037050FM-12+000699999V0203201N002612200019N0010001N1+02501+02091101791ADDAA199000091GF102991021011012501001001KA1240M+02851MA1999999101721MD1999999+0301REMSYN076AAXX  31004 83096 32694 23205 10250 20209 30172 40179 82100 333 10285 58030;EQDQ01  00002PRCP99
0173830960999992000083112004-10910-037050FM-12+000699999V0202701N003112200019N0010001N1+02611+02101101631ADDAA124000591GF102991021031012501001001KA1240N+02211MA1999999101571MD1999999-0151REMSYN082AAXX  31124 83096 22694 22706 10261 20210 30157 40163 82300 333 20221 59015 69944;
0167830960999992000083118004-10910-037050FM-12+000699999V0202701N001512200019N0010001N1+02711+02111101491ADDAA199000091GF102991021031012501001001MA1999999101421MD1999999-0051REMSYN070AAXX  31184 83096 32694 22703 10271 20211 30142 40149 82300 333 59005;EQDQ01  00002PRCP99
0192830960999992000090100004-10910-037050FM-12+000699999V0202701N048322200019N0010001N1+02531+02091101511ADDAA106000591GF102991021051012501001001KA1240M+02831MA1999999101441MD1999999-0281REMSYN082AAXX  01004 83096 22694 22794 10253 20209 30144 40151 82500 333 10283 59028 69961;EQDQ01+004833WOSPD 
0173830960999992000090112004-10910-037050FM-12+000699999V0203201N003610120019N0010001N1+02651+02161101621ADDAA124005191GF106991061051012501001001KA1240N+02241MA1999999101551MD1999999-0021REMSYN082AAXX  01124 83096 22694 63207 10265 20216 30155 40162 86500 333 20224 59002 60054;
0167830960999992000090118004-10910-037050FM-12+000699999V0203201N004612200019N0010001N1+02671+02141101281ADDAA199000091GF102991021051012501001001MA1999999101211MD1999999-0211REMSYN070AAXX  01184 83096 32694 23209 10267 20214 30121 40128 82500 333 59021;EQDQ01  00002PRCP99
0186830960999992000090200004-10910-037050FM-12+000699999V0203201N004612200019N0010001N1+02521+02051101381ADDAA199000091GF102991021051012501001001KA1240M+02791MA1999999101311MD1999999-0131REMSYN076AAXX  02004 83096 32694 23209 10252 20205 30131 40138 82500 333 10279 59013;EQDQ01  00002PRCP99
0186830960999992000090212004-10910-037050FM-12+000699999V0203201N003112200019N0010001N1+02621+02131101541ADDAA199000091GF102991021051012501001001KA1240N+02331MA1999999101471MD1999999-0081REMSYN076AAXX  02124 83096 32694 23206 10262 20213 30147 40154 82500 333 20233 59008;EQDQ01  00002PRCP99
0167830960999992000090218004-10910-037050FM-12+000699999V0203201N003612200019N0010001N1+02651+02051101301ADDAA199000091GF101991011011012501001001MA1999999101231MD1999999+0021REMSYN070AAXX  02184 83096 32694 13207 10265 20205 30123 40130 81100 333 58002;EQDQ01  00002PRCP99
0186830960999992000090312004-10910-037050FM-12+000699999V0203201N005112200019N0010001N1+02651+02001101591ADDAA199000091GF102991021051012501001001KA1240N+02291MA1999999101521MD1999999+0051REMSYN076AAXX  03124 83096 32694 23210 10265 20200 30152 40159 82500 333 20229 58005;EQDQ01  00002PRCP99
0167830960999992000090318004-10910-037050FM-12+000699999V0203201N004112200019N0010001N1+02631+01961101311ADDAA199000091GF101991011051012501001001MA1999999101341MD1999999+0011REMSYN070AAXX  03184 83096 32694 13208 10263 20196 30134 40131 81500 333 58001;EQDQ01  00002PRCP99
0186830960999992000090400004-10910-037050FM-12+000699999V0203201N002612200019N0010001N1+02431+02011101551ADDAA199000091GF101991011011012501001001KA1240M+02771MA1999999101481MD1999999+0031REMSYN076AAXX  04004 83096 32694 13205 10243 20201 30148 40155 81100 333 10277 58003;EQDQ01  00002PRCP99
0186830960999992000090412004-10910-037050FM-12+000699999V0202701N001512200019N0010001N1+02591+02121101541ADDAA199000091GF102991021051012501001001KA1240N+01811MA1999999101471MD1999999-0051REMSYN076AAXX  04124 83096 32694 22703 10259 20212 30147 40154 82500 333 20181 59005;EQDQ01  00002PRCP99
0167830960999992000090418004-10910-037050FM-12+000699999V0202701N002112200019N0010001N1+02711+02201101401ADDAA199000091GF101991011051012501001001MA1999999101331MD1999999+0091REMSYN070AAXX  04184 83096 32694 12704 10271 20220 30133 40140 81500 333 58009;EQDQ01  00002PRCP99
0186830960999992000090500004-10910-037050FM-12+000699999V0202701N001512200019N0010001N1+02521+02311101391ADDAA199000091GF103991031051012501001001KA1240M+02791MA1999999101321MD1999999-0161REMSYN076AAXX  05004 83096 32694 32703 10252 20231 30132 40139 83500 333 10279 59016;EQDQ01  00002PRCP99
0156830960999992000090512004-10910-037050FM-12+000699999V0203201N003112200019N0010001N1+02671+02221101691ADDGF102991021051012501001001KA1240N+02301MA1999999101621MD1999999+0151REMSYN076AAXX  05124 83096 22694 23206 10267 20222 30162 40169 82500 333 20230 58015;
0167830960999992000090518004-10910-037050FM-12+000699999V0203201N003112200019N0010001N1+02631+02211101361ADDAA199000091GF102991021051012501001001MA1999999101291MD1999999-0041REMSYN070AAXX  05184 83096 32694 23206 10263 20221 30129 40136 82500 333 59004;EQDQ01  00002PRCP99
0186830960999992000090600004-10910-037050FM-12+000699999V0203201N002112200019N0010001N1+02481+02111101511ADDAA199000091GF101991011051012501001001KA1240M+02831MA1999999101441MD1999999+0121REMSYN076AAXX  06004 83096 32694 13204 10248 20211 30144 40151 81500 333 10283 58012;EQDQ01  00002PRCP99
0186830960999992000090612004-10910-037050FM-12+000699999V0202701N001512200019N0010001N1+02471+02211101501ADDAA199000091GF102991021051012501001001KA1240N+02051MA1999999101431MD1999999-0191REMSYN076AAXX  06124 83096 32694 22703 10247 20221 30143 40150 82500 333 20205 59019;EQDQ01  00002PRCP99
0154830960999992000090618004-10910-037050FM-12+000699999V0202701N002112200019N0010001N1+02651+02161101311ADDAA106005191GF103991031031012501001001MA1999999101241MD1999999-0051REMSYN076AAXX  06184 83096 22694 32704 10265 20216 30124 40131 83300 333 59005 60051;
0186830960999992000090700004-10910-037050FM-12+000699999V0203201N001512200019N0010001N1+02451+02191101401ADDAA199000091GF102991021051012501001001KA1240M+02731MA1999999101331MD1999999-0111REMSYN076AAXX  07004 83096 32694 23203 10245 20219 30133 40140 82500 333 10273 59011;EQDQ01  00002PRCP99
0173830960999992000090712004-10910-037050FM-12+000699999V0203601N002110150019N0010001N1+02551+02231101551ADDAA124009991GF106991061051017501001001KA1240N+02171MA1999999101481MD1999999+0051REMSYN082AAXX  07124 83096 22794 63604 10255 20223 30148 40155 86500 333 20217 58005 60104;
0167830960999992000090718004-10910-037050FM-12+000699999V0203201N003110120019N0010001N1+02571+02251101221ADDAA199000091GF106991061051012501001001MA1999999101151MD1999999-0091REMSYN070AAXX  07184 83096 32694 63206 10257 20225 30115 40122 86500 333 59009;EQDQ01  00002PRCP99
0186830960999992000090800004-10910-037050FM-12+000699999V0203601N003110120019N0010001N1+02451+02131101521ADDAA199000091GF107991071051012501001001KA1240M+02751MA1999999101451MD1999999+0121REMSYN076AAXX  08004 83096 32694 73606 10245 20213 30145 40152 87500 333 10275 58012;EQDQ01  00002PRCP99
0167830960999992000090818004-10910-037050FM-12+000699999V0202701N003112200019N0010001N1+02631+01981101371ADDAA199000091GF102991021031012501001001MA1999999101301MD1999999+0151REMSYN070AAXX  08184 83096 32694 22706 10263 20198 30130 40137 82300 333 58015;EQDQ01  00002PRCP99
0156830960999992000090900004-10910-037050FM-12+000699999V0202701N002112200019N0010001N1+02531+02021101431ADDGF103991031051012501001001KA1240M+02811MA1999999101361MD1999999-0091REMSYN076AAXX  09004 83096 22694 32704 10253 20202 30136 40143 83500 333 10281 59009;
0173830960999992000090912004-10910-037050FM-12+000699999V0202701N002612200019N0010001N1+02631+02011101541ADDAA124000191GF102991021031012501001001KA1240N+02291MA1999999101471MD1999999+0081REMSYN082AAXX  09124 83096 22694 22705 10263 20201 30147 40154 82300 333 20229 58008 69924;
0167830960999992000090918004-10910-037050FM-12+000699999V0202701N002112200019N0010001N1+02711+02081101391ADDAA199000091GF101991011031012501001001MA1999999101321MD1999999+0021REMSYN070AAXX  09184 83096 32694 12704 10271 20208 30132 40139 81300 333 58002;EQDQ01  00002PRCP99
0186830960999992000091000004-10910-037050FM-12+000699999V0202701N002112200019N0010001N1+02531+02191101491ADDAA199000091GF102991021051012501001001KA1240M+02831MA1999999101421MD1999999+0061REMSYN076AAXX  10004 83096 32694 22704 10253 20219 30142 40149 82500 333 10283 58006;EQDQ01  00002PRCP99
0186830960999992000091012004-10910-037050FM-12+000699999V0202701N003112200019N0010001N1+02651+02251101531ADDAA199000091GF102991021051012501001001KA1240N+02331MA1999999101461MD1999999-0011REMSYN076AAXX  10124 83096 32694 22706 10265 20225 30146 40153 82500 333 20233 59001;EQDQ01  00002PRCP99
0154830960999992000091018004-10910-037050FM-12+000699999V0202701N003112200019N0010001N1+02691+02261101411ADDAA106000891GF104991021051012501031001MA1999999101341MD1999999+0021REMSYN076AAXX  10184 83096 22694 42706 10269 20226 30134 40141 82530 333 58002 69981;
0173830960999992000091100004-10910-037050FM-12+000699999V0202701N003110120019N0010001N1+02331+02201101431ADDAA106003091GF106991061051012501001001KA1240M+02811MA1999999101361MD1999999-0061REMSYN082AAXX  11004 83096 22694 62706 10233 20220 30136 40143 86500 333 10281 59006 60031;
0201830960999992000091112004-10910-037050FM-12+000699999V0202201N002110075019N0005001N1+02351+02201101711ADDAA124007991AY161061AY261061GF108991081071008001999999KA1240N+02151MA1999999101641MD1999999+0181MW1601REMSYN088AAXX  11124 83096 21593 82204 10235 20220 30164 40171 76066 887// 333 20215 58018 60084;
0182830960999992000091118004-10910-037050FM-12+000699999V0202701N001510075019N0005001N1+02321+02161101361ADDAA106011991AY161061AY261061GF108991081071008001999999MA1999999101291MD1999999-0051MW1601REMSYN082AAXX  11184 83096 21593 82703 10232 20216 30129 40136 76066 887// 333 59005 60121;
0201830960999992000091200004-10910-037050FM-12+000699999V0203201N001510075019N0005001N1+02401+02231101421ADDAA106001091AY161061AY261061GF108991081071008001999999KA1240M+02531MA1999999101351MD1999999-0011MW1601REMSYN088AAXX  12004 83096 21593 83203 10240 20223 30135 40142 76066 887// 333 10253 59001 60011;
0173830960999992000091212004-10910-037050FM-12+000699999V0202701N003112200019N0010001N1+02471+02231101521ADDAA124016091GF104991041051012501001001KA1240N+02231MA1999999101451MD1999999-0191REMSYN082AAXX  12124 83096 22694 42706 10247 20223 30145 40152 84500 333 20223 59019 60164;
0167830960999992000091218004-10910-037050FM-12+000699999V0202701N002612200019N0010001N1+02531+02211101391ADDAA199000091GF104991031051012501031001MA1999999101321MD1999999+0031REMSYN070AAXX  12184 83096 32694 42705 10253 20221 30132 40139 83530 333 58003;EQDQ01  00002PRCP99
0186830960999992000091300004-10910-037050FM-12+000699999V0202701N003112200019N0010001N1+02451+02271101501ADDAA199000091GF102991021051012501001001KA1240M+02691MA1999999101431MD1999999+0081REMSYN076AAXX  13004 83096 32694 22706 10245 20227 30143 40150 82500 333 10269 58008;EQDQ01  00002PRCP99
0201830960999992000091312004-10910-037050FM-12+000699999V0202301N005710075019N0005001N1+02471+02231101761ADDAA124020191AY161061AY261061GF108991081071008001999999KA1240N+02211MA1999999101691MD1999999+0241MW1601REMSYN088AAXX  13124 83096 21593 82311 10247 20223 30169 40176 76066 887// 333 20221 58024 60204;
0148830960999992000091318004-10910-037050FM-12+000699999V0202301N006210120019N0010001N1+02691+02281101471ADDAA199000021GF107991051051012501031001MA1999999101401MD1999999+0081REMSYN070AAXX  13184 83096 32694 72312 10269 20228 30140 40147 85530 333 58008;
0167830960999992000091400004-10910-037050FM-12+000699999V0202201N004612200019N0010001N1+02531+02271101651ADDAA199000021GF102991021051012501001001KA1240M+02781MA1999999101581MD1999999+0151REMSYN076AAXX  14004 83096 32694 22209 10253 20227 30158 40165 82500 333 10278 58015;
0173830960999992000091412004-10910-037050FM-12+000699999V0202201N002110120019N0010001N1+02451+02271101771ADDAA124005191GF105991051051012501001001KA1240N+02231MA1999999101701MD1999999+0011REMSYN082AAXX  14124 83096 22694 52204 10245 20227 30170 40177 85500 333 20223 58001 60054;
0167830960999992000091418004-10910-037050FM-12+000699999V0202701N001512200019N0010001N1+02731+02191101591ADDAA199000091GF101991011031012501001001MA1999999101521MD1999999+0121REMSYN070AAXX  14184 83096 32694 12703 10273 20219 30152 40159 81300 333 58012;EQDQ01  00002PRCP99
0186830960999992000091500004-10910-037050FM-12+000699999V0202201N003612200019N0010001N1+02491+02191101721ADDAA199000091GF102991021051012501001001KA1240M+02811MA1999999101651MD1999999+0071REMSYN076AAXX  15004 83096 32694 22207 10249 20219 30165 40172 82500 333 10281 58007;EQDQ01  00002PRCP99
0186830960999992000091512004-10910-037050FM-12+000699999V0202201N003612200019N0010001N1+02711+02221101801ADDAA199000091GF102991021051012501001001KA1240N+02271MA1999999101731MD1999999+0031REMSYN076AAXX  15124 83096 32694 22207 10271 20222 30173 40180 82500 333 20227 58003;EQDQ01  00002PRCP99
0167830960999992000091518004-10910-037050FM-12+000699999V0202701N003610120019N0010001N1+02591+99999101481ADDAA199000091GF107991071051012501001001MA1999999101411MD1999999-0111REMSYN070AAXX  15184 83096 32694 72707 10259 20285 30141 40148 87500 333 59011;EQDQ01  00002PRCP99
0173830960999992000091600004-10910-037050FM-12+000699999V0202201N003110120019N0010001N1+02511+02191101711ADDAA106004191GF106991061051012501001001KA1240M+02831MA1999999101641MD1999999-0011REMSYN082AAXX  16004 83096 22694 62206 10251 20219 30164 40171 86500 333 10283 59001 60041;
0201830960999992000091612004-10910-037050FM-12+000699999V0202701N003110075019N0005001N1+02541+02211101811ADDAA124004191AY161061AY261061GF108991081051008001999999KA1240N+02411MA1999999101741MD1999999+0011MW1601REMSYN088AAXX  16124 83096 21593 82706 10254 20221 30174 40181 76066 885// 333 20241 58001 60044;
0148830960999992000091618004-10910-037050FM-12+000699999V0202701N003110120019N0010001N1+02651+02231101511ADDAA199000021GF107991071051012501001001MA1999999101441MD1999999+0031REMSYN070AAXX  16184 83096 32694 72706 10265 20223 30144 40151 87500 333 58003;
0167830960999992000091700004-10910-037050FM-12+000699999V0202701N002110120019N0010001N1+02531+02191101641ADDAA199000021GF106991061051012501001001KA1240M+02771MA1999999101571MD1999999-0071REMSYN076AAXX  17004 83096 32694 62704 10253 20219 30157 40164 86500 333 10277 59007;
0173830960999992000091712004-10910-037050FM-12+000699999V0202701N003110120019N0010001N1+02651+02231101831ADDAA124000591GF106991061051012501001001KA1240N+02311MA1999999101761MD1999999+0021REMSYN082AAXX  17124 83096 22694 62706 10265 20223 30176 40183 86500 333 20231 58002 69944;
0167830960999992000091718004-10910-037050FM-12+000699999V0202701N003612200019N0010001N1+02701+02221101601ADDAA199000091GF102991021051012501001001MA1999999101531MD1999999+0091REMSYN070AAXX  17184 83096 32694 22707 10270 20222 30153 40160 82500 333 58009;EQDQ01  00002PRCP99
0186830960999992000091800004-10910-037050FM-12+000699999V0202701N002610120019N0010001N1+02551+02131101891ADDAA199000091GF106991061051012501001001KA1240M+02811MA1999999101731MD1999999+0161REMSYN076AAXX  18004 83096 32694 62705 10255 20213 30173 40189 86500 333 10281 58016;EQDQ01  00002PRCP99
0186830960999992000091812004-10910-037050FM-12+000699999V0202701N002612200019N0010001N1+02671+02041101781ADDAA199000091GF102991021031012501001001KA1240N+02391MA1999999101711MD1999999-0051REMSYN076AAXX  18124 83096 32694 22705 10267 20204 30171 40178 82300 333 20239 59005;EQDQ01  00002PRCP99
0167830960999992000091818004-10910-037050FM-12+000699999V0203201N003112200019N0010001N1+02711+02081101691ADDAA199000091GF103991021051012501031001MA1999999101621MD1999999+0091REMSYN070AAXX  18184 83096 32694 33206 10271 20208 30162 40169 82530 333 58009;EQDQ01  00002PRCP99
0186830960999992000091900004-10910-037050FM-12+000699999V0202701N002112200019N0010001N1+02531+02071101781ADDAA199000091GF102991021051012501001001KA1240M+02801MA1999999101711MD1999999-0021REMSYN076AAXX  19004 83096 32694 22704 10253 20207 30171 40178 82500 333 10280 59002;EQDQ01  00002PRCP99
0173830960999992000091912004-10910-037050FM-12+000699999V0203201N003112200019N0010001N1+02671+02071101821ADDAA124000891GF102991021051012501001001KA1240N+02271MA1999999101751MD1999999+0041REMSYN082AAXX  19124 83096 22694 23206 10267 20207 30175 40182 82500 333 20227 58004 69984;
0167830960999992000091918004-10910-037050FM-12+000699999V0203201N003112200019N0010001N1+02631+02011101581ADDAA199000091GF106991041051008001001011MA1999999101511MD1999999-0111REMSYN070AAXX  19184 83096 32594 63206 10263 20201 30151 40158 84501 333 59011;EQDQ01  00002PRCP99
0186830960999992000092000004-10910-037050FM-12+000699999V0203201N002610120019N0010001N1+02521+01961101781ADDAA199000091GF105991051051012501001001KA1240M+02771MA1999999101711MD1999999+0001REMSYN076AAXX  20004 83096 32694 53205 10252 20196 30171 40178 85500 333 10277 58000;EQDQ01  00002PRCP99
0173830960999992000092012004-10910-037050FM-12+000699999V0202701N002612200019N0010001N1+02671+01971101701ADDAA124000191GF101991011031012501001001KA1240N+02351MA1999999101631MD1999999-0121REMSYN082AAXX  20124 83096 22694 12705 10267 20197 30163 40170 81300 333 20235 59012 69924;
0167830960999992000092018004-10910-037050FM-12+000699999V0202701N002112200019N0010001N1+02691+02021101551ADDAA199000091GF102991021031012501001001MA1999999101481MD1999999-0031REMSYN070AAXX  20184 83096 32694 22704 10269 20202 30148 40155 82300 333 59003;EQDQ01  00002PRCP99
0186830960999992000092100004-10910-037050FM-12+000699999V0202701N002612200019N0010001N1+02491+01981101571ADDAA199000091GF103991031051012501001001KA1240M+02811MA1999999101501MD1999999-0211REMSYN076AAXX  21004 83096 32694 32705 10249 20198 30150 40157 83500 333 10281 59021;EQDQ01  00002PRCP99
0173830960999992000092112004-10910-037050FM-12+000699999V0203201N004112200019N0010001N1+02631+01731101781ADDAA124005191GF102991021051012501001001KA1240N+02071MA1999999101711MD1999999+0081REMSYN082AAXX  21124 83096 22694 23208 10263 20173 30171 40178 82500 333 20207 58008 60054;
0167830960999992000092118004-10910-037050FM-12+000699999V0203201N003112200019N0010001N1+02651+01851101611ADDAA199000091GF101991011051012501001001MA1999999101541MD1999999+0061REMSYN070AAXX  21184 83096 32694 13206 10265 20185 30154 40161 81500 333 58006;EQDQ01  00002PRCP99
0173830960999992000092212004-10910-037050FM-12+000699999V0202701N001512200019N0010001N1+02581+01971101761ADDAA124002091GF103991031051008001001001KA1240N+02151MA1999999101691MD1999999-0021REMSYN082AAXX  22124 83096 22594 32703 10258 20197 30169 40176 83500 333 20215 59002 60024;
0167830960999992000092218004-10910-037050FM-12+000699999V0202701N002112200019N0010001N1+02701+01961101671ADDAA199000091GF102991021051012501001001MA1999999101601MD1999999+0061REMSYN070AAXX  22184 83096 32694 22704 10270 20196 30160 40167 82500 333 58006;EQDQ01  00002PRCP99
0186830960999992000092300004-10910-037050FM-12+000699999V0202701N002112200019N0010001N1+02491+01961101601ADDAA199000091GF101991011051012501001001KA1240M+02801MA1999999101531MD1999999-0101REMSYN076AAXX  23004 83096 32694 12704 10249 20196 30153 40160 81500 333 10280 59010;EQDQ01  00002PRCP99
0186830960999992000092312004-10910-037050FM-12+000699999V0202701N003112200019N0010001N1+02651+02001101601ADDAA199000091GF102991021031012501001001KA1240N+02311MA1999999101531MD1999999-0161REMSYN076AAXX  23124 83096 32694 22706 10265 20200 30153 40160 82300 333 20231 59016;EQDQ01  00002PRCP99
0167830960999992000092318004-10910-037050FM-12+000699999V0202701N003112200019N0010001N1+02691+01991101481ADDAA199000091GF102991021031012501001001MA1999999101411MD1999999-0191REMSYN070AAXX  23184 83096 32694 22706 10269 20199 30141 40148 82300 333 59019;EQDQ01  00002PRCP99
0186830960999992000092400004-10910-037050FM-12+000699999V0202701N002612200019N0010001N1+02511+01911101501ADDAA199000091GF102991021031012501001001KA1240M+02811MA1999999101431MD1999999-0101REMSYN076AAXX  24004 83096 32694 22705 10251 20191 30143 40150 82300 333 10281 59010;EQDQ01  00002PRCP99
0186830960999992000092412004-10910-037050FM-12+000699999V0202701N003112200019N0010001N1+02671+02041101601ADDAA199000091GF101991011031012501001001KA1240N+02321MA1999999101531MD1999999+0001REMSYN076AAXX  24124 83096 32694 12706 10267 20204 30153 40160 81300 333 20232 58000;EQDQ01  00002PRCP99
0167830960999992000092418004-10910-037050FM-12+000699999V0202701N002112200019N0010001N1+02731+02121101371ADDAA199000091GF101991011031012501001001MA1999999101301MD1999999-0111REMSYN070AAXX  24184 83096 32694 12704 10273 20212 30130 40137 81300 333 59011;EQDQ01  00002PRCP99
0186830960999992000092500004-10910-037050FM-12+000699999V0202701N002112200019N0010001N1+02531+02131101411ADDAA199000091GF102991021051012501001001KA1240M+02871MA1999999101341MD1999999-0091REMSYN076AAXX  25004 83096 32694 22704 10253 20213 30134 40141 82500 333 10287 59009;EQDQ01  00002PRCP99
0167830960999992000092518004-10910-037050FM-12+000699999V0202201N005112200019N0010001N1+02681+02131101391ADDAA199000091GF102991021051012501001001MA1999999101321MD1999999+0021REMSYN070AAXX  25184 83096 32694 22210 10268 20213 30132 40139 82500 333 58002;EQDQ01  00002PRCP99
0186830960999992000092600004-10910-037050FM-12+000699999V0202301N003112200019N0010001N1+02521+02071101681ADDAA199000091GF102991021051012501001001KA1240M+02831MA1999999101611MD1999999+0271REMSYN076AAXX  26004 83096 32694 22306 10252 20207 30161 40168 82500 333 10283 58027;EQDQ01  00002PRCP99
0186830960999992000092612004-10910-037050FM-12+000699999V0202701N003112200019N0010001N1+02691+02061101701ADDAA199000091GF102991021031012501001001KA1240N+02331MA1999999101631MD1999999+0021REMSYN076AAXX  26124 83096 32694 22706 10269 20206 30163 40170 82300 333 20233 58002;EQDQ01  00002PRCP99
0167830960999992000092618004-10910-037050FM-12+000699999V0202701N003612200019N0010001N1+02751+02051101551ADDAA199000091GF102991021031012501001001MA1999999101481MD1999999+0161REMSYN070AAXX  26184 83096 32694 22707 10275 20205 30148 40155 82300 333 58016;EQDQ01  00002PRCP99
0186830960999992000092700004-10910-037050FM-12+000699999V0202701N002612200019N0010001N1+02551+02151101691ADDAA199000091GF102991021051012501001001KA1240M+02851MA1999999101621MD1999999+0011REMSYN076AAXX  27004 83096 32694 22705 10255 20215 30162 40169 82500 333 10285 58001;EQDQ01  00002PRCP99
0173830960999992000092712004-10910-037050FM-12+000699999V0202701N002112200019N0010001N1+02751+02101101921ADDAA124002091GF102991021051012501001001KA1240N+02121MA1999999101851MD1999999+0221REMSYN082AAXX  27124 83096 22694 22704 10275 20210 30185 40192 82500 333 20212 58022 60024;
0154830960999992000092718004-10910-037050FM-12+000699999V0203601N002610120019N0010001N1+02651+02201101651ADDAA106000591GF106991061051012501001001MA1999999101581MD1999999+0101REMSYN076AAXX  27184 83096 22694 63605 10265 20220 30158 40165 86500 333 58010 69951;
0173830960999992000092800004-10910-037050FM-12+000699999V0203601N003112200019N0010001N1+02521+02131101731ADDAA106000191GF102991021051012501001001KA1240M+02851MA1999999101661MD1999999+0041REMSYN082AAXX  28004 83096 22694 23606 10252 20213 30166 40173 82500 333 10285 58004 69921;
0201830960999992000092812004-10910-037050FM-12+000699999V0203601N002110075019N0005001N1+02551+02001101661ADDAA124015091AY161061AY261061GF108991081051008001001001KA1240N+02111MA1999999101591MD1999999-0261MW1601REMSYN088AAXX  28124 83096 21593 83604 10255 20200 30159 40166 76066 88500 333 20211 59026 60154;
0154830960999992000092818004-10910-037050FM-12+000699999V0202701N003612200019N0010001N1+02531+02131101521ADDAA106001091GF104991041051012501001001MA1999999101451MD1999999-0131REMSYN076AAXX  28184 83096 22694 42707 10253 20213 30145 40152 84500 333 59013 60011;
0167830960999992000092900004-10910-037050FM-12+000699999V0202701N002110120019N0010001N1+02511+02131101631ADDAA199000021GF105991051051012501001001KA1240M+02751MA1999999101571MD1999999-0091REMSYN076AAXX  29004 83096 32694 52704 10251 20213 30157 40163 85500 333 10275 59009;
0173830960999992000092912004-10910-037050FM-12+000699999V0203601N004612200019N0010001N1+02731+02101101911ADDAA124002091GF102991021051012501001001KA1240N+02271MA1999999101841MD1999999+0251REMSYN082AAXX  29124 83096 22694 23609 10273 20210 30184 40191 82500 333 20227 58025 60024;
0167830960999992000092918004-10910-037050FM-12+000699999V0202201N003612200019N0010001N1+02731+02151101611ADDAA199000091GF104991041051012501001001MA1999999101541MD1999999+0091REMSYN070AAXX  29184 83096 32694 42207 10273 20215 30154 40161 84500 333 58009;EQDQ01  00002PRCP99
0186830960999992000093000004-10910-037050FM-12+000699999V0202201N004612200019N0010001N1+02551+02131101851ADDAA199000091GF104991041051012501001001KA1240M+02851MA1999999101781MD1999999+0211REMSYN076AAXX  30004 83096 32694 42209 10255 20213 30178 40185 84500 333 10285 58021;EQDQ01  00002PRCP99
0173830960999992000093012004-10910-037050FM-12+000699999V0202201N005712200019N0010001N1+02691+02111101931ADDAA124001091GF103991031051012501001001KA1240N+02201MA1999999101861MD1999999+0021REMSYN082AAXX  30124 83096 22694 32211 10269 20211 30186 40193 83500 333 20220 58002 60014;
0167830960999992000093018004-10910-037050FM-12+000699999V0202201N005112200019N0010001N1+02671+02091101591ADDAA199000091GF102991021051012501001001MA1999999101521MD1999999-0021REMSYN070AAXX  30184 83096 32694 22210 10267 20209 30152 40159 82500 333 59002;EQDQ01  00002PRCP99
0186830960999992000100100004-10910-037050FM-12+000699999V0202301N005112200019N0010001N1+02531+02001101851ADDAA199000091GF103991031051012501001001KA1240M+02821MA1999999101781MD1999999+0001REMSYN076AAXX  01004 83096 32694 32310 10253 20200 30178 40185 83500 333 10282 58000;EQDQ01  00002PRCP99
0186830960999992000100112004-10910-037050FM-12+000699999V0202701N003112200019N0010001N1+02691+02161101821ADDAA199000091GF102991021031012501001001KA1240N+02311MA1999999101751MD1999999-0111REMSYN076AAXX  01124 83096 32694 22706 10269 20216 30175 40182 82300 333 20231 59011;EQDQ01  00002PRCP99
0167830960999992000100118004-10910-037050FM-12+000699999V0202701N003112200019N0010001N1+02691+02181101551ADDAA199000091GF101991011031012501001001MA1999999101481MD1999999-0041REMSYN070AAXX  01184 83096 32694 12706 10269 20218 30148 40155 81300 333 59004;EQDQ01  00002PRCP99
0186830960999992000100212004-10910-037050FM-12+000699999V0202701N003612200019N0010001N1+02651+02071101741ADDAA199000091GF102991021031012501001001KA1240N+02351MA1999999101671MD1999999-0081REMSYN076AAXX  02124 83096 32694 22707 10265 20207 30167 40174 82300 333 20235 59008;EQDQ01  00002PRCP99
0167830960999992000100218004-10910-037050FM-12+000699999V0202701N003112200019N0010001N1+02711+02081101581ADDAA199000091GF102991021031012501001001MA1999999101511MD1999999+0031REMSYN070AAXX  02184 83096 32694 22706 10271 20208 30151 40158 82300 333 58003;EQDQ01  00002PRCP99
0186830960999992000100300004-10910-037050FM-12+000699999V0202701N002612200019N0010001N1+02551+02111101591ADDAA199000091GF102991021031012501001001KA1240M+02831MA1999999101521MD1999999-0021REMSYN076AAXX  03004 83096 32694 22705 10255 20211 30152 40159 82300 333 10283 59002;EQDQ01  00002PRCP99
0173830960999992000100312004-10910-037050FM-12+000699999V0202201N004610450019N0010001N1+02691+02201101651ADDAA124002091GF105991031051012501031001KA1240N+02291MA1999999101581MD1999999-0091REMSYN082AAXX  03124 83096 22694 52209 10269 20220 30158 40165 83530 333 20229 59009 60024;
0167830960999992000100318004-10910-037050FM-12+000699999V0200901N005112200019N0010001N1+02731+02191101401ADDAA199000091GF101991011051012501001001MA1999999101331MD1999999-0181REMSYN070AAXX  03184 83096 32694 10910 10273 20219 30133 40140 81500 333 59018;EQDQ01  00002PRCP99
0186830960999992000100400004-10910-037050FM-12+000699999V0202201N005112200019N0010001N1+02511+02171101611ADDAA199000091GF101991011011012501001001KA1240M+02841MA1999999101541MD1999999+0021REMSYN076AAXX  04004 83096 32694 12210 10251 20217 30154 40161 81100 333 10284 58002;EQDQ01  00002PRCP99
0173830960999992000100412004-10910-037050FM-12+000699999V0202701N001512200019N0010001N1+02661+02201101601ADDAA124000191GF102991021031012501001001KA1240N+01971MA1999999101531MD1999999-0051REMSYN082AAXX  04124 83096 22694 22703 10266 20220 30153 40160 82300 333 20197 59005 69924;
0167830960999992000100418004-10910-037050FM-12+000699999V0202701N003612200019N0010001N1+02751+02211101291ADDAA199000091GF101991011031012501001001MA1999999101221MD1999999-0111REMSYN070AAXX  04184 83096 32694 12707 10275 20221 30122 40129 81300 333 59011;EQDQ01  00002PRCP99
0186830960999992000100500004-10910-037050FM-12+000699999V0202701N003112200019N0010001N1+02591+02331101291ADDAA199000091GF103991031051012501001001KA1240M+02851MA1999999101221MD1999999-0321REMSYN076AAXX  05004 83096 32694 32706 10259 20233 30122 40129 83500 333 10285 59032;EQDQ01  00002PRCP99
0167830960999992000100518004-10910-037050FM-12+000699999V0202301N005112200019N0010001N1+02761+02321101151ADDAA199000091GF101991011011012501001001MA1999999101081MD1999999-0141REMSYN070AAXX  05184 83096 32694 12310 10276 20232 30108 40115 81100 333 59014;EQDQ01  00002PRCP99
0186830960999992000100600004-10910-037050FM-12+000699999V0201801N005112200019N0010001N1+02621+02251101321ADDAA199000091GF103991031051012501001001KA1240M+02891MA1999999101251MD1999999+0031REMSYN076AAXX  06004 83096 32694 31810 10262 20225 30125 40132 83500 333 10289 58003;EQDQ01  00002PRCP99
0186830960999992000100612004-10910-037050FM-12+000699999V0201801N003612200019N0010001N1+02711+02031101441ADDAA199000091GF102991021051012501001001KA1240N+02211MA1999999101371MD1999999-0041REMSYN076AAXX  06124 83096 32694 21807 10271 20203 30137 40144 82500 333 20221 59004;EQDQ01  00002PRCP99
0167830960999992000100618004-10910-037050FM-12+000699999V0202201N005112200019N0010001N1+02771+02191101191ADDAA199000091GF101991011031012501001001MA1999999101121MD1999999+0041REMSYN070AAXX  06184 83096 32694 12210 10277 20219 30112 40119 81300 333 58004;EQDQ01  00002PRCP99
0186830960999992000100700004-10910-037050FM-12+000699999V0202201N003112200019N0010001N1+02591+02191101301ADDAA199000091GF101991011051012501001001KA1240M+02891MA1999999101231MD1999999-0021REMSYN076AAXX  07004 83096 32694 12206 10259 20219 30123 40130 81500 333 10289 59002;EQDQ01  00002PRCP99
0186830960999992000100712004-10910-037050FM-12+000699999V0200501N002612200019N0010001N1+02701+02241101631ADDAA199000091GF102991021031012501001001KA1240N+02211MA1999999101561MD1999999+0191REMSYN076AAXX  07124 83096 32694 20505 10270 20224 30156 40163 82300 333 20221 58019;EQDQ01  00002PRCP99
0167830960999992000100718004-10910-037050FM-12+000699999V0200901N003612200019N0010001N1+02771+02081101411ADDAA199000091GF101991011031012501001001MA1999999101341MD1999999+0221REMSYN070AAXX  07184 83096 32694 10907 10277 20208 30134 40141 81300 333 58022;EQDQ01  00002PRCP99
0186830960999992000100800004-10910-037050FM-12+000699999V0200901N003612200019N0010001N1+02631+02481101491ADDAA199000091GF104991041051012501001001KA1240M+02891MA1999999101421MD1999999+0191REMSYN076AAXX  08004 83096 32694 40907 10263 20248 30142 40149 84500 333 10289 58019;EQDQ01  00002PRCP99
0186830960999992000100812004-10910-037050FM-12+000699999V0200901N004112200019N0010001N1+02731+02101101691ADDAA199000091GF102991021051012501001001KA1240N+02371MA1999999101621MD1999999+0061REMSYN076AAXX  08124 83096 32694 20908 10273 20210 30162 40169 82500 333 20237 58006;EQDQ01  00002PRCP99
0186830960999992000100900004-10910-037050FM-12+000699999V0200901N003612200019N0010001N1+02571+02111101611ADDAA199000091GF102991021051012501001001KA1240M+02871MA1999999101541MD1999999+0121REMSYN076AAXX  09004 83096 32694 20907 10257 20211 30154 40161 82500 333 10287 58012;EQDQ01  00002PRCP99
0186830960999992000100912004-10910-037050FM-12+000699999V0200901N003112200019N0010001N1+02781+02111101901ADDAA199000091GF101991011011012501001001KA1240N+02361MA1999999101831MD1999999+0211REMSYN076AAXX  09124 83096 32694 10906 10278 20211 30183 40190 81100 333 20236 58021;EQDQ01  00002PRCP99
0167830960999992000100918004-10910-037050FM-12+000699999V0201401N003112200019N0010001N1+02731+02081101671ADDAA199000091GF101991011011012501001001MA1999999101601MD1999999+0201REMSYN070AAXX  09184 83096 32694 11406 10273 20208 30160 40167 81100 333 58020;EQDQ01  00002PRCP99
0202830960999992000101000004-10910-037050FM-12+000699999V0201401N048822200019N0010001N1+02571+02061101831ADDAA199000091GF103991031051012501001001KA1240M+02891MA1999999101761MD1999999+0221REMSYN076AAXX  10004 83096 32694 31495 10257 20206 30176 40183 83500 333 10289 58022;EQDQ01+004883WOSPD Q02  00002PRCP99
0186830960999992000101012004-10910-037050FM-12+000699999V0201401N002112200019N0010001N1+02651+01931101731ADDAA199000091GF101991011031012501001001KA1240N+02351MA1999999101661MD1999999-0171REMSYN076AAXX  10124 83096 32694 11404 10265 20193 30166 40173 81300 333 20235 59017;EQDQ01  00002PRCP99
0167830960999992000101018004-10910-037050FM-12+000699999V0201401N003612200019N0010001N1+02731+02031101471ADDAA199000091GF102991021031012501001001MA1999999101401MD1999999-0201REMSYN070AAXX  10184 83096 32694 21407 10273 20203 30140 40147 82300 333 59020;EQDQ01  00002PRCP99
0173830960999992000101100004-10910-037050FM-12+000699999V0201401N002612200019N0010001N1+02591+02011101591ADDAA106000191GF102991021031012501001001KA1240M+02851MA1999999101521MD1999999-0241REMSYN082AAXX  11004 83096 22694 21405 10259 20201 30152 40159 82300 333 10285 59024 69921;
0186830960999992000101112004-10910-037050FM-12+000699999V0201801N003112200019N0010001N1+02731+02281101801ADDAA199000091GF102991021051012501001001KA1240N+02411MA1999999101731MD1999999+0071REMSYN076AAXX  11124 83096 32694 21806 10273 20228 30173 40180 82500 333 20241 58007;EQDQ01  00002PRCP99
0167830960999992000101118004-10910-037050FM-12+000699999V0201801N003110120019N0010001N1+02601+02101101511ADDAA199000091GF107991071051012501001001MA1999999101441MD1999999+0041REMSYN070AAXX  11184 83096 32694 71806 10260 20210 30144 40151 87500 333 58004;EQDQ01  00002PRCP99
0186830960999992000101200004-10910-037050FM-12+000699999V0200901N003110120019N0010001N1+02591+02121101691ADDAA199000091GF107991071051012501001001KA1240M+02851MA1999999101621MD1999999+0101REMSYN076AAXX  12004 83096 32694 70906 10259 20212 30162 40169 87500 333 10285 58010;EQDQ01  00002PRCP99
0173830960999992000101212004-10910-037050FM-12+000699999V0200901N003112200019N0010001N1+02711+02281101711ADDAA124000591GF103991031031012501001001KA1240N+02351MA1999999101641MD1999999-0091REMSYN082AAXX  12124 83096 22694 30906 10271 20228 30164 40171 83300 333 20235 59009 69944;
0167830960999992000101218004-10910-037050FM-12+000699999V0200901N003112200019N0010001N1+02771+02251101591ADDAA199000091GF101991011021012501001001MA1999999101521MD1999999+0081REMSYN070AAXX  12184 83096 32694 10906 10277 20225 30152 40159 81200 333 58008;EQDQ01  00002PRCP99
0186830960999992000101312004-10910-037050FM-12+000699999V0200901N004612200019N0010001N1+02751+02191101941ADDAA199000091GF101991011051012501001001KA1240N+02371MA1999999101871MD1999999+0231REMSYN076AAXX  13124 83096 32694 10909 10275 20219 30187 40194 81500 333 20237 58023;EQDQ01  00002PRCP99
0167830960999992000101318004-10910-037050FM-12+000699999V0201401N002112200019N0010001N1+02741+02171101661ADDAA199000091GF102991011051012501031001MA1999999101591MD1999999+0071REMSYN070AAXX  13184 83096 32694 21404 10274 20217 30159 40166 81530 333 58007;EQDQ01  00002PRCP99
0186830960999992000101400004-10910-037050FM-12+000699999V0200901N002112200019N0010001N1+02551+02111101801ADDAA199000091GF101991011011012501001001KA1240M+02871MA1999999101731MD1999999+0131REMSYN076AAXX  14004 83096 32694 10904 10255 20211 30173 40180 81100 333 10287 58013;EQDQ01  00002PRCP99
0173830960999992000101412004-10910-037050FM-12+000699999V0200901N005112200019N0010001N1+02631+02291101811ADDAA124002091GF103991031051012501001001KA1240N+02151MA1999999101741MD1999999-0071REMSYN082AAXX  14124 83096 22694 30910 10263 20229 30174 40181 83500 333 20215 59007 60024;
0167830960999992000101418004-10910-037050FM-12+000699999V0200901N002112200019N0010001N1+02751+02211101631ADDAA199000091GF102991021031012501001001MA1999999101561MD1999999-0021REMSYN070AAXX  14184 83096 32694 20904 10275 20221 30156 40163 82300 333 59002;EQDQ01  00002PRCP99
0186830960999992000101500004-10910-037050FM-12+000699999V0200901N003112200019N0010001N1+02551+01981101721ADDAA199000091GF101991011011012501001001KA1240M+02801MA1999999101651MD1999999-0081REMSYN076AAXX  15004 83096 32694 10906 10255 20198 30165 40172 81100 333 10280 59008;EQDQ01  00002PRCP99
0186830960999992000101512004-10910-037050FM-12+000699999V0201401N002612200019N0010001N1+02761+02041101831ADDAA199000091GF104991031021012501001011KA1240N+02341MA1999999101761MD1999999+0021REMSYN076AAXX  15124 83096 32694 41405 10276 20204 30176 40183 83201 333 20234 58002;EQDQ01  00002PRCP99
0167830960999992000101518004-10910-037050FM-12+000699999V0201801N003612200019N0010001N1+02731+02031101481ADDAA199000091GF101991011051012501001001MA1999999101411MD1999999-0151REMSYN070AAXX  15184 83096 32694 11807 10273 20203 30141 40148 81500 333 59015;EQDQ01  00002PRCP99
0186830960999992000101600004-10910-037050FM-12+000699999V0201401N002612200019N0010001N1+02551+02151101681ADDAA199000091GF101991011051012501001001KA1240M+02891MA1999999101611MD1999999-0041REMSYN076AAXX  16004 83096 32694 11405 10255 20215 30161 40168 81500 333 10289 59004;EQDQ01  00002PRCP99
0158830960999992000101612004-10910-037050FM-12+000699999V0201401N003112200019N0010001N1+02711+02111101711ADDAA199000091GF104991021051012501031001MA1999999101641REMSYN075AAXX  16124 83096 32694 41406 10271 20211 30164 40171 82530 333 0239 59012;EQDQ01  00002PRCP99
0167830960999992000101618004-10910-037050FM-12+000699999V0201401N002112200019N0010001N1+02791+02111101631ADDAA199000091GF102991021031012501001001MA1999999101561MD1999999+0151REMSYN070AAXX  16184 83096 32694 21404 10279 20211 30156 40163 82300 333 58015;EQDQ01  00002PRCP99
0186830960999992000101700004-10910-037050FM-12+000699999V0201401N002612200019N0010001N1+02591+02081101691ADDAA199000091GF102991021051012501001001KA1240M+02911MA1999999101621MD1999999+0011REMSYN076AAXX  17004 83096 32694 21405 10259 20208 30162 40169 82500 333 10291 58001;EQDQ01  00002PRCP99
0186830960999992000101712004-10910-037050FM-12+000699999V0201401N003112200019N0010001N1+02751+02121101871ADDAA199000091GF101991011051012501001001KA1240N+02271MA1999999101801MD1999999+0161REMSYN076AAXX  17124 83096 32694 11406 10275 20212 30180 40187 81500 333 20227 58016;EQDQ01  00002PRCP99
0167830960999992000101718004-10910-037050FM-12+000699999V0201401N003112200019N0010001N1+02731+02261101701ADDAA199000091GF101991011011012501001001MA1999999101631MD1999999+0071REMSYN070AAXX  17184 83096 32694 11406 10273 20226 30163 40170 81100 333 58007;EQDQ01  00002PRCP99
0186830960999992000101800004-10910-037050FM-12+000699999V0200901N004110120019N0010001N1+02571+02081101781ADDAA199000091GF105991051051012501001001KA1240M+02791MA1999999101711MD1999999+0091REMSYN076AAXX  18004 83096 32694 50908 10257 20208 30171 40178 85500 333 10279 58009;EQDQ01  00002PRCP99
0186830960999992000101812004-10910-037050FM-12+000699999V0200901N002112200019N0010001N1+02711+02131101901ADDAA199000091GF104991021051012501031001KA1240N+02331MA1999999101831MD1999999+0031REMSYN076AAXX  18124 83096 32694 40904 10271 20213 30183 40190 82530 333 20233 58003;EQDQ01  00002PRCP99
0167830960999992000101818004-10910-037050FM-12+000699999V0201401N004112200019N0010001N1+02731+02151101741ADDAA199000091GF101991011011012501001001MA1999999101671MD1999999+0041REMSYN070AAXX  18184 83096 32694 11408 10273 20215 30167 40174 81100 333 58004;EQDQ01  00002PRCP99
0186830960999992000101900004-10910-037050FM-12+000699999V0200901N002112200019N0010001N1+02551+01931101691ADDAA199000091GF102991021051012501001001KA1240M+02911MA1999999101621MD1999999-0091REMSYN076AAXX  19004 83096 32694 20904 10255 20193 30162 40169 82500 333 10291 59009;EQDQ01  00002PRCP99
0186830960999992000101912004-10910-037050FM-12+000699999V0200901N003112200019N0010001N1+02751+02171101831ADDAA199000091GF102991021051012501001001KA1240N+02121MA1999999101761MD1999999-0071REMSYN076AAXX  19124 83096 32694 20906 10275 20217 30176 40183 82500 333 20212 59007;EQDQ01  00002PRCP99
0167830960999992000101918004-10910-037050FM-12+000699999V0201401N004612200019N0010001N1+02731+02001101481ADDAA199000091GF101991011011012501001001MA1999999101411MD1999999-0261REMSYN070AAXX  19184 83096 32694 11409 10273 20200 30141 40148 81100 333 59026;EQDQ01  00002PRCP99
0186830960999992000102000004-10910-037050FM-12+000699999V0201401N003612200019N0010001N1+02511+01981101701ADDAA199000091GF101991011011012501001001KA1240M+02891MA1999999101631MD1999999+0011REMSYN076AAXX  20004 83096 32694 11407 10251 20198 30163 40170 81100 333 10289 58001;EQDQ01  00002PRCP99
0173830960999992000102012004-10910-037050FM-12+000699999V0200901N004110120019N0010001N1+02411+02151101601ADDAA124002091GF106991061051012501001001KA1240N+02121MA1999999101531MD1999999-0231REMSYN082AAXX  20124 83096 22694 60908 10241 20215 30153 40160 86500 333 20212 59023 60024;
0167830960999992000102018004-10910-037050FM-12+000699999V0200901N002612200019N0010001N1+02751+01891101351ADDAA199000091GF101991011011012501001001MA1999999101281MD1999999-0131REMSYN070AAXX  20184 83096 32694 10905 10275 20189 30128 40135 81100 333 59013;EQDQ01  00002PRCP99
0186830960999992000102100004-10910-037050FM-12+000699999V0200901N003112200019N0010001N1+02551+02111101431ADDAA199000091GF102991021051012501001001KA1240M+02811MA1999999101361MD1999999-0271REMSYN076AAXX  21004 83096 32694 20906 10255 20211 30136 40143 82500 333 10281 59027;EQDQ01  00002PRCP99
0186830960999992000102112004-10910-037050FM-12+000699999V0200901N002112200019N0010001N1+02731+02111101431ADDAA199000091GF102991021031012501001001KA1240N+02131MA1999999101361MD1999999-0171REMSYN076AAXX  21124 83096 32694 20904 10273 20211 30136 40143 82300 333 20213 59017;EQDQ01  00002PRCP99
0167830960999992000102118004-10910-037050FM-12+000699999V0200901N003112200019N0010001N1+02771+02121101191ADDAA199000091GF101991011021012501001001MA1999999101121MD1999999-0161REMSYN070AAXX  21184 83096 32694 10906 10277 20212 30112 40119 81200 333 59016;EQDQ01  00002PRCP99
0186830960999992000102200004-10910-037050FM-12+000699999V0200901N004112200019N0010001N1+02591+02171101271ADDAA199000091GF101991011031012501001001KA1240M+02801MA1999999101201MD1999999-0161REMSYN076AAXX  22004 83096 32694 10908 10259 20217 30120 40127 81300 333 10280 59016;EQDQ01  00002PRCP99
0186830960999992000102212004-10910-037050FM-12+000699999V0200501N003112200019N0010001N1+02791+02161101401ADDAA199000091GF102991021031012501001001KA1240N+02311MA1999999101331MD1999999-0031REMSYN076AAXX  22124 83096 32694 20506 10279 20216 30133 40140 82300 333 20231 59003;EQDQ01  00002PRCP99
0167830960999992000102218004-10910-037050FM-12+000699999V0200901N004112200019N0004001N1+02771+02251101191ADDAA199000091GF102991021031012501001001MA1999999101121MD1999999+0001REMSYN070AAXX  22184 83096 32604 20908 10277 20225 30112 40119 82300 333 58000;EQDQ01  00002PRCP99
0186830960999992000102300004-10910-037050FM-12+000699999V0200901N003612200019N0010001N1+02611+02191101311ADDAA199000091GF102991021031012501001001KA1240M+02891MA1999999101241MD1999999+0041REMSYN076AAXX  23004 83096 32694 20907 10261 20219 30124 40131 82300 333 10289 58004;EQDQ01  00002PRCP99
0186830960999992000102312004-10910-037050FM-12+000699999V0200501N004110450019N0010001N1+02811+02221101581ADDAA199000091GF106991031051012501031011KA1240N+02271MA1999999101511MD1999999+0181REMSYN076AAXX  23124 83096 32694 60508 10281 20222 30151 40158 83531 333 20227 58018;EQDQ01  00002PRCP99
0167830960999992000102318004-10910-037050FM-12+000699999V0201401N005110120019N0010001N1+02731+02321101311ADDAA199000091GF107991071051012501001001MA1999999101241MD1999999+0121REMSYN070AAXX  23184 83096 32694 71410 10273 20232 30124 40131 87500 333 58012;EQDQ01  00002PRCP99
0186830960999992000102400004-10910-037050FM-12+000699999V0200501N005112200019N0010001N1+02611+02231101441ADDAA199000091GF102991021051012501001001KA1240M+02901MA1999999101371MD1999999+0131REMSYN076AAXX  24004 83096 32694 20510 10261 20223 30137 40144 82500 333 10290 58013;EQDQ01  00002PRCP99
0186830960999992000102412004-10910-037050FM-12+000699999V0200901N003612200019N0010001N1+02791+02161101531ADDAA199000091GF102991021031012501001001KA1240N+02411MA1999999101461MD1999999-0051REMSYN076AAXX  24124 83096 32694 20907 10279 20216 30146 40153 82300 333 20241 59005;EQDQ01  00002PRCP99
0167830960999992000102418004-10910-037050FM-12+000699999V0200701N003610450019N0010001N1+02691+02091101301ADDAA199000091GF105991031051012501031001MA1999999101241MD1999999+0001REMSYN070AAXX  24184 83096 32694 50707 10269 20209 30124 40130 83530 333 58000;EQDQ01  00002PRCP99
0186830960999992000102500004-10910-037050FM-12+000699999V0200901N002112200019N0010001N1+02571+02191101371ADDAA199000091GF102991021051012501001001KA1240M+02851MA1999999101301MD1999999-0071REMSYN076AAXX  25004 83096 32694 20904 10257 20219 30130 40137 82500 333 10285 59007;EQDQ01  00002PRCP99
0186830960999992000102512004-10910-037050FM-12+000699999V0200901N004612200019N0010001N1+02751+02281101531ADDAA199000091GF101991011051012501001001KA1240N+02391MA1999999101461MD1999999+0001REMSYN076AAXX  25124 83096 32694 10909 10275 20228 30146 40153 81500 333 20239 58000;EQDQ01  00002PRCP99
0167830960999992000102518004-10910-037050FM-12+000699999V0200901N004612200019N0010001N1+02761+02321101291ADDAA199000091GF102991011051012501031001MA1999999101221MD1999999-0021REMSYN070AAXX  25184 83096 32694 20909 10276 20232 30122 40129 81530 333 59002;EQDQ01  00002PRCP99
0186830960999992000102600004-10910-037050FM-12+000699999V0200901N005112200019N0010001N1+02571+02191101501ADDAA199000091GF101991011011012501001001KA1240M+02891MA1999999101431MD1999999+0131REMSYN076AAXX  26004 83096 32694 10910 10257 20219 30143 40150 81100 333 10289 58013;EQDQ01  00002PRCP99
0186830960999992000102612004-10910-037050FM-12+000699999V0200901N003612200019N0010001N1+02691+02061101431ADDAA199000091GF101991011021012501001001KA1240N+02291MA1999999101361MD1999999-0101REMSYN076AAXX  26124 83096 32694 10907 10269 20206 30136 40143 81200 333 20229 59010;EQDQ01  00002PRCP99
0167830960999992000102618004-10910-037050FM-12+000699999V0201401N002112200019N0010001N1+02791+02061101371ADDAA199000091GF102991021031012501001001MA1999999101301MD1999999+0081REMSYN070AAXX  26184 83096 32694 21404 10279 20206 30130 40137 82300 333 58008;EQDQ01  00002PRCP99
0186830960999992000102700004-10910-037050FM-12+000699999V0200901N003112200019N0010001N1+02551+02171101411ADDAA199000091GF101991011051012501001001KA1240M+02911MA1999999101341MD1999999-0091REMSYN076AAXX  27004 83096 32694 10906 10255 20217 30134 40141 81500 333 10291 59009;EQDQ01  00002PRCP99
0186830960999992000102712004-10910-037050FM-12+000699999V0200501N003612200019N0010001N1+02771+02141101591ADDAA199000091GF104991021051012501031001KA1240N+02311MA1999999101521MD1999999+0161REMSYN076AAXX  27124 83096 32694 40507 10277 20214 30152 40159 82530 333 20231 58016;EQDQ01  00002PRCP99
0167830960999992000102718004-10910-037050FM-12+000699999V0200901N004110120019N0010001N1+02671+02291101341ADDAA199000091GF107991071051012501001001MA1999999101271MD1999999-0031REMSYN070AAXX  27184 83096 32694 70908 10267 20229 30127 40134 87500 333 59003;EQDQ01  00002PRCP99
0186830960999992000102800004-10910-037050FM-12+000699999V0200901N003112200019N0010001N1+02551+02231101531ADDAA199000091GF102991021051012501001001KA1240M+02891MA1999999101461MD1999999+0121REMSYN076AAXX  28004 83096 32694 20906 10255 20223 30146 40153 82500 333 10289 58012;EQDQ01  00002PRCP99
0186830960999992000102812004-10910-037050FM-12+000699999V0200901N002612200019N0010001N1+02771+02281101571ADDAA199000091GF103991031051012501001001KA1240N+02131MA1999999101501MD1999999-0021REMSYN076AAXX  28124 83096 32694 30905 10277 20228 30150 40157 83500 333 20213 59002;EQDQ01  00002PRCP99
0167830960999992000102818004-10910-037050FM-12+000699999V0200901N005712200019N0010001N1+02751+02301101211ADDAA199000091GF101991011011012501001001MA1999999101141MD1999999-0131REMSYN070AAXX  28184 83096 32694 10911 10275 20230 30114 40121 81100 333 59013;EQDQ01  00002PRCP99
0186830960999992000102900004-10910-037050FM-12+000699999V0200501N003612200019N0010001N1+02591+02311101401ADDAA199000091GF101991011011012501001001KA1240M+02921MA1999999101331MD1999999-0131REMSYN076AAXX  29004 83096 32694 10507 10259 20231 30133 40140 81100 333 10292 59013;EQDQ01  00002PRCP99
0186830960999992000102912004-10910-037050FM-12+000699999V0200501N003612200019N0010001N1+02821+02331101491ADDAA199000091GF102991011051012501031001KA1240N+02271MA1999999101421MD1999999-0081REMSYN076AAXX  29124 83096 32694 20507 10282 20233 30142 40149 81530 333 20227 59008;EQDQ01  00002PRCP99
0167830960999992000102918004-10910-037050FM-12+000699999V0200901N005112200019N0010001N1+02751+02381101171ADDAA199000091GF101991011011012501001001MA1999999101101MD1999999-0041REMSYN070AAXX  29184 83096 32694 10910 10275 20238 30110 40117 81100 333 59004;EQDQ01  00002PRCP99
0186830960999992000103000004-10910-037050FM-12+000699999V0200501N003112200019N0010001N1+02561+02291101391ADDAA199000091GF101991011011012501001001KA1240M+02941MA1999999101321MD1999999-0011REMSYN076AAXX  30004 83096 32694 10506 10256 20229 30132 40139 81100 333 10294 59001;EQDQ01  00002PRCP99
0186830960999992000103012004-10910-037050FM-12+000699999V0200901N002612200019N0010001N1+02771+02281101491ADDAA199000091GF102991021031012501001001KA1240N+02271MA1999999101421MD1999999+0001REMSYN076AAXX  30124 83096 32694 20905 10277 20228 30142 40149 82300 333 20227 58000;EQDQ01  00002PRCP99
0167830960999992000103018004-10910-037050FM-12+000699999V0200901N003612200019N0010001N1+02781+02341101371ADDAA199000091GF101991011011012501001001MA1999999101301MD1999999+0201REMSYN070AAXX  30184 83096 32694 10907 10278 20234 30130 40137 81100 333 58020;EQDQ01  00002PRCP99
0186830960999992000103100004-10910-037050FM-12+000699999V0200901N003112200019N0010001N1+02551+02251101391ADDAA199000091GF101991011011012501001001KA1240M+02911MA1999999101321MD1999999+0001REMSYN076AAXX  31004 83096 32694 10906 10255 20225 30132 40139 81100 333 10291 58000;EQDQ01  00002PRCP99
0186830960999992000103112004-10910-037050FM-12+000699999V0200901N003112200019N0010001N1+02791+02251101521ADDAA199000091GF101991011051012501001001KA1240N+02301MA1999999101451MD1999999+0031REMSYN076AAXX  31124 83096 32694 10906 10279 20225 30145 40152 81500 333 20230 58003;EQDQ01  00002PRCP99
0167830960999992000103118004-10910-037050FM-12+000699999V0200901N002610120019N0010001N1+02651+02141101271ADDAA199000091GF107991071051012501001001MA1999999101201MD1999999-0101REMSYN070AAXX  31184 83096 32694 70905 10265 20214 30120 40127 87500 333 59010;EQDQ01  00002PRCP99
0186830960999992000110100004-10910-037050FM-12+000699999V0200901N002612200019N0010001N1+02551+02131101371ADDAA199000091GF101991011011012501001001KA1240M+02911MA1999999101301MD1999999-0021REMSYN076AAXX  01004 83096 32694 10905 10255 20213 30130 40137 81100 333 10291 59002;EQDQ01  00002PRCP99
0186830960999992000110112004-10910-037050FM-12+000699999V0201401N002610450019N0010001N1+02731+02151101411ADDAA199000091GF105991031051012501031001KA1240N+02291MA1999999101341MD1999999-0111REMSYN076AAXX  01124 83096 32694 51405 10273 20215 30134 40141 83530 333 20229 59011;EQDQ01  00002PRCP99
0167830960999992000110118004-10910-037050FM-12+000699999V0200901N003612200019N0010001N1+02751+02301101181ADDAA199000091GF102991021031012501001001MA1999999101111MD1999999-0091REMSYN070AAXX  01184 83096 32694 20907 10275 20230 30111 40118 82300 333 59009;EQDQ01  00002PRCP99
0186830960999992000110200004-10910-037050FM-12+000699999V0200901N003612200019N0010001N1+02531+02271101231ADDAA199000091GF102991021051012501001001KA1240M+02931MA1999999101161MD1999999-0141REMSYN076AAXX  02004 83096 32694 20907 10253 20227 30116 40123 82500 333 10293 59014;EQDQ01  00002PRCP99
0201830960999992000110212004-10910-037050FM-12+000699999V0200901N002610075019N0005001N1+02551+02381101401ADDAA124000891AY161061AY261061GF108991081051008001999999KA1240N+02181MA1999999101331MD1999999-0011MW1601REMSYN088AAXX  02124 83096 21593 80905 10255 20238 30133 40140 76066 885// 333 20218 59001 69974;
0148830960999992000110218004-10910-037050FM-12+000699999V0200901N004610120019N0010001N1+02711+02331101021ADDAA199000021GF107991071051012501001001MA1999999100951MD1999999-0161REMSYN070AAXX  02184 83096 32694 70909 10271 20233 30095 40102 87500 333 59016;
0167830960999992000110300004-10910-037050FM-12+000699999V0200901N004112200019N0010001N1+02571+02291101101ADDAA199000021GF102991021051012501001001KA1240M+02851MA1999999101031MD1999999-0131REMSYN076AAXX  03004 83096 32694 20908 10257 20229 30103 40110 82500 333 10285 59013;
0186830960999992000110312004-10910-037050FM-12+000699999V0200901N002610450019N0010001N1+02731+02341101111ADDAA199000091GF105991031051012501031001KA1240N+02311MA1999999101041MD1999999-0291REMSYN076AAXX  03124 83096 32694 50905 10273 20234 30104 40111 83530 333 20231 59029;EQDQ01  00002PRCP99
0167830960999992000110318004-10910-037050FM-12+000699999V0200901N004112200019N0010001N1+02791+02321100821ADDAA199000091GF102991021011012501001001MA1999999100751MD1999999-0201REMSYN070AAXX  03184 83096 32694 20908 10279 20232 30075 40082 82100 333 59020;EQDQ01  00002PRCP99
0186830960999992000110400004-10910-037050FM-12+000699999V0200901N002112200019N0010001N1+02591+02311100971ADDAA199000091GF102991021051012501001001KA1240M+02931MA1999999100841MD1999999-0191REMSYN076AAXX  04004 83096 32694 20904 10259 20231 30084 40097 82500 333 10293 59019;EQDQ01  00002PRCP99
0186830960999992000110412004-10910-037050FM-12+000699999V0200901N003112200019N0010001N1+02671+02181101051ADDAA199000091GF104991021051012501021001KA1240N+02271MA1999999100981MD1999999-0061REMSYN076AAXX  04124 83096 32694 40906 10267 20218 30098 40105 82520 333 20227 59006;EQDQ01  00002PRCP99
0167830960999992000110418004-10910-037050FM-12+000699999V0200901N004112200019N0010001N1+02771+02341100791ADDAA199000091GF101991011031012501001001MA1999999100721MD1999999-0031REMSYN070AAXX  04184 83096 32694 10908 10277 20234 30072 40079 81300 333 59003;EQDQ01  00002PRCP99
0186830960999992000110500004-10910-037050FM-12+000699999V0200901N002612200019N0010001N1+02611+02331100791ADDAA199000091GF102991021031012501001001KA1240M+02941MA1999999100721MD1999999-0121REMSYN076AAXX  05004 83096 32694 20905 10261 20233 30072 40079 82300 333 10294 59012;EQDQ01  00002PRCP99
0186830960999992000110512004-10910-037050FM-12+000699999V0200901N002612200019N0010001N1+02791+02041101031ADDAA199000091GF104991021051012501031001KA1240N+02231MA1999999100961MD1999999-0021REMSYN076AAXX  05124 83096 32694 40905 10279 20204 30096 40103 82530 333 20223 59002;EQDQ01  00002PRCP99
0167830960999992000110518004-10910-037050FM-12+000699999V0200901N003610450019N0010001N1+02731+02241100871ADDAA199000091GF105991031051012501031001MA1999999100801MD1999999+0081REMSYN070AAXX  05184 83096 32694 50907 10273 20224 30080 40087 83530 333 58008;EQDQ01  00002PRCP99
0186830960999992000110600004-10910-037050FM-12+000699999V0200501N002112200019N0010001N1+02611+02291101071ADDAA199000091GF104991041051012501001001KA1240M+02811MA1999999101001MD1999999+0281REMSYN076AAXX  06004 83096 32694 40504 10261 20229 30100 40107 84500 333 10281 58028;EQDQ01  00002PRCP99
0186830960999992000110612004-10910-037050FM-12+000699999V0200501N005112200019N0010001N1+02811+02271101111ADDAA199000091GF101991011051012501001001KA1240N+02331MA1999999101041MD1999999+0081REMSYN076AAXX  06124 83096 32694 10510 10281 20227 30104 40111 81500 333 20233 58008;EQDQ01  00002PRCP99
0167830960999992000110618004-10910-037050FM-12+000699999V0200501N006212200019N0010001N1+02751+02261100861ADDAA199000091GF101991011051012501001001MA1999999100791MD1999999-0011REMSYN070AAXX  06184 83096 32694 10512 10275 20226 30079 40086 81500 333 59001;EQDQ01  00002PRCP99
0186830960999992000110700004-10910-037050FM-12+000699999V0200501N003110450019N0010001N1+02591+02251100971ADDAA199000091GF105991021051012501031001KA1240M+02931MA1999999100901MD1999999-0101REMSYN076AAXX  07004 83096 32694 50506 10259 20225 30090 40097 82530 333 10293 59010;EQDQ01  00002PRCP99
0186830960999992000110712004-10910-037050FM-12+000699999V0200501N004112200019N0010001N1+02741+02171100951ADDAA199000091GF103991031031012501001001KA1240N+02251MA1999999100881MD1999999-0161REMSYN076AAXX  07124 83096 32694 30508 10274 20217 30088 40095 83300 333 20225 59016;EQDQ01  00002PRCP99
0167830960999992000110718004-10910-037050FM-12+000699999V0200901N004112200019N0010001N1+02811+02251100721ADDAA199000091GF102991021011012501001001MA1999999100651MD1999999-0141REMSYN070AAXX  07184 83096 32694 20908 10281 20225 30065 40072 82100 333 59014;EQDQ01  00002PRCP99
0186830960999992000110800004-10910-037050FM-12+000699999V0200501N005112200019N0010001N1+02591+02331100721ADDAA199000091GF102991021051012501001001KA1240M+02911MA1999999100651MD1999999-0251REMSYN076AAXX  08004 83096 32694 20510 10259 20233 30065 40072 82500 333 10291 59025;EQDQ01  00002PRCP99
0201830960999992000110812004-10910-037050FM-12+000699999V0200901N002110075019N0005001N1+02271+02181101011ADDAA124007191AY161061AY261061GF108991081051008001999999KA1240N+02071MA1999999100941MD1999999+0061MW1601REMSYN088AAXX  08124 83096 21593 80904 10227 20218 30094 40101 76066 885// 333 20207 58006 60074;
0182830960999992000110818004-10910-037050FM-12+000699999V0200501N002610075019N0005001N1+02581+02231100561ADDAA106002091AY161061AY261061GF108991081051008001999999MA1999999100491MD1999999-0161MW1601REMSYN082AAXX  08184 83096 21593 80505 10258 20223 30049 40056 76066 885// 333 59016 60021;
0167830960999992000110900004-10910-037050FM-12+000699999V0200501N002110075019N0005001N1+02551+02311100671ADDAA199000021GF108991081051008001999999KA1240M+02671MA1999999100601MD1999999-0051REMSYN076AAXX  09004 83096 32593 80504 10255 20231 30060 40067 885// 333 10267 59005;
0173830960999992000110912004-10910-037050FM-12+000699999V0203601N002110120019N0010001N1+02671+02241100871ADDAA124002091GF105991051051012501001001KA1240N+02251MA1999999100801MD1999999-0141REMSYN082AAXX  09124 83096 22694 53604 10267 20224 30080 40087 85500 333 20225 59014 60024;
0182830960999992000110918004-10910-037050FM-12+000699999V0202701N001510075019N0005001N1+02611+02291100711ADDAA106000191AY161061AY261061GF108991081051008001999999MA1999999100641MD1999999+0211MW1601REMSYN082AAXX  09184 83096 21593 82703 10261 20229 30064 40071 76066 885// 333 58021 69921;
0201830960999992000111000004-10910-037050FM-12+000699999V0200501N001510075019N0005001N1+02531+02311100831ADDAA106006191AY161061AY261061GF108991081051008001999999KA1240M+02851MA1999999100761MD1999999+0161MW1601REMSYN088AAXX  10004 83096 21593 80503 10253 20231 30076 40083 76066 885// 333 10285 58016 60061;
0182830960999992000111018004-10910-037050FM-12+000699999V0200501N002610075019N0005001N1+02481+02361100791ADDAA106021191AY161061AY261061GF108991081051008001999999MA1999999100721MD1999999+0081MW1601REMSYN082AAXX  10184 83096 21593 80505 10248 20236 30072 40079 76066 885// 333 58008 60211;
0173830960999992000111100004-10910-037050FM-12+000699999V0203601N003110075019N0005001N1+02491+02291100921ADDAA106004191GF108991081051008001999999KA1240M+02921MA1999999100851MD1999999+0091REMSYN082AAXX  11004 83096 21593 83606 10249 20229 30085 40092 885// 333 10292 58009 60041;
0173830960999992000111112004-10910-037050FM-12+000699999V0200901N003612200019N0010001N1+02711+02371101071ADDAA124023991GF103991011051012501001011KA1240N+02231MA1999999101001MD1999999+0061REMSYN082AAXX  11124 83096 22694 30907 10271 20237 30100 40107 81501 333 20223 58006 60244;
0167830960999992000111118004-10910-037050FM-12+000699999V0200501N005112200019N0010001N1+02731+02321100731ADDAA199000091GF106991041051012501001011MA1999999100661MD1999999-0061REMSYN070AAXX  11184 83096 32694 60510 10273 20232 30066 40073 84501 333 59006;EQDQ01  00002PRCP99
0186830960999992000111200004-10910-037050FM-12+000699999V0200501N003610120019N0010001N1+02581+02331100981ADDAA199000091GF108991081051012501999999KA1240M+02871MA1999999100911MD1999999+0061REMSYN076AAXX  12004 83096 32694 80507 10258 20233 30091 40098 885// 333 10287 58006;EQDQ01  00002PRCP99
0186830960999992000111212004-10910-037050FM-12+000699999V0201801N002610450019N0010001N1+02711+02251101121ADDAA199000091GF106991021051012501031001KA1240N+02121MA1999999101051MD1999999+0051REMSYN076AAXX  12124 83096 32694 61805 10271 20225 30105 40112 82530 333 20212 58005;EQDQ01  00002PRCP99
0167830960999992000111218004-10910-037050FM-12+000699999V0200501N005110450019N0010001N1+02751+02321100791ADDAA199000091GF106991031051012501031001MA1999999100721MD1999999+0061REMSYN070AAXX  12184 83096 32694 60510 10275 20232 30072 40079 83530 333 58006;EQDQ01  00002PRCP99
0186830960999992000111300004-10910-037050FM-12+000699999V0200501N003612200019N0010001N1+02571+02311101011ADDAA199000091GF102991021051012501001001KA1240M+02951MA1999999100941MD1999999+0031REMSYN076AAXX  13004 83096 32694 20507 10257 20231 30094 40101 82500 333 10295 58003;EQDQ01  00002PRCP99
0186830960999992000111312004-10910-037050FM-12+000699999V0200501N002612200019N0010001N1+02711+02011101041ADDAA199000091GF101991011011012501001001KA1240N+02271MA1999999100971MD1999999-0081REMSYN076AAXX  13124 83096 32694 10505 10271 20201 30097 40104 81100 333 20227 59008;EQDQ01  00002PRCP99
0167830960999992000111318004-10910-037050FM-12+000699999V0200501N005710450019N0010001N1+02691+02201100901ADDAA199000091GF105991021051012501031001MA1999999100831MD1999999+0111REMSYN070AAXX  13184 83096 32694 50511 10269 20220 30083 40090 82530 333 58011;EQDQ01  00002PRCP99
0186830960999992000111400004-10910-037050FM-12+000699999V0200501N004110450019N0010001N1+02591+02211100951ADDAA199000091GF105991031051012501031001KA1240M+02981MA1999999100881MD1999999-0061REMSYN076AAXX  14004 83096 32694 50508 10259 20221 30088 40095 83530 333 10298 59006;EQDQ01  00002PRCP99
0186830960999992000111412004-10910-037050FM-12+000699999V0200501N005112200019N0010001N1+02691+02201101181ADDAA199000091GF101991011011012501001001KA1240N+02191MA1999999101111MD1999999+0141REMSYN076AAXX  14124 83096 32694 10510 10269 20220 30111 40118 81100 333 20219 58014;EQDQ01  00002PRCP99
0167830960999992000111418004-10910-037050FM-12+000699999V0200501N005712200019N0010001N1+02731+02281100831ADDAA199000091GF101991011011012501001001MA1999999100761MD1999999-0071REMSYN070AAXX  14184 83096 32694 10511 10273 20228 30076 40083 81100 333 59007;EQDQ01  00002PRCP99
0186830960999992000111500004-10910-037050FM-12+000699999V0200501N005112200019N0010001N1+02551+02291101031ADDAA199000091GF101991011011012501001001KA1240M+02881MA1999999100961MD1999999+0081REMSYN076AAXX  15004 83096 32694 10510 10255 20229 30096 40103 81100 333 10288 58008;EQDQ01  00002PRCP99
0186830960999992000111512004-10910-037050FM-12+000699999V0200901N003112200019N0010001N1+02811+02181101131ADDAA199000091GF101991011011012501001001KA1240N+02031MA1999999101061MD1999999-0041REMSYN076AAXX  15124 83096 32694 10906 10281 20218 30106 40113 81100 333 20203 59004;EQDQ01  00002PRCP99
0167830960999992000111518004-10910-037050FM-12+000699999V0200901N003612200019N0010001N1+02781+02301101001ADDAA199000091GF101991011011012501001001MA1999999100931MD1999999+0171REMSYN070AAXX  15184 83096 32694 10907 10278 20230 30093 40100 81100 333 58017;EQDQ01  00002PRCP99
0186830960999992000111600004-10910-037050FM-12+000699999V0200501N003612200019N0010001N1+02671+02331101071ADDAA199000091GF101991011011012501001001KA1240M+02911MA1999999101001MD1999999+0041REMSYN076AAXX  16004 83096 32694 10507 10267 20233 30100 40107 81100 333 10291 58004;EQDQ01  00002PRCP99
0186830960999992000111612004-10910-037050FM-12+000699999V0200501N003112200019N0010001N1+02831+02361101511ADDAA199000091GF101991011051012501001001KA1240N+02301MA1999999101441MD1999999+0381REMSYN076AAXX  16124 83096 32694 10506 10283 20236 30144 40151 81500 333 20230 58038;EQDQ01  00002PRCP99
0167830960999992000111618004-10910-037050FM-12+000699999V0201401N003112200019N0010001N1+02831+02311101211ADDAA199000091GF101991011051012501001001MA1999999101141MD1999999+0211REMSYN070AAXX  16184 83096 32694 11406 10283 20231 30114 40121 81500 333 58021;EQDQ01  00002PRCP99
0186830960999992000111700004-10910-037050FM-12+000699999V0200901N003612200019N0010001N1+02581+02231101451ADDAA199000091GF102991021051012501001001KA1240M+02951MA1999999101381MD1999999+0381REMSYN076AAXX  17004 83096 32694 20907 10258 20223 30138 40145 82500 333 10295 58038;EQDQ01  00002PRCP99
0186830960999992000111712004-10910-037050FM-12+000699999V0200901N003112200019N0010001N1+02771+02321101521ADDAA199000091GF102991021051012501001001KA1240N+02361MA1999999101451MD1999999-0011REMSYN076AAXX  17124 83096 32694 20906 10277 20232 30145 40152 82500 333 20236 59001;EQDQ01  00002PRCP99
0167830960999992000111718004-10910-037050FM-12+000699999V0200901N003612200019N0010001N1+02811+02251101321ADDAA199000091GF102991021011012501001001MA1999999101251MD1999999+0111REMSYN070AAXX  17184 83096 32694 20907 10281 20225 30125 40132 82100 333 58011;EQDQ01  00002PRCP99
0173830960999992000111800004-10910-037050FM-12+000699999V0200901N002112200019N0010001N1+02591+02331101541ADDAA106000891GF102991021051012501001001KA1240M+02921MA1999999101471MD1999999+0091REMSYN082AAXX  18004 83096 22694 20904 10259 20233 30147 40154 82500 333 10292 58009 69971;
0173830960999992000111812004-10910-037050FM-12+000699999V0201401N003112200019N0010001N1+02821+02241101461ADDAA124001091GF101991011011012501001001KA1240N+02391MA1999999101391MD1999999-0061REMSYN082AAXX  18124 83096 22694 11406 10282 20224 30139 40146 81100 333 20239 59006 69994;
0167830960999992000111818004-10910-037050FM-12+000699999V0201401N002112200019N0010001N1+02791+02251101431ADDAA199000091GF104991021051012501031001MA1999999101261MD1999999+0111REMSYN070AAXX  18184 83096 32694 41404 10279 20225 30126 40143 82530 333 58011;EQDQ01  00002PRCP99
0186830960999992000111900004-10910-037050FM-12+000699999V0201401N001512200019N0010001N1+02611+02191101311ADDAA199000091GF102991021031012501001001KA1240M+02931MA1999999101241MD1999999-0231REMSYN076AAXX  19004 83096 32694 21403 10261 20219 30124 40131 82300 333 10293 59023;EQDQ01  00002PRCP99
0173830960999992000111912004-10910-037050FM-12+000699999V0200901N003612200019N0010001N1+02691+02331101291ADDAA124000591GF104991041051012501001001KA1240N+02271MA1999999101221MD1999999-0171REMSYN082AAXX  19124 83096 22694 40907 10269 20233 30122 40129 84500 333 20227 59017 69954;
0167830960999992000111918004-10910-037050FM-12+000699999V0200901N003612200019N0010001N1+02811+02251101251ADDAA199000091GF101991011031012501001001MA1999999101181MD1999999-0181REMSYN070AAXX  19184 83096 32694 10907 10281 20225 30118 40125 81300 333 59018;EQDQ01  00002PRCP99
0186830960999992000112000004-10910-037050FM-12+000699999V0200901N003112200019N0010001N1+02591+02191101291ADDAA199000091GF101991011031012501001001KA1240M+02931MA1999999101221MD1999999-0021REMSYN076AAXX  20004 83096 32694 10906 10259 20219 30122 40129 81300 333 10293 59002;EQDQ01  00002PRCP99
0201830960999992000112012004-10910-037050FM-12+000699999V0201401N001010075019N0010001N1+02471+02321101621ADDAA124002091AY161061AY261061GF108991081051008001999999KA1240N+02231MA1999999101551MD1999999+0331MW1601REMSYN088AAXX  20124 83096 21594 81402 10247 20232 30155 40162 76066 885// 333 20223 58033 60024;
0186830960999992000112100004-10910-037050FM-12+000699999V0200901N002612200019N0010001N1+02601+02271101541ADDAA199000021GF104991999051012501001001KA1240M+02891MA1999999101471MD1999999+0251REMSYN076AAXX  21004 83096 32694 40905 10260 20227 30147 40154 85500 333 10289 58025;EQDQ01+000052SCOTLC
0173830960999992000112112004-10910-037050FM-12+000699999V0200901N003612200019N0010001N1+02791+02251101591ADDAA124000591GF102991021031012501001001KA1240N+02231MA1999999101521MD1999999-0031REMSYN082AAXX  21124 83096 22694 20907 10279 20225 30152 40159 82300 333 20223 59003 69954;
0167830960999992000112118004-10910-037050FM-12+000699999V0200901N003112200019N0010001N1+02731+02221101421ADDAA199000091GF104991021031012501011001MA1999999101351MD1999999+0081REMSYN070AAXX  21184 83096 32694 40906 10273 20222 30135 40142 82310 333 58008;EQDQ01  00002PRCP99
0186830960999992000112200004-10910-037050FM-12+000699999V0200901N002112200019N0010001N1+02611+02291101501ADDAA199000091GF104991041051012501001001KA1240M+02951MA1999999101431MD1999999-0041REMSYN076AAXX  22004 83096 32694 40904 10261 20229 30143 40150 84500 333 10295 59004;EQDQ01  00002PRCP99
0173830960999992000112212004-10910-037050FM-12+000699999V0200901N004612200019N0010001N1+02751+02301101791ADDAA124002091GF104991021051012501031001KA1240N+02331MA1999999101721MD1999999+0201REMSYN082AAXX  22124 83096 22694 40909 10275 20230 30172 40179 82530 333 20233 58020 60024;
0167830960999992000112218004-10910-037050FM-12+000699999V0200901N003112200019N0010001N1+02791+02131101531ADDAA199000091GF101991011051012501001001MA1999999101461MD1999999+0031REMSYN070AAXX  22184 83096 32694 10906 10279 20213 30146 40153 81500 333 58003;EQDQ01  00002PRCP99
0186830960999992000112300004-10910-037050FM-12+000699999V0200901N003612200019N0010001N1+02601+02171101681ADDAA199000091GF101991011051012501001001KA1240M+02981MA1999999101611MD1999999+0181REMSYN076AAXX  23004 83096 32694 10907 10260 20217 30161 40168 81500 333 10298 58018;EQDQ01  00002PRCP99
0173830960999992000112400004-10910-037050FM-12+000699999V0200901N002612200019N0010001N1+02591+02211101421ADDAA106003091GF103991031051012501001001KA1240M+02951MA1999999101351MD1999999-0261REMSYN082AAXX  24004 83096 22694 30905 10259 20221 30135 40142 83500 333 10295 59026 60031;
0173830960999992000112412004-10910-037050FM-12+000699999V0200501N002610450019N0010001N1+02391+02261101581ADDAA124021191GF106991041051012501031001KA1240N+02121MA1999999101511MD1999999-0011REMSYN082AAXX  24124 83096 22694 60505 10239 20226 30151 40158 84530 333 20212 59001 60214;
0167830960999992000112718004-10910-037050FM-12+000699999V0200901N005112200019N0010001N1+02871+02281101411ADDAA199000091GF102991021031012501001001MA1999999101341MD1999999+0101REMSYN070AAXX  27184 83096 32694 20910 10287 20228 30134 40141 82300 333 58010;EQDQ01  00002PRCP99
0186830960999992000112800004-10910-037050FM-12+000699999V0200901N005112200019N0010001N1+02671+02291101551ADDAA199000091GF102991021051012501001001KA1240M+02951MA1999999101481MD1999999+0161REMSYN076AAXX  28004 83096 32694 20910 10267 20229 30148 40155 82500 333 10295 58016;EQDQ01  00002PRCP99
0186830960999992000112812004-10910-037050FM-12+000699999V0200901N005112200019N0010001N1+02831+02271101651ADDAA199000091GF102991021051012501001001KA1240N+02411MA1999999101581MD1999999+0181REMSYN076AAXX  28124 83096 32694 20910 10283 20227 30158 40165 82500 333 20241 58018;EQDQ01  00002PRCP99
0167830960999992000112818004-10910-037050FM-12+000699999V0200901N003112200019N0010001N1+02821+02311101501ADDAA199000091GF101991011051012501001001MA1999999101431MD1999999+0091REMSYN070AAXX  28184 83096 32694 10906 10282 20231 30143 40150 81500 333 58009;EQDQ01  00002PRCP99
0186830960999992000112900004-10910-037050FM-12+000699999V0200901N005112200019N0010001N1+02631+02291101501ADDAA199000091GF101991011051012501001001KA1240M+02951MA1999999101431MD1999999-0051REMSYN076AAXX  29004 83096 32694 10910 10263 20229 30143 40150 81500 333 10295 59005;EQDQ01  00002PRCP99
0186830960999992000112912004-10910-037050FM-12+000699999V0200901N005112200019N0010001N1+02831+02171101641ADDAA199000091GF101991011031012501001001KA1240N+02501MA1999999101571MD1999999-0011REMSYN076AAXX  29124 83096 32694 10910 10283 20217 30157 40164 81300 333 20250 59001;EQDQ01  00002PRCP99
0186830960999992000120112004-10910-037050FM-12+000699999V0200501N004612200019N0010001N1+02811+02201101391ADDAA199000091GF101991011031012501001001KA1240N+02491MA1999999101321MD1999999-0171REMSYN076AAXX  01124 83096 32694 10509 10281 20220 30132 40139 81300 333 20249 59017;EQDQ01  00002PRCP99
0167830960999992000120118004-10910-037050FM-12+000699999V0200901N005112200019N0010001N1+02831+02241101191ADDAA199000091GF101991011011012501001001MA1999999101121MD1999999-0091REMSYN070AAXX  01184 83096 32694 10910 10283 20224 30112 40119 81100 333 59009;EQDQ01  00002PRCP99
0186830960999992000120200004-10910-037050FM-12+000699999V0200901N004112200019N0010001N1+02611+02231101191ADDAA199000091GF102991021051012501001001KA1240M+02951MA1999999101121MD1999999-0131REMSYN076AAXX  02004 83096 32694 20908 10261 20223 30112 40119 82500 333 10295 59013;EQDQ01  00002PRCP99
0186830960999992000120212004-10910-037050FM-12+000699999V0200501N005112200019N0010001N1+02891+02081101301ADDAA199000091GF101991011031012501001001KA1240N+02151MA1999999101231MD1999999-0041REMSYN076AAXX  02124 83096 32694 10510 10289 20208 30123 40130 81300 333 20215 59004;EQDQ01  00002PRCP99
0167830960999992000120218004-10910-037050FM-12+000699999V0200901N005112200019N0010001N1+02811+02341101071ADDAA199000091GF101991011031012501001001MA1999999101001MD1999999-0121REMSYN070AAXX  02184 83096 32694 10910 10281 20234 30100 40107 81300 333 59012;EQDQ01  00002PRCP99
0186830960999992000120300004-10910-037050FM-12+000699999V0200501N005112200019N0040001N1+02631+02311101141ADDAA199000091GF101991011031000251001001KA1240M+03131MA1999999101071MD1999999-0051REMSYN076AAXX  03004 83096 32096 10510 10263 20231 30107 40114 81300 333 10313 59005;EQDQ01  00002PRCP99
0186830960999992000120312004-10910-037050FM-12+000699999V0200501N004110450019N0010001N1+02821+02201101391ADDAA199000091GF106991041051012501031001KA1240N+02171MA1999999101321MD1999999+0091REMSYN076AAXX  03124 83096 32694 60508 10282 20220 30132 40139 84530 333 20217 58009;EQDQ01  00002PRCP99
0167830960999992000120318004-10910-037050FM-12+000699999V0200901N006712200019N0010001N1+02771+02321101051ADDAA199000091GF101991011011012501001001MA1999999100981MD1999999-0021REMSYN070AAXX  03184 83096 32694 10913 10277 20232 30098 40105 81100 333 59002;EQDQ01  00002PRCP99
0186830960999992000120400004-10910-037050FM-12+000699999V0200901N004112200019N0010001N1+02601+02231101311ADDAA199000091GF101991011011012501001001KA1240M+02941MA1999999101241MD1999999+0171REMSYN076AAXX  04004 83096 32694 10908 10260 20223 30124 40131 81100 333 10294 58017;EQDQ01  00002PRCP99
0186830960999992000120412004-10910-037050FM-12+000699999V0200501N004110450019N0010001N1+02751+02211101311ADDAA199000091GF105991021051012501031001KA1240N+02151MA1999999101241MD1999999-0081REMSYN076AAXX  04124 83096 32694 50508 10275 20221 30124 40131 82530 333 20215 59008;EQDQ01  00002PRCP99
0167830960999992000120418004-10910-037050FM-12+000699999V0200901N005112200019N0010001N1+02791+02321101111ADDAA199000091GF102991021031012501001001MA1999999101041MD1999999+0061REMSYN070AAXX  04184 83096 32694 20910 10279 20232 30104 40111 82300 333 58006;EQDQ01  00002PRCP99
0186830960999992000120500004-10910-037050FM-12+000699999V0200501N004112200019N0010001N1+02591+02251101101ADDAA199000091GF102991021031012501001001KA1240M+02951MA1999999101031MD1999999-0211REMSYN076AAXX  05004 83096 32694 20508 10259 20225 30103 40110 82300 333 10295 59021;EQDQ01  00002PRCP99
0186830960999992000120512004-10910-037050FM-12+000699999V0200501N005110120019N0010001N1+02711+02171101291ADDAA199000091GF106991061031012501001001KA1240N+02231MA1999999101221MD1999999-0021REMSYN076AAXX  05124 83096 32694 60510 10271 20217 30122 40129 86300 333 20223 59002;EQDQ01  00002PRCP99
0167830960999992000120518004-10910-037050FM-12+000699999V0200901N005110120019N0010001N1+02771+02281101101ADDAA199000091GF105991051031012501001001MA1999999101031MD1999999-0011REMSYN070AAXX  05184 83096 32694 50910 10277 20228 30103 40110 85300 333 59001;EQDQ01  00002PRCP99
0186830960999992000120600004-10910-037050FM-12+000699999V0200501N004612200019N0010001N1+02571+02361101111ADDAA199000091GF101991011031012501001001KA1240M+02911MA1999999101041MD1999999+0011REMSYN076AAXX  06004 83096 32694 10509 10257 20236 30104 40111 81300 333 10291 58001;EQDQ01  00002PRCP99
0186830960999992000120612004-10910-037050FM-12+000699999V0200501N004612200019N0010001N1+02771+02341101331ADDAA199000091GF101991011011012501001001KA1240N+02271MA1999999101261MD1999999+0041REMSYN076AAXX  06124 83096 32694 10509 10277 20234 30126 40133 81100 333 20227 58004;EQDQ01  00002PRCP99
0167830960999992000120618004-10910-037050FM-12+000699999V0200901N005112200019N0010001N1+02761+02401101021ADDAA199000091GF106991031011012501001011MA1999999100951MD1999999-0081REMSYN070AAXX  06184 83096 32694 60910 10276 20240 30095 40102 83101 333 59008;EQDQ01  00002PRCP99
0186830960999992000120700004-10910-037050FM-12+000699999V0200501N004112200019N0010001N1+02571+02351101211ADDAA199000091GF101991011011012501001001KA1240M+02911MA1999999101141MD1999999+0101REMSYN076AAXX  07004 83096 32694 10508 10257 20235 30114 40121 81100 333 10291 58010;EQDQ01  00002PRCP99
0186830960999992000120712004-10910-037050FM-12+000699999V0200501N004112200019N0010001N1+02831+02331101381ADDAA199000091GF103991031031012501001001KA1240N+01951MA1999999101311MD1999999+0051REMSYN076AAXX  07124 83096 32694 30508 10283 20233 30131 40138 83300 333 20195 58005;EQDQ01  00002PRCP99
0167830960999992000120718004-10910-037050FM-12+000699999V0200901N004112200019N0010001N1+02761+02361101171ADDAA199000091GF103991031031012501001001MA1999999101101MD1999999+0151REMSYN070AAXX  07184 83096 32694 30908 10276 20236 30110 40117 83300 333 58015;EQDQ01  00002PRCP99
0186830960999992000120800004-10910-037050FM-12+000699999V0200901N002612200019N0010001N1+02611+02331101511ADDAA199000091GF102991021051012501001001KA1240M+02931MA1999999101441MD1999999+0301REMSYN076AAXX  08004 83096 32694 20905 10261 20233 30144 40151 82500 333 10293 58030;EQDQ01  00002PRCP99
0186830960999992000120812004-10910-037050FM-12+000699999V0200501N004612200019N0010001N1+02841+02311101491ADDAA199000091GF101991011031012501001001KA1240N+02251MA1999999101421MD1999999+0111REMSYN076AAXX  08124 83096 32694 10509 10284 20231 30142 40149 81300 333 20225 58011;EQDQ01  00002PRCP99
0167830960999992000120818004-10910-037050FM-12+000699999V0200901N004610120019N0010001N1+02791+02341101381ADDAA199000091GF106991061031012501001001MA1999999101311MD1999999+0211REMSYN070AAXX  08184 83096 32694 60909 10279 20234 30131 40138 86300 333 58021;EQDQ01  00002PRCP99
0186830960999992000120900004-10910-037050FM-12+000699999V0200901N003112200019N0010001N1+02621+02391101411ADDAA199000091GF102991021031012501001001KA1240M+03151MA1999999101341MD1999999-0101REMSYN076AAXX  09004 83096 32694 20906 10262 20239 30134 40141 82300 333 10315 59010;EQDQ01  00002PRCP99
0186830960999992000120912004-10910-037050FM-12+000699999V0200901N004612200019N0010001N1+02821+02381101541ADDAA199000091GF101991011011012501001001KA1240N+02311MA1999999101471MD1999999+0051REMSYN076AAXX  09124 83096 32694 10909 10282 20238 30147 40154 81100 333 20231 58005;EQDQ01  00002PRCP99
0167830960999992000120918004-10910-037050FM-12+000699999V0201401N003112200019N0010001N1+02801+02401101251ADDAA199000091GF101991011011012501001001MA1999999101181MD1999999-0131REMSYN070AAXX  09184 83096 32694 11406 10280 20240 30118 40125 81100 333 59013;EQDQ01  00002PRCP99
0186830960999992000121000004-10910-037050FM-12+000699999V0200901N003612200019N0010001N1+02611+02291101391ADDAA199000091GF101991011011012501001001KA1240M+02971MA1999999101321MD1999999-0021REMSYN076AAXX  10004 83096 32694 10907 10261 20229 30132 40139 81100 333 10297 59002;EQDQ01  00002PRCP99
0186830960999992000121012004-10910-037050FM-12+000699999V0200901N002612200019N0010001N1+02771+02211101281ADDAA199000091GF102991021031012501001001KA1240N+01971MA1999999101211MD1999999-0261REMSYN076AAXX  10124 83096 32694 20905 10277 20221 30121 40128 82300 333 20197 59026;EQDQ01  00002PRCP99
0167830960999992000121018004-10910-037050FM-12+000699999V0200901N002112200019N0010001N1+02791+02211101061ADDAA199000091GF101991011031012501001001MA1999999100991MD1999999-0431REMSYN070AAXX  10184 83096 32694 10904 10279 20221 30099 40106 81300 333 59043;EQDQ01  00002PRCP99
0186830960999992000121112004-10910-037050FM-12+000699999V0200901N004610120019N0010001N1+02731+02151101081ADDAA199000091GF108991081031012501001001KA1240N+02131MA1999999101011MD1999999-0201REMSYN076AAXX  11124 83096 32694 80909 10273 20215 30101 40108 88300 333 20213 59020;EQDQ01  00002PRCP99
0167830960999992000121118004-10910-037050FM-12+000699999V0200901N006210120019N0010001N1+02771+02341100931ADDAA199000091GF106991061031012501001001MA1999999100861MD1999999-0131REMSYN070AAXX  11184 83096 32694 60912 10277 20234 30086 40093 86300 333 59013;EQDQ01  00002PRCP99
0186830960999992000121200004-10910-037050FM-12+000699999V0200901N002610120019N0010001N1+02641+02411101201ADDAA199000091GF108991081031012501001001KA1240M+02911MA1999999101131MD1999999+0211REMSYN076AAXX  12004 83096 32694 80905 10264 20241 30113 40120 88300 333 10291 58021;EQDQ01  00002PRCP99
0186830960999992000121212004-10910-037050FM-12+000699999V0200501N002110450019N0010001N1+02941+02241101291ADDAA199000091GF106991021051012501031011KA1240N+02321MA1999999101221MD1999999+0211REMSYN076AAXX  12124 83096 32694 60504 10294 20224 30122 40129 82531 333 20232 58021;EQDQ01  00002PRCP99
0167830960999992000121218004-10910-037050FM-12+000699999V0200501N004110450019N0010001N1+02731+02371100961ADDAA199000091GF107991031051012501031011MA1999999100891MD1999999+0031REMSYN070AAXX  12184 83096 32694 70508 10273 20237 30089 40096 83531 333 58003;EQDQ01  00002PRCP99
0186830960999992000121300004-10910-037050FM-12+000699999V0200501N004110120019N0010001N1+02611+02311101171ADDAA199000091GF107991071051012501001001KA1240M+03071MA1999999101101MD1999999-0031REMSYN076AAXX  13004 83096 32694 70508 10261 20231 30110 40117 87500 333 10307 59003;EQDQ01  00002PRCP99
0186830960999992000121312004-10910-037050FM-12+000699999V0200901N001510450019N0010001N1+02631+02161101231ADDAA199000091GF106991041051012501031001KA1240N+02131MA1999999101161MD1999999-0061REMSYN076AAXX  13124 83096 32694 60903 10263 20216 30116 40123 84530 333 20213 59006;EQDQ01  00002PRCP99
0167830960999992000121318004-10910-037050FM-12+000699999V0200901N002110450019N0010001N1+02741+02301101021ADDAA199000091GF106991041051012501031001MA1999999100951MD1999999+0061REMSYN070AAXX  13184 83096 32694 60904 10274 20230 30095 40102 84530 333 58006;EQDQ01  00002PRCP99
0186830960999992000121400004-10910-037050FM-12+000699999V0200901N002110120019N0010001N1+02571+02401101091ADDAA199000091GF105991051051012501001001KA1240M+02831MA1999999101021MD1999999-0081REMSYN076AAXX  14004 83096 32694 50904 10257 20240 30102 40109 85500 333 10283 59008;EQDQ01  00002PRCP99
0186830960999992000121412004-10910-037050FM-12+000699999V0203601N002110120019N0010001N1+02591+02271101011ADDAA199000091GF106991051051012501031001KA1240N+02131MA1999999100941MD1999999-0221REMSYN076AAXX  14124 83096 32694 63604 10259 20227 30094 40101 85530 333 20213 59022;EQDQ01  00002PRCP99
0167830960999992000121418004-10910-037050FM-12+000699999V0200901N003110120019N0010001N1+02471+02301100951ADDAA199000091GF107991061051012501031001MA1999999100881MD1999999-0071REMSYN070AAXX  14184 83096 32694 70906 10247 20230 30088 40095 86530 333 59007;EQDQ01  00002PRCP99
0173830960999992000121500004-10910-037050FM-12+000699999V0200901N003110120019N0010001N1+02391+02241100891ADDAA106004191GF106991051051012501031001KA1240M+02791MA1999999100821MD1999999-0201REMSYN082AAXX  15004 83096 22694 60906 10239 20224 30082 40089 85530 333 10279 59020 60041;
0201830960999992000121512004-10910-037050FM-12+000699999V0200501N003110075019N0005001N1+02151+02071101111ADDAA124014091AY161061AY261061GF108991081071008001999999KA1240N+02031MA1999999101041MD1999999+0101MW1601REMSYN088AAXX  15124 83096 21593 80506 10215 20207 30104 40111 76066 887// 333 20203 58010 60144;
0173830960999992000121600004-10910-037050FM-12+000699999V0200501N003110120019N0010001N1+02211+02121101071ADDAA106000891GF105991051051012501001001KA1240M+02301MA1999999101001MD1999999+0181REMSYN082AAXX  16004 83096 22694 50506 10221 20212 30100 40107 85500 333 10230 58018 69981;
0173830960999992000121612004-10910-037050FM-12+000699999V0200501N004610120019N0010001N1+02651+02001101011ADDAA124011991GF106991051031012501011001KA1240N+02291MA1999999100941MD1999999-0101REMSYN082AAXX  16124 83096 22694 60509 10265 20200 30094 40101 85310 333 20229 59010 60124;
0167830960999992000121618004-10910-037050FM-12+000699999V0200901N005110120019N0010001N1+02531+02231100891ADDAA199000091GF108991061051012501031001MA1999999100821MD1999999-0011REMSYN070AAXX  16184 83096 32694 80910 10253 20223 30082 40089 86530 333 59001;EQDQ01  00002PRCP99
0201830960999992000121700004-10910-037050FM-12+000699999V0200501N003110075019N0005001N1+02251+02191101131ADDAA106039991AY161061AY261061GF108991081051008001999999KA1240M+02911MA1999999101061MD1999999+0061MW1601REMSYN088AAXX  17004 83096 21593 80506 10225 20219 30106 40113 76066 885// 333 10291 58006 60401;
0173830960999992000121712004-10910-037050FM-12+000699999V0203601N001510120019N0010001N1+02491+02231101291ADDAA124055191GF106991061051012501001001KA1240N+02211MA1999999101221MD1999999+0281REMSYN082AAXX  17124 83096 22694 63603 10249 20223 30122 40129 86500 333 20221 58028 60554;
0154830960999992000121718004-10910-037050FM-12+000699999V0200901N002110120019N0010001N1+02491+02341101071ADDAA106001091GF106991061051012501001001MA1999999101001MD1999999+0181REMSYN076AAXX  17184 83096 22694 60904 10249 20234 30100 40107 86500 333 58018 60011;
0186830960999992000121800004-10910-037050FM-12+000699999V0200501N002112200019N0010001N1+02431+02251101261ADDAA199000091GF103991031051012501001001KA1240M+02751MA1999999101191MD1999999-0131REMSYN076AAXX  18004 83096 32694 30504 10243 20225 30119 40126 83500 333 10275 59013;EQDQ01  00002PRCP99
0201830960999992000121812004-10910-037050FM-12+000699999V0200501N002610075019N0005001N1+02571+02361101441ADDAA124002091AY161061AY261061GF108991081051008001999999KA1240N+02071MA1999999101371MD1999999+0151MW1601REMSYN088AAXX  18124 83096 21593 80505 10257 20236 30137 40144 76066 885// 333 20207 58015 60024;
0182830960999992000121818004-10910-037050FM-12+000699999V0200901N002610075019N0005001N1+02551+02421101221ADDAA106000191AY161061AY261061GF108991081071008001999999MA1999999101151MD1999999+0151MW1601REMSYN082AAXX  18184 83096 21593 80905 10255 20242 30115 40122 76066 887// 333 58015 69921;
0201830960999992000121900004-10910-037050FM-12+000699999V0200501N002110075019N0005001N1+02541+02361101331ADDAA106000191AY161061AY261061GF108991081071008001999999KA1240M+02741MA1999999101261MD1999999+0071MW1601REMSYN088AAXX  19004 83096 21593 80504 10254 20236 30126 40133 76066 887// 333 10274 58007 69921;
0173830960999992000121912004-10910-037050FM-12+000699999V0200501N002610450019N0010001N1+02651+02421101401ADDAA124000891GF105991031051012501031001KA1240N+01991MA1999999101331MD1999999-0041REMSYN082AAXX  19124 83096 22694 50505 10265 20242 30133 40140 83530 333 20199 59004 69984;
0167830960999992000121918004-10910-037050FM-12+000699999V0200901N003612200019N0010001N1+02791+02321101211ADDAA199000091GF102991021031012501001001MA1999999101141MD1999999-0011REMSYN070AAXX  19184 83096 32694 20907 10279 20232 30114 40121 82300 333 59001;EQDQ01  00002PRCP99
0186830960999992000122000004-10910-037050FM-12+000699999V0200901N002612200019N0010001N1+02531+02361101211ADDAA199000091GF101991011031012501001001KA1240M+02911MA1999999101141MD1999999-0121REMSYN076AAXX  20004 83096 32694 10905 10253 20236 30114 40121 81300 333 10291 59012;EQDQ01  00002PRCP99
0186830960999992000122012004-10910-037050FM-12+000699999V0200901N003612200019N0010001N1+02751+02241101451ADDAA199000091GF102991021031012501001001KA1240N+02091MA1999999101381MD1999999+0051REMSYN076AAXX  20124 83096 32694 20907 10275 20224 30138 40145 82300 333 20209 58005;EQDQ01  00002PRCP99
0167830960999992000122018004-10910-037050FM-12+000699999V0200901N003612200019N0010001N1+02791+02231101321ADDAA199000091GF101991011011012501001001MA1999999101251MD1999999+0111REMSYN070AAXX  20184 83096 32694 10907 10279 20223 30125 40132 81100 333 58011;EQDQ01  00002PRCP99
0186830960999992000122100004-10910-037050FM-12+000699999V0200901N002112200019N0010001N1+02551+02351101311ADDAA199000091GF101991011031012501001001KA1240M+02931MA1999999101241MD1999999+0101REMSYN076AAXX  21004 83096 32694 10904 10255 20235 30124 40131 81300 333 10293 58010;EQDQ01  00002PRCP99
0186830960999992000122112004-10910-037050FM-12+000699999V0200501N004112200019N0010001N1+02751+02301101571ADDAA199000091GF101991011011012501001001KA1240N+02031MA1999999101501MD1999999+0121REMSYN076AAXX  21124 83096 32694 10508 10275 20230 30150 40157 81100 333 20203 58012;EQDQ01  00002PRCP99
0167830960999992000122118004-10910-037050FM-12+000699999V0200901N003612200019N0010001N1+02791+02341101291ADDAA199000091GF101991011011012501001001MA1999999101221MD1999999-0031REMSYN070AAXX  21184 83096 32694 10907 10279 20234 30122 40129 81100 333 59003;EQDQ01  00002PRCP99
0186830960999992000122200004-10910-037050FM-12+000699999V0200501N002112200019N0010001N1+02551+02331101391ADDAA199000091GF102991021051012501001001KA1240M+02951MA1999999101321MD1999999+0081REMSYN076AAXX  22004 83096 32694 20504 10255 20233 30132 40139 82500 333 10295 58008;EQDQ01  00002PRCP99
0186830960999992000122212004-10910-037050FM-12+000699999V0200901N002112200019N0010001N1+02791+02361101541ADDAA199000091GF102991021031012501001001KA1240N+02171MA1999999101461MD1999999-0041REMSYN076AAXX  22124 83096 32694 20904 10279 20236 30146 40154 82300 333 20217 59004;EQDQ01  00002PRCP99
0167830960999992000122218004-10910-037050FM-12+000699999V0200901N003612200019N0010001N1+02811+02341101381ADDAA199000091GF101991011031012501001001MA1999999101311MD1999999+0091REMSYN070AAXX  22184 83096 32694 10907 10281 20234 30131 40138 81300 333 58009;EQDQ01  00002PRCP99
0186830960999992000122300004-10910-037050FM-12+000699999V0200901N002112200019N0010001N1+02611+02331101451ADDAA199000091GF101991011011012501001001KA1240M+02931MA1999999101381MD1999999+0061REMSYN076AAXX  23004 83096 32694 10904 10261 20233 30138 40145 81100 333 10293 58006;EQDQ01  00002PRCP99
0186830960999992000122312004-10910-037050FM-12+000699999V0200901N003612200019N0010001N1+02811+02251101441ADDAA199000091GF101991011031012501001001KA1240N+02191MA1999999101371MD1999999-0091REMSYN076AAXX  23124 83096 32694 10907 10281 20225 30137 40144 81300 333 20219 59009;EQDQ01  00002PRCP99
0167830960999992000122318004-10910-037050FM-12+000699999V0201401N003112200019N0010001N1+02691+02351101411ADDAA199000091GF104991041031012501001001MA1999999101341MD1999999+0031REMSYN070AAXX  23184 83096 32694 41406 10269 20235 30134 40141 84300 333 58003;EQDQ01  00002PRCP99
0186830960999992000122400004-10910-037050FM-12+000699999V0200901N003112200019N0010001N1+02611+02351101391ADDAA199000091GF102991021011012501001001KA1240M+02971MA1999999101321MD1999999-0061REMSYN076AAXX  24004 83096 32694 20906 10261 20235 30132 40139 82100 333 10297 59006;EQDQ01  00002PRCP99
0186830960999992000122412004-10910-037050FM-12+000699999V0200901N002612200019N0010001N1+02801+02291101601ADDAA199000091GF101991011011012501001001KA1240N+02251MA1999999101531MD1999999+0161REMSYN076AAXX  24124 83096 32694 10905 10280 20229 30153 40160 81100 333 20225 58016;EQDQ01  00002PRCP99
0167830960999992000122418004-10910-037050FM-12+000699999V0200901N004612200019N0010001N1+02731+02261101341ADDAA199000091GF101991011011012501001001MA1999999101271MD1999999-0071REMSYN070AAXX  24184 83096 32694 10909 10273 20226 30127 40134 81100 333 59007;EQDQ01  00002PRCP99
0186830960999992000122500004-10910-037050FM-12+000699999V0200901N002112200019N0010001N1+02591+02251101491ADDAA199000091GF101991011011012501001001KA1240M+02931MA1999999101421MD1999999+0101REMSYN076AAXX  25004 83096 32694 10904 10259 20225 30142 40149 81100 333 10293 58010;EQDQ01  00002PRCP99
0186830960999992000122512004-10910-037050FM-12+000699999V0200901N003112200019N0010001N1+02791+02231101601ADDAA199000091GF101991011031012501001001KA1240N+02211MA1999999101531MD1999999+0001REMSYN076AAXX  25124 83096 32694 10906 10279 20223 30153 40160 81300 333 20221 58000;EQDQ01  00002PRCP99
0167830960999992000122518004-10910-037050FM-12+000699999V0201401N002612200019N0010001N1+02811+02181101461ADDAA199000091GF101991011031012501001001MA1999999101391MD1999999+0061REMSYN070AAXX  25184 83096 32694 11405 10281 20218 30139 40146 81300 333 58006;EQDQ01  00002PRCP99
0186830960999992000122600004-10910-037050FM-12+000699999V0201401N002112200019N0010001N1+02631+02311101471ADDAA199000091GF102991021031012501001001KA1240M+02931MA1999999101401MD1999999-0021REMSYN076AAXX  26004 83096 32694 21404 10263 20231 30140 40147 82300 333 10293 59002;EQDQ01  00002PRCP99
0186830960999992000122612004-10910-037050FM-12+000699999V0200901N004612200019N0010001N1+02791+02301101501ADDAA199000091GF103991031031012501001001KA1240N+02251MA1999999101431MD1999999-0101REMSYN076AAXX  26124 83096 32694 30909 10279 20230 30143 40150 83300 333 20225 59010;EQDQ01  00002PRCP99
0167830960999992000122618004-10910-037050FM-12+000699999V0201401N003112200019N0010001N1+02871+02281101351ADDAA199000091GF102991021031012501001001MA1999999101281MD1999999-0111REMSYN070AAXX  26184 83096 32694 21406 10287 20228 30128 40135 82300 333 59011;EQDQ01  00002PRCP99
0186830960999992000122700004-10910-037050FM-12+000699999V0201401N001512200019N0010001N1+02631+02211101421ADDAA199000091GF101991011031012501001001KA1240M+02991MA1999999101351MD1999999-0051REMSYN076AAXX  27004 83096 32694 11403 10263 20221 30135 40142 81300 333 10299 59005;EQDQ01  00002PRCP99
0186830960999992000122712004-10910-037050FM-12+000699999V0200901N002612200019N0010001N1+02781+02251101471ADDAA199000091GF101991011051012501001001KA1240N+02091MA1999999101401MD1999999-0031REMSYN076AAXX  27124 83096 32694 10905 10278 20225 30140 40147 81500 333 20209 59003;EQDQ01  00002PRCP99
0167830960999992000122718004-10910-037050FM-12+000699999V0200901N004612200019N0010001N1+02831+02241101291ADDAA199000091GF101991011051012501001001MA1999999101221MD1999999-0061REMSYN070AAXX  27184 83096 32694 10909 10283 20224 30122 40129 81500 333 59006;EQDQ01  00002PRCP99
0186830960999992000122800004-10910-037050FM-12+000699999V0200901N003112200019N0010001N1+02631+02251101471ADDAA199000091GF101991011011012501001001KA1240M+02951MA1999999101401MD1999999+0051REMSYN076AAXX  28004 83096 32694 10906 10263 20225 30140 40147 81100 333 10295 58005;EQDQ01  00002PRCP99
0186830960999992000122812004-10910-037050FM-12+000699999V0200901N005112200019N0010001N1+02791+02251101501ADDAA199000091GF102991021031012501001001KA1240N+02211MA1999999101431MD1999999+0031REMSYN076AAXX  28124 83096 32694 20910 10279 20225 30143 40150 82300 333 20221 58003;EQDQ01  00002PRCP99
0167830960999992000122818004-10910-037050FM-12+000699999V0200901N005112200019N0010001N1+02811+02251101281ADDAA199000091GF101991011031012501001001MA1999999101211MD1999999-0011REMSYN070AAXX  28184 83096 32694 10910 10281 20225 30121 40128 81300 333 59001;EQDQ01  00002PRCP99
0186830960999992000122900004-10910-037050FM-12+000699999V0200901N003112200019N0010001N1+02631+02291101341ADDAA199000091GF101991011031012501001001KA1240M+02951MA1999999101271MD1999999-0131REMSYN076AAXX  29004 83096 32694 10906 10263 20229 30127 40134 81300 333 10295 59013;EQDQ01  00002PRCP99
0186830960999992000122912004-10910-037050FM-12+000699999V0200901N004612200019N0010001N1+02791+02211101481ADDAA199000091GF102991021031012501001001KA1240N+02391MA1999999101411MD1999999-0021REMSYN076AAXX  29124 83096 32694 20909 10279 20221 30141 40148 82300 333 20239 59002;EQDQ01  00002PRCP99
0167830960999992000122918004-10910-037050FM-12+000699999V0200901N003612200019N0010001N1+02831+02291101351ADDAA199000091GF102991021031012501001001MA1999999101281MD1999999+0071REMSYN070AAXX  29184 83096 32694 20907 10283 20229 30128 40135 82300 333 58007;EQDQ01  00002PRCP99
0186830960999992000123000004-10910-037050FM-12+000699999V0200901N002112200019N0010001N1+02631+02311101301ADDAA199000091GF101991011031012501001001KA1240M+02931MA1999999101231MD1999999-0041REMSYN076AAXX  30004 83096 32694 10904 10263 20231 30123 40130 81300 333 10293 59004;EQDQ01  00002PRCP99
0186830960999992000123012004-10910-037050FM-12+000699999V0200501N003112200019N0010001N1+02811+02361101521ADDAA199000091GF101991011051012501001001KA1240N+02021MA1999999101451MD1999999+0041REMSYN076AAXX  30124 83096 32694 10506 10281 20236 30145 40152 81500 333 20202 58004;EQDQ01  00002PRCP99
0167830960999992000123018004-10910-037050FM-12+000699999V0200901N004112200019N0010001N1+02851+02331101231ADDAA199000091GF101991011011012501001001MA1999999101161MD1999999-0121REMSYN070AAXX  30184 83096 32694 10908 10285 20233 30116 40123 81100 333 59012;EQDQ01  00002PRCP99
0186830960999992000123100004-10910-037050FM-12+000699999V0200501N004110120019N0010001N1+02651+02391101391ADDAA199000091GF106991061051012501001001KA1240M+02961MA1999999101321MD1999999+0091REMSYN076AAXX  31004 83096 32694 60508 10265 20239 30132 40139 86500 333 10296 58009;EQDQ01  00002PRCP99
0186830960999992000123112004-10910-037050FM-12+000699999V0200501N003112200019N0010001N1+02791+02251101431ADDAA199000091GF102991021031012501001001KA1240N+02151MA1999999101361MD1999999-0091REMSYN076AAXX  31124 83096 32694 20506 10279 20225 30136 40143 82300 333 20215 59009;EQDQ01  00002PRCP99
0167830960999992000123118004-10910-037050FM-12+000699999V0200901N003612200019N0010001N1+02811+02271101291ADDAA199000091GF101991011031012501001001MA1999999101221MD1999999+0061REMSYN070AAXX  31184 83096 32694 10907 10281 20227 30122 40129 81300 333 58006;EQDQ01  00002PRCP99
