0186831820999992000010100004-11300-041870FM-12+074799999V0200901N003610042019N9999999N1+02061+01891101091ADDAA106000091GF108991081071004501999999KA1240M+02501MA1999999092751MD1999999-0081REMSYN076AAXX  01004 83182 324// 80907 10206 20189 39275 40109 887// 333 10250 59008;EQDQ01  00002PRCP06
0173831820999992000010112004-11300-041870FM-12+074799999V0200501N004610450019N0100001N1+02351+01851101111ADDAA124000591GF108991041021008001041021KA1240N+01941MA1999999092771MD1999999-0091REMSYN082AAXX  01124 83182 22597 80509 10235 20185 39277 40111 84242 333 20194 59009 69964;
0195831820999992000010118004-11300-041870FM-12+074799999V0200501N004112200019N0100001N1+02771+01891100681ADDAA106000091AY111061AY211061GF102991011031004501061011MA1999999092411MD1999999-0091MW1151REMSYN076AAXX  01184 83182 31497 20508 10277 20189 39241 40068 71511 81361 333 59009;EQDQ01  00002PRCP06
0186831820999992000010200004-11300-041870FM-12+074799999V0200901N002610075019N9999999N1+02261+01881100911ADDAA106000091GF108991061051008001011999KA1240M+02821MA1999999092611MD1999999-0141REMSYN076AAXX  02004 83182 325// 80905 10226 20188 39261 40091 8651/ 333 10282 59014;EQDQ01  00002PRCP06
0186831820999992000010212004-11300-041870FM-12+074799999V0200901N004110075019N0040001N1+02271+01861101051ADDAA106000091GF108991051051008001051011KA1240N+01951MA1999999092731MD1999999-0041REMSYN076AAXX  02124 83182 32596 80908 10227 20186 39273 40105 85551 333 20195 59004;EQDQ01  00002PRCP06
0167831820999992000010218004-11300-041870FM-12+074799999V0200501N003610450019N0100001N1+02691+01921100681ADDAA106000091GF108991021031008001011011MA1999999092401MD1999999-0011REMSYN070AAXX  02184 83182 32597 80507 10269 20192 39240 40068 82311 333 59001;EQDQ01  00002PRCP06
0186831820999992000010300004-11300-041870FM-12+074799999V0200901N002612200019N9999999N1+02221+01941100961ADDAA106000091GF108991011031008001001011KA1240M+02741MA1999999092651MD1999999+0041REMSYN076AAXX  03004 83182 325// 80905 10222 20194 39265 40096 81301 333 10274 58004;EQDQ01  00002PRCP06
0186831820999992000010312004-11300-041870FM-12+074799999V0201401N003110450019N0100001N1+02381+01951101001ADDAA106000091GF108991031021008001051011KA1240N+01921MA1999999092691MD1999999-0041REMSYN076AAXX  03124 83182 32597 81406 10238 20195 39269 40100 83251 333 20192 59004;EQDQ01  00002PRCP06
0167831820999992000010318004-11300-041870FM-12+074799999V0201401N003610450019N0100001N1+02731+01951100671ADDAA106000091GF108991021021008001051011MA1999999092391MD1999999-0011REMSYN070AAXX  03184 83182 32597 81407 10273 20195 39239 40067 82251 333 59001;EQDQ01  00002PRCP06
0186831820999992000010400004-11300-041870FM-12+074799999V0201401N003610450019N9999999N1+02151+01941100931ADDAA106000091GF108991021021008001051011KA1240M+02751MA1999999092621MD1999999-0031REMSYN076AAXX  04004 83182 325// 81407 10215 20194 39262 40093 82251 333 10275 59003;EQDQ01  00002PRCP06
0186831820999992000010412004-11300-041870FM-12+074799999V0201401N005110450019N0100001N1+02431+01861101191ADDAA106000091GF108991031021008001041011KA1240N+01921MA1999999092861MD1999999+0171REMSYN076AAXX  04124 83182 32597 81410 10243 20186 39286 40119 83241 333 20192 58017;EQDQ01  00002PRCP06
0167831820999992000010418004-11300-041870FM-12+074799999V0201801N001010450019N0100001N1+02731+01821100851ADDAA106000091GF108991011021008001011011MA1999999092551MD1999999+0161REMSYN070AAXX  04184 83182 32597 81802 10273 20182 39255 40085 81211 333 58016;EQDQ01  00002PRCP06
0186831820999992000010500004-11300-041870FM-12+074799999V0200901N002112200019N9999999N1+02301+01941101001ADDAA106000091GF108991041021008001001011KA1240M+02761MA1999999092701MD1999999+0081REMSYN076AAXX  05004 83182 325// 80904 10230 20194 39270 40100 84201 333 10276 58008;EQDQ01  00002PRCP06
0186831820999992000010512004-11300-041870FM-12+074799999V0201401N004110075019N0100001N1+02301+01791101241ADDAA106000091GF108991051021008001041011KA1240N+01721MA1999999092911MD1999999+0051REMSYN076AAXX  05124 83182 32597 81408 10230 20179 39291 40124 85241 333 20172 58005;EQDQ01  00002PRCP06
0195831820999992000010518004-11300-041870FM-12+074799999V0203601N003612200019N0010001N1+02641+01951100941ADDAA106000091AY121061AY221061GF106991031061004501001011MA1999999092631MD1999999+0081MW1161REMSYN076AAXX  05184 83182 31494 63607 10264 20195 39263 40094 71622 83601 333 58008;EQDQ01  00002PRCP06
0186831820999992000010612004-11300-041870FM-12+074799999V0201401N003110075019N0100001N1+02331+01831101281ADDAA106000091GF108991081051008001999999KA1240N+01881MA1999999092941MD1999999+0031REMSYN076AAXX  06124 83182 32597 81406 10233 20183 39294 40128 885// 333 20188 58003;EQDQ01  00002PRCP06
0186831820999992000010700004-11300-041870FM-12+074799999V0200901N003110450019N9999999N1+02141+01841101131ADDAA106000091GF108991021021008001051011KA1240M+02781MA1999999092821MD1999999+0051REMSYN076AAXX  07004 83182 325// 80906 10214 20184 39282 40113 82251 333 10278 58005;EQDQ01  00002PRCP06
0186831820999992000010712004-11300-041870FM-12+074799999V0200901N004112200019N0100001N1+02431+01791101221ADDAA106000091GF105991041021008001001011KA1240N+01801MA1999999092891MD1999999-0051REMSYN076AAXX  07124 83182 32597 50908 10243 20179 39289 40122 84201 333 20180 59005;EQDQ01  00002PRCP06
0196831820999992000010800004-11300-041870FM-12+074799999V0200901N002612200019N9999999N1+02181+01801100991ADDAA106000091GA1001+999999999GF100991001001999999001001KA1240M+02861MA1999999092681MD1999999-0141REMSYN070AAXX  08004 83182 329// 00905 10218 20180 39268 40099 333 10286 59014;EQDQ01  00002PRCP06
0186831820999992000010812004-11300-041870FM-12+074799999V0200901N003610075019N0040001N1+02331+01811101231ADDAA106000091GF106991061051008001001001KA1240N+01861MA1999999092891MD1999999+0001REMSYN076AAXX  08124 83182 32596 60907 10233 20181 39289 40123 86500 333 20186 58000;EQDQ01  00002PRCP06
0167831820999992000010818004-11300-041870FM-12+074799999V0200901N005112200019N0100001N1+02831+01741100801ADDAA106000091GF104991031021008001041011MA1999999092521MD1999999-0031REMSYN070AAXX  08184 83182 32597 40910 10283 20174 39252 40080 83241 333 59003;EQDQ01  00002PRCP06
0186831820999992000010912004-11300-041870FM-12+074799999V0200901N004110075019N0100001N1+02201+01781101431ADDAA106000091GF108991081051008001999999KA1240N+01921MA1999999093061MD1999999+0171REMSYN076AAXX  09124 83182 32597 80908 10220 20178 39306 40143 885// 333 20192 58017;EQDQ01  00002PRCP06
0195831820999992000010918004-11300-041870FM-12+074799999V0201401N004610450019N0046001N1+02661+01771101121ADDAA106000091AY121061AY221061GF108991011031000751051999MA1999999092801MD1999999+0281MW1151REMSYN076AAXX  09184 83182 32146 81409 10266 20177 39280 40112 71522 8135/ 333 58028;EQDQ01  00002PRCP06
0186831820999992000011000004-11300-041870FM-12+074799999V0201401N002612200019N9999999N1+02211+01721101281ADDAA106000091GF108991011021008001001011KA1240M+02681MA1999999092931MD1999999+0121REMSYN076AAXX  10004 83182 325// 81405 10221 20172 39293 40128 81201 333 10268 58012;EQDQ01  00002PRCP06
0186831820999992000011012004-11300-041870FM-12+074799999V0200901N004110075019N0100001N1+02411+01821101321ADDAA106000091GF106991051021008001001011KA1240N+01761MA1999999092981MD1999999-0081REMSYN076AAXX  10124 83182 32597 60908 10241 20182 39298 40132 85201 333 20176 59008;EQDQ01  00002PRCP06
0167831820999992000011018004-11300-041870FM-12+074799999V0200901N003112200019N0100001N1+02921+01741100951ADDAA106000091GF102991011021008001001011MA1999999092661MD1999999-0141REMSYN070AAXX  10184 83182 32597 20906 10292 20174 39266 40095 81201 333 59014;EQDQ01  00002PRCP06
0196831820999992000011100004-11300-041870FM-12+074799999V0200901N004112200019N9999999N1+02271+01861101151ADDAA106000091GA1001+999999999GF100991001001999999001001KA1240M+02961MA1999999092841MD1999999-0091REMSYN070AAXX  11004 83182 329// 00908 10227 20186 39284 40115 333 10296 59009;EQDQ01  00002PRCP06
0186831820999992000011112004-11300-041870FM-12+074799999V0201401N005110075019N0100001N1+02241+01751101311ADDAA106000091GF108991081051008001999999KA1240N+01801MA1999999092961MD1999999-0021REMSYN076AAXX  11124 83182 32597 81410 10224 20175 39296 40131 885// 333 20180 59002;EQDQ01  00002PRCP06
0167831820999992000011118004-11300-041870FM-12+074799999V0200901N003612200019N0100001N1+02881+01601100911ADDAA106000091GF104991021021008001001011MA1999999092621MD1999999-0041REMSYN070AAXX  11184 83182 32597 40907 10288 20160 39262 40091 82201 333 59004;EQDQ01  00002PRCP06
0186831820999992000011200004-11300-041870FM-12+074799999V0201401N005112200019N9999999N1+02201+01821101111ADDAA106000091GF104991001001999999001011KA1240M+02961MA1999999092771MD1999999-0071REMSYN076AAXX  12004 83182 329// 41410 10220 20182 39277 40111 80001 333 10296 59007;EQDQ01  00002PRCP06
0186831820999992000011212004-11300-041870FM-12+074799999V0200901N004110075019N0100001N1+02251+01731101271ADDAA106000091GF108991081051008001999999KA1240N+01851MA1999999092921MD1999999-0041REMSYN076AAXX  12124 83182 32597 80908 10225 20173 39292 40127 885// 333 20185 59004;EQDQ01  00002PRCP06
0167831820999992000011218004-11300-041870FM-12+074799999V0201401N002610075019N0100001N1+02851+01571100881ADDAA106000091GF107991051021008001001011MA1999999092601MD1999999-0021REMSYN070AAXX  12184 83182 32597 71405 10285 20157 39260 40088 85201 333 59002;EQDQ01  00002PRCP06
0186831820999992000011300004-11300-041870FM-12+074799999V0201401N002610450019N9999999N1+02291+01731101081ADDAA106000091GF108991021021008001011011KA1240M+02911MA1999999092751MD1999999-0021REMSYN076AAXX  13004 83182 325// 81405 10229 20173 39275 40108 82211 333 10291 59002;EQDQ01  00002PRCP06
0186831820999992000011312004-11300-041870FM-12+074799999V0201401N004612200019N0100001N1+02371+01801101351ADDAA106000091GF107991031021008001001011KA1240N+01921MA1999999093021MD1999999+0101REMSYN076AAXX  13124 83182 32597 71409 10237 20180 39302 40135 83201 333 20192 58010;EQDQ01  00002PRCP06
0167831820999992000011318004-11300-041870FM-12+074799999V0201401N003110075019N0100001N1+02911+01721100971ADDAA106000091GF108991051021008001051011MA1999999092681MD1999999+0081REMSYN070AAXX  13184 83182 32597 81406 10291 20172 39268 40097 85251 333 58008;EQDQ01  00002PRCP06
0190831820999992000011400004-11300-041870FM-12+074799999V0201401N004112200019N9999999N1+02341+01761101071ADDAA199000091GF108991041021008001001011KA1240M+02921MA1999999092761MD1999999+0011REMSYN080    AAXX  14004 83182 325// 81408 10234 20176 39276 40107 84201 333 10292 58001;EQDQ01  00002PRCP99
0190831820999992000011412004-11300-041870FM-12+074799999V0201401N003612200019N0100001N1+02401+01861101261ADDAA199000091GF102991011021008001001011KA1240N+01741MA1999999092941MD1999999-0081REMSYN080    AAXX  14124 83182 32597 21407 10240 20186 39294 40126 81201 333 20174 59008;EQDQ01  00002PRCP99
0171831820999992000011418004-11300-041870FM-12+074799999V0201801N003112200019N0100001N1+03031+01511100831ADDAA199000091GF102991011021008001001011MA1999999092551MD1999999-0131REMSYN074    AAXX  14184 83182 32597 21806 10303 20151 39255 40083 81201 333 59013;EQDQ01  00002PRCP99
0200831820999992000011500004-11300-041870FM-12+074799999V0200901N003112200019N9999999N1+02341+01691100911ADDAA199000091GA1001+999999999GF100991001001999999001001KA1240M+03061MA1999999092611MD1999999-0151REMSYN074    AAXX  15004 83182 329// 00906 10234 20169 39261 40091 333 10306 59015;EQDQ01  00002PRCP99
0190831820999992000011512004-11300-041870FM-12+074799999V0201401N003612200019N0100001N1+02331+01761101131ADDAA199000091GF102991021021008001001001KA1240N+01781MA1999999092821MD1999999-0121REMSYN080    AAXX  15124 83182 32597 21407 10233 20176 39282 40113 82200 333 20178 59012;EQDQ01  00002PRCP99
0171831820999992000011518004-11300-041870FM-12+074799999V0201401N003112200019N0100001N1+03151+01271100701ADDAA199000091GF101991011021008001001001MA1999999092451MD1999999-0101REMSYN074    AAXX  15184 83182 32597 11406 10315 20127 39245 40070 81200 333 59010;EQDQ01  00002PRCP99
0190831820999992000011612004-11300-041870FM-12+074799999V0200901N003112200019N0040001N1+02511+01731101081ADDAA199000091GF101991001001999999001011KA1240N+01741MA1999999092801MD1999999-0021REMSYN080    AAXX  16124 83182 32996 10906 10251 20173 39280 40108 80001 333 20174 59002;EQDQ01  00002PRCP99
0171831820999992000011618004-11300-041870FM-12+074799999V0201801N001512200019N0100001N1+03251+01361100661ADDAA199000091GF102991011021008001001011MA1999999092431MD1999999-0021REMSYN074    AAXX  16184 83182 32597 21803 10325 20136 39243 40066 81201 333 59002;EQDQ01  00002PRCP99
0190831820999992000011712004-11300-041870FM-12+074799999V0200901N002112200019N0040001N1+02611+01841101221ADDAA199000091GF102991011001017501051011KA1240N+01821MA1999999092951MD1999999+0151REMSYN080    AAXX  17124 83182 32796 20904 10261 20184 39295 40122 81051 333 20182 58015;EQDQ01  00002PRCP99
0171831820999992000011718004-11300-041870FM-12+074799999V0200501N001512200019N0100001N1+03091+01751100781ADDAA199000091GF106991021031008001001011MA1999999092541MD1999999+0111REMSYN074    AAXX  17184 83182 32597 60503 10309 20175 39254 40078 82301 333 58011;EQDQ01  00002PRCP99
0190831820999992000011800004-11300-041870FM-12+074799999V0200901N003612200019N9999999N1+02431+01771101101ADDAA199000091GF102991001001999999001011KA1240M+03191MA1999999092821MD1999999+0171REMSYN080    AAXX  18004 83182 329// 20907 10243 20177 39282 40110 80001 333 10319 58017;EQDQ01  00002PRCP99
0218831820999992000011812004-11300-041870FM-12+074799999V0200901N002612200019N0020001N1+02431+01821101421ADDAA199000091AY111061AY211061GF105991021021008001001011KA1240N+01761MA1999999093101MD1999999+0151MW1051REMSYN086    AAXX  18124 83182 31595 50905 10243 20182 39310 40142 70511 82201 333 20176 58015;EQDQ01  00002PRCP99
0171831820999992000011818004-11300-041870FM-12+074799999V0203201N001512200019N0040001N1+03191+01691100881ADDAA199000091GF105991031021008001001011MA1999999092621MD1999999+0081REMSYN074    AAXX  18184 83182 32596 53203 10319 20169 39262 40088 83201 333 58008;EQDQ01  00002PRCP99
0190831820999992000011900004-11300-041870FM-12+074799999V0201401N002110450019N9999999N1+02591+01771101031ADDAA199000091GF106991011021008001051011KA1240M+03211MA1999999092751MD1999999-0071REMSYN080    AAXX  19004 83182 325// 61404 10259 20177 39275 40103 81251 333 10321 59007;EQDQ01  00002PRCP99
0190831820999992000011912004-11300-041870FM-12+074799999V0203601N003612200019N0040001N1+02611+01941101301ADDAA199000091GF108991031021008001001011KA1240N+01951MA1999999093021MD1999999-0081REMSYN080    AAXX  19124 83182 32596 83607 10261 20194 39302 40130 83201 333 20195 59008;EQDQ01  00002PRCP99
0152831820999992000011918004-11300-041870FM-12+074799999V0202301N002619999999N0100001N1+03321+01521100791ADDAA199000091GF106991999999008001999999MA1999999092551REMSYN069AAXX  19184 83182 32597 62305 10332 20152 39255 40079 8221 333 59007;EQDQ01  00002PRCP99
0186831820999992000012012004-11300-041870FM-12+074799999V0203201N004110450019N0100001N1+02591+01991101141ADDAA199000091GF108991031021008001051011KA1240N+02161MA1999999092871MD1999999-0151REMSYN076AAXX  20124 83182 32597 83208 10259 20199 39287 40114 83251 333 20216 59015;EQDQ01  00002PRCP99
0167831820999992000012018004-11300-041870FM-12+074799999V0202701N005111050019N0100001N1+03151+01871100621ADDAA199000091GF108991021021008001001021MA1999999092411MD1999999-0141REMSYN070AAXX  20184 83182 32597 82710 10315 20187 39241 40062 82202 333 59014;EQDQ01  00002PRCP99
0214831820999992000012100004-11300-041870FM-12+074799999V0202701N001010450019N9999999N1+02551+02061101011ADDAA199000091AY121061AY221061GF108991031021008001051011KA1240M+03201MA1999999092741MD1999999+0031MW1131REMSYN082AAXX  21004 83182 315// 82702 10255 20206 39274 40101 71322 83251 333 10320 58003;EQDQ01  00002PRCP99
0195831820999992000012112004-11300-041870FM-12+074799999V0203601N004110075019N0200001N1+02231+02071999999ADDAA124007191AY161061AY221061GF108991081051008001999999KA1240N+02041MA1999999092891MD1999999+0021MW1021REMSYN082AAXX  21124 83182 21598 83608 10223 20207 39289 70262 885// 333 20204 58002 60074;
0167831820999992000012118004-11300-041870FM-12+074799999V0203201N003110075019N0100001N1+02521+02021100901ADDAA199000091GF108991051051008001011011MA1999999092601MD1999999+0191REMSYN070AAXX  21184 83182 32597 83206 10252 20202 39260 40090 85511 333 58019;EQDQ01  00002PRCP99
0186831820999992000012200004-11300-041870FM-12+074799999V0203201N001010450019N9999999N1+02291+02071101211ADDAA199000091GF108991041061004501011999KA1240M+02571MA1999999092871MD1999999+0131REMSYN076AAXX  22004 83182 324// 83202 10229 20207 39287 40121 8461/ 333 10257 58013;EQDQ01  00002PRCP99
0201831820999992000012212004-11300-041870FM-12+074799999V0202301N001010042019N0200001N1+02081+01931101341ADDAA124013091AY161061AY221061GF108991081071004501999999KA1240N+01941MA1999999092981MD1999999+0091MW1211REMSYN088AAXX  22124 83182 21498 82302 10208 20193 39298 40134 72162 887// 333 20194 58009 60134;
0148831820999992000012218004-11300-041870FM-12+074799999V0202701N003610450019N0100001N1+02721+02171100971ADDAA199000021GF108991021021008001051011MA1999999092681MD1999999+0081REMSYN070AAXX  22184 83182 32597 82707 10272 20217 39268 40097 82251 333 58008;
0190831820999992000012300004-11300-041870FM-12+074799999V0203201N001510042019N9999999N1+02071+01961101291ADDAY161061AY221061GF108991081071004501999999KA1240M+02781MA1999999092981MD1999999+0051MW1021REMSYN088AAXX  23004 83182 214// 83203 10207 20196 39298 40129 70262 887// 333 10278 58005 99416;
0201831820999992000012312004-11300-041870FM-12+074799999V0202701N001510450019N0100001N1+02271+02071101321ADDAA124000891AY161061AY221061GF107991031021008001051011KA1240N+02001MA1999999092951MD1999999-0031MW1031REMSYN088AAXX  23124 83182 21597 72703 10227 20207 39295 40132 70362 83251 333 20200 59003 69974;
0167831820999992000012318004-11300-041870FM-12+074799999V0203601N003112200019N0100001N1+02871+02091100801ADDAA199000091GF106991041031004501001011MA1999999092531MD1999999-0151REMSYN070AAXX  23184 83182 32497 63606 10287 20209 39253 40080 84301 333 59015;EQDQ01  00002PRCP99
0201831820999992000012400004-11300-041870FM-12+074799999V0203601N002110042019N9999999N1+01931+01871101251ADDAA106100191AY191061AY291061GF108991051031004501021999KA1240M+02981MA1999999092881MD1999999-0101MW1291REMSYN088AAXX  24004 83182 214// 83604 10193 20187 39288 40125 72999 8532/ 333 10298 59010 61001;
0167831820999992000012412004-11300-041870FM-12+074799999V0202301N002119999999N0100001N1+02411+02241999999ADDGF107991999999008001999999KA1240N+01921MA1999999092891MD1999999-0061REMSYN087AAXX  24124 83182 21597 72304 10241 20224 39289 0125 70392 83551 333 20192 59006 61054;
0195831820999992000012418004-11300-041870FM-12+074799999V0200501N005110042019N0020001N1+02561+02171100821ADDAA199000091AY121061AY221061GF108991051031004501021011MA1999999092521MD1999999-0011MW1091REMSYN076AAXX  24184 83182 31495 80510 10256 20217 39252 40082 70922 85321 333 59001;EQDQ01  00002PRCP99
0186831820999992000012512004-11300-041870FM-12+074799999V0200901N002110450019N0100001N1+02381+02211101351ADDAA199000091GF108991031031004501031021KA1240N+02081MA1999999093011MD1999999+0121REMSYN076AAXX  25124 83182 32497 80904 10238 20221 39301 40135 83332 333 20208 58012;EQDQ01  00002PRCP99
0167831820999992000012518004-11300-041870FM-12+074799999V0203601N002612200019N0100001N1+02971+99999100841ADDAA199000091GF104991031021008001001011MA1999999092581MD1999999+0061REMSYN070AAXX  25184 83182 32597 43605 10297 2//// 39258 40084 83201 333 58006;EQDQ01  00002PRCP99
0201831820999992000012612004-11300-041870FM-12+074799999V0200501N001510042019N0020001N1+02311+99999101471ADDAA124005191AY191061AY221061GF108991071051004501001011KA1240N+01941MA1999999093111MD1999999+0101MW1101REMSYN088AAXX  26124 83182 21495 80503 10231 20/// 39311 40147 71092 87501 333 20194 58010 60054;
0167831820999992000012618004-11300-041870FM-12+074799999V0203601N004112200019N0040001N1+02851+99999101021ADDAA199000091GF102991011021008001031011MA1999999092741MD1999999+0161REMSYN070AAXX  26184 83182 32596 23608 10285 20/// 39274 40102 81231 333 58016;EQDQ01  00002PRCP99
0186831820999992000012712004-11300-041870FM-12+074799999V0201401N001519999999N0040001N1+02611+99999101331ADDAA199000091GF108991001001999999001011KA1240N+01961MA1999999093031MD1999999-0081REMSYN076AAXX  27124 83182 32996 81403 10261 20/// 39303 40133 80001 333 20196 59008;EQDQ01  00002PRCP99
0167831820999992000012718004-11300-041870FM-12+074799999V0202701N002112200019N0100001N1+03141+99999100861ADDAA199000091GF107991011021008001001011MA1999999092611MD1999999-0131REMSYN070AAXX  27184 83182 32597 72704 10314 2//// 39261 40086 81201 333 59013;EQDQ01  00002PRCP99
0214831820999992000012800004-11300-041870FM-12+074799999V0200901N002110042019N9999999N1+02471+99999101181ADDAA199000091AY121061AY221061GF108991051031004501021011KA1240M+03141MA1999999092891MD1999999+0021MW1131REMSYN082AAXX  28004 83182 314// 80904 10247 20/// 39289 40118 71322 85321 333 10314 58002;EQDQ01  00002PRCP99
0195831820999992000012818004-11300-041870FM-12+074799999V0200901N001510450019N0040001N1+02931+99999100901ADDAA199000091AY121061AY221061GF108991021031004501011031MA1999999092631MD1999999+0021MW1151REMSYN076AAXX  28184 83182 31496 80903 10293 20/// 39263 40090 71522 82313 333 58002;EQDQ01  00002PRCP99
0201831820999992000012912004-11300-041870FM-12+074799999V0201401N003619999999N0020001N1+02391+99999101371ADDAA124000191AY191061AY221061GF108991001001999999001021KA1240N+02121MA1999999093031MD1999999-0061MW1051REMSYN088AAXX  29124 83182 21995 81407 10239 20/// 39303 40137 70592 80002 333 20212 59006 69914;
0167831820999992000012918004-11300-041870FM-12+074799999V0200501N004612200019N0100001N1+03061+99999100971ADDAA199000091GF106991011021008001001011MA1999999092711MD1999999+0081REMSYN070AAXX  29184 83182 32597 60509 10306 20/// 39271 40097 81201 333 58008;EQDQ01  00002PRCP99
0186831820999992000013000004-11300-041870FM-12+074799999V0200901N002112200019N9999999N1+02231+99999101331ADDAA199000091GF104991001001999999001011KA1240M+03071MA1999999092991MD1999999+0111REMSYN076AAXX  30004 83182 329// 40904 10223 2//// 39299 40133 80001 333 10307 58011;EQDQ01  00002PRCP99
0186831820999992000013012004-11300-041870FM-12+074799999V0200901N005112200019N0100001N1+02471+99999101511ADDAA199000091GF107991011021008001001011KA1240N+01901MA1999999093161MD1999999+0131REMSYN076AAXX  30124 83182 32597 70910 10247 2//// 39316 40151 81201 333 20190 58013;EQDQ01  00002PRCP99
0167831820999992000013018004-11300-041870FM-12+074799999V0200901N004112200019N0100001N1+03011+99999101181ADDAA199000091GF107991021021008001001011MA1999999092891MD1999999+0181REMSYN070AAXX  30184 83182 32597 70908 10301 2//// 39289 40118 82201 333 58018;EQDQ01  00002PRCP99
0186831820999992000013112004-11300-041870FM-12+074799999V0200901N004610075019N0100001N1+02481+99999101761ADDAA199000091GF107991071051008001001001KA1240N+01941MA1999999093381MD1999999+0221REMSYN076AAXX  31124 83182 32597 70909 10248 2//// 39338 40176 87500 333 20194 58022;EQDQ01  00002PRCP99
0167831820999992000013118004-11300-041870FM-12+074799999V0201801N002112200019N0100001N1+03011+99999101291ADDAA199000091GF103991021021008001001011MA1999999092991MD1999999+0101REMSYN070AAXX  31184 83182 32597 31804 10301 2//// 39299 40129 82201 333 58010;EQDQ01  00002PRCP99
0190831820999992000020112004-11300-041870FM-12+074799999V0200901N003112200019N0100001N1+02491+99999101641ADDAA199000091GF102991011021008001001011IA1029IA2999+00909KA1240N+01841MA1999999093291REMSYN076AAXX  01124 83182 32597 20906 10249 20/// 39329 40164 81201 333 20184 39009;EQDQ01  00002PRCP99
0195831820999992000020118004-11300-041870FM-12+074799999V0203601N001512200019N0040001N1+03131+99999101131ADDAA199000091AY101061AY201061GF102991011021008001001011MA1999999092851MD1999999-0141MW1151REMSYN076AAXX  01184 83182 31596 23603 10313 20/// 39285 40113 71500 81201 333 59014;EQDQ01  00002PRCP99
0186831820999992000020200004-11300-041870FM-12+074799999V0200901N002112200019N9999999N1+02551+99999101191ADDAA199000091GF102991021021008001001001KA1240M+03141MA1999999092901MD1999999-0151REMSYN076AAXX  02004 83182 325// 20904 10255 20/// 39290 40119 82200 333 10314 59015;EQDQ01  00002PRCP99
0214831820999992000020212004-11300-041870FM-12+074799999V0200501N001519999999N0020001N1+02691+99999101291ADDAA199000091AY111061AY211061GF108991001001999999001011KA1240N+01921MA1999999093011MD1999999-0281MW1051REMSYN082AAXX  02124 83182 31995 80503 10269 20/// 39301 40129 70511 80001 333 20192 59028;EQDQ01  00002PRCP99
0186831820999992000020300004-11300-041870FM-12+074799999V0203601N002119999999N9999999N1+02631+99999101071ADDAA199000091GF106991001001999999001011KA1240M+03261MA1999999092811MD1999999-0091REMSYN076AAXX  03004 83182 329// 63604 10263 20/// 39281 40107 80001 333 10326 59009;EQDQ01  00002PRCP99
0186831820999992000020312004-11300-041870FM-12+074799999V0203201N003612200019N0100001N1+02681+99999101121ADDAA199000091GF108991011021008001001011KA1240N+02101MA1999999092841MD1999999-0171REMSYN076AAXX  03124 83182 32597 83207 10268 20/// 39284 40112 81201 333 20210 59017;EQDQ01  00002PRCP99
0167831820999992000020318004-11300-041870FM-12+074799999V0203201N003112200019N0100001N1+03071+99999100651ADDAA199000091GF108991041031004501001011MA1999999092421MD1999999-0211REMSYN070AAXX  03184 83182 32497 83206 10307 20/// 39242 40065 84301 333 59021;EQDQ01  00002PRCP99
0214831820999992000020400004-11300-041870FM-12+074799999V0203201N005110450019N9999999N1+02451+99999101001ADDAA199000091AY121061AY221061GF108991041031004501011011KA1240M+03161MA1999999092731MD1999999-0081MW1131REMSYN082AAXX  04004 83182 314// 83210 10245 20/// 39273 40100 71322 84311 333 10316 59008;EQDQ01  00002PRCP99
0201831820999992000020412004-11300-041870FM-12+074799999V0203201N002610450019N0100001N1+02401+99999101211ADDAA124016091AY161061AY261061GF108991011021008001011011KA1240N+02021MA1999999092901MD1999999+0061MW1021REMSYN088AAXX  04124 83182 21597 83205 10240 20/// 39290 40121 70266 81211 333 20202 58006 60164;
0167831820999992000020418004-11300-041870FM-12+074799999V0203601N003610450019N0040001N1+02751+99999100951ADDAA199000091GF108991011021008001011999MA1999999092661MD1999999+0241REMSYN070AAXX  04184 83182 32596 83607 10275 20/// 39266 40095 8121/ 333 58024;EQDQ01  00002PRCP99
0201831820999992000020512004-11300-041870FM-12+074799999V0202301N001010150019N0100001N1+02451+99999101451ADDAA124015091AY161061AY221061GF108991051001017501051011KA1240N+01991MA1999999093091MD1999999+0191MW1021REMSYN088AAXX  05124 83182 21797 82302 10245 2//// 39309 40145 70262 85051 333 20199 58019 60154;
0189831820999992000020518004-11300-041870FM-12+074799999V0203201N003112200019N0020001N1+02891+99999101061ADDAA199000091AY121061AY221061GF108991021031004501001011MA1999999092771MD1999999+0111MW1161REMSYN070AAXX  05184 83182 31495 83206 10289 39277 40106 71622 82301 333 58011;EQDQ01  00002PRCP99
0201831820999992000020612004-11300-041870FM-12+074799999V0201401N002110450019N0200001N1+02311+99999101561ADDAA124013091AY191061AY221061GF108991011021008001051011KA1240N+01861MA1999999093181MD1999999+0091MW1021REMSYN088AAXX  06124 83182 21598 81404 10231 20/// 39318 40156 70292 81251 333 20186 58009 60134;
0182831820999992000020618004-11300-041870FM-12+074799999V0202701N001010450019N0040001N1+02611+99999101101ADDAA106005191AY191061AY221061GF108991021031004501011011MA1999999092791MD1999999+0021MW1151REMSYN082AAXX  06184 83182 21496 82702 10261 20/// 39279 40110 71592 82311 333 58002 60051;
0201831820999992000020700004-11300-041870FM-12+074799999V0200501N001010450019N9999999N1+02061+99999101371ADDAA106019191AY161061AY221061GF107991031021008001011001KA1240M+02761MA1999999093011MD1999999+0031MW1211REMSYN088AAXX  07004 83182 215// 70502 10206 20/// 39301 40137 72162 83210 333 10276 58003 60191;
0173831820999992000020712004-11300-041870FM-12+074799999V0200901N002112200019N0100001N1+02551+99999101471ADDAA124023991GF102991011021008001041021KA1240N+01941MA1999999093121MD1999999-0061REMSYN082AAXX  07124 83182 22597 20904 10255 20/// 39312 40147 81242 333 20194 59006 60244;
0167831820999992000020718004-11300-041870FM-12+074799999V0200501N001512200019N0100001N1+02951+99999101101ADDAA199000091GF102991011021008001001011MA1999999092811MD1999999+0021REMSYN070AAXX  07184 83182 32597 20503 10295 2//// 39281 40110 81201 333 58002;EQDQ01  00002PRCP99
0186831820999992000020800004-11300-041870FM-12+074799999V0203201N003110075019N9999999N1+02391+99999101341ADDAA199000091GF106991051021008001051011KA1240M+02961MA1999999093031MD1999999+0021REMSYN076AAXX  08004 83182 325// 63206 10239 20/// 39303 40134 85251 333 10296 58002;EQDQ01  00002PRCP99
0186831820999992000020812004-11300-041870FM-12+074799999V0200901N002612200019N0040001N1+02431+99999101471ADDAA199000091GF102991011021008001001011KA1240N+01941MA1999999093141MD1999999+0021REMSYN076AAXX  08124 83182 32596 20905 10243 2//// 39314 40147 81201 333 20194 58002;EQDQ01  00002PRCP99
0167831820999992000020818004-11300-041870FM-12+074799999V0201801N003110075019N0100001N1+02931+99999101031ADDAA199000091GF106991051021008001001011MA1999999092751MD1999999-0061REMSYN070AAXX  08184 83182 32597 61806 10293 2//// 39275 40103 85201 333 59006;EQDQ01  00002PRCP99
0186831820999992000020900004-11300-041870FM-12+074799999V0200901N003612200019N9999999N1+02271+99999101321ADDAA199000091GF104991011021008001001011KA1240M+02961MA1999999092991MD1999999-0041REMSYN076AAXX  09004 83182 325// 40907 10227 20/// 39299 40132 81201 333 10296 59004;EQDQ01  00002PRCP99
0186831820999992000020912004-11300-041870FM-12+074799999V0200901N004110075019N0100001N1+02411+99999101501ADDAA199000091GF107991061021008001001011KA1240N+01881MA1999999093121MD1999999-0011REMSYN076AAXX  09124 83182 32597 70908 10241 20/// 39312 40150 86201 333 20188 59001;EQDQ01  00002PRCP99
0167831820999992000020918004-11300-041870FM-12+074799999V0200901N003112200019N0100001N1+02901+99999101021ADDAA199000091GF106991041021008001001011MA1999999092731MD1999999-0021REMSYN070AAXX  09184 83182 32597 60906 10290 20/// 39273 40102 84201 333 59002;EQDQ01  00002PRCP99
0186831820999992000021012004-11300-041870FM-12+074799999V0200501N004610075019N0100001N1+02411+99999101431ADDAA199000091GF106991061021008001001001KA1240N+01741MA1999999093071MD1999999-0081REMSYN076AAXX  10124 83182 32597 60509 10241 20/// 39307 40143 86200 333 20174 59008;EQDQ01  00002PRCP99
0167831820999992000021018004-11300-041870FM-12+074799999V0203601N001012200019N0100001N1+02991+99999101031ADDAA199000091GF104991031021008001001011MA1999999092731MD1999999+0001REMSYN070AAXX  10184 83182 32597 43602 10299 20/// 39273 40103 83201 333 58000;EQDQ01  00002PRCP99
0186831820999992000021100004-11300-041870FM-12+074799999V02099999999992200019N9999999N1+02391+99999101221ADDAA199000091GF102991011021008001001011KA1240M+03041MA1999999092911MD1999999-0061REMSYN076AAXX  11004 83182 325// 2010/ 10239 20/// 39291 40122 81201 333 10304 59006;EQDQ01  00002PRCP99
0186831820999992000021112004-11300-041870FM-12+074799999V0201401N004112200019N0100001N1+02471+99999101411ADDAA199000091GF108991041021008001001011KA1240N+01881MA1999999093091MD1999999+0021REMSYN076AAXX  11124 83182 32597 81408 10247 2//// 39309 40141 84201 333 20188 58002;EQDQ01  00002PRCP99
0182831820999992000021118004-11300-041870FM-12+074799999V0202301N000510450019N0040001N1+02761+99999101041ADDAA106003091AY161061AY221061GF106991031031008001061011MA1999999092741MD1999999+0011MW1161REMSYN082AAXX  11184 83182 21596 62301 10276 2//// 39274 40104 71662 83361 333 58001 60031;
0186831820999992000021200004-11300-041870FM-12+074799999V0201401N003112200019N9999999N1+02231+99999101091ADDAA199000091GF103991021001017501041011KA1240M+02861MA1999999092781MD1999999-0131REMSYN076AAXX  12004 83182 327// 31406 10223 20/// 39278 40109 82041 333 10286 59013;EQDQ01  00002PRCP99
0173831820999992000021212004-11300-041870FM-12+074799999V0201401N004612200019N0100001N1+02401+99999101491ADDAA124002091GF101991011011012501001001KA1240N+01821MA1999999093141MD1999999+0051REMSYN082AAXX  12124 83182 22697 11409 10240 20/// 39314 40149 81100 333 20182 58005 60024;
0167831820999992000021218004-11300-041870FM-12+074799999V0201801N004610075019N0040001N1+02811+99999100921ADDAA199000091GF106991051021008001001011MA1999999092621MD1999999-0121REMSYN070AAXX  12184 83182 32596 61809 10281 20/// 39262 40092 85201 333 59012;EQDQ01  00002PRCP99
0196831820999992000021300004-11300-041870FM-12+074799999V0201401N002612200019N9999999N1+02061+99999101161ADDAA199000091GA1001+999999999GF100991001001999999001001KA1240M+02851MA1999999092831MD1999999-0051REMSYN070AAXX  13004 83182 329// 01405 10206 20/// 39283 40116 333 10285 59005;EQDQ01  00002PRCP99
0186831820999992000021312004-11300-041870FM-12+074799999V0201401N003110075019N0100001N1+02381+99999101361ADDAA199000091GF106991061021008001001001KA1240N+01781MA1999999093001MD1999999-0141REMSYN076AAXX  13124 83182 32597 61406 10238 20/// 39300 40136 86200 333 20178 59014;EQDQ01  00002PRCP99
0167831820999992000021318004-11300-041870FM-12+074799999V0201401N003112200019N0100001N1+02991+99999100991ADDAA199000091GF106991041021008001001011MA1999999092701MD1999999+0081REMSYN070AAXX  13184 83182 32597 61406 10299 20/// 39270 40099 84201 333 58008;EQDQ01  00002PRCP99
0186831820999992000021400004-11300-041870FM-12+074799999V0201401N004612200019N9999999N1+02311+99999101281ADDAA199000091GF108991011001017501041011KA1240M+03001MA1999999092951MD1999999+0121REMSYN076AAXX  14004 83182 327// 81409 10231 20/// 39295 40128 81041 333 10300 58012;EQDQ01  00002PRCP99
0186831820999992000021412004-11300-041870FM-12+074799999V0201401N005710075019N0100001N1+02431+99999101581ADDAA199000091GF108991081051008001999999KA1240N+01941MA1999999093231MD1999999+0231REMSYN076AAXX  14124 83182 32597 81411 10243 2//// 39323 40158 885// 333 20194 58023;EQDQ01  00002PRCP99
0167831820999992000021418004-11300-041870FM-12+074799999V0200901N004110450019N0100001N1+02651+99999101131ADDAA199000091GF108991011021008001041011MA1999999092831MD1999999+0131REMSYN070AAXX  14184 83182 32597 80908 10265 2//// 39283 40113 81241 333 58013;EQDQ01  00002PRCP99
0186831820999992000021500004-11300-041870FM-12+074799999V0200901N002610450019N9999999N1+02191+99999101411ADDAA199000091GF108991011021008001041011KA1240M+02761MA1999999093061MD1999999+0111REMSYN076AAXX  15004 83182 325// 80905 10219 20/// 39306 40141 81241 333 10276 58011;EQDQ01  00002PRCP99
0186831820999992000021512004-11300-041870FM-12+074799999V0201401N005112200019N0100001N1+02421+99999101381ADDAA199000091GF108991011021008001001011KA1240N+01901MA1999999093041MD1999999-0191REMSYN076AAXX  15124 83182 32597 81410 10242 20/// 39304 40138 81201 333 20190 59019;EQDQ01  00002PRCP99
0167831820999992000021518004-11300-041870FM-12+074799999V0201401N002112200019N0100001N1+02851+99999100961ADDAA199000091GF108991031021008001001011MA1999999092671MD1999999-0161REMSYN070AAXX  15184 83182 32597 81404 10285 20/// 39267 40096 83201 333 59016;EQDQ01  00002PRCP99
0186831820999992000021600004-11300-041870FM-12+074799999V0201401N002619999999N9999999N1+02191+99999101221ADDAA199000091GF108991001001999999001011KA1240M+02961MA1999999092891MD1999999-0171REMSYN076AAXX  16004 83182 329// 81405 10219 20/// 39289 40122 80001 333 10296 59017;EQDQ01  00002PRCP99
0173831820999992000021612004-11300-041870FM-12+074799999V0201401N003110075019N0100001N1+02501+99999101411ADDAA124000591GF108991051021008001041011KA1240N+01881MA1999999093071MD1999999+0031REMSYN082AAXX  16124 83182 22597 81406 10250 20/// 39307 40141 85241 333 20188 58003 69944;
0167831820999992000021618004-11300-041870FM-12+074799999V0202301N002110075019N0100001N1+03041+99999100851ADDAA199000091GF106991051021008001001011MA1999999092581MD1999999-0091REMSYN070AAXX  16184 83182 32597 62304 10304 20/// 39258 40085 85201 333 59009;EQDQ01  00002PRCP99
0214831820999992000021700004-11300-041870FM-12+074799999V0200901N002110450019N9999999N1+02351+99999101171ADDAA199000091AY121061AY221061GF108991021031008001061021KA1240M+02961MA1999999092871MD1999999-0021MW1131REMSYN082AAXX  17004 83182 315// 80904 10235 20/// 39287 40117 71322 82362 333 10296 59002;EQDQ01  00002PRCP99
0186831820999992000021712004-11300-041870FM-12+074799999V0200901N003110450019N0100001N1+02391+99999101391ADDAA199000091GF108991021021008001051011KA1240N+01961MA1999999093051MD1999999-0021REMSYN076AAXX  17124 83182 32597 80906 10239 2//// 39305 40139 82251 333 20196 59002;EQDQ01  00002PRCP99
0167831820999992000021718004-11300-041870FM-12+074799999V0200901N003112200019N0100001N1+02841+99999100901ADDAA199000091GF108991031021008001001011MA1999999092621MD1999999+0041REMSYN070AAXX  17184 83182 32597 80906 10284 2//// 39262 40090 83201 333 58004;EQDQ01  00002PRCP99
0201831820999992000021800004-11300-041870FM-12+074799999V0202301N001010450019N9999999N1+02221+99999101221ADDAA106000591AY161061AY221061GF108991031071004501021999KA1240M+02851MA1999999092891MD1999999+0021MW1021REMSYN088AAXX  18004 83182 214// 82302 10222 20/// 39289 40122 70262 8372/ 333 10285 58002 69941;
0173831820999992000021812004-11300-041870FM-12+074799999V0200901N002110075019N0100001N1+02511+99999101431ADDAA124000591GF107991051021008001051011KA1240N+01961MA1999999093091MD1999999+0041REMSYN082AAXX  18124 83182 22597 70904 10251 20/// 39309 40143 85251 333 20196 58004 69944;
0182831820999992000021818004-11300-041870FM-12+074799999V0201401N005110450019N0040001N1+02511+99999100991ADDAA106001091AY161061AY221061GF108991031031008001061021MA1999999092681MD1999999+0061MW1161REMSYN082AAXX  18184 83182 21596 81410 10251 20/// 39268 40099 71662 83362 333 58006 60011;
0214831820999992000021900004-11300-041870FM-12+074799999V02099999999990450019N9999999N1+02101+99999101401ADDAA199000091AY121061AY221061GF108991021021008001061021KA1240M+02871MA1999999093051MD1999999+0161MW1131REMSYN082AAXX  19004 83182 315// 823// 10210 20/// 39305 40140 71322 82262 333 10287 58016;EQDQ01  00002PRCP99
0173831820999992000021912004-11300-041870FM-12+074799999V0201401N002612200019N0100001N1+02391+99999101571ADDAA124001091GF108991021021008001001011KA1240N+01921MA1999999093201MD1999999+0111REMSYN082AAXX  19124 83182 22597 81405 10239 20/// 39320 40157 82201 333 20192 58011 60014;
0167831820999992000021918004-11300-041870FM-12+074799999V0201401N003112200019N0100001N1+02931+99999101091ADDAA199000091GF103991031021008001001001MA1999999092811MD1999999+0131REMSYN070AAXX  19184 83182 32597 31406 10293 20/// 39281 40109 83200 333 58013;EQDQ01  00002PRCP99
0196831820999992000022000004-11300-041870FM-12+074799999V0201401N003612200019N9999999N1+02231+99999101341ADDAA199000091GA1001+999999999GF100991001001999999001001KA1240M+03031MA1999999093001MD1999999-0051REMSYN070AAXX  20004 83182 329// 01407 10223 20/// 39300 40134 333 10303 59005;EQDQ01  00002PRCP99
0186831820999992000022012004-11300-041870FM-12+074799999V0201401N005712200019N0100001N1+02501+99999101471ADDAA199000091GF102991011021008001041001KA1240N+01801MA1999999093131MD1999999-0071REMSYN076AAXX  20124 83182 32597 21411 10250 20/// 39313 40147 81240 333 20180 59007;EQDQ01  00002PRCP99
0167831820999992000022018004-11300-041870FM-12+074799999V0201401N005110450019N0100001N1+02751+99999101171ADDAA199000091GF106991021021008001051001MA1999999092851MD1999999+0041REMSYN070AAXX  20184 83182 32597 61410 10275 20/// 39285 40117 82250 333 58004;EQDQ01  00002PRCP99
0201831820999992000022100004-11300-041870FM-12+074799999V0201401N006210075019N9999999N1+02181+99999101321ADDAA106000191AY161061AY221061GF108991081051008001999999KA1240M+02881MA1999999092991MD1999999-0011MW1021REMSYN088AAXX  21004 83182 215// 81412 10218 20/// 39299 40132 70262 885// 333 10288 59001 69921;
0167831820999992000022118004-11300-041870FM-12+074799999V0201401N003110450019N0100001N1+02781+99999101031ADDAA199000091GF107991041021008001061001MA1999999092741MD1999999-0111REMSYN070AAXX  21184 83182 32597 71406 10278 2//// 39274 40103 84260 333 59011;EQDQ01  00002PRCP99
0186831820999992000022200004-11300-041870FM-12+074799999V0201401N004610450019N9999999N1+02131+99999101301ADDAA199000091GF106991021051008001051001KA1240M+02841MA1999999092951MD1999999-0041REMSYN076AAXX  22004 83182 325// 61409 10213 20/// 39295 40130 82550 333 10284 59004;EQDQ01  00002PRCP99
0186831820999992000022212004-11300-041870FM-12+074799999V0200901N005110075019N0100001N1+02451+99999101421ADDAA199000091GF107991071021008001001001KA1240N+02001MA1999999093071MD1999999-0091REMSYN076AAXX  22124 83182 32597 70910 10245 20/// 39307 40142 87200 333 20200 59009;EQDQ01  00002PRCP99
0167831820999992000022218004-11300-041870FM-12+074799999V0201401N007210075019N0100001N1+02711+99999101071ADDAA199000091GF105991051021008001001001MA1999999092741MD1999999+0001REMSYN070AAXX  22184 83182 32597 51414 10271 20/// 39274 40107 85200 333 58000;EQDQ01  00002PRCP99
0214831820999992000022300004-11300-041870FM-12+074799999V0201401N003612200019N9999999N1+02231+99999101181ADDAA199000091AY121061AY221061GF106991021051008001001011KA1240M+02921MA1999999092861MD1999999-0091MW1131REMSYN082AAXX  23004 83182 315// 61407 10223 20/// 39286 40118 71322 82501 333 10292 59009;EQDQ01  00002PRCP99
0186831820999992000022312004-11300-041870FM-12+074799999V0200901N005712200019N0100001N1+02581+99999101381ADDAA199000091GF105991031021008001001011KA1240N+01861MA1999999093051MD1999999-0021REMSYN076AAXX  23124 83182 32597 50911 10258 2//// 39305 40138 83201 333 20186 59002;EQDQ01  00002PRCP99
0201831820999992000022400004-11300-041870FM-12+074799999V0201401N003110450019N9999999N1+02131+99999101261ADDAA106004191AY161061AY261061GF108991031051008001061011KA1240M+02921MA1999999092941MD1999999+0081MW1131REMSYN088AAXX  24004 83182 215// 81406 10213 20/// 39294 40126 71366 83561 333 10292 58008 60041;
0173831820999992000022412004-11300-041870FM-12+074799999V0200901N004110450019N0100001N1+02471+99999101381ADDAA124004191GF108991031021008001041011KA1240N+02041MA1999999093041MD1999999-0011REMSYN082AAXX  24124 83182 22597 80908 10247 2//// 39304 40138 83241 333 20204 59001 60044;
0167831820999992000022418004-11300-041870FM-12+074799999V0200901N004112200019N0100001N1+02881+99999100941ADDAA199000091GF103991021021008001041001MA1999999092661MD1999999+0021REMSYN070AAXX  24184 83182 32597 30908 10288 20/// 39266 40094 82240 333 58002;EQDQ01  00002PRCP99
0196831820999992000022500004-11300-041870FM-12+074799999V0200901N003112200019N9999999N1+02991+99999101011ADDAA199000091GA1001+999999999GF100991001001999999001001KA1240M+02951MA1999999092721MD1999999-0021REMSYN070AAXX  25004 83182 329// 00906 10299 20/// 39272 40101 333 10295 59002;EQDQ01  00002PRCP99
0186831820999992000022512004-11300-041870FM-12+074799999V0201401N003110450019N0100001N1+02441+99999101301ADDAA199000091GF108991031021008001051011KA1240N+01841MA1999999092971MD1999999-0071REMSYN076AAXX  25124 83182 32597 81406 10244 20/// 39297 40130 83251 333 20184 59007;EQDQ01  00002PRCP99
0167831820999992000022518004-11300-041870FM-12+074799999V0201401N003110450019N0100001N1+03061+99999100831ADDAA199000091GF106991031021008001051011MA1999999092561MD1999999-0101REMSYN070AAXX  25184 83182 32597 61406 10306 20/// 39256 40083 83251 333 59010;EQDQ01  00002PRCP99
0214831820999992000022600004-11300-041870FM-12+074799999V0200901N002610450019N9999999N1+02381+99999101141ADDAA199000091AY121061AY221061GF108991021051008001041011KA1240M+03101MA1999999092841MD1999999+0121MW1131REMSYN082AAXX  26004 83182 315// 80905 10238 20/// 39284 40114 71322 82541 333 10310 58012;EQDQ01  00002PRCP99
0186831820999992000022612004-11300-041870FM-12+074799999V0200901N004112200019N0100001N1+02571+99999101291ADDAA199000091GF102991011021008001001011KA1240N+01921MA1999999092991MD1999999+0021REMSYN076AAXX  26124 83182 32597 20908 10257 2//// 39299 40129 81201 333 20192 58002;EQDQ01  00002PRCP99
0167831820999992000022618004-11300-041870FM-12+074799999V0201801N003110450019N0100001N1+02921+99999100921ADDAA199000091GF105991021031008001061001MA1999999092641MD1999999+0081REMSYN070AAXX  26184 83182 32597 51806 10292 2//// 39264 40092 82360 333 58008;EQDQ01  00002PRCP99
0196831820999992000022700004-11300-041870FM-12+074799999V0200901N002612200019N9999999N1+02371+99999101111ADDAA199000091GA1001+999999999GF100991001001999999001001KA1240M+03021MA1999999092821MD1999999-0021REMSYN070AAXX  27004 83182 329// 00905 10237 20/// 39282 40111 333 10302 59002;EQDQ01  00002PRCP99
0173831820999992000022712004-11300-041870FM-12+074799999V0200901N004112200019N0100001N1+02601+99999101331ADDAA124000891GF102991011021008001001011KA1240N+01861MA1999999093031MD1999999+0041REMSYN082AAXX  27124 83182 22597 20908 10260 20/// 39303 40133 81201 333 20186 58004 69984;
0167831820999992000022718004-11300-041870FM-12+074799999V0200501N002610450019N0100001N1+03001+99999100931ADDAA199000091GF108991041021008001051999MA1999999092651MD1999999-0011REMSYN070AAXX  27184 83182 32597 80505 10300 2//// 39265 40093 8425/ 333 59001;EQDQ01  00002PRCP99
0186831820999992000022800004-11300-041870FM-12+074799999V0200901N003110075019N9999999N1+02441+99999101121ADDAA199000091GF107991071051008001001001KA1240M+03021MA1999999092841MD1999999+0021REMSYN076AAXX  28004 83182 325// 70906 10244 20/// 39284 40112 87500 333 10302 58002;EQDQ01  00002PRCP99
0186831820999992000022812004-11300-041870FM-12+074799999V0200901N004110075019N0100001N1+02521+99999101321ADDAA199000091GF107991071021008001001001KA1240N+02081MA1999999093021MD1999999-0011REMSYN076AAXX  28124 83182 32597 70908 10252 20/// 39302 40132 87200 333 20208 59001;EQDQ01  00002PRCP99
0195831820999992000022818004-11300-041870FM-12+074799999V0200901N004110075019N0100001N1+02851+99999100901ADDAA199000091AY121061AY221061GF106991061021008001001001MA1999999092641MD1999999-0011MW1151REMSYN076AAXX  28184 83182 31597 60908 10285 20/// 39264 40090 71522 86200 333 59001;EQDQ01  00002PRCP99
0201831820999992000022900004-11300-041870FM-12+074799999V0200901N003612200019N9999999N1+02211+99999101171ADDAA106005191AY161061AY211061GF103991001001999999001011KA1240M+03001MA1999999092851MD1999999+0011MW1131REMSYN088AAXX  29004 83182 219// 30907 10221 20/// 39285 40117 71361 80001 333 10300 58001 60051;
0173831820999992000022912004-11300-041870FM-12+074799999V0200901N002612200019N0100001N1+02491+99999101451ADDAA124005191GF102991011021008001001011KA1240N+01841MA1999999093111MD1999999+0091REMSYN082AAXX  29124 83182 22597 20905 10249 2//// 39311 40145 81201 333 20184 58009 60054;
0167831820999992000022918004-11300-041870FM-12+074799999V0201801N003112200019N0100001N1+03031+99999101051ADDAA199000091GF108991021021008001001011MA1999999092771MD1999999+0131REMSYN070AAXX  29184 83182 32597 81806 10303 2//// 39277 40105 82201 333 58013;EQDQ01  00002PRCP99
0186831820999992000030100004-11300-041870FM-12+074799999V0201401N003110450019N9999999N1+02371+99999101241ADDAA199000091GF108991021051008001051011KA1240M+03081MA1999999092941MD1999999+0091REMSYN076AAXX  01004 83182 325// 81406 10237 20/// 39294 40124 82551 333 10308 58009;EQDQ01  00002PRCP99
0186831820999992000030112004-11300-041870FM-12+074799999V0201401N002610075019N0100001N1+02381+99999101531ADDAA199000091GF108991081051008001999999KA1240N+01901MA1999999093191MD1999999+0081REMSYN076AAXX  01124 83182 32597 81405 10238 20/// 39319 40153 885// 333 20190 58008;EQDQ01  00002PRCP99
0167831820999992000030118004-11300-041870FM-12+074799999V0200901N003110450019N0100001N1+02931+99999101071ADDAA199000091GF108991031021008001031011MA1999999092791MD1999999+0021REMSYN070AAXX  01184 83182 32597 80906 10293 20/// 39279 40107 83231 333 58002;EQDQ01  00002PRCP99
0186831820999992000030200004-11300-041870FM-12+074799999V0201401N002619999999N9999999N1+02291+99999101411ADDAA199000091GF108991001001999999001011KA1240M+03001MA1999999093071MD1999999+0031REMSYN076AAXX  02004 83182 329// 81405 10229 20/// 39307 40141 80001 333 10300 58003;EQDQ01  00002PRCP99
0167831820999992000030218004-11300-041870FM-12+074799999V0200901N003112200019N0100001N1+03081+99999100861ADDAA199000091GF104991041021008001001001MA1999999092611MD1999999-0181REMSYN070AAXX  02184 83182 32597 40906 10308 2//// 39261 40086 84200 333 59018;EQDQ01  00002PRCP99
0196831820999992000030300004-11300-041870FM-12+074799999V0200901N005112200019N9999999N1+02391+99999101191ADDAA199000091GA1001+999999999GF100991001001999999001001KA1240M+03101MA1999999092901MD1999999-0171REMSYN070AAXX  03004 83182 329// 00910 10239 20/// 39290 40119 333 10310 59017;EQDQ01  00002PRCP99
0186831820999992000030312004-11300-041870FM-12+074799999V0200901N004610075019N0100001N1+02511+99999101341ADDAA199000091GF106991051021008001051011KA1240N+01901MA1999999093031MD1999999-0081REMSYN076AAXX  03124 83182 32597 60909 10251 20/// 39303 40134 85251 333 20190 59008;EQDQ01  00002PRCP99
0167831820999992000030318004-11300-041870FM-12+074799999V0200901N003110075019N0100001N1+03061+99999100921ADDAA199000091GF105991051021008001001001MA1999999092651MD1999999+0041REMSYN070AAXX  03184 83182 32597 50906 10306 20/// 39265 40092 85200 333 58004;EQDQ01  00002PRCP99
0214831820999992000030400004-11300-041870FM-12+074799999V0200901N004610450019N9999999N1+02401+99999101131ADDAA199000091AY121061AY221061GF108991021021008001051011KA1240M+03071MA1999999092841MD1999999-0061MW1131REMSYN082AAXX  04004 83182 315// 80909 10240 20/// 39284 40113 71322 82251 333 10307 59006;EQDQ01  00002PRCP99
0186831820999992000030412004-11300-041870FM-12+074799999V0200901N004612200019N0100001N1+02581+99999101341ADDAA199000091GF101991011021008001001001KA1240N+01821MA1999999093041MD1999999+0011REMSYN076AAXX  04124 83182 32597 10909 10258 20/// 39304 40134 81200 333 20182 58001;EQDQ01  00002PRCP99
0167831820999992000030418004-11300-041870FM-12+074799999V0200901N004110450019N0100001N1+03191+99999100961ADDAA199000091GF105991041021008001051001MA1999999092701MD1999999+0051REMSYN070AAXX  04184 83182 32597 50908 10319 20/// 39270 40096 84250 333 58005;EQDQ01  00002PRCP99
0186831820999992000030512004-11300-041870FM-12+074799999V0200901N005110075019N0100001N1+02611+99999101471ADDAA199000091GF106991061021008001001001KA1240N+02101MA1999999093151MD1999999+0111REMSYN076AAXX  05124 83182 32597 60910 10261 20/// 39315 40147 86200 333 20210 58011;EQDQ01  00002PRCP99
0167831820999992000030518004-11300-041870FM-12+074799999V0201801N004610450019N0100001N1+02821+99999101121ADDAA199000091GF105991031031008001061001MA1999999092841MD1999999+0141REMSYN070AAXX  05184 83182 32597 51809 10282 20/// 39284 40112 83360 333 58014;EQDQ01  00002PRCP99
0196831820999992000030600004-11300-041870FM-12+074799999V0200901N003112200019N9999999N1+02281+99999101241ADDAA199000091GA1001+999999999GF100991001001999999001001KA1240M+02941MA1999999092941MD1999999-0061REMSYN070AAXX  06004 83182 329// 00906 10228 2//// 39294 40124 333 10294 59006;EQDQ01  00002PRCP99
0186831820999992000030612004-11300-041870FM-12+074799999V0200901N005110075019N0100001N1+02461+99999101471ADDAA199000091GF108991061021008001001011KA1240N+01821MA1999999093121MD1999999-0021REMSYN076AAXX  06124 83182 32597 80910 10246 20/// 39312 40147 86201 333 20182 59002;EQDQ01  00002PRCP99
0167831820999992000030618004-11300-041870FM-12+074799999V0200901N005110450019N0100001N1+02831+99999101031ADDAA199000091GF108991021021008001061011MA1999999092771MD1999999-0071REMSYN070AAXX  06184 83182 32597 80910 10283 2//// 39277 40103 82261 333 59007;EQDQ01  00002PRCP99
0186831820999992000030712004-11300-041870FM-12+074799999V0200901N003612200019N0100001N1+02541+99999101221ADDAA199000091GF105991041021008001001011KA1240N+01961MA1999999092911MD1999999-0221REMSYN076AAXX  07124 83182 32597 50907 10254 20/// 39291 40122 84201 333 20196 59022;EQDQ01  00002PRCP99
0167831820999992000030718004-11300-041870FM-12+074799999V0200501N002610075019N0100001N1+03131+99999100781ADDAA199000091GF107991051021008001001011MA1999999092541MD1999999-0231REMSYN070AAXX  07184 83182 32597 70505 10313 20/// 39254 40078 85201 333 59023;EQDQ01  00002PRCP99
0214831820999992000030800004-11300-041870FM-12+074799999V0200901N000510450019N9999999N1+02361+99999101071ADDAA199000091AY121061AY221061GF108991021031008001061001KA1240M+03181MA1999999092781MD1999999-0141MW1131REMSYN082AAXX  08004 83182 315// 80901 10236 2//// 39278 40107 71322 82360 333 10318 59014;EQDQ01  00002PRCP99
0186831820999992000030812004-11300-041870FM-12+074799999V0200901N003111050019N0100001N1+02541+99999101191ADDAA199000091GF108991011021008001001021KA1240N+02021MA1999999092891MD1999999-0021REMSYN076AAXX  08124 83182 32597 80906 10254 2//// 39289 40119 81202 333 20202 59002;EQDQ01  00002PRCP99
0167831820999992000030818004-11300-041870FM-12+074799999V0200501N003110075019N0100001N1+03081+99999100711ADDAA199000091GF107991051021008001051011MA1999999092461MD1999999+0081REMSYN070AAXX  08184 83182 32597 70506 10308 2//// 39246 40071 85251 333 58008;EQDQ01  00002PRCP99
0201831820999992000030900004-11300-041870FM-12+074799999V0203601N003110042019N9999999N1+02241+99999101211ADDAA106000191AY121061AY221061GF108991081071004501999999KA1240M+03201MA1999999092831MD1999999+0051MW1601REMSYN088AAXX  09004 83182 214// 83606 10224 20/// 39283 40121 76022 887// 333 10320 58005 69921;
0201831820999992000030912004-11300-041870FM-12+074799999V0200901N003610450019N0100001N1+02461+99999101371ADDAA124004191AY161061AY221061GF108991011021008001011011KA1240N+02001MA1999999093041MD1999999+0151MW1021REMSYN088AAXX  09124 83182 21597 80907 10246 20/// 39304 40137 70262 81211 333 20200 58015 60044;
0201831820999992000031000004-11300-041870FM-12+074799999V0201801N002110042019N9999999N1+02071+99999101281ADDAA106061091AY191061AY221061GF108991081071004501999999KA1240M+02951MA1999999092941MD1999999+0111MW1611REMSYN088AAXX  10004 83182 214// 81804 10207 20/// 39294 40128 76192 887// 333 10295 58011 60611;
0201831820999992000031012004-11300-041870FM-12+074799999V0200501N002610042019N0020001N1+02331+99999101481ADDAA124066091AY161061AY221061GF108991081061004501999999KA1240N+02041MA1999999093111MD1999999+0071MW1021REMSYN088AAXX  10124 83182 21495 80505 10233 2//// 39311 40148 70262 886// 333 20204 58007 60664;
0195831820999992000031018004-11300-041870FM-12+074799999V0203601N002612200019N0020001N1+03011+99999100951ADDAA199000091AY121061AY221061GF108991021031004501001011MA1999999092681MD1999999+0051MW1161REMSYN076AAXX  10184 83182 31495 83605 10301 2//// 39268 40095 71622 82301 333 58005;EQDQ01  00002PRCP99
0201831820999992000031100004-11300-041870FM-12+074799999V0201801N002110042019N9999999N1+02071+99999101281ADDAA106061091AY191061AY221061GF108991081071004501999999KA1240M+02951MA1999999092941MD1999999+0111MW1611REMSYN088AAXX  11004 83182 214// 81804 10207 20/// 39294 40128 76192 887// 333 10295 58011 60611;
0201831820999992000031112004-11300-041870FM-12+074799999V0200501N004110075019N0040001N1+02251+99999101401ADDAA124000591AY161061AY221061GF108991081051008001999999KA1240N+02021MA1999999093051MD1999999-0061MW1021REMSYN088AAXX  11124 83182 21596 80508 10225 2//// 39305 40140 70262 885// 333 20202 59006 69944;
0167831820999992000031118004-11300-041870FM-12+074799999V0203201N002612200019N0040001N1+02551+99999101021ADDAA199000091GF108991041071017501001011MA1999999092721MD1999999+0041REMSYN070AAXX  11184 83182 32796 83205 10255 20/// 39272 40102 84701 333 58004;EQDQ01  00002PRCP99
0186831820999992000031200004-11300-041870FM-12+074799999V0201401N001510150019N9999999N1+02211+99999101131ADDAA199000091GF108991071001017501071021KA1240M+02741MA1999999092801MD1999999-0121REMSYN076AAXX  12004 83182 327// 81403 10221 20/// 39280 40113 87072 333 10274 59012;EQDQ01  00002PRCP99
0186831820999992000031212004-11300-041870FM-12+074799999V0201401N002110450019N0020001N1+02311+99999101251ADDAA199000091GF108991021021008001011999KA1240N+02121MA1999999092911MD1999999-0141REMSYN076AAXX  12124 83182 32595 81404 10231 20/// 39291 40125 8221/ 333 20212 59014;EQDQ01  00002PRCP99
0195831820999992000031218004-11300-041870FM-12+074799999V0202701N002612200019N0020001N1+02831+99999100751ADDAA199000091AY121061AY221061GF108991021031008001001011MA1999999092491MD1999999-0231MW1161REMSYN076AAXX  12184 83182 31595 82705 10283 2//// 39249 40075 71622 82301 333 59023;EQDQ01  00002PRCP99
0201831820999992000031300004-11300-041870FM-12+074799999V0202301N001010150019N9999999N1+02281+99999101041ADDAA106000391AY161061AY261061GF108991081001017501011999KA1240M+02851MA1999999092731MD1999999-0071MW1021REMSYN088AAXX  13004 83182 217// 82302 10228 20/// 39273 40104 70266 8801/ 333 10285 59007 69931;
0173831820999992000031312004-11300-041870FM-12+074799999V0202701N001012200019N0040001N1+02451+99999101061ADDAA124000391GF108991021021008001001011KA1240N+02001MA1999999092751MD1999999-0161REMSYN082AAXX  13124 83182 22596 82702 10245 20/// 39275 40106 82201 333 20200 59016 69934;
0182831820999992000031318004-11300-041870FM-12+074799999V0203201N002610450019N0040001N1+02731+99999100671ADDAA106000191AY161061AY221061GF108991011021008001031011MA1999999092411MD1999999-0081MW1021REMSYN082AAXX  13184 83182 21596 83205 10273 20/// 39241 40067 70262 81231 333 59008 69921;
0214831820999992000031400004-11300-041870FM-12+074799999V0202701N004610042019N9999999N1+02241+99999101151ADDAA199000091AY121061AY221061GF108991081071004501999999KA1240M+02801MA1999999092841MD1999999+0111MW1431REMSYN082AAXX  14004 83182 314// 82709 10224 20/// 39284 40115 74322 887// 333 10280 58011;EQDQ01  00002PRCP99
0182831820999992000031418004-11300-041870FM-12+074799999V0203601N004110042019N0010001N1+02491+99999100871ADDAA106001091AY121061AY261061GF108991061071004501021999MA1999999092561MD1999999+0151MW1161REMSYN082AAXX  14184 83182 21494 83608 10249 2//// 39256 40087 71626 8672/ 333 58015 60011;
0201831820999992000031500004-11300-041870FM-12+074799999V0202701N000510450019N9999999N1+02101+99999101201ADDAA106000891AY161061AY221061GF108991041071004501021999KA1240M+02751MA1999999092871MD1999999+0031MW1021REMSYN088AAXX  15004 83182 214// 82701 10210 20/// 39287 40120 70262 8472/ 333 10275 58003 69971;
0173831820999992000031512004-11300-041870FM-12+074799999V0201401N002110450019N0200001N1+02371+99999101351ADDAA124002091GF108991021021008001061011KA1240N+01941MA1999999093001MD1999999+0141REMSYN082AAXX  15124 83182 22598 81404 10237 20/// 39300 40135 82261 333 20194 58014 60024;
0182831820999992000031518004-11300-041870FM-12+074799999V0202301N001510450019N0040001N1+02231+99999101081ADDAA106047091AY161061AY221061GF108991031031008001021011MA1999999092731MD1999999+0171MW1021REMSYN082AAXX  15184 83182 21596 82303 10223 20/// 39273 40108 70262 83321 333 58017 60471;
0201831820999992000031600004-11300-041870FM-12+074799999V0201401N001010150019N9999999N1+02091+99999101231ADDAA106000891AY161061AY221061GF108991061001017501011011KA1240M+02641MA1999999092891MD1999999+0021MW1021REMSYN088AAXX  16004 83182 217// 81402 10209 20/// 39289 40123 70262 86011 333 10264 58002 69971;
0201831820999992000031612004-11300-041870FM-12+074799999V0200901N005112200019N0100001N1+02371+99999101371ADDAA124048091AY161061AY221061GF101991001001999999001011KA1240N+01961MA1999999093021MD1999999+0021MW1031REMSYN088AAXX  16124 83182 21997 10910 10237 2//// 39302 40137 70362 80001 333 20196 58002 60484;
0167831820999992000031618004-11300-041870FM-12+074799999V0200901N002112200019N0100001N1+02931+99999100861ADDAA199000091GF104991021021008001001011MA1999999092591MD1999999-0141REMSYN070AAXX  16184 83182 32597 40904 10293 2//// 39259 40086 82201 333 59014;EQDQ01  00002PRCP99
0214831820999992000031712004-11300-041870FM-12+074799999V0200901N003112200019N0020001N1+02371+99999101131ADDAA199000091AY101061AY201061GF101991001001999999001011KA1240N+01701MA1999999092951MD1999999-0071MW1051REMSYN082AAXX  17124 83182 31995 10906 10237 20/// 39295 40113 70500 80001 333 20170 59007;EQDQ01  00002PRCP99
0167831820999992000031718004-11300-041870FM-12+074799999V0201801N002112200019N0040001N1+02971+99999100801ADDAA199000091GF102991011021008001001011MA1999999092531MD1999999-0061REMSYN070AAXX  17184 83182 32596 21804 10297 20/// 39253 40080 81201 333 59006;EQDQ01  00002PRCP99
0196831820999992000031800004-11300-041870FM-12+074799999V0200901N003112200019N9999999N1+02071+99999101001ADDAA199000091GA1001+999999999GF100991001001999999001001KA1240M+02951MA1999999092671MD1999999-0121REMSYN070AAXX  18004 83182 329// 00906 10207 20/// 39267 40100 333 10295 59012;EQDQ01  00002PRCP99
0196831820999992000031812004-11300-041870FM-12+074799999V0200501N001512200019N0040001N1+02331+99999101181ADDAA199000091GA1001+999999999GF100991001001999999001001KA1240N+01621MA1999999092841MD1999999-0111REMSYN070AAXX  18124 83182 32996 00503 10233 2//// 39284 40118 333 20162 59011;EQDQ01  00002PRCP99
0167831820999992000031818004-11300-041870FM-12+074799999V0202701N001512200019N0100001N1+02921+99999100801ADDAA199000091GF102991021021008001001001MA1999999092511MD1999999-0021REMSYN070AAXX  18184 83182 32597 22703 10292 2//// 39251 40080 82200 333 59002;EQDQ01  00002PRCP99
0196831820999992000031900004-11300-041870FM-12+074799999V0201401N003112200019N9999999N1+02181+99999100941ADDAA199000091GA1001+999999999GF100991001001999999001001KA1240M+02971MA1999999092631MD1999999-0041REMSYN070AAXX  19004 83182 329// 01406 10218 20/// 39263 40094 333 10297 59004;EQDQ01  00002PRCP99
0186831820999992000031912004-11300-041870FM-12+074799999V0201401N002112200019N0100001N1+02451+99999101181ADDAA199000091GF102991021021008001001001KA1240N+01721MA1999999092851MD1999999+0011REMSYN076AAXX  19124 83182 32597 21404 10245 20/// 39285 40118 82200 333 20172 58001;EQDQ01  00002PRCP99
0195831820999992000031918004-11300-041870FM-12+074799999V0202301N001510450019N0100001N1+03021+99999100751ADDAA199000091AY101061AY211061GF108991041031008001041011MA1999999092481MD1999999-0031MW1151REMSYN076AAXX  19184 83182 31597 82303 10302 20/// 39248 40075 71501 84341 333 59003;EQDQ01  00002PRCP99
0201831820999992000032000004-11300-041870FM-12+074799999V0203201N000510150019N9999999N1+02191+99999101001ADDAA106006191AY161061AY221061GF108991071001017501051011KA1240M+03171MA1999999092681MD1999999+0051MW1021REMSYN088AAXX  20004 83182 217// 83201 10219 20/// 39268 40100 70262 87051 333 10317 58005 60061;
0173831820999992000032012004-11300-041870FM-12+074799999V0201401N002110075019N0040001N1+02371+99999101311ADDAA124006191GF107991071051008001001001KA1240N+01941MA1999999092971MD1999999+0121REMSYN082AAXX  20124 83182 22596 71404 10237 2//// 39297 40131 87500 333 20194 58012 60064;
0167831820999992000032018004-11300-041870FM-12+074799999V0201401N001512200019N0100001N1+02951+99999100821ADDAA199000091GF102991021021008001001011MA1999999092551MD1999999+0071REMSYN070AAXX  20184 83182 32597 21403 10295 2//// 39255 40082 82201 333 58007;EQDQ01  00002PRCP99
0186831820999992000032100004-11300-041870FM-12+074799999V0200901N003612200019N9999999N1+02351+99999101041ADDAA199000091GF102991001001999999001011KA1240M+03011MA1999999092741MD1999999+0061REMSYN076AAXX  21004 83182 329// 20907 10235 20/// 39274 40104 80001 333 10301 58006;EQDQ01  00002PRCP99
0186831820999992000032112004-11300-041870FM-12+074799999V0201401N005712200019N0100001N1+02491+99999101291ADDAA199000091GF102991021021008001001001KA1240N+01921MA1999999092971MD1999999+0001REMSYN076AAXX  21124 83182 32597 21411 10249 20/// 39297 40129 82200 333 20192 58000;EQDQ01  00002PRCP99
0167831820999992000032118004-11300-041870FM-12+074799999V0200901N005710075019N0100001N1+02731+99999100961ADDAA199000091GF107991071051008001001001MA1999999092661MD1999999+0111REMSYN070AAXX  21184 83182 32597 70911 10273 20/// 39266 40096 87500 333 58011;EQDQ01  00002PRCP99
0196831820999992000032200004-11300-041870FM-12+074799999V0201401N002612200019N9999999N1+02091+99999101161ADDAA199000091GA1001+999999999GF100991001001999999001001KA1240M+02861MA1999999092841MD1999999+0101REMSYN070AAXX  22004 83182 329// 01405 10209 20/// 39284 40116 333 10286 58010;EQDQ01  00002PRCP99
0186831820999992000032212004-11300-041870FM-12+074799999V0201401N006210075019N0100001N1+02331+99999101351ADDAA199000091GF106991051021008001001011KA1240N+01781MA1999999092991MD1999999+0021REMSYN076AAXX  22124 83182 32597 61412 10233 2//// 39299 40135 85201 333 20178 58002;EQDQ01  00002PRCP99
0167831820999992000032218004-11300-041870FM-12+074799999V0201401N006212200019N0100001N1+02891+99999100891ADDAA199000091GF106991041021008001001011MA1999999092591MD1999999-0071REMSYN070AAXX  22184 83182 32597 61412 10289 2//// 39259 40089 84201 333 59007;EQDQ01  00002PRCP99
0186831820999992000032300004-11300-041870FM-12+074799999V0201401N003112200019N9999999N1+02081+99999101211ADDAA199000091GF108991021001017501041011KA1240M+02941MA1999999092861MD1999999+0021REMSYN076AAXX  23004 83182 327// 81406 10208 20/// 39286 40121 82041 333 10294 58002;EQDQ01  00002PRCP99
0186831820999992000032312004-11300-041870FM-12+074799999V0200901N005112200019N0200001N1+02411+99999101361ADDAA199000091GF102991021021008001001001KA1240N+01881MA1999999093011MD1999999+0021REMSYN076AAXX  23124 83182 32598 20910 10241 20/// 39301 40136 82200 333 20188 58002;EQDQ01  00002PRCP99
0167831820999992000032318004-11300-041870FM-12+074799999V0200901N003112200019N0100001N1+02931+99999100921ADDAA199000091GF103991031021008001001001MA1999999092651MD1999999+0061REMSYN070AAXX  23184 83182 32597 30906 10293 20/// 39265 40092 83200 333 58006;EQDQ01  00002PRCP99
0186831820999992000032400004-11300-041870FM-12+074799999V0201401N003612200019N9999999N1+02141+99999101191ADDAA199000091GF102991001001999999001011KA1240M+02941MA1999999092861MD1999999+0001REMSYN076AAXX  24004 83182 329// 21407 10214 20/// 39286 40119 80001 333 10294 58000;EQDQ01  00002PRCP99
0186831820999992000032412004-11300-041870FM-12+074799999V0201401N005112200019N0100001N1+02451+99999101451ADDAA199000091GF101991011021008001001001KA1240N+01791MA1999999093101MD1999999+0091REMSYN076AAXX  24124 83182 32597 11410 10245 20/// 39310 40145 81200 333 20179 58009;EQDQ01  00002PRCP99
0167831820999992000032418004-11300-041870FM-12+074799999V0201401N002612200019N0100001N1+03061+99999101001ADDAA199000091GF102991011021008001001011MA1999999092721MD1999999+0071REMSYN070AAXX  24184 83182 32597 21405 10306 20/// 39272 40100 81201 333 58007;EQDQ01  00002PRCP99
0196831820999992000032500004-11300-041870FM-12+074799999V0201401N004112200019N9999999N1+02311+99999101241ADDAA199000091GA1001+999999999GF100991001001999999001001KA1240M+03051MA1999999092931MD1999999+0071REMSYN070AAXX  25004 83182 329// 01408 10231 20/// 39293 40124 333 10305 58007;EQDQ01  00002PRCP99
0186831820999992000032512004-11300-041870FM-12+074799999V0200901N005112200019N0100001N1+02411+99999101461ADDAA199000091GF101991001001999999001011KA1240N+01721MA1999999093121MD1999999+0021REMSYN076AAXX  25124 83182 32997 10910 10241 20/// 39312 40146 80001 333 20172 58002;EQDQ01  00002PRCP99
0167831820999992000032518004-11300-041870FM-12+074799999V0200901N004619999999N0100001N1+03021+99999100911ADDAA199000091GF106991001001999999001021MA1999999092651MD1999999-0071REMSYN070AAXX  25184 83182 32997 60909 10302 2//// 39265 40091 80002 333 59007;EQDQ01  00002PRCP99
0186831820999992000032600004-11300-041870FM-12+074799999V0201401N001012200019N9999999N1+02261+99999101101ADDAA199000091GF106991011021008001001011KA1240M+03001MA1999999092791MD1999999-0141REMSYN076AAXX  26004 83182 325// 61402 10226 20/// 39279 40110 81201 333 10300 59014;EQDQ01  00002PRCP99
0186831820999992000032612004-11300-041870FM-12+074799999V0200901N005112200019N0200001N1+02431+99999101281ADDAA199000091GF104991031021008001001011KA1240N+01821MA1999999092951MD1999999-0171REMSYN076AAXX  26124 83182 32598 40910 10243 2//// 39295 40128 83201 333 20182 59017;EQDQ01  00002PRCP99
0167831820999992000032618004-11300-041870FM-12+074799999V0200901N006710075019N0100001N1+02911+99999100871ADDAA199000091GF106991051021008001001011MA1999999092601MD1999999-0051REMSYN070AAXX  26184 83182 32597 60913 10291 2//// 39260 40087 85201 333 59005;EQDQ01  00002PRCP99
0186831820999992000032700004-11300-041870FM-12+074799999V0201401N002619999999N9999999N1+02231+99999101111ADDAA199000091GF105991001001999999001011KA1240M+03061MA1999999092801MD1999999-0011REMSYN076AAXX  27004 83182 329// 51405 10223 20/// 39280 40111 80001 333 10306 59001;EQDQ01  00002PRCP99
0186831820999992000032712004-11300-041870FM-12+074799999V0200901N004612200019N0100001N1+02411+99999101221ADDAA199000091GF108991021021008001001011KA1240N+01961MA1999999092891MD1999999-0061REMSYN076AAXX  27124 83182 32597 80909 10241 20/// 39289 40122 82201 333 20196 59006;EQDQ01  00002PRCP99
0195831820999992000032718004-11300-041870FM-12+074799999V0200501N005710042019N0020001N1+02591+99999100841ADDAA199000091AY121061AY221061GF108991061071004501001011MA1999999092541MD1999999-0061MW1161REMSYN076AAXX  27184 83182 31495 80511 10259 20/// 39254 40084 71622 86701 333 59006;EQDQ01  00002PRCP99
0186831820999992000032800004-11300-041870FM-12+074799999V0201401N002612200019N9999999N1+02351+99999101081ADDAA199000091GF108991021001017501011011KA1240M+03001MA1999999092781MD1999999-0021REMSYN076AAXX  28004 83182 327// 81405 10235 2//// 39278 40108 82011 333 10300 59002;EQDQ01  00002PRCP99
0186831820999992000032812004-11300-041870FM-12+074799999V0201401N004110075019N0100001N1+02441+99999101351ADDAA199000091GF108991061021008001001011KA1240N+01941MA1999999093031MD1999999+0141REMSYN076AAXX  28124 83182 32597 81408 10244 2//// 39303 40135 86201 333 20194 58014;EQDQ01  00002PRCP99
0167831820999992000032818004-11300-041870FM-12+074799999V0201801N003110450019N0100001N1+02911+99999100801ADDAA199000091GF108991041021008001061011MA1999999092541MD1999999+0001REMSYN070AAXX  28184 83182 32597 81806 10291 2//// 39254 40080 84261 333 58000;EQDQ01  00002PRCP99
0186831820999992000032900004-11300-041870FM-12+074799999V0201401N002610075019N9999999N1+02391+99999101021ADDAA199000091GF108991061051008001001011KA1240M+03041MA1999999092731MD1999999-0051REMSYN076AAXX  29004 83182 325// 81405 10239 20/// 39273 40102 86501 333 10304 59005;EQDQ01  00002PRCP99
0186831820999992000032912004-11300-041870FM-12+074799999V0201401N003610450019N0100001N1+02461+99999101241ADDAA199000091GF108991011021008001041021KA1240N+01941MA1999999092941MD1999999-0091REMSYN076AAXX  29124 83182 32597 81407 10246 20/// 39294 40124 81242 333 20194 59009;EQDQ01  00002PRCP99
0167831820999992000032918004-11300-041870FM-12+074799999V0201401N002612200019N0100001N1+02811+99999100921ADDAA199000091GF108991041021008001001011MA1999999092641MD1999999+0101REMSYN070AAXX  29184 83182 32597 81405 10281 20/// 39264 40092 84201 333 58010;EQDQ01  00002PRCP99
0186831820999992000033000004-11300-041870FM-12+074799999V0201401N003119999999N9999999N1+02171+99999101181ADDAA199000091GF108991001001999999001011KA1240M+02931MA1999999092851MD1999999+0121REMSYN076AAXX  30004 83182 329// 81406 10217 20/// 39285 40118 80001 333 10293 58012;EQDQ01  00002PRCP99
0186831820999992000033012004-11300-041870FM-12+074799999V0200901N004110075019N0100001N1+02371+99999101341ADDAA199000091GF108991071051008001001011KA1240N+01881MA1999999092991MD1999999+0051REMSYN076AAXX  30124 83182 32597 80908 10237 2//// 39299 40134 87501 333 20188 58005;EQDQ01  00002PRCP99
0167831820999992000033018004-11300-041870FM-12+074799999V0200901N003612200019N0100001N1+02881+99999100871ADDAA199000091GF108991021031008001001011MA1999999092591MD1999999-0051REMSYN070AAXX  30184 83182 32597 80907 10288 20/// 39259 40087 82301 333 59005;EQDQ01  00002PRCP99
0186831820999992000033100004-11300-041870FM-12+074799999V0201401N002610450019N9999999N1+02181+99999101271ADDAA199000091GF108991021021008001061011KA1240M+02881MA1999999092921MD1999999+0071REMSYN076AAXX  31004 83182 325// 81405 10218 20/// 39292 40127 82261 333 10288 58007;EQDQ01  00002PRCP99
0186831820999992000033112004-11300-041870FM-12+074799999V0200901N006212200019N0100001N1+02431+99999101391ADDAA199000091GF108991011021008001001011KA1240N+01781MA1999999093051MD1999999+0061REMSYN076AAXX  31124 83182 32597 80912 10243 20/// 39305 40139 81201 333 20178 58006;EQDQ01  00002PRCP99
0167831820999992000033118004-11300-041870FM-12+074799999V0200901N005112200019N0100001N1+02911+99999100951ADDAA199000091GF105991021021008001001011MA1999999092661MD1999999+0071REMSYN070AAXX  31184 83182 32597 50910 10291 20/// 39266 40095 82201 333 58007;EQDQ01  00002PRCP99
0186831820999992000040100004-11300-041870FM-12+074799999V0201401N003112200019N9999999N1+02261+99999101231ADDAA199000091GF104991001001999999001011KA1240M+03011MA1999999092911MD1999999-0011REMSYN076AAXX  01004 83182 329// 41406 10226 20/// 39291 40123 80001 333 10301 59001;EQDQ01  00002PRCP99
0186831820999992000040112004-11300-041870FM-12+074799999V0200901N004610075019N0100001N1+02411+99999101421ADDAA199000091GF106991061021008001001001KA1240N+01901MA1999999093071MD1999999+0021REMSYN076AAXX  01124 83182 32597 60909 10241 20/// 39307 40142 86200 333 20190 58002;EQDQ01  00002PRCP99
0167831820999992000040118004-11300-041870FM-12+074799999V0200901N004110450019N0100001N1+03011+99999101001ADDAA199000091GF106991031021008001051011MA1999999092731MD1999999+0071REMSYN070AAXX  01184 83182 32597 60908 10301 20/// 39273 40100 83251 333 58007;EQDQ01  00002PRCP99
0186831820999992000040200004-11300-041870FM-12+074799999V0200901N004112200019N9999999N1+02321+99999101261ADDAA199000091GF106991021021008001001011KA1240M+03051MA1999999092941MD1999999+0031REMSYN076AAXX  02004 83182 325// 60908 10232 20/// 39294 40126 82201 333 10305 58003;EQDQ01  00002PRCP99
0186831820999992000040212004-11300-041870FM-12+074799999V0200901N003610075019N0100001N1+02511+99999101451ADDAA199000091GF107991071021008001001001KA1240N+01961MA1999999093121MD1999999+0051REMSYN076AAXX  02124 83182 32597 70907 10251 2//// 39312 40145 87200 333 20196 58005;EQDQ01  00002PRCP99
0182831820999992000040218004-11300-041870FM-12+074799999V0200901N004610450019N0100001N1+02561+99999101111ADDAA106001091AY161061AY221061GF107991021071004501051011MA1999999092791MD1999999+0061MW1211REMSYN082AAXX  02184 83182 21497 70909 10256 2//// 39279 40111 72162 82751 333 58006 60011;
0220831820999992000040300004-11300-041870FM-12+074799999V0200901N002619999999N9999999N1+02191+99999101361ADDAA106000391AY121061AY221061GF106991999071004501001001KA1240M+02821MA1999999093031MD1999999+0091MW1211REMSYN088AAXX  03004 83182 214// 60905 10219 20/// 39303 40136 72122 81700 333 10282 58009 69931;EQDQ01+000012SCOTLC
0173831820999992000040312004-11300-041870FM-12+074799999V0200901N005110075019N0100001N1+02501+99999101471ADDAA124001091GF106991061021008001001001KA1240N+01941MA1999999093131MD1999999+0011REMSYN082AAXX  03124 83182 22597 60910 10250 20/// 39313 40147 86200 333 20194 58001 60014;
0167831820999992000040318004-11300-041870FM-12+074799999V0200901N003610075019N0100001N1+03021+99999101011ADDAA199000091GF107991061021008001041001MA1999999092741MD1999999-0041REMSYN070AAXX  03184 83182 32597 70907 10302 20/// 39274 40101 86240 333 59004;EQDQ01  00002PRCP99
0201831820999992000040400004-11300-041870FM-12+074799999V0201401N004110450019N9999999N1+02231+99999101341ADDAA106001091AY161061AY221061GF108991021051008001051011KA1240M+03051MA1999999093041MD1999999+0011MW1021REMSYN088AAXX  04004 83182 215// 81408 10223 20/// 39304 40134 70262 82551 333 10305 58001 60011;
0173831820999992000040412004-11300-041870FM-12+074799999V0201401N005712200019N0100001N1+02501+99999101521ADDAA124001091GF104991041021008001001001KA1240N+01941MA1999999093171MD1999999+0041REMSYN082AAXX  04124 83182 22597 41411 10250 2//// 39317 40152 84200 333 20194 58004 60014;
0167831820999992000040418004-11300-041870FM-12+074799999V0200901N004110075019N0100001N1+02791+99999101101ADDAA199000091GF107991061021008001051001MA1999999092801MD1999999+0061REMSYN070AAXX  04184 83182 32597 70908 10279 20/// 39280 40110 86250 333 58006;EQDQ01  00002PRCP99
0201831820999992000040500004-11300-041870FM-12+074799999V0201401N004110075019N9999999N1+02151+99999101451ADDAA106004191AY161061AY221061GF108991081051008001999999KA1240M+02881MA1999999093111MD1999999+0071MW1021REMSYN088AAXX  05004 83182 215// 81408 10215 20/// 39311 40145 70262 885// 333 10288 58007 60041;
0173831820999992000040512004-11300-041870FM-12+074799999V0201401N005710075019N0100001N1+02451+99999101561ADDAA124004191GF106991061051008001001001KA1240N+01941MA1999999093201MD1999999+0071REMSYN082AAXX  05124 83182 22597 61411 10245 2//// 39320 40156 86500 333 20194 58007 60044;
0195831820999992000040518004-11300-041870FM-12+074799999V0200901N005710450019N0100001N1+02601+99999101131ADDAA199000091AY121061AY221061GF108991031031008001061011MA1999999092861MD1999999+0061MW1151REMSYN076AAXX  05184 83182 31597 80911 10260 20/// 39286 40113 71522 83361 333 58006;EQDQ01  00002PRCP99
0211831820999992000040600004-11300-041870FM-12+074799999V0201401N003112200019N9999999N1+02091+99999101521ADDAA106002091AY161061AY211061GA1001+999999999GF100991001001999999001001KA1240M+02821MA1999999093151MD1999999+0041MW1001REMSYN082AAXX  06004 83182 219// 01406 10209 20/// 39315 40152 70061 333 10282 58004 60021;
0173831820999992000040612004-11300-041870FM-12+074799999V0200901N005110075019N0100001N1+02361+99999101551ADDAA124002091GF107991071051008001001001KA1240N+01861MA1999999093181MD1999999-0021REMSYN082AAXX  06124 83182 22597 70910 10236 20/// 39318 40155 87500 333 20186 59002 60024;
0196831820999992000040700004-11300-041870FM-12+074799999V0201401N003612200019N9999999N1+02191+99999101271ADDAA199000091GA1001+999999999GF100991001001999999001001KA1240M+03041MA1999999092941MD1999999-0211REMSYN070AAXX  07004 83182 329// 01407 10219 20/// 39294 40127 333 10304 59021;EQDQ01  00002PRCP99
0186831820999992000040712004-11300-041870FM-12+074799999V0200901N007710075019N0100001N1+02431+99999101311ADDAA199000091GF107991071051008001001001KA1240N+01761MA1999999092971MD1999999-0211REMSYN076AAXX  07124 83182 32597 70915 10243 20/// 39297 40131 87500 333 20176 59021;EQDQ01  00002PRCP99
0167831820999992000040718004-11300-041870FM-12+074799999V0200901N004612200019N0100001N1+03081+99999100911ADDAA199000091GF106991021021008001001011MA1999999092651MD1999999-0111REMSYN070AAXX  07184 83182 32597 60909 10308 20/// 39265 40091 82201 333 59011;EQDQ01  00002PRCP99
0186831820999992000040800004-11300-041870FM-12+074799999V0201401N002619999999N9999999N1+02161+99999101271ADDAA199000091GF105991001001999999001011KA1240M+03081MA1999999092941MD1999999+0001REMSYN076AAXX  08004 83182 329// 51405 10216 20/// 39294 40127 80001 333 10308 58000;EQDQ01  00002PRCP99
0186831820999992000040812004-11300-041870FM-12+074799999V0201401N003612200019N0100001N1+02311+99999101401ADDAA199000091GF108991011011012501001011KA1240N+01701MA1999999093051MD1999999+0081REMSYN076AAXX  08124 83182 32697 81407 10231 2//// 39305 40140 81101 333 20170 58008;EQDQ01  00002PRCP99
0167831820999992000040818004-11300-041870FM-12+074799999V0200501N003112200019N0100001N1+02931+99999101001ADDAA199000091GF108991031021008001001011MA1999999092711MD1999999+0061REMSYN070AAXX  08184 83182 32597 80506 10293 2//// 39271 40100 83201 333 58006;EQDQ01  00002PRCP99
0186831820999992000040900004-11300-041870FM-12+074799999V0200901N004112200019N9999999N1+02291+99999101261ADDAA199000091GF108991021011012501001011KA1240M+02961MA1999999092931MD1999999-0011REMSYN076AAXX  09004 83182 326// 80908 10229 20/// 39293 40126 82101 333 10296 59001;EQDQ01  00002PRCP99
0186831820999992000040912004-11300-041870FM-12+074799999V0200901N005110075019N0100001N1+02271+99999101371ADDAA199000091GF108991061051008001051011KA1240N+01801MA1999999093031MD1999999-0021REMSYN076AAXX  09124 83182 32597 80910 10227 20/// 39303 40137 86551 333 20180 59002;EQDQ01  00002PRCP99
0195831820999992000040918004-11300-041870FM-12+074799999V0200901N005710450019N0040001N1+02841+99999100981ADDAA199000091AY121061AY221061GF107991021021008001051011MA1999999092691MD1999999-0021MW1151REMSYN076AAXX  09184 83182 31596 70911 10284 20/// 39269 40098 71522 82251 333 59002;EQDQ01  00002PRCP99
0186831820999992000041000004-11300-041870FM-12+074799999V0200901N003112200019N9999999N1+02191+99999101251ADDAA199000091GF105991011001017501051011KA1240M+02861MA1999999092911MD1999999-0021REMSYN076AAXX  10004 83182 327// 50906 10219 20/// 39291 40125 81051 333 10286 59002;EQDQ01  00002PRCP99
0186831820999992000041012004-11300-041870FM-12+074799999V0200901N004610075019N0100001N1+02251+99999101381ADDAA199000091GF108991081051008001999999KA1240N+01961MA1999999093021MD1999999-0011REMSYN076AAXX  10124 83182 32597 80909 10225 2//// 39302 40138 885// 333 20196 59001;EQDQ01  00002PRCP99
0167831820999992000041018004-11300-041870FM-12+074799999V0200901N003110075019N0100001N1+02691+99999101011ADDAA199000091GF108991081051008001999999MA1999999092721MD1999999+0031REMSYN070AAXX  10184 83182 32597 80906 10269 20/// 39272 40101 885// 333 58003;EQDQ01  00002PRCP99
0218831820999992000041100004-11300-041870FM-12+074799999V0200901N003110450019N9999999N1+02161+99999101251ADDAA199000091GF108991011021008001051011KA1240M+02691MA1999999999999MD1999999-0011REMSYN076AAXX  11004 83182 325// 80906 10216 20/// 39920 40125 81251 333 10269 59001;EQDQ01+099203APOSP Q02  00002PRCP99Q03 099203APOSP 
0186831820999992000041112004-11300-041870FM-12+074799999V0201401N004611050019N0100001N1+02501+99999101361ADDAA199000091GF105991011021008001051011KA1240N+01861MA1999999093031MD1999999+0011REMSYN076AAXX  11124 83182 32597 51409 10250 20/// 39303 40136 81251 333 20186 58001;EQDQ01  00002PRCP99
0167831820999992000041118004-11300-041870FM-12+074799999V0200501N004612200019N0100001N1+02941+99999100971ADDAA199000091GF108991031021008001001011MA1999999092681MD1999999-0041REMSYN070AAXX  11184 83182 32597 80509 10294 20/// 39268 40097 83201 333 59004;EQDQ01  00002PRCP99
0186831820999992000041200004-11300-041870FM-12+074799999V0200901N004619999999N9999999N1+02271+99999101161ADDAA199000091GF108991001001999999001011KA1240M+03001MA1999999092851MD1999999-0051REMSYN076AAXX  12004 83182 329// 80909 10227 20/// 39285 40116 80001 333 10300 59005;EQDQ01  00002PRCP99
0186831820999992000041212004-11300-041870FM-12+074799999V0200901N003612200019N0200001N1+02491+99999101301ADDAA199000091GF108991021021008001001011KA1240N+01841MA1999999092981MD1999999-0051REMSYN076AAXX  12124 83182 32598 80907 10249 20/// 39298 40130 82201 333 20184 59005;EQDQ01  00002PRCP99
0167831820999992000041218004-11300-041870FM-12+074799999V0201401N001512200019N0100001N1+03161+99999100841ADDAA199000091GF108991021021008001001011MA1999999092521MD1999999-0161REMSYN070AAXX  12184 83182 32597 81403 10316 20/// 39252 40084 82201 333 59016;EQDQ01  00002PRCP99
0186831820999992000041300004-11300-041870FM-12+074799999V0200901N003610450019N9999999N1+02431+99999101111ADDAA199000091GF108991011021008001061011KA1240M+03181MA1999999092821MD1999999-0031REMSYN076AAXX  13004 83182 325// 80907 10243 20/// 39282 40111 81261 333 10318 59003;EQDQ01  00002PRCP99
0186831820999992000041312004-11300-041870FM-12+074799999V0200901N004112200019N0100001N1+02601+99999101311ADDAA199000091GF108991011021008001001011KA1240N+01821MA1999999093011MD1999999+0031REMSYN076AAXX  13124 83182 32597 80908 10260 2//// 39301 40131 81201 333 20182 58003;EQDQ01  00002PRCP99
0167831820999992000041318004-11300-041870FM-12+074799999V0200901N004110450019N0100001N1+03031+99999100861ADDAA199000091GF108991031021008001051011MA1999999092591MD1999999+0071REMSYN070AAXX  13184 83182 32597 80908 10303 20/// 39259 40086 83251 333 58007;EQDQ01  00002PRCP99
0186831820999992000041400004-11300-041870FM-12+074799999V0200901N004610075019N9999999N1+02361+99999101121ADDAA199000091GF108991081051008001999999KA1240M+03061MA1999999092841MD1999999+0021REMSYN076AAXX  14004 83182 325// 80909 10236 20/// 39284 40112 885// 333 10306 58002;EQDQ01  00002PRCP99
0167831820999992000041418004-11300-041870FM-12+074799999V0200501N003112200019N0100001N1+02931+99999101001ADDAA199000091GF108991041021008001001011MA1999999092731MD1999999+0141REMSYN070AAXX  14184 83182 32597 80506 10293 20/// 39273 40100 84201 333 58014;EQDQ01  00002PRCP99
0186831820999992000041500004-11300-041870FM-12+074799999V0200501N003112200019N9999999N1+02251+99999101321ADDAA199000091GF108991011021008001001011KA1240M+02951MA1999999092991MD1999999+0151REMSYN076AAXX  15004 83182 325// 80506 10225 20/// 39299 40132 81201 333 10295 58015;EQDQ01  00002PRCP99
0186831820999992000041512004-11300-041870FM-12+074799999V0200901N004112200019N0200001N1+02531+99999101501ADDAA199000091GF103991011011012501001011KA1240N+01921MA1999999093161MD1999999+0091REMSYN076AAXX  15124 83182 32698 30908 10253 2//// 39316 40150 81101 333 20192 58009;EQDQ01  00002PRCP99
0167831820999992000041518004-11300-041870FM-12+074799999V0200901N001012200019N0100001N1+03111+99999101001ADDAA199000091GF104991031021008001001011MA1999999092731MD1999999+0001REMSYN070AAXX  15184 83182 32597 40902 10311 2//// 39273 40100 83201 333 58000;EQDQ01  00002PRCP99
0186831820999992000041600004-11300-041870FM-12+074799999V0200501N001010042019N9999999N1+02511+99999101351ADDAA199000091GF108991051061004501021999KA1240M+03181MA1999999093051MD1999999+0061REMSYN076AAXX  16004 83182 324// 80502 10251 20/// 39305 40135 8562/ 333 10318 58006;EQDQ01  00002PRCP99
0186831820999992000041612004-11300-041870FM-12+074799999V0200501N002610075019N0100001N1+02471+99999101481ADDAA199000091GF108991051021008001001011KA1240N+01971MA1999999093161MD1999999+0001REMSYN076AAXX  16124 83182 32597 80505 10247 20/// 39316 40148 85201 333 20197 58000;EQDQ01  00002PRCP99
0167831820999992000041618004-11300-041870FM-12+074799999V0201401N003112200019N0100001N1+03071+99999100881ADDAA199000091GF102991011021008001001011MA1999999092631MD1999999-0101REMSYN070AAXX  16184 83182 32597 21406 10307 20/// 39263 40088 81201 333 59010;EQDQ01  00002PRCP99
0186831820999992000041700004-11300-041870FM-12+074799999V0201401N003612200019N9999999N1+02371+99999101201ADDAA199000091GF102991011001017501051011KA1240M+03121MA1999999092891MD1999999-0171REMSYN076AAXX  17004 83182 327// 21407 10237 20/// 39289 40120 81051 333 10312 59017;EQDQ01  00002PRCP99
0186831820999992000041712004-11300-041870FM-12+074799999V0201401N004610075019N0100001N1+02471+99999101411ADDAA199000091GF108991081051008001999999KA1240N+01881MA1999999093081MD1999999-0081REMSYN076AAXX  17124 83182 32597 81409 10247 2//// 39308 40141 885// 333 20188 59008;EQDQ01  00002PRCP99
0167831820999992000041718004-11300-041870FM-12+074799999V0201401N003110075019N0100001N1+02901+99999100911ADDAA199000091GF106991051021008001051011MA1999999092631MD1999999+0001REMSYN070AAXX  17184 83182 32597 61406 10290 2//// 39263 40091 85251 333 58000;EQDQ01  00002PRCP99
0186831820999992000041800004-11300-041870FM-12+074799999V0201401N003112200019N9999999N1+02251+99999101201ADDAA199000091GF101991011001017501041001KA1240M+03021MA1999999092881MD1999999-0011REMSYN076AAXX  18004 83182 327// 11406 10225 20/// 39288 40120 81040 333 10302 59001;EQDQ01  00002PRCP99
0214831820999992000041812004-11300-041870FM-12+074799999V0201401N002110075019N0040001N1+02421+99999101451ADDAA199000091AY111061AY211061GF108991061021008001001011KA1240N+01821MA1999999093111MD1999999+0031MW1051REMSYN082AAXX  18124 83182 31596 81404 10242 20/// 39311 40145 70511 86201 333 20182 58003;EQDQ01  00002PRCP99
0167831820999992000041818004-11300-041870FM-12+074799999V0201801N003110075019N0100001N1+03131+99999100851ADDAA199000091GF105991051021008001001001MA1999999092591MD1999999-0041REMSYN070AAXX  18184 83182 32597 51806 10313 20/// 39259 40085 85200 333 59004;EQDQ01  00002PRCP99
0196831820999992000041900004-11300-041870FM-12+074799999V0201401N002612200019N9999999N1+02251+99999101251ADDAA199000091GA1001+999999999GF100991001001999999001001KA1240M+03171MA1999999092931MD1999999+0051REMSYN070AAXX  19004 83182 329// 01405 10225 20/// 39293 40125 333 10317 58005;EQDQ01  00002PRCP99
0214831820999992000041912004-11300-041870FM-12+074799999V0201401N003610075019N0100001N1+02461+99999101521ADDAA199000091AY111061AY211061GF108991081051008001999999KA1240N+01801MA1999999093171MD1999999+0061MW1051REMSYN082AAXX  19124 83182 31597 81407 10246 20/// 39317 40152 70511 885// 333 20180 58006;EQDQ01  00002PRCP99
0195831820999992000041918004-11300-041870FM-12+074799999V0201401N004112200019N0040001N1+03131+99999100901ADDAA199000091AY121061AY221061GF106991041021008001001011MA1999999092881MD1999999+0051MW1051REMSYN076AAXX  19184 83182 31596 61408 10313 20/// 39288 40090 70522 84201 333 58005;EQDQ01  00002PRCP99
0196831820999992000042000004-11300-041870FM-12+074799999V0201401N005112200019N9999999N1+02311+99999101191ADDAA199000091GA1001+999999999GF100991001001999999001001KA1240M+03121MA1999999092881MD1999999-0051REMSYN070AAXX  20004 83182 329// 01410 10231 20/// 39288 40119 333 10312 59005;EQDQ01  00002PRCP99
0186831820999992000042012004-11300-041870FM-12+074799999V0200901N002110075019N0100001N1+02541+99999101391ADDAA199000091GF106991061021008001001001KA1240N+01841MA1999999093071MD1999999-0101REMSYN076AAXX  20124 83182 32597 60904 10254 2//// 39307 40139 86200 333 20184 59010;EQDQ01  00002PRCP99
0167831820999992000042018004-11300-041870FM-12+074799999V0201801N003610075019N0100001N1+03211+99999100771ADDAA199000091GF108991061021008001001011MA1999999092531MD1999999-0111REMSYN070AAXX  20184 83182 32597 81807 10321 2//// 39253 40077 86201 333 59011;EQDQ01  00002PRCP99
0186831820999992000042112004-11300-041870FM-12+074799999V0203601N002110075019N0100001N1+02551+99999101251ADDAA199000091GF107991051051008001001011KA1240N+02021MA1999999092951MD1999999-0121REMSYN076AAXX  21124 83182 32597 73604 10255 20/// 39295 40125 85501 333 20202 59012;EQDQ01  00002PRCP99
0167831820999992000042118004-11300-041870FM-12+074799999V0202701N002612200019N0100001N1+03301+99999100651ADDAA199000091GF102991011021008001001011MA1999999092451MD1999999-0081REMSYN070AAXX  21184 83182 32597 22705 10330 20/// 39245 40065 81201 333 59008;EQDQ01  00002PRCP99
0214831820999992000042200004-11300-041870FM-12+074799999V0201401N001010042019N9999999N1+02531+99999100971ADDAA199000091AY111061AY211061GF107991061031004501021001KA1240M+03341MA1999999092701MD1999999-0181MW1131REMSYN082AAXX  22004 83182 314// 71402 10253 20/// 39270 40097 71311 86320 333 10334 59018;EQDQ01  00002PRCP99
0195831820999992000042218004-11300-041870FM-12+074799999V0203201N005712200019N0010001N1+02731+99999100811ADDAA199000091AY121061AY221061GF106991031031004501001011MA1999999092541MD1999999+0091MW1161REMSYN076AAXX  22184 83182 31494 63211 10273 2//// 39254 40081 71622 83301 333 58009;EQDQ01  00002PRCP99
0201831820999992000042300004-11300-041870FM-12+074799999V0200901N005710042019N9999999N1+02191+99999101251ADDAA106002091AY191061AY221061GF108991051031004501021999KA1240M+03111MA1999999092911MD1999999+0211MW1611REMSYN088AAXX  23004 83182 214// 80911 10219 20/// 39291 40125 76192 8532/ 333 10311 58021 60021;
0201831820999992000042312004-11300-041870FM-12+074799999V0201401N001512200019N0100001N1+02451+99999101391ADDAA124017091AY161061AY221061GF108991011021008001001011KA1240N+01991MA1999999093051MD1999999+0141MW1021REMSYN088AAXX  23124 83182 21597 81403 10245 2//// 39305 40139 70262 81201 333 20199 58014 60174;
0176831820999992000042318004-11300-041870FM-12+074799999V0200901N001510450019N0020001N1+02781+99999100971ADDAA199000021AY121061AY221061GF108991021031004501051011MA1999999092681MD1999999+0141MW1611REMSYN076AAXX  23184 83182 31495 80903 10278 2//// 39268 40097 76122 82351 333 58014;
0201831820999992000042400004-11300-041870FM-12+074799999V0200901N005710042019N9999999N1+02191+99999101251ADDAA106002091AY191061AY221061GF108991051031004501021999KA1240M+03111MA1999999092911MD1999999+0211MW1611REMSYN088AAXX  24004 83182 214// 80911 10219 20/// 39291 40125 76192 8532/ 333 10311 58021 60021;
0167831820999992000042418004-11300-041870FM-12+074799999V0200901N005710450019N0100001N1+02631+99999101121ADDAA199000091GF107991021031004501051011MA1999999092821MD1999999+0141REMSYN070AAXX  24184 83182 32497 70911 10263 2//// 39282 40112 82351 333 58014;EQDQ01  00002PRCP99
0186831820999992000042500004-11300-041870FM-12+074799999V0200901N003610075019N9999999N1+02131+99999101321ADDAA199000091GF108991061021008001001011KA1240M+02641MA1999999092981MD1999999-0031REMSYN076AAXX  25004 83182 325// 80907 10213 20/// 39298 40132 86201 333 10264 59003;EQDQ01  00002PRCP99
0186831820999992000042512004-11300-041870FM-12+074799999V0201401N005110075019N0200001N1+02271+99999101441ADDAA199000091GF107991071051008001001001KA1240N+01941MA1999999093071MD1999999+0021REMSYN076AAXX  25124 83182 32598 71410 10227 20/// 39307 40144 87500 333 20194 58002;EQDQ01  00002PRCP99
0167831820999992000042518004-11300-041870FM-12+074799999V0201401N002612200019N0100001N1+02811+99999101061ADDAA199000091GF104991031021008001001011MA1999999092761MD1999999-0061REMSYN070AAXX  25184 83182 32597 41405 10281 20/// 39276 40106 83201 333 59006;EQDQ01  00002PRCP99
0186831820999992000042600004-11300-041870FM-12+074799999V0200901N004112200019N9999999N1+02071+99999101351ADDAA199000091GF108991031001017501051011KA1240M+02821MA1999999093021MD1999999+0041REMSYN076AAXX  26004 83182 327// 80908 10207 20/// 39302 40135 83051 333 10282 58004;EQDQ01  00002PRCP99
0156831820999992000042612004-11300-041870FM-12+074799999V0201401N005112200019N0200001N1+02341+99999999999ADDAA199000091GF104991999999999999999999KA1240N+01681REMSYN075AAXX  26124 83182 32998 41410 10234 2/// 39319 40157 80001 333 20168 58012;EQDQ01  00002PRCP99
0167831820999992000042618004-11300-041870FM-12+074799999V0201401N003112200019N0100001N1+02891+99999101111ADDAA199000091GF101991011011012501001001MA1999999092801MD1999999+0041REMSYN070AAXX  26184 83182 32697 11406 10289 20/// 39280 40111 81100 333 58004;EQDQ01  00002PRCP99
0196831820999992000042700004-11300-041870FM-12+074799999V0200901N003112200019N9999999N1+02071+99999101451ADDAA199000091GA1001+999999999GF100991001001999999001001KA1240M+02881MA1999999093081MD1999999+0061REMSYN070AAXX  27004 83182 329// 00906 10207 20/// 39308 40145 333 10288 58006;EQDQ01  00002PRCP99
0186831820999992000042712004-11300-041870FM-12+074799999V0201401N005112200019N0200001N1+02301+99999101671ADDAA199000091GF103991021021008001001011KA1240N+01781MA1999999093281MD1999999+0091REMSYN076AAXX  27124 83182 32598 31410 10230 20/// 39328 40167 82201 333 20178 58009;EQDQ01  00002PRCP99
0167831820999992000042718004-11300-041870FM-12+074799999V0201401N003112200019N0100001N1+02871+99999101151ADDAA199000091GF104991021021008001001011MA1999999092841MD1999999+0041REMSYN070AAXX  27184 83182 32597 41406 10287 2//// 39284 40115 82201 333 58004;EQDQ01  00002PRCP99
0186831820999992000042800004-11300-041870FM-12+074799999V0201401N004112200019N9999999N1+02171+99999101471ADDAA199000091GF103991021021008001001011KA1240M+02941MA1999999093111MD1999999+0031REMSYN076AAXX  28004 83182 325// 31408 10217 20/// 39311 40147 82201 333 10294 58003;EQDQ01  00002PRCP99
0186831820999992000042812004-11300-041870FM-12+074799999V0201401N004612200019N0100001N1+02311+99999101641ADDAA199000091GF102991021021008001001011KA1240N+01841MA1999999093321MD1999999+0041REMSYN076AAXX  28124 83182 32597 21409 10231 20/// 39332 40164 82201 333 20184 58004;EQDQ01  00002PRCP99
0167831820999992000042818004-11300-041870FM-12+074799999V0200901N004612200019N0100001N1+02771+99999101221ADDAA199000091GF102991021021008001001011MA1999999092911MD1999999+0071REMSYN070AAXX  28184 83182 32597 20909 10277 20/// 39291 40122 82201 333 58007;EQDQ01  00002PRCP99
0186831820999992000042900004-11300-041870FM-12+074799999V0201401N004610075019N9999999N1+02191+99999101541ADDAA199000091GF106991051021008001001011KA1240M+02901MA1999999093171MD1999999+0061REMSYN076AAXX  29004 83182 325// 61409 10219 20/// 39317 40154 85201 333 10290 58006;EQDQ01  00002PRCP99
0186831820999992000042912004-11300-041870FM-12+074799999V0200901N004110075019N0100001N1+02401+99999101691ADDAA199000091GF107991061051008001001011KA1240N+01971MA1999999093321MD1999999+0001REMSYN076AAXX  29124 83182 32597 70908 10240 2//// 39332 40169 86501 333 20197 58000;EQDQ01  00002PRCP99
0167831820999992000042918004-11300-041870FM-12+074799999V0201401N003110075019N0100001N1+02761+99999101231ADDAA199000091GF107991061021008001061001MA1999999092921MD1999999+0011REMSYN070AAXX  29184 83182 32597 71406 10276 2//// 39292 40123 86260 333 58001;EQDQ01  00002PRCP99
0196831820999992000043000004-11300-041870FM-12+074799999V0201401N003612200019N9999999N1+02151+99999101491ADDAA199000091GA1001+999999999GF100991001001999999001001KA1240M+02801MA1999999093141MD1999999-0031REMSYN070AAXX  30004 83182 329// 01407 10215 20/// 39314 40149 333 10280 59003;EQDQ01  00002PRCP99
0186831820999992000043012004-11300-041870FM-12+074799999V0200901N006212200019N0100001N1+02391+99999101611ADDAA199000091GF102991021021008001001011KA1240N+01981MA1999999093241MD1999999-0081REMSYN076AAXX  30124 83182 32597 20912 10239 20/// 39324 40161 82201 333 20198 59008;EQDQ01  00002PRCP99
0167831820999992000043018004-11300-041870FM-12+074799999V0201401N004610075019N0100001N1+02851+99999101181ADDAA199000091GF106991051021008001001011MA1999999092871MD1999999-0051REMSYN070AAXX  30184 83182 32597 61409 10285 2//// 39287 40118 85201 333 59005;EQDQ01  00002PRCP99
0186831820999992000050112004-11300-041870FM-12+074799999V0201401N004110075019N0100001N1+02451+99999101571ADDAA199000091GF107991061051008001001011KA1240N+01901MA1999999093211MD1999999-0031REMSYN076AAXX  01124 83182 32597 71408 10245 20/// 39321 40157 86501 333 20190 59003;EQDQ01  00002PRCP99
0195831820999992000050118004-11300-041870FM-12+074799999V0201401N006212200019N0040001N1+02811+99999101091ADDAA199000091AY121061AY221061GF108991011031004501001011MA1999999092791MD1999999-0081MW1151REMSYN076AAXX  01184 83182 31496 81412 10281 20/// 39279 40109 71522 81301 333 59008;EQDQ01  00002PRCP99
0186831820999992000050200004-11300-041870FM-12+074799999V0201401N004612200019N9999999N1+02151+99999101451ADDAA199000091GF106991011021008001001011KA1240M+02871MA1999999093101MD1999999-0061REMSYN076AAXX  02004 83182 325// 61409 10215 20/// 39310 40145 81201 333 10287 59006;EQDQ01  00002PRCP99
0186831820999992000050212004-11300-041870FM-12+074799999V0201401N005710075019N0100001N1+02441+99999101531ADDAA199000091GF106991061021008001001001KA1240N+01801MA1999999093171MD1999999-0041REMSYN076AAXX  02124 83182 32597 61411 10244 20/// 39317 40153 86200 333 20180 59004;EQDQ01  00002PRCP99
0167831820999992000050218004-11300-041870FM-12+074799999V0200901N005710075019N0100001N1+02611+99999101161ADDAA199000091GF107991051021008001061001MA1999999092841MD1999999+0051REMSYN070AAXX  02184 83182 32597 70911 10261 2//// 39284 40116 85260 333 58005;EQDQ01  00002PRCP99
0186831820999992000050312004-11300-041870FM-12+074799999V0200901N005112200019N0100001N1+02461+99999101571ADDAA199000091GF103991031021008001001001KA1240N+01741MA1999999093181MD1999999+0011REMSYN076AAXX  03124 83182 32597 30910 10246 20/// 39318 40157 83200 333 20174 58001;EQDQ01  00002PRCP99
0167831820999992000050318004-11300-041870FM-12+074799999V0200901N004110075019N0100001N1+02611+99999101201ADDAA199000091GF107991061021008001061001MA1999999092861MD1999999+0021REMSYN070AAXX  03184 83182 32597 70908 10261 20/// 39286 40120 86260 333 58002;EQDQ01  00002PRCP99
0196831820999992000050400004-11300-041870FM-12+074799999V0201401N005112200019N9999999N1+02091+99999101371ADDAA199000091GA1001+999999999GF100991001001999999001001KA1240M+02701MA1999999093031MD1999999-0061REMSYN070AAXX  04004 83182 329// 01410 10209 20/// 39303 40137 333 10270 59006;EQDQ01  00002PRCP99
0186831820999992000050412004-11300-041870FM-12+074799999V0200901N006710075019N0100001N1+02391+99999101541ADDAA199000091GF107991071051008001001001KA1240N+01781MA1999999093171MD1999999-0011REMSYN076AAXX  04124 83182 32597 70913 10239 20/// 39317 40154 87500 333 20178 59001;EQDQ01  00002PRCP99
0167831820999992000050418004-11300-041870FM-12+074799999V0200901N005110075019N0100001N1+02751+99999101121ADDAA199000091GF107991061051008001061001MA1999999092781MD1999999-0081REMSYN070AAXX  04184 83182 32597 70910 10275 2//// 39278 40112 86560 333 59008;EQDQ01  00002PRCP99
0186831820999992000050500004-11300-041870FM-12+074799999V0200901N003612200019N9999999N1+02111+99999101371ADDAA199000091GF103991021051008001061001KA1240M+02781MA1999999093021MD1999999-0011REMSYN076AAXX  05004 83182 325// 30907 10211 20/// 39302 40137 82560 333 10278 59001;EQDQ01  00002PRCP99
0186831820999992000050512004-11300-041870FM-12+074799999V0200901N006710075019N0100001N1+02291+99999101481ADDAA199000091GF106991061021008001001001KA1240N+01851MA1999999093111MD1999999-0061REMSYN076AAXX  05124 83182 32597 60913 10229 2//// 39311 40148 86200 333 20185 59006;EQDQ01  00002PRCP99
0167831820999992000050518004-11300-041870FM-12+074799999V0200901N005710075019N0100001N1+02731+99999101101ADDAA199000091GF108991081051008001999999MA1999999092791MD1999999+0011REMSYN070AAXX  05184 83182 32597 80911 10273 2//// 39279 40110 885// 333 58001;EQDQ01  00002PRCP99
0186831820999992000050600004-11300-041870FM-12+074799999V0201401N003612200019N9999999N1+02131+99999101381ADDAA199000091GF106991021021008001001011KA1240M+02761MA1999999093021MD1999999+0001REMSYN076AAXX  06004 83182 325// 61407 10213 20/// 39302 40138 82201 333 10276 58000;EQDQ01  00002PRCP99
0186831820999992000050612004-11300-041870FM-12+074799999V0201401N005110075019N0200001N1+02351+99999101401ADDAA199000091GF107991071021008001001001KA1240N+01921MA1999999093051MD1999999-0061REMSYN076AAXX  06124 83182 32598 71410 10235 20/// 39305 40140 87200 333 20192 59006;EQDQ01  00002PRCP99
0167831820999992000050618004-11300-041870FM-12+074799999V0200901N003110075019N0100001N1+02801+99999101071ADDAA199000091GF106991051021008001001011MA1999999092771MD1999999-0021REMSYN070AAXX  06184 83182 32597 60906 10280 2//// 39277 40107 85201 333 59002;EQDQ01  00002PRCP99
0186831820999992000050700004-11300-041870FM-12+074799999V0201401N003112200019N9999999N1+02161+99999101281ADDAA199000091GF106991011021008001001011KA1240M+02841MA1999999092941MD1999999-0081REMSYN076AAXX  07004 83182 325// 61406 10216 20/// 39294 40128 81201 333 10284 59008;EQDQ01  00002PRCP99
0186831820999992000050712004-11300-041870FM-12+074799999V0201401N004610075019N0200001N1+02371+99999101421ADDAA199000091GF108991061021008001001011KA1240N+01821MA1999999093061MD1999999+0011REMSYN076AAXX  07124 83182 32598 81409 10237 20/// 39306 40142 86201 333 20182 58001;EQDQ01  00002PRCP99
0167831820999992000050718004-11300-041870FM-12+074799999V0201401N003112200019N0100001N1+03091+99999100921ADDAA199000091GF106991041021008001001011MA1999999092651MD1999999-0121REMSYN070AAXX  07184 83182 32597 61406 10309 20/// 39265 40092 84201 333 59012;EQDQ01  00002PRCP99
0186831820999992000050800004-11300-041870FM-12+074799999V0201401N002612200019N9999999N1+02191+99999101301ADDAA199000091GF106991011021008001001011KA1240M+03081MA1999999092961MD1999999+0021REMSYN076AAXX  08004 83182 325// 61405 10219 20/// 39296 40130 81201 333 10308 58002;EQDQ01  00002PRCP99
0186831820999992000050812004-11300-041870FM-12+074799999V0200901N007712200019N0100001N1+02451+99999101571ADDAA199000091GF102991021021008001001011KA1240N+01861MA1999999093211MD1999999+0151REMSYN076AAXX  08124 83182 32597 20915 10245 2//// 39321 40157 82201 333 20186 58015;EQDQ01  00002PRCP99
0167831820999992000050818004-11300-041870FM-12+074799999V0201401N004112200019N0100001N1+03041+99999101131ADDAA199000091GF103991021021008001001011MA1999999092851MD1999999+0201REMSYN070AAXX  08184 83182 32597 31408 10304 2//// 39285 40113 82201 333 58020;EQDQ01  00002PRCP99
0186831820999992000050900004-11300-041870FM-12+074799999V0200901N003612200019N9999999N1+02311+99999101371ADDAA199000091GF102991001001999999001011KA1240M+03041MA1999999093051MD1999999+0091REMSYN076AAXX  09004 83182 329// 20907 10231 20/// 39305 40137 80001 333 10304 58009;EQDQ01  00002PRCP99
0186831820999992000050912004-11300-041870FM-12+074799999V0201401N004112200019N0100001N1+02491+99999101611ADDAA199000091GF104991041021008001001001KA1240N+01881MA1999999093261MD1999999+0051REMSYN076AAXX  09124 83182 32597 41408 10249 20/// 39326 40161 84200 333 20188 58005;EQDQ01  00002PRCP99
0167831820999992000050918004-11300-041870FM-12+074799999V0201801N002112200019N0100001N1+03071+99999101271ADDAA199000091GF103991031021008001001001MA1999999092971MD1999999+0121REMSYN070AAXX  09184 83182 32597 31804 10307 20/// 39297 40127 83200 333 58012;EQDQ01  00002PRCP99
0196831820999992000051000004-11300-041870FM-12+074799999V0200901N001512200019N9999999N1+02251+99999101351ADDAA199000091GA1001+999999999GF100991001001999999001001KA1240M+03121MA1999999093021MD1999999-0031REMSYN070AAXX  10004 83182 329// 00903 10225 20/// 39302 40135 333 10312 59003;EQDQ01  00002PRCP99
0186831820999992000051012004-11300-041870FM-12+074799999V0201401N002619999999N0100001N1+02491+99999101591ADDAA199000091GF108991001001999999001011KA1240N+01801MA1999999093241MD1999999+0021REMSYN076AAXX  10124 83182 32997 81405 10249 20/// 39324 40159 80001 333 20180 58002;EQDQ01  00002PRCP99
0186831820999992000051100004-11300-041870FM-12+074799999V0201401N003112200019N9999999N1+02311+99999101451ADDAA199000091GF108991021001017501041011KA1240M+03161MA1999999093121MD1999999-0101REMSYN076AAXX  11004 83182 327// 81406 10231 20/// 39312 40145 82041 333 10316 59010;EQDQ01  00002PRCP99
0186831820999992000051112004-11300-041870FM-12+074799999V0200901N004612200019N0100001N1+02461+99999101611ADDAA199000091GF108991021021008001001011KA1240N+01751MA1999999093261MD1999999+0021REMSYN076AAXX  11124 83182 32597 80909 10246 20/// 39326 40161 82201 333 20175 58002;EQDQ01  00002PRCP99
0167831820999992000051118004-11300-041870FM-12+074799999V0201401N004110450019N0100001N1+02951+99999101111ADDAA199000091GF108991031021008001051011MA1999999092821MD1999999-0021REMSYN070AAXX  11184 83182 32597 81408 10295 20/// 39282 40111 83251 333 59002;EQDQ01  00002PRCP99
0186831820999992000051200004-11300-041870FM-12+074799999V0201401N003619999999N9999999N1+02231+99999101391ADDAA199000091GF108991001001999999001011KA1240M+03001MA1999999093051MD1999999-0071REMSYN076AAXX  12004 83182 329// 81407 10223 20/// 39305 40139 80001 333 10300 59007;EQDQ01  00002PRCP99
0186831820999992000051212004-11300-041870FM-12+074799999V0200901N006212200019N0100001N1+02351+99999101611ADDAA199000091GF108991021021008001001011KA1240N+01781MA1999999093251MD1999999-0011REMSYN076AAXX  12124 83182 32597 80912 10235 2//// 39325 40161 82201 333 20178 59001;EQDQ01  00002PRCP99
0168831820999992000051218004-11300-041870FM-12+074799999V0201401N005110075019N0100001N1+02681+99999101251ADDAA199000091GF107991051021008001051001MD1999999+0111REMSYN070AAXX  12184 83182 32597 71410 10268 20/// 38293 40125 85250 333 58011;EQDQ01+082933APOSP Q02  00002PRCP99
0186831820999992000051300004-11300-041870FM-12+074799999V0201401N003612200019N9999999N1+02041+99999101561ADDAA199000091GF104991001001999999001011KA1240M+02751MA1999999093181MD1999999+0131REMSYN076AAXX  13004 83182 329// 41407 10204 20/// 39318 40156 80001 333 10275 58013;EQDQ01  00002PRCP99
0186831820999992000051312004-11300-041870FM-12+074799999V0201401N006712200019N0100001N1+02151+99999101721ADDAA199000091GF102991011021008001001011KA1240N+01561MA1999999093331MD1999999+0081REMSYN076AAXX  13124 83182 32597 21413 10215 20/// 39333 40172 81201 333 20156 58008;EQDQ01  00002PRCP99
0167831820999992000051318004-11300-041870FM-12+074799999V0200901N004112200019N0100001N1+02731+99999101331ADDAA199000091GF102991011021008001001011MA1999999092971MD1999999+0041REMSYN070AAXX  13184 83182 32597 20908 10273 20/// 39297 40133 81201 333 58004;EQDQ01  00002PRCP99
0167831820999992000051418004-11300-041870FM-12+074799999V0200901N004612200019N0200001N1+02671+99999101291ADDAA199000091GF106991041021008001001011MA1999999092941MD1999999-0031REMSYN070AAXX  14184 83182 32598 60909 10267 2//// 39294 40129 84201 333 59003;EQDQ01  00002PRCP99
0186831820999992000051500004-11300-041870FM-12+074799999V0200901N002112200019N9999999N1+01931+99999101641ADDAA199000091GF104991001001999999001011KA1240M+02691MA1999999093241MD1999999+0031REMSYN076AAXX  15004 83182 329// 40904 10193 20/// 39324 40164 80001 333 10269 58003;EQDQ01  00002PRCP99
0186831820999992000051512004-11300-041870FM-12+074799999V0200901N005110075019N0100001N1+02231+99999101611ADDAA199000091GF107991071051008001001001KA1240N+01701MA1999999093211MD1999999-0101REMSYN076AAXX  15124 83182 32597 70910 10223 20/// 39321 40161 87500 333 20170 59010;EQDQ01  00002PRCP99
0167831820999992000051518004-11300-041870FM-12+074799999V0200501N004112200019N0100001N1+02761+99999101061ADDAA199000091GF102991021021008001001001MA1999999092751MD1999999-0191REMSYN070AAXX  15184 83182 32597 20508 10276 20/// 39275 40106 82200 333 59019;EQDQ01  00002PRCP99
0186831820999992000051612004-11300-041870FM-12+074799999V0200901N003112200019N0100001N1+02231+99999101511ADDAA199000091GF101991011011012501001001KA1240N+01541MA1999999093121MD1999999-0091REMSYN076AAXX  16124 83182 32697 10906 10223 20/// 39312 40151 81100 333 20154 59009;EQDQ01  00002PRCP99
0161831820999992000051618004-11300-041870FM-12+074799999V0200501N001512200019N0100001N1+03031+99999999999ADDAA199000091GF108991011011012501001011MA1999999092711MD1999999-0041REMSYN064AAXX  16184 83182 32697 80503 10303 20/// 39271 81101 333 59004;EQDQ01  00002PRCP99
0186831820999992000051700004-11300-041870FM-12+074799999V0200901N003112200019N9999999N1+02211+99999101331ADDAA199000091GF108991011001017501051011KA1240M+03051MA1999999092971MD1999999-0031REMSYN076AAXX  17004 83182 327// 80906 10221 20/// 39297 40133 81051 333 10305 59003;EQDQ01  00002PRCP99
0186831820999992000051712004-11300-041870FM-12+074799999V0200901N003612200019N0100001N1+02441+99999101541ADDAA199000091GF102991011011012501001011KA1240N+01681MA1999999093191MD1999999+0071REMSYN076AAXX  17124 83182 32697 20907 10244 20/// 39319 40154 81101 333 20168 58007;EQDQ01  00002PRCP99
0167831820999992000051718004-11300-041870FM-12+074799999V0203201N003612200019N0100001N1+03211+99999100941ADDAA199000091GF102991011021008001001011MA1999999092661MD1999999-0051REMSYN070AAXX  17184 83182 32597 23207 10321 2//// 39266 40094 81201 333 59005;EQDQ01  00002PRCP99
0186831820999992000051800004-11300-041870FM-12+074799999V0200901N003110450019N9999999N1+02331+99999101161ADDAA199000091GF108991011011012501051011KA1240M+03221MA1999999092851MD1999999-0121REMSYN076AAXX  18004 83182 326// 80906 10233 20/// 39285 40116 81151 333 10322 59012;EQDQ01  00002PRCP99
0186831820999992000051812004-11300-041870FM-12+074799999V0200501N002112200019N0100001N1+02551+99999101451ADDAA199000091GF108991011021008001001011KA1240N+01801MA1999999093131MD1999999-0061REMSYN076AAXX  18124 83182 32597 80504 10255 20/// 39313 40145 81201 333 20180 59006;EQDQ01  00002PRCP99
0167831820999992000051818004-11300-041870FM-12+074799999V0203201N004112200019N0100001N1+03201+99999101871ADDAA199000091GF108991021021008001001011MA1999999092621MD1999999-0041REMSYN070AAXX  18184 83182 32597 83208 10320 20/// 39262 40187 82201 333 59004;EQDQ01  00002PRCP99
0186831820999992000051900004-11300-041870FM-12+074799999V0201401N003610150019N9999999N1+02401+99999101171ADDAA199000091GF108991061001017501051011KA1240M+03221MA1999999092881MD1999999+0031REMSYN076AAXX  19004 83182 327// 81407 10240 20/// 39288 40117 86051 333 10322 58003;EQDQ01  00002PRCP99
0186831820999992000051912004-11300-041870FM-12+074799999V0200501N002110450019N0040001N1+02551+99999101311ADDAA199000091GF108991011021008001051011KA1240N+01941MA1999999093011MD1999999-0121REMSYN076AAXX  19124 83182 32596 80504 10255 2//// 39301 40131 81251 333 20194 59012;EQDQ01  00002PRCP99
0195831820999992000051918004-11300-041870FM-12+074799999V0200501N005110450019N0040001N1+02741+99999101081ADDAA199000091AY121061AY221061GF108991021061004501021011MA1999999092781MD1999999+0161MW1151REMSYN076AAXX  19184 83182 31496 80510 10274 20/// 39278 40108 71522 82621 333 58016;EQDQ01  00002PRCP99
0201831820999992000052000004-11300-041870FM-12+074799999V0203201N001010450019N9999999N1+02281+99999101431ADDAA106004191AY161061AY221061GF108991011041004501011999KA1240M+02941MA1999999093101MD1999999+0221MW1021REMSYN088AAXX  20004 83182 214// 83202 10228 20/// 39310 40143 70262 8141/ 333 10294 58022 60041;
0173831820999992000052012004-11300-041870FM-12+074799999V0200901N002610450019N0040001N1+02451+99999101631ADDAA124004191GF107991011021008001051011KA1240N+01971MA1999999093271MD1999999+0261REMSYN082AAXX  20124 83182 22596 70905 10245 20/// 39327 40163 81251 333 20197 58026 60044;
0167831820999992000052018004-11300-041870FM-12+074799999V0203601N000510450019N0100001N1+02811+99999101191ADDAA199000091GF106991011031004501051001MA1999999092901MD1999999+0121REMSYN070AAXX  20184 83182 32497 63601 10281 2//// 39290 40119 81350 333 58012;EQDQ01  00002PRCP99
0224831820999992000052100004-11300-041870FM-12+074799999V0200901N003112200019N9999999N1+02211+99999101481ADDAA199000091AY111061AY211061GA1001+999999999GF100991001001999999001001KA1240M+02911MA1999999093141MD1999999+0041MW1131REMSYN076AAXX  21004 83182 319// 00906 10221 20/// 39314 40148 71311 333 10291 58004;EQDQ01  00002PRCP99
0186831820999992000052112004-11300-041870FM-12+074799999V0200901N005110075019N0040001N1+02471+99999101731ADDAA199000091GF107991061021008001001011KA1240N+01961MA1999999093361MD1999999+0091REMSYN076AAXX  21124 83182 32596 70910 10247 20/// 39336 40173 86201 333 20196 58009;EQDQ01  00002PRCP99
0167831820999992000052118004-11300-041870FM-12+074799999V0200501N002612200019N0100001N1+02831+99999101361ADDAA199000091GF105991041021008001001011MA1999999093051MD1999999+0151REMSYN070AAXX  21184 83182 32597 50505 10283 2//// 39305 40136 84201 333 58015;EQDQ01  00002PRCP99
0186831820999992000052212004-11300-041870FM-12+074799999V0201401N006712200019N0100001N1+02381+99999101851ADDAA199000091GF104991011021008001001011KA1240N+01991MA1999999093471MD1999999+0111REMSYN076AAXX  22124 83182 32597 41413 10238 20/// 39347 40185 81201 333 20199 58011;EQDQ01  00002PRCP99
0167831820999992000052218004-11300-041870FM-12+074799999V02099999999990042019N0100001N1+02451+99999101581ADDAA199000091GF107991071071004501001001MA1999999093211MD1999999+0161REMSYN070AAXX  22184 83182 32497 7//// 10245 20/// 39321 40158 87700 333 58016;EQDQ01  00002PRCP99
0186831820999992000052300004-11300-041870FM-12+074799999V02099999999990075019N9999999N1+02311+01791101861ADDAA199000091GF106991061021008001001001KA1240M+02541MA1999999093481MD1999999+0191REMSYN076AAXX  23004 83182 325// 6//// 10231 20179 39348 40186 86200 333 10254 58019;EQDQ01  00002PRCP99
0186831820999992000052312004-11300-041870FM-12+074799999V02099999999990075019N0100001N1+02191+01651101931ADDAA199000091GF106991061051008001001001KA1240N+02001MA1999999093541MD1999999+0071REMSYN076AAXX  23124 83182 32597 6//// 10219 20165 39354 40193 86500 333 20200 58007;EQDQ01  00002PRCP99
0167831820999992000052318004-11300-041870FM-12+074799999V0201401N006710075019N0100001N1+02471+01821101651ADDAA199000091GF106991061051008001001001MA1999999093291MD1999999+0001REMSYN070AAXX  23184 83182 32597 61413 10247 20182 39329 40165 86500 333 58000;EQDQ01  00002PRCP99
0186831820999992000052400004-11300-041870FM-12+074799999V0201401N003110075019N0005001N1+01841+01741101881ADDAA199000091GF108991081051008001999999KA1240M+02471MA1999999093501MD1999999+0021REMSYN076AAXX  24004 83182 32593 81406 10184 20174 39350 40188 885// 333 10247 58002;EQDQ01  00002PRCP99
0186831820999992000052412004-11300-041870FM-12+074799999V0201401N006712200019N0100001N1+02001+01511101971ADDAA199000091GF102991021021008001001001KA1240N+01531MA1999999093531MD1999999-0011REMSYN076AAXX  24124 83182 32597 21413 10200 20151 39353 40197 82200 333 20153 59001;EQDQ01  00002PRCP99
0167831820999992000052418004-11300-041870FM-12+074799999V0200901N004112200019N0100001N1+02741+01571101441ADDAA199000091GF102991021021008001001001MA1999999093091MD1999999-0201REMSYN070AAXX  24184 83182 32597 20908 10274 20157 39309 40144 82200 333 59020;EQDQ01  00002PRCP99
0196831820999992000052500004-11300-041870FM-12+074799999V0200901N002612200019N0005001N1+01861+01431101751ADDAA199000091GA1001+999999999GF100991001001999999001001KA1240M+02741MA1999999093341MD1999999-0161REMSYN070AAXX  25004 83182 32993 00905 10186 20143 39334 40175 333 10274 59016;EQDQ01  00002PRCP99
0186831820999992000052512004-11300-041870FM-12+074799999V0200901N005110075019N0100001N1+02101+01581101851ADDAA199000091GF107991071051008001001001KA1240N+01591MA1999999093431MD1999999-0101REMSYN076AAXX  25124 83182 32597 70910 10210 20158 39343 40185 87500 333 20159 59010;EQDQ01  00002PRCP99
0167831820999992000052518004-11300-041870FM-12+074799999V0200901N004110075019N0100001N1+02601+01571101431ADDAA199000091GF106991061021008001001001MA1999999093071MD1999999-0021REMSYN070AAXX  25184 83182 32597 60908 10260 20157 39307 40143 86200 333 59002;EQDQ01  00002PRCP99
0186831820999992000052600004-11300-041870FM-12+074799999V0201401N004110075019N0005001N1+02081+01741101701ADDAA199000091GF108991081051008001999999KA1240M+02601MA1999999093301MD1999999-0041REMSYN076AAXX  26004 83182 32593 81408 10208 20174 39330 40170 885// 333 10260 59004;EQDQ01  00002PRCP99
0186831820999992000052612004-11300-041870FM-12+074799999V0200901N007712200019N0100001N1+02291+01681101681ADDAA199000091GF102991011021008001001011KA1240N+01741MA1999999093291MD1999999-0141REMSYN076AAXX  26124 83182 32597 20915 10229 20168 39329 40168 81201 333 20174 59014;EQDQ01  00002PRCP99
0167831820999992000052618004-11300-041870FM-12+074799999V0201401N003610075019N0100001N1+02581+01641101341ADDAA199000091GF107991061051008001051001MA1999999092991MD1999999-0081REMSYN070AAXX  26184 83182 32597 71407 10258 20164 39299 40134 86550 333 59008;EQDQ01  00002PRCP99
0186831820999992000052700004-11300-041870FM-12+074799999V0201401N003612200019N0005001N1+01991+01691101561ADDAA199000091GF104991011021008001001011KA1240M+02681MA1999999093171MD1999999-0131REMSYN076AAXX  27004 83182 32593 41407 10199 20169 39317 40156 81201 333 10268 59013;EQDQ01  00002PRCP99
0186831820999992000052712004-11300-041870FM-12+074799999V0200901N003612200019N0100001N1+02361+01641101551ADDAA199000091GF103991021021008001001011KA1240N+01641MA1999999093171MD1999999-0121REMSYN076AAXX  27124 83182 32597 30907 10236 20164 39317 40155 82201 333 20164 59012;EQDQ01  00002PRCP99
0167831820999992000052718004-11300-041870FM-12+074799999V0200501N002112200019N0100001N1+02911+01331101061ADDAA199000091GF103991031021008001001001MA1999999092751MD1999999-0241REMSYN070AAXX  27184 83182 32597 30504 10291 20133 39275 40106 83200 333 59024;EQDQ01  00002PRCP99
0196831820999992000052800004-11300-041870FM-12+074799999V0201401N004112200019N0005001N1+02041+01431101331ADDAA199000091GA1001+999999999GF100991001001999999001001KA1240M+02951MA1999999092971MD1999999-0201REMSYN070AAXX  28004 83182 32993 01408 10204 20143 39297 40133 333 10295 59020;EQDQ01  00002PRCP99
0186831820999992000052812004-11300-041870FM-12+074799999V0201401N002119999999N0100001N1+02391+01631101391ADDAA199000091GF106991001001999999001011KA1240N+01531MA1999999093031MD1999999-0141REMSYN076AAXX  28124 83182 32997 61404 10239 20163 39303 40139 80001 333 20153 59014;EQDQ01  00002PRCP99
0167831820999992000052818004-11300-041870FM-12+074799999V0201401N002612200019N0100001N1+03081+01171100881ADDAA199000091GF103991021021008001001011MA1999999092591MD1999999-0161REMSYN070AAXX  28184 83182 32597 31405 10308 20117 39259 40088 82201 333 59016;EQDQ01  00002PRCP99
0186831820999992000052900004-11300-041870FM-12+074799999V0200901N003112200019N0005001N1+02271+01401101121ADDAA199000091GF104991021021008001001011KA1240M+03161MA1999999092801MD1999999-0161REMSYN076AAXX  29004 83182 32593 40906 10227 20140 39280 40112 82201 333 10316 59016;EQDQ01  00002PRCP99
0186831820999992000052912004-11300-041870FM-12+074799999V0201801N002112200019N0100001N1+02441+01831101291ADDAA199000091GF108991011001017501041011KA1240N+01851MA1999999092961MD1999999-0071REMSYN076AAXX  29124 83182 32797 81804 10244 20183 39296 40129 81041 333 20185 59007;EQDQ01  00002PRCP99
0167831820999992000052918004-11300-041870FM-12+074799999V0202301N002610450019N0100001N1+03141+01501100771ADDAA199000091GF106991031021008001051011MA1999999092531MD1999999-0061REMSYN070AAXX  29184 83182 32597 62305 10314 20150 39253 40077 83251 333 59006;EQDQ01  00002PRCP99
0186831820999992000053000004-11300-041870FM-12+074799999V0200901N003612200019N0005001N1+02411+01661101161ADDAA199000091GF108991011001017501041011KA1240M+03141MA1999999092861MD1999999+0051REMSYN076AAXX  30004 83182 32793 80907 10241 20166 39286 40116 81041 333 10314 58005;EQDQ01  00002PRCP99
0186831820999992000053012004-11300-041870FM-12+074799999V0200901N006712200019N0100001N1+02441+01561101501ADDAA199000091GF108991011001017501041011KA1240N+01691MA1999999093171MD1999999+0211REMSYN076AAXX  30124 83182 32797 80913 10244 20156 39317 40150 81041 333 20169 58021;EQDQ01  00002PRCP99
0186831820999992000053100004-11300-041870FM-12+074799999V0200901N003119999999N0005001N1+02111+01561101341ADDAA199000091GF108991001001999999001011KA1240M+03061MA1999999093001MD1999999+0141REMSYN076AAXX  31004 83182 32993 80906 10211 20156 39300 40134 80001 333 10306 58014;EQDQ01  00002PRCP99
0186831820999992000053112004-11300-041870FM-12+074799999V0200901N002612200019N0100001N1+02431+01911101481ADDAA199000091GF108991021021008001001011KA1240N+01601MA1999999093131MD1999999-0041REMSYN076AAXX  31124 83182 32597 80905 10243 20191 39313 40148 82201 333 20160 59004;EQDQ01  00002PRCP99
0167831820999992000053118004-11300-041870FM-12+074799999V0200501N001512200019N0100001N1+03101+01161100971ADDAA199000091GF108991031021008001001011MA1999999092681MD1999999-0071REMSYN070AAXX  31184 83182 32597 80503 10310 20116 39268 40097 83201 333 59007;EQDQ01  00002PRCP99
0186831820999992000060100004-11300-041870FM-12+074799999V0200901N002619999999N0005001N1+02211+01691101261ADDAA199000091GF108991001001999999001011KA1240M+03201MA1999999092941MD1999999-0061REMSYN076AAXX  01004 83182 32993 80905 10221 20169 39294 40126 80001 333 10320 59006;EQDQ01  00002PRCP99
0186831820999992000060112004-11300-041870FM-12+074799999V0201401N003110450019N0100001N1+02381+01631101571ADDAA199000091GF108991011021008001031011KA1240N+01591MA1999999093211MD1999999+0081REMSYN076AAXX  01124 83182 32597 81406 10238 20163 39321 40157 81231 333 20159 58008;EQDQ01  00002PRCP99
0167831820999992000060118004-11300-041870FM-12+074799999V0201801N003110075019N0100001N1+03041+00981101101ADDAA199000091GF106991051021008001051011MA1999999092801MD1999999+0121REMSYN070AAXX  01184 83182 32597 61806 10304 20098 39280 40110 85251 333 58012;EQDQ01  00002PRCP99
0186831820999992000060200004-11300-041870FM-12+074799999V0200901N003119999999N0005001N1+02151+01161101411ADDAA199000091GF106991001001999999001011KA1240M+03221MA1999999093051MD1999999+0111REMSYN076AAXX  02004 83182 32993 60906 10215 20116 39305 40141 80001 333 10322 58011;EQDQ01  00002PRCP99
0186831820999992000060212004-11300-041870FM-12+074799999V0201401N003612200019N0100001N1+02391+01641101681ADDAA199000091GF102991001001999999001011KA1240N+01611MA1999999093301MD1999999+0091REMSYN076AAXX  02124 83182 32997 21407 10239 20164 39330 40168 80001 333 20161 58009;EQDQ01  00002PRCP99
0167831820999992000060218004-11300-041870FM-12+074799999V0200901N005112200019N0100001N1+02961+01461101261ADDAA199000091GF102991021021008001001001MA1999999092941MD1999999+0141REMSYN070AAXX  02184 83182 32597 20910 10296 20146 39294 40126 82200 333 58014;EQDQ01  00002PRCP99
0196831820999992000060300004-11300-041870FM-12+074799999V0201401N003612200019N0005001N1+02241+01501101521ADDAA199000091GA1001+999999999GF100991001001999999001001KA1240M+03041MA1999999093171MD1999999+0121REMSYN070AAXX  03004 83182 32993 01407 10224 20150 39317 40152 333 10304 58012;EQDQ01  00002PRCP99
0186831820999992000060312004-11300-041870FM-12+074799999V0200901N008712200019N0100001N1+02351+01501101831ADDAA199000091GF101991011021008001001001KA1240N+01811MA1999999093451MD1999999+0151REMSYN076AAXX  03124 83182 32597 10917 10235 20150 39345 40183 81200 333 20181 58015;EQDQ01  00002PRCP99
0161831820999992000060318004-11300-041870FM-12+074799999V0200901N007212200019N0100001N1+02821+99999101491ADDAA199000091GF101991011021008001001001MA1999999093151MD1999999+0211REMSYN064AAXX  03184 83182 32597 10914 10282 39315 40149 81200 333 58021;EQDQ01  00002PRCP99
0186831820999992000060400004-11300-041870FM-12+074799999V0200901N000512200019N0005001N1+02111+01591101761ADDAA199000091GF102991001001999999001011KA1240M+02851MA1999999093171MD1999999+0201REMSYN076AAXX  04004 83182 32993 20901 10211 20159 39317 40176 80001 333 10285 58020;EQDQ01  00002PRCP99
0186831820999992000060412004-11300-041870FM-12+074799999V0200901N006710042019N0100001N1+02151+01701101921ADDAA199000091GF108991081051004501999999KA1240N+01651MA1999999093511MD1999999+0061REMSYN076AAXX  04124 83182 32497 80913 10215 20170 39351 40192 885// 333 20165 58006;EQDQ01  00002PRCP99
0167831820999992000060418004-11300-041870FM-12+074799999V0200901N006710042019N0100001N1+02421+01651101671ADDAA199000091GF108991081051004501999999MA1999999093271MD1999999+0121REMSYN070AAXX  04184 83182 32497 80913 10242 20165 39327 40167 885// 333 58012;EQDQ01  00002PRCP99
0186831820999992000060500004-11300-041870FM-12+074799999V0201401N005110075019N0005001N1+02011+01691101841ADDAA199000091GF106991061021008001001001KA1240M+02541MA1999999093431MD1999999+0261REMSYN076AAXX  05004 83182 32593 61410 10201 20169 39343 40184 86200 333 10254 58026;EQDQ01  00002PRCP99
0186831820999992000060512004-11300-041870FM-12+074799999V0200901N007710450019N0100001N1+02011+01421101921ADDAA199000091GF107991021021008001051011KA1240N+01631MA1999999093481MD1999999-0031REMSYN076AAXX  05124 83182 32597 70915 10201 20142 39348 40192 82251 333 20163 59003;EQDQ01  00002PRCP99
0167831820999992000060518004-11300-041870FM-12+074799999V0200901N005710042019N0040001N1+02371+01551101681ADDAA199000091GF108991081071004501999999MA1999999093281MD1999999+0011REMSYN070AAXX  05184 83182 32496 80911 10237 20155 39328 40168 887// 333 58001;EQDQ01  00002PRCP99
0201831820999992000060600004-11300-041870FM-12+074799999V0200901N003110075019N0005001N1+02011+01571101851ADDAA106000191AY161061AY221061GF107991071021008001001001KA1240M+02501MA1999999093421MD1999999-0011MW1031REMSYN088AAXX  06004 83182 21593 70906 10201 20157 39342 40185 70362 87200 333 10250 59001 69911;
0201831820999992000060612004-11300-041870FM-12+074799999V0200901N007710075019N0100001N1+01961+01441101971ADDAA124000591AY161061AY221061GF107991071051008001001001KA1240N+01561MA1999999093531MD1999999+0051MW1031REMSYN088AAXX  06124 83182 21597 70915 10196 20144 39353 40197 70362 87500 333 20156 58005 69954;
0167831820999992000060618004-11300-041870FM-12+074799999V0200901N005110075019N0100001N1+02381+01631101701ADDAA199000091GF108991081051008001999999MA1999999093291MD1999999+0011REMSYN070AAXX  06184 83182 32597 80910 10238 20163 39329 40170 885// 333 58001;EQDQ01  00002PRCP99
0186831820999992000060700004-11300-041870FM-12+074799999V0200901N005110075019N0005001N1+01971+01801101841ADDAA199000091GF108991081051008001999999KA1240M+02541MA1999999093401MD1999999-0021REMSYN076AAXX  07004 83182 32593 80910 10197 20180 39340 40184 885// 333 10254 59002;EQDQ01  00002PRCP99
0186831820999992000060712004-11300-041870FM-12+074799999V0200901N006710075019N0100001N1+02081+01541101921ADDAA199000091GF106991061051008001001001KA1240N+01701MA1999999093491MD1999999-0041REMSYN076AAXX  07124 83182 32597 60913 10208 20154 39349 40192 86500 333 20170 59004;EQDQ01  00002PRCP99
0167831820999992000060718004-11300-041870FM-12+074799999V0200901N005712200019N0100001N1+02581+01491101591ADDAA199000091GF102991021021008001001001MA1999999093201MD1999999-0091REMSYN070AAXX  07184 83182 32597 20911 10258 20149 39320 40159 82200 333 59009;EQDQ01  00002PRCP99
0186831820999992000060800004-11300-041870FM-12+074799999V0200901N002612200019N0005001N1+01821+01431101731ADDAA199000091GF102991021021008001001001KA1240M+02601MA1999999093301MD1999999-0101REMSYN076AAXX  08004 83182 32593 20905 10182 20143 39330 40173 82200 333 10260 59010;EQDQ01  00002PRCP99
0186831820999992000060812004-11300-041870FM-12+074799999V0201401N005110075019N0100001N1+02151+01661101811ADDAA199000091GF107991071051008001001001KA1240N+01521MA1999999093381MD1999999-0111REMSYN076AAXX  08124 83182 32597 71410 10215 20166 39338 40181 87500 333 20152 59011;EQDQ01  00002PRCP99
0167831820999992000060818004-11300-041870FM-12+074799999V0201401N004612200019N0100001N1+02701+01721101531ADDAA199000091GF106991031021008001001041MA1999999093151MD1999999-0051REMSYN070AAXX  08184 83182 32597 61409 10270 20172 39315 40153 83204 333 59005;EQDQ01  00002PRCP99
0186831820999992000060900004-11300-041870FM-12+074799999V0201401N004110075019N0005001N1+01951+01811101841ADDAA199000091GF108991081051008001999999KA1240M+02721MA1999999093421MD1999999+0121REMSYN076AAXX  09004 83182 32593 81408 10195 20181 39342 40184 885// 333 10272 58012;EQDQ01  00002PRCP99
0186831820999992000060912004-11300-041870FM-12+074799999V0201401N006212200019N0100001N1+02151+01541101911ADDAA199000091GF101991011021008001001001KA1240N+01571MA1999999093481MD1999999+0101REMSYN076AAXX  09124 83182 32597 11412 10215 20154 39348 40191 81200 333 20157 58010;EQDQ01  00002PRCP99
0167831820999992000060918004-11300-041870FM-12+074799999V0200901N006212200019N0040001N1+02721+01391101451ADDAA199000091GF101991011021008001001001MA1999999093081MD1999999-0071REMSYN070AAXX  09184 83182 32596 10912 10272 20139 39308 40145 81200 333 59007;EQDQ01  00002PRCP99
0196831820999992000061000004-11300-041870FM-12+074799999V0201401N002112200019N0005001N1+01891+01541101791ADDAA199000091GA1001+999999999GF100991001001999999001001KA1240M+02731MA1999999093361MD1999999-0061REMSYN070AAXX  10004 83182 32993 01404 10189 20154 39336 40179 333 10273 59006;EQDQ01  00002PRCP99
0202831820999992000061012004-11300-041870FM-12+074799999V0200901N005719999999N0100001N1+02141+01591101881ADDAA199000091GF107991999051004501001001KA1240N+01661MA1999999093451MD1999999-0031REMSYN076AAXX  10124 83182 32497 70911 10214 20159 39345 40188 83500 333 20166 59003;EQDQ01+000032SCOTLCQ02  00002PRCP99
0167831820999992000061018004-11300-041870FM-12+074799999V0200901N006212200019N0100001N1+02571+01571101421ADDAA199000091GF103991021021008001001021MA1999999093051MD1999999-0031REMSYN070AAXX  10184 83182 32597 30912 10257 20157 39305 40142 82202 333 59003;EQDQ01  00002PRCP99
0186831820999992000061112004-11300-041870FM-12+074799999V0200901N003110075019N0100001N1+02271+01651101781ADDAA199000091GF106991061021008001001001KA1240N+01651MA1999999093381MD1999999-0071REMSYN076AAXX  11124 83182 32597 60906 10227 20165 39338 40178 86200 333 20165 59007;EQDQ01  00002PRCP99
0167831820999992000061118004-11300-041870FM-12+074799999V0201401N005710075019N0100001N1+02521+01791101471ADDAA199000091GF107991071051008001001001MA1999999093011MD1999999-0041REMSYN070AAXX  11184 83182 32597 71411 10252 20179 39301 40147 87500 333 59004;EQDQ01  00002PRCP99
0186831820999992000061212004-11300-041870FM-12+074799999V0200901N004612200019N0100001N1+02381+01681101751ADDAA199000091GF102991011021008001041001KA1240N+01821MA1999999093361MD1999999-0021REMSYN076AAXX  12124 83182 32597 20909 10238 20168 39336 40175 81240 333 20182 59002;EQDQ01  00002PRCP99
0167831820999992000061218004-11300-041870FM-12+074799999V0200901N003612200019N0100001N1+02821+01741101271ADDAA199000091GF102991021021008001001001MA1999999092951MD1999999-0061REMSYN070AAXX  12184 83182 32597 20907 10282 20174 39295 40127 82200 333 59006;EQDQ01  00002PRCP99
0196831820999992000061300004-11300-041870FM-12+074799999V0200901N004112200019N0005001N1+02011+01761101581ADDAA199000091GA1001+999999999GF100991001001999999001001KA1240M+02861MA1999999093201MD1999999-0061REMSYN070AAXX  13004 83182 32993 00908 10201 20176 39320 40158 333 10286 59006;EQDQ01  00002PRCP99
0186831820999992000061312004-11300-041870FM-12+074799999V0200901N004110075019N0100001N1+02201+01581101731ADDAA199000091GF107991071021008001001001KA1240N+01751MA1999999093331MD1999999-0031REMSYN076AAXX  13124 83182 32597 70908 10220 20158 39333 40173 87200 333 20175 59003;EQDQ01  00002PRCP99
0167831820999992000061318004-11300-041870FM-12+074799999V0200901N004612200019N0100001N1+02811+01431101211ADDAA199000091GF101991011011012501001001MA1999999092901MD1999999-0051REMSYN070AAXX  13184 83182 32697 10909 10281 20143 39290 40121 81100 333 59005;EQDQ01  00002PRCP99
0196831820999992000061400004-11290-041860FM-12+074799999V0200901N004112200019N0005001N1+01981+01371101651ADDAA199000091GA1001+999999999GF100991001001999999001001KA1240M+02851MA1999999093251MD1999999+0051REMSYN070AAXX  14004 83182 32993 00908 10198 20137 39325 40165 333 10285 58005;EQDQ01  00002PRCP99
0186831820999992000061412004-11290-041860FM-12+074799999V0201401N005712200019N0100001N1+02201+01691101511ADDAA199000091GF102991021021008001001001KA1240N+01251MA1999999093291MD1999999-0041REMSYN076AAXX  14124 83182 32597 21411 10220 20169 39329 40151 82200 333 20125 59004;EQDQ01  00002PRCP99
0167831820999992000061418004-11290-041860FM-12+074799999V0200901N004612200019N0100001N1+02961+01341101231ADDAA199000091GF102991011021008001001011MA1999999092891MD1999999-0011REMSYN070AAXX  14184 83182 32597 20909 10296 20134 39289 40123 81201 333 59001;EQDQ01  00002PRCP99
0196831820999992000061500004-11290-041860FM-12+074799999V0200901N003112200019N0005001N1+01911+01501101631ADDAA199000091GA1001+999999999GF100991001001999999001001KA1240M+02901MA1999999093231MD1999999-0021REMSYN070AAXX  15004 83182 32993 00906 10191 20150 39323 40163 333 10290 59002;EQDQ01  00002PRCP99
0186831820999992000061512004-11290-041860FM-12+074799999V0200901N007212200019N0100001N1+02181+01441101711ADDAA199000091GF102991021021008001001001KA1240N+01531MA1999999093301MD1999999+0011REMSYN076AAXX  15124 83182 32597 20914 10218 20144 39330 40171 82200 333 20153 58001;EQDQ01  00002PRCP99
0167831820999992000061518004-11290-041860FM-12+074799999V0201401N003112200019N0100001N1+02711+01511101311ADDAA199000091GF101991011021008001001001MA1999999092931MD1999999+0041REMSYN070AAXX  15184 83182 32597 11406 10271 20151 39293 40131 81200 333 58004;EQDQ01  00002PRCP99
0186831820999992000061600004-11290-041860FM-12+074799999V0201401N003112200019N0005001N1+01901+01341101611ADDAA199000091GF101991001001999999001011KA1240M+02741MA1999999093211MD1999999-0021REMSYN076AAXX  16004 83182 32993 11406 10190 20134 39321 40161 80001 333 10274 59002;EQDQ01  00002PRCP99
0186831820999992000061612004-11290-041860FM-12+074799999V0201401N005712200019N0100001N1+02191+01601101651ADDAA199000091GF102991011011012501001011KA1240N+01601MA1999999093251MD1999999-0051REMSYN076AAXX  16124 83182 32697 21411 10219 20160 39325 40165 81101 333 20160 59005;EQDQ01  00002PRCP99
0167831820999992000061618004-11290-041860FM-12+074799999V0200901N003112200019N0100001N1+02841+01311101211ADDAA199000091GF102991021021008001001011MA1999999092871MD1999999-0061REMSYN070AAXX  16184 83182 32597 20906 10284 20131 39287 40121 82201 333 59006;EQDQ01  00002PRCP99
0167831820999992000061718004-11290-041860FM-12+074799999V0201401N003612200019N0100001N1+02851+01561101211ADDAA199000091GF102991021021008001001001MA1999999092881MD1999999+0011REMSYN070AAXX  17184 83182 32597 21407 10285 20156 39288 40121 82200 333 58001;EQDQ01  00002PRCP99
0186831820999992000061812004-11290-041860FM-12+074799999V0201401N005712200019N0100001N1+02261+01571101691ADDAA199000091GF101991011021008001001001KA1240N+01681MA1999999093291MD1999999+0041REMSYN076AAXX  18124 83182 32597 11411 10226 20157 39329 40169 81200 333 20168 58004;EQDQ01  00002PRCP99
0167831820999992000061818004-11290-041860FM-12+074799999V0201401N002112200019N0100001N1+02821+01481101241ADDAA199000091GF104991041021008001001001MA1999999093911MD1999999+0031REMSYN070AAXX  18184 83182 32597 41404 10282 20148 39391 40124 84200 333 58003;EQDQ01  00002PRCP99
0186831820999992000061912004-11290-041860FM-12+074799999V0201401N004612200019N0100001N1+02251+01631101751ADDAA199000091GF102991011011012501001011KA1240N+01701MA1999999093351MD1999999+0061REMSYN076AAXX  19124 83182 32697 21409 10225 20163 39335 40175 81101 333 20170 58006;EQDQ01  00002PRCP99
0167831820999992000061918004-11290-041860FM-12+074799999V0201801N002112200019N0100001N1+02961+01291101251ADDAA199000091GF102991021021008001001001MA1999999092941MD1999999+0031REMSYN070AAXX  19184 83182 32597 21804 10296 20129 39294 40125 82200 333 58003;EQDQ01  00002PRCP99
0186831820999992000062000004-11290-041860FM-12+074799999V0200901N003112200019N0005001N1+02191+01501101541ADDAA199000091GF102991011021008001061001KA1240M+03021MA1999999093161MD1999999+0031REMSYN076AAXX  20004 83182 32593 20906 10219 20150 39316 40154 81260 333 10302 58003;EQDQ01  00002PRCP99
0186831820999992000062012004-11290-041860FM-12+074799999V0200901N005710075019N0100001N1+02421+01721101671ADDAA199000091GF106991061021008001001001KA1240N+01661MA1999999093301MD1999999-0051REMSYN076AAXX  20124 83182 32597 60911 10242 20172 39330 40167 86200 333 20166 59005;EQDQ01  00002PRCP99
0167831820999992000062018004-11290-041860FM-12+074799999V0200901N002112200019N0100001N1+02041+01391101241ADDAA199000091GF102991021021008001001011MA1999999092941MD1999999-0021REMSYN070AAXX  20184 83182 32597 20904 10204 20139 39294 40124 82201 333 59002;EQDQ01  00002PRCP99
0186831820999992000062100004-11290-041860FM-12+074799999V0200901N002612200019N0005001N1+02171+01621101541ADDAA199000091GF104991021001017501061011KA1240M+03001MA1999999093181MD1999999+0021REMSYN076AAXX  21004 83182 32793 40905 10217 20162 39318 40154 82061 333 10300 58002;EQDQ01  00002PRCP99
0167831820999992000062118004-11290-041860FM-12+074799999V0201401N003112200019N0100001N1+03101+01331101651ADDAA199000091GF102991011021008001041011MA1999999092871MD1999999-0051REMSYN070AAXX  21184 83182 32597 21406 10310 20133 39287 40165 81241 333 59005;EQDQ01  00002PRCP99
0186831820999992000062200004-11290-041860FM-12+074799999V0200901N003612200019N0005001N1+02321+01811101431ADDAA199000091GF102991021021008001001001KA1240M+03181MA1999999093091MD1999999-0091REMSYN076AAXX  22004 83182 32593 20907 10232 20181 39309 40143 82200 333 10318 59009;EQDQ01  00002PRCP99
0186831820999992000062212004-11290-041860FM-12+074799999V0200901N002612200019N0100001N1+02461+01781101641ADDAA199000091GF101991011021008001001001KA1240N+01711MA1999999093291MD1999999-0041REMSYN076AAXX  22124 83182 32597 10905 10246 20178 39329 40164 81200 333 20171 59004;EQDQ01  00002PRCP99
0167831820999992000062218004-11290-041860FM-12+074799999V0201401N005712200019N0100001N1+02931+01581101221ADDAA199000091GF103991031021008001001001MA1999999092921MD1999999+0051REMSYN070AAXX  22184 83182 32597 31411 10293 20158 39292 40122 83200 333 58005;EQDQ01  00002PRCP99
0196831820999992000062300004-11290-041860FM-12+074799999V0200901N003112200019N0005001N1+02151+01711101521ADDAA199000091GA1001+999999999GF100991001001999999001001KA1240M+03051MA1999999093171MD1999999+0081REMSYN070AAXX  23004 83182 32993 00906 10215 20171 39317 40152 333 10305 58008;EQDQ01  00002PRCP99
0186831820999992000062312004-11290-041860FM-12+074799999V0200901N008712200019N0100001N1+02311+01601101721ADDAA199000091GF103991031021008001001001KA1240N+01801MA1999999093341MD1999999+0051REMSYN076AAXX  23124 83182 32597 30917 10231 20160 39334 40172 83200 333 20180 58005;EQDQ01  00002PRCP99
0167831820999992000062318004-11290-041860FM-12+074799999V0200901N008210075019N0100001N1+02551+01721101461ADDAA199000091GF106991051021008001001011MA1999999093101MD1999999+0181REMSYN070AAXX  23184 83182 32597 60916 10255 20172 39310 40146 85201 333 58018;EQDQ01  00002PRCP99
0186831820999992000062400004-11290-041860FM-12+074799999V0201401N005710075019N0005001N1+01931+01671101771ADDAA199000091GF106991061021008001001001KA1240M+02831MA1999999093361MD1999999+0191REMSYN076AAXX  24004 83182 32593 61411 10193 20167 39336 40177 86200 333 10283 58019;EQDQ01  00002PRCP99
0186831820999992000062412004-11290-041860FM-12+074799999V0201401N007712200019N0100001N1+02031+01531101861ADDAA199000091GF104991031021008001061001KA1240N+01701MA1999999093431MD1999999+0091REMSYN076AAXX  24124 83182 32597 41415 10203 20153 39343 40186 83260 333 20170 58009;EQDQ01  00002PRCP99
0167831820999992000062418004-11290-041860FM-12+074799999V0200901N006210075019N0100001N1+02251+01541101591ADDAA199000091GF108991051051008001051011MA1999999093181MD1999999+0081REMSYN070AAXX  24184 83182 32597 80912 10225 20154 39318 40159 85551 333 58008;EQDQ01  00002PRCP99
0186831820999992000062500004-11290-041860FM-12+074799999V0200901N003612200019N9999999N1+01881+01411101731ADDAA199000091GF104991001001999999001011KA1240M+02541MA1999999093301MD1999999-0061REMSYN076AAXX  25004 83182 329// 40907 10188 20141 39330 40173 80001 333 10254 59006;EQDQ01  00002PRCP99
0186831820999992000062512004-11290-041860FM-12+074799999V0201401N006710075019N0100001N1+01991+01361101841ADDAA199000091GF107991071021008001001001KA1240N+01621MA1999999093401MD1999999-0031REMSYN076AAXX  25124 83182 32597 71413 10199 20136 39340 40184 87200 333 20162 59003;EQDQ01  00002PRCP99
0167831820999992000062518004-11290-041860FM-12+074799999V0200901N004111050019N0040001N1+02471+01391101501ADDAA199000091GF105991021021008001051011MA1999999093111MD1999999-0071REMSYN070AAXX  25184 83182 32596 50908 10247 20139 39311 40150 82251 333 59007;EQDQ01  00002PRCP99
0186831820999992000062600004-11290-041860FM-12+074799999V0200901N002610075019N0005001N1+01991+01341101601ADDAA199000091GF106991061021008001001001KA1240M+02541MA1999999093191MD1999999-0111REMSYN076AAXX  26004 83182 32593 60905 10199 20134 39319 40160 86200 333 10254 59011;EQDQ01  00002PRCP99
0186831820999992000062612004-11290-041860FM-12+074799999V0201401N005112200019N0100001N1+02081+01401101771ADDAA199000091GF101991011021008001001001KA1240N+01321MA1999999093351MD1999999-0051REMSYN076AAXX  26124 83182 32597 11410 10208 20140 39335 40177 81200 333 20132 59005;EQDQ01  00002PRCP99
0167831820999992000062618004-11290-041860FM-12+074799999V0201401N002612200019N0100001N1+02781+01221101341ADDAA199000091GF106991021001017501041011MA1999999092981MD1999999-0131REMSYN070AAXX  26184 83182 32797 61405 10278 20122 39298 40134 82041 333 59013;EQDQ01  00002PRCP99
0186831820999992000062700004-11290-041860FM-12+074799999V0200901N004612200019N0005001N1+01971+01361101631ADDAA199000091GF102991001001999999001011KA1240M+02821MA1999999093231MD1999999+0041REMSYN076AAXX  27004 83182 32993 20909 10197 20136 39323 40163 80001 333 10282 58004;EQDQ01  00002PRCP99
0186831820999992000062712004-11290-041860FM-12+074799999V0201401N003112200019N0100001N1+02091+01501101751ADDAA199000091GF101991011001017501041001KA1240N+01391MA1999999093341MD1999999-0011REMSYN076AAXX  27124 83182 32797 11406 10209 20150 39334 40175 81040 333 20139 59001;EQDQ01  00002PRCP99
0167831820999992000062718004-11290-041860FM-12+074799999V0200901N004112200019N0100001N1+02741+01641101361ADDAA199000091GF102991021021008001001001MA1999999092991MD1999999-0011REMSYN070AAXX  27184 83182 32597 20908 10274 20164 39299 40136 82200 333 59001;EQDQ01  00002PRCP99
0228831820999992000062800004-11290-041860FM-12+074799999V0200901N003612200019N0005001N1+02031+01491101641ADDAA199000091GA1001+999999999GF100991001001999999001001KA1240M+02801MA1999999999999MD1999999+0011REMSYN070AAXX  28004 83182 32993 00907 10203 20149 30325 40164 333 10280 58001;EQDQ01+103253APOSP Q02  00002PRCP99Q03 103253APOSP 
0186831820999992000062812004-11290-041860FM-12+074799999V0200901N005112200019N0100001N1+02281+01561101731ADDAA199000091GF102991021021008001001001KA1240N+01521MA1999999093331MD1999999-0011REMSYN076AAXX  28124 83182 32597 20910 10228 20156 39333 40173 82200 333 20152 59001;EQDQ01  00002PRCP99
0167831820999992000062818004-11290-041860FM-12+074799999V02099999999990075019N0100001N1+02521+01661101391ADDAA199000091GF105991051021008001001001MA1999999093011MD1999999+0021REMSYN070AAXX  28184 83182 32597 5011/ 10252 20166 39301 40139 85200 333 58002;EQDQ01  00002PRCP99
0186831820999992000062900004-11290-041860FM-12+074799999V0201401N002612200019N0005001N1+01871+01521101601ADDAA199000091GF102991021001017501051001KA1240M+02541MA1999999093201MD1999999-0041REMSYN076AAXX  29004 83182 32793 21405 10187 20152 39320 40160 82050 333 10254 59004;EQDQ01  00002PRCP99
0186831820999992000062912004-11290-041860FM-12+074799999V0200901N006212200019N0100001N1+02161+01351101731ADDAA199000091GF102991021021008001001001KA1240N+01711MA1999999093311MD1999999-0021REMSYN076AAXX  29124 83182 32597 20912 10216 20135 39331 40173 82200 333 20171 59002;EQDQ01  00002PRCP99
0167831820999992000062918004-11290-041860FM-12+074799999V0200901N005712200019N0100001N1+02731+01401101261ADDAA199000091GF102991021021008001001001MA1999999092931MD1999999-0081REMSYN070AAXX  29184 83182 32597 20911 10273 20140 39293 40126 82200 333 59008;EQDQ01  00002PRCP99
0186831820999992000063012004-11290-041860FM-12+074799999V0200901N005110075019N0100001N1+02211+01321101661ADDAA199000091GF107991071051008001001001KA1240N+01741MA1999999093261MD1999999-0051REMSYN076AAXX  30124 83182 32597 70910 10221 20132 39326 40166 87500 333 20174 59005;EQDQ01  00002PRCP99
0183831820999992000063018004-11290-041860FM-12+074799999V0200901N003619999999N0100001N1+02651+01451101351ADDAA199000091GF107991999051008001001001MA1999999092961MD1999999+0031REMSYN070AAXX  30184 83182 32597 70907 10265 20145 39296 40135 84500 333 58003;EQDQ01+000042SCOTLCQ02  00002PRCP99
0186831820999992000070100004-11290-041860FM-12+074799999V0200901N003612200019N0005001N1+02161+01701101611ADDAA199000091GF106991021021008001001011KA1240M+02701MA1999999093231MD1999999-0031REMSYN076AAXX  01004 83182 32593 60907 10216 20170 39323 40161 82201 333 10270 59003;EQDQ01  00002PRCP99
0186831820999992000070112004-11290-041860FM-12+074799999V0200901N004112200019N0040001N1+02121+01411101721ADDAA199000091GF102991011011012501001011KA1240N+01451MA1999999093321MD1999999+0061REMSYN076AAXX  01124 83182 32696 20908 10212 20141 39332 40172 81101 333 20145 58006;EQDQ01  00002PRCP99
0177831820999992000070118004-11290-041860FM-12+074799999V0200901N006212200019N0100001N1+02821+00901101231ADDAA199000091GA1001+999999999GF100991001001999999001001MA1999999092901MD1999999-0061REMSYN064AAXX  01184 83182 32997 00912 10282 20090 39290 40123 333 59006;EQDQ01  00002PRCP99
0196831820999992000070200004-11290-041860FM-12+074799999V0201401N003112200019N0005001N1+01921+01201101601ADDAA199000091GA1001+999999999GF100991001001999999001001KA1240M+02841MA1999999093191MD1999999-0041REMSYN070AAXX  02004 83182 32993 01406 10192 20120 39319 40160 333 10284 59004;EQDQ01  00002PRCP99
0186831820999992000070212004-11290-041860FM-12+074799999V0201401N007719999999N0100001N1+01991+01141101761ADDAA199000091GF105991001001999999001011KA1240N+01351MA1999999093331MD1999999+0011REMSYN076AAXX  02124 83182 32997 51415 10199 20114 39333 40176 80001 333 20135 58001;EQDQ01  00002PRCP99
0167831820999992000070218004-11290-041860FM-12+074799999V0201401N004612200019N0100001N1+02761+00751101351ADDAA199000091GF102991001001999999001011MA1999999092991MD1999999+0091REMSYN070AAXX  02184 83182 32997 21409 10276 20075 39299 40135 80001 333 58009;EQDQ01  00002PRCP99
0196831820999992000070300004-11290-041860FM-12+074799999V0201401N003612200019N0005001N1+02021+01361101711ADDAA199000091GA1001+999999999GF100991001001999999001001KA1240M+02811MA1999999093291MD1999999+0101REMSYN070AAXX  03004 83182 32993 01407 10202 20136 39329 40171 333 10281 58010;EQDQ01  00002PRCP99
0196831820999992000070312004-11290-041860FM-12+074799999V0201401N006712200019N0100001N1+02071+01411101901ADDAA199000091GA1001+999999999GF100991001001999999001001KA1240N+01491MA1999999093471MD1999999+0141REMSYN070AAXX  03124 83182 32997 01413 10207 20141 39347 40190 333 20149 58014;EQDQ01  00002PRCP99
0167831820999992000070318004-11290-041860FM-12+074799999V0200901N006212200019N0100001N1+02631+01271101521ADDAA199000091GF104991041021008001001001MA1999999093131MD1999999+0141REMSYN070AAXX  03184 83182 32597 40912 10263 20127 39313 40152 84200 333 58014;EQDQ01  00002PRCP99
0186831820999992000070400004-11290-041860FM-12+074799999V0200901N002110075019N0005001N1+02101+01531101691ADDAA199000091GF107991071021008001001001KA1240M+02811MA1999999093291MD1999999+0001REMSYN076AAXX  04004 83182 32593 70904 10210 20153 39329 40169 87200 333 10281 58000;EQDQ01  00002PRCP99
0186831820999992000070412004-11290-041860FM-12+074799999V0201401N006712200019N0100001N1+02051+01271101831ADDAA199000091GF102991021021008001001001KA1240N+01541MA1999999093421MD1999999-0071REMSYN076AAXX  04124 83182 32597 21413 10205 20127 39342 40183 82200 333 20154 59007;EQDQ01  00002PRCP99
0167831820999992000070418004-11290-041860FM-12+074799999V0201401N006712200019N0100001N1+02601+01141101471ADDAA199000091GF101991011011012501001001MA1999999093091MD1999999-0041REMSYN070AAXX  04184 83182 32697 11413 10260 20114 39309 40147 81100 333 59004;EQDQ01  00002PRCP99
0186831820999992000070500004-11290-041860FM-12+074799999V0201401N002110075019N0005001N1+02001+01741101681ADDAA199000091GF107991071021008001001001KA1240M+02641MA1999999093261MD1999999-0031REMSYN076AAXX  05004 83182 32593 71404 10200 20174 39326 40168 87200 333 10264 59003;EQDQ01  00002PRCP99
0186831820999992000070512004-11290-041860FM-12+074799999V0201401N009310075019N0100001N1+02021+01391101711ADDAA199000091GF105991051021008001001001KA1240N+01571MA1999999093291MD1999999-0131REMSYN076AAXX  05124 83182 32597 51418 10202 20139 39329 40171 85200 333 20157 59013;EQDQ01  00002PRCP99
0167831820999992000070518004-11290-041860FM-12+074799999V0201401N006712200019N0100001N1+02481+01341101451ADDAA199000091GF103991031021008001001001MA1999999093061MD1999999-0031REMSYN070AAXX  05184 83182 32597 31413 10248 20134 39306 40145 83200 333 59003;EQDQ01  00002PRCP99
0202831820999992000070600004-11290-041860FM-12+074799999V0201401N004619999999N0005001N1+01931+01521101711ADDAA199000091GF106991999061004501001001KA1240M+02561MA1999999093291MD1999999+0031REMSYN076AAXX  06004 83182 32493 61409 10193 20152 39329 40171 84600 333 10256 58003;EQDQ01+000042SCOTLCQ02  00002PRCP99
0186831820999992000070612004-11290-041860FM-12+074799999V0200901N005710075019N0100001N1+02041+01341101721ADDAA199000091GF107991071051008001001001KA1240N+01431MA1999999093301MD1999999-0011REMSYN076AAXX  06124 83182 32597 70911 10204 20134 39330 40172 87500 333 20143 59001;EQDQ01  00002PRCP99
0167831820999992000070618004-11290-041860FM-12+074799999V0201401N005110075019N0100001N1+02441+01561101401ADDAA199000091GF106991061051008001001001MA1999999093001MD1999999-0061REMSYN070AAXX  06184 83182 32597 61410 10244 20156 39300 40140 86500 333 59006;EQDQ01  00002PRCP99
0186831820999992000070700004-11290-041860FM-12+074799999V0200101N003612200019N0005001N1+01941+01531101681ADDAA199000091GF104991021021008001001011KA1240M+02521MA1999999093261MD1999999-0031REMSYN076AAXX  07004 83182 32593 40107 10194 20153 39326 40168 82201 333 10252 59003;EQDQ01  00002PRCP99
0186831820999992000070712004-11290-041860FM-12+074799999V0200901N006212200019N0100001N1+02091+01361101791ADDAA199000091GF102991021021008001001011KA1240N+01411MA1999999093361MD1999999+0061REMSYN076AAXX  07124 83182 32597 20912 10209 20136 39336 40179 82201 333 20141 58006;EQDQ01  00002PRCP99
0167831820999992000070718004-11290-041860FM-12+074799999V0200901N005712200019N0100001N1+02691+01361101371ADDAA199000091GF102991021021008001001011MA1999999093011MD1999999+0011REMSYN070AAXX  07184 83182 32597 20911 10269 20136 39301 40137 82201 333 58001;EQDQ01  00002PRCP99
0167831820999992000070818004-11290-041860FM-12+074799999V0200901N005112200019N0100001N1+02571+01361101401ADDAA199000091GF102991021021008001001011MA1999999093041MD1999999+0031REMSYN070AAXX  08184 83182 32597 20910 10257 20136 39304 40140 82201 333 58003;EQDQ01  00002PRCP99
0186831820999992000070912004-11290-041860FM-12+074799999V0201401N005112200019N0100001N1+02071+01481101731ADDAA199000091GF104991041021008001001001KA1240N+01591MA1999999093311MD1999999+0001REMSYN076AAXX  09124 83182 32597 41410 10207 20148 39331 40173 84200 333 20159 58000;EQDQ01  00002PRCP99
0167831820999992000070918004-11290-041860FM-12+074799999V0201401N004112200019N0100001N1+02771+01251101321ADDAA199000091GF103991031021008001001001MA1999999092971MD1999999-0071REMSYN070AAXX  09184 83182 32597 31408 10277 20125 39297 40132 83200 333 59007;EQDQ01  00002PRCP99
0186831820999992000071000004-11290-041860FM-12+074799999V0200901N004612200019N0005001N1+01971+01581101611ADDAA199000091GF102991021021008001001001KA1240M+02801MA1999999093201MD1999999+0001REMSYN076AAXX  10004 83182 32593 20909 10197 20158 39320 40161 82200 333 10280 58000;EQDQ01  00002PRCP99
0186831820999992000071012004-11290-041860FM-12+074799999V0201401N006210075019N0100001N1+02241+01501101721ADDAA199000091GF106991061021008001001001KA1240N+01471MA1999999093321MD1999999+0011REMSYN076AAXX  10124 83182 32597 61412 10224 20150 39332 40172 86200 333 20147 58001;EQDQ01  00002PRCP99
0167831820999992000071018004-11290-041860FM-12+074799999V0201401N005110075019N0100001N1+02711+01611101281ADDAA199000091GF106991051021008001001011MA1999999092911MD1999999-0061REMSYN070AAXX  10184 83182 32597 61410 10271 20161 39291 40128 85201 333 59006;EQDQ01  00002PRCP99
0186831820999992000071100004-11290-041860FM-12+074799999V0201401N003110075019N0005001N1+02011+01611101681ADDAA199000091GF106991051021008001001011KA1240M+02781MA1999999093281MD1999999+0081REMSYN076AAXX  11004 83182 32593 61406 10201 20161 39328 40168 85201 333 10278 58008;EQDQ01  00002PRCP99
0186831820999992000071112004-11290-041860FM-12+074799999V0201401N005112200019N0100001N1+02161+01521101791ADDAA199000091GF104991041021008001001001KA1240N+01771MA1999999093381MD1999999+0061REMSYN076AAXX  11124 83182 32597 41410 10216 20152 39338 40179 84200 333 20177 58006;EQDQ01  00002PRCP99
0183831820999992000071118004-11290-041860FM-12+074799999V0201801N004619999999N0100001N1+02881+01421101291ADDAA199000091GF108991999011012501001001MA1999999092971MD1999999+0061REMSYN070AAXX  11184 83182 32697 81809 10288 20142 39297 40129 81100 333 58006;EQDQ01+000012SCOTLCQ02  00002PRCP99
0196831820999992000071200004-11290-041860FM-12+074799999V0201401N003612200019N0005001N1+02081+01401101701ADDAA199000091GA1001+999999999GF100991001001999999001001KA1240M+02901MA1999999093301MD1999999+0021REMSYN070AAXX  12004 83182 32993 01407 10208 20140 39330 40170 333 10290 58002;EQDQ01  00002PRCP99
0186831820999992000071212004-11290-041860FM-12+074799999V0201401N005710075019N0100001N1+02131+01581101871ADDAA199000091GF106991061021008001001001KA1240N+01641MA1999999093451MD1999999+0071REMSYN076AAXX  12124 83182 32597 61411 10213 20158 39345 40187 86200 333 20164 58007;EQDQ01  00002PRCP99
0167831820999992000071218004-11290-041860FM-12+074799999V0201401N004612200019N0100001N1+02841+01631101341ADDAA199000091GF101991011011012501001001MA1999999092991MD1999999-0021REMSYN070AAXX  12184 83182 32697 11409 10284 20163 39299 40134 81100 333 59002;EQDQ01  00002PRCP99
0196831820999992000071300004-11290-041860FM-12+074799999V0200901N002112200019N0005001N1+02031+01351101701ADDAA199000091GA1001+999999999GF100991001001999999001001KA1240M+02861MA1999999093301MD1999999+0001REMSYN070AAXX  13004 83182 32993 00904 10203 20135 39330 40170 333 10286 58000;EQDQ01  00002PRCP99
0186831820999992000071312004-11290-041860FM-12+074799999V0201401N004612200019N0100001N1+02251+01581101901ADDAA199000091GF101991011021008001001001KA1240N+01521MA1999999093491MD1999999+0041REMSYN076AAXX  13124 83182 32597 11409 10225 20158 39349 40190 81200 333 20152 58004;EQDQ01  00002PRCP99
0167831820999992000071318004-11290-041860FM-12+074799999V0200901N006212200019N0100001N1+02801+01631101471ADDAA199000091GF102991021021008001001001MA1999999093111MD1999999+0121REMSYN070AAXX  13184 83182 32597 20912 10280 20163 39311 40147 82200 333 58012;EQDQ01  00002PRCP99
0167831820999992000071418004-11290-041860FM-12+074799999V0201401N006212200019N0100001N1+02591+01341101421ADDAA199000091GF103991031021008001001001MA1999999093061MD1999999-0051REMSYN070AAXX  14184 83182 32597 31412 10259 20134 39306 40142 83200 333 59005;EQDQ01  00002PRCP99
0196831820999992000071500004-11290-041860FM-12+074799999V0200901N003112200019N9999999N1+01991+01381101781ADDAA199000091GA1001+999999999GF100991001001999999001001KA1240M+02761MA1999999093351MD1999999-0041REMSYN070AAXX  15004 83182 329/3 00906 10199 20138 39335 40178 333 10276 59004;EQDQ01  00002PRCP99
0186831820999992000071512004-11290-041860FM-12+074799999V0200901N005110075019N0100001N1+02031+01421101801ADDAA199000091GF106991061021008001001001KA1240N+01731MA1999999093371MD1999999-0071REMSYN076AAXX  15124 83182 32597 60910 10203 20142 39337 40180 86200 333 20173 59007;EQDQ01  00002PRCP99
0167831820999992000071518004-11290-041860FM-12+074799999V0201401N003612200019N0100001N1+02671+01041101291ADDAA199000091GF104991041021008001001001MA1999999092951MD1999999-0111REMSYN070AAXX  15184 83182 32597 41407 10267 20104 39295 40129 84200 333 59011;EQDQ01  00002PRCP99
0196831820999992000071600004-11290-041860FM-12+074799999V0200901N003612200019N0005001N1+01971+01221101561ADDAA199000091GA1001+999999999GF100991001001999999001001KA1240M+02721MA1999999093151MD1999999-0201REMSYN070AAXX  16004 83182 32993 00907 10197 20122 39315 40156 333 10272 59020;EQDQ01  00002PRCP99
0196831820999992000071612004-11290-041860FM-12+074799999V0200901N002112200019N0100001N1+02031+01351101651ADDAA199000091GA1001+999999999GF100991001001999999001001KA1240N+01431MA1999999093241MD1999999-0131REMSYN070AAXX  16124 83182 32997 00904 10203 20135 39324 40165 333 20143 59013;EQDQ01  00002PRCP99
0167831820999992000071618004-11290-041860FM-12+074799999V0203201N002612200019N0100001N1+03031+01271100991ADDAA199000091GF102991011021008001051011MA1999999092681MD1999999-0271REMSYN070AAXX  16184 83182 32597 23205 10303 20127 39268 40099 81251 333 59027;EQDQ01  00002PRCP99
0196831820999992000071700004-11290-041860FM-12+074799999V0202701N000512200019N0005001N1+02151+01031101271ADDAA199000091GA1001+999999999GF100991001001999999001001KA1240M+03041MA1999999092901MD1999999-0251REMSYN070AAXX  17004 83182 32993 02701 10215 20103 39290 40127 333 10304 59025;EQDQ01  00002PRCP99
0186831820999992000071712004-11290-041860FM-12+074799999V0202701N001519999999N0100001N1+02701+01231101341ADDAA199000091GF106991001001999999001011KA1240N+01631MA1999999093021MD1999999-0221REMSYN076AAXX  17124 83182 32997 62703 10270 20123 39302 40134 80001 333 20163 59022;EQDQ01  00002PRCP99
0167831820999992000071718004-11290-041860FM-12+074799999V0203601N002112200019N0100001N1+03141+01171100941ADDAA199000091GF103991021021008001001011MA1999999092661MD1999999-0021REMSYN070AAXX  17184 83182 32597 33604 10314 20117 39266 40094 82201 333 59002;EQDQ01  00002PRCP99
0186831820999992000071800004-11290-041860FM-12+074799999V0202301N001012200019N0005001N1+02431+01261101161ADDAA199000091GF108991041021008001001011KA1240M+03231MA1999999092881MD1999999-0021REMSYN076AAXX  18004 83182 32593 82302 10243 20126 39288 40116 84201 333 10323 59002;EQDQ01  00002PRCP99
0186831820999992000071812004-11290-041860FM-12+074799999V0201401N003610450019N0100001N1+02371+01741101631ADDAA199000091GF108991031021008001061011KA1240N+01931MA1999999093281MD1999999+0261REMSYN076AAXX  18124 83182 32597 81407 10237 20174 39328 40163 83261 333 20193 58026;EQDQ01  00002PRCP99
0167831820999992000071818004-11290-041860FM-12+074799999V0200501N003110075019N0100001N1+02631+01871101251ADDAA199000091GF106991061021008001001001MA1999999092931MD1999999+0271REMSYN070AAXX  18184 83182 32597 60506 10263 20187 39293 40125 86200 333 58027;EQDQ01  00002PRCP99
0201831820999992000071900004-11290-041860FM-12+074799999V0200901N003610075019N0005001N1+02071+01711101621ADDAA106000891AY161061AY221061GF106991061051008001001001KA1240M+02851MA1999999093241MD1999999+0361MW1001REMSYN088AAXX  19004 83182 21593 60907 10207 20171 39324 40162 70062 86500 333 10285 58036 69971;
0201831820999992000071912004-11290-041860FM-12+074799999V0200901N005110075019N0100001N1+02351+01681101691ADDAA124001091AY161061AY221061GF106991061021008001001001KA1240N+01831MA1999999093301MD1999999+0021MW1031REMSYN088AAXX  19124 83182 21597 60910 10235 20168 39330 40169 70362 86200 333 20183 58002 69994;
0167831820999992000071918004-11290-041860FM-12+074799999V0200901N006210075019N0100001N1+02701+01601101351ADDAA199000091GF105991051021008001001001MA1999999093011MD1999999+0081REMSYN070AAXX  19184 83182 32597 50912 10270 20160 39301 40135 85200 333 58008;EQDQ01  00002PRCP99
0186831820999992000072000004-11290-041860FM-12+074799999V0200901N003112200019N0005001N1+02041+01641101591ADDAA199000091GF102991021001017501051001KA1240M+02841MA1999999093191MD1999999-0051REMSYN076AAXX  20004 83182 32793 20906 10204 20164 39319 40159 82050 333 10284 59005;EQDQ01  00002PRCP99
0186831820999992000072012004-11290-041860FM-12+074799999V0200901N004112200019N0100001N1+02301+01561101681ADDAA199000091GF101991011001017501041001KA1240N+01621MA1999999093281MD1999999-0021REMSYN076AAXX  20124 83182 32797 10908 10230 20156 39328 40168 81040 333 20162 59002;EQDQ01  00002PRCP99
0196831820999992000072100004-11290-041860FM-12+074799999V0200901N004112200019N0005001N1+02131+01581101391ADDAA199000091GA1001+999999999GF100991001001999999001001KA1240M+03001MA1999999093031MD1999999-0161REMSYN070AAXX  21004 83182 32993 00908 10213 20158 39303 40139 333 10300 59016;EQDQ01  00002PRCP99
0186831820999992000072112004-11290-041860FM-12+074799999V0200901N005112200019N0100001N1+02291+01441101561ADDAA199000091GF102991001001999999001011KA1240N+01631MA1999999093181MD1999999-0101REMSYN076AAXX  21124 83182 32997 20910 10229 20144 39318 40156 80001 333 20163 59010;EQDQ01  00002PRCP99
0167831820999992000072118004-11290-041860FM-12+074799999V0200901N006712200019N0100001N1+02791+01271101251ADDAA199000091GF102991011011012501001011MA1999999092921MD1999999+0171REMSYN070AAXX  21184 83182 32697 20913 10279 20127 39292 40125 81101 333 58017;EQDQ01  00002PRCP99
0196831820999992000072200004-11290-041860FM-12+074799999V0200901N003112200019N0005001N1+02121+01361101561ADDAA199000091GA1001+999999999GF100991001001999999001001KA1240M+02861MA1999999093181MD1999999+0151REMSYN070AAXX  22004 83182 32993 00906 10212 20136 39318 40156 333 10286 58015;EQDQ01  00002PRCP99
0196831820999992000072212004-11290-041860FM-12+074799999V0201801N006212200019N0040001N1+02171+01361101641ADDAA199000091GA1001+999999999GF100991001001999999001001KA1240N+01611MA1999999093251MD1999999+0071REMSYN070AAXX  22124 83182 32996 01812 10217 20136 39325 40164 333 20161 58007;EQDQ01  00002PRCP99
0177831820999992000072218004-11290-041860FM-12+074799999V0200901N004612200019N0100001N1+02871+01091101221ADDAA199000091GA1001+999999999GF100991001001999999001001MA1999999092901MD1999999-0021REMSYN064AAXX  22184 83182 32997 00909 10287 20109 39290 40122 333 59002;EQDQ01  00002PRCP99
0196831820999992000072300004-11290-041860FM-12+074799999V0201401N002112200019N0005001N1+01951+01281101501ADDAA199000091GA1001+999999999GF100991001001999999001001KA1240M+02901MA1999999093101MD1999999-0081REMSYN070AAXX  23004 83182 32993 01404 10195 20128 39310 40150 333 10290 59008;EQDQ01  00002PRCP99
0186831820999992000072312004-11290-041860FM-12+074799999V0200901N004112200019N0100001N1+02341+01461101691ADDAA199000091GF101991011011012501001001KA1240N+01621MA1999999093291MD1999999+0041REMSYN076AAXX  23124 83182 32697 10908 10234 20146 39329 40169 81100 333 20162 58004;EQDQ01  00002PRCP99
0167831820999992000072318004-11290-041860FM-12+074799999V0201401N002610075019N0100001N1+02911+01371101201ADDAA199000091GF105991051021008001001001MA1999999092871MD1999999-0031REMSYN070AAXX  23184 83182 32597 51405 10291 20137 39287 40120 85200 333 59003;EQDQ01  00002PRCP99
0186831820999992000072412004-11290-041860FM-12+074799999V0200901N003612200019N0100001N1+02251+01631101581ADDAA199000091GF101991001001999999001011KA1240N+01501MA1999999093221MD1999999-0071REMSYN076AAXX  24124 83182 32997 10907 10225 20163 39322 40158 80001 333 20150 59007;EQDQ01  00002PRCP99
0167831820999992000072418004-11290-041860FM-12+074799999V0201401N003612200019N0100001N1+03081+01171101071ADDAA199000091GF101991011011012501001001MA1999999092771MD1999999-0101REMSYN070AAXX  24184 83182 32697 11407 10308 20117 39277 40107 81100 333 59010;EQDQ01  00002PRCP99
0196831820999992000072500004-11290-041860FM-12+074799999V0200901N005112200019N0005001N1+02171+01511101491ADDAA199000091GA1001+999999999GF100991001001999999001001KA1240M+03171MA1999999093121MD1999999+0001REMSYN070AAXX  25004 83182 32993 00910 10217 20151 39312 40149 333 10317 58000;EQDQ01  00002PRCP99
0186831820999992000072512004-11290-041860FM-12+074799999V0200901N006712200019N0100001N1+02211+01401101801ADDAA199000091GF101991011021008001001001KA1240N+01711MA1999999093411MD1999999+0191REMSYN076AAXX  25124 83182 32597 10913 10221 20140 39341 40180 81200 333 20171 58019;EQDQ01  00002PRCP99
0167831820999992000072518004-11290-041860FM-12+074799999V0200901N006719999999N0100001N1+02811+01201101331ADDAA199000091GF106991001001999999001011MA1999999093031MD1999999+0261REMSYN070AAXX  25184 83182 32997 60913 10281 20120 39303 40133 80001 333 58026;EQDQ01  00002PRCP99
0218831820999992000072600004-11290-041860FM-12+074799999V0200901N002112200019N0005001N1+01951+01251101691ADDAA199000091GF103991001001999999001011KA1240M+02841MA1999999999999MD1999999+0171REMSYN076AAXX  26004 83182 32993 30904 10195 20125 39629 40169 80001 333 10284 58017;EQDQ01+096293APOSP Q02  00002PRCP99Q03 096293APOSP 
0186831820999992000072612004-11290-041860FM-12+074799999V0201401N007712200019N0100001N1+02201+01321101771ADDAA199000091GF102991021021008001001001KA1240N+01541MA1999999093361MD1999999+0051REMSYN076AAXX  26124 83182 32597 21415 10220 20132 39336 40177 82200 333 20154 58005;EQDQ01  00002PRCP99
0167831820999992000072618004-11290-041860FM-12+074799999V0200901N005112200019N0100001N1+02821+01211999999ADDAA199000091GF101991001001999999001011MA1999999092921MD1999999-0111REMSYN070AAXX  26184 83182 32997 10910 10282 20121 39292 4//// 80001 333 59011;EQDQ01  00002PRCP99
0196831820999992000072700004-11290-041860FM-12+074799999V0200901N002612200019N0005001N1+02001+01351101651ADDAA199000091GA1001+999999999GF100991001001999999001001KA1240M+02861MA1999999093251MD1999999-0041REMSYN070AAXX  27004 83182 32993 00905 10200 20135 39325 40165 333 10286 59004;EQDQ01  00002PRCP99
0186831820999992000072712004-11290-041860FM-12+074799999V0200901N005712200019N0100001N1+02151+01391101831ADDAA199000091GF102991011011012501001011KA1240N+01431MA1999999093421MD1999999+0061REMSYN076AAXX  27124 83182 32697 20911 10215 20139 39342 40183 81101 333 20143 58006;EQDQ01  00002PRCP99
0167831820999992000072718004-11290-041860FM-12+074799999V0200901N005112200019N0100001N1+02761+01461101321ADDAA199000091GF108991031021008001001011MA1999999092961MD1999999+0041REMSYN070AAXX  27184 83182 32597 80910 10276 20146 39296 40132 83201 333 58004;EQDQ01  00002PRCP99
0196831820999992000072800004-11290-041860FM-12+074799999V0201401N003112200019N0005001N1+02111+01651101611ADDAA199000091GA1001+999999999GF100991001001999999001001KA1240M+02801MA1999999093221MD1999999-0031REMSYN070AAXX  28004 83182 32993 01406 10211 20165 39322 40161 333 10280 59003;EQDQ01  00002PRCP99
0186831820999992000072812004-11290-041860FM-12+074799999V0201401N004610042019N0100001N1+02121+01571101851ADDAA199000091GF107991071051004501001001KA1240N+01631MA1999999093441MD1999999+0021REMSYN076AAXX  28124 83182 32497 71409 10212 20157 39344 40185 87500 333 20163 58002;EQDQ01  00002PRCP99
0167831820999992000072818004-11290-041860FM-12+074799999V0201401N006210450019N0200001N1+02551+01661101381ADDAA199000091GF106991041021008001031011MA1999999093011MD1999999+0051REMSYN070AAXX  28184 83182 32598 61412 10255 20166 39301 40138 84231 333 58005;EQDQ01  00002PRCP99
0202831820999992000072900004-11290-041860FM-12+074799999V0200901N005719999999N0005001N1+01881+01601101721ADDAA199000091GF106991999021008001001001KA1240M+02691MA1999999093301MD1999999+0081REMSYN076AAXX  29004 83182 32593 60911 10188 20160 39330 40172 87200 333 10269 58008;EQDQ01+000072SCOTLCQ02  00002PRCP99
0186831820999992000072912004-11290-041860FM-12+074799999V0201401N006712200019N0040001N1+01941+01291101831ADDAA199000091GF102991011011012501001011KA1240N+01631MA1999999093381MD1999999-0061REMSYN076AAXX  29124 83182 32696 21413 10194 20129 39338 40183 81101 333 20163 59006;EQDQ01  00002PRCP99
0186831820999992000073000004-11290-041860FM-12+074799999V0200901N002612200019N0005001N1+01871+01221101681ADDAA199000091GF104991001001999999001011KA1240M+02501MA1999999093251MD1999999-0051REMSYN076AAXX  30004 83182 32993 40905 10187 20122 39325 40168 80001 333 10250 59005;EQDQ01  00002PRCP99
0196831820999992000073012004-11290-041860FM-12+074799999V0201401N005712200019N0200001N1+01931+01261101831ADDAA199000091GA1001+999999999GF100991001001999999001001KA1240N+01241MA1999999093381MD1999999+0001REMSYN070AAXX  30124 83182 32998 01411 10193 20126 39338 40183 333 20124 58000;EQDQ01  00002PRCP99
0167831820999992000073018004-11290-041860FM-12+074799999V0200501N002612200019N0100001N1+02751+01231101281ADDAA199000091GF102991021021008001001001MA1999999092911MD1999999-0141REMSYN070AAXX  30184 83182 32597 20505 10275 20123 39291 40128 82200 333 59014;EQDQ01  00002PRCP99
0196831820999992000073100004-11290-041860FM-12+074799999V0200901N003112200019N0005001N1+01971+01321101601ADDAA199000091GA1001+999999999GF100991001001999999001001KA1240M+02841MA1999999093181MD1999999-0071REMSYN070AAXX  31004 83182 32993 00906 10197 20132 39318 40160 333 10284 59007;EQDQ01  00002PRCP99
0156831820999992000073112004-11290-041860FM-12+074799999V0201801N007212200019N0100001N1+02031+99999999999ADDAA199000091GF104991999999008001999999KA1240N+01371REMSYN075AAXX  31124 83182 32597 41814 10203 2014 39330 40167 84200 333 20137 59008;EQDQ01  00002PRCP99
0167831820999992000073118004-11290-041860FM-12+074799999V0201801N001512200019N0100001N1+02821+01131101291ADDAA199000091GF101991011011012501001001MA1999999092931MD1999999+0021REMSYN070AAXX  31184 83182 32697 11803 10282 20113 39293 40129 81100 333 58002;EQDQ01  00002PRCP99
0196831820999992000080100004-11290-041860FM-12+074799999V0200901N004112200019N0005001N1+02091+01361101581ADDAA199000091GA1001+999999999GF100991001001999999001001KA1240M+02861MA1999999093181MD1999999+0001REMSYN070AAXX  01004 83182 32993 00908 10209 20136 39318 40158 333 10286 58000;EQDQ01  00002PRCP99
0186831820999992000080112004-11290-041860FM-12+074799999V0201401N006712200019N0100001N1+02191+01381101781ADDAA199000091GF108991011021008001001011KA1240N+01521MA1999999093381MD1999999+0081REMSYN076AAXX  01124 83182 32597 81413 10219 20138 39338 40178 81201 333 20152 58008;EQDQ01  00002PRCP99
0167831820999992000080118004-11290-041860FM-12+074799999V0200901N003112200019N0100001N1+02811+01441101251ADDAA199000091GF104991041021008001001001MA1999999092911MD1999999-0021REMSYN070AAXX  01184 83182 32597 40906 10281 20144 39291 40125 84200 333 59002;EQDQ01  00002PRCP99
0196831820999992000080200004-11290-041860FM-12+074799999V0200901N005112200019N0005001N1+02131+01401101541ADDAA199000091GA1001+999999999GF100991001001999999001001KA1240M+02881MA1999999093151MD1999999-0051REMSYN070AAXX  02004 83182 32993 00910 10213 20140 39315 40154 333 10288 59005;EQDQ01  00002PRCP99
0186831820999992000080212004-11290-041860FM-12+074799999V0201401N005712200019N0100001N1+02221+01461101781ADDAA199000091GF103991021021008001041001KA1240N+01721MA1999999093391MD1999999+0011REMSYN076AAXX  02124 83182 32597 31411 10222 20146 39339 40178 82240 333 20172 58001;EQDQ01  00002PRCP99
0167831820999992000080218004-11290-041860FM-12+074799999V0201401N004112200019N0100001N1+02641+01511101441ADDAA199000091GF102991011021008001001011MA1999999093071MD1999999+0161REMSYN070AAXX  02184 83182 32597 21408 10264 20151 39307 40144 81201 333 58016;EQDQ01  00002PRCP99
0196831820999992000080300004-11290-041860FM-12+074799999V0200901N000512200019N0005001N1+02031+01571101671ADDAA199000091GA1001+999999999GF100991001001999999001001KA1240M+02731MA1999999093271MD1999999+0121REMSYN070AAXX  03004 83182 32993 00901 10203 20157 39327 40167 333 10273 58012;EQDQ01  00002PRCP99
0186831820999992000080312004-11290-041860FM-12+074799999V0200901N005710075019N0100001N1+02121+01511101871ADDAA199000091GF108991051021008001001011KA1240N+01501MA1999999093451MD1999999+0061REMSYN076AAXX  03124 83182 32597 80911 10212 20151 39345 40187 85201 333 20150 58006;EQDQ01  00002PRCP99
0167831820999992000080318004-11290-041860FM-12+074799999V0200901N004110450019N0100001N1+02601+01451101511ADDAA199000091GF107991041021008001051001MA1999999093131MD1999999+0061REMSYN070AAXX  03184 83182 32597 70908 10260 20145 39313 40151 84250 333 58006;EQDQ01  00002PRCP99
0196831820999992000080400004-11290-041860FM-12+074799999V0201401N003112200019N0005001N1+01921+01251101811ADDAA199000091GA1001+999999999GF100991001001999999001001KA1240M+02651MA1999999093381MD1999999+0111REMSYN070AAXX  04004 83182 32993 01406 10192 20125 39338 40181 333 10265 58011;EQDQ01  00002PRCP99
0186831820999992000080412004-11290-041860FM-12+074799999V0200901N005712200019N0100001N1+02131+01451101751ADDAA199000091GF101991011011012501001001KA1240N+01491MA1999999093331MD1999999-0121REMSYN076AAXX  04124 83182 32697 10911 10213 20145 39333 40175 81100 333 20149 59012;EQDQ01  00002PRCP99
0186831820999992000080500004-11290-041860FM-12+074799999V0200901N004612200019N0010001N1+02221+01381101491ADDAA199000091GF104991001001999999001011KA1240M+02901MA1999999093121MD1999999-0261REMSYN076AAXX  05004 83182 32994 40909 10222 20138 39312 40149 80001 333 10290 59026;EQDQ01  00002PRCP99
0186831820999992000080512004-11290-041860FM-12+074799999V0200901N008212200019N0100001N1+02251+01431101771ADDAA199000091GF101991011021008001001011KA1240N+01751MA1999999093381MD1999999+0051REMSYN076AAXX  05124 83182 32597 10916 10225 20143 39338 40177 81201 333 20175 58005;EQDQ01  00002PRCP99
0167831820999992000080518004-11290-041860FM-12+074799999V0201401N007710075019N0100001N1+02571+01151101461ADDAA199000091GF107991071021008001001001MA1999999093101MD1999999+0201REMSYN070AAXX  05184 83182 32597 71415 10257 20115 39310 40146 87200 333 58020;EQDQ01  00002PRCP99
0218831820999992000080600004-11290-041860FM-12+074799999V0201401N004112200019N0005001N1+01971+01511101791ADDAA199000091GF104991021001017501051011KA1240M+02611MA1999999999999MD1999999+0261REMSYN076AAXX  06004 83182 32793 41408 10197 20151 39938 40179 82051 333 10261 58026;EQDQ01+099383APOSP Q02  00002PRCP99Q03 099383APOSP 
0186831820999992000080612004-11290-041860FM-12+074799999V0201401N006710075019N0100001N1+01931+01301101981ADDAA199000091GF106991061021008001001001KA1240N+01691MA1999999093531MD1999999-0151REMSYN076AAXX  06124 83182 32597 61413 10193 20130 39353 40198 86200 333 20169 59015;EQDQ01  00002PRCP99
0167831820999992000080618004-11290-041860FM-12+074799999V0200901N004612200019N0100001N1+02671+01381101491ADDAA199000091GF106991011011008001001011MA1999999093141MD1999999+0041REMSYN070AAXX  06184 83182 32597 60909 10267 20138 39314 40149 81101 333 58004;EQDQ01  00002PRCP99
0186831820999992000080700004-11290-041860FM-12+074799999V0201401N003112200019N0005001N1+02011+01331101831ADDAA199000091GF104991011001008001091011KA1240M+02721MA1999999093391MD1999999+0011REMSYN076AAXX  07004 83182 32593 41406 10201 20133 39339 40183 81091 333 10272 58001;EQDQ01  00002PRCP99
0186831820999992000080712004-11290-041860FM-12+074799999V0201401N005712200019N0100001N1+02201+01541101961ADDAA199000091GF103991031021008001001001KA1240N+01631MA1999999093541MD1999999+0011REMSYN076AAXX  07124 83182 32597 31411 10220 20154 39354 40196 83200 333 20163 58001;EQDQ01  00002PRCP99
0167831820999992000080718004-11290-041860FM-12+074799999V0200901N005110075019N0100001N1+02531+01701101511ADDAA199000091GF107991071051008001001001MA1999999093131MD1999999-0011REMSYN070AAXX  07184 83182 32597 70910 10253 20170 39313 40151 87500 333 59001;EQDQ01  00002PRCP99
0186831820999992000080800004-11290-041860FM-12+074799999V0201401N004112200019N0005001N1+02011+01771101731ADDAA199000091GF104991041051008001001001KA1240M+02651MA1999999093331MD1999999+0061REMSYN076AAXX  08004 83182 32593 41408 10201 20177 39333 40173 84500 333 10265 58006;EQDQ01  00002PRCP99
0186831820999992000080812004-11290-041860FM-12+074799999V0201401N003610075019N0100001N1+02201+01761101781ADDAA199000091GF107991071051008001001001KA1240N+01811MA1999999093371MD1999999-0171REMSYN076AAXX  08124 83182 32597 71407 10220 20176 39337 40178 87500 333 20181 59017;EQDQ01  00002PRCP99
0167831820999992000080818004-11290-041860FM-12+074799999V0200901N005712200019N0100001N1+02791+01491101361ADDAA199000091GF105991041021008001001011MA1999999093011MD1999999-0121REMSYN070AAXX  08184 83182 32597 50911 10279 20149 39301 40136 84201 333 59012;EQDQ01  00002PRCP99
0196831820999992000080900004-11290-041860FM-12+074799999V0200901N005112200019N0005001N1+02131+01651101701ADDAA199000091GA1001+999999999GF100991001001999999001001KA1240M+02871MA1999999093301MD1999999-0031REMSYN070AAXX  09004 83182 32993 00910 10213 20165 39330 40170 333 10287 59003;EQDQ01  00002PRCP99
0186831820999992000080912004-11290-041860FM-12+074799999V0201401N006212200019N0100001N1+02391+01461101851ADDAA199000091GF101991011021008001001001KA1240N+01711MA1999999093451MD1999999+0081REMSYN076AAXX  09124 83182 32597 11412 10239 20146 39345 40185 81200 333 20171 58008;EQDQ01  00002PRCP99
0186831820999992000081000004-11290-041860FM-12+074799999V0200901N005110150019N0005001N1+02331+01431101791ADDAA199000091GF106991061051017501001001KA1240M+02981MA1999999093421MD1999999+0121REMSYN076AAXX  10004 83182 32793 60910 10233 20143 39342 40179 86500 333 10298 58012;EQDQ01  00002PRCP99
0186831820999992000081012004-11290-041860FM-12+074799999V0201401N004112200019N0100001N1+02301+01611101961ADDAA199000091GF101991011011012501001001KA1240N+01651MA1999999093561MD1999999+0111REMSYN076AAXX  10124 83182 32697 11408 10230 20161 39356 40196 81100 333 20165 58011;EQDQ01  00002PRCP99
0167831820999992000081018004-11290-041860FM-12+074799999V0201401N005712200019N0100001N1+02951+01491101441ADDAA199000091GF101991011011012501001001MA1999999093111MD1999999+0061REMSYN070AAXX  10184 83182 32697 11411 10295 20149 39311 40144 81100 333 58006;EQDQ01  00002PRCP99
0196831820999992000081100004-11290-041860FM-12+074799999V0201401N003112200019N0005001N1+02201+01441101801ADDAA199000091GA1001+999999999GF100991001001999999001001KA1240M+03021MA1999999093411MD1999999-0011REMSYN070AAXX  11004 83182 32993 01406 10220 20144 39341 40180 333 10302 59001;EQDQ01  00002PRCP99
0167831820999992000081118004-11290-041860FM-12+074799999V0201401N003112200019N0040001N1+03021+01121101321ADDAA199000091GF102991011021008001001011MA1999999093001MD1999999-0111REMSYN070AAXX  11184 83182 32596 21406 10302 20112 39300 40132 81201 333 59011;EQDQ01  00002PRCP99
0196831820999992000081200004-11290-041860FM-12+074799999V0200901N003112200019N0005001N1+02241+01351101591ADDAA199000091GA1001+999999999GF100991001001999999001001KA1240M+03061MA1999999093211MD1999999-0201REMSYN070AAXX  12004 83182 32993 00906 10224 20135 39321 40159 333 10306 59020;EQDQ01  00002PRCP99
0196831820999992000081212004-11290-041860FM-12+074799999V0200901N003612200019N0040001N1+02251+01611101681ADDAA199000091GA1001+999999999GF100991001001999999001001KA1240N+01471MA1999999093301MD1999999-0151REMSYN070AAXX  12124 83182 32996 00907 10225 20161 39330 40168 333 20147 59015;EQDQ01  00002PRCP99
0167831820999992000081218004-11290-041860FM-12+074799999V0201401N005712200019N0040001N1+03061+01201101131ADDAA199000091GF104991041021008001001001MA1999999092831MD1999999-0171REMSYN070AAXX  12184 83182 32596 41411 10306 20120 39283 40113 84200 333 59017;EQDQ01  00002PRCP99
0186831820999992000081312004-11290-041860FM-12+074799999V0200901N006210075019N0100001N1+02131+01601101861ADDAA199000091GF107991071071008001001001KA1240N+01891MA1999999093471MD1999999+0171REMSYN076AAXX  13124 83182 32597 70912 10213 20160 39347 40186 87700 333 20189 58017;EQDQ01  00002PRCP99
0167831820999992000081318004-11290-041860FM-12+074799999V0200901N005712200019N0100001N1+02731+01531101431ADDAA199000091GF102991021021008001001001MA1999999093091MD1999999+0261REMSYN070AAXX  13184 83182 32597 20911 10273 20153 39309 40143 82200 333 58026;EQDQ01  00002PRCP99
0186831820999992000081400004-11290-041860FM-12+074799999V0200901N004612200019N0005001N1+02011+01491101841ADDAA199000091GF101991011011012501001001KA1240M+02801MA1999999093421MD1999999+0261REMSYN076AAXX  14004 83182 32693 10909 10201 20149 39342 40184 81100 333 10280 58026;EQDQ01  00002PRCP99
0186831820999992000081412004-11290-041860FM-12+074799999V0201401N005710075019N0100001N1+02011+01381102071ADDAA199000091GF107991071051008001001001KA1240N+01491MA1999999093621MD1999999+0151REMSYN076AAXX  14124 83182 32597 71411 10201 20138 39362 40207 87500 333 20149 58015;EQDQ01  00002PRCP99
0167831820999992000081418004-11290-041860FM-12+074799999V0201401N005712200019N0100001N1+02671+01121101641ADDAA199000091GF102991021021008001001001MA1999999093251MD1999999+0161REMSYN070AAXX  14184 83182 32597 21411 10267 20112 39325 40164 82200 333 58016;EQDQ01  00002PRCP99
0196831820999992000081500004-11290-041860FM-12+074799999V0200901N004612200019N0005001N1+01901+01271101941ADDAA199000091GA1001+999999999GF100991001001999999001001KA1240M+02691MA1999999093491MD1999999+0071REMSYN070AAXX  15004 83182 32993 00909 10190 20127 39349 40194 333 10269 58007;EQDQ01  00002PRCP99
0167831820999992000081518004-11290-041860FM-12+074799999V0200901N005712200019N0100001N1+02371+01241101741ADDAA199000091GF108991011021008001001011MA1999999093321MD1999999+0071REMSYN070AAXX  15184 83182 32597 80911 10237 20124 39332 40174 81201 333 58007;EQDQ01  00002PRCP99
0186831820999992000081600004-11290-041860FM-12+074799999V0201401N002619999999N0005001N1+01721+01101101901ADDAA199000091GF108991001001999999001011KA1240M+02451MA1999999093441MD1999999-0051REMSYN076AAXX  16004 83182 32993 81405 10172 20110 39344 40190 80001 333 10245 59005;EQDQ01  00002PRCP99
0186831820999992000081612004-11290-041860FM-12+074799999V02099999999990075019N0100001N1+02081+01511102031ADDAA199000091GF106991061021008001001001KA1240N+01321MA1999999093561MD1999999-0101REMSYN076AAXX  16124 83182 32597 6//10 10208 20151 39356 40203 86200 333 20132 59010;EQDQ01  00002PRCP99
0167831820999992000081618004-11290-041860FM-12+074799999V0201401N004112200019N0100001N1+02681+01281101501ADDAA199000091GF102991011021008001001011MA1999999093101MD1999999-0221REMSYN070AAXX  16184 83182 32597 21408 10268 20128 39310 40150 81201 333 59022;EQDQ01  00002PRCP99
0196831820999992000081700004-11290-041860FM-12+074799999V0200901N004612200019N0005001N1+01961+01241101751ADDAA199000091GA1001+999999999GF100991001001999999001001KA1240M+02751MA1999999093331MD1999999+0111REMSYN070AAXX  17004 83182 32993 00909 10196 20124 39333 40175 333 10275 58011;EQDQ01  00002PRCP99
0186831820999992000081712004-11290-041860FM-12+074799999V0201401N004610075019N0100001N1+01961+01241102061ADDAA199000091GF107991071051008001001001KA1240N+01341MA1999999093601MD1999999+0041REMSYN076AAXX  17124 83182 32597 71409 10196 20124 39360 40206 87500 333 20134 58004;EQDQ01  00002PRCP99
0167831820999992000081718004-11290-041860FM-12+074799999V0200901N005712200019N0100001N1+02641+01171101491ADDAA199000091GF101991011021008001001001MA1999999093101MD1999999+0001REMSYN070AAXX  17184 83182 32597 10911 10264 20117 39310 40149 81200 333 58000;EQDQ01  00002PRCP99
0186831820999992000081800004-11290-041860FM-12+074799999V0200901N005712200019N0005001N1+01981+01281101801ADDAA199000091GF101991011001017501041001KA1240M+02681MA1999999093361MD1999999+0031REMSYN076AAXX  18004 83182 32793 10911 10198 20128 39336 40180 81040 333 10268 58003;EQDQ01  00002PRCP99
0186831820999992000081812004-11290-041860FM-12+074799999V0201401N003612200019N0100001N1+01991+01291101951ADDAA199000091GF101991001001999999001011KA1240N+01181MA1999999093511MD1999999-0091REMSYN076AAXX  18124 83182 32997 11407 10199 20129 39351 40195 80001 333 20118 59009;EQDQ01  00002PRCP99
0167831820999992000081818004-11290-041860FM-12+074799999V0200501N003112200019N0100001N1+02801+00881101431ADDAA199000091GF101991001001999999001011MA1999999093061MD1999999-0041REMSYN070AAXX  18184 83182 32997 10506 10280 20088 39306 40143 80001 333 59004;EQDQ01  00002PRCP99
0186831820999992000081900004-11290-041860FM-12+074799999V0200901N004612200019N0005001N1+02161+01041101621ADDAA199000091GF101991001001999999001011KA1240M+02861MA1999999093221MD1999999-0141REMSYN076AAXX  19004 83182 32993 10909 10216 20104 39322 40162 80001 333 10286 59014;EQDQ01  00002PRCP99
0196831820999992000081912004-11290-041860FM-12+074799999V0200901N004612200019N0100001N1+02191+01401101821ADDAA199000091GA1001+999999999GF100991001001999999001001KA1240N+01371MA1999999093431MD1999999-0081REMSYN070AAXX  19124 83182 32997 00909 10219 20140 39343 40182 333 20137 59008;EQDQ01  00002PRCP99
0177831820999992000081918004-11290-041860FM-12+074799999V0200901N004612200019N0100001N1+02841+01151101351ADDAA199000091GA1001+999999999GF100991001001999999001001MA1999999093001MD1999999-0061REMSYN064AAXX  19184 83182 32997 00909 10284 20115 39300 40135 333 59006;EQDQ01  00002PRCP99
0186831820999992000082012004-11290-041860FM-12+074799999V0200901N006712200019N0100001N1+02211+01701101961ADDAA199000091GF101991011021008001001001KA1240N+01641MA1999999093551MD1999999+0121REMSYN076AAXX  20124 83182 32597 10913 10221 20170 39355 40196 81200 333 20164 58012;EQDQ01  00002PRCP99
0167831820999992000082018004-11290-041860FM-12+074799999V0200901N004112200019N0100001N1+02841+01191101511ADDAA199000091GF103991031021008001001001MA1999999093161MD1999999+0161REMSYN070AAXX  20184 83182 32597 30908 10284 20119 39316 40151 83200 333 58016;EQDQ01  00002PRCP99
0186831820999992000082112004-11290-041860FM-12+074799999V0201401N006210075019N0100001N1+02251+01411101971ADDAA199000091GF108991051021008001001011KA1240N+01521MA1999999093571MD1999999+0021REMSYN076AAXX  21124 83182 32597 81412 10225 20141 39357 40197 85201 333 20152 58002;EQDQ01  00002PRCP99
0167831820999992000082118004-11290-041860FM-12+074799999V0201401N004112200019N0100001N1+02861+01081101531ADDAA199000091GF106991021021008001001011MA1999999093181MD1999999+0061REMSYN070AAXX  21184 83182 32597 61408 10286 20108 39318 40153 82201 333 58006;EQDQ01  00002PRCP99
0196831820999992000082200004-11290-041860FM-12+074799999V0200901N004612200019N0005001N1+02151+01481101661ADDAA199000091GA1001+999999999GF100991001001999999001001KA1240M+02821MA1999999093271MD1999999-0091REMSYN070AAXX  22004 83182 32993 00909 10215 20148 39327 40166 333 10282 59009;EQDQ01  00002PRCP99
0186831820999992000082212004-11290-041860FM-12+074799999V0201401N004110075019N0100001N1+02121+01511101911ADDAA199000091GF108991081051008001999999KA1240N+01711MA1999999093501MD1999999-0071REMSYN076AAXX  22124 83182 32597 81408 10212 20151 39350 40191 885// 333 20171 59007;EQDQ01  00002PRCP99
0167831820999992000082218004-11290-041860FM-12+074799999V0200901N003610075019N0100001N1+02791+01371101411ADDAA199000091GF108991061021008001001011MA1999999093071MD1999999-0111REMSYN070AAXX  22184 83182 32597 80907 10279 20137 39307 40141 86201 333 59011;EQDQ01  00002PRCP99
0186831820999992000082300004-11290-041860FM-12+074799999V0201401N004119999999N0100001N1+02061+01521101671ADDAA199000091GF108991001001999999001011KA1240M+02821MA1999999093271MD1999999+0001REMSYN076AAXX  23004 83182 32997 81408 10206 20152 39327 40167 80001 333 10282 58000;EQDQ01  00002PRCP99
0186831820999992000082312004-11290-041860FM-12+074799999V0201401N004610075019N0100001N1+02041+01851101781ADDAA199000091GF107991071051008001001001KA1240N+01671MA1999999093361MD1999999-0141REMSYN076AAXX  23124 83182 32597 71409 10204 20185 39336 40178 87500 333 20167 59014;EQDQ01  00002PRCP99
0167831820999992000082318004-11290-041860FM-12+074799999V0200901N007212200019N0100001N1+02781+01641101321ADDAA199000091GF104991041021008001001001MA1999999092981MD1999999-0091REMSYN070AAXX  23184 83182 32597 40914 10278 20164 39298 40132 84200 333 59009;EQDQ01  00002PRCP99
0196831820999992000082400004-11290-041860FM-12+074799999V0201401N004112200019N0005001N1+02121+01531101581ADDAA199000091GA1001+999999999GF100991001001999999001001KA1240M+02831MA1999999093181MD1999999-0091REMSYN070AAXX  24004 83182 32993 01408 10212 20153 39318 40158 333 10283 59009;EQDQ01  00002PRCP99
0186831820999992000082412004-11290-041860FM-12+074799999V0201401N003112200019N0100001N1+02301+01461101821ADDAA199000091GF101991011021008001001001KA1240N+01561MA1999999093431MD1999999+0071REMSYN076AAXX  24124 83182 32597 11406 10230 20146 39343 40182 81200 333 20156 58007;EQDQ01  00002PRCP99
0167831820999992000082418004-11290-041860FM-12+074799999V0200901N004612200019N0100001N1+02831+01491101341ADDAA199000091GF103991031021008001001001MA1999999093021MD1999999+0041REMSYN070AAXX  24184 83182 32597 30909 10283 20149 39302 40134 83200 333 58004;EQDQ01  00002PRCP99
0196831820999992000082500004-11290-041860FM-12+074799999V0201401N004612200019N0005001N1+02131+01691101601ADDAA199000091GA1001+999999999GF100991001001999999001001KA1240M+02881MA1999999093231MD1999999+0051REMSYN070AAXX  25004 83182 32993 01409 10213 20169 39323 40160 333 10288 58005;EQDQ01  00002PRCP99
0186831820999992000082512004-11290-041860FM-12+074799999V0201401N006212200019N0100001N1+02391+01461101811ADDAA199000091GF104991011021008001051001KA1240N+01931MA1999999093421MD1999999-0011REMSYN076AAXX  25124 83182 32597 41412 10239 20146 39342 40181 81250 333 20193 59001;EQDQ01  00002PRCP99
0167831820999992000082518004-11290-041860FM-12+074799999V0200901N005712200019N0100001N1+02981+01441101211ADDAA199000091GF102991021021008001001001MA1999999092911MD1999999-0111REMSYN070AAXX  25184 83182 32597 20911 10298 20144 39291 40121 82200 333 59011;EQDQ01  00002PRCP99
0196831820999992000082600004-11290-041860FM-12+074799999V0200901N002612200019N0005001N1+02391+01641101491ADDAA199000091GA1001+999999999GF100991001001999999001001KA1240M+03021MA1999999093151MD1999999-0081REMSYN070AAXX  26004 83182 32993 00905 10239 20164 39315 40149 333 10302 59008;EQDQ01  00002PRCP99
0186831820999992000082612004-11290-041860FM-12+074799999V0200901N005712200019N0040001N1+02451+01651101591ADDAA199000091GF105991041021008001001011KA1240N+01851MA1999999093251MD1999999-0101REMSYN076AAXX  26124 83182 32596 50911 10245 20165 39325 40159 84201 333 20185 59010;EQDQ01  00002PRCP99
0167831820999992000082618004-11290-041860FM-12+074799999V0201401N006212200019N0100001N1+03061+01341101011ADDAA199000091GF102991021021008001001001MA1999999092731MD1999999-0181REMSYN070AAXX  26184 83182 32597 21412 10306 20134 39273 40101 82200 333 59018;EQDQ01  00002PRCP99
0196831820999992000082700004-11290-041860FM-12+074799999V0200901N005112200019N0005001N1+02351+01391101321ADDAA199000091GA1001+999999999GF100991001001999999001001KA1240M+03131MA1999999093001MD1999999-0151REMSYN070AAXX  27004 83182 32993 00910 10235 20139 39300 40132 333 10313 59015;EQDQ01  00002PRCP99
0196831820999992000082712004-11290-041860FM-12+074799999V0200501N003612200019N0040001N1+02261+01231101481ADDAA199000091GA1001+999999999GF100991001001999999001001KA1240N+01531MA1999999093131MD1999999-0121REMSYN070AAXX  27124 83182 32996 00507 10226 20123 39313 40148 333 20153 59012;EQDQ01  00002PRCP99
0177831820999992000082718004-11290-041860FM-12+074799999V0200901N005112200019N0100001N1+03171+00871100811ADDAA199000091GA1001+999999999GF100991001001999999001001MA1999999092541MD1999999-0191REMSYN064AAXX  27184 83182 32997 00910 10317 20087 39254 40081 333 59019;EQDQ01  00002PRCP99
0196831820999992000082800004-11290-041860FM-12+074799999V0200901N004612200019N0005001N1+02351+01151101211ADDAA199000091GA1001+999999999GF100991001001999999001001KA1240M+03221MA1999999092881MD1999999-0121REMSYN070AAXX  28004 83182 32993 00909 10235 20115 39288 40121 333 10322 59012;EQDQ01  00002PRCP99
0196831820999992000082812004-11290-041860FM-12+074799999V0200501N003612200019N0100001N1+02351+01531101371ADDAA199000091GA1001+999999999GF100991001001999999001001KA1240N+01491MA1999999093041MD1999999-0091REMSYN070AAXX  28124 83182 32997 00507 10235 20153 39304 40137 333 20149 59009;EQDQ01  00002PRCP99
0196831820999992000082900004-11290-041860FM-12+074799999V0200901N004612200019N0005001N1+02531+01251101081ADDAA199000091GA1001+999999999GF100991001001999999001001KA1240M+03311MA1999999092791MD1999999-0091REMSYN070AAXX  29004 83182 32993 00909 10253 20125 39279 40108 333 10331 59009;EQDQ01  00002PRCP99
0186831820999992000082912004-11290-041860FM-12+074799999V0201401N003112200019N0100001N1+02631+01601101351ADDAA199000091GF101991001001999999001011KA1240N+01691MA1999999093061MD1999999+0021REMSYN076AAXX  29124 83182 32997 11406 10263 20160 39306 40135 80001 333 20169 58002;EQDQ01  00002PRCP99
0167831820999992000082918004-11290-041860FM-12+074799999V0201401N003112200019N0100001N1+03401+01181100861ADDAA199000091GF102991021021008001001001MA1999999092601MD1999999+0071REMSYN070AAXX  29184 83182 32597 21406 10340 20118 39260 40086 82200 333 58007;EQDQ01  00002PRCP99
0196831820999992000083000004-11290-041860FM-12+074799999V0200901N004612200019N0005001N1+02511+01541101331ADDAA199000091GA1001+999999999GF100991001001999999001001KA1240M+03481MA1999999093041MD1999999+0251REMSYN070AAXX  30004 83182 32993 00909 10251 20154 39304 40133 333 10348 58025;EQDQ01  00002PRCP99
0186831820999992000083012004-11290-041860FM-12+074799999V0200901N006712200019N0100001N1+02451+01601101661ADDAA199000091GF104991021021008001001011KA1240N+01741MA1999999093331MD1999999+0271REMSYN076AAXX  30124 83182 32597 40913 10245 20160 39333 40166 82201 333 20174 58027;EQDQ01  00002PRCP99
0177831820999992000083018004-11290-041860FM-12+074799999V0201401N025712200019N0100001N1+03001+01371101191ADDAA199000091GA1001+999999999GF100991001001999999001001MA1999999092891MD1999999+0291REMSYN064AAXX  30184 83182 32997 01450 10300 20137 39289 40119 333 58029;EQDQ01  00002PRCP99
0196831820999992000083100004-11290-041860FM-12+074799999V0200901N002112200019N0005001N1+02241+01401101591ADDAA199000091GA1001+999999999GF100991001001999999001001KA1240M+03041MA1999999093241MD1999999+0201REMSYN070AAXX  31004 83182 32993 00904 10224 20140 39324 40159 333 10304 58020;EQDQ01  00002PRCP99
0186831820999992000083112004-11290-041860FM-12+074799999V0201401N005710075019N0100001N1+02291+01601101721ADDAA199000091GF108991081051008001999999KA1240N+01411MA1999999093341MD1999999+0011REMSYN076AAXX  31124 83182 32597 81411 10229 20160 39334 40172 885// 333 20141 58001;EQDQ01  00002PRCP99
0167831820999992000083118004-11290-041860FM-12+074799999V0200901N005712200019N0100001N1+02801+01631101231ADDAA199000091GF104991041021008001001001MA1999999092881MD1999999-0011REMSYN070AAXX  31184 83182 32597 40911 10280 20163 39288 40123 84200 333 59001;EQDQ01  00002PRCP99
0196831820999992000090100004-11290-041860FM-12+074799999V0201401N003612200019N0100001N1+02071+01751101491ADDAA199000091GA1001+999999999GF100991001001999999001001KA1240M+02881MA1999999093121MD1999999-0121REMSYN070AAXX  01004 83182 32597 01407 10207 20175 39312 40149 333 10288 59012;EQDQ01  00002PRCP99
0202831820999992000090112004-11290-041860FM-12+074799999V0201401N005712200019N0100001N1+02251+01331101611ADDAA199000091GF102991011021008001001011KA1240M+99999MA1999999093241MD1999999-0101REMSYN076AAXX  01124 83182 32597 21411 10225 20133 39324 40161 81201 333 10159 59010;EQDQ01  00002PRCP99Q02 +01592ATMX  
0167831820999992000090118004-11290-041860FM-12+074799999V0201401N004112200019N0040001N1+02961+01421101001ADDAA199000091GF102991001001999999001011MA1999999092701MD1999999-0181REMSYN070AAXX  01184 83182 32996 21408 10296 20142 39270 40100 80001 333 59018;EQDQ01  00002PRCP99
0196831820999992000090200004-11290-041860FM-12+074799999V0201401N004112200019N0005001N1+02311+01361101141ADDAA199000091GA1001+999999999GF100991001001999999001001KA1240M+03031MA1999999092911MD1999999-0211REMSYN070AAXX  02004 83182 32993 01408 10231 20136 39291 40114 333 10303 59021;EQDQ01  00002PRCP99
0186831820999992000090212004-11290-041860FM-12+074799999V0200901N004612200019N0040001N1+02361+01691101421ADDAA199000091GF102991011021008001001011KA1240N+01611MA1999999093081MD1999999-0161REMSYN076AAXX  02124 83182 32596 20909 10236 20169 39308 40142 81201 333 20161 59016;EQDQ01  00002PRCP99
0167831820999992000090218004-11290-041860FM-12+074799999V0200501N003112200019N0040001N1+03111+01431100891ADDAA199000091GF105991041021008001001011MA1999999092631MD1999999-0071REMSYN070AAXX  02184 83182 32596 50506 10311 20143 39263 40089 84201 333 59007;EQDQ01  00002PRCP99
0186831820999992000090312004-11290-041860FM-12+074799999V0200901N004112200019N0040001N1+02391+01591101401ADDAA199000091GF102991001001999999001011KA1240N+01691MA1999999093071MD1999999-0011REMSYN076AAXX  03124 83182 32996 20908 10239 20159 39307 40140 80001 333 20169 59001;EQDQ01  00002PRCP99
0167831820999992000090318004-11290-041860FM-12+074799999V0200501N003112200019N0040001N1+03081+01601100921ADDAA199000091GF102991011021008001001011MA1999999092651MD1999999+0021REMSYN070AAXX  03184 83182 32596 20506 10308 20160 39265 40092 81201 333 58002;EQDQ01  00002PRCP99
0186831820999992000090400004-11290-041860FM-12+074799999V0200901N004112200019N0005001N1+02371+01551101201ADDAA199000091GF102991011001017501031011KA1240M+03141MA1999999092891MD1999999-0041REMSYN076AAXX  04004 83182 32793 20908 10237 20155 39289 40120 81031 333 10314 59004;EQDQ01  00002PRCP99
0214831820999992000090412004-11290-041860FM-12+074799999V0201401N003610450019N0020001N1+02431+01631101611ADDAA199000091AY121061AY221061GF108991031051004501031011KA1240N+01531MA1999999093181MD1999999+0111MW1051REMSYN082AAXX  04124 83182 31495 81407 10243 20163 39318 40161 70522 83531 333 20153 58011;EQDQ01  00002PRCP99
0167831820999992000090418004-11290-041860FM-12+074799999V0200901N002610450019N0040001N1+03031+01561100981ADDAA199000091GF107991041021008001031011MA1999999092701MD1999999+0051REMSYN070AAXX  04184 83182 32596 70905 10303 20156 39270 40098 84231 333 58005;EQDQ01  00002PRCP99
0186831820999992000090500004-11290-041860FM-12+074799999V0200901N005110450019N0005001N1+02521+01491101291ADDAA199000091GF108991031021008001051011KA1240M+03101MA1999999092991MD1999999+0101REMSYN076AAXX  05004 83182 32593 80910 10252 20149 39299 40129 83251 333 10310 58010;EQDQ01  00002PRCP99
0186831820999992000090512004-11290-041860FM-12+074799999V0201401N006210450019N0100001N1+02401+01551101561ADDAA199000091GF108991011021008001051011KA1240N+01931MA1999999093231MD1999999+0051REMSYN076AAXX  05124 83182 32597 81412 10240 20155 39323 40156 81251 333 20193 58005;EQDQ01  00002PRCP99
0167831820999992000090518004-11290-041860FM-12+074799999V0200501N003610450019N0100001N1+02681+01641101211ADDAA199000091GF108991021021008001051011MA1999999092901MD1999999+0201REMSYN070AAXX  05184 83182 32597 80507 10268 20164 39290 40121 82251 333 58020;EQDQ01  00002PRCP99
0186831820999992000090600004-11290-041860FM-12+074799999V0201401N004612200019N0005001N1+02181+01671101461ADDAA199000091GF108991041001017501051011KA1240M+02721MA1999999093111MD1999999+0121REMSYN076AAXX  06004 83182 32793 81409 10218 20167 39311 40146 84051 333 10272 58012;EQDQ01  00002PRCP99
0186831820999992000090612004-11290-041860FM-12+074799999V0201401N003110075019N0100001N1+02381+01611101521ADDAA199000091GF106991061021008001001001KA1240N+01821MA1999999093161MD1999999-0071REMSYN076AAXX  06124 83182 32597 61406 10238 20161 39316 40152 86200 333 20182 59007;EQDQ01  00002PRCP99
0167831820999992000090618004-11290-041860FM-12+074799999V0200901N003110075019N0100001N1+02981+01761100971ADDAA199000091GF107991061021008001001011MA1999999092681MD1999999-0221REMSYN070AAXX  06184 83182 32597 70906 10298 20176 39268 40097 86201 333 59022;EQDQ01  00002PRCP99
0186831820999992000090712004-11290-041860FM-12+074799999V0201401N003610450019N0100001N1+02191+01641101481ADDAA199000091GF108991041021008001051999KA1240N+01751MA1999999093111MD1999999-0051REMSYN076AAXX  07124 83182 32597 81407 10219 20164 39311 40148 8425/ 333 20175 59005;EQDQ01  00002PRCP99
0167831820999992000090718004-11290-041860FM-12+074799999V0201401N002610075019N0100001N1+02811+01571100941ADDAA199000091GF108991071021008001061001MA1999999092641MD1999999-0041REMSYN070AAXX  07184 83182 32597 81405 10281 20157 39264 40094 87260 333 59004;EQDQ01  00002PRCP99
0167831820999992000090818004-11290-041860FM-12+074799999V0200901N004612200019N0100001N1+02491+01611101131ADDAA199000091GF104991011021008001051011MA1999999092791MD1999999+0151REMSYN070AAXX  08184 83182 32597 40909 10249 20161 39279 40113 81251 333 58015;EQDQ01  00002PRCP99
0186831820999992000090900004-11290-041860FM-12+074799999V0200901N003612200019N0005001N1+02091+01611101421ADDAA199000091GF102991011001017501061011KA1240M+02551MA1999999093021MD1999999-0061REMSYN076AAXX  09004 83182 32793 20907 10209 20161 39302 40142 81061 333 10255 59006;EQDQ01  00002PRCP99
0186831820999992000090912004-11290-041860FM-12+074799999V0200901N005712200019N0100001N1+02271+01601101611ADDAA199000091GF102991011021008001001011KA1240N+01711MA1999999093231MD1999999+0071REMSYN076AAXX  09124 83182 32597 20911 10227 20160 39323 40161 81201 333 20171 58007;EQDQ01  00002PRCP99
0167831820999992000090918004-11290-041860FM-12+074799999V0200901N003110450019N0100001N1+02691+01531101161ADDAA199000091GF108991041051004501011999MA1999999092841MD1999999+0051REMSYN070AAXX  09184 83182 32497 80906 10269 20153 39284 40116 8451/ 333 58005;EQDQ01  00002PRCP99
0186831820999992000091000004-11290-041860FM-12+074799999V0201401N005112200019N0005001N1+02211+01661101431ADDAA199000091GF101991011001017501061001KA1240M+02761MA1999999093071MD1999999+0051REMSYN076AAXX  10004 83182 32793 11410 10221 20166 39307 40143 81060 333 10276 58005;EQDQ01  00002PRCP99
0186831820999992000091012004-11290-041860FM-12+074799999V0201801N005110075019N0100001N1+02191+01641101671ADDAA199000091GF108991081051008001999999KA1240N+01811MA1999999093281MD1999999+0051REMSYN076AAXX  10124 83182 32597 81810 10219 20164 39328 40167 885// 333 20181 58005;EQDQ01  00002PRCP99
0167831820999992000091018004-11290-041860FM-12+074799999V0200901N004612200019N0100001N1+02851+01511101091ADDAA199000091GF104991041021008001001001MA1999999092791MD1999999-0051REMSYN070AAXX  10184 83182 32597 40909 10285 20151 39279 40109 84200 333 59005;EQDQ01  00002PRCP99
0196831820999992000091100004-11290-041860FM-12+074799999V0200901N005112200019N0005001N1+02231+01611101351ADDAA199000091GA1001+999999999GF100991001001999999001001KA1240M+02911MA1999999092991MD1999999-0081REMSYN070AAXX  11004 83182 32993 00910 10223 20161 39299 40135 333 10291 59008;EQDQ01  00002PRCP99
0186831820999992000091112004-11290-041860FM-12+074799999V0201401N006710075019N0100001N1+02281+01661101721ADDAA199000091GF107991071051008001001001KA1240N+01811MA1999999093341MD1999999+0061REMSYN076AAXX  11124 83182 32597 71413 10228 20166 39334 40172 87500 333 20181 58006;EQDQ01  00002PRCP99
0167831820999992000091118004-11290-041860FM-12+074799999V0200901N006712200019N0100001N1+02781+01551101301ADDAA199000091GF103991031021008001001001MA1999999092731MD1999999-0061REMSYN070AAXX  11184 83182 32597 30913 10278 20155 39273 4013/ 83200 333 59006;EQDQ01  00002PRCP99
0196831820999992000091200004-11290-041860FM-12+074799999V0200901N005112200019N0005001N1+02171+01681101391ADDAA199000091GA1001+999999999GF100991001001999999001001KA1240M+02921MA1999999093041MD1999999-0051REMSYN070AAXX  12004 83182 32993 00910 10217 20168 39304 40139 333 10292 59005;EQDQ01  00002PRCP99
0186831820999992000091212004-11290-041860FM-12+074799999V0201401N004610075019N0100001N1+02341+01641101591ADDAA199000091GF108991081051008001999999KA1240N+01751MA1999999093221MD1999999-0121REMSYN076AAXX  12124 83182 32597 81409 10234 20164 39322 40159 885// 333 20175 59012;EQDQ01  00002PRCP99
0167831820999992000091218004-11290-041860FM-12+074799999V0200901N004112200019N0100001N1+02821+01611101011ADDAA199000091GF103991031021008001001001MA1999999092711MD1999999-0021REMSYN070AAXX  12184 83182 32597 30908 10282 20161 39271 40101 83200 333 59002;EQDQ01  00002PRCP99
0196831820999992000091300004-11290-041860FM-12+074799999V0200901N003112200019N0005001N1+02061+01701101441ADDAA199000091GA1001+999999999GF100991001001999999001001KA1240M+02961MA1999999093071MD1999999+0031REMSYN070AAXX  13004 83182 32993 00906 10206 20170 39307 40144 333 10296 58003;EQDQ01  00002PRCP99
0186831820999992000091312004-11290-041860FM-12+074799999V0200901N005110075019N0100001N1+02421+01701101701ADDAA199000091GF106991061021008001001001KA1240N+01801MA1999999093321MD1999999+0101REMSYN076AAXX  13124 83182 32597 60910 10242 20170 39332 40170 86200 333 20180 58010;EQDQ01  00002PRCP99
0167831820999992000091318004-11290-041860FM-12+074799999V0201401N005110450019N0100001N1+02911+01531101191ADDAA199000091GF105991041021008001051001MA1999999092881MD1999999-0171REMSYN070AAXX  13184 83182 32597 51410 10291 20153 39288 40119 84250 333 59017;EQDQ01  00002PRCP99
0186831820999992000091400004-11290-041860FM-12+074799999V0200901N007210150019N0005001N1+02251+01781101501ADDAA199000091GF107991071001017501051001KA1240M+03081MA1999999093151MD1999999+0081REMSYN076AAXX  14004 83182 32793 70914 10225 20178 39315 40150 87050 333 10308 58008;EQDQ01  00002PRCP99
0186831820999992000091412004-11290-041860FM-12+074799999V0200901N006210075019N0100001N1+02341+01761101751ADDAA199000091GF108991081051008001999999KA1240N+01991MA1999999093371MD1999999+0021REMSYN076AAXX  14124 83182 32597 80912 10234 20176 39337 40175 885// 333 20199 58002;EQDQ01  00002PRCP99
0167831820999992000091418004-11290-041860FM-12+074799999V0200901N005710450019N0100001N1+02941+01281101211ADDAA199000091GF108991021051008001011999MA1999999092921MD1999999+0041REMSYN070AAXX  14184 83182 32597 80911 10294 20128 39292 40121 8251/ 333 58004;EQDQ01  00002PRCP99
0186831820999992000091512004-11290-041860FM-12+074799999V0200901N007210450019N0100001N1+02351+01631101731ADDAA199000091GF107991031021008001051011KA1240N+01861MA1999999093351MD1999999-0021REMSYN076AAXX  15124 83182 32597 70914 10235 20163 39335 40173 83251 333 20186 59002;EQDQ01  00002PRCP99
0167831820999992000091518004-11290-041860FM-12+074799999V0200901N005112200019N0100001N1+02941+01321101271ADDAA199000091GF103991021021008001001011MA1999999092971MD1999999+0051REMSYN070AAXX  15184 83182 32597 30910 10294 20132 39297 40127 82201 333 58005;EQDQ01  00002PRCP99
0196831820999992000091600004-11290-041860FM-12+074799999V0201401N003112200019N0005001N1+02331+01371101591ADDAA199000091GA1001+999999999GF100991001001999999001001KA1240M+03001MA1999999093241MD1999999-0081REMSYN070AAXX  16004 83182 32993 01406 10233 20137 39324 40159 333 10300 59008;EQDQ01  00002PRCP99
0186831820999992000091612004-11290-041860FM-12+074799999V0200901N005710450019N0100001N1+02331+01731101761ADDAA199000091GF108991021051004501051999KA1240N+01891MA1999999093391MD1999999+0041REMSYN076AAXX  16124 83182 32497 80911 10233 20173 39339 40176 8255/ 333 20189 58004;EQDQ01  00002PRCP99
0167831820999992000091618004-11290-041860FM-12+074799999V0200901N006712200019N0100001N1+02941+01281101231ADDAA199000091GF102991021021008001001011MA1999999092941MD1999999-0031REMSYN070AAXX  16184 83182 32597 20913 10294 20128 39294 40123 82201 333 59003;EQDQ01  00002PRCP99
0196831820999992000091700004-11290-041860FM-12+074799999V0201401N003612200019N0005001N1+02371+01471101541ADDAA199000091GA1001+999999999GF100991001001999999001001KA1240M+03011MA1999999093191MD1999999-0051REMSYN070AAXX  17004 83182 32993 01407 10237 20147 39319 40154 333 10301 59005;EQDQ01  00002PRCP99
0186831820999992000091712004-11290-041860FM-12+074799999V0200901N006212200019N0100001N1+02351+01561101721ADDAA199000091GF102991021021008001001001KA1240N+01811MA1999999093351MD1999999-0041REMSYN076AAXX  17124 83182 32597 20912 10235 20156 39335 40172 82200 333 20181 59004;EQDQ01  00002PRCP99
0167831820999992000091718004-11290-041860FM-12+074799999V0200901N006212200019N0040001N1+02931+01311101281ADDAA199000091GF102991011021008001001011MA1999999092971MD1999999+0031REMSYN070AAXX  17184 83182 32596 20912 10293 20131 39297 40128 81201 333 58003;EQDQ01  00002PRCP99
0196831820999992000091800004-11290-041860FM-12+074799999V0200901N005112200019N0005001N1+02331+01401101621ADDAA199000091GA1001+999999999GF100991001001999999001001KA1240M+03011MA1999999093261MD1999999+0071REMSYN070AAXX  18004 83182 32993 00910 10233 20140 39326 40162 333 10301 58007;EQDQ01  00002PRCP99
0186831820999992000091812004-11290-041860FM-12+074799999V0200901N008212200019N0100001N1+02321+01391101781ADDAA199000091GF103991031021008001001001KA1240N+01741MA1999999093411MD1999999+0061REMSYN076AAXX  18124 83182 32597 30916 10232 20139 39341 40178 83200 333 20174 58006;EQDQ01  00002PRCP99
0167831820999992000091818004-11290-041860FM-12+074799999V0200901N006212200019N0040001N1+02881+01051101361ADDAA199000091GF102991021021008001001001MA1999999093041MD1999999+0071REMSYN070AAXX  18184 83182 32596 20912 10288 20105 39304 40136 82200 333 58007;EQDQ01  00002PRCP99
0196831820999992000091900004-11290-041860FM-12+074799999V0200901N005712200019N0005001N1+02251+01361101751ADDAA199000091GA1001+999999999GF100991001001999999001001KA1240M+02961MA1999999093371MD1999999+0111REMSYN070AAXX  19004 83182 32993 00911 10225 20136 39337 40175 333 10296 58011;EQDQ01  00002PRCP99
0186831820999992000091912004-11290-041860FM-12+074799999V0201401N005112200019N0100001N1+02251+01361101851ADDAA199000091GF101991011011012501001001KA1240N+01611MA1999999093461MD1999999+0051REMSYN076AAXX  19124 83182 32697 11410 10225 20136 39346 40185 81100 333 20161 58005;EQDQ01  00002PRCP99
0167831820999992000091918004-11290-041860FM-12+074799999V0200901N005712200019N0100001N1+02941+01191101311ADDAA199000091GF103991031021008001001001MA1999999092981MD1999999+0061REMSYN070AAXX  19184 83182 32597 30911 10294 20119 39298 40131 83200 333 58006;EQDQ01  00002PRCP99
0196831820999992000092000004-11290-041860FM-12+074799999V0200901N003612200019N0100001N1+02181+01261101611ADDAA199000091GA1001+999999999GF100991001001999999001001KA1240M+02971MA1999999093241MD1999999-0131REMSYN070AAXX  20004 83182 32997 00907 10218 20126 39324 40161 333 10297 59013;EQDQ01  00002PRCP99
0186831820999992000092012004-11290-041860FM-12+074799999V0201401N007210075019N0100001N1+02321+01471101701ADDAA199000091GF106991061021008001001001KA1240N+01761MA1999999093321MD1999999-0141REMSYN076AAXX  20124 83182 32597 61414 10232 20147 39332 40170 86200 333 20176 59014;EQDQ01  00002PRCP99
0167831820999992000092018004-11290-041860FM-12+074799999V0200901N006212200019N0100001N1+02811+01361101311ADDAA199000091GF104991041021008001001001MA1999999092981MD1999999+0001REMSYN070AAXX  20184 83182 32597 40912 10281 20136 39298 40131 84200 333 58000;EQDQ01  00002PRCP99
0186831820999992000092100004-11290-041860FM-12+074799999V0200901N004110150019N0005001N1+02211+01571101581ADDAA199000091GF106991061001017501051001KA1240M+02841MA1999999093211MD1999999-0031REMSYN076AAXX  21004 83182 32793 60908 10221 20157 39321 40158 86050 333 10284 59003;EQDQ01  00002PRCP99
0186831820999992000092112004-11290-041860FM-12+074799999V0201401N006210075019N0100001N1+02281+01541101671ADDAA199000091GF105991051021008001001001KA1240N+01571MA1999999093291MD1999999-0031REMSYN076AAXX  21124 83182 32597 51412 10228 20154 39329 40167 85200 333 20157 59003;EQDQ01  00002PRCP99
0183831820999992000092118004-11290-041860FM-12+074799999V0200901N006210075019N0100001N1+02481+01541101431ADDAA199000091GF107991999021008001001001MA1999999093051MD1999999+0071REMSYN070AAXX  21184 83182 32597 70912 10248 20154 39305 40143 86200 333 58007;EQDQ01+000062SCOTLCQ02  00002PRCP99
0186831820999992000092212004-11290-041860FM-12+074799999V0200901N007712200019N0040001N1+02111+01301101891ADDAA199000091GF101991011021008001001001KA1240N+01421MA1999999093461MD1999999+0171REMSYN076AAXX  22124 83182 32596 10915 10211 20130 39346 40189 81200 333 20142 58017;EQDQ01  00002PRCP99
0167831820999992000092218004-11290-041860FM-12+074799999V0200501N004112200019N0100001N1+02881+00951101331ADDAA199000091GF101991011021008001001001MA1999999092981MD1999999-0071REMSYN070AAXX  22184 83182 32597 10508 10288 20095 39298 40133 81200 333 59007;EQDQ01  00002PRCP99
0196831820999992000092300004-11290-041860FM-12+074799999V0200901N004612200019N0005001N1+02171+00931101591ADDAA199000091GA1001+999999999GF100991001001999999001001KA1240M+02941MA1999999093201MD1999999-0061REMSYN070AAXX  23004 83182 32993 00909 10217 20093 39320 40159 333 10294 59006;EQDQ01  00002PRCP99
0196831820999992000092312004-11290-041860FM-12+074799999V0200901N004112200019N0100001N1+02251+01271101631ADDAA199000091GA1001+999999999GF100991001001999999001001KA1240N+01521MA1999999093251MD1999999-0211REMSYN070AAXX  23124 83182 32997 00908 10225 20127 39325 40163 333 20152 59021;EQDQ01  00002PRCP99
0177831820999992000092318004-11290-041860FM-12+074799999V0203601N002612200019N0100001N1+03061+00711101031ADDAA199000091GA1001+999999999GF100991001001999999001001MA1999999092731MD1999999-0251REMSYN064AAXX  23184 83182 32997 03605 10306 20071 39273 40103 333 59025;EQDQ01  00002PRCP99
0196831820999992000092400004-11290-041860FM-12+074799999V0201401N005712200019N0005001N1+02331+01101101321ADDAA199000091GA1001+999999999GF100991001001999999001001KA1240M+03101MA1999999092981MD1999999-0221REMSYN070AAXX  24004 83182 32993 01411 10233 20110 39298 40132 333 10310 59022;EQDQ01  00002PRCP99
0196831820999992000092412004-11290-041860FM-12+074799999V0201401N005712200019N0100001N1+02511+01571101471ADDAA199000091GA1001+999999999GF100991001001999999001001KA1240N+01661MA1999999093141MD1999999-0111REMSYN070AAXX  24124 83182 32997 01411 10251 20157 39314 40147 333 20166 59011;EQDQ01  00002PRCP99
0167831820999992000092418004-11290-041860FM-12+074799999V0200901N002612200019N0100001N1+03041+01141100971ADDAA199000091GF102991021021008001001001MA1999999092691MD1999999-0041REMSYN070AAXX  24184 83182 32597 20905 10304 20114 39269 40097 82200 333 59004;EQDQ01  00002PRCP99
0196831820999992000092500004-11290-041860FM-12+074799999V0200901N004612200019N0005001N1+02401+01261101231ADDAA199000091GA1001+999999999GF100991001001999999001001KA1240M+03151MA1999999092931MD1999999-0051REMSYN070AAXX  25004 83182 32993 00909 10240 20126 39293 40123 333 10315 59005;EQDQ01  00002PRCP99
0167831820999992000092518004-11290-041860FM-12+074799999V0202701N002112200019N0100001N1+03351+00891100951ADDAA199000091GF102991021021008001001001MA1999999092741MD1999999+0011REMSYN070AAXX  25184 83182 32597 22704 10335 20089 39274 40095 82200 333 58001;EQDQ01  00002PRCP99
0186831820999992000092600004-11290-041860FM-12+074799999V0200901N003610450019N0005001N1+02541+01831101311ADDAA199000091GF108991021021008001051011KA1240M+03421MA1999999093021MD1999999+0091REMSYN076AAXX  26004 83182 32593 80907 10254 20183 39302 40131 82251 333 10342 58009;EQDQ01  00002PRCP99
0186831820999992000092612004-11290-041860FM-12+074799999V0201401N007212200019N0100001N1+02421+01461101711ADDAA199000091GF101991011021008001001001KA1240N+01901MA1999999093371MD1999999+0231REMSYN076AAXX  26124 83182 32597 11414 10242 20146 39337 40171 81200 333 20190 58023;EQDQ01  00002PRCP99
0167831820999992000092618004-11290-041860FM-12+074799999V0201401N005712200019N0100001N1+02861+01501101311ADDAA199000091GF102991021021008001001001MA1999999093001MD1999999+0301REMSYN070AAXX  26184 83182 32597 21411 10286 20150 39300 40131 82200 333 58030;EQDQ01  00002PRCP99
0196831820999992000092700004-11290-041860FM-12+074799999V0200901N005712200019N0005001N1+02241+01181101691ADDAA199000091GA1001+999999999GF100991001001999999001001KA1240M+02921MA1999999093331MD1999999+0311REMSYN070AAXX  27004 83182 32993 00911 10224 20118 39333 40169 333 10292 58031;EQDQ01  00002PRCP99
0186831820999992000092712004-11290-041860FM-12+074799999V0201401N005110075019N0100001N1+02211+01611101801ADDAA199000091GF108991081051008001999999KA1240N+01651MA1999999093411MD1999999+0041REMSYN076AAXX  27124 83182 32597 81410 10221 20161 39341 40180 885// 333 20165 58004;EQDQ01  00002PRCP99
0167831820999992000092718004-11290-041860FM-12+074799999V0200901N007712200019N0100001N1+02791+01491101321ADDAA199000091GF102991021021008001001001MA1999999092971MD1999999-0031REMSYN070AAXX  27184 83182 32597 20915 10279 20149 39297 40132 82200 333 59003;EQDQ01  00002PRCP99
0196831820999992000092800004-11290-041860FM-12+074799999V0200901N007712200019N0005001N1+02171+01451101601ADDAA199000091GA1001+999999999GF100991001001999999001001KA1240M+02871MA1999999093221MD1999999-0111REMSYN070AAXX  28004 83182 32993 00915 10217 20145 39322 40160 333 10287 59011;EQDQ01  00002PRCP99
0186831820999992000092812004-11290-041860FM-12+074799999V0201401N007712200019N0100001N1+02281+01461101801ADDAA199000091GF108991031021008001001011KA1240N+01611MA1999999093411MD1999999+0001REMSYN076AAXX  28124 83182 32597 81415 10228 20146 39341 40180 83201 333 20161 58000;EQDQ01  00002PRCP99
0167831820999992000092818004-11290-041860FM-12+074799999V0200901N005110075019N0100001N1+02721+00811101351ADDAA199000091GF108991071021008001001011MA1999999092991MD1999999+0021REMSYN070AAXX  28184 83182 32597 80910 10272 20081 39299 40135 87201 333 58002;EQDQ01  00002PRCP99
0186831820999992000092900004-11290-041860FM-12+074799999V0200901N007710450019N0005001N1+02061+01661101671ADDAA199000091GF108991031021008001051011KA1240M+02821MA1999999093271MD1999999+0051REMSYN076AAXX  29004 83182 32593 80915 10206 20166 39327 40167 83251 333 10282 58005;EQDQ01  00002PRCP99
0186831820999992000092912004-11290-041860FM-12+074799999V0200901N008212200019N0100001N1+02361+01381101821ADDAA199000091GF102991011011012501001011KA1240N+01791MA1999999093431MD1999999+0021REMSYN076AAXX  29124 83182 32697 20916 10236 20138 39343 40182 81101 333 20179 58002;EQDQ01  00002PRCP99
0167831820999992000092918004-11290-041860FM-12+074799999V0201401N005710450019N0100001N1+02871+01521101321ADDAA199000091GF106991021021008001051011MA1999999093001MD1999999+0011REMSYN070AAXX  29184 83182 32597 61411 10287 20152 39300 40132 82251 333 58001;EQDQ01  00002PRCP99
0186831820999992000093000004-11290-041860FM-12+074799999V0201401N005712200019N0005001N1+02071+01651101691ADDAA199000091GF104991001001999999001011KA1240M+02921MA1999999093301MD1999999+0031REMSYN076AAXX  30004 83182 32993 41411 10207 20165 39330 40169 80001 333 10292 58003;EQDQ01  00002PRCP99
0186831820999992000093012004-11290-041860FM-12+074799999V0200901N004610042019N0100001N1+02251+01431101841ADDAA199000091GF107991071051004501001001KA1240N+01731MA1999999093441MD1999999+0011REMSYN076AAXX  30124 83182 32497 70909 10225 20143 39344 40184 87500 333 20173 58001;EQDQ01  00002PRCP99
0167831820999992000093018004-11290-041860FM-12+074799999V0200901N004612200019N0100001N1+02881+01141101321ADDAA199000091GF103991021021008001001011MA1999999092981MD1999999-0021REMSYN070AAXX  30184 83182 32597 30909 10288 20114 39298 40132 82201 333 59002;EQDQ01  00002PRCP99
0196831820999992000100100004-11290-041860FM-12+074799999V0200901N005112200019N0005001N1+02211+01511101611ADDAA199000091GA1001+999999999GF100991001001999999001001KA1240M+02941MA1999999093241MD1999999-0061REMSYN070AAXX  01004 83182 32993 00910 10221 20151 39324 40161 333 10294 59006;EQDQ01  00002PRCP99
0202831820999992000100112004-11290-041860FM-12+074799999V0200901N005712200019N0100001N1+02391+01431101831ADDAA199000091GF105991041021008001001011KA1240M+99999MA1999999093451MD1999999+0011REMSYN076AAXX  01124 83182 32597 50911 10239 20143 39345 40183 84201 333 10177 58001;EQDQ01  00002PRCP99Q02 +01772ATMX  
0167831820999992000100118004-11290-041860FM-12+074799999V0200501N002610075019N0100001N1+02891+01191101341ADDAA199000091GF106991051021008001001011MA1999999093021MD1999999+0041REMSYN070AAXX  01184 83182 32597 60505 10289 20119 39302 40134 85201 333 58004;EQDQ01  00002PRCP99
0186831820999992000100212004-11290-041860FM-12+074799999V0200901N005710042019N0100001N1+02371+01551101771ADDAA199000091GF107991051051004501001011KA1240N+01741MA1999999093401MD1999999-0051REMSYN076AAXX  02124 83182 32497 70911 10237 20155 39340 40177 85501 333 20174 59005;EQDQ01  00002PRCP99
0167831820999992000100218004-11290-041860FM-12+074799999V0201401N002112200019N0100001N1+03061+01251101231ADDAA199000091GF102991021021008001001011MA1999999092941MD1999999-0081REMSYN070AAXX  02184 83182 32597 21404 10306 20125 39294 40123 82201 333 59008;EQDQ01  00002PRCP99
0196831820999992000100300004-11290-041860FM-12+074799999V0201401N004112200019N0005001N1+02391+01401101471ADDAA199000091GA1001+999999999GF100991001001999999001001KA1240M+03131MA1999999093151MD1999999-0061REMSYN070AAXX  03004 83182 32993 01408 10239 20140 39315 40147 333 10313 59006;EQDQ01  00002PRCP99
0186831820999992000100312004-11290-041860FM-12+074799999V0201401N003619999999N0100001N1+02511+01511101511ADDAA199000091GF108991001001999999001011KA1240N+01671MA1999999093181MD1999999-0221REMSYN076AAXX  03124 83182 32997 81407 10251 20151 39318 40151 80001 333 20167 59022;EQDQ01  00002PRCP99
0167831820999992000100318004-11290-041860FM-12+074799999V0201501N003612200019N0100001N1+03151+01121100991ADDAA199000091GF108991011021008001001011MA1999999092711MD1999999-0231REMSYN070AAXX  03184 83182 32597 81507 10315 20112 39271 40099 81201 333 59023;EQDQ01  00002PRCP99
0186831820999992000100400004-11290-041860FM-12+074799999V0200901N004619999999N0005001N1+02431+01351101451ADDAA199000091GF108991001001999999001011KA1240M+03221MA1999999093131MD1999999-0021REMSYN076AAXX  04004 83182 32993 80909 10243 20135 39313 40145 80001 333 10322 59002;EQDQ01  00002PRCP99
0186831820999992000100412004-11290-041860FM-12+074799999V0200901N003119999999N0100001N1+02581+01601101431ADDAA199000091GF108991001001999999001011KA1240N+01861MA1999999093121MD1999999-0061REMSYN076AAXX  04124 83182 32997 80906 10258 20160 39312 40143 80001 333 20186 59006;EQDQ01  00002PRCP99
0167831820999992000100418004-11290-041860FM-12+074799999V0200901N004612200019N0100001N1+03361+00961100731ADDAA199000091GF108991031021008001001011MA1999999092511MD1999999+0201REMSYN070AAXX  04184 83182 32597 80909 10336 20096 39251 40073 83201 333 58020;EQDQ01  00002PRCP99
0186831820999992000100500004-11290-041860FM-12+074799999V0200901N004119999999N0005001N1+02561+01101101121ADDAA199000091GF108991001001999999001011KA1240M+03481MA1999999092841MD1999999-0291REMSYN076AAXX  05004 83182 32993 80908 10256 20110 39284 40112 80001 333 10348 59029;EQDQ01  00002PRCP99
0167831820999992000100518004-11290-041860FM-12+074799999V0200501N002112200019N0100001N1+03401+01181100811ADDAA199000091GF108991021021008001001011MA1999999092581MD1999999+0071REMSYN070AAXX  05184 83182 32597 80504 10340 20118 39258 40081 82201 333 58007;EQDQ01  00002PRCP99
0186831820999992000100600004-11290-041860FM-12+074799999V0200901N004110450019N0005001N1+02741+01221101061ADDAA199000091GF108991011021008001051011KA1240M+03471MA1999999092811MD1999999-0031REMSYN076AAXX  06004 83182 32593 80908 10274 20122 39281 40106 81251 333 10347 59003;EQDQ01  00002PRCP99
0214831820999992000100612004-11290-041860FM-12+074799999V0200901N002612200019N0020001N1+02791+01621101241ADDAA199000091AY111061AY211061GF102991001001999999001011KA1240N+01931MA1999999092981MD1999999-0081MW1051REMSYN082AAXX  06124 83182 31995 20905 10279 20162 39298 40124 70511 80001 333 20193 59008;EQDQ01  00002PRCP99
0195831820999992000100618004-11290-041860FM-12+074799999V0201401N002112200019N0020001N1+03441+01091100691ADDAA199000091AY101061AY201061GF102991011021008001001011MA1999999092491MD1999999-0091MW1051REMSYN076AAXX  06184 83182 31595 21404 10344 20109 39249 40069 70500 81201 333 59009;EQDQ01  00002PRCP99
0186831820999992000100700004-11290-041860FM-12+074799999V0200901N004112200019N0005001N1+02791+01271101051ADDAA199000091GF102991011001017501051011KA1240M+03511MA1999999092821MD1999999+0011REMSYN076AAXX  07004 83182 32793 20908 10279 20127 39282 40105 81051 333 10351 58001;EQDQ01  00002PRCP99
0214831820999992000100712004-11290-041860FM-12+074799999V0200901N003612200019N0020001N1+02551+01641101461ADDAA199000091AY101061AY201061GF103991011001017501051011KA1240N+01911MA1999999093171MD1999999+0191MW1051REMSYN082AAXX  07124 83182 31795 30907 10255 20164 39317 40146 70500 81051 333 20191 58019;EQDQ01  00002PRCP99
0195831820999992000100718004-11290-041860FM-12+074799999V0200901N003110450019N0020001N1+03241+01101100971ADDAA199000091AY111061AY211061GF106991021021008001051011MA1999999092721MD1999999+0231MW1051REMSYN076AAXX  07184 83182 31595 60906 10324 20110 39272 40097 70511 82251 333 58023;EQDQ01  00002PRCP99
0186831820999992000100800004-11290-041860FM-12+074799999V0201401N003612200019N0005001N1+02601+01251101241ADDAA199000091GF104991001001999999001011KA1240M+03211MA1999999092961MD1999999+0141REMSYN076AAXX  08004 83182 32993 41407 10260 20125 39296 40124 80001 333 10321 58014;EQDQ01  00002PRCP99
0224831820999992000100812004-11290-041860FM-12+074799999V0200901N004612200019N0020001N1+02431+01471101661ADDAA199000091AY101061AY201061GA1001+999999999GF100991001001999999001001KA1240N+01871MA1999999093331MD1999999+0161MW1051REMSYN076AAXX  08124 83182 31995 00909 10243 20147 39333 40166 70500 333 20187 58016;EQDQ01  00002PRCP99
0167831820999992000100818004-11290-041860FM-12+074799999V0200901N004612200019N0040001N1+03221+01081101041ADDAA199000091GF104991031021008001001011MA1999999092781MD1999999+0061REMSYN070AAXX  08184 83182 32596 40909 10322 20108 39278 40104 83201 333 58006;EQDQ01  00002PRCP99
0196831820999992000100900004-11290-041860FM-12+074799999V0200901N004612200019N0005001N1+02521+00991101421ADDAA199000091GA1001+999999999GF100991001001999999001001KA1240M+03301MA1999999093111MD1999999+0151REMSYN070AAXX  09004 83182 32993 00909 10252 20099 39311 40142 333 10330 58015;EQDQ01  00002PRCP99
0196831820999992000100912004-11290-041860FM-12+074799999V0200901N005712200019N0100001N1+02501+01291101711ADDAA199000091GA1001+999999999GF100991001001999999001001KA1240N+01861MA1999999093371MD1999999+0041REMSYN070AAXX  09124 83182 32997 00911 10250 20129 39337 40171 333 20186 58004;EQDQ01  00002PRCP99
0177831820999992000100918004-11290-041860FM-12+074799999V0201401N006212200019N0100001N1+03171+00671101231ADDAA199000091GA1001+999999999GF100991001001999999001001MA1999999092951MD1999999+0171REMSYN064AAXX  09184 83182 32997 01412 10317 20067 39295 40123 333 58017;EQDQ01  00002PRCP99
0196831820999992000101000004-11290-041860FM-12+074799999V0200901N004612200019N0005001N1+02401+01201101531ADDAA199000091GA1001+999999999GF100991001001999999001001KA1240M+03401MA1999999093211MD1999999+0101REMSYN070AAXX  10004 83182 32993 00909 10240 20120 39321 40153 333 10340 58010;EQDQ01  00002PRCP99
0186831820999992000101012004-11290-041860FM-12+074799999V0200901N005112200019N0100001N1+02461+01441101571ADDAA199000091GF101991011021008001001001KA1240N+01821MA1999999093241MD1999999-0131REMSYN076AAXX  10124 83182 32597 10910 10246 20144 39324 40157 81200 333 20182 59013;EQDQ01  00002PRCP99
0167831820999992000101018004-11290-041860FM-12+074799999V0201401N004112200019N0100001N1+02961+01341101131ADDAA199000091GF101991011021008001001001MA1999999092841MD1999999-0111REMSYN070AAXX  10184 83182 32597 11408 10296 20134 39284 40113 81200 333 59011;EQDQ01  00002PRCP99
0196831820999992000101100004-11290-041860FM-12+074799999V0200901N004112200019N0005001N1+02361+01561101471ADDAA199000091GA1001+999999999GF100991001001999999001001KA1240M+03101MA1999999093141MD1999999-0071REMSYN070AAXX  11004 83182 32993 00908 10236 20156 39314 40147 333 10310 59007;EQDQ01  00002PRCP99
0186831820999992000101112004-11290-041860FM-12+074799999V0200901N005712200019N0100001N1+02471+01391101721ADDAA199000091GF102991021021008001001001KA1240N+01661MA1999999093361MD1999999+0121REMSYN076AAXX  11124 83182 32597 20911 10247 20139 39336 40172 82200 333 20166 58012;EQDQ01  00002PRCP99
0167831820999992000101118004-11290-041860FM-12+074799999V0200901N005712200019N0100001N1+03141+01221101151ADDAA199000091GF101991011021008001001001MA1999999092851MD1999999+0011REMSYN070AAXX  11184 83182 32597 10911 10314 20122 39285 40115 81200 333 58001;EQDQ01  00002PRCP99
0196831820999992000101200004-11290-041860FM-12+074799999V0200901N004112200019N0005001N1+02421+01371101451ADDAA199000091GA1001+999999999GF100991001001999999001001KA1240M+03171MA1999999093131MD1999999-0011REMSYN070AAXX  12004 83182 32993 00908 10242 20137 39313 40145 333 10317 59001;EQDQ01  00002PRCP99
0186831820999992000101212004-11290-041860FM-12+074799999V0200901N006210075019N0100001N1+02391+01451101711ADDAA199000091GF107991071051008001001001KA1240N+01931MA1999999093351MD1999999-0011REMSYN076AAXX  12124 83182 32597 70912 10239 20145 39335 40171 87500 333 20193 59001;EQDQ01  00002PRCP99
0167831820999992000101218004-11290-041860FM-12+074799999V0200901N005712200019N0100001N1+03011+01391101211ADDAA199000091GF102991021021008001001001MA1999999092921MD1999999+0071REMSYN070AAXX  12184 83182 32597 20911 10301 20139 39292 40121 82200 333 58007;EQDQ01  00002PRCP99
0186831820999992000101312004-11290-041860FM-12+074799999V0201401N005112200019N0040001N1+02491+01441101821ADDAA199000091GF103991031021008001001001KA1240N+01871MA1999999093461MD1999999+0111REMSYN076AAXX  13124 83182 32596 31410 10249 20144 39346 40182 83200 333 20187 58011;EQDQ01  00002PRCP99
0211831820999992000101318004-11290-041860FM-12+074799999V0201401N003112200019N0020001N1+03141+00961101211ADDAA199000091AY101061AY201061GF102991999021008001001001MA1999999092941MD1999999+0021MW1051REMSYN076AAXX  13184 83182 31595 21406 10314 20096 39294 40121 70500 81200 333 58002;EQDQ01+000012SCOTLCQ02  00002PRCP99
0196831820999992000101400004-11290-041860FM-12+074799999V0200901N005112200019N0005001N1+02491+01251101541ADDAA199000091GA1001+999999999GF100991001001999999001001KA1240M+03201MA1999999093221MD1999999+0001REMSYN070AAXX  14004 83182 32993 00910 10249 20125 39322 40154 333 10320 58000;EQDQ01  00002PRCP99
0214831820999992000101412004-11290-041860FM-12+074799999V0200901N007712200019N0020001N1+02371+01381101771ADDAA199000091AY101061AY201061GF102991011021008001001011KA1240N+01681MA1999999093421MD1999999-0041MW1051REMSYN082AAXX  14124 83182 31595 20915 10237 20138 39342 40177 70500 81201 333 20168 59004;EQDQ01  00002PRCP99
0167831820999992000101418004-11290-041860FM-12+074799999V0201401N005712200019N0040001N1+03101+01241101271ADDAA199000091GF102991011021008001001011MA1999999092981MD1999999+0041REMSYN070AAXX  14184 83182 32596 21411 10310 20124 39298 40127 81201 333 58004;EQDQ01  00002PRCP99
0196831820999992000101500004-11290-041860FM-12+074799999V0200901N004112200019N0005001N1+02431+01521101591ADDAA199000091GA1001+999999999GF100991001001999999001001KA1240M+03191MA1999999093251MD1999999+0031REMSYN070AAXX  15004 83182 32993 00908 10243 20152 39325 40159 333 10319 58003;EQDQ01  00002PRCP99
0186831820999992000101512004-11290-041860FM-12+074799999V0201401N006212200019N0040001N1+02371+01411101661ADDAA199000091GF102991011021008001001011KA1240N+01691MA1999999093291MD1999999-0131REMSYN076AAXX  15124 83182 32596 21412 10237 20141 39329 40166 81201 333 20169 59013;EQDQ01  00002PRCP99
0167831820999992000101518004-11290-041860FM-12+074799999V0201401N005712200019N0100001N1+02891+01231101241ADDAA199000091GF104991041021008001001001MA1999999092921MD1999999-0061REMSYN070AAXX  15184 83182 32597 41411 10289 20123 39292 40124 84200 333 59006;EQDQ01  00002PRCP99
0196831820999992000101600004-11290-041860FM-12+074799999V0200901N004112200019N0005001N1+02371+01171101471ADDAA199000091GA1001+999999999GF100991001001999999001001KA1240M+03201MA1999999093131MD1999999-0121REMSYN070AAXX  16004 83182 32993 00908 10237 20117 39313 40147 333 10320 59012;EQDQ01  00002PRCP99
0186831820999992000101612004-11290-041860FM-12+074799999V0200901N005712200019N0040001N1+02471+01331101761ADDAA199000091GF103991031021008001001001KA1240N+01731MA1999999093401MD1999999+0111REMSYN076AAXX  16124 83182 32596 30911 10247 20133 39340 40176 83200 333 20173 58011;EQDQ01  00002PRCP99
0167831820999992000101618004-11290-041860FM-12+074799999V0201401N003112200019N0040001N1+03011+01201101291ADDAA199000091GF106991041021008001001011MA1999999092991MD1999999+0071REMSYN070AAXX  16184 83182 32596 61406 10301 20120 39299 40129 84201 333 58007;EQDQ01  00002PRCP99
0186831820999992000101700004-11290-041860FM-12+074799999V0200901N006212200019N0005001N1+02471+01261101521ADDAA199000091GF104991001001999999001011KA1240M+03061MA1999999093191MD1999999+0061REMSYN076AAXX  17004 83182 32993 40912 10247 20126 39319 40152 80001 333 10306 58006;EQDQ01  00002PRCP99
0196831820999992000101712004-11290-041860FM-12+074799999V0201401N007712200019N0100001N1+02491+01501101731ADDAA199000091GA1001+999999999GF100991001001999999001001KA1240N+01811MA1999999093391MD1999999-0011REMSYN070AAXX  17124 83182 32997 01415 10249 20150 39339 40173 333 20181 59001;EQDQ01  00002PRCP99
0167831820999992000101718004-11290-041860FM-12+074799999V0201401N004112200019N0100001N1+03141+00961101301ADDAA199000091GF102991011011012501001011MA1999999093011MD1999999+0021REMSYN070AAXX  17184 83182 32697 21408 10314 20096 39301 40130 81101 333 58002;EQDQ01  00002PRCP99
0196831820999992000101800004-11290-041860FM-12+074799999V0200901N006712200019N0005001N1+02441+01141101611ADDAA199000091GA1001+999999999GF100991001001999999001001KA1240M+03241MA1999999093271MD1999999+0081REMSYN070AAXX  18004 83182 32993 00913 10244 20114 39327 40161 333 10324 58008;EQDQ01  00002PRCP99
0186831820999992000101812004-11290-041860FM-12+074799999V0200901N005712200019N0100001N1+02591+01531101871ADDAA199000091GF103991031021008001001001KA1240N+01721MA1999999093521MD1999999+0131REMSYN076AAXX  18124 83182 32597 30911 10259 20153 39352 40187 83200 333 20172 58013;EQDQ01  00002PRCP99
0167831820999992000101818004-11290-041860FM-12+074799999V0200901N005112200019N0100001N1+03151+01021101331ADDAA199000091GF102991021021008001001001MA1999999093031MD1999999+0021REMSYN070AAXX  18184 83182 32597 20910 10315 20102 39303 40133 82200 333 58002;EQDQ01  00002PRCP99
0176831820999992000101900004-11290-041860FM-12+074799999V0200901N005112200019N0005001N1+02451+01141101551ADDAA199000091GA1001+999999999GF100991001001999999001001KA1999M+03001MA1999999093231REMSYN064AAXX  19004 83182 32993 00910 10245 20114 39323 40155 333 10300;EQDQ01  00002PRCP99
0196831820999992000101912004-11290-041860FM-12+074799999V0201401N007712200019N0100001N1+02451+01291101711ADDAA199000091GA1001+999999999GF100991001001999999001001KA1240N+01661MA1999999093361MD1999999-0161REMSYN070AAXX  19124 83182 32997 01415 10245 20129 39336 40171 333 20166 59016;EQDQ01  00002PRCP99
0177831820999992000101918004-11290-041860FM-12+074799999V0200901N005112200019N0100001N1+03121+00941101141ADDAA199000091GA1001+999999999GF100991001001999999001001MA1999999092851MD1999999-0181REMSYN064AAXX  19184 83182 32997 00910 10312 20094 39285 40114 333 59018;EQDQ01  00002PRCP99
0196831820999992000102000004-11290-041860FM-12+074799999V0200901N004112200019N0005001N1+02461+01251101411ADDAA199000091GA1001+999999999GF100991001001999999001001KA1240M+03201MA1999999093091MD1999999-0141REMSYN070AAXX  20004 83182 32993 00908 10246 20125 39309 40141 333 10320 59014;EQDQ01  00002PRCP99
0224831820999992000102012004-11290-041860FM-12+074799999V0201401N005112200019N0020001N1+02451+01341101531ADDAA199000091AY101061AY201061GA1001+999999999GF100991001001999999001001KA1240N+01651MA1999999093201MD1999999-0161MW1051REMSYN076AAXX  20124 83182 31995 01410 10245 20134 39320 40153 70500 333 20165 59016;EQDQ01  00002PRCP99
0195831820999992000102018004-11290-041860FM-12+074799999V0201401N004112200019N0020001N1+03281+00891100921ADDAA199000091AY101061AY201061GF101991011011017501001011MA1999999092671MD1999999-0181MW1051REMSYN076AAXX  20184 83182 31795 11408 10328 20089 39267 40092 70500 81101 333 59018;EQDQ01  00002PRCP99
0196831820999992000102100004-11290-041860FM-12+074799999V0200901N003112200019N0005001N1+02591+00841101191ADDAA199000091GA1001+999999999GF100991001001999999001001KA1240M+03351MA1999999092901MD1999999-0191REMSYN070AAXX  21004 83182 32993 00906 10259 20084 39290 40119 333 10335 59019;EQDQ01  00002PRCP99
0224831820999992000102112004-11290-041860FM-12+074799999V0201401N002612200019N0020001N1+02471+01361101321ADDAA199000091AY101061AY201061GA1001+999999999GF100991001001999999001001KA1240N+01731MA1999999093031MD1999999-0171MW1051REMSYN076AAXX  21124 83182 31995 01405 10247 20136 39303 40132 70500 333 20173 59017;EQDQ01  00002PRCP99
0174831820999992000102118004-11290-041860FM-12+074799999V0201801N004612200019N0020001N1+03371+00911100671ADDAA199000091AY101061AY201061GF102991011021008001001011MD1999999-0221MW1051REMSYN070AAXX  21184 83182 31595 21809 10337 20091 40067 70500 81201 333 59022;EQDQ01  00002PRCP99
0186831820999992000102200004-11290-041860FM-12+074799999V0200901N005112200019N0005001N1+02731+01171100991ADDAA199000091GF104991031021008001001011KA1240M+03481MA1999999092731MD1999999-0171REMSYN076AAXX  22004 83182 32593 40910 10273 20117 39273 40099 83201 333 10348 59017;EQDQ01  00002PRCP99
0214831820999992000102212004-11290-041860FM-12+074799999V0200901N003112200019N0020001N1+02521+01661101321ADDAA199000091AY101061AY201061GF102991011021008001001011KA1240N+01991MA1999999093041MD1999999+0011MW1051REMSYN082AAXX  22124 83182 31595 20906 10252 20166 39304 40132 70500 81201 333 20199 58001;EQDQ01  00002PRCP99
0167831820999992000102218004-11290-041860FM-12+074799999V0203201N002112200019N0040001N1+03281+01081100711ADDAA199000091GF102991011021008001001011MA1999999092501MD1999999+0051REMSYN070AAXX  22184 83182 32596 23204 10328 20108 39250 40071 81201 333 58005;EQDQ01  00002PRCP99
0157831820999992000102300004-11290-041860FM-12+074799999V0200901N004112200019N0005001N1+02691+01061101101ADDAA199000091GA1001+999999999GF100991001001999999001001MA1999999092831REMSYN058AAXX  23004 83182 32993 00908 10269 20106 39283 40110 333;EQDQ01  00002PRCP99
0151831820999992000102312004-11290-041860FM-12+074799999V0200901N005719999999N0100001N1+02531+01501999999ADDAA199000091GF108991999999008001999999MA1999999093131MD1810131+9999REMSYN054AAXX  23124 83182 32597 80911 10253 20150 39313 58013;EQDQ01  00002PRCP99
0167831820999992000102318004-11290-041860FM-12+074799999V0201401N003112200019N0100001N1+03161+01261100921ADDAA199000091GF108991041021008001001011MA1999999092681MD1999999+0181REMSYN070AAXX  23184 83182 32597 81406 10316 20126 39268 40092 84201 333 58018;EQDQ01  00002PRCP99
0186831820999992000102412004-11290-041860FM-12+074799999V0200901N005110450019N0100001N1+02651+01551101371ADDAA199000091GF108991011011012501041021KA1240N+01931MA1999999093071MD1999999-0061REMSYN076AAXX  24124 83182 32697 80910 10265 20155 39307 40137 81142 333 20193 59006;EQDQ01  00002PRCP99
0167831820999992000102418004-11290-041860FM-12+074799999V0201401N004110450019N0100001N1+02901+01281100981ADDAA199000091GF108991011021008001061021MA1999999092701MD1999999+0021REMSYN070AAXX  24184 83182 32597 81408 10290 20128 39270 40098 81262 333 58002;EQDQ01  00002PRCP99
0186831820999992000102500004-11290-041860FM-12+074799999V0200901N002610450019N0005001N1+02451+01281101181ADDAA199000091GF108991011021008001061021KA1240M+03081MA1999999092891MD1999999+0001REMSYN076AAXX  25004 83182 32593 80905 10245 20128 39289 40118 81262 333 10308 58000;EQDQ01  00002PRCP99
0186831820999992000102512004-11290-041860FM-12+074799999V0200901N005110450019N0100001N1+02421+01461101421ADDAA199000091GF108991021021008001051011KA1240N+01941MA1999999093101MD1999999+0031REMSYN076AAXX  25124 83182 32597 80910 10242 20146 39310 40142 82251 333 20194 58003;EQDQ01  00002PRCP99
0167831820999992000102518004-11290-041860FM-12+074799999V0200901N005110450019N0100001N1+02781+01331101021ADDAA199000091GF108991011021008001051011MA1999999092731MD1999999+0031REMSYN070AAXX  25184 83182 32597 80910 10278 20133 39273 40102 81251 333 58003;EQDQ01  00002PRCP99
0186831820999992000102600004-11290-041860FM-12+074799999V0201401N004112200019N0005001N1+02251+01491101171ADDAA199000091GF108991021001017501051011KA1240M+02871MA1999999092851MD1999999-0041REMSYN076AAXX  26004 83182 32793 81408 10225 20149 39285 40117 82051 333 10287 59004;EQDQ01  00002PRCP99
0186831820999992000102612004-11290-041860FM-12+074799999V0200901N005712200019N0100001N1+02511+01431101441ADDAA199000091GF102991021021008001001001KA1240N+01811MA1999999093111MD1999999+0011REMSYN076AAXX  26124 83182 32597 20911 10251 20143 39311 40144 82200 333 20181 58001;EQDQ01  00002PRCP99
0167831820999992000102618004-11290-041860FM-12+074799999V0201401N005710075019N0100001N1+02951+01321100911ADDAA199000091GF106991061021008001001001MA1999999092631MD1999999-0101REMSYN070AAXX  26184 83182 32597 61411 10295 20132 39263 40091 86200 333 59010;EQDQ01  00002PRCP99
0196831820999992000102700004-11290-041860FM-12+074799999V0201401N004112200019N0005001N1+02371+01331101201ADDAA199000091GA1001+999999999GF100991001001999999001001KA1240M+03031MA1999999092901MD1999999+0051REMSYN070AAXX  27004 83182 32993 01408 10237 20133 39290 40120 333 10303 58005;EQDQ01  00002PRCP99
0195831820999992000102718004-11290-041860FM-12+074799999V0200901N004110450019N0020001N1+02981+01291101001ADDAA199000091AY111061AY211061GF106991041021008001051011MA1999999092711MD1999999+0081MW1051REMSYN076AAXX  27184 83182 31595 60908 10298 20129 39271 40100 70511 84251 333 58008;EQDQ01  00002PRCP99
0186831820999992000102800004-11290-041860FM-12+074799999V0200901N003112200019N0005001N1+02501+01221101211ADDAA199000091GF102991001001999999001011KA1240M+03051MA1999999092911MD1999999+0011REMSYN076AAXX  28004 83182 32993 20906 10250 20122 39291 40121 80001 333 10305 58001;EQDQ01  00002PRCP99
0196831820999992000102812004-11290-041860FM-12+074799999V0200901N003112200019N0040001N1+02601+01651101331ADDAA199000091GA1001+999999999GF100991001001999999001001KA1240N+01841MA1999999093041MD1999999-0131REMSYN070AAXX  28124 83182 32996 00906 10260 20165 39304 40133 333 20184 59013;EQDQ01  00002PRCP99
0167831820999992000102818004-11290-041860FM-12+074799999V0200501N001510075019N0040001N1+03261+01381100771ADDAA199000091GF106991061021008001051011MA1999999092541MD1999999-0171REMSYN070AAXX  28184 83182 32596 60503 10326 20138 39254 40077 86251 333 59017;EQDQ01  00002PRCP99
0186831820999992000102900004-11290-041860FM-12+074799999V0200901N003112200019N0005001N1+02771+01431101161ADDAA199000091GF104991001001999999001011KA1240M+03351MA1999999092901MD1999999-0011REMSYN076AAXX  29004 83182 32993 40906 10277 20143 39290 40116 80001 333 10335 59001;EQDQ01  00002PRCP99
0214831820999992000102912004-11290-041860FM-12+074799999V0200501N002610450019N0020001N1+02771+01811101291ADDAA199000091AY121061AY221061GF108991021021008001051011KA1240N+02141MA1999999093031MD1999999-0011MW1051REMSYN082AAXX  29124 83182 31595 80505 10277 20181 39303 40129 70522 82251 333 20214 59001;EQDQ01  00002PRCP99
0145831820999992000102918004-11290-041860FM-12+074799999V0203601N003619999999N0040001N1+03131+01611100841ADDAY161061AY221061GF108991999999004501999999MA1999999092611MW1151REMSYN070AAXX  29184 83182 21496 83607 10313 20161 39261 40084 71562 333 82351;
0186831820999992000103000004-11290-041860FM-12+074799999V0200901N004610075019N0005001N1+02521+01611101191ADDAA199000091GF108991051021008001001011KA1240M+03201MA1999999092921MD1999999+0021REMSYN076AAXX  30004 83182 32593 80909 10252 20161 39292 40119 85201 333 10320 58002;EQDQ01  00002PRCP99
0173831820999992000103012004-11290-041860FM-12+074799999V0200901N004610075019N0040001N1+02451+01581101511ADDAA124000391GF107991061051008001051001KA1240N+02141MA1999999093191MD1999999+0161REMSYN082AAXX  30124 83182 22596 70909 10245 20158 39319 40151 86550 333 20214 58016 69934;
0167831820999992000103018004-11290-041860FM-12+074799999V0200901N003112200019N0100001N1+03021+01471100931ADDAA199000091GF103991021021008001001011MA1999999092681MD1999999+0071REMSYN070AAXX  30184 83182 32597 30906 10302 20147 39268 40093 82201 333 58007;EQDQ01  00002PRCP99
0186831820999992000103100004-11290-041860FM-12+074799999V0200901N002112200019N0005001N1+02651+01391101211ADDAA199000091GF102991011021008001001011KA1240M+03101MA1999999092931MD1999999+0011REMSYN076AAXX  31004 83182 32593 20904 10265 20139 39293 40121 81201 333 10310 58001;EQDQ01  00002PRCP99
0186831820999992000103112004-11290-041860FM-12+074799999V0200901N005110075019N0100001N1+02591+01551101371ADDAA199000091GF107991061021008001001011KA1240N+02051MA1999999093081MD1999999-0111REMSYN076AAXX  31124 83182 32597 70910 10259 20155 39308 40137 86201 333 20205 59011;EQDQ01  00002PRCP99
0167831820999992000103118004-11290-041860FM-12+074799999V0201401N003110075019N0100001N1+03081+01481100831ADDAA199000091GF108991061021008001051011MA1999999092601MD1999999-0081REMSYN070AAXX  31184 83182 32597 81406 10308 20148 39260 40083 86251 333 59008;EQDQ01  00002PRCP99
0186831820999992000110100004-11290-041860FM-12+074799999V0200901N004110450019N0005001N1+02591+01501101141ADDAA199000091GF108991021021008001051011KA1240M+03161MA1999999092861MD1999999-0071REMSYN076AAXX  01004 83182 32593 80908 10259 20150 39286 40114 82251 333 10316 59007;EQDQ01  00002PRCP99
0186831820999992000110112004-11290-041860FM-12+074799999V0200901N004112200019N0100001N1+02621+01461101281ADDAA199000091GF108991041001017501051011KA1240N+01851MA1999999093001MD1999999-0081REMSYN076AAXX  01124 83182 32797 80908 10262 20146 39300 40128 84051 333 20185 59008;EQDQ01  00002PRCP99
0167831820999992000110118004-11290-041860FM-12+074799999V0203201N003110450019N0100001N1+03241+01041100711ADDAA199000091GF107991031021008001051011MA1999999092481MD1999999-0161REMSYN070AAXX  01184 83182 32597 73206 10324 20104 39248 40071 83251 333 59016;EQDQ01  00002PRCP99
0186831820999992000110200004-11290-041860FM-12+074799999V0200901N005112200019N0005001N1+02641+01091100921ADDAA199000091GF108991011001017501051011KA1240M+03381MA1999999092671MD1999999-0191REMSYN076AAXX  02004 83182 32793 80910 10264 20109 39267 40092 81051 333 10338 59019;EQDQ01  00002PRCP99
0214831820999992000110212004-11290-041860FM-12+074799999V0200901N005110450019N0020001N1+02451+01461101251ADDAA199000091AY121061AY221061GF108991011021008001051011KA1240N+02031MA1999999092961MD1999999-0041MW1051REMSYN082AAXX  02124 83182 31595 80910 10245 20146 39296 40125 70522 81251 333 20203 59004;EQDQ01  00002PRCP99
0167831820999992000110218004-11290-041860FM-12+074799999V0200901N002612200019N0100001N1+03111+01291100731ADDAA199000091GF108991021021008001001011MA1999999092491MD1999999+0011REMSYN070AAXX  02184 83182 32597 80905 10311 20129 39249 40073 82201 333 58001;EQDQ01  00002PRCP99
0186831820999992000110300004-11290-041860FM-12+074799999V0200901N005110150019N0005001N1+02631+01411100961ADDAA199000091GF108991081001017501011999KA1240M+03181MA1999999092691MD1999999+0021REMSYN076AAXX  03004 83182 32793 80910 10263 20141 39269 40096 8801/ 333 10318 58002;EQDQ01  00002PRCP99
0186831820999992000110312004-11290-041860FM-12+074799999V0200901N002110075019N0100001N1+02431+01781101071ADDAA199000091GF108991061021008001011999KA1240N+02121MA1999999092791MD1999999-0171REMSYN076AAXX  03124 83182 32597 80904 10243 20178 39279 40107 8621/ 333 20212 59017;EQDQ01  00002PRCP99
0167831820999992000110318004-11290-041860FM-12+074799999V0201801N005110450019N0100001N1+02671+01771100671ADDAA199000091GF108991021021008001061011MA1999999092371MD1999999-0121REMSYN070AAXX  03184 83182 32597 81810 10267 20177 39237 40067 82261 333 59012;EQDQ01  00002PRCP99
0186831820999992000110400004-11290-041860FM-12+074799999V0201401N001510450019N0100001N1+02481+01801100861ADDAA199000091GF108991031051008001051011KA1240M+02751MA1999999092581MD1999999-0111REMSYN076AAXX  04004 83182 32597 81403 10248 20180 39258 40086 83551 333 10275 59011;EQDQ01  00002PRCP99
0214831820999992000110412004-11290-041860FM-12+074799999V0200501N001010450019N0020001N1+02571+01861100961ADDAA199000091AY121061AY221061GF108991041021008001051011KA1240N+02141MA1999999092681MD1999999-0111MW1051REMSYN082AAXX  04124 83182 31595 80502 10257 20186 39268 40096 70522 84251 333 20214 59011;EQDQ01  00002PRCP99
0182831820999992000110418004-11290-041860FM-12+074799999V0200501N002612200019N0040001N1+02721+01951100421ADDAA106014091AY161061AY261061GF107991041061004501001011MA1999999092201MD1999999-0171MW1171REMSYN082AAXX  04184 83182 21496 70505 10272 20195 39220 40042 71766 84601 333 59017 60141;
0201831820999992000110500004-11290-041860FM-12+074799999V0202701N002610450019N0001001N1+02051+02021100971ADDAA106075991AY191061AY261061GF108991041031004501021999KA1240M+02771MA1999999092661MD1999999+0081MW1951REMSYN088AAXX  05004 83182 21491 82705 10205 20202 39266 40097 79596 8432/ 333 10277 58008 60761;
0201831820999992000110512004-11290-041860FM-12+074799999V0200901N000510042019N0100001N1+02051+01861101161ADDAA124136991AY161061AY261061GF108991051071004501021999KA1240N+01891MA1999999092791MD1999999+0111MW1021REMSYN088AAXX  05124 83182 21497 80901 10205 20186 39279 40116 70266 8572/ 333 20189 58011 61374;
0182831820999992000110518004-11290-041860FM-12+074799999V0203201N001510450019N0100001N1+02251+01891100871ADDAA106000891AY161061AY261061GF108991031031004501051011MA1999999092541MD1999999+0341MW1021REMSYN082AAXX  05184 83182 21497 83203 10225 20189 39254 40087 70266 83351 333 58034 69971;
0201831820999992000110600004-11290-041860FM-12+074799999V0200901N001010120019N0005001N1+02001+01931101051ADDAA106001091AY161061AY261061GF106991061081008001001001KA1240M+02301MA1999999092681MD1999999+0021MW1031REMSYN088AAXX  06004 83182 21593 60902 10200 20193 39268 40105 70366 86800 333 10230 58002 60011;
0173831820999992000110612004-11290-041860FM-12+074799999V0200501N003110450019N0100001N1+02401+01781101071ADDAA124002091GF108991011021008001011011KA1240N+01891MA1999999092741MD1999999-0051REMSYN082AAXX  06124 83182 22597 80506 10240 20178 39274 40107 81211 333 20189 59005 60024;
0195831820999992000110618004-11290-041860FM-12+074799999V0209999C000010450019N0100001N1+02921+01891100661ADDAA199000091AY121061AY221061GF106991041031008001061011MA1999999092401MD1999999-0141MW1151REMSYN076AAXX  06184 83182 31597 63600 10292 20189 39240 40066 71522 84361 333 59014;EQDQ01  00002PRCP99
0186831820999992000110700004-11290-041860FM-12+074799999V0200901N002110150019N0005001N1+02461+01941101331ADDAA199000091GF107991071001017501051001KA1240M+02981MA1999999093011MD1999999+0331REMSYN076AAXX  07004 83182 32793 70904 10246 20194 39301 40133 87050 333 10298 58033;EQDQ01  00002PRCP99
0186831820999992000110712004-11290-041860FM-12+074799999V0200501N001510450019N0100001N1+02591+02051100921ADDAA199000091GF108991021021008001061011KA1240N+02051MA1999999092651MD1999999-0091REMSYN076AAXX  07124 83182 32597 80503 10259 20205 39265 40092 82261 333 20205 59009;EQDQ01  00002PRCP99
0167831820999992000110718004-11290-041860FM-12+074799999V0202701N003110450019N0100001N1+03091+01891999999ADDAA199000091GF108991041031008001021011MA1999999092131MD1999999-0271REMSYN070AAXX  07184 83182 32597 82706 10309 20189 39213 40/// 84321 333 59027;EQDQ01  00002PRCP99
0214831820999992000110800004-11290-041860FM-12+074799999V0201801N003610075019N0005001N1+02131+02031100861ADDAA199000091AY121061AY221061GF108991061031008001021999KA1240M+03181MA1999999092561MD1999999-0451MW1131REMSYN082AAXX  08004 83182 32593 81807 10213 20203 39256 40086 71322 8632/ 333 10318 59045;EQDQ01  00002PRCP99
0201831820999992000110812004-11290-041860FM-12+074799999V0201801N003112200019N0100001N1+02511+01991100771ADDAA124003091AY161061AY221061GF108991021001017501031011KA1240N+01911MA1999999092471MD1999999-0181MW1021REMSYN088AAXX  08124 83182 21797 81806 10251 20199 39247 40077 70262 82031 333 20191 59018 60034;
0182831820999992000110818004-11290-041860FM-12+074799999V0200901N003110450019N0100001N1+02411+02181100341ADDAA106004191AY161061AY221061GF108991041031008001021011MA1999999092061MD1999999-0071MW1021REMSYN082AAXX  08184 83182 21597 80906 10241 20218 39206 40034 70262 84321 333 59007 60041;
0201831820999992000110900004-11290-041860FM-12+074799999V0202301N001010450019N0002001N1+02061+02011100811ADDAA106020191AY191061AY221061GF108991041031004501021999KA1240M+02841MA1999999092511MD1999999-0051MW1951REMSYN088AAXX  09004 83182 21492 82302 10206 20201 39251 40081 79592 8432/ 333 10284 59005 60201;
0201831820999992000110912004-11290-041860FM-12+074799999V0201401N003110450019N0040001N1+02111+02061100841ADDAA124114091AY191061AY261061GF108991021021008001021999KA1240N+01911MA1999999092511MD1999999+0041MW1021REMSYN088AAXX  09124 83182 21596 81406 10211 20206 39251 40084 70296 8222/ 333 20191 58004 61144;
0182831820999992000110918004-11290-041860FM-12+074799999V0200901N001510450019N0010001N1+02221+02081100651ADDAA106001091AY161061AY221061GF108991041071004501021999MA1999999092341MD1999999+0281MW1211REMSYN082AAXX  09184 83182 21494 80903 10222 20208 39234 40065 72162 8472/ 333 58028 60011;
0201831820999992000111000004-11290-041860FM-12+074799999V0203601N002610450019N0005001N1+01931+01911100941ADDAA106001091AY161061AY221061GF108991041071004501021999KA1240M+02381MA1999999092591MD1999999+0081MW1021REMSYN088AAXX  10004 83182 21493 83605 10193 20191 39259 40094 70262 8472/ 333 10238 58008 60011;
0201831820999992000111012004-11290-041860FM-12+074799999V0200901N000519999999N0100001N1+02191+01891101071ADDAA124002091AY161061AY221061GF108991041061004501999999KA1240N+01911MA1999999092711MD1999999+0201MW1021REMSYN088AAXX  10124 83182 21497 80901 10219 20189 39271 40107 70262 846// 333 20191 58020 60024;
0182831820999992000111018004-11290-041860FM-12+074799999V0203201N002110450019N0100001N1+02591+02071999999ADDAA106000191AY121061AY221061GF106991021031008001051011MA1999999092321MD1999999-0021MW1211REMSYN082AAXX  10184 83182 21597 63204 10259 20207 39232 40/// 72122 82351 333 59002 69921;
0167831820999992000111100004-11290-041860FM-12+074799999V0203601N001010042019N0005001N1+02301+02031100931ADDAA199000021GF108991081061004501999999KA1240M+02761MA1999999092621MD1999999+0031REMSYN076AAXX  11004 83182 32493 83602 10230 20203 39262 40093 886// 333 10276 58003;
0201831820999992000111112004-11290-041860FM-12+074799999V0202301N001010450019N0020001N1+02451+02041101021ADDAA124002091AY161061AY261061GF108991011021008001011011KA1240N+02071MA1999999092731MD1999999+0021MW1151REMSYN088AAXX  11124 83182 21595 82302 10245 20204 39273 40102 71566 81211 333 20207 58002 60024;
0182831820999992000111118004-11290-041860FM-12+074799999V0200901N002110450019N0020001N1+02231+02081100661ADDAA106007191AY161061AY221061GF108991041071004501021999MA1999999092361MD1999999+0041MW1611REMSYN082AAXX  11184 83182 21495 80904 10223 20208 39236 40066 76162 8472/ 333 58004 60071;
0201831820999992000111200004-11290-041860FM-12+074799999V0202301N001010042019N0001001N1+01911+01861101151ADDAA106007191AY161061AY261061GF108991061071004501021999KA1240M+02801MA1999999092811MD1999999+0191MW1611REMSYN088AAXX  12004 83182 21491 82302 10191 20186 39281 40115 76166 8672/ 333 10280 58019 60071;
0201831820999992000111212004-11290-041860FM-12+074799999V0202701N001010150019N0100001N1+02391+01921101051ADDAA124017091AY161061AY221061GF108991051001017501051011KA1240N+01891MA1999999092711MD1999999-0021MW1091REMSYN088AAXX  12124 83182 21797 82702 10239 20192 39271 40105 70962 85051 333 20189 59002 60174;
0195831820999992000111218004-11290-041860FM-12+074799999V0203601N002612200019N0040001N1+03021+01891100581ADDAA199000091AY121061AY221061GF107991021031004501001011MA1999999092341MD1999999-0021MW1151REMSYN076AAXX  12184 83182 31496 73605 10302 20189 39234 40058 71522 82301 333 59002;EQDQ01  00002PRCP99
0201831820999992000111312004-11290-041860FM-12+074799999V0203601N002610450019N0100001N1+02211+01981101181ADDAA124002091AY161061AY221061GF108991021021008001051011KA1240N+01971MA1999999092861MD1999999+0151MW1021REMSYN088AAXX  13124 83182 21597 83605 10221 20198 39286 40118 70262 82251 333 20197 58015 60024;
0167831820999992000111318004-11290-041860FM-12+074799999V0202701N001010450019N0100001N1+02611+02061100751ADDAA199000091GF108991011021008001011999MA1999999092361MD1999999+0021REMSYN070AAXX  13184 83182 32597 82702 10261 20206 39236 40075 8121/ 333 58002;EQDQ01  00002PRCP99
0186831820999992000111400004-11290-041860FM-12+074799999V0202701N000510150019N0005001N1+02271+02111101041ADDAA199000091GF108991051001017501051011KA1240M+02661MA1999999092721MD1999999+0111REMSYN076AAXX  14004 83182 32793 82701 10227 20211 39272 40104 85051 333 10266 58011;EQDQ01  00002PRCP99
0186831820999992000111412004-11290-041860FM-12+074799999V0200501N004112200019N0100001N1+02601+02061101021ADDAA199000091GF103991021021008001041001KA1240N+02061MA1999999092731MD1999999-0131REMSYN076AAXX  14124 83182 32597 30508 10260 20206 39273 40102 82240 333 20206 59013;EQDQ01  00002PRCP99
0167831820999992000111418004-11290-041860FM-12+074799999V0202701N002110450019N0100001N1+02621+01981100631ADDAA199000091GF108991021031008001061011MA1999999092351MD1999999-0011REMSYN070AAXX  14184 83182 32597 82704 10262 20198 39235 40063 82361 333 59001;EQDQ01  00002PRCP99
0186831820999992000111500004-11290-041860FM-12+074799999V0201401N001010450019N0005001N1+02411+02241100941ADDAA199000091GF108991031051008001051011KA1240M+03071MA1999999092661MD1999999-0061REMSYN076AAXX  15004 83182 32593 81402 10241 20224 39266 40094 83551 333 10307 59006;EQDQ01  00002PRCP99
0186831820999992000111512004-11290-041860FM-12+074799999V0203201N001012200019N0040001N1+02631+02041101111ADDAA199000091GF108991011021008001001011KA1240N+02021MA1999999092831MD1999999+0101REMSYN076AAXX  15124 83182 32596 83202 10263 20204 39283 40111 81201 333 20202 58010;EQDQ01  00002PRCP99
0167831820999992000111518004-11290-041860FM-12+074799999V0203201N002110450019N0040001N1+03121+01851100661ADDAA199000091GF108991011021008001051011MA1999999092441MD1999999+0091REMSYN070AAXX  15184 83182 32596 83204 10312 20185 39244 40066 81251 333 58009;EQDQ01  00002PRCP99
0186831820999992000111600004-11290-041860FM-12+074799999V0200901N004612200019N0005001N1+02571+01941100981ADDAA199000091GF108991011021008001001011KA1240M+03201MA1999999092721MD1999999+0061REMSYN076AAXX  16004 83182 32593 80909 10257 20194 39272 40098 81201 333 10320 58006;EQDQ01  00002PRCP99
0186831820999992000111612004-11290-041860FM-12+074799999V0201401N006212200019N0100001N1+02601+01821101231ADDAA199000091GF106991021021008001001011KA1240N+02051MA1999999092951MD1999999+0121REMSYN076AAXX  16124 83182 32597 61412 10260 20182 39295 40123 82201 333 20205 58012;EQDQ01  00002PRCP99
0167831820999992000111618004-11290-041860FM-12+074799999V0200901N005712200019N0100001N1+02981+01471100911ADDAA199000091GF108991021021008001001011MA1999999092651MD1999999+0211REMSYN070AAXX  16184 83182 32597 80911 10298 20147 39265 40091 82201 333 58021;EQDQ01  00002PRCP99
0186831820999992000111700004-11290-041860FM-12+074799999V0201401N001519999999N0005001N1+02271+01731101271ADDAA199000091GF108991001001999999001011KA1240M+03021MA1999999092961MD1999999+0241REMSYN076AAXX  17004 83182 32993 81403 10227 20173 39296 40127 80001 333 10302 58024;EQDQ01  00002PRCP99
0186831820999992000111712004-11290-041860FM-12+074799999V0200901N009812200019N0100001N1+02601+01641101391ADDAA199000091GF102991011021008001001011KA1240N+01871MA1999999093071MD1999999+0121REMSYN076AAXX  17124 83182 32597 20919 10260 20164 39307 40139 81201 333 20187 58012;EQDQ01  00002PRCP99
0167831820999992000111718004-11290-041860FM-12+074799999V0200901N006712200019N0100001N1+02941+01361101081ADDAA199000091GF104991011021008001001011MA1999999092801MD1999999+0151REMSYN070AAXX  17184 83182 32597 40913 10294 20136 39280 40108 81201 333 58015;EQDQ01  00002PRCP99
0186831820999992000111800004-11290-041860FM-12+074799999V0200901N004110075019N0005001N1+02271+01741101421ADDAA199000091GF108991061051008001001011KA1240M+02961MA1999999093101MD1999999+0141REMSYN076AAXX  18004 83182 32593 80908 10227 20174 39310 40142 86501 333 10296 58014;EQDQ01  00002PRCP99
0186831820999992000111812004-11290-041860FM-12+074799999V0200901N005710075019N0040001N1+02491+01611101521ADDAA199000091GF106991061021008001001001KA1240N+01921MA1999999093181MD1999999+0111REMSYN076AAXX  18124 83182 32596 60911 10249 20161 39318 40152 86200 333 20192 58011;EQDQ01  00002PRCP99
0167831820999992000111818004-11290-041860FM-12+074799999V0200501N005712200019N0100001N1+02981+01311101011ADDAA199000091GF103991021021008001001011MA1999999092741MD1999999-0061REMSYN070AAXX  18184 83182 32597 30511 10298 20131 39274 40101 82201 333 59006;EQDQ01  00002PRCP99
0196831820999992000111900004-11290-041860FM-12+074799999V0200901N003612200019N0005001N1+02351+01631101211ADDAA199000091GA1001+999999999GF100991001001999999001001KA1240M+03031MA1999999092901MD1999999-0201REMSYN070AAXX  19004 83182 32993 00907 10235 20163 39290 40121 333 10303 59020;EQDQ01  00002PRCP99
0186831820999992000111912004-11290-041860FM-12+074799999V0201401N005112200019N0100001N1+02341+01581101421ADDAA199000091GF103991031021008001001001KA1240N+01811MA1999999093081MD1999999-0101REMSYN076AAXX  19124 83182 32597 31410 10234 20158 39308 40142 83200 333 20181 59010;EQDQ01  00002PRCP99
0167831820999992000111918004-11290-041860FM-12+074799999V0200501N003612200019N0040001N1+03051+01381100951ADDAA199000091GF102991011021008001001011MA1999999092671MD1999999-0071REMSYN070AAXX  19184 83182 32596 20507 10305 20138 39267 40095 81201 333 59007;EQDQ01  00002PRCP99
0196831820999992000112000004-11290-041860FM-12+074799999V0200901N004612200019N0005001N1+02411+01691101281ADDAA199000091GA1001+999999999GF100991001001999999001001KA1240M+03081MA1999999092961MD1999999+0061REMSYN070AAXX  20004 83182 32993 00909 10241 20169 39296 40128 333 10308 58006;EQDQ01  00002PRCP99
0186831820999992000112012004-11290-041860FM-12+074799999V0200901N004110075019N0100001N1+02401+01891101501ADDAA199000091GF108991081051008001999999KA1240N+01931MA1999999093161MD1999999+0081REMSYN076AAXX  20124 83182 32597 80908 10240 20189 39316 40150 885// 333 20193 58008;EQDQ01  00002PRCP99
0180831820999992000112100004-11290-041860FM-12+074799999V0200901N004119999999N0005001N1+02261+01521101231ADDAA199000091GF108991999999999999999999KA1240M+03051MA1999999092911MD1999999-0051REMSYN070AAXX  21004 83182 32993 80908 10226 20152 39291 40123 333 10305 59005;EQDQ01  00002PRCP99
0186831820999992000112112004-11290-041860FM-12+074799999V0200901N004112200019N0100001N1+02461+01711101571ADDAA199000091GF104991041021008001001001KA1240N+01801MA1999999093221MD1999999+0061REMSYN076AAXX  21124 83182 32597 40908 10246 20171 39322 40157 84200 333 20180 58006;EQDQ01  00002PRCP99
0167831820999992000112118004-11290-041860FM-12+074799999V0200901N003112200019N0100001N1+02991+01411101081ADDAA199000091GF103991031021008001001001MA1999999092791MD1999999+0061REMSYN070AAXX  21184 83182 32597 30906 10299 20141 39279 40108 83200 333 58006;EQDQ01  00002PRCP99
0196831820999992000112200004-11290-041860FM-12+074799999V0200901N004112200019N0005001N1+02361+01641101411ADDAA199000091GA1001+999999999GF100991001001999999001001KA1240M+03061MA1999999093081MD1999999+0171REMSYN070AAXX  22004 83182 32993 00908 10236 20164 39308 40141 333 10306 58017;EQDQ01  00002PRCP99
0186831820999992000112212004-11290-041860FM-12+074799999V0200901N005710075019N0100001N1+02381+01731101681ADDAA199000091GF108991081051008001999999KA1240N+01951MA1999999093321MD1999999+0101REMSYN076AAXX  22124 83182 32597 80911 10238 20173 39332 40168 885// 333 20195 58010;EQDQ01  00002PRCP99
0167831820999992000112218004-11290-041860FM-12+074799999V0200901N005112200019N0100001N1+02901+01551101221ADDAA199000091GF104991041021008001001001MA1999999092921MD1999999+0131REMSYN070AAXX  22184 83182 32597 40910 10290 20155 39292 40122 84200 333 58013;EQDQ01  00002PRCP99
0196831820999992000112300004-11290-041860FM-12+074799999V0200901N003112200019N0005001N1+02331+01811101481ADDAA199000091GA1001+999999999GF100991001001999999001001KA1240M+02981MA1999999093141MD1999999+0061REMSYN070AAXX  23004 83182 32993 00906 10233 20181 39314 40148 333 10298 58006;EQDQ01  00002PRCP99
0167831820999992000112318004-11290-041860FM-12+074799999V0200901N006710450019N0100001N1+02791+01621101241ADDAA199000091GF105991031021008001041011MA1999999092931MD1999999+0011REMSYN070AAXX  23184 83182 32597 50913 10279 20162 39293 40124 83241 333 58001;EQDQ01  00002PRCP99
0196831820999992000112400004-11290-041860FM-12+074799999V0200901N002612200019N0005001N1+02171+01601101381ADDAA199000091GA1001+999999999GF100991001001999999001001KA1240M+02831MA1999999093041MD1999999-0101REMSYN070AAXX  24004 83182 32993 00905 10217 20160 39304 40138 333 10283 59010;EQDQ01  00002PRCP99
0186831820999992000112412004-11290-041860FM-12+074799999V0200901N004110075019N0100001N1+02431+01851101601ADDAA199000091GF106991061021008001001001KA1240N+01891MA1999999093241MD1999999-0051REMSYN076AAXX  24124 83182 32597 60908 10243 20185 39324 40160 86200 333 20189 59005;EQDQ01  00002PRCP99
0167831820999992000112718004-11290-041860FM-12+074799999V0201401N002612200019N0100001N1+03011+01461101141ADDAA199000091GF102991021021008001001001MA1999999092851MD1999999+0071REMSYN070AAXX  27184 83182 32597 21405 10301 20146 39285 40114 82200 333 58007;EQDQ01  00002PRCP99
0196831820999992000112800004-11290-041860FM-12+074799999V0201401N004112200019N0100001N1+02271+01531101491ADDAA199000091GA1001+999999999GF100991001001999999001001KA1240M+03021MA1999999093141MD1999999+0141REMSYN070AAXX  28004 83182 32997 01408 10227 20153 39314 40149 333 10302 58014;EQDQ01  00002PRCP99
0186831820999992000112812004-11290-041860FM-12+074799999V0201401N004612200019N0100001N1+02461+01581101621ADDAA199000091GF103991031021008001001001KA1240N+01951MA1999999093261MD1999999+0041REMSYN076AAXX  28124 83182 32597 31409 10246 20158 39326 40162 83200 333 20195 58004;EQDQ01  00002PRCP99
0167831820999992000112818004-11290-041860FM-12+074799999V0200901N005712200019N0100001N1+02881+01601101201ADDAA199000091GF105991041021008001001011MA1999999092921MD1999999+0071REMSYN070AAXX  28184 83182 32597 50911 10288 20160 39292 40120 84201 333 58007;EQDQ01  00002PRCP99
0196831820999992000112900004-11290-041860FM-12+074799999V0201401N003612200019N0005001N1+02311+01691101411ADDAA199000091GA1001+999999999GF100991001001999999001001KA1240M+02971MA1999999093081MD1999999-0061REMSYN070AAXX  29004 83182 32993 01407 10231 20169 39308 40141 333 10297 59006;EQDQ01  00002PRCP99
0186831820999992000112912004-11290-041860FM-12+074799999V0201401N004112200019N0100001N1+02401+01631101631ADDAA199000091GF107991011021008001001011KA1240N+01831MA1999999093271MD1999999+0011REMSYN076AAXX  29124 83182 32597 71408 10240 20163 39327 40163 81201 333 20183 58001;EQDQ01  00002PRCP99
0195831820999992000120118004-11290-041860FM-12+074799999V0203601N002110450019N0040001N1+03121+01391100851ADDAA199000091AY111061AY211061GF106991021031004501051001MA1999999092001MD1999999-0121MW1151REMSYN076AAXX  01184 83182 31496 63604 10312 20139 39200 40085 71511 82350 333 59012;EQDQ01  00002PRCP99
0186831820999992000120200004-11290-041860FM-12+074799999V0201401N002612200019N0005001N1+02451+01751101191ADDAA199000091GF106991041021008001001011KA1240M+03201MA1999999092911MD1999999+0041REMSYN076AAXX  02004 83182 32593 61405 10245 20175 39291 40119 84201 333 10320 58004;EQDQ01  00002PRCP99
0214831820999992000120212004-11290-041860FM-12+074799999V0203601N005112200019N0020001N1+02801+01721101251ADDAA199000091AY121061AY221061GF108991011021008001001011KA1240N+02051MA1999999092971MD1999999-0061MW1051REMSYN082AAXX  02124 83182 31595 83610 10280 20172 39297 40125 70522 81201 333 20205 59006;EQDQ01  00002PRCP99
0167831820999992000120218004-11290-041860FM-12+074799999V0203201N004610450019N0040001N1+03021+01621100831ADDAA199000091GF108991031021008001051999MA1999999092591MD1999999-0011REMSYN070AAXX  02184 83182 32596 83209 10302 20162 39259 40083 8325/ 333 59001;EQDQ01  00002PRCP99
0186831820999992000120300004-11290-041860FM-12+074799999V0201401N003110450019N0005001N1+02641+01771101101ADDAA199000091GF108991041061008001061011KA1240M+03091MA1999999092851MD1999999-0061REMSYN076AAXX  03004 83182 32593 81406 10264 20177 39285 40110 84661 333 10309 59006;EQDQ01  00002PRCP99
0214831820999992000120312004-11290-041860FM-12+074799999V0201401N001510450019N0100001N1+02651+01961101251ADDAA199000091AY121061AY221061GF108991041021008001061011KA1240N+02131MA1999999092981MD1999999+0011MW1051REMSYN082AAXX  03124 83182 31597 81403 10265 20196 39298 40125 70522 84261 333 20213 58001;EQDQ01  00002PRCP99
0195831820999992000120318004-11290-041860FM-12+074799999V0203601N002610450019N0100001N1+02971+01781100771ADDAA199000091AY121061AY221061GF108991041021008001061011MA1999999092531MD1999999-0061MW1151REMSYN076AAXX  03184 83182 31597 83605 10297 20178 39253 40077 71522 84261 333 59006;EQDQ01  00002PRCP99
0201831820999992000120400004-11290-041860FM-12+074799999V0200901N000510042019N0002001N1+02391+01921101181ADDAA106002091AY161061AY221061GF108991081071004501999999KA1240M+03061MA1999999092891MD1999999+0041MW1611REMSYN088AAXX  04004 83182 21492 80901 10239 20192 39289 40118 76162 887// 333 10306 58004 60021;
0173831820999992000120412004-11290-041860FM-12+074799999V0200901N004612200019N0100001N1+02541+99999101281ADDAA124002091GF108991011021008001001011KA1240N+02041MA1999999092971MD1999999-0011REMSYN082AAXX  04124 83182 22597 80909 10254 2083/ 39297 40128 81201 333 20204 59001 60024;
0195831820999992000120418004-11290-041860FM-12+074799999V0200501N001012200019N0020001N1+03061+01621100671ADDAA199000091AY121061AY221061GF106991031021008001001011MA1999999092441MD1999999-0091MW1051REMSYN076AAXX  04184 83182 31595 60502 10306 20162 39244 40067 70522 83201 333 59009;EQDQ01  00002PRCP99
0186831820999992000120500004-11290-041860FM-12+074799999V0200901N004112200019N0005001N1+02481+01801101051ADDAA199000091GF108991031001017501051011KA1240M+03141MA1999999092771MD1999999-0121REMSYN076AAXX  05004 83182 32793 80908 10248 20180 39277 40105 83051 333 10314 59012;EQDQ01  00002PRCP99
0186831820999992000120512004-11290-041860FM-12+074799999V0200501N002112200019N0100001N1+02581+01821101221ADDAA199000091GF108991011021008001001011KA1240N+02031MA1999999092941MD1999999-0031REMSYN076AAXX  05124 83182 32597 80504 10258 20182 39294 40122 81201 333 20203 59003;EQDQ01  00002PRCP99
0167831820999992000120518004-11290-041860FM-12+074799999V0200901N003112200019N0040001N1+03051+01761100761ADDAA199000091GF108991031021008001001011MA1999999092511MD1999999+0071REMSYN070AAXX  05184 83182 32596 80906 10305 20176 39251 40076 83201 333 58007;EQDQ01  00002PRCP99
0186831820999992000120600004-11290-041860FM-12+074799999V0200901N001510450019N0005001N1+02501+01801101061ADDAA199000091GF108991011021008001061011KA1240M+03161MA1999999092781MD1999999+0011REMSYN076AAXX  06004 83182 32593 80903 10250 20180 39278 40106 81261 333 10316 58001;EQDQ01  00002PRCP99
0186831820999992000120612004-11290-041860FM-12+074799999V02099999999990075019N0040001N1+02591+01881101241ADDAA199000091GF108991061021008001061011KA1240N+02021MA1999999092951MD1999999+0011REMSYN076AAXX  06124 83182 32596 8//03 10259 20188 39295 40124 86261 333 20202 58001;EQDQ01  00002PRCP99
0167831820999992000120618004-11290-041860FM-12+074799999V0203601N003110075019N0040001N1+03051+01791100771ADDAA199000091GF108991051031008001051011MA1999999092541MD1999999+0031REMSYN070AAXX  06184 83182 32596 83606 10305 20179 39254 40077 85351 333 58003;EQDQ01  00002PRCP99
0201831820999992000120700004-11290-041860FM-12+074799999V0202701N001510150019N0005001N1+02391+02101101151ADDAA106003091AY161061AY221061GF108991051001017501051021KA1240M+03141MA1999999092861MD1999999+0081MW1021REMSYN088AAXX  07004 83182 21793 82703 10239 20210 39286 40115 70262 85052 333 10314 58008 60031;
0173831820999992000120712004-11290-041860FM-12+074799999V0200901N004610450019N0040001N1+02701+02081101281ADDAA124003091GF108991041031008001061011KA1240N+02081MA1999999092991MD1999999+0041REMSYN082AAXX  07124 83182 22596 80909 10270 20208 39299 40128 84361 333 20208 58004 60034;
0182831820999992000120718004-11290-041860FM-12+074799999V0201801N003610042019N0010001N1+02231+02131101071ADDAA106023191AY161061AY221061GF108991061071004501021999MA1999999092741MD1999999+0201MW1611REMSYN082AAXX  07184 83182 21494 81807 10223 20213 39274 40107 76162 8672/ 333 58020 60231;
0201831820999992000120812004-11290-041860FM-12+074799999V0200901N005710042019N0040001N1+02271+01871101591ADDAA124036191AY161061AY221061GF108991081051004501999999KA1240N+01871MA1999999093201MD1999999+0211MW1021REMSYN088AAXX  08124 83182 21496 80911 10227 20187 39320 40159 70262 885// 333 20187 58021 60364;
0167831820999992000120818004-11290-041860FM-12+074799999V0200901N004610450019N0100001N1+02621+01861101191ADDAA199000091GF108991011021008001061011MA1999999092861MD1999999+0121REMSYN070AAXX  08184 83182 32597 80909 10262 20186 39286 40119 81261 333 58012;EQDQ01  00002PRCP99
0186831820999992000120900004-11290-041860FM-12+074799999V0201401N002119999999N0005001N1+02171+01941101491ADDAA199000091GF106991001001999999001011KA1240M+02661MA1999999093121MD1999999-0041REMSYN076AAXX  09004 83182 32993 61404 10217 20194 39312 40149 80001 333 10266 59004;EQDQ01  00002PRCP99
0186831820999992000120912004-11290-041860FM-12+074799999V0201401N003610075019N0100001N1+02211+01751101561ADDAA199000091GF107991071051008001001001KA1240N+01891MA1999999093181MD1999999-0021REMSYN076AAXX  09124 83182 32597 71407 10221 20175 39318 40156 87500 333 20189 59002;EQDQ01  00002PRCP99
0167831820999992000120918004-11290-041860FM-12+074799999V0201801N002112200019N0100001N1+02771+01671101101ADDAA199000091GF102991021021008001001001MA1999999092801MD1999999-0061REMSYN070AAXX  09184 83182 32597 21804 10277 20167 39280 40110 82200 333 59006;EQDQ01  00002PRCP99
0196831820999992000121000004-11290-041860FM-12+074799999V0200901N002612200019N0005001N1+02211+01721101271ADDAA199000091GA1001+999999999GF100991001001999999001001KA1240M+02821MA1999999092921MD1999999-0201REMSYN070AAXX  10004 83182 32993 00905 10221 20172 39292 40127 333 10282 59020;EQDQ01  00002PRCP99
0186831820999992000121012004-11290-041860FM-12+074799999V0201401N003112200019N0100001N1+02351+01881101251ADDAA199000091GF102991001001999999001011KA1240N+01741MA1999999092921MD1999999-0261REMSYN076AAXX  10124 83182 32997 21406 10235 20188 39292 40125 80001 333 20174 59026;EQDQ01  00002PRCP99
0167831820999992000121018004-11290-041860FM-12+074799999V0203601N003112200019N0100001N1+02891+01731100811ADDAA199000091GF108991021021008001001011MA1999999092521MD1999999-0281REMSYN070AAXX  10184 83182 32597 83606 10289 20173 39252 40081 82201 333 59028;EQDQ01  00002PRCP99
0186831820999992000121112004-11290-041860FM-12+074799999V0200901N003110042019N0100001N1+02451+01871101101ADDAA199000091GF108991081051004501999999KA1240N+02011MA1999999092811MD1999999-0111REMSYN076AAXX  11124 83182 32497 80906 10245 20187 39281 40110 885// 333 20201 59011;EQDQ01  00002PRCP99
0182831820999992000121118004-11290-041860FM-12+074799999V0201401N001510450019N0100001N1+02471+01891100861ADDAA106006191AY161061AY261061GF108991011031004501051011MA1999999092561MD1999999+0041MW1021REMSYN082AAXX  11184 83182 21497 81403 10247 20189 39256 40086 70266 81351 333 58004 60061;
0201831820999992000121200004-11290-041860FM-12+074799999V0201401N001510042019N0002001N1+02001+01951101241ADDAA106004191AY161061AY221061GF108991081071004501999999KA1240M+02591MA1999999092891MD1999999+0251MW1611REMSYN088AAXX  12004 83182 21492 81403 10200 20195 39289 40124 76162 887// 333 10259 58025 60041;
0201831820999992000121212004-11290-041860FM-12+074799999V0200901N002110042019N0010001N1+02171+01921101371ADDAA124010991AY161061AY221061GF108991061071004501021999KA1240N+01941MA1999999092991MD1999999+0081MW1161REMSYN088AAXX  12124 83182 21494 80904 10217 20192 39299 40137 71662 8672/ 333 20194 58008 60114;
0167831820999992000121218004-11290-041860FM-12+074799999V0203601N003110075019N0040001N1+02521+01931100931ADDAA199000091GF108991051021008001061011MA1999999092631MD1999999+0071REMSYN070AAXX  12184 83182 32596 83606 10252 20193 39263 40093 85261 333 58007;EQDQ01  00002PRCP99
0186831820999992000121300004-11290-041860FM-12+074799999V0203201N001010042019N0005001N1+02101+01951101231ADDAA199000091GF108991051071004501021999KA1240M+02621MA1999999092871MD1999999+0021REMSYN076AAXX  13004 83182 32493 83202 10210 20195 39287 40123 8572/ 333 10262 58002;EQDQ01  00002PRCP99
0201831820999992000121312004-11290-041860FM-12+074799999V0203201N002110450019N0040001N1+02141+01991101331ADDAA124025991AY161061AY261061GF108991041071004501021999KA1240N+01761MA1999999092951MD1999999-0041MW1021REMSYN088AAXX  13124 83182 21496 83204 10214 20199 39295 40133 70266 8472/ 333 20176 59004 60264;
0167831820999992000121318004-11290-041860FM-12+074799999V0203601N003110450019N0100001N1+02461+02111100931ADDAA199000091GF108991031021008001061011MA1999999092601MD1999999-0031REMSYN070AAXX  13184 83182 32597 83606 10246 20211 39260 40093 83261 333 59003;EQDQ01  00002PRCP99
0186831820999992000121400004-11290-041860FM-12+074799999V0200501N002610450019N0005001N1+02231+02031101121ADDAA199000091GF108991041071004501021999KA1240M+02551MA1999999092781MD1999999-0091REMSYN076AAXX  14004 83182 32493 80505 10223 20203 39278 40112 8472/ 333 10255 59009;EQDQ01  00002PRCP99
0201831820999992000121412004-11290-041860FM-12+074799999V0203601N001510042019N0010001N1+02031+02001101121ADDAA124029091AY161061AY261061GF108991061071004501021999KA1240N+01961MA1999999092771MD1999999-0181MW1211REMSYN088AAXX  14124 83182 21494 83603 10203 20200 39277 40112 72166 8672/ 333 20196 59018 60294;
0182831820999992000121418004-11290-041860FM-12+074799999V0203201N003110042019N0040001N1+02301+02131100691ADDAA106001091AY161061AY261061GF108991071071004501021999MA1999999092391MD1999999-0211MW1151REMSYN082AAXX  14184 83182 21496 83206 10230 20213 39239 40069 71566 8772/ 333 59021 60011;
0201831820999992000121500004-11290-041860FM-12+074799999V0203201N003110042019N9999999N1+01921+01901100951ADDAA106004191AY121061AY221061GF108991071071004501021999KA1240M+02441MA1999999092581MD1999999-0201MW1611REMSYN088AAXX  15004 83182 214// 83206 10192 20190 39258 40095 76122 8772/ 333 10244 59020 60041;
0201831820999992000121512004-11290-041860FM-12+074799999V0203201N004110042019N0010001N1+01951+01921100931ADDAA124020191AY161061AY261061GF108991081071004501999999KA1240N+01901MA1999999092561MD1999999-0211MW1611REMSYN088AAXX  15124 83182 21494 83208 10195 20192 39256 40093 76166 887// 333 20190 59021 60204;
0201831820999992000121600004-11290-041860FM-12+074799999V0203201N003110042019N0002001N1+02011+01981100791ADDAA106002091AY161061AY261061GF108991081071004501999999KA1240M+02161MA1999999092451MD1999999-0131MW1021REMSYN088AAXX  16004 83182 21492 83206 10201 20198 39245 40079 70266 887// 333 10216 59013 60021;
0201831820999992000121612004-11290-041860FM-12+074799999V0203601N003110042019N0005001N1+02011+01981100871ADDAA124027991AY161061AY261061GF108991051071004501021999KA1240N+01921MA1999999092521MD1999999-0041MW1611REMSYN088AAXX  16124 83182 21493 83606 10201 20198 39252 40087 76166 8572/ 333 20192 59004 60284;
0182831820999992000121618004-11290-041860FM-12+074799999V0203601N005110042019N0005001N1+02031+02001100741ADDAA106019191AY161061AY261061GF108991081071004501999999MA1999999092401MD1999999+0181MW1611REMSYN082AAXX  16184 83182 21493 83610 10203 20200 39240 40074 76166 887// 333 58018 60191;
0201831820999992000121700004-11290-041860FM-12+074799999V0203601N005110042019N0001001N1+01871+01841101101ADDAA106024991AY161061AY261061GF108991081071004501999999KA1240M+02061MA1999999092721MD1999999+0271MW1611REMSYN088AAXX  17004 83182 21491 83610 10187 20184 39272 40110 76166 887// 333 10206 58027 60251;
0201831820999992000121712004-11290-041860FM-12+074799999V0203201N003610042019N0002001N1+01931+01881101321ADDAA124066091AY161061AY261061GF108991081071004501999999KA1240N+01811MA1999999092911MD1999999+0391MW1611REMSYN088AAXX  17124 83182 21492 83207 10193 20188 39291 40132 76166 887// 333 20181 58039 60664;
0176831820999992000121718004-11290-041860FM-12+074799999V0203601N005110042019N0020001N1+02171+01911101101ADDAA199000021AY121061AY221061GF108991081071004501999999MA1999999092741MD1999999+0341MW1161REMSYN076AAXX  17184 83182 31495 83610 10217 20191 39274 40110 71622 887// 333 58034;
0201831820999992000121800004-11290-041860FM-12+074799999V0203601N001010042019N0002001N1+01981+01931101371ADDAA106007191AY161061AY261061GF108991081071004501999999KA1240M+02201MA1999999092961MD1999999+0421MW1611REMSYN088AAXX  18004 83182 21492 83602 10198 20193 39296 40137 76166 887// 333 10220 58042 60071;
0201831820999992000121812004-11290-041860FM-12+074799999V0202701N001510042019N0040001N1+02141+01991101491ADDAA124013091AY161061AY261061GF108991061071004501021999KA1240N+01831MA1999999093111MD1999999+0201MW1021REMSYN088AAXX  18124 83182 21496 82703 10214 20199 39311 40149 70266 8672/ 333 20183 58020 60134;
0167831820999992000121818004-11290-041860FM-12+074799999V0203201N002610450019N0100001N1+02521+02021101131ADDAA199000091GF108991011031008001061011MA1999999092791MD1999999+0051REMSYN070AAXX  18184 83182 32597 83205 10252 20202 39279 40113 81361 333 58005;EQDQ01  00002PRCP99
0186831820999992000121900004-11290-041860FM-12+074799999V0200901N002110450019N0005001N1+02101+01931101461ADDAA199000091GF106991041051008001061011KA1240M+02681MA1999999093071MD1999999+0111REMSYN076AAXX  19004 83182 32593 60904 10210 20193 39307 40146 84561 333 10268 58011;EQDQ01  00002PRCP99
0186831820999992000121912004-11290-041860FM-12+074799999V0200901N001511050019N0100001N1+02551+02011101401ADDAA199000091GF105991021021008001051011KA1240N+01851MA1999999093061MD1999999-0051REMSYN076AAXX  19124 83182 32597 50903 10255 20201 39306 40140 82251 333 20185 59005;EQDQ01  00002PRCP99
0167831820999992000121918004-11290-041860FM-12+074799999V0203601N002110450019N0100001N1+02551+01871100961ADDAA199000091GF108991021021008001061021MA1999999092651MD1999999-0141REMSYN070AAXX  19184 83182 32597 83604 10255 20187 39265 40096 82262 333 59014;EQDQ01  00002PRCP99
0214831820999992000122000004-11290-041860FM-12+074799999V0200901N002110042019N0005001N1+02321+02131101291ADDAA199000091AY121061AY221061GF108991051031004501021999KA1240M+02981MA1999999092981MD1999999-0091MW1131REMSYN082AAXX  20004 83182 31493 80904 10232 20213 39298 40129 71322 8532/ 333 10298 59009;EQDQ01  00002PRCP99
0201831820999992000122012004-11290-041860FM-12+074799999V0201401N003110450019N0100001N1+02401+02011101481ADDAA124029091AY161061AY261061GF108991011021008001051999KA1240N+01871MA1999999093141MD1999999+0081MW1021REMSYN088AAXX  20124 83182 21597 81406 10240 20201 39314 40148 70266 8125/ 333 20187 58008 60294;
0167831820999992000122018004-11290-041860FM-12+074799999V0201401N003610450019N0100001N1+02671+02051101121ADDAA199000091GF108991021031008001061011MA1999999092801MD1999999+0151REMSYN070AAXX  20184 83182 32597 81407 10267 20205 39280 40112 82361 333 58015;EQDQ01  00002PRCP99
0186831820999992000122112004-11290-041860FM-12+074799999V0200901N002612200019N0100001N1+02521+02021101561ADDAA199000091GF108991011001017501041011KA1240N+01921MA1999999093211MD1999999+0071REMSYN076AAXX  21124 83182 32797 80905 10252 20202 39321 40156 81041 333 20192 58007;EQDQ01  00002PRCP99
0167831820999992000122118004-11290-041860FM-12+074799999V0200501N001510450019N0100001N1+02911+01911101081ADDAA199000091GF106991031021008001041011MA1999999092801MD1999999+0001REMSYN070AAXX  21184 83182 32597 60503 10291 20191 39280 40108 83241 333 58000;EQDQ01  00002PRCP99
0214831820999992000122200004-11290-041860FM-12+074799999V0201401N001510450019N0005001N1+02231+02061101411ADDAA199000091AY121061AY221061GF108991021031008001061011KA1240M+03031MA1999999093081MD1999999+0061MW1131REMSYN082AAXX  22004 83182 31593 81403 10223 20206 39308 40141 71322 82361 333 10303 58006;EQDQ01  00002PRCP99
0173831820999992000122212004-11290-041860FM-12+074799999V0201401N003611050019N0040001N1+02391+02081101561ADDAA124000591GF108991031021008001001061KA1240N+01931MA1999999093201MD1999999-0011REMSYN082AAXX  22124 83182 22596 81407 10239 20208 39320 40156 83206 333 20193 59001 69964;
0167831820999992000122218004-11290-041860FM-12+074799999V0201401N002612200019N0100001N1+02811+01851101131ADDAA199000091GF107991011021008001001011MA1999999092841MD1999999+0041REMSYN070AAXX  22184 83182 32597 71405 10281 20185 39284 40113 81201 333 58004;EQDQ01  00002PRCP99
0186831820999992000122300004-11290-041860FM-12+074799999V0200901N002119999999N0005001N1+02151+01941101401ADDAA199000091GF106991001001999999001011KA1240M+02931MA1999999093051MD1999999-0031REMSYN076AAXX  23004 83182 32993 60904 10215 20194 39305 40140 80001 333 10293 59003;EQDQ01  00002PRCP99
0186831820999992000122312004-11290-041860FM-12+074799999V0200901N003112200019N0040001N1+02351+01841101621ADDAA199000091GF102991011021008001001011KA1240N+01771MA1999999093251MD1999999+0051REMSYN076AAXX  23124 83182 32596 20906 10235 20184 39325 40162 81201 333 20177 58005;EQDQ01  00002PRCP99
0167831820999992000122318004-11290-041860FM-12+074799999V0201401N003112200019N0100001N1+02881+01731101181ADDAA199000091GF103991031021008001001001MA1999999092861MD1999999+0021REMSYN070AAXX  23184 83182 32597 31406 10288 20173 39286 40118 83200 333 58002;EQDQ01  00002PRCP99
0186831820999992000122400004-11290-041860FM-12+074799999V0200901N003112200019N0005001N1+02151+01751101371ADDAA199000091GF103991001001999999001011KA1240M+02981MA1999999093011MD1999999-0041REMSYN076AAXX  24004 83182 32993 30906 10215 20175 39301 40137 80001 333 10298 59004;EQDQ01  00002PRCP99
0186831820999992000122412004-11290-041860FM-12+074799999V0200901N005112200019N0100001N1+02471+01951101521ADDAA199000091GF101991011011012501001001KA1240N+01871MA1999999093161MD1999999-0091REMSYN076AAXX  24124 83182 32697 10910 10247 20195 39316 40152 81100 333 20187 59009;EQDQ01  00002PRCP99
0195831820999992000122418004-11290-041860FM-12+074799999V0200901N003110450019N0040001N1+02731+01911101121ADDAA199000091AY161061AY221061GF108991031031008001061011MA1999999092811MD1999999-0051MW1161REMSYN076AAXX  24184 83182 31596 80906 10273 20191 39281 40112 71662 83361 333 59005;EQDQ01  00002PRCP99
0186831820999992000122500004-11290-041860FM-12+074799999V0201401N003112200019N0005001N1+02181+01901101341ADDAA199000091GF105991021021008001001011KA1240M+02831MA1999999093001MD1999999-0011REMSYN076AAXX  25004 83182 32593 51406 10218 20190 39300 40134 82201 333 10283 59001;EQDQ01  00002PRCP99
0173831820999992000122512004-11290-041860FM-12+074799999V0201401N003610075019N0100001N1+02171+01711101701ADDAA124000191GF106991061021008001001001KA1240N+01791MA1999999093311MD1999999+0151REMSYN082AAXX  25124 83182 22597 61407 10217 20171 39331 40170 86200 333 20179 58015 69914;
0167831820999992000122518004-11290-041860FM-12+074799999V0200901N004112200019N0100001N1+02701+01661101261ADDAA199000091GF103991031021008001001001MA1999999092941MD1999999+0131REMSYN070AAXX  25184 83182 32597 30908 10270 20166 39294 40126 83200 333 58013;EQDQ01  00002PRCP99
0196831820999992000122600004-11290-041860FM-12+074799999V0201401N003612200019N0005001N1+02121+01801101421ADDAA199000091GA1001+999999999GF100991001001999999001001KA1240M+02741MA1999999093051MD1999999+0051REMSYN070AAXX  26004 83182 32993 01407 10212 20180 39305 40142 333 10274 58005;EQDQ01  00002PRCP99
0186831820999992000122612004-11290-041860FM-12+074799999V02099999999990075019N0100001N1+02341+01831101581ADDAA199000091GF106991061021008001001001KA1240N+01841MA1999999093211MD1999999-0101REMSYN076AAXX  26124 83182 32597 614// 10234 20183 39321 40158 86200 333 20184 59010;EQDQ01  00002PRCP99
0167831820999992000122618004-11290-041860FM-12+074799999V02099999999992200019N0100001N1+02781+01761101131ADDAA199000091GF105991031021008001001011MA1999999092821MD1999999-0121REMSYN070AAXX  26184 83182 32597 509// 10278 20176 39282 40113 83201 333 59012;EQDQ01  00002PRCP99
0186831820999992000122700004-11290-041860FM-12+074799999V02099999999992200019N9999999N1+02131+01891101391ADDAA199000091GF102991001001999999001011KA1240M+02841MA1999999093031MD1999999-0021REMSYN076AAXX  27004 83182 329// 209// 10213 20189 39303 40139 80001 333 10284 59002;EQDQ01  00002PRCP99
0186831820999992000122712004-11290-041860FM-12+074799999V02099999999992200019N0100001N1+02341+01671101451ADDAA199000091GF101991011011012501001001KA1240N+01811MA1999999093091MD1999999-0121REMSYN076AAXX  27124 83182 32697 109// 10234 20167 39309 40145 81100 333 20181 59012;EQDQ01  00002PRCP99
0167831820999992000122718004-11290-041860FM-12+074799999V02099999999992200019N0100001N1+02911+01631101121ADDAA199000091GF101991011021008001001001MA1999999092821MD1999999+0001REMSYN070AAXX  27184 83182 32597 114// 10291 20163 39282 40112 81200 333 58000;EQDQ01  00002PRCP99
0186831820999992000122812004-11290-041860FM-12+074799999V02099999999992200019N0100001N1+02541+01951101481ADDAA199000091GF102991021021008001001001KA1240N+01801MA1999999093141MD1999999+0051REMSYN076AAXX  28124 83182 32597 209// 10254 20195 39314 40148 82200 333 20180 58005;EQDQ01  00002PRCP99
0167831820999992000122818004-11290-041860FM-12+074799999V02099999999992200019N0100001N1+02861+01781101081ADDAA199000091GF102991021021008001001001MA1999999092771MD1999999-0051REMSYN070AAXX  28184 83182 32597 209// 10286 20178 39277 40108 82200 333 59005;EQDQ01  00002PRCP99
0196831820999992000122900004-11290-041860FM-12+074799999V02099999999992200019N0005001N1+02211+01791101271ADDAA199000091GA1001+999999999GF100991001001999999001001KA1240M+02921MA1999999092951MD1999999-0161REMSYN070AAXX  29004 83182 32/93 009// 10221 20179 39295 40127 333 10292 59016;EQDQ01  00002PRCP99
0186831820999992000122912004-11290-041860FM-12+074799999V02099999999999999999N0040001N1+02481+02011101411ADDAA199000091GF108991001001999999001011KA1240N+01821MA1999999093471MD1999999-0071REMSYN076AAXX  29124 83182 32996 809// 10248 20201 39347 40141 80001 333 20182 59007;EQDQ01  00002PRCP99
0195831820999992000122918004-11290-041860FM-12+074799999V02099999999992200019N0020001N1+02991+01811101001ADDAA199000091AY121061AY221061GF107991011031008001001011MA1999999092711MD1999999-0061MW1161REMSYN076AAXX  29184 83182 31595 736// 10299 20181 39271 40100 71622 81301 333 59006;EQDQ01  00002PRCP99
0186831820999992000123000004-11290-041860FM-12+074799999V02099999999999999999N0005001N1+02221+02011101261ADDAA199000091GF106991001001999999001011KA1240M+03051MA1999999092941MD1999999-0011REMSYN076AAXX  30004 83182 32993 614// 10222 20201 39294 40126 80001 333 10305 59001;EQDQ01  00002PRCP99
0186831820999992000123012004-11290-041860FM-12+074799999V0201401N002112200019N0040001N1+02431+02001101451ADDAA199000091GF104991001001999999001011KA1240N+01791MA1999999093101MD1999999+0031REMSYN076AAXX  30124 83182 32996 41404 10243 20200 39310 40145 80001 333 20179 58003;EQDQ01  00002PRCP99
0167831820999992000123018004-11290-041860FM-12+074799999V0200501N002112200019N0100001N1+02971+01501101011ADDAA199000091GF104991011021008001001011MA1999999092721MD1999999+0011REMSYN070AAXX  30184 83182 32597 40504 10297 20150 39272 40101 81201 333 58001;EQDQ01  00002PRCP99
0186831820999992000123100004-11290-041860FM-12+074799999V0201801N001010075019N0005001N1+02431+01851101241ADDAA199000091GF108991051021008001001011KA1240M+03011MA1999999092941MD1999999+0001REMSYN076AAXX  31004 83182 32593 81802 10243 20185 39294 40124 85201 333 10301 58000;EQDQ01  00002PRCP99
0214831820999992000123112004-11290-041860FM-12+074799999V0201801N002110450019N0200001N1+02331+01921101441ADDAA199000091AY121061AY221061GF108991031021008001011011KA1240N+02041MA1999999093111MD1999999+0011MW1051REMSYN082AAXX  31124 83182 31598 81804 10233 20192 39311 40144 70522 83211 333 20204 58001;EQDQ01  00002PRCP99
0195831820999992000123118004-11290-041860FM-12+074799999V0200501N002110450019N0200001N1+02731+01911101041ADDAA199000091AY121061AY221061GF108991021031008001011011MA1999999092751MD1999999+0031MW1151REMSYN076AAXX  31184 83182 31598 80504 10273 20191 39275 40104 71522 82311 333 58003;EQDQ01  00002PRCP99
