0201832420999992000010100004-12570-041380FM-12+042799999V0203601N000510042019N9999999N1+02171+02111100961ADDAA106009991AY161061AY221061GF108991081061004501999999KA1240M+02961MA1999999096131MD1999999-0171MW1621REMSYN088AAXX  01004 83242 214// 83601 10217 20211 39613 40096 76262 886// 333 10296 59017 60101;
0201832420999992000010112004-12570-041380FM-12+042799999V0203601N000510042019N0040001N1+02321+02001101011ADDAA124022191AY161061AY221061GF108991081071004501999999KA1240N+02071MA1999999096191MD1999999-0101MW1021REMSYN088AAXX  01124 83242 21496 83601 10232 20200 39619 40101 70262 887// 333 20207 59010 60224;
0167832420999992000010118004-12570-041380FM-12+042799999V0202701N001010042019N0100001N1+02771+02091100581ADDAA106000091GF107991061071004501051001MA1999999095811MD1999999-0021REMSYN070AAXX  01184 83242 32497 72702 10277 20209 39581 40058 86750 333 59002;EQDQ01  00002PRCP06
0196832420999992000010200004-12570-041380FM-12+042799999V0201801N000512200019N9999999N1+02311+02131100811ADDAA106000091GA1001+999999999GF100991001001999999001001KA1240M+02901MA1999999096011MD1999999-0121REMSYN070AAXX  02004 83242 329// 01801 10231 20213 39601 40081 333 10290 59012;EQDQ01  00002PRCP06
0186832420999992000010212004-12570-041380FM-12+042799999V0201801N001010042019N0040001N1+02381+01911100971ADDAA106000091GF108991071071004501001071KA1240N+02131MA1999999096171MD1999999-0021REMSYN076AAXX  02124 83242 32496 81802 10238 20191 39617 40097 87707 333 20213 59002;EQDQ01  00002PRCP06
0182832420999992000010218004-12570-041380FM-12+042799999V0201801N001011050019N0040001N1+02731+01891100571ADDAA106000191AY151061AY221061GF107991041071004501001031MA1999999095811MD1999999+0001MW1031REMSYN082AAXX  02184 83242 21496 71802 10273 20189 39581 40057 70352 84703 333 58000 69921;
0186832420999992000010300004-12570-041380FM-12+042799999V0201801N001012200019N9999999N1+02291+02091100801ADDAA106000091GF102991021031022501001091KA1240M+02821MA1999999096011MD1999999+0001REMSYN076AAXX  03004 83242 328// 21802 10229 20209 39601 40080 82309 333 10282 58000;EQDQ01  00002PRCP06
0185832420999992000010312004-12570-041380FM-12+042799999V0201801N001010042019N0020001N1+02321+02021100971ADDAA124000191GF108991081071004501999999KA1240N+02071MA1999999096161MD1999999-0011MW1401REMSYN088AAXX  03124 83242 21495 81802 10232 20202 39616 40097 740// 887// 333 20207 59001 69924;
0167832420999992000010318004-12570-041380FM-12+042799999V0201801N001010042019N0100001N1+02651+02041100601ADDAA106000091GF107991061071004501051001MA1999999095841MD1999999+0031REMSYN070AAXX  03184 83242 32497 71802 10265 20204 39584 40060 86750 333 58003;EQDQ01  00002PRCP06
0167832420999992000010418004-12570-041380FM-12+042799999V0201801N001012200019N0100001N1+02961+01991100611ADDAA106000091GF104991031021004501001011MA1999999095871MD1999999+0031REMSYN070AAXX  04184 83242 32497 41802 10296 20199 39587 40061 83201 333 58003;EQDQ01  00002PRCP06
0198832420999992000010500004-12570-041380FM-12+042799999V0201801N001012200019N9999999N1+02531+01981100831ADDAA106000091GF103991031041004501001001KA1240M+03031MA1999999096061MD1999999+0181MW1131REMSYN082AAXX  05004 83242 314// 31802 10253 20198 39606 40083 713// 83400 333 10303 58018;EQDQ01  00002PRCP06
0198832420999992000010512004-12570-041380FM-12+042799999V0201801N000510042019N0020001N1+02351+02031101031ADDAA106000091GF108991081071004501999999KA1240N+02171MA1999999096251MD1999999-0041MW1401REMSYN082AAXX  05124 83242 31495 81801 10235 20203 39625 40103 740// 887// 333 20217 59004;EQDQ01  00002PRCP06
0179832420999992000010518004-12570-041380FM-12+042799999V0201801N002110450019N0100001N1+02941+01911100711ADDAA106000091GF105991031051004501051011MA1999999095971MD1999999+0101MW1171REMSYN076AAXX  05184 83242 31497 51804 10294 20191 39597 40071 717// 83551 333 58010;EQDQ01  00002PRCP06
0198832420999992000010612004-12570-041380FM-12+042799999V0201801N002110450019N0040001N1+02371+01951101141ADDAA106000091GF106991031041004501031011KA1240N+02111MA1999999096351MD1999999+0101MW1401REMSYN082AAXX  06124 83242 31496 61804 10237 20195 39635 40114 740// 83431 333 20211 58010;EQDQ01  00002PRCP06
0186832420999992000010700004-12570-041380FM-12+042799999V0200901N001010450019N9999999N1+02441+01951100911ADDAA106000091GF108991031021004501061001KA1240M+03031MA1999999096121MD1999999-0081REMSYN076AAXX  07004 83242 324// 80902 10244 20195 39612 40091 83260 333 10303 59008;EQDQ01  00002PRCP06
0198832420999992000010712004-12570-041380FM-12+042799999V0201801N000510042019N0040001N1+02461+01811101111ADDAA106000091GF105991051031004501001001KA1240N+02131MA1999999096321MD1999999-0031MW1401REMSYN082AAXX  07124 83242 31496 51801 10246 20181 39632 40111 740// 85300 333 20213 59003;EQDQ01  00002PRCP06
0167832420999992000010718004-12570-041380FM-12+042799999V0201801N001012200019N0100001N1+02891+01931100721ADDAA106000091GF104991031031004501021001MA1999999095971MD1999999-0121REMSYN070AAXX  07184 83242 32497 41802 10289 20193 39597 40072 83320 333 59012;EQDQ01  00002PRCP06
0186832420999992000010800004-12570-041380FM-12+042799999V0200901N000510042019N9999999N1+02501+02001100831ADDAA106000091GF106991061021004501001001KA1240M+02961MA1999999096071MD1999999-0051REMSYN076AAXX  08004 83242 324// 60901 10250 20200 39607 40083 86200 333 10296 59005;EQDQ01  00002PRCP06
0201832420999992000010812004-12570-041380FM-12+042799999V0200901N001510042019N0010001N1+02231+02101101151ADDAA124000191AY151061AY241061GF107991051071004501051091KA1240N+02091MA1999999096361MD1999999+0041MW1031REMSYN088AAXX  08124 83242 21494 70903 10223 20210 39636 40115 70354 85759 333 20209 58004 69914;
0182832420999992000010818004-12570-041380FM-12+042799999V0202301N001510450019N0100001N1+02561+02291100781ADDAA106004191AY191061AY261061GF105991031071004501051031MA1999999096001MD1999999+0061MW1031REMSYN082AAXX  08184 83242 21497 52303 10256 20229 39600 40078 70396 83753 333 58006 60041;
0201832420999992000010912004-12570-041380FM-12+042799999V0201801N002610042019N0020001N1+02251+01921101341ADDAA124006191AY151061AY241061GF108991081071004501999999KA1240N+02001MA1999999096501MD1999999+0141MW1021REMSYN088AAXX  09124 83242 21495 81805 10225 20192 39650 40134 70254 887// 333 20200 58014 60064;
0182832420999992000010918004-12570-041380FM-12+042799999V0200901N000510450019N0100001N1+02621+02031101051ADDAA106000891AY151061AY221061GF107991021071004501011041MA1999999096241MD1999999+0241MW1031REMSYN082AAXX  09184 83242 21497 70901 10262 20203 39624 40105 70352 82714 333 58024 69981;
0186832420999992000011000004-12570-041380FM-12+042799999V0200901N000512200019N9999999N1+02181+02011101171ADDAA106000091GF102991021001022501031001KA1240M+02761MA1999999096331MD1999999+0011REMSYN076AAXX  10004 83242 328// 20901 10218 20201 39633 40117 82030 333 10276 58001;EQDQ01  00002PRCP06
0201832420999992000011012004-12570-041380FM-12+042799999V0200901N001010042019N0040001N1+02331+02031101251ADDAA124002091AY151061AY241061GF107991061071004501061001KA1240N+02071MA1999999096421MD1999999-0081MW1151REMSYN088AAXX  10124 83242 21496 70902 10233 20203 39642 40125 71554 86760 333 20207 59008 60024;
0167832420999992000011018004-12570-041380FM-12+042799999V0201801N001510450019N0100001N1+02821+02051100801ADDAA106000091GF106991041041004501031001MA1999999096031MD1999999-0211REMSYN070AAXX  10184 83242 32497 61803 10282 20205 39603 40080 84430 333 59021;EQDQ01  00002PRCP06
0201832420999992000011100004-12570-041380FM-12+042799999V0200901N001010042019N9999999N1+02241+02161101071ADDAA106000391AY151061AY221061GF108991081071004501999999KA1240M+03041MA1999999096261MD1999999-0071MW1021REMSYN088AAXX  11004 83242 214// 80902 10224 20216 39626 40107 70252 887// 333 10304 59007 69931;
0201832420999992000011112004-12570-041380FM-12+042799999V0201801N002610042019N0040001N1+02301+01961101271ADDAA124000391AY151061AY221061GF107991071071004501001001KA1240N+02051MA1999999096441MD1999999-0021MW1401REMSYN088AAXX  11124 83242 21496 71805 10230 20196 39644 40127 74052 87700 333 20205 59002 69934;
0167832420999992000011118004-12570-041380FM-12+042799999V0201401N001510450019N0100001N1+02841+01961100821ADDAA106000091GF105991031021004501041021MA1999999096051MD1999999+0021REMSYN070AAXX  11184 83242 32497 51403 10284 20196 39605 40082 83242 333 58002;EQDQ01  00002PRCP06
0201832420999992000011200004-12570-041380FM-12+042799999V0200501N001510042019N9999999N1+02181+02061101001ADDAA106000591AY151061AY221061GF108991081071004501999999KA1240M+02921MA1999999096181MD1999999-0081MW1501REMSYN088AAXX  12004 83242 214// 80503 10218 20206 39618 40100 75052 887// 333 10292 59008 69961;
0201832420999992000011212004-12570-041380FM-12+042799999V0201801N002110042019N0040001N1+02241+01921101191ADDAA124000891AY151061AY221061GF108991081071004501999999KA1240N+02091MA1999999096311MD1999999-0091MW1401REMSYN088AAXX  12124 83242 21496 81804 10224 20192 39631 40119 74052 887// 333 20209 59009 69984;
0167832420999992000011218004-12570-041380FM-12+042799999V0202301N001010450019N0100001N1+02801+02031100801ADDAA106000091GF106991041041004501061011MA1999999096031MD1999999-0021REMSYN070AAXX  12184 83242 32497 62302 10280 20203 39603 40080 84461 333 59002;EQDQ01  00002PRCP06
0186832420999992000011300004-12570-041380FM-12+042799999V0203601N000510450019N9999999N1+02221+01871100931ADDAA106000091GF106991041071004501051031KA1240M+02981MA1999999096111MD1999999-0071REMSYN076AAXX  13004 83242 324// 63601 10222 20187 39611 40093 84753 333 10298 59007;EQDQ01  00002PRCP06
0186832420999992000011312004-12570-041380FM-12+042799999V0201801N001010450019N0200001N1+02381+01951101281ADDAA106000091GF106991041061004501041001KA1240N+02401MA1999999096461MD1999999+0111REMSYN076AAXX  13124 83242 32498 61802 10238 20195 39646 40128 84640 333 20240 58011;EQDQ01  00002PRCP06
0167832420999992000011318004-12570-041380FM-12+042799999V0201401N002110450019N0200001N1+03031+01531100781ADDAA106000091GF105991031021004501031011MA1999999096051MD1999999+0021REMSYN070AAXX  13184 83242 32498 51404 10303 20153 39605 40078 83231 333 58002;EQDQ01  00002PRCP06
0190832420999992000011400004-12570-041380FM-12+042799999V0202701N001012200019N9999999N1+02351+01801100901ADDAA199000091GF101991001001999999001021KA1240M+03101MA1999999096101MD1999999-0011REMSYN080    AAXX  14004 83242 329// 12702 10235 20180 39610 40090 80002 333 10310 59001;EQDQ01  00002PRCP99
0190832420999992000011412004-12570-041380FM-12+042799999V0201801N001510042019N0100001N1+02341+01951101181ADDAA199000091GF108991081071004501999999KA1240N+02171MA1999999096371MD1999999-0091REMSYN080    AAXX  14124 83242 32497 81803 10234 20195 39637 40118 887// 333 20217 59009;EQDQ01  00002PRCP99
0171832420999992000011418004-12570-041380FM-12+042799999V0201401N001012200019N0100001N1+02941+01971100681ADDAA199000091GF103991031011004501001001MA1999999095941MD1999999-0111REMSYN074    AAXX  14184 83242 32497 31402 10294 20197 39594 40068 83100 333 59011;EQDQ01  00002PRCP99
0200832420999992000011500004-12570-041380FM-12+042799999V0200501N000512200019N9999999N1+02421+01911100721ADDAA199000091GA1001+999999999GF100991001001999999001001KA1240M+03061MA1999999095941MD1999999-0161REMSYN074    AAXX  15004 83242 329// 00501 10242 20191 39594 40072 333 10306 59016;EQDQ01  00002PRCP99
0190832420999992000011512004-12570-041380FM-12+042799999V0202701N000510042019N0100001N1+02421+01931101001ADDAA199000091GF106991051021004501031001KA1240N+02171MA1999999096211MD1999999-0161REMSYN080    AAXX  15124 83242 32497 62701 10242 20193 39621 40100 85230 333 20217 59016;EQDQ01  00002PRCP99
0171832420999992000011518004-12570-041380FM-12+042799999V0202301N002112200019N0100001N1+02981+01861100561ADDAA199000091GF102991021011004501001001MA1999999095841MD1999999-0101REMSYN074    AAXX  15184 83242 32497 22304 10298 20186 39584 40056 82100 333 59010;EQDQ01  00002PRCP99
0200832420999992000011600004-12570-041380FM-12+042799999V0200901N000512200019N9999999N1+02381+01891100671ADDAA199000091GA1001+999999999GF100991001001999999001001KA1240M+03121MA1999999095891MD1999999-0051REMSYN074    AAXX  16004 83242 329// 00901 10238 20189 39589 40067 333 10312 59005;EQDQ01  00002PRCP99
0190832420999992000011612004-12570-041380FM-12+042799999V0201401N001012200019N0100001N1+02581+01641100991ADDAA199000091GF102991011011004501001021KA1240N+01991MA1999999096221MD1999999+0011REMSYN080    AAXX  16124 83242 32497 21402 10258 20164 39622 40099 81102 333 20199 58001;EQDQ01  00002PRCP99
0171832420999992000011618004-12570-041380FM-12+042799999V0201801N001511050019N0100001N1+03111+01851100511ADDAA199000091GF106991011031004501001021MA1999999095781MD1999999-0061REMSYN074    AAXX  16184 83242 32497 61803 10311 20185 39578 40051 81302 333 59006;EQDQ01  00002PRCP99
0202832420999992000011700004-12570-041380FM-12+042799999V0202301N001012200019N9999999N1+02581+02061100781ADDAA199000091GF102991011071004501051001KA1240M+03221MA1999999096041MD1999999+0151MW1131REMSYN086    AAXX  17004 83242 314// 22302 10258 20206 39604 40078 713// 81750 333 10322 58015;EQDQ01  00002PRCP99
0202832420999992000011712004-12570-041380FM-12+042799999V0201801N001510450019N0040001N1+02501+01941101081ADDAA199000091GF106991031041004501061001KA1240N+02051MA1999999096311MD1999999-0091MW1401REMSYN086    AAXX  17124 83242 31496 61803 10250 20194 39631 40108 740// 83460 333 20205 59009;EQDQ01  00002PRCP99
0171832420999992000011718004-12570-041380FM-12+042799999V0201401N001510042019N0100001N1+02701+01991100831ADDAA199000091GF107991071071004501001001MA1999999096051MD1999999+0271REMSYN074    AAXX  17184 83242 32497 71403 10270 20199 39605 40083 87700 333 58027;EQDQ01  00002PRCP99
0200832420999992000011800004-12570-041380FM-12+042799999V0200901N000512200019N9999999N1+02361+01991100961ADDAA199000091GA1001+999999999GF100991001001999999001001KA1240M+02861MA1999999096181MD1999999+0141REMSYN074    AAXX  18004 83242 329// 00901 10236 20199 39618 40096 333 10286 58014;EQDQ01  00002PRCP99
0202832420999992000011812004-12570-041380FM-12+042799999V0201801N000510042019N0040001N1+02421+01931101291ADDAA199000091GF108991081071004501999999KA1240N+02011MA1999999096491MD1999999+0181MW1401REMSYN086    AAXX  18124 83242 31496 81801 10242 20193 39649 40129 740// 887// 333 20201 58018;EQDQ01  00002PRCP99
0171832420999992000011818004-12570-041380FM-12+042799999V0201401N001010042019N0100001N1+02961+01991100801ADDAA199000091GF105991051061004501001001MA1999999096041MD1999999-0011REMSYN074    AAXX  18184 83242 32497 51402 10296 20199 39604 40080 85600 333 59001;EQDQ01  00002PRCP99
0162832420999992000011900004-12570-041380FM-12+042799999V0203601N001012200019N9999999N1+02541+02061100901ADDAA199000091GF102991021021004501001001MA1999999096131REMSYN079    AAXX  19004 83242 324// 23602 10254 20206 39613 40090 82200 333 1014 59005;EQDQ01  00002PRCP99
0202832420999992000011912004-12570-041380FM-12+042799999V0201401N001010042019N0040001N1+02461+02091101161ADDAA199000091GF108991081071004501999999KA1240N+02171MA1999999096381MD1999999-0111MW1401REMSYN086    AAXX  19124 83242 31496 81402 10246 20209 39638 40116 740// 887// 333 20217 59011;EQDQ01  00002PRCP99
0167832420999992000011918004-12570-041380FM-12+042799999V0201401N000512200019N0100001N1+03381+02061100431ADDAA199000091GF103991021021004501061001MA1999999095741MD1999999-0301REMSYN070AAXX  19184 83242 32497 31401 10338 20206 39574 40043 82260 333 59030;EQDQ01  00002PRCP99
0186832420999992000012000004-12570-041380FM-12+042799999V0202701N000512200019N9999999N1+02681+01971100691ADDAA199000091GF102991011041004501051001KA1240M+03491MA1999999095941MD1999999-0191REMSYN076AAXX  20004 83242 324// 22701 10268 20197 39594 40069 81450 333 10349 59019;EQDQ01  00002PRCP99
0186832420999992000012012004-12570-041380FM-12+042799999V0201401N000512200019N0100001N1+02701+02131100811ADDAA199000091GF104991021021004501031011KA1240N+02151MA1999999096091MD1999999-0291REMSYN076AAXX  20124 83242 32497 41401 10270 20213 39609 40081 82231 333 20215 59029;EQDQ01  00002PRCP99
0182832420999992000012018004-12570-041380FM-12+042799999V0201401N000510450019N0100001N1+02651+02271100471ADDAA106000791AY191061AY211061GF107991031051004501061001MA1999999095701MD1999999-0041MW1031REMSYN082AAXX  20184 83242 21497 71401 10265 20227 39570 40047 70391 83560 333 59004 69901;
0186832420999992000012100004-12570-041380FM-12+042799999V0200501N000511050019N9999999N1+02441+02131100741ADDAA199000091GF106991011031004501051031KA1240M+03261MA1999999095991MD1999999+0051REMSYN076AAXX  21004 83242 324// 60501 10244 20213 39599 40074 81353 333 10326 58005;EQDQ01  00002PRCP99
0201832420999992000012112004-12570-041380FM-12+042799999V0201401N000510042019N0100001N1+02361+02171100761ADDAA124000591AY151061AY241061GF107991051071004501031001KA1240N+02051MA1999999095981MD1999999-0111MW1031REMSYN088AAXX  21124 83242 21497 71401 10236 20217 39598 40076 70354 85730 333 20205 59011 69944;
0167832420999992000012118004-12570-041380FM-12+042799999V0200501N002610450019N0100001N1+03061+01931100461ADDAA199000091GF106991021031004501061001MA1999999095721MD1999999+0021REMSYN070AAXX  21184 83242 32497 60505 10306 20193 39572 40046 82360 333 58002;EQDQ01  00002PRCP99
0201832420999992000012200004-12570-041380FM-12+042799999V0201801N000510042019N9999999N1+02381+02171100941ADDAA106000791AY151061AY221061GF108991081071004501999999KA1240M+03211MA1999999096141MD1999999+0151MW1021REMSYN088AAXX  22004 83242 214// 81801 10238 20217 39614 40094 70252 887// 333 10321 58015 69901;
0201832420999992000012212004-12570-041380FM-12+042799999V0200501N002610042019N0100001N1+02521+01841101031ADDAA124000791AY151061AY221061GF106991061071004501001001KA1240N+02211MA1999999096251MD1999999+0271MW1031REMSYN088AAXX  22124 83242 32497 60505 10252 20184 39625 40103 70352 86700 333 20221 58027 69904;
0167832420999992000012218004-12570-041380FM-12+042799999V0203201N004110450019N0100001N1+03041+01681100581ADDAA199000091GF106991041061004501051001MA1999999095851MD1999999+0131REMSYN070AAXX  22184 83242 32497 63208 10304 20168 39585 40058 84650 333 58013;EQDQ01  00002PRCP99
0198832420999992000012300004-12570-041380FM-12+042799999V0203201N002610042019N9999999N1+02761+01971100781ADDAA199000091GF108991081071004501999999KA1240M+03201MA1999999096051MD1999999-0091MW1131REMSYN082AAXX  23004 83242 314// 83205 10276 20197 39605 40078 713// 887// 333 10320 59009;EQDQ01  00002PRCP99
0186832420999992000012312004-12570-041380FM-12+042799999V0201401N001010450019N0100001N1+02581+02171100871ADDAA199000091GF106991021021004501031001KA1240N+02281MA1999999096131MD1999999-0121REMSYN076AAXX  23124 83242 32497 61402 10258 20217 39613 40087 82230 333 20228 59012;EQDQ01  00002PRCP99
0182832420999992000012318004-12570-041380FM-12+042799999V0203601N002610042019N0100001N1+03111+01791100431ADDAA106005191AY191061AY261061GF107991051071004501051031MA1999999095731MD1999999-0121MW1031REMSYN082AAXX  23184 83242 21497 73605 10311 20179 39573 40043 70396 85753 333 59012 60051;
0198832420999992000012400004-12570-041380FM-12+042799999V0203601N001010042019N9999999N1+02481+02111100881ADDAA199000091GF108991081071004501999999KA1240M+03181MA1999999096121MD1999999+0071MW1131REMSYN082AAXX  24004 83242 314// 83602 10248 20211 39612 40088 713// 887// 333 10318 58007;EQDQ01  00002PRCP99
0201832420999992000012412004-12570-041380FM-12+042799999V0201401N001010090019N0040001N1+02461+02011100991ADDAA124010991AY161061AY221061GF106991061081004501031001KA1240N+02111MA1999999096211MD1999999+0081MW1401REMSYN088AAXX  24124 83242 21496 61402 10246 20201 39621 40099 74062 86830 333 20211 58008 60114;
0201832420999992000012500004-12570-041380FM-12+042799999V0203601N003110042019N9999999N1+02161+02081100941ADDAA106034091AY191061AY261061GF108991081071004501999999KA1240M+03021MA1999999096131MD1999999+0011MW1131REMSYN088AAXX  25004 83242 214// 83606 10216 20208 39613 40094 71396 887// 333 10302 58001 60341;
0201832420999992000012512004-12570-041380FM-12+042799999V0201101N021610042019N0020001N1+02311+02241101191ADDAA124039191AY161061AY241061GF108991081071004501999999KA1240N+02071MA1999999096361MD1999999+0151MW1401REMSYN088AAXX  25124 83242 21495 81142 10231 20224 39636 40119 74064 887// 333 20207 58015 60394;
0167832420999992000012518004-12570-041380FM-12+042799999V0201401N002110450019N0100001N1+03021+02181100651ADDAA199000091GF106991041041004501031001MA1999999095901MD1999999+0041REMSYN070AAXX  25184 83242 32497 61404 10302 20218 39590 40065 84430 333 58004;EQDQ01  00002PRCP99
0186832420999992000012600004-12570-041380FM-12+042799999V0200901N001012200019N9999999N1+02491+02291100931ADDAA199000091GF101991011071004501001001KA1240M+03121MA1999999096141MD1999999+0011REMSYN076AAXX  26004 83242 324// 10902 10249 20229 39614 40093 81700 333 10312 58001;EQDQ01  00002PRCP99
0201832420999992000012612004-12570-041380FM-12+042799999V0201801N000510042019N0020001N1+02321+02181101351ADDAA124000191AY151061AY211061GF108991081071004501999999KA1240N+02281MA1999999096541MD1999999+0151MW1401REMSYN088AAXX  26124 83242 21495 81801 10232 20218 39654 40135 74051 887// 333 20228 58015 69924;
0167832420999992000012618004-12570-041380FM-12+042799999V0201801N001512200019N0100001N1+02961+02051100811ADDAA199000091GF104991031021004501031001MA1999999096081MD1999999+0181REMSYN070AAXX  26184 83242 32497 41803 10296 20205 39608 40081 83230 333 58018;EQDQ01  00002PRCP99
0196832420999992000012700004-12570-041380FM-12+042799999V0201401N000512200019N9999999N1+02471+02151100961ADDAA199000091GA1001+999999999GF100991001001999999001001KA1240M+03091MA1999999096171MD1999999+0031REMSYN070AAXX  27004 83242 329// 01401 10247 20215 39617 40096 333 10309 58003;EQDQ01  00002PRCP99
0186832420999992000012712004-12570-041380FM-12+042799999V0200501N001010042019N0100001N1+02551+02211101171ADDAA199000091GF107991071071004501001001KA1240N+02031MA1999999096391MD1999999-0151REMSYN076AAXX  27124 83242 32497 70502 10255 20221 39639 40117 87700 333 20203 59015;EQDQ01  00002PRCP99
0167832420999992000012718004-12570-041380FM-12+042799999V0200501N002610450019N0100001N1+03151+02141100601ADDAA199000091GF105991031021004501031011MA1999999095881MD1999999-0201REMSYN070AAXX  27184 83242 32497 50505 10315 20214 39588 40060 83231 333 59020;EQDQ01  00002PRCP99
0201832420999992000012800004-12570-041380FM-12+042799999V0201801N002110042019N9999999N1+02661+02181100931ADDAA106002091AY191061AY221061GF106991061071004501999999KA1240M+03401MA1999999096181MD1999999-0011MW1601REMSYN088AAXX  28004 83242 214// 61804 10266 20218 39618 40093 76092 867// 333 10340 59001 60021;
0167832420999992000012818004-12570-041380FM-12+042799999V0200501N003610042019N0100001N1+03141+02161100651ADDAA199000091GF107991051061004501051001MA1999999095951MD1999999+0071REMSYN070AAXX  28184 83242 32497 70507 10314 20216 39595 40065 85650 333 58007;EQDQ01  00002PRCP99
0198832420999992000012900004-12570-041380FM-12+042799999V0202701N000512200019N9999999N1+02521+02291100971ADDAA199000091GF103991031071004501001001KA1240M+03341MA1999999096201MD1999999+0021MW1131REMSYN082AAXX  29004 83242 314// 32701 10252 20229 39620 40097 713// 83700 333 10334 58002;EQDQ01  00002PRCP99
0201832420999992000012912004-12570-041380FM-12+042799999V0201801N001510042019N0020001N1+02481+02111101321ADDAA124009991AY191061AY261061GF107991061071004501051001KA1240N+02171MA1999999096531MD1999999+0161MW1401REMSYN088AAXX  29124 83242 21495 71803 10248 20211 39653 40132 74096 86750 333 20217 58016 60104;
0167832420999992000012918004-12570-041380FM-12+042799999V0201801N001510450019N0100001N1+02961+02211100861ADDAA199000091GF106991031031004501021011MA1999999096111MD1999999+0161REMSYN070AAXX  29184 83242 32497 61803 10296 20221 39611 40086 83321 333 58016;EQDQ01  00002PRCP99
0186832420999992000013000004-12570-041380FM-12+042799999V0201401N000512200019N9999999N1+02541+02211101111ADDAA199000091GF102991021021004501001001KA1240M+03021MA1999999096331MD1999999+0131REMSYN076AAXX  30004 83242 324// 21401 10254 20221 39633 40111 82200 333 10302 58013;EQDQ01  00002PRCP99
0186832420999992000013012004-12570-041380FM-12+042799999V0201801N001012200019N0040001N1+02421+02011101431ADDAA199000091GF105991041021004501001011KA1240N+02151MA1999999096641MD1999999+0011REMSYN076AAXX  30124 83242 32496 51802 10242 20201 39664 40143 84201 333 20215 58001;EQDQ01  00002PRCP99
0167832420999992000013018004-12570-041380FM-12+042799999V0201401N002610450019N0100001N1+03021+01891101061ADDAA199000091GF106991041021004501061021MA1999999096311MD1999999+0201REMSYN070AAXX  30184 83242 32497 61405 10302 20189 39631 40106 84262 333 58020;EQDQ01  00002PRCP99
0196832420999992000013100004-12570-041380FM-12+042799999V0202301N000512200019N9999999N1+02441+01951101231ADDAA199000091GA1001+999999999GF100991001001999999001001KA1240M+03121MA1999999096441MD1999999+0111REMSYN070AAXX  31004 83242 329// 02301 10244 20195 39644 40123 333 10312 58011;EQDQ01  00002PRCP99
0186832420999992000013112004-12570-041380FM-12+042799999V0201801N002611050019N0100001N1+02521+02051101591ADDAA199000091GF105991031021004501001021KA1240N+02211MA1999999096791MD1999999+0151REMSYN076AAXX  31124 83242 32497 51805 10252 20205 39679 40159 83202 333 20221 58015;EQDQ01  00002PRCP99
0167832420999992000013118004-12570-041380FM-12+042799999V0201801N002111050019N0100001N1+03051+01991101101ADDAA199000091GF105991041021004501001021MA1999999096371MD1999999+0061REMSYN070AAXX  31184 83242 32497 51804 10305 20199 39637 40110 84202 333 58006;EQDQ01  00002PRCP99
0196832420999992000020100004-12570-041380FM-12+042799999V0203601N001012200019N9999999N1+02481+01981101131ADDAA199000091GA1001+999999999GF100991001001999999001001KA1240M+03171MA1999999096351MD1999999-0091REMSYN070AAXX  01004 83242 329// 03602 10248 20198 39635 40113 333 10317 59009;EQDQ01  00002PRCP99
0214832420999992000020112004-12570-041380FM-12+042799999V0201401N001010042019N0040001N1+02401+01971101541ADDAA199000091GF107991071061004501001001KA1240N+99999MA1999999096731MD1999999-0061MW1401REMSYN082AAXX  01124 83242 31496 71402 10240 20197 39673 40154 740// 87600 333 20255 59006;EQDQ01  00002PRCP99Q02 +02552ATMN  
0167832420999992000020118004-12570-041380FM-12+042799999V0201401N001012200019N0100001N1+03001+02031100961ADDAA199000091GF103991021011004501001021MA1999999096211MD1999999-0161REMSYN070AAXX  01184 83242 32497 31402 10300 20203 39621 40096 82102 333 59016;EQDQ01  00002PRCP99
0196832420999992000020200004-12570-041380FM-12+042799999V0200901N000512200019N9999999N1+02561+02081100971ADDAA199000091GA1001+999999999GF100991001001999999001001KA1240M+03101MA1999999096201MD1999999-0151REMSYN070AAXX  02004 83242 329// 00901 10256 20208 39620 40097 333 10310 59015;EQDQ01  00002PRCP99
0186832420999992000020212004-12570-041380FM-12+042799999V0200901N000512200019N0100001N1+02621+02031101021ADDAA199000091GF103991011011004501001011KA1240N+01951MA1999999096271MD1999999-0461REMSYN076AAXX  02124 83242 32497 30901 10262 20203 39627 40102 81101 333 20195 59046;EQDQ01  00002PRCP99
0198832420999992000020300004-12570-041380FM-12+042799999V0203201N005112200019N9999999N1+03071+01681100591ADDAA199000091GF102991021061004501001001KA1240M+03521MA1999999095901MD1999999-0301MW1131REMSYN082AAXX  03004 83242 314// 23210 10307 20168 39590 40059 713// 82600 333 10352 59030;EQDQ01  00002PRCP99
0186832420999992000020312004-12570-041380FM-12+042799999V0201401N001010450019N0100001N1+02811+02171100791ADDAA199000091GF106991031021004501031021KA1240N+02211MA1999999096111MD1999999-0161REMSYN076AAXX  03124 83242 32497 61402 10281 20217 39611 40079 83232 333 20221 59016;EQDQ01  00002PRCP99
0167832420999992000020318004-12570-041380FM-12+042799999V0203201N005110450019N0100001N1+03441+02041100261ADDAA199000091GF107991031071004501051031MA1999999095591MD1999999-0221REMSYN070AAXX  03184 83242 32497 73210 10344 20204 39559 40026 83753 333 59022;EQDQ01  00002PRCP99
0198832420999992000020400004-12570-041380FM-12+042799999V0201401N000510042019N9999999N1+02931+02111100481ADDAA199000091GF106991061071004501001001KA1240M+03521MA1999999095801MD1999999-0101MW1131REMSYN082AAXX  04004 83242 324// 61401 10293 20211 39580 40048 713// 86700 333 10352 59010;EQDQ01  00002PRCP99
0186832420999992000020412004-12570-041380FM-12+042799999V0201801N000510450019N0100001N1+02541+02171100841ADDAA199000091GF106991041041004501031001KA1240N+02211MA1999999096121MD1999999+0011REMSYN076AAXX  04124 83242 32497 61801 10254 20217 39612 40084 84430 333 20221 58001;EQDQ01  00002PRCP99
0182832420999992000020418004-12570-041380FM-12+042799999V0201401N004110042019N0020001N1+02581+01971100741ADDAA106000791AY191061AY221061GF108991081071004501999999MA1999999095971MD1999999+0381MW1501REMSYN082AAXX  04184 83242 21495 81408 10258 20197 39597 40074 75092 887// 333 58038 69901;
0201832420999992000020500004-12570-041380FM-12+042799999V0203201N008210042019N9999999N1+02411+01991100841ADDAA106006191AY161061AY221061GF108991081071004501999999KA1240M+03261MA1999999096081MD1999999+0281MW1031REMSYN088AAXX  05004 83242 214// 83216 10241 20199 39608 40084 70362 887// 333 10326 58028 60061;
0173832420999992000020512004-12570-041380FM-12+042799999V0201401N001010450019N0100001N1+02581+02211101131ADDAA124006191GF106991021011004501031011KA1240N+02111MA1999999096351MD1999999+0231REMSYN082AAXX  05124 83242 22497 61402 10258 20221 39635 40113 82131 333 20211 58023 60064;
0179832420999992000020518004-12570-041380FM-12+042799999V0203201N001011050019N0100001N1+03311+01851100711ADDAA199000091GF106991041071004501001021MA1999999096001MD1999999+0031MW1151REMSYN076AAXX  05184 83242 31497 63202 10331 20185 39600 40071 715// 84702 333 58003;EQDQ01  00002PRCP99
0201832420999992000020612004-12570-041380FM-12+042799999V0201401N000510450019N0100001N1+02501+02131101311ADDAA124013091AY161061AY241061GF106991041061004501031021KA1240N+02191MA1999999096521MD1999999+0171MW1011REMSYN088AAXX  06124 83242 21497 61401 10250 20213 39652 40131 70164 84632 333 20219 58017 60134;
0167832420999992000020618004-12570-041380FM-12+042799999V0201401N001510042019N0100001N1+03061+02111100871ADDAA199000091GF106991051051004501031001MA1999999096141MD1999999+0141REMSYN070AAXX  06184 83242 32497 61403 10306 20211 39614 40087 85530 333 58014;EQDQ01  00002PRCP99
0196832420999992000020700004-12570-041380FM-12+042799999V0203601N000512200019N9999999N1+02481+01901101021ADDAA199000091GA1001+999999999GF100991001001999999001001KA1240M+03041MA1999999096251MD1999999+0001REMSYN070AAXX  07004 83242 329// 03601 10248 20190 39625 40102 333 10304 59000;EQDQ01  00002PRCP99
0214832420999992000020712004-12570-041380FM-12+042799999V0201401N000510450019N0100001N1+02601+02061101181ADDAA124000191AY141061AY201061GF106991041051004501031011KA1240N+02211MA1999999096411MD1999999-0111REMSYN088AAXX  07124 83242 21497 61401 10260 20206 39641 40118 75640 84531 333 20221 59011 69924;EQDQ01+000562PRSWM1
0167832420999992000020718004-12570-041380FM-12+042799999V0201401N001510450019N0100001N1+03101+02031100861ADDAA199000091GF106991021021004501011011MA1999999096131MD1999999-0011REMSYN070AAXX  07184 83242 32497 61403 10310 20203 39613 40086 82211 333 59001;EQDQ01  00002PRCP99
0196832420999992000020800004-12570-041380FM-12+042799999V0200901N000512200019N9999999N1+02481+02111100961ADDAA199000091GA1001+999999999GF100991001001999999001001KA1240M+03161MA1999999096251MD1999999-0051REMSYN070AAXX  08004 83242 329// 00901 10248 20211 39625 40096 333 10316 59005;EQDQ01  00002PRCP99
0186832420999992000020812004-12570-041380FM-12+042799999V0201401N002110042019N0100001N1+02431+01881101371ADDAA199000091GF106991051071004501031001KA1240N+02071MA1999999096571MD1999999+0161REMSYN076AAXX  08124 83242 32497 61404 10243 20188 39657 40137 85730 333 20207 58016;EQDQ01  00002PRCP99
0167832420999992000020818004-12570-041380FM-12+042799999V0201401N001512200019N0100001N1+02981+01891100821ADDAA199000091GF104991031021004501001011MA1999999096141MD1999999+0011REMSYN070AAXX  08184 83242 32497 41403 10298 20189 39614 40082 83201 333 58001;EQDQ01  00002PRCP99
0196832420999992000020900004-12570-041380FM-12+042799999V0200901N000512200019N9999999N1+02431+01951101071ADDAA199000091GA1001+999999999GF100991001001999999001001KA1240M+03061MA1999999096291MD1999999+0041REMSYN070AAXX  09004 83242 329// 00901 10243 20195 39629 40107 333 10306 58004;EQDQ01  00002PRCP99
0198832420999992000020912004-12570-041380FM-12+042799999V0201801N001010042019N0040001N1+02421+02031101361ADDAA199000091GF107991061061004501041001KA1240N+02151MA1999999096561MD1999999-0011MW1401REMSYN082AAXX  09124 83242 31496 71802 10242 20203 39656 40136 740// 86640 333 20215 59001;EQDQ01  00002PRCP99
0167832420999992000020918004-12570-041380FM-12+042799999V0201401N001510450019N0100001N1+03021+01921100901ADDAA199000091GF106991041041004501031011MA1999999096141MD1999999+0001REMSYN070AAXX  09184 83242 32497 61403 10302 20192 39614 40090 84431 333 59000;EQDQ01  00002PRCP99
0201832420999992000021012004-12570-041380FM-12+042799999V0201401N001010042019N0040001N1+02481+01981101231ADDAA124000191AY151061AY201061GF106991051061004501031001KA1240N+02171MA1999999096441MD1999999-0121MW1401REMSYN088AAXX  10124 83242 21496 61402 10248 20198 39644 40123 74050 85630 333 20217 59012 69924;
0167832420999992000021018004-12570-041380FM-12+042799999V0201801N001010450019N0100001N1+03061+01901100821ADDAA199000091GF106991041031004501041001MA1999999096001MD1999999+0001REMSYN070AAXX  10184 83242 32497 61802 10306 20190 39600 40082 84340 333 59000;EQDQ01  00002PRCP99
0186832420999992000021100004-12570-041380FM-12+042799999V0201801N001010042019N9999999N1+02541+02021101131ADDAA199000091GF108991081061004501999999KA1240M+03181MA1999999096351MD1999999+0101REMSYN076AAXX  11004 83242 324// 81802 10254 20202 39635 40113 886// 333 10318 58010;EQDQ01  00002PRCP99
0186832420999992000021112004-12570-041380FM-12+042799999V0201801N001010042019N0100001N1+02501+02051101291ADDAA199000091GF106991051061004501001011KA1240N+02261MA1999999096501MD1999999+0061REMSYN076AAXX  11124 83242 32497 61802 10250 20205 39650 40129 85601 333 20226 58006;EQDQ01  00002PRCP99
0179832420999992000021118004-12570-041380FM-12+042799999V0200501N001010450019N0100001N1+02921+01891100941ADDAA199000091GF106991041071004501031001MA1999999096211MD1999999+0141MW1151REMSYN076AAXX  11184 83242 31497 60502 10292 20189 39621 40094 715// 84730 333 58014;EQDQ01  00002PRCP99
0196832420999992000021200004-12570-041380FM-12+042799999V0203601N000512200019N9999999N1+02471+02011100961ADDAA199000091GA1001+999999999GF100991001001999999001001KA1240M+03041MA1999999096191MD1999999-0161REMSYN070AAXX  12004 83242 329// 03601 10247 20201 39619 40096 333 10304 59016;EQDQ01  00002PRCP99
0186832420999992000021212004-12570-041380FM-12+042799999V0201401N001510042019N0100001N1+02571+01991101311ADDAA199000091GF106991051041004501001091KA1240N+02031MA1999999096521MD1999999+0021REMSYN076AAXX  12124 83242 32497 61403 10257 20199 39652 40131 85409 333 20203 58002;EQDQ01  00002PRCP99
0167832420999992000021218004-12570-041380FM-12+042799999V0201401N002110042019N0100001N1+02941+01941100751ADDAA199000091GF106991061021004501001001MA1999999096051MD1999999-0161REMSYN070AAXX  12184 83242 32497 61404 10294 20194 39605 40075 86200 333 59016;EQDQ01  00002PRCP99
0186832420999992000021300004-12570-041380FM-12+042799999V0203601N001510042019N9999999N1+02451+01881100881ADDAA199000091GF106991061021004501001001KA1240M+03061MA1999999096111MD1999999-0081REMSYN076AAXX  13004 83242 324// 63603 10245 20188 39611 40088 86200 333 10306 59008;EQDQ01  00002PRCP99
0186832420999992000021312004-12570-041380FM-12+042799999V0201801N001010042019N0100001N1+02461+01971101231ADDAA199000091GF107991061061004501031001KA1240N+02151MA1999999096441MD1999999-0011REMSYN076AAXX  13124 83242 32497 71802 10246 20197 39644 40123 86630 333 20215 59001;EQDQ01  00002PRCP99
0167832420999992000021318004-12570-041380FM-12+042799999V0201801N002110450019N0100001N1+03001+01841100921ADDAA199000091GF106991041041004501061011MA1999999096141MD1999999+0091REMSYN070AAXX  13184 83242 32497 61804 10300 20184 39614 40092 84461 333 58009;EQDQ01  00002PRCP99
0186832420999992000021400004-12570-041380FM-12+042799999V0201401N001010042019N9999999N1+02501+02071101161ADDAA199000091GF108991081061004501999999KA1240M+03161MA1999999096381MD1999999+0271REMSYN076AAXX  14004 83242 324// 81402 10250 20207 39638 40116 886// 333 10316 58027;EQDQ01  00002PRCP99
0201832420999992000021412004-12570-041380FM-12+042799999V0202301N002110450019N0040001N1+02481+02291101371ADDAA124000191AY151061AY221061GF106991041071004501031021KA1240N+02221MA1999999096581MD1999999+0141MW1401REMSYN088AAXX  14124 83242 21496 62304 10248 20229 39658 40137 74052 84732 333 20222 58014 69914;
0167832420999992000021418004-12570-041380FM-12+042799999V0201401N001510450019N0100001N1+03001+01941100951ADDAA199000091GF107991041071004501041011MA1999999096181MD1999999+0041REMSYN070AAXX  14184 83242 32497 71403 10300 20194 39618 40095 84741 333 58004;EQDQ01  00002PRCP99
0186832420999992000021500004-12570-041380FM-12+042799999V0201401N000510042019N9999999N1+02561+02081101111ADDAA199000091GF107991061071004501051001KA1240M+03141MA1999999096331MD1999999-0051REMSYN076AAXX  15004 83242 324// 71401 10256 20208 39633 40111 86750 333 10314 59005;EQDQ01  00002PRCP99
0186832420999992000021512004-12570-041380FM-12+042799999V0201801N002610450019N0100001N1+02561+02041101211ADDAA199000091GF106991041031004501051011KA1240N+02251MA1999999096441MD1999999-0141REMSYN076AAXX  15124 83242 32497 61805 10256 20204 39644 40121 84351 333 20225 59014;EQDQ01  00002PRCP99
0217832420999992000021518004-12570-041380FM-12+042799999V0202701N001510042019N0100001N1+02541+02171100921ADDAA106000891AY151061AY201061GF107991051061004501031021MA1999999999999MD1999999-0061MW1021REMSYN082AAXX  15184 83242 21497 72703 10254 20217 39162 40092 70250 85632 333 59006 69981;EQDQ01+091623APOSP Q02 091623APOSP 
0201832420999992000021600004-12570-041380FM-12+042799999V0201801N001010042019N9999999N1+02441+02091101081ADDAA106000891AY191061AY211061GF108991081071004501999999KA1240M+03101MA1999999096301MD1999999-0031MW1501REMSYN088AAXX  16004 83242 214// 81802 10244 20209 39630 40108 75091 887// 333 10310 59003 69981;
0201832420999992000021612004-12570-041380FM-12+042799999V0201801N000510042019N0020001N1+02321+02151101261ADDAA124003091AY161061AY221061GF108991081071004501999999KA1240N+02071MA1999999096461MD1999999+0021MW1401REMSYN088AAXX  16124 83242 21495 81801 10232 20215 39646 40126 74062 887// 333 20207 58002 60034;
0182832420999992000021618004-12570-041380FM-12+042799999V0201401N001512200019N0100001N1+03021+02021100721ADDAA106003091AY161061AY211061GF106991041051004501001061MA1999999095981MD1999999-0141MW1031REMSYN082AAXX  16184 83242 21497 61403 10302 20202 39598 40072 70361 84506 333 59014 60031;
0186832420999992000021700004-12570-041380FM-12+042799999V0201401N002110042019N9999999N1+02521+02051101111ADDAA199000091GF108991081071004501999999KA1240M+03101MA1999999096311MD1999999+0011REMSYN076AAXX  17004 83242 324// 81404 10252 20205 39631 40111 887// 333 10310 58001;EQDQ01  00002PRCP99
0201832420999992000021712004-12570-041380FM-12+042799999V0201401N001010042019N0100001N1+02531+02001101191ADDAA124003091AY161061AY221061GF107991051041004501031021KA1240N+02061MA1999999096421MD1999999-0041MW1011REMSYN088AAXX  17124 83242 21497 71402 10253 20200 39642 40119 70162 85432 333 20206 59004 60034;
0167832420999992000021718004-12570-041380FM-12+042799999V0201401N002110450019N0100001N1+03121+01921100721ADDAA199000091GF106991041071004501041011MA1999999095981MD1999999+0001REMSYN070AAXX  17184 83242 32497 61404 10312 20192 39598 40072 84741 333 58000;EQDQ01  00002PRCP99
0201832420999992000021800004-12570-041380FM-12+042799999V0200901N001010042019N9999999N1+02481+02111101061ADDAA106000891AY151061AY221061GF107991051071004501051001KA1240M+03161MA1999999096291MD1999999-0021MW1031REMSYN088AAXX  18004 83242 214// 70902 10248 20211 39629 40106 70352 85750 333 10316 59002 69981;
0201832420999992000021812004-12570-041380FM-12+042799999V0201801N001010042019N0020001N1+02421+02211101251ADDAA124000891AY151061AY221061GF107991061071004501051001KA1240N+02261MA1999999096461MD1999999+0041MW1401REMSYN088AAXX  18124 83242 21495 71802 10242 20221 39646 40125 74052 86750 333 20226 58004 69984;
0182832420999992000021818004-12570-041380FM-12+042799999V0200501N002110042019N0040001N1+02681+02181101041ADDAA106003091AY191061AY261061GF107991051071004501061001MA1999999096581MD1999999+0281MW1401REMSYN082AAXX  18184 83242 21496 70504 10268 20218 39658 40104 74096 85760 333 58028 60031;
0201832420999992000021912004-12570-041380FM-12+042799999V0201801N001010042019N0040001N1+02361+02171101411ADDAA124005191AY161061AY221061GF108991081071004501999999KA1240N+02171MA1999999096591MD1999999+0131MW1401REMSYN088AAXX  19124 83242 21496 81802 10236 20217 39659 40141 74062 887// 333 20217 58013 60054;
0167832420999992000021918004-12570-041380FM-12+042799999V0201401N001510450019N0100001N1+02941+02291100981ADDAA199000091GF106991031071004501031011MA1999999096221MD1999999-0291REMSYN070AAXX  19184 83242 32497 61403 10294 20229 39622 40098 83731 333 59029;EQDQ01  00002PRCP99
0186832420999992000022000004-12570-041380FM-12+042799999V0201801N001010042019N9999999N1+02501+01981101221ADDAA199000091GF107991071071004501001001KA1240M+03041MA1999999096401MD1999999+0011REMSYN076AAXX  20004 83242 324// 71802 10250 20198 39640 40122 87700 333 10304 58001;EQDQ01  00002PRCP99
0186832420999992000022012004-12570-041380FM-12+042799999V0201401N001510042019N0100001N1+02441+01971101351ADDAA199000091GF107991051071004501031001KA1240N+02181MA1999999096551MD1999999+0041REMSYN076AAXX  20124 83242 32497 71403 10244 20197 39655 40135 85730 333 20218 58004;EQDQ01  00002PRCP99
0167832420999992000022018004-12570-041380FM-12+042799999V0201801N002112200019N0100001N1+02981+01951100941ADDAA199000091GF104991031051004501031001MA1999999096201MD1999999-0021REMSYN070AAXX  20184 83242 32497 41804 10298 20195 39620 40094 83530 333 59002;EQDQ01  00002PRCP99
0201832420999992000022100004-12570-041380FM-12+042799999V0203601N000510042019N9999999N1+02201+02121101241ADDAA106003091AY161061AY241061GF107991051071004501031001KA1240M+03051MA1999999096421MD1999999+0021MW1031REMSYN088AAXX  21004 83242 214// 73601 10220 20212 39642 40124 70364 85730 333 10305 58002 60031;
0167832420999992000022118004-12570-041380FM-12+042799999V0201401N002110450019N0100001N1+02781+02061100881ADDAA199000091GF106991031071004501061021MA1999999096191MD1999999-0011REMSYN070AAXX  21184 83242 32497 61404 10278 20206 39619 40088 83762 333 59001;EQDQ01  00002PRCP99
0201832420999992000022200004-12570-041380FM-12+042799999V0201801N000510042019N9999999N1+02181+02131101271ADDAA106000591AY141061AY221061GF108991081071004501999999KA1240M+02941MA1999999096441MD1999999+0021MW1501REMSYN088AAXX  22004 83242 214// 81801 10218 20213 39644 40127 75042 887// 333 10294 58002 69941;
0201832420999992000022212004-12570-041380FM-12+042799999V0201801N002110042019N0040001N1+02341+02171101351ADDAA124000591AY151061AY221061GF107991061071004501041001KA1240N+02051MA1999999096511MD1999999-0021MW1401REMSYN088AAXX  22124 83242 21496 71804 10234 20217 39651 40135 74052 86740 333 20205 59002 69964;
0167832420999992000022218004-12570-041380FM-12+042799999V0201401N001510450019N0100001N1+02841+01961100921ADDAA199000091GF105991041071004501031001MA1999999096141MD1999999-0051REMSYN070AAXX  22184 83242 32497 51403 10284 20196 39614 40092 84730 333 59005;EQDQ01  00002PRCP99
0186832420999992000022300004-12570-041380FM-12+042799999V0201401N001010042019N9999999N1+02481+02051101071ADDAA199000091GF106991061071004501001001KA1240M+03021MA1999999096281MD1999999-0161REMSYN076AAXX  23004 83242 324// 61402 10248 20205 39628 40107 86700 333 10302 59016;EQDQ01  00002PRCP99
0198832420999992000022312004-12570-041380FM-12+042799999V0201801N001510042019N0040001N1+02351+01991101281ADDAA199000091GF108991081071004501999999KA1240N+02131MA1999999096481MD1999999-0031MW1401REMSYN082AAXX  23124 83242 31496 81803 10235 20199 39648 40128 740// 887// 333 20213 59003;EQDQ01  00002PRCP99
0196832420999992000022400004-12570-041380FM-12+042799999V0203601N001512200019N9999999N1+02401+02151101021ADDAA199000091GA1001+999999999GF100991001001999999001001KA1240M+02881MA1999999096231MD1999999-0051REMSYN070AAXX  24004 83242 329// 03603 10240 20215 39623 40102 333 10288 59005;EQDQ01  00002PRCP99
0201832420999992000022412004-12570-041380FM-12+042799999V0201801N001510450019N0040001N1+02381+01951101221ADDAA124000791AY151061AY201061GF106991041061004501051001KA1240N+02151MA1999999096421MD1999999-0061MW1401REMSYN088AAXX  24124 83242 21496 61803 10238 20195 39642 40122 74050 84650 333 20215 59006 69904;
0167832420999992000022418004-12570-041380FM-12+042799999V0202301N001512200019N0100001N1+03051+01901100891ADDAA199000091GF105991041031004501001011MA1999999096151MD1999999+0031REMSYN070AAXX  24184 83242 32497 52303 10305 20190 39615 40089 84301 333 58003;EQDQ01  00002PRCP99
0198832420999992000022500004-12570-041380FM-12+042799999V0201801N000512200019N9999999N1+02461+02011100921ADDAA199000091GF103991031051004501001001KA1240M+03121MA1999999096131MD1999999-0101MW1131REMSYN082AAXX  25004 83242 314// 31801 10246 20201 39613 40092 713// 83500 333 10312 59010;EQDQ01  00002PRCP99
0201832420999992000022512004-12570-041380FM-12+042799999V0201401N001010042019N0040001N1+02411+02091101161ADDAA124000591AY151061AY221061GF106991051071004501031001KA1240N+02151MA1999999096371MD1999999-0051MW1401REMSYN088AAXX  25124 83242 21496 61402 10241 20209 39637 40116 74052 85730 333 20215 59005 69964;
0167832420999992000022518004-12570-041380FM-12+042799999V0201401N001512200019N0100001N1+03141+02001100681ADDAA199000091GF103991021021004501041001MA1999999095961MD1999999-0191REMSYN070AAXX  25184 83242 32497 31403 10314 20200 39596 40068 82240 333 59019;EQDQ01  00002PRCP99
0196832420999992000022600004-12570-041380FM-12+042799999V0209999C000012200019N9999999N1+02621+02161100901ADDAA199000091GA1001+999999999GF100991001001999999001001KA1240M+03191MA1999999096131MD1999999+0001REMSYN070AAXX  26004 83242 329// 00900 10262 20216 39613 40090 333 10319 59000;EQDQ01  00002PRCP99
0198832420999992000022612004-12570-041380FM-12+042799999V0200901N000510042019N0040001N1+02461+02091101191ADDAA199000091GF107991071071004501001001KA1240N+02261MA1999999096421MD1999999+0051MW1401REMSYN082AAXX  26124 83242 31496 70901 10246 20209 39642 40119 740// 87700 333 20226 58005;EQDQ01  00002PRCP99
0167832420999992000022618004-12570-041380FM-12+042799999V0201401N002110450019N0100001N1+03051+02051100761ADDAA199000091GF106991041021004501031021MA1999999096041MD1999999+0081REMSYN070AAXX  26184 83242 32497 61404 10305 20205 39604 40076 84232 333 58008;EQDQ01  00002PRCP99
0201832420999992000022700004-12570-041380FM-12+042799999V0201801N000510042019N9999999N1+02421+02191101091ADDAA106001091AY161061AY221061GF108991081071004501999999KA1240M+03161MA1999999096271MD1999999+0141MW1031REMSYN088AAXX  27004 83242 214// 81801 10242 20219 39627 40109 70362 887// 333 10316 58014 60011;
0201832420999992000022712004-12570-041380FM-12+042799999V0201801N000510042019N0020001N1+02441+02191101221ADDAA124020191AY161061AY221061GF108991081071004501999999KA1240N+02171MA1999999096431MD1999999+0011MW1401REMSYN088AAXX  27124 83242 21495 81801 10244 20219 39643 40122 74062 887// 333 20217 58001 60204;
0167832420999992000022718004-12570-041380FM-12+042799999V0201401N001510450019N0100001N1+03001+02031100751ADDAA199000091GF106991041071004501031021MA1999999096021MD1999999-0021REMSYN070AAXX  27184 83242 32497 61403 10300 20203 39602 40075 84732 333 59002;EQDQ01  00002PRCP99
0212832420999992000022800004-12570-041380FM-12+042799999V0201801N001512200019N9999999N1+02381+02291100941ADDAA199000091GA1001+999999999GF100991001001999999001001KA1240M+03251MA1999999098022MD1999999+0031REMSYN070AAXX  28004 83242 329// 01803 10238 20229 39802 40094 333 10325 58003;EQDQ01+098023APOSP Q02  00002PRCP99
0201832420999992000022812004-12570-041380FM-12+042799999V0201401N001510042019N0040001N1+02421+02071101211ADDAA124034091AY151061AY221061GF107991061071004501041001KA1240N+02091MA1999999096401MD1999999-0031MW1401REMSYN088AAXX  28124 83242 21496 71403 10242 20207 39640 40121 74052 86740 333 20209 59003 60344;
0154832420999992000022818004-12570-041380FM-12+042799999V0200901N001010042019N0100001N1+02801+02181100811ADDAA106000791GF106991051071004501061001MA1999999096051MD1999999+0031REMSYN076AAXX  28184 83242 21497 60902 10280 20218 39605 40081 85760 333 58003 69901;
0198832420999992000022900004-12570-041380FM-12+042799999V0200501N000512200019N9999999N1+02321+02111101021ADDAA199000091GF103991031071004501001001KA1240M+02921MA1999999096221MD1999999-0101MW1131REMSYN082AAXX  29004 83242 314// 30501 10232 20211 39622 40102 713// 83700 333 10292 59010;EQDQ01  00002PRCP99
0201832420999992000022912004-12570-041380FM-12+042799999V0201801N001010450019N0100001N1+02501+01911101351ADDAA124004191AY161061AY241061GF106991041071004501041091KA1240N+02051MA1999999096541MD1999999+0141MW1031REMSYN088AAXX  29124 83242 21497 61802 10250 20191 39654 40135 70364 84749 333 20205 58014 60044;
0167832420999992000022918004-12570-041380FM-12+042799999V0201401N000510042019N0100001N1+02901+01991101001ADDAA199000091GF106991051061004501051001MA1999999096231MD1999999+0181REMSYN070AAXX  29184 83242 32497 61401 10290 20199 39623 40100 85650 333 58018;EQDQ01  00002PRCP99
0186832420999992000030100004-12570-041380FM-12+042799999V0200501N000510042019N9999999N1+02401+02261101131ADDAA199000091GF108991081071004501999999KA1240M+02941MA1999999096341MD1999999+0121REMSYN076AAXX  01004 83242 324// 80501 10240 20226 39634 40113 887// 333 10294 58012;EQDQ01  00002PRCP99
0201832420999992000030112004-12570-041380FM-12+042799999V0201801N000510042019N0040001N1+02401+02051101381ADDAA124000891AY151061AY221061GF107991061071004501031001KA1240N+02151MA1999999096571MD1999999+0031MW1401REMSYN088AAXX  01124 83242 21496 71801 10240 20205 39657 40138 74052 86730 333 20215 58003 69974;
0167832420999992000030118004-12570-041380FM-12+042799999V0201801N003110450019N0100001N1+02871+02051100981ADDAA199000091GF107991041071004501031021MA1999999096221MD1999999-0011REMSYN070AAXX  01184 83242 32497 71806 10287 20205 39622 40098 84732 333 59001;EQDQ01  00002PRCP99
0186832420999992000030200004-12570-041380FM-12+042799999V0202301N001010042019N9999999N1+02521+02131101211ADDAA199000091GF108991081071004501999999KA1240M+02951MA1999999096421MD1999999-0081REMSYN076AAXX  02004 83242 324// 82302 10252 20213 39642 40121 887// 333 10295 59008;EQDQ01  00002PRCP99
0201832420999992000030212004-12570-041380FM-12+042799999V0202301N001010042019N0010001N1+02251+02161101361ADDAA124000791AY151061AY221061GF108991081071004501999999KA1240N+02161MA1999999096551MD1999999-0021MW1401REMSYN088AAXX  02124 83242 21494 82302 10225 20216 39655 40136 74052 887// 333 20216 59002 69904;
0167832420999992000030218004-12570-041380FM-12+042799999V0201401N001510450019N0100001N1+03001+02031100821ADDAA199000091GF106991041071004501041011MA1999999096081MD1999999-0141REMSYN070AAXX  02184 83242 32497 61403 10300 20203 39608 40082 84741 333 59014;EQDQ01  00002PRCP99
0201832420999992000030300004-12570-041380FM-12+042799999V0201801N000510042019N9999999N1+02381+02221101141ADDAA106005191AY161061AY221061GF107991071071004501001001KA1240M+03061MA1999999096321MD1999999-0101MW1031REMSYN088AAXX  03004 83242 214// 71801 10238 20222 39632 40114 70362 87700 333 10306 59010 60051;
0201832420999992000030312004-12570-041380FM-12+042799999V0201801N001010450019N0040001N1+02461+02131101251ADDAA124006191AY161061AY221061GF106991041071004501041001KA1240N+02111MA1999999096451MD1999999-0101MW1401REMSYN088AAXX  03124 83242 21496 61802 10246 20213 39645 40125 74062 84740 333 20211 59010 60064;
0179832420999992000030318004-12570-041380FM-12+042799999V0201401N002610042019N0100001N1+02821+02101100991ADDAA199000091GF107991061071004501031001MA1999999096121MD1999999+0041MW1151REMSYN076AAXX  03184 83242 31497 71405 10282 20210 39612 40099 715// 86730 333 58004;EQDQ01  00002PRCP99
0201832420999992000030400004-12570-041380FM-12+042799999V0203601N000510042019N9999999N1+02241+02071101141ADDAA106000191AY151061AY221061GF107991071051004501001001KA1240M+03001MA1999999096331MD1999999+0011MW1031REMSYN088AAXX  04004 83242 214// 73601 10224 20207 39633 40114 70352 87500 333 10300 58001 69921;
0182832420999992000030418004-12570-041380FM-12+042799999V0201401N001510042019N0100001N1+02841+02091100991ADDAA106000791AY151061AY221061GF107991061071004501031001MA1999999096211MD1999999+0091MW1031REMSYN082AAXX  04184 83242 21497 71403 10284 20209 39621 40099 70352 86730 333 58009 69901;
0201832420999992000030512004-12570-041380FM-12+042799999V0201801N002610042019N0040001N1+02441+01951101461ADDAA124000591AY151061AY241061GF107991061071004501061001KA1240N+02111MA1999999096641MD1999999+0191MW1031REMSYN088AAXX  05124 83242 21496 71805 10244 20195 39664 40146 70354 86760 333 20211 58019 69944;
0167832420999992000030518004-12570-041380FM-12+042799999V0201801N003112200019N0100001N1+02981+01831101011ADDAA199000091GF102991011031004501001021MA1999999096261MD1999999+0051REMSYN070AAXX  05184 83242 32497 21806 10298 20183 39626 40101 81302 333 58005;EQDQ01  00002PRCP99
0186832420999992000030600004-12570-041380FM-12+042799999V0200901N000510042019N9999999N1+02501+01981101191ADDAA199000091GF107991071051004501001001KA1240M+03071MA1999999096401MD1999999-0101REMSYN076AAXX  06004 83242 324// 70901 10250 20198 39640 40119 87500 333 10307 59010;EQDQ01  00002PRCP99
0198832420999992000030612004-12570-041380FM-12+042799999V0201801N002610042019N0020001N1+02381+02011101381ADDAA199000091GF107991071071004501001001KA1240N+02151MA1999999096581MD1999999-0061MW1401REMSYN082AAXX  06124 83242 31495 71805 10238 20201 39658 40138 740// 87700 333 20215 59006;EQDQ01  00002PRCP99
0182832420999992000030618004-12570-041380FM-12+042799999V0201801N002110042019N0010001N1+02521+02091101091ADDAA106009991AY141061AY221061GF108991081071004501999999MA1999999096291MD1999999+0031MW1621REMSYN082AAXX  06184 83242 21494 81804 10252 20209 39629 40109 76242 887// 333 58003 60101;
0201832420999992000030700004-12570-041380FM-12+042799999V0209999C000010042019N9999999N1+02341+02261101141ADDAA106001091AY161061AY241061GF108991081071004501999999KA1240M+02821MA1999999096331MD1999999-0071MW1031REMSYN088AAXX  07004 83242 214// 83600 10234 20226 39633 40114 70364 887// 333 10282 59007 60011;
0201832420999992000030712004-12570-041380FM-12+042799999V0201801N001010042019N0020001N1+02241+02101101201ADDAA124013091AY161061AY221061GF108991081071004501999999KA1240N+01891MA1999999096381MD1999999-0201MW1401REMSYN088AAXX  07124 83242 21495 81802 10224 20210 39638 40120 74062 887// 333 20189 59020 60134;
0167832420999992000030718004-12570-041380FM-12+042799999V0201801N002111050019N0100001N1+02931+02001100761ADDAA199000091GF107991031071004501001081MA1999999096001MD1999999-0291REMSYN070AAXX  07184 83242 32497 71804 10293 20200 39600 40076 83708 333 59029;EQDQ01  00002PRCP99
0196832420999992000030800004-12570-041380FM-12+042799999V0200901N001012200019N9999999N1+02381+02131100861ADDAA199000091GA1001+999999999GF100991001001999999001001KA1240M+03071MA1999999096061MD1999999-0271REMSYN070AAXX  08004 83242 329// 00902 10238 20213 39606 40086 333 10307 59027;EQDQ01  00002PRCP99
0201832420999992000030812004-12570-041380FM-12+042799999V0201801N000510042019N0020001N1+02401+02111101061ADDAA124000191AY151061AY221061GF108991081071004501999999KA1240N+02151MA1999999096271MD1999999-0111MW1401REMSYN088AAXX  08124 83242 21495 81801 10240 20211 39627 40106 74052 887// 333 20215 59011 69924;
0167832420999992000030818004-12570-041380FM-12+042799999V0201401N001010450019N0100001N1+02041+01971100571ADDAA199000091GF106991041041004501021011MA1999999095851MD1999999-0151REMSYN070AAXX  08184 83242 32497 61402 10204 20197 39585 40057 84421 333 59015;EQDQ01  00002PRCP99
0186832420999992000030900004-12570-041380FM-12+042799999V0202301N000510042019N9999999N1+02551+02191100901ADDAA199000091GF108991081071004501999999KA1240M+03121MA1999999096131MD1999999+0071REMSYN076AAXX  09004 83242 324// 82301 10255 20219 39613 40090 887// 333 10312 58007;EQDQ01  00002PRCP99
0198832420999992000030912004-12570-041380FM-12+042799999V0201801N001510042019N0020001N1+02471+02151101211ADDAA199000091GF107991061071004501031001KA1240N+02271MA1999999096431MD1999999+0161MW1401REMSYN082AAXX  09124 83242 31495 71803 10247 20215 39643 40121 740// 86730 333 20227 58016;EQDQ01  00002PRCP99
0179832420999992000030918004-12570-041380FM-12+042799999V0201401N002110450019N0100001N1+03101+02091100681ADDAA199000091GF106991041071004501031021MA1999999095971MD1999999+0121MW1151REMSYN076AAXX  09184 83242 31497 61404 10310 20209 39597 40068 715// 84732 333 58012;EQDQ01  00002PRCP99
0201832420999992000031000004-12570-041380FM-12+042799999V0202301N001010042019N9999999N1+02301+02181101161ADDAA106002091AY161061AY221061GF108991081071004501999999KA1240M+03181MA1999999096361MD1999999+0231MW1601REMSYN088AAXX  10004 83242 214// 82302 10230 20218 39636 40116 76062 887// 333 10318 58023 60021;
0201832420999992000031012004-12570-041380FM-12+042799999V0201801N001010042019N0040001N1+02421+02071101331ADDAA124002091AY161061AY221061GF108991081071004501999999KA1240N+02211MA1999999096511MD1999999+0081MW1901REMSYN088AAXX  10124 83242 21496 81802 10242 20207 39651 40133 79062 887// 333 20221 58008 60024;
0182832420999992000031018004-12570-041380FM-12+042799999V0202301N002610450019N0100001N1+02641+02031101011ADDAA106007991AY161061AY241061GF106991041071004501031001MA1999999096221MD1999999+0251MW1031REMSYN082AAXX  10184 83242 21497 62305 10264 20203 39622 40101 70364 84730 333 58025 60081;
0201832420999992000031100004-12570-041380FM-12+042799999V0202301N001010042019N9999999N1+02301+02181101161ADDAA106002091AY161061AY221061GF108991081071004501999999KA1240M+03181MA1999999096361MD1999999+0231MW1601REMSYN088AAXX  11004 83242 214// 82302 10230 20218 39636 40116 76062 887// 333 10318 58023 60021;
0201832420999992000031112004-12570-041380FM-12+042799999V0201801N001010042019N0020001N1+02381+02191101241ADDAA124027991AY161061AY221061GF108991081071004501999999KA1240N+02171MA1999999096421MD1999999-0081MW1401REMSYN088AAXX  11124 83242 21495 81802 10238 20219 39642 40124 74062 887// 333 20217 59008 60284;
0182832420999992000031118004-12570-041380FM-12+042799999V0201401N001010450019N0040001N1+02021+99999100661ADDAA106002091AY161061AY221061GF106991041071004501041021MA1999999095921MD1999999-0301MW1051REMSYN082AAXX  11184 83242 21496 61402 10202 20210 39592 40066 70562 84742 333 59030 60021;
0186832420999992000031200004-12570-041380FM-12+042799999V0200901N001012200019N9999999N1+02501+02131100781ADDAA199000091GF102991021071004501001001KA1240M+03101MA1999999096011MD1999999-0331REMSYN076AAXX  12004 83242 324// 20902 10250 20213 39601 40078 82700 333 10310 59033;EQDQ01  00002PRCP99
0201832420999992000031212004-12570-041380FM-12+042799999V0201801N000510042019N0005001N1+02341+02291101061ADDAA124003091AY161061AY211061GF108991081071004501999999KA1240N+02281MA1999999096271MD1999999-0151MW1401REMSYN088AAXX  12124 83242 21493 81801 10234 20229 39627 40106 74061 887// 333 20228 59015 60034;
0182832420999992000031218004-12570-041380FM-12+042799999V0201401N001010042019N0020001N1+02581+02381100621ADDAA106001091AY161061AY231061GF106991051071004501031001MA1999999095861MD1999999-0061MW1401REMSYN082AAXX  12184 83242 21495 61402 10258 20238 39586 40062 74063 85730 333 59006 60011;
0186832420999992000031300004-12570-041380FM-12+042799999V0209999C000010042019N9999999N1+02371+02281100731ADDAA199000091GF106991061071004501001001KA1240M+02791MA1999999095941MD1999999-0071REMSYN076AAXX  13004 83242 324// 60000 10237 20228 39594 40073 86700 333 10279 59007;EQDQ01  00002PRCP99
0201832420999992000031312004-12570-041380FM-12+042799999V0201401N001010042019N0020001N1+02501+02171100811ADDAA124001091AY161061AY221061GF107991061071004501031001KA1240N+02121MA1999999096041MD1999999-0131MW1401REMSYN088AAXX  13124 83242 31495 71402 10250 20217 39604 40081 74062 86730 333 20212 59013 60014;
0182832420999992000031318004-12570-041380FM-12+042799999V0200901N002110042019N0100001N1+02821+02331100361ADDAA106000591AY151061AY241061GF108991081071004501999999MA1999999095611MD1999999-0271MW1171REMSYN082AAXX  13184 83242 21497 80904 10282 20233 39561 40036 71754 887// 333 59027 69961;
0201832420999992000031400004-12570-041380FM-12+042799999V0202301N000510042019N9999999N1+02281+02251100791ADDAA106004191AY191061AY241061GF108991081071004501999999KA1240M+02881MA1999999096011MD1999999+0071MW1611REMSYN088AAXX  14004 83242 214// 82301 10228 20225 39601 40079 76194 887// 333 10288 58007 60041;
0201832420999992000031412004-12570-041380FM-12+042799999V0201801N002110450019N0040001N1+02341+02221100971ADDAA124007191AY161061AY221061GF106991031051004501031021KA1240N+02151MA1999999096161MD1999999+0121MW1401REMSYN088AAXX  14124 83242 21496 61804 10234 20222 39616 40097 74062 83532 333 20215 58012 60074;
0182832420999992000031418004-12570-041380FM-12+042799999V0202301N000510042019N0100001N1+02341+02111100601ADDAA106018091AY161061AY241061GF108991081071004501999999MA1999999095801MD1999999+0191MW1511REMSYN082AAXX  14184 83242 21497 82301 10234 20211 39580 40060 75164 887// 333 58019 60181;
0201832420999992000031500004-12570-041380FM-12+042799999V0200901N001010042019N9999999N1+02251+02211101091ADDAA106011991AY191061AY241061GF108991081071004501999999KA1240M+02561MA1999999096281MD1999999+0171MW1631REMSYN088AAXX  15004 83242 214// 80902 10225 20221 39628 40109 76394 887// 333 10256 58017 60121;
0201832420999992000031512004-12570-041380FM-12+042799999V0201801N000510042019N0005001N1+02221+02191101251ADDAA124042991AY191061AY261061GF108991081071004501999999KA1240N+02111MA1999999096421MD1999999+0261MW1401REMSYN088AAXX  15124 83242 21493 81801 10222 20219 39642 40125 74096 887// 333 20211 58026 60434;
0182832420999992000031518004-12570-041380FM-12+042799999V0201801N001510450019N0100001N1+02681+02181100821ADDAA106000891AY151061AY241061GF106991041061004501031091MA1999999096061MD1999999-0261MW1171REMSYN082AAXX  15184 83242 21497 61803 10268 20218 39606 40082 71754 84639 333 59026 69981;
0195832420999992000031600004-12570-041380FM-12+042799999V0203601N000510042019N9999999N1+02231+99999101081ADDAA106004191AY191061AY261061GF107991051071004501031001KA1240M+02821MA1999999096261MD1999999-0021MW1401REMSYN082AAXX  16004 83242 214// 73601 10223 39626 40108 74096 85730 333 10282 59002 60041;
0201832420999992000031612004-12570-041380FM-12+042799999V0200901N001510042019N0040001N1+02471+02031101121ADDAA124005191AY161061AY221061GF106991051071004501031001KA1240N+02111MA1999999096401MD1999999-0021MW1401REMSYN088AAXX  16124 83242 21496 60903 10247 20203 39640 40112 74062 85730 333 20211 59002 60054;
0167832420999992000031618004-12570-041380FM-12+042799999V0201801N001510450019N0100001N1+02921+01921100881ADDAA199000091GF106991041021004501031051MA1999999096031MD1999999-0031REMSYN070AAXX  16184 83242 32497 61803 10292 20192 39603 40088 84235 333 59003;EQDQ01  00002PRCP99
0186832420999992000031700004-12570-041380FM-12+042799999V0200901N000512200019N9999999N1+02271+02031100921ADDAA199000091GF101991001001999999001011KA1240M+02991MA1999999096121MD1999999-0141REMSYN076AAXX  17004 83242 329// 10901 10227 20203 39612 40092 80001 333 10299 59014;EQDQ01  00002PRCP99
0201832420999992000031712004-12570-041380FM-12+042799999V0201401N002110042019N0040001N1+02371+01991101241ADDAA124000391AY151061AY201061GF106991051041004501001051KA1240N+02051MA1999999096421MD1999999+0021MW1051REMSYN088AAXX  17124 83242 21496 61404 10237 20199 39642 40124 70550 85405 333 20205 58002 69934;
0186832420999992000031800004-12570-041380FM-12+042799999V0200901N001012200019N9999999N1+02231+01861100831ADDAA199000091GF101991001001999999001011KA1240M+02991MA1999999096031MD1999999-0091REMSYN076AAXX  18004 83242 329// 10902 10223 20186 39603 40083 80001 333 10299 59009;EQDQ01  00002PRCP99
0198832420999992000031812004-12570-041380FM-12+042799999V0200501N001010042019N0040001N1+02281+01831101021ADDAA199000091GF106991061041004501001001KA1240N+01971MA1999999096261MD1999999-0161MW1401REMSYN082AAXX  18124 83242 31496 60502 10228 20183 39626 40102 740// 86400 333 20197 59016;EQDQ01  00002PRCP99
0167832420999992000031818004-12570-041380FM-12+042799999V0201801N001512200019N0100001N1+02921+02041100611ADDAA199000091GF102991021021004501001001MA1999999095851MD1999999-0061REMSYN070AAXX  18184 83242 32497 21803 10292 20204 39585 40061 82200 333 59006;EQDQ01  00002PRCP99
0198832420999992000031900004-12570-041380FM-12+042799999V0203601N001012200019N9999999N1+02221+01841100791ADDAA199000091GF101991001001999999001011KA1240M+02981MA1999999095981MD1999999-0051MW1051REMSYN082AAXX  19004 83242 319// 13602 10222 20184 39598 40079 705// 80001 333 10298 59005;EQDQ01  00002PRCP99
0198832420999992000031912004-12570-041380FM-12+042799999V0201401N001010042019N0040001N1+02381+02031101071ADDAA199000091GF106991051061004501031001KA1240N+01951MA1999999096251MD1999999-0011MW1401REMSYN082AAXX  19124 83242 31496 61402 10238 20203 39625 40107 740// 85630 333 20195 59001;EQDQ01  00002PRCP99
0167832420999992000031918004-12570-041380FM-12+042799999V0201801N002110450019N0200001N1+03031+01881100601ADDAA199000091GF108991011031004501061071MA1999999095851MD1999999+0001REMSYN070AAXX  19184 83242 32498 81804 10303 20188 39585 40060 81367 333 58000;EQDQ01  00002PRCP99
0186832420999992000032000004-12570-041380FM-12+042799999V0200501N000512200019N9999999N1+02391+02011100781ADDAA199000091GF102991001001999999001011KA1240M+03121MA1999999096001MD1999999+0021REMSYN076AAXX  20004 83242 329// 20501 10239 20201 39600 40078 80001 333 10312 58002;EQDQ01  00002PRCP99
0201832420999992000032012004-12570-041380FM-12+042799999V0200501N001510042019N0020001N1+02411+02111101251ADDAA124000191AY151061AY221061GF108991081071004501999999KA1240N+02211MA1999999096451MD1999999+0201MW1101REMSYN088AAXX  20124 83242 21495 80503 10241 20211 39645 40125 71052 887// 333 20221 58020 69914;
0167832420999992000032018004-12570-041380FM-12+042799999V0202301N001512200019N0100001N1+03061+02051100801ADDAA199000091GF103991011021004501041091MA1999999096071MD1999999+0221REMSYN070AAXX  20184 83242 32497 32303 10306 20205 39607 40080 81249 333 58022;EQDQ01  00002PRCP99
0186832420999992000032100004-12570-041380FM-12+042799999V0201801N001010042019N9999999N1+02561+02081100891ADDAA199000091GF106991051051004501031001KA1240M+03141MA1999999096121MD1999999+0121REMSYN076AAXX  21004 83242 324// 61802 10256 20208 39612 40089 85530 333 10314 58012;EQDQ01  00002PRCP99
0201832420999992000032112004-12570-041380FM-12+042799999V0201801N002110042019N0020001N1+02261+02141101291ADDAA124007191AY161061AY221061GF107991071071004501001001KA1240N+02081MA1999999096491MD1999999+0041MW1401REMSYN088AAXX  21124 83242 21495 71804 10226 20214 39649 40129 74062 87700 333 20208 58004 60074;
0182832420999992000032118004-12570-041380FM-12+042799999V0202301N001510450019N0100001N1+02541+02041100901ADDAA106002091AY161061AY241061GF106991041071004501031011MA1999999096121MD1999999+0051MW1031REMSYN082AAXX  21184 83242 21497 62303 10254 20204 39612 40090 70364 84731 333 58005 60021;
0186832420999992000032200004-12570-041380FM-12+042799999V0209999C000012200019N9999999N1+02331+02171101041ADDAA199000091GF103991021051004501031001KA1240M+02731MA1999999096231MD1999999+0111REMSYN076AAXX  22004 83242 324// 30000 10233 20217 39623 40104 82530 333 10273 58011;EQDQ01  00002PRCP99
0173832420999992000032212004-12570-041380FM-12+042799999V0201801N001510450019N0100001N1+02421+02071101161ADDAA124002091GF105991041041004501041001KA1240N+02051MA1999999096361MD1999999-0131REMSYN082AAXX  22124 83242 22497 51803 10242 20207 39636 40116 84440 333 20205 59013 60024;
0179832420999992000032218004-12570-041380FM-12+042799999V0201801N002110042019N0040001N1+02581+02041100961ADDAA199000091GF108991081071004501999999MA1999999096161MD1999999+0041MW1151REMSYN076AAXX  22184 83242 31496 81804 10258 20204 39616 40096 715// 887// 333 58004;EQDQ01  00002PRCP99
0201832420999992000032300004-12570-041380FM-12+042799999V0201801N001010042019N9999999N1+02191+02131101101ADDAA106000191AY151061AY221061GF108991081071004501999999KA1240M+02781MA1999999096291MD1999999+0061MW1031REMSYN088AAXX  23004 83242 214// 81802 10219 20213 39629 40110 70352 887// 333 10278 58006 69921;
0201832420999992000032312004-12570-041380FM-12+042799999V0201801N002110042019N0040001N1+02341+02111101251ADDAA124000191AY151061AY221061GF107991061071004501071001KA1240N+02051MA1999999096421MD1999999+0061MW1101REMSYN088AAXX  23124 83242 21496 71804 10234 20211 39642 40125 71052 86770 333 20205 58006 69914;
0182832420999992000032318004-12570-041380FM-12+042799999V0201801N001510042019N0100001N1+02661+02271101071ADDAA106000391AY151061AY241061GF107991071071004501001001MA1999999096271MD1999999+0111MW1151REMSYN082AAXX  23184 83242 21497 71803 10266 20227 39627 40107 71554 87700 333 58011 69931;
0196832420999992000032400004-12570-041380FM-12+042799999V0203201N000512200019N9999999N1+02141+02091101111ADDAA199000091GA1001+999999999GF100991001001999999001001KA1240M+03221MA1999999096291MD1999999+0001REMSYN070AAXX  24004 83242 329// 03201 10214 20209 39629 40111 333 10322 58000;EQDQ01  00002PRCP99
0201832420999992000032412004-12570-041380FM-12+042799999V0201401N001010042019N0020001N1+02321+02131101411ADDAA124000591AY151061AY221061GF107991061071004501031001KA1240N+02031MA1999999096571MD1999999+0151MW1101REMSYN088AAXX  24124 83242 21495 71402 10232 20213 39657 40141 71052 86730 333 20203 58015 69954;
0167832420999992000032418004-12570-041380FM-12+042799999V0201801N001010450019N0100001N1+02801+02151101121ADDAA199000091GF105991031021004501031091MA1999999096321MD1999999+0051REMSYN070AAXX  24184 83242 32497 51802 10280 20215 39632 40112 83239 333 58005;EQDQ01  00002PRCP99
0196832420999992000032500004-12570-041380FM-12+042799999V0203601N000512200019N9999999N1+02271+01921101101ADDAA199000091GA1001+999999999GF100991001001999999001001KA1240M+02891MA1999999096291MD1999999+0001REMSYN070AAXX  25004 83242 329// 03601 10227 20192 39629 40110 333 10289 58000;EQDQ01  00002PRCP99
0186832420999992000032512004-12570-041380FM-12+042799999V0201401N002110042019N0100001N1+02481+02031101331ADDAA199000091GF106991051071004501031001KA1240N+02031MA1999999096501MD1999999-0071REMSYN076AAXX  25124 83242 32497 61404 10248 20203 39650 40133 85730 333 20203 59007;EQDQ01  00002PRCP99
0167832420999992000032518004-12570-041380FM-12+042799999V0202301N001510450019N0100001N1+03001+02031100811ADDAA199000091GF106991031071004501061011MA1999999096051MD1999999-0271REMSYN070AAXX  25184 83242 32497 62303 10300 20203 39605 40081 83761 333 59027;EQDQ01  00002PRCP99
0201832420999992000032600004-12570-041380FM-12+042799999V0201401N001010042019N9999999N1+02411+02151101051ADDAA106000591AY151061AY221061GF108991081071004501999999KA1240M+03121MA1999999096241MD1999999-0051MW1511REMSYN088AAXX  26004 83242 214// 81402 10241 20215 39624 40105 75152 887// 333 10312 59005 69941;
0201832420999992000032612004-12570-041380FM-12+042799999V0201801N001510042019N0020001N1+02341+02111101241ADDAA124001091AY151061AY241061GF107991061071004501081001KA1240N+02121MA1999999096441MD1999999-0161MW1051REMSYN088AAXX  26124 83242 21495 71803 10234 20211 39644 40124 70554 86780 333 20212 59016 60014;
0167832420999992000032618004-12570-041380FM-12+042799999V0201801N002610450019N0100001N1+02911+01861100761ADDAA199000091GF105991031031004501081021MA1999999096011MD1999999-0041REMSYN070AAXX  26184 83242 32497 51805 10291 20186 39601 40076 83382 333 59004;EQDQ01  00002PRCP99
0186832420999992000032700004-12570-041380FM-12+042799999V0200201N001012200019N9999999N1+02271+01921100971ADDAA199000091GF101991001001999999001021KA1240M+03001MA1999999096161MD1999999-0081REMSYN076AAXX  27004 83242 329// 10202 10227 20192 39616 40097 80002 333 10300 59008;EQDQ01  00002PRCP99
0186832420999992000032712004-12570-041380FM-12+042799999V0201401N001010042019N0040001N1+02471+01981101161ADDAA199000091GF107991071021004501001011KA1240N+02091MA1999999096351MD1999999-0091REMSYN076AAXX  27124 83242 32496 71402 10247 20198 39635 40116 87201 333 20209 59009;EQDQ01  00002PRCP99
0167832420999992000032718004-12570-041380FM-12+042799999V0201801N001010450019N0200001N1+03001+01941100641ADDAA199000091GF107991011011004501051021MA1999999095901MD1999999-0111REMSYN070AAXX  27184 83242 32498 71802 10300 20194 39590 40064 81152 333 59011;EQDQ01  00002PRCP99
0201832420999992000032812004-12570-041380FM-12+042799999V0201401N002110450019N0040001N1+02421+01131101231ADDAA124029091AY161061AY221061GF106991041071004501071021KA1240N+02111MA1999999096441MD1999999+0091MW1051REMSYN088AAXX  28124 83242 21496 61404 10242 20113 39644 40123 70562 84772 333 20211 58009 60294;
0167832420999992000032818004-12570-041380FM-12+042799999V0201401N001510450019N0100001N1+02921+02011100701ADDAA199000091GF106991031041004501031081MA1999999095951MD1999999+0051REMSYN070AAXX  28184 83242 32497 61403 10292 20201 39595 40070 83438 333 58005;EQDQ01  00002PRCP99
0186832420999992000032900004-12570-041380FM-12+042799999V0201801N001010042019N9999999N1+02461+02031100931ADDAA199000091GF106991061071004501001001KA1240M+03031MA1999999096151MD1999999-0041REMSYN076AAXX  29004 83242 324// 61802 10246 20203 39615 40093 86700 333 10303 59004;EQDQ01  00002PRCP99
0201832420999992000032912004-12570-041380FM-12+042799999V0201401N000510450019N0100001N1+02251+01991101201ADDAA124025991AY161061AY221061GF106991041071004501031011KA1240N+01911MA1999999096391MD1999999-0051MW1031REMSYN088AAXX  29124 83242 21497 61401 10225 20199 39639 40120 70362 84731 333 20191 59005 60264;
0167832420999992000032918004-12570-041380FM-12+042799999V0201801N001010042019N0100001N1+02801+02061100791ADDAA199000091GF107991051071004501031021MA1999999096031MD1999999+0081REMSYN070AAXX  29184 83242 32497 71802 10280 20206 39603 40079 85732 333 58008;EQDQ01  00002PRCP99
0201832420999992000033000004-12570-041380FM-12+042799999V0203201N001010042019N9999999N1+02161+02111101081ADDAA106003091AY191061AY261061GF108991081071004501999999KA1240M+02901MA1999999096261MD1999999+0111MW1511REMSYN088AAXX  30004 83242 214// 83202 10216 20211 39626 40108 75196 887// 333 10290 58011 60031;
0201832420999992000033012004-12570-041380FM-12+042799999V0201801N001510042019N0040001N1+02261+02111101241ADDAA124008991AY161061AY221061GF107991061071004501031001KA1240N+02071MA1999999096401MD1999999+0011MW1101REMSYN088AAXX  30124 83242 21496 71803 10226 20211 39640 40124 71062 86730 333 20207 58001 60094;
0179832420999992000033018004-12570-041380FM-12+042799999V0202301N001510450019N0100001N1+02861+02091100931ADDAA199000091GF106991041071004501061021MA1999999096151MD1999999+0121MW1151REMSYN076AAXX  30184 83242 31497 62303 10286 20209 39615 40093 715// 84762 333 58012;EQDQ01  00002PRCP99
0186832420999992000033100004-12570-041380FM-12+042799999V0201801N003110042019N9999999N1+02341+01931101161ADDAA199000091GF108991081071004501999999KA1240M+02921MA1999999096341MD1999999+0081REMSYN076AAXX  31004 83242 324// 81806 10234 20193 39634 40116 887// 333 10292 58008;EQDQ01  00002PRCP99
0198832420999992000033112004-12570-041380FM-12+042799999V0201801N002610042019N0040001N1+02361+02051101351ADDAA199000091GF106991051071004501031001KA1240N+02071MA1999999096531MD1999999+0131MW1101REMSYN082AAXX  31124 83242 31496 61805 10236 20205 39653 40135 710// 85730 333 20207 58013;EQDQ01  00002PRCP99
0167832420999992000033118004-12570-041380FM-12+042799999V0201801N001510450019N0100001N1+02811+02021100881ADDAA199000091GF105991031071004501041001MA1999999096101MD1999999-0051REMSYN070AAXX  31184 83242 32497 51803 10281 20202 39610 40088 83740 333 59005;EQDQ01  00002PRCP99
0186832420999992000040100004-12570-041380FM-12+042799999V0201801N001510042019N9999999N1+02441+02071101141ADDAA199000091GF108991081061004501999999KA1240M+02901MA1999999096341MD1999999+0001REMSYN076AAXX  01004 83242 324// 81803 10244 20207 39634 40114 886// 333 10290 58000;EQDQ01  00002PRCP99
0186832420999992000040112004-12570-041380FM-12+042799999V0201801N001510042019N0100001N1+02471+02071101361ADDAA199000091GF107991061071004501031001KA1240N+02131MA1999999096561MD1999999+0031REMSYN076AAXX  01124 83242 32497 71803 10247 20207 39656 40136 86730 333 20213 58003;EQDQ01  00002PRCP99
0167832420999992000040118004-12570-041380FM-12+042799999V0201801N002112200019N0100001N1+02881+02001100921ADDAA199000091GF102991011031004501001011MA1999999096161MD1999999+0061REMSYN070AAXX  01184 83242 32497 21804 10288 20200 39616 40092 81301 333 58006;EQDQ01  00002PRCP99
0186832420999992000040200004-12570-041380FM-12+042799999V0201801N000510042019N9999999N1+02401+01991101171ADDAA199000091GF108991081071004501999999KA1240M+02981MA1999999096381MD1999999+0041REMSYN076AAXX  02004 83242 324// 81801 10240 20199 39638 40117 887// 333 10298 58004;EQDQ01  00002PRCP99
0201832420999992000040212004-12570-041380FM-12+042799999V0201401N001510042019N0040001N1+02471+02051101371ADDAA124000191AY151061AY221061GF107991061071004501081001KA1240N+02171MA1999999096571MD1999999+0011MW1051REMSYN088AAXX  02124 83242 21496 71403 10247 20205 39657 40137 70552 86780 333 20217 58001 69914;
0167832420999992000040218004-12570-041380FM-12+042799999V0201801N002110450019N0100001N1+02961+01991100881ADDAA199000091GF106991041071004501031091MA1999999096131MD1999999-0031REMSYN070AAXX  02184 83242 32497 61804 10296 20199 39613 40088 84739 333 59003;EQDQ01  00002PRCP99
0186832420999992000040300004-12570-041380FM-12+042799999V0201401N000510042019N9999999N1+02351+02151101281ADDAA199000091GF108991081071004501999999KA1240M+03021MA1999999096481MD1999999+0101REMSYN076AAXX  03004 83242 324// 81401 10235 20215 39648 40128 887// 333 10302 58010;EQDQ01  00002PRCP99
0201832420999992000040312004-12570-041380FM-12+042799999V0201801N002110042019N0020001N1+02341+02151101421ADDAA124000391AY181061AY251061GF108991081071004501999999KA1240N+02151MA1999999096601MD1999999+0031MW1401REMSYN088AAXX  03124 83242 21495 81804 10234 20215 39660 40142 74085 887// 333 20215 58003 69934;
0179832420999992000040318004-12570-041380FM-12+042799999V0202301N002110450019N0100001N1+02861+02161100961ADDAA199000091GF105991031071004501031091MA1999999096191MD1999999+0061MW1151REMSYN076AAXX  03184 83242 31497 52304 10286 20216 39619 40096 715// 83739 333 58006;EQDQ01  00002PRCP99
0201832420999992000040400004-12570-041380FM-12+042799999V0202701N000510042019N9999999N1+02201+02131101321ADDAA106003091AY191061AY261061GF108991081071004501999999KA1240M+02981MA1999999096491MD1999999+0011MW1031REMSYN088AAXX  04004 83242 214// 82701 10220 20213 39649 40132 70396 887// 333 10298 58001 60031;
0201832420999992000040412004-12570-041380FM-12+042799999V0201801N003110042019N0020001N1+02201+02061101541ADDAA124020191AY161061AY221061GF107991061071004501031001KA1240N+02031MA1999999096691MD1999999+0091MW1101REMSYN088AAXX  04124 83242 21495 71806 10220 20206 39669 40154 71062 86730 333 20203 58009 60204;
0182832420999992000040418004-12570-041380FM-12+042799999V0201801N002110450019N0100001N1+02601+02121101071ADDAA106000591AY151061AY211061GF106991041071004501061001MA1999999096271MD1999999+0081MW1021REMSYN082AAXX  04184 83242 21497 61804 10260 20212 39627 40107 70251 84760 333 58008 69961;
0201832420999992000040500004-12570-041380FM-12+042799999V0201801N001510042019N9999999N1+02101+02081101461ADDAA106039991AY191061AY281061GF108991081071004501999999KA1240M+02761MA1999999096601MD1999999+0111MW1611REMSYN088AAXX  05004 83242 214// 81803 10210 20208 39660 40146 76198 887// 333 10276 58011 60401;
0201832420999992000040512004-12570-041380FM-12+042799999V0201801N002610042019N0020001N1+02221+02081101541ADDAA124040991AY161061AY251061GF108991081071004501999999KA1240N+02051MA1999999096681MD1999999-0011MW1101REMSYN088AAXX  05124 83242 21495 81805 10222 20208 39668 40154 71065 887// 333 20205 59001 60414;
0182832420999992000040518004-12570-041380FM-12+042799999V0201801N001010450019N0040001N1+02561+02251101121ADDAA106002091AY161061AY221061GF106991031071004501051031MA1999999096301MD1999999+0031MW1031REMSYN082AAXX  05184 83242 21496 61802 10256 20225 39630 40112 70362 83753 333 58003 60021;
0201832420999992000040600004-12570-041380FM-12+042799999V0201801N000510042019N9999999N1+02191+02151101411ADDAA106016091AY161061AY221061GF108991081071004501999999KA1240M+02701MA1999999096561MD1999999-0041MW1031REMSYN088AAXX  06004 83242 214// 81801 10219 20215 39656 40141 70362 887// 333 10270 59004 60161;
0201832420999992000040612004-12570-041380FM-12+042799999V0201801N002610042019N0020001N1+02241+02161101481ADDAA124019191AY151061AY221061GF107991061071004501031001KA1240N+02011MA1999999096631MD1999999-0051MW1101REMSYN088AAXX  06124 83242 21495 71805 10224 20216 39663 40148 71052 86730 333 20201 59005 60194;
0182832420999992000040618004-12570-041380FM-12+042799999V0201801N001512200019N0100001N1+02721+02031101031ADDAA106003091AY161061AY221061GF104991021071004501061011MA1999999096241MD1999999-0061MW1021REMSYN082AAXX  06184 83242 21497 41803 10272 20203 39624 40103 70262 82761 333 59006 60031;
0201832420999992000040712004-12570-041380FM-12+042799999V0201801N003110042019N0020001N1+02371+02091101301ADDAA124004191AY161061AY241061GF107991071071004501001001KA1240N+02091MA1999999096481MD1999999-0151MW1151REMSYN088AAXX  07124 83242 21495 71806 10237 20209 39648 40130 71564 87700 333 20209 59015 60044;
0167832420999992000040718004-12570-041380FM-12+042799999V0201801N002112200019N0100001N1+02891+01991100821ADDAA199000091GF102991011021004501081001MA1999999096061MD1999999-0181REMSYN070AAXX  07184 83242 32497 21804 10289 20199 39606 40082 81280 333 59018;EQDQ01  00002PRCP99
0201832420999992000040800004-12570-041380FM-12+042799999V0201801N000510042019N9999999N1+02281+02141101171ADDAA106002091AY191061AY261061GF108991081071004501999999KA1240M+03001MA1999999096361MD1999999-0031MW1021REMSYN088AAXX  08004 83242 214// 81801 10228 20214 39636 40117 70296 887// 333 10300 59003 60021;
0201832420999992000040812004-12570-041380FM-12+042799999V0200901N002110042019N0020001N1+02281+02091101371ADDAA124017091AY161061AY221061GF107991051031004501051011KA1240N+02031MA1999999096541MD1999999+0061MW1101REMSYN088AAXX  08124 83242 21495 70904 10228 20209 39654 40137 71062 85351 333 20203 58006 60174;
0167832420999992000040818004-12570-041380FM-12+042799999V0201801N001010450019N0100001N1+02781+01981100971ADDAA199000091GF107991021031004501051021MA1999999096181MD1999999+0121REMSYN070AAXX  08184 83242 32497 71802 10278 20198 39618 40097 82352 333 58012;EQDQ01  00002PRCP99
0186832420999992000040900004-12570-041380FM-12+042799999V0201801N000510042019N9999999N1+02241+02051101201ADDAA199000091GF108991081071004501999999KA1240M+02851MA1999999096371MD1999999+0011REMSYN076AAXX  09004 83242 324// 81801 10224 20205 39637 40120 887// 333 10285 58001;EQDQ01  00002PRCP99
0201832420999992000040912004-12570-041380FM-12+042799999V0201801N001010042019N0040001N1+02281+02141101201ADDAA124000191AY101061AY221061GF107991061061004501071001KA1240N+02031MA1999999096371MD1999999-0171MW1151REMSYN088AAXX  09124 83242 21496 71802 10228 20214 39637 40120 71502 86670 333 20203 59017 69914;
0167832420999992000040918004-12570-041380FM-12+042799999V0201801N001510042019N0100001N1+02821+02101100891ADDAA199000091GF106991051071004501031001MA1999999096111MD1999999-0071REMSYN070AAXX  09184 83242 32497 61803 10282 20210 39611 40089 85730 333 59007;EQDQ01  00002PRCP99
0186832420999992000041000004-12570-041380FM-12+042799999V0201801N000512200019N9999999N1+02281+02111101101ADDAA199000091GF102991021001008001031001KA1240M+02901MA1999999096251MD1999999-0121REMSYN076AAXX  10004 83242 325// 21801 10228 20211 39625 40110 82030 333 10290 59012;EQDQ01  00002PRCP99
0201832420999992000041012004-12570-041380FM-12+042799999V0201801N001510042019N0020001N1+02321+02051101251ADDAA124000191AY151061AY211061GF107991061071004501061001KA1240N+02071MA1999999096431MD1999999+0061MW1101REMSYN088AAXX  10124 83242 21495 71803 10232 20205 39643 40125 71051 86760 333 20207 58006 69914;
0167832420999992000041018004-12570-041380FM-12+042799999V0201801N001010450019N0100001N1+02581+02101100951ADDAA199000091GF107991041061004501071001MA1999999096161MD1999999+0051REMSYN070AAXX  10184 83242 32497 71802 10258 20210 39616 40095 84670 333 58005;EQDQ01  00002PRCP99
0186832420999992000041100004-12570-041380FM-12+042799999V0209999C000010042019N9999999N1+02181+02101101141ADDAA199000091GF108991081071004501999999KA1240M+02661MA1999999096311MD1999999+0061REMSYN076AAXX  11004 83242 324// 80000 10218 20210 39631 40114 887// 333 10266 58006;EQDQ01  00002PRCP99
0186832420999992000041112004-12570-041380FM-12+042799999V0201801N001010450019N0100001N1+02401+02091101271ADDAA199000091GF106991041071004501061011KA1240N+02091MA1999999096461MD1999999+0031REMSYN076AAXX  11124 83242 32497 61802 10240 20209 39646 40127 84761 333 20209 58003;EQDQ01  00002PRCP99
0167832420999992000041118004-12570-041380FM-12+042799999V0201801N001510450019N0100001N1+02781+02301100911ADDAA199000091GF106991041041004501061021MA1999999096131MD1999999-0031REMSYN070AAXX  11184 83242 32497 61803 10278 20230 39613 40091 84462 333 59003;EQDQ01  00002PRCP99
0186832420999992000041200004-12570-041380FM-12+042799999V0201801N001012200019N9999999N1+02261+01991100941ADDAA199000091GF103991021051004501061001KA1240M+02861MA1999999096141MD1999999-0171REMSYN076AAXX  12004 83242 324// 31802 10226 20199 39614 40094 82560 333 10286 59017;EQDQ01  00002PRCP99
0186832420999992000041212004-12570-041380FM-12+042799999V0201801N001510450019N0100001N1+02371+02071101201ADDAA199000091GF106991041071004501031001KA1240N+02051MA1999999096441MD1999999-0061REMSYN076AAXX  12124 83242 32497 61803 10237 20207 39644 40120 84730 333 20205 59006;EQDQ01  00002PRCP99
0167832420999992000041218004-12570-041380FM-12+042799999V0202301N000510450019N0100001N1+02921+01921100771ADDAA199000091GF106991031021004501021011MA1999999096011MD1999999-0121REMSYN070AAXX  12184 83242 32497 62301 10292 20192 39601 40077 83221 333 59012;EQDQ01  00002PRCP99
0186832420999992000041300004-12570-041380FM-12+042799999V0201801N000510042019N9999999N1+02301+01961100951ADDAA199000091GF107991071061004501001001KA1240M+02981MA1999999096151MD1999999+0011REMSYN076AAXX  13004 83242 324// 71801 10230 20196 39615 40095 87600 333 10298 58001;EQDQ01  00002PRCP99
0186832420999992000041312004-12570-041380FM-12+042799999V0201801N001510042019N0040001N1+02471+01941101271ADDAA199000091GF107991061031004501031001KA1240N+02141MA1999999096471MD1999999+0071REMSYN076AAXX  13124 83242 32496 71803 10247 20194 39647 40127 86330 333 20214 58007;EQDQ01  00002PRCP99
0167832420999992000041318004-12570-041380FM-12+042799999V0201801N001512200019N0100001N1+02961+02101100851ADDAA199000091GF102991011071004501081031MA1999999096011MD1999999+0001REMSYN070AAXX  13184 83242 32497 21803 10296 20210 39601 40085 81783 333 58000;EQDQ01  00002PRCP99
0186832420999992000041400004-12570-041380FM-12+042799999V0203601N001010042019N9999999N1+02481+02151101111ADDAA199000091GF108991081071004501999999KA1240M+03001MA1999999096331MD1999999+0181REMSYN076AAXX  14004 83242 324// 83602 10248 20215 39633 40111 887// 333 10300 58018;EQDQ01  00002PRCP99
0167832420999992000041418004-12570-041380FM-12+042799999V0201801N002110042019N0100001N1+02801+01951100911ADDAA199000091GF107991051071004501031011MA1999999096151MD1999999+0141REMSYN070AAXX  14184 83242 32497 71804 10280 20195 39615 40091 85731 333 58014;EQDQ01  00002PRCP99
0186832420999992000041500004-12570-041380FM-12+042799999V0200901N000510042019N9999999N1+02441+02071101221ADDAA199000091GF108991081071004501999999KA1240M+02901MA1999999096431MD1999999+0101REMSYN076AAXX  15004 83242 324// 80901 10244 20207 39643 40122 887// 333 10290 58010;EQDQ01  00002PRCP99
0186832420999992000041512004-12570-041380FM-12+042799999V0200901N000510450019N0100001N1+02441+02011101391ADDAA199000091GF106991041071004501031001KA1240N+02111MA1999999096591MD1999999+0091REMSYN076AAXX  15124 83242 32497 60901 10244 20201 39659 40139 84730 333 20211 58009;EQDQ01  00002PRCP99
0167832420999992000041518004-12570-041380FM-12+042799999V0201801N001512200019N0100001N1+02981+02371100871ADDAA199000091GF104991011021004501061051MA1999999096121MD1999999-0031REMSYN070AAXX  15184 83242 32497 41803 10298 20237 39612 40087 81265 333 59003;EQDQ01  00002PRCP99
0186832420999992000041600004-12570-041380FM-12+042799999V0203601N000510450019N9999999N1+02401+01991101291ADDAA199000091GF107991031071004501051021KA1240M+03061MA1999999096491MD1999999+0061REMSYN076AAXX  16004 83242 324// 73601 10240 20199 39649 40129 83752 333 10306 58006;EQDQ01  00002PRCP99
0201832420999992000041612004-12570-041380FM-12+042799999V0203601N001510042019N0040001N1+02321+02131101381ADDAA124000191AY151061AY221061GF108991081061004501999999KA1240N+02031MA1999999096561MD1999999-0031MW1101REMSYN088AAXX  16124 83242 21496 83603 10232 20213 39656 40138 71052 886// 333 20203 59003 69924;
0167832420999992000041618004-12570-041380FM-12+042799999V0201801N001512200019N0100001N1+02981+02041100801ADDAA199000091GF103991011021004501031051MA1999999096071MD1999999-0051REMSYN070AAXX  16184 83242 32497 31803 10298 20204 39607 40080 81235 333 59005;EQDQ01  00002PRCP99
0186832420999992000041700004-12570-041380FM-12+042799999V0201801N000510450019N9999999N1+02341+02011100981ADDAA199000091GF106991041051004501031001KA1240M+03041MA1999999096181MD1999999-0311REMSYN076AAXX  17004 83242 324// 61801 10234 20201 39618 40098 84530 333 10304 59031;EQDQ01  00002PRCP99
0201832420999992000041712004-12570-041380FM-12+042799999V0202701N000510042019N0020001N1+02331+02091101311ADDAA124000191AY151061AY221061GF108991081071004501999999KA1240N+02171MA1999999096501MD1999999-0061MW1401REMSYN088AAXX  17124 83242 21495 82701 10233 20209 39650 40131 74052 887// 333 20217 59006 69914;
0179832420999992000041718004-12570-041380FM-12+042799999V0201801N001012200019N0040001N1+02811+02021100791ADDAA199000091GF104991021021004501031011MA1999999096041MD1999999-0031MW1051REMSYN076AAXX  17184 83242 31496 41802 10281 20202 39604 40079 705// 82231 333 59003;EQDQ01  00002PRCP99
0186832420999992000041800004-12570-041380FM-12+042799999V0203601N001010042019N9999999N1+02331+02001101061ADDAA199000091GF107991071071004501001001KA1240M+02921MA1999999096261MD1999999+0081REMSYN076AAXX  18004 83242 324// 73602 10233 20200 39626 40106 87700 333 10292 58008;EQDQ01  00002PRCP99
0201832420999992000041812004-12570-041380FM-12+042799999V0201801N001510042019N0100001N1+02381+02011101341ADDAA124000791AY151061AY241061GF107991051031004501061001KA1240N+02131MA1999999096521MD1999999+0021MW1031REMSYN088AAXX  18124 83242 21497 71803 10238 20201 39652 40134 70354 85360 333 20213 58002 69904;
0167832420999992000041818004-12570-041380FM-12+042799999V0201801N001012200019N0100001N1+02841+02011100841ADDAA199000091GF104991031021004501031001MA1999999096091MD1999999+0051REMSYN070AAXX  18184 83242 32497 41802 10284 20201 39609 40084 83230 333 58005;EQDQ01  00002PRCP99
0186832420999992000041900004-12570-041380FM-12+042799999V0203601N000512200019N9999999N1+02281+02001101061ADDAA199000091GF103991031001012501031001KA1240M+02931MA1999999096251MD1999999-0011REMSYN076AAXX  19004 83242 326// 33601 10228 20200 39625 40106 83030 333 10293 59001;EQDQ01  00002PRCP99
0186832420999992000041912004-12570-041380FM-12+042799999V0201801N001010042019N0100001N1+02401+02051101381ADDAA199000091GF108991051071004501071001KA1240N+02171MA1999999096561MD1999999-0041REMSYN076AAXX  19124 83242 32497 81802 10240 20205 39656 40138 85770 333 20217 59004;EQDQ01  00002PRCP99
0167832420999992000041918004-12570-041380FM-12+042799999V0201801N001512200019N0100001N1+02941+02161100991ADDAA199000091GF103991021021004501011001MA1999999096241MD1999999+0151REMSYN070AAXX  19184 83242 32497 31803 10294 20216 39624 40099 82210 333 58015;EQDQ01  00002PRCP99
0196832420999992000042000004-12570-041380FM-12+042799999V0203601N000512200019N9999999N1+02341+02011101111ADDAA199000091GA1001+999999999GF100991001001999999001001KA1240M+03001MA1999999096301MD1999999+0051REMSYN070AAXX  20004 83242 329// 03601 10234 20201 39630 40111 333 10300 58005;EQDQ01  00002PRCP99
0201832420999992000042012004-12570-041380FM-12+042799999V0201801N001510042019N0020001N1+02441+02191101271ADDAA124000791AY151061AY211061GF108991081061004501999999KA1240N+02091MA1999999096471MD1999999-0091MW1101REMSYN088AAXX  20124 83242 21495 81803 10244 20219 39647 40127 71051 886// 333 20209 59009 69904;
0167832420999992000042018004-12570-041380FM-12+042799999V0201801N001510450019N0100001N1+03061+02141100691ADDAA199000091GF108991021031004501051071MA1999999095951MD1999999-0291REMSYN070AAXX  20184 83242 32497 81803 10306 20214 39595 40069 82357 333 59029;EQDQ01  00002PRCP99
0186832420999992000042112004-12570-041380FM-12+042799999V0200901N001510042019N0040001N1+02601+02191101041ADDAA199000091GF107991061071004501081001KA1240N+02331MA1999999096281MD1999999-0191REMSYN076AAXX  21124 83242 32496 70903 10260 20219 39628 40104 86780 333 20233 59019;EQDQ01  00002PRCP99
0167832420999992000042118004-12570-041380FM-12+042799999V0201401N002110450019N0100001N1+03221+02031100411ADDAA199000091GF108991011031004501081071MA1999999095721MD1999999-0231REMSYN070AAXX  21184 83242 32497 81404 10322 20203 39572 40041 81387 333 59023;EQDQ01  00002PRCP99
0198832420999992000042200004-12570-041380FM-12+042799999V0202701N000510450019N9999999N1+02661+02071100731ADDAA199000091GF106991041071004501081011KA1240M+03291MA1999999096001MD1999999-0151MW1131REMSYN082AAXX  22004 83242 314// 62701 10266 20207 39600 40073 713// 84781 333 10329 59015;EQDQ01  00002PRCP99
0167832420999992000042218004-12570-041380FM-12+042799999V0201801N002611050019N0100001N1+03061+02381100501ADDAA199000091GF107991031071004501001031MA1999999095791MD1999999+0071REMSYN070AAXX  22184 83242 32497 71805 10306 20238 39579 40050 83703 333 58007;EQDQ01  00002PRCP99
0201832420999992000042300004-12570-041380FM-12+042799999V0203601N001010042019N9999999N1+02461+02251100901ADDAA106000891AY191061AY251061GF107991071071004501001001KA1240M+03141MA1999999096131MD1999999+0131MW1131REMSYN088AAXX  23004 83242 214// 73602 10246 20225 39613 40090 71395 87700 333 10314 58013 69971;
0201832420999992000042312004-12570-041380FM-12+042799999V0203601N001510042019N0020001N1+02361+02221101231ADDAA124009991AY161061AY241061GF107991051071004501031031KA1240N+02131MA1999999096431MD1999999+0181MW1101REMSYN088AAXX  23124 83242 21495 73603 10236 20222 39643 40123 71064 85733 333 20213 58018 60104;
0167832420999992000042318004-12570-041380FM-12+042799999V0201801N001010042019N0100001N1+02851+02231100831ADDAA199000091GF107991051071004501031021MA1999999096081MD1999999+0291REMSYN070AAXX  23184 83242 32497 71802 10285 20223 39608 40083 85732 333 58029;EQDQ01  00002PRCP99
0201832420999992000042400004-12570-041380FM-12+042799999V0203601N001010042019N9999999N1+02461+02251100901ADDAA106000891AY191061AY251061GF107991071071004501001001KA1240M+03141MA1999999096131MD1999999+0131MW1131REMSYN088AAXX  24004 83242 214// 73602 10246 20225 39613 40090 71395 87700 333 10314 58013 69971;
0167832420999992000042418004-12570-041380FM-12+042799999V0201801N001510450019N0100001N1+02741+02071100971ADDAA199000091GF107991021071004501051021MA1999999096191MD1999999+0111REMSYN070AAXX  24184 83242 32497 71803 10274 20207 39619 40097 82752 333 58011;EQDQ01  00002PRCP99
0201832420999992000042500004-12570-041380FM-12+042799999V0203601N000510042019N9999999N1+02311+02161101231ADDAA106001091AY161061AY221061GF108991081071004501999999KA1240M+02821MA1999999096411MD1999999-0101MW1021REMSYN088AAXX  25004 83242 214// 83601 10231 20216 39641 40123 70262 887// 333 10282 59010 60011;
0201832420999992000042512004-12570-041380FM-12+042799999V0201801N001510042019N0040001N1+02291+02011101401ADDAA124004191AY161061AY221061GF106991051071004501041001KA1240N+02071MA1999999096561MD1999999+0071MW1401REMSYN088AAXX  25124 83242 21496 61803 10229 20201 39656 40140 74062 85740 333 20207 58007 60044;
0168832420999992000042518004-12570-041380FM-12+042799999V0201801N001512200019N0100001N1+02801+02061100951ADDAA199000091GF104991021021004501021011MD1999999-0021REMSYN070AAXX  25184 83242 32497 41803 10280 20206 39160 40095 82221 333 59002;EQDQ01+091603APOSP Q02  00002PRCP99
0196832420999992000042600004-12570-041380FM-12+042799999V0200501N002112200019N9999999N1+02101+01861101261ADDAA199000091GA1001+999999999GF100991001001999999001001KA1240M+02861MA1999999096421MD1999999+0011REMSYN070AAXX  26004 83242 329// 00504 10210 20186 39642 40126 333 10286 58001;EQDQ01  00002PRCP99
0125832420999992000042612004-12570-041380FM-12+042799999V0201801N001519999999N0100001N1+02251+99999999999ADDGF105991999999004501999999REMSYN087AAXX  26124 83242 21497 51803 10225 2090 39669 40154 70254 83542 333 20195 58013 69934;
0167832420999992000042618004-12570-041380FM-12+042799999V0201401N001512200019N0100001N1+02781+01761101171ADDAA199000091GF104991031041004501031001MA1999999096371MD1999999+0201REMSYN070AAXX  26184 83242 32497 41403 10278 20176 39637 40117 83430 333 58020;EQDQ01  00002PRCP99
0186832420999992000042700004-12570-041380FM-12+042799999V0201801N000510042019N9999999N1+02141+01881101391ADDAA199000091GF106991061051004501001001KA1240M+02341MA1999999096541MD1999999-0121REMSYN076AAXX  27004 83242 324// 61801 10214 20188 39654 40139 86500 333 10234 59012;EQDQ01  00002PRCP99
0186832420999992000042712004-12570-041380FM-12+042799999V0201801N002110042019N0100001N1+02241+01901101581ADDAA199000091GF106991051071004501061001KA1240N+02031MA1999999096721MD1999999-0031REMSYN076AAXX  27124 83242 32497 61804 10224 20190 39672 40158 85760 333 20203 59003;EQDQ01  00002PRCP99
0167832420999992000042718004-12570-041380FM-12+042799999V0201401N001512200019N0100001N1+02821+01911101091ADDAA199000091GF103991021021004501041001MA1999999096301MD1999999-0071REMSYN070AAXX  27184 83242 32497 31403 10282 20191 39630 40109 82240 333 59007;EQDQ01  00002PRCP99
0186832420999992000042800004-12570-041380FM-12+042799999V0209999C000012200019N9999999N1+02171+01841101391ADDAA199000091GF102991021031004501001001KA1240M+02901MA1999999096541MD1999999+0001REMSYN076AAXX  28004 83242 324// 20000 10217 20184 39654 40139 82300 333 10290 58000;EQDQ01  00002PRCP99
0198832420999992000042812004-12570-041380FM-12+042799999V0201401N001510042019N0040001N1+02201+01991101651ADDAA199000091GF108991081071004501999999KA1240N+02041MA1999999096791MD1999999+0071MW1161REMSYN082AAXX  28124 83242 31496 81403 10220 20199 39679 40165 716// 887// 333 20204 58007;EQDQ01  00002PRCP99
0179832420999992000042818004-12570-041380FM-12+042799999V0201801N001010450019N0100001N1+02681+01991101171ADDAA199000091GF106991041071004501061011MA1999999096371MD1999999+0071MW1151REMSYN076AAXX  28184 83242 31497 61802 10268 20199 39637 40117 715// 84761 333 58007;EQDQ01  00002PRCP99
0201832420999992000042900004-12570-041380FM-12+042799999V0203601N000510042019N9999999N1+02261+02181101441ADDAA106003091AY161061AY211061GF108991081071004501999999KA1240M+02861MA1999999096601MD1999999+0061MW1501REMSYN088AAXX  29004 83242 214// 83601 10226 20218 39660 40144 75061 887// 333 10286 58006 60031;
0201832420999992000042912004-12570-041380FM-12+042799999V0203601N001010042019N0020001N1+02201+02121101621ADDAA124021191AY161061AY221061GF108991081071004501999999KA1240N+01931MA1999999096771MD1999999-0021MW1101REMSYN088AAXX  29124 83242 21495 83602 10220 20212 39677 40162 71062 887// 333 20193 59002 60214;
0182832420999992000042918004-12570-041380FM-12+042799999V0201801N001010042019N0100001N1+02641+02421101341ADDAA106000791AY151061AY221061GF106991051071004501031001MA1999999096511MD1999999+0141MW1101REMSYN082AAXX  29184 83242 31497 61802 10264 20242 39651 40134 71052 85730 333 58014 69901;
0198832420999992000043000004-12570-041380FM-12+042799999V0200901N000512200019N9999999N1+02181+02041101411ADDAA199000091GF104991041071004501001001KA1240M+02771MA1999999096561MD1999999-0041MW1101REMSYN082AAXX  30004 83242 314// 40901 10218 20204 39656 40141 710// 84700 333 10277 59004;EQDQ01  00002PRCP99
0201832420999992000043012004-12570-041380FM-12+042799999V0201801N001510450019N0040001N1+02281+02131101561ADDAA124023991AY181061AY261061GF106991041071004501031021KA1240N+02071MA1999999096711MD1999999-0061MW1101REMSYN088AAXX  30124 83242 21496 61803 10228 20213 39671 40156 71086 84732 333 20207 59006 60244;
0167832420999992000043018004-12570-041380FM-12+042799999V0201801N001512200019N0100001N1+02701+02061101081ADDAA199000091GF104991021021004501031011MA1999999096291MD1999999-0221REMSYN070AAXX  30184 83242 32497 41803 10270 20206 39629 40108 82231 333 59022;EQDQ01  00002PRCP99
0201832420999992000050100004-12570-041380FM-12+042799999V0200901N001510042019N9999999N1+02361+02071101381ADDAA106000191AY151061AY211061GF108991081071004501999999KA1240M+02781MA1999999096551MD1999999-0011MW1101REMSYN088AAXX  01004 83242 214// 80903 10236 20207 39655 40138 71051 887// 333 10278 59001 69921;
0201832420999992000050112004-12570-041380FM-12+042799999V0201801N001510042019N0010001N1+02141+02091101571ADDAA124002091AY141061AY221061GF108991081061004501999999KA1240N+02071MA1999999096721MD1999999+0011MW1601REMSYN088AAXX  01124 83242 21494 81803 10214 20209 39672 40157 76042 886// 333 20207 58001 60024;
0182832420999992000050118004-12570-041380FM-12+042799999V0201801N000510042019N0020001N1+02451+02131101101ADDAA106004191AY161061AY241061GF107991051071004501051091MA1999999096291MD1999999+0001MW1161REMSYN082AAXX  01184 83242 21495 71801 10245 20213 39629 40110 71664 85759 333 58000 60041;
0201832420999992000050200004-12570-041380FM-12+042799999V0200901N001010042019N9999999N1+02181+02151101431ADDAA106005191AY161061AY241061GF108991081061004501999999KA1240M+02521MA1999999096571MD1999999+0021MW1101REMSYN088AAXX  02004 83242 214// 80902 10218 20215 39657 40143 71064 886// 333 10252 58002 60051;
0201832420999992000050212004-12570-041380FM-12+042799999V0201801N002110042019N0100001N1+02321+02051101501ADDAA124009991AY161061AY241061GF106991051071004501051001KA1240N+02071MA1999999096661MD1999999-0061MW1021REMSYN088AAXX  02124 83242 21497 61804 10232 20205 39666 40150 70264 85750 333 20207 59006 60104;
0167832420999992000050218004-12570-041380FM-12+042799999V0201801N003112200019N0100001N1+02771+01911101011ADDAA199000091GF104991021031004501081031MA1999999096231MD1999999-0061REMSYN070AAXX  02184 83242 32497 41806 10277 20191 39623 40101 82383 333 59006;EQDQ01  00002PRCP99
0201832420999992000050312004-12570-041380FM-12+042799999V0201801N002110042019N0020001N1+02171+02101101521ADDAA124001091AY161061AY211061GF107991061071004501061001KA1240N+02011MA1999999096671MD1999999+0011MW1101REMSYN088AAXX  03124 83242 21495 71804 10217 20210 39667 40152 71061 86760 333 20201 58001 60014;
0179832420999992000050318004-12570-041380FM-12+042799999V0201801N002110450019N0040001N1+02731+02021101051ADDAA199000091GF106991041071004501061021MA1999999096261MD1999999-0031MW1151REMSYN076AAXX  03184 83242 31496 61804 10273 20202 39626 40105 715// 84762 333 59003;EQDQ01  00002PRCP99
0201832420999992000050400004-12570-041380FM-12+042799999V0209999C000010042019N9999999N1+02181+01041101371ADDAA106005191AY161061AY221061GF108991081071004501999999KA1240M+02861MA1999999096521MD1999999-0021MW1021REMSYN088AAXX  04004 83242 214// 80000 10218 20104 39652 40137 70262 887// 333 10286 59002 60051;
0201832420999992000050412004-12570-041380FM-12+042799999V0201801N002110042019N0040001N1+02271+02031101451ADDAA124005191AY161061AY221061GF107991061071004501061001KA1240N+02011MA1999999096611MD1999999-0061MW1401REMSYN088AAXX  04124 83242 21496 71804 10227 20203 39661 40145 74062 86760 333 20201 59006 60054;
0182832420999992000050418004-12570-041380FM-12+042799999V0201801N000510042019N0020001N1+02371+02131101161ADDAA106004191AY161061AY221061GF107991051071004501041001MA1999999096321MD1999999+0061MW1101REMSYN082AAXX  04184 83242 21495 71801 10237 20213 39632 40116 71062 85740 333 58006 60041;
0201832420999992000050500004-12570-041380FM-12+042799999V0202701N001010042019N9999999N1+02121+02091101331ADDAA106007991AY161061AY241061GF108991081071004501999999KA1240M+02601MA1999999096491MD1999999-0031MW1511REMSYN088AAXX  05004 83242 214// 82702 10212 20209 39649 40133 75164 887// 333 10260 59003 60081;
0201832420999992000050512004-12570-041380FM-12+042799999V0202701N001510042019N0040001N1+02261+02071101451ADDAA124014091AY161061AY221061GF106991051071004501031001KA1240N+02011MA1999999096601MD1999999-0011MW1401REMSYN088AAXX  05124 83242 21496 62703 10226 20207 39660 40145 74062 85730 333 20201 59001 60144;
0179832420999992000050518004-12570-041380FM-12+042799999V0201801N002610450019N0100001N1+02601+02061101011ADDAA199000091GF105991041071004501031001MA1999999096201MD1999999-0121MW1151REMSYN076AAXX  05184 83242 31497 51805 10260 20206 39620 40101 715// 84730 333 59012;EQDQ01  00002PRCP99
0201832420999992000050600004-12570-041380FM-12+042799999V0201801N000510042019N9999999N1+02261+02121101291ADDAA106003091AY161061AY241061GF108991081071004501999999KA1240M+02781MA1999999096461MD1999999-0031MW1031REMSYN088AAXX  06004 83242 214// 81801 10226 20212 39646 40129 70364 887// 333 10278 59003 60031;
0201832420999992000050612004-12570-041380FM-12+042799999V0201801N001010450019N0040001N1+02271+02071101381ADDAA124003091AY151061AY241061GF106991041071004501081091KA1240N+02081MA1999999096541MD1999999-0061MW1031REMSYN088AAXX  06124 83242 21496 61802 10227 20207 39654 40138 70354 84789 333 20208 59006 60034;
0167832420999992000050618004-12570-041380FM-12+042799999V0200901N001510042019N0100001N1+02781+02091100941ADDAA199000091GF107991051071004501051001MA1999999096161MD1999999-0041REMSYN070AAXX  06184 83242 32497 70903 10278 20209 39616 40094 85750 333 59004;EQDQ01  00002PRCP99
0186832420999992000050700004-12570-041380FM-12+042799999V0200901N001012200019N9999999N1+02181+02041101181ADDAA199000091GF102991021021004501001001KA1240M+02921MA1999999096351MD1999999-0111REMSYN076AAXX  07004 83242 324// 20902 10218 20204 39635 40118 82200 333 10292 59011;EQDQ01  00002PRCP99
0186832420999992000050712004-12570-041380FM-12+042799999V0200901N001510450019N0040001N1+02421+01951101361ADDAA199000091GF108991041021004501061021KA1240N+02151MA1999999096531MD1999999-0011REMSYN076AAXX  07124 83242 32496 80903 10242 20195 39653 40136 84262 333 20215 59001;EQDQ01  00002PRCP99
0167832420999992000050718004-12570-041380FM-12+042799999V0201801N001010450019N0100001N1+02841+02011100881ADDAA199000091GF105991031011004501081021MA1999999096121MD1999999-0041REMSYN070AAXX  07184 83242 32497 51802 10284 20201 39612 40088 83182 333 59004;EQDQ01  00002PRCP99
0186832420999992000050800004-12570-041380FM-12+042799999V0201801N000510042019N9999999N1+02291+02091101161ADDAA199000091GF107991061071004501081001KA1240M+02901MA1999999096351MD1999999+0001REMSYN076AAXX  08004 83242 324// 71801 10229 20209 39635 40116 86780 333 10290 58000;EQDQ01  00002PRCP99
0186832420999992000050812004-12570-041380FM-12+042799999V0201801N001510450019N0040001N1+02411+02051101511ADDAA199000091GF107991041031004501031001KA1240N+02171MA1999999096691MD1999999+0161REMSYN076AAXX  08124 83242 32496 71803 10241 20205 39669 40151 84330 333 20217 58016;EQDQ01  00002PRCP99
0167832420999992000050818004-12570-041380FM-12+042799999V0201801N001512200019N0100001N1+02941+01971101031ADDAA199000091GF102991011031004501001021MA1999999096271MD1999999+0151REMSYN070AAXX  08184 83242 32497 21803 10294 20197 39627 40103 81302 333 58015;EQDQ01  00002PRCP99
0186832420999992000050900004-12570-041380FM-12+042799999V0200901N001010042019N9999999N1+02471+02011101251ADDAA199000091GF107991071071004501001001KA1240M+03041MA1999999096461MD1999999+0111REMSYN076AAXX  09004 83242 324// 70902 10247 20201 39646 40125 87700 333 10304 58011;EQDQ01  00002PRCP99
0198832420999992000050912004-12570-041380FM-12+042799999V0200901N000510042019N0020001N1+02351+01991101541ADDAA199000091GF108991081071004501999999KA1240N+02171MA1999999096721MD1999999+0031MW1101REMSYN082AAXX  09124 83242 31495 80901 10235 20199 39672 40154 710// 887// 333 20217 58003;EQDQ01  00002PRCP99
0167832420999992000050918004-12570-041380FM-12+042799999V0201801N001012200019N0100001N1+02841+01911101031ADDAA199000091GF102991021021004501001001MA1999999096271MD1999999+0001REMSYN070AAXX  09184 83242 32497 21802 10284 20191 39627 40103 82200 333 58000;EQDQ01  00002PRCP99
0196832420999992000051000004-12570-041380FM-12+042799999V0209999C000012200019N9999999N1+02241+01981101241ADDAA199000091GA1001+999999999GF100991001001999999001001KA1240M+02931MA1999999096411MD1999999-0051REMSYN070AAXX  10004 83242 329// 00000 10224 20198 39641 40124 333 10293 59005;EQDQ01  00002PRCP99
0198832420999992000051012004-12570-041380FM-12+042799999V0201801N001011050019N0040001N1+02481+02111101461ADDAA199000091GF106991041031004501001051KA1240N+02051MA1999999096641MD1999999-0081MW1051REMSYN082AAXX  10124 83242 31496 61802 10248 20211 39664 40146 705// 84305 333 20205 59008;EQDQ01  00002PRCP99
0186832420999992000051100004-12570-041380FM-12+042799999V0209999C000010042019N9999999N1+02361+02071101261ADDAA199000091GF106991061051004501001001KA1240M+03041MA1999999096461MD1999999+0051REMSYN076AAXX  11004 83242 324// 60000 10236 20207 39646 40126 86500 333 10304 58005;EQDQ01  00002PRCP99
0185832420999992000051112004-12570-041380FM-12+042799999V0201801N000510042019N0020001N1+02281+02031101541ADDAA124000791GF108991081071004501999999KA1240N+02151MA1999999096701MD1999999+0061MW1101REMSYN088AAXX  11124 83242 21495 81801 10228 20203 39670 40154 710// 887// 333 20215 58006 69904;
0167832420999992000051118004-12570-041380FM-12+042799999V0201801N001511050019N0100001N1+02731+02071101161ADDAA199000091GF106991021041004501031041MA1999999096381MD1999999+0111REMSYN070AAXX  11184 83242 32497 61803 10273 20207 39638 40116 82434 333 58011;EQDQ01  00002PRCP99
0201832420999992000051200004-12570-041380FM-12+042799999V0201801N001010042019N9999999N1+02281+02091101361ADDAA106001091AY141061AY221061GF108991081071004501999999KA1240M+02841MA1999999096531MD1999999+0071MW1211REMSYN088AAXX  12004 83242 214// 81802 10228 20209 39653 40136 72142 887// 333 10284 58007 60011;
0201832420999992000051212004-12570-041380FM-12+042799999V0201801N000510042019N0010001N1+02001+01851101571ADDAA124008991AY161061AY221061GF107991061071004501061001KA1240N+01991MA1999999096701MD1999999+0001MW1101REMSYN088AAXX  12124 83242 21494 71801 10200 20185 39670 40157 71062 86760 333 20199 58000 60094;
0167832420999992000051218004-12570-041380FM-12+042799999V0201801N000510042019N0100001N1+02521+01841101191ADDAA199000091GF106991051071004501061001MA1999999096361MD1999999-0021REMSYN070AAXX  12184 83242 32497 61801 10252 20184 39636 40119 85760 333 59002;EQDQ01  00002PRCP99
0186832420999992000051300004-12570-041380FM-12+042799999V0201801N001010042019N9999999N1+02251+01841101471ADDAA199000091GF107991071071004501001001KA1240M+02621MA1999999096611MD1999999-0081REMSYN076AAXX  13004 83242 324// 71802 10225 20184 39661 40147 87700 333 10262 59008;EQDQ01  00002PRCP99
0186832420999992000051312004-12570-041380FM-12+042799999V0201801N002110042019N0100001N1+02121+01661101681ADDAA199000091GF106991051071004501031001KA1240N+01791MA1999999096821MD1999999+0121REMSYN076AAXX  13124 83242 32497 61804 10212 20166 39682 40168 85730 333 20179 58012;EQDQ01  00002PRCP99
0167832420999992000051318004-12570-041380FM-12+042799999V0201801N002112200019N0100001N1+02581+01771101271ADDAA199000091GF104991021071004501041001MA1999999096431MD1999999+0071REMSYN070AAXX  13184 83242 32497 41804 10258 20177 39643 40127 82740 333 58007;EQDQ01  00002PRCP99
0186832420999992000051412004-12570-041380FM-12+042799999V0201801N003110450019N0100001N1+02121+01781101691ADDAA199000091GF105991041071004501061001KA1240N+01871MA1999999096801MD1999999-0021REMSYN076AAXX  14124 83242 32497 51806 10212 20178 39680 40169 84760 333 20187 59002;EQDQ01  00002PRCP99
0167832420999992000051418004-12570-041380FM-12+042799999V0201801N002110042019N0100001N1+02421+01911101321ADDAA199000091GF106991051071004501041001MA1999999096461MD1999999+0031REMSYN070AAXX  14184 83242 32497 61804 10242 20191 39646 40132 85740 333 58003;EQDQ01  00002PRCP99
0201832420999992000051500004-12570-041380FM-12+042799999V0201801N001010042019N9999999N1+02141+01901101541ADDAA106000791AY151061AY221061GF108991081071004501999999KA1240M+02551MA1999999096681MD1999999+0031MW1031REMSYN088AAXX  15004 83242 214// 81802 10214 20190 39668 40154 70352 887// 333 10255 58003 69901;
0201832420999992000051512004-12570-041380FM-12+042799999V0201801N002110042019N0040001N1+02101+01891101541ADDAA124014091AY161061AY221061GF107991071071004501001001KA1240N+01851MA1999999096671MD1999999-0131MW1101REMSYN088AAXX  15124 83242 21496 71804 10210 20189 39667 40154 71062 87700 333 20185 59013 60144;
0167832420999992000051518004-12570-041380FM-12+042799999V0201801N001012200019N0100001N1+02571+01821101101ADDAA199000091GF103991031031004501001001MA1999999096271MD1999999-0191REMSYN070AAXX  15184 83242 32497 31802 10257 20182 39627 40110 83300 333 59019;EQDQ01  00002PRCP99
0186832420999992000051600004-12570-041380FM-12+042799999V0201801N001010042019N9999999N1+02021+01681101291ADDAA199000091GF105991051041004501001001KA1240M+02721MA1999999096421MD1999999-0261REMSYN076AAXX  16004 83242 324// 51802 10202 20168 39642 40129 85400 333 10272 59026;EQDQ01  00002PRCP99
0186832420999992000051612004-12570-041380FM-12+042799999V0201801N000510042019N0007001N1+02141+01741101451ADDAA199000091GF107991061071004501031001KA1240N+01911MA1999999096581MD1999999-0091REMSYN076AAXX  16124 83242 32407 71801 10214 20174 39658 40145 86730 333 20191 59009;EQDQ01  00002PRCP99
0167832420999992000051618004-12570-041380FM-12+042799999V0203601N001511050019N0100001N1+02681+01811101011ADDAA199000091GF105991021011004501081021MA1999999096201MD1999999-0071REMSYN070AAXX  16184 83242 32497 53603 10268 20181 39620 40101 82182 333 59007;EQDQ01  00002PRCP99
0196832420999992000051700004-12570-041380FM-12+042799999V0203601N000512200019N9999999N1+02001+01761101291ADDAA199000091GA1001+999999999GF100991001001999999001001KA1240M+02721MA1999999096421MD1999999+0001REMSYN070AAXX  17004 83242 329// 03601 10200 20176 39642 40129 333 10272 58000;EQDQ01  00002PRCP99
0198832420999992000051712004-12570-041380FM-12+042799999V0203601N001510042019N0020001N1+02261+01901101491ADDAA199000091GF106991051071004501031001KA1240N+01771MA1999999096631MD1999999+0051MW1101REMSYN082AAXX  17124 83242 31495 63603 10226 20190 39663 40149 710// 85730 333 20177 58005;EQDQ01  00002PRCP99
0167832420999992000051718004-12570-041380FM-12+042799999V0201801N001510450019N0100001N1+02811+02021100931ADDAA199000091GF108991011011004501081071MA1999999096111MD1999999-0091REMSYN070AAXX  17184 83242 32497 81803 10281 20202 39611 40093 81187 333 59009;EQDQ01  00002PRCP99
0196832420999992000051800004-12570-041380FM-12+042799999V0203601N000512200019N9999999N1+02161+01841101081ADDAA199000091GA1001+999999999GF100991001001999999001001KA1240M+02901MA1999999096251MD1999999-0171REMSYN070AAXX  18004 83242 329// 03601 10216 20184 39625 40108 333 10290 59017;EQDQ01  00002PRCP99
0170832420999992000051812004-12570-041380FM-12+042799999V0203601N000510450019N0040001N1+02161+01991101411ADDAA199000091GF106991041051004501031051MA1999999096551MW1101REMSYN081AAXX  18124 83242 31496 63601 10216 20199 39655 40141 710// 84535 333 2018 59008;EQDQ01  00002PRCP99
0167832420999992000051818004-12570-041380FM-12+042799999V0200901N000511050019N0100001N1+02921+02041100771ADDAA199000091GF105991021041004501031061MA1999999095971MD1999999-0141REMSYN070AAXX  18184 83242 32497 50901 10292 20204 39597 40077 82436 333 59014;EQDQ01  00002PRCP99
0186832420999992000051900004-12570-041380FM-12+042799999V0200901N000519999999N9999999N1+02281+02071101081ADDAA199000091GF108991001001999999001021KA1240M+02991MA1999999096251MD1999999+0001REMSYN076AAXX  19004 83242 329// 80901 10228 20207 39625 40108 80002 333 10299 58000;EQDQ01  00002PRCP99
0186832420999992000051912004-12570-041380FM-12+042799999V0203601N000511050019N0100001N1+02381+02191101271ADDAA199000091GF106991031041004501001051KA1240N+01981MA1999999096461MD1999999-0091REMSYN076AAXX  19124 83242 32497 63601 10238 20219 39646 40127 83405 333 20198 59009;EQDQ01  00002PRCP99
0168832420999992000051918004-12570-041380FM-12+042799999V0201401N001510450019N0100001N1+03001+02051101031ADDAA199000091GF106991031041004501011061MD1999999+0271REMSYN070AAXX  19184 83242 32497 61403 10300 20205 38664 40103 83416 333 58027;EQDQ01+086643APOSP Q02  00002PRCP99
0186832420999992000052000004-12570-041380FM-12+042799999V0201801N000511050019N9999999N1+02331+01951101181ADDAA199000091GF107991011001022501051021KA1240M+03061MA1999999096371MD1999999+0121REMSYN076AAXX  20004 83242 328// 71801 10233 20195 39637 40118 81052 333 10306 58012;EQDQ01  00002PRCP99
0201832420999992000052012004-12570-041380FM-12+042799999V0202701N001010042019N0005001N1+02231+02191101561ADDAA124005191AY161061AY221061GF108991081071004501999999KA1240N+02141MA1999999096721MD1999999+0261MW1101REMSYN088AAXX  20124 83242 21493 82702 10223 20219 39672 40156 71062 887// 333 20214 58026 60054;
0167832420999992000052018004-12570-041380FM-12+042799999V0202701N001512200019N0100001N1+02691+02081101191ADDAA199000091GF104991021051004501031011MA1999999096391MD1999999+0151REMSYN070AAXX  20184 83242 32497 42703 10269 20208 39639 40119 82531 333 58015;EQDQ01  00002PRCP99
0186832420999992000052100004-12570-041380FM-12+042799999V0202701N001010042019N9999999N1+02281+02091101371ADDAA199000091GF107991071071004501001001KA1240M+02821MA1999999096531MD1999999+0161REMSYN076AAXX  21004 83242 324// 72702 10228 20209 39653 40137 87700 333 10282 58016;EQDQ01  00002PRCP99
0201832420999992000052112004-12570-041380FM-12+042799999V0202701N002110042019N0040001N1+02291+02071101691ADDAA124000191AY151061AY241061GF107991061071004501001081KA1240N+02091MA1999999096851MD1999999+0131MW1101REMSYN088AAXX  21124 83242 21496 72704 10229 20207 39685 40169 71054 86708 333 20209 58013 69914;
0167832420999992000052118004-12570-041380FM-12+042799999V0201801N002612200019N0100001N1+02801+02031101281ADDAA199000091GF102991011031004501001011MA1999999096491MD1999999+0101REMSYN070AAXX  21184 83242 32497 21805 10280 20203 39649 40128 81301 333 58010;EQDQ01  00002PRCP99
0186832420999992000052200004-12570-041380FM-12+042799999V0200501N001010042019N9999999N1+02371+01951101601ADDAA199000091GF108991081071004501999999KA1240M+02881MA1999999096771MD1999999+0241REMSYN076AAXX  22004 83242 324// 80502 10237 20195 39677 40160 887// 333 10288 58024;EQDQ01  00002PRCP99
0201832420999992000052212004-12570-041380FM-12+042799999V0201801N000510042019N0020001N1+02101+02021101851ADDAA124001091AY151061AY221061GF108991081071004501999999KA1240N+01991MA1999999096991MD1999999+0141MW1101REMSYN088AAXX  22124 83242 21495 81801 10210 20202 39699 40185 71052 887// 333 20199 58014 69994;
0182832420999992000052218004-12570-041380FM-12+042799999V0201801N001510042019N0020001N1+02321+02031101541ADDAA106000791AY151061AY221061GF108991081071004501999999MA1999999096681MD1999999+0191MW1101REMSYN082AAXX  22184 83242 21495 81803 10232 20203 39668 40154 71052 887// 333 58019 69901;
0201832420999992000052300004-12570-041380FM-12+042799999V0201801N002610042019N9999999N1+02041+01971101931ADDAA106004191AY161061AY221061GF108991081061004501999999KA1240M+02461MA1999999097031MD1999999+0261MW1601REMSYN088AAXX  23004 83242 214// 81805 10204 20197 39703 40193 76062 886// 333 10246 58026 60041;
0201832420999992000052312004-12570-041380FM-12+042799999V0201801N002110042019N0040001N1+02111+01781101921ADDAA124004191AY161061AY221061GF107991061071004501041001KA1240N+01911MA1999999097031MD1999999+0041MW1101REMSYN088AAXX  23124 83242 21496 71804 10211 20178 39703 40192 71062 86740 333 20191 58004 60044;
0182832420999992000052318004-12570-041380FM-12+042799999V0201401N001510042019N0040001N1+02281+02001101701ADDAA106000791AY151061AY221061GF108991081071004501999999MA1999999096821MD1999999+0141MW1021REMSYN082AAXX  23184 83242 21496 81403 10228 20200 39682 40170 70252 887// 333 58014 69901;
0186832420999992000052400004-12570-041380FM-12+042799999V0201801N000510042019N9999999N1+02121+01911101851ADDAA199000091GF108991081071004501999999KA1240M+02441MA1999999096961MD1999999-0071REMSYN076AAXX  24004 83242 324// 81801 10212 20191 39696 40185 887// 333 10244 59007;EQDQ01  00002PRCP99
0186832420999992000052412004-12570-041380FM-12+042799999V0201801N002110450019N0100001N1+02121+01781101961ADDAA199000091GF106991041071004501051001KA1240N+01911MA1999999097071MD1999999+0041REMSYN076AAXX  24124 83242 32497 61804 10212 20178 39707 40196 84750 333 20191 58004;EQDQ01  00002PRCP99
0167832420999992000052418004-12570-041380FM-12+042799999V0201801N001012200019N0100001N1+02601+01631101441ADDAA199000091GF104991031021004501031001MA1999999096611MD1999999-0211REMSYN070AAXX  24184 83242 32497 41802 10260 20163 39661 40144 83230 333 59021;EQDQ01  00002PRCP99
0186832420999992000052500004-12570-041380FM-12+042799999V0200901N000510042019N9999999N1+02121+01761101661ADDAA199000091GF108991081071004501999999KA1240M+02681MA1999999096781MD1999999-0181REMSYN076AAXX  25004 83242 324// 80901 10212 20176 39678 40166 887// 333 10268 59018;EQDQ01  00002PRCP99
0201832420999992000052512004-12570-041380FM-12+042799999V0201801N001010042019N0040001N1+02091+01861101771ADDAA124000791AY151061AY221061GF108991071071004501061001KA1240N+01871MA1999999096891MD1999999-0181MW1101REMSYN088AAXX  25124 83242 21496 81802 10209 20186 39689 40177 71052 87760 333 20187 59018 69904;
0179832420999992000052518004-12570-041380FM-12+042799999V0201801N001010042019N0100001N1+02461+01831101411ADDAA199000091GF108991081071004501999999MA1999999096561MD1999999-0051MW1151REMSYN076AAXX  25184 83242 31497 81802 10246 20183 39656 40141 715// 887// 333 59005;EQDQ01  00002PRCP99
0201832420999992000052600004-12570-041380FM-12+042799999V0201801N002110042019N9999999N1+01991+01971101661ADDAA106001091AY161061AY221061GF108991081071004501999999KA1240M+02551MA1999999096771MD1999999-0011MW1601REMSYN088AAXX  26004 83242 214// 81804 10199 20197 39677 40166 76062 887// 333 10255 59001 60011;
0201832420999992000052612004-12570-041380FM-12+042799999V0201801N000510042019N0020001N1+02161+01991101641ADDAA124002091AY161061AY221061GF108991081071004501999999KA1240N+01931MA1999999096761MD1999999-0131MW1101REMSYN088AAXX  26124 83242 21495 81801 10216 20199 39676 40164 71062 887// 333 20193 59013 60024;
0167832420999992000052618004-12570-041380FM-12+042799999V0201801N001510042019N0100001N1+02481+01961101191ADDAA199000091GF107991061071004501031001MA1999999096351MD1999999-0211REMSYN070AAXX  26184 83242 32497 71803 10248 20196 39635 40119 86730 333 59021;EQDQ01  00002PRCP99
0186832420999992000052700004-12570-041380FM-12+042799999V0201801N000512200019N9999999N1+02141+01991101471ADDAA199000091GF101991011071004501001001KA1240M+02601MA1999999096611MD1999999-0161REMSYN076AAXX  27004 83242 324// 11801 10214 20199 39661 40147 81700 333 10260 59016;EQDQ01  00002PRCP99
0179832420999992000052712004-12570-041380FM-12+042799999V0201801N001010042019N0020001N1+02201+02031101481ADDAA199000021GF108991081071004501999999KA1240N+01991MA1999999096621MD1999999-0141MW1211REMSYN082AAXX  27124 83242 31495 81802 10220 20203 39662 40148 721// 887// 333 20199 59014;
0182832420999992000052718004-12570-041380FM-12+042799999V0201801N001512200019N0100001N1+02781+01881100981ADDAA106000191AY151061AY211061GF102991011031004501081011MA1999999096191MD1999999-0161MW1031REMSYN082AAXX  27184 83242 21497 21803 10278 20188 39619 40098 70351 81381 333 59016 69911;
0177832420999992000052800004-12570-041380FM-12+042799999V0200901N001012200019N9999999N1+02121+01881101201ADDAA199000021GA1001+999999999GF100991001001999999001001KA1240M+02891MA1999999096351MD1999999-0261REMSYN070AAXX  28004 83242 329// 00902 10212 20188 39635 40120 333 10289 59026;
0201832420999992000052812004-12570-041380FM-12+042799999V0200901N001010042019N0020001N1+02121+01991101371ADDAA124000191AY151061AY211061GF107991071071004501001001KA1240N+01771MA1999999096501MD1999999-0121MW1101REMSYN088AAXX  28124 83242 21495 70902 10212 20199 39650 40137 71051 87700 333 20177 59012 69924;
0167832420999992000052818004-12570-041380FM-12+042799999V0201801N001511050019N0100001N1+02711+01791100821ADDAA199000091GF107991011031004501001031MA1999999096011MD1999999-0181REMSYN070AAXX  28184 83242 32497 71803 10271 20179 39601 40082 81303 333 59018;EQDQ01  00002PRCP99
0186832420999992000052900004-12570-041380FM-12+042799999V0209999C000012200019N9999999N1+02241+01921101041ADDAA199000091GF103991031031004501001001KA1240M+02851MA1999999096211MD1999999-0141REMSYN076AAXX  29004 83242 324// 30000 10224 20192 39621 40104 83300 333 10285 59014;EQDQ01  00002PRCP99
0186832420999992000052912004-12570-041380FM-12+042799999V0200901N000510450019N0100001N1+02341+02051101151ADDAA199000091GF106991031021004501031021KA1240N+01931MA1999999096331MD1999999-0171REMSYN076AAXX  29124 83242 32497 60901 10234 20205 39633 40115 83232 333 20193 59017;EQDQ01  00002PRCP99
0167832420999992000052918004-12570-041380FM-12+042799999V0201801N000512200019N0100001N1+02961+01961101681ADDAA199000091GF104991021021004501041051MA1999999095911MD1999999-0101REMSYN070AAXX  29184 83242 32497 41801 10296 20196 39591 40168 82245 333 59010;EQDQ01  00002PRCP99
0196832420999992000053000004-12570-041380FM-12+042799999V0200901N000512200019N9999999N1+02301+01921101041ADDAA199000091GA1001+999999999GF100991001001999999001001KA1240M+03021MA1999999096231MD1999999+0021REMSYN070AAXX  30004 83242 329// 00901 10230 20192 39623 40104 333 10302 58002;EQDQ01  00002PRCP99
0201832420999992000053012004-12570-041380FM-12+042799999V0202301N000510450019N0100001N1+02341+02051101461ADDAA124004191AY161061AY221061GF106991041071004501061001KA1240N+02071MA1999999096631MD1999999+0301MW1031REMSYN088AAXX  30124 83242 21497 62301 10234 20205 39663 40146 70362 84760 333 20207 58030 60044;
0167832420999992000053018004-12570-041380FM-12+042799999V0201801N000510450019N0100001N1+02721+01951101041ADDAA199000091GF106991021031004501011001MA1999999096251MD1999999+0341REMSYN070AAXX  30184 83242 32497 61801 10272 20195 39625 40104 82310 333 58034;EQDQ01  00002PRCP99
0196832420999992000053100004-12570-041380FM-12+042799999V0200901N001512200019N9999999N1+02141+01901101201ADDAA199000091GA1001+999999999GF100991001001999999001001KA1240M+02861MA1999999096371MD1999999+0141REMSYN070AAXX  31004 83242 329// 00903 10214 20190 39637 40120 333 10286 58014;EQDQ01  00002PRCP99
0201832420999992000053112004-12570-041380FM-12+042799999V0200901N000510042019N0040001N1+02221+01991101391ADDAA124000391AY151061AY201061GF108991081071004501999999KA1240N+02031MA1999999096541MD1999999-0091MW1101REMSYN088AAXX  31124 83242 21496 80901 10222 20199 39654 40139 71050 887// 333 20203 59009 69934;
0167832420999992000053118004-12570-041380FM-12+042799999V0200901N000512200019N0100001N1+02781+01981100931ADDAA199000091GF105991021011004501001061MA1999999096141MD1999999-0111REMSYN070AAXX  31184 83242 32497 50901 10278 20198 39614 40093 82106 333 59011;EQDQ01  00002PRCP99
0196832420999992000060100004-12570-041380FM-12+042799999V0201801N000512200019N9999999N1+02201+02031101151ADDAA199000091GA1001+999999999GF100991001001999999001001KA1240M+02821MA1999999096311MD1999999-0061REMSYN070AAXX  01004 83242 329// 01801 10220 20203 39631 40115 333 10282 59006;EQDQ01  00002PRCP99
0198832420999992000060112004-12570-041380FM-12+042799999V0202701N000510042019N0020001N1+02121+01971101511ADDAA199000091GF107991061071004501031001KA1240N+01811MA1999999096651MD1999999+0111MW1101REMSYN082AAXX  01124 83242 31495 72701 10212 20197 39665 40151 710// 86730 333 20181 58011;EQDQ01  00002PRCP99
0167832420999992000060118004-12570-041380FM-12+042799999V0201801N000510450019N0100001N1+02961+02051101041ADDAA199000091GF105991011011004501031051MA1999999096251MD1999999+0111REMSYN070AAXX  01184 83242 32497 51801 10296 20205 39625 40104 81135 333 58011;EQDQ01  00002PRCP99
0196832420999992000060200004-12570-041380FM-12+042799999V0200901N000512200019N9999999N1+02141+01801101271ADDAA199000091GA1001+999999999GF100991001001999999001001KA1240M+03041MA1999999096421MD1999999+0111REMSYN070AAXX  02004 83242 329// 00901 10214 20180 39642 40127 333 10304 58011;EQDQ01  00002PRCP99
0186832420999992000060212004-12570-041380FM-12+042799999V0200901N001010450019N0100001N1+02121+01911101651ADDAA199000091GF105991041051004501031001KA1240N+01571MA1999999096781MD1999999+0131REMSYN076AAXX  02124 83242 32497 50902 10212 20191 39678 40165 84530 333 20157 58013;EQDQ01  00002PRCP99
0167832420999992000060218004-12570-041380FM-12+042799999V0201801N001511050019N0100001N1+02801+01871101231ADDAA199000091GF105991021011004501001051MA1999999096401MD1999999+0151REMSYN070AAXX  02184 83242 32497 51803 10280 20187 39640 40123 82105 333 58015;EQDQ01  00002PRCP99
0186832420999992000060300004-12570-041380FM-12+042799999V0201801N001012200019N9999999N1+02181+01881101431ADDAA199000091GF101991011001017501021001KA1240M+02921MA1999999096571MD1999999+0151REMSYN076AAXX  03004 83242 327// 11802 10218 20188 30657 40143 81020 333 10292 58015;EQDQ01  00002PRCP99
0173832420999992000060312004-12570-041380FM-12+042799999V0201801N001510450019N0100001N1+02261+01881101281ADDAA199000091GF105991031051004501031001MA1999999096441MD1999999-0341REMSYN076AAXX  03124 83242 32497 51803 10226 20188 39644 40128 83530 333 20/// 59034;EQDQ01  00002PRCP99
0182832420999992000060318004-12570-041380FM-12+042799999V0201801N003110450019N0100001N1+02601+01891101501ADDAA106000591AY151061AY221061GF105991031071004501081031MA1999999096651MD1999999+0251MW1031REMSYN082AAXX  03184 83242 21497 51806 10260 20189 39665 40150 70352 83783 333 58025 69951;
0211832420999992000060400004-12570-041380FM-12+042799999V0201801N001012200019N9999999N1+02151+01861101671ADDAA106000791AY151061AY211061GA1001+999999999GF100991001001999999001001KA1240M+02661MA1999999096811MD1999999+0241MW1021REMSYN082AAXX  04004 83242 219// 01802 10215 20186 39681 40167 70251 333 10266 58024 69901;
0182832420999992000060412004-12570-041380FM-12+042799999V0201801N002610042019N0040001N1+02081+01871101911ADDAA124000591AY151061AY221061GF107991051071004501061001MA1999999097021MD1999999+0581MW1031REMSYN082AAXX  04124 83242 21496 71805 10208 20187 39702 40191 70352 85760 333 58058 69964;
0167832420999992000060418004-12570-041380FM-12+042799999V0201801N002110042019N0100001N1+02361+01781101651ADDAA199000091GF108991081071004501999999MA1999999096771MD1999999+0121REMSYN070AAXX  04184 83242 32497 81804 10236 20178 39677 40165 887// 333 58012;EQDQ01  00002PRCP99
0201832420999992000060500004-12570-041380FM-12+042799999V0201801N003610042019N9999999N1+02021+01871101841ADDAA106000191AY141061AY221061GF108991081071004501999999KA1240M+02541MA1999999096941MD1999999+0131MW1501REMSYN088AAXX  05004 83242 214// 81807 10202 20187 39694 40184 75042 887// 333 10254 58013 69921;
0182832420999992000060512004-12570-041380FM-12+042799999V0201801N004110450019N0100001N1+02101+01551101941ADDAA124000591AY151061AY221061GF106991041021004501031001MA1999999097041MD1999999+0021MW1031REMSYN082AAXX  05124 83242 21497 61808 10210 20155 39704 40194 70352 84230 333 58002 69944;
0167832420999992000060518004-12570-041380FM-12+042799999V0201801N003610042019N0100001N1+02451+01631101381ADDAA199000091GF108991081071004501999999MA1999999096511MD1999999-0061REMSYN070AAXX  05184 83242 32497 81807 10245 20163 39651 40138 887// 333 59006;EQDQ01  00002PRCP99
0186832420999992000060600004-12570-041380FM-12+042799999V0201801N002110042019N9999999N1+02221+01601101781ADDAA199000091GF108991081071004501999999KA1240M+02481MA1999999096901MD1999999-0041REMSYN076AAXX  06004 83242 324// 81804 10222 20160 39690 40178 887// 333 10248 59004;EQDQ01  00002PRCP99
0173832420999992000060612004-12570-041380FM-12+042799999V0201801N003610042019N0100001N1+02121+01571101961ADDAA199000091GF107991051071004501061001MA1999999097171MD1999999+0031REMSYN076AAXX  06124 83242 32497 71807 10212 20157 39717 40196 85760 333 20/// 58003;EQDQ01  00002PRCP99
0179832420999992000060618004-12570-041380FM-12+042799999V0201801N002610042019N0040001N1+02421+01841101661ADDAA199000091GF108991071071004501061999MA1999999096781MD1999999+0271MW1151REMSYN076AAXX  06184 83242 31496 81805 10242 20184 39678 40166 715// 8776/ 333 58027;EQDQ01  00002PRCP99
0201832420999992000060700004-12570-041380FM-12+042799999V0201801N001010042019N9999999N1+01981+01931101841ADDAA106001091AY161061AY221061GF108991081071004501999999KA1240M+02461MA1999999096941MD1999999+0041MW1101REMSYN088AAXX  07004 83242 214// 81802 10198 20193 39694 40184 71062 887// 333 10246 58004 60011;
0188832420999992000060712004-12570-041380FM-12+042799999V0201801N002610042019N0020001N1+02011+01811101811ADDAA124004191AY161061AY221061GF107991061071004501061001MA1999999096901MD1999999-0271MW1101REMSYN088AAXX  07124 83242 21495 71805 10201 20181 39690 40181 71062 86760 333 20/// 59027 60044;
0167832420999992000060718004-12570-041380FM-12+042799999V0201801N001010042019N0100001N1+02521+01791101531ADDAA199000091GF106991051041004501061001MA1999999096671MD1999999-0111REMSYN070AAXX  07184 83242 32497 61802 10252 20179 39667 40153 85460 333 59011;EQDQ01  00002PRCP99
0186832420999992000060800004-12570-041380FM-12+042799999V0201801N001010042019N9999999N1+02211+01781101631ADDAA199000091GF107991071071004501001001KA1240M+02641MA1999999096751MD1999999-0191REMSYN076AAXX  08004 83242 324// 71802 10221 20178 39675 40163 87700 333 10264 59019;EQDQ01  00002PRCP99
0188832420999992000060812004-12570-041380FM-12+042799999V0201801N002610042019N0010001N1+02001+01931101771ADDAA124000391AY151061AY221061GF108991081071004501999999MA1999999096891MD1999999-0011MW1101REMSYN088AAXX  08124 83242 21494 81805 10200 20193 39689 40177 71052 887// 333 20/// 59001 69934;
0182832420999992000060818004-12570-041380FM-12+042799999V0201801N003610042019N0020001N1+02221+01991101561ADDAA106000591AY151061AY221061GF108991081071004501999999MA1999999096681MD1999999+0011MW1511REMSYN082AAXX  08184 83242 21495 81807 10222 20199 39668 40156 75152 887// 333 58001 69941;
0201832420999992000060900004-12570-041380FM-12+042799999V0202701N003110042019N9999999N1+01921+01851101841ADDAA106008991AY161061AY221061GF108991081061004501999999KA1240M+02451MA1999999096921MD1999999+0171MW1621REMSYN088AAXX  09004 83242 214// 82706 10192 20185 39692 40184 76262 886// 333 10245 58017 60091;
0188832420999992000060912004-12570-041380FM-12+042799999V0201801N002110450019N0100001N1+02151+01921101871ADDAA124014091AY161061AY241061GF105991041071004501041001MA1999999096971MD1999999-0081MW1031REMSYN088AAXX  09124 83242 21497 51804 10215 20192 39697 40187 70364 84740 333 20/// 59008 60144;
0167832420999992000060918004-12570-041380FM-12+042799999V0201801N002610042019N0100001N1+02441+01861101491ADDAA199000091GF106991051071004501061001MA1999999096611MD1999999-0071REMSYN070AAXX  09184 83242 32497 61805 10244 20186 39661 40149 85760 333 59007;EQDQ01  00002PRCP99
0186832420999992000061000004-12570-041380FM-12+042799999V0200901N000510042019N9999999N1+01961+01811101621ADDAA199000091GF106991051071004501031001KA1240M+02501MA1999999096731MD1999999-0191REMSYN076AAXX  10004 83242 324// 60901 10196 20181 39673 40162 85730 333 10250 59019;EQDQ01  00002PRCP99
0188832420999992000061012004-12570-041380FM-12+042799999V0201801N000510042019N0040001N1+01901+01871101891ADDAA124011991AY161061AY221061GF108991081071004501999999MA1999999096971MD1999999+0001MW1511REMSYN088AAXX  10124 83242 21496 81801 10190 20187 39697 40189 75162 887// 333 20/// 58000 60124;
0182832420999992000061018004-12570-041380FM-12+042799999V0200901N000510042019N0100001N1+02501+01841101381ADDAA106001091AY161061AY221061GF106991051051004501051001MA1999999096531MD1999999-0081MW1011REMSYN082AAXX  10184 83242 21497 60901 10250 20184 39653 40138 70162 85550 333 59008 60011;
0188832420999992000061112004-12570-041380FM-12+042799999V0201801N001510042019N0100001N1+02121+01911101641ADDAA124002091AY161061AY221061GF106991051071004501061001MA1999999096811MD1999999-0161MW1031REMSYN088AAXX  11124 83242 21497 61803 10212 20191 39681 40164 70362 85760 333 20/// 59016 60024;
0179832420999992000061118004-12570-041380FM-12+042799999V0201801N001010042019N0040001N1+02491+01961101331ADDAA199000091GF107991061071004501061001MA1999999096481MD1999999-0051MW1151REMSYN076AAXX  11184 83242 31496 71802 10249 20196 39648 40133 715// 86760 333 59005;EQDQ01  00002PRCP99
0188832420999992000061212004-12570-041380FM-12+042799999V0201801N001510042019N0020001N1+02141+01931101741ADDAA124007991AY161061AY221061GF108991081071004501999999MA1999999096861MD1999999+0051MW1101REMSYN088AAXX  12124 83242 21495 81803 10214 20193 39686 40174 71062 887// 333 20/// 58005 60084;
0182832420999992000061218004-12570-041380FM-12+042799999V0202301N001010042019N0020001N1+02481+02071101281ADDAA106000191AY141061AY221061GF106991051071004501061001MA1999999096451MD1999999-0031MW1521REMSYN082AAXX  12184 83242 21495 62302 10248 20207 39645 40128 75242 85760 333 59003 69911;
0201832420999992000061300004-12570-041380FM-12+042799999V0201801N001010042019N9999999N1+02021+01991101611ADDAA106005191AY161061AY221061GF108991081071004501999999KA1240M+02621MA1999999096731MD1999999+0111MW1511REMSYN088AAXX  13004 83242 214// 81802 10202 20199 39673 40161 75162 887// 333 10262 58011 60051;
0188832420999992000061312004-12570-041380FM-12+042799999V0200901N001510042019N0005001N1+01931+01861101831ADDAA124009991AY161061AY221061GF108991081071004501999999MA1999999096841MD1999999+0021MW1101REMSYN088AAXX  13124 83242 21493 80903 10193 20186 39684 40183 71062 887// 333 20/// 58002 60104;
0167832420999992000061318004-12570-041380FM-12+042799999V0201801N001012200019N0100001N1+02561+01571101271ADDAA199000091GF101991011021004501001001MA1999999096441MD1999999-0011REMSYN070AAXX  13184 83242 32497 11802 10256 20157 39644 40127 81200 333 59001;EQDQ01  00002PRCP99
0186832420999992000061400004-12570-041380FM-12+042799999V0202301N000512200019N9999999N1+01971+01791101541ADDAA199000091GF104991011011004501031001KA1240M+02621MA1999999096641MD1999999-0091REMSYN076AAXX  14004 83242 324// 42301 10197 20179 39664 40154 81130 333 10262 59009;EQDQ01  00002PRCP99
0173832420999992000061412004-12570-041380FM-12+042799999V0202301N000512200019N0100001N1+02141+01801101711ADDAA199000091GF102991021011004501001001MA1999999096821MD1999999-0021REMSYN076AAXX  14124 83242 32497 22301 10214 20180 39682 40171 82100 333 20/// 59002;EQDQ01  00002PRCP99
0167832420999992000061418004-12570-041380FM-12+042799999V0201801N002112200019N0100001N1+02581+01661101281ADDAA199000091GF104991031031004501021001MA1999999096431MD1999999-0011REMSYN070AAXX  14184 83242 32497 41804 10258 20166 39643 40128 83320 333 59001;EQDQ01  00002PRCP99
0186832420999992000061500004-12570-041380FM-12+042799999V0202701N000510042019N9999999N1+02101+01841101531ADDAA199000091GF106991061071004501001001KA1240M+02661MA1999999096661MD1999999+0021REMSYN076AAXX  15004 83242 324// 62701 10210 20184 39666 40153 86700 333 10266 58002;EQDQ01  00002PRCP99
0185832420999992000061512004-12570-041380FM-12+042799999V0202701N000510450019N0020001N1+02021+01811101691ADDAA199000091GF106991041061004501031001MA1999999096801MD1999999-0021MW1101REMSYN082AAXX  15124 83242 31495 62701 10202 20181 39680 40169 710// 84630 333 20/// 59002;EQDQ01  00002PRCP99
0167832420999992000061518004-12570-041380FM-12+042799999V0201801N001512200019N0100001N1+02541+01601101271ADDAA199000091GF104991021021004501021011MA1999999096431MD1999999+0001REMSYN070AAXX  15184 83242 32497 41803 10254 20160 39643 40127 82221 333 58000;EQDQ01  00002PRCP99
0186832420999992000061600004-12570-041380FM-12+042799999V0203601N001010042019N9999999N1+02041+01701101471ADDAA199000091GF106991051071004501031001KA1240M+02621MA1999999096841MD1999999-0071REMSYN076AAXX  16004 83242 324// 63602 10204 20170 39684 40147 85730 333 10262 59007;EQDQ01  00002PRCP99
0188832420999992000061612004-12570-041380FM-12+042799999V0201401N001510042019N0040001N1+02051+01871101641ADDAA124000391AY151061AY221061GF107991061071004501031001MA1999999096751MD1999999-0051MW1101REMSYN088AAXX  16124 83242 21496 71403 10205 20187 39675 40164 71052 86730 333 20/// 59005 69934;
0167832420999992000061618004-12570-041380FM-12+042799999V0201801N001510450019N0100001N1+02471+01871101351ADDAA199000091GF105991031051004501041001MA1999999096411MD1999999-0021REMSYN070AAXX  16184 83242 32497 51803 10247 20187 39641 40135 83540 333 59002;EQDQ01  00002PRCP99
0167832420999992000061718004-12570-041380FM-12+042799999V0201801N001512200019N0100001N1+02581+01721101201ADDAA199000091GF102991021011004501001001MA1999999096371MD1999999-0041REMSYN070AAXX  17184 83242 32497 21803 10258 20172 39637 40120 82100 333 59004;EQDQ01  00002PRCP99
0201832420999992000061812004-12570-041380FM-12+042799999V0201801N001510042019N0020001N1+02121+01971101691ADDAA124000191AY151061AY241061GF107991071051004501001001KA1240N+01971MA1999999096811MD1999999+0111MW1031REMSYN088AAXX  18124 83242 21495 71803 10212 20197 39681 40169 70354 87500 333 20197 58011 69914;
0167832420999992000061818004-12570-041380FM-12+042799999V0201401N001012200019N0100001N1+02671+01781101221ADDAA199000091GF102991011031004501081001MA1999999096411MD1999999+0041REMSYN070AAXX  18184 83242 32497 21402 10267 20178 39641 40122 81380 333 58004;EQDQ01  00002PRCP99
0186832420999992000061912004-12570-041380FM-12+042799999V0201401N001512200019N0100001N1+02221+01901101541ADDAA199000091GF104991031021004501061001KA1240N+01831MA1999999096671MD1999999-0141REMSYN076AAXX  19124 83242 32497 41403 10222 20190 39667 40154 83260 333 20183 59014;EQDQ01  00002PRCP99
0167832420999992000061918004-12570-041380FM-12+042799999V0201401N001012200019N0100001N1+02811+01801101201ADDAA199000091GF101991011031004501001001MA1999999096391MD1999999-0021REMSYN070AAXX  19184 83242 32497 11402 10281 20180 39639 40120 81300 333 59002;EQDQ01  00002PRCP99
0186832420999992000062000004-12570-041380FM-12+042799999V0203601N001510450019N9999999N1+02131+01781101401ADDAA199000091GF106991031041004501031001KA1240M+02881MA1999999096551MD1999999+0031REMSYN076AAXX  20004 83242 324// 63603 10213 20178 39655 40140 83430 333 10288 58003;EQDQ01  00002PRCP99
0201832420999992000062012004-12570-041380FM-12+042799999V0202301N001510042019N0020001N1+02121+01971101641ADDAA124020191AY161061AY211061GF107991061071004501061001KA1240N+02011MA1999999096771MD1999999+0101MW1101REMSYN088AAXX  20124 83242 21495 72303 10212 20197 39677 40164 71061 86760 333 20201 58010 60204;
0167832420999992000062018004-12570-041380FM-12+042799999V0202301N000512200019N0100001N1+02761+01831101211ADDAA199000091GF103991021031004501031001MA1999999096411MD1999999+0021REMSYN070AAXX  20184 83242 32497 32301 10276 20183 39641 40121 82330 333 58002;EQDQ01  00002PRCP99
0186832420999992000062100004-12570-041380FM-12+042799999V0201801N000510450019N9999999N1+02101+01841101321ADDAA199000091GF105991021011004501031001KA1240M+02871MA1999999096461MD1999999-0091REMSYN076AAXX  21004 83242 324// 51801 10210 20184 39646 40132 82130 333 10287 59009;EQDQ01  00002PRCP99
0167832420999992000062118004-12570-041380FM-12+042799999V0202301N001011050019N0100001N1+02841+01991101101ADDAA199000091GF106991021031004501001021MA1999999096311MD1999999-0101REMSYN070AAXX  21184 83242 32497 62302 10284 20199 39631 40110 82302 333 59010;EQDQ01  00002PRCP99
0186832420999992000062200004-12570-041380FM-12+042799999V0202701N000510450019N9999999N1+02361+01991101381ADDAA199000091GF105991031041004501011001KA1240M+02971MA1999999096561MD1999999+0101REMSYN076AAXX  22004 83242 324// 52701 10236 20199 39656 40138 83410 333 10297 58010;EQDQ01  00002PRCP99
0198832420999992000062212004-12570-041380FM-12+042799999V0200901N000510042019N0020001N1+02281+02001101551ADDAA199000091GF107991061071004501051001KA1240N+02071MA1999999096711MD1999999-0051MW1101REMSYN082AAXX  22124 83242 31495 70901 10228 20200 39671 40155 710// 86750 333 20207 59005;EQDQ01  00002PRCP99
0167832420999992000062218004-12570-041380FM-12+042799999V0201801N001010450019N0100001N1+02871+01941101151ADDAA199000091GF105991041071004501081001MA1999999096371MD1999999+0061REMSYN070AAXX  22184 83242 32497 51802 10287 20194 39637 40115 84780 333 58006;EQDQ01  00002PRCP99
0186832420999992000062300004-12570-041380FM-12+042799999V0201801N000510042019N9999999N1+02461+01941101441ADDAA199000091GF107991071071004501001001KA1240M+02971MA1999999096621MD1999999+0061REMSYN076AAXX  23004 83242 324// 71801 10246 20194 39662 40144 87700 333 10297 58006;EQDQ01  00002PRCP99
0201832420999992000062312004-12570-041380FM-12+042799999V0201801N001510042019N0005001N1+02001+01931101801ADDAA124003091AY151061AY241061GF108991081061004501999999KA1240N+01941MA1999999096941MD1999999+0231MW1101REMSYN088AAXX  23124 83242 21493 81803 10200 20193 39694 40180 71054 886// 333 20194 58023 60034;
0182832420999992000062318004-12570-041380FM-12+042799999V0201801N001510042019N0040001N1+02161+01881101541ADDAA106000591AY151061AY241061GF108991081071004501999999MA1999999096681MD1999999+0311MW1031REMSYN082AAXX  23184 83242 21496 81803 10216 20188 39668 40154 70354 887// 333 58031 69961;
0201832420999992000062400004-12570-041380FM-12+042799999V0201801N001010042019N9999999N1+01951+01831101811ADDAA106000591AY151061AY241061GF108991081071004501999999KA1240M+02521MA1999999096901MD1999999+0281MW1021REMSYN088AAXX  24004 83242 214// 81802 10195 20183 39690 40181 70254 887// 333 10252 58028 69961;
0173832420999992000062412004-12570-041380FM-12+042799999V0201801N001510042019N0020001N1+01991+01541101951ADDAA124001091GF107991071051004501001001KA1240N+01861MA1999999097031MD1999999+0091REMSYN082AAXX  24124 83242 22495 71803 10199 20154 39703 40195 87500 333 20186 58009 60014;
0167832420999992000062418004-12570-041380FM-12+042799999V0201401N001512200019N0100001N1+02581+01521101431ADDAA199000091GF102991011041004501051001MA1999999096591MD1999999-0091REMSYN070AAXX  24184 83242 32497 21403 10258 20152 39659 40143 81450 333 59009;EQDQ01  00002PRCP99
0196832420999992000062500004-12570-041380FM-12+042799999V0201801N001012200019N9999999N1+02011+01661101711ADDAA199000091GA1001+999999999GF100991001001999999001001KA1240M+02661MA1999999096811MD1999999-0091REMSYN070AAXX  25004 83242 329// 01802 10201 20166 39681 40171 333 10266 59009;EQDQ01  00002PRCP99
0186832420999992000062512004-12570-041380FM-12+042799999V0201801N003110450019N0040001N1+02051+01521101881ADDAA199000091GF108991041051004501051071KA1240N+01621MA1999999096981MD1999999-0051REMSYN076AAXX  25124 83242 32496 81806 10205 20152 39698 40188 84557 333 20162 59005;EQDQ01  00002PRCP99
0167832420999992000062518004-12570-041380FM-12+042799999V0201401N001510450019N0100001N1+02541+01571101381ADDAA199000091GF108991011031004501051071MA1999999096511MD1999999-0081REMSYN070AAXX  25184 83242 32497 81403 10254 20157 39651 40138 81357 333 59008;EQDQ01  00002PRCP99
0186832420999992000062600004-12570-041380FM-12+042799999V0202701N001512200019N9999999N1+01881+01571101531ADDAA199000091GF102991021001022501011001KA1240M+02681MA1999999096631MD1999999-0181REMSYN076AAXX  26004 83242 328// 22703 10188 20157 39663 40153 82010 333 10268 59018;EQDQ01  00002PRCP99
0186832420999992000062612004-12570-041380FM-12+042799999V0201801N001010450019N0100001N1+02031+01681101781ADDAA199000091GF105991031071004501061091KA1240N+01591MA1999999096871MD1999999-0111REMSYN076AAXX  26124 83242 32497 51802 10203 20168 39687 40178 83769 333 20159 59011;EQDQ01  00002PRCP99
0167832420999992000062618004-12570-041380FM-12+042799999V0202301N001512200019N0500001N1+02561+01561101261ADDAA199000091GF102991001001999999001021MA1999999096421MD1999999-0091REMSYN070AAXX  26184 83242 32999 22303 10256 20156 39642 40126 80002 333 59009;EQDQ01  00002PRCP99
0196832420999992000062700004-12570-041380FM-12+042799999V0203601N001012200019N9999999N1+01861+01551101581ADDAA199000091GA1001+999999999GF100991001001999999001001KA1240M+02701MA1999999096691MD1999999+0061REMSYN070AAXX  27004 83242 329// 03602 10186 20155 39669 40158 333 10270 58006;EQDQ01  00002PRCP99
0186832420999992000062712004-12570-041380FM-12+042799999V0201801N000512200019N0100001N1+01901+01641101721ADDAA199000091GF101991011011004501001001KA1240N+01491MA1999999096801MD1999999-0071REMSYN076AAXX  27124 83242 32497 11801 10190 20164 39680 40172 81100 333 20149 59007;EQDQ01  00002PRCP99
0167832420999992000062718004-12570-041380FM-12+042799999V0202301N000512200019N0100001N1+02721+01741101301ADDAA199000091GF104991021011004501021041MA1999999096461MD1999999+0041REMSYN070AAXX  27184 83242 32497 42301 10272 20174 39646 40130 82124 333 58004;EQDQ01  00002PRCP99
0196832420999992000062800004-12570-041380FM-12+042799999V0200901N000512200019N9999999N1+02091+01841101511ADDAA199000091GA1001+999999999GF100991001001999999001001KA1240M+02841MA1999999096621MD1999999-0071REMSYN070AAXX  28004 83242 329// 00901 10209 20184 39662 40151 333 10284 59007;EQDQ01  00002PRCP99
0186832420999992000062812004-12570-041380FM-12+042799999V0201801N002110042019N0100001N1+02161+01741101721ADDAA199000091GF108991081061004501001001KA1240N+01871MA1999999096851MD1999999+0051REMSYN076AAXX  28124 83242 32497 81804 10216 20174 39685 40172 88600 333 20187 58005;EQDQ01  00002PRCP99
0182832420999992000062818004-12570-041380FM-12+042799999V0202301N002110042019N0020001N1+02101+02021101481ADDAA106002091AY161061AY221061GF108991081071004501999999MA1999999096591MD1999999+0131MW1101REMSYN082AAXX  28184 83242 21495 82304 10210 20202 39659 40148 71062 887// 333 58013 60021;
0201832420999992000062900004-12570-041380FM-12+042799999V0203601N001510042019N9999999N1+02021+01901101541ADDAA106000791AY151061AY221061GF108991081071004501999999KA1240M+02461MA1999999096671MD1999999+0051MW1101REMSYN088AAXX  29004 83242 214// 83603 10202 20190 39667 40154 71052 887// 333 10246 58005 69901;
0201832420999992000062912004-12570-041380FM-12+042799999V0201801N002112200019N0100001N1+02061+01721101691ADDAA124002091AY161061AY221061GF104991041041004501001001KA1240N+01831MA1999999096801MD1999999-0051MW1031REMSYN088AAXX  29124 83242 21497 41804 10206 20172 39680 40169 70362 84400 333 20183 59005 60024;
0167832420999992000062918004-12570-041380FM-12+042799999V0201801N002610042019N0100001N1+02551+01591101271ADDAA199000091GF108991071051004501011999MA1999999096441MD1999999-0151REMSYN070AAXX  29184 83242 32497 81805 10255 20159 39644 40127 8751/ 333 59015;EQDQ01  00002PRCP99
0201832420999992000063000004-12570-041380FM-12+042799999V0201801N003110042019N9999999N1+99999+99999101611ADDAA106000191AY161061AY211061GF108991081071004501999999KA1240M+02731MA1999999096731MD1999999-0061MW1021REMSYN088AAXX  30004 83242 214// 81806 10/// 20/// 39673 40161 70261 887// 333 10273 59006 69921;
0201832420999992000063012004-12570-041380FM-12+042799999V0201801N001510042019N0040001N1+02081+01911101741ADDAA124000891AY151061AY221061GF106991051071004501031001KA1240N+01851MA1999999096861MD1999999+0061MW1101REMSYN088AAXX  30124 83242 21496 61803 10208 20191 39686 40174 71052 85730 333 20185 58006 69984;
0167832420999992000063018004-12570-041380FM-12+042799999V0201801N001510042019N0100001N1+02481+01941101261ADDAA199000091GF106991051071004501041001MA1999999096421MD1999999-0021REMSYN070AAXX  30184 83242 32497 61803 10248 20194 39642 40126 85740 333 59002;EQDQ01  00002PRCP99
0186832420999992000070100004-12570-041380FM-12+042799999V0202301N000510042019N9999999N1+02141+01971101631ADDAA199000091GF107991071071004501001001KA1240M+02541MA1999999096751MD1999999+0021REMSYN076AAXX  01004 83242 324// 72301 10214 20197 39675 40163 87700 333 10254 58002;EQDQ01  00002PRCP99
0201832420999992000070112004-12570-041380FM-12+042799999V0201801N001010042019N0040001N1+02101+01701101691ADDAA124000191AY151061AY221061GF107991071071004501001001KA1240N+01941MA1999999096811MD1999999-0051MW1031REMSYN088AAXX  01124 83242 21496 71802 10210 20170 39681 40169 70352 87700 333 20194 59005 69914;
0167832420999992000070118004-12570-041380FM-12+042799999V0201801N002610450019N0100001N1+02661+01681101201ADDAA199000091GF105991041081004501081001MA1999999096391MD1999999-0031REMSYN070AAXX  01184 83242 32497 51805 10266 20168 39639 40120 84880 333 59003;EQDQ01  00002PRCP99
0196832420999992000070200004-12570-041380FM-12+042799999V0202301N001012200019N9999999N1+01971+01531101541ADDAA199000091GA1001+999999999GF100991001001999999001001KA1240M+02721MA1999999096661MD1999999-0091REMSYN070AAXX  02004 83242 329// 02302 10197 20153 39666 40154 333 10272 59009;EQDQ01  00002PRCP99
0186832420999992000070212004-12570-041380FM-12+042799999V0201801N001512200019N0100001N1+01891+01611101751ADDAA199000091GF104991011001004501061061KA1240N+01241MA1999999096841MD1999999+0031REMSYN076AAXX  02124 83242 32497 41803 10189 20161 39684 40175 81066 333 20124 58003;EQDQ01  00002PRCP99
0167832420999992000070218004-12570-041380FM-12+042799999V0201801N003110042019N0100001N1+02541+01571101181ADDAA199000091GF107991071071004501001001MA1999999096341MD1999999-0051REMSYN070AAXX  02184 83242 32497 71806 10254 20157 39634 40118 87700 333 59005;EQDQ01  00002PRCP99
0186832420999992000070300004-12570-041380FM-12+042799999V0201801N001010042019N9999999N1+02141+01761101531ADDAA199000091GF106991061071004501001001KA1240M+02641MA1999999096641MD1999999-0021REMSYN076AAXX  03004 83242 324// 61802 10214 20176 39664 40153 86700 333 10264 59002;EQDQ01  00002PRCP99
0167832420999992000070318004-12570-041380FM-12+042799999V0202301N002112200019N0100001N1+02501+01561101451ADDAA199000091GF104991021041004501031041MA1999999096601MD1999999+0261REMSYN070AAXX  03184 83242 32497 42304 10250 20156 39660 40145 82434 333 58026;EQDQ01  00002PRCP99
0186832420999992000070400004-12570-041380FM-12+042799999V0200501N000510042019N9999999N1+02161+01741101691ADDAA199000091GF108991081071004501999999KA1240M+02621MA1999999096801MD1999999-0041REMSYN076AAXX  04004 83242 324// 80501 10216 20174 39680 40169 887// 333 10262 59004;EQDQ01  00002PRCP99
0186832420999992000070412004-12570-041380FM-12+042799999V0202301N003610042019N0100001N1+02041+01581101821ADDAA199000091GF107991071051004501001001KA1240N+01731MA1999999096931MD1999999+0031REMSYN076AAXX  04124 83242 32497 72307 10204 20158 39693 40182 87500 333 20173 58003;EQDQ01  00002PRCP99
0167832420999992000070418004-12570-041380FM-12+042799999V0201801N001510450019N0100001N1+02441+01531101471ADDAA199000091GF106991041051004501031011MA1999999096611MD1999999+0011REMSYN070AAXX  04184 83242 32497 61803 10244 20153 39661 40147 84531 333 58001;EQDQ01  00002PRCP99
0186832420999992000070500004-12570-041380FM-12+042799999V0201801N002110042019N9999999N1+02101+01701101741ADDAA199000091GF108991081071004501999999KA1240M+02561MA1999999096851MD1999999+0051REMSYN076AAXX  05004 83242 324// 81804 10210 20170 39685 40174 887// 333 10256 58005;EQDQ01  00002PRCP99
0186832420999992000070512004-12570-041380FM-12+042799999V0201801N005110042019N0100001N1+02081+01581101721ADDAA199000091GF106991051071004501061001KA1240N+01851MA1999999096841MD1999999-0091REMSYN076AAXX  05124 83242 32497 61810 10208 20158 39684 40172 85760 333 20185 59009;EQDQ01  00002PRCP99
0167832420999992000070518004-12570-041380FM-12+042799999V0201401N002110450019N0100001N1+02681+01451101451ADDAA199000091GF106991041061004501051001MA1999999096481MD1999999-0131REMSYN070AAXX  05184 83242 32497 61404 10268 20145 39648 40145 84650 333 59013;EQDQ01  00002PRCP99
0201832420999992000070600004-12570-041380FM-12+042799999V0201801N003110042019N9999999N1+01941+01811101671ADDAA106000191AY151061AY221061GF108991081071004501999999KA1240M+02731MA1999999096771MD1999999-0081MW1501REMSYN088AAXX  06004 83242 214// 81806 10194 20181 39677 40167 75052 887// 333 10273 59008 69921;
0201832420999992000070612004-12570-041380FM-12+042799999V0201801N002110042019N0010001N1+01831+01761101741ADDAA124001091AY161061AY221061GF108991081071004501999999KA1240N+01751MA1999999096821MD1999999+0021MW1511REMSYN088AAXX  06124 83242 21494 81804 10183 20176 39682 40174 75162 887// 333 20175 58002 60014;
0182832420999992000070618004-12570-041380FM-12+042799999V0201801N002110450019N0100001N1+02341+01831101351ADDAA106000191AY151061AY221061GF105991041071004501051001MA1999999096481MD1999999+0001MW1031REMSYN082AAXX  06184 83242 21497 51804 10234 20183 39648 40135 70352 84750 333 58000 69921;
0201832420999992000070700004-12570-041380FM-12+042799999V0201801N002610042019N9999999N1+01941+01841101701ADDAA106002091AY161061AY241061GF108991081061004501999999KA1240M+02441MA1999999096781MD1999999+0011MW1601REMSYN088AAXX  07004 83242 214// 81805 10194 20184 39678 40170 76064 886// 333 10244 58001 60021;
0201832420999992000070712004-12570-041380FM-12+042799999V0202001N001512200019N0100001N1+02041+01741101761ADDAA124007191AY161061AY221061GF104991021041004501051011KA1240N+01751MA1999999096861MD1999999+0041MW1021REMSYN088AAXX  07124 83242 21497 42003 10204 20174 39686 40176 70262 82451 333 20175 58004 60074;
0167832420999992000070718004-12570-041380FM-12+042799999V0202301N002110450019N0100001N1+02341+01761101421ADDAA199000091GF106991041071004501031001MA1999999096541MD1999999+0061REMSYN070AAXX  07184 83242 32497 62304 10234 20176 39654 40142 84730 333 58006;EQDQ01  00002PRCP99
0201832420999992000070800004-12570-041380FM-12+042799999V0201801N001010042019N9999999N1+01971+01911101661ADDAA106000891AY151061AY221061GF108991081071004501999999KA1240M+02461MA1999999096761MD1999999-0021MW1501REMSYN088AAXX  08004 83242 214// 81802 10197 20191 39676 40166 75052 887// 333 10246 59002 69981;
0201832420999992000070812004-12570-041380FM-12+042799999V0201801N002610042019N0005001N1+01821+01761101811ADDAA124007991AY161061AY221061GF108991081071004501999999KA1240N+01741MA1999999096891MD1999999+0031MW1101REMSYN088AAXX  08124 83242 21493 81805 10182 20176 39689 40181 71062 887// 333 20174 58003 60084;
0182832420999992000070818004-12570-041380FM-12+042799999V0202701N001510042019N0100001N1+02061+01891101591ADDAA106000891AY151061AY221061GF106991051071004501051001MA1999999096691MD1999999+0151MW1021REMSYN082AAXX  08184 83242 21497 62703 10206 20189 39669 40159 70252 85750 333 58015 69981;
0201832420999992000070912004-12570-041380FM-12+042799999V0201401N001010042019N0100001N1+02011+01871101701ADDAA124001091AY151061AY221061GF107991061071004501041001KA1240N+01751MA1999999096801MD1999999-0091MW1031REMSYN088AAXX  09124 83242 21497 71402 10201 20187 39680 40170 70352 86740 333 20175 59009 60014;
0167832420999992000070918004-12570-041380FM-12+042799999V0202301N001010450019N0100001N1+02441+01761101321ADDAA199000091GF105991041051004501031001MA1999999096471MD1999999-0221REMSYN070AAXX  09184 83242 32497 52302 10244 20176 39647 40132 84530 333 59022;EQDQ01  00002PRCP99
0201832420999992000071000004-12570-041380FM-12+042799999V0201801N001510042019N9999999N1+02101+01761101571ADDAA106000791AY151061AY221061GF108991081071004501999999KA1240M+02561MA1999999096691MD1999999+0021MW1501REMSYN088AAXX  10004 83242 214// 81803 10210 20176 39669 40157 75052 887// 333 10256 58002 69901;
0201832420999992000071012004-12570-041380FM-12+042799999V0201801N000510042019N0020001N1+02021+01761101721ADDAA124000191AY151061AY221061GF108991081071004501999999KA1240N+01791MA1999999096831MD1999999+0031MW1101REMSYN088AAXX  10124 83242 21495 81801 10202 20176 39683 40172 71052 887// 333 20179 58003 69924;
0182832420999992000071018004-12570-041380FM-12+042799999V0201801N001510042019N0100001N1+02381+01841101331ADDAA106000191AY151061AY221061GF108991081071004501999999MA1999999096461MD1999999-0011MW1031REMSYN082AAXX  10184 83242 21497 81803 10238 20184 39646 40133 70352 887// 333 59001 69911;
0201832420999992000071100004-12570-041380FM-12+042799999V0202701N000510042019N9999999N1+02081+02001101641ADDAA106000791AY151061AY221061GF108991081071004501999999KA1240M+02441MA1999999096751MD1999999+0061MW1501REMSYN088AAXX  11004 83242 214// 82701 10208 20200 39675 40164 75052 887// 333 10244 58006 69901;
0201832420999992000071112004-12570-041380FM-12+042799999V0201801N001010042019N0020001N1+02131+01881101781ADDAA124002091AY161061AY221061GF106991051071004501031001KA1240N+01911MA1999999096891MD1999999+0061MW1101REMSYN088AAXX  11124 83242 21495 61802 10213 20188 39689 40178 71062 85730 333 20191 58006 60024;
0167832420999992000071118004-12570-041380FM-12+042799999V0201801N002112200019N0100001N1+02661+01681101291ADDAA199000091GF102991021011004501001001MA1999999096481MD1999999+0021REMSYN070AAXX  11184 83242 32497 21804 10266 20168 39648 40129 82100 333 58002;EQDQ01  00002PRCP99
0186832420999992000071200004-12570-041380FM-12+042799999V0202301N000510450019N9999999N1+02071+01721101651ADDAA199000091GF106991031051004501051001KA1240M+02721MA1999999096771MD1999999+0021REMSYN076AAXX  12004 83242 324// 62301 10207 20172 39677 40165 83550 333 10272 58002;EQDQ01  00002PRCP99
0201832420999992000071212004-12570-041380FM-12+042799999V0201801N001010042019N0040001N1+02061+01841101851ADDAA124000791AY151061AY221061GF107991061071004501031001KA1240N+01911MA1999999096951MD1999999+0061MW1021REMSYN088AAXX  12124 83242 21496 71802 10206 20184 39695 40185 70252 86730 333 20191 58006 69904;
0167832420999992000071218004-12570-041380FM-12+042799999V0201801N001512200019N0100001N1+02641+01661101431ADDAA199000091GF103991021021004501011001MA1999999096601MD1999999+0121REMSYN070AAXX  12184 83242 32497 31803 10264 20166 39660 40143 82210 333 58012;EQDQ01  00002PRCP99
0186832420999992000071300004-12570-041380FM-12+042799999V0202701N001010210019N9999999N1+02021+01721101661ADDAA199000091GF106991051001022501031021KA1240M+02741MA1999999096771MD1999999+0001REMSYN076AAXX  13004 83242 328// 62702 10202 20172 39677 40166 85032 333 10274 58000;EQDQ01  00002PRCP99
0186832420999992000071312004-12570-041380FM-12+042799999V0203601N000510450019N0100001N1+01921+01681101831ADDAA199000091GF106991031051004501061001KA1240N+01491MA1999999096911MD1999999-0041REMSYN076AAXX  13124 83242 32497 63601 10192 20168 39691 40183 83560 333 20149 59004;EQDQ01  00002PRCP99
0182832420999992000071318004-12570-041380FM-12+042799999V0200901N000510450019N0100001N1+02581+01851101581ADDAA106000791AY151061AY241061GF106991041071004501051041MA1999999096701MD1999999+0101MW1011REMSYN082AAXX  13184 83242 21497 60901 10258 20185 39670 40158 70154 84754 333 58010 69901;
0201832420999992000071412004-12570-041380FM-12+042799999V0203601N000510042019N0010001N1+02051+01931101831ADDAA124021191AY161061AY221061GF106991051071004501031001KA1240N+01871MA1999999096931MD1999999+0021MW1101REMSYN088AAXX  14124 83242 21494 63601 10205 20193 39693 40183 71062 85730 333 20187 58002 60214;
0167832420999992000071418004-12570-041380FM-12+042799999V0201801N001010450019N0100001N1+02561+01731101371ADDAA199000091GF105991041021004501031001MA1999999096521MD1999999-0181REMSYN070AAXX  14184 83242 32497 51802 10256 20173 39652 40137 84230 333 59018;EQDQ01  00002PRCP99
0186832420999992000071500004-12570-041380FM-12+042799999V0201801N001010042019N9999999N1+02161+01701101721ADDAA199000091GF108991081071004501999999KA1240M+02691MA1999999096841MD1999999-0111REMSYN076AAXX  15004 83242 324// 81802 10216 20170 39684 40172 887// 333 10269 59011;EQDQ01  00002PRCP99
0201832420999992000071512004-12570-041380FM-12+042799999V0201801N002610042019N0010001N1+01961+01811101821ADDAA124000191AY151061AY241061GF108991081061004501999999KA1240N+01851MA1999999096921MD1999999-0011MW1501REMSYN088AAXX  15124 83242 21494 81805 10196 20181 39692 40182 75054 886// 333 20185 59001 69924;
0182832420999992000071518004-12570-041380FM-12+042799999V0201801N002612200019N0100001N1+02571+01611101251ADDAA106000791AY151061AY241061GF102991011031004501001011MA1999999096421MD1999999-0011MW1031REMSYN082AAXX  15184 83242 21497 21805 10257 20161 39642 40125 70354 81301 333 59001 69901;
0167832420999992000071600004-12570-041380FM-12+042799999V0203601N001010042019N9999999N1+01961+01591101531ADDAA199000021GF107991061071004501061001KA1240M+02661MA1999999096631MD1999999-0211REMSYN076AAXX  16004 83242 324// 73602 10196 20159 39663 40153 86760 333 10266 59021;
0186832420999992000071612004-12570-041380FM-12+042799999V0200901N001512200019N0100001N1+02061+01521101581ADDAA199000091GF102991011031004501001011KA1240N+01651MA1999999096691MD1999999-0231REMSYN076AAXX  16124 83242 32497 20903 10206 20152 39669 40158 81301 333 20165 59023;EQDQ01  00002PRCP99
0167832420999992000071618004-12570-041380FM-12+042799999V0201801N001512200019N0100001N1+02671+01761100871ADDAA199000091GF103991011071004501051051MA1999999096061MD1999999-0361REMSYN070AAXX  16184 83242 32497 31803 10267 20176 39606 40087 81755 333 59036;EQDQ01  00002PRCP99
0196832420999992000071700004-12570-041380FM-12+042799999V0203601N000512200019N9999999N1+02101+01761101101ADDAA199000091GA1001+999999999GF100991001001999999001001KA1240M+02701MA1999999096251MD1999999-0381REMSYN070AAXX  17004 83242 329// 03601 10210 20176 39625 40110 333 10270 59038;EQDQ01  00002PRCP99
0186832420999992000071712004-12570-041380FM-12+042799999V0201801N000519999999N0100001N1+02041+01801101271ADDAA199000091GF106991021001012501081051KA1240N+01571MA1999999096401MD1999999-0291REMSYN076AAXX  17124 83242 32697 61801 10204 20180 39640 40127 82085 333 20157 59029;EQDQ01  00002PRCP99
0167832420999992000071718004-12570-041380FM-12+042799999V0202301N001512200019N0100001N1+02981+01761100841ADDAA199000091GF104991021021004501051041MA1999999096061MD1999999+0001REMSYN070AAXX  17184 83242 32497 42303 10298 20176 39606 40084 82254 333 58000;EQDQ01  00002PRCP99
0186832420999992000071800004-12570-041380FM-12+042799999V0203601N000510450019N9999999N1+02341+01831101081ADDAA199000091GF107991021031004501051021KA1240M+03101MA1999999096251MD1999999+0001REMSYN076AAXX  18004 83242 324// 73601 10234 20183 39625 40108 82352 333 10310 58000;EQDQ01  00002PRCP99
0198832420999992000071812004-12570-041380FM-12+042799999V0209999C000010042019N0020001N1+02121+01951101621ADDAA199000091GF108991081071004501999999KA1240N+02031MA1999999096771MD1999999+0371MW1101REMSYN082AAXX  18124 83242 31495 80000 10212 20195 39677 40162 710// 887// 333 20203 58037;EQDQ01  00002PRCP99
0160832420999992000071818004-12570-041380FM-12+042799999V0201401N002110450019N0040001N1+02601+01991101271ADDAA199000021GF106991041071004501031011MA1999999096471MD1999999+0411MW1511REMSYN076AAXX  18184 83242 31496 61404 10260 20199 39647 40127 751// 84731 333 58041;
0201832420999992000071900004-12570-041380FM-12+042799999V0200901N000510042019N9999999N1+02141+02001101611ADDAA106000391AY151061AY221061GF108991081071004501999999KA1240M+02641MA1999999096741MD1999999+0491MW1501REMSYN088AAXX  19004 83242 214// 80901 10214 20200 39674 40161 75052 887// 333 10264 58049 69931;
0201832420999992000071912004-12570-041380FM-12+042799999V0201801N000510042019N0040001N1+02051+01911101681ADDAA124005191AY161061AY221061GF108991081071004501999999KA1240N+01951MA1999999096801MD1999999+0031MW1031REMSYN088AAXX  19124 83242 21496 81801 10205 20191 39680 40168 70362 887// 333 20195 58003 60054;
0167832420999992000071918004-12570-041380FM-12+042799999V0201801N001010042019N0100001N1+02441+01831101351ADDAA199000091GF106991051061004501061001MA1999999096501MD1999999+0031REMSYN070AAXX  19184 83242 32497 61802 10244 20183 39650 40135 85660 333 58003;EQDQ01  00002PRCP99
0186832420999992000072000004-12570-041380FM-12+042799999V0200501N000510450019N9999999N1+02011+01831101551ADDAA199000091GF105991031071004501051021KA1240M+02581MA1999999096671MD1999999-0071REMSYN076AAXX  20004 83242 324// 50501 10201 20183 39667 40155 83752 333 10258 59007;EQDQ01  00002PRCP99
0186832420999992000072012004-12570-041380FM-12+042799999V0201801N000510042019N0040001N1+02141+01861101621ADDAA199000091GF106991051071004501051001KA1240N+01951MA1999999096741MD1999999-0061REMSYN076AAXX  20124 83242 32496 61801 10214 20186 39674 40162 85750 333 20195 59006;EQDQ01  00002PRCP99
0167832420999992000072018004-12570-041380FM-12+042799999V0202701N001012200019N0100001N1+02781+01821101051ADDAA199000091GF103991011031004501051001MA1999999096261MD1999999-0211REMSYN070AAXX  20184 83242 32497 32702 10278 20182 39626 40105 81350 333 59021;EQDQ01  00002PRCP99
0196832420999992000072100004-12570-041380FM-12+042799999V0200501N000512200019N9999999N1+02081+01801101261ADDAA199000091GA1001+999999999GF100991001001999999001001KA1240M+02841MA1999999096401MD1999999-0271REMSYN070AAXX  21004 83242 329// 00501 10208 20180 39640 40126 333 10284 59027;EQDQ01  00002PRCP99
0198832420999992000072112004-12570-041380FM-12+042799999V0201801N002110042019N0010001N1+02141+01901101441ADDAA199000091GF106991051071004501031001KA1240N+01791MA1999999096571MD1999999-0171MW1151REMSYN082AAXX  21124 83242 31494 61804 10214 20190 39657 40144 715// 85730 333 20179 59017;EQDQ01  00002PRCP99
0167832420999992000072118004-12570-041380FM-12+042799999V0201801N001012200019N0100001N1+02651+01681101211ADDAA199000091GF103991031011004501001001MA1999999096391MD1999999+0131REMSYN070AAXX  21184 83242 32497 31802 10265 20168 39639 40121 83100 333 58013;EQDQ01  00002PRCP99
0186832420999992000072200004-12570-041380FM-12+042799999V0200201N015910042019N9999999N1+02181+01671101521ADDAA199000091GF106991061071004501001001KA1240M+02741MA1999999096661MD1999999+0261REMSYN076AAXX  22004 83242 324// 60231 10218 20167 39666 40152 86700 333 10274 58026;EQDQ01  00002PRCP99
0186832420999992000072212004-12570-041380FM-12+042799999V0201801N001510450019N0100001N1+02041+01801101681ADDAA199000091GF105991041041004501031001KA1240N+01791MA1999999096801MD1999999+0131REMSYN076AAXX  22124 83242 32497 51803 10204 20180 39680 40168 84430 333 20179 58013;EQDQ01  00002PRCP99
0167832420999992000072218004-12570-041380FM-12+042799999V0201801N002112200019N0100001N1+02641+01661101301ADDAA199000091GF101991011011004501001001MA1999999096461MD1999999+0071REMSYN070AAXX  22184 83242 32497 11804 10264 20166 39646 40130 81100 333 58007;EQDQ01  00002PRCP99
0196832420999992000072300004-12570-041380FM-12+042799999V0200501N001012200019N9999999N1+01991+01601101421ADDAA199000091GA1001+999999999GF100991001001999999001001KA1240M+02241MA1999999096531MD1999999-0131REMSYN070AAXX  23004 83242 329// 00502 10199 20160 39653 40142 333 10224 59013;EQDQ01  00002PRCP99
0201832420999992000072312004-12570-041380FM-12+042799999V0202301N001010042019N0020001N1+01981+01791101661ADDAA124002091AY161061AY201061GF106991051071004501061001KA1240N+01791MA1999999096761MD1999999-0041MW1101REMSYN088AAXX  23124 83242 21495 62302 10198 20179 39676 40166 71060 85760 333 20179 59004 60024;
0167832420999992000072318004-12570-041380FM-12+042799999V0202301N001512200019N0100001N1+02601+01711101101ADDAA199000091GF103991021011004501011001MA1999999096361MD1999999-0101REMSYN070AAXX  23184 83242 32497 32303 10260 20171 39636 40110 82110 333 59010;EQDQ01  00002PRCP99
0198832420999992000072412004-12570-041380FM-12+042799999V0202301N001010042019N0020001N1+02151+01861101421ADDAA199000091GF107991061051004501031001KA1240N+01871MA1999999096571MD1999999+0191MW1101REMSYN082AAXX  24124 83242 31495 72302 10215 20186 39657 40142 710// 86530 333 20187 58019;EQDQ01  00002PRCP99
0167832420999992000072418004-12570-041380FM-12+042799999V0201401N001512200019N0100001N1+02841+01791101001ADDAA199000091GF102991021011004501001001MA1999999096211MD1999999-0151REMSYN070AAXX  24184 83242 32497 21403 10284 20179 39621 40100 82100 333 59015;EQDQ01  00002PRCP99
0196832420999992000072500004-12570-041380FM-12+042799999V0200901N000512200019N9999999N1+02181+01861101381ADDAA199000091GA1001+999999999GF100991001001999999001001KA1240M+02891MA1999999096521MD1999999-0031REMSYN070AAXX  25004 83242 329// 00901 10218 20186 39652 40138 333 10289 59003;EQDQ01  00002PRCP99
0186832420999992000072512004-12570-041380FM-12+042799999V0201801N001010450019N0040001N1+02051+01821101841ADDAA199000091GF106991041061004501031001KA1240N+01881MA1999999096951MD1999999+0381REMSYN076AAXX  25124 83242 32496 61802 10205 20182 39695 40184 84630 333 20188 58038;EQDQ01  00002PRCP99
0167832420999992000072518004-12570-041380FM-12+042799999V0202301N003112200019N0100001N1+02741+99999101291ADDAA199000091GF103991021011004501001061MA1999999096481MD1999999+0271REMSYN070AAXX  25184 83242 32497 32306 10274 2//// 39648 40129 82106 333 58027;EQDQ01  00002PRCP99
0196832420999992000072600004-12570-041380FM-12+042799999V0201401N000512200019N9999999N1+02151+01611101631ADDAA199000091GA1001+999999999GF100991001001999999001001KA1240M+02821MA1999999096751MD1999999+0231REMSYN070AAXX  26004 83242 329// 01401 10215 20161 39675 40163 333 10282 58023;EQDQ01  00002PRCP99
0198832420999992000072612004-12570-041380FM-12+042799999V0201401N000510042019N0040001N1+01911+01661101811ADDAA199000091GF107991061071004501061001KA1240N+01671MA1999999096911MD1999999-0041MW1151REMSYN082AAXX  26124 83242 31496 71401 10191 20166 39691 40181 715// 86760 333 20167 59004;EQDQ01  00002PRCP99
0167832420999992000072618004-12570-041380FM-12+042799999V0202301N000512200019N0100001N1+02621+01641101221ADDAA199000091GF103991021011004501001051MA1999999096391MD1999999-0091REMSYN070AAXX  26184 83242 32497 32301 10262 20164 39639 40122 82105 333 59009;EQDQ01  00002PRCP99
0186832420999992000072700004-12570-041380FM-12+042799999V0201801N001010042019N9999999N1+02161+01661101601ADDAA199000091GF107991061071004501051001KA1240M+02731MA1999999096711MD1999999-0041REMSYN076AAXX  27004 83242 324// 71802 10216 20166 39671 40160 86750 333 10273 59004;EQDQ01  00002PRCP99
0186832420999992000072712004-12570-041380FM-12+042799999V0201801N001510450019N0100001N1+02161+01721101711ADDAA199000091GF105991031041004501031011KA1240N+01851MA1999999096841MD1999999-0071REMSYN076AAXX  27124 83242 32497 51803 10216 20172 39684 40171 83431 333 20185 59007;EQDQ01  00002PRCP99
0167832420999992000072718004-12570-041380FM-12+042799999V0201801N001510450019N0100001N1+02661+01711101261ADDAA199000091GF106991041041004501011011MA1999999096441MD1999999+0051REMSYN070AAXX  27184 83242 32497 61803 10266 20171 39644 40126 84411 333 58005;EQDQ01  00002PRCP99
0186832420999992000072800004-12570-041380FM-12+042799999V0200901N000510042019N9999999N1+02261+01751101601ADDAA199000091GF107991071071004501001001KA1240M+02741MA1999999096741MD1999999+0031REMSYN076AAXX  28004 83242 324// 70901 10226 20175 39674 40160 87700 333 10274 58003;EQDQ01  00002PRCP99
0201832420999992000072812004-12570-041380FM-12+042799999V0201801N002110042019N0010001N1+01981+01901101831ADDAA124002091AY161061AY221061GF108991081071004501999999KA1240N+01841MA1999999096941MD1999999+0101MW1511REMSYN088AAXX  28124 83242 21494 81804 10198 20190 39694 40183 75162 887// 333 20184 58010 60024;
0182832420999992000072818004-12570-041380FM-12+042799999V0201401N003110042019N0010001N1+02321+01851101381ADDAA106002091AY161061AY241061GF108991081071004501999999MA1999999096521MD1999999+0081MW1211REMSYN082AAXX  28184 83242 21494 81406 10232 20185 39652 40138 72164 887// 333 58008 60021;
0201832420999992000072900004-12570-041380FM-12+042799999V0202301N001010042019N9999999N1+01911+01821101751ADDAA106001091AY161061AY241061GF108991081061004501999999KA1240M+02371MA1999999096841MD1999999+0101MW1601REMSYN088AAXX  29004 83242 214// 82302 10191 20182 39684 40175 76064 886// 333 10237 58010 60011;
0201832420999992000072912004-12570-041380FM-12+042799999V0201801N002110042019N0100001N1+01901+01381101901ADDAA124014091AY161061AY221061GF107991051051004501031001KA1240N+01651MA1999999096971MD1999999+0031MW1031REMSYN088AAXX  29124 83242 21497 71804 10190 20138 39697 40190 70362 85530 333 20165 58003 60144;
0167832420999992000072918004-12570-041380FM-12+042799999V0202301N002110042019N0100001N1+02381+01421101351ADDAA199000091GF107991071051004501031021MA1999999096481MD1999999-0041REMSYN070AAXX  29184 83242 32497 72304 10238 20142 39648 40135 87532 333 59004;EQDQ01  00002PRCP99
0186832420999992000073000004-12570-041380FM-12+042799999V0200501N001012200019N9999999N1+01921+01591101601ADDAA199000091GF102991021031004501001001KA1240M+02461MA1999999096691MD1999999-0151REMSYN076AAXX  30004 83242 324// 20502 10192 20159 39669 40160 82300 333 10246 59015;EQDQ01  00002PRCP99
0186832420999992000073012004-12570-041380FM-12+042799999V0200501N000510450019N0100001N1+01941+01461101851ADDAA199000091GF106991041071004501051091KA1240N+01591MA1999999096931MD1999999-0041REMSYN076AAXX  30124 83242 32497 60501 10194 20146 39693 40185 84759 333 20159 59004;EQDQ01  00002PRCP99
0167832420999992000073018004-12570-041380FM-12+042799999V0202301N001512200019N0100001N1+02491+01531101321ADDAA199000091GF101991011011004501001001MA1999999096451MD1999999-0031REMSYN070AAXX  30184 83242 32497 12303 10249 20153 39645 40132 81100 333 59003;EQDQ01  00002PRCP99
0186832420999992000073100004-12570-041380FM-12+042799999V0200901N000512200019N9999999N1+01881+01531101551ADDAA199000091GF104991041041004501001001KA1240M+02561MA1999999096641MD1999999-0051REMSYN076AAXX  31004 83242 324// 40901 10188 20153 39664 40155 84400 333 10256 59005;EQDQ01  00002PRCP99
0198832420999992000073112004-12570-041380FM-12+042799999V0200901N000510042019N0020001N1+01921+01591101731ADDAA199000091GF108991081061004501999999KA1240N+01731MA1999999096811MD1999999-0121MW1101REMSYN082AAXX  31124 83242 31495 80901 10192 20159 39681 40173 710// 886// 333 20173 59012;EQDQ01  00002PRCP99
0167832420999992000073118004-12570-041380FM-12+042799999V0201401N001012200019N0100001N1+02501+01561101311ADDAA199000091GF102991021011004501001001MA1999999096451MD1999999+0001REMSYN070AAXX  31184 83242 32497 21402 10250 20156 39645 40131 82100 333 58000;EQDQ01  00002PRCP99
0186832420999992000080100004-12570-041380FM-12+042799999V0203201N000510042019N9999999N1+01961+01571101571ADDAA199000091GF105991051031004501001001KA1240M+02601MA1999999096671MD1999999+0031REMSYN076AAXX  01004 83242 324// 53201 10196 20157 39667 40157 85300 333 10260 58003;EQDQ01  00002PRCP99
0186832420999992000080112004-12570-041380FM-12+042799999V0201801N001010450019N0100001N1+02021+01641101811ADDAA199000091GF106991041061004501041001KA1240N+01831MA1999999096901MD1999999+0091REMSYN076AAXX  01124 83242 32497 61802 10202 20164 39690 40181 84640 333 20183 58009;EQDQ01  00002PRCP99
0167832420999992000080118004-12570-041380FM-12+042799999V0201801N001510450019N0100001N1+02621+01461101271ADDAA199000091GF105991031021004501031011MA1999999096441MD1999999-0011REMSYN070AAXX  01184 83242 32497 51803 10262 20146 39644 40127 83231 333 59001;EQDQ01  00002PRCP99
0186832420999992000080200004-12570-041380FM-12+042799999V0201401N001010042019N9999999N1+02201+01581101561ADDAA199000091GF108991081071004501999999KA1240M+02721MA1999999096691MD1999999+0021REMSYN076AAXX  02004 83242 324// 81402 10220 20158 39669 40156 887// 333 10272 58002;EQDQ01  00002PRCP99
0186832420999992000080212004-12570-041380FM-12+042799999V0201801N001510450019N0100001N1+02221+01691101811ADDAA199000091GF105991041061004501031001KA1240N+01791MA1999999096941MD1999999+0041REMSYN076AAXX  02124 83242 32497 51803 10222 20169 39694 40181 84630 333 20179 58004;EQDQ01  00002PRCP99
0167832420999992000080218004-12570-041380FM-12+042799999V0202301N002612200019N0100001N1+02621+01591101391ADDAA199000091GF102991011031004501081001MA1999999096551MD1999999+0111REMSYN070AAXX  02184 83242 32497 22305 10262 20159 39655 40139 81380 333 58011;EQDQ01  00002PRCP99
0201832420999992000080300004-12570-041380FM-12+042799999V0201401N001010042019N9999999N1+01881+01761101781ADDAA106006191AY161061AY211061GF108991081071004501999999KA1240M+02701MA1999999096891MD1999999+0201MW1511REMSYN088AAXX  03004 83242 214// 81402 10188 20176 39689 40178 75161 887// 333 10270 58020 60061;
0201832420999992000080312004-12570-041380FM-12+042799999V0201801N001010042019N0010001N1+01991+01851101871ADDAA124007991AY161061AY221061GF106991051071004501031001KA1240N+01711MA1999999096951MD1999999+0011MW1101REMSYN088AAXX  03124 83242 21494 61802 10199 20185 39695 40187 71062 85730 333 20171 58001 60084;
0167832420999992000080318004-12570-041380FM-12+042799999V0202301N001012200019N0100001N1+02601+01711101431ADDAA199000091GF105991031041004501001061MA1999999096581MD1999999+0031REMSYN070AAXX  03184 83242 32497 52302 10260 20171 39658 40143 83406 333 58003;EQDQ01  00002PRCP99
0196832420999992000080400004-12570-041380FM-12+042799999V0203601N000512200019N9999999N1+01941+01551101551ADDAA199000091GA1001+999999999GF100991001001999999001001KA1240M+02691MA1999999096651MD1999999-0241REMSYN070AAXX  04004 83242 329// 03601 10194 20155 39665 40155 333 10269 59024;EQDQ01  00002PRCP99
0198832420999992000080412004-12570-041380FM-12+042799999V0201401N001010450019N0040001N1+02041+01761101731ADDAA199000091GF106991031071004501051011KA1240N+01731MA1999999096831MD1999999-0121MW1101REMSYN082AAXX  04124 83242 31496 61402 10204 20176 39683 40173 710// 83751 333 20173 59012;EQDQ01  00002PRCP99
0186832420999992000080500004-12570-041380FM-12+042799999V0203601N001510042019N9999999N1+02101+01701101411ADDAA199000091GF106991051031004501011001KA1240M+02781MA1999999096531MD1999999-0121REMSYN076AAXX  05004 83242 324// 63603 10210 20170 39653 40141 85310 333 10278 59012;EQDQ01  00002PRCP99
0186832420999992000080512004-12570-041380FM-12+042799999V0201801N002110042019N0040001N1+02091+01701101861ADDAA199000091GF106991051071004501031001KA1240N+01911MA1999999096971MD1999999+0141REMSYN076AAXX  05124 83242 32496 61804 10209 20170 39697 40186 85730 333 20191 58014;EQDQ01  00002PRCP99
0167832420999992000080518004-12570-041380FM-12+042799999V0201801N001010042019N0100001N1+02441+01641101471ADDAA199000091GF107991071071004501001001MA1999999096631MD1999999+0051REMSYN070AAXX  05184 83242 32497 71802 10244 20164 39663 40147 87700 333 58005;EQDQ01  00002PRCP99
0201832420999992000080600004-12570-041380FM-12+042799999V0201801N002610042019N9999999N1+02041+01801101781ADDAA106000391AY151061AY221061GF108991081071004501999999KA1240M+02581MA1999999096891MD1999999+0361MW1501REMSYN088AAXX  06004 83242 214// 81805 10204 20180 39689 40178 75052 887// 333 10258 58036 69931;
0195832420999992000080612004-12570-041380FM-12+042799999V0201801N001010042019N0040001N1+99999+99999102101ADDAA124000391AY151061AY221061GF106991061071004501001001KA1240N+01651MA1999999097161MD1999999+0191MW1031REMSYN082AAXX  06124 83242 21496 61802 20135 39716 40210 70352 86700 333 20165 58019 69934;
0167832420999992000080618004-12570-041380FM-12+042799999V0202301N002612200019N0100001N1+02701+01541101581ADDAA199000091GF103991031021004501001001MA1999999096731MD1999999+0101REMSYN070AAXX  06184 83242 32497 32305 10270 20154 39673 40158 83200 333 58010;EQDQ01  00002PRCP99
0186832420999992000080700004-12570-041380FM-12+042799999V0201801N001010120019N9999999N1+02201+01651101771ADDAA199000091GF108991081061012501999999KA1240M+02901MA1999999096871MD1999999-0021REMSYN076AAXX  07004 83242 326// 81802 10220 20165 39687 40177 886// 333 10290 59002;EQDQ01  00002PRCP99
0186832420999992000080712004-12570-041380FM-12+042799999V0201801N001510042019N0100001N1+02061+01601101821ADDAA199000091GF108991081071004501999999KA1240N+01691MA1999999096941MD1999999-0221REMSYN076AAXX  07124 83242 32497 81803 10206 20160 39694 40182 887// 333 20169 59022;EQDQ01  00002PRCP99
0167832420999992000080718004-12570-041380FM-12+042799999V0201401N001510042019N0100001N1+02541+01711101431ADDAA199000091GF107991051071004501051031MA1999999096591MD1999999-0141REMSYN070AAXX  07184 83242 32497 71403 10254 20171 39659 40143 85753 333 59014;EQDQ01  00002PRCP99
0186832420999992000080800004-12570-041380FM-12+042799999V0201401N000510042019N9999999N1+02131+01901101701ADDAA199000091GF108991081071004501999999KA1240M+02621MA1999999096821MD1999999-0051REMSYN076AAXX  08004 83242 324// 81401 10213 20190 39682 40170 887// 333 10262 59005;EQDQ01  00002PRCP99
0201832420999992000080812004-12570-041380FM-12+042799999V0201801N001510042019N0040001N1+02121+01971101841ADDAA124000591AY151061AY221061GF107991061071004501041001KA1240N+01911MA1999999096961MD1999999+0021MW1101REMSYN088AAXX  08124 83242 21496 71803 10212 20197 39696 40184 71052 86740 333 20191 58002 69954;
0182832420999992000080818004-12570-041380FM-12+042799999V0200501N000510042019N0040001N1+02471+02131101351ADDAA106000391AY151061AY221061GF107991061071004501061001MA1999999096501MD1999999-0091MW1161REMSYN082AAXX  08184 83242 21496 70501 10247 20213 39650 40135 71652 86760 333 59009 69931;
0201832420999992000080900004-12570-041380FM-12+042799999V0200501N001510042019N9999999N1+02141+01971101671ADDAA106000791AY151061AY221061GF107991071071004501001001KA1240M+02721MA1999999096801MD1999999-0021MW1031REMSYN088AAXX  09004 83242 214// 70503 10214 20197 39680 40167 70352 87700 333 10272 59002 69901;
0201832420999992000080912004-12570-041380FM-12+042799999V0202301N001010042019N0020001N1+02121+01911101891ADDAA124002091AY161061AY221061GF108991081071004501999999KA1240N+01971MA1999999097011MD1999999+0051MW1101REMSYN088AAXX  09124 83242 21495 82302 10212 20191 39701 40189 71062 887// 333 20197 58005 60024;
0167832420999992000080918004-12570-041380FM-12+042799999V0202301N000510042019N0100001N1+02841+01701101331ADDAA199000091GF105991051041004501001001MA1999999096521MD1999999+0021REMSYN070AAXX  09184 83242 32497 52301 10284 20170 39652 40133 85400 333 58002;EQDQ01  00002PRCP99
0186832420999992000081000004-12570-041380FM-12+042799999V0202301N001010450019N9999999N1+02181+01701101741ADDAA199000091GF106991011031004501031001KA1240M+02891MA1999999096871MD1999999+0071REMSYN076AAXX  10004 83242 324// 62302 10218 20170 39687 40174 81330 333 10289 58007;EQDQ01  00002PRCP99
0198832420999992000081012004-12570-041380FM-12+042799999V0201801N002610042019N0040001N1+02201+01881101891ADDAA199000091GF107991061071004501031001KA1240N+02031MA1999999097021MD1999999+0011MW1101REMSYN082AAXX  10124 83242 31496 71805 10220 20188 39702 40189 710// 86730 333 20203 58001;EQDQ01  00002PRCP99
0167832420999992000081018004-12570-041380FM-12+042799999V0202301N001012200019N0100001N1+02821+01741101371ADDAA199000091GF103991021011004501001011MA1999999096561MD1999999+0041REMSYN070AAXX  10184 83242 32497 32302 10282 20174 39656 40137 82101 333 58004;EQDQ01  00002PRCP99
0186832420999992000081100004-12570-041380FM-12+042799999V0201801N000519999999N9999999N1+02201+01801101681ADDAA199000091GF105991051001012501051001KA1240M+02921MA1999999096821MD1999999-0051REMSYN076AAXX  11004 83242 326// 51801 10220 20180 39682 40168 85050 333 10292 59005;EQDQ01  00002PRCP99
0186832420999992000081112004-12570-041380FM-12+042799999V0201801N000510042019N0100001N1+02181+01761101801ADDAA199000091GF107991071071004501001001KA1240N+01911MA1999999096931MD1999999-0091REMSYN076AAXX  11124 83242 32497 71801 10218 20176 39693 40180 87700 333 20191 59009;EQDQ01  00002PRCP99
0167832420999992000081118004-12570-041380FM-12+042799999V0201401N001512200019N0100001N1+02781+01671101281ADDAA199000091GF102991021021004501001001MA1999999096471MD1999999-0091REMSYN070AAXX  11184 83242 32497 21403 10278 20167 39647 40128 82200 333 59009;EQDQ01  00002PRCP99
0196832420999992000081200004-12570-041380FM-12+042799999V0201401N001012200019N9999999N1+02101+01661101471ADDAA199000091GA1001+999999999GF100991001001999999001001KA1240M+02841MA1999999096611MD1999999-0211REMSYN070AAXX  12004 83242 329// 01402 10210 20166 39661 40147 333 10284 59021;EQDQ01  00002PRCP99
0186832420999992000081212004-12570-041380FM-12+042799999V0203601N000510042019N0100001N1+02201+01881101511ADDAA199000091GF107991061071004501031001KA1240N+01841MA1999999096741MD1999999+0191REMSYN076AAXX  12124 83242 32497 73601 10220 20188 39674 40151 86730 333 20184 58019;EQDQ01  00002PRCP99
0167832420999992000081218004-12570-041380FM-12+042799999V0201801N003112200019N0100001N1+02841+01791101161ADDAA199000091GF102991011031004501051001MA1999999096351MD1999999-0121REMSYN070AAXX  12184 83242 32497 21806 10284 20179 39635 40116 81350 333 59012;EQDQ01  00002PRCP99
0198832420999992000081312004-12570-041380FM-12+042799999V0201801N003110042019N0009001N1+02121+01721101881ADDAA199000091GF107991071071004501001001KA1240N+01971MA1999999097011MD1999999+0271MW1401REMSYN082AAXX  13124 83242 31409 71806 10212 20172 39701 40188 740// 87700 333 20197 58027;EQDQ01  00002PRCP99
0167832420999992000081318004-12570-041380FM-12+042799999V0201801N003110042019N0100001N1+02341+01641101571ADDAA199000091GF108991081071004501999999MA1999999096701MD1999999+0351REMSYN070AAXX  13184 83242 32497 81806 10234 20164 39670 40157 887// 333 58035;EQDQ01  00002PRCP99
0186832420999992000081400004-12570-041380FM-12+042799999V0201401N001010042019N9999999N1+02131+01661101821ADDAA199000091GF108991081071004501999999KA1240M+02451MA1999999096941MD1999999+0341REMSYN076AAXX  14004 83242 324// 81402 10213 20166 39694 40182 887// 333 10245 58034;EQDQ01  00002PRCP99
0198832420999992000081412004-12570-041380FM-12+042799999V0201801N002610042019N0040001N1+01961+01591102091ADDAA199000091GF108991081071004501999999KA1240N+01751MA1999999097181MD1999999-0171MW1101REMSYN082AAXX  14124 83242 31496 81805 10196 20159 39718 40209 710// 887// 333 20175 59017;EQDQ01  00002PRCP99
0167832420999992000081418004-12570-041380FM-12+042799999V0201401N002110042019N0100001N1+02641+01421101601ADDAA199000091GF105991051041004501001001MA1999999096731MD1999999+0031REMSYN070AAXX  14184 83242 32497 51404 10264 20142 39673 40160 85400 333 58003;EQDQ01  00002PRCP99
0202832420999992000081500004-12570-041380FM-12+042799999V0201401N001519999999N9999999N1+02101+01441101961ADDAA199000091GF108991999091004501999999KA1240M+02731MA1999999097031MD1999999+0091REMSYN076AAXX  15004 83242 324// 81403 10210 20144 39703 40196 899// 333 10273 58009;EQDQ01+000092SCOTLCQ02  00002PRCP99
0167832420999992000081518004-12570-041380FM-12+042799999V0202301N001510450019N0100001N1+02381+01281101721ADDAA199000091GF106991041051004501031011MA1999999096831MD1999999+0101REMSYN070AAXX  15184 83242 32497 62303 10238 20128 39683 40172 84531 333 58010;EQDQ01  00002PRCP99
0186832420999992000081600004-12570-041380FM-12+042799999V0202301N001010090019N9999999N1+01941+01421101841ADDAA199000091GF107991071081004501001001KA1240M+02541MA1999999096911MD1999999-0121REMSYN076AAXX  16004 83242 324// 72302 10194 20142 39691 40184 87800 333 10254 59012;EQDQ01  00002PRCP99
0167832420999992000081618004-12570-041380FM-12+042799999V0202301N001512200019N0100001N1+02561+01381101551ADDAA199000091GF104991021041004501021011MA1999999096691MD1999999-0141REMSYN070AAXX  16184 83242 32497 42303 10256 20138 39669 40155 82421 333 59014;EQDQ01  00002PRCP99
0186832420999992000081700004-12570-041380FM-12+042799999V0202301N001012200019N9999999N1+01931+01461101671ADDAA199000091GF101991011031004501001001KA1240M+02701MA1999999096761MD1999999-0151REMSYN076AAXX  17004 83242 324// 12302 10193 20146 39676 40167 81300 333 10270 59015;EQDQ01  00002PRCP99
0186832420999992000081712004-12570-041380FM-12+042799999V0201801N002112200019N0100001N1+02041+01501101951ADDAA199000091GF103991021011004501061001KA1240N+01761MA1999999097041MD1999999+0021REMSYN076AAXX  17124 83242 32497 31804 10204 20150 39704 40195 82160 333 20176 58002;EQDQ01  00002PRCP99
0167832420999992000081718004-12570-041380FM-12+042799999V0201801N002110042019N0100001N1+02561+01441101561ADDAA199000091GF106991051051004501061001MA1999999096691MD1999999+0001REMSYN070AAXX  17184 83242 32497 61804 10256 20144 39669 40156 85560 333 58000;EQDQ01  00002PRCP99
0186832420999992000081800004-12570-041380FM-12+042799999V0202301N000510042019N9999999N1+02161+01611101711ADDAA199000091GF107991061091004501081001KA1240M+02671MA1999999096831MD1999999+0071REMSYN076AAXX  18004 83242 324// 72301 10216 20161 39683 40171 86980 333 10267 58007;EQDQ01  00002PRCP99
0186832420999992000081812004-12570-041380FM-12+042799999V0201801N001010450019N0100001N1+02031+01581101881ADDAA199000091GF106991021021004501081001KA1240N+01721MA1999999096991MD1999999-0051REMSYN076AAXX  18124 83242 32497 61802 10203 20158 39699 40188 82280 333 20172 59005;EQDQ01  00002PRCP99
0167832420999992000081818004-12570-041380FM-12+042799999V0203201N001012200019N0100001N1+02761+01391101351ADDAA199000091GF104991021011004501061001MA1999999096521MD1999999-0171REMSYN070AAXX  18184 83242 32497 43202 10276 20139 39652 40135 82160 333 59017;EQDQ01  00002PRCP99
0186832420999992000081900004-12570-041380FM-12+042799999V0203601N000512200019N9999999N1+02001+01411101541ADDAA199000091GF102991011021004501001031KA1240M+02811MA1999999096651MD1999999-0181REMSYN076AAXX  19004 83242 324// 23601 10200 20141 39665 40154 81203 333 10281 59018;EQDQ01  00002PRCP99
0186832420999992000081912004-12570-041380FM-12+042799999V0202301N001010450019N0100001N1+02041+01621101851ADDAA199000091GF106991041041004501031001KA1240N+01611MA1999999096941MD1999999-0051REMSYN076AAXX  19124 83242 32497 62302 10204 20162 39694 40185 84430 333 20161 59005;EQDQ01  00002PRCP99
0167832420999992000081918004-12570-041380FM-12+042799999V0201801N001512200019N0100001N1+02781+01371101441ADDAA199000091GF103991021021004501011001MA1999999096591MD1999999+0071REMSYN070AAXX  19184 83242 32497 31803 10278 20137 39659 40144 82210 333 58007;EQDQ01  00002PRCP99
0201832420999992000082012004-12570-041380FM-12+042799999V0201801N001510042019N0040001N1+02071+01741102031ADDAA124001091AY151061AY241061GF107991071071004501001001KA1240N+01871MA1999999097121MD1999999+0181MW1031REMSYN088AAXX  20124 83242 21496 71803 10207 20174 39712 40203 70354 87700 333 20187 58018 60014;
0182832420999992000082018004-12570-041380FM-12+042799999V0201401N002110450019N0100001N1+02761+01621101471ADDAA106000791AY151061AY221061GF106991011071004501031021MA1999999096651MD1999999+0061MW1031REMSYN082AAXX  20184 83242 21497 61404 10276 20162 39665 40147 70352 81732 333 58006 69901;
0186832420999992000082112004-12570-041380FM-12+042799999V0201401N001510450019N0100001N1+02141+01611102001ADDAA199000091GF106991031051004501031051KA1240N+01771MA1999999097121MD1999999+0001REMSYN076AAXX  21124 83242 32497 61403 10214 20161 39712 40200 83535 333 20177 58000;EQDQ01  00002PRCP99
0167832420999992000082118004-12570-041380FM-12+042799999V0201801N002110450019N0100001N1+02771+01511101501ADDAA199000091GF105991031031004501071041MA1999999096691MD1999999+0041REMSYN070AAXX  21184 83242 32497 51804 10277 20151 39669 40150 83374 333 58004;EQDQ01  00002PRCP99
0186832420999992000082200004-12570-041380FM-12+042799999V0201801N002610042019N9999999N1+02281+01561101751ADDAA199000091GF106991061091004501001001KA1240M+02831MA1999999096891MD1999999-0041REMSYN076AAXX  22004 83242 324// 61805 10228 20156 39689 40175 86900 333 10283 59004;EQDQ01  00002PRCP99
0186832420999992000082212004-12570-041380FM-12+042799999V0201801N001510042019N0100001N1+02101+01681101821ADDAA199000091GF106991051071004501061001KA1240N+01731MA1999999096951MD1999999-0171REMSYN076AAXX  22124 83242 32497 61803 10210 20168 39695 40182 85760 333 20173 59017;EQDQ01  00002PRCP99
0167832420999992000082218004-12570-041380FM-12+042799999V0203601N001510450019N0100001N1+02761+01691101401ADDAA199000091GF105991031041004501081041MA1999999096591MD1999999-0101REMSYN070AAXX  22184 83242 32497 53603 10276 20169 39659 40140 83484 333 59010;EQDQ01  00002PRCP99
0186832420999992000082300004-12570-041380FM-12+042799999V0201801N002110042019N9999999N1+02351+01801101601ADDAA199000091GF108991081091004501999999KA1240M+02871MA1999999096751MD1999999-0141REMSYN076AAXX  23004 83242 324// 81804 10235 20180 39675 40160 889// 333 10287 59014;EQDQ01  00002PRCP99
0201832420999992000082312004-12570-041380FM-12+042799999V0201801N002610042019N0005001N1+02011+01931101701ADDAA124006191AY161061AY221061GF108991081071004501999999KA1240N+01911MA1999999096841MD1999999-0111MW1531REMSYN088AAXX  23124 83242 21493 81805 10201 20193 39684 40170 75362 887// 333 20191 59011 60064;
0182832420999992000082318004-12570-041380FM-12+042799999V0201801N002110450019N0100001N1+02441+01901101481ADDAA106002091AY161061AY221061GF105991031051004501081041MA1999999096641MD1999999+0051MW1011REMSYN082AAXX  23184 83242 21497 51804 10244 20190 39664 40148 70162 83584 333 58005 60021;
0167832420999992000082400004-12570-041380FM-12+042799999V0202301N001510042019N9999999N1+02091+01821101631ADDAA199000021GF106991061071004501001001KA1240M+02571MA1999999096741MD1999999-0011REMSYN076AAXX  24004 83242 324// 62303 10209 20182 39674 40163 86700 333 10257 59001;
0173832420999992000082412004-12570-041380FM-12+042799999V0202301N002610450019N0100001N1+02241+01641101851ADDAA124002091GF106991041071004501041001KA1240N+01751MA1999999096971MD1999999+0131REMSYN082AAXX  24124 83242 22497 62305 10224 20164 39697 40185 84740 333 20175 58013 60024;
0167832420999992000082418004-12570-041380FM-12+042799999V0201401N001010450019N0100001N1+02761+01721101281ADDAA199000091GF106991031071004501031001MA1999999096461MD1999999-0181REMSYN070AAXX  24184 83242 32497 61402 10276 20172 39646 40128 83730 333 59018;EQDQ01  00002PRCP99
0186832420999992000082500004-12570-041380FM-12+042799999V0202301N000512200019N9999999N1+02281+01771101571ADDAA199000091GF102991021071004501001001KA1240M+02921MA1999999096721MD1999999-0021REMSYN076AAXX  25004 83242 324// 22301 10228 20177 39672 40157 82700 333 10292 59002;EQDQ01  00002PRCP99
0186832420999992000082512004-12570-041380FM-12+042799999V0201401N001010450019N0100001N1+02281+01731101751ADDAA199000091GF106991011021004501031081KA1240N+01791MA1999999096901MD1999999-0071REMSYN076AAXX  25124 83242 32497 61402 10228 20173 39690 40175 81238 333 20179 59007;EQDQ01  00002PRCP99
0167832420999992000082518004-12570-041380FM-12+042799999V0201401N001510450019N0100001N1+03081+01711101091ADDAA199000091GF105991041071004501031001MA1999999096301MD1999999-0161REMSYN070AAXX  25184 83242 32497 51403 10308 20171 39630 40109 84730 333 59016;EQDQ01  00002PRCP99
0186832420999992000082600004-12570-041380FM-12+042799999V0202301N001010042019N9999999N1+02481+01871101371ADDAA199000091GF106991061071004501001001KA1240M+03141MA1999999096561MD1999999-0161REMSYN076AAXX  26004 83242 324// 62302 10248 20187 39656 40137 86700 333 10314 59016;EQDQ01  00002PRCP99
0201832420999992000082612004-12570-041380FM-12+042799999V0202301N001010042019N0020001N1+02241+02011101551ADDAA124000391AY151061AY221061GF107991061071004501031001KA1240N+02051MA1999999096721MD1999999-0181MW1031REMSYN088AAXX  26124 83242 21495 72302 10224 20201 39672 40155 70352 86730 333 20205 59018 69934;
0195832420999992000082618004-12570-041380FM-12+042799999V0201401N001510450019N0100001N1+02961+01931101011ADDAA199000091AY151061AY201061GF105991041061004501031001MA1999999096271MD1999999-0031MW1011REMSYN076AAXX  26184 83242 31497 51403 10296 20193 39627 40101 70150 84630 333 59003;EQDQ01  00002PRCP99
0190832420999992000082700004-12570-041380FM-12+042799999V0202701N001012200019N9999999N1+02321+99999101241ADDAA199000091GA1001+999999999GF100991001001999999001001KA1240M+03081MA1999999096421MD1999999-0141REMSYN064AAXX  27004 83242 329// 02702 10232 39642 40124 333 10308 59014;EQDQ01  00002PRCP99
0186832420999992000082712004-12570-041380FM-12+042799999V0201401N001510042019N0100001N1+02271+01751101461ADDAA199000091GF105991051021004501001001KA1240N+01991MA1999999096631MD1999999-0091REMSYN076AAXX  27124 83242 32497 51403 10227 20175 39663 40146 85200 333 20199 59009;EQDQ01  00002PRCP99
0177832420999992000082718004-12570-041380FM-12+042799999V0201401N002112200019N0100001N1+03021+01861100891ADDAA199000091GA1001+999999999GF100991001001999999001001MA1999999096121MD1999999-0151REMSYN064AAXX  27184 83242 32997 01404 10302 20186 39612 40089 333 59015;EQDQ01  00002PRCP99
0196832420999992000082800004-12570-041380FM-12+042799999V0200501N000512200019N9999999N1+02261+01571101081ADDAA199000091GA1001+999999999GF100991001001999999001001KA1240M+03121MA1999999096261MD1999999-0161REMSYN070AAXX  28004 83242 329// 00501 10226 20157 39626 40108 333 10312 59016;EQDQ01  00002PRCP99
0198832420999992000082812004-12570-041380FM-12+042799999V0200501N001510042019N0020001N1+02281+01811101311ADDAA199000091GF107991061051004501051001KA1240N+01891MA1999999096481MD1999999-0151MW1051REMSYN082AAXX  28124 83242 31495 70503 10228 20181 39648 40131 705// 86550 333 20189 59015;EQDQ01  00002PRCP99
0196832420999992000082900004-12570-041380FM-12+042799999V0201401N001012200019N9999999N1+02301+01651101031ADDAA199000091GA1001+999999999GF100991001001999999001001KA1240M+03091MA1999999096221MD1999999+0461REMSYN070AAXX  29004 83242 329// 01402 10230 20165 39622 40103 333 10309 58046;EQDQ01  00002PRCP99
0186832420999992000082912004-12570-041380FM-12+042799999V0200901N001510042019N0040001N1+02361+01871101441ADDAA199000091GF107991061071004501081001KA1240N+02071MA1999999096621MD1999999+0141REMSYN076AAXX  29124 83242 32496 70903 10236 20187 39662 40144 86780 333 20207 58014;EQDQ01  00002PRCP99
0167832420999992000082918004-12570-041380FM-12+042799999V0202301N001012200019N0100001N1+02961+01781101071ADDAA199000091GF102991011011004501001011MA1999999096211MD1999999+0111REMSYN070AAXX  29184 83242 32497 22302 10296 20178 39621 40107 81101 333 58011;EQDQ01  00002PRCP99
0196832420999992000083000004-12570-041380FM-12+042799999V0202701N000512200019N9999999N1+02411+01991101151ADDAA199000091GA1001+999999999GF100991001001999999001001KA1240M+03121MA1999999096351MD1999999+0131REMSYN070AAXX  30004 83242 329// 02701 10241 20199 39635 40115 333 10312 58013;EQDQ01  00002PRCP99
0201832420999992000083012004-12570-041380FM-12+042799999V0202301N002110042019N0020001N1+02261+01901101681ADDAA124000791AY151061AY201061GF107991061071004501031001KA1240N+02031MA1999999096851MD1999999+0231MW1401REMSYN088AAXX  30124 83242 21495 72304 10226 20190 39685 40168 74050 86730 333 20203 58023 69904;
0167832420999992000083018004-12570-041380FM-12+042799999V0201401N002112200019N0100001N1+03001+01641101201ADDAA199000091GF103991011011004501041051MA1999999096431MD1999999+0221REMSYN070AAXX  30184 83242 32497 31404 10300 20164 39643 40120 81145 333 58022;EQDQ01  00002PRCP99
0186832420999992000083100004-12570-041380FM-12+042799999V0201801N001510042019N9999999N1+02381+01531101461ADDAA199000091GF106991061071004501001001KA1240M+03101MA1999999096631MD1999999+0281REMSYN076AAXX  31004 83242 324// 61803 10238 20153 39663 40146 86700 333 10310 58028;EQDQ01  00002PRCP99
0186832420999992000083112004-12570-041380FM-12+042799999V0201801N002110450019N0100001N1+02101+01661101641ADDAA199000091GF105991021011004501051001KA1240N+01531MA1999999096791MD1999999-0061REMSYN076AAXX  31124 83242 32497 51804 10210 20166 39679 40164 82150 333 20153 59006;EQDQ01  00002PRCP99
0179832420999992000083118004-12570-041380FM-12+042799999V0201801N002110042019N0040001N1+02581+01871101231ADDAA199000091GF107991071071004501001001MA1999999096371MD1999999-0061MW1151REMSYN076AAXX  31184 83242 31496 71804 10258 20187 39637 40123 715// 87700 333 59006;EQDQ01  00002PRCP99
0201832420999992000090100004-12570-041380FM-12+042799999V0200901N000510042019N9999999N1+02191+01861101441ADDAA106000791AY151061AY221061GF108991081071004501999999KA1240M+02731MA1999999096581MD1999999-0051MW1031REMSYN088AAXX  01004 83242 214// 80901 10219 20186 39658 40144 70352 887// 333 10273 59005 69901;
0214832420999992000090112004-12570-041380FM-12+042799999V0201801N001510042019N0040001N1+02161+01721101581ADDAA199000091AY151061AY221061GF107991071071004501001001KA1240N+01931MA1999999096721MD1999999-0071MW1031REMSYN082AAXX  01124 83242 31496 71803 10216 20172 39672 40158 70352 87700 333 20193 59007;EQDQ01  00002PRCP99
0167832420999992000090118004-12570-041380FM-12+042799999V0202301N001512200019N0100001N1+02861+01651101061ADDAA199000091GF102991021011004501001001MA1999999096261MD1999999-0011REMSYN070AAXX  01184 83242 32497 22303 10286 20165 39626 40106 82100 333 59001;EQDQ01  00002PRCP99
0212832420999992000090200004-12570-041380FM-12+042799999V0200301N000512200019N9999999N1+02211+01551101141ADDAA199000091GA1001+999999999GF100991001001999999001001KA1240M+03001MA1999999095312MD1999999-0271REMSYN070AAXX  02004 83242 329// 00301 10221 20155 39531 40114 333 10300 59027;EQDQ01+095313APOSP Q02  00002PRCP99
0201832420999992000090212004-12570-041380FM-12+042799999V0201801N001010042019N0040001N1+02241+01801101381ADDAA124000791AY151061AY211061GF107991071071004501001001KA1240N+01971MA1999999096551MD1999999-0171MW1051REMSYN088AAXX  02124 83242 21496 71802 10224 20180 39655 40138 70551 87700 333 20197 59017 69904;
0167832420999992000090218004-12570-041380FM-12+042799999V0200901N001512200019N0100001N1+02921+02011100941ADDAA199000091GF104991031031004501081001MA1999999096151MD1999999-0111REMSYN070AAXX  02184 83242 32497 40903 10292 20201 39615 40094 83380 333 59011;EQDQ01  00002PRCP99
0198832420999992000090312004-12570-041380FM-12+042799999V0201801N000510042019N0020001N1+02161+01861101401ADDAA199000091GF107991071071004501001001KA1240N+01971MA1999999096571MD1999999+0021MW1101REMSYN082AAXX  03124 83242 31495 71801 10216 20186 39657 40140 710// 87700 333 20197 58002;EQDQ01  00002PRCP99
0179832420999992000090318004-12570-041380FM-12+042799999V0202301N002110450019N0040001N1+02621+01811101021ADDAA199000091GF105991041061004501061001MA1999999096211MD1999999+0061MW1051REMSYN076AAXX  03184 83242 31496 52304 10262 20181 39621 40102 705// 84660 333 58006;EQDQ01  00002PRCP99
0196832420999992000090400004-12570-041380FM-12+042799999V0200501N001512200019N9999999N1+02151+01761101151ADDAA199000091GA1001+999999999GF100991001001999999001001KA1240M+02731MA1999999096301MD1999999-0081REMSYN070AAXX  04004 83242 329// 00503 10215 20176 39630 40115 333 10273 59008;EQDQ01  00002PRCP99
0198832420999992000090412004-12570-041380FM-12+042799999V0201801N001010042019N0020001N1+02201+01821101511ADDAA199000091GF108991051071004501031071KA1240N+01871MA1999999096661MD1999999+0091MW1051REMSYN082AAXX  04124 83242 31495 81802 10220 20182 39666 40151 705// 85737 333 20187 58009;EQDQ01  00002PRCP99
0179832420999992000090418004-12570-041380FM-12+042799999V0200501N001510042019N0040001N1+02861+01781101121ADDAA199000091GF106991051061004501051001MA1999999096311MD1999999+0101MW1051REMSYN076AAXX  04184 83242 31496 60503 10286 20178 39631 40112 705// 85650 333 58010;EQDQ01  00002PRCP99
0186832420999992000090500004-12570-041380FM-12+042799999V0200501N001010042019N9999999N1+02441+01831101231ADDAA199000091GF108991081071004501999999KA1240M+02921MA1999999096411MD1999999+0111REMSYN076AAXX  05004 83242 324// 80502 10244 20183 39641 40123 887// 333 10292 58011;EQDQ01  00002PRCP99
0201832420999992000090512004-12570-041380FM-12+042799999V0201801N000510042019N0040001N1+02001+01881101531ADDAA124001091AY161061AY221061GF108991081071004501999999KA1240N+01891MA1999999096681MD1999999+0021MW1101REMSYN088AAXX  05124 83242 21496 81801 10200 20188 39668 40153 71062 887// 333 20189 58002 60014;
0167832420999992000090518004-12570-041380FM-12+042799999V0201801N001010042019N0100001N1+02491+01841101291ADDAA199000091GF107991061071004501081001MA1999999096471MD1999999+0161REMSYN070AAXX  05184 83242 32497 71802 10249 20184 39647 40129 86780 333 58016;EQDQ01  00002PRCP99
0186832420999992000090600004-12570-041380FM-12+042799999V0201801N001010042019N9999999N1+02281+02001101391ADDAA199000091GF108991081091004501999999KA1240M+02551MA1999999096531MD1999999+0121REMSYN076AAXX  06004 83242 324// 81802 10228 20200 39653 40139 889// 333 10255 58012;EQDQ01  00002PRCP99
0186832420999992000090612004-12570-041380FM-12+042799999V0202301N001510042019N0100001N1+02201+01841101471ADDAA199000091GF107991071021004501001001KA1240N+01951MA1999999096631MD1999999-0051REMSYN076AAXX  06124 83242 32497 72303 10220 20184 39663 40147 87200 333 20195 59005;EQDQ01  00002PRCP99
0179832420999992000090618004-12570-041380FM-12+042799999V0202301N002610042019N0040001N1+02721+01821101141ADDAA199000091GF106991051061004501051001MA1999999096331MD1999999-0141MW1051REMSYN076AAXX  06184 83242 31496 62305 10272 20182 39633 40114 705// 85650 333 59014;EQDQ01  00002PRCP99
0186832420999992000090700004-12570-041380FM-12+042799999V0201801N001510042019N9999999N1+02351+01871101231ADDAA199000091GF106991061071004501001001KA1240M+02791MA1999999096411MD1999999-0211REMSYN076AAXX  07004 83242 324// 61803 10235 20187 39641 40123 86700 333 10279 59021;EQDQ01  00002PRCP99
0201832420999992000090712004-12570-041380FM-12+042799999V0202301N001510042019N0020001N1+02101+01701101471ADDAA124000791AY151061AY221061GF108991081071004501999999KA1240N+01951MA1999999096631MD1999999+0001MW1151REMSYN088AAXX  07124 83242 21495 82303 10210 20170 39663 40147 71552 887// 333 20195 58000 69904;
0167832420999992000090718004-12570-041380FM-12+042799999V0201801N001011050019N0040001N1+02341+01781101111ADDAA199000091GF108991011081004501001031MA1999999096241MD1999999-0091REMSYN070AAXX  07184 83242 32496 81802 10234 20178 39624 40111 81803 333 59009;EQDQ01  00002PRCP99
0201832420999992000090800004-12570-041380FM-12+042799999V0201401N001010042019N9999999N1+01921+01841101451ADDAA106011991AY161061AY221061GF108991081091004501999999KA1240M+02421MA1999999096561MD1999999+0161MW1601REMSYN088AAXX  08004 83242 214// 81402 10192 20184 39656 40145 76062 889// 333 10242 58016 60121;
0167832420999992000090818004-12570-041380FM-12+042799999V0201801N001510042019N0100001N1+02351+01871101191ADDAA199000091GF107991061071004501031001MA1999999096321MD1999999+0081REMSYN070AAXX  08184 83242 32497 71803 10235 20187 39632 40119 86730 333 58008;EQDQ01  00002PRCP99
0186832420999992000090900004-12570-041380FM-12+042799999V0200501N001510042019N9999999N1+02081+01931101361ADDAA199000091GF108991081091004501999999KA1240M+02421MA1999999096481MD1999999-0081REMSYN076AAXX  09004 83242 324// 80503 10208 20193 39648 40136 889// 333 10242 59008;EQDQ01  00002PRCP99
0186832420999992000090912004-12570-041380FM-12+042799999V0201801N001510042019N0040001N1+02091+01781101671ADDAA199000091GF108991081051004501999999KA1240N+01881MA1999999096791MD1999999+0101REMSYN076AAXX  09124 83242 32496 81803 10209 20178 39679 40167 885// 333 20188 58010;EQDQ01  00002PRCP99
0167832420999992000090918004-12570-041380FM-12+042799999V0201801N001510450019N0100001N1+02531+01831101191ADDAA199000091GF106991031031004501081001MA1999999096361MD1999999+0041REMSYN070AAXX  09184 83242 32497 61803 10253 20183 39636 40119 83380 333 58004;EQDQ01  00002PRCP99
0186832420999992000091000004-12570-041380FM-12+042799999V0201801N001510042019N9999999N1+02241+01841101451ADDAA199000091GF108991081091004501999999KA1240M+02631MA1999999096591MD1999999+0111REMSYN076AAXX  10004 83242 324// 81803 10224 20184 39659 40145 889// 333 10263 58011;EQDQ01  00002PRCP99
0186832420999992000091012004-12570-041380FM-12+042799999V0201801N002610042019N0040001N1+02211+01731101651ADDAA199000091GF107991061071004501051001KA1240N+01891MA1999999096801MD1999999+0011REMSYN076AAXX  10124 83242 32496 71805 10221 20173 39680 40165 86750 333 20189 58001;EQDQ01  00002PRCP99
0167832420999992000091018004-12570-041380FM-12+042799999V0202701N001510450019N0100001N1+02801+01691101051ADDAA199000091GF105991031031004501051001MA1999999096261MD1999999-0101REMSYN070AAXX  10184 83242 32497 52703 10280 20169 39626 40105 83350 333 59010;EQDQ01  00002PRCP99
0186832420999992000091100004-12570-041380FM-12+042799999V0201801N000510042019N9999999N1+02361+01831101331ADDAA199000091GF108991081091004501999999KA1240M+02881MA1999999096501MD1999999-0091REMSYN076AAXX  11004 83242 324// 81801 10236 20183 39650 40133 889// 333 10288 59009;EQDQ01  00002PRCP99
0198832420999992000091112004-12570-041380FM-12+042799999V0202301N002110042019N0040001N1+02181+01861101571ADDAA199000091GF108991081071004501999999KA1240N+01951MA1999999096721MD1999999-0081MW1101REMSYN082AAXX  11124 83242 31496 82304 10218 20186 39672 40157 710// 887// 333 20195 59008;EQDQ01  00002PRCP99
0167832420999992000091118004-12570-041380FM-12+042799999V0202301N003610450019N0100001N1+02661+01851101051ADDAA199000091GF106991041051004501031011MA1999999096261MD1999999+0001REMSYN070AAXX  11184 83242 32497 62307 10266 20185 39626 40105 84531 333 58000;EQDQ01  00002PRCP99
0186832420999992000091200004-12570-041380FM-12+042799999V0202701N000510090019N9999999N1+02301+01851101311ADDAA199000091GF107991071081004501001001KA1240M+02741MA1999999096481MD1999999-0021REMSYN076AAXX  12004 83242 324// 72701 10230 20185 39648 40131 87800 333 10274 59002;EQDQ01  00002PRCP99
0186832420999992000091212004-12570-041380FM-12+042799999V0201801N001510042019N0040001N1+02161+01801101571ADDAA199000091GF108991081061004501999999KA1240N+01971MA1999999096721MD1999999+0001REMSYN076AAXX  12124 83242 32496 81803 10216 20180 39672 40157 886// 333 20197 58000;EQDQ01  00002PRCP99
0167832420999992000091218004-12570-041380FM-12+042799999V0201401N001510450019N0100001N1+02801+01841101001ADDAA199000091GF105991031041004501031001MA1999999096211MD1999999-0051REMSYN070AAXX  12184 83242 32497 51403 10280 20184 39621 40100 83430 333 59005;EQDQ01  00002PRCP99
0186832420999992000091300004-12570-041380FM-12+042799999V0200901N000510042019N9999999N1+02321+01851101401ADDAA199000091GF108991081071004501999999KA1240M+02911MA1999999096561MD1999999+0081REMSYN076AAXX  13004 83242 324// 80901 10232 20185 39656 40140 887// 333 10291 58008;EQDQ01  00002PRCP99
0186832420999992000091312004-12570-041380FM-12+042799999V0201801N001510042019N0100001N1+02301+01751101641ADDAA199000091GF107991071051004501001001KA1240N+02041MA1999999096801MD1999999+0081REMSYN076AAXX  13124 83242 32497 71803 10230 20175 39680 40164 87500 333 20204 58008;EQDQ01  00002PRCP99
0179832420999992000091318004-12570-041380FM-12+042799999V0201801N001510042019N0040001N1+02801+01901101131ADDAA199000091GF107991051071004501031081MA1999999096341MD1999999+0131MW1151REMSYN076AAXX  13184 83242 31496 71803 10280 20190 39634 40113 715// 85738 333 58013;EQDQ01  00002PRCP99
0201832420999992000091400004-12570-041380FM-12+042799999V0201801N001010042019N9999999N1+02081+02031101571ADDAA106006191AY161061AY221061GF108991081061004501999999KA1240M+02681MA1999999096711MD1999999+0151MW1101REMSYN088AAXX  14004 83242 214// 81802 10208 20203 39671 40157 71062 886// 333 10268 58015 60061;
0201832420999992000091412004-12570-041380FM-12+042799999V0201801N001510042019N0010001N1+02141+02021101801ADDAA124007991AY161061AY241061GF108991081061004501999999KA1240N+01991MA1999999096911MD1999999+0111MW1101REMSYN088AAXX  14124 83242 21494 81803 10214 20202 39691 40180 71064 886// 333 20199 58011 60084;
0167832420999992000091418004-12570-041380FM-12+042799999V0201401N003110042019N0100001N1+02841+01791101241ADDAA199000091GF107991061071004501031001MA1999999096441MD1999999+0101REMSYN070AAXX  14184 83242 32497 71406 10284 20179 39644 40124 86730 333 58010;EQDQ01  00002PRCP99
0186832420999992000091500004-12570-041380FM-12+042799999V0201701N002610042019N9999999N1+02331+01911101591ADDAA199000091GF108991071071004501999999KA1240M+02901MA1999999096741MD1999999+0031REMSYN076AAXX  15004 83242 324// 81705 10233 20191 39674 40159 877// 333 10290 58003;EQDQ01  00002PRCP99
0186832420999992000091512004-12570-041380FM-12+042799999V0201801N002110042019N0100001N1+02241+01801101751ADDAA199000091GF107991071071004501001001KA1240N+01971MA1999999096901MD1999999-0011REMSYN076AAXX  15124 83242 32497 71804 10224 20180 39690 40175 87700 333 20197 59001;EQDQ01  00002PRCP99
0167832420999992000091518004-12570-041380FM-12+042799999V0201401N001510042019N0100001N1+02861+01811101201ADDAA199000091GF108991051071004501031071MA1999999096411MD1999999-0031REMSYN070AAXX  15184 83242 32497 81403 10286 20181 39641 40120 85737 333 59003;EQDQ01  00002PRCP99
0196832420999992000091600004-12570-041380FM-12+042799999V0201401N001012200019N9999999N1+02321+01601101491ADDAA199000091GA1001+999999999GF100991001001999999001001KA1240M+02961MA1999999096661MD1999999-0051REMSYN070AAXX  16004 83242 329// 01402 10232 20160 39666 40149 333 10296 59005;EQDQ01  00002PRCP99
0179832420999992000091618004-12570-041380FM-12+042799999V0200901N003110042019N0040001N1+02881+01731101201ADDAA199000091GF106991051071004501051001MA1999999096421MD1999999+0011MW1151REMSYN076AAXX  16184 83242 31496 60906 10288 20173 39642 40120 715// 85750 333 58001;EQDQ01  00002PRCP99
0186832420999992000091700004-12570-041380FM-12+042799999V0200901N000510090019N9999999N1+02481+01831101471ADDAA199000091GF107991071081004501001001KA1240M+02981MA1999999096661MD1999999+0001REMSYN076AAXX  17004 83242 324// 70901 10248 20183 39666 40147 87800 333 10298 58000;EQDQ01  00002PRCP99
0186832420999992000091712004-12570-041380FM-12+042799999V0201801N002110042019N0040001N1+02221+01781101751ADDAA199000091GF108991081051004501999999KA1240N+02011MA1999999096911MD1999999+0011REMSYN076AAXX  17124 83242 32496 81804 10222 20178 39691 40175 885// 333 20201 58001;EQDQ01  00002PRCP99
0167832420999992000091718004-12570-041380FM-12+042799999V0201401N001510042019N0100001N1+02991+01681101161ADDAA199000091GF106991051031004501051001MA1999999096391MD1999999-0031REMSYN070AAXX  17184 83242 32497 61403 10299 20168 39639 40116 85350 333 59003;EQDQ01  00002PRCP99
0186832420999992000091800004-12570-041380FM-12+042799999V0201401N003110042019N9999999N1+02501+01561101611ADDAA199000091GF108991081071004501999999KA1240M+03061MA1999999096781MD1999999+0121REMSYN076AAXX  18004 83242 324// 81406 10250 20156 39678 40161 887// 333 10306 58012;EQDQ01  00002PRCP99
0186832420999992000091812004-12570-041380FM-12+042799999V0201401N002110450019N0100001N1+02281+01771101801ADDAA199000091GF106991041051004501031001KA1240N+01971MA1999999096971MD1999999+0061REMSYN076AAXX  18124 83242 32497 61404 10228 20177 39697 40180 84530 333 20197 58006;EQDQ01  00002PRCP99
0179832420999992000091818004-12570-041380FM-12+042799999V0200901N001012200019N0040001N1+02971+01511101371ADDAA199000091GF104991031041004501021001MA1999999096581MD1999999+0191MW1051REMSYN076AAXX  18184 83242 31496 40902 10297 20151 39658 40137 705// 83420 333 58019;EQDQ01  00002PRCP99
0186832420999992000091900004-12570-041380FM-12+042799999V0201401N002110042019N9999999N1+02461+01581101671ADDAA199000091GF108991081061004501999999KA1240M+03081MA1999999096841MD1999999+0061REMSYN076AAXX  19004 83242 324// 81404 10246 20158 39684 40167 886// 333 10308 58006;EQDQ01  00002PRCP99
0186832420999992000091912004-12570-041380FM-12+042799999V0201801N002110450019N0100001N1+02281+01561101841ADDAA199000091GF106991041051004501041001KA1240N+01751MA1999999097001MD1999999+0031REMSYN076AAXX  19124 83242 32497 61804 10228 20156 39700 40184 84540 333 20175 58003;EQDQ01  00002PRCP99
0179832420999992000091918004-12570-041380FM-12+042799999V0202301N003612200019N9999999N1+02861+01551101411ADDAA199000091GF104991031061999999081001MA1999999096581MD1999999+0001MW1051REMSYN076AAXX  19184 83242 3196/ 42307 10286 20155 39658 40141 705// 83680 333 58000;EQDQ01  00002PRCP99
0186832420999992000092000004-12570-041380FM-12+042799999V0201801N003610042019N9999999N1+02421+01741101521ADDAA199000091GF108991081071004501999999KA1240M+02951MA1999999096681MD1999999-0161REMSYN076AAXX  20004 83242 324// 81807 10242 20174 39668 40152 887// 333 10295 59016;EQDQ01  00002PRCP99
0186832420999992000092012004-12570-041380FM-12+042799999V0201801N002610450019N0100001N1+02281+01731101661ADDAA199000091GF106991041071004501031001KA1240N+01951MA1999999096831MD1999999-0171REMSYN076AAXX  20124 83242 32497 61805 10228 20173 39683 40166 84730 333 20195 59017;EQDQ01  00002PRCP99
0167832420999992000092018004-12570-041380FM-12+042799999V0201801N000510042019N0040001N1+02641+01601101301ADDAA199000091GF107991061071004501031001MA1999999096481MD1999999-0101REMSYN070AAXX  20184 83242 32496 71801 10264 20160 39648 40130 86730 333 59010;EQDQ01  00002PRCP99
0186832420999992000092100004-12570-041380FM-12+042799999V0201401N001510042019N9999999N1+02261+01751101501ADDAA199000091GF106991061061004501001001KA1240M+02761MA1999999096661MD1999999-0021REMSYN076AAXX  21004 83242 324// 61403 10226 20175 39666 40150 86600 333 10276 59002;EQDQ01  00002PRCP99
0201832420999992000092112004-12570-041380FM-12+042799999V0201401N001010042019N0010001N1+01991+01761101701ADDAA124000191AY151061AY221061GF108991081071004501999999KA1240N+01891MA1999999096831MD1999999+0001MW1101REMSYN088AAXX  21124 83242 21494 81402 10199 20176 39683 40170 71052 887// 333 20189 58000 69914;
0182832420999992000092118004-12570-041380FM-12+042799999V0203601N000512200019N0100001N1+02651+01681101271ADDAA106001091AY161061AY221061GF104991041041004501001001MA1999999096441MD1999999-0041MW1011REMSYN082AAXX  21184 83242 21497 43601 10265 20168 39644 40127 70162 84400 333 59004 60011;
0173832420999992000092212004-12570-041380FM-12+042799999V0201801N002112200019N0100001N1+02251+01571101811ADDAA124001091GF102991021011004501001001KA1240N+01631MA1999999096941MD1999999+0111REMSYN082AAXX  22124 83242 22497 21804 10225 20157 39694 40181 82100 333 20163 58011 60014;
0179832420999992000092218004-12570-041380FM-12+042799999V0201401N001512200019N0040001N1+02941+01231101211ADDAA199000091GF103991021021004501001011MA1999999096391MD1999999-0051MW1051REMSYN076AAXX  22184 83242 32496 31403 10294 20123 39639 40121 705// 82201 333 59005;EQDQ01  00002PRCP99
0196832420999992000092300004-12570-041380FM-12+042799999V0203201N000512200019N9999999N1+02311+01471101441ADDAA199000091GA1001+999999999GF100991001001999999001001KA1240M+03061MA1999999096611MD1999999-0131REMSYN070AAXX  23004 83242 329// 03201 10231 20147 39661 40144 333 10306 59013;EQDQ01  00002PRCP99
0186832420999992000092312004-12570-041380FM-12+042799999V0201401N001010042019N0100001N1+02331+01491101581ADDAA199000091GF106991051021004501081001KA1240N+01771MA1999999096741MD1999999-0201REMSYN076AAXX  23124 83242 32497 61402 10233 20149 39674 40158 85280 333 20177 59020;EQDQ01  00002PRCP99
0167832420999992000092318004-12570-041380FM-12+042799999V0201401N002612200019N0100001N1+03061+01111100911ADDAA199000091GF101991011011004501001001MA1999999096141MD1999999-0251REMSYN070AAXX  23184 83242 32497 11405 10306 20111 39614 40091 81100 333 59025;EQDQ01  00002PRCP99
0196832420999992000092400004-12570-041380FM-12+042799999V0200501N001512200019N9999999N1+02331+01361101321ADDAA199000091GA1001+999999999GF100991001001999999001001KA1240M+03161MA1999999096501MD1999999-0111REMSYN070AAXX  24004 83242 329// 00503 10233 20136 39650 40132 333 10316 59011;EQDQ01  00002PRCP99
0125832420999992000092412004-12570-041380FM-12+042799999V0201801N001019999999N0040001N1+99999+99999999999ADDGF107991999999004501999999REMSYN087AAXX  24124 83242 21496 71802 1226 20175 39672 40156 70351 86780 333 20195 59002 69914;
0167832420999992000092418004-12570-041380FM-12+042799999V0201801N001511050019N0100001N1+03041+01451100851ADDAA199000091GF108991021011004501001071MA1999999096091MD1999999-0051REMSYN070AAXX  24184 83242 32497 81803 10304 20145 39609 40085 82107 333 59005;EQDQ01  00002PRCP99
0196832420999992000092500004-12570-041380FM-12+042799999V0201801N001512200019N9999999N1+02361+01591101241ADDAA199000091GA1001+999999999GF100991001001999999001001KA1240M+03141MA1999999096421MD1999999-0081REMSYN070AAXX  25004 83242 329// 01803 10236 20159 39642 40124 333 10314 59008;EQDQ01  00002PRCP99
0167832420999992000092518004-12570-041380FM-12+042799999V0201801N002111050019N0100001N1+03181+01571100821ADDAA199000091GF108991011011004501001071MA1999999096091MD1999999+0001REMSYN070AAXX  25184 83242 32497 81804 10318 20157 39609 40082 81107 333 58000;EQDQ01  00002PRCP99
0186832420999992000092600004-12570-041380FM-12+042799999V0201401N001512200019N9999999N1+02481+01541101351ADDAA199000091GF101991011021004501001001KA1240M+03261MA1999999096541MD1999999+0121REMSYN076AAXX  26004 83242 324// 11403 10248 20154 39654 40135 81200 333 10326 58012;EQDQ01  00002PRCP99
0186832420999992000092612004-12570-041380FM-12+042799999V0201801N003110042019N0040001N1+02351+01781101731ADDAA199000091GF107991061071004501081001KA1240N+02071MA1999999096901MD1999999+0251REMSYN076AAXX  26124 83242 32496 71806 10235 20178 39690 40173 86780 333 20207 58025;EQDQ01  00002PRCP99
0167832420999992000092618004-12570-041380FM-12+042799999V0201801N002112200019N0100001N1+03041+01371101141ADDAA199000091GF103991021031004501051001MA1999999096381MD1999999+0291REMSYN070AAXX  26184 83242 32497 31804 10304 20137 39638 40114 82350 333 58029;EQDQ01  00002PRCP99
0186832420999992000092700004-12570-041380FM-12+042799999V0201401N001510042019N9999999N1+02471+01461101661ADDAA199000091GF106991061071004501001001KA1240M+03161MA1999999096841MD1999999+0301REMSYN076AAXX  27004 83242 324// 61403 10247 20146 39684 40166 86700 333 10316 58030;EQDQ01  00002PRCP99
0201832420999992000092712004-12570-041380FM-12+042799999V0201801N003110042019N0040001N1+02131+01841101841ADDAA124001091AY161061AY221061GF107991071071004501001001KA1240N+01831MA1999999096991MD1999999+0091MW1151REMSYN088AAXX  27124 83242 21496 71806 10213 20184 39699 40184 71562 87700 333 20183 58009 60014;
0167832420999992000092718004-12570-041380FM-12+042799999V0202301N003110450019N0100001N1+02821+01611101361ADDAA199000091GF106991041051004501081001MA1999999096551MD1999999+0171REMSYN070AAXX  27184 83242 32497 62306 10282 20161 39655 40136 84580 333 58017;EQDQ01  00002PRCP99
0186832420999992000092800004-12570-041380FM-12+042799999V0201801N001010042019N9999999N1+02361+01611101601ADDAA199000091GF108991081071004501999999KA1240M+02921MA1999999096751MD1999999-0091REMSYN076AAXX  28004 83242 324// 81802 10236 20161 39675 40160 887// 333 10292 59009;EQDQ01  00002PRCP99
0186832420999992000092812004-12570-041380FM-12+042799999V0201801N003110042019N0100001N1+02261+01521101791ADDAA199000091GF107991061071004501081001KA1240N+01831MA1999999096941MD1999999-0051REMSYN076AAXX  28124 83242 32497 71806 10226 20152 39694 40179 86780 333 20183 59005;EQDQ01  00002PRCP99
0179832420999992000092818004-12570-041380FM-12+042799999V0202301N001510042019N0040001N1+02861+01551101201ADDAA199000091GF106991051071004501061001MA1999999096391MD1999999-0161MW1051REMSYN076AAXX  28184 83242 31496 62303 10286 20155 39639 40120 705// 85760 333 59016;EQDQ01  00002PRCP99
0186832420999992000092900004-12570-041380FM-12+042799999V0200901N001510042019N9999999N1+02251+01771101641ADDAA199000091GF106991061071004501001001KA1240M+02961MA1999999096791MD1999999+0041REMSYN076AAXX  29004 83242 324// 60903 10225 20177 39679 40164 86700 333 10296 58004;EQDQ01  00002PRCP99
0186832420999992000092912004-12570-041380FM-12+042799999V0201801N003110042019N0100001N1+02151+01761101841ADDAA199000091GF107991061071004501061001KA1240N+01851MA1999999096971MD1999999+0031REMSYN076AAXX  29124 83242 32497 71806 10215 20176 39697 40184 86760 333 20185 58003;EQDQ01  00002PRCP99
0195832420999992000092918004-12570-041380FM-12+042799999V0202301N002610042019N0040001N1+02431+01861101411ADDAA199000091AY101061AY251061GF107991071071004501001001MA1999999096551MD1999999+0161MW1141REMSYN076AAXX  29184 83242 31496 72305 10243 20186 39655 40141 71405 87700 333 58016;EQDQ01  00002PRCP99
0186832420999992000093000004-12570-041380FM-12+042799999V0200501N000510042019N9999999N1+02201+01881101651ADDAA199000091GF107991071071004501001001KA1240M+02641MA1999999096791MD1999999+0001REMSYN076AAXX  30004 83242 324// 70501 10220 20188 39679 40165 87700 333 10264 58000;EQDQ01  00002PRCP99
0186832420999992000093012004-12570-041380FM-12+042799999V0201401N002110042019N0100001N1+02261+01641101811ADDAA199000091GF106991061071004501001001KA1240N+01871MA1999999096951MD1999999-0021REMSYN076AAXX  30124 83242 32497 61404 10226 20164 39695 40181 86700 333 20187 59002;EQDQ01  00002PRCP99
0167832420999992000093018004-12570-041380FM-12+042799999V0201401N002110450019N0100001N1+02701+01691101421ADDAA199000091GF106991041071004501031011MA1999999096601MD1999999+0051REMSYN070AAXX  30184 83242 32497 61404 10270 20169 39660 40142 84731 333 58005;EQDQ01  00002PRCP99
0186832420999992000100100004-12570-041380FM-12+042799999V0201801N002110090019N9999999N1+02351+01731101621ADDAA199000091GF106991061081004501001001KA1240M+02801MA1999999096781MD1999999-0011REMSYN076AAXX  01004 83242 324// 61804 10235 20173 39678 40162 86800 333 10280 59001;EQDQ01  00002PRCP99
0186832420999992000100112004-12570-041380FM-12+042799999V0201801N001510042019N0040001N1+02241+01751101811ADDAA199000091GF108991081071004501999999KA1240N+01971MA1999999096961MD1999999+0011REMSYN076AAXX  01124 83242 32496 81803 10224 20175 39696 40181 887// 333 20197 58001;EQDQ01  00002PRCP99
0179832420999992000100118004-12570-041380FM-12+042799999V0201801N002110450019N0040001N1+02881+01731101371ADDAA199000091GF106991041051004501081021MA1999999096571MD1999999-0031MW1051REMSYN076AAXX  01184 83242 31496 61804 10288 20173 39657 40137 705// 84582 333 59003;EQDQ01  00002PRCP99
0214832420999992000100212004-12570-041380FM-12+042799999V0200501N001010042019N0020001N1+02101+01891101781ADDAA199000091AY151061AY211061GF108991081071004501999999KA1240N+01981MA1999999096911MD1999999-0051MW1101REMSYN082AAXX  02124 83242 31495 80502 10210 20189 39691 40178 71051 887// 333 20198 59005;EQDQ01  00002PRCP99
0179832420999992000100218004-12570-041380FM-12+042799999V0201801N002110042019N0040001N1+02781+01851101351ADDAA199000091GF107991051061004501081021MA1999999096541MD1999999-0031MW1141REMSYN076AAXX  02184 83242 31496 71804 10278 20185 39654 40135 714// 85682 333 59003;EQDQ01  00002PRCP99
0186832420999992000100300004-12570-041380FM-12+042799999V0209999C000010042019N9999999N1+02271+01881101451ADDAA199000091GF105991051071004501001001KA1240M+02561MA1999999096601MD1999999-0061REMSYN076AAXX  03004 83242 324// 50000 10227 20188 39660 40145 85700 333 10256 59006;EQDQ01  00002PRCP99
0201832420999992000100312004-12570-041380FM-12+042799999V0201801N001010042019N0020001N1+02251+01861101521ADDAA124000191AY151061AY211061GF108991081071004501999999KA1240N+02011MA1999999096681MD1999999-0231MW1401REMSYN088AAXX  03124 83242 21495 81802 10225 20186 39668 40152 74051 887// 333 20201 59023 69914;
0167832420999992000100318004-12570-041380FM-12+042799999V0201801N002112200019N0100001N1+03001+01681101041ADDAA199000091GF103991011021004501011021MA1999999096271MD1999999-0271REMSYN070AAXX  03184 83242 32497 31804 10300 20168 39627 40104 81212 333 59027;EQDQ01  00002PRCP99
0196832420999992000100400004-12570-041380FM-12+042799999V0201401N001012200019N9999999N1+02381+01631101281ADDAA199000091GA1001+999999999GF100991001001999999001001KA1240M+03131MA1999999096461MD1999999-0141REMSYN070AAXX  04004 83242 329// 01402 10238 20163 39646 40128 333 10313 59014;EQDQ01  00002PRCP99
0186832420999992000100412004-12570-041380FM-12+042799999V0203601N001010042019N0100001N1+02451+01941101301ADDAA199000091GF106991051071004501041001KA1240N+02011MA1999999096591MD1999999-0091REMSYN076AAXX  04124 83242 32497 63602 10245 20194 39659 40130 85740 333 20201 59009;EQDQ01  00002PRCP99
0179832420999992000100418004-12570-041380FM-12+042799999V0201801N002112200019N0040001N1+03341+01491100761ADDAA199000091GF102991011011004501001011MA1999999096041MD1999999-0231MW1051REMSYN076AAXX  04184 83242 31496 21804 10334 20149 39604 40076 705// 81101 333 59023;EQDQ01  00002PRCP99
0196832420999992000100500004-12570-041380FM-12+042799999V0201401N000512200019N9999999N1+02481+01491101051ADDAA199000091GA1001+999999999GF100991001001999999001001KA1240M+03421MA1999999096271MD1999999-0191REMSYN070AAXX  05004 83242 329// 01401 10248 20149 39627 40105 333 10342 59019;EQDQ01  00002PRCP99
0179832420999992000100518004-12570-041380FM-12+042799999V0201401N001010042019N0040001N1+03521+01091100621ADDAA199000091GF108991071011004501001071MA1999999095911MD1999999-0131MW1051REMSYN076AAXX  05184 83242 31496 81402 10352 20109 39591 40062 705// 87107 333 59013;EQDQ01  00002PRCP99
0186832420999992000100600004-12570-041380FM-12+042799999V0209999C000012200019N9999999N1+02551+01531101011ADDAA199000091GF103991031011004501001001KA1240M+03521MA1999999096241MD1999999-0031REMSYN076AAXX  06004 83242 324// 30000 10255 20153 39624 40101 83100 333 10352 59003;EQDQ01  00002PRCP99
0198832420999992000100612004-12570-041380FM-12+042799999V0200501N001010042019N0040001N1+02461+01991101251ADDAA199000091GF107991071071004501001001KA1240N+02111MA1999999096471MD1999999+0021MW1051REMSYN082AAXX  06124 83242 31496 70502 10246 20199 39647 40125 705// 87700 333 20211 58002;EQDQ01  00002PRCP99
0179832420999992000100618004-12570-041380FM-12+042799999V0201401N001011050019N0020001N1+03341+01801100551ADDAA199000091GF108991021021004501001071MA1999999095851MD1999999-0061MW1051REMSYN076AAXX  06184 83242 31495 81402 10334 20180 39585 40055 705// 82207 333 59006;EQDQ01  00002PRCP99
0196832420999992000100700004-12570-041380FM-12+042799999V0202301N000512200019N9999999N1+02661+01791100991ADDAA199000091GA1001+999999999GF100991001001999999001001KA1240M+03441MA1999999096231MD1999999-0011REMSYN070AAXX  07004 83242 329// 02301 10266 20179 39623 40099 333 10344 59001;EQDQ01  00002PRCP99
0201832420999992000100712004-12570-041380FM-12+042799999V0201801N001010042019N0010001N1+02241+01941101471ADDAA124000891AY151061AY211061GF108991081071004501999999KA1240N+02151MA1999999096671MD1999999+0201MW1151REMSYN088AAXX  07124 83242 21494 81802 10224 20194 39667 40147 71551 887// 333 20215 58020 69974;
0179832420999992000100718004-12570-041380FM-12+042799999V0202301N002111050019N0100001N1+02961+01811101081ADDAA199000091GF108991011011004501001071MA1999999096351MD1999999+0501MW1051REMSYN076AAXX  07184 83242 31497 82304 10296 20181 39635 40108 705// 81107 333 58050;EQDQ01  00002PRCP99
0186832420999992000100800004-12570-041380FM-12+042799999V0203601N000512200019N9999999N1+02361+01831101231ADDAA199000091GF102991021001012501011001KA1240M+03041MA1999999096411MD1999999+0181REMSYN076AAXX  08004 83242 326// 23601 10236 20183 39641 40123 82010 333 10304 58018;EQDQ01  00002PRCP99
0198832420999992000100812004-12570-041380FM-12+042799999V0201401N001010042019N0040001N1+02421+01651101561ADDAA199000091GF106991051071004501031001KA1240N+02111MA1999999096741MD1999999+0071MW1051REMSYN082AAXX  08124 83242 31496 61402 10242 20165 39674 40156 705// 85730 333 20211 58007;EQDQ01  00002PRCP99
0167832420999992000100818004-12570-041380FM-12+042799999V0200901N002611050019N0100001N1+03221+01391100951ADDAA199000091GF108991011011004501001071MA1999999096231MD1999999-0121REMSYN070AAXX  08184 83242 32497 80905 10322 20139 39623 40095 81107 333 59012;EQDQ01  00002PRCP99
0196832420999992000100900004-12570-041380FM-12+042799999V0201401N001012200019N9999999N1+02481+01461101351ADDAA199000091GA1001+999999999GF100991001001999999001001KA1240M+03321MA1999999096551MD1999999+0141REMSYN070AAXX  09004 83242 329// 01402 10248 20146 39655 40135 333 10332 58014;EQDQ01  00002PRCP99
0186832420999992000100912004-12570-041380FM-12+042799999V0202301N001510450019N0100001N1+02381+01751101741ADDAA199000091GF106991041071004501041001KA1240N+02091MA1999999096921MD1999999+0181REMSYN076AAXX  09124 83242 32497 62303 10238 20175 39692 40174 84740 333 20209 58018;EQDQ01  00002PRCP99
0179832420999992000100918004-12570-041380FM-12+042799999V0201801N003111050019N0040001N1+03241+01161101141ADDAA199000091GF108991011011004501001071MA1999999096401MD1999999+0171MW1051REMSYN076AAXX  09184 83242 31496 81806 10324 20116 39640 40114 705// 81107 333 58017;EQDQ01  00002PRCP99
0196832420999992000101000004-12570-041380FM-12+042799999V0203601N000512200019N9999999N1+02451+01411101521ADDAA199000091GA1001+999999999GF100991001001999999001001KA1240M+03301MA1999999096701MD1999999+0151REMSYN070AAXX  10004 83242 329// 03601 10245 20141 39670 40152 333 10330 58015;EQDQ01  00002PRCP99
0186832420999992000101012004-12570-041380FM-12+042799999V0202301N001510450019N0100001N1+02281+01541101661ADDAA199000091GF105991031051008001031001KA1240N+01751MA1999999096831MD1999999-0091REMSYN076AAXX  10124 83242 32597 52303 10228 20154 39683 40166 83530 333 20175 59009;EQDQ01  00002PRCP99
0179832420999992000101018004-12570-041380FM-12+042799999V0201801N001511050019N0040001N1+03121+01441101131ADDAA199000091GF108991021011004501001071MA1999999096261MD1999999-0141MW1051REMSYN076AAXX  10184 83242 31496 81803 10312 20144 39626 40113 705// 82107 333 59014;EQDQ01  00002PRCP99
0196832420999992000101100004-12570-041380FM-12+042799999V0201801N000512200019N9999999N1+02511+01611101441ADDAA199000091GA1001+999999999GF100991001001999999001001KA1240M+03221MA1999999096631MD1999999-0071REMSYN070AAXX  11004 83242 329// 01801 10251 20161 39663 40144 333 10322 59007;EQDQ01  00002PRCP99
0186832420999992000101112004-12570-041380FM-12+042799999V0202301N001510450019N0100001N1+02301+01721101741ADDAA199000091GF106991041051004501041001KA1240N+02011MA1999999096911MD1999999+0081REMSYN076AAXX  11124 83242 32497 62303 10230 20172 39691 40174 84540 333 20201 58008;EQDQ01  00002PRCP99
0179832420999992000101118004-12570-041380FM-12+042799999V0201801N002111050019N0040001N1+03351+01461100971ADDAA199000091GF108991011011004501001071MA1999999096251MD1999999-0011MW1051REMSYN076AAXX  11184 83242 31496 81804 10335 20146 39625 40097 705// 81107 333 59001;EQDQ01  00002PRCP99
0196832420999992000101200004-12570-041380FM-12+042799999V0202301N001012200019N9999999N1+02531+01601101411ADDAA199000091GA1001+999999999GF100991001001999999001001KA1240M+03371MA1999999096601MD1999999-0031REMSYN070AAXX  12004 83242 329// 02302 10253 20160 39660 40141 333 10337 59003;EQDQ01  00002PRCP99
0186832420999992000101212004-12570-041380FM-12+042799999V0201401N001010042019N0100001N1+02401+01731101651ADDAA199000091GF106991051071004501061001KA1240N+02011MA1999999096821MD1999999+0091REMSYN076AAXX  12124 83242 32497 61402 10240 20173 39682 40165 85760 333 20201 58009;EQDQ01  00002PRCP99
0179832420999992000101218004-12570-041380FM-12+042799999V0200501N002112200019N0040001N1+03021+01621101151ADDAA199000091GF104991031021004501081001MA1999999096371MD1999999+0121MW1051REMSYN076AAXX  12184 83242 31496 40504 10302 20162 39637 40115 705// 83280 333 58012;EQDQ01  00002PRCP99
0218832420999992000101300004-12570-041380FM-12+042799999V0200501N001019999999N9999999N1+02421+01671101521ADDAA199000091GF108991001001999999001071KA1240M+03121MA1999999999999MD1999999+0101REMSYN076AAXX  13004 83242 329// 80502 10242 20167 39970 40152 80007 333 10312 58010;EQDQ01+099703APOSP Q02  00002PRCP99Q03 099703APOSP 
0186832420999992000101312004-12570-041380FM-12+042799999V0201401N001510450019N0100001N1+02421+01841101791ADDAA199000091GF106991041041004501031001KA1240N+02051MA1999999096961MD1999999+0141REMSYN076AAXX  13124 83242 32497 61403 10242 20184 39696 40179 84430 333 20205 58014;EQDQ01  00002PRCP99
0179832420999992000101318004-12570-041380FM-12+042799999V0201801N002110450019N0040001N1+03201+01171101111ADDAA199000091GF108991011071004501011001MA1999999096361MD1999999-0011MW1051REMSYN076AAXX  13184 83242 31496 81804 10320 20117 39636 40111 705// 81710 333 59001;EQDQ01  00002PRCP99
0196832420999992000101400004-12570-041380FM-12+042799999V0202301N001012200019N9999999N1+02591+01481101471ADDAA199000091GA1001+999999999GF100991001001999999001001KA1240M+03341MA1999999096681MD1999999-0021REMSYN070AAXX  14004 83242 329// 02302 10259 20148 39668 40147 333 10334 59002;EQDQ01  00002PRCP99
0186832420999992000101412004-12570-041380FM-12+042799999V0202301N001510042019N0040001N1+02401+01701101661ADDAA199000091GF108991081071004501999999KA1240N+02011MA1999999096861MD1999999-0101REMSYN076AAXX  14124 83242 32496 82303 10240 20170 39686 40166 887// 333 20201 59010;EQDQ01  00002PRCP99
0167832420999992000101418004-12570-041380FM-12+042799999V0201801N002110450019N0100001N1+03081+01601101231ADDAA199000091GF105991031041004501081041MA1999999096461MD1999999+0101REMSYN070AAXX  14184 83242 32497 51804 10308 20160 39646 40123 83484 333 58010;EQDQ01  00002PRCP99
0186832420999992000101500004-12570-041380FM-12+042799999V0203601N001012200019N9999999N1+02361+01831101441ADDAA199000091GF104991011021004501051001KA1240M+03181MA1999999096631MD1999999-0051REMSYN076AAXX  15004 83242 324// 43602 10236 20183 39663 40144 81250 333 10318 59005;EQDQ01  00002PRCP99
0186832420999992000101512004-12570-041380FM-12+042799999V0201401N001510450019N0100001N1+02341+01761101631ADDAA199000091GF106991041071004501031001KA1240N+02061MA1999999096801MD1999999-0061REMSYN076AAXX  15124 83242 32497 61403 10234 20176 39680 40163 84730 333 20206 59006;EQDQ01  00002PRCP99
0167832420999992000101518004-12570-041380FM-12+042799999V0200901N002112200019N0100001N1+03061+01511101161ADDAA199000091GF104991031031004501021001MA1999999096391MD1999999-0071REMSYN070AAXX  15184 83242 32497 40904 10306 20151 39639 40116 83320 333 59007;EQDQ01  00002PRCP99
0186832420999992000101600004-12570-041380FM-12+042799999V0201801N001010042019N9999999N1+02501+01641101351ADDAA199000091GF106991061071004501001001KA1240M+03171MA1999999096541MD1999999-0091REMSYN076AAXX  16004 83242 324// 61802 10250 20164 39654 40135 86700 333 10317 59009;EQDQ01  00002PRCP99
0201832420999992000101612004-12570-041380FM-12+042799999V0202301N002610042019N0020001N1+01961+01841101911ADDAA124000391AY151061AY221061GF107991071071004501001001KA1240N+01911MA1999999097051MD1999999+0251MW1501REMSYN088AAXX  16124 83242 21495 72305 10196 20184 39705 40191 75052 87700 333 20191 58025 69934;
0148832420999992000101618004-12570-041380FM-12+042799999V0200901N000512200019N0100001N1+03001+01411101331ADDAA199000021GF104991031031004501001021MA1999999096531MD1999999+0141REMSYN070AAXX  16184 83242 32497 40901 10300 20141 39653 40133 83302 333 58014;
0167832420999992000101700004-12570-041380FM-12+042799999V0201401N002112200019N9999999N1+02501+01671101581ADDAA199000021GF104991041071004501001001KA1240M+03141MA1999999096731MD1999999+0191REMSYN076AAXX  17004 83242 324// 41404 10250 20167 39673 40158 84700 333 10314 58019;
0195832420999992000101712004-12570-041380FM-12+042799999V0201801N002610042019N0040001N1+02321+01791101841ADDAA199000021AY151061AY221061GF108991081071004501999999KA1240N+01851MA1999999097011MD1999999-0041MW1501REMSYN082AAXX  17124 83242 31496 81805 10232 20179 39701 40184 75052 887// 333 20185 59004;
0182832420999992000101718004-12570-041380FM-12+042799999V0202301N002112200019N0100001N1+03121+01331101271ADDAA106000391AY151061AY211061GF102991011021004501031001MA1999999096361MD1999999-0071MW1051REMSYN082AAXX  17184 83242 21497 22304 10312 20133 39636 40127 70551 81230 333 59007 69931;
0177832420999992000101800004-12570-041380FM-12+042799999V0201801N002112200019N0020001N1+02521+01371101741ADDAA199000021GA1001+999999999GF100991001001999999001001KA1240M+03321MA1999999096861MD1999999+0131REMSYN070AAXX  18004 83242 32995 01804 10252 20137 39686 40174 333 10332 58013;
0201832420999992000101812004-12570-041380FM-12+042799999V0201801N001510042019N0040001N1+02081+01841102051ADDAA124000891AY151061AY241061GF107991071071004501001001KA1240N+01881MA1999999097141MD1999999+0131MW1031REMSYN088AAXX  18124 83242 21496 71803 10208 20184 39714 40205 70354 87700 333 20188 58013 69984;
0173832420999992000101818004-12570-041380FM-12+042799999V0203601N001512200019N0040001N1+03221+01341101331ADDAA199000091GF103991999999004501999999MA1999999096521MD1999999+0061MW1051REMSYN070AAXX  18184 83242 31496 33603 10322 20134 39652 40133 705// 333 58006;EQDQ01  00002PRCP99
0196832420999992000101900004-12570-041380FM-12+042799999V0202301N001512200019N0020001N1+02401+01441101621ADDAA199000091GA1001+999999999GF100991001001999999001001KA1240M+03261MA1999999096721MD1999999-0141REMSYN070AAXX  19004 83242 32995 02303 10240 20144 39672 40162 333 10326 59014;EQDQ01  00002PRCP99
0186832420999992000101912004-12570-041380FM-12+042799999V0201801N002110042019N0100001N1+02361+01851101781ADDAA199000091GF106991051061004501081001KA1240N+01891MA1999999096901MD1999999-0241REMSYN076AAXX  19124 83242 32497 61804 10236 20185 39690 40178 85680 333 20189 59024;EQDQ01  00002PRCP99
0179832420999992000101918004-12570-041380FM-12+042799999V0201801N001512200019N0040001N1+03101+01421101201ADDAA199000091GF104991031021004501081001MA1999999096371MD1999999-0151MW1051REMSYN076AAXX  19184 83242 31496 41803 10310 20142 39637 40120 705// 83280 333 59015;EQDQ01  00002PRCP99
0186832420999992000102000004-12570-041380FM-12+042799999V0200901N000512200019N0020001N1+02591+01541101381ADDAA199000091GF102991021041004501001001KA1240M+03231MA1999999096541MD1999999-0181REMSYN076AAXX  20004 83242 32495 20901 10259 20154 39654 40138 82400 333 10323 59018;EQDQ01  00002PRCP99
0186832420999992000102012004-12570-041380FM-12+042799999V0201401N001510042019N0100001N1+02421+01591101561ADDAA199000091GF106991061041004501001001KA1240N+02071MA1999999096711MD1999999-0191REMSYN076AAXX  20124 83242 32497 61403 10242 20159 39671 40156 86400 333 20207 59019;EQDQ01  00002PRCP99
0179832420999992000102018004-12570-041380FM-12+042799999V0201401N000512200019N0040001N1+03201+01231101001ADDAA199000091GF101991011011004501001001MA1999999096221MD1999999-0171MW1041REMSYN076AAXX  20184 83242 31496 11401 10320 20123 39622 40100 704// 81100 333 59017;EQDQ01  00002PRCP99
0196832420999992000102100004-12570-041380FM-12+042799999V0202301N000512200019N0020001N1+02481+01141101141ADDAA199000091GA1001+999999999GF100991001001999999001001KA1240M+03371MA1999999096301MD1999999-0241REMSYN070AAXX  21004 83242 32995 02301 10248 20114 39630 40114 333 10337 59024;EQDQ01  00002PRCP99
0186832420999992000102112004-12570-041380FM-12+042799999V0201401N001510042019N0100001N1+02291+01511101401ADDAA199000091GF106991051051004501031001KA1240N+01691MA1999999096541MD1999999-0171REMSYN076AAXX  21124 83242 32497 61403 10229 20151 39654 40140 85530 333 20169 59017;EQDQ01  00002PRCP99
0179832420999992000102118004-12570-041380FM-12+042799999V0201801N001511050019N0040001N1+03241+01311100811ADDAA199000091GF108991011011004501001071MA1999999096271MD1999999-0201MW1051REMSYN076AAXX  21184 83242 31496 81803 10324 20131 39627 40081 705// 81107 333 59020;EQDQ01  00002PRCP99
0196832420999992000102200004-12570-041380FM-12+042799999V0201401N001012200019N0020001N1+02631+01421101021ADDAA199000091GA1001+999999999GF100991001001999999001001KA1240M+03381MA1999999096191MD1999999-0111REMSYN070AAXX  22004 83242 32995 01402 10263 20142 39619 40102 333 10338 59011;EQDQ01  00002PRCP99
0186832420999992000102212004-12570-041380FM-12+042799999V0200901N001510042019N0040001N1+02471+01751101341ADDAA199000091GF107991071061004501001001KA1240N+02171MA1999999096251MD1999999-0021REMSYN076AAXX  22124 83242 32496 70903 10247 20175 39625 40134 87600 333 20217 59002;EQDQ01  00002PRCP99
0167832420999992000102218004-12570-041380FM-12+042799999V0202301N001512200019N0100001N1+03251+01421100631ADDAA199000091GF103991031001004501001021MA1999999095891MD1999999-0381REMSYN070AAXX  22184 83242 32497 32303 10325 20142 39589 40063 83002 333 59038;EQDQ01  00002PRCP99
0153832420999992000102300004-12570-041380FM-12+042799999V0202301N000512200019N0020001N1+02581+01261101101ADDAA199000091GA1001+999999999GF100991001001999999001001MA1999999096291REMSYN054AAXX  23004 83242 32995 02301 10258 20126 39629 4011/;EQDQ01  00002PRCP99
0131832420999992000102312004-12570-041380FM-12+042799999V0201801N000519999999N0040001N1+02381+01801999999ADDAA199000091GF106991999999004501999999MA1999999096601REMSYN048AAXX  23124 83242 32496 61801 10238 20180 3966/;EQDQ01  00002PRCP99
0179832420999992000102318004-12570-041380FM-12+042799999V0202301N001012200019N0020001N1+03241+01501100771ADDAA199000091GF102991021021004501001001MA1999999096021MD1999999+0131MW1051REMSYN076AAXX  23184 83242 31495 22302 10324 20150 39602 40077 705// 82200 333 58013;EQDQ01  00002PRCP99
0196832420999992000102400004-12570-041380FM-12+042799999V02099999999992200019N0020001N1+02621+01431101111ADDAA199000091GA1001+999999999GF100991001001999999001001KA1240M+03381MA1999999096291MD1999999+0001REMSYN070AAXX  24004 83242 32995 0//02 10262 20143 39629 40111 333 10338 58000;EQDQ01  00002PRCP99
0198832420999992000102412004-12570-041380FM-12+042799999V0202701N000510450019N0040001N1+02421+01841101311ADDAA199000091GF106991041071004501021001KA1240N+02111MA1999999096481MD1999999-0151MW1041REMSYN082AAXX  24124 83242 31496 62701 10242 20184 39648 40131 704// 84720 333 20211 59015;EQDQ01  00002PRCP99
0179832420999992000102418004-12570-041380FM-12+042799999V0201401N001010450019N0020001N1+03001+01491100901ADDAA199000091GF106991031071004501071021MA1999999096111MD1999999+0091MW1051REMSYN076AAXX  24184 83242 31495 61402 10300 20149 39611 40090 705// 83772 333 58009;EQDQ01  00002PRCP99
0186832420999992000102500004-12570-041380FM-12+042799999V0201801N001510042019N0020001N1+02521+01741101171ADDAA199000091GF108991081061004501999999KA1240M+03081MA1999999096331MD1999999+0041REMSYN076AAXX  25004 83242 32495 81803 10252 20174 39633 40117 886// 333 10308 58004;EQDQ01  00002PRCP99
0201832420999992000102512004-12570-041380FM-12+042799999V0201801N002110042019N0020001N1+02311+01811101431ADDAA124000591AY151061AY221061GF108991081071004501999999KA1240N+02111MA1999999096571MD1999999+0071MW1151REMSYN088AAXX  25124 83242 21495 81804 10231 20181 39657 40143 71552 887// 333 20211 58007 69954;
0179832420999992000102518004-12570-041380FM-12+042799999V0201401N002110042019N0040001N1+02971+01591100811ADDAA199000091GF106991051071004501061001MA1999999096121MD1999999+0011MW1041REMSYN076AAXX  25184 83242 31496 61404 10297 20159 39612 40081 704// 85760 333 58001;EQDQ01  00002PRCP99
0186832420999992000102600004-12570-041380FM-12+042799999V0201401N000510042019N0020001N1+02481+01701101171ADDAA199000091GF106991061071004501001001KA1240M+03061MA1999999096321MD1999999-0011REMSYN076AAXX  26004 83242 32495 61401 10248 20170 39632 40117 86700 333 10306 59001;EQDQ01  00002PRCP99
0186832420999992000102612004-12570-041380FM-12+042799999V0201401N001510450019N0100001N1+02471+01651101411ADDAA199000091GF106991041071004501031001KA1240N+02111MA1999999096571MD1999999+0001REMSYN076AAXX  26124 83242 32497 61403 10247 20165 39657 40141 84730 333 20211 58000;EQDQ01  00002PRCP99
0179832420999992000102618004-12570-041380FM-12+042799999V0201801N002110450019N0040001N1+02971+01471100911ADDAA199000091GF106991031071004501031001MA1999999096111MD1999999-0011MW1051REMSYN076AAXX  26184 83242 31496 61804 10297 20147 39611 40091 705// 83730 333 59001;EQDQ01  00002PRCP99
0186832420999992000102700004-12570-041380FM-12+042799999V0201401N001510042019N0020001N1+02561+01621101221ADDAA199000091GF106991061061004501001001KA1240M+03121MA1999999096391MD1999999+0071REMSYN076AAXX  27004 83242 32495 61403 10256 20162 39639 40122 86600 333 10312 58007;EQDQ01  00002PRCP99
0167832420999992000102718004-12570-041380FM-12+042799999V0201401N002110450019N0100001N1+03121+01521100921ADDAA199000091GF105991041031004501081001MA1999999096101MD1999999-0011REMSYN070AAXX  27184 83242 32497 51404 10312 20152 39610 40092 84380 333 59001;EQDQ01  00002PRCP99
0196832420999992000102800004-12570-041380FM-12+042799999V0200501N000512200019N0020001N1+02441+01451101161ADDAA199000091GA1001+999999999GF100991001001999999001001KA1240M+03211MA1999999096311MD1999999-0081REMSYN070AAXX  28004 83242 32995 00501 10244 20145 39631 40116 333 10321 59008;EQDQ01  00002PRCP99
0186832420999992000102812004-12570-041380FM-12+042799999V0201401N002110042019N0100001N1+02521+01821101351ADDAA199000091GF107991071071004501001001KA1240N+02171MA1999999096511MD1999999-0161REMSYN076AAXX  28124 83242 32497 71404 10252 20182 39651 40135 87700 333 20217 59016;EQDQ01  00002PRCP99
0179832420999992000102818004-12570-041380FM-12+042799999V0201801N002611050019N0040001N1+03291+01501100661ADDAA199000091GF108991031031004501001071MA1999999095911MD1999999-0191MW1041REMSYN076AAXX  28184 83242 31496 81805 10329 20150 39591 40066 704// 83307 333 59019;EQDQ01  00002PRCP99
0196832420999992000102900004-12570-041380FM-12+042799999V0202301N001012200019N0020001N1+02661+01711101031ADDAA199000091GA1001+999999999GF100991001001999999001001KA1240M+03421MA1999999096231MD1999999-0081REMSYN070AAXX  29004 83242 32995 02302 10266 20171 39623 40103 333 10342 59008;EQDQ01  00002PRCP99
0186832420999992000102912004-12570-041380FM-12+042799999V0202701N001010042019N0040001N1+02541+01911101321ADDAA199000091GF108991081071004501999999KA1240N+02341MA1999999096511MD1999999+0001REMSYN076AAXX  29124 83242 32496 82702 10254 20191 39651 40132 887// 333 20234 58000;EQDQ01  00002PRCP99
0167832420999992000102918004-12570-041380FM-12+042799999V0201801N002111050019N0040001N1+03341+01711100601ADDAA199000091GF108991031031004501001071MA1999999095881MD1999999-0031REMSYN070AAXX  29184 83242 32496 81804 10334 20171 39588 40060 83307 333 59003;EQDQ01  00002PRCP99
0198832420999992000103000004-12570-041380FM-12+042799999V0200501N001012200019N0020001N1+02801+01841101031ADDAA199000091GF102991021071004501001001KA1240M+03481MA1999999096241MD1999999+0011MW1131REMSYN082AAXX  30004 83242 31495 20502 10280 20184 39624 40103 713// 82700 333 10348 58001;EQDQ01  00002PRCP99
0201832420999992000103012004-12570-041380FM-12+042799999V0201801N000510042019N0010001N1+02421+02071101431ADDAA124029091AY161061AY291061GF108991081071004501999999KA1240N+02051MA1999999096611MD1999999+0101MW1401REMSYN088AAXX  30124 83242 21494 81801 10242 20207 39661 40143 74069 887// 333 20205 58010 60294;
0167832420999992000103018004-12570-041380FM-12+042799999V0202301N001510450019N0100001N1+02881+01861100941ADDAA199000091GF106991041051004501031001MA1999999096151MD1999999+0271REMSYN070AAXX  30184 83242 32497 62303 10288 20186 39615 40094 84530 333 58027;EQDQ01  00002PRCP99
0218832420999992000103100004-12570-041380FM-12+042799999V0201401N001010042019N0020001N1+02521+01931101091ADDAA199000091GF106991061071004501001001KA1240M+03061MA1999999999999MD1999999+0121REMSYN076AAXX  31004 83242 32495 61402 10252 20193 39336 40109 86700 333 10306 58012;EQDQ01+093363APOSP Q02  00002PRCP99Q03 093363APOSP 
0201832420999992000103112004-12570-041380FM-12+042799999V0201801N000510042019N0040001N1+02331+02011101401ADDAA124000791AY111061AY251061GF108991081071004501999999KA1240N+02281MA1999999096551MD1999999-0061MW1501REMSYN088AAXX  31124 83242 21496 81801 10233 20201 39655 40140 75015 887// 333 20228 59006 69904;
0182832420999992000103118004-12570-041380FM-12+042799999V0202301N001510450019N0100001N1+03041+01681100751ADDAA106000191AY151061AY221061GF106991041071004501031011MA1999999095981MD1999999-0171MW1031REMSYN082AAXX  31184 83242 21497 62303 10304 20168 39598 40075 70352 84731 333 59017 69911;
0167832420999992000110100004-12570-041380FM-12+042799999V0201401N001012200019N0020001N1+02641+01881101101ADDAA199000021GF104991041071004501001001KA1240M+03261MA1999999096251MD1999999-0111REMSYN076AAXX  01004 83242 32495 41402 10264 20188 39625 40110 84700 333 10326 59011;
0173832420999992000110112004-12570-041380FM-12+042799999V0201401N001510450019N0100001N1+02441+01761101311ADDAA124000191GF106991041071004501031001KA1240N+02071MA1999999096491MD1999999-0061REMSYN082AAXX  01124 83242 22497 61403 10244 20176 39649 40131 84730 333 20207 59006 69914;
0167832420999992000110118004-12570-041380FM-12+042799999V0201401N001510450019N0100001N1+03301+01461100671ADDAA199000091GF105991031031004501031011MA1999999095911MD1999999-0071REMSYN070AAXX  01184 83242 32497 51403 10330 20146 39591 40067 83331 333 59007;EQDQ01  00002PRCP99
0186832420999992000110200004-12570-041380FM-12+042799999V0201401N001012200019N0020001N1+02611+01621100931ADDAA199000091GF104991031061004501031001KA1240M+03431MA1999999096131MD1999999-0121REMSYN076AAXX  02004 83242 32495 41402 10261 20162 39613 40093 83630 333 10343 59012;EQDQ01  00002PRCP99
0186832420999992000110212004-12570-041380FM-12+042799999V0201401N001510450019N0100001N1+02511+01771101121ADDAA199000091GF106991041051004501031011KA1240N+02131MA1999999096311MD1999999-0181REMSYN076AAXX  02124 83242 32497 61403 10251 20177 39631 40112 84531 333 20213 59018;EQDQ01  00002PRCP99
0179832420999992000110218004-12570-041380FM-12+042799999V0201801N004110042019N0040001N1+02931+01551100711ADDAA199000091GF107991051071004501031001MA1999999095921MD1999999+0011MW1051REMSYN076AAXX  02184 83242 31496 71808 10293 20155 39592 40071 705// 85730 333 58001;EQDQ01  00002PRCP99
0186832420999992000110300004-12570-041380FM-12+042799999V0201801N001510042019N0020001N1+02601+01791100921ADDAA199000091GF108991081061004501999999KA1240M+03061MA1999999096121MD1999999-0011REMSYN076AAXX  03004 83242 32495 81803 10260 20179 39612 40092 886// 333 10306 59001;EQDQ01  00002PRCP99
0186832420999992000110312004-12570-041380FM-12+042799999V0201401N001510042019N0040001N1+02371+01891101051ADDAA199000091GF108991081051004501999999KA1240N+02211MA1999999096221MD1999999-0091REMSYN076AAXX  03124 83242 32496 81403 10237 20189 39622 40105 885// 333 20221 59009;EQDQ01  00002PRCP99
0167832420999992000110318004-12570-041380FM-12+042799999V0201801N000510042019N0040001N1+02701+01881100611ADDAA199000091GF108991081061004501999999MA1999999095801MD1999999-0121REMSYN070AAXX  03184 83242 32496 81801 10270 20188 39580 40061 886// 333 59012;EQDQ01  00002PRCP99
0186832420999992000110400004-12570-041380FM-12+042799999V0202301N000510042019N0020001N1+02441+01991100761ADDAA199000091GF106991061071004501001001KA1240M+02781MA1999999095931MD1999999-0191REMSYN076AAXX  04004 83242 32495 62301 10244 20199 39593 40076 86700 333 10278 59019;EQDQ01  00002PRCP99
0201832420999992000110412004-12570-041380FM-12+042799999V0201401N000510042019N0040001N1+02431+02011100921ADDAA124000791AY151061AY241061GF107991061071004501031001KA1240N+02251MA1999999096091MD1999999-0131MW1051REMSYN088AAXX  04124 83242 21496 71401 10243 20201 39609 40092 70554 86730 333 20225 59013 69904;
0167832420999992000110418004-12570-041380FM-12+042799999V0201801N002110042019N0100001N1+02951+01931100391ADDAA199000091GF107991061071004501031001MA1999999095551MD1999999-0251REMSYN070AAXX  04184 83242 32497 71804 10295 20193 39555 40039 86730 333 59025;EQDQ01  00002PRCP99
0201832420999992000110500004-12570-041380FM-12+042799999V0203601N000510042019N0020001N1+02621+02031100601ADDAA106000791AY151061AY241061GF108991081071004501999999KA1240M+03121MA1999999095751MD1999999-0181MW1031REMSYN088AAXX  05004 83242 21495 83601 10262 20203 39575 40060 70354 887// 333 10312 59018 69901;
0201832420999992000110512004-12570-041380FM-12+042799999V0209999C000010042019N0005001N1+02101+02021101081ADDAA124053191AY161061AY221061GF108991081071004501999999KA1240N+02031MA1999999096171MD1999999+0081MW1611REMSYN088AAXX  05124 83242 21493 80000 10210 20202 39617 40108 76162 887// 333 20203 58008 60534;
0182832420999992000110518004-12570-041380FM-12+042799999V0201401N000510042019N0040001N1+02501+02071100821ADDAA106001091AY161061AY221061GF107991061071004501061001MA1999999095911MD1999999+0361MW1401REMSYN082AAXX  05184 83242 21496 71401 10250 20207 39591 40082 74062 86760 333 58036 60011;
0201832420999992000110600004-12570-041380FM-12+042799999V0203601N000510042019N0020001N1+02261+02211100971ADDAA106004191AY161061AY221061GF108991081071004501999999KA1240M+02701MA1999999096031MD1999999+0281MW1101REMSYN088AAXX  06004 83242 21495 83601 10226 20221 39603 40097 71062 887// 333 10270 58028 60041;
0201832420999992000110612004-12570-041380FM-12+042799999V0203201N000510042019N0040001N1+02461+02151101051ADDAA124005191AY161061AY221061GF107991061071004501031001KA1240N+02091MA1999999096141MD1999999-0031MW1031REMSYN088AAXX  06124 83242 21496 73201 10246 20215 39614 40105 70362 86730 333 20209 59003 60054;
0167832420999992000110618004-12570-041380FM-12+042799999V0200501N001010450019N0100001N1+02971+02061100571ADDAA199000091GF106991041071004501051091MA1999999095721MD1999999-0191REMSYN070AAXX  06184 83242 32497 60502 10297 20206 39572 40057 84759 333 59019;EQDQ01  00002PRCP99
0201832420999992000110700004-12570-041380FM-12+042799999V0201801N003110042019N0020001N1+02301+02221100811ADDAA106020191AY161061AY281061GF107991061071004501031001KA1240M+03081MA1999999095921MD1999999-0111MW1291REMSYN088AAXX  07004 83242 21495 71806 10230 20222 39592 40081 72968 86730 333 10308 59011 60201;
0201832420999992000110712004-12570-041380FM-12+042799999V0200901N000510042019N0020001N1+02451+02281100911ADDAA124020191AY191061AY261061GF108991081071004501999999KA1240N+02191MA1999999096011MD1999999-0131MW1101REMSYN088AAXX  07124 83242 21495 80901 10245 20228 39601 40091 71096 887// 333 20219 59013 60204;
0182832420999992000110718004-12570-041380FM-12+042799999V0200901N000510042019N0020001N1+02331+02151101561ADDAA106004191AY161061AY221061GF108991081071004501999999MA1999999095651MD1999999-0071MW1291REMSYN082AAXX  07184 83242 21495 80901 10233 20215 39565 40156 72962 887// 333 59007 60041;
0201832420999992000110800004-12570-041380FM-12+042799999V0200901N001010042019N0005001N1+02321+02271100771ADDAA106002091AY161061AY241061GF108991081071004501999999KA1240M+02821MA1999999095881MD1999999-0041MW1211REMSYN088AAXX  08004 83242 21493 80902 10232 20227 39588 40077 72164 887// 333 10282 59004 60021;
0201832420999992000110812004-12570-041380FM-12+042799999V0201901N001010042019N0020001N1+02171+02041100811ADDAA124010991AY161061AY221061GF108991081071004501999999KA1240N+02051MA1999999095891MD1999999-0121MW1161REMSYN088AAXX  08124 83242 21495 81902 10217 20204 39589 40081 71662 887// 333 20205 59012 60114;
0179832420999992000110818004-12570-041380FM-12+042799999V0201801N002110450019N0040001N1+02551+02111100401ADDAA199000091GF106991041071004501061021MA1999999095511MD1999999-0141MW1151REMSYN076AAXX  08184 83242 31496 61804 10255 20211 39551 40040 715// 84762 333 59014;EQDQ01  00002PRCP99
0201832420999992000110900004-12570-041380FM-12+042799999V0203601N000510042019N0020001N1+02281+02131100721ADDAA106000891AY151061AY221061GF108991081071004501999999KA1240M+02721MA1999999095801MD1999999-0081MW1131REMSYN088AAXX  09004 83242 21495 83601 10228 20213 39580 40072 71352 887// 333 10272 59008 69971;
0201832420999992000110912004-12570-041380FM-12+042799999V0201801N000510042019N0010001N1+02201+02061100911ADDAA124017091AY161061AY221061GF108991081071004501999999KA1240N+01971MA1999999095981MD1999999+0091MW1101REMSYN088AAXX  09124 83242 21494 81801 10220 20206 39598 40091 71062 887// 333 20197 58009 60174;
0167832420999992000110918004-12570-041380FM-12+042799999V0201801N001010450019N0100001N1+02701+02091100461ADDAA199000091GF106991041071004501061001MA1999999095581MD1999999+0071REMSYN070AAXX  09184 83242 32497 61802 10270 20209 39558 40046 84760 333 58007;EQDQ01  00002PRCP99
0202832420999992000111000004-12570-041380FM-12+042799999V0203201N003110042019N0020001N1+02421+01931101762ADDAA199000091GF108991081071004501999999KA1240M+02801MA1999999095851MD1999999+0051REMSYN076AAXX  10004 83242 32495 83206 10242 20193 39585 40176 887// 333 10280 58005;EQDQ01+101763APOSLPQ02  00002PRCP99
0198832420999992000111012004-12570-041380FM-12+042799999V0201401N001510042019N0040001N1+02361+02121100921ADDAA199000091GF108991081071004501999999KA1240N+02071MA1999999096021MD1999999+0041MW1101REMSYN082AAXX  10124 83242 31496 81403 10236 20212 39602 40092 710// 887// 333 20207 58004;EQDQ01  00002PRCP99
0179832420999992000111018004-12570-041380FM-12+042799999V0202301N004110042019N0020001N1+02911+01981100431ADDAA199000091GF108991081071004501999999MA1999999095571MD1999999+0011MW1161REMSYN076AAXX  10184 83242 31495 82308 10291 20198 39557 40043 716// 887// 333 58001;EQDQ01  00002PRCP99
0186832420999992000111100004-12570-041380FM-12+042799999V0202701N001010042019N0020001N1+02401+02191100771ADDAA199000091GF108991081071004501999999KA1240M+03161MA1999999095881MD1999999+0031REMSYN076AAXX  11004 83242 32495 82702 10240 20219 39588 40077 887// 333 10316 58003;EQDQ01  00002PRCP99
0198832420999992000111112004-12570-041380FM-12+042799999V0201401N001010042019N0040001N1+02431+02251100931ADDAA199000091GF108991081071004501999999KA1240N+02171MA1999999096031MD1999999+0011MW1101REMSYN082AAXX  11124 83242 31496 81402 10243 20225 39603 40093 710// 887// 333 20217 58001;EQDQ01  00002PRCP99
0182832420999992000111118004-12570-041380FM-12+042799999V0201801N000510042019N0040001N1+02541+02021100581ADDAA106000191AY151061AY221061GF108991081071004501999999MA1999999095691MD1999999+0121MW1401REMSYN082AAXX  11184 83242 21496 81801 10254 20202 39569 40058 74052 887// 333 58012 69921;
0201832420999992000111200004-12570-041380FM-12+042799999V0203201N003610090019N0005001N1+02261+01901101041ADDAA106013091AY141061AY221061GF108991081081004501999999KA1240M+02671MA1999999096131MD1999999+0251MW1291REMSYN088AAXX  12004 83242 21493 83207 10226 20190 39613 40104 72942 888// 333 10267 58025 60131;
0201832420999992000111212004-12570-041380FM-12+042799999V0200901N001010042019N0020001N1+02261+02141100951ADDAA124020191AY191061AY221061GF108991081071004501999999KA1240N+02011MA1999999096021MD1999999-0011MW1101REMSYN088AAXX  12124 83242 21495 80902 10226 20214 39602 40095 71092 887// 333 20201 59001 60204;
0179832420999992000111218004-12570-041380FM-12+042799999V0202701N000510450019N0040001N1+03041+02181100541ADDAA199000091GF106991041071004501051011MA1999999095681MD1999999-0011MW1151REMSYN076AAXX  12184 83242 31496 62701 10304 20218 39568 40054 715// 84751 333 59001;EQDQ01  00002PRCP99
0201832420999992000111300004-12570-041380FM-12+042799999V0201801N000510042019N0020001N1+02401+02231100821ADDAA106006191AY191061AY261061GF108991081071004501999999KA1240M+03121MA1999999095921MD1999999-0211MW1501REMSYN088AAXX  13004 83242 21495 81801 10240 20223 39592 40082 75096 887// 333 10312 59021 60061;
0201832420999992000111312004-12570-041380FM-12+042799999V0202701N001010090019N0010001N1+02181+02101101031ADDAA124007991AY161061AY221061GF108991081081004501999999KA1240N+02171MA1999999096111MD1999999+0091MW1291REMSYN088AAXX  13124 83242 21494 82702 10218 20210 39611 40103 72962 888// 333 20217 58009 60084;
0182832420999992000111318004-12570-041380FM-12+042799999V0201801N001510090019N0010001N1+02281+02181100871ADDAA106003091AY161061AY221061GF108991081081004501999999MA1999999095861MD1999999+0261MW1401REMSYN082AAXX  13184 83242 21494 81803 10228 20218 39586 40087 74062 888// 333 58026 60031;
0201832420999992000111400004-12570-041380FM-12+042799999V0209999C000010042019N0020001N1+02221+02171101021ADDAA106000591AY151061AY241061GF108991081071004501999999KA1240M+02491MA1999999096071MD1999999+0151MW1021REMSYN088AAXX  14004 83242 21495 80000 10222 20217 39607 40102 70254 887// 333 10249 58015 69941;
0173832420999992000111412004-12570-041380FM-12+042799999V0201801N000510042019N0040001N1+02331+02151101081ADDAA124003091GF108991081071004501999999KA1240N+02071MA1999999096161MD1999999+0051REMSYN082AAXX  14124 83242 22496 81801 10233 20215 39616 40108 887// 333 20207 58005 60034;
0179832420999992000111418004-12570-041380FM-12+042799999V0201801N001010450019N0040001N1+03001+01911100581ADDAA199000091GF106991041071004501081011MA1999999095731MD1999999-0131MW1151REMSYN076AAXX  14184 83242 31496 61802 10300 20191 39573 40058 715// 84781 333 59013;EQDQ01  00002PRCP99
0201832420999992000111500004-12570-041380FM-12+042799999V0203601N001010042019N0020001N1+02481+02191100911ADDAA106000791AY191061AY251061GF108991081091004501999999KA1240M+03061MA1999999096011MD1999999-0061MW1131REMSYN088AAXX  15004 83242 21495 83602 10248 20219 39601 40091 71395 889// 333 10306 59006 69901;
0186832420999992000111512004-12570-041380FM-12+042799999V0201801N001010042019N0100001N1+02531+02041101101ADDAA199000091GF106991051071004501031001KA1240N+02111MA1999999096211MD1999999+0051REMSYN076AAXX  15124 83242 31497 61802 10253 20204 39621 40110 85730 333 20211 58005;EQDQ01  00002PRCP99
0179832420999992000111518004-12570-041380FM-12+042799999V0200501N002610450019N0040001N1+03141+02041100581ADDAA199000091GF108991041071004501081071MA1999999095761MD1999999+0031MW1141REMSYN076AAXX  15184 83242 31496 80505 10314 20204 39576 40058 714// 84787 333 58003;EQDQ01  00002PRCP99
0186832420999992000111600004-12570-041380FM-12+042799999V0201801N001010042019N0020001N1+02631+02201100981ADDAA199000091GF106991061071004501001001KA1240M+03341MA1999999096121MD1999999+0111REMSYN076AAXX  16004 83242 32495 61802 10263 20220 39612 40098 86700 333 10334 58011;EQDQ01  00002PRCP99
0198832420999992000111612004-12570-041380FM-12+042799999V0202301N001510042019N0040001N1+02471+02131101421ADDAA199000091GF106991051071004501031001KA1240N+02341MA1999999096431MD1999999+0221MW1401REMSYN082AAXX  16124 83242 31496 62303 10247 20213 39643 40142 740// 85730 333 20234 58022;EQDQ01  00002PRCP99
0167832420999992000111618004-12570-041380FM-12+042799999V0201401N002110450019N0100001N1+03081+01751100871ADDAA199000091GF106991041071004501071011MA1999999096041MD1999999+0281REMSYN070AAXX  16184 83242 32497 61404 10308 20175 39604 40087 84771 333 58028;EQDQ01  00002PRCP99
0186832420999992000111700004-12570-041380FM-12+042799999V0202301N001012200019N0020001N1+02381+01911101301ADDAA199000091GF102991021071004501001001KA1240M+03161MA1999999096391MD1999999+0271REMSYN076AAXX  17004 83242 32495 22302 10238 20191 39639 40130 82700 333 10316 58027;EQDQ01  00002PRCP99
0186832420999992000111712004-12570-041380FM-12+042799999V0201401N001510042019N0100001N1+02431+01861101571ADDAA199000091GF107991071071004501001001KA1240N+02111MA1999999096641MD1999999+0211REMSYN076AAXX  17124 83242 32497 71403 10243 20186 39664 40157 87700 333 20211 58021;EQDQ01  00002PRCP99
0167832420999992000111718004-12570-041380FM-12+042799999V0200901N003110042019N0100001N1+03091+01621101061ADDAA199000091GF107991061071004501001091MA1999999096201MD1999999+0161REMSYN070AAXX  17184 83242 32497 70906 10309 20162 39620 40106 86709 333 58016;EQDQ01  00002PRCP99
0186832420999992000111800004-12570-041380FM-12+042799999V0201801N000512200019N0020001N1+02521+01891101411ADDAA199000091GF103991031071004501001001KA1240M+03181MA1999999096511MD1999999+0121REMSYN076AAXX  18004 83242 32495 31801 10252 20189 39651 40141 83700 333 10318 58012;EQDQ01  00002PRCP99
0186832420999992000111812004-12570-041380FM-12+042799999V0201801N002110042019N0040001N1+02471+01901101571ADDAA199000091GF107991061071004501061001KA1240N+02131MA1999999096661MD1999999+0021REMSYN076AAXX  18124 83242 32496 71804 10247 20190 39666 40157 86760 333 20213 58002;EQDQ01  00002PRCP99
0167832420999992000111818004-12570-041380FM-12+042799999V0201401N002110450019N0100001N1+03121+01641101011ADDAA199000091GF105991041071004501081001MA1999999096151MD1999999-0051REMSYN070AAXX  18184 83242 32497 51404 10312 20164 39615 40101 84780 333 59005;EQDQ01  00002PRCP99
0186832420999992000111900004-12570-041380FM-12+042799999V0203601N001510042019N0020001N1+02481+01801101211ADDAA199000091GF106991061071004501001001KA1240M+03161MA1999999096321MD1999999-0191REMSYN076AAXX  19004 83242 32495 63603 10248 20180 39632 40121 86700 333 10316 59019;EQDQ01  00002PRCP99
0186832420999992000111912004-12570-041380FM-12+042799999V0201401N003110042019N0100001N1+02541+01711101471ADDAA199000091GF107991061071004501081001KA1240N+02111MA1999999096561MD1999999-0101REMSYN076AAXX  19124 83242 32497 71406 10254 20171 39656 40147 86780 333 20211 59010;EQDQ01  00002PRCP99
0167832420999992000111918004-12570-041380FM-12+042799999V0200901N001510042019N0100001N1+03121+01711100951ADDAA199000091GF106991061071004501001001MA1999999096101MD1999999-0051REMSYN070AAXX  19184 83242 32497 60903 10312 20171 39610 40095 86700 333 59005;EQDQ01  00002PRCP99
0186832420999992000112000004-12570-041380FM-12+042799999V0200901N001012200019N0020001N1+02581+01941101311ADDAA199000091GF104991041071004501001001KA1240M+03181MA1999999096421MD1999999+0101REMSYN076AAXX  20004 83242 32495 40902 10258 20194 39642 40131 84700 333 10318 58010;EQDQ01  00002PRCP99
0201832420999992000112012004-12570-041380FM-12+042799999V0201401N001510450019N0100001N1+02581+01851101531ADDAA124000791AY151061AY221061GF106991041051004501031001KA1240N+02141MA1999999096641MD1999999+0081MW1031REMSYN088AAXX  20124 83242 21497 61403 10258 20185 39664 40153 70352 84530 333 20214 58008 69904;
0196832420999992000112100004-12570-041380FM-12+042799999V0201801N000512200019N0020001N1+02541+01761101271ADDAA199000091GA1001+999999999GF100991001001999999001001KA1240M+03151MA1999999096381MD1999999-0041REMSYN070AAXX  21004 83242 32495 01801 10254 20176 39638 40127 333 10315 59004;EQDQ01  00002PRCP99
0186832420999992000112112004-12570-041380FM-12+042799999V0202301N001010450019N0100001N1+02381+01841101641ADDAA199000091GF106991041051004501031001KA1240N+01951MA1999999096721MD1999999+0081REMSYN076AAXX  21124 83242 32497 62302 10238 20184 39672 40164 84530 333 20195 58008;EQDQ01  00002PRCP99
0167832420999992000112118004-12570-041380FM-12+042799999V0201401N001510450019N0100001N1+03051+01701101131ADDAA199000091GF105991041021004501041001MA1999999096241MD1999999+0021REMSYN070AAXX  21184 83242 32497 51403 10305 20170 39624 40113 84240 333 58002;EQDQ01  00002PRCP99
0196832420999992000112200004-12570-041380FM-12+042799999V0203201N000512200019N0020001N1+02401+01751101411ADDAA199000091GA1001+999999999GF100991001001999999001001KA1240M+03181MA1999999096491MD1999999+0111REMSYN070AAXX  22004 83242 32995 03201 10240 20175 39649 40141 333 10318 58011;EQDQ01  00002PRCP99
0214832420999992000112212004-12570-041380FM-12+042799999V0201401N001510042019N0040001N1+02261+01881101791ADDAA199000091AY151061AY241061GF108991081061004501999999KA1240N+02151MA1999999096841MD1999999+0121MW1161REMSYN082AAXX  22124 83242 31496 81403 10226 20188 39684 40179 71654 886// 333 20215 58012;EQDQ01  00002PRCP99
0179832420999992000112218004-12570-041380FM-12+042799999V0201801N001012200019N0040001N1+02921+01821101351ADDAA199000091GF104991021031004501011011MA1999999096451MD1999999+0211MW1051REMSYN076AAXX  22184 83242 31496 41802 10292 20182 39645 40135 705// 82311 333 58021;EQDQ01  00002PRCP99
0186832420999992000112300004-12570-041380FM-12+042799999V0200901N001012200019N0020001N1+02521+01911101481ADDAA199000091GF104991041051004501001001KA1240M+03101MA1999999096551MD1999999+0061REMSYN076AAXX  23004 83242 32495 40902 10252 20191 39655 40148 84500 333 10310 58006;EQDQ01  00002PRCP99
0186832420999992000112400004-12570-041380FM-12+042799999V0201801N001012200019N0020001N1+02431+01861101411ADDAA199000091GF102991021021004501001001KA1240M+03141MA1999999096501MD1999999-0051REMSYN076AAXX  24004 83242 32495 21802 10243 20186 39650 40141 82200 333 10314 59005;EQDQ01  00002PRCP99
0214832420999992000112412004-12570-041380FM-12+042799999V0201401N001510042019N0040001N1+02311+01941101631ADDAA199000091AY151061AY201061GF107991061071004501061001KA1240N+02131MA1999999096681MD1999999-0121MW1401REMSYN082AAXX  24124 83242 31496 71403 10231 20194 39668 40163 74050 86760 333 20213 59012;EQDQ01  00002PRCP99
0167832420999992000112718004-12570-041380FM-12+042799999V0201801N002610450019N0100001N1+02981+01661101151ADDAA199000091GF105991031011004501081021MA1999999096281MD1999999+0071REMSYN070AAXX  27184 83242 32497 51805 10298 20166 39628 40115 83182 333 58007;EQDQ01  00002PRCP99
0196832420999992000112800004-12570-041380FM-12+042799999V0203601N001512200019N0020001N1+02361+01691101451ADDAA199000091GA1001+999999999GF100991001001999999001001KA1240M+03101MA1999999096501MD1999999+0151REMSYN070AAXX  28004 83242 32995 03603 10236 20169 39650 40145 333 10310 58015;EQDQ01  00002PRCP99
0186832420999992000112812004-12570-041380FM-12+042799999V0201401N001510042019N0100001N1+02471+01801101551ADDAA199000091GF105991051041004501001001KA1240N+02111MA1999999096621MD1999999-0101REMSYN076AAXX  28124 83242 32497 51403 10247 20180 39662 40155 85400 333 20211 59010;EQDQ01  00002PRCP99
0167832420999992000112818004-12570-041380FM-12+042799999V0201401N001512200019N0100001N1+03061+01661101181ADDAA199000091GF104991031021004501001011MA1999999096311MD1999999+0031REMSYN070AAXX  28184 83242 32497 41403 10306 20166 39631 40118 83201 333 58003;EQDQ01  00002PRCP99
0186832420999992000112900004-12570-041380FM-12+042799999V0201401N000512200019N0020001N1+02551+01931101421ADDAA199000091GF103991031041004501001001KA1240M+03161MA1999999096761MD1999999+0011REMSYN076AAXX  29004 83242 32495 31401 10255 20193 39676 40142 83400 333 10316 58001;EQDQ01  00002PRCP99
0201832420999992000112912004-12570-041380FM-12+042799999V0201801N001010042019N0100001N1+02311+01891101701ADDAA124000191AY151061AY211061GF108991051071004501061001KA1240N+02111MA1999999096771MD1999999+0151MW1031REMSYN088AAXX  29124 83242 21497 81802 10231 20189 39677 40170 70351 85760 333 20211 58015 69924;
0167832420999992000120118004-12570-041380FM-12+042799999V0201801N001010450019N0040001N1+02701+01941100961ADDAA199000091GF105991031061004501061021MA1999999096061MD1999999-0041REMSYN070AAXX  01184 83242 32496 51802 10270 20194 39606 40096 83662 333 59004;EQDQ01  00002PRCP99
0186832420999992000120200004-12570-041380FM-12+042799999V0203601N001010042019N0020001N1+02401+02091101091ADDAA199000091GF107991061071004501051001KA1240M+02821MA1999999096231MD1999999+0031REMSYN076AAXX  02004 83242 32495 73602 10240 20209 39623 40109 86750 333 10282 58003;EQDQ01  00002PRCP99
0186832420999992000120212004-12570-041380FM-12+042799999V0201401N001010450019N0100001N1+02601+02031101301ADDAA199000091GF106991041071004501041001KA1240N+02151MA1999999096401MD1999999-0081REMSYN076AAXX  02124 83242 32497 61402 10260 20203 39640 40130 84740 333 20215 59008;EQDQ01  00002PRCP99
0167832420999992000120218004-12570-041380FM-12+042799999V0203601N005710042019N0100001N1+03101+02031100821ADDAA199000091GF108991081071004501999999MA1999999095971MD1999999-0091REMSYN070AAXX  02184 83242 32497 83611 10310 20203 39597 40082 887// 333 59009;EQDQ01  00002PRCP99
0186832420999992000120300004-12570-041380FM-12+042799999V0203601N001010042019N0020001N1+02421+02011101151ADDAA199000091GF108991081071004501999999KA1240M+03231MA1999999096261MD1999999+0031REMSYN076AAXX  03004 83242 32495 83602 10242 20201 39626 40115 887// 333 10323 58003;EQDQ01  00002PRCP99
0201832420999992000120312004-12570-041380FM-12+042799999V0200901N000510042019N0040001N1+02251+02191101361ADDAA124001091AY161061AY241061GF108991081061004501999999KA1240N+02131MA1999999096431MD1999999+0031MW1101REMSYN088AAXX  03124 83242 21496 80901 10225 20219 39643 40136 71064 886// 333 20213 58003 60014;
0182832420999992000120318004-12570-041380FM-12+042799999V0200901N001010042019N0100001N1+02801+02271100841ADDAA106000191AY151061AY221061GF107991071071004501999999MA1999999095951MD1999999-0021MW1291REMSYN082AAXX  03184 83242 21497 70902 10280 20227 39595 40084 72952 877// 333 59002 69911;
0201832420999992000120400004-12570-041380FM-12+042799999V0203601N000510042019N0020001N1+02381+02191101131ADDAA106000791AY191061AY251061GF108991081071004501999999KA1240M+02961MA1999999096301MD1999999+0041MW1021REMSYN088AAXX  04004 83242 21495 83601 10238 20219 39630 40113 70295 887// 333 10296 58004 69901;
0201832420999992000120412004-12570-041380FM-12+042799999V0201801N001010042019N0020001N1+02261+02121101341ADDAA124000891AY151061AY221061GF108991081071004501999999KA1240N+02131MA1999999096401MD1999999-0031MW1101REMSYN088AAXX  04124 83242 21495 81802 10226 20212 39640 40134 71052 887// 333 20213 59003 69984;
0179832420999992000120418004-12570-041380FM-12+042799999V0201801N001510450019N0040001N1+02571+02101100881ADDAA199000091GF106991041071004501031011MA1999999095981MD1999999+0031MW1051REMSYN076AAXX  04184 83242 31496 61803 10257 20210 39598 40088 705// 84731 333 58003;EQDQ01  00002PRCP99
0186832420999992000120500004-12570-041380FM-12+042799999V0203201N001012200019N0020001N1+02341+02011101101ADDAA199000091GF101991001001999999001021KA1240M+02721MA1999999096171MD1999999-0131REMSYN076AAXX  05004 83242 32995 13202 10234 20201 39617 40110 80002 333 10272 59013;EQDQ01  00002PRCP99
0186832420999992000120512004-12570-041380FM-12+042799999V0201801N001010042019N0040001N1+02491+01941101301ADDAA199000091GF108991051071004501051999KA1240N+02071MA1999999096381MD1999999-0021REMSYN076AAXX  05124 83242 32496 81802 10249 20194 39638 40130 8575/ 333 20207 59002;EQDQ01  00002PRCP99
0167832420999992000120518004-12570-041380FM-12+042799999V0200901N001011050019N0100001N1+02981+01861100791ADDAA199000091GF107991011031004501001031MA1999999095931MD1999999-0051REMSYN070AAXX  05184 83242 32497 70902 10298 20186 39593 40079 81303 333 59005;EQDQ01  00002PRCP99
0186832420999992000120600004-12570-041380FM-12+042799999V0203601N001512200019N0020001N1+02441+01991101011ADDAA199000091GF104991001001999999001021KA1240M+03061MA1999999096121MD1999999-0051REMSYN076AAXX  06004 83242 32995 43603 10244 20199 39612 40101 80002 333 10306 59005;EQDQ01  00002PRCP99
0198832420999992000120612004-12570-041380FM-12+042799999V0202301N000510042019N0040001N1+02341+02001101301ADDAA199000091GF108991081071004501999999KA1240N+02191MA1999999096381MD1999999+0001MW1101REMSYN082AAXX  06124 83242 31496 82301 10234 20200 39638 40130 710// 887// 333 20219 58000;EQDQ01  00002PRCP99
0167832420999992000120618004-12570-041380FM-12+042799999V0201401N001010042019N0100001N1+02941+02051100821ADDAA199000091GF107991061071004501001021MA1999999095961MD1999999+0031REMSYN070AAXX  06184 83242 32497 71402 10294 20205 39596 40082 86702 333 58003;EQDQ01  00002PRCP99
0186832420999992000120700004-12570-041380FM-12+042799999V0203601N000512200019N0020001N1+02511+02051101091ADDAA199000091GF102991021001004501051001KA1240M+03021MA1999999096191MD1999999+0071REMSYN076AAXX  07004 83242 32495 23601 10251 20205 39619 40109 82050 333 10302 58007;EQDQ01  00002PRCP99
0198832420999992000120712004-12570-041380FM-12+042799999V0201801N000510042019N0020001N1+02401+02171101361ADDAA199000091GF108991081071004501999999KA1240N+02211MA1999999096451MD1999999+0071MW1101REMSYN082AAXX  07124 83242 31495 81801 10240 20217 39645 40136 710// 887// 333 20221 58007;EQDQ01  00002PRCP99
0167832420999992000120718004-12570-041380FM-12+042799999V0203201N002610042019N0040001N1+02681+02061101021ADDAA199000091GF108991081071004501999999MA1999999096141MD1999999+0161REMSYN070AAXX  07184 83242 32496 83205 10268 20206 39614 40102 887// 333 58016;EQDQ01  00002PRCP99
0201832420999992000120800004-12570-041380FM-12+042799999V0202701N003610042019N0005001N1+02021+01951101621ADDAA106070191AY191061AY221061GF108991081071004501999999KA1240M+02961MA1999999096631MD1999999+0441MW1651REMSYN088AAXX  08004 83242 21493 82707 10202 20195 39663 40162 76592 887// 333 10296 58044 60701;
0201832420999992000120812004-12570-041380FM-12+042799999V0201801N000510042019N0005001N1+02171+02131101671ADDAA124078091AY191061AY261061GF108991081071004501999999KA1240N+01931MA1999999096671MD1999999+0221MW1101REMSYN088AAXX  08124 83242 21493 81801 10217 20213 39667 40167 71096 887// 333 20193 58022 60784;
0182832420999992000120818004-12570-041380FM-12+042799999V0200901N000510042019N0040001N1+02661+02021101181ADDAA106000791AY151061AY221061GF107991051071004501061001MA1999999096261MD1999999+0121MW1031REMSYN082AAXX  08184 83242 21496 70901 10266 20202 39626 40118 70352 85760 333 58012 69901;
0201832420999992000120900004-12570-041380FM-12+042799999V0203201N001010042019N0020001N1+02361+02151101451ADDAA106000191AY151061AY221061GF108991081071004501999999KA1240M+02821MA1999999096491MD1999999-0141MW1501REMSYN088AAXX  09004 83242 21495 83202 10236 20215 39649 40145 75052 887// 333 10282 59014 69911;
0201832420999992000120912004-12570-041380FM-12+042799999V0202301N001010042019N0040001N1+02251+02011101561ADDAA124000391AY151061AY241061GF108991081071004501999999KA1240N+02111MA1999999096611MD1999999-0061MW1101REMSYN088AAXX  09124 83242 21496 82302 10225 20201 39661 40156 71054 887// 333 20211 59006 69934;
0167832420999992000120918004-12570-041380FM-12+042799999V0201401N001012200019N0100001N1+02931+01851100991ADDAA199000091GF102991021031004501001001MA1999999096161MD1999999-0101REMSYN070AAXX  09184 83242 32497 21402 10293 20185 39616 40099 82300 333 59010;EQDQ01  00002PRCP99
0196832420999992000121000004-12570-041380FM-12+042799999V0203601N001012200019N0020001N1+02341+01981101161ADDAA199000091GA1001+999999999GF100991001001999999001001KA1240M+03041MA1999999096231MD1999999-0261REMSYN070AAXX  10004 83242 32995 03602 10234 20198 39623 40116 333 10304 59026;EQDQ01  00002PRCP99
0186832420999992000121012004-12570-041380FM-12+042799999V0202301N001510042019N0100001N1+02421+01931101251ADDAA199000091GF106991051051004501041001KA1240N+01931MA1999999096341MD1999999-0271REMSYN076AAXX  10124 83242 32497 62303 10242 20193 39634 40125 85540 333 20193 59027;EQDQ01  00002PRCP99
0183832420999992000121018004-12570-041380FM-12+042799999V0201401N001510450019N0100001N1+03031+01911100671ADDAA199000091GF105991031051004501031011MA1999999091822MD1999999-0341REMSYN070AAXX  10184 83242 32497 51403 10303 20191 39182 40067 83531 333 59034;EQDQ01+091823APOSP Q02  00002PRCP99
0186832420999992000121112004-12570-041380FM-12+042799999V0201401N001010042019N0100001N1+02301+02011101161ADDAA199000091GF108991081061004501999999KA1240N+02131MA1999999096251MD1999999-0091REMSYN076AAXX  11124 83242 32497 81402 10230 20201 39625 40116 886// 333 20213 59009;EQDQ01  00002PRCP99
0167832420999992000121118004-12570-041380FM-12+042799999V0201401N001510042019N0100001N1+02551+02111100861ADDAA199000091GF107991061061004501031001MA1999999095961MD1999999+0141REMSYN070AAXX  11184 83242 32497 71403 10255 20211 39596 40086 86630 333 58014;EQDQ01  00002PRCP99
0201832420999992000121200004-12570-041380FM-12+042799999V0203601N000510042019N0020001N1+02241+02161101151ADDAA106000591AY151061AY221061GF108991081071004501999999KA1240M+02641MA1999999096211MD1999999+0231MW1021REMSYN088AAXX  12004 83242 21495 83601 10224 20216 39621 40115 70252 887// 333 10264 58023 69961;
0201832420999992000121212004-12570-041380FM-12+042799999V0203601N001510042019N0010001N1+02201+02121101331ADDAA124037191AY161061AY221061GF107991061071004501031001KA1240N+02051MA1999999096371MD1999999+0121MW1101REMSYN088AAXX  12124 83242 21494 73603 10220 20212 39637 40133 71062 86730 333 20205 58012 60374;
0179832420999992000121218004-12570-041380FM-12+042799999V0201401N001510042019N0040001N1+02601+02121100951ADDAA199000091GF108991081071004501999999MA1999999096041MD1999999+0041MW1141REMSYN076AAXX  12184 83242 31496 81403 10260 20212 39604 40095 714// 887// 333 58004;EQDQ01  00002PRCP99
0201832420999992000121300004-12570-041380FM-12+042799999V0203601N001510042019N0020001N1+02191+02061101181ADDAA106003091AY161061AY241061GF108991081071004501999999KA1240M+02691MA1999999096231MD1999999+0021MW1101REMSYN088AAXX  13004 83242 21495 83603 10219 20206 39623 40118 71064 887// 333 10269 58002 60031;
0201832420999992000121312004-12570-041380FM-12+042799999V0201401N001010042019N0100001N1+02331+02151101161ADDAA124016091AY161061AY221061GF107991061071004501031001KA1240N+01991MA1999999096231MD1999999-0141MW1031REMSYN088AAXX  13124 83242 21497 71402 10233 20215 39623 40116 70362 86730 333 20199 59014 60164;
0182832420999992000121318004-12570-041380FM-12+042799999V0201801N002610090019N0020001N1+02541+02171100931ADDAA106000191AY151061AY221061GF108991081081004501999999MA1999999096011MD1999999-0031MW1161REMSYN082AAXX  13184 83242 21495 81805 10254 20217 39601 40093 71652 888// 333 59003 69911;
0201832420999992000121400004-12570-041380FM-12+042799999V0202301N001010042019N0005001N1+02161+02131101101ADDAA106026991AY191061AY241061GF108991081071004501999999KA1240M+02731MA1999999096161MD1999999-0071MW1621REMSYN088AAXX  14004 83242 21493 82302 10216 20213 39616 40110 76294 887// 333 10273 59007 60271;
0201832420999992000121412004-12570-041380FM-12+042799999V0203601N000510042019N0010001N1+02141+02111100951ADDAA124075991AY161061AY221061GF108991081071004501999999KA1240N+02131MA1999999096001MD1999999-0231MW1511REMSYN088AAXX  14124 83242 21494 83601 10214 20211 39600 40095 75162 887// 333 20213 59023 60764;
0182832420999992000121418004-12570-041380FM-12+042799999V0200901N001010042019N0010001N1+02261+02241100731ADDAA106026991AY161061AY221061GF108991081071004501999999MA1999999095791MD1999999-0221MW1101REMSYN082AAXX  14184 83242 21494 80902 10226 20224 39579 40073 71062 887// 333 59022 60271;
0201832420999992000121500004-12570-041380FM-12+042799999V0202301N000510042019N0020001N1+02121+02091100781ADDAA106007191AY161061AY241061GF108991081071004501999999KA1240M+02371MA1999999095841MD1999999-0321MW1021REMSYN088AAXX  15004 83242 21495 82301 10212 20209 39584 40078 70264 887// 333 10237 59032 60071;
0201832420999992000121512004-12570-041380FM-12+042799999V0203201N003610042019N0020001N1+02421+02071100621ADDAA124036191AY161061AY221061GF107991061071004501061001KA1240N+02071MA1999999095721MD1999999-0281MW1101REMSYN088AAXX  15124 83242 21495 73207 10242 20207 39572 40062 71062 86760 333 20207 59028 60364;
0214832420999992000121600004-12570-041380FM-12+042799999V0203601N003110042019N0020001N1+02401+01991100561ADDAA106000191AY151061AY221061GF108991081071004501999999KA1240M+02881MA1999999095681MD1999999-0161REMSYN088AAXX  16004 83242 21495 83606 10240 20199 39568 40056 75652 887// 333 10288 59016 69911;EQDQ01+000562PRSWM1
0201832420999992000121612004-12570-041380FM-12+042799999V0200501N001010042019N0020001N1+02371+02211100691ADDAA124001091AY161061AY251061GF108991081071004501999999KA1240N+02091MA1999999095801MD1999999+0081MW1101REMSYN088AAXX  16124 83242 21495 80502 10237 20221 39580 40069 71065 887// 333 20209 58008 60014;
0182832420999992000121618004-12570-041380FM-12+042799999V0200501N002110042019N0005001N1+02301+02251100541ADDAA106025991AY161061AY241061GF108991081071004501999999MA1999999095621MD1999999+0241MW1511REMSYN082AAXX  16184 83242 21493 80504 10230 20225 39562 40054 75164 887// 333 58024 60261;
0201832420999992000121700004-12570-041380FM-12+042799999V0203601N002110042019N0020001N1+02181+02041100811ADDAA106002091AY161061AY221061GF108991081071004501999999KA1240M+02481MA1999999095901MD1999999+0221MW1501REMSYN088AAXX  17004 83242 21495 83604 10218 20204 39590 40081 75062 887// 333 10248 58022 60021;
0214832420999992000121712004-12570-041380FM-12+042799999V0203601N002610042019N0040001N1+02101+01951101071ADDAA124034091AY161061AY221061GF108991081071004501999999KA1240N+02071MA1999999096111MD1999999+0311REMSYN088AAXX  17124 83242 21496 83605 10210 20195 39611 40107 75662 887// 333 20207 58031 60344;EQDQ01+000562PRSWM1
0182832420999992000121718004-12570-041380FM-12+042799999V0203601N003110042019N0100001N1+02321+01981100801ADDAA106000891AY151061AY221061GF108991081071004501999999MA1999999095891MD1999999+0371MW1031REMSYN082AAXX  17184 83242 21497 83606 10232 20198 39589 40080 70352 887// 333 58037 69971;
0201832420999992000121800004-12570-041380FM-12+042799999V0203601N002610042019N0020001N1+02321+01891101191ADDAA106000791AY151061AY221061GF108991081071004501999999KA1240M+02461MA1999999096241MD1999999+0341MW1031REMSYN088AAXX  18004 83242 21495 83605 10232 20189 39624 40119 70352 887// 333 10246 58034 69901;
0201832420999992000121812004-12570-041380FM-12+042799999V0202701N004610042019N0040001N1+02401+01891101401ADDAA124002091AY161061AY241061GF108991081071004501999999KA1240N+01971MA1999999096441MD1999999+0331MW1151REMSYN088AAXX  18124 83242 21496 82709 10240 20189 39644 40140 71564 887// 333 20197 58033 60024;
0167832420999992000121818004-12570-041380FM-12+042799999V0203201N003610042019N0100001N1+02961+01781100851ADDAA199000091GF106991051051004501081001MA1999999095971MD1999999+0081REMSYN070AAXX  18184 83242 32497 63207 10296 20178 39597 40085 85580 333 58008;EQDQ01  00002PRCP99
0201832420999992000121900004-12570-041380FM-12+042799999V0209999C000010042019N0020001N1+02261+02141101331ADDAA106004191AY191061AY261061GF108991081071004501999999KA1240M+03081MA1999999096401MD1999999-0041MW1031REMSYN088AAXX  19004 83242 21495 80000 10226 20214 39640 40133 70396 887// 333 10308 59004 60041;
0173832420999992000121912004-12570-041380FM-12+042799999V0201401N001012200019N0100001N1+02441+02111101391ADDAA124004191GF104991031041004501061001KA1240N+02051MA1999999096461MD1999999+0021REMSYN082AAXX  19124 83242 22497 41402 10244 20211 39646 40139 83460 333 20205 58002 60044;
0179832420999992000121918004-12570-041380FM-12+042799999V0200901N002110450019N0040001N1+03021+02021100881ADDAA199000091GF106991041061004501061001MA1999999096021MD1999999+0051MW1051REMSYN076AAXX  19184 83242 31496 60904 10302 20202 39602 40088 705// 84660 333 58005;EQDQ01  00002PRCP99
0186832420999992000122000004-12570-041380FM-12+042799999V0200901N001010042019N0020001N1+02441+02111101261ADDAA199000091GF108991081071004501999999KA1240M+03081MA1999999096351MD1999999-0051REMSYN076AAXX  20004 83242 32495 80902 10244 20211 39635 40126 887// 333 10308 59005;EQDQ01  00002PRCP99
0198832420999992000122012004-12570-041380FM-12+042799999V0201801N001010450019N0040001N1+02541+02211101381ADDAA199000091GF106991041071004501031001KA1240N+02171MA1999999096481MD1999999+0021MW1401REMSYN082AAXX  20124 83242 31496 61802 10254 20221 39648 40138 740// 84730 333 20217 58002;EQDQ01  00002PRCP99
0179832420999992000122018004-12570-041380FM-12+042799999V0201401N002110450019N0040001N1+03121+02111101041ADDAA199000091GF106991041061004501061011MA1999999096191MD1999999+0171MW1151REMSYN076AAXX  20184 83242 31496 61404 10312 20211 39619 40104 715// 84661 333 58017;EQDQ01  00002PRCP99
0186832420999992000122100004-12570-041380FM-12+042799999V0201801N000512200019N0020001N1+02481+02231101311ADDAA199000091GF102991021021004501001001KA1240M+03151MA1999999096411MD1999999+0061REMSYN076AAXX  21004 83242 32495 21801 10248 20223 39641 40131 82200 333 10315 58006;EQDQ01  00002PRCP99
0186832420999992000122112004-12570-041380FM-12+042799999V0201401N000510450019N0100001N1+02501+02151101471ADDAA199000091GF106991041071004501041001KA1240N+02131MA1999999096561MD1999999+0081REMSYN076AAXX  21124 83242 32497 61401 10250 20215 39656 40147 84740 333 20213 58008;EQDQ01  00002PRCP99
0179832420999992000122118004-12570-041380FM-12+042799999V0200501N002110450019N0040001N1+03161+01961100961ADDAA199000091GF106991041041004501081051MA1999999096121MD1999999-0071MW1051REMSYN076AAXX  21184 83242 31496 60504 10316 20196 39612 40096 705// 84485 333 59007;EQDQ01  00002PRCP99
0198832420999992000122200004-12570-041380FM-12+042799999V0209999C000010042019N0020001N1+02601+02191101341ADDAA199000091GF106991061071004501001001KA1240M+03221MA1999999096451MD1999999+0041MW1131REMSYN082AAXX  22004 83242 31495 60000 10260 20219 39645 40134 713// 86700 333 10322 58004;EQDQ01  00002PRCP99
0198832420999992000122212004-12570-041380FM-12+042799999V0201801N001010042019N0040001N1+02341+02051101581ADDAA199000091GF107991061071004501011001KA1240N+02051MA1999999096661MD1999999+0101MW1101REMSYN082AAXX  22124 83242 31496 71802 10234 20205 39666 40158 710// 86710 333 20205 58010;EQDQ01  00002PRCP99
0167832420999992000122218004-12570-041380FM-12+042799999V0201801N001511050019N0100001N1+03041+01911101061ADDAA199000091GF106991021031004501001031MA1999999096191MD1999999+0071REMSYN070AAXX  22184 83242 32497 61803 10304 20191 39619 40106 82303 333 58007;EQDQ01  00002PRCP99
0196832420999992000122300004-12570-041380FM-12+042799999V0202701N000512200019N0020001N1+02381+01971101411ADDAA199000091GA1001+999999999GF100991001001999999001001KA1240M+03111MA1999999096481MD1999999+0031REMSYN070AAXX  23004 83242 32995 02701 10238 20197 39648 40141 333 10311 58003;EQDQ01  00002PRCP99
0198832420999992000122312004-12570-041380FM-12+042799999V0200901N001510042019N0040001N1+02481+02011101631ADDAA199000091GF107991061071004501001051KA1240N+01971MA1999999096721MD1999999+0061MW1051REMSYN082AAXX  23124 83242 31496 70903 10248 20201 39672 40163 705// 86705 333 20197 58006;EQDQ01  00002PRCP99
0196832420999992000122400004-12570-041380FM-12+042799999V0200501N001512200019N0020001N1+02291+01961101311ADDAA199000091GA1001+999999999GF100991001001999999001001KA1240M+02981MA1999999096391MD1999999-0091REMSYN070AAXX  24004 83242 32995 00503 10229 20196 39639 40131 333 10298 59009;EQDQ01  00002PRCP99
0186832420999992000122412004-12570-041380FM-12+042799999V0201801N001510042019N0040001N1+02421+01991101551ADDAA199000091GF107991061071004501051001KA1240N+02151MA1999999096611MD1999999-0111REMSYN076AAXX  24124 83242 32496 71803 10242 20199 39661 40155 86750 333 20215 59011;EQDQ01  00002PRCP99
0182832420999992000122418004-12570-041380FM-12+042799999V0201801N001510042019N0040001N1+02581+02251101171ADDAA106001091AY161061AY221061GF107991071071004501001001MA1999999096261MD1999999-0041MW1031REMSYN082AAXX  24184 83242 21496 71803 10258 20225 39626 40117 70362 87700 333 59004 60011;
0214832420999992000122500004-12570-041380FM-12+042799999V0200901N001510042019N0020001N1+02321+02181101331ADDAA106000191AY151061AY221061GF108991081071004501999999KA1240M+03021MA1999999096401MD1999999+0011REMSYN088AAXX  25004 83242 21495 80903 10232 20218 39640 40133 75652 887// 333 10302 58001 69911;EQDQ01+000562PRSWM1
0185832420999992000122512004-12570-041380FM-12+042799999V0201401N001510042019N0040001N1+02391+01821101701ADDAA124002091GF107991071071004501001001KA1240N+01931MA1999999096751MD1999999+0141MW1051REMSYN088AAXX  25124 83242 22496 71403 10239 20182 39675 40170 705// 87700 333 20193 58014 60024;
0167832420999992000122518004-12570-041380FM-12+042799999V0201401N001512200019N0100001N1+02891+01871101241ADDAA199000091GF104991041031004501001001MA1999999096341MD1999999+0081REMSYN070AAXX  25184 83242 32497 41403 10289 20187 39634 40124 84300 333 58008;EQDQ01  00002PRCP99
0196832420999992000122600004-12570-041380FM-12+042799999V0200501N000512200019N0020001N1+02301+01851101371ADDAA199000091GA1001+999999999GF100991001001999999001001KA1240M+03021MA1999999096441MD1999999+0041REMSYN070AAXX  26004 83242 32995 00501 10230 20185 39644 40137 333 10302 58004;EQDQ01  00002PRCP99
0186832420999992000122612004-12570-041380FM-12+042799999V0202301N001512200019N0100001N1+02421+01721101521ADDAA199000091GF104991021011004501041001KA1240N+02011MA1999999096681MD1999999-0071REMSYN076AAXX  26124 83242 32497 42303 10242 20172 39668 40152 82140 333 20201 59007;EQDQ01  00002PRCP99
0167832420999992000122618004-12570-041380FM-12+042799999V0201401N001012200019N0100001N1+02981+01861101121ADDAA199000091GF104991021011004501031021MA1999999096231MD1999999-0111REMSYN070AAXX  26184 83242 32497 41402 10298 20186 39623 40112 82132 333 59011;EQDQ01  00002PRCP99
0186832420999992000122700004-12570-041380FM-12+042799999V0201801N003110042019N0020001N1+02421+02051101401ADDAA199000091GF108991081071004501999999KA1240M+03061MA1999999096481MD1999999+0041REMSYN076AAXX  27004 83242 32495 81806 10242 20205 39648 40140 887// 333 10306 58004;EQDQ01  00002PRCP99
0201832420999992000122712004-12570-041380FM-12+042799999V0201401N000510042019N0100001N1+02401+01731101461ADDAA124000191AY151061AY221061GF106991051041004501031001KA1240N+02031MA1999999096541MD1999999-0141MW1031REMSYN088AAXX  27124 83242 21497 61401 10240 20173 39654 40146 70352 85430 333 20203 59014 69914;
0167832420999992000122718004-12570-041380FM-12+042799999V0201401N001012200019N0100001N1+03001+01941101111ADDAA199000091GF104991041011004501001001MA1999999096241MD1999999+0011REMSYN070AAXX  27184 83242 32497 41402 10300 20194 39624 40111 84100 333 58001;EQDQ01  00002PRCP99
0196832420999992000122800004-12570-041380FM-12+042799999V0203601N000512200019N0020001N1+02401+01911101351ADDAA199000091GA1001+999999999GF100991001001999999001001KA1240M+03081MA1999999096431MD1999999-0051REMSYN070AAXX  28004 83242 32995 03601 10240 20191 39643 40135 333 10308 59005;EQDQ01  00002PRCP99
0201832420999992000122812004-12570-041380FM-12+042799999V0201401N002110042019N0040001N1+02431+02011101551ADDAA124000191AY151061AY241061GF107991071071004501001001KA1240N+02171MA1999999096621MD1999999+0081MW1051REMSYN088AAXX  28124 83242 21496 71404 10243 20201 39662 40155 70554 87700 333 20217 58008 69924;
0167832420999992000122818004-12570-041380FM-12+042799999V0201401N001012200019N0100001N1+02931+02031101031ADDAA199000091GF104991031011004501001021MA1999999096161MD1999999-0081REMSYN070AAXX  28184 83242 32497 41402 10293 20203 39616 40103 83102 333 59008;EQDQ01  00002PRCP99
0196832420999992000122900004-12570-041380FM-12+042799999V0200501N000512200019N0020001N1+02401+02031101241ADDAA199000091GA1001+999999999GF100991001001999999001001KA1240M+03021MA1999999096331MD1999999-0101REMSYN070AAXX  29004 83242 32995 00501 10240 20203 39633 40124 333 10302 59010;EQDQ01  00002PRCP99
0214832420999992000122912004-12570-041380FM-12+042799999V0202301N001010042019N0040001N1+02401+02111101541ADDAA199000091AY151061AY201061GF107991061071004501031001KA1240N+02111MA1999999096521MD1999999-0101MW1031REMSYN082AAXX  29124 83242 31496 72302 10240 20211 39652 40154 70350 86730 333 20211 59010;EQDQ01  00002PRCP99
0167832420999992000122918004-12570-041380FM-12+042799999V0200901N001510042019N0100001N1+02971+02061101021ADDAA199000091GF107991051071004501031051MA1999999096151MD1999999-0011REMSYN070AAXX  29184 83242 32497 70903 10297 20206 39615 40102 85735 333 59001;EQDQ01  00002PRCP99
0196832420999992000123000004-12570-041380FM-12+042799999V0203601N001012200019N0020001N1+02481+02091101181ADDAA199000091GA1001+999999999GF100991001001999999001001KA1240M+03101MA1999999096281MD1999999-0051REMSYN070AAXX  30004 83242 32995 03602 10248 20209 39628 40118 333 10310 59005;EQDQ01  00002PRCP99
0186832420999992000123012004-12570-041380FM-12+042799999V0200501N002610450019N0100001N1+02591+01871101411ADDAA199000091GF107991021051004501031091KA1240N+02121MA1999999096521MD1999999+0001REMSYN076AAXX  30124 83242 32497 70505 10259 20187 39652 40141 82539 333 20212 58000;EQDQ01  00002PRCP99
0167832420999992000123018004-12570-041380FM-12+042799999V0201401N001510042019N0100001N1+03061+02021100991ADDAA199000091GF107991051071004501031081MA1999999096081MD1999999-0071REMSYN070AAXX  30184 83242 32497 71403 10306 20202 39608 40099 85738 333 59007;EQDQ01  00002PRCP99
0186832420999992000123100004-12570-041380FM-12+042799999V0203601N000510042019N0020001N1+02591+01941101191ADDAA199000091GF108991081071004501999999KA1240M+03201MA1999999096321MD1999999+0041REMSYN076AAXX  31004 83242 32495 83601 10259 20194 39632 40119 887// 333 10320 58004;EQDQ01  00002PRCP99
0198832420999992000123112004-12570-041380FM-12+042799999V0201801N001010042019N0040001N1+02371+02091101391ADDAA199000091GF108991081071004501999999KA1240N+02281MA1999999096491MD1999999-0031MW1101REMSYN082AAXX  31124 83242 31496 81802 10237 20209 39649 40139 710// 887// 333 20228 59003;EQDQ01  00002PRCP99
0179832420999992000123118004-12570-041380FM-12+042799999V0201401N001010042019N0100001N1+02791+02081101041ADDAA199000091GF107991051071004501051081MA1999999096161MD1999999+0081MW1051REMSYN076AAXX  31184 83242 31497 71402 10279 20208 39616 40104 705// 85758 333 58008;EQDQ01  00002PRCP99
