0186833980999992000010100004-15670-038930FM-12+000599999V0209999C000010450019N9999999N1+02461+02301100931ADDAA106000091GF106991041051008001021001KA1240M+02941MA1999999100881MD1999999-0091REMSYN076AAXX  01004 83398 325// 60000 10246 20230 30088 40093 84520 333 10294 59009;EQDQ01  00002PRCP06
0186833980999992000010112004-15670-038930FM-12+000599999V0203601N004110450019N0100001N1+02841+02461100941ADDAA106000091GF106991031051008001031011KA1240N+02221MA1999999100891MD1999999-0101REMSYN076AAXX  01124 83398 32597 63608 10284 20246 30089 40094 83531 333 20222 59010;EQDQ01  00002PRCP06
0167833980999992000010118004-15670-038930FM-12+000599999V0200501N003111050019N0200001N1+02841+02381100781ADDAA106000091GF105991021021008001041041MA1999999100731MD1999999+0021REMSYN070AAXX  01184 83398 32598 50506 10284 20238 30073 40078 82244 333 58002;EQDQ01  00002PRCP06
0186833980999992000010200004-15670-038930FM-12+000599999V0200501N002112200019N9999999N1+02611+02371100971ADDAA106000091GF104991021051008001031001KA1240M+02991MA1999999100921MD1999999-0011REMSYN076AAXX  02004 83398 325// 40504 10261 20237 30092 40097 82530 333 10299 59001;EQDQ01  00002PRCP06
0201833980999992000010212004-15670-038930FM-12+000599999V0200501N003110450019N0100001N1+02801+02361100941ADDAA124002091AY161061AY221061GF106991031051008001041011KA1240N+02301MA1999999100891MD1999999+0001MW1021REMSYN088AAXX  02124 83398 21597 60506 10280 20236 30089 40094 70262 83541 333 20230 58000 60024;
0167833980999992000010218004-15670-038930FM-12+000599999V0200501N003111050019N0200001N1+02891+02371100751ADDAA106000091GF105991021021008001051041MA1999999100701MD1999999+0031REMSYN070AAXX  02184 83398 32598 50506 10289 20237 30070 40075 82254 333 58003;EQDQ01  00002PRCP06
0186833980999992000010300004-15670-038930FM-12+000599999V0200501N002112200019N9999999N1+02601+02311100991ADDAA106000091GF104991021021008001041001KA1240M+02981MA1999999100941MD1999999+0021REMSYN076AAXX  03004 83398 325// 40504 10260 20231 30094 40099 82240 333 10298 58002;EQDQ01  00002PRCP06
0186833980999992000010312004-15670-038930FM-12+000599999V0203601N003110450019N0100001N1+02821+02361100941ADDAA106000091GF106991031051008001041001KA1240N+02251MA1999999100891MD1999999+0001REMSYN076AAXX  03124 83398 32597 63606 10282 20236 30089 40094 83540 333 20225 58000;EQDQ01  00002PRCP06
0167833980999992000010318004-15670-038930FM-12+000599999V0200501N003111050019N0200001N1+02881+02371100711ADDAA106000091GF105991021051008001041011MA1999999100661MD1999999-0041REMSYN070AAXX  03184 83398 32598 50506 10288 20237 30066 40071 82541 333 59004;EQDQ01  00002PRCP06
0201833980999992000010400004-15670-038930FM-12+000599999V0200501N002110450019N9999999N1+02561+02311101011ADDAA106002091AY151061AY221061GF106991041051008001021001KA1240M+02961MA1999999100961MD1999999+0021MW1021REMSYN088AAXX  04004 83398 215// 60504 10256 20231 30096 40101 70252 84520 333 10296 58002 60021;
0201833980999992000010412004-15670-038930FM-12+000599999V0200501N002110450019N0100001N1+02771+02401101201ADDAA124005191AY161061AY221061GF106991041051004501041001KA1240N+02311MA1999999101151MD1999999+0261MW1031REMSYN088AAXX  04124 83398 21497 60504 10277 20240 30115 40120 70362 84540 333 20231 58026 60054;
0182833980999992000010418004-15670-038930FM-12+000599999V0200501N002112200019N0200001N1+02801+02381101041ADDAA106002091AY151061AY221061GF104991021021008001041001MA1999999100991MD1999999+0331MW1011REMSYN082AAXX  04184 83398 21598 40504 10280 20238 30099 40104 70152 82240 333 58033 60021;
0186833980999992000010500004-15670-038930FM-12+000599999V0200501N001012200019N9999999N1+02601+02351101021ADDAA106000091GF103991021021008001041001KA1240M+02941MA1999999100971MD1999999+0011REMSYN076AAXX  05004 83398 325// 30502 10260 20235 30097 40102 82240 333 10294 58001;EQDQ01  00002PRCP06
0173833980999992000010512004-15670-038930FM-12+000599999V0200901N002110450019N0200001N1+02861+02351101221ADDAA124002091GF105991031021004501041041KA1240N+02151MA1999999101171MD1999999+0021REMSYN082AAXX  05124 83398 22498 50904 10286 20235 30117 40122 83244 333 20215 58002 60024;
0182833980999992000010518004-15670-038930FM-12+000599999V0201401N002110450019N0100001N1+02831+02401101101ADDAA106004191AY161061AY221061GF106991031051004501041041MA1999999101051MD1999999+0061MW1031REMSYN082AAXX  05184 83398 21497 61404 10283 20240 30105 40110 70362 83544 333 58006 60041;
0173833980999992000010612004-15670-038930FM-12+000599999V0201401N002110450019N0100001N1+02801+02421101251ADDAA124004191GF107991041051008001041011KA1240N+02211MA1999999101201MD1999999+0031REMSYN082AAXX  06124 83398 22597 71404 10280 20242 30120 40125 84541 333 20221 58003 60044;
0186833980999992000010700004-15670-038930FM-12+000599999V0201901N001012200019N9999999N1+02591+02251101081ADDAA106000091GF103991031011008001001001KA1240M+02901MA1999999101031MD1999999-0051REMSYN076AAXX  07004 83398 325// 31902 10259 20225 30103 40108 83100 333 10290 59005;EQDQ01  00002PRCP06
0201833980999992000010712004-15670-038930FM-12+000599999V0200901N002110042019N0040001N1+02531+02351101181ADDAA124006191AY151061AY221061GF108991061071004501021999KA1240N+02181MA1999999101131MD1999999-0071MW1021REMSYN088AAXX  07124 83398 21496 80904 10253 20235 30113 40118 70252 8672/ 333 20218 59007 60064;
0182833980999992000010718004-15670-038930FM-12+000599999V0200901N002110450019N0040001N1+02681+02311101101ADDAA106003091AY151061AY221061GF106991041051004501021001MA1999999101051MD1999999+0011MW1021REMSYN082AAXX  07184 83398 21496 60904 10268 20231 30105 40110 70252 84520 333 58001 60031;
0201833980999992000010800004-15670-038930FM-12+000599999V0201801N001010075019N9999999N1+02371+02211101101ADDAA106004191AY161061AY221061GF107991051051008001021001KA1240M+02851MA1999999101051MD1999999+0021MW1021REMSYN088AAXX  08004 83398 215// 71802 10237 20221 30105 40110 70262 85520 333 10285 58002 60041;
0201833980999992000010812004-15670-038930FM-12+000599999V0200501N001010450019N0040001N1+02471+02251101311ADDAA124011991AY161061AY221061GF106991041051008001021001KA1240N+02161MA1999999101261MD1999999+0131MW1021REMSYN088AAXX  08124 83398 21596 60502 10247 20225 30126 40131 70262 84520 333 20216 58013 60124;
0186833980999992000010900004-15670-038930FM-12+000599999V0209999C000012200019N9999999N1+02541+02331101171ADDAA106000091GF103991021051008001041001KA1240M+02841MA1999999101121MD1999999+0071REMSYN076AAXX  09004 83398 325// 30000 10254 20233 30112 40117 82540 333 10284 58007;EQDQ01  00002PRCP06
0167833980999992000010918004-15670-038930FM-12+000599999V0201401N003110450019N0100001N1+02641+02311101231ADDAA106000091GF106991031051008001021001MA1999999101181MD1999999+0161REMSYN070AAXX  09184 83398 32597 61406 10264 20231 30118 40123 83520 333 58016;EQDQ01  00002PRCP06
0186833980999992000011000004-15670-038930FM-12+000599999V0209999C000010450019N9999999N1+02521+02251101361ADDAA106000091GF105991031051008001021001KA1240M+02861MA1999999101311MD1999999+0191REMSYN076AAXX  10004 83398 325// 50000 10252 20225 30131 40136 83520 333 10286 58019;EQDQ01  00002PRCP06
0201833980999992000011012004-15670-038930FM-12+000599999V0209999C000010042019N0040001N1+02381+02261101461ADDAA124014091AY161061AY221061GF108991051071004501021999KA1240N+02091MA1999999101411MD1999999+0011MW1601REMSYN088AAXX  10124 83398 21496 80000 10238 20226 30141 40146 76062 8572/ 333 20209 58001 60144;
0148833980999992000011018004-15670-038930FM-12+000599999V0200101N003112200019N0200001N1+02861+02351101191ADDAA106000021GF104991021021008001041041MA1999999101141MD1999999-0041REMSYN070AAXX  10184 83398 32598 40106 10286 20235 30114 40119 82244 333 59004;
0186833980999992000011100004-15670-038930FM-12+000599999V0201401N002112200019N9999999N1+02601+02191101201ADDAA106000091GF103991021011008001041001KA1240M+02981MA1999999101151MD1999999-0161REMSYN076AAXX  11004 83398 325// 31404 10260 20219 30115 40120 82140 333 10298 59016;EQDQ01  00002PRCP06
0186833980999992000011112004-15670-038930FM-12+000599999V0201401N002112200019N0200001N1+02781+02231101391ADDAA106000091GF103991031021008001001001KA1240N+02151MA1999999101341MD1999999-0071REMSYN076AAXX  11124 83398 32598 31404 10278 20223 30134 40139 83200 333 20215 59007;EQDQ01  00002PRCP06
0167833980999992000011118004-15670-038930FM-12+000599999V0200901N003110450019N0200001N1+02821+02331101051ADDAA106000091GF106991041021008001041001MA1999999101001MD1999999-0141REMSYN070AAXX  11184 83398 32598 60906 10282 20233 30100 40105 84240 333 59014;EQDQ01  00002PRCP06
0186833980999992000011200004-15670-038930FM-12+000599999V0200901N001012200019N9999999N1+02621+02251101081ADDAA106000091GF104991021011008001051001KA1240M+02961MA1999999101031MD1999999-0121REMSYN076AAXX  12004 83398 325// 40902 10262 20225 30103 40108 82150 333 10296 59012;EQDQ01  00002PRCP06
0201833980999992000011212004-15670-038930FM-12+000599999V0203601N002110450019N0100001N1+02781+01361101271ADDAA124002091AY151061AY221061GF105991031051008001041021KA1240N+02161MA1999999101221MD1999999-0121MW1011REMSYN088AAXX  12124 83398 21597 53604 10278 20136 30122 40127 70152 83542 333 20216 59012 60024;
0167833980999992000011218004-15670-038930FM-12+000599999V0200901N002112200019N0200001N1+02841+02351101061ADDAA106000091GF104991021021008001041001MA1999999101011MD1999999+0011REMSYN070AAXX  12184 83398 32598 40904 10284 20235 30101 40106 82240 333 58001;EQDQ01  00002PRCP06
0186833980999992000011300004-15670-038930FM-12+000599999V0200501N002110450019N9999999N1+02651+02331101101ADDAA106000091GF106991041051008001041001KA1240M+02921MA1999999101051MD1999999+0021REMSYN076AAXX  13004 83398 325// 60504 10265 20233 30105 40110 84540 333 10292 58002;EQDQ01  00002PRCP06
0186833980999992000011312004-15670-038930FM-12+000599999V0209999C000010450019N0100001N1+02741+02361100281ADDAA106000091GF106991041051008001041001KA1240N+02211MA1999999101231MD1999999+0011REMSYN076AAXX  13124 83398 32597 60000 10274 20236 30123 40028 84540 333 20221 58001;EQDQ01  00002PRCP06
0167833980999992000011318004-15670-038930FM-12+000599999V0203601N004111050019N0200001N1+02841+02311101011ADDAA106000091GF105991021051008001041011MA1999999100961MD1999999-0051REMSYN070AAXX  13184 83398 32598 53608 10284 20231 30096 40101 82541 333 59005;EQDQ01  00002PRCP06
0190833980999992000011400004-15670-038930FM-12+000599999V0200501N001012200019N9999999N1+02621+02211101211ADDAA199000091GF102991011011008001041001KA1240M+02941MA1999999101161MD1999999+0111REMSYN080    AAXX  14004 83398 325// 20502 10262 20221 30116 40121 81140 333 10294 58011;EQDQ01  00002PRCP99
0190833980999992000011412004-15670-038930FM-12+000599999V0200501N002110075019N0100001N1+02801+02221101201ADDAA199000091GF106991051051008001041001KA1240N+02091MA1999999101151MD1999999-0081REMSYN080    AAXX  14124 83398 32597 60504 10280 20222 30115 40120 85540 333 20209 59008;EQDQ01  00002PRCP99
0171833980999992000011418004-15670-038930FM-12+000599999V0200501N003112200019N0200001N1+02901+02271100971ADDAA199000091GF102991021021008001001001MA1999999100921MD1999999+0011REMSYN074    AAXX  14184 83398 32598 20506 10290 20227 30092 40097 82200 333 58001;EQDQ01  00002PRCP99
0190833980999992000011500004-15670-038930FM-12+000599999V0200501N001012200019N9999999N1+02531+02231101001ADDAA199000091GF102991021011008001001001KA1240M+02941MA1999999100951MD1999999-0211REMSYN080    AAXX  15004 83398 325// 20502 10253 20223 30095 40100 82100 333 10294 59021;EQDQ01  00002PRCP99
0190833980999992000011512004-15670-038930FM-12+000599999V0200501N000512200019N0200001N1+02811+02241101021ADDAA199000091GF103991021021008001041001KA1240N+02021MA1999999100971MD1999999+0181REMSYN080    AAXX  15124 83398 32598 30501 10281 20224 30097 40102 82240 333 20202 58018;EQDQ01  00002PRCP99
0171833980999992000011518004-15670-038930FM-12+000599999V0200501N004110450019N0200001N1+02921+01321100821ADDAA199000091GF106991031021008001041011MA1999999100771MD1999999-0151REMSYN074    AAXX  15184 83398 32598 60508 10292 20132 30077 40082 83241 333 59015;EQDQ01  00002PRCP99
0190833980999992000011612004-15670-038930FM-12+000599999V0203201N002110450019N0100001N1+02841+02311100941ADDAA199000091GF106991041051008001041011KA1240N+02091MA1999999100891MD1999999-0061REMSYN080    AAXX  16124 83398 32597 63204 10284 20231 30089 40094 84541 333 20209 59006;EQDQ01  00002PRCP99
0171833980999992000011618004-15670-038930FM-12+000599999V0203601N003110450019N0200001N1+02901+02391100751ADDAA199000091GF105991031021008001041011MA1999999100701MD1999999-0071REMSYN074    AAXX  16184 83398 32598 53606 10290 20239 30070 40075 83241 333 59007;EQDQ01  00002PRCP99
0190833980999992000011700004-15670-038930FM-12+000599999V0203601N003110450019N9999999N1+02591+02291100931ADDAA199000091GF105991031021008001041011KA1240M+03011MA1999999100881MD1999999-0021REMSYN080    AAXX  17004 83398 325// 53606 10259 20229 30088 40093 83241 333 10301 59002;EQDQ01  00002PRCP99
0190833980999992000011712004-15670-038930FM-12+000599999V0203601N003110450019N0100001N1+02861+02311101121ADDAA199000091GF105991031051008001041001KA1240N+02101MA1999999101071MD1999999+0181REMSYN080    AAXX  17124 83398 32597 53606 10286 20231 30107 40112 83540 333 20210 58018;EQDQ01  00002PRCP99
0206833980999992000011800004-15670-038930FM-12+000599999V0200501N001012200019N9999999N1+02581+02351101071ADDAA199000091GF102991999011008001001001KA1240M+02981MA1999999101021MD1999999+0141REMSYN080    AAXX  18004 83398 325// 20502 10258 20235 30102 40107 81100 333 10298 58014;EQDQ01+000012SCOTLCQ02  00002PRCP99
0190833980999992000011812004-15670-038930FM-12+000599999V0203601N004110450019N0100001N1+02901+02301101121ADDAA199000091GF105991031051008001041001KA1240N+02001MA1999999101071MD1999999+0001REMSYN080    AAXX  18124 83398 32597 53608 10290 20230 30107 40112 83540 333 20200 58000;EQDQ01  00002PRCP99
0171833980999992000011818004-15670-038930FM-12+000599999V0203601N004112200019N0200001N1+02941+02451100921ADDAA199000091GF102991021011008001001001MA1999999100871MD1999999-0011REMSYN074    AAXX  18184 83398 32598 23608 10294 20245 30087 40092 82100 333 59001;EQDQ01  00002PRCP99
0190833980999992000011900004-15670-038930FM-12+000599999V0203601N002112200019N9999999N1+02621+02351101001ADDAA199000091GF104991031021008001041001KA1240M+02991MA1999999100951MD1999999-0071REMSYN080    AAXX  19004 83398 325// 43604 10262 20235 30095 40100 83240 333 10299 59007;EQDQ01  00002PRCP99
0190833980999992000011912004-15670-038930FM-12+000599999V0203601N002110450019N0100001N1+02921+02411101031ADDAA199000091GF106991041051008001041001KA1240N+02291MA1999999100981MD1999999-0091REMSYN080    AAXX  19124 83398 32597 63604 10292 20241 30098 40103 84540 333 20229 59009;EQDQ01  00002PRCP99
0167833980999992000011918004-15670-038930FM-12+000599999V0203601N005110450019N0200001N1+02961+02451100761ADDAA199000091GF106991031021008001041011MA1999999100711MD1999999-0161REMSYN070AAXX  19184 83398 32598 63610 10296 20245 30071 40076 83241 333 59016;EQDQ01  00002PRCP99
0171833980999992000012000004-15670-038930FM-12+000599999V0203601N001012200019N9999999N1+02651+02391101271ADDAA199000091GF103991999999008001999999KA1240M+03081MA1999999101221REMSYN075AAXX  20004 83398 325// 33602 10265 20239 30122 40127 8240 333 10308 59027;EQDQ01  00002PRCP99
0201833980999992000012012004-15670-038930FM-12+000599999V0203201N001010075019N0100001N1+02661+02461100881ADDAA124003091AY191061AY261061GF107991051051008001021001KA1240N+02301MA1999999100831MD1999999-0151MW1021REMSYN088AAXX  20124 83398 21597 73202 10266 20246 30083 40088 70296 85520 333 20230 59015 60034;
0182833980999992000012018004-15670-038930FM-12+000599999V0203601N005110075019N0100001N1+02921+02411100611ADDAA106002091AY161061AY221061GF107991051051008001021001MA1999999100561MD1999999-0151MW1021REMSYN082AAXX  20184 83398 21597 73610 10292 20241 30056 40061 70262 85520 333 59015 60021;
0156833980999992000012100004-15670-038930FM-12+000599999V0209999C000010450019N9999999N1+02661+02501100791ADDGF107991041051008001041041KA1240M+02991MA1999999100741MD1999999-0481REMSYN076AAXX  21004 83398 225// 70000 10266 20250 30074 40079 84544 333 10299 59048;
0173833980999992000012112004-15670-038930FM-12+000599999V0202701N002110075019N0100001N1+02581+02321100771ADDAA124004191GF108991051051008001021999KA1240N+02201MA1999999100721MD1999999-0111REMSYN082AAXX  21124 83398 21597 82704 10258 20232 30072 40077 8552/ 333 20220 59011 60044;
0167833980999992000012118004-15670-038930FM-12+000599999V0203601N004110075019N0100001N1+02641+02391100611ADDAA199000091GF108991051051008001021999MA1999999100561MD1999999+0001REMSYN070AAXX  21184 83398 32597 83608 10264 20239 30056 40061 8552/ 333 58000;EQDQ01  00002PRCP99
0173833980999992000012212004-15670-038930FM-12+000599999V0203601N002110450019N0100001N1+02831+02461101041ADDAA124016091GF106991031051008001041041KA1240N+02261MA1999999100991MD1999999+0271REMSYN082AAXX  22124 83398 22597 63604 10283 20246 30099 40104 83544 333 20226 58027 60164;
0167833980999992000012218004-15670-038930FM-12+000599999V0200501N005119999999N0200001N1+02771+02501100791ADDAA199000091GF105991031051008001999999MA1999999100741MD1999999+0181REMSYN070AAXX  22184 83398 32598 50510 10277 20250 30074 40079 835// 333 58018;EQDQ01  00002PRCP99
0186833980999992000012300004-15670-038930FM-12+000599999V0203601N002110450019N9999999N1+02541+02361101821ADDAA199000091GF105991031051008001031001KA1240M+02981MA1999999100771MD1999999-0091REMSYN076AAXX  23004 83398 325// 53604 10254 20236 30077 40182 83530 333 10298 59009;EQDQ01  00002PRCP99
0201833980999992000012312004-15670-038930FM-12+000599999V0203601N003110450019N0100001N1+02581+02371100941ADDAA124002091AY191061AY261061GF108991041051008001021999KA1240N+02301MA1999999100891MD1999999-0101MW1021REMSYN088AAXX  23124 83398 21597 83606 10258 20237 30089 40094 70296 8452/ 333 20230 59010 60024;
0167833980999992000012318004-15670-038930FM-12+000599999V0200501N005110075019N0100001N1+02861+02421100651ADDAA199000091GF107991051051008001021001MA1999999100601MD1999999-0141REMSYN070AAXX  23184 83398 32597 70510 10286 20242 30060 40065 85520 333 59014;EQDQ01  00002PRCP99
0186833980999992000012400004-15670-038930FM-12+000599999V0203601N003112200019N9999999N1+02641+02441100961ADDAA199000091GF103991011021008001041041KA1240M+02931MA1999999100911MD1999999+0141REMSYN076AAXX  24004 83398 325// 33606 10264 20244 30091 40096 81244 333 10293 58014;EQDQ01  00002PRCP99
0186833980999992000012412004-15670-038930FM-12+000599999V0203201N002110450019N0100001N1+02981+02471100841ADDAA199000091GF106991031051008001041001KA1240N+02361MA1999999100791MD1999999-0101REMSYN076AAXX  24124 83398 32597 63204 10298 20247 30079 40084 83540 333 20236 59010;EQDQ01  00002PRCP99
0186833980999992000012500004-15670-038930FM-12+000599999V0203601N004110450019N9999999N1+02621+02481100921ADDAA199000091GF106991031051008001031001KA1240M+03051MA1999999100871MD1999999-0041REMSYN076AAXX  25004 83398 325// 63608 10262 20248 30087 40092 83530 333 10305 59004;EQDQ01  00002PRCP99
0173833980999992000012512004-15670-038930FM-12+000599999V0203601N003110075019N0100001N1+02921+02601101091ADDAA124006191GF107991051051008001021001KA1240N+02341MA1999999101041MD1999999+0251REMSYN082AAXX  25124 83398 21597 73606 10292 20260 30104 40109 85520 333 20234 58025 60064;
0167833980999992000012518004-15670-038930FM-12+000599999V0200501N003112200019N0200001N1+02921+02581100811ADDAA199000091GF103991021011008001041011MA1999999100761MD1999999+0121REMSYN070AAXX  25184 83398 32598 30506 10292 20258 30076 40081 82141 333 58012;EQDQ01  00002PRCP99
0186833980999992000012600004-15670-038930FM-12+000599999V0200501N003112200019N9999999N1+02661+02481101091ADDAA199000091GF102991011011008001041001KA1240M+02991MA1999999101041MD1999999+0141REMSYN076AAXX  26004 83398 325// 20506 10266 20248 30104 40109 81140 333 10299 58014;EQDQ01  00002PRCP99
0186833980999992000012612004-15670-038930FM-12+000599999V0203601N004110450019N0100001N1+02941+02561101201ADDAA199000091GF106991031051008001041001KA1240N+02401MA1999999101151MD1999999+0111REMSYN076AAXX  26124 83398 32597 63608 10294 20256 30115 40120 83540 333 20240 58011;EQDQ01  00002PRCP99
0167833980999992000012618004-15670-038930FM-12+000599999V0203601N005110450019N0200001N1+02901+02431100861ADDAA199000091GF105991031021008001041011MA1999999100811MD1999999+0051REMSYN070AAXX  26184 83398 32598 53610 10290 20243 30081 40086 83241 333 58005;EQDQ01  00002PRCP99
0186833980999992000012712004-15670-038930FM-12+000599999V0203601N003110450019N0100001N1+02801+02381101131ADDAA199000091GF106991021051008001041011KA1240N+02351MA1999999101081MD1999999-0071REMSYN076AAXX  27124 83398 32597 63606 10280 20238 30108 40113 82541 333 20235 59007;EQDQ01  00002PRCP99
0167833980999992000012718004-15670-038930FM-12+000599999V0200501N005110450019N0200001N1+02881+02461100721ADDAA199000091GF106991021051008001041011MA1999999100671MD1999999-0141REMSYN070AAXX  27184 83398 32598 60510 10288 20246 30067 40072 82541 333 59014;EQDQ01  00002PRCP99
0167833980999992000012818004-15670-038930FM-12+000599999V0201401N003110075019N0100001N1+02801+02421100861ADDAA199000091GF107991051051008001021001MA1999999100811MD1999999+0141REMSYN070AAXX  28184 83398 32597 71406 10280 20242 30081 40086 85520 333 58014;EQDQ01  00002PRCP99
0186833980999992000012912004-15670-038930FM-12+000599999V0201801N003110450019N0100001N1+02761+02481101291ADDAA199000091GF106991041051008001021001KA1240N+02271MA1999999101241MD1999999+0121REMSYN076AAXX  29124 83398 32597 61806 10276 20248 30124 40129 84520 333 20227 58012;EQDQ01  00002PRCP99
0167833980999992000012918004-15670-038930FM-12+000599999V0200901N003110450019N0200001N1+02781+02461101011ADDAA199000091GF106991031051008001041011MA1999999100961MD1999999+0151REMSYN070AAXX  29184 83398 32598 60906 10278 20246 30096 40101 83541 333 58015;EQDQ01  00002PRCP99
0186833980999992000013000004-15670-038930FM-12+000599999V0201801N002110450019N9999999N1+02521+02361101221ADDAA199000091GF105991031051008001031001KA1240M+03021MA1999999101171MD1999999+0071REMSYN076AAXX  30004 83398 325// 51804 10252 20236 30117 40122 83530 333 10302 58007;EQDQ01  00002PRCP99
0186833980999992000013012004-15670-038930FM-12+000599999V0203601N001010450019N0100001N1+02861+02351101461ADDAA199000091GF107991041051008001031001KA1240N+02521MA1999999101411MD1999999+0171REMSYN076AAXX  30124 83398 32597 73602 10286 20235 30141 40146 84530 333 20252 58017;EQDQ01  00002PRCP99
0167833980999992000013018004-15670-038930FM-12+000599999V0200501N004112200019N0200001N1+02951+02401101241ADDAA199000091GF103991021011008001041011MA1999999101191MD1999999+0231REMSYN070AAXX  30184 83398 32598 30508 10295 20240 30119 40124 82141 333 58023;EQDQ01  00002PRCP99
0186833980999992000013100004-15670-038930FM-12+000599999V0200501N001012200019N9999999N1+02701+02431101441ADDAA199000091GF102991011011008001041001KA1240M+03051MA1999999101391MD1999999+0221REMSYN076AAXX  31004 83398 325// 20502 10270 20243 30139 40144 81140 333 10305 58022;EQDQ01  00002PRCP99
0186833980999992000013112004-15670-038930FM-12+000599999V0200501N002110450019N0100001N1+02881+02301101521ADDAA199000091GF106991031051008001041011KA1240N+02211MA1999999101471MD1999999+0061REMSYN076AAXX  31124 83398 32597 60504 10288 20230 30147 40152 83541 333 20221 58006;EQDQ01  00002PRCP99
0167833980999992000013118004-15670-038930FM-12+000599999V0203601N003110450019N0200001N1+02961+02421101321ADDAA199000091GF106991041021008001041011MA1999999101271MD1999999+0081REMSYN070AAXX  31184 83398 32598 63606 10296 20242 30127 40132 84241 333 58008;EQDQ01  00002PRCP99
0186833980999992000020112004-15670-038930FM-12+000599999V0203601N003110450019N0100001N1+02941+02311101431ADDAA199000091GF106991031051008001041011KA1240N+02201MA1999999101381MD1999999-0091REMSYN076AAXX  01124 83398 32597 63606 10294 20231 30138 40143 83541 333 20220 59009;EQDQ01  00002PRCP99
0167833980999992000020118004-15670-038930FM-12+000599999V0200501N003112200019N0200001N1+02941+02361101011ADDAA199000091GF103991021021008001041041MA1999999100961MD1999999-0311REMSYN070AAXX  01184 83398 32598 30506 10294 20236 30096 40101 82244 333 59031;EQDQ01  00002PRCP99
0186833980999992000020200004-15670-038930FM-12+000599999V0200501N002112200019N9999999N1+02641+02391101061ADDAA199000091GF102991011011008001041001KA1240M+03021MA1999999101021MD1999999-0371REMSYN076AAXX  02004 83398 325// 20504 10264 20239 30102 40106 81140 333 10302 59037;EQDQ01  00002PRCP99
0186833980999992000020212004-15670-038930FM-12+000599999V0203601N002111050019N0200001N1+02961+02421100961ADDAA199000091GF105991021011008001041041KA1240N+02341MA1999999100911MD1999999-0471REMSYN076AAXX  02124 83398 32598 53604 10296 20242 30091 40096 82144 333 20234 59047;EQDQ01  00002PRCP99
0186833980999992000020300004-15670-038930FM-12+000599999V0202301N005110075019N9999999N1+02721+02521100971ADDAA199000091GF108991051051008001021999KA1240M+03071MA1999999100921MD1999999+0091REMSYN076AAXX  03004 83398 325// 82310 10272 20252 30092 40097 8552/ 333 10307 58009;EQDQ01  00002PRCP99
0201833980999992000020312004-15670-038930FM-12+000599999V0203201N002110450019N0100001N1+02761+02481100821ADDAA124015091AY191061AY261061GF106991031051008001051001KA1240N+02291MA1999999100771MD1999999-0141MW1021REMSYN088AAXX  03124 83398 21597 63204 10276 20248 30077 40082 70296 83550 333 20229 59014 60154;
0167833980999992000020318004-15670-038930FM-12+000599999V0203601N003112200019N0200001N1+02981+02621100371ADDAA199000091GF103991021021008001041001MA1999999100321MD1999999-0261REMSYN070AAXX  03184 83398 32598 33606 10298 20262 30032 40037 82240 333 59026;EQDQ01  00002PRCP99
0186833980999992000020400004-15670-038930FM-12+000599999V0200501N001010075019N9999999N1+02471+02271100621ADDAA199000091GF108991051051008001021999KA1240M+03211MA1999999100571MD1999999-0351REMSYN076AAXX  04004 83398 325// 80502 10247 20227 30057 40062 8552/ 333 10321 59035;EQDQ01  00002PRCP99
0201833980999992000020412004-15670-038930FM-12+000599999V0202701N001010450019N0040001N1+02621+02441101021ADDAA124008991AY191061AY261061GF107991041051008001021001KA1240N+02271MA1999999100971MD1999999+0201MW1021REMSYN088AAXX  04124 83398 21596 72702 10262 20244 30097 40102 70296 84520 333 20227 58020 60094;
0167833980999992000020418004-15670-038930FM-12+000599999V0203601N003110450019N0200001N1+02901+02501101111ADDAA199000091GF105991021021008001051001MA1999999101061MD1999999+0741REMSYN070AAXX  04184 83398 32598 53606 10290 20250 30106 40111 82250 333 58074;EQDQ01  00002PRCP99
0186833980999992000020500004-15670-038930FM-12+000599999V0203601N002112200019N9999999N1+02621+02411100931ADDAA199000091GF103991021021008001041001KA1240M+03141MA1999999100881MD1999999+0311REMSYN076AAXX  05004 83398 325// 33604 10262 20241 30088 40093 82240 333 10314 58031;EQDQ01  00002PRCP99
0186833980999992000020512004-15670-038930FM-12+000599999V0203601N003110450019N0200001N1+03041+02381101091ADDAA199000091GF106991021051008001041011KA1240N+02301MA1999999101041MD1999999+0071REMSYN076AAXX  05124 83398 32598 63606 10304 20238 30104 40109 82541 333 20230 58007;EQDQ01  00002PRCP99
0167833980999992000020518004-15670-038930FM-12+000599999V0203601N005110450019N0200001N1+02961+02561100891ADDAA199000091GF106991021051008001041011MA1999999100841MD1999999-0221REMSYN070AAXX  05184 83398 32598 63610 10296 20256 30084 40089 82541 333 59022;EQDQ01  00002PRCP99
0186833980999992000020612004-15670-038930FM-12+000599999V0203201N003112200019N0200001N1+03021+02661101241ADDAA199000091GF104991031021008001041001KA1240N+02401MA1999999101191MD1999999+0151REMSYN076AAXX  06124 83398 32598 43206 10302 20266 30119 40124 83240 333 20240 58015;EQDQ01  00002PRCP99
0167833980999992000020618004-15670-038930FM-12+000599999V0203601N003112200019N0200001N1+02931+02491101091ADDAA199000091GF104991021021008001041041MA1999999101041MD1999999+0201REMSYN070AAXX  06184 83398 32598 43606 10293 20249 30104 40109 82244 333 58020;EQDQ01  00002PRCP99
0186833980999992000020700004-15670-038930FM-12+000599999V0203601N001012200019N9999999N1+02641+02481101171ADDAA199000091GF103991021021008001041001KA1240M+03151MA1999999101121MD1999999-0051REMSYN076AAXX  07004 83398 325// 33602 10264 20248 30112 40117 82240 333 10315 59005;EQDQ01  00002PRCP99
0167833980999992000020718004-15670-038930FM-12+000599999V0200501N003110450019N0100001N1+02831+02481101221ADDAA199000091GF106991031051008001041041MA1999999101171MD1999999+0131REMSYN070AAXX  07184 83398 32597 60506 10283 20248 30117 40122 83544 333 58013;EQDQ01  00002PRCP99
0186833980999992000020800004-15670-038930FM-12+000599999V0203601N002110450019N9999999N1+02641+02441101211ADDAA199000091GF105991021051008001031001KA1240M+03031MA1999999101161MD1999999+0041REMSYN076AAXX  08004 83398 325// 53604 10264 20244 30116 40121 82530 333 10303 58004;EQDQ01  00002PRCP99
0158833980999992000020812004-15670-038930FM-12+000599999V0203601N002112200019N0200001N1+02941+02361101371ADDAA199000091GF104991031011008001041001MA1999999101321REMSYN075AAXX  08124 83398 32598 43604 10294 20236 30132 40137 83140 333 2026 58007;EQDQ01  00002PRCP99
0167833980999992000020818004-15670-038930FM-12+000599999V0203601N004110450019N0200001N1+02941+02381101091ADDAA199000091GF106991031021008001041011MA1999999101041MD1999999-0131REMSYN070AAXX  08184 83398 32598 63608 10294 20238 30104 40109 83241 333 59013;EQDQ01  00002PRCP99
0201833980999992000020912004-15670-038930FM-12+000599999V0200501N002110450019N0200001N1+02901+02411101471ADDAA124002091AY151061AY221061GF105991041011008001041001KA1240N+02221MA1999999101421MD1999999+0101MW1011REMSYN088AAXX  09124 83398 21598 50504 10290 20241 30142 40147 70152 84140 333 20222 58010 60024;
0167833980999992000020918004-15670-038930FM-12+000599999V0200501N002112200019N0200001N1+02971+02421101161ADDAA199000091GF103991011011008001041041MA1999999101111MD1999999+0071REMSYN070AAXX  09184 83398 32598 30504 10297 20242 30111 40116 81144 333 58007;EQDQ01  00002PRCP99
0186833980999992000021012004-15670-038930FM-12+000599999V0200501N002112200019N0200001N1+02931+02361101331ADDAA199000091GF104991021011008001041041KA1240N+02241MA1999999101281MD1999999-0141REMSYN076AAXX  10124 83398 32598 40504 10293 20236 30128 40133 82144 333 20224 59014;EQDQ01  00002PRCP99
0182833980999992000021018004-15670-038930FM-12+000599999V0202301N001010042019N0040001N1+02361+02191101261ADDAA124008991AY161061AY221061GF108991051051004501021999MA1999999101211MD1999999+0101MW1601REMSYN082AAXX  10184 83398 21496 82302 10236 20219 30121 40126 76062 8552/ 333 58010 60094;
0167833980999992000021100004-15670-038930FM-12+000599999V0209999C000010075019N9999999N1+02401+02231101371ADDAA199000021GF108991051051008001021999KA1240M+02971MA1999999101321MD1999999+0051REMSYN076AAXX  11004 83398 325// 80000 10240 20223 30132 40137 8552/ 333 10297 58005;
0201833980999992000021112004-15670-038930FM-12+000599999V0200501N001010450019N0100001N1+02801+02481101401ADDAA124010991AY151061AY221061GF106991021021008001051001KA1240N+02151MA1999999101351MD1999999+0071MW1011REMSYN088AAXX  11124 83398 21597 60502 10280 20248 30135 40140 70152 82250 333 20215 58007 60114;
0167833980999992000021118004-15670-038930FM-12+000599999V0200501N002112200019N0200001N1+02971+02441101171ADDAA199000091GF103991021021008001051001MA1999999101121MD1999999-0091REMSYN070AAXX  11184 83398 32598 30504 10297 20244 30112 40117 82250 333 59009;EQDQ01  00002PRCP99
0186833980999992000021200004-15670-038930FM-12+000599999V0200901N001012200019N9999999N1+02691+02351101401ADDAA199000091GF104991031021008001041001KA1240M+02981MA1999999101351MD1999999+0031REMSYN076AAXX  12004 83398 325// 40902 10269 20235 30135 40140 83240 333 10298 58003;EQDQ01  00002PRCP99
0201833980999992000021212004-15670-038930FM-12+000599999V0200901N001012200019N0200001N1+02861+02351101411ADDAA124001091AY151061AY221061GF103991031011008001001001KA1240N+02191MA1999999101361MD1999999+0011MW1011REMSYN088AAXX  12124 83398 21598 30902 10286 20235 30136 40141 70152 83100 333 20219 58001 60014;
0167833980999992000021218004-15670-038930FM-12+000599999V0200901N002112200019N0200001N1+02931+02381101191ADDAA199000091GF102991021011008001001001MA1999999101141MD1999999+0021REMSYN070AAXX  12184 83398 32598 20904 10293 20238 30114 40119 82100 333 58002;EQDQ01  00002PRCP99
0186833980999992000021300004-15670-038930FM-12+000599999V0200901N002110075019N9999999N1+02711+02391101241ADDAA199000091GF106991051051008001041001KA1240M+02981MA1999999101191MD1999999-0161REMSYN076AAXX  13004 83398 325// 60904 10271 20239 30119 40124 85540 333 10298 59016;EQDQ01  00002PRCP99
0201833980999992000021312004-15670-038930FM-12+000599999V0200901N002110075019N0040001N1+02691+02461101421ADDAA124002091AY151061AY221061GF108991051051008001021999KA1240N+02211MA1999999101371MD1999999+0011MW1021REMSYN088AAXX  13124 83398 21596 80904 10269 20246 30137 40142 70252 8552/ 333 20221 58001 60024;
0167833980999992000021318004-15670-038930FM-12+000599999V0201401N003110450019N0200001N1+02991+02531101111ADDAA199000091GF106991031051008001041001MA1999999101061MD1999999-0081REMSYN070AAXX  13184 83398 32598 61406 10299 20253 30106 40111 83540 333 59008;EQDQ01  00002PRCP99
0186833980999992000021400004-15670-038930FM-12+000599999V0209999C000010450019N9999999N1+02591+02461101461ADDAA199000091GF106991041021008001041001KA1240M+03021MA1999999101411MD1999999-0221REMSYN076AAXX  14004 83398 325// 60000 10259 20246 30141 40146 84240 333 10302 59022;EQDQ01  00002PRCP99
0201833980999992000021412004-15670-038930FM-12+000599999V0201401N002110450019N0100001N1+02801+02441101581ADDAA124005191AY161061AY221061GF106991041051008001021001KA1240N+02201MA1999999101531MD1999999+0161MW1021REMSYN088AAXX  14124 83398 21597 61404 10280 20244 30153 40158 70262 84520 333 20220 58016 60054;
0167833980999992000021418004-15670-038930FM-12+000599999V0200901N002111050019N0200001N1+02891+02371101371ADDAA199000091GF105991021021008001041041MA1999999101321MD1999999+0261REMSYN070AAXX  14184 83398 32598 50904 10289 20237 30132 40137 82244 333 58026;EQDQ01  00002PRCP99
0186833980999992000021500004-15670-038930FM-12+000599999V0209999C000012200019N9999999N1+02411+02301101421ADDAA199000091GF102991011021008001041001KA1240M+03021MA1999999101371MD1999999-0041REMSYN076AAXX  15004 83398 325// 20000 10241 20230 30137 40142 81240 333 10302 59004;EQDQ01  00002PRCP99
0201833980999992000021512004-15670-038930FM-12+000599999V0209999C000010042019N0040001N1+02641+02421101441ADDAA124007191AY161061AY221061GF108991051071004501021999KA1240N+02171MA1999999101391MD1999999-0141MW1021REMSYN088AAXX  15124 83398 21496 80000 10264 20242 30139 40144 70262 8572/ 333 20217 59014 60074;
0182833980999992000021518004-15670-038930FM-12+000599999V0201401N002110450019N0100001N1+02821+02401101201ADDAA106029091AY161061AY221061GF105991021021008001051001MA1999999101151MD1999999-0171MW1011REMSYN082AAXX  15184 83398 21597 51404 10282 20240 30115 40120 70162 82250 333 59017 60291;
0156833980999992000021600004-15670-038930FM-12+000599999V0209999C000010450019N9999999N1+02441+02271101271ADDGF105991041051008001041001KA1240M+02901MA1999999101221MD1999999-0151REMSYN076AAXX  16004 83398 225// 50000 10244 20227 30122 40127 84540 333 10290 59015;
0201833980999992000021612004-15670-038930FM-12+000599999V0203601N003110450019N0100001N1+02801+02441101251ADDAA124005191AY161061AY221061GF106991041051008001041001KA1240N+02121MA1999999101201MD1999999-0191MW1021REMSYN088AAXX  16124 83398 21597 63606 10280 20244 30120 40125 70262 84540 333 20212 59019 60054;
0167833980999992000021618004-15670-038930FM-12+000599999V0200501N003110450019N0200001N1+02901+02411101021ADDAA199000091GF106991031051008001041011MA1999999100971MD1999999-0181REMSYN070AAXX  16184 83398 32598 60506 10290 20241 30097 40102 83541 333 59018;EQDQ01  00002PRCP99
0186833980999992000021700004-15670-038930FM-12+000599999V0203601N001012200019N9999999N1+02721+02391101221ADDAA199000091GF103991031011008001001001KA1240M+03051MA1999999101171MD1999999-0051REMSYN076AAXX  17004 83398 325// 33602 10272 20239 30117 40122 83100 333 10305 59005;EQDQ01  00002PRCP99
0186833980999992000021712004-15670-038930FM-12+000599999V0200501N002112200019N0200001N1+02901+02481101241ADDAA199000091GF103991021021008001041001KA1240N+02161MA1999999101191MD1999999-0011REMSYN076AAXX  17124 83398 32598 30504 10290 20248 30119 40124 82240 333 20216 59001;EQDQ01  00002PRCP99
0167833980999992000021718004-15670-038930FM-12+000599999V0200501N002112200019N0200001N1+02941+02471101051ADDAA199000091GF103991021021008001041001MA1999999101001MD1999999+0031REMSYN070AAXX  17184 83398 32598 30504 10294 20247 30100 40105 82240 333 58003;EQDQ01  00002PRCP99
0186833980999992000021800004-15670-038930FM-12+000599999V0200501N002112200019N9999999N1+02741+02451101241ADDAA199000091GF103991021021008001041001KA1240M+03051MA1999999101191MD1999999+0021REMSYN076AAXX  18004 83398 325// 30504 10274 20245 30119 40124 82240 333 10305 58002;EQDQ01  00002PRCP99
0173833980999992000021812004-15670-038930FM-12+000599999V0209999C000010075019N0040001N1+02341+02151101451ADDAA124026991GF108991051071008001021999KA1240N+02141MA1999999101401MD1999999+0211REMSYN082AAXX  18124 83398 21596 80000 10234 20215 30140 40145 8572/ 333 20214 58021 60274;
0182833980999992000021818004-15670-038930FM-12+000599999V0200501N003110075019N0100001N1+02681+02391101131ADDAA106005191AY161061AY221061GF107991051051008001021001MA1999999101081MD1999999+0081MW1021REMSYN082AAXX  18184 83398 21597 70506 10268 20239 30108 40113 70262 85520 333 58008 60051;
0186833980999992000021900004-15670-038930FM-12+000599999V0209999C000010450019N9999999N1+02401+02301101331ADDAA199000091GF105991031051008001041001KA1240M+02991MA1999999101281MD1999999+0091REMSYN076AAXX  19004 83398 325// 50000 10240 20230 30128 40133 83540 333 10299 58009;EQDQ01  00002PRCP99
0201833980999992000021912004-15670-038930FM-12+000599999V0202701N001010450019N0040001N1+02581+02311101471ADDAA124008991AY161061AY221061GF107991041051008001021001KA1240N+02201MA1999999101401MD1999999+0001MW1021REMSYN088AAXX  19124 83398 21596 72702 10258 20231 30140 40147 70262 84520 333 20220 58000 60094;
0167833980999992000021918004-15670-038930FM-12+000599999V0200901N002112200019N0200001N1+02881+02391101301ADDAA199000091GF103991021021008001041001MA1999999101251MD1999999+0171REMSYN070AAXX  19184 83398 32598 30904 10288 20239 30125 40130 82240 333 58017;EQDQ01  00002PRCP99
0186833980999992000022000004-15670-038930FM-12+000599999V0202301N001012200019N9999999N1+02481+02341101461ADDAA199000091GF104991031021008001041001KA1240M+02991MA1999999101411MD1999999+0131REMSYN076AAXX  20004 83398 325// 42302 10248 20234 30141 40146 83240 333 10299 58013;EQDQ01  00002PRCP99
0186833980999992000022012004-15670-038930FM-12+000599999V0201801N002110450019N0100001N1+02701+02371101421ADDAA199000091GF106991031051008001031001KA1240N+02141MA1999999101371MD1999999-0031REMSYN076AAXX  20124 83398 32597 61804 10270 20237 30137 40142 83530 333 20214 59003;EQDQ01  00002PRCP99
0167833980999992000022018004-15670-038930FM-12+000599999V0201401N003110450019N0200001N1+02921+02411101221ADDAA199000091GF105991031051008001041001MA1999999101171MD1999999-0081REMSYN070AAXX  20184 83398 32598 51406 10292 20241 30117 40122 83540 333 59008;EQDQ01  00002PRCP99
0186833980999992000022100004-15670-038930FM-12+000599999V0201801N001010450019N9999999N1+02501+02341101401ADDAA199000091GF106991041051008001041001KA1240M+03021MA1999999101351MD1999999-0061REMSYN076AAXX  21004 83398 325// 61802 10250 20234 30135 40140 84540 333 10302 59006;EQDQ01  00002PRCP99
0167833980999992000022118004-15670-038930FM-12+000599999V0201401N003110450019N0100001N1+02941+02401101161ADDAA199000091GF105991031051008001041001MA1999999101111MD1999999-0061REMSYN070AAXX  21184 83398 32597 51406 10294 20240 30111 40116 83540 333 59006;EQDQ01  00002PRCP99
0156833980999992000022200004-15670-038930FM-12+000599999V0209999C000010450019N9999999N1+02551+02401101381ADDGF106991041051008001041001KA1240M+02991MA1999999101331MD1999999-0021REMSYN076AAXX  22004 83398 215// 60000 10255 20240 30133 40138 84540 333 10299 59002;
0201833980999992000022212004-15670-038930FM-12+000599999V0202701N002110450019N0100001N1+02561+02351101391ADDAA124007991AY161061AY221061GF107991041051008001021001KA1240N+02211MA1999999101341MD1999999+0021MW1021REMSYN088AAXX  22124 83398 21597 72704 10256 20235 30134 40139 70262 84520 333 20221 58002 60084;
0182833980999992000022218004-15670-038930FM-12+000599999V0201401N002110450019N0100001N1+02801+02311101171ADDAA106005191AY161061AY221061GF106991041051008001021001MA1999999101121MD1999999+0011MW1021REMSYN082AAXX  22184 83398 21597 61404 10280 20231 30112 40117 70262 84520 333 58001 60051;
0172833980999992000022300004-15670-038930FM-12+000599999V0209999C000012200019N9999999N1+02471+02361101341ADDAA199000091GF103991021011008001041001KA1240M+02831MA1999999101291REMSYN076AAXX  23004 83398 325// 30000 10247 20236 30129 40134 82140 333 10283 95004;EQDQ01  00002PRCP99
0201833980999992000022312004-15670-038930FM-12+000599999V0202701N001010075019N0040001N1+02461+02351101421ADDAA124015091AY161061AY221061GF108991051071008001021999KA1240N+02171MA1999999101371MD1999999+0031MW1021REMSYN088AAXX  23124 83398 21596 82702 10246 20235 30137 40142 70262 8572/ 333 20217 58003 60154;
0186833980999992000022400004-15670-038930FM-12+000599999V0209999C000012200019N9999999N1+02501+02361101321ADDAA199000091GF102991011011008001041001KA1240M+02891MA1999999101271MD1999999-0021REMSYN076AAXX  24004 83398 325// 20000 10250 20236 30127 40132 81140 333 10289 59002;EQDQ01  00002PRCP99
0173833980999992000022412004-15670-038930FM-12+000599999V0202701N002110450019N0100001N1+02721+02321101231ADDAA124000191GF105991031051008001041001KA1240N+02101MA1999999101181MD1999999-0191REMSYN082AAXX  24124 83398 22597 52704 10272 20232 30118 40123 83540 333 20210 59019 69924;
0167833980999992000022418004-15670-038930FM-12+000599999V0200901N002112200019N0200001N1+02921+02341101081ADDAA199000091GF102991021011008001001001MA1999999101031MD1999999-0111REMSYN070AAXX  24184 83398 32598 20904 10292 20234 30103 40108 82100 333 59011;EQDQ01  00002PRCP99
0186833980999992000022500004-15670-038930FM-12+000599999V0209999C000012200019N9999999N1+02631+02331101121ADDAA199000091GF103991011011008001041001KA1240M+02971MA1999999101071MD1999999-0201REMSYN076AAXX  25004 83398 325// 30000 10263 20233 30107 40112 81140 333 10297 59020;EQDQ01  00002PRCP99
0186833980999992000022512004-15670-038930FM-12+000599999V0203601N002112200019N0100001N1+02831+02421101151ADDAA199000091GF104991041051008001001001KA1240N+02171MA1999999101101MD1999999-0081REMSYN076AAXX  25124 83398 32597 43604 10283 20242 30110 40115 84500 333 20217 59008;EQDQ01  00002PRCP99
0167833980999992000022518004-15670-038930FM-12+000599999V0200501N002112200019N0200001N1+02981+02421100911ADDAA199000091GF103991021021008001041001MA1999999100861MD1999999-0171REMSYN070AAXX  25184 83398 32598 30504 10298 20242 30086 40091 82240 333 59017;EQDQ01  00002PRCP99
0187833980999992000022600004-15670-038930FM-12+000599999V0200501N001012200019N9999999N1+02751+02421101151ADDAA199000091GF104991031021008001041001KA1240M+03031MD1999999+0031REMSYN076AAXX  26004 83398 325// 40502 10275 20242 31110 40115 83240 333 10303 58003;EQDQ01+011101APOSP Q02  00002PRCP99
0186833980999992000022612004-15670-038930FM-12+000599999V0203601N001010450019N0100001N1+02881+02371101221ADDAA199000091GF105991031021008001041001KA1240N+02251MA1999999101171MD1999999+0071REMSYN076AAXX  26124 83398 32597 53602 10288 20237 30117 40122 83240 333 20225 58007;EQDQ01  00002PRCP99
0167833980999992000022618004-15670-038930FM-12+000599999V0200501N004110450019N0200001N1+02881+02561101061ADDAA199000091GF106991031051008001041001MA1999999101011MD1999999+0151REMSYN070AAXX  26184 83398 32598 60508 10288 20256 30101 40106 83540 333 58015;EQDQ01  00002PRCP99
0186833980999992000022700004-15670-038930FM-12+000599999V0200501N003112200019N9999999N1+02761+02341101121ADDAA199000091GF104991021011008001031001KA1240M+03021MA1999999101071MD1999999-0031REMSYN076AAXX  27004 83398 325// 40506 10276 20234 30107 40112 82130 333 10302 59003;EQDQ01  00002PRCP99
0186833980999992000022712004-15670-038930FM-12+000599999V0201401N003110450019N0100001N1+02701+02431101291ADDAA199000091GF106991041051008001041001KA1240N+02241MA1999999101241MD1999999+0071REMSYN076AAXX  27124 83398 32597 61406 10270 20243 30124 40129 84540 333 20224 58007;EQDQ01  00002PRCP99
0167833980999992000022718004-15670-038930FM-12+000599999V0200901N003110450019N0200001N1+02821+02441101021ADDAA199000091GF106991031051008001041011MA1999999100971MD1999999-0041REMSYN070AAXX  27184 83398 32598 60906 10282 20244 30097 40102 83541 333 59004;EQDQ01  00002PRCP99
0186833980999992000022800004-15670-038930FM-12+000599999V0200901N001012200019N9999999N1+02711+02301101221ADDAA199000091GF102991011011008001041001KA1240M+03021MA1999999101171MD1999999+0101REMSYN076AAXX  28004 83398 325// 20902 10271 20230 30117 40122 81140 333 10302 58010;EQDQ01  00002PRCP99
0201833980999992000022812004-15670-038930FM-12+000599999V0200901N002110450019N0100001N1+02861+02441101351ADDAA124003091AY151061AY221061GF105991031051008001041001KA1240N+02241MA1999999101301MD1999999+0061MW1011REMSYN088AAXX  28124 83398 21597 50904 10286 20244 30130 40135 70152 83540 333 20224 58006 60034;
0167833980999992000022818004-15670-038930FM-12+000599999V0200901N003112200019N0200001N1+03001+02391101041ADDAA199000091GF104991021021008001041041MA1999999100991MD1999999+0021REMSYN070AAXX  28184 83398 32598 40906 10300 20239 30099 40104 82244 333 58002;EQDQ01  00002PRCP99
0186833980999992000022900004-15670-038930FM-12+000599999V0209999C000012200019N9999999N1+02591+02291101231ADDAA199000091GF103991021021008001041001KA1240M+03011MA1999999101181MD1999999+0011REMSYN076AAXX  29004 83398 325// 30000 10259 20229 30118 40123 82240 333 10301 58001;EQDQ01  00002PRCP99
0201833980999992000022912004-15670-038930FM-12+000599999V0202301N001010450019N0100001N1+02741+02361101481ADDAA124002091AY151061AY221061GF106991031051004501021041KA1240N+02201MA1999999101431MD1999999+0131MW1021REMSYN088AAXX  29124 83398 21497 62302 10274 20236 30143 40148 70252 83524 333 20220 58013 60024;
0167833980999992000022918004-15670-038930FM-12+000599999V0200901N001010450019N0100001N1+02831+02351101271ADDAA199000091GF106991031051004501021041MA1999999101221MD1999999+0231REMSYN070AAXX  29184 83398 32497 60902 10283 20235 30122 40127 83524 333 58023;EQDQ01  00002PRCP99
0201833980999992000030100004-15670-038930FM-12+000599999V0209999C000010450019N9999999N1+02481+02341101431ADDAA106002091AY161061AY221061GF107991041051008001021001KA1240M+03011MA1999999101381MD1999999+0201MW1021REMSYN088AAXX  01004 83398 215// 70000 10248 20234 30138 40143 70262 84520 333 10301 58020 60021;
0201833980999992000030112004-15670-038930FM-12+000599999V0202701N001010450019N0040001N1+02491+02321101511ADDAA124007191AY161061AY221061GF107991041051004501021001KA1240N+02171MA1999999101461MD1999999+0031MW1021REMSYN088AAXX  01124 83398 21496 72702 10249 20232 30146 40151 70262 84520 333 20217 58003 60074;
0182833980999992000030118004-15670-038930FM-12+000599999V0201801N001010450019N0100001N1+02741+02401101371ADDAA106000591AY151061AY221061GF107991041051004501021001MA1999999101321MD1999999+0101MW1021REMSYN082AAXX  01184 83398 21497 71802 10274 20240 30132 40137 70252 84520 333 58010 69941;
0201833980999992000030200004-15670-038930FM-12+000599999V0202701N001010450019N9999999N1+02411+02321101481ADDAA106001091AY161061AY221061GF107991041051008001021001KA1240M+02831MA1999999101431MD1999999+0101MW1021REMSYN088AAXX  02004 83398 215// 72702 10241 20232 30143 40148 70262 84520 333 10283 58010 60011;
0201833980999992000030212004-15670-038930FM-12+000599999V0201801N002110450019N0100001N1+02701+02411101451ADDAA124023191AY191061AY261061GF105991021021004501051001KA1240N+02141MA1999999101401MD1999999-0061MW1011REMSYN088AAXX  02124 83398 21497 51804 10270 20241 30140 40145 70196 82250 333 20214 59006 60234;
0167833980999992000030218004-15670-038930FM-12+000599999V0201401N002110450019N0100001N1+02641+02391101271ADDAA199000091GF106991031051004501021001MA1999999101221MD1999999-0101REMSYN070AAXX  02184 83398 32497 61404 10264 20239 30122 40127 83520 333 59010;EQDQ01  00002PRCP99
0186833980999992000030300004-15670-038930FM-12+000599999V0202301N001010450019N9999999N1+02471+02381101361ADDAA199000091GF106991041051008001041001KA1240M+02971MA1999999101311MD1999999-0171REMSYN076AAXX  03004 83398 325// 62302 10247 20238 30131 40136 84540 333 10297 59017;EQDQ01  00002PRCP99
0186833980999992000030312004-15670-038930FM-12+000599999V0201801N002110450019N0100001N1+02501+02251101311ADDAA199000091GF106991041051008001041001KA1240N+02161MA1999999101261MD1999999-0141REMSYN076AAXX  03124 83398 32597 61804 10250 20225 30126 40131 84540 333 20216 59014;EQDQ01  00002PRCP99
0167833980999992000030318004-15670-038930FM-12+000599999V0200901N002111050019N0200001N1+02911+02341101051ADDAA199000091GF105991021021008001041041MA1999999101001MD1999999-0221REMSYN070AAXX  03184 83398 32598 50904 10291 20234 30100 40105 82244 333 59022;EQDQ01  00002PRCP99
0201833980999992000030400004-15670-038930FM-12+000599999V0209999C000012200019N9999999N1+02491+02381101291ADDAA106001091AY151061AY211061GF103991021021008001041001KA1240M+02991MA1999999101241MD1999999-0071MW1011REMSYN088AAXX  04004 83398 215// 30000 10249 20238 30124 40129 70151 82240 333 10299 59007 60011;
0182833980999992000030418004-15670-038930FM-12+000599999V0200901N002111050019N0100001N1+02861+02391101231ADDAA106005191AY161061AY221061GF106991021021004501051041MA1999999101181MD1999999+0181MW1011REMSYN082AAXX  04184 83398 21497 60904 10286 20239 30118 40123 70162 82254 333 58018 60051;
0201833980999992000030512004-15670-038930FM-12+000599999V0201801N002110450019N0100001N1+02621+02421101551ADDAA124009991AY161061AY221061GF106991041051008001021001KA1240N+02171MA1999999101501MD1999999+0101MW1021REMSYN088AAXX  05124 83398 21597 61804 10262 20242 30150 40155 70262 84520 333 20217 58010 60104;
0167833980999992000030518004-15670-038930FM-12+000599999V0201401N003110450019N0200001N1+02901+02341101291ADDAA199000091GF106991031051008001041011MA1999999101241MD1999999+0061REMSYN070AAXX  05184 83398 32598 61406 10290 20234 30124 40129 83541 333 58006;EQDQ01  00002PRCP99
0186833980999992000030600004-15670-038930FM-12+000599999V0201401N001010450019N9999999N1+02611+02331101431ADDAA199000091GF106991041051008001041001KA1240M+02981MA1999999101381MD1999999-0031REMSYN076AAXX  06004 83398 325// 61402 10261 20233 30138 40143 84540 333 10298 59003;EQDQ01  00002PRCP99
0201833980999992000030612004-15670-038930FM-12+000599999V0201801N002110450019N0100001N1+02721+02501101441ADDAA124020191AY161061AY221061GF106991041051008001021001KA1240N+02211MA1999999101391MD1999999-0111MW1021REMSYN088AAXX  06124 83398 21597 61804 10272 20250 30139 40144 70262 84520 333 20221 59011 60204;
0167833980999992000030618004-15670-038930FM-12+000599999V0201401N002111050019N0100001N1+02801+02221101221ADDAA199000091GF106991021021008001041041MA1999999101171MD1999999-0071REMSYN070AAXX  06184 83398 32597 61404 10280 20222 30117 40122 82244 333 59007;EQDQ01  00002PRCP99
0186833980999992000030700004-15670-038930FM-12+000599999V0209999C000010450019N9999999N1+02541+02311101221ADDAA199000091GF106991041051008001041001KA1240M+03011MA1999999101171MD1999999-0211REMSYN076AAXX  07004 83398 325// 60000 10254 20231 30117 40122 84540 333 10301 59021;EQDQ01  00002PRCP99
0201833980999992000030712004-15670-038930FM-12+000599999V0201801N002110450019N0100001N1+02721+02431101171ADDAA124005191AY161061AY221061GF106991041051008001021001KA1240N+02201MA1999999101121MD1999999-0271MW1021REMSYN088AAXX  07124 83398 21597 61804 10272 20243 30112 40117 70262 84520 333 20220 59027 60054;
0161833980999992000030718004-15670-038930FM-12+000599999V0200901N003110450019N0200001N1+02901+99999100901ADDAA199000091GF106991041051008001021011MA1999999100851MD1999999-0321REMSYN064AAXX  07184 83398 32598 60906 10290 30085 40090 84521 333 59032;EQDQ01  00002PRCP99
0186833980999992000030800004-15670-038930FM-12+000599999V0209999C000010450019N9999999N1+02461+02341101021ADDAA199000091GF107991041051008001021001KA1240M+02971MA1999999100971MD1999999-0201REMSYN076AAXX  08004 83398 325// 70000 10246 20234 30097 40102 84520 333 10297 59020;EQDQ01  00002PRCP99
0186833980999992000030812004-15670-038930FM-12+000599999V0203601N002110450019N0100001N1+02881+02411101061ADDAA199000091GF106991041051008001021001KA1240N+02201MA1999999101011MD1999999-0111REMSYN076AAXX  08124 83398 32597 63604 10288 20241 30101 40106 84520 333 20220 59011;EQDQ01  00002PRCP99
0167833980999992000030818004-15670-038930FM-12+000599999V0200501N002112200019N0200001N1+02971+02401100831ADDAA199000091GF104991021011008001041011MA1999999100781MD1999999-0071REMSYN070AAXX  08184 83398 32598 40504 10297 20240 30078 40083 82141 333 59007;EQDQ01  00002PRCP99
0186833980999992000030900004-15670-038930FM-12+000599999V0200501N002110450019N9999999N1+02731+02301101181ADDAA199000091GF106991041021008001041001KA1240M+02981MA1999999101131MD1999999+0161REMSYN076AAXX  09004 83398 325// 60504 10273 20230 30113 40118 84240 333 10298 58016;EQDQ01  00002PRCP99
0186833980999992000030912004-15670-038930FM-12+000599999V0200901N001010450019N0100001N1+02841+02381101241ADDAA199000091GF106991041051008001051001KA1240N+02161MA1999999101191MD1999999+0181REMSYN076AAXX  09124 83398 32597 60902 10284 20238 30119 40124 84550 333 20216 58018;EQDQ01  00002PRCP99
0167833980999992000030918004-15670-038930FM-12+000599999V0200901N003110450019N0200001N1+02961+02511100981ADDAA199000091GF106991031051008001041011MA1999999100931MD1999999+0151REMSYN070AAXX  09184 83398 32598 60906 10296 20251 30093 40098 83541 333 58015;EQDQ01  00002PRCP99
0186833980999992000031000004-15670-038930FM-12+000599999V0209999C000010450019N9999999N1+02561+02331101281ADDAA199000091GF106991041051008001041001KA1240M+03001MA1999999101231MD1999999+0101REMSYN076AAXX  10004 83398 325// 60000 10256 20233 30123 40128 84540 333 10300 58010;EQDQ01  00002PRCP99
0186833980999992000031012004-15670-038930FM-12+000599999V0201801N001010450019N0100001N1+02751+02441101361ADDAA199000091GF106991041051008001051001KA1240N+02261MA1999999101311MD1999999+0121REMSYN076AAXX  10124 83398 32597 61802 10275 20244 30131 40136 84550 333 20226 58012;EQDQ01  00002PRCP99
0167833980999992000031018004-15670-038930FM-12+000599999V0201401N002110450019N0200001N1+02881+02301101171ADDAA199000091GF106991031021008001041041MA1999999101121MD1999999+0191REMSYN070AAXX  10184 83398 32598 61404 10288 20230 30112 40117 83244 333 58019;EQDQ01  00002PRCP99
0186833980999992000031100004-15670-038930FM-12+000599999V0209999C000010450019N9999999N1+02561+02331101281ADDAA199000091GF106991041051008001041001KA1240M+03001MA1999999101231MD1999999+0101REMSYN076AAXX  11004 83398 325// 60000 10256 20233 30123 40128 84540 333 10300 58010;EQDQ01  00002PRCP99
0186833980999992000031112004-15670-038930FM-12+000599999V0202701N001010450019N0100001N1+02731+02401101321ADDAA199000091GF106991041051008001051001KA1240N+02191MA1999999101271MD1999999-0041REMSYN076AAXX  11124 83398 32597 62702 10273 20240 30127 40132 84550 333 20219 59004;EQDQ01  00002PRCP99
0182833980999992000031118004-15670-038930FM-12+000599999V0201101N020610450019N0100001N1+02661+02431100991ADDAA106003091AY191061AY261061GF107991041051008001021001MA1999999100941MD1999999-0181MW1021REMSYN082AAXX  11184 83398 21597 71140 10266 20243 30094 40099 70296 84520 333 59018 60031;
0186833980999992000031200004-15670-038930FM-12+000599999V0200501N001012200019N9999999N1+02691+02391101061ADDAA199000091GF104991031051008001041001KA1240M+02901MA1999999101011MD1999999-0241REMSYN076AAXX  12004 83398 325// 40502 10269 20239 30101 40106 83540 333 10290 59024;EQDQ01  00002PRCP99
0173833980999992000031212004-15670-038930FM-12+000599999V0203201N001010075019N0100001N1+02601+02501101131ADDAA124003091GF108991051051008001021999KA1240N+02271MA1999999101081MD1999999-0191REMSYN082AAXX  12124 83398 22597 83202 10260 20250 30108 40113 8552/ 333 20227 59019 60034;
0182833980999992000031218004-15670-038930FM-12+000599999V0203601N003110075019N0100001N1+02761+02481100741ADDAA106002091AY161061AY221061GF107991051051008001021001MA1999999100691MD1999999-0251MW1021REMSYN082AAXX  12184 83398 21597 73606 10276 20248 30069 40074 70262 85520 333 59025 60021;
0186833980999992000031300004-15670-038930FM-12+000599999V0203601N003110075019N9999999N1+02761+02521100761ADDAA199000091GF107991051051008001021001KA1240M+03011MA1999999100711MD1999999-0301REMSYN076AAXX  13004 83398 325// 73606 10276 20252 30071 40076 85520 333 10301 59030;EQDQ01  00002PRCP99
0173833980999992000031312004-15670-038930FM-12+000599999V0203601N002110450019N0100001N1+02871+02441100681ADDAA124002091GF106991041051004501041001KA1240N+02381MA1999999100631MD1999999-0451REMSYN082AAXX  13124 83398 22497 63604 10287 20244 30063 40068 84540 333 20238 59045 60024;
0167833980999992000031318004-15670-038930FM-12+000599999V0203601N002110075019N0040001N1+02761+02281100561ADDAA199000091GF108991051051008001021999MA1999999100511MD1999999-0181REMSYN070AAXX  13184 83398 32596 83604 10276 20228 30051 40056 8552/ 333 59018;EQDQ01  00002PRCP99
0201833980999992000031400004-15670-038930FM-12+000599999V0209999C000010075019N9999999N1+02551+02331100861ADDAA106007191AY191061AY261061GF108991051071008001021999KA1240M+03071MA1999999100811MD1999999+0101MW1611REMSYN088AAXX  14004 83398 215// 80000 10255 20233 30081 40086 76196 8572/ 333 10307 58010 60071;
0201833980999992000031412004-15670-038930FM-12+000599999V0203601N001010450019N0100001N1+02641+02441100901ADDAA124010991AY191061AY261061GF107991041051004501021001KA1240N+02191MA1999999100851MD1999999+0221MW1021REMSYN088AAXX  14124 83398 21497 73602 10264 20244 30085 40090 70296 84520 333 20219 58022 60114;
0167833980999992000031418004-15670-038930FM-12+000599999V0200501N003110075019N0100001N1+02761+02541100741ADDAA199000091GF107991051051008001021001MA1999999100691MD1999999+0181REMSYN070AAXX  14184 83398 32597 70506 10276 20254 30069 40074 85520 333 58018;EQDQ01  00002PRCP99
0186833980999992000031500004-15670-038930FM-12+000599999V0209999C000010450019N9999999N1+02641+02391100961ADDAA199000091GF106991041051008001041001KA1240M+02941MA1999999100911MD1999999+0101REMSYN076AAXX  15004 83398 325// 60000 10264 20239 30091 40096 84540 333 10294 58010;EQDQ01  00002PRCP99
0201833980999992000031512004-15670-038930FM-12+000599999V0209999C000010450019N0100001N1+02681+02451101321ADDAA124004191AY191061AY261061GF105991031051004501021001KA1240N+02331MA1999999101271MD1999999+0421MW1011REMSYN088AAXX  15124 83398 21497 50000 10268 20245 30127 40132 70196 83520 333 20233 58042 60044;
0167833980999992000031518004-15670-038930FM-12+000599999V0200501N002111050019N0100001N1+02941+02451101081ADDAA199000091GF105991021021008001051011MA1999999101031MD1999999+0341REMSYN070AAXX  15184 83398 32597 50504 10294 20245 30103 40108 82251 333 58034;EQDQ01  00002PRCP99
0186833980999992000031600004-15670-038930FM-12+000599999V0203601N002110450019N9999999N1+02541+02401101131ADDAA199000091GF106991041051008001031001KA1240M+03021MA1999999101081MD1999999+0171REMSYN076AAXX  16004 83398 325// 63604 10254 20240 30108 40113 84530 333 10302 58017;EQDQ01  00002PRCP99
0201833980999992000031612004-15670-038930FM-12+000599999V0203601N001010450019N0040001N1+02621+02481101271ADDAA124000191AY151061AY221061GF107991041051004501021001KA1240N+02221MA1999999101221MD1999999-0051MW1501REMSYN088AAXX  16124 83398 21496 73602 10262 20248 30122 40127 75052 84520 333 20222 59005 69924;
0148833980999992000031618004-15670-038930FM-12+000599999V0200501N002110450019N0200001N1+02951+02451101011ADDAA199000021GF105991031051004501041041MA1999999100961MD1999999-0071REMSYN070AAXX  16184 83398 32498 50504 10295 20245 30096 40101 83544 333 59007;
0167833980999992000031700004-15670-038930FM-12+000599999V0209999C000012200019N9999999N1+02441+02271101091ADDAA199000021GF103991021011008001041001KA1240M+02991MA1999999101041MD1999999-0041REMSYN076AAXX  17004 83398 325// 30000 10244 20227 30104 40109 82140 333 10299 59004;
0186833980999992000031712004-15670-038930FM-12+000599999V0200501N001012200019N0200001N1+02741+02431101151ADDAA199000091GF104991021011008001041011KA1240N+02111MA1999999101101MD1999999-0121REMSYN076AAXX  17124 83398 32598 40502 10274 20243 30110 40115 82141 333 20211 59012;EQDQ01  00002PRCP99
0186833980999992000031800004-15670-038930FM-12+000599999V0209999C000012200019N9999999N1+02511+02231100981ADDAA199000091GF101991011011008001001001KA1240M+02951MA1999999100931MD1999999-0111REMSYN076AAXX  18004 83398 325// 10000 10251 20223 30093 40098 81100 333 10295 59011;EQDQ01  00002PRCP99
0186833980999992000031812004-15670-038930FM-12+000599999V0203601N002112200019N0200001N1+02821+02361101151ADDAA199000091GF104991021011008001041001KA1240N+02041MA1999999101061MD1999999-0041REMSYN076AAXX  18124 83398 32598 43604 10282 20236 30106 40115 82140 333 20204 59004;EQDQ01  00002PRCP99
0167833980999992000031818004-15670-038930FM-12+000599999V0200501N003110450019N0200001N1+02881+02301100741ADDAA199000091GF105991021051008001041001MA1999999100691MD1999999-0151REMSYN070AAXX  18184 83398 32598 50506 10288 20230 30069 40074 82540 333 59015;EQDQ01  00002PRCP99
0186833980999992000031900004-15670-038930FM-12+000599999V0200501N002110450019N9999999N1+02601+02331100871ADDAA199000091GF105991021051008001031001KA1240M+02991MA1999999100821MD1999999-0111REMSYN076AAXX  19004 83398 325// 50504 10260 20233 30082 40087 82530 333 10299 59011;EQDQ01  00002PRCP99
0201833980999992000031912004-15670-038930FM-12+000599999V0203201N001010450019N0100001N1+02801+02381101051ADDAA124001091AY161061AY221061GF106991031051008001041001KA1240N+02091MA1999999101001MD1999999-0061MW1021REMSYN088AAXX  19124 83398 21597 63202 10280 20238 30100 40105 70262 83540 333 20209 59006 60014;
0167833980999992000031918004-15670-038930FM-12+000599999V0200501N003110450019N0200001N1+02881+02441100691ADDAA199000091GF106991021051008001041011MA1999999100641MD1999999-0051REMSYN070AAXX  19184 83398 32598 60506 10288 20244 30064 40069 82541 333 59005;EQDQ01  00002PRCP99
0186833980999992000032000004-15670-038930FM-12+000599999V0209999C000010450019N9999999N1+02621+02371101031ADDAA199000091GF106991041051008001041001KA1240M+02991MA1999999100981MD1999999+0161REMSYN076AAXX  20004 83398 325// 60000 10262 20237 30098 40103 84540 333 10299 58016;EQDQ01  00002PRCP99
0186833980999992000032012004-15670-038930FM-12+000599999V0202301N003110450019N0100001N1+02741+02401101301ADDAA199000091GF105991031051008001041001KA1240N+02201MA1999999101251MD1999999+0251REMSYN076AAXX  20124 83398 32597 52306 10274 20240 30125 40130 83540 333 20220 58025;EQDQ01  00002PRCP99
0167833980999992000032018004-15670-038930FM-12+000599999V0200901N002110450019N0100001N1+02271+99999101021ADDAA199000091GF107991041051004501021001MA1999999100971MD1999999+0331REMSYN070AAXX  20184 83398 32497 70904 10227 20241 30097 40102 84520 333 58033;EQDQ01  00002PRCP99
0186833980999992000032100004-15670-038930FM-12+000599999V0202301N000512200019N9999999N1+02431+02351101281ADDAA199000091GF104991021021008001041011KA1240M+02891MA1999999101231MD1999999+0251REMSYN076AAXX  21004 83398 325// 42301 10243 20235 30123 40128 82241 333 10289 58025;EQDQ01  00002PRCP99
0201833980999992000032112004-15670-038930FM-12+000599999V0201401N002112200019N0200001N1+02861+02391101371ADDAA124011991AY161061AY221061GF104991021011004501041001KA1240N+02191MA1999999101321MD1999999+0071MW1011REMSYN088AAXX  21124 83398 21498 41404 10286 20239 30132 40137 70162 82140 333 20219 58007 60124;
0167833980999992000032118004-15670-038930FM-12+000599999V0200901N002112200019N0200001N1+02901+02371101041ADDAA199000091GF103991021011008001041001MA1999999100991MD1999999+0021REMSYN070AAXX  21184 83398 32598 30904 10290 20237 30099 40104 82140 333 58002;EQDQ01  00002PRCP99
0186833980999992000032200004-15670-038930FM-12+000599999V0209999C000012200019N9999999N1+02471+02361101261ADDAA199000091GF103991021011999999041001KA1240M+02981MA1999999101211MD1999999-0021REMSYN076AAXX  22004 83398 329// 30000 10247 20236 30121 40126 82140 333 10298 59002;EQDQ01  00002PRCP99
0201833980999992000032212004-15670-038930FM-12+000599999V0202701N001010042019N0040001N1+02441+02281101341ADDAA124003091AY161061AY221061GF108991061071004501021999KA1240N+02221MA1999999101291MD1999999-0031MW1601REMSYN088AAXX  22124 83398 21496 82702 10244 20228 30129 40134 76062 8672/ 333 20222 59003 60034;
0182833980999992000032218004-15670-038930FM-12+000599999V0201801N001010042019N0040001N1+02541+02401101111ADDAA106004191AY161061AY221061GF108991061071004501021999MA1999999101061MD1999999+0071MW1601REMSYN082AAXX  22184 83398 21496 81802 10254 20240 30106 40111 76062 8672/ 333 58007 60041;
0167833980999992000032300004-15670-038930FM-12+000599999V0202301N001010075019N9999999N1+02481+02411101231ADDAA199000021GF107991051051008001041001KA1240M+02861MA1999999101181MD1999999-0031REMSYN076AAXX  23004 83398 325// 72302 10248 20241 30118 40123 85540 333 10286 59003;
0201833980999992000032312004-15670-038930FM-12+000599999V0201801N001010450019N0040001N1+02711+02481101201ADDAA124005191AY151061AY221061GF107991041051004501021001KA1240N+02211MA1999999101151MD1999999-0141MW1021REMSYN088AAXX  23124 83398 32496 71802 10271 20248 30115 40120 70252 84520 333 20221 59014 60054;
0182833980999992000032318004-15670-038930FM-12+000599999V0200501N002112200019N0200001N1+02881+02371101111ADDAA106004191AY161061AY221061GF104991021021008001041001MA1999999101061MD1999999+0001MW1011REMSYN082AAXX  23184 83398 21598 40504 10288 20237 30106 40111 70162 82240 333 58000 60041;
0173833980999992000032412004-15670-038930FM-12+000599999V0202301N002110450019N0200001N1+02801+02401101481ADDAA124004191GF106991041011008001041001KA1240N+02101MA1999999101431MD1999999+0281REMSYN082AAXX  24124 83398 22598 62304 10280 20240 30143 40148 84140 333 20210 58028 60044;
0167833980999992000032418004-15670-038930FM-12+000599999V0201401N002112200019N0200001N1+02911+02321101121ADDAA199000091GF103991021021004501041001MA1999999101071MD1999999+0011REMSYN070AAXX  24184 83398 32498 31404 10291 20232 30107 40112 82240 333 58001;EQDQ01  00002PRCP99
0186833980999992000032500004-15670-038930FM-12+000599999V0209999C000012200019N9999999N1+02441+02341101331ADDAA199000091GF102991011021008001041001KA1240M+02961MA1999999101281MD1999999-0021REMSYN076AAXX  25004 83398 325// 20000 10244 20234 30128 40133 81240 333 10296 59002;EQDQ01  00002PRCP99
0186833980999992000032512004-15670-038930FM-12+000599999V0202701N001010450019N0100001N1+02771+02441101381ADDAA199000091GF105991041051008001041001KA1240N+02051MA1999999101331MD1999999-0101REMSYN076AAXX  25124 83398 32597 52702 10277 20244 30133 40138 84540 333 20205 59010;EQDQ01  00002PRCP99
0167833980999992000032518004-15670-038930FM-12+000599999V0200901N003110450019N0200001N1+02961+02531101011ADDAA199000091GF105991031051008001041001MA1999999100961MD1999999-0111REMSYN070AAXX  25184 83398 32598 50906 10296 20253 30096 40101 83540 333 59011;EQDQ01  00002PRCP99
0186833980999992000032600004-15670-038930FM-12+000599999V0209999C000012200019N9999999N1+02541+02441101231ADDAA199000091GF102991011011008001041001KA1240M+03061MA1999999101181MD1999999-0101REMSYN076AAXX  26004 83398 325// 20000 10254 20244 30118 40123 81140 333 10306 59010;EQDQ01  00002PRCP99
0201833980999992000032612004-15670-038930FM-12+000599999V0203201N001010450019N0100001N1+02861+02521101211ADDAA124006191AY161061AY221061GF106991041051008001021001KA1240N+02281MA1999999101161MD1999999-0171MW1021REMSYN088AAXX  26124 83398 21597 63202 10286 20252 30116 40121 70262 84520 333 20228 59017 60064;
0167833980999992000032618004-15670-038930FM-12+000599999V0200901N003110450019N0200001N1+02921+02411100901ADDAA199000091GF105991031051008001041001MA1999999100851MD1999999-0111REMSYN070AAXX  26184 83398 32598 50906 10292 20241 30085 40090 83540 333 59011;EQDQ01  00002PRCP99
0186833980999992000032700004-15670-038930FM-12+000599999V0209999C000012200019N9999999N1+02511+02361101171ADDAA199000091GF102991011021008001041001KA1240M+02961MA1999999101121MD1999999-0061REMSYN076AAXX  27004 83398 325// 20000 10251 20236 30112 40117 81240 333 10296 59006;EQDQ01  00002PRCP99
0186833980999992000032712004-15670-038930FM-12+000599999V0201401N001012200019N0100001N1+02891+02431101281ADDAA199000091GF103991031051008001001001KA1240N+02221MA1999999101231MD1999999+0071REMSYN076AAXX  27124 83398 32597 31402 10289 20243 30123 40128 83500 333 20222 58007;EQDQ01  00002PRCP99
0167833980999992000032718004-15670-038930FM-12+000599999V0200901N002112200019N0200001N1+02911+02371100921ADDAA199000091GF104991021011008001041041MA1999999100871MD1999999+0021REMSYN070AAXX  27184 83398 32598 40904 10291 20237 30087 40092 82144 333 58002;EQDQ01  00002PRCP99
0201833980999992000032812004-15670-038930FM-12+000599999V0209999C000010042019N0040001N1+02481+02321101421ADDAA124038191AY161061AY221061GF107991051071004501021001KA1240N+02221MA1999999101371MD1999999+0141MW1601REMSYN088AAXX  28124 83398 21496 70000 10248 20232 30137 40142 76062 85720 333 20222 58014 60384;
0182833980999992000032818004-15670-038930FM-12+000599999V0200901N002110450019N0100001N1+02801+02381100961ADDAA106003091AY161061AY221061GF106991031051008001051011MA1999999100911MD1999999+0041MW1011REMSYN082AAXX  28184 83398 21597 60904 10280 20238 30091 40096 70162 83551 333 58004 60031;
0167833980999992000032900004-15670-038930FM-12+000599999V0209999C000012200019N9999999N1+02501+02341101181ADDAA199000021GF102991011011008001041001KA1240M+02951MA1999999101131MD1999999+0001REMSYN076AAXX  29004 83398 325// 20000 10250 20234 30113 40118 81140 333 10295 58000;
0201833980999992000032912004-15670-038930FM-12+000599999V0201801N001010450019N0040001N1+02681+02411101241ADDAA124004191AY151061AY221061GF107991041051004501021001KA1240N+02141MA1999999101191MD1999999-0181MW1501REMSYN088AAXX  29124 83398 21496 71802 10268 20241 30119 40124 75052 84520 333 20214 59018 60044;
0182833980999992000032918004-15670-038930FM-12+000599999V0200901N002112200019N0200001N1+02871+02321101111ADDAA106000191AY151061AY221061GF104991021021008001041011MA1999999101061MD1999999+0151MW1011REMSYN082AAXX  29184 83398 21598 40904 10287 20232 30106 40111 70152 82241 333 58015 69911;
0201833980999992000033000004-15670-038930FM-12+000599999V0209999C000010450019N9999999N1+02491+02251101241ADDAA106003091AY161061AY221061GF107991041051008001021001KA1240M+02951MA1999999101191MD1999999+0061MW1021REMSYN088AAXX  30004 83398 215// 70000 10249 20225 30119 40124 70262 84520 333 10295 58006 60031;
0201833980999992000033012004-15670-038930FM-12+000599999V0201801N001010450019N0100001N1+02621+02351101271ADDAA124018091AY161061AY221061GF105991031021004501041001KA1240N+02151MA1999999101221MD1999999+0031MW1011REMSYN088AAXX  30124 83398 21497 51802 10262 20235 30122 40127 70162 83240 333 20215 58003 60184;
0167833980999992000033018004-15670-038930FM-12+000599999V0201401N002112200019N0200001N1+02841+02351101031ADDAA199000091GF104991031011008001041001MA1999999100981MD1999999-0081REMSYN070AAXX  30184 83398 32598 41404 10284 20235 30098 40103 83140 333 59008;EQDQ01  00002PRCP99
0186833980999992000033100004-15670-038930FM-12+000599999V0209999C000012200019N9999999N1+02461+02301101321ADDAA199000091GF103991021021008001041001KA1240M+02961MA1999999101271MD1999999+0081REMSYN076AAXX  31004 83398 325// 30000 10246 20230 30127 40132 82240 333 10296 58008;EQDQ01  00002PRCP99
0201833980999992000033112004-15670-038930FM-12+000599999V0201801N001012200019N0200001N1+02761+02381101361ADDAA124000591AY151061AY221061GF103991021021004501041001KA1240N+02041MA1999999101311MD1999999+0091MW1011REMSYN088AAXX  31124 83398 21498 31802 10276 20238 30131 40136 70152 82240 333 20204 58009 69954;
0167833980999992000033118004-15670-038930FM-12+000599999V0201401N002112200019N0200001N1+02871+02441101181ADDAA199000091GF103991021021004501041001MA1999999101131MD1999999+0151REMSYN070AAXX  31184 83398 32498 31404 10287 20244 30113 40118 82240 333 58015;EQDQ01  00002PRCP99
0186833980999992000040100004-15670-038930FM-12+000599999V0209999C000012200019N9999999N1+02461+02321101391ADDAA199000091GF102991011011008001041001KA1240M+02991MA1999999101341MD1999999+0071REMSYN076AAXX  01004 83398 325// 20000 10246 20232 30134 40139 81140 333 10299 58007;EQDQ01  00002PRCP99
0186833980999992000040112004-15670-038930FM-12+000599999V0202301N002110450019N0100001N1+02641+02551101411ADDAA199000091GF106991041051008001041001KA1240N+02121MA1999999101361MD1999999+0051REMSYN076AAXX  01124 83398 32597 62304 10264 20255 30136 40141 84540 333 20212 58005;EQDQ01  00002PRCP99
0167833980999992000040118004-15670-038930FM-12+000599999V0201401N003110450019N0200001N1+02901+02411101151ADDAA199000091GF105991031021008001041001MA1999999101101MD1999999-0031REMSYN070AAXX  01184 83398 32598 51406 10290 20241 30110 40115 83240 333 59003;EQDQ01  00002PRCP99
0201833980999992000040200004-15670-038930FM-12+000599999V0209999C000012200019N9999999N1+02491+02341101361ADDAA106005191AY161061AY211061GF103991021021008001041001KA1240M+03001MA1999999101311MD1999999-0031MW1011REMSYN088AAXX  02004 83398 215// 30000 10249 20234 30131 40136 70161 82240 333 10300 59003 60051;
0201833980999992000040212004-15670-038930FM-12+000599999V0202701N001010450019N0100001N1+02701+02431101451ADDAA124023991AY161061AY221061GF106991031051008001021001KA1240N+02161MA1999999101401MD1999999+0041MW1021REMSYN088AAXX  02124 83398 21597 62702 10270 20243 30140 40145 70262 83520 333 20216 58004 60244;
0167833980999992000040218004-15670-038930FM-12+000599999V0200901N003110450019N0200001N1+02781+02251101171ADDAA199000091GF106991031051008001041001MA1999999101121MD1999999+0021REMSYN070AAXX  02184 83398 32598 60906 10278 20225 30112 40117 83540 333 58002;EQDQ01  00002PRCP99
0186833980999992000040300004-15670-038930FM-12+000599999V0209999C000010450019N9999999N1+02581+02421101411ADDAA199000091GF107991041051008001021001KA1240M+02981MA1999999101361MD1999999+0051REMSYN076AAXX  03004 83398 325// 70000 10258 20242 30136 40141 84520 333 10298 58005;EQDQ01  00002PRCP99
0201833980999992000040312004-15670-038930FM-12+000599999V0201801N001010042019N0040001N1+02631+02351101611ADDAA124004191AY161061AY221061GF107991051051004501021001KA1240N+02201MA1999999101551MD1999999+0151MW1021REMSYN088AAXX  03124 83398 21496 71802 10263 20235 30155 40161 70262 85520 333 20220 58015 60044;
0182833980999992000040318004-15670-038930FM-12+000599999V0201801N002110042019N0040001N1+02801+02421101251ADDAA106004191AY161061AY221061GF107991051051004501021001MA1999999101201MD1999999+0081MW1601REMSYN082AAXX  03184 83398 21496 71804 10280 20242 30120 40125 76062 85520 333 58008 60041;
0167833980999992000040400004-15670-038930FM-12+000599999V0202301N002110450019N9999999N1+02471+02321101511ADDAA199000021GF106991041051008001041001KA1240M+02841MA1999999101461MD1999999+0101REMSYN076AAXX  04004 83398 325// 62304 10247 20232 30146 40151 84540 333 10284 58010;
0201833980999992000040412004-15670-038930FM-12+000599999V0202301N001010450019N0100001N1+02501+02291101571ADDAA124011991AY161061AY221061GF106991041051008001041001KA1240N+02141MA1999999101521MD1999999-0031MW1021REMSYN088AAXX  04124 83398 21597 62302 10250 20229 30152 40157 70262 84540 333 20214 59003 60124;
0098833980999992000040418004-15670-038930FM-12+000599999V0200101N024212200019N9999999N1+99999+99999999999ADDGF104991021071999999011041MD1999999-0051REMSYN046AAXX  04184 83398 ///// 40147 82714 333 59005;
0201833980999992000040500004-15670-038930FM-12+000599999V0202301N002112200019N9999999N1+02441+02131101571ADDAA106003091AY161061AY211061GF103991021051008001041001KA1240M+02921MA1999999101511MD1999999+0051MW1011REMSYN088AAXX  05004 83398 215// 32304 10244 20213 30151 40157 70161 82540 333 10292 58005 60031;
0201833980999992000040512004-15670-038930FM-12+000599999V0202701N002110450019N0100001N1+02571+02331101611ADDAA124018091AY161061AY221061GF105991021021008001051001KA1240N+02141MA1999999101551MD1999999+0031MW1011REMSYN088AAXX  05124 83398 21597 52704 10257 20233 30155 40161 70162 82250 333 20214 58003 60184;
0167833980999992000040518004-15670-038930FM-12+000599999V0201801N002110042019N0040001N1+02821+02361101411ADDAA199000091GF107991051051004501021001MA1999999101361MD1999999+0171REMSYN070AAXX  05184 83398 32496 71804 10282 20236 30136 40141 85520 333 58017;EQDQ01  00002PRCP99
0186833980999992000040600004-15670-038930FM-12+000599999V0202301N002110450019N9999999N1+02391+02361101591ADDAA199000091GF106991041051008001041001KA1240M+02961MA1999999101531MD1999999+0021REMSYN076AAXX  06004 83398 325// 62304 10239 20236 30153 40159 84540 333 10296 58002;EQDQ01  00002PRCP99
0201833980999992000040612004-15670-038930FM-12+000599999V0200901N001010042019N0040001N1+02511+02321101661ADDAA124018091AY161061AY221061GF108991051071004501021999KA1240N+02131MA1999999101601MD1999999+0051MW1601REMSYN088AAXX  06124 83398 21496 80902 10251 20232 30160 40166 76062 8572/ 333 20213 58005 60184;
0182833980999992000040618004-15670-038930FM-12+000599999V0201401N002110450019N0040001N1+02701+02371101331ADDAA106015091AY161061AY221061GF106991031051004501051041MA1999999101281MD1999999-0081MW1021REMSYN082AAXX  06184 83398 21496 61404 10270 20237 30128 40133 70262 83554 333 59008 60151;
0201833980999992000040712004-15670-038930FM-12+000599999V0202301N002110450019N0100001N1+02461+02301101411ADDAA124062091AY161061AY221061GF106991041051004501051001KA1240N+02211MA1999999101361MD1999999+0241MW1011REMSYN088AAXX  07124 83398 21497 62304 10246 20230 30136 40141 70162 84550 333 20221 58024 60624;
0167833980999992000040718004-15670-038930FM-12+000599999V0201801N001010450019N0100001N1+02741+02341101081ADDAA199000091GF105991031051008001041001MA1999999101031MD1999999-0251REMSYN070AAXX  07184 83398 32597 51802 10274 20234 30103 40108 83540 333 59025;EQDQ01  00002PRCP99
0186833980999992000040800004-15670-038930FM-12+000599999V0202701N001010450019N9999999N1+02451+02321101371ADDAA199000091GF106991041061008001021001KA1240M+02901MA1999999101321MD1999999+0081REMSYN076AAXX  08004 83398 325// 62702 10245 20232 30132 40137 84620 333 10290 58008;EQDQ01  00002PRCP99
0201833980999992000040812004-15670-038930FM-12+000599999V0201801N002110450019N0100001N1+02581+02461101371ADDAA124004191AY161061AY221061GF107991041051008001021001KA1240N+02151MA1999999101321MD1999999-0041MW1021REMSYN088AAXX  08124 83398 21597 71804 10258 20246 30132 40137 70262 84520 333 20215 59004 60044;
0167833980999992000040818004-15670-038930FM-12+000599999V0201801N002110450019N0100001N1+02761+02461101081ADDAA199000091GF106991031051008001021001MA1999999101031MD1999999+0001REMSYN070AAXX  08184 83398 32597 61804 10276 20246 30103 40108 83520 333 58000;EQDQ01  00002PRCP99
0186833980999992000040900004-15670-038930FM-12+000599999V0202301N001010450019N9999999N1+02331+02221101341ADDAA199000091GF106991041051008001021001KA1240M+02841MA1999999101291MD1999999-0031REMSYN076AAXX  09004 83398 325// 62302 10233 20222 30129 40134 84520 333 10284 59003;EQDQ01  00002PRCP99
0201833980999992000040912004-15670-038930FM-12+000599999V0202301N001010450019N0100001N1+02521+02341101311ADDAA124024991AY161061AY221061GF107991041051008001021001KA1240N+02121MA1999999101261MD1999999-0061MW1021REMSYN088AAXX  09124 83398 21597 72302 10252 20234 30126 40131 70262 84520 333 20212 59006 60254;
0167833980999992000040918004-15670-038930FM-12+000599999V0201401N003110450019N0200001N1+02821+02401101051ADDAA199000091GF106991031051008001021011MA1999999101001MD1999999-0031REMSYN070AAXX  09184 83398 32598 61406 10282 20240 30100 40105 83521 333 59003;EQDQ01  00002PRCP99
0186833980999992000041000004-15670-038930FM-12+000599999V0200301N001010075019N9999999N1+02421+02261101331ADDAA199000091GF107991051051008001041001KA1240M+02931MA1999999101281MD1999999-0011REMSYN076AAXX  10004 83398 325// 70302 10242 20226 30128 40133 85540 333 10293 59001;EQDQ01  00002PRCP99
0201833980999992000041012004-15670-038930FM-12+000599999V0202301N001010450019N0040001N1+02441+02251101321ADDAA124006191AY161061AY221061GF106991041051004501051001KA1240N+02141MA1999999101271MD1999999+0011MW1021REMSYN088AAXX  10124 83398 21496 62302 10244 20225 30127 40132 70262 84550 333 20214 58001 60064;
0167833980999992000041018004-15670-038930FM-12+000599999V0201801N001010075019N0040001N1+02591+02291101081ADDAA199000091GF108991051051008001021001MA1999999101031MD1999999+0031REMSYN070AAXX  10184 83398 32596 81802 10259 20229 30103 40108 85520 333 58003;EQDQ01  00002PRCP99
0186833980999992000041100004-15670-038930FM-12+000599999V0209999C000010075019N9999999N1+02441+02271101291ADDAA199000091GF108991051051008001021999KA1240M+02861MA1999999101241MD1999999-0041REMSYN076AAXX  11004 83398 325// 80000 10244 20227 30124 40129 8552/ 333 10286 59004;EQDQ01  00002PRCP99
0201833980999992000041112004-15670-038930FM-12+000599999V0202701N001010450019N0040001N1+02661+02431101301ADDAA124010991AY191061AY261061GF107991041051004501021001KA1240N+02151MA1999999101251MD1999999-0021MW1021REMSYN088AAXX  11124 83398 21496 72702 10266 20243 30125 40130 70296 84520 333 20215 59002 60114;
0182833980999992000041118004-15670-038930FM-12+000599999V0200901N002111050019N0200001N1+02801+02361101121ADDAA106003091AY161061AY221061GF105991021021008001041041MA1999999101071MD1999999+0041MW1011REMSYN082AAXX  11184 83398 21598 50904 10280 20236 30107 40112 70162 82244 333 58004 60031;
0186833980999992000041200004-15670-038930FM-12+000599999V0202301N001012200019N9999999N1+02411+02261101191ADDAA199000091GF102991011011008001041001KA1240M+02881MA1999999101141MD1999999-0101REMSYN076AAXX  12004 83398 325// 22302 10241 20226 30114 40119 81140 333 10288 59010;EQDQ01  00002PRCP99
0173833980999992000041212004-15670-038930FM-12+000599999V0201801N001012200019N0200001N1+02641+02251101201ADDAA124003091GF104991021021008001041011KA1240N+02081MA1999999101151MD1999999-0101REMSYN082AAXX  12124 83398 22598 41802 10264 20225 30115 40120 82241 333 20208 59010 60034;
0167833980999992000041218004-15670-038930FM-12+000599999V0200901N002112200019N0200001N1+02881+02391100981ADDAA199000091GF104991021021008001051011MA1999999100931MD1999999-0141REMSYN070AAXX  12184 83398 32598 40904 10288 20239 30093 40098 82251 333 59014;EQDQ01  00002PRCP99
0186833980999992000041300004-15670-038930FM-12+000599999V0200501N002110075019N9999999N1+02691+02261101161ADDAA199000091GF107991051051008001041001KA1240M+02921MA1999999101111MD1999999-0031REMSYN076AAXX  13004 83398 325// 70504 10269 20226 30111 40116 85540 333 10292 59003;EQDQ01  00002PRCP99
0201833980999992000041312004-15670-038930FM-12+000599999V0209999C000012200019N0200001N1+02821+02461101261ADDAA124000191AY151061AY221061GF104991021011008001041001KA1240N+02161MA1999999101211MD1999999+0061MW1011REMSYN088AAXX  13124 83398 21598 40000 10282 20246 30121 40126 70152 82140 333 20216 58006 69924;
0167833980999992000041318004-15670-038930FM-12+000599999V0200901N002110450019N0100001N1+02841+02261101201ADDAA199000091GF105991021021008001021001MA1999999101151MD1999999+0221REMSYN070AAXX  13184 83398 32597 50904 10284 20226 30115 40120 82220 333 58022;EQDQ01  00002PRCP99
0186833980999992000041400004-15670-038930FM-12+000599999V0200501N002110450019N9999999N1+02711+02281101251ADDAA199000091GF107991041021008001041001KA1240M+02991MA1999999101201MD1999999+0091REMSYN076AAXX  14004 83398 325// 70504 10271 20228 30120 40125 84240 333 10299 58009;EQDQ01  00002PRCP99
0167833980999992000041418004-15670-038930FM-12+000599999V0200901N002110450019N0200001N1+02781+02361101171ADDAA199000091GF105991021021008001051001MA1999999101121MD1999999-0031REMSYN070AAXX  14184 83398 32598 50904 10278 20236 30112 40117 82250 333 59003;EQDQ01  00002PRCP99
0186833980999992000041500004-15670-038930FM-12+000599999V0209999C000010450019N9999999N1+02491+02341101371ADDAA199000091GF106991041021008001051001KA1240M+02971MA1999999101321MD1999999+0121REMSYN076AAXX  15004 83398 325// 60000 10249 20234 30132 40137 84250 333 10297 58012;EQDQ01  00002PRCP99
0201833980999992000041512004-15670-038930FM-12+000599999V0202301N001010450019N0100001N1+02721+02481101441ADDAA124003091AY161061AY221061GF106991041051008001021001KA1240N+02141MA1999999101391MD1999999+0021MW1021REMSYN088AAXX  15124 83398 21597 62302 10272 20248 30139 40144 70262 84520 333 20214 58002 60034;
0167833980999992000041518004-15670-038930FM-12+000599999V0200901N003110450019N0100001N1+02861+02391101111ADDAA199000091GF106991041051008001021001MA1999999101061MD1999999-0061REMSYN070AAXX  15184 83398 32597 60906 10286 20239 30106 40111 84520 333 59006;EQDQ01  00002PRCP99
0186833980999992000041600004-15670-038930FM-12+000599999V0209999C000012200019N9999999N1+02451+02301101441ADDAA199000091GF104991031021008001041001KA1240M+02951MA1999999101391MD1999999+0071REMSYN076AAXX  16004 83398 325// 40000 10245 20230 30139 40144 83240 333 10295 58007;EQDQ01  00002PRCP99
0186833980999992000041612004-15670-038930FM-12+000599999V0202301N002110450019N0100001N1+02661+02371101361ADDAA199000091GF106991041051008001021001KA1240N+02101MA1999999101311MD1999999-0081REMSYN076AAXX  16124 83398 32597 62304 10266 20237 30131 40136 84520 333 20210 59008;EQDQ01  00002PRCP99
0154833980999992000041618004-15670-038930FM-12+000599999V0201801N002110450019N0100001N1+02641+02331101061ADDAA106002091GF106991041051008001021001MA1999999101011MD1999999-0051REMSYN076AAXX  16184 83398 21597 61804 10264 20233 30101 40106 84520 333 59005 60021;
0186833980999992000041700004-15670-038930FM-12+000599999V0202301N001012200019N9999999N1+02431+02321101331ADDAA199000091GF104991031021008001041001KA1240M+02861MA1999999101281MD1999999+0111REMSYN076AAXX  17004 83398 325// 42302 10243 20232 30128 40133 83240 333 10286 58011;EQDQ01  00002PRCP99
0201833980999992000041712004-15670-038930FM-12+000599999V0202301N002110450019N0100001N1+02611+02291101341ADDAA124003091AY151061AY221061GF105991031021008001041001KA1240N+02161MA1999999101291MD1999999-0021MW1011REMSYN088AAXX  17124 83398 21597 52304 10261 20229 30129 40134 70152 83240 333 20216 59002 60034;
0182833980999992000041718004-15670-038930FM-12+000599999V0201801N002110042019N0040001N1+02661+02271101131ADDAA106019191AY161061AY221061GF108991051051004501021999MA1999999101081MD1999999+0071MW1021REMSYN082AAXX  17184 83398 21496 81804 10266 20227 30108 40113 70262 8552/ 333 58007 60191;
0201833980999992000041800004-15670-038930FM-12+000599999V0201401N002110075019N9999999N1+02461+02301101291ADDAA106004191AY161061AY221061GF108991051071008001021999KA1240M+02731MA1999999101241MD1999999-0041MW1611REMSYN088AAXX  18004 83398 215// 81404 10246 20230 30124 40129 76162 8572/ 333 10273 59004 60041;
0201833980999992000041812004-15670-038930FM-12+000599999V0202701N001010042019N0040001N1+02481+02291101381ADDAA124040991AY161061AY221061GF107991051051004501021001KA1240N+02071MA1999999101331MD1999999+0041MW1021REMSYN088AAXX  18124 83398 21496 72702 10248 20229 30133 40138 70262 85520 333 20207 58004 60414;
0182833980999992000041818004-15670-038930FM-12+000599999V0200901N002110450019N0100001N1+02701+02411101141ADDAA106004191AY161061AY221061GF106991041051008001021001MA1999999101091MD1999999+0011MW1021REMSYN082AAXX  18184 83398 21597 60904 10270 20241 30109 40114 70262 84520 333 58001 60041;
0186833980999992000041900004-15670-038930FM-12+000599999V0209999C000010450019N9999999N1+02391+02281101271ADDAA199000091GF106991041021008001041001KA1240M+02821MA1999999101221MD1999999-0021REMSYN076AAXX  19004 83398 325// 60000 10239 20228 30122 40127 84240 333 10282 59002;EQDQ01  00002PRCP99
0173833980999992000041912004-15670-038930FM-12+000599999V0202701N001012200019N0200001N1+02701+02351101321ADDAA124004191GF103991021021008001041001KA1240N+02081MA1999999101271MD1999999-0061REMSYN082AAXX  19124 83398 22598 32702 10270 20235 30127 40132 82240 333 20208 59006 60044;
0167833980999992000041918004-15670-038930FM-12+000599999V0200501N002112200019N0200001N1+02861+02331101111ADDAA199000091GF103991021021008001041001MA1999999101061MD1999999-0031REMSYN070AAXX  19184 83398 32598 30504 10286 20233 30106 40111 82240 333 59003;EQDQ01  00002PRCP99
0186833980999992000042000004-15670-038930FM-12+000599999V0200501N002110450019N9999999N1+02641+02331101151ADDAA199000091GF106991041021008001041001KA1240M+02871MA1999999101101MD1999999-0121REMSYN076AAXX  20004 83398 325// 60504 10264 20233 30110 40115 84240 333 10287 59012;EQDQ01  00002PRCP99
0186833980999992000042012004-15670-038930FM-12+000599999V0203601N002110450019N0100001N1+02801+02561101201ADDAA199000091GF106991041021008001051001KA1240N+02141MA1999999101151MD1999999-0121REMSYN076AAXX  20124 83398 32597 63604 10280 20256 30115 40120 84250 333 20214 59012;EQDQ01  00002PRCP99
0167833980999992000042018004-15670-038930FM-12+000599999V0200501N003110450019N0200001N1+02881+02501100931ADDAA199000091GF106991041021008001051001MA1999999100881MD1999999-0181REMSYN070AAXX  20184 83398 32598 60506 10288 20250 30088 40093 84250 333 59018;EQDQ01  00002PRCP99
0186833980999992000042112004-15670-038930FM-12+000599999V0203601N003110450019N0100001N1+02861+02461100951ADDAA199000091GF106991041021008001041001KA1240N+02241MA1999999100941MD1999999-0211REMSYN076AAXX  21124 83398 32597 63606 10286 20246 30094 40095 84240 333 20224 59021;EQDQ01  00002PRCP99
0167833980999992000042118004-15670-038930FM-12+000599999V0203601N004110450019N0200001N1+02961+02531100591ADDAA199000091GF106991031021008001041001MA1999999100541MD1999999-0241REMSYN070AAXX  21184 83398 32598 63608 10296 20253 30054 40059 83240 333 59024;EQDQ01  00002PRCP99
0186833980999992000042200004-15670-038930FM-12+000599999V0209999C000010450019N9999999N1+02681+02481100811ADDAA199000091GF105991021021008001051001KA1240M+03141MA1999999100761MD1999999-0131REMSYN076AAXX  22004 83398 325// 50000 10268 20248 30076 40081 82250 333 10314 59013;EQDQ01  00002PRCP99
0167833980999992000042218004-15670-038930FM-12+000599999V0202701N002110075019N0100001N1+02661+02461100811ADDAA199000091GF107991051051008001021001MA1999999100761MD1999999+0221REMSYN070AAXX  22184 83398 32597 72704 10266 20246 30076 40081 85520 333 58022;EQDQ01  00002PRCP99
0186833980999992000042300004-15670-038930FM-12+000599999V0209999C000012200019N9999999N1+02511+02361101141ADDAA199000091GF104991021021008001041001KA1240M+02841MA1999999101091MD1999999+0231REMSYN076AAXX  23004 83398 325// 40000 10251 20236 30109 40114 82240 333 10284 58023;EQDQ01  00002PRCP99
0201833980999992000042312004-15670-038930FM-12+000599999V0201801N003110450019N0100001N1+02681+02391101261ADDAA124003091AY161061AY221061GF107991041051008001021001KA1240N+02301MA1999999101211MD1999999+0261MW1021REMSYN088AAXX  23124 83398 21597 71806 10268 20239 30121 40126 70262 84520 333 20230 58026 60034;
0167833980999992000042318004-15670-038930FM-12+000599999V0201401N002110450019N0100001N1+02751+02231101141ADDAA199000091GF106991041051008001051001MA1999999101091MD1999999+0331REMSYN070AAXX  23184 83398 32597 61404 10275 20223 30109 40114 84550 333 58033;EQDQ01  00002PRCP99
0186833980999992000042400004-15670-038930FM-12+000599999V0209999C000012200019N9999999N1+02511+02361101141ADDAA199000091GF104991021021008001041001KA1240M+02841MA1999999101091MD1999999+0231REMSYN076AAXX  24004 83398 325// 40000 10251 20236 30109 40114 82240 333 10284 58023;EQDQ01  00002PRCP99
0167833980999992000042418004-15670-038930FM-12+000599999V0201801N002112200019N0200001N1+02811+02131101171ADDAA199000091GF103991021021008001041001MA1999999101121MD1999999+0031REMSYN070AAXX  24184 83398 32598 31804 10281 20213 30112 40117 82240 333 58003;EQDQ01  00002PRCP99
0186833980999992000042500004-15670-038930FM-12+000599999V0202301N001010450019N9999999N1+02291+02131101441ADDAA199000091GF106991041021008001041001KA1240M+02871MA1999999101391MD1999999-0011REMSYN076AAXX  25004 83398 325// 62302 10229 20213 30139 40144 84240 333 10287 59001;EQDQ01  00002PRCP99
0186833980999992000042512004-15670-038930FM-12+000599999V0201801N002112200019N0200001N1+02601+02101101461ADDAA199000091GF103991021021008001041001KA1240N+01941MA1999999101411MD1999999-0031REMSYN076AAXX  25124 83398 32598 31804 10260 20210 30141 40146 82240 333 20194 59003;EQDQ01  00002PRCP99
0167833980999992000042518004-15670-038930FM-12+000599999V0201801N002112200019N0200001N1+02771+01881101171ADDAA199000091GF103991031021008001001001MA1999999101121MD1999999+0001REMSYN070AAXX  25184 83398 32598 31804 10277 20188 30112 40117 83200 333 58000;EQDQ01  00002PRCP99
0186833980999992000042600004-15670-038930FM-12+000599999V0209999C000012200019N9999999N1+02171+02031101491ADDAA199000091GF102991011011008001041001KA1240M+02861MA1999999101441MD1999999+0051REMSYN076AAXX  26004 83398 325// 20000 10217 20203 30144 40149 81140 333 10286 58005;EQDQ01  00002PRCP99
0186833980999992000042612004-15670-038930FM-12+000599999V0202301N002110450019N0200001N1+02581+02191101661ADDAA199000091GF105991031011008001041041KA1240N+01931MA1999999101601MD1999999+0191REMSYN076AAXX  26124 83398 32598 52304 10258 20219 30160 40166 83144 333 20193 58019;EQDQ01  00002PRCP99
0182833980999992000042618004-15670-038930FM-12+000599999V0202301N003110450019N0040001N1+02421+02211101351ADDAA106004191AY161061AY221061GF106991041051004501021001MA1999999101301MD1999999+0181MW1601REMSYN082AAXX  26184 83398 21496 62306 10242 20221 30130 40135 76062 84520 333 58018 60041;
0167833980999992000042700004-15670-038930FM-12+000599999V0202301N002112200019N9999999N1+02301+02031101611ADDAA199000021GF102991011011008001041001KA1240M+02791MA1999999101551MD1999999+0111REMSYN076AAXX  27004 83398 325// 22304 10230 20203 30155 40161 81140 333 10279 58011;
0201833980999992000042712004-15670-038930FM-12+000599999V0202301N002112200019N0100001N1+02531+02231101581ADDAA124024991AY161061AY221061GF104991031011008001041001KA1240N+02021MA1999999101531MD1999999-0071MW1011REMSYN088AAXX  27124 83398 21597 42304 10253 20223 30153 40158 70162 83140 333 20202 59007 60254;
0153833980999992000042718004-15670-038930FM-12+000599999V0201801N001010450019N0040001N1+02731+02281101441ADDAA199000091GF107991041051008001021001MA1999999101391REMSYN070AAXX  27184 83398 32596 71802 10273 20228 30139 40144 84520 333 5809/;EQDQ01  00002PRCP99
0201833980999992000042800004-15670-038930FM-12+000599999V0202301N002110450019N9999999N1+02191+02061101661ADDAA106011991AY161061AY221061GF107991041051008001021001KA1240M+02861MA1999999101601MD1999999+0051MW1021REMSYN088AAXX  28004 83398 215// 72304 10219 20206 30160 40166 70262 84520 333 10286 58005 60121;
0201833980999992000042812004-15670-038930FM-12+000599999V0202701N001010042019N0040001N1+02401+02241101791ADDAA124013091AY151061AY221061GF108991051071004501021999KA1240N+02041MA1999999101731MD1999999+0201MW1501REMSYN088AAXX  28124 83398 21496 82702 10240 20224 30173 40179 75052 8572/ 333 20204 58020 60134;
0171833980999992000042818004-15670-038930FM-12+000599999V0202701N001010042019N0040001N1+02461+02301101541ADDAY161061AY221061GF108991051071004501021999MA1999999101491MD1999999+0101MW1601REMSYN082AAXX  28184 83398 21496 82702 10246 20230 30149 40154 76062 8572/ 333 58010 58031;
0167833980999992000042900004-15670-038930FM-12+000599999V0202301N001010075019N9999999N1+02331+02241101711ADDAA199000021GF108991051051008001021999KA1240M+02721MA1999999101651MD1999999+0051REMSYN076AAXX  29004 83398 325// 82302 10233 20224 30165 40171 8552/ 333 10272 58005;
0188833980999992000042912004-15670-038930FM-12+000599999V0202701N001010042019N0040001N1+02441+02281101761ADDAA124018091AY161061AY221061GF107991051051004501021001MA1999999101701MD1999999-0031MW1021REMSYN088AAXX  29124 83398 21496 72702 10244 20228 30170 40176 70262 85520 333 2011/ 59003 60184;
0167833980999992000042918004-15670-038930FM-12+000599999V0201801N002110450019N0200001N1+02801+02381101341ADDAA199000091GF106991041051008001021001MA1999999101291MD1999999-0201REMSYN070AAXX  29184 83398 32598 61804 10280 20238 30129 40134 84520 333 59020;EQDQ01  00002PRCP99
0201833980999992000043000004-15670-038930FM-12+000599999V0202301N001012200019N9999999N1+02321+02201101661ADDAA106002091AY161061AY221061GF104991031051008001021001KA1240M+02881MA1999999101601MD1999999-0051MW1021REMSYN088AAXX  30004 83398 215// 42302 10232 20220 30160 40166 70262 83520 333 10288 59005 60021;
0201833980999992000043012004-15670-038930FM-12+000599999V0202701N001010450019N0040001N1+02481+02341101641ADDAA124016091AY191061AY261061GF107991041051008001021001KA1240N+02081MA1999999101581MD1999999-0121MW1521REMSYN088AAXX  30124 83398 21596 72702 10248 20234 30158 40164 75296 84520 333 20208 59012 60164;
0182833980999992000043018004-15670-038930FM-12+000599999V0201401N003110450019N0100001N1+02741+02381101341ADDAA106003091AY161061AY221061GF107991041051008001021001MA1999999101291MD1999999+0001MW1021REMSYN082AAXX  30184 83398 21597 71406 10274 20238 30129 40134 70262 84520 333 58000 60031;
0201833980999992000050100004-15670-038930FM-12+000599999V0202301N001010075019N9999999N1+02371+02261101661ADDAA106002091AY161061AY221061GF108991051071008001021999KA1240M+02851MA1999999101601MD1999999+0001MW1611REMSYN088AAXX  01004 83398 215// 82302 10237 20226 30160 40166 76162 8572/ 333 10285 58000 60021;
0201833980999992000050112004-15670-038930FM-12+000599999V0201401N002110075019N0100001N1+02471+02321101581ADDAA124008991AY161061AY221061GF107991051051008001021001KA1240N+02171MA1999999101531MD1999999-0051MW1501REMSYN088AAXX  01124 83398 21597 71404 10247 20232 30153 40158 75062 85520 333 20217 59005 60094;
0182833980999992000050118004-15670-038930FM-12+000599999V0201401N003110450019N0040001N1+02361+02241101351ADDAA106003091AY161061AY221061GF108991041071008001021999MA1999999101301MD1999999+0011MW1621REMSYN082AAXX  01184 83398 21596 81406 10236 20224 30130 40135 76262 8472/ 333 58001 60031;
0201833980999992000050200004-15670-038930FM-12+000599999V0202301N001010450019N9999999N1+02321+02241101591ADDAA106009991AY161061AY221061GF106991041051008001021001KA1240M+02861MA1999999101531MD1999999-0071MW1021REMSYN088AAXX  02004 83398 215// 62302 10232 20224 30153 40159 70262 84520 333 10286 59007 60101;
0201833980999992000050212004-15670-038930FM-12+000599999V0201401N002110450019N0100001N1+02681+02451101641ADDAA124022191AY161061AY221061GF105991031051004501041011KA1240N+02141MA1999999101581MD1999999+0051MW1011REMSYN088AAXX  02124 83398 21497 51404 10268 20245 30158 40164 70162 83541 333 20214 58005 60224;
0167833980999992000050218004-15670-038930FM-12+000599999V0200501N002110075019N0040001N1+02621+02331101261ADDAA199000091GF107991051071008001021001MA1999999101211MD1999999-0091REMSYN070AAXX  02184 83398 32596 70504 10262 20233 30121 40126 85720 333 59009;EQDQ01  00002PRCP99
0201833980999992000050312004-15670-038930FM-12+000599999V0200901N002110450019N0100001N1+02801+02441101551ADDAA124020191AY161061AY221061GF106991041051008001021001KA1240N+02091MA1999999101501MD1999999-0081MW1021REMSYN088AAXX  03124 83398 21597 60904 10280 20244 30150 40155 70262 84520 333 20209 59008 60204;
0167833980999992000050318004-15670-038930FM-12+000599999V0200901N003110450019N0200001N1+02801+02341101251ADDAA199000091GF106991031051008001021011MA1999999101201MD1999999-0011REMSYN070AAXX  03184 83398 32598 60906 10280 20234 30120 40125 83521 333 59001;EQDQ01  00002PRCP99
0201833980999992000050400004-15670-038930FM-12+000599999V0202301N001010450019N9999999N1+02461+02321101471ADDAA106003091AY161061AY221061GF106991041051008001021001KA1240M+02911MA1999999101421MD1999999-0071MW1021REMSYN088AAXX  04004 83398 215// 62302 10246 20232 30142 40147 70262 84520 333 10291 59007 60031;
0201833980999992000050412004-15670-038930FM-12+000599999V0202301N002110450019N0100001N1+02641+02331101621ADDAA124010991AY161061AY221061GF105991041021004501041001KA1240N+02091MA1999999101561MD1999999+0061MW1011REMSYN088AAXX  04124 83398 21497 52304 10264 20233 30156 40162 70162 84240 333 20209 58006 60114;
0167833980999992000050418004-15670-038930FM-12+000599999V0201401N002110450019N0200001N1+02811+02381101301ADDAA199000091GF105991031021008001041001MA1999999101251MD1999999+0051REMSYN070AAXX  04184 83398 32598 51404 10281 20238 30125 40130 83240 333 58005;EQDQ01  00002PRCP99
0186833980999992000050500004-15670-038930FM-12+000599999V0201401N001010450019N9999999N1+02491+02251101411ADDAA199000091GF106991041051008001021001KA1240M+02911MA1999999101361MD1999999-0061REMSYN076AAXX  05004 83398 325// 61402 10249 20225 30136 40141 84520 333 10291 59006;EQDQ01  00002PRCP99
0201833980999992000050512004-15670-038930FM-12+000599999V0202701N002112200019N0200001N1+02561+02271101621ADDAA124015091AY161061AY221061GF104991021021008001041001KA1240N+02071MA1999999101561MD1999999+0001MW1011REMSYN088AAXX  05124 83398 21598 42704 10256 20227 30156 40162 70162 82240 333 20207 58000 60154;
0167833980999992000050518004-15670-038930FM-12+000599999V0201401N003112200019N0200001N1+02811+02311101171ADDAA199000091GF104991031011008001041001MA1999999101121MD1999999-0131REMSYN070AAXX  05184 83398 32598 41406 10281 20231 30112 40117 83140 333 59013;EQDQ01  00002PRCP99
0186833980999992000050600004-15670-038930FM-12+000599999V0201401N001012200019N9999999N1+02551+02211101421ADDAA199000091GF102991011011008001041001KA1240M+02891MA1999999101371MD1999999+0011REMSYN076AAXX  06004 83398 325// 21402 10255 20221 30137 40142 81140 333 10289 58001;EQDQ01  00002PRCP99
0186833980999992000050612004-15670-038930FM-12+000599999V0202701N002112200019N0200001N1+02621+02311101491ADDAA199000091GF103991031021008001001001KA1240N+01951MA1999999101441MD1999999-0121REMSYN076AAXX  06124 83398 32598 32704 10262 20231 30144 40149 83200 333 20195 59012;EQDQ01  00002PRCP99
0167833980999992000050618004-15670-038930FM-12+000599999V0200901N003112200019N0200001N1+02791+02361101031ADDAA199000091GF104991021021008001041001MA1999999100981MD1999999-0141REMSYN070AAXX  06184 83398 32598 40906 10279 20236 30098 40103 82240 333 59014;EQDQ01  00002PRCP99
0186833980999992000050700004-15670-038930FM-12+000599999V0200501N001012200019N9999999N1+02521+02231101301ADDAA199000091GF102991011011008001041001KA1240M+02871MA1999999101251MD1999999-0121REMSYN076AAXX  07004 83398 325// 20502 10252 20223 30125 40130 81140 333 10287 59012;EQDQ01  00002PRCP99
0186833980999992000050712004-15670-038930FM-12+000599999V0203201N002110450019N0100001N1+02741+02471101291ADDAA199000091GF105991031021008001041001KA1240N+02021MA1999999101241MD1999999-0201REMSYN076AAXX  07124 83398 32597 53204 10274 20247 30124 40129 83240 333 20202 59020;EQDQ01  00002PRCP99
0167833980999992000050718004-15670-038930FM-12+000599999V0200501N003112200019N0200001N1+02861+02461101001ADDAA199000091GF104991031021008001041001MA1999999100951MD1999999-0031REMSYN070AAXX  07184 83398 32598 40506 10286 20246 30095 40100 83240 333 59003;EQDQ01  00002PRCP99
0186833980999992000050800004-15670-038930FM-12+000599999V0200501N001012200019N9999999N1+02511+02371101341ADDAA199000091GF103991021021008001041001KA1240M+02961MA1999999101291MD1999999+0041REMSYN076AAXX  08004 83398 325// 30502 10251 20237 30129 40134 82240 333 10296 58004;EQDQ01  00002PRCP99
0186833980999992000050812004-15670-038930FM-12+000599999V0202701N001012200019N0200001N1+02661+02431101621ADDAA199000091GF103991021021008001041001KA1240N+02051MA1999999101561MD1999999+0321REMSYN076AAXX  08124 83398 32598 32702 10266 20243 30156 40162 82240 333 20205 58032;EQDQ01  00002PRCP99
0167833980999992000050818004-15670-038930FM-12+000599999V0200501N002112200019N0200001N1+02841+02261101261ADDAA199000091GF104991031011008001041001MA1999999101211MD1999999+0271REMSYN070AAXX  08184 83398 32598 40504 10284 20226 30121 40126 83140 333 58027;EQDQ01  00002PRCP99
0186833980999992000050900004-15670-038930FM-12+000599999V0209999C000010450019N9999999N1+02501+02341101451ADDAA199000091GF106991041021008001041001KA1240M+02961MA1999999101401MD1999999+0111REMSYN076AAXX  09004 83398 325// 60000 10250 20234 30140 40145 84240 333 10296 58011;EQDQ01  00002PRCP99
0186833980999992000050912004-15670-038930FM-12+000599999V0202701N001012200019N0200001N1+02671+02391101581ADDAA199000091GF103991021011008001041001KA1240N+02091MA1999999101531MD1999999-0031REMSYN076AAXX  09124 83398 32598 32702 10267 20239 30153 40158 82140 333 20209 59003;EQDQ01  00002PRCP99
0167833980999992000050918004-15670-038930FM-12+000599999V0200501N003112200019N0200001N1+02841+02401101111ADDAA199000091GF104991031021008001041001MA1999999101061MD1999999-0151REMSYN070AAXX  09184 83398 32598 40506 10284 20240 30106 40111 83240 333 59015;EQDQ01  00002PRCP99
0186833980999992000051000004-15670-038930FM-12+000599999V0209999C000012200019N9999999N1+02421+02261101281ADDAA199000091GF102991011011008001041001KA1240M+02921MA1999999101231MD1999999-0171REMSYN076AAXX  10004 83398 325// 20000 10242 20226 30123 40128 81140 333 10292 59017;EQDQ01  00002PRCP99
0186833980999992000051012004-15670-038930FM-12+000599999V0201801N001010450019N0040001N1+02511+02311101641ADDAA199000091GF107991041051004501021001KA1240N+02051MA1999999101581MD1999999+0051REMSYN076AAXX  10124 83398 32496 71802 10251 20231 30158 40164 84520 333 20205 58005;EQDQ01  00002PRCP99
0186833980999992000051100004-15670-038930FM-12+000599999V0202301N001012200019N9999999N1+02241+02091101531ADDAA199000091GF104991031011008001041001KA1240M+02761MA1999999101481MD1999999+0251REMSYN076AAXX  11004 83398 325// 42302 10224 20209 30148 40153 83140 333 10276 58025;EQDQ01  00002PRCP99
0201833980999992000051112004-15670-038930FM-12+000599999V0202301N002110450019N0040001N1+02411+02211101741ADDAA124002091AY151061AY221061GF107991041051004501021001KA1240N+01971MA1999999101681MD1999999+0101MW1021REMSYN088AAXX  11124 83398 21496 72304 10241 20221 30168 40174 70252 84520 333 20197 58010 60024;
0167833980999992000051118004-15670-038930FM-12+000599999V0201801N002110450019N0040001N1+02541+02131101511ADDAA199000091GF107991041051004501021001MA1999999101461MD1999999+0221REMSYN070AAXX  11184 83398 32496 71804 10254 20213 30146 40151 84520 333 58022;EQDQ01  00002PRCP99
0186833980999992000051200004-15670-038930FM-12+000599999V0202301N002112200019N9999999N1+02151+01881101681ADDAA199000091GF103991021021008001041001KA1240M+02671MA1999999101621MD1999999+0141REMSYN076AAXX  12004 83398 325// 32304 10215 20188 30162 40168 82240 333 10267 58014;EQDQ01  00002PRCP99
0186833980999992000051212004-15670-038930FM-12+000599999V0202301N002112200019N0200001N1+02421+02011101701ADDAA199000091GF102991011021008001041001KA1240N+01771MA1999999101641MD1999999-0041REMSYN076AAXX  12124 83398 32598 22304 10242 20201 30164 40170 81240 333 20177 59004;EQDQ01  00002PRCP99
0167833980999992000051218004-15670-038930FM-12+000599999V0201801N002110450019N0200001N1+02581+02101101551ADDAA199000091GF106991031051008001051001MA1999999101501MD1999999+0041REMSYN070AAXX  12184 83398 32598 61804 10258 20210 30150 40155 83550 333 58004;EQDQ01  00002PRCP99
0202833980999992000051300004-15670-038930FM-12+000599999V0202301N002112200019N9999999N1+02181+01991101761ADDAA199000091GF103991999051008001021001KA1240M+02711MA1999999101701MD1999999+0081REMSYN076AAXX  13004 83398 325// 32304 10218 20199 30170 40176 84520 333 10271 58008;EQDQ01+000042SCOTLCQ02  00002PRCP99
0201833980999992000051312004-15670-038930FM-12+000599999V0202301N003110450019N0100001N1+02381+02091101691ADDAA124002091AY161061AY221061GF105991031051008001041001KA1240N+01841MA1999999101631MD1999999-0011MW1021REMSYN088AAXX  13124 83398 21597 52306 10238 20209 30163 40169 70262 83540 333 20184 59001 60024;
0167833980999992000051318004-15670-038930FM-12+000599999V0201801N003110450019N0200001N1+02581+02011101451ADDAA199000091GF106991041051008001021001MA1999999101401MD1999999-0101REMSYN070AAXX  13184 83398 32598 61806 10258 20201 30140 40145 84520 333 59010;EQDQ01  00002PRCP99
0201833980999992000051412004-15670-038930FM-12+000599999V0202301N003110450019N0040001N1+02201+02061101791ADDAA124004191AY161061AY221061GF107991041051008001021001KA1240N+01861MA1999999101711MD1999999+0081MW1511REMSYN088AAXX  14124 83398 21596 72306 10220 20206 30171 40179 75162 84520 333 20186 58008 60044;
0167833980999992000051500004-15670-038930FM-12+000599999V0202301N001010075019N9999999N1+02301+02141101741ADDAA199000021GF107991051051008001041001KA1240M+02691MA1999999101681MD1999999-0021REMSYN076AAXX  15004 83398 325// 72302 10230 20214 30168 40174 85540 333 10269 59002;
0220833980999992000051512004-15670-038930FM-12+000599999V0202301N001012200019N0200001N1+01241+99999101681ADDAA124003091AY151061AY221061GF102991011021008001041001KA1240N+99999MA1999999101621MD1999999-0091MW1011REMSYN088AAXX  15124 83398 21598 22302 10124 20209 30162 40168 70152 81240 333 20175 59009 60034;EQDQ01 +01752ATMN  
0167833980999992000051518004-15670-038930FM-12+000599999V0200901N002112200019N0200001N1+02671+01941101241ADDAA199000091GF102991021021008001001001MA1999999101191MD1999999-0151REMSYN070AAXX  15184 83398 32598 20904 10267 20194 30119 40124 82200 333 59015;EQDQ01  00002PRCP99
0186833980999992000051600004-15670-038930FM-12+000599999V0209999C000012200019N9999999N1+02031+01921101411ADDAA199000091GF102991011011008001041001KA1240M+02751MA1999999101361MD1999999-0321REMSYN076AAXX  16004 83398 325// 20000 10203 20192 30136 40141 81140 333 10275 59032;EQDQ01  00002PRCP99
0186833980999992000051612004-15670-038930FM-12+000599999V0202701N001012200019N0200001N1+02411+02011101471ADDAA199000091GF102991011021008001041001KA1240N+01601MA1999999101421MD1999999-0201REMSYN076AAXX  16124 83398 32598 22702 10241 20201 30142 40147 81240 333 20160 59020;EQDQ01  00002PRCP99
0167833980999992000051618004-15670-038930FM-12+000599999V0200501N002111050019N0200001N1+02701+01961101121ADDAA199000091GF105991021021008001041041MA1999999101071MD1999999-0121REMSYN070AAXX  16184 83398 32598 50504 10270 20196 30107 40112 82244 333 59012;EQDQ01  00002PRCP99
0186833980999992000051700004-15670-038930FM-12+000599999V0209999C000012200019N9999999N1+02101+01981101361ADDAA199000091GF102991011011008001041001KA1240M+02801MA1999999101311MD1999999-0051REMSYN076AAXX  17004 83398 325// 20000 10210 20198 30131 40136 81140 333 10280 59005;EQDQ01  00002PRCP99
0186833980999992000051712004-15670-038930FM-12+000599999V0203201N001012200019N0200001N1+02521+02231101471ADDAA199000091GF103991011021008001041011KA1240N+01681MA1999999101421MD1999999+0001REMSYN076AAXX  17124 83398 32598 33202 10252 20223 30142 40147 81241 333 20168 58000;EQDQ01  00002PRCP99
0167833980999992000051718004-15670-038930FM-12+000599999V0200501N002112200019N0200001N1+02701+02281101041ADDAA199000091GF103991011021008001041011MA1999999100981MD1999999-0091REMSYN070AAXX  17184 83398 32598 30504 10270 20228 30098 40104 81241 333 59009;EQDQ01  00002PRCP99
0186833980999992000051800004-15670-038930FM-12+000599999V0203601N001012200019N9999999N1+02311+02221101151ADDAA199000091GF102991011011008001041041KA1240M+02871MA1999999101101MD1999999-0211REMSYN076AAXX  18004 83398 325// 23602 10231 20222 30110 40115 81144 333 10287 59021;EQDQ01  00002PRCP99
0186833980999992000051812004-15670-038930FM-12+000599999V0203201N002112200019N0200001N1+02721+02321101361ADDAA199000091GF103991021011008001041001KA1240N+01881MA1999999101311MD1999999-0111REMSYN076AAXX  18124 83398 32598 33204 10272 20232 30131 40136 82140 333 20188 59011;EQDQ01  00002PRCP99
0167833980999992000051818004-15670-038930FM-12+000599999V0200501N003110450019N0200001N1+02801+02361100801ADDAA199000091GF105991031021008001041001MA1999999100751MD1999999-0231REMSYN070AAXX  18184 83398 32598 50506 10280 20236 30075 40080 83240 333 59023;EQDQ01  00002PRCP99
0186833980999992000051900004-15670-038930FM-12+000599999V0203601N003112200019N9999999N1+02561+02381101091ADDAA199000091GF104991021011008001041041KA1240M+02921MA1999999101041MD1999999-0061REMSYN076AAXX  19004 83398 325// 43606 10256 20238 30104 40109 82144 333 10292 59006;EQDQ01  00002PRCP99
0186833980999992000051912004-15670-038930FM-12+000599999V0203201N002112200019N0200001N1+02861+02351101321ADDAA199000091GF103991011011008001041011KA1240N+02171MA1999999101271MD1999999-0041REMSYN076AAXX  19124 83398 32598 33204 10286 20235 30127 40132 81141 333 20217 59004;EQDQ01  00002PRCP99
0167833980999992000051918004-15670-038930FM-12+000599999V0200501N003112200019N0200001N1+02901+02461101101ADDAA199000091GF104991021011008001041011MA1999999101051MD1999999+0301REMSYN070AAXX  19184 83398 32598 40506 10290 20246 30105 40110 82141 333 58030;EQDQ01  00002PRCP99
0186833980999992000052000004-15670-038930FM-12+000599999V0209999C000010450019N9999999N1+02461+02321101371ADDAA199000091GF106991031021008001041001KA1240M+03151MA1999999101321MD1999999+0281REMSYN076AAXX  20004 83398 325// 60000 10246 20232 30132 40137 83240 333 10315 58028;EQDQ01  00002PRCP99
0186833980999992000052012004-15670-038930FM-12+000599999V0201801N003110450019N0100001N1+02601+02391101551ADDAA199000091GF106991031051008001021001KA1240N+02161MA1999999101501MD1999999+0231REMSYN076AAXX  20124 83398 32597 61806 10260 20239 30150 40155 83520 333 20216 58023;EQDQ01  00002PRCP99
0167833980999992000052018004-15670-038930FM-12+000599999V0201401N002110450019N0200001N1+02661+02391101341ADDAA199000091GF106991041051008001021001MA1999999101291MD1999999+0241REMSYN070AAXX  20184 83398 32598 61404 10266 20239 30129 40134 84520 333 58024;EQDQ01  00002PRCP99
0186833980999992000052100004-15670-038930FM-12+000599999V0201401N002110075019N9999999N1+02451+02301101651ADDAA199000091GF108991051051008001021999KA1240M+02921MA1999999101591MD1999999+0271REMSYN076AAXX  21004 83398 325// 81404 10245 20230 30159 40165 8552/ 333 10292 58027;EQDQ01  00002PRCP99
0201833980999992000052112004-15670-038930FM-12+000599999V0201801N003110075019N0040001N1+02301+02221101671ADDAA124003091AY161061AY221061GF108991051051008001021999KA1240N+02081MA1999999101611MD1999999+0111MW1511REMSYN088AAXX  21124 83398 21596 81806 10230 20222 30161 40167 75162 8552/ 333 20208 58011 60034;
0182833980999992000052118004-15670-038930FM-12+000599999V0201801N003110075019N0040001N1+02321+02201101541ADDAA106034091AY161061AY221061GF108991051051008001021999MA1999999101491MD1999999+0201MW1021REMSYN082AAXX  21184 83398 21596 81806 10232 20220 30149 40154 70262 8552/ 333 58020 60341;
0201833980999992000052200004-15670-038930FM-12+000599999V0202301N001010075019N9999999N1+02461+02361101371ADDAA106001091AY161061AY221061GF108991051051008001021999KA1240M+02971MA1999999101321MD1999999-0271MW1021REMSYN088AAXX  22004 83398 215// 82302 10246 20236 30132 40137 70262 8552/ 333 10297 59027 60011;
0201833980999992000052212004-15670-038930FM-12+000599999V0202301N001010042019N0040001N1+02181+02101102041ADDAA124043991AY161061AY221061GF108991051051004501021999KA1240N+01981MA1999999101981MD1999999+0371MW1021REMSYN088AAXX  22124 83398 21496 82302 10218 20210 30198 40204 70262 8552/ 333 20198 58037 60444;
0154833980999992000052218004-15670-038930FM-12+000599999V0201801N001010042019N0040001N1+02301+99999101901ADDAA124002091GF108991051051004501021999MA1999999101841MD1999999+0351REMSYN076AAXX  22184 83398 21496 81802 10230 20/// 30184 40190 8552/ 333 58035 60024;
0184833980999992000052300004-15670-038930FM-12+000599999V0203201N001010075019N9999999N1+02121+02041102061ADDAY161061AY221061GF108991051071008001021999KA1240M+02471MA1999999102001MD1999999+0681MW1611REMSYN082AAXX  23004 83398 215// 83202 10212 20204 30200 40206 76162 8572/ 333 10247 58068;
0201833980999992000052312004-15670-038930FM-12+000599999V0202301N001010042019N0040001N1+02211+02021102151ADDAA124010991AY161061AY221061GF108991051051004501021999KA1240N+01911MA1999999102091MD1999999+0111MW1021REMSYN088AAXX  23124 83398 21496 82302 10221 20202 30209 40215 70262 8552/ 333 20191 58011 60114;
0167833980999992000052318004-15670-038930FM-12+000599999V0201801N001010450019N0040001N1+02481+01901101961ADDAA199000091GF107991041051004501051001MA1999999101901MD1999999+0061REMSYN070AAXX  23184 83398 32496 71802 10248 20190 30190 40196 84550 333 58006;EQDQ01  00002PRCP99
0186833980999992000052400004-15670-038930FM-12+000599999V0202301N001012200019N9999999N1+02051+01801101981ADDAA199000091GF103991021021008001041001KA1240M+02491MA1999999101921MD1999999-0081REMSYN076AAXX  24004 83398 325// 32302 10205 20180 30192 40198 82240 333 10249 59008;EQDQ01  00002PRCP99
0186833980999992000052412004-15670-038930FM-12+000599999V0202301N002110075019N0040001N1+02101+01951102101ADDAA199000091GF108991051051008001021999KA1240N+01761MA1999999102041MD1999999-0051REMSYN076AAXX  24124 83398 32596 82304 10210 20195 30204 40210 8552/ 333 20176 59005;EQDQ01  00002PRCP99
0182833980999992000052418004-15670-038930FM-12+000599999V0202301N001010042019N0040001N1+02331+02071101731ADDAA106000191AY151061AY221061GF108991051051004501021999MA1999999101671MD1999999-0231MW1021REMSYN082AAXX  24184 83398 21496 82302 10233 20207 30167 40173 70252 8552/ 333 59023 69921;
0201833980999992000052500004-15670-038930FM-12+000599999V0202301N003110075019N9999999N1+02091+02031101881ADDAA106005191AY161061AY221061GF108991051071008001021999KA1240M+02381MA1999999101821MD1999999-0101MW1611REMSYN088AAXX  25004 83398 215// 82306 10209 20203 30182 40188 76162 8572/ 333 10238 59010 60051;
0201833980999992000052512004-15670-038930FM-12+000599999V0201801N002110450019N0100001N1+02361+02191101811ADDAA124009991AY161061AY221061GF106991041051008001041001KA1240N+01851MA1999999101751MD1999999-0291MW1021REMSYN088AAXX  25124 83398 21597 61804 10236 20219 30175 40181 70262 84540 333 20185 59029 60104;
0167833980999992000052518004-15670-038930FM-12+000599999V0201801N003110450019N0100001N1+02621+02161101591ADDAA199000091GF106991041051008001041001MA1999999101541MD1999999-0131REMSYN070AAXX  25184 83398 32597 61806 10262 20216 30154 40159 84540 333 59013;EQDQ01  00002PRCP99
0186833980999992000052600004-15670-038930FM-12+000599999V0202301N001010450019N9999999N1+02221+02081101721ADDAA199000091GF106991041051008001041001KA1240M+02731MA1999999101661MD1999999-0161REMSYN076AAXX  26004 83398 325// 62302 10222 20208 30166 40172 84540 333 10273 59016;EQDQ01  00002PRCP99
0186833980999992000052612004-15670-038930FM-12+000599999V0202301N002112200019N0100001N1+02451+02211101791ADDAA199000091GF104991021011008001041001KA1240N+01891MA1999999101731MD1999999-0021REMSYN076AAXX  26124 83398 32597 42304 10245 20221 30173 40179 82140 333 20189 59002;EQDQ01  00002PRCP99
0182833980999992000052618004-15670-038930FM-12+000599999V0201401N001010042019N0040001N1+02441+02301101431ADDAA106004191AY161061AY221061GF108991061071004501021999MA1999999101381MD1999999-0161MW1601REMSYN082AAXX  26184 83398 21496 81402 10244 20230 30138 40143 76062 8672/ 333 59016 60041;
0201833980999992000052700004-15670-038930FM-12+000599999V0202301N001010075019N9999999N1+02291+02251101571ADDAA106003091AY161061AY221061GF107991051051008001021001KA1240M+02721MA1999999101511MD1999999-0151MW1021REMSYN088AAXX  27004 83398 215// 72302 10229 20225 30151 40157 70262 85520 333 10272 59015 60031;
0201833980999992000052712004-15670-038930FM-12+000599999V0202301N001010075019N0040001N1+02361+02281101521ADDAA124008991AY161061AY221061GF107991051051008001021001KA1240N+01981MA1999999101471MD1999999-0261MW1021REMSYN088AAXX  27124 83398 21596 72302 10236 20228 30147 40152 70262 85520 333 20198 59026 60094;
0167833980999992000052718004-15670-038930FM-12+000599999V0203601N003110450019N0100001N1+02661+02331101171ADDAA199000091GF106991041051008001021001MA1999999101121MD1999999-0261REMSYN070AAXX  27184 83398 32597 63606 10266 20233 30112 40117 84520 333 59026;EQDQ01  00002PRCP99
0186833980999992000052800004-15670-038930FM-12+000599999V0209999C000012200019N9999999N1+02371+02291101231ADDAA199000091GF102991011021008001041001KA1240M+02811MA1999999101181MD1999999-0331REMSYN076AAXX  28004 83398 325// 20000 10237 20229 30118 40123 81240 333 10281 59033;EQDQ01  00002PRCP99
0186833980999992000052812004-15670-038930FM-12+000599999V0203201N001010450019N0100001N1+02601+02461101281ADDAA199000091GF106991031051008001041001KA1240N+01971MA1999999101231MD1999999-0241REMSYN076AAXX  28124 83398 32597 63202 10260 20246 30123 40128 83540 333 20197 59024;EQDQ01  00002PRCP99
0167833980999992000052818004-15670-038930FM-12+000599999V0203601N003110450019N0100001N1+02781+02301100951ADDAA199000091GF106991031021008001041001MA1999999100901MD1999999-0221REMSYN070AAXX  28184 83398 32597 63606 10278 20230 30090 40095 83240 333 59022;EQDQ01  00002PRCP99
0186833980999992000052900004-15670-038930FM-12+000599999V0209999C000012200019N9999999N1+02321+02241101031ADDAA199000091GF102991011011008001041001KA1240M+02851MA1999999100981MD1999999-0201REMSYN076AAXX  29004 83398 325// 20000 10232 20224 30098 40103 81140 333 10285 59020;EQDQ01  00002PRCP99
0186833980999992000052912004-15670-038930FM-12+000599999V0202701N001012200019N0200001N1+02551+02311101181ADDAA199000091GF104991021021008001041001KA1240N+01931MA1999999101131MD1999999-0101REMSYN076AAXX  29124 83398 32598 42702 10255 20231 30113 40118 82240 333 20193 59010;EQDQ01  00002PRCP99
0167833980999992000052918004-15670-038930FM-12+000599999V0201401N002111050019N0200001N1+02721+02341101001ADDAA199000091GF105991021021008001041041MA1999999100951MD1999999+0051REMSYN070AAXX  29184 83398 32598 51404 10272 20234 30095 40100 82244 333 58005;EQDQ01  00002PRCP99
0186833980999992000053000004-15670-038930FM-12+000599999V0202301N001012200019N9999999N1+02351+02241101341ADDAA199000091GF103991021021008001041001KA1240M+02881MA1999999101291MD1999999+0311REMSYN076AAXX  30004 83398 325// 32302 10235 20224 30129 40134 82240 333 10288 58031;EQDQ01  00002PRCP99
0201833980999992000053012004-15670-038930FM-12+000599999V0202301N001010450019N0040001N1+02451+02281101551ADDAA124003091AY161061AY221061GF107991041051008001021001KA1240N+02061MA1999999101501MD1999999+0371MW1021REMSYN088AAXX  30124 83398 21596 72302 10245 20228 30150 40155 70262 84520 333 20206 58037 60034;
0167833980999992000053018004-15670-038930FM-12+000599999V0200901N002110450019N0100001N1+02691+02281101231ADDAA199000091GF105991031051008001041001MA1999999101181MD1999999+0171REMSYN070AAXX  30184 83398 32597 50904 10269 20228 30118 40123 83540 333 58017;EQDQ01  00002PRCP99
0186833980999992000053100004-15670-038930FM-12+000599999V0209999C000010450019N9999999N1+02281+02181101361ADDAA199000091GF106991041021008001041001KA1240M+02821MA1999999101311MD1999999+0001REMSYN076AAXX  31004 83398 325// 60000 10228 20218 30131 40136 84240 333 10282 58000;EQDQ01  00002PRCP99
0186833980999992000053112004-15670-038930FM-12+000599999V0203201N002112200019N0200001N1+02641+02371101351ADDAA199000091GF103991021011008001041001KA1240N+01911MA1999999101301MD1999999-0201REMSYN076AAXX  31124 83398 32598 33204 10264 20237 30130 40135 82140 333 20191 59020;EQDQ01  00002PRCP99
0167833980999992000053118004-15670-038930FM-12+000599999V0200501N002112200019N0200001N1+02731+02301100991ADDAA199000091GF103991021011008001041001MA1999999100941MD1999999-0181REMSYN070AAXX  31184 83398 32598 30504 10273 20230 30094 40099 82140 333 59018;EQDQ01  00002PRCP99
0186833980999992000060100004-15670-038930FM-12+000599999V0203601N001012200019N9999999N1+02491+02291101221ADDAA199000091GF103991021011008001041001KA1240M+02881MA1999999101171MD1999999-0141REMSYN076AAXX  01004 83398 325// 33602 10249 20229 30117 40122 82140 333 10288 59014;EQDQ01  00002PRCP99
0186833980999992000060112004-15670-038930FM-12+000599999V0203201N001012200019N0200001N1+02711+02261101381ADDAA199000091GF104991021011008001041041KA1240N+01961MA1999999101331MD1999999+0031REMSYN076AAXX  01124 83398 32598 43202 10271 20226 30133 40138 82144 333 20196 58003;EQDQ01  00002PRCP99
0167833980999992000060118004-15670-038930FM-12+000599999V0200501N002112200019N0200001N1+02741+02301101141ADDAA199000091GF103991011011008001041041MA1999999101091MD1999999+0151REMSYN070AAXX  01184 83398 32598 30504 10274 20230 30109 40114 81144 333 58015;EQDQ01  00002PRCP99
0186833980999992000060200004-15670-038930FM-12+000599999V0203601N001012200019N9999999N1+02461+02271101361ADDAA199000091GF102991011011008001041001KA1240M+02891MA1999999101311MD1999999+0141REMSYN076AAXX  02004 83398 325// 23602 10246 20227 30131 40136 81140 333 10289 58014;EQDQ01  00002PRCP99
0186833980999992000060212004-15670-038930FM-12+000599999V0202701N001012200019N0200001N1+02481+02321101671ADDAA199000091GF104991021021008001041041KA1240N+01891MA1999999101611MD1999999+0281REMSYN076AAXX  02124 83398 32598 42702 10248 20232 30161 40167 82244 333 20189 58028;EQDQ01  00002PRCP99
0167833980999992000060218004-15670-038930FM-12+000599999V0200901N002112200019N0200001N1+02761+02281101521ADDAA199000091GF104991021021008001041041MA1999999101471MD1999999+0381REMSYN070AAXX  02184 83398 32598 40904 10276 20228 30147 40152 82244 333 58038;EQDQ01  00002PRCP99
0186833980999992000060300004-15670-038930FM-12+000599999V0209999C000012200019N9999999N1+02301+02201101671ADDAA199000091GF102991011011008001041001KA1240M+02821MA1999999101611MD1999999+0301REMSYN076AAXX  03004 83398 325// 20000 10230 20220 30161 40167 81140 333 10282 58030;EQDQ01  00002PRCP99
0186833980999992000060312004-15670-038930FM-12+000599999V0201801N002110450019N0100001N1+02561+02311101871ADDAA199000091GF106991041051008001041001KA1240N+02001MA1999999101811MD1999999+0201REMSYN076AAXX  03124 83398 32597 61804 10256 20231 30181 40187 84540 333 20200 58020;EQDQ01  00002PRCP99
0186833980999992000060400004-15670-038930FM-12+000599999V0202301N003110075019N9999999N1+02381+02171101861ADDAA199000091GF108991051051008001021999KA1240M+02821MA1999999101801MD1999999+0191REMSYN076AAXX  04004 83398 325// 82306 10238 20217 30180 40186 8552/ 333 10282 58019;EQDQ01  00002PRCP99
0201833980999992000060412004-15670-038930FM-12+000599999V0201801N004110075019N0100001N1+02201+02081102021ADDAA124002091AY161061AY221061GF106991051051008001021001KA1240N+02031MA1999999101961MD1999999+0151MW1501REMSYN088AAXX  04124 83398 21597 61808 10220 20208 30196 40202 75062 85520 333 20203 58015 60024;
0182833980999992000060418004-15670-038930FM-12+000599999V0201801N004110075019N0040001N1+02441+01951101841ADDAA106007191AY161061AY221061GF108991051051008001021999MA1999999101781MD1999999+0161MW1021REMSYN082AAXX  04184 83398 21596 81808 10244 20195 30178 40184 70262 8552/ 333 58016 60071;
0167833980999992000060500004-15670-038930FM-12+000599999V0202301N004110075019N9999999N1+02111+01931102081ADDAA199000021GF108991051051008001021999KA1240M+02511MA1999999102021MD1999999+0221REMSYN076AAXX  05004 83398 325// 82308 10211 20193 30202 40208 8552/ 333 10251 58022;
0201833980999992000060512004-15670-038930FM-12+000599999V0202301N001010042019N0040001N1+02071+01911102091ADDAA124011991AY161061AY221061GF107991051051004501021001KA1240N+01791MA1999999102031MD1999999+0071MW1021REMSYN088AAXX  05124 83398 21496 72302 10207 20191 30203 40209 70262 85520 333 20179 58007 60124;
0167833980999992000060518004-15670-038930FM-12+000599999V0202301N002110450019N0100001N1+02451+02011101821ADDAA199000091GF105991031021008001041001MA1999999101761MD1999999-0021REMSYN070AAXX  05184 83398 32597 52304 10245 20201 30176 40182 83240 333 59002;EQDQ01  00002PRCP99
0186833980999992000060600004-15670-038930FM-12+000599999V0202301N002110075019N9999999N1+02101+01931102011ADDAA199000091GF107991051051008001021001KA1240M+02641MA1999999101951MD1999999-0071REMSYN076AAXX  06004 83398 325// 72304 10210 20193 30195 40201 85520 333 10264 59007;EQDQ01  00002PRCP99
0201833980999992000060612004-15670-038930FM-12+000599999V0201801N003110075019N0040001N1+02181+01991102101ADDAA124007191AY161061AY221061GF108991051051008001021999KA1240N+01821MA1999999102031MD1999999+0001MW1021REMSYN088AAXX  06124 83398 21596 81806 10218 20199 30203 40210 70262 8552/ 333 20182 58000 60074;
0167833980999992000060618004-15670-038930FM-12+000599999V0201401N004110075019N0100001N1+02621+02011101851ADDAA199000091GF106991051051008001041001MA1999999101791MD1999999+0031REMSYN070AAXX  06184 83398 32597 61408 10262 20201 30179 40185 85540 333 58003;EQDQ01  00002PRCP99
0201833980999992000060700004-15670-038930FM-12+000599999V0202301N003110075019N9999999N1+02071+01961102001ADDAA106003091AY161061AY221061GF108991051051008001021999KA1240M+02681MA1999999101941MD1999999+0051MW1031REMSYN088AAXX  07004 83398 215// 82306 10207 20196 30194 40200 70362 8552/ 333 10268 58005 60031;
0201833980999992000060712004-15670-038930FM-12+000599999V0202301N001010042019N0040001N1+02201+02061101971ADDAA124006191AY161061AY221061GF108991051051004501021999KA1240N+01871MA1999999101911MD1999999-0121MW1021REMSYN088AAXX  07124 83398 21496 82302 10220 20206 30191 40197 70262 8552/ 333 20187 59012 60064;
0182833980999992000060718004-15670-038930FM-12+000599999V0200901N002110042019N0040001N1+02351+02151101871ADDAA106005191AY161061AY221061GF108991051051004501021999MA1999999101811MD1999999+0021MW1021REMSYN082AAXX  07184 83398 21496 80904 10235 20215 30181 40187 70262 8552/ 333 58002 60051;
0201833980999992000060800004-15670-038930FM-12+000599999V0202301N001010075019N9999999N1+02181+02101101821ADDAA106007191AY161061AY221061GF108991051071008001021999KA1240M+02501MA1999999101761MD1999999-0181MW1611REMSYN088AAXX  08004 83398 215// 82302 10218 20210 30176 40182 76162 8572/ 333 10250 59018 60071;
0201833980999992000060812004-15670-038930FM-12+000599999V0200901N002110450019N0100001N1+02651+02181101941ADDAA124014091AY151061AY221061GF105991031011004501041001KA1240N+01981MA1999999101881MD1999999-0031MW1011REMSYN088AAXX  08124 83398 21497 50904 10265 20218 30188 40194 70152 83140 333 20198 59003 60144;
0167833980999992000060818004-15670-038930FM-12+000599999V0201401N002111050019N0100001N1+02581+02081101711ADDAA199000091GF106991021051008001021041MA1999999101651MD1999999-0161REMSYN070AAXX  08184 83398 32597 61404 10258 20208 30165 40171 82524 333 59016;EQDQ01  00002PRCP99
0186833980999992000060900004-15670-038930FM-12+000599999V0209999C000010450019N9999999N1+02151+02041101891ADDAA199000091GF106991041021008001041001KA1240M+02731MA1999999101831MD1999999+0071REMSYN076AAXX  09004 83398 325// 60000 10215 20204 30183 40189 84240 333 10273 58007;EQDQ01  00002PRCP99
0201833980999992000060912004-15670-038930FM-12+000599999V0202301N002111050019N0200001N1+02421+02111101841ADDAA124000891AY151061AY221061GF105991021021008001041041KA1240N+01831MA1999999101781MD1999999-0101MW1011REMSYN088AAXX  09124 83398 21598 52304 10242 20211 30178 40184 70152 82244 333 20183 59010 69984;
0182833980999992000060918004-15670-038930FM-12+000599999V0200901N002110450019N0040001N1+02531+02071101591ADDAA106006191AY161061AY221061GF106991041051004501051001MA1999999101541MD1999999-0111MW1021REMSYN082AAXX  09184 83398 21496 60904 10253 20207 30154 40159 70262 84550 333 59011 60061;
0186833980999992000061000004-15670-038930FM-12+000599999V0202701N001010075019N9999999N1+02221+02101101781ADDAA199000091GF107991051051008001041001KA1240M+02681MA1999999101721MD1999999-0111REMSYN076AAXX  10004 83398 325// 72702 10222 20210 30172 40178 85540 333 10268 59011;EQDQ01  00002PRCP99
0201833980999992000061012004-15670-038930FM-12+000599999V0201801N002110450019N0100001N1+02461+02151101811ADDAA124007991AY161061AY221061GF106991041051008001041001KA1240N+01921MA1999999101751MD1999999-0031MW1021REMSYN088AAXX  10124 83398 21597 61804 10246 20215 30175 40181 70262 84540 333 20192 59003 60084;
0167833980999992000061018004-15670-038930FM-12+000599999V0201401N002110450019N0100001N1+02561+02171101571ADDAA199000091GF106991041051008001021001MA1999999101521MD1999999-0021REMSYN070AAXX  10184 83398 32597 61404 10256 20217 30152 40157 84520 333 59002;EQDQ01  00002PRCP99
0201833980999992000061112004-15670-038930FM-12+000599999V0201801N001010450019N0040001N1+02361+02171101801ADDAA124005191AY161061AY221061GF107991041051004501021001KA1240N+01971MA1999999101741MD1999999-0011MW1021REMSYN088AAXX  11124 83398 21496 71802 10236 20217 30174 40180 70262 84520 333 20197 59001 60054;
0167833980999992000061118004-15670-038930FM-12+000599999V0201401N002110075019N0040001N1+02531+02171101501ADDAA199000091GF108991051051008001021999MA1999999101451MD1999999-0071REMSYN070AAXX  11184 83398 32596 81404 10253 20217 30145 40150 8552/ 333 59007;EQDQ01  00002PRCP99
0201833980999992000061212004-15670-038930FM-12+000599999V0202701N001012200019N0200001N1+02401+02171101941ADDAA124003091AY151061AY221061GF104991021021008001041001KA1240N+01841MA1999999101881MD1999999+0141MW1011REMSYN088AAXX  12124 83398 21598 42702 10240 20217 30188 40194 70152 82240 333 20184 58014 60034;
0167833980999992000061218004-15670-038930FM-12+000599999V0200901N002112200019N0200001N1+02611+01961101481ADDAA199000091GF103991021011008001041001MA1999999101431MD1999999-0021REMSYN070AAXX  12184 83398 32598 30904 10261 20196 30143 40148 82140 333 59002;EQDQ01  00002PRCP99
0186833980999992000061300004-15670-038930FM-12+000599999V0209999C000010450019N9999999N1+02191+02081101671ADDAA199000091GF107991041051008001031001KA1240M+02711MA1999999101611MD1999999-0071REMSYN076AAXX  13004 83398 325// 70000 10219 20208 30161 40167 84530 333 10271 59007;EQDQ01  00002PRCP99
0201833980999992000061312004-15670-038930FM-12+000599999V0202301N001012200019N0200001N1+02401+02151101721ADDAA124000591AY151061AY221061GF104991021021008001041011KA1240N+01761MA1999999101661MD1999999-0221MW1011REMSYN088AAXX  13124 83398 21598 42302 10240 20215 30166 40172 70152 82241 333 20176 59022 69944;
0167833980999992000061318004-15670-038930FM-12+000599999V0200901N002110450019N0200001N1+02681+02061101541ADDAA199000091GF105991031021008001041011MA1999999101491MD1999999+0061REMSYN070AAXX  13184 83398 32598 50904 10268 20206 30149 40154 83241 333 58006;EQDQ01  00002PRCP99
0186833980999992000061400004-15660-038920FM-12+000599999V0202301N001012200019N9999999N1+02121+02001101741ADDAA199000091GF103991011011008001041001KA1240M+02711MA1999999101681MD1999999+0071REMSYN076AAXX  14004 83398 325// 32302 10212 20200 30168 40174 81140 333 10271 58007;EQDQ01  00002PRCP99
0186833980999992000061412004-15660-038920FM-12+000599999V0202301N001012200019N0200001N1+02401+02231101731ADDAA199000091GF103991011021008001041011KA1240N+01751MA1999999101671MD1999999+0011REMSYN076AAXX  14124 83398 32598 32302 10240 20223 30167 40173 81241 333 20175 58001;EQDQ01  00002PRCP99
0167833980999992000061418004-15660-038920FM-12+000599999V0201401N002112200019N0200001N1+02681+02091101551ADDAA199000091GF104991021021008001041011MA1999999101501MD1999999+0011REMSYN070AAXX  14184 83398 32598 41404 10268 20209 30150 40155 82241 333 58001;EQDQ01  00002PRCP99
0186833980999992000061500004-15660-038920FM-12+000599999V0201801N001010450019N9999999N1+02161+02041101731ADDAA199000091GF106991041021008001041001KA1240M+02731MA1999999101671MD1999999-0011REMSYN076AAXX  15004 83398 325// 61802 10216 20204 30167 40173 84240 333 10273 59001;EQDQ01  00002PRCP99
0182833980999992000061518004-15660-038920FM-12+000599999V0201801N002110042019N0040001N1+02471+02251101551ADDAA106001091AY151061AY221061GF107991051051004501021001MA1999999101501MD1999999+0001MW1021REMSYN082AAXX  15184 83398 21496 71804 10247 20225 30150 40155 70252 85520 333 58000 60011;
0201833980999992000061600004-15660-038920FM-12+000599999V0200501N002110075019N9999999N1+02161+02081101671ADDAA106000591AY151061AY221061GF108991051051008001021999KA1240M+02611MA1999999101611MD1999999-0061MW1021REMSYN088AAXX  16004 83398 215// 80504 10216 20208 30161 40167 70252 8552/ 333 10261 59006 69941;
0201833980999992000061612004-15660-038920FM-12+000599999V0202301N002110042019N0040001N1+02191+02061101651ADDAA124008991AY161061AY221061GF108991051071004501021999KA1240N+01951MA1999999101591MD1999999-0061MW1601REMSYN088AAXX  16124 83398 21496 82304 10219 20206 30159 40165 76062 8572/ 333 20195 59006 60094;
0148833980999992000061618004-15660-038920FM-12+000599999V0201401N002110450019N0100001N1+02521+02131101471ADDAA199000021GF105991031051008001041001MA1999999101421MD1999999-0081REMSYN070AAXX  16184 83398 32597 51404 10252 20213 30142 40147 83540 333 59008;
0182833980999992000061718004-15660-038920FM-12+000599999V0202301N001010450019N0100001N1+02431+02351101471ADDAA106010991AY161061AY221061GF106991041051008001021001MA1999999101421MD1999999+0001MW1021REMSYN082AAXX  17184 83398 21597 62302 10243 20235 30142 40147 70262 84520 333 58000 60111;
0201833980999992000061812004-15660-038920FM-12+000599999V0202301N002110450019N0100001N1+02381+02211101651ADDAA124011991AY151061AY221061GF106991041051008001021001KA1240N+01941MA1999999101591MD1999999+0041MW1021REMSYN088AAXX  18124 83398 21597 62304 10238 20221 30159 40165 70252 84520 333 20194 58004 60124;
0167833980999992000061818004-15660-038920FM-12+000599999V0200901N002112200019N0200001N1+02581+02331101441ADDAA199000091GF104991021011008001041001MA1999999101391MD1999999-0031REMSYN070AAXX  18184 83398 32598 40904 10258 20233 30139 40144 82140 333 59003;EQDQ01  00002PRCP99
0201833980999992000061912004-15660-038920FM-12+000599999V0201801N002110450019N0100001N1+02441+02231101631ADDAA124003091AY151061AY221061GF106991041051004501041001KA1240N+02001MA1999999101571MD1999999-0021MW1011REMSYN088AAXX  19124 83398 21497 61804 10244 20223 30157 40163 70152 84540 333 20200 59002 60034;
0182833980999992000061918004-15660-038920FM-12+000599999V0201401N002110450019N0100001N1+02541+02251101531ADDAA106000391AY151061AY221061GF106991031051008001041001MA1999999101481MD1999999+0091MW1011REMSYN082AAXX  19184 83398 21597 61404 10254 20225 30148 40153 70152 83540 333 58009 69931;
0186833980999992000062000004-15660-038920FM-12+000599999V0200501N001010075019N9999999N1+02361+02151101661ADDAA199000091GF107991051051008001041001KA1240M+02591MA1999999101601MD1999999+0091REMSYN076AAXX  20004 83398 325// 70502 10236 20215 30160 40166 85540 333 10259 58009;EQDQ01  00002PRCP99
0201833980999992000062012004-15660-038920FM-12+000599999V0209999C000012200019N0100001N1+02441+02151101611ADDAA124000891AY151061AY221061GF104991021021008001041001KA1240N+02021MA1999999101551MD1999999-0021MW1011REMSYN088AAXX  20124 83398 21597 40000 10244 20215 30155 40161 70152 82240 333 20202 59002 69984;
0167833980999992000062018004-15660-038920FM-12+000599999V0200501N003112200019N0100001N1+02651+02331101341ADDAA199000091GF104991021021008001041001MA1999999101291MD1999999-0191REMSYN070AAXX  20184 83398 32597 40506 10265 20233 30129 40134 82240 333 59019;EQDQ01  00002PRCP99
0201833980999992000062100004-15660-038920FM-12+000599999V0203601N001010450019N9999999N1+02301+02201101561ADDAA106000591AY151061AY221061GF106991041051008001041001KA1240M+02691MA1999999101501MD1999999-0101MW1021REMSYN088AAXX  21004 83398 215// 63602 10230 20220 30150 40156 70252 84540 333 10269 59010 69941;
0167833980999992000062118004-15660-038920FM-12+000599999V0203601N002110450019N0100001N1+02601+02331101291ADDAA199000091GF106991031051008001051001MA1999999101241MD1999999-0051REMSYN070AAXX  21184 83398 32597 63604 10260 20233 30124 40129 83550 333 59005;EQDQ01  00002PRCP99
0186833980999992000062200004-15660-038920FM-12+000599999V0209999C000012200019N9999999N1+02281+02161101501ADDAA199000091GF102991011011008001041001KA1240M+02661MA1999999101451MD1999999-0051REMSYN076AAXX  22004 83398 325// 20000 10228 20216 30145 40150 81140 333 10266 59005;EQDQ01  00002PRCP99
0186833980999992000062212004-15660-038920FM-12+000599999V0201801N002110075019N0040001N1+02321+02151101781ADDAA199000091GF108991061071008001021999KA1240N+01861MA1999999101721MD1999999+0101REMSYN076AAXX  22124 83398 32596 81804 10232 20215 30172 40178 8672/ 333 20186 58010;EQDQ01  00002PRCP99
0182833980999992000062218004-15660-038920FM-12+000599999V0201801N002110042019N0040001N1+02441+02251101581ADDAA106010991AY161061AY221061GF108991061071004501021999MA1999999101531MD1999999+0291MW1021REMSYN082AAXX  22184 83398 21496 81804 10244 20225 30153 40158 70262 8672/ 333 58029 60111;
0186833980999992000062300004-15660-038920FM-12+000599999V0202301N002110075019N9999999N1+02291+02091101761ADDAA199000091GF107991051051008001021001KA1240M+02521MA1999999101701MD1999999+0251REMSYN076AAXX  23004 83398 325// 72304 10229 20209 30170 40176 85520 333 10252 58025;EQDQ01  00002PRCP99
0173833980999992000062312004-15660-038920FM-12+000599999V0201801N002110450019N0100001N1+02341+01871102071ADDAA124010991GF105991031011008001041001KA1240N+01851MA1999999102011MD1999999+0291REMSYN082AAXX  23124 83398 22597 51804 10234 20187 30201 40207 83140 333 20185 58029 60114;
0167833980999992000062318004-15660-038920FM-12+000599999V0201401N002112200019N0200001N1+02491+01801101861ADDAA199000091GF104991031011008001041001MA1999999101801MD1999999+0271REMSYN070AAXX  23184 83398 32598 41404 10249 20180 30180 40186 83140 333 58027;EQDQ01  00002PRCP99
0186833980999992000062400004-15660-038920FM-12+000599999V0202301N002110450019N9999999N1+01981+01761101961ADDAA199000091GF105991031011008001041001KA1240M+02641MA1999999101901MD1999999+0201REMSYN076AAXX  24004 83398 325// 52304 10198 20176 30190 40196 83140 333 10264 58020;EQDQ01  00002PRCP99
0186833980999992000062412004-15660-038920FM-12+000599999V0202301N001012200019N0200001N1+02201+01861101981ADDAA199000091GF104991021011008001041001KA1240N+01601MA1999999101921MD1999999-0091REMSYN076AAXX  24124 83398 32598 42302 10220 20186 30192 40198 82140 333 20160 59009;EQDQ01  00002PRCP99
0167833980999992000062418004-15660-038920FM-12+000599999V0201401N002110450019N0100001N1+02621+01881101701ADDAA199000091GF105991021021008001051001MA1999999101641MD1999999-0161REMSYN070AAXX  24184 83398 32597 51404 10262 20188 30164 40170 82250 333 59016;EQDQ01  00002PRCP99
0186833980999992000062500004-15660-038920FM-12+000599999V0209999C000012200019N9999999N1+01941+01791101841ADDAA199000091GF103991031011008001001001KA1240M+02751MA1999999101781MD1999999-0121REMSYN076AAXX  25004 83398 325// 30000 10194 20179 30178 40184 83100 333 10275 59012;EQDQ01  00002PRCP99
0201833980999992000062512004-15660-038920FM-12+000599999V0202701N002110450019N0100001N1+01981+01791102031ADDAA124000191AY151061AY221061GF106991041051004501021001KA1240N+01561MA1999999101971MD1999999+0051MW1021REMSYN088AAXX  25124 83398 21497 62704 10198 20179 30197 40203 70252 84520 333 20156 58005 69914;
0167833980999992000062518004-15660-038920FM-12+000599999V0201401N002110075019N0040001N1+02521+01981101611ADDAA199000091GF108991051051008001021999MA1999999101551MD1999999-0091REMSYN070AAXX  25184 83398 32596 81404 10252 20198 30155 40161 8552/ 333 59009;EQDQ01  00002PRCP99
0186833980999992000062600004-15660-038920FM-12+000599999V0209999C000010075019N9999999N1+01991+01881101691ADDAA199000091GF107991051051008001041001KA1240M+02591MA1999999101631MD1999999-0151REMSYN076AAXX  26004 83398 325// 70000 10199 20188 30163 40169 85540 333 10259 59015;EQDQ01  00002PRCP99
0186833980999992000062612004-15660-038920FM-12+000599999V0202701N001012200019N0200001N1+02351+02131101711ADDAA199000091GF103991021021008001041001KA1240N+01751MA1999999101651MD1999999-0321REMSYN076AAXX  26124 83398 32598 32702 10235 20213 30165 40171 82240 333 20175 59032;EQDQ01  00002PRCP99
0167833980999992000062618004-15660-038920FM-12+000599999V0200501N002112200019N0200001N1+02601+01741101511ADDAA199000091GF103991011021008001041001MA1999999101461MD1999999-0091REMSYN070AAXX  26184 83398 32598 30504 10260 20174 30146 40151 81240 333 59009;EQDQ01  00002PRCP99
0186833980999992000062700004-15660-038920FM-12+000599999V0209999C000012200019N9999999N1+01961+01831101711ADDAA199000091GF102991011011008001041001KA1240M+02691MA1999999101651MD1999999+0021REMSYN076AAXX  27004 83398 325// 20000 10196 20183 30165 40171 81140 333 10269 58002;EQDQ01  00002PRCP99
0186833980999992000062712004-15660-038920FM-12+000599999V0202301N002112200019N0200001N1+02231+01921101761ADDAA199000091GF103991021021008001041001KA1240N+01461MA1999999101701MD1999999+0051REMSYN076AAXX  27124 83398 32598 32304 10223 20192 30170 40176 82240 333 20146 58005;EQDQ01  00002PRCP99
0167833980999992000062718004-15660-038920FM-12+000599999V0200501N002112200019N0200001N1+02561+02111101491ADDAA199000091GF103991021021008001041001MA1999999101441MD1999999-0021REMSYN070AAXX  27184 83398 32598 30504 10256 20211 30144 40149 82240 333 59002;EQDQ01  00002PRCP99
0186833980999992000062800004-15660-038920FM-12+000599999V0209999C000012200019N9999999N1+01991+01881101781ADDAA199000091GF102991011011008001041001KA1240M+02671MA1999999101721MD1999999+0071REMSYN076AAXX  28004 83398 325// 20000 10199 20188 30172 40178 81140 333 10267 58007;EQDQ01  00002PRCP99
0186833980999992000062812004-15660-038920FM-12+000599999V0202701N001010075019N0100001N1+02161+01991101841ADDAA199000091GF105991051051008001001001KA1240N+01641MA1999999101781MD1999999+0081REMSYN076AAXX  28124 83398 32597 52702 10216 20199 30178 40184 85500 333 20164 58008;EQDQ01  00002PRCP99
0167833980999992000062818004-15660-038920FM-12+000599999V0200901N002112200019N0200001N1+02651+02001101661ADDAA199000091GF102991021011008001001001MA1999999101601MD1999999+0161REMSYN070AAXX  28184 83398 32598 20904 10265 20200 30160 40166 82100 333 58016;EQDQ01  00002PRCP99
0186833980999992000062900004-15660-038920FM-12+000599999V0209999C000012200019N9999999N1+02071+01911101831ADDAA199000091GF102991011011008001041001KA1240M+02681MA1999999101771MD1999999+0051REMSYN076AAXX  29004 83398 325// 20000 10207 20191 30177 40183 81140 333 10268 58005;EQDQ01  00002PRCP99
0186833980999992000062912004-15660-038920FM-12+000599999V0202701N001012200019N0200001N1+02301+01921101741ADDAA199000091GF103991021021008001041001KA1240N+01521MA1999999101681MD1999999-0101REMSYN076AAXX  29124 83398 32598 32702 10230 20192 30168 40174 82240 333 20152 59010;EQDQ01  00002PRCP99
0167833980999992000062918004-15660-038920FM-12+000599999V0200501N001010075019N0040001N1+02551+01901101551ADDAA199000091GF108991061051008001021999MA1999999101501MD1999999-0101REMSYN070AAXX  29184 83398 32596 80502 10255 20190 30150 40155 8652/ 333 59010;EQDQ01  00002PRCP99
0186833980999992000063000004-15660-038920FM-12+000599999V0202701N001010450019N9999999N1+02111+01971101731ADDAA199000091GF105991041051008001041001KA1240M+02661MA1999999101671MD1999999-0101REMSYN076AAXX  30004 83398 325// 52702 10211 20197 30167 40173 84540 333 10266 59010;EQDQ01  00002PRCP99
0201833980999992000063012004-15660-038920FM-12+000599999V0200501N002110450019N0100001N1+02481+02191101771ADDAA124000591AY151061AY221061GF106991041051004501041001KA1240N+01771MA1999999101711MD1999999+0031MW1011REMSYN088AAXX  30124 83398 21497 60504 10248 20219 30171 40177 70152 84540 333 20177 58003 69944;
0167833980999992000063018004-15660-038920FM-12+000599999V0200501N004110450019N0200001N1+02581+02211101461ADDAA199000091GF107991041051008001041001MA1999999101411MD1999999-0091REMSYN070AAXX  30184 83398 32598 70508 10258 20221 30141 40146 84540 333 59009;EQDQ01  00002PRCP99
0186833980999992000070100004-15660-038920FM-12+000599999V0209999C000012200019N9999999N1+02101+01951101691ADDAA199000091GF102991011021008001041001KA1240M+02711MA1999999101631MD1999999-0041REMSYN076AAXX  01004 83398 325// 20000 10210 20195 30163 40169 81240 333 10271 59004;EQDQ01  00002PRCP99
0186833980999992000070112004-15660-038920FM-12+000599999V0203201N002112200019N0200001N1+02381+02071101651ADDAA199000091GF103991021021008001041001KA1240N+01591MA1999999101591MD1999999-0121REMSYN076AAXX  01124 83398 32598 33204 10238 20207 30159 40165 82240 333 20159 59012;EQDQ01  00002PRCP99
0167833980999992000070118004-15660-038920FM-12+000599999V0200501N002112200019N0200001N1+02601+02061101551ADDAA199000091GF103991031011008001001001MA1999999101501MD1999999+0091REMSYN070AAXX  01184 83398 32598 30504 10260 20206 30150 40155 83100 333 58009;EQDQ01  00002PRCP99
0186833980999992000070200004-15660-038920FM-12+000599999V0209999C000012200019N9999999N1+02041+01891101701ADDAA199000091GF103991021011008001041001KA1240M+02681MA1999999101641MD1999999+0011REMSYN076AAXX  02004 83398 325// 30000 10204 20189 30164 40170 82140 333 10268 58001;EQDQ01  00002PRCP99
0201833980999992000070212004-15660-038920FM-12+000599999V0201801N001010042019N0040001N1+02141+01931101911ADDAA124003091AY161061AY221061GF108991061051004501021999KA1240N+01721MA1999999101851MD1999999+0261MW1601REMSYN088AAXX  02124 83398 21496 81802 10214 20193 30185 40191 76062 8652/ 333 20172 58026 60034;
0182833980999992000070218004-15660-038920FM-12+000599999V0200901N001010042019N0040001N1+02361+02051101591ADDAA106006191AY161061AY221061GF107991051051004501021001MA1999999101541MD1999999+0041MW1021REMSYN082AAXX  02184 83398 21496 70902 10236 20205 30154 40159 70262 85520 333 58004 60061;
0167833980999992000070300004-15660-038920FM-12+000599999V0209999C000010450019N9999999N1+02081+01981101731ADDAA199000021GF106991041051008001021001KA1240M+02491MA1999999101671MD1999999+0031REMSYN076AAXX  03004 83398 325// 60000 10208 20198 30167 40173 84520 333 10249 58003;
0167833980999992000070318004-15660-038920FM-12+000599999V0201801N002110450019N0100001N1+02581+02011101731ADDAA199000091GF106991041051004501021001MA1999999101671MD1999999+0131REMSYN070AAXX  03184 83398 32497 61804 10258 20201 30167 40173 84520 333 58013;EQDQ01  00002PRCP99
0186833980999992000070400004-15660-038920FM-12+000599999V0202301N002112200019N9999999N1+02131+02001101851ADDAA199000091GF103991021021008001041001KA1240M+02601MA1999999101791MD1999999+0121REMSYN076AAXX  04004 83398 325// 32304 10213 20200 30179 40185 82240 333 10260 58012;EQDQ01  00002PRCP99
0201833980999992000070412004-15660-038920FM-12+000599999V0201801N001012200019N0100001N1+02361+02051101931ADDAA124000191AY151061AY221061GF104991031011008001041001KA1240N+01741MA1999999101871MD1999999-0031MW1011REMSYN088AAXX  04124 83398 21597 41802 10236 20205 30187 40193 70152 83140 333 20174 59003 69924;
0167833980999992000070418004-15660-038920FM-12+000599999V0201801N005110450019N0100001N1+02561+02111101711ADDAA199000091GF106991041051008001021001MA1999999101651MD1999999-0021REMSYN070AAXX  04184 83398 32597 61810 10256 20211 30165 40171 84520 333 59002;EQDQ01  00002PRCP99
0201833980999992000070500004-15660-038920FM-12+000599999V0202301N002110450019N9999999N1+02061+01911101881ADDAA106001091AY161061AY221061GF106991041051008001021001KA1240M+02681MA1999999101821MD1999999+0031MW1021REMSYN088AAXX  05004 83398 215// 62304 10206 20191 30182 40188 70262 84520 333 10268 58003 60011;
0201833980999992000070512004-15660-038920FM-12+000599999V0202301N002110042019N0040001N1+02181+02011101871ADDAA124007191AY161061AY221061GF107991051051004501021001KA1240N+01791MA1999999101811MD1999999-0061MW1601REMSYN088AAXX  05124 83398 21496 72304 10218 20201 30181 40187 76062 85520 333 20179 59006 60074;
0182833980999992000070518004-15660-038920FM-12+000599999V0201401N002110450019N0100001N1+02461+02031101631ADDAA106001091AY151061AY221061GF105991021011004501041001MA1999999101571MD1999999-0081MW1011REMSYN082AAXX  05184 83398 21497 51404 10246 20203 30157 40163 70152 82140 333 59008 69991;
0167833980999992000070600004-15660-038920FM-12+000599999V0202301N002110075019N9999999N1+02111+02021101731ADDAA199000021GF108991051051008001021999KA1240M+02521MA1999999101671MD1999999-0151REMSYN076AAXX  06004 83398 325// 82304 10211 20202 30167 40173 8552/ 333 10252 59015;
0201833980999992000070612004-15660-038920FM-12+000599999V0202301N002110450019N0100001N1+02231+02031101891ADDAA124007191AY161061AY221061GF106991041011004501021001KA1240N+01811MA1999999101831MD1999999+0021MW1011REMSYN088AAXX  06124 83398 21497 62304 10223 20203 30183 40189 70162 84120 333 20181 58002 60074;
0182833980999992000070618004-15660-038920FM-12+000599999V0201401N002110042019N0040001N1+02581+02121101591ADDAA124001091AY151061AY221061GF107991051051004501021001MA1999999101541MD1999999+0031MW1021REMSYN082AAXX  06184 83398 21496 71404 10258 20212 30154 40159 70252 85520 333 58003 60014;
0186833980999992000070700004-15660-038920FM-12+000599999V0201401N002110450019N9999999N1+02391+02031101811ADDAA199000091GF106991041051008001041001KA1240M+02641MA1999999101751MD1999999+0081REMSYN076AAXX  07004 83398 325// 61404 10239 20203 30175 40181 84540 333 10264 58008;EQDQ01  00002PRCP99
0201833980999992000070712004-15660-038920FM-12+000599999V0202301N002110450019N0020001N1+02181+02061101931ADDAA124004191AY161061AY221061GF108991031071008001021999KA1240N+01681MA1999999101871MD1999999+0041MW1501REMSYN088AAXX  07124 83398 21595 82304 10218 20206 30187 40193 75062 8372/ 333 20168 58004 60044;
0148833980999992000070718004-15660-038920FM-12+000599999V0200501N004110075019N0040001N1+02581+02061101651ADDAA199000021GF107991051051008001021001MA1999999101591MD1999999+0051REMSYN070AAXX  07184 83398 32596 70508 10258 20206 30159 40165 85520 333 58005;
0167833980999992000070800004-15660-038920FM-12+000599999V0200901N002112200019N9999999N1+02391+01931101881ADDAA199000021GF103991021011008001041001KA1240M+02671MA1999999101821MD1999999+0071REMSYN076AAXX  08004 83398 325// 30904 10239 20193 30182 40188 82140 333 10267 58007;
0167833980999992000070818004-15660-038920FM-12+000599999V0200501N003110450019N0100001N1+02421+02011101631ADDAA199000091GF106991041051008001021001MA1999999101571MD1999999-0021REMSYN070AAXX  08184 83398 32597 60506 10242 20201 30157 40163 84520 333 59002;EQDQ01  00002PRCP99
0182833980999992000070918004-15660-038920FM-12+000599999V0200901N002110450019N0100001N1+02581+02191101631ADDAA106005191AY161061AY221061GF106991041051008001041001MA1999999101571MD1999999+0001MW1021REMSYN082AAXX  09184 83398 21597 60904 10258 20219 30157 40163 70262 84540 333 58000 60051;
0220833980999992000071000004-15660-038920FM-12+000599999V0202301N001010450019N9999999N1+02261+02121101641ADDAA106002091AY161061AY221061GF107991041051008001021001KA1240M+99999MA1999999101581MD1999999-0141MW1021REMSYN088AAXX  10004 83398 215// 72302 10226 20212 30158 40164 70262 84520 333 10208 59014 60021;EQDQ01 +02082ATMX  
0201833980999992000071012004-15660-038920FM-12+000599999V0200901N003110450019N0040001N1+02381+02211101701ADDAA124035191AY161061AY221061GF107991041051008001021001KA1240N+01861MA1999999101641MD1999999-0101MW1021REMSYN088AAXX  10124 83398 21596 70906 10238 20221 30164 40170 70262 84520 333 20186 59010 60354;
0182833980999992000071018004-15660-038920FM-12+000599999V0200501N003110075019N0040001N1+02531+02131101541ADDAA106004191AY161061AY221061GF108991051051008001021999MA1999999101491MD1999999-0081MW1021REMSYN082AAXX  10184 83398 21596 80506 10253 20213 30149 40154 70262 8552/ 333 59008 60041;
0201833980999992000071112004-15660-038920FM-12+000599999V0201801N003110450019N0100001N1+02201+02061101881ADDAA124005191AY161061AY221061GF107991041051008001021001KA1240N+01661MA1999999101771MD1999999+0131MW1021REMSYN088AAXX  11124 83398 21597 71806 10220 20206 30177 40188 70262 84520 333 20166 58013 60054;
0167833980999992000071118004-15660-038920FM-12+000599999V0200901N003110450019N0200001N1+02621+02251101601ADDAA199000091GF106991041051008001021001MA1999999101541MD1999999+0051REMSYN070AAXX  11184 83398 32598 60906 10262 20225 30154 40160 84520 333 58005;EQDQ01  00002PRCP99
0186833980999992000071200004-15660-038920FM-12+000599999V0200901N002110075019N9999999N1+02441+02031101811ADDAA199000091GF108991051051008001021999KA1240M+02661MA1999999101751MD1999999+0071REMSYN076AAXX  12004 83398 325// 80904 10244 20203 30175 40181 8552/ 333 10266 58007;EQDQ01  00002PRCP99
0201833980999992000071212004-15660-038920FM-12+000599999V0202301N001012200019N0100001N1+02381+02091101901ADDAA124001091AY151061AY221061GF104991031021008001041001KA1240N+01781MA1999999101841MD1999999+0071MW1011REMSYN088AAXX  12124 83398 21597 42302 10238 20209 30184 40190 70152 83240 333 20178 58007 60014;
0167833980999992000071218004-15660-038920FM-12+000599999V0200901N002112200019N0200001N1+02601+02141101641ADDAA199000091GF103991021021008001041001MA1999999101581MD1999999+0041REMSYN070AAXX  12184 83398 32598 30904 10260 20214 30158 40164 82240 333 58004;EQDQ01  00002PRCP99
0186833980999992000071300004-15660-038920FM-12+000599999V0200901N003110075019N9999999N1+02321+02181101861ADDAA199000091GF108991051051008001021999KA1240M+02671MA1999999101801MD1999999+0051REMSYN076AAXX  13004 83398 325// 80906 10232 20218 30180 40186 8552/ 333 10267 58005;EQDQ01  00002PRCP99
0201833980999992000071312004-15660-038920FM-12+000599999V0202301N002110042019N0040001N1+02181+02031102091ADDAA124015091AY161061AY221061GF108991051071004501021999KA1240N+01981MA1999999102031MD1999999+0191MW1601REMSYN088AAXX  13124 83398 21496 82304 10218 20203 30203 40209 76062 8572/ 333 20198 58019 60154;
0182833980999992000071318004-15660-038920FM-12+000599999V0202301N001010450019N0040001N1+02381+02151101871ADDAA106000591AY151061AY221061GF107991041051004501021001MA1999999101811MD1999999+0231MW1021REMSYN082AAXX  13184 83398 21496 72302 10238 20215 30181 40187 70252 84520 333 58023 69961;
0201833980999992000071412004-15660-038920FM-12+000599999V0202301N001010042019N0040001N1+02301+02071101931ADDAA124001091AY151061AY221061GF107991051051004501021001KA1240N+01841MA1999999101871MD1999999-0161MW1021REMSYN088AAXX  14124 83398 21496 72302 10230 20207 30187 40193 70252 85520 333 20184 59016 60014;
0182833980999992000071418004-15660-038920FM-12+000599999V0202301N001010075019N0040001N1+02431+02271102191ADDAA106014091AY161061AY221061GF108991051071008001021999MA1999999102131MD1999999-0021MW1611REMSYN082AAXX  14184 83398 21596 82302 10243 20227 30213 40219 76162 8572/ 333 59002 60141;
0201833980999992000071500004-15660-038920FM-12+000599999V0202301N001010075019N9999999N1+02141+02041101921ADDAA106004191AY161061AY221061GF108991051051008001021999KA1240M+02501MA1999999101681MD1999999+0081MW1021REMSYN088AAXX  15004 83398 215// 82302 10214 20204 30168 40192 70262 8552/ 333 10250 58008 60041;
0201833980999992000071512004-15660-038920FM-12+000599999V0202301N002112200019N0100001N1+02281+02011101981ADDAA124018091AY151061AY221061GF104991021021008001041001KA1240N+01781MA1999999101921MD1999999+0051MW1011REMSYN088AAXX  15124 83398 21597 42304 10228 20201 30192 40198 70152 82240 333 20178 58005 60184;
0167833980999992000071518004-15660-038920FM-12+000599999V0201401N004110450019N0100001N1+02501+02001101491ADDAA199000091GF105991031021008001041001MA1999999101441MD1999999-0431REMSYN070AAXX  15184 83398 32597 51408 10250 20200 30144 40149 83240 333 59043;EQDQ01  00002PRCP99
0186833980999992000071600004-15660-038920FM-12+000599999V0209999C000012200019N9999999N1+02011+01901101621ADDAA199000091GF104991031021008001011001KA1240M+02591MA1999999101561MD1999999-0301REMSYN076AAXX  16004 83398 325// 40000 10201 20190 30156 40162 83210 333 10259 59030;EQDQ01  00002PRCP99
0186833980999992000071612004-15660-038920FM-12+000599999V0202701N002110450019N0100001N1+02201+01951101411ADDAA199000091GF106991031051008001041011KA1240N+01561MA1999999101361MD1999999-0561REMSYN076AAXX  16124 83398 32597 62704 10220 20195 30136 40141 83541 333 20156 59056;EQDQ01  00002PRCP99
0167833980999992000071618004-15660-038920FM-12+000599999V0203601N004112200019N0200001N1+02541+02171100961ADDAA199000091GF102991011011008001041011MA1999999100911MD1999999-0531REMSYN070AAXX  16184 83398 32598 23608 10254 20217 30091 40096 81141 333 59053;EQDQ01  00002PRCP99
0186833980999992000071700004-15660-038920FM-12+000599999V0203601N002112200019N9999999N1+02331+02071101051ADDAA199000091GF103991011011008001041011KA1240M+02601MA1999999101001MD1999999-0561REMSYN076AAXX  17004 83398 325// 33604 10233 20207 30100 40105 81141 333 10260 59056;EQDQ01  00002PRCP99
0186833980999992000071712004-15660-038920FM-12+000599999V0202701N001011050019N0100001N1+02471+02191101381ADDAA199000091GF106991021021008001041041KA1240N+01921MA1999999101331MD1999999-0031REMSYN076AAXX  17124 83398 32597 62702 10247 20219 30133 40138 82244 333 20192 59003;EQDQ01  00002PRCP99
0167833980999992000071718004-15660-038920FM-12+000599999V0201401N002110450019N0100001N1+02621+02181101251ADDAA199000091GF105991031011008001041041MA1999999101201MD1999999+0291REMSYN070AAXX  17184 83398 32597 51404 10262 20218 30120 40125 83144 333 58029;EQDQ01  00002PRCP99
0186833980999992000071800004-15660-038920FM-12+000599999V0201801N003110075019N9999999N1+02281+01901101551ADDAA199000091GF108991051051008001021999KA1240M+02791MA1999999101501MD1999999+0501REMSYN076AAXX  18004 83398 325// 81806 10228 20190 30150 40155 8552/ 333 10279 58050;EQDQ01  00002PRCP99
0186833980999992000071812004-15660-038920FM-12+000599999V0202301N001010042019N0040001N1+02051+01801101861ADDAA199000091GF108991051051004501021999KA1240N+01841MA1999999101801MD1999999+0471REMSYN076AAXX  18124 83398 32496 82302 10205 20180 30180 40186 8552/ 333 20184 58047;EQDQ01  00002PRCP99
0167833980999992000071818004-15660-038920FM-12+000599999V0201401N002110075019N0040001N1+02401+01911101621ADDAA199000091GF108991051051008001021999MA1999999101561MD1999999+0361REMSYN070AAXX  18184 83398 32596 81404 10240 20191 30156 40162 8552/ 333 58036;EQDQ01  00002PRCP99
0186833980999992000071900004-15660-038920FM-12+000599999V0202301N001010450019N9999999N1+02111+01891101801ADDAA199000091GF107991041021008001031001KA1240M+02501MA1999999101741MD1999999+0241REMSYN076AAXX  19004 83398 325// 72302 10211 20189 30174 40180 84230 333 10250 58024;EQDQ01  00002PRCP99
0186833980999992000071912004-15660-038920FM-12+000599999V0202301N001012200019N0200001N1+02361+02131101901ADDAA199000091GF104991021021008001041001KA1240N+01811MA1999999101841MD1999999+0041REMSYN076AAXX  19124 83398 32598 42302 10236 20213 30184 40190 82240 333 20181 58004;EQDQ01  00002PRCP99
0167833980999992000071918004-15660-038920FM-12+000599999V0200901N002111050019N0200001N1+02561+02111101481ADDAA199000091GF105991021011008001041041MA1999999101431MD1999999-0131REMSYN070AAXX  19184 83398 32598 50904 10256 20211 30143 40148 82144 333 59013;EQDQ01  00002PRCP99
0186833980999992000072000004-15660-038920FM-12+000599999V0200501N001012200019N9999999N1+02381+02231101671ADDAA199000091GF104991031021008001041001KA1240M+02641MA1999999101611MD1999999-0131REMSYN076AAXX  20004 83398 325// 40502 10238 20223 30161 40167 83240 333 10264 59013;EQDQ01  00002PRCP99
0186833980999992000072012004-15660-038920FM-12+000599999V0202301N001012200019N0100001N1+02501+02231101641ADDAA199000091GF104991031011008001041001KA1240N+01671MA1999999101581MD1999999-0261REMSYN076AAXX  20124 83398 32597 42302 10250 20223 30158 40164 83140 333 20167 59026;EQDQ01  00002PRCP99
0167833980999992000072018004-15660-038920FM-12+000599999V0200501N003112200019N0200001N1+02681+02281101111ADDAA199000091GF103991021021008001041001MA1999999101061MD1999999-0371REMSYN070AAXX  20184 83398 32598 30506 10268 20228 30106 40111 82240 333 59037;EQDQ01  00002PRCP99
0186833980999992000072100004-15660-038920FM-12+000599999V0203601N001010450019N9999999N1+02391+02191101421ADDAA199000091GF106991041021008001041001KA1240M+02741MA1999999101371MD1999999-0241REMSYN076AAXX  21004 83398 325// 63602 10239 20219 30137 40142 84240 333 10274 59024;EQDQ01  00002PRCP99
0186833980999992000072112004-15660-038920FM-12+000599999V0201801N001010450019N0100001N1+02511+02291101761ADDAA199000091GF105991031011008001041001KA1240N+01951MA1999999101701MD1999999+0121REMSYN076AAXX  21124 83398 32597 51802 10251 20229 30170 40176 83140 333 20195 58012;EQDQ01  00002PRCP99
0167833980999992000072118004-15660-038920FM-12+000599999V0200501N002110450019N0100001N1+02621+02161101581ADDAA199000091GF106991041011008001041001MA1999999101531MD1999999-0471REMSYN070AAXX  21184 83398 32597 60504 10262 20216 30153 40158 84140 333 59047;EQDQ01  00002PRCP99
0186833980999992000072200004-15660-038920FM-12+000599999V0200501N001012200019N9999999N1+02431+02151101711ADDAA199000091GF103991021011008001041001KA1240M+02781MA1999999101651MD1999999+0281REMSYN076AAXX  22004 83398 325// 30502 10243 20215 30165 40171 82140 333 10278 58028;EQDQ01  00002PRCP99
0186833980999992000072212004-15660-038920FM-12+000599999V0200501N002110450019N0100001N1+02401+02111101691ADDAA199000091GF106991031051008001041001KA1240N+01681MA1999999101631MD1999999-0071REMSYN076AAXX  22124 83398 32597 60504 10240 20211 30163 40169 83540 333 20168 59007;EQDQ01  00002PRCP99
0167833980999992000072218004-15660-038920FM-12+000599999V0203601N003112200019N0200001N1+02601+02031101481ADDAA199000091GF104991021021008001041001MA1999999101431MD1999999-0101REMSYN070AAXX  22184 83398 32598 43606 10260 20203 30143 40148 82240 333 59010;EQDQ01  00002PRCP99
0186833980999992000072300004-15660-038920FM-12+000599999V0203201N001012200019N9999999N1+02061+01961101641ADDAA199000091GF103991021011008001041001KA1240M+02671MA1999999101581MD1999999-0071REMSYN076AAXX  23004 83398 325// 33202 10206 20196 30158 40164 82140 333 10267 59007;EQDQ01  00002PRCP99
0201833980999992000072312004-15660-038920FM-12+000599999V0202301N001012200019N0100001N1+02371+02171101451ADDAA124002091AY151061AY221061GF104991021021008001041001KA1240N+01691MA1999999101681MD1999999+0051MW1011REMSYN088AAXX  23124 83398 21597 42302 10237 20217 30168 40145 70152 82240 333 20169 58005 60024;
0167833980999992000072318004-15660-038920FM-12+000599999V0203601N002110450019N0100001N1+02581+02171101421ADDAA199000091GF105991031051008001041001MA1999999101371MD1999999-0061REMSYN070AAXX  23184 83398 32597 53604 10258 20217 30137 40142 83540 333 59006;EQDQ01  00002PRCP99
0186833980999992000072412004-15660-038920FM-12+000599999V0203201N002110450019N0100001N1+02561+02231101631ADDAA199000091GF106991031051008001041011KA1240N+01761MA1999999101571MD1999999-0111REMSYN076AAXX  24124 83398 32597 63204 10256 20223 30157 40163 83541 333 20176 59011;EQDQ01  00002PRCP99
0167833980999992000072418004-15660-038920FM-12+000599999V0200501N002112200019N0200001N1+02601+02061101341ADDAA199000091GF103991021021008001041001MA1999999101291MD1999999-0081REMSYN070AAXX  24184 83398 32598 30504 10260 20206 30129 40134 82240 333 59008;EQDQ01  00002PRCP99
0186833980999992000072500004-15660-038920FM-12+000599999V0209999C000010450019N9999999N1+02211+02051101671ADDAA199000091GF107991041051008001021001KA1240M+02671MA1999999101611MD1999999+0131REMSYN076AAXX  25004 83398 325// 70000 10221 20205 30161 40167 84520 333 10267 58013;EQDQ01  00002PRCP99
0201833980999992000072512004-15660-038920FM-12+000599999V0201801N001010450019N0100001N1+02351+02171101841ADDAA124000191AY151061AY221061GF106991041051008001021001KA1240N+01871MA1999999101781MD1999999+0311MW1021REMSYN088AAXX  25124 83398 21597 61802 10235 20217 30178 40184 70252 84520 333 20187 58031 69924;
0167833980999992000072518004-15660-038920FM-12+000599999V0200901N002112200019N0200001N1+02631+01961101631ADDAA199000091GF104991021021008001041001MA1999999101571MD1999999+0281REMSYN070AAXX  25184 83398 32598 40904 10263 20196 30157 40163 82240 333 58028;EQDQ01  00002PRCP99
0186833980999992000072600004-15660-038920FM-12+000599999V0202301N001012200019N9999999N1+02091+01911101851ADDAA199000091GF102991011011008001041001KA1240M+02611MA1999999101791MD1999999+0181REMSYN076AAXX  26004 83398 325// 22302 10209 20191 30179 40185 81140 333 10261 58018;EQDQ01  00002PRCP99
0201833980999992000072612004-15660-038920FM-12+000599999V0202701N002110450019N0100001N1+02341+02151101821ADDAA124002091AY151061AY221061GF106991041051008001041001KA1240N+01871MA1999999101761MD1999999-0021MW1011REMSYN088AAXX  26124 83398 21597 62704 10234 20215 30176 40182 70152 84540 333 20187 59002 60024;
0167833980999992000072618004-15660-038920FM-12+000599999V0200901N002112200019N0200001N1+02581+02121101461ADDAA199000091GF103991021021008001041001MA1999999101411MD1999999-0161REMSYN070AAXX  26184 83398 32598 30904 10258 20212 30141 40146 82240 333 59016;EQDQ01  00002PRCP99
0186833980999992000072700004-15660-038920FM-12+000599999V0209999C000010450019N9999999N1+02281+02071101721ADDAA199000091GF107991041051008001021001KA1240M+02641MA1999999101661MD1999999+0131REMSYN076AAXX  27004 83398 325// 70000 10228 20207 30166 40172 84520 333 10264 58013;EQDQ01  00002PRCP99
0201833980999992000072712004-15660-038920FM-12+000599999V0201801N002110450019N0040001N1+02341+02111101811ADDAA124014091AY161061AY221061GF107991041051008001021001KA1240N+01781MA1999999101751MD1999999-0011MW1021REMSYN088AAXX  27124 83398 21596 71804 10234 20211 30175 40181 70262 84520 333 20178 59001 60144;
0167833980999992000072718004-15660-038920FM-12+000599999V0201401N003110075019N0040001N1+02241+02101101621ADDAA199000091GF107991051051008001021001MA1999999101561MD1999999+0151REMSYN070AAXX  27184 83398 32596 71406 10224 20210 30156 40162 85520 333 58015;EQDQ01  00002PRCP99
0201833980999992000072800004-15660-038920FM-12+000599999V0202301N002110075019N9999999N1+02111+02041101891ADDAA106004191AY161061AY221061GF108991051071008001021999KA1240M+02561MA1999999101831MD1999999+0171MW1611REMSYN088AAXX  28004 83398 215// 82304 10211 20204 30183 40189 76162 8572/ 333 10256 58017 60041;
0201833980999992000072812004-15660-038920FM-12+000599999V0202301N001010042019N0040001N1+02101+01961102101ADDAA124034091AY161061AY221061GF108991051071004501021999KA1240N+01851MA1999999102041MD1999999+0291MW1601REMSYN088AAXX  28124 83398 21496 82302 10210 20196 30204 40210 76062 8572/ 333 20185 58029 60344;
0182833980999992000072818004-15660-038920FM-12+000599999V0201801N002110450019N0040001N1+02301+01771101891ADDAA106000591AY151061AY221061GF106991041051004501021001MA1999999101831MD1999999+0271MW1021REMSYN082AAXX  28184 83398 21496 61804 10230 20177 30183 40189 70252 84520 333 58027 69951;
0167833980999992000072900004-15660-038920FM-12+000599999V0201801N005110075019N9999999N1+02111+01701101941ADDAA199000021GF107991051051008001021001KA1240M+02321MA1999999101881MD1999999+0051REMSYN076AAXX  29004 83398 325// 71810 10211 20170 30188 40194 85520 333 10232 58005;
0201833980999992000072912004-15660-038920FM-12+000599999V0201801N003110450019N0100001N1+02221+01731101901ADDAA124002091AY161061AY221061GF106991021051008001041001KA1240N+01561MA1999999101841MD1999999-0201MW1021REMSYN088AAXX  29124 83398 21597 61806 10222 20173 30184 40190 70262 82540 333 20156 59020 60024;
0167833980999992000072918004-15660-038920FM-12+000599999V0201401N002112200019N0200001N1+02461+01701101661ADDAA199000091GF104991021021008001041001MA1999999101601MD1999999-0231REMSYN070AAXX  29184 83398 32598 41404 10246 20170 30160 40166 82240 333 59023;EQDQ01  00002PRCP99
0186833980999992000073000004-15660-038920FM-12+000599999V0202301N001012200019N9999999N1+01941+01791101781ADDAA199000091GF103991031011008001001001KA1240M+02551MA1999999101721MD1999999-0161REMSYN076AAXX  30004 83398 325// 32302 10194 20179 30172 40178 83100 333 10255 59016;EQDQ01  00002PRCP99
0201833980999992000073012004-15660-038920FM-12+000599999V0202701N001010450019N0040001N1+01981+01811101891ADDAA124000191AY151061AY221061GF107991041051004501021001KA1240N+01521MA1999999101831MD1999999-0011MW1021REMSYN088AAXX  30124 83398 21496 72702 10198 20181 30183 40189 70252 84520 333 20152 59001 69924;
0167833980999992000073018004-15660-038920FM-12+000599999V0201401N002110450019N0040001N1+02431+01771101551ADDAA199000091GF107991041051004501021001MA1999999101501MD1999999-0101REMSYN070AAXX  30184 83398 32496 71404 10243 20177 30150 40155 84520 333 59010;EQDQ01  00002PRCP99
0186833980999992000073100004-15660-038920FM-12+000599999V0209999C000012200019N9999999N1+01961+01831101771ADDAA199000091GF103991021021008001041001KA1240M+02541MA1999999101711MD1999999-0011REMSYN076AAXX  31004 83398 325// 30000 10196 20183 30171 40177 82240 333 10254 59001;EQDQ01  00002PRCP99
0186833980999992000073112004-15660-038920FM-12+000599999V0202301N001012200019N0200001N1+02261+01881101841ADDAA199000091GF103991021021008001041001KA1240N+01511MA1999999101781MD1999999-0051REMSYN076AAXX  31124 83398 32598 32302 10226 20188 30178 40184 82240 333 20151 59005;EQDQ01  00002PRCP99
0167833980999992000073118004-15660-038920FM-12+000599999V0200901N003110450019N0200001N1+02521+02151101551ADDAA199000091GF105991021051008001041001MA1999999101501MD1999999+0001REMSYN070AAXX  31184 83398 32598 50906 10252 20215 30150 40155 82540 333 58000;EQDQ01  00002PRCP99
0186833980999992000080100004-15660-038920FM-12+000599999V0202301N001012200019N9999999N1+02031+01911101811ADDAA199000091GF103991021021008001041001KA1240M+02591MA1999999101751MD1999999+0041REMSYN076AAXX  01004 83398 325// 32302 10203 20191 30175 40181 82240 333 10259 58004;EQDQ01  00002PRCP99
0201833980999992000080112004-15660-038920FM-12+000599999V0202701N001010450019N0040001N1+02141+01971101881ADDAA124000191AY151061AY221061GF107991041051004501021001KA1240N+01721MA1999999101821MD1999999+0041MW1021REMSYN088AAXX  01124 83398 21496 72702 10214 20197 30182 40188 70252 84520 333 20172 58004 69924;
0167833980999992000080118004-15660-038920FM-12+000599999V0200901N002110450019N0040001N1+02421+02071101651ADDAA199000091GF107991041051008001021001MA1999999101591MD1999999+0091REMSYN070AAXX  01184 83398 32596 70904 10242 20207 30159 40165 84520 333 58009;EQDQ01  00002PRCP99
0186833980999992000080200004-15660-038920FM-12+000599999V0202301N001012200019N9999999N1+02121+01971101811ADDAA199000091GF103991021011008001041001KA1240M+02441MA1999999101751MD1999999+0001REMSYN076AAXX  02004 83398 325// 32302 10212 20197 30175 40181 82140 333 10244 58000;EQDQ01  00002PRCP99
0201833980999992000080212004-15660-038920FM-12+000599999V0200901N002110042019N0040001N1+02301+02001101931ADDAA124002091AY151061AY221061GF107991051051004501021001KA1240N+01901MA1999999101871MD1999999+0051MW1021REMSYN088AAXX  02124 83398 21496 70904 10230 20200 30187 40193 70252 85520 333 20190 58005 60024;
0167833980999992000080218004-15660-038920FM-12+000599999V0200901N002110450019N0200001N1+02581+02011101711ADDAA199000091GF105991031011008001041001MA1999999101651MD1999999+0061REMSYN070AAXX  02184 83398 32598 50904 10258 20201 30165 40171 83140 333 58006;EQDQ01  00002PRCP99
0201833980999992000080300004-15660-038920FM-12+000599999V0200901N002110075019N9999999N1+02141+01901102011ADDAA106000591AY151061AY221061GF108991051071008001021999KA1240M+02671MA1999999101951MD1999999+0201MW1021REMSYN088AAXX  03004 83398 215// 80904 10214 20190 30195 40201 70252 8572/ 333 10267 58020 69951;
0201833980999992000080312004-15660-038920FM-12+000599999V0202301N001010450019N0100001N1+02281+02031101921ADDAA124002091AY151061AY221061GF105991041051008001041001KA1240N+01761MA1999999101861MD1999999-0011MW1011REMSYN088AAXX  03124 83398 21597 52302 10228 20203 30186 40192 70152 84540 333 20176 59001 60024;
0167833980999992000080318004-15660-038920FM-12+000599999V0200901N002112200019N0200001N1+02561+02171101731ADDAA199000091GF104991021021008001041011MA1999999101671MD1999999+0021REMSYN070AAXX  03184 83398 32598 40904 10256 20217 30167 40173 82241 333 58002;EQDQ01  00002PRCP99
0186833980999992000080400004-15660-038920FM-12+000599999V0200901N001012200019N9999999N1+02131+01971101891ADDAA199000091GF104991041051008001001001KA1240M+02701MA1999999101831MD1999999-0121REMSYN076AAXX  04004 83398 325// 40902 10213 20197 30183 40189 84500 333 10270 59012;EQDQ01  00002PRCP99
0186833980999992000080412004-15660-038920FM-12+000599999V0202301N002112200019N0200001N1+02261+02031101741ADDAA199000091GF104991021021008001041041KA1240N+01631MA1999999101681MD1999999-0141REMSYN076AAXX  04124 83398 32598 42304 10226 20203 30168 40174 82244 333 20163 59014;EQDQ01  00002PRCP99
0201833980999992000080500004-15660-038920FM-12+000599999V0209999C000012200019N9999999N1+02061+01961101661ADDAA199000091GF102991999041008001001001KA1999M+02681MA1999999101601MD1999999-0231REMSYN075AAXX  05004 83398 325// 20000 10206 20196 30160 40166 81400333 10268 59023;EQDQ01+000012SCOTLCQ02  00002PRCP99
0167833980999992000080518004-15660-038920FM-12+000599999V0201801N003110075019N0040001N1+02221+01781101981ADDAA199000091GF108991051051008001021999MA1999999101921MD1999999+0561REMSYN070AAXX  05184 83398 32596 81806 10222 20178 30192 40198 8552/ 333 58056;EQDQ01  00002PRCP99
0186833980999992000080600004-15660-038920FM-12+000599999V0202301N003110075019N9999999N1+01931+01611102151ADDAA199000091GF107991051051008001021001KA1240M+02371MA1999999102091MD1999999+0491REMSYN076AAXX  06004 83398 325// 72306 10193 20161 30209 40215 85520 333 10237 58049;EQDQ01  00002PRCP99
0186833980999992000080612004-15660-038920FM-12+000599999V0201801N005110450019N0100001N1+02101+01641102141ADDAA199000091GF106991031051008001041001KA1240N+01441MA1999999102081MD1999999+0021REMSYN076AAXX  06124 83398 32597 61810 10210 20164 30208 40214 83540 333 20144 58002;EQDQ01  00002PRCP99
0167833980999992000080618004-15660-038920FM-12+000599999V0201401N002110450019N0100001N1+02331+01761101981ADDAA199000091GF107991041051008001021001MA1999999101921MD1999999+0001REMSYN070AAXX  06184 83398 32597 71404 10233 20176 30192 40198 84520 333 58000;EQDQ01  00002PRCP99
0186833980999992000080700004-15660-038920FM-12+000599999V0202301N001010075019N9999999N1+02011+01801102001ADDAA199000091GF108991051051008001021999KA1240M+02451MA1999999101941MD1999999-0151REMSYN076AAXX  07004 83398 325// 82302 10201 20180 30194 40200 8552/ 333 10245 59015;EQDQ01  00002PRCP99
0186833980999992000080712004-15660-038920FM-12+000599999V0202301N002110450019N0100001N1+02241+01881101941ADDAA199000091GF105991031021008001041001KA1240N+01531MA1999999101881MD1999999-0201REMSYN076AAXX  07124 83398 32597 52304 10224 20188 30188 40194 83240 333 20153 59020;EQDQ01  00002PRCP99
0167833980999992000080718004-15660-038920FM-12+000599999V0200901N002110450019N0100001N1+02421+02111101731ADDAA199000091GF106991041011008001051001MA1999999101671MD1999999-0251REMSYN070AAXX  07184 83398 32597 60904 10242 20211 30167 40173 84150 333 59025;EQDQ01  00002PRCP99
0186833980999992000080800004-15660-038920FM-12+000599999V0202301N001010075019N9999999N1+02111+01931101821ADDAA199000091GF107991051051008001041001KA1240M+02611MA1999999101761MD1999999-0181REMSYN076AAXX  08004 83398 325// 72302 10211 20193 30176 40182 85540 333 10261 59018;EQDQ01  00002PRCP99
0201833980999992000080812004-15660-038920FM-12+000599999V0202701N001010042019N0040001N1+02241+02051101991ADDAA124011991AY161061AY221061GF108991051051004501021999KA1240N+01781MA1999999101931MD1999999+0051MW1021REMSYN088AAXX  08124 83398 21496 82702 10224 20205 30193 40199 70262 8552/ 333 20178 58005 60124;
0182833980999992000080818004-15660-038920FM-12+000599999V0203201N001010075019N0040001N1+02231+02061101671ADDAA106002091AY161061AY221061GF108991051051008001021999MA1999999101611MD1999999-0061MW1021REMSYN082AAXX  08184 83398 21596 83202 10223 20206 30161 40167 70262 8552/ 333 59006 60021;
0196833980999992000080900004-15660-038920FM-12+000599999V0202301N002110450019N9999999N1+02081+01951101741ADDAY161061AY221061GF108991011071008001021999KA1240M+02501MA1999999101681MD1999999-0081MW1611REMSYN094AAXX  09004 83398 215// 82304 10208 20195 30168 40174 76162 8172/ 333 10250 59008 59008 60361;
0201833980999992000080912004-15660-038920FM-12+000599999V0202301N001010450019N0100001N1+02341+02111101961ADDAA124051191AY161061AY221061GF106991031051004501041011KA1240N+01811MA1999999101901MD1999999-0031MW1011REMSYN088AAXX  09124 83398 21497 62302 10234 20211 30190 40196 70162 83541 333 20181 59003 60514;
0167833980999992000080918004-15660-038920FM-12+000599999V0203601N002110450019N0200001N1+02591+02231101741ADDAA199000091GF105991031021008001041001MA1999999101681MD1999999+0071REMSYN070AAXX  09184 83398 32598 53604 10259 20223 30168 40174 83240 333 58007;EQDQ01  00002PRCP99
0186833980999992000081000004-15660-038920FM-12+000599999V0200501N001010450019N9999999N1+02391+02191101961ADDAA199000091GF105991021021008001051001KA1240M+02671MA1999999101901MD1999999+0221REMSYN076AAXX  10004 83398 325// 50502 10239 20219 30190 40196 82250 333 10267 58022;EQDQ01  00002PRCP99
0201833980999992000081012004-15660-038920FM-12+000599999V0202701N001010450019N0100001N1+02481+02191102051ADDAA124000191AY151061AY221061GF106991041051008001041011KA1240N+01841MA1999999101991MD1999999+0091MW1011REMSYN088AAXX  10124 83398 21597 62702 10248 20219 30199 40205 70152 84541 333 20184 58009 69924;
0167833980999992000081018004-15660-038920FM-12+000599999V0200901N002112200019N0200001N1+02621+02181101771ADDAA199000091GF104991021021008001041011MA1999999101711MD1999999+0031REMSYN070AAXX  10184 83398 32598 40904 10262 20218 30171 40177 82241 333 58003;EQDQ01  00002PRCP99
0186833980999992000081100004-15660-038920FM-12+000599999V0200501N001012200019N9999999N1+02371+02171101871ADDAA199000091GF102991011011008001041001KA1240M+02671MA1999999101811MD1999999-0091REMSYN076AAXX  11004 83398 325// 20502 10237 20217 30181 40187 81140 333 10267 59009;EQDQ01  00002PRCP99
0201833980999992000081112004-15660-038920FM-12+000599999V0203201N002110042019N0100001N1+02541+02251101961ADDAA124000891AY151061AY221061GF105991051051004501001001KA1240N+01801MA1999999101901MD1999999+0091MW1011REMSYN088AAXX  11124 83398 31497 53204 10254 20225 30190 40196 70152 85500 333 20180 58009 69984;
0167833980999992000081118004-15660-038920FM-12+000599999V0200501N002112200019N0200001N1+02611+02251101521ADDAA199000091GF104991021021008001041011MA1999999101471MD1999999-0241REMSYN070AAXX  11184 83398 32598 40504 10261 20225 30147 40152 82241 333 59024;EQDQ01  00002PRCP99
0186833980999992000081200004-15660-038920FM-12+000599999V0203601N001010450019N9999999N1+02321+02131101611ADDAA199000091GF105991031011008001041001KA1240M+02661MA1999999101551MD1999999-0261REMSYN076AAXX  12004 83398 325// 53602 10232 20213 30155 40161 83140 333 10266 59026;EQDQ01  00002PRCP99
0186833980999992000081212004-15660-038920FM-12+000599999V0201801N002110075019N0100001N1+02501+02291101691ADDAA199000091GF106991051051008001021001KA1240N+01921MA1999999101631MD1999999-0271REMSYN076AAXX  12124 83398 32597 61804 10250 20229 30163 40169 85520 333 20192 59027;EQDQ01  00002PRCP99
0173833980999992000081312004-15660-038920FM-12+000599999V0201801N004110075019N0040001N1+01921+01731102131ADDAA124004191GF108991051051008001021999KA1240N+01621MA1999999102071MD1999999+0441REMSYN082AAXX  13124 83398 22596 81808 10192 20173 30207 40213 8552/ 333 20162 58044 60044;
0167833980999992000081318004-15660-038920FM-12+000599999V0201801N003110075019N0040001N1+02221+01901101841ADDAA199000091GF108991051051008001021999MA1999999101781MD1999999+0321REMSYN070AAXX  13184 83398 32596 81806 10222 20190 30178 40184 8552/ 333 58032;EQDQ01  00002PRCP99
0186833980999992000081600004-15660-038920FM-12+000599999V0209999C000012200019N9999999N1+01921+01771102081ADDAA199000091GF104991021021008001041001KA1240M+02551MA1999999102021MD1999999-0181REMSYN076AAXX  16004 83398 325// 40000 10192 20177 30202 40208 82240 333 10255 59018;EQDQ01  00002PRCP99
0201833980999992000081612004-15660-038920FM-12+000599999V0202301N001010450019N0100001N1+02171+01901102031ADDAA124000191AY151061AY221061GF105991031051004501041001KA1240N+01541MA1999999101971MD1999999-0261MW1011REMSYN088AAXX  16124 83398 21497 52302 10217 20190 30197 40203 70152 83540 333 20154 59026 69924;
0167833980999992000081618004-15660-038920FM-12+000599999V0200901N002110450019N0200001N1+02481+01871101841ADDAA199000091GF106991031021008001051041MA1999999101781MD1999999+0021REMSYN070AAXX  16184 83398 32598 60904 10248 20187 30178 40184 83254 333 58002;EQDQ01  00002PRCP99
0186833980999992000081700004-15660-038920FM-12+000599999V0209999C000010450019N9999999N1+02021+01801101951ADDAA199000091GF106991041021008001041001KA1240M+02531MA1999999101891MD1999999-0131REMSYN076AAXX  17004 83398 325// 60000 10202 20180 30189 40195 84240 333 10253 59013;EQDQ01  00002PRCP99
0167833980999992000081718004-15660-038920FM-12+000599999V0201401N002112200019N0200001N1+02541+01881101791ADDAA199000091GF104991021011008001041011MA1999999101731MD1999999-0051REMSYN070AAXX  17184 83398 32598 41404 10254 20188 30173 40179 82141 333 59005;EQDQ01  00002PRCP99
0186833980999992000081800004-15660-038920FM-12+000599999V0202301N001012200019N9999999N1+01891+01711101961ADDAA199000091GF102991011011008001041001KA1240M+02601MA1999999101901MD1999999+0011REMSYN076AAXX  18004 83398 325// 22302 10189 20171 30190 40196 81140 333 10260 58001;EQDQ01  00002PRCP99
0186833980999992000081812004-15660-038920FM-12+000599999V0202301N002110042019N0040001N1+02121+01821101951ADDAA199000091GF108991051051004501021999KA1240N+01441MA1999999101891MD1999999-0211REMSYN076AAXX  18124 83398 32496 82304 10212 20182 30189 40195 8552/ 333 20144 59021;EQDQ01  00002PRCP99
0182833980999992000081818004-15660-038920FM-12+000599999V0201401N002110450019N0100001N1+02311+01961101781ADDAA106001091AY151061AY221061GF106991041051004501021001MA1999999101721MD1999999-0011MW1011REMSYN082AAXX  18184 83398 21497 61404 10231 20196 30172 40178 70152 84520 333 59001 60011;
0186833980999992000081900004-15660-038920FM-12+000599999V0202301N001010075019N9999999N1+02091+01981101851ADDAA199000091GF107991051051008001041001KA1240M+02461MA1999999101791MD1999999-0111REMSYN076AAXX  19004 83398 325// 72302 10209 20198 30179 40185 85540 333 10246 59011;EQDQ01  00002PRCP99
0173833980999992000081912004-15660-038920FM-12+000599999V0202301N002110450019N0100001N1+02281+02051101821ADDAA124001091GF106991031051008001021001KA1240N+01721MA1999999101761MD1999999-0131REMSYN082AAXX  19124 83398 22597 62304 10228 20205 30176 40182 83520 333 20172 59013 60014;
0167833980999992000081918004-15660-038920FM-12+000599999V0201401N003110450019N0200001N1+02561+02231101651ADDAA199000091GF105991031051008001041001MA1999999101591MD1999999-0131REMSYN070AAXX  19184 83398 32598 51406 10256 20223 30159 40165 83540 333 59013;EQDQ01  00002PRCP99
0218833980999992000082000004-15660-038920FM-12+000599999V0209999C000012200019N9999999N1+02121+99999101941ADDAA199000091GF103991031011008001001999KA1240M+02971MA1999999999999MD1999999+0091REMSYN076AAXX  20004 83398 325// 30000 10212 2095/ 39018 40194 8310/ 333 10297 58009;EQDQ01+090183APOSP Q02  00002PRCP99Q03 090183APOSP 
0201833980999992000082012004-15660-038920FM-12+000599999V0201801N002111050019N0100001N1+02431+02131102181ADDAA124002091AY151061AY221061GF106991021021004501041041KA1240N+01721MA1999999102121MD1999999+0361MW1011REMSYN088AAXX  20124 83398 21497 61804 10243 20213 30212 40218 70152 82244 333 20172 58036 60024;
0167833980999992000082018004-15660-038920FM-12+000599999V0201401N002111050019N0200001N1+02571+02121101921ADDAA199000091GF105991021021008001041041MA1999999101861MD1999999+0271REMSYN070AAXX  20184 83398 32598 51404 10257 20212 30186 40192 82244 333 58027;EQDQ01  00002PRCP99
0186833980999992000082112004-15660-038920FM-12+000599999V0201801N002110450019N0100001N1+02381+02031102191ADDAA199000091GF105991041011008001041001KA1240N+01711MA1999999102131MD1999999+0011REMSYN076AAXX  21124 83398 32597 51804 10238 20203 30213 40219 84140 333 20171 58001;EQDQ01  00002PRCP99
0167833980999992000082118004-15660-038920FM-12+000599999V0200901N002111050019N0100001N1+02641+02071101821ADDAA199000091GF105991021021008001051011MA1999999101761MD1999999-0101REMSYN070AAXX  21184 83398 32597 50904 10264 20207 30176 40182 82251 333 59010;EQDQ01  00002PRCP99
0186833980999992000082200004-15660-038920FM-12+000599999V0202301N002110450019N9999999N1+02161+02021102021ADDAA199000091GF106991041021008001041001KA1240M+02681MA1999999101961MD1999999+0051REMSYN076AAXX  22004 83398 325// 62304 10216 20202 30196 40202 84240 333 10268 58005;EQDQ01  00002PRCP99
0201833980999992000082212004-15660-038920FM-12+000599999V0200901N003110042019N0040001N1+02461+02131101951ADDAA124001091AY151061AY221061GF107991051051004501021001KA1240N+01851MA1999999101891MD1999999-0241MW1021REMSYN088AAXX  22124 83398 21496 70906 10246 20213 30189 40195 70252 85520 333 20185 59024 60014;
0167833980999992000082218004-15660-038920FM-12+000599999V0200901N003110450019N0100001N1+02561+02171101761ADDAA199000091GF106991041051008001021001MA1999999101701MD1999999-0061REMSYN070AAXX  22184 83398 32597 60906 10256 20217 30170 40176 84520 333 59006;EQDQ01  00002PRCP99
0186833980999992000082300004-15660-038920FM-12+000599999V0201801N001010450019N9999999N1+02311+02051101841ADDAA199000091GF106991041051008001021001KA1240M+02641MA1999999101781MD1999999-0181REMSYN076AAXX  23004 83398 325// 61802 10231 20205 30178 40184 84520 333 10264 59018;EQDQ01  00002PRCP99
0201833980999992000082312004-15660-038920FM-12+000599999V0200501N001010450019N0100001N1+02581+02101101871ADDAA124002091AY151061AY221061GF106991031021004501051001KA1240N+02011MA1999999101811MD1999999-0081MW1011REMSYN088AAXX  23124 83398 21497 60502 10258 20210 30181 40187 70152 83250 333 20201 59008 60024;
0167833980999992000082318004-15660-038920FM-12+000599999V0200501N002110450019N0200001N1+02661+02181101701ADDAA199000091GF105991031021008001041011MA1999999101641MD1999999-0061REMSYN070AAXX  23184 83398 32598 50504 10266 20218 30164 40170 83241 333 59006;EQDQ01  00002PRCP99
0186833980999992000082400004-15660-038920FM-12+000599999V0209999C000012200019N9999999N1+02231+02101101801ADDAA199000091GF104991021021008001041001KA1240M+02671MA1999999101741MD1999999-0041REMSYN076AAXX  24004 83398 325// 40000 10223 20210 30174 40180 82240 333 10267 59004;EQDQ01  00002PRCP99
0201833980999992000082412004-15660-038920FM-12+000599999V0200501N002110450019N0200001N1+02581+02011101921ADDAA124000191AY151061AY221061GF105991031051008001041001KA1240N+01831MA1999999101861MD1999999+0051MW1011REMSYN088AAXX  24124 83398 21598 50504 10258 20201 30186 40192 70152 83540 333 20183 58005 69914;
0167833980999992000082418004-15660-038920FM-12+000599999V0200501N002112200019N0200001N1+02561+02061101581ADDAA199000091GF102991011021008001041001MA1999999101531MD1999999-0111REMSYN070AAXX  24184 83398 32598 20504 10256 20206 30153 40158 81240 333 59011;EQDQ01  00002PRCP99
0186833980999992000082500004-15660-038920FM-12+000599999V0200901N002112200019N9999999N1+02361+01951101771ADDAA199000091GF103991021011008001041001KA1240M+02681MA1999999101711MD1999999-0031REMSYN076AAXX  25004 83398 325// 30904 10236 20195 30171 40177 82140 333 10268 59003;EQDQ01  00002PRCP99
0186833980999992000082512004-15660-038920FM-12+000599999V0203601N001010450019N0100001N1+02521+02151101821ADDAA199000091GF105991031021008001041001KA1240N+01641MA1999999101761MD1999999-0101REMSYN076AAXX  25124 83398 32597 53602 10252 20215 30176 40182 83240 333 20164 59010;EQDQ01  00002PRCP99
0182833980999992000082518004-15660-038920FM-12+000599999V0200901N002110450019N0100001N1+02531+02211101471ADDAA106000891AY151061AY221061GF106991041051004501021001MA1999999101421MD1999999-0111MW1501REMSYN082AAXX  25184 83398 21497 60904 10253 20221 30142 40147 75052 84520 333 59011 69981;
0201833980999992000082600004-15660-038920FM-12+000599999V0200501N003110450019N9999999N1+02461+02251101721ADDAA106001091AY161061AY221061GF106991041051008001021001KA1240M+02691MA1999999101661MD1999999-0051MW1021REMSYN088AAXX  26004 83398 215// 60506 10246 20225 30166 40172 70262 84520 333 10269 59005 60011;
0201833980999992000082612004-15660-038920FM-12+000599999V0203601N002110042019N0040001N1+02521+02191101761ADDAA124003091AY151061AY221061GF107991051051004501021001KA1240N+02061MA1999999101701MD1999999-0061MW1021REMSYN088AAXX  26124 83398 21496 73604 10252 20219 30170 40176 70252 85520 333 20206 59006 60034;
0167833980999992000082618004-15660-038920FM-12+000599999V0200501N005110075019N0040001N1+02581+02101101321ADDAA199000091GF108991051051008001021999MA1999999101271MD1999999-0151REMSYN070AAXX  26184 83398 32596 80510 10258 20210 30127 40132 8552/ 333 59015;EQDQ01  00002PRCP99
0186833980999992000082700004-15660-038920FM-12+000599999V0200501N002110450019N9999999N1+02431+02131101501ADDAA199000091GF107991041051008001021001KA1240M+02701MA1999999101451MD1999999-0171REMSYN076AAXX  27004 83398 325// 70504 10243 20213 30145 40150 84520 333 10270 59017;EQDQ01  00002PRCP99
0186833980999992000082712004-15660-038920FM-12+000599999V0203601N002112200019N0200001N1+02711+02131101611ADDAA199000091GF103991031011008001001001KA1240N+01951MA1999999101551MD1999999-0151REMSYN076AAXX  27124 83398 32598 33604 10271 20213 30155 40161 83100 333 20195 59015;EQDQ01  00002PRCP99
0167833980999992000082718004-15660-038920FM-12+000599999V0203601N002112200019N0200001N1+02631+02211101121ADDAA199000091GF102991011021008001041001MA1999999101071MD1999999-0201REMSYN070AAXX  27184 83398 32598 23604 10263 20221 30107 40112 81240 333 59020;EQDQ01  00002PRCP99
0186833980999992000082800004-15660-038920FM-12+000599999V0203601N001012200019N9999999N1+02391+02131101411ADDAA199000091GF102991021021008001001001KA1240M+02781MA1999999101361MD1999999-0291REMSYN076AAXX  28004 83398 325// 23602 10239 20213 30136 40141 82200 333 10278 59029;EQDQ01  00002PRCP99
0201833980999992000082812004-15660-038920FM-12+000599999V0203601N002110042019N0100001N1+02381+02211101331ADDAA124001091AY151061AY221061GF107991051051004501021001KA1240N+01861MA1999999101281MD1999999-0271MW1501REMSYN088AAXX  28124 83398 21497 73604 10238 20221 30128 40133 75052 85520 333 20186 59027 60014;
0167833980999992000082900004-15660-038920FM-12+000599999V0203601N005110450019N9999999N1+02441+02211101171ADDAA199000021GF105991041021008001041001KA1240M+02711MA1999999101121MD1999999-0241REMSYN076AAXX  29004 83398 325// 53610 10244 20221 30112 40117 84240 333 10271 59024;
0201833980999992000082912004-15660-038920FM-12+000599999V0203601N004110450019N0200001N1+02701+02301101471ADDAA124000591AY151061AY221061GF106991041051004501061001KA1240N+02241MA1999999101421MD1999999+0141MW1011REMSYN088AAXX  29124 83398 21498 63608 10270 20230 30142 40147 70152 84560 333 20224 58014 69954;
0167833980999992000082918004-15660-038920FM-12+000599999V0200501N003112200019N0200001N1+02701+02301101311ADDAA199000091GF103991021011008001041001MA1999999101261MD1999999+0271REMSYN070AAXX  29184 83398 32598 30506 10270 20230 30126 40131 82140 333 58027;EQDQ01  00002PRCP99
0186833980999992000083000004-15660-038920FM-12+000599999V0200501N002110450019N9999999N1+02481+02271101621ADDAA199000091GF105991031021008001041001KA1240M+02771MA1999999101561MD1999999+0441REMSYN076AAXX  30004 83398 325// 50504 10248 20227 30156 40162 83240 333 10277 58044;EQDQ01  00002PRCP99
0186833980999992000083012004-15660-038920FM-12+000599999V0203601N002110450019N0200001N1+02651+02221101861ADDAA199000091GF105991031021008001041041KA1240N+02061MA1999999101801MD1999999+0381REMSYN076AAXX  30124 83398 32598 53604 10265 20222 30180 40186 83244 333 20206 58038;EQDQ01  00002PRCP99
0167833980999992000083018004-15660-038920FM-12+000599999V0200901N003112200019N0200001N1+02661+02201101571ADDAA199000091GF104991021021008001041041MA1999999101521MD1999999+0261REMSYN070AAXX  30184 83398 32598 40906 10266 20220 30152 40157 82244 333 58026;EQDQ01  00002PRCP99
0186833980999992000083100004-15660-038920FM-12+000599999V0209999C000012200019N9999999N1+02381+02091101831ADDAA199000091GF102991011021008001041001KA1240M+02711MA1999999101771MD1999999+0211REMSYN076AAXX  31004 83398 325// 20000 10238 20209 30177 40183 81240 333 10271 58021;EQDQ01  00002PRCP99
0201833980999992000083112004-15660-038920FM-12+000599999V0201401N002110450019N0100001N1+02521+02131101801ADDAA124000191AY151061AY221061GF106991041051008001021001KA1240N+01941MA1999999101741MD1999999-0061MW1021REMSYN088AAXX  31124 83398 21597 61404 10252 20213 30174 40180 70252 84520 333 20194 59006 69914;
0167833980999992000083118004-15660-038920FM-12+000599999V0201401N003110450019N0200001N1+02601+02121101481ADDAA199000091GF106991041051008001041001MA1999999101431MD1999999-0091REMSYN070AAXX  31184 83398 32598 61406 10260 20212 30143 40148 84540 333 59009;EQDQ01  00002PRCP99
0186833980999992000090100004-15660-038920FM-12+000599999V0209999C000010075019N9999999N1+02261+02071101631ADDAA199000091GF107991051051008001021001KA1240M+02691MA1999999101571MD1999999-0201REMSYN076AAXX  01004 83398 325// 70000 10226 20207 30157 40163 85520 333 10269 59020;EQDQ01  00002PRCP99
0201833980999992000090112004-15660-038920FM-12+000599999V0200901N002110450019N0100001N1+02511+02051101751ADDAA124000591AY151061AY221061GF105991041051008001041001KA1240N+01811MA1999999101691MD1999999-0051MW1011REMSYN088AAXX  01124 83398 21597 50904 10251 20205 30169 40175 70152 84540 333 20181 59005 69954;
0167833980999992000090118004-15660-038920FM-12+000599999V0200901N002112200019N0200001N1+02621+02071101251ADDAA199000091GF104991021021008001041041MA1999999101201MD1999999-0231REMSYN070AAXX  01184 83398 32598 40904 10262 20207 30120 40125 82244 333 59023;EQDQ01  00002PRCP99
0186833980999992000090200004-15660-038920FM-12+000599999V0200501N002112200019N9999999N1+02421+02171101421ADDAA199000091GF104991021021008001041001KA1240M+02711MA1999999101371MD1999999-0201REMSYN076AAXX  02004 83398 325// 40504 10242 20217 30137 40142 82240 333 10271 59020;EQDQ01  00002PRCP99
0201833980999992000090212004-15660-038920FM-12+000599999V0201801N002110075019N0040001N1+02301+02161101441ADDAA124002091AY161061AY221061GF108991051051008001021999KA1240N+01801MA1999999101391MD1999999-0301MW1021REMSYN088AAXX  02124 83398 21596 81804 10230 20216 30139 40144 70262 8552/ 333 20180 59030 60024;
0182833980999992000090218004-15660-038920FM-12+000599999V0203601N003110450019N0100001N1+02621+02161101191ADDAA106007191AY161061AY221061GF106991041051008001021001MA1999999101141MD1999999-0061MW1021REMSYN082AAXX  02184 83398 21597 63606 10262 20216 30114 40119 70262 84520 333 59006 60071;
0201833980999992000090312004-15660-038920FM-12+000599999V0203601N001010075019N0040001N1+02341+02221101391ADDAA124009991AY161061AY221061GF108991051051008001021999KA1240N+01881MA1999999101341MD1999999-0051MW1021REMSYN088AAXX  03124 83398 21596 83602 10234 20222 30134 40139 70262 8552/ 333 20188 59005 60104;
0167833980999992000090318004-15660-038920FM-12+000599999V0203601N004110450019N0100001N1+02641+02311101081ADDAA199000091GF106991031051008001021001MA1999999101031MD1999999-0111REMSYN070AAXX  03184 83398 32597 63608 10264 20231 30103 40108 83520 333 59011;EQDQ01  00002PRCP99
0186833980999992000090400004-15660-038920FM-12+000599999V0200501N002112200019N9999999N1+02501+02091101281ADDAA199000091GF102991011011008001041001KA1240M+02721MA1999999101231MD1999999-0131REMSYN076AAXX  04004 83398 325// 20504 10250 20209 30123 40128 81140 333 10272 59013;EQDQ01  00002PRCP99
0186833980999992000090412004-15660-038920FM-12+000599999V0202701N001010075019N0040001N1+02391+02131101611ADDAA199000091GF108991051051008001021999KA1240N+01901MA1999999101551MD1999999+0211REMSYN076AAXX  04124 83398 32596 82702 10239 20213 30155 40161 8552/ 333 20190 58021;EQDQ01  00002PRCP99
0167833980999992000090418004-15660-038920FM-12+000599999V0201801N002110075019N0040001N1+02241+02031101411ADDAA199000091GF108991051051008001021999MA1999999101361MD1999999+0331REMSYN070AAXX  04184 83398 32596 81804 10224 20203 30136 40141 8552/ 333 58033;EQDQ01  00002PRCP99
0186833980999992000090500004-15660-038920FM-12+000599999V0202301N003110075019N9999999N1+02081+01391101631ADDAA199000091GF108991051051008001021999KA1240M+02571MA1999999101571MD1999999+0341REMSYN076AAXX  05004 83398 325// 82306 10208 20139 30157 40163 8552/ 333 10257 58034;EQDQ01  00002PRCP99
0186833980999992000090512004-15660-038920FM-12+000599999V0201801N002110075019N0040001N1+02061+01981101741ADDAA199000091GF108991051051008001021999KA1240N+01861MA1999999101681MD1999999+0031REMSYN076AAXX  05124 83398 32596 81804 10206 20198 30168 40174 8552/ 333 20186 58003;EQDQ01  00002PRCP99
0167833980999992000090518004-15660-038920FM-12+000599999V0201801N002110075019N0040001N1+02401+02051101471ADDAA199000091GF108991051051008001021999MA1999999101421MD1999999+0061REMSYN070AAXX  05184 83398 32596 81804 10240 20205 30142 40147 8552/ 333 58006;EQDQ01  00002PRCP99
0186833980999992000090600004-15660-038920FM-12+000599999V0202301N002110075019N9999999N1+02121+01911101721ADDAA199000091GF108991051051008001021999KA1240M+02531MA1999999101661MD1999999+0091REMSYN076AAXX  06004 83398 325// 82304 10212 20191 30166 40172 8552/ 333 10253 58009;EQDQ01  00002PRCP99
0201833980999992000090612004-15660-038920FM-12+000599999V0202301N002112200019N0100001N1+02421+01971101751ADDAA124000191AY151061AY221061GF104991021011004501041001KA1240N+01781MA1999999101691MD1999999+0011MW1011REMSYN088AAXX  06124 83398 21497 42304 10242 20197 30169 40175 70152 82140 333 20178 58001 69914;
0167833980999992000090618004-15660-038920FM-12+000599999V0200901N002110450019N0040001N1+02431+01881101321ADDAA199000091GF106991041051008001021001MA1999999101271MD1999999-0151REMSYN070AAXX  06184 83398 32596 60904 10243 20188 30127 40132 84520 333 59015;EQDQ01  00002PRCP99
0186833980999992000090700004-15660-038920FM-12+000599999V0201401N001010450019N9999999N1+02301+01871101491ADDAA199000091GF106991041021008001041001KA1240M+02681MA1999999101441MD1999999-0221REMSYN076AAXX  07004 83398 325// 61402 10230 20187 30144 40149 84240 333 10268 59022;EQDQ01  00002PRCP99
0201833980999992000090712004-15660-038920FM-12+000599999V0202701N001010042019N0040001N1+02101+01891101651ADDAA124000191AY151061AY221061GF108991051051004501021999KA1240N+01891MA1999999101591MD1999999-0101MW1021REMSYN088AAXX  07124 83398 21496 82702 10210 20189 30159 40165 70252 8552/ 333 20189 59010 69924;
0182833980999992000090718004-15660-038920FM-12+000599999V0203201N001010042019N0040001N1+02121+02001101331ADDAA106001091AY151061AY221061GF108991061071004501021999MA1999999101281MD1999999+0011MW1501REMSYN082AAXX  07184 83398 21496 83202 10212 20200 30128 40133 75052 8672/ 333 58001 60011;
0201833980999992000090800004-15660-038920FM-12+000599999V0203201N001010075019N9999999N1+01961+01861101601ADDAA106004191AY161061AY221061GF108991051051008001021999KA1240M+02321MA1999999101541MD1999999+0101MW1021REMSYN088AAXX  08004 83398 215// 83202 10196 20186 30154 40160 70262 8552/ 333 10232 58010 60041;
0182833980999992000090818004-15660-038920FM-12+000599999V0209999C000010042019N0040001N1+02291+02111101341ADDAA106002091AY151061AY221061GF108991061071004501021999MA1999999101291MD1999999+0011MW1501REMSYN082AAXX  08184 83398 21496 80000 10229 20211 30129 40134 75052 8672/ 333 58001 60021;
0186833980999992000090912004-15660-038920FM-12+000599999V0201401N002110450019N0100001N1+02461+02091101741ADDAA199000091GF106991031021008001041011KA1240N+01801MA1999999101681MD1999999+0091REMSYN076AAXX  09124 83398 32597 61404 10246 20209 30168 40174 83241 333 20180 58009;EQDQ01  00002PRCP99
0167833980999992000090918004-15660-038920FM-12+000599999V0200901N001010450019N0100001N1+02501+02091101541ADDAA199000091GF106991031021008001041041MA1999999101491MD1999999+0201REMSYN070AAXX  09184 83398 32597 60902 10250 20209 30149 40154 83244 333 58020;EQDQ01  00002PRCP99
0186833980999992000091000004-15660-038920FM-12+000599999V0201801N002110075019N9999999N1+02261+02121101781ADDAA199000091GF108991051051008001021999KA1240M+02741MA1999999101721MD1999999+0211REMSYN076AAXX  10004 83398 325// 81804 10226 20212 30172 40178 8552/ 333 10274 58021;EQDQ01  00002PRCP99
0173833980999992000091012004-15660-038920FM-12+000599999V0200901N003110450019N0100001N1+02461+02151101861ADDAA124000591GF107991041051008001021041KA1240N+01881MA1999999101801MD1999999+0121REMSYN082AAXX  10124 83398 21597 70906 10246 20215 30180 40186 84524 333 20188 58012 69954;
0167833980999992000091018004-15660-038920FM-12+000599999V0200901N002110450019N0100001N1+02621+02211101531ADDAA199000091GF107991041051008001021001MA1999999101481MD1999999-0011REMSYN070AAXX  10184 83398 32597 70904 10262 20221 30148 40153 84520 333 59001;EQDQ01  00002PRCP99
0165833980999992000091100004-15660-038920FM-12+000599999V0200901N003110450019N9999999N1+02411+02111101631ADDAA199000091GF107991041051008001021001KA1240M+02661MD1999999-0151REMSYN070AAXX  11004 83398 325// 70906 10241 20211 40163 84520 333 10266 59015;EQDQ01  00002PRCP99
0201833980999992000091112004-15660-038920FM-12+000599999V0200901N002110450019N0100001N1+02521+02151101711ADDAA124000891AY151061AY221061GF106991041051004501021001KA1240N+01881MA1999999101651MD1999999-0151MW1021REMSYN088AAXX  11124 83398 21497 60904 10252 20215 30165 40171 70252 84520 333 20188 59015 69984;
0167833980999992000091118004-15660-038920FM-12+000599999V0200901N002110450019N0100001N1+02591+02101101531ADDAA199000091GF105991031051008001051001MA1999999101481MD1999999+0001REMSYN070AAXX  11184 83398 32597 50904 10259 20210 30148 40153 83550 333 58000;EQDQ01  00002PRCP99
0186833980999992000091200004-15660-038920FM-12+000599999V0200901N002110450019N9999999N1+02401+02091101621ADDAA199000091GF106991041051008001021001KA1240M+02701MA1999999101561MD1999999-0011REMSYN076AAXX  12004 83398 325// 60904 10240 20209 30156 40162 84520 333 10270 59001;EQDQ01  00002PRCP99
0201833980999992000091212004-15660-038920FM-12+000599999V0200901N002110450019N0100001N1+02631+02231101721ADDAA124001091AY151061AY221061GF105991041051004501041001KA1240N+01881MA1999999101661MD1999999+0011MW1011REMSYN088AAXX  12124 83398 21497 50904 10263 20223 30166 40172 70152 84540 333 20188 58001 60014;
0167833980999992000091218004-15660-038920FM-12+000599999V0200901N002110450019N0200001N1+02641+02181101371ADDAA199000091GF105991021021008001051001MA1999999101321MD1999999-0161REMSYN070AAXX  12184 83398 32598 50904 10264 20218 30132 40137 82250 333 59016;EQDQ01  00002PRCP99
0186833980999992000091300004-15660-038920FM-12+000599999V0200901N003110450019N9999999N1+02471+02171101621ADDAA199000091GF106991041051008001041001KA1240M+02711MA1999999101561MD1999999+0001REMSYN076AAXX  13004 83398 325// 60906 10247 20217 30156 40162 84540 333 10271 58000;EQDQ01  00002PRCP99
0201833980999992000091312004-15660-038920FM-12+000599999V0202701N001010042019N0040001N1+02441+02281101811ADDAA124010991AY161061AY221061GF108991061051004501021999KA1240N+01931MA1999999101751MD1999999+0091MW1021REMSYN088AAXX  13124 83398 21496 82702 10244 20228 30175 40181 70262 8652/ 333 20193 58009 60114;
0182833980999992000091318004-15660-038920FM-12+000599999V0200901N002110042019N0040001N1+02481+02271101641ADDAA106005191AY161061AY221061GF107991051051004501021001MA1999999101581MD1999999+0261MW1021REMSYN082AAXX  13184 83398 21496 70904 10248 20227 30158 40164 70262 85520 333 58026 60051;
0186833980999992000091400004-15660-038920FM-12+000599999V0200901N003110075019N9999999N1+02481+02011101651ADDAA199000091GF107991051021008001001091KA1240M+02601MA1999999101591MD1999999+0031REMSYN076AAXX  14004 83398 325// 70906 10248 20201 30159 40165 85209 333 10260 58003;EQDQ01  00002PRCP99
0173833980999992000091412004-15660-038920FM-12+000599999V0200501N003110450019N0100001N1+02601+02191101841ADDAA124005191GF106991041051008001021001KA1240N+02211MA1999999101781MD1999999+0031REMSYN082AAXX  14124 83398 22597 60506 10260 20219 30178 40184 84520 333 20221 58003 60054;
0167833980999992000091418004-15660-038920FM-12+000599999V0200901N003110450019N0100001N1+02661+02271101631ADDAA199000091GF105991031051008001021001MA1999999101571MD1999999-0011REMSYN070AAXX  14184 83398 32597 50906 10266 20227 30157 40163 83520 333 59001;EQDQ01  00002PRCP99
0212833980999992000091421004-15660-038920FM-12+000599999V0209999C000012200019N0160001N1+03321+02301999999ADDAA199000091GA1041+005109029GF104991041081004501031001MD1999999-0011REMSYN082AAXX  14214 83398 32466 40000 10332 20230 39970 40064 84830 333 5600/ 59001 84817;EQDQ01+099703APOSP Q02+100643APOSLPQ03  00002PRCP99
0186833980999992000091500004-15660-038920FM-12+000599999V0200901N001012200019N9999999N1+02461+02231101801ADDAA199000091GF104991031011008001041001KA1240M+02761MA1999999101741MD1999999+0151REMSYN076AAXX  15004 83398 325// 40902 10246 20223 30174 40180 83140 333 10276 58015;EQDQ01  00002PRCP99
0186833980999992000091512004-15660-038920FM-12+000599999V0200901N002112200019N0100001N1+02711+02411101871ADDAA199000091GF104991031021008001041001KA1240N+02001MA1999999101811MD1999999+0031REMSYN076AAXX  15124 83398 32597 40904 10271 20241 30181 40187 83240 333 20200 58003;EQDQ01  00002PRCP99
0167833980999992000091518004-15660-038920FM-12+000599999V0200901N002110450019N0100001N1+02551+02331101721ADDAA199000091GF106991041051008001041001MA1999999101661MD1999999+0091REMSYN070AAXX  15184 83398 32597 60904 10255 20233 30166 40172 84540 333 58009;EQDQ01  00002PRCP99
0186833980999992000091600004-15660-038920FM-12+000599999V0200501N001010450019N9999999N1+02401+02171101791ADDAA199000091GF106991041051008001041001KA1240M+02751MA1999999101731MD1999999-0011REMSYN076AAXX  16004 83398 325// 60502 10240 20217 30173 40179 84540 333 10275 59001;EQDQ01  00002PRCP99
0201833980999992000091612004-15660-038920FM-12+000599999V0200901N004110450019N0100001N1+02641+02251101851ADDAA124003091AY161061AY221061GF106991041051008001021001KA1240N+02061MA1999999101791MD1999999-0021MW1021REMSYN088AAXX  16124 83398 21597 60908 10264 20225 30179 40185 70262 84520 333 20206 59002 60034;
0167833980999992000091618004-15660-038920FM-12+000599999V0200401N004110450019N0200001N1+02601+02231101501ADDAA199000091GF106991031051008001041001MA1999999101451MD1999999-0211REMSYN070AAXX  16184 83398 32598 60408 10260 20223 30145 40150 83540 333 59021;EQDQ01  00002PRCP99
0186833980999992000091700004-15660-038920FM-12+000599999V0200901N003110450019N9999999N1+02481+01961101671ADDAA199000091GF105991031021008001031001KA1240M+02751MA1999999101611MD1999999-0131REMSYN076AAXX  17004 83398 325// 50906 10248 20196 30161 40167 83230 333 10275 59013;EQDQ01  00002PRCP99
0186833980999992000091712004-15660-038920FM-12+000599999V0200501N003110450019N0100001N1+02601+02211101851ADDAA199000091GF106991031051008001041001KA1240N+01901MA1999999101791MD1999999+0001REMSYN076AAXX  17124 83398 32597 60506 10260 20221 30179 40185 83540 333 20190 58000;EQDQ01  00002PRCP99
0167833980999992000091718004-15660-038920FM-12+000599999V0200901N003110450019N0200001N1+02701+02281101611ADDAA199000091GF105991031021008001041001MA1999999101551MD1999999+0101REMSYN070AAXX  17184 83398 32598 50906 10270 20228 30155 40161 83240 333 58010;EQDQ01  00002PRCP99
0186833980999992000091800004-15660-038920FM-12+000599999V0200901N004110450019N9999999N1+02521+02231101841ADDAA199000091GF105991031021008001031001KA1240M+02741MA1999999101781MD1999999+0171REMSYN076AAXX  18004 83398 325// 50908 10252 20223 30178 40184 83230 333 10274 58017;EQDQ01  00002PRCP99
0186833980999992000091812004-15660-038920FM-12+000599999V0200901N003110450019N0100001N1+02621+02211101971ADDAA199000091GF106991041051008001021001KA1240N+02001MA1999999101911MD1999999+0121REMSYN076AAXX  18124 83398 32597 60906 10262 20221 30191 40197 84520 333 20200 58012;EQDQ01  00002PRCP99
0167833980999992000091818004-15660-038920FM-12+000599999V0201401N002112200019N0200001N1+02761+02041101921ADDAA199000091GF104991041021008001001001MA1999999101861MD1999999+0311REMSYN070AAXX  18184 83398 32598 41404 10276 20204 30186 40192 84200 333 58031;EQDQ01  00002PRCP99
0186833980999992000091900004-15660-038920FM-12+000599999V02099999999990450019N9999999N1+02221+02051102141ADDAA199000091GF106991041051008001021001KA1240M+02761MA1999999102081MD1999999+0301REMSYN076AAXX  19004 83398 325// 6//// 10222 20205 30208 40214 84520 333 10276 58030;EQDQ01  00002PRCP99
0201833980999992000091912004-15660-038920FM-12+000599999V0200901N002110450019N0100001N1+02561+02211102091ADDAA124002091AY151061AY221061GF106991041051004501041001KA1240N+01941MA1999999102031MD1999999+0121MW1021REMSYN088AAXX  19124 83398 21497 60904 10256 20221 30203 40209 70252 84540 333 20194 58012 60024;
0182833980999992000091918004-15660-038920FM-12+000599999V0200901N002110450019N0040001N1+02371+02081101881ADDAA106002091AY151061AY221061GF106991041051004501021001MA1999999101821MD1999999-0041MW1021REMSYN082AAXX  19184 83398 21496 60904 10237 20208 30182 40188 70252 84520 333 59004 60021;
0186833980999992000092000004-15660-038920FM-12+000599999V0201801N002110075019N0010001N1+02191+02051102021ADDAA199000091GF108991051051008001021999KA1240M+02661MA1999999101971MD1999999-0111REMSYN076AAXX  20004 83398 32594 81804 10219 20205 30197 40202 8552/ 333 10266 59011;EQDQ01  00002PRCP99
0201833980999992000092012004-15660-038920FM-12+000599999V0200901N002110450019N0040001N1+02611+02111102031ADDAA124002091AY151061AY221061GF105991031021008001041001KA1240N+01941MA1999999101971MD1999999-0061MW1011REMSYN088AAXX  20124 83398 21596 50904 10261 20211 30197 40203 70152 83240 333 20194 59006 60024;
0167833980999992000092018004-15660-038920FM-12+000599999V0200901N002112200019N0040001N1+02621+01911101811ADDAA199000091GF103991021021008001041001MA1999999101751MD1999999-0071REMSYN070AAXX  20184 83398 32596 30904 10262 20191 30175 40181 82240 333 59007;EQDQ01  00002PRCP99
0186833980999992000092100004-15660-038920FM-12+000599999V0202301N001012200019N0010001N1+02141+01931101981ADDAA199000091GF103991021021008001041001KA1240M+02691MA1999999101921MD1999999-0051REMSYN076AAXX  21004 83398 32594 32302 10214 20193 30192 40198 82240 333 10269 59005;EQDQ01  00002PRCP99
0186833980999992000092112004-15660-038920FM-12+000599999V0200901N002110450019N0040001N1+02621+01981102001ADDAA199000091GF105991031021008001041001KA1240N+01991MA1999999101941MD1999999-0031REMSYN076AAXX  21124 83398 32596 50904 10262 20198 30194 40200 83240 333 20199 59003;EQDQ01  00002PRCP99
0167833980999992000092118004-15660-038920FM-12+000599999V0200901N002112200019N0040001N1+02621+01831101761ADDAA199000091GF104991021011008001041001MA1999999101701MD1999999-0051REMSYN070AAXX  21184 83398 32596 40904 10262 20183 30170 40176 82140 333 59005;EQDQ01  00002PRCP99
0186833980999992000092212004-15660-038920FM-12+000599999V0200901N002112200019N0040001N1+02571+01961102051ADDAA199000091GF104991031021008001041001KA1240N+01691MA1999999101991MD1999999+0051REMSYN076AAXX  22124 83398 32596 40904 10257 20196 30199 40205 83240 333 20169 58005;EQDQ01  00002PRCP99
0167833980999992000092218004-15660-038920FM-12+000599999V0200901N002110450019N0040001N1+02551+01941101721ADDAA199000091GF105991031021008001041001MA1999999101661MD1999999-0041REMSYN070AAXX  22184 83398 32596 50904 10255 20194 30166 40172 83240 333 59004;EQDQ01  00002PRCP99
0186833980999992000092300004-15660-038920FM-12+000599999V0200501N002112200019N0010001N1+02371+01891101871ADDAA199000091GF102991011011008001041001KA1240M+02701MA1999999101811MD1999999-0101REMSYN076AAXX  23004 83398 32594 20504 10237 20189 30181 40187 81140 333 10270 59010;EQDQ01  00002PRCP99
0186833980999992000092312004-15660-038920FM-12+000599999V0200501N003110450019N0020001N1+02541+02151101891ADDAA199000091GF106991031051008001021001KA1240N+01981MA1999999101831MD1999999-0161REMSYN076AAXX  23124 83398 32595 60506 10254 20215 30183 40189 83520 333 20198 59016;EQDQ01  00002PRCP99
0167833980999992000092318004-15660-038920FM-12+000599999V0200901N004110450019N0040001N1+02621+02141101551ADDAA199000091GF105991031051008001041001MA1999999101501MD1999999-0161REMSYN070AAXX  23184 83398 32596 50908 10262 20214 30150 40155 83540 333 59016;EQDQ01  00002PRCP99
0186833980999992000092400004-15660-038920FM-12+000599999V0200501N001012200019N0010001N1+02391+01971101791ADDAA199000091GF102991011021008001041001KA1240M+02761MA1999999101731MD1999999-0081REMSYN076AAXX  24004 83398 32594 20502 10239 20197 30173 40179 81240 333 10276 59008;EQDQ01  00002PRCP99
0186833980999992000092412004-15660-038920FM-12+000599999V0203601N003110450019N0020001N1+02601+02121101761ADDAA199000091GF106991031051008001041001KA1240N+02041MA1999999101701MD1999999-0131REMSYN076AAXX  24124 83398 32595 63606 10260 20212 30170 40176 83540 333 20204 59013;EQDQ01  00002PRCP99
0167833980999992000092418004-15660-038920FM-12+000599999V0200501N004110450019N0040001N1+02601+01941101451ADDAA199000091GF106991031051008001041001MA1999999101401MD1999999-0101REMSYN070AAXX  24184 83398 32596 60508 10260 20194 30140 40145 83540 333 59010;EQDQ01  00002PRCP99
0186833980999992000092500004-15660-038920FM-12+000599999V0200501N002112200019N0010001N1+02361+02071101621ADDAA199000091GF102991021011008001001001KA1240M+02791MA1999999101561MD1999999-0171REMSYN076AAXX  25004 83398 32594 20504 10236 20207 30156 40162 82100 333 10279 59017;EQDQ01  00002PRCP99
0167833980999992000092518004-15660-038920FM-12+000599999V0200901N002112200019N0040001N1+02731+02311101441ADDAA199000091GF103991021011008001041001MA1999999101391MD1999999-0011REMSYN070AAXX  25184 83398 32596 30904 10273 20231 30139 40144 82140 333 59001;EQDQ01  00002PRCP99
0186833980999992000092600004-15660-038920FM-12+000599999V0200501N002112200019N0010001N1+02411+02051101801ADDAA199000091GF102991011011008001041001KA1240M+02821MA1999999101741MD1999999+0181REMSYN076AAXX  26004 83398 32594 20504 10241 20205 30174 40180 81140 333 10282 58018;EQDQ01  00002PRCP99
0186833980999992000092612004-15660-038920FM-12+000599999V0201801N001010075019N0040001N1+02511+02221102101ADDAA199000091GF108991051051008001021999KA1240N+01901MA1999999101041MD1999999+0371REMSYN076AAXX  26124 83398 32596 81802 10251 20222 30104 40210 8552/ 333 20190 58037;EQDQ01  00002PRCP99
0167833980999992000092618004-15660-038920FM-12+000599999V0201401N004110075019N0020001N1+02501+01981101881ADDAA199000091GF107991051051008001021001MA1999999101821MD1999999+0431REMSYN070AAXX  26184 83398 32595 71408 10250 20198 30182 40188 85520 333 58043;EQDQ01  00002PRCP99
0201833980999992000092700004-15660-038920FM-12+000599999V0201801N003110075019N0005001N1+02031+01961102171ADDAA106001091AY161061AY221061GF108991051071008001021999KA1240M+02751MA1999999102111MD1999999+0291MW1611REMSYN088AAXX  27004 83398 21593 81806 10203 20196 30211 40217 76162 8572/ 333 10275 58029 60011;
0201833980999992000092712004-15660-038920FM-12+000599999V0201801N003110075019N0020001N1+02361+02131102191ADDAA124007991AY161061AY221061GF107991051051008001021001KA1240N+01901MA1999999102131MD1999999+0091MW1021REMSYN088AAXX  27124 83398 21595 71806 10236 20213 30213 40219 70262 85520 333 20190 58009 60084;
0182833980999992000092718004-15660-038920FM-12+000599999V0200901N004110075019N0020001N1+02601+02141101891ADDAA106003091AY161061AY221061GF108991051071008001021999MA1999999101831MD1999999+0011MW1601REMSYN082AAXX  27184 83398 21595 80908 10260 20214 30183 40189 76062 8572/ 333 58001 60031;
0201833980999992000092800004-15660-038920FM-12+000599999V0202301N001012200019N0010001N1+02111+02051102101ADDAA106000891AY101061AY251061GF102991011011008001041001KA1240M+02641MA1999999101241MD1999999-0071MW1011REMSYN088AAXX  28004 83398 21594 22302 10211 20205 30124 40210 70105 81140 333 10264 59007 69981;
0201833980999992000092812004-15660-038920FM-12+000599999V0200901N002110450019N0040001N1+02591+01931102091ADDAA124004191AY151061AY221061GF105991021021008001041001KA1240N+01961MA1999999102031MD1999999-0101MW1011REMSYN088AAXX  28124 83398 21596 50904 10259 20193 30203 40209 70152 82240 333 20196 59010 60044;
0167833980999992000092818004-15660-038920FM-12+000599999V0200901N002110450019N0200001N1+02621+02011101951ADDAA199000091GF105991031021008001041041MA1999999101891MD1999999+0061REMSYN070AAXX  28184 83398 32598 50904 10262 20201 30189 40195 83244 333 58006;EQDQ01  00002PRCP99
0186833980999992000092900004-15660-038920FM-12+000599999V0202301N001012200019N0010001N1+02121+01971102091ADDAA199000091GF104991031021008001041001KA1240M+02731MA1999999102031MD1999999-0011REMSYN076AAXX  29004 83398 32594 42302 10212 20197 30203 40209 83240 333 10273 59001;EQDQ01  00002PRCP99
0186833980999992000092912004-15660-038920FM-12+000599999V0201801N003110450019N0020001N1+02441+02151102071ADDAA199000091GF106991041051008001021001KA1240N+01901MA1999999102011MD1999999-0021REMSYN076AAXX  29124 83398 32595 61806 10244 20215 30201 40207 84520 333 20190 59002;EQDQ01  00002PRCP99
0167833980999992000092918004-15660-038920FM-12+000599999V0201401N004110450019N0020001N1+02521+02021101801ADDAA199000091GF106991041051008001021001MA1999999101741MD1999999-0151REMSYN070AAXX  29184 83398 32595 61408 10252 20202 30174 40180 84520 333 59015;EQDQ01  00002PRCP99
0186833980999992000093000004-15660-038920FM-12+000599999V0202301N001010075019N0002001N1+02251+02091102031ADDAA199000091GF107991051051008001021001KA1240M+02731MA1999999101971MD1999999+0001REMSYN076AAXX  30004 83398 32592 72302 10225 20209 30197 40203 85520 333 10273 58000;EQDQ01  00002PRCP99
0201833980999992000093012004-15660-038920FM-12+000599999V0201401N004110075019N0010001N1+02381+01971102081ADDAA124006191AY161061AY221061GF108991051051008001021999KA1240N+01961MA1999999102021MD1999999+0011MW1021REMSYN088AAXX  30124 83398 21594 81408 10238 20197 30202 40208 70262 8552/ 333 20196 58001 60064;
0167833980999992000093018004-15660-038920FM-12+000599999V0203601N003110450019N0020001N1+02461+02091101801ADDAA199000091GF107991041051008001021001MA1999999101741MD1999999+0001REMSYN070AAXX  30184 83398 32595 73606 10246 20209 30174 40180 84520 333 58000;EQDQ01  00002PRCP99
0186833980999992000100100004-15660-038920FM-12+000599999V0202701N002110450019N0010001N1+02221+02101101981ADDAA199000091GF105991031011008001041001KA1240M+02671MA1999999101921MD1999999-0051REMSYN076AAXX  01004 83398 32594 52704 10222 20210 30192 40198 83140 333 10267 59005;EQDQ01  00002PRCP99
0201833980999992000100112004-15660-038920FM-12+000599999V0200501N002110450019N0040001N1+02631+02081102091ADDAA124003091AY151061AY221061GF106991031051008001051001KA1240N+02031MA1999999102031MD1999999+0011MW1011REMSYN088AAXX  01124 83398 21596 60504 10263 20208 30203 40209 70152 83550 333 20203 58001 60034;
0167833980999992000100118004-15660-038920FM-12+000599999V0200501N004110450019N0040001N1+02601+02061101811ADDAA199000091GF106991041051008001041001MA1999999101751MD1999999+0011REMSYN070AAXX  01184 83398 32596 60508 10260 20206 30175 40181 84540 333 58001;EQDQ01  00002PRCP99
0180833980999992000100212004-15660-038920FM-12+000599999V0200501N003110450019N0020001N1+02621+02091999999ADDAA199000091GF106991041051008001021001KA1240N+01901MA1999999101911MD1999999-0121REMSYN070AAXX  02124 83398 32595 60506 10262 20209 30191 84520 333 20190 59012;EQDQ01  00002PRCP99
0167833980999992000100218004-15660-038920FM-12+000599999V0200501N004110450019N0020001N1+02601+02121101631ADDAA199000091GF106991031051008001041001MA1999999101571MD1999999-0181REMSYN070AAXX  02184 83398 32595 60508 10260 20212 30157 40163 83540 333 59018;EQDQ01  00002PRCP99
0186833980999992000100300004-15660-038920FM-12+000599999V0200501N003110450019N0010001N1+02431+02071101771ADDAA199000091GF105991031021008001041001KA1240M+02711MA1999999101711MD1999999-0171REMSYN076AAXX  03004 83398 32594 50506 10243 20207 30171 40177 83240 333 10271 59017;EQDQ01  00002PRCP99
0201833980999992000100312004-15660-038920FM-12+000599999V0203601N002110450019N0040001N1+02651+02241101691ADDAA124000191AY151061AY221061GF106991041051008001041001KA1240N+02151MA1999999101631MD1999999-0281MW1011REMSYN088AAXX  03124 83398 21596 63604 10265 20224 30163 40169 70152 84540 333 20215 59028 69924;
0167833980999992000100318004-15660-038920FM-12+000599999V0200501N003110450019N0040001N1+02701+02201101471ADDAA199000091GF105991031011008001041001MA1999999101421MD1999999-0151REMSYN070AAXX  03184 83398 32596 50506 10270 20220 30142 40147 83140 333 59015;EQDQ01  00002PRCP99
0186833980999992000100400004-15660-038920FM-12+000599999V0203601N003110450019N0010001N1+02431+02131101591ADDAA199000091GF105991041021008001041001KA1240M+02791MA1999999101531MD1999999-0181REMSYN076AAXX  04004 83398 32594 53606 10243 20213 30153 40159 84240 333 10279 59018;EQDQ01  00002PRCP99
0186833980999992000100412004-15660-038920FM-12+000599999V0202701N002110450019N0020001N1+02701+02131101591ADDAA199000091GF106991031051008001041001KA1240N+01941MA1999999101541MD1999999-0091REMSYN076AAXX  04124 83398 32595 62704 10270 20213 30154 40159 83540 333 20194 59009;EQDQ01  00002PRCP99
0186833980999992000100500004-15660-038920FM-12+000599999V0203601N004110450019N0010001N1+02421+02151101311ADDAA199000091GF105991041011008001041001KA1240M+02841MA1999999101261MD1999999-0271REMSYN076AAXX  05004 83398 32594 53608 10242 20215 30126 40131 84140 333 10284 59027;EQDQ01  00002PRCP99
0167833980999992000100518004-15660-038920FM-12+000599999V0200501N003112200019N0040001N1+02781+02361101061ADDAA199000091GF102991021011008001001001MA1999999101011MD1999999-0531REMSYN070AAXX  05184 83398 32596 20506 10278 20236 30101 40106 82100 333 59053;EQDQ01  00002PRCP99
0186833980999992000100600004-15660-038920FM-12+000599999V0203601N005110075019N0010001N1+02521+02361101231ADDAA199000091GF108991051051008001021999KA1240M+02921MA1999999101181MD1999999-0081REMSYN076AAXX  06004 83398 32594 83610 10252 20236 30118 40123 8552/ 333 10292 59008;EQDQ01  00002PRCP99
0186833980999992000100612004-15660-038920FM-12+000599999V0203601N003110450019N0040001N1+02781+02341101451ADDAA199000091GF106991041051008001041001KA1240N+02241MA1999999101401MD1999999+0011REMSYN076AAXX  06124 83398 32596 63606 10278 20234 30140 40145 84540 333 20224 58001;EQDQ01  00002PRCP99
0167833980999992000100618004-15660-038920FM-12+000599999V0203601N003112200019N0040001N1+02781+02341101191ADDAA199000091GF104991031011008001041001MA1999999101141MD1999999+0131REMSYN070AAXX  06184 83398 32596 43606 10278 20234 30114 40119 83140 333 58013;EQDQ01  00002PRCP99
0186833980999992000100700004-15660-038920FM-12+000599999V0203601N002112200019N0010001N1+02551+02361101431ADDAA199000091GF104991041011008001001001KA1240M+02921MA1999999101381MD1999999+0201REMSYN076AAXX  07004 83398 32594 43604 10255 20236 30138 40143 84100 333 10292 58020;EQDQ01  00002PRCP99
0186833980999992000100712004-15660-038920FM-12+000599999V0203601N004110450019N0020001N1+02781+02251101731ADDAA199000091GF106991031051008001041001KA1240N+02211MA1999999101671MD1999999+0271REMSYN076AAXX  07124 83398 32595 63608 10278 20225 30167 40173 83540 333 20221 58027;EQDQ01  00002PRCP99
0167833980999992000100718004-15660-038920FM-12+000599999V0200501N005111050019N0020001N1+02781+02251101461ADDAA199000091GF105991021021008001041011MA1999999101411MD1999999+0271REMSYN070AAXX  07184 83398 32595 50510 10278 20225 30141 40146 82241 333 58027;EQDQ01  00002PRCP99
0186833980999992000100800004-15660-038920FM-12+000599999V0200501N002112200019N0010001N1+02501+02291101711ADDAA199000091GF103991021011008001041041KA1240M+02921MA1999999101651MD1999999+0271REMSYN076AAXX  08004 83398 32594 30504 10250 20229 30165 40171 82144 333 10292 58027;EQDQ01  00002PRCP99
0186833980999992000100812004-15660-038920FM-12+000599999V0203601N002110450019N0040001N1+02751+02251101881ADDAA199000091GF106991041051008001041001KA1240N+02091MA1999999101821MD1999999+0151REMSYN076AAXX  08124 83398 32596 63604 10275 20225 30182 40188 84540 333 20209 58015;EQDQ01  00002PRCP99
0167833980999992000100818004-15660-038920FM-12+000599999V0200501N002110450019N0040001N1+02751+02251101591ADDAA199000091GF106991031021008001041041MA1999999101541MD1999999+0131REMSYN070AAXX  08184 83398 32596 60504 10275 20225 30154 40159 83244 333 58013;EQDQ01  00002PRCP99
0186833980999992000100900004-15660-038920FM-12+000599999V0200501N001011050019N0010001N1+02471+02181101901ADDAA199000091GF105991021021008001041041KA1240M+02841MA1999999101841MD1999999+0191REMSYN076AAXX  09004 83398 32594 50502 10247 20218 30184 40190 82244 333 10284 58019;EQDQ01  00002PRCP99
0201833980999992000100912004-15660-038920FM-12+000599999V0200501N002110042019N0040001N1+02621+02211102071ADDAA124004191AY161061AY221061GF107991051051004501021001KA1240N+02011MA1999999102011MD1999999+0191MW1021REMSYN088AAXX  09124 83398 21496 70504 10262 20221 30201 40207 70262 85520 333 20201 58019 60044;
0182833980999992000100918004-15660-038920FM-12+000599999V0200501N002111050019N0040001N1+02681+02091101791ADDAA106007191AY161061AY221061GF105991021021008001041011MA1999999101731MD1999999+0191MW1011REMSYN082AAXX  09184 83398 21596 50504 10268 20209 30173 40179 70162 82241 333 58019 60071;
0186833980999992000101000004-15660-038920FM-12+000599999V0200501N001010450019N0010001N1+02451+02011101981ADDAA199000091GF105991021011008001041001KA1240M+02781MA1999999101921MD1999999+0021REMSYN076AAXX  10004 83398 32594 50502 10245 20201 30192 40198 82140 333 10278 58002;EQDQ01  00002PRCP99
0173833980999992000101012004-15660-038920FM-12+000599999V0200501N002112200019N0040001N1+02601+02111101911ADDAA124007191GF104991031021008001041001KA1240N+01861MA1999999101851MD1999999-0161REMSYN082AAXX  10124 83398 22596 40504 10260 20211 30185 40191 83240 333 20186 59016 60074;
0167833980999992000101018004-15660-038920FM-12+000599999V0200501N002110450019N0040001N1+02681+02111101631ADDAA199000091GF105991021021008001051001MA1999999101571MD1999999-0161REMSYN070AAXX  10184 83398 32596 50504 10268 20211 30157 40163 82250 333 59016;EQDQ01  00002PRCP99
0186833980999992000101100004-15660-038920FM-12+000599999V0200501N001012200019N0010001N1+02471+02151101911ADDAA199000091GF102991011011008001041001KA1240M+02781MA1999999101851MD1999999-0071REMSYN076AAXX  11004 83398 32594 20502 10247 20215 30185 40191 81140 333 10278 59007;EQDQ01  00002PRCP99
0186833980999992000101112004-15660-038920FM-12+000599999V0200501N002112200019N0040001N1+02681+02091101961ADDAA199000091GF104991031021008001041001KA1240N+02011MA1999999101901MD1999999+0051REMSYN076AAXX  11124 83398 32596 40504 10268 20209 30190 40196 83240 333 20201 58005;EQDQ01  00002PRCP99
0167833980999992000101118004-15660-038920FM-12+000599999V0200501N002112200019N0040001N1+02701+02031101621ADDAA199000091GF103991021021008001041001MA1999999101561MD1999999-0011REMSYN070AAXX  11184 83398 32596 30504 10270 20203 30156 40162 82240 333 59001;EQDQ01  00002PRCP99
0186833980999992000101200004-15660-038920FM-12+000599999V0200501N001012200019N0010001N1+02471+02171101841ADDAA199000091GF102991011011008001041001KA1240M+02831MA1999999101781MD1999999-0071REMSYN076AAXX  12004 83398 32594 20502 10247 20217 30178 40184 81140 333 10283 59007;EQDQ01  00002PRCP99
0186833980999992000101212004-15660-038920FM-12+000599999V0200501N002112200019N0040001N1+02701+02151101901ADDAA199000091GF104991031021008001041001KA1240N+02021MA1999999101841MD1999999-0061REMSYN076AAXX  12124 83398 32596 40504 10270 20215 30184 40190 83240 333 20202 59006;EQDQ01  00002PRCP99
0167833980999992000101218004-15660-038920FM-12+000599999V0200501N002112200019N0040001N1+02731+02161101661ADDAA199000091GF103991021021008001041001MA1999999101601MD1999999+0041REMSYN070AAXX  12184 83398 32596 30504 10273 20216 30160 40166 82240 333 58004;EQDQ01  00002PRCP99
0186833980999992000101300004-15660-038920FM-12+000599999V0200501N001012200019N0010001N1+02511+02131101971ADDAA199000091GF102991011041008001051001KA1240M+02841MA1999999101911MD1999999+0131REMSYN076AAXX  13004 83398 32594 20502 10251 20213 30191 40197 81450 333 10284 58013;EQDQ01  00002PRCP99
0186833980999992000101312004-15660-038920FM-12+000599999V0200501N002112200019N0040001N1+02781+02131102011ADDAA199000091GF103991031011008001001001KA1240N+02041MA1999999101951MD1999999+0111REMSYN076AAXX  13124 83398 32596 30504 10278 20213 30195 40201 83100 333 20204 58011;EQDQ01  00002PRCP99
0167833980999992000101318004-15660-038920FM-12+000599999V0200501N002112200019N0040001N1+02761+02141101661ADDAA199000091GF102991021021008001001001MA1999999101601MD1999999+0001REMSYN070AAXX  13184 83398 32596 20504 10276 20214 30160 40166 82200 333 58000;EQDQ01  00002PRCP99
0186833980999992000101400004-15660-038920FM-12+000599999V0200501N003110450019N0010001N1+02541+02151101931ADDAA199000091GF106991041021008001041001KA1240M+02871MA1999999101871MD1999999-0041REMSYN076AAXX  14004 83398 32594 60506 10254 20215 30187 40193 84240 333 10287 59004;EQDQ01  00002PRCP99
0186833980999992000101412004-15660-038920FM-12+000599999V0200901N002112200019N0040001N1+02771+02151102001ADDAA199000091GF104991031021008001041001KA1240N+02191MA1999999101941MD1999999-0011REMSYN076AAXX  14124 83398 32596 40904 10277 20215 30194 40200 83240 333 20219 59001;EQDQ01  00002PRCP99
0167833980999992000101418004-15660-038920FM-12+000599999V0200901N004110450019N0040001N1+02781+02211101771ADDAA199000091GF105991031021008001041001MA1999999101711MD1999999+0111REMSYN070AAXX  14184 83398 32596 50908 10278 20221 30171 40177 83240 333 58011;EQDQ01  00002PRCP99
0186833980999992000101500004-15660-038920FM-12+000599999V0200901N003110450019N0010001N1+02541+02021101861ADDAA199000091GF105991031011008001041001KA1240M+02861MA1999999101801MD1999999-0071REMSYN076AAXX  15004 83398 32594 50906 10254 20202 30180 40186 83140 333 10286 59007;EQDQ01  00002PRCP99
0186833980999992000101512004-15660-038920FM-12+000599999V0200901N003110450019N0040001N1+02721+02101101911ADDAA199000091GF105991031021008001041001KA1240N+01971MA1999999101851MD1999999-0091REMSYN076AAXX  15124 83398 32596 50906 10272 20210 30185 40191 83240 333 20197 59009;EQDQ01  00002PRCP99
0167833980999992000101518004-15660-038920FM-12+000599999V0200901N003110450019N0040001N1+02801+02001101671ADDAA199000091GF106991041021008001041001MA1999999101611MD1999999-0101REMSYN070AAXX  15184 83398 32596 60906 10280 20200 30161 40167 84240 333 59010;EQDQ01  00002PRCP99
0186833980999992000101600004-15660-038920FM-12+000599999V0201401N002110450019N0010001N1+02501+01961101871ADDAA199000091GF107991041051008001041001KA1240M+02861MA1999999101811MD1999999-0011REMSYN076AAXX  16004 83398 32594 71404 10250 20196 30181 40187 84540 333 10286 59001;EQDQ01  00002PRCP99
0167833980999992000101618004-15660-038920FM-12+000599999V0201401N002110450019N0040001N1+02701+02011101841ADDAA199000091GF105991021021008001041001MA1999999101781MD1999999+0171REMSYN070AAXX  16184 83398 32596 51404 10270 20201 30178 40184 82240 333 58017;EQDQ01  00002PRCP99
0186833980999992000101700004-15660-038920FM-12+000599999V0201401N002112200019N0010001N1+02481+01981102011ADDAA199000091GF102991011011008001041001KA1240M+02901MA1999999101951MD1999999+0141REMSYN076AAXX  17004 83398 32594 21404 10248 20198 30195 40201 81140 333 10290 58014;EQDQ01  00002PRCP99
0201833980999992000101712004-15660-038920FM-12+000599999V0200901N003110450019N0040001N1+02701+02111102101ADDAA124002091AY161061AY221061GF106991041051008001041001KA1240N+02101MA1999999102041MD1999999+0031MW1021REMSYN088AAXX  17124 83398 21596 60906 10270 20211 30204 40210 70262 84540 333 20210 58003 60024;
0167833980999992000101718004-15660-038920FM-12+000599999V0201401N004110450019N0100001N1+02711+02151101941ADDAA199000091GF106991041021008001041001MA1999999101881MD1999999+0101REMSYN070AAXX  17184 83398 32597 61408 10271 20215 30188 40194 84240 333 58010;EQDQ01  00002PRCP99
0186833980999992000101800004-15660-038920FM-12+000599999V0200501N004110450019N0010001N1+02261+02141102131ADDAA199000091GF107991041051008001021001KA1240M+02851MA1999999102071MD1999999+0121REMSYN076AAXX  18004 83398 32594 70508 10226 20214 30207 40213 84520 333 10285 58012;EQDQ01  00002PRCP99
0167833980999992000101818004-15660-038920FM-12+000599999V0200901N002112200019N0040001N1+02721+02081101861ADDAA199000091GF103991021011008001041001MA1999999101801MD1999999-0081REMSYN070AAXX  18184 83398 32596 30904 10272 20208 30180 40186 82140 333 59008;EQDQ01  00002PRCP99
0186833980999992000101900004-15660-038920FM-12+000599999V0200501N002112200019N0010001N1+02481+02031102001ADDAA199000091GF102991011011008001041001KA1240M+02841MA1999999101941MD1999999-0201REMSYN076AAXX  19004 83398 32594 20504 10248 20203 30194 40200 81140 333 10284 59020;EQDQ01  00002PRCP99
0201833980999992000101912004-15660-038920FM-12+000599999V0200501N002112200019N0040001N1+02661+02071101951ADDAA124006191AY161061AY221061GF104991031021008001041001KA1240N+02081MA1999999101891MD1999999+0231MW1011REMSYN088AAXX  19124 83398 21596 40504 10266 20207 30189 40195 70162 83240 333 20208 58023 60064;
0167833980999992000101918004-15660-038920FM-12+000599999V0200501N002112200019N0040001N1+02741+02071101631ADDAA199000091GF102991011021008001041001MA1999999101571MD1999999-0231REMSYN070AAXX  19184 83398 32596 20504 10274 20207 30157 40163 81240 333 59023;EQDQ01  00002PRCP99
0186833980999992000102000004-15660-038920FM-12+000599999V0200901N002112200019N0010001N1+02501+02111101721ADDAA199000091GF103991031011008001001001KA1240M+02831MA1999999101661MD1999999-0281REMSYN076AAXX  20004 83398 32594 30904 10250 20211 30166 40172 83100 333 10283 59028;EQDQ01  00002PRCP99
0201833980999992000102012004-15660-038920FM-12+000599999V0203601N002110450019N0040001N1+02641+02231101701ADDAA124002091AY161061AY221061GF105991031051008001041001KA1240N+01941MA1999999101641MD1999999-0251MW1021REMSYN088AAXX  20124 83398 21596 53604 10264 20223 30164 40170 70262 83540 333 20194 59025 60024;
0167833980999992000102018004-15660-038920FM-12+000599999V0200901N002112200019N0040001N1+02751+02151101391ADDAA199000091GF102991011011008001041001MA1999999101341MD1999999-0231REMSYN070AAXX  20184 83398 32596 20904 10275 20215 30134 40139 81140 333 59023;EQDQ01  00002PRCP99
0186833980999992000102100004-15660-038920FM-12+000599999V0200501N003112200019N0010001N1+02481+02111101641ADDAA199000091GF103991021021008001041001KA1240M+02841MA1999999101581MD1999999-0081REMSYN076AAXX  21004 83398 32594 30506 10248 20211 30158 40164 82240 333 10284 59008;EQDQ01  00002PRCP99
0186833980999992000102112004-15660-038920FM-12+000599999V0200501N003110450019N0020001N1+02781+02251101451ADDAA199000091GF105991041051008001021001KA1240N+02021MA1999999101401MD1999999-0201REMSYN076AAXX  21124 83398 32595 50506 10278 20225 30140 40145 84520 333 20202 59020;EQDQ01  00002PRCP99
0167833980999992000102118004-15660-038920FM-12+000599999V0200501N004110450019N0040001N1+02781+02231101221ADDAA199000091GF105991021051008001041001MA1999999101171MD1999999-0171REMSYN070AAXX  21184 83398 32596 50508 10278 20223 30117 40122 82540 333 59017;EQDQ01  00002PRCP99
0186833980999992000102200004-15660-038920FM-12+000599999V0200501N003112200019N0010001N1+02581+02381101421ADDAA199000091GF103991031011008001001001KA1240M+02861MA1999999101371MD1999999-0211REMSYN076AAXX  22004 83398 32594 30506 10258 20238 30137 40142 83100 333 10286 59021;EQDQ01  00002PRCP99
0186833980999992000102212004-15660-038920FM-12+000599999V0200501N003110450019N0040001N1+02821+02241101521ADDAA199000091GF105991031051008001041011KA1240N+02021MA1999999101461MD1999999+0061REMSYN076AAXX  22124 83398 32596 50506 10282 20224 30146 40152 83541 333 20202 58006;EQDQ01  00002PRCP99
0167833980999992000102218004-15660-038920FM-12+000599999V0200501N003112200019N0040001N1+02801+02251101221ADDAA199000091GF104991021021008001041011MA1999999101171MD1999999+0001REMSYN070AAXX  22184 83398 32596 40506 10280 20225 30117 40122 82241 333 58000;EQDQ01  00002PRCP99
0167833980999992000102318004-15660-038920FM-12+000599999V0200501N002112200019N0040001N1+02781+02111101381ADDAA199000091GF103991021021008001041041MA1999999101331MD1999999+0161REMSYN070AAXX  23184 83398 32596 30504 10278 20211 30133 40138 82244 333 58016;EQDQ01  00002PRCP99
0186833980999992000102400004-15660-038920FM-12+000599999V0200501N002112200019N0010001N1+02521+02171101571ADDAA199000091GF102991011011008001041001KA1240M+02891MA1999999101511MD1999999+0021REMSYN076AAXX  24004 83398 32594 20504 10252 20217 30151 40157 81140 333 10289 58002;EQDQ01  00002PRCP99
0201833980999992000102412004-15660-038920FM-12+000599999V0200501N003110075019N0040001N1+02451+02111101771ADDAA124002091AY161061AY221061GF108991051051008001021999KA1240N+02201MA1999999101711MD1999999+0071MW1021REMSYN088AAXX  24124 83398 21596 80506 10245 20211 30171 40177 70262 8552/ 333 20220 58007 60024;
0182833980999992000102418004-15660-038920FM-12+000599999V0200501N002110450019N0040001N1+02701+02261101361ADDAA106004191AY161061AY221061GF106991041051008001021001MA1999999101311MD1999999-0021MW1021REMSYN082AAXX  24184 83398 21596 60504 10270 20226 30131 40136 70262 84520 333 59002 60041;
0186833980999992000102500004-15660-038920FM-12+000599999V0209999C000012200019N0010001N1+02341+02221101581ADDAA199000091GF104991021051008001041001KA1240M+02821MA1999999101521MD1999999+0011REMSYN076AAXX  25004 83398 32594 40000 10234 20222 30152 40158 82540 333 10282 58001;EQDQ01  00002PRCP99
0201833980999992000102512004-15660-038920FM-12+000599999V0200901N002111050019N0040001N1+02761+02191101701ADDAA124005191AY151061AY221061GF105991021021008001041041KA1240N+02111MA1999999101641MD1999999-0071MW1011REMSYN088AAXX  25124 83398 21596 50904 10276 20219 30164 40170 70152 82244 333 20211 59007 60054;
0167833980999992000102518004-15660-038920FM-12+000599999V0200901N002111050019N0040001N1+02721+02051101391ADDAA199000091GF105991021021008001041041MA1999999101341MD1999999+0051REMSYN070AAXX  25184 83398 32596 50904 10272 20205 30134 40139 82244 333 58005;EQDQ01  00002PRCP99
0186833980999992000102600004-15660-038920FM-12+000599999V0200501N001012200019N0010001N1+02441+02051101621ADDAA199000091GF103991021011008001041001KA1240M+02841MA1999999101561MD1999999+0041REMSYN076AAXX  26004 83398 32594 30502 10244 20205 30156 40162 82140 333 10284 58004;EQDQ01  00002PRCP99
0186833980999992000102612004-15660-038920FM-12+000599999V0200501N002110450019N0040001N1+02721+02051101901ADDAA199000091GF105991031021008001041011KA1240N+01981MA1999999101841MD1999999-0031REMSYN076AAXX  26124 83398 32596 50504 10272 20205 30184 40190 83241 333 20198 59003;EQDQ01  00002PRCP99
0182833980999992000102618004-15660-038920FM-12+000599999V0201801N002110450019N0040001N1+02601+02101101441ADDAA106003091AY161061AY221061GF106991041051004501041001MA1999999101391MD1999999-0031MW1021REMSYN082AAXX  26184 83398 21496 61804 10260 20210 30139 40144 70262 84540 333 59003 60031;
0186833980999992000102700004-15660-038920FM-12+000599999V0200501N002112200019N0010001N1+02451+02071101661ADDAA199000091GF102991011011008001041001KA1240M+02881MA1999999101601MD1999999+0041REMSYN076AAXX  27004 83398 32594 20504 10245 20207 30160 40166 81140 333 10288 58004;EQDQ01  00002PRCP99
0167833980999992000102718004-15660-038920FM-12+000599999V0203601N002110450019N0040001N1+02701+02081101381ADDAA199000091GF105991031021008001041001MA1999999101331MD1999999-0061REMSYN070AAXX  27184 83398 32596 53604 10270 20208 30133 40138 83240 333 59006;EQDQ01  00002PRCP99
0186833980999992000102800004-15660-038920FM-12+000599999V0200501N003112200019N0010001N1+02481+02091101541ADDAA199000091GF102991011011008001041001KA1240M+02871MA1999999101491MD1999999-0121REMSYN076AAXX  28004 83398 32594 20506 10248 20209 30149 40154 81140 333 10287 59012;EQDQ01  00002PRCP99
0201833980999992000102812004-15660-038920FM-12+000599999V0203601N003110450019N0040001N1+02761+02231101471ADDAA124000191AY151061AY221061GF105991031021008001041001KA1240N+02021MA1999999101421MD1999999-0231MW1011REMSYN088AAXX  28124 83398 21596 53606 10276 20223 30142 40147 70152 83240 333 20202 59023 69914;
0167833980999992000102818004-15660-038920FM-12+000599999V0203601N002112200019N0040001N1+02751+02291101171ADDAA199000091GF103991021021008001041001MA1999999101121MD1999999-0211REMSYN070AAXX  28184 83398 32596 33604 10275 20229 30112 40117 82240 333 59021;EQDQ01  00002PRCP99
0186833980999992000102900004-15660-038920FM-12+000599999V0203601N002112200019N0010001N1+02541+02291101351ADDAA199000091GF104991021011008001041001KA1240M+02921MA1999999101301MD1999999-0031REMSYN076AAXX  29004 83398 32594 43604 10254 20229 30130 40135 82140 333 10292 59003;EQDQ01  00002PRCP99
0186833980999992000102912004-15660-038920FM-12+000599999V0200501N003110450019N0040001N1+02821+02381101471ADDAA199000091GF105991031051008001041001KA1240N+02121MA1999999101421MD1999999+0001REMSYN076AAXX  29124 83398 32596 50506 10282 20238 30142 40147 83540 333 20212 58000;EQDQ01  00002PRCP99
0167833980999992000102918004-15660-038920FM-12+000599999V0200501N003110450019N0040001N1+02841+02401101221ADDAA199000091GF105991021051008001041001MA1999999101171MD1999999+0051REMSYN070AAXX  29184 83398 32596 50506 10284 20240 30117 40122 82540 333 58005;EQDQ01  00002PRCP99
0186833980999992000103000004-15660-038920FM-12+000599999V0201401N002112200019N0010001N1+02591+02331101651ADDAA199000091GF104991031051008001041001KA1240M+02951MA1999999101591MD1999999+0291REMSYN076AAXX  30004 83398 32594 41404 10259 20233 30159 40165 83540 333 10295 58029;EQDQ01  00002PRCP99
0201833980999992000103012004-15660-038920FM-12+000599999V0202301N002110042019N0040001N1+02371+02241101731ADDAA124051191AY161061AY221061GF108991051071004501021999KA1240N+02151MA1999999101671MD1999999+0251MW1601REMSYN088AAXX  30124 83398 21496 82304 10237 20224 30167 40173 76062 8572/ 333 20215 58025 60514;
0182833980999992000103018004-15660-038920FM-12+000599999V0201801N001010042019N0040001N1+02351+02231101511ADDAA106002091AY161061AY221061GF108991061071004501021999MA1999999101461MD1999999+0291MW1601REMSYN082AAXX  30184 83398 21496 81802 10235 20223 30146 40151 76062 8672/ 333 58029 60021;
0201833980999992000103100004-15660-038920FM-12+000599999V0201801N002110075019N0010001N1+02241+02171101741ADDAA106000591AY161061AY221061GF108991051051008001021999KA1240M+02611MA1999999101681MD1999999+0091MW1021REMSYN088AAXX  31004 83398 21594 81804 10224 20217 30168 40174 70262 8552/ 333 10261 58009 69961;
0201833980999992000103112004-15660-038920FM-12+000599999V0201801N003110450019N0040001N1+02461+02271101681ADDAA124007191AY161061AY221061GF106991041051008001021001KA1240N+02061MA1999999101621MD1999999-0051MW1021REMSYN088AAXX  31124 83398 21596 61806 10246 20227 30162 40168 70262 84520 333 20206 59005 60074;
0167833980999992000103118004-15660-038920FM-12+000599999V0201801N003110450019N0020001N1+02721+02151101341ADDAA199000091GF107991041051008001021001MA1999999101291MD1999999-0171REMSYN070AAXX  31184 83398 32595 71806 10272 20215 30129 40134 84520 333 59017;EQDQ01  00002PRCP99
0201833980999992000110100004-15660-038920FM-12+000599999V0201801N002110075019N0010001N1+02281+02251101491ADDAA106002091AY161061AY221061GF108991051071008001021999KA1240M+02801MA1999999101441MD1999999-0241MW1611REMSYN088AAXX  01004 83398 21594 81804 10228 20225 30144 40149 76162 8572/ 333 10280 59024 60021;
0201833980999992000110112004-15660-038920FM-12+000599999V0202701N001010450019N0040001N1+02631+02171101491ADDAA124002091AY151061AY221061GF106991041021008001041011KA1240N+02211MA1999999101441MD1999999-0181MW1011REMSYN088AAXX  01124 83398 21596 62702 10263 20217 30144 40149 70152 84241 333 20221 59018 60024;
0182833980999992000110118004-15660-038920FM-12+000599999V0201401N002110042019N0040001N1+02481+02231101251ADDAA106000191AY151061AY221061GF107991051051004501021001MA1999999101201MD1999999-0091MW1021REMSYN082AAXX  01184 83398 21496 71404 10248 20223 30120 40125 70252 85520 333 59009 69911;
0201833980999992000110200004-15660-038920FM-12+000599999V0201801N001010075019N0010001N1+02301+02251101491ADDAA106011991AY161061AY221061GF108991051071008001021999KA1240M+02761MA1999999101441MD1999999+0001MW1611REMSYN088AAXX  02004 83398 21594 81802 10230 20225 30144 40149 76162 8572/ 333 10276 58000 60121;
0201833980999992000110212004-15660-038920FM-12+000599999V0201801N003110075019N0020001N1+02281+02141101511ADDAA124016091AY161061AY221061GF108991051051008001021999KA1240N+02061MA1999999101461MD1999999+0021MW1511REMSYN088AAXX  02124 83398 21595 81806 10228 20214 30146 40151 75162 8552/ 333 20206 58002 60164;
0148833980999992000110218004-15660-038920FM-12+000599999V0201801N003110075019N0020001N1+02461+02151101181ADDAA199000021GF108991051051008001021999MA1999999101131MD1999999-0071REMSYN070AAXX  02184 83398 32595 81806 10246 20215 30113 40118 8552/ 333 59007;
0167833980999992000110300004-15660-038920FM-12+000599999V0201401N001010075019N0010001N1+02251+02161101401ADDAA199000021GF108991051051008001021999KA1240M+02541MA1999999101351MD1999999-0091REMSYN076AAXX  03004 83398 32594 81402 10225 20216 30135 40140 8552/ 333 10254 59009;
0201833980999992000110312004-15660-038920FM-12+000599999V0200501N001010450019N0040001N1+02621+02231101241ADDAA124000191AY151061AY221061GF106991041021008001041001KA1240N+02061MA1999999101191MD1999999-0271MW1011REMSYN088AAXX  03124 83398 21596 60502 10262 20223 30119 40124 70152 84240 333 20206 59027 69924;
0167833980999992000110318004-15660-038920FM-12+000599999V0200501N002112200019N0040001N1+02631+02171100931ADDAA199000091GF104991021021008001041041MA1999999100881MD1999999-0251REMSYN070AAXX  03184 83398 32596 40504 10263 20217 30088 40093 82244 333 59025;EQDQ01  00002PRCP99
0186833980999992000110400004-15660-038920FM-12+000599999V0203601N001010450019N0010001N1+02461+02271101081ADDAA199000091GF106991041051008001041001KA1240M+02821MA1999999101031MD1999999-0321REMSYN076AAXX  04004 83398 32594 63602 10246 20227 30103 40108 84540 333 10282 59032;EQDQ01  00002PRCP99
0186833980999992000110412004-15660-038920FM-12+000599999V0200501N003110450019N0040001N1+02861+02281101041ADDAA199000091GF105991031051008001041001KA1240N+02121MA1999999100991MD1999999-0201REMSYN076AAXX  04124 83398 32596 50506 10286 20228 30099 40104 83540 333 20212 59020;EQDQ01  00002PRCP99
0167833980999992000110418004-15660-038920FM-12+000599999V0203601N004110450019N0040001N1+02881+02301100751ADDAA199000091GF106991031051008001041001MA1999999100701MD1999999-0181REMSYN070AAXX  04184 83398 32596 63608 10288 20230 30070 40075 83540 333 59018;EQDQ01  00002PRCP99
0186833980999992000110500004-15660-038920FM-12+000599999V0200501N003110450019N0010001N1+02581+02421100941ADDAA199000091GF106991041051008001011001KA1240M+02921MA1999999100891MD1999999-0141REMSYN076AAXX  05004 83398 32594 60506 10258 20242 30089 40094 84510 333 10292 59014;EQDQ01  00002PRCP99
0201833980999992000110512004-15660-038920FM-12+000599999V0203601N003110450019N0020001N1+02721+02391101071ADDAA124001091AY151061AY221061GF106991041051008001021001KA1240N+02331MA1999999101021MD1999999+0031MW1021REMSYN088AAXX  05124 83398 21595 63606 10272 20239 30102 40107 70252 84520 333 20233 58003 60014;
0167833980999992000110518004-15660-038920FM-12+000599999V0203601N004110450019N0020001N1+02681+02261101801ADDAA199000091GF107991041051008001021001MA1999999100751MD1999999+0051REMSYN070AAXX  05184 83398 32595 73608 10268 20226 30075 40180 84520 333 58005;EQDQ01  00002PRCP99
0186833980999992000110600004-15660-038920FM-12+000599999V0203601N002110075019N0010001N1+02531+02421101151ADDAA199000091GF108991051051008001021999KA1240M+02971MA1999999101101MD1999999+0211REMSYN076AAXX  06004 83398 32594 83604 10253 20242 30110 40115 8552/ 333 10297 58021;EQDQ01  00002PRCP99
0201833980999992000110612004-15660-038920FM-12+000599999V0200501N001010075019N0040001N1+02531+02391101121ADDAA124002091AY161061AY221061GF108991051051008001021999KA1240N+02311MA1999999101071MD1999999+0051MW1021REMSYN088AAXX  06124 83398 21596 80502 10253 20239 30107 40112 70262 8552/ 333 20231 58005 60024;
0186833980999992000110700004-15660-038920FM-12+000599999V0200501N002110075019N0010001N1+02571+02421100971ADDAA199000091GF108991051051008001021999KA1240M+02821MA1999999100921MD1999999-0181REMSYN076AAXX  07004 83398 32594 80504 10257 20242 30092 40097 8552/ 333 10282 59018;EQDQ01  00002PRCP99
0201833980999992000110712004-15660-038920FM-12+000599999V0203201N003110075019N0040001N1+02651+02411101031ADDAA124000891AY151061AY221061GF108991051051008001021999KA1240N+02291MA1999999100981MD1999999-0091MW1021REMSYN088AAXX  07124 83398 21596 83206 10265 20241 30098 40103 70252 8552/ 333 20229 59009 69984;
0167833980999992000110718004-15660-038920FM-12+000599999V0200501N005110450019N0040001N1+02721+02281100551ADDAA199000091GF107991041051008001021001MA1999999100501MD1999999-0261REMSYN070AAXX  07184 83398 32596 70510 10272 20228 30050 40055 84520 333 59026;EQDQ01  00002PRCP99
0201833980999992000110812004-15660-038920FM-12+000599999V0203301N003110042019N0040001N1+02251+02131100691ADDAA124054191AY161061AY221061GF108991061071004501021999KA1240N+02101MA1999999100641MD1999999-0341MW1601REMSYN088AAXX  08124 83398 21496 83306 10225 20213 30064 40069 76062 8672/ 333 20210 59034 60544;
0201833980999992000110900004-15660-038920FM-12+000599999V0202301N006210075019N0005001N1+02141+02071100711ADDAA106001091AY161061AY221061GF108991051071008001021999KA1240M+02461MA1999999100661MD1999999+0001MW1611REMSYN088AAXX  09004 83398 21593 82312 10214 20207 30066 40071 76162 8572/ 333 10246 58000 60011;
0201833980999992000110912004-15660-038920FM-12+000599999V0202301N002110042019N0040001N1+02381+02291100741ADDAA124025991AY161061AY221061GF108991061071004501021999KA1240N+02091MA1999999100691MD1999999+0051MW1601REMSYN088AAXX  09124 83398 21496 82304 10238 20229 30069 40074 76062 8672/ 333 20209 58005 60264;
0182833980999992000110918004-15660-038920FM-12+000599999V0202301N001010042019N0040001N1+02491+02371100421ADDAA106004191AY161061AY221061GF108991051051004501021999MA1999999100371MD1999999-0061MW1021REMSYN082AAXX  09184 83398 21496 82302 10249 20237 30037 40042 70262 8552/ 333 59006 60041;
0201833980999992000111000004-15660-038920FM-12+000599999V0200301N002110075019N0005001N1+02291+02251100701ADDAA106003091AY161061AY221061GF108991051071008001021999KA1240M+02711MA1999999100651MD1999999-0011MW1611REMSYN088AAXX  10004 83398 21593 80304 10229 20225 30065 40070 76162 8572/ 333 10271 59001 60031;
0201833980999992000111012004-15660-038920FM-12+000599999V0202301N002110042019N0040001N1+02631+02281100741ADDAA124011991AY161061AY221061GF107991051051004501021001KA1240N+02291MA1999999100691MD1999999+0001MW1021REMSYN088AAXX  10124 83398 21496 72304 10263 20228 30069 40074 70262 85520 333 20229 58000 60124;
0167833980999992000111018004-15660-038920FM-12+000599999V0202701N002110042019N0040001N1+02711+02421100521ADDAA199000091GF107991051051004501021001MA1999999100471MD1999999+0101REMSYN070AAXX  10184 83398 32496 72704 10271 20242 30047 40052 85520 333 58010;EQDQ01  00002PRCP99
0201833980999992000111100004-15660-038920FM-12+000599999V0201401N001010450019N0010001N1+02451+02361100901ADDAA106002091AY161061AY221061GF107991041051008001021001KA1240M+02991MA1999999100851MD1999999+0201MW1021REMSYN088AAXX  11004 83398 21594 71402 10245 20236 30085 40090 70262 84520 333 10299 58020 60021;
0201833980999992000111112004-15660-038920FM-12+000599999V0202701N002110450019N0040001N1+02741+02301100961ADDAA124002091AY161061AY221061GF106991031051008001041001KA1240N+02271MA1999999100911MD1999999+0221MW1021REMSYN088AAXX  11124 83398 21596 62704 10274 20230 30091 40096 70262 83540 333 20227 58022 60024;
0167833980999992000111118004-15660-038920FM-12+000599999V0200501N002110450019N0040001N1+02731+02291100701ADDAA199000091GF106991031051008001041011MA1999999100251MD1999999+0181REMSYN070AAXX  11184 83398 32596 60504 10273 20229 30025 40070 83541 333 58018;EQDQ01  00002PRCP99
0186833980999992000111200004-15660-038920FM-12+000599999V0200501N002110450019N0010001N1+02581+02421100881ADDAA199000091GF106991041051008001021001KA1240M+03011MA1999999100831MD1999999-0021REMSYN076AAXX  12004 83398 32594 60504 10258 20242 30083 40088 84520 333 10301 59002;EQDQ01  00002PRCP99
0167833980999992000111218004-15660-038920FM-12+000599999V0201401N003110450019N0040001N1+02661+02391100701ADDAA199000091GF106991041051008001021001MA1999999100651MD1999999+0001REMSYN070AAXX  12184 83398 32596 61406 10266 20239 30065 40070 84520 333 58000;EQDQ01  00002PRCP99
0186833980999992000111300004-15660-038920FM-12+000599999V0200501N001010075019N0010001N1+02611+02481100981ADDAA199000091GF108991051051008001021999KA1240M+02931MA1999999100931MD1999999+0101REMSYN076AAXX  13004 83398 32594 80502 10261 20248 30093 40098 8552/ 333 10293 58010;EQDQ01  00002PRCP99
0201833980999992000111312004-15660-038920FM-12+000599999V0203601N002110075019N0040001N1+02391+02351101091ADDAA124038191AY161061AY221061GF108991051051008001021999KA1240N+02141MA1999999101041MD1999999+0131MW1021REMSYN088AAXX  13124 83398 21596 83604 10239 20235 30104 40109 70262 8552/ 333 20214 58013 60384;
0167833980999992000111318004-15660-038920FM-12+000599999V0200501N004110450019N0100001N1+02731+02441100791ADDAA199000091GF106991041051008001041001MA1999999100741MD1999999+0091REMSYN070AAXX  13184 83398 32597 60508 10273 20244 30074 40079 84540 333 58009;EQDQ01  00002PRCP99
0201833980999992000111412004-15660-038920FM-12+000599999V0203601N006210450019N0040001N1+02841+02331101051ADDAA124019191AY161061AY221061GF107991041051008001021001KA1240N+02281MA1999999101001MD1999999-0041MW1021REMSYN088AAXX  14124 83398 21596 73612 10284 20233 30100 40105 70262 84520 333 20228 59004 60194;
0167833980999992000111418004-15660-038920FM-12+000599999V0203601N005110450019N0040001N1+02801+02361100761ADDAA199000091GF106991021051008001041011MA1999999100711MD1999999-0031REMSYN070AAXX  14184 83398 32596 63610 10280 20236 30071 40076 82541 333 59003;EQDQ01  00002PRCP99
0186833980999992000111500004-15660-038920FM-12+000599999V0203601N002112200019N0010001N1+02551+02351101091ADDAA199000091GF102991011011008001041001KA1240M+02951MA1999999101041MD1999999+0021REMSYN076AAXX  15004 83398 32594 23604 10255 20235 30104 40109 81140 333 10295 58002;EQDQ01  00002PRCP99
0186833980999992000111512004-15660-038920FM-12+000599999V0203601N005110450019N0040001N1+02861+02361101071ADDAA199000091GF106991031051008001041001KA1240N+02351MA1999999101021MD1999999+0021REMSYN076AAXX  15124 83398 32596 63610 10286 20236 30102 40107 83540 333 20235 58002;EQDQ01  00002PRCP99
0167833980999992000111518004-15660-038920FM-12+000599999V0203601N005110450019N0040001N1+02801+02381100941ADDAA199000091GF105991031021008001041001MA1999999100891MD1999999+0181REMSYN070AAXX  15184 83398 32596 53610 10280 20238 30089 40094 83240 333 58018;EQDQ01  00002PRCP99
0186833980999992000111600004-15660-038920FM-12+000599999V0201801N002110450019N0010001N1+02521+02311101331ADDAA199000091GF107991041051008001021001KA1240M+02961MA1999999101281MD1999999+0241REMSYN076AAXX  16004 83398 32594 71804 10252 20231 30128 40133 84520 333 10296 58024;EQDQ01  00002PRCP99
0186833980999992000111612004-15660-038920FM-12+000599999V0202301N001010450019N0040001N1+02801+02341101531ADDAA199000091GF106991041051008001041001KA1240N+02301MA1999999101481MD1999999+0461REMSYN076AAXX  16124 83398 32596 62302 10280 20234 30148 40153 84540 333 20230 58046;EQDQ01  00002PRCP99
0167833980999992000111618004-15660-038920FM-12+000599999V0200501N003110450019N0040001N1+02821+02331101301ADDAA199000091GF106991031051008001041011MA1999999101251MD1999999+0361REMSYN070AAXX  16184 83398 32596 60506 10282 20233 30125 40130 83541 333 58036;EQDQ01  00002PRCP99
0186833980999992000111700004-15660-038920FM-12+000599999V0200501N001012200019N0010001N1+02571+02331101511ADDAA199000091GF102991011011008001041001KA1240M+02991MA1999999101461MD1999999+0181REMSYN076AAXX  17004 83398 32594 20502 10257 20233 30146 40151 81140 333 10299 58018;EQDQ01  00002PRCP99
0186833980999992000111712004-15660-038920FM-12+000599999V0200901N002110450019N0040001N1+02811+02291101681ADDAA199000091GF107991041051008001041001KA1240N+02311MA1999999101621MD1999999+0141REMSYN076AAXX  17124 83398 32596 70904 10281 20229 30162 40168 84540 333 20231 58014;EQDQ01  00002PRCP99
0167833980999992000111718004-15660-038920FM-12+000599999V0200501N003112200019N0100001N1+02781+02271101451ADDAA199000091GF104991021021008001041011MA1999999101401MD1999999+0151REMSYN070AAXX  17184 83398 32597 40506 10278 20227 30140 40145 82241 333 58015;EQDQ01  00002PRCP99
0186833980999992000111800004-15660-038920FM-12+000599999V0200501N001010450019N0010001N1+02581+02291101701ADDAA199000091GF105991031021008001041001KA1240M+02891MA1999999101641MD1999999+0181REMSYN076AAXX  18004 83398 32594 50502 10258 20229 30164 40170 83240 333 10289 58018;EQDQ01  00002PRCP99
0186833980999992000111812004-15660-038920FM-12+000599999V0201401N002110450019N0040001N1+02801+02311101751ADDAA199000091GF105991031051008001041001KA1240N+02211MA1999999101691MD1999999+0071REMSYN076AAXX  18124 83398 32596 51404 10280 20231 30169 40175 83540 333 20221 58007;EQDQ01  00002PRCP99
0167833980999992000111818004-15660-038920FM-12+000599999V0200901N003112200019N0040001N1+02781+02131101321ADDAA199000091GF104991021011008001041001MA1999999101271MD1999999-0131REMSYN070AAXX  18184 83398 32596 40906 10278 20213 30127 40132 82140 333 59013;EQDQ01  00002PRCP99
0185833980999992000111900004-15660-038920FM-12+000599999V0200901N002112200019N0010001N1+02601+02291101501ADDAA199000091GF103991031011008001001001KA1999M+02941MA1999999101451MD1999999-0191REMSYN075AAXX  19004 83398 32594 30904 10260 20229 30145 40150 83100333 10294 59019;EQDQ01  00002PRCP99
0186833980999992000111912004-15660-038920FM-12+000599999V0200501N002110450019N0040001N1+02781+02301101531ADDAA199000091GF105991031051008001041001KA1240N+02261MA1999999101481MD1999999-0211REMSYN076AAXX  19124 83398 32596 50504 10278 20230 30148 40153 83540 333 20226 59021;EQDQ01  00002PRCP99
0167833980999992000111918004-15660-038920FM-12+000599999V0200501N004110450019N0040001N1+02801+02311101291ADDAA199000091GF105991031021008001041011MA1999999101241MD1999999-0031REMSYN070AAXX  19184 83398 32596 50508 10280 20231 30124 40129 83241 333 59003;EQDQ01  00002PRCP99
0186833980999992000112000004-15660-038920FM-12+000599999V0200501N003112200019N0010001N1+02591+02271101501ADDAA199000091GF102991011011008001041001KA1240M+02911MA1999999101451MD1999999+0001REMSYN076AAXX  20004 83398 32594 20506 10259 20227 30145 40150 81140 333 10291 58000;EQDQ01  00002PRCP99
0186833980999992000112012004-15660-038920FM-12+000599999V0203601N002110450019N0040001N1+02901+02321101671ADDAA199000091GF106991041051008001041001KA1240N+02211MA1999999101611MD1999999+0131REMSYN076AAXX  20124 83398 32596 63604 10290 20232 30161 40167 84540 333 20221 58013;EQDQ01  00002PRCP99
0186833980999992000112100004-15660-038920FM-12+000599999V0200501N001012200019N0010001N1+02531+02021101601ADDAA199000091GF102991011011008001041001KA1240M+02951MA1999999101541MD1999999+0091REMSYN076AAXX  21004 83398 32594 20502 10253 20202 30154 40160 81140 333 10295 58009;EQDQ01  00002PRCP99
0201833980999992000112112004-15660-038920FM-12+000599999V0200501N002112200019N0040001N1+02811+02231101781ADDAA124000891AY151061AY221061GF104991031021008001041001KA1240N+02121MA1999999101721MD1999999+0111MW1011REMSYN088AAXX  21124 83398 21596 40504 10281 20223 30172 40178 70152 83240 333 20212 58011 69984;
0137833980999992000112118004-15660-038920FM-12+000599999V0200901N002110450019N0040001N1+02711+02311101451ADDGF106991031021004501041011MA1999999101401MD1999999+0041REMSYN070AAXX  21184 83398 21496 60904 10271 20231 30140 40145 83241 333 58004;
0186833980999992000112200004-15660-038920FM-12+000599999V0200501N002112200019N0010001N1+02561+02271101711ADDAA199000091GF104991021021008001041001KA1240M+02891MA1999999101651MD1999999+0111REMSYN076AAXX  22004 83398 32594 40504 10256 20227 30165 40171 82240 333 10289 58011;EQDQ01  00002PRCP99
0186833980999992000112212004-15660-038920FM-12+000599999V0200501N002110450019N0040001N1+02761+02251101911ADDAA199000091GF106991041051008001041011KA1240N+02451MA1999999101851MD1999999+0131REMSYN076AAXX  22124 83398 32596 60504 10276 20225 30185 40191 84541 333 20245 58013;EQDQ01  00002PRCP99
0167833980999992000112218004-15660-038920FM-12+000599999V0200501N003110450019N0040001N1+02621+02291101661ADDAA199000091GF106991041051008001021001MA1999999101601MD1999999+0201REMSYN070AAXX  22184 83398 32596 60506 10262 20229 30160 40166 84520 333 58020;EQDQ01  00002PRCP99
0186833980999992000112300004-15660-038920FM-12+000599999V0200501N002112200019N0010001N1+02581+02191101831ADDAA199000091GF102991011011008001041001KA1240M+02931MA1999999101771MD1999999+0121REMSYN076AAXX  23004 83398 32594 20504 10258 20219 30177 40183 81140 333 10293 58012;EQDQ01  00002PRCP99
0186833980999992000112400004-15660-038920FM-12+000599999V0200901N002110450019N0010001N1+02621+02231101781ADDAA199000091GF106991031051008001041001KA1240M+02951MA1999999101721MD1999999-0051REMSYN076AAXX  24004 83398 32594 60904 10262 20223 30172 40178 83540 333 10295 59005;EQDQ01  00002PRCP99
0201833980999992000112412004-15660-038920FM-12+000599999V0200501N002111050019N0040001N1+02781+02361101731ADDAA124007991AY161061AY221061GF105991021021008001041041KA1240N+02281MA1999999101671MD1999999-0191MW1011REMSYN088AAXX  24124 83398 21596 50504 10278 20236 30167 40173 70162 82244 333 20228 59019 60084;
0167833980999992000112718004-15660-038920FM-12+000599999V0200501N003112200019N0040001N1+02861+02261101511ADDAA199000091GF104991021021008001041001MA1999999101461MD1999999+0191REMSYN070AAXX  27184 83398 32596 40506 10286 20226 30146 40151 82240 333 58019;EQDQ01  00002PRCP99
0186833980999992000112800004-15660-038920FM-12+000599999V0200501N002112200019N0010001N1+02591+02291101741ADDAA199000091GF103991021011008001041001KA1240M+02951MA1999999101681MD1999999+0091REMSYN076AAXX  28004 83398 32594 30504 10259 20229 30168 40174 82140 333 10295 58009;EQDQ01  00002PRCP99
0201833980999992000112812004-15660-038920FM-12+000599999V0200501N003110450019N0040001N1+02791+02221101771ADDAA124002091AY161061AY221061GF105991031021008001041001KA1240N+02201MA1999999101711MD1999999+0061MW1021REMSYN088AAXX  28124 83398 21596 50506 10279 20222 30171 40177 70262 83240 333 20220 58006 60024;
0167833980999992000112818004-15660-038920FM-12+000599999V0200501N004110450019N0040001N1+02801+02221101591ADDAA199000091GF106991031051008001041011MA1999999101541MD1999999+0081REMSYN070AAXX  28184 83398 32596 60508 10280 20222 30154 40159 83541 333 58008;EQDQ01  00002PRCP99
0180833980999992000112900004-15660-038920FM-12+000599999V0200501N003112200019N0010001N1+02581+02171101761ADDAA199000091GF102991999999008001999999KA1240M+02961MA1999999101701MD1999999+0021REMSYN070AAXX  29004 83398 32594 20506 10258 20217 30170 40176 333 10296 58002;EQDQ01  00002PRCP99
0186833980999992000112912004-15660-038920FM-12+000599999V0200501N002112200019N0040001N1+02781+02211101701ADDAA199000091GF104991021021008001041041KA1240N+02161MA1999999101641MD1999999-0071REMSYN076AAXX  29124 83398 32596 40504 10278 20221 30164 40170 82244 333 20216 59007;EQDQ01  00002PRCP99
0167833980999992000120118004-15660-038920FM-12+000599999V0203601N004110450019N0040001N1+02841+02381101011ADDAA199000091GF106991031021008001041011MA1999999100961MD1999999-0121REMSYN070AAXX  01184 83398 32596 63608 10284 20238 30096 40101 83241 333 59012;EQDQ01  00002PRCP99
0201833980999992000120200004-15660-038920FM-12+000599999V0203601N002110450019N0010001N1+02381+02151101251ADDAA106000591AY151061AY221061GF107991041051008001021001KA1240M+03021MA1999999101201MD1999999+0001MW1021REMSYN088AAXX  02004 83398 21594 73604 10238 20215 30120 40125 70252 84520 333 10302 58000 69941;
0173833980999992000120212004-15660-038920FM-12+000599999V0203601N002110075019N0020001N1+02741+02381101341ADDAA124000591GF107991051051008001021001KA1240N+02291MA1999999101291MD1999999-0041REMSYN082AAXX  02124 83398 22595 73604 10274 20238 30129 40134 85520 333 20229 59004 69944;
0167833980999992000120218004-15660-038920FM-12+000599999V0203601N003110450019N0040001N1+02801+02271101081ADDAA199000091GF106991041051008001021001MA1999999101031MD1999999+0071REMSYN070AAXX  02184 83398 32596 63606 10280 20227 30103 40108 84520 333 58007;EQDQ01  00002PRCP99
0186833980999992000120300004-15660-038920FM-12+000599999V0203601N002110450019N0010001N1+02561+02381101281ADDAA199000091GF107991041051008001041001KA1240M+02961MA1999999101231MD1999999+0031REMSYN076AAXX  03004 83398 32594 73604 10256 20238 30123 40128 84540 333 10296 58003;EQDQ01  00002PRCP99
0201833980999992000120312004-15660-038920FM-12+000599999V0203601N004110075019N0020001N1+02581+02371101411ADDAA124005191AY161061AY221061GF108991081071008001999999KA1240N+02391MA1999999101361MD1999999+0061MW1611REMSYN088AAXX  03124 83398 21595 83608 10258 20237 30136 40141 76162 887// 333 20239 58006 60054;
0182833980999992000120318004-15660-038920FM-12+000599999V0203601N003110075019N0020001N1+02561+02361101081ADDAA106013091AY161061AY221061GF108991051051008001021999MA1999999101031MD1999999+0001MW1511REMSYN082AAXX  03184 83398 21595 83606 10256 20236 30103 40108 75162 8552/ 333 58000 60131;
0167833980999992000120400004-15660-038920FM-12+000599999V0209999C000010075019N0010001N1+02451+02411101271ADDAA199000021GF108991051051008001021999KA1240M+02591MA1999999101221MD1999999+0011REMSYN076AAXX  04004 83398 32594 80000 10245 20241 30122 40127 8552/ 333 10259 58001;
0173833980999992000120412004-15660-038920FM-12+000599999V0203601N002110042019N0040001N1+02661+02411101321ADDAA124013091GF108991051051004501021999KA1240N+02411MA1999999101271MD1999999-0091REMSYN082AAXX  04124 83398 22496 83604 10266 20241 30127 40132 8552/ 333 20241 59009 60134;
0182833980999992000120418004-15660-038920FM-12+000599999V0203601N002110450019N0040001N1+02821+02441101011ADDAA106000191AY151061AY221061GF106991041051004501041001MA1999999100961MD1999999-0071MW1011REMSYN082AAXX  04184 83398 21496 63604 10282 20244 30096 40101 70152 84540 333 59007 69911;
0186833980999992000120500004-15660-038920FM-12+000599999V0203601N002110450019N0010001N1+02531+02331101251ADDAA199000091GF106991021021008001041011KA1240M+02921MA1999999101201MD1999999-0021REMSYN076AAXX  05004 83398 32594 63604 10253 20233 30120 40125 82241 333 10292 59002;EQDQ01  00002PRCP99
0186833980999992000120512004-15660-038920FM-12+000599999V0203201N003110075019N0040001N1+02701+02371101281ADDAA199000091GF108991051051008001021999KA1240N+02391MA1999999101231MD1999999-0041REMSYN076AAXX  05124 83398 32596 83206 10270 20237 30123 40128 8552/ 333 20239 59004;EQDQ01  00002PRCP99
0167833980999992000120518004-15660-038920FM-12+000599999V0203601N003110075019N0040001N1+02761+02321100941ADDAA199000091GF107991051051008001021001MA1999999100891MD1999999-0081REMSYN070AAXX  05184 83398 32596 73606 10276 20232 30089 40094 85520 333 59008;EQDQ01  00002PRCP99
0186833980999992000120600004-15660-038920FM-12+000599999V0203601N003110450019N0010001N1+02541+02331101161ADDAA199000091GF105991021021008001051001KA1240M+02931MA1999999101111MD1999999-0091REMSYN076AAXX  06004 83398 32594 53606 10254 20233 30111 40116 82250 333 10293 59009;EQDQ01  00002PRCP99
0201833980999992000120612004-15660-038920FM-12+000599999V0203201N002110042019N0040001N1+02781+02361101321ADDAA124000391AY151061AY221061GF107991051051004501021001KA1240N+02471MA1999999101271MD1999999+0041MW1021REMSYN088AAXX  06124 83398 21496 73204 10278 20236 30127 40132 70252 85520 333 20247 58004 69934;
0167833980999992000120618004-15660-038920FM-12+000599999V0200501N003110450019N0040001N1+02781+02361101011ADDAA199000091GF106991041051008001021001MA1999999100961MD1999999+0071REMSYN070AAXX  06184 83398 32596 60506 10278 20236 30096 40101 84520 333 58007;EQDQ01  00002PRCP99
0186833980999992000120700004-15660-038920FM-12+000599999V0203201N002110075019N0010001N1+02581+02481101201ADDAA199000091GF108991051051008001021001KA1240M+02971MA1999999101151MD1999999+0041REMSYN076AAXX  07004 83398 32594 83204 10258 20248 30115 40120 85520 333 10297 58004;EQDQ01  00002PRCP99
0201833980999992000120712004-15660-038920FM-12+000599999V0201801N001010075019N0040001N1+02381+02331101631ADDAA124007991AY161061AY221061GF108991051071008001021999KA1240N+02321MA1999999101571MD1999999+0301MW1611REMSYN088AAXX  07124 83398 21596 81802 10238 20233 30157 40163 76162 8572/ 333 20232 58030 60084;
0182833980999992000120718004-15660-038920FM-12+000599999V0201401N002110075019N0020001N1+02401+02331101441ADDAA106033091AY161061AY221061GF108991081071008001999999MA1999999101391MD1999999+0431MW1621REMSYN082AAXX  07184 83398 21595 81404 10240 20233 30139 40144 76262 887// 333 58043 60331;
0201833980999992000120812004-15660-038920FM-12+000599999V0201801N001010042019N0040001N1+02631+02281101711ADDAA124045091AY161061AY221061GF107991051051004501021001KA1240N+02241MA1999999101651MD1999999+0081MW1601REMSYN088AAXX  08124 83398 21496 71802 10263 20228 30165 40171 76062 85520 333 20224 58008 60454;
0148833980999992000120818004-15660-038920FM-12+000599999V0200501N002110450019N0040001N1+02661+02331101561ADDAA199000021GF107991041051008001021001MA1999999101411MD1999999+0021REMSYN070AAXX  08184 83398 32596 70504 10266 20233 30141 40156 84520 333 58002;
0167833980999992000120900004-15660-038920FM-12+000599999V0201801N001010450019N0010001N1+02461+02371101621ADDAA199000021GF107991041051008001021001KA1240M+02861MA1999999101561MD1999999-0031REMSYN076AAXX  09004 83398 32594 71802 10246 20237 30156 40162 84520 333 10286 59003;
0201833980999992000120912004-15660-038920FM-12+000599999V0201801N001010075019N0020001N1+02581+02251101641ADDAA124039991AY161061AY221061GF108991051051008001021999KA1240N+02261MA1999999101581MD1999999-0071MW1021REMSYN088AAXX  09124 83398 21595 81802 10258 20225 30158 40164 70262 8552/ 333 20226 59007 60404;
0182833980999992000120918004-15660-038920FM-12+000599999V0203601N002110075019N0020001N1+02521+02231101401ADDAA106000191AY151061AY221061GF108991051051008001021999MA1999999101351MD1999999-0061MW1021REMSYN082AAXX  09184 83398 21595 83604 10252 20223 30135 40140 70252 8552/ 333 59006 69911;
0186833980999992000121000004-15660-038920FM-12+000599999V0202301N001010450019N0010001N1+02391+02301101411ADDAA199000091GF107991041051008001021001KA1240M+02861MA1999999101361MD1999999+0201REMSYN076AAXX  10004 83398 32594 72302 10239 20230 30136 40141 84520 333 10286 58020;EQDQ01  00002PRCP99
0201833980999992000121012004-15660-038920FM-12+000599999V0203601N002110450019N0040001N1+02821+02391101281ADDAA124000191AY151061AY221061GF105991031021008001051001KA1240N+02281MA1999999101231MD1999999-0351MW1021REMSYN088AAXX  10124 83398 21596 53604 10282 20239 30123 40128 70252 83250 333 20228 59035 69924;
0167833980999992000121018004-15660-038920FM-12+000599999V0203601N003111050019N0040001N1+02791+02331100951ADDAA199000091GF105991021021008001041041MA1999999100901MD1999999-0451REMSYN070AAXX  10184 83398 32596 53606 10279 20233 30090 40095 82244 333 59045;EQDQ01  00002PRCP99
0186833980999992000121112004-15660-038920FM-12+000599999V0202701N002110075019N0040001N1+02601+02351101201ADDAA199000091GF105991051051008001021001KA1240N+02341MA1999999101151MD1999999-0101REMSYN076AAXX  11124 83398 32596 52704 10260 20235 30115 40120 85520 333 20234 59010;EQDQ01  00002PRCP99
0167833980999992000121118004-15660-038920FM-12+000599999V0203601N002110450019N0040001N1+02721+02301100971ADDAA199000091GF105991031021008001051001MA1999999100921MD1999999+0021REMSYN070AAXX  11184 83398 32596 53604 10272 20230 30092 40097 83250 333 58002;EQDQ01  00002PRCP99
0201833980999992000121200004-15660-038920FM-12+000599999V0209999C000010450019N0010001N1+02491+02401101301ADDAA106000191AY151061AY221061GF107991031051008001031001KA1240M+02911MA1999999101251MD1999999+0181MW1021REMSYN088AAXX  12004 83398 21594 70000 10249 20240 30125 40130 70252 83530 333 10291 58018 69921;
0201833980999992000121212004-15660-038920FM-12+000599999V0203201N001010450019N0040001N1+02681+02281101311ADDAA124001091AY151061AY221061GF106991041051008001041001KA1240N+02211MA1999999101261MD1999999+0111MW1021REMSYN088AAXX  12124 83398 21596 63202 10268 20228 30126 40131 70252 84540 333 20221 58011 60014;
0182833980999992000121218004-15660-038920FM-12+000599999V0200501N004112200019N0040001N1+02771+02341101061ADDAA106000591AY151061AY221061GF104991021021008001041011MA1999999101011MD1999999+0091MW1021REMSYN082AAXX  12184 83398 21596 40508 10277 20234 30101 40106 70252 82241 333 58009 69951;
0186833980999992000121300004-15660-038920FM-12+000599999V0200501N003112200019N0010001N1+02591+02251101221ADDAA199000091GF102991011011008001041001KA1240M+02941MA1999999101171MD1999999-0081REMSYN076AAXX  13004 83398 32594 20506 10259 20225 30117 40122 81140 333 10294 59008;EQDQ01  00002PRCP99
0201833980999992000121312004-15660-038920FM-12+000599999V0203201N002110450019N0040001N1+02611+02301101311ADDAA124022191AY151061AY221061GF105991031051004501041001KA1240N+02201MA1999999101261MD1999999+0001MW1011REMSYN088AAXX  13124 83398 21496 53204 10261 20230 30126 40131 70152 83540 333 20220 58000 60224;
0167833980999992000121318004-15660-038920FM-12+000599999V0203601N002110450019N0040001N1+02671+02371100991ADDAA199000091GF106991031051008001051001MA1999999100941MD1999999-0071REMSYN070AAXX  13184 83398 32596 63604 10267 20237 30094 40099 83550 333 59007;EQDQ01  00002PRCP99
0201833980999992000121400004-15660-038920FM-12+000599999V0203601N002110450019N0010001N1+02471+02381101091ADDAA106000191AY151061AY221061GF107991041051008001051001KA1240M+02821MA1999999101041MD1999999-0131MW1021REMSYN088AAXX  14004 83398 21594 73604 10247 20238 30104 40109 70252 84550 333 10282 59013 69921;
0201833980999992000121412004-15660-038920FM-12+000599999V0203601N002110042019N0040001N1+02461+02191101081ADDAA124002091AY151061AY221061GF108991051051004501021999KA1240N+02221MA1999999101031MD1999999-0231MW1021REMSYN088AAXX  14124 83398 21496 83604 10246 20219 30103 40108 70252 8552/ 333 20222 59023 60024;
0182833980999992000121418004-15660-038920FM-12+000599999V0200501N002110042019N0040001N1+02371+02211100841ADDAA106000191AY151061AY221061GF108991051071004501021999MA1999999100791MD1999999-0151MW1501REMSYN082AAXX  14184 83398 21496 80504 10237 20221 30079 40084 75052 8572/ 333 59015 69921;
0201833980999992000121500004-15660-038920FM-12+000599999V0200501N002110075019N0010001N1+02361+02261100941ADDAA106001091AY161061AY221061GF108991051051008001021999KA1240M+02631MA1999999100891MD1999999-0151MW1021REMSYN088AAXX  15004 83398 21594 80504 10236 20226 30089 40094 70262 8552/ 333 10263 59015 60011;
0186833980999992000121600004-15660-038920FM-12+000599999V0203601N005110075019N0010001N1+02471+02171100821ADDAA199000091GF108991051051008001021999KA1240M+02741MA1999999100771MD1999999-0121REMSYN076AAXX  16004 83398 32594 83610 10247 20217 30077 40082 8552/ 333 10274 59012;EQDQ01  00002PRCP99
0201833980999992000121612004-15660-038920FM-12+000599999V0203601N002110042019N0040001N1+02381+02221100931ADDAA124007991AY161061AY221061GF107991051051004501021001KA1240N+02211MA1999999100881MD1999999-0011MW1601REMSYN088AAXX  16124 83398 21496 73604 10238 20222 30088 40093 76062 85520 333 20221 59001 60084;
0148833980999992000121618004-15660-038920FM-12+000599999V0203601N003112200019N0040001N1+02661+02181100711ADDAA199000021GF104991021011008001041041MA1999999100661MD1999999+0111REMSYN070AAXX  16184 83398 32596 43606 10266 20218 30066 40071 82144 333 58011;
0167833980999992000121700004-15660-038920FM-12+000599999V0200501N003110450019N0010001N1+02551+02291100981ADDAA199000021GF107991041051008001021001KA1240M+02851MA1999999100931MD1999999+0161REMSYN076AAXX  17004 83398 32594 70506 10255 20229 30093 40098 84520 333 10285 58016;
0201833980999992000121712004-15660-038920FM-12+000599999V0203601N003110042019N0040001N1+02671+02381101051ADDAA124035191AY161061AY221061GF107991051051004501021001KA1240N+02291MA1999999101001MD1999999+0121MW1021REMSYN088AAXX  17124 83398 21496 73606 10267 20238 30100 40105 70262 85520 333 20229 58012 60354;
0182833980999992000121718004-15660-038920FM-12+000599999V0200501N005110075019N0040001N1+02411+02371100991ADDAA106011991AY161061AY221061GF108991051051008001021999MA1999999100941MD1999999+0281MW1611REMSYN082AAXX  17184 83398 21596 80510 10241 20237 30094 40099 76162 8552/ 333 58028 60121;
0201833980999992000121800004-15660-038920FM-12+000599999V0203601N002110042019N0010001N1+02451+02311101051ADDAA106001091AY151061AY221061GF108991061071004501021999KA1240M+02741MA1999999101001MD1999999+0271MW1501REMSYN088AAXX  18004 83398 21494 83604 10245 20231 30100 40105 75052 8672/ 333 10274 58027 60011;
0201833980999992000121812004-15660-038920FM-12+000599999V0203601N001010042019N0040001N1+02481+02191101461ADDAA124014091AY151061AY221061GF108991051051004501021999KA1240N+02311MA1999999101411MD1999999+0411MW1021REMSYN088AAXX  18124 83398 21496 83602 10248 20219 30141 40146 70252 8552/ 333 20231 58041 60144;
0167833980999992000121818004-15660-038920FM-12+000599999V0200501N005110075019N0040001N1+02621+02211101051ADDAA199000091GF108991051051008001021999MA1999999101001MD1999999+0061REMSYN070AAXX  18184 83398 32596 80510 10262 20221 30100 40105 8552/ 333 58006;EQDQ01  00002PRCP99
0186833980999992000121900004-15660-038920FM-12+000599999V0203601N002110075019N0010001N1+02491+02341101331ADDAA199000091GF108991051051008001021999KA1240M+02841MA1999999101281MD1999999+0281REMSYN076AAXX  19004 83398 32594 83604 10249 20234 30128 40133 8552/ 333 10284 58028;EQDQ01  00002PRCP99
0201833980999992000121912004-15660-038920FM-12+000599999V0203201N003110450019N0040001N1+02881+02321101431ADDAA124000191AY151061AY221061GF106991031021008001051001KA1240N+02211MA1999999101381MD1999999-0031MW1011REMSYN088AAXX  19124 83398 21596 63206 10288 20232 30138 40143 70152 83250 333 20221 59003 69914;
0167833980999992000121918004-15660-038920FM-12+000599999V0203601N003112200019N0040001N1+02861+02261101021ADDAA199000091GF104991021021008001041011MA1999999100971MD1999999-0031REMSYN070AAXX  19184 83398 32596 43606 10286 20226 30097 40102 82241 333 59003;EQDQ01  00002PRCP99
0186833980999992000122000004-15660-038920FM-12+000599999V0203601N001010450019N0010001N1+02601+02441101321ADDAA199000091GF106991041051008001021001KA1240M+03001MA1999999101271MD1999999-0011REMSYN076AAXX  20004 83398 32594 63602 10260 20244 30127 40132 84520 333 10300 59001;EQDQ01  00002PRCP99
0201833980999992000122012004-15660-038920FM-12+000599999V0203201N001010042019N0040001N1+02271+02081101491ADDAA124014091AY161061AY221061GF108991051071004501021999KA1240N+02191MA1999999101441MD1999999+0061MW1961REMSYN088AAXX  20124 83398 21496 83202 10227 20208 30144 40149 79662 8572/ 333 20219 58006 60144;
0182833980999992000122018004-15660-038920FM-12+000599999V0203601N002110450019N0040001N1+02761+02281101151ADDAA124000191AY151061AY221061GF105991021021004501051001MA1999999101101MD1999999+0131MW1011REMSYN082AAXX  20184 83398 21496 53604 10276 20228 30110 40115 70152 82250 333 58013 69914;
0167833980999992000122100004-15660-038920FM-12+000599999V0203201N004110450019N0010001N1+02541+02381101341ADDAA199000021GF106991041051008001041001KA1240M+03081MA1999999101291MD1999999+0021REMSYN076AAXX  21004 83398 32594 63208 10254 20238 30129 40134 84540 333 10308 58002;
0173833980999992000122112004-15660-038920FM-12+000599999V0203601N002110450019N0040001N1+02911+02351101521ADDAA124000191GF106991021021008001051011KA1240N+02401MA1999999101471MD1999999+0031REMSYN082AAXX  21124 83398 22596 63604 10291 20235 30147 40152 82251 333 20240 58003 69914;
0167833980999992000122118004-15660-038920FM-12+000599999V0203601N002111050019N0040001N1+02801+02401101191ADDAA199000091GF105991021021008001041041MA1999999101141MD1999999+0041REMSYN070AAXX  21184 83398 32596 53604 10280 20240 30114 40119 82244 333 58004;EQDQ01  00002PRCP99
0186833980999992000122200004-15660-038920FM-12+000599999V0209999C000010450019N0010001N1+02471+02381101531ADDAA199000091GF106991041051008001041001KA1240M+02981MA1999999101481MD1999999+0191REMSYN076AAXX  22004 83398 32594 60000 10247 20238 30148 40153 84540 333 10298 58019;EQDQ01  00002PRCP99
0186833980999992000122212004-15660-038920FM-12+000599999V0203601N002111050019N0040001N1+02831+02371101621ADDAA199000091GF106991021021008001041041KA1240N+02381MA1999999101571MD1999999+0101REMSYN076AAXX  22124 83398 32596 63604 10283 20237 30157 40162 82244 333 20238 58010;EQDQ01  00002PRCP99
0167833980999992000122218004-15660-038920FM-12+000599999V0200501N002111050019N0040001N1+02801+02361101351ADDAA199000091GF105991021021008001041041MA1999999101301MD1999999+0161REMSYN070AAXX  22184 83398 32596 50504 10280 20236 30130 40135 82244 333 58016;EQDQ01  00002PRCP99
0186833980999992000122300004-15660-038920FM-12+000599999V0203201N001012200019N0010001N1+02501+02321101531ADDAA199000091GF102991011011008001041001KA1240M+02971MA1999999101481MD1999999+0001REMSYN076AAXX  23004 83398 32594 23202 10250 20232 30148 40153 81140 333 10297 58000;EQDQ01  00002PRCP99
0186833980999992000122312004-15660-038920FM-12+000599999V0203601N002110450019N0040001N1+02881+02321101651ADDAA199000091GF106991031051008001041001KA1240N+02211MA1999999101591MD1999999+0021REMSYN076AAXX  23124 83398 32596 63604 10288 20232 30159 40165 83540 333 20221 58002;EQDQ01  00002PRCP99
0167833980999992000122318004-15660-038920FM-12+000599999V0200501N003110450019N0040001N1+02861+02391101371ADDAA199000091GF105991031021008001041001MA1999999101321MD1999999+0021REMSYN070AAXX  23184 83398 32596 50506 10286 20239 30132 40137 83240 333 58002;EQDQ01  00002PRCP99
0186833980999992000122400004-15660-038920FM-12+000599999V0200501N002112200019N0010001N1+02561+02381101531ADDAA199000091GF102991011011008001041001KA1240M+03041MA1999999101491MD1999999+0011REMSYN076AAXX  24004 83398 32594 20504 10256 20238 30149 40153 81140 333 10304 58001;EQDQ01  00002PRCP99
0201833980999992000122412004-15660-038920FM-12+000599999V0200901N003110450019N0020001N1+02701+02301101671ADDAA124001091AY161061AY221061GF106991041051008001021001KA1240N+02311MA1999999101611MD1999999+0021MW1021REMSYN088AAXX  24124 83398 21595 60906 10270 20230 30161 40167 70262 84520 333 20231 58002 60014;
0167833980999992000122418004-15660-038920FM-12+000599999V0200901N003110450019N0040001N1+02841+02221101411ADDAA199000091GF105991021051008001041001MA1999999101361MD1999999+0041REMSYN070AAXX  24184 83398 32596 50906 10284 20222 30136 40141 82540 333 58004;EQDQ01  00002PRCP99
0186833980999992000122500004-15660-038920FM-12+000599999V0200501N001010450019N0010001N1+02571+02271101591ADDAA199000091GF106991041051008001041001KA1240M+02911MA1999999101531MD1999999+0041REMSYN076AAXX  25004 83398 32594 60502 10257 20227 30153 40159 84540 333 10291 58004;EQDQ01  00002PRCP99
0201833980999992000122512004-15660-038920FM-12+000599999V0203601N001010450019N0020001N1+02721+02301101751ADDAA124000391AY151061AY221061GF105991031051008001041001KA1240N+02221MA1999999101691MD1999999+0081MW1021REMSYN088AAXX  25124 83398 21595 53602 10272 20230 30169 40175 70252 83540 333 20222 58008 69934;
0166833980999992000122518004-15660-038920FM-12+000599999V0200901N002111050019N0040001N1+02741+02341101541ADDAA199000091GF105991021021008001041011MA1999999101491MD1999999+0131REMSYN069AAXX  25184 83398 32596 50904 1027420234 30149 40154 82241 333 58013;EQDQ01  00002PRCP99
0186833980999992000122600004-15660-038920FM-12+000599999V0209999C000012200019N0010001N1+02541+02291101641ADDAA199000091GF102991021021008001001001KA1240M+02961MA1999999101581MD1999999+0051REMSYN076AAXX  26004 83398 32594 20000 10254 20229 30158 40164 82200 333 10296 58005;EQDQ01  00002PRCP99
0201833980999992000122612004-15660-038920FM-12+000599999V0200901N002110450019N0040001N1+02781+02211101671ADDAA124008991AY161061AY221061GF105991031051008001041001KA1240N+02321MA1999999101611MD1999999-0081MW1021REMSYN088AAXX  26124 83398 21596 50904 10278 20221 30161 40167 70262 83540 333 20232 59008 60094;
0167833980999992000122618004-15660-038920FM-12+000599999V0200901N003110450019N0040001N1+02821+02291101441ADDAA199000091GF105991031021008001041011MA1999999101391MD1999999-0101REMSYN070AAXX  26184 83398 32596 50906 10282 20229 30139 40144 83241 333 59010;EQDQ01  00002PRCP99
0186833980999992000122700004-15660-038920FM-12+000599999V0200901N001010450019N0010001N1+02591+02291101581ADDAA199000091GF106991031011008001041001KA1240M+02901MA1999999101521MD1999999-0061REMSYN076AAXX  27004 83398 32594 60902 10259 20229 30152 40158 83140 333 10290 59006;EQDQ01  00002PRCP99
0201833980999992000122712004-15660-038920FM-12+000599999V0200501N002112200019N0040001N1+02781+02341101541ADDAA124003091AY151061AY221061GF104991031021008001041001KA1240N+02291MA1999999101491MD1999999-0121MW1011REMSYN088AAXX  27124 83398 21596 40504 10278 20234 30149 40154 70152 83240 333 20229 59012 60034;
0167833980999992000122718004-15660-038920FM-12+000599999V0200901N003111050019N0040001N1+02801+02181101421ADDAA199000091GF105991021051008001041011MA1999999101371MD1999999-0021REMSYN070AAXX  27184 83398 32596 50906 10280 20218 30137 40142 82541 333 59002;EQDQ01  00002PRCP99
0186833980999992000122800004-15660-038920FM-12+000599999V0200501N002110450019N0010001N1+02601+02251101561ADDAA199000091GF105991031051008001041001KA1240M+02911MA1999999101501MD1999999-0021REMSYN076AAXX  28004 83398 32594 50504 10260 20225 30150 40156 83540 333 10291 59002;EQDQ01  00002PRCP99
0201833980999992000122812004-15660-038920FM-12+000599999V0200501N002110450019N0040001N1+02821+02381101581ADDAA124000391AY151061AY221061GF105991031051008001041001KA1240N+02311MA1999999101531MD1999999+0041MW1011REMSYN088AAXX  28124 83398 21596 50504 10282 20238 30153 40158 70152 83540 333 20231 58004 69934;
0167833980999992000122818004-15660-038920FM-12+000599999V0203601N003110450019N0040001N1+02861+02441101241ADDAA199000091GF105991031051008001041001MA1999999101191MD1999999-0181REMSYN070AAXX  28184 83398 32596 53606 10286 20244 30119 40124 83540 333 59018;EQDQ01  00002PRCP99
0186833980999992000122900004-15660-038920FM-12+000599999V0203601N002112200019N0010001N1+02561+02361101431ADDAA199000091GF102991011011008001041001KA1240M+02941MA1999999101381MD1999999-0121REMSYN076AAXX  29004 83398 32594 23604 10256 20236 30138 40143 81140 333 10294 59012;EQDQ01  00002PRCP99
0186833980999992000122912004-15660-038920FM-12+000599999V0200501N002110450019N0040001N1+02921+02451101481ADDAA199000091GF105991031051008001041001KA1240N+02301MA1999999101431MD1999999-0101REMSYN076AAXX  29124 83398 32596 50504 10292 20245 30143 40148 83540 333 20230 59010;EQDQ01  00002PRCP99
0167833980999992000122918004-15660-038920FM-12+000599999V0200901N004110450019N0040001N1+02881+02411101221ADDAA199000091GF105991031021008001041011MA1999999101171MD1999999-0021REMSYN070AAXX  29184 83398 32596 50908 10288 20241 30117 40122 83241 333 59002;EQDQ01  00002PRCP99
0186833980999992000123000004-15660-038920FM-12+000599999V0200501N003112200019N0010001N1+02611+02311101361ADDAA199000091GF102991011011008001041001KA1240M+03001MA1999999101311MD1999999-0071REMSYN076AAXX  30004 83398 32594 20506 10261 20231 30131 40136 81140 333 10300 59007;EQDQ01  00002PRCP99
0186833980999992000123012004-15660-038920FM-12+000599999V0203601N002112200019N0040001N1+02891+02311101481ADDAA199000091GF104991031021008001041001KA1240N+02311MA1999999101431MD1999999+0001REMSYN076AAXX  30124 83398 32596 43604 10289 20231 30143 40148 83240 333 20231 58000;EQDQ01  00002PRCP99
0167833980999992000123018004-15660-038920FM-12+000599999V0200501N004110450019N0040001N1+02841+02401101151ADDAA199000091GF105991031021008001041011MA1999999101101MD1999999-0071REMSYN070AAXX  30184 83398 32596 50508 10284 20240 30110 40115 83241 333 59007;EQDQ01  00002PRCP99
0186833980999992000123100004-15660-038920FM-12+000599999V0203601N001012200019N0010001N1+02571+02301101371ADDAA199000091GF104991021021008001041001KA1240M+03021MA1999999101321MD1999999+0011REMSYN076AAXX  31004 83398 32594 43602 10257 20230 30132 40137 82240 333 10302 58001;EQDQ01  00002PRCP99
0186833980999992000123112004-15660-038920FM-12+000599999V0203601N002110450019N0040001N1+02921+02321101391ADDAA199000091GF105991031051008001041001KA1240N+02331MA1999999101341MD1999999-0101REMSYN076AAXX  31124 83398 32596 53604 10292 20232 30134 40139 83540 333 20233 59010;EQDQ01  00002PRCP99
0167833980999992000123118004-15660-038920FM-12+000599999V0203601N005110450019N0040001N1+02901+02481101141ADDAA199000091GF105991031021008001041011MA1999999101091MD1999999-0011REMSYN070AAXX  31184 83398 32596 53610 10290 20248 30109 40114 83241 333 59001;EQDQ01  00002PRCP99
