0178821980999992012010100004-01717-045400FM-12+004499999V0200501N003112200019N0002001N1+02701+02501101081ADDGA1001+999999999GF100991001001999999001001KA1240M+03321MA1999999100571MD1999999-0111REMSYN082AAXX  01004 82198 32992 00506 10270 20250 30057 40108 333 10332 29076 55075 59011;
0175821980999992012010112004-01717-045400FM-12+004499999V0203601N004112200019N0020001N1+02931+02321101231ADDGF105991031021004501001041KA1240N+02561MA1999999999999MD1999999+0041REMSYN076AAXX  01124 82198 32495 53608 10293 20232 30771 40123 83204 333 20256 58004;EQDQ01 097713APOSP 
0156821980999992012010118004-01717-045400FM-12+004499999V0203601N005110450019N0020001N1+03171+02241100961ADDGF105991031021004501031041MA1999999100452MD1999999+0041REMSYN070AAXX  01184 82198 32495 53610 10317 20224 30045 40096 83234 333 58004;EQDQ01+100453APOSP 
0168821980999992012010200004-01717-045400FM-12+004499999V0203601N003112200019N0020001N1+02681+02241101181ADDGF101991011001022501001011KA1240M+03271MA1999999100671MD1999999+0101REMSYN088AAXX  02004 82198 32895 13606 10268 20224 30067 40118 81001 333 10327 29070 55085 58010;
0156821980999992012010212004-01717-045400FM-12+004499999V0203601N005110042019N0020001N1+02971+02271101061ADDGF105991051021004501061011KA1240N+02541MA1999999100551MD1999999-0161REMSYN076AAXX  02124 82198 32495 53610 10297 20227 30055 40106 85261 333 20254 59016;
0182821980999992012010218004-01717-045400FM-12+004499999V0203601N003110042019N0020001N1+03051+02171100891ADDAA106000591AY151061AY221061GF107991051051004501061001MA1999999100381MD1999999-0071MW1031REMSYN082AAXX  02184 82198 21495 73606 10305 20217 30038 40089 70352 85560 333 59007 69951;
0178821980999992012010300004-01717-045400FM-12+004499999V0200501N002612200019N0002001N1+02651+02271101101ADDGA1001+999999999GF100991001001999999001001KA1240M+03221MA1999999100591MD1999999-0081REMSYN082AAXX  03004 82198 32992 00505 10265 20227 30059 40110 333 10322 29072 55089 59008;
0173821980999992012010312004-01717-045400FM-12+004499999V0200201N004112200019N0020001N1+02871+02141101221ADDAA124000591GF103991031021004501001001KA1240N+02501MA1999999100711MD1999999+0061REMSYN082AAXX  03124 82198 22495 30208 10287 20214 30071 40122 83200 333 20250 58006 69954;
0137821980999992012010318004-01717-045400FM-12+004499999V0200201N005110450019N0020001N1+03101+02361100891ADDGF105991041021004501061001MA1999999100381MD1999999+0001REMSYN070AAXX  03184 82198 32495 50210 10310 20236 30038 40089 84260 333 58000;
0168821980999992012010400004-01717-045400FM-12+004499999V0200201N002112200019N0002001N1+02671+02331101071ADDGF102991021001012501061001KA1240M+03261MA1999999100561MD1999999-0031REMSYN088AAXX  04004 82198 32692 20204 10267 20233 30056 40107 82060 333 10326 29073 55105 59003;
0156821980999992012010412004-01717-045400FM-12+004499999V0200501N002610042019N0020001N1+02921+02431101171ADDGF106991061021004501001001KA1240N+02511MA1999999100661MD1999999-0051REMSYN076AAXX  04124 82198 32495 60505 10292 20243 30066 40117 86200 333 20251 59005;
0137821980999992012010418004-01717-045400FM-12+004499999V0203601N003610042019N0020001N1+03041+02331100881ADDGF105991051021004501001001MA1999999100371MD1999999-0011REMSYN070AAXX  04184 82198 32495 53607 10304 20233 30037 40088 85200 333 59001;
0168821980999992012010500004-01717-045400FM-12+004499999V0200501N001510450019N0002001N1+02691+02431101051ADDGF106991031021004501041001KA1240M+03201MA1999999100541MD1999999-0021REMSYN088AAXX  05004 82198 32492 60503 10269 20243 30054 40105 83240 333 10320 29078 55051 59002;
0156821980999992012010512004-01717-045400FM-12+004499999V0200701N004610450019N0020001N1+02911+02341101191ADDGF107991041021004501061001KA1240N+02501MA1999999100681MD1999999+0021REMSYN076AAXX  05124 82198 32495 70709 10291 20234 30068 40119 84260 333 20250 58002;
0201821980999992012010518004-01717-045400FM-12+004499999V0200701N004110042019N0020001N1+03041+02201100891ADDAA106000091AY151061AY221061GF108991051031004501041001MA1999999100381MD1999999+0011MW1021REMSYN082AAXX  05184 82198 21495 80708 10304 20220 30038 40089 70252 85340 333 58001 69921;EQDQ01  00002PRCP06
0168821980999992012010600004-01717-045400FM-12+004499999V0200501N002610450019N0002001N1+02721+02451101081ADDGF106991021031004501061001KA1240M+03271MA1999999100571MD1999999+0031REMSYN088AAXX  06004 82198 32492 60505 10272 20245 30057 40108 82360 333 10327 29076 55023 58003;
0192821980999992012010612004-01717-045400FM-12+004499999V0200501N005110450019N0020001N1+03031+02311101091ADDAA124000091GF106991031021004501031001KA1240N+02561MA1999999100581MD1999999-0101REMSYN082AAXX  06124 82198 22495 60510 10303 20231 30058 40109 83230 333 20256 59010 69924;EQDQ01  00002PRCP24
0137821980999992012010618004-01717-045400FM-12+004499999V0200501N004612200019N0020001N1+03291+02261100841ADDGF104991041021004501001001MA1999999100331MD1999999-0051REMSYN070AAXX  06184 82198 32495 40509 10329 20226 30033 40084 84200 333 59005;
0178821980999992012010700004-01717-045400FM-12+004499999V0200501N002112200019N0002001N1+02691+02391100971ADDGA1001+999999999GF100991001001999999001001KA1240M+03371MA1999999100461MD1999999-0111REMSYN082AAXX  07004 82198 32992 00504 10269 20239 30046 40097 333 10337 29072 55091 59011;
0156821980999992012010712004-01717-045400FM-12+004499999V0200201N004610042019N0020001N1+03091+02291101121ADDGF105991051021004501001001KA1240N+02501MA1999999100611MD1999999+0031REMSYN076AAXX  07124 82198 32495 50209 10309 20229 30061 40112 85200 333 20250 58003;
0137821980999992012010718004-01717-045400FM-12+004499999V0200501N006212200019N0020001N1+03311+02181100751ADDGF103991031021004501001001MA1999999100241MD1999999-0091REMSYN070AAXX  07184 82198 32495 30512 10331 20218 30024 40075 83200 333 59009;
0178821980999992012010800004-01717-045400FM-12+004499999V0200501N001512200019N0002001N1+02711+02371100941ADDGA1001+999999999GF100991001001999999001001KA1240M+03421MA1999999100431MD1999999-0031REMSYN082AAXX  08004 82198 32992 00503 10271 20237 30043 40094 333 10342 29070 55107 59003;
0156821980999992012010812004-01717-045400FM-12+004499999V0200701N003112200019N0020001N1+02991+02401101071ADDGF104991041021004501001001KA1240N+02511MA1999999100561MD1999999-0051REMSYN076AAXX  08124 82198 32495 40706 10299 20240 30056 40107 84200 333 20251 59005;
0137821980999992012010818004-01717-045400FM-12+004499999V0200201N003612200019N0020001N1+03301+02361100781ADDGF103991031021004501001001MA1999999100271MD1999999+0031REMSYN070AAXX  08184 82198 32495 30207 10330 20236 30027 40078 83200 333 58003;
0168821980999992012010900004-01717-045400FM-12+004499999V0200201N003112200019N0002001N1+02701+02391100941ADDGF103991031001012501011001KA1240M+03471MA1999999100431MD1999999+0001REMSYN088AAXX  09004 82198 32692 30206 10270 20239 30043 40094 83010 333 10347 29074 55098 58000;
0156821980999992012010912004-01717-045400FM-12+004499999V0200201N002610042019N0020001N1+03001+02441101061ADDGF107991061021004501061001KA1240N+02461MA1999999100551MD1999999-0011REMSYN076AAXX  09124 82198 32495 70205 10300 20244 30055 40106 86260 333 20246 59001;
0137821980999992012010918004-01717-045400FM-12+004499999V0203601N005110042019N0020001N1+03141+02321100771ADDGF106991051021004501061001MA1999999100261MD1999999-0011REMSYN070AAXX  09184 82198 32495 63610 10314 20232 30026 40077 85260 333 59001;
0168821980999992012011000004-01717-045400FM-12+004499999V0200201N003110450019N0002001N1+02701+02391100951ADDGF105991021011004501041001KA1240M+03351MA1999999100441MD1999999+0011REMSYN088AAXX  10004 82198 32492 50206 10270 20239 30044 40095 82140 333 10335 29075 55063 58001;
0156821980999992012011012004-01717-045400FM-12+004499999V0200501N002610042019N0020001N1+02951+02341101051ADDGF105991051021004501001001KA1240N+02491MA1999999100541MD1999999-0011REMSYN076AAXX  10124 82198 32495 50505 10295 20234 30054 40105 85200 333 20249 59001;
0137821980999992012011018004-01717-045400FM-12+004499999V0203601N003112200019N0020001N1+03081+02411100921ADDGF104991041021004501001001MA1999999100411MD1999999+0151REMSYN070AAXX  10184 82198 32495 43606 10308 20241 30041 40092 84200 333 58015;
0168821980999992012011100004-01717-045400FM-12+004499999V0200501N002612200019N0002001N1+02701+02301101001ADDGF101991011001022501001011KA1240M+03441MA1999999100491MD1999999+0051REMSYN088AAXX  11004 82198 32892 10505 10270 20230 30049 40100 81001 333 10344 29073 55109 58005;
0184821980999992012011112004-01717-045400FM-12+004499999V0200501N004110450019N0005001N1+02941+02291101051ADDAY121061AY221061GF106991041021004501061001KA1240N+02411MA1999999100541MD1999999+0001MW1041REMSYN082AAXX  11124 82198 31493 60508 10294 20229 30054 40105 70422 84260 333 20241 58000;
0137821980999992012011118004-01717-045400FM-12+004499999V0200501N004610450019N0020001N1+03241+02221100881ADDGF106991041021004501011061MA1999999100371MD1999999-0041REMSYN070AAXX  11184 82198 32495 60509 10324 20222 30037 40088 84216 333 59004;
0168821980999992012011200004-01717-045400FM-12+004499999V0200501N002612200019N0002001N1+02671+02251101191ADDGF102991021001017501011001KA1240M+03411MA1999999100671MD1999999+0181REMSYN088AAXX  12004 82198 32792 20505 10267 20225 30067 40119 82010 333 10341 29071 55083 58018;
0156821980999992012011212004-01717-045400FM-12+004499999V0200701N005112200019N0020001N1+03011+02291101231ADDGF106991041021004501001011KA1240N+02501MA1999999100711MD1999999+0171REMSYN076AAXX  12124 82198 32495 60710 10301 20229 30071 40123 84201 333 20250 58017;
0137821980999992012011218004-01717-045400FM-12+004499999V0203601N004610450019N0020001N1+03211+02211100971ADDGF106991041021004501061001MA1999999100461MD1999999+0091REMSYN070AAXX  12184 82198 32495 63609 10321 20221 30046 40097 84260 333 58009;
0168821980999992012011300004-01717-045400FM-12+004499999V0200501N003112200019N0002001N1+02671+02311101131ADDGF102991021011004501001001KA1240M+03291MA1999999100621MD1999999-0051REMSYN088AAXX  13004 82198 32492 20506 10267 20231 30062 40113 82100 333 10329 29072 55089 59005;
0156821980999992012011312004-01717-045400FM-12+004499999V0200501N003110450019N0020001N1+02951+02421101151ADDGF106991041021004501061001KA1240N+02501MA1999999100641MD1999999-0071REMSYN076AAXX  13124 82198 32495 60506 10295 20242 30064 40115 84260 333 20250 59007;
0182821980999992012011318004-01717-045400FM-12+004499999V0200501N005110450019N0020001N1+02951+02391100941ADDAA106000591AY151061AY221061GF106991031021004501061011MA1999999100431MD1999999-0031MW1501REMSYN082AAXX  13184 82198 21495 60510 10295 20239 30043 40094 75052 83261 333 59003 69951;
0178821980999992012011400004-01717-045400FM-12+004499999V0200501N001512200019N0002001N1+02691+02291101181ADDGA1001+999999999GF100991001001999999001001KA1240M+03341MA1999999100671MD1999999+0051REMSYN082AAXX  14004 82198 32992 00503 10269 20229 30067 40118 333 10334 29077 55084 58005;
0201821980999992012011412004-01717-045400FM-12+004499999V0200501N005112200019N0020001N1+03041+02231101101ADDAA124000591AY111061AY221061GF106991031011004501001041KA1240N+02501MA1999999100591MD1999999-0051MW1051REMSYN088AAXX  14124 82198 21495 60510 10304 20223 30059 40110 70512 83104 333 20250 59005 69954;
0165821980999992012011418004-01717-045400FM-12+004499999V0200501N006210450019N0010001N1+03301+02241100861ADDAY121061AY221061GF106991031021004501011041MA1999999100351MD1999999-0081MW1041REMSYN076AAXX  14184 82198 31494 60512 10330 20224 30035 40086 70422 83214 333 59008;
0178821980999992012011500004-01717-045400FM-12+004499999V0203601N003612200019N0002001N1+02711+02351101101ADDGA1001+999999999GF100991001001999999001001KA1240M+03451MA1999999100591MD1999999-0081REMSYN082AAXX  15004 82198 32992 03607 10271 20235 30059 40110 333 10345 29070 55104 59008;
0156821980999992012011512004-01717-045400FM-12+004499999V0200701N001510450019N0020001N1+02881+02391101211ADDGF107991031021004501011041KA1240N+02511MA1999999100701MD1999999+0111REMSYN076AAXX  15124 82198 32495 70703 10288 20239 30070 40121 83214 333 20251 58011;
0137821980999992012011518004-01717-045400FM-12+004499999V0200501N004610042019N0020001N1+03261+02211100891ADDGF105991051021004501001001MA1999999100381MD1999999+0031REMSYN070AAXX  15184 82198 32495 50509 10326 20221 30038 40089 85200 333 58003;
0168821980999992012011600004-01717-045400FM-12+004499999V0203601N003112200019N0002001N1+02721+02321101111ADDGF102991021021004501001001KA1240M+03351MA1999999100601MD1999999+0011REMSYN088AAXX  16004 82198 32492 23606 10272 20232 30060 40111 82200 333 10335 29072 55069 58001;
0201821980999992012011612004-01717-045400FM-12+004499999V0201801N003610450019N0010001N1+02371+02091100151ADDAA124014091AY161061AY221061GF108991041071004501021999KA1240N+02301MA1999999100931MD1999999+0231MW1621REMSYN088AAXX  16124 82198 21494 81807 10237 20209 30093 40015 76262 8472/ 333 20230 58023 60144;
0182821980999992012011618004-01717-045400FM-12+004499999V0203601N004610450019N0010001N1+02331+02161101111ADDAA106022191AY161061AY221061GF108991041071004501021999MA1999999100601MD1999999+0281MW1531REMSYN082AAXX  16184 82198 21494 83609 10233 20216 30060 40111 75362 8472/ 333 58028 60221;
0213821980999992012011700004-01717-045400FM-12+004499999V0200501N002610150019N0002001N1+02251+02101101451ADDAA106034091AY161061AY261061GF108991081001017501021999KA1240M+02851MA1999999100931MD1999999+0331MW1631REMSYN100AAXX  17004 82198 21792 80505 10225 20210 30093 40145 76366 8802/ 333 10285 29091 55000 58033 60341;
0201821980999992012011712004-01717-045400FM-12+004499999V0200201N000510042019N0020001N1+02581+02441101271ADDAA124057991AY161061AY221061GF108991051051004501041999KA1240N+02101MA1999999100761MD1999999-0171MW1021REMSYN088AAXX  17124 82198 21495 80201 10258 20244 30076 40127 70262 8554/ 333 20210 59017 60584;
0137821980999992012011718004-01717-045400FM-12+004499999V0203601N004610450019N0020001N1+03111+02341100801ADDGF106991031021004501031001MA1999999100291MD1999999-0311REMSYN070AAXX  17184 82198 32495 63609 10311 20234 30029 40080 83230 333 59031;
0168821980999992012011800004-01717-045400FM-12+004499999V0200501N001512200019N0002001N1+02641+02411101071ADDGF103991031031004501001001KA1240M+03201MA1999999100561MD1999999-0371REMSYN088AAXX  18004 82198 32492 30503 10264 20241 30056 40107 83300 333 10320 29082 55062 59037;
0156821980999992012011812004-01717-045400FM-12+004499999V0200701N002110450019N0020001N1+02821+02401101151ADDGF107991041021004501031001KA1240N+02441MA1999999100641MD1999999-0121REMSYN076AAXX  18124 82198 32495 70704 10282 20240 30064 40115 84230 333 20244 59012;
0137821980999992012011818004-01717-045400FM-12+004499999V0200201N003610450019N0020001N1+03111+02181100691ADDGF106991031021004501031011MA1999999100181MD1999999-0111REMSYN070AAXX  18184 82198 32495 60207 10311 20218 30018 40069 83231 333 59011;
0178821980999992012011900004-01717-045400FM-12+004499999V0200501N002112200019N0002001N1+02651+02411100971ADDGA1001+999999999GF100991001001999999001001KA1240M+03231MA1999999100461MD1999999-0101REMSYN082AAXX  19004 82198 32992 00504 10265 20241 30046 40097 333 10323 29077 55075 59010;
0201821980999992012011912004-01717-045400FM-12+004499999V0202301N002110042019N0020001N1+02541+02381101171ADDAA124000391AY151061AY221061GF108991051041004501031999KA1240N+02411MA1999999100661MD1999999+0021MW1021REMSYN088AAXX  19124 82198 21495 82304 10254 20238 30066 40117 70252 8543/ 333 20241 58002 69934;
0137821980999992012011918004-01717-045400FM-12+004499999V0200201N003610450019N0020001N1+03091+02241100741ADDGF107991041031004501041001MA1999999100231MD1999999+0051REMSYN070AAXX  19184 82198 32495 70207 10309 20224 30023 40074 84340 333 58005;
0168821980999992012012000004-01717-045400FM-12+004499999V0200501N003112200019N0002001N1+02641+02351100991ADDGF102991021031004501001001KA1240M+03201MA1999999100481MD1999999+0021REMSYN088AAXX  20004 82198 32492 20506 10264 20235 30048 40099 82300 333 10320 29080 55028 58002;
0156821980999992012012012004-01717-045400FM-12+004499999V0200701N003110450019N0020001N1+02891+02371101061ADDGF105991031021004501061001KA1240N+02301MA1999999100551MD1999999-0111REMSYN076AAXX  20124 82198 32495 50706 10289 20237 30055 40106 83260 333 20230 59011;
0182821980999992012012018004-01717-045400FM-12+004499999V0200201N003610450019N0020001N1+02971+02421100731ADDAA106000891AY151061AY221061GF105991021031004501041001MA1999999100221MD1999999-0011MW1021REMSYN082AAXX  20184 82198 21495 50207 10297 20242 30022 40073 70252 82340 333 59001 69981;
0178821980999992012012100004-01717-045400FM-12+004499999V0200501N002112200019N0002001N1+02641+02411100951ADDGA1001+999999999GF100991001001999999001001KA1240M+03161MA1999999100441MD1999999-0041REMSYN082AAXX  21004 82198 32992 00504 10264 20241 30044 40095 333 10316 29080 55073 59004;
0173821980999992012012112004-01717-045400FM-12+004499999V0200501N004610450019N0020001N1+02861+02281101061ADDAA124000891GF106991031021004501031001KA1240N+02491MA1999999100551MD1999999+0001REMSYN082AAXX  21124 82198 22495 60509 10286 20228 30055 40106 83230 333 20249 58000 69984;
0137821980999992012012118004-01717-045400FM-12+004499999V0200201N003610450019N0020001N1+03121+02221100651ADDGF105991041021004501061001MA1999999100141MD1999999-0081REMSYN070AAXX  21184 82198 32495 50207 10312 20222 30014 40065 84260 333 59008;
0168821980999992012012200004-01717-045400FM-12+004499999V0200201N002612200019N0002001N1+02681+02391100871ADDGF103991031021004501001001KA1240M+03241MA1999999100361MD1999999-0081REMSYN088AAXX  22004 82198 32492 30205 10268 20239 30036 40087 83200 333 10324 29074 55060 59008;
0175821980999992012012212004-01717-045400FM-12+004499999V0200701N002119999999N0020001N1+03011+02391100921ADDGF105991999041004501021041KA1240N+02481MA1999999100411MD1999999-0141REMSYN076AAXX  22124 82198 32495 50704 10301 20239 30041 40092 88424 333 20248 59014;EQDQ01+000082SCOTLC
0182821980999992012012218004-01717-045400FM-12+004499999V0203601N003610042019N0010001N1+02681+02431100591ADDAA106007191AY121061AY211061GF108991051071004501021999MA1999999100081MD1999999-0061MW1631REMSYN082AAXX  22184 82198 21494 83607 10268 20243 30008 40059 76321 8572/ 333 59006 60071;
0168821980999992012012300004-01717-045400FM-12+004499999V0200701N002110450019N0002001N1+02611+02401100881ADDGF105991031031004501041001KA1240M+03201MA1999999100371MD1999999+0011REMSYN088AAXX  23004 82198 32492 50704 10261 20240 30037 40088 83340 333 10320 29084 55077 58001;
0201821980999992012012312004-01717-045400FM-12+004499999V0200501N001510450019N0020001N1+02551+02251101061ADDAA124011991AY161061AY221061GF107991041031004501041001KA1240N+02371MA1999999100551MD1999999+0141MW1211REMSYN088AAXX  23124 82198 21495 70503 10255 20225 30055 40106 72162 84340 333 20237 58014 60124;
0182821980999992012012318004-01717-045400FM-12+004499999V0200201N002110042019N0010001N1+02391+02261100821ADDAA106017091AY161061AY221061GF108991051071004501021999MA1999999100311MD1999999+0231MW1611REMSYN082AAXX  23184 82198 21494 80204 10239 20226 30031 40082 76162 8572/ 333 58023 60171;
0213821980999992012012400004-01717-045400FM-12+004499999V0202501N001510042019N0002001N1+02301+02251101091ADDAA106023191AY161061AY221061GF108991051071004501021999KA1240M+02891MA1999999100581MD1999999+0211MW1021REMSYN100AAXX  24004 82198 21492 82503 10230 20225 30058 40109 70262 8572/ 333 10289 29091 55017 58021 60231;
0173821980999992012012412004-01717-045400FM-12+004499999V0202001N002110450019N0020001N1+02481+02381101091ADDAA124039991GF108991041051004501011999KA1240N+02221MA1999999100581MD1999999+0031REMSYN082AAXX  24124 82198 22495 82004 10248 20238 30058 40109 8451/ 333 20222 58003 60404;
0182821980999992012012418004-01717-045400FM-12+004499999V0200701N000510450019N0020001N1+02891+02361100761ADDAA106007191AY161061AY221061GF108991041031004501011999MA1999999100251MD1999999-0061MW1021REMSYN082AAXX  24184 82198 21495 80701 10289 20236 30025 40076 70262 8431/ 333 59006 60071;
0168821980999992012012500004-01717-045400FM-12+004499999V0200501N002119999999N0002001N1+02521+02381100961ADDGF107991999999999999999999KA1240M+02951MA1999999100451MD1999999-0131REMSYN088AAXX  25004 82198 32992 70504 10252 20238 30045 40096 8//// 333 10295 29089 55005 59013;
0173821980999992012012512004-01717-045400FM-12+004499999V0200501N004610450019N0020001N1+02831+02361101061ADDAA124011991GF106991041021004501031041KA1240N+02381MA1999999100551MD1999999-0031REMSYN082AAXX  25124 82198 22495 60509 10283 20236 30055 40106 84234 333 20238 59003 60124;
0165821980999992012012518004-01717-045400FM-12+004499999V0200501N004610450019N0020001N1+03101+02261100801ADDAY121061AY221061GF106991041021004501061001MA1999999100291MD1999999+0041MW1151REMSYN076AAXX  25184 82198 31495 60509 10310 20226 30029 40080 71522 84260 333 58004;
0184821980999992012012600004-01717-045400FM-12+004499999V0200501N002610003019N0002001N1+02631+02351101021ADDGA1091+999999999GF109991091999999999999999KA1240M+03281MA1999999100511MD1999999+0061REMSYN088AAXX  26004 82198 32/92 90505 10263 20235 30051 40102 8//// 333 10328 29078 55073 58006;
0173821980999992012012612004-01717-045400FM-12+004499999V0200501N003112200019N0020001N1+02871+02311101051ADDAA124002091GF106991041021004501001041KA1240N+02441MA1999999100541MD1999999-0011REMSYN082AAXX  26124 82198 22495 60506 10287 20231 30054 40105 84204 333 20244 59001 60024;
0137821980999992012012618004-01717-045400FM-12+004499999V0200501N003610450019N0020001N1+03201+02271100791ADDGF106991041021004501061011MA1999999100281MD1999999-0041REMSYN070AAXX  26184 82198 32495 60507 10320 20227 30028 40079 84261 333 59004;
0178821980999992012012700004-01717-045400FM-12+004499999V0200501N002612200019N0002001N1+02651+02271101051ADDGA1001+999999999GF100991001001999999001001KA1240M+03281MA1999999100541MD1999999+0031REMSYN082AAXX  27004 82198 32992 00505 10265 20227 30054 40105 333 10328 29074 55093 58003;
0156821980999992012012812004-01717-045400FM-12+004499999V0203601N002610042019N0020001N1+02851+02341101181ADDGF107991071021004501001001KA1240N+02381MA1999999100671MD1999999+0121REMSYN076AAXX  28124 82198 32495 73605 10285 20234 30067 40118 87200 333 20238 58012;
0137821980999992012012818004-01717-045400FM-12+004499999V0203601N004112200019N0020001N1+02951+02291100921ADDGF106991031021004501001011MA1999999100411MD1999999+0081REMSYN070AAXX  28184 82198 32495 63608 10295 20229 30041 40092 83201 333 58008;
0168821980999992012012900004-01717-045400FM-12+004499999V0200501N002112200019N0002001N1+02631+02311101081ADDGF102991021021004501001001KA1240M+03131MA1999999100571MD1999999+0101REMSYN088AAXX  29004 82198 32492 20504 10263 20231 30057 40108 82200 333 10313 29078 55074 58010;
0156821980999992012012912004-01717-045400FM-12+004499999V0200501N003110450019N0020001N1+02821+02331101151ADDGF107991041071004501061001KA1240N+02461MA1999999100641MD1999999-0031REMSYN076AAXX  29124 82198 32495 70506 10282 20233 30064 40115 84760 333 20246 59003;
0137821980999992012012918004-01717-045400FM-12+004499999V0203601N003610450019N0020001N1+02991+02271100861ADDGF106991041021004501061001MA1999999100351MD1999999-0061REMSYN070AAXX  29184 82198 32495 63607 10299 20227 30035 40086 84260 333 59006;
0168821980999992012013000004-01717-045400FM-12+004499999V0200501N002112200019N0002001N1+02621+02351101021ADDGF101991011011004501001001KA1240M+03191MA1999999100511MD1999999-0061REMSYN088AAXX  30004 82198 32492 10504 10262 20235 30051 40102 81100 333 10319 29078 55047 59006;
0156821980999992012013012004-01717-045400FM-12+004499999V0200501N002610450019N0020001N1+02881+02391101121ADDGF107991041021004501061011KA1240N+02431MA1999999100611MD1999999-0031REMSYN076AAXX  30124 82198 32495 70505 10288 20239 30061 40112 84261 333 20243 59003;
0168821980999992012013100004-01717-045400FM-12+004499999V0200501N002612200019N0002001N1+02651+02271100931ADDGF102991021011004501001001KA1240M+03261MA1999999100421MD1999999-0091REMSYN088AAXX  31004 82198 32492 20505 10265 20227 30042 40093 82100 333 10326 29076 55080 59009;
0156821980999992012013112004-01717-045400FM-12+004499999V0200501N003610042019N0020001N1+02911+02321101041ADDGF106991051021004501001011KA1240N+02331MA1999999100531MD1999999-0111REMSYN076AAXX  31124 82198 32495 60507 10291 20232 30053 40104 85201 333 20233 59011;
0137821980999992012013118004-01717-045400FM-12+004499999V0200701N005112200019N0020001N1+03201+02241100691ADDGF104991041021004501001001MA1999999100181MD1999999-0111REMSYN070AAXX  31184 82198 32495 40710 10320 20224 30018 40069 84200 333 59011;
0168821980999992012020100004-01717-045400FM-12+004499999V0200501N002612200019N0002001N1+02671+02331100931ADDGF102991021021004501001001KA1240M+03341MA1999999100421MD1999999+0001REMSYN088AAXX  01004 82198 32492 20505 10267 20233 30042 40093 82200 333 10334 29072 55106 58000;
0156821980999992012020112004-01717-045400FM-12+004499999V0200501N002610042019N0100001N1+02931+02291101051ADDGF105991051021004501001001KA1240N+02351MA1999999100541MD1999999+0011REMSYN076AAXX  01124 82198 32497 50505 10293 20229 30054 40105 85200 333 20235 58001;
0137821980999992012020118004-01717-045400FM-12+004499999V0200701N005710042019N0020001N1+03161+02261100711ADDGF106991061021004501001001MA1999999100201MD1999999+0021REMSYN070AAXX  01184 82198 32495 60711 10316 20226 30020 40071 86200 333 58002;
0178821980999992012020200004-01717-045400FM-12+004499999V0200501N002112200019N0002001N1+02681+02391100931ADDGA1001+999999999GF100991001001999999001001KA1240M+03281MA1999999100421MD1999999+0001REMSYN082AAXX  02004 82198 32992 00504 10268 20239 30042 40093 333 10328 29074 55104 58000;
0156821980999992012020212004-01717-045400FM-12+004499999V0200701N005110450019N0020001N1+02851+02281101031ADDGF106991041021004501061001KA1240N+02401MA1999999100521MD1999999-0021REMSYN076AAXX  02124 82198 32495 60710 10285 20228 30052 40103 84260 333 20240 59002;
0137821980999992012020218004-01717-045400FM-12+004499999V0200701N005110450019N0020001N1+03111+02021100701ADDGF105991041021004501061001MA1999999100191MD1999999-0011REMSYN070AAXX  02184 82198 32495 50710 10311 20202 30019 40070 84260 333 59001;
0168821980999992012020300004-01717-045400FM-12+004499999V0200501N002112200019N0002001N1+02631+02291100871ADDGF102991021021004501001001KA1240M+03261MA1999999100361MD1999999-0061REMSYN088AAXX  03004 82198 32492 20504 10263 20229 30036 40087 82200 333 10326 29072 55092 59006;
0156821980999992012020312004-01717-045400FM-12+004499999V0200501N005710042019N0020001N1+02931+02241100991ADDGF105991051021004501001001KA1240N+02361MA1999999100481MD1999999-0041REMSYN076AAXX  03124 82198 32495 50511 10293 20224 30048 40099 85200 333 20236 59004;
0137821980999992012020318004-01717-045400FM-12+004499999V0200701N006212200019N0020001N1+03161+02261100611ADDGF104991041021004501001001MA1999999100101MD1999999-0091REMSYN070AAXX  03184 82198 32495 40712 10316 20226 30010 40061 84200 333 59009;
0156821980999992012020412004-01717-045400FM-12+004499999V0200701N005110042019N0020001N1+02911+02301101021ADDGF106991061021004501001001KA1240N+02401MA1999999100511MD1999999+0031REMSYN076AAXX  04124 82198 32495 60710 10291 20230 30051 40102 86200 333 20240 58003;
0137821980999992012020418004-01717-045400FM-12+004499999V0200701N005110450019N0020001N1+03171+02131100631ADDGF107991031021004501041001MA1999999100121MD1999999+0021REMSYN070AAXX  04184 82198 32495 70710 10317 20213 30012 40063 83240 333 58002;
0168821980999992012020500004-01717-045400FM-12+004499999V0200501N001512200019N0002001N1+02701+02391100881ADDGF104991021011004501061001KA1240M+03251MA1999999100371MD1999999-0021REMSYN088AAXX  05004 82198 32492 40503 10270 20239 30037 40088 82160 333 10325 29072 55075 59002;
0156821980999992012020512004-01717-045400FM-12+004499999V0200701N005110042019N0020001N1+02921+02341100961ADDGF108991051021004501061001KA1240N+02401MA1999999100451MD1999999-0061REMSYN076AAXX  05124 82198 32495 80710 10292 20234 30045 40096 85260 333 20240 59006;
0137821980999992012020518004-01717-045400FM-12+004499999V0200701N004610450019N0020001N1+03161+02171100631ADDGF106991021021004501011001MA1999999100121MD1999999+0001REMSYN070AAXX  05184 82198 32495 60709 10316 20217 30012 40063 82210 333 58000;
0168821980999992012020600004-01717-045400FM-12+004499999V0200501N001510450019N0002001N1+02681+02391100881ADDGF105991021011004501061001KA1240M+03371MA1999999100371MD1999999+0001REMSYN088AAXX  06004 82198 32492 50503 10268 20239 30037 40088 82160 333 10337 29074 55075 58000;
0156821980999992012020612004-01717-045400FM-12+004499999V0200501N002110450019N0020001N1+02951+02401101031ADDGF106991041021004501061001KA1240N+02441MA1999999100521MD1999999+0071REMSYN076AAXX  06124 82198 32495 60504 10295 20240 30052 40103 84260 333 20244 58007;
0137821980999992012020618004-01717-045400FM-12+004499999V0200501N006710450019N0020001N1+03121+02221100751ADDGF105991031021004501061001MA1999999100241MD1999999+0121REMSYN070AAXX  06184 82198 32495 50513 10312 20222 30024 40075 83260 333 58012;
0168821980999992012020700004-01717-045400FM-12+004499999V0200701N002110450019N0002001N1+02701+02391100981ADDGF106991031021004501031001KA1240M+03251MA1999999100471MD1999999+0101REMSYN088AAXX  07004 82198 32492 60704 10270 20239 30047 40098 83230 333 10325 29074 55064 58010;
0143821980999992012020712004-01717-045400FM-12+004499999V0200501N003110450019N0020001N1+02891+02251101011ADDGF106991031021004501061001MA1999999100501MD1999999-0021REMSYN076AAXX  07124 82198 32495 60506 10289 20225 30050 40101 83260 333 2//// 59002;
0201821980999992012020718004-01717-045400FM-12+004499999V0203601N005110450019N0020001N1+02771+02441100801ADDAA106000091AY151061AY221061GF106991041021004501061001MA1999999100291MD1999999+0051MW1021REMSYN082AAXX  07184 82198 21495 63610 10277 20244 30029 40080 70252 84260 333 58005 69921;EQDQ01  00002PRCP06
0168821980999992012020800004-01717-045400FM-12+004499999V0200501N002612200019N0002001N1+02641+02391100991ADDGF101991011011004501001001KA1240M+03101MA1999999100481MD1999999+0011REMSYN088AAXX  08004 82198 32492 10505 10264 20239 30048 40099 81100 333 10310 29081 55086 58001;
0188821980999992012020812004-01717-045400FM-12+004499999V0203601N003610450019N0020001N1+02681+02431101011ADDAA124000591AY121061AY221061GF107991041071004501061001MA1999999100501MD1999999+0001MW1211REMSYN088AAXX  08124 82198 21495 73607 10268 20243 30050 40101 72122 84760 333 2//// 58000 69964;
0182821980999992012020818004-01717-045400FM-12+004499999V0203601N003610450019N0020001N1+02551+02481100851ADDAA106040991AY161061AY221061GF108991041071004501021999MA1999999100341MD1999999+0051MW1621REMSYN082AAXX  08184 82198 21495 83607 10255 20248 30034 40085 76262 8472/ 333 58005 60411;
0213821980999992012020900004-01717-045400FM-12+004499999V0200501N002110450019N0002001N1+02541+02441100991ADDAA106003091AY161061AY221061GF106991041021004501061011KA1240M+02971MA1999999100481MD1999999+0001MW1211REMSYN100AAXX  09004 82198 21492 60504 10254 20244 30048 40099 72162 84261 333 10297 29092 55015 58000 60031;
0188821980999992012020912004-01717-045400FM-12+004499999V0200501N002610042019N0020001N1+02671+02371101141ADDAA124043991AY151061AY221061GF108991061051004501031011MA1999999100621MD1999999+0121MW1031REMSYN088AAXX  09124 82198 21495 80505 10267 20237 30062 40114 70352 86531 333 2//// 58012 60444;
0137821980999992012020918004-01717-045400FM-12+004499999V0203601N003610450019N0020001N1+02971+02291101201ADDGF107991031071004501061011MA1999999100681MD1999999+0071REMSYN070AAXX  09184 82198 32495 73607 10297 20229 30068 40120 83761 333 58007;
0168821980999992012021000004-01717-045400FM-12+004499999V0200501N002110450019N0002001N1+02601+02371101071ADDGF106991041071004501061001KA1240M+03141MA1999999100561MD1999999+0081REMSYN088AAXX  10004 82198 32492 60504 10260 20237 30056 40107 84760 333 10314 29082 55035 58008;
0143821980999992012021012004-01717-045400FM-12+004499999V0203601N002110450019N0020001N1+02791+02401101141ADDGF108991041021004501031011MA1999999100631MD1999999+0011REMSYN076AAXX  10124 82198 32495 83604 10279 20240 30063 40114 84231 333 2//// 58001;
0137821980999992012021018004-01717-045400FM-12+004499999V0203601N004610450019N0020001N1+02951+02421100861ADDGF106991041071004501061041MA1999999100351MD1999999-0061REMSYN070AAXX  10184 82198 32495 63609 10295 20242 30035 40086 84764 333 59006;
0213821980999992012021100004-01717-045400FM-12+004499999V0200501N001010450019N0002001N1+02601+02421101091ADDAA106002091AY121061AY221061GF106991041021004501061001KA1240M+03161MA1999999100581MD1999999+0021MW1201REMSYN100AAXX  11004 82198 21492 60502 10260 20242 30058 40109 72022 84260 333 10316 29082 55044 58002 60021;
0160821980999992012021112004-01717-045400FM-12+004499999V0200901N001510450019N0020001N1+02481+02341101171ADDAA124002091GF108991041051004501061011MA1999999100661MD1999999+0031REMSYN082AAXX  11124 82198 22495 80903 10248 20234 30066 40117 84561 333 2//// 58003 60024;
0165821980999992012021118004-01717-045400FM-12+004499999V0200701N005710450019N0020001N1+02961+02181100961ADDAY121061AY221061GF108991041071004501061011MA1999999100451MD1999999+0101MW1151REMSYN076AAXX  11184 82198 31495 80711 10296 20218 30045 40096 71522 84761 333 58010;
0168821980999992012021200004-01717-045400FM-12+004499999V0200701N002110042019N0002001N1+02591+02351101091ADDGF108991051071004501021999KA1240M+03111MA1999999100581MD1999999+0001REMSYN088AAXX  12004 82198 32492 80704 10259 20235 30058 40109 8572/ 333 10311 29082 55027 58000;
0188821980999992012021212004-01717-045400FM-12+004499999V0201101N003610450019N0020001N1+02671+02381101231ADDAA124000891AY151061AY221061GF108991041071004501031041MA1999999100711MD1999999+0051MW1021REMSYN088AAXX  12124 82198 21495 81107 10267 20238 30071 40123 70252 84734 333 2//// 58005 69974;
0182821980999992012021218004-01717-045400FM-12+004499999V0203601N003110450019N0020001N1+02901+02251100831ADDAA106000891AY161061AY221061GF107991041071004501061001MA1999999100521MD1999999-0131MW1021REMSYN082AAXX  12184 82198 21495 73606 10290 20225 30052 40083 70262 84760 333 59013 69981;
0168821980999992012021300004-01717-045400FM-12+004499999V0200501N002610450019N0002001N1+02621+02351101091ADDGF108991041011004501021999KA1240M+03081MA1999999100581MD1999999+0001REMSYN088AAXX  13004 82198 32492 80505 10262 20235 30058 40109 8412/ 333 10308 29082 55030 58000;
0188821980999992012021312004-01717-045400FM-12+004499999V0200701N001510450019N0020001N1+02491+02351101121ADDAA124024991AY161061AY221061GF107991041071004501061011MA1999999100611MD1999999-0101MW1211REMSYN088AAXX  13124 82198 21495 70703 10249 20235 30061 40112 72162 84761 333 2//// 59010 60254;
0182821980999992012021318004-01717-045400FM-12+004499999V0200501N005110450019N0020001N1+02871+02291100821ADDAA106002091AY161061AY221061GF107991041021004501011041MA1999999100311MD1999999-0011MW1091REMSYN082AAXX  13184 82198 21495 70510 10287 20229 30031 40082 70962 84214 333 59001 60021;
0184821980999992012021400004-01717-045400FM-12+004499999V0200501N002110003019N0002001N1+02621+02391101001ADDGA1091+999999999GF109991091999999999999999KA1240M+02951MA1999999100491MD1999999-0091REMSYN088AAXX  14004 82198 32/92 90504 10262 20239 30049 40100 8//// 333 10295 29086 55025 59009;
0160821980999992012021412004-01717-045400FM-12+004499999V0200701N002610042019N0020001N1+02711+02411101171ADDAA124002091GF108991061051004501041999MA1999999100661MD1999999+0051REMSYN082AAXX  14124 82198 22495 80705 10271 20241 30066 40117 8654/ 333 2//// 58005 60024;
0182821980999992012021418004-01717-045400FM-12+004499999V0200201N003610042019N0020001N1+02861+02371100781ADDAA106000591AY121061AY221061GF108991051031004501041999MA1999999100271MD1999999-0041MW1201REMSYN082AAXX  14184 82198 21495 80207 10286 20237 30027 40078 72022 8534/ 333 59004 69961;
0168821980999992012021500004-01717-045400FM-12+004499999V0200501N002110042019N0002001N1+02631+02411101071ADDGF108991051031004501041999KA1240M+03181MA1999999100561MD1999999+0071REMSYN088AAXX  15004 82198 32492 80504 10263 20241 30056 40107 8534/ 333 10318 29084 55023 58007;
0188821980999992012021512004-01717-045400FM-12+004499999V0201801N001010042019N0020001N1+02701+02351101181ADDAA124001091AY151061AY221061GF108991051071004501041999MA1999999100671MD1999999+0011MW1021REMSYN088AAXX  15124 82198 21495 81802 10270 20235 30067 40118 70252 8574/ 333 2//// 58001 69994;
0182821980999992012021518004-01717-045400FM-12+004499999V0202301N002110042019N0010001N1+02261+02181101041ADDAA106018091AY191061AY261061GF108991061071004501021999MA1999999100531MD1999999+0261MW1211REMSYN082AAXX  15184 82198 21494 82304 10226 20218 30053 40104 72196 8672/ 333 58026 60181;
0213821980999992012021600004-01717-045400FM-12+004499999V0201801N001510042019N0002001N1+02231+02191101221ADDAA106006191AY161061AY221061GF108991051071004501021999KA1240M+02781MA1999999100711MD1999999+0151MW1021REMSYN100AAXX  16004 82198 21492 81803 10223 20219 30071 40122 70262 8572/ 333 10278 29093 55002 58015 60061;
0188821980999992012021612004-01717-045400FM-12+004499999V0203201N001010450019N0020001N1+02381+02221101331ADDAA124032091AY161061AY251061GF108991031031004501041999MA1999999100821MD1999999+0151MW1021REMSYN088AAXX  16124 82198 21495 83202 10238 20222 30082 40133 70265 8334/ 333 2//// 58015 60324;
0137821980999992012021618004-01717-045400FM-12+004499999V0203601N001510450019N0020001N1+02891+02321100891ADDGF107991031031004501021001MA1999999100381MD1999999-0151REMSYN070AAXX  16184 82198 32495 73603 10289 20232 30038 40089 83320 333 59015;
0168821980999992012021700004-01717-045400FM-12+004499999V0203501N001012200019N0002001N1+02481+02271101111ADDGF103991031001012501041001KA1240M+02961MA1999999100601MD1999999-0111REMSYN088AAXX  17004 82198 32692 33502 10248 20227 30060 40111 83040 333 10296 29084 55029 59011;
0143821980999992012021712004-01717-045400FM-12+004499999V0200201N001510450019N0020001N1+02571+02271101191ADDGF108991041031004501041999MA1999999100681MD1999999-0141REMSYN076AAXX  17124 82198 32495 80203 10257 20227 30068 40119 8434/ 333 2//// 59014;
0137821980999992012021718004-01717-045400FM-12+004499999V0203601N002610450019N0020001N1+02821+02201100851ADDGF107991041021004501041001MA1999999100341MD1999999-0041REMSYN070AAXX  17184 82198 32495 73605 10282 20220 30034 40085 84240 333 59004;
0168821980999992012021800004-01717-045400FM-12+004499999V0203201N001512200019N0002001N1+02461+02301101121ADDGF103991031021004501001001KA1240M+02901MA1999999100611MD1999999+0011REMSYN088AAXX  18004 82198 32492 33203 10246 20230 30061 40112 83200 333 10290 29084 55016 58001;
0143821980999992012021812004-01717-045400FM-12+004499999V0201101N001510450019N0020001N1+02621+02441101241ADDGF107991031021004501051001MA1999999100731MD1999999+0051REMSYN076AAXX  18124 82198 32495 71103 10262 20244 30073 40124 83250 333 2//// 58005;
0137821980999992012021818004-01717-045400FM-12+004499999V0203601N003110450019N0020001N1+02881+02351100771ADDGF106991031021004501061001MA1999999100261MD1999999-0081REMSYN070AAXX  18184 82198 32495 63606 10288 20235 30026 40077 83260 333 59008;
0168821980999992012021900004-01717-045400FM-12+004499999V0200501N002112200019N0002001N1+02611+02401101071ADDGF104991041001012501061001KA1240M+03081MA1999999100561MD1999999-0051REMSYN088AAXX  19004 82198 32692 40504 10261 20240 30056 40107 84060 333 10308 29085 55035 59005;
0188821980999992012021912004-01717-045400FM-12+004499999V0201401N002110450019N0020001N1+02591+02421101281ADDAA124004191AY161061AY221061GF106991031021004501061001MA1999999100771MD1999999+0041MW1021REMSYN088AAXX  19124 82198 21495 61404 10259 20242 30077 40128 70262 83260 333 2//// 58004 60044;
0137821980999992012021918004-01717-045400FM-12+004499999V0203601N002110450019N0020001N1+02981+02331100761ADDGF105991031021004501061001MA1999999100251MD1999999-0011REMSYN070AAXX  19184 82198 32495 53604 10298 20233 30025 40076 83260 333 59001;
0168821980999992012022000004-01717-045400FM-12+004499999V0200501N002112200019N0002001N1+02681+02331101021ADDGF102991021001012501061001KA1240M+03171MA1999999100511MD1999999-0051REMSYN088AAXX  20004 82198 32692 20504 10268 20233 30051 40102 82060 333 10317 29080 55066 59005;
0143821980999992012022012004-01717-045400FM-12+004499999V0203601N001510450019N0020001N1+02771+02341101041ADDGF107991041071004501021001MA1999999100531MD1999999-0241REMSYN076AAXX  20124 82198 32495 73603 10277 20234 30053 40104 84720 333 2//// 59024;
0182821980999992012022018004-01717-045400FM-12+004499999V0203601N002610042019N0020001N1+02641+02411100851ADDAA106042991AY161061AY221061GF108991051031004501041999MA1999999100341MD1999999+0091MW1021REMSYN082AAXX  20184 82198 21495 83605 10264 20241 30034 40085 70262 8534/ 333 58009 60431;
0213821980999992012022100004-01717-045400FM-12+004499999V0200501N002612200019N0002001N1+02521+02381101131ADDAA106002091AY161061AY221061GF103991031031004501001001KA1240M+02861MA1999999100611MD1999999+0101MW1021REMSYN100AAXX  21004 82198 21492 30505 10252 20238 30061 40113 70262 83300 333 10286 29087 55020 58010 60021;
0160821980999992012022112004-01717-045400FM-12+004499999V0201801N002110450019N0020001N1+02651+02351101081ADDAA124043991GF107991041021004501031041MA1999999100571MD1999999+0041REMSYN082AAXX  21124 82198 22495 71804 10265 20235 30057 40108 84234 333 2//// 58004 60444;
0182821980999992012022118004-01717-045400FM-12+004499999V0203501N003610042019N0020001N1+02461+02381100991ADDAA106025991AY161061AY221061GF108991051071004501021999MA1999999100481MD1999999+0141MW1631REMSYN082AAXX  21184 82198 21495 83507 10246 20238 30048 40099 76362 8572/ 333 58014 60261;
0213821980999992012022200004-01717-045400FM-12+004499999V0200501N002112200019N0002001N1+02381+02251101091ADDAA106003091AY161061AY221061GF102991021021004501001001KA1240M+02991MA1999999100581MD1999999-0031MW1211REMSYN100AAXX  22004 82198 21492 20504 10238 20225 30058 40109 72162 82200 333 10299 29093 55046 59003 60031;
0160821980999992012022212004-01717-045400FM-12+004499999V0203601N001510450019N0020001N1+02811+02401101071ADDAA124029091GF106991041021004501061001MA1999999100561MD1999999-0011REMSYN082AAXX  22124 82198 22495 63603 10281 20240 30056 40107 84260 333 2//// 59001 60294;
0137821980999992012022218004-01717-045400FM-12+004499999V0203601N002610450019N0020001N1+02981+02421100731ADDGF106991031021004501061011MA1999999100221MD1999999-0261REMSYN070AAXX  22184 82198 32495 63605 10298 20242 30022 40073 83261 333 59026;
0196821980999992012022300004-01717-045400FM-12+004499999V0203601N002612200019N0002001N1+02641+02351100951ADDAY111061AY201061GF102991021011004501001001KA1240M+03131MA1999999100441MD1999999-0141MW1131REMSYN094AAXX  23004 82198 31492 23605 10264 20235 30044 40095 71310 82100 333 10313 29080 55077 59014;
0188821980999992012022312004-01717-045400FM-12+004499999V0203601N003610450019N0020001N1+02841+02401101031ADDAA124000591AY151061AY221061GF106991041021004501061041MA1999999100521MD1999999-0041MW1031REMSYN088AAXX  23124 82198 21495 63607 10284 20240 30052 40103 70352 84264 333 2//// 59004 69944;
0182821980999992012022318004-01717-045400FM-12+004499999V0200501N004110450019N0020001N1+02581+02371100841ADDAA106003091AY161061AY221061GF108991041031004501021999MA1999999100331MD1999999+0111MW1621REMSYN082AAXX  23184 82198 21495 80508 10258 20237 30033 40084 76262 8432/ 333 58011 60031;
0213821980999992012022400004-01717-045400FM-12+004499999V0203601N002612200019N0002001N1+02671+02271100941ADDAA106000021AY151061AY201061GF102991021021004501001001KA1240M+02921MA1999999100431MD1999999-0011MW1011REMSYN100AAXX  24004 82198 21492 23605 10267 20227 30043 40094 70150 82200 333 10292 29082 55038 59001 69921;
0188821980999992012022412004-01717-045400FM-12+004499999V0203601N004612200019N0020001N1+02811+02291100961ADDAA124005191AY161061AY221061GF106991041021004501001011MA1999999100451MD1999999-0071MW1031REMSYN088AAXX  24124 82198 21495 63609 10281 20229 30045 40096 70362 84201 333 2//// 59007 60054;
0137821980999992012022418004-01717-045400FM-12+004499999V0203601N003610450019N0020001N1+03001+02081100711ADDGF105991031021004501011061MA1999999100201MD1999999-0131REMSYN070AAXX  24184 82198 32495 53607 10300 20208 30020 40071 83216 333 59013;
0168821980999992012022500004-01717-045400FM-12+004499999V0203601N002612200019N0020001N1+02651+02311100981ADDGF102991021011004501001001KA1240M+03091MA1999999100471MD1999999+0041REMSYN088AAXX  25004 82198 32495 23605 10265 20231 30047 40098 82100 333 10309 29075 55101 58004;
0156821980999992012022512004-01717-045400FM-12+004499999V0200501N002610450019N0020001N1+02821+02381100951ADDGF105991031021004501041011KA1240N+02361MA1999999100641MD1999999-0091REMSYN076AAXX  25124 82198 32495 50505 10282 20238 30064 40095 83241 333 20236 59009;
0182821980999992012022518004-01717-045400FM-12+004499999V0203601N003110450019N0020001N1+02881+02281100701ADDAA106000391AY151061AY221061GF106991031071004501061001MA1999999100191MD1999999-0011MW1031REMSYN082AAXX  25184 82198 21495 63606 10288 20228 30019 40070 70352 83760 333 59001 69931;
0178821980999992012022600004-01717-045400FM-12+004499999V0200501N002612200019N0002001N1+02611+02371100981ADDGA1001+999999999GF100991001001999999001001KA1240M+03151MA1999999100471MD1999999+0001REMSYN082AAXX  26004 82198 32992 00505 10261 20237 30047 40098 333 10315 29080 55065 58000;
0173821980999992012022612004-01717-045400FM-12+004499999V0201401N002110450019N0020001N1+02801+02421101191ADDAA124000391GF106991031071004501061011KA1240N+02291MA1999999100681MD1999999+0141REMSYN082AAXX  26124 82198 22495 61404 10280 20242 30068 40119 83761 333 20229 58014 69934;
0182821980999992012022618004-01717-045400FM-12+004499999V0203601N003610450019N0020001N1+02931+02301100841ADDAA106010991AY161061AY221061GF107991041071004501041061MA1999999100331MD1999999+0141MW1031REMSYN082AAXX  26184 82198 21495 73607 10293 20230 30033 40084 70362 84746 333 58014 60111;
0168821980999992012022700004-01717-045400FM-12+004499999V0200501N002112200019N0002001N1+02601+02401101101ADDGF104991021021004501061001KA1240M+03051MA1999999100591MD1999999+0121REMSYN088AAXX  27004 82198 32492 40504 10260 20240 30059 40110 82260 333 10305 29082 55049 58012;
0201821980999992012022712004-01717-045400FM-12+004499999V0200501N000510450019N0020001N1+02631+02391101171ADDAA124014091AY161061AY221061GF106991031021004501041041KA1240N+02301MA1999999100661MD1999999-0021MW1031REMSYN088AAXX  27124 82198 21495 60501 10263 20239 30066 40117 70362 83244 333 20230 59002 60144;
0182821980999992012022718004-01717-045400FM-12+004499999V0200501N004610450019N0020001N1+02901+02321100921ADDAA106000591AY151061AY221061GF107991041021004501041061MA1999999100411MD1999999+0081MW1031REMSYN082AAXX  27184 82198 21495 70509 10290 20232 30041 40092 70352 84246 333 58008 69951;
0196821980999992012022800004-01717-045400FM-12+004499999V0200701N002612200019N0002001N1+02571+02391101141ADDAY111061AY211061GF103991021011004501011001KA1240M+03021MA1999999100631MD1999999+0041MW1131REMSYN094AAXX  28004 82198 31492 30705 10257 20239 30063 40114 71311 82110 333 10302 29084 55055 58004;
0201821980999992012022812004-01717-045400FM-12+004499999V0200901N000510042019N0020001N1+02421+02301101271ADDAA124007191AY161061AY221061GF108991061051004501041999KA1240N+02131MA1999999100761MD1999999+0101MW1531REMSYN088AAXX  28124 82198 21495 80901 10242 20230 30076 40127 75362 8654/ 333 20213 58010 60074;
0182821980999992012022818004-01717-045400FM-12+004499999V0200701N001010042019N0020001N1+02671+02461100921ADDAA106007191AY161061AY221061GF108991051051004501021999MA1999999100411MD1999999+0001MW1211REMSYN082AAXX  28184 82198 21495 80702 10267 20246 30041 40092 72162 8552/ 333 58000 60071;
0213821980999992012022900004-01717-045400FM-12+004499999V0200701N001510450019N0002001N1+02511+02361101161ADDAA106004191AY161061AY221061GF105991031031004501041001KA1240M+02871MA1999999100651MD1999999+0021MW1021REMSYN100AAXX  29004 82198 21492 50703 10251 20236 30065 40116 70262 83340 333 10287 29091 55012 58002 60041;
0173821980999992012022912004-01717-045400FM-12+004499999V0200701N004610042019N0020001N1+02911+02341101171ADDAA124010991GF107991051021004501001021KA1240N+02301MA1999999100661MD1999999-0101REMSYN082AAXX  29124 82198 22495 70709 10291 20234 30066 40117 85202 333 20230 59010 60114;
0182821980999992012022918004-01717-045400FM-12+004499999V0200501N004610450019N0020001N1+03061+02401100781ADDAA106002091AY161061AY221061GF106991041021004501061001MA1999999100271MD1999999-0141MW1021REMSYN082AAXX  29184 82198 21495 60509 10306 20240 30027 40078 70262 84260 333 59014 60021;
0168821980999992012030100004-01717-045400FM-12+004499999V0200501N002112200019N0002001N1+02631+02411101031ADDGF104991021021004501061001KA1240M+03141MA1999999100521MD1999999-0131REMSYN088AAXX  01004 82198 32492 40504 10263 20241 30052 40103 82260 333 10314 29079 55094 59013;
0173821980999992012030112004-01717-045400FM-12+004499999V0200701N003610450019N0020001N1+02971+02491101161ADDAA124002091GF106991041021004501041021KA1240N+02411MA1999999100651MD1999999-0011REMSYN082AAXX  01124 82198 22495 60707 10297 20249 30065 40116 84242 333 20241 59001 60024;
0182821980999992012030118004-01717-045400FM-12+004499999V0200201N003610450019N0020001N1+02851+02351100931ADDAA106006191AY191061AY261061GF107991041031004501041001MA1999999100421MD1999999+0151MW1021REMSYN082AAXX  01184 82198 21495 70207 10285 20235 30042 40093 70296 84340 333 58015 60061;
0168821980999992012030200004-01717-045400FM-12+004499999V0200201N002110450019N0002001N1+02601+02401101141ADDGF107991041031004501061001KA1240M+03141MA1999999100631MD1999999+0111REMSYN088AAXX  02004 82198 32492 70204 10260 20240 30063 40114 84360 333 10314 29082 55038 58011;
0173821980999992012030212004-01717-045400FM-12+004499999V0203601N003110450019N0020001N1+02881+02411101071ADDAA124006191GF106991031021004501061021KA1240N+02461MA1999999100561MD1999999-0091REMSYN082AAXX  02124 82198 22495 63606 10288 20241 30056 40107 83262 333 20246 59009 60064;
0137821980999992012030218004-01717-045400FM-12+004499999V0203601N004110450019N0020001N1+03021+02391100851ADDGF105991031021004501061011MA1999999100341MD1999999-0081REMSYN070AAXX  02184 82198 32495 53608 10302 20239 30034 40085 83261 333 59008;
0168821980999992012030300004-01717-045400FM-12+004499999V0200501N002112200019N0002001N1+02631+02371101141ADDGF103991031021004501001001KA1240M+03101MA1999999100631MD1999999+0001REMSYN088AAXX  03004 82198 32492 30504 10263 20237 30063 40114 83200 333 10310 29084 55079 58000;
0156821980999992012030312004-01717-045400FM-12+004499999V0203601N004110450019N0020001N1+02811+02291101261ADDGF106991041021004501061001KA1240N+02401MA1999999100751MD1999999+0191REMSYN076AAXX  03124 82198 32495 63608 10281 20229 30075 40126 84260 333 20240 58019;
0182821980999992012030318004-01717-045400FM-12+004499999V0203501N003110450019N0020001N1+02421+02281100881ADDAA106007991AY161061AY221061GF105991031031004501041001MA1999999100371MD1999999+0031MW1021REMSYN082AAXX  03184 82198 21495 53506 10242 20228 30037 40088 70262 83340 333 58003 60081;
0168821980999992012030400004-01717-045400FM-12+004499999V0200501N002110042019N0002001N1+02581+02371101161ADDGF107991051021004501041001KA1240M+03081MA1999999100651MD1999999+0021REMSYN088AAXX  04004 82198 32492 70504 10258 20237 30065 40116 85240 333 10308 29086 55059 58002;
0201821980999992012030412004-01717-045400FM-12+004499999V0200701N002110450019N0020001N1+02761+02541101271ADDAA124015091AY161061AY221061GF106991041021004501061001KA1240N+02131MA1999999100761MD1999999+0011MW1021REMSYN088AAXX  04124 82198 21495 60704 10276 20254 30076 40127 70262 84260 333 20213 58001 60154;
0137821980999992012030418004-01717-045400FM-12+004499999V0203601N005110042019N0020001N1+02951+02331100881ADDGF105991051021004501001001MA1999999100371MD1999999+0001REMSYN070AAXX  04184 82198 32495 53610 10295 20233 30037 40088 85200 333 58000;
0168821980999992012030500004-01717-045400FM-12+004499999V0200501N002112200019N0002001N1+02581+02331101091ADDGF104991021011004501061001KA1240M+03071MA1999999100581MD1999999-0071REMSYN088AAXX  05004 82198 32492 40504 10258 20233 30058 40109 82160 333 10307 29082 55065 59007;
0156821980999992012030512004-01717-045400FM-12+004499999V0203601N004110042019N0020001N1+02931+02471101121ADDGF106991051021004501061001KA1240N+02431MA1999999100611MD1999999-0151REMSYN076AAXX  05124 82198 32495 63608 10293 20247 30061 40112 85260 333 20243 59015;
0182821980999992012030518004-01717-045400FM-12+004499999V0203601N002610042019N0020001N1+02621+02421100871ADDAA106002091AY121061AY221061GF107991051031004501041001MA1999999100361MD1999999-0011MW1211REMSYN082AAXX  05184 82198 21495 73605 10262 20242 30036 40087 72122 85340 333 59001 60021;
0168821980999992012030600004-01717-045400FM-12+004499999V0200201N002110042019N0002001N1+02661+02391101091ADDGF107991051031004501041001KA1240M+03051MA1999999100581MD1999999+0001REMSYN088AAXX  06004 82198 32492 70204 10266 20239 30058 40109 85340 333 10305 29084 55065 58000;
0173821980999992012030612004-01717-045400FM-12+004499999V0200501N001010450019N0020001N1+02821+02381101181ADDAA124002091GF106991041021004501061001KA1240N+02501MA1999999100671MD1999999+0051REMSYN082AAXX  06124 82198 22495 60502 10282 20238 30067 40118 84260 333 20250 58005 60024;
0182821980999992012030618004-01717-045400FM-12+004499999V0203601N001510450019N0020001N1+02741+02431100871ADDAA106002091AY161061AY221061GF106991031021004501061011MA1999999100361MD1999999+0001MW1021REMSYN082AAXX  06184 82198 21495 63603 10274 20243 30036 40087 70262 83261 333 58000 60021;
0168821980999992012030700004-01717-045400FM-12+004499999V0200501N002112200019N0002001N1+02611+02401101031ADDGF104991021021004501011061KA1240M+03161MA1999999100521MD1999999-0061REMSYN088AAXX  07004 82198 32492 40504 10261 20240 30052 40103 82216 333 10316 29084 55075 59006;
0173821980999992012030712004-01717-045400FM-12+004499999V0200501N001510450019N0020001N1+02821+02441101081ADDAA124002091GF106991031021004501061041KA1240N+02381MA1999999100571MD1999999+0091REMSYN082AAXX  07124 82198 22495 60503 10282 20244 30057 40108 83264 333 20238 58009 60024;
0165821980999992012030718004-01717-045400FM-12+004499999V0203601N004110450019N0020001N1+02761+02361100821ADDAY121061AY221061GF106991041071004501061041MA1999999100311MD1999999-0051MW1151REMSYN076AAXX  07184 82198 31495 63608 10276 20236 30031 40082 71522 84764 333 59005;
0168821980999992012030800004-01717-045400FM-12+004499999V0203601N003110450019N0020001N1+02641+02351101101ADDGF107991041021004501021001KA1240M+03061MA1999999100591MD1999999+0071REMSYN088AAXX  08004 82198 32495 73606 10264 20235 30059 40110 84220 333 10306 29082 55045 58007;
0201821980999992012030812004-01717-045400FM-12+004499999V0201101N001010450019N0020001N1+02571+02401101191ADDAA124003091AY121061AY221061GF107991041071004501041041KA1240N+02281MA1999999100681MD1999999+0111MW1211REMSYN088AAXX  08124 82198 21495 71102 10257 20240 30068 40119 72122 84744 333 20228 58011 60034;
0182821980999992012030818004-01717-045400FM-12+004499999V0200501N002110450019N0020001N1+02491+02281100901ADDAA106016091AY161061AY221061GF107991041071004501061011MA1999999100391MD1999999+0081MW1021REMSYN082AAXX  08184 82198 21495 70504 10249 20228 30039 40090 70262 84761 333 58008 60161;
0213821980999992012030900004-01717-045400FM-12+004499999V0200501N001510450019N0002001N1+02551+02481101101ADDAA106000891AY161061AY221061GF106991031021004501031041KA1240M+03001MA1999999100591MD1999999+0001MW1011REMSYN100AAXX  09004 82198 21492 60503 10255 20248 30059 40110 70162 83234 333 10300 29092 55012 58000 69971;
0173821980999992012030912004-01717-045400FM-12+004499999V0200501N003612200019N0020001N1+02931+02461101181ADDAA124017091GF106991041021004501001011KA1240N+02351MA1999999100671MD1999999-0011REMSYN082AAXX  09124 82198 22495 60507 10293 20246 30067 40118 84201 333 20235 59001 60174;
0182821980999992012030918004-01717-045400FM-12+004499999V0203601N003610450019N0010001N1+02681+02411100911ADDAA106008991AY161061AY221061GF106991041031004501041061MA1999999100401MD1999999+0011MW1621REMSYN082AAXX  09184 82198 21494 63607 10268 20241 30040 40091 76262 84346 333 58001 60091;
0168821980999992012031000004-01717-045400FM-12+004499999V0201101N002610450019N0002001N1+02471+02211101171ADDGF106991021011004501031001KA1240M+03111MA1999999100661MD1999999+0071REMSYN088AAXX  10004 82198 32492 61105 10247 20221 30066 40117 82130 333 10311 29085 55058 58007;
0201821980999992012031012004-01717-045400FM-12+004499999V0200701N002110450019N0020001N1+02601+02421101311ADDAA124010991AY161061AY221061GF108991041031004501021999KA1240N+02401MA1999999100791MD1999999+0121MW1601REMSYN088AAXX  10124 82198 21495 80704 10260 20242 30079 40131 76062 8432/ 333 20240 58012 60114;
0182821980999992012031018004-01717-045400FM-12+004499999V0203601N002610450019N0020001N1+02731+02231100991ADDAA106014091AY161061AY221061GF107991041071004501041041MA1999999100481MD1999999+0081MW1021REMSYN082AAXX  10184 82198 21495 73605 10273 20223 30048 40099 70262 84744 333 58008 60141;
0168821980999992012031100004-01717-045400FM-12+004499999V0200701N002110450019N0002001N1+02571+02461101161ADDGF105991021021004501011001KA1240M+02991MA1999999100651MD1999999-0011REMSYN088AAXX  11004 82198 32492 50704 10257 20246 30065 40116 82210 333 10299 29088 55024 59001;
0173821980999992012031112004-01717-045400FM-12+004499999V0203601N002610042019N0020001N1+02821+02381101261ADDAA124014091GF105991051021004501001001KA1240N+02351MA1999999100741MD1999999-0051REMSYN082AAXX  11124 82198 22495 53605 10282 20238 30074 40126 85200 333 20235 59005 60144;
0213821980999992012031200004-01717-045400FM-12+004499999V0203601N002610450019N0002001N1+02671+02331101161ADDAA106000591AY151061AY221061GF105991031011004501061001KA1240M+03171MA1999999100651MD1999999+0001MW1131REMSYN100AAXX  12004 82198 21492 53605 10267 20233 30065 40116 71352 83160 333 10317 29080 55081 58000 69961;
0201821980999992012031212004-01717-045400FM-12+004499999V0200701N002110450019N0020001N1+02661+02311101161ADDAA124004191AY161061AY221061GF106991031021004501061011KA1240N+02301MA1999999100651MD1999999-0091MW1031REMSYN088AAXX  12124 82198 21495 60704 10266 20231 30065 40116 70362 83261 333 20230 59009 60044;
0213821980999992012031300004-01717-045400FM-12+004499999V0200201N000512200019N0002001N1+02591+02461101121ADDAA106001091AY161061AY221061GF104991011011004501061001KA1240M+02971MA1999999100601MD1999999-0051MW1131REMSYN100AAXX  13004 82198 21492 40201 10259 20246 30060 40112 71362 81160 333 10297 29085 55025 59005 60011;
0201821980999992012031312004-01717-045400FM-12+004499999V0200201N001510042019N0010001N1+02521+02401101321ADDAA124014091AY191061AY261061GF108991051071004501021999KA1240N+02231MA1999999100811MD1999999+0151MW1161REMSYN088AAXX  13124 82198 21494 80203 10252 20240 30081 40132 71696 8572/ 333 20223 58015 60144;
0182821980999992012031318004-01717-045400FM-12+004499999V0203601N003110450019N0020001N1+02781+02401100881ADDAA106005191AY161061AY221061GF107991031041004501041001MA1999999100371MD1999999-0021MW1021REMSYN082AAXX  13184 82198 21495 73606 10278 20240 30037 40088 70262 83440 333 59002 60051;
0168821980999992012031400004-01717-045400FM-12+004499999V0200201N001510450019N0002001N1+02641+02291101161ADDGF106991031021004501041001KA1240M+03021MA1999999100651MD1999999+0051REMSYN088AAXX  14004 82198 32492 60203 10264 20229 30065 40116 83240 333 10302 29084 55017 58005;
0173821980999992012031412004-01717-045400FM-12+004499999V0203601N003110450019N0020001N1+02771+02341101271ADDAA124005191GF107991041021004501031001KA1240N+02311MA1999999100761MD1999999-0051REMSYN082AAXX  14124 82198 22495 73606 10277 20234 30076 40127 84230 333 20231 59005 60054;
0182821980999992012031418004-01717-045400FM-12+004499999V0200701N003610042019N0010001N1+02251+02191101211ADDAA106035191AY161061AY221061GF108991051071004501021999MA1999999100691MD1999999+0321MW1211REMSYN082AAXX  14184 82198 21494 80707 10225 20219 30069 40121 72162 8572/ 333 58032 60351;
0213821980999992012031500004-01717-045400FM-12+004499999V0200901N001510450019N0002001N1+02351+02311101291ADDAA106000591AY151061AY221061GF106991031031004501041001KA1240M+03031MA1999999100771MD1999999+0121MW1021REMSYN100AAXX  15004 82198 21492 60903 10235 20231 30077 40129 70252 83340 333 10303 29092 55012 58012 69941;
0201821980999992012031512004-01717-045400FM-12+004499999V0200501N002610450019N0020001N1+02751+02481101371ADDAA124036191AY161061AY221061GF106991041021004501061001KA1240N+02191MA1999999100861MD1999999+0101MW1021REMSYN088AAXX  15124 82198 21495 60505 10275 20248 30086 40137 70262 84260 333 20219 58010 60364;
0182821980999992012031518004-01717-045400FM-12+004499999V0203601N004110450019N0020001N1+03011+02291100971ADDAA106003091AY161061AY221061GF105991031031004501041001MA1999999100461MD1999999-0231MW1021REMSYN082AAXX  15184 82198 21495 53608 10301 20229 30046 40097 70262 83340 333 59023 60031;
0213821980999992012031600004-01717-045400FM-12+004499999V0200701N002110450019N0002001N1+02601+02441101261ADDAA106000891AY151061AY221061GF105991031031004501041001KA1240M+03061MA1999999100751MD1999999-0021MW1021REMSYN100AAXX  16004 82198 21492 50704 10260 20244 30075 40126 70252 83340 333 10306 29084 55028 59002 69971;
0201821980999992012031612004-01717-045400FM-12+004499999V0209999C000010450019N0020001N1+02561+02471101351ADDAA124008991AY161061AY221061GF107991041091004501061001KA1240N+02371MA1999999100841MD1999999-0021MW1021REMSYN088AAXX  16124 82198 21495 70000 10256 20247 30084 40135 70262 84960 333 20237 59002 60094;
0182821980999992012031618004-01717-045400FM-12+004499999V0200201N002110450019N0020001N1+02721+02501100871ADDAA106002091AY121061AY221061GF105991031021004501061001MA1999999100361MD1999999-0101MW1211REMSYN082AAXX  16184 82198 21495 50204 10272 20250 30036 40087 72122 83260 333 59010 60021;
0168821980999992012031700004-01717-045400FM-12+004499999V0200501N002112200019N0002001N1+02581+02421101151ADDGF103991031021004501001001KA1240M+03171MA1999999100641MD1999999-0111REMSYN088AAXX  17004 82198 32492 30504 10258 20242 30064 40115 83200 333 10317 29091 55060 59011;
0173821980999992012031712004-01717-045400FM-12+004499999V0200501N003610042019N0020001N1+02911+02321101091ADDAA124002091GF105991051021004501001001KA1240N+02501MA1999999100581MD1999999-0261REMSYN082AAXX  17124 82198 22495 50507 10291 20232 30058 40109 85200 333 20250 59026 60024;
0137821980999992012031718004-01717-045400FM-12+004499999V0200501N004112200019N0020001N1+03181+02251100711ADDGF104991041021004501001001MA1999999100201MD1999999-0161REMSYN070AAXX  17184 82198 32495 40508 10318 20225 30020 40071 84200 333 59016;
0178821980999992012031800004-01717-045400FM-12+004499999V0200501N002112200019N0002001N1+02651+02411100961ADDGA1001+999999999GF100991001001999999001001KA1240M+03261MA1999999100451MD1999999-0191REMSYN082AAXX  18004 82198 32992 00504 10265 20241 30045 40096 333 10326 29075 55097 59019;
0156821980999992012031812004-01717-045400FM-12+004499999V0200201N003110450019N0020001N1+02881+02411101041ADDGF105991041021004501061001KA1240N+02501MA1999999100531MD1999999-0051REMSYN076AAXX  18124 82198 32495 50206 10288 20241 30053 40104 84260 333 20250 59005;
0137821980999992012031818004-01717-045400FM-12+004499999V0203601N005110450019N0020001N1+02991+02401100651ADDGF105991031021004501041001MA1999999100141MD1999999-0061REMSYN070AAXX  18184 82198 32495 53610 10299 20240 30014 40065 83240 333 59006;
0213821980999992012031900004-01717-045400FM-12+004499999V0200501N002110450019N0002001N1+02661+02431100951ADDAA106000391AY121061AY221061GF105991031031004501021001KA1240M+03131MA1999999100441MD1999999-0011MW1201REMSYN100AAXX  19004 82198 21492 50504 10266 20243 30044 40095 72022 83320 333 10313 29080 55097 59001 69931;
0201821980999992012031912004-01717-045400FM-12+004499999V0200701N002110450019N0020001N1+02761+02441101041ADDAA124002091AY151061AY221061GF106991041031004501061001KA1240N+02501MA1999999100531MD1999999+0001MW1531REMSYN088AAXX  19124 82198 21495 60704 10276 20244 30053 40104 75352 84360 333 20250 58000 60024;
0137821980999992012031918004-01717-045400FM-12+004499999V0200201N003610042019N0020001N1+02821+02401100721ADDGF107991051051004501041001MA1999999100211MD1999999+0071REMSYN070AAXX  19184 82198 32495 70207 10282 20240 30021 40072 85540 333 58007;
0168821980999992012032000004-01717-045400FM-12+004499999V0200201N000512200019N0002001N1+02581+02441100991ADDGF102991021001012501041001KA1240M+03041MA1999999100481MD1999999+0041REMSYN088AAXX  20004 82198 32692 20201 10258 20244 30048 40099 82040 333 10304 29086 55026 58004;
0184821980999992012032012004-01717-045400FM-12+004499999V0200701N001510450019N0020001N1+02801+02341101231ADDAY121061AY221061GF106991041021004501061001KA1240N+02251MA1999999100711MD1999999+0181MW1101REMSYN082AAXX  20124 82198 31495 60703 10280 20234 30071 40123 71022 84260 333 20225 58018;
0182821980999992012032018004-01717-045400FM-12+004499999V0203601N003110450019N0020001N1+02821+02421100821ADDAA106003091AY161061AY291061GF108991041071004501021011MA1999999100311MD1999999+0101MW1621REMSYN082AAXX  20184 82198 21495 83606 10282 20242 30031 40082 76269 84721 333 58010 60031;
0201821980999992012032112004-01717-045400FM-12+004499999V0203201N001010450019N0020001N1+02581+02511101191ADDAA124013091AY111061AY221061GF107991041071004501061011KA1240N+02481MA1999999100681MD1999999-0031MW1101REMSYN088AAXX  21124 82198 21495 73202 10258 20251 30068 40119 71012 84761 333 20248 59003 60134;
0182821980999992012032118004-01717-045400FM-12+004499999V0203601N002110450019N0020001N1+02401+02311101041ADDAA106016091AY191061AY261061GF108991041051004501011999MA1999999100531MD1999999+0021MW1031REMSYN082AAXX  21184 82198 21495 83604 10240 20231 30053 40104 70396 8451/ 333 58002 60161;
0168821980999992012032200004-01717-045400FM-12+004499999V0202901N000510450019N0002001N1+02501+02411101091ADDGF105991031021004501061001KA1240M+02811MA1999999100581MD1999999-0051REMSYN088AAXX  22004 82198 32492 52901 10250 20241 30058 40109 83260 333 10281 29095 55010 59005;
0201821980999992012032212004-01717-045400FM-12+004499999V0203601N002110450019N0020001N1+02841+02541101041ADDAA124016091AY121061AY221061GF106991031021004501031011KA1240N+02291MA1999999100531MD1999999-0151MW1031REMSYN088AAXX  22124 82198 21495 63604 10284 20254 30053 40104 70322 83231 333 20229 59015 60164;
0165821980999992012032218004-01717-045400FM-12+004499999V0203601N004610450019N0020001N1+02831+02401100751ADDAY121061AY221061GF106991031071004501061011MA1999999100241MD1999999-0291MW1151REMSYN076AAXX  22184 82198 31495 63609 10283 20240 30024 40075 71522 83761 333 59029;
0201821980999992012032312004-01717-045400FM-12+004499999V0200901N001510042019N0020001N1+02881+02541101091ADDAA124007191AY161061AY221061GF106991051021004501061001KA1240N+02221MA1999999100581MD1999999+0051MW1021REMSYN088AAXX  23124 82198 21495 60903 10288 20254 30058 40109 70262 85260 333 20222 58005 60074;
0182821980999992012032318004-01717-045400FM-12+004499999V0203501N001010042019N0020001N1+02411+02281100951ADDAA106023991AY161061AY221061GF107991051051004501041001MA1999999100441MD1999999+0201MW1211REMSYN082AAXX  23184 82198 21495 73502 10241 20228 30044 40095 72162 85540 333 58020 60241;
0168821980999992012032400004-01717-045400FM-12+004499999V0200201N001510042019N0002001N1+02581+02441101141ADDGF107991051051004501041001KA1240M+03071MA1999999100631MD1999999+0111REMSYN088AAXX  24004 82198 32492 70203 10258 20244 30063 40114 85540 333 10307 29090 55004 58011;
0201821980999992012032412004-01717-045400FM-12+004499999V0200501N001010450019N0020001N1+02801+02541101241ADDAA124025991AY161061AY221061GF107991041021004501061001KA1240N+02301MA1999999100731MD1999999+0151MW1021REMSYN088AAXX  24124 82198 21495 70502 10280 20254 30073 40124 70262 84260 333 20230 58015 60264;
0182821980999992012032418004-01717-045400FM-12+004499999V0200501N001010450019N0020001N1+02521+02381101041ADDAA106008991AY161061AY221061GF108991031071004501011999MA1999999100531MD1999999+0091MW1021REMSYN082AAXX  24184 82198 21495 80502 10252 20238 30053 40104 70262 8371/ 333 58009 60091;
0213821980999992012032500004-01717-045400FM-12+004499999V0200501N002110042019N0002001N1+02441+02351101281ADDAA106002091AY161061AY221061GF108991051071004501021999KA1240M+02871MA1999999100761MD1999999+0131MW1021REMSYN100AAXX  25004 82198 21492 80504 10244 20235 30076 40128 70262 8572/ 333 10287 29092 55002 58013 60021;
0173821980999992012032512004-01717-045400FM-12+004499999V0200201N002110450019N0020001N1+02861+02521101251ADDAA124010991GF106991041021004501061001KA1240N+02371MA1999999100741MD1999999+0011REMSYN082AAXX  25124 82198 22495 60204 10286 20252 30074 40125 84260 333 20237 58001 60114;
0182821980999992012032518004-01717-045400FM-12+004499999V0200201N001510450019N0020001N1+02581+02481101021ADDAA106006191AY161061AY221061GF108991031071004501011999MA1999999100511MD1999999-0021MW1021REMSYN082AAXX  25184 82198 21495 80203 10258 20248 30051 40102 70262 8371/ 333 59002 60061;
0168821980999992012032600004-01717-045400FM-12+004499999V0200201N001510042019N0002001N1+02571+02441101221ADDGF108991051051004501041001KA1240M+02991MA1999999100711MD1999999-0051REMSYN088AAXX  26004 82198 32492 80203 10257 20244 30071 40122 85540 333 10299 29090 55034 59005;
0201821980999992012032612004-01717-045400FM-12+004499999V0200201N002110450019N0020001N1+02811+02441101171ADDAA124006191AY151061AY221061GF106991041021004501061001KA1240N+02401MA1999999100661MD1999999-0081MW1021REMSYN088AAXX  26124 82198 21495 60204 10281 20244 30066 40117 70252 84260 333 20240 59008 60064;
0182821980999992012032618004-01717-045400FM-12+004499999V0203601N003610450019N0020001N1+02771+02421100831ADDAA106001091AY161061AY221061GF108991041031004501041999MA1999999100321MD1999999-0191MW1021REMSYN082AAXX  26184 82198 21495 83607 10277 20242 30032 40083 70262 8434/ 333 59019 60011;
0168821980999992012032700004-01717-045400FM-12+004499999V0200501N001510450019N0002001N1+02601+02421101091ADDGF108991041051004501021999KA1240M+03061MA1999999100581MD1999999-0131REMSYN088AAXX  27004 82198 32492 80503 10260 20242 30058 40109 8452/ 333 10306 29086 55043 59013;
0173821980999992012032712004-01717-045400FM-12+004499999V0200501N002610450019N0020001N1+02891+02481101081ADDAA124001091GF105991031021004501061011KA1240N+02401MA1999999100571MD1999999-0091REMSYN082AAXX  27124 82198 22495 50505 10289 20248 30057 40108 83261 333 20240 59009 60014;
0137821980999992012032718004-01717-045400FM-12+004499999V0203601N004610450019N0020001N1+02821+02361100751ADDGF108991041031004501041999MA1999999100241MD1999999-0081REMSYN070AAXX  27184 82198 32495 83609 10282 20236 30024 40075 8434/ 333 59008;
0213821980999992012032800004-01717-045400FM-12+004499999V0200501N002610450019N0002001N1+02531+02381101151ADDAA106004191AY161061AY221061GF108991031051004501021999KA1240M+03111MA1999999100631MD1999999+0051MW1211REMSYN100AAXX  28004 82198 21492 80505 10253 20238 30063 40115 72162 8352/ 333 10311 29085 55066 58005 60041;
0201821980999992012032812004-01717-045400FM-12+004499999V0200701N003110042019N0010001N1+02361+02291101421ADDAA124042991AY161061AY221061GF108991051071004501021999KA1240N+02231MA1999999100901MD1999999+0331MW1631REMSYN088AAXX  28124 82198 21494 80706 10236 20229 30090 40142 76362 8572/ 333 20223 58033 60434;
0182821980999992012032818004-01717-045400FM-12+004499999V0203501N003110042019N0020001N1+02521+02401101141ADDAA106008991AY161061AY251061GF108991061071004501041999MA1999999100631MD1999999+0391MW1531REMSYN082AAXX  28184 82198 21495 83506 10252 20240 30063 40114 75365 8674/ 333 58039 60091;
0168821980999992012032900004-01717-045400FM-12+004499999V0201601N000510450019N0002001N1+02461+02371101291ADDGF108991041031004501041999KA1240M+02611MA1999999100781MD1999999+0151REMSYN088AAXX  29004 82198 32492 81601 10246 20237 30078 40129 8434/ 333 10261 29095 55000 58015;
0173821980999992012032912004-01717-045400FM-12+004499999V0200701N002110450019N0020001N1+02841+02541101301ADDAA124008991GF106991041021004501061001KA1240N+02231MA1999999100791MD1999999-0111REMSYN082AAXX  29124 82198 22495 60704 10284 20254 30079 40130 84260 333 20223 59011 60094;
0182821980999992012032918004-01717-045400FM-12+004499999V0200701N001510450019N0020001N1+02631+02481100941ADDAA106017091AY161061AY221061GF107991021031004501041001MA1999999100431MD1999999-0201MW1211REMSYN082AAXX  29184 82198 21495 70703 10263 20248 30043 40094 72162 82340 333 59020 60171;
0213821980999992012033000004-01717-045400FM-12+004499999V0200701N002112200019N0002001N1+02511+02341101271ADDAA106001091AY161061AY221061GF103991031001004501061001KA1240M+03161MA1999999100761MD1999999-0021MW1021REMSYN100AAXX  30004 82198 21492 30704 10251 20234 30076 40127 70262 83060 333 10316 29090 55057 59002 60011;
0173821980999992012033012004-01717-045400FM-12+004499999V0200501N002610042019N0020001N1+02851+02441101371ADDAA124018091GF106991051021004501031001KA1240N+02321MA1999999100861MD1999999+0071REMSYN082AAXX  30124 82198 22495 60505 10285 20244 30086 40137 85230 333 20232 58007 60184;
0137821980999992012033018004-01717-045400FM-12+004499999V0200201N004110450019N0020001N1+03071+02471100921ADDGF106991041021004501061001MA1999999100411MD1999999-0021REMSYN070AAXX  30184 82198 32495 60208 10307 20247 30041 40092 84260 333 59002;
0178821980999992012033100004-01717-045400FM-12+004499999V0200501N003112200019N0002001N1+02671+02431101231ADDGA1001+999999999GF100991001001999999001001KA1240M+03201MA1999999100721MD1999999-0041REMSYN082AAXX  31004 82198 32992 00506 10267 20243 30072 40123 333 10320 29080 55094 59004;
0156821980999992012033112004-01717-045400FM-12+004499999V0200501N002110450019N0020001N1+02891+02481101371ADDGF106991031021004501031001KA1240N+02501MA1999999100861MD1999999+0001REMSYN076AAXX  31124 82198 32495 60504 10289 20248 30086 40137 83230 333 20250 58000;
0182821980999992012033118004-01717-045400FM-12+004499999V0203601N002112200019N0020001N1+03021+02441100971ADDAA106002091AY161061AY221061GF104991031021004501061001MA1999999100461MD1999999+0051MW1021REMSYN082AAXX  31184 82198 21495 43604 10302 20244 30046 40097 70262 83260 333 58005 60021;
0178821980999992012040100004-01717-045400FM-12+004499999V0200501N002112200019N0002001N1+02651+02421101191ADDGA1001+999999999GF100991001001999999001001KA1240M+03071MA1999999100681MD1999999-0041REMSYN082AAXX  01004 82198 32992 00504 10265 20242 30068 40119 333 10307 29082 55049 59004;
0173821980999992012040112004-01717-045400FM-12+004499999V0203601N002610450019N0020001N1+02841+02401101181ADDAA124002091GF106991031021004501031001KA1240N+02431MA1999999100671MD1999999-0191REMSYN082AAXX  01124 82198 22495 63605 10284 20240 30067 40118 83230 333 20243 59019 60024;
0137821980999992012040118004-01717-045400FM-12+004499999V0203601N003610042019N0020001N1+03021+02461100741ADDGF105991051021004501001001MA1999999100231MD1999999-0231REMSYN070AAXX  01184 82198 32495 53607 10302 20246 30023 40074 85200 333 59023;
0178821980999992012040200004-01717-045400FM-12+004499999V0200201N002112200019N0002001N1+02641+02441101041ADDGA1001+999999999GF100991001001999999001001KA1240M+03171MA1999999100531MD1999999-0151REMSYN082AAXX  02004 82198 32992 00204 10264 20244 30053 40104 333 10317 29082 55082 59015;
0156821980999992012040212004-01717-045400FM-12+004499999V0200201N002110450019N0020001N1+02941+02541101061ADDGF106991041021004501061001KA1240N+02501MA1999999100551MD1999999-0121REMSYN076AAXX  02124 82198 32495 60204 10294 20254 30055 40106 84260 333 20250 59012;
0182821980999992012040218004-01717-045400FM-12+004499999V0203601N004610450019N0020001N1+02901+02431100681ADDAA106004191AY161061AY221061GF106991041021004501061001MA1999999100971MD1999999-0061MW1021REMSYN082AAXX  02184 82198 21495 63609 10290 20243 30097 40068 70262 84260 333 59006 60041;
0168821980999992012040300004-01717-045400FM-12+004499999V0200701N002110450019N0002001N1+02651+02441100991ADDGF106991031031004501041001KA1240M+03031MA1999999100481MD1999999-0051REMSYN088AAXX  03004 82198 32492 60704 10265 20244 30048 40099 83340 333 10303 29083 55056 59005;
0173821980999992012040312004-01717-045400FM-12+004499999V0200701N003610042019N0020001N1+02941+02431101061ADDAA124004191GF107991051021004501061001KA1240N+02481MA1999999100551MD1999999+0001REMSYN082AAXX  03124 82198 22495 70707 10294 20243 30055 40106 85260 333 20248 58000 60044;
0182821980999992012040318004-01717-045400FM-12+004499999V0200701N005110450019N0020001N1+02991+02351100691ADDAA106007191AY161061AY221061GF107991041031004501041001MA1999999100181MD1999999+0011MW1021REMSYN082AAXX  03184 82198 21495 70710 10299 20235 30018 40069 70262 84340 333 58001 60071;
0168821980999992012040400004-01717-045400FM-12+004499999V0200701N002110450019N0002001N1+02681+02461100961ADDGF107991031071004501011001KA1240M+03171MA1999999100451MD1999999-0031REMSYN088AAXX  04004 82198 32492 70704 10268 20246 30045 40096 83710 333 10317 29080 55037 59003;
0173821980999992012040412004-01717-045400FM-12+004499999V0200701N003610042019N0020001N1+03021+02481101021ADDAA124007191GF107991051021004501061001KA1240N+02431MA1999999100531MD1999999-0041REMSYN082AAXX  04124 82198 22495 70707 10302 20248 30053 40102 85260 333 20243 59004 60074;
0182821980999992012040418004-01717-045400FM-12+004499999V0200501N005710450019N0020001N1+03151+02341100591ADDAA106000591AY151061AY221061GF105991031021004501061011MA1999999100081MD1999999-0101MW1021REMSYN082AAXX  04184 82198 21495 50511 10315 20234 30008 40059 70252 83261 333 59010 69941;
0168821980999992012040500004-01717-045400FM-12+004499999V0200501N001010450019N0002001N1+02691+02451100911ADDGF106991021021004501031001KA1240M+03251MA1999999100401MD1999999-0051REMSYN088AAXX  05004 82198 32492 60502 10269 20245 30040 40091 82230 333 10325 29077 55076 59005;
0173821980999992012040512004-01717-045400FM-12+004499999V0200701N003110450019N0020001N1+02941+02521100991ADDAA124000591GF107991041021004501031001KA1240N+02461MA1999999100481MD1999999-0031REMSYN082AAXX  05124 82198 22495 70706 10294 20252 30048 40099 84230 333 20246 59003 69944;
0137821980999992012040518004-01717-045400FM-12+004499999V0200501N003110450019N0020001N1+02981+02491100561ADDGF107991041031004501041011MA1999999100051MD1999999-0031REMSYN070AAXX  05184 82198 32495 70506 10298 20249 30005 40056 84341 333 59003;
0201821980999992012040912004-01717-045400FM-12+004499999V0203201N000510450019N0020001N1+02501+02251101011ADDAA124051191AY191061AY261061GF108991041031004501041999KA1240N+02111MA1999999100531MD1999999+0151MW1021REMSYN088AAXX  09124 82198 21495 83201 10250 20225 30053 40101 70296 8434/ 333 20211 58015 60514;
0137821980999992012040918004-01717-045400FM-12+004499999V0203601N003110450019N0020001N1+03101+02411100651ADDGF107991041031004501041001MA1999999100141MD1999999+0111REMSYN070AAXX  09184 82198 32495 73606 10310 20241 30014 40065 84340 333 58011;
0168821980999992012041000004-01717-045400FM-12+004499999V0200201N002110450019N0002001N1+02661+02431100921ADDGF107991031021004501041001KA1240M+03131MA1999999100411MD1999999+0061REMSYN088AAXX  10004 82198 32492 70204 10266 20243 30041 40092 83240 333 10313 29082 55023 58006;
0156821980999992012041012004-01717-045400FM-12+004499999V0203601N003610450019N0020001N1+02961+02471101041ADDGF107991041021004501031001KA1240N+02451MA1999999100531MD1999999+0001REMSYN076AAXX  10124 82198 32495 73607 10296 20247 30053 40104 84230 333 20245 58000;
0182821980999992012041018004-01717-045400FM-12+004499999V0203601N003610450019N0020001N1+02761+02461100751ADDAA106005191AY151061AY221061GF106991041031004501061001MA1999999100241MD1999999+0101MW1211REMSYN082AAXX  10184 82198 21495 63607 10276 20246 30024 40075 72152 84360 333 58010 60051;
0168821980999992012041100004-01717-045400FM-12+004499999V0200501N002112200019N0002001N1+02641+02441100991ADDGF102991021031004501001001KA1240M+03061MA1999999100481MD1999999+0071REMSYN088AAXX  11004 82198 32492 20504 10264 20244 30048 40099 82300 333 10306 29084 55047 58007;
0173821980999992012041112004-01717-045400FM-12+004499999V0200501N003110042019N0020001N1+03041+02481101151ADDAA124005191GF106991051021004501061001KA1240N+02431MA1999999100641MD1999999+0111REMSYN082AAXX  11124 82198 22495 60506 10304 20248 30064 40115 85260 333 20243 58011 60054;
0137821980999992012041118004-01717-045400FM-12+004499999V0200201N003110450019N0020001N1+03091+02371100751ADDGF105991041021004501061001MA1999999100241MD1999999+0001REMSYN070AAXX  11184 82198 32495 50206 10309 20237 30024 40075 84260 333 58000;
0173821980999992012041212004-01717-045400FM-12+004499999V0200201N002110450019N0020001N1+02931+02451101081ADDAA124001091GF106991041021004501061001KA1240N+02411MA1999999100571MD1999999-0071REMSYN082AAXX  12124 82198 22495 60204 10293 20245 30057 40108 84260 333 20241 59007 60014;
0201821980999992012041312004-01717-045400FM-12+004499999V0200201N003110450019N0020001N1+02991+02491100991ADDAA124000891AY151061AY221061GF105991031021004501061011KA1240N+02421MA1999999100481MD1999999-0091MW1021REMSYN088AAXX  13124 82198 21495 50206 10299 20249 30048 40099 70252 83261 333 20242 59009 69984;
0182821980999992012041318004-01717-045400FM-12+004499999V0200501N001010042019N0010001N1+02711+02581100691ADDAA106031091AY161061AY221061GF108991051071004501021999MA1999999100181MD1999999-0011MW1631REMSYN082AAXX  13184 82198 21494 80502 10271 20258 30018 40069 76362 8572/ 333 59001 60311;
0213821980999992012041400004-01717-045400FM-12+004499999V0200501N001512200019N0002001N1+02541+02451100951ADDAA106005191AY191061AY261061GF103991031031004501001001KA1240M+03101MA1999999100441MD1999999+0061MW1011REMSYN100AAXX  14004 82198 21492 30503 10254 20245 30044 40095 70196 83300 333 10310 29090 55042 58006 60051;
0173821980999992012041412004-01717-045400FM-12+004499999V0200201N002110042019N0020001N1+02861+02541101041ADDAA124036191GF108991051021004501061999KA1240N+02361MA1999999100531MD1999999+0051REMSYN082AAXX  14124 82198 22495 80204 10286 20254 30053 40104 8526/ 333 20236 58005 60364;
0182821980999992012041418004-01717-045400FM-12+004499999V0203601N003110450019N0020001N1+02771+02421100681ADDAA106008991AY191061AY261061GF107991041031004501041001MA1999999100171MD1999999-0011MW1021REMSYN082AAXX  14184 82198 21495 73606 10277 20242 30017 40068 70296 84340 333 59001 60091;
0168821980999992012041500004-01717-045400FM-12+004499999V0200501N001510450019N0002001N1+02681+02481100991ADDGF106991031021004501041001KA1240M+02991MA1999999100481MD1999999+0041REMSYN088AAXX  15004 82198 32492 60503 10268 20248 30048 40099 83240 333 10299 29086 55010 58004;
0173821980999992012041512004-01717-045400FM-12+004499999V0200501N001510042019N0020001N1+02861+02521101081ADDAA124008991GF108991061051004501041999KA1240N+02331MA1999999100571MD1999999+0041REMSYN082AAXX  15124 82198 22495 80503 10286 20252 30057 40108 8654/ 333 20233 58004 60094;
0182821980999992012041518004-01717-045400FM-12+004499999V0200701N002110042019N0020001N1+02801+02541100731ADDAA106007191AY161061AY221061GF108991051051004501041999MA1999999100221MD1999999+0051MW1021REMSYN082AAXX  15184 82198 21495 80704 10280 20254 30022 40073 70262 8554/ 333 58005 60071;
0168821980999992012041600004-01717-045400FM-12+004499999V0200701N001010450019N0002001N1+02631+02481101021ADDGF108991041071004501041999KA1240M+02931MA1999999100511MD1999999+0031REMSYN088AAXX  16004 82198 32492 80702 10263 20248 30051 40102 8474/ 333 10293 29088 55008 58003;
0173821980999992012041612004-01717-045400FM-12+004499999V0200201N002110450019N0020001N1+02921+02501101011ADDAA124007191GF107991041021004501061001KA1240N+02481MA1999999100501MD1999999-0071REMSYN082AAXX  16124 82198 22495 70204 10292 20250 30050 40101 84260 333 20248 59007 60074;
0182821980999992012041618004-01717-045400FM-12+004499999V0203601N002610042019N0010001N1+02741+02481100761ADDAA106007991AY191061AY261061GF108991061051004501021999MA1999999100251MD1999999+0031MW1161REMSYN082AAXX  16184 82198 21494 83605 10274 20248 30025 40076 71696 8652/ 333 58003 60081;
0213821980999992012041700004-01717-045400FM-12+004499999V0203501N000510042019N0002001N1+02421+02331101071ADDAA106022191AY161061AY221061GF107991051051004501041001KA1240M+02951MA1999999100551MD1999999+0041MW1021REMSYN100AAXX  17004 82198 21492 73501 10242 20233 30055 40107 70262 85540 333 10295 29088 55016 58004 60221;
0201821980999992012041712004-01717-045400FM-12+004499999V0200701N002110042019N0020001N1+02601+02501101191ADDAA124032091AY161061AY221061GF107991051031004501041001KA1240N+02291MA1999999100681MD1999999+0141MW1021REMSYN088AAXX  17124 82198 21495 70704 10260 20250 30068 40119 70262 85340 333 20229 58014 60324;
0182821980999992012041718004-01717-045400FM-12+004499999V0203601N003610450019N0020001N1+02631+02441100931ADDAA106016091AY191061AY261061GF107991031031004501021001MA1999999100421MD1999999+0171MW1211REMSYN082AAXX  17184 82198 21495 73607 10263 20244 30042 40093 72196 83320 333 58017 60161;
0213821980999992012041800004-01717-045400FM-12+004499999V0200701N001512200019N0002001N1+02561+02401101181ADDAA106003091AY161061AY221061GF102991021031004501001001KA1240M+03041MA1999999100671MD1999999+0121MW1011REMSYN100AAXX  18004 82198 21492 20703 10256 20240 30067 40118 70162 82300 333 10304 29092 55015 58012 60031;
0173821980999992012041812004-01717-045400FM-12+004499999V0200701N002610450019N0020001N1+02971+02471101191ADDAA124019191GF105991031021004501061041KA1240N+02341MA1999999100681MD1999999+0001REMSYN082AAXX  18124 82198 22495 50705 10297 20247 30068 40119 83264 333 20234 58000 60194;
0182821980999992012041818004-01717-045400FM-12+004499999V0200201N002110450019N0020001N1+03011+02371100741ADDAA106003091AY121061AY221061GF105991031021004501061001MA1999999100231MD1999999-0191MW1211REMSYN082AAXX  18184 82198 21495 50204 10301 20237 30023 40074 72122 83260 333 59019 60031;
0178821980999992012041900004-01717-045400FM-12+004499999V0200701N002112200019N0002001N1+02651+02391100961ADDGA1001+999999999GF100991001001999999001001KA1240M+03261MA1999999100451MD1999999-0221REMSYN082AAXX  19004 82198 32992 00704 10265 20239 30045 40096 333 10326 29079 55085 59022;
0173821980999992012041912004-01717-045400FM-12+004499999V0200201N002610042019N0020001N1+02921+02471100971ADDAA124003091GF105991051021004501001001KA1240N+02411MA1999999100461MD1999999-0221REMSYN082AAXX  19124 82198 22495 50205 10292 20247 30046 40097 85200 333 20241 59022 60034;
0182821980999992012041918004-01717-045400FM-12+004499999V0200501N002610042019N0020001N1+02661+02461100631ADDAA106007191AY161061AY251061GF108991051051004501021999MA1999999100121MD1999999-0111MW1211REMSYN082AAXX  19184 82198 21495 80505 10266 20246 30012 40063 72165 8552/ 333 59011 60071;
0168821980999992012042000004-01717-045400FM-12+004499999V0200701N001510450019N0002001N1+02621+02421100891ADDGF105991031031004501041001KA1240M+03131MA1999999100381MD1999999-0071REMSYN088AAXX  20004 82198 32492 50703 10262 20242 30038 40089 83340 333 10313 29086 55051 59007;
0173821980999992012042012004-01717-045400FM-12+004499999V0200501N001510450019N0020001N1+02861+02521100941ADDAA124007191GF107991041021004501031001KA1240N+02461MA1999999100431MD1999999-0031REMSYN082AAXX  20124 82198 22495 70503 10286 20252 30043 40094 84230 333 20246 59003 60074;
0182821980999992012042018004-01717-045400FM-12+004499999V0200501N003110042019N0020001N1+02621+02441100781ADDAA106018091AY161061AY221061GF108991051031004501041999MA1999999100271MD1999999+0151MW1211REMSYN082AAXX  20184 82198 21495 80506 10262 20244 30027 40078 72162 8534/ 333 58015 60181;
0213821980999992012042100004-01717-045400FM-12+004499999V0200201N002110450019N0002001N1+02451+02341100951ADDAA106002091AY161061AY251061GF108991041071004501021999KA1240M+03031MA1999999100431MD1999999+0051MW1021REMSYN100AAXX  21004 82198 21492 80204 10245 20234 30043 40095 70265 8472/ 333 10303 29090 55024 58005 60021;
0201821980999992012042112004-01717-045400FM-12+004499999V0200201N001010450019N0020001N1+02641+02441101131ADDAA124023991AY161061AY221061GF106991041021004501061001KA1240N+02401MA1999999100621MD1999999+0191MW1021REMSYN088AAXX  21124 82198 21495 60202 10264 20244 30062 40113 70262 84260 333 20240 58019 60244;
0168821980999992012042200004-01717-045400FM-12+004499999V0200701N002110450019N0002001N1+02601+02421101061ADDGF107991041031004501061001KA1240M+02981MA1999999100551MD1999999+0121REMSYN088AAXX  22004 82198 32492 70704 10260 20242 30055 40106 84360 333 10298 29089 55011 58012;
0173821980999992012042212004-01717-045400FM-12+004499999V0200701N003110450019N0020001N1+02931+02501101121ADDAA124015091GF106991041021004501061011KA1240N+02401MA1999999100611MD1999999-0011REMSYN082AAXX  22124 82198 22495 60706 10293 20250 30061 40112 84261 333 20240 59001 60154;
0201821980999992012042218004-01717-045400FM-12+004499999V0200501N003110450019N0020001N1+02961+02401100651ADDAA106000091AY151061AY221061GF106991041021004501061001MA1999999100141MD1999999-0131MW1021REMSYN082AAXX  22184 82198 21495 60506 10296 20240 30014 40065 70252 84260 333 59013 69921;EQDQ01  00002PRCP06
0168821980999992012042300004-01717-045400FM-12+004499999V0200501N002112200019N0002001N1+02671+02431100971ADDGF104991021021004501041001KA1240M+03131MA1999999100461MD1999999-0091REMSYN088AAXX  23004 82198 32492 40504 10267 20243 30046 40097 82240 333 10313 29080 55072 59009;
0192821980999992012042312004-01717-045400FM-12+004499999V0200501N001510042019N0020001N1+02931+02561101021ADDAA124000091GF106991051021004501061001KA1240N+02481MA1999999100511MD1999999-0101REMSYN082AAXX  23124 82198 22495 60503 10293 20256 30051 40102 85260 333 20248 59010 69924;EQDQ01  00002PRCP24
0182821980999992012042318004-01717-045400FM-12+004499999V0200701N003110450019N0020001N1+02801+02581100691ADDAA106006191AY161061AY221061GF108991041051004501021999MA1999999100181MD1999999+0041MW1211REMSYN082AAXX  23184 82198 21495 80706 10280 20258 30018 40069 72162 8452/ 333 58004 60061;
0213821980999992012042400004-01717-045400FM-12+004499999V0200701N002110042019N0002001N1+02561+02471100961ADDAA106007991AY161061AY221061GF108991061051004501041999KA1240M+03101MA1999999100441MD1999999-0021MW1021REMSYN100AAXX  24004 82198 21492 80704 10256 20247 30044 40096 70262 8654/ 333 10310 29090 55037 59002 60081;
0173821980999992012042412004-01717-045400FM-12+004499999V0200701N003110450019N0020001N1+02831+02501100931ADDAA124014091GF106991021021004501031001KA1240N+02401MA1999999100421MD1999999-0091REMSYN082AAXX  24124 82198 22495 60706 10283 20250 30042 40093 82230 333 20240 59009 60144;
0137821980999992012042418004-01717-045400FM-12+004499999V0200501N004110042019N0020001N1+03171+02391100541ADDGF106991051021004501061001MA1999999100031MD1999999-0151REMSYN070AAXX  24184 82198 32495 60508 10317 20239 30003 40054 85260 333 59015;
0197821980999992012042500004-01717-045400FM-12+004499999V0200501N002112200019N0002001N1+02661+02461100241ADDGA1001+999999999GF100991001001999999001001KA1240M+99999MA1999999100461MD1999999-0201REMSYN082AAXX  25004 82198 32992 00504 10266 20246 30046 40024 333 10075 29081 55080 59020;EQDQ01 +00752ATMX  
0156821980999992012042512004-01717-045400FM-12+004499999V0200501N002610450019N0020001N1+02991+02421100891ADDGF106991041021004501061021KA1240N+02481MA1999999100381MD1999999-0041REMSYN076AAXX  25124 82198 32495 60505 10299 20242 30038 40089 84262 333 20248 59004;
0137821980999992012042518004-01717-045400FM-12+004499999V0200501N003110450019N0020001N1+03061+02401100571ADDGF107991041021004501061001MA1999999100061MD1999999+0031REMSYN070AAXX  25184 82198 32495 70506 10306 20240 30006 40057 84260 333 58003;
0168821980999992012042600004-01717-045400FM-12+004499999V0200701N001512200019N0002001N1+02691+02461100811ADDGF102991021031004501001001KA1240M+03261MA1999999100301MD1999999+0061REMSYN088AAXX  26004 82198 32492 20703 10269 20246 30030 40081 82300 333 10326 29079 55084 58006;
0156821980999992012042612004-01717-045400FM-12+004499999V0200501N003110042019N0020001N1+02971+02511100921ADDGF107991051031004501041001KA1240N+02501MA1999999100411MD1999999+0031REMSYN076AAXX  26124 82198 32495 70506 10297 20251 30041 40092 85340 333 20250 58003;
0182821980999992012042618004-01717-045400FM-12+004499999V0200201N003610042019N0020001N1+03091+02491100541ADDAA106000591AY151061AY221061GF107991051031004501041001MA1999999100031MD1999999-0031MW1151REMSYN082AAXX  26184 82198 21495 70207 10309 20249 30003 40054 71552 85340 333 59003 69941;
0213821980999992012042700004-01717-045400FM-12+004499999V0200701N001510450019N0002001N1+02621+02481100791ADDAA106003091AY161061AY221061GF106991041021004501041001KA1240M+03201MA1999999100281MD1999999-0021MW1021REMSYN100AAXX  27004 82198 21492 60703 10262 20248 30028 40079 70262 84240 333 10320 29083 55073 59002 60031;
0173821980999992012042712004-01717-045400FM-12+004499999V0200701N003110042019N0020001N1+02981+02511100861ADDAA124003091GF106991051021004501061001KA1240N+02481MA1999999100351MD1999999-0061REMSYN082AAXX  27124 82198 22495 60706 10298 20251 30035 40086 85260 333 20248 59006 60034;
0182821980999992012042718004-01717-045400FM-12+004499999V0200701N003110450019N0020001N1+02831+02441100551ADDAA106002091AY161061AY221061GF107991041031004501041001MA1999999100041MD1999999+0011MW1021REMSYN082AAXX  27184 82198 21495 70706 10283 20244 30004 40055 70262 84340 333 58001 60021;
0168821980999992012042800004-01717-045400FM-12+004499999V0200501N002110042019N0002001N1+02691+02461100801ADDGF108991051031004501061001KA1240M+03181MA1999999100291MD1999999+0011REMSYN088AAXX  28004 82198 32492 80504 10269 20246 30029 40080 85360 333 10318 29083 55050 58001;
0173821980999992012042812004-01717-045400FM-12+004499999V0200701N003110042019N0020001N1+02911+02461100841ADDAA124002091GF107991051051004501041001KA1240N+02501MA1999999100331MD1999999-0021REMSYN082AAXX  28124 82198 22495 70706 10291 20246 30033 40084 85540 333 20250 59002 60024;
0137821980999992012042818004-01717-045400FM-12+004499999V0200501N004610450019N0020001N1+03171+02411100521ADDGF106991041021004501061001MA1999999100011MD1999999-0011REMSYN070AAXX  28184 82198 32495 60509 10317 20241 30001 40052 84260 333 59001;
0178821980999992012042900004-01717-045400FM-12+004499999V0200701N002612200019N0002001N1+02721+02451100741ADDGA1001+999999999GF100991001001999999001001KA1240M+03241MA1999999100231MD1999999-0061REMSYN082AAXX  29004 82198 32992 00705 10272 20245 30023 40074 333 10324 29078 55085 59006;
0156821980999992012042912004-01717-045400FM-12+004499999V0200501N004110042019N0020001N1+02941+02381100871ADDGF107991051021004501061001KA1240N+02461MA1999999100361MD1999999+0031REMSYN076AAXX  29124 82198 32495 70508 10294 20238 30036 40087 85260 333 20246 58003;
0137821980999992012042918004-01717-045400FM-12+004499999V0200201N003110450019N0020001N1+03061+02381100571ADDGF106991041021004501061001MA1999999100061MD1999999+0051REMSYN070AAXX  29184 82198 32495 60206 10306 20238 30006 40057 84260 333 58005;
0187821980999992012043000004-01717-045400FM-12+004499999V0200501N002112200019N0002001N1+02681+02481100781ADDGF102991999021004501001001KA1240M+03131MA1999999100271MD1999999+0041REMSYN088AAXX  30004 82198 32492 20504 10268 20248 30027 40078 83200 333 10313 29079 55062 58004;EQDQ01+000032SCOTLC
0156821980999992012043012004-01717-045400FM-12+004499999V0200501N002110450019N0020001N1+02981+02551101031ADDGF106991031021004501031001KA1240N+02491MA1999999100521MD1999999+0161REMSYN076AAXX  30124 82198 32495 60504 10298 20255 30052 40103 83230 333 20249 58016;
0182821980999992012043018004-01717-045400FM-12+004499999V0203601N002110450019N0020001N1+02851+02441100771ADDAA106009991AY191061AY261061GF107991041031004501061001MA1999999100261MD1999999+0201MW1021REMSYN082AAXX  30184 82198 21495 73604 10285 20244 30026 40077 70296 84360 333 58020 60101;
0168821980999992012050100004-01717-045400FM-12+004499999V0200201N001010450019N0002001N1+02681+02461100991ADDGF106991021021004501031001KA1240M+03201MA1999999100481MD1999999+0211REMSYN088AAXX  01004 82198 32492 60202 10268 20246 30048 40099 82230 333 10320 29083 55032 58021;
0168821980999992012050200004-01717-045400FM-12+004499999V0200201N001012200019N0002001N1+02651+02461101021ADDGF103991021011004501061001KA1240M+03121MA1999999100511MD1999999+0031REMSYN088AAXX  02004 82198 32492 30202 10265 20246 30051 40102 82160 333 10312 29084 55035 58003;
0156821980999992012050212004-01717-045400FM-12+004499999V0200701N005710042019N0020001N1+02971+02471101001ADDGF106991051021004501061001KA1240N+02421MA1999999100491MD1999999-0071REMSYN076AAXX  02124 82198 32495 60711 10297 20247 30049 40100 85260 333 20242 59007;
0201821980999992012050218004-01717-045400FM-12+004499999V0200701N005110450019N0020001N1+03001+02391100691ADDAA106000091AY151061AY221061GF105991031021004501061001MA1999999100181MD1999999-0011MW1021REMSYN082AAXX  02184 82198 21495 50710 10300 20239 30018 40069 70252 83260 333 59001 69921;EQDQ01  00002PRCP06
0168821980999992012050300004-01717-045400FM-12+004499999V0200701N001510450019N0002001N1+02671+02431100981ADDGF106991021021004501061001KA1240M+03251MA1999999100471MD1999999-0041REMSYN088AAXX  03004 82198 32492 60703 10267 20243 30047 40098 82260 333 10325 29079 55058 59004;
0182821980999992012050318004-01717-045400FM-12+004499999V0200701N005710042019N0020001N1+02801+02481100751ADDAA106002091AY161061AY221061GF108991051051004501041999MA1999999100241MD1999999+0061MW1211REMSYN082AAXX  03184 82198 21495 80711 10280 20248 30024 40075 72162 8554/ 333 58006 60021;
0168821980999992012050400004-01717-045400FM-12+004499999V0200701N003610450019N0002001N1+02641+02351101001ADDGF106991031011004501061001KA1240M+03181MA1999999100491MD1999999+0021REMSYN088AAXX  04004 82198 32492 60707 10264 20235 30049 40100 83160 333 10318 29090 55064 58002;
0173821980999992012050412004-01717-045400FM-12+004499999V0200701N004610042019N0020001N1+02891+02371100991ADDAA124002091GF107991051021004501061001KA1240N+02391MA1999999100481MD1999999-0021REMSYN082AAXX  04124 82198 22495 70709 10289 20237 30048 40099 85260 333 20239 59002 60024;
0201821980999992012050418004-01717-045400FM-12+004499999V0200701N005710450019N0020001N1+03041+02311100671ADDAA106000091AY151061AY221061GF106991031021004501061001MA1999999100161MD1999999-0081MW1021REMSYN082AAXX  04184 82198 21495 60711 10304 20231 30016 40067 70252 83260 333 59008 69921;EQDQ01  00002PRCP06
0168821980999992012050500004-01717-045400FM-12+004499999V0200701N002110450019N0002001N1+02691+02451100891ADDGF105991021011004501011001KA1240M+03181MA1999999100381MD1999999-0111REMSYN088AAXX  05004 82198 32492 50704 10269 20245 30038 40089 82110 333 10318 29078 55058 59011;
0192821980999992012050512004-01717-045400FM-12+004499999V0200701N003610450019N0020001N1+03021+02531100991ADDAA124000091GF106991041021004501061001KA1240N+02411MA1999999100481MD1999999+0001REMSYN082AAXX  05124 82198 22495 60707 10302 20253 30048 40099 84260 333 20241 58000 69924;EQDQ01  00002PRCP24
0182821980999992012050518004-01717-045400FM-12+004499999V0202701N001510450019N0020001N1+02411+02261100761ADDAA106025991AY191061AY261061GF105991031031004501041001MA1999999100251MD1999999+0091MW1211REMSYN082AAXX  05184 82198 21495 52703 10241 20226 30025 40076 72196 83340 333 58009 60261;
0168821980999992012050600004-01717-045400FM-12+004499999V0203201N001010450019N0002001N1+02501+02411100961ADDGF107991031021004501031001KA1240M+03141MA1999999100451MD1999999+0071REMSYN088AAXX  06004 82198 32492 73202 10250 20241 30045 40096 83230 333 10314 29089 55039 58007;
0182821980999992012050618004-01717-045400FM-12+004499999V0202501N002110042019N0010001N1+02661+02501100801ADDAA106015091AY191061AY261061GF108991061051004501021999MA1999999100291MD1999999+0041MW1161REMSYN082AAXX  06184 82198 21494 82504 10266 20250 30029 40080 71696 8652/ 333 58004 60151;
0213821980999992012050700004-01717-045400FM-12+004499999V0202301N001510450019N0002001N1+02391+02281101091ADDAA106016091AY161061AY221061GF106991021011004501051001KA1240M+03071MA1999999100571MD1999999+0121MW1021REMSYN100AAXX  07004 82198 21492 62303 10239 20228 30057 40109 70262 82150 333 10307 29090 55021 58012 60161;
0201821980999992012050712004-01717-045400FM-12+004499999V0200701N003110042019N0020001N1+02991+02551101091ADDAA124032091AY161061AY221061GF106991061021004501001001KA1240N+02181MA1999999100581MD1999999+0061MW1021REMSYN088AAXX  07124 82198 21495 60706 10299 20255 30058 40109 70262 86200 333 20218 58006 60324;
0137821980999992012050718004-01717-045400FM-12+004499999V0200501N004610042019N0020001N1+03191+02491100661ADDGF106991051021004501061001MA1999999100151MD1999999-0141REMSYN070AAXX  07184 82198 32495 60509 10319 20249 30015 40066 85260 333 59014;
0168821980999992012050800004-01717-045400FM-12+004499999V0200701N000510450019N0002001N1+02721+02501101051ADDGF106991041021004501061001KA1240M+03281MA1999999100541MD1999999-0031REMSYN088AAXX  08004 82198 32492 60701 10272 20250 30054 40105 84260 333 10328 29080 55087 59003;
0156821980999992012050812004-01717-045400FM-12+004499999V0200701N003110042019N0020001N1+02911+02501101301ADDGF106991061021004501001001KA1240N+02251MA1999999100781MD1999999+0201REMSYN076AAXX  08124 82198 32495 60706 10291 20250 30078 40130 86200 333 20225 58020;
0182821980999992012050818004-01717-045400FM-12+004499999V0200201N000510450019N0020001N1+02541+02351101071ADDAA106019191AY191061AY261061GF108991041031004501061011MA1999999100561MD1999999+0411MW1031REMSYN082AAXX  08184 82198 21495 80201 10254 20235 30056 40107 70396 84361 333 58041 60191;
0196821980999992012050900004-01717-045400FM-12+004499999V0202501N001512200019N0002001N1+02341+02201101251ADDAY191061AY211061GF103991011011004501011001KA1240M+03181MA1999999100731MD1999999+0191MW1011REMSYN094AAXX  09004 82198 31492 32503 10234 20220 30073 40125 70191 81110 333 10318 29088 55050 58019;
0173821980999992012050912004-01717-045400FM-12+004499999V0203601N003112200019N0020001N1+02901+02461101251ADDAA124019191GF104991031021004501001011KA1240N+02201MA1999999100731MD1999999-0051REMSYN082AAXX  09124 82198 22495 43606 10290 20246 30073 40125 83201 333 20220 59005 60194;
0182821980999992012050918004-01717-045400FM-12+004499999V0200701N002110450019N0020001N1+02851+02461100941ADDAA106002091AY161061AY221061GF105991031071004501061001MA1999999100431MD1999999-0131MW1621REMSYN082AAXX  09184 82198 21495 50704 10285 20246 30043 40094 76262 83760 333 59013 60021;
0173821980999992012051012004-01717-045400FM-12+004499999V0200501N002610450019N0020001N1+02991+02601101191ADDAA124007191GF106991031021004501031091KA1240N+02391MA1999999100681MD1999999-0051REMSYN082AAXX  10124 82198 22495 60505 10299 20260 30068 40119 83239 333 20239 59005 60074;
0182821980999992012051018004-01717-045400FM-12+004499999V0203601N003610450019N0020001N1+02891+02461100921ADDAA106020191AY161061AY221061GF106991041071004501061001MA1999999100411MD1999999-0021MW1621REMSYN082AAXX  10184 82198 21495 63607 10289 20246 30041 40092 76262 84760 333 59002 60201;
0223821980999992012051100004-01717-045400FM-12+004499999V0200701N002112200019N0002001N1+02481+02361101141ADDAA106001091AY161061AY201061GA1001+999999999GF100991001001999999001001KA1240M+03201MA1999999100631MD1999999+0011MW1011REMSYN094AAXX  11004 82198 21992 00704 10248 20236 30063 40114 70160 333 10320 29087 55060 58001 60011;
0173821980999992012051112004-01717-045400FM-12+004499999V0200901N001510450019N0020001N1+02871+02441101191ADDAA124021191GF106991041071004501061001KA1240N+02381MA1999999100681MD1999999+0001REMSYN082AAXX  11124 82198 22495 60903 10287 20244 30068 40119 84760 333 20238 58000 60214;
0182821980999992012051118004-01717-045400FM-12+004499999V0200501N004610450019N0020001N1+03051+02291100921ADDAA106001091AY161061AY221061GF106991041021004501041061MA1999999100411MD1999999+0001MW1021REMSYN082AAXX  11184 82198 21495 60509 10305 20229 30041 40092 70262 84246 333 58000 60011;
0178821980999992012051200004-01717-045400FM-12+004499999V0200701N002612200019N0002001N1+02571+02421101181ADDGA1001+999999999GF100991001001999999001001KA1240M+03121MA1999999100671MD1999999+0041REMSYN082AAXX  12004 82198 32992 00705 10257 20242 30067 40118 333 10312 29082 55053 58004;
0173821980999992012051212004-01717-045400FM-12+004499999V0200501N003110450019N0020001N1+02861+02481101171ADDAA124001091GF106991041021004501061011KA1240N+02371MA1999999100661MD1999999-0021REMSYN082AAXX  12124 82198 22495 60506 10286 20248 30066 40117 84261 333 20237 59002 60014;
0165821980999992012051218004-01717-045400FM-12+004499999V0200501N004110450019N0020001N1+03051+02421100891ADDAY121061AY221061GF106991031021004501061011MA1999999100381MD1999999-0031MW1151REMSYN076AAXX  12184 82198 31495 60508 10305 20242 30038 40089 71522 83261 333 59003;
0196821980999992012051300004-01717-045400FM-12+004499999V0200501N002612200019N0002001N1+02651+02371101141ADDAY111061AY211061GF103991011021004501061001KA1240M+03231MA1999999100631MD1999999-0041MW1131REMSYN094AAXX  13004 82198 31492 30505 10265 20237 30063 40114 71311 81260 333 10323 29081 55063 59004;
0156821980999992012051312004-01717-045400FM-12+004499999V0200501N004110450019N0020001N1+02931+02391101201ADDGF106991031021004501061001KA1240N+02501MA1999999100691MD1999999+0031REMSYN076AAXX  13124 82198 32495 60508 10293 20239 30069 40120 83260 333 20250 58003;
0182821980999992012051318004-01717-045400FM-12+004499999V0203601N003110450019N0020001N1+02841+02501100901ADDAA106008991AY161061AY221061GF108991041031004501011001MA1999999100391MD1999999+0011MW1031REMSYN082AAXX  13184 82198 21495 83606 10284 20250 30039 40090 70362 84310 333 58001 60091;
0187821980999992012051400004-01717-045400FM-12+004499999V0200501N002612200019N0002001N1+02601+02421101101ADDGF102991999021004501001001KA1240M+03061MA1999999100591MD1999999-0041REMSYN088AAXX  14004 82198 32492 20505 10260 20242 30059 40110 83200 333 10306 29084 55042 59004;EQDQ01+000032SCOTLC
0173821980999992012051412004-01717-045400FM-12+004499999V0200501N004110450019N0020001N1+02851+02421101151ADDAA124008991GF106991031021004501061001KA1240N+02491MA1999999100641MD1999999-0051REMSYN082AAXX  14124 82198 22495 60508 10285 20242 30064 40115 83260 333 20249 59005 60094;
0182821980999992012051418004-01717-045400FM-12+004499999V0200501N003610450019N0020001N1+02991+02341100931ADDAA106000591AY151061AY221061GF106991031021004501061001MA1999999100421MD1999999+0031MW1021REMSYN082AAXX  14184 82198 21495 60507 10299 20234 30042 40093 70252 83260 333 58003 69951;
0168821980999992012051500004-01717-045400FM-12+004499999V0200501N002612200019N0002001N1+02641+02351101131ADDGF104991041011004501001001KA1240M+03161MA1999999100621MD1999999+0031REMSYN088AAXX  15004 82198 32492 40505 10264 20235 30062 40113 84100 333 10316 29079 55070 58003;
0173821980999992012051512004-01717-045400FM-12+004499999V0200501N003110450019N0020001N1+02841+02421101311ADDAA124000591GF107991041071004501061001KA1240N+02411MA1999999100791MD1999999+0151REMSYN082AAXX  15124 82198 22495 70506 10284 20242 30079 40131 84760 333 20241 58015 69954;
0137821980999992012051518004-01717-045400FM-12+004499999V0203601N003110450019N0020001N1+02901+02201101001ADDGF107991041021004501061001MA1999999100491MD1999999+0071REMSYN070AAXX  15184 82198 32495 73606 10290 20220 30049 40100 84260 333 58007;
0178821980999992012051600004-01717-045400FM-12+004499999V0200501N002112200019N0002001N1+02601+02351101221ADDGA1001+999999999GF100991001001999999001001KA1240M+03051MA1999999100701MD1999999+0081REMSYN082AAXX  16004 82198 32992 00504 10260 20235 30070 40122 333 10305 29079 55039 58008;
0156821980999992012051612004-01717-045400FM-12+004499999V0200501N003110450019N0020001N1+02901+02371101321ADDGF106991041021004501061001KA1240N+02371MA1999999100801MD1999999+0011REMSYN076AAXX  16124 82198 32495 60506 10290 20237 30080 40132 84260 333 20237 58001;
0137821980999992012051618004-01717-045400FM-12+004499999V0203601N003110450019N0020001N1+03031+02321100991ADDGF106991041021004501061001MA1999999100481MD1999999-0011REMSYN070AAXX  16184 82198 32495 63606 10303 20232 30048 40099 84260 333 59001;
0178821980999992012051700004-01717-045400FM-12+004499999V0200501N002112200019N0002001N1+02621+02391101171ADDGA1001+999999999GF100991001001999999001001KA1240M+03211MA1999999100661MD1999999-0041REMSYN082AAXX  17004 82198 32992 00504 10262 20239 30066 40117 333 10321 29079 55066 59004;
0156821980999992012051712004-01717-045400FM-12+004499999V0200501N003110450019N0020001N1+02861+02441101251ADDGF106991041021004501061001KA1240N+02401MA1999999100741MD1999999-0061REMSYN076AAXX  17124 82198 32495 60506 10286 20244 30074 40125 84260 333 20240 59006;
0137821980999992012051718004-01717-045400FM-12+004499999V0203601N004612200019N0020001N1+02991+02341100961ADDGF104991041021004501001001MA1999999100451MD1999999-0031REMSYN070AAXX  17184 82198 32495 43609 10299 20234 30045 40096 84200 333 59003;
0178821980999992012051800004-01717-045400FM-12+004499999V0200501N002612200019N0002001N1+02581+02311101101ADDGA1001+999999999GF100991001001999999001001KA1240M+03201MA1999999100591MD1999999-0071REMSYN082AAXX  18004 82198 32992 00505 10258 20231 30059 40110 333 10320 29079 55098 59007;
0156821980999992012051812004-01717-045400FM-12+004499999V0200501N002612200019N0020001N1+02921+02431101201ADDGF104991041021004501001001KA1240N+02421MA1999999100691MD1999999-0051REMSYN076AAXX  18124 82198 32495 40505 10292 20243 30069 40120 84200 333 20242 59005;
0137821980999992012051818004-01717-045400FM-12+004499999V0203601N002612200019N0020001N1+03001+02291100931ADDGF104991041021004501001001MA1999999100421MD1999999-0031REMSYN070AAXX  18184 82198 32495 43605 10300 20229 30042 40093 84200 333 59003;
0178821980999992012051900004-01717-045400FM-12+004499999V0200501N002112200019N0002001N1+02591+02401101121ADDGA1001+999999999GF100991001001999999001001KA1240M+03211MA1999999100641MD1999999+0051REMSYN082AAXX  19004 82198 32992 00504 10259 20240 30064 40112 333 10321 29079 55090 58005;
0156821980999992012051912004-01717-045400FM-12+004499999V0200501N004110450019N0020001N1+02871+02361101191ADDGF106991031021004501061011KA1240N+02351MA1999999100681MD1999999-0011REMSYN076AAXX  19124 82198 32495 60508 10287 20236 30068 40119 83261 333 20235 59001;
0137821980999992012051918004-01717-045400FM-12+004499999V0200501N005110042019N0020001N1+03061+02301100961ADDGF105991051021004501001001MA1999999100451MD1999999+0031REMSYN070AAXX  19184 82198 32495 50510 10306 20230 30045 40096 85200 333 58003;
0201821980999992012052012004-01717-045400FM-12+004499999V0203601N004110450019N0020001N1+02851+02271101301ADDAA124000591AY151061AY221061GF106991041021004501061001KA1240N+02401MA1999999100781MD1999999+0101MW1031REMSYN088AAXX  20124 82198 21495 63608 10285 20227 30078 40130 70352 84260 333 20240 58010 69944;
0137821980999992012052018004-01717-045400FM-12+004499999V0200501N005710042019N0020001N1+02951+02321101041ADDGF105991051021004501001001MA1999999100531MD1999999+0081REMSYN070AAXX  20184 82198 32495 50511 10295 20232 30053 40104 85200 333 58008;
0156821980999992012052112004-01717-045400FM-12+004499999V0200701N005110042019N0020001N1+02891+02431101371ADDGF105991051021004501001001KA1240N+02301MA1999999100851MD1999999+0071REMSYN076AAXX  21124 82198 32495 50710 10289 20243 30085 40137 85200 333 20230 58007;
0182821980999992012052118004-01717-045400FM-12+004499999V0200501N004610450019N0020001N1+03151+02511101031ADDAA106001091AY161061AY221061GF106991041021004501061001MA1999999100521MD1999999-0011MW1151REMSYN082AAXX  21184 82198 21495 60509 10315 20251 30052 40103 71562 84260 333 59001 60011;
0223821980999992012052200004-01717-045400FM-12+004499999V0200501N001512200019N0002001N1+02551+02231101151ADDAA106000891AY161061AY201061GA1001+999999999GF100991001001999999001001KA1240M+03251MA1999999100641MD1999999-0071MW1001REMSYN094AAXX  22004 82198 21992 00503 10255 20223 30064 40115 70060 333 10325 29076 55080 59007 69971;
0173821980999992012052212004-01717-045400FM-12+004499999V0200501N002612200019N0020001N1+02921+02471101301ADDAA124002091GF104991031021004501001011KA1240N+02371MA1999999100781MD1999999-0071REMSYN082AAXX  22124 82198 22495 40505 10292 20247 30078 40130 83201 333 20237 59007 60024;
0182821980999992012052218004-01717-045400FM-12+004499999V0200501N006210450019N0020001N1+02981+02471101011ADDAA106000391AY151061AY221061GF107991041021004501061011MA1999999100501MD1999999-0021MW1031REMSYN082AAXX  22184 82198 21495 70512 10298 20247 30050 40101 70352 84261 333 59002 69931;
0178821980999992012052300004-01717-045400FM-12+004499999V0200501N002612200019N0002001N1+02631+02371101181ADDGA1001+999999999GF100991001001999999001001KA1240M+03171MA1999999100681MD1999999+0041REMSYN082AAXX  23004 82198 32992 00505 10263 20237 30068 40118 333 10317 29081 55065 58004;
0173821980999992012052312004-01717-045400FM-12+004499999V0203601N002610042019N0020001N1+02931+02411101351ADDAA124000391GF105991051021004501001001KA1240N+02481MA1999999100831MD1999999+0051REMSYN082AAXX  23124 82198 22495 53605 10293 20241 30083 40135 85200 333 20248 58005 69934;
0182821980999992012052318004-01717-045400FM-12+004499999V0203601N003110450019N0020001N1+02951+02421101081ADDAA106011991AY161061AY221061GF106991041021004501061011MA1999999100571MD1999999+0071MW1021REMSYN082AAXX  23184 82198 21495 63606 10295 20242 30057 40108 70262 84261 333 58007 60121;
0173821980999992012052412004-01717-045400FM-12+004499999V0200501N002610450019N0020001N1+02911+02501101411ADDAA124011991GF106991041021004501061001KA1240N+02411MA1999999100891MD1999999+0061REMSYN082AAXX  24124 82198 22495 60505 10291 20250 30089 40141 84260 333 20241 58006 60124;
0201821980999992012052418004-01717-045400FM-12+004499999V0200901N002110450019N0020001N1+02761+02381101101ADDAA106000091AY151061AY221061GF107991041071004501061021MA1999999100591MD1999999+0021MW1021REMSYN082AAXX  24184 82198 21495 70904 10276 20238 30059 40110 70252 84762 333 58002 69911;EQDQ01  00002PRCP06
0178821980999992012052500004-01717-045400FM-12+004499999V0200501N002112200019N0002001N1+02601+02351101301ADDGA1001+999999999GF100991001001999999001001KA1240M+03141MA1999999100781MD1999999-0021REMSYN082AAXX  25004 82198 32992 00504 10260 20235 30078 40130 333 10314 29082 55044 59002;
0192821980999992012052512004-01717-045400FM-12+004499999V0200501N003610450019N0020001N1+02891+02311101301ADDAA124000091GF107991041071004501061001KA1240N+02401MA1999999100781MD1999999-0111REMSYN082AAXX  25124 82198 22495 70507 10289 20231 30078 40130 84760 333 20240 59011 69914;EQDQ01  00002PRCP24
0137821980999992012052518004-01717-045400FM-12+004499999V0200501N002612200019N0020001N1+03151+02431101041ADDGF104991041021004501001001MA1999999100531MD1999999-0061REMSYN070AAXX  25184 82198 32495 40505 10315 20243 30053 40104 84200 333 59006;
0168821980999992012052600004-01717-045400FM-12+004499999V0200501N002112200019N0002001N1+02611+02311101191ADDGF102991011021004501011001KA1240M+03231MA1999999100681MD1999999-0101REMSYN088AAXX  26004 82198 32492 20504 10261 20231 30068 40119 81210 333 10323 29077 55094 59010;
0156821980999992012052612004-01717-045400FM-12+004499999V0200501N003610450019N0020001N1+02931+02321101371ADDGF106991041021004501061001KA1240N+02311MA1999999100851MD1999999+0051REMSYN076AAXX  26124 82198 32495 60507 10293 20232 30085 40137 84260 333 20231 58005;
0137821980999992012052618004-01717-045400FM-12+004499999V0200701N004610042019N0020001N1+03151+02301101041ADDGF106991061021004501001001MA1999999100531MD1999999+0001REMSYN070AAXX  26184 82198 32495 60709 10315 20230 30053 40104 86200 333 58000;
0156821980999992012052712004-01717-045400FM-12+004499999V0200501N002610042019N0020001N1+02941+02431101391ADDGF105991051021004501001001KA1240N+02381MA1999999101071MD1999999+0021REMSYN076AAXX  27124 82198 32495 50505 10294 20243 30107 40139 85200 333 20238 58002;
0137821980999992012052718004-01717-045400FM-12+004499999V0203601N003612200019N0020001N1+03011+02291101041ADDGF104991041021004501001001MA1999999100531MD1999999+0001REMSYN070AAXX  27184 82198 32495 43607 10301 20229 30053 40104 84200 333 58000;
0178821980999992012052800004-01717-045400FM-12+004499999V0200501N002612200019N0002001N1+02621+02391101331ADDGA1001+999999999GF100991001001999999001001KA1240M+03171MA1999999100811MD1999999+0121REMSYN082AAXX  28004 82198 32992 00505 10262 20239 30081 40133 333 10317 29078 55090 58012;
0156821980999992012052812004-01717-045400FM-12+004499999V0200701N003112200019N0020001N1+02931+02521101301ADDGF104991041021004501001001KA1240N+02411MA1999999100781MD1999999-0091REMSYN076AAXX  28124 82198 32495 40706 10293 20252 30078 40130 84200 333 20241 59009;
0182821980999992012052818004-01717-045400FM-12+004499999V0200701N002611050019N0020001N1+02691+02371101051ADDAA106002091AY161061AY221061GF106991021021004501041061MA1999999100541MD1999999+0011MW1031REMSYN082AAXX  28184 82198 21495 60705 10269 20237 30054 40105 70362 82246 333 58001 60021;
0168821980999992012052900004-01717-045400FM-12+004499999V0200501N001512200019N0002001N1+02631+02391101261ADDGF103991011011004501011011KA1240M+03251MA1999999100751MD1999999-0061REMSYN088AAXX  29004 82198 32492 30503 10263 20239 30075 40126 81111 333 10325 29086 55073 59006;
0173821980999992012052912004-01717-045400FM-12+004499999V0200701N003112200019N0020001N1+02911+02461101251ADDAA124002091GF105991031021004501001041KA1240N+02381MA1999999100741MD1999999-0041REMSYN082AAXX  29124 82198 22495 50706 10291 20246 30074 40125 83204 333 20238 59004 60024;
0137821980999992012052918004-01717-045400FM-12+004499999V0200701N005110042019N0020001N1+03151+02271100961ADDGF105991051021004501001001MA1999999100451MD1999999-0091REMSYN070AAXX  29184 82198 32495 50710 10315 20227 30045 40096 85200 333 59009;
0178821980999992012053000004-01717-045400FM-12+004499999V0200501N002612200019N0002001N1+02611+02371101221ADDGA1001+999999999GF100991001001999999001001KA1240M+03261MA1999999100711MD1999999-0041REMSYN082AAXX  30004 82198 32992 00505 10261 20237 30071 40122 333 10326 29077 55100 59004;
0156821980999992012053012004-01717-045400FM-12+004499999V0200701N003612200019N0020001N1+02921+02501101241ADDGF105991031021004501001011KA1240N+02321MA1999999100731MD1999999-0011REMSYN076AAXX  30124 82198 32495 50707 10292 20250 30073 40124 83201 333 20232 59001;
0137821980999992012053018004-01717-045400FM-12+004499999V0200901N005112200019N0020001N1+03141+02321100971ADDGF105991031021004501001011MA1999999100461MD1999999+0011REMSYN070AAXX  30184 82198 32495 50910 10314 20232 30046 40097 83201 333 58001;
0178821980999992012053100004-01717-045400FM-12+004499999V0200701N001512200019N0002001N1+02591+02351101221ADDGA1001+999999999GF100991001001999999001001KA1240M+03271MA1999999100711MD1999999+0001REMSYN082AAXX  31004 82198 32992 00703 10259 20235 30071 40122 333 10327 29078 55100 58000;
0156821980999992012053112004-01717-045400FM-12+004499999V0200701N004112200019N0020001N1+02911+02431101431ADDGF104991021011004501001011KA1240N+02401MA1999999100911MD1999999+0181REMSYN076AAXX  31124 82198 32495 40708 10291 20243 30091 40143 82101 333 20240 58018;
0137821980999992012053118004-01717-045400FM-12+004499999V0200701N004112200019N0020001N1+03281+02371101061ADDGF103991031021004501001001MA1999999100551MD1999999+0091REMSYN070AAXX  31184 82198 32495 30708 10328 20237 30055 40106 83200 333 58009;
0178821980999992012060100004-01717-045400FM-12+004499999V0200701N002612200019N0002001N1+02651+02371101321ADDGA1001+999999999GF100991001001999999001001KA1240M+03371MA1999999100801MD1999999+0091REMSYN082AAXX  01004 82198 32992 00705 10265 20237 30080 40132 333 10337 29077 55099 58009;
0182821980999992012060118004-01717-045400FM-12+004499999V0203601N003612200019N0020001N1+03011+02441101171ADDAA106000591AY151061AY221061GF103991031021004501001001MA1999999100661MD1999999-0111MW1021REMSYN082AAXX  01184 82198 21495 33607 10301 20244 30066 40117 70252 83200 333 59011 69961;
0168821980999992012060200004-01717-045400FM-12+004499999V0200901N002110450019N0002001N1+02661+02431101411ADDGF107991041021004501031001KA1240M+03201MA1999999100891MD1999999+0091REMSYN088AAXX  02004 82198 32492 70904 10266 20243 30089 40141 84230 333 10320 29080 55083 58009;
0173821980999992012060212004-01717-045400FM-12+004499999V0203601N003110450019N0020001N1+02901+02541101361ADDAA124000591GF106991031021004501031011KA1240N+02361MA1999999100841MD1999999-0121REMSYN082AAXX  02124 82198 22495 63606 10290 20254 30084 40136 83231 333 20236 59012 69964;
0182821980999992012060218004-01717-045400FM-12+004499999V0203601N002610450019N0020001N1+02671+02351101071ADDAA106005191AY191061AY261061GF108991041071004501041041MA1999999100561MD1999999-0101MW1031REMSYN082AAXX  02184 82198 21495 83605 10267 20235 30056 40107 70396 84744 333 59010 60051;
0196821980999992012060300004-01717-045400FM-12+004499999V0200901N002610450019N0002001N1+02631+02421101421ADDAY121061AY221061GF108991041031004501011999KA1240M+03211MA1999999100901MD1999999+0011MW1131REMSYN094AAXX  03004 82198 31492 80905 10263 20242 30090 40142 71322 8431/ 333 10321 29087 55047 58001;
0201821980999992012060312004-01717-045400FM-12+004499999V0200901N003610450019N0020001N1+02831+02481101381ADDAA124008991AY191061AY261061GF108991041031004501021999KA1240N+02391MA1999999100861MD1999999+0021MW1621REMSYN088AAXX  03124 82198 21495 80907 10283 20248 30086 40138 76296 8432/ 333 20239 58002 60094;
0137821980999992012060318004-01717-045400FM-12+004499999V0200701N002610450019N0020001N1+02881+02441101381ADDGF108991041031004501061999MA1999999100571MD1999999+0011REMSYN070AAXX  03184 82198 32495 80705 10288 20244 30057 40138 8436/ 333 58001;
0213821980999992012060400004-01717-045400FM-12+004499999V0200901N001510450019N0002001N1+02431+02311101321ADDAA106006191AY161061AY221061GF107991041021004501011011KA1240M+02951MA1999999100801MD1999999-0101MW1021REMSYN100AAXX  04004 82198 21492 70903 10243 20231 30080 40132 70262 84211 333 10295 29088 55016 59010 60061;
0201821980999992012060412004-01717-045400FM-12+004499999V0200701N003610450019N0020001N1+02871+02421101371ADDAA124006191AY121061AY221061GF106991041021004501061041KA1240N+02351MA1999999100851MD1999999-0011MW1011REMSYN088AAXX  04124 82198 21495 60707 10287 20242 30085 40137 70122 84264 333 20235 59001 60064;
0137821980999992012060418004-01717-045400FM-12+004499999V0200701N004110450019N0020001N1+03091+02271101101ADDGF106991041021004501011041MA1999999100591MD1999999+0021REMSYN070AAXX  04184 82198 32495 60708 10309 20227 30059 40110 84214 333 58002;
0168821980999992012060500004-01717-045400FM-12+004499999V0200401N002612200019N0002001N1+02551+02271101321ADDGF102991021011004501001001KA1240M+03161MA1999999100801MD1999999+0001REMSYN088AAXX  05004 82198 32492 20405 10255 20227 30080 40132 82100 333 10316 29080 55082 58000;
0156821980999992012060512004-01717-045400FM-12+004499999V0200701N004610042019N0020001N1+02861+02421101381ADDGF105991051021004501001001KA1240N+02301MA1999999100861MD1999999+0011REMSYN076AAXX  05124 82198 32495 50709 10286 20242 30086 40138 85200 333 20230 58001;
0137821980999992012060518004-01717-045400FM-12+004499999V0200901N004112200019N0020001N1+03231+02301101111ADDGF104991041021004501001001MA1999999100601MD1999999+0011REMSYN070AAXX  05184 82198 32495 40908 10323 20230 30060 40111 84200 333 58001;
0178821980999992012060600004-01717-045400FM-12+004499999V0200701N002112200019N0002001N1+02601+02351101411ADDGA1001+999999999GF100991001001999999001001KA1240M+03281MA1999999100881MD1999999+0081REMSYN082AAXX  06004 82198 32992 00704 10260 20235 30088 40141 333 10328 29077 55101 58008;
0156821980999992012060612004-01717-045400FM-12+004499999V0200701N004110042019N0020001N1+02921+02431101371ADDGF105991051021004501001001KA1240N+02351MA1999999100851MD1999999-0011REMSYN076AAXX  06124 82198 32495 50708 10292 20243 30085 40137 85200 333 20235 59001;
0137821980999992012060618004-01717-045400FM-12+004499999V0200701N003610042019N0020001N1+03261+02381101061ADDGF105991051021004501001001MA1999999100551MD1999999-0051REMSYN070AAXX  06184 82198 32495 50707 10326 20238 30055 40106 85200 333 59005;
0178821980999992012060700004-01717-045400FM-12+004499999V0200701N002112200019N0002001N1+02651+02351101331ADDGA1001+999999999GF100991001001999999001001KA1240M+03341MA1999999100811MD1999999-0071REMSYN082AAXX  07004 82198 32992 00704 10265 20235 30081 40133 333 10334 29077 55100 59007;
0156821980999992012060712004-01717-045400FM-12+004499999V0200701N004610042019N0020001N1+02961+02471101361ADDGF105991051021004501001001KA1240N+02391MA1999999100841MD1999999-0011REMSYN076AAXX  07124 82198 32495 50709 10296 20247 30084 40136 85200 333 20239 59001;
0137821980999992012060718004-01717-045400FM-12+004499999V0200701N004610042019N0020001N1+03211+02351101011ADDGF105991051021004501001001MA1999999100501MD1999999-0051REMSYN070AAXX  07184 82198 32495 50709 10321 20235 30050 40101 85200 333 59005;
0178821980999992012060800004-01717-045400FM-12+004499999V0200701N002112200019N0002001N1+02661+02431101181ADDGA1001+999999999GF100991001001999999001001KA1240M+03311MA1999999100671MD1999999-0141REMSYN082AAXX  08004 82198 32992 00704 10266 20243 30067 40118 333 10331 29078 55094 59014;
0156821980999992012060812004-01717-045400FM-12+004499999V0200701N004110042019N0020001N1+02981+02441101221ADDGF105991051021004501001001KA1240N+02421MA1999999100711MD1999999-0131REMSYN076AAXX  08124 82198 32495 50708 10298 20244 30071 40122 85200 333 20242 59013;
0182821980999992012060818004-01717-045400FM-12+004499999V0200501N001510450019N0020001N1+02971+02661100911ADDAA106001091AY161061AY221061GF106991031021004501061041MA1999999100401MD1999999-0101MW1021REMSYN082AAXX  08184 82198 21495 60503 10297 20266 30040 40091 70262 83264 333 59010 60011;
0178821980999992012060900004-01717-045400FM-12+004499999V0200501N002112200019N0002001N1+02641+02441101151ADDGA1001+999999999GF100991001001999999001001KA1240M+03281MA1999999100641MD1999999-0031REMSYN082AAXX  09004 82198 32992 00504 10264 20244 30064 40115 333 10328 29083 55087 59003;
0173821980999992012060912004-01717-045400FM-12+004499999V0200701N003610090019N0020001N1+02951+02531101231ADDAA124002091GF105991051081004501021001KA1240N+02411MA1999999100721MD1999999+0011REMSYN082AAXX  09124 82198 22495 50707 10295 20253 30072 40123 85820 333 20241 58001 60024;
0182821980999992012060918004-01717-045400FM-12+004499999V0201401N005110450019N0020001N1+02761+02461100951ADDAA106004191AY161061AY221061GF106991041021004501061001MA1999999100441MD1999999+0041MW1031REMSYN082AAXX  09184 82198 21495 61410 10276 20246 30044 40095 70362 84260 333 58004 60041;
0213821980999992012061000004-01717-045400FM-12+004499999V0200501N002612200019N0002001N1+02651+02351101251ADDAA106000391AY151061AY201061GF102991021021004501001001KA1240M+03301MA1999999100741MD1999999+0101MW1131REMSYN100AAXX  10004 82198 21492 20505 10265 20235 30074 40125 71350 82200 333 10330 29083 55073 58010 69931;
0173821980999992012061012004-01717-045400FM-12+004499999V0203601N003610450019N0020001N1+02811+02421101281ADDAA124004191GF107991041071004501081061KA1240N+02461MA1999999100771MD1999999+0051REMSYN082AAXX  10124 82198 22495 73607 10281 20242 30077 40128 84786 333 20246 58005 60044;
0137821980999992012061018004-01717-045400FM-12+004499999V0200601N003112200019N0020001N1+03041+02411101031ADDGF106991041021004501001011MA1999999100521MD1999999+0081REMSYN070AAXX  10184 82198 32495 60606 10304 20241 30052 40103 84201 333 58008;
0213821980999992012061100004-01717-045400FM-12+004499999V0200701N002112200019N0002001N1+02621+02411101221ADDGA1001+999999999GF100991001001999999001001KA1240M+03111MA1999999999999MD1999999-0031REMSYN082AAXX  11004 82198 32992 00704 10262 20241 39071 40122 333 10311 29081 55082 59003;EQDQ01+090713APOSP Q02 090713APOSP 
0156821980999992012061112004-01717-045400FM-12+004499999V0200701N002610450019N0020001N1+02861+02501101291ADDGF106991031021004501031001KA1240N+02401MA1999999100781MD1999999+0011REMSYN076AAXX  11124 82198 32495 60705 10286 20250 30078 40129 83230 333 20240 58001;
0137821980999992012061118004-01717-045400FM-12+004499999V0200901N004112200019N0020001N1+03031+02371100921ADDGF104991031021004501001011MA1999999100411MD1999999-0111REMSYN070AAXX  11184 82198 32495 40908 10303 20237 30041 40092 83201 333 59011;
0178821980999992012061200004-01717-045400FM-12+004499999V0200501N001512200019N0002001N1+02631+02401101191ADDGA1001+999999999GF100991001001999999001001KA1240M+03261MA1999999100681MD1999999-0031REMSYN082AAXX  12004 82198 32992 00503 10263 20240 30068 40119 333 10326 29082 55086 59003;
0156821980999992012061212004-01717-045400FM-12+004499999V0200701N004110450019N0020001N1+02861+02461101301ADDGF106991041021004501061001KA1240N+02511MA1999999100791MD1999999+0011REMSYN076AAXX  12124 82198 32495 60708 10286 20246 30079 40130 84260 333 20251 58001;
0137821980999992012061218004-01717-045400FM-12+004499999V0200701N003110450019N0020001N1+03121+02331100941ADDGF105991031021004501061041MA1999999100431MD1999999+0021REMSYN070AAXX  12184 82198 32495 50706 10312 20233 30043 40094 83264 333 58002;
0156821980999992012061312004-01717-045400FM-12+004499999V0200901N004110042019N0020001N1+02881+02371101351ADDGF105991051021004501001001KA1240N+02511MA1999999100831MD1999999+0041REMSYN076AAXX  13124 82198 32495 50908 10288 20237 30083 40135 85200 333 20251 58004;
0137821980999992012061318004-01717-045400FM-12+004499999V0200701N005112200019N0020001N1+03211+02241101031ADDGF104991041021004501001001MA1999999100521MD1999999+0091REMSYN070AAXX  13184 82198 32495 40710 10321 20224 30052 40103 84200 333 58009;
0178821980999992012061400004-01717-045400FM-12+004499999V0200701N001512200019N0002001N1+02581+02311101241ADDGA1001+999999999GF100991001001999999001001KA1240M+03271MA1999999100731MD1999999+0151REMSYN082AAXX  14004 82198 32992 00703 10258 20231 30073 40124 333 10327 29075 55095 58015;
0156821980999992012061412004-01717-045400FM-12+004499999V0200701N002612200019N0020001N1+02891+02361101211ADDGF103991031021004501001001KA1240N+02301MA1999999100701MD1999999-0131REMSYN076AAXX  14124 82198 32495 30705 10289 20236 30070 40121 83200 333 20230 59013;
0182821980999992012061418004-01717-045400FM-12+004499999V0203501N001510450019N0020001N1+02881+02461101001ADDAA106002091AY161061AY221061GF107991031031004501061001MA1999999100491MD1999999-0031MW1171REMSYN082AAXX  14184 82198 21495 73503 10288 20246 30049 40100 71762 83360 333 59003 60021;
0223821980999992012061500004-01717-045400FM-12+004499999V0202301N001012200019N0002001N1+02591+02351101301ADDAA106003091AY161061AY201061GA1001+999999999GF100991001001999999001001KA1240M+03321MA1999999100781MD1999999+0051MW1001REMSYN094AAXX  15004 82198 21692 02302 10259 20235 30078 40130 70060 333 10332 29082 55052 58005 60031;
0173821980999992012061512004-01717-045400FM-12+004499999V0200901N002610450019N0020001N1+02771+02421101381ADDAA124005191GF105991031011004501031011KA1240N+02401MA1999999100861MD1999999+0161REMSYN082AAXX  15124 82198 22495 50905 10277 20242 30086 40138 83131 333 20240 58016 60054;
0182821980999992012061518004-01717-045400FM-12+004499999V0200501N002110450019N0010001N1+02521+02311101041ADDAA106013091AY161061AY221061GF108991041031004501021999MA1999999100531MD1999999+0041MW1031REMSYN082AAXX  15184 82198 21494 80504 10252 20231 30053 40104 70362 8432/ 333 58004 60131;
0229821980999992012061600004-01717-045400FM-12+004499999V0201401N002110003019N0002001N1+02461+02321101341ADDAA106026991AY161061AY221061GA1091+999999999GF109991091999999999999999KA1240M+03111MA1999999100821MD1999999+0041MW1021REMSYN100AAXX  16004 82198 21/92 91404 10246 20232 30082 40134 70262 88/// 333 10311 29088 55038 58004 60271;
0173821980999992012061612004-01717-045400FM-12+004499999V0200501N003610450019N0020001N1+02801+02441101421ADDAA124039991GF106991031021004501061001KA1240N+02451MA1999999100901MD1999999+0041REMSYN082AAXX  16124 82198 22495 60507 10280 20244 30090 40142 83260 333 20245 58004 60404;
0182821980999992012061618004-01717-045400FM-12+004499999V0203601N003110450019N0020001N1+02941+02431101131ADDAA106001091AY161061AY221061GF107991031071004501061011MA1999999100621MD1999999-0091MW1031REMSYN082AAXX  16184 82198 21495 73606 10294 20243 30062 40113 70362 83761 333 59009 60011;
0213821980999992012061700004-01717-045400FM-12+004499999V0200901N002612200019N0002001N1+02471+02231101281ADDAA106017091AY161061AY211061GF102991021021004501001001KA1240M+03121MA1999999100861MD1999999+0041MW1011REMSYN100AAXX  17004 82198 21492 20905 10247 20223 30086 40128 70161 82200 333 10312 29084 55059 58004 60171;
0173821980999992012061712004-01717-045400FM-12+004499999V0200701N004110042019N0020001N1+02861+02331101431ADDAA124018091GF105991051021004501001001KA1240N+02401MA1999999100911MD1999999+0011REMSYN082AAXX  17124 82198 22495 50708 10286 20233 30091 40143 85200 333 20240 58001 60184;
0137821980999992012061718004-01717-045400FM-12+004499999V0203601N003110042019N0020001N1+03031+02291101041ADDGF105991051021004501001001MA1999999100531MD1999999-0091REMSYN070AAXX  17184 82198 32495 53606 10303 20229 30053 40104 85200 333 59009;
0178821980999992012061800004-01717-045400FM-12+004499999V0200701N002112200019N0002001N1+02581+02351101061ADDGA1001+999999999GF100991001001999999001001KA1240M+03261MA1999999100751MD1999999-0111REMSYN082AAXX  18004 82198 32992 00704 10258 20235 30075 40106 333 10326 29078 55089 59011;
0156821980999992012061812004-01717-045400FM-12+004499999V0200501N003610450019N0020001N1+02801+02401101301ADDGF106991041021004501061011KA1240N+02411MA1999999100791MD1999999-0121REMSYN076AAXX  18124 82198 32495 60507 10280 20240 30079 40130 84261 333 20241 59012;
0137821980999992012061818004-01717-045400FM-12+004499999V0203601N004610450019N0020001N1+02971+02371101121ADDGF105991031021004501061001MA1999999100611MD1999999+0081REMSYN070AAXX  18184 82198 32495 53609 10297 20237 30061 40112 83260 333 58008;
0178821980999992012061900004-01717-045400FM-12+004499999V0200501N002612200019N0002001N1+02601+02351101331ADDGA1001+999999999GF100991001001999999001001KA1240M+03111MA1999999100811MD1999999+0061REMSYN082AAXX  19004 82198 32992 00505 10260 20235 30081 40133 333 10311 29080 55084 58006;
0184821980999992012061912004-01717-045400FM-12+004499999V0200501N003110450019N0020001N1+02841+02461101391ADDAY111061AY221061GF106991041021004501061001KA1240N+02501MA1999999100871MD1999999+0081MW1151REMSYN082AAXX  19124 82198 31495 60506 10284 20246 30087 40139 71512 84260 333 20250 58008;
0137821980999992012061918004-01717-045400FM-12+004499999V0200501N003110042019N0020001N1+03111+02261101111ADDGF105991051021004501001001MA1999999100601MD1999999-0011REMSYN070AAXX  19184 82198 32495 50506 10311 20226 30060 40111 85200 333 59001;
0178821980999992012062000004-01717-045400FM-12+004499999V0200701N002112200019N0002001N1+02581+02351101371ADDGA1001+999999999GF100991001001999999001001KA1240M+03211MA1999999100851MD1999999+0041REMSYN082AAXX  20004 82198 32992 00704 10258 20235 30085 40137 333 10321 29078 55095 58004;
0156821980999992012062012004-01717-045400FM-12+004499999V0200501N002610450019N0020001N1+02871+02381101351ADDGF106991041021004501061001KA1240N+02321MA1999999100831MD1999999-0041REMSYN076AAXX  20124 82198 32495 60505 10287 20238 30083 40135 84260 333 20232 59004;
0137821980999992012062018004-01717-045400FM-12+004499999V0200501N004110042019N0020001N1+03221+02431101011ADDGF105991051021004501001001MA1999999100501MD1999999-0101REMSYN070AAXX  20184 82198 32495 50508 10322 20243 30050 40101 85200 333 59010;
0178821980999992012062100004-01717-045400FM-12+004499999V0200901N002612200019N0002001N1+02601+02401101251ADDGA1001+999999999GF100991001001999999001001KA1240M+03261MA1999999100741MD1999999-0111REMSYN082AAXX  21004 82198 32992 00905 10260 20240 30074 40125 333 10326 29080 55092 59011;
0184821980999992012062112004-01717-045400FM-12+004499999V0201601N001510450019N0020001N1+02721+02501101331ADDAY101061AY221061GF106991041071004501061001KA1240N+02211MA1999999100821MD1999999-0011MW1281REMSYN082AAXX  21124 82198 31495 61603 10272 20250 30082 40133 72802 84760 333 20221 59001;
0182821980999992012062118004-01717-045400FM-12+004499999V0200501N000512200019N0020001N1+03061+02431101021ADDAA106009991AY161061AY221061GF104991031021004501001011MA1999999100511MD1999999+0011MW1011REMSYN082AAXX  21184 82198 21495 40501 10306 20243 30051 40102 70162 83201 333 58001 60101;
0178821980999992012062200004-01717-045400FM-12+004499999V0200701N002112200019N0002001N1+02591+02401101161ADDGA1001+999999999GF100991001001999999001001KA1240M+03111MA1999999100651MD1999999-0091REMSYN082AAXX  22004 82198 32992 00704 10259 20240 30065 40116 333 10311 29084 55070 59009;
0173821980999992012062212004-01717-045400FM-12+004499999V0200501N003110450019N0020001N1+02841+02461101321ADDAA124009991GF107991041051004501061001KA1240N+02451MA1999999100801MD1999999-0021REMSYN082AAXX  22124 82198 22495 70506 10284 20246 30080 40132 84560 333 20245 59002 60104;
0182821980999992012062218004-01717-045400FM-12+004499999V0203601N003110450019N0010001N1+02731+02391101181ADDAA106005191AY161061AY221061GF107991041031004501021001MA1999999100671MD1999999+0161MW1291REMSYN082AAXX  22184 82198 21494 73606 10273 20239 30067 40118 72962 84320 333 58016 60051;
0223821980999992012062300004-01717-045400FM-12+004499999V0200501N002112200019N0002001N1+02501+02401100621ADDAA106002091AY161061AY201061GA1001+999999999GF100991001001999999001001KA1240M+02941MA1999999100101MD1999999+0351MW1001REMSYN094AAXX  23004 82198 21992 00504 10250 20240 30010 40062 70060 333 10294 29088 55024 58035 60021;
0173821980999992012062312004-01717-045400FM-12+004499999V0200501N002610042019N0020001N1+02861+02501101551ADDAA124017091GF106991061021004501001001KA1240N+02461MA1999999101041MD1999999+0241REMSYN082AAXX  23124 82198 22495 60505 10286 20250 30104 40155 86200 333 20246 58024 60174;
0182821980999992012062318004-01717-045400FM-12+004499999V0201601N003110042019N0020001N1+02751+02501101321ADDAA106001091AY151061AY221061GF106991061021004501001001MA1999999100811MD1999999+0141MW1211REMSYN082AAXX  23184 82198 21495 61606 10275 20250 30081 40132 72152 86200 333 58014 60011;
0187821980999992012062400004-01717-045400FM-12+004499999V0200701N002612200019N0002001N1+02561+02331101491ADDGF102991021061012501001001KA1240M+03071MA1999999102092MD1999999-0021REMSYN088AAXX  24004 82198 32692 20705 10256 20233 30209 40149 82600 333 10307 29086 55075 59002;EQDQ01+102093APOSP 
0173821980999992012062412004-01717-045400FM-12+004499999V0200501N002610042019N0020001N1+02881+02371101531ADDAA124001091GF105991051021004501001001KA1240N+02331MA1999999101021MD1999999-0021REMSYN082AAXX  24124 82198 22495 50505 10288 20237 30102 40153 85200 333 20233 59002 60014;
0137821980999992012062418004-01717-045400FM-12+004499999V0200201N003110450019N0020001N1+02591+02281101321ADDGF106991041021004501061001MA1999999100711MD1999999-0101REMSYN070AAXX  24184 82198 32495 60206 10259 20228 30071 40132 84260 333 59010;
0187821980999992012062500004-01717-045400FM-12+004499999V0200201N002112200019N0002001N1+02641+02391101371ADDGF104991041021004501001001KA1240M+99999MA1999999100861MD1999999-0121REMSYN088AAXX  25004 82198 32492 40204 10264 20239 30086 40137 84200 333 10214 29076 55089 59012;EQDQ01 +02142ATMX  
0156821980999992012062512004-01717-045400FM-12+004499999V0200501N003610450019N0020001N1+02911+02431101381ADDGF106991041021004501061001KA1240N+02391MA1999999100871MD1999999-0151REMSYN076AAXX  25124 82198 32495 60507 10291 20243 30087 40138 84260 333 20239 59015;
0182821980999992012062518004-01717-045400FM-12+004499999V0201801N002610042019N0010001N1+02441+02341101281ADDAA106062091AY161061AY221061GF108991051051004501021999MA1999999100771MD1999999+0061MW1211REMSYN082AAXX  25184 82198 21494 81805 10244 20234 30077 40128 72162 8552/ 333 58006 60621;
0213821980999992012062600004-01717-045400FM-12+004499999V0202901N001512200019N0002001N1+02271+02211101501ADDAA106026991AY161061AY221061GF103991031001012501061001KA1240M+02961MA1999999100981MD1999999+0121MW1011REMSYN100AAXX  26004 82198 21692 32903 10227 20221 30098 40150 70162 83060 333 10296 29091 55027 58012 60271;
0173821980999992012062612004-01717-045400FM-12+004499999V0200901N001512200019N0020001N1+02731+02481101511ADDAA124088991GF103991031011004501001001KA1240N+02061MA1999999101001MD1999999+0131REMSYN082AAXX  26124 82198 22495 30903 10273 20248 30100 40151 83100 333 20206 58013 60894;
0182821980999992012062618004-01717-045400FM-12+004499999V0201401N002110450019N0020001N1+02581+02231101261ADDAA106000391AY151061AY221061GF107991041031004501041001MA1999999100751MD1999999-0021MW1021REMSYN082AAXX  26184 82198 21495 71404 10258 20223 30075 40126 70252 84340 333 59002 69931;
0168821980999992012062700004-01717-045400FM-12+004499999V0203601N001010450019N0002001N1+02471+02321101441ADDGF107991031021004501031001KA1240M+03121MA1999999100931MD1999999-0051REMSYN088AAXX  27004 82198 32492 73602 10247 20232 30093 40144 83230 333 10312 29088 55054 59005;
0173821980999992012062712004-01717-045400FM-12+004499999V0200701N003110042019N0020001N1+02871+02441101481ADDAA124000391GF105991051021004501001001KA1240N+02301MA1999999100971MD1999999-0031REMSYN082AAXX  27124 82198 22495 50706 10287 20244 30097 40148 85200 333 20230 59003 69934;
0182821980999992012062718004-01717-045400FM-12+004499999V0202901N001010450019N0020001N1+02481+02381101241ADDAA106016091AY161061AY221061GF107991041031004501041001MA1999999100731MD1999999-0021MW1021REMSYN082AAXX  27184 82198 21495 72902 10248 20238 30073 40124 70262 84340 333 59002 60161;
0213821980999992012062800004-01717-045400FM-12+004499999V0202301N002110450019N0002001N1+02341+02241101491ADDAA106001091AY161061AY221061GF105991021011004501041001KA1240M+03121MA1999999100981MD1999999+0051MW1021REMSYN100AAXX  28004 82198 21492 52304 10234 20224 30098 40149 70262 82140 333 10312 29090 55042 58005 60011;
0173821980999992012062812004-01717-045400FM-12+004499999V0200701N002110042019N0020001N1+02821+02541101521ADDAA124018091GF105991051021004501001001KA1240N+02181MA1999999101011MD1999999+0041REMSYN082AAXX  28124 82198 22495 50704 10282 20254 30101 40152 85200 333 20218 58004 60184;
0137821980999992012062818004-01717-045400FM-12+004499999V0201401N002110450019N0020001N1+02901+02371101191ADDGF106991041031004501061001MA1999999100681MD1999999-0051REMSYN070AAXX  28184 82198 32495 61404 10290 20237 30068 40119 84360 333 59005;
0168821980999992012062900004-01717-045400FM-12+004499999V0202701N000512200019N0002001N1+02481+02381101441ADDGF104991041001012501061001KA1240M+03181MA1999999100931MD1999999-0051REMSYN088AAXX  29004 82198 32692 42701 10248 20238 30093 40144 84060 333 10318 29086 55060 59005;
0156821980999992012062912004-01717-045400FM-12+004499999V0200701N004110042019N0020001N1+02871+02481101461ADDGF106991061021004501001001KA1240N+02211MA1999999100951MD1999999-0061REMSYN076AAXX  29124 82198 32495 60708 10287 20248 30095 40146 86200 333 20221 59006;
0182821980999992012062918004-01717-045400FM-12+004499999V0200901N002110450019N0020001N1+02951+02491101181ADDAA106007191AY161061AY221061GF106991031031004501021001MA1999999100671MD1999999-0011MW1021REMSYN082AAXX  29184 82198 21495 60904 10295 20249 30067 40118 70262 83320 333 59001 60071;
0168821980999992012063000004-01717-045400FM-12+004499999V0200901N001512200019N0002001N1+02501+02361101321ADDGF104991041001012501061001KA1240M+03001MA1999999100801MD1999999-0131REMSYN088AAXX  30004 82198 32692 40903 10250 20236 30080 40132 84060 333 10300 29085 55049 59013;
0192821980999992012063012004-01717-045400FM-12+004499999V0200701N002619999999N0020001N1+02801+02361101351ADDAA124007191GF106991999041004501021061KA1240N+02281MA1999999100841MD1999999-0111REMSYN082AAXX  30124 82198 22495 60705 10280 20236 30084 40135 88426 333 20228 59011 60074;EQDQ01+000082SCOTLC
0182821980999992012063018004-01717-045400FM-12+004499999V0200201N002610042019N0020001N1+02911+02391101021ADDAA106009991AY161061AY221061GF106991051021004501041001MA1999999100511MD1999999-0161MW1021REMSYN082AAXX  30184 82198 21495 60205 10291 20239 30051 40102 70262 85240 333 59016 60101;
0213821980999992012070100004-01717-045400FM-12+004499999V0200901N002110450019N0002001N1+02561+02361101341ADDAA106001091AY161061AY221061GF105991021021004501041001KA1240M+03101MA1999999100831MD1999999+0031MW1021REMSYN100AAXX  01004 82198 21492 50904 10256 20236 30083 40134 70262 82240 333 10310 29082 55069 58003 60011;
0173821980999992012070112004-01717-045400FM-12+004499999V0200701N003112200019N0020001N1+02901+02431101371ADDAA124010991GF104991041021004501001001KA1240N+02331MA1999999100861MD1999999+0021REMSYN082AAXX  01124 82198 22495 40706 10290 20243 30086 40137 84200 333 20233 58002 60114;
0137821980999992012070118004-01717-045400FM-12+004499999V0200701N002112200019N0020001N1+03121+02411100971ADDGF104991031021004501061001MA1999999100461MD1999999-0051REMSYN070AAXX  01184 82198 32495 40704 10312 20241 30046 40097 83260 333 59005;
0168821980999992012070200004-01717-045400FM-12+004499999V0200701N002112200019N0002001N1+02601+02351101191ADDGF102991021001012501061001KA1240M+03171MA1999999100681MD1999999-0151REMSYN088AAXX  02004 82198 32692 20704 10260 20235 30068 40119 82060 333 10317 29078 55074 59015;
0156821980999992012070212004-01717-045400FM-12+004499999V0200701N003110450019N0020001N1+02861+02441101271ADDGF106991031021004501061001KA1240N+02331MA1999999100761MD1999999-0101REMSYN076AAXX  02124 82198 32495 60706 10286 20244 30076 40127 83260 333 20233 59010;
0182821980999992012070218004-01717-045400FM-12+004499999V0201101N001510042019N0020001N1+02481+02321101081ADDAA106004191AY161061AY221061GF107991051031004501041001MA1999999100571MD1999999+0111MW1021REMSYN082AAXX  02184 82198 21495 71103 10248 20232 30057 40108 70262 85340 333 58011 60041;
0168821980999992012070300004-01717-045400FM-12+004499999V0200901N001510450019N0002001N1+02421+02261101321ADDGF105991021021004501041001KA1240M+03071MA1999999100811MD1999999+0131REMSYN088AAXX  03004 82198 32492 50903 10242 20226 30081 40132 82240 333 10307 29088 55032 58013;
0173821980999992012070312004-01717-045400FM-12+004499999V0200701N003110450019N0020001N1+02891+02461101341ADDAA124004191GF105991031021004501061001KA1240N+02261MA1999999100831MD1999999+0071REMSYN082AAXX  03124 82198 22495 50706 10289 20246 30083 40134 83260 333 20226 58007 60044;
0182821980999992012070318004-01717-045400FM-12+004499999V0200701N004610450019N0020001N1+02981+02331100991ADDAA106000591AY151061AY221061GF106991031021004501041001MA1999999100481MD1999999-0091MW1021REMSYN082AAXX  03184 82198 21495 60709 10298 20233 30048 40099 70252 83240 333 59009 69961;
0213821980999992012070400004-01717-045400FM-12+004499999V0201101N001010450019N0002001N1+02571+02331101241ADDAA106006191AY161061AY221061GF105991021011004501041001KA1240M+03171MA1999999100731MD1999999-0081MW1021REMSYN100AAXX  04004 82198 21492 51102 10257 20233 30073 40124 70262 82140 333 10317 29080 55058 59008 60061;
0201821980999992012070412004-01717-045400FM-12+004499999V0200701N002110450019N0020001N1+02781+02521101221ADDAA124007991AY161061AY221061GF106991041021004501061001KA1240N+02411MA1999999100711MD1999999-0121MW1021REMSYN088AAXX  04124 82198 21495 60704 10278 20252 30071 40122 70262 84260 333 20241 59012 60084;
0182821980999992012070418004-01717-045400FM-12+004499999V0200701N002610450019N0020001N1+02621+02371100991ADDAA106005191AY161061AY221061GF107991021021004501041001MA1999999100481MD1999999+0001MW1021REMSYN082AAXX  04184 82198 21495 70705 10262 20237 30048 40099 70262 82240 333 58000 60051;
0168821980999992012070500004-01717-045400FM-12+004499999V0200701N002112200019N0002001N1+02481+02381101141ADDGF104991041001012501061001KA1240M+03001MA1999999100631MD1999999-0101REMSYN088AAXX  05004 82198 32692 40704 10248 20238 30063 40114 84060 333 10300 29090 55039 59010;
0173821980999992012070512004-01717-045400FM-12+004499999V0200701N003610450019N0020001N1+02781+02441101181ADDAA124005191GF106991041021004501061001KA1240N+02401MA1999999100671MD1999999-0041REMSYN082AAXX  05124 82198 22495 60707 10278 20244 30067 40118 84260 333 20240 59004 60054;
0182821980999992012070518004-01717-045400FM-12+004499999V0200701N003610450019N0020001N1+02711+02301100961ADDAA106003091AY161061AY221061GF107991041031004501041001MA1999999100451MD1999999-0031MW1021REMSYN082AAXX  05184 82198 21495 70707 10271 20230 30045 40096 70262 84340 333 59003 60031;
0168821980999992012070600004-01717-045400FM-12+004499999V0201101N000510450019N0002001N1+02491+02301101161ADDGF106991031031004501061001KA1240M+03071MA1999999100651MD1999999+0021REMSYN088AAXX  06004 82198 32492 61101 10249 20230 30065 40116 83360 333 10307 29085 55025 58002;
0173821980999992012070612004-01717-045400FM-12+004499999V0200701N003110042019N0020001N1+02911+02411101151ADDAA124003091GF106991061021004501001001KA1240N+02391MA1999999100641MD1999999-0031REMSYN082AAXX  06124 82198 22495 60706 10291 20241 30064 40115 86200 333 20239 59003 60034;
0182821980999992012070618004-01717-045400FM-12+004499999V0200901N005110042019N0020001N1+02971+02281100851ADDAA106004191AY161061AY221061GF106991051021004501061001MA1999999100341MD1999999-0111MW1021REMSYN082AAXX  06184 82198 21495 60910 10297 20228 30034 40085 70262 85260 333 59011 60041;
0168821980999992012070700004-01717-045400FM-12+004499999V0200501N001012200019N0002001N1+02561+02361101081ADDGF102991021001012501061001KA1240M+03081MA1999999100571MD1999999-0081REMSYN088AAXX  07004 82198 32692 20502 10256 20236 30057 40108 82060 333 10308 29080 55063 59008;
0173821980999992012070712004-01717-045400FM-12+004499999V0200701N002110450019N0020001N1+02811+02501101241ADDAA124004191GF107991031021004501031001KA1240N+02401MA1999999100731MD1999999+0091REMSYN082AAXX  07124 82198 22495 70704 10281 20250 30073 40124 83230 333 20240 58009 60044;
0182821980999992012070718004-01717-045400FM-12+004499999V0200901N001010042019N0020001N1+02601+02401101041ADDAA106004191AY191061AY261061GF107991051051004501041001MA1999999100531MD1999999+0191MW1021REMSYN082AAXX  07184 82198 21495 70902 10260 20240 30053 40104 70296 85540 333 58019 60041;
0213821980999992012070800004-01717-045400FM-12+004499999V0202701N001012200019N0002001N1+02331+02241101331ADDAA106020191AY161061AY221061GF103991031031004501001001KA1240M+03111MA1999999100811MD1999999+0241MW1011REMSYN100AAXX  08004 82198 21492 32702 10233 20224 30081 40133 70162 83300 333 10311 29091 55029 58024 60201;
0173821980999992012070812004-01717-045400FM-12+004499999V0200501N002610450019N0020001N1+02811+02461101251ADDAA124023991GF107991041021004501031001KA1240N+02311MA1999999100741MD1999999+0011REMSYN082AAXX  08124 82198 22495 70505 10281 20246 30074 40125 84230 333 20231 58001 60244;
0137821980999992012070818004-01717-045400FM-12+004499999V0200201N003610450019N0020001N1+02861+02501100881ADDGF105991031021004501061001MA1999999100371MD1999999-0161REMSYN070AAXX  08184 82198 32495 50207 10286 20250 30037 40088 83260 333 59016;
0168821980999992012070900004-01717-045400FM-12+004499999V0200701N001512200019N0002001N1+02641+02481101151ADDGF103991031001012501061001KA1240M+03201MA1999999100641MD1999999+0171REMSYN088AAXX  09004 82198 32692 30703 10264 20248 30064 40115 83060 333 10320 29086 55058 58017;
0201821980999992012070912004-01717-045400FM-12+004499999V0200701N001510450019N0010001N1+02391+02131101271ADDAA124002091AY161061AY251061GF108991041051004501021999KA1240N+02301MA1999999100761MD1999999+0021MW1531REMSYN088AAXX  09124 82198 21494 80703 10239 20213 30076 40127 75365 8452/ 333 20230 58002 60024;
0182821980999992012070918004-01717-045400FM-12+004499999V0200901N002110450019N0020001N1+02511+02361101131ADDAA106003091AY161061AY251061GF108991041051004501041999MA1999999100621MD1999999+0231MW1021REMSYN082AAXX  09184 82198 21495 80904 10251 20236 30062 40113 70265 8454/ 333 58023 60031;
0168821980999992012071000004-01717-045400FM-12+004499999V0200901N000510042019N0002001N1+02501+02401101231ADDGF107991051031004501041001KA1240M+02711MA1999999100721MD1999999+0081REMSYN088AAXX  10004 82198 32492 70901 10250 20240 30072 40123 85340 333 10271 29092 55000 58008;
0173821980999992012071012004-01717-045400FM-12+004499999V0200901N003610450019N0020001N1+02801+02401101241ADDAA124003091GF107991041021004501041001KA1240N+02421MA1999999100731MD1999999+0031REMSYN082AAXX  10124 82198 22495 70907 10280 20240 30073 40124 84240 333 20242 58003 60034;
0182821980999992012071018004-01717-045400FM-12+004499999V0201101N003610042019N0010001N1+02651+02421100941ADDAA106001091AY151061AY221061GF108991051051004501021999MA1999999100431MD1999999-0171MW1211REMSYN082AAXX  10184 82198 21494 81107 10265 20242 30043 40094 72152 8552/ 333 59017 60011;
0213821980999992012071100004-01717-045400FM-12+004499999V0200701N002112200019N0002001N1+02511+02361101131ADDAA106005191AY161061AY221061GF104991041031004501001001KA1240M+03131MA1999999100611MD1999999-0111MW1021REMSYN100AAXX  11004 82198 21492 40704 10251 20236 30061 40113 70262 84300 333 10313 29088 55049 59011 60051;
0173821980999992012071112004-01717-045400FM-12+004499999V0200701N002610042019N0020001N1+02801+02421101191ADDAA124006191GF107991051021004501061001KA1240N+02401MA1999999100681MD1999999-0051REMSYN082AAXX  11124 82198 22495 70705 10280 20242 30068 40119 85260 333 20240 59005 60064;
0137821980999992012071118004-01717-045400FM-12+004499999V0201401N005110042019N0020001N1+02701+02301100831ADDGF106991051021004501041001MA1999999100321MD1999999-0111REMSYN070AAXX  11184 82198 32495 61410 10270 20230 30032 40083 85240 333 59011;
0178821980999992012071200004-01717-045400FM-12+004499999V0200701N002112200019N0002001N1+02501+02381101031ADDGA1001+999999999GF100991001001999999001001KA1240M+03031MA1999999100521MD1999999-0091REMSYN082AAXX  12004 82198 32992 00704 10250 20238 30052 40103 333 10303 29086 55057 59009;
0156821980999992012071212004-01717-045400FM-12+004499999V0200901N004110450019N0020001N1+02881+02411101141ADDGF106991031021004501061021KA1240N+02341MA1999999100631MD1999999-0051REMSYN076AAXX  12124 82198 32495 60908 10288 20241 30063 40114 83262 333 20234 59005;
0137821980999992012071218004-01717-045400FM-12+004499999V0200701N002612200019N0020001N1+03161+02341100791ADDGF105991041021004501001011MA1999999100281MD1999999-0041REMSYN070AAXX  12184 82198 32495 50705 10316 20234 30028 40079 84201 333 59004;
0178821980999992012071300004-01717-045400FM-12+004499999V0200701N002112200019N0002001N1+02581+02331101081ADDGA1001+999999999GF100991001001999999001001KA1240M+03261MA1999999100571MD1999999+0051REMSYN082AAXX  13004 82198 32992 00704 10258 20233 30057 40108 333 10326 29078 55096 58005;
0156821980999992012071312004-01717-045400FM-12+004499999V0200701N003610042019N0020001N1+02841+02501101281ADDGF106991051021004501061001KA1240N+02391MA1999999100871MD1999999+0141REMSYN076AAXX  13124 82198 32495 60707 10284 20250 30087 40128 85260 333 20239 58014;
0137821980999992012071318004-01717-045400FM-12+004499999V0200201N003110042019N0020001N1+03011+02391100861ADDGF105991051021004501001001MA1999999100351MD1999999+0071REMSYN070AAXX  13184 82198 32495 50206 10301 20239 30035 40086 85200 333 58007;
0168821980999992012071400004-01717-045400FM-12+004499999V0200701N002612200019N0002001N1+02621+02411101151ADDGF103991031021004501001001KA1240M+03201MA1999999100641MD1999999+0071REMSYN088AAXX  14004 82198 32492 30705 10262 20241 30064 40115 83200 333 10320 29082 55082 58007;
0156821980999992012071412004-01717-045400FM-12+004499999V0200701N004110042019N0020001N1+02901+02501101341ADDGF106991051021004501061001KA1240N+02431MA1999999100831MD1999999+0061REMSYN076AAXX  14124 82198 32495 60708 10290 20250 30083 40134 85260 333 20243 58006;
0137821980999992012071418004-01717-045400FM-12+004499999V0200701N005112200019N0020001N1+03141+02401100921ADDGF103991021021004501061001MA1999999100411MD1999999+0061REMSYN070AAXX  14184 82198 32495 30710 10314 20240 30041 40092 82260 333 58006;
0178821980999992012071500004-01717-045400FM-12+004499999V0200701N002112200019N0002001N1+02611+02351101191ADDGA1001+999999999GF100991001001999999001001KA1240M+03221MA1999999100681MD1999999+0041REMSYN082AAXX  15004 82198 32992 00704 10261 20235 30068 40119 333 10322 29079 55084 58004;
0156821980999992012071512004-01717-045400FM-12+004499999V0200901N005110450019N0020001N1+02751+02341101351ADDGF106991041031004501061001KA1240N+02431MA1999999100841MD1999999+0011REMSYN076AAXX  15124 82198 32495 60910 10275 20234 30084 40135 84360 333 20243 58001;
0178821980999992012071600004-01717-045400FM-12+004499999V0200701N002112200019N0005001N1+02681+02311101181ADDGA1001+999999999GF100991001001999999001001KA1240M+03071MA1999999100671MD1999999-0011REMSYN082AAXX  16004 82198 32993 00704 10268 20231 30067 40118 333 10307 29077 55054 59001;
0173821980999992012071612004-01717-045400FM-12+004499999V0200701N003110450019N0020001N1+02831+02401101291ADDAA124000591GF106991041021004501061011KA1240N+02421MA1999999100781MD1999999-0061REMSYN082AAXX  16124 82198 22495 60706 10283 20240 30078 40129 84261 333 20242 59006 69964;
0182821980999992012071618004-01717-045400FM-12+004499999V0200901N003610450019N0020001N1+02961+02311100961ADDAA106000591AY151061AY221061GF105991031021004501061001MA1999999100451MD1999999-0031MW1021REMSYN082AAXX  16184 82198 21495 50907 10296 20231 30045 40096 70252 83260 333 59003 69941;
0178821980999992012071700004-01717-045400FM-12+004499999V0200701N001512200019N0002001N1+02581+02381101191ADDGA1001+999999999GF100991001001999999001001KA1240M+03221MA1999999100681MD1999999+0011REMSYN082AAXX  17004 82198 32992 00703 10258 20238 30068 40119 333 10322 29081 55074 58001;
0173821980999992012071712004-01717-045400FM-12+004499999V0200701N004612200019N0020001N1+02871+02441101271ADDAA124000591GF104991041011004501001001KA1240N+02381MA1999999100761MD1999999-0021REMSYN082AAXX  17124 82198 22495 40709 10287 20244 30076 40127 84100 333 20238 59002 69944;
0137821980999992012071718004-01717-045400FM-12+004499999V0200901N003612200019N0020001N1+03171+02411100951ADDGF104991041021004501001001MA1999999100441MD1999999-0011REMSYN070AAXX  17184 82198 32495 40907 10317 20241 30044 40095 84200 333 59001;
0213821980999992012071800004-01717-045400FM-12+004499999V0200701N002112200019N0002001N1+02561+02401101291ADDAA106004191AY161061AY221061GF103991031031004501001001KA1240M+03251MA1999999100781MD1999999+0101MW1021REMSYN100AAXX  18004 82198 21492 30704 10256 20240 30078 40129 70262 83300 333 10325 29081 55076 58010 60041;
0173821980999992012071812004-01717-045400FM-12+004499999V0200701N003110450019N0020001N1+02841+02541101411ADDAA124004191GF106991031021004501031001KA1240N+02341MA1999999100901MD1999999+0141REMSYN082AAXX  18124 82198 22495 60706 10284 20254 30090 40141 83230 333 20234 58014 60044;
0182821980999992012071818004-01717-045400FM-12+004499999V0202301N001510450019N0020001N1+02681+02391101081ADDAA106002091AY161061AY221061GF107991041051004501041001MA1999999100571MD1999999+0131MW1151REMSYN082AAXX  18184 82198 21495 72303 10268 20239 30057 40108 71562 84540 333 58013 60021;
0232821980999992012071900004-01717-045400FM-12+004499999V0202001N001512200019N0002001N1+02391+02291101361ADDAA106000091AY151061AY221061GF103991031031004501001001KA1240M+03141MA1999999100851MD1999999+0071MW1011REMSYN100AAXX  19004 82198 21492 32003 10239 20229 30085 40136 70152 83300 333 10314 29090 55038 58007 69921;EQDQ01  00002PRCP06
0173821980999992012071912004-01717-045400FM-12+004499999V0200901N004610450019N0020001N1+02881+02481101391ADDAA124002091GF106991031021004501031001KA1240N+02291MA1999999100881MD1999999-0021REMSYN082AAXX  19124 82198 22495 60909 10288 20248 30088 40139 83230 333 20229 59002 60024;
0182821980999992012071918004-01717-045400FM-12+004499999V0200701N004110450019N0020001N1+02961+02421101031ADDAA106002091AY161061AY221061GF106991041021004501061001MA1999999100521MD1999999-0051MW1211REMSYN082AAXX  19184 82198 21495 60708 10296 20242 30052 40103 72162 84260 333 59005 60021;
0173821980999992012072012004-01717-045400FM-12+004499999V0200701N005110042019N0020001N1+02921+02411101351ADDAA124002091GF105991051021004501001001KA1240N+02411MA1999999100841MD1999999-0041REMSYN082AAXX  20124 82198 22495 50710 10292 20241 30084 40135 85200 333 20241 59004 60024;
0137821980999992012072018004-01717-045400FM-12+004499999V0200701N005112200019N0020001N1+03121+02301100971ADDGF104991041021004501001001MA1999999100461MD1999999-0061REMSYN070AAXX  20184 82198 32495 40710 10312 20230 30046 40097 84200 333 59006;
0178821980999992012072100004-01717-045400FM-12+004499999V0200701N002112200019N0002001N1+02591+02351101141ADDGA1001+999999999GF100991001001999999001001KA1240M+03241MA1999999100631MD1999999-0121REMSYN082AAXX  21004 82198 32992 00704 10259 20235 30063 40114 333 10324 29078 55098 59012;
0156821980999992012072112004-01717-045400FM-12+004499999V0200701N003610042019N0020001N1+02671+02431101371ADDGF107991051031004501061001KA1240N+02401MA1999999100861MD1999999+0021REMSYN076AAXX  21124 82198 32495 70707 10267 20243 30086 40137 85360 333 20240 58002;
0137821980999992012072118004-01717-045400FM-12+004499999V0200501N004610450019N0020001N1+02951+02331101051ADDGF105991041021004501061001MA1999999100541MD1999999+0081REMSYN070AAXX  21184 82198 32495 50509 10295 20233 30054 40105 84260 333 58008;
0178821980999992012072200004-01717-045400FM-12+004499999V0200701N002612200019N0002001N1+02541+02361101241ADDGA1001+999999999GF100991001001999999001001KA1240M+03041MA1999999100731MD1999999+0101REMSYN082AAXX  22004 82198 32992 00705 10254 20236 30073 40124 333 10304 29084 55081 58010;
0156821980999992012072212004-01717-045400FM-12+004499999V0200701N003110450019N0020001N1+02821+02461101401ADDGF105991041021004501061001KA1240N+02401MA1999999100891MD1999999+0031REMSYN076AAXX  22124 82198 32495 50706 10282 20246 30089 40140 84260 333 20240 58003;
0137821980999992012072218004-01717-045400FM-12+004499999V0200901N005712200019N0020001N1+03041+02201101091ADDGF104991041021004501001001MA1999999100581MD1999999+0041REMSYN070AAXX  22184 82198 32495 40911 10304 20220 30058 40109 84200 333 58004;
0178821980999992012072300004-01717-045400FM-12+004499999V0200701N002112200019N0002001N1+02581+02281101281ADDGA1001+999999999GF100991001001999999001001KA1240M+03131MA1999999100771MD1999999+0041REMSYN082AAXX  23004 82198 32992 00704 10258 20228 30077 40128 333 10313 29078 55088 58004;
0156821980999992012072312004-01717-045400FM-12+004499999V0200701N003610042019N0020001N1+02891+02441101391ADDGF106991061021004501001001KA1240N+02331MA1999999100881MD1999999-0011REMSYN076AAXX  23124 82198 32495 60707 10289 20244 30088 40139 86200 333 20233 59001;
0137821980999992012072318004-01717-045400FM-12+004499999V0200701N005112200019N0020001N1+03081+02371100991ADDGF104991041021004501001001MA1999999100481MD1999999-0101REMSYN070AAXX  23184 82198 32495 40710 10308 20237 30048 40099 84200 333 59010;
0168821980999992012072400004-01717-045400FM-12+004499999V0200701N001510450019N0002001N1+02651+02391101161ADDGF106991031021004501061001KA1240M+03241MA1999999100651MD1999999-0121REMSYN088AAXX  24004 82198 32492 60703 10265 20239 30065 40116 83260 333 10324 29079 55094 59012;
0156821980999992012072412004-01717-045400FM-12+004499999V0200701N004110042019N0020001N1+02831+02401101341ADDGF107991051021004501061001KA1240N+02501MA1999999100831MD1999999-0051REMSYN076AAXX  24124 82198 32495 70708 10283 20240 30083 40134 85260 333 20250 59005;
0182821980999992012072418004-01717-045400FM-12+004499999V0200901N005710042019N0020001N1+03041+02261100971ADDAA106001091AY151061AY221061GF106991051021004501061001MA1999999100461MD1999999-0021MW1021REMSYN082AAXX  24184 82198 21495 60911 10304 20226 30046 40097 70252 85260 333 59002 69991;
0168821980999992012072500004-01717-045400FM-12+004499999V0200701N001512200019N0002001N1+02551+02291101191ADDGF104991041001012501061001KA1240M+03131MA1999999100681MD1999999+0031REMSYN088AAXX  25004 82198 32692 40703 10255 20229 30068 40119 84060 333 10313 29078 55079 58003;
0173821980999992012072512004-01717-045400FM-12+004499999V0200901N003110450019N0020001N1+02781+02401101341ADDAA124001091GF106991041021004501061001KA1240N+02341MA1999999100831MD1999999+0001REMSYN082AAXX  25124 82198 22495 60906 10278 20240 30083 40134 84260 333 20234 58000 69994;
0182821980999992012072518004-01717-045400FM-12+004499999V0200901N000510042019N0020001N1+02961+02471101041ADDAA106001091AY161061AY221061GF106991051021004501061001MA1999999100531MD1999999+0071MW1021REMSYN082AAXX  25184 82198 21495 60901 10296 20247 30053 40104 70262 85260 333 58007 60011;
0168821980999992012072600004-01717-045400FM-12+004499999V0200501N000512200019N0002001N1+02571+02331101241ADDGF102991021001012501061001KA1240M+03121MA1999999100731MD1999999+0051REMSYN088AAXX  26004 82198 32692 20501 10257 20233 30073 40124 82060 333 10312 29082 55041 58005;
0173821980999992012072612004-01717-045400FM-12+004499999V0200901N003610042019N0020001N1+02821+02461101351ADDAA124001091GF106991061021004501001001KA1240N+02401MA1999999100841MD1999999+0011REMSYN082AAXX  26124 82198 22495 60907 10282 20246 30084 40135 86200 333 20240 58001 60014;
0137821980999992012072618004-01717-045400FM-12+004499999V0201101N004112200019N0020001N1+03131+02251100921ADDGF104991041021004501001001MA1999999100411MD1999999-0121REMSYN070AAXX  26184 82198 32495 41108 10313 20225 30041 40092 84200 333 59012;
0178821980999992012072700004-01717-045400FM-12+004499999V0200701N002112200019N0002001N1+02601+02351101181ADDGA1001+999999999GF100991001001999999001001KA1240M+03191MA1999999100671MD1999999-0061REMSYN082AAXX  27004 82198 32992 00704 10260 20235 30067 40118 333 10319 29078 55093 59006;
0156821980999992012072712004-01717-045400FM-12+004499999V0200901N003610042019N0020001N1+02781+02401101391ADDGF106991061021004501001001KA1240N+02371MA1999999100881MD1999999+0041REMSYN076AAXX  27124 82198 32495 60907 10278 20240 30088 40139 86200 333 20237 58004;
0137821980999992012072718004-01717-045400FM-12+004499999V0200901N004112200019N0020001N1+03151+02321100951ADDGF104991041021004501001001MA1999999100441MD1999999+0031REMSYN070AAXX  27184 82198 32495 40908 10315 20232 30044 40095 84200 333 58003;
0178821980999992012072800004-01717-045400FM-12+004499999V0200701N001512200019N0002001N1+02561+02291101191ADDGA1001+999999999GF100991001001999999001001KA1240M+03201MA1999999100681MD1999999+0011REMSYN082AAXX  28004 82198 32992 00703 10256 20229 30068 40119 333 10320 29078 55081 58001;
0156821980999992012072812004-01717-045400FM-12+004499999V0200901N003110042019N0020001N1+02931+02471101271ADDGF105991051021004501001001KA1240N+02401MA1999999100761MD1999999-0121REMSYN076AAXX  28124 82198 32495 50906 10293 20247 30076 40127 85200 333 20240 59012;
0182821980999992012072818004-01717-045400FM-12+004499999V0200901N004110450019N0020001N1+03021+02361100891ADDAA106000591AY151061AY221061GF105991041021004501061001MA1999999100381MD1999999-0061MW1021REMSYN082AAXX  28184 82198 21495 50908 10302 20236 30038 40089 70252 84260 333 59006 69951;
0178821980999992012072900004-01717-045400FM-12+004499999V0200501N002112200019N0002001N1+02581+02381101071ADDGA1001+999999999GF100991001001999999001001KA1240M+03201MA1999999100561MD1999999-0121REMSYN082AAXX  29004 82198 32992 00504 10258 20238 30056 40107 333 10320 29081 55081 59012;
0173821980999992012072912004-01717-045400FM-12+004499999V0200901N003610042019N0020001N1+02851+02391101171ADDAA124000591GF106991061021004501001001KA1240N+02311MA1999999100661MD1999999-0101REMSYN082AAXX  29124 82198 22495 60907 10285 20239 30066 40117 86200 333 20231 59010 69954;
0137821980999992012072918004-01717-045400FM-12+004499999V0200701N003610042019N0020001N1+03231+02371100711ADDGF105991051021004501001001MA1999999100201MD1999999-0181REMSYN070AAXX  29184 82198 32495 50707 10323 20237 30020 40071 85200 333 59018;
0178821980999992012073000004-01717-045400FM-12+004499999V0200701N002112200019N0002001N1+02581+02291101051ADDGA1001+999999999GF100991001001999999001001KA1240M+03301MA1999999100541MD1999999-0021REMSYN082AAXX  30004 82198 32992 00704 10258 20229 30054 40105 333 10330 29076 55095 59002;
0156821980999992012073012004-01717-045400FM-12+004499999V0200701N003610042019N0020001N1+02861+02421101281ADDGF105991051021004501001001KA1240N+02381MA1999999100771MD1999999+0111REMSYN076AAXX  30124 82198 32495 50707 10286 20242 30077 40128 85200 333 20238 58011;
0137821980999992012073018004-01717-045400FM-12+004499999V0200501N002110042019N0020001N1+03041+02381100891ADDGF105991051021004501001001MA1999999100381MD1999999+0181REMSYN070AAXX  30184 82198 32495 50504 10304 20238 30038 40089 85200 333 58018;
0178821980999992012073100004-01717-045400FM-12+004499999V0200701N001512200019N0002001N1+02561+02291101171ADDGA1001+999999999GF100991001001999999001001KA1240M+03281MA1999999100661MD1999999+0121REMSYN082AAXX  31004 82198 32992 00703 10256 20229 30066 40117 333 10328 29079 55071 58012;
0156821980999992012073112004-01717-045400FM-12+004499999V0200901N003612200019N0020001N1+02791+02421101331ADDGF104991041021004501001001KA1240N+02311MA1999999100811MD1999999+0041REMSYN076AAXX  31124 82198 32495 40907 10279 20242 30081 40133 84200 333 20231 58004;
0137821980999992012073118004-01717-045400FM-12+004499999V0201401N003612200019N0020001N1+03191+02061100821ADDGF103991031021004501001001MA1999999100311MD1999999-0071REMSYN070AAXX  31184 82198 32495 31407 10319 20206 30031 40082 83200 333 59007;
0178821980999992012080100004-01717-045400FM-12+004499999V0200501N001512200019N0002001N1+02611+02351101301ADDGA1001+999999999GF100991001001999999001001KA1240M+03251MA1999999100781MD1999999+0121REMSYN082AAXX  01004 82198 32992 00503 10261 20235 30078 40130 333 10325 29076 55097 58012;
0156821980999992012080112004-01717-045400FM-12+004499999V0200701N002610042019N0020001N1+02891+02271101461ADDGF105991051021004501001001KA1240N+02301MA1999999100941MD1999999+0131REMSYN076AAXX  01124 82198 32495 50705 10289 20227 30094 40146 85200 333 20230 58013;
0137821980999992012080118004-01717-045400FM-12+004499999V0201101N003110042019N0020001N1+02961+02281101061ADDGF105991051021004501001001MA1999999100551MD1999999+0241REMSYN070AAXX  01184 82198 32495 51106 10296 20228 30055 40106 85200 333 58024;
0168821980999992012080200004-01717-045400FM-12+004499999V0200701N001519999999N0002001N1+02611+02371101341ADDGF106991061001022501001011KA1240M+03281MA1999999100821MD1999999+0041REMSYN088AAXX  02004 82198 32892 60703 10261 20237 30082 40134 86001 333 10328 29078 55084 58004;
0156821980999992012080212004-01717-045400FM-12+004499999V0200901N004110042019N0020001N1+02871+02311101421ADDGF105991051021004501001001KA1240N+02301MA1999999100901MD1999999-0041REMSYN076AAXX  02124 82198 32495 50908 10287 20231 30090 40142 85200 333 20230 59004;
0137821980999992012080218004-01717-045400FM-12+004499999V0200901N005110450019N0020001N1+02891+02201101051ADDGF106991041021004501061001MA1999999100541MD1999999-0011REMSYN070AAXX  02184 82198 32495 60910 10289 20220 30054 40105 84260 333 59001;
0168821980999992012080300004-01717-045400FM-12+004499999V0200701N002112200019N0002001N1+02581+02371101221ADDGF103991011011004501021011KA1240M+03311MA1999999100711MD1999999-0111REMSYN088AAXX  03004 82198 32492 30704 10258 20237 30071 40122 81121 333 10331 29080 55080 59011;
0156821980999992012080312004-01717-045400FM-12+004499999V0200501N003112200019N0020001N1+02801+02361101321ADDGF104991031021004501031001KA1240N+02401MA1999999100781MD1999999-0121REMSYN076AAXX  03124 82198 32495 40506 10280 20236 30078 40132 83230 333 20240 59012;
0137821980999992012080318004-01717-045400FM-12+004499999V0200701N004610450019N0020001N1+03031+02341100961ADDGF106991041051004501061001MA1999999100451MD1999999-0091REMSYN070AAXX  03184 82198 32495 60709 10303 20234 30045 40096 84560 333 59009;
0156821980999992012080412004-01717-045400FM-12+004499999V0200701N003110450019N0020001N1+02871+02361101361ADDGF106991041021004501061001KA1240N+02491MA1999999100841MD1999999+0061REMSYN076AAXX  04124 82198 32495 60706 10287 20236 30084 40136 84260 333 20249 58006;
0137821980999992012080418004-01717-045400FM-12+004499999V0203601N004110450019N0020001N1+02991+02421101041ADDGF106991041021004501061001MA1999999100531MD1999999+0081REMSYN070AAXX  04184 82198 32495 63608 10299 20242 30053 40104 84260 333 58008;
0168821980999992012080500004-01717-045400FM-12+004499999V0201701N001512200019N0002001N1+02591+02271101361ADDGF103991031001017501021001KA1240M+03231MA1999999100841MD1999999+0061REMSYN088AAXX  05004 82198 32792 31703 10259 20227 30084 40136 83020 333 10323 29081 55061 58006;
0173821980999992012080512004-01717-045400FM-12+004499999V0200701N004110450019N0002001N1+02831+02361101371ADDAA124001091GF106991041021004501061001KA1240N+02401MA1999999100851MD1999999+0011REMSYN082AAXX  05124 82198 22492 60708 10283 20236 30085 40137 84260 333 20240 58001 60014;
0137821980999992012080518004-01717-045400FM-12+004499999V0200701N004612200019N0020001N1+03061+02251101091ADDGF104991041021004501001001MA1999999100581MD1999999+0051REMSYN070AAXX  05184 82198 32495 40709 10306 20225 30058 40109 84200 333 58005;
0178821980999992012080600004-01717-045400FM-12+004499999V0200701N002612200019N0002001N1+02571+02461101321ADDGA1001+999999999GF100991001001999999001001KA1240M+03261MA1999999100801MD1999999-0041REMSYN082AAXX  06004 82198 32992 00705 10257 20246 30080 40132 333 10326 29081 55071 59004;
0156821980999992012080612004-01717-045400FM-12+004499999V0200701N004610042019N0020001N1+02631+02251101371ADDGF105991051021004501001001KA1240N+02381MA1999999100851MD1999999+0001REMSYN076AAXX  06124 82198 32495 50709 10263 20225 30085 40137 85200 333 20238 58000;
0137821980999992012080618004-01717-045400FM-12+004499999V0203601N004112200019N0020001N1+03091+02191101041ADDGF104991041021004501001001MA1999999100531MD1999999-0051REMSYN070AAXX  06184 82198 32495 43608 10309 20219 30053 40104 84200 333 59005;
0178821980999992012080700004-01717-045400FM-12+004499999V0200501N002112200019N0002001N1+02591+02321101261ADDGA1001+999999999GF100991001001999999001001KA1240M+03281MA1999999100751MD1999999-0051REMSYN082AAXX  07004 82198 32992 00504 10259 20232 30075 40126 333 10328 29078 55088 59005;
0156821980999992012080712004-01717-045400FM-12+004499999V0200701N003110450019N0020001N1+02861+02391101341ADDGF107991031021004501031001KA1240N+02381MA1999999100831MD1999999-0021REMSYN076AAXX  07124 82198 32495 70706 10286 20239 30083 40134 83230 333 20238 59002;
0182821980999992012080718004-01717-045400FM-12+004499999V0200701N005110042019N0020001N1+03121+02331101041ADDAA106004191AY161061AY221061GF105991051021004501001001MA1999999100531MD1999999+0001MW1021REMSYN082AAXX  07184 82198 21495 50710 10312 20233 30053 40104 70262 85200 333 58000 60041;
0178821980999992012080800004-01717-045400FM-12+004499999V0200701N002112200019N0002001N1+02601+02391101271ADDGA1001+999999999GF100991001001999999001001KA1240M+03251MA1999999100761MD1999999+0011REMSYN082AAXX  08004 82198 32992 00704 10260 20239 30076 40127 333 10325 29079 55053 58001;
0173821980999992012080812004-01717-045400FM-12+004499999V0200701N003610042019N0020001N1+02871+02441101341ADDAA124004191GF108991061051004501041999KA1240N+02401MA1999999100881MD1999999+0051REMSYN082AAXX  08124 82198 22495 80707 10287 20244 30088 40134 8654/ 333 20240 58005 60044;
0182821980999992012080818004-01717-045400FM-12+004499999V0200701N004110042019N0020001N1+03081+02421101071ADDAA106002091AY161061AY221061GF105991051021004501001001MA1999999100561MD1999999+0031MW1021REMSYN082AAXX  08184 82198 21495 50708 10308 20242 30056 40107 70262 85200 333 58003 60021;
0168821980999992012080900004-01717-045400FM-12+004499999V0200701N002112200019N0002001N1+02601+02401101281ADDGF104991041021004501001001KA1240M+03141MA1999999100771MD1999999+0011REMSYN088AAXX  09004 82198 32492 40704 10260 20240 30077 40128 84200 333 10314 29081 55064 58001;
0173821980999992012080912004-01717-045400FM-12+004499999V0200701N003610042019N0020001N1+02851+02351101391ADDAA124002091GF106991051021004501001011KA1240N+02371MA1999999100881MD1999999+0001REMSYN082AAXX  09124 82198 22495 60707 10285 20235 30088 40139 85201 333 20237 58000 60024;
0137821980999992012080918004-01717-045400FM-12+004499999V0200901N004110042019N0100001N1+03241+02391100991ADDGF105991051021004501001001MA1999999100481MD1999999-0081REMSYN070AAXX  09184 82198 32497 50908 10324 20239 30048 40099 85200 333 59008;
0178821980999992012081000004-01717-045400FM-12+004499999V0200701N002112200019N0002001N1+02591+02351101241ADDGA1001+999999999GF100991001001999999001001KA1240M+03281MA1999999100731MD1999999-0041REMSYN082AAXX  10004 82198 32992 00704 10259 20235 30073 40124 333 10328 29078 55081 59004;
0156821980999992012081012004-01717-045400FM-12+004499999V0200901N003110042019N0020001N1+02931+02451101371ADDGF106991051021004501031001KA1240N+02381MA1999999100861MD1999999-0021REMSYN076AAXX  10124 82198 32495 60906 10293 20245 30086 40137 85230 333 20238 59002;
0137821980999992012081018004-01717-045400FM-12+004499999V0200901N004612200019N0020001N1+03071+02211101031ADDGF103991021021004501061001MA1999999100521MD1999999+0041REMSYN070AAXX  10184 82198 32495 30909 10307 20221 30052 40103 82260 333 58004;
0168821980999992012081100004-01717-045400FM-12+004499999V0200701N001012200019N0002001N1+02671+02391101231ADDGF103991031001012501061001KA1240M+03231MA1999999100721MD1999999-0011REMSYN088AAXX  11004 82198 32692 30702 10267 20239 30072 40123 83060 333 10323 29076 55080 59001;
0156821980999992012081112004-01717-045400FM-12+004499999V0200701N005110042019N0020001N1+02901+02371101381ADDGF106991051021004501061001KA1240N+02391MA1999999100871MD1999999+0011REMSYN076AAXX  11124 82198 32495 60710 10290 20237 30087 40138 85260 333 20239 58001;
0137821980999992012081118004-01717-045400FM-12+004499999V0200901N005710042019N0020001N1+02811+02251101041ADDGF107991051051004501061001MA1999999100531MD1999999+0011REMSYN070AAXX  11184 82198 32495 70911 10281 20225 30053 40104 85560 333 58001;
0178821980999992012081200004-01717-045400FM-12+004499999V0200701N002112200019N0002001N1+02561+02331101241ADDGA1001+999999999GF100991001001999999001001KA1240M+03221MA1999999100731MD1999999+0011REMSYN082AAXX  12004 82198 32992 00704 10256 20233 30073 40124 333 10322 29080 55054 58001;
0156821980999992012081212004-01717-045400FM-12+004499999V0200701N004610042019N0020001N1+02901+02341101421ADDGF105991051031004501001001KA1240N+02321MA1999999100911MD1999999+0041REMSYN076AAXX  12124 82198 32495 50709 10290 20234 30091 40142 85300 333 20232 58004;
0137821980999992012081218004-01717-045400FM-12+004499999V0200701N005710450019N0020001N1+03081+02191101061ADDGF105991041021004501061001MA1999999100551MD1999999+0021REMSYN070AAXX  12184 82198 32495 50711 10308 20219 30055 40106 84260 333 58002;
0178821980999992012081300004-01717-045400FM-12+004499999V0200701N001512200019N0002001N1+02541+02271101271ADDGA1001+999999999GF100991001001999999001001KA1240M+03181MA1999999100761MD1999999+0031REMSYN082AAXX  13004 82198 32992 00703 10254 20227 30076 40127 333 10318 29075 55090 58003;
0156821980999992012081312004-01717-045400FM-12+004499999V0200901N005110042019N0020001N1+02891+02391101491ADDGF106991061021004501001001KA1240N+02281MA1999999100981MD1999999+0071REMSYN076AAXX  13124 82198 32495 60910 10289 20239 30098 40149 86200 333 20228 58007;
0182821980999992012081318004-01717-045400FM-12+004499999V0201801N002110450019N0020001N1+03071+02211101081ADDAA106000591AY151061AY221061GF106991031021004501021001MA1999999100571MD1999999+0021MW1531REMSYN082AAXX  13184 82198 21495 61804 10307 20221 30057 40108 75352 83220 333 58002 69951;
0178821980999992012081400004-01717-045400FM-12+004499999V0200501N001512200019N0002001N1+02601+02421101251ADDGA1001+999999999GF100991001001999999001001KA1240M+03281MA1999999100741MD1999999-0021REMSYN082AAXX  14004 82198 32992 00503 10260 20242 30074 40125 333 10328 29079 55082 59002;
0173821980999992012081412004-01717-045400FM-12+004499999V0200701N003610042019N0020001N1+02881+02411101361ADDAA124000591GF106991061021004501001001KA1240N+02371MA1999999100851MD1999999-0131REMSYN082AAXX  14124 82198 22495 60707 10288 20241 30085 40136 86200 333 20237 59013 69954;
0182821980999992012081418004-01717-045400FM-12+004499999V0200501N003110042019N0020001N1+03071+02451101031ADDAA106000591AY151061AY221061GF106991051021004501061001MA1999999100521MD1999999-0051MW1021REMSYN082AAXX  14184 82198 21495 60506 10307 20245 30052 40103 70252 85260 333 59005 69941;
0168821980999992012081500004-01717-045400FM-12+004499999V0200501N002610450019N0002001N1+02651+02311101241ADDGF107991021021004501071001KA1240M+03171MA1999999100741MD1999999+0001REMSYN088AAXX  15004 82198 32492 70505 10265 20231 30074 40124 82270 333 10317 29078 55059 58000;
0173821980999992012081512004-01717-045400FM-12+004499999V0200901N004110042019N0020001N1+02761+02331101421ADDAA124000591GF107991061051004501041001KA1240N+02291MA1999999100911MD1999999+0061REMSYN082AAXX  15124 82198 22495 70908 10276 20233 30091 40142 86540 333 20229 58006 69944;
0182821980999992012081518004-01717-045400FM-12+004499999V0200901N004610042019N0020001N1+03091+02241101031ADDAA106003091AY161061AY221061GF105991051021004501001001MA1999999100521MD1999999+0001MW1021REMSYN082AAXX  15184 82198 21495 50909 10309 20224 30052 40103 70262 85200 333 58000 60031;
0178821980999992012081600004-01717-045400FM-12+004499999V0200701N002612200019N0002001N1+02551+02311101291ADDGA1001+999999999GF100991001001999999001001KA1240M+03201MA1999999100781MD1999999+0041REMSYN082AAXX  16004 82198 32992 00705 10255 20231 30078 40129 333 10320 29078 55066 58004;
0173821980999992012081612004-01717-045400FM-12+004499999V0200901N004612200019N0020001N1+02901+02341101451ADDAA124003091GF104991041021004501001001KA1240N+02291MA1999999100941MD1999999+0031REMSYN082AAXX  16124 82198 22495 40909 10290 20234 30094 40145 84200 333 20229 58003 60034;
0137821980999992012081618004-01717-045400FM-12+004499999V0201101N004112200019N0020001N1+03331+02141100991ADDGF103991031021004501001001MA1999999100481MD1999999-0041REMSYN070AAXX  16184 82198 32495 31108 10333 20214 30048 40099 83200 333 59004;
0178821980999992012081700004-01717-045400FM-12+004499999V0200501N002612200019N0002001N1+02571+02311101191ADDGA1001+999999999GF100991001001999999001001KA1240M+03381MA1999999100681MD1999999-0101REMSYN082AAXX  17004 82198 32992 00505 10257 20231 30068 40119 333 10338 29073 55095 59010;
0156821980999992012081712004-01717-045400FM-12+004499999V0201101N003612200019N0100001N1+02861+02421101351ADDGF104991041021004501001001KA1240N+02301MA1999999100841MD1999999-0101REMSYN076AAXX  17124 82198 32497 41107 10286 20242 30084 40135 84200 333 20230 59010;
0137821980999992012081718004-01717-045400FM-12+004499999V0200901N004110042019N0020001N1+03241+02311100941ADDGF105991051021004501001001MA1999999100421MD1999999-0051REMSYN070AAXX  17184 82198 32495 50908 10324 20231 30042 40094 85200 333 59005;
0178821980999992012081800004-01717-045400FM-12+004499999V0200701N002112200019N0002001N1+02581+02291101261ADDGA1001+999999999GF100991001001999999001001KA1240M+03311MA1999999100751MD1999999+0071REMSYN082AAXX  18004 82198 32992 00704 10258 20229 30075 40126 333 10331 29076 55091 58007;
0156821980999992012081812004-01717-045400FM-12+004499999V0200901N004610042019N0020001N1+02841+02381101361ADDGF106991061021004501001001KA1240N+02301MA1999999100851MD1999999+0011REMSYN076AAXX  18124 82198 32495 60909 10284 20238 30085 40136 86200 333 20230 58001;
0182821980999992012081818004-01717-045400FM-12+004499999V0201101N002112200019N0020001N1+02901+02301101051ADDAA106005191AY161061AY221061GF103991031021004501001001MA1999999100541MD1999999+0111MW1011REMSYN082AAXX  18184 82198 21495 31104 10290 20230 30054 40105 70162 83200 333 58011 60051;
0178821980999992012081900004-01717-045400FM-12+004499999V0200501N001512200019N0002001N1+02581+02441101271ADDGA1001+999999999GF100991001001999999001001KA1240M+03191MA1999999100761MD1999999+0011REMSYN082AAXX  19004 82198 32992 00503 10258 20244 30076 40127 333 10319 29082 55075 58001;
0173821980999992012081912004-01717-045400FM-12+004499999V0200901N004112200019N0020001N1+02911+02411101441ADDAA124005191GF105991031021004501001011KA1240N+02321MA1999999100931MD1999999+0081REMSYN082AAXX  19124 82198 22495 50908 10291 20241 30093 40144 83201 333 20232 58008 60054;
0182821980999992012081918004-01717-045400FM-12+004499999V0203601N002610450019N0020001N1+02551+02361101171ADDAA106017091AY191061AY261061GF105991031021004501061001MA1999999100661MD1999999+0121MW1021REMSYN082AAXX  19184 82198 21495 53605 10255 20236 30066 40117 70296 83260 333 58012 60171;
0178821980999992012082000004-01717-045400FM-12+004499999V0200501N001012200019N0002001N1+02561+02401101321ADDGA1001+999999999GF100991001001999999001001KA1240M+03241MA1999999100811MD1999999+0051REMSYN082AAXX  20004 82198 32992 00502 10256 20240 30081 40132 333 10324 29087 55077 58005;
0173821980999992012082012004-01717-045400FM-12+004499999V0201101N003610042019N0020001N1+02781+02341101451ADDAA124017091GF106991061021004501001001KA1240N+02281MA1999999100941MD1999999+8001REMSYN082AAXX  20124 82198 22495 61107 10278 20234 30094 40145 86200 333 20228 58800 60174;
0137821980999992012082018004-01717-045400FM-12+004499999V0200701N002612200019N0020001N1+03171+02391101131ADDGF103991031021004501001001MA1999999100621MD1999999-0041REMSYN070AAXX  20184 82198 32495 30705 10317 20239 30062 40113 83200 333 59004;
0178821980999992012082100004-01717-045400FM-12+004499999V0200701N002112200019N0002001N1+02581+02371101321ADDGA1001+999999999GF100991001001999999001001KA1240M+03211MA1999999100811MD1999999+0001REMSYN082AAXX  21004 82198 32992 00704 10258 20237 30081 40132 333 10321 29078 55090 58000;
0156821980999992012082112004-01717-045400FM-12+004499999V0200901N004610042019N0020001N1+02801+02361101481ADDGF106991061021004501001001KA1240N+02231MA1999999100971MD1999999+0031REMSYN076AAXX  21124 82198 32495 60909 10280 20236 30097 40148 86200 333 20223 58003;
0137821980999992012082118004-01717-045400FM-12+004499999V0200901N004112200019N0020001N1+03251+02251101071ADDGF103991031021004501001001MA1999999100561MD1999999-0061REMSYN070AAXX  21184 82198 32495 30908 10325 20225 30056 40107 83200 333 59006;
0168821980999992012082200004-01717-045400FM-12+004499999V0200701N002112200019N0002001N1+02621+02391101291ADDGF103991031021004501001001KA1240M+03331MA1999999100781MD1999999-0031REMSYN088AAXX  22004 82198 32492 30704 10262 20239 30078 40129 83200 333 10333 29077 55095 59003;
0156821980999992012082212004-01717-045400FM-12+004499999V0200901N005110042019N0020001N1+02901+02321101391ADDGF106991061021004501001001KA1240N+02391MA1999999100881MD1999999-0091REMSYN076AAXX  22124 82198 32495 60910 10290 20232 30088 40139 86200 333 20239 59009;
0137821980999992012082218004-01717-045400FM-12+004499999V0200901N004612200019N0020001N1+03141+02271101071ADDGF104991041021004501001001MA1999999100561MD1999999+0001REMSYN070AAXX  22184 82198 32495 40909 10314 20227 30056 40107 84200 333 58000;
0178821980999992012082300004-01717-045400FM-12+004499999V0200701N002612200019N0002001N1+02551+02191101291ADDGA1001+999999999GF100991001001999999001001KA1240M+03221MA1999999100781MD1999999+0001REMSYN082AAXX  23004 82198 32992 00705 10255 20219 30078 40129 333 10322 29073 55093 58000;
0156821980999992012082312004-01717-045400FM-12+004499999V0200701N003110450019N0020001N1+02871+02371101421ADDGF106991041021004501031001KA1240N+02391MA1999999100911MD1999999-0031REMSYN076AAXX  23124 82198 32495 60706 10287 20237 30091 40142 84230 333 20239 59003;
0137821980999992012082318004-01717-045400FM-12+004499999V0200701N005712200019N0020001N1+03161+02171101041ADDGF102991021011004501001001MA1999999100531MD1999999-0031REMSYN070AAXX  23184 82198 32495 20711 10316 20217 30053 40104 82100 333 59003;
0178821980999992012082400004-01717-045400FM-12+004499999V0200701N002112200019N0002001N1+02541+02271101171ADDGA1001+999999999GF100991001001999999001001KA1240M+03241MA1999999100661MD1999999-0121REMSYN082AAXX  24004 82198 32992 00704 10254 20227 30066 40117 333 10324 29075 55094 59012;
0156821980999992012082412004-01717-045400FM-12+004499999V0200701N003610450019N0020001N1+02901+02371101281ADDGF106991041021004501061001KA1240N+02351MA1999999100771MD1999999-0141REMSYN076AAXX  24124 82198 32495 60707 10290 20237 30077 40128 84260 333 20235 59014;
0137821980999992012082418004-01717-045400FM-12+004499999V0200901N003112200019N0020001N1+03211+02271100931ADDGF103991031021004501001001MA1999999100421MD1999999-0111REMSYN070AAXX  24184 82198 32495 30906 10321 20227 30042 40093 83200 333 59011;
0178821980999992012082500004-01717-045400FM-12+004499999V0200701N002112200019N0002001N1+02561+02351101151ADDGA1001+999999999GF100991001001999999001001KA1240M+03281MA1999999100641MD1999999-0021REMSYN082AAXX  25004 82198 32992 00704 10256 20235 30064 40115 333 10328 29077 55092 59002;
0156821980999992012082512004-01717-045400FM-12+004499999V0200901N004110042019N0020001N1+02841+02311101351ADDGF106991061021004501001001KA1240N+02311MA1999999100841MD1999999+0071REMSYN076AAXX  25124 82198 32495 60908 10284 20231 30084 40135 86200 333 20231 58007;
0137821980999992012082518004-01717-045400FM-12+004499999V0200501N004610042019N0020001N1+03191+02221101061ADDGF105991051021004501001001MA1999999100551MD1999999+0121REMSYN070AAXX  25184 82198 32495 50509 10319 20222 30055 40106 85200 333 58012;
0178821980999992012082600004-01717-045400FM-12+004499999V0200501N002112200019N0002001N1+02531+02251101241ADDGA1001+999999999GF100991001001999999001001KA1240M+03321MA1999999100731MD1999999+0121REMSYN082AAXX  26004 82198 32992 00504 10253 20225 30073 40124 333 10332 29075 55092 58012;
0156821980999992012082612004-01717-045400FM-12+004499999V0200901N005110042019N0020001N1+02881+02211101321ADDGF106991061021004501001001KA1240N+02281MA1999999100911MD1999999+0071REMSYN076AAXX  26124 82198 32495 60910 10288 20221 30091 40132 86200 333 20228 58007;
0137821980999992012082618004-01717-045400FM-12+004499999V0200701N004110042019N0020001N1+03131+02171101131ADDGF105991051021004501001001MA1999999100621MD1999999+0071REMSYN070AAXX  26184 82198 32495 50708 10313 20217 30062 40113 85200 333 58007;
0178821980999992012082700004-01717-045400FM-12+004499999V0200701N002112200019N0002001N1+02561+02271101391ADDGA1001+999999999GF100991001001999999001001KA1240M+03271MA1999999100881MD1999999+0121REMSYN082AAXX  27004 82198 32992 00704 10256 20227 30088 40139 333 10327 29073 55092 58012;
0156821980999992012082712004-01717-045400FM-12+004499999V0200701N004110042019N0020001N1+02921+02361101561ADDGF106991061021004501001001KA1240N+02301MA1999999101051MD1999999+0141REMSYN076AAXX  27124 82198 32495 60708 10292 20236 30105 40156 86200 333 20230 58014;
0137821980999992012082718004-01717-045400FM-12+004499999V0200901N004612200019N0020001N1+03141+02211101171ADDGF104991041021004501001001MA1999999100661MD1999999+0041REMSYN070AAXX  27184 82198 32495 40909 10314 20221 30066 40117 84200 333 58004;
0178821980999992012082800004-01717-045400FM-12+004499999V0200701N002112200019N0002001N1+02591+02271101431ADDGA1001+999999999GF100991001001999999001001KA1240M+03231MA1999999100921MD1999999+0041REMSYN082AAXX  28004 82198 32992 00704 10259 20227 30092 40143 333 10323 29074 55091 58004;
0156821980999992012082812004-01717-045400FM-12+004499999V0200701N004110450019N0020001N1+02911+02271101621ADDGF106991041021004501061001KA1240N+02401MA1999999101101MD1999999+0051REMSYN076AAXX  28124 82198 32495 60708 10291 20227 30110 40162 84260 333 20240 58005;
0137821980999992012082818004-01717-045400FM-12+004499999V0200701N004612200019N0020001N1+03251+02151101171ADDGF104991041021004501001001MA1999999100661MD1999999+0001REMSYN070AAXX  28184 82198 32495 40709 10325 20215 30066 40117 84200 333 58000;
0168821980999992012082900004-01717-045400FM-12+004499999V0200501N001510450019N0002001N1+02641+02331101401ADDGF105991031021004501031001KA1240M+03331MA1999999100881MD1999999-0041REMSYN088AAXX  29004 82198 32492 50503 10264 20233 30088 40140 83230 333 10333 29072 55087 59004;
0156821980999992012082912004-01717-045400FM-12+004499999V0200701N005710450019N0020001N1+02891+02291101501ADDGF106991041021004501061001KA1240N+02391MA1999999100981MD1999999-0121REMSYN076AAXX  29124 82198 32495 60711 10289 20229 30098 40150 84260 333 20239 59012;
0137821980999992012082918004-01717-045400FM-12+004499999V0200501N002612200019N0020001N1+03091+02191101041ADDGF104991031021004501061001MA1999999100531MD1999999-0131REMSYN070AAXX  29184 82198 32495 40505 10309 20219 30053 40104 83260 333 59013;
0168821980999992012083000004-01717-045400FM-12+004499999V0200501N000512200019N0020001N1+02591+02371101401ADDGF103991031021004501001001KA1240M+03321MA1999999100881MD1999999+0001REMSYN088AAXX  30004 82198 32495 30501 10259 20237 30088 40140 83200 333 10332 29078 55055 58000;
0156821980999992012083012004-01717-045400FM-12+004499999V0200701N003610450019N0020001N1+02831+02341101511ADDGF106991041021004501061001KA1240N+02501MA1999999100991MD1999999+0011REMSYN076AAXX  30124 82198 32495 60707 10283 20234 30099 40151 84260 333 20250 58001;
0165821980999992012083018004-01717-045400FM-12+004499999V0200701N004110450019N0020001N1+02241+02231101091ADDAY141061AY221061GF106991041021004501061001MA1999999100581MD1999999+0051MW1051REMSYN076AAXX  30184 82198 31495 60708 10224 20223 30058 40109 70542 84260 333 58005;
0168821980999992012083100004-01717-045400FM-12+004499999V0200501N002112200019N0002001N1+02591+02371101271ADDGF101991011011004501001001KA1240M+03321MA1999999100761MD1999999-0121REMSYN088AAXX  31004 82198 32492 10504 10259 20237 30076 40127 81100 333 10332 29076 55073 59012;
0184821980999992012083112004-01717-045400FM-12+004499999V0200701N005110450019N0020001N1+02931+02251101411ADDAY111061AY221061GF106991031021004501061001KA1240N+02451MA1999999100891MD1999999-0101MW1051REMSYN082AAXX  31124 82198 31495 60710 10293 20225 30089 40141 70512 83260 333 20245 59010;
0182821980999992012083118004-01717-045400FM-12+004499999V0200701N006210450019N0020001N1+03121+02301101091ADDAA106000891AY161061AY241061GF106991031021004501061001MA1999999100581MD1999999+0001MW1151REMSYN082AAXX  31184 82198 21495 60712 10312 20230 30058 40109 71564 83260 333 58000 69981;
0168821980999992012090100004-01717-045400FM-12+004499999V0200501N002112200019N0020001N1+02551+02311101271ADDGF101991011011004501001001KA1240M+03201MA1999999100761MD1999999+0001REMSYN088AAXX  01004 82198 32495 10504 10255 20231 30076 40127 81100 333 10320 29074 55076 58000;
0201821980999992012090112004-01717-045400FM-12+004499999V0200701N005710450019N0020001N1+02921+02271101411ADDAA124000891AY141061AY221061GF106991041021004501061001KA1240N+02401MA1999999100891MD1999999-0101MW1051REMSYN088AAXX  01124 82198 21495 60711 10292 20227 30089 40141 70542 84260 333 20240 59010 69984;
0165821980999992012090118004-01717-045400FM-12+004499999V0200701N004610042019N0020001N1+03201+02211101121ADDAY141061AY221061GF105991051021004501001001MA1999999100611MD1999999+0031MW1051REMSYN076AAXX  01184 82198 31495 50709 10320 20221 30061 40112 70542 85200 333 58003;
0168821980999992012090200004-01717-045400FM-12+004499999V0200501N003112200019N0002001N1+02581+02271101301ADDGF102991011011004501041001KA1240M+03281MA1999999100791MD1999999+0031REMSYN088AAXX  02004 82198 32492 20506 10258 20227 30079 40130 81140 333 10328 29072 55089 58003;
0184821980999992012090212004-01717-045400FM-12+004499999V0200901N004610450019N0020001N1+02881+02351101481ADDAY111061AY221061GF106991041021004501061001KA1240N+02381MA1999999100961MD1999999+0071MW1051REMSYN082AAXX  02124 82198 31495 60909 10288 20235 30096 40148 70512 84260 333 20238 58007;
0137821980999992012090218004-01717-045400FM-12+004499999V0200701N003612200019N0020001N1+03281+02261101151ADDGF103991031021004501001001MA1999999100641MD1999999+0031REMSYN070AAXX  02184 82198 32495 30707 10328 20226 30064 40115 83200 333 58003;
0178821980999992012090300004-01717-045400FM-12+004499999V0200501N002112200019N0002001N1+02591+02311101471ADDGA1001+999999999GF100991001001999999001001KA1240M+03371MA1999999100951MD1999999+0161REMSYN082AAXX  03004 82198 32992 00504 10259 20231 30095 40147 333 10337 29074 55098 58016;
0184821980999992012090312004-01717-045400FM-12+004499999V0200701N004610450019N0020001N1+02871+02311101621ADDAY111061AY221061GF106991041021004501061001KA1240N+02391MA1999999101101MD1999999+0141MW1051REMSYN082AAXX  03124 82198 31495 60709 10287 20231 30110 40162 70512 84260 333 20239 58014;
0165821980999992012090318004-01717-045400FM-12+004499999V0200901N004610450019N0020001N1+03191+02301101261ADDAY121061AY221061GF106991041021004501061001MA1999999100751MD1999999+0111MW1051REMSYN076AAXX  03184 82198 31495 60909 10319 20230 30075 40126 70522 84260 333 58011;
0168821980999992012090400004-01717-045400FM-12+004499999V0200701N003612200019N0002001N1+02581+02271101451ADDGF101991011011004501001011KA1240M+03241MA1999999100931MD1999999-0021REMSYN088AAXX  04004 82198 32492 10707 10258 20227 30093 40145 81101 333 10324 29075 55095 59002;
0184821980999992012090412004-01717-045400FM-12+004499999V0200901N006210450019N0020001N1+02831+02181101571ADDAY121061AY221061GF106991031021004501061001KA1240N+02361MA1999999101051MD1999999-0051MW1051REMSYN082AAXX  04124 82198 31495 60912 10283 20218 30105 40157 70522 83260 333 20236 59005;
0165821980999992012090418004-01717-045400FM-12+004499999V0200901N005712200019N0020001N1+03201+02121101241ADDAY121061AY221061GF103991031021004501001001MA1999999100731MD1999999-0021MW1041REMSYN076AAXX  04184 82198 31495 30911 10320 20212 30073 40124 70422 83200 333 59002;
0178821980999992012090500004-01717-045400FM-12+004499999V0200501N002612200019N0002001N1+02571+02291101361ADDGA1001+999999999GF100991001001999999001001KA1240M+03381MA1999999100841MD1999999-0091REMSYN082AAXX  05004 82198 32992 00505 10257 20229 30084 40136 333 10338 29072 55095 59009;
0156821980999992012090512004-01717-045400FM-12+004499999V0200901N004610450019N0020001N1+02891+02311101571ADDGF106991041021004501061001KA1240N+02341MA1999999101051MD1999999+0001REMSYN076AAXX  05124 82198 32495 60909 10289 20231 30105 40157 84260 333 20234 58000;
0165821980999992012090518004-01717-045400FM-12+004499999V0200901N006712200019N0020001N1+03191+02151101211ADDAY121061AY221061GF103991031021004501001001MA1999999100701MD1999999-0031MW1051REMSYN076AAXX  05184 82198 31495 30913 10319 20215 30070 40121 70522 83200 333 59003;
0178821980999992012090600004-01717-045400FM-12+004499999V0200501N003112200019N0002001N1+02571+02291101371ADDGA1001+999999999GF100991001001999999001001KA1240M+03321MA1999999100851MD1999999+0011REMSYN082AAXX  06004 82198 32992 00506 10257 20229 30085 40137 333 10332 29074 55096 58001;
0184821980999992012090612004-01717-045400FM-12+004499999V0200901N003610450019N0020001N1+02871+02291101511ADDAY111061AY221061GF106991041021004501061001KA1240N+02311MA1999999101001MD1999999-0051MW1051REMSYN082AAXX  06124 82198 31495 60907 10287 20229 30100 40151 70512 84260 333 20231 59005;
0137821980999992012090618004-01717-045400FM-12+004499999V0200501N005112200019N0020001N1+03171+02271101151ADDGF104991041021004501001001MA1999999100641MD1999999-0061REMSYN070AAXX  06184 82198 32495 40510 10317 20227 30064 40115 84200 333 59006;
0178821980999992012090700004-01717-045400FM-12+004499999V0200501N001512200019N0002001N1+02531+02151101421ADDGA1001+999999999GF100991001001999999001001KA1240M+03321MA1999999100901MD1999999+0051REMSYN082AAXX  07004 82198 32992 00503 10253 20215 30090 40142 333 10332 29074 55088 58005;
0184821980999992012090712004-01717-045400FM-12+004499999V0200701N006212200019N0020001N1+02891+02201101521ADDAY111061AY211061GF103991031011004501001001KA1240N+02291MA1999999101001MD1999999+0001MW1051REMSYN082AAXX  07124 82198 31495 30712 10289 20220 30100 40152 70511 83100 333 20229 58000;
0137821980999992012090718004-01717-045400FM-12+004499999V0200901N005712200019N0020001N1+03161+02091101201ADDGF103991031021004501001001MA1999999100691MD1999999+0051REMSYN070AAXX  07184 82198 32495 30911 10316 20209 30069 40120 83200 333 58005;
0178821980999992012090800004-01717-045400FM-12+004499999V0200701N001512200019N0002001N1+02541+02271101441ADDGA1001+999999999GF100991001001999999001001KA1240M+03331MA1999999100921MD1999999+0021REMSYN082AAXX  08004 82198 32992 00703 10254 20227 30092 40144 333 10333 29074 55096 58002;
0184821980999992012090812004-01717-045400FM-12+004499999V0200901N003110450019N0020001N1+02891+02251101511ADDAY111061AY221061GF106991041021004501061001KA1240N+02301MA1999999100991MD1999999-0011MW1051REMSYN082AAXX  08124 82198 31495 60906 10289 20225 30099 40151 70512 84260 333 20230 59001;
0137821980999992012090818004-01717-045400FM-12+004499999V0200901N004612200019N0020001N1+03311+02181101211ADDGF102991021021004501001001MA1999999100701MD1999999+0011REMSYN070AAXX  08184 82198 32495 20909 10331 20218 30070 40121 82200 333 58001;
0178821980999992012090900004-01717-045400FM-12+004499999V0200501N002112200019N0002001N1+02571+02311101471ADDGA1001+999999999GF100991001001999999001001KA1240M+03421MA1999999100951MD1999999+0031REMSYN082AAXX  09004 82198 32992 00504 10257 20231 30095 40147 333 10342 29073 55103 58003;
0156821980999992012090912004-01717-045400FM-12+004499999V0200901N003610450019N0020001N1+02931+02321101561ADDGF106991041021004501061001KA1240N+02351MA1999999101011MD1999999+0021REMSYN076AAXX  09124 82198 32495 60907 10293 20232 30101 40156 84260 333 20235 58002;
0137821980999992012090918004-01717-045400FM-12+004499999V0203601N002610042019N0020001N1+03331+02211101061ADDGF105991051021004501001001MA1999999100551MD1999999-0151REMSYN070AAXX  09184 82198 32495 53605 10333 20221 30055 40106 85200 333 59015;
0178821980999992012091000004-01717-045400FM-12+004499999V0203601N002612200019N0002001N1+02621+02311101351ADDGA1001+999999999GF100991001001999999001001KA1240M+03461MA1999999100831MD1999999-0121REMSYN082AAXX  10004 82198 32992 03605 10262 20231 30083 40135 333 10346 29073 55098 59012;
0184821980999992012091012004-01717-045400FM-12+004499999V0200901N005110450019N0020001N1+02851+02341101421ADDAY121061AY221061GF106991041021004501061001KA1240N+02411MA1999999100901MD1999999-0021MW1051REMSYN082AAXX  10124 82198 31495 60910 10285 20234 30090 40142 70522 84260 333 20241 59002;
0165821980999992012091018004-01717-045400FM-12+004499999V0203601N003110450019N0020001N1+02981+02221101051ADDAY121061AY221061GF106991041021004501061001MA1999999100541MD1999999-0011MW1051REMSYN076AAXX  10184 82198 31495 63606 10298 20222 30054 40105 70522 84260 333 59001;
0178821980999992012091100004-01717-045400FM-12+004499999V0203601N003112200019N0002001N1+02611+02251101291ADDGA1001+999999999GF100991001001999999001001KA1240M+03381MA1999999100781MD1999999-0051REMSYN082AAXX  11004 82198 32992 03606 10261 20225 30078 40129 333 10338 29076 55083 59005;
0184821980999992012091112004-01717-045400FM-12+004499999V0200701N003610450019N0020001N1+02911+02201101431ADDAY121061AY221061GF107991041021004501061001KA1240N+02451MA1999999100911MD1999999+0011MW1051REMSYN082AAXX  11124 82198 31495 70707 10291 20220 30091 40143 70522 84260 333 20245 58001;
0137821980999992012091118004-01717-045400FM-12+004499999V0200901N005110042019N0020001N1+03231+02091101021ADDGF105991051021004501001001MA1999999100511MD1999999-0031REMSYN070AAXX  11184 82198 32495 50910 10323 20209 30051 40102 85200 333 59003;
0178821980999992012091200004-01717-045400FM-12+004499999V0200701N002112200019N0002001N1+02591+02291101261ADDGA1001+999999999GF100991001001999999001001KA1240M+03341MA1999999100751MD1999999-0031REMSYN082AAXX  12004 82198 32992 00704 10259 20229 30075 40126 333 10334 29071 55098 59003;
0184821980999992012091212004-01717-045400FM-12+004499999V0203601N003110450019N0020001N1+02851+02251101381ADDAY121061AY221061GF107991041021004501061001KA1240N+02391MA1999999100861MD1999999-0051MW1051REMSYN082AAXX  12124 82198 31495 73606 10285 20225 30086 40138 70522 84260 333 20239 59005;
0137821980999992012091218004-01717-045400FM-12+004499999V0200701N004612200019N0020001N1+03311+02021100981ADDGF103991031021004501001001MA1999999100471MD1999999-0041REMSYN070AAXX  12184 82198 32495 30709 10331 20202 30047 40098 83200 333 59004;
0178821980999992012091300004-01717-045400FM-12+004499999V0200901N002112200019N0002001N1+02591+02271101281ADDGA1001+999999999GF100991001001999999001001KA1240M+03401MA1999999100771MD1999999+0021REMSYN082AAXX  13004 82198 32992 00904 10259 20227 30077 40128 333 10340 29071 55100 58002;
0184821980999992012091312004-01717-045400FM-12+004499999V0200501N002110042019N0020001N1+02931+02431101391ADDAY121061AY221061GF106991061021004501021001KA1240N+02381MA1999999100871MD1999999+0011MW1051REMSYN082AAXX  13124 82198 31495 60504 10293 20243 30087 40139 70522 86220 333 20238 58001;
0137821980999992012091318004-01717-045400FM-12+004499999V0203601N004112200019N0020001N1+03131+02261101061ADDGF103991031021004501001001MA1999999100551MD1999999+0081REMSYN070AAXX  13184 82198 32495 33608 10313 20226 30055 40106 83200 333 58008;
0178821980999992012091400004-01717-045400FM-12+004499999V0200701N002612200019N0002001N1+02621+02371101261ADDGA1001+999999999GF100991001001999999001001KA1240M+03281MA1999999100751MD1999999-0021REMSYN082AAXX  14004 82198 32992 00705 10262 20237 30075 40126 333 10328 29077 55099 59002;
0156821980999992012091412004-01717-045400FM-12+004499999V0200501N003110450019N0020001N1+02841+02331101381ADDGF106991041021004501061001KA1240N+02431MA1999999100861MD1999999-0011REMSYN076AAXX  14124 82198 32495 60506 10284 20233 30086 40138 84260 333 20243 59001;
0137821980999992012091418004-01717-045400FM-12+004499999V0203601N003612200019N0020001N1+03161+02231101021ADDGF104991041021004501001001MA1999999100511MD1999999-0041REMSYN070AAXX  14184 82198 32495 43607 10316 20223 30051 40102 84200 333 59004;
0178821980999992012091500004-01717-045400FM-12+004499999V0200501N003612200019N0002001N1+02611+02291101341ADDGA1001+999999999GF100991001001999999001001KA1240M+03301MA1999999100821MD1999999+0071REMSYN082AAXX  15004 82198 32992 00507 10261 20229 30082 40134 333 10330 29075 55071 58007;
0184821980999992012091512004-01717-045400FM-12+004499999V0200701N004110450019N0020001N1+02911+02171101461ADDAY121061AY221061GF107991041051004501061001KA1240N+02401MA1999999100941MD1999999+0081MW1051REMSYN082AAXX  15124 82198 31495 70708 10291 20217 30094 40146 70522 84560 333 20240 58008;
0137821980999992012091518004-01717-045400FM-12+004499999V0200901N004110450019N0020001N1+03151+02271101101ADDGF107991041021004501011001MA1999999100591MD1999999+0071REMSYN070AAXX  15184 82198 32495 70908 10315 20227 30059 40110 84210 333 58007;
0178821980999992012091600004-01717-045400FM-12+004499999V0200701N002612200019N0002001N1+02611+02291101251ADDGA1001+999999999GF100991001001999999001001KA1240M+03221MA1999999100741MD1999999-0081REMSYN082AAXX  16004 82198 32992 00705 10261 20229 30074 40125 333 10322 29072 55060 59008;
0156821980999992012091612004-01717-045400FM-12+004499999V0200901N006210450019N0020001N1+02931+02151101441ADDGF106991041021004501061001KA1240N+02331MA1999999100921MD1999999-0021REMSYN076AAXX  16124 82198 32495 60912 10293 20215 30092 40144 84260 333 20233 59002;
0165821980999992012091618004-01717-045400FM-12+004499999V0200501N006710450019N0020001N1+03301+02091101031ADDAY141061AY221061GF106991031021004501031091MA1999999100521MD1999999-0071MW1051REMSYN076AAXX  16184 82198 31495 60513 10330 20209 30052 40103 70542 83239 333 59007;
0178821980999992012091700004-01717-045400FM-12+004499999V0200501N004112200019N0002001N1+02621+02231101361ADDGA1001+999999999GF100991001001999999001001KA1240M+03431MA1999999100841MD1999999+0161REMSYN082AAXX  17004 82198 32992 00508 10262 20223 30084 40136 333 10343 29068 55101 58016;
0184821980999992012091712004-01717-045400FM-12+004499999V0200901N005110042019N0020001N1+02971+02511101411ADDAY111061AY221061GF106991061021004501001001KA1240N+02381MA1999999100891MD1999999-0031MW1051REMSYN082AAXX  17124 82198 31495 60910 10297 20251 30089 40141 70512 86200 333 20238 59003;
0165821980999992012091718004-01717-045400FM-12+004499999V0200901N005710042019N0020001N1+03191+02181101091ADDAY141061AY221061GF105991051021004501001001MA1999999100581MD1999999+0061MW1041REMSYN076AAXX  17184 82198 31495 50911 10319 20218 30058 40109 70442 85200 333 58006;
0178821980999992012091800004-01717-045400FM-12+004499999V0203601N003612200019N0002001N1+02651+02271101241ADDGA1001+999999999GF100991001001999999001001KA1240M+03421MA1999999100731MD1999999-0111REMSYN082AAXX  18004 82198 32992 03607 10265 20227 30073 40124 333 10342 29074 55089 59011;
0156821980999992012091812004-01717-045400FM-12+004499999V0200701N004610042019N0020001N1+02991+02231101581ADDGF106991061021004501001001KA1240N+02391MA1999999100871MD1999999-0021REMSYN076AAXX  18124 82198 32495 60709 10299 20223 30087 40158 86200 333 20239 59002;
0137821980999992012091818004-01717-045400FM-12+004499999V0200701N006712200019N0020001N1+03291+02131101031ADDGF103991031021004501001001MA1999999100521MD1999999-0061REMSYN070AAXX  18184 82198 32495 30713 10329 20213 30052 40103 83200 333 59006;
0178821980999992012091900004-01717-045400FM-12+004499999V0200701N002612200019N0002001N1+02621+02351101231ADDGA1001+999999999GF100991001001999999001001KA1240M+03371MA1999999100721MD1999999-0011REMSYN082AAXX  19004 82198 32992 00705 10262 20235 30072 40123 333 10337 29071 55101 59001;
0156821980999992012091912004-01717-045400FM-12+004499999V0200701N003612200019N0020001N1+03061+02171101331ADDGF104991021011004501001021KA1240N+02331MA1999999100821MD1999999-0051REMSYN076AAXX  19124 82198 32495 40707 10306 20217 30082 40133 82102 333 20233 59005;
0137821980999992012091918004-01717-045400FM-12+004499999V0200201N003110450019N0020001N1+03271+02231100971ADDGF106991021021004501031011MA1999999100461MD1999999-0061REMSYN070AAXX  19184 82198 32495 60206 10327 20223 30046 40097 82231 333 59006;
0178821980999992012092000004-01717-045400FM-12+004499999V0200701N002112200019N0002001N1+02631+02391101161ADDGA1001+999999999GF100991001001999999001001KA1240M+03431MA1999999100651MD1999999-0071REMSYN082AAXX  20004 82198 32992 00704 10263 20239 30065 40116 333 10343 29072 55091 59007;
0156821980999992012092012004-01717-045400FM-12+004499999V0200501N004110450019N0020001N1+02871+02371101341ADDGF106991041021004501061001KA1240N+02371MA1999999100831MD1999999+0011REMSYN076AAXX  20124 82198 32495 60508 10287 20237 30083 40134 84260 333 20237 58001;
0137821980999992012092018004-01717-045400FM-12+004499999V0200201N005112200019N0020001N1+03081+02241100921ADDGF104991021021004501001021MA1999999100411MD1999999-0051REMSYN070AAXX  20184 82198 32495 40210 10308 20224 30041 40092 82202 333 59005;
0168821980999992012092100004-01717-045400FM-12+004499999V0200501N002112200019N0002001N1+02601+02331101091ADDGF103991031021004501001001KA1240M+03281MA1999999100581MD1999999-0071REMSYN088AAXX  21004 82198 32492 30504 10260 20233 30058 40109 83200 333 10328 29076 55088 59007;
0156821980999992012092112004-01717-045400FM-12+004499999V0200701N002610042019N0020001N1+02921+02361101241ADDGF106991061021004501001001KA1240N+02381MA1999999100731MD1999999-0101REMSYN076AAXX  21124 82198 32495 60705 10292 20236 30073 40124 86200 333 20238 59010;
0137821980999992012092118004-01717-045400FM-12+004499999V0200701N005710042019N0020001N1+03231+02171100821ADDGF105991051021004501001001MA1999999100311MD1999999-0101REMSYN070AAXX  21184 82198 32495 50711 10323 20217 30031 40082 85200 333 59010;
0178821980999992012092200004-01717-045400FM-12+004499999V0200701N002112200019N0002001N1+02601+02271999999ADDGA1001+999999999GF100991001001999999001001KA1240M+03381MA1999999100541MD1999999-0041REMSYN082AAXX  22004 82198 32992 00704 10260 20227 30054 40910 333 10338 29072 55099 59004;
0156821980999992012092212004-01717-045400FM-12+004499999V0200701N004610450019N0020001N1+03021+02241101251ADDGF106991041021004501061001KA1240N+02391MA1999999100741MD1999999+0011REMSYN076AAXX  22124 82198 32495 60709 10302 20224 30074 40125 84260 333 20239 58001;
0137821980999992012092218004-01717-045400FM-12+004499999V0200701N004110450019N0020001N1+03271+02261100941ADDGF105991041021004501061001MA1999999100431MD1999999-0111REMSYN070AAXX  22184 82198 32495 50708 10327 20226 30043 40094 84260 333 59011;
0178821980999992012092300004-01717-045400FM-12+004499999V0200701N002112200019N0002001N1+02601+02331101241ADDGA1001+999999999GF100991001001999999001001KA1240M+03381MA1999999100731MD1999999+0191REMSYN082AAXX  23004 82198 32992 00704 10260 20233 30073 40124 333 10338 29072 55077 58019;
0156821980999992012092312004-01717-045400FM-12+004499999V0200701N006210042019N0020001N1+03061+02301101171ADDGF106991061021004501001001KA1240N+02311MA1999999100661MD1999999-0081REMSYN076AAXX  23124 82198 32495 60712 10306 20230 30066 40117 86200 333 20231 59008;
0137821980999992012092318004-01717-045400FM-12+004499999V0200701N004612200019N0020001N1+03331+02231100791ADDGF104991041021004501001001MA1999999100281MD1999999-0151REMSYN070AAXX  23184 82198 32495 40709 10333 20223 30028 40079 84200 333 59015;
0178821980999992012092400004-01717-045400FM-12+004499999V0200701N002112200019N0002001N1+02621+02331101141ADDGA1001+999999999GF100991001001999999001001KA1240M+03401MA1999999100631MD1999999-0101REMSYN082AAXX  24004 82198 32992 00704 10262 20233 30063 40114 333 10340 29071 55090 59010;
0156821980999992012092412004-01717-045400FM-12+004499999V0200701N006710042019N0020001N1+02961+02421101291ADDGF106991061021004501001001KA1240N+02411MA1999999100781MD1999999+0121REMSYN076AAXX  24124 82198 32495 60713 10296 20242 30078 40129 86200 333 20241 58012;
0137821980999992012092418004-01717-045400FM-12+004499999V0200701N004610450019N0020001N1+03051+02181100971ADDGF106991041021004501061001MA1999999100461MD1999999+0181REMSYN070AAXX  24184 82198 32495 60709 10305 20218 30046 40097 84260 333 58018;
0168821980999992012092500004-01717-045400FM-12+004499999V0200501N002112200019N0002001N1+02621+02311101131ADDGF102991021021004501001001KA1240M+03281MA1999999100621MD1999999-0011REMSYN088AAXX  25004 82198 32492 20504 10262 20231 30062 40113 82200 333 10328 29075 55064 59001;
0184821980999992012092512004-01717-045400FM-12+004499999V0200701N005710450019N0020001N1+02971+02271101341ADDAY141061AY221061GF106991041021004501031001KA1240N+02501MA1999999100821MD1999999+0041MW1041REMSYN082AAXX  25124 82198 31495 60711 10297 20227 30082 40134 70442 84230 333 20250 58004;
0165821980999992012092518004-01717-045400FM-12+004499999V0200901N007212200019N0020001N1+03251+01991101001ADDAY141061AY221061GF103991031021004501001001MA1999999100491MD1999999+0031MW1041REMSYN076AAXX  25184 82198 31495 30914 10325 20199 30049 40100 70442 83200 333 58003;
0178821980999992012092600004-01717-045400FM-12+004499999V0200701N003112200019N0002001N1+02581+02171101261ADDGA1001+999999999GF100991001001999999001001KA1240M+03351MA1999999100751MD1999999+0131REMSYN082AAXX  26004 82198 32992 00706 10258 20217 30075 40126 333 10335 29070 55080 58013;
0156821980999992012092612004-01717-045400FM-12+004499999V0200701N003612200019N0020001N1+03001+02241101411ADDGF103991021011004501001011KA1240N+02301MA1999999100831MD1999999+0071REMSYN076AAXX  26124 82198 32495 30707 10300 20224 30083 40141 82101 333 20230 58007;
0165821980999992012092618004-01717-045400FM-12+004499999V0200701N003612200019N0020001N1+03391+02141101021ADDAY101061AY201061GF101991011011004501001001MA1999999100511MD1999999+0021MW1041REMSYN076AAXX  26184 82198 31495 10707 10339 20214 30051 40102 70400 81100 333 58002;
0178821980999992012092700004-01717-045400FM-12+004499999V0200701N003112200019N0002001N1+02601+02421101251ADDGA1001+999999999GF100991001001999999001001KA1240M+03471MA1999999100741MD1999999-0011REMSYN082AAXX  27004 82198 32992 00706 10260 20242 30074 40125 333 10347 29073 55103 59001;
0156821980999992012092712004-01717-045400FM-12+004499999V0200501N004610450019N0020001N1+02971+02291101331ADDGF105991031011004501031001KA1240N+02361MA1999999100811MD1999999-0081REMSYN076AAXX  27124 82198 32495 50509 10297 20229 30081 40133 83130 333 20236 59008;
0137821980999992012092718004-01717-045400FM-12+004499999V0203601N005112200019N0020001N1+03091+02031101011ADDGF103991031011004501001001MA1999999100501MD1999999-0011REMSYN070AAXX  27184 82198 32495 33610 10309 20203 30050 40101 83100 333 59001;
0168821980999992012092800004-01717-045400FM-12+004499999V0200701N002112200019N0002001N1+02611+02351101231ADDGF101991011021004501001001KA1240M+03271MA1999999100721MD1999999-0021REMSYN088AAXX  28004 82198 32492 10704 10261 20235 30072 40123 81200 333 10327 29074 55105 59002;
0156821980999992012092812004-01717-045400FM-12+004499999V0200901N003610042019N0020001N1+03011+02371101521ADDGF105991051021004501001001KA1240N+02481MA1999999101001MD1999999+0191REMSYN076AAXX  28124 82198 32495 50907 10301 20237 30100 40152 85200 333 20248 58019;
0165821980999992012092818004-01717-045400FM-12+004499999V0200901N005112200019N0020001N1+03321+02151101001ADDAY141061AY221061GF104991041021004501001001MA1999999100491MD1999999-0011MW1041REMSYN076AAXX  28184 82198 31495 40910 10332 20215 30049 40100 70442 84200 333 59001;
0178821980999992012092900004-01717-045400FM-12+004499999V0200901N002112200019N0002001N1+02621+02351101451ADDGA1001+999999999GF100991001001999999001001KA1240M+03481MA1999999100931MD1999999+0211REMSYN082AAXX  29004 82198 32992 00904 10262 20235 30093 40145 333 10348 29072 55097 58021;
0184821980999992012092912004-01717-045400FM-12+004499999V0200701N002610450019N0020001N1+02821+02311101541ADDAY141061AY221061GF107991041021004501031001KA1240N+02401MA1999999101021MD1999999+0021MW1041REMSYN082AAXX  29124 82198 31495 70705 10282 20231 30102 40154 70442 84230 333 20240 58002;
0165821980999992012092918004-01717-045400FM-12+004499999V0200901N004612200019N0020001N1+03321+02231101061ADDAY111061AY221061GF103991031021004501001001MA1999999100551MD1999999+0061MW1041REMSYN076AAXX  29184 82198 31495 30909 10332 20223 30055 40106 70412 83200 333 58006;
0168821980999992012093000004-01717-045400FM-12+004499999V0200501N003112200019N0002001N1+02621+02251101371ADDGF102991011021004501001011KA1240M+03371MA1999999100851MD1999999-0081REMSYN088AAXX  30004 82198 32492 20506 10262 20225 30085 40137 81201 333 10337 29072 55064 59008;
0184821980999992012093012004-01717-045400FM-12+004499999V0200901N004110450019N0020001N1+02971+02321101411ADDAY141061AY221061GF106991041021004501061001KA1240N+02371MA1999999100891MD1999999-0131MW1041REMSYN082AAXX  30124 82198 31495 60908 10297 20232 30089 40141 70442 84260 333 20237 59013;
0184821980999992012093018004-01717-045400FM-12+004499999V0200701N004112200019N0020001N1+03341+02121100991ADDAY111061AY221061GF103991999021004501001001MA1999999100481MD1999999-0071MW1041REMSYN076AAXX  30184 82198 31495 30708 10334 20212 30048 40099 70412 82200 333 59007;EQDQ01+000022SCOTLC
0178821980999992012100100004-01717-045400FM-12+004499999V0200501N003612200019N0002001N1+02571+02271101251ADDGA1001+999999999GF100991001001999999001001KA1240M+03451MA1999999100741MD1999999-0111REMSYN082AAXX  01004 82198 32992 00507 10257 20227 30074 40125 333 10345 29070 55099 59011;
0156821980999992012100112004-01717-045400FM-12+004499999V0200901N004610042019N0020001N1+03001+02531101271ADDGF106991061021004501001001KA1240N+02381MA1999999100761MD1999999-0131REMSYN076AAXX  01124 82198 32495 60909 10300 20253 30076 40127 86200 333 20238 59013;
0137821980999992012100118004-01717-045400FM-12+004499999V0200701N004112200019N0020001N1+03311+02211100851ADDGF103991031021004501001001MA1999999100341MD1999999-0141REMSYN070AAXX  01184 82198 32495 30708 10331 20221 30034 40085 83200 333 59014;
0178821980999992012100200004-01717-045400FM-12+004499999V0200501N002612200019N0002001N1+02601+02211101071ADDGA1001+999999999GF100991001001999999001001KA1240M+03451MA1999999100561MD1999999-0181REMSYN082AAXX  02004 82198 32992 00505 10260 20221 30056 40107 333 10345 29072 55103 59018;
0156821980999992012100212004-01717-045400FM-12+004499999V0200701N003610450019N0020001N1+02951+02371101351ADDGF106991041021004501061001KA1240N+02451MA1999999100831MD1999999+0071REMSYN076AAXX  02124 82198 32495 60707 10295 20237 30083 40135 84260 333 20245 58007;
0165821980999992012100218004-01717-045400FM-12+004499999V0200701N004112200019N0020001N1+03291+02301101001ADDAY121061AY221061GF105991041021004501001011MA1999999100491MD1999999+0151MW1041REMSYN076AAXX  02184 82198 31495 50708 10329 20230 30049 40100 70422 84201 333 58015;
0178821980999992012100300004-01717-045400FM-12+004499999V0200701N003112200019N0002001N1+02591+02231101161ADDGA1001+999999999GF100991001001999999001001KA1240M+03391MA1999999100651MD1999999+0091REMSYN082AAXX  03004 82198 32992 00706 10259 20223 30065 40116 333 10339 29070 55094 58009;
0156821980999992012100312004-01717-045400FM-12+004499999V0200901N006710450019N0020001N1+02891+02131101381ADDGF106991041021004501061001KA1240N+02541MA1999999100861MD1999999+0031REMSYN076AAXX  03124 82198 32495 60913 10289 20213 30086 40138 84260 333 20254 58003;
0156821980999992012100412004-01717-045400FM-12+004499999V0200701N006210450019N0020001N1+02981+02401101331ADDGF106991041021004501061001KA1240N+02381MA1999999100811MD1999999-0051REMSYN076AAXX  04124 82198 32495 60712 10298 20240 30081 40133 84260 333 20238 59005;
0137821980999992012100418004-01717-045400FM-12+004499999V0200901N005710042019N0020001N1+03251+02121100971ADDGF105991051021004501001001MA1999999100461MD1999999-0081REMSYN070AAXX  04184 82198 32495 50911 10325 20212 30046 40097 85200 333 59008;
0178821980999992012100500004-01717-045400FM-12+004499999V0200701N002112200019N0002001N1+02601+02331101121ADDGA1001+999999999GF100991001001999999001001KA1240M+03351MA1999999100611MD1999999-0141REMSYN082AAXX  05004 82198 32992 00704 10260 20233 30061 40112 333 10335 29074 55087 59014;
0184821980999992012100512004-01717-045400FM-12+004499999V0200901N003610450019N0020001N1+02851+02341101191ADDAY141061AY221061GF106991041021004501061001KA1240N+02401MA1999999100681MD1999999-0131MW1041REMSYN082AAXX  05124 82198 31495 60907 10285 20234 30068 40119 70442 84260 333 20240 59013;
0182821980999992012100518004-01717-045400FM-12+004499999V0200901N005712200019N0020001N1+03271+02251100841ADDAA106000591AY151061AY221061GF104991041021004501001001MA1999999100331MD1999999-0131MW1041REMSYN082AAXX  05184 82198 21495 40911 10327 20225 30033 40084 70452 84200 333 59013 69941;
0201821980999992012100612004-01717-045400FM-12+004499999V0200901N006710450019N0020001N1+02951+02191101181ADDAA124000591AY141061AY221061GF106991041021004501061001KA1240N+02391MA1999999100671MD1999999-0011MW1041REMSYN088AAXX  06124 82198 21495 60913 10295 20219 30067 40118 70442 84260 333 20239 59001 69944;
0165821980999992012100618004-01717-045400FM-12+004499999V0200901N004110075019N0020001N1+03331+02121100881ADDAY111061AY221061GF105991051021008001001001MA1999999100371MD1999999+0041MW1041REMSYN076AAXX  06184 82198 31595 50908 10333 20212 30037 40088 70412 85200 333 58004;
0178821980999992012100700004-01717-045400FM-12+004499999V0200901N003112200019N0002001N1+02591+02271101191ADDGA1001+999999999GF100991001001999999001001KA1240M+03421MA1999999100681MD1999999+0181REMSYN082AAXX  07004 82198 32992 00906 10259 20227 30068 40119 333 10342 29069 55098 58018;
0156821980999992012100712004-01717-045400FM-12+004499999V0200701N006210450019N0020001N1+02991+02241101211ADDGF106991041021004501061001KA1240N+02501MA1999999100701MD1999999+0031REMSYN076AAXX  07124 82198 32495 60712 10299 20224 30070 40121 84260 333 20250 58003;
0137821980999992012100718004-01717-045400FM-12+004499999V0200701N005712200019N0020001N1+03241+02161100971ADDGF104991041021004501001001MA1999999100061MD1999999+0091REMSYN070AAXX  07184 82198 32495 40711 10324 20216 30006 40097 84200 333 58009;
0156821980999992012100812004-01717-045400FM-12+004499999V0200901N005712200019N0020001N1+02921+02451101231ADDGF104991041021004501001001KA1240N+02311MA1999999100721MD1999999+0021REMSYN076AAXX  08124 82198 32495 40911 10292 20245 30072 40123 84200 333 20231 58002;
0137821980999992012100818004-01717-045400FM-12+004499999V0200901N004112200019N0020001N1+03391+02211100891ADDGF102991021021004501001001MA1999999100381MD1999999-0081REMSYN070AAXX  08184 82198 32495 20908 10339 20221 30038 40089 82200 333 59008;
0178821980999992012100900004-01717-045400FM-12+004499999V0200501N001512200019N0002001N1+02601+02351101171ADDGA1001+999999999GF100991001001999999001001KA1240M+03551MA1999999100661MD1999999-0021REMSYN082AAXX  09004 82198 32992 00503 10260 20235 30066 40117 333 10355 29074 55102 59002;
0156821980999992012100912004-01717-045400FM-12+004499999V0200701N005110450019N0020001N1+02911+02271101331ADDGF107991041051004501061001KA1240N+02421MA1999999100811MD1999999+0091REMSYN076AAXX  09124 82198 32495 70710 10291 20227 30081 40133 84560 333 20242 58009;
0165821980999992012100918004-01717-045400FM-12+004499999V0203201N003110450019N0020001N1+02781+02361100941ADDAY121061AY221061GF108991041071004501021001MA1999999100431MD1999999+0051MW1171REMSYN076AAXX  09184 82198 31495 83206 10278 20236 30043 40094 71722 84720 333 58005;
0229821980999992012101000004-01717-045400FM-12+004499999V0200501N002610003019N0002001N1+02511+02321101171ADDAA106010991AY161061AY221061GA1091+999999999GF109991091999999999999999KA1240M+03451MA1999999100661MD1999999+0001MW1021REMSYN100AAXX  10004 82198 21/92 90505 10251 20232 30066 40117 70262 8//// 333 10345 29082 55031 58000 60111;
0173821980999992012101012004-01717-045400FM-12+004499999V0200701N005110450019N0020001N1+02851+02401101231ADDAA124010991GF106991041021004501061001KA1240N+02451MA1999999100721MD1999999-0091REMSYN082AAXX  10124 82198 22495 60710 10285 20240 30072 40123 84260 333 20245 59009 60114;
0137821980999992012101018004-01717-045400FM-12+004499999V0200901N005110450019N0020001N1+03011+02141101031ADDGF107991041071004501061001MA1999999100521MD1999999+0091REMSYN070AAXX  10184 82198 32495 70910 10301 20214 30052 40103 84760 333 58009;
0178821980999992012101100004-01717-045400FM-12+004499999V0200501N002612200019N0002001N1+02561+02271101181ADDGA1001+999999999GF100991001001999999001001KA1240M+03111MA1999999100671MD1999999+0011REMSYN082AAXX  11004 82198 32992 00505 10256 20227 30067 40118 333 10311 29077 55028 58001;
0156821980999992012101112004-01717-045400FM-12+004499999V0200501N003110450019N0020001N1+02951+02371101321ADDGF106991041021004501061001KA1240N+02401MA1999999100801MD1999999+0081REMSYN076AAXX  11124 82198 32495 60506 10295 20237 30080 40132 84260 333 20240 58008;
0137821980999992012101118004-01717-045400FM-12+004499999V0200701N006712200019N0020001N1+03241+01931101021ADDGF104991031021004501001011MA1999999100511MD1999999-0011REMSYN070AAXX  11184 82198 32495 40713 10324 20193 30051 40102 83201 333 59001;
0178821980999992012101200004-01717-045400FM-12+004499999V0200701N003112200019N0002001N1+02591+02271101191ADDGA1001+999999999GF100991001001999999001001KA1240M+03351MA1999999100681MD1999999+0011REMSYN082AAXX  12004 82198 32992 00706 10259 20227 30068 40119 333 10335 29070 55052 58001;
0156821980999992012101212004-01717-045400FM-12+004499999V0200701N004110450019N0020001N1+02861+02201101401ADDGF107991041021004501061001KA1240N+02351MA1999999100881MD1999999+0081REMSYN076AAXX  12124 82198 32495 70708 10286 20220 30088 40140 84260 333 20235 58008;
0137821980999992012101218004-01717-045400FM-12+004499999V0200701N005110042019N0020001N1+03241+02281101021ADDGF106991061021004501001001MA1999999100511MD1999999+0001REMSYN070AAXX  12184 82198 32495 60710 10324 20228 30051 40102 86200 333 58000;
0178821980999992012101300004-01717-045400FM-12+004499999V0200701N002612200019N0002001N1+02571+02291101241ADDGA1001+999999999GF100991001001999999001001KA1240M+03301MA1999999100731MD1999999+0051REMSYN082AAXX  13004 82198 32992 00705 10257 20229 30073 40124 333 10330 29073 55070 58005;
0156821980999992012101312004-01717-045400FM-12+004499999V0200901N003610450019N0020001N1+02891+02251101351ADDGF107991041071004501061001KA1240N+02351MA1999999100831MD1999999-0051REMSYN076AAXX  13124 82198 32495 70907 10289 20225 30083 40135 84760 333 20235 59005;
0137821980999992012101318004-01717-045400FM-12+004499999V0200701N005712200019N0020001N1+03251+02151100841ADDGF103991031021004501001001MA1999999100331MD1999999-0181REMSYN070AAXX  13184 82198 32495 30711 10325 20215 30033 40084 83200 333 59018;
0178821980999992012101400004-01717-045400FM-12+004499999V0200701N003112200019N0002001N1+02591+02271101131ADDGA1001+999999999GF100991001001999999001001KA1240M+03301MA1999999100621MD1999999-0111REMSYN082AAXX  14004 82198 32992 00706 10259 20227 30062 40113 333 10330 29072 55073 59011;
0156821980999992012101412004-01717-045400FM-12+004499999V0200701N003610450019N0020001N1+02981+02331101171ADDGF107991041071004501061001KA1240N+02411MA1999999100661MD1999999-0171REMSYN076AAXX  14124 82198 32495 70707 10298 20233 30066 40117 84760 333 20241 59017;
0178821980999992012101500004-01717-045400FM-12+004499999V0200501N002612200019N0002001N1+02571+02351101081ADDGA1001+999999999GF100991001001999999001001KA1240M+03061MA1999999100571MD1999999-0051REMSYN082AAXX  15004 82198 32992 00505 10257 20235 30057 40108 333 10306 29079 55018 59005;
0173821980999992012101512004-01717-045400FM-12+004499999V0200701N003110450019N0020001N1+02951+02531101191ADDAA124001091GF107991041021004501061011KA1240N+02401MA1999999100681MD1999999+0021REMSYN082AAXX  15124 82198 22495 70706 10295 20253 30068 40119 84261 333 20240 58002 60014;
0137821980999992012101518004-01717-045400FM-12+004499999V0200701N003612200019N0020001N1+03251+02151100831ADDGF104991041021004501001001MA1999999100321MD1999999-0031REMSYN070AAXX  15184 82198 32495 40707 10325 20215 30032 40083 84200 333 59003;
0178821980999992012101600004-01717-045400FM-12+004499999V0200701N002112200019N0002001N1+02571+02291101061ADDGA1001+999999999GF100991001001999999001001KA1240M+03301MA1999999100551MD1999999-0021REMSYN082AAXX  16004 82198 32992 00704 10257 20229 30055 40106 333 10330 29074 55048 59002;
0184821980999992012101612004-01717-045400FM-12+004499999V0200901N003610450019N0020001N1+02851+02291101161ADDAY121061AY221061GF107991041051004501011001KA1240N+02351MA1999999100651MD1999999-0031MW1051REMSYN082AAXX  16124 82198 31495 70907 10285 20229 30065 40116 70522 84510 333 20235 59003;
0137821980999992012101618004-01717-045400FM-12+004499999V0200501N004110450019N0020001N1+03251+02211100821ADDGF107991041051004501011011MA1999999100311MD1999999-0011REMSYN070AAXX  16184 82198 32495 70508 10325 20221 30031 40082 84511 333 59001;
0168821980999992012101700004-01717-045400FM-12+004499999V0200501N003112200019N0002001N1+02621+02331101111ADDGF101991011011004501001001KA1240M+03391MA1999999100601MD1999999+0051REMSYN088AAXX  17004 82198 32492 10506 10262 20233 30060 40111 81100 333 10339 29074 55047 58005;
0156821980999992012101712004-01717-045400FM-12+004499999V0200701N003610450019N0020001N1+02791+02501101241ADDGF108991041051004501011001KA1240N+02401MA1999999100731MD1999999+0081REMSYN076AAXX  17124 82198 32495 80707 10279 20250 30073 40124 84510 333 20240 58008;
0137821980999992012101718004-01717-045400FM-12+004499999V0200701N005110450019N0020001N1+03111+02261100961ADDGF107991041071004501011001MA1999999100451MD1999999+0141REMSYN070AAXX  17184 82198 32495 70710 10311 20226 30045 40096 84710 333 58014;
0178821980999992012101800004-01717-045400FM-12+004499999V0200501N002112200019N0002001N1+02561+02231101101ADDGA1001+999999999GF100991001001999999001001KA1240M+03261MA1999999100591MD1999999-0011REMSYN082AAXX  18004 82198 32992 00504 10256 20223 30059 40110 333 10326 29079 55051 59001;
0156821980999992012101812004-01717-045400FM-12+004499999V0200701N005710450019N0020001N1+02901+02271101141ADDGF107991041051004501061001KA1240N+02351MA1999999100631MD1999999-0101REMSYN076AAXX  18124 82198 32495 70711 10290 20227 30063 40114 84560 333 20235 59010;
0137821980999992012101818004-01717-045400FM-12+004499999V0200701N004112200019N0020001N1+03371+02141100871ADDGF103991031021004501001001MA1999999100361MD1999999-0091REMSYN070AAXX  18184 82198 32495 30708 10337 20214 30036 40087 83200 333 59009;
0178821980999992012101900004-01717-045400FM-12+004499999V0200701N002112200019N0002001N1+02591+02291101051ADDGA1001+999999999GF100991001001999999001001KA1240M+03421MA1999999100541MD1999999-0051REMSYN082AAXX  19004 82198 32992 00704 10259 20229 30054 40105 333 10342 29071 55096 59005;
0156821980999992012101912004-01717-045400FM-12+004499999V0200501N003110450019N0020001N1+02921+02341101191ADDGF106991041021004501061001KA1240N+02331MA1999999100681MD1999999+0051REMSYN076AAXX  19124 82198 32495 60506 10292 20234 30068 40119 84260 333 20233 58005;
0137821980999992012101918004-01717-045400FM-12+004499999V0200701N003110042019N0020001N1+03211+02241100751ADDGF105991051021004501001001MA1999999100241MD1999999-0121REMSYN070AAXX  19184 82198 32495 50706 10321 20224 30024 40075 85200 333 59012;
0178821980999992012102000004-01717-045400FM-12+004499999V0200501N003112200019N0002001N1+02611+02291101081ADDGA1001+999999999GF100991001001999999001001KA1240M+03431MA1999999100571MD1999999+0031REMSYN082AAXX  20004 82198 32992 00506 10261 20229 30057 40108 333 10343 29074 55102 58003;
0156821980999992012102012004-01717-045400FM-12+004499999V0200501N004610450019N0020001N1+02901+02271101181ADDGF106991041021004501061001KA1240N+02351MA1999999100671MD1999999-0011REMSYN076AAXX  20124 82198 32495 60509 10290 20227 30067 40118 84260 333 20235 59001;
0137821980999992012102018004-01717-045400FM-12+004499999V0203601N001012200019N0020001N1+03131+02231100881ADDGF102991021021004501001001MA1999999100371MD1999999+0131REMSYN070AAXX  20184 82198 32495 23602 10313 20223 30037 40088 82200 333 58013;
0178821980999992012102100004-01717-045400FM-12+004499999V0200501N002112200019N0002001N1+02581+02271101021ADDGA1001+999999999GF100991001001999999001001KA1240M+03291MA1999999100511MD1999999-0061REMSYN082AAXX  21004 82198 32992 00504 10258 20227 30051 40102 333 10329 29074 55103 59006;
0156821980999992012102112004-01717-045400FM-12+004499999V0200201N002610042019N0020001N1+03031+02341101081ADDGF105991051021004501001001KA1240N+02401MA1999999100571MD1999999-0101REMSYN076AAXX  21124 82198 32495 50205 10303 20234 30057 40108 85200 333 20240 59010;
0137821980999992012102118004-01717-045400FM-12+004499999V0200501N003612200019N0020001N1+03351+02211100741ADDGF102991021021004501001001MA1999999100231MD1999999-0141REMSYN070AAXX  21184 82198 32495 20507 10335 20221 30023 40074 82200 333 59014;
0168821980999992012102200004-01717-045400FM-12+004499999V0203601N002612200019N0002001N1+02531+02251100991ADDGF101991011011004501001001KA1240M+03401MA1999999100481MD1999999-0031REMSYN088AAXX  22004 82198 32492 13605 10253 20225 30048 40099 81100 333 10340 29072 55107 59003;
0184821980999992012102212004-01717-045400FM-12+004499999V0200501N005110042019N0020001N1+03051+02491101001ADDAY111061AY221061GF106991061021004501001001KA1240N+02491MA1999999100491MD1999999-0081MW1051REMSYN082AAXX  22124 82198 31495 60510 10305 20249 30049 40100 70512 86200 333 20249 59008;
0137821980999992012102218004-01717-045400FM-12+004499999V0200701N006212200019N0020001N1+03301+02181100711ADDGF104991041021004501001001MA1999999100201MD1999999-0031REMSYN070AAXX  22184 82198 32495 40712 10330 20218 30020 40071 84200 333 59003;
0156821980999992012102312004-01717-045400FM-12+004499999V0200501N006210042019N0020001N1+02951+02291101051ADDGF105991051021004501001001KA1240N+02481MA1999999100541MD1999999+0051REMSYN076AAXX  23124 82198 32495 50512 10295 20229 30054 40105 85200 333 20248 58005;
0137821980999992012102318004-01717-045400FM-12+004499999V0200501N004612200019N0020001N1+03281+02161100791ADDGF103991031021004501001001MA1999999100221MD1999999+0081REMSYN070AAXX  23184 82198 32495 30509 10328 20216 30022 40079 83200 333 58008;
0156821980999992012102412004-01717-045400FM-12+004499999V0200501N006710450019N0020001N1+02941+02261101081ADDGF106991041021004501061001KA1240N+02401MA1999999100571MD1999999+0031REMSYN076AAXX  24124 82198 32495 60513 10294 20226 30057 40108 84260 333 20240 58003;
0165821980999992012102418004-01717-045400FM-12+004499999V0200501N003612200019N0020001N1+03341+02311100761ADDAY121061AY221061GF104991041021004501001001MA1999999100251MD1999999-0031MW1041REMSYN076AAXX  24184 82198 31495 40507 10334 20231 30025 40076 70422 84200 333 59003;
0168821980999992012102500004-01717-045400FM-12+004499999V0200501N002110042019N0002001N1+02611+02311101001ADDGF105991051021004501001001KA1240M+03491MA1999999100491MD1999999-0041REMSYN088AAXX  25004 82198 32492 50504 10261 20231 30049 40100 85200 333 10349 29072 55100 59004;
0156821980999992012102512004-01717-045400FM-12+004499999V0200501N005710450019N0020001N1+02781+02161101061ADDGF108991041051004501021999KA1240N+02451MA1999999100551MD1999999-0021REMSYN076AAXX  25124 82198 32495 80511 10278 20216 30055 40106 8452/ 333 20245 59002;
0165821980999992012102518004-01717-045400FM-12+004499999V0200501N003610450019N0020001N1+03151+02121100861ADDAY121061AY221061GF108991041051004501061001MA1999999100351MD1999999+0101MW1041REMSYN076AAXX  25184 82198 31495 80507 10315 20212 30035 40086 70422 84560 333 58010;
0178821980999992012102600004-01717-045400FM-12+004499999V0200501N003112200019N0002001N1+02611+02251101071ADDGA1001+999999999GF100991001001999999001001KA1240M+03361MA1999999100561MD1999999+0071REMSYN082AAXX  26004 82198 32992 00506 10261 20225 30056 40107 333 10336 29071 55050 58007;
0156821980999992012102618004-01717-045400FM-12+004499999V0200501N004612200019N0020001N1+03191+02241100851ADDGF103991999021004501001011MA1999999100341MD1999999-0011REMSYN070AAXX  26184 82198 32495 30509 10319 20224 30034 40085 84201 333 59001;EQDQ01+000042SCOTLC
0168821980999992012102700004-01717-045400FM-12+004499999V0200501N003112200019N0002001N1+02641+02291101081ADDGF103991031011004501001001KA1240M+03321MA1999999100571MD1999999+0011REMSYN088AAXX  27004 82198 32492 30506 10264 20229 30057 40108 83100 333 10332 29073 55054 58001;
0156821980999992012102712004-01717-045400FM-12+004499999V0203601N003110042019N0020001N1+02911+02251101291ADDGF105991051021004501001001KA1240N+02361MA1999999100781MD1999999+0051REMSYN076AAXX  27124 82198 32495 53606 10291 20225 30078 40129 85200 333 20236 58005;
0182821980999992012102718004-01717-045400FM-12+004499999V0203601N004610450019N0020001N1+02941+02291100991ADDAA106003091AY161061AY221061GF106991031021004501061001MA1999999100481MD1999999+0141MW1031REMSYN082AAXX  27184 82198 21495 63609 10294 20229 30048 40099 70362 83260 333 58014 60031;
0168821980999992012102800004-01717-045400FM-12+004499999V0200501N002111050019N0002001N1+02601+02351101291ADDGF105991021011004501011011KA1240M+03311MA1999999100781MD1999999+0211REMSYN088AAXX  28004 82198 32492 50504 10260 20235 30078 40129 82111 333 10331 29077 55073 58021;
0173821980999992012102812004-01717-045400FM-12+004499999V0200701N004110450019N0020001N1+03051+02391101221ADDAA124003091GF105991031021004501061001KA1240N+02411MA1999999100711MD1999999-0071REMSYN082AAXX  28124 82198 22495 50708 10305 20239 30071 40122 83260 333 20241 59007 60034;
0137821980999992012102818004-01717-045400FM-12+004499999V0200501N003612200019N0020001N1+03221+02291100921ADDGF103991031021004501001001MA1999999100411MD1999999-0071REMSYN070AAXX  28184 82198 32495 30507 10322 20229 30041 40092 83200 333 59007;
0178821980999992012102900004-01717-045400FM-12+004499999V0200501N002612200019N0002001N1+02691+02311101231ADDGA1001+999999999GF100991001001999999001001KA1240M+03381MA1999999100721MD1999999-0061REMSYN082AAXX  29004 82198 32992 00505 10269 20231 30072 40123 333 10338 29074 55096 59006;
0156821980999992012102912004-01717-045400FM-12+004499999V0203601N003112200019N0020001N1+02931+02431101381ADDGF104991031021004501061001KA1240N+02411MA1999999100861MD1999999+0151REMSYN076AAXX  29124 82198 32495 43606 10293 20243 30086 40138 83260 333 20241 58015;
0137821980999992012102918004-01717-045400FM-12+004499999V0200501N004612200019N0020001N1+03271+02181101041ADDGF104991041021004501001001MA1999999100531MD1999999+0121REMSYN070AAXX  29184 82198 32495 40509 10327 20218 30053 40104 84200 333 58012;
0168821980999992012103000004-01717-045400FM-12+004499999V0200501N002612200019N0002001N1+02651+02311101281ADDGF103991031021004501001001KA1240M+03321MA1999999100771MD1999999+0051REMSYN088AAXX  30004 82198 32492 30505 10265 20231 30077 40128 83200 333 10332 29075 55078 58005;
0184821980999992012103012004-01717-045400FM-12+004499999V0203601N003110450019N0020001N1+02911+02271101241ADDAY141061AY221061GF106991041021004501061001KA1240N+02421MA1999999100721MD1999999-0141MW1041REMSYN082AAXX  30124 82198 31495 63606 10291 20227 30072 40124 70442 84260 333 20242 59014;
0165821980999992012103018004-01717-045400FM-12+004499999V0200501N003112200019N0020001N1+03051+02191100981ADDAY121061AY221061GF103991031021004501001001MA1999999100471MD1999999-0061MW1041REMSYN076AAXX  30184 82198 31495 30506 10305 20219 30047 40098 70422 83200 333 59006;
0168821980999992012103100004-01717-045400FM-12+004499999V0200501N002112200019N0002001N1+02591+02271101211ADDGF102991021021004501001001KA1240M+03121MA1999999100701MD1999999-0071REMSYN088AAXX  31004 82198 32492 20504 10259 20227 30070 40121 82200 333 10312 29074 55061 59007;
0156821980999992012103112004-01717-045400FM-12+004499999V0200501N002110042019N0020001N1+02961+02311101171ADDGF106991061021004501001001KA1240N+02291MA1999999100661MD1999999-0061REMSYN076AAXX  31124 82198 32495 60504 10296 20231 30066 40117 86200 333 20229 59006;
0137821980999992012103118004-01717-045400FM-12+004499999V0203601N005712200019N0020001N1+03061+02251100741ADDGF103991021021004501061001MA1999999100231MD1999999-0241REMSYN070AAXX  31184 82198 32495 33611 10306 20225 30023 40074 82260 333 59024;
0178821980999992012110100004-01717-045400FM-12+004499999V0203601N002612200019N0002001N1+02601+02251100981ADDGA1001+999999999GF100991001001999999001001KA1240M+03281MA1999999100471MD1999999-0231REMSYN082AAXX  01004 82198 32992 03605 10260 20225 30047 40098 333 10328 29073 55107 59023;
0156821980999992012110112004-01717-045400FM-12+004499999V0200201N003612200019N0020001N1+02991+02251101161ADDGF103991031021004501001001KA1240N+02301MA1999999100651MD1999999-0011REMSYN076AAXX  01124 82198 32495 30207 10299 20225 30065 40116 83200 333 20230 59001;
0137821980999992012110118004-01717-045400FM-12+004499999V0203601N004110450019N0020001N1+03041+02151100851ADDGF108991031021004501041999MA1999999100341MD1999999+0111REMSYN070AAXX  01184 82198 32495 83608 10304 20215 30034 40085 8324/ 333 58011;
0137821980999992012110218004-01717-045400FM-12+004499999V0200201N004112200019N0020001N1+03141+02211100981ADDGF104991031021004501001021MA1999999100471MD1999999+0131REMSYN070AAXX  02184 82198 32495 40208 10314 20221 30047 40098 83202 333 58013;
0178821980999992012110300004-01717-045400FM-12+004499999V0200701N002112200019N0002001N1+02601+02311101141ADDGA1001+999999999GF100991001001999999001001KA1240M+03281MA1999999100631MD1999999+0051REMSYN082AAXX  03004 82198 32992 00704 10260 20231 30063 40114 333 10328 29073 55092 58005;
0156821980999992012110312004-01717-045400FM-12+004499999V0200501N003610042019N0020001N1+03061+02331101251ADDGF106991051021004501001021KA1240N+02381MA1999999100741MD1999999+0041REMSYN076AAXX  03124 82198 32495 60507 10306 20233 30074 40125 85202 333 20238 58004;
0137821980999992012110318004-01717-045400FM-12+004499999V0200201N005112200019N0020001N1+03181+02251100921ADDGF103991031021004501001001MA1999999100411MD1999999-0061REMSYN070AAXX  03184 82198 32495 30210 10318 20225 30041 40092 83200 333 59006;
0156821980999992012110412004-01717-045400FM-12+004499999V0200201N002612200019N0020001N1+03031+02291101241ADDGF103991031021004501001001KA1240N+02391MA1999999100731MD1999999-0011REMSYN076AAXX  04124 82198 32495 30205 10303 20229 30073 40124 83200 333 20239 59001;
0137821980999992012110418004-01717-045400FM-12+004499999V0203601N005112200019N0020001N1+03141+02271100861ADDGF103991021021004501001011MA1999999100351MD1999999-0061REMSYN070AAXX  04184 82198 32495 33610 10314 20227 30035 40086 82201 333 59006;
0178821980999992012110500004-01717-045400FM-12+004499999V0200501N003112200019N0002001N1+02621+02391101041ADDGA1001+999999999GF100991001001999999001001KA1240M+03341MA1999999100531MD1999999-0111REMSYN082AAXX  05004 82198 32992 00506 10262 20239 30053 40104 333 10334 29075 55111 59011;
0156821980999992012110512004-01717-045400FM-12+004499999V0200701N002110042019N0020001N1+03031+02531101111ADDGF105991051021004501001001KA1240N+02501MA1999999100601MD1999999-0131REMSYN076AAXX  05124 82198 32495 50704 10303 20253 30060 40111 85200 333 20250 59013;
0137821980999992012110518004-01717-045400FM-12+004499999V0203601N005112200019N0020001N1+03121+02331100691ADDGF102991021021004501001001MA1999999100181MD1999999-0171REMSYN070AAXX  05184 82198 32495 23610 10312 20233 30018 40069 82200 333 59017;
0178821980999992012110600004-01717-045400FM-12+004499999V0200501N002112200019N0002001N1+02671+02431100951ADDGA1001+999999999GF100991001001999999001001KA1240M+03381MA1999999100441MD1999999+0091REMSYN082AAXX  06004 82198 32992 00504 10267 20243 30044 40095 333 10338 29078 55104 58009;
0156821980999992012110612004-01717-045400FM-12+004499999V0200701N002610450019N0020001N1+03121+02331101141ADDGF105991041021004501061001KA1240N+02401MA1999999100631MD1999999+0031REMSYN076AAXX  06124 82198 32495 50705 10312 20233 30063 40114 84260 333 20240 58003;
0137821980999992012110618004-01717-045400FM-12+004499999V0200201N003612200019N0020001N1+03151+02231100761ADDGF102991021021004501001001MA1999999100251MD1999999+0071REMSYN070AAXX  06184 82198 32495 20207 10315 20223 30025 40076 82200 333 58007;
0178821980999992012110700004-01717-045400FM-12+004499999V0200501N002112200019N0002001N1+02661+02331101051ADDGA1001+999999999GF100991001001999999001001KA1240M+03391MA1999999100541MD1999999+0101REMSYN082AAXX  07004 82198 32992 00504 10266 20233 30054 40105 333 10339 29071 55087 58010;
0137821980999992012110718004-01717-045400FM-12+004499999V0200501N003612200019N0020001N1+03241+02101100831ADDGF104991031021004501061001MA1999999100321MD1999999+0071REMSYN070AAXX  07184 82198 32495 40507 10324 20210 30032 40083 83260 333 58007;
0168821980999992012110800004-01717-045400FM-12+004499999V0200501N002112200019N0002001N1+02641+02331101031ADDGF102991021021004501001001KA1240M+03401MA1999999100521MD1999999-0021REMSYN088AAXX  08004 82198 32492 20504 10264 20233 30052 40103 82200 333 10340 29070 55080 59002;
0156821980999992012110812004-01717-045400FM-12+004499999V0200701N005110042019N0020001N1+03091+02161101061ADDGF105991051021004501001001KA1240N+02381MA1999999100551MD1999999-0091REMSYN076AAXX  08124 82198 32495 50710 10309 20216 30055 40106 85200 333 20238 59009;
0137821980999992012110818004-01717-045400FM-12+004499999V0200701N003110450019N0020001N1+03091+02131100671ADDGF107991041021004501061001MA1999999100161MD1999999-0161REMSYN070AAXX  08184 82198 32495 70706 10309 20213 30016 40067 84260 333 59016;
0178821980999992012110900004-01717-045400FM-12+004499999V0203601N002612200019N0002001N1+02631+02251100891ADDGA1001+999999999GF100991001001999999001001KA1240M+03411MA1999999100381MD1999999-0141REMSYN082AAXX  09004 82198 32992 03605 10263 20225 30038 40089 333 10341 29069 55078 59014;
0156821980999992012110912004-01717-045400FM-12+004499999V0200201N004612200019N0020001N1+02941+02191101041ADDGF104991031021004501001011KA1240N+02421MA1999999100531MD1999999-0021REMSYN076AAXX  09124 82198 32495 40209 10294 20219 30053 40104 83201 333 20242 59002;
0137821980999992012110918004-01717-045400FM-12+004499999V0200501N003110450019N0020001N1+03271+02101100641ADDGF105991021021004501061001MA1999999100131MD1999999-0031REMSYN070AAXX  09184 82198 32495 50506 10327 20210 30013 40064 82260 333 59003;
0178821980999992012111000004-01717-045400FM-12+004499999V0200501N001512200019N0002001N1+02621+02311100921ADDGA1001+999999999GF100991001001999999001001KA1240M+03301MA1999999100421MD1999999+0041REMSYN082AAXX  10004 82198 32992 00503 10262 20231 30042 40092 333 10330 29070 55069 58004;
0156821980999992012111012004-01717-045400FM-12+004499999V0200501N003110042019N0020001N1+02971+01301101071ADDGF107991051031004501061001KA1240N+02381MA1999999100561MD1999999+0031REMSYN076AAXX  10124 82198 32495 70506 10297 20130 30056 40107 85360 333 20238 58003;
0137821980999992012111018004-01717-045400FM-12+004499999V0203601N003110042019N0020001N1+02961+02261100751ADDGF107991051021004501061001MA1999999100241MD1999999+0111REMSYN070AAXX  10184 82198 32495 73606 10296 20226 30024 40075 85260 333 58011;
0178821980999992012111100004-01717-045400FM-12+004499999V0200501N002112200019N0002001N1+02651+02331101061ADDGA1001+999999999GF100991001001999999001001KA1240M+03181MA1999999100551MD1999999+0131REMSYN082AAXX  11004 82198 32992 00504 10265 20233 30055 40106 333 10318 29075 55043 58013;
0156821980999992012111112004-01717-045400FM-12+004499999V0200501N004110450019N0020001N1+03061+02301101141ADDGF106991041021004501061001KA1240N+02431MA1999999100631MD1999999+0071REMSYN076AAXX  11124 82198 32495 60508 10306 20230 30063 40114 84260 333 20243 58007;
0156821980999992012111118004-01717-045400FM-12+004499999V0200501N005119999999N0020001N1+03281+02261100741ADDGF105991999041004501021061MA1999999100231MD1999999-0011REMSYN070AAXX  11184 82198 32495 50510 10328 20226 30023 40074 88426 333 59001;EQDQ01+000082SCOTLC
0178821980999992012111200004-01717-045400FM-12+004499999V0200501N002112200019N0002001N1+02601+02291101071ADDGA1001+999999999GF100991001001999999001001KA1240M+03371MA1999999100561MD1999999+0011REMSYN082AAXX  12004 82198 32992 00504 10260 20229 30056 40107 333 10337 29071 55061 58001;
0156821980999992012111212004-01717-045400FM-12+004499999V0200701N006210042019N0020001N1+03011+02481101141ADDGF106991061021004501001001KA1240N+02381MA1999999100631MD1999999+0001REMSYN076AAXX  12124 82198 32495 60712 10301 20248 30063 40114 86200 333 20238 58000;
0137821980999992012111218004-01717-045400FM-12+004499999V0200201N003110042019N0020001N1+03291+02231100741ADDGF106991061021004501001001MA1999999100231MD1999999+0001REMSYN070AAXX  12184 82198 32495 60206 10329 20223 30023 40074 86200 333 58000;
0178821980999992012111300004-01717-045400FM-12+004499999V0200201N002612200019N0002001N1+02641+02331101051ADDGA1001+999999999GF100991001001999999001001KA1240M+03381MA1999999100541MD1999999-0021REMSYN082AAXX  13004 82198 32992 00205 10264 20233 30054 40105 333 10338 29074 55073 59002;
0156821980999992012111412004-01717-045400FM-12+004499999V0200501N004610042019N0020001N1+03081+02161101111ADDGF105991051021004501001001KA1240N+02481MA1999999100601MD1999999-0171REMSYN076AAXX  14124 82198 32495 50509 10308 20216 30060 40111 85200 333 20248 59017;
0165821980999992012111418004-01717-045400FM-12+004499999V0203601N004610450019N0020001N1+03011+02081100921ADDAY121061AY221061GF107991041021004501031011MA1999999100411MD1999999+0081MW1041REMSYN076AAXX  14184 82198 31495 73609 10301 20208 30041 40092 70422 84231 333 58008;
0178821980999992012111500004-01717-045400FM-12+004499999V0200501N003612200019N0002001N1+02601+02271101121ADDGA1001+999999999GF100991001001999999001001KA1240M+03191MA1999999100611MD1999999+0121REMSYN082AAXX  15004 82198 32992 00507 10260 20227 30061 40112 333 10319 29070 55055 58012;
0156821980999992012111512004-01717-045400FM-12+004499999V0203601N003110450019N0020001N1+02911+02251101141ADDGF106991041021004501061011KA1240N+02341MA1999999100631MD1999999+0031REMSYN076AAXX  15124 82198 32495 63606 10291 20225 30063 40114 84261 333 20234 58003;
0137821980999992012111518004-01717-045400FM-12+004499999V0203601N004610450019N0020001N1+03111+02151100761ADDGF106991031021004501041061MA1999999100251MD1999999-0161REMSYN070AAXX  15184 82198 32495 63609 10311 20215 30025 40076 83246 333 59016;
0178821980999992012111600004-01717-045400FM-12+004499999V0200501N003112200019N0002001N1+02561+02291101001ADDGA1001+999999999GF100991001001999999001001KA1240M+03251MA1999999100491MD1999999-0121REMSYN082AAXX  16004 82198 32992 00506 10256 20229 30049 40100 333 10325 29074 55082 59012;
0156821980999992012111612004-01717-045400FM-12+004499999V0200501N003612200019N0020001N1+03021+02211101181ADDGF105991031021004501001041KA1240N+02351MA1999999100671MD1999999-0041REMSYN076AAXX  16124 82198 32495 50507 10302 20221 30067 40118 83204 333 20235 59004;
0137821980999992012111618004-01717-045400FM-12+004499999V0203601N003110042019N0020001N1+03111+02181100831ADDGF105991051021004501001001MA1999999100321MD1999999+0071REMSYN070AAXX  16184 82198 32495 53606 10311 20218 30032 40083 85200 333 58007;
0162821980999992012111700004-01717-045400FM-12+004499999V0200501N002619999999N0002001N1+02601+02311101091ADDGF105991999999999999999999KA1240M+03261MA1999999100581MD1999999+0091REMSYN082AAXX  17004 82198 32992 50505 10260 20231 30058 40109 333 10326 29072 55100 58009;
0156821980999992012111712004-01717-045400FM-12+004499999V0200501N005112200019N0020001N1+03061+02171101211ADDGF103991031011004501001001KA1240N+02361MA1999999100701MD1999999+0031REMSYN076AAXX  17124 82198 32495 30510 10306 20217 30070 40121 83100 333 20236 58003;
0137821980999992012111718004-01717-045400FM-12+004499999V0200501N004612200019N0020001N1+03241+02281100961ADDGF103991031021004501001001MA1999999100451MD1999999+0131REMSYN070AAXX  17184 82198 32495 30509 10324 20228 30045 40096 83200 333 58013;
0168821980999992012111800004-01717-045400FM-12+004499999V0200501N002112200019N0002001N1+02601+02351101211ADDGF101991011001022501001011KA1240M+03321MA1999999100701MD1999999+0121REMSYN088AAXX  18004 82198 32892 10504 10260 20235 30070 40121 81001 333 10332 29072 55108 58012;
0156821980999992012111812004-01717-045400FM-12+004499999V0200501N004612200019N0020001N1+03071+02141101201ADDGF104991041021004501001001KA1240N+02441MA1999999100691MD1999999-0011REMSYN076AAXX  18124 82198 32495 40509 10307 20214 30069 40120 84200 333 20244 59001;
0165821980999992012111818004-01717-045400FM-12+004499999V0200901N002110021019N0005001N1+03451+02001100811ADDAY121061AY221061GF105991051021002501001001MA1999999100301MD1999999-0151MW1041REMSYN076AAXX  18184 82198 31393 50904 10345 20200 30030 40081 70422 85200 333 59015;
0178821980999992012111900004-01717-045400FM-12+004499999V0200501N002612200019N0002001N1+02651+02271101131ADDGA1001+999999999GF100991001001999999001001KA1240M+03561MA1999999100621MD1999999-0081REMSYN082AAXX  19004 82198 32992 00505 10265 20227 30062 40113 333 10356 29067 55109 59008;
0156821980999992012111912004-01717-045400FM-12+004499999V0200701N003610042019N0020001N1+03051+02511101171ADDGF105991051021004501001001KA1240N+02501MA1999999100661MD1999999-0031REMSYN076AAXX  19124 82198 32495 50707 10305 20251 30066 40117 85200 333 20250 59003;
0137821980999992012111918004-01717-045400FM-12+004499999V0203601N004110042019N0020001N1+03151+02331100821ADDGF106991061021004501001001MA1999999100311MD1999999+0011REMSYN070AAXX  19184 82198 32495 63608 10315 20233 30031 40082 86200 333 58001;
0178821980999992012112000004-01717-045400FM-12+004499999V0200501N002612200019N0002001N1+02671+02311101031ADDGA1001+999999999GF100991001001999999001001KA1240M+03311MA1999999100521MD1999999-0101REMSYN082AAXX  20004 82198 32992 00505 10267 20231 30052 40103 333 10331 29076 55093 59010;
0156821980999992012112012004-01717-045400FM-12+004499999V0200501N003610450019N0020001N1+02971+02341101171ADDGF106991041021004501061001KA1240N+02551MA1999999100661MD1999999+0001REMSYN076AAXX  20124 82198 32495 60507 10297 20234 30066 40117 84260 333 20255 58000;
0137821980999992012112018004-01717-045400FM-12+004499999V0203601N005110042019N0020001N1+03071+02191100841ADDGF106991061021004501001001MA1999999100331MD1999999+0021REMSYN070AAXX  20184 82198 32495 63610 10307 20219 30033 40084 86200 333 58002;
0168821980999992012112100004-01717-045400FM-12+004499999V0200501N002612200019N0002001N1+02631+02331101001ADDGF101991011011004501001001KA1240M+03391MA1999999100491MD1999999-0031REMSYN088AAXX  21004 82198 32492 10505 10263 20233 30049 40100 81100 333 10339 29075 55050 59003;
0184821980999992012112112004-01717-045400FM-12+004499999V0200501N006710042019N0020001N1+02971+02241101101ADDAY111061AY221061GF105991051021004501001001KA1240N+02501MA1999999100591MD1999999-0071MW1051REMSYN082AAXX  21124 82198 31495 50513 10297 20224 30059 40110 70512 85200 333 20250 59007;
0137821980999992012112118004-01717-045400FM-12+004499999V0200901N005112200019N0020001N1+03371+02001100791ADDGF103991031021004501001001MA1999999100281MD1999999-0051REMSYN070AAXX  21184 82198 32495 30910 10337 20200 30028 40079 83200 333 59005;
0178821980999992012112200004-01717-045400FM-12+004499999V0200501N002612200019N0002001N1+02651+02291101121ADDGA1001+999999999GF100991001001999999001001KA1240M+03421MA1999999100611MD1999999+0121REMSYN082AAXX  22004 82198 32992 00505 10265 20229 30061 40112 333 10342 29068 55088 58012;
0156821980999992012112212004-01717-045400FM-12+004499999V0200501N004110042019N0020001N1+03071+02171101031ADDGF105991051021004501001001KA1240N+02411MA1999999100521MD1999999-0071REMSYN076AAXX  22124 82198 32495 50508 10307 20217 30052 40103 85200 333 20241 59007;
0165821980999992012112218004-01717-045400FM-12+004499999V0203601N004112200019N0020001N1+03271+02211100761ADDAY121061AY221061GF106991031021004501001041MA1999999100251MD1999999-0031MW1041REMSYN076AAXX  22184 82198 31495 63608 10327 20221 30025 40076 70422 83204 333 59003;
0178821980999992012112300004-01717-045400FM-12+004499999V0200501N002112200019N0002001N1+02631+02291101101ADDGA1001+999999999GF100991001001999999001001KA1240M+03461MA1999999100591MD1999999-0021REMSYN082AAXX  23004 82198 32992 00504 10263 20229 30059 40110 333 10346 29071 55111 59002;
0156821980999992012112312004-01717-045400FM-12+004499999V0200501N003612200019N0020001N1+03011+02321101071ADDGF104991041021004501001001KA1240N+02451MA1999999100561MD1999999+0041REMSYN076AAXX  23124 82198 32495 40507 10301 20232 30056 40107 84200 333 20245 58004;
0137821980999992012112318004-01717-045400FM-12+004499999V0203601N005112200019N0020001N1+03101+02341100751ADDGF106991041021004501001041MA1999999100241MD1999999-0011REMSYN070AAXX  23184 82198 32495 63610 10310 20234 30024 40075 84204 333 59001;
0168821980999992012112400004-01717-045400FM-12+004499999V0203601N003612200019N0002001N1+02681+02391101021ADDGF101991011011004501001001KA1240M+03561MA1999999100511MD1999999-0081REMSYN088AAXX  24004 82198 32492 13607 10268 20239 30051 40102 81100 333 10356 29075 55109 59008;
0156821980999992012112412004-01717-045400FM-12+004499999V0200901N002110450019N0020001N1+02931+02301101161ADDGF108991041051004501061001KA1240N+02511MA1999999100651MD1999999+0091REMSYN076AAXX  24124 82198 32495 80904 10293 20230 30065 40116 84560 333 20251 58009;
0165821980999992012112418004-01717-045400FM-12+004499999V0203601N003610450019N0020001N1+03021+02311100951ADDAY121061AY221061GF106991041021004501061001MA1999999100441MD1999999+0201MW1041REMSYN076AAXX  24184 82198 31495 63607 10302 20231 30044 40095 70422 84260 333 58020;
0168821980999992012112500004-01717-045400FM-12+004499999V0200701N002112200019N0002001N1+02641+02411101141ADDGF106991031001017501011011KA1240M+03131MA1999999100631MD1999999+0121REMSYN088AAXX  25004 82198 32792 60704 10264 20241 30063 40114 83011 333 10313 29078 55033 58012;
0173821980999992012112512004-01717-045400FM-12+004499999V0200701N003110042019N0020001N1+03011+02371101181ADDAA124000591GF105991051021004501001001KA1240N+02481MA1999999100671MD1999999+0021REMSYN082AAXX  25124 82198 22495 50706 10301 20237 30067 40118 85200 333 20248 58002 69954;
0137821980999992012112518004-01717-045400FM-12+004499999V0203601N002610042019N0020001N1+03041+02231100911ADDGF106991061021004501001001MA1999999100401MD1999999-0041REMSYN070AAXX  25184 82198 32495 63605 10304 20223 30040 40091 86200 333 59004;
0168821980999992012112600004-01717-045400FM-12+004499999V0200701N002112200019N0002001N1+02651+02291101231ADDGF101991011011004501001001KA1240M+03251MA1999999100721MD1999999+0091REMSYN088AAXX  26004 82198 32492 10704 10265 20229 30072 40123 81100 333 10325 29074 55075 58009;
0156821980999992012112612004-01717-045400FM-12+004499999V0200701N004612200019N0020001N1+03011+02511101131ADDGF105991041021004501001041KA1240N+02411MA1999999100621MD1999999-0051REMSYN076AAXX  26124 82198 32495 50709 10301 20251 30062 40113 84204 333 20241 59005;
0165821980999992012112618004-01717-045400FM-12+004499999V0203601N005110450019N0020001N1+03191+02241100871ADDAY121061AY221061GF105991031021004501061001MA1999999100361MD1999999-0041MW1041REMSYN076AAXX  26184 82198 31495 53610 10319 20224 30036 40087 70422 83260 333 59004;
0168821980999992012112700004-01717-045400FM-12+004499999V0200701N002612200019N0002001N1+02661+02351101131ADDGF101991011021004501001001KA1240M+03361MA1999999100621MD1999999-0101REMSYN088AAXX  27004 82198 32492 10705 10266 20235 30062 40113 81200 333 10336 29074 55092 59010;
0156821980999992012112712004-01717-045400FM-12+004499999V0200901N003112200019N0020001N1+03171+02291101121ADDGF104991041021004501001001KA1240N+02381MA1999999100611MD1999999-0011REMSYN076AAXX  27124 82198 32495 40906 10317 20229 30061 40112 84200 333 20238 59001;
0137821980999992012112718004-01717-045400FM-12+004499999V0200201N004610042019N0020001N1+03091+02241100691ADDGF105991051021004501001001MA1999999100181MD1999999-0181REMSYN070AAXX  27184 82198 32495 50209 10309 20224 30018 40069 85200 333 59018;
0178821980999992012112800004-01717-045400FM-12+004499999V0200701N003612200019N0002001N1+02671+02351100911ADDGA1001+999999999GF100991001001999999001001KA1240M+03431MA1999999100401MD1999999-0221REMSYN082AAXX  28004 82198 32992 00707 10267 20235 30040 40091 333 10343 29071 55098 59022;
0156821980999992012112812004-01717-045400FM-12+004499999V0200701N003610042019N0020001N1+03061+02351100971ADDGF106991061021004501001001KA1240N+02391MA1999999100461MD1999999-0151REMSYN076AAXX  28124 82198 32495 60707 10306 20235 30046 40097 86200 333 20239 59015;
0173821980999992012112818004-01717-045400FM-12+004499999V0200701N003619999999N0020001N1+02291+99999999999ADDGF105991999001004501001061MA1999999100631ME1552009REMSYN060AAXX  28184 82198 32495 50707 10229 20012 30063 45200 89006;EQDQ01+000092SCOTLCQ02+000123ATOD  Q03 +00123ATOD  
0168821980999992012112900004-01717-045400FM-12+004499999V0200701N002112200019N0002001N1+02701+02391100881ADDGF103991031011004501001001KA1240M+03441MA1999999100371MD1999999-0031REMSYN088AAXX  29004 82198 32492 30704 10270 20239 30037 40088 83100 333 10344 29072 55088 59003;
0156821980999992012112912004-01717-045400FM-12+004499999V0200501N002110042019N0020001N1+03031+02361101031ADDGF106991061021004501001001KA1240N+02381MA1999999100521MD1999999+0061REMSYN076AAXX  29124 82198 32495 60504 10303 20236 30052 40103 86200 333 20238 58006;
0137821980999992012112918004-01717-045400FM-12+004499999V0200201N003610042019N0020001N1+02951+02291100741ADDGF108991061051004501041999MA1999999100231MD1999999+0111REMSYN070AAXX  29184 82198 32495 80207 10295 20229 30023 40074 8654/ 333 58011;
0168821980999992012113000004-01717-045400FM-12+004499999V0200701N002110450019N0002001N1+02711+02351101011ADDGF106991031021004501041001KA1240M+03331MA1999999100501MD1999999+0131REMSYN088AAXX  30004 82198 32492 60704 10271 20235 30050 40101 83240 333 10333 29074 55034 58013;
0201821980999992012113012004-01717-045400FM-12+004499999V0200501N001010042019N0020001N1+02421+02281101241ADDAA124007991AY101061AY261061GF108991051071004501041999KA1240N+02201MA1999999100731MD1999999+0211MW1021REMSYN088AAXX  30124 82198 21495 80502 10242 20228 30073 40124 70206 8574/ 333 20220 58021 60084;
0182821980999992012113018004-01717-045400FM-12+004499999V0202501N001510042019N0010001N1+02481+02381101071ADDAA106004191AY161061AY221061GF108991061071004501021999MA1999999100561MD1999999+0331MW1611REMSYN082AAXX  30184 82198 21494 82503 10248 20238 30056 40107 76162 8672/ 333 58033 60041;
0213821980999992012120100004-01717-045400FM-12+004499999V0200701N002610450019N0002001N1+02411+02301101151ADDAA106011991AY161061AY221061GF107991041031004501041001KA1240M+02901MA1999999100641MD1999999+0141MW1021REMSYN100AAXX  01004 82198 21492 70705 10241 20230 30064 40115 70262 84340 333 10290 29094 55000 58014 60121;
0173821980999992012120112004-01717-045400FM-12+004499999V0200701N002110450019N0020001N1+02961+02401101141ADDAA124016091GF105991041021004501061001KA1240N+02221MA1999999100631MD1999999-0101REMSYN082AAXX  01124 82198 22495 50704 10296 20240 30063 40114 84260 333 20222 59010 60164;
0137821980999992012120118004-01717-045400FM-12+004499999V0200701N004110450019N0020001N1+03051+02331100851ADDGF105991041021004501041001MA1999999100341MD1999999-0221REMSYN070AAXX  01184 82198 32495 50708 10305 20233 30034 40085 84240 333 59022;
0168821980999992012120200004-01717-045400FM-12+004499999V0200701N002112200019N0002001N1+02631+02331101051ADDGF102991021001012501061001KA1240M+03271MA1999999100541MD1999999-0101REMSYN088AAXX  02004 82198 32692 20704 10263 20233 30054 40105 82060 333 10327 29076 55061 59010;
0156821980999992012120212004-01717-045400FM-12+004499999V0200701N004112200019N0020001N1+03011+02271101071ADDGF104991031021004501031001KA1240N+02431MA1999999100561MD1999999-0071REMSYN076AAXX  02124 82198 32495 40708 10301 20227 30056 40107 83230 333 20243 59007;
0137821980999992012120218004-01717-045400FM-12+004499999V0200701N004112200019N0020001N1+03301+02181100731ADDGF104991021021004501061021MA1999999100221MD1999999-0121REMSYN070AAXX  02184 82198 32495 40708 10330 20218 30022 40073 82262 333 59012;
0178821980999992012120300004-01717-045400FM-12+004499999V0200701N002112200019N0002001N1+02621+02311100961ADDGA1001+999999999GF100991001001999999001001KA1240M+03431MA1999999100451MD1999999-0091REMSYN082AAXX  03004 82198 32992 00704 10262 20231 30045 40096 333 10343 29071 55105 59009;
0156821980999992012120312004-01717-045400FM-12+004499999V0200901N005110042019N0020001N1+02921+02431101171ADDGF107991071021004501001001KA1240N+02411MA1999999100661MD1999999+0101REMSYN076AAXX  03124 82198 32495 70910 10292 20243 30066 40117 87200 333 20241 58010;
0137821980999992012120318004-01717-045400FM-12+004499999V0209999C000011050019N0020001N1+03141+02381100851ADDGF105991031021004501001021MA1999999100341MD1999999+0121REMSYN070AAXX  03184 82198 32495 50200 10314 20238 30034 40085 83202 333 58012;
0178821980999992012120400004-01717-045400FM-12+004499999V0200701N002112200019N0002001N1+02631+02291101181ADDGA1001+999999999GF100991001001999999001001KA1240M+03321MA1999999100671MD1999999+0221REMSYN082AAXX  04004 82198 32992 00704 10263 20229 30067 40118 333 10332 29076 55056 58022;
0156821980999992012120412004-01717-045400FM-12+004499999V0200901N004610450019N0020001N1+02911+02301101241ADDGF106991041021004501061011KA1240N+02341MA1999999100731MD1999999+0071REMSYN076AAXX  04124 82198 32495 60909 10291 20230 30073 40124 84261 333 20234 58007;
0165821980999992012120418004-01717-045400FM-12+004499999V0200901N003610450019N0020001N1+03231+02271100921ADDAY121061AY221061GF106991041021004501061011MA1999999100411MD1999999+0071MW1041REMSYN076AAXX  04184 82198 31495 60907 10323 20227 30041 40092 70422 84261 333 58007;
0178821980999992012120500004-01717-045400FM-12+004499999V0200701N002112200019N0002001N1+02631+02331101151ADDGA1001+999999999GF100991001001999999001001KA1240M+03301MA1999999100641MD1999999-0031REMSYN082AAXX  05004 82198 32992 00704 10263 20233 30064 40115 333 10330 29074 55064 59003;
0156821980999992012120512004-01717-045400FM-12+004499999V0200901N003110042019N0020001N1+03031+02341101141ADDGF106991061021004501001001KA1240N+02311MA1999999100631MD1999999-0101REMSYN076AAXX  05124 82198 32495 60906 10303 20234 30063 40114 86200 333 20231 59010;
0165821980999992012120518004-01717-045400FM-12+004499999V0203601N004612200019N0020001N1+03171+02351100751ADDAY111061AY221061GF103991031021004501001001MA1999999100241MD1999999-0171MW1041REMSYN076AAXX  05184 82198 31495 33609 10317 20235 30024 40075 70412 83200 333 59017;
0178821980999992012120600004-01717-045400FM-12+004499999V0200501N003112200019N0002001N1+02651+02271100981ADDGA1001+999999999GF100991001001999999001001KA1240M+03401MA1999999100471MD1999999-0171REMSYN082AAXX  06004 82198 32992 00506 10265 20227 30047 40098 333 10340 29073 55102 59017;
0156821980999992012120612004-01717-045400FM-12+004499999V0200901N002612200019N0020001N1+03061+02401100981ADDGF104991041021004501001001KA1240N+02411MA1999999100471MD1999999-0161REMSYN076AAXX  06124 82198 32495 40905 10306 20240 30047 40098 84200 333 20241 59016;
0165821980999992012120618004-01717-045400FM-12+004499999V0200901N004110042019N0020001N1+03341+02221100681ADDAY121061AY221061GF105991051021004501001001MA1999999100171MD1999999-0071MW1041REMSYN076AAXX  06184 82198 31495 50908 10334 20222 30017 40068 70422 85200 333 59007;
0178821980999992012120700004-01717-045400FM-12+004499999V0200901N002612200019N0002001N1+02671+02311100901ADDGA1001+999999999GF100991001001999999001001KA1240M+03491MA1999999100391MD1999999-0081REMSYN082AAXX  07004 82198 32992 00905 10267 20231 30039 40090 333 10349 29072 55090 59008;
0156821980999992012120712004-01717-045400FM-12+004499999V0200901N006210042019N0020001N1+03081+02241101021ADDGF106991061021004501001001KA1240N+02481MA1999999100511MD1999999+0041REMSYN076AAXX  07124 82198 32495 60912 10308 20224 30051 40102 86200 333 20248 58004;
0165821980999992012120718004-01717-045400FM-12+004499999V0200501N003110450019N0010001N1+02891+02221100781ADDAY121061AY221061GF107991041051004501061001MA1999999100271MD1999999+0101MW1041REMSYN076AAXX  07184 82198 31494 70506 10289 20222 30027 40078 70422 84560 333 58010;
0178821980999992012120800004-01717-045400FM-12+004499999V0200501N003612200019N0002001N1+02651+02271101121ADDGA1001+999999999GF100991001001999999001001KA1240M+03221MA1999999100611MD1999999+0221REMSYN082AAXX  08004 82198 32992 00507 10265 20227 30061 40112 333 10322 29074 55071 58022;
0184821980999992012120812004-01717-045400FM-12+004499999V0200701N002110450019N0020001N1+02851+02311101301ADDAY111061AY221061GF106991041021004501061001KA1240N+02381MA1999999100791MD1999999+0281MW1041REMSYN082AAXX  08124 82198 31495 60704 10285 20231 30079 40130 70412 84260 333 20238 58028;
0156821980999992012120912004-01717-045400FM-12+004499999V0200701N003112200019N0020001N1+03011+02291101191ADDGF106991031021004501001061KA1240N+02451MA1999999100681MD1999999-0111REMSYN076AAXX  09124 82198 32495 60706 10301 20229 30068 40119 83206 333 20245 59011;
0165821980999992012120918004-01717-045400FM-12+004499999V0203601N003610042019N0020001N1+03101+02291100931ADDAY121061AY221061GF106991061021004501001001MA1999999100421MD1999999-0031MW1041REMSYN076AAXX  09184 82198 31495 63607 10310 20229 30042 40093 70422 86200 333 59003;
0178821980999992012121000004-01717-045400FM-12+004499999V0200501N003112200019N0002001N1+02721+02371101141ADDGA1001+999999999GF100991001001999999001001KA1240M+03371MA1999999100631MD1999999+0001REMSYN082AAXX  10004 82198 32992 00506 10272 20237 30063 40114 333 10337 29072 55077 58000;
0156821980999992012121012004-01717-045400FM-12+004499999V0200901N003610450019N0020001N1+03001+02491101151ADDGF107991041021004501061001KA1240N+02401MA1999999100641MD1999999-0041REMSYN076AAXX  10124 82198 32495 70907 10300 20249 30064 40115 84260 333 20240 59004;
0137821980999992012121018004-01717-045400FM-12+004499999V0200501N004612200019N0020001N1+03251+02271100701ADDGF103991031021004501001001MA1999999100191MD1999999-0231REMSYN070AAXX  10184 82198 32495 30509 10325 20227 30019 40070 83200 333 59023;
0178821980999992012121100004-01717-045400FM-12+004499999V0200501N002112200019N0002001N1+02671+02291100931ADDGA1001+999999999GF100991001001999999001001KA1240M+03421MA1999999100421MD1999999-0211REMSYN082AAXX  11004 82198 32992 00504 10267 20229 30042 40093 333 10342 29074 55083 59021;
0156821980999992012121112004-01717-045400FM-12+004499999V0200901N004610042019N0020001N1+03081+02291101041ADDGF106991061021004501001001KA1240N+02401MA1999999100531MD1999999-0111REMSYN076AAXX  11124 82198 32495 60909 10308 20229 30053 40104 86200 333 20240 59011;
0137821980999992012121118004-01717-045400FM-12+004499999V0200901N005110450019N0020001N1+03281+02161100741ADDGF105991041021004501061001MA1999999100231MD1999999+0041REMSYN070AAXX  11184 82198 32495 50910 10328 20216 30023 40074 84260 333 58004;
0168821980999992012121200004-01717-045400FM-12+004499999V0200901N002112200019N0002001N1+02681+02351100861ADDGF103991031001012501041001KA1240M+03381MA1999999100351MD1999999-0071REMSYN088AAXX  12004 82198 32692 30904 10268 20235 30035 40086 83040 333 10338 29070 55102 59007;
0156821980999992012121212004-01717-045400FM-12+004499999V0200901N004110042019N0020001N1+03101+02311101031ADDGF105991051021004501001001KA1240N+02361MA1999999100521MD1999999-0011REMSYN076AAXX  12124 82198 32495 50908 10310 20231 30052 40103 85200 333 20236 59001;
0137821980999992012121218004-01717-045400FM-12+004499999V0200701N004112200019N0020001N1+03271+02201100691ADDGF103991031021004501001001MA1999999100181MD1999999-0051REMSYN070AAXX  12184 82198 32495 30708 10327 20220 30018 40069 83200 333 59005;
0178821980999992012121300004-01717-045400FM-12+004499999V0200701N003112200019N0002001N1+02691+02291100821ADDGA1001+999999999GF100991001001999999001001KA1240M+03441MA1999999100311MD1999999-0041REMSYN082AAXX  13004 82198 32992 00706 10269 20229 30031 40082 333 10344 29070 55105 59004;
0156821980999992012121312004-01717-045400FM-12+004499999V0200701N003110450019N0020001N1+03001+02291100981ADDGF105991041021004501031001KA1240N+02431MA1999999100471MD1999999-0051REMSYN076AAXX  13124 82198 32495 50706 10300 20229 30047 40098 84230 333 20243 59005;
0137821980999992012121318004-01717-045400FM-12+004499999V0200201N002612200019N0020001N1+03151+02301100671ADDGF105991041021004501001011MA1999999100161MD1999999-0021REMSYN070AAXX  13184 82198 32495 50205 10315 20230 30016 40067 84201 333 59002;
0178821980999992012121400004-01717-045400FM-12+004499999V0200701N002112200019N0002001N1+02681+02391100921ADDGA1001+999999999GF100991001001999999001001KA1240M+03311MA1999999100411MD1999999+0101REMSYN082AAXX  14004 82198 32992 00704 10268 20239 30041 40092 333 10331 29074 55083 58010;
0156821980999992012121412004-01717-045400FM-12+004499999V0200501N002110450019N0020001N1+03071+02471100981ADDGF105991041021004501061001KA1240N+02401MA1999999100471MD1999999+0001REMSYN076AAXX  14124 82198 32495 50504 10307 20247 30047 40098 84260 333 20240 58000;
0137821980999992012121418004-01717-045400FM-12+004499999V0200901N005712200019N0020001N1+03431+02281100591ADDGF102991021021004501001001MA1999999100081MD1999999-0081REMSYN070AAXX  14184 82198 32495 20911 10343 20228 30008 40059 82200 333 59008;
0178821980999992012121500004-01717-045400FM-12+004499999V0200701N002112200019N0002001N1+02721+02411100771ADDGA1001+999999999GF100991001001999999001001KA1240M+03531MA1999999100261MD1999999-0151REMSYN082AAXX  15004 82198 32992 00704 10272 20241 30026 40077 333 10353 29072 55107 59015;
0156821980999992012121512004-01717-045400FM-12+004499999V0200701N003112200019N0020001N1+03111+02341100931ADDGF104991041021004501001001KA1240N+02491MA1999999100421MD1999999-0051REMSYN076AAXX  15124 82198 32495 40706 10311 20234 30042 40093 84200 333 20249 59005;
0137821980999992012121518004-01717-045400FM-12+004499999V0200701N004612200019N0020001N1+03391+02261100591ADDGF104991041021004501001001MA1999999100081MD1999999+0001REMSYN070AAXX  15184 82198 32495 40709 10339 20226 30008 40059 84200 333 58000;
0178821980999992012121600004-01717-045400FM-12+004499999V0200701N003612200019N0002001N1+02741+02341100891ADDGA1001+999999999GF100991001001999999001001KA1240M+03461MA1999999100381MD1999999+0121REMSYN082AAXX  16004 82198 32992 00707 10274 20234 30038 40089 333 10346 29068 55096 58012;
0156821980999992012121612004-01717-045400FM-12+004499999V0200501N004110042019N0020001N1+02881+02411101131ADDGF107991051051004501061021KA1240N+02541MA1999999100621MD1999999+0201REMSYN076AAXX  16124 82198 32495 70508 10288 20241 30062 40113 85562 333 20254 58020;
0182821980999992012121618004-01717-045400FM-12+004499999V0200701N002610042019N0020001N1+02741+02501100851ADDAA106002091AY161061AY221061GF107991051031004501041001MA1999999100341MD1999999+0261MW1211REMSYN082AAXX  16184 82198 21495 70705 10274 20250 30034 40085 72162 85340 333 58026 60021;
0168821980999992012121700004-01717-045400FM-12+004499999V0200501N001510042019N0002001N1+02701+02451101141ADDGF105991051021004501001001KA1240M+03211MA1999999100631MD1999999+0251REMSYN088AAXX  17004 82198 32492 50503 10270 20245 30063 40114 85200 333 10321 29084 55035 58025;
0173821980999992012121712004-01717-045400FM-12+004499999V0200701N002110450019N0020001N1+03041+02501101141ADDAA124002091GF106991041021004501061001KA1240N+02351MA1999999100631MD1999999+0011REMSYN082AAXX  17124 82198 22495 60704 10304 20250 30063 40114 84260 333 20235 58001 60024;
0137821980999992012121718004-01717-045400FM-12+004499999V0200201N004112200019N0020001N1+03131+02301100731ADDGF104991031021004501061001MA1999999100221MD1999999-0121REMSYN070AAXX  17184 82198 32495 40208 10313 20230 30022 40073 83260 333 59012;
0178821980999992012121800004-01717-045400FM-12+004499999V0200701N002612200019N0002001N1+02691+02411101001ADDGA1001+999999999GF100991001001999999001001KA1240M+03351MA1999999100491MD1999999-0141REMSYN082AAXX  18004 82198 32992 00705 10269 20241 30049 40100 333 10335 29076 55090 59014;
0156821980999992012121812004-01717-045400FM-12+004499999V0203601N003610450019N0020001N1+02971+02341101081ADDGF106991031021004501041061KA1240N+02561MA1999999100571MD1999999-0061REMSYN076AAXX  18124 82198 32495 63607 10297 20234 30057 40108 83246 333 20256 59006;
0178821980999992012121900004-01717-045400FM-12+004499999V0200501N003112200019N0002001N1+02691+02311100961ADDGA1001+999999999GF100991001001999999001001KA1240M+03181MA1999999100451MD1999999-0041REMSYN082AAXX  19004 82198 32992 00506 10269 20231 30045 40096 333 10318 29076 55073 59004;
0173821980999992012121912004-01717-045400FM-12+004499999V0200901N004610450019N0020001N1+03051+02421100911ADDAA124009991GF106991041021004501061001KA1240N+02511MA1999999100401MD1999999-0171REMSYN082AAXX  19124 82198 22495 60909 10305 20242 30040 40091 84260 333 20251 59017 60104;
0137821980999992012121918004-01717-045400FM-12+004499999V0200701N005110042019N0020001N1+03301+02301100681ADDGF106991061021004501001001MA1999999100171MD1999999-0161REMSYN070AAXX  19184 82198 32495 60710 10330 20230 30017 40068 86200 333 59016;
0168821980999992012122000004-01717-045400FM-12+004499999V0200701N002612200019N0002001N1+02731+02411100821ADDGF103991021011004501031001KA1240M+03371MA1999999100311MD1999999-0141REMSYN088AAXX  20004 82198 32492 30705 10273 20241 30031 40082 82130 333 10337 29073 55102 59014;
0156821980999992012122012004-01717-045400FM-12+004499999V0200701N004110450019N0020001N1+02881+02351100971ADDGF107991041021004501061001KA1240N+02551MA1999999100461MD1999999+0061REMSYN076AAXX  20124 82198 32495 70708 10288 20235 30046 40097 84260 333 20255 58006;
0201821980999992012122018004-01717-045400FM-12+004499999V0200901N004610450019N0020001N1+03191+02301100671ADDAA106000091AY151061AY221061GF106991031021004501041041MA1999999100161MD1999999-0011MW1021REMSYN082AAXX  20184 82198 21495 60909 10319 20230 30016 40067 70252 83244 333 59001 69921;EQDQ01  00002PRCP06
0168821980999992012122100004-01717-045400FM-12+004499999V0200501N002112200019N0002001N1+02711+02391100891ADDGF103991021011004501011001KA1240M+03301MA1999999100381MD1999999+0071REMSYN088AAXX  21004 82198 32492 30504 10271 20239 30038 40089 82110 333 10330 29074 55045 58007;
0208821980999992012122112004-01717-045400FM-12+004499999V0200501N002619999999N0020001N1+02911+02391100971ADDAA124000091GF106991999031004501021061KA1240N+02451MA1999999100461MD1999999+0001REMSYN082AAXX  21124 82198 22495 60505 10291 20239 30046 40097 88326 333 20245 58000 69924;EQDQ01+000082SCOTLCQ02  00002PRCP24
0137821980999992012122118004-01717-045400FM-12+004499999V0203601N005110450019N0020001N1+03151+02331100851ADDGF106991031021004501041061MA1999999100341MD1999999+0161REMSYN070AAXX  21184 82198 32495 63610 10315 20233 30034 40085 83246 333 58016;
0168821980999992012122200004-01717-045400FM-12+004499999V0200901N003112200019N0002001N1+02711+02411100981ADDGF103991021011004501011001KA1240M+03241MA1999999100471MD1999999+0091REMSYN088AAXX  22004 82198 32492 30906 10271 20241 30047 40098 82110 333 10324 29076 55065 58009;
0156821980999992012122212004-01717-045400FM-12+004499999V0200901N002610450019N0020001N1+02931+02391101041ADDGF107991041021004501041061KA1240N+02471MA1999999100531MD1999999+0071REMSYN076AAXX  22124 82198 32495 70905 10293 20239 30053 40104 84246 333 20247 58007;
0168821980999992012122300004-01717-045400FM-12+004499999V0200501N002112200019N0002001N1+02681+02391100961ADDGF102991011011004501001061KA1240M+03411MA1999999100451MD1999999-0021REMSYN088AAXX  23004 82198 32492 20504 10268 20239 30045 40096 81106 333 10341 29075 55095 59002;
0156821980999992012122312004-01717-045400FM-12+004499999V0200901N004110042019N0020001N1+03021+02311101041ADDGF106991061021004501001001KA1240N+02481MA1999999100531MD1999999+0001REMSYN076AAXX  23124 82198 32495 60908 10302 20231 30053 40104 86200 333 20248 58000;
0165821980999992012122318004-01717-045400FM-12+004499999V0200701N005112200019N0020001N1+03301+02211100801ADDAY121061AY211061GF103991011021004501041061MA1999999100291MD1999999-0011MW1041REMSYN076AAXX  23184 82198 31495 30710 10330 20221 30029 40080 70421 81246 333 59001;
0137821980999992012122418004-01717-045400FM-12+004499999V0203601N003110450019N0020001N1+02221+02171100841ADDGF106991031021004501031011MA1999999100331MD1999999+0041REMSYN070AAXX  24184 82198 32495 63606 10222 20217 30033 40084 83231 333 58004;
0168821980999992012122500004-01717-045400FM-12+004499999V0200701N002110450019N0002001N1+02701+02371101001ADDGF106991031011004501011011KA1240M+03361MA1999999100511MD1999999+0061REMSYN088AAXX  25004 82198 32492 60704 10270 20237 30051 40100 83111 333 10336 29074 55058 58006;
0156821980999992012122512004-01717-045400FM-12+004499999V0200201N005110450019N0020001N1+02951+02241101121ADDGF106991041021004501061001KA1240N+02511MA1999999100611MD1999999-0061REMSYN076AAXX  25124 82198 32495 60210 10295 20224 30061 40112 84260 333 20251 59006;
0168821980999992012122600004-01717-045400FM-12+004499999V0200701N002110450019N0200001N1+02681+02391101091ADDGF105991031031004501041001KA1240M+03131MA1999999100581MD1999999+0071REMSYN088AAXX  26004 82198 32498 50704 10268 20239 30058 40109 83340 333 10313 29076 55058 58007;
0173821980999992012122612004-01717-045400FM-12+004499999V0200201N003610450019N0020001N1+02931+02341101241ADDAA124002091GF105991041021004501031001KA1240N+02501MA1999999100731MD1999999+0121REMSYN082AAXX  26124 82198 22495 50207 10293 20234 30073 40124 84230 333 20250 58012 60024;
0137821980999992012122618004-01717-045400FM-12+004499999V0200201N006210450019N0020001N1+02961+02311100941ADDGF106991041021004501061001MA1999999100431MD1999999+0081REMSYN070AAXX  26184 82198 32495 60212 10296 20231 30043 40094 84260 333 58008;
0168821980999992012122700004-01717-045400FM-12+004499999V0200701N002610450019N0002001N1+02681+02391101131ADDGF106991041021004501031001KA1240M+03181MA1999999100621MD1999999+0041REMSYN088AAXX  27004 82198 32492 60705 10268 20239 30062 40113 84230 333 10318 29077 55078 58004;
0156821980999992012122712004-01717-045400FM-12+004499999V0200701N003110042019N0020001N1+02971+02421101171ADDGF106991061021004501001001KA1240N+02491MA1999999100661MD1999999-0071REMSYN076AAXX  27124 82198 32495 60706 10297 20242 30066 40117 86200 333 20249 59007;
0182821980999992012122718004-01717-045400FM-12+004499999V0200201N004611050019N0020001N1+02881+02351100851ADDAA106000891AY121061AY221061GF105991041021004501001021MA1999999100341MD1999999-0091MW1201REMSYN082AAXX  27184 82198 21495 50209 10288 20235 30034 40085 72022 84202 333 59009 69971;
0168821980999992012122800004-01717-045400FM-12+004499999V0200501N002110450019N0002001N1+02621+02321100981ADDGF106991041031004501041001KA1240M+03181MA1999999100471MD1999999-0151REMSYN088AAXX  28004 82198 32492 60504 10262 20232 30047 40098 84340 333 10318 29078 55091 59015;
0173821980999992012122812004-01717-045400FM-12+004499999V0200701N003610450019N0020001N1+02941+02401101091ADDAA124000891GF107991031021004501061001KA1240N+02521MA1999999100581MD1999999-0081REMSYN082AAXX  28124 82198 22495 70707 10294 20240 30058 40109 83260 333 20252 59008 69974;
0137821980999992012122818004-01717-045400FM-12+004499999V0200201N004610450019N0020001N1+03171+02281100771ADDGF106991041021004501061001MA1999999100261MD1999999-0081REMSYN070AAXX  28184 82198 32495 60209 10317 20228 30026 40077 84260 333 59008;
0168821980999992012122900004-01717-045400FM-12+004499999V0200501N002612200019N0002001N1+02711+02351100991ADDGF102991021001012501061001KA1240M+03251MA1999999100481MD1999999+0011REMSYN088AAXX  29004 82198 32692 20505 10271 20235 30048 40099 82060 333 10325 29074 55083 58001;
0156821980999992012122912004-01717-045400FM-12+004499999V0200701N004110042019N0020001N1+03101+02361101031ADDGF105991051021004501001001KA1240N+02481MA1999999100521MD1999999-0061REMSYN076AAXX  29124 82198 32495 50708 10310 20236 30052 40103 85200 333 20248 59006;
0137821980999992012122918004-01717-045400FM-12+004499999V0200501N004610450019N0020001N1+03111+02311100821ADDGF105991041021004501061001MA1999999100311MD1999999+0051REMSYN070AAXX  29184 82198 32495 50509 10311 20231 30031 40082 84260 333 58005;
0187821980999992012123000004-01717-045400FM-12+004499999V0200701N032920090019N0002001N1+02721+02391101041ADDGF106991051081004501011011KA1240M+03241MA1999999100531MD1999999+0051REMSYN088AAXX  30004 82198 32492 60764 10272 20239 30053 40104 85811 333 10324 29073 55077 58005;EQDQ01+003293WOSPD 
0156821980999992012123012004-01717-045400FM-12+004499999V0200701N003112200019N0020001N1+02981+02311101141ADDGF106991041021004501001041KA1240N+02471MA1999999100631MD1999999+0111REMSYN076AAXX  30124 82198 32495 60706 10298 20231 30063 40114 84204 333 20247 58011;
0137821980999992012123018004-01717-045400FM-12+004499999V0200201N005112200019N0020001N1+03201+02331100781ADDGF104991041021004501001001MA1999999100271MD1999999-0041REMSYN070AAXX  30184 82198 32495 40210 10320 20233 30027 40078 84200 333 59004;
0168821980999992012123100004-01717-045400FM-12+004499999V0200901N002119999999N0002001N1+02761+02421101041ADDGF105991051001012501061001KA1240M+03251MA1999999100531MD1999999+0001REMSYN088AAXX  31004 82198 32692 50904 10276 20242 30053 40104 85060 333 10325 29076 55070 58000;
0182821980999992012123118004-01717-045400FM-12+004499999V0200501N002110450019N0020001N1+02841+02461100911ADDAA106007991AY161061AY221061GF107991041031004501041001MA1999999100241MD1999999+0131MW1021REMSYN082AAXX  31184 82198 21495 70504 10284 20246 30024 40091 70262 84340 333 58013 60081;
