0178823920999992012010100004-03700-040350FM-12+008399999V0203601N001012200019N0040001N1+02701+02221100961ADDGA1001+999999999GF100991001001999999001001KA1240M+03661MA1999999099951MD1999999-0031REMSYN082AAXX  01004 82392 32996 03602 10270 20222 39995 40096 333 10366 29062 55092 59003;
0156823920999992012010112004-03700-040350FM-12+008399999V0203601N002112200019N0500001N1+02861+02091101181ADDGF103991031041004501001001KA1240N+02311MA1999999100161MD1999999+0081REMSYN076AAXX  01124 82392 32499 33604 10286 20209 30016 40118 83400 333 20231 58008;
0137823920999992012010118004-03700-040350FM-12+008399999V0200501N005112200019N0500001N1+03421+01831100711ADDGF104991041021004501001001MA1999999099701MD1999999+0071REMSYN070AAXX  01184 82392 32499 40510 10342 20183 39970 40071 84200 333 58007;
0178823920999992012010200004-03700-040350FM-12+008399999V0203601N005112200019N0040001N1+02681+02201101121ADDGA1001+999999999GF100991001001999999001001KA1240M+03581MA1999999100101MD1999999+0051REMSYN082AAXX  02004 82392 32996 03610 10268 20220 30010 40112 333 10358 29063 55083 58005;
0156823920999992012010212004-03700-040350FM-12+008399999V0200501N004612200019N0500001N1+02981+02061101121ADDGF102991021011004501001001KA1240N+02281MA1999999100101MD1999999-0061REMSYN076AAXX  02124 82392 32499 20509 10298 20206 30010 40112 82100 333 20228 59006;
0137823920999992012010218004-03700-040350FM-12+008399999V0200501N005112200019N0500001N1+03421+01781100661ADDGF103991021011004501031001MA1999999099651MD1999999-0051REMSYN070AAXX  02184 82392 32499 30510 10342 20178 39965 40066 82130 333 59005;
0168823920999992012010300004-03700-040350FM-12+008399999V0200501N005112200019N0040001N1+02661+02091101021ADDGF102991021001004501031001KA1240M+03601MA1999999100001MD1999999-0101REMSYN088AAXX  03004 82392 32496 20510 10266 20209 30000 40102 82030 333 10360 29060 55111 59010;
0156823920999992012010312004-03700-040350FM-12+008399999V0200501N002110450019N0500001N1+02841+02121101171ADDGF106991031041004501031001KA1240N+02341MA1999999100151MD1999999+0051REMSYN076AAXX  03124 82392 32499 60504 10284 20212 30015 40117 83430 333 20234 58005;
0137823920999992012010318004-03700-040350FM-12+008399999V0200901N001010450019N0500001N1+03531+01761100611ADDGF106991041041004501011001MA1999999099601MD1999999-0041REMSYN070AAXX  03184 82392 32499 60902 10353 20176 39960 40061 84410 333 59004;
0168823920999992012010400004-03700-040350FM-12+008399999V0203601N002612200019N0040001N1+02731+02121101051ADDGF102991021001008001011001KA1240M+03701MA1999999100031MD1999999+0031REMSYN088AAXX  04004 82392 32596 23605 10273 20212 30003 40105 82010 333 10370 29060 55081 58003;
0156823920999992012010412004-03700-040350FM-12+008399999V0200501N002610450019N0500001N1+02901+01961101171ADDGF106991041041004501031001KA1240N+02251MA1999999100151MD1999999+0001REMSYN076AAXX  04124 82392 32499 60505 10290 20196 30015 40117 84430 333 20225 58000;
0137823920999992012010418004-03700-040350FM-12+008399999V0200901N003112200019N0500001N1+03621+01741100671ADDGF104991031021004501031001MA1999999099661MD1999999+0051REMSYN070AAXX  04184 82392 32499 40906 10362 20174 39966 40067 83230 333 58005;
0178823920999992012010500004-03700-040350FM-12+008399999V0203601N002112200019N0040001N1+02711+02051101061ADDGA1001+999999999GF100991001001999999001001KA1240M+03701MA1999999100041MD1999999+0011REMSYN082AAXX  05004 82392 32996 03604 10271 20205 30004 40106 333 10370 29056 55083 58001;
0137823920999992012010518004-03700-040350FM-12+008399999V0200501N005110450019N0500001N1+03531+01851100691ADDGF106991041021004501031001MA1999999099681MD1999999+0021REMSYN070AAXX  05184 82392 32499 60510 10353 20185 39968 40069 84230 333 58002;
0168823920999992012010600004-03700-040350FM-12+008399999V0200501N004119999999N0040001N1+02741+02171101061ADDGF108991031051999999011999KA1240M+03721MA1999999100041MD1999999+0001REMSYN088AAXX  06004 82392 32996 80508 10274 20217 30004 40106 8351/ 333 10372 29060 55070 58000;
0156823920999992012010612004-03700-040350FM-12+008399999V0200501N002110450019N0500001N1+02821+02101101211ADDGF106991031041004501031001KA1240N+02401MA1999999100191MD1999999+0001REMSYN076AAXX  06124 82392 32499 60504 10282 20210 30019 40121 83430 333 20240 58000;
0137823920999992012010618004-03700-040350FM-12+008399999V0200501N000510450019N0500001N1+03511+01741100751ADDGF105991041021004501011001MA1999999099741MD1999999+0061REMSYN070AAXX  06184 82392 32499 50501 10351 20174 39974 40075 84210 333 58006;
0168823920999992012010700004-03700-040350FM-12+008399999V0200501N002612200019N0040001N1+02701+02171100991ADDGF102991021001008001031001KA1240M+03621MA1999999099971MD1999999-0071REMSYN088AAXX  07004 82392 32596 20505 10270 20217 39997 40099 82030 333 10362 29062 55083 59007;
0156823920999992012010712004-03700-040350FM-12+008399999V0200901N004610450019N0500001N1+03041+01941101151ADDGF105991031011004501031001KA1240N+02201MA1999999100141MD1999999-0051REMSYN076AAXX  07124 82392 32499 50909 10304 20194 30014 40115 83130 333 20220 59005;
0137823920999992012010718004-03700-040350FM-12+008399999V0200501N003112200019N0500001N1+03521+01601100711ADDGF104991021011004501031001MA1999999099701MD1999999-0041REMSYN070AAXX  07184 82392 32499 40506 10352 20160 39970 40071 82130 333 59004;
0178823920999992012010800004-03700-040350FM-12+008399999V0200501N004112200019N0040001N1+02721+02151100911ADDGA1001+999999999GF100991001001999999001001KA1240M+03621MA1999999099901MD1999999-0071REMSYN082AAXX  08004 82392 32996 00508 10272 20215 39990 40091 333 10362 29056 55107 59007;
0156823920999992012010812004-03700-040350FM-12+008399999V0201401N002110042019N0500001N1+02971+02041101171ADDGF105991051021004501001001KA1240N+02171MA1999999100151MD1999999+0011REMSYN076AAXX  08124 82392 32499 51404 10297 20204 30015 40117 85200 333 20217 58001;
0137823920999992012010818004-03700-040350FM-12+008399999V0200501N003112200019N0500001N1+03771+01501100641ADDGF103991021011004501011001MA1999999099641MD1999999-0061REMSYN070AAXX  08184 82392 32499 30506 10377 20150 39964 40064 82110 333 59006;
0178823920999992012010900004-03700-040350FM-12+008399999V0203601N003612200019N0040001N1+02711+02191101001ADDGA1001+999999999GF100991001001999999001001KA1240M+03761MA1999999099981MD1999999+0081REMSYN082AAXX  09004 82392 32996 03607 10271 20219 39998 40100 333 10376 29057 55095 58008;
0156823920999992012010912004-03700-040350FM-12+008399999V0200901N003110450019N0500001N1+02941+02081101041ADDGF106991031041004501031001KA1240N+02481MA1999999100021MD1999999-0131REMSYN076AAXX  09124 82392 32499 60906 10294 20208 30002 40104 83430 333 20248 59013;
0137823920999992012010918004-03700-040350FM-12+008399999V0200501N004110450019N0500001N1+03601+01991100641ADDGF105991021021004501031001MA1999999099641MD1999999+0001REMSYN070AAXX  09184 82392 32499 50508 10360 20199 39964 40064 82230 333 58000;
0168823920999992012011000004-03700-040350FM-12+008399999V0203601N001012200019N0040001N1+02641+02141101021ADDGF102991021001008001011001KA1240M+03681MA1999999100001MD1999999+0021REMSYN088AAXX  10004 82392 32596 23602 10264 20214 30000 40102 82010 333 10368 29062 55092 58002;
0156823920999992012011012004-03700-040350FM-12+008399999V0200901N004612200019N0500001N1+02941+02001101061ADDGF104991041021004501001001KA1240N+02181MA1999999100041MD1999999+0021REMSYN076AAXX  10124 82392 32499 40909 10294 20200 30004 40106 84200 333 20218 58002;
0156823920999992012011018004-03700-040350FM-12+008399999V0200501N003119999999N0500001N1+03631+01441100611ADDGF105991999021004501001001MA1999999099961MD1999999-0031REMSYN070AAXX  10184 82392 32499 50506 10363 20144 39996 40061 83200 333 59003;EQDQ01+000032SCOTLC
0178823920999992012011100004-03700-040350FM-12+008399999V0200501N001012200019N0040001N1+02731+01921100911ADDGA1001+999999999GF100991001001999999001001KA1240M+03691MA1999999099891MD1999999-0111REMSYN082AAXX  11004 82392 32996 00502 10273 20192 39989 40091 333 10369 29052 55107 59011;
0156823920999992012011112004-03700-040350FM-12+008399999V0200901N002612200019N0500001N1+02941+02001101021ADDGF104991021011004501031001KA1240N+02001MA1999999100001MD1999999-0041REMSYN076AAXX  11124 82392 32499 40905 10294 20200 30000 40102 82130 333 20200 59004;
0137823920999992012011118004-03700-040350FM-12+008399999V0200901N002112200019N0500001N1+03501+01771100671ADDGF104991031011004501031001MA1999999099661MD1999999+0051REMSYN070AAXX  11184 82392 32499 40904 10350 20177 39966 40067 83130 333 58005;
0168823920999992012011200004-03700-040350FM-12+008399999V0203601N001512200019N0040001N1+02791+02001100981ADDGF102991011011004501011001KA1240M+03671MA1999999099971MD1999999+0081REMSYN088AAXX  12004 82392 32496 23603 10279 20200 39997 40098 81110 333 10367 29054 55110 58008;
0156823920999992012011212004-03700-040350FM-12+008399999V0200901N002110042019N0500001N1+02961+01991101181ADDGF106991061021004501001001KA1240N+02391MA1999999100171MD1999999+0171REMSYN076AAXX  12124 82392 32499 60904 10296 20199 30017 40118 86200 333 20239 58017;
0137823920999992012011218004-03700-040350FM-12+008399999V0200901N002610042019N0500001N1+03681+01581100741ADDGF105991051021004501001001MA1999999099731MD1999999+0071REMSYN070AAXX  12184 82392 32499 50905 10368 20158 39973 40074 85200 333 58007;
0178823920999992012011300004-03700-040350FM-12+008399999V0200501N002112200019N0040001N1+02741+02261101061ADDGA1001+999999999GF100991001001999999001001KA1240M+03701MA1999999100051MD1999999+0081REMSYN082AAXX  13004 82392 32996 00504 10274 20226 30005 40106 333 10370 29059 55099 58008;
0156823920999992012011312004-03700-040350FM-12+008399999V0200901N003110450019N0500001N1+02901+02041101141ADDGF106991031021004501031001KA1240N+02301MA1999999100121MD1999999-0051REMSYN076AAXX  13124 82392 32499 60906 10290 20204 30012 40114 83230 333 20230 59005;
0156823920999992012011318004-03700-040350FM-12+008399999V0200501N005119999999N0500001N1+03631+01701100701ADDGF106991999021004501001001MA1999999099691MD1999999-0041REMSYN070AAXX  13184 82392 32499 60510 10363 20170 39969 40070 83200 333 59004;EQDQ01+000032SCOTLC
0178823920999992012011400004-03700-040350FM-12+008399999V0200501N003112200019N0040001N1+02801+02081100961ADDGA1001+999999999GF100991001001999999001001KA1240M+03711MA1999999099951MD1999999-0101REMSYN082AAXX  14004 82392 32996 00506 10280 20208 39995 40096 333 10371 29056 55090 59010;
0156823920999992012011412004-03700-040350FM-12+008399999V0200901N003110450019N0500001N1+02941+02001101171ADDGF106991031021004501011001KA1240N+02261MA1999999100161MD1999999+0041REMSYN076AAXX  14124 82392 32499 60906 10294 20200 30016 40117 83210 333 20226 58004;
0137823920999992012011418004-03700-040350FM-12+008399999V0200901N001010450019N0500001N1+03531+01521100741ADDGF108991031021004501011001MA1999999099731MD1999999+0041REMSYN070AAXX  14184 82392 32499 80902 10353 20152 39973 40074 83210 333 58004;
0168823920999992012011500004-03700-040350FM-12+008399999V0203601N003112200019N0040001N1+02821+02001100941ADDGF104991021021004501011001KA1240M+03681MA1999999099931MD1999999-0021REMSYN088AAXX  15004 82392 32496 43606 10282 20200 39993 40094 82210 333 10368 29052 55062 59002;
0156823920999992012011512004-03700-040350FM-12+008399999V0200501N001010450019N0500001N1+03001+02001101151ADDGF105991031021004501031001KA1240N+02301MA1999999100141MD1999999-0021REMSYN076AAXX  15124 82392 32499 50502 10300 20200 30014 40115 83230 333 20230 59002;
0156823920999992012011518004-03700-040350FM-12+008399999V0200501N004112200019N0500001N1+03621+01481100681ADDGF103991999021004501001001MA1999999099671MD1999999-0061REMSYN070AAXX  15184 82392 32499 30508 10362 20148 39967 40068 84200 333 59006;EQDQ01+000042SCOTLC
0178823920999992012011600004-03700-040350FM-12+008399999V0200501N005112200019N0040001N1+02741+02021100981ADDGA1001+999999999GF100991001001999999001001KA1240M+03681MA1999999099171MD1999999+0041REMSYN082AAXX  16004 82392 32996 00510 10274 20202 39917 40098 333 10368 29053 55077 58004;
0156823920999992012011612004-03700-040350FM-12+008399999V0200901N001010450019N0500001N1+02721+02101101261ADDGF108991031051004501011001KA1240N+02451MA1999999100241MD1999999+0101REMSYN076AAXX  16124 82392 32499 80902 10272 20210 30024 40126 83510 333 20245 58010;
0137823920999992012011618004-03700-040350FM-12+008399999V0200501N001010450019N0500001N1+03101+01871100891ADDGF108991011011004501021999MA1999999099871MD1999999+0201REMSYN070AAXX  16184 82392 32499 80502 10310 20187 39987 40089 8112/ 333 58020;
0213823920999992012011700004-03700-040350FM-12+008399999V0203601N001010042019N0040001N1+02431+02191101211ADDAA106002091AY161061AY261061GF108991061041004501021999KA1240M+03181MA1999999100191MD1999999+0221MW1211REMSYN100AAXX  17004 82392 21496 83602 10243 20219 30019 40121 72166 8642/ 333 10318 29073 55000 58022 60021;
0173823920999992012011712004-03700-040350FM-12+008399999V0203601N000512200019N0500001N1+02741+02101101171ADDAA124002091GF103991031011004501001001KA1240N+02201MA1999999100151MD1999999-0091REMSYN082AAXX  17124 82392 22499 33601 10274 20210 30015 40117 83100 333 20220 59009 60024;
0137823920999992012011718004-03700-040350FM-12+008399999V0203601N000510450019N0500001N1+03541+01571100641ADDGF105991031021004501031001MA1999999099641MD1999999-0231REMSYN070AAXX  17184 82392 32499 53601 10354 20157 39964 40064 83230 333 59023;
0168823920999992012011800004-03700-040350FM-12+008399999V0200501N003610450019N0040001N1+02681+02241101001ADDGF105991021011004501011001KA1240M+03671MA1999999099981MD1999999-0211REMSYN088AAXX  18004 82392 32496 50507 10268 20224 39998 40100 82110 333 10367 29063 55081 59021;
0156823920999992012011812004-03700-040350FM-12+008399999V0200501N003110450019N0500001N1+02761+02141101151ADDGF108991031041004501011999KA1240N+02301MA1999999100131MD1999999-0021REMSYN076AAXX  18124 82392 32499 80506 10276 20214 30013 40115 8341/ 333 20230 59002;
0182823920999992012011818004-03700-040350FM-12+008399999V0200501N001010450019N0500001N1+03311+01701100601ADDAA106001091AY151061AY221061GF106991041041004501031001MA1999999099601MD1999999-0041MW1021REMSYN082AAXX  18184 82392 21499 60502 10331 20170 39960 40060 70252 84430 333 59004 69991;
0213823920999992012011900004-03700-040350FM-12+008399999V0203601N000510042019N0040001N1+02441+02341100961ADDAA106046091AY161061AY261061GF108991081061004501999999KA1240M+03461MA1999999099941MD1999999-0041MW1021REMSYN100AAXX  19004 82392 21496 83601 10244 20234 39994 40096 70266 886// 333 10346 29074 55014 59004 60461;
0201823920999992012011912004-03700-040350FM-12+008399999V0209999C000010450019N0500001N1+02641+02331101151ADDAA124047091AY151061AY251061GF107991031021004501011001KA1240N+02261MA1999999100121MD1999999-0011MW1021REMSYN088AAXX  19124 82392 21499 70000 10264 20233 30012 40115 70255 83210 333 20226 59001 60474;
0182823920999992012011918004-03700-040350FM-12+008399999V0203601N000510450019N0500001N1+02341+02241100901ADDAA106023991AY161061AY261061GF108991041061004501021999MA1999999099871MD1999999+0271MW1021REMSYN082AAXX  19184 82392 21499 83601 10234 20224 39987 40090 70266 8462/ 333 58027 60241;
0213823920999992012012000004-03700-040350FM-12+008399999V0202301N001010042019N0040001N1+02301+02011101081ADDAA106000591AY161061AY251061GF108991071031004501011001KA1240M+03001MA1999999100051MD1999999+0111MW1021REMSYN100AAXX  20004 82392 21496 82302 10230 20201 30005 40108 70265 87310 333 10300 29086 55012 58011 69961;
0173823920999992012012012004-03700-040350FM-12+008399999V0200901N001010450019N0500001N1+02781+02161101131ADDAA124023991GF106991041041004501031001KA1240N+02261MA1999999100101MD1999999-0021REMSYN082AAXX  20124 82392 22499 60902 10278 20216 30010 40113 84430 333 20226 59002 60244;
0137823920999992012012018004-03700-040350FM-12+008399999V0200501N005710042019N0500001N1+03161+02051100631ADDGF107991051061004501031001MA1999999099621MD1999999-0251REMSYN070AAXX  20184 82392 32499 70511 10316 20205 39962 40063 85630 333 59025;
0168823920999992012012100004-03700-040350FM-12+008399999V0203601N003119999999N0040001N1+02601+02101101021ADDGF108991031061999999021999KA1240M+03461MA1999999100001MD1999999-0051REMSYN088AAXX  21004 82392 32996 83606 10260 20210 30000 40102 8362/ 333 10346 29067 55075 59005;
0156823920999992012012112004-03700-040350FM-12+008399999V0200901N003110450019N0500001N1+02761+02141101121ADDGF105991041021004501031001KA1240N+02401MA1999999100101MD1999999+0001REMSYN076AAXX  21124 82392 32499 50906 10276 20214 30010 40112 84230 333 20240 58000;
0182823920999992012012118004-03700-040350FM-12+008399999V0203601N001010450019N0500001N1+02481+02271100791ADDAA106023191AY151061AY261061GF108991031071004501021999MA1999999099761MD1999999+0141MW1021REMSYN082AAXX  21184 82392 21499 83602 10248 20227 39976 40079 70256 8372/ 333 58014 60231;
0168823920999992012012200004-03700-040350FM-12+008399999V0200501N002610450019N0040001N1+02601+02101100851ADDGF106991031051004501031001KA1240M+03301MA1999999099831MD1999999-0171REMSYN088AAXX  22004 82392 32496 60505 10260 20210 39983 40085 83530 333 10330 29076 55060 59017;
0173823920999992012012212004-03700-040350FM-12+008399999V0209999C000010450019N0500001N1+02721+02151101001ADDAA124023191GF106991031041004501031001KA1240N+02331MA1999999099981MD1999999-0121REMSYN082AAXX  22124 82392 22499 60000 10272 20215 39998 40100 83430 333 20233 59012 60234;
0137823920999992012012218004-03700-040350FM-12+008399999V0209999C000010450019N0500001N1+03221+01951100551ADDGF106991031041004501031001MA1999999099551MD1999999-0211REMSYN070AAXX  22184 82392 32499 60000 10322 20195 39955 40055 83430 333 59021;
0213823920999992012012300004-03700-040350FM-12+008399999V0203601N000510450019N0040001N1+02431+02271100931ADDAA106001091AY161061AY261061GF108991041051004501031999KA1240M+03311MA1999999099911MD1999999+0081MW1021REMSYN100AAXX  23004 82392 21496 83601 10243 20227 39991 40093 70266 8453/ 333 10331 29075 55055 58008 60011;
0173823920999992012012312004-03700-040350FM-12+008399999V0200901N004110450019N0500001N1+02721+02151101001ADDAA124001091GF107991021051004501011001KA1240N+02381MA1999999099981MD1999999+0001REMSYN082AAXX  23124 82392 22499 70908 10272 20215 39998 40100 82510 333 20238 58000 60014;
0137823920999992012012318004-03700-040350FM-12+008399999V0203201N002110450019N0500001N1+03121+02191100591ADDGF106991041021004501031001MA1999999099591MD1999999+0041REMSYN070AAXX  23184 82392 32499 63204 10312 20219 39959 40059 84230 333 58004;
0213823920999992012012400004-03700-040350FM-12+008399999V0203601N001510450019N0040001N1+02561+02271100881ADDAA106002091AY161061AY261061GF106991031041004501011001KA1240M+03271MA1999999099861MD1999999-0051MW1021REMSYN100AAXX  24004 82392 21496 63603 10256 20227 39986 40088 70266 83410 333 10327 29074 55063 59005 60021;
0173823920999992012012412004-03700-040350FM-12+008399999V0200501N002112200019N0500001N1+02761+02141101021ADDAA124002091GF104991041021004501001001KA1240N+02481MA1999999100001MD1999999+0021REMSYN082AAXX  24124 82392 22499 40504 10276 20214 30000 40102 84200 333 20248 58002 60024;
0137823920999992012012418004-03700-040350FM-12+008399999V0200901N001010450019N0500001N1+02581+02191100731ADDGF108991041051004501021999MA1999999099701MD1999999+0111REMSYN070AAXX  24184 82392 32499 80902 10258 20219 39970 40073 8452/ 333 58011;
0213823920999992012012500004-03700-040350FM-12+008399999V0209999C000010450019N0040001N1+02411+02331101001ADDAA106006191AY161061AY261061GF108991031051004501021999KA1240M+03221MA1999999099981MD1999999+0121MW1021REMSYN100AAXX  25004 82392 21496 80000 10241 20233 39998 40100 70266 8352/ 333 10322 29085 55042 58012 60061;
0173823920999992012012512004-03700-040350FM-12+008399999V0200901N002110450019N0500001N1+02621+02121101131ADDAA124006191GF107991031051004501011021KA1240N+02301MA1999999100101MD1999999+0101REMSYN082AAXX  25124 82392 22499 70904 10262 20212 30010 40113 83512 333 20230 58010 60064;
0137823920999992012012518004-03700-040350FM-12+008399999V0203601N001012200019N0500001N1+02971+02231100761ADDGF107991031021004501001011MA1999999099741MD1999999+0141REMSYN070AAXX  25184 82392 32499 73602 10297 20223 39974 40076 83201 333 58014;
0168823920999992012012600004-03700-040350FM-12+008399999V0203601N000512200019N0040001N1+02641+02071100931ADDGF103991011021004501011001KA1240M+03131MA1999999099911MD1999999-0071REMSYN088AAXX  26004 82392 32496 33601 10264 20207 39991 40093 81210 333 10313 29070 55009 59007;
0156823920999992012012612004-03700-040350FM-12+008399999V0200501N000510450019N0500001N1+02731+02191101121ADDGF106991031021004501011001KA1240N+02141MA1999999100101MD1999999+0001REMSYN076AAXX  26124 82392 32499 60501 10273 20219 30010 40112 83210 333 20214 58000;
0137823920999992012012618004-03700-040350FM-12+008399999V0201401N000510450019N0500001N1+03311+01851100671ADDGF106991041021004501011001MA1999999099651MD1999999-0091REMSYN070AAXX  26184 82392 32499 61401 10331 20185 39965 40067 84210 333 59009;
0178823920999992012012700004-03700-040350FM-12+008399999V0200501N002112200019N0040001N1+02681+02091100971ADDGA1001+999999999GF100991001001999999001001KA1240M+03461MA1999999099951MD1999999+0041REMSYN082AAXX  27004 82392 32996 00504 10268 20209 39995 40097 333 10346 29064 55089 58004;
0156823920999992012012812004-03700-040350FM-12+008399999V0209999C000010042019N0500001N1+02621+02211101111ADDGF107991051041004501031001KA1240N+02161MA1999999100091MD1999999-0011REMSYN076AAXX  28124 82392 32499 70900 10262 20221 30009 40111 85430 333 20216 59001;
0137823920999992012012818004-03700-040350FM-12+008399999V0200901N000512200019N0500001N1+03391+01911100681ADDGF104991031021004501011001MA1999999099671MD1999999+0061REMSYN070AAXX  28184 82392 32499 40901 10339 20191 39967 40068 83210 333 58006;
0168823920999992012012900004-03700-040350FM-12+008399999V0203601N003110450019N0040001N1+02691+02131100931ADDGF106991031021004501031001KA1240M+03461MA1999999099911MD1999999+0031REMSYN088AAXX  29004 82392 32496 63606 10269 20213 39991 40093 83230 333 10346 29066 55057 58003;
0201823920999992012012912004-03700-040350FM-12+008399999V0200901N002110450019N0500001N1+02741+02101101161ADDAA124000891AY161061AY221061GF106991031021004501031001KA1240N+02401MA1999999100141MD1999999+0051MW1021REMSYN088AAXX  29124 82392 21499 60904 10274 20210 30014 40116 70262 83230 333 20240 58005 69984;
0137823920999992012012918004-03700-040350FM-12+008399999V0200901N001012200019N0500001N1+03341+01981100601ADDGF102991021011004501001001MA1999999099601MD1999999-0071REMSYN070AAXX  29184 82392 32499 20902 10334 20198 39960 40060 82100 333 59007;
0168823920999992012013000004-03700-040350FM-12+008399999V0200501N004112200019N0040001N1+02601+02071100921ADDGF104991041041004501001001KA1240M+03441MA1999999099901MD1999999-0011REMSYN088AAXX  30004 82392 32496 40508 10260 20207 39990 40092 84400 333 10344 29064 55098 59001;
0156823920999992012013012004-03700-040350FM-12+008399999V0200901N002610450019N0500001N1+02741+02101101111ADDGF106991031011004501031001KA1240N+02201MA1999999100091MD1999999-0051REMSYN076AAXX  30124 82392 32499 60905 10274 20210 30009 40111 83130 333 20220 59005;
0137823920999992012013018004-03700-040350FM-12+008399999V0200501N002110450019N0500001N1+03361+01811100621ADDGF106991031041004501031001MA1999999099621MD1999999+0021REMSYN070AAXX  30184 82392 32499 60504 10336 20181 39962 40062 83430 333 58002;
0168823920999992012013100004-03700-040350FM-12+008399999V0203601N002612200019N0040001N1+02661+02041100861ADDGF101991011001008001011001KA1240M+03401MA1999999099841MD1999999-0061REMSYN088AAXX  31004 82392 32596 13605 10266 20204 39984 40086 81010 333 10340 29062 55086 59006;
0137823920999992012013118004-03700-040350FM-12+008399999V0200501N002110450019N0500001N1+03461+01731100521ADDGF106991031021004501031001MA1999999099521MD1999999-0101REMSYN070AAXX  31184 82392 32499 60504 10346 20173 39952 40052 83230 333 59010;
0168823920999992012020100004-03700-040350FM-12+008399999V0203601N001510450019N0040001N1+02691+02031100891ADDGF106991021021004501011011KA1240M+03501MA1999999099871MD1999999+0031REMSYN088AAXX  01004 82392 32496 63603 10269 20203 39987 40089 82211 333 10350 29061 55096 58003;
0156823920999992012020112004-03700-040350FM-12+008399999V0200901N004112200019N0500001N1+02801+01921101161ADDGF104991021021004501011001KA1240N+02321MA1999999100141MD1999999+0141REMSYN076AAXX  01124 82392 32499 40908 10280 20192 30014 40116 82210 333 20232 58014;
0137823920999992012020118004-03700-040350FM-12+008399999V0200501N003112200019N0500001N1+03521+01601100661ADDGF103991031011004501001001MA1999999099651MD1999999+0131REMSYN070AAXX  01184 82392 32499 30506 10352 20160 39965 40066 83100 333 58013;
0178823920999992012020200004-03700-040350FM-12+008399999V0203601N002112200019N0040001N1+02641+01981100931ADDGA1001+999999999GF100991001001999999001001KA1240M+03541MA1999999099911MD1999999+0041REMSYN082AAXX  02004 82392 32996 03604 10264 20198 39991 40093 333 10354 29056 55107 58004;
0137823920999992012020218004-03700-040350FM-12+008399999V0200901N002112200019N0500001N1+03441+01631100581ADDGF104991021021004501001011MA1999999099581MD1999999-0071REMSYN070AAXX  02184 82392 32499 40904 10344 20163 39958 40058 82201 333 59007;
0178823920999992012020300004-03700-040350FM-12+008399999V0203601N004612200019N0040001N1+02701+02131100921ADDGA1001+999999999GF100991001001999999001001KA1240M+03501MA1999999099901MD1999999-0011REMSYN082AAXX  03004 82392 32996 03609 10270 20213 39990 40092 333 10350 29062 55093 59001;
0156823920999992012020312004-03700-040350FM-12+008399999V0200501N002110450019N0500001N1+02841+01961101071ADDGF105991041021004501031001KA1240N+02201MA1999999100051MD1999999-0061REMSYN076AAXX  03124 82392 32499 50504 10284 20196 30005 40107 84230 333 20220 59006;
0137823920999992012020318004-03700-040350FM-12+008399999V0200901N001512200019N0500001N1+03431+01511100531ADDGF104991041021004501001001MA1999999099531MD1999999-0051REMSYN070AAXX  03184 82392 32499 40903 10343 20151 39953 40053 84200 333 59005;
0178823920999992012020400004-03700-040350FM-12+008399999V0200501N004112200019N0040001N1+02761+02141100891ADDGA1001+999999999GF100991001001999999001001KA1240M+03521MA1999999099871MD1999999-0031REMSYN082AAXX  04004 82392 32996 00508 10276 20214 39987 40089 333 10352 29057 55106 59003;
0156823920999992012020412004-03700-040350FM-12+008399999V0201801N002610450019N0500001N1+02801+01981101121ADDGF106991031041004501031001KA1240N+02281MA1999999100101MD1999999+0051REMSYN076AAXX  04124 82392 32499 61805 10280 20198 30010 40112 83430 333 20228 58005;
0137823920999992012020418004-03700-040350FM-12+008399999V0200501N005110450019N0500001N1+03481+01471100731ADDGF106991041021004501031001MA1999999099721MD1999999+0141REMSYN070AAXX  04184 82392 32499 60510 10348 20147 39972 40073 84230 333 58014;
0178823920999992012020500004-03700-040350FM-12+008399999V0200501N004112200019N0040001N1+02841+01791100971ADDGA1001+999999999GF100991001001999999001001KA1240M+03541MA1999999099951MD1999999+0081REMSYN082AAXX  05004 82392 32496 00508 10284 20179 39995 40097 333 10354 29049 55106 58008;
0156823920999992012020512004-03700-040350FM-12+008399999V0200901N005112200019N0500001N1+02881+01731101031ADDGF101991011011004501001001KA1240N+02161MA1999999100021MD1999999-0081REMSYN076AAXX  05124 82392 32499 10910 10288 20173 30002 40103 81100 333 20216 59008;
0137823920999992012020518004-03700-040350FM-12+008399999V0200901N004112200019N0500001N1+03611+01241100501ADDGF103991011011004501001021MA1999999099501MD1999999-0201REMSYN070AAXX  05184 82392 32499 30908 10361 20124 39950 40050 81102 333 59020;
0178823920999992012020600004-03700-040350FM-12+008399999V0203601N001012200019N0040001N1+02781+01911100921ADDGA1001+999999999GF100991001001999999001001KA1240M+03671MA1999999099901MD1999999-0051REMSYN082AAXX  06004 82392 32996 03602 10278 20191 39990 40092 333 10367 29048 55108 59005;
0156823920999992012020612004-03700-040350FM-12+008399999V0200901N002112200019N0500001N1+02781+01911101211ADDGF104991011011004501031001KA1240N+02201MA1999999100191MD1999999+0171REMSYN076AAXX  06124 82392 32499 40904 10278 20191 30019 40121 81130 333 20220 58017;
0137823920999992012020618004-03700-040350FM-12+008399999V0200901N005112200019N0500001N1+03541+01521100811ADDGF103991031041004501001001MA1999999099801MD1999999+0301REMSYN070AAXX  06184 82392 32499 30910 10354 20152 39980 40081 83400 333 58030;
0168823920999992012020700004-03700-040350FM-12+008399999V0203601N000519999999N0040001N1+02841+01791101011ADDGF105991051001008001011001KA1240M+03621MA1999999099991MD1999999+0091REMSYN088AAXX  07004 82392 32596 53601 10284 20179 39999 40101 85010 333 10362 29049 55086 58009;
0156823920999992012020712004-03700-040350FM-12+008399999V0200501N003112200019N0500001N1+02821+02101101021ADDGF104991021021004501031001KA1240N+02441MA1999999100001MD1999999-0191REMSYN076AAXX  07124 82392 32499 40506 10282 20210 30000 40102 82230 333 20244 59019;
0137823920999992012020718004-03700-040350FM-12+008399999V0200501N000510450019N0500001N1+03511+01741100991ADDGF106991031041004501031001MA1999999099481MD1999999-0311REMSYN070AAXX  07184 82392 32499 60501 10351 20174 39948 40099 83430 333 59031;
0168823920999992012020800004-03700-040350FM-12+008399999V0200501N001512200019N0040001N1+02711+01981100801ADDGF102991021001008001011001KA1240M+03611MA1999999099781MD1999999-0211REMSYN088AAXX  08004 82392 32596 20503 10271 20198 39978 40080 82010 333 10361 29057 55078 59021;
0156823920999992012020812004-03700-040350FM-12+008399999V0200901N003112200019N0500001N1+02801+02001100921ADDGF103991031011004501001001KA1240N+02211MA1999999099901MD1999999+0101REMSYN076AAXX  08124 82392 32499 30906 10280 20200 39990 40092 83100 333 20221 58010;
0137823920999992012020818004-03700-040350FM-12+008399999V0203601N003112200019N0500001N1+03521+01501100601ADDGF103991031021004501001001MA1999999099601MD1999999+0111REMSYN070AAXX  08184 82392 32499 33606 10352 20150 39960 40060 83200 333 58011;
0168823920999992012020900004-03700-040350FM-12+008399999V0203601N003612200019N0040001N1+02661+02141100891ADDGF101991011001008001031001KA1240M+03641MA1999999099871MD1999999+0091REMSYN088AAXX  09004 82392 32596 13607 10266 20214 39987 40089 81030 333 10364 29060 55089 58009;
0156823920999992012020912004-03700-040350FM-12+008399999V0200501N000510450019N0500001N1+02341+02131101081ADDGF105991031021004501031001KA1240N+02321MA1999999100061MD1999999+0161REMSYN076AAXX  09124 82392 32499 50501 10234 20213 30006 40108 83230 333 20232 58016;
0137823920999992012020918004-03700-040350FM-12+008399999V0203601N003110450019N0500001N1+03601+01861100581ADDGF106991031021004501011001MA1999999099581MD1999999-0021REMSYN070AAXX  09184 82392 32499 63606 10360 20186 39958 40058 83210 333 59002;
0187823920999992012021000004-03700-040350FM-12+008399999V0200501N000519999999N0500001N1+02701+02171100921ADDGF108991999071004501001001KA1240M+03661MA1999999099901MD1999999+0031REMSYN088AAXX  10004 82392 32499 80501 10270 20217 39990 40092 83700 333 10366 29062 55086 58003;EQDQ01+000032SCOTLC
0156823920999992012021012004-03700-040350FM-12+008399999V0200901N003110450019N0500001N1+02661+02141101171ADDGF108991031051004501021999KA1240N+02471MA1999999100151MD1999999+0091REMSYN076AAXX  10124 82392 32499 80906 10266 20214 30015 40117 8352/ 333 20247 58009;
0182823920999992012021018004-03700-040350FM-12+008399999V0200501N002110450019N0500001N1+03131+02211100781ADDAA106002091AY101061AY221061GF107991041061004501011001MA1999999099741MD1999999+0161MW1971REMSYN082AAXX  10184 82392 21499 70504 10313 20221 39974 40078 79702 84610 333 58016 60021;
0168823920999992012021100004-03700-040350FM-12+008399999V0200501N001510450019N0040001N1+02541+02111100981ADDGF108991041071004501021999KA1240M+03241MA1999999099961MD1999999+0061REMSYN088AAXX  11004 82392 32496 80503 10254 20211 39996 40098 8472/ 333 10324 29071 55014 58006;
0173823920999992012021112004-03700-040350FM-12+008399999V0200501N000510450019N0500001N1+02631+02371101201ADDAA124002091GF108991041041004501011999KA1240N+02271MA1999999100181MD1999999+0031REMSYN082AAXX  11124 82392 22499 80501 10263 20237 30018 40120 8441/ 333 20227 58003 60024;
0137823920999992012021118004-03700-040350FM-12+008399999V0200501N001010450019N0500001N1+03331+01831100681ADDGF107991031041004501021001MA1999999099671MD1999999-0071REMSYN070AAXX  11184 82392 32499 70502 10333 20183 39967 40068 83420 333 59007;
0168823920999992012021200004-03700-040350FM-12+008399999V0200501N001512200019N0040001N1+02631+02251100901ADDGF104991041041004501001001KA1240M+03401MA1999999099881MD1999999-0081REMSYN088AAXX  12004 82392 32496 40503 10263 20225 39988 40090 84400 333 10340 29071 55027 59008;
0156823920999992012021212004-03700-040350FM-12+008399999V0200501N002112200019N0500001N1+02761+02091101081ADDGF104991041021004501001001KA1240N+02211MA1999999100061MD1999999-0121REMSYN076AAXX  12124 82392 32499 40504 10276 20209 30006 40108 84200 333 20221 59012;
0137823920999992012021218004-03700-040350FM-12+008399999V0200901N002112200019N0500001N1+03361+01601100711ADDGF104991021021004501031001MA1999999099701MD1999999+0031REMSYN070AAXX  12184 82392 32499 40904 10336 20160 39970 40071 82230 333 58003;
0168823920999992012021300004-03700-040350FM-12+008399999V0200501N002110450019N0040001N1+02761+02211100901ADDGF105991031011004501031001KA1240M+03481MA1999999099881MD1999999+0001REMSYN088AAXX  13004 82392 32496 50504 10276 20221 39988 40090 83130 333 10348 29062 55065 58000;
0156823920999992012021312004-03700-040350FM-12+008399999V0200901N001010450019N0500001N1+02801+02001101071ADDGF105991021021004501031001KA1240N+02401MA1999999100051MD1999999-0011REMSYN076AAXX  13124 82392 32499 50902 10280 20200 30005 40107 82230 333 20240 59001;
0137823920999992012021318004-03700-040350FM-12+008399999V0200501N004110450019N0500001N1+03441+01631100621ADDGF106991041041004501031001MA1999999099621MD1999999-0081REMSYN070AAXX  13184 82392 32499 60508 10344 20163 39962 40062 84430 333 59008;
0168823920999992012021400004-03700-040350FM-12+008399999V0200501N001012200019N0040001N1+02591+01901100971ADDGF103991031041008001001001KA1240M+03571MA1999999099951MD1999999+0071REMSYN088AAXX  14004 82392 32596 30502 10259 20190 39995 40097 83400 333 10357 29057 55071 58007;
0156823920999992012021412004-03700-040350FM-12+008399999V0200901N004610450019N0500001N1+02801+02031101121ADDGF106991021051004501011001KA1240N+02301MA1999999100101MD1999999+0051REMSYN076AAXX  14124 82392 32499 60909 10280 20203 30010 40112 82510 333 20230 58005;
0182823920999992012021418004-03700-040350FM-12+008399999V0200501N002610450019N0500001N1+02731+02261100821ADDAA106027991AY161061AY261061GF106991021041004501031001MA1999999099801MD1999999+0181MW1021REMSYN082AAXX  14184 82392 21499 60505 10273 20226 39980 40082 70266 82430 333 58018 60281;
0168823920999992012021500004-03700-040350FM-12+008399999V0203601N000510450019N0040001N1+02571+02211101041ADDGF108991041041004501021999KA1240M+03371MA1999999100021MD1999999+0071REMSYN088AAXX  15004 82392 32496 83601 10257 20221 30002 40104 8442/ 333 10337 29075 55076 58007;
0201823920999992012021512004-03700-040350FM-12+008399999V0200901N004110450019N0500001N1+02861+02091101121ADDAA124003091AY161061AY251061GF106991031021004501031001KA1240N+02401MA1999999100101MD1999999+0001MW1021REMSYN088AAXX  15124 82392 21499 60908 10286 20209 30010 40112 70265 83230 333 20240 58000 60034;
0137823920999992012021518004-03700-040350FM-12+008399999V0203601N005712200019N0500001N1+02781+02231100781ADDGF108991021021004501001011MA1999999099761MD1999999-0081REMSYN070AAXX  15184 82392 32499 83611 10278 20223 39976 40078 82201 333 59008;
0168823920999992012021600004-03700-040350FM-12+008399999V0202301N000510450019N0040001N1+02341+02181101031ADDGF108991041041004501021999KA1240M+03461MA1999999100011MD1999999-0011REMSYN088AAXX  16004 82392 32496 82301 10234 20218 30001 40103 8442/ 333 10346 29079 55043 59001;
0156823920999992012021612004-03700-040350FM-12+008399999V0209999C000010042019N0500001N1+02431+02211101121ADDGF107991061061004501031001KA1240N+02331MA1999999100091MD1999999-0011REMSYN076AAXX  16124 82392 32499 70000 10243 20221 30009 40112 86630 333 20233 59001;
0182823920999992012021618004-03700-040350FM-12+008399999V0203601N001010450019N0500001N1+02791+02401100811ADDAA106001091AY161061AY261061GF108991041061004501021001MA1999999099781MD1999999+0031MW1021REMSYN082AAXX  16184 82392 21499 83602 10279 20240 39978 40081 70266 84620 333 58003 60011;
0187823920999992012021700004-03700-040350FM-12+008399999V0203601N002119999999N0040001N1+02361+02071101081ADDGF108991999021004501001001KA1240M+03361MA1999999100051MD1999999+0041REMSYN088AAXX  17004 82392 32496 83604 10236 20207 30005 40108 83200 333 10336 29084 55002 58004;EQDQ01+000032SCOTLC
0201823920999992012021712004-03700-040350FM-12+008399999V0203601N002610450019N0500001N1+02581+02121101131ADDAA124002091AY151061AY261061GF107991031051004501011001KA1240N+02211MA1999999100101MD1999999+0011MW1021REMSYN088AAXX  17124 82392 21499 73605 10258 20212 30010 40113 70256 83510 333 20221 58001 60024;
0182823920999992012021718004-03700-040350FM-12+008399999V0200901N000510450019N0500001N1+02981+02151100791ADDAA106000391AY161061AY261061GF107991041051004501011001MA1999999099761MD1999999-0021MW1021REMSYN082AAXX  17184 82392 21499 70901 10298 20215 39976 40079 70266 84510 333 59002 69931;
0168823920999992012021800004-03700-040350FM-12+008399999V0200501N002112200019N0040001N1+02561+02291101121ADDGF104991021011004501031001KA1240M+03021MA1999999100101MD1999999+0051REMSYN088AAXX  18004 82392 32496 40504 10256 20229 30010 40112 82130 333 10302 29024 55078 58005;
0201823920999992012021812004-03700-040350FM-12+008399999V0201801N000510450019N0500001N1+02461+02091101301ADDAA124001091AY151061AY251061GF108991031071004501021999KA1240N+02231MA1999999100271MD1999999+0171MW1021REMSYN088AAXX  18124 82392 21499 81801 10246 20209 30027 40130 70255 8372/ 333 20223 58017 69994;
0137823920999992012021818004-03700-040350FM-12+008399999V0201801N001010450019N0500001N1+02841+02041100911ADDGF106991021041004501031001MA1999999099891MD1999999+0131REMSYN070AAXX  18184 82392 32499 61802 10284 20204 39989 40091 82430 333 58013;
0213823920999992012021900004-03700-040350FM-12+008399999V0202301N000510450019N0040001N1+02321+02131101171ADDAA106013091AY161061AY221061GF108991031061004501021999KA1240M+02981MA1999999100141MD1999999-0041MW1021REMSYN100AAXX  19004 82392 21496 82301 10232 20213 30014 40117 70262 8362/ 333 10298 29080 55015 59004 60131;
0173823920999992012021912004-03700-040350FM-12+008399999V0202301N000510042019N0500001N1+02531+02331101281ADDAA124013091GF107991051041004501031001KA1240N+02131MA1999999100251MD1999999-0021REMSYN082AAXX  19124 82392 22499 72301 10253 20233 30025 40128 85430 333 20213 59002 60134;
0137823920999992012021918004-03700-040350FM-12+008399999V0203601N000511050019N0500001N1+03171+01981100811ADDGF106991031021004501001021MA1999999099791MD1999999-0101REMSYN070AAXX  19184 82392 32499 63601 10317 20198 39979 40081 83202 333 59010;
0232823920999992012022000004-03700-040350FM-12+008399999V0209999C000019999999N0040001N1+02321+02251101171ADDAA106008991AY161061AY261061GF106991999041004501001001KA1240M+03301MA1999999100141MD1999999+0001MW1021REMSYN100AAXX  20004 82392 21496 60000 10232 20225 30014 40117 70266 88400 333 10330 29082 55073 58000 60091;EQDQ01+000082SCOTLC
0173823920999992012022012004-03700-040350FM-12+008399999V0202701N000512200019N0500001N1+02521+02231101181ADDAA124008991GF102991021011004501001001KA1240N+01201MA1999999100151MD1999999-0101REMSYN082AAXX  20124 82392 22499 22701 10252 20223 30015 40118 82100 333 20120 59010 60094;
0182823920999992012022018004-03700-040350FM-12+008399999V0201801N001010450019N0500001N1+02821+02201100771ADDAA106000591AY121061AY251061GF106991031041004501031001MA1999999099741MD1999999-0051MW1031REMSYN082AAXX  20184 82392 21499 61802 10282 20220 39974 40077 70325 83430 333 59005 69961;
0213823920999992012022100004-03700-040350FM-12+008399999V0203601N001510450019N0040001N1+02241+02141101141ADDAA106004191AY161061AY261061GF108991041041004501021999KA1240M+03281MA1999999100111MD1999999-0031MW1021REMSYN100AAXX  21004 82392 21496 83603 10224 20214 30011 40114 70266 8442/ 333 10328 29085 55078 59003 60041;
0173823920999992012022112004-03700-040350FM-12+008399999V0201801N000510450019N0500001N1+02361+02071101281ADDAA124004191GF108991041051004501021999KA1240N+02001MA1999999100251MD1999999+0101REMSYN082AAXX  21124 82392 22499 81801 10236 20207 30025 40128 8452/ 333 20200 58010 60044;
0137823920999992012022118004-03700-040350FM-12+008399999V0200901N000510450019N0500001N1+03171+02041100781ADDGF106991031041004501031001MA1999999099761MD1999999+0021REMSYN070AAXX  21184 82392 32499 60901 10317 20204 39976 40078 83430 333 58002;
0168823920999992012022200004-03700-040350FM-12+008399999V0203601N001010042019N0040001N1+02531+02211101031ADDGF105991051021004501021001KA1240M+03241MA1999999099981MD1999999-0131REMSYN088AAXX  22004 82392 32496 53602 10253 20221 39998 40103 85220 333 10324 29075 55075 59013;
0137823920999992012022218004-03700-040350FM-12+008399999V0200901N002110450019N0500001N1+03421+01911100611ADDGF106991031021004501031001MA1999999099601MD1999999-0161REMSYN070AAXX  22184 82392 32499 60904 10342 20191 39960 40061 83230 333 59016;
0168823920999992012022300004-03700-040350FM-12+008399999V0203601N001510450019N0500001N1+02661+02111100831ADDGF106991041041004501031001KA1240M+03661MA1999999099811MD1999999-0171REMSYN088AAXX  23004 82392 32499 63603 10266 20211 39981 40083 84430 333 10366 29065 55105 59017;
0156823920999992012022312004-03700-040350FM-12+008399999V0200901N000510042019N0500001N1+02781+02271101031ADDGF106991061041004501001001KA1240N+02321MA1999999100011MD1999999-0041REMSYN076AAXX  23124 82392 32499 60901 10278 20227 30001 40103 86400 333 20232 59004;
0137823920999992012022318004-03700-040350FM-12+008399999V0200501N001511050019N0500001N1+03261+02211100611ADDGF106991041041004501001021MA1999999099601MD1999999+0001REMSYN070AAXX  23184 82392 32499 60503 10326 20221 39960 40061 84402 333 58000;
0178823920999992012022400004-03700-040350FM-12+008399999V0203601N004112200019N0040001N1+02561+02291100751ADDGA1001+999999999GF100991001001999999001001KA1240M+03501MA1999999099731MD1999999-0081REMSYN082AAXX  24004 82392 32996 03608 10256 20229 39973 40075 333 10350 29074 55098 59008;
0156823920999992012022412004-03700-040350FM-12+008399999V0201801N001010450019N0500001N1+02721+02151100971ADDGF106991031041004501031001KA1240N+02281MA1999999099951MD1999999-0061REMSYN076AAXX  24124 82392 32499 61802 10272 20215 39995 40097 83430 333 20228 59006;
0182823920999992012022418004-03700-040350FM-12+008399999V0200901N007210042019N0200001N1+02371+02291100711ADDAA106017091AY101061AY221061GF108991081071004501999999MA1999999099681MD1999999+0081MW1971REMSYN082AAXX  24184 82392 21498 80914 10237 20229 39968 40071 79702 887// 333 58008 60171;
0213823920999992012022500004-03700-040350FM-12+008399999V0201801N001010450019N0040001N1+02401+02111100961ADDAA106039191AY161061AY261061GF108991041071004501021999KA1240M+03301MA1999999099941MD1999999+0211MW1021REMSYN100AAXX  25004 82392 21496 81802 10240 20211 39994 40096 70266 8472/ 333 10330 29084 55054 58021 60391;
0201823920999992012022512004-03700-040350FM-12+008399999V0202301N000512200019N0500001N1+02561+02311101001ADDAA124054191AY151061AY251061GF104991031021004501001011KA1240N+02231MA1999999099971MD1999999+0021MW1021REMSYN088AAXX  25124 82392 21499 42301 10256 20231 39997 40100 70255 83201 333 20223 58002 60544;
0137823920999992012022518004-03700-040350FM-12+008399999V0200901N001510450019N0500001N1+03031+02231100541ADDGF106991041021004501031001MA1999999099531MD1999999-0151REMSYN070AAXX  25184 82392 32499 60903 10303 20223 39953 40054 84230 333 59015;
0168823920999992012022600004-03700-040350FM-12+008399999V0200501N001510450019N0040001N1+02501+02171100991ADDGF108991041051004501021001KA1240M+03221MA1999999099961MD1999999+0021REMSYN088AAXX  26004 82392 32496 80503 10250 20217 39996 40099 84520 333 10322 29078 55082 58002;
0201823920999992012022612004-03700-040350FM-12+008399999V0201401N000512200019N0500001N1+02561+02151101081ADDAA124000591AY151061AY221061GF102991011011004501031001KA1240N+02191MA1999999100051MD1999999+0081MW1021REMSYN088AAXX  26124 82392 21499 21401 10256 20215 30005 40108 70252 81130 333 20219 58008 69964;
0201823920999992012022618004-03700-040350FM-12+008399999V0203201N001012200019N0500001N1+03001+02241100721ADDAA106001091AY121061AY261061GF103991999011004501001001MA1999999099701MD1999999+0171MW1021REMSYN082AAXX  26184 82392 21499 33202 10300 20224 39970 40072 70226 82100 333 58017 60011;EQDQ01+000022SCOTLC
0168823920999992012022700004-03700-040350FM-12+008399999V0203601N002110450019N0040001N1+02521+02311101071ADDGF106991031051004501031001KA1240M+03281MA1999999100041MD1999999+0081REMSYN088AAXX  27004 82392 32496 63604 10252 20231 30004 40107 83530 333 10328 29080 55089 58008;
0173823920999992012022712004-03700-040350FM-12+008399999V0200901N003110450019N0500001N1+02701+02221101131ADDAA124001091GF106991041051004501031001KA1240N+02321MA1999999100111MD1999999+0061REMSYN082AAXX  27124 82392 22499 60906 10270 20222 30011 40113 84530 333 20232 58006 60014;
0182823920999992012022718004-03700-040350FM-12+008399999V0200501N004110450019N0500001N1+02881+02031100831ADDAA106001091AY121061AY261061GF106991021051004501011001MA1999999099811MD1999999+0111MW1021REMSYN082AAXX  27184 82392 21499 60508 10288 20203 39981 40083 70226 82510 333 58011 60011;
0168823920999992012022800004-03700-040350FM-12+008399999V0209999C000010450019N0040001N1+02491+02211101131ADDGF108991031021004501021999KA1240M+02981MA1999999100111MD1999999+0071REMSYN088AAXX  28004 82392 32496 80000 10249 20221 30011 40113 8322/ 333 10298 29076 55026 58007;
0173823920999992012022812004-03700-040350FM-12+008399999V0200501N000510450019N0500001N1+02671+02331101181ADDAA124001091GF106991041041004501031001KA1240N+02351MA1999999100171MD1999999+0161REMSYN082AAXX  28124 82392 22499 60501 10267 20233 30017 40118 84430 333 20235 58016 60014;
0182823920999992012022818004-03700-040350FM-12+008399999V0200501N000510042019N0500001N1+02371+02291100941ADDAA106004191AY161061AY261061GF108991051051004501031001MA1999999099911MD1999999+0101MW1021REMSYN082AAXX  28184 82392 21499 80501 10237 20229 39991 40094 70266 85530 333 58010 60041;
0168823920999992012022900004-03700-040350FM-12+008399999V0209999C000012200019N0040001N1+02321+02201101101ADDGF102991011011004501011001KA1240M+02871MA1999999100071MD1999999-0041REMSYN088AAXX  29004 82392 32496 20000 10232 20220 30007 40110 81110 333 10287 29091 55032 59004;
0173823920999992012022912004-03700-040350FM-12+008399999V0200901N000510450019N0500001N1+02631+02271101201ADDAA124004191GF106991041041004501031001KA1240N+02121MA1999999100171MD1999999+0001REMSYN082AAXX  29124 82392 22499 60901 10263 20227 30017 40120 84430 333 20212 58000 60044;
0137823920999992012022918004-03700-040350FM-12+008399999V0200901N001512200019N0500001N1+03261+02111100731ADDGF104991031021004501011001MA1999999099711MD1999999-0201REMSYN070AAXX  29184 82392 32499 40903 10326 20211 39971 40073 83210 333 59020;
0168823920999992012030100004-03700-040350FM-12+008399999V0200501N000512200019N0040001N1+02511+02231100971ADDGF102991021001008001011001KA1240M+03311MA1999999099951MD1999999-0121REMSYN088AAXX  01004 82392 32596 20501 10251 20223 39995 40097 82010 333 10331 29075 55100 59012;
0156823920999992012030112004-03700-040350FM-12+008399999V0200901N001512200019N0200001N1+02771+02011101221ADDGF104991021011004501001011KA1240N+02191MA1999999100201MD1999999+0031REMSYN076AAXX  01124 82392 32498 40903 10277 20201 30020 40122 82101 333 20219 58003;
0137823920999992012030118004-03700-040350FM-12+008399999V0200901N001012200019N0500001N1+03291+01721100801ADDGF102991011011004501011001MA1999999099781MD1999999+0071REMSYN070AAXX  01184 82392 32499 20902 10329 20172 39978 40080 81110 333 58007;
0178823920999992012030200004-03700-040350FM-12+008399999V0200501N000512200019N0040001N1+02461+02131101061ADDGA1001+999999999GF100991001001999999001001KA1240M+03341MA1999999100041MD1999999+0091REMSYN082AAXX  02004 82392 32996 00501 10246 20213 30004 40106 333 10334 29067 55109 58009;
0156823920999992012030212004-03700-040350FM-12+008399999V0201401N002110450019N0500001N1+02761+02211101201ADDGF105991031021004501031001KA1240N+02101MA1999999100181MD1999999-0021REMSYN076AAXX  02124 82392 32499 51404 10276 20221 30018 40120 83230 333 20210 59002;
0137823920999992012030218004-03700-040350FM-12+008399999V0200901N000510042019N0500001N1+03291+01911100781ADDGF105991051021004501001001MA1999999099761MD1999999-0021REMSYN070AAXX  02184 82392 32499 50901 10329 20191 39976 40078 85200 333 59002;
0168823920999992012030300004-03700-040350FM-12+008399999V0200501N002112200019N0040001N1+02641+02071101071ADDGF102991021001008001031001KA1240M+03361MA1999999100051MD1999999+0011REMSYN088AAXX  03004 82392 32596 20504 10264 20207 30005 40107 82030 333 10336 29064 55105 58001;
0156823920999992012030312004-03700-040350FM-12+008399999V0203601N000510450019N0500001N1+02681+02161101251ADDGF106991031021004501031001KA1240N+02061MA1999999100231MD1999999+0051REMSYN076AAXX  03124 82392 32499 63601 10268 20216 30023 40125 83230 333 20206 58005;
0137823920999992012030318004-03700-040350FM-12+008399999V0200501N002110450019N0500001N1+03281+02101100791ADDGF106991041021004501031001MA1999999099771MD1999999+0011REMSYN070AAXX  03184 82392 32499 60504 10328 20210 39977 40079 84230 333 58001;
0168823920999992012030400004-03700-040350FM-12+008399999V0203201N001019999999N0040001N1+02581+02291101201ADDGF107991031051999999031001KA1240M+03501MA1999999100181MD1999999+0131REMSYN088AAXX  04004 82392 32996 73202 10258 20229 30018 40120 83530 333 10350 29073 55092 58013;
0156823920999992012030412004-03700-040350FM-12+008399999V0202701N000510450019N0500001N1+02591+02351101241ADDGF106991031021004501031001KA1240N+02181MA1999999100221MD1999999-0011REMSYN076AAXX  04124 82392 32499 62701 10259 20235 30022 40124 83230 333 20218 59001;
0137823920999992012030418004-03700-040350FM-12+008399999V0209999C000010450019N0500001N1+03171+02041100741ADDGF106991031061004501011021MA1999999099741MD1999999-0051REMSYN070AAXX  04184 82392 32499 60000 10317 20204 39974 40074 83612 333 59005;
0168823920999992012030500004-03700-040350FM-12+008399999V0200501N001010450019N0040001N1+02561+02311101071ADDGF106991021021004501011071KA1240M+03361MA1999999100051MD1999999-0131REMSYN088AAXX  05004 82392 32496 60502 10256 20231 30005 40107 82217 333 10336 29077 55070 59013;
0156823920999992012030512004-03700-040350FM-12+008399999V0200901N000512200019N0500001N1+02701+02221101171ADDGF103991031011004501001001KA1240N+02281MA1999999100151MD1999999+0071REMSYN076AAXX  05124 82392 32499 30901 10270 20222 30015 40117 83100 333 20228 58007;
0137823920999992012030518004-03700-040350FM-12+008399999V0200501N005110450019N0500001N1+02741+02321100831ADDGF106991031041004501031001MA1999999099811MD1999999+0091REMSYN070AAXX  05184 82392 32499 60510 10274 20232 39981 40083 83430 333 58009;
0187823920999992012030600004-03700-040350FM-12+008399999V0203601N001512200019N0040001N1+03501+02251101071ADDGF102991021021004501001001KA1240M+99999MA1999999100051MD1999999+0001REMSYN088AAXX  06004 82392 32496 23603 10350 20225 30005 40107 82200 333 10333 29081 55097 58000;EQDQ01 +03332ATMX  
0156823920999992012030612004-03700-040350FM-12+008399999V0201801N002112200019N0500001N1+02681+02201101171ADDGF104991041021004501001001KA1240N+02291MA1999999100151MD1999999+0001REMSYN076AAXX  06124 82392 32499 41804 10268 20220 30015 40117 84200 333 20229 58000;
0137823920999992012030618004-03700-040350FM-12+008399999V0200901N001510042019N0500001N1+03331+01801100681ADDGF105991051021004501001001MA1999999099661MD1999999-0151REMSYN070AAXX  06184 82392 32499 50903 10333 20180 39966 40068 85200 333 59015;
0168823920999992012030700004-03700-040350FM-12+008399999V0200501N001012200019N0040001N1+02591+02211100981ADDGF103991021021004501011001KA1240M+03421MA1999999099961MD1999999-0091REMSYN088AAXX  07004 82392 32496 30502 10259 20221 39996 40098 82210 333 10342 29068 55103 59009;
0156823920999992012030712004-03700-040350FM-12+008399999V0200901N003112200019N0500001N1+02741+02141101051ADDGF103991031011004501001001KA1240N+02101MA1999999100031MD1999999-0121REMSYN076AAXX  07124 82392 32499 30906 10274 20214 30003 40105 83100 333 20210 59012;
0137823920999992012030718004-03700-040350FM-12+008399999V0201401N002612200019N0500001N1+03341+01871100681ADDGF103991031011004501001001MA1999999099661MD1999999+0001REMSYN070AAXX  07184 82392 32499 31405 10334 20187 39966 40068 83100 333 58000;
0168823920999992012030800004-03700-040350FM-12+008399999V0203601N001012200019N0040001N1+02611+02141101021ADDGF103991031021004501001001KA1240M+03471MA1999999100001MD1999999+0041REMSYN088AAXX  08004 82392 32496 33602 10261 20214 30000 40102 83200 333 10347 29066 55099 58004;
0156823920999992012030812004-03700-040350FM-12+008399999V0203601N001010042019N0500001N1+02861+02311101151ADDGF106991061041004501001001KA1240N+02061MA1999999100131MD1999999+0101REMSYN076AAXX  08124 82392 32499 63602 10286 20231 30013 40115 86400 333 20206 58010;
0137823920999992012030818004-03700-040350FM-12+008399999V0200501N001510450019N0500001N1+03241+01781100681ADDGF106991041041004501031001MA1999999099661MD1999999+0001REMSYN070AAXX  08184 82392 32499 60503 10324 20178 39966 40068 84430 333 58000;
0168823920999992012030900004-03700-040350FM-12+008399999V0200501N003112200019N0040001N1+02701+02261100971ADDGF102991021001008001031001KA1240M+03561MA1999999099951MD1999999-0051REMSYN088AAXX  09004 82392 32596 20506 10270 20226 39995 40097 82030 333 10356 29067 55097 59005;
0156823920999992012030912004-03700-040350FM-12+008399999V0200901N004610450019N0500001N1+02781+01911101131ADDGF107991031051004501031001KA1240N+02211MA1999999100111MD1999999-0021REMSYN076AAXX  09124 82392 32499 70909 10278 20191 30011 40113 83530 333 20221 59002;
0156823920999992012030918004-03700-040350FM-12+008399999V0200501N003119999999N0500001N1+02631+02311100901ADDGF107991999021004501001001MA1999999099871MD1999999+0211REMSYN070AAXX  09184 82392 32499 70506 10263 20231 39987 40090 84200 333 58021;EQDQ01+000042SCOTLC
0168823920999992012031000004-03700-040350FM-12+008399999V0203601N003110450019N0040001N1+02441+02231101021ADDGF108991031051004501011999KA1240M+03221MA1999999100001MD1999999+0051REMSYN088AAXX  10004 82392 32496 83606 10244 20223 30000 40102 8351/ 333 10322 29079 55036 58005;
0201823920999992012031012004-03700-040350FM-12+008399999V0200501N000510450019N0500001N1+02531+02211100261ADDAA124000591AY161061AY261061GF108991031021004501021999KA1240N+02291MA1999999100231MD1999999+0121MW1021REMSYN088AAXX  10124 82392 21499 80501 10253 20221 30023 40026 70266 8322/ 333 20229 58012 69944;
0182823920999992012031018004-03700-040350FM-12+008399999V0200501N000510450019N0500001N1+02931+02211100921ADDAA106006191AY161061AY261061GF106991031061004501031001MA1999999099901MD1999999+0031MW1021REMSYN082AAXX  10184 82392 21499 60501 10293 20221 39990 40092 70266 83630 333 58003 60061;
0213823920999992012031100004-03700-040350FM-12+008399999V0209999C000010450019N0040001N1+02471+02391101101ADDAA106002091AY161061AY261061GF105991031061004501031001KA1240M+03071MA1999999100071MD1999999+0071MW1021REMSYN100AAXX  11004 82392 21496 50000 10247 20239 30007 40110 70266 83630 333 10307 29084 55024 58007 60021;
0173823920999992012031112004-03700-040350FM-12+008399999V0201801N001012200019N0500001N1+02701+02221101201ADDAA124007991GF102991021001004501031001KA1240N+02341MA1999999100181MD1999999-0051REMSYN082AAXX  11124 82392 22499 21802 10270 20222 30018 40120 82030 333 20234 59005 60084;
0173823920999992012031212004-03700-040350FM-12+008399999V0200901N002112200019N0500001N1+02761+02211101091ADDAA124009991GF104991021021004501031001KA1240N+02281MA1999999100071MD1999999-0111REMSYN082AAXX  12124 82392 22499 40904 10276 20221 30007 40109 82230 333 20228 59011 60104;
0168823920999992012031300004-03700-040350FM-12+008399999V0203601N000512200019N0040001N1+02601+02101100981ADDGF103991021061004501011001KA1240M+03271MA1999999099961MD1999999-0091REMSYN088AAXX  13004 82392 32496 33601 10260 20210 39996 40098 82610 333 10327 29069 55060 59009;
0156823920999992012031312004-03700-040350FM-12+008399999V0200901N001010450019N0500001N1+02781+02111101161ADDGF106991021041004501031001KA1240N+02301MA1999999100141MD1999999+0071REMSYN076AAXX  13124 82392 32499 60902 10278 20211 30014 40116 82430 333 20230 58007;
0201823920999992012031318004-03700-040350FM-12+008399999V0203601N000510450019N0500001N1+03161+02291100681ADDAA106000091AY151061AY251061GF106991041031004501021001MA1999999099661MD1999999-0041MW1021REMSYN082AAXX  13184 82392 21499 63601 10316 20229 39966 40068 70255 84320 333 59004 69911;EQDQ01  00002PRCP06
0168823920999992012031400004-03700-040350FM-12+008399999V0200501N001012200019N0040001N1+02571+02371101021ADDGF101991011041004501001001KA1240M+03321MA1999999100001MD1999999+0041REMSYN088AAXX  14004 82392 32496 10502 10257 20237 30000 40102 81400 333 10332 29076 55061 58004;
0192823920999992012031412004-03700-040350FM-12+008399999V0200901N001010450019N0500001N1+02681+01991101261ADDAA124000091GF107991031051004501031001KA1240N+02301MA1999999100241MD1999999+0101REMSYN082AAXX  14124 82392 22499 70902 10268 20199 30024 40126 83530 333 20230 58010 69914;EQDQ01  00002PRCP24
0137823920999992012031418004-03700-040350FM-12+008399999V0200501N001510450019N0500001N1+02841+02041100981ADDGF107991031041004501031001MA1999999099951MD1999999+0221REMSYN070AAXX  14184 82392 32499 70503 10284 20204 39995 40098 83430 333 58022;
0168823920999992012031500004-03700-040350FM-12+008399999V0203601N000510450019N0040001N1+02481+02231101141ADDGF105991021051004501011001KA1240M+03201MA1999999100121MD1999999+0121REMSYN088AAXX  15004 82392 32496 53601 10248 20223 30012 40114 82510 333 10320 29075 55026 58012;
0156823920999992012031512004-03700-040350FM-12+008399999V0200901N000510450019N0500001N1+02711+02281101271ADDGF106991041041004501031001KA1240N+02311MA1999999100251MD1999999+0011REMSYN076AAXX  15124 82392 32499 60901 10271 20228 30025 40127 84430 333 20231 58001;
0182823920999992012031518004-03700-040350FM-12+008399999V0200901N002111050019N0500001N1+03121+02081100891ADDAA106000891AY161061AY261061GF106991031061004501001021MA1999999099871MD1999999-0081MW1021REMSYN082AAXX  15184 82392 21499 60904 10312 20208 39987 40089 70266 83602 333 59008 69971;
0178823920999992012031600004-03700-040350FM-12+008399999V0200501N001012200019N0040001N1+02501+02211101191ADDGA1001+999999999GF100991001001999999001001KA1240M+03361MA1999999100171MD1999999+0051REMSYN082AAXX  16004 82392 32996 00502 10250 20221 30017 40119 333 10336 29075 55046 58005;
0173823920999992012031612004-03700-040350FM-12+008399999V0200901N001010450019N0500001N1+02761+01971101251ADDAA124000891GF106991031041004501031001KA1240N+02261MA1999999100231MD1999999-0021REMSYN082AAXX  16124 82392 22499 60902 10276 20197 30023 40125 83430 333 20226 59002 69974;
0137823920999992012031618004-03700-040350FM-12+008399999V0200901N003110450019N0500001N1+03501+01771100711ADDGF106991031021004501031001MA1999999099701MD1999999-0171REMSYN070AAXX  16184 82392 32499 60906 10350 20177 39970 40071 83230 333 59017;
0178823920999992012031700004-03700-040350FM-12+008399999V0200501N002112200019N0040001N1+02561+02151101071ADDGA1001+999999999GF100991001001999999001001KA1240M+03581MA1999999100051MD1999999-0121REMSYN082AAXX  17004 82392 32996 00504 10256 20215 30005 40107 333 10358 29064 55064 59012;
0156823920999992012031712004-03700-040350FM-12+008399999V0200901N003112200019N0500001N1+02841+01881101121ADDGF103991031011004501001001KA1240N+02101MA1999999100101MD1999999-0131REMSYN076AAXX  17124 82392 32499 30906 10284 20188 30010 40112 83100 333 20210 59013;
0137823920999992012031718004-03700-040350FM-12+008399999V0200901N003112200019N0500001N1+03541+01411100691ADDGF102991021011004501001001MA1999999099681MD1999999-0021REMSYN070AAXX  17184 82392 32499 20906 10354 20141 39968 40069 82100 333 59002;
0178823920999992012031800004-03700-040350FM-12+008399999V0200501N002112200019N0040001N1+02621+02051100971ADDGA1001+999999999GF100991001001999999001001KA1240M+03611MA1999999099951MD1999999-0101REMSYN082AAXX  18004 82392 32996 00504 10262 20205 39995 40097 333 10361 29056 55104 59010;
0156823920999992012031812004-03700-040350FM-12+008399999V0203601N001512200019N0500001N1+02871+02251100941ADDGF104991041021004501001001KA1240N+02151MA1999999099921MD1999999-0181REMSYN076AAXX  18124 82392 32499 43603 10287 20225 39992 40094 84200 333 20215 59018;
0182823920999992012031818004-03700-040350FM-12+008399999V0200901N002110042019N0500001N1+03011+02071100691ADDAA106001091AY101061AY221061GF106991061061004501001001MA1999999099671MD1999999-0011MW1911REMSYN082AAXX  18184 82392 21499 60904 10301 20207 39967 40069 79102 86600 333 59001 60011;
0213823920999992012031900004-03700-040350FM-12+008399999V0200501N000512200019N0040001N1+02591+02291100921ADDAA106001091AY161061AY261061GF102991021001008001011001KA1240M+03501MA1999999099901MD1999999-0051MW1021REMSYN100AAXX  19004 82392 21596 20501 10259 20229 39990 40092 70266 82010 333 10350 29073 55074 59005 60011;
0173823920999992012031912004-03700-040350FM-12+008399999V0200501N001012200019N0500001N1+02821+02021101061ADDAA124003091GF104991041041004501001001KA1240N+02201MA1999999100041MD1999999+0121REMSYN082AAXX  19124 82392 22499 40502 10282 20202 30004 40106 84400 333 20220 58012 60034;
0182823920999992012031918004-03700-040350FM-12+008399999V0203601N000510450019N0040001N1+02301+02161100721ADDAA106014091AY121061AY221061GF108991041061004501021999MA1999999099691MD1999999+0021MW1951REMSYN082AAXX  19184 82392 21496 83601 10230 20216 39969 40072 79522 8462/ 333 58002 60141;
0213823920999992012032000004-03700-040350FM-12+008399999V0200901N000512200019N0040001N1+02411+02371100971ADDAA106023191AY161061AY261061GF103991031001008001021001KA1240M+03481MA1999999099951MD1999999+0051MW1021REMSYN100AAXX  20004 82392 21596 30901 10241 20237 39995 40097 70266 83020 333 10348 29087 55067 58005 60231;
0173823920999992012032012004-03700-040350FM-12+008399999V0200901N002110450019N0500001N1+02761+02281101081ADDAA124038191GF105991021041004501031001KA1240N+02101MA1999999100061MD1999999+0021REMSYN082AAXX  20124 82392 22499 50904 10276 20228 30006 40108 82430 333 20210 58002 60384;
0137823920999992012032018004-03700-040350FM-12+008399999V0200501N000510450019N0500001N1+02711+02321100621ADDGF106991031041004501011001MA1999999099611MD1999999-0081REMSYN070AAXX  20184 82392 32499 60501 10271 20232 39961 40062 83410 333 59008;
0156823920999992012032112004-03700-040350FM-12+008399999V0201401N000510042019N0500001N1+02841+02221101121ADDGF106991051041004501031001KA1240N+02201MA1999999100101MD1999999+0041REMSYN076AAXX  21124 82392 32499 61401 10284 20222 30010 40112 85430 333 20220 58004;
0182823920999992012032118004-03700-040350FM-12+008399999V0200501N002110450019N0500001N1+03121+02221100641ADDAA106002091AY161061AY221061GF106991031021004501031001MA1999999099631MD1999999+0021MW1021REMSYN082AAXX  21184 82392 21499 60504 10312 20222 39963 40064 70262 83230 333 58002 60021;
0168823920999992012032200004-03700-040350FM-12+008399999V0203601N000510450019N0040001N1+02561+02311101001ADDGF106991031021004501011001KA1240M+03181MA1999999099981MD1999999+0071REMSYN088AAXX  22004 82392 32496 63601 10256 20231 39998 40100 83210 333 10318 29075 55058 58007;
0173823920999992012032212004-03700-040350FM-12+008399999V0209999C000010450019N0500001N1+02641+02271101011ADDAA124002091GF106991031021004501031001KA1240N+02311MA1999999099991MD1999999-0111REMSYN082AAXX  22124 82392 22499 60000 10264 20227 39999 40101 83230 333 20231 59011 60024;
0182823920999992012032218004-03700-040350FM-12+008399999V0203601N000510450019N0500001N1+03041+02311100601ADDAA106001091AY161061AY261061GF106991031061004501031001MA1999999099581MD1999999-0051MW1021REMSYN082AAXX  22184 82392 21499 63601 10304 20231 39958 40060 70266 83630 333 59005 60011;
0213823920999992012032300004-03700-040350FM-12+008399999V0203601N000510450019N0040001N1+02501+02211100821ADDAA106001091AY161061AY251061GF107991031051004501011001KA1240M+03211MA1999999099801MD1999999-0181MW1021REMSYN100AAXX  23004 82392 21496 73601 10250 20221 39980 40082 70265 83510 333 10321 29068 55049 59018 69991;
0173823920999992012032312004-03700-040350FM-12+008399999V0200501N004110450019N0500001N1+02781+02131101071ADDAA124002091GF106991031041004501031001KA1240N+02241MA1999999100051MD1999999+0061REMSYN082AAXX  23124 82392 22499 60508 10278 20213 30005 40107 83430 333 20224 58006 60024;
0182823920999992012032318004-03700-040350FM-12+008399999V0203601N001010450019N0500001N1+02711+02371100721ADDAA106000591AY101061AY221061GF106991041061004501031001MA1999999099691MD1999999+0111MW1211REMSYN082AAXX  23184 82392 21499 63602 10271 20237 39969 40072 72102 84630 333 58011 69951;
0213823920999992012032400004-03700-040350FM-12+008399999V0200501N002112200019N0040001N1+02401+02091100941ADDAA106000891AY151061AY251061GF102991021001008001031001KA1240M+03301MA1999999099921MD1999999+0121MW1211REMSYN100AAXX  24004 82392 21596 20504 10240 20209 39992 40094 72155 82030 333 10330 29079 55066 58012 69981;
0173823920999992012032412004-03700-040350FM-12+008399999V0203601N001010450019N0500001N1+02771+02401101191ADDAA124001091GF105991031041004501031001KA1240N+02231MA1999999100171MD1999999+0121REMSYN082AAXX  24124 82392 22499 53602 10277 20240 30017 40119 83430 333 20223 58012 60014;
0182823920999992012032418004-03700-040350FM-12+008399999V0200501N000510450019N0500001N1+02611+02371100921ADDAA106011991AY161061AY261061GF108991031061004501011999MA1999999099891MD1999999+0201MW1021REMSYN082AAXX  24184 82392 21499 80501 10261 20237 39989 40092 70266 8361/ 333 58020 60121;
0168823920999992012032500004-03700-040350FM-12+008399999V0209999C000012200019N0040001N1+02431+02341101061ADDGF104991011011004501031001KA1240M+03081MA1999999100041MD1999999+0121REMSYN088AAXX  25004 82392 32496 40000 10243 20234 30004 40106 81130 333 10308 29089 55033 58012;
0173823920999992012032512004-03700-040350FM-12+008399999V0203201N002110450019N0500001N1+02621+02051101231ADDAA124011991GF106991031051004501031001KA1240N+02201MA1999999100201MD1999999+0031REMSYN082AAXX  25124 82392 22499 63204 10262 20205 30020 40123 83530 333 20220 58003 60124;
0137823920999992012032518004-03700-040350FM-12+008399999V0200501N005112200019N0500001N1+03201+02271100761ADDGF104991011011004501031001MA1999999099741MD1999999-0151REMSYN070AAXX  25184 82392 32499 40510 10320 20227 39974 40076 81130 333 59015;
0168823920999992012032600004-03700-040350FM-12+008399999V0200501N002119999999N0040001N1+02541+02251101071ADDGF108991031081999999021999KA1240M+03381MA1999999100051MD1999999+0011REMSYN088AAXX  26004 82392 32996 80504 10254 20225 30005 40107 8382/ 333 10338 29074 55069 58001;
0156823920999992012032612004-03700-040350FM-12+008399999V0200501N003110450019N0500001N1+02741+02261101221ADDGF108991031071004501021999KA1240N+02201MA1999999100201MD1999999+0001REMSYN076AAXX  26124 82392 32499 80506 10274 20226 30020 40122 8372/ 333 20220 58000;
0137823920999992012032618004-03700-040350FM-12+008399999V0200501N004110450019N0500001N1+03201+02241100671ADDGF106991041041004501031001MA1999999099651MD1999999-0091REMSYN070AAXX  26184 82392 32499 60508 10320 20224 39965 40067 84430 333 59009;
0213823920999992012032700004-03700-040350FM-12+008399999V0202701N000510450019N0040001N1+02371+02331100981ADDAA106094091AY161061AY261061GF107991031061004501021001KA1240M+03341MA1999999099961MD1999999-0091MW1021REMSYN100AAXX  27004 82392 21496 72701 10237 20233 39996 40098 70266 83620 333 10334 29082 55043 59009 60941;
0173823920999992012032712004-03700-040350FM-12+008399999V0200501N004610450019N0500001N1+02641+02231101151ADDAA124094091GF108991031051004501021999KA1240N+02201MA1999999100121MD1999999-0081REMSYN082AAXX  27124 82392 22499 80509 10264 20223 30012 40115 8352/ 333 20220 59008 60944;
0182823920999992012032718004-03700-040350FM-12+008399999V0200501N000510042019N0500001N1+02621+02251100841ADDAA106013091AY161061AY261061GF107991051051004501031001MA1999999099811MD1999999+0161MW1021REMSYN082AAXX  27184 82392 21499 70501 10262 20225 39981 40084 70266 85530 333 58016 60131;
0168823920999992012032800004-03700-040350FM-12+008399999V0209999C000010450019N0040001N1+02411+02321101171ADDGF108991041051004501021999KA1240M+02831MA1999999100141MD1999999+0181REMSYN088AAXX  28004 82392 32496 80000 10241 20232 30014 40117 8452/ 333 10283 29087 55022 58018;
0173823920999992012032812004-03700-040350FM-12+008399999V0200901N001010450019N0500001N1+02641+02071101251ADDAA124013091GF106991031051004501031001KA1240N+02261MA1999999100221MD1999999+0101REMSYN082AAXX  28124 82392 22499 60902 10264 20207 30022 40125 83530 333 20226 58010 60134;
0182823920999992012032818004-03700-040350FM-12+008399999V0200501N000510450019N0200001N1+02561+02291100931ADDAA106006191AY161061AY221061GF108991041021004501031001MA1999999099901MD1999999+0101MW1021REMSYN082AAXX  28184 82392 21498 80501 10256 20229 39990 40093 70262 84230 333 58010 60061;
0168823920999992012032900004-03700-040350FM-12+008399999V0209999C000010450019N0040001N1+02431+02341101181ADDGF108991041051004501021999KA1240M+02961MA1999999100151MD1999999+0011REMSYN088AAXX  29004 82392 32496 80000 10243 20234 30015 40118 8452/ 333 10296 29086 55014 58001;
0173823920999992012032912004-03700-040350FM-12+008399999V0203601N000510450019N0500001N1+02731+02451101311ADDAA124006191GF106991041041004501031001KA1240N+02381MA1999999100291MD1999999+0071REMSYN082AAXX  29124 82392 22499 63601 10273 20245 30029 40131 84430 333 20238 58007 60064;
0137823920999992012032918004-03700-040350FM-12+008399999V0203601N001010450019N0500001N1+02821+02331100951ADDGF107991031051004501021001MA1999999099931MD1999999+0031REMSYN070AAXX  29184 82392 32499 73602 10282 20233 39993 40095 83520 333 58003;
0168823920999992012033000004-03700-040350FM-12+008399999V0200501N002110450019N0040001N1+02521+02231101221ADDGF106991031051004501031001KA1240M+03181MA1999999100201MD1999999+0051REMSYN088AAXX  30004 82392 32496 60504 10252 20223 30020 40122 83530 333 10318 29082 55054 58005;
0156823920999992012033012004-03700-040350FM-12+008399999V0200901N001512200019N0500001N1+02821+02201101411ADDGF104991021011004501031001KA1240N+02201MA1999999100391MD1999999+0101REMSYN076AAXX  30124 82392 32499 40903 10282 20220 30039 40141 82130 333 20220 58010;
0137823920999992012033018004-03700-040350FM-12+008399999V0200901N000510450019N0500001N1+03191+02091100991ADDGF106991031041004501031001MA1999999099971MD1999999+0041REMSYN070AAXX  30184 82392 32499 60901 10319 20209 39997 40099 83430 333 58004;
0132823920999992012033100004-03700-040350FM-12+008399999V0200501N003112200019N0040001N1+02501+02151999999ADDGA1001+999999999GF100991001001999999001001REMSYN078AAXX  31004 82392 32996 00506 10250 20215 10338 29071 30024 40126 55086 58004;
0156823920999992012033112004-03700-040350FM-12+008399999V0200501N001012200019N0500001N1+02801+02181101421ADDGF104991021011004501031001KA1240N+02281MA1999999100401MD1999999+0011REMSYN076AAXX  31124 82392 32499 40502 10280 20218 30040 40142 82130 333 20228 58001;
0137823920999992012033118004-03700-040350FM-12+008399999V0200501N004610450019N0500001N1+02901+02121101021ADDGF107991031051004501011001MA1999999100001MD1999999+0031REMSYN070AAXX  31184 82392 32499 70509 10290 20212 30000 40102 83510 333 58003;
0213823920999992012040100004-03700-040350FM-12+008399999V0200501N001010450019N0040001N1+02401+02111101261ADDAA106000591AY151061AY221061GF108991031051004501021999KA1240M+03181MA1999999100241MD1999999+0001MW1021REMSYN100AAXX  01004 82392 21496 80502 10240 20211 30024 40126 70252 8352/ 333 10318 29075 55037 58000 69941;
0236823920999992012040112004-03700-040350FM-12+008399999V0200901N001010042019N0500001N1+02771+02361101281ADDAA124000091AY151061AY251061GF106991051041004501031001KA1240N+02341MA1999999999999MD1999999-0141MW1021REMSYN088AAXX  01124 82392 21499 60902 10277 20236 30236 40128 70255 85430 333 20234 59014 69924;EQDQ01  00002PRCP24Q02 102363APOSP 
0201823920999992012040118004-03700-040350FM-12+008399999V0200501N000510042019N0500001N1+02941+02401100801ADDAA106000391AY101061AY221061GF107991051061004501031001MA1999999099782MD1999999-0221MW1211REMSYN082AAXX  01184 82392 21499 70501 10294 20240 39978 40080 72102 85630 333 59022 69931;EQDQ01+099783APOSP 
0168823920999992012040200004-03700-040350FM-12+008399999V0203601N001012200019N0040001N1+02561+02381101011ADDGF104991021041004501011001KA1240M+03341MA1999999099991MD1999999-0251REMSYN088AAXX  02004 82392 32496 43602 10256 20238 39999 40101 82410 333 10334 29083 55054 59025;
0173823920999992012040212004-03700-040350FM-12+008399999V0200901N002610042019N0500001N1+02801+02081101121ADDAA124000391GF106991051041004501031001KA1240N+02321MA1999999100101MD1999999-0161REMSYN082AAXX  02124 82392 22499 60905 10280 20208 30010 40112 85430 333 20232 59016 69934;
0182823920999992012040218004-03700-040350FM-12+008399999V0203601N004110450019N0500001N1+02521+02231100811ADDAA106003091AY121061AY221061GF108991031061004501021999MA1999999099781MD1999999+0001MW1211REMSYN082AAXX  02184 82392 21499 83608 10252 20223 39978 40081 72122 8362/ 333 58000 60031;
0213823920999992012040300004-03700-040350FM-12+008399999V0209999C000010450019N0040001N1+02481+02411101011ADDAA106000021AY161061AY261061GF106991021011004501011001KA1240M+03261MA1999999099991MD1999999+0001MW1021REMSYN100AAXX  03004 82392 21496 60000 10248 20241 39999 40101 70266 82110 333 10326 29085 55066 58000 69921;
0173823920999992012040312004-03700-040350FM-12+008399999V0200901N002110450019N0500001N1+02781+02231101131ADDAA124003091GF107991031071004501011001KA1240N+02211MA1999999100111MD1999999+0011REMSYN082AAXX  03124 82392 22499 70904 10278 20223 30011 40113 83710 333 20221 58001 60034;
0182823920999992012040318004-03700-040350FM-12+008399999V0203201N000510450019N0500001N1+02901+02461100721ADDAA106001091AY161061AY261061GF106991031051004501011021MA1999999099701MD1999999-0081MW1021REMSYN082AAXX  03184 82392 21499 63201 10290 20246 39970 40072 70266 83512 333 59008 60011;
0168823920999992012040400004-03700-040350FM-12+008399999V0209999C000011050019N0040001N1+02491+02341100991ADDGF107991021011004501001071KA1240M+03141MA1999999099971MD1999999-0021REMSYN088AAXX  04004 82392 32496 70000 10249 20234 39997 40099 82107 333 10314 29083 55057 59002;
0173823920999992012040412004-03700-040350FM-12+008399999V0202301N002112200019N0500001N1+02761+02141101121ADDAA124001091GF104991021021004501031001KA1240N+02201MA1999999100101MD1999999-0011REMSYN082AAXX  04124 82392 22499 42304 10276 20214 30010 40112 82230 333 20220 59001 60014;
0137823920999992012040418004-03700-040350FM-12+008399999V0203201N000510450019N0500001N1+03301+02121100641ADDGF105991041041004501031001MA1999999099631MD1999999-0071REMSYN070AAXX  04184 82392 32499 53201 10330 20212 39963 40064 84430 333 59007;
0168823920999992012040500004-03700-040350FM-12+008399999V0203601N001012200019N0040001N1+02591+02291100961ADDGF102991011011004501011001KA1240M+03361MA1999999099941MD1999999-0031REMSYN088AAXX  05004 82392 32496 23602 10259 20229 39994 40096 81110 333 10336 29071 55091 59003;
0168823920999992012040600004-03700-040350FM-12+008399999V0200501N001012200019N0040001N1+02601+02191100921ADDGF102991021001008001031001KA1240M+03461MA1999999099901MD1999999-0041REMSYN088AAXX  06004 82392 32596 20502 10260 20219 39990 40092 82030 333 10346 29071 55095 59004;
0156823920999992012040612004-03700-040350FM-12+008399999V0200901N001010450019N0500001N1+02821+02201101071ADDGF106991031041004501031001KA1240N+02241MA1999999100051MD1999999-0041REMSYN076AAXX  06124 82392 32499 60902 10282 20220 30005 40107 83430 333 20224 59004;
0182823920999992012040618004-03700-040350FM-12+008399999V0209999C000010042019N0500001N1+02971+02471100601ADDAA106002091AY101061AY221061GF106991061061004501001001MA1999999099591MD1999999+0021MW1211REMSYN082AAXX  06184 82392 21499 60000 10297 20247 39959 40060 72102 86600 333 58002 60021;
0213823920999992012040700004-03700-040350FM-12+008399999V0200901N003110450019N0040001N1+02561+02151100821ADDAA106002091AY161061AY261061GF108991031071004501021999KA1240M+03381MA1999999099801MD1999999-0101MW1021REMSYN100AAXX  07004 82392 21496 80906 10256 20215 39980 40082 70266 8372/ 333 10338 29075 55069 59010 60021;
0173823920999992012040712004-03700-040350FM-12+008399999V0200901N000510450019N0005001N1+02761+02361101141ADDAA124004191GF106991041041004501031001KA1240N+02251MA1999999100121MD1999999+0071REMSYN082AAXX  07124 82392 22493 60901 10276 20236 30012 40114 84430 333 20225 58007 60044;
0182823920999992012040718004-03700-040350FM-12+008399999V0203201N000510042019N0500001N1+02651+02441100731ADDAA106003091AY101061AY221061GF107991051061004501031001MA1999999099711MD1999999+0121MW1211REMSYN082AAXX  07184 82392 21499 73201 10265 20244 39971 40073 72102 85630 333 58012 60031;
0168823920999992012040800004-03700-040350FM-12+008399999V0200501N000510450019N0040001N1+02541+02361101001ADDGF108991031051004501011999KA1240M+03201MA1999999099981MD1999999+0181REMSYN088AAXX  08004 82392 32496 80501 10254 20236 39998 40100 8351/ 333 10320 29087 55061 58018;
0173823920999992012040812004-03700-040350FM-12+008399999V0200901N002610450019N0500001N1+02801+02111101021ADDAA124003091GF106991031021004501031001KA1240N+02301MA1999999100001MD1999999-0121REMSYN082AAXX  08124 82392 22499 60905 10280 20211 30000 40102 83230 333 20230 59012 60034;
0137823920999992012040818004-03700-040350FM-12+008399999V0201801N001010450019N0500001N1+03221+02081100541ADDGF105991021041004501031001MA1999999099531MD1999999-0181REMSYN070AAXX  08184 82392 32499 51802 10322 20208 39953 40054 82430 333 59018;
0168823920999992012040900004-03700-040350FM-12+008399999V0200501N001010450019N0040001N1+02561+02291100801ADDGF106991031051004501031001KA1240M+03301MA1999999099781MD1999999-0201REMSYN088AAXX  09004 82392 32496 60502 10256 20229 39978 40080 83530 333 10330 29072 55072 59020;
0156823920999992012040912004-03700-040350FM-12+008399999V0200901N000512200019N0500001N1+02741+02171101021ADDGF103991011011004501031001KA1240N+02221MA1999999100001MD1999999+0001REMSYN076AAXX  09124 82392 32499 30901 10274 20217 30000 40102 81130 333 20222 58000;
0156823920999992012040918004-03700-040350FM-12+008399999V0203201N001019999999N0500001N1+03281+02161100621ADDGF106991999031004501001001MA1999999099611MD1999999+0081REMSYN070AAXX  09184 82392 32499 63202 10328 20216 39961 40062 82300 333 58008;EQDQ01+000022SCOTLC
0178823920999992012041000004-03700-040350FM-12+008399999V0200501N000512200019N0040001N1+02541+02231100831ADDGA1001+999999999GF100991001001999999001001KA1240M+03331MA1999999099811MD1999999+0031REMSYN082AAXX  10004 82392 32996 00501 10254 20223 39981 40083 333 10333 29072 55072 58003;
0156823920999992012041012004-03700-040350FM-12+008399999V0200901N002110450019N0500001N1+02781+02161101171ADDGF105991021041004501031001KA1240N+02281MA1999999100151MD1999999+0151REMSYN076AAXX  10124 82392 32499 50904 10278 20216 30015 40117 82430 333 20228 58015;
0137823920999992012041018004-03700-040350FM-12+008399999V0203201N000510450019N0500001N1+03291+02091100761ADDGF106991021051004501011001MA1999999099741MD1999999+0131REMSYN070AAXX  10184 82392 32499 63201 10329 20209 39974 40076 82510 333 58013;
0168823920999992012041100004-03700-040350FM-12+008399999V0203601N000512200019N0040001N1+02561+02111101121ADDGF103991011011004501011001KA1240M+03391MA1999999100101MD1999999+0291REMSYN088AAXX  11004 82392 32496 33601 10256 20211 30010 40112 81110 333 10339 29068 55079 58029;
0156823920999992012041112004-03700-040350FM-12+008399999V0200901N003110450019N0500001N1+02801+02131101361ADDGF106991031081004501031001KA1240N+02351MA1999999100341MD1999999+0211REMSYN076AAXX  11124 82392 32499 60906 10280 20213 30034 40136 83830 333 20235 58021;
0137823920999992012041118004-03700-040350FM-12+008399999V0200901N001012200019N0500001N1+03441+01841100861ADDGF103991031011004501001001MA1999999099851MD1999999+0111REMSYN070AAXX  11184 82392 32499 30902 10344 20184 39985 40086 83100 333 58011;
0178823920999992012041200004-03700-040350FM-12+008399999V0203601N000512200019N0040001N1+02621+02121101131ADDGA1001+999999999GF100991001001999999001001KA1240M+03501MA1999999100111MD1999999+0011REMSYN082AAXX  12004 82392 32996 03601 10262 20212 30011 40113 333 10350 29064 55092 58001;
0156823920999992012041212004-03700-040350FM-12+008399999V0200901N000510450019N0500001N1+02711+02321101271ADDGF106991031041004501031001KA1240N+02201MA1999999100251MD1999999-0091REMSYN076AAXX  12124 82392 32499 60901 10271 20232 30025 40127 83430 333 20220 59009;
0156823920999992012041218004-03700-040350FM-12+008399999V0209999C000019999999N0500001N1+03281+01891100731ADDGF105991999021004501001001MA1999999099711MD1999999-0141REMSYN070AAXX  12184 82392 32499 50000 10328 20189 39971 40073 83200 333 59014;EQDQ01+000032SCOTLC
0178823920999992012041300004-03700-040350FM-12+008399999V0200501N001012200019N0040001N1+02621+02181101021ADDGA1001+999999999GF100991001001999999001001KA1240M+03421MA1999999100001MD1999999-0111REMSYN082AAXX  13004 82392 32996 00502 10262 20218 30000 40102 333 10342 29069 55064 59011;
0156823920999992012041312004-03700-040350FM-12+008399999V0201801N001010450019N0500001N1+02801+01871101181ADDGF107991031041004501031001KA1240N+02241MA1999999100161MD1999999-0091REMSYN076AAXX  13124 82392 32499 71802 10280 20187 30016 40118 83430 333 20224 59009;
0137823920999992012041318004-03700-040350FM-12+008399999V0201801N000510450019N0500001N1+03361+01931100701ADDGF106991021041004501031001MA1999999099691MD1999999-0021REMSYN070AAXX  13184 82392 32499 61801 10336 20193 39969 40070 82430 333 59002;
0178823920999992012041400004-03700-040350FM-12+008399999V0203601N003112200019N0040001N1+02641+02071100971ADDGA1001+999999999GF100991001001999999001001KA1240M+03481MA1999999099951MD1999999-0051REMSYN082AAXX  14004 82392 32996 03606 10264 20207 39995 40097 333 10348 29061 55075 59005;
0156823920999992012041412004-03700-040350FM-12+008399999V0201801N001012200019N0500001N1+02901+02041101101ADDGF104991041021004501001001KA1240N+02121MA1999999100081MD1999999-0081REMSYN076AAXX  14124 82392 32499 41802 10290 20204 30008 40110 84200 333 20212 59008;
0137823920999992012041418004-03700-040350FM-12+008399999V0200501N002112200019N0500001N1+03401+01961100661ADDGF102991021011004501001001MA1999999099651MD1999999-0041REMSYN070AAXX  14184 82392 32499 20504 10340 20196 39965 40066 82100 333 59004;
0168823920999992012041500004-03700-040350FM-12+008399999V0203601N002110450019N0040001N1+02681+02021101061ADDGF106991031041004501031001KA1240M+03461MA1999999100041MD1999999-0091REMSYN088AAXX  15004 82392 32496 63604 10268 20202 30004 40106 83430 333 10346 29059 55087 59009;
0156823920999992012041512004-03700-040350FM-12+008399999V0202301N000510450019N0500001N1+02541+02441101231ADDGF106991031041004501031001KA1240N+02261MA1999999100211MD1999999+0131REMSYN076AAXX  15124 82392 32499 62301 10254 20244 30021 40123 83430 333 20226 58013;
0182823920999992012041518004-03700-040350FM-12+008399999V0203601N000510450019N0500001N1+02671+02451100901ADDAA106007991AY161061AY261061GF108991041051004501021999MA1999999099871MD1999999+0221MW1021REMSYN082AAXX  15184 82392 21499 83601 10267 20245 39987 40090 70266 8452/ 333 58022 60081;
0168823920999992012041600004-03700-040350FM-12+008399999V0203601N000510450019N0040001N1+02411+02321101121ADDGF108991031051004501021999KA1240M+03041MA1999999100101MD1999999+0061REMSYN088AAXX  16004 82392 32496 83601 10241 20232 30010 40112 8352/ 333 10304 29089 55011 58006;
0173823920999992012041612004-03700-040350FM-12+008399999V0200501N001012200019N0500001N1+02721+02151101221ADDAA124007991GF103991031041004501001001KA1240N+02241MA1999999100201MD1999999-0011REMSYN082AAXX  16124 82392 22499 30502 10272 20215 30020 40122 83400 333 20224 59001 60084;
0182823920999992012041618004-03700-040350FM-12+008399999V0202701N001010450019N0500001N1+02501+01961100881ADDAA106009991AY161061AY261061GF108991031071004501021999MA1999999099851MD1999999-0021MW1021REMSYN082AAXX  16184 82392 21499 82702 10250 20196 39985 40088 70266 8372/ 333 59002 60101;
0168823920999992012041700004-03700-040350FM-12+008399999V0209999C000012200019N0040001N1+02391+02341101131ADDGF102991011011004501011001KA1240M+03211MA1999999100111MD1999999+0011REMSYN088AAXX  17004 82392 32496 20000 10239 20234 30011 40113 81110 333 10321 29083 55049 58001;
0173823920999992012041712004-03700-040350FM-12+008399999V0200901N000512200019N0500001N1+02661+02141101281ADDAA124009991GF103991031011004501001001KA1240N+02211MA1999999100261MD1999999+0061REMSYN082AAXX  17124 82392 22499 30901 10266 20214 30026 40128 83100 333 20221 58006 60104;
0182823920999992012041718004-03700-040350FM-12+008399999V0203601N001010450019N0500001N1+02561+02381101011ADDAA106000391AY161061AY261061GF108991031051004501021999MA1999999099981MD1999999+0131MW1021REMSYN082AAXX  17184 82392 21499 83602 10256 20238 39998 40101 70266 8352/ 333 58013 69931;
0168823920999992012041800004-03700-040350FM-12+008399999V0200501N000510450019N0040001N1+02371+02331101351ADDGF106991021051004501031001KA1240M+03201MA1999999100321MD1999999+0211REMSYN088AAXX  18004 82392 32496 60501 10237 20233 30032 40135 82530 333 10320 29089 55048 58021;
0201823920999992012041812004-03700-040350FM-12+008399999V0202301N000512200019N0500001N1+02661+02141101381ADDAA124000891AY121061AY251061GF104991021011004501031001KA1240N+02211MA1999999100351MD1999999+0091MW1021REMSYN088AAXX  18124 82392 21499 42301 10266 20214 30035 40138 70225 82130 333 20221 58009 69984;
0137823920999992012041818004-03700-040350FM-12+008399999V0203601N003112200019N0500001N1+03121+02251100801ADDGF104991021041004501031001MA1999999099781MD1999999-0201REMSYN070AAXX  18184 82392 32499 43606 10312 20225 39978 40080 82430 333 59020;
0232823920999992012041900004-03700-040350FM-12+008399999V0209999C000012200019N0040001N1+02341+02271101131ADDAA106004191AY161061AY261061GF104991999021004501001001KA1240M+03261MA1999999100101MD1999999-0221MW1021REMSYN100AAXX  19004 82392 21496 40000 10234 20227 30010 40113 70266 83200 333 10326 29081 55074 59022 60041;EQDQ01+000032SCOTLC
0173823920999992012041912004-03700-040350FM-12+008399999V0209999C000011050019N0500001N1+02741+02401101131ADDAA124004191GF105991021021004501031011KA1240N+02271MA1999999100101MD1999999-0251REMSYN082AAXX  19124 82392 22499 52700 10274 20240 30010 40113 82231 333 20227 59025 60044;
0137823920999992012041918004-03700-040350FM-12+008399999V0202701N000510450019N0500001N1+03011+02341100701ADDGF106991021021004501031011MA1999999099681MD1999999-0101REMSYN070AAXX  19184 82392 32499 62701 10301 20234 39968 40070 82231 333 59010;
0168823920999992012042000004-03700-040350FM-12+008399999V0203601N003112200019N0040001N1+02601+02331100961ADDGF104991041021004501001001KA1240M+03121MA1999999099941MD1999999-0061REMSYN088AAXX  20004 82392 32496 43606 10260 20233 39994 40096 84200 333 10312 29080 55063 59006;
0156823920999992012042012004-03700-040350FM-12+008399999V0200901N002612200019N0500001N1+02841+02291101171ADDGF104991041011004501001001KA1240N+02261MA1999999100151MD1999999+0051REMSYN076AAXX  20124 82392 32499 40905 10284 20229 30015 40117 84100 333 20226 58005;
0182823920999992012042018004-03700-040350FM-12+008399999V0203601N000510450019N0500001N1+02691+02431100761ADDAA106000591AY161061AY261061GF107991041051004501031001MA1999999099741MD1999999+0061MW1021REMSYN082AAXX  20184 82392 21499 73601 10269 20243 39974 40076 70266 84530 333 58006 69941;
0168823920999992012042100004-03700-040350FM-12+008399999V0203601N002112200019N0040001N1+02501+02211101041ADDGF102991021001008001031001KA1240M+03201MA1999999100021MD1999999+0061REMSYN088AAXX  21004 82392 32596 23604 10250 20221 30002 40104 82030 333 10320 29081 55063 58006;
0173823920999992012042112004-03700-040350FM-12+008399999V0203201N000510042019N0500001N1+02541+02421101281ADDAA124000591GF108991061061004501011999KA1240N+02321MA1999999100251MD1999999+0101REMSYN082AAXX  21124 82392 22499 83201 10254 20242 30025 40128 8661/ 333 20232 58010 69944;
0182823920999992012042118004-03700-040350FM-12+008399999V0209999C000010450019N0500001N1+02591+02381100971ADDAA106011991AY161061AY261061GF107991041051004501021001MA1999999099941MD1999999+0201MW1021REMSYN082AAXX  21184 82392 21499 70500 10259 20238 39994 40097 70266 84520 333 58020 60121;
0168823920999992012042200004-03700-040350FM-12+008399999V0209999C000012200019N0040001N1+02381+02331101191ADDGF102991011011004501011001KA1240M+02861MA1999999100161MD1999999+0141REMSYN088AAXX  22004 82392 32496 20000 10238 20233 30016 40119 81110 333 10286 29094 55016 58014;
0173823920999992012042212004-03700-040350FM-12+008399999V0203601N000510450019N0500001N1+02701+02221101341ADDAA124011991GF108991031051004501021001KA1240N+02281MA1999999100311MD1999999+0061REMSYN082AAXX  22124 82392 22499 83601 10270 20222 30031 40134 83520 333 20228 58006 60124;
0173823920999992012042312004-03700-040350FM-12+008399999V0200501N000510450019N0500001N1+02761+02341101271ADDAA124004191GF106991031041004501031001KA1240N+02341MA1999999100251MD1999999-0061REMSYN082AAXX  23124 82392 22499 60501 10276 20234 30025 40127 83430 333 20234 59006 60044;
0137823920999992012042318004-03700-040350FM-12+008399999V0203601N003110450019N0500001N1+02861+02311100871ADDGF107991031051004501011001MA1999999099851MD1999999+0051REMSYN070AAXX  23184 82392 32499 73606 10286 20231 39985 40087 83510 333 58005;
0178823920999992012042400004-03700-040350FM-12+008399999V0203601N000512200019N0040001N1+02521+02311101111ADDGA1001+999999999GF100991001001999999001001KA1240M+03301MA1999999100091MD1999999+0011REMSYN082AAXX  24004 82392 32996 03601 10252 20231 30009 40111 333 10330 29082 55054 58001;
0156823920999992012042412004-03700-040350FM-12+008399999V0201401N002110450019N0500001N1+02761+02251101171ADDGF106991031051004501011001KA1240N+02201MA1999999100151MD1999999-0101REMSYN076AAXX  24124 82392 32499 61404 10276 20225 30015 40117 83510 333 20220 59010;
0137823920999992012042418004-03700-040350FM-12+008399999V0203601N000510450019N0500001N1+03261+02351101641ADDGF106991021021004501011011MA1999999099661MD1999999-0191REMSYN070AAXX  24184 82392 32499 63601 10326 20235 39966 40164 82211 333 59019;
0178823920999992012042500004-03700-040350FM-12+008399999V0203601N000512200019N0040001N1+02561+02331100991ADDGA1001+999999999GF100991001001999999001001KA1240M+03391MA1999999099971MD1999999-0121REMSYN082AAXX  25004 82392 32996 03601 10256 20233 39997 40099 333 10339 29077 55090 59012;
0156823920999992012042512004-03700-040350FM-12+008399999V0201401N001012200019N0500001N1+02861+02011101221ADDGF104991021011004501031001KA1240N+02231MA1999999100201MD1999999+0051REMSYN076AAXX  25124 82392 32499 41402 10286 20201 30020 40122 82130 333 20223 58005;
0137823920999992012042518004-03700-040350FM-12+008399999V0200501N004610042019N0500001N1+03421+01981101711ADDGF105991051021004501001001MA1999999099701MD1999999+0041REMSYN070AAXX  25184 82392 32499 50509 10342 20198 39970 40171 85200 333 58004;
0168823920999992012042600004-03700-040350FM-12+008399999V0203601N001012200019N0040001N1+02611+02351100961ADDGF101991011021004501001001KA1240M+03471MA1999999099941MD1999999-0031REMSYN088AAXX  26004 82392 32496 13602 10261 20235 39994 40096 81200 333 10347 29068 55092 59003;
0156823920999992012042612004-03700-040350FM-12+008399999V0201801N000510042019N0500001N1+02791+02381101201ADDGF106991061021004501001001KA1240N+02201MA1999999100181MD1999999-0021REMSYN076AAXX  26124 82392 32499 61801 10279 20238 30018 40120 86200 333 20220 59002;
0137823920999992012042618004-03700-040350FM-12+008399999V0209999C000012200019N0500001N1+03291+02051100651ADDGF104991041021004501001001MA1999999099641MD1999999-0061REMSYN070AAXX  26184 82392 32499 43600 10329 20205 39964 40065 84200 333 59006;
0236823920999992012042700004-03700-040350FM-12+008399999V0200501N003112200019N0040001N1+02621+02211100981ADDAA106000391AY151061AY221061GA1001+999999999GF100991001001999999001001KA1240M+03461MA1999999099961MD1999999+0021REMSYN094AAXX  27004 82392 21996 00506 10262 20221 39996 40098 72252 333 10346 29070 55097 58002 69931;EQDQ01+000222PRSWM1
0173823920999992012042712004-03700-040350FM-12+008399999V0200901N002110450019N0500001N1+02761+02211101081ADDAA124000391GF108991031051004501011999KA1240N+02201MA1999999100061MD1999999-0121REMSYN082AAXX  27124 82392 22499 80904 10276 20221 30006 40108 8351/ 333 20220 59012 69934;
0137823920999992012042718004-03700-040350FM-12+008399999V0203601N000510042019N0020001N1+03311+02441100631ADDGF105991051041004501001001MA1999999099621MD1999999-0021REMSYN070AAXX  27184 82392 32495 53601 10331 20244 39962 40063 85400 333 59002;
0178823920999992012042800004-03700-040350FM-12+008399999V0200501N003112200019N0040001N1+02601+02031100921ADDGA1001+999999999GF100991001001999999001001KA1240M+03381MA1999999099901MD1999999-0061REMSYN082AAXX  28004 82392 32996 00506 10260 20203 39990 40092 333 10338 29068 55082 59006;
0156823920999992012042812004-03700-040350FM-12+008399999V0201401N001010450019N0500001N1+02721+02081101091ADDGF106991041041004501031001KA1240N+02201MA1999999100071MD1999999-0011REMSYN076AAXX  28124 82392 32499 61402 10272 20208 30007 40109 84430 333 20220 59001;
0137823920999992012042818004-03700-040350FM-12+008399999V0200501N001012200019N0500001N1+03441+01761100551ADDGF104991021011004501031001MA1999999099551MD1999999-0071REMSYN070AAXX  28184 82392 32499 40502 10344 20176 39955 40055 82130 333 59007;
0178823920999992012042900004-03700-040350FM-12+008399999V0200501N003112200019N0500001N1+02561+02041100941ADDGA1001+999999999GF100991001001999999001001KA1240M+03481MA1999999099921MD1999999+0021REMSYN082AAXX  29004 82392 32499 00506 10256 20204 39992 40094 333 10348 29063 55100 58002;
0156823920999992012042912004-03700-040350FM-12+008399999V0200901N000510042019N0500001N1+02731+02171101101ADDGF106991061021004501001001KA1240N+02061MA1999999100081MD1999999+0011REMSYN076AAXX  29124 82392 32499 60901 10273 20217 30008 40110 86200 333 20206 58001;
0137823920999992012042918004-03700-040350FM-12+008399999V0209999C000012200019N0500001N1+03411+01871100691ADDGF103991031011004501001001MA1999999099661MD1999999+0111REMSYN070AAXX  29184 82392 32499 33200 10341 20187 39966 40069 83100 333 58011;
0178823920999992012043000004-03700-040350FM-12+008399999V0203601N000512200019N0040001N1+02611+02231100991ADDGA1001+999999999GF100991001001999999001001KA1240M+03461MA1999999099971MD1999999+0051REMSYN082AAXX  30004 82392 32996 03601 10261 20223 39997 40099 333 10346 29067 55104 58005;
0156823920999992012043012004-03700-040350FM-12+008399999V0200901N002610450019N0500001N1+02761+02041101211ADDGF106991041041004501031001KA1240N+02101MA1999999100191MD1999999+0111REMSYN076AAXX  30124 82392 32499 60905 10276 20204 30019 40121 84430 333 20210 58011;
0137823920999992012043018004-03700-040350FM-12+008399999V0200501N001010450019N0500001N1+03301+01951100771ADDGF106991021041004501031001MA1999999099751MD1999999+0091REMSYN070AAXX  30184 82392 32499 60502 10330 20195 39975 40077 82430 333 58009;
0168823920999992012050100004-03700-040350FM-12+008399999V0203601N001012200019N0040001N1+02611+02251101061ADDGF102991021001008001031001KA1240M+03361MA1999999100041MD1999999+0071REMSYN088AAXX  01004 82392 32596 23602 10261 20225 30004 40106 82030 333 10336 29068 55060 58007;
0178823920999992012050200004-03700-040350FM-12+008399999V0203601N003112200019N0040001N1+02601+02101101121ADDGA1001+999999999GF100991001001999999001001KA1240M+03461MA1999999100101MD1999999+0061REMSYN082AAXX  02004 82392 32996 03606 10260 20210 30010 40112 333 10346 29066 55081 58006;
0156823920999992012050212004-03700-040350FM-12+008399999V0200901N001512200019N0500001N1+02841+02261101201ADDGF104991041021004501001001KA1240N+02231MA1999999100181MD1999999-0071REMSYN076AAXX  02124 82392 32499 40903 10284 20226 30018 40120 84200 333 20223 59007;
0137823920999992012050218004-03700-040350FM-12+008399999V0200901N001010042019N0500001N1+03371+01951100671ADDGF105991051021004501001001MA1999999099651MD1999999-0101REMSYN070AAXX  02184 82392 32499 50902 10337 20195 39965 40067 85200 333 59010;
0168823920999992012050300004-03700-040350FM-12+008399999V0200501N000512200019N0040001N1+02591+02191101131ADDGF101991011001008001031001KA1240M+03581MA1999999100111MD1999999+0011REMSYN088AAXX  03004 82392 32596 10501 10259 20219 30011 40113 81030 333 10358 29068 55093 58001;
0156823920999992012050312004-03700-040350FM-12+008399999V0200501N002112200019N0500001N1+02821+01831101271ADDGF102991021011004501001001KA1240N+02101MA1999999100251MD1999999+0071REMSYN076AAXX  03124 82392 32499 20504 10282 20183 30025 40127 82100 333 20210 58007;
0137823920999992012050318004-03700-040350FM-12+008399999V0200901N004112200019N0500001N1+03501+01481100761ADDGF102991021011004501001001MA1999999099751MD1999999+0101REMSYN070AAXX  03184 82392 32499 20908 10350 20148 39975 40076 82100 333 58010;
0178823920999992012050400004-03700-040350FM-12+008399999V0200501N001012200019N0040001N1+02641+02091101121ADDGA1001+999999999GF100991001001999999001001KA1240M+03581MA1999999100101MD1999999-0011REMSYN082AAXX  04004 82392 32996 00502 10264 20209 30010 40112 333 10358 29057 55098 59001;
0156823920999992012050412004-03700-040350FM-12+008399999V0200901N003112200019N0500001N1+03011+01941101201ADDGF104991021021004501001021KA1240N+02311MA1999999100181MD1999999-0071REMSYN076AAXX  04124 82392 32499 40906 10301 20194 30018 40120 82202 333 20231 59007;
0137823920999992012050418004-03700-040350FM-12+008399999V0200901N002112200019N0500001N1+03461+01731100691ADDGF104991031011004501001021MA1999999099681MD1999999-0071REMSYN070AAXX  04184 82392 32499 40904 10346 20173 39968 40069 83102 333 59007;
0178823920999992012050500004-03700-040350FM-12+008399999V0203601N001012200019N0040001N1+02621+02121100991ADDGA1001+999999999GF100991001001999999001001KA1240M+03541MA1999999099971MD1999999-0031REMSYN082AAXX  05004 82392 32996 03602 10262 20212 39997 40099 333 10354 29059 55101 59003;
0156823920999992012050512004-03700-040350FM-12+008399999V0201401N001012200019N0500001N1+02811+02021101201ADDGF103991021011004501001011KA1240N+02061MA1999999100181MD1999999+0001REMSYN076AAXX  05124 82392 32499 31402 10281 20202 30018 40120 82101 333 20206 58000;
0137823920999992012050518004-03700-040350FM-12+008399999V0202501N001510450019N0500001N1+03451+01641100731ADDGF106991031021004501011001MA1999999099711MD1999999+0031REMSYN070AAXX  05184 82392 32499 62503 10345 20164 39971 40073 83210 333 58003;
0168823920999992012050600004-03700-040350FM-12+008399999V0203601N000510450019N0040001N1+02671+02181101041ADDGF107991021011004501011001KA1240M+03511MA1999999100021MD1999999+0051REMSYN088AAXX  06004 82392 32496 73601 10267 20218 30002 40104 82110 333 10351 29062 55076 58005;
0156823920999992012050612004-03700-040350FM-12+008399999V0201401N000510042019N0500001N1+02821+02121101211ADDGF106991061021004501001001KA1240N+02181MA1999999100191MD1999999+0011REMSYN076AAXX  06124 82392 32499 61401 10282 20212 30019 40121 86200 333 20218 58001;
0137823920999992012050618004-03700-040350FM-12+008399999V0200901N001512200019N0500001N1+03601+01771100691ADDGF104991041021004501001001MA1999999099681MD1999999-0031REMSYN070AAXX  06184 82392 32499 40903 10360 20177 39968 40069 84200 333 59003;
0168823920999992012050700004-03700-040350FM-12+008399999V0203601N000512200019N0040001N1+02671+02131101011ADDGF101991011001008001011001KA1240M+03641MA1999999099991MD1999999-0031REMSYN088AAXX  07004 82392 32596 13601 10267 20213 39999 40101 81010 333 10364 29061 55097 59003;
0156823920999992012050712004-03700-040350FM-12+008399999V0200901N001012200019N0500001N1+02901+02041101251ADDGF104991021011004501031001KA1240N+02081MA1999999100231MD1999999+0041REMSYN076AAXX  07124 82392 32499 40902 10290 20204 30023 40125 82130 333 20208 58004;
0137823920999992012050718004-03700-040350FM-12+008399999V0200501N004612200019N0500001N1+03601+01521100741ADDGF103991031011004501001001MA1999999099731MD1999999+0051REMSYN070AAXX  07184 82392 32499 30509 10360 20152 39973 40074 83100 333 58005;
0178823920999992012050800004-03700-040350FM-12+008399999V0200501N002612200019N0040001N1+02641+02041101081ADDGA1001+999999999GF100991001001999999001001KA1240M+03681MA1999999100061MD1999999+0071REMSYN082AAXX  08004 82392 32996 00505 10264 20204 30006 40108 333 10368 29058 55092 58007;
0156823920999992012050812004-03700-040350FM-12+008399999V0200501N000512200019N0500001N1+02931+02001101261ADDGF104991021011004501011001KA1240N+02181MA1999999100241MD1999999+0011REMSYN076AAXX  08124 82392 32499 40501 10293 20200 30024 40126 82110 333 20218 58001;
0137823920999992012050818004-03700-040350FM-12+008399999V0200901N002110450019N0500001N1+03591+01671100741ADDGF105991041011004501011001MA1999999099731MD1999999+0001REMSYN070AAXX  08184 82392 32499 50904 10359 20167 39973 40074 84110 333 58000;
0168823920999992012050900004-03700-040350FM-12+008399999V0200501N001012200019N0040001N1+02631+01801101101ADDGF103991011011004501011001KA1240M+03681MA1999999100081MD1999999+0021REMSYN088AAXX  09004 82392 32496 30502 10263 20180 30008 40110 81110 333 10368 29052 55103 58002;
0156823920999992012050912004-03700-040350FM-12+008399999V0201801N001012200019N0500001N1+02861+01921101081ADDGF102991011011004501001011KA1240N+02041MA1999999100061MD1999999-0161REMSYN076AAXX  09124 82392 32499 21802 10286 20192 30006 40108 81101 333 20204 59016;
0137823920999992012050918004-03700-040350FM-12+008399999V0200501N004112200019N0500001N1+03601+01411100711ADDGF103991031021004501001001MA1999999099701MD1999999-0031REMSYN070AAXX  09184 82392 32499 30508 10360 20141 39970 40071 83200 333 59003;
0178823920999992012051000004-03700-040350FM-12+008399999V0200501N005112200019N0040001N1+02701+02061100971ADDGA1001+999999999GF100991001001999999001001KA1240M+03701MA1999999099951MD1999999-0131REMSYN082AAXX  10004 82392 32996 00510 10270 20206 39995 40097 333 10370 29055 55104 59013;
0156823920999992012051012004-03700-040350FM-12+008399999V0200501N000510450019N0500001N1+02901+02201101181ADDGF106991031041004501031001KA1240N+02251MA1999999100161MD1999999+0101REMSYN076AAXX  10124 82392 32499 60501 10290 20220 30016 40118 83430 333 20225 58010;
0137823920999992012051018004-03700-040350FM-12+008399999V0203601N001010450019N0500001N1+03071+02101100821ADDGF107991021021004501021001MA1999999099801MD1999999+0101REMSYN070AAXX  10184 82392 32499 73602 10307 20210 39980 40082 82220 333 58010;
0168823920999992012051100004-03700-040350FM-12+008399999V0203601N000512200019N0040001N1+02541+02171101071ADDGF102991021021004501001001KA1240M+03301MA1999999100051MD1999999+0101REMSYN088AAXX  11004 82392 32496 23601 10254 20217 30005 40107 82200 333 10330 29071 55031 58010;
0156823920999992012051112004-03700-040350FM-12+008399999V0200501N005112200019N0500001N1+02861+02011101161ADDGF104991031051004501031001KA1240N+02391MA1999999100141MD1999999-0021REMSYN076AAXX  11124 82392 32499 40510 10286 20201 30014 40116 83530 333 20239 59002;
0137823920999992012051118004-03700-040350FM-12+008399999V0200501N004110450019N0500001N1+03301+01841100811ADDGF105991041041004501031001MA1999999099801MD1999999+0001REMSYN070AAXX  11184 82392 32499 50508 10330 20184 39980 40081 84430 333 58000;
0168823920999992012051200004-03700-040350FM-12+008399999V0200501N003112200019N0040001N1+02621+02071101071ADDGF104991041041004501001001KA1240M+03461MA1999999100051MD1999999+0001REMSYN088AAXX  12004 82392 32496 40506 10262 20207 30005 40107 84400 333 10346 29062 55054 58000;
0156823920999992012051212004-03700-040350FM-12+008399999V0201401N001010042019N0500001N1+02801+02001101171ADDGF106991051041004501031001KA1240N+02401MA1999999100151MD1999999+0011REMSYN076AAXX  12124 82392 32499 61402 10280 20200 30015 40117 85430 333 20240 58001;
0137823920999992012051218004-03700-040350FM-12+008399999V0200501N004612200019N0500001N1+03401+01811100741ADDGF104991041021004501001001MA1999999099731MD1999999-0071REMSYN070AAXX  12184 82392 32499 40509 10340 20181 39973 40074 84200 333 59007;
0168823920999992012051300004-03700-040350FM-12+008399999V0200501N005112200019N0040001N1+02661+02181101021ADDGF102991021001008001031001KA1240M+03561MA1999999100001MD1999999-0051REMSYN088AAXX  13004 82392 32596 20510 10266 20218 30000 40102 82030 333 10356 29063 55057 59005;
0156823920999992012051312004-03700-040350FM-12+008399999V0200501N004112200019N0500001N1+02961+01961101151ADDGF104991041021004501001001KA1240N+02301MA1999999100131MD1999999-0021REMSYN076AAXX  13124 82392 32499 40508 10296 20196 30013 40115 84200 333 20230 59002;
0137823920999992012051318004-03700-040350FM-12+008399999V0200501N002610450019N0500001N1+03601+01621100711ADDGF105991041041004501031001MA1999999099701MD1999999-0031REMSYN070AAXX  13184 82392 32499 50505 10360 20162 39970 40071 84430 333 59003;
0242823920999992012051400004-03700-040350FM-12+008399999V0200501N004612200019N0040001N1+02581+02081100971ADDAA106000091AY151061AY221061GA1001+999999999GF100991001001999999001001KA1240M+03681MA1999999099951MD1999999-0051MW1021REMSYN094AAXX  14004 82392 21996 00509 10258 20208 39995 40097 70252 333 10368 29059 55096 59005 69921;EQDQ01  00002PRCP06
0192823920999992012051412004-03700-040350FM-12+008399999V0200901N005112200019N0500001N1+02881+02031101171ADDAA124000091GF104991041021004501001001KA1240N+02301MA1999999100151MD1999999+0021REMSYN082AAXX  14124 82392 22499 40910 10288 20203 30015 40117 84200 333 20230 58002 69924;EQDQ01  00002PRCP24
0137823920999992012051418004-03700-040350FM-12+008399999V0200901N004112200019N0500001N1+03481+01611100711ADDGF104991041021004501001001MA1999999099701MD1999999+0001REMSYN070AAXX  14184 82392 32499 40908 10348 20161 39970 40071 84200 333 58000;
0178823920999992012051500004-03700-040350FM-12+008399999V0200501N002612200019N0040001N1+02621+02161101071ADDGA1001+999999999GF100991001001999999001001KA1240M+03621MA1999999100051MD1999999+0101REMSYN082AAXX  15004 82392 32996 00505 10262 20216 30005 40107 333 10362 29061 55099 58010;
0156823920999992012051512004-03700-040350FM-12+008399999V0200501N004610450019N0500001N1+02901+02041101271ADDGF105991031041004501031001KA1240N+02341MA1999999100251MD1999999+0101REMSYN076AAXX  15124 82392 32499 50509 10290 20204 30025 40127 83430 333 20234 58010;
0137823920999992012051518004-03700-040350FM-12+008399999V0200901N002612200019N0500001N1+03361+01601100811ADDGF102991021021004501001001MA1999999099801MD1999999+0101REMSYN070AAXX  15184 82392 32499 20905 10336 20160 39980 40081 82200 333 58010;
0178823920999992012051600004-03700-040350FM-12+008399999V0200501N003112200019N0040001N1+02581+02011101171ADDGA1001+999999999GF100991001001999999001001KA1240M+03531MA1999999100151MD1999999+0081REMSYN082AAXX  16004 82392 32996 00506 10258 20201 30015 40117 333 10353 29059 55087 58008;
0156823920999992012051612004-03700-040350FM-12+008399999V0203201N002110450019N0500001N1+02801+01921101361ADDGF106991031041004501031001KA1240N+02201MA1999999100341MD1999999+0091REMSYN076AAXX  16124 82392 32499 63204 10280 20192 30034 40136 83430 333 20220 58009;
0137823920999992012051618004-03700-040350FM-12+008399999V0200501N003112200019N0500001N1+03461+01551100891ADDGF104991041021004501001001MA1999999099881MD1999999+0081REMSYN070AAXX  16184 82392 32499 40506 10346 20155 39988 40089 84200 333 58008;
0178823920999992012051700004-03700-040350FM-12+008399999V0200501N004112200019N0040001N1+02601+02031101201ADDGA1001+999999999GF100991001001999999001001KA1240M+03581MA1999999100181MD1999999+0051REMSYN082AAXX  17004 82392 32996 00508 10260 20203 30018 40120 333 10358 29058 55086 58005;
0156823920999992012051712004-03700-040350FM-12+008399999V0200501N002110450019N0500001N1+02761+01971101301ADDGF106991041021004501031001KA1240N+02111MA1999999100281MD1999999-0061REMSYN076AAXX  17124 82392 32499 60504 10276 20197 30028 40130 84230 333 20211 59006;
0137823920999992012051718004-03700-040350FM-12+008399999V0200501N001012200019N0500001N1+03601+01461100811ADDGF103991021011004501031001MA1999999099801MD1999999-0081REMSYN070AAXX  17184 82392 32499 30502 10360 20146 39980 40081 82130 333 59008;
0168823920999992012051800004-03700-040350FM-12+008399999V0200501N002112200019N0040001N1+02641+02071101121ADDGF102991021001008001031001KA1240M+03681MA1999999100101MD1999999-0081REMSYN088AAXX  18004 82392 32596 20504 10264 20207 30010 40112 82030 333 10368 29058 55085 59008;
0156823920999992012051812004-03700-040350FM-12+008399999V0200501N002610042019N0500001N1+03001+02001101141ADDGF106991061021004501001001KA1240N+02511MA1999999100131MD1999999-0151REMSYN076AAXX  18124 82392 32499 60505 10300 20200 30013 40114 86200 333 20251 59015;
0137823920999992012051818004-03700-040350FM-12+008399999V0200501N000510042019N0500001N1+03501+01811100631ADDGF106991061031004501001001MA1999999099631MD1999999-0171REMSYN070AAXX  18184 82392 32499 60501 10350 20181 39963 40063 86300 333 59017;
0168823920999992012051900004-03700-040350FM-12+008399999V0203601N001012200019N0040001N1+02561+02191101071ADDGF103991031021004501001001KA1240M+03601MA1999999100051MD1999999-0051REMSYN088AAXX  19004 82392 32496 33602 10256 20219 30005 40107 83200 333 10360 29063 55092 59005;
0156823920999992012051912004-03700-040350FM-12+008399999V0200901N001510042019N0500001N1+02871+02211101191ADDGF106991061041004501001001KA1240N+02181MA1999999100171MD1999999+0041REMSYN076AAXX  19124 82392 32499 60903 10287 20221 30017 40119 86400 333 20218 58004;
0182823920999992012051918004-03700-040350FM-12+008399999V0200901N001010450019N0500001N1+03391+01811100711ADDAA106003091AY161061AY261061GF106991041021004501031001MA1999999099701MD1999999+0071MW1021REMSYN082AAXX  19184 82392 21499 60902 10339 20181 39970 40071 70266 84230 333 58007 60031;
0178823920999992012052000004-03700-040350FM-12+008399999V0203601N001012200019N0040001N1+02621+02251101111ADDGA1001+999999999GF100991001001999999001001KA1240M+03561MA1999999100091MD1999999+0041REMSYN082AAXX  20004 82392 32996 03602 10262 20225 30009 40111 333 10356 29067 55071 58004;
0201823920999992012052012004-03700-040350FM-12+008399999V0209999C000010042019N0500001N1+02721+02261101291ADDAA124002091AY101061AY221061GF108991081061004501999999KA1240N+02331MA1999999100271MD1999999+0101MW1201REMSYN088AAXX  20124 82392 21499 80000 10272 20226 30027 40129 72002 886// 333 20233 58010 60024;
0182823920999992012052018004-03700-040350FM-12+008399999V0200501N003110042019N0500001N1+03311+01971100871ADDAA106002091AY161061AY261061GF105991051041004501001001MA1999999099861MD1999999+0161MW1021REMSYN082AAXX  20184 82392 21499 50506 10331 20197 39986 40087 70266 85400 333 58016 60021;
0178823920999992012052100004-03700-040350FM-12+008399999V0203601N000512200019N0040001N1+02541+02001101221ADDGA1001+999999999GF100991001001999999001001KA1240M+03441MA1999999100201MD1999999+0111REMSYN082AAXX  21004 82392 32996 03601 10254 20200 30020 40122 333 10344 29066 55062 58011;
0173823920999992012052112004-03700-040350FM-12+008399999V0200901N000510042019N0500001N1+02871+02131101401ADDAA124002091GF106991061021004501001001KA1240N+02041MA1999999100381MD1999999+0111REMSYN082AAXX  21124 82392 22499 60901 10287 20213 30038 40140 86200 333 20204 58011 60024;
0137823920999992012052118004-03700-040350FM-12+008399999V0200501N001512200019N0500001N1+03591+01621100801ADDGF104991041011004501001001MA1999999099791MD1999999-0071REMSYN070AAXX  21184 82392 32499 40503 10359 20162 39979 40080 84100 333 59007;
0178823920999992012052200004-03700-040350FM-12+008399999V0203601N000512200019N0040001N1+02621+02051101121ADDGA1001+999999999GF100991001001999999001001KA1240M+03641MA1999999100101MD1999999-0101REMSYN082AAXX  22004 82392 32996 03601 10262 20205 30010 40112 333 10364 29059 55105 59010;
0156823920999992012052212004-03700-040350FM-12+008399999V0200901N000512200019N0500001N1+02931+02001101241ADDGF102991021011004501001001KA1240N+02031MA1999999100221MD1999999-0161REMSYN076AAXX  22124 82392 32499 20901 10293 20200 30022 40124 82100 333 20203 59016;
0137823920999992012052218004-03700-040350FM-12+008399999V0200901N000510450019N0500001N1+03571+01841100701ADDGF106991041011004501011001MA1999999099681MD1999999-0111REMSYN070AAXX  22184 82392 32499 60901 10357 20184 39968 40070 84110 333 59011;
0168823920999992012052300004-03700-040350FM-12+008399999V0203601N001512200019N0040001N1+02671+02091101121ADDGF102991021001008001031071KA1240M+03661MA1999999100101MD1999999+0001REMSYN088AAXX  23004 82392 32596 23603 10267 20209 30010 40112 82037 333 10366 29058 55089 58000;
0156823920999992012052312004-03700-040350FM-12+008399999V0201401N000510042019N0500001N1+02531+02251101391ADDGF107991051051004501031001KA1240N+02231MA1999999100371MD1999999+0151REMSYN076AAXX  23124 82392 32499 71401 10253 20225 30037 40139 85530 333 20223 58015;
0182823920999992012052318004-03700-040350FM-12+008399999V0203201N000510042019N0500001N1+02461+02371101141ADDAA106003091AY121061AY211061GF108991071061004501011999MA1999999100111MD1999999+0431MW1021REMSYN082AAXX  23184 82392 21499 83201 10246 20237 30011 40114 70221 8761/ 333 58043 60031;
0232823920999992012052400004-03700-040350FM-12+008399999V0203601N001012200019N0040001N1+02381+02281101371ADDAA106000091AY151061AY251061GF104991031021004501011001KA1240M+02741MA1999999100341MD1999999+0241MW1021REMSYN100AAXX  24004 82392 21496 43602 10238 20228 30034 40137 70255 83210 333 10274 29092 55000 58024 69921;EQDQ01  00002PRCP06
0173823920999992012052412004-03700-040350FM-12+008399999V0200901N001012200019N0500001N1+02821+02151101361ADDAA124003091GF102991021011004501001001KA1240N+02091MA1999999100341MD1999999-0031REMSYN082AAXX  24124 82392 22499 20902 10282 20215 30034 40136 82100 333 20209 59003 60034;
0156823920999992012052418004-03700-040350FM-12+008399999V0200501N000519999999N0500001N1+03201+01861101031ADDGF106991999021004501001001MA1999999100011MD1999999-0101REMSYN070AAXX  24184 82392 32499 60501 10320 20186 30001 40103 83200 333 59010;EQDQ01+000032SCOTLC
0178823920999992012052500004-03700-040350FM-12+008399999V0200501N001012200019N0040001N1+02561+02251101281ADDGA1001+999999999GF100991001001999999001001KA1240M+03371MA1999999100261MD1999999-0081REMSYN082AAXX  25004 82392 32996 00502 10256 20225 30026 40128 333 10337 29070 55077 59008;
0156823920999992012052512004-03700-040350FM-12+008399999V0200501N001510450019N0500001N1+02801+01951101341ADDGF105991041041004501031001KA1240N+02301MA1999999100321MD1999999-0021REMSYN076AAXX  25124 82392 32499 50503 10280 20195 30032 40134 84430 333 20230 59002;
0137823920999992012052518004-03700-040350FM-12+008399999V0200501N002112200019N0500001N1+03481+01411100931ADDGF102991021011004501001001MA1999999099921MD1999999-0091REMSYN070AAXX  25184 82392 32499 20504 10348 20141 39992 40093 82100 333 59009;
0197823920999992012052600004-03700-040350FM-12+008399999V0203601N001012200019N0040001N1+02521+01931100012ADDGA1001+999999999GF100991001001999999001001KA1240M+03601MA1999999100141MD1999999-0121REMSYN082AAXX  26004 82392 32996 03602 10252 20193 30014 40001 333 10360 29057 55101 59012;EQDQ01+100013APOSLP
0156823920999992012052612004-03700-040350FM-12+008399999V0201401N001012200019N0500001N1+02761+01891101361ADDGF102991021011004501001001KA1240N+01911MA1999999100341MD1999999+0021REMSYN076AAXX  26124 82392 32499 21402 10276 20189 30034 40136 82100 333 20191 58002;
0137823920999992012052618004-03700-040350FM-12+008399999V0200901N000512200019N0500001N1+03461+01551100861ADDGF104991031021004501031001MA1999999099841MD1999999-0021REMSYN070AAXX  26184 82392 32499 40901 10346 20155 39984 40086 83230 333 59002;
0156823920999992012052712004-03700-040350FM-12+008399999V0200901N002110450019N0500001N1+02781+01911101371ADDGF106991041041004501031001KA1240N+02101MA1999999100351MD1999999+0011REMSYN076AAXX  27124 82392 32499 60904 10278 20191 30035 40137 84430 333 20210 58001;
0137823920999992012052718004-03700-040350FM-12+008399999V0200501N004110042019N0500001N1+03081+01951101041ADDGF106991051051004501031001MA1999999100021MD1999999+0181REMSYN070AAXX  27184 82392 32499 60508 10308 20195 30002 40104 85530 333 58018;
0168823920999992012052800004-03700-040350FM-12+008399999V0200501N003112200019N0500001N1+02661+02021101301ADDGF103991031001004501031001KA1240M+03381MA1999999100281MD1999999+0131REMSYN088AAXX  28004 82392 32499 30506 10266 20202 30028 40130 83030 333 10338 29062 55062 58013;
0156823920999992012052812004-03700-040350FM-12+008399999V0200901N001010042019N0500001N1+02801+02141101391ADDGF106991061041004501001001KA1240N+02251MA1999999100371MD1999999+0021REMSYN076AAXX  28124 82392 32499 60902 10280 20214 30037 40139 86400 333 20225 58002;
0137823920999992012052818004-03700-040350FM-12+008399999V0200901N002612200019N0500001N1+03491+01721100881ADDGF104991041021004501001001MA1999999099871MD1999999-0151REMSYN070AAXX  28184 82392 32499 40905 10349 20172 39987 40088 84200 333 59015;
0168823920999992012052900004-03700-040350FM-12+008399999V0203601N000512200019N0040001N1+02631+02001101281ADDGF104991041001008001011001KA1240M+03641MA1999999100261MD1999999-0021REMSYN088AAXX  29004 82392 32596 43601 10263 20200 30026 40128 84010 333 10364 29059 55092 59002;
0156823920999992012052912004-03700-040350FM-12+008399999V0200501N003112200019N0500001N1+02901+01871101341ADDGF101991011011004501001001KA1240N+02041MA1999999100321MD1999999-0051REMSYN076AAXX  29124 82392 32499 10506 10290 20187 30032 40134 81100 333 20204 59005;
0137823920999992012052918004-03700-040350FM-12+008399999V0200901N004112200019N0500001N1+03561+01131100901ADDGF101991011011004501001001MA1999999099881MD1999999+0111REMSYN070AAXX  29184 82392 32499 10908 10356 20113 39988 40090 81100 333 58011;
0178823920999992012053000004-03700-040350FM-12+008399999V0200501N003112200019N0040001N1+02621+01881101221ADDGA1001+999999999GF100991001001999999001001KA1240M+03661MA1999999100201MD1999999-0061REMSYN082AAXX  30004 82392 32996 00506 10262 20188 30020 40122 333 10366 29051 55107 59006;
0156823920999992012053012004-03700-040350FM-12+008399999V0200901N001011050019N0500001N1+02881+02031101361ADDGF106991031021004501001021KA1240N+02181MA1999999100341MD1999999+0021REMSYN076AAXX  30124 82392 32499 60902 10288 20203 30034 40136 83202 333 20218 58002;
0137823920999992012053018004-03700-040350FM-12+008399999V0200501N004111050019N0500001N1+03561+01531100821ADDGF105991031011004501001021MA1999999099811MD1999999-0071REMSYN070AAXX  30184 82392 32499 50508 10356 20153 39981 40082 83102 333 59007;
0168823920999992012053100004-03700-040350FM-12+008399999V0203601N001012200019N0040001N1+02591+02061101191ADDGF104991011011004501001011KA1240M+03611MA1999999100171MD1999999-0031REMSYN088AAXX  31004 82392 32496 43602 10259 20206 30017 40119 81101 333 10361 29059 55107 59003;
0156823920999992012053112004-03700-040350FM-12+008399999V0201401N002112200019N0500001N1+02861+01781101511ADDGF101991011011004501001001KA1240N+01981MA1999999100481MD1999999+0141REMSYN076AAXX  31124 82392 32499 11404 10286 20178 30048 40151 81100 333 20198 58014;
0137823920999992012053118004-03700-040350FM-12+008399999V0203601N001012200019N0500001N1+03561+01251100961ADDGF104991031011004501001011MA1999999099951MD1999999+0141REMSYN070AAXX  31184 82392 32499 43602 10356 20125 39995 40096 83101 333 58014;
0168823920999992012060100004-03700-040350FM-12+008399999V0200501N001012200019N0040001N1+02761+01721101241ADDGF104991021011004501031001KA1240M+03721MA1999999100221MD1999999+0021REMSYN088AAXX  01004 82392 32496 40502 10276 20172 30022 40124 82130 333 10372 29046 55096 58002;
0156823920999992012060112004-03700-040350FM-12+008399999V0200901N001010042019N0500001N1+02811+02171101591ADDGF106991061041004501001001KA1240N+02201MA1999999100561MD1999999+0081REMSYN076AAXX  01124 82392 32499 60902 10281 20217 30056 40159 86400 333 20220 58008;
0137823920999992012060118004-03700-040350FM-12+008399999V0202301N000510042019N0500001N1+03391+01811100981ADDGF106991051021004501011001MA1999999099971MD1999999+0021REMSYN070AAXX  01184 82392 32499 62301 10339 20181 39997 40098 85210 333 58002;
0168823920999992012060200004-03700-040350FM-12+008399999V0203601N001010450019N0040001N1+02741+02101101391ADDGF106991021021004501031001KA1240M+03531MA1999999100371MD1999999+0151REMSYN088AAXX  02004 82392 32496 63602 10274 20210 30037 40139 82230 333 10353 29061 55077 58015;
0156823920999992012060212004-03700-040350FM-12+008399999V0200901N001510450019N0500001N1+02841+02121101431ADDGF107991041041004501031001KA1240N+02351MA1999999100411MD1999999-0151REMSYN076AAXX  02124 82392 32499 70903 10284 20212 30041 40143 84430 333 20235 59015;
0137823920999992012060218004-03700-040350FM-12+008399999V0201401N000510450019N0500001N1+03411+01651100911ADDGF107991021011004501031001MA1999999099901MD1999999-0071REMSYN070AAXX  02184 82392 32499 71401 10341 20165 39990 40091 82130 333 59007;
0168823920999992012060300004-03700-040350FM-12+008399999V0200901N001010450019N0040001N1+02681+02111101331ADDGF106991021021004501031001KA1240M+03491MA1999999100311MD1999999-0061REMSYN088AAXX  03004 82392 32496 60902 10268 20211 30031 40133 82230 333 10349 29061 55049 59006;
0156823920999992012060312004-03700-040350FM-12+008399999V0201401N002610450019N0500001N1+02811+02171101441ADDGF106991041041004501031001KA1240N+02361MA1999999100421MD1999999+0011REMSYN076AAXX  03124 82392 32499 61405 10281 20217 30042 40144 84430 333 20236 58001;
0137823920999992012060318004-03700-040350FM-12+008399999V0203601N004110450019N0500001N1+02891+02201100991ADDGF107991041061004501031001MA1999999099971MD1999999+0071REMSYN070AAXX  03184 82392 32499 73608 10289 20220 39997 40099 84630 333 58007;
0168823920999992012060400004-03700-040350FM-12+008399999V0203601N000512200019N0040001N1+02541+02171101301ADDGF105991011021004501031091KA1240M+03441MA1999999100281MD1999999-0031REMSYN088AAXX  04004 82392 32496 53601 10254 20217 30028 40130 81239 333 10344 29074 55040 59003;
0156823920999992012060412004-03700-040350FM-12+008399999V0203201N001012200019N0500001N1+02861+01931101521ADDGF101991011011004501001001KA1240N+02121MA1999999100491MD1999999+0071REMSYN076AAXX  04124 82392 32499 13202 10286 20193 30049 40152 81100 333 20212 58007;
0137823920999992012060418004-03700-040350FM-12+008399999V0200501N005110450019N0500001N1+03241+01581101081ADDGF106991041041004501031001MA1999999100061MD1999999+0091REMSYN070AAXX  04184 82392 32499 60510 10324 20158 30006 40108 84430 333 58009;
0178823920999992012060500004-03700-040350FM-12+008399999V0200501N005112200019N0040001N1+02601+01941101271ADDGA1001+999999999GF100991001001999999001001KA1240M+03401MA1999999100251MD1999999-0031REMSYN082AAXX  05004 82392 32996 00510 10260 20194 30025 40127 333 10340 29056 55074 59003;
0156823920999992012060512004-03700-040350FM-12+008399999V0200901N001010042019N0500001N1+02771+02161101441ADDGF106991061021004501001001KA1240N+01911MA1999999100421MD1999999-0071REMSYN076AAXX  05124 82392 32499 60902 10277 20216 30042 40144 86200 333 20191 59007;
0137823920999992012060518004-03700-040350FM-12+008399999V0200901N000510450019N0500001N1+03231+01781101071ADDGF107991041071004501031001MA1999999100051MD1999999-0011REMSYN070AAXX  05184 82392 32499 70901 10323 20178 30005 40107 84730 333 59001;
0168823920999992012060600004-03700-040350FM-12+008399999V0200501N002112200019N0040001N1+02611+02121101381ADDGF102991021001008001031001KA1240M+03431MA1999999100361MD1999999+0111REMSYN088AAXX  06004 82392 32596 20504 10261 20212 30036 40138 82030 333 10343 29065 55046 58011;
0156823920999992012060612004-03700-040350FM-12+008399999V0200901N003112200019N0500001N1+02901+02041101321ADDGF102991021011004501001001KA1240N+02101MA1999999100301MD1999999-0121REMSYN076AAXX  06124 82392 32499 20906 10290 20204 30030 40132 82100 333 20210 59012;
0137823920999992012060618004-03700-040350FM-12+008399999V0200501N004112200019N0500001N1+03601+01721100911ADDGF104991041021004501001001MA1999999099901MD1999999-0151REMSYN070AAXX  06184 82392 32499 40508 10360 20172 39990 40091 84200 333 59015;
0178823920999992012060700004-03700-040350FM-12+008399999V0200501N003112200019N0040001N1+02701+02131101221ADDGA1001+999999999GF100991001001999999001001KA1240M+03701MA1999999100201MD1999999-0161REMSYN082AAXX  07004 82392 32996 00506 10270 20213 30020 40122 333 10370 29059 55099 59016;
0156823920999992012060712004-03700-040350FM-12+008399999V0201401N001010450019N0500001N1+02991+02191101271ADDGF105991031021004501031001KA1240N+02191MA1999999100261MD1999999-0041REMSYN076AAXX  07124 82392 32499 51402 10299 20219 30026 40127 83230 333 20219 59004;
0137823920999992012060718004-03700-040350FM-12+008399999V0200501N003110450019N0500001N1+03481+01881100801ADDGF106991041061004501031001MA1999999099791MD1999999-0111REMSYN070AAXX  07184 82392 32499 60506 10348 20188 39979 40080 84630 333 59011;
0168823920999992012060800004-03700-040350FM-12+008399999V0203601N001012200019N0040001N1+02671+02041101141ADDGF101991011001008001031001KA1240M+03661MA1999999100121MD1999999-0081REMSYN088AAXX  08004 82392 32596 13602 10267 20204 30012 40114 81030 333 10366 29059 55070 59008;
0156823920999992012060812004-03700-040350FM-12+008399999V0201801N002112200019N0500001N1+02821+02021101241ADDGF104991041021004501001001KA1240N+02201MA1999999100221MD1999999-0041REMSYN076AAXX  08124 82392 32499 41804 10282 20202 30022 40124 84200 333 20220 59004;
0137823920999992012060818004-03700-040350FM-12+008399999V0200901N001510042019N0500001N1+03301+01871100821ADDGF106991061021004501001001MA1999999099801MD1999999+0011REMSYN070AAXX  08184 82392 32499 60903 10330 20187 39980 40082 86200 333 58001;
0168823920999992012060900004-03700-040350FM-12+008399999V0200501N004110450019N0040001N1+02761+02211101061ADDGF106991041051004501031001KA1240M+03361MA1999999100041MD1999999-0081REMSYN088AAXX  09004 82392 32496 60508 10276 20221 30004 40106 84530 333 10336 29062 55038 59008;
0156823920999992012060912004-03700-040350FM-12+008399999V0200901N004112200019N0500001N1+02781+01911101221ADDGF103991031021004501001001KA1240N+02231MA1999999100201MD1999999-0021REMSYN076AAXX  09124 82392 32499 30908 10278 20191 30020 40122 83200 333 20223 59002;
0137823920999992012060918004-03700-040350FM-12+008399999V0200901N003112200019N0500001N1+03441+01761100811ADDGF104991031021004501031001MA1999999099801MD1999999+0001REMSYN070AAXX  09184 82392 32499 40906 10344 20176 39980 40081 83230 333 58000;
0178823920999992012061000004-03700-040350FM-12+008399999V0200501N001012200019N0040001N1+02741+02171101101ADDGA1001+999999999GF100991001001999999001001KA1240M+03561MA1999999100081MD1999999+0041REMSYN082AAXX  10004 82392 32996 00502 10274 20217 30008 40110 333 10356 29060 55070 58004;
0156823920999992012061012004-03700-040350FM-12+008399999V0200901N004612200019N0500001N1+02921+01981101221ADDGF101991011011004501001001KA1240N+02141MA1999999100201MD1999999+0001REMSYN076AAXX  10124 82392 32499 10909 10292 20198 30020 40122 81100 333 20214 58000;
0137823920999992012061018004-03700-040350FM-12+008399999V0202301N000512200019N0500001N1+03581+01701100831ADDGF102991021011004501001001MA1999999099821MD1999999+0021REMSYN070AAXX  10184 82392 32499 22301 10358 20170 39982 40083 82100 333 58002;
0168823920999992012061100004-03700-040350FM-12+008399999V0200501N000512200019N0040001N1+02701+01991101171ADDGF104991031011004501031001KA1240M+03681MA1999999100151MD1999999+0071REMSYN088AAXX  11004 82392 32496 40501 10270 20199 30015 40117 83130 333 10368 29055 55091 58007;
0191823920999992012061112004-03700-040350FM-12+008399999V0200501N002119999999N0500001N1+02841+02061101341ADDGF106991999021004501001001KA1240N+02061MA1999999999999MD1999999+0151REMSYN076AAXX  11124 82392 32499 60504 10284 20206 30335 40134 83200 333 20206 58015;EQDQ01+000032SCOTLCQ02 103353APOSP 
0172823920999992012061118004-03700-040350FM-12+008399999V0200901N000519999999N0500001N1+03471+01661100761ADDGF105991999021004501001001MA1999999099752MD1999999-0071REMSYN070AAXX  11184 82392 32499 50901 10347 20166 39975 40076 83200 333 59007;EQDQ01+000032SCOTLCQ02+099753APOSP 
0178823920999992012061200004-03700-040350FM-12+008399999V0203601N002612200019N0040001N1+02621+02051101111ADDGA1001+999999999GF100991001001999999001001KA1240M+03631MA1999999100091MD1999999+0061REMSYN082AAXX  12004 82392 32996 03605 10262 20205 30009 40111 333 10363 29060 55099 58006;
0156823920999992012061212004-03700-040350FM-12+008399999V0200501N004112200019N0500001N1+02861+02011101341ADDGF104991031011004501031001KA1240N+02091MA1999999100321MD1999999-0031REMSYN076AAXX  12124 82392 32499 40508 10286 20201 30032 40134 83130 333 20209 59003;
0156823920999992012061218004-03700-040350FM-12+008399999V0200901N004112200019N0500001N1+03381+01951100871ADDGF102991999011004501001001MA1999999099851MD1999999+0101REMSYN070AAXX  12184 82392 32499 20908 10338 20195 39985 40087 83100 333 58010;EQDQ01+000032SCOTLC
0178823920999992012061300004-03700-040350FM-12+008399999V0200501N003112200019N0040001N1+02641+02071101091ADDGA1001+999999999GF100991001001999999001001KA1240M+03461MA1999999100071MD1999999-0021REMSYN082AAXX  13004 82392 32996 00506 10264 20207 30007 40109 333 10346 29061 55070 59002;
0156823920999992012061312004-03700-040350FM-12+008399999V0200901N001010042019N0500001N1+02811+02071101341ADDGF106991051021004501031001KA1240N+02131MA1999999100321MD1999999+0001REMSYN076AAXX  13124 82392 32499 60902 10281 20207 30032 40134 85230 333 20213 58000;
0137823920999992012061318004-03700-040350FM-12+008399999V0200901N003112200019N0500001N1+03511+01601100831ADDGF104991041021004501001001MA1999999099821MD1999999-0031REMSYN070AAXX  13184 82392 32499 40906 10351 20160 39982 40083 84200 333 59003;
0178823920999992012061400004-03700-040350FM-12+008399999V0203601N002612200019N0040001N1+02631+02031101151ADDGA1001+999999999GF100991001001999999001001KA1240M+03631MA1999999100131MD1999999+0061REMSYN082AAXX  14004 82392 32996 03605 10263 20203 30013 40115 333 10363 29059 55081 58006;
0175823920999992012061412004-03700-040350FM-12+008399999V0200901N004119999999N0500001N1+02841+02041101221ADDGF105991999021004501001001KA1240N+02121MA1999999100201MD1999999-0121REMSYN076AAXX  14124 82392 32499 50908 10284 20204 30020 40122 83200 333 20212 59012;EQDQ01+000032SCOTLC
0137823920999992012061418004-03700-040350FM-12+008399999V0200501N002610450019N0500001N1+03561+01531100771ADDGF105991041021004501031001MA1999999099761MD1999999-0061REMSYN070AAXX  14184 82392 32499 50505 10356 20153 39976 40077 84230 333 59006;
0178823920999992012061500004-03700-040350FM-12+008399999V0200501N005112200019N0040001N1+02781+01981101171ADDGA1001+999999999GF100991001001999999001001KA1240M+03681MA1999999100151MD1999999+0021REMSYN082AAXX  15004 82392 32996 00510 10278 20198 30015 40117 333 10368 29054 55084 58002;
0156823920999992012061512004-03700-040350FM-12+008399999V0200901N002110450019N0500001N1+02891+01961101331ADDGF105991031021004501011001KA1240N+02181MA1999999100311MD1999999+0111REMSYN076AAXX  15124 82392 32499 50904 10289 20196 30031 40133 83210 333 20218 58011;
0137823920999992012061518004-03700-040350FM-12+008399999V0201801N001012200019N0500001N1+03501+01581100801ADDGF104991031021004501001011MA1999999099791MD1999999+0031REMSYN070AAXX  15184 82392 32499 41802 10350 20158 39979 40080 83201 333 58003;
0178823920999992012061600004-03700-040350FM-12+008399999V0200501N000512200019N0040001N1+02671+01761101201ADDGA1001+999999999GF100991001001999999001001KA1240M+03581MA1999999100181MD1999999+0031REMSYN082AAXX  16004 82392 32996 00501 10267 20176 30018 40120 333 10358 29051 55091 58003;
0137823920999992012061618004-03700-040350FM-12+008399999V0200501N000510450019N0500001N1+03421+01471101021ADDGF106991021021004501031001MA1999999100001MD1999999+0211REMSYN070AAXX  16184 82392 32499 60501 10342 20147 30000 40102 82230 333 58021;
0168823920999992012061700004-03700-040350FM-12+008399999V0203601N001012200019N0040001N1+02661+02091101301ADDGF104991011011004501031001KA1240M+03501MA1999999100281MD1999999+0101REMSYN088AAXX  17004 82392 32496 43602 10266 20209 30028 40130 81130 333 10350 29058 55059 58010;
0156823920999992012061712004-03700-040350FM-12+008399999V0201401N000510042019N0500001N1+02781+02161101481ADDGF106991051041004501031001KA1240N+02271MA1999999100451MD1999999+0021REMSYN076AAXX  17124 82392 32499 61401 10278 20216 30045 40148 85430 333 20227 58002;
0137823920999992012061718004-03700-040350FM-12+008399999V0200501N003110450019N0500001N1+03191+02061101011ADDGF106991041041004501031001MA1999999099991MD1999999-0011REMSYN070AAXX  17184 82392 32499 60506 10319 20206 39999 40101 84430 333 59001;
0178823920999992012061800004-03700-040350FM-12+008399999V0203601N001012200019N0040001N1+02611+02051101231ADDGA1001+999999999GF100991001001999999001001KA1240M+03641MA1999999100211MD1999999-0071REMSYN082AAXX  18004 82392 32996 03602 10261 20205 30021 40123 333 10364 29066 55077 59007;
0156823920999992012061812004-03700-040350FM-12+008399999V0201401N001010450019N0500001N1+02701+02131101371ADDGF107991031051004501031001KA1240N+02001MA1999999100351MD1999999-0101REMSYN076AAXX  18124 82392 32499 71402 10270 20213 30035 40137 83530 333 20200 59010;
0137823920999992012061818004-03700-040350FM-12+008399999V0200501N001012200019N0500001N1+03501+01771100951ADDGF104991021011004501031001MA1999999099941MD1999999-0051REMSYN070AAXX  18184 82392 32499 40502 10350 20177 39994 40095 82130 333 59005;
0178823920999992012061900004-03700-040350FM-12+008399999V0200501N004112200019N0040001N1+02661+02181101261ADDGA1001+999999999GF100991001001999999001001KA1240M+03601MA1999999100241MD1999999+0031REMSYN082AAXX  19004 82392 32996 00508 10266 20218 30024 40126 333 10360 29064 55088 58003;
0175823920999992012061912004-03700-040350FM-12+008399999V0200901N000510042019N0500001N1+02741+02191101401ADDGF107991999061004501001001KA1240N+02211MA1999999100381MD1999999+0031REMSYN076AAXX  19124 82392 32499 70901 10274 20219 30038 40140 86600 333 20221 58003;EQDQ01+000062SCOTLC
0137823920999992012061918004-03700-040350FM-12+008399999V0200901N000510450019N0500001N1+03301+01981100951ADDGF105991021021004501031001MA1999999099941MD1999999+0001REMSYN070AAXX  19184 82392 32499 50901 10330 20198 39994 40095 82230 333 58000;
0168823920999992012062000004-03700-040350FM-12+008399999V0203601N001012200019N0040001N1+02611+02231101281ADDGF101991011011004501001001KA1240M+03451MA1999999100261MD1999999+0021REMSYN088AAXX  20004 82392 32496 13602 10261 20223 30026 40128 81100 333 10345 29069 55063 58002;
0156823920999992012062012004-03700-040350FM-12+008399999V0200901N003112200019N0500001N1+02781+01911101401ADDGF104991041021004501001001KA1240N+02201MA1999999100381MD1999999+0001REMSYN076AAXX  20124 82392 32499 40906 10278 20191 30038 40140 84200 333 20220 58000;
0156823920999992012062018004-03700-040350FM-12+008399999V0200901N004619999999N0500001N1+03361+01811100991ADDGF105991999021004501001001MA1999999099971MD1999999+0031REMSYN070AAXX  20184 82392 32499 50909 10336 20181 39997 40099 84200 333 58003;EQDQ01+000042SCOTLC
0178823920999992012062100004-03700-040350FM-12+008399999V0200501N003112200019N0040001N1+02621+02051101221ADDGA1001+999999999GF100991001001999999001001KA1240M+03481MA1999999100201MD1999999-0061REMSYN082AAXX  21004 82392 32996 00506 10262 20205 30020 40122 333 10348 29060 55063 59006;
0156823920999992012062112004-03700-040350FM-12+008399999V0201401N003112200019N0500001N1+02781+01981101271ADDGF104991021011004501031001KA1240N+02101MA1999999100251MD1999999-0131REMSYN076AAXX  21124 82392 32499 41406 10278 20198 30025 40127 82130 333 20210 59013;
0137823920999992012062118004-03700-040350FM-12+008399999V0201401N003110450019N0500001N1+03641+01601100761ADDGF105991041041004501031001MA1999999099751MD1999999-0221REMSYN070AAXX  21184 82392 32499 51406 10364 20160 39975 40076 84430 333 59022;
0178823920999992012062200004-03700-040350FM-12+008399999V0200501N004112200019N0040001N1+02621+02141101121ADDGA1001+999999999GF100991001001999999001001KA1240M+03781MA1999999100101MD1999999-0101REMSYN082AAXX  22004 82392 32996 00508 10262 20214 30010 40112 333 10378 29061 55087 59010;
0156823920999992012062212004-03700-040350FM-12+008399999V0200901N003110450019N0500001N1+02881+02031101321ADDGF106991031021004501031001KA1240N+02441MA1999999100301MD1999999+0051REMSYN076AAXX  22124 82392 32499 60906 10288 20203 30030 40132 83230 333 20244 58005;
0137823920999992012062218004-03700-040350FM-12+008399999V0203601N005110450019N0500001N1+03121+02191101061ADDGF105991031041004501031001MA1999999100041MD1999999+0291REMSYN070AAXX  22184 82392 32499 53610 10312 20219 30004 40106 83430 333 58029;
0168823920999992012062300004-03700-040350FM-12+008399999V0200501N001010450019N0040001N1+02481+02131100941ADDGF108991031071004501021999KA1240M+03501MA1999999099921MD1999999-0181REMSYN088AAXX  23004 82392 32496 80502 10248 20213 39992 40094 8372/ 333 10350 29070 55059 59018;
0220823920999992012062312004-03700-040350FM-12+008399999V0200501N000510450019N0500001N1+02821+02171101611ADDAA124000091AY151061AY251061GF106991041041004501031001KA1240N+02181MA1999999100581MD1999999+0281MW1021REMSYN088AAXX  23124 82392 21499 60501 10282 20217 30058 40161 70255 84430 333 20218 58028 69914;EQDQ01  00002PRCP24
0137823920999992012062318004-03700-040350FM-12+008399999V0200501N000512200019N0500001N1+03361+01891101121ADDGF104991041021004501001001MA1999999100101MD1999999+0061REMSYN070AAXX  23184 82392 32499 40501 10336 20189 30010 40112 84200 333 58006;
0168823920999992012062400004-03700-040350FM-12+008399999V0203601N000512200019N0040001N1+02621+02121101541ADDGF102991021021004501001001KA1240M+03561MA1999999100511MD1999999+0591REMSYN088AAXX  24004 82392 32496 23601 10262 20212 30051 40154 82200 333 10356 29065 55091 58059;
0156823920999992012062412004-03700-040350FM-12+008399999V0200901N004610450019N0500001N1+02741+02101101581ADDGF107991031051004501031001KA1240N+02131MA1999999100551MD1999999-0031REMSYN076AAXX  24124 82392 32499 70909 10274 20210 30055 40158 83530 333 20213 59003;
0137823920999992012062418004-03700-040350FM-12+008399999V0200901N003112200019N0500001N1+03461+01731101061ADDGF103991031021004501001001MA1999999100051MD1999999-0051REMSYN070AAXX  24184 82392 32499 30906 10346 20173 30005 40106 83200 333 59005;
0168823920999992012062500004-03700-040350FM-12+008399999V0200501N005112200019N0040001N1+02601+02101101271ADDGF104991021011004501031001KA1240M+03571MA1999999100251MD1999999-0261REMSYN088AAXX  25004 82392 32496 40510 10260 20210 30025 40127 82130 333 10357 29063 55074 59026;
0156823920999992012062512004-03700-040350FM-12+008399999V0200501N001012200019N0500001N1+02791+02131101391ADDGF104991041021004501001001KA1240N+02181MA1999999100371MD1999999-0181REMSYN076AAXX  25124 82392 32499 40502 10279 20213 30037 40139 84200 333 20218 59018;
0137823920999992012062518004-03700-040350FM-12+008399999V0201801N001010042019N0500001N1+03441+01671100931ADDGF106991061021004501001001MA1999999099921MD1999999-0131REMSYN070AAXX  25184 82392 32499 61802 10344 20167 39992 40093 86200 333 59013;
0168823920999992012062600004-03700-040350FM-12+008399999V0203601N000510450019N0040001N1+02671+02111101331ADDGF105991021021004501031001KA1240M+03511MA1999999100311MD1999999+0061REMSYN088AAXX  26004 82392 32496 53601 10267 20211 30031 40133 82230 333 10351 29061 55095 58006;
0156823920999992012062612004-03700-040350FM-12+008399999V0200901N005112200019N0500001N1+02821+01921101491ADDGF104991041021004501001001KA1240N+02181MA1999999100461MD1999999+0091REMSYN076AAXX  26124 82392 32499 40910 10282 20192 30046 40149 84200 333 20218 58009;
0137823920999992012062618004-03700-040350FM-12+008399999V0202301N001012200019N0500001N1+03521+01701101011ADDGF103991031011004501001001MA1999999100001MD1999999+0081REMSYN070AAXX  26184 82392 32499 32302 10352 20170 30000 40101 83100 333 58008;
0168823920999992012062700004-03700-040350FM-12+008399999V0200501N005112200019N0040001N1+02781+02161101321ADDGF104991021011004501031001KA1240M+03621MA1999999100301MD1999999-0011REMSYN088AAXX  27004 82392 32496 40510 10278 20216 30030 40132 82130 333 10362 29058 55091 59001;
0156823920999992012062712004-03700-040350FM-12+008399999V0201801N000510042019N0500001N1+02861+01951101491ADDGF105991051021004501001001KA1240N+02081MA1999999100461MD1999999+0001REMSYN076AAXX  27124 82392 32499 51801 10286 20195 30046 40149 85200 333 20208 58000;
0137823920999992012062718004-03700-040350FM-12+008399999V0201401N000512200019N0500001N1+03391+01771101051ADDGF104991041021004501001001MA1999999100031MD1999999+0031REMSYN070AAXX  27184 82392 32499 41401 10339 20177 30003 40105 84200 333 58003;
0168823920999992012062800004-03700-040350FM-12+008399999V0200501N000512200019N0040001N1+02691+01961101351ADDGF101991011001008001031001KA1240M+03561MA1999999100331MD1999999+0031REMSYN088AAXX  28004 82392 32596 10501 10269 20196 30033 40135 81030 333 10356 29056 55086 58003;
0156823920999992012062812004-03700-040350FM-12+008399999V0201401N003110450019N0500001N1+02821+01861101531ADDGF105991031021004501031001KA1240N+02001MA1999999100501MD1999999+0041REMSYN076AAXX  28124 82392 32499 51406 10282 20186 30050 40153 83230 333 20200 58004;
0137823920999992012062818004-03700-040350FM-12+008399999V0201401N004612200019N0500001N1+03401+01811101121ADDGF104991041041004501001001MA1999999100101MD1999999+0071REMSYN070AAXX  28184 82392 32499 41409 10340 20181 30010 40112 84400 333 58007;
0168823920999992012062900004-03700-040350FM-12+008399999V0200501N004112200019N0040001N1+02741+02001101371ADDGF102991021001008001031001KA1240M+03451MA1999999100351MD1999999+0021REMSYN088AAXX  29004 82392 32596 20508 10274 20200 30035 40137 82030 333 10345 29056 55062 58002;
0156823920999992012062912004-03700-040350FM-12+008399999V0201401N001512200019N0500001N1+02931+01881101441ADDGF102991021011004501001001KA1240N+02151MA1999999100421MD1999999-0081REMSYN076AAXX  29124 82392 32499 21403 10293 20188 30042 40144 82100 333 20215 59008;
0137823920999992012062918004-03700-040350FM-12+008399999V0201801N000510450019N0500001N1+03461+01601100941ADDGF106991041021004501031001MA1999999099931MD1999999-0171REMSYN070AAXX  29184 82392 32499 61801 10346 20160 39993 40094 84230 333 59017;
0168823920999992012063000004-03700-040350FM-12+008399999V0200501N000510450019N0040001N1+02711+02101101241ADDGF107991011011004501031001KA1240M+03541MA1999999100221MD1999999-0131REMSYN088AAXX  30004 82392 32496 70501 10271 20210 30022 40124 81130 333 10354 29056 55084 59013;
0156823920999992012063012004-03700-040350FM-12+008399999V0200901N002112200019N0500001N1+02841+01851101341ADDGF104991041011004501001001KA1240N+02211MA1999999100321MD1999999-0101REMSYN076AAXX  30124 82392 32499 40904 10284 20185 30032 40134 84100 333 20221 59010;
0137823920999992012063018004-03700-040350FM-12+008399999V0200901N001012200019N0500001N1+03591+01221100821ADDGF101991011011004501001001MA1999999099811MD1999999-0121REMSYN070AAXX  30184 82392 32499 10902 10359 20122 39981 40082 81100 333 59012;
0168823920999992012070100004-03700-040350FM-12+008399999V0203601N000512200019N0040001N1+02641+01851101251ADDGF102991021001008001031001KA1240M+03641MA1999999100231MD1999999+0011REMSYN088AAXX  01004 82392 32596 23601 10264 20185 30023 40125 82030 333 10364 29051 55108 58001;
0156823920999992012070112004-03700-040350FM-12+008399999V0201801N000512200019N0500001N1+02941+01911101201ADDGF102991021011004501001001KA1240N+02041MA1999999100281MD1999999-0041REMSYN076AAXX  01124 82392 32499 21801 10294 20191 30028 40120 82100 333 20204 59004;
0168823920999992012070200004-03700-040350FM-12+008399999V0203601N001012200019N0040001N1+02681+01781101171ADDGF102991011011004501031001KA1240M+03601MA1999999100151MD1999999-0081REMSYN088AAXX  02004 82392 32496 23602 10268 20178 30015 40117 81130 333 10360 29057 55099 59008;
0156823920999992012070212004-03700-040350FM-12+008399999V0201801N001010450019N0500001N1+02731+02001101351ADDGF106991041021004501031001KA1240N+02071MA1999999100331MD1999999+0051REMSYN076AAXX  02124 82392 32499 61802 10273 20200 30033 40135 84230 333 20207 58005;
0168823920999992012070300004-03700-040350FM-12+008399999V0203601N000512200019N0040001N1+02681+02111101231ADDGF104991041001008001031001KA1240M+03441MA1999999100211MD1999999+0061REMSYN088AAXX  03004 82392 32596 43601 10268 20211 30021 40123 84030 333 10344 29069 55064 58006;
0156823920999992012070312004-03700-040350FM-12+008399999V0201401N000510042019N0500001N1+02871+01891101351ADDGF106991051021004501031081KA1240N+02181MA1999999100331MD1999999+0001REMSYN076AAXX  03124 82392 32499 61401 10287 20189 30033 40135 85238 333 20218 58000;
0168823920999992012070400004-03700-040350FM-12+008399999V0200501N000512200019N0040001N1+02781+01731101131ADDGF101991011001008001031001KA1240M+03401MA1999999100111MD1999999-0101REMSYN088AAXX  04004 82392 32596 10501 10278 20173 30011 40113 81030 333 10340 29054 55055 59010;
0156823920999992012070412004-03700-040350FM-12+008399999V0201401N001010450019N0500001N1+02811+02021101221ADDGF106991031021004501031001KA1240N+02351MA1999999100201MD1999999-0131REMSYN076AAXX  04124 82392 32499 61402 10281 20202 30020 40122 83230 333 20235 59013;
0168823920999992012070500004-03700-040350FM-12+008399999V0203601N000510450019N0040001N1+02631+01931101021ADDGF106991021021004501031001KA1240M+03531MA1999999100001MD1999999-0111REMSYN088AAXX  05004 82392 32496 63601 10263 20193 30000 40102 82230 333 10353 29064 55050 59011;
0156823920999992012070512004-03700-040350FM-12+008399999V0201401N001010450019N0040001N1+02831+01761101121ADDGF106991021021004501031001KA1240N+02361MA1999999100101MD1999999-0101REMSYN076AAXX  05124 82392 32496 61402 10283 20176 30010 40112 82230 333 20236 59010;
0168823920999992012070600004-03700-040350FM-12+008399999V0203601N000512200019N0040001N1+02611+01761101061ADDGF101991011001008001031001KA1240M+03571MA1999999100041MD1999999+0041REMSYN088AAXX  06004 82392 32596 13601 10261 20176 30004 40106 81030 333 10357 29057 55085 58004;
0156823920999992012070612004-03700-040350FM-12+008399999V0200901N001012200019N0500001N1+02861+01841101151ADDGF102991021011004501001001KA1240N+02011MA1999999100131MD1999999+0031REMSYN076AAXX  06124 82392 32499 20902 10286 20184 30013 40115 82100 333 20201 58003;
0168823920999992012070700004-03700-040350FM-12+008399999V0203601N001012200019N0040001N1+02711+02001101011ADDGF103991031001008001031001KA1240M+03571MA1999999099991MD1999999-0051REMSYN088AAXX  07004 82392 32596 33602 10271 20200 39999 40101 83030 333 10357 29061 55092 59005;
0156823920999992012070712004-03700-040350FM-12+008399999V0200901N002110450019N0500001N1+02891+02041101221ADDGF106991041021004501031001KA1240N+02211MA1999999100201MD1999999+0071REMSYN076AAXX  07124 82392 32499 60904 10289 20204 30020 40122 84230 333 20221 58007;
0168823920999992012070800004-03700-040350FM-12+008399999V0203601N001010450019N0040001N1+02811+02051101231ADDGF106991021021004501031001KA1240M+03411MA1999999100221MD1999999+0231REMSYN088AAXX  08004 82392 32496 63602 10281 20205 30022 40123 82230 333 10341 29062 55033 58023;
0156823920999992012070812004-03700-040350FM-12+008399999V0200901N001010450019N0500001N1+02911+02061101211ADDGF106991031021004501031001KA1240N+02081MA1999999100201MD1999999+0001REMSYN076AAXX  08124 82392 32499 60902 10291 20206 30020 40121 83230 333 20208 58000;
0168823920999992012070900004-03700-040350FM-12+008399999V0203601N001512200019N0040001N1+02711+02001101041ADDGF103991031001008001031001KA1240M+03541MA1999999100021MD1999999-0201REMSYN088AAXX  09004 82392 32596 33603 10271 20200 30002 40104 83030 333 10354 29063 55046 59020;
0156823920999992012070912004-03700-040350FM-12+008399999V0200901N001010450019N0500001N1+02931+02001101211ADDGF105991021021004501031001KA1240N+02361MA1999999100191MD1999999-0011REMSYN076AAXX  09124 82392 32499 50902 10293 20200 30019 40121 82230 333 20236 59001;
0178823920999992012071000004-03700-040350FM-12+008399999V0200501N001012200019N0040001N1+02651+02161101001ADDGA1001+999999999GF100991001001999999001001KA1240M+03681MA1999999099981MD1999999-0041REMSYN082AAXX  10004 82392 32496 00502 10265 20216 39998 40100 333 10368 29068 55099 59004;
0156823920999992012071012004-03700-040350FM-12+008399999V0200901N000510450019N0500001N1+02731+02021101231ADDGF106991041021004501031001KA1240N+02321MA1999999100211MD1999999+0021REMSYN076AAXX  10124 82392 32499 60901 10273 20202 30021 40123 84230 333 20232 58002;
0178823920999992012071100004-03700-040350FM-12+008399999V0203601N001012200019N0040001N1+02651+01971101031ADDGA1001+999999999GF100991001001999999001001KA1240M+03581MA1999999100011MD1999999+0031REMSYN082AAXX  11004 82392 32996 03602 10265 20197 30001 40103 333 10358 29066 55080 58003;
0156823920999992012071112004-03700-040350FM-12+008399999V0200901N001510450019N0500001N1+02881+01861101191ADDGF106991041011004501011001KA1240N+02141MA1999999100171MD1999999-0041REMSYN076AAXX  11124 82392 32499 60903 10288 20186 30017 40119 84110 333 20214 59004;
0178823920999992012071200004-03700-040350FM-12+008399999V0203601N001512200019N0040001N1+02661+01901100941ADDGA1001+999999999GF100991001001999999001001KA1240M+03561MA1999999099921MD1999999-0091REMSYN082AAXX  12004 82392 32996 03603 10266 20190 39992 40094 333 10356 29061 55104 59009;
0156823920999992012071212004-03700-040350FM-12+008399999V0200901N001510450019N0500001N1+02821+01941101141ADDGF105991031021004501031001KA1240N+02011MA1999999100121MD1999999-0051REMSYN076AAXX  12124 82392 32499 50903 10282 20194 30012 40114 83230 333 20201 59005;
0168823920999992012071300004-03700-040350FM-12+008399999V0203601N001012200019N0040001N1+02691+02031101061ADDGF103991031001004501031001KA1240M+02691MA1999999100041MD1999999+0121REMSYN088AAXX  13004 82392 32496 33602 10269 20203 30004 40106 83030 333 10269 29064 55082 58012;
0156823920999992012071312004-03700-040350FM-12+008399999V0209999C000010450019N0500001N1+02851+02141101351ADDGF106991031021004501031001KA1240N+02441MA1999999100331MD1999999+0211REMSYN076AAXX  13124 82392 32499 60900 10285 20214 30033 40135 83230 333 20244 58021;
0168823920999992012071400004-03700-040350FM-12+008399999V0209999C000012200019N0040001N1+02531+02091101271ADDGF103991031001008001031001KA1240M+03661MA1999999100251MD1999999+0211REMSYN088AAXX  14004 82392 32596 32300 10253 20209 30025 40127 83030 333 10366 29072 55060 58021;
0156823920999992012071412004-03700-040350FM-12+008399999V0201401N001510042019N0500001N1+02751+01991101431ADDGF106991051041004501031001KA1240N+02121MA1999999100411MD1999999+0081REMSYN076AAXX  14124 82392 32499 61403 10275 20199 30041 40143 85430 333 20212 58008;
0178823920999992012071500004-03700-040350FM-12+008399999V0203601N002112200019N0040001N1+02661+02001101241ADDGA1001+999999999GF100991001001999999001001KA1240M+03631MA1999999100221MD1999999-0031REMSYN082AAXX  15004 82392 32996 03604 10266 20200 30022 40124 333 10363 29066 55090 59003;
0156823920999992012071512004-03700-040350FM-12+008399999V0200901N001510042019N0500001N1+02821+02071101421ADDGF106991051041004501031001KA1240N+02211MA1999999100401MD1999999-0011REMSYN076AAXX  15124 82392 32499 60903 10282 20207 30040 40142 85430 333 20221 59001;
0178823920999992012071600004-03700-040350FM-12+008399999V0203601N001012200019N0040001N1+02651+02041101191ADDGA1001+999999999GF100991001001999999001001KA1240M+03571MA1999999100171MD1999999-0051REMSYN082AAXX  16004 82392 32996 03602 10265 20204 30017 40119 333 10357 29067 55068 59005;
0156823920999992012071612004-03700-040350FM-12+008399999V0201801N000510042019N0500001N1+02661+01971101401ADDGF105991051041004501001001KA1240N+02131MA1999999100381MD1999999-0021REMSYN076AAXX  16124 82392 32499 51801 10266 20197 30038 40140 85400 333 20213 59002;
0178823920999992012071700004-03700-040350FM-12+008399999V0203601N001512200019N0040001N1+02641+01981101161ADDGA1001+999999999GF100991001001999999001001KA1240M+03591MA1999999100141MD1999999-0031REMSYN082AAXX  17004 82392 32996 03603 10264 20198 30014 40116 333 10359 29065 55081 59003;
0156823920999992012071712004-03700-040350FM-12+008399999V0201401N001010450019N0500001N1+02741+01891101481ADDGF106991041041004501031001KA1240N+02151MA1999999100451MD1999999+0071REMSYN076AAXX  17124 82392 32499 61402 10274 20189 30045 40148 84430 333 20215 58007;
0178823920999992012071800004-03700-040350FM-12+008399999V0203601N001512200019N0040001N1+02681+01891101311ADDGA1001+999999999GF100991001001999999001001KA1240M+03541MA1999999100291MD1999999+0151REMSYN082AAXX  18004 82392 32996 03603 10268 20189 30029 40131 333 10354 29061 55077 58015;
0156823920999992012071812004-03700-040350FM-12+008399999V0200901N000510042019N0500001N1+02781+01911101511ADDGF106991051021004501031001KA1240N+02071MA1999999100481MD1999999+0031REMSYN076AAXX  18124 82392 32499 60901 10278 20191 30048 40151 85230 333 20207 58003;
0178823920999992012071900004-03700-040350FM-12+008399999V0203601N002112200019N0040001N1+02671+02061101371ADDGA1001+999999999GF100991001001999999001001KA1240M+03541MA1999999100351MD1999999+0061REMSYN082AAXX  19004 82392 32996 03604 10267 20206 30035 40137 333 10354 29066 55060 58006;
0156823920999992012071912004-03700-040350FM-12+008399999V0200901N001510450019N0500001N1+02811+02051101601ADDGF105991021021004501031001KA1240N+02211MA1999999100571MD1999999+0091REMSYN076AAXX  19124 82392 32499 50903 10281 20205 30057 40160 82230 333 20221 58009;
0178823920999992012072000004-03700-040350FM-12+008399999V0203601N002112200019N0040001N1+02641+02031101301ADDGA1001+999999999GF100991001001999999001001KA1240M+03561MA1999999100281MD1999999-0071REMSYN082AAXX  20004 82392 32996 03604 10264 20203 30028 40130 333 10356 29067 55086 59007;
0156823920999992012072012004-03700-040350FM-12+008399999V0200901N000512200019N0500001N1+02811+02051101521ADDGF104991041021004501001001KA1240N+01981MA1999999100491MD1999999-0081REMSYN076AAXX  20124 82392 32499 40901 10281 20205 30049 40152 84200 333 20198 59008;
0178823920999992012072100004-03700-040350FM-12+008399999V0203601N001512200019N0040001N1+02621+02051101251ADDGA1001+999999999GF100991001001999999001001KA1240M+03611MA1999999100231MD1999999-0051REMSYN082AAXX  21004 82392 32996 03603 10262 20205 30023 40125 333 10361 29068 55017 59005;
0156823920999992012072112004-03700-040350FM-12+008399999V0201401N000510450019N0500001N1+02821+02021101531ADDGF106991031041004501031001KA1240N+02261MA1999999100501MD1999999+0011REMSYN076AAXX  21124 82392 32499 61401 10282 20202 30050 40153 83430 333 20226 58001;
0178823920999992012072200004-03700-040350FM-12+008399999V0203601N001012200019N0040001N1+02541+01981101371ADDGA1001+999999999GF100991001001999999001001KA1240M+03461MA1999999100351MD1999999+0121REMSYN082AAXX  22004 82392 32996 03602 10254 20198 30035 40137 333 10346 29068 55022 58012;
0156823920999992012072212004-03700-040350FM-12+008399999V0200901N002112200019N0500001N1+02881+01891101521ADDGF102991021011004501001001KA1240N+02051MA1999999100491MD1999999-0011REMSYN076AAXX  22124 82392 32499 20904 10288 20189 30049 40152 82100 333 20205 59001;
0178823920999992012072300004-03700-040350FM-12+008399999V0203601N001012200019N0040001N1+02721+01821101351ADDGA1001+999999999GF100991001001999999001001KA1240M+03661MA1999999100331MD1999999-0021REMSYN082AAXX  23004 82392 32996 03602 10272 20182 30033 40135 333 10366 29057 55110 59002;
0156823920999992012072312004-03700-040350FM-12+008399999V0200901N001010450019N0500001N1+02921+01861101561ADDGF105991021011004501031001KA1240N+02121MA1999999100531MD1999999+0041REMSYN076AAXX  23124 82392 32499 50902 10292 20186 30053 40156 82130 333 20212 58004;
0178823920999992012072400004-03700-040350FM-12+008399999V0203601N001012200019N0040001N1+02721+01981101301ADDGA1001+999999999GF100991001001999999001001KA1240M+03461MA1999999100281MD1999999-0051REMSYN082AAXX  24004 82392 32996 03602 10272 20198 30028 40130 333 10346 29060 55052 59005;
0156823920999992012072412004-03700-040350FM-12+008399999V0200901N001512200019N0500001N1+02881+01831101571ADDGF102991021011004501001001KA1240N+02311MA1999999100541MD1999999+0011REMSYN076AAXX  24124 82392 32499 20903 10288 20183 30054 40157 82100 333 20231 58001;
0178823920999992012072500004-03700-040350FM-12+008399999V0203601N002112200019N0040001N1+02631+01881101291ADDGA1001+999999999GF100991001001999999001001KA1240M+03621MA1999999100271MD1999999-0011REMSYN082AAXX  25004 82392 32996 03604 10263 20188 30027 40129 333 10362 29060 55105 59001;
0156823920999992012072512004-03700-040350FM-12+008399999V0200901N001512200019N0500001N1+02911+01921101461ADDGF102991021011004501001001KA1240N+02161MA1999999100441MD1999999-0101REMSYN076AAXX  25124 82392 32499 20903 10291 20192 30044 40146 82100 333 20216 59010;
0178823920999992012072600004-03700-040350FM-12+008399999V0203601N001012200019N0040001N1+02681+01941101311ADDGA1001+999999999GF100991001001999999001001KA1240M+03611MA1999999100291MD1999999+0021REMSYN082AAXX  26004 82392 32996 03602 10268 20194 30029 40131 333 10361 29061 55106 58002;
0156823920999992012072612004-03700-040350FM-12+008399999V0200901N002112200019N0500001N1+02831+01911101501ADDGF104991041011004501001001KA1240N+02041MA1999999100471MD1999999+0031REMSYN076AAXX  26124 82392 32499 40904 10283 20191 30047 40150 84100 333 20204 58003;
0178823920999992012072700004-03700-040350FM-12+008399999V0203601N001512200019N0040001N1+02571+01801101371ADDGA1001+999999999GF100991001001999999001001KA1240M+03661MA1999999100351MD1999999+0061REMSYN082AAXX  27004 82392 32996 03603 10257 20180 30035 40137 333 10366 29060 55106 58006;
0156823920999992012072712004-03700-040350FM-12+008399999V0200901N000512200019N0500001N1+02831+01761101551ADDGF101991011011004501001001KA1240N+01921MA1999999100521MD1999999+0051REMSYN076AAXX  27124 82392 32499 10901 10283 20176 30052 40155 81100 333 20192 58005;
0168823920999992012072800004-03700-040350FM-12+008399999V0203601N000512200019N0040001N1+02911+01831101301ADDGF101991011011004501001001KA1240M+03621MA1999999100291MD1999999-0061REMSYN088AAXX  28004 82392 32496 13601 10291 20183 30029 40130 81100 333 10362 29052 55108 59006;
0156823920999992012072812004-03700-040350FM-12+008399999V0200901N003112200019N0500001N1+02911+01861101451ADDGF103991021011004501031001KA1240N+02391MA1999999100441MD1999999-0081REMSYN076AAXX  28124 82392 32499 30906 10291 20186 30044 40145 82130 333 20239 59008;
0178823920999992012072900004-03700-040350FM-12+008399999V0203601N000512200019N0040001N1+02771+01771101101ADDGA1001+999999999GF100991001001999999001001KA1240M+02771MA1999999100091MD1999999-0201REMSYN082AAXX  29004 82392 32996 03601 10277 20177 30009 40110 333 10277 29053 55109 59020;
0156823920999992012072912004-03700-040350FM-12+008399999V0200901N000512200019N0500001N1+02831+01671101331ADDGF101991011011004501001001KA1240N+02001MA1999999100311MD1999999-0131REMSYN076AAXX  29124 82392 32499 10901 10283 20167 30031 40133 81100 333 20200 59013;
0178823920999992012073000004-03700-040350FM-12+008399999V0203601N001012200019N0040001N1+02541+01781101081ADDGA1001+999999999GF100991001001999999001001KA1240M+03681MA1999999100061MD1999999-0031REMSYN082AAXX  30004 82392 32996 03602 10254 20178 30006 40108 333 10368 29058 55110 59003;
0156823920999992012073012004-03700-040350FM-12+008399999V0200901N001512200019N0500001N1+02831+02161101501ADDGF104991041011004501001001KA1240N+01881MA1999999100471MD1999999-0161REMSYN076AAXX  30124 82392 32499 40903 10283 20216 30047 40150 84100 333 20188 59016;
0178823920999992012073100004-03700-040350FM-12+008399999V0209999C000012200019N0040001N1+02811+01331101261ADDGA1001+999999999GF100991001001999999001001KA1240M+03501MA1999999100241MD1999999+0181REMSYN082AAXX  31004 82392 32996 00900 10281 20133 30024 40126 333 10350 29043 55108 58018;
0156823920999992012073112004-03700-040350FM-12+008399999V0200901N005112200019N0500001N1+02941+01911101441ADDGF101991011011004501001001KA1240N+02001MA1999999100431MD1999999-0041REMSYN076AAXX  31124 82392 32499 10910 10294 20191 30043 40144 81100 333 20200 59004;
0123823920999992012073118004-03700-040350FM-12+008399999V0200901N004612200019N0500001N1+03561+01191100901ADDGF101991011011004501001001MA1999999099891REMSYN070AAXX  31184 82392 32499 10909 10356 20119 39989 40090 81100 333 5////;
0178823920999992012080100004-03700-040350FM-12+008399999V0200901N003112200019N0040001N1+02901+01871101251ADDGA1001+999999999GF100991001001999999001001KA1240M+03641MA1999999100241MD1999999+0001REMSYN082AAXX  01004 82392 32996 00906 10290 20187 30024 40125 333 10364 29046 55109 58000;
0156823920999992012080112004-03700-040350FM-12+008399999V0200901N001012200019N0500001N1+02881+01731101481ADDGF104991021011004501011001KA1240N+02061MA1999999100461MD1999999+0031REMSYN076AAXX  01124 82392 32499 40902 10288 20173 30046 40148 82110 333 20206 58003;
0137823920999992012080118004-03700-040350FM-12+008399999V0200901N001012200019N0500001N1+03471+01251100911ADDGF102991021011004501011001MA1999999099901MD1999999+0011REMSYN070AAXX  01184 82392 32499 20902 10347 20125 39990 40091 82110 333 58001;
0168823920999992012080200004-03700-040350FM-12+008399999V0203601N001012200019N0040001N1+02691+01861101261ADDGF103991011011004501031001KA1240M+03541MA1999999100241MD1999999+0001REMSYN088AAXX  02004 82392 32496 33602 10269 20186 30024 40126 81130 333 10354 29049 55108 58000;
0156823920999992012080212004-03700-040350FM-12+008399999V0201401N003112200019N0500001N1+02861+01841101431ADDGF102991021011004501001001KA1240N+02101MA1999999100411MD1999999-0051REMSYN076AAXX  02124 82392 32499 21406 10286 20184 30041 40143 82100 333 20210 59005;
0137823920999992012080218004-03700-040350FM-12+008399999V0201801N001012200019N0500001N1+03521+01501100891ADDGF103991031021004501001001MA1999999099881MD1999999-0021REMSYN070AAXX  02184 82392 32499 31802 10352 20150 39988 40089 83200 333 59002;
0178823920999992012080300004-03700-040350FM-12+008399999V0200501N004112200019N0040001N1+02661+02041101151ADDGA1001+999999999GF100991001001999999001001KA1240M+03641MA1999999100131MD1999999+0111REMSYN082AAXX  03004 82392 32996 00508 10266 20204 30013 40115 333 10364 29056 55101 58011;
0156823920999992012080312004-03700-040350FM-12+008399999V0201801N000512200019N0500001N1+02831+01881101301ADDGF102991021011004501001001KA1240N+02031MA1999999100281MD1999999+0131REMSYN076AAXX  03124 82392 32499 21801 10283 20188 30028 40130 82100 333 20203 58013;
0137823920999992012080318004-03700-040350FM-12+008399999V0201801N000512200019N0500001N1+03501+01451100861ADDGF104991041011004501001001MA1999999099851MD1999999-0031REMSYN070AAXX  03184 82392 32499 41801 10350 20145 39985 40086 84100 333 59003;
0168823920999992012080400004-03700-040350FM-12+008399999V0203601N002112200019N0040001N1+02691+01961101021ADDGF101991011001008001031001KA1240M+03601MA1999999100001MD1999999-0131REMSYN088AAXX  04004 82392 32596 13604 10269 20196 30000 40102 81030 333 10360 29053 55104 59013;
0156823920999992012080412004-03700-040350FM-12+008399999V0200901N001012200019N0500001N1+02861+01981101391ADDGF104991041021004501001001KA1240N+02021MA1999999100371MD1999999+0091REMSYN076AAXX  04124 82392 32499 40902 10286 20198 30037 40139 84200 333 20202 58009;
0137823920999992012080418004-03700-040350FM-12+008399999V0201801N001510042019N0500001N1+03491+01481100941ADDGF105991051021004501001001MA1999999099931MD1999999+0081REMSYN070AAXX  04184 82392 32499 51803 10349 20148 39993 40094 85200 333 58008;
0168823920999992012080500004-03700-040350FM-12+008399999V0203601N003112200019N0040001N1+02631+01851101281ADDGF102991021001008001031001KA1240M+03561MA1999999100261MD1999999+0261REMSYN088AAXX  05004 82392 32596 23606 10263 20185 30026 40128 82030 333 10356 29053 55091 58026;
0156823920999992012080512004-03700-040350FM-12+008399999V0200901N003610042019N0500001N1+02861+01921101501ADDGF105991051021004501001001KA1240N+02121MA1999999100471MD1999999+0101REMSYN076AAXX  05124 82392 32499 50907 10286 20192 30047 40150 85200 333 20212 58010;
0137823920999992012080518004-03700-040350FM-12+008399999V0200901N000512200019N0500001N1+03391+01771100931ADDGF104991041011004501001001MA1999999099921MD1999999-0011REMSYN070AAXX  05184 82392 32499 40901 10339 20177 39992 40093 84100 333 59001;
0168823920999992012080600004-03700-040350FM-12+008399999V0203601N003112200019N0040001N1+02621+01861101251ADDGF101991011001008001031001KA1240M+03581MA1999999100231MD1999999-0031REMSYN088AAXX  06004 82392 32596 13606 10262 20186 30023 40125 81030 333 10358 29053 55100 59003;
0156823920999992012080612004-03700-040350FM-12+008399999V0200901N004112200019N0500001N1+02821+01971101461ADDGF102991021011004501001001KA1240N+02241MA1999999100441MD1999999-0031REMSYN076AAXX  06124 82392 32499 20908 10282 20197 30044 40146 82100 333 20224 59003;
0137823920999992012080618004-03700-040350FM-12+008399999V0200901N003112200019N0500001N1+03581+01701100841ADDGF101991011011004501001001MA1999999099831MD1999999-0061REMSYN070AAXX  06184 82392 32499 10906 10358 20170 39983 40084 81100 333 59006;
0178823920999992012080700004-03700-040350FM-12+008399999V0200501N005112200019N0040001N1+02621+02031101221ADDGA1001+999999999GF100991001001999999001001KA1240M+03661MA1999999100201MD1999999-0031REMSYN082AAXX  07004 82392 32996 00510 10262 20203 30020 40122 333 10366 29058 55100 59003;
0156823920999992012080712004-03700-040350FM-12+008399999V0200901N001010042019N0500001N1+02791+02061101411ADDGF107991051041004501031001KA1240N+02281MA1999999100391MD1999999-0051REMSYN076AAXX  07124 82392 32499 70902 10279 20206 30039 40141 85430 333 20228 59005;
0141823920999992012080718004-03700-040350FM-12+008399999V0200501N001012200019N0500001N1+03411+02061100981ADDGF104991041021004501001001MD1999999+0141REMSYN070AAXX  07184 82392 32499 40502 10341 20206 39940 40098 84200 333 58014;EQDQ01+099403APOSP 
0168823920999992012080800004-03700-040350FM-12+008399999V0203601N002610450019N0040001N1+02691+02111101321ADDGF106991021021004501031001KA1240M+03461MA1999999100301MD1999999+0101REMSYN088AAXX  08004 82392 32496 63605 10269 20211 30030 40132 82230 333 10346 29062 55061 58010;
0156823920999992012080812004-03700-040350FM-12+008399999V0201401N002610450019N0500001N1+02761+01891101501ADDGF106991041041004501031001KA1240N+02301MA1999999100471MD1999999+0081REMSYN076AAXX  08124 82392 32499 61405 10276 20189 30047 40150 84430 333 20230 58008;
0137823920999992012080818004-03700-040350FM-12+008399999V0200901N004612200019N0500001N1+03621+01591100921ADDGF102991021011004501001001MA1999999099911MD1999999+0061REMSYN070AAXX  08184 82392 32499 20909 10362 20159 39991 40092 82100 333 58006;
0178823920999992012080900004-03700-040350FM-12+008399999V0200501N004112200019N0040001N1+02721+02081101231ADDGA1001+999999999GF100991001001999999001001KA1240M+03681MA1999999100211MD1999999-0091REMSYN082AAXX  09004 82392 32996 00508 10272 20208 30021 40123 333 10368 29056 55098 59009;
0156823920999992012080912004-03700-040350FM-12+008399999V0200901N003110042019N0500001N1+03001+01911101371ADDGF105991051021004501001001KA1240N+02191MA1999999100361MD1999999-0111REMSYN076AAXX  09124 82392 32499 50906 10300 20191 30036 40137 85200 333 20219 59011;
0137823920999992012080918004-03700-040350FM-12+008399999V0201801N000510450019N0500001N1+03431+01761100851ADDGF106991041021004501031001MA1999999099841MD1999999-0071REMSYN070AAXX  09184 82392 32499 61801 10343 20176 39984 40085 84230 333 59007;
0168823920999992012081000004-03700-040350FM-12+008399999V0203601N005710450019N0040001N1+02681+01941101231ADDGF106991021021004501031001KA1240M+03561MA1999999100211MD1999999+0001REMSYN088AAXX  10004 82392 32496 63611 10268 20194 30021 40123 82230 333 10356 29054 55062 58000;
0156823920999992012081012004-03700-040350FM-12+008399999V0200901N003112200019N0500001N1+02901+02041101351ADDGF102991021011004501001001KA1240N+02401MA1999999100331MD1999999-0031REMSYN076AAXX  10124 82392 32499 20906 10290 20204 30033 40135 82100 333 20240 59003;
0137823920999992012081018004-03700-040350FM-12+008399999V0200801N002110450019N0500001N1+03461+01821100911ADDGF106991031021004501031001MA1999999099901MD1999999+0061REMSYN070AAXX  10184 82392 32499 60804 10346 20182 39990 40091 83230 333 58006;
0168823920999992012081100004-03700-040350FM-12+008399999V0200501N005110450019N0040001N1+02701+02131101171ADDGF106991031041004501031001KA1240M+03581MA1999999100151MD1999999-0061REMSYN088AAXX  11004 82392 32496 60510 10270 20213 30015 40117 83430 333 10358 29060 55075 59006;
0156823920999992012081112004-03700-040350FM-12+008399999V0201401N002112200019N0500001N1+02861+02011101371ADDGF104991021021004501031001KA1240N+02401MA1999999100351MD1999999+0021REMSYN076AAXX  11124 82392 32499 41404 10286 20201 30035 40137 82230 333 20240 58002;
0137823920999992012081118004-03700-040350FM-12+008399999V0201801N003112200019N0500001N1+03641+01941100921ADDGF103991021011004501001011MA1999999099911MD1999999+0011REMSYN070AAXX  11184 82392 32499 31806 10364 20194 39991 40092 82101 333 58001;
0178823920999992012081200004-03700-040350FM-12+008399999V0200501N005112200019N0040001N1+02641+02071101241ADDGA1001+999999999GF100991001001999999001001KA1240M+03621MA1999999100221MD1999999+0071REMSYN082AAXX  12004 82392 32996 00510 10264 20207 30022 40124 333 10362 29060 55101 58007;
0156823920999992012081212004-03700-040350FM-12+008399999V0200901N004612200019N0500001N1+02841+01881101521ADDGF101991011011004501001001KA1240N+02061MA1999999100491MD1999999+0141REMSYN076AAXX  12124 82392 32499 10909 10284 20188 30049 40152 81100 333 20206 58014;
0137823920999992012081218004-03700-040350FM-12+008399999V0200901N004112200019N0500001N1+03581+01701100931ADDGF101991011011004501001001MA1999999099921MD1999999+0011REMSYN070AAXX  12184 82392 32499 10908 10358 20170 39992 40093 81100 333 58001;
0178823920999992012081300004-03700-040350FM-12+008399999V0200501N005112200019N0040001N1+02771+02041101301ADDGA1001+999999999GF100991001001999999001001KA1240M+03681MA1999999100281MD1999999+0061REMSYN082AAXX  13004 82392 32996 00510 10277 20204 30028 40130 333 10368 29055 55110 58006;
0156823920999992012081312004-03700-040350FM-12+008399999V0200901N005112200019N0500001N1+02901+01871101501ADDGF104991011011004501031001KA1240N+02071MA1999999100471MD1999999-0021REMSYN076AAXX  13124 82392 32499 40910 10290 20187 30047 40150 81130 333 20207 59002;
0137823920999992012081318004-03700-040350FM-12+008399999V0201401N002110450019N0500001N1+03431+01961101011ADDGF106991031021004501031001MA1999999099991MD1999999+0071REMSYN070AAXX  13184 82392 32499 61404 10343 20196 39999 40101 83230 333 58007;
0168823920999992012081400004-03700-040350FM-12+008399999V0203601N002112200019N0040001N1+02841+02071101261ADDGF103991011021004501031001KA1240M+03541MA1999999100251MD1999999-0031REMSYN088AAXX  14004 82392 32496 33604 10284 20207 30025 40126 81230 333 10354 29056 55049 59003;
0156823920999992012081412004-03700-040350FM-12+008399999V0200901N002112200019N0500001N1+03021+01991101361ADDGF104991021011004501031001KA1240N+02501MA1999999100351MD1999999-0121REMSYN076AAXX  14124 82392 32499 40904 10302 20199 30035 40136 82130 333 20250 59012;
0137823920999992012081418004-03700-040350FM-12+008399999V0200901N003612200019N0500001N1+03441+01801101011ADDGF102991021011004501001001MA1999999100001MD1999999+0011REMSYN070AAXX  14184 82392 32499 20907 10344 20180 30000 40101 82100 333 58001;
0178823920999992012081500004-03700-040350FM-12+008399999V0203601N003112200019N0040001N1+02621+02121101321ADDGA1001+999999999GF100991001001999999001001KA1240M+03521MA1999999100301MD1999999+0051REMSYN082AAXX  15004 82392 32996 03606 10262 20212 30030 40132 333 10352 29060 55091 58005;
0156823920999992012081512004-03700-040350FM-12+008399999V0200901N003612200019N0500001N1+02911+01741101461ADDGF101991011011004501001001KA1240N+02071MA1999999100441MD1999999+0091REMSYN076AAXX  15124 82392 32499 10907 10291 20174 30044 40146 81100 333 20207 58009;
0137823920999992012081518004-03700-040350FM-12+008399999V0200901N003110450019N0500001N1+03371+01791100971ADDGF107991041061004501031001MA1999999099951MD1999999-0051REMSYN070AAXX  15184 82392 32499 70906 10337 20179 39995 40097 84630 333 59005;
0178823920999992012081600004-03700-040350FM-12+008399999V0203601N003112200019N0040001N1+02691+01911101291ADDGA1001+999999999GF100991001001999999001001KA1240M+03461MA1999999100271MD1999999-0031REMSYN082AAXX  16004 82392 32996 03606 10269 20191 30027 40129 333 10346 29053 55068 59003;
0156823920999992012081612004-03700-040350FM-12+008399999V0201401N002612200019N0500001N1+02941+01721101451ADDGF101991011011004501001001KA1240N+01941MA1999999100431MD1999999-0011REMSYN076AAXX  16124 82392 32499 11405 10294 20172 30043 40145 81100 333 20194 59001;
0137823920999992012081618004-03700-040350FM-12+008399999V0200901N001510450019N0500001N1+03561+01591100991ADDGF106991031021004501031001MA1999999099981MD1999999+0031REMSYN070AAXX  16184 82392 32499 60903 10356 20159 39998 40099 83230 333 58003;
0178823920999992012081700004-03700-040350FM-12+008399999V0203601N001012200019N0040001N1+02741+01891101251ADDGA1001+999999999GF100991001001999999001001KA1240M+03641MA1999999100241MD1999999-0031REMSYN082AAXX  17004 82392 32996 03602 10274 20189 30024 40125 333 10364 29050 55093 59003;
0156823920999992012081712004-03700-040350FM-12+008399999V0200901N000512200019N0500001N1+02941+01691101351ADDGF102991021011004501001001KA1240N+02071MA1999999100331MD1999999-0101REMSYN076AAXX  17124 82392 32499 20901 10294 20169 30033 40135 82100 333 20207 59010;
0141823920999992012081718004-03700-040350FM-12+008399999V0200501N001012200019N0500001N1+03611+01421100811ADDGF101991011011004501001001MD1999999-0181REMSYN070AAXX  17184 82392 32499 10502 10361 20142 39910 40081 81100 333 59018;EQDQ01+099103APOSP 
0178823920999992012081800004-03700-040350FM-12+008399999V0200501N002612200019N0040001N1+02671+01861101341ADDGA1001+999999999GF100991001001999999001001KA1240M+03681MA1999999100321MD1999999+0081REMSYN082AAXX  18004 82392 32996 00505 10267 20186 30032 40134 333 10368 29049 55110 58008;
0156823920999992012081812004-03700-040350FM-12+008399999V0201801N001012200019N0500001N1+02941+01911101381ADDGF102991021011004501001001KA1240N+02201MA1999999100361MD1999999+0031REMSYN076AAXX  18124 82392 32499 21802 10294 20191 30036 40138 82100 333 20220 58003;
0137823920999992012081818004-03700-040350FM-12+008399999V0201401N002112200019N0500001N1+03621+01481100941ADDGF104991041021004501001001MA1999999099931MD1999999+0131REMSYN070AAXX  18184 82392 32499 41404 10362 20148 39993 40094 84200 333 58013;
0178823920999992012081900004-03700-040350FM-12+008399999V0200501N004112200019N0040001N1+02701+02131101211ADDGA1001+999999999GF100991001001999999001001KA1240M+03701MA1999999100191MD1999999-0131REMSYN082AAXX  19004 82392 32996 00508 10270 20213 30019 40121 333 10370 29056 55097 59013;
0156823920999992012081912004-03700-040350FM-12+008399999V0201401N005112200019N0500001N1+02971+02781101391ADDGF104991011011004501001011KA1240N+02051MA1999999100371MD1999999+0011REMSYN076AAXX  19124 82392 32499 41410 10297 20278 30037 40139 81101 333 20205 58001;
0137823920999992012081918004-03700-040350FM-12+008399999V0200901N001512200019N0500001N1+03521+01281101031ADDGF104991031011004501001011MA1999999100021MD1999999+0091REMSYN070AAXX  19184 82392 32499 40903 10352 20128 30002 40103 83101 333 58009;
0156823920999992012082012004-03700-040350FM-12+008399999V0201801N003112200019N0500001N1+02861+01901101501ADDGF101991011011004501001001KA1240N+02101MA1999999100471MD1999999+0101REMSYN076AAXX  20124 82392 32499 11806 10286 20190 30047 40150 81100 333 20210 58010;
0137823920999992012082018004-03700-040350FM-12+008399999V0200901N002112200019N0500001N1+03481+01751101071ADDGF101991011011004501001001MA1999999100061MD1999999+0041REMSYN070AAXX  20184 82392 32499 10904 10348 20175 30006 40107 81100 333 58004;
0178823920999992012082100004-03700-040350FM-12+008399999V0200501N004112200019N0040001N1+02801+01981101371ADDGA1001+999999999GF100991001001999999001001KA1240M+03621MA1999999100351MD1999999+0071REMSYN082AAXX  21004 82392 32996 00508 10280 20198 30035 40137 333 10362 29054 55097 58007;
0156823920999992012082112004-03700-040350FM-12+008399999V0200901N001012200019N0500001N1+02891+01841101581ADDGF102991021011004501001001KA1240N+02061MA1999999100561MD1999999+0091REMSYN076AAXX  21124 82392 32499 20902 10289 20184 30056 40158 82100 333 20206 58009;
0137823920999992012082118004-03700-040350FM-12+008399999V0200501N000512200019N0500001N1+03571+01441100961ADDGF103991031011008001001001MA1999999099951MD1999999+0111REMSYN070AAXX  21184 82392 32599 30501 10357 20144 39995 40096 83100 333 58011;
0168823920999992012082200004-03700-040350FM-12+008399999V0203601N002110042019N0040001N1+02731+01841101331ADDGF108991081041004501999999KA1240M+03681MA1999999100311MD1999999-0041REMSYN088AAXX  22004 82392 32496 83604 10273 20184 30031 40133 884// 333 10368 29049 55106 59004;
0156823920999992012082212004-03700-040350FM-12+008399999V0201401N003112200019N0500001N1+02901+01871101511ADDGF101991011011004501001001KA1240N+02201MA1999999100491MD1999999-0071REMSYN076AAXX  22124 82392 32499 11406 10290 20187 30049 40151 81100 333 20220 59007;
0137823920999992012082218004-03700-040350FM-12+008399999V0200501N005112200019N0500001N1+03541+01711101011ADDGF101991011011004501001001MA1999999100001MD1999999+0051REMSYN070AAXX  22184 82392 32499 10510 10354 20171 30000 40101 81100 333 58005;
0178823920999992012082300004-03700-040350FM-12+008399999V0200501N004112200019N0040001N1+02681+01841101341ADDGA1001+999999999GF100991001001999999001001KA1240M+03641MA1999999100321MD1999999+0011REMSYN082AAXX  23004 82392 32996 00508 10268 20184 30032 40134 333 10364 29052 55110 58001;
0156823920999992012082312004-03700-040350FM-12+008399999V0201401N003112200019N0500001N1+02931+01591101501ADDGF101991011011004501001001KA1240N+02011MA1999999100971MD1999999-0021REMSYN076AAXX  23124 82392 32499 11406 10293 20159 30097 40150 81100 333 20201 59002;
0137823920999992012082318004-03700-040350FM-12+008399999V0201401N004112200019N0500001N1+03531+01301100911ADDGF102991021011004501001001MA1999999100891MD1999999-0111REMSYN070AAXX  23184 82392 32499 21408 10353 20130 30089 40091 82100 333 59011;
0168823920999992012082400004-03700-040350FM-12+008399999V0203601N001512200019N0040001N1+02671+01811101201ADDGF101991011001008001031001KA1240M+03621MA1999999100181MD1999999-0141REMSYN088AAXX  24004 82392 32596 13603 10267 20181 30018 40120 81030 333 10362 29047 55106 59014;
0156823920999992012082412004-03700-040350FM-12+008399999V0201801N003112200019N0500001N1+02901+02041101351ADDGF103991031021004501001001KA1240N+02001MA1999999100331MD1999999-0141REMSYN076AAXX  24124 82392 32499 31806 10290 20204 30033 40135 83200 333 20200 59014;
0137823920999992012082418004-03700-040350FM-12+008399999V0201401N002112200019N0500001N1+03501+01681100911ADDGF103991031011004501001001MA1999999099901MD1999999+0011REMSYN070AAXX  24184 82392 32499 31404 10350 20168 39990 40091 83100 333 58001;
0178823920999992012082500004-03700-040350FM-12+008399999V0200501N005112200019N0040001N1+02801+01921101171ADDGA1001+999999999GF100991001001999999001001KA1240M+03601MA1999999100161MD1999999-0021REMSYN082AAXX  25004 82392 32996 00510 10280 20192 30016 40117 333 10360 29053 55106 59002;
0137823920999992012082518004-03700-040350FM-12+008399999V0200501N005112200019N0500001N1+03501+01681100991ADDGF102991011011004501001011MA1999999099981MD1999999+0081REMSYN070AAXX  25184 82392 32499 20510 10350 20168 39998 40099 81101 333 58008;
0178823920999992012082600004-03700-040350FM-12+008399999V0200501N005112200019N0040001N1+02681+01971101351ADDGA1001+999999999GF100991001001999999001001KA1240M+03581MA1999999100331MD1999999+0171REMSYN082AAXX  26004 82392 32996 00510 10268 20197 30033 40135 333 10358 29055 55110 58017;
0156823920999992012082612004-03700-040350FM-12+008399999V0201401N004112200019N0500001N1+02701+02131101591ADDGF102991021021004501001001KA1240N+02131MA1999999100561MD1999999+0161REMSYN076AAXX  26124 82392 32499 21408 10270 20213 30056 40159 82200 333 20213 58016;
0156823920999992012082618004-03700-040350FM-12+008399999V0200901N005112200019N0500001N1+03501+02051101111ADDGF102991999011004501001001MA1999999100101MD1999999+0121REMSYN070AAXX  26184 82392 32499 20910 10350 20205 30010 40111 81100 333 58012;EQDQ01+000012SCOTLC
0178823920999992012082700004-03700-040350FM-12+008399999V0200501N004112200019N0500001N1+02681+02181101481ADDGA1001+999999999GF100991001001999999001001KA1240M+03681MA1999999100451MD1999999+0121REMSYN082AAXX  27004 82392 32599 00508 10268 20218 30045 40148 333 10368 29066 55110 58012;
0156823920999992012082712004-03700-040350FM-12+008399999V0200901N001512200019N0500001N1+02831+01851101681ADDGF103991031011004501001001KA1240N+02041MA1999999100651MD1999999+0091REMSYN076AAXX  27124 82392 32499 30903 10283 20185 30065 40168 83100 333 20204 58009;
0137823920999992012082718004-03700-040350FM-12+008399999V0200901N002112200019N0500001N1+03561+01431101061ADDGF104991041021004501001001MA1999999100041MD1999999-0061REMSYN070AAXX  27184 82392 32499 40904 10356 20143 30004 40106 84200 333 59006;
0178823920999992012082800004-03700-040350FM-12+008399999V0203601N003112200019N0040001N1+02691+01831101411ADDGA1001+999999999GF100991001001999999001001KA1240M+03661MA1999999100391MD1999999-0061REMSYN082AAXX  28004 82392 32996 03606 10269 20183 30039 40141 333 10366 29050 55108 59006;
0156823920999992012082812004-03700-040350FM-12+008399999V0200901N003112200019N0500001N1+02861+02011101671ADDGF103991031021004501001001KA1240N+02081MA1999999100641MD1999999-0011REMSYN076AAXX  28124 82392 32499 30906 10286 20201 30064 40167 83200 333 20208 59001;
0137823920999992012082818004-03700-040350FM-12+008399999V0200901N001012200019N0500001N1+03541+01671101021ADDGF104991041021004501001001MA1999999100011MD1999999-0031REMSYN070AAXX  28184 82392 32499 40902 10354 20167 30001 40102 84200 333 59003;
0178823920999992012082900004-03700-040350FM-12+008399999V0200501N005112200019N0040001N1+02681+02181101401ADDGA1001+999999999GF100991001001999999001001KA1240M+03641MA1999999100381MD1999999-0011REMSYN082AAXX  29004 82392 32996 00510 10268 20218 30038 40140 333 10364 29060 55107 59001;
0156823920999992012082912004-03700-040350FM-12+008399999V0200501N000512200019N0500001N1+02971+01861101561ADDGF101991011011004501001001KA1240N+02071MA1999999100531MD1999999-0111REMSYN076AAXX  29124 82392 32499 10501 10297 20186 30053 40156 81100 333 20207 59011;
0137823920999992012082918004-03700-040350FM-12+008399999V0201401N000510042019N0500001N1+03511+01551100901ADDGF105991051021004501001001MA1999999099881MD1999999-0031REMSYN070AAXX  29184 82392 32499 51401 10351 20155 39988 40090 85200 333 59003;
0168823920999992012083000004-03700-040350FM-12+008399999V0203601N002612200019N0040001N1+02641+01851101251ADDGF101991011001008001031001KA1240M+03721MA1999999100231MD1999999-0151REMSYN088AAXX  30004 82392 32596 13605 10264 20185 30023 40125 81030 333 10372 29052 55090 59015;
0156823920999992012083012004-03700-040350FM-12+008399999V0200901N003112200019N0500001N1+02861+02061101621ADDGF102991021011004501001001KA1240N+02101MA1999999100591MD1999999+0061REMSYN076AAXX  30124 82392 32499 20906 10286 20206 30059 40162 82100 333 20210 58006;
0137823920999992012083018004-03700-040350FM-12+008399999V0200501N003110450019N0500001N1+03601+01571100871ADDGF106991031041004501031001MA1999999099861MD1999999-0021REMSYN070AAXX  30184 82392 32499 60506 10360 20157 39986 40087 83430 333 59002;
0168823920999992012083100004-03700-040350FM-12+008399999V0200501N005112200019N0040001N1+02521+02091101291ADDGF103991031001008001031001KA1240M+03801MA1999999100271MD1999999+0041REMSYN088AAXX  31004 82392 32596 30510 10252 20209 30027 40129 83030 333 10380 29062 55080 58004;
0156823920999992012083112004-03700-040350FM-12+008399999V0200901N002610450019N0500001N1+02811+01771101551ADDGF106991041021004501031001KA1240N+02251MA1999999100521MD1999999-0071REMSYN076AAXX  31124 82392 32499 60905 10281 20177 30052 40155 84230 333 20225 59007;
0156823920999992012083118004-03700-040350FM-12+008399999V0201401N001012200019N0500001N1+03511+01281100921ADDGF102991999021004501001001MA1999999099911MD1999999+0051REMSYN070AAXX  31184 82392 32499 21402 10351 20128 39991 40092 83200 333 58005;EQDQ01+000032SCOTLC
0178823920999992012090100004-03700-040350FM-12+008399999V0203601N002112200019N0040001N1+02641+01861101361ADDGA1001+999999999GF100991001001999999001001KA1240M+03621MA1999999100341MD1999999+0071REMSYN082AAXX  01004 82392 32996 03604 10264 20186 30034 40136 333 10362 29051 55102 58007;
0156823920999992012090112004-03700-040350FM-12+008399999V0201401N001012200019N0500001N1+02901+01871101571ADDGF101991011011004501001001KA1240N+02131MA1999999100541MD1999999+0021REMSYN076AAXX  01124 82392 32499 11402 10290 20187 30054 40157 81100 333 20213 58002;
0168823920999992012090200004-03700-040350FM-12+008399999V0200501N005112200019N0040001N1+02681+01971101301ADDGF101991011001008001051001KA1240M+03661MA1999999100281MD1999999-0061REMSYN088AAXX  02004 82392 32596 10510 10268 20197 30028 40130 81050 333 10366 29061 55105 59006;
0156823920999992012090212004-03700-040350FM-12+008399999V0201401N004112200019N0500001N1+02861+01951101551ADDGF102991021011004501001001KA1240N+02081MA1999999100521MD1999999-0021REMSYN076AAXX  02124 82392 32499 21408 10286 20195 30052 40155 82100 333 20208 59002;
0178823920999992012090300004-03700-040350FM-12+008399999V0200501N005112200019N0040001N1+02721+02001101451ADDGA1001+999999999GF100991001001999999001001KA1240M+03701MA1999999100431MD1999999+0151REMSYN082AAXX  03004 82392 32996 00510 10272 20200 30043 40145 333 10370 29063 55108 58015;
0156823920999992012090312004-03700-040350FM-12+008399999V0200501N005712200019N0500001N1+02901+01781101761ADDGF101991011011004501001001KA1240N+02201MA1999999100731MD1999999+0211REMSYN076AAXX  03124 82392 32499 10511 10290 20178 30073 40176 81100 333 20220 58021;
0178823920999992012090400004-03700-040350FM-12+008399999V0200501N005712200019N0040001N1+02661+02091101481ADDGA1001+999999999GF100991001001999999001001KA1240M+03601MA1999999100451MD1999999+0021REMSYN082AAXX  04004 82392 32996 00511 10266 20209 30045 40148 333 10360 29065 55109 58002;
0156823920999992012090412004-03700-040350FM-12+008399999V0200901N005712200019N0500001N1+02941+01821101711ADDGF104991021011004501031001KA1240N+02101MA1999999100681MD1999999-0051REMSYN076AAXX  04124 82392 32499 40911 10294 20182 30068 40171 82130 333 20210 59005;
0178823920999992012090500004-03700-040350FM-12+008399999V0200501N005112200019N0040001N1+02661+02041101481ADDGA1001+999999999GF100991001001999999001001KA1240M+03601MA1999999100451MD1999999+0001REMSYN082AAXX  05004 82392 32996 00510 10266 20204 30045 40148 333 10360 29062 55107 58000;
0156823920999992012090512004-03700-040350FM-12+008399999V0200901N005712200019N0500001N1+02921+01981101671ADDGF101991011011004501001001KA1240N+02231MA1999999100641MD1999999-0041REMSYN076AAXX  05124 82392 32499 10911 10292 20198 30064 40167 81100 333 20223 59004;
0178823920999992012090600004-03700-040350FM-12+008399999V0200501N005112200019N0040001N1+02701+01861101391ADDGA1001+999999999GF100991001001999999001001KA1240M+03581MA1999999100371MD1999999-0081REMSYN082AAXX  06004 82392 32996 00510 10270 20186 30037 40139 333 10358 29059 55108 59008;
0156823920999992012090612004-03700-040350FM-12+008399999V0201401N003112200019N0500001N1+02901+02041101601ADDGF101991011011004501001001KA1240N+02301MA1999999100571MD1999999-0071REMSYN076AAXX  06124 82392 32499 11406 10290 20204 30057 40160 81100 333 20230 59007;
0178823920999992012090700004-03700-040350FM-12+008399999V0200501N004612200019N0040001N1+02701+02061101401ADDGA1001+999999999GF100991001001999999001001KA1240M+03661MA1999999100381MD1999999+0011REMSYN082AAXX  07004 82392 32996 00509 10270 20206 30038 40140 333 10366 29065 55107 58001;
0156823920999992012090712004-03700-040350FM-12+008399999V0201401N004112200019N0500001N1+02801+01921101701ADDGF101991011011004501001001KA1240N+02001MA1999999100671MD1999999+0101REMSYN076AAXX  07124 82392 32499 11408 10280 20192 30067 40170 81100 333 20200 58010;
0178823920999992012090800004-03700-040350FM-12+008399999V0200501N003112200019N0040001N1+02661+02091101431ADDGA1001+999999999GF100991001001999999001001KA1240M+03601MA1999999100411MD1999999+0031REMSYN082AAXX  08004 82392 32996 00506 10266 20209 30041 40143 333 10360 29067 55110 58003;
0156823920999992012090812004-03700-040350FM-12+008399999V0201401N002112200019N0500001N1+02901+02101101591ADDGF101991011011004501001001KA1240N+02031MA1999999100561MD1999999-0081REMSYN076AAXX  08124 82392 32499 11404 10290 20210 30056 40159 81100 333 20203 59008;
0178823920999992012090900004-03700-040350FM-12+008399999V0200501N004112200019N0040001N1+02701+02081101461ADDGA1001+999999999GF100991001001999999001001KA1240M+03701MA1999999100441MD1999999+0031REMSYN082AAXX  09004 82392 32996 00508 10270 20208 30044 40146 333 10370 29067 55103 58003;
0156823920999992012090912004-03700-040350FM-12+008399999V0200901N003110450019N0500001N1+02921+02091101571ADDGF106991021041004501031001KA1240N+02021MA1999999100541MD1999999-0021REMSYN076AAXX  09124 82392 32499 60906 10292 20209 30054 40157 82430 333 20202 59002;
0178823920999992012091000004-03700-040350FM-12+008399999V0200501N005712200019N0040001N1+02821+02101101211ADDGA1001+999999999GF100991001001999999001001KA1240M+03721MA1999999100201MD1999999-0211REMSYN082AAXX  10004 82392 32996 00511 10282 20210 30020 40121 333 10372 29064 55102 59021;
0156823920999992012091012004-03700-040350FM-12+008399999V0201401N002110450019N0500001N1+02801+02001101461ADDGF105991021021004501031001KA1240N+02201MA1999999100441MD1999999-0101REMSYN076AAXX  10124 82392 32499 51404 10280 20200 30044 40146 82230 333 20220 59010;
0178823920999992012091100004-03700-040350FM-12+008399999V0200501N003112200019N0040001N1+02701+02061101241ADDGA1001+999999999GF100991001001999999001001KA1240M+03681MA1999999100221MD1999999+0021REMSYN082AAXX  11004 82392 32996 00506 10270 20206 30022 40124 333 10368 29066 55092 58002;
0156823920999992012091112004-03700-040350FM-12+008399999V0200501N005112200019N0500001N1+02901+02041101421ADDGF102991011011004501001011KA1240N+02201MA1999999100401MD1999999-0041REMSYN076AAXX  11124 82392 32499 20510 10290 20204 30040 40142 81101 333 20220 59004;
0178823920999992012091200004-03700-040350FM-12+008399999V0200501N004112200019N0040001N1+02701+02081101321ADDGA1001+999999999GF100991001001999999001001KA1240M+03641MA1999999100301MD1999999+0081REMSYN082AAXX  12004 82392 32996 00508 10270 20208 30030 40132 333 10364 29065 55106 58008;
0156823920999992012091212004-03700-040350FM-12+008399999V0200501N004112200019N0500001N1+02881+02031101461ADDGF102991021011004501001001KA1240N+02181MA1999999100441MD1999999+0041REMSYN076AAXX  12124 82392 32499 20508 10288 20203 30044 40146 82100 333 20218 58004;
0178823920999992012091300004-03700-040350FM-12+008399999V0200501N005112200019N0040001N1+02701+02131101321ADDGA1001+999999999GF100991001001999999001001KA1240M+03561MA1999999100301MD1999999+0001REMSYN082AAXX  13004 82392 32996 00510 10270 20213 30030 40132 333 10356 29067 55100 58000;
0156823920999992012091312004-03700-040350FM-12+008399999V0200901N004610450019N0500001N1+02881+02181101421ADDGF105991031021004501031001KA1240N+02181MA1999999100401MD1999999-0041REMSYN076AAXX  13124 82392 32499 50909 10288 20218 30040 40142 83230 333 20218 59004;
0178823920999992012091400004-03700-040350FM-12+008399999V0200501N003112200019N0040001N1+02601+02191101221ADDGA1001+999999999GF100991001001999999001001KA1240M+03741MA1999999100201MD1999999-0101REMSYN082AAXX  14004 82392 32996 00506 10260 20219 30020 40122 333 10374 29074 55090 59010;
0156823920999992012091412004-03700-040350FM-12+008399999V0201401N002112200019N0500001N1+02861+02011101371ADDGF101991011011004501001001KA1240N+02101MA1999999100351MD1999999-0051REMSYN076AAXX  14124 82392 32499 11404 10286 20201 30035 40137 81100 333 20210 59005;
0178823920999992012091500004-03700-040350FM-12+008399999V0200501N005712200019N0040001N1+02601+02061101251ADDGA1001+999999999GF100991001001999999001001KA1240M+03801MA1999999100231MD1999999+0031REMSYN082AAXX  15004 82392 32996 00511 10260 20206 30023 40125 333 10380 29068 55105 58003;
0156823920999992012091512004-03700-040350FM-12+008399999V0200501N004112200019N0500001N1+02801+01921101531ADDGF104991021021004501031001KA1240N+02081MA1999999100501MD1999999+0151REMSYN076AAXX  15124 82392 32499 40508 10280 20192 30050 40153 82230 333 20208 58015;
0178823920999992012091600004-03700-040350FM-12+008399999V0200501N004112200019N0040001N1+02681+02091101271ADDGA1001+999999999GF100991001001999999001001KA1240M+03601MA1999999100251MD1999999+0021REMSYN082AAXX  16004 82392 32996 00508 10268 20209 30025 40127 333 10360 29066 55100 58002;
0156823920999992012091612004-03700-040350FM-12+008399999V0200501N005112200019N0500001N1+02921+01981101461ADDGF101991011011004501001001KA1240N+02201MA1999999100441MD1999999-0061REMSYN076AAXX  16124 82392 32499 10510 10292 20198 30044 40146 81100 333 20220 59006;
0178823920999992012091700004-03700-040350FM-12+008399999V0200501N005112200019N0040001N1+02761+02211101271ADDGA1001+999999999GF100991001001999999001001KA1240M+03701MA1999999100251MD1999999+0001REMSYN082AAXX  17004 82392 32996 00510 10276 20221 30025 40127 333 10370 29067 55104 58000;
0156823920999992012091712004-03700-040350FM-12+008399999V0201401N001512200019N0500001N1+02881+02251101551ADDGF104991031021004501031001KA1240N+02321MA1999999100521MD1999999+0081REMSYN076AAXX  17124 82392 32499 41403 10288 20225 30052 40155 83230 333 20232 58008;
0178823920999992012091800004-03700-040350FM-12+008399999V0200501N003112200019N0500001N1+02721+02001101271ADDGA1001+999999999GF100991001001999999001001KA1240M+03661MA1999999100251MD1999999+0001REMSYN082AAXX  18004 82392 32499 00506 10272 20200 30025 40127 333 10366 29066 55095 58000;
0156823920999992012091812004-03700-040350FM-12+008399999V0200901N004110450019N0500001N1+03001+02171101421ADDGF105991041021004501031001KA1240N+02301MA1999999100401MD1999999-0121REMSYN076AAXX  18124 82392 32499 50908 10300 20217 30040 40142 84230 333 20230 59012;
0178823920999992012091900004-03700-040350FM-12+008399999V0200501N001512200019N0040001N1+02761+02041101281ADDGA1001+999999999GF100991001001999999001001KA1240M+03561MA1999999100261MD1999999+0011REMSYN082AAXX  19004 82392 32996 00503 10276 20204 30026 40128 333 10356 29064 55088 58001;
0156823920999992012091912004-03700-040350FM-12+008399999V0200901N004112200019N0500001N1+02981+02151101361ADDGF101991011011004501001001KA1240N+02201MA1999999100351MD1999999-0051REMSYN076AAXX  19124 82392 32499 10908 10298 20215 30035 40136 81100 333 20220 59005;
0178823920999992012092000004-03700-040350FM-12+008399999V0200501N003112200019N0040001N1+02701+02171101181ADDGA1001+999999999GF100991001001999999001001KA1240M+03701MA1999999100161MD1999999-0101REMSYN082AAXX  20004 82392 32996 00506 10270 20217 30016 40118 333 10370 29069 55098 59010;
0156823920999992012092012004-03700-040350FM-12+008399999V0200901N002112200019N0500001N1+02881+02101101361ADDGF104991021011004501031001KA1240N+02081MA1999999100341MD1999999-0011REMSYN076AAXX  20124 82392 32499 40904 10288 20210 30034 40136 82130 333 20208 59001;
0178823920999992012092100004-03700-040350FM-12+008399999V0200501N004112200019N0040001N1+02661+02181101021ADDGA1001+999999999GF100991001001999999001001KA1240M+03761MA1999999100001MD1999999-0161REMSYN082AAXX  21004 82392 32996 00508 10266 20218 30000 40102 333 10376 29071 55101 59016;
0156823920999992012092112004-03700-040350FM-12+008399999V0200501N003110450019N0500001N1+02841+02041101291ADDGF106991031041004501031001KA1240N+02101MA1999999100271MD1999999-0071REMSYN076AAXX  21124 82392 32499 60506 10284 20204 30027 40129 83430 333 20210 59007;
0178823920999992012092200004-03700-040350FM-12+008399999V0200501N003112200019N0040001N1+02621+02121101101ADDGA1001+999999999GF100991001001999999001001KA1240M+03581MA1999999100081MD1999999+0081REMSYN082AAXX  22004 82392 32996 00506 10262 20212 30008 40110 333 10358 29070 55098 58008;
0156823920999992012092212004-03700-040350FM-12+008399999V0200501N003112200019N0500001N1+03001+02081101261ADDGF104991021011004501031001KA1240N+02201MA1999999100241MD1999999-0031REMSYN076AAXX  22124 82392 32499 40506 10300 20208 30024 40126 82130 333 20220 59003;
0178823920999992012092300004-03700-040350FM-12+008399999V0200501N002112200019N0040001N1+02721+02001101201ADDGA1001+999999999GF100991001001999999001001KA1240M+03761MA1999999100181MD1999999+0101REMSYN082AAXX  23004 82392 32996 00504 10272 20200 30018 40120 333 10376 29063 55097 58010;
0156823920999992012092312004-03700-040350FM-12+008399999V0200901N005110450019N0500001N1+02861+02091101271ADDGF106991031041004501031001KA1240N+02131MA1999999100251MD1999999+0011REMSYN076AAXX  23124 82392 32499 60910 10286 20209 30025 40127 83430 333 20213 58001;
0178823920999992012092400004-03700-040350FM-12+008399999V0200501N004112200019N0040001N1+02741+02171101121ADDGA1001+999999999GF100991001001999999001001KA1240M+03701MA1999999100101MD1999999-0081REMSYN082AAXX  24004 82392 32996 00508 10274 20217 30010 40112 333 10370 29068 55091 59008;
0156823920999992012092412004-03700-040350FM-12+008399999V0200501N002612200019N0500001N1+02921+02011101331ADDGF102991021011004501001001KA1240N+02341MA1999999100311MD1999999+0061REMSYN076AAXX  24124 82392 32499 20505 10292 20201 30031 40133 82100 333 20234 58006;
0178823920999992012092500004-03700-040350FM-12+008399999V0200501N005112200019N0040001N1+02661+02241101171ADDGA1001+999999999GF100991001001999999001001KA1240M+03651MA1999999100151MD1999999+0051REMSYN082AAXX  25004 82392 32996 00510 10266 20224 30015 40117 333 10365 29071 55097 58005;
0156823920999992012092512004-03700-040350FM-12+008399999V0201401N003112200019N0500001N1+02841+01961101421ADDGF103991021011004501031001KA1240N+02301MA1999999100401MD1999999+0091REMSYN076AAXX  25124 82392 32499 31406 10284 20196 30040 40142 82130 333 20230 58009;
0178823920999992012092600004-03700-040350FM-12+008399999V0200501N002612200019N0040001N1+02701+01801101271ADDGA1001+999999999GF100991001001999999001001KA1240M+03581MA1999999100251MD1999999+0101REMSYN082AAXX  26004 82392 32996 00505 10270 20180 30025 40127 333 10358 29058 55101 58010;
0156823920999992012092612004-03700-040350FM-12+008399999V0200901N003112200019N0500001N1+02941+02081101481ADDGF104991031011004501031001KA1240N+02001MA1999999100451MD1999999+0051REMSYN076AAXX  26124 82392 32499 40906 10294 20208 30045 40148 83130 333 20200 58005;
0178823920999992012092700004-03700-040350FM-12+008399999V0200501N003112200019N0040001N1+02681+02201101271ADDGA1001+999999999GF100991001001999999001001KA1240M+03661MA1999999100251MD1999999+0001REMSYN082AAXX  27004 82392 32996 00506 10268 20220 30025 40127 333 10366 29070 55102 58000;
0156823920999992012092712004-03700-040350FM-12+008399999V0200901N004112200019N0500001N1+02921+02141101421ADDGF104991041021004501001001KA1240N+02161MA1999999100401MD1999999-0051REMSYN076AAXX  27124 82392 32499 40908 10292 20214 30040 40142 84200 333 20216 59005;
0178823920999992012092800004-03700-040350FM-12+008399999V0200501N005712200019N0040001N1+02661+02201101271ADDGA1001+999999999GF100991001001999999001001KA1240M+03701MA1999999100251MD1999999+0001REMSYN082AAXX  28004 82392 32996 00511 10266 20220 30025 40127 333 10370 29072 55105 58000;
0156823920999992012092812004-03700-040350FM-12+008399999V0200901N001012200019N0500001N1+02961+02101101511ADDGF104991031011004501031001KA1240N+02321MA1999999100481MD1999999+0081REMSYN076AAXX  28124 82392 32499 40902 10296 20210 30048 40151 83130 333 20232 58008;
0178823920999992012092900004-03700-040350FM-12+008399999V0200501N002612200019N0040001N1+02661+02181101341ADDGA1001+999999999GF100991001001999999001001KA1240M+03751MA1999999100321MD1999999+0071REMSYN082AAXX  29004 82392 32996 00505 10266 20218 30032 40134 333 10375 29070 55102 58007;
0156823920999992012092912004-03700-040350FM-12+008399999V0201801N001512200019N0500001N1+02941+02081101591ADDGF104991021021004501031001KA1240N+02471MA1999999100561MD1999999+0081REMSYN076AAXX  29124 82392 32499 41803 10294 20208 30056 40159 82230 333 20247 58008;
0178823920999992012093000004-03700-040350FM-12+008399999V0200501N003112200019N0040001N1+02621+02031101361ADDGA1001+999999999GF100991001001999999001001KA1240M+03661MA1999999100341MD1999999+0021REMSYN082AAXX  30004 82392 32996 00506 10262 20203 30034 40136 333 10366 29067 55108 58002;
0156823920999992012093012004-03700-040350FM-12+008399999V0200901N005112200019N0500001N1+02901+02041101421ADDGF102991021011004501001001KA1240N+02101MA1999999100401MD1999999-0161REMSYN076AAXX  30124 82392 32499 20910 10290 20204 30040 40142 82100 333 20210 59016;
0178823920999992012100100004-03700-040350FM-12+008399999V0200501N005112200019N0040001N1+02601+02031101121ADDGA1001+999999999GF100991001001999999001001KA1240M+03761MA1999999100101MD1999999-0241REMSYN082AAXX  01004 82392 32996 00510 10260 20203 30010 40112 333 10376 29051 55107 59024;
0156823920999992012100112004-03700-040350FM-12+008399999V0202301N000510042019N0500001N1+02821+01941101281ADDGF106991051041004501031001KA1240N+02081MA1999999100261MD1999999-0141REMSYN076AAXX  01124 82392 32499 62301 10282 20194 30026 40128 85430 333 20208 59014;
0137823920999992012100118004-03700-040350FM-12+008399999V0200901N005112200019N0500001N1+03701+01601100661ADDGF101991011011004501001001MA1999999099651MD1999999-0201REMSYN070AAXX  01184 82392 32499 10910 10370 20160 39965 40066 81100 333 59020;
0168823920999992012100200004-03700-040350FM-12+008399999V0200501N004112200019N0040001N1+02661+02071100981ADDGF102991021001008001031001KA1240M+03781MA1999999099961MD1999999-0141REMSYN088AAXX  02004 82392 32596 20508 10266 20207 39996 40098 82030 333 10378 29057 55106 59014;
0156823920999992012100312004-03700-040350FM-12+008399999V0200901N005112200019N0500001N1+03021+02021101491ADDGF104991021011004501031001KA1240N+02401MA1999999100461MD1999999+0131REMSYN076AAXX  03124 82392 32499 40910 10302 20202 30046 40149 82130 333 20240 58013;
0178823920999992012100400004-03700-040350FM-12+008399999V0200501N004112200019N0040001N1+02741+02101101271ADDGA1001+999999999GF100991001001999999001001KA1240M+03791MA1999999100261MD1999999-0061REMSYN082AAXX  04004 82392 32996 00508 10274 20210 30026 40127 333 10379 29064 55083 59006;
0156823920999992012100412004-03700-040350FM-12+008399999V0200901N002112200019N0500001N1+02941+01821101411ADDGF101991011011004501001001KA1240N+02321MA1999999100391MD1999999-0091REMSYN076AAXX  04124 82392 32499 10904 10294 20182 30039 40141 81100 333 20232 59009;
0178823920999992012100500004-03700-040350FM-12+008399999V0200501N004112200019N0040001N1+02601+02101101071ADDGA1001+999999999GF100991001001999999001001KA1240M+03721MA1999999100051MD1999999-0211REMSYN082AAXX  05004 82392 32996 00508 10260 20210 30005 40107 333 10372 29066 55106 59021;
0156823920999992012100512004-03700-040350FM-12+008399999V0200501N003110450019N0500001N1+02901+02041101151ADDGF106991041021004501031001KA1240N+02201MA1999999100131MD1999999-0241REMSYN076AAXX  05124 82392 32499 60506 10290 20204 30013 40115 84230 333 20220 59024;
0178823920999992012100600004-03700-040350FM-12+008399999V0200501N004112200019N0040001N1+02661+02021101021ADDGA1001+999999999GF100991001001999999001001KA1240M+03761MA1999999100001MD1999999-0051REMSYN082AAXX  06004 82392 32996 00508 10266 20202 30000 40102 333 10376 29065 55104 59005;
0156823920999992012100612004-03700-040350FM-12+008399999V0200901N003112200019N0500001N1+03001+02001101221ADDGF101991011011004501001001KA1240N+02241MA1999999100201MD1999999+0071REMSYN076AAXX  06124 82392 32499 10906 10300 20200 30020 40122 81100 333 20224 58007;
0178823920999992012100700004-03700-040350FM-12+008399999V0200501N005112200019N0040001N1+02701+02111101061ADDGA1001+999999999GF100991001001999999001001KA1240M+03681MA1999999100051MD1999999+0051REMSYN082AAXX  07004 82392 32996 00510 10270 20211 30005 40106 333 10368 29065 55108 58005;
0156823920999992012100712004-03700-040350FM-12+008399999V0200901N005112200019N0500001N1+03061+02081101311ADDGF102991021011004501001001KA1240N+02471MA1999999100301MD1999999+0101REMSYN076AAXX  07124 82392 32499 20910 10306 20208 30030 40131 82100 333 20247 58010;
0178823920999992012100800004-03700-040350FM-12+008399999V0200501N005112200019N0040001N1+02761+02191101141ADDGA1001+999999999GF100991001001999999001001KA1240M+03701MA1999999100131MD1999999+0081REMSYN082AAXX  08004 82392 32996 00510 10276 20219 30013 40114 333 10370 29066 55106 58008;
0156823920999992012100812004-03700-040350FM-12+008399999V0200901N001012200019N0500001N1+03091+01841101191ADDGF102991021011004501001001KA1240N+02221MA1999999100181MD1999999-0121REMSYN076AAXX  08124 82392 32499 20902 10309 20184 30018 40119 82100 333 20222 59012;
0137823920999992012100818004-03700-040350FM-12+008399999V0201801N001510075019N0500001N1+03831+01361100571ADDGF105991051021008001001001MA1999999099571MD1999999+0061REMSYN070AAXX  08184 82392 32599 51803 10383 20136 39957 40057 85200 333 58006;
0168823920999992012100900004-03700-040350FM-12+008399999V0203601N001012200019N0040001N1+02741+01871100931ADDGF102991011011004501021001KA1240M+03881MA1999999099921MD1999999-0211REMSYN088AAXX  09004 82392 32496 23602 10274 20187 39992 40093 81120 333 10388 29047 55090 59021;
0156823920999992012100912004-03700-040350FM-12+008399999V0200901N004112200019N0500001N1+03001+01971101231ADDGF102991021001004501031001KA1240N+02281MA1999999100221MD1999999+0041REMSYN076AAXX  09124 82392 32499 20908 10300 20197 30022 40123 82030 333 20228 58004;
0137823920999992012100918004-03700-040350FM-12+008399999V0201401N002112200019N0500001N1+03781+01671100601ADDGF103991021011004501031001MA1999999099601MD1999999+0031REMSYN070AAXX  09184 82392 32499 31404 10378 20167 39960 40060 82130 333 58003;
0178823920999992012101000004-03700-040350FM-12+008399999V0200501N003112200019N0040001N1+02661+02181100971ADDGA1001+999999999GF100991001001999999001001KA1240M+03841MA1999999099951MD1999999+0031REMSYN082AAXX  10004 82392 32996 00506 10266 20218 39995 40097 333 10384 29058 55099 58003;
0156823920999992012101012004-03700-040350FM-12+008399999V0200901N004610450019N0500001N1+02931+02031101211ADDGF107991021011004501011011KA1240N+02161MA1999999100191MD1999999-0031REMSYN076AAXX  10124 82392 32499 70909 10293 20203 30019 40121 82111 333 20216 59003;
0137823920999992012101018004-03700-040350FM-12+008399999V0203601N000510450019N0500001N1+03461+01551100641ADDGF106991031011004501011001MA1999999099641MD1999999+0041REMSYN070AAXX  10184 82392 32499 63601 10346 20155 39964 40064 83110 333 58004;
0178823920999992012101100004-03700-040350FM-12+008399999V0203601N004112200019N0040001N1+02621+01961101101ADDGA1001+999999999GF100991001001999999001001KA1240M+03571MA1999999100081MD1999999+0131REMSYN082AAXX  11004 82392 32996 03608 10262 20196 30008 40110 333 10357 29058 55073 58013;
0156823920999992012101112004-03700-040350FM-12+008399999V0200501N003112200019N0500001N1+02921+02121101301ADDGF104991031041004501031001KA1240N+02481MA1999999100281MD1999999+0091REMSYN076AAXX  11124 82392 32499 40506 10292 20212 30028 40130 83430 333 20248 58009;
0137823920999992012101118004-03700-040350FM-12+008399999V0200901N003112200019N0500001N1+03421+01941100811ADDGF104991021011004501031001MA1999999099801MD1999999+0161REMSYN070AAXX  11184 82392 32499 40906 10342 20194 39980 40081 82130 333 58016;
0168823920999992012101200004-03700-040350FM-12+008399999V0200501N004612200019N0040001N1+02601+02191101181ADDGF102991021001008001031001KA1240M+03581MA1999999100161MD1999999-0031REMSYN088AAXX  12004 82392 32596 20509 10260 20219 30016 40118 82030 333 10358 29065 55066 59003;
0156823920999992012101212004-03700-040350FM-12+008399999V0200901N003110042019N0500001N1+02861+01871101371ADDGF107991071041004501001001KA1240N+02071MA1999999100351MD1999999+0071REMSYN076AAXX  12124 82392 32499 70906 10286 20187 30035 40137 87400 333 20207 58007;
0137823920999992012101218004-03700-040350FM-12+008399999V0200901N002612200019N0500001N1+03541+01621100801ADDGF104991041021004501001001MA1999999099791MD1999999-0011REMSYN070AAXX  12184 82392 32499 40905 10354 20162 39979 40080 84200 333 59001;
0178823920999992012101300004-03700-040350FM-12+008399999V0203601N002112200019N0040001N1+02641+01831101171ADDGA1001+999999999GF100991001001999999001001KA1240M+03601MA1999999100151MD1999999-0011REMSYN082AAXX  13004 82392 32996 03604 10264 20183 30015 40117 333 10360 29052 55088 59001;
0156823920999992012101312004-03700-040350FM-12+008399999V0200901N003112200019N0500001N1+02931+01821101261ADDGF104991041021004501001001KA1240N+02281MA1999999100241MD1999999-0111REMSYN076AAXX  13124 82392 32499 40906 10293 20182 30024 40126 84200 333 20228 59011;
0137823920999992012101318004-03700-040350FM-12+008399999V0200901N001012200019N0500001N1+03661+01621100551ADDGF103991031011004501001001MA1999999099551MD1999999-0241REMSYN070AAXX  13184 82392 32499 30902 10366 20162 39955 40055 83100 333 59024;
0178823920999992012101400004-03700-040350FM-12+008399999V0203601N002112200019N0040001N1+02591+02101100961ADDGA1001+999999999GF100991001001999999001001KA1240M+03781MA1999999099941MD1999999-0211REMSYN082AAXX  14004 82392 32996 03604 10259 20210 39994 40096 333 10378 29057 55104 59021;
0156823920999992012101412004-03700-040350FM-12+008399999V0200901N003110042019N0500001N1+02971+01861101171ADDGF106991061021004501001001KA1240N+02481MA1999999100151MD1999999-0091REMSYN076AAXX  14124 82392 32499 60906 10297 20186 30015 40117 86200 333 20248 59009;
0137823920999992012101418004-03700-040350FM-12+008399999V0200901N001010042019N0500001N1+03491+01631100551ADDGF105991051021004501001001MA1999999099551MD1999999+0001REMSYN070AAXX  14184 82392 32499 50902 10349 20163 39955 40055 85200 333 58000;
0168823920999992012101500004-03700-040350FM-12+008399999V0203601N004110450019N0040001N1+02591+01941100981ADDGF107991011011004501031001KA1240M+03641MA1999999099961MD1999999+0021REMSYN088AAXX  15004 82392 32496 73608 10259 20194 39996 40098 81130 333 10364 29055 55093 58002;
0156823920999992012101512004-03700-040350FM-12+008399999V0201801N001012200019N0500001N1+02861+02011101191ADDGF104991021011004501031001KA1240N+02101MA1999999100171MD1999999+0021REMSYN076AAXX  15124 82392 32499 41802 10286 20201 30017 40119 82130 333 20210 58002;
0137823920999992012101518004-03700-040350FM-12+008399999V0200501N003110450019N0500001N1+03541+01931100621ADDGF106991041041004501031001MA1999999099621MD1999999+0071REMSYN070AAXX  15184 82392 32499 60506 10354 20193 39962 40062 84430 333 58007;
0168823920999992012101600004-03700-040350FM-12+008399999V0200501N005112200019N0040001N1+02621+02051101001ADDGF104991021011004501031001KA1240M+03621MA1999999099981MD1999999+0021REMSYN088AAXX  16004 82392 32496 40510 10262 20205 39998 40100 82130 333 10362 29060 55082 58002;
0156823920999992012101612004-03700-040350FM-12+008399999V0201401N000510042019N0500001N1+02811+01941101151ADDGF107991051041004501031001KA1240N+02281MA1999999100131MD1999999-0041REMSYN076AAXX  16124 82392 32499 71401 10281 20194 30013 40115 85430 333 20228 59004;
0137823920999992012101618004-03700-040350FM-12+008399999V0201401N000512200019N0500001N1+03441+01531100671ADDGF106991041021004501001011MA1999999099661MD1999999+0041REMSYN070AAXX  16184 82392 32499 61401 10344 20153 39966 40067 84201 333 58004;
0178823920999992012101700004-03700-040350FM-12+008399999V0203601N001512200019N0040001N1+02641+02071101021ADDGA1001+999999999GF100991001001999999001001KA1240M+03581MA1999999100001MD1999999+0021REMSYN082AAXX  17004 82392 32996 03603 10264 20207 30000 40102 333 10358 29058 55069 58002;
0156823920999992012101712004-03700-040350FM-12+008399999V0201801N002110450019N0500001N1+02981+01981101251ADDGF106991041021004501031001KA1240N+02381MA1999999100231MD1999999+0101REMSYN076AAXX  17124 82392 32499 61804 10298 20198 30023 40125 84230 333 20238 58010;
0137823920999992012101718004-03700-040350FM-12+008399999V0200901N004112200019N0500001N1+03701+01811100711ADDGF102991021011004501001001MA1999999099701MD1999999+0041REMSYN070AAXX  17184 82392 32499 20908 10370 20181 39970 40071 82100 333 58004;
0168823920999992012101800004-03700-040350FM-12+008399999V0200501N003112200019N0040001N1+02661+02291101071ADDGF102991021001999999031001KA1240M+03781MA1999999100051MD1999999+0051REMSYN088AAXX  18004 82392 32996 20506 10266 20229 30005 40107 82030 333 10378 29062 55090 58005;
0156823920999992012101812004-03700-040350FM-12+008399999V0200901N004112200019N0500001N1+02981+01621101211ADDGF103991031011004501001001KA1240N+02271MA1999999100191MD1999999-0041REMSYN076AAXX  18124 82392 32499 30908 10298 20162 30019 40121 83100 333 20227 59004;
0147823920999992012101818004-03700-040350FM-12+008399999V0200901N001512200019N0500001N1+03611+01481100621ADDGA1001+999999999GF100991001001999999001001MA1999999099621MD1999999-0081REMSYN064AAXX  18184 82392 32499 00903 10361 20148 39962 40062 333 59008;
0178823920999992012101900004-03700-040350FM-12+008399999V0203601N002112200019N0040001N1+02691+01691101051ADDGA1001+999999999GF100991001001999999001001KA1240M+03681MA1999999100031MD1999999-0021REMSYN082AAXX  19004 82392 32996 03604 10269 20169 30003 40105 333 10368 29045 55105 59002;
0156823920999992012101912004-03700-040350FM-12+008399999V0200901N003112200019N0500001N1+03021+02071101191ADDGF104991021011004501031001KA1240N+02181MA1999999100181MD1999999-0011REMSYN076AAXX  19124 82392 32499 40906 10302 20207 30018 40119 82130 333 20218 59001;
0137823920999992012101918004-03700-040350FM-12+008399999V0200901N004612200019N0500001N1+03601+01721100621ADDGF104991031021004501031001MA1999999099621MD1999999+0001REMSYN070AAXX  19184 82392 32499 40909 10360 20172 39962 40062 83230 333 58000;
0178823920999992012102000004-03700-040350FM-12+008399999V0200501N002112200019N0040001N1+02681+02111101001ADDGA1001+999999999GF100991001001999999001001KA1240M+03721MA1999999099991MD1999999-0041REMSYN082AAXX  20004 82392 32996 00504 10268 20211 39999 40100 333 10372 29058 55108 59004;
0156823920999992012102012004-03700-040350FM-12+008399999V0201401N002112200019N0500001N1+02901+02251101201ADDGF103991021051004501031001KA1240N+02301MA1999999100181MD1999999+0001REMSYN076AAXX  20124 82392 32499 31404 10290 20225 30018 40120 82530 333 20230 58000;
0137823920999992012102018004-03700-040350FM-12+008399999V0201401N002110450019N0500001N1+03521+01871100671ADDGF105991031021004501031001MA1999999099661MD1999999+0041REMSYN070AAXX  20184 82392 32499 51404 10352 20187 39966 40067 83230 333 58004;
0168823920999992012102100004-03700-040350FM-12+008399999V0200501N003112200019N0040001N1+02761+01971100921ADDGF102991021001999999031001KA1240M+03621MA1999999099901MD1999999-0091REMSYN088AAXX  21004 82392 32996 20506 10276 20197 39990 40092 82030 333 10362 29058 55070 59009;
0156823920999992012102112004-03700-040350FM-12+008399999V0200901N004112200019N0500001N1+02901+02171101111ADDGF104991041021004501001001KA1240N+02181MA1999999100091MD1999999-0091REMSYN076AAXX  21124 82392 32499 40908 10290 20217 30009 40111 84200 333 20218 59009;
0137823920999992012102118004-03700-040350FM-12+008399999V0200901N003112200019N0500001N1+03631+01191100451ADDGF102991021011004501001001MA1999999099451MD1999999-0211REMSYN070AAXX  21184 82392 32499 20906 10363 20119 39945 40045 82100 333 59021;
0178823920999992012102200004-03700-040350FM-12+008399999V0203601N003112200019N0040001N1+02701+01781100881ADDGA1001+999999999GF100991001001999999001001KA1240M+03711MA1999999099861MD1999999-0041REMSYN082AAXX  22004 82392 32996 03606 10270 20178 39986 40088 333 10371 29050 55112 59004;
0156823920999992012102212004-03700-040350FM-12+008399999V0200901N003112200019N0500001N1+02961+02131101101ADDGF104991041011004501001001KA1240N+02231MA1999999100081MD1999999-0011REMSYN076AAXX  22124 82392 32499 40906 10296 20213 30008 40110 84100 333 20223 59001;
0137823920999992012102218004-03700-040350FM-12+008399999V0200501N001012200019N0500001N1+03631+01441100491ADDGF103991031011004501001001MA1999999099491MD1999999+0041REMSYN070AAXX  22184 82392 32499 30502 10363 20144 39949 40049 83100 333 58004;
0178823920999992012102300004-03700-040350FM-12+008399999V0203601N002112200019N0040001N1+02671+01891100921ADDGA1001+999999999GF100991001001999999001001KA1240M+03701MA1999999099901MD1999999+0041REMSYN082AAXX  23004 82392 32996 03604 10267 20189 39990 40092 333 10370 29053 55105 58004;
0156823920999992012102312004-03700-040350FM-12+008399999V0200901N003112200019N0500001N1+02841+02041101091ADDGF104991041021004501001001KA1240N+02031MA1999999100071MD1999999-0011REMSYN076AAXX  23124 82392 32499 40906 10284 20204 30007 40109 84200 333 20203 59001;
0137823920999992012102318004-03700-040350FM-12+008399999V0200501N003112200019N0500001N1+03701+01851100541ADDGF102991021011004501001001MA1999999099541MD1999999+0051REMSYN070AAXX  23184 82392 32499 20506 10370 20185 39954 40054 82100 333 58005;
0168823920999992012102400004-03700-040350FM-12+008399999V0200501N004112200019N0040001N1+02701+02281101011ADDGF103991031001008001031001KA1240M+03781MA1999999099991MD1999999+0091REMSYN088AAXX  24004 82392 32596 30508 10270 20228 39999 40101 83030 333 10378 29063 55091 58009;
0156823920999992012102412004-03700-040350FM-12+008399999V0200901N002610042019N0500001N1+02941+01911101081ADDGF105991051021004501001001KA1240N+02331MA1999999100061MD1999999-0011REMSYN076AAXX  24124 82392 32499 50905 10294 20191 30006 40108 85200 333 20233 59001;
0137823920999992012102418004-03700-040350FM-12+008399999V0200501N001012200019N0500001N1+03801+01451100451ADDGF101991011011004501001001MA1999999099461MD1999999-0081REMSYN070AAXX  24184 82392 32499 10502 10380 20145 39946 40045 81100 333 59008;
0178823920999992012102500004-03700-040350FM-12+008399999V0203601N004112200019N0040001N1+02581+02101100901ADDGA1001+999999999GF100991001001999999001001KA1240M+03891MA1999999099881MD1999999-0111REMSYN082AAXX  25004 82392 32996 03608 10258 20210 39988 40090 333 10389 29057 55112 59011;
0156823920999992012102512004-03700-040350FM-12+008399999V0200901N001010450019N0500001N1+02861+02091101111ADDGF107991041041004501011001KA1240N+02401MA1999999100091MD1999999+0031REMSYN076AAXX  25124 82392 32499 70902 10286 20209 30009 40111 84410 333 20240 58003;
0137823920999992012102518004-03700-040350FM-12+008399999V0200901N001512200019N0500001N1+03741+01841100491ADDGF102991021011004501001001MA1999999099491MD1999999+0031REMSYN070AAXX  25184 82392 32499 20903 10374 20184 39949 40049 82100 333 58003;
0168823920999992012102600004-03700-040350FM-12+008399999V0200501N002612200019N0040001N1+02641+02231101111ADDGF102991021001008001031001KA1240M+03841MA1999999099991MD1999999+0111REMSYN088AAXX  26004 82392 32596 20505 10264 20223 39999 40111 82030 333 10384 29063 55079 58011;
0201823920999992012102612004-03700-040350FM-12+008399999V0200901N002110450019N0500001N1+02771+02231101151ADDAA124001091AY161061AY261061GF106991041041004501031001KA1240N+02381MA1999999100131MD1999999+0041MW1021REMSYN088AAXX  26124 82392 21499 60904 10277 20223 30013 40115 70266 84430 333 20238 58004 60014;
0137823920999992012102618004-03700-040350FM-12+008399999V0200901N003610042019N0500001N1+03591+01571100541ADDGF105991051021004501001001MA1999999099541MD1999999+0051REMSYN070AAXX  26184 82392 32499 50907 10359 20157 39954 40054 85200 333 58005;
0168823920999992012102700004-03700-040350FM-12+008399999V0200501N004112200019N0040001N1+02641+02231101081ADDGF101991011001008001031001KA1240M+03701MA1999999100061MD1999999+0071REMSYN088AAXX  27004 82392 32596 10508 10264 20223 30006 40108 81030 333 10370 29064 55092 58007;
0156823920999992012102712004-03700-040350FM-12+008399999V0200901N001010450019N0500001N1+02891+01961101221ADDGF106991041021004501031001KA1240N+02021MA1999999100201MD1999999+0071REMSYN076AAXX  27124 82392 32499 60902 10289 20196 30020 40122 84230 333 20202 58007;
0137823920999992012102718004-03700-040350FM-12+008399999V0200501N000512200019N0500001N1+03611+01481100641ADDGF104991041021004501001001MA1999999099641MD1999999+0101REMSYN070AAXX  27184 82392 32499 40501 10361 20148 39964 40064 84200 333 58010;
0168823920999992012102800004-03700-040350FM-12+008399999V0200501N001510450019N0040001N1+02671+01841101111ADDGF107991031021004501011001KA1240M+03701MA1999999100091MD1999999+0031REMSYN088AAXX  28004 82392 32496 70503 10267 20184 30009 40111 83210 333 10370 29051 55072 58003;
0156823920999992012102812004-03700-040350FM-12+008399999V0200901N001510042019N0500001N1+02941+02001101211ADDGF106991061021004501001001KA1240N+02371MA1999999100191MD1999999-0011REMSYN076AAXX  28124 82392 32499 60903 10294 20200 30019 40121 86200 333 20237 59001;
0137823920999992012102818004-03700-040350FM-12+008399999V0201401N031420450019N0500001N1+03671+01641100681ADDGF105991041021004501011001MA1999999099671MD1999999+0031REMSYN070AAXX  28184 82392 32499 51461 10367 20164 39967 40068 84210 333 58003;
0178823920999992012102900004-03700-040350FM-12+008399999V0200501N007212200019N0040001N1+02581+02061101071ADDGA1001+999999999GF100991001001999999001001KA1240M+03671MA1999999100051MD1999999-0041REMSYN082AAXX  29004 82392 32996 00514 10258 20206 30005 40107 333 10367 29058 55091 59004;
0156823920999992012102912004-03700-040350FM-12+008399999V0200501N004110450019N0500001N1+02801+02251101431ADDGF108991041051004501021999KA1240N+02381MA1999999100411MD1999999+0221REMSYN076AAXX  29124 82392 32499 80508 10280 20225 30041 40143 8452/ 333 20238 58022;
0137823920999992012102918004-03700-040350FM-12+008399999V0200901N001012200019N0500001N1+03501+02051100861ADDGF102991021011004501001001MA1999999099851MD1999999+0181REMSYN070AAXX  29184 82392 32499 20902 10350 20205 39985 40086 82100 333 58018;
0168823920999992012103000004-03700-040350FM-12+008399999V0200501N003112200019N0040001N1+02601+02101101181ADDGF102991021001008001031001KA1240M+03601MA1999999100161MD1999999+0111REMSYN088AAXX  30004 82392 32596 20506 10260 20210 30016 40118 82030 333 10360 29066 55068 58011;
0156823920999992012103012004-03700-040350FM-12+008399999V0200501N001010042019N0500001N1+02761+01911101331ADDGF108991081041004501999999KA1240N+02231MA1999999100311MD1999999-0101REMSYN076AAXX  30124 82392 32499 80502 10276 20191 30031 40133 884// 333 20223 59010;
0137823920999992012103018004-03700-040350FM-12+008399999V0200501N002112200019N0500001N1+03661+01511100741ADDGF102991021011004501001001MA1999999099731MD1999999-0121REMSYN070AAXX  30184 82392 32499 20504 10366 20151 39973 40074 82100 333 59012;
0178823920999992012103100004-03700-040350FM-12+008399999V0203601N002612200019N0040001N1+02541+01981101121ADDGA1001+999999999GF100991001001999999001001KA1240M+03681MA1999999100101MD1999999-0061REMSYN082AAXX  31004 82392 32996 03605 10254 20198 30010 40112 333 10368 29058 55073 59006;
0156823920999992012103112004-03700-040350FM-12+008399999V0201401N002112200019N0500001N1+02801+02181101121ADDGF103991031011004501001001KA1240N+02101MA1999999100101MD1999999-0211REMSYN076AAXX  31124 82392 32499 31404 10280 20218 30010 40112 83100 333 20210 59021;
0137823920999992012103118004-03700-040350FM-12+008399999V0200501N001012200019N0500001N1+03781+01871100391ADDGF101991011011004501001001MA1999999099391MD1999999-0341REMSYN070AAXX  31184 82392 32499 10502 10378 20187 39939 40039 81100 333 59034;
0178823920999992012110100004-03700-040350FM-12+008399999V0200501N005112200019N0040001N1+02621+02371100821ADDGA1001+999999999GF100991001001999999001001KA1240M+03851MA1999999099801MD1999999-0301REMSYN082AAXX  01004 82392 32996 00510 10262 20237 39980 40082 333 10385 29069 55110 59030;
0156823920999992012110112004-03700-040350FM-12+008399999V0200901N000510042019N0500001N1+02921+01831101091ADDGF106991061021004501001001KA1240N+02301MA1999999100071MD1999999-0031REMSYN076AAXX  01124 82392 32499 60901 10292 20183 30007 40109 86200 333 20230 59003;
0137823920999992012110118004-03700-040350FM-12+008399999V0203601N001010042019N0500001N1+03511+01831100541ADDGF106991061021004501001001MA1999999099541MD1999999+0151REMSYN070AAXX  01184 82392 32499 63602 10351 20183 39954 40054 86200 333 58015;
0168823920999992012110200004-03700-040350FM-12+008399999V0203601N002112200019N0040001N1+02601+02011101071ADDGF103991011011004501011001KA1240M+03681MA1999999100051MD1999999+0251REMSYN088AAXX  02004 82392 32496 33604 10260 20201 30005 40107 81110 333 10368 29057 55096 58025;
0156823920999992012110212004-03700-040350FM-12+008399999V0200501N003112200019N0500001N1+02941+02161101221ADDGF103991031021004501001001KA1240N+02201MA1999999100201MD1999999+0131REMSYN076AAXX  02124 82392 32499 30506 10294 20216 30020 40122 83200 333 20220 58013;
0137823920999992012110218004-03700-040350FM-12+008399999V0200501N004612200019N0500001N1+03561+01991100741ADDGF103991031021004501001001MA1999999099731MD1999999+0191REMSYN070AAXX  02184 82392 32499 30509 10356 20199 39973 40074 83200 333 58019;
0187823920999992012110300004-03700-040350FM-12+008399999V0200501N005119999999N0040001N1+02621+02351100181ADDGF105991999001008001031001KA1240M+03701MA1999999100161MD1999999+0111REMSYN088AAXX  03004 82392 32596 50510 10262 20235 30016 40018 82030 333 10370 29068 55107 58011;EQDQ01+000022SCOTLC
0156823920999992012110312004-03700-040350FM-12+008399999V0200901N001012200019N0500001N1+02921+02171101271ADDGF104991021011004501031001KA1240N+02101MA1999999100251MD1999999+0051REMSYN076AAXX  03124 82392 32499 40902 10292 20217 30025 40127 82130 333 20210 58005;
0137823920999992012110318004-03700-040350FM-12+008399999V0200501N002110450019N0500001N1+03541+02051100761ADDGF106991031021004501031001MA1999999099751MD1999999+0021REMSYN070AAXX  03184 82392 32499 60504 10354 20205 39975 40076 83230 333 58002;
0178823920999992012110400004-03700-040350FM-12+008399999V0200501N003112200019N0040001N1+02781+02161101111ADDGA1001+999999999GF100991001001999999001001KA1240M+03621MA1999999100101MD1999999-0061REMSYN082AAXX  04004 82392 32996 00506 10278 20216 30010 40111 333 10362 29061 55093 59006;
0156823920999992012110412004-03700-040350FM-12+008399999V0200501N001012200019N0500001N1+03001+02171101131ADDGF101991011011004501001001KA1240N+02281MA1999999100121MD1999999-0131REMSYN076AAXX  04124 82392 32499 10502 10300 20217 30012 40113 81100 333 20228 59013;
0137823920999992012110418004-03700-040350FM-12+008399999V0200501N001012200019N0500001N1+03721+02051100601ADDGF101991011011004501001001MA1999999099591MD1999999-0161REMSYN070AAXX  04184 82392 32499 10502 10372 20205 39959 40060 81100 333 59016;
0178823920999992012110500004-03700-040350FM-12+008399999V0200501N002612200019N0040001N1+02661+02391101011ADDGA1001+999999999GF100991001001999999001001KA1240M+03781MA1999999099991MD1999999-0111REMSYN082AAXX  05004 82392 32996 00505 10266 20239 39999 40101 333 10378 29067 55109 59011;
0156823920999992012110512004-03700-040350FM-12+008399999V0203201N000510042019N0500001N1+02841+02011101101ADDGF106991051021004501011001KA1240N+02211MA1999999100081MD1999999-0041REMSYN076AAXX  05124 82392 32499 63201 10284 20201 30008 40110 85210 333 20221 59004;
0137823920999992012110518004-03700-040350FM-12+008399999V0200501N000511050019N0500001N1+03611+01531100511ADDGF106991031021004501001031MA1999999099511MD1999999-0081REMSYN070AAXX  05184 82392 32499 60501 10361 20153 39951 40051 83203 333 59008;
0187823920999992012110600004-03700-040350FM-12+008399999V0203601N002112200019N0040001N1+02611+02011100931ADDGF101991999021008001001001KA1240M+03741MA1999999099911MD1999999-0081REMSYN088AAXX  06004 82392 32596 13604 10261 20201 39991 40093 83200 333 10374 29057 55102 59008;EQDQ01+000032SCOTLC
0156823920999992012110612004-03700-040350FM-12+008399999V0200901N003112200019N0500001N1+02901+01961101161ADDGF102991021011004501001001KA1240N+02301MA1999999100141MD1999999+0061REMSYN076AAXX  06124 82392 32499 20906 10290 20196 30014 40116 82100 333 20230 58006;
0137823920999992012110618004-03700-040350FM-12+008399999V0200501N004110450019N0500001N1+03641+01751100611ADDGF105991031021004501031001MA1999999099611MD1999999+0101REMSYN070AAXX  06184 82392 32499 50508 10364 20175 39961 40061 83230 333 58010;
0168823920999992012110700004-03700-040350FM-12+008399999V0200501N003112200019N0040001N1+02641+02071101081ADDGF102991021001999999031001KA1240M+03701MA1999999100061MD1999999+0151REMSYN088AAXX  07004 82392 32996 20506 10264 20207 30006 40108 82030 333 10370 29058 55107 58015;
0156823920999992012110712004-03700-040350FM-12+008399999V0200901N001010042019N0500001N1+02881+01801101181ADDGF106991061021004501001001KA1240N+02171MA1999999100161MD1999999+0021REMSYN076AAXX  07124 82392 32499 60902 10288 20180 30016 40118 86200 333 20217 58002;
0137823920999992012110718004-03700-040350FM-12+008399999V0200901N001012200019N0500001N1+03631+01501100581ADDGF102991021011004501001001MA1999999099581MD1999999-0031REMSYN070AAXX  07184 82392 32499 20902 10363 20150 39958 40058 82100 333 59003;
0178823920999992012110800004-03700-040350FM-12+008399999V0200501N002612200019N0040001N1+02631+01901101011ADDGA1001+999999999GF100991001001999999001001KA1240M+03711MA1999999099991MD1999999-0071REMSYN082AAXX  08004 82392 32996 00505 10263 20190 39999 40101 333 10371 29052 55101 59007;
0156823920999992012110812004-03700-040350FM-12+008399999V0200901N004612200019N0500001N1+03061+01771101061ADDGF101991011011004501001001KA1240N+02401MA1999999100041MD1999999-0141REMSYN076AAXX  08124 82392 32499 10909 10306 20177 30004 40106 81100 333 20240 59014;
0137823920999992012110818004-03700-040350FM-12+008399999V0200501N003112200019N0500001N1+03501+01771100451ADDGF102991021011004501001001MA1999999099451MD1999999-0131REMSYN070AAXX  08184 82392 32499 20506 10350 20177 39945 40045 82100 333 59013;
0168823920999992012110900004-03700-040350FM-12+008399999V0200501N003112200019N0040001N1+02681+01971100821ADDGF104991021011004501031001KA1240M+03601MA1999999099811MD1999999+0171REMSYN088AAXX  09004 82392 32496 40506 10268 20197 39981 40082 82130 333 10360 29053 55097 58017;
0156823920999992012110912004-03700-040350FM-12+008399999V0200501N002112200019N0500001N1+02961+01961100971ADDGF104991031021004501031001KA1240N+02301MA1999999099951MD1999999-0071REMSYN076AAXX  09124 82392 32499 40504 10296 20196 39995 40097 83230 333 20230 59007;
0137823920999992012110918004-03700-040350FM-12+008399999V0200501N002112200019N0500001N1+03541+01711100441ADDGF104991041021004501001001MA1999999099441MD1999999-0011REMSYN070AAXX  09184 82392 32499 40504 10354 20171 39944 40044 84200 333 59001;
0168823920999992012111000004-03700-040350FM-12+008399999V0203601N002112200019N0040001N1+02681+02111100801ADDGF102991021001004501031001KA1240M+03601MA1999999099781MD1999999-0031REMSYN088AAXX  10004 82392 32496 23604 10268 20211 39978 40080 82030 333 10360 29058 55095 59003;
0156823920999992012111012004-03700-040350FM-12+008399999V0200901N003110450019N0500001N1+02861+02011101011ADDGF105991031011004501031001KA1240N+02201MA1999999099991MD1999999+0041REMSYN076AAXX  10124 82392 32499 50906 10286 20201 39999 40101 83130 333 20220 58004;
0137823920999992012111018004-03700-040350FM-12+008399999V0200501N001012200019N0500001N1+03481+01791100501ADDGF103991021011004501001011MA1999999099501MD1999999+0061REMSYN070AAXX  10184 82392 32499 30502 10348 20179 39950 40050 82101 333 58006;
0178823920999992012111100004-03700-040350FM-12+008399999V0200501N004112200019N0040001N1+02601+02061100931ADDGA1001+999999999GF100991001001999999001001KA1240M+03661MA1999999099911MD1999999+0131REMSYN082AAXX  11004 82392 32996 00508 10260 20206 39991 40093 333 10366 29060 55087 58013;
0156823920999992012111112004-03700-040350FM-12+008399999V0200901N004612200019N0500001N1+02921+01981101121ADDGF102991021011004501001001KA1240N+02281MA1999999100101MD1999999+0011REMSYN076AAXX  11124 82392 32499 20909 10292 20198 30010 40112 82100 333 20228 58001;
0137823920999992012111118004-03700-040350FM-12+008399999V0200901N003112200019N0500001N1+03701+01551100521ADDGF102991021001004501031001MA1999999099521MD1999999+0021REMSYN070AAXX  11184 82392 32499 20906 10370 20155 39952 40052 82030 333 58002;
0178823920999992012111200004-03700-040350FM-12+008399999V0200501N005112200019N0040001N1+02661+01951100921ADDGA1001+999999999GF100991001001999999001001KA1240M+03761MA1999999099901MD1999999-0011REMSYN082AAXX  12004 82392 32496 00510 10266 20195 39990 40092 333 10376 29054 55110 59001;
0156823920999992012111212004-03700-040350FM-12+008399999V0200901N004112200019N0500001N1+03001+02081101011ADDGF104991041011004501001001KA1240N+02301MA1999999100091MD1999999-0011REMSYN076AAXX  12124 82392 32499 40908 10300 20208 30009 40101 84100 333 20230 59001;
0137823920999992012111218004-03700-040350FM-12+008399999V0200901N001012200019N0500001N1+03681+01531100521ADDGF102991021011004501001001MA1999999099521MD1999999+0001REMSYN070AAXX  12184 82392 32499 20902 10368 20153 39952 40052 82100 333 58000;
0168823920999992012111300004-03700-040350FM-12+008399999V0200501N005112200019N0040001N1+02621+02161100921ADDGF101991011001008001031001KA1240M+03771MA1999999099901MD1999999+0001REMSYN088AAXX  13004 82392 32596 10510 10262 20216 39990 40092 81030 333 10377 29060 55110 58000;
0156823920999992012111312004-03700-040350FM-12+008399999V0201401N001010042019N0500001N1+02891+01881101081ADDGF106991051021004501001011KA1240N+02271MA1999999100061MD1999999-0031REMSYN076AAXX  13124 82392 32499 61402 10289 20188 30006 40108 85201 333 20227 59003;
0137823920999992012111318004-03700-040350FM-12+008399999V0202701N001012200019N0500001N1+03761+01711100521ADDGF104991041021004501001001MA1999999099521MD1999999+0001REMSYN070AAXX  13184 82392 32499 42702 10376 20171 39952 40052 84200 333 58000;
0178823920999992012111400004-03700-040350FM-12+008399999V0200501N004112200019N0040001N1+02571+01941100961ADDGA1001+999999999GF100991001001999999001001KA1240M+03781MA1999999099941MD1999999+0041REMSYN082AAXX  14004 82392 32996 00508 10257 20194 39994 40096 333 10378 29055 55110 58004;
0156823920999992012111412004-03700-040350FM-12+008399999V0203201N001010450019N0500001N1+02801+01921101101ADDGF106991031021004501031001KA1240N+02201MA1999999100081MD1999999+0021REMSYN076AAXX  14124 82392 32499 63202 10280 20192 30008 40110 83230 333 20220 58002;
0137823920999992012111418004-03700-040350FM-12+008399999V0203601N001012200019N0500001N1+03681+01641100601ADDGF101991011011004501001001MA1999999099601MD1999999+0081REMSYN070AAXX  14184 82392 32499 13602 10368 20164 39960 40060 81100 333 58008;
0168823920999992012111500004-03700-040350FM-12+008399999V0200501N005112200019N0040001N1+02601+02101100991ADDGF102991021001999999031001KA1240M+03751MA1999999099971MD1999999+0031REMSYN088AAXX  15004 82392 32996 20510 10260 20210 39997 40099 82030 333 10375 29059 55088 58003;
0156823920999992012111512004-03700-040350FM-12+008399999V0201401N000510450019N0500001N1+02961+02031101081ADDGF106991041021004501031001KA1240N+02181MA1999999100061MD1999999-0021REMSYN076AAXX  15124 82392 32499 61401 10296 20203 30006 40108 84230 333 20218 59002;
0137823920999992012111518004-03700-040350FM-12+008399999V0201401N000511050019N0500001N1+03561+01781100481ADDGF105991031011004501001021MA1999999099481MD1999999-0121REMSYN070AAXX  15184 82392 32499 51401 10356 20178 39948 40048 83102 333 59012;
0156823920999992012111612004-03700-040350FM-12+008399999V0200501N000512200019N0500001N1+02981+01791101121ADDGF102991021011004501001001KA1240N+02241MA1999999100101MD1999999+0041REMSYN076AAXX  16124 82392 32499 20501 10298 20179 30010 40112 82100 333 20224 58004;
0137823920999992012111618004-03700-040350FM-12+008399999V0200501N002112200019N0500001N1+03781+01561100501ADDGF102991021011004501001001MA1999999099501MD1999999+0021REMSYN070AAXX  16184 82392 32499 20504 10378 20156 39950 40050 82100 333 58002;
0168823920999992012111700004-03700-040350FM-12+008399999V0200501N004112200019N0040001N1+02661+02021100901ADDGF102991021001008001031001KA1240M+03721MA1999999099881MD1999999-0021REMSYN088AAXX  17004 82392 32596 20508 10266 20202 39988 40090 82030 333 10372 29053 55110 59002;
0156823920999992012111712004-03700-040350FM-12+008399999V0200901N001510042019N0500001N1+02961+01931101211ADDGF106991061021004501001001KA1240N+02171MA1999999100191MD1999999+0091REMSYN076AAXX  17124 82392 32499 60903 10296 20193 30019 40121 86200 333 20217 58009;
0137823920999992012111718004-03700-040350FM-12+008399999V0200901N001012200019N0500001N1+03731+01581100701ADDGF103991031011004501001001MA1999999099691MD1999999+0191REMSYN070AAXX  17184 82392 32499 30902 10373 20158 39969 40070 83100 333 58019;
0178823920999992012111800004-03700-040350FM-12+008399999V0203601N002112200019N0040001N1+02671+02041101141ADDGA1001+999999999GF100991001001999999001001KA1240M+03771MA1999999100121MD1999999+0241REMSYN082AAXX  18004 82392 32996 03604 10267 20204 30012 40114 333 10377 29055 55108 58024;
0156823920999992012111812004-03700-040350FM-12+008399999V0201401N000510450019N0500001N1+02921+02041101241ADDGF106991041021004501031001KA1240N+02231MA1999999100221MD1999999+0031REMSYN076AAXX  18124 82392 32499 61401 10292 20204 30022 40124 84230 333 20223 58003;
0137823920999992012111818004-03700-040350FM-12+008399999V0203601N000512200019N0500001N1+03701+01811100611ADDGF103991031011004501001001MA1999999099611MD1999999-0081REMSYN070AAXX  18184 82392 32499 33601 10370 20181 39961 40061 83100 333 59008;
0178823920999992012111900004-03700-040350FM-12+008399999V0203601N002112200019N0040001N1+02681+02041101061ADDGA1001+999999999GF100991001001999999001001KA1240M+03731MA1999999100041MD1999999-0081REMSYN082AAXX  19004 82392 32996 03604 10268 20204 30004 40106 333 10373 29057 55106 59008;
0156823920999992012111912004-03700-040350FM-12+008399999V0200501N001010042019N0500001N1+02971+02011101171ADDGF106991061021004501001001KA1240N+02291MA1999999100151MD1999999-0071REMSYN076AAXX  19124 82392 32499 60502 10297 20201 30015 40117 86200 333 20229 59007;
0137823920999992012111918004-03700-040350FM-12+008399999V0200901N001010042019N0500001N1+03681+01741100581ADDGF105991051021004501001001MA1999999099581MD1999999-0031REMSYN070AAXX  19184 82392 32499 50902 10368 20174 39958 40058 85200 333 59003;
0178823920999992012112000004-03700-040350FM-12+008399999V0203601N002112200019N0040001N1+02721+01931101021ADDGA1001+999999999GF100991001001999999001001KA1240M+03761MA1999999100001MD1999999-0041REMSYN082AAXX  20004 82392 32996 03604 10272 20193 30000 40102 333 10376 29053 55106 59004;
0156823920999992012112012004-03700-040350FM-12+008399999V0200901N004112200019N0500001N1+02981+02061101111ADDGF103991021011004501031001KA1240N+02301MA1999999100101MD1999999-0051REMSYN076AAXX  20124 82392 32499 30908 10298 20206 30010 40111 82130 333 20230 59005;
0137823920999992012112018004-03700-040350FM-12+008399999V0200901N001012200019N0500001N1+03741+01641100501ADDGF103991031011004501001001MA1999999099501MD1999999-0081REMSYN070AAXX  20184 82392 32499 30902 10374 20164 39950 40050 83100 333 59008;
0178823920999992012112100004-03700-040350FM-12+008399999V0203601N003112200019N0040001N1+02741+01811100951ADDGA1001+999999999GF100991001001999999001001KA1240M+03791MA1999999099931MD1999999-0071REMSYN082AAXX  21004 82392 32996 03606 10274 20181 39993 40095 333 10379 29050 55107 59007;
0175823920999992012112112004-03700-040350FM-12+008399999V0200501N001010042019N0500001N1+02961+01901101101ADDGF106991999021004501001001KA1240N+02291MA1999999100081MD1999999-0021REMSYN076AAXX  21124 82392 32499 60502 10296 20190 30008 40110 85200 333 20229 59002;EQDQ01+000052SCOTLC
0137823920999992012112118004-03700-040350FM-12+008399999V0200901N001512200019N0500001N1+03561+01781100611ADDGF104991041021004501001001MA1999999099611MD1999999+0111REMSYN070AAXX  21184 82392 32499 40903 10356 20178 39961 40061 84200 333 58011;
0178823920999992012112200004-03700-040350FM-12+008399999V0203601N001512200019N0040001N1+02731+01781101091ADDGA1001+999999999GF100991001001999999001001KA1240M+03691MA1999999100071MD1999999+0141REMSYN082AAXX  22004 82392 32996 03603 10273 20178 30007 40109 333 10369 29050 55081 58014;
0156823920999992012112212004-03700-040350FM-12+008399999V0200901N004112200019N0500001N1+03041+02031101041ADDGF102991021011004501001001KA1240N+02181MA1999999100031MD1999999-0051REMSYN076AAXX  22124 82392 32499 20908 10304 20203 30003 40104 82100 333 20218 59005;
0137823920999992012112218004-03700-040350FM-12+008399999V0200501N003112200019N0500001N1+03701+01761100521ADDGF101991011011004501001001MA1999999099521MD1999999-0091REMSYN070AAXX  22184 82392 32499 10506 10370 20176 39952 40052 81100 333 59009;
0168823920999992012112300004-03700-040350FM-12+008399999V0200501N002112200019N0040001N1+02681+01971100951ADDGF102991021001008001031001KA1240M+03801MA1999999099941MD1999999-0131REMSYN088AAXX  23004 82392 32596 20504 10268 20197 39994 40095 82030 333 10380 29054 55107 59013;
0156823920999992012112312004-03700-040350FM-12+008399999V0200501N001010042019N0500001N1+02921+01981101081ADDGF106991061021004501001001KA1240N+02281MA1999999100061MD1999999+0031REMSYN076AAXX  23124 82392 32499 60502 10292 20198 30006 40108 86200 333 20228 58003;
0137823920999992012112318004-03700-040350FM-12+008399999V0201401N002112200019N0500001N1+03841+01891100431ADDGF102991021011008001001001MA1999999099431MD1999999-0091REMSYN070AAXX  23184 82392 32599 21404 10384 20189 39943 40043 82100 333 59009;
0168823920999992012112400004-03700-040350FM-12+008399999V0203601N003119999999N0040001N1+02691+02081100921ADDGF105991051001008001031001KA1240M+03911MA1999999099901MD1999999-0041REMSYN088AAXX  24004 82392 32596 53606 10269 20208 39990 40092 85030 333 10391 29057 55102 59004;
0156823920999992012112412004-03700-040350FM-12+008399999V0200901N000510042019N0500001N1+02781+02061101211ADDGF107991071061004501001001KA1240N+02511MA1999999100191MD1999999+0131REMSYN076AAXX  24124 82392 32499 70901 10278 20206 30019 40121 87600 333 20251 58013;
0137823920999992012112418004-03700-040350FM-12+008399999V0200501N001010450019N0500001N1+03461+01941100631ADDGF105991041021004501031001MA1999999099631MD1999999+0201REMSYN070AAXX  24184 82392 32499 50502 10346 20194 39963 40063 84230 333 58020;
0168823920999992012112500004-03700-040350FM-12+008399999V0203601N002112200019N0040001N1+02691+02031101041ADDGF103991031001008001011001KA1240M+03601MA1999999100021MD1999999+0121REMSYN088AAXX  25004 82392 32596 33604 10269 20203 30002 40104 83010 333 10360 29060 55070 58012;
0156823920999992012112512004-03700-040350FM-12+008399999V0200901N000510042019N0500001N1+02881+02101101181ADDGF106991061061004501001001KA1240N+02271MA1999999100161MD1999999-0031REMSYN076AAXX  25124 82392 32499 60901 10288 20210 30016 40118 86600 333 20227 59003;
0137823920999992012112518004-03700-040350FM-12+008399999V0200501N002110042019N0500001N1+03561+01991100671ADDGF106991051041004501031001MA1999999099661MD1999999+0031REMSYN070AAXX  25184 82392 32499 60504 10356 20199 39966 40067 85430 333 58003;
0168823920999992012112600004-03700-040350FM-12+008399999V0203601N002612200019N0040001N1+02711+02001101061ADDGF101991011001008001011001KA1240M+03681MA1999999100041MD1999999+0021REMSYN088AAXX  26004 82392 32596 13605 10271 20200 30004 40106 81010 333 10368 29058 55084 58002;
0156823920999992012112612004-03700-040350FM-12+008399999V0200501N004112200019N0500001N1+02981+02151101121ADDGF103991021011004501031001KA1240N+02211MA1999999100101MD1999999-0061REMSYN076AAXX  26124 82392 32499 30508 10298 20215 30010 40112 82130 333 20221 59006;
0137823920999992012112618004-03700-040350FM-12+008399999V0200501N004110450019N0500001N1+03661+01721100601ADDGF106991041041004501031001MA1999999099601MD1999999-0061REMSYN070AAXX  26184 82392 32499 60508 10366 20172 39960 40060 84430 333 59006;
0178823920999992012112700004-03700-040350FM-12+008399999V0200501N003112200019N0040001N1+02741+02171100991ADDGA1001+999999999GF100991001001999999001001KA1240M+03731MA1999999099981MD1999999-0061REMSYN082AAXX  27004 82392 32596 00506 10274 20217 39998 40099 333 10373 29059 55104 59006;
0156823920999992012112712004-03700-040350FM-12+008399999V0200901N020610042019N0500001N1+02981+01921101151ADDGF106991061021004501001001KA1240N+02321MA1999999100131MD1999999+0031REMSYN076AAXX  27124 82392 32499 60940 10298 20192 30013 40115 86200 333 20232 58003;
0137823920999992012112718004-03700-040350FM-12+008399999V0201401N000510042019N0500001N1+03581+01791100461ADDGF106991061021004501001001MA1999999099461MD1999999-0141REMSYN070AAXX  27184 82392 32499 61401 10358 20179 39946 40046 86200 333 59014;
0168823920999992012112800004-03700-040350FM-12+008399999V0200501N001019999999N0040001N1+02721+02051100811ADDGF106991061001008001031001KA1240M+03631MA1999999099791MD1999999-0191REMSYN088AAXX  28004 82392 32596 60502 10272 20205 39979 40081 86030 333 10363 29056 55088 59019;
0156823920999992012112812004-03700-040350FM-12+008399999V0200501N003110450019N0500001N1+02841+01961100991ADDGF106991041021004501031001KA1240N+02281MA1999999099971MD1999999-0161REMSYN076AAXX  28124 82392 32499 60506 10284 20196 39997 40099 84230 333 20228 59016;
0137823920999992012112818004-03700-040350FM-12+008399999V0201401N001012200019N0500001N1+03501+01771100501ADDGF104991031021004501031001MA1999999099501MD1999999+0041REMSYN070AAXX  28184 82392 32499 41402 10350 20177 39950 40050 83230 333 58004;
0168823920999992012112900004-03700-040350FM-12+008399999V0200501N004612200019N0040001N1+02721+02131100841ADDGF102991021001008001031001KA1240M+03641MA1999999099821MD1999999+0031REMSYN088AAXX  29004 82392 32596 20509 10272 20213 39982 40084 82030 333 10364 29059 55078 58003;
0156823920999992012112912004-03700-040350FM-12+008399999V0200901N001010450019N0500001N1+03081+01951101071ADDGF106991041021004501031001KA1240N+02451MA1999999100061MD1999999+0091REMSYN076AAXX  29124 82392 32499 60902 10308 20195 30006 40107 84230 333 20245 58009;
0156823920999992012112918004-03700-040350FM-12+008399999V0200901N002619999999N0500001N1+03391+01931100521ADDGF106991999021004501001001MA1999999099521MD1999999+0021REMSYN070AAXX  29184 82392 32499 60905 10339 20193 39952 40052 83200 333 58002;EQDQ01+000032SCOTLC
0168823920999992012113000004-03700-040350FM-12+008399999V0203601N000512200019N0040001N1+02731+01951100851ADDGF102991021001008001011001KA1240M+03561MA1999999099841MD1999999+0021REMSYN088AAXX  30004 82392 32596 23601 10273 20195 39984 40085 82010 333 10356 29054 55064 58002;
0156823920999992012113012004-03700-040350FM-12+008399999V0200501N003110450019N0500001N1+02821+02271101071ADDGF106991031021004501031001KA1240N+02541MA1999999100051MD1999999-0011REMSYN076AAXX  30124 82392 32499 60506 10282 20227 30005 40107 83230 333 20254 59001;
0137823920999992012113018004-03700-040350FM-12+008399999V0201401N000510450019N0500001N1+03001+02241100721ADDGF108991041041004501021999MA1999999099701MD1999999+0181REMSYN070AAXX  30184 82392 32499 81401 10300 20224 39970 40072 8442/ 333 58018;
0168823920999992012120100004-03700-040350FM-12+008399999V0200501N004110450019N0040001N1+02701+02131100961ADDGF107991041041004501031001KA1240M+03301MA1999999099941MD1999999+0101REMSYN088AAXX  01004 82392 32496 70508 10270 20213 39994 40096 84430 333 10330 29070 55031 58010;
0156823920999992012120112004-03700-040350FM-12+008399999V0200201N001012200019N0500001N1+02901+02101101061ADDGF104991041021004501001001KA1240N+02401MA1999999100041MD1999999-0011REMSYN076AAXX  01124 82392 32499 40202 10290 20210 30004 40106 84200 333 20240 59001;
0178823920999992012120200004-03700-040350FM-12+008399999V0200501N002112200019N0040001N1+02701+02131100901ADDGA1001+999999999GF100991001001999999001001KA1240M+03601MA1999999099881MD1999999-0061REMSYN082AAXX  02004 82392 32996 00504 10270 20213 39988 40090 333 10360 29068 55080 59006;
0156823920999992012120212004-03700-040350FM-12+008399999V0201401N002110450019N0500001N1+02801+02081101071ADDGF107991031041004501011001KA1240N+02201MA1999999100051MD1999999+0011REMSYN076AAXX  02124 82392 32499 71404 10280 20208 30005 40107 83410 333 20220 58001;
0168823920999992012120300004-03700-040350FM-12+008399999V0200501N003112200019N0040001N1+02661+02241100861ADDGF102991021001008001031001KA1240M+03641MA1999999099241MD1999999-0041REMSYN088AAXX  03004 82392 32596 20506 10266 20224 39924 40086 82030 333 10364 29074 55083 59004;
0156823920999992012120312004-03700-040350FM-12+008399999V0200501N004110450019N0500001N1+02961+02131101121ADDGF105991021021004501031001KA1240N+02381MA1999999100101MD1999999+0051REMSYN076AAXX  03124 82392 32499 50508 10296 20213 30010 40112 82230 333 20238 58005;
0178823920999992012120400004-03700-040350FM-12+008399999V0200501N005112200019N0040001N1+02721+02241101051ADDGA1001+999999999GF100991001001999999001001KA1240M+03661MA1999999100031MD1999999+0191REMSYN082AAXX  04004 82392 32996 00510 10272 20224 30003 40105 333 10366 29070 55086 58019;
0156823920999992012120412004-03700-040350FM-12+008399999V0200901N003110450019N0500001N1+02961+02131101221ADDGF105991021021004501031001KA1240N+02301MA1999999100201MD1999999+0101REMSYN076AAXX  04124 82392 32499 50906 10296 20213 30020 40122 82230 333 20230 58010;
0178823920999992012120500004-03700-040350FM-12+008399999V0200501N004612200019N0040001N1+02701+02111101071ADDGA1001+999999999GF100991001001999999001001KA1240M+03701MA1999999100051MD1999999+0021REMSYN082AAXX  05004 82392 32996 00509 10270 20211 30005 40107 333 10370 29067 55087 58002;
0156823920999992012120512004-03700-040350FM-12+008399999V0200501N004110450019N0500001N1+02921+02061101101ADDGF106991031021004501031001KA1240N+02231MA1999999100081MD1999999-0121REMSYN076AAXX  05124 82392 32499 60508 10292 20206 30008 40110 83230 333 20223 59012;
0168823920999992012120600004-03700-040350FM-12+008399999V0200501N005110450019N0040001N1+02741+02211100881ADDGF106991031051004501031001KA1240M+03741MA1999999099861MD1999999-0191REMSYN088AAXX  06004 82392 32496 60510 10274 20221 39986 40088 83530 333 10374 29069 55097 59019;
0156823920999992012120612004-03700-040350FM-12+008399999V0200901N005110450019N0500001N1+03021+02181100991ADDGF105991021021004501031001KA1240N+02401MA1999999099971MD1999999-0111REMSYN076AAXX  06124 82392 32499 50910 10302 20218 39997 40099 82230 333 20240 59011;
0178823920999992012120700004-03700-040350FM-12+008399999V0200501N003112200019N0040001N1+02701+02221100901ADDGA1001+999999999GF100991001001999999001001KA1240M+03561MA1999999099891MD1999999+0031REMSYN082AAXX  07004 82392 32996 00506 10270 20222 39989 40090 333 10356 29070 55074 58003;
0156823920999992012120712004-03700-040350FM-12+008399999V0200501N003110450019N0500001N1+02801+02031101021ADDGF106991031061004501031001KA1240N+02211MA1999999100001MD1999999+0031REMSYN076AAXX  07124 82392 32499 60506 10280 20203 30000 40102 83630 333 20221 58003;
0178823920999992012120800004-03700-040350FM-12+008399999V0200501N004112200019N0040001N1+02721+02241100971ADDGA1001+999999999GF100991001001999999001001KA1240M+03561MA1999999099951MD1999999+0061REMSYN082AAXX  08004 82392 32996 00508 10272 20224 39995 40097 333 10356 29071 55062 58006;
0156823920999992012120812004-03700-040350FM-12+008399999V0200901N004612200019N0500001N1+02901+02121101221ADDGF104991041021004501001001KA1240N+02301MA1999999100201MD1999999+0201REMSYN076AAXX  08124 82392 32499 40909 10290 20212 30020 40122 84200 333 20230 58020;
0168823920999992012120900004-03700-040350FM-12+008399999V0200501N005112200019N0040001N1+02761+02211101081ADDGF104991021011004501031001KA1240M+03761MA1999999100061MD1999999+0111REMSYN088AAXX  09004 82392 32496 40510 10276 20221 30006 40108 82130 333 10376 29069 55097 58011;
0156823920999992012120912004-03700-040350FM-12+008399999V0200901N002110450019N0500001N1+02941+02161101211ADDGF107991041051004501031001KA1240N+02401MA1999999100201MD1999999+0001REMSYN076AAXX  09124 82392 32499 70904 10294 20216 30020 40121 84530 333 20240 58000;
0168823920999992012121000004-03700-040350FM-12+008399999V0200501N004112200019N0040001N1+02701+02221101111ADDGF104991031011004501001011KA1240M+03581MA1999999100091MD1999999+0031REMSYN088AAXX  10004 82392 32496 40508 10270 20222 30009 40111 83101 333 10358 29071 55050 58003;
0156823920999992012121012004-03700-040350FM-12+008399999V0200501N002612200019N0500001N1+02881+02101101101ADDGF104991041021004501001001KA1240N+02241MA1999999100081MD1999999-0121REMSYN076AAXX  10124 82392 32499 40505 10288 20210 30008 40110 84200 333 20224 59012;
0168823920999992012121100004-03700-040350FM-12+008399999V0200901N003110450019N0040001N1+02721+02101100921ADDGF106991031021004501031001KA1240M+03721MA1999999099901MD1999999-0191REMSYN088AAXX  11004 82392 32496 60906 10272 20210 39990 40092 83230 333 10372 29067 55095 59019;
0156823920999992012121112004-03700-040350FM-12+008399999V0201401N003112200019N0500001N1+02961+02021101051ADDGF104991021021004501031001KA1240N+02281MA1999999100031MD1999999-0051REMSYN076AAXX  11124 82392 32499 41406 10296 20202 30003 40105 82230 333 20228 59005;
0178823920999992012121200004-03700-040350FM-12+008399999V0200501N003112200019N0040001N1+02781+02231100861ADDGA1001+999999999GF100991001001999999001001KA1240M+03601MA1999999099851MD1999999-0051REMSYN082AAXX  12004 82392 32996 00506 10278 20223 39985 40086 333 10360 29067 55086 59005;
0156823920999992012121212004-03700-040350FM-12+008399999V0200901N004112200019N0500001N1+02941+02161101061ADDGF104991021011004501031001KA1240N+02281MA1999999100051MD1999999+0021REMSYN076AAXX  12124 82392 32499 40908 10294 20216 30005 40106 82130 333 20228 58002;
0168823920999992012121300004-03700-040350FM-12+008399999V0200501N005112200019N0040001N1+02741+02171100821ADDGF104991021011004501031001KA1240M+03751MA1999999099801MD1999999-0051REMSYN088AAXX  13004 82392 32496 40510 10274 20217 39980 40082 82130 333 10375 29068 55104 59005;
0156823920999992012121312004-03700-040350FM-12+008399999V0200901N005110450019N0500001N1+02901+02061101021ADDGF106991031021004501031001KA1240N+02301MA1999999100001MD1999999-0051REMSYN076AAXX  13124 82392 32499 60910 10290 20206 30000 40102 83230 333 20230 59005;
0168823920999992012121400004-03700-040350FM-12+008399999V0203601N005112200019N0040001N1+02761+02211100871ADDGF102991021001008001031001KA1240M+03801MA1999999099851MD1999999+0051REMSYN088AAXX  14004 82392 32596 23610 10276 20221 39985 40087 82030 333 10380 29068 55096 58005;
0156823920999992012121412004-03700-040350FM-12+008399999V0201401N004110450019N0200001N1+02941+02141100991ADDGF105991031021004501031001KA1240N+02281MA1999999099981MD1999999+0081REMSYN076AAXX  14124 82392 32498 51408 10294 20214 39998 40099 83230 333 20228 58008;
0178823920999992012121500004-03700-040350FM-12+008399999V0200501N002612200019N0040001N1+02701+02201100771ADDGA1001+999999999GF100991001001999999001001KA1240M+03861MA1999999099751MD1999999-0101REMSYN082AAXX  15004 82392 32996 00505 10270 20220 39975 40077 333 10386 29070 55108 59010;
0175823920999992012121512004-03700-040350FM-12+008399999V0200901N004619999999N0500001N1+03041+02031100961ADDGF106991999021004501001001KA1240N+02381MA1999999099951MD1999999-0031REMSYN076AAXX  15124 82392 32499 60909 10304 20203 39995 40096 84200 333 20238 59003;EQDQ01+000042SCOTLC
0178823920999992012121600004-03700-040350FM-12+008399999V0200501N003112200019N0040001N1+02821+02081100811ADDGA1001+999999999GF100991001001999999001001KA1240M+03801MA1999999099801MD1999999+0051REMSYN082AAXX  16004 82392 32996 00506 10282 20208 39980 40081 333 10380 29062 55100 58005;
0156823920999992012121612004-03700-040350FM-12+008399999V0201401N002110450019N0500001N1+02901+02201101011ADDGF108991031061004501021999KA1240N+02321MA1999999100001MD1999999+0051REMSYN076AAXX  16124 82392 32499 81404 10290 20220 30000 40101 8362/ 333 20232 58005;
0168823920999992012121700004-03700-040350FM-12+008399999V0200501N002612200019N0040001N1+02841+02251100931ADDGF102991021001008001031001KA1240M+03581MA1999999099921MD1999999+0121REMSYN088AAXX  17004 82392 32596 20505 10284 20225 39992 40093 82030 333 10358 29072 55047 58012;
0175823920999992012121712004-03700-040350FM-12+008399999V0200901N002612200019N0500001N1+02901+02151101041ADDGF104991999021004501001001KA1240N+02301MA1999999100031MD1999999+0031REMSYN076AAXX  17124 82392 32499 40905 10290 20215 30003 40104 83200 333 20230 58003;EQDQ01+000032SCOTLC
0168823920999992012121800004-03700-040350FM-12+008399999V0203601N003112200019N0040001N1+02801+02311100841ADDGF102991021001008001031001KA1240M+03701MA1999999099831MD1999999-0091REMSYN088AAXX  18004 82392 32596 23606 10280 20231 39983 40084 82030 333 10370 29071 55100 59009;
0156823920999992012121812004-03700-040350FM-12+008399999V0201401N002110450019N0500001N1+02981+02151101011ADDGF106991031011004501031001KA1240N+02381MA1999999100001MD1999999-0031REMSYN076AAXX  18124 82392 32499 61404 10298 20215 30000 40101 83130 333 20238 59003;
0168823920999992012121900004-03700-040350FM-12+008399999V0200501N005119999999N0040001N1+02721+02301100911ADDGF106991031041999999031001KA1240M+03751MA1999999099901MD1999999+0071REMSYN088AAXX  19004 82392 32996 60510 10272 20230 39990 40091 83430 333 10375 29072 55089 58007;
0156823920999992012121912004-03700-040350FM-12+008399999V0200501N001010450019N0500001N1+02801+02121100971ADDGF107991041051004501031001KA1240N+02401MA1999999099951MD1999999-0051REMSYN076AAXX  19124 82392 32499 70502 10280 20212 39995 40097 84530 333 20240 59005;
0178823920999992012122000004-03700-040350FM-12+008399999V0200501N005112200019N0040001N1+02701+02241100801ADDGA1001+999999999GF100991001001999999001001KA1240M+03741MA1999999099741MD1999999-0121REMSYN082AAXX  20004 82392 32596 00510 10270 20224 39974 40080 333 10374 29072 55071 59012;
0156823920999992012122012004-03700-040350FM-12+008399999V0200501N003112200019N0500001N1+03021+02071100981ADDGF104991021011004501031001KA1240N+02501MA1999999099971MD1999999+0021REMSYN076AAXX  20124 82392 32499 40506 10302 20207 39997 40098 82130 333 20250 58002;
0178823920999992012122100004-03700-040350FM-12+008399999V0200501N003112200019N0040001N1+02761+02141100761ADDGA1001+999999999GF100991001001999999001001KA1240M+03701MA1999999099751MD1999999-0031REMSYN082AAXX  21004 82392 32996 00506 10276 20214 39975 40076 333 10370 29065 55088 59003;
0156823920999992012122112004-03700-040350FM-12+008399999V0200901N004112200019N0500001N1+02941+02081101011ADDGF104991041021004501001001KA1240N+02381MA1999999100001MD1999999+0031REMSYN076AAXX  21124 82392 32499 40908 10294 20208 30000 40101 84200 333 20238 58003;
0178823920999992012122200004-03700-040350FM-12+008399999V0200501N003112200019N0040001N1+02841+01961100871ADDGA1001+999999999GF100991001001999999001001KA1240M+03681MA1999999099861MD1999999+0081REMSYN082AAXX  22004 82392 32996 00506 10284 20196 39986 40087 333 10368 29059 55105 58008;
0156823920999992012122212004-03700-040350FM-12+008399999V0200501N003110450019N0500001N1+02901+02121101071ADDGF105991041041008001031001KA1240N+02381MA1999999100061MD1999999+0061REMSYN076AAXX  22124 82392 32599 50506 10290 20212 30006 40107 84430 333 20238 58006;
0187823920999992012122300004-03700-040350FM-12+008399999V0200501N002612200019N0040001N1+02781+02231100881ADDGF102991999021008001001001KA1240M+03741MA1999999099861MD1999999+0001REMSYN088AAXX  23004 82392 32596 20505 10278 20223 39986 40088 83200 333 10374 29069 55074 58000;EQDQ01+000032SCOTLC
0156823920999992012122312004-03700-040350FM-12+008399999V0200901N003110450019N0500001N1+03021+02181101011ADDGF107991031051004501011001KA1240N+02381MA1999999100001MD1999999-0061REMSYN076AAXX  23124 82392 32499 70906 10302 20218 30000 40101 83510 333 20238 59006;
0178823920999992012122400004-03700-040350FM-12+008399999V0200501N002112200019N0040001N1+02761+02301100871ADDGA1001+999999999GF100991001001999999001001KA1240M+03841MA1999999099861MD1999999+0001REMSYN082AAXX  24004 82392 32996 00504 10276 20230 39986 40087 333 10384 29071 55104 58000;
0156823920999992012122412004-03700-040350FM-12+008399999V0200901N005110450019N0500001N1+02881+02181101131ADDGF106991031051004501031001KA1240N+02301MA1999999100111MD1999999+0111REMSYN076AAXX  24124 82392 32499 60910 10288 20218 30011 40113 83530 333 20230 58011;
0168823920999992012122500004-03700-040350FM-12+008399999V0200501N003112200019N0040001N1+02741+02221100971ADDGF104991021011008001031001KA1240M+03701MA1999999099951MD1999999+0091REMSYN088AAXX  25004 82392 32596 40506 10274 20222 39995 40097 82130 333 10370 29072 55078 58009;
0156823920999992012122512004-03700-040350FM-12+008399999V0200901N001010450019N0500001N1+02941+02161101121ADDGF106991031021004501031001KA1240N+02501MA1999999100101MD1999999-0011REMSYN076AAXX  25124 82392 32499 60902 10294 20216 30010 40112 83230 333 20250 59001;
0168823920999992012122600004-03700-040350FM-12+008399999V0200501N003112200019N0040001N1+02741+02201101041ADDGF103991031021008001001001KA1240M+03661MA1999999100021MD1999999+0071REMSYN088AAXX  26004 82392 32596 30506 10274 20220 30002 40104 83200 333 10366 29068 55075 58007;
0156823920999992012122612004-03700-040350FM-12+008399999V0200501N001010450019N0500001N1+02861+02141101241ADDGF106991031021004501031001KA1240N+02371MA1999999100221MD1999999+0121REMSYN076AAXX  26124 82392 32499 60502 10286 20214 30022 40124 83230 333 20237 58012;
0168823920999992012122700004-03700-040350FM-12+008399999V0203601N002112200019N0040001N1+02761+02301100981ADDGF102991021001008001031001KA1240M+03771MA1999999099961MD1999999-0061REMSYN088AAXX  27004 82392 32596 23604 10276 20230 39996 40098 82030 333 10377 29072 55093 59006;
0175823920999992012122712004-03700-040350FM-12+008399999V0200901N002112200019N0500001N1+02901+02151101111ADDGF104991999011004501001001KA1240N+02361MA1999999100091MD1999999-0131REMSYN076AAXX  27124 82392 32499 40904 10290 20215 30009 40111 82100 333 20236 59013;EQDQ01+000022SCOTLC
0187823920999992012122800004-03700-040350FM-12+008399999V0200501N003112200019N0040001N1+02781+02231100871ADDGF102991999021008001001001KA1240M+03771MA1999999099851MD1999999-0111REMSYN088AAXX  28004 82392 32596 20506 10278 20223 39985 40087 83200 333 10377 29069 55099 59011;EQDQ01+000032SCOTLC
0156823920999992012122812004-03700-040350FM-12+008399999V0200901N002112200019N0500001N1+02861+02141101021ADDGF104991031011004501031001KA1240N+02361MA1999999100001MD1999999-0091REMSYN076AAXX  28124 82392 32499 40904 10286 20214 30000 40102 83130 333 20236 59009;
0178823920999992012122900004-03700-040350FM-12+008399999V0200501N003112200019N0040001N1+02781+02231100921ADDGA1001+999999999GF100991001001999999001001KA1240M+03701MA1999999099901MD1999999+0051REMSYN082AAXX  29004 82392 32996 00506 10278 20223 39990 40092 333 10370 29070 55047 58005;
0175823920999992012122912004-03700-040350FM-12+008399999V0200901N001012200019N0500001N1+02881+02101101061ADDGF102991999041004501031001KA1240N+02341MA1999999100041MD1999999+0041REMSYN076AAXX  29124 82392 32499 20902 10288 20210 30004 40106 84430 333 20234 58004;EQDQ01+000042SCOTLC
0178823920999992012123000004-03700-040350FM-12+008399999V0200501N002112200019N0040001N1+02801+02291101021ADDGA1001+999999999GF100991001001999999001001KA1240M+03641MA1999999099901MD1999999+0001REMSYN082AAXX  30004 82392 32996 00504 10280 20229 39990 40102 333 10364 29070 55062 58000;
0156823920999992012123012004-03700-040350FM-12+008399999V0200901N002110450019N0500001N1+02921+02141101111ADDGF106991031021004501031001KA1240N+02501MA1999999100101MD1999999+0061REMSYN076AAXX  30124 82392 32499 60904 10292 20214 30010 40111 83230 333 20250 58006;
0156823920999992012123112004-03700-040350FM-12+008399999V0200901N001510450019N0500001N1+02921+02091101181ADDGF107991041021004501031001KA1240N+02331MA1999999100161MD1999999+0061REMSYN076AAXX  31124 82392 32499 70903 10292 20209 30016 40118 84230 333 20233 58006;
0137823920999992012123118004-03700-040350FM-12+008399999V0200901N001010450019N0500001N1+03501+01901100621ADDGF106991021021004501031001MA1999999099621MD1999999+0071REMSYN070AAXX  31184 82392 32499 60902 10350 20190 39962 40062 82230 333 58007;
