0168825830999992012010100004-05167-040667FM-12+029999999V0200901N002112200019N0040001N1+03071+01711100831ADDGF102991021001017501031001KA1240M+03511MA1999999097511MD1999999-0081REMSYN088AAXX  01004 82583 32796 20904 10307 20171 39751 40083 82030 333 10351 29045 55083 59008;
0156825830999992012010112004-05167-040667FM-12+029999999V0200901N004610120019N0500001N1+02751+02021101201ADDGF108991081081008001999999KA1240N+02431MA1999999097861MD1999999+0091REMSYN076AAXX  01124 82583 32599 80909 10275 20202 39786 40120 888// 333 20243 58009;
0137825830999992012010118004-05167-040667FM-12+029999999V0200501N003112200019N0500001N1+03491+01861100641ADDGF104991041021008001001001MA1999999097321MD1999999-0031REMSYN070AAXX  01184 82583 32599 40506 10349 20186 39732 40064 84200 333 59003;
0168825830999992012010200004-05167-040667FM-12+029999999V0203201N003612200019N0040001N1+02991+02051100951ADDGF104991041011008001001001KA1240M+03511MA1999999097611MD1999999+0101REMSYN088AAXX  02004 82583 32596 43207 10299 20205 39761 40095 84100 333 10351 29054 55082 58010;
0156825830999992012010212004-05167-040667FM-12+029999999V0200501N005112200019N0500001N1+02801+01901101121ADDGF104991031011008001001011KA1240N+02211MA1999999097781MD1999999-0081REMSYN076AAXX  02124 82583 32599 40510 10280 20190 39778 40112 83101 333 20221 59008;
0137825830999992012010218004-05167-040667FM-12+029999999V0200501N004112200019N0500001N1+03571+01551100531ADDGF105991041011008001001011MA1999999097221MD1999999-0101REMSYN070AAXX  02184 82583 32599 50508 10357 20155 39722 40053 84101 333 59010;
0168825830999992012010300004-05167-040667FM-12+029999999V0203601N004612200019N0040001N1+03091+01691100911ADDGF102991021021008001001001KA1240M+03681MA1999999097541MD1999999-0031REMSYN088AAXX  03004 82583 32596 23609 10309 20169 39754 40091 82200 333 10368 29044 55107 59003;
0156825830999992012010312004-05167-040667FM-12+029999999V0200501N002110120019N0500001N1+02651+02071101181ADDGF108991081081008001999999KA1240N+02281MA1999999097841MD1999999+0061REMSYN076AAXX  03124 82583 32599 80504 10265 20207 39784 40118 888// 333 20228 58006;
0137825830999992012010318004-05167-040667FM-12+029999999V0200901N002610075019N0500001N1+03501+01941100641ADDGF106991061051008001001001MA1999999097321MD1999999+0101REMSYN070AAXX  03184 82583 32599 60905 10350 20194 39732 40064 86500 333 58010;
0168825830999992012010400004-05167-040667FM-12+029999999V0200901N001012200019N0040001N1+03071+01781100891ADDGF102991021011008001001001KA1240M+03601MA1999999097551MD1999999-0031REMSYN088AAXX  04004 82583 32596 20902 10307 20178 39755 40089 82100 333 10360 29050 55067 59003;
0156825830999992012010412004-05167-040667FM-12+029999999V0203201N000510120019N0500001N1+02651+02071101241ADDGF108991081081008001999999KA1240N+02381MA1999999097921MD1999999+0061REMSYN076AAXX  04124 82583 32599 83201 10265 20207 39792 40124 888// 333 20238 58006;
0156825830999992012010418004-05167-040667FM-12+029999999V0200901N004619999999N0500001N1+03571+01751100641ADDGF105991999021008001001001MA1999999097341MD1999999+0021REMSYN070AAXX  04184 82583 32599 50909 10357 20175 39734 40064 84200 333 58002;EQDQ01+000042SCOTLC
0168825830999992012010500004-05167-040667FM-12+029999999V0200901N002119999999N0040001N1+03091+01731100901ADDGF107991001001999999001071KA1240M+03661MA1999999097561MD1999999+0011REMSYN088AAXX  05004 82583 32996 70904 10309 20173 39756 40090 80007 333 10366 29048 55053 58001;
0137825830999992012010518004-05167-040667FM-12+029999999V0200901N004610075019N0500001N1+03451+01731100671ADDGF106991061021008001001001MA1999999097361MD1999999+0021REMSYN070AAXX  05184 82583 32599 60909 10345 20173 39736 40067 86200 333 58002;
0168825830999992012010600004-05167-040667FM-12+029999999V0200901N000512200019N0040001N1+02991+01781100931ADDGF102991021011999999001001KA1240M+03621MA1999999097601MD1999999+0041REMSYN088AAXX  06004 82583 32996 20901 10299 20178 39760 40093 82100 333 10362 29048 55050 58004;
0156825830999992012010612004-05167-040667FM-12+029999999V0200501N004610075019N0500001N1+02801+02031101201ADDGF108991081051008001999999KA1240N+02491MA1999999097851MD1999999-0041REMSYN076AAXX  06124 82583 32599 80509 10280 20203 39785 40120 885// 333 20249 59004;
0137825830999992012010618004-05167-040667FM-12+029999999V0200901N004610075019N0500001N1+03381+01711100781ADDGF105991051021008001001001MA1999999097461MD1999999+0101REMSYN070AAXX  06184 82583 32599 50909 10338 20171 39746 40078 85200 333 58010;
0168825830999992012010700004-05167-040667FM-12+029999999V0201401N003112200019N0040001N1+02891+01591100851ADDGF102991021021999999001001KA1240M+03571MA1999999097511MD1999999-0091REMSYN088AAXX  07004 82583 32996 21406 10289 20159 39751 40085 82200 333 10357 29048 55074 59009;
0156825830999992012010712004-05167-040667FM-12+029999999V0200901N005110120019N0500001N1+02691+02031101241ADDGF106991061081008001001001KA1240N+02361MA1999999097891MD1999999+0041REMSYN076AAXX  07124 82583 32599 60910 10269 20203 39789 40124 86800 333 20236 58004;
0137825830999992012010718004-05167-040667FM-12+029999999V0200901N005110075019N0500001N1+03371+01711100731ADDGF105991051021008001001001MA1999999097411MD1999999-0051REMSYN070AAXX  07184 82583 32599 50910 10337 20171 39741 40073 85200 333 59005;
0178825830999992012010800004-05167-040667FM-12+029999999V0200901N004612200019N0040001N1+02871+01671100901ADDGA1001+999999999GF100991001001999999001001KA1240M+03531MA1999999097561MD1999999+0051REMSYN082AAXX  08004 82583 32996 00909 10287 20167 39756 40090 333 10353 29050 55081 58005;
0156825830999992012010812004-05167-040667FM-12+029999999V0200901N001012200019N0500001N1+02781+02111101141ADDGF103991031051008001001001KA1240N+02361MA1999999097791MD1999999-0101REMSYN076AAXX  08124 82583 32599 30902 10278 20211 39779 40114 83500 333 20236 59010;
0137825830999992012010818004-05167-040667FM-12+029999999V0201401N006712200019N0500001N1+03571+01551100581ADDGF103991031011008001001001MA1999999097271MD1999999-0141REMSYN070AAXX  08184 82583 32599 31413 10357 20155 39727 40058 83100 333 59014;
0168825830999992012010900004-05167-040667FM-12+029999999V0200501N001512200019N0040001N1+03081+01681100801ADDGF101991011001017501041001KA1240M+03731MA1999999097501MD1999999-0061REMSYN088AAXX  09004 82583 32796 10503 10308 20168 39750 40080 81040 333 10373 29046 55100 59006;
0156825830999992012010912004-05167-040667FM-12+029999999V0200901N005110075019N0500001N1+02941+02081101051ADDGF106991051021008001001011KA1240N+02501MA1999999097731MD1999999-0061REMSYN076AAXX  09124 82583 32599 60910 10294 20208 39773 40105 85201 333 20250 59006;
0137825830999992012010918004-05167-040667FM-12+029999999V0200901N003610075019N0500001N1+03551+01781100581ADDGF105991051021008001001001MA1999999097281MD1999999+0011REMSYN070AAXX  09184 82583 32599 50907 10355 20178 39728 40058 85200 333 58001;
0168825830999992012011000004-05167-040667FM-12+029999999V0200501N003112200019N0040001N1+03031+01851100821ADDGF102991021011008001001001KA1240M+03691MA1999999097501MD1999999+0001REMSYN088AAXX  10004 82583 32596 20506 10303 20185 39750 40082 82100 333 10369 29048 55069 58000;
0156825830999992012011012004-05167-040667FM-12+029999999V0200901N006712200019N0500001N1+02821+01781101041ADDGF105991041011008001001011KA1240N+02431MA1999999097701MD1999999-0031REMSYN076AAXX  10124 82583 32599 50913 10282 20178 39770 40104 84101 333 20243 59003;
0156825830999992012011018004-05167-040667FM-12+029999999V0200901N006719999999N0500001N1+03431+01331100641ADDGF106991999021008001001001MA1999999097321MD1999999+0041REMSYN070AAXX  10184 82583 32599 60913 10343 20133 39732 40064 84200 333 58004;EQDQ01+000042SCOTLC
0168825830999992012011100004-05167-040667FM-12+029999999V0200501N001512200019N0040001N1+02951+01741100761ADDGF101991011001017501031001KA1240M+03511MA1999999097431MD1999999-0071REMSYN088AAXX  11004 82583 32796 10503 10295 20174 39743 40076 81030 333 10351 29044 55079 59007;
0156825830999992012011112004-05167-040667FM-12+029999999V0200901N006712200019N0500001N1+02831+01821101071ADDGF105991041011008001001011KA1240N+02411MA1999999097731MD1999999+0031REMSYN076AAXX  11124 82583 32599 50913 10283 20182 39773 40107 84101 333 20241 58003;
0137825830999992012011118004-05167-040667FM-12+029999999V0200901N006212200019N0500001N1+03511+01701100621ADDGF104991041021008001001001MA1999999097301MD1999999-0021REMSYN070AAXX  11184 82583 32599 40912 10351 20170 39730 40062 84200 333 59002;
0178825830999992012011200004-05167-040667FM-12+029999999V0200901N004612200019N0040001N1+03041+01531100841ADDGA1001+999999999GF100991001001999999001001KA1240M+03631MA1999999097521MD1999999+0091REMSYN082AAXX  12004 82583 32996 00909 10304 20153 39752 40084 333 10363 29042 55103 58009;
0156825830999992012011212004-05167-040667FM-12+029999999V0200901N006210075019N0500001N1+02981+02041101151ADDGF106991061021008001001001KA1240N+02561MA1999999097821MD1999999+0091REMSYN076AAXX  12124 82583 32599 60912 10298 20204 39782 40115 86200 333 20256 58009;
0137825830999992012011218004-05167-040667FM-12+029999999V0200901N005112200019N0500001N1+03491+01721100741ADDGF104991041021008001001001MA1999999097421MD1999999+0121REMSYN070AAXX  12184 82583 32599 40910 10349 20172 39742 40074 84200 333 58012;
0187825830999992012011300004-05167-040667FM-12+029999999V0200901N001012200019N0040001N1+03031+01711100931ADDGF101991999081999999081011KA1240M+03631MA1999999097611MD1999999+0081REMSYN088AAXX  13004 82583 32996 10902 10303 20171 39761 40093 88881 333 10363 29046 55081 58008;EQDQ01+000082SCOTLC
0156825830999992012011312004-05167-040667FM-12+029999999V0200901N006710075019N0500001N1+02871+01971101151ADDGF106991051021008001031001KA1240N+02491MA1999999097811MD1999999-0011REMSYN076AAXX  13124 82583 32599 60913 10287 20197 39781 40115 85230 333 20249 59001;
0137825830999992012011318004-05167-040667FM-12+029999999V0200901N005112200019N0500001N1+03531+01671100671ADDGF104991041021008001001001MA1999999097351MD1999999-0071REMSYN070AAXX  13184 82583 32599 40910 10353 20167 39735 40067 84200 333 59007;
0178825830999992012011400004-05167-040667FM-12+029999999V0200501N001512200019N0040001N1+03151+01821100981ADDGA1001+999999999GF100991001001999999001001KA1240M+03601MA1999999097661MD1999999+0051REMSYN082AAXX  14004 82583 32996 00503 10315 20182 39766 40098 333 10360 29045 55019 58005;
0156825830999992012011412004-05167-040667FM-12+029999999V0200901N007211050019N0500001N1+02871+02001101151ADDGF106991041021008001001021KA1240N+02491MA1999999097821MD1999999+0011REMSYN076AAXX  14124 82583 32599 60914 10287 20200 39782 40115 84202 333 20249 58001;
0137825830999992012011418004-05167-040667FM-12+029999999V0200901N006711050019N0500001N1+03511+01501100671ADDGF106991041021008001001021MA1999999097351MD1999999+0001REMSYN070AAXX  14184 82583 32599 60913 10351 20150 39735 40067 84202 333 58000;
0168825830999992012011500004-05167-040667FM-12+029999999V0200901N000512200019N0040001N1+03031+01851100851ADDGF101991001001999999001011KA1240M+03591MA1999999097531MD1999999-0131REMSYN088AAXX  15004 82583 32996 10901 10303 20185 39753 40085 80001 333 10359 29047 55070 59013;
0156825830999992012011512004-05167-040667FM-12+029999999V0200901N002610120019N0500001N1+02801+02081101221ADDGF106991061081008001001001KA1240N+02801MA1999999097821MD1999999+0001REMSYN076AAXX  15124 82583 32599 60905 10280 20208 39782 40122 86800 333 20280 58000;
0137825830999992012011518004-05167-040667FM-12+029999999V0200901N005710120019N0500001N1+03371+01661100681ADDGF107991061081008001999999MA1999999097361MD1999999+0011REMSYN070AAXX  15184 82583 32599 70911 10337 20166 39736 40068 868// 333 58001;
0178825830999992012011600004-05167-040667FM-12+029999999V0200501N001012200019N0040001N1+03031+01681100831ADDGA1001+999999999GF100991001001999999001001KA1240M+03501MA1999999097501MD1999999-0031REMSYN082AAXX  16004 82583 32996 00502 10303 20168 39750 40083 333 10350 29047 55039 59003;
0156825830999992012011612004-05167-040667FM-12+029999999V0200501N004610120019N0500001N1+02851+01901101231ADDGF108991061081008001051999KA1240N+02601MA1999999097891MD1999999+0071REMSYN076AAXX  16124 82583 32599 80509 10285 20190 39789 40123 8685/ 333 20260 58007;
0137825830999992012011618004-05167-040667FM-12+029999999V0200501N004610450019N0500001N1+03111+01561100861ADDGF108991011011008001021999MA1999999097521MD1999999+0161REMSYN070AAXX  16184 82583 32599 80509 10311 20156 39752 40086 8112/ 333 58016;
0168825830999992012011700004-05167-040667FM-12+029999999V0202701N001512200019N0040001N1+02831+01671101091ADDGF102991001001999999001011KA1240M+03331MA1999999097751MD1999999+0251REMSYN088AAXX  17004 82583 32996 22703 10283 20167 39775 40109 80001 333 10333 29048 55021 58025;
0156825830999992012011712004-05167-040667FM-12+029999999V0200901N002610450019N0500001N1+02671+01991101201ADDGF106991031011008001031001KA1240N+02251MA1999999097841MD1999999-0051REMSYN076AAXX  17124 82583 32599 60905 10267 20199 39784 40120 83130 333 20225 59005;
0137825830999992012011718004-05167-040667FM-12+029999999V0200501N003110120019N0500001N1+03371+01621100651ADDGF107991071081008001999999MA1999999097331MD1999999-0191REMSYN070AAXX  17184 82583 32599 70506 10337 20162 39733 40065 878// 333 59019;
0168825830999992012011800004-05167-040667FM-12+029999999V0202701N002112200019N0040001N1+02981+01761100861ADDGF101991011011008001001001KA1240M+03541MA1999999097521MD1999999-0231REMSYN088AAXX  18004 82583 32596 12704 10298 20176 39752 40086 81100 333 10354 29049 55062 59023;
0156825830999992012011812004-05167-040667FM-12+029999999V0200501N002110120019N0500001N1+02711+02051101151ADDGF107991061081008001031011KA1240N+02461MA1999999097811MD1999999-0031REMSYN076AAXX  18124 82583 32599 70504 10271 20205 39781 40115 86831 333 20246 59003;
0137825830999992012011818004-05167-040667FM-12+029999999V0203601N003610120019N0500001N1+03301+01951100551ADDGF107991061081008001021011MA1999999097231MD1999999-0101REMSYN070AAXX  18184 82583 32599 73607 10330 20195 39723 40055 86821 333 59010;
0213825830999992012011900004-05167-040667FM-12+029999999V0201401N002110075019N0010001N1+02481+02131101011ADDAA106003091AY121061AY221061GF108991081051008001999999KA1240M+03461MA1999999097641MD1999999+0121MW1631REMSYN100AAXX  19004 82583 21594 81404 10248 20213 39764 40101 76322 885// 333 10346 29068 55029 58012 60031;
0201825830999992012011912004-05167-040667FM-12+029999999V0200901N004610042019N0040001N1+02341+02181101241ADDAA124016091AY161061AY261061GF108991081051004501999999KA1240N+02101MA1999999097841MD1999999+0031MW1631REMSYN088AAXX  19124 82583 21496 80909 10234 20218 39784 40124 76366 885// 333 20210 58003 60164;
0182825830999992012011918004-05167-040667FM-12+029999999V0201801N001010075019N0100001N1+02611+02211100871ADDAA106014091AY161061AY261061GF108991081051008001999999MA1999999097481MD1999999+0251MW1021REMSYN082AAXX  19184 82583 21597 81802 10261 20221 39748 40087 70266 885// 333 58025 60141;
0187825830999992012012000004-05167-040667FM-12+029999999V0203601N001512200019N0040001N1+02401+02191101061ADDGF102991999021008001001001KA1240M+02821MA1999999097661MD1999999+0021REMSYN088AAXX  20004 82583 32596 23603 10240 20219 39766 40106 83200 333 10282 29086 55000 58002;EQDQ01+000032SCOTLC
0173825830999992012012012004-05167-040667FM-12+029999999V0200901N005110075019N0500001N1+02631+02231101191ADDAA124014091GF106991051021008001031001KA1240N+02221MA1999999097811MD1999999-0031REMSYN082AAXX  20124 82583 22599 60910 10263 20223 39781 40119 85230 333 20222 59003 60144;
0137825830999992012012018004-05167-040667FM-12+029999999V0200901N002110120019N0500001N1+03141+02101100711ADDGF108991081081008001999999MA1999999097361MD1999999-0121REMSYN070AAXX  20184 82583 32599 80904 10314 20210 39736 40071 888// 333 59012;
0168825830999992012012100004-05167-040667FM-12+029999999V0203601N001512200019N0040001N1+02821+02201100931ADDGF102991021011008001001001KA1240M+02981MA1999999097571MD1999999-0091REMSYN088AAXX  21004 82583 32596 23603 10282 20220 39757 40093 82100 333 10298 29068 55060 59009;
0156825830999992012012112004-05167-040667FM-12+029999999V0200901N001510075019N0500001N1+02731+02101101121ADDGF106991061051008001001001KA1240N+02431MA1999999097771MD1999999-0041REMSYN076AAXX  21124 82583 32599 60903 10273 20210 39777 40112 86500 333 20243 59004;
0137825830999992012012118004-05167-040667FM-12+029999999V0200901N001512200019N0500001N1+03241+01961100551ADDGF103991031021008001001001MA1999999097221MD1999999-0141REMSYN070AAXX  21184 82583 32599 30903 10324 20196 39722 40055 83200 333 59014;
0178825830999992012012200004-05167-040667FM-12+029999999V0203201N001512200019N0040001N1+02621+02161100801ADDGA1001+999999999GF100991001001999999001001KA1240M+03331MA1999999097451MD1999999-0121REMSYN082AAXX  22004 82583 32996 03203 10262 20216 39745 40080 333 10333 29067 55065 59012;
0175825830999992012012212004-05167-040667FM-12+029999999V0200901N003110075019N0100001N1+02551+02081101031ADDGF108991081051008001999999KA1240N+99999MA1999999097661MD1999999-0111REMSYN076AAXX  22124 82583 32597 80906 10255 20208 39766 40103 885// 333 20278 59011;EQDQ01 +02782ATMN  
0137825830999992012012218004-05167-040667FM-12+029999999V0201401N003610120019N0100001N1+03061+01991100621ADDGF108991081081008001999999MA1999999097281MD1999999+0061REMSYN070AAXX  22184 82583 32597 81407 10306 20199 39728 40062 888// 333 58006;
0213825830999992012012300004-05167-040667FM-12+029999999V0201801N002112200019N0040001N1+02561+02111100891ADDAA106000591AY161061AY261061GF101991011021008001001001KA1240M+03121MA1999999097481MD1999999+0031MW1131REMSYN100AAXX  23004 82583 21596 11804 10256 20211 39748 40089 71366 81200 333 10312 29070 55002 58003 69961;
0173825830999992012012312004-05167-040667FM-12+029999999V0200901N004110120019N0500001N1+02511+02151101081ADDAA124000591GF108991071081008001031999KA1240N+02061MA1999999097701MD1999999+0041REMSYN082AAXX  23124 82583 22599 80908 10251 20215 39770 40108 8783/ 333 20206 58004 69964;
0201825830999992012012318004-05167-040667FM-12+029999999V0201801N002110120019N0100001N1+02771+02211100741ADDAA106000091AY161061AY261061GF108991071081008001051999MA1999999097381MD1999999+0101MW1151REMSYN082AAXX  23184 82583 21597 81804 10277 20221 39738 40074 71566 8785/ 333 58010 69921;EQDQ01  00002PRCP06
0168825830999992012012400004-05167-040667FM-12+029999999V0209999C000012200019N0040001N1+02711+02391100811ADDGF101991011011008001001001KA1240M+02911MA1999999097451MD1999999-0031REMSYN088AAXX  24004 82583 32596 10900 10271 20239 39745 40081 81100 333 10291 29079 55029 59003;
0201825830999992012012412004-05167-040667FM-12+029999999V0201801N001510120019N0100001N1+02511+02251101041ADDAA124000391AY151061AY251061GF108991081081008001999999KA1240N+02421MA1999999097671MD1999999-0031MW1131REMSYN088AAXX  24124 82583 21597 81803 10251 20225 39767 40104 71355 888// 333 20242 59003 69934;
0182825830999992012012418004-05167-040667FM-12+029999999V0200901N003610120019N0100001N1+02651+02161100801ADDAA106021191AY161061AY261061GF108991081081008001999999MA1999999097431MD1999999+0051MW1021REMSYN082AAXX  24184 82583 21597 80907 10265 20216 39743 40080 70266 888// 333 58005 60211;
0168825830999992012012500004-05167-040667FM-12+029999999V0201801N001012200019N0040001N1+02431+02251101011ADDGF103991031021008001001001KA1240M+02691MA1999999097631MD1999999+0181REMSYN088AAXX  25004 82583 32596 31802 10243 20225 39763 40101 83200 333 10269 29084 55000 58018;
0201825830999992012012512004-05167-040667FM-12+029999999V0200901N005110075019N0500001N1+02381+02051101241ADDAA124021191AY161061AY251061GF107991061051008001041011KA1240N+02231MA1999999097841MD1999999+0171MW1021REMSYN088AAXX  25124 82583 21599 70910 10238 20205 39784 40124 70265 86541 333 20223 58017 60214;
0137825830999992012012518004-05167-040667FM-12+029999999V0200901N002610075019N0500001N1+02961+02021100801ADDGF106991061021008001001001MA1999999097441MD1999999+0011REMSYN070AAXX  25184 82583 32599 60905 10296 20202 39744 40080 86200 333 58001;
0178825830999992012012600004-05167-040667FM-12+029999999V0201401N002112200019N0040001N1+02601+02061100881ADDGA1001+999999999GF100991001001999999001001KA1240M+03041MA1999999097511MD1999999-0121REMSYN082AAXX  26004 82583 32996 01404 10260 20206 39751 40088 333 10304 29071 55015 59012;
0156825830999992012012612004-05167-040667FM-12+029999999V0200901N005112200019N0500001N1+02611+02071101111ADDGF105991031011008001001011KA1240N+02151MA1999999097741MD1999999-0101REMSYN076AAXX  26124 82583 32599 50910 10261 20207 39774 40111 83101 333 20215 59010;
0137825830999992012012618004-05167-040667FM-12+029999999V0200901N004612200019N0500001N1+03231+01781100711ADDGF106991031011008001001011MA1999999097361MD1999999-0081REMSYN070AAXX  26184 82583 32599 60909 10323 20178 39736 40071 83101 333 59008;
0178825830999992012012700004-05167-040667FM-12+029999999V0200901N002112200019N0040001N1+02771+01881100721ADDGA1001+999999999GF100991001001999999001001KA1240M+03351MA1999999097371MD1999999-0141REMSYN082AAXX  27004 82583 32996 00904 10277 20188 39737 40072 333 10335 29058 55093 59014;
0156825830999992012012812004-05167-040667FM-12+029999999V0200901N004110075019N0500001N1+02641+02091101121ADDGF106991051051008001041001KA1240N+02341MA1999999097741MD1999999-0011REMSYN076AAXX  28124 82583 32599 60908 10264 20209 39774 40112 85540 333 20234 59001;
0137825830999992012012818004-05167-040667FM-12+029999999V0201401N003612200019N0500001N1+03331+01981100671ADDGF104991031021008001001011MA1999999097341MD1999999+0071REMSYN070AAXX  28184 82583 32599 41407 10333 20198 39734 40067 83201 333 58007;
0168825830999992012012900004-05167-040667FM-12+029999999V0200901N001012200019N0040001N1+02841+01991100821ADDGF101991001001999999001011KA1240M+03391MA1999999097481MD1999999+0041REMSYN088AAXX  29004 82583 32996 10902 10284 20199 39748 40082 80001 333 10339 29059 55078 58004;
0156825830999992012012912004-05167-040667FM-12+029999999V0200901N008210075019N0500001N1+02771+01981101121ADDGF107991071051008001999999KA1240N+02451MA1999999097771MD1999999+0011REMSYN076AAXX  29124 82583 32599 70916 10277 20198 39777 40112 875// 333 20245 58001;
0137825830999992012012918004-05167-040667FM-12+029999999V0200901N002112200019N0500001N1+03301+01871100621ADDGF104991041021008001001001MA1999999097301MD1999999-0041REMSYN070AAXX  29184 82583 32599 40904 10330 20187 39730 40062 84200 333 59004;
0168825830999992012013000004-05167-040667FM-12+029999999V0201401N001512200019N0040001N1+02731+01671100811ADDGF101991001001999999001011KA1240M+03411MA1999999097471MD1999999-0011REMSYN088AAXX  30004 82583 32996 11403 10273 20167 39747 40081 80001 333 10341 29056 55074 59001;
0175825830999992012013012004-05167-040667FM-12+029999999V0200901N003110075019N0500001N1+02651+02041101131ADDGF107991999051008001001001KA1240N+02341MA1999999097771MD1999999+0001REMSYN076AAXX  30124 82583 32599 70906 10265 20204 39777 40113 86500 333 20234 58000;EQDQ01+000062SCOTLC
0137825830999992012013018004-05167-040667FM-12+029999999V0200901N002112200019N0500001N1+03401+01641100551ADDGF103991021021008001001011MA1999999097231MD1999999-0071REMSYN070AAXX  30184 82583 32599 30904 10340 20164 39723 40055 82201 333 59007;
0168825830999992012013100004-05167-040667FM-12+029999999V0200901N004612200019N0040001N1+02971+01891100731ADDGF104991041051008001001001KA1240M+03511MA1999999097391MD1999999-0081REMSYN088AAXX  31004 82583 32596 40909 10297 20189 39739 40073 84500 333 10351 29052 55099 59008;
0137825830999992012013118004-05167-040667FM-12+029999999V0200901N003612200019N0200001N1+03401+01591100551ADDGF104991041021008001001001MA1999999097231MD1999999+0001REMSYN070AAXX  31184 82583 32598 40907 10340 20159 39723 40055 84200 333 58000;
0168825830999992012020100004-05167-040667FM-12+029999999V0201401N002112200019N0040001N1+02821+01801100801ADDGF102991001001999999001021KA1240M+03481MA1999999097451MD1999999+0061REMSYN088AAXX  01004 82583 32996 21404 10282 20180 39745 40080 80002 333 10348 29053 55093 58006;
0156825830999992012020112004-05167-040667FM-12+029999999V0200901N005110450019N0500001N1+02781+01851101141ADDGF105991041011008001031001KA1240N+02381MA1999999097791MD1999999+0111REMSYN076AAXX  01124 82583 32599 50910 10278 20185 39779 40114 84130 333 20238 58011;
0137825830999992012020118004-05167-040667FM-12+029999999V0200901N005711050019N0500001N1+03491+01431100641ADDGF105991011011008001001021MA1999999097321MD1999999+0091REMSYN070AAXX  01184 82583 32599 50911 10349 20143 39732 40064 81102 333 58009;
0168825830999992012020200004-05167-040667FM-12+029999999V0201401N003112200019N0040001N1+02691+01411100831ADDGF101991011011008001001001KA1240M+03611MA1999999097491MD1999999+0041REMSYN088AAXX  02004 82583 32596 11406 10269 20141 39749 40083 81100 333 10361 29044 55106 58004;
0137825830999992012020218004-05167-040667FM-12+029999999V0200901N003612200019N0500001N1+03301+01681100661ADDGF104991041011008001001001MA1999999097331MD1999999+0011REMSYN070AAXX  02184 82583 32599 40907 10330 20168 39733 40066 84100 333 58001;
0178825830999992012020300004-05167-040667FM-12+029999999V0200901N001512200019N0040001N1+02731+01761100801ADDGA1001+999999999GF100991001001999999001001KA1240M+03431MA1999999097451MD1999999-0041REMSYN082AAXX  03004 82583 32996 00903 10273 20176 39745 40080 333 10343 29052 55086 59004;
0220825830999992012020312004-05167-040667FM-12+029999999V0200901N006712200019N0500001N1+02791+02001101091ADDAA124000091AY161061AY261061GF105991031021008001001011KA1240N+02361MA1999999097731MD1999999-0071MW1021REMSYN088AAXX  03124 82583 21599 50913 10279 20200 39773 40109 70266 83201 333 20236 59007 69924;EQDQ01  00002PRCP24
0137825830999992012020318004-05167-040667FM-12+029999999V0200901N006712200019N0500001N1+03331+01671100661ADDGF104991031021008001001011MA1999999097341MD1999999+0011REMSYN070AAXX  03184 82583 32599 40913 10333 20167 39734 40066 83201 333 58001;
0168825830999992012020400004-05167-040667FM-12+029999999V0202701N001012200019N0040001N1+02821+01831100841ADDGF101991001001999999001011KA1240M+03431MA1999999097501MD1999999+0051REMSYN088AAXX  04004 82583 32996 12702 10282 20183 39750 40084 80001 333 10343 29052 55094 58005;
0175825830999992012020412004-05167-040667FM-12+029999999V0200901N005110075019N0500001N1+02871+01771101111ADDGF106991999021008001001001KA1240N+02481MA1999999097771MD1999999+0041REMSYN076AAXX  04124 82583 32599 60910 10287 20177 39777 40111 85200 333 20248 58004;EQDQ01+000052SCOTLC
0137825830999992012020418004-05167-040667FM-12+029999999V0200901N006210450019N0500001N1+03371+01641100661ADDGF108991021021008001021999MA1999999097331MD1999999-0011REMSYN070AAXX  04184 82583 32599 80912 10337 20164 39733 40066 8222/ 333 59001;
0178825830999992012020500004-05167-040667FM-12+029999999V0201801N001012200019N0040001N1+02731+01811100891ADDGA1001+999999999GF100991001001999999001001KA1240M+03351MA1999999097551MD1999999+0051REMSYN082AAXX  05004 82583 32996 01802 10273 20181 39755 40089 333 10335 29050 55098 58005;
0156825830999992012020512004-05167-040667FM-12+029999999V0200901N003112200019N0040001N1+02881+01831101031ADDGF101991011011999999001001KA1240N+02271MA1999999097681MD1999999-0091REMSYN076AAXX  05124 82583 32996 10906 10288 20183 39768 40103 81100 333 20227 59009;
0137825830999992012020518004-05167-040667FM-12+029999999V0200901N003110450019N0500001N1+03381+01531100621ADDGF108991021021008001021999MA1999999097301MD1999999-0031REMSYN070AAXX  05184 82583 32599 80906 10338 20153 39730 40062 8222/ 333 59003;
0168825830999992012020600004-05167-040667FM-12+029999999V0201401N001512200019N0040001N1+02911+01861100891ADDGF103991031001017501031001KA1240M+03501MA1999999097561MD1999999+0011REMSYN088AAXX  06004 82583 32796 31403 10291 20186 39756 40089 83030 333 10350 29048 55092 58001;
0156825830999992012020612004-05167-040667FM-12+029999999V0200901N005110450019N0500001N1+02801+01871101111ADDGF105991011011008001031001KA1240N+02411MA1999999097771MD1999999-0091REMSYN076AAXX  06124 82583 32599 50910 10280 20187 39777 40111 81130 333 20241 59009;
0137825830999992012020618004-05167-040667FM-12+029999999V0200901N005110075019N0500001N1+03421+01651100711ADDGF105991051021008001001001MA1999999097391MD1999999+0091REMSYN070AAXX  06184 82583 32599 50910 10342 20165 39739 40071 85200 333 58009;
0168825830999992012020700004-05167-040667FM-12+029999999V0200901N002112200019N0040001N1+02891+01691100881ADDGF102991021011008001001001KA1240M+03541MA1999999097541MD1999999-0021REMSYN088AAXX  07004 82583 32596 20904 10289 20169 39754 40088 82100 333 10354 29047 55086 59002;
0175825830999992012020712004-05167-040667FM-12+029999999V0200901N003119999999N0500001N1+02821+02051101021ADDGF108991999021008001001001KA1240N+02431MA1999999097681MD1999999-0091REMSYN076AAXX  07124 82583 32599 80906 10282 20205 39768 40102 83200 333 20243 59009;EQDQ01+000032SCOTLC
0137825830999992012020718004-05167-040667FM-12+029999999V0200901N003110075019N0500001N1+03451+01691100571ADDGF105991051021008001001001MA1999999097251MD1999999-0141REMSYN070AAXX  07184 82583 32599 50906 10345 20169 39725 40057 85200 333 59014;
0168825830999992012020800004-05167-040667FM-12+029999999V0200901N002112200019N0040001N1+03001+01781100691ADDGF102991001001999999001011KA1240M+03581MA1999999097361MD1999999-0181REMSYN088AAXX  08004 82583 32996 20904 10300 20178 39736 40069 80001 333 10358 29048 55092 59018;
0156825830999992012020812004-05167-040667FM-12+029999999V0200901N004110120019N0500001N1+02701+02011100931ADDGF107991071081008001001001KA1240N+02371MA1999999097591MD1999999-0091REMSYN076AAXX  08124 82583 32599 70908 10270 20201 39759 40093 87800 333 20237 59009;
0137825830999992012020818004-05167-040667FM-12+029999999V0203601N006210075019N0500001N1+03381+01831100551ADDGF106991061051008001001001MA1999999097231MD1999999-0021REMSYN070AAXX  08184 82583 32599 63612 10338 20183 39723 40055 86500 333 59002;
0213825830999992012020900004-05167-040667FM-12+029999999V0209999C000010120019N0040001N1+02641+02391100721ADDAA106003091AY161061AY261061GF108991061081008001021999KA1240M+03561MA1999999097361MD1999999+0001MW1021REMSYN100AAXX  09004 82583 21596 81800 10264 20239 39736 40072 70266 8682/ 333 10356 29070 55063 58000 60031;
0173825830999992012020912004-05167-040667FM-12+029999999V0200501N005710120019N0500001N1+02811+02021101071ADDAA124003091GF107991061081008001041011KA1240N+02381MA1999999097711MD1999999+0121REMSYN082AAXX  09124 82583 22599 70511 10281 20202 39771 40107 86841 333 20238 58012 60034;
0137825830999992012020918004-05167-040667FM-12+029999999V0200501N004612200019N0500001N1+03491+01581100611ADDGF104991031021008001001011MA1999999097291MD1999999+0061REMSYN070AAXX  09184 82583 32599 40509 10349 20158 39729 40061 83201 333 58006;
0168825830999992012021000004-05167-040667FM-12+029999999V0201401N001012200019N0040001N1+02971+01791100791ADDGF106991041051008001001011KA1240M+03591MA1999999097461MD1999999+0101REMSYN088AAXX  10004 82583 32596 61402 10297 20179 39746 40079 84501 333 10359 29048 55060 58010;
0175825830999992012021012004-05167-040667FM-12+029999999V0200501N003110075019N0500001N1+02771+02091101101ADDGF107991999021008001001001KA1240N+02471MA1999999097761MD1999999+0051REMSYN076AAXX  10124 82583 32599 70506 10277 20209 39776 40110 86200 333 20247 58005;EQDQ01+000062SCOTLC
0137825830999992012021018004-05167-040667FM-12+029999999V0200901N003110075019N0040001N1+03401+01681100591ADDGF106991061021008001001001MA1999999097271MD1999999-0021REMSYN070AAXX  10184 82583 32596 60906 10340 20168 39727 40059 86200 333 59002;
0213825830999992012021100004-05167-040667FM-12+029999999V0203201N002110075019N0040001N1+02461+02211100931ADDAA106002091AY121061AY221061GF105991051051008001001001KA1240M+03571MA1999999097561MD1999999+0101MW1211REMSYN100AAXX  11004 82583 21596 53204 10246 20221 39756 40093 72122 85500 333 10357 29068 55063 58010 60021;
0220825830999992012021112004-05167-040667FM-12+029999999V0200901N001510075019N0040001N1+02691+02281101191ADDAA124004191AY161061AY261061GF108991999051008001011011KA1240N+02241MA1999999097821MD1999999+0061MW1021REMSYN088AAXX  11124 82583 21596 80903 10269 20228 39782 40119 70266 88511 333 20224 58006 60044;EQDQ01+000082SCOTLC
0137825830999992012021118004-05167-040667FM-12+029999999V0200901N001010075019N0500001N1+03191+01861100681ADDGF108991081051008001999999MA1999999097341MD1999999+0071REMSYN070AAXX  11184 82583 32599 80902 10319 20186 39734 40068 885// 333 58007;
0178825830999992012021200004-05167-040667FM-12+029999999V0201401N001512200019N0040001N1+02811+01801100761ADDGA1001+999999999GF100991001001999999001001KA1240M+03321MA1999999097421MD1999999-0141REMSYN082AAXX  12004 82583 32996 01403 10281 20180 39742 40076 333 10332 29058 55023 59014;
0156825830999992012021212004-05167-040667FM-12+029999999V0200901N003610075019N0500001N1+02631+01881101111ADDGF108991081051008001999999KA1240N+02411MA1999999097751MD1999999-0071REMSYN076AAXX  12124 82583 32599 80907 10263 20188 39775 40111 885// 333 20241 59007;
0137825830999992012021218004-05167-040667FM-12+029999999V0200901N004110075019N0500001N1+03201+01551100731ADDGF108991081051008001999999MA1999999097391MD1999999+0051REMSYN070AAXX  12184 82583 32599 80908 10320 20155 39739 40073 885// 333 58005;
0168825830999992012021300004-05167-040667FM-12+029999999V0200501N002112200019N0040001N1+02791+01661100891ADDGF102991011011008001001011KA1240M+03291MA1999999097541MD1999999+0121REMSYN088AAXX  13004 82583 32596 20504 10279 20166 39754 40089 81101 333 10329 29050 55014 58012;
0156825830999992012021312004-05167-040667FM-12+029999999V0200901N005110075019N0500001N1+02821+01891101101ADDGF106991051011008001031001KA1240N+02331MA1999999097751MD1999999+0001REMSYN076AAXX  13124 82583 32599 60910 10282 20189 39775 40110 85130 333 20233 58000;
0156825830999992012021318004-05167-040667FM-12+029999999V0200901N003619999999N0500001N1+03351+01511100621ADDGF106991999021008001001001MA1999999097301MD1999999-0091REMSYN070AAXX  13184 82583 32599 60907 10335 20151 39730 40062 84200 333 59009;EQDQ01+000042SCOTLC
0168825830999992012021400004-05167-040667FM-12+029999999V0200901N005712200019N0040001N1+02971+01691100871ADDGF101991011011008001001001KA1240M+03531MA1999999097511MD1999999+0001REMSYN088AAXX  14004 82583 32596 10911 10297 20169 39751 40087 81100 333 10353 29046 55076 58000;
0156825830999992012021412004-05167-040667FM-12+029999999V0200501N005110450019N0500001N1+02741+01841101111ADDGF106991011011008001031001KA1240N+02341MA1999999097771MD1999999+0021REMSYN076AAXX  14124 82583 32599 60510 10274 20184 39777 40111 81130 333 20234 58002;
0137825830999992012021418004-05167-040667FM-12+029999999V0200901N007710075019N0500001N1+03521+01391100641ADDGF106991061021008001001001MA1999999097321MD1999999+0021REMSYN070AAXX  14184 82583 32599 60915 10352 20139 39732 40064 86200 333 58002;
0178825830999992012021500004-05167-040667FM-12+029999999V0203601N003612200019N0040001N1+02841+00951101071ADDGA1001+999999999GF100991001001999999001001KA1240M+03601MA1999999097721MD1999999-0181REMSYN082AAXX  15004 82583 32996 03607 10284 20095 39772 40107 333 10360 29067 55063 59018;
0156825830999992012021512004-05167-040667FM-12+029999999V0200901N001510120019N0500001N1+02691+02131101141ADDGF107991061081008001001011KA1240N+02381MA1999999097781MD1999999+0011REMSYN076AAXX  15124 82583 32599 70903 10269 20213 39778 40114 86801 333 20238 58001;
0137825830999992012021518004-05167-040667FM-12+029999999V0200901N003610450019N0500001N1+03341+01541100621ADDGF108991041081008001021999MA1999999097301MD1999999-0021REMSYN070AAXX  15184 82583 32599 80907 10334 20154 39730 40062 8482/ 333 59002;
0168825830999992012021600004-05167-040667FM-12+029999999V0203201N002110120019N0040001N1+02461+01991100941ADDGF108991081081008001999999KA1240M+03431MA1999999097571MD1999999-0051REMSYN088AAXX  16004 82583 32596 83204 10246 20199 39757 40094 888// 333 10343 29064 55048 59005;
0156825830999992012021612004-05167-040667FM-12+029999999V0200501N002110120019N0500001N1+02471+02191101171ADDGF108991081081008001999999KA1240N+02271MA1999999097791MD1999999+0011REMSYN076AAXX  16124 82583 32599 80504 10247 20219 39779 40117 888// 333 20227 58001;
0182825830999992012021618004-05167-040667FM-12+029999999V0201401N004610120019N0500001N1+02551+02191100721ADDAA106000591AY191061AY261061GF107991071081008001999999MA1999999097341MD1999999+0041MW1031REMSYN082AAXX  16184 82583 21599 71409 10255 20219 39734 40072 70396 878// 333 58004 69961;
0232825830999992012021700004-05167-040667FM-12+029999999V0203201N002110075019N0040001N1+02261+02141101121ADDAA106000091AY161061AY221061GF108991081071008001999999KA1240M+03161MA1999999097721MD1999999+0151MW1021REMSYN100AAXX  17004 82583 21596 83204 10226 20214 39772 40112 70262 887// 333 10316 29088 55032 58015 69921;EQDQ01  00002PRCP06
0201825830999992012021712004-05167-040667FM-12+029999999V0200501N000510075019N0500001N1+02431+02211101151ADDAA124001091AY151061AY251061GF108991081051008001999999KA1240N+02221MA1999999097751MD1999999-0041MW1021REMSYN088AAXX  17124 82583 21599 80501 10243 20221 39775 40115 70255 885// 333 20222 59004 60014;
0182825830999992012021718004-05167-040667FM-12+029999999V0202701N003110075019N0500001N1+02531+02331100821ADDAA106002091AY161061AY261061GF107991051031008001021011MA1999999097421MD1999999+0081MW1031REMSYN082AAXX  17184 82583 21599 72706 10253 20233 39742 40082 70366 85321 333 58008 60021;
0168825830999992012021800004-05167-040667FM-12+029999999V0202701N001512200019N0040001N1+02441+02251101141ADDGF103991031051008001001001KA1240M+02851MA1999999097751MD1999999+0031REMSYN088AAXX  18004 82583 32596 32703 10244 20225 39775 40114 83500 333 10285 29088 55012 58003;
0220825830999992012021812004-05167-040667FM-12+029999999V0202301N002110120019N0500001N1+02191+02171101371ADDAA124007191AY161061AY261061GF106991061081008001999999KA1240N+99999MA1999999097951MD1999999+0201MW1021REMSYN088AAXX  18124 82583 21599 62304 10219 20217 39795 40137 70266 868// 333 20227 58020 60074;EQDQ01 +02272ATMN  
0182825830999992012021818004-05167-040667FM-12+029999999V0203201N001010075019N0500001N1+02581+02291100851ADDAA106004191AY161061AY261061GF107991071051008001999999MA1999999097471MD1999999+0051MW1021REMSYN082AAXX  18184 82583 21599 73202 10258 20229 39747 40085 70266 875// 333 58005 60041;
0213825830999992012021900004-05167-040667FM-12+029999999V0203201N000512200019N0040001N1+02391+02231101171ADDAA106000891AY121061AY221061GF102991021021999999001001KA1240M+02631MA1999999097761MD1999999+0011MW1211REMSYN100AAXX  19004 82583 21996 23201 10239 20223 39776 40117 72122 82200 333 10263 29090 55000 58001 69971;
0173825830999992012021912004-05167-040667FM-12+029999999V0201401N002110075019N0500001N1+02421+02251101341ADDAA124004191GF106991061051008001001001KA1240N+02161MA1999999097941MD1999999-0011REMSYN082AAXX  19124 82583 22599 61404 10242 20225 39794 40134 86500 333 20216 59001 60044;
0217825830999992012021918004-05167-040667FM-12+029999999V0200901N001019999999N0500001N1+02951+02181100831ADDAA106000091AY161061AY261061GF106991999051008001001001MA1999999097471MD1999999+0001MW1021REMSYN082AAXX  19184 82583 21599 60902 10295 20218 39747 40083 70266 88500 333 58000 69911;EQDQ01+000082SCOTLCQ02  00002PRCP06
0232825830999992012022000004-05167-040667FM-12+029999999V0202301N001012200019N0040001N1+02401+02191101131ADDAA106000091AY161061AY261061GF101991011011008001001021KA1240M+03151MA1999999097741MD1999999-0021MW1021REMSYN100AAXX  20004 82583 21596 12302 10240 20219 39774 40113 70266 81102 333 10315 29082 55063 59002 69911;EQDQ01  00002PRCP06
0201825830999992012022012004-05167-040667FM-12+029999999V0201401N002610120019N0500001N1+02501+02231101191ADDAA124000391AY151061AY251061GF106991051081008001001011KA1240N+02181MA1999999097801MD1999999-0141MW1031REMSYN088AAXX  20124 82583 21599 61405 10250 20223 39780 40119 70355 85801 333 20218 59014 69934;
0137825830999992012022018004-05167-040667FM-12+029999999V0201401N003610075019N0500001N1+03251+01981100691ADDGF106991061051008001001001MA1999999097351MD1999999-0121REMSYN070AAXX  20184 82583 32599 61407 10325 20198 39735 40069 86500 333 59012;
0178825830999992012022100004-05167-040667FM-12+029999999V0203601N002112200019N0040001N1+02351+02171101301ADDGA1001+999999999GF100991001001999999001001KA1240M+03351MA1999999097901MD1999999+0161REMSYN082AAXX  21004 82583 32996 03604 10235 20217 39790 40130 333 10335 29077 55079 58016;
0173825830999992012022112004-05167-040667FM-12+029999999V0201801N002610120019N0100001N1+02361+02191101381ADDAA124000591GF108991081081008001999999KA1240N+02241MA1999999097961MD1999999+0161REMSYN082AAXX  21124 82583 22597 81805 10236 20219 39796 40138 888// 333 20224 58016 69964;
0182825830999992012022118004-05167-040667FM-12+029999999V0201401N003110120019N0500001N1+03051+02081100801ADDAA106005191AY161061AY261061GF106991051081008001041001MA1999999097451MD1999999+0101MW1021REMSYN082AAXX  21184 82583 21599 61406 10305 20208 39745 40080 70266 85840 333 58010 60051;
0213825830999992012022200004-05167-040667FM-12+029999999V0201401N001512200019N0040001N1+02631+02161101001ADDAA106000591AY161061AY261061GF102991021021008001001001KA1240M+03161MA1999999097621MD1999999-0181MW1021REMSYN100AAXX  22004 82583 21596 21403 10263 20216 39762 40100 70266 82200 333 10316 29074 55042 59018 69951;
0137825830999992012022218004-05167-040667FM-12+029999999V0200901N004610075019N0500001N1+03371+01911100621ADDGF105991051021008001001001MA1999999097291MD1999999-0161REMSYN070AAXX  22184 82583 32599 50909 10337 20191 39729 40062 85200 333 59016;
0168825830999992012022300004-05167-040667FM-12+029999999V0200901N001012200019N0040001N1+02751+02071100761ADDGF102991021021008001001001KA1240M+03451MA1999999097411MD1999999-0211REMSYN088AAXX  23004 82583 32596 20902 10275 20207 39741 40076 82200 333 10345 29062 55105 59021;
0156825830999992012022312004-05167-040667FM-12+029999999V0200501N002110120019N0500001N1+02561+02251101051ADDGF106991051081008001041001KA1240N+02341MA1999999097691MD1999999-0041REMSYN076AAXX  23124 82583 32599 60504 10256 20225 39769 40105 85840 333 20234 59004;
0137825830999992012022318004-05167-040667FM-12+029999999V0201401N003610075019N0500001N1+03391+01811100571ADDGF105991051021008001001001MA1999999097251MD1999999-0041REMSYN070AAXX  23184 82583 32599 51407 10339 20181 39725 40057 85200 333 59004;
0178825830999992012022400004-05167-040667FM-12+029999999V0200901N001512200019N0040001N1+02871+02001100761ADDGA1001+999999999GF100991001001999999001001KA1240M+03511MA1999999097411MD1999999+0001REMSYN082AAXX  24004 82583 32996 00903 10287 20200 39741 40076 333 10351 29060 55088 58000;
0156825830999992012022412004-05167-040667FM-12+029999999V0200901N002610075019N0500001N1+02671+02021101021ADDGF106991051011008001001011KA1240N+02251MA1999999097661MD1999999-0031REMSYN076AAXX  24124 82583 32599 60905 10267 20202 39766 40102 85101 333 20225 59003;
0137825830999992012022418004-05167-040667FM-12+029999999V0200901N003610075019N0500001N1+03071+01921100621ADDGF106991061051008001001001MA1999999097281MD1999999+0061REMSYN070AAXX  24184 82583 32599 60907 10307 20192 39728 40062 86500 333 58006;
0168825830999992012022500004-05167-040667FM-12+029999999V0200901N001512200019N0500001N1+02481+01981101001ADDGF102991021011008001001001KA1240M+03171MA1999999097631MD1999999+0221REMSYN088AAXX  25004 82583 32599 20903 10248 20198 39763 40100 82100 333 10317 29066 55060 58022;
0156825830999992012022512004-05167-040667FM-12+029999999V0200901N001012200019N0500001N1+02511+02191100981ADDGF103991031021008001001001KA1240N+02091MA1999999097601MD1999999-0061REMSYN076AAXX  25124 82583 32599 30902 10251 20219 39760 40098 83200 333 20209 59006;
0137825830999992012022518004-05167-040667FM-12+029999999V0201801N002110075019N0500001N1+03231+02001100531ADDGF106991061051008001001001MA1999999097201MD1999999-0081REMSYN070AAXX  25184 82583 32599 61804 10323 20200 39720 40053 86500 333 59008;
0232825830999992012022600004-05167-040667FM-12+029999999V0203601N002119999999N0040001N1+02361+02171100941ADDAA106006191AY161061AY261061GF105991999051008001011001KA1240M+03301MA1999999097561MD1999999-0071MW1021REMSYN100AAXX  26004 82583 21596 53604 10236 20217 39756 40094 70266 88510 333 10330 29077 55068 59007 60061;EQDQ01+000082SCOTLC
0173825830999992012022612004-05167-040667FM-12+029999999V0200501N002610075019N0500001N1+02611+02051101111ADDAA124006191GF106991061011008001001001KA1240N+02271MA1999999097731MD1999999+0131REMSYN082AAXX  26124 82583 22599 60505 10261 20205 39773 40111 86100 333 20227 58013 60064;
0182825830999992012022618004-05167-040667FM-12+029999999V0201401N006210120019N0040001N1+02611+02251100781ADDAA106004191AY121061AY221061GF108991081081008001999999MA1999999097401MD1999999+0201MW1631REMSYN082AAXX  26184 82583 21596 81412 10261 20225 39740 40078 76322 888// 333 58020 60041;
0213825830999992012022700004-05167-040667FM-12+029999999V0202701N002110120019N0040001N1+02371+02261101001ADDAA106002091AY161061AY261061GF106991061081008001001001KA1240M+03221MA1999999097621MD1999999+0061MW1021REMSYN100AAXX  27004 82583 21596 62704 10237 20226 39762 40100 70266 86800 333 10322 29084 55045 58006 60021;
0173825830999992012022712004-05167-040667FM-12+029999999V0200901N004610120019N0500001N1+02571+02271101191ADDAA124005191GF106991051081008001041001KA1240N+02191MA1999999097801MD1999999+0071REMSYN082AAXX  27124 82583 22599 60909 10257 20227 39780 40119 85840 333 20219 58007 60054;
0201825830999992012022718004-05167-040667FM-12+029999999V0202301N003110075019N0040001N1+02651+02181100831ADDAA106000591AY161061AY261061GF108991999021008001001001MA1999999097461MD1999999+0061MW1131REMSYN082AAXX  27184 82583 21596 82306 10265 20218 39746 40083 71366 86200 333 58006 69941;EQDQ01+000062SCOTLC
0196825830999992012022800004-05167-040667FM-12+029999999V0203201N001510075019N0040001N1+02321+02201101111ADDAY191061AY291061GF108991081051008001999999KA1240M+03141MA1999999097731MD1999999+0111MW1021REMSYN094AAXX  28004 82583 31596 83203 10232 20220 39773 40111 70299 885// 333 10314 29086 55044 58011;
0173825830999992012022812004-05167-040667FM-12+029999999V0200901N003110120019N0500001N1+02511+02191101201ADDAA124000591GF107991071081008001001001KA1240N+02141MA1999999097801MD1999999+0001REMSYN082AAXX  28124 82583 22599 70906 10251 20219 39780 40120 87800 333 20214 58000 69944;
0137825830999992012022818004-05167-040667FM-12+029999999V0200901N006212200019N0500001N1+03261+01861100671ADDGF104991041021008001001001MA1999999097331MD1999999-0131REMSYN070AAXX  28184 82583 32599 40912 10326 20186 39733 40067 84200 333 59013;
0232825830999992012022900004-05167-040667FM-12+029999999V0203201N001512200019N0040001N1+02301+02181101091ADDAA106003091AY161061AY261061GF101991999021008001001001KA1240M+03331MA1999999097701MD1999999-0031MW1011REMSYN100AAXX  29004 82583 21596 13203 10230 20218 39770 40109 70166 82200 333 10333 29078 55074 59003 60031;EQDQ01+000022SCOTLC
0201825830999992012022912004-05167-040667FM-12+029999999V0200901N003610075019N0500001N1+02601+02231101211ADDAA124003091AY151061AY251061GF106991051021008001001011KA1240N+02231MA1999999097821MD1999999+0021MW1021REMSYN088AAXX  29124 82583 21599 60907 10260 20223 39782 40121 70255 85201 333 20223 58002 60034;
0137825830999992012022918004-05167-040667FM-12+029999999V0201401N005710075019N0500001N1+03271+01861100731ADDGF106991061021008001001001MA1999999097391MD1999999+0061REMSYN070AAXX  29184 82583 32599 61411 10327 20186 39739 40073 86200 333 58006;
0168825830999992012030100004-05167-040667FM-12+029999999V0200901N001512200019N0040001N1+02631+01901100941ADDGF101991011011008001001001KA1240M+03371MA1999999097571MD1999999-0131REMSYN088AAXX  01004 82583 32596 10903 10263 20190 39757 40094 81100 333 10337 29063 55088 59013;
0156825830999992012030112004-05167-040667FM-12+029999999V0200901N005110075019N0500001N1+02731+02071101191ADDGF106991051021008001001011KA1240N+02501MA1999999097831MD1999999+0011REMSYN076AAXX  01124 82583 32599 60910 10273 20207 39783 40119 85201 333 20250 58001;
0168825830999992012030200004-05167-040667FM-12+029999999V0200901N001512200019N0040001N1+02741+01761101061ADDGF101991011011008001001001KA1240M+03461MA1999999097701MD1999999+0131REMSYN088AAXX  02004 82583 32596 10903 10274 20176 39770 40106 81100 333 10346 29058 55097 58013;
0201825830999992012030212004-05167-040667FM-12+029999999V0201801N001510075019N0500001N1+02511+02131101251ADDAA124000021AY121061AY221061GF108991081051008001999999KA1240N+02051MA1999999097871MD1999999+0041MW1621REMSYN088AAXX  02124 82583 21599 81803 10251 20213 39787 40125 76222 885// 333 20205 58004 69914;
0137825830999992012030218004-05167-040667FM-12+029999999V0202301N002112200019N0500001N1+03281+02071100781ADDGF104991041011008001001001MA1999999097421MD1999999+0021REMSYN070AAXX  02184 82583 32599 42304 10328 20207 39742 40078 84100 333 58002;
0232825830999992012030300004-05167-040667FM-12+029999999V0202701N002612200019N0040001N1+02601+02101101091ADDAA106000091AY161061AY261061GF101991011011008001001001KA1240M+03391MA1999999097711MD1999999+0011MW1011REMSYN100AAXX  03004 82583 21596 12705 10260 20210 39771 40109 70166 81100 333 10339 29069 55052 58001 69921;EQDQ01  00002PRCP06
0173825830999992012030312004-05167-040667FM-12+029999999V0200501N002112200019N0500001N1+02641+02161101261ADDAA124000021GF104991031011008001021021KA1240N+02061MA1999999097881MD1999999+0011REMSYN082AAXX  03124 82583 22599 40504 10264 20216 39788 40126 83122 333 20206 58001 69924;
0137825830999992012030318004-05167-040667FM-12+029999999V0203201N002112200019N0500001N1+02881+02081100791ADDGF106991041051008001001011MA1999999097431MD1999999+0011REMSYN070AAXX  03184 82583 32599 63204 10288 20208 39743 40079 84501 333 58001;
0168825830999992012030400004-05167-040667FM-12+029999999V0202701N003110075019N0040001N1+02441+02071101191ADDGF107991071051008001999999KA1240M+03381MA1999999097811MD1999999+0101REMSYN088AAXX  04004 82583 32596 72706 10244 20207 39781 40119 875// 333 10338 29074 55063 58010;
0156825830999992012030412004-05167-040667FM-12+029999999V0200901N004110075019N0500001N1+02631+02161101291ADDGF106991061051008001001001KA1240N+02121MA1999999097911MD1999999+0031REMSYN076AAXX  04124 82583 32599 60908 10263 20216 39791 40129 86500 333 20212 58003;
0137825830999992012030418004-05167-040667FM-12+029999999V0200501N003612200019N0500001N1+03271+01931100781ADDGF104991041011008001001001MA1999999097431MD1999999+0001REMSYN070AAXX  04184 82583 32599 40507 10327 20193 39743 40078 84100 333 58000;
0213825830999992012030500004-05167-040667FM-12+029999999V0202701N004110075019N0040001N1+02301+02131101071ADDAA106004191AY161061AY261061GF105991051011008001001001KA1240M+03351MA1999999097691MD1999999-0121MW1031REMSYN100AAXX  05004 82583 21596 52708 10230 20213 39769 40107 70366 85100 333 10335 29075 55065 59012 60041;
0173825830999992012030512004-05167-040667FM-12+029999999V0200901N003610075019N0500001N1+02541+02151101241ADDAA124004191GF106991061021008001001001KA1240N+02171MA1999999097841MD1999999-0071REMSYN082AAXX  05124 82583 22599 60907 10254 20215 39784 40124 86200 333 20217 59007 60044;
0137825830999992012030518004-05167-040667FM-12+029999999V0200501N002112200019N0500001N1+03291+02091100731ADDGF104991041011008001001001MA1999999097391MD1999999-0041REMSYN070AAXX  05184 82583 32599 40504 10329 20209 39739 40073 84100 333 59004;
0213825830999992012030600004-05167-040667FM-12+029999999V0202701N004610075019N0010001N1+02341+02221101271ADDAA106013091AY121061AY221061GF108991081091008001999999KA1240M+03371MA1999999097871MD1999999+0181MW1971REMSYN100AAXX  06004 82583 21594 82709 10234 20222 39787 40127 79722 889// 333 10337 29078 55080 58018 60131;
0201825830999992012030612004-05167-040667FM-12+029999999V0200901N002612200019N0500001N1+02471+02271101221ADDAA124013091AY191061AY291061GF104991041021008001001001KA1240N+02151MA1999999097821MD1999999-0021MW1031REMSYN088AAXX  06124 82583 21599 40905 10247 20227 39782 40122 70399 84200 333 20215 59002 60134;
0137825830999992012030618004-05167-040667FM-12+029999999V0200901N005112200019N0500001N1+03241+02131100731ADDGF104991031011008001021001MA1999999097381MD1999999-0011REMSYN070AAXX  06184 82583 32599 40910 10324 20213 39738 40073 83120 333 59001;
0168825830999992012030700004-05167-040667FM-12+029999999V0202701N000512200019N0040001N1+02671+02311100971ADDGF103991001001999999001021KA1240M+03321MA1999999097591MD1999999-0181REMSYN088AAXX  07004 82583 32996 32701 10267 20231 39759 40097 80002 333 10332 29075 55077 59018;
0156825830999992012030712004-05167-040667FM-12+029999999V0200901N004112200019N0500001N1+02671+02061101051ADDGF104991041011008001001001KA1240N+02171MA1999999097691MD1999999-0131REMSYN076AAXX  07124 82583 32599 40908 10267 20206 39769 40105 84100 333 20217 59013;
0137825830999992012030718004-05167-040667FM-12+029999999V0200901N004112200019N0500001N1+03271+01781100701ADDGF104991041011008001001001MA1999999097361MD1999999-0021REMSYN070AAXX  07184 82583 32599 40908 10327 20178 39736 40070 84100 333 59002;
0168825830999992012030800004-05167-040667FM-12+029999999V0201801N001512200019N0040001N1+02711+01931101101ADDGF101991011011008001001001KA1240M+03281MA1999999097741MD1999999+0151REMSYN088AAXX  08004 82583 32596 11803 10271 20193 39774 40110 81100 333 10328 29058 55092 58015;
0156825830999992012030812004-05167-040667FM-12+029999999V0201401N001510120019N0500001N1+02461+02301101241ADDGF108991081081008001999999KA1240N+02211MA1999999097841MD1999999+0151REMSYN076AAXX  08124 82583 32599 81403 10246 20230 39784 40124 888// 333 20221 58015;
0137825830999992012030818004-05167-040667FM-12+029999999V0201401N004110450019N0500001N1+03131+02041100761ADDGF105991041011008001041001MA1999999097411MD1999999+0051REMSYN070AAXX  08184 82583 32599 51408 10313 20204 39741 40076 84140 333 58005;
0168825830999992012030900004-05167-040667FM-12+029999999V0201801N000510075019N0040001N1+02711+02081100941ADDGF108991081051008001999999KA1240M+03361MA1999999097571MD1999999-0071REMSYN088AAXX  09004 82583 32596 81801 10271 20208 39757 40094 885// 333 10336 29070 55077 59007;
0201825830999992012030912004-05167-040667FM-12+029999999V0201401N003612200019N0500001N1+02611+02251101141ADDAA124002091AY161061AY261061GF104991031011008001051001KA1240N+02201MA1999999097781MD1999999-0061MW1021REMSYN088AAXX  09124 82583 21599 41407 10261 20225 39778 40114 70266 83150 333 20220 59006 60024;
0137825830999992012030918004-05167-040667FM-12+029999999V0201401N005110450019N0500001N1+03371+01981100751ADDGF105991041021008001031001MA1999999097411MD1999999+0001REMSYN070AAXX  09184 82583 32599 51410 10337 20198 39741 40075 84230 333 58000;
0168825830999992012031000004-05167-040667FM-12+029999999V0203601N001510120019N0040001N1+02561+02151101041ADDGF108991081081008001999999KA1240M+03461MA1999999097671MD1999999+0101REMSYN088AAXX  10004 82583 32596 83603 10256 20215 39767 40104 888// 333 10346 29071 55092 58010;
0201825830999992012031012004-05167-040667FM-12+029999999V0200901N003612200019N0500001N1+02611+02231101221ADDAA124000591AY151061AY251061GF104991041011008001001001KA1240N+02261MA1999999097851MD1999999+0071MW1031REMSYN088AAXX  10124 82583 21599 40907 10261 20223 39785 40122 70355 84100 333 20226 58007 69944;
0137825830999992012031018004-05167-040667FM-12+029999999V0203201N002112200019N0500001N1+03181+02191100841ADDGF103991031021008001001001MA1999999097491MD1999999+0081REMSYN070AAXX  10184 82583 32599 33204 10318 20219 39749 40084 83200 333 58008;
0168825830999992012031100004-05167-040667FM-12+029999999V0203201N001512200019N0040001N1+02541+02211101141ADDGF102991021081008001001001KA1240M+03351MA1999999097771MD1999999+0101REMSYN088AAXX  11004 82583 32596 23203 10254 20221 39777 40114 82800 333 10335 29075 55081 58010;
0201825830999992012031112004-05167-040667FM-12+029999999V0200901N003110075019N0040001N1+02271+02181101361ADDAA124002091AY161061AY261061GF108991081051008001999999KA1240N+02211MA1999999097961MD1999999+0111MW1211REMSYN088AAXX  11124 82583 21596 80906 10227 20218 39796 40136 72166 885// 333 20221 58011 60024;
0173825830999992012031212004-05167-040667FM-12+029999999V0200901N003610075019N0500001N1+02681+02161101121ADDAA124002091GF106991051021008001001011KA1240N+02211MA1999999097751MD1999999-0211REMSYN082AAXX  12124 82583 22599 60907 10268 20216 39775 40112 85201 333 20221 59021 60024;
0168825830999992012031300004-05167-040667FM-12+029999999V0203201N001510120019N0040001N1+02561+02311101011ADDGF106991061081008001001001KA1240M+03211MA1999999097641MD1999999-0041REMSYN088AAXX  13004 82583 32596 63203 10256 20231 39764 40101 86800 333 10321 29075 55032 59004;
0156825830999992012031312004-05167-040667FM-12+029999999V0200901N003110075019N0500001N1+02661+02231101171ADDGF106991051021008001051001KA1240N+02281MA1999999097801MD1999999+0051REMSYN076AAXX  13124 82583 32599 60906 10266 20223 39780 40117 85250 333 20228 58005;
0201825830999992012031318004-05167-040667FM-12+029999999V0200901N002612200019N0500001N1+03371+01981100661ADDAA106000091AY151061AY251061GF103991031021008001001001MA1999999097341MD1999999-0061MW1031REMSYN082AAXX  13184 82583 21599 30905 10337 20198 39734 40066 70355 83200 333 59006 69921;EQDQ01  00002PRCP06
0213825830999992012031400004-05167-040667FM-12+029999999V0202701N002110075019N0040001N1+02511+02361100981ADDAA106008991AY161061AY261061GF105991051051008001001001KA1240M+03421MA1999999097611MD1999999-0031MW1031REMSYN100AAXX  14004 82583 21596 52704 10251 20236 39761 40098 70366 85500 333 10342 29076 55057 59003 60091;
0192825830999992012031412004-05167-040667FM-12+029999999V0200901N003619999999N0500001N1+02671+02041101221ADDAA124008991GF105991999051008001001001KA1240N+02371MA1999999097851MD1999999+0051REMSYN082AAXX  14124 82583 22599 50907 10267 20204 39785 40122 88500 333 20237 58005 60094;EQDQ01+000082SCOTLC
0137825830999992012031418004-05167-040667FM-12+029999999V0200501N003610450019N0500001N1+03181+01841100871ADDGF105991041011008001021001MA1999999097531MD1999999+0191REMSYN070AAXX  14184 82583 32599 50507 10318 20184 39753 40087 84120 333 58019;
0168825830999992012031500004-05167-040667FM-12+029999999V0203201N002112200019N0500001N1+02731+02141101081ADDGF103991031011008001001001KA1240M+03311MA1999999097721MD1999999+0111REMSYN088AAXX  15004 82583 32599 33204 10273 20214 39772 40108 83100 333 10331 29063 55064 58011;
0156825830999992012031512004-05167-040667FM-12+029999999V0200901N002610450019N0500001N1+02641+02201101291ADDGF106991041021008001031011KA1240N+02321MA1999999097931MD1999999+0081REMSYN076AAXX  15124 82583 32599 60905 10264 20220 39793 40129 84231 333 20232 58008;
0182825830999992012031518004-05167-040667FM-12+029999999V0200901N006210075019N0500001N1+02911+02121101001ADDAA106000591AY151061AY251061GF106991051051008001021011MA1999999097641MD1999999+0111MW1501REMSYN082AAXX  15184 82583 21599 60912 10291 20212 39764 40100 75055 85521 333 58011 69941;
0168825830999992012031600004-05167-040667FM-12+029999999V0203201N001012200019N0040001N1+02501+02271101181ADDGF103991031051008001001001KA1240M+03281MA1999999097801MD1999999+0081REMSYN088AAXX  16004 82583 32596 33202 10250 20227 39780 40118 83500 333 10328 29078 55032 58008;
0173825830999992012031612004-05167-040667FM-12+029999999V0200901N002610075019N0500001N1+02631+02201101241ADDAA124000591GF107991061021008001031011KA1240N+02321MA1999999097861MD1999999-0071REMSYN082AAXX  16124 82583 22599 70905 10263 20220 39786 40124 86231 333 20232 59007 69944;
0137825830999992012031618004-05167-040667FM-12+029999999V0200901N004112200019N0500001N1+03311+02041100851ADDGF104991041011008001001001MA1999999097511MD1999999-0131REMSYN070AAXX  16184 82583 32599 40908 10331 20204 39751 40085 84100 333 59013;
0178825830999992012031700004-05167-040667FM-12+029999999V0200501N002112200019N0040001N1+02731+02001101061ADDGA1001+999999999GF100991001001999999001001KA1240M+03401MA1999999097701MD1999999-0101REMSYN082AAXX  17004 82583 32596 00504 10273 20200 39770 40106 333 10340 29063 55078 59010;
0156825830999992012031712004-05167-040667FM-12+029999999V0200901N004112200019N0500001N1+02791+01951101151ADDGF103991021011008001061001KA1240N+02241MA1999999097791MD1999999-0071REMSYN076AAXX  17124 82583 32599 30908 10279 20195 39779 40115 82160 333 20224 59007;
0137825830999992012031718004-05167-040667FM-12+029999999V0200901N004612200019N0500001N1+03531+01241100691ADDGF102991021001008001061001MA1999999097371MD1999999-0141REMSYN070AAXX  17184 82583 32599 20909 10353 20124 39737 40069 82060 333 59014;
0178825830999992012031800004-05167-040667FM-12+029999999V0200901N003612200019N0500001N1+02861+01751100891ADDGA1001+999999999GF100991001001999999001001KA1240M+03631MA1999999097551MD1999999-0151REMSYN082AAXX  18004 82583 32599 00907 10286 20175 39755 40089 333 10363 29043 55111 59015;
0156825830999992012031812004-05167-040667FM-12+029999999V0200901N005110075019N0500001N1+02661+02141101081ADDGF106991061011008001001001KA1240N+02141MA1999999097721MD1999999-0071REMSYN076AAXX  18124 82583 32599 60910 10266 20214 39772 40108 86100 333 20214 59007;
0137825830999992012031818004-05167-040667FM-12+029999999V0203201N003110075019N0500001N1+02991+02171100661ADDGF105991051051008001001001MA1999999097321MD1999999-0061REMSYN070AAXX  18184 82583 32599 53206 10299 20217 39732 40066 85500 333 59006;
0232825830999992012031900004-05167-040667FM-12+029999999V0203201N000510075019N0040001N1+02511+02271100941ADDAA106000091AY151061AY251061GF106991061051008001001001KA1240M+03371MA1999999097571MD1999999+0021MW1031REMSYN100AAXX  19004 82583 21596 63201 10251 20227 39757 40094 70355 86500 333 10337 29076 55053 58002 69921;EQDQ01  00002PRCP06
0192825830999992012031912004-05167-040667FM-12+029999999V0200901N002610075019N0500001N1+02641+02161101101ADDAA124000091GF106991061021008001001001KA1240N+02271MA1999999097731MD1999999+0011REMSYN082AAXX  19124 82583 22599 60905 10264 20216 39773 40110 86200 333 20227 58001 69924;EQDQ01  00002PRCP24
0201825830999992012031918004-05167-040667FM-12+029999999V0200501N005119999999N0500001N1+03131+02071100631ADDAA106000591AY161061AY261061GF105991999021008001001001MA1999999097291MD1999999-0031MW1171REMSYN082AAXX  19184 82583 21599 50510 10313 20207 39729 40063 71766 86200 333 59003 69941;EQDQ01+000062SCOTLC
0168825830999992012032000004-05167-040667FM-12+029999999V0202701N001012200019N0040001N1+02541+02231101031ADDGF104991041051008001001001KA1240M+03281MA1999999097661MD1999999+0091REMSYN088AAXX  20004 82583 32596 42702 10254 20223 39766 40103 84500 333 10328 29073 55051 58009;
0201825830999992012032012004-05167-040667FM-12+029999999V0200501N003610120019N0500001N1+02631+02331101131ADDAA124002091AY161061AY251061GF108991081081008001999999KA1240N+02401MA1999999097761MD1999999+0031MW1031REMSYN088AAXX  20124 82583 21599 80507 10263 20233 39776 40113 70365 888// 333 20240 58003 60024;
0137825830999992012032018004-05167-040667FM-12+029999999V0200901N003610450019N0500001N1+03421+01871100551ADDGF105991041011008001021001MA1999999097231MD1999999-0061REMSYN070AAXX  20184 82583 32599 50907 10342 20187 39723 40055 84120 333 59006;
0156825830999992012032112004-05167-040667FM-12+029999999V0200501N003110450019N0500001N1+02731+02141101111ADDGF105991031011008001021011KA1240N+02371MA1999999097751MD1999999-0011REMSYN076AAXX  21124 82583 32599 50506 10273 20214 39775 40111 83121 333 20237 59001;
0182825830999992012032118004-05167-040667FM-12+029999999V0201401N002110120019N0500001N1+02631+02391100721ADDAA106007991AY161061AY261061GF106991061081008001001001MA1999999097351MD1999999+0121MW1031REMSYN082AAXX  21184 82583 21599 61404 10263 20239 39735 40072 70366 86800 333 58012 60081;
0213825830999992012032200004-05167-040667FM-12+029999999V0203201N002610120019N0040001N1+02471+02271101011ADDAA106000591AY161061AY261061GF106991061081008001001001KA1240M+03271MA1999999097641MD1999999+0001MW1021REMSYN100AAXX  22004 82583 21596 63205 10247 20227 39764 40101 70266 86800 333 10327 29083 55054 58000 69941;
0173825830999992012032212004-05167-040667FM-12+029999999V0201401N002610120019N0500001N1+02541+02311101071ADDAA124008991GF107991061081008001051011KA1240N+02321MA1999999097691MD1999999-0061REMSYN082AAXX  22124 82583 22599 71405 10254 20231 39769 40107 86851 333 20232 59006 60094;
0182825830999992012032218004-05167-040667FM-12+029999999V0200901N002110075019N0500001N1+02751+02281100641ADDAA106001091AY161061AY261061GF106991061051008001001001MA1999999097281MD1999999-0071MW1031REMSYN082AAXX  22184 82583 21599 60904 10275 20228 39728 40064 70366 86500 333 59007 60011;
0213825830999992012032300004-05167-040667FM-12+029999999V0203201N001510075019N0040001N1+02561+02191100881ADDAA106001091AY161061AY261061GF106991061051008001001001KA1240M+03321MA1999999097521MD1999999-0121MW1021REMSYN100AAXX  23004 82583 21596 63203 10256 20219 39752 40088 70266 86500 333 10332 29080 55018 59012 60011;
0173825830999992012032312004-05167-040667FM-12+029999999V0200901N002110450019N0500001N1+02631+02231101071ADDAA124002091GF107991041081008001031011KA1240N+02261MA1999999097701MD1999999+0011REMSYN082AAXX  23124 82583 22599 70904 10263 20223 39770 40107 84831 333 20226 58001 60024;
0137825830999992012032318004-05167-040667FM-12+029999999V0200901N004610075019N0500001N1+03371+02061100591ADDGF106991051021008001041001MA1999999097271MD1999999-0011REMSYN070AAXX  23184 82583 32599 60909 10337 20206 39727 40059 85240 333 59001;
0168825830999992012032400004-05167-040667FM-12+029999999V0203601N002112200019N0040001N1+02651+02181100921ADDGF101991011011008001001001KA1240M+03431MA1999999097561MD1999999+0041REMSYN088AAXX  24004 82583 32596 13604 10265 20218 39756 40092 81100 333 10343 29068 55055 58004;
0173825830999992012032412004-05167-040667FM-12+029999999V0201401N002110075019N0500001N1+02611+02291101271ADDAA124000591GF106991051051008001021001KA1240N+02291MA1999999097901MD1999999+0201REMSYN082AAXX  24124 82583 22599 61404 10261 20229 39790 40127 85520 333 20229 58020 69944;
0137825830999992012032418004-05167-040667FM-12+029999999V0200901N004610075019N0500001N1+03391+02181100621ADDGF105991051051008001001001MA1999999097301MD1999999+0031REMSYN070AAXX  24184 82583 32599 50909 10339 20218 39730 40062 85500 333 58003;
0213825830999992012032500004-05167-040667FM-12+029999999V0203201N001512200019N0040001N1+02441+02211101121ADDAA106000891AY161061AY261061GF101991011011008001001001KA1240M+03551MA1999999097741MD1999999+0161MW1021REMSYN100AAXX  25004 82583 21596 13203 10244 20221 39774 40112 70266 81100 333 10355 29076 55058 58016 69971;
0173825830999992012032512004-05167-040667FM-12+029999999V0200901N003110075019N0500001N1+02601+02271101191ADDAA124000891GF106991061051008001001001KA1240N+02231MA1999999097811MD1999999-0091REMSYN082AAXX  25124 82583 22599 60906 10260 20227 39781 40119 86500 333 20223 59009 69974;
0137825830999992012032518004-05167-040667FM-12+029999999V0201401N004610075019N0500001N1+03291+02301100651ADDGF106991061051008001001001MA1999999097321MD1999999+0021REMSYN070AAXX  25184 82583 32599 61409 10329 20230 39732 40065 86500 333 58002;
0213825830999992012032600004-05167-040667FM-12+029999999V0203601N001510075019N0040001N1+02371+02281101011ADDAA106001091AY191061AY261061GF106991061051008001001001KA1240M+03431MA1999999097631MD1999999-0111MW1021REMSYN100AAXX  26004 82583 21596 63603 10237 20228 39763 40101 70296 86500 333 10343 29082 55061 59011 69991;
0173825830999992012032612004-05167-040667FM-12+029999999V0200901N003610075019N0500001N1+02771+02231101181ADDAA124001091GF106991051021008001031001KA1240N+02291MA1999999097801MD1999999-0011REMSYN082AAXX  26124 82583 22599 60907 10277 20223 39780 40118 85230 333 20229 59001 69994;
0165825830999992012032618004-05167-040667FM-12+029999999V0200901N003610120019N0500001N1+03291+02051100731ADDAY121061AY221061GF106991061081008001001001MA1999999097391MD1999999+0071MW1171REMSYN076AAXX  26184 82583 31599 60907 10329 20205 39739 40073 71722 86800 333 58007;
0168825830999992012032700004-05167-040667FM-12+029999999V0203201N001012200019N0040001N1+02691+02431100931ADDGF102991021021008001001001KA1240M+03421MA1999999097581MD1999999-0051REMSYN088AAXX  27004 82583 32596 23202 10269 20243 39758 40093 82200 333 10342 29072 55051 59005;
0156825830999992012032712004-05167-040667FM-12+029999999V0200501N002612200019N0500001N1+02731+02121101091ADDGF104991041021008001001001KA1240N+02311MA1999999097731MD1999999-0071REMSYN076AAXX  27124 82583 32599 40505 10273 20212 39773 40109 84200 333 20231 59007;
0137825830999992012032718004-05167-040667FM-12+029999999V0200501N002610075019N0500001N1+03021+01961100721ADDGF107991071071008001999999MA1999999097371MD1999999-0021REMSYN070AAXX  27184 82583 32599 70505 10302 20196 39737 40072 877// 333 59002;
0213825830999992012032800004-05167-040667FM-12+029999999V0203201N002110075019N0040001N1+02411+02171101141ADDAA106000591AY161061AY261061GF108991081051008001999999KA1240M+03351MA1999999097761MD1999999+0181MW1031REMSYN100AAXX  28004 82583 21596 83204 10241 20217 39776 40114 70366 885// 333 10335 29074 55050 58018 69951;
0201825830999992012032812004-05167-040667FM-12+029999999V0200901N002110450019N0500001N1+02471+02291101261ADDAA124002091AY161061AY261061GF107991041051008001031011KA1240N+02251MA1999999097861MD1999999+0131MW1011REMSYN088AAXX  28124 82583 21599 70904 10247 20229 39786 40126 70166 84531 333 20225 58013 60024;
0137825830999992012032818004-05167-040667FM-12+029999999V0203201N003610120019N0500001N1+02851+02141100801ADDGF106991061081008001001001MA1999999097441MD1999999+0071REMSYN070AAXX  28184 82583 32599 63207 10285 20214 39744 40080 86800 333 58007;
0213825830999992012032900004-05167-040667FM-12+029999999V0203201N001510042019N0010001N1+02391+02311101151ADDAA106011991AY161061AY251061GF108991081051004501999999KA1240M+03271MA1999999097761MD1999999+0001MW1531REMSYN100AAXX  29004 82583 21494 83203 10239 20231 39776 40115 75365 885// 333 10327 29086 55045 58000 60121;
0201825830999992012032912004-05167-040667FM-12+029999999V0200901N003610120019N0500001N1+02601+02291101371ADDAA124013091AY151061AY251061GF107991061081008001031011KA1240N+02321MA1999999097981MD1999999+0121MW1031REMSYN088AAXX  29124 82583 21599 70907 10260 20229 39798 40137 70355 86831 333 20232 58012 60134;
0182825830999992012032918004-05167-040667FM-12+029999999V0201801N003110075019N0500001N1+02851+02231100961ADDAA106003091AY161061AY261061GF106991051011008001021021MA1999999097591MD1999999+0151MW1031REMSYN082AAXX  29184 82583 21599 61806 10285 20223 39759 40096 70366 85122 333 58015 60031;
0168825830999992012033000004-05167-040667FM-12+029999999V0203601N001512200019N0040001N1+02491+02251101221ADDGF103991031011008001001001KA1240M+03011MA1999999097841MD1999999+0081REMSYN088AAXX  30004 82583 32596 33603 10249 20225 39784 40122 83100 333 10301 29081 55012 58008;
0173825830999992012033012004-05167-040667FM-12+029999999V0200901N001510075019N0500001N1+02611+02271101401ADDAA124003091GF106991061021008001001001KA1240N+02321MA1999999098021MD1999999+0041REMSYN082AAXX  30124 82583 22599 60903 10261 20227 39802 40140 86200 333 20232 58004 60034;
0137825830999992012033018004-05167-040667FM-12+029999999V0200901N002610075019N0500001N1+03211+01881100961ADDGF108991081051008001999999MA1999999097611MD1999999+0021REMSYN070AAXX  30184 82583 32599 80905 10321 20188 39761 40096 885// 333 58002;
0122825830999992012033100004-05167-040667FM-12+029999999V0203201N002612200019N0040001N1+02691+02221999999ADDGF101991999999008001999999REMSYN084AAXX  31004 82583 32596 13205 10269 20222 10328 29069 39780 40116 55063 59004 81100;
0156825830999992012033112004-05167-040667FM-12+029999999V0200901N003110075019N0500001N1+02641+02091101491ADDGF105991051011008001001001KA1240N+02161MA1999999098111MD1999999+0091REMSYN076AAXX  31124 82583 32599 50906 10264 20209 39811 40149 85100 333 20216 58009;
0137825830999992012033118004-05167-040667FM-12+029999999V0201401N003610450019N0500001N1+03311+01741100911ADDGF105991041011008001021011MA1999999097571MD1999999-0041REMSYN070AAXX  31184 82583 32599 51407 10331 20174 39757 40091 84121 333 59004;
0168825830999992012040100004-05167-040667FM-12+029999999V0203601N002112200019N0040001N1+02711+02191101231ADDGF103991031011008001001001KA1240M+03471MA1999999097871MD1999999+0071REMSYN088AAXX  01004 82583 32596 33604 10271 20219 39787 40123 83100 333 10347 29064 55083 58007;
0156825830999992012040112004-05167-040667FM-12+029999999V0200501N000510075019N0500001N1+02631+02231101341ADDGF106991061011008001001001KA1240N+02171MA1999999097971MD1999999+0101REMSYN076AAXX  01124 82583 32599 60501 10263 20223 39797 40134 86100 333 20217 58010;
0168825830999992012040200004-05167-040667FM-12+029999999V0203601N001012200019N0040001N1+02571+02331100991ADDGF102991001001999999001021KA1240M+03381MA1999999097621MD1999999-0251REMSYN088AAXX  02004 82583 32996 23602 10257 20233 39762 40099 80002 333 10338 29084 55068 59025;
0173825830999992012040212004-05167-040667FM-12+029999999V0200901N002110120019N0500001N1+02641+02271101221ADDAA124004191GF107991061081008001041011KA1240N+02271MA1999999097851MD1999999-0121REMSYN082AAXX  02124 82583 22599 70904 10264 20227 39785 40122 86841 333 20227 59012 60044;
0168825830999992012040300004-05167-040667FM-12+029999999V0203601N002112200019N0040001N1+02571+02231101001ADDGF102991021011008001001001KA1240M+03431MA1999999097631MD1999999+0011REMSYN088AAXX  03004 82583 32596 23604 10257 20223 39763 40100 82100 333 10343 29072 55069 58001;
0142825830999992012040312004-05167-040667FM-12+029999999V0200901N003610075019N0500001N1+02791+02031101151ADDGF106991051021008001001011KA1240N+02341MA1999999097791REMSYN076AAXX  03124 82583 32599 60907 10279 20203 39779 40115 85201 333 20234 5////;
0168825830999992012040400004-05167-040667FM-12+029999999V0203601N003112200019N0040001N1+02751+02191101001ADDGF104991021021008001001021KA1240M+03551MA1999999097651MD1999999+0021REMSYN088AAXX  04004 82583 32596 43606 10275 20219 39765 40100 82202 333 10355 29060 55083 58002;
0156825830999992012040412004-05167-040667FM-12+029999999V0200901N002610120019N0500001N1+02631+02121101171ADDGF106991051081008001001011KA1240N+02311MA1999999097811MD1999999+0021REMSYN076AAXX  04124 82583 32599 60905 10263 20212 39781 40117 85801 333 20231 58002;
0232825830999992012040500004-05167-040667FM-12+029999999V0202701N001019999999N0040001N1+02511+02291100961ADDAA106004191AY161061AY261061GF106991001001999999001071KA1240M+03341MA1999999097581MD1999999-0071MW1031REMSYN100AAXX  05004 82583 21896 62702 10251 20229 39758 40096 70366 80007 333 10334 29076 55059 59007 60041;EQDQ01+022502SCOLCB
0201825830999992012040512004-05167-040667FM-12+029999999V0203201N000510120019N0040001N1+02531+02331101151ADDAA124004191AY161061AY261061GF108991081081008001999999KA1240N+02331MA1999999097771MD1999999-0041MW1161REMSYN088AAXX  05124 82583 21596 83201 10253 20233 39777 40115 71666 888// 333 20233 59004 60044;
0213825830999992012040600004-05167-040667FM-12+029999999V0203601N001012200019N0040001N1+02671+02481100931ADDAA106002091AY161061AY261061GF102991011021008001001011KA1240M+03221MA1999999097561MD1999999-0021MW1011REMSYN100AAXX  06004 82583 21596 23602 10267 20248 39756 40093 70166 81201 333 10322 29081 55037 59002 60021;
0173825830999992012040612004-05167-040667FM-12+029999999V0200901N002110075019N0500001N1+02641+02311101131ADDAA124002091GF106991061021008001001001KA1240N+02291MA1999999097771MD1999999+0001REMSYN082AAXX  06124 82583 22599 60904 10264 20231 39777 40113 86200 333 20229 58000 60024;
0232825830999992012040700004-05167-040667FM-12+029999999V0202701N001010075019N0040001N1+02541+02171100821ADDAA106000091AY161061AY261061GF108991081051008001999999KA1240M+03501MA1999999097461MD1999999-0101MW1021REMSYN100AAXX  07004 82583 21596 82702 10254 20217 39746 40082 70266 885// 333 10350 29075 55070 59010 69921;EQDQ01  00002PRCP06
0192825830999992012040712004-05167-040667FM-12+029999999V0200901N002610075019N0500001N1+02681+02201101181ADDAA124000091GF106991061011008001001001KA1240N+02281MA1999999097811MD1999999+0041REMSYN082AAXX  07124 82583 22599 60905 10268 20220 39781 40118 86100 333 20228 58004 69924;EQDQ01  00002PRCP24
0213825830999992012040800004-05167-040667FM-12+029999999V0203201N001510075019N0040001N1+02371+02261100931ADDAA106005191AY161061AY261061GF108991081051008001999999KA1240M+03311MA1999999097551MD1999999+0091MW1021REMSYN100AAXX  08004 82583 21596 83203 10237 20226 39755 40093 70266 885// 333 10331 29086 55032 58009 60051;
0173825830999992012040812004-05167-040667FM-12+029999999V0200501N003610075019N0500001N1+02721+02221101061ADDAA124005191GF106991061051008001001001KA1240N+02211MA1999999097681MD1999999-0131REMSYN082AAXX  08124 82583 22599 60507 10272 20222 39768 40106 86500 333 20221 59013 60054;
0168825830999992012040900004-05167-040667FM-12+029999999V0200901N001512200019N0040001N1+02671+02111100791ADDGF104991041051008001001001KA1240M+03261MA1999999097441MD1999999-0111REMSYN088AAXX  09004 82583 32596 40903 10267 20211 39744 40079 84500 333 10326 29069 55035 59011;
0156825830999992012040912004-05167-040667FM-12+029999999V0200901N001510450019N0500001N1+02431+02151101051ADDGF108991011011008001021999KA1240N+02091MA1999999097671MD1999999-0011REMSYN076AAXX  09124 82583 32599 80903 10243 20215 39767 40105 8112/ 333 20209 59001;
0168825830999992012041000004-05167-040667FM-12+029999999V0200901N001512200019N0040001N1+02671+02131100841ADDGF102991011011008001001011KA1240M+03051MA1999999097481MD1999999+0041REMSYN088AAXX  10004 82583 32596 20903 10267 20213 39748 40084 81101 333 10305 29074 55010 58004;
0156825830999992012041012004-05167-040667FM-12+029999999V0200901N002112200019N0500001N1+02771+02131101181ADDGF103991021011008001001011KA1240N+02241MA1999999097821MD1999999+0151REMSYN076AAXX  10124 82583 32599 30904 10277 20213 39782 40118 82101 333 20224 58015;
0168825830999992012041100004-05167-040667FM-12+029999999V0203201N000512200019N0040001N1+02561+02151101041ADDGF102991021011008001001001KA1240M+03431MA1999999097681MD1999999+0201REMSYN088AAXX  11004 82583 32596 23201 10256 20215 39768 40104 82100 333 10343 29068 55067 58020;
0156825830999992012041112004-05167-040667FM-12+029999999V0200501N004110120019N0500001N1+02671+02161101391ADDGF108991081081008001999999KA1240N+02231MA1999999098011MD1999999+0191REMSYN076AAXX  11124 82583 32599 80508 10267 20216 39801 40139 888// 333 20223 58019;
0213825830999992012041200004-05167-040667FM-12+029999999V0200901N001512200019N0040001N1+02571+01901101071ADDAA106000591AY161061AY261061GF101991011011008001001001KA1240M+03331MA1999999097701MD1999999+0021MW1011REMSYN100AAXX  12004 82583 21596 10903 10257 20190 39770 40107 70166 81100 333 10333 29065 55064 58002 69951;
0173825830999992012041212004-05167-040667FM-12+029999999V0200501N003110075019N0500001N1+02671+02061101281ADDAA124000591GF105991051021008001001001KA1240N+01981MA1999999097901MD1999999-0111REMSYN082AAXX  12124 82583 22599 50506 10267 20206 39790 40128 85200 333 20198 59011 69954;
0187825830999992012041300004-05167-040667FM-12+029999999V0200901N000512200019N0040001N1+02831+02041100981ADDGF101991011011008001001001KA1240M+03551MA1999999999999MD1999999-0071REMSYN088AAXX  13004 82583 32596 10901 10283 20204 39463 40098 81100 333 10355 29060 55099 59007;EQDQ01 094633APOSP 
0156825830999992012041312004-05167-040667FM-12+029999999V0200501N002110075019N0500001N1+02691+02111101221ADDGF106991061021008001001001KA1240N+02071MA1999999097861MD1999999-0041REMSYN076AAXX  13124 82583 32599 60504 10269 20211 39786 40122 86200 333 20207 59004;
0178825830999992012041400004-05167-040667FM-12+029999999V0200501N001512200019N0040001N1+02951+01711100931ADDGA1001+999999999GF100991001001999999001001KA1240M+03481MA1999999097591MD1999999-0041REMSYN082AAXX  14004 82583 32996 00503 10295 20171 39759 40093 333 10348 29058 55093 59004;
0156825830999992012041412004-05167-040667FM-12+029999999V0200901N002110075019N0500001N1+02641+02051101191ADDGF108991081051008001999999KA1240N+02221MA1999999097841MD1999999-0021REMSYN076AAXX  14124 82583 32599 80904 10264 20205 39784 40119 885// 333 20222 59002;
0168825830999992012041500004-05167-040667FM-12+029999999V0203201N001512200019N0040001N1+02641+02141101061ADDGF102991021011008001001001KA1240M+03471MA1999999097701MD1999999+0111REMSYN088AAXX  15004 82583 32596 23203 10264 20214 39770 40106 82100 333 10347 29066 55080 58011;
0156825830999992012041512004-05167-040667FM-12+029999999V0200901N003110075019N0500001N1+02661+02141101241ADDGF108991081051008001999999KA1240N+02291MA1999999097871MD1999999+0031REMSYN076AAXX  15124 82583 32599 80906 10266 20214 39787 40124 885// 333 20229 58003;
0213825830999992012041600004-05167-040667FM-12+029999999V0203601N001510075019N0040001N1+02441+02271101101ADDAA106002091AY161061AY261061GF108991081051008001999999KA1240M+03401MA1999999097741MD1999999+0041MW1021REMSYN100AAXX  16004 82583 21596 83603 10244 20227 39774 40110 70266 885// 333 10340 29075 55027 58004 60021;
0173825830999992012041612004-05167-040667FM-12+029999999V0200501N002110075019N0500001N1+02581+02311101221ADDAA124002091GF106991051021008001001011KA1240N+02261MA1999999097841MD1999999-0031REMSYN082AAXX  16124 82583 22599 60504 10258 20231 39784 40122 85201 333 20226 59003 60024;
0213825830999992012041700004-05167-040667FM-12+029999999V0203201N001010120019N0040001N1+02381+02281101151ADDAA106005191AY161061AY261061GF107991071081008001001001KA1240M+03471MA1999999097771MD1999999+0031MW1021REMSYN100AAXX  17004 82583 21596 73202 10238 20228 39777 40115 70266 87800 333 10347 29080 55071 58003 60051;
0173825830999992012041712004-05167-040667FM-12+029999999V0200501N001010075019N0500001N1+02571+02351101361ADDAA124005191GF106991061021008001001001KA1240N+02311MA1999999097971MD1999999+0131REMSYN082AAXX  17124 82583 22599 60502 10257 20235 39797 40136 86200 333 20231 58013 60054;
0213825830999992012041800004-05167-040667FM-12+029999999V0203601N002112200019N0040001N1+02441+02231101351ADDAA106000591AY161061AY261061GF101991011061008001001001KA1240M+03401MA1999999097961MD1999999+0191MW1031REMSYN100AAXX  18004 82583 21596 13604 10244 20223 39796 40135 70366 81600 333 10340 29077 55060 58019 69941;
0173825830999992012041812004-05167-040667FM-12+029999999V0200501N001510075019N0500001N1+02701+02171101381ADDAA124000591GF106991051021008001001011KA1240N+02271MA1999999098001MD1999999+0031REMSYN082AAXX  18124 82583 22599 60503 10270 20217 39800 40138 85201 333 20227 58003 69944;
0232825830999992012041900004-05167-040667FM-12+029999999V0203201N002610120019N0020001N1+02421+02211101151ADDAA106000091AY161061AY261061GF108991081081008001999999KA1240M+03431MA1999999097771MD1999999-0191MW1131REMSYN100AAXX  19004 82583 21595 83205 10242 20221 39777 40115 71366 888// 333 10343 29076 55079 59019 69921;EQDQ01  00002PRCP06
0192825830999992012041912004-05167-040667FM-12+029999999V0200501N002110075019N0500001N1+02681+02281101151ADDAA124000091GF106991051021008001001011KA1240N+02281MA1999999097771MD1999999-0231REMSYN082AAXX  19124 82583 22599 60504 10268 20228 39777 40115 85201 333 20228 59023 69924;EQDQ01  00002PRCP24
0168825830999992012042000004-05167-040667FM-12+029999999V0203601N001012200019N0040001N1+02871+02301100871ADDGF101991011061008001001001KA1240M+03451MA1999999097531MD1999999-0241REMSYN088AAXX  20004 82583 32596 13602 10287 20230 39753 40087 81600 333 10345 29067 55086 59024;
0156825830999992012042012004-05167-040667FM-12+029999999V0200901N002612200019N0500001N1+02731+02281101111ADDGF104991041021008001001001KA1240N+02381MA1999999097761MD1999999-0011REMSYN076AAXX  20124 82583 32599 40905 10273 20228 39776 40111 84200 333 20238 59001;
0213825830999992012042100004-05167-040667FM-12+029999999V0203601N002110120019N0020001N1+02441+02371101051ADDAA106023991AY191061AY291061GF108991081081008001999999KA1240M+03371MA1999999097681MD1999999+0151MW1171REMSYN100AAXX  21004 82583 21595 83604 10244 20237 39768 40105 71799 888// 333 10337 29079 55083 58015 60241;
0201825830999992012042112004-05167-040667FM-12+029999999V0200501N001010075019N0500001N1+02631+02371101251ADDAA124024991AY191061AY261061GF106991061021008001001001KA1240N+02281MA1999999097871MD1999999+0111MW1031REMSYN088AAXX  21124 82583 21599 60502 10263 20237 39787 40125 70396 86200 333 20228 58011 60254;
0182825830999992012042118004-05167-040667FM-12+029999999V0203201N002110120019N0500001N1+02671+02391100861ADDAA106003091AY161061AY261061GF106991061081008001001001MA1999999097501MD1999999+0141MW1211REMSYN082AAXX  21184 82583 21599 63204 10267 20239 39750 40086 72166 86800 333 58014 60031;
0168825830999992012042200004-05167-040667FM-12+029999999V0203601N001512200019N0040001N1+02391+02261101251ADDGF104991041051008001001001KA1240M+03271MA1999999097861MD1999999+0181REMSYN088AAXX  22004 82583 32596 43603 10239 20226 39786 40125 84500 333 10327 29088 55061 58018;
0173825830999992012042212004-05167-040667FM-12+029999999V0200901N003110075019N0500001N1+02671+02291101341ADDAA124003091GF105991051011008001001011KA1240N+02311MA1999999097951MD1999999+0081REMSYN082AAXX  22124 82583 22599 50906 10267 20229 39795 40134 85101 333 20231 58008 60034;
0156825830999992012042312004-05167-040667FM-12+029999999V0200901N002110120019N0500001N1+02611+02251101271ADDGF108991081081008001999999KA1240N+02261MA1999999097911MD1999999-0041REMSYN076AAXX  23124 82583 32599 80904 10261 20225 39791 40127 888// 333 20226 59004;
0137825830999992012042318004-05167-040667FM-12+029999999V0200901N002112200019N0500001N1+03401+02201100741ADDGF104991031011008001021001MA1999999097411MD1999999-0021REMSYN070AAXX  23184 82583 32599 40904 10340 20220 39741 40074 83120 333 59002;
0178825830999992012042400004-05167-040667FM-12+029999999V0203601N001012200019N0040001N1+02661+02291101051ADDGA1001+999999999GF100991001001999999001001KA1240M+03481MA1999999097691MD1999999+0011REMSYN082AAXX  24004 82583 32996 03602 10266 20229 39769 40105 333 10348 29071 55073 58001;
0156825830999992012042412004-05167-040667FM-12+029999999V0200901N004612200019N0500001N1+02751+02281101161ADDGF104991031021008001001011KA1240N+02321MA1999999097801MD1999999-0111REMSYN076AAXX  24124 82583 32599 40909 10275 20228 39780 40116 83201 333 20232 59011;
0137825830999992012042418004-05167-040667FM-12+029999999V0200901N004112200019N0500001N1+03451+01941100661ADDGF104991031041008001021001MA1999999097341MD1999999-0071REMSYN070AAXX  24184 82583 32599 40908 10345 20194 39734 40066 83420 333 59007;
0168825830999992012042500004-05167-040667FM-12+029999999V0203601N002612200019N0040001N1+02841+01991100881ADDGF101991001001999999001011KA1240M+03541MA1999999097591MD1999999-0101REMSYN088AAXX  25004 82583 32996 13605 10284 20199 39759 40088 80001 333 10354 29059 55090 59010;
0156825830999992012042512004-05167-040667FM-12+029999999V0200501N000510120019N0500001N1+02671+02241101211ADDGF108991081081008001999999KA1240N+02381MA1999999097851MD1999999+0051REMSYN076AAXX  25124 82583 32599 80501 10267 20224 39785 40121 888// 333 20238 58005;
0137825830999992012042518004-05167-040667FM-12+029999999V0200901N002612200019N0500001N1+03521+01701100631ADDGF104991021011008001001011MA1999999097311MD1999999-0031REMSYN070AAXX  25184 82583 32599 40905 10352 20170 39731 40063 82101 333 59003;
0178825830999992012042600004-05167-040667FM-12+029999999V0201401N002612200019N0040001N1+02831+01791100871ADDGA1001+999999999GF100991001001999999001001KA1240M+03611MA1999999097531MD1999999-0061REMSYN082AAXX  26004 82583 32996 01405 10283 20179 39753 40087 333 10361 29054 55089 59006;
0156825830999992012042612004-05167-040667FM-12+029999999V0200901N004612200019N0500001N1+02871+02181101111ADDGF103991031021008001001001KA1240N+02461MA1999999097771MD1999999-0081REMSYN076AAXX  26124 82583 32599 30909 10287 20218 39777 40111 83200 333 20246 59008;
0137825830999992012042618004-05167-040667FM-12+029999999V0200901N004612200019N0500001N1+03481+01751100641ADDGF104991041011008001001001MA1999999097321MD1999999+0011REMSYN070AAXX  26184 82583 32599 40909 10348 20175 39732 40064 84100 333 58001;
0168825830999992012042700004-05167-040667FM-12+029999999V0200501N001012200019N0040001N1+02921+01861100951ADDGF101991011011008001001001KA1240M+03571MA1999999097621MD1999999+0091REMSYN088AAXX  27004 82583 32596 10502 10292 20186 39762 40095 81100 333 10357 29052 55090 58009;
0156825830999992012042712004-05167-040667FM-12+029999999V0200501N002110075019N0500001N1+02721+02151101171ADDGF105991051021008001001001KA1240N+02261MA1999999097821MD1999999+0051REMSYN076AAXX  27124 82583 32599 50504 10272 20215 39782 40117 85200 333 20226 58005;
0156825830999992012042718004-05167-040667FM-12+029999999V0202701N001519999999N0500001N1+03431+02041100561ADDGF105991999011008001001001MA1999999097241MD1999999+0041REMSYN070AAXX  27184 82583 32599 52703 10343 20204 39724 40056 82100 333 58004;EQDQ01+000022SCOTLC
0168825830999992012042800004-05167-040667FM-12+029999999V0200501N000512200019N0040001N1+02961+01991100861ADDGF101991011011008001001001KA1240M+03591MA1999999097521MD1999999-0101REMSYN088AAXX  28004 82583 32596 10501 10296 20199 39752 40086 81100 333 10359 29057 55087 59010;
0156825830999992012042812004-05167-040667FM-12+029999999V0200901N003110075019N0500001N1+02691+02031101161ADDGF105991051011008001001001KA1240N+02231MA1999999097811MD1999999-0011REMSYN076AAXX  28124 82583 32599 50906 10269 20203 39781 40116 85100 333 20223 59001;
0137825830999992012042818004-05167-040667FM-12+029999999V0200901N003612200019N0500001N1+03511+01501100521ADDGF101991011011008001001001MA1999999097201MD1999999-0041REMSYN070AAXX  28184 82583 32599 10907 10351 20150 39720 40052 81100 333 59004;
0178825830999992012042900004-05167-040667FM-12+029999999V0200901N001512200019N0040001N1+02741+01021100871ADDGA1001+999999999GF100991001001999999001001KA1240M+03551MA1999999097521MD1999999+0001REMSYN082AAXX  29004 82583 32996 00903 10274 20102 39752 40087 333 10355 29042 55095 58000;
0156825830999992012042912004-05167-040667FM-12+029999999V0200501N003110075019N0500001N1+02701+02111101121ADDGF105991051021008001001001KA1240N+02191MA1999999097761MD1999999-0051REMSYN076AAXX  29124 82583 32599 50506 10270 20211 39776 40112 85200 333 20219 59005;
0137825830999992012042918004-05167-040667FM-12+029999999V0200901N002112200019N0500001N1+03481+01571100611ADDGF104991041011008001001001MA1999999097291MD1999999+0091REMSYN070AAXX  29184 82583 32599 40904 10348 20157 39729 40061 84100 333 58009;
0168825830999992012043000004-05167-040667FM-12+029999999V0200501N000512200019N0040001N1+03041+02001100951ADDGF102991021031008001001001KA1240M+03621MA1999999097611MD1999999+0091REMSYN088AAXX  30004 82583 32596 20501 10304 20200 39761 40095 82300 333 10362 29052 55096 58009;
0156825830999992012043012004-05167-040667FM-12+029999999V0200901N003112200019N0500001N1+02731+02071101211ADDGF102991021011008001001001KA1240N+02221MA1999999097871MD1999999+0111REMSYN076AAXX  30124 82583 32599 20906 10273 20207 39787 40121 82100 333 20222 58011;
0137825830999992012043018004-05167-040667FM-12+029999999V0203601N001512200019N0500001N1+03431+02281100781ADDGF104991041011008001001001MA1999999097441MD1999999+0151REMSYN070AAXX  30184 82583 32599 43603 10343 20228 39744 40078 84100 333 58015;
0213825830999992012050100004-05167-040667FM-12+029999999V0200901N001010075019N0040001N1+02831+02311100951ADDAA106000591AY161061AY261061GF106991061051008001001001KA1240M+03571MA1999999097611MD1999999+0001MW1021REMSYN100AAXX  01004 82583 21596 60902 10283 20231 39761 40095 70266 86500 333 10357 29066 55093 58000 69951;
0168825830999992012050200004-05167-040667FM-12+029999999V0203601N002112200019N0040001N1+02771+02211101081ADDGF101991011011008001001001KA1240M+03571MA1999999097721MD1999999+0111REMSYN088AAXX  02004 82583 32596 13604 10277 20221 39772 40108 81100 333 10357 29066 55092 58011;
0156825830999992012050212004-05167-040667FM-12+029999999V0200501N003112200019N0500001N1+02771+02161101221ADDGF104991041011008001001001KA1240N+02201MA1999999097861MD1999999-0051REMSYN076AAXX  02124 82583 32599 40506 10277 20216 39786 40122 84100 333 20220 59005;
0137825830999992012050218004-05167-040667FM-12+029999999V0200901N004110075019N0500001N1+03471+02041100691ADDGF105991051011008001001001MA1999999097361MD1999999-0031REMSYN070AAXX  02184 82583 32599 50908 10347 20204 39736 40069 85100 333 59003;
0168825830999992012050300004-05167-040667FM-12+029999999V0200501N001512200019N0040001N1+02931+01971101021ADDGF101991011011008001001001KA1240M+03601MA1999999097681MD1999999-0041REMSYN088AAXX  03004 82583 32596 10503 10293 20197 39768 40102 81100 333 10360 29056 55088 59004;
0156825830999992012050312004-05167-040667FM-12+029999999V0200901N003612200019N0500001N1+02771+02091101231ADDGF103991021011008001031001KA1240N+02301MA1999999097891MD1999999+0031REMSYN076AAXX  03124 82583 32599 30907 10277 20209 39789 40123 82130 333 20230 58003;
0137825830999992012050318004-05167-040667FM-12+029999999V0200901N005112200019N0500001N1+03421+01941100791ADDGF104991031021008001021001MA1999999097451MD1999999+0091REMSYN070AAXX  03184 82583 32599 40910 10342 20194 39745 40079 83220 333 58009;
0168825830999992012050400004-05167-040667FM-12+029999999V0200901N002612200019N0040001N1+02951+02401101071ADDGF101991011001008001021001KA1240M+03531MA1999999097731MD1999999+0051REMSYN088AAXX  04004 82583 32596 10905 10295 20240 39773 40107 81020 333 10353 29063 55078 58005;
0156825830999992012050412004-05167-040667FM-12+029999999V0200901N005710075019N0500001N1+02841+02071101231ADDGF106991051021008001001011KA1240N+02491MA1999999097891MD1999999+0001REMSYN076AAXX  04124 82583 32599 60911 10284 20207 39789 40123 85201 333 20249 58000;
0137825830999992012050418004-05167-040667FM-12+029999999V0201401N005112200019N0500001N1+03371+01871100731ADDGF104991031011008001021011MA1999999097411MD1999999-0041REMSYN070AAXX  04184 82583 32599 41410 10337 20187 39741 40073 83121 333 59004;
0178825830999992012050500004-05167-040667FM-12+029999999V0200901N002112200019N0040001N1+02791+01781101021ADDGA1001+999999999GF100991001001999999001001KA1240M+03451MA1999999097671MD1999999-0061REMSYN082AAXX  05004 82583 32996 00904 10279 20178 39767 40102 333 10345 29053 55091 59006;
0156825830999992012050512004-05167-040667FM-12+029999999V0200901N007212200019N0500001N1+02911+01801101181ADDGF104991031011008001031011KA1240N+02111MA1999999097841MD1999999-0051REMSYN076AAXX  05124 82583 32599 40914 10291 20180 39784 40118 83131 333 20211 59005;
0137825830999992012050518004-05167-040667FM-12+029999999V0200901N004110450019N0500001N1+03341+01671100801ADDGF105991041011008001021001MA1999999097461MD1999999+0051REMSYN070AAXX  05184 82583 32599 50908 10334 20167 39746 40080 84120 333 58005;
0168825830999992012050600004-05167-040667FM-12+029999999V0201401N003112200019N0040001N1+02831+01701101071ADDGF104991041001008001021011KA1240M+03451MA1999999097731MD1999999+0061REMSYN088AAXX  06004 82583 32596 41406 10283 20170 39773 40107 84021 333 10345 29047 55100 58006;
0156825830999992012050612004-05167-040667FM-12+029999999V0201401N003110075019N0500001N1+02611+02181101271ADDGF106991061051008001001001KA1240N+02211MA1999999097911MD1999999+0071REMSYN076AAXX  06124 82583 32599 61406 10261 20218 39791 40127 86500 333 20221 58007;
0137825830999992012050618004-05167-040667FM-12+029999999V0200901N003612200019N0500001N1+03401+01721100791ADDGF104991041011008001001001MA1999999097451MD1999999-0011REMSYN070AAXX  06184 82583 32599 40907 10340 20172 39745 40079 84100 333 59001;
0168825830999992012050700004-05167-040667FM-12+029999999V0200901N002612200019N0040001N1+02891+01751101031ADDGF102991011011008001061001KA1240M+03511MA1999999097671MD1999999-0061REMSYN088AAXX  07004 82583 32596 20905 10289 20175 39767 40103 81160 333 10351 29053 55079 59006;
0156825830999992012050712004-05167-040667FM-12+029999999V0200901N002110120019N0500001N1+02701+02171101261ADDGF107991071081008001001001KA1240N+02291MA1999999097911MD1999999+0001REMSYN076AAXX  07124 82583 32599 70904 10270 20217 39791 40126 87800 333 20229 58000;
0137825830999992012050718004-05167-040667FM-12+029999999V0200901N005710450019N0500001N1+03461+01861100821ADDGF105991041011008001021001MA1999999097491MD1999999+0041REMSYN070AAXX  07184 82583 32599 50911 10346 20186 39749 40082 84120 333 58004;
0168825830999992012050800004-05167-040667FM-12+029999999V0200901N002610075019N0040001N1+03001+01911101101ADDGF106991061011008001001001KA1240M+03671MA1999999097761MD1999999+0091REMSYN088AAXX  08004 82583 32596 60905 10300 20191 39776 40110 86100 333 10367 29054 55066 58009;
0201825830999992012050812004-05167-040667FM-12+029999999V0201401N004610075019N0500001N1+02671+02281101281ADDAA124000391AY161061AY261061GF107991061021008001031999KA1240N+02461MA1999999097941MD1999999+0031MW1031REMSYN088AAXX  08124 82583 21599 71409 10267 20228 39794 40128 70366 8623/ 333 20246 58003 69934;
0137825830999992012050818004-05167-040667FM-12+029999999V0200901N005112200019N0500001N1+03451+01821100801ADDGF104991021011008001001011MA1999999097481MD1999999-0011REMSYN070AAXX  08184 82583 32599 40910 10345 20182 39748 40080 82101 333 59001;
0168825830999992012050900004-05167-040667FM-12+029999999V0201801N001512200019N0040001N1+02831+01821101121ADDGF101991011001017501031001KA1240M+03541MA1999999097761MD1999999+0001REMSYN088AAXX  09004 82583 32796 11803 10283 20182 39776 40112 81030 333 10354 29056 55073 58000;
0156825830999992012050912004-05167-040667FM-12+029999999V0200901N002112200019N0500001N1+02771+02061101231ADDGF102991011011008001001011KA1240N+02221MA1999999097881MD1999999-0061REMSYN076AAXX  09124 82583 32599 20904 10277 20206 39788 40123 81101 333 20222 59006;
0137825830999992012050918004-05167-040667FM-12+029999999V0200501N001512200019N0500001N1+03571+01751100701ADDGF104991041021008001001001MA1999999097361MD1999999-0121REMSYN070AAXX  09184 82583 32599 40503 10357 20175 39736 40070 84200 333 59012;
0168825830999992012051000004-05167-040667FM-12+029999999V0201401N001012200019N0040001N1+02881+01771100961ADDGF101991011011008001001001KA1240M+03681MA1999999097621MD1999999-0141REMSYN088AAXX  10004 82583 32596 11402 10288 20177 39762 40096 81100 333 10368 29050 55102 59014;
0156825830999992012051012004-05167-040667FM-12+029999999V0200901N001512200019N0500001N1+02801+02131101141ADDGF102991011011008001001011KA1240N+02231MA1999999097801MD1999999-0081REMSYN076AAXX  10124 82583 32599 20903 10280 20213 39780 40114 81101 333 20223 59008;
0137825830999992012051018004-05167-040667FM-12+029999999V0200501N002610075019N0500001N1+03501+01861100671ADDGF106991051011008001021001MA1999999097351MD1999999-0011REMSYN070AAXX  10184 82583 32599 60505 10350 20186 39735 40067 85120 333 59001;
0213825830999992012051100004-05167-040667FM-12+029999999V0200501N001010075019N0040001N1+02771+02231101041ADDAA106004191AY161061AY261061GF108991081051008001999999KA1240M+03561MA1999999097691MD1999999+0071MW1211REMSYN100AAXX  11004 82583 21596 80502 10277 20223 39769 40104 72166 885// 333 10356 29062 55081 58007 60041;
0173825830999992012051112004-05167-040667FM-12+029999999V0200501N002610075019N0500001N1+02781+02111101211ADDAA124004191GF106991061021008001001001KA1240N+02351MA1999999097861MD1999999+0061REMSYN082AAXX  11124 82583 22599 60505 10278 20211 39786 40121 86200 333 20235 58006 60044;
0137825830999992012051118004-05167-040667FM-12+029999999V0200901N003610075019N0500001N1+03291+01911100831ADDGF105991051011008001001001MA1999999097491MD1999999+0141REMSYN070AAXX  11184 82583 32599 50907 10329 20191 39749 40083 85100 333 58014;
0168825830999992012051200004-05167-040667FM-12+029999999V0209999C000012200019N0040001N1+02841+02141101031ADDGF101991011011008001001001KA1240M+03421MA1999999097681MD1999999-0011REMSYN088AAXX  12004 82583 32596 10900 10284 20214 39768 40103 81100 333 10342 29060 55073 59001;
0156825830999992012051212004-05167-040667FM-12+029999999V0200901N004610075019N0500001N1+02791+02111101191ADDGF106991061011008001001001KA1240N+02261MA1999999097841MD1999999-0021REMSYN076AAXX  12124 82583 32599 60909 10279 20211 39784 40119 86100 333 20226 59002;
0137825830999992012051218004-05167-040667FM-12+029999999V0200501N001512200019N0500001N1+03491+01861100661ADDGF104991041021008001001001MA1999999097341MD1999999-0171REMSYN070AAXX  12184 82583 32599 40503 10349 20186 39734 40066 84200 333 59017;
0168825830999992012051300004-05167-040667FM-12+029999999V0201401N001512200019N0040001N1+02901+01751100841ADDGF101991011011008001001001KA1240M+03561MA1999999097501MD1999999+0181REMSYN088AAXX  13004 82583 32596 11403 10290 20175 39750 40084 81100 333 10356 29051 55096 58018;
0156825830999992012051312004-05167-040667FM-12+029999999V0200901N004110075019N0500001N1+02791+02151101131ADDGF106991061051008001001001KA1240N+02411MA1999999097791MD1999999+0051REMSYN076AAXX  13124 82583 32599 60908 10279 20215 39779 40113 86500 333 20241 58005;
0137825830999992012051318004-05167-040667FM-12+029999999V0200901N003112200019N0500001N1+03481+01861100621ADDGF103991031021008001001001MA1999999097301MD1999999-0021REMSYN070AAXX  13184 82583 32599 30906 10348 20186 39730 40062 83200 333 59002;
0168825830999992012051400004-05167-040667FM-12+029999999V0200501N000512200019N0040001N1+02911+01831100831ADDGF101991011011008001001001KA1240M+03611MA1999999097491MD1999999-0011REMSYN088AAXX  14004 82583 32596 10501 10291 20183 39749 40083 81100 333 10361 29052 55096 59001;
0156825830999992012051412004-05167-040667FM-12+029999999V0200501N005112200019N0500001N1+02891+02101101161ADDGF105991041021008001001011KA1240N+02401MA1999999097821MD1999999+0031REMSYN076AAXX  14124 82583 32599 50510 10289 20210 39782 40116 84201 333 20240 58003;
0137825830999992012051418004-05167-040667FM-12+029999999V0200901N003612200019N0500001N1+03491+01861100661ADDGF103991031011008001001001MA1999999097341MD1999999+0041REMSYN070AAXX  14184 82583 32599 30907 10349 20186 39734 40066 83100 333 58004;
0178825830999992012051500004-05167-040667FM-12+029999999V0201801N002112200019N0040001N1+02901+01871100891ADDGA1001+999999999GF100991001001999999001001KA1240M+03611MA1999999097561MD1999999+0071REMSYN082AAXX  15004 82583 32996 01804 10290 20187 39756 40089 333 10361 29052 55099 58007;
0156825830999992012051512004-05167-040667FM-12+029999999V0200901N003612200019N0500001N1+02811+01971101221ADDGF103991021011008001001011KA1240N+02471MA1999999097881MD1999999+0061REMSYN076AAXX  15124 82583 32599 30907 10281 20197 39788 40122 82101 333 20247 58006;
0137825830999992012051518004-05167-040667FM-12+029999999V0200901N004112200019N0500001N1+03411+01871100751ADDGF104991041011008001001001MA1999999097431MD1999999+0091REMSYN070AAXX  15184 82583 32599 40908 10341 20187 39743 40075 84100 333 58009;
0178825830999992012051600004-05167-040667FM-12+029999999V0200901N001012200019N0040001N1+02911+01861100991ADDGA1001+999999999GF100991001001999999001001KA1240M+03541MA1999999097651MD1999999+0091REMSYN082AAXX  16004 82583 32996 00902 10291 20186 39765 40099 333 10354 29052 55103 58009;
0156825830999992012051612004-05167-040667FM-12+029999999V0200901N003110075019N0500001N1+02641+02071101331ADDGF106991061021008001001001KA1240N+02331MA1999999097971MD1999999+0091REMSYN076AAXX  16124 82583 32599 60906 10264 20207 39797 40133 86200 333 20233 58009;
0137825830999992012051618004-05167-040667FM-12+029999999V0203201N000512200019N0500001N1+03381+01791100861ADDGF104991041011008001001001MA1999999097521MD1999999+0091REMSYN070AAXX  16184 82583 32599 43201 10338 20179 39752 40086 84100 333 58009;
0168825830999992012051700004-05167-040667FM-12+029999999V0200901N001512200019N0500001N1+02821+01941101041ADDGF101991011011008001001001KA1240M+03471MA1999999097681MD1999999+0031REMSYN088AAXX  17004 82583 32599 10903 10282 20194 39768 40104 81100 333 10347 29057 55075 58003;
0156825830999992012051712004-05167-040667FM-12+029999999V0200501N001510120019N0500001N1+02591+02141101211ADDGF107991071081008001001001KA1240N+02231MA1999999097911MD1999999-0061REMSYN076AAXX  17124 82583 32599 70503 10259 20214 39791 40121 87800 333 20223 59006;
0156825830999992012051718004-05167-040667FM-12+029999999V0201401N002619999999N0500001N1+03371+02441100821ADDGF105991999021008001001001MA1999999097481MD1999999-0041REMSYN070AAXX  17184 82583 32599 51405 10337 20244 39748 40082 84200 333 59004;EQDQ01+000042SCOTLC
0178825830999992012051800004-05167-040667FM-12+029999999V0200901N001512200019N0040001N1+02831+02071101001ADDGA1001+999999999GF100991001001999999001001KA1240M+03491MA1999999097641MD1999999-0041REMSYN082AAXX  18004 82583 32996 00903 10283 20207 39764 40100 333 10349 29065 55076 59004;
0156825830999992012051812004-05167-040667FM-12+029999999V0200901N004110120019N0500001N1+02731+02051101161ADDGF108991081081008001999999KA1240N+02391MA1999999097811MD1999999-0101REMSYN076AAXX  18124 82583 32599 80908 10273 20205 39781 40116 888// 333 20239 59010;
0137825830999992012051818004-05167-040667FM-12+029999999V0200901N004112200019N0500001N1+03341+02051100751ADDGF103991021011008001021001MA1999999097411MD1999999-0071REMSYN070AAXX  18184 82583 32599 30908 10334 20205 39741 40075 82120 333 59007;
0168825830999992012051900004-05167-040667FM-12+029999999V0201401N002112200019N0040001N1+02881+01941100971ADDGF101991011011008001001001KA1240M+03441MA1999999097631MD1999999-0011REMSYN088AAXX  19004 82583 32596 11404 10288 20194 39763 40097 81100 333 10344 29057 55078 59001;
0156825830999992012051912004-05167-040667FM-12+029999999V0200901N005110075019N0500001N1+02821+02151101221ADDGF105991051011008001001001KA1240N+02441MA1999999097881MD1999999+0071REMSYN076AAXX  19124 82583 32599 50910 10282 20215 39788 40122 85100 333 20244 58007;
0137825830999992012051918004-05167-040667FM-12+029999999V0200901N004610450019N0500001N1+03481+02041100741ADDGF105991041021008001021001MA1999999097421MD1999999+0011REMSYN070AAXX  19184 82583 32599 50909 10348 20204 39742 40074 84220 333 58001;
0178825830999992012052000004-05167-040667FM-12+029999999V0200901N002612200019N0040001N1+02871+01861101031ADDGA1001+999999999GF100991001001999999001001KA1240M+03551MA1999999097691MD1999999+0061REMSYN082AAXX  20004 82583 32996 00905 10287 20186 39769 40103 333 10355 29054 55099 58006;
0156825830999992012052012004-05167-040667FM-12+029999999V0200901N007710075019N0500001N1+02841+02141101341ADDGF105991051011008001001001KA1240N+02341MA1999999097981MD1999999+0101REMSYN076AAXX  20124 82583 32599 50915 10284 20214 39798 40134 85100 333 20234 58010;
0137825830999992012052018004-05167-040667FM-12+029999999V0200901N005112200019N0500001N1+03321+01931100921ADDGF103991031011008001001001MA1999999097581MD1999999+0161REMSYN070AAXX  20184 82583 32599 30910 10332 20193 39758 40092 83100 333 58016;
0178825830999992012052100004-05167-040667FM-12+029999999V0200901N001512200019N0040001N1+02791+01951101161ADDGA1001+999999999GF100991001001999999001001KA1240M+03491MA1999999097811MD1999999+0121REMSYN082AAXX  21004 82583 32996 00903 10279 20195 39781 40116 333 10349 29058 55072 58012;
0156825830999992012052112004-05167-040667FM-12+029999999V0200901N004612200019N0500001N1+02831+02071101311ADDGF103991031011008001001001KA1240N+02331MA1999999097951MD1999999-0031REMSYN076AAXX  21124 82583 32599 30909 10283 20207 39795 40131 83100 333 20233 59003;
0137825830999992012052118004-05167-040667FM-12+029999999V0201401N005112200019N0500001N1+03431+01721101021ADDGF104991041021008001001001MA1999999097681MD1999999+0101REMSYN070AAXX  21184 82583 32599 41410 10343 20172 39768 40102 84200 333 58010;
0178825830999992012052200004-05167-040667FM-12+029999999V0200901N002612200019N0040001N1+02911+01741101101ADDGA1001+999999999GF100991001001999999001001KA1240M+03551MA1999999097761MD1999999-0051REMSYN082AAXX  22004 82583 32996 00905 10291 20174 39776 40110 333 10355 29049 55099 59005;
0156825830999992012052212004-05167-040667FM-12+029999999V0200901N005112200019N0500001N1+02831+01991101241ADDGF102991011011008001001011KA1240N+02301MA1999999097901MD1999999-0051REMSYN076AAXX  22124 82583 32599 20910 10283 20199 39790 40124 81101 333 20230 59005;
0137825830999992012052218004-05167-040667FM-12+029999999V0201401N003610075019N0500001N1+03331+01801100841ADDGF106991051011008001021001MA1999999097501MD1999999+0181REMSYN070AAXX  22184 82583 32599 61407 10333 20180 39750 40084 85120 333 58018;
0168825830999992012052300004-05167-040667FM-12+029999999V0201401N002112200019N0500001N1+02871+01831101081ADDGF101991011011008001001001KA1240M+03451MA1999999097741MD1999999-0021REMSYN088AAXX  23004 82583 32599 11404 10287 20183 39774 40108 81100 333 10345 29052 55078 59002;
0156825830999992012052312004-05167-040667FM-12+029999999V0200901N006712200019N0500001N1+02801+01871101391ADDGF104991041011008001001001KA1240N+02501MA1999999098031MD1999999+0131REMSYN076AAXX  23124 82583 32599 40913 10280 20187 39803 40139 84100 333 20250 58013;
0137825830999992012052318004-05167-040667FM-12+029999999V0200901N005110450019N0500001N1+03191+01961101031ADDGF105991041011008001061001MA1999999097691MD1999999+0191REMSYN070AAXX  23184 82583 32599 50910 10319 20196 39769 40103 84160 333 58019;
0178825830999992012052400004-05167-040667FM-12+029999999V0200901N002112200019N0040001N1+02831+01881101281ADDGA1001+999999999GF100991001001999999001001KA1240M+03361MA1999999097931MD1999999+0191REMSYN082AAXX  24004 82583 32996 00904 10283 20188 39793 40128 333 10336 29054 55051 58019;
0156825830999992012052412004-05167-040667FM-12+029999999V0200901N005710075019N0500001N1+02731+02021101351ADDGF106991061011008001001001KA1240N+02221MA1999999097991MD1999999-0041REMSYN076AAXX  24124 82583 32599 60911 10273 20202 39799 40135 86100 333 20222 59004;
0156825830999992012052418004-05167-040667FM-12+029999999V0200901N003612200019N0500001N1+03271+01781101081ADDGF104991999021008001001001MA1999999097671MD1999999-0021REMSYN070AAXX  24184 82583 32599 40907 10327 20178 39767 40108 83200 333 59002;EQDQ01+000032SCOTLC
0178825830999992012052500004-05167-040667FM-12+029999999V0200901N001512200019N0040001N1+02801+01841101231ADDGA1001+999999999GF100991001001999999001001KA1240M+03381MA1999999097871MD1999999-0061REMSYN082AAXX  25004 82583 32996 00903 10280 20184 39787 40123 333 10338 29054 55066 59006;
0156825830999992012052512004-05167-040667FM-12+029999999V0200901N004610120019N0500001N1+02641+02091101351ADDGF107991071081008001001001KA1240N+02371MA1999999097981MD1999999-0011REMSYN076AAXX  25124 82583 32599 70909 10264 20209 39798 40135 87800 333 20237 59001;
0137825830999992012052518004-05167-040667FM-12+029999999V0200501N002112200019N0500001N1+03231+01781101031ADDGF104991041011008001001001MA1999999097671MD1999999+0001REMSYN070AAXX  25184 82583 32599 40504 10323 20178 39767 40103 84100 333 58000;
0178825830999992012052600004-05167-040667FM-12+029999999V0200901N002112200019N0040001N1+02771+01641101171ADDGA1001+999999999GF100991001001999999001001KA1240M+03371MA1999999097811MD1999999-0061REMSYN082AAXX  26004 82583 32996 00904 10277 20164 39781 40117 333 10337 29053 55071 59006;
0156825830999992012052612004-05167-040667FM-12+029999999V0200901N001510120019N0500001N1+02531+02021101431ADDGF106991061081008001001001KA1240N+02191MA1999999098051MD1999999+0071REMSYN076AAXX  26124 82583 32599 60903 10253 20202 39805 40143 86800 333 20219 58007;
0137825830999992012052618004-05167-040667FM-12+029999999V0200901N003110075019N0500001N1+03431+01721100881ADDGF105991051021008001001001MA1999999097541MD1999999-0131REMSYN070AAXX  26184 82583 32599 50906 10343 20172 39754 40088 85200 333 59013;
0156825830999992012052712004-05167-040667FM-12+029999999V0200901N004610075019N0500001N1+02721+02031101391ADDGF106991061011008001001001KA1240N+02191MA1999999098031MD1999999-0021REMSYN076AAXX  27124 82583 32599 60909 10272 20203 39803 40139 86100 333 20219 59002;
0137825830999992012052718004-05167-040667FM-12+029999999V0200901N002112200019N0500001N1+03371+01791100941ADDGF104991041011008001001001MA1999999097601MD1999999+0061REMSYN070AAXX  27184 82583 32599 40904 10337 20179 39760 40094 84100 333 58006;
0168825830999992012052800004-05167-040667FM-12+029999999V0200901N002112200019N0040001N1+02991+01781101181ADDGF101991011011008001001001KA1240M+03471MA1999999097841MD1999999+0101REMSYN088AAXX  28004 82583 32596 10904 10299 20178 39784 40118 81100 333 10347 29050 55086 58010;
0156825830999992012052812004-05167-040667FM-12+029999999V0200901N005112200019N0500001N1+02811+01901101401ADDGF104991031011008001041001KA1240N+02241MA1999999098041MD1999999+0011REMSYN076AAXX  28124 82583 32599 40910 10281 20190 39804 40140 83140 333 20224 58001;
0137825830999992012052818004-05167-040667FM-12+029999999V0200901N003612200019N0500001N1+03431+01581100971ADDGF103991031011008001001001MA1999999097641MD1999999+0041REMSYN070AAXX  28184 82583 32599 30907 10343 20158 39764 40097 83100 333 58004;
0178825830999992012052900004-05167-040667FM-12+029999999V0200901N003112200019N0040001N1+02831+01501101241ADDGA1001+999999999GF100991001001999999001001KA1240M+03541MA1999999097891MD1999999+0051REMSYN082AAXX  29004 82583 32996 00906 10283 20150 39789 40124 333 10354 29046 55088 58005;
0156825830999992012052912004-05167-040667FM-12+029999999V0200901N004612200019N0500001N1+02801+01951101321ADDGF102991021011008001001001KA1240N+02151MA1999999097961MD1999999-0081REMSYN076AAXX  29124 82583 32599 20909 10280 20195 39796 40132 82100 333 20215 59008;
0137825830999992012052918004-05167-040667FM-12+029999999V0200901N005712200019N0500001N1+03351+01601100921ADDGF103991031011008001001001MA1999999097581MD1999999-0061REMSYN070AAXX  29184 82583 32599 30911 10335 20160 39758 40092 83100 333 59006;
0168825830999992012053000004-05167-040667FM-12+029999999V0200901N002112200019N0040001N1+02841+01821101161ADDGF102991011011008001031001KA1240M+03461MA1999999097811MD1999999-0081REMSYN088AAXX  30004 82583 32596 20904 10284 20182 39781 40116 81130 333 10346 29051 55099 59008;
0201825830999992012053012004-05167-040667FM-12+029999999V0200901N005710075019N0500001N1+02771+02091101361ADDAA124000391AY161061AY261061GF106991051021008001001011KA1240N+02171MA1999999098001MD1999999+0041MW1021REMSYN088AAXX  30124 82583 21599 60911 10277 20209 39800 40136 70266 85201 333 20217 58004 69934;
0137825830999992012053018004-05167-040667FM-12+029999999V0200901N005112200019N0500001N1+03311+01651100931ADDGF104991031011008001021001MA1999999097701MD1999999+0001REMSYN070AAXX  30184 82583 32599 40910 10331 20165 39770 40093 83120 333 58000;
0168825830999992012053100004-05167-040667FM-12+029999999V0200901N002112200019N0040001N1+02761+01891101161ADDGF101991001001999999001011KA1240M+03421MA1999999097801MD1999999-0011REMSYN088AAXX  31004 82583 32996 10904 10276 20189 39780 40116 80001 333 10342 29055 55089 59001;
0156825830999992012053112004-05167-040667FM-12+029999999V0200901N003112200019N0500001N1+02721+01951101541ADDGF104991041011008001001001KA1240N+02301MA1999999098171MD1999999+0171REMSYN076AAXX  31124 82583 32599 40906 10272 20195 39817 40154 84100 333 20230 58017;
0137825830999992012053118004-05167-040667FM-12+029999999V0200901N003112200019N0500001N1+03411+01741101001ADDGF103991031021008001001001MA1999999097671MD1999999+0091REMSYN070AAXX  31184 82583 32599 30906 10341 20174 39767 40100 83200 333 58009;
0168825830999992012060100004-05167-040667FM-12+029999999V0201801N001012200019N0040001N1+02851+02061101221ADDGF103991031011008001001001KA1240M+03511MA1999999097871MD1999999+0071REMSYN088AAXX  01004 82583 32596 31802 10285 20206 39787 40122 83100 333 10351 29056 55091 58007;
0156825830999992012060112004-05167-040667FM-12+029999999V0200501N002110075019N0500001N1+02771+02111101521ADDGF105991051011008001001001KA1240N+02241MA1999999098161MD1999999-0011REMSYN076AAXX  01124 82583 32599 50504 10277 20211 39816 40152 85100 333 20224 59001;
0137825830999992012060118004-05167-040667FM-12+029999999V0200901N001512200019N0500001N1+03381+01711101081ADDGF104991031011008001031001MA1999999097751MD1999999+0081REMSYN070AAXX  01184 82583 32599 40903 10338 20171 39775 40108 83130 333 58008;
0178825830999992012060200004-05167-040667FM-12+029999999V0201401N002612200019N0040001N1+02811+01611101251ADDGA1001+999999999GF100991001001999999001001KA1240M+03491MA1999999097901MD1999999+0031REMSYN082AAXX  02004 82583 32996 01405 10281 20161 39790 40125 333 10349 29055 55100 58003;
0156825830999992012060212004-05167-040667FM-12+029999999V0200901N002110075019N0500001N1+02641+02141101471ADDGF106991051011008001031001KA1240N+02361MA1999999098101MD1999999-0061REMSYN076AAXX  02124 82583 32599 60904 10264 20214 39810 40147 85130 333 20236 59006;
0137825830999992012060218004-05167-040667FM-12+029999999V0201401N003112200019N0500001N1+03461+01551100891ADDGF104991031011008001031011MA1999999097571MD1999999-0181REMSYN070AAXX  02184 82583 32599 41406 10346 20155 39757 40089 83131 333 59018;
0168825830999992012060300004-05167-040667FM-12+029999999V0200901N003112200019N0040001N1+02941+01721101181ADDGF102991021011008001001001KA1240M+03591MA1999999097831MD1999999-0071REMSYN088AAXX  03004 82583 32596 20906 10294 20172 39783 40118 82100 333 10359 29051 55067 59007;
0156825830999992012060312004-05167-040667FM-12+029999999V0200901N004610075019N0500001N1+02791+02001101491ADDGF106991051011008001031001KA1240N+02391MA1999999098131MD1999999+0031REMSYN076AAXX  03124 82583 32599 60909 10279 20200 39813 40149 85130 333 20239 58003;
0137825830999992012060318004-05167-040667FM-12+029999999V0201401N003112200019N0500001N1+03311+01651100951ADDGF104991031011008001021011MA1999999097621MD1999999+0051REMSYN070AAXX  03184 82583 32599 41406 10331 20165 39762 40095 83121 333 58005;
0168825830999992012060400004-05167-040667FM-12+029999999V0203601N002610150019N0040001N1+02811+01801101211ADDGF106991051001017501031021KA1240M+03411MA1999999097861MD1999999+0031REMSYN088AAXX  04004 82583 32796 63605 10281 20180 39786 40121 85032 333 10341 29052 55059 58003;
0156825830999992012060412004-05167-040667FM-12+029999999V0200501N003610075019N0500001N1+02641+02051101531ADDGF106991061021008001001001KA1240N+02281MA1999999098151MD1999999+0021REMSYN076AAXX  04124 82583 32599 60507 10264 20205 39815 40153 86200 333 20228 58002;
0137825830999992012060418004-05167-040667FM-12+029999999V0200901N005112200019N0500001N1+03331+01631101041ADDGF104991041011008001001001MA1999999097691MD1999999+0071REMSYN070AAXX  04184 82583 32599 40910 10333 20163 39769 40104 84100 333 58007;
0168825830999992012060500004-05167-040667FM-12+029999999V0203601N002612200019N0040001N1+02741+01511101271ADDGF102991021011008001001001KA1240M+03451MA1999999097911MD1999999+0051REMSYN088AAXX  05004 82583 32596 23605 10274 20151 39791 40127 82100 333 10345 29050 55066 58005;
0156825830999992012060512004-05167-040667FM-12+029999999V0200901N003112200019N0500001N1+02691+02011101461ADDGF102991021011008001001001KA1240N+02151MA1999999098091MD1999999-0061REMSYN076AAXX  05124 82583 32599 20906 10269 20201 39809 40146 82100 333 20215 59006;
0137825830999992012060518004-05167-040667FM-12+029999999V0201401N003612200019N0500001N1+03361+01601101091ADDGF103991031011008001001001MA1999999097731MD1999999+0041REMSYN070AAXX  05184 82583 32599 31407 10336 20160 39773 40109 83100 333 58004;
0168825830999992012060600004-05167-040667FM-12+029999999V0200901N001512200019N0040001N1+02951+01621101281ADDGF104991021021008001051001KA1240M+03461MA1999999097931MD1999999+0021REMSYN088AAXX  06004 82583 32596 40903 10295 20162 39793 40128 82250 333 10346 29047 55101 58002;
0156825830999992012060612004-05167-040667FM-12+029999999V0200901N003612200019N0500001N1+02711+02081101391ADDGF103991031021008001001001KA1240N+02211MA1999999098031MD1999999-0061REMSYN076AAXX  06124 82583 32599 30907 10271 20208 39803 40139 83200 333 20221 59006;
0156825830999992012060618004-05167-040667FM-12+029999999V0200901N005719999999N0500001N1+03491+01861100981ADDGF105991999011008001001001MA1999999097651MD1999999-0081REMSYN070AAXX  06184 82583 32599 50911 10349 20186 39765 40098 84100 333 59008;EQDQ01+000042SCOTLC
0168825830999992012060700004-05167-040667FM-12+029999999V0200901N002112200019N0040001N1+03001+01881101191ADDGF101991011011008001001001KA1240M+03591MA1999999097851MD1999999-0081REMSYN088AAXX  07004 82583 32596 10904 10300 20188 39785 40119 81100 333 10359 29052 55099 59008;
0156825830999992012060712004-05167-040667FM-12+029999999V0200901N002610120019N0500001N1+02521+02231101371ADDGF106991061081008001001001KA1240N+02291MA1999999098011MD1999999-0021REMSYN076AAXX  07124 82583 32599 60905 10252 20223 39801 40137 86800 333 20229 59002;
0137825830999992012060718004-05167-040667FM-12+029999999V0200901N005110075019N0500001N1+03391+01771100921ADDGF105991051011008001001001MA1999999097581MD1999999-0071REMSYN070AAXX  07184 82583 32599 50910 10339 20177 39758 40092 85100 333 59007;
0168825830999992012060800004-05167-040667FM-12+029999999V0200901N003110075019N0040001N1+02971+01831101051ADDGF107991071051008001999999KA1240M+03531MA1999999097691MD1999999-0161REMSYN088AAXX  08004 82583 32596 70906 10297 20183 39769 40105 875// 333 10353 29056 55070 59016;
0156825830999992012060812004-05167-040667FM-12+029999999V0201401N006210120019N0500001N1+02581+02061101311ADDGF106991061081008001001001KA1240N+02501MA1999999097951MD1999999-0061REMSYN076AAXX  08124 82583 32599 61412 10258 20206 39795 40131 86800 333 20250 59006;
0156825830999992012060818004-05167-040667FM-12+029999999V0201401N001019999999N0500001N1+03251+01911100861ADDGF105991999021008001001001MA1999999097521MD1999999-0061REMSYN070AAXX  08184 82583 32599 51402 10325 20191 39752 40086 84200 333 59006;EQDQ01+000042SCOTLC
0168825830999992012060900004-05167-040667FM-12+029999999V0200901N002112200019N0040001N1+03021+01801101001ADDGF101991011011008001001001KA1240M+03371MA1999999097651MD1999999-0041REMSYN088AAXX  09004 82583 32596 10904 10302 20180 39765 40100 81100 333 10337 29054 55060 59004;
0156825830999992012060912004-05167-040667FM-12+029999999V0200901N004610075019N0500001N1+02811+02021101231ADDGF106991061011008001001001KA1240N+02451MA1999999097891MD1999999-0061REMSYN076AAXX  09124 82583 32599 60909 10281 20202 39789 40123 86100 333 20245 59006;
0137825830999992012060918004-05167-040667FM-12+029999999V0201401N004610075019N0040001N1+03351+01771100821ADDGF106991061021008001001001MA1999999097501MD1999999-0021REMSYN070AAXX  09184 82583 32596 61409 10335 20177 39750 40082 86200 333 59002;
0168825830999992012061000004-05167-040667FM-12+029999999V0200901N002612200019N0040001N1+02971+01831101071ADDGF102991021011008001001001KA1240M+03481MA1999999097731MD1999999+0081REMSYN088AAXX  10004 82583 32596 20905 10297 20183 39773 40107 82100 333 10348 29050 55072 58008;
0156825830999992012061012004-05167-040667FM-12+029999999V0200901N004610075019N0500001N1+02811+02101101251ADDGF106991061051008001001001KA1240N+02171MA1999999097911MD1999999+0021REMSYN076AAXX  10124 82583 32599 60909 10281 20210 39791 40125 86500 333 20217 58002;
0137825830999992012061018004-05167-040667FM-12+029999999V0200901N003612200019N0500001N1+03391+01641100901ADDGF104991041011008001001001MA1999999097561MD1999999+0061REMSYN070AAXX  10184 82583 32599 40907 10339 20164 39756 40090 84100 333 58006;
0168825830999992012061100004-05167-040667FM-12+029999999V0200901N002112200019N0040001N1+02931+01551101071ADDGF101991011011008001001001KA1240M+03541MA1999999097731MD1999999+0001REMSYN088AAXX  11004 82583 32596 10904 10293 20155 39773 40107 81100 333 10354 29046 55086 58000;
0156825830999992012061112004-05167-040667FM-12+029999999V0200501N002610075019N0500001N1+02541+02061101421ADDGF106991061021008001001001KA1240N+02251MA1999999098061MD1999999+0151REMSYN076AAXX  11124 82583 32599 60505 10254 20206 39806 40142 86200 333 20225 58015;
0137825830999992012061118004-05167-040667FM-12+029999999V0200901N002112200019N0500001N1+03321+01781100871ADDGF104991041011008001001001MA1999999097531MD1999999-0031REMSYN070AAXX  11184 82583 32599 40904 10332 20178 39753 40087 84100 333 59003;
0168825830999992012061200004-05167-040667FM-12+029999999V0200901N002612200019N0040001N1+02971+01761101061ADDGF101991011011008001001001KA1240M+03471MA1999999097701MD1999999-0031REMSYN088AAXX  12004 82583 32596 10905 10297 20176 39770 40106 81100 333 10347 29053 55078 59003;
0156825830999992012061212004-05167-040667FM-12+029999999V0200901N006712200019N0500001N1+02821+01891101341ADDGF104991041011008001001001KA1240N+02351MA1999999097991MD1999999-0071REMSYN076AAXX  12124 82583 32599 40913 10282 20189 39799 40134 84100 333 20235 59007;
0137825830999992012061218004-05167-040667FM-12+029999999V0200501N004612200019N0500001N1+03331+02341100911ADDGF104991031021008001021001MA1999999097581MD1999999+0051REMSYN070AAXX  12184 82583 32599 40509 10333 20234 39758 40091 83220 333 58005;
0178825830999992012061300004-05167-040667FM-12+029999999V0200901N002612200019N0040001N1+02871+02081101041ADDGA1001+999999999GF100991001001999999001001KA1240M+03421MA1999999097701MD1999999+0001REMSYN082AAXX  13004 82583 32996 00905 10287 20208 39770 40104 333 10342 29059 55091 58000;
0156825830999992012061312004-05167-040667FM-12+029999999V0200901N005712200019N0500001N1+02791+01921101341ADDGF104991041011008001001001KA1240N+02321MA1999999097981MD1999999-0011REMSYN076AAXX  13124 82583 32599 40911 10279 20192 39798 40134 84100 333 20232 59001;
0137825830999992012061318004-05167-040667FM-12+029999999V0200901N003112200019N0500001N1+03371+01831100891ADDGF104991031011008001021021MA1999999097561MD1999999-0021REMSYN070AAXX  13184 82583 32599 40906 10337 20183 39756 40089 83122 333 59002;
0168825830999992012061400004-05167-040667FM-12+029999999V0201401N002112200019N0040001N1+02851+01781101111ADDGF101991011011008001001001KA1240M+03461MA1999999097761MD1999999+0061REMSYN088AAXX  14004 82583 32596 11404 10285 20178 39776 40111 81100 333 10346 29051 55090 58006;
0156825830999992012061412004-05167-040667FM-12+029999999V0200901N006712200019N0500001N1+02801+01841101211ADDGF101991011011008001001001KA1240N+02181MA1999999097861MD1999999-0121REMSYN076AAXX  14124 82583 32599 10913 10280 20184 39786 40121 81100 333 20218 59012;
0156825830999992012061418004-05167-040667FM-12+029999999V0200901N004612200019N0500001N1+03411+01701100841ADDGF104991999021008001001001MA1999999097511MD1999999-0051REMSYN070AAXX  14184 82583 32599 40909 10341 20170 39751 40084 83200 333 59005;EQDQ01+000032SCOTLC
0178825830999992012061500004-05167-040667FM-12+029999999V0200901N003112200019N0040001N1+02881+01641101131ADDGA1001+999999999GF100991001001999999001001KA1240M+03521MA1999999097791MD1999999+0031REMSYN082AAXX  15004 82583 32996 00906 10288 20164 39779 40113 333 10352 29046 55100 58003;
0156825830999992012061512004-05167-040667FM-12+029999999V0200901N005112200019N0500001N1+02781+01931101391ADDGF102991011011008001001011KA1240N+02141MA1999999098031MD1999999+0171REMSYN076AAXX  15124 82583 32599 20910 10278 20193 39803 40139 81101 333 20214 58017;
0137825830999992012061518004-05167-040667FM-12+029999999V0201401N004112200019N0500001N1+03371+01621100871ADDGF103991021011008001021011MA1999999097531MD1999999+0021REMSYN070AAXX  15184 82583 32599 31408 10337 20162 39753 40087 82121 333 58002;
0178825830999992012061600004-05167-040667FM-12+029999999V0201801N002112200019N0040001N1+02771+01551101191ADDGA1001+999999999GF100991001001999999001001KA1240M+03451MA1999999097841MD1999999+0051REMSYN082AAXX  16004 82583 32996 01804 10277 20155 39784 40119 333 10345 29047 55105 58005;
0156825830999992012061612004-05167-040667FM-12+029999999V0200901N004610450019N0500001N1+02701+02011101501ADDGF105991041011008001031001KA1240N+02011MA1999999098141MD1999999+0111REMSYN076AAXX  16124 82583 32599 50909 10270 20201 39814 40150 84130 333 20201 58011;
0137825830999992012061618004-05167-040667FM-12+029999999V0200901N002612200019N0500001N1+03451+01601100991ADDGF103991021021008001031001MA1999999097661MD1999999+0131REMSYN070AAXX  16184 82583 32599 30905 10345 20160 39766 40099 82230 333 58013;
0168825830999992012061700004-05167-040667FM-12+029999999V0203601N000512200019N0040001N1+03031+01821101191ADDGF101991011011008001001001KA1240M+03541MA1999999097851MD1999999+0011REMSYN088AAXX  17004 82583 32596 13601 10303 20182 39785 40119 81100 333 10354 29049 55082 58001;
0156825830999992012061712004-05167-040667FM-12+029999999V0200901N005110075019N0500001N1+02681+02041101471ADDGF106991061011008001001001KA1240N+02381MA1999999098111MD1999999-0031REMSYN076AAXX  17124 82583 32599 60910 10268 20204 39811 40147 86100 333 20238 59003;
0137825830999992012061718004-05167-040667FM-12+029999999V0200901N004612200019N0500001N1+03361+01691100971ADDGF103991031011008001001001MA1999999097651MD1999999-0011REMSYN070AAXX  17184 82583 32599 30909 10336 20169 39765 40097 83100 333 59001;
0168825830999992012061800004-05167-040667FM-12+029999999V0200901N001512200019N0040001N1+02851+01681101171ADDGF101991011011008001001001KA1240M+03461MA1999999097811MD1999999-0041REMSYN088AAXX  18004 82583 32596 10903 10285 20168 39781 40117 81100 333 10346 29051 55074 59004;
0156825830999992012061812004-05167-040667FM-12+029999999V0200501N002612200019N0500001N1+02661+02041101331ADDGF102991021011008001001001KA1240N+02151MA1999999097971MD1999999-0141REMSYN076AAXX  18124 82583 32599 20505 10266 20204 39797 40133 82100 333 20215 59014;
0137825830999992012061818004-05167-040667FM-12+029999999V0200901N003612200019N0500001N1+03441+01801100931ADDGF103991031011008001001001MA1999999097601MD1999999-0051REMSYN070AAXX  18184 82583 32599 30907 10344 20180 39760 40093 83100 333 59005;
0178825830999992012061900004-05167-040667FM-12+029999999V0200901N001012200019N0040001N1+02911+01771101131ADDGA1001+999999999GF100991001001999999001001KA1240M+03521MA1999999097781MD1999999-0031REMSYN082AAXX  19004 82583 32996 00902 10291 20177 39778 40113 333 10352 29052 55094 59003;
0141825830999992012061912004-05167-040667FM-12+029999999V0200901N003110120019N0500001N1+02671+02111101411ADDGF108991081081008001999999KA1240N+02371MA1999999098051REMSYN075AAXX  19124 82583 32599 80906 10267 20211 39805 40141 888// 333 20237 8008;
0137825830999992012061918004-05167-040667FM-12+029999999V0201401N003612200019N0500001N1+03281+02071100981ADDGF104991031021008001021001MA1999999097641MD1999999+0041REMSYN070AAXX  19184 82583 32599 41407 10328 20207 39764 40098 83220 333 58004;
0168825830999992012062000004-05167-040667FM-12+029999999V0200901N001012200019N0040001N1+02651+02111101231ADDGF102991021011008001001001KA1240M+03411MA1999999097861MD1999999+0081REMSYN088AAXX  20004 82583 32596 20902 10265 20211 39786 40123 82100 333 10341 29066 55075 58008;
0156825830999992012062012004-05167-040667FM-12+029999999V0200901N002610075019N0500001N1+02671+02161101411ADDGF106991061021008001001001KA1240N+02431MA1999999098031MD1999999-0031REMSYN076AAXX  20124 82583 32599 60905 10267 20216 39803 40141 86200 333 20243 59003;
0137825830999992012062018004-05167-040667FM-12+029999999V0200901N007210075019N0500001N1+03171+01841100961ADDGF106991051031008001021001MA1999999097621MD1999999-0021REMSYN070AAXX  20184 82583 32599 60914 10317 20184 39762 40096 85320 333 59002;
0168825830999992012062100004-05167-040667FM-12+029999999V0203601N001512200019N0040001N1+02811+02001101151ADDGF101991011011008001001001KA1240M+03401MA1999999097791MD1999999-0071REMSYN088AAXX  21004 82583 32596 13603 10281 20200 39779 40115 81100 333 10340 29060 55038 59007;
0156825830999992012062112004-05167-040667FM-12+029999999V0200501N002112200019N0500001N1+02781+02131101251ADDGF102991021011008001001001KA1240N+02201MA1999999097901MD1999999-0131REMSYN076AAXX  21124 82583 32599 20504 10278 20213 39790 40125 82100 333 20220 59013;
0137825830999992012062118004-05167-040667FM-12+029999999V0200901N003612200019N0500001N1+03481+01711100791ADDGF102991011011008001041001MA1999999097461MD1999999-0161REMSYN070AAXX  21184 82583 32599 20907 10348 20171 39746 40079 81140 333 59016;
0178825830999992012062200004-05167-040667FM-12+029999999V0200901N001512200019N0040001N1+02921+01601101011ADDGA1001+999999999GF100991001001999999001001KA1240M+03621MA1999999097671MD1999999-0121REMSYN082AAXX  22004 82583 32996 00903 10292 20160 39767 40101 333 10362 29048 55106 59012;
0156825830999992012062212004-05167-040667FM-12+029999999V0200901N004110075019N0500001N1+02831+02041101341ADDGF105991051021008001001001KA1240N+02361MA1999999097991MD1999999+0091REMSYN076AAXX  22124 82583 32599 50908 10283 20204 39799 40134 85200 333 20236 58009;
0137825830999992012062218004-05167-040667FM-12+029999999V0200501N003110075019N0500001N1+03321+01821100981ADDGF106991051011008001021001MA1999999097651MD1999999+0191REMSYN070AAXX  22184 82583 32599 60506 10332 20182 39765 40098 85120 333 58019;
0168825830999992012062300004-05167-040667FM-12+029999999V0200501N002612200019N0040001N1+02731+01971101381ADDGF103991031011008001001001KA1240M+03381MA1999999098021MD1999999+0351REMSYN088AAXX  23004 82583 32596 30505 10273 20197 39802 40138 83100 333 10338 29057 55055 58035;
0156825830999992012062312004-05167-040667FM-12+029999999V0200901N002610075019N0500001N1+02791+01951101581ADDGF106991061011008001001001KA1240N+02401MA1999999098211MD1999999+0221REMSYN076AAXX  23124 82583 32599 60905 10279 20195 39821 40158 86100 333 20240 58022;
0137825830999992012062318004-05167-040667FM-12+029999999V0201401N001012200019N0500001N1+03231+01451101221ADDGF103991021021008001021001MA1999999097881MD1999999+0231REMSYN070AAXX  23184 82583 32599 31402 10323 20145 39788 40122 82220 333 58023;
0168825830999992012062400004-05167-040667FM-12+029999999V0200501N001512200019N0040001N1+02861+01871101421ADDGF101991011011008001001001KA1240M+03371MA1999999098061MD1999999+0041REMSYN088AAXX  24004 82583 32596 10503 10286 20187 39806 40142 81100 333 10337 29051 55049 58004;
0156825830999992012062412004-05167-040667FM-12+029999999V0200901N001010075019N0500001N1+02511+02131101611ADDGF106991061051008001001001KA1240N+02281MA1999999098231MD1999999+0021REMSYN076AAXX  24124 82583 32599 60902 10251 20213 39823 40161 86500 333 20228 58002;
0137825830999992012062418004-05167-040667FM-12+029999999V0201401N001512200019N0500001N1+03131+01841101131ADDGF103991031011008001001001MA1999999097771MD1999999+0291REMSYN070AAXX  24184 82583 32599 31403 10313 20184 39777 40113 83100 333 58029;
0178825830999992012062500004-05167-040667FM-12+029999999V0200901N001512200019N0040001N1+02761+01801101241ADDGA1001+999999999GF100991001001999999001001KA1240M+03251MA1999999097871MD1999999-0191REMSYN082AAXX  25004 82583 32996 00903 10276 20180 39787 40124 333 10325 29059 55058 59019;
0156825830999992012062512004-05167-040667FM-12+029999999V0201401N005112200019N0500001N1+02681+01761101421ADDGF101991011011008001001001KA1240N+02041MA1999999098051MD1999999-0181REMSYN076AAXX  25124 82583 32599 11410 10268 20176 39805 40142 81100 333 20204 59018;
0137825830999992012062518004-05167-040667FM-12+029999999V0200901N006210075019N0500001N1+03021+01731101181ADDGF107991061011008001021001MA1999999097811MD1999999+0041REMSYN070AAXX  25184 82583 32599 70912 10302 20173 39781 40118 86120 333 58004;
0168825830999992012062600004-05167-040667FM-12+029999999V0201401N001510075019N0040001N1+02611+01931101381ADDGF106991061051008001001001KA1240M+03171MA1999999098001MD1999999+0131REMSYN088AAXX  26004 82583 32596 61403 10261 20193 39800 40138 86500 333 10317 29059 55057 58013;
0156825830999992012062612004-05167-040667FM-12+029999999V0201401N005110450019N0500001N1+02611+01881101541ADDGF106991041011008001031061KA1240N+02281MA1999999098151MD1999999+0101REMSYN076AAXX  26124 82583 32599 61410 10261 20188 39815 40154 84136 333 20228 58010;
0156825830999992012062618004-05167-040667FM-12+029999999V0201401N004619999999N0500001N1+03191+01671101161ADDGF105991999021008001001001MA1999999097801MD1999999-0011REMSYN070AAXX  26184 82583 32599 51409 10319 20167 39780 40116 84200 333 59001;EQDQ01+000042SCOTLC
0168825830999992012062700004-05167-040667FM-12+029999999V0200901N003610075019N0040001N1+02841+01701101401ADDGF105991051021008001001001KA1240M+03291MA1999999098031MD1999999+0031REMSYN088AAXX  27004 82583 32596 50907 10284 20170 39803 40140 85200 333 10329 29051 55032 58003;
0156825830999992012062712004-05167-040667FM-12+029999999V0200901N006712200019N0500001N1+02761+01461101531ADDGF101991011011008001001001KA1240N+02251MA1999999098171MD1999999+0021REMSYN076AAXX  27124 82583 32599 10913 10276 20146 39817 40153 81100 333 20225 58002;
0137825830999992012062718004-05167-040667FM-12+029999999V0200901N003612200019N0500001N1+03251+01281101191ADDGF101991011011008001001001MA1999999097841MD1999999+0041REMSYN070AAXX  27184 82583 32599 10907 10325 20128 39784 40119 81100 333 58004;
0178825830999992012062800004-05167-040667FM-12+029999999V0200901N002112200019N0040001N1+02711+01351101391ADDGA1001+999999999GF100991001001999999001001KA1240M+03361MA1999999098031MD1999999+0001REMSYN082AAXX  28004 82583 32996 00904 10271 20135 39803 40139 333 10336 29040 55106 58000;
0156825830999992012062812004-05167-040667FM-12+029999999V0200901N003110120019N0500001N1+02671+01781101591ADDGF106991051081008001041001KA1240N+02091MA1999999098211MD1999999+0041REMSYN076AAXX  28124 82583 32599 60906 10267 20178 39821 40159 85840 333 20209 58004;
0137825830999992012062818004-05167-040667FM-12+029999999V0200901N005712200019N0500001N1+02991+01841101241ADDGF104991031031008001041001MA1999999097881MD1999999+0041REMSYN070AAXX  28184 82583 32599 40911 10299 20184 39788 40124 83340 333 58004;
0168825830999992012062900004-05167-040667FM-12+029999999V0201401N003112200019N0040001N1+02651+01901101481ADDGF104991031011008001041001KA1240M+03261MA1999999098101MD1999999+0071REMSYN088AAXX  29004 82583 32596 41406 10265 20190 39810 40148 83140 333 10326 29058 55028 58007;
0156825830999992012062912004-05167-040667FM-12+029999999V0200901N003110120019N0500001N1+02621+01981101511ADDGF108991081081008001999999KA1240N+02231MA1999999098131MD1999999-0081REMSYN076AAXX  29124 82583 32599 80906 10262 20198 39813 40151 888// 333 20223 59008;
0137825830999992012062918004-05167-040667FM-12+029999999V0200901N004612200019N0500001N1+03251+02461101061ADDGF104991031021008001031001MA1999999097721MD1999999-0181REMSYN070AAXX  29184 82583 32599 40909 10325 20246 39772 40106 83230 333 59018;
0168825830999992012063000004-05167-040667FM-12+029999999V0201401N002112200019N0040001N1+02721+02031101341ADDGF102991021011008001001001KA1240M+03351MA1999999097961MD1999999-0141REMSYN088AAXX  30004 82583 32596 21404 10272 20203 39796 40134 82100 333 10335 29066 55083 59014;
0156825830999992012063012004-05167-040667FM-12+029999999V0201401N003112200019N0500001N1+02721+01741101371ADDGF101991011011008001001001KA1240N+02011MA1999999098001MD1999999-0131REMSYN076AAXX  30124 82583 32599 11406 10272 20174 39800 40137 81100 333 20201 59013;
0137825830999992012063018004-05167-040667FM-12+029999999V0200901N005112200019N0500001N1+03341+01631100921ADDGF101991011011008001001001MA1999999097571MD1999999-0131REMSYN070AAXX  30184 82583 32599 10910 10334 20163 39757 40092 81100 333 59013;
0168825830999992012070100004-05167-040667FM-12+029999999V0200901N001510150019N0040001N1+02771+01671101291ADDGF106991061001017501031001KA1240M+03401MA1999999097931MD1999999-0031REMSYN088AAXX  01004 82583 32796 60903 10277 20167 39793 40129 86030 333 10340 29048 55106 59003;
0156825830999992012070112004-05167-040667FM-12+029999999V0200901N004610075019N0500001N1+02631+01951101411ADDGF106991061011008001001001KA1240N+02321MA1999999098041MD1999999+0041REMSYN076AAXX  01124 82583 32599 60909 10263 20195 39804 40141 86100 333 20232 58004;
0137825830999992012070118004-05167-040667FM-12+029999999V0201401N002612200019N0500001N1+03331+01541100901ADDGF104991041011008001001001MA1999999097571MD1999999+0001REMSYN070AAXX  01184 82583 32599 41405 10333 20154 39757 40090 84100 333 58000;
0168825830999992012070200004-05167-040667FM-12+029999999V0201401N002112200019N0040001N1+02881+01671101111ADDGF102991021011008001001001KA1240M+03451MA1999999097751MD1999999-0181REMSYN088AAXX  02004 82583 32596 21404 10288 20167 39775 40111 82100 333 10345 29049 55072 59018;
0156825830999992012070212004-05167-040667FM-12+029999999V0200901N005112200019N0500001N1+02691+01881101371ADDGF101991011011008001001001KA1240N+02241MA1999999098011MD1999999-0031REMSYN076AAXX  02124 82583 32599 10910 10269 20188 39801 40137 81100 333 20224 59003;
0137825830999992012070218004-05167-040667FM-12+029999999V0200901N004112200019N0500001N1+03291+01591101021ADDGF104991031011008001021001MA1999999097671MD1999999+0101REMSYN070AAXX  02184 82583 32599 40908 10329 20159 39767 40102 83120 333 58010;
0168825830999992012070300004-05167-040667FM-12+029999999V0200901N004112200019N0040001N1+02851+01751101331ADDGF103991021011008001031001KA1240M+03401MA1999999097971MD1999999+0221REMSYN088AAXX  03004 82583 32596 30908 10285 20175 39797 40133 82130 333 10340 29050 55094 58022;
0156825830999992012070312004-05167-040667FM-12+029999999V0200901N006210450019N0500001N1+02601+01901101401ADDGF106991011011008001051001KA1240N+02321MA1999999098031MD1999999+0021REMSYN076AAXX  03124 82583 32599 60912 10260 20190 39803 40140 81150 333 20232 58002;
0137825830999992012070318004-05167-040667FM-12+029999999V0200901N005110075019N0500001N1+03121+01821101061ADDGF106991061011008001001001MA1999999097701MD1999999+0031REMSYN070AAXX  03184 82583 32599 60910 10312 20182 39770 40106 86100 333 58003;
0168825830999992012070400004-05167-040667FM-12+029999999V0201401N003110075019N0040001N1+02931+01721101161ADDGF106991061051008001001001KA1240M+03251MA1999999097801MD1999999-0171REMSYN088AAXX  04004 82583 32596 61406 10293 20172 39780 40116 86500 333 10325 29052 55031 59017;
0156825830999992012070412004-05167-040667FM-12+029999999V0200901N004112200019N0500001N1+02641+01881101271ADDGF102991011011008001041001KA1240N+02221MA1999999097921MD1999999-0111REMSYN076AAXX  04124 82583 32599 20908 10264 20188 39792 40127 81140 333 20222 59011;
0137825830999992012070418004-05167-040667FM-12+029999999V0200901N003610075019N0500001N1+03221+01841100891ADDGF105991051011008001001001MA1999999097551MD1999999-0151REMSYN070AAXX  04184 82583 32599 50907 10322 20184 39755 40089 85100 333 59015;
0168825830999992012070500004-05167-040667FM-12+029999999V0200901N003112200019N0040001N1+02811+01741101101ADDGF103991021011008001031001KA1240M+03331MA1999999097741MD1999999-0061REMSYN088AAXX  05004 82583 32596 30906 10281 20174 39774 40110 82130 333 10333 29053 55059 59006;
0156825830999992012070512004-05167-040667FM-12+029999999V0201401N006712200019N0500001N1+02711+01791101191ADDGF101991011011008001001001KA1240N+02091MA1999999097831MD1999999-0091REMSYN076AAXX  05124 82583 32599 11413 10271 20179 39783 40119 81100 333 20209 59009;
0137825830999992012070518004-05167-040667FM-12+029999999V0200901N004612200019N0500001N1+03281+01741100811ADDGF101991011011008001001001MA1999999097471MD1999999-0081REMSYN070AAXX  05184 82583 32599 10909 10328 20174 39747 40081 81100 333 59008;
0178825830999992012070600004-05167-040667FM-12+029999999V0200901N003612200019N0040001N1+02681+01391101051ADDGA1001+999999999GF100991001001999999001001KA1240M+03361MA1999999097691MD1999999-0051REMSYN082AAXX  06004 82583 32996 00907 10268 20139 39769 40105 333 10336 29047 55107 59005;
0156825830999992012070612004-05167-040667FM-12+029999999V0200901N005112200019N0500001N1+02701+01831101181ADDGF101991011011008001001001KA1240N+02231MA1999999097821MD1999999-0011REMSYN076AAXX  06124 82583 32599 10910 10270 20183 39782 40118 81100 333 20223 59001;
0137825830999992012070618004-05167-040667FM-12+029999999V0200901N002612200019N0500001N1+03311+01651100661ADDGF104991041011008001001001MA1999999097321MD1999999-0151REMSYN070AAXX  06184 82583 32599 40905 10331 20165 39732 40066 84100 333 59015;
0168825830999992012070700004-05167-040667FM-12+029999999V0200901N001512200019N0040001N1+02901+01781101031ADDGF102991021011008001001001KA1240M+03391MA1999999097681MD1999999-0011REMSYN088AAXX  07004 82583 32596 20903 10290 20178 39768 40103 82100 333 10339 29050 55088 59001;
0156825830999992012070712004-05167-040667FM-12+029999999V0200901N005112200019N0500001N1+02771+01911101221ADDGF103991031011008001001001KA1240N+02191MA1999999097881MD1999999+0061REMSYN076AAXX  07124 82583 32599 30910 10277 20191 39788 40122 83100 333 20219 58006;
0137825830999992012070718004-05167-040667FM-12+029999999V0200901N003110120019N0500001N1+03321+01781100891ADDGF106991061081008001001001MA1999999097561MD1999999+0241REMSYN070AAXX  07184 82583 32599 60906 10332 20178 39756 40089 86800 333 58024;
0168825830999992012070800004-05167-040667FM-12+029999999V0200901N002110075019N0040001N1+03061+01801101141ADDGF106991061021008001001001KA1240M+03401MA1999999097801MD1999999+0121REMSYN088AAXX  08004 82583 32596 60904 10306 20180 39780 40114 86200 333 10340 29048 55063 58012;
0156825830999992012070812004-05167-040667FM-12+029999999V0200901N006212200019N0500001N1+02871+01891101241ADDGF102991021011008001001001KA1240N+02381MA1999999097901MD1999999+0021REMSYN076AAXX  08124 82583 32599 20912 10287 20189 39790 40124 82100 333 20238 58002;
0137825830999992012070818004-05167-040667FM-12+029999999V0201401N004110075019N0500001N1+03421+01781100861ADDGF105991051021008001001001MA1999999097541MD1999999-0021REMSYN070AAXX  08184 82583 32599 51408 10342 20178 39754 40086 85200 333 59002;
0168825830999992012070900004-05167-040667FM-12+029999999V0200901N002612200019N0040001N1+03001+01861100961ADDGF101991011011008001001001KA1240M+03551MA1999999097641MD1999999-0161REMSYN088AAXX  09004 82583 32596 10905 10300 20186 39764 40096 81100 333 10355 29046 55090 59016;
0156825830999992012070912004-05167-040667FM-12+029999999V0200901N005112200019N0500001N1+02791+02061101211ADDGF103991021011008001001011KA1240N+02391MA1999999097871MD1999999-0031REMSYN076AAXX  09124 82583 32599 30910 10279 20206 39787 40121 82101 333 20239 59003;
0137825830999992012070918004-05167-040667FM-12+029999999V0200901N003112200019N0500001N1+03451+01901100801ADDGF104991041011008001001001MA1999999097481MD1999999-0061REMSYN070AAXX  09184 82583 32599 40906 10345 20190 39748 40080 84100 333 59006;
0168825830999992012071000004-05167-040667FM-12+029999999V0200901N003112200019N0040001N1+02991+01841100951ADDGF101991011001017501051001KA1240M+03561MA1999999097621MD1999999-0021REMSYN088AAXX  10004 82583 32796 10906 10299 20184 39762 40095 81050 333 10356 29051 55092 59002;
0156825830999992012071012004-05167-040667FM-12+029999999V0200901N005712200019N0500001N1+02711+01901101211ADDGF103991031011008001001001KA1240N+02491MA1999999097871MD1999999+0001REMSYN076AAXX  10124 82583 32599 30911 10271 20190 39787 40121 83100 333 20249 58000;
0137825830999992012071018004-05167-040667FM-12+029999999V0200901N003112200019N0500001N1+03301+01551100771ADDGF103991031011008001001001MA1999999097451MD1999999-0031REMSYN070AAXX  10184 82583 32599 30906 10330 20155 39745 40077 83100 333 59003;
0178825830999992012071100004-05167-040667FM-12+029999999V0200901N001512200019N0040001N1+02791+01721101051ADDGA1001+999999999GF100991001001999999001001KA1240M+03391MA1999999097691MD1999999+0071REMSYN082AAXX  11004 82583 32996 00903 10279 20172 39769 40105 333 10339 29050 55081 58007;
0156825830999992012071112004-05167-040667FM-12+029999999V0200901N004610075019N0500001N1+02631+01981101181ADDGF106991061021008001001001KA1240N+02281MA1999999097821MD1999999-0051REMSYN076AAXX  11124 82583 32599 60909 10263 20198 39782 40118 86200 333 20228 59005;
0137825830999992012071118004-05167-040667FM-12+029999999V0201401N002612200019N0500001N1+03301+01591100711ADDGF102991011011008001021001MA1999999097381MD1999999-0071REMSYN070AAXX  11184 82583 32599 21405 10330 20159 39738 40071 81120 333 59007;
0168825830999992012071200004-05167-040667FM-12+029999999V0200901N003112200019N0040001N1+02931+01791100881ADDGF101991011011008001001001KA1240M+03401MA1999999097541MD1999999-0151REMSYN088AAXX  12004 82583 32596 10906 10293 20179 39754 40088 81100 333 10340 29051 55099 59015;
0156825830999992012071212004-05167-040667FM-12+029999999V0200901N003110075019N0500001N1+02591+02011101271ADDGF106991051021008001041001KA1240N+02261MA1999999097871MD1999999+0051REMSYN076AAXX  12124 82583 32599 60906 10259 20201 39787 40127 85240 333 20226 58005;
0137825830999992012071218004-05167-040667FM-12+029999999V0201401N004110075019N0500001N1+03351+01811100711ADDGF105991051011008001001001MA1999999097391MD1999999+0011REMSYN070AAXX  12184 82583 32599 51408 10335 20181 39739 40071 85100 333 58001;
0178825830999992012071300004-05167-040667FM-12+029999999V0200901N002112200019N0040001N1+03011+01831101061ADDGA1001+999999999GF100991001001999999001001KA1240M+03431MA1999999097711MD1999999+0171REMSYN082AAXX  13004 82583 32996 00904 10301 20183 39771 40106 333 10343 29052 55079 58017;
0156825830999992012071312004-05167-040667FM-12+029999999V0200901N002110120019N0500001N1+02731+02071101331ADDGF106991061081008001001001KA1240N+02501MA1999999097971MD1999999+0101REMSYN076AAXX  13124 82583 32599 60904 10273 20207 39797 40133 86800 333 20250 58010;
0137825830999992012071318004-05167-040667FM-12+029999999V0201401N008210075019N0500001N1+02891+02021101101ADDGF106991061051008001001001MA1999999097741MD1999999+0351REMSYN070AAXX  13184 82583 32599 61416 10289 20202 39774 40110 86500 333 58035;
0178825830999992012071400004-05167-040667FM-12+029999999V0200901N001512200019N0040001N1+02721+02051101281ADDGA1001+999999999GF100991001001999999001001KA1240M+03391MA1999999097921MD1999999+0211REMSYN082AAXX  14004 82583 32996 00903 10272 20205 39792 40128 333 10339 29048 55047 58021;
0173825830999992012071412004-05167-040667FM-12+029999999V0200901N007210450019N0500001N1+02771+02011101501ADDAA124000591GF105991041011008001021001KA1240N+02271MA1999999098141MD1999999+0171REMSYN082AAXX  14124 82583 22599 50914 10277 20201 39814 40150 84120 333 20227 58017 69944;
0137825830999992012071418004-05167-040667FM-12+029999999V0201401N004612200019N0500001N1+03421+01941100911ADDGF103991031011008001001021MA1999999097591MD1999999-0151REMSYN070AAXX  14184 82583 32599 31409 10342 20194 39759 40091 83102 333 59015;
0178825830999992012071500004-05167-040667FM-12+029999999V0200901N001512200019N0040001N1+02921+01671101151ADDGA1001+999999999GF100991001001999999001001KA1240M+03511MA1999999097811MD1999999-0111REMSYN082AAXX  15004 82583 32996 00903 10292 20167 39781 40115 333 10351 29050 55105 59011;
0201825830999992012071512004-05167-040667FM-12+029999999V0202701N039612200019N0500001N1+02011+99999999999ADDGA1001+999999999GF100991001001999999001001KA1240N+99999MA1999999999999MD1999999-0031REMSYN070AAXX  15124 82583 32599 02777 10201 29811 30147 46100 333 20229 59003;EQDQ01 101473APOSP Q02 +02292ATMN  
0156825830999992012071518004-05167-040667FM-12+029999999V0201401N003112200019N0500001N1+03281+01581100991ADDGF104991041011008001001011MA1999999097652MD1999999+0061REMSYN070AAXX  15184 82583 32599 41406 10328 20158 39765 40099 84101 333 58006;EQDQ01+097653APOSP 
0178825830999992012071600004-05167-040667FM-12+029999999V0200901N001512200019N0040001N1+02781+01551101161ADDGA1001+999999999GF100991001001999999001001KA1240M+03391MA1999999097811MD1999999+0001REMSYN082AAXX  16004 82583 32996 00903 10278 20155 39781 40116 333 10339 29048 55090 58000;
0156825830999992012071612004-05167-040667FM-12+029999999V0200901N006710075019N0500001N1+02731+01971101401ADDGF106991061021008001001001KA1240N+02321MA1999999098041MD1999999-0071REMSYN076AAXX  16124 82583 32599 60913 10273 20197 39804 40140 86200 333 20232 59007;
0137825830999992012071618004-05167-040667FM-12+029999999V0202301N003112200019N0500001N1+03351+01651100971ADDGF103991031011008001001001MA1999999097631MD1999999-0021REMSYN070AAXX  16184 82583 32599 32306 10335 20165 39763 40097 83100 333 59002;
0178825830999992012071700004-05167-040667FM-12+029999999V0200901N002112200019N0040001N1+02771+01551101181ADDGA1001+999999999GF100991001001999999001001KA1240M+03351MA1999999097821MD1999999+0011REMSYN082AAXX  17004 82583 32996 00904 10277 20155 39782 40118 333 10335 29048 55097 58001;
0156825830999992012071712004-05167-040667FM-12+029999999V0201401N004610075019N0500001N1+02761+01971101471ADDGF105991051021008001001001KA1240N+02161MA1999999098111MD1999999+0071REMSYN076AAXX  17124 82583 32599 51409 10276 20197 39811 40147 85200 333 20216 58007;
0137825830999992012071718004-05167-040667FM-12+029999999V0201401N002112200019N0500001N1+03361+01651101061ADDGF104991041011008001001001MA1999999097701MD1999999+0071REMSYN070AAXX  17184 82583 32599 41404 10336 20165 39770 40106 84100 333 58007;
0178825830999992012071800004-05167-040667FM-12+029999999V0200901N003112200019N0040001N1+02871+01501101271ADDGA1001+999999999GF100991001001999999001001KA1240M+03471MA1999999097921MD1999999+0101REMSYN082AAXX  18004 82583 32996 00906 10287 20150 39792 40127 333 10347 29046 55102 58010;
0156825830999992012071812004-05167-040667FM-12+029999999V0200901N003110075019N0500001N1+02691+01991101531ADDGF106991061021008001001001KA1240N+02291MA1999999098171MD1999999+0061REMSYN076AAXX  18124 82583 32599 60906 10269 20199 39817 40153 86200 333 20229 58006;
0137825830999992012071818004-05167-040667FM-12+029999999V0200901N004112200019N0500001N1+03371+01791101101ADDGF104991041021008001001001MA1999999097761MD1999999+0061REMSYN070AAXX  18184 82583 32599 40908 10337 20179 39776 40110 84200 333 58006;
0178825830999992012071900004-05167-040667FM-12+029999999V0200901N003112200019N0040001N1+02891+01781101351ADDGA1001+999999999GF100991001001999999001001KA1240M+03451MA1999999097991MD1999999+0071REMSYN082AAXX  19004 82583 32996 00906 10289 20178 39799 40135 333 10345 29052 55071 58007;
0156825830999992012071912004-05167-040667FM-12+029999999V0201801N003110120019N0500001N1+02631+02071101601ADDGF108991081081008001999999KA1240N+02391MA1999999098231MD1999999+0061REMSYN076AAXX  19124 82583 32599 81806 10263 20207 39823 40160 888// 333 20239 58006;
0137825830999992012071918004-05167-040667FM-12+029999999V0200901N002612200019N0500001N1+03291+01871101091ADDGF103991031011008001001001MA1999999097751MD1999999-0011REMSYN070AAXX  19184 82583 32599 30905 10329 20187 39775 40109 83100 333 59001;
0168825830999992012072000004-05167-040667FM-12+029999999V0200901N002112200019N0040001N1+02841+01701101231ADDGF101991011011008001001001KA1240M+03371MA1999999097871MD1999999-0121REMSYN088AAXX  20004 82583 32596 10904 10284 20170 39787 40123 81100 333 10337 29054 55077 59012;
0156825830999992012072012004-05167-040667FM-12+029999999V0201401N002612200019N0500001N1+02691+01991101531ADDGF104991041011008001001001KA1240N+02211MA1999999098161MD1999999-0071REMSYN076AAXX  20124 82583 32599 41405 10269 20199 39816 40153 84100 333 20221 59007;
0137825830999992012072018004-05167-040667FM-12+029999999V0200901N002112200019N0500001N1+03401+01591101121ADDGF103991031011008001001001MA1999999097781MD1999999+0031REMSYN070AAXX  20184 82583 32599 30904 10340 20159 39778 40112 83100 333 58003;
0178825830999992012072100004-05167-040667FM-12+029999999V0200901N002612200019N0040001N1+02771+01551101251ADDGA1001+999999999GF100991001001999999001001KA1240M+03481MA1999999097841MD1999999-0031REMSYN082AAXX  21004 82583 32996 00905 10277 20155 39784 40125 333 10348 29048 55093 59003;
0156825830999992012072112004-05167-040667FM-12+029999999V0200901N004112200019N0500001N1+02761+01991101541ADDGF103991031011008001001001KA1240N+02401MA1999999098181MD1999999+0021REMSYN076AAXX  21124 82583 32599 30908 10276 20199 39818 40154 83100 333 20240 58002;
0137825830999992012072118004-05167-040667FM-12+029999999V0201401N005112200019N0500001N1+03351+01731101181ADDGF103991031021008001001001MA1999999097841MD1999999+0061REMSYN070AAXX  21184 82583 32599 31410 10335 20173 39784 40118 83200 333 58006;
0178825830999992012072200004-05167-040667FM-12+029999999V0201401N003112200019N0500001N1+02831+01431101321ADDGA1001+999999999GF100991001001999999001001KA1240M+03431MA1999999097961MD1999999+0121REMSYN082AAXX  22004 82583 32599 01406 10283 20143 39796 40132 333 10343 29046 55108 58012;
0156825830999992012072212004-05167-040667FM-12+029999999V0201401N005110075019N0500001N1+02721+01951101561ADDGF106991061021008001001001KA1240N+02231MA1999999098201MD1999999+0021REMSYN076AAXX  22124 82583 32599 61410 10272 20195 39820 40156 86200 333 20223 58002;
0137825830999992012072218004-05167-040667FM-12+029999999V0201401N005112200019N0500001N1+03431+01211101111ADDGF101991011011008001001001MA1999999097761MD1999999-0081REMSYN070AAXX  22184 82583 32599 11410 10343 20121 39776 40111 81100 333 59008;
0178825830999992012072300004-05167-040667FM-12+029999999V0201401N001512200019N0040001N1+02781+01181101361ADDGA1001+999999999GF100991001001999999001001KA1240M+03501MA1999999098001MD1999999+0041REMSYN082AAXX  23004 82583 32996 01403 10278 20118 39800 40136 333 10350 29041 55097 58004;
0156825830999992012072312004-05167-040667FM-12+029999999V0201401N006712200019N0500001N1+02721+01421101591ADDGF101991011011008001001001KA1240N+02101MA1999999098221MD1999999+0021REMSYN076AAXX  23124 82583 32599 11413 10272 20142 39822 40159 81100 333 20210 58002;
0137825830999992012072318004-05167-040667FM-12+029999999V0200901N003612200019N0500001N1+03441+01431101101ADDGF103991031011008001001001MA1999999097751MD1999999-0011REMSYN070AAXX  23184 82583 32599 30907 10344 20143 39775 40110 83100 333 59001;
0168825830999992012072400004-05167-040667FM-12+029999999V0200901N002112200019N0040001N1+02971+01441101201ADDGF101991011011008001001001KA1240M+03521MA1999999097861MD1999999-0141REMSYN088AAXX  24004 82583 32596 10904 10297 20144 39786 40120 81100 333 10352 29038 55097 59014;
0156825830999992012072412004-05167-040667FM-12+029999999V0200901N002612200019N0500001N1+02631+01771101561ADDGF103991031011008001001001KA1240N+02451MA1999999098201MD1999999-0021REMSYN076AAXX  24124 82583 32599 30905 10263 20177 39820 40156 83100 333 20245 59002;
0137825830999992012072418004-05167-040667FM-12+029999999V0200901N006212200019N0500001N1+03421+01141101041ADDGF101991011011008001001001MA1999999097701MD1999999-0051REMSYN070AAXX  24184 82583 32599 10912 10342 20114 39770 40104 81100 333 59005;
0178825830999992012072500004-05167-040667FM-12+029999999V0200901N002612200019N0040001N1+02831+01231101171ADDGA1001+999999999GF100991001001999999001001KA1240M+03511MA1999999097811MD1999999-0051REMSYN082AAXX  25004 82583 32996 00905 10283 20123 39781 40117 333 10351 29040 55087 59005;
0156825830999992012072512004-05167-040667FM-12+029999999V0200901N005712200019N0500001N1+02751+01831101501ADDGF104991031011008001021021KA1240N+02231MA1999999098141MD1999999-0061REMSYN076AAXX  25124 82583 32599 40911 10275 20183 39814 40150 83122 333 20223 59006;
0137825830999992012072518004-05167-040667FM-12+029999999V0200901N004612200019N0500001N1+03371+01571101021ADDGF102991021011008001001001MA1999999097681MD1999999-0021REMSYN070AAXX  25184 82583 32599 20909 10337 20157 39768 40102 82100 333 59002;
0168825830999992012072600004-05167-040667FM-12+029999999V0200901N002612200019N0040001N1+02901+01591101291ADDGF101991011011008001001001KA1240M+03471MA1999999097941MD1999999+0131REMSYN088AAXX  26004 82583 32596 10905 10290 20159 39794 40129 81100 333 10347 29045 55101 58013;
0156825830999992012072612004-05167-040667FM-12+029999999V0201401N003110075019N0500001N1+02601+01921101531ADDGF105991051021008001001001KA1240N+02191MA1999999098161MD1999999+0021REMSYN076AAXX  26124 82583 32599 51406 10260 20192 39816 40153 85200 333 20219 58002;
0137825830999992012072618004-05167-040667FM-12+029999999V0200901N003612200019N0500001N1+03401+01351100981ADDGF101991011011008001001001MA1999999097641MD1999999-0041REMSYN070AAXX  26184 82583 32599 10907 10340 20135 39764 40098 81100 333 59004;
0178825830999992012072700004-05167-040667FM-12+029999999V0200901N002612200019N0040001N1+02811+01251101361ADDGA1001+999999999GF100991001001999999001001KA1240M+03461MA1999999097991MD1999999+0051REMSYN082AAXX  27004 82583 32996 00905 10281 20125 39799 40136 333 10346 29043 55098 58005;
0156825830999992012072712004-05167-040667FM-12+029999999V0200901N004612200019N0500001N1+02721+01821101561ADDGF101991011011008001001001KA1240N+02221MA1999999098191MD1999999+0031REMSYN076AAXX  27124 82583 32599 10909 10272 20182 39819 40156 81100 333 20222 58003;
0137825830999992012072718004-05167-040667FM-12+029999999V0200901N005712200019N0500001N1+03311+01651101101ADDGF104991041011008001001001MA1999999097751MD1999999+0111REMSYN070AAXX  27184 82583 32599 40911 10331 20165 39775 40110 84100 333 58011;
0178825830999992012072800004-05167-040667FM-12+029999999V0200901N001012200019N0040001N1+02841+01601101321ADDGA1001+999999999GF100991001001999999001001KA1240M+03441MA1999999097961MD1999999-0031REMSYN082AAXX  28004 82583 32996 00902 10284 20160 39796 40132 333 10344 29047 55107 59003;
0156825830999992012072812004-05167-040667FM-12+029999999V0200901N007710075019N0500001N1+02511+02091101541ADDGF106991061021008001001001KA1240N+02301MA1999999098161MD1999999-0031REMSYN076AAXX  28124 82583 32599 60915 10251 20209 39816 40154 86200 333 20230 59003;
0137825830999992012072818004-05167-040667FM-12+029999999V0200901N001512200019N0500001N1+03351+01601101021ADDGF102991021011008001001001MA1999999097681MD1999999-0071REMSYN070AAXX  28184 82583 32599 20903 10335 20160 39768 40102 82100 333 59007;
0178825830999992012072900004-05167-040667FM-12+029999999V0200901N002612200019N0040001N1+02891+01521101201ADDGA1001+999999999GF100991001001999999001001KA1240M+03441MA1999999097841MD1999999-0121REMSYN082AAXX  29004 82583 32996 00905 10289 20152 39784 40120 333 10344 29050 55088 59012;
0156825830999992012072912004-05167-040667FM-12+029999999V0201401N006212200019N0500001N1+02681+01521101421ADDGF101991011011008001001001KA1240N+02131MA1999999098061MD1999999-0101REMSYN076AAXX  29124 82583 32599 11412 10268 20152 39806 40142 81100 333 20213 59010;
0137825830999992012072918004-05167-040667FM-12+029999999V0201401N002112200019N0500001N1+03381+01041100841ADDGF101991011011008001001001MA1999999097501MD1999999-0181REMSYN070AAXX  29184 82583 32599 11404 10338 20104 39750 40084 81100 333 59018;
0178825830999992012073000004-05167-040667FM-12+029999999V0200901N002612200019N0040001N1+02711+00951101131ADDGA1001+999999999GF100991001001999999001001KA1240M+03461MA1999999097771MD1999999-0071REMSYN082AAXX  30004 82583 32996 00905 10271 20095 39777 40113 333 10346 29035 55109 59007;
0156825830999992012073012004-05167-040667FM-12+029999999V0201401N005712200019N0500001N1+02631+01581101571ADDGF101991011011008001001001KA1240N+01961MA1999999098201MD1999999+0141REMSYN076AAXX  30124 82583 32599 11411 10263 20158 39820 40157 81100 333 20196 58014;
0137825830999992012073018004-05167-040667FM-12+029999999V0200901N004612200019N0500001N1+03181+01311101121ADDGF101991011011008001001001MA1999999097741MD1999999+0241REMSYN070AAXX  30184 82583 32599 10909 10318 20131 39774 40112 81100 333 58024;
0178825830999992012073100004-05167-040667FM-12+029999999V0200901N001512200019N0040001N1+02631+01211101371ADDGA1001+999999999GF100991001001999999001001KA1240M+03281MA1999999097991MD1999999+0221REMSYN082AAXX  31004 82583 32996 00903 10263 20121 39799 40137 333 10328 29041 55107 58022;
0156825830999992012073112004-05167-040667FM-12+029999999V0200901N006210075019N0500001N1+02691+01801101591ADDGF106991061021008001001001KA1240N+02271MA1999999098211MD1999999+0011REMSYN076AAXX  31124 82583 32599 60912 10269 20180 39821 40159 86200 333 20227 58001;
0137825830999992012073118004-05167-040667FM-12+029999999V0201401N006212200019N0500001N1+03271+01441101051ADDGF101991011011008001001001MA1999999097691MD1999999-0051REMSYN070AAXX  31184 82583 32599 11412 10327 20144 39769 40105 81100 333 59005;
0168825830999992012080100004-05167-040667FM-12+029999999V0200901N003110075019N0040001N1+02801+01351101321ADDGF105991051051008001001001KA1240M+03341MA1999999097961MD1999999-0031REMSYN088AAXX  01004 82583 32596 50906 10280 20135 39796 40132 85500 333 10334 29043 55099 59003;
0156825830999992012080112004-05167-040667FM-12+029999999V0200901N006212200019N0500001N1+02591+01651101551ADDGF104991031021008001001021KA1240N+02371MA1999999098171MD1999999-0041REMSYN076AAXX  01124 82583 32599 40912 10259 20165 39817 40155 83202 333 20237 59004;
0137825830999992012080118004-05167-040667FM-12+029999999V0201401N005112200019N0500001N1+03191+01461101041ADDGF103991031021008001001001MA1999999097691MD1999999+0001REMSYN070AAXX  01184 82583 32599 31410 10319 20146 39769 40104 83200 333 58000;
0168825830999992012080200004-05167-040667FM-12+029999999V0200901N002110075019N0500001N1+02781+01441101331ADDGF106991061011008001001001KA1240M+03301MA1999999097961MD1999999+0001REMSYN088AAXX  02004 82583 32599 60904 10278 20144 39796 40133 86100 333 10330 29045 55097 58000;
0156825830999992012080212004-05167-040667FM-12+029999999V0201401N004612200019N0500001N1+02641+01691101491ADDGF102991011011008001001011KA1240N+02161MA1999999098121MD1999999-0051REMSYN076AAXX  02124 82583 32599 21409 10264 20169 39812 40149 81101 333 20216 59005;
0137825830999992012080218004-05167-040667FM-12+029999999V0201401N002612200019N0500001N1+03301+01591101031ADDGF104991031011008001001011MA1999999097671MD1999999-0021REMSYN070AAXX  02184 82583 32599 41405 10330 20159 39767 40103 83101 333 59002;
0168825830999992012080300004-05167-040667FM-12+029999999V0201401N001512200019N0040001N1+02831+01531101141ADDGF102991021011008001001001KA1240M+03411MA1999999097781MD1999999-0181REMSYN088AAXX  03004 82583 32596 21403 10283 20153 39778 40114 82100 333 10341 29046 55105 59018;
0156825830999992012080312004-05167-040667FM-12+029999999V0201401N004612200019N0500001N1+02581+01491101441ADDGF102991011011008001001011KA1240N+02211MA1999999098071MD1999999-0071REMSYN076AAXX  03124 82583 32599 21409 10258 20149 39807 40144 81101 333 20221 59007;
0137825830999992012080318004-05167-040667FM-12+029999999V0201401N003112200019N0500001N1+03291+01411100961ADDGF103991031011008001001001MA1999999097621MD1999999-0051REMSYN070AAXX  03184 82583 32599 31406 10329 20141 39762 40096 83100 333 59005;
0178825830999992012080400004-05167-040667FM-12+029999999V0200901N002612200019N0040001N1+02741+01411101291ADDGA1001+999999999GF100991001001999999001001KA1240M+03411MA1999999097921MD1999999+0141REMSYN082AAXX  04004 82583 32996 00905 10274 20141 39792 40129 333 10341 29043 55108 58014;
0156825830999992012080412004-05167-040667FM-12+029999999V0201401N004612200019N0500001N1+02641+01451101481ADDGF101991011011008001001001KA1240N+02081MA1999999098111MD1999999+0041REMSYN076AAXX  04124 82583 32599 11409 10264 20145 39811 40148 81100 333 20208 58004;
0137825830999992012080418004-05167-040667FM-12+029999999V0201801N004112200019N0500001N1+03331+01291100991ADDGF101991011011008001001001MA1999999097641MD1999999+0021REMSYN070AAXX  04184 82583 32599 11808 10333 20129 39764 40099 81100 333 58002;
0168825830999992012080500004-05167-040667FM-12+029999999V0201401N002112200019N0040001N1+02811+01291101161ADDGF101991011011008001001001KA1240M+03471MA1999999097801MD1999999-0121REMSYN088AAXX  05004 82583 32596 11404 10281 20129 39780 40116 81100 333 10347 29039 55110 59012;
0156825830999992012080512004-05167-040667FM-12+029999999V0200901N004612200019N0500001N1+02651+01791101551ADDGF103991031011008001001001KA1240N+02131MA1999999098181MD1999999+0071REMSYN076AAXX  05124 82583 32599 30909 10265 20179 39818 40155 83100 333 20213 58007;
0137825830999992012080518004-05167-040667FM-12+029999999V0200901N003112200019N0500001N1+03291+01551100961ADDGF102991021011008001001001MA1999999097621MD1999999-0021REMSYN070AAXX  05184 82583 32599 20906 10329 20155 39762 40096 82100 333 59002;
0168825830999992012080600004-05167-040667FM-12+029999999V0200901N002612200019N0040001N1+02881+01601101151ADDGF101991011011008001001001KA1240M+03441MA1999999097791MD1999999-0101REMSYN088AAXX  06004 82583 32596 10905 10288 20160 39779 40115 81100 333 10344 29046 55109 59010;
0156825830999992012080612004-05167-040667FM-12+029999999V0200901N003110075019N0500001N1+02591+01921101491ADDGF105991051011008001001001KA1240N+02221MA1999999098131MD1999999-0051REMSYN076AAXX  06124 82583 32599 50906 10259 20192 39813 40149 85100 333 20222 59005;
0137825830999992012080618004-05167-040667FM-12+029999999V0201401N001012200019N0500001N1+03431+01801100891ADDGF103991031011008001001001MA1999999097551MD1999999-0071REMSYN070AAXX  06184 82583 32599 31402 10343 20180 39755 40089 83100 333 59007;
0178825830999992012080700004-05167-040667FM-12+029999999V0200901N002612200019N0040001N1+02991+01571101081ADDGA1001+999999999GF100991001001999999001001KA1240M+03591MA1999999097721MD1999999-0071REMSYN082AAXX  07004 82583 32996 00905 10299 20157 39772 40108 333 10359 29047 55108 59007;
0156825830999992012080712004-05167-040667FM-12+029999999V0200901N004610075019N0500001N1+02611+02011101431ADDGF108991081051008001999999KA1240N+02331MA1999999098071MD1999999-0061REMSYN076AAXX  07124 82583 32599 80909 10261 20201 39807 40143 885// 333 20233 59006;
0137825830999992012080718004-05167-040667FM-12+029999999V0200901N003112200019N0500001N1+03311+01611101021ADDGF104991041021008001001001MA1999999097671MD1999999+0121REMSYN070AAXX  07184 82583 32599 40906 10331 20161 39767 40102 84200 333 58012;
0178825830999992012080800004-05167-040667FM-12+029999999V0200901N002112200019N0040001N1+02871+01571101301ADDGA1001+999999999GF100991001001999999001001KA1240M+03411MA1999999097941MD1999999+0221REMSYN082AAXX  08004 82583 32996 00904 10287 20157 39794 40130 333 10341 29049 55070 58022;
0166825830999992012080812004-05167-040667FM-12+029999999V0200901N006212200019N0500001N1+02731+01411101551ADDGA1001+999999999GF100991001001999999001001KA1240N+02231MA1999999098191MD1999999+0121REMSYN070AAXX  08124 82583 32999 00912 10273 20141 39819 40155 333 20223 58012;
0141825830999992012080818004-05167-040667FM-12+029999999V0201401N005112200019N0500001N1+03391+01351101011ADDGF101991011011008001001001MD1999999+0001REMSYN070AAXX  08184 82583 32599 11410 10339 20135 39967 40101 81100 333 58000;EQDQ01+099673APOSP 
0168825830999992012080900004-05167-040667FM-12+029999999V0201401N002112200019N0040001N1+02951+01381101221ADDGF102991021051008001001001KA1240M+03491MA1999999097881MD1999999-0061REMSYN088AAXX  09004 82583 32596 21404 10295 20138 39788 40122 82500 333 10349 29037 55107 59006;
0156825830999992012080912004-05167-040667FM-12+029999999V0201401N006712200019N0500001N1+02701+01511101461ADDGF101991011011008001001001KA1240N+02201MA1999999098101MD1999999-0091REMSYN076AAXX  09124 82583 32599 11413 10270 20151 39810 40146 81100 333 20220 59009;
0137825830999992012080918004-05167-040667FM-12+029999999V0201401N003112200019N0500001N1+03331+01401100961ADDGF102991021011008001001001MA1999999097621MD1999999-0051REMSYN070AAXX  09184 82583 32599 21406 10333 20140 39762 40096 82100 333 59005;
0178825830999992012081000004-05167-040667FM-12+029999999V0200901N003112200019N0040001N1+02871+01391101161ADDGA1001+999999999GF100991001001999999001001KA1240M+03411MA1999999097811MD1999999-0071REMSYN082AAXX  10004 82583 32996 00906 10287 20139 39781 40116 333 10341 29040 55108 59007;
0156825830999992012081012004-05167-040667FM-12+029999999V0201401N005712200019N0500001N1+02711+01621101421ADDGF103991031011008001001001KA1240N+02291MA1999999098061MD1999999-0041REMSYN076AAXX  10124 82583 32599 31411 10271 20162 39806 40142 83100 333 20229 59004;
0137825830999992012081018004-05167-040667FM-12+029999999V0200901N004112200019N0500001N1+03401+01351100981ADDGF104991031011008001031001MA1999999097641MD1999999+0021REMSYN070AAXX  10184 82583 32599 40908 10340 20135 39764 40098 83130 333 58002;
0168825830999992012081100004-05167-040667FM-12+029999999V0200901N003112200019N0040001N1+02951+01381101151ADDGF101991011001008001001001KA1240M+03451MA1999999097811MD1999999+0001REMSYN088AAXX  11004 82583 32596 10906 10295 20138 39781 40115 81000 333 10345 29036 55037 58000;
0156825830999992012081112004-05167-040667FM-12+029999999V0200901N005710075019N0500001N1+02601+01511101511ADDGF106991061011008001001001KA1240N+02301MA1999999098151MD1999999+0091REMSYN076AAXX  11124 82583 32599 60911 10260 20151 39815 40151 86100 333 20230 58009;
0137825830999992012081118004-05167-040667FM-12+029999999V0201401N002112200019N0500001N1+03291+01361101121ADDGF103991031011008001001001MA1999999097781MD1999999+0141REMSYN070AAXX  11184 82583 32599 31404 10329 20136 39778 40112 83100 333 58014;
0178825830999992012081200004-05167-040667FM-12+029999999V0200901N002112200019N0040001N1+02791+01241101221ADDGA1001+999999999GF100991001001999999001001KA1240M+03371MA1999999097861MD1999999+0011REMSYN082AAXX  12004 82583 32996 00904 10279 20124 39786 40122 333 10337 29040 55093 58001;
0156825830999992012081212004-05167-040667FM-12+029999999V0201401N005112200019N0500001N1+02631+01511101591ADDGF101991011011008001001001KA1240N+01961MA1999999098211MD1999999+0061REMSYN076AAXX  12124 82583 32599 11410 10263 20151 39821 40159 81100 333 20196 58006;
0137825830999992012081218004-05167-040667FM-12+029999999V0200901N002612200019N0500001N1+03341+01191101071ADDGF101991011001008001041001MA1999999097711MD1999999-0071REMSYN070AAXX  12184 82583 32599 10905 10334 20119 39771 40107 81040 333 59007;
0178825830999992012081300004-05167-040667FM-12+029999999V0201401N002112200019N0040001N1+02811+01291101301ADDGA1001+999999999GF100991001001999999001001KA1240M+03431MA1999999097941MD1999999+0081REMSYN082AAXX  13004 82583 32996 01404 10281 20129 39794 40130 333 10343 29039 55109 58008;
0156825830999992012081312004-05167-040667FM-12+029999999V0201401N005112200019N0500001N1+02691+01661101581ADDGF101991011011008001001001KA1240N+02311MA1999999098211MD1999999+0001REMSYN076AAXX  13124 82583 32599 11410 10269 20166 39821 40158 81100 333 20231 58000;
0137825830999992012081318004-05167-040667FM-12+029999999V0201401N003610075019N0500001N1+03401+01541101101ADDGF106991061011008001001001MA1999999097761MD1999999+0051REMSYN070AAXX  13184 82583 32599 61407 10340 20154 39776 40110 86100 333 58005;
0178825830999992012081400004-05167-040667FM-12+029999999V0200901N002612200019N0040001N1+02971+01591101281ADDGA1001+999999999GF100991001001999999001001KA1240M+03521MA1999999097941MD1999999+0001REMSYN082AAXX  14004 82583 32996 00905 10297 20159 39794 40128 333 10352 29043 55090 58000;
0156825830999992012081412004-05167-040667FM-12+029999999V0201401N004612200019N0500001N1+02731+01671101471ADDGF102991021011008001001001KA1240N+02451MA1999999098111MD1999999-0101REMSYN076AAXX  14124 82583 32599 21409 10273 20167 39811 40147 82100 333 20245 59010;
0137825830999992012081418004-05167-040667FM-12+029999999V0200901N004112200019N0500001N1+03331+01491101001ADDGF104991041011008001001001MA1999999097661MD1999999-0101REMSYN070AAXX  14184 82583 32599 40908 10333 20149 39766 40100 84100 333 59010;
0168825830999992012081500004-05167-040667FM-12+029999999V0200901N001512200019N0500001N1+02851+01411101201ADDGF101991011011008001001001KA1240M+03441MA1999999097851MD1999999-0091REMSYN088AAXX  15004 82583 32599 10903 10285 20141 39785 40120 81100 333 10344 29042 55108 59009;
0156825830999992012081512004-05167-040667FM-12+029999999V0201401N006712200019N0500001N1+02751+01831101461ADDGF101991011011008001001001KA1240N+02311MA1999999098101MD1999999-0011REMSYN076AAXX  15124 82583 32599 11413 10275 20183 39810 40146 81100 333 20231 59001;
0137825830999992012081518004-05167-040667FM-12+029999999V0201401N004612200019N0500001N1+03341+01351101041ADDGF104991041011008001001001MA1999999097701MD1999999+0041REMSYN070AAXX  15184 82583 32599 41409 10334 20135 39770 40104 84100 333 58004;
0168825830999992012081600004-05167-040667FM-12+029999999V0200901N002612200019N0040001N1+02851+01331101341ADDGF101991011011008001001001KA1240M+03451MA1999999097981MD1999999+0131REMSYN088AAXX  16004 82583 32596 10905 10285 20133 39798 40134 81100 333 10345 29041 55103 58013;
0156825830999992012081612004-05167-040667FM-12+029999999V0201401N006712200019N0500001N1+02791+01601101481ADDGF101991011011008001001001KA1240N+02161MA1999999098121MD1999999+0021REMSYN076AAXX  16124 82583 32599 11413 10279 20160 39812 40148 81100 333 20216 58002;
0137825830999992012081618004-05167-040667FM-12+029999999V0201401N004612200019N0500001N1+03401+01121101081ADDGF103991031021008001001001MA1999999097731MD1999999+0031REMSYN070AAXX  16184 82583 32599 31409 10340 20112 39773 40108 83200 333 58003;
0168825830999992012081700004-05167-040667FM-12+029999999V0201401N002112200019N0040001N1+02861+01551101271ADDGF101991011011008001001001KA1240M+03531MA1999999097921MD1999999-0061REMSYN088AAXX  17004 82583 32596 11404 10286 20155 39792 40127 81100 333 10353 29041 55105 59006;
0166825830999992012081712004-05167-040667FM-12+029999999V0201401N006712200019N0500001N1+02811+01411101411ADDGA1001+999999999GF100991001001999999001001KA1240N+02261MA1999999098051MD1999999-0071REMSYN070AAXX  17124 82583 32999 01413 10281 20141 39805 40141 333 20226 59007;
0147825830999992012081718004-05167-040667FM-12+029999999V0201401N004112200019N0500001N1+03421+01251100841ADDGA1001+999999999GF100991001001999999001001MA1999999097551MD1999999-0181REMSYN064AAXX  17184 82583 32999 01408 10342 20125 39755 40084 333 59018;
0178825830999992012081800004-05167-040667FM-12+029999999V0200901N003112200019N0040001N1+02801+01071101221ADDGA1001+999999999GF100991001001999999001001KA1240M+03571MA1999999097871MD1999999-0051REMSYN082AAXX  18004 82583 32996 00906 10280 20107 39787 40122 333 10357 29034 55109 59005;
0166825830999992012081812004-05167-040667FM-12+029999999V0201401N006212200019N0500001N1+02731+01301101481ADDGA1001+999999999GF100991001001999999001001KA1240N+02201MA1999999098121MD1999999+0071REMSYN070AAXX  18124 82583 32999 01412 10273 20130 39812 40148 333 20220 58007;
0137825830999992012081818004-05167-040667FM-12+029999999V0200901N003612200019N0500001N1+03381+01381100931ADDGF102991021011008001001001MA1999999097601MD1999999+0021REMSYN070AAXX  18184 82583 32599 20907 10338 20138 39760 40093 82100 333 58002;
0178825830999992012081900004-05167-040667FM-12+029999999V0201401N002112200019N0040001N1+03021+01351101191ADDGA1001+999999999GF100991001001999999001001KA1240M+03511MA1999999097851MD1999999-0021REMSYN082AAXX  19004 82583 32996 01404 10302 20135 39785 40119 333 10351 29036 55110 59002;
0156825830999992012081912004-05167-040667FM-12+029999999V0201401N005112200019N0500001N1+02711+01241101501ADDGF101991011011008001001001KA1240N+02311MA1999999098141MD1999999+0021REMSYN076AAXX  19124 82583 32599 11410 10271 20124 39814 40150 81100 333 20231 58002;
0137825830999992012081918004-05167-040667FM-12+029999999V0200901N003612200019N0500001N1+03371+01381101021ADDGF104991041021008001001001MA1999999097681MD1999999+0081REMSYN070AAXX  19184 82583 32599 40907 10337 20138 39768 40102 84200 333 58008;
0178825830999992012082000004-05167-040667FM-12+029999999V0201401N003112200019N0040001N1+02841+01391101341ADDGA1001+999999999GF100991001001999999001001KA1240M+03491MA1999999097981MD1999999+0131REMSYN082AAXX  20004 82583 32996 01406 10284 20139 39798 40134 333 10349 29038 55103 58013;
0156825830999992012082012004-05167-040667FM-12+029999999V0201401N005712200019N0040001N1+02651+01471101541ADDGF103991001001999999001021KA1240N+02231MA1999999098171MD1999999+0031REMSYN076AAXX  20124 82583 32996 31411 10265 20147 39817 40154 80002 333 20223 58003;
0137825830999992012082018004-05167-040667FM-12+029999999V0201401N004110450019N0500001N1+03291+01461101141ADDGF105991041011008001021011MA1999999097801MD1999999+0121REMSYN070AAXX  20184 82583 32599 51408 10329 20146 39780 40114 84121 333 58012;
0168825830999992012082100004-05167-040667FM-12+029999999V0201401N002112200019N0040001N1+02791+01311101371ADDGF101991011011008001001001KA1240M+03441MA1999999098001MD1999999+0021REMSYN088AAXX  21004 82583 32596 11404 10279 20131 39800 40137 81100 333 10344 29040 55098 58002;
0156825830999992012082112004-05167-040667FM-12+029999999V0201401N005712200019N0500001N1+02691+01571101651ADDGF101991011011008001001001KA1240N+02171MA1999999098271MD1999999+0101REMSYN076AAXX  21124 82583 32599 11411 10269 20157 39827 40165 81100 333 20217 58010;
0137825830999992012082118004-05167-040667FM-12+029999999V0200901N003112200019N0500001N1+03411+01611101101ADDGF101991011011008001001011MA1999999097761MD1999999-0041REMSYN070AAXX  21184 82583 32599 10906 10341 20161 39776 40110 81101 333 59004;
0178825830999992012082200004-05167-040667FM-12+029999999V0200901N003112200019N0040001N1+02911+01501101341ADDGA1001+999999999GF100991001001999999001001KA1240M+03491MA1999999097981MD1999999-0021REMSYN082AAXX  22004 82583 32996 00906 10291 20150 39798 40134 333 10349 29042 55110 59002;
0156825830999992012082212004-05167-040667FM-12+029999999V0201401N005712200019N0500001N1+02711+01791101531ADDGF102991011011008001001011KA1240N+02261MA1999999098171MD1999999-0101REMSYN076AAXX  22124 82583 32599 21411 10271 20179 39817 40153 81101 333 20226 59010;
0137825830999992012082218004-05167-040667FM-12+029999999V0201401N005112200019N0500001N1+03371+01711101121ADDGF103991031021008001001001MA1999999097781MD1999999+0021REMSYN070AAXX  22184 82583 32599 31410 10337 20171 39778 40112 83200 333 58002;
0168825830999992012082300004-05167-040667FM-12+029999999V0201401N002112200019N0040001N1+02871+01461101251ADDGF101991011001017501051001KA1240M+03551MA1999999097901MD1999999-0081REMSYN088AAXX  23004 82583 32796 11404 10287 20146 39790 40125 81050 333 10355 29044 55105 59008;
0156825830999992012082312004-05167-040667FM-12+029999999V0201401N006712200019N0500001N1+02701+01721101551ADDGF104991041011008001001001KA1240N+02221MA1999999098191MD1999999+0021REMSYN076AAXX  23124 82583 32599 41413 10270 20172 39819 40155 84100 333 20222 58002;
0137825830999992012082318004-05167-040667FM-12+029999999V0200101N005712200019N0500001N1+03331+01541101081ADDGF103991031011008001001001MA1999999097731MD1999999-0051REMSYN070AAXX  23184 82583 32599 30111 10333 20154 39773 40108 83100 333 59005;
0178825830999992012082400004-05167-040667FM-12+029999999V0200901N002112200019N0040001N1+02791+01431101291ADDGA1001+999999999GF100991001001999999001001KA1240M+03401MA1999999097931MD1999999+0031REMSYN082AAXX  24004 82583 32996 00904 10279 20143 39793 40129 333 10340 29044 55107 58003;
0156825830999992012082412004-05167-040667FM-12+029999999V0201401N005112200019N0500001N1+02611+01561101461ADDGF101991011011008001001001KA1240N+02211MA1999999098091MD1999999-0101REMSYN076AAXX  24124 82583 32599 11410 10261 20156 39809 40146 81100 333 20221 59010;
0137825830999992012082418004-05167-040667FM-12+029999999V0201401N004612200019N0500001N1+03291+01311101011ADDGF101991011011008001001001MA1999999097651MD1999999-0081REMSYN070AAXX  24184 82583 32599 11409 10329 20131 39765 40101 81100 333 59008;
0178825830999992012082500004-05167-040667FM-12+029999999V0200901N002612200019N0040001N1+02751+01281101241ADDGA1001+999999999GF100991001001999999001001KA1240M+03381MA1999999097881MD1999999-0051REMSYN082AAXX  25004 82583 32996 00905 10275 20128 39788 40124 333 10338 29040 55110 59005;
0156825830999992012082512004-05167-040667FM-12+029999999V0200901N005112200019N0500001N1+02731+01481101491ADDGF102991021011008001001001KA1240N+02171MA1999999098131MD1999999+0041REMSYN076AAXX  25124 82583 32599 20910 10273 20148 39813 40149 82100 333 20217 58004;
0147825830999992012082518004-05167-040667FM-12+029999999V0201401N004612200019N0500001N1+03291+01091101081ADDGA1001+999999999GF100991001001999999001001MA1999999097721MD1999999+0071REMSYN064AAXX  25184 82583 32599 01409 10329 20109 39772 40108 333 58007;
0178825830999992012082600004-05167-040667FM-12+029999999V0200901N001512200019N0040001N1+02751+01061101341ADDGA1001+999999999GF100991001001999999001001KA1240M+03411MA1999999097981MD1999999+0101REMSYN082AAXX  26004 82583 32996 00903 10275 20106 39798 40134 333 10341 29035 55111 58010;
0156825830999992012082612004-05167-040667FM-12+029999999V0200901N006710075019N0500001N1+02741+01701101611ADDGF105991051011008001001011KA1240N+02241MA1999999098241MD1999999+0111REMSYN076AAXX  26124 82583 32599 50913 10274 20170 39824 40161 85101 333 20224 58011;
0137825830999992012082618004-05167-040667FM-12+029999999V0201401N002110075019N0500001N1+03211+01571101191ADDGF105991051011008001001001MA1999999097831MD1999999+0111REMSYN070AAXX  26184 82583 32599 51404 10321 20157 39783 40119 85100 333 58011;
0168825830999992012082700004-05167-040667FM-12+029999999V0200901N001012200019N0040001N1+02851+01521100901ADDGF101991011011008001091001KA1240M+03381MA1999999097561MD1999999+0081REMSYN088AAXX  27004 82583 32596 10902 10285 20152 39756 40090 81190 333 10338 29044 55091 58008;
0156825830999992012082712004-05167-040667FM-12+029999999V0200901N005110075019N0500001N1+02671+01921101681ADDGF106991061021008001001001KA1240N+02291MA1999999098301MD1999999+0061REMSYN076AAXX  27124 82583 32599 60910 10267 20192 39830 40168 86200 333 20229 58006;
0137825830999992012082718004-05167-040667FM-12+029999999V0201401N003612200019N0500001N1+03391+01541101151ADDGF103991031021008001001001MA1999999097811MD1999999-0021REMSYN070AAXX  27184 82583 32599 31407 10339 20154 39781 40115 83200 333 59002;
0168825830999992012082800004-05167-040667FM-12+029999999V0200901N002612200019N0040001N1+02881+01351101431ADDGF102991021011008001001001KA1240M+03491MA1999999098071MD1999999+0011REMSYN088AAXX  28004 82583 32596 20905 10288 20135 39807 40143 82100 333 10349 29043 55107 58001;
0156825830999992012082812004-05167-040667FM-12+029999999V0200901N006212200019N0500001N1+02821+01861101621ADDGF102991021011008001001001KA1240N+02231MA1999999098261MD1999999-0041REMSYN076AAXX  28124 82583 32599 20912 10282 20186 39826 40162 82100 333 20223 59004;
0137825830999992012082818004-05167-040667FM-12+029999999V0200901N005112200019N0500001N1+03471+01471101081ADDGF103991031021008001001001MA1999999097741MD1999999-0071REMSYN070AAXX  28184 82583 32599 30910 10347 20147 39774 40108 83200 333 59007;
0168825830999992012082900004-05167-040667FM-12+029999999V0200901N001512200019N0040001N1+03001+01531101261ADDGF101991011001017501041001KA1240M+03551MA1999999097921MD1999999-0151REMSYN088AAXX  29004 82583 32796 10903 10300 20153 39792 40126 81040 333 10355 29042 55110 59015;
0156825830999992012082912004-05167-040667FM-12+029999999V0200501N004612200019N0500001N1+02831+01961101541ADDGF102991011011008001041001KA1240N+02341MA1999999098191MD1999999-0071REMSYN076AAXX  29124 82583 32599 20509 10283 20196 39819 40154 81140 333 20234 59007;
0137825830999992012082918004-05167-040667FM-12+029999999V0201401N004112200019N0500001N1+03491+01581100931ADDGF104991041011008001001001MA1999999097611MD1999999-0131REMSYN070AAXX  29184 82583 32599 41408 10349 20158 39761 40093 84100 333 59013;
0168825830999992012083000004-05167-040667FM-12+029999999V0200901N001012200019N0040001N1+03111+01481101141ADDGF104991041011008001001001KA1240M+03621MA1999999097811MD1999999-0111REMSYN088AAXX  30004 82583 32596 40902 10311 20148 39781 40114 84100 333 10362 29041 55108 59011;
0156825830999992012083012004-05167-040667FM-12+029999999V0200901N003612200019N0500001N1+02731+01841101551ADDGF102991011011008001001011KA1240N+02311MA1999999098201MD1999999+0011REMSYN076AAXX  30124 82583 32599 20907 10273 20184 39820 40155 81101 333 20231 58001;
0137825830999992012083018004-05167-040667FM-12+029999999V0201401N004612200019N0500001N1+03641+01131100911ADDGF103991031011008001001011MA1999999097591MD1999999-0021REMSYN070AAXX  30184 82583 32599 31409 10364 20113 39759 40091 83101 333 59002;
0168825830999992012083100004-05167-040667FM-12+029999999V0200901N002112200019N0040001N1+03031+01231101051ADDGF101991001001999999001011KA1240M+03721MA1999999097751MD1999999-0061REMSYN088AAXX  31004 82583 32996 10904 10303 20123 39775 40105 80001 333 10372 29036 55109 59006;
0156825830999992012083112004-05167-040667FM-12+029999999V0200901N005110075019N0500001N1+02701+01801101561ADDGF106991061021008001001001KA1240N+02361MA1999999098201MD1999999+0001REMSYN076AAXX  31124 82583 32599 60910 10270 20180 39820 40156 86200 333 20236 58000;
0137825830999992012083118004-05167-040667FM-12+029999999V0200901N005712200019N0500001N1+03421+01361101011ADDGF102991021011008001001001MA1999999097671MD1999999+0081REMSYN070AAXX  31184 82583 32599 20911 10342 20136 39767 40101 82100 333 58008;
0178825830999992012090100004-05167-040667FM-12+029999999V0200901N002112200019N0040001N1+02891+01361101251ADDGA1001+999999999GF100991001001999999001001KA1240M+03501MA1999999097901MD1999999+0151REMSYN082AAXX  01004 82583 32996 00904 10289 20136 39790 40125 333 10350 29041 55096 58015;
0156825830999992012090112004-05167-040667FM-12+029999999V0200901N006712200019N0500001N1+02791+01721101581ADDGF102991021011008001001001KA1240N+02391MA1999999098221MD1999999+0021REMSYN076AAXX  01124 82583 32599 20913 10279 20172 39822 40158 82100 333 20239 58002;
0137825830999992012090118004-05167-040667FM-12+029999999V0200901N005112200019N0500001N1+03451+00981101001ADDGF101991011011008001001001MA1999999097661MD1999999-0011REMSYN070AAXX  01184 82583 32599 10910 10345 20098 39766 40100 81100 333 59001;
0168825830999992012090200004-05167-040667FM-12+029999999V0200901N003112200019N0040001N1+02871+01091101201ADDGF101991011011008001001001KA1240M+03521MA1999999097861MD1999999-0041REMSYN088AAXX  02004 82583 32596 10906 10287 20109 39786 40120 81100 333 10352 29035 55105 59004;
0156825830999992012090212004-05167-040667FM-12+029999999V0200901N005110075019N0500001N1+02791+01841101521ADDGF105991051021008001001001KA1240N+02071MA1999999098161MD1999999-0061REMSYN076AAXX  02124 82583 32599 50910 10279 20184 39816 40152 85200 333 20207 59006;
0137825830999992012090218004-05167-040667FM-12+029999999V0201401N003612200019N0500001N1+03511+01091101021ADDGF101991011011008001001001MA1999999097691MD1999999+0031REMSYN070AAXX  02184 82583 32599 11407 10351 20109 39769 40102 81100 333 58003;
0178825830999992012090300004-05167-040667FM-12+029999999V0200901N002612200019N0040001N1+02881+01001101281ADDGA1001+999999999GF100991001001999999001001KA1240M+03621MA1999999097941MD1999999+0081REMSYN082AAXX  03004 82583 32996 00905 10288 20100 39794 40128 333 10362 29035 55108 58008;
0156825830999992012090312004-05167-040667FM-12+029999999V0200901N005112200019N0500001N1+02741+01701101701ADDGF104991041011008001001001KA1240N+02431MA1999999098331MD1999999+0171REMSYN076AAXX  03124 82583 32599 40910 10274 20170 39833 40170 84100 333 20243 58017;
0137825830999992012090318004-05167-040667FM-12+029999999V0200901N004112200019N0500001N1+03381+01331101191ADDGF102991021011008001001001MA1999999097851MD1999999+0161REMSYN070AAXX  03184 82583 32599 20908 10338 20133 39785 40119 82100 333 58016;
0178825830999992012090400004-05167-040667FM-12+029999999V0200901N002112200019N0040001N1+02811+01291101381ADDGA1001+999999999GF100991001001999999001001KA1240M+03491MA1999999098021MD1999999+0081REMSYN082AAXX  04004 82583 32596 00904 10281 20129 39802 40138 333 10349 29040 55106 58008;
0156825830999992012090412004-05167-040667FM-12+029999999V0200901N007212200019N0500001N1+02781+01731101731ADDGF102991021011008001001001KA1240N+02261MA1999999098361MD1999999+0031REMSYN076AAXX  04124 82583 32599 20914 10278 20173 39836 40173 82100 333 20226 58003;
0137825830999992012090418004-05167-040667FM-12+029999999V0200101N005712200019N0500001N1+03331+01191101231ADDGF102991021011008001001001MA1999999097881MD1999999+0031REMSYN070AAXX  04184 82583 32599 20111 10333 20119 39788 40123 82100 333 58003;
0178825830999992012090500004-05167-040667FM-12+029999999V0200901N001512200019N0040001N1+02781+01411101411ADDGA1001+999999999GF100991001001999999001001KA1240M+03421MA1999999098051MD1999999+0031REMSYN082AAXX  05004 82583 32996 00903 10278 20141 39805 40141 333 10342 29042 55108 58003;
0156825830999992012090512004-05167-040667FM-12+029999999V0201401N007712200019N0500001N1+02591+01961101701ADDGF104991041021008001001001KA1240N+02321MA1999999098321MD1999999-0041REMSYN076AAXX  05124 82583 32599 41415 10259 20196 39832 40170 84200 333 20232 59004;
0137825830999992012090518004-05167-040667FM-12+029999999V0201401N005712200019N0500001N1+03281+01491101171ADDGF101991011011008001001001MA1999999097831MD1999999-0051REMSYN070AAXX  05184 82583 32599 11411 10328 20149 39783 40117 81100 333 59005;
0178825830999992012090600004-05167-040667FM-12+029999999V0201401N001512200019N0040001N1+02811+01511101371ADDGA1001+999999999GF100991001001999999001001KA1240M+03381MA1999999098001MD1999999-0051REMSYN082AAXX  06004 82583 32996 01403 10281 20151 39800 40137 333 10338 29048 55096 59005;
0156825830999992012090612004-05167-040667FM-12+029999999V0200901N004112200019N0500001N1+02661+01681101551ADDGF102991021011008001001001KA1240N+02161MA1999999098181MD1999999-0141REMSYN076AAXX  06124 82583 32599 20908 10266 20168 39818 40155 82100 333 20216 59014;
0137825830999992012090618004-05167-040667FM-12+029999999V0200901N001512200019N0500001N1+03291+01411101121ADDGF101991011011008001001001MA1999999097761MD1999999-0071REMSYN070AAXX  06184 82583 32599 10903 10329 20141 39776 40112 81100 333 59007;
0178825830999992012090700004-05167-040667FM-12+029999999V0200901N002112200019N0040001N1+02831+01391101361ADDGA1001+999999999GF100991001001999999001001KA1240M+03391MA1999999098001MD1999999+0001REMSYN082AAXX  07004 82583 32996 00904 10283 20139 39800 40136 333 10339 29042 55094 58000;
0156825830999992012090712004-05167-040667FM-12+029999999V0200901N006712200019N0500001N1+02711+01651101641ADDGF101991011011008001001001KA1240N+02251MA1999999098261MD1999999+0081REMSYN076AAXX  07124 82583 32599 10913 10271 20165 39826 40164 81100 333 20225 58008;
0137825830999992012090718004-05167-040667FM-12+029999999V0200901N003612200019N0500001N1+03371+01431101191ADDGF101991011011008001001001MA1999999097841MD1999999+0081REMSYN070AAXX  07184 82583 32599 10907 10337 20143 39784 40119 81100 333 58008;
0168825830999992012090800004-05167-040667FM-12+029999999V0200901N001512200019N0040001N1+02831+01391101391ADDGF101991011011008001001001KA1240M+03451MA1999999098031MD1999999+0031REMSYN088AAXX  08004 82583 32596 10903 10283 20139 39803 40139 81100 333 10345 29041 55107 58003;
0156825830999992012090812004-05167-040667FM-12+029999999V0200901N006212200019N0500001N1+02711+01821101661ADDGF103991031011008001001001KA1240N+02261MA1999999097791MD1999999+0031REMSYN076AAXX  08124 82583 32599 30912 10271 20182 39779 40166 83100 333 20226 58003;
0137825830999992012090818004-05167-040667FM-12+029999999V0201401N004612200019N0500001N1+03411+01411101151ADDGF101991011011008001001001MA1999999097811MD1999999-0031REMSYN070AAXX  08184 82583 32599 11409 10341 20141 39781 40115 81100 333 59003;
0178825830999992012090900004-05167-040667FM-12+029999999V0200901N002112200019N0040001N1+02881+01391101431ADDGA1001+999999999GF100991001001999999001001KA1240M+03491MA1999999098071MD1999999+0041REMSYN082AAXX  09004 82583 32996 00904 10288 20139 39807 40143 333 10349 29042 55107 58004;
0156825830999992012090912004-05167-040667FM-12+029999999V0201401N006710075019N0500001N1+02781+01821101581ADDGF106991061051008001001001KA1240N+02211MA1999999098221MD1999999-0071REMSYN076AAXX  09124 82583 32599 61413 10278 20182 39822 40158 86500 333 20221 59007;
0147825830999992012090918004-05167-040667FM-12+029999999V0201401N004612200019N0500001N1+03451+01341101041ADDGA1001+999999999GF100991001001999999001001MA1999999097701MD1999999-0111REMSYN064AAXX  09184 82583 32999 01409 10345 20134 39770 40104 333 59011;
0178825830999992012091000004-05167-040667FM-12+029999999V0200901N002612200019N0040001N1+03011+01431101191ADDGA1001+999999999GF100991001001999999001001KA1240M+03541MA1999999097851MD1999999-0021REMSYN082AAXX  10004 82583 32996 00905 10301 20143 39785 40119 333 10354 29040 55100 59002;
0156825830999992012091012004-05167-040667FM-12+029999999V0200901N006712200019N0500001N1+02781+01851101441ADDGF104991041011008001001001KA1240N+02311MA1999999098091MD1999999-0131REMSYN076AAXX  10124 82583 32599 40913 10278 20185 39809 40144 84100 333 20231 59013;
0137825830999992012091018004-05167-040667FM-12+029999999V0200901N003612200019N0500001N1+03491+01321101001ADDGF101991011011008001001001MA1999999097661MD1999999-0041REMSYN070AAXX  10184 82583 32599 10907 10349 20132 39766 40100 81100 333 59004;
0178825830999992012091100004-05167-040667FM-12+029999999V0200901N003112200019N0040001N1+02951+01381101171ADDGA1001+999999999GF100991001001999999001001KA1240M+03571MA1999999097831MD1999999-0021REMSYN082AAXX  11004 82583 32996 00906 10295 20138 39783 40117 333 10357 29040 55104 59002;
0156825830999992012091112004-05167-040667FM-12+029999999V0201401N006712200019N0500001N1+02851+01651101411ADDGF102991011011008001001011KA1240N+02331MA1999999098061MD1999999-0031REMSYN076AAXX  11124 82583 32599 21413 10285 20165 39806 40141 81101 333 20233 59003;
0137825830999992012091118004-05167-040667FM-12+029999999V0200901N006712200019N0500001N1+03451+01291100911ADDGF104991041011008001001001MA1999999097581MD1999999-0081REMSYN070AAXX  11184 82583 32599 40913 10345 20129 39758 40091 84100 333 59008;
0178825830999992012091200004-05167-040667FM-12+029999999V0200901N002612200019N0040001N1+02891+01441101211ADDGA1001+999999999GF100991001001999999001001KA1240M+03531MA1999999097871MD1999999+0041REMSYN082AAXX  12004 82583 32996 00905 10289 20144 39787 40121 333 10353 29039 55106 58004;
0156825830999992012091212004-05167-040667FM-12+029999999V0200901N005712200019N0500001N1+02771+01691101441ADDGF101991011011008001001001KA1240N+02291MA1999999098081MD1999999+0021REMSYN076AAXX  12124 82583 32599 10911 10277 20169 39808 40144 81100 333 20229 58002;
0137825830999992012091218004-05167-040667FM-12+029999999V0200501N003612200019N0500001N1+03431+01531101011ADDGF104991041011008001001001MA1999999097671MD1999999+0091REMSYN070AAXX  12184 82583 32599 40507 10343 20153 39767 40101 84100 333 58009;
0178825830999992012091300004-05167-040667FM-12+029999999V0200901N002112200019N0040001N1+03011+01551101181ADDGA1001+999999999GF100991001001999999001001KA1240M+03551MA1999999097841MD1999999-0031REMSYN082AAXX  13004 82583 32996 00904 10301 20155 39784 40118 333 10355 29042 55106 59003;
0156825830999992012091312004-05167-040667FM-12+029999999V0200901N003612200019N0500001N1+02831+01931101431ADDGF102991021011008001001011KA1240N+02351MA1999999098081MD1999999+0001REMSYN076AAXX  13124 82583 32599 20907 10283 20193 39808 40143 82101 333 20235 58000;
0137825830999992012091318004-05167-040667FM-12+029999999V0201401N003112200019N0500001N1+03571+01371100841ADDGF103991031011008001001001MA1999999097531MD1999999-0141REMSYN070AAXX  13184 82583 32599 31406 10357 20137 39753 40084 83100 333 59014;
0168825830999992012091400004-05167-040667FM-12+029999999V0200901N002112200019N0040001N1+02931+01401101051ADDGF101991011011008001001001KA1240M+03671MA1999999097711MD1999999-0131REMSYN088AAXX  14004 82583 32596 10904 10293 20140 39771 40105 81100 333 10367 29041 55098 59013;
0166825830999992012091412004-05167-040667FM-12+029999999V0200901N003112200019N0500001N1+02781+01851101361ADDGA1001+999999999GF100991001001999999001001KA1240N+02281MA1999999098001MD1999999-0081REMSYN070AAXX  14124 82583 32999 00906 10278 20185 39800 40136 333 20228 59008;
0147825830999992012091418004-05167-040667FM-12+029999999V0200901N002112200019N0500001N1+03591+01091100811ADDGA1001+999999999GF100991001001999999001001MA1999999097491MD1999999-0041REMSYN064AAXX  14184 82583 32999 00904 10359 20109 39749 40081 333 59004;
0178825830999992012091500004-05167-040667FM-12+029999999V0200901N003112200019N0040001N1+02971+01131101141ADDGA1001+999999999GF100991001001999999001001KA1240M+03651MA1999999097801MD1999999+0091REMSYN082AAXX  15004 82583 32996 00906 10297 20113 39780 40114 333 10365 29036 55113 58009;
0156825830999992012091512004-05167-040667FM-12+029999999V0200901N005112200019N0500001N1+02681+01761101541ADDGF103991021011008001021001KA1240N+02321MA1999999098181MD1999999+0181REMSYN076AAXX  15124 82583 32599 30910 10268 20176 39818 40154 82120 333 20232 58018;
0137825830999992012091518004-05167-040667FM-12+029999999V0200901N004612200019N0500001N1+03401+01401100961ADDGF101991011011008001001001MA1999999097631MD1999999+0141REMSYN070AAXX  15184 82583 32599 10909 10340 20140 39763 40096 81100 333 58014;
0178825830999992012091600004-05167-040667FM-12+029999999V0200901N002112200019N0040001N1+02891+01201101221ADDGA1001+999999999GF100991001001999999001001KA1240M+03471MA1999999097871MD1999999+0071REMSYN082AAXX  16004 82583 32996 00904 10289 20120 39787 40122 333 10347 29039 55108 58007;
0156825830999992012091612004-05167-040667FM-12+029999999V0200901N008212200019N0500001N1+02891+01551101471ADDGF102991021011008001001001KA1240N+02671MA1999999098121MD1999999-0061REMSYN076AAXX  16124 82583 32599 20916 10289 20155 39812 40147 82100 333 20267 59006;
0137825830999992012091618004-05167-040667FM-12+029999999V0201401N005112200019N0500001N1+03491+01381100861ADDGF101991011011008001001001MA1999999097541MD1999999-0091REMSYN070AAXX  16184 82583 32599 11410 10349 20138 39754 40086 81100 333 59009;
0178825830999992012091700004-05167-040667FM-12+029999999V0200901N002612200019N0040001N1+02991+01451101161ADDGA1001+999999999GF100991001001999999001001KA1240M+03601MA1999999097821MD1999999-0051REMSYN082AAXX  17004 82583 32996 00905 10299 20145 39782 40116 333 10360 29038 55103 59005;
0156825830999992012091712004-05167-040667FM-12+029999999V0200901N004610075019N0500001N1+02841+01911101531ADDGF105991051011008001001001KA1240N+02471MA1999999098181MD1999999+0061REMSYN076AAXX  17124 82583 32599 50909 10284 20191 39818 40153 85100 333 20247 58006;
0137825830999992012091718004-05167-040667FM-12+029999999V0200901N004112200019N0500001N1+03481+01521101021ADDGF104991031011008001021001MA1999999097701MD1999999+0161REMSYN070AAXX  17184 82583 32599 40908 10348 20152 39770 40102 83120 333 58016;
0168825830999992012091800004-05167-040667FM-12+029999999V0200901N002612200019N0040001N1+02971+01401101111ADDGF101991011011008001001001KA1240M+03571MA1999999097821MD1999999+0001REMSYN088AAXX  18004 82583 32596 10905 10297 20140 39782 40111 81100 333 10357 29041 55098 58000;
0156825830999992012091812004-05167-040667FM-12+029999999V0200901N005712200019N0500001N1+02811+01941101431ADDGF103991031011008001001001KA1240N+02481MA1999999098081MD1999999-0101REMSYN076AAXX  18124 82583 32599 30911 10281 20194 39808 40143 83100 333 20248 59010;
0137825830999992012091818004-05167-040667FM-12+029999999V0200901N004110450019N0500001N1+03321+01651100981ADDGF105991041011008001021001MA1999999097641MD1999999-0061REMSYN070AAXX  18184 82583 32599 50908 10332 20165 39764 40098 84120 333 59006;
0178825830999992012091900004-05167-040667FM-12+029999999V0200901N003112200019N0040001N1+02951+01501101191ADDGA1001+999999999GF100991001001999999001001KA1240M+03471MA1999999097851MD1999999+0031REMSYN082AAXX  19004 82583 32996 00906 10295 20150 39785 40119 333 10347 29044 55086 58003;
0156825830999992012091912004-05167-040667FM-12+029999999V0200901N004612200019N0500001N1+02831+01931101361ADDGF102991021011008001001001KA1240N+02351MA1999999098011MD1999999-0071REMSYN076AAXX  19124 82583 32599 20909 10283 20193 39801 40136 82100 333 20235 59007;
0137825830999992012091918004-05167-040667FM-12+029999999V0201401N003612200019N0500001N1+03491+01481101261ADDGF104991031011008001021001MA1999999097921MD1999999+0281REMSYN070AAXX  19184 82583 32599 41407 10349 20148 39792 40126 83120 333 58028;
0168825830999992012092000004-05167-040667FM-12+029999999V0200501N002612200019N0040001N1+03011+01551101051ADDGF101991011011008001001001KA1240M+03631MA1999999097711MD1999999-0141REMSYN088AAXX  20004 82583 32596 10505 10301 20155 39771 40105 81100 333 10363 29042 55101 59014;
0156825830999992012092012004-05167-040667FM-12+029999999V0200901N004112200019N0500001N1+02741+01891101371ADDGF102991011011008001001011KA1240N+02261MA1999999098021MD1999999+0011REMSYN076AAXX  20124 82583 32599 20908 10274 20189 39802 40137 81101 333 20226 58001;
0137825830999992012092018004-05167-040667FM-12+029999999V0200901N004612200019N0500001N1+03651+01271100861ADDGF103991031011008001001001MA1999999097541MD1999999-0021REMSYN070AAXX  20184 82583 32599 30909 10365 20127 39754 40086 83100 333 59002;
0178825830999992012092100004-05167-040667FM-12+029999999V0200901N002112200019N0040001N1+02981+01101100911ADDGA1001+999999999GF100991001001999999001001KA1240M+03731MA1999999097571MD1999999-0141REMSYN082AAXX  21004 82583 32996 00904 10298 20110 39757 40091 333 10373 29036 55101 59014;
0156825830999992012092112004-05167-040667FM-12+029999999V0200901N005112200019N0500001N1+02691+01861101271ADDGF102991011011008001001011KA1240N+02211MA1999999097931MD1999999-0091REMSYN076AAXX  21124 82583 32599 20910 10269 20186 39793 40127 81101 333 20221 59009;
0151825830999992012092118004-05167-040667FM-12+029999999V0200901N005712200019N0500001N1+03551+01431100811ADDGA1001+999999999GF100991001001999999001001MD1999999-0071REMSYN064AAXX  21184 82583 32999 00911 10355 20143 39547 40081 333 59007;EQDQ01+095473APOSP 
0178825830999992012092200004-05167-040667FM-12+029999999V0200901N001012200019N0040001N1+02961+01531100911ADDGA1001+999999999GF100991001001999999001001KA1240M+03611MA1999999097571MD1999999+0001REMSYN082AAXX  22004 82583 32996 00902 10296 20153 39757 40091 333 10361 29043 55107 58000;
0156825830999992012092212004-05167-040667FM-12+029999999V0200901N006710075019N0500001N1+02731+01841101311ADDGF106991061011008001001001KA1240N+02421MA1999999097951MD1999999+0021REMSYN076AAXX  22124 82583 32599 60913 10273 20184 39795 40131 86100 333 20242 58002;
0137825830999992012092218004-05167-040667FM-12+029999999V0200901N005712200019N0500001N1+03571+01551100811ADDGF103991021011008001021001MA1999999097491MD1999999+0021REMSYN070AAXX  22184 82583 32599 30911 10357 20155 39749 40081 82120 333 58002;
0178825830999992012092300004-05167-040667FM-12+029999999V0200901N002112200019N0040001N1+03011+01471101071ADDGA1001+999999999GF100991001001999999001001KA1240M+03631MA1999999097731MD1999999+0161REMSYN082AAXX  23004 82583 32996 00904 10301 20147 39773 40107 333 10363 29042 55088 58016;
0156825830999992012092312004-05167-040667FM-12+029999999V0200901N006710075019N0500001N1+02721+01881101351ADDGF105991051011008001001001KA1240N+02431MA1999999097991MD1999999+0041REMSYN076AAXX  23124 82583 32599 50913 10272 20188 39799 40135 85100 333 20243 58004;
0137825830999992012092318004-05167-040667FM-12+029999999V0200901N003612200019N0500001N1+03471+01611100721ADDGF104991041011008001001001MA1999999097401MD1999999-0091REMSYN070AAXX  23184 82583 32599 40907 10347 20161 39740 40072 84100 333 59009;
0178825830999992012092400004-05167-040667FM-12+029999999V0200901N002112200019N0040001N1+02981+01471101011ADDGA1001+999999999GF100991001001999999001001KA1240M+03581MA1999999097671MD1999999-0061REMSYN082AAXX  24004 82583 32996 00904 10298 20147 39767 40101 333 10358 29043 55096 59006;
0156825830999992012092412004-05167-040667FM-12+029999999V0201401N007212200019N0500001N1+02881+01771101281ADDGF101991011011008001001001KA1240N+02391MA1999999097941MD1999999-0051REMSYN076AAXX  24124 82583 32599 11414 10288 20177 39794 40128 81100 333 20239 59005;
0137825830999992012092418004-05167-040667FM-12+029999999V0200901N002112200019N0500001N1+03481+01571100761ADDGF103991031021008001001001MA1999999097441MD1999999+0041REMSYN070AAXX  24184 82583 32599 30904 10348 20157 39744 40076 83200 333 58004;
0168825830999992012092500004-05167-040667FM-12+029999999V0200901N002612200019N0040001N1+02971+01441101041ADDGF101991011011008001001001KA1240M+03871MA1999999097701MD1999999+0031REMSYN088AAXX  25004 82583 32596 10905 10297 20144 39770 40104 81100 333 10387 29040 55109 58003;
0156825830999992012092512004-05167-040667FM-12+029999999V0200901N006212200019N0500001N1+02761+01591101431ADDGF101991011011008001001001KA1240N+02301MA1999999098071MD1999999+0131REMSYN076AAXX  25124 82583 32599 10912 10276 20159 39807 40143 81100 333 20230 58013;
0137825830999992012092518004-05167-040667FM-12+029999999V0201401N002612200019N0500001N1+03401+01541100901ADDGF102991011011008001021001MA1999999097561MD1999999+0121REMSYN070AAXX  25184 82583 32599 21405 10340 20154 39756 40090 81120 333 58012;
0168825830999992012092600004-05167-040667FM-12+029999999V0200901N003112200019N0040001N1+02931+01361101111ADDGF101991001001999999001011KA1240M+03481MA1999999097771MD1999999+0071REMSYN088AAXX  26004 82583 32996 10906 10293 20136 39777 40111 80001 333 10348 29040 55095 58007;
0156825830999992012092612004-05167-040667FM-12+029999999V0200901N004612200019N0500001N1+02841+01821101461ADDGF102991021011008001001001KA1240N+02281MA1999999098111MD1999999+0041REMSYN076AAXX  26124 82583 32599 20909 10284 20182 39811 40146 82100 333 20228 58004;
0182825830999992012092618004-05167-040667FM-12+029999999V0200901N999992200019N0500001N1+03361+01601100891ADDGA1001+999999999GF100991001001999999001001MA1999999097551MD1999999-0011REMSYN064AAXX  26184 82583 32599 00999 10336 20160 39755 40089 333 59001;EQDQ01+005093WOSPD Q020005093WOSPD 
0178825830999992012092700004-05167-040667FM-12+029999999V0200901N003612200019N0040001N1+03051+01421101201ADDGA1001+999999999GF100991001001999999001001KA1240M+03551MA1999999097861MD1999999+0091REMSYN082AAXX  27004 82583 32996 00907 10305 20142 39786 40120 333 10355 29040 55109 58009;
0156825830999992012092712004-05167-040667FM-12+029999999V0201401N003612200019N0500001N1+02841+01881101391ADDGF102991021011008001001001KA1240N+02261MA1999999098051MD1999999-0061REMSYN076AAXX  27124 82583 32599 21407 10284 20188 39805 40139 82100 333 20226 59006;
0137825830999992012092718004-05167-040667FM-12+029999999V0200901N001512200019N0500001N1+03541+01571100981ADDGF101991011011008001001001MA1999999097651MD1999999+0001REMSYN070AAXX  27184 82583 32599 10903 10354 20157 39765 40098 81100 333 58000;
0168825830999992012092800004-05167-040667FM-12+029999999V0200901N003112200019N0040001N1+03131+01691101061ADDGF102991021001017501031001KA1240M+03641MA1999999097741MD1999999-0121REMSYN088AAXX  28004 82583 32796 20906 10313 20169 39774 40106 82030 333 10364 29043 55109 59012;
0156825830999992012092812004-05167-040667FM-12+029999999V0200901N005110075019N0500001N1+02881+01911101421ADDGF106991061021008001001001KA1240N+02521MA1999999098081MD1999999+0031REMSYN076AAXX  28124 82583 32599 60910 10288 20191 39808 40142 86200 333 20252 58003;
0137825830999992012092818004-05167-040667FM-12+029999999V0201401N004110075019N0500001N1+03421+01701100931ADDGF105991051021008001001001MA1999999097611MD1999999+0081REMSYN070AAXX  28184 82583 32599 51408 10342 20170 39761 40093 85200 333 58008;
0168825830999992012092900004-05167-040667FM-12+029999999V0200901N001512200019N0040001N1+03041+01601101221ADDGF103991031011008001001001KA1240M+03531MA1999999097881MD1999999+0141REMSYN088AAXX  29004 82583 32596 30903 10304 20160 39788 40122 83100 333 10353 29044 55091 58014;
0156825830999992012092912004-05167-040667FM-12+029999999V0200901N003610120019N0500001N1+02711+01951101561ADDGF107991071081008001999999KA1240N+02431MA1999999098211MD1999999+0131REMSYN076AAXX  29124 82583 32599 70907 10271 20195 39821 40156 878// 333 20243 58013;
0137825830999992012092918004-05167-040667FM-12+029999999V0201401N004112200019N0500001N1+03431+01211100971ADDGF102991021071008001001001MA1999999097651MD1999999+0041REMSYN070AAXX  29184 82583 32599 21408 10343 20121 39765 40097 82700 333 58004;
0168825830999992012093000004-05167-040667FM-12+029999999V0200901N001512200019N0040001N1+02941+01001101231ADDGF101991011011008001001001KA1240M+03531MA1999999097881MD1999999+0001REMSYN088AAXX  30004 82583 32596 10903 10294 20100 39788 40123 81100 333 10353 29037 55086 58000;
0156825830999992012093012004-05167-040667FM-12+029999999V0200901N004612200019N0500001N1+02771+01881101491ADDGF102991021011008001001001KA1240N+02231MA1999999098131MD1999999-0081REMSYN076AAXX  30124 82583 32599 20909 10277 20188 39813 40149 82100 333 20223 59008;
0137825830999992012093018004-05167-040667FM-12+029999999V0201401N005112200019N0500001N1+03561+01431100751ADDGF104991041021008001001001MA1999999097431MD1999999-0221REMSYN070AAXX  30184 82583 32599 41410 10356 20143 39743 40075 84200 333 59022;
0178825830999992012100100004-05167-040667FM-12+029999999V0201401N003112200019N0040001N1+02931+01361101011ADDGA1001+999999999GF100991001001999999001001KA1240M+03631MA1999999097671MD1999999-0211REMSYN082AAXX  01004 82583 32596 01406 10293 20136 39767 40101 333 10363 29040 55101 59021;
0156825830999992012100112004-05167-040667FM-12+029999999V0201401N005110075019N0500001N1+02791+01841101311ADDGF105991051021008001001001KA1240N+02381MA1999999097951MD1999999-0181REMSYN076AAXX  01124 82583 32599 51410 10279 20184 39795 40131 85200 333 20238 59018;
0137825830999992012100118004-05167-040667FM-12+029999999V0200901N002612200019N0500001N1+03501+01481100711ADDGF103991021011008001021001MA1999999097391MD1999999-0041REMSYN070AAXX  01184 82583 32599 30905 10350 20148 39739 40071 82120 333 59004;
0178825830999992012100200004-05167-040667FM-12+029999999V0200901N002612200019N0040001N1+03071+01521100851ADDGA1001+999999999GF100991001001999999001001KA1240M+03631MA1999999097531MD1999999-0111REMSYN082AAXX  02004 82583 32996 00905 10307 20152 39753 40085 333 10363 29041 55106 59011;
0156825830999992012100212004-05167-040667FM-12+029999999V0200901N005710075019N0500001N1+02801+01951101381ADDGF105991051021008001001001KA1240N+02371MA1999999098041MD1999999+0091REMSYN076AAXX  02124 82583 32599 50911 10280 20195 39804 40138 85200 333 20237 58009;
0137825830999992012100218004-05167-040667FM-12+029999999V0200901N003612200019N0500001N1+03491+01581100871ADDGF103991021011008001021001MA1999999097551MD1999999+0021REMSYN070AAXX  02184 82583 32599 30907 10349 20158 39755 40087 82120 333 58002;
0168825830999992012100300004-05167-040667FM-12+029999999V0200901N003112200019N0040001N1+03061+01551101051ADDGF101991011001017501021001KA1240M+03591MA1999999097721MD1999999+0101REMSYN088AAXX  03004 82583 32796 10906 10306 20155 39772 40105 81020 333 10359 29043 55108 58010;
0156825830999992012100312004-05167-040667FM-12+029999999V0200901N006212200019N0500001N1+02901+01841101431ADDGF102991011011008001001011KA1240N+02421MA1999999098091MD1999999+0051REMSYN076AAXX  03124 82583 32599 20912 10290 20184 39809 40143 81101 333 20242 58005;
0137825830999992012100318004-05167-040667FM-12+029999999V0200901N005112200019N0500001N1+03531+01461100901ADDGF101991011011008001001011MA1999999097581MD1999999+0031REMSYN070AAXX  03184 82583 32599 10910 10353 20146 39758 40090 81101 333 58003;
0168825830999992012100400004-05167-040667FM-12+029999999V0200901N002112200019N0500001N1+03091+01541101141ADDGF101991011011008001001001KA1240M+03631MA1999999097811MD1999999+0091REMSYN088AAXX  04004 82583 32599 10904 10309 20154 39781 40114 81100 333 10363 29040 55111 58009;
0156825830999992012100412004-05167-040667FM-12+029999999V0200901N005712200019N0500001N1+02841+01821101351ADDGF101991011011008001001001KA1240N+02371MA1999999098011MD1999999-0081REMSYN076AAXX  04124 82583 32599 10911 10284 20182 39801 40135 81100 333 20237 59008;
0137825830999992012100418004-05167-040667FM-12+029999999V0201401N006212200019N0500001N1+03541+01571100791ADDGF103991031011008001001001MA1999999097471MD1999999-0111REMSYN070AAXX  04184 82583 32599 31412 10354 20157 39747 40079 83100 333 59011;
0178825830999992012100500004-05167-040667FM-12+029999999V0200901N003612200019N0040001N1+03071+01561100951ADDGA1001+999999999GF100991001001999999001001KA1240M+03661MA1999999097631MD1999999-0181REMSYN082AAXX  05004 82583 32996 00907 10307 20156 39763 40095 333 10366 29041 55104 59018;
0156825830999992012100512004-05167-040667FM-12+029999999V0201401N006712200019N0500001N1+02901+01651101101ADDGF101991011011008001001001KA1240N+02421MA1999999097771MD1999999-0241REMSYN076AAXX  05124 82583 32599 11413 10290 20165 39777 40110 81100 333 20242 59024;
0137825830999992012100518004-05167-040667FM-12+029999999V0201401N005112200019N0500001N1+03511+01451100651ADDGF102991011011008001021001MA1999999097331MD1999999-0141REMSYN070AAXX  05184 82583 32599 21410 10351 20145 39733 40065 81120 333 59014;
0178825830999992012100600004-05167-040667FM-12+029999999V0200901N005112200019N0040001N1+03091+01461100891ADDGA1001+999999999GF100991001001999999001001KA1240M+03631MA1999999097571MD1999999-0061REMSYN082AAXX  06004 82583 32996 00910 10309 20146 39757 40089 333 10363 29038 55112 59006;
0156825830999992012100612004-05167-040667FM-12+029999999V0201401N008212200019N0500001N1+02731+01811101241ADDGF104991041011008001001001KA1240N+02351MA1999999097901MD1999999+0131REMSYN076AAXX  06124 82583 32599 41416 10273 20181 39790 40124 84100 333 20235 58013;
0137825830999992012100618004-05167-040667FM-12+029999999V0201401N004612200019N0500001N1+03451+01291100891ADDGF101991011001017501011001MA1999999097421MD1999999+0091REMSYN070AAXX  06184 82583 32799 11409 10345 20129 39742 40089 81010 333 58009;
0178825830999992012100700004-05167-040667FM-12+029999999V0200901N002612200019N0040001N1+02981+01271101031ADDGA1001+999999999GF100991001001999999001001KA1240M+03611MA1999999097691MD1999999+0121REMSYN082AAXX  07004 82583 32996 00905 10298 20127 39769 40103 333 10361 29038 55111 58012;
0156825830999992012100712004-05167-040667FM-12+029999999V0200901N007712200019N0500001N1+02951+01791101341ADDGF103991031011008001001001KA1240N+02421MA1999999098001MD1999999+0101REMSYN076AAXX  07124 82583 32599 30915 10295 20179 39800 40134 83100 333 20242 58010;
0137825830999992012100718004-05167-040667FM-12+029999999V0200901N003612200019N0500001N1+03511+01501100791ADDGF103991031011008001001001MA1999999097471MD1999999+0051REMSYN070AAXX  07184 82583 32599 30907 10351 20150 39747 40079 83100 333 58005;
0178825830999992012100800004-05167-040667FM-12+029999999V0200901N001512200019N0040001N1+03021+01511101031ADDGA1001+999999999GF100991001001999999001001KA1240M+03611MA1999999097711MD1999999+0021REMSYN082AAXX  08004 82583 32996 00903 10302 20151 39771 40103 333 10361 29040 55107 58002;
0156825830999992012100812004-05167-040667FM-12+029999999V0201401N005110075019N0500001N1+02891+02021101221ADDGF105991051021008001001001KA1240N+02421MA1999999097881MD1999999-0121REMSYN076AAXX  08124 82583 32599 51410 10289 20202 39788 40122 85200 333 20242 59012;
0137825830999992012100818004-05167-040667FM-12+029999999V0201401N003612200019N0500001N1+03581+02201100731ADDGF103991031021008001001001MA1999999097411MD1999999-0061REMSYN070AAXX  08184 82583 32599 31407 10358 20220 39741 40073 83200 333 59006;
0168825830999992012100900004-05167-040667FM-12+029999999V0200901N002612200019N0040001N1+03191+01511100901ADDGF101991011011008001001001KA1240M+03691MA1999999097581MD1999999-0131REMSYN088AAXX  09004 82583 32596 10905 10319 20151 39758 40090 81100 333 10369 29044 55107 59013;
0156825830999992012100912004-05167-040667FM-12+029999999V0200901N005112200019N0500001N1+02851+01841101191ADDGF103991021011008001001011KA1240N+02431MA1999999097861MD1999999-0021REMSYN076AAXX  09124 82583 32599 30910 10285 20184 39786 40119 82101 333 20243 59002;
0137825830999992012100918004-05167-040667FM-12+029999999V0201401N003612200019N0500001N1+03521+01501100651ADDGF104991031021008001031011MA1999999097331MD1999999-0081REMSYN070AAXX  09184 82583 32599 41407 10352 20150 39733 40065 83231 333 59008;
0168825830999992012101000004-05167-040667FM-12+029999999V0200901N002112200019N0040001N1+03071+01401100751ADDGF101991011011008001001001KA1240M+03631MA1999999097431MD1999999-0151REMSYN088AAXX  10004 82583 32596 10904 10307 20140 39743 40075 81100 333 10363 29039 55099 59015;
0156825830999992012101012004-05167-040667FM-12+029999999V0200901N005112200019N0500001N1+02821+01891101171ADDGF102991011011008001001011KA1240N+02391MA1999999097831MD1999999-0031REMSYN076AAXX  10124 82583 32599 20910 10282 20189 39783 40117 81101 333 20239 59003;
0137825830999992012101018004-05167-040667FM-12+029999999V0200501N004612200019N0500001N1+03471+01611100641ADDGF103991021011008001021011MA1999999097321MD1999999-0011REMSYN070AAXX  10184 82583 32599 30509 10347 20161 39732 40064 82121 333 59001;
0178825830999992012101100004-05167-040667FM-12+029999999V0200901N002612200019N0040001N1+03061+01551100911ADDGA1001+999999999GF100991001001999999001001KA1240M+03551MA1999999097591MD1999999+0161REMSYN082AAXX  11004 82583 32996 00905 10306 20155 39759 40091 333 10355 29042 55090 58016;
0201825830999992012101112004-05167-040667FM-12+029999999V0200901N007210075019N0500001N1+02721+02151101281ADDAA124000591AY161061AY261061GF105991051021008001001001KA1240N+02321MA1999999097941MD1999999+0111MW1021REMSYN088AAXX  11124 82583 21599 50914 10272 20215 39794 40128 70266 85200 333 20232 58011 69954;
0137825830999992012101118004-05167-040667FM-12+029999999V0200901N004612200019N0500001N1+03401+01851100831ADDGF104991041021008001001001MA1999999097511MD1999999+0191REMSYN070AAXX  11184 82583 32599 40909 10340 20185 39751 40083 84200 333 58019;
0178825830999992012101200004-05167-040667FM-12+029999999V0200901N002612200019N0040001N1+02971+01861101051ADDGA1001+999999999GF100991001001999999001001KA1240M+03491MA1999999097711MD1999999-0121REMSYN082AAXX  12004 82583 32996 00905 10297 20186 39771 40105 333 10349 29053 55079 59012;
0156825830999992012101212004-05167-040667FM-12+029999999V0200901N005712200019N0500001N1+02811+01911101351ADDGF104991041011008001001001KA1240N+02271MA1999999098001MD1999999+0061REMSYN076AAXX  12124 82583 32599 40911 10281 20191 39800 40135 84100 333 20227 58006;
0137825830999992012101218004-05167-040667FM-12+029999999V0200901N004612200019N0500001N1+03451+01821100811ADDGF102991021011008001001001MA1999999097471MD1999999-0041REMSYN070AAXX  12184 82583 32599 20909 10345 20182 39747 40081 82100 333 59004;
0178825830999992012101300004-05167-040667FM-12+029999999V0200901N001512200019N0040001N1+03031+01821100991ADDGA1001+999999999GF100991001001999999001001KA1240M+03531MA1999999097651MD1999999-0061REMSYN082AAXX  13004 82583 32996 00903 10303 20182 39765 40099 333 10353 29048 55093 59006;
0156825830999992012101312004-05167-040667FM-12+029999999V0200901N004610075019N0500001N1+02781+01981101211ADDGF105991051011008001001001KA1240N+02361MA1999999097871MD1999999-0131REMSYN076AAXX  13124 82583 32599 50909 10278 20198 39787 40121 85100 333 20236 59013;
0137825830999992012101318004-05167-040667FM-12+029999999V0200901N004612200019N0500001N1+03441+01761100601ADDGF104991041021008001001001MA1999999097281MD1999999-0191REMSYN070AAXX  13184 82583 32599 40909 10344 20176 39728 40060 84200 333 59019;
0178825830999992012101400004-05167-040667FM-12+029999999V0200901N003112200019N0040001N1+03141+01691100841ADDGA1001+999999999GF100991001001999999001001KA1240M+03601MA1999999097521MD1999999-0131REMSYN082AAXX  14004 82583 32996 00906 10314 20169 39752 40084 333 10360 29046 55100 59013;
0156825830999992012101412004-05167-040667FM-12+029999999V0200901N005110075019N0500001N1+02751+01971101121ADDGF106991061021008001001001KA1240N+02521MA1999999097781MD1999999-0091REMSYN076AAXX  14124 82583 32599 60910 10275 20197 39778 40112 86200 333 20252 59009;
0137825830999992012101418004-05167-040667FM-12+029999999V0200901N001510075019N0500001N1+03351+01811100531ADDGF105991051021008001001001MA1999999097211MD1999999-0071REMSYN070AAXX  14184 82583 32599 50903 10335 20181 39721 40053 85200 333 59007;
0178825830999992012101500004-05167-040667FM-12+029999999V0200901N002612200019N0040001N1+03081+01641100781ADDGA1001+999999999GF100991001001999999001001KA1240M+03501MA1999999097451MD1999999-0071REMSYN082AAXX  15004 82583 32996 00905 10308 20164 39745 40078 333 10350 29047 55059 59007;
0156825830999992012101512004-05167-040667FM-12+029999999V0200901N005110075019N0500001N1+02701+01881101201ADDGF106991051011008001021001KA1240N+02341MA1999999097861MD1999999+0081REMSYN076AAXX  15124 82583 32599 60910 10270 20188 39786 40120 85120 333 20234 58008;
0137825830999992012101518004-05167-040667FM-12+029999999V0200901N002612200019N0500001N1+03431+01801100621ADDGF104991031011008001021011MA1999999097201MD1999999+0041REMSYN070AAXX  15184 82583 32599 40905 10343 20180 39720 40062 83121 333 58004;
0168825830999992012101600004-05167-040667FM-12+029999999V0201401N001512200019N0040001N1+03071+01681100831ADDGF102991021011008001001001KA1240M+03551MA1999999097501MD1999999+0051REMSYN088AAXX  16004 82583 32596 21403 10307 20168 39750 40083 82100 333 10355 29046 55070 58005;
0156825830999992012101612004-05167-040667FM-12+029999999V0200901N005110075019N0500001N1+02811+01941101201ADDGF106991061011008001001001KA1240N+02401MA1999999097861MD1999999+0001REMSYN076AAXX  16124 82583 32599 60910 10281 20194 39786 40120 86100 333 20240 58000;
0137825830999992012101618004-05167-040667FM-12+029999999V0200901N003112200019N0500001N1+03461+01821100651ADDGF103991021011008001011001MA1999999097331MD1999999+0031REMSYN070AAXX  16184 82583 32599 30906 10346 20182 39733 40065 82110 333 58003;
0197825830999992012101700004-05167-040667FM-12+029999999V0200901N004612200019N0040001N1+03701+01751100871ADDGA1001+999999999GF100991001001999999001001KA1240M+99999MA1999999097551MD1999999+0051REMSYN082AAXX  17004 82583 32996 00909 10370 20175 39755 40087 333 10359 29047 55101 58005;EQDQ01 +03592ATMX  
0156825830999992012101712004-05167-040667FM-12+029999999V0200901N006710120019N0500001N1+02791+01901101291ADDGF108991081081008001999999KA1240N+02541MA1999999097951MD1999999+0091REMSYN076AAXX  17124 82583 32599 80913 10279 20190 39795 40129 888// 333 20254 58009;
0137825830999992012101718004-05167-040667FM-12+029999999V0200901N004612200019N0500001N1+03591+01521100691ADDGF104991031011008001021011MA1999999097381MD1999999+0051REMSYN070AAXX  17184 82583 32599 40909 10359 20152 39738 40069 83121 333 58005;
0168825830999992012101800004-05167-040667FM-12+029999999V0200501N001512200019N0040001N1+03041+01371100901ADDGF101991011011008001001001KA1240M+03701MA1999999097571MD1999999+0021REMSYN088AAXX  18004 82583 32596 10503 10304 20137 39757 40090 81100 333 10370 29040 55078 58002;
0156825830999992012101812004-05167-040667FM-12+029999999V0200901N005712200019N0500001N1+02871+01671101201ADDGF102991011011008001001011KA1240N+02371MA1999999097861MD1999999-0091REMSYN076AAXX  18124 82583 32599 20911 10287 20167 39786 40120 81101 333 20237 59009;
0137825830999992012101818004-05167-040667FM-12+029999999V0201401N005712200019N0500001N1+03571+01701100611ADDGF101991011011008001001001MA1999999097301MD1999999-0081REMSYN070AAXX  18184 82583 32599 11411 10357 20170 39730 40061 81100 333 59008;
0178825830999992012101900004-05167-040667FM-12+029999999V0200901N001512200019N0040001N1+03011+01731100941ADDGA1001+999999999GF100991001001999999001001KA1240M+03621MA1999999097621MD1999999+0051REMSYN082AAXX  19004 82583 32996 00903 10301 20173 39762 40094 333 10362 29043 55109 58005;
0156825830999992012101912004-05167-040667FM-12+029999999V0200901N005110120019N0500001N1+02751+01991101191ADDGF108991081081008001999999KA1240N+02401MA1999999097851MD1999999-0011REMSYN076AAXX  19124 82583 32599 80910 10275 20199 39785 40119 888// 333 20240 59001;
0137825830999992012101918004-05167-040667FM-12+029999999V0201401N005710450019N0500001N1+03521+01831100641ADDGF105991041011008001021021MA1999999097321MD1999999+0021REMSYN070AAXX  19184 82583 32599 51411 10352 20183 39732 40064 84122 333 58002;
0168825830999992012102000004-05167-040667FM-12+029999999V0200901N002112200019N0040001N1+03031+01641100851ADDGF101991011001017501041001KA1240M+03611MA1999999097521MD1999999-0101REMSYN088AAXX  20004 82583 32796 10904 10303 20164 39752 40085 81040 333 10361 29046 55074 59010;
0156825830999992012102012004-05167-040667FM-12+029999999V0200901N001010120019N0500001N1+02611+02071101241ADDGF107991071081008001001001KA1240N+02421MA1999999097891MD1999999+0041REMSYN076AAXX  20124 82583 32599 70902 10261 20207 39789 40124 87800 333 20242 58004;
0137825830999992012102018004-05167-040667FM-12+029999999V0200901N004110450019N0500001N1+03511+01701100641ADDGF105991041011008001021011MA1999999097331MD1999999+0011REMSYN070AAXX  20184 82583 32599 50908 10351 20170 39733 40064 84121 333 58001;
0178825830999992012102100004-05167-040667FM-12+029999999V0200901N001512200019N0040001N1+02911+01571100871ADDGA1001+999999999GF100991001001999999001001KA1240M+03591MA1999999097531MD1999999+0011REMSYN082AAXX  21004 82583 32796 00903 10291 20157 39753 40087 333 10359 29048 55070 58001;
0156825830999992012102112004-05167-040667FM-12+029999999V0200901N003610120019N0500001N1+02791+02001101131ADDGF106991061081008001001001KA1240N+02331MA1999999097791MD1999999-0061REMSYN076AAXX  21124 82583 32599 60907 10279 20200 39779 40113 86800 333 20233 59006;
0137825830999992012102118004-05167-040667FM-12+029999999V0200901N003612200019N0500001N1+03511+01741100511ADDGF101991011011008001001001MA1999999097201MD1999999-0131REMSYN070AAXX  21184 82583 32599 10907 10351 20174 39720 40051 81100 333 59013;
0178825830999992012102200004-05167-040667FM-12+029999999V0200901N003612200019N0040001N1+03011+01471100771ADDGA1001+999999999GF100991001001999999001001KA1240M+03581MA1999999097441MD1999999-0091REMSYN082AAXX  22004 82583 32596 00907 10301 20147 39744 40077 333 10358 29048 55099 59009;
0156825830999992012102212004-05167-040667FM-12+029999999V0200501N004110075019N0500001N1+02811+02001101061ADDGF106991061021008001001001KA1240N+02261MA1999999097721MD1999999-0071REMSYN076AAXX  22124 82583 32599 60508 10281 20200 39772 40106 86200 333 20226 59007;
0137825830999992012102218004-05167-040667FM-12+029999999V0200501N003612200019N0500001N1+03551+01731100541ADDGF104991041011008001001001MA1999999097231MD1999999+0031REMSYN070AAXX  22184 82583 32599 40507 10355 20173 39723 40054 84100 333 58003;
0178825830999992012102300004-05167-040667FM-12+029999999V0200901N002612200019N0040001N1+03041+01701100801ADDGA1001+999999999GF100991001001999999001001KA1240M+03611MA1999999097471MD1999999+0031REMSYN082AAXX  23004 82583 32996 00905 10304 20170 39747 40080 333 10361 29046 55090 58003;
0156825830999992012102312004-05167-040667FM-12+029999999V0200901N004612200019N0500001N1+02901+01991101021ADDGF102991021011008001001001KA1240N+02381MA1999999097691MD1999999-0031REMSYN076AAXX  23124 82583 32599 20909 10290 20199 39769 40102 82100 333 20238 59003;
0137825830999992012102318004-05167-040667FM-12+029999999V0200501N003612200019N0500001N1+03691+01431100531ADDGF101991011011008001021001MA1999999097231MD1999999+0001REMSYN070AAXX  23184 82583 32599 10507 10369 20143 39723 40053 81120 333 58000;
0178825830999992012102400004-05167-040667FM-12+029999999V0200901N003112200019N0040001N1+03091+01281100771ADDGA1001+999999999GF100991001001999999001001KA1240M+03771MA1999999097451MD1999999-0021REMSYN082AAXX  24004 82583 32996 00906 10309 20128 39745 40077 333 10377 29038 55106 59002;
0156825830999992012102412004-05167-040667FM-12+029999999V0200901N005112200019N0500001N1+02871+01831101061ADDGF101991011011008001001001KA1240N+02191MA1999999097741MD1999999+0051REMSYN076AAXX  24124 82583 32599 10910 10287 20183 39774 40106 81100 333 20219 58005;
0147825830999992012102418004-05167-040667FM-12+029999999V0200901N004112200019N0500001N1+03621+01701100581ADDGA1001+999999999GF100991001001999999001001MA1999999097261MD1999999+0001REMSYN064AAXX  24184 82583 32999 00908 10362 20170 39726 40058 333 58000;
0178825830999992012102500004-05167-040667FM-12+029999999V0200901N002112200019N0040001N1+03091+01621100761ADDGA1001+999999999GF100991001001999999001001KA1240M+03741MA1999999097441MD1999999-0011REMSYN082AAXX  25004 82583 32996 00904 10309 20162 39744 40076 333 10374 29042 55114 59001;
0156825830999992012102512004-05167-040667FM-12+029999999V0200901N004610075019N0500001N1+02791+01921101091ADDGF106991061011008001001001KA1240N+02401MA1999999097751MD1999999+0011REMSYN076AAXX  25124 82583 32599 60909 10279 20192 39775 40109 86100 333 20240 58001;
0137825830999992012102518004-05167-040667FM-12+029999999V0200901N004112200019N0500001N1+03671+01641100441ADDGF102991011011008001001011MA1999999097141MD1999999-0121REMSYN070AAXX  25184 82583 32599 20908 10367 20164 39714 40044 81101 333 59012;
0168825830999992012102600004-05167-040667FM-12+029999999V0200901N003112200019N0040001N1+03131+01501100771ADDGF101991001001999999001011KA1240M+03711MA1999999097451MD1999999+0011REMSYN088AAXX  26004 82583 32996 10906 10313 20150 39745 40077 80001 333 10371 29041 55091 58001;
0156825830999992012102612004-05167-040667FM-12+029999999V0200901N006712200019N0500001N1+02971+01831101091ADDGF101991011011008001001001KA1240N+02491MA1999999097751MD1999999+0001REMSYN076AAXX  26124 82583 32599 10913 10297 20183 39775 40109 81100 333 20249 58000;
0137825830999992012102618004-05167-040667FM-12+029999999V0201401N002112200019N0500001N1+03571+01501100561ADDGF102991021011008001001001MA1999999097251MD1999999+0111REMSYN070AAXX  26184 82583 32599 21404 10357 20150 39725 40056 82100 333 58011;
0178825830999992012102700004-05167-040667FM-12+029999999V0200901N004612200019N0040001N1+03111+01441100841ADDGA1001+999999999GF100991001001999999001001KA1240M+03671MA1999999097521MD1999999+0071REMSYN082AAXX  27004 82583 32996 00909 10311 20144 39752 40084 333 10367 29039 55111 58007;
0156825830999992012102712004-05167-040667FM-12+029999999V0201401N003610075019N0500001N1+02841+01991101241ADDGF106991061011008001001001KA1240N+02441MA1999999097911MD1999999+0161REMSYN076AAXX  27124 82583 32599 61407 10284 20199 39791 40124 86100 333 20244 58016;
0137825830999992012102718004-05167-040667FM-12+029999999V0200901N004610075019N0500001N1+03561+01641100661ADDGF106991061021008001001001MA1999999097341MD1999999+0091REMSYN070AAXX  27184 82583 32599 60909 10356 20164 39734 40066 86200 333 58009;
0168825830999992012102800004-05167-040667FM-12+029999999V0200901N001512200019N0040001N1+03061+01551100901ADDGF101991011011008001001001KA1240M+03671MA1999999097581MD1999999+0061REMSYN088AAXX  28004 82583 32596 10903 10306 20155 39758 40090 81100 333 10367 29043 55088 58006;
0156825830999992012102812004-05167-040667FM-12+029999999V0200901N003610120019N0500001N1+02791+02031101251ADDGF106991061081008001001001KA1240N+02491MA1999999097911MD1999999+0001REMSYN076AAXX  28124 82583 32599 60907 10279 20203 39791 40125 86800 333 20249 58000;
0137825830999992012102818004-05167-040667FM-12+029999999V0200901N005110075019N0500001N1+03501+01771100681ADDGF105991051021008001001001MA1999999097361MD1999999+0021REMSYN070AAXX  28184 82583 32599 50910 10350 20177 39736 40068 85200 333 58002;
0178825830999992012102900004-05167-040667FM-12+029999999V0200501N002612200019N0040001N1+03071+01711100841ADDGA1001+999999999GF100991001001999999001001KA1240M+03581MA1999999097521MD1999999-0061REMSYN082AAXX  29004 82583 32996 00505 10307 20171 39752 40084 333 10358 29047 55086 59006;
0156825830999992012102912004-05167-040667FM-12+029999999V0200501N003110075019N0500001N1+02871+02031101321ADDGF106991061021008001001001KA1240N+02401MA1999999097981MD1999999+0071REMSYN076AAXX  29124 82583 32599 60506 10287 20203 39798 40132 86200 333 20240 58007;
0137825830999992012102918004-05167-040667FM-12+029999999V0201401N002112200019N0500001N1+03501+01721100831ADDGF104991041011008001001001MA1999999097511MD1999999+0151REMSYN070AAXX  29184 82583 32599 41404 10350 20172 39751 40083 84100 333 58015;
0178825830999992012103000004-05167-040667FM-12+029999999V0200901N002612200019N0040001N1+03061+01661100991ADDGA1001+999999999GF100991001001999999001001KA1240M+03631MA1999999097651MD1999999+0131REMSYN082AAXX  30004 82583 32996 00905 10306 20166 39765 40099 333 10363 29045 55098 58013;
0156825830999992012103012004-05167-040667FM-12+029999999V0200901N002610075019N0500001N1+02581+01941101291ADDGF108991081051008001999999KA1240N+02321MA1999999097941MD1999999-0041REMSYN076AAXX  30124 82583 32599 80905 10258 20194 39794 40129 885// 333 20232 59004;
0137825830999992012103018004-05167-040667FM-12+029999999V0200901N002112200019N0500001N1+03491+01771100751ADDGF103991031011008001001001MA1999999097421MD1999999-0091REMSYN070AAXX  30184 82583 32599 30904 10349 20177 39742 40075 83100 333 59009;
0168825830999992012103100004-05167-040667FM-12+029999999V0203601N001512200019N0040001N1+03081+01751101041ADDGF103991021011008001021001KA1240M+03611MA1999999097701MD1999999+0051REMSYN088AAXX  31004 82583 32596 33603 10308 20175 39770 40104 82120 333 10361 29048 55068 58005;
0156825830999992012103112004-05167-040667FM-12+029999999V0200901N002112200019N0500001N1+02711+02001101091ADDGF101991011011008001001001KA1240N+02321MA1999999097751MD1999999-0191REMSYN076AAXX  31124 82583 32599 10904 10271 20200 39775 40109 81100 333 20232 59019;
0137825830999992012103118004-05167-040667FM-12+029999999V0200501N001012200019N0500001N1+03681+01691100391ADDGF102991021011008001001001MA1999999097091MD1999999-0331REMSYN070AAXX  31184 82583 32599 20502 10368 20169 39709 40039 82100 333 59033;
0178825830999992012110100004-05167-040667FM-12+029999999V0203601N003612200019N0040001N1+03231+01671100571ADDGA1001+999999999GF100991001001999999001001KA1240M+03831MA1999999097251MD1999999-0451REMSYN082AAXX  01004 82583 32996 03607 10323 20167 39725 40057 333 10383 29044 55091 59045;
0156825830999992012110112004-05167-040667FM-12+029999999V0200501N004112200019N0500001N1+02901+01871101051ADDGF103991021011008001031001KA1240N+02491MA1999999097731MD1999999-0021REMSYN076AAXX  01124 82583 32599 30508 10290 20187 39773 40105 82130 333 20249 59002;
0168825830999992012110200004-05167-040667FM-12+029999999V0203201N004610120019N0500001N1+02791+02151101021ADDGF107991071081008001999999KA1240M+03691MA1999999097681MD1999999+0431REMSYN088AAXX  02004 82583 32599 73209 10279 20215 39768 40102 878// 333 10369 29056 55094 58043;
0220825830999992012110212004-05167-040667FM-12+029999999V0201401N002112200019N0500001N1+02811+01861101261ADDAA124000091AY151061AY251061GF103991021011008001011001KA1240N+02381MA1999999097911MD1999999+0181MW1031REMSYN088AAXX  02124 82583 21599 31404 10281 20186 39791 40126 70355 82110 333 20238 58018 69914;EQDQ01  00002PRCP24
0168825830999992012110300004-05167-040667FM-12+029999999V0203601N002612200019N0040001N1+02731+02101101101ADDGF102991021001017501021001KA1240M+03741MA1999999097751MD1999999+0071REMSYN088AAXX  03004 82583 32796 23605 10273 20210 39775 40110 82020 333 10374 29056 55106 58007;
0156825830999992012110312004-05167-040667FM-12+029999999V0200901N004610150019N0500001N1+02831+01911101311ADDGF106991061001017501021021KA1240N+02301MA1999999097951MD1999999+0041REMSYN076AAXX  03124 82583 32799 60909 10283 20191 39795 40131 86022 333 20230 58004;
0178825830999992012110400004-05167-040667FM-12+029999999V0200501N003112200019N0040001N1+03071+01711101001ADDGA1001+999999999GF100991001001999999001001KA1240M+03561MA1999999097671MD1999999-0081REMSYN082AAXX  04004 82583 32996 00506 10307 20171 39767 40100 333 10356 29044 55071 59008;
0156825830999992012110412004-05167-040667FM-12+029999999V0200501N001512200019N0500001N1+02901+01931101041ADDGF102991011011008001011001KA1240N+02351MA1999999097721MD1999999-0231REMSYN076AAXX  04124 82583 32599 20503 10290 20193 39772 40104 81110 333 20235 59023;
0168825830999992012110500004-05167-040667FM-12+029999999V0203601N002612200019N0040001N1+03251+01951100811ADDGF101991011011008001001001KA1240M+03791MA1999999097501MD1999999-0171REMSYN088AAXX  05004 82583 32596 13605 10325 20195 39750 40081 81100 333 10379 29044 55101 59017;
0156825830999992012110512004-05167-040667FM-12+029999999V0200901N004110075019N0500001N1+02651+02021101151ADDGF108991081051008001999999KA1240N+02341MA1999999097811MD1999999+0091REMSYN076AAXX  05124 82583 32599 80908 10265 20202 39781 40115 885// 333 20234 58009;
0178825830999992012110600004-05167-040667FM-12+029999999V0200901N002112200019N0040001N1+03131+01581100741ADDGA1001+999999999GF100991001001999999001001KA1240M+03601MA1999999097411MD1999999-0091REMSYN082AAXX  06004 82583 32996 00904 10313 20158 39741 40074 333 10360 29047 55065 59009;
0156825830999992012110612004-05167-040667FM-12+029999999V0200901N004612200019N0500001N1+02821+01891101131ADDGF104991041011008001001001KA1240N+02331MA1999999097801MD1999999-0011REMSYN076AAXX  06124 82583 32599 40909 10282 20189 39780 40113 84100 333 20233 59001;
0168825830999992012110700004-05167-040667FM-12+029999999V0200501N003112200019N0040001N1+03001+01911100941ADDGF101991011011008001001001KA1240M+03701MA1999999097611MD1999999+0201REMSYN088AAXX  07004 82583 32596 10506 10300 20191 39761 40094 81100 333 10370 29049 55103 58020;
0156825830999992012110712004-05167-040667FM-12+029999999V0200901N005112200019N0500001N1+02851+01781101171ADDGF101991011011008001001001KA1240N+02371MA1999999097831MD1999999+0031REMSYN076AAXX  07124 82583 32599 10910 10285 20178 39783 40117 81100 333 20237 58003;
0178825830999992012110800004-05167-040667FM-12+029999999V0200901N004112200019N0040001N1+03151+01551100781ADDGA1001+999999999GF100991001001999999001001KA1240M+03661MA1999999097461MD1999999-0151REMSYN082AAXX  08004 82583 32996 00908 10315 20155 39746 40078 333 10366 29040 55100 59015;
0156825830999992012110812004-05167-040667FM-12+029999999V0200901N004610120019N0500001N1+02511+02021101131ADDGF108991081081008001999999KA1240N+02411MA1999999097791MD1999999-0041REMSYN076AAXX  08124 82583 32599 80909 10251 20202 39779 40113 888// 333 20241 59004;
0168825830999992012110900004-05167-040667FM-12+029999999V0200901N003112200019N0040001N1+03131+01501100711ADDGF101991011011008001001001KA1240M+03551MA1999999097371MD1999999-0061REMSYN088AAXX  09004 82583 32596 10906 10313 20150 39737 40071 81100 333 10355 29046 55067 59006;
0156825830999992012110912004-05167-040667FM-12+029999999V0200901N005710075019N0500001N1+02851+01781100881ADDGF105991051011008001001001KA1240N+02401MA1999999097561MD1999999-0231REMSYN076AAXX  09124 82583 32599 50911 10285 20178 39756 40088 85100 333 20240 59023;
0178825830999992012111000004-05167-040667FM-12+029999999V0200901N002112200019N0040001N1+02911+01771100721ADDGA1001+999999999GF100991001001999999001001KA1240M+03491MA1999999097391MD1999999+0021REMSYN082AAXX  10004 82583 32996 00904 10291 20177 39739 40072 333 10349 29048 55103 58002;
0156825830999992012111012004-05167-040667FM-12+029999999V0200901N004610075019N0500001N1+02641+01881101081ADDGF106991061011008001001001KA1240N+02371MA1999999097731MD1999999+0171REMSYN076AAXX  10124 82583 32599 60909 10264 20188 39773 40108 86100 333 20237 58017;
0178825830999992012111100004-05167-040667FM-12+029999999V0200901N002112200019N0040001N1+03051+01621100811ADDGA1001+999999999GF100991001001999999001001KA1240M+03541MA1999999097471MD1999999+0081REMSYN082AAXX  11004 82583 32996 00904 10305 20162 39747 40081 333 10354 29046 55074 58008;
0156825830999992012111112004-05167-040667FM-12+029999999V0200901N005112200019N0500001N1+02841+01501101151ADDGF103991031001017501021001KA1240N+02361MA1999999097811MD1999999+0081REMSYN076AAXX  11124 82583 32799 30910 10284 20150 39781 40115 83020 333 20236 58008;
0178825830999992012111200004-05167-040667FM-12+029999999V0200901N005112200019N0040001N1+03091+01431100811ADDGA1001+999999999GF100991001001999999001001KA1240M+03681MA1999999097491MD1999999+0021REMSYN082AAXX  12004 82583 32996 00910 10309 20143 39749 40081 333 10368 29038 55108 58002;
0156825830999992012111212004-05167-040667FM-12+029999999V0200901N006710075019N0500001N1+02811+01801101231ADDGF105991051011008001001001KA1240N+02341MA1999999097891MD1999999+0081REMSYN076AAXX  12124 82583 32599 50913 10281 20180 39789 40123 85100 333 20234 58008;
0178825830999992012111300004-05167-040667FM-12+029999999V0200901N002112200019N0040001N1+03091+01421100811ADDGA1001+999999999GF100991001001999999001001KA1240M+03191MA1999999097491MD1999999+0001REMSYN082AAXX  13004 82583 32996 00904 10309 20142 39749 40081 333 10319 29040 55086 58000;
0156825830999992012111312004-05167-040667FM-12+029999999V0200901N004610075019N0500001N1+02731+01921101191ADDGF106991061011008001001001KA1240N+02371MA1999999097851MD1999999-0041REMSYN076AAXX  13124 82583 32599 60909 10273 20192 39785 40119 86100 333 20237 59004;
0178825830999992012111400004-05167-040667FM-12+029999999V0200901N002612200019N0040001N1+03061+01421100751ADDGA1001+999999999GF100991001001999999001001KA1240M+03631MA1999999097421MD1999999-0071REMSYN082AAXX  14004 82583 32996 00905 10306 20142 39742 40075 333 10363 29043 55081 59007;
0156825830999992012111412004-05167-040667FM-12+029999999V0200901N004610075019N0500001N1+02721+01851101191ADDGF106991061011008001001001KA1240N+02331MA1999999097851MD1999999+0001REMSYN076AAXX  14124 82583 32599 60909 10272 20185 39785 40119 86100 333 20233 58000;
0168825830999992012111500004-05167-040667FM-12+029999999V0200501N003112200019N0040001N1+03281+01821100821ADDGF102991021011008001001001KA1240M+03661MA1999999097501MD1999999+0081REMSYN088AAXX  15004 82583 32596 20506 10328 20182 39750 40082 82100 333 10366 29045 55080 58008;
0156825830999992012111512004-05167-040667FM-12+029999999V0200901N003610075019N0500001N1+02571+01991101141ADDGF108991081051008001999999KA1240N+02361MA1999999097801MD1999999-0051REMSYN076AAXX  15124 82583 32599 80907 10257 20199 39780 40114 885// 333 20236 59005;
0156825830999992012111612004-05167-040667FM-12+029999999V0200901N004612200019N0500001N1+02851+01921101111ADDGF101991011011008001001001KA1240N+02291MA1999999097771MD1999999-0031REMSYN076AAXX  16124 82583 32599 10909 10285 20192 39777 40111 81100 333 20229 59003;
0137825830999992012111618004-05167-040667FM-12+029999999V0201401N002612200019N0500001N1+03641+01381100591ADDGF102991011011008001001011MA1999999097271MD1999999-0011REMSYN070AAXX  16184 82583 32599 21405 10364 20138 39727 40059 81101 333 59001;
0178825830999992012111700004-05167-040667FM-12+029999999V0200901N002112200019N0040001N1+03041+01041100841ADDGA1001+999999999GF100991001001999999001001KA1240M+03741MA1999999097521MD1999999-0011REMSYN082AAXX  17004 82583 32996 00904 10304 20104 39752 40084 333 10374 29035 55101 59001;
0156825830999992012111712004-05167-040667FM-12+029999999V0200901N005712200019N0500001N1+02901+01841101221ADDGF103991031011008001001001KA1240N+02331MA1999999097891MD1999999+0121REMSYN076AAXX  17124 82583 32599 30911 10290 20184 39789 40122 83100 333 20233 58012;
0137825830999992012111718004-05167-040667FM-12+029999999V0201401N004612200019N0500001N1+03691+01111100671ADDGF102991021011008001001001MA1999999097361MD1999999+0091REMSYN070AAXX  17184 82583 32599 21409 10369 20111 39736 40067 82100 333 58009;
0178825830999992012111800004-05167-040667FM-12+029999999V0201401N000512200019N0040001N1+03041+01451100951ADDGA1001+999999999GF100991001001999999001001KA1240M+03771MA1999999097631MD1999999+0111REMSYN082AAXX  18004 82583 32996 01401 10304 20145 39763 40095 333 10377 29038 55100 58011;
0156825830999992012111812004-05167-040667FM-12+029999999V0200901N004610075019N0040001N1+02831+01931101231ADDGF106991061021008001001001KA1240N+02361MA1999999097891MD1999999+0001REMSYN076AAXX  18124 82583 32596 60909 10283 20193 39789 40123 86200 333 20236 58000;
0137825830999992012111818004-05167-040667FM-12+029999999V0201401N004612200019N0500001N1+03541+01711100681ADDGF103991021011008001001021MA1999999097341MD1999999-0021REMSYN070AAXX  18184 82583 32599 31409 10354 20171 39734 40068 82102 333 59002;
0168825830999992012111900004-05167-040667FM-12+029999999V0200901N002112200019N0040001N1+03071+01701100911ADDGF101991001001999999001011KA1240M+03671MA1999999097591MD1999999-0041REMSYN088AAXX  19004 82583 32996 10904 10307 20170 39759 40091 80001 333 10367 29044 55106 59004;
0156825830999992012111912004-05167-040667FM-12+029999999V0201401N004610120019N0500001N1+02901+01901101181ADDGF107991071081008001001001KA1240N+02401MA1999999097851MD1999999-0041REMSYN076AAXX  19124 82583 32599 71409 10290 20190 39785 40118 87800 333 20240 59004;
0137825830999992012111918004-05167-040667FM-12+029999999V0200901N005712200019N0500001N1+03691+01311100591ADDGF102991021011008001001001MA1999999097291MD1999999-0051REMSYN070AAXX  19184 82583 32599 20911 10369 20131 39729 40059 82100 333 59005;
0168825830999992012112000004-05167-040667FM-12+029999999V0200901N002112200019N0040001N1+03171+01351100831ADDGF102991021001017501031001KA1240M+03741MA1999999097511MD1999999-0081REMSYN088AAXX  20004 82583 32796 20904 10317 20135 39751 40083 82030 333 10374 29036 55106 59008;
0156825830999992012112012004-05167-040667FM-12+029999999V0200901N006712200019N0500001N1+02991+01941101051ADDGF101991011011008001001011KA1240N+02491MA1999999097741MD1999999-0111REMSYN076AAXX  20124 82583 32599 10913 10299 20194 39774 40105 81101 333 20249 59011;
0137825830999992012112018004-05167-040667FM-12+029999999V0200901N006212200019N0500001N1+03691+01551100551ADDGF101991011011008001001001MA1999999097251MD1999999-0041REMSYN070AAXX  20184 82583 32599 10912 10369 20155 39725 40055 81100 333 59004;
0178825830999992012112100004-05167-040667FM-12+029999999V0200901N003112200019N0040001N1+03131+01411100751ADDGA1001+999999999GF100991001001999999001001KA1240M+03751MA1999999097441MD1999999-0071REMSYN082AAXX  21004 82583 32996 00906 10313 20141 39744 40075 333 10375 29038 55108 59007;
0156825830999992012112112004-05167-040667FM-12+029999999V0200901N006212200019N0500001N1+02861+01841101101ADDGF102991021011008001001001KA1240N+02431MA1999999097771MD1999999+0031REMSYN076AAXX  21124 82583 32599 20912 10286 20184 39777 40110 82100 333 20243 58003;
0137825830999992012112118004-05167-040667FM-12+029999999V0200901N005712200019N0500001N1+03591+01521100651ADDGF104991041011008001001001MA1999999097341MD1999999+0091REMSYN070AAXX  21184 82583 32599 40911 10359 20152 39734 40065 84100 333 58009;
0168825830999992012112200004-05167-040667FM-12+029999999V0200501N002112200019N0040001N1+03131+01661100911ADDGF104991041001017501051001KA1240M+03671MA1999999097591MD1999999+0151REMSYN088AAXX  22004 82583 32796 40504 10313 20166 39759 40091 84050 333 10367 29041 55095 58015;
0156825830999992012112212004-05167-040667FM-12+029999999V0200901N005112200019N0040001N1+02801+01951101091ADDGF102991011011008001001011KA1240N+02361MA1999999097751MD1999999-0021REMSYN076AAXX  22124 82583 32596 20910 10280 20195 39775 40109 81101 333 20236 59002;
0137825830999992012112218004-05167-040667FM-12+029999999V0201401N003612200019N0500001N1+03631+01501100661ADDGF103991031011008001001001MA1999999097341MD1999999+0001REMSYN070AAXX  22184 82583 32599 31407 10363 20150 39734 40066 83100 333 58000;
0168825830999992012112300004-05167-040667FM-12+029999999V0200901N004112200019N0040001N1+03171+01531100771ADDGF102991021011008001001001KA1240M+03731MA1999999097451MD1999999-0141REMSYN088AAXX  23004 82583 32596 20908 10317 20153 39745 40077 82100 333 10373 29040 55117 59014;
0156825830999992012112312004-05167-040667FM-12+029999999V0200901N004612200019N0500001N1+02851+01981101091ADDGF102991011011008001001011KA1240N+02421MA1999999097761MD1999999+0011REMSYN076AAXX  23124 82583 32599 20909 10285 20198 39776 40109 81101 333 20242 58001;
0156825830999992012112318004-05167-040667FM-12+029999999V0201401N002619999999N0040001N1+03641+01851100501ADDGF106991999021008001001001MA1999999097191MD1999999-0151REMSYN070AAXX  23184 82583 32596 61405 10364 20185 39719 40050 84200 333 59015;EQDQ01+000042SCOTLC
0168825830999992012112400004-05167-040667FM-12+029999999V0200901N003112200019N0040001N1+03221+01571100701ADDGF104991031001017501021011KA1240M+03721MA1999999097391MD1999999-0061REMSYN088AAXX  24004 82583 32796 40906 10322 20157 39739 40070 83021 333 10372 29042 55096 59006;
0156825830999992012112412004-05167-040667FM-12+029999999V0200901N004610120019N0500001N1+02721+02031101171ADDGF108991081081008001999999KA1240N+02481MA1999999097831MD1999999+0071REMSYN076AAXX  24124 82583 32599 80909 10272 20203 39783 40117 888// 333 20248 58007;
0137825830999992012112418004-05167-040667FM-12+029999999V0200901N003112200019N0040001N1+03341+02481100601ADDGF103991031021999999001001MA1999999097281MD1999999+0091REMSYN070AAXX  24184 82583 32996 30906 10334 20248 39728 40060 83200 333 58009;
0168825830999992012112500004-05167-040667FM-12+029999999V0200501N002112200019N0040001N1+03241+02331100831ADDGF104991041051008001001001KA1240M+03541MA1999999097511MD1999999+0121REMSYN088AAXX  25004 82583 32596 40504 10324 20233 39751 40083 84500 333 10354 29061 55054 58012;
0156825830999992012112512004-05167-040667FM-12+029999999V0200901N004610075019N0500001N1+02811+02271101201ADDGF106991061011008001001001KA1240N+02431MA1999999097871MD1999999+0041REMSYN076AAXX  25124 82583 32599 60909 10281 20227 39787 40120 86100 333 20243 58004;
0137825830999992012112518004-05167-040667FM-12+029999999V0200501N002110450019N0500001N1+03391+02341100711ADDGF105991041011008001041001MA1999999097381MD1999999+0101REMSYN070AAXX  25184 82583 32599 50504 10339 20234 39738 40071 84140 333 58010;
0168825830999992012112600004-05167-040667FM-12+029999999V0203601N004610075019N0040001N1+03081+02241100911ADDGF105991051011008001001001KA1240M+03491MA1999999097591MD1999999+0081REMSYN088AAXX  26004 82583 32596 53609 10308 20224 39759 40091 85100 333 10349 29062 55064 58008;
0156825830999992012112612004-05167-040667FM-12+029999999V0200501N002110075019N0500001N1+02761+01991101131ADDGF107991071021008001001001KA1240N+02351MA1999999097781MD1999999-0091REMSYN076AAXX  26124 82583 32599 70504 10276 20199 39778 40113 87200 333 20235 59009;
0156825830999992012112618004-05167-040667FM-12+029999999V0200901N002119999999N0500001N1+03481+01521100621ADDGF105991999021008001001001MA1999999097301MD1999999-0081REMSYN070AAXX  26184 82583 32599 50904 10348 20152 39730 40062 84200 333 59008;EQDQ01+000042SCOTLC
0168825830999992012112700004-05167-040667FM-12+029999999V0200901N002112200019N0040001N1+03111+01601100841ADDGF101991011011008001001001KA1240M+03571MA1999999097521MD1999999-0071REMSYN088AAXX  27004 82583 32596 10904 10311 20160 39752 40084 81100 333 10357 29044 55075 59007;
0156825830999992012112712004-05167-040667FM-12+029999999V0200901N005110075019N0500001N1+02771+01911101111ADDGF106991051021008001031001KA1240N+02481MA1999999097771MD1999999+0011REMSYN076AAXX  27124 82583 32599 60910 10277 20191 39777 40111 85230 333 20248 58001;
0137825830999992012112718004-05167-040667FM-12+029999999V0200901N003110075019N0500001N1+03451+01601100541ADDGF106991051011008001031011MA1999999097231MD1999999-0071REMSYN070AAXX  27184 82583 32599 60906 10345 20160 39723 40054 85131 333 59007;
0168825830999992012112800004-05167-040667FM-12+029999999V0200901N002112200019N0040001N1+03131+01621100651ADDGF101991011001017501011001KA1240M+03571MA1999999097331MD1999999-0191REMSYN088AAXX  28004 82583 32796 10904 10313 20162 39733 40065 81010 333 10357 29043 55060 59019;
0156825830999992012112812004-05167-040667FM-12+029999999V0200501N005110120019N0500001N1+02721+01951101011ADDGF108991081081008001999999KA1240N+02431MA1999999097671MD1999999-0101REMSYN076AAXX  28124 82583 32599 80510 10272 20195 39767 40101 888// 333 20243 59010;
0137825830999992012112818004-05167-040667FM-12+029999999V0200901N003110075019N0500001N1+03491+01771100521ADDGF106991051011008001031001MA1999999097211MD1999999-0021REMSYN070AAXX  28184 82583 32599 60906 10349 20177 39721 40052 85130 333 59002;
0168825830999992012112900004-05167-040667FM-12+029999999V0200901N003112200019N0040001N1+03191+01711100721ADDGF104991031011008001031001KA1240M+03551MA1999999097401MD1999999+0071REMSYN088AAXX  29004 82583 32596 40906 10319 20171 39740 40072 83130 333 10355 29045 55055 58007;
0156825830999992012112912004-05167-040667FM-12+029999999V0200501N005110120019N0500001N1+02721+02031101121ADDGF106991051081008001031001KA1240N+02501MA1999999097781MD1999999+0111REMSYN076AAXX  29124 82583 32599 60510 10272 20203 39778 40112 85830 333 20250 58011;
0137825830999992012112918004-05167-040667FM-12+029999999V0200901N003110075019N0500001N1+03291+01911100591ADDGF106991061051008001001001MA1999999097271MD1999999+0061REMSYN070AAXX  29184 82583 32599 60906 10329 20191 39727 40059 86500 333 58006;
0168825830999992012113000004-05167-040667FM-12+029999999V0200901N002610075019N0040001N1+03081+01921100751ADDGF106991061051008001001001KA1240M+03361MA1999999097421MD1999999+0021REMSYN088AAXX  30004 82583 32596 60905 10308 20192 39742 40075 86500 333 10336 29052 55036 58002;
0156825830999992012113012004-05167-040667FM-12+029999999V0200501N006210075019N0500001N1+02691+02031101031ADDGF108991081051008001999999KA1240N+02491MA1999999097691MD1999999-0091REMSYN076AAXX  30124 82583 32599 80512 10269 20203 39769 40103 885// 333 20249 59009;
0137825830999992012113018004-05167-040667FM-12+029999999V0200501N003110075019N0500001N1+03081+02011100731ADDGF107991071051008001999999MA1999999097391MD1999999+0121REMSYN070AAXX  30184 82583 32599 70506 10308 20201 39739 40073 875// 333 58012;
0168825830999992012120100004-05167-040667FM-12+029999999V0203601N001012200019N0040001N1+02781+02161100871ADDGF102991021011008001051001KA1240M+03271MA1999999097531MD1999999+0111REMSYN088AAXX  01004 82583 32596 23602 10278 20216 39753 40087 82150 333 10327 29064 55002 58011;
0156825830999992012120112004-05167-040667FM-12+029999999V0200901N004610075019N0500001N1+02791+02001101061ADDGF106991051021008001031001KA1240N+02451MA1999999097711MD1999999+0021REMSYN076AAXX  01124 82583 32599 60909 10279 20200 39771 40106 85230 333 20245 58002;
0137825830999992012120118004-05167-040667FM-12+029999999V0200901N004610120019N0500001N1+03291+01801100631ADDGF108991081081008001999999MA1999999097311MD1999999-0081REMSYN070AAXX  01184 82583 32599 80909 10329 20180 39731 40063 888// 333 59008;
0168825830999992012120200004-05167-040667FM-12+029999999V0200501N001512200019N0040001N1+02971+01941100761ADDGF103991031011008001001001KA1240M+03391MA1999999097431MD1999999-0101REMSYN088AAXX  02004 82583 32596 30503 10297 20194 39743 40076 83100 333 10339 29052 55039 59010;
0156825830999992012120212004-05167-040667FM-12+029999999V0200901N005110120019N0500001N1+02771+02011101051ADDGF108991081081008001999999KA1240N+02391MA1999999097711MD1999999+0001REMSYN076AAXX  02124 82583 32599 80910 10277 20201 39771 40105 888// 333 20239 58000;
0137825830999992012120218004-05167-040667FM-12+029999999V0200901N004112200019N0500001N1+03411+01871100581ADDGF103991031011008001001001MA1999999097261MD1999999-0051REMSYN070AAXX  02184 82583 32599 30908 10341 20187 39726 40058 83100 333 59005;
0178825830999992012120300004-05167-040667FM-12+029999999V0200901N001512200019N0040001N1+03021+01801100711ADDGA1001+999999999GF100991001001999999001001KA1240M+03471MA1999999097381MD1999999-0051REMSYN082AAXX  03004 82583 32996 00903 10302 20180 39738 40071 333 10347 29050 55074 59005;
0156825830999992012120312004-05167-040667FM-12+029999999V0200901N005710120019N0500001N1+02701+02061101101ADDGF108991081081008001999999KA1240N+02461MA1999999097761MD1999999+0051REMSYN076AAXX  03124 82583 32599 80911 10270 20206 39776 40110 888// 333 20246 58005;
0137825830999992012120318004-05167-040667FM-12+029999999V0200501N002110075019N0500001N1+03471+01881100711ADDGF105991051021008001001001MA1999999097391MD1999999+0131REMSYN070AAXX  03184 82583 32599 50504 10347 20188 39739 40071 85200 333 58013;
0178825830999992012120400004-05167-040667FM-12+029999999V0200901N002612200019N0040001N1+03011+01861101031ADDGA1001+999999999GF100991001001999999001001KA1240M+03591MA1999999097691MD1999999+0311REMSYN082AAXX  04004 82583 32996 00905 10301 20186 39769 40103 333 10359 29052 55058 58031;
0156825830999992012120412004-05167-040667FM-12+029999999V0200901N004610075019N0500001N1+02671+01991101281ADDGF108991081051008001999999KA1240N+02501MA1999999097941MD1999999+0181REMSYN076AAXX  04124 82583 32599 80909 10267 20199 39794 40128 885// 333 20250 58018;
0137825830999992012120418004-05167-040667FM-12+029999999V0201801N002110450019N0500001N1+03391+01931100811ADDGF105991041011008001021021MA1999999097491MD1999999+0101REMSYN070AAXX  04184 82583 32599 51804 10339 20193 39749 40081 84122 333 58010;
0178825830999992012120500004-05167-040667FM-12+029999999V0200901N001512200019N0040001N1+02971+01691100991ADDGA1001+999999999GF100991001001999999001001KA1240M+03521MA1999999097651MD1999999-0041REMSYN082AAXX  05004 82583 32996 00903 10297 20169 39765 40099 333 10352 29050 55044 59004;
0156825830999992012120512004-05167-040667FM-12+029999999V0200901N006712200019N0500001N1+02931+01971101101ADDGF105991041011008001001011KA1240N+02451MA1999999097761MD1999999-0181REMSYN076AAXX  05124 82583 32599 50913 10293 20197 39776 40110 84101 333 20245 59018;
0137825830999992012120518004-05167-040667FM-12+029999999V0201401N003610075019N0500001N1+03421+01871100631ADDGF106991061011008001001001MA1999999097311MD1999999-0181REMSYN070AAXX  05184 82583 32599 61407 10342 20187 39731 40063 86100 333 59018;
0168825830999992012120600004-05167-040667FM-12+029999999V0201401N002610075019N0040001N1+03151+01891100761ADDGF106991061051008001001001KA1240M+03551MA1999999097401MD1999999-0251REMSYN088AAXX  06004 82583 32596 61405 10315 20189 39740 40076 86500 333 10355 29048 55073 59025;
0156825830999992012120612004-05167-040667FM-12+029999999V0200901N005110120019N0500001N1+02771+02011101021ADDGF107991061081008001001011KA1240N+02521MA1999999097691MD1999999-0071REMSYN076AAXX  06124 82583 32599 70910 10277 20201 39769 40102 86801 333 20252 59007;
0137825830999992012120618004-05167-040667FM-12+029999999V0200901N002610075019N0500001N1+03331+01831100581ADDGF106991061021008001001001MA1999999097261MD1999999-0051REMSYN070AAXX  06184 82583 32599 60905 10333 20183 39726 40058 86200 333 59005;
0178825830999992012120700004-05167-040667FM-12+029999999V0200901N002112200019N0040001N1+03201+01781100731ADDGA1001+999999999GF100991001001999999001001KA1240M+03501MA1999999097411MD1999999+0011REMSYN082AAXX  07004 82583 32996 00904 10320 20178 39741 40073 333 10350 29048 55065 58001;
0156825830999992012120712004-05167-040667FM-12+029999999V0200901N005110075019N0500001N1+02871+02001100991ADDGF106991061021008001001001KA1240N+02481MA1999999097671MD1999999+0001REMSYN076AAXX  07124 82583 32599 60910 10287 20200 39767 40099 86200 333 20248 58000;
0137825830999992012120718004-05167-040667FM-12+029999999V0200501N002110075019N0500001N1+03451+01731100601ADDGF105991051011008001001001MA1999999097291MD1999999+0031REMSYN070AAXX  07184 82583 32599 50504 10345 20173 39729 40060 85100 333 58003;
0178825830999992012120800004-05167-040667FM-12+029999999V0200501N001512200019N0040001N1+03111+01791100821ADDGA1001+999999999GF100991001001999999001001KA1240M+03551MA1999999097501MD1999999+0091REMSYN082AAXX  08004 82583 32996 00503 10311 20179 39750 40082 333 10355 29046 55078 58009;
0156825830999992012120812004-05167-040667FM-12+029999999V0200901N003112200019N0500001N1+02731+02051101331ADDGF104991031011008001031001KA1240N+02401MA1999999097981MD1999999+0311REMSYN076AAXX  08124 82583 32599 40906 10273 20205 39798 40133 83130 333 20240 58031;
0178825830999992012120900004-05167-040667FM-12+029999999V0200901N002112200019N0040001N1+03091+01801100931ADDGA1001+999999999GF100991001001999999001001KA1240M+03591MA1999999097601MD1999999+0101REMSYN082AAXX  09004 82583 32996 00904 10309 20180 39760 40093 333 10359 29049 55055 58010;
0156825830999992012120912004-05167-040667FM-12+029999999V0200901N006710075019N0500001N1+02871+02001101221ADDGF106991051011008001021011KA1240N+02471MA1999999097891MD1999999-0091REMSYN076AAXX  09124 82583 32599 60913 10287 20200 39789 40122 85121 333 20247 59009;
0137825830999992012120918004-05167-040667FM-12+029999999V0200901N003110075019N0500001N1+03371+02021100811ADDGF106991051011008001021001MA1999999097491MD1999999+0111REMSYN070AAXX  09184 82583 32599 60906 10337 20202 39749 40081 85120 333 58011;
0168825830999992012121000004-05167-040667FM-12+029999999V0200501N002112200019N0040001N1+03091+01981100931ADDGF101991011011008001001001KA1240M+03451MA1999999097611MD1999999+0011REMSYN088AAXX  10004 82583 32596 10504 10309 20198 39761 40093 81100 333 10345 29050 55045 58001;
0156825830999992012121012004-05167-040667FM-12+029999999V0200901N002610075019N0500001N1+02741+02051101091ADDGF108991071051008001021999KA1240N+02471MA1999999097751MD1999999-0141REMSYN076AAXX  10124 82583 32599 80905 10274 20205 39775 40109 8752/ 333 20247 59014;
0137825830999992012121018004-05167-040667FM-12+029999999V0200901N004110450019N0500001N1+03451+01731100531ADDGF105991041011008001021011MA1999999097211MD1999999-0281REMSYN070AAXX  10184 82583 32599 50908 10345 20173 39721 40053 84121 333 59028;
0178825830999992012121100004-05167-040667FM-12+029999999V0200901N001512200019N0040001N1+03011+01831100771ADDGA1001+999999999GF100991001001999999001001KA1240M+03601MA1999999097441MD1999999-0171REMSYN082AAXX  11004 82583 32996 00903 10301 20183 39744 40077 333 10360 29050 55043 59017;
0156825830999992012121112004-05167-040667FM-12+029999999V0200901N006710075019N0500001N1+02941+01911100941ADDGF106991061021008001001001KA1240N+02401MA1999999097621MD1999999-0131REMSYN076AAXX  11124 82583 32599 60913 10294 20191 39762 40094 86200 333 20240 59013;
0137825830999992012121118004-05167-040667FM-12+029999999V0200901N004112200019N0500001N1+03491+01581100571ADDGF104991041011008001001001MA1999999097251MD1999999+0041REMSYN070AAXX  11184 82583 32599 40908 10349 20158 39725 40057 84100 333 58004;
0168825830999992012121200004-05167-040667FM-12+029999999V0200901N001012200019N0040001N1+03011+01801100731ADDGF101991001001999999001011KA1240M+03611MA1999999097411MD1999999-0031REMSYN088AAXX  12004 82583 32996 10902 10301 20180 39741 40073 80001 333 10361 29046 55102 59003;
0156825830999992012121212004-05167-040667FM-12+029999999V0200901N007710120019N0500001N1+02871+01941101001ADDGF107991061081008001001011KA1240N+02441MA1999999097671MD1999999+0051REMSYN076AAXX  12124 82583 32599 70915 10287 20194 39767 40100 86801 333 20244 58005;
0137825830999992012121218004-05167-040667FM-12+029999999V0200901N005112200019N0500001N1+03521+01701100551ADDGF103991031011008001001001MA1999999097231MD1999999-0021REMSYN070AAXX  12184 82583 32599 30910 10352 20170 39723 40055 83100 333 59002;
0178825830999992012121300004-05167-040667FM-12+029999999V0200901N002112200019N0040001N1+03031+01681100641ADDGA1001+999999999GF100991001001999999001001KA1240M+03591MA1999999097321MD1999999-0091REMSYN082AAXX  13004 82583 32996 00904 10303 20168 39732 40064 333 10359 29044 55085 59009;
0175825830999992012121312004-05167-040667FM-12+029999999V0200901N005110075019N0500001N1+02841+02011100961ADDGF106991999021008001001001KA1240N+02371MA1999999097641MD1999999-0031REMSYN076AAXX  13124 82583 32599 60910 10284 20201 39764 40096 85200 333 20237 59003;EQDQ01+000052SCOTLC
0137825830999992012121318004-05167-040667FM-12+029999999V0200901N004610450019N0500001N1+03491+01771100501ADDGF105991041011008001021021MA1999999097191MD1999999-0041REMSYN070AAXX  13184 82583 32599 50909 10349 20177 39719 40050 84122 333 59004;
0178825830999992012121400004-05167-040667FM-12+029999999V0200901N002112200019N0040001N1+03031+01531100681ADDGA1001+999999999GF100991001001999999001001KA1240M+03641MA1999999097361MD1999999+0041REMSYN082AAXX  14004 82583 32996 00904 10303 20153 39736 40068 333 10364 29042 55105 58004;
0156825830999992012121412004-05167-040667FM-12+029999999V0200901N004110075019N0500001N1+02891+02021100961ADDGF106991061011008001001001KA1240N+02501MA1999999097641MD1999999+0001REMSYN076AAXX  14124 82583 32599 60908 10289 20202 39764 40096 86100 333 20250 58000;
0137825830999992012121418004-05167-040667FM-12+029999999V0200901N004112200019N0500001N1+03621+01691100491ADDGF104991041011008001001001MA1999999097191MD1999999+0001REMSYN070AAXX  14184 82583 32599 40908 10362 20169 39719 40049 84100 333 58000;
0178825830999992012121500004-05167-040667FM-12+029999999V0200901N004612200019N0040001N1+03031+01681100661ADDGA1001+999999999GF100991001001999999001001KA1240M+03701MA1999999097341MD1999999-0021REMSYN082AAXX  15004 82583 32996 00909 10303 20168 39734 40066 333 10370 29044 55080 59002;
0175825830999992012121512004-05167-040667FM-12+029999999V0200901N004110075019N0500001N1+02811+02021100971ADDGF107991999021008001001001KA1240N+02451MA1999999097641MD1999999+0001REMSYN076AAXX  15124 82583 32599 70908 10281 20202 39764 40097 86200 333 20245 58000;EQDQ01+000062SCOTLC
0137825830999992012121518004-05167-040667FM-12+029999999V0201401N004610075019N0500001N1+03541+01711100461ADDGF106991061021008001001001MA1999999097151MD1999999-0041REMSYN070AAXX  15184 82583 32599 61409 10354 20171 39715 40046 86200 333 59004;
0178825830999992012121600004-05167-040667FM-12+029999999V0200901N003612200019N0040001N1+03191+01631100701ADDGA1001+999999999GF100991001001999999001001KA1240M+03591MA1999999097381MD1999999+0041REMSYN082AAXX  16004 82583 32996 00907 10319 20163 39738 40070 333 10359 29043 55076 58004;
0156825830999992012121612004-05167-040667FM-12+029999999V0200901N003110120019N0500001N1+02801+02001100991ADDGF107991061081008001001011KA1240N+02521MA1999999097671MD1999999+0031REMSYN076AAXX  16124 82583 32599 70906 10280 20200 39767 40099 86801 333 20252 58003;
0178825830999992012121700004-05167-040667FM-12+029999999V0200901N001012200019N0040001N1+03011+01991100801ADDGA1001+999999999GF100991001001999999001001KA1240M+03511MA1999999097471MD1999999+0091REMSYN082AAXX  17004 82583 32996 00902 10301 20199 39747 40080 333 10351 29053 55045 58009;
0156825830999992012121712004-05167-040667FM-12+029999999V0200901N004110075019N0500001N1+02771+02011101161ADDGF106991051011008001021001KA1240N+02431MA1999999097821MD1999999+0151REMSYN076AAXX  17124 82583 32599 60908 10277 20201 39782 40116 85120 333 20243 58015;
0223825830999992012121800004-05167-040667FM-12+029999999V0200501N000512200019N0040001N1+02811+02401100811ADDAA106005191AY161061AY261061GA1001+999999999GF100991001001999999001001KA1240M+03571MA1999999097471MD1999999+0001MW1021REMSYN094AAXX  18004 82583 21996 00501 10281 20240 39747 40081 70266 333 10357 29066 55038 58000 60051;
0173825830999992012121812004-05167-040667FM-12+029999999V0200501N002612200019N0500001N1+02831+02091101071ADDAA124005191GF102991011011008001001011KA1240N+02471MA1999999097721MD1999999-0101REMSYN082AAXX  18124 82583 22599 20505 10283 20209 39772 40107 81101 333 20247 59010 60054;
0168825830999992012121900004-05167-040667FM-12+029999999V0203601N001012200019N0040001N1+03061+02051100771ADDGF102991021011008001001011KA1240M+03611MA1999999097451MD1999999-0021REMSYN088AAXX  19004 82583 32596 23602 10306 20205 39745 40077 82101 333 10361 29054 55096 59002;
0175825830999992012121912004-05167-040667FM-12+029999999V0200901N005710075019N0500001N1+02731+02101100981ADDGF107991999021008001001001KA1240N+02451MA1999999097651MD1999999-0071REMSYN076AAXX  19124 82583 32599 70911 10273 20210 39765 40098 86200 333 20245 59007;EQDQ01+000062SCOTLC
0168825830999992012122000004-05167-040667FM-12+029999999V0200901N002112200019N0040001N1+03151+01711100631ADDGF101991011021008001001001KA1240M+03611MA1999999097311MD1999999-0141REMSYN088AAXX  20004 82583 32596 10904 10315 20171 39731 40063 81200 333 10361 29049 55056 59014;
0156825830999992012122012004-05167-040667FM-12+029999999V0200901N005710450019N0500001N1+02851+01981100961ADDGF105991041011008001021001KA1240N+02461MA1999999097641MD1999999-0011REMSYN076AAXX  20124 82583 32599 50911 10285 20198 39764 40096 84120 333 20246 59001;
0178825830999992012122100004-05167-040667FM-12+029999999V0200901N002112200019N0040001N1+02881+01801100721ADDGA1001+999999999GF100991001001999999001001KA1240M+03491MA1999999097381MD1999999+0071REMSYN082AAXX  21004 82583 32996 00904 10288 20180 39738 40072 333 10349 29051 55053 58007;
0173825830999992012122112004-05167-040667FM-12+029999999V0200901N005710075019N0500001N1+02731+01891101091ADDAA124001091GF106991051011008001021001KA1240N+02361MA1999999097711MD1999999+0101REMSYN082AAXX  21124 82583 22599 60911 10273 20189 39771 40109 85120 333 20236 58010 60014;
0178825830999992012122200004-05167-040667FM-12+029999999V0200901N002112200019N0040001N1+03191+01631100791ADDGA1001+999999999GF100991001001999999001001KA1240M+03551MA1999999097471MD1999999+0091REMSYN082AAXX  22004 82583 32996 00904 10319 20163 39747 40079 333 10355 29045 55104 58009;
0156825830999992012122212004-05167-040667FM-12+029999999V0200901N005110075019N0500001N1+02841+01961101081ADDGF105991051011008001001001KA1240N+02411MA1999999097751MD1999999+0011REMSYN076AAXX  22124 82583 32599 50910 10284 20196 39775 40108 85100 333 20241 58001;
0187825830999992012122300004-05167-040667FM-12+029999999V0200901N003112200019N0040001N1+03121+01711100761ADDGF101991001001999999001011KA1240M+03671MA1999999097441MD1999999-0031REMSYN088AAXX  23004 82583 32996 10906 10312 20171 39744 40076 81001 333 10367 29045 55104 59003;EQDQ01+000012SCOTLC
0156825830999992012122312004-05167-040667FM-12+029999999V0200901N005710075019N0500001N1+02831+01981101081ADDGF108991081051008001001001KA1240N+02461MA1999999097751MD1999999+0001REMSYN076AAXX  23124 82583 32599 80911 10283 20198 39775 40108 88500 333 20246 58000;
0168825830999992012122400004-05167-040667FM-12+029999999V0200901N001012200019N0040001N1+03071+02041100901ADDGF102991021011008001001001KA1240M+03621MA1999999097581MD1999999+0141REMSYN088AAXX  24004 82583 32596 20902 10307 20204 39758 40090 82100 333 10362 29051 55085 58014;
0156825830999992012122412004-05167-040667FM-12+029999999V0200901N004610075019N0500001N1+02761+02041101171ADDGF106991061011008001001001KA1240N+02531MA1999999097831MD1999999+0081REMSYN076AAXX  24124 82583 32599 60909 10276 20204 39783 40117 86100 333 20253 58008;
0168825830999992012122500004-05167-040667FM-12+029999999V0200901N002612200019N0040001N1+03051+01771100871ADDGF103991031011008001001021KA1240M+03561MA1999999097551MD1999999-0031REMSYN088AAXX  25004 82583 32596 30905 10305 20177 39755 40087 83102 333 10356 29048 55046 59003;
0175825830999992012122512004-05167-040667FM-12+029999999V0200901N005710075019N0500001N1+02831+01881101171ADDGF106991999021008001001001KA1240N+02521MA1999999097831MD1999999+0001REMSYN076AAXX  25124 82583 32599 60911 10283 20188 39783 40117 85200 333 20252 58000;EQDQ01+000052SCOTLC
0187825830999992012122600004-05167-040667FM-12+029999999V0200901N002612200019N0040001N1+03051+01581100851ADDGF101991999011008001001001KA1240M+03611MA1999999097531MD1999999-0021REMSYN088AAXX  26004 82583 32596 10905 10305 20158 39753 40085 82100 333 10361 29043 55085 59002;EQDQ01+000022SCOTLC
0156825830999992012122612004-05167-040667FM-12+029999999V0200901N004610075019N0500001N1+02711+02001101341ADDGF106991061051008001001001KA1240N+02391MA1999999097991MD1999999+0131REMSYN076AAXX  26124 82583 32599 60909 10271 20200 39799 40134 86500 333 20239 58013;
0178825830999992012122700004-05167-040667FM-12+029999999V0200901N001012200019N0040001N1+03011+01661100891ADDGA1001+999999999GF100991001001999999001001KA1240M+03591MA1999999097551MD1999999+0021REMSYN082AAXX  27004 82583 32996 00902 10301 20166 39755 40089 333 10359 29050 55057 58002;
0156825830999992012122712004-05167-040667FM-12+029999999V0200501N002610075019N0500001N1+02741+02051101131ADDGF106991061021008001001001KA1240N+02451MA1999999097791MD1999999-0201REMSYN076AAXX  27124 82583 32599 60505 10274 20205 39779 40113 86200 333 20245 59020;
0187825830999992012122800004-05167-040667FM-12+029999999V0200901N002612200019N0040001N1+03051+01661100711ADDGF101991001001999999001021KA1240M+03651MA1999999097381MD1999999-0071REMSYN088AAXX  28004 82583 32996 10905 10305 20166 39738 40071 81002 333 10365 29093 55077 59007;EQDQ01+000012SCOTLC
0156825830999992012122812004-05167-040667FM-12+029999999V0200501N005110120019N0500001N1+02791+02081101021ADDGF108991081081008001999999KA1240N+02461MA1999999097681MD1999999-0111REMSYN076AAXX  28124 82583 32599 80510 10279 20208 39768 40102 888// 333 20246 59011;
0187825830999992012122900004-05167-040667FM-12+029999999V0200901N002112200019N0040001N1+03091+01621100781ADDGF102991001001999999001011KA1240M+03671MA1999999097461MD1999999+0081REMSYN088AAXX  29004 82583 32996 20904 10309 20162 39746 40078 82001 333 10367 29046 55063 58008;EQDQ01+000022SCOTLC
0156825830999992012122912004-05167-040667FM-12+029999999V0200901N005710120019N0500001N1+02731+01971101141ADDGF108991081081008001999999KA1240N+02551MA1999999097801MD1999999+0121REMSYN076AAXX  29124 82583 32599 80911 10273 20197 39780 40114 888// 333 20255 58012;
0168825830999992012123000004-05167-040667FM-12+029999999V0203601N000510450019N0040001N1+03011+02071100881ADDGF105991041011008001031001KA1240M+03301MA1999999097551MD1999999+0091REMSYN088AAXX  30004 82583 32596 53601 10301 20207 39755 40088 84130 333 10330 29056 55007 58009;
0156825830999992012123012004-05167-040667FM-12+029999999V0200901N004110075019N0500001N1+02801+02031101121ADDGF106991061011008001001001KA1240N+02561MA1999999097781MD1999999-0021REMSYN076AAXX  30124 82583 32599 60908 10280 20203 39778 40112 86100 333 20256 59002;
0156825830999992012123112004-05167-040667FM-12+029999999V0200901N004610075019N0500001N1+02901+01931101221ADDGF106991051011008001021001KA1240N+02351MA1999999097881MD1999999+0101REMSYN076AAXX  31124 82583 32599 60909 10290 20193 39788 40122 85120 333 20235 58010;
