0143832880999992012010210004-13267-043417FM-15+0443SBLP V0200401N003110300019N0112651N1+02201+02101999999ADDGA1041+006001999GA2071+030001999GF107991999999999999999999MA1101191999999REMMET058METAR SBLP 021000Z 04006KT 9999 SCT020 BKN100 22/21 Q1012;
0143832880999992012010211004-13267-043417FM-15+0443SBLP V0200301N003110300019N0112651N1+02401+02201999999ADDGA1021+006001999GA2071+030001999GF107991999999999999999999MA1101191999999REMMET058METAR SBLP 021100Z 03006KT 9999 FEW020 BKN100 24/22 Q1012;
0143832880999992012010212004-13267-043417FM-15+0443SBLP V0200301N003110300019N0112651N1+02601+02101999999ADDGA1021+006001999GA2071+030001999GF107991999999999999999999MA1101291999999REMMET058METAR SBLP 021200Z 03006KT 9999 FEW020 BKN100 26/21 Q1013;
0143832880999992012010213004-13267-043417FM-15+0443SBLP V0200301N003112200019N0112651N1+02801+02001999999ADDGA1021+006001999GA2041+030001999GF104991999999999999999999MA1101191999999REMMET058METAR SBLP 021300Z 03006KT 9999 FEW020 SCT100 28/20 Q1012;
0143832880999992012010214004-13267-043417FM-15+0443SBLP V0209999C000012200019N0112651N1+03001+01701999999ADDGA1021+006001999GA2041+030001999GF104991999999999999999999MA1101081999999REMMET058METAR SBLP 021400Z 00000KT 9999 FEW020 SCT100 30/17 Q1011;
0143832880999992012010215004-13267-043417FM-15+0443SBLP V0203601N003112200019N0112651N1+03101+01901999999ADDGA1021+006001999GA2041+030001999GF104991999999999999999999MA1101021999999REMMET058METAR SBLP 021500Z 36006KT 9999 FEW020 SCT100 31/19 Q1010;
0143832880999992012010216004-13267-043417FM-15+0443SBLP V0203601N003110300019N0112651N1+03101+02001999999ADDGA1041+009001999GA2071+030001999GF107991999999999999999999MA1100911999999REMMET058METAR SBLP 021600Z 36006KT 9999 SCT030 BKN100 31/20 Q1009;
0143832880999992012010217004-13267-043417FM-15+0443SBLP V0203601N003110300019N0112651N1+03201+02101999999ADDGA1041+009001999GA2071+030001999GF107991999999999999999999MA1100911999999REMMET058METAR SBLP 021700Z 36006KT 9999 SCT030 BKN100 32/21 Q1009;
0143832880999992012010218004-13267-043417FM-15+0443SBLP V0203601N003110300019N0112651N1+03201+02101999999ADDGA1041+009001999GA2071+030001999GF107991999999999999999999MA1100811999999REMMET058METAR SBLP 021800Z 36006KT 9999 SCT030 BKN100 32/21 Q1008;
0177832880999992012010220004-13267-043417FM-15+0443SBLP V0203601N00621012001CN0112651N1+02901+02101999999ADDGA1041+009001999GA2021+012001091GA3071+030001999GF107991999999999999999999MA1100911999999MW1171REMMET070METAR SBLP 022000Z 36012KT 9999 TS SCT030 FEW040CB BKN100 29/21 Q1009;
0177832880999992012010221004-13267-043417FM-15+0443SBLP V0203601N00311012001CN0112651N1+02801+02101999999ADDGA1041+009001999GA2021+012001091GA3071+030001999GF107991999999999999999999MA1101081999999MW1171REMMET070METAR SBLP 022100Z 36006KT 9999 TS SCT030 FEW040CB BKN100 28/21 Q1011;
0143832880999992012010310004-13267-043417FM-15+0443SBLP V0209999C000010300019N0112651N1+02301+02101999999ADDGA1041+003001999GA2071+030001999GF107991999999999999999999MA1101491999999REMMET058METAR SBLP 031000Z 00000KT 9999 SCT010 BKN100 23/21 Q1015;
0143832880999992012010311004-13267-043417FM-15+0443SBLP V0209999C000010300019N0112651N1+02301+02101999999ADDGA1041+003001999GA2071+030001999GF107991999999999999999999MA1101491999999REMMET058METAR SBLP 031100Z 00000KT 9999 SCT010 BKN100 23/21 Q1015;
0143832880999992012010312004-13267-043417FM-15+0443SBLP V0209999C000010300019N0112651N1+02301+02101999999ADDGA1041+003001999GA2071+030001999GF107991999999999999999999MA1101591999999REMMET058METAR SBLP 031200Z 00000KT 9999 SCT010 BKN100 23/21 Q1016;
0143832880999992012010313004-13267-043417FM-15+0443SBLP V0209999C000010300019N0112651N1+02401+02101999999ADDGA1041+003001999GA2071+030001999GF107991999999999999999999MA1101591999999REMMET058METAR SBLP 031300Z 00000KT 9999 SCT010 BKN100 24/21 Q1016;
0153832880999992012010314004-13267-043417FM-15+0443SBLP V0209999C000010300019N0090001N1+02401+02101999999ADDGA1041+003001999GA2071+030001999GF107991999999999999999999MA1101591999999MW1611REMMET062METAR SBLP 031400Z 00000KT 9000 -RA SCT010 BKN100 24/21 Q1016;
0153832880999992012010315004-13267-043417FM-15+0443SBLP V0209999C000010300019N0090001N1+02401+02101999999ADDGA1041+004501999GA2081+030001999GF108991999999999999999999MA1101491999999MW1611REMMET062METAR SBLP 031500Z 00000KT 9000 -RA SCT015 OVC100 24/21 Q1015;
0153832880999992012010316004-13267-043417FM-15+0443SBLP V0201201N003110300019N0090001N1+02501+02201999999ADDGA1041+004501999GA2081+030001999GF108991999999999999999999MA1101391999999MW1611REMMET062METAR SBLP 031600Z 12006KT 9000 -RA SCT015 OVC100 25/22 Q1014;
0153832880999992012010317004-13267-043417FM-15+0443SBLP V0200901N003110300019N0090001N1+02501+02301999999ADDGA1041+004501999GA2081+030001999GF108991999999999999999999MA1101391999999MW1611REMMET062METAR SBLP 031700Z 09006KT 9000 -RA SCT015 OVC100 25/23 Q1014;
0153832880999992012010318004-13267-043417FM-15+0443SBLP V0201201N002110270019N0090001N1+02301+02301999999ADDGA1041+004501999GA2081+027001999GF108991999999999999999999MA1101291999999MW1611REMMET062METAR SBLP 031800Z 12004KT 9000 -RA SCT015 OVC090 23/23 Q1013;
0153832880999992012010319004-13267-043417FM-15+0443SBLP V0201301N003110270019N0090001N1+02401+02201999999ADDGA1041+006001999GA2081+027001999GF108991999999999999999999MA1101291999999MW1611REMMET062METAR SBLP 031900Z 13006KT 9000 -RA SCT020 OVC090 24/22 Q1013;
0153832880999992012010320004-13267-043417FM-15+0443SBLP V0201601N003110300019N0090001N1+02301+02201999999ADDGA1041+006001999GA2081+030001999GF108991999999999999999999MA1101291999999MW1611REMMET062METAR SBLP 032000Z 16006KT 9000 -RA SCT020 OVC100 23/22 Q1013;
0153832880999992012010321004-13267-043417FM-15+0443SBLP V0209999C000010300019N0090001N1+02301+02301999999ADDGA1041+006001999GA2081+030001999GF108991999999999999999999MA1101291999999MW1611REMMET062METAR SBLP 032100Z 00000KT 9000 -RA SCT020 OVC100 23/23 Q1013;
0153832880999992012010410004-13267-043417FM-15+0443SBLP V0209999C000010300019N0090001N1+02101+02101999999ADDGA1041+004501999GA2081+030001999GF108991999999999999999999MA1101591999999MW1611REMMET062METAR SBLP 041000Z 00000KT 9000 -RA SCT015 OVC100 21/21 Q1016;
0143832880999992012010411004-13267-043417FM-15+0443SBLP V0200901N003110300019N0112651N1+02101+02101999999ADDGA1041+006001999GA2071+030001999GF107991999999999999999999MA1101691999999REMMET058METAR SBLP 041100Z 09006KT 9999 SCT020 BKN100 21/21 Q1017;
0143832880999992012010412004-13267-043417FM-15+0443SBLP V0200901N003110300019N0112651N1+02201+02201999999ADDGA1041+006001999GA2071+030001999GF107991999999999999999999MA1101691999999REMMET058METAR SBLP 041200Z 09006KT 9999 SCT020 BKN100 22/22 Q1017;
0143832880999992012010413004-13267-043417FM-15+0443SBLP V0209999C000010300019N0112651N1+02501+02101999999ADDGA1041+006001999GA2071+030001999GF107991999999999999999999MA1101801999999REMMET058METAR SBLP 041300Z 00000KT 9999 SCT020 BKN100 25/21 Q1018;
0143832880999992012010414004-13267-043417FM-15+0443SBLP V0209999C000010300019N0112651N1+02501+02101999999ADDGA1041+006001999GA2071+030001999GF107991999999999999999999MA1101801999999REMMET058METAR SBLP 041400Z 00000KT 9999 SCT020 BKN100 25/21 Q1018;
0146832880999992012010415004-13267-043417FM-15+0443SBLP V0201201N00311030001CN0112651N1+02501+02101999999ADDGA1041+006001999GA2071+030001999GF108991999999999999999999MA1101701999999REMMET061METAR SBLP 041500Z 12006KT 9999 03 SCT020 BKN100 25/21 Q1017;
0153832880999992012010416004-13267-043417FM-15+0443SBLP V0209999C000010300019N0090001N1+02501+02101999999ADDGA1041+004501999GA2071+030001999GF107991999999999999999999MA1101591999999MW1611REMMET062METAR SBLP 041600Z 00000KT 9000 -RA SCT015 BKN100 25/21 Q1016;
0143832880999992012010417004-13267-043417FM-15+0443SBLP V0209999C000010300019N0112651N1+02501+02101999999ADDGA1041+003001999GA2071+030001999GF107991999999999999999999MA1101491999999REMMET058METAR SBLP 041700Z 00000KT 9999 SCT010 BKN100 25/21 Q1015;
0143832880999992012010418004-13267-043417FM-15+0443SBLP V0209999C000010300019N0112651N1+02501+02101999999ADDGA1041+003001999GA2071+030001999GF107991999999999999999999MA1101391999999REMMET058METAR SBLP 041800Z 00000KT 9999 SCT010 BKN100 25/21 Q1014;
0143832880999992012010419004-13267-043417FM-15+0443SBLP V0209999C000010300019N0112651N1+02701+02101999999ADDGA1041+003001999GA2071+030001999GF107991999999999999999999MA1101391999999REMMET058METAR SBLP 041900Z 00000KT 9999 SCT010 BKN100 27/21 Q1014;
0143832880999992012010420004-13267-043417FM-15+0443SBLP V0209999C000010300019N0112651N1+02601+02101999999ADDGA1041+004501999GA2071+030001999GF107991999999999999999999MA1101391999999REMMET058METAR SBLP 042000Z 00000KT 9999 SCT015 BKN100 26/21 Q1014;
0143832880999992012010421004-13267-043417FM-15+0443SBLP V0209999C000010300019N0112651N1+02601+02101999999ADDGA1041+006001999GA2071+030001999GF107991999999999999999999MA1101391999999REMMET058METAR SBLP 042100Z 00000KT 9999 SCT020 BKN100 26/21 Q1014;
0143832880999992012010510004-13267-043417FM-15+0443SBLP V0209999C000010300019N0112651N1+02301+02101999999ADDGA1021+004501999GA2071+030001999GF107991999999999999999999MA1101491999999REMMET058METAR SBLP 051000Z 00000KT 9999 FEW015 BKN100 23/21 Q1015;
0143832880999992012010511004-13267-043417FM-15+0443SBLP V0209999C000010300019N0112651N1+02401+02101999999ADDGA1021+006001999GA2071+030001999GF107991999999999999999999MA1101591999999REMMET058METAR SBLP 051100Z 00000KT 9999 FEW020 BKN100 24/21 Q1016;
0143832880999992012010512004-13267-043417FM-15+0443SBLP V0209999C000010300019N0112651N1+02601+02101999999ADDGA1021+006001999GA2071+030001999GF107991999999999999999999MA1101691999999REMMET058METAR SBLP 051200Z 00000KT 9999 FEW020 BKN100 26/21 Q1017;
0143832880999992012010513004-13267-043417FM-15+0443SBLP V0209999C000012200019N0112651N1+02801+02101999999ADDGA1021+006001999GA2041+030001999GF104991999999999999999999MA1101591999999REMMET058METAR SBLP 051300Z 00000KT 9999 FEW020 SCT100 28/21 Q1016;
0143832880999992012010514004-13267-043417FM-15+0443SBLP V0209999C000012200019N0112651N1+03001+02001999999ADDGA1041+009001999GA2041+030001999GF104991999999999999999999MA1101591999999REMMET058METAR SBLP 051400Z 00000KT 9999 SCT030 SCT100 30/20 Q1016;
0143832880999992012010517004-13267-043417FM-15+0443SBLP V0201801N003112200019N0112651N1+03301+01801999999ADDGA1041+009001999GA2041+030001999GF104991999999999999999999MA1101291999999REMMET058METAR SBLP 051700Z 18006KT 9999 SCT030 SCT100 33/18 Q1013;
0143832880999992012010518004-13267-043417FM-15+0443SBLP V0200901N003112200019N0112651N1+03401+01501999999ADDGA1041+009001999GA2041+030001999GF104991999999999999999999MA1101191999999REMMET058METAR SBLP 051800Z 09006KT 9999 SCT030 SCT100 34/15 Q1012;
0147832880999992012010519004-13267-043417FM-15+0443SBLP V0203601N002110300019N0112651N1+03501+01601999999ADDGA1041+009001999GA2071+030001999GF107991999999999999999999MA1101191999999REMMET062METAR SBLP 051900Z COR 36004KT 9999 SCT030 BKN100 35/16 Q1012;
0143832880999992012010520004-13267-043417FM-15+0443SBLP V0209999C000010300019N0112651N1+03301+02001999999ADDGA1041+009001999GA2071+030001999GF107991999999999999999999MA1101081999999REMMET058METAR SBLP 052000Z 00000KT 9999 SCT030 BKN100 33/20 Q1011;
0143832880999992012010521004-13267-043417FM-15+0443SBLP V0201601N002110300019N0112651N1+03001+01901999999ADDGA1021+009001999GA2071+030001999GF107991999999999999999999MA1101191999999REMMET058METAR SBLP 052100Z 16004KT 9999 FEW030 BKN100 30/19 Q1012;
0076832880999992012010610004-13267-043417FM-15+0443SBLP V0209999C000019999999Y0099001N1+02301+02101999999ADDMA1101491999999REMMET049METAR SBLP 061000Z COR 00000KT CAVOK 23/21 Q1015;
0072832880999992012010611004-13267-043417FM-15+0443SBLP V0209999C000019999999Y0099001N1+02601+02001999999ADDMA1101491999999REMMET045METAR SBLP 061100Z 00000KT CAVOK 26/20 Q1015;
0072832880999992012010612004-13267-043417FM-15+0443SBLP V0209999C000019999999Y0099001N1+02801+01901999999ADDMA1101491999999REMMET045METAR SBLP 061200Z 00000KT CAVOK 28/19 Q1015;
0072832880999992012010613004-13267-043417FM-15+0443SBLP V0203001N003119999999Y0099001N1+03001+01901999999ADDMA1101491999999REMMET045METAR SBLP 061300Z 30006KT CAVOK 30/19 Q1015;
0120832880999992012010614004-13267-043417FM-15+0443SBLP V0209999C000012200019N0112651N1+03201+01901999999ADDGA1021+009001999GF102991999999999999999999MA1101491999999REMMET051METAR SBLP 061400Z 00000KT 9999 FEW030 32/19 Q1015;
0120832880999992012010615004-13267-043417FM-15+0443SBLP V0209999C000012200019N0112651N1+03201+01901999999ADDGA1041+009001999GF104991999999999999999999MA1101491999999REMMET051METAR SBLP 061500Z 00000KT 9999 SCT030 32/19 Q1015;
0120832880999992012010616004-13267-043417FM-15+0443SBLP V0202701N003112200019N0112651N1+03201+01901999999ADDGA1041+009001999GF104991999999999999999999MA1101291999999REMMET051METAR SBLP 061600Z 27006KT 9999 SCT030 32/19 Q1013;
0120832880999992012010617004-13267-043417FM-15+0443SBLP V0202701N003112200019N0112651N1+03201+02001999999ADDGA1041+009001999GF104991999999999999999999MA1101191999999REMMET051METAR SBLP 061700Z 27006KT 9999 SCT030 32/20 Q1012;
0120832880999992012010618004-13267-043417FM-15+0443SBLP V0202701N003112200019N0112651N1+03201+02001999999ADDGA1041+009001999GF104991999999999999999999MA1101081999999REMMET051METAR SBLP 061800Z 27006KT 9999 SCT030 32/20 Q1011;
0120832880999992012010619004-13267-043417FM-15+0443SBLP V0209999C000012200019N0112651N1+03201+02001999999ADDGA1041+009001999GF104991999999999999999999MA1101081999999REMMET051METAR SBLP 061900Z 00000KT 9999 SCT030 32/20 Q1011;
0120832880999992012010620004-13267-043417FM-15+0443SBLP V0209999C000012200019N0112651N1+03101+02001999999ADDGA1041+009001999GF104991999999999999999999MA1101081999999REMMET051METAR SBLP 062000Z 00000KT 9999 SCT030 31/20 Q1011;
0120832880999992012010621004-13267-043417FM-15+0443SBLP V0209999C000012200019N0112651N1+03101+02001999999ADDGA1041+009001999GF104991999999999999999999MA1101081999999REMMET051METAR SBLP 062100Z 00000KT 9999 SCT030 31/20 Q1011;
0072832880999992012010910004-13267-043417FM-15+0443SBLP V0209999C000019999999Y0099001N1+02401+02001999999ADDMA1101491999999REMMET045METAR SBLP 091000Z 00000KT CAVOK 24/20 Q1015;
0072832880999992012010911004-13267-043417FM-15+0443SBLP V0209999C000019999999Y0099001N1+02701+02001999999ADDMA1101591999999REMMET045METAR SBLP 091100Z 00000KT CAVOK 27/20 Q1016;
0072832880999992012010912004-13267-043417FM-15+0443SBLP V0209999C000019999999Y0099001N1+02901+02001999999ADDMA1101591999999REMMET045METAR SBLP 091200Z 00000KT CAVOK 29/20 Q1016;
0072832880999992012010913004-13267-043417FM-15+0443SBLP V0200901N003119999999Y0099001N1+03101+01901999999ADDMA1101591999999REMMET045METAR SBLP 091300Z 09006KT CAVOK 31/19 Q1016;
0120832880999992012010914004-13267-043417FM-15+0443SBLP V0200901N003112200019N0112651N1+03101+01901999999ADDGA1021+009001999GF102991999999999999999999MA1101591999999REMMET051METAR SBLP 091400Z 09006KT 9999 FEW030 31/19 Q1016;
0143832880999992012010915004-13267-043417FM-15+0443SBLP V0200901N003112200019N0112651N1+03101+01901999999ADDGA1021+009001999GA2041+030001999GF104991999999999999999999MA1101491999999REMMET058METAR SBLP 091500Z 09006KT 9999 FEW030 SCT100 31/19 Q1015;
0143832880999992012010916004-13267-043417FM-15+0443SBLP V0201801N003110300019N0112651N1+03101+01901999999ADDGA1021+009001999GA2071+030001999GF107991999999999999999999MA1101491999999REMMET058METAR SBLP 091600Z 18006KT 9999 FEW030 BKN100 31/19 Q1015;
0143832880999992012010917004-13267-043417FM-15+0443SBLP V0201801N003110300019N0112651N1+03201+01901999999ADDGA1021+009001999GA2071+030001999GF107991999999999999999999MA1101391999999REMMET058METAR SBLP 091700Z 18006KT 9999 FEW030 BKN100 32/19 Q1014;
0143832880999992012010918004-13267-043417FM-15+0443SBLP V0209999C000012200019N0112651N1+03401+01801999999ADDGA1021+009001999GA2041+030001999GF104991999999999999999999MA1101291999999REMMET058METAR SBLP 091800Z 00000KT 9999 FEW030 SCT100 34/18 Q1013;
0143832880999992012010919004-13267-043417FM-15+0443SBLP V0201501N003112200019N0112651N1+03401+01701999999ADDGA1021+009001999GA2041+030001999GF104991999999999999999999MA1101191999999REMMET058METAR SBLP 091900Z 15006KT 9999 FEW030 SCT100 34/17 Q1012;
0143832880999992012010920004-13267-043417FM-15+0443SBLP V0201801N003112200019N0112651N1+03201+01901999999ADDGA1021+009001999GA2041+030001999GF104991999999999999999999MA1101191999999REMMET058METAR SBLP 092000Z 18006KT 9999 FEW030 SCT100 32/19 Q1012;
0172832880999992012010921004-13267-043417FM-15+0443SBLP V0200601N005110300019N0090001N1+02202+02101999999ADDGA1041+008101999GA2071+030001999GF107991999999999999999999MA1101291999999MW1611REMMET062METAR SBLP 092100Z 06010KT 9000 -RA SCT027 BKN100 22/21 Q1013;EQDQ01+002203ATOT  
0072832880999992012011010004-13267-043417FM-15+0443SBLP V0209999C000019999999Y0099001N1+02401+02101999999ADDMA1101391999999REMMET045METAR SBLP 101000Z 00000KT CAVOK 24/21 Q1014;
0072832880999992012011011004-13267-043417FM-15+0443SBLP V0209999C000019999999Y0099001N1+02501+02101999999ADDMA1101491999999REMMET045METAR SBLP 101100Z 00000KT CAVOK 25/21 Q1015;
0072832880999992012011012004-13267-043417FM-15+0443SBLP V0200901N003119999999Y0099001N1+02801+02001999999ADDMA1101591999999REMMET045METAR SBLP 101200Z 09006KT CAVOK 28/20 Q1016;
0143832880999992012011013004-13267-043417FM-15+0443SBLP V0209999C000012200019N0112651N1+02901+01901999999ADDGA1021+009001999GA2041+030001999GF104991999999999999999999MA1101591999999REMMET058METAR SBLP 101300Z 00000KT 9999 FEW030 SCT100 29/19 Q1016;
0143832880999992012011014004-13267-043417FM-15+0443SBLP V0209999C000010300019N0112651N1+03001+01901999999ADDGA1021+009001999GA2071+030001999GF107991999999999999999999MA1101491999999REMMET058METAR SBLP 101400Z 00000KT 9999 FEW030 BKN100 30/19 Q1015;
0143832880999992012011015004-13267-043417FM-15+0443SBLP V0209999C000010300019N0112651N1+03101+01901999999ADDGA1021+009001999GA2071+030001999GF107991999999999999999999MA1101491999999REMMET058METAR SBLP 101500Z 00000KT 9999 FEW030 BKN100 31/19 Q1015;
0143832880999992012011016004-13267-043417FM-15+0443SBLP V0209999C000010300019N0112651N1+03201+01901999999ADDGA1021+009001999GA2071+030001999GF107991999999999999999999MA1101391999999REMMET058METAR SBLP 101600Z 00000KT 9999 FEW030 BKN100 32/19 Q1014;
0143832880999992012011017004-13267-043417FM-15+0443SBLP V0209999C000010300019N0112651N1+03201+01901999999ADDGA1021+009001999GA2071+030001999GF107991999999999999999999MA1101391999999REMMET058METAR SBLP 101700Z 00000KT 9999 FEW030 BKN100 32/19 Q1014;
0143832880999992012011018004-13267-043417FM-15+0443SBLP V0209999C000010300019N0112651N1+03301+01901999999ADDGA1021+009001999GA2071+030001999GF107991999999999999999999MA1101291999999REMMET058METAR SBLP 101800Z 00000KT 9999 FEW030 BKN100 33/19 Q1013;
0143832880999992012011019004-13267-043417FM-15+0443SBLP V0209999C000010300019N0112651N1+03201+01901999999ADDGA1021+009001999GA2071+030001999GF107991999999999999999999MA1101291999999REMMET058METAR SBLP 101900Z 00000KT 9999 FEW030 BKN100 32/19 Q1013;
0143832880999992012011020004-13267-043417FM-15+0443SBLP V0209999C000010300019N0112651N1+03101+01901999999ADDGA1021+009001999GA2071+030001999GF107991999999999999999999MA1101291999999REMMET058METAR SBLP 102000Z 00000KT 9999 FEW030 BKN100 31/19 Q1013;
0143832880999992012011021004-13267-043417FM-15+0443SBLP V0209999C000010300019N0112651N1+03001+01901999999ADDGA1021+009001999GA2071+030001999GF107991999999999999999999MA1101291999999REMMET058METAR SBLP 102100Z 00000KT 9999 FEW030 BKN100 30/19 Q1013;
0143832880999992012011110004-13267-043417FM-15+0443SBLP V0209999C000010300019N0112651N1+02401+01901999999ADDGA1021+006001999GA2071+030001999GF107991999999999999999999MA1101491999999REMMET058METAR SBLP 111000Z 00000KT 9999 FEW020 BKN100 24/19 Q1015;
0143832880999992012011111004-13267-043417FM-15+0443SBLP V0209999C000010300019N0112651N1+02701+01901999999ADDGA1021+006001999GA2071+030001999GF107991999999999999999999MA1101591999999REMMET058METAR SBLP 111100Z 00000KT 9999 FEW020 BKN100 27/19 Q1016;
0143832880999992012011112004-13267-043417FM-15+0443SBLP V0209999C000012200019N0112651N1+02701+01901999999ADDGA1021+009001999GA2041+030001999GF104991999999999999999999MA1101591999999REMMET058METAR SBLP 111200Z 00000KT 9999 FEW030 SCT100 27/19 Q1016;
0143832880999992012011113004-13267-043417FM-15+0443SBLP V0209999C000012200019N0112651N1+02801+01801999999ADDGA1021+009001999GA2041+030001999GF104991999999999999999999MA1101591999999REMMET058METAR SBLP 111300Z 00000KT 9999 FEW030 SCT100 28/18 Q1016;
0120832880999992012011114004-13267-043417FM-15+0443SBLP V0209999C000012200019N0112651N1+03001+01801999999ADDGA1021+009001999GF102991999999999999999999MA1101591999999REMMET051METAR SBLP 111400Z 00000KT 9999 FEW030 30/18 Q1016;
0120832880999992012011115004-13267-043417FM-15+0443SBLP V0209999C000012200019N0112651N1+03001+01801999999ADDGA1021+009001999GF102991999999999999999999MA1101491999999REMMET051METAR SBLP 111500Z 00000KT 9999 FEW030 30/18 Q1015;
0120832880999992012011116004-13267-043417FM-15+0443SBLP V0209999C000012200019N0112651N1+03001+01801999999ADDGA1041+009001999GF104991999999999999999999MA1101491999999REMMET051METAR SBLP 111600Z 00000KT 9999 SCT030 30/18 Q1015;
0124832880999992012011117004-13267-043417FM-15+0443SBLP V0200901N003112200019N0112651N1+03101+01801999999ADDGA1021+009001999GF102991999999999999999999MA1101391999999REMMET055METAR SBLP 111700Z COR 09006KT 9999 FEW030 31/18 Q1014;
0120832880999992012011118004-13267-043417FM-15+0443SBLP V0209999C000012200019N0112651N1+03201+01701999999ADDGA1021+009001999GF102991999999999999999999MA1101391999999REMMET051METAR SBLP 111800Z 00000KT 9999 FEW030 32/17 Q1014;
0124832880999992012011119004-13267-043417FM-15+0443SBLP V0209999C000012200019N0112651N1+03201+01801999999ADDGA1021+009001999GF102991999999999999999999MA1101291999999REMMET055METAR SBLP 111900Z COR 00000KT 9999 FEW030 32/18 Q1013;
0120832880999992012011120004-13267-043417FM-15+0443SBLP V0201801N003112200019N0112651N1+03001+01901999999ADDGA1021+009001999GF102991999999999999999999MA1101291999999REMMET051METAR SBLP 112000Z 18006KT 9999 FEW030 30/19 Q1013;
0120832880999992012011121004-13267-043417FM-15+0443SBLP V0209999C000012200019N0112651N1+02901+02001999999ADDGA1021+009001999GF102991999999999999999999MA1101291999999REMMET051METAR SBLP 112100Z 00000KT 9999 FEW030 29/20 Q1013;
0072832880999992012011210004-13267-043417FM-15+0443SBLP V0209999C000019999999Y0099001N1+02301+02101999999ADDMA1101591999999REMMET045METAR SBLP 121000Z 00000KT CAVOK 23/21 Q1016;
0072832880999992012011211004-13267-043417FM-15+0443SBLP V0201201N003119999999Y0099001N1+02601+02001999999ADDMA1101591999999REMMET045METAR SBLP 121100Z 12006KT CAVOK 26/20 Q1016;
0072832880999992012011212004-13267-043417FM-15+0443SBLP V0209999C000019999999Y0099001N1+02801+02001999999ADDMA1101591999999REMMET045METAR SBLP 121200Z 00000KT CAVOK 28/20 Q1016;
0072832880999992012011213004-13267-043417FM-15+0443SBLP V0209999C000019999999Y0099001N1+03001+01801999999ADDMA1101691999999REMMET045METAR SBLP 121300Z 00000KT CAVOK 30/18 Q1017;
0120832880999992012011214004-13267-043417FM-15+0443SBLP V0209999C000012200019N0112651N1+03201+01701999999ADDGA1021+009001999GF102991999999999999999999MA1101591999999REMMET051METAR SBLP 121400Z 00000KT 9999 FEW030 32/17 Q1016;
0120832880999992012011215004-13267-043417FM-15+0443SBLP V0209999C000012200019N0112651N1+03201+01801999999ADDGA1021+009001999GF102991999999999999999999MA1101591999999REMMET051METAR SBLP 121500Z 00000KT 9999 FEW030 32/18 Q1016;
0120832880999992012011216004-13267-043417FM-15+0443SBLP V0200901N003112200019N0112651N1+03301+01701999999ADDGA1021+009001999GF102991999999999999999999MA1101491999999REMMET051METAR SBLP 121600Z 09006KT 9999 FEW030 33/17 Q1015;
0120832880999992012011217004-13267-043417FM-15+0443SBLP V0200901N003112200019N0112651N1+03301+01801999999ADDGA1021+009001999GF102991999999999999999999MA1101391999999REMMET051METAR SBLP 121700Z 09006KT 9999 FEW030 33/18 Q1014;
0120832880999992012011218004-13267-043417FM-15+0443SBLP V0200901N003112200019N0112651N1+03401+01801999999ADDGA1021+009001999GF102991999999999999999999MA1101291999999REMMET051METAR SBLP 121800Z 09006KT 9999 FEW030 34/18 Q1013;
0120832880999992012011219004-13267-043417FM-15+0443SBLP V0200901N003112200019N0112651N1+03301+01801999999ADDGA1021+009001999GF102991999999999999999999MA1101291999999REMMET051METAR SBLP 121900Z 09006KT 9999 FEW030 33/18 Q1013;
0120832880999992012011220004-13267-043417FM-15+0443SBLP V0209999C000012200019N0112651N1+03301+01801999999ADDGA1021+009001999GF102991999999999999999999MA1101291999999REMMET051METAR SBLP 122000Z 00000KT 9999 FEW030 33/18 Q1013;
0120832880999992012011221004-13267-043417FM-15+0443SBLP V0209999C000012200019N0112651N1+03201+01801999999ADDGA1021+009001999GF102991999999999999999999MA1101291999999REMMET051METAR SBLP 122100Z 00000KT 9999 FEW030 32/18 Q1013;
0072832880999992012011310004-13267-043417FM-15+0443SBLP V0209999C000019999999Y0099001N1+02401+01901999999ADDMA1101491999999REMMET045METAR SBLP 131000Z 00000KT CAVOK 24/19 Q1015;
0072832880999992012011311004-13267-043417FM-15+0443SBLP V0209999C000019999999Y0099001N1+02601+01901999999ADDMA1101591999999REMMET045METAR SBLP 131100Z 00000KT CAVOK 26/19 Q1016;
0072832880999992012011312004-13267-043417FM-15+0443SBLP V0209999C000019999999Y0099001N1+02801+01801999999ADDMA1101591999999REMMET045METAR SBLP 131200Z 00000KT CAVOK 28/18 Q1016;
0072832880999992012011313004-13267-043417FM-15+0443SBLP V0209999C000019999999Y0099001N1+02901+01801999999ADDMA1101591999999REMMET045METAR SBLP 131300Z 00000KT CAVOK 29/18 Q1016;
0120832880999992012011314004-13267-043417FM-15+0443SBLP V0200901N003112200019N0112651N1+03001+01701999999ADDGA1021+009001999GF102991999999999999999999MA1101591999999REMMET051METAR SBLP 131400Z 09006KT 9999 FEW030 30/17 Q1016;
0120832880999992012011315004-13267-043417FM-15+0443SBLP V0200901N003112200019N0112651N1+03101+01701999999ADDGA1021+009001999GF102991999999999999999999MA1101491999999REMMET051METAR SBLP 131500Z 09006KT 9999 FEW030 31/17 Q1015;
0120832880999992012011316004-13267-043417FM-15+0443SBLP V0200901N003112200019N0112651N1+03101+01801999999ADDGA1021+009001999GF102991999999999999999999MA1101491999999REMMET051METAR SBLP 131600Z 09006KT 9999 FEW030 31/18 Q1015;
0120832880999992012011317004-13267-043417FM-15+0443SBLP V0200401N003112200019N0112651N1+03201+01801999999ADDGA1021+009001999GF102991999999999999999999MA1101491999999REMMET051METAR SBLP 131700Z 04006KT 9999 FEW030 32/18 Q1015;
0120832880999992012011318004-13267-043417FM-15+0443SBLP V0200901N002112200019N0112651N1+03001+01901999999ADDGA1021+009001999GF102991999999999999999999MA1101391999999REMMET051METAR SBLP 131800Z 09004KT 9999 FEW030 30/19 Q1014;
0120832880999992012011319004-13267-043417FM-15+0443SBLP V0209999C000012200019N0112651N1+02801+02001999999ADDGA1021+009001999GF102991999999999999999999MA1101291999999REMMET051METAR SBLP 131900Z 00000KT 9999 FEW030 28/20 Q1013;
0120832880999992012011321004-13267-043417FM-15+0443SBLP V0209999C000012200019N0112651N1+02701+02001999999ADDGA1021+009001999GF102991999999999999999999MA1101291999999REMMET051METAR SBLP 132100Z 00000KT 9999 FEW030 27/20 Q1013;
0072832880999992012011610004-13267-043417FM-15+0443SBLP V0209999C000019999999Y0099001N1+02301+02101999999ADDMA1101491999999REMMET045METAR SBLP 161000Z 00000KT CAVOK 23/21 Q1015;
0072832880999992012011611004-13267-043417FM-15+0443SBLP V0200901N003119999999Y0099001N1+02601+01901999999ADDMA1101591999999REMMET045METAR SBLP 161100Z 09006KT CAVOK 26/19 Q1016;
0072832880999992012011612004-13267-043417FM-15+0443SBLP V0200601N003119999999Y0099001N1+02801+01801999999ADDMA1101591999999REMMET045METAR SBLP 161200Z 06006KT CAVOK 28/18 Q1016;
0072832880999992012011613004-13267-043417FM-15+0443SBLP V0200601N003119999999Y0099001N1+03001+01901999999ADDMA1101591999999REMMET045METAR SBLP 161300Z 06006KT CAVOK 30/19 Q1016;
0072832880999992012011614004-13267-043417FM-15+0443SBLP V0209999C000019999999Y0099001N1+03101+01801999999ADDMA1101591999999REMMET045METAR SBLP 161400Z 00000KT CAVOK 31/18 Q1016;
0072832880999992012011615004-13267-043417FM-15+0443SBLP V0200901N003119999999Y0099001N1+03201+01801999999ADDMA1101491999999REMMET045METAR SBLP 161500Z 09006KT CAVOK 32/18 Q1015;
0120832880999992012011616004-13267-043417FM-15+0443SBLP V0200901N003112200019N0112651N1+03301+01801999999ADDGA1021+009001999GF102991999999999999999999MA1101391999999REMMET051METAR SBLP 161600Z 09006KT 9999 FEW030 33/18 Q1014;
0124832880999992012011617004-13267-043417FM-15+0443SBLP V0200901N003112200019N0112651N1+03401+01801999999ADDGA1021+009001999GF102991999999999999999999MA1101291999999REMMET055METAR SBLP 161700Z COR 09006KT 9999 FEW030 34/18 Q1013;
0120832880999992012011618004-13267-043417FM-15+0443SBLP V0200901N003112200019N0112651N1+03501+01801999999ADDGA1041+009001999GF104991999999999999999999MA1101191999999REMMET051METAR SBLP 161800Z 09006KT 9999 SCT030 35/18 Q1012;
0120832880999992012011619004-13267-043417FM-15+0443SBLP V0209999C000012200019N0112651N1+03401+01801999999ADDGA1021+009001999GF102991999999999999999999MA1101081999999REMMET051METAR SBLP 161900Z 00000KT 9999 FEW030 34/18 Q1011;
0120832880999992012011620004-13267-043417FM-15+0443SBLP V0209999C000012200019N0112651N1+03301+01801999999ADDGA1021+009001999GF102991999999999999999999MA1101081999999REMMET051METAR SBLP 162000Z 00000KT 9999 FEW030 33/18 Q1011;
0072832880999992012011621004-13267-043417FM-15+0443SBLP V0209999C000019999999Y0099001N1+03201+01801999999ADDMA1101081999999REMMET045METAR SBLP 162100Z 00000KT CAVOK 32/18 Q1011;
0072832880999992012011710004-13267-043417FM-15+0443SBLP V0209999C000019999999Y0099001N1+02401+01701999999ADDMA1101491999999REMMET045METAR SBLP 171000Z 00000KT CAVOK 24/17 Q1015;
0072832880999992012011711004-13267-043417FM-15+0443SBLP V0209999C000019999999Y0099001N1+02701+01701999999ADDMA1101491999999REMMET045METAR SBLP 171100Z 00000KT CAVOK 27/17 Q1015;
0076832880999992012011712004-13267-043417FM-15+0443SBLP V0209999C000019999999Y0099001N1+03001+01701999999ADDMA1101591999999REMMET049METAR SBLP 171200Z COR 00000KT CAVOK 30/17 Q1016;
0120832880999992012011713004-13267-043417FM-15+0443SBLP V0203601N003112200019N0112651N1+03001+01701999999ADDGA1021+009001999GF102991999999999999999999MA1101491999999REMMET051METAR SBLP 171300Z 36006KT 9999 FEW030 30/17 Q1015;
0120832880999992012011714004-13267-043417FM-15+0443SBLP V0203601N003112200019N0112651N1+03101+01701999999ADDGA1021+009001999GF102991999999999999999999MA1101491999999REMMET051METAR SBLP 171400Z 36006KT 9999 FEW030 31/17 Q1015;
0120832880999992012011715004-13267-043417FM-15+0443SBLP V0203601N003112200019N0112651N1+03201+01701999999ADDGA1041+009001999GF104991999999999999999999MA1101391999999REMMET051METAR SBLP 171500Z 36006KT 9999 SCT030 32/17 Q1014;
0120832880999992012011716004-13267-043417FM-15+0443SBLP V0209999C000012200019N0112651N1+03301+01601999999ADDGA1041+009001999GF104991999999999999999999MA1101291999999REMMET051METAR SBLP 171600Z 00000KT 9999 SCT030 33/16 Q1013;
0120832880999992012011717004-13267-043417FM-15+0443SBLP V0209999C000012200019N0112651N1+03401+01701999999ADDGA1041+009001999GF104991999999999999999999MA1101191999999REMMET051METAR SBLP 171700Z 00000KT 9999 SCT030 34/17 Q1012;
0124832880999992012011718004-13267-043417FM-15+0443SBLP V0203001N003112200019N0112651N1+03401+01701999999ADDGA1041+009001999GF104991999999999999999999MA1101081999999REMMET055METAR SBLP 171800Z COR 30006KT 9999 SCT030 34/17 Q1011;
0120832880999992012011719004-13267-043417FM-15+0443SBLP V0209999C000012200019N0112651N1+03401+01701999999ADDGA1021+009001999GF102991999999999999999999MA1101021999999REMMET051METAR SBLP 171900Z 00000KT 9999 FEW030 34/17 Q1010;
0124832880999992012011720004-13267-043417FM-15+0443SBLP V0209999C000012200019N0112651N1+03301+01701999999ADDGA1021+009001999GF102991999999999999999999MA1101021999999REMMET055METAR SBLP 172000Z COR 00000KT 9999 FEW030 33/17 Q1010;
0072832880999992012011721004-13267-043417FM-15+0443SBLP V0209999C000019999999Y0099001N1+03001+01901999999ADDMA1101021999999REMMET045METAR SBLP 172100Z 00000KT CAVOK 30/19 Q1010;
0072832880999992012011810004-13267-043417FM-15+0443SBLP V0209999C000019999999Y0099001N1+02401+02101999999ADDMA1101391999999REMMET045METAR SBLP 181000Z 00000KT CAVOK 24/21 Q1014;
0072832880999992012011811004-13267-043417FM-15+0443SBLP V0209999C000019999999Y0099001N1+02601+02101999999ADDMA1101491999999REMMET045METAR SBLP 181100Z 00000KT CAVOK 26/21 Q1015;
0072832880999992012011812004-13267-043417FM-15+0443SBLP V0209999C000019999999Y0099001N1+02801+02001999999ADDMA1101491999999REMMET045METAR SBLP 181200Z 00000KT CAVOK 28/20 Q1015;
0143832880999992012011813004-13267-043417FM-15+0443SBLP V0209999C000012200019N0112651N1+03001+02001999999ADDGA1021+009001999GA2041+030001999GF104991999999999999999999MA1101491999999REMMET058METAR SBLP 181300Z 00000KT 9999 FEW030 SCT100 30/20 Q1015;
0072832880999992012011814004-13267-043417FM-15+0443SBLP V0202701N003119999999Y0099001N1+03101+01801999999ADDMA1101391999999REMMET045METAR SBLP 181400Z 27006KT CAVOK 31/18 Q1014;
0143832880999992012011815004-13267-043417FM-15+0443SBLP V0203301N003112200019N0112651N1+03201+01801999999ADDGA1021+009001999GA2041+030001999GF104991999999999999999999MA1101291999999REMMET058METAR SBLP 181500Z 33006KT 9999 FEW030 SCT100 32/18 Q1013;
0143832880999992012011816004-13267-043417FM-15+0443SBLP V0203601N003112200019N0112651N1+03301+01801999999ADDGA1041+009001999GA2041+030001999GF104991999999999999999999MA1101191999999REMMET058METAR SBLP 181600Z 36006KT 9999 SCT030 SCT100 33/18 Q1012;
0120832880999992012011817004-13267-043417FM-15+0443SBLP V0203601N003112200019N0112651N1+03301+01801999999ADDGA1041+009001999GF104991999999999999999999MA1101081999999REMMET051METAR SBLP 181700Z 36006KT 9999 SCT030 33/18 Q1011;
0124832880999992012011818004-13267-043417FM-15+0443SBLP V0203601N003112200019N0112651N1+03501+01801999999ADDGA1041+009001999GF104991999999999999999999MA1101021999999REMMET055METAR SBLP 181800Z COR 36006KT 9999 SCT030 35/18 Q1010;
0120832880999992012011819004-13267-043417FM-15+0443SBLP V0203601N003112200019N0112651N1+03501+01801999999ADDGA1041+009001999GF104991999999999999999999MA1101021999999REMMET051METAR SBLP 181900Z 36006KT 9999 SCT030 35/18 Q1010;
0120832880999992012011820004-13267-043417FM-15+0443SBLP V0209999C000012200019N0112651N1+03401+01801999999ADDGA1021+009001999GF102991999999999999999999MA1101021999999REMMET051METAR SBLP 182000Z 00000KT 9999 FEW030 34/18 Q1010;
0120832880999992012011821004-13267-043417FM-15+0443SBLP V0209999C000012200019N0112651N1+03301+01801999999ADDGA1021+009001999GF102991999999999999999999MA1101021999999REMMET051METAR SBLP 182100Z 00000KT 9999 FEW030 33/18 Q1010;
0072832880999992012011910004-13267-043417FM-15+0443SBLP V0209999C000019999999Y0099001N1+02401+01801999999ADDMA1101391999999REMMET045METAR SBLP 191000Z 00000KT CAVOK 24/18 Q1014;
0072832880999992012011911004-13267-043417FM-15+0443SBLP V0209999C000019999999Y0099001N1+02701+01801999999ADDMA1101491999999REMMET045METAR SBLP 191100Z 00000KT CAVOK 27/18 Q1015;
0072832880999992012011912004-13267-043417FM-15+0443SBLP V0209999C000019999999Y0099001N1+02901+01801999999ADDMA1101491999999REMMET045METAR SBLP 191200Z 00000KT CAVOK 29/18 Q1015;
0072832880999992012011913004-13267-043417FM-15+0443SBLP V0209999C000019999999Y0099001N1+03001+01801999999ADDMA1101491999999REMMET045METAR SBLP 191300Z 00000KT CAVOK 30/18 Q1015;
0072832880999992012011914004-13267-043417FM-15+0443SBLP V0209999C000019999999Y0099001N1+03201+01801999999ADDMA1101391999999REMMET045METAR SBLP 191400Z 00000KT CAVOK 32/18 Q1014;
0120832880999992012011915004-13267-043417FM-15+0443SBLP V0200901N003112200019N0112651N1+03301+01801999999ADDGA1021+009001999GF102991999999999999999999MA1101291999999REMMET051METAR SBLP 191500Z 09006KT 9999 FEW030 33/18 Q1013;
0120832880999992012011916004-13267-043417FM-15+0443SBLP V0201601N003112200019N0112651N1+03301+01901999999ADDGA1021+009001999GF102991999999999999999999MA1101291999999REMMET051METAR SBLP 191600Z 16006KT 9999 FEW030 33/19 Q1013;
0120832880999992012011917004-13267-043417FM-15+0443SBLP V0202101N003112200019N0112651N1+03301+01701999999ADDGA1041+009001999GF104991999999999999999999MA1101081999999REMMET051METAR SBLP 191700Z 21006KT 9999 SCT030 33/17 Q1011;
0120832880999992012011918004-13267-043417FM-15+0443SBLP V0202701N003112200019N0112651N1+03401+01701999999ADDGA1041+009001999GF104991999999999999999999MA1101081999999REMMET051METAR SBLP 191800Z 27006KT 9999 SCT030 34/17 Q1011;
0120832880999992012011919004-13267-043417FM-15+0443SBLP V0202001N003112200019N0112651N1+03501+01801999999ADDGA1041+009001999GF104991999999999999999999MA1101021999999REMMET051METAR SBLP 191900Z 20006KT 9999 SCT030 35/18 Q1010;
0120832880999992012011920004-13267-043417FM-15+0443SBLP V0209999C000012200019N0112651N1+03601+01401999999ADDGA1021+009001999GF102991999999999999999999MA1101021999999REMMET051METAR SBLP 192000Z 00000KT 9999 FEW030 36/14 Q1010;
0072832880999992012011921004-13267-043417FM-15+0443SBLP V0209999C000019999999Y0099001N1+03401+02001999999ADDMA1101021999999REMMET045METAR SBLP 192100Z 00000KT CAVOK 34/20 Q1010;
0120832880999992012012018004-13267-043417FM-15+0443SBLP V0200901N003112200019N0112651N1+03301+01801999999ADDGA1041+009001999GF104991999999999999999999MA1101191999999REMMET051METAR SBLP 201800Z 09006KT 9999 SCT030 33/18 Q1012;
0120832880999992012012019004-13267-043417FM-15+0443SBLP V0200901N003112200019N0112651N1+03301+01801999999ADDGA1041+009001999GF104991999999999999999999MA1101081999999REMMET051METAR SBLP 201900Z 09006KT 9999 SCT030 33/18 Q1011;
0120832880999992012012020004-13267-043417FM-15+0443SBLP V0209999C000012200019N0112651N1+03201+01801999999ADDGA1041+009001999GF104991999999999999999999MA1101081999999REMMET051METAR SBLP 202000Z 00000KT 9999 SCT030 32/18 Q1011;
0120832880999992012012021004-13267-043417FM-15+0443SBLP V0209999C000012200019N0112651N1+03101+01901999999ADDGA1041+009001999GF104991999999999999999999MA1101081999999REMMET051METAR SBLP 202100Z 00000KT 9999 SCT030 31/19 Q1011;
0072832880999992012012310004-13267-043417FM-15+0443SBLP V0209999C000019999999Y0099001N1+02401+02001999999ADDMA1101391999999REMMET045METAR SBLP 231000Z 00000KT CAVOK 24/20 Q1014;
0072832880999992012012311004-13267-043417FM-15+0443SBLP V0209999C000019999999Y0099001N1+02701+02001999999ADDMA1101491999999REMMET045METAR SBLP 231100Z 00000KT CAVOK 27/20 Q1015;
0120832880999992012012312004-13267-043417FM-15+0443SBLP V0209999C000012200019N0112651N1+02901+01901999999ADDGA1021+009001999GF102991999999999999999999MA1101491999999REMMET051METAR SBLP 231200Z 00000KT 9999 FEW030 29/19 Q1015;
0120832880999992012012313004-13267-043417FM-15+0443SBLP V0200901N003112200019N0112651N1+03001+01901999999ADDGA1021+009001999GF102991999999999999999999MA1101491999999REMMET051METAR SBLP 231300Z 09006KT 9999 FEW030 30/19 Q1015;
0120832880999992012012314004-13267-043417FM-15+0443SBLP V0200901N003112200019N0112651N1+03101+01801999999ADDGA1041+009001999GF104991999999999999999999MA1101391999999REMMET051METAR SBLP 231400Z 09006KT 9999 SCT030 31/18 Q1014;
0120832880999992012012315004-13267-043417FM-15+0443SBLP V0200901N003112200019N0112651N1+03201+01801999999ADDGA1041+009001999GF104991999999999999999999MA1101291999999REMMET051METAR SBLP 231500Z 09006KT 9999 SCT030 32/18 Q1013;
0120832880999992012012316004-13267-043417FM-15+0443SBLP V0200901N003112200019N0112651N1+03201+01801999999ADDGA1041+009001999GF104991999999999999999999MA1101291999999REMMET051METAR SBLP 231600Z 09006KT 9999 SCT030 32/18 Q1013;
0120832880999992012012317004-13267-043417FM-15+0443SBLP V0201201N003112200019N0112651N1+03301+01801999999ADDGA1041+009001999GF104991999999999999999999MA1101081999999REMMET051METAR SBLP 231700Z 12006KT 9999 SCT030 33/18 Q1011;
0120832880999992012012318004-13267-043417FM-15+0443SBLP V0202101N003112200019N0112651N1+03401+01701999999ADDGA1041+009001999GF104991999999999999999999MA1101021999999REMMET051METAR SBLP 231800Z 21006KT 9999 SCT030 34/17 Q1010;
0120832880999992012012319004-13267-043417FM-15+0443SBLP V0201801N003112200019N0112651N1+03501+01701999999ADDGA1021+009001999GF102991999999999999999999MA1100911999999REMMET051METAR SBLP 231900Z 18006KT 9999 FEW030 35/17 Q1009;
0072832880999992012012320004-13267-043417FM-15+0443SBLP V0209999C000019999999Y0099001N1+03501+01701999999ADDMA1100911999999REMMET045METAR SBLP 232000Z 00000KT CAVOK 35/17 Q1009;
0072832880999992012012321004-13267-043417FM-15+0443SBLP V0209999C000019999999Y0099001N1+03301+01801999999ADDMA1100911999999REMMET045METAR SBLP 232100Z 00000KT CAVOK 33/18 Q1009;
0072832880999992012012410004-13267-043417FM-15+0443SBLP V0201401N002119999999Y0099001N1+02301+01801999999ADDMA1101391999999REMMET045METAR SBLP 241000Z 14004KT CAVOK 23/18 Q1014;
0072832880999992012012411004-13267-043417FM-15+0443SBLP V0200901N003119999999Y0099001N1+02801+01901999999ADDMA1101391999999REMMET045METAR SBLP 241100Z 09006KT CAVOK 28/19 Q1014;
0072832880999992012012412004-13267-043417FM-15+0443SBLP V0200901N005119999999Y0099001N1+02901+01701999999ADDMA1101491999999REMMET045METAR SBLP 241200Z 09010KT CAVOK 29/17 Q1015;
0072832880999992012012413004-13267-043417FM-15+0443SBLP V0200801N004119999999Y0099001N1+03001+01701999999ADDMA1101491999999REMMET045METAR SBLP 241300Z 08008KT CAVOK 30/17 Q1015;
0072832880999992012012414004-13267-043417FM-15+0443SBLP V0200901N005119999999Y0099001N1+03201+01801999999ADDMA1101391999999REMMET045METAR SBLP 241400Z 09010KT CAVOK 32/18 Q1014;
0120832880999992012012415004-13267-043417FM-15+0443SBLP V0200901N004112200019N0112651N1+03201+01701999999ADDGA1021+009001999GF102991999999999999999999MA1101391999999REMMET051METAR SBLP 241500Z 09008KT 9999 FEW030 32/17 Q1014;
0120832880999992012012416004-13267-043417FM-15+0443SBLP V0209999C000012200019N0112651N1+03301+01701999999ADDGA1021+009001999GF102991999999999999999999MA1101291999999REMMET051METAR SBLP 241600Z 00000KT 9999 FEW030 33/17 Q1013;
0120832880999992012012417004-13267-043417FM-15+0443SBLP V0200901N003112200019N0112651N1+03301+01701999999ADDGA1041+009001999GF104991999999999999999999MA1101191999999REMMET051METAR SBLP 241700Z 09006KT 9999 SCT030 33/17 Q1012;
0120832880999992012012418004-13267-043417FM-15+0443SBLP V0200901N003112200019N0112651N1+03401+01701999999ADDGA1041+009001999GF104991999999999999999999MA1101081999999REMMET051METAR SBLP 241800Z 09006KT 9999 SCT030 34/17 Q1011;
0120832880999992012012419004-13267-043417FM-15+0443SBLP V0200901N003112200019N0112651N1+03301+01701999999ADDGA1041+009001999GF104991999999999999999999MA1101021999999REMMET051METAR SBLP 241900Z 09006KT 9999 SCT030 33/17 Q1010;
0120832880999992012012420004-13267-043417FM-15+0443SBLP V0209999C000012200019N0112651N1+03301+01701999999ADDGA1041+009001999GF104991999999999999999999MA1101021999999REMMET051METAR SBLP 242000Z 00000KT 9999 SCT030 33/17 Q1010;
0120832880999992012012421004-13267-043417FM-15+0443SBLP V0209999C000012200019N0112651N1+03201+01701999999ADDGA1021+009001999GF102991999999999999999999MA1101021999999REMMET051METAR SBLP 242100Z 00000KT 9999 FEW030 32/17 Q1010;
0072832880999992012012510004-13267-043417FM-15+0443SBLP V0209999C000019999999Y0099001N1+02401+01901999999ADDMA1101391999999REMMET045METAR SBLP 251000Z 00000KT CAVOK 24/19 Q1014;
0072832880999992012012511004-13267-043417FM-15+0443SBLP V0209999C000019999999Y0099001N1+02601+01901999999ADDMA1101391999999REMMET045METAR SBLP 251100Z 00000KT CAVOK 26/19 Q1014;
0072832880999992012012512004-13267-043417FM-15+0443SBLP V0209999C000019999999Y0099001N1+02701+01901999999ADDMA1101391999999REMMET045METAR SBLP 251200Z 00000KT CAVOK 27/19 Q1014;
0120832880999992012012513004-13267-043417FM-15+0443SBLP V0200901N003112200019N0112651N1+02901+01901999999ADDGA1021+009001999GF102991999999999999999999MA1101391999999REMMET051METAR SBLP 251300Z 09006KT 9999 FEW030 29/19 Q1014;
0120832880999992012012514004-13267-043417FM-15+0443SBLP V0200901N003112200019N0112651N1+03001+01901999999ADDGA1021+009001999GF102991999999999999999999MA1101391999999REMMET051METAR SBLP 251400Z 09006KT 9999 FEW030 30/19 Q1014;
0120832880999992012012515004-13267-043417FM-15+0443SBLP V0201801N003112200019N0112651N1+03101+01901999999ADDGA1021+009001999GF102991999999999999999999MA1101391999999REMMET051METAR SBLP 251500Z 18006KT 9999 FEW030 31/19 Q1014;
0178832880999992012012516004-13267-043417FM-15+0443SBLP V0200901N002112200019N0112651N1+03301+99999999999ADDGA1021+009001999GA2041+030001999GF104991999999999999999999MA1101291999999REMMET058METAR SBLP 251600Z 09004KT 9999 FEW030 SCT100 33/11 Q1013;EQDQ01+001103ATOD  Q02 +01103ATOD  
0143832880999992012012517004-13267-043417FM-15+0443SBLP V0201601N003112200019N0112651N1+03401+01901999999ADDGA1021+009001999GA2041+030001999GF104991999999999999999999MA1101191999999REMMET058METAR SBLP 251700Z 16006KT 9999 FEW030 SCT100 34/19 Q1012;
0143832880999992012012518004-13267-043417FM-15+0443SBLP V0201801N003112200019N0112651N1+03201+01901999999ADDGA1021+009001999GA2041+030001999GF104991999999999999999999MA1101191999999REMMET058METAR SBLP 251800Z 18006KT 9999 FEW030 SCT100 32/19 Q1012;
0143832880999992012012519004-13267-043417FM-15+0443SBLP V0201801N003112200019N0112651N1+03301+02001999999ADDGA1021+009001999GA2041+030001999GF104991999999999999999999MA1101081999999REMMET058METAR SBLP 251900Z 18006KT 9999 FEW030 SCT100 33/20 Q1011;
0143832880999992012012520004-13267-043417FM-15+0443SBLP V0201101N003112200019N0112651N1+03201+01701999999ADDGA1021+009001999GA2041+030001999GF104991999999999999999999MA1101021999999REMMET058METAR SBLP 252000Z 11006KT 9999 FEW030 SCT100 32/17 Q1010;
0072832880999992012012521004-13267-043417FM-15+0443SBLP V0200901N004119999999Y0099001N1+03201+01701999999ADDMA1101021999999REMMET045METAR SBLP 252100Z 09008KT CAVOK 32/17 Q1010;
0072832880999992012012610004-13267-043417FM-15+0443SBLP V0201201N003119999999Y0099001N1+02401+01801999999ADDMA1101391999999REMMET045METAR SBLP 261000Z 12006KT CAVOK 24/18 Q1014;
0072832880999992012012611004-13267-043417FM-15+0443SBLP V0201201N002119999999Y0099001N1+02701+01801999999ADDMA1101391999999REMMET045METAR SBLP 261100Z 12004KT CAVOK 27/18 Q1014;
0072832880999992012012612004-13267-043417FM-15+0443SBLP V0200601N002119999999Y0099001N1+02901+01901999999ADDMA1101391999999REMMET045METAR SBLP 261200Z 06004KT CAVOK 29/19 Q1014;
0072832880999992012012613004-13267-043417FM-15+0443SBLP V0200501N003119999999Y0099001N1+03101+01901999999ADDMA1101391999999REMMET045METAR SBLP 261300Z 05006KT CAVOK 31/19 Q1014;
0072832880999992012012614004-13267-043417FM-15+0443SBLP V0201201N002119999999Y0099001N1+03201+01701999999ADDMA1101391999999REMMET045METAR SBLP 261400Z 12004KT CAVOK 32/17 Q1014;
0120832880999992012012615004-13267-043417FM-15+0443SBLP V0201801N003112200019N0112651N1+03201+01701999999ADDGA1021+009001999GF102991999999999999999999MA1101291999999REMMET051METAR SBLP 261500Z 18006KT 9999 FEW030 32/17 Q1013;
0120832880999992012012616004-13267-043417FM-15+0443SBLP V0201801N003112200019N0112651N1+03301+01701999999ADDGA1021+009001999GF102991999999999999999999MA1101191999999REMMET051METAR SBLP 261600Z 18006KT 9999 FEW030 33/17 Q1012;
0120832880999992012012617004-13267-043417FM-15+0443SBLP V0201801N003112200019N0112651N1+03401+01701999999ADDGA1041+009001999GF104991999999999999999999MA1101081999999REMMET051METAR SBLP 261700Z 18006KT 9999 SCT030 34/17 Q1011;
0120832880999992012012618004-13267-043417FM-15+0443SBLP V0201801N003112200019N0112651N1+03501+01701999999ADDGA1041+009001999GF104991999999999999999999MA1101021999999REMMET051METAR SBLP 261800Z 18006KT 9999 SCT030 35/17 Q1010;
0120832880999992012012619004-13267-043417FM-15+0443SBLP V0201801N003112200019N0112651N1+03501+01701999999ADDGA1041+009001999GF104991999999999999999999MA1100911999999REMMET051METAR SBLP 261900Z 18006KT 9999 SCT030 35/17 Q1009;
0120832880999992012012620004-13267-043417FM-15+0443SBLP V0201801N003112200019N0112651N1+03401+01701999999ADDGA1021+009001999GF102991999999999999999999MA1100911999999REMMET051METAR SBLP 262000Z 18006KT 9999 FEW030 34/17 Q1009;
0120832880999992012012621004-13267-043417FM-15+0443SBLP V0209999C000012200019N0112651N1+03401+01701999999ADDGA1021+009001999GF102991999999999999999999MA1100911999999REMMET051METAR SBLP 262100Z 00000KT 9999 FEW030 34/17 Q1009;
0072832880999992012012710004-13267-043417FM-15+0443SBLP V0209999C000019999999Y0099001N1+02501+02001999999ADDMA1101291999999REMMET045METAR SBLP 271000Z 00000KT CAVOK 25/20 Q1013;
0072832880999992012012711004-13267-043417FM-15+0443SBLP V0209999C000019999999Y0099001N1+02801+02001999999ADDMA1101291999999REMMET045METAR SBLP 271100Z 00000KT CAVOK 28/20 Q1013;
0072832880999992012012712004-13267-043417FM-15+0443SBLP V0209999C000019999999Y0099001N1+02901+02001999999ADDMA1101391999999REMMET045METAR SBLP 271200Z 00000KT CAVOK 29/20 Q1014;
0072832880999992012012713004-13267-043417FM-15+0443SBLP V0203601N003119999999Y0099001N1+03101+01901999999ADDMA1101391999999REMMET045METAR SBLP 271300Z 36006KT CAVOK 31/19 Q1014;
0120832880999992012012714004-13267-043417FM-15+0443SBLP V0203601N003112200019N0112651N1+03101+01901999999ADDGA1021+009001999GF102991999999999999999999MA1101291999999REMMET051METAR SBLP 271400Z 36006KT 9999 FEW030 31/19 Q1013;
0120832880999992012012715004-13267-043417FM-15+0443SBLP V0203601N003112200019N0112651N1+03301+01801999999ADDGA1021+009001999GF102991999999999999999999MA1101191999999REMMET051METAR SBLP 271500Z 36006KT 9999 FEW030 33/18 Q1012;
0143832880999992012012716004-13267-043417FM-15+0443SBLP V0209999C000012200019N0112651N1+03301+01801999999ADDGA1021+009001999GA2041+030001999GF104991999999999999999999MA1101191999999REMMET058METAR SBLP 271600Z 00000KT 9999 FEW030 SCT100 33/18 Q1012;
0143832880999992012012717004-13267-043417FM-15+0443SBLP V0209999C000012200019N0112651N1+03401+01801999999ADDGA1021+009001999GA2041+030001999GF104991999999999999999999MA1101021999999REMMET058METAR SBLP 271700Z 00000KT 9999 FEW030 SCT100 34/18 Q1010;
0143832880999992012012718004-13267-043417FM-15+0443SBLP V0209999C000012200019N0112651N1+03501+01701999999ADDGA1021+009001999GA2041+030001999GF104991999999999999999999MA1100911999999REMMET058METAR SBLP 271800Z 00000KT 9999 FEW030 SCT100 35/17 Q1009;
0143832880999992012012719004-13267-043417FM-15+0443SBLP V0209999C000012200019N0112651N1+03501+01701999999ADDGA1021+009001999GA2041+030001999GF104991999999999999999999MA1100911999999REMMET058METAR SBLP 271900Z 00000KT 9999 FEW030 SCT100 35/17 Q1009;
0143832880999992012012720004-13267-043417FM-15+0443SBLP V0209999C000012200019N0112651N1+03501+01701999999ADDGA1021+009001999GA2041+030001999GF104991999999999999999999MA1100811999999REMMET058METAR SBLP 272000Z 00000KT 9999 FEW030 SCT100 35/17 Q1008;
0072832880999992012012721004-13267-043417FM-15+0443SBLP V0209999C000019999999Y0099001N1+03201+01701999999ADDMA1100811999999REMMET045METAR SBLP 272100Z 00000KT CAVOK 32/17 Q1008;
0072832880999992012013010004-13267-043417FM-15+0443SBLP V0209999C000019999999Y0099001N1+02401+02001999999ADDMA1101191999999REMMET045METAR SBLP 301000Z 00000KT CAVOK 24/20 Q1012;
0072832880999992012013011004-13267-043417FM-15+0443SBLP V0209999C000019999999Y0099001N1+02601+02001999999ADDMA1101291999999REMMET045METAR SBLP 301100Z 00000KT CAVOK 26/20 Q1013;
0076832880999992012013012004-13267-043417FM-15+0443SBLP V0209999C000019999999Y0099001N1+02901+01901999999ADDMA1101291999999REMMET049METAR SBLP 301200Z COR 00000KT CAVOK 29/19 Q1013;
0143832880999992012013013004-13267-043417FM-15+0443SBLP V0209999C000012200019N0112651N1+03001+01801999999ADDGA1021+009001999GA2041+030001999GF104991999999999999999999MA1101291999999REMMET058METAR SBLP 301300Z 00000KT 9999 FEW030 SCT100 30/18 Q1013;
0147832880999992012013014004-13267-043417FM-15+0443SBLP V0209999C000012200019N0112651N1+03201+01901999999ADDGA1021+009001999GA2041+030001999GF104991999999999999999999MA1101291999999REMMET062METAR SBLP 301400Z COR 00000KT 9999 FEW030 SCT100 32/19 Q1013;
0143832880999992012013015004-13267-043417FM-15+0443SBLP V0202101N003112200019N0112651N1+03301+01901999999ADDGA1021+009001999GA2041+030001999GF104991999999999999999999MA1101191999999REMMET058METAR SBLP 301500Z 21006KT 9999 FEW030 SCT100 33/19 Q1012;
0143832880999992012013016004-13267-043417FM-15+0443SBLP V0201801N003112200019N0112651N1+03301+01901999999ADDGA1041+009001999GA2041+030001999GF104991999999999999999999MA1101081999999REMMET058METAR SBLP 301600Z 18006KT 9999 SCT030 SCT100 33/19 Q1011;
0143832880999992012013017004-13267-043417FM-15+0443SBLP V0201801N003110300019N0112651N1+03301+01901999999ADDGA1041+009001999GA2071+030001999GF107991999999999999999999MA1100911999999REMMET058METAR SBLP 301700Z 18006KT 9999 SCT030 BKN100 33/19 Q1009;
0143832880999992012013018004-13267-043417FM-15+0443SBLP V0201801N003110300019N0112651N1+03401+01901999999ADDGA1041+009001999GA2071+030001999GF107991999999999999999999MA1100811999999REMMET058METAR SBLP 301800Z 18006KT 9999 SCT030 BKN100 34/19 Q1008;
0143832880999992012013019004-13267-043417FM-15+0443SBLP V0201801N003110300019N0112651N1+03501+01801999999ADDGA1041+009001999GA2071+030001999GF107991999999999999999999MA1100711999999REMMET058METAR SBLP 301900Z 18006KT 9999 SCT030 BKN100 35/18 Q1007;
0143832880999992012013020004-13267-043417FM-15+0443SBLP V0201801N003110300019N0112651N1+03401+01801999999ADDGA1041+009001999GA2071+030001999GF107991999999999999999999MA1100711999999REMMET058METAR SBLP 302000Z 18006KT 9999 SCT030 BKN100 34/18 Q1007;
0143832880999992012013021004-13267-043417FM-15+0443SBLP V0201801N003110300019N0112651N1+03301+01901999999ADDGA1021+009001999GA2071+030001999GF107991999999999999999999MA1100811999999REMMET058METAR SBLP 302100Z 18006KT 9999 FEW030 BKN100 33/19 Q1008;
0143832880999992012013110004-13267-043417FM-15+0443SBLP V0209999C000010300019N0112651N1+02301+02101999999ADDGA1021+006001999GA2071+030001999GF107991999999999999999999MA1101291999999REMMET058METAR SBLP 311000Z 00000KT 9999 FEW020 BKN100 23/21 Q1013;
0143832880999992012013111004-13267-043417FM-15+0443SBLP V0209999C000010300019N0112651N1+02501+02101999999ADDGA1021+006001999GA2071+030001999GF107991999999999999999999MA1101391999999REMMET058METAR SBLP 311100Z 00000KT 9999 FEW020 BKN100 25/21 Q1014;
0143832880999992012013112004-13267-043417FM-15+0443SBLP V0209999C000010300019N0112651N1+02601+02001999999ADDGA1021+006001999GA2071+030001999GF107991999999999999999999MA1101391999999REMMET058METAR SBLP 311200Z 00000KT 9999 FEW020 BKN100 26/20 Q1014;
0143832880999992012013113004-13267-043417FM-15+0443SBLP V0209999C000010300019N0112651N1+02601+02001999999ADDGA1021+006001999GA2071+030001999GF107991999999999999999999MA1101491999999REMMET058METAR SBLP 311300Z 00000KT 9999 FEW020 BKN100 26/20 Q1015;
0143832880999992012013114004-13267-043417FM-15+0443SBLP V0209999C000010300019N0112651N1+02701+02001999999ADDGA1021+006001999GA2071+030001999GF107991999999999999999999MA1101491999999REMMET058METAR SBLP 311400Z 00000KT 9999 FEW020 BKN100 27/20 Q1015;
0143832880999992012013115004-13267-043417FM-15+0443SBLP V0209999C000010300019N0112651N1+02701+02001999999ADDGA1021+006001999GA2071+030001999GF107991999999999999999999MA1101391999999REMMET058METAR SBLP 311500Z 00000KT 9999 FEW020 BKN100 27/20 Q1014;
0143832880999992012013116004-13267-043417FM-15+0443SBLP V0202101N002110300019N0112651N1+02901+02201999999ADDGA1021+009001999GA2071+030001999GF107991999999999999999999MA1101291999999REMMET058METAR SBLP 311600Z 21004KT 9999 FEW030 BKN100 29/22 Q1013;
0143832880999992012013117004-13267-043417FM-15+0443SBLP V0202101N004110300019N0112651N1+02901+02101999999ADDGA1021+009001999GA2071+030001999GF107991999999999999999999MA1101191999999REMMET058METAR SBLP 311700Z 21008KT 9999 FEW030 BKN100 29/21 Q1012;
0143832880999992012013118004-13267-043417FM-15+0443SBLP V0201801N003110300019N0112651N1+02901+02201999999ADDGA1021+009001999GA2071+030001999GF107991999999999999999999MA1101081999999REMMET058METAR SBLP 311800Z 18006KT 9999 FEW030 BKN100 29/22 Q1011;
0143832880999992012013119004-13267-043417FM-15+0443SBLP V0201801N003110300019N0112651N1+02801+02201999999ADDGA1021+009001999GA2071+030001999GF107991999999999999999999MA1101081999999REMMET058METAR SBLP 311900Z 18006KT 9999 FEW030 BKN100 28/22 Q1011;
0143832880999992012013120004-13267-043417FM-15+0443SBLP V0201601N003110300019N0112651N1+02701+02201999999ADDGA1021+009001999GA2071+030001999GF107991999999999999999999MA1101081999999REMMET058METAR SBLP 312000Z 16006KT 9999 FEW030 BKN100 27/22 Q1011;
0143832880999992012013121004-13267-043417FM-15+0443SBLP V0201801N003110300019N0112651N1+02701+02201999999ADDGA1021+009001999GA2071+030001999GF107991999999999999999999MA1101191999999REMMET058METAR SBLP 312100Z 18006KT 9999 FEW030 BKN100 27/22 Q1012;
0054832880999992012020110004-13267-043417FM-15+0443SBLP V0201601N002119999999Y0099001N1+02401+02101999999REMMET045METAR SBLP 011000Z 16004KT CAVOK 24/21 Q////;
0072832880999992012020111004-13267-043417FM-15+0443SBLP V0201501N002119999999Y0099001N1+02801+02001999999ADDMA1101491999999REMMET045METAR SBLP 011100Z 15004KT CAVOK 28/20 Q1015;
0120832880999992012020112004-13267-043417FM-15+0443SBLP V0209999C000012200019N0112651N1+02901+02101999999ADDGA1021+009001999GF102991999999999999999999MA1101591999999REMMET051METAR SBLP 011200Z 00000KT 9999 FEW030 29/21 Q1016;
0120832880999992012020113004-13267-043417FM-15+0443SBLP V0202101N002112200019N0112651N1+02901+02101999999ADDGA1041+009001999GF104991999999999999999999MA1101591999999REMMET051METAR SBLP 011300Z 21004KT 9999 SCT030 29/21 Q1016;
0143832880999992012020114054-13267-043417FM-15+0443SBLP V0202101N003110300019N0112651N1+02901+02001999999ADDGA1041+009001999GA2071+030001999GF107991999999999999999999MA1101491999999REMMET058METAR SBLP 011405Z 21006KT 9999 SCT030 BKN100 29/20 Q1015;
0143832880999992012020115014-13267-043417FM-15+0443SBLP V0201801N004110300019N0112651N1+03101+02001999999ADDGA1041+009001999GA2071+030001999GF107991999999999999999999MA1101491999999REMMET058METAR SBLP 011501Z 18008KT 9999 SCT030 BKN100 31/20 Q1015;
0143832880999992012020116004-13267-043417FM-15+0443SBLP V0201801N002610300019N0112651N1+03101+02001999999ADDGA1041+009001999GA2071+030001999GF107991999999999999999999MA1101291999999REMMET058METAR SBLP 011600Z 18005KT 9999 SCT030 BKN100 31/20 Q1013;
0143832880999992012020117004-13267-043417FM-15+0443SBLP V0201801N003110300019N0112651N1+03101+02001999999ADDGA1021+009001999GA2071+030001999GF107991999999999999999999MA1101291999999REMMET058METAR SBLP 011700Z 18006KT 9999 FEW030 BKN100 31/20 Q1013;
0143832880999992012020118004-13267-043417FM-15+0443SBLP V0201801N002610300019N0112651N1+03001+02101999999ADDGA1021+009001999GA2071+030001999GF107991999999999999999999MA1101191999999REMMET058METAR SBLP 011800Z 18005KT 9999 FEW030 BKN100 30/21 Q1012;
0143832880999992012020119004-13267-043417FM-15+0443SBLP V0201801N002110300019N0112651N1+03001+02101999999ADDGA1021+009001999GA2071+030001999GF107991999999999999999999MA1101081999999REMMET058METAR SBLP 011900Z 18004KT 9999 FEW030 BKN100 30/21 Q1011;
0177832880999992012020120004-13267-043417FM-15+0443SBLP V0209999C000010300019N0112651N1+03001+01901999999ADDGA1021+009001999GA2021+012001091GA3071+030001999GF107991999999999999999999MA1101081999999MW1171REMMET070METAR SBLP 012000Z 00000KT 9999 TS FEW030 FEW040CB BKN100 30/19 Q1011;
0186832880999992012020121004-13267-043417FM-15+0443SBLP V0201301N006210300019N0080001N1+02401+02101999999ADDGA1021+008101999GA2021+012001091GA3071+030001999GF107991999999999999999999MA1101191999999MW1801MW2951REMMET073METAR SBLP 012100Z 13012KT 8000 -TSRA FEW027 FEW040CB BKN100 24/21 Q1012;
0143832880999992012020210004-13267-043417FM-15+0443SBLP V0201301N002610300019N0112651N1+02201+01901999999ADDGA1021+008101999GA2071+030001999GF107991999999999999999999MA1101491999999REMMET058METAR SBLP 021000Z 13005KT 9999 FEW027 BKN100 22/19 Q1015;
0143832880999992012020211004-13267-043417FM-15+0443SBLP V0201301N002610300019N0112651N1+02801+02301999999ADDGA1021+008101999GA2071+030001999GF107991999999999999999999MA1101491999999REMMET058METAR SBLP 021100Z 13005KT 9999 FEW027 BKN100 28/23 Q1015;
0143832880999992012020212004-13267-043417FM-15+0443SBLP V0201501N003110300019N0112651N1+02501+02001999999ADDGA1021+008101999GA2071+030001999GF107991999999999999999999MA1101591999999REMMET058METAR SBLP 021200Z 15006KT 9999 FEW027 BKN100 25/20 Q1016;
0143832880999992012020213004-13267-043417FM-15+0443SBLP V0201501N003112200019N0112651N1+02801+01901999999ADDGA1021+008101999GA2041+030001999GF104991999999999999999999MA1101491999999REMMET058METAR SBLP 021300Z 15006KT 9999 FEW027 SCT100 28/19 Q1015;
0120832880999992012020214004-13267-043417FM-15+0443SBLP V0201101N002112200019N0112651N1+03101+01801999999ADDGA1021+009001999GF102991999999999999999999MA1101491999999REMMET051METAR SBLP 021400Z 11004KT 9999 FEW030 31/18 Q1015;
0120832880999992012020215004-13267-043417FM-15+0443SBLP V0201501N002112200019N0112651N1+03101+01801999999ADDGA1041+008101999GF104991999999999999999999MA1101491999999REMMET051METAR SBLP 021500Z 15004KT 9999 SCT027 31/18 Q1015;
0143832880999992012020216004-13267-043417FM-15+0443SBLP V0209999C000012200019N0112651N1+03301+01701999999ADDGA1041+006001999GA2041+030001999GF104991999999999999999999MA1101391999999REMMET058METAR SBLP 021600Z 00000KT 9999 SCT020 SCT100 33/17 Q1014;
0143832880999992012020217004-13267-043417FM-15+0443SBLP V0209999C000010300019N0112651N1+03301+01701999999ADDGA1041+006001999GA2071+030001999GF107991999999999999999999MA1101291999999REMMET058METAR SBLP 021700Z 00000KT 9999 SCT020 BKN100 33/17 Q1013;
0143832880999992012020218004-13267-043417FM-15+0443SBLP V0209999C000010300019N0112651N1+03301+01901999999ADDGA1041+006001999GA2071+030001999GF107991999999999999999999MA1101191999999REMMET058METAR SBLP 021800Z 00000KT 9999 SCT020 BKN100 33/19 Q1012;
0143832880999992012020219004-13267-043417FM-15+0443SBLP V0201201N003110300019N0112651N1+03501+01701999999ADDGA1041+006001999GA2071+030001999GF107991999999999999999999MA1101191999999REMMET058METAR SBLP 021900Z 12006KT 9999 SCT020 BKN100 35/17 Q1012;
0143832880999992012020220004-13267-043417FM-15+0443SBLP V0201201N003112200019N0112651N1+03401+01901999999ADDGA1021+006001999GA2041+030001999GF104991999999999999999999MA1101081999999REMMET058METAR SBLP 022000Z 12006KT 9999 FEW020 SCT100 34/19 Q1011;
0143832880999992012020221004-13267-043417FM-15+0443SBLP V0209999C000012200019N0112651N1+03201+01901999999ADDGA1021+006001999GA2041+030001999GF104991999999999999999999MA1101191999999REMMET058METAR SBLP 022100Z 00000KT 9999 FEW020 SCT100 32/19 Q1012;
0072832880999992012020310004-13267-043417FM-15+0443SBLP V0209999C000019999999Y0099001N1+02301+01801999999ADDMA1101491999999REMMET045METAR SBLP 031000Z 00000KT CAVOK 23/18 Q1015;
0072832880999992012020311004-13267-043417FM-15+0443SBLP V0201801N003119999999Y0099001N1+02601+02001999999ADDMA1101591999999REMMET045METAR SBLP 031100Z 18006KT CAVOK 26/20 Q1016;
0120832880999992012020317004-13267-043417FM-15+0443SBLP V0200901N003112200019N0112651N1+03501+01601999999ADDGA1041+009001999GF104991999999999999999999MA1101191999999REMMET051METAR SBLP 031700Z 09006KT 9999 SCT030 35/16 Q1012;
0120832880999992012020318004-13267-043417FM-15+0443SBLP V0200901N003112200019N0112651N1+03501+01601999999ADDGA1041+009001999GF104991999999999999999999MA1101191999999REMMET051METAR SBLP 031800Z 09006KT 9999 SCT030 35/16 Q1012;
0120832880999992012020319004-13267-043417FM-15+0443SBLP V0201801N003112200019N0112651N1+03401+01701999999ADDGA1021+009001999GF102991999999999999999999MA1101081999999REMMET051METAR SBLP 031900Z 18006KT 9999 FEW030 34/17 Q1011;
0120832880999992012020320004-13267-043417FM-15+0443SBLP V0201801N003112200019N0112651N1+03301+01701999999ADDGA1021+009001999GF102991999999999999999999MA1101081999999REMMET051METAR SBLP 032000Z 18006KT 9999 FEW030 33/17 Q1011;
0120832880999992012020321004-13267-043417FM-15+0443SBLP V0201801N003112200019N0112651N1+03201+01701999999ADDGA1021+009001999GF102991999999999999999999MA1101081999999REMMET051METAR SBLP 032100Z 18006KT 9999 FEW030 32/17 Q1011;
0072832880999992012020610004-13267-043417FM-15+0443SBLP V0209999C000019999999Y0099001N1+02401+01901999999ADDMA1101591999999REMMET045METAR SBLP 061000Z 00000KT CAVOK 24/19 Q1016;
0072832880999992012020611004-13267-043417FM-15+0443SBLP V0209999C000019999999Y0099001N1+02701+01901999999ADDMA1101591999999REMMET045METAR SBLP 061100Z 00000KT CAVOK 27/19 Q1016;
0072832880999992012020612004-13267-043417FM-15+0443SBLP V0209999C000019999999Y0099001N1+02901+01901999999ADDMA1101691999999REMMET045METAR SBLP 061200Z 00000KT CAVOK 29/19 Q1017;
0072832880999992012020613004-13267-043417FM-15+0443SBLP V0209999C000019999999Y0099001N1+03101+01801999999ADDMA1101591999999REMMET045METAR SBLP 061300Z 00000KT CAVOK 31/18 Q1016;
0072832880999992012020614004-13267-043417FM-15+0443SBLP V0201801N003119999999Y0099001N1+03201+01801999999ADDMA1101591999999REMMET045METAR SBLP 061400Z 18006KT CAVOK 32/18 Q1016;
0120832880999992012020615004-13267-043417FM-15+0443SBLP V0201801N003112200019N0112651N1+03201+01801999999ADDGA1021+009001999GF102991999999999999999999MA1101491999999REMMET051METAR SBLP 061500Z 18006KT 9999 FEW030 32/18 Q1015;
0120832880999992012020616004-13267-043417FM-15+0443SBLP V0201801N004112200019N0112651N1+03401+01801999999ADDGA1041+009001999GF104991999999999999999999MA1101391999999REMMET051METAR SBLP 061600Z 18008KT 9999 SCT030 34/18 Q1014;
0120832880999992012020617004-13267-043417FM-15+0443SBLP V0201801N004112200019N0112651N1+03501+01801999999ADDGA1041+009001999GF104991999999999999999999MA1101191999999REMMET051METAR SBLP 061700Z 18008KT 9999 SCT030 35/18 Q1012;
0120832880999992012020618004-13267-043417FM-15+0443SBLP V0201801N003112200019N0112651N1+03501+01701999999ADDGA1021+009001999GF102991999999999999999999MA1101191999999REMMET051METAR SBLP 061800Z 18006KT 9999 FEW030 35/17 Q1012;
0120832880999992012020619004-13267-043417FM-15+0443SBLP V0202401N002112200019N0112651N1+03601+01701999999ADDGA1021+009001999GF102991999999999999999999MA1101081999999REMMET051METAR SBLP 061900Z 24004KT 9999 FEW030 36/17 Q1011;
0120832880999992012020620004-13267-043417FM-15+0443SBLP V0201801N003112200019N0112651N1+03601+01401999999ADDGA1021+009001999GF102991999999999999999999MA1101081999999REMMET051METAR SBLP 062000Z 18006KT 9999 FEW030 36/14 Q1011;
0072832880999992012020621004-13267-043417FM-15+0443SBLP V0201801N002119999999Y0099001N1+03401+01601999999ADDMA1101081999999REMMET045METAR SBLP 062100Z 18004KT CAVOK 34/16 Q1011;
0120832880999992012020710004-13267-043417FM-15+0443SBLP V0209999C000012200019N0112651N1+02401+01801999999ADDGA1021+009001999GF102991999999999999999999MA1101291999999REMMET051METAR SBLP 071000Z 00000KT 9999 FEW030 24/18 Q1013;
0072832880999992012020711004-13267-043417FM-15+0443SBLP V0209999C000019999999Y0099001N1+02701+01901999999ADDMA1101391999999REMMET045METAR SBLP 071100Z 00000KT CAVOK 27/19 Q1014;
0072832880999992012020712004-13267-043417FM-15+0443SBLP V0200301N002119999999Y0099001N1+03001+01801999999ADDMA1101391999999REMMET045METAR SBLP 071200Z 03004KT CAVOK 30/18 Q1014;
0120832880999992012020717004-13267-043417FM-15+0443SBLP V0202501N002112200019N0112651N1+03601+01601999999ADDGA1041+009001999GF104991999999999999999999MA1101021999999REMMET051METAR SBLP 071700Z 25004KT 9999 SCT030 36/16 Q1010;
0120832880999992012020718004-13267-043417FM-15+0443SBLP V0201801N003112200019N0112651N1+03701+01601999999ADDGA1041+009001999GF104991999999999999999999MA1100911999999REMMET051METAR SBLP 071800Z 18006KT 9999 SCT030 37/16 Q1009;
0120832880999992012020719004-13267-043417FM-15+0443SBLP V0201801N003112200019N0112651N1+03701+01701999999ADDGA1041+009001999GF104991999999999999999999MA1100811999999REMMET051METAR SBLP 071900Z 18006KT 9999 SCT030 37/17 Q1008;
0120832880999992012020721004-13267-043417FM-15+0443SBLP V0201801N001512200019N0112651N1+03501+01701999999ADDGA1021+009001999GF102991999999999999999999MA1100811999999REMMET051METAR SBLP 072100Z 18003KT 9999 FEW030 35/17 Q1008;
0072832880999992012020810004-13267-043417FM-15+0443SBLP V0200901N001019999999Y0099001N1+02601+01701999999ADDMA1101081999999REMMET045METAR SBLP 081000Z 09002KT CAVOK 26/17 Q1011;
0072832880999992012020812004-13267-043417FM-15+0443SBLP V0201801N001519999999Y0099001N1+03101+01801999999ADDMA1101191999999REMMET045METAR SBLP 081200Z 18003KT CAVOK 31/18 Q1012;
0072832880999992012020813004-13267-043417FM-15+0443SBLP V0202101N003119999999Y0099001N1+03201+01801999999ADDMA1101191999999REMMET045METAR SBLP 081300Z 21006KT CAVOK 32/18 Q1012;
0120832880999992012020814004-13267-043417FM-15+0443SBLP V0202101N001512200019N0112651N1+03401+01701999999ADDGA1021+009001999GF102991999999999999999999MA1101191999999REMMET051METAR SBLP 081400Z 21003KT 9999 FEW030 34/17 Q1012;
0120832880999992012020815004-13267-043417FM-15+0443SBLP V0202101N001512200019N0112651N1+03501+01601999999ADDGA1021+009001999GF102991999999999999999999MA1101081999999REMMET051METAR SBLP 081500Z 21003KT 9999 FEW030 35/16 Q1011;
0120832880999992012020816004-13267-043417FM-15+0443SBLP V0202101N004112200019N0112651N1+03601+01601999999ADDGA1041+009001999GF104991999999999999999999MA1100711999999REMMET051METAR SBLP 081600Z 21008KT 9999 SCT030 36/16 Q1007;
0120832880999992012020817004-13267-043417FM-15+0443SBLP V0202101N003112200019N0112651N1+03701+01501999999ADDGA1041+009001999GF104991999999999999999999MA1100911999999REMMET051METAR SBLP 081700Z 21006KT 9999 SCT030 37/15 Q1009;
0120832880999992012020818014-13267-043417FM-15+0443SBLP V0201801N004112200019N0112651N1+03701+01501999999ADDGA1021+009001999GF102991999999999999999999MA1100811999999REMMET051METAR SBLP 081801Z 18008KT 9999 FEW030 37/15 Q1008;
0120832880999992012020819004-13267-043417FM-15+0443SBLP V0201801N003112200019N0112651N1+03701+01401999999ADDGA1021+009001999GF102991999999999999999999MA1100711999999REMMET051METAR SBLP 081900Z 18006KT 9999 FEW030 37/14 Q1007;
0120832880999992012020820004-13267-043417FM-15+0443SBLP V0201301N004112200019N0112651N1+03501+01501999999ADDGA1021+009001999GF102991999999999999999999MA1100711999999REMMET051METAR SBLP 082000Z 13008KT 9999 FEW030 35/15 Q1007;
0120832880999992012020821004-13267-043417FM-15+0443SBLP V0201801N002112200019N0112651N1+03401+01801999999ADDGA1021+009001999GF102991999999999999999999MA1100811999999REMMET051METAR SBLP 082100Z 18004KT 9999 FEW030 34/18 Q1008;
0072832880999992012020910004-13267-043417FM-15+0443SBLP V0209999C000019999999Y0099001N1+02501+01901999999ADDMA1101191999999REMMET045METAR SBLP 091000Z 00000KT CAVOK 25/19 Q1012;
0076832880999992012020911004-13267-043417FM-15+0443SBLP V0200201N002119999999Y0099001N1+02801+01901999999ADDMA1101191999999REMMET049METAR SBLP 091100Z COR 02004KT CAVOK 28/19 Q1012;
0072832880999992012020912004-13267-043417FM-15+0443SBLP V0202701N002119999999Y0099001N1+02901+02001999999ADDMA1101191999999REMMET045METAR SBLP 091200Z 27004KT CAVOK 29/20 Q1012;
0072832880999992012020913004-13267-043417FM-15+0443SBLP V0202701N003119999999Y0099001N1+03101+02001999999ADDMA1101191999999REMMET045METAR SBLP 091300Z 27006KT CAVOK 31/20 Q1012;
0120832880999992012020914004-13267-043417FM-15+0443SBLP V0203301N003112200019N0112651N1+03201+01901999999ADDGA1021+009001999GF102991999999999999999999MA1101191999999REMMET051METAR SBLP 091400Z 33006KT 9999 FEW030 32/19 Q1012;
0120832880999992012020915004-13267-043417FM-15+0443SBLP V0203301N003112200019N0112651N1+03401+01801999999ADDGA1041+009001999GF104991999999999999999999MA1101191999999REMMET051METAR SBLP 091500Z 33006KT 9999 SCT030 34/18 Q1012;
0120832880999992012020916004-13267-043417FM-15+0443SBLP V0202701N003112200019N0112651N1+03501+01701999999ADDGA1041+009001999GF104991999999999999999999MA1101021999999REMMET051METAR SBLP 091600Z 27006KT 9999 SCT030 35/17 Q1010;
0120832880999992012020917004-13267-043417FM-15+0443SBLP V0202701N003112200019N0112651N1+03601+01701999999ADDGA1041+009001999GF104991999999999999999999MA1100911999999REMMET051METAR SBLP 091700Z 27006KT 9999 SCT030 36/17 Q1009;
0120832880999992012020918004-13267-043417FM-15+0443SBLP V0202701N003112200019N0112651N1+03701+01701999999ADDGA1041+009001999GF104991999999999999999999MA1100811999999REMMET051METAR SBLP 091800Z 27006KT 9999 SCT030 37/17 Q1008;
0120832880999992012020919004-13267-043417FM-15+0443SBLP V0203601N006210090019N0112651N1+03601+01801999999ADDGA1071+009001999GF107991999999999999999999MA1100811999999REMMET051METAR SBLP 091900Z 36012KT 9999 BKN030 36/18 Q1008;
0143832880999992012020921004-13267-043417FM-15+0443SBLP V0203601N006210300019N0112651N1+03001+02001999999ADDGA1041+009001999GA2071+030001999GF107991999999999999999999MA1101081999999REMMET058METAR SBLP 092100Z 36012KT 9999 SCT030 BKN100 30/20 Q1011;
0143832880999992012021010004-13267-043417FM-15+0443SBLP V0209999C000010300019N0112651N1+02401+02001999999ADDGA1021+006001999GA2071+030001999GF107991999999999999999999MA1101291999999REMMET058METAR SBLP 101000Z 00000KT 9999 FEW020 BKN100 24/20 Q1013;
0143832880999992012021012004-13267-043417FM-15+0443SBLP V0209999C000012200019N0112651N1+02701+01901999999ADDGA1021+009001999GA2041+030001999GF104991999999999999999999MA1101491999999REMMET058METAR SBLP 101200Z 00000KT 9999 FEW030 SCT100 27/19 Q1015;
0143832880999992012021013004-13267-043417FM-15+0443SBLP V0209999C000012200019N0112651N1+02901+01901999999ADDGA1041+009001999GA2041+030001999GF104991999999999999999999MA1101491999999REMMET058METAR SBLP 101300Z 00000KT 9999 SCT030 SCT100 29/19 Q1015;
0120832880999992012021014004-13267-043417FM-15+0443SBLP V0203601N003112200019N0112651N1+03001+01901999999ADDGA1041+009001999GF104991999999999999999999MA1101391999999REMMET051METAR SBLP 101400Z 36006KT 9999 SCT030 30/19 Q1014;
0120832880999992012021015004-13267-043417FM-15+0443SBLP V0203601N003112200019N0112651N1+03101+01901999999ADDGA1041+009001999GF104991999999999999999999MA1101391999999REMMET051METAR SBLP 101500Z 36006KT 9999 SCT030 31/19 Q1014;
0143832880999992012021016004-13267-043417FM-15+0443SBLP V0202701N002110300019N0112651N1+03101+02101999999ADDGA1041+009001999GA2071+030001999GF107991999999999999999999MA1101291999999REMMET058METAR SBLP 101600Z 27004KT 9999 SCT030 BKN100 31/21 Q1013;
0154832880999992012021017004-13267-043417FM-15+0443SBLP V0202101N002610300019N0112651N1+03101+02201999999ADDGA1041+009001999GA2071+030001999GF107991999999999999999999MA1101191999999MW1161REMMET063METAR SBLP 101700Z 21005KT 9999 VCSH SCT030 BKN100 31/22 Q1012;
0177832880999992012021018004-13267-043417FM-15+0443SBLP V0203601N004110300019N0112651N1+02701+02101999999ADDGA1021+009001091GA2041+009001999GA3071+030001999GF107991999999999999999999MA1101191999999MW1171REMMET070METAR SBLP 101800Z 36008KT 9999 TS FEW030CB SCT030 BKN100 27/21 Q1012;
0148832880999992012021019004-13267-043417FM-15+0443SBLP V0203601N003110300019N0112651N1+02701+02101999999ADDGA1041+009001999GA2071+030001999GF107991999999999999999999MA1101081999999REMMET063METAR SBLP 101900Z 36006KT 9999 SCT030 BKN100 27/21 Q1011 RETS;
0143832880999992012021020004-13267-043417FM-15+0443SBLP V0203601N003110300019N0112651N1+02601+02001999999ADDGA1021+009001999GA2071+030001999GF107991999999999999999999MA1101081999999REMMET058METAR SBLP 102000Z 36006KT 9999 FEW030 BKN100 26/20 Q1011;
0143832880999992012021021004-13267-043417FM-15+0443SBLP V0203301N003110300019N0112651N1+02601+02101999999ADDGA1021+009001999GA2071+030001999GF107991999999999999999999MA1101081999999REMMET058METAR SBLP 102100Z 33006KT 9999 FEW030 BKN100 26/21 Q1011;
0143832880999992012021310004-13267-043417FM-15+0443SBLP V0201801N002110300019N0112651N1+02301+02201999999ADDGA1041+006001999GA2071+030001999GF107991999999999999999999MA1101491999999REMMET058METAR SBLP 131000Z 18004KT 9999 SCT020 BKN100 23/22 Q1015;
0143832880999992012021311004-13267-043417FM-15+0443SBLP V0201401N002110060019N0112651N1+02401+02201999999ADDGA1071+006001999GA2071+030001999GF107991999999999999999999MA1101491999999REMMET058METAR SBLP 131100Z 14004KT 9999 BKN020 BKN100 24/22 Q1015;
0143832880999992012021312004-13267-043417FM-15+0443SBLP V0201401N002610300019N0112651N1+02501+02201999999ADDGA1041+006001999GA2071+030001999GF107991999999999999999999MA1101491999999REMMET058METAR SBLP 131200Z 14005KT 9999 SCT020 BKN100 25/22 Q1015;
0143832880999992012021313004-13267-043417FM-15+0443SBLP V0201801N002110300019N0112651N1+02701+02101999999ADDGA1041+006001999GA2071+030001999GF107991999999999999999999MA1101491999999REMMET058METAR SBLP 131300Z 18004KT 9999 SCT020 BKN100 27/21 Q1015;
0143832880999992012021314004-13267-043417FM-15+0443SBLP V0203301N003110300019N0112651N1+02801+02101999999ADDGA1041+006001999GA2071+030001999GF107991999999999999999999MA1101491999999REMMET058METAR SBLP 131400Z 33006KT 9999 SCT020 BKN100 28/21 Q1015;
0143832880999992012021315004-13267-043417FM-15+0443SBLP V0203601N002110300019N0112651N1+03101+02101999999ADDGA1041+009001999GA2071+030001999GF107991999999999999999999MA1101491999999REMMET058METAR SBLP 131500Z 36004KT 9999 SCT030 BKN100 31/21 Q1015;
0143832880999992012021316004-13267-043417FM-15+0443SBLP V0203601N003110300019N0112651N1+03101+02101999999ADDGA1041+009001999GA2071+030001999GF107991999999999999999999MA1101291999999REMMET058METAR SBLP 131600Z 36006KT 9999 SCT030 BKN100 31/21 Q1013;
0143832880999992012021317004-13267-043417FM-15+0443SBLP V0203601N003110300019N0112651N1+03201+02001999999ADDGA1041+009001999GA2071+030001999GF107991999999999999999999MA1101191999999REMMET058METAR SBLP 131700Z 36006KT 9999 SCT030 BKN100 32/20 Q1012;
0177832880999992012021318004-13267-043417FM-15+0443SBLP V0203601N00311012001CN0112651N1+03201+02001999999ADDGA1041+009001999GA2021+012001091GA3071+030001999GF107991999999999999999999MA1101191999999MW1171REMMET070METAR SBLP 131800Z 36006KT 9999 TS SCT030 FEW040CB BKN100 32/20 Q1012;
0143832880999992012021319004-13267-043417FM-15+0443SBLP V0209999C000010300019N0112651N1+03001+02001999999ADDGA1041+009001999GA2071+030001999GF107991999999999999999999MA1101191999999REMMET058METAR SBLP 131900Z 00000KT 9999 SCT030 BKN100 30/20 Q1012;
0143832880999992012021320004-13267-043417FM-15+0443SBLP V0209999C000010300019N0112651N1+02901+02101999999ADDGA1041+009001999GA2071+030001999GF107991999999999999999999MA1101191999999REMMET058METAR SBLP 132000Z 00000KT 9999 SCT030 BKN100 29/21 Q1012;
0146832880999992012021321004-13267-043417FM-15+0443SBLP V0209999C00001030001CN0112651N1+02801+02101999999ADDGA1041+009001999GA2071+030001999GF108991999999999999999999MA1101201999999REMMET061METAR SBLP 132100Z 00000KT 9999 02 SCT030 BKN100 28/21 Q1012;
0143832880999992012021410004-13267-043417FM-15+0443SBLP V0209999C000010300019N0112651N1+02301+02001999999ADDGA1021+006001999GA2071+030001999GF107991999999999999999999MA1101491999999REMMET058METAR SBLP 141000Z 00000KT 9999 FEW020 BKN100 23/20 Q1015;
0143832880999992012021411004-13267-043417FM-15+0443SBLP V0209999C000012200019N0112651N1+02401+01901999999ADDGA1021+006001999GA2041+030001999GF104991999999999999999999MA1101591999999REMMET058METAR SBLP 141100Z 00000KT 9999 FEW020 SCT100 24/19 Q1016;
0120832880999992012021412004-13267-043417FM-15+0443SBLP V0209999C000012200019N0112651N1+02701+01901999999ADDGA1021+006001999GF102991999999999999999999MA1101691999999REMMET051METAR SBLP 141200Z 00000KT 9999 FEW020 27/19 Q1017;
0120832880999992012021413004-13267-043417FM-15+0443SBLP V0209999C000012200019N0112651N1+02901+01901999999ADDGA1021+009001999GF102991999999999999999999MA1101691999999REMMET051METAR SBLP 141300Z 00000KT 9999 FEW030 29/19 Q1017;
0120832880999992012021414004-13267-043417FM-15+0443SBLP V0201801N003112200019N0112651N1+03001+01901999999ADDGA1021+009001999GF102991999999999999999999MA1101591999999REMMET051METAR SBLP 141400Z 18006KT 9999 FEW030 30/19 Q1016;
0120832880999992012021415004-13267-043417FM-15+0443SBLP V0209999C000012200019N0112651N1+03001+01901999999ADDGA1021+009001999GF102991999999999999999999MA1101491999999REMMET051METAR SBLP 141500Z 00000KT 9999 FEW030 30/19 Q1015;
0143832880999992012021416004-13267-043417FM-15+0443SBLP V0201201N003112200019N0112651N1+03201+01801999999ADDGA1021+009001999GA2041+030001999GF104991999999999999999999MA1101491999999REMMET058METAR SBLP 141600Z 12006KT 9999 FEW030 SCT100 32/18 Q1015;
0120832880999992012021417004-13267-043417FM-15+0443SBLP V0201201N002112200019N0112651N1+03301+01901999999ADDGA1041+009001999GF104991999999999999999999MA1101391999999REMMET051METAR SBLP 141700Z 12004KT 9999 SCT030 33/19 Q1014;
0120832880999992012021418004-13267-043417FM-15+0443SBLP V0202101N004112200019N0112651N1+03301+02001999999ADDGA1041+009001999GF104991999999999999999999MA1101291999999REMMET051METAR SBLP 141800Z 21008KT 9999 SCT030 33/20 Q1013;
0120832880999992012021419004-13267-043417FM-15+0443SBLP V0201001N003112200019N0112651N1+03401+01801999999ADDGA1021+009001999GF102991999999999999999999MA1101191999999REMMET051METAR SBLP 141900Z 10006KT 9999 FEW030 34/18 Q1012;
0120832880999992012021420004-13267-043417FM-15+0443SBLP V0201201N005112200019N0112651N1+03301+01901999999ADDGA1021+009001999GF102991999999999999999999MA1101081999999REMMET051METAR SBLP 142000Z 12010KT 9999 FEW030 33/19 Q1011;
0120832880999992012021421004-13267-043417FM-15+0443SBLP V0201201N004112200019N0112651N1+03201+01701999999ADDGA1021+009001999GF102991999999999999999999MA1101191999999REMMET051METAR SBLP 142100Z 12008KT 9999 FEW030 32/17 Q1012;
0072832880999992012021510004-13267-043417FM-15+0443SBLP V0201501N002119999999Y0099001N1+02301+02001999999ADDMA1101591999999REMMET045METAR SBLP 151000Z 15004KT CAVOK 23/20 Q1016;
0072832880999992012021511004-13267-043417FM-15+0443SBLP V0201401N004119999999Y0099001N1+02701+02001999999ADDMA1101591999999REMMET045METAR SBLP 151100Z 14008KT CAVOK 27/20 Q1016;
0072832880999992012021512004-13267-043417FM-15+0443SBLP V0201501N004119999999Y0099001N1+02901+01901999999ADDMA1101691999999REMMET045METAR SBLP 151200Z 15008KT CAVOK 29/19 Q1017;
0120832880999992012021513004-13267-043417FM-15+0443SBLP V0200901N003112200019N0112651N1+03001+01801999999ADDGA1021+009001999GF102991999999999999999999MA1101691999999REMMET051METAR SBLP 151300Z 09006KT 9999 FEW030 30/18 Q1017;
0120832880999992012021514004-13267-043417FM-15+0443SBLP V0201201N004112200019N0112651N1+03101+01901999999ADDGA1021+009001999GF102991999999999999999999MA1101591999999REMMET051METAR SBLP 151400Z 12008KT 9999 FEW030 31/19 Q1016;
0120832880999992012021515004-13267-043417FM-15+0443SBLP V0200901N005112200019N0112651N1+03301+01801999999ADDGA1021+009001999GF102991999999999999999999MA1101491999999REMMET051METAR SBLP 151500Z 09010KT 9999 FEW030 33/18 Q1015;
0120832880999992012021516004-13267-043417FM-15+0443SBLP V0200901N003112200019N0112651N1+03401+01601999999ADDGA1041+009001999GF104991999999999999999999MA1101491999999REMMET051METAR SBLP 151600Z 09006KT 9999 SCT030 34/16 Q1015;
0120832880999992012021517004-13267-043417FM-15+0443SBLP V0201801N003112200019N0112651N1+03501+01701999999ADDGA1041+009001999GF104991999999999999999999MA1101391999999REMMET051METAR SBLP 151700Z 18006KT 9999 SCT030 35/17 Q1014;
0120832880999992012021518004-13267-043417FM-15+0443SBLP V0201201N002612200019N0112651N1+03501+01601999999ADDGA1041+009001999GF104991999999999999999999MA1101191999999REMMET051METAR SBLP 151800Z 12005KT 9999 SCT030 35/16 Q1012;
0120832880999992012021519004-13267-043417FM-15+0443SBLP V0201501N003112200019N0112651N1+03501+01901999999ADDGA1041+009001999GF104991999999999999999999MA1101081999999REMMET051METAR SBLP 151900Z 15006KT 9999 SCT030 35/19 Q1011;
0120832880999992012021520004-13267-043417FM-15+0443SBLP V0200901N003112200019N0112651N1+03401+01801999999ADDGA1041+009001999GF104991999999999999999999MA1101081999999REMMET051METAR SBLP 152000Z 09006KT 9999 SCT030 34/18 Q1011;
0147832880999992012021521004-13267-043417FM-15+0443SBLP V0200901N006212200019N0112651N1+03201+01801999999ADDGA1041+009001999GA2021+012001091MA1101191999999MW1171REMMET063METAR SBLP 152100Z 09012KT 9999 TS SCT030 FEW040CB 32/18 Q1012;EQDQ01+000022SCOTCV
0120832880999992012021610004-13267-043417FM-15+0443SBLP V0201501N003112200019N0112651N1+02201+02001999999ADDGA1021+008101999GF102991999999999999999999MA1101591999999REMMET051METAR SBLP 161000Z 15006KT 9999 FEW027 22/20 Q1016;
0072832880999992012021611004-13267-043417FM-15+0443SBLP V0201501N003119999999Y0099001N1+02401+02001999999ADDMA1101691999999REMMET045METAR SBLP 161100Z 15006KT CAVOK 24/20 Q1017;
0120832880999992012021612004-13267-043417FM-15+0443SBLP V0201401N003112200019N0112651N1+02601+01801999999ADDGA1041+008101999GF104991999999999999999999MA1101691999999REMMET051METAR SBLP 161200Z 14006KT 9999 SCT027 26/18 Q1017;
0120832880999992012021613004-13267-043417FM-15+0443SBLP V0201601N004110081019N0112651N1+02701+01901999999ADDGA1071+008101999GF107991999999999999999999MA1101691999999REMMET051METAR SBLP 161300Z 16008KT 9999 BKN027 27/19 Q1017;
0120832880999992012021614004-13267-043417FM-15+0443SBLP V0201301N004112200019N0112651N1+02901+01601999999ADDGA1041+009001999GF104991999999999999999999MA1101591999999REMMET051METAR SBLP 161400Z 13008KT 9999 SCT030 29/16 Q1016;
0120832880999992012021615004-13267-043417FM-15+0443SBLP V0201301N004110081019N0112651N1+03001+01901999999ADDGA1071+008101999GF107991999999999999999999MA1101491999999REMMET051METAR SBLP 161500Z 13008KT 9999 BKN027 30/19 Q1015;
0143832880999992012021616004-13267-043417FM-15+0443SBLP V0201501N004110300019N0112651N1+03001+02001999999ADDGA1041+009001999GA2071+030001999GF107991999999999999999999MA1101391999999REMMET058METAR SBLP 161600Z 15008KT 9999 SCT030 BKN100 30/20 Q1014;
0120832880999992012021617004-13267-043417FM-15+0443SBLP V0201501N005112200019N0112651N1+03101+01801999999ADDGA1041+009001999GF104991999999999999999999MA1101291999999REMMET051METAR SBLP 161700Z 15010KT 9999 SCT030 31/18 Q1013;
0143832880999992012021618004-13267-043417FM-15+0443SBLP V0201501N005112200019N0112651N1+03101+01901999999ADDGA1041+009001999GA2041+030001999GF104991999999999999999999MA1101191999999REMMET058METAR SBLP 161800Z 15010KT 9999 SCT030 SCT100 31/19 Q1012;
0143832880999992012021619004-13267-043417FM-15+0443SBLP V0201501N005110300019N0112651N1+03101+01901999999ADDGA1041+009001999GA2071+030001999GF107991999999999999999999MA1101191999999REMMET058METAR SBLP 161900Z 15010KT 9999 SCT030 BKN100 31/19 Q1012;
0143832880999992012021620004-13267-043417FM-15+0443SBLP V0201501N005110300019N0112651N1+03001+01901999999ADDGA1021+009001999GA2071+030001999GF107991999999999999999999MA1101191999999REMMET058METAR SBLP 162000Z 15010KT 9999 FEW030 BKN100 30/19 Q1012;
0143832880999992012021621004-13267-043417FM-15+0443SBLP V0201501N005110300019N0112651N1+03001+01801999999ADDGA1021+009001999GA2071+030001999GF107991999999999999999999MA1101191999999REMMET058METAR SBLP 162100Z 15010KT 9999 FEW030 BKN100 30/18 Q1012;
0072832880999992012021710004-13267-043417FM-15+0443SBLP V0201501N003119999999Y0099001N1+02301+01801999999ADDMA1101491999999REMMET045METAR SBLP 171000Z 15006KT CAVOK 23/18 Q1015;
0072832880999992012021711004-13267-043417FM-15+0443SBLP V0201201N002119999999Y0099001N1+02601+01801999999ADDMA1101491999999REMMET045METAR SBLP 171100Z 12004KT CAVOK 26/18 Q1015;
0072832880999992012021712004-13267-043417FM-15+0443SBLP V0201401N003119999999Y0099001N1+02801+01901999999ADDMA1101491999999REMMET045METAR SBLP 171200Z 14006KT CAVOK 28/19 Q1015;
0072832880999992012021713004-13267-043417FM-15+0443SBLP V0201201N006219999999Y0099001N1+02901+01901999999ADDMA1101591999999REMMET045METAR SBLP 171300Z 12012KT CAVOK 29/19 Q1016;
0120832880999992012021714004-13267-043417FM-15+0443SBLP V0200901N004112200019N0112651N1+03001+01901999999ADDGA1021+009001999GF102991999999999999999999MA1101491999999REMMET051METAR SBLP 171400Z 09008KT 9999 FEW030 30/19 Q1015;
0120832880999992012021715004-13267-043417FM-15+0443SBLP V0201801N003112200019N0112651N1+03101+01901999999ADDGA1041+009001999GF104991999999999999999999MA1101391999999REMMET051METAR SBLP 171500Z 18006KT 9999 SCT030 31/19 Q1014;
0120832880999992012021716004-13267-043417FM-15+0443SBLP V0201801N003112200019N0112651N1+03201+01801999999ADDGA1041+009001999GF104991999999999999999999MA1101291999999REMMET051METAR SBLP 171600Z 18006KT 9999 SCT030 32/18 Q1013;
0120832880999992012021717004-13267-043417FM-15+0443SBLP V0201801N003112200019N0112651N1+03201+01801999999ADDGA1041+009001999GF104991999999999999999999MA1101191999999REMMET051METAR SBLP 171700Z 18006KT 9999 SCT030 32/18 Q1012;
0120832880999992012021718004-13267-043417FM-15+0443SBLP V0201801N003112200019N0112651N1+03301+01801999999ADDGA1041+009001999GF104991999999999999999999MA1101191999999REMMET051METAR SBLP 171800Z 18006KT 9999 SCT030 33/18 Q1012;
0120832880999992012021719004-13267-043417FM-15+0443SBLP V0201801N003112200019N0112651N1+03301+01901999999ADDGA1041+009001999GF104991999999999999999999MA1101081999999REMMET051METAR SBLP 171900Z 18006KT 9999 SCT030 33/19 Q1011;
0156832880999992012021720004-13267-043417FM-15+0443SBLP V0202701N006212200019N0090001N1+03101+02001999999ADDGA1041+009001999GA2021+012001091MA1101081999999MW1801MW2951REMMET066METAR SBLP 172000Z 27012KT 9000 -TSRA SCT030 FEW040CB 31/20 Q1011;EQDQ01+000022SCOTCV
0120832880999992012021721004-13267-043417FM-15+0443SBLP V0209999C000012200019N0112651N1+02901+02101999999ADDGA1041+009001999GF104991999999999999999999MA1101081999999REMMET051METAR SBLP 172100Z 00000KT 9999 SCT030 29/21 Q1011;
0072832880999992012022010004-13267-043417FM-15+0443SBLP V0209999C000019999999Y0099001N1+02301+01901999999ADDMA1101491999999REMMET045METAR SBLP 201000Z 00000KT CAVOK 23/19 Q1015;
0072832880999992012022011004-13267-043417FM-15+0443SBLP V0209999C000019999999Y0099001N1+02601+01901999999ADDMA1101591999999REMMET045METAR SBLP 201100Z 00000KT CAVOK 26/19 Q1016;
0072832880999992012022012004-13267-043417FM-15+0443SBLP V0209999C000019999999Y0099001N1+02801+01901999999ADDMA1101591999999REMMET045METAR SBLP 201200Z 00000KT CAVOK 28/19 Q1016;
0072832880999992012022013004-13267-043417FM-15+0443SBLP V0209999C000019999999Y0099001N1+03001+01801999999ADDMA1101591999999REMMET045METAR SBLP 201300Z 00000KT CAVOK 30/18 Q1016;
0120832880999992012022014004-13267-043417FM-15+0443SBLP V0201801N003112200019N0112651N1+03101+01801999999ADDGA1021+009001999GF102991999999999999999999MA1101591999999REMMET051METAR SBLP 201400Z 18006KT 9999 FEW030 31/18 Q1016;
0120832880999992012022015004-13267-043417FM-15+0443SBLP V0201801N003112200019N0112651N1+03101+01801999999ADDGA1021+009001999GF102991999999999999999999MA1101491999999REMMET051METAR SBLP 201500Z 18006KT 9999 FEW030 31/18 Q1015;
0105832880999992012022016004-13267-043417FM-15+0443SBLP V0202101N003112200019N0112651N1+03301+01801999999ADDGA1041+009001999GF104991999999999999999999REMMET051METAR SBLP 201600Z 21006KT 9999 SCT030 33/18 Q////;
0120832880999992012022017004-13267-043417FM-15+0443SBLP V0201801N004112200019N0112651N1+03401+01801999999ADDGA1041+009001999GF104991999999999999999999MA1101191999999REMMET051METAR SBLP 201700Z 18008KT 9999 SCT030 34/18 Q1012;
0120832880999992012022018004-13267-043417FM-15+0443SBLP V0201801N003112200019N0112651N1+03501+01701999999ADDGA1041+009001999GF104991999999999999999999MA1101191999999REMMET051METAR SBLP 201800Z 18006KT 9999 SCT030 35/17 Q1012;
0120832880999992012022019004-13267-043417FM-15+0443SBLP V0202101N003112200019N0112651N1+03601+01701999999ADDGA1041+009001999GF104991999999999999999999MA1101081999999REMMET051METAR SBLP 201900Z 21006KT 9999 SCT030 36/17 Q1011;
0120832880999992012022020004-13267-043417FM-15+0443SBLP V0200901N003112200019N0112651N1+03401+01801999999ADDGA1041+009001999GF104991999999999999999999MA1101081999999REMMET051METAR SBLP 202000Z 09006KT 9999 SCT030 34/18 Q1011;
0120832880999992012022021004-13267-043417FM-15+0443SBLP V0200901N002112200019N0112651N1+03301+01601999999ADDGA1021+009001999GF102991999999999999999999MA1101021999999REMMET051METAR SBLP 202100Z 09004KT 9999 FEW030 33/16 Q1010;
0072832880999992012022110004-13267-043417FM-15+0443SBLP V0201201N003119999999Y0099001N1+02401+01901999999ADDMA1101491999999REMMET045METAR SBLP 211000Z 12006KT CAVOK 24/19 Q1015;
0072832880999992012022111004-13267-043417FM-15+0443SBLP V0201201N003119999999Y0099001N1+02801+01901999999ADDMA1101591999999REMMET045METAR SBLP 211100Z 12006KT CAVOK 28/19 Q1016;
0072832880999992012022112004-13267-043417FM-15+0443SBLP V0201201N004119999999Y0099001N1+02801+01901999999ADDMA1101591999999REMMET045METAR SBLP 211200Z 12008KT CAVOK 28/19 Q1016;
0072832880999992012022113004-13267-043417FM-15+0443SBLP V0200901N003119999999Y0099001N1+03001+02001999999ADDMA1101591999999REMMET045METAR SBLP 211300Z 09006KT CAVOK 30/20 Q1016;
0143832880999992012022114004-13267-043417FM-15+0443SBLP V0201201N004112200019N0112651N1+03201+01801999999ADDGA1021+009001999GA2041+030001999GF104991999999999999999999MA1101591999999REMMET058METAR SBLP 211400Z 12008KT 9999 FEW030 SCT100 32/18 Q1016;
0143832880999992012022115004-13267-043417FM-15+0443SBLP V0202101N003112200019N0112651N1+03201+01901999999ADDGA1041+009001999GA2041+030001999GF104991999999999999999999MA1101491999999REMMET058METAR SBLP 211500Z 21006KT 9999 SCT030 SCT100 32/19 Q1015;
0120832880999992012022116004-13267-043417FM-15+0443SBLP V0201801N002612200019N0112651N1+03301+01801999999ADDGA1041+009001999GF104991999999999999999999MA1101391999999REMMET051METAR SBLP 211600Z 18005KT 9999 SCT030 33/18 Q1014;
0120832880999992012022117004-13267-043417FM-15+0443SBLP V0202301N002112200019N0112651N1+03401+01801999999ADDGA1041+009001999GF104991999999999999999999MA1101291999999REMMET051METAR SBLP 211700Z 23004KT 9999 SCT030 34/18 Q1013;
0139832880999992012022118004-13267-043417FM-15+0443SBLP V0201701N003112200019N0112651N1+03501+01801999999ADDGA1041+009001999GA2021+012001021MA1101191999999REMMET061METAR SBLP 211800Z 17006KT 9999 SCT030 FEW040TCU 35/18 Q1012;EQDQ01+000022SCOTCV
0120832880999992012022119004-13267-043417FM-15+0443SBLP V0201501N005112200019N0112651N1+03301+01701999999ADDGA1041+009001999GF104991999999999999999999MA1101081999999REMMET051METAR SBLP 211900Z 15010KT 9999 SCT030 33/17 Q1011;
0139832880999992012022120004-13267-043417FM-15+0443SBLP V0201501N003112200019N0112651N1+03301+01801999999ADDGA1041+009001999GA2021+012001021MA1101081999999REMMET061METAR SBLP 212000Z 15006KT 9999 SCT030 FEW040TCU 33/18 Q1011;EQDQ01+000022SCOTCV
0143832880999992012022121004-13267-043417FM-15+0443SBLP V0201101N003112200019N0112651N1+03201+01701999999ADDGA1021+009001999GA2041+030001999GF104991999999999999999999MA1101081999999REMMET058METAR SBLP 212100Z 11006KT 9999 FEW030 SCT100 32/17 Q1011;
0120832880999992012022215004-13267-043417FM-15+0443SBLP V0202701N003112200019N0112651N1+03301+01801999999ADDGA1041+009001999GF104991999999999999999999MA1101391999999REMMET051METAR SBLP 221500Z 27006KT 9999 SCT030 33/18 Q1014;
0120832880999992012022216004-13267-043417FM-15+0443SBLP V0202101N003112200019N0112651N1+03401+01901999999ADDGA1041+009001999GF104991999999999999999999MA1101291999999REMMET051METAR SBLP 221600Z 21006KT 9999 SCT030 34/19 Q1013;
0120832880999992012022218004-13267-043417FM-15+0443SBLP V0202101N003112200019N0112651N1+03501+01901999999ADDGA1041+009001999GF104991999999999999999999MA1101021999999REMMET051METAR SBLP 221800Z 21006KT 9999 SCT030 35/19 Q1010;
0120832880999992012022219004-13267-043417FM-15+0443SBLP V0202101N003112200019N0112651N1+03501+01901999999ADDGA1021+009001999GF102991999999999999999999MA1101021999999REMMET051METAR SBLP 221900Z 21006KT 9999 FEW030 35/19 Q1010;
0158832880999992012022220004-13267-043417FM-15+0443SBLP V0200301N002112200019N0112651N1+03201+01901999999ADDGA1021+009001091GA2041+009001999MA1101021999999MW1161MW2171REMMET068METAR SBLP 222000Z 03004KT 9999 TS VCSH SCT030 FEW030CB 32/19 Q1010;EQDQ01+000022SCOTCV
0125832880999992012022221004-13267-043417FM-15+0443SBLP V0201201N003112200019N0112651N1+03201+01901999999ADDGA1021+009001999GF102991999999999999999999MA1101021999999REMMET056METAR SBLP 222100Z 12006KT 9999 FEW030 32/19 Q1010 RETS;
0072832880999992012022309154-13267-043417FM-15+0443SBLP V0201601N002119999999Y0099001N1+02301+02001999999ADDMA1101291999999REMMET045METAR SBLP 230915Z 16004KT CAVOK 23/20 Q1013;
0072832880999992012022310004-13267-043417FM-15+0443SBLP V0201501N002119999999Y0099001N1+02401+02001999999ADDMA1101291999999REMMET045METAR SBLP 231000Z 15004KT CAVOK 24/20 Q1013;
0072832880999992012022311004-13267-043417FM-15+0443SBLP V0201701N002619999999Y0099001N1+02701+01801999999ADDMA1101391999999REMMET045METAR SBLP 231100Z 17005KT CAVOK 27/18 Q1014;
0072832880999992012022312004-13267-043417FM-15+0443SBLP V0200901N001519999999Y0099001N1+02901+01801999999ADDMA1101391999999REMMET045METAR SBLP 231200Z 09003KT CAVOK 29/18 Q1014;
0072832880999992012022313004-13267-043417FM-15+0443SBLP V0201501N003119999999Y0099001N1+03201+01901999999ADDMA1101391999999REMMET045METAR SBLP 231300Z 15006KT CAVOK 32/19 Q1014;
0120832880999992012022314004-13267-043417FM-15+0443SBLP V0209999C000012200019N0112651N1+03301+02001999999ADDGA1021+009001999GF102991999999999999999999MA1101291999999REMMET051METAR SBLP 231400Z 00000KT 9999 FEW030 33/20 Q1013;
0120832880999992012022315004-13267-043417FM-15+0443SBLP V0202101N004112200019N0112651N1+03401+01901999999ADDGA1041+009001999GF104991999999999999999999MA1101191999999REMMET051METAR SBLP 231500Z 21008KT 9999 SCT030 34/19 Q1012;
0120832880999992012022316004-13267-043417FM-15+0443SBLP V0202701N003112200019N0112651N1+03401+01901999999ADDGA1041+009001999GF104991999999999999999999MA1101081999999REMMET051METAR SBLP 231600Z 27006KT 9999 SCT030 34/19 Q1011;
0120832880999992012022317004-13267-043417FM-15+0443SBLP V0201801N003112200019N0112651N1+03601+01801999999ADDGA1041+009001999GF104991999999999999999999MA1101021999999REMMET051METAR SBLP 231700Z 18006KT 9999 SCT030 36/18 Q1010;
0120832880999992012022318004-13267-043417FM-15+0443SBLP V0201801N003112200019N0112651N1+03801+01701999999ADDGA1041+009001999GF104991999999999999999999MA1100911999999REMMET051METAR SBLP 231800Z 18006KT 9999 SCT030 38/17 Q1009;
0120832880999992012022319004-13267-043417FM-15+0443SBLP V0201801N003112200019N0112651N1+03801+01701999999ADDGA1021+009001999GF102991999999999999999999MA1100811999999REMMET051METAR SBLP 231900Z 18006KT 9999 FEW030 38/17 Q1008;
0120832880999992012022320004-13267-043417FM-15+0443SBLP V0201801N003112200019N0112651N1+03601+01701999999ADDGA1041+009001999GF104991999999999999999999MA1100711999999REMMET051METAR SBLP 232000Z 18006KT 9999 SCT030 36/17 Q1007;
0120832880999992012022321004-13267-043417FM-15+0443SBLP V0201801N003112200019N0112651N1+03501+01801999999ADDGA1021+009001999GF102991999999999999999999MA1100711999999REMMET051METAR SBLP 232100Z 18006KT 9999 FEW030 35/18 Q1007;
0072832880999992012022410004-13267-043417FM-15+0443SBLP V0200901N003119999999Y0099001N1+02401+01801999999ADDMA1101191999999REMMET045METAR SBLP 241000Z 09006KT CAVOK 24/18 Q1012;
0072832880999992012022411004-13267-043417FM-15+0443SBLP V0200901N003119999999Y0099001N1+02701+01801999999ADDMA1101291999999REMMET045METAR SBLP 241100Z 09006KT CAVOK 27/18 Q1013;
0072832880999992012022412004-13267-043417FM-15+0443SBLP V0200901N003119999999Y0099001N1+02901+01801999999ADDMA1101291999999REMMET045METAR SBLP 241200Z 09006KT CAVOK 29/18 Q1013;
0072832880999992012022413004-13267-043417FM-15+0443SBLP V0200901N003119999999Y0099001N1+03101+01701999999ADDMA1101291999999REMMET045METAR SBLP 241300Z 09006KT CAVOK 31/17 Q1013;
0120832880999992012022414004-13267-043417FM-15+0443SBLP V0200901N003112200019N0112651N1+03201+01601999999ADDGA1021+009001999GF102991999999999999999999MA1101291999999REMMET051METAR SBLP 241400Z 09006KT 9999 FEW030 32/16 Q1013;
0120832880999992012022415004-13267-043417FM-15+0443SBLP V0201801N003112200019N0112651N1+03301+01701999999ADDGA1021+009001999GF102991999999999999999999MA1101191999999REMMET051METAR SBLP 241500Z 18006KT 9999 FEW030 33/17 Q1012;
0120832880999992012022416004-13267-043417FM-15+0443SBLP V0202101N003112200019N0112651N1+03401+01701999999ADDGA1041+009001999GF104991999999999999999999MA1101081999999REMMET051METAR SBLP 241600Z 21006KT 9999 SCT030 34/17 Q1011;
0120832880999992012022417004-13267-043417FM-15+0443SBLP V0201801N004112200019N0112651N1+03401+01801999999ADDGA1041+009001999GF104991999999999999999999MA1101021999999REMMET051METAR SBLP 241700Z 18008KT 9999 SCT030 34/18 Q1010;
0120832880999992012022418004-13267-043417FM-15+0443SBLP V0202101N004112200019N0112651N1+03601+01701999999ADDGA1041+009001999GF104991999999999999999999MA1100911999999REMMET051METAR SBLP 241800Z 21008KT 9999 SCT030 36/17 Q1009;
0120832880999992012022419004-13267-043417FM-15+0443SBLP V0202101N004112200019N0112651N1+03601+01801999999ADDGA1041+009001999GF104991999999999999999999MA1100811999999REMMET051METAR SBLP 241900Z 21008KT 9999 SCT030 36/18 Q1008;
0120832880999992012022420004-13267-043417FM-15+0443SBLP V0201801N003112200019N0112651N1+03501+01601999999ADDGA1041+009001999GF104991999999999999999999MA1100711999999REMMET051METAR SBLP 242000Z 18006KT 9999 SCT030 35/16 Q1007;
0120832880999992012022421004-13267-043417FM-15+0443SBLP V0201201N005112200019N0112651N1+03401+01501999999ADDGA1021+009001999GF102991999999999999999999MA1100811999999REMMET051METAR SBLP 242100Z 12010KT 9999 FEW030 34/15 Q1008;
0120832880999992012022709154-13267-043417FM-15+0443SBLP V0201201N001512200019N0112651N1+02301+01801999999ADDGA1041+009001999GF104991999999999999999999MA1101291999999REMMET051METAR SBLP 270915Z 12003KT 9999 SCT030 23/18 Q1013;
0120832880999992012022710004-13267-043417FM-15+0443SBLP V0203101N002112200019N0112651N1+02401+02001999999ADDGA1041+009001999GF104991999999999999999999MA1101391999999REMMET051METAR SBLP 271000Z 31004KT 9999 SCT030 24/20 Q1014;
0072832880999992012022711004-13267-043417FM-15+0443SBLP V0203301N003119999999Y0099001N1+02501+02001999999ADDMA1101491999999REMMET045METAR SBLP 271100Z 33006KT CAVOK 25/20 Q1015;
0072832880999992012022712004-13267-043417FM-15+0443SBLP V0203101N002119999999Y0099001N1+02701+02101999999ADDMA1101491999999REMMET045METAR SBLP 271200Z 31004KT CAVOK 27/21 Q1015;
0120832880999992012022713004-13267-043417FM-15+0443SBLP V0203401N004112200019N0112651N1+03001+02001999999ADDGA1021+009001999GF102991999999999999999999MA1101491999999REMMET051METAR SBLP 271300Z 34008KT 9999 FEW030 30/20 Q1015;
0120832880999992012022714004-13267-043417FM-15+0443SBLP V0203001N002112200019N0112651N1+03101+01901999999ADDGA1041+009001999GF104991999999999999999999MA1101491999999REMMET051METAR SBLP 271400Z 30004KT 9999 SCT030 31/19 Q1015;
0120832880999992012022715004-13267-043417FM-15+0443SBLP V0203101N002112200019N0112651N1+03301+02001999999ADDGA1041+009001999GF104991999999999999999999MA1101391999999REMMET051METAR SBLP 271500Z 31004KT 9999 SCT030 33/20 Q1014;
0120832880999992012022716004-13267-043417FM-15+0443SBLP V0203001N003112200019N0112651N1+03401+01801999999ADDGA1041+009001999GF104991999999999999999999MA1101291999999REMMET051METAR SBLP 271600Z 30006KT 9999 SCT030 34/18 Q1013;
0120832880999992012022717004-13267-043417FM-15+0443SBLP V0203301N003112200019N0112651N1+03501+01701999999ADDGA1041+009001999GF104991999999999999999999MA1101191999999REMMET051METAR SBLP 271700Z 33006KT 9999 SCT030 35/17 Q1012;
0139832880999992012022718004-13267-043417FM-15+0443SBLP V0209999C000012200019N0112651N1+03601+01701999999ADDGA1041+009001999GA2021+012001021MA1101081999999REMMET061METAR SBLP 271800Z 00000KT 9999 SCT030 FEW040TCU 36/17 Q1011;EQDQ01+000022SCOTCV
0163832880999992012022719004-13267-043417FM-15+0443SBLP V0201701N003112200019N0112651N1+03601+01801999999ADDGA1021+009001091GA2021+009001999GF102991999999999999999999MA1101081999999MW1801MW2951REMMET066METAR SBLP 271900Z 17006KT 9999 -TSRA FEW030CB FEW030 36/18 Q1011;
0125832880999992012022720004-13267-043417FM-15+0443SBLP V0209999C000012200019N0112651N1+03601+01701999999ADDGA1021+009001999GF102991999999999999999999MA1101021999999REMMET056METAR SBLP 272000Z 00000KT 9999 FEW030 36/17 Q1010 RETS;
0120832880999992012022721004-13267-043417FM-15+0443SBLP V0209999C000012200019N0112651N1+03001+02101999999ADDGA1021+009001999GF102991999999999999999999MA1101021999999REMMET051METAR SBLP 272100Z 00000KT 9999 FEW030 30/21 Q1010;
0072832880999992012022810004-13267-043417FM-15+0443SBLP V0200401N001519999999Y0099001N1+02501+01701999999ADDMA1101391999999REMMET045METAR SBLP 281000Z 04003KT CAVOK 25/17 Q1014;
0072832880999992012022811004-13267-043417FM-15+0443SBLP V0209999C000019999999Y0099001N1+02801+01801999999ADDMA1101491999999REMMET045METAR SBLP 281100Z 00000KT CAVOK 28/18 Q1015;
0072832880999992012022812004-13267-043417FM-15+0443SBLP V0203301N002119999999Y0099001N1+03001+01801999999ADDMA1101491999999REMMET045METAR SBLP 281200Z 33004KT CAVOK 30/18 Q1015;
0120832880999992012022813004-13267-043417FM-15+0443SBLP V0200901N001512200019N0112651N1+03101+01801999999ADDGA1021+009001999GF102991999999999999999999MA1101491999999REMMET051METAR SBLP 281300Z 09003KT 9999 FEW030 31/18 Q1015;
0120832880999992012022814004-13267-043417FM-15+0443SBLP V0200901N004112200019N0112651N1+03101+01801999999ADDGA1021+009001999GF102991999999999999999999MA1101391999999REMMET051METAR SBLP 281400Z 09008KT 9999 FEW030 31/18 Q1014;
0120832880999992012022815004-13267-043417FM-15+0443SBLP V0202401N001512200019N0112651N1+03301+01701999999ADDGA1041+009001999GF104991999999999999999999MA1101291999999REMMET051METAR SBLP 281500Z 24003KT 9999 SCT030 33/17 Q1013;
0120832880999992012022816004-13267-043417FM-15+0443SBLP V0202101N003112200019N0112651N1+03301+01701999999ADDGA1041+009001999GF104991999999999999999999MA1101191999999REMMET051METAR SBLP 281600Z 21006KT 9999 SCT030 33/17 Q1012;
0120832880999992012022817004-13267-043417FM-15+0443SBLP V0209999C000012200019N0112651N1+03301+01701999999ADDGA1041+009001999GF104991999999999999999999MA1101081999999REMMET051METAR SBLP 281700Z 00000KT 9999 SCT030 33/17 Q1011;
0120832880999992012022818004-13267-043417FM-15+0443SBLP V0209999C000012200019N0112651N1+03501+01701999999ADDGA1041+009001999GF104991999999999999999999MA1101021999999REMMET051METAR SBLP 281800Z 00000KT 9999 SCT030 35/17 Q1010;
0120832880999992012022819004-13267-043417FM-15+0443SBLP V0202101N003112200019N0112651N1+03601+01701999999ADDGA1041+009001999GF104991999999999999999999MA1100911999999REMMET051METAR SBLP 281900Z 21006KT 9999 SCT030 36/17 Q1009;
0120832880999992012022820004-13267-043417FM-15+0443SBLP V0202101N003112200019N0112651N1+03601+01701999999ADDGA1041+009001999GF104991999999999999999999MA1100911999999REMMET051METAR SBLP 282000Z 21006KT 9999 SCT030 36/17 Q1009;
0120832880999992012022821004-13267-043417FM-15+0443SBLP V0209999C000012200019N0112651N1+03401+01801999999ADDGA1021+009001999GF102991999999999999999999MA1100911999999REMMET051METAR SBLP 282100Z 00000KT 9999 FEW030 34/18 Q1009;
0072832880999992012022910004-13267-043417FM-15+0443SBLP V0209999C000019999999Y0099001N1+02501+02101999999ADDMA1101591999999REMMET045METAR SBLP 291000Z 00000KT CAVOK 25/21 Q1016;
0072832880999992012022911004-13267-043417FM-15+0443SBLP V0209999C000019999999Y0099001N1+02801+02101999999ADDMA1101591999999REMMET045METAR SBLP 291100Z 00000KT CAVOK 28/21 Q1016;
0072832880999992012022912004-13267-043417FM-15+0443SBLP V0209999C000019999999Y0099001N1+03001+02001999999ADDMA1101591999999REMMET045METAR SBLP 291200Z 00000KT CAVOK 30/20 Q1016;
0072832880999992012022913004-13267-043417FM-15+0443SBLP V0209999C000019999999Y0099001N1+03201+01901999999ADDMA1101591999999REMMET045METAR SBLP 291300Z 00000KT CAVOK 32/19 Q1016;
0120832880999992012022914004-13267-043417FM-15+0443SBLP V0209999C000012200019N0112651N1+03401+01901999999ADDGA1021+009001999GF102991999999999999999999MA1101491999999REMMET051METAR SBLP 291400Z 00000KT 9999 FEW030 34/19 Q1015;
0120832880999992012022915074-13267-043417FM-15+0443SBLP V0209999C000012200019N0112651N1+03501+01801999999ADDGA1021+009001999GF102991999999999999999999MA1101391999999REMMET051METAR SBLP 291507Z 00000KT 9999 FEW030 35/18 Q1014;
0120832880999992012022916004-13267-043417FM-15+0443SBLP V0201801N003112200019N0112651N1+03501+01801999999ADDGA1041+009001999GF104991999999999999999999MA1101291999999REMMET051METAR SBLP 291600Z 18006KT 9999 SCT030 35/18 Q1013;
0120832880999992012022917004-13267-043417FM-15+0443SBLP V0201801N003112200019N0112651N1+03601+01801999999ADDGA1041+009001999GF104991999999999999999999MA1101081999999REMMET051METAR SBLP 291700Z 18006KT 9999 SCT030 36/18 Q1011;
0120832880999992012022918004-13267-043417FM-15+0443SBLP V0201801N003112200019N0112651N1+03701+01701999999ADDGA1041+009001999GF104991999999999999999999MA1101021999999REMMET051METAR SBLP 291800Z 18006KT 9999 SCT030 37/17 Q1010;
0120832880999992012022919004-13267-043417FM-15+0443SBLP V0201801N003112200019N0112651N1+03701+01701999999ADDGA1041+009001999GF104991999999999999999999MA1101021999999REMMET051METAR SBLP 291900Z 18006KT 9999 SCT030 37/17 Q1010;
0120832880999992012022920004-13267-043417FM-15+0443SBLP V0201801N003112200019N0112651N1+03601+01701999999ADDGA1021+009001999GF102991999999999999999999MA1101021999999REMMET051METAR SBLP 292000Z 18006KT 9999 FEW030 36/17 Q1010;
0120832880999992012022921004-13267-043417FM-15+0443SBLP V0201801N003112200019N0112651N1+03401+01801999999ADDGA1021+009001999GF102991999999999999999999MA1101021999999REMMET051METAR SBLP 292100Z 18006KT 9999 FEW030 34/18 Q1010;
0072832880999992012030110004-13267-043417FM-15+0443SBLP V0201201N002119999999Y0099001N1+02401+01801999999ADDMA1101491999999REMMET045METAR SBLP 011000Z 12004KT CAVOK 24/18 Q1015;
0072832880999992012030111004-13267-043417FM-15+0443SBLP V0201201N002119999999Y0099001N1+02801+01901999999ADDMA1101591999999REMMET045METAR SBLP 011100Z 12004KT CAVOK 28/19 Q1016;
0072832880999992012030112004-13267-043417FM-15+0443SBLP V0201201N003119999999Y0099001N1+03001+02001999999ADDMA1101591999999REMMET045METAR SBLP 011200Z 12006KT CAVOK 30/20 Q1016;
0072832880999992012030113004-13267-043417FM-15+0443SBLP V0200901N004119999999Y0099001N1+03201+01901999999ADDMA1101591999999REMMET045METAR SBLP 011300Z 09008KT CAVOK 32/19 Q1016;
0120832880999992012030114004-13267-043417FM-15+0443SBLP V0201201N003112200019N0112651N1+03301+01801999999ADDGA1021+009001999GF102991999999999999999999MA1101591999999REMMET051METAR SBLP 011400Z 12006KT 9999 FEW030 33/18 Q1016;
0120832880999992012030115004-13267-043417FM-15+0443SBLP V0202101N004112200019N0112651N1+03401+01801999999ADDGA1041+009001999GF104991999999999999999999MA1101491999999REMMET051METAR SBLP 011500Z 21008KT 9999 SCT030 34/18 Q1015;
0120832880999992012030116004-13267-043417FM-15+0443SBLP V0201801N003112200019N0112651N1+03501+01801999999ADDGA1041+009001999GF104991999999999999999999MA1101291999999REMMET051METAR SBLP 011600Z 18006KT 9999 SCT030 35/18 Q1013;
0120832880999992012030117004-13267-043417FM-15+0443SBLP V0201801N003112200019N0112651N1+03601+01801999999ADDGA1041+009001999GF104991999999999999999999MA1101191999999REMMET051METAR SBLP 011700Z 18006KT 9999 SCT030 36/18 Q1012;
0120832880999992012030118004-13267-043417FM-15+0443SBLP V0201801N003112200019N0112651N1+03701+01701999999ADDGA1041+009001999GF104991999999999999999999MA1101081999999REMMET051METAR SBLP 011800Z 18006KT 9999 SCT030 37/17 Q1011;
0120832880999992012030119004-13267-043417FM-15+0443SBLP V0201801N003112200019N0112651N1+03701+01801999999ADDGA1041+009001999GF104991999999999999999999MA1101081999999REMMET051METAR SBLP 011900Z 18006KT 9999 SCT030 37/18 Q1011;
0120832880999992012030120004-13267-043417FM-15+0443SBLP V0201801N003112200019N0112651N1+03601+01801999999ADDGA1021+009001999GF102991999999999999999999MA1101021999999REMMET051METAR SBLP 012000Z 18006KT 9999 FEW030 36/18 Q1010;
0120832880999992012030121004-13267-043417FM-15+0443SBLP V0201801N003112200019N0112651N1+03401+01801999999ADDGA1021+009001999GF102991999999999999999999MA1101021999999REMMET051METAR SBLP 012100Z 18006KT 9999 FEW030 34/18 Q1010;
0072832880999992012030210004-13267-043417FM-15+0443SBLP V0209999C000019999999Y0099001N1+02401+01801999999ADDMA1101491999999REMMET045METAR SBLP 021000Z 00000KT CAVOK 24/18 Q1015;
0072832880999992012030211004-13267-043417FM-15+0443SBLP V0209999C000019999999Y0099001N1+02701+01801999999ADDMA1101491999999REMMET045METAR SBLP 021100Z 00000KT CAVOK 27/18 Q1015;
0072832880999992012030212004-13267-043417FM-15+0443SBLP V0200901N003119999999Y0099001N1+03001+01701999999ADDMA1101491999999REMMET045METAR SBLP 021200Z 09006KT CAVOK 30/17 Q1015;
0072832880999992012030213004-13267-043417FM-15+0443SBLP V0200901N003119999999Y0099001N1+03201+01701999999ADDMA1101491999999REMMET045METAR SBLP 021300Z 09006KT CAVOK 32/17 Q1015;
0120832880999992012030214004-13267-043417FM-15+0443SBLP V0200901N003112200019N0112651N1+03301+01701999999ADDGA1021+009001999GF102991999999999999999999MA1101491999999REMMET051METAR SBLP 021400Z 09006KT 9999 FEW030 33/17 Q1015;
0120832880999992012030215004-13267-043417FM-15+0443SBLP V0201801N003112200019N0112651N1+03401+01701999999ADDGA1021+009001999GF102991999999999999999999MA1101391999999REMMET051METAR SBLP 021500Z 18006KT 9999 FEW030 34/17 Q1014;
0120832880999992012030216004-13267-043417FM-15+0443SBLP V0202401N003112200019N0112651N1+03601+01601999999ADDGA1041+009001999GF104991999999999999999999MA1101291999999REMMET051METAR SBLP 021600Z 24006KT 9999 SCT030 36/16 Q1013;
0120832880999992012030217004-13267-043417FM-15+0443SBLP V0202401N002112200019N0112651N1+03601+01601999999ADDGA1041+009001999GF104991999999999999999999MA1101081999999REMMET051METAR SBLP 021700Z 24004KT 9999 SCT030 36/16 Q1011;
0120832880999992012030218004-13267-043417FM-15+0443SBLP V0201601N002112200019N0112651N1+03601+01601999999ADDGA1041+009001999GF104991999999999999999999MA1101081999999REMMET051METAR SBLP 021800Z 16004KT 9999 SCT030 36/16 Q1011;
0120832880999992012030219004-13267-043417FM-15+0443SBLP V0202101N003112200019N0112651N1+03801+01401999999ADDGA1041+009001999GF104991999999999999999999MA1101021999999REMMET051METAR SBLP 021900Z 21006KT 9999 SCT030 38/14 Q1010;
0120832880999992012030220004-13267-043417FM-15+0443SBLP V0201801N003112200019N0112651N1+03701+01701999999ADDGA1041+009001999GF104991999999999999999999MA1101021999999REMMET051METAR SBLP 022000Z 18006KT 9999 SCT030 37/17 Q1010;
0072832880999992012030221004-13267-043417FM-15+0443SBLP V0201801N002119999999Y0099001N1+03401+01801999999ADDMA1101021999999REMMET045METAR SBLP 022100Z 18004KT CAVOK 34/18 Q1010;
0072832880999992012030511004-13267-043417FM-15+0443SBLP V0201301N003119999999Y0099001N1+02701+01801999999ADDMA1101491999999REMMET045METAR SBLP 051100Z 13006KT CAVOK 27/18 Q1015;
0072832880999992012030512004-13267-043417FM-15+0443SBLP V0200901N001519999999Y0099001N1+03001+01801999999ADDMA1101491999999REMMET045METAR SBLP 051200Z 09003KT CAVOK 30/18 Q1015;
0072832880999992012030513004-13267-043417FM-15+0443SBLP V0209999C000019999999Y0099001N1+03201+01701999999ADDMA1101491999999REMMET045METAR SBLP 051300Z 00000KT CAVOK 32/17 Q1015;
0120832880999992012030514004-13267-043417FM-15+0443SBLP V0201201N003112200019N0112651N1+03301+01801999999ADDGA1021+009001999GF102991999999999999999999MA1101491999999REMMET051METAR SBLP 051400Z 12006KT 9999 FEW030 33/18 Q1015;
0120832880999992012030515004-13267-043417FM-15+0443SBLP V0209999C000012200019N0112651N1+03501+01601999999ADDGA1021+009001999GF102991999999999999999999MA1101491999999REMMET051METAR SBLP 051500Z 00000KT 9999 FEW030 35/16 Q1015;
0120832880999992012030516004-13267-043417FM-15+0443SBLP V0202101N003112200019N0112651N1+03601+01701999999ADDGA1041+009001999GF104991999999999999999999MA1101191999999REMMET051METAR SBLP 051600Z 21006KT 9999 SCT030 36/17 Q1012;
0120832880999992012030517004-13267-043417FM-15+0443SBLP V0202101N003112200019N0112651N1+03601+01701999999ADDGA1041+009001999GF104991999999999999999999MA1101081999999REMMET051METAR SBLP 051700Z 21006KT 9999 SCT030 36/17 Q1011;
0120832880999992012030518004-13267-043417FM-15+0443SBLP V0201801N003112200019N0112651N1+03501+01701999999ADDGA1041+009001999GF104991999999999999999999MA1101021999999REMMET051METAR SBLP 051800Z 18006KT 9999 SCT030 35/17 Q1010;
0120832880999992012030519004-13267-043417FM-15+0443SBLP V0209999C000012200019N0112651N1+03601+01901999999ADDGA1041+009001999GF104991999999999999999999MA1101021999999REMMET051METAR SBLP 051900Z 00000KT 9999 SCT030 36/19 Q1010;
0120832880999992012030521004-13267-043417FM-15+0443SBLP V0209999C000012200019N0112651N1+03301+02001999999ADDGA1021+009001999GF102991999999999999999999MA1101021999999REMMET051METAR SBLP 052100Z 00000KT 9999 FEW030 33/20 Q1010;
0072832880999992012030610004-13267-043417FM-15+0443SBLP V0201801N003119999999Y0099001N1+02401+02001999999ADDMA1101391999999REMMET045METAR SBLP 061000Z 18006KT CAVOK 24/20 Q1014;
0072832880999992012030611004-13267-043417FM-15+0443SBLP V0209999C000019999999Y0099001N1+02601+02001999999ADDMA1101491999999REMMET045METAR SBLP 061100Z 00000KT CAVOK 26/20 Q1015;
0143832880999992012030612004-13267-043417FM-15+0443SBLP V0209999C000012200019N0112651N1+02901+01901999999ADDGA1021+009001999GA2041+030001999GF104991999999999999999999MA1101591999999REMMET058METAR SBLP 061200Z 00000KT 9999 FEW030 SCT100 29/19 Q1016;
0072832880999992012030613004-13267-043417FM-15+0443SBLP V0209999C000019999999Y0099001N1+02801+02001999999ADDMA1101491999999REMMET045METAR SBLP 061300Z 00000KT CAVOK 28/20 Q1015;
0143832880999992012030614004-13267-043417FM-15+0443SBLP V0209999C000012200019N0112651N1+03101+01801999999ADDGA1021+009001999GA2041+030001999GF104991999999999999999999MA1101491999999REMMET058METAR SBLP 061400Z 00000KT 9999 FEW030 SCT100 31/18 Q1015;
0120832880999992012030615004-13267-043417FM-15+0443SBLP V0201801N003112200019N0112651N1+03201+01901999999ADDGA1021+009001999GF102991999999999999999999MA1101391999999REMMET051METAR SBLP 061500Z 18006KT 9999 FEW030 32/19 Q1014;
0120832880999992012030616004-13267-043417FM-15+0443SBLP V0201801N003112200019N0112651N1+03401+01801999999ADDGA1041+009001999GF104991999999999999999999MA1101291999999REMMET051METAR SBLP 061600Z 18006KT 9999 SCT030 34/18 Q1013;
0120832880999992012030617004-13267-043417FM-15+0443SBLP V0201801N002110090019N0112651N1+03301+01801999999ADDGA1071+009001999GF107991999999999999999999MA1101081999999REMMET051METAR SBLP 061700Z 18004KT 9999 BKN030 33/18 Q1011;
0120832880999992012030618004-13267-043417FM-15+0443SBLP V0201801N006210090019N0112651N1+03401+01801999999ADDGA1071+009001999GF107991999999999999999999MA1101081999999REMMET051METAR SBLP 061800Z 18012KT 9999 BKN030 34/18 Q1011;
0143832880999992012030619004-13267-043417FM-15+0443SBLP V0201801N005110300019N0112651N1+03101+02001999999ADDGA1021+009001999GA2071+030001999GF107991999999999999999999MA1101021999999REMMET058METAR SBLP 061900Z 18010KT 9999 FEW030 BKN100 31/20 Q1010;
0143832880999992012030620004-13267-043417FM-15+0443SBLP V0201801N006210300019N0112651N1+03301+01901999999ADDGA1021+009001999GA2071+030001999GF107991999999999999999999MA1101021999999REMMET058METAR SBLP 062000Z 18012KT 9999 FEW030 BKN100 33/19 Q1010;
0162832880999992012030621004-13267-043417FM-15+0443SBLP V0201801N003110300019N0112651N1+03201+01002999999ADDGA1021+009001999GA2071+030001999GF107991999999999999999999MA1101021999999REMMET058METAR SBLP 062100Z 18006KT 9999 FEW030 BKN100 32/10 Q1010;EQDQ01+001003ATOD  
0072832880999992012030710004-13267-043417FM-15+0443SBLP V0201801N003119999999Y0099001N1+02301+01701999999ADDMA1101491999999REMMET045METAR SBLP 071000Z 18006KT CAVOK 23/17 Q1015;
0072832880999992012030711004-13267-043417FM-15+0443SBLP V0201201N006219999999Y0099001N1+02601+01701999999ADDMA1101591999999REMMET045METAR SBLP 071100Z 12012KT CAVOK 26/17 Q1016;
0072832880999992012030712004-13267-043417FM-15+0443SBLP V0201201N005119999999Y0099001N1+02801+01701999999ADDMA1101591999999REMMET045METAR SBLP 071200Z 12010KT CAVOK 28/17 Q1016;
0072832880999992012030713004-13267-043417FM-15+0443SBLP V0200601N002119999999Y0099001N1+03001+01501999999ADDMA1101591999999REMMET045METAR SBLP 071300Z 06004KT CAVOK 30/15 Q1016;
0120832880999992012030714004-13267-043417FM-15+0443SBLP V0201201N002112200019N0112651N1+03201+01601999999ADDGA1021+009001999GF102991999999999999999999MA1101491999999REMMET051METAR SBLP 071400Z 12004KT 9999 FEW030 32/16 Q1015;
0120832880999992012030715004-13267-043417FM-15+0443SBLP V0200901N003112200019N0112651N1+03201+01501999999ADDGA1021+009001999GF102991999999999999999999MA1101391999999REMMET051METAR SBLP 071500Z 09006KT 9999 FEW030 32/15 Q1014;
0120832880999992012030716004-13267-043417FM-15+0443SBLP V0201801N003112200019N0112651N1+03401+01401999999ADDGA1021+009001999GF102991999999999999999999MA1101291999999REMMET051METAR SBLP 071600Z 18006KT 9999 FEW030 34/14 Q1013;
0120832880999992012030717004-13267-043417FM-15+0443SBLP V0201801N003112200019N0112651N1+03501+01401999999ADDGA1041+009001999GF104991999999999999999999MA1101081999999REMMET051METAR SBLP 071700Z 18006KT 9999 SCT030 35/14 Q1011;
0120832880999992012030718004-13267-043417FM-15+0443SBLP V0201801N003112200019N0112651N1+03601+01401999999ADDGA1041+009001999GF104991999999999999999999MA1101081999999REMMET051METAR SBLP 071800Z 18006KT 9999 SCT030 36/14 Q1011;
0120832880999992012030719004-13267-043417FM-15+0443SBLP V0201801N003112200019N0112651N1+03601+01401999999ADDGA1041+009001999GF104991999999999999999999MA1101021999999REMMET051METAR SBLP 071900Z 18006KT 9999 SCT030 36/14 Q1010;
0120832880999992012030720004-13267-043417FM-15+0443SBLP V0201801N003112200019N0112651N1+03501+01401999999ADDGA1021+009001999GF102991999999999999999999MA1101021999999REMMET051METAR SBLP 072000Z 18006KT 9999 FEW030 35/14 Q1010;
0120832880999992012030721004-13267-043417FM-15+0443SBLP V0200901N003112200019N0112651N1+03401+01501999999ADDGA1021+009001999GF102991999999999999999999MA1101081999999REMMET051METAR SBLP 072100Z 09006KT 9999 FEW030 34/15 Q1011;
0072832880999992012030811004-13267-043417FM-15+0443SBLP V0209999C000019999999Y0099001N1+02701+01701999999ADDMA1101591999999REMMET045METAR SBLP 081100Z 00000KT CAVOK 27/17 Q1016;
0072832880999992012030813004-13267-043417FM-15+0443SBLP V0200901N003119999999Y0099001N1+03101+01501999999ADDMA1101591999999REMMET045METAR SBLP 081300Z 09006KT CAVOK 31/15 Q1016;
0120832880999992012030817004-13267-043417FM-15+0443SBLP V0202401N004612200019N0112651N1+03501+01701999999ADDGA1041+009001999GF104991999999999999999999MA1101191999999REMMET051METAR SBLP 081700Z 24009KT 9999 SCT030 35/17 Q1012;
0120832880999992012030818004-13267-043417FM-15+0443SBLP V0202101N004112200019N0112651N1+03601+01701999999ADDGA1041+009001999GF104991999999999999999999MA1101081999999REMMET051METAR SBLP 081800Z 21008KT 9999 SCT030 36/17 Q1011;
0120832880999992012030819004-13267-043417FM-15+0443SBLP V0202101N004112200019N0112651N1+03601+01701999999ADDGA1041+009001999GF104991999999999999999999MA1101021999999REMMET051METAR SBLP 081900Z 21008KT 9999 SCT030 36/17 Q1010;
0120832880999992012030820004-13267-043417FM-15+0443SBLP V0201201N003112200019N0112651N1+03601+01701999999ADDGA1041+009001999GF104991999999999999999999MA1101021999999REMMET051METAR SBLP 082000Z 12006KT 9999 SCT030 36/17 Q1010;
0120832880999992012030821004-13267-043417FM-15+0443SBLP V0201801N003112200019N0112651N1+03301+01801999999ADDGA1041+009001999GF104991999999999999999999MA1101081999999REMMET051METAR SBLP 082100Z 18006KT 9999 SCT030 33/18 Q1011;
0120832880999992012030914004-13267-043417FM-15+0443SBLP V0209999C000012200019N0112651N1+03401+01701999999ADDGA1021+009001999GF102991999999999999999999MA1101391999999REMMET051METAR SBLP 091400Z 00000KT 9999 FEW030 34/17 Q1014;
0120832880999992012030916004-13267-043417FM-15+0443SBLP V0209999C000012200019N0112651N1+03501+01901999999ADDGA1041+009001999GF104991999999999999999999MA1101191999999REMMET051METAR SBLP 091600Z 00000KT 9999 SCT030 35/19 Q1012;
0120832880999992012030917004-13267-043417FM-15+0443SBLP V0209999C000012200019N0112651N1+03301+02001999999ADDGA1041+009001999GF104991999999999999999999MA1101081999999REMMET051METAR SBLP 091700Z 00000KT 9999 SCT030 33/20 Q1011;
0120832880999992012030918004-13267-043417FM-15+0443SBLP V0202001N003112200019N0112651N1+03401+02001999999ADDGA1041+009001999GF104991999999999999999999MA1101021999999REMMET051METAR SBLP 091800Z 20006KT 9999 SCT030 34/20 Q1010;
0120832880999992012030919004-13267-043417FM-15+0443SBLP V0209999C000012200019N0112651N1+03201+02101999999ADDGA1041+009001999GF104991999999999999999999MA1101021999999REMMET051METAR SBLP 091900Z 00000KT 9999 SCT030 32/21 Q1010;
0120832880999992012030920004-13267-043417FM-15+0443SBLP V0209999C000012200019N0112651N1+03401+02001999999ADDGA1041+009001999GF104991999999999999999999MA1100911999999REMMET051METAR SBLP 092000Z 00000KT 9999 SCT030 34/20 Q1009;
0120832880999992012030921004-13267-043417FM-15+0443SBLP V0209999C000012200019N0112651N1+03201+02201999999ADDGA1041+009001999GF104991999999999999999999MA1101021999999REMMET051METAR SBLP 092100Z 00000KT 9999 SCT030 32/22 Q1010;
0072832880999992012031210004-13267-043417FM-15+0443SBLP V0209999C000019999999Y0099001N1+02501+01901999999ADDMA1101391999999REMMET045METAR SBLP 121000Z 00000KT CAVOK 25/19 Q1014;
0072832880999992012031211004-13267-043417FM-15+0443SBLP V0209999C000019999999Y0099001N1+02801+01801999999ADDMA1101491999999REMMET045METAR SBLP 121100Z 00000KT CAVOK 28/18 Q1015;
0072832880999992012031212004-13267-043417FM-15+0443SBLP V0209999C000019999999Y0099001N1+03101+01801999999ADDMA1101491999999REMMET045METAR SBLP 121200Z 00000KT CAVOK 31/18 Q1015;
0072832880999992012031213004-13267-043417FM-15+0443SBLP V0209999C000019999999Y0099001N1+03201+01701999999ADDMA1101391999999REMMET045METAR SBLP 121300Z 00000KT CAVOK 32/17 Q1014;
0072832880999992012031214004-13267-043417FM-15+0443SBLP V0209999C000019999999Y0099001N1+03201+01701999999ADDMA1101391999999REMMET045METAR SBLP 121400Z 00000KT CAVOK 32/17 Q1014;
0120832880999992012031215004-13267-043417FM-15+0443SBLP V0201801N003112200019N0112651N1+03401+01701999999ADDGA1021+009001999GF102991999999999999999999MA1101191999999REMMET051METAR SBLP 121500Z 18006KT 9999 FEW030 34/17 Q1012;
0120832880999992012031216004-13267-043417FM-15+0443SBLP V0202101N004112200019N0112651N1+03501+01901999999ADDGA1041+009001999GF104991999999999999999999MA1101081999999REMMET051METAR SBLP 121600Z 21008KT 9999 SCT030 35/19 Q1011;
0120832880999992012031217004-13267-043417FM-15+0443SBLP V0202401N002612200019N0112651N1+03601+01801999999ADDGA1041+009001999GF104991999999999999999999MA1101081999999REMMET051METAR SBLP 121700Z 24005KT 9999 SCT030 36/18 Q1011;
0072832880999992012031310004-13267-043417FM-15+0443SBLP V0200901N002619999999Y0099001N1+02501+01801999999ADDMA1101391999999REMMET045METAR SBLP 131000Z 09005KT CAVOK 25/18 Q1014;
0072832880999992012031311004-13267-043417FM-15+0443SBLP V0200801N003119999999Y0099001N1+02901+01801999999ADDMA1101491999999REMMET045METAR SBLP 131100Z 08006KT CAVOK 29/18 Q1015;
0072832880999992012031312004-13267-043417FM-15+0443SBLP V0200601N003119999999Y0099001N1+03001+01701999999ADDMA1101491999999REMMET045METAR SBLP 131200Z 06006KT CAVOK 30/17 Q1015;
0072832880999992012031313004-13267-043417FM-15+0443SBLP V0201501N001519999999Y0099001N1+03201+01701999999ADDMA1101491999999REMMET045METAR SBLP 131300Z 15003KT CAVOK 32/17 Q1015;
0120832880999992012031314004-13267-043417FM-15+0443SBLP V0202401N003112200019N0112651N1+03201+01601999999ADDGA1021+009001999GF102991999999999999999999MA1101391999999REMMET051METAR SBLP 131400Z 24006KT 9999 FEW030 32/16 Q1014;
0120832880999992012031315004-13267-043417FM-15+0443SBLP V0201801N001512200019N0112651N1+03401+01701999999ADDGA1021+009001999GF102991999999999999999999MA1101291999999REMMET051METAR SBLP 131500Z 18003KT 9999 FEW030 34/17 Q1013;
0120832880999992012031316004-13267-043417FM-15+0443SBLP V0201801N003112200019N0112651N1+03501+01701999999ADDGA1041+009001999GF104991999999999999999999MA1101191999999REMMET051METAR SBLP 131600Z 18006KT 9999 SCT030 35/17 Q1012;
0120832880999992012031317004-13267-043417FM-15+0443SBLP V0201801N003112200019N0112651N1+03601+01701999999ADDGA1041+009001999GF104991999999999999999999MA1101081999999REMMET051METAR SBLP 131700Z 18006KT 9999 SCT030 36/17 Q1011;
0120832880999992012031319004-13267-043417FM-15+0443SBLP V0201801N003112200019N0112651N1+03601+01701999999ADDGA1041+009001999GF104991999999999999999999MA1100911999999REMMET051METAR SBLP 131900Z 18006KT 9999 SCT030 36/17 Q1009;
0120832880999992012031320004-13267-043417FM-15+0443SBLP V0201801N003112200019N0112651N1+03501+01701999999ADDGA1021+009001999GF102991999999999999999999MA1100911999999REMMET051METAR SBLP 132000Z 18006KT 9999 FEW030 35/17 Q1009;
0120832880999992012031321004-13267-043417FM-15+0443SBLP V0201801N003112200019N0112651N1+03401+01701999999ADDGA1021+009001999GF102991999999999999999999MA1100911999999REMMET051METAR SBLP 132100Z 18006KT 9999 FEW030 34/17 Q1009;
0072832880999992012031410004-13267-043417FM-15+0443SBLP V0209999C000019999999Y0099001N1+02401+01901999999ADDMA1101491999999REMMET045METAR SBLP 141000Z 00000KT CAVOK 24/19 Q1015;
0072832880999992012031411004-13267-043417FM-15+0443SBLP V0209999C000019999999Y0099001N1+02701+01801999999ADDMA1101491999999REMMET045METAR SBLP 141100Z 00000KT CAVOK 27/18 Q1015;
0072832880999992012031412004-13267-043417FM-15+0443SBLP V0209999C000019999999Y0099001N1+03001+01701999999ADDMA1101491999999REMMET045METAR SBLP 141200Z 00000KT CAVOK 30/17 Q1015;
0072832880999992012031413004-13267-043417FM-15+0443SBLP V0209999C000019999999Y0099001N1+03201+01701999999ADDMA1101491999999REMMET045METAR SBLP 141300Z 00000KT CAVOK 32/17 Q1015;
0120832880999992012031414004-13267-043417FM-15+0443SBLP V0201801N003112200019N0112651N1+03401+01601999999ADDGA1021+009001999GF102991999999999999999999MA1101391999999REMMET051METAR SBLP 141400Z 18006KT 9999 FEW030 34/16 Q1014;
0120832880999992012031415004-13267-043417FM-15+0443SBLP V0201801N003112200019N0112651N1+03401+01701999999ADDGA1021+009001999GF102991999999999999999999MA1101391999999REMMET051METAR SBLP 141500Z 18006KT 9999 FEW030 34/17 Q1014;
0120832880999992012031416004-13267-043417FM-15+0443SBLP V0201801N002612200019N0112651N1+03501+01701999999ADDGA1041+009001999GF104991999999999999999999MA1101191999999REMMET051METAR SBLP 141600Z 18005KT 9999 SCT030 35/17 Q1012;
0120832880999992012031418004-13267-043417FM-15+0443SBLP V0201901N001512200019N0112651N1+03601+01701999999ADDGA1041+009001999GF104991999999999999999999MA1101021999999REMMET051METAR SBLP 141800Z 19003KT 9999 SCT030 36/17 Q1010;
0120832880999992012031420004-13267-043417FM-15+0443SBLP V0201801N002112200019N0112651N1+03601+01801999999ADDGA1021+009001999GF102991999999999999999999MA1100911999999REMMET051METAR SBLP 142000Z 18004KT 9999 FEW030 36/18 Q1009;
0120832880999992012031421004-13267-043417FM-15+0443SBLP V0201801N001512200019N0112651N1+03401+01901999999ADDGA1021+009001999GF102991999999999999999999MA1101021999999REMMET051METAR SBLP 142100Z 18003KT 9999 FEW030 34/19 Q1010;
0072832880999992012031510004-13267-043417FM-15+0443SBLP V0203601N001519999999Y0099001N1+02701+02101999999ADDMA1101391999999REMMET045METAR SBLP 151000Z 36003KT CAVOK 27/21 Q1014;
0120832880999992012031511004-13267-043417FM-15+0443SBLP V0203601N003112200019N0112651N1+02901+02001999999ADDGA1021+027001999GF102991999999999999999999MA1101491999999REMMET051METAR SBLP 151100Z 36006KT 9999 FEW090 29/20 Q1015;
0120832880999992012031512004-13267-043417FM-15+0443SBLP V0203101N003112200019N0112651N1+03001+01901999999ADDGA1021+009001999GF102991999999999999999999MA1101491999999REMMET051METAR SBLP 151200Z 31006KT 9999 FEW030 30/19 Q1015;
0120832880999992012031513004-13267-043417FM-15+0443SBLP V0203501N002112200019N0112651N1+03301+01701999999ADDGA1021+009001999GF102991999999999999999999MA1101491999999REMMET051METAR SBLP 151300Z 35004KT 9999 FEW030 33/17 Q1015;
0120832880999992012031514004-13267-043417FM-15+0443SBLP V0203501N002112200019N0112651N1+03401+01701999999ADDGA1021+009001999GF102991999999999999999999MA1101491999999REMMET051METAR SBLP 151400Z 35004KT 9999 FEW030 34/17 Q1015;
0120832880999992012031515004-13267-043417FM-15+0443SBLP V0203301N003112200019N0112651N1+03701+01601999999ADDGA1041+009001999GF104991999999999999999999MA1101391999999REMMET051METAR SBLP 151500Z 33006KT 9999 SCT030 37/16 Q1014;
0120832880999992012031516004-13267-043417FM-15+0443SBLP V0203601N003112200019N0112651N1+03701+01601999999ADDGA1041+009001999GF104991999999999999999999MA1101291999999REMMET051METAR SBLP 151600Z 36006KT 9999 SCT030 37/16 Q1013;
0120832880999992012031517004-13267-043417FM-15+0443SBLP V0203601N003112200019N0112651N1+03701+01601999999ADDGA1041+009001999GF104991999999999999999999MA1101081999999REMMET051METAR SBLP 151700Z 36006KT 9999 SCT030 37/16 Q1011;
0120832880999992012031518004-13267-043417FM-15+0443SBLP V0203601N003112200019N0112651N1+03801+01601999999ADDGA1041+009001999GF104991999999999999999999MA1101021999999REMMET051METAR SBLP 151800Z 36006KT 9999 SCT030 38/16 Q1010;
0120832880999992012031519004-13267-043417FM-15+0443SBLP V0203601N003112200019N0112651N1+03801+01601999999ADDGA1041+009001999GF104991999999999999999999MA1101021999999REMMET051METAR SBLP 151900Z 36006KT 9999 SCT030 38/16 Q1010;
0120832880999992012031520004-13267-043417FM-15+0443SBLP V0203601N003112200019N0112651N1+03701+01601999999ADDGA1041+009001999GF104991999999999999999999MA1101021999999REMMET051METAR SBLP 152000Z 36006KT 9999 SCT030 37/16 Q1010;
0120832880999992012031521004-13267-043417FM-15+0443SBLP V0209999C000012200019N0112651N1+03501+01601999999ADDGA1041+009001999GF104991999999999999999999MA1101021999999REMMET051METAR SBLP 152100Z 00000KT 9999 SCT030 35/16 Q1010;
0143832880999992012031610004-13267-043417FM-15+0443SBLP V0209999C000010300019N0112651N1+02501+02001999999ADDGA1041+009001999GA2071+030001999GF107991999999999999999999MA1101491999999REMMET058METAR SBLP 161000Z 00000KT 9999 SCT030 BKN100 25/20 Q1015;
0143832880999992012031612004-13267-043417FM-15+0443SBLP V0209999C000012200019N0112651N1+02801+02001999999ADDGA1021+009001999GA2041+030001999GF104991999999999999999999MA1101591999999REMMET058METAR SBLP 161200Z 00000KT 9999 FEW030 SCT100 28/20 Q1016;
0143832880999992012031613004-13267-043417FM-15+0443SBLP V0209999C000012200019N0112651N1+03001+01901999999ADDGA1021+009001999GA2041+030001999GF104991999999999999999999MA1101491999999REMMET058METAR SBLP 161300Z 00000KT 9999 FEW030 SCT100 30/19 Q1015;
0120832880999992012031614004-13267-043417FM-15+0443SBLP V0209999C000012200019N0112651N1+03201+01801999999ADDGA1021+009001999GF102991999999999999999999MA1101491999999REMMET051METAR SBLP 161400Z 00000KT 9999 FEW030 32/18 Q1015;
0120832880999992012031615004-13267-043417FM-15+0443SBLP V0203601N003112200019N0112651N1+03401+01801999999ADDGA1041+009001999GF104991999999999999999999MA1101391999999REMMET051METAR SBLP 161500Z 36006KT 9999 SCT030 34/18 Q1014;
0120832880999992012031616004-13267-043417FM-15+0443SBLP V0202201N002112200019N0112651N1+03501+01901999999ADDGA1041+009001999GF104991999999999999999999MA1101291999999REMMET051METAR SBLP 161600Z 22004KT 9999 SCT030 35/19 Q1013;
0120832880999992012031617004-13267-043417FM-15+0443SBLP V0202401N001512200019N0112651N1+03601+01901999999ADDGA1041+009001999GF104991999999999999999999MA1101191999999REMMET051METAR SBLP 161700Z 24003KT 9999 SCT030 36/19 Q1012;
0120832880999992012031618004-13267-043417FM-15+0443SBLP V0201801N001512200019N0112651N1+03701+01801999999ADDGA1041+009001999GF104991999999999999999999MA1101021999999REMMET051METAR SBLP 161800Z 18003KT 9999 SCT030 37/18 Q1010;
0120832880999992012031619004-13267-043417FM-15+0443SBLP V0201901N003112200019N0112651N1+03701+02001999999ADDGA1041+009001999GF104991999999999999999999MA1101021999999REMMET051METAR SBLP 161900Z 19006KT 9999 SCT030 37/20 Q1010;
0147832880999992012031620004-13267-043417FM-15+0443SBLP V0201601N005112200019N0112651N1+03601+02101999999ADDGA1041+009001999GA2021+012001091MA1101021999999MW1171REMMET063METAR SBLP 162000Z 16010KT 9999 TS SCT030 FEW040CB 36/21 Q1010;EQDQ01+000022SCOTCV
0148832880999992012031621004-13267-043417FM-15+0443SBLP V0201301N003112200019N0112651N1+03201+02001999999ADDGA1021+009001999GA2041+030001999GF104991999999999999999999MA1101081999999REMMET063METAR SBLP 162100Z 13006KT 9999 FEW030 SCT100 32/20 Q1011 RETS;
0143832880999992012031910004-13267-043417FM-15+0443SBLP V0201801N002110039019N0112651N1+02301+02201999999ADDGA1071+003901999GA2071+027001999GF107991999999999999999999MA1101391999999REMMET058METAR SBLP 191000Z 18004KT 9999 BKN013 BKN090 23/22 Q1014;
0143832880999992012031911004-13267-043417FM-15+0443SBLP V0201801N002610045019N0112651N1+02301+02201999999ADDGA1071+004501999GA2071+027001999GF107991999999999999999999MA1101391999999REMMET058METAR SBLP 191100Z 18005KT 9999 BKN015 BKN090 23/22 Q1014;
0143832880999992012031912004-13267-043417FM-15+0443SBLP V0201801N003110045019N0112651N1+02401+02201999999ADDGA1071+004501999GA2071+027001999GF107991999999999999999999MA1101491999999REMMET058METAR SBLP 191200Z 18006KT 9999 BKN015 BKN090 24/22 Q1015;
0143832880999992012031913004-13267-043417FM-15+0443SBLP V0202101N004110060019N0112651N1+02501+02201999999ADDGA1071+006001999GA2071+030001999GF107991999999999999999999MA1101491999999REMMET058METAR SBLP 191300Z 21008KT 9999 BKN020 BKN100 25/22 Q1015;
0143832880999992012031914004-13267-043417FM-15+0443SBLP V0201801N003110300019N0112651N1+02701+02201999999ADDGA1041+006001999GA2071+030001999GF107991999999999999999999MA1101491999999REMMET058METAR SBLP 191400Z 18006KT 9999 SCT020 BKN100 27/22 Q1015;
0143832880999992012031915004-13267-043417FM-15+0443SBLP V0201901N003110300019N0112651N1+02901+02201999999ADDGA1041+009001999GA2071+030001999GF107991999999999999999999MA1101391999999REMMET058METAR SBLP 191500Z 19006KT 9999 SCT030 BKN100 29/22 Q1014;
0143832880999992012031916004-13267-043417FM-15+0443SBLP V0201801N003110300019N0112651N1+02901+02101999999ADDGA1041+009001999GA2071+030001999GF107991999999999999999999MA1101291999999REMMET058METAR SBLP 191555Z 18006KT 9999 SCT030 BKN100 29/21 Q1013;
0177832880999992012031917044-13267-043417FM-15+0443SBLP V0201801N00621012001CN0112651N1+03101+02001999999ADDGA1041+009001999GA2021+012001091GA3071+030001999GF107991999999999999999999MA1101081999999MW1171REMMET070METAR SBLP 191704Z 18012KT 9999 TS SCT030 FEW040CB BKN100 31/20 Q1011;
0177832880999992012031918004-13267-043417FM-15+0443SBLP V0201801N00621012001CN0112651N1+03001+02001999999ADDGA1041+009001999GA2021+012001091GA3071+030001999GF107991999999999999999999MA1101081999999MW1171REMMET070METAR SBLP 191800Z 18012KT 9999 TS SCT030 FEW040CB BKN100 30/20 Q1011;
0187832880999992012031919004-13267-043417FM-15+0443SBLP V0209999C00001012001CN0090001N1+02701+02101999999ADDGA1041+009001999GA2021+012001091GA3071+030001999GF107991999999999999999999MA1101101999999MW1801MW2951REMMET074METAR SBLP 191900Z 00000KT 9000 -TSRA SCT030 FEW040CB BKN100 27/21 Q1 011;
0153832880999992012031920004-13267-043417FM-15+0443SBLP V0209999C000010300019N0090001N1+02601+02101999999ADDGA1041+009001999GA2081+030001999GF108991999999999999999999MA1101081999999MW1611REMMET062METAR SBLP 192000Z 00000KT 9000 -RA SCT030 OVC100 26/21 Q1011;
0143832880999992012031921004-13267-043417FM-15+0443SBLP V0209999C000010300019N0112651N1+02401+02101999999ADDGA1041+009001999GA2071+030001999GF107991999999999999999999MA1101191999999REMMET058METAR SBLP 192100Z 00000KT 9999 SCT030 BKN100 24/21 Q1012;
0153832880999992012032010004-13267-043417FM-15+0443SBLP V0209999C000010300019N0090001N1+02201+02101999999ADDGA1041+003001999GA2071+030001999GF107991999999999999999999MA1101491999999MW1611REMMET062METAR SBLP 201000Z 00000KT 9000 -RA SCT010 BKN100 22/21 Q1015;
0143832880999992012032011004-13267-043417FM-15+0443SBLP V0209999C000010300019N0112651N1+02201+02101999999ADDGA1041+003001999GA2071+030001999GF107991999999999999999999MA1101591999999REMMET058METAR SBLP 201100Z 00000KT 9999 SCT010 BKN100 22/21 Q1016;
0143832880999992012032012004-13267-043417FM-15+0443SBLP V0209999C000010300019N0112651N1+02301+02101999999ADDGA1041+003001999GA2071+030001999GF107991999999999999999999MA1101591999999REMMET058METAR SBLP 201200Z 00000KT 9999 SCT010 BKN100 23/21 Q1016;
0143832880999992012032013004-13267-043417FM-15+0443SBLP V0209999C000010300019N0112651N1+02501+02101999999ADDGA1041+004501999GA2071+030001999GF107991999999999999999999MA1101591999999REMMET058METAR SBLP 201300Z 00000KT 9999 SCT015 BKN100 25/21 Q1016;
0143832880999992012032014004-13267-043417FM-15+0443SBLP V0209999C000010300019N0112651N1+02701+02101999999ADDGA1041+004501999GA2071+030001999GF107991999999999999999999MA1101491999999REMMET058METAR SBLP 201400Z 00000KT 9999 SCT015 BKN100 27/21 Q1015;
0143832880999992012032015004-13267-043417FM-15+0443SBLP V0201801N003110300019N0112651N1+02701+02101999999ADDGA1041+006001999GA2071+030001999GF107991999999999999999999MA1101491999999REMMET058METAR SBLP 201500Z 18006KT 9999 SCT020 BKN100 27/21 Q1015;
0143832880999992012032016004-13267-043417FM-15+0443SBLP V0202701N001010300019N0112651N1+02801+02201999999ADDGA1041+008101999GA2071+030001999GF107991999999999999999999MA1101291999999REMMET058METAR SBLP 201600Z 27002KT 9999 SCT027 BKN100 28/22 Q1013;
0143832880999992012032017004-13267-043417FM-15+0443SBLP V0201801N001512200019N0112651N1+03001+02101999999ADDGA1041+008101999GA2041+030001999GF104991999999999999999999MA1101191999999REMMET058METAR SBLP 201700Z 18003KT 9999 SCT027 SCT100 30/21 Q1012;
0143832880999992012032018004-13267-043417FM-15+0443SBLP V0203101N002112200019N0112651N1+03101+02001999999ADDGA1041+009001999GA2041+030001999GF104991999999999999999999MA1101081999999REMMET058METAR SBLP 201800Z 31004KT 9999 SCT030 SCT100 31/20 Q1011;
0146832880999992012032019004-13267-043417FM-15+0443SBLP V0202101N002112200019N0112651N1+03101+01901999999ADDGA1021+009001999GA2021+012001021GF102991999999999999999999MA1101021999999REMMET061METAR SBLP 201900Z 21004KT 9999 FEW030 FEW040TCU 31/19 Q1010;
0143832880999992012032110004-13267-043417FM-15+0443SBLP V0201801N001510045019N0112651N1+02201+02101999999ADDGA1071+004501999GA2071+027001999GF107991999999999999999999MA1101491999999REMMET058METAR SBLP 211000Z 18003KT 9999 BKN015 BKN090 22/21 Q1015;
0143832880999992012032111004-13267-043417FM-15+0443SBLP V0209999C000010300019N0112651N1+02301+02101999999ADDGA1041+004501999GA2071+030001999GF107991999999999999999999MA1101491999999REMMET058METAR SBLP 211100Z 00000KT 9999 SCT015 BKN100 23/21 Q1015;
0143832880999992012032112004-13267-043417FM-15+0443SBLP V0201201N002110270019N0112651N1+02501+02201999999ADDGA1041+004501999GA2071+027001999GF107991999999999999999999MA1101591999999REMMET058METAR SBLP 211200Z 12004KT 9999 SCT015 BKN090 25/22 Q1016;
0143832880999992012032113004-13267-043417FM-15+0443SBLP V0201801N002110270019N0112651N1+02601+02201999999ADDGA1041+006001999GA2071+027001999GF107991999999999999999999MA1101591999999REMMET058METAR SBLP 211300Z 18004KT 9999 SCT020 BKN090 26/22 Q1016;
0120832880999992012032114004-13267-043417FM-15+0443SBLP V0202701N001512200019N0112651N1+02801+02201999999ADDGA1041+008101999GF104991999999999999999999MA1101491999999REMMET051METAR SBLP 211400Z 27003KT 9999 SCT027 28/22 Q1015;
0120832880999992012032115004-13267-043417FM-15+0443SBLP V0202101N002112200019N0112651N1+02801+02201999999ADDGA1041+009001999GF104991999999999999999999MA1101491999999REMMET051METAR SBLP 211500Z 21004KT 9999 SCT030 28/22 Q1015;
0120832880999992012032116004-13267-043417FM-15+0443SBLP V0201801N003112200019N0112651N1+03001+02101999999ADDGA1041+009001999GF104991999999999999999999MA1101291999999REMMET051METAR SBLP 211600Z 18006KT 9999 SCT030 30/21 Q1013;
0120832880999992012032117004-13267-043417FM-15+0443SBLP V0201801N003112200019N0112651N1+03101+02001999999ADDGA1041+009001999GF104991999999999999999999MA1101191999999REMMET051METAR SBLP 211700Z 18006KT 9999 SCT030 31/20 Q1012;
0120832880999992012032118004-13267-043417FM-15+0443SBLP V0201801N003112200019N0112651N1+03201+02001999999ADDGA1041+009001999GF104991999999999999999999MA1101081999999REMMET051METAR SBLP 211800Z 18006KT 9999 SCT030 32/20 Q1011;
0120832880999992012032119004-13267-043417FM-15+0443SBLP V0202701N003112200019N0112651N1+03201+01901999999ADDGA1041+009001999GF104991999999999999999999MA1101021999999REMMET051METAR SBLP 211900Z 27006KT 9999 SCT030 32/19 Q1010;
0120832880999992012032120004-13267-043417FM-15+0443SBLP V0202701N003112200019N0112651N1+03301+01901999999ADDGA1041+009001999GF104991999999999999999999MA1101021999999REMMET051METAR SBLP 212000Z 27006KT 9999 SCT030 33/19 Q1010;
0120832880999992012032121004-13267-043417FM-15+0443SBLP V0203601N003112200019N0112651N1+03101+02001999999ADDGA1041+009001999GF104991999999999999999999MA1101021999999REMMET051METAR SBLP 212100Z 36006KT 9999 SCT030 31/20 Q1010;
0143832880999992012032210004-13267-043417FM-15+0443SBLP V0209999C000010300019N0112651N1+02301+02101999999ADDGA1021+006001999GA2071+030001999GF107991999999999999999999MA1101291999999REMMET058METAR SBLP 221000Z 00000KT 9999 FEW020 BKN100 23/21 Q1013;
0143832880999992012032211004-13267-043417FM-15+0443SBLP V0209999C000012200019N0112651N1+02601+02101999999ADDGA1021+009001999GA2041+030001999GF104991999999999999999999MA1101391999999REMMET058METAR SBLP 221100Z 00000KT 9999 FEW030 SCT100 26/21 Q1014;
0143832880999992012032212004-13267-043417FM-15+0443SBLP V0209999C000012200019N0112651N1+02801+02101999999ADDGA1021+009001999GA2041+030001999GF104991999999999999999999MA1101391999999REMMET058METAR SBLP 221200Z 00000KT 9999 FEW030 SCT100 28/21 Q1014;
0120832880999992012032213004-13267-043417FM-15+0443SBLP V0209999C000012200019N0112651N1+03001+02001999999ADDGA1021+009001999GF102991999999999999999999MA1101391999999REMMET051METAR SBLP 221300Z 00000KT 9999 FEW030 30/20 Q1014;
0120832880999992012032214004-13267-043417FM-15+0443SBLP V0209999C000012200019N0112651N1+03201+01901999999ADDGA1021+009001999GF102991999999999999999999MA1101291999999REMMET051METAR SBLP 221400Z 00000KT 9999 FEW030 32/19 Q1013;
0120832880999992012032215004-13267-043417FM-15+0443SBLP V0202701N003112200019N0112651N1+03301+01901999999ADDGA1041+009001999GF104991999999999999999999MA1101191999999REMMET051METAR SBLP 221500Z 27006KT 9999 SCT030 33/19 Q1012;
0120832880999992012032216004-13267-043417FM-15+0443SBLP V0203101N003112200019N0112651N1+03401+01901999999ADDGA1041+009001999GF104991999999999999999999MA1101081999999REMMET051METAR SBLP 221600Z 31006KT 9999 SCT030 34/19 Q1011;
0120832880999992012032217004-13267-043417FM-15+0443SBLP V0202401N001512200019N0112651N1+03401+01801999999ADDGA1021+009001999GF102991999999999999999999MA1101021999999REMMET051METAR SBLP 221700Z 24003KT 9999 FEW030 34/18 Q1010;
0120832880999992012032218004-13267-043417FM-15+0443SBLP V0202701N002112200019N0112651N1+03501+01801999999ADDGA1021+009001999GF102991999999999999999999MA1100911999999REMMET051METAR SBLP 221800Z 27004KT 9999 FEW030 35/18 Q1009;
0120832880999992012032219004-13267-043417FM-15+0443SBLP V0202701N002612200019N0112651N1+03601+01801999999ADDGA1021+009001999GF102991999999999999999999MA1100811999999REMMET051METAR SBLP 221900Z 27005KT 9999 FEW030 36/18 Q1008;
0120832880999992012032220004-13267-043417FM-15+0443SBLP V0201801N001512200019N0112651N1+03501+01801999999ADDGA1021+009001999GF102991999999999999999999MA1100811999999REMMET051METAR SBLP 222000Z 18003KT 9999 FEW030 35/18 Q1008;
0134832880999992012032221004-13267-043417FM-15+0443SBLP V0201701N001512200019N0112651N1+03301+01901999999ADDGA1021+012001021GF102991999999999999999999MA1100811999999MW1161REMMET059METAR SBLP 222100Z 17003KT 9999 VCSH FEW040TCU 33/19 Q1008;
0120832880999992012032311004-13267-043417FM-15+0443SBLP V0209999C000012200019N0112651N1+02701+02201999999ADDGA1041+008101999GF104991999999999999999999MA1101291999999REMMET051METAR SBLP 231100Z 00000KT 9999 SCT027 27/22 Q1013;
0120832880999992012032312004-13267-043417FM-15+0443SBLP V0209999C000012200019N0112651N1+02901+02101999999ADDGA1041+008101999GF104991999999999999999999MA1101391999999REMMET051METAR SBLP 231200Z 00000KT 9999 SCT027 29/21 Q1014;
0120832880999992012032313004-13267-043417FM-15+0443SBLP V0209999C000012200019N0112651N1+03001+02101999999ADDGA1041+008101999GF104991999999999999999999MA1101391999999REMMET051METAR SBLP 231300Z 00000KT 9999 SCT027 30/21 Q1014;
0120832880999992012032314004-13267-043417FM-15+0443SBLP V0203101N003112200019N0112651N1+03101+02101999999ADDGA1041+008101999GF104991999999999999999999MA1101391999999REMMET051METAR SBLP 231400Z 31006KT 9999 SCT027 31/21 Q1014;
0120832880999992012032315004-13267-043417FM-15+0443SBLP V0209999C000012200019N0112651N1+03301+02001999999ADDGA1041+009001999GF104991999999999999999999MA1101291999999REMMET051METAR SBLP 231500Z 00000KT 9999 SCT030 33/20 Q1013;
0120832880999992012032316004-13267-043417FM-15+0443SBLP V0203601N003112200019N0112651N1+03401+01901999999ADDGA1041+009001999GF104991999999999999999999MA1101191999999REMMET051METAR SBLP 231600Z 36006KT 9999 SCT030 34/19 Q1012;
0120832880999992012032317004-13267-043417FM-15+0443SBLP V0203601N003112200019N0112651N1+03401+01901999999ADDGA1041+009001999GF104991999999999999999999MA1101081999999REMMET051METAR SBLP 231700Z 36006KT 9999 SCT030 34/19 Q1011;
0120832880999992012032319004-13267-043417FM-15+0443SBLP V0203601N003112200019N0112651N1+03401+01801999999ADDGA1041+009001999GF104991999999999999999999MA1100911999999REMMET051METAR SBLP 231900Z 36006KT 9999 SCT030 34/18 Q1009;
0143832880999992012032320004-13267-043417FM-15+0443SBLP V0209999C000012200019N0112651N1+03301+01901999999ADDGA1021+009001999GA2041+030001999GF104991999999999999999999MA1100911999999REMMET058METAR SBLP 232000Z 00000KT 9999 FEW030 SCT100 33/19 Q1009;
0143832880999992012032321004-13267-043417FM-15+0443SBLP V0209999C000010300019N0112651N1+03101+01901999999ADDGA1021+009001999GA2071+030001999GF107991999999999999999999MA1101021999999REMMET058METAR SBLP 232100Z 00000KT 9999 FEW030 BKN100 31/19 Q1010;
0072832880999992012032610004-13267-043417FM-15+0443SBLP V0209999C000019999999Y0099001N1+02501+01801999999ADDMA1101391999999REMMET045METAR SBLP 261000Z 00000KT CAVOK 25/18 Q1014;
0072832880999992012032611004-13267-043417FM-15+0443SBLP V0209999C000019999999Y0099001N1+02701+01801999999ADDMA1101491999999REMMET045METAR SBLP 261100Z 00000KT CAVOK 27/18 Q1015;
0072832880999992012032612004-13267-043417FM-15+0443SBLP V0209999C000019999999Y0099001N1+02901+01701999999ADDMA1101591999999REMMET045METAR SBLP 261200Z 00000KT CAVOK 29/17 Q1016;
0072832880999992012032613004-13267-043417FM-15+0443SBLP V0209999C000019999999Y0099001N1+03101+01601999999ADDMA1101591999999REMMET045METAR SBLP 261300Z 00000KT CAVOK 31/16 Q1016;
0072832880999992012032614004-13267-043417FM-15+0443SBLP V0201801N003119999999Y0099001N1+03201+01601999999ADDMA1101491999999REMMET045METAR SBLP 261400Z 18006KT CAVOK 32/16 Q1015;
0072832880999992012032615004-13267-043417FM-15+0443SBLP V0201801N003119999999Y0099001N1+03201+01601999999ADDMA1101391999999REMMET045METAR SBLP 261500Z 18006KT CAVOK 32/16 Q1014;
0072832880999992012032616004-13267-043417FM-15+0443SBLP V0202401N003119999999Y0099001N1+03301+01501999999ADDMA1101291999999REMMET045METAR SBLP 261600Z 24006KT CAVOK 33/15 Q1013;
0072832880999992012032617004-13267-043417FM-15+0443SBLP V0202401N003119999999Y0099001N1+03301+01701999999ADDMA1101191999999REMMET045METAR SBLP 261700Z 24006KT CAVOK 33/17 Q1012;
0072832880999992012032618004-13267-043417FM-15+0443SBLP V0202101N004119999999Y0099001N1+03401+01501999999ADDMA1101081999999REMMET045METAR SBLP 261800Z 21008KT CAVOK 34/15 Q1011;
0072832880999992012032619004-13267-043417FM-15+0443SBLP V0202101N003119999999Y0099001N1+03501+01601999999ADDMA1101021999999REMMET045METAR SBLP 261900Z 21006KT CAVOK 35/16 Q1010;
0072832880999992012032620004-13267-043417FM-15+0443SBLP V0202101N003119999999Y0099001N1+03301+01801999999ADDMA1101021999999REMMET045METAR SBLP 262000Z 21006KT CAVOK 33/18 Q1010;
0072832880999992012032621004-13267-043417FM-15+0443SBLP V0201801N003119999999Y0099001N1+03201+01701999999ADDMA1101021999999REMMET045METAR SBLP 262100Z 18006KT CAVOK 32/17 Q1010;
0072832880999992012032710004-13267-043417FM-15+0443SBLP V0201801N002119999999Y0099001N1+02201+01801999999ADDMA1101391999999REMMET045METAR SBLP 271000Z 18004KT CAVOK 22/18 Q1014;
0072832880999992012032711004-13267-043417FM-15+0443SBLP V0201701N001519999999Y0099001N1+02501+01701999999ADDMA1101491999999REMMET045METAR SBLP 271100Z 17003KT CAVOK 25/17 Q1015;
0072832880999992012032712004-13267-043417FM-15+0443SBLP V0209999C000019999999Y0099001N1+02801+01901999999ADDMA1101491999999REMMET045METAR SBLP 271200Z 00000KT CAVOK 28/19 Q1015;
0072832880999992012032713004-13267-043417FM-15+0443SBLP V0202001N003119999999Y0099001N1+03001+01801999999ADDMA1101491999999REMMET045METAR SBLP 271300Z 20006KT CAVOK 30/18 Q1015;
0072832880999992012032714004-13267-043417FM-15+0443SBLP V0209999C000019999999Y0099001N1+03001+01801999999ADDMA1101491999999REMMET045METAR SBLP 271400Z 00000KT CAVOK 30/18 Q1015;
0120832880999992012032715004-13267-043417FM-15+0443SBLP V0202101N003112200019N0112651N1+03101+01801999999ADDGA1021+009001999GF102991999999999999999999MA1101391999999REMMET051METAR SBLP 271500Z 21006KT 9999 FEW030 31/18 Q1014;
0120832880999992012032716004-13267-043417FM-15+0443SBLP V0201801N003112200019N0112651N1+03301+01701999999ADDGA1021+009001999GF102991999999999999999999MA1101191999999REMMET051METAR SBLP 271600Z 18006KT 9999 FEW030 33/17 Q1012;
0120832880999992012032717004-13267-043417FM-15+0443SBLP V0201801N003112200019N0112651N1+03401+01701999999ADDGA1041+009001999GF104991999999999999999999MA1101081999999REMMET051METAR SBLP 271700Z 18006KT 9999 SCT030 34/17 Q1011;
0120832880999992012032718004-13267-043417FM-15+0443SBLP V0201801N003112200019N0112651N1+03501+01601999999ADDGA1041+009001999GF104991999999999999999999MA1101081999999REMMET051METAR SBLP 271800Z 18006KT 9999 SCT030 35/16 Q1011;
0120832880999992012032719004-13267-043417FM-15+0443SBLP V0201801N003112200019N0112651N1+03501+01601999999ADDGA1021+009001999GF102991999999999999999999MA1101021999999REMMET051METAR SBLP 271900Z 18006KT 9999 FEW030 35/16 Q1010;
0120832880999992012032720004-13267-043417FM-15+0443SBLP V0201801N003112200019N0112651N1+03401+01701999999ADDGA1021+009001999GF102991999999999999999999MA1101081999999REMMET051METAR SBLP 272000Z 18006KT 9999 FEW030 34/17 Q1011;
0072832880999992012032721004-13267-043417FM-15+0443SBLP V0201801N003119999999Y0099001N1+03201+01801999999ADDMA1101081999999REMMET045METAR SBLP 272100Z 18006KT CAVOK 32/18 Q1011;
0072832880999992012032810004-13267-043417FM-15+0443SBLP V0209999C000019999999Y0099001N1+02401+01901999999ADDMA1101491999999REMMET045METAR SBLP 281000Z 00000KT CAVOK 24/19 Q1015;
0072832880999992012032811004-13267-043417FM-15+0443SBLP V0209999C000019999999Y0099001N1+02701+01801999999ADDMA1101491999999REMMET045METAR SBLP 281100Z 00000KT CAVOK 27/18 Q1015;
0072832880999992012032812004-13267-043417FM-15+0443SBLP V0209999C000019999999Y0099001N1+02901+01801999999ADDMA1101591999999REMMET045METAR SBLP 281200Z 00000KT CAVOK 29/18 Q1016;
0072832880999992012032813004-13267-043417FM-15+0443SBLP V0209999C000019999999Y0099001N1+03101+01701999999ADDMA1101591999999REMMET045METAR SBLP 281300Z 00000KT CAVOK 31/17 Q1016;
0072832880999992012032814004-13267-043417FM-15+0443SBLP V0209999C000019999999Y0099001N1+03201+01601999999ADDMA1101491999999REMMET045METAR SBLP 281400Z 00000KT CAVOK 32/16 Q1015;
0120832880999992012032815004-13267-043417FM-15+0443SBLP V0201801N003112200019N0112651N1+03201+01601999999ADDGA1021+009001999GF102991999999999999999999MA1101291999999REMMET051METAR SBLP 281500Z 18006KT 9999 FEW030 32/16 Q1013;
0120832880999992012032816004-13267-043417FM-15+0443SBLP V0202401N001512200019N0112651N1+03401+01601999999ADDGA1021+009001999GF102991999999999999999999MA1101191999999REMMET051METAR SBLP 281600Z 24003KT 9999 FEW030 34/16 Q1012;
0120832880999992012032817004-13267-043417FM-15+0443SBLP V0201801N003112200019N0112651N1+03501+01501999999ADDGA1021+009001999GF102991999999999999999999MA1101081999999REMMET051METAR SBLP 281700Z 18006KT 9999 FEW030 35/15 Q1011;
0120832880999992012032819004-13267-043417FM-15+0443SBLP V0201801N003112200019N0112651N1+03601+01401999999ADDGA1021+009001999GF102991999999999999999999MA1101021999999REMMET051METAR SBLP 281900Z 18006KT 9999 FEW030 36/14 Q1010;
0120832880999992012032820004-13267-043417FM-15+0443SBLP V0201801N002612200019N0112651N1+03401+01601999999ADDGA1021+009001999GF102991999999999999999999MA1101021999999REMMET051METAR SBLP 282000Z 18005KT 9999 FEW030 34/16 Q1010;
0072832880999992012032821004-13267-043417FM-15+0443SBLP V0201601N002119999999Y0099001N1+03101+01701999999ADDMA1101081999999REMMET045METAR SBLP 282100Z 16004KT CAVOK 31/17 Q1011;
0072832880999992012032910004-13267-043417FM-15+0443SBLP V0209999C000019999999Y0099001N1+02301+01601999999ADDMA1101591999999REMMET045METAR SBLP 291000Z 00000KT CAVOK 23/16 Q1016;
0072832880999992012032911004-13267-043417FM-15+0443SBLP V0201201N001019999999Y0099001N1+02801+02001999999ADDMA1101591999999REMMET045METAR SBLP 291100Z 12002KT CAVOK 28/20 Q1016;
0072832880999992012032912004-13267-043417FM-15+0443SBLP V0200401N002119999999Y0099001N1+03001+01701999999ADDMA1101691999999REMMET045METAR SBLP 291200Z 04004KT CAVOK 30/17 Q1017;
0072832880999992012032913004-13267-043417FM-15+0443SBLP V0209999C000019999999Y0099001N1+03201+01701999999ADDMA1101691999999REMMET045METAR SBLP 291300Z 00000KT CAVOK 32/17 Q1017;
0120832880999992012032914004-13267-043417FM-15+0443SBLP V0202401N003112200019N0112651N1+03201+01701999999ADDGA1021+009001999GF102991999999999999999999MA1101591999999REMMET051METAR SBLP 291400Z 24006KT 9999 FEW030 32/17 Q1016;
0120832880999992012032915004-13267-043417FM-15+0443SBLP V0202401N002612200019N0112651N1+03401+01701999999ADDGA1021+009001999GF102991999999999999999999MA1101491999999REMMET051METAR SBLP 291500Z 24005KT 9999 FEW030 34/17 Q1015;
0120832880999992012032916004-13267-043417FM-15+0443SBLP V0202701N003112200019N0112651N1+03401+01701999999ADDGA1021+009001999GF102991999999999999999999MA1101391999999REMMET051METAR SBLP 291600Z 27006KT 9999 FEW030 34/17 Q1014;
0120832880999992012032917004-13267-043417FM-15+0443SBLP V0202701N003112200019N0112651N1+03501+01701999999ADDGA1041+009001999GF104991999999999999999999MA1101291999999REMMET051METAR SBLP 291700Z 27006KT 9999 SCT030 35/17 Q1013;
0120832880999992012032918004-13267-043417FM-15+0443SBLP V0202701N003112200019N0112651N1+03601+01701999999ADDGA1041+009001999GF104991999999999999999999MA1101191999999REMMET051METAR SBLP 291800Z 27006KT 9999 SCT030 36/17 Q1012;
0120832880999992012032919004-13267-043417FM-15+0443SBLP V0202701N003112200019N0112651N1+03601+01701999999ADDGA1021+009001999GF102991999999999999999999MA1101191999999REMMET051METAR SBLP 291900Z 27006KT 9999 FEW030 36/17 Q1012;
0120832880999992012032920004-13267-043417FM-15+0443SBLP V0201801N003112200019N0112651N1+03501+01701999999ADDGA1021+009001999GF102991999999999999999999MA1101191999999REMMET051METAR SBLP 292000Z 18006KT 9999 FEW030 35/17 Q1012;
0072832880999992012032921004-13267-043417FM-15+0443SBLP V0201801N003119999999Y0099001N1+03301+01801999999ADDMA1101191999999REMMET045METAR SBLP 292100Z 18006KT CAVOK 33/18 Q1012;
0072832880999992012033010004-13267-043417FM-15+0443SBLP V0209999C000019999999Y0099001N1+02401+01901999999ADDMA1101691999999REMMET045METAR SBLP 301000Z 00000KT CAVOK 24/19 Q1017;
0072832880999992012033011004-13267-043417FM-15+0443SBLP V0201801N002119999999Y0099001N1+02601+01901999999ADDMA1101801999999REMMET045METAR SBLP 301100Z 18004KT CAVOK 26/19 Q1018;
0072832880999992012033012004-13267-043417FM-15+0443SBLP V0201801N001519999999Y0099001N1+02901+01901999999ADDMA1101801999999REMMET045METAR SBLP 301200Z 18003KT CAVOK 29/19 Q1018;
0072832880999992012033013004-13267-043417FM-15+0443SBLP V0201201N002119999999Y0099001N1+03001+01801999999ADDMA1101801999999REMMET045METAR SBLP 301300Z 12004KT CAVOK 30/18 Q1018;
0072832880999992012033014004-13267-043417FM-15+0443SBLP V0201501N001519999999Y0099001N1+03201+01701999999ADDMA1101691999999REMMET045METAR SBLP 301400Z 15003KT CAVOK 32/17 Q1017;
0072832880999992012033015004-13267-043417FM-15+0443SBLP V0202101N004119999999Y0099001N1+03301+01801999999ADDMA1101591999999REMMET045METAR SBLP 301500Z 21008KT CAVOK 33/18 Q1016;
0072832880999992012033016004-13267-043417FM-15+0443SBLP V0202101N002619999999Y0099001N1+03401+01701999999ADDMA1101491999999REMMET045METAR SBLP 301600Z 21005KT CAVOK 34/17 Q1015;
0072832880999992012033017004-13267-043417FM-15+0443SBLP V0202401N002619999999Y0099001N1+03601+01601999999ADDMA1101291999999REMMET045METAR SBLP 301700Z 24005KT CAVOK 36/16 Q1013;
0120832880999992012033018004-13267-043417FM-15+0443SBLP V0201501N001512200019N0112651N1+03701+01701999999ADDGA1021+009001999GF102991999999999999999999MA1101291999999REMMET051METAR SBLP 301800Z 15003KT 9999 FEW030 37/17 Q1013;
0120832880999992012033019004-13267-043417FM-15+0443SBLP V0202101N005112200019N0112651N1+03501+01701999999ADDGA1021+009001999GF102991999999999999999999MA1101291999999REMMET051METAR SBLP 301900Z 21010KT 9999 FEW030 35/17 Q1013;
0072832880999992012033020004-13267-043417FM-15+0443SBLP V0202101N003119999999Y0099001N1+03301+01801999999ADDMA1101291999999REMMET045METAR SBLP 302000Z 21006KT CAVOK 33/18 Q1013;
0072832880999992012033021004-13267-043417FM-15+0443SBLP V0201901N003119999999Y0099001N1+03201+01701999999ADDMA1101291999999REMMET045METAR SBLP 302100Z 19006KT CAVOK 32/17 Q1013;
0072832880999992012040210004-13267-043417FM-15+0443SBLP V0209999C000019999999Y0099001N1+02501+01901999999ADDMA1101491999999REMMET045METAR SBLP 021000Z 00000KT CAVOK 25/19 Q1015;
0072832880999992012040211004-13267-043417FM-15+0443SBLP V0209999C000019999999Y0099001N1+02801+01901999999ADDMA1101591999999REMMET045METAR SBLP 021100Z 00000KT CAVOK 28/19 Q1016;
0072832880999992012040212004-13267-043417FM-15+0443SBLP V0209999C000019999999Y0099001N1+03001+01801999999ADDMA1101591999999REMMET045METAR SBLP 021200Z 00000KT CAVOK 30/18 Q1016;
0120832880999992012040214004-13267-043417FM-15+0443SBLP V0201801N003112200019N0112651N1+03401+01701999999ADDGA1021+009001999GF102991999999999999999999MA1101491999999REMMET051METAR SBLP 021400Z 18006KT 9999 FEW030 34/17 Q1015;
0120832880999992012040215004-13267-043417FM-15+0443SBLP V0201801N003112200019N0112651N1+03401+01701999999ADDGA1021+009001999GF102991999999999999999999MA1101391999999REMMET051METAR SBLP 021500Z 18006KT 9999 FEW030 34/17 Q1014;
0120832880999992012040216004-13267-043417FM-15+0443SBLP V0202501N003112200019N0112651N1+03401+01801999999ADDGA1021+009001999GF102991999999999999999999MA1101291999999REMMET051METAR SBLP 021600Z 25006KT 9999 FEW030 34/18 Q1013;
0120832880999992012040217004-13267-043417FM-15+0443SBLP V0202401N004112200019N0112651N1+03601+01801999999ADDGA1021+009001999GF102991999999999999999999MA1101191999999REMMET051METAR SBLP 021700Z 24008KT 9999 FEW030 36/18 Q1012;
0120832880999992012040218004-13267-043417FM-15+0443SBLP V0202001N005112200019N0112651N1+03501+01801999999ADDGA1041+009001999GF104991999999999999999999MA1101081999999REMMET051METAR SBLP 021800Z 20010KT 9999 SCT030 35/18 Q1011;
0120832880999992012040219004-13267-043417FM-15+0443SBLP V0201901N003112200019N0112651N1+03501+01801999999ADDGA1021+009001999GF102991999999999999999999MA1101081999999REMMET051METAR SBLP 021900Z 19006KT 9999 FEW030 35/18 Q1011;
0120832880999992012040220004-13267-043417FM-15+0443SBLP V0201801N002112200019N0112651N1+03401+01901999999ADDGA1021+009001999GF102991999999999999999999MA1101081999999REMMET051METAR SBLP 022000Z 18004KT 9999 FEW030 34/19 Q1011;
0072832880999992012040221004-13267-043417FM-15+0443SBLP V0201901N003119999999Y0099001N1+03201+01801999999ADDMA1101081999999REMMET045METAR SBLP 022100Z 19006KT CAVOK 32/18 Q1011;
0072832880999992012040310004-13267-043417FM-15+0443SBLP V0209999C000019999999Y0099001N1+02401+01901999999ADDMA1101491999999REMMET045METAR SBLP 031000Z 00000KT CAVOK 24/19 Q1015;
0072832880999992012040311004-13267-043417FM-15+0443SBLP V0209999C000019999999Y0099001N1+02701+01801999999ADDMA1101591999999REMMET045METAR SBLP 031100Z 00000KT CAVOK 27/18 Q1016;
0072832880999992012040312004-13267-043417FM-15+0443SBLP V0209999C000019999999Y0099001N1+02901+01801999999ADDMA1101691999999REMMET045METAR SBLP 031200Z 00000KT CAVOK 29/18 Q1017;
0072832880999992012040313004-13267-043417FM-15+0443SBLP V0209999C000019999999Y0099001N1+03101+01701999999ADDMA1101591999999REMMET045METAR SBLP 031300Z 00000KT CAVOK 31/17 Q1016;
0120832880999992012040314004-13267-043417FM-15+0443SBLP V0202701N003112200019N0112651N1+03201+01601999999ADDGA1021+009001999GF102991999999999999999999MA1101491999999REMMET051METAR SBLP 031400Z 27006KT 9999 FEW030 32/16 Q1015;
0120832880999992012040315004-13267-043417FM-15+0443SBLP V0202701N003112200019N0112651N1+03301+01701999999ADDGA1021+009001999GF102991999999999999999999MA1101391999999REMMET051METAR SBLP 031500Z 27006KT 9999 FEW030 33/17 Q1014;
0120832880999992012040316004-13267-043417FM-15+0443SBLP V0202101N001512200019N0112651N1+03401+01701999999ADDGA1021+009001999GF102991999999999999999999MA1101291999999REMMET051METAR SBLP 031600Z 21003KT 9999 FEW030 34/17 Q1013;
0120832880999992012040317004-13267-043417FM-15+0443SBLP V0202701N003112200019N0112651N1+03501+01601999999ADDGA1021+009001999GF102991999999999999999999MA1101191999999REMMET051METAR SBLP 031700Z 27006KT 9999 FEW030 35/16 Q1012;
0120832880999992012040318004-13267-043417FM-15+0443SBLP V0202501N001512200019N0112651N1+03601+01601999999ADDGA1021+009001999GF102991999999999999999999MA1101081999999REMMET051METAR SBLP 031800Z 25003KT 9999 FEW030 36/16 Q1011;
0120832880999992012040319004-13267-043417FM-15+0443SBLP V0202101N003112200019N0112651N1+03601+01701999999ADDGA1021+009001999GF102991999999999999999999MA1101021999999REMMET051METAR SBLP 031900Z 21006KT 9999 FEW030 36/17 Q1010;
0120832880999992012040320004-13267-043417FM-15+0443SBLP V0202101N002612200019N0112651N1+03401+01701999999ADDGA1021+009001999GF102991999999999999999999MA1101021999999REMMET051METAR SBLP 032000Z 21005KT 9999 FEW030 34/17 Q1010;
0120832880999992012040321004-13267-043417FM-15+0443SBLP V0201801N003112200019N0112651N1+03201+01701999999ADDGA1021+009001999GF102991999999999999999999MA1101021999999REMMET051METAR SBLP 032100Z 18006KT 9999 FEW030 32/17 Q1010;
0072832880999992012040410004-13267-043417FM-15+0443SBLP V0209999C000019999999Y0099001N1+02401+01901999999ADDMA1101491999999REMMET045METAR SBLP 041000Z 00000KT CAVOK 24/19 Q1015;
0072832880999992012040411004-13267-043417FM-15+0443SBLP V0209999C000019999999Y0099001N1+02701+01901999999ADDMA1101591999999REMMET045METAR SBLP 041100Z 00000KT CAVOK 27/19 Q1016;
0072832880999992012040412004-13267-043417FM-15+0443SBLP V0209999C000019999999Y0099001N1+02901+01801999999ADDMA1101591999999REMMET045METAR SBLP 041200Z 00000KT CAVOK 29/18 Q1016;
0072832880999992012040413004-13267-043417FM-15+0443SBLP V0209999C000019999999Y0099001N1+03101+01701999999ADDMA1101591999999REMMET045METAR SBLP 041300Z 00000KT CAVOK 31/17 Q1016;
0072832880999992012040414004-13267-043417FM-15+0443SBLP V0209999C000019999999Y0099001N1+03301+01601999999ADDMA1101491999999REMMET045METAR SBLP 041400Z 00000KT CAVOK 33/16 Q1015;
0072832880999992012040415004-13267-043417FM-15+0443SBLP V0209999C000019999999Y0099001N1+03401+01701999999ADDMA1101391999999REMMET045METAR SBLP 041500Z 00000KT CAVOK 34/17 Q1014;
0120832880999992012040416004-13267-043417FM-15+0443SBLP V0202101N003112200019N0112651N1+03501+01601999999ADDGA1021+009001999GF102991999999999999999999MA1101291999999REMMET051METAR SBLP 041600Z 21006KT 9999 FEW030 35/16 Q1013;
0120832880999992012040417004-13267-043417FM-15+0443SBLP V0200901N003112200019N0112651N1+03601+01501999999ADDGA1021+009001999GF102991999999999999999999MA1101081999999REMMET051METAR SBLP 041700Z 09006KT 9999 FEW030 36/15 Q1011;
0120832880999992012040418004-13267-043417FM-15+0443SBLP V0201201N003112200019N0112651N1+03801+01401999999ADDGA1021+009001999GF102991999999999999999999MA1101021999999REMMET051METAR SBLP 041800Z 12006KT 9999 FEW030 38/14 Q1010;
0120832880999992012040419004-13267-043417FM-15+0443SBLP V0209999C000012200019N0112651N1+03901+01501999999ADDGA1021+009001999GF102991999999999999999999MA1101021999999REMMET051METAR SBLP 041900Z 00000KT 9999 FEW030 39/15 Q1010;
0120832880999992012040420004-13267-043417FM-15+0443SBLP V0209999C000012200019N0112651N1+03601+01601999999ADDGA1021+009001999GF102991999999999999999999MA1101021999999REMMET051METAR SBLP 042000Z 00000KT 9999 FEW030 36/16 Q1010;
0072832880999992012040421004-13267-043417FM-15+0443SBLP V0209999C000019999999Y0099001N1+03401+01801999999ADDMA1101021999999REMMET045METAR SBLP 042100Z 00000KT CAVOK 34/18 Q1010;
0072832880999992012040510004-13267-043417FM-15+0443SBLP V0209999C000019999999Y0099001N1+02301+02201999999ADDMA1101391999999REMMET045METAR SBLP 051000Z 00000KT CAVOK 23/22 Q1014;
0072832880999992012040511004-13267-043417FM-15+0443SBLP V0209999C000019999999Y0099001N1+02601+02001999999ADDMA1101491999999REMMET045METAR SBLP 051100Z 00000KT CAVOK 26/20 Q1015;
0072832880999992012040512004-13267-043417FM-15+0443SBLP V0209999C000019999999Y0099001N1+03001+02001999999ADDMA1101491999999REMMET045METAR SBLP 051200Z 00000KT CAVOK 30/20 Q1015;
0072832880999992012040513004-13267-043417FM-15+0443SBLP V0209999C000019999999Y0099001N1+03201+02001999999ADDMA1101491999999REMMET045METAR SBLP 051300Z 00000KT CAVOK 32/20 Q1015;
0072832880999992012040514004-13267-043417FM-15+0443SBLP V0209999C000019999999Y0099001N1+03301+01901999999ADDMA1101391999999REMMET045METAR SBLP 051400Z 00000KT CAVOK 33/19 Q1014;
0120832880999992012040515004-13267-043417FM-15+0443SBLP V0209999C000012200019N0112651N1+03401+01901999999ADDGA1021+009001999GF102991999999999999999999MA1101291999999REMMET051METAR SBLP 051500Z 00000KT 9999 FEW030 34/19 Q1013;
0072832880999992012040516004-13267-043417FM-15+0443SBLP V0201801N003119999999Y0099001N1+03501+01801999999ADDMA1101191999999REMMET045METAR SBLP 051600Z 18006KT CAVOK 35/18 Q1012;
0072832880999992012040517004-13267-043417FM-15+0443SBLP V0201801N003119999999Y0099001N1+03601+01701999999ADDMA1101021999999REMMET045METAR SBLP 051700Z 18006KT CAVOK 36/17 Q1010;
0072832880999992012040518004-13267-043417FM-15+0443SBLP V0201801N003119999999Y0099001N1+03701+01601999999ADDMA1101021999999REMMET045METAR SBLP 051800Z 18006KT CAVOK 37/16 Q1010;
0072832880999992012040519004-13267-043417FM-15+0443SBLP V0201801N003119999999Y0099001N1+03601+01601999999ADDMA1100911999999REMMET045METAR SBLP 051900Z 18006KT CAVOK 36/16 Q1009;
0072832880999992012040520004-13267-043417FM-15+0443SBLP V0201801N003119999999Y0099001N1+03501+01601999999ADDMA1101021999999REMMET045METAR SBLP 052000Z 18006KT CAVOK 35/16 Q1010;
0072832880999992012040521004-13267-043417FM-15+0443SBLP V0201801N003119999999Y0099001N1+03301+01801999999ADDMA1101021999999REMMET045METAR SBLP 052100Z 18006KT CAVOK 33/18 Q1010;
0072832880999992012040610004-13267-043417FM-15+0443SBLP V0209999C000019999999Y0099001N1+02301+01701999999ADDMA1101391999999REMMET045METAR SBLP 061000Z 00000KT CAVOK 23/17 Q1014;
0072832880999992012040611004-13267-043417FM-15+0443SBLP V0209999C000019999999Y0099001N1+02501+01701999999ADDMA1101491999999REMMET045METAR SBLP 061100Z 00000KT CAVOK 25/17 Q1015;
0072832880999992012040612004-13267-043417FM-15+0443SBLP V0200601N002619999999Y0099001N1+03001+01601999999ADDMA1101491999999REMMET045METAR SBLP 061200Z 06005KT CAVOK 30/16 Q1015;
0072832880999992012040613004-13267-043417FM-15+0443SBLP V0209999C000019999999Y0099001N1+03101+01801999999ADDMA1101491999999REMMET045METAR SBLP 061300Z 00000KT CAVOK 31/18 Q1015;
0072832880999992012040614004-13267-043417FM-15+0443SBLP V0202101N002119999999Y0099001N1+03301+01701999999ADDMA1101391999999REMMET045METAR SBLP 061400Z 21004KT CAVOK 33/17 Q1014;
0120832880999992012040615004-13267-043417FM-15+0443SBLP V0202101N003112200019N0112651N1+03401+01701999999ADDGA1021+009001999GF102991999999999999999999MA1101291999999REMMET051METAR SBLP 061500Z 21006KT 9999 FEW030 34/17 Q1013;
0120832880999992012040616004-13267-043417FM-15+0443SBLP V0201801N003112200019N0112651N1+03501+01601999999ADDGA1021+009001999GF102991999999999999999999MA1101081999999REMMET051METAR SBLP 061600Z 18006KT 9999 FEW030 35/16 Q1011;
0120832880999992012040617004-13267-043417FM-15+0443SBLP V0201801N003112200019N0112651N1+03601+01601999999ADDGA1021+009001999GF102991999999999999999999MA1101021999999REMMET051METAR SBLP 061700Z 18006KT 9999 FEW030 36/16 Q1010;
0120832880999992012040618004-13267-043417FM-15+0443SBLP V0201801N003112200019N0112651N1+03801+01401999999ADDGA1021+009001999GF102991999999999999999999MA1100911999999REMMET051METAR SBLP 061800Z 18006KT 9999 FEW030 38/14 Q1009;
0120832880999992012040619004-13267-043417FM-15+0443SBLP V0201801N003112200019N0112651N1+03801+01501999999ADDGA1021+009001999GF102991999999999999999999MA1100811999999REMMET051METAR SBLP 061900Z 18006KT 9999 FEW030 38/15 Q1008;
0072832880999992012040620004-13267-043417FM-15+0443SBLP V0209999C000019999999Y0099001N1+03501+01601999999ADDMA1100811999999REMMET045METAR SBLP 062000Z 00000KT CAVOK 35/16 Q1008;
0072832880999992012040621004-13267-043417FM-15+0443SBLP V0209999C000019999999Y0099001N1+03301+01801999999ADDMA1100811999999REMMET045METAR SBLP 062100Z 00000KT CAVOK 33/18 Q1008;
0072832880999992012040910004-13267-043417FM-15+0443SBLP V0209999C000019999999Y0099001N1+02401+01901999999ADDMA1101391999999REMMET045METAR SBLP 091000Z 00000KT CAVOK 24/19 Q1014;
0072832880999992012040911004-13267-043417FM-15+0443SBLP V0209999C000019999999Y0099001N1+02701+01801999999ADDMA1101391999999REMMET045METAR SBLP 091100Z 00000KT CAVOK 27/18 Q1014;
0072832880999992012040912004-13267-043417FM-15+0443SBLP V0209999C000019999999Y0099001N1+02901+01801999999ADDMA1101391999999REMMET045METAR SBLP 091200Z 00000KT CAVOK 29/18 Q1014;
0072832880999992012040913004-13267-043417FM-15+0443SBLP V0209999C000019999999Y0099001N1+03201+01601999999ADDMA1101391999999REMMET045METAR SBLP 091300Z 00000KT CAVOK 32/16 Q1014;
0072832880999992012040914004-13267-043417FM-15+0443SBLP V0209999C000019999999Y0099001N1+03301+01601999999ADDMA1101291999999REMMET045METAR SBLP 091400Z 00000KT CAVOK 33/16 Q1013;
0120832880999992012040915004-13267-043417FM-15+0443SBLP V0201801N003112200019N0112651N1+03401+01501999999ADDGA1021+009001999GF102991999999999999999999MA1101191999999REMMET051METAR SBLP 091500Z 18006KT 9999 FEW030 34/15 Q1012;
0120832880999992012040916004-13267-043417FM-15+0443SBLP V0201801N003112200019N0112651N1+03401+01801999999ADDGA1021+009001999GF102991999999999999999999MA1101081999999REMMET051METAR SBLP 091600Z 18006KT 9999 FEW030 34/18 Q1011;
0120832880999992012040917004-13267-043417FM-15+0443SBLP V0201801N003112200019N0112651N1+03601+01701999999ADDGA1041+009001999GF104991999999999999999999MA1101021999999REMMET051METAR SBLP 091700Z 18006KT 9999 SCT030 36/17 Q1010;
0120832880999992012040918004-13267-043417FM-15+0443SBLP V0202101N003112200019N0112651N1+03701+01601999999ADDGA1041+009001999GF104991999999999999999999MA1100911999999REMMET051METAR SBLP 091800Z 21006KT 9999 SCT030 37/16 Q1009;
0120832880999992012040919004-13267-043417FM-15+0443SBLP V0202101N003112200019N0112651N1+03701+01601999999ADDGA1021+009001999GF102991999999999999999999MA1100911999999REMMET051METAR SBLP 091900Z 21006KT 9999 FEW030 37/16 Q1009;
0120832880999992012040920004-13267-043417FM-15+0443SBLP V0201501N003112200019N0112651N1+03501+01601999999ADDGA1021+009001999GF102991999999999999999999MA1100911999999REMMET051METAR SBLP 092000Z 15006KT 9999 FEW030 35/16 Q1009;
0072832880999992012040921004-13267-043417FM-15+0443SBLP V0209999C000019999999Y0099001N1+03401+01801999999ADDMA1100911999999REMMET045METAR SBLP 092100Z 00000KT CAVOK 34/18 Q1009;
0072832880999992012041010004-13267-043417FM-15+0443SBLP V0209999C000019999999Y0099001N1+02401+01901999999ADDMA1101491999999REMMET045METAR SBLP 101000Z 00000KT CAVOK 24/19 Q1015;
0072832880999992012041011004-13267-043417FM-15+0443SBLP V0209999C000019999999Y0099001N1+02701+02001999999ADDMA1101591999999REMMET045METAR SBLP 101100Z 00000KT CAVOK 27/20 Q1016;
0072832880999992012041012004-13267-043417FM-15+0443SBLP V0200901N003119999999Y0099001N1+02901+01901999999ADDMA1101591999999REMMET045METAR SBLP 101200Z 09006KT CAVOK 29/19 Q1016;
0072832880999992012041013004-13267-043417FM-15+0443SBLP V0200901N003119999999Y0099001N1+03101+01901999999ADDMA1101591999999REMMET045METAR SBLP 101300Z 09006KT CAVOK 31/19 Q1016;
0072832880999992012041014004-13267-043417FM-15+0443SBLP V0209999C000019999999Y0099001N1+03301+01901999999ADDMA1101491999999REMMET045METAR SBLP 101400Z 00000KT CAVOK 33/19 Q1015;
0120832880999992012041015004-13267-043417FM-15+0443SBLP V0209999C000012200019N0112651N1+03401+01801999999ADDGA1021+009001999GF102991999999999999999999MA1101491999999REMMET051METAR SBLP 101500Z 00000KT 9999 FEW030 34/18 Q1015;
0120832880999992012041016004-13267-043417FM-15+0443SBLP V0202701N003112200019N0112651N1+03501+01801999999ADDGA1041+009001999GF104991999999999999999999MA1101291999999REMMET051METAR SBLP 101600Z 27006KT 9999 SCT030 35/18 Q1013;
0120832880999992012041017004-13267-043417FM-15+0443SBLP V0202701N003112200019N0112651N1+03501+01801999999ADDGA1041+009001999GF104991999999999999999999MA1101191999999REMMET051METAR SBLP 101700Z 27006KT 9999 SCT030 35/18 Q1012;
0120832880999992012041018004-13267-043417FM-15+0443SBLP V0202701N003112200019N0112651N1+03701+01701999999ADDGA1041+009001999GF104991999999999999999999MA1101081999999REMMET051METAR SBLP 101800Z 27006KT 9999 SCT030 37/17 Q1011;
0120832880999992012041019004-13267-043417FM-15+0443SBLP V0201801N003112200019N0112651N1+03701+01701999999ADDGA1041+009001999GF104991999999999999999999MA1101081999999REMMET051METAR SBLP 101900Z 18006KT 9999 SCT030 37/17 Q1011;
0120832880999992012041020004-13267-043417FM-15+0443SBLP V0201801N003112200019N0112651N1+03501+01801999999ADDGA1021+009001999GF102991999999999999999999MA1101081999999REMMET051METAR SBLP 102000Z 18006KT 9999 FEW030 35/18 Q1011;
0120832880999992012041021004-13267-043417FM-15+0443SBLP V0201801N003112200019N0112651N1+03201+01901999999ADDGA1021+009001999GF102991999999999999999999MA1101081999999REMMET051METAR SBLP 102100Z 18006KT 9999 FEW030 32/19 Q1011;
0072832880999992012041110004-13267-043417FM-15+0443SBLP V0209999C000019999999Y0099001N1+02401+01901999999ADDMA1101691999999REMMET045METAR SBLP 111000Z 00000KT CAVOK 24/19 Q1017;
0072832880999992012041111004-13267-043417FM-15+0443SBLP V0209999C000019999999Y0099001N1+02701+01801999999ADDMA1101801999999REMMET045METAR SBLP 111100Z 00000KT CAVOK 27/18 Q1018;
0072832880999992012041112004-13267-043417FM-15+0443SBLP V0209999C000019999999Y0099001N1+02901+01801999999ADDMA1101801999999REMMET045METAR SBLP 111200Z 00000KT CAVOK 29/18 Q1018;
0072832880999992012041113004-13267-043417FM-15+0443SBLP V0201801N003119999999Y0099001N1+03101+01601999999ADDMA1101801999999REMMET045METAR SBLP 111300Z 18006KT CAVOK 31/16 Q1018;
0072832880999992012041114004-13267-043417FM-15+0443SBLP V0201801N003119999999Y0099001N1+03301+01501999999ADDMA1101691999999REMMET045METAR SBLP 111400Z 18006KT CAVOK 33/15 Q1017;
0072832880999992012041115004-13267-043417FM-15+0443SBLP V0201801N003119999999Y0099001N1+03301+01601999999ADDMA1101491999999REMMET045METAR SBLP 111500Z 18006KT CAVOK 33/16 Q1015;
0120832880999992012041116004-13267-043417FM-15+0443SBLP V0202401N003112200019N0112651N1+03601+01701999999ADDGA1021+009001999GF102991999999999999999999MA1101391999999REMMET051METAR SBLP 111600Z 24006KT 9999 FEW030 36/17 Q1014;
0120832880999992012041117004-13267-043417FM-15+0443SBLP V0201501N004112200019N0112651N1+03601+01501999999ADDGA1021+009001999GF102991999999999999999999MA1101391999999REMMET051METAR SBLP 111700Z 15008KT 9999 FEW030 36/15 Q1014;
0120832880999992012041118004-13267-043417FM-15+0443SBLP V0201801N004112200019N0112651N1+03601+01601999999ADDGA1021+009001999GF102991999999999999999999MA1101291999999REMMET051METAR SBLP 111800Z 18008KT 9999 FEW030 36/16 Q1013;
0120832880999992012041119004-13267-043417FM-15+0443SBLP V0201801N004112200019N0112651N1+03601+01501999999ADDGA1021+009001999GF102991999999999999999999MA1101291999999REMMET051METAR SBLP 111900Z 18008KT 9999 FEW030 36/15 Q1013;
0120832880999992012041120004-13267-043417FM-15+0443SBLP V0201501N005112200019N0112651N1+03501+01501999999ADDGA1021+009001999GF102991999999999999999999MA1101291999999REMMET051METAR SBLP 112000Z 15010KT 9999 FEW030 35/15 Q1013;
0072832880999992012041121004-13267-043417FM-15+0443SBLP V0201501N004119999999Y0099001N1+03301+01401999999ADDMA1101291999999REMMET045METAR SBLP 112100Z 15008KT CAVOK 33/14 Q1013;
0072832880999992012041210004-13267-043417FM-15+0443SBLP V0209999C000019999999Y0099001N1+02301+02101999999ADDMA1101591999999REMMET045METAR SBLP 121000Z 00000KT CAVOK 23/21 Q1016;
0072832880999992012041211004-13267-043417FM-15+0443SBLP V0209999C000019999999Y0099001N1+02601+02001999999ADDMA1101691999999REMMET045METAR SBLP 121100Z 00000KT CAVOK 26/20 Q1017;
0072832880999992012041212004-13267-043417FM-15+0443SBLP V0209999C000019999999Y0099001N1+02901+02001999999ADDMA1101691999999REMMET045METAR SBLP 121200Z 00000KT CAVOK 29/20 Q1017;
0072832880999992012041213004-13267-043417FM-15+0443SBLP V0209999C000019999999Y0099001N1+03101+01801999999ADDMA1101691999999REMMET045METAR SBLP 121300Z 00000KT CAVOK 31/18 Q1017;
0120832880999992012041214004-13267-043417FM-15+0443SBLP V0209999C000012200019N0112651N1+03301+01701999999ADDGA1021+009001999GF102991999999999999999999MA1101591999999REMMET051METAR SBLP 121400Z 00000KT 9999 FEW030 33/17 Q1016;
0120832880999992012041215004-13267-043417FM-15+0443SBLP V0209999C000012200019N0112651N1+03201+01801999999ADDGA1021+009001999GF102991999999999999999999MA1101391999999REMMET051METAR SBLP 121500Z 00000KT 9999 FEW030 32/18 Q1014;
0120832880999992012041216004-13267-043417FM-15+0443SBLP V0201801N003112200019N0112651N1+03401+01701999999ADDGA1021+009001999GF102991999999999999999999MA1101291999999REMMET051METAR SBLP 121600Z 18006KT 9999 FEW030 34/17 Q1013;
0120832880999992012041217004-13267-043417FM-15+0443SBLP V0201801N003112200019N0112651N1+03501+01601999999ADDGA1041+009001999GF104991999999999999999999MA1101191999999REMMET051METAR SBLP 121700Z 18006KT 9999 SCT030 35/16 Q1012;
0120832880999992012041218004-13267-043417FM-15+0443SBLP V0201801N003112200019N0112651N1+03601+01601999999ADDGA1041+009001999GF104991999999999999999999MA1101081999999REMMET051METAR SBLP 121800Z 18006KT 9999 SCT030 36/16 Q1011;
0120832880999992012041219004-13267-043417FM-15+0443SBLP V0201801N003112200019N0112651N1+03601+01601999999ADDGA1021+009001999GF102991999999999999999999MA1101081999999REMMET051METAR SBLP 121900Z 18006KT 9999 FEW030 36/16 Q1011;
0120832880999992012041220004-13267-043417FM-15+0443SBLP V0201801N003112200019N0112651N1+03501+01601999999ADDGA1021+009001999GF102991999999999999999999MA1101081999999REMMET051METAR SBLP 122000Z 18006KT 9999 FEW030 35/16 Q1011;
0072832880999992012041221004-13267-043417FM-15+0443SBLP V0201801N003119999999Y0099001N1+03301+01701999999ADDMA1101081999999REMMET045METAR SBLP 122100Z 18006KT CAVOK 33/17 Q1011;
0072832880999992012041310004-13267-043417FM-15+0443SBLP V0209999C000019999999Y0099001N1+02401+01701999999ADDMA1101491999999REMMET045METAR SBLP 131000Z 00000KT CAVOK 24/17 Q1015;
0072832880999992012041311004-13267-043417FM-15+0443SBLP V0209999C000019999999Y0099001N1+02701+01701999999ADDMA1101591999999REMMET045METAR SBLP 131100Z 00000KT CAVOK 27/17 Q1016;
0072832880999992012041312004-13267-043417FM-15+0443SBLP V0209999C000019999999Y0099001N1+02901+01701999999ADDMA1101591999999REMMET045METAR SBLP 131200Z 00000KT CAVOK 29/17 Q1016;
0072832880999992012041313004-13267-043417FM-15+0443SBLP V0209999C000019999999Y0099001N1+03001+01601999999ADDMA1101591999999REMMET045METAR SBLP 131300Z 00000KT CAVOK 30/16 Q1016;
0072832880999992012041314004-13267-043417FM-15+0443SBLP V0209999C000019999999Y0099001N1+03201+01601999999ADDMA1101491999999REMMET045METAR SBLP 131400Z 00000KT CAVOK 32/16 Q1015;
0120832880999992012041315004-13267-043417FM-15+0443SBLP V0201801N003112200019N0112651N1+03201+01601999999ADDGA1021+009001999GF102991999999999999999999MA1101391999999REMMET051METAR SBLP 131500Z 18006KT 9999 FEW030 32/16 Q1014;
0120832880999992012041316004-13267-043417FM-15+0443SBLP V0201801N003112200019N0112651N1+03401+01601999999ADDGA1021+009001999GF102991999999999999999999MA1101191999999REMMET051METAR SBLP 131600Z 18006KT 9999 FEW030 34/16 Q1012;
0120832880999992012041317004-13267-043417FM-15+0443SBLP V0201801N003112200019N0112651N1+03501+01601999999ADDGA1021+009001999GF102991999999999999999999MA1101081999999REMMET051METAR SBLP 131700Z 18006KT 9999 FEW030 35/16 Q1011;
0120832880999992012041318004-13267-043417FM-15+0443SBLP V0202101N004112200019N0112651N1+03501+01601999999ADDGA1021+009001999GF102991999999999999999999MA1101081999999REMMET051METAR SBLP 131800Z 21008KT 9999 FEW030 35/16 Q1011;
0120832880999992012041319004-13267-043417FM-15+0443SBLP V0201801N004112200019N0112651N1+03501+01501999999ADDGA1021+009001999GF102991999999999999999999MA1101021999999REMMET051METAR SBLP 131900Z 18008KT 9999 FEW030 35/15 Q1010;
0120832880999992012041320004-13267-043417FM-15+0443SBLP V0201801N003112200019N0112651N1+03501+01601999999ADDGA1021+009001999GF102991999999999999999999MA1101081999999REMMET051METAR SBLP 132000Z 18006KT 9999 FEW030 35/16 Q1011;
0120832880999992012041321004-13267-043417FM-15+0443SBLP V0201801N002112200019N0112651N1+03201+01701999999ADDGA1021+009001999GF102991999999999999999999MA1101081999999REMMET051METAR SBLP 132100Z 18004KT 9999 FEW030 32/17 Q1011;
0072832880999992012041610004-13267-043417FM-15+0443SBLP V0209999C000019999999Y0099001N1+02601+01801999999ADDMA1101391999999REMMET045METAR SBLP 161000Z 00000KT CAVOK 26/18 Q1014;
0072832880999992012041611004-13267-043417FM-15+0443SBLP V0209999C000019999999Y0099001N1+02901+01801999999ADDMA1101491999999REMMET045METAR SBLP 161100Z 00000KT CAVOK 29/18 Q1015;
0072832880999992012041613004-13267-043417FM-15+0443SBLP V0203601N003119999999Y0099001N1+03301+01701999999ADDMA1101491999999REMMET045METAR SBLP 161300Z 36006KT CAVOK 33/17 Q1015;
0120832880999992012041614004-13267-043417FM-15+0443SBLP V0203601N003112200019N0112651N1+03401+01701999999ADDGA1021+009001999GF102991999999999999999999MA1101391999999REMMET051METAR SBLP 161400Z 36006KT 9999 FEW030 34/17 Q1014;
0120832880999992012041615004-13267-043417FM-15+0443SBLP V0203601N003112200019N0112651N1+03401+01701999999ADDGA1021+009001999GF102991999999999999999999MA1101291999999REMMET051METAR SBLP 161500Z 36006KT 9999 FEW030 34/17 Q1013;
0120832880999992012041616004-13267-043417FM-15+0443SBLP V0203201N003112200019N0112651N1+03601+01801999999ADDGA1041+009001999GF104991999999999999999999MA1101191999999REMMET051METAR SBLP 161600Z 32006KT 9999 SCT030 36/18 Q1012;
0120832880999992012041617004-13267-043417FM-15+0443SBLP V0202101N002112200019N0112651N1+03701+01501999999ADDGA1041+009001999GF104991999999999999999999MA1101081999999REMMET051METAR SBLP 161700Z 21004KT 9999 SCT030 37/15 Q1011;
0120832880999992012041618004-13267-043417FM-15+0443SBLP V0201801N003112200019N0112651N1+03801+01501999999ADDGA1021+009001999GF102991999999999999999999MA1101021999999REMMET051METAR SBLP 161800Z 18006KT 9999 FEW030 38/15 Q1010;
0120832880999992012041619004-13267-043417FM-15+0443SBLP V0201801N002612200019N0112651N1+03801+01601999999ADDGA1021+009001999GF102991999999999999999999MA1100911999999REMMET051METAR SBLP 161900Z 18005KT 9999 FEW030 38/16 Q1009;
0146832880999992012041620004-13267-043417FM-15+0443SBLP V0201901N002612200019N0112651N1+03701+01801999999ADDGA1021+009001999GA2021+012001021GF102991999999999999999999MA1101021999999REMMET061METAR SBLP 162000Z 19005KT 9999 FEW030 FEW040TCU 37/18 Q1010;
0120832880999992012041621004-13267-043417FM-15+0443SBLP V0201201N005112200019N0112651N1+03401+02001999999ADDGA1041+008101999GF104991999999999999999999MA1101021999999REMMET051METAR SBLP 162100Z 12010KT 9999 SCT027 34/20 Q1010;
0143832880999992012041710004-13267-043417FM-15+0443SBLP V0209999C000012200019N0112651N1+02501+02001999999ADDGA1021+009001999GA2041+030001999GF104991999999999999999999MA1101491999999REMMET058METAR SBLP 171000Z 00000KT 9999 FEW030 SCT100 25/20 Q1015;
0143832880999992012041711004-13267-043417FM-15+0443SBLP V0209999C000012200019N0112651N1+02701+02001999999ADDGA1021+006001999GA2041+030001999GF104991999999999999999999MA1101591999999REMMET058METAR SBLP 171100Z 00000KT 9999 FEW020 SCT100 27/20 Q1016;
0143832880999992012041712004-13267-043417FM-15+0443SBLP V0209999C000012200019N0112651N1+02901+01901999999ADDGA1021+009001999GA2041+030001999GF104991999999999999999999MA1101691999999REMMET058METAR SBLP 171200Z 00000KT 9999 FEW030 SCT100 29/19 Q1017;
0120832880999992012041713004-13267-043417FM-15+0443SBLP V0203601N003112200019N0112651N1+03201+01801999999ADDGA1021+009001999GF102991999999999999999999MA1101691999999REMMET051METAR SBLP 171300Z 36006KT 9999 FEW030 32/18 Q1017;
0120832880999992012041714004-13267-043417FM-15+0443SBLP V0203601N003112200019N0112651N1+03301+01801999999ADDGA1041+009001999GF104991999999999999999999MA1101591999999REMMET051METAR SBLP 171400Z 36006KT 9999 SCT030 33/18 Q1016;
0120832880999992012041715004-13267-043417FM-15+0443SBLP V0203601N003112200019N0112651N1+03401+01701999999ADDGA1041+009001999GF104991999999999999999999MA1101491999999REMMET051METAR SBLP 171500Z 36006KT 9999 SCT030 34/17 Q1015;
0120832880999992012041716004-13267-043417FM-15+0443SBLP V0201801N003112200019N0112651N1+03501+01901999999ADDGA1041+009001999GF104991999999999999999999MA1101391999999REMMET051METAR SBLP 171600Z 18006KT 9999 SCT030 35/19 Q1014;
0120832880999992012041717004-13267-043417FM-15+0443SBLP V0202401N002112200019N0112651N1+03601+01801999999ADDGA1041+009001999GF104991999999999999999999MA1101191999999REMMET051METAR SBLP 171700Z 24004KT 9999 SCT030 36/18 Q1012;
0120832880999992012041718004-13267-043417FM-15+0443SBLP V0201501N006212200019N0112651N1+03601+01901999999ADDGA1041+009001999GF104991999999999999999999MA1101191999999REMMET051METAR SBLP 171800Z 15012KT 9999 SCT030 36/19 Q1012;
0120832880999992012041719004-13267-043417FM-15+0443SBLP V0201801N003112200019N0112651N1+03701+01801999999ADDGA1021+009001999GF102991999999999999999999MA1101191999999REMMET051METAR SBLP 171900Z 18006KT 9999 FEW030 37/18 Q1012;
0146832880999992012041720004-13267-043417FM-15+0443SBLP V0201201N003112200019N0112651N1+03701+01801999999ADDGA1021+009001999GA2021+012001021GF102991999999999999999999MA1101191999999REMMET061METAR SBLP 172000Z 12006KT 9999 FEW030 FEW040TCU 37/18 Q1012;
0120832880999992012041721004-13267-043417FM-15+0443SBLP V0209999C000012200019N0112651N1+03401+01801999999ADDGA1021+009001999GF102991999999999999999999MA1101191999999REMMET051METAR SBLP 172100Z 00000KT 9999 FEW030 34/18 Q1012;
0072832880999992012041810004-13267-043417FM-15+0443SBLP V0209999C000019999999Y0099001N1+02501+01901999999ADDMA1101591999999REMMET045METAR SBLP 181000Z 00000KT CAVOK 25/19 Q1016;
0072832880999992012041811004-13267-043417FM-15+0443SBLP V0209999C000019999999Y0099001N1+02801+01901999999ADDMA1101691999999REMMET045METAR SBLP 181100Z 00000KT CAVOK 28/19 Q1017;
0072832880999992012041812004-13267-043417FM-15+0443SBLP V0209999C000019999999Y0099001N1+02901+01801999999ADDMA1101801999999REMMET045METAR SBLP 181200Z 00000KT CAVOK 29/18 Q1018;
0120832880999992012041813004-13267-043417FM-15+0443SBLP V0203601N003112200019N0112651N1+03101+01701999999ADDGA1021+009001999GF102991999999999999999999MA1101801999999REMMET051METAR SBLP 181300Z 36006KT 9999 FEW030 31/17 Q1018;
0120832880999992012041814004-13267-043417FM-15+0443SBLP V0203601N003112200019N0112651N1+03201+01701999999ADDGA1021+009001999GF102991999999999999999999MA1101691999999REMMET051METAR SBLP 181400Z 36006KT 9999 FEW030 32/17 Q1017;
0120832880999992012041815004-13267-043417FM-15+0443SBLP V0203601N003112200019N0112651N1+03301+01701999999ADDGA1041+009001999GF104991999999999999999999MA1101491999999REMMET051METAR SBLP 181500Z 36006KT 9999 SCT030 33/17 Q1015;
0120832880999992012041816004-13267-043417FM-15+0443SBLP V0202101N003112200019N0112651N1+03401+01801999999ADDGA1041+009001999GF104991999999999999999999MA1101391999999REMMET051METAR SBLP 181600Z 21006KT 9999 SCT030 34/18 Q1014;
0120832880999992012041817004-13267-043417FM-15+0443SBLP V0201801N003112200019N0112651N1+03501+01801999999ADDGA1041+009001999GF104991999999999999999999MA1101291999999REMMET051METAR SBLP 181700Z 18006KT 9999 SCT030 35/18 Q1013;
0120832880999992012041818004-13267-043417FM-15+0443SBLP V0201801N003112200019N0112651N1+03601+01701999999ADDGA1041+009001999GF104991999999999999999999MA1101191999999REMMET051METAR SBLP 181800Z 18006KT 9999 SCT030 36/17 Q1012;
0120832880999992012041819004-13267-043417FM-15+0443SBLP V0202101N003112200019N0112651N1+03501+01701999999ADDGA1021+009001999GF102991999999999999999999MA1101191999999REMMET051METAR SBLP 181900Z 21006KT 9999 FEW030 35/17 Q1012;
0120832880999992012041820004-13267-043417FM-15+0443SBLP V0201801N003112200019N0112651N1+03401+01801999999ADDGA1021+009001999GF102991999999999999999999MA1101191999999REMMET051METAR SBLP 182000Z 18006KT 9999 FEW030 34/18 Q1012;
0072832880999992012041821004-13267-043417FM-15+0443SBLP V0201801N003119999999Y0099001N1+03101+01901999999ADDMA1101191999999REMMET045METAR SBLP 182100Z 18006KT CAVOK 31/19 Q1012;
0072832880999992012041910004-13267-043417FM-15+0443SBLP V0209999C000019999999Y0099001N1+02401+01901999999ADDMA1101591999999REMMET045METAR SBLP 191000Z 00000KT CAVOK 24/19 Q1016;
0072832880999992012041911004-13267-043417FM-15+0443SBLP V0209999C000019999999Y0099001N1+02701+01801999999ADDMA1101591999999REMMET045METAR SBLP 191100Z 00000KT CAVOK 27/18 Q1016;
0072832880999992012041912004-13267-043417FM-15+0443SBLP V0209999C000019999999Y0099001N1+02901+01801999999ADDMA1101591999999REMMET045METAR SBLP 191200Z 00000KT CAVOK 29/18 Q1016;
0120832880999992012041913004-13267-043417FM-15+0443SBLP V0200901N003112200019N0112651N1+03101+01701999999ADDGA1021+009001999GF102991999999999999999999MA1101591999999REMMET051METAR SBLP 191300Z 09006KT 9999 FEW030 31/17 Q1016;
0120832880999992012041914004-13267-043417FM-15+0443SBLP V0200901N003112200019N0112651N1+03201+01701999999ADDGA1021+009001999GF102991999999999999999999MA1101491999999REMMET051METAR SBLP 191400Z 09006KT 9999 FEW030 32/17 Q1015;
0120832880999992012041915004-13267-043417FM-15+0443SBLP V0200901N003112200019N0112651N1+03301+01601999999ADDGA1021+009001999GF102991999999999999999999MA1101291999999REMMET051METAR SBLP 191500Z 09006KT 9999 FEW030 33/16 Q1013;
0120832880999992012041916004-13267-043417FM-15+0443SBLP V0202101N003112200019N0112651N1+03601+01601999999ADDGA1021+009001999GF102991999999999999999999MA1101191999999REMMET051METAR SBLP 191600Z 21006KT 9999 FEW030 36/16 Q1012;
0120832880999992012041917004-13267-043417FM-15+0443SBLP V0202501N002112200019N0112651N1+03601+01601999999ADDGA1021+009001999GF102991999999999999999999MA1101081999999REMMET051METAR SBLP 191700Z 25004KT 9999 FEW030 36/16 Q1011;
0120832880999992012041918004-13267-043417FM-15+0443SBLP V0202101N003112200019N0112651N1+03601+01601999999ADDGA1021+009001999GF102991999999999999999999MA1101021999999REMMET051METAR SBLP 191800Z 21006KT 9999 FEW030 36/16 Q1010;
0120832880999992012041919004-13267-043417FM-15+0443SBLP V0201501N002112200019N0112651N1+03601+01601999999ADDGA1021+009001999GF102991999999999999999999MA1101021999999REMMET051METAR SBLP 191900Z 15004KT 9999 FEW030 36/16 Q1010;
0120832880999992012041920004-13267-043417FM-15+0443SBLP V0201201N002112200019N0112651N1+03401+01701999999ADDGA1021+009001999GF102991999999999999999999MA1101021999999REMMET051METAR SBLP 192000Z 12004KT 9999 FEW030 34/17 Q1010;
0120832880999992012041921004-13267-043417FM-15+0443SBLP V0201801N003112200019N0112651N1+03101+01901999999ADDGA1021+008101999GF102991999999999999999999MA1101021999999REMMET051METAR SBLP 192100Z 18006KT 9999 FEW027 31/19 Q1010;
0072832880999992012042010004-13267-043417FM-15+0443SBLP V0209999C000019999999Y0099001N1+02501+01801999999ADDMA1101391999999REMMET045METAR SBLP 201000Z 00000KT CAVOK 25/18 Q1014;
0072832880999992012042011004-13267-043417FM-15+0443SBLP V0209999C000019999999Y0099001N1+02701+01801999999ADDMA1101491999999REMMET045METAR SBLP 201100Z 00000KT CAVOK 27/18 Q1015;
0072832880999992012042012004-13267-043417FM-15+0443SBLP V0209999C000019999999Y0099001N1+02901+01801999999ADDMA1101491999999REMMET045METAR SBLP 201200Z 00000KT CAVOK 29/18 Q1015;
0072832880999992012042013004-13267-043417FM-15+0443SBLP V0200901N003119999999Y0099001N1+03101+01701999999ADDMA1101491999999REMMET045METAR SBLP 201300Z 09006KT CAVOK 31/17 Q1015;
0072832880999992012042014004-13267-043417FM-15+0443SBLP V0200901N003119999999Y0099001N1+03201+01701999999ADDMA1101391999999REMMET045METAR SBLP 201400Z 09006KT CAVOK 32/17 Q1014;
0120832880999992012042015004-13267-043417FM-15+0443SBLP V0201801N003112200019N0112651N1+03301+01701999999ADDGA1021+009001999GF102991999999999999999999MA1101291999999REMMET051METAR SBLP 201500Z 18006KT 9999 FEW030 33/17 Q1013;
0120832880999992012042016004-13267-043417FM-15+0443SBLP V0202101N003112200019N0112651N1+03401+01801999999ADDGA1021+009001999GF102991999999999999999999MA1101191999999REMMET051METAR SBLP 201600Z 21006KT 9999 FEW030 34/18 Q1012;
0120832880999992012042017004-13267-043417FM-15+0443SBLP V0202101N003112200019N0112651N1+03601+01601999999ADDGA1021+009001999GF102991999999999999999999MA1101081999999REMMET051METAR SBLP 201700Z 21006KT 9999 FEW030 36/16 Q1011;
0120832880999992012042018004-13267-043417FM-15+0443SBLP V0201901N003112200019N0112651N1+03601+01501999999ADDGA1021+009001999GF102991999999999999999999MA1101021999999REMMET051METAR SBLP 201800Z 19006KT 9999 FEW030 36/15 Q1010;
0120832880999992012042019004-13267-043417FM-15+0443SBLP V0201801N003112200019N0112651N1+03601+01501999999ADDGA1021+009001999GF102991999999999999999999MA1101021999999REMMET051METAR SBLP 201900Z 18006KT 9999 FEW030 36/15 Q1010;
0120832880999992012042020004-13267-043417FM-15+0443SBLP V0201701N002612200019N0112651N1+03501+01601999999ADDGA1021+009001999GF102991999999999999999999MA1101021999999REMMET051METAR SBLP 202000Z 17005KT 9999 FEW030 35/16 Q1010;
0120832880999992012042021004-13267-043417FM-15+0443SBLP V0201801N003112200019N0112651N1+03101+01401999999ADDGA1021+009001999GF102991999999999999999999MA1101021999999REMMET051METAR SBLP 202100Z 18006KT 9999 FEW030 31/14 Q1010;
0143832880999992012042309154-13267-043417FM-15+0443SBLP V0209999C000010300019N0112651N1+02301+02001999999ADDGA1021+006001999GA2071+030001999GF107991999999999999999999MA1101291999999REMMET058METAR SBLP 230915Z 00000KT 9999 FEW020 BKN100 23/20 Q1013;
0143832880999992012042310004-13267-043417FM-15+0443SBLP V0209999C000012200019N0112651N1+02501+01901999999ADDGA1021+006001999GA2041+030001999GF104991999999999999999999MA1101291999999REMMET058METAR SBLP 231000Z 00000KT 9999 FEW020 SCT100 25/19 Q1013;
0143832880999992012042311004-13267-043417FM-15+0443SBLP V0209999C000012200019N0112651N1+02801+01901999999ADDGA1021+009001999GA2041+030001999GF104991999999999999999999MA1101491999999REMMET058METAR SBLP 231100Z 00000KT 9999 FEW030 SCT100 28/19 Q1015;
0143832880999992012042312004-13267-043417FM-15+0443SBLP V0209999C000010300019N0112651N1+02901+01901999999ADDGA1021+009001999GA2071+030001999GF107991999999999999999999MA1101491999999REMMET058METAR SBLP 231200Z 00000KT 9999 FEW030 BKN100 29/19 Q1015;
0143832880999992012042313004-13267-043417FM-15+0443SBLP V0209999C000010300019N0112651N1+03001+01901999999ADDGA1021+009001999GA2071+030001999GF107991999999999999999999MA1101491999999REMMET058METAR SBLP 231300Z 00000KT 9999 FEW030 BKN100 30/19 Q1015;
0143832880999992012042314004-13267-043417FM-15+0443SBLP V0209999C000010300019N0112651N1+03001+01901999999ADDGA1021+009001999GA2071+030001999GF107991999999999999999999MA1101491999999REMMET058METAR SBLP 231400Z 00000KT 9999 FEW030 BKN100 30/19 Q1015;
0143832880999992012042315004-13267-043417FM-15+0443SBLP V0203601N003110300019N0112651N1+03101+01901999999ADDGA1021+009001999GA2071+030001999GF107991999999999999999999MA1101391999999REMMET058METAR SBLP 231500Z 36006KT 9999 FEW030 BKN100 31/19 Q1014;
0143832880999992012042316004-13267-043417FM-15+0443SBLP V0202701N001512200019N0112651N1+03101+02101999999ADDGA1021+009001999GA2041+030001999GF104991999999999999999999MA1101291999999REMMET058METAR SBLP 231600Z 27003KT 9999 FEW030 SCT100 31/21 Q1013;
0143832880999992012042317004-13267-043417FM-15+0443SBLP V0203301N001512200019N0112651N1+03301+02001999999ADDGA1021+009001999GA2041+030001999GF104991999999999999999999MA1101191999999REMMET058METAR SBLP 231700Z 33003KT 9999 FEW030 SCT100 33/20 Q1012;
0143832880999992012042318004-13267-043417FM-15+0443SBLP V0201801N001512200019N0112651N1+03301+02001999999ADDGA1021+009001999GA2041+030001999GF104991999999999999999999MA1101191999999REMMET058METAR SBLP 231800Z 18003KT 9999 FEW030 SCT100 33/20 Q1012;
0143832880999992012042319004-13267-043417FM-15+0443SBLP V0209999C000012200019N0112651N1+03201+01901999999ADDGA1021+009001999GA2041+030001999GF104991999999999999999999MA1101081999999REMMET058METAR SBLP 231900Z 00000KT 9999 FEW030 SCT100 32/19 Q1011;
0143832880999992012042320004-13267-043417FM-15+0443SBLP V0201801N001512200019N0112651N1+03401+01701999999ADDGA1021+009001999GA2041+030001999GF104991999999999999999999MA1101081999999REMMET058METAR SBLP 232000Z 18003KT 9999 FEW030 SCT100 34/17 Q1011;
0143832880999992012042321004-13267-043417FM-15+0443SBLP V0209999C000012200019N0112651N1+03201+02001999999ADDGA1021+009001999GA2041+030001999GF104991999999999999999999MA1101081999999REMMET058METAR SBLP 232100Z 00000KT 9999 FEW030 SCT100 32/20 Q1011;
0143832880999992012042410004-13267-043417FM-15+0443SBLP V0209999C000010300019N0112651N1+02501+02001999999ADDGA1021+006001999GA2071+030001999GF107991999999999999999999MA1101391999999REMMET058METAR SBLP 241000Z 00000KT 9999 FEW020 BKN100 25/20 Q1014;
0143832880999992012042411004-13267-043417FM-15+0443SBLP V0209999C000010300019N0112651N1+02701+01901999999ADDGA1021+009001999GA2071+030001999GF107991999999999999999999MA1101391999999REMMET058METAR SBLP 241100Z 00000KT 9999 FEW030 BKN100 27/19 Q1014;
0143832880999992012042412004-13267-043417FM-15+0443SBLP V0209999C000010300019N0112651N1+02901+01901999999ADDGA1021+009001999GA2071+030001999GF107991999999999999999999MA1101391999999REMMET058METAR SBLP 241200Z 00000KT 9999 FEW030 BKN100 29/19 Q1014;
0143832880999992012042413004-13267-043417FM-15+0443SBLP V0209999C000012200019N0112651N1+03101+01901999999ADDGA1021+009001999GA2041+030001999GF104991999999999999999999MA1101391999999REMMET058METAR SBLP 241300Z 00000KT 9999 FEW030 SCT100 31/19 Q1014;
0120832880999992012042414004-13267-043417FM-15+0443SBLP V0209999C000012200019N0112651N1+03201+01801999999ADDGA1021+009001999GF102991999999999999999999MA1101291999999REMMET051METAR SBLP 241400Z 00000KT 9999 FEW030 32/18 Q1013;
0120832880999992012042415004-13267-043417FM-15+0443SBLP V0202701N003112200019N0112651N1+03301+01801999999ADDGA1041+009001999GF104991999999999999999999MA1101191999999REMMET051METAR SBLP 241500Z 27006KT 9999 SCT030 33/18 Q1012;
0120832880999992012042416004-13267-043417FM-15+0443SBLP V0209999C000012200019N0112651N1+03601+01801999999ADDGA1041+009001999GF104991999999999999999999MA1101081999999REMMET051METAR SBLP 241600Z 00000KT 9999 SCT030 36/18 Q1011;
0120832880999992012042417004-13267-043417FM-15+0443SBLP V0209999C000012200019N0112651N1+03701+01601999999ADDGA1041+009001999GF104991999999999999999999MA1101021999999REMMET051METAR SBLP 241700Z 00000KT 9999 SCT030 37/16 Q1010;
0120832880999992012042418004-13267-043417FM-15+0443SBLP V0202701N001512200019N0112651N1+03601+01801999999ADDGA1041+009001999GF104991999999999999999999MA1100911999999REMMET051METAR SBLP 241800Z 27003KT 9999 SCT030 36/18 Q1009;
0120832880999992012042419004-13267-043417FM-15+0443SBLP V0209999C000012200019N0112651N1+03401+02101999999ADDGA1041+009001999GF104991999999999999999999MA1100911999999REMMET051METAR SBLP 241900Z 00000KT 9999 SCT030 34/21 Q1009;
0143832880999992012042420004-13267-043417FM-15+0443SBLP V0201801N003112200019N0112651N1+03201+01901999999ADDGA1041+009001999GA2041+030001999GF104991999999999999999999MA1100911999999REMMET058METAR SBLP 242000Z 18006KT 9999 SCT030 SCT100 32/19 Q1009;
0143832880999992012042421004-13267-043417FM-15+0443SBLP V0201101N005112200019N0112651N1+03101+02001999999ADDGA1041+009001999GA2041+030001999GF104991999999999999999999MA1101021999999REMMET058METAR SBLP 242100Z 11010KT 9999 SCT030 SCT100 31/20 Q1010;
0072832880999992012042510004-13267-043417FM-15+0443SBLP V0209999C000019999999Y0099001N1+02401+01901999999ADDMA1101491999999REMMET045METAR SBLP 251000Z 00000KT CAVOK 24/19 Q1015;
0072832880999992012042511004-13267-043417FM-15+0443SBLP V0209999C000019999999Y0099001N1+02701+01901999999ADDMA1101491999999REMMET045METAR SBLP 251100Z 00000KT CAVOK 27/19 Q1015;
0072832880999992012042512004-13267-043417FM-15+0443SBLP V0209999C000019999999Y0099001N1+02901+01801999999ADDMA1101591999999REMMET045METAR SBLP 251200Z 00000KT CAVOK 29/18 Q1016;
0072832880999992012042513004-13267-043417FM-15+0443SBLP V0209999C000019999999Y0099001N1+03301+01601999999ADDMA1101491999999REMMET045METAR SBLP 251300Z 00000KT CAVOK 33/16 Q1015;
0072832880999992012042514004-13267-043417FM-15+0443SBLP V0209999C000019999999Y0099001N1+03401+01501999999ADDMA1101391999999REMMET045METAR SBLP 251400Z 00000KT CAVOK 34/15 Q1014;
0120832880999992012042515004-13267-043417FM-15+0443SBLP V0203601N003112200019N0112651N1+03501+01501999999ADDGA1021+009001999GF102991999999999999999999MA1101291999999REMMET051METAR SBLP 251500Z 36006KT 9999 FEW030 35/15 Q1013;
0120832880999992012042516004-13267-043417FM-15+0443SBLP V0202401N001512200019N0112651N1+03501+01601999999ADDGA1021+009001999GF102991999999999999999999MA1101191999999REMMET051METAR SBLP 251600Z 24003KT 9999 FEW030 35/16 Q1012;
0120832880999992012042517004-13267-043417FM-15+0443SBLP V0202401N002612200019N0112651N1+03701+01401999999ADDGA1021+009001999GF102991999999999999999999MA1101081999999REMMET051METAR SBLP 251700Z 24005KT 9999 FEW030 37/14 Q1011;
0120832880999992012042518004-13267-043417FM-15+0443SBLP V0202401N001512200019N0112651N1+03701+01401999999ADDGA1021+009001999GF102991999999999999999999MA1101021999999REMMET051METAR SBLP 251800Z 24003KT 9999 FEW030 37/14 Q1010;
0120832880999992012042519004-13267-043417FM-15+0443SBLP V0202701N001512200019N0112651N1+03701+01301999999ADDGA1021+009001999GF102991999999999999999999MA1100911999999REMMET051METAR SBLP 251900Z 27003KT 9999 FEW030 37/13 Q1009;
0120832880999992012042520004-13267-043417FM-15+0443SBLP V0201801N001512200019N0112651N1+03701+01401999999ADDGA1021+009001999GF102991999999999999999999MA1101021999999REMMET051METAR SBLP 252000Z 18003KT 9999 FEW030 37/14 Q1010;
0120832880999992012042521004-13267-043417FM-15+0443SBLP V0201201N003112200019N0112651N1+03301+01201999999ADDGA1021+009001999GF102991999999999999999999MA1101021999999REMMET051METAR SBLP 252100Z 12006KT 9999 FEW030 33/12 Q1010;
0072832880999992012042610004-13267-043417FM-15+0443SBLP V0209999C000019999999Y0099001N1+02401+01801999999ADDMA1101491999999REMMET045METAR SBLP 261000Z 00000KT CAVOK 24/18 Q1015;
0072832880999992012042611004-13267-043417FM-15+0443SBLP V0209999C000019999999Y0099001N1+02701+01701999999ADDMA1101591999999REMMET045METAR SBLP 261100Z 00000KT CAVOK 27/17 Q1016;
0072832880999992012042612004-13267-043417FM-15+0443SBLP V0209999C000019999999Y0099001N1+03001+01601999999ADDMA1101591999999REMMET045METAR SBLP 261200Z 00000KT CAVOK 30/16 Q1016;
0072832880999992012042613004-13267-043417FM-15+0443SBLP V0209999C000019999999Y0099001N1+03101+01601999999ADDMA1101491999999REMMET045METAR SBLP 261300Z 00000KT CAVOK 31/16 Q1015;
0072832880999992012042614004-13267-043417FM-15+0443SBLP V0209999C000019999999Y0099001N1+03301+01601999999ADDMA1101491999999REMMET045METAR SBLP 261400Z 00000KT CAVOK 33/16 Q1015;
0072832880999992012042615004-13267-043417FM-15+0443SBLP V0201801N003119999999Y0099001N1+03301+01601999999ADDMA1101291999999REMMET045METAR SBLP 261500Z 18006KT CAVOK 33/16 Q1013;
0120832880999992012042616004-13267-043417FM-15+0443SBLP V0209999C000012200019N0112651N1+03501+01401999999ADDGA1021+009001999GF102991999999999999999999MA1101191999999REMMET051METAR SBLP 261600Z 00000KT 9999 FEW030 35/14 Q1012;
0120832880999992012042617004-13267-043417FM-15+0443SBLP V0202901N001512200019N0112651N1+03601+00901999999ADDGA1021+009001999GF102991999999999999999999MA1101081999999REMMET051METAR SBLP 261700Z 29003KT 9999 FEW030 36/09 Q1011;
0120832880999992012042618004-13267-043417FM-15+0443SBLP V0209999C000012200019N0112651N1+03701+01001999999ADDGA1021+009001999GF102991999999999999999999MA1101081999999REMMET051METAR SBLP 261800Z 00000KT 9999 FEW030 37/10 Q1011;
0120832880999992012042619004-13267-043417FM-15+0443SBLP V0209999C000012200019N0112651N1+03801+01001999999ADDGA1021+009001999GF102991999999999999999999MA1101021999999REMMET051METAR SBLP 261900Z 00000KT 9999 FEW030 38/10 Q1010;
0072832880999992012042620004-13267-043417FM-15+0443SBLP V0209999C000019999999Y0099001N1+03601+01001999999ADDMA1101021999999REMMET045METAR SBLP 262000Z 00000KT CAVOK 36/10 Q1010;
0072832880999992012042621004-13267-043417FM-15+0443SBLP V0209999C000019999999Y0099001N1+03301+01001999999ADDMA1101021999999REMMET045METAR SBLP 262100Z 00000KT CAVOK 33/10 Q1010;
0072832880999992012042710004-13267-043417FM-15+0443SBLP V0209999C000019999999Y0099001N1+02401+01701999999ADDMA1101391999999REMMET045METAR SBLP 271000Z 00000KT CAVOK 24/17 Q1014;
0072832880999992012042711004-13267-043417FM-15+0443SBLP V0209999C000019999999Y0099001N1+02601+01701999999ADDMA1101491999999REMMET045METAR SBLP 271100Z 00000KT CAVOK 26/17 Q1015;
0072832880999992012042712004-13267-043417FM-15+0443SBLP V0209999C000019999999Y0099001N1+02901+01601999999ADDMA1101491999999REMMET045METAR SBLP 271200Z 00000KT CAVOK 29/16 Q1015;
0072832880999992012042713004-13267-043417FM-15+0443SBLP V0209999C000019999999Y0099001N1+03001+01501999999ADDMA1101491999999REMMET045METAR SBLP 271300Z 00000KT CAVOK 30/15 Q1015;
0072832880999992012042714004-13267-043417FM-15+0443SBLP V0202701N003119999999Y0099001N1+03201+01501999999ADDMA1101391999999REMMET045METAR SBLP 271400Z 27006KT CAVOK 32/15 Q1014;
0072832880999992012042715004-13267-043417FM-15+0443SBLP V0202701N003119999999Y0099001N1+03301+01401999999ADDMA1101291999999REMMET045METAR SBLP 271500Z 27006KT CAVOK 33/14 Q1013;
0072832880999992012042716004-13267-043417FM-15+0443SBLP V0202701N001519999999Y0099001N1+03601+01401999999ADDMA1101191999999REMMET045METAR SBLP 271600Z 27003KT CAVOK 36/14 Q1012;
0072832880999992012042717004-13267-043417FM-15+0443SBLP V0202101N003119999999Y0099001N1+03701+01301999999ADDMA1101021999999REMMET045METAR SBLP 271700Z 21006KT CAVOK 37/13 Q1010;
0072832880999992012042718004-13267-043417FM-15+0443SBLP V0202101N003119999999Y0099001N1+03701+01301999999ADDMA1101021999999REMMET045METAR SBLP 271800Z 21006KT CAVOK 37/13 Q1010;
0072832880999992012042719004-13267-043417FM-15+0443SBLP V0202101N001519999999Y0099001N1+03701+01401999999ADDMA1101021999999REMMET045METAR SBLP 271900Z 21003KT CAVOK 37/14 Q1010;
0072832880999992012042720004-13267-043417FM-15+0443SBLP V0209999C000019999999Y0099001N1+03701+01301999999ADDMA1101021999999REMMET045METAR SBLP 272000Z 00000KT CAVOK 37/13 Q1010;
0072832880999992012042721004-13267-043417FM-15+0443SBLP V0203001N001519999999Y0099001N1+03501+01501999999ADDMA1101021999999REMMET045METAR SBLP 272100Z 30003KT CAVOK 35/15 Q1010;
0072832880999992012043010004-13267-043417FM-15+0443SBLP V0209999C000019999999Y0099001N1+01901+01301999999ADDMA1101491999999REMMET045METAR SBLP 301000Z 00000KT CAVOK 19/13 Q1015;
0072832880999992012043011004-13267-043417FM-15+0443SBLP V0209999C000019999999Y0099001N1+02201+01301999999ADDMA1101591999999REMMET045METAR SBLP 301100Z 00000KT CAVOK 22/13 Q1016;
0072832880999992012043012004-13267-043417FM-15+0443SBLP V0209999C000019999999Y0099001N1+02601+01701999999ADDMA1101691999999REMMET045METAR SBLP 301200Z 00000KT CAVOK 26/17 Q1017;
0072832880999992012043013004-13267-043417FM-15+0443SBLP V0209999C000019999999Y0099001N1+02901+01201999999ADDMA1101591999999REMMET045METAR SBLP 301300Z 00000KT CAVOK 29/12 Q1016;
0072832880999992012043014004-13267-043417FM-15+0443SBLP V0209999C000019999999Y0099001N1+03301+01601999999ADDMA1101491999999REMMET045METAR SBLP 301400Z 00000KT CAVOK 33/16 Q1015;
0072832880999992012043015004-13267-043417FM-15+0443SBLP V0209999C000019999999Y0099001N1+03401+01501999999ADDMA1101391999999REMMET045METAR SBLP 301500Z 00000KT CAVOK 34/15 Q1014;
0072832880999992012043016004-13267-043417FM-15+0443SBLP V0201801N003119999999Y0099001N1+03501+01401999999ADDMA1101291999999REMMET045METAR SBLP 301600Z 18006KT CAVOK 35/14 Q1013;
0072832880999992012043017004-13267-043417FM-15+0443SBLP V0201801N003119999999Y0099001N1+03601+01301999999ADDMA1101081999999REMMET045METAR SBLP 301700Z 18006KT CAVOK 36/13 Q1011;
0072832880999992012043018004-13267-043417FM-15+0443SBLP V0201801N003119999999Y0099001N1+03701+01201999999ADDMA1101081999999REMMET045METAR SBLP 301800Z 18006KT CAVOK 37/12 Q1011;
0072832880999992012043019004-13267-043417FM-15+0443SBLP V0201801N003119999999Y0099001N1+03601+01201999999ADDMA1101081999999REMMET045METAR SBLP 301900Z 18006KT CAVOK 36/12 Q1011;
0072832880999992012043020004-13267-043417FM-15+0443SBLP V0209999C000019999999Y0099001N1+03501+01301999999ADDMA1101081999999REMMET045METAR SBLP 302000Z 00000KT CAVOK 35/13 Q1011;
0072832880999992012043021004-13267-043417FM-15+0443SBLP V0209999C000019999999Y0099001N1+03201+01401999999ADDMA1101081999999REMMET045METAR SBLP 302100Z 00000KT CAVOK 32/14 Q1011;
0072832880999992012050210004-13267-043417FM-15+0443SBLP V0201301N001519999999Y0099001N1+02001+01601999999ADDMA1101491999999REMMET045METAR SBLP 021000Z 13003KT CAVOK 20/16 Q1015;
0072832880999992012050211004-13267-043417FM-15+0443SBLP V0209999C000019999999Y0099001N1+02401+01601999999ADDMA1101591999999REMMET045METAR SBLP 021100Z 00000KT CAVOK 24/16 Q1016;
0072832880999992012050212004-13267-043417FM-15+0443SBLP V0200901N003119999999Y0099001N1+02901+01401999999ADDMA1101591999999REMMET045METAR SBLP 021200Z 09006KT CAVOK 29/14 Q1016;
0072832880999992012050213004-13267-043417FM-15+0443SBLP V0202701N002619999999Y0099001N1+03101+01401999999ADDMA1101591999999REMMET045METAR SBLP 021300Z 27005KT CAVOK 31/14 Q1016;
0072832880999992012050214004-13267-043417FM-15+0443SBLP V0202101N003119999999Y0099001N1+03301+01201999999ADDMA1101491999999REMMET045METAR SBLP 021400Z 21006KT CAVOK 33/12 Q1015;
0120832880999992012050215004-13267-043417FM-15+0443SBLP V0201501N002112200019N0112651N1+03501+01001999999ADDGA1021+009001999GF102991999999999999999999MA1101391999999REMMET051METAR SBLP 021500Z 15004KT 9999 FEW030 35/10 Q1014;
0120832880999992012050216004-13267-043417FM-15+0443SBLP V0201801N003112200019N0112651N1+03501+01001999999ADDGA1021+009001999GF102991999999999999999999MA1101291999999REMMET051METAR SBLP 021600Z 18006KT 9999 FEW030 35/10 Q1013;
0120832880999992012050217004-13267-043417FM-15+0443SBLP V0201801N003112200019N0112651N1+03601+01101999999ADDGA1041+009001999GF104991999999999999999999MA1101191999999REMMET051METAR SBLP 021700Z 18006KT 9999 SCT030 36/11 Q1012;
0120832880999992012050219004-13267-043417FM-15+0443SBLP V0201801N003112200019N0112651N1+03601+01201999999ADDGA1041+009001999GF104991999999999999999999MA1101191999999REMMET051METAR SBLP 021900Z 18006KT 9999 SCT030 36/12 Q1012;
0120832880999992012050220004-13267-043417FM-15+0443SBLP V0201801N003112200019N0112651N1+03401+01301999999ADDGA1021+009001999GF102991999999999999999999MA1101191999999REMMET051METAR SBLP 022000Z 18006KT 9999 FEW030 34/13 Q1012;
0120832880999992012050221004-13267-043417FM-15+0443SBLP V0201801N003112200019N0112651N1+03201+01401999999ADDGA1021+009001999GF102991999999999999999999MA1101291999999REMMET051METAR SBLP 022100Z 18006KT 9999 FEW030 32/14 Q1013;
0072832880999992012050310004-13267-043417FM-15+0443SBLP V0209999C000019999999Y0099001N1+02401+01801999999ADDMA1101691999999REMMET045METAR SBLP 031000Z 00000KT CAVOK 24/18 Q1017;
0072832880999992012050311004-13267-043417FM-15+0443SBLP V0200901N003119999999Y0099001N1+02701+01601999999ADDMA1101801999999REMMET045METAR SBLP 031100Z 09006KT CAVOK 27/16 Q1018;
0072832880999992012050312004-13267-043417FM-15+0443SBLP V0200901N006219999999Y0099001N1+03001+01501999999ADDMA1101901999999REMMET045METAR SBLP 031200Z 09012KT CAVOK 30/15 Q1019;
0072832880999992012050313004-13267-043417FM-15+0443SBLP V0200901N006219999999Y0099001N1+03101+01401999999ADDMA1101901999999REMMET045METAR SBLP 031300Z 09012KT CAVOK 31/14 Q1019;
0120832880999992012050314004-13267-043417FM-15+0443SBLP V0200901N006212200019N0112651N1+03201+01401999999ADDGA1021+009001999GF102991999999999999999999MA1101801999999REMMET051METAR SBLP 031400Z 09012KT 9999 FEW030 32/14 Q1018;
0120832880999992012050315004-13267-043417FM-15+0443SBLP V0200901N006212200019N0112651N1+03301+01401999999ADDGA1021+009001999GF102991999999999999999999MA1101591999999REMMET051METAR SBLP 031500Z 09012KT 9999 FEW030 33/14 Q1016;
0120832880999992012050316004-13267-043417FM-15+0443SBLP V0201201N004112200019N0112651N1+03401+01501999999ADDGA1021+009001999GF102991999999999999999999MA1101591999999REMMET051METAR SBLP 031600Z 12008KT 9999 FEW030 34/15 Q1016;
0120832880999992012050317004-13267-043417FM-15+0443SBLP V0201201N004112200019N0112651N1+03301+01601999999ADDGA1041+009001999GF104991999999999999999999MA1101391999999REMMET051METAR SBLP 031700Z 12008KT 9999 SCT030 33/16 Q1014;
0120832880999992012050318004-13267-043417FM-15+0443SBLP V0201201N005112200019N0112651N1+03401+01601999999ADDGA1041+009001999GF104991999999999999999999MA1101391999999REMMET051METAR SBLP 031800Z 12010KT 9999 SCT030 34/16 Q1014;
0120832880999992012050319004-13267-043417FM-15+0443SBLP V0201301N004112200019N0112651N1+03401+01601999999ADDGA1021+009001999GF102991999999999999999999MA1101391999999REMMET051METAR SBLP 031900Z 13008KT 9999 FEW030 34/16 Q1014;
0120832880999992012050320004-13267-043417FM-15+0443SBLP V0201201N005112200019N0112651N1+03201+01501999999ADDGA1021+009001999GF102991999999999999999999MA1101391999999REMMET051METAR SBLP 032000Z 12010KT 9999 FEW030 32/15 Q1014;
0120832880999992012050321004-13267-043417FM-15+0443SBLP V0201201N003112200019N0112651N1+03001+01401999999ADDGA1021+009001999GF102991999999999999999999MA1101491999999REMMET051METAR SBLP 032100Z 12006KT 9999 FEW030 30/14 Q1015;
0072832880999992012050410004-13267-043417FM-15+0443SBLP V0200901N003119999999Y0099001N1+02401+01801999999ADDMA1101901999999REMMET045METAR SBLP 041000Z 09006KT CAVOK 24/18 Q1019;
0120832880999992012050411004-13267-043417FM-15+0443SBLP V0200901N003112200019N0112651N1+02601+01801999999ADDGA1021+006001999GF102991999999999999999999MA1102001999999REMMET051METAR SBLP 041100Z 09006KT 9999 FEW020 26/18 Q1020;
0120832880999992012050412004-13267-043417FM-15+0443SBLP V0200901N006212200019N0112651N1+02701+01701999999ADDGA1041+006001999GF104991999999999999999999MA1102001999999REMMET051METAR SBLP 041200Z 09012KT 9999 SCT020 27/17 Q1020;
0120832880999992012050413004-13267-043417FM-15+0443SBLP V0200901N006212200019N0112651N1+02901+01601999999ADDGA1041+006001999GF104991999999999999999999MA1102001999999REMMET051METAR SBLP 041300Z 09012KT 9999 SCT020 29/16 Q1020;
0120832880999992012050414004-13267-043417FM-15+0443SBLP V0200901N006212200019N0112651N1+03101+01501999999ADDGA1041+009001999GF104991999999999999999999MA1101901999999REMMET051METAR SBLP 041400Z 09012KT 9999 SCT030 31/15 Q1019;
0120832880999992012050415004-13267-043417FM-15+0443SBLP V0200901N003112200019N0112651N1+03101+01501999999ADDGA1041+009001999GF104991999999999999999999MA1101691999999REMMET051METAR SBLP 041500Z 09006KT 9999 SCT030 31/15 Q1017;
0120832880999992012050416004-13267-043417FM-15+0443SBLP V0200601N005112200019N0112651N1+03101+01501999999ADDGA1041+008101999GF104991999999999999999999MA1101691999999REMMET051METAR SBLP 041600Z 06010KT 9999 SCT027 31/15 Q1017;
0120832880999992012050417004-13267-043417FM-15+0443SBLP V0201201N007210081019N0112651N1+03101+01701999999ADDGA1071+008101999GF107991999999999999999999MA1101591999999REMMET051METAR SBLP 041700Z 12014KT 9999 BKN027 31/17 Q1016;
0120832880999992012050418004-13267-043417FM-15+0443SBLP V0201201N003110081019N0112651N1+03201+01401999999ADDGA1071+008101999GF107991999999999999999999MA1101491999999REMMET051METAR SBLP 041800Z 12006KT 9999 BKN027 32/14 Q1015;
0120832880999992012050419004-13267-043417FM-15+0443SBLP V0201201N006212200019N0112651N1+03201+01501999999ADDGA1021+009001999GF102991999999999999999999MA1101491999999REMMET051METAR SBLP 041900Z 12012KT 9999 FEW030 32/15 Q1015;
0120832880999992012050420004-13267-043417FM-15+0443SBLP V0201201N004112200019N0112651N1+03101+01401999999ADDGA1021+009001999GF102991999999999999999999MA1101491999999REMMET051METAR SBLP 042000Z 12008KT 9999 FEW030 31/14 Q1015;
0072832880999992012050421004-13267-043417FM-15+0443SBLP V0201201N004119999999Y0099001N1+02901+01501999999ADDMA1101591999999REMMET045METAR SBLP 042100Z 12008KT CAVOK 29/15 Q1016;
0072832880999992012050710004-13267-043417FM-15+0443SBLP V0209999C000019999999Y0099001N1+02401+01701999999ADDMA1101591999999REMMET045METAR SBLP 071000Z 00000KT CAVOK 24/17 Q1016;
0072832880999992012050711004-13267-043417FM-15+0443SBLP V0209999C000019999999Y0099001N1+02701+01701999999ADDMA1101801999999REMMET045METAR SBLP 071100Z 00000KT CAVOK 27/17 Q1018;
0072832880999992012050712004-13267-043417FM-15+0443SBLP V0209999C000019999999Y0099001N1+02901+01701999999ADDMA1101801999999REMMET045METAR SBLP 071200Z 00000KT CAVOK 29/17 Q1018;
0072832880999992012050713004-13267-043417FM-15+0443SBLP V0200901N003119999999Y0099001N1+03101+01601999999ADDMA1101801999999REMMET045METAR SBLP 071300Z 09006KT CAVOK 31/16 Q1018;
0120832880999992012050714004-13267-043417FM-15+0443SBLP V0200901N003112200019N0112651N1+03301+01501999999ADDGA1021+009001999GF102991999999999999999999MA1101801999999REMMET051METAR SBLP 071400Z 09006KT 9999 FEW030 33/15 Q1018;
0120832880999992012050715004-13267-043417FM-15+0443SBLP V0200901N003112200019N0112651N1+03401+01501999999ADDGA1021+009001999GF102991999999999999999999MA1101591999999REMMET051METAR SBLP 071500Z 09006KT 9999 FEW030 34/15 Q1016;
0120832880999992012050716004-13267-043417FM-15+0443SBLP V0201801N003112200019N0112651N1+03301+01501999999ADDGA1041+009001999GF104991999999999999999999MA1101591999999REMMET051METAR SBLP 071600Z 18006KT 9999 SCT030 33/15 Q1016;
0120832880999992012050717004-13267-043417FM-15+0443SBLP V0201201N003112200019N0112651N1+03401+01501999999ADDGA1021+009001999GF102991999999999999999999MA1101491999999REMMET051METAR SBLP 071700Z 12006KT 9999 FEW030 34/15 Q1015;
0120832880999992012050718004-13267-043417FM-15+0443SBLP V0200901N003112200019N0112651N1+03401+01301999999ADDGA1021+009001999GF102991999999999999999999MA1101391999999REMMET051METAR SBLP 071800Z 09006KT 9999 FEW030 34/13 Q1014;
0120832880999992012050719004-13267-043417FM-15+0443SBLP V0201501N005112200019N0112651N1+03401+01401999999ADDGA1021+009001999GF102991999999999999999999MA1101391999999REMMET051METAR SBLP 071900Z 15010KT 9999 FEW030 34/14 Q1014;
0120832880999992012050720004-13267-043417FM-15+0443SBLP V0201501N005112200019N0112651N1+03401+01401999999ADDGA1021+009001999GF102991999999999999999999MA1101391999999REMMET051METAR SBLP 072000Z 15010KT 9999 FEW030 34/14 Q1014;
0072832880999992012050721004-13267-043417FM-15+0443SBLP V0201501N003119999999Y0099001N1+03001+01301999999ADDMA1101491999999REMMET045METAR SBLP 072100Z 15006KT CAVOK 30/13 Q1015;
0072832880999992012050810004-13267-043417FM-15+0443SBLP V0201701N003119999999Y0099001N1+02001+01601999999ADDMA1101801999999REMMET045METAR SBLP 081000Z 17006KT CAVOK 20/16 Q1018;
0072832880999992012050811004-13267-043417FM-15+0443SBLP V0201501N002619999999Y0099001N1+02401+01701999999ADDMA1101901999999REMMET045METAR SBLP 081100Z 15005KT CAVOK 24/17 Q1019;
0072832880999992012050812004-13267-043417FM-15+0443SBLP V0201101N003119999999Y0099001N1+02701+01601999999ADDMA1102001999999REMMET045METAR SBLP 081200Z 11006KT CAVOK 27/16 Q1020;
0072832880999992012050813004-13267-043417FM-15+0443SBLP V0203301N001519999999Y0099001N1+02901+01601999999ADDMA1101901999999REMMET045METAR SBLP 081300Z 33003KT CAVOK 29/16 Q1019;
0072832880999992012050814004-13267-043417FM-15+0443SBLP V0209999C000019999999Y0099001N1+03101+01501999999ADDMA1101801999999REMMET045METAR SBLP 081400Z 00000KT CAVOK 31/15 Q1018;
0072832880999992012050815004-13267-043417FM-15+0443SBLP V0200901N002619999999Y0099001N1+03201+01401999999ADDMA1101691999999REMMET045METAR SBLP 081500Z 09005KT CAVOK 32/14 Q1017;
0072832880999992012050816004-13267-043417FM-15+0443SBLP V0200901N003119999999Y0099001N1+03301+01401999999ADDMA1101491999999REMMET045METAR SBLP 081600Z 09006KT CAVOK 33/14 Q1015;
0072832880999992012050817004-13267-043417FM-15+0443SBLP V0200901N003119999999Y0099001N1+03501+01401999999ADDMA1101391999999REMMET045METAR SBLP 081700Z 09006KT CAVOK 35/14 Q1014;
0120832880999992012050818004-13267-043417FM-15+0443SBLP V0200901N003112200019N0112651N1+03601+01501999999ADDGA1021+009001999GF102991999999999999999999MA1101391999999REMMET051METAR SBLP 081800Z 09006KT 9999 FEW030 36/15 Q1014;
0120832880999992012050819004-13267-043417FM-15+0443SBLP V0200901N003112200019N0112651N1+03501+01501999999ADDGA1041+009001999GF104991999999999999999999MA1101391999999REMMET051METAR SBLP 081900Z 09006KT 9999 SCT030 35/15 Q1014;
0120832880999992012050820004-13267-043417FM-15+0443SBLP V0200901N003112200019N0112651N1+03401+01501999999ADDGA1021+009001999GF102991999999999999999999MA1101391999999REMMET051METAR SBLP 082000Z 09006KT 9999 FEW030 34/15 Q1014;
0120832880999992012050821004-13267-043417FM-15+0443SBLP V0200901N003112200019N0112651N1+03201+01601999999ADDGA1021+009001999GF102991999999999999999999MA1101391999999REMMET051METAR SBLP 082100Z 09006KT 9999 FEW030 32/16 Q1014;
0072832880999992012050910004-13267-043417FM-15+0443SBLP V0201901N002119999999Y0099001N1+02001+01701999999ADDMA1101691999999REMMET045METAR SBLP 091000Z 19004KT CAVOK 20/17 Q1017;
0072832880999992012050911004-13267-043417FM-15+0443SBLP V0201701N003619999999Y0099001N1+02301+01701999999ADDMA1101801999999REMMET045METAR SBLP 091100Z 17007KT CAVOK 23/17 Q1018;
0072832880999992012050912004-13267-043417FM-15+0443SBLP V0202101N001519999999Y0099001N1+02601+01701999999ADDMA1101801999999REMMET045METAR SBLP 091200Z 21003KT CAVOK 26/17 Q1018;
0120832880999992012050913004-13267-043417FM-15+0443SBLP V0209999C000012200019N0112651N1+02801+01701999999ADDGA1021+009001999GF102991999999999999999999MA1101801999999REMMET051METAR SBLP 091300Z 00000KT 9999 FEW030 28/17 Q1018;
0120832880999992012050914004-13267-043417FM-15+0443SBLP V0201801N002112200019N0112651N1+03001+01701999999ADDGA1021+009001999GF102991999999999999999999MA1101691999999REMMET051METAR SBLP 091400Z 18004KT 9999 FEW030 30/17 Q1017;
0120832880999992012050915004-13267-043417FM-15+0443SBLP V0202401N004112200019N0112651N1+03001+01701999999ADDGA1021+009001999GF102991999999999999999999MA1101491999999REMMET051METAR SBLP 091500Z 24008KT 9999 FEW030 30/17 Q1015;
0120832880999992012050916004-13267-043417FM-15+0443SBLP V0201801N003112200019N0112651N1+03201+01701999999ADDGA1021+009001999GF102991999999999999999999MA1101391999999REMMET051METAR SBLP 091600Z 18006KT 9999 FEW030 32/17 Q1014;
0120832880999992012050917004-13267-043417FM-15+0443SBLP V0201801N003112200019N0112651N1+03201+01601999999ADDGA1041+009001999GF104991999999999999999999MA1101291999999REMMET051METAR SBLP 091700Z 18006KT 9999 SCT030 32/16 Q1013;
0120832880999992012050918004-13267-043417FM-15+0443SBLP V0201801N003112200019N0112651N1+03401+01701999999ADDGA1041+009001999GF104991999999999999999999MA1101191999999REMMET051METAR SBLP 091800Z 18006KT 9999 SCT030 34/17 Q1012;
0120832880999992012050919004-13267-043417FM-15+0443SBLP V0201801N003112200019N0112651N1+03301+01601999999ADDGA1041+009001999GF104991999999999999999999MA1101191999999REMMET051METAR SBLP 091900Z 18006KT 9999 SCT030 33/16 Q1012;
0120832880999992012050920004-13267-043417FM-15+0443SBLP V0201801N003112200019N0112651N1+03301+01701999999ADDGA1041+009001999GF104991999999999999999999MA1101191999999REMMET051METAR SBLP 092000Z 18006KT 9999 SCT030 33/17 Q1012;
0120832880999992012050921004-13267-043417FM-15+0443SBLP V0201801N003112200019N0112651N1+03101+01701999999ADDGA1041+009001999GF104991999999999999999999MA1101291999999REMMET051METAR SBLP 092100Z 18006KT 9999 SCT030 31/17 Q1013;
0072832880999992012051010004-13267-043417FM-15+0443SBLP V0201801N002119999999Y0099001N1+02001+01801999999ADDMA1101491999999REMMET045METAR SBLP 101000Z 18004KT CAVOK 20/18 Q1015;
0072832880999992012051011004-13267-043417FM-15+0443SBLP V0201701N002619999999Y0099001N1+02401+01901999999ADDMA1101591999999REMMET045METAR SBLP 101100Z 17005KT CAVOK 24/19 Q1016;
0072832880999992012051012004-13267-043417FM-15+0443SBLP V0200901N002119999999Y0099001N1+02701+01901999999ADDMA1101591999999REMMET045METAR SBLP 101200Z 09004KT CAVOK 27/19 Q1016;
0072832880999992012051013004-13267-043417FM-15+0443SBLP V0200601N001519999999Y0099001N1+03001+01801999999ADDMA1101591999999REMMET045METAR SBLP 101300Z 06003KT CAVOK 30/18 Q1016;
0072832880999992012051014004-13267-043417FM-15+0443SBLP V0202701N004119999999Y0099001N1+03101+01901999999ADDMA1101491999999REMMET045METAR SBLP 101400Z 27008KT CAVOK 31/19 Q1015;
0120832880999992012051015004-13267-043417FM-15+0443SBLP V0202101N005112200019N0112651N1+03201+01701999999ADDGA1021+009001999GF102991999999999999999999MA1101391999999REMMET051METAR SBLP 101500Z 21010KT 9999 FEW030 32/17 Q1014;
0120832880999992012051016004-13267-043417FM-15+0443SBLP V0201801N003112200019N0112651N1+03301+01701999999ADDGA1021+009001999GF102991999999999999999999MA1101191999999REMMET051METAR SBLP 101600Z 18006KT 9999 FEW030 33/17 Q1012;
0120832880999992012051017004-13267-043417FM-15+0443SBLP V0201801N003112200019N0112651N1+03501+01701999999ADDGA1041+009001999GF104991999999999999999999MA1101081999999REMMET051METAR SBLP 101700Z 18006KT 9999 SCT030 35/17 Q1011;
0120832880999992012051018004-13267-043417FM-15+0443SBLP V0201801N003112200019N0112651N1+03601+01701999999ADDGA1041+009001999GF104991999999999999999999MA1101081999999REMMET051METAR SBLP 101800Z 18006KT 9999 SCT030 36/17 Q1011;
0120832880999992012051019004-13267-043417FM-15+0443SBLP V0201801N003112200019N0112651N1+03501+01601999999ADDGA1041+009001999GF104991999999999999999999MA1101081999999REMMET051METAR SBLP 101900Z 18006KT 9999 SCT030 35/16 Q1011;
0120832880999992012051020004-13267-043417FM-15+0443SBLP V0201801N003112200019N0112651N1+03401+01701999999ADDGA1021+009001999GF102991999999999999999999MA1101081999999REMMET051METAR SBLP 102000Z 18006KT 9999 FEW030 34/17 Q1011;
0120832880999992012051021004-13267-043417FM-15+0443SBLP V0201801N003112200019N0112651N1+03101+01701999999ADDGA1021+009001999GF102991999999999999999999MA1101191999999REMMET051METAR SBLP 102100Z 18006KT 9999 FEW030 31/17 Q1012;
0072832880999992012051110004-13267-043417FM-15+0443SBLP V0209999C000019999999Y0099001N1+02401+01801999999ADDMA1101491999999REMMET045METAR SBLP 111000Z 00000KT CAVOK 24/18 Q1015;
0072832880999992012051111004-13267-043417FM-15+0443SBLP V0209999C000019999999Y0099001N1+02601+01701999999ADDMA1101591999999REMMET045METAR SBLP 111100Z 00000KT CAVOK 26/17 Q1016;
0072832880999992012051112004-13267-043417FM-15+0443SBLP V0209999C000019999999Y0099001N1+02901+01701999999ADDMA1101591999999REMMET045METAR SBLP 111200Z 00000KT CAVOK 29/17 Q1016;
0072832880999992012051113004-13267-043417FM-15+0443SBLP V0209999C000019999999Y0099001N1+03001+01701999999ADDMA1101591999999REMMET045METAR SBLP 111300Z 00000KT CAVOK 30/17 Q1016;
0120832880999992012051114004-13267-043417FM-15+0443SBLP V0201801N003112200019N0112651N1+03201+01701999999ADDGA1021+009001999GF102991999999999999999999MA1101491999999REMMET051METAR SBLP 111400Z 18006KT 9999 FEW030 32/17 Q1015;
0120832880999992012051115004-13267-043417FM-15+0443SBLP V0201801N003112200019N0112651N1+03301+01701999999ADDGA1021+009001999GF102991999999999999999999MA1101391999999REMMET051METAR SBLP 111500Z 18006KT 9999 FEW030 33/17 Q1014;
0120832880999992012051116004-13267-043417FM-15+0443SBLP V0202701N003112200019N0112651N1+03401+01801999999ADDGA1041+003001999GF104991999999999999999999MA1101391999999REMMET051METAR SBLP 111600Z 27006KT 9999 SCT010 34/18 Q1014;
0120832880999992012051117004-13267-043417FM-15+0443SBLP V0202101N003112200019N0112651N1+03501+01701999999ADDGA1041+009001999GF104991999999999999999999MA1101291999999REMMET051METAR SBLP 111700Z 21006KT 9999 SCT030 35/17 Q1013;
0120832880999992012051118004-13267-043417FM-15+0443SBLP V0202101N003112200019N0112651N1+03501+01701999999ADDGA1021+009001999GF102991999999999999999999MA1101191999999REMMET051METAR SBLP 111800Z 21006KT 9999 FEW030 35/17 Q1012;
0120832880999992012051119004-13267-043417FM-15+0443SBLP V0209999C000012200019N0112651N1+03501+01701999999ADDGA1021+009001999GF102991999999999999999999MA1101081999999REMMET051METAR SBLP 111900Z 00000KT 9999 FEW030 35/17 Q1011;
0072832880999992012051120004-13267-043417FM-15+0443SBLP V0209999C000019999999Y0099001N1+03401+01801999999ADDMA1101081999999REMMET045METAR SBLP 112000Z 00000KT CAVOK 34/18 Q1011;
0072832880999992012051121004-13267-043417FM-15+0443SBLP V0209999C000019999999Y0099001N1+03201+01801999999ADDMA1101191999999REMMET045METAR SBLP 112100Z 00000KT CAVOK 32/18 Q1012;
0072832880999992012051410004-13267-043417FM-15+0443SBLP V0201801N002119999999Y0099001N1+02201+01801999999ADDMA1101391999999REMMET045METAR SBLP 141000Z 18004KT CAVOK 22/18 Q1014;
0072832880999992012051411004-13267-043417FM-15+0443SBLP V0201801N002619999999Y0099001N1+02501+01801999999ADDMA1101391999999REMMET045METAR SBLP 141100Z 18005KT CAVOK 25/18 Q1014;
0072832880999992012051412004-13267-043417FM-15+0443SBLP V0201801N002119999999Y0099001N1+02801+01801999999ADDMA1101491999999REMMET045METAR SBLP 141200Z 18004KT CAVOK 28/18 Q1015;
0072832880999992012051413004-13267-043417FM-15+0443SBLP V0202501N004119999999Y0099001N1+03001+01901999999ADDMA1101491999999REMMET045METAR SBLP 141300Z 25008KT CAVOK 30/19 Q1015;
0120832880999992012051414004-13267-043417FM-15+0443SBLP V0203601N002112200019N0112651N1+03301+01701999999ADDGA1021+009001999GF102991999999999999999999MA1101391999999REMMET051METAR SBLP 141400Z 36004KT 9999 FEW030 33/17 Q1014;
0120832880999992012051415004-13267-043417FM-15+0443SBLP V0202401N003112200019N0112651N1+03401+01801999999ADDGA1021+009001999GF102991999999999999999999MA1101291999999REMMET051METAR SBLP 141500Z 24006KT 9999 FEW030 34/18 Q1013;
0120832880999992012051416004-13267-043417FM-15+0443SBLP V0201801N003112200019N0112651N1+03401+01701999999ADDGA1041+009001999GF104991999999999999999999MA1101081999999REMMET051METAR SBLP 141600Z 18006KT 9999 SCT030 34/17 Q1011;
0120832880999992012051417004-13267-043417FM-15+0443SBLP V0201801N003112200019N0112651N1+03601+01601999999ADDGA1041+009001999GF104991999999999999999999MA1101021999999REMMET051METAR SBLP 141700Z 18006KT 9999 SCT030 36/16 Q1010;
0120832880999992012051418004-13267-043417FM-15+0443SBLP V0201801N003112200019N0112651N1+03601+01601999999ADDGA1041+009001999GF104991999999999999999999MA1101021999999REMMET051METAR SBLP 141800Z 18006KT 9999 SCT030 36/16 Q1010;
0120832880999992012051419004-13267-043417FM-15+0443SBLP V0201801N003112200019N0112651N1+03601+01601999999ADDGA1041+009001999GF104991999999999999999999MA1101021999999REMMET051METAR SBLP 141900Z 18006KT 9999 SCT030 36/16 Q1010;
0120832880999992012051420004-13267-043417FM-15+0443SBLP V0201801N003112200019N0112651N1+03401+01601999999ADDGA1041+009001999GF104991999999999999999999MA1101021999999REMMET051METAR SBLP 142000Z 18006KT 9999 SCT030 34/16 Q1010;
0120832880999992012051421004-13267-043417FM-15+0443SBLP V0200901N006210090019N0112651N1+02901+01901999999ADDGA1071+009001999GF107991999999999999999999MA1101191999999REMMET051METAR SBLP 142100Z 09012KT 9999 BKN030 29/19 Q1012;
0143832880999992012051510004-13267-043417FM-15+0443SBLP V0209999C000010300019N0112651N1+02401+01901999999ADDGA1021+006001999GA2071+030001999GF107991999999999999999999MA1101491999999REMMET058METAR SBLP 151000Z 00000KT 9999 FEW020 BKN100 24/19 Q1015;
0143832880999992012051511004-13267-043417FM-15+0443SBLP V0209999C000010300019N0112651N1+02501+01901999999ADDGA1021+009001999GA2071+030001999GF107991999999999999999999MA1101591999999REMMET058METAR SBLP 151100Z 00000KT 9999 FEW030 BKN100 25/19 Q1016;
0143832880999992012051512004-13267-043417FM-15+0443SBLP V0201801N003112200019N0112651N1+02701+01901999999ADDGA1021+009001999GA2041+030001999GF104991999999999999999999MA1101591999999REMMET058METAR SBLP 151200Z 18006KT 9999 FEW030 SCT100 27/19 Q1016;
0143832880999992012051513004-13267-043417FM-15+0443SBLP V0201801N003112200019N0112651N1+02901+01901999999ADDGA1021+009001999GA2041+030001999GF104991999999999999999999MA1101591999999REMMET058METAR SBLP 151300Z 18006KT 9999 FEW030 SCT100 29/19 Q1016;
0120832880999992012051514004-13267-043417FM-15+0443SBLP V0201801N003112200019N0112651N1+03101+01901999999ADDGA1021+009001999GF102991999999999999999999MA1101491999999REMMET051METAR SBLP 151400Z 18006KT 9999 FEW030 31/19 Q1015;
0120832880999992012051515004-13267-043417FM-15+0443SBLP V0201801N003112200019N0112651N1+03201+01801999999ADDGA1041+009001999GF104991999999999999999999MA1101291999999REMMET051METAR SBLP 151500Z 18006KT 9999 SCT030 32/18 Q1013;
0120832880999992012051516004-13267-043417FM-15+0443SBLP V0202501N003112200019N0112651N1+03401+01801999999ADDGA1041+009001999GF104991999999999999999999MA1101191999999REMMET051METAR SBLP 151600Z 25006KT 9999 SCT030 34/18 Q1012;
0120832880999992012051517004-13267-043417FM-15+0443SBLP V0202401N003112200019N0112651N1+03501+01701999999ADDGA1041+009001999GF104991999999999999999999MA1101081999999REMMET051METAR SBLP 151700Z 24006KT 9999 SCT030 35/17 Q1011;
0139832880999992012051518004-13267-043417FM-15+0443SBLP V0202101N002612200019N0112651N1+03501+01701999999ADDGA1041+009001999GA2021+012001021MA1101081999999REMMET061METAR SBLP 151800Z 21005KT 9999 SCT030 FEW040TCU 35/17 Q1011;EQDQ01+000022SCOTCV
0120832880999992012051519004-13267-043417FM-15+0443SBLP V0200901N003112200019N0112651N1+03601+01601999999ADDGA1041+009001999GF104991999999999999999999MA1101021999999REMMET051METAR SBLP 151900Z 09006KT 9999 SCT030 36/16 Q1010;
0120832880999992012051520004-13267-043417FM-15+0443SBLP V0200901N002612200019N0112651N1+03401+01601999999ADDGA1041+009001999GF104991999999999999999999MA1101081999999REMMET051METAR SBLP 152000Z 09005KT 9999 SCT030 34/16 Q1011;
0120832880999992012051521004-13267-043417FM-15+0443SBLP V0201801N002112200019N0112651N1+03101+01501999999ADDGA1021+009001999GF102991999999999999999999MA1101081999999REMMET051METAR SBLP 152100Z 18004KT 9999 FEW030 31/15 Q1011;
0143832880999992012051610004-13267-043417FM-15+0443SBLP V0202101N002610300019N0112651N1+02201+02001999999ADDGA1021+006001999GA2071+030001999GF107991999999999999999999MA1101591999999REMMET058METAR SBLP 161000Z 21005KT 9999 FEW020 BKN100 22/20 Q1016;
0143832880999992012051611004-13267-043417FM-15+0443SBLP V0201801N003110300019N0112651N1+02401+02001999999ADDGA1021+006001999GA2071+030001999GF107991999999999999999999MA1101591999999REMMET058METAR SBLP 161100Z 18006KT 9999 FEW020 BKN100 24/20 Q1016;
0143832880999992012051612004-13267-043417FM-15+0443SBLP V0201801N003110300019N0112651N1+02601+02001999999ADDGA1021+009001999GA2071+030001999GF107991999999999999999999MA1101591999999REMMET058METAR SBLP 161200Z 18006KT 9999 FEW030 BKN100 26/20 Q1016;
0143832880999992012051613004-13267-043417FM-15+0443SBLP V0201801N003110300019N0112651N1+02901+01901999999ADDGA1021+009001999GA2071+030001999GF107991999999999999999999MA1101591999999REMMET058METAR SBLP 161300Z 18006KT 9999 FEW030 BKN100 29/19 Q1016;
0143832880999992012051614004-13267-043417FM-15+0443SBLP V0201801N003112200019N0112651N1+03001+01901999999ADDGA1021+009001999GA2041+030001999GF104991999999999999999999MA1101591999999REMMET058METAR SBLP 161400Z 18006KT 9999 FEW030 SCT100 30/19 Q1016;
0143832880999992012051615004-13267-043417FM-15+0443SBLP V0201801N003112200019N0112651N1+03101+01901999999ADDGA1021+009001999GA2041+030001999GF104991999999999999999999MA1101391999999REMMET058METAR SBLP 161500Z 18006KT 9999 FEW030 SCT100 31/19 Q1014;
0120832880999992012051616004-13267-043417FM-15+0443SBLP V0201501N001012200019N0112651N1+03201+01801999999ADDGA1021+009001999GF102991999999999999999999MA1101391999999REMMET051METAR SBLP 161600Z 15002KT 9999 FEW030 32/18 Q1014;
0120832880999992012051617004-13267-043417FM-15+0443SBLP V0202401N002612200019N0112651N1+03401+01701999999ADDGA1021+009001999GF102991999999999999999999MA1101291999999REMMET051METAR SBLP 161700Z 24005KT 9999 FEW030 34/17 Q1013;
0120832880999992012051618004-13267-043417FM-15+0443SBLP V0202101N003112200019N0112651N1+03401+01701999999ADDGA1021+009001999GF102991999999999999999999MA1101191999999REMMET051METAR SBLP 161800Z 21006KT 9999 FEW030 34/17 Q1012;
0120832880999992012051619004-13267-043417FM-15+0443SBLP V0201801N003112200019N0112651N1+03401+01801999999ADDGA1021+009001999GF102991999999999999999999MA1101191999999REMMET051METAR SBLP 161900Z 18006KT 9999 FEW030 34/18 Q1012;
0120832880999992012051620004-13267-043417FM-15+0443SBLP V0201801N004112200019N0112651N1+03101+01901999999ADDGA1021+009001999GF102991999999999999999999MA1101191999999REMMET051METAR SBLP 162000Z 18008KT 9999 FEW030 31/19 Q1012;
0153832880999992012051716004-13267-043417FM-15+0443SBLP V0201801N002610270019N0112651N1+02501+02101999999ADDGA1041+006001999GA2071+027001999GF107991999999999999999999MA1101591999999MW1611REMMET062METAR SBLP 171600Z 18005KT 9999 -RA SCT020 BKN090 25/21 Q1016;
0143832880999992012051717004-13267-043417FM-15+0443SBLP V0201801N001510270019N0112651N1+02501+02301999999ADDGA1041+006001999GA2071+027001999GF107991999999999999999999MA1101491999999REMMET058METAR SBLP 171700Z 18003KT 9999 SCT020 BKN090 25/23 Q1015;
0143832880999992012051718004-13267-043417FM-15+0443SBLP V0202101N001010270019N0112651N1+02601+02201999999ADDGA1041+006001999GA2071+027001999GF107991999999999999999999MA1101391999999REMMET058METAR SBLP 171800Z 21002KT 9999 SCT020 BKN090 26/22 Q1014;
0143832880999992012051719004-13267-043417FM-15+0443SBLP V0209999C000010270019N0112651N1+02501+02001999999ADDGA1041+006001999GA2071+027001999GF107991999999999999999999MA1101391999999REMMET058METAR SBLP 171900Z 00000KT 9999 SCT020 BKN090 25/20 Q1014;
0143832880999992012051720004-13267-043417FM-15+0443SBLP V0201501N001010270019N0112651N1+02501+02101999999ADDGA1021+006001999GA2071+027001999GF107991999999999999999999MA1101391999999REMMET058METAR SBLP 172000Z 15002KT 9999 FEW020 BKN090 25/21 Q1014;
0143832880999992012051721004-13267-043417FM-15+0443SBLP V0209999C000010270019N0112651N1+02501+02101999999ADDGA1041+006001999GA2071+027001999GF107991999999999999999999MA1101491999999REMMET058METAR SBLP 172100Z 00000KT 9999 SCT020 BKN090 25/21 Q1015;
0143832880999992012051810004-13267-043417FM-15+0443SBLP V0209999C000010300019N0112651N1+02201+02001999999ADDGA1041+003001999GA2071+030001999GF107991999999999999999999MA1101491999999REMMET058METAR SBLP 181000Z 00000KT 9999 SCT010 BKN100 22/20 Q1015;
0143832880999992012051811004-13267-043417FM-15+0443SBLP V0209999C000010300019N0112651N1+02401+01901999999ADDGA1021+004501999GA2071+030001999GF107991999999999999999999MA1101591999999REMMET058METAR SBLP 181100Z 00000KT 9999 FEW015 BKN100 24/19 Q1016;
0143832880999992012051812004-13267-043417FM-15+0443SBLP V0209999C000012200019N0112651N1+02701+01801999999ADDGA1021+006001999GA2041+030001999GF104991999999999999999999MA1101691999999REMMET058METAR SBLP 181200Z 00000KT 9999 FEW020 SCT100 27/18 Q1017;
0143832880999992012051813004-13267-043417FM-15+0443SBLP V0209999C000012200019N0112651N1+02801+01801999999ADDGA1021+009001999GA2041+030001999GF104991999999999999999999MA1101591999999REMMET058METAR SBLP 181300Z 00000KT 9999 FEW030 SCT100 28/18 Q1016;
0120832880999992012051814004-13267-043417FM-15+0443SBLP V0209999C000012200019N0112651N1+02901+01801999999ADDGA1021+009001999GF102991999999999999999999MA1101591999999REMMET051METAR SBLP 181400Z 00000KT 9999 FEW030 29/18 Q1016;
0120832880999992012051815004-13267-043417FM-15+0443SBLP V0209999C000012200019N0112651N1+03001+01701999999ADDGA1041+009001999GF104991999999999999999999MA1101491999999REMMET051METAR SBLP 181500Z 00000KT 9999 SCT030 30/17 Q1015;
0143832880999992012051816004-13267-043417FM-15+0443SBLP V0201801N003112200019N0112651N1+03201+01901999999ADDGA1041+009001999GA2041+030001999GF104991999999999999999999MA1101391999999REMMET058METAR SBLP 181600Z 18006KT 9999 SCT030 SCT100 32/19 Q1014;
0143832880999992012051817004-13267-043417FM-15+0443SBLP V0202001N003112200019N0112651N1+03201+01601999999ADDGA1041+009001999GA2041+030001999GF104991999999999999999999MA1101291999999REMMET058METAR SBLP 181700Z 20006KT 9999 SCT030 SCT100 32/16 Q1013;
0143832880999992012051818004-13267-043417FM-15+0443SBLP V0201901N003112200019N0112651N1+03201+01701999999ADDGA1041+009001999GA2041+030001999GF104991999999999999999999MA1101191999999REMMET058METAR SBLP 181800Z 19006KT 9999 SCT030 SCT100 32/17 Q1012;
0143832880999992012051819004-13267-043417FM-15+0443SBLP V0202101N003112200019N0112651N1+03101+01801999999ADDGA1041+009001999GA2041+030001999GF104991999999999999999999MA1101191999999REMMET058METAR SBLP 181900Z 21006KT 9999 SCT030 SCT100 31/18 Q1012;
0135832880999992012051820004-13267-043417FM-15+0443SBLP V02099999999992200019N0112651N1+02901+01901999999ADDGA1041+008101999GA2041+030001999GF104991999999999999999999MA1101291999999REMMET050METAR SBLP 182000Z 9999 SCT027 SCT100 29/19 Q1013;
0135832880999992012051821004-13267-043417FM-15+0443SBLP V02099999999992200019N0112651N1+02701+01901999999ADDGA1041+008101999GA2041+030001999GF104991999999999999999999MA1101291999999REMMET050METAR SBLP 182100Z 9999 SCT027 SCT100 27/19 Q1013;
0072832880999992012052110004-13267-043417FM-15+0443SBLP V0209999C000019999999Y0099001N1+02301+01901999999ADDMA1101901999999REMMET045METAR SBLP 211000Z 00000KT CAVOK 23/19 Q1019;
0072832880999992012052111004-13267-043417FM-15+0443SBLP V0209999C000019999999Y0099001N1+02501+01801999999ADDMA1102001999999REMMET045METAR SBLP 211100Z 00000KT CAVOK 25/18 Q1020;
0072832880999992012052112004-13267-043417FM-15+0443SBLP V0209999C000019999999Y0099001N1+02701+01801999999ADDMA1102001999999REMMET045METAR SBLP 211200Z 00000KT CAVOK 27/18 Q1020;
0072832880999992012052113004-13267-043417FM-15+0443SBLP V0200901N003119999999Y0099001N1+02901+01601999999ADDMA1102001999999REMMET045METAR SBLP 211300Z 09006KT CAVOK 29/16 Q1020;
0072832880999992012052114004-13267-043417FM-15+0443SBLP V0200901N003119999999Y0099001N1+03001+01601999999ADDMA1102001999999REMMET045METAR SBLP 211400Z 09006KT CAVOK 30/16 Q1020;
0072832880999992012052115004-13267-043417FM-15+0443SBLP V0200901N003119999999Y0099001N1+03101+01601999999ADDMA1101801999999REMMET045METAR SBLP 211500Z 09006KT CAVOK 31/16 Q1018;
0120832880999992012052116004-13267-043417FM-15+0443SBLP V0201101N003112200019N0112651N1+03101+01401999999ADDGA1041+009001999GF104991999999999999999999MA1101691999999REMMET051METAR SBLP 211600Z 11006KT 9999 SCT030 31/14 Q1017;
0120832880999992012052117004-13267-043417FM-15+0443SBLP V0201101N003112200019N0112651N1+03201+01501999999ADDGA1041+009001999GF104991999999999999999999MA1101591999999REMMET051METAR SBLP 211700Z 11006KT 9999 SCT030 32/15 Q1016;
0120832880999992012052118004-13267-043417FM-15+0443SBLP V0200901N003112200019N0112651N1+03401+01401999999ADDGA1041+009001999GF104991999999999999999999MA1101491999999REMMET051METAR SBLP 211800Z 09006KT 9999 SCT030 34/14 Q1015;
0120832880999992012052119004-13267-043417FM-15+0443SBLP V0201201N003110090019N0112651N1+03201+01501999999ADDGA1071+009001999GF107991999999999999999999MA1101491999999REMMET051METAR SBLP 211900Z 12006KT 9999 BKN030 32/15 Q1015;
0120832880999992012052120004-13267-043417FM-15+0443SBLP V0201201N002610090019N0112651N1+03101+01501999999ADDGA1071+009001999GF107991999999999999999999MA1101491999999REMMET051METAR SBLP 212000Z 12005KT 9999 BKN030 31/15 Q1015;
0153832880999992012052121004-13267-043417FM-15+0443SBLP V0201101N003112200019N0112651N1+02701+01901999999ADDGA1021+006901999GA2041+009001999GF104991999999999999999999MA1101591999999MW1611REMMET062METAR SBLP 212100Z 11006KT 9999 -RA FEW023 SCT030 27/19 Q1016;
0072832880999992012052210004-13267-043417FM-15+0443SBLP V0209999C000019999999Y0099001N1+02201+01901999999ADDMA1101801999999REMMET045METAR SBLP 221000Z 00000KT CAVOK 22/19 Q1018;
0072832880999992012052211004-13267-043417FM-15+0443SBLP V0209999C000019999999Y0099001N1+02301+01901999999ADDMA1101901999999REMMET045METAR SBLP 221100Z 00000KT CAVOK 23/19 Q1019;
0120832880999992012052214004-13267-043417FM-15+0443SBLP V0209999C000012200019N0112651N1+02901+01901999999ADDGA1021+009001999GF102991999999999999999999MA1101901999999REMMET051METAR SBLP 221400Z 00000KT 9999 FEW030 29/19 Q1019;
0120832880999992012052215004-13267-043417FM-15+0443SBLP V0200901N003112200019N0112651N1+02901+01901999999ADDGA1041+009001999GF104991999999999999999999MA1101801999999REMMET051METAR SBLP 221500Z 09006KT 9999 SCT030 29/19 Q1018;
0120832880999992012052216004-13267-043417FM-15+0443SBLP V0200301N003112200019N0112651N1+03101+01401999999ADDGA1041+009001999GF104991999999999999999999MA1101691999999REMMET051METAR SBLP 221600Z 03006KT 9999 SCT030 31/14 Q1017;
0143832880999992012052217004-13267-043417FM-15+0443SBLP V0200901N002110300019N0112651N1+03201+01601999999ADDGA1041+009001999GA2071+030001999GF107991999999999999999999MA1101591999999REMMET058METAR SBLP 221700Z 09004KT 9999 SCT030 BKN100 32/16 Q1016;
0143832880999992012052218004-13267-043417FM-15+0443SBLP V0201501N003110300019N0112651N1+03101+01501999999ADDGA1041+009001999GA2071+030001999GF107991999999999999999999MA1101491999999REMMET058METAR SBLP 221800Z 15006KT 9999 SCT030 BKN100 31/15 Q1015;
0143832880999992012052219004-13267-043417FM-15+0443SBLP V0201201N003110300019N0112651N1+03001+01701999999ADDGA1041+008101999GA2071+030001999GF107991999999999999999999MA1101491999999REMMET058METAR SBLP 221900Z 12006KT 9999 SCT027 BKN100 30/17 Q1015;
0143832880999992012052220004-13267-043417FM-15+0443SBLP V0201801N003110300019N0112651N1+02901+01701999999ADDGA1041+008101999GA2071+030001999GF107991999999999999999999MA1101591999999REMMET058METAR SBLP 222000Z 18006KT 9999 SCT027 BKN100 29/17 Q1016;
0143832880999992012052221004-13267-043417FM-15+0443SBLP V0209999C000010300019N0112651N1+02801+02101999999ADDGA1021+008101999GA2071+030001999GF107991999999999999999999MA1101591999999REMMET058METAR SBLP 222100Z 00000KT 9999 FEW027 BKN100 28/21 Q1016;
0143832880999992012052310004-13267-043417FM-15+0443SBLP V0209999C000010300019N0112651N1+02201+02101999999ADDGA1041+004501999GA2071+030001999GF107991999999999999999999MA1101901999999REMMET058METAR SBLP 231000Z 00000KT 9999 SCT015 BKN100 22/21 Q1019;
0143832880999992012052311004-13267-043417FM-15+0443SBLP V0209999C000010300019N0112651N1+02301+02001999999ADDGA1021+006001999GA2071+030001999GF107991999999999999999999MA1101901999999REMMET058METAR SBLP 231100Z 00000KT 9999 FEW020 BKN100 23/20 Q1019;
0143832880999992012052312004-13267-043417FM-15+0443SBLP V0200901N003110300019N0112651N1+02501+02001999999ADDGA1021+006001999GA2071+030001999GF107991999999999999999999MA1102001999999REMMET058METAR SBLP 231200Z 09006KT 9999 FEW020 BKN100 25/20 Q1020;
0143832880999992012052313004-13267-043417FM-15+0443SBLP V0200901N003112200019N0112651N1+02701+01901999999ADDGA1021+009001999GA2041+030001999GF104991999999999999999999MA1102001999999REMMET058METAR SBLP 231300Z 09006KT 9999 FEW030 SCT100 27/19 Q1020;
0143832880999992012052314004-13267-043417FM-15+0443SBLP V0200901N003112200019N0112651N1+03001+01801999999ADDGA1021+009001999GA2041+030001999GF104991999999999999999999MA1101901999999REMMET058METAR SBLP 231400Z 09006KT 9999 FEW030 SCT100 30/18 Q1019;
0143832880999992012052315004-13267-043417FM-15+0443SBLP V0200901N003112200019N0112651N1+03001+01801999999ADDGA1021+009001999GA2041+030001999GF104991999999999999999999MA1101801999999REMMET058METAR SBLP 231500Z 09006KT 9999 FEW030 SCT100 30/18 Q1018;
0143832880999992012052316004-13267-043417FM-15+0443SBLP V0202501N003112200019N0112651N1+03001+01801999999ADDGA1021+009001999GA2041+030001999GF104991999999999999999999MA1101691999999REMMET058METAR SBLP 231600Z 25006KT 9999 FEW030 SCT100 30/18 Q1017;
0143832880999992012052317004-13267-043417FM-15+0443SBLP V0202201N001012200019N0112651N1+03001+01701999999ADDGA1021+009001999GA2041+030001999GF104991999999999999999999MA1101591999999REMMET058METAR SBLP 231700Z 22002KT 9999 FEW030 SCT100 30/17 Q1016;
0143832880999992012052318004-13267-043417FM-15+0443SBLP V0203501N001510300019N0112651N1+03201+01701999999ADDGA1041+009001999GA2071+030001999GF107991999999999999999999MA1101491999999REMMET058METAR SBLP 231800Z 35003KT 9999 SCT030 BKN100 32/17 Q1015;
0143832880999992012052319004-13267-043417FM-15+0443SBLP V0201301N005110300019N0112651N1+03101+01801999999ADDGA1041+008101999GA2071+030001999GF107991999999999999999999MA1101491999999REMMET058METAR SBLP 231900Z 13010KT 9999 SCT027 BKN100 31/18 Q1015;
0143832880999992012052320004-13267-043417FM-15+0443SBLP V0200901N004110300019N0112651N1+02901+01801999999ADDGA1021+008101999GA2071+030001999GF107991999999999999999999MA1101591999999REMMET058METAR SBLP 232000Z 09008KT 9999 FEW027 BKN100 29/18 Q1016;
0143832880999992012052321004-13267-043417FM-15+0443SBLP V0201101N004110300019N0112651N1+02801+02001999999ADDGA1021+008101999GA2071+030001999GF107991999999999999999999MA1101591999999REMMET058METAR SBLP 232100Z 11008KT 9999 FEW027 BKN100 28/20 Q1016;
0072832880999992012052410004-13267-043417FM-15+0443SBLP V0209999C000019999999Y0099001N1+01901+01801999999ADDMA1101901999999REMMET045METAR SBLP 241000Z 00000KT CAVOK 19/18 Q1019;
0072832880999992012052411004-13267-043417FM-15+0443SBLP V0209999C000019999999Y0099001N1+01901+01801999999ADDMA1101901999999REMMET045METAR SBLP 241100Z 00000KT CAVOK 19/18 Q1019;
0072832880999992012052412004-13267-043417FM-15+0443SBLP V0209999C000019999999Y0099001N1+02401+01901999999ADDMA1102001999999REMMET045METAR SBLP 241200Z 00000KT CAVOK 24/19 Q1020;
0072832880999992012052413004-13267-043417FM-15+0443SBLP V0200901N003119999999Y0099001N1+02701+02101999999ADDMA1101901999999REMMET045METAR SBLP 241300Z 09006KT CAVOK 27/21 Q1019;
0072832880999992012052414004-13267-043417FM-15+0443SBLP V0202701N003119999999Y0099001N1+03001+02101999999ADDMA1101801999999REMMET045METAR SBLP 241400Z 27006KT CAVOK 30/21 Q1018;
0120832880999992012052416004-13267-043417FM-15+0443SBLP V0201801N003112200019N0112651N1+03201+01801999999ADDGA1021+009001999GF102991999999999999999999MA1101591999999REMMET051METAR SBLP 241600Z 18006KT 9999 FEW030 32/18 Q1016;
0120832880999992012052417004-13267-043417FM-15+0443SBLP V0201801N003112200019N0112651N1+03301+01801999999ADDGA1021+009001999GF102991999999999999999999MA1101491999999REMMET051METAR SBLP 241700Z 18006KT 9999 FEW030 33/18 Q1015;
0120832880999992012052418004-13267-043417FM-15+0443SBLP V0201801N003112200019N0112651N1+03401+01701999999ADDGA1041+009001999GF104991999999999999999999MA1101391999999REMMET051METAR SBLP 241800Z 18006KT 9999 SCT030 34/17 Q1014;
0120832880999992012052419004-13267-043417FM-15+0443SBLP V0201801N003112200019N0112651N1+03401+01701999999ADDGA1021+009001999GF102991999999999999999999MA1101391999999REMMET051METAR SBLP 241900Z 18006KT 9999 FEW030 34/17 Q1014;
0120832880999992012052420004-13267-043417FM-15+0443SBLP V0209999C000012200019N0112651N1+03201+01701999999ADDGA1021+009001999GF102991999999999999999999MA1101391999999REMMET051METAR SBLP 242000Z 00000KT 9999 FEW030 32/17 Q1014;
0120832880999992012052421004-13267-043417FM-15+0443SBLP V0209999C000012200019N0112651N1+03001+01801999999ADDGA1021+009001999GF102991999999999999999999MA1101491999999REMMET051METAR SBLP 242100Z 00000KT 9999 FEW030 30/18 Q1015;
0072832880999992012052511004-13267-043417FM-15+0443SBLP V0209999C000019999999Y0099001N1+02501+01801999999ADDMA1101801999999REMMET045METAR SBLP 251100Z 00000KT CAVOK 25/18 Q1018;
0072832880999992012052512004-13267-043417FM-15+0443SBLP V0209999C000019999999Y0099001N1+02701+01701999999ADDMA1101801999999REMMET045METAR SBLP 251200Z 00000KT CAVOK 27/17 Q1018;
0072832880999992012052513004-13267-043417FM-15+0443SBLP V0209999C000019999999Y0099001N1+02901+01601999999ADDMA1101801999999REMMET045METAR SBLP 251300Z 00000KT CAVOK 29/16 Q1018;
0072832880999992012052514004-13267-043417FM-15+0443SBLP V0209999C000019999999Y0099001N1+03101+01601999999ADDMA1101801999999REMMET045METAR SBLP 251400Z 00000KT CAVOK 31/16 Q1018;
0120832880999992012052515004-13267-043417FM-15+0443SBLP V0201801N003112200019N0112651N1+03201+01601999999ADDGA1021+009001999GF102991999999999999999999MA1101691999999REMMET051METAR SBLP 251500Z 18006KT 9999 FEW030 32/16 Q1017;
0120832880999992012052516004-13267-043417FM-15+0443SBLP V0202101N004112200019N0112651N1+03201+01801999999ADDGA1021+009001999GF102991999999999999999999MA1101591999999REMMET051METAR SBLP 251600Z 21008KT 9999 FEW030 32/18 Q1016;
0120832880999992012052517004-13267-043417FM-15+0443SBLP V0202101N002112200019N0112651N1+03401+01701999999ADDGA1021+009001999GF102991999999999999999999MA1101391999999REMMET051METAR SBLP 251700Z 21004KT 9999 FEW030 34/17 Q1014;
0120832880999992012052518004-13267-043417FM-15+0443SBLP V0202101N003112200019N0112651N1+03501+01801999999ADDGA1041+009001999GF104991999999999999999999MA1101391999999REMMET051METAR SBLP 251800Z 21006KT 9999 SCT030 35/18 Q1014;
0120832880999992012052519004-13267-043417FM-15+0443SBLP V0202101N002112200019N0112651N1+03501+01701999999ADDGA1041+009001999GF104991999999999999999999MA1101391999999REMMET051METAR SBLP 251900Z 21004KT 9999 SCT030 35/17 Q1014;
0120832880999992012052520004-13267-043417FM-15+0443SBLP V0201801N002112200019N0112651N1+03301+01801999999ADDGA1041+009001999GF104991999999999999999999MA1101391999999REMMET051METAR SBLP 252000Z 18004KT 9999 SCT030 33/18 Q1014;
0120832880999992012052521004-13267-043417FM-15+0443SBLP V0200901N002112200019N0112651N1+03101+01601999999ADDGA1041+009001999GF104991999999999999999999MA1101391999999REMMET051METAR SBLP 252100Z 09004KT 9999 SCT030 31/16 Q1014;
0072832880999992012052810004-13267-043417FM-15+0443SBLP V0209999C000019999999Y0099001N1+02401+01901999999ADDMA1101801999999REMMET045METAR SBLP 281000Z 00000KT CAVOK 24/19 Q1018;
0072832880999992012052811004-13267-043417FM-15+0443SBLP V0209999C000019999999Y0099001N1+02501+01801999999ADDMA1101901999999REMMET045METAR SBLP 281100Z 00000KT CAVOK 25/18 Q1019;
0072832880999992012052812004-13267-043417FM-15+0443SBLP V0209999C000019999999Y0099001N1+02801+01801999999ADDMA1101901999999REMMET045METAR SBLP 281200Z 00000KT CAVOK 28/18 Q1019;
0072832880999992012052813004-13267-043417FM-15+0443SBLP V0209999C000019999999Y0099001N1+03001+01701999999ADDMA1101901999999REMMET045METAR SBLP 281300Z 00000KT CAVOK 30/17 Q1019;
0072832880999992012052814004-13267-043417FM-15+0443SBLP V0209999C000019999999Y0099001N1+03201+01701999999ADDMA1101801999999REMMET045METAR SBLP 281400Z 00000KT CAVOK 32/17 Q1018;
0072832880999992012052815004-13267-043417FM-15+0443SBLP V0201801N003119999999Y0099001N1+03201+01701999999ADDMA1101691999999REMMET045METAR SBLP 281500Z 18006KT CAVOK 32/17 Q1017;
0120832880999992012052816004-13267-043417FM-15+0443SBLP V0202501N003112200019N0112651N1+03401+01601999999ADDGA1041+009001999GF104991999999999999999999MA1101591999999REMMET051METAR SBLP 281600Z 25006KT 9999 SCT030 34/16 Q1016;
0120832880999992012052817004-13267-043417FM-15+0443SBLP V0202401N002612200019N0112651N1+03501+01701999999ADDGA1021+009001999GF102991999999999999999999MA1101491999999REMMET051METAR SBLP 281700Z 24005KT 9999 FEW030 35/17 Q1015;
0120832880999992012052818004-13267-043417FM-15+0443SBLP V0201901N001512200019N0112651N1+03501+01601999999ADDGA1021+009001999GF102991999999999999999999MA1101391999999REMMET051METAR SBLP 281800Z 19003KT 9999 FEW030 35/16 Q1014;
0120832880999992012052819004-13267-043417FM-15+0443SBLP V0202401N002112200019N0112651N1+03501+01601999999ADDGA1021+009001999GF102991999999999999999999MA1101391999999REMMET051METAR SBLP 281900Z 24004KT 9999 FEW030 35/16 Q1014;
0120832880999992012052820004-13267-043417FM-15+0443SBLP V0209999C000012200019N0112651N1+03401+01701999999ADDGA1021+009001999GF102991999999999999999999MA1101491999999REMMET051METAR SBLP 282000Z 00000KT 9999 FEW030 34/17 Q1015;
0120832880999992012052821004-13267-043417FM-15+0443SBLP V0209999C000012200019N0112651N1+03101+01901999999ADDGA1021+009001999GF102991999999999999999999MA1101491999999REMMET051METAR SBLP 282100Z 00000KT 9999 FEW030 31/19 Q1015;
0072832880999992012052910004-13267-043417FM-15+0443SBLP V0209999C000019999999Y0099001N1+02201+01901999999ADDMA1101801999999REMMET045METAR SBLP 291000Z 00000KT CAVOK 22/19 Q1018;
0072832880999992012052911004-13267-043417FM-15+0443SBLP V0209999C000019999999Y0099001N1+02401+01901999999ADDMA1101801999999REMMET045METAR SBLP 291100Z 00000KT CAVOK 24/19 Q1018;
0072832880999992012052912004-13267-043417FM-15+0443SBLP V0209999C000019999999Y0099001N1+02701+01801999999ADDMA1101901999999REMMET045METAR SBLP 291200Z 00000KT CAVOK 27/18 Q1019;
0072832880999992012052913004-13267-043417FM-15+0443SBLP V0209999C000019999999Y0099001N1+02901+01701999999ADDMA1101901999999REMMET045METAR SBLP 291300Z 00000KT CAVOK 29/17 Q1019;
0072832880999992012052914004-13267-043417FM-15+0443SBLP V0209999C000019999999Y0099001N1+03101+01601999999ADDMA1101801999999REMMET045METAR SBLP 291400Z 00000KT CAVOK 31/16 Q1018;
0072832880999992012052915004-13267-043417FM-15+0443SBLP V0201801N003119999999Y0099001N1+03201+01601999999ADDMA1101591999999REMMET045METAR SBLP 291500Z 18006KT CAVOK 32/16 Q1016;
0120832880999992012052916004-13267-043417FM-15+0443SBLP V0202101N001512200019N0112651N1+03301+01601999999ADDGA1021+009001999GF102991999999999999999999MA1101591999999REMMET051METAR SBLP 291600Z 21003KT 9999 FEW030 33/16 Q1016;
0120832880999992012052917004-13267-043417FM-15+0443SBLP V0202101N002112200019N0112651N1+03401+01501999999ADDGA1021+009001999GF102991999999999999999999MA1101391999999REMMET051METAR SBLP 291700Z 21004KT 9999 FEW030 34/15 Q1014;
0120832880999992012052918004-13267-043417FM-15+0443SBLP V0202101N001512200019N0112651N1+03501+01401999999ADDGA1021+009001999GF102991999999999999999999MA1101391999999REMMET051METAR SBLP 291800Z 21003KT 9999 FEW030 35/14 Q1014;
0120832880999992012052919004-13267-043417FM-15+0443SBLP V0201801N002612200019N0112651N1+03501+01401999999ADDGA1021+009001999GF102991999999999999999999MA1101391999999REMMET051METAR SBLP 291900Z 18005KT 9999 FEW030 35/14 Q1014;
0072832880999992012052920004-13267-043417FM-15+0443SBLP V0201801N002119999999Y0099001N1+03401+01501999999ADDMA1101391999999REMMET045METAR SBLP 292000Z 18004KT CAVOK 34/15 Q1014;
0072832880999992012052921004-13267-043417FM-15+0443SBLP V0201501N003119999999Y0099001N1+03101+01401999999ADDMA1101391999999REMMET045METAR SBLP 292100Z 15006KT CAVOK 31/14 Q1014;
0072832880999992012053010004-13267-043417FM-15+0443SBLP V0209999C000019999999Y0099001N1+02301+01901999999ADDMA1101591999999REMMET045METAR SBLP 301000Z 00000KT CAVOK 23/19 Q1016;
0072832880999992012053011004-13267-043417FM-15+0443SBLP V0209999C000019999999Y0099001N1+02701+01801999999ADDMA1101691999999REMMET045METAR SBLP 301100Z 00000KT CAVOK 27/18 Q1017;
0072832880999992012053012004-13267-043417FM-15+0443SBLP V0209999C000019999999Y0099001N1+02901+01701999999ADDMA1101801999999REMMET045METAR SBLP 301200Z 00000KT CAVOK 29/17 Q1018;
0072832880999992012053013004-13267-043417FM-15+0443SBLP V0209999C000019999999Y0099001N1+03101+01601999999ADDMA1101801999999REMMET045METAR SBLP 301300Z 00000KT CAVOK 31/16 Q1018;
0072832880999992012053014004-13267-043417FM-15+0443SBLP V0209999C000019999999Y0099001N1+03201+01601999999ADDMA1101591999999REMMET045METAR SBLP 301400Z 00000KT CAVOK 32/16 Q1016;
0120832880999992012053015004-13267-043417FM-15+0443SBLP V0200901N003112200019N0112651N1+03301+01601999999ADDGA1021+009001999GF102991999999999999999999MA1101491999999REMMET051METAR SBLP 301500Z 09006KT 9999 FEW030 33/16 Q1015;
0120832880999992012053016004-13267-043417FM-15+0443SBLP V0202501N002112200019N0112651N1+03401+01201999999ADDGA1021+009001999GF102991999999999999999999MA1101391999999REMMET051METAR SBLP 301600Z 25004KT 9999 FEW030 34/12 Q1014;
0120832880999992012053017004-13267-043417FM-15+0443SBLP V0202101N003112200019N0112651N1+03501+01701999999ADDGA1021+009001999GF102991999999999999999999MA1101291999999REMMET051METAR SBLP 301700Z 21006KT 9999 FEW030 35/17 Q1013;
0120832880999992012053018004-13267-043417FM-15+0443SBLP V0202401N003112200019N0112651N1+03501+01501999999ADDGA1021+009001999GF102991999999999999999999MA1101291999999REMMET051METAR SBLP 301800Z 24006KT 9999 FEW030 35/15 Q1013;
0120832880999992012053019004-13267-043417FM-15+0443SBLP V0201801N002612200019N0112651N1+03501+01601999999ADDGA1041+009001999GF104991999999999999999999MA1101191999999REMMET051METAR SBLP 301900Z 18005KT 9999 SCT030 35/16 Q1012;
0120832880999992012053020004-13267-043417FM-15+0443SBLP V0201801N002112200019N0112651N1+03301+01501999999ADDGA1041+009001999GF104991999999999999999999MA1101291999999REMMET051METAR SBLP 302000Z 18004KT 9999 SCT030 33/15 Q1013;
0120832880999992012053021004-13267-043417FM-15+0443SBLP V0201801N002112200019N0112651N1+03101+01701999999ADDGA1041+009001999GF104991999999999999999999MA1101391999999REMMET051METAR SBLP 302100Z 18004KT 9999 SCT030 31/17 Q1014;
0072832880999992012053110004-13267-043417FM-15+0443SBLP V0209999C000019999999Y0099001N1+02401+01801999999ADDMA1101801999999REMMET045METAR SBLP 311000Z 00000KT CAVOK 24/18 Q1018;
0072832880999992012053111004-13267-043417FM-15+0443SBLP V0209999C000019999999Y0099001N1+02601+01701999999ADDMA1101901999999REMMET045METAR SBLP 311100Z 00000KT CAVOK 26/17 Q1019;
0072832880999992012053112004-13267-043417FM-15+0443SBLP V0209999C000019999999Y0099001N1+02801+01801999999ADDMA1101901999999REMMET045METAR SBLP 311200Z 00000KT CAVOK 28/18 Q1019;
0072832880999992012053113004-13267-043417FM-15+0443SBLP V0209999C000019999999Y0099001N1+03001+01501999999ADDMA1101901999999REMMET045METAR SBLP 311300Z 00000KT CAVOK 30/15 Q1019;
0072832880999992012053114004-13267-043417FM-15+0443SBLP V0209999C000019999999Y0099001N1+03201+01501999999ADDMA1101801999999REMMET045METAR SBLP 311400Z 00000KT CAVOK 32/15 Q1018;
0120832880999992012053115004-13267-043417FM-15+0443SBLP V0201801N003112200019N0112651N1+03301+01501999999ADDGA1021+009001999GF102991999999999999999999MA1101591999999REMMET051METAR SBLP 311500Z 18006KT 9999 FEW030 33/15 Q1016;
0120832880999992012053116004-13267-043417FM-15+0443SBLP V0201801N001512200019N0112651N1+03401+01601999999ADDGA1021+009001999GF102991999999999999999999MA1101491999999REMMET051METAR SBLP 311600Z 18003KT 9999 FEW030 34/16 Q1015;
0120832880999992012053117004-13267-043417FM-15+0443SBLP V0202701N002112200019N0112651N1+03501+01601999999ADDGA1021+009001999GF102991999999999999999999MA1101391999999REMMET051METAR SBLP 311700Z 27004KT 9999 FEW030 35/16 Q1014;
0120832880999992012053118004-13267-043417FM-15+0443SBLP V0202101N002612200019N0112651N1+03501+01401999999ADDGA1021+009001999GF102991999999999999999999MA1101391999999REMMET051METAR SBLP 311800Z 21005KT 9999 FEW030 35/14 Q1014;
0120832880999992012053119004-13267-043417FM-15+0443SBLP V0202301N001512200019N0112651N1+03501+01401999999ADDGA1021+009001999GF102991999999999999999999MA1101391999999REMMET051METAR SBLP 311900Z 23003KT 9999 FEW030 35/14 Q1014;
0120832880999992012053120004-13267-043417FM-15+0443SBLP V0201901N002112200019N0112651N1+03501+01601999999ADDGA1021+009001999GF102991999999999999999999MA1101391999999REMMET051METAR SBLP 312000Z 19004KT 9999 FEW030 35/16 Q1014;
0120832880999992012053121004-13267-043417FM-15+0443SBLP V0201801N001512200019N0112651N1+03101+01601999999ADDGA1021+009001999GF102991999999999999999999MA1101391999999REMMET051METAR SBLP 312100Z 18003KT 9999 FEW030 31/16 Q1014;
0072832880999992012060110004-13267-043417FM-15+0443SBLP V0209999C000019999999Y0099001N1+02001+01601999999ADDMA1101801999999REMMET045METAR SBLP 011000Z 00000KT CAVOK 20/16 Q1018;
0072832880999992012060111004-13267-043417FM-15+0443SBLP V0201301N002119999999Y0099001N1+02401+01601999999ADDMA1101901999999REMMET045METAR SBLP 011100Z 13004KT CAVOK 24/16 Q1019;
0072832880999992012060112004-13267-043417FM-15+0443SBLP V0200701N001519999999Y0099001N1+02801+01601999999ADDMA1102001999999REMMET045METAR SBLP 011200Z 07003KT CAVOK 28/16 Q1020;
0072832880999992012060113004-13267-043417FM-15+0443SBLP V0209999C000019999999Y0099001N1+03201+01601999999ADDMA1102001999999REMMET045METAR SBLP 011300Z 00000KT CAVOK 32/16 Q1020;
0072832880999992012060114004-13267-043417FM-15+0443SBLP V0201501N003119999999Y0099001N1+03301+01601999999ADDMA1101901999999REMMET045METAR SBLP 011400Z 15006KT CAVOK 33/16 Q1019;
0120832880999992012060115004-13267-043417FM-15+0443SBLP V0200901N002112200019N0112651N1+03401+01501999999ADDGA1021+009001999GF102991999999999999999999MA1101801999999REMMET051METAR SBLP 011500Z 09004KT 9999 FEW030 34/15 Q1018;
0155832880999992012060116004-13267-043417FM-15+0443SBLP V0209999C000012200019N0112651N1+99999+02001999999ADDGA1021+009001999GF102991999999999999999999MA1101591999999REMMET051METAR SBLP 011600Z 00000KT 9999 FEW030 24/20 Q1016;EQDQ01+002403ATOT  Q02 +02403ATOT  
0120832880999992012060117004-13267-043417FM-15+0443SBLP V0209999C000012200019N0112651N1+03501+01501999999ADDGA1041+009001999GF104991999999999999999999MA1101491999999REMMET051METAR SBLP 011700Z 00000KT 9999 SCT030 35/15 Q1015;
0120832880999992012060118004-13267-043417FM-15+0443SBLP V0209999C000012200019N0112651N1+03601+01501999999ADDGA1041+009001999GF104991999999999999999999MA1101491999999REMMET051METAR SBLP 011800Z 00000KT 9999 SCT030 36/15 Q1015;
0120832880999992012060119004-13267-043417FM-15+0443SBLP V0209999C000012200019N0112651N1+03501+01501999999ADDGA1041+009001999GF104991999999999999999999MA1101491999999REMMET051METAR SBLP 011900Z 00000KT 9999 SCT030 35/15 Q1015;
0120832880999992012060120004-13267-043417FM-15+0443SBLP V0209999C000012200019N0112651N1+03401+01501999999ADDGA1021+009001999GF102991999999999999999999MA1101491999999REMMET051METAR SBLP 012000Z 00000KT 9999 FEW030 34/15 Q1015;
0120832880999992012060121004-13267-043417FM-15+0443SBLP V0209999C000012200019N0112651N1+03201+01601999999ADDGA1021+009001999GF102991999999999999999999MA1101491999999REMMET051METAR SBLP 012100Z 00000KT 9999 FEW030 32/16 Q1015;
0072832880999992012060410004-13267-043417FM-15+0443SBLP V0209999C000019999999Y0099001N1+02301+01801999999ADDMA1101691999999REMMET045METAR SBLP 041000Z 00000KT CAVOK 23/18 Q1017;
0072832880999992012060411004-13267-043417FM-15+0443SBLP V0209999C000019999999Y0099001N1+02401+01801999999ADDMA1101801999999REMMET045METAR SBLP 041100Z 00000KT CAVOK 24/18 Q1018;
0072832880999992012060412004-13267-043417FM-15+0443SBLP V0209999C000019999999Y0099001N1+02701+01701999999ADDMA1101801999999REMMET045METAR SBLP 041200Z 00000KT CAVOK 27/17 Q1018;
0072832880999992012060413004-13267-043417FM-15+0443SBLP V0209999C000019999999Y0099001N1+02901+01701999999ADDMA1101691999999REMMET045METAR SBLP 041300Z 00000KT CAVOK 29/17 Q1017;
0072832880999992012060414004-13267-043417FM-15+0443SBLP V0209999C000019999999Y0099001N1+03101+01701999999ADDMA1101691999999REMMET045METAR SBLP 041400Z 00000KT CAVOK 31/17 Q1017;
0120832880999992012060415004-13267-043417FM-15+0443SBLP V0201801N003112200019N0112651N1+03201+01601999999ADDGA1021+009001999GF102991999999999999999999MA1101491999999REMMET051METAR SBLP 041500Z 18006KT 9999 FEW030 32/16 Q1015;
0120832880999992012060416004-13267-043417FM-15+0443SBLP V0202401N001512200019N0112651N1+03401+01501999999ADDGA1021+009001999GF102991999999999999999999MA1101391999999REMMET051METAR SBLP 041600Z 24003KT 9999 FEW030 34/15 Q1014;
0120832880999992012060417004-13267-043417FM-15+0443SBLP V0203001N001012200019N0112651N1+03501+01601999999ADDGA1021+009001999GF102991999999999999999999MA1101291999999REMMET051METAR SBLP 041700Z 30002KT 9999 FEW030 35/16 Q1013;
0120832880999992012060418004-13267-043417FM-15+0443SBLP V0203001N002612200019N0112651N1+03601+01501999999ADDGA1021+009001999GF102991999999999999999999MA1101291999999REMMET051METAR SBLP 041800Z 30005KT 9999 FEW030 36/15 Q1013;
0120832880999992012060419004-13267-043417FM-15+0443SBLP V0202701N001512200019N0112651N1+03601+01501999999ADDGA1021+009001999GF102991999999999999999999MA1101291999999REMMET051METAR SBLP 041900Z 27003KT 9999 FEW030 36/15 Q1013;
0120832880999992012060420004-13267-043417FM-15+0443SBLP V0203301N001512200019N0112651N1+03501+01601999999ADDGA1021+009001999GF102991999999999999999999MA1101291999999REMMET051METAR SBLP 042000Z 33003KT 9999 FEW030 35/16 Q1013;
0120832880999992012060421004-13267-043417FM-15+0443SBLP V0203601N002112200019N0112651N1+03201+01701999999ADDGA1021+009001999GF102991999999999999999999MA1101291999999REMMET051METAR SBLP 042100Z 36004KT 9999 FEW030 32/17 Q1013;
0072832880999992012060510004-13267-043417FM-15+0443SBLP V0209999C000019999999Y0099001N1+02201+01701999999ADDMA1101691999999REMMET045METAR SBLP 051000Z 00000KT CAVOK 22/17 Q1017;
0072832880999992012060511004-13267-043417FM-15+0443SBLP V0209999C000019999999Y0099001N1+02501+01401999999ADDMA1101801999999REMMET045METAR SBLP 051100Z 00000KT CAVOK 25/14 Q1018;
0072832880999992012060512004-13267-043417FM-15+0443SBLP V0200601N002119999999Y0099001N1+02901+01501999999ADDMA1101901999999REMMET045METAR SBLP 051200Z 06004KT CAVOK 29/15 Q1019;
0072832880999992012060513004-13267-043417FM-15+0443SBLP V0203601N003119999999Y0099001N1+03001+01501999999ADDMA1101901999999REMMET045METAR SBLP 051300Z 36006KT CAVOK 30/15 Q1019;
0072832880999992012060514004-13267-043417FM-15+0443SBLP V0202101N003119999999Y0099001N1+03101+01901999999ADDMA1101801999999REMMET045METAR SBLP 051400Z 21006KT CAVOK 31/19 Q1018;
0120832880999992012060515004-13267-043417FM-15+0443SBLP V0202101N002112200019N0112651N1+03301+01601999999ADDGA1021+009001999GF102991999999999999999999MA1101691999999REMMET051METAR SBLP 051500Z 21004KT 9999 FEW030 33/16 Q1017;
0120832880999992012060516004-13267-043417FM-15+0443SBLP V0201801N003112200019N0112651N1+03401+01501999999ADDGA1021+009001999GF102991999999999999999999MA1101491999999REMMET051METAR SBLP 051600Z 18006KT 9999 FEW030 34/15 Q1015;
0120832880999992012060517004-13267-043417FM-15+0443SBLP V0201801N003112200019N0112651N1+03401+01501999999ADDGA1041+009001999GF104991999999999999999999MA1101391999999REMMET051METAR SBLP 051700Z 18006KT 9999 SCT030 34/15 Q1014;
0120832880999992012060518004-13267-043417FM-15+0443SBLP V0201801N003112200019N0112651N1+03601+01501999999ADDGA1041+009001999GF104991999999999999999999MA1101391999999REMMET051METAR SBLP 051800Z 18006KT 9999 SCT030 36/15 Q1014;
0120832880999992012060519004-13267-043417FM-15+0443SBLP V0201801N003112200019N0112651N1+03501+01501999999ADDGA1041+009001999GF104991999999999999999999MA1101291999999REMMET051METAR SBLP 051900Z 18006KT 9999 SCT030 35/15 Q1013;
0120832880999992012060520004-13267-043417FM-15+0443SBLP V0209999C000012200019N0112651N1+03401+01601999999ADDGA1021+009001999GF102991999999999999999999MA1101391999999REMMET051METAR SBLP 052000Z 00000KT 9999 FEW030 34/16 Q1014;
0120832880999992012060521004-13267-043417FM-15+0443SBLP V0209999C000012200019N0112651N1+03201+01601999999ADDGA1021+009001999GF102991999999999999999999MA1101391999999REMMET051METAR SBLP 052100Z 00000KT 9999 FEW030 32/16 Q1014;
0072832880999992012060610004-13267-043417FM-15+0443SBLP V0209999C000019999999Y0099001N1+02301+01801999999ADDMA1101801999999REMMET045METAR SBLP 061000Z 00000KT CAVOK 23/18 Q1018;
0072832880999992012060611004-13267-043417FM-15+0443SBLP V0209999C000019999999Y0099001N1+02501+01801999999ADDMA1101901999999REMMET045METAR SBLP 061100Z 00000KT CAVOK 25/18 Q1019;
0072832880999992012060612004-13267-043417FM-15+0443SBLP V0209999C000019999999Y0099001N1+02701+01701999999ADDMA1101901999999REMMET045METAR SBLP 061200Z 00000KT CAVOK 27/17 Q1019;
0072832880999992012060613004-13267-043417FM-15+0443SBLP V0209999C000019999999Y0099001N1+02901+01701999999ADDMA1102001999999REMMET045METAR SBLP 061300Z 00000KT CAVOK 29/17 Q1020;
0072832880999992012060614004-13267-043417FM-15+0443SBLP V0209999C000019999999Y0099001N1+03101+01601999999ADDMA1101901999999REMMET045METAR SBLP 061400Z 00000KT CAVOK 31/16 Q1019;
0072832880999992012060615004-13267-043417FM-15+0443SBLP V0201801N003119999999Y0099001N1+03201+01601999999ADDMA1101801999999REMMET045METAR SBLP 061500Z 18006KT CAVOK 32/16 Q1018;
0120832880999992012060616004-13267-043417FM-15+0443SBLP V0202101N003112200019N0112651N1+03301+01601999999ADDGA1021+009001999GF102991999999999999999999MA1101691999999REMMET051METAR SBLP 061600Z 21006KT 9999 FEW030 33/16 Q1017;
0120832880999992012060617004-13267-043417FM-15+0443SBLP V0202101N001512200019N0112651N1+03501+01401999999ADDGA1021+009001999GF102991999999999999999999MA1101591999999REMMET051METAR SBLP 061700Z 21003KT 9999 FEW030 35/14 Q1016;
0120832880999992012060618004-13267-043417FM-15+0443SBLP V0202101N002612200019N0112651N1+03501+01401999999ADDGA1021+009001999GF102991999999999999999999MA1101491999999REMMET051METAR SBLP 061800Z 21005KT 9999 FEW030 35/14 Q1015;
0072832880999992012060619004-13267-043417FM-15+0443SBLP V0201801N001519999999Y0099001N1+03501+01401999999ADDMA1101391999999REMMET045METAR SBLP 061900Z 18003KT CAVOK 35/14 Q1014;
0072832880999992012060620004-13267-043417FM-15+0443SBLP V0201201N003119999999Y0099001N1+03501+01501999999ADDMA1101491999999REMMET045METAR SBLP 062000Z 12006KT CAVOK 35/15 Q1015;
0072832880999992012060621004-13267-043417FM-15+0443SBLP V0201501N003119999999Y0099001N1+03301+01201999999ADDMA1101491999999REMMET045METAR SBLP 062100Z 15006KT CAVOK 33/12 Q1015;
0072832880999992012060710004-13267-043417FM-15+0443SBLP V0201201N001519999999Y0099001N1+01901+01401999999ADDMA1101801999999REMMET045METAR SBLP 071000Z 12003KT CAVOK 19/14 Q1018;
0072832880999992012060711004-13267-043417FM-15+0443SBLP V0209999C000019999999Y0099001N1+02301+01501999999ADDMA1101901999999REMMET045METAR SBLP 071100Z 00000KT CAVOK 23/15 Q1019;
0072832880999992012060712004-13267-043417FM-15+0443SBLP V0200701N003119999999Y0099001N1+02701+01501999999ADDMA1101901999999REMMET045METAR SBLP 071200Z 07006KT CAVOK 27/15 Q1019;
0072832880999992012060713004-13267-043417FM-15+0443SBLP V0200901N003119999999Y0099001N1+03001+01501999999ADDMA1101801999999REMMET045METAR SBLP 071300Z 09006KT CAVOK 30/15 Q1018;
0072832880999992012060714004-13267-043417FM-15+0443SBLP V0209999C000019999999Y0099001N1+03101+01401999999ADDMA1101801999999REMMET045METAR SBLP 071400Z 00000KT CAVOK 31/14 Q1018;
0072832880999992012060715004-13267-043417FM-15+0443SBLP V0201801N002619999999Y0099001N1+03101+01501999999ADDMA1101691999999REMMET045METAR SBLP 071500Z 18005KT CAVOK 31/15 Q1017;
0072832880999992012060716004-13267-043417FM-15+0443SBLP V0201801N003119999999Y0099001N1+03201+01501999999ADDMA1101591999999REMMET045METAR SBLP 071600Z 18006KT CAVOK 32/15 Q1016;
0072832880999992012060717004-13267-043417FM-15+0443SBLP V0201801N003119999999Y0099001N1+03301+01501999999ADDMA1101391999999REMMET045METAR SBLP 071700Z 18006KT CAVOK 33/15 Q1014;
0072832880999992012060718004-13267-043417FM-15+0443SBLP V0201801N003119999999Y0099001N1+03401+01501999999ADDMA1101391999999REMMET045METAR SBLP 071800Z 18006KT CAVOK 34/15 Q1014;
0072832880999992012060719004-13267-043417FM-15+0443SBLP V0209999C000019999999Y0099001N1+03401+01501999999ADDMA1101391999999REMMET045METAR SBLP 071900Z 00000KT CAVOK 34/15 Q1014;
0072832880999992012060720004-13267-043417FM-15+0443SBLP V0209999C000019999999Y0099001N1+03401+01501999999ADDMA1101391999999REMMET045METAR SBLP 072000Z 00000KT CAVOK 34/15 Q1014;
0072832880999992012060721004-13267-043417FM-15+0443SBLP V0209999C000019999999Y0099001N1+03101+01601999999ADDMA1101391999999REMMET045METAR SBLP 072100Z 00000KT CAVOK 31/16 Q1014;
0072832880999992012060810004-13267-043417FM-15+0443SBLP V0209999C000019999999Y0099001N1+02301+01801999999ADDMA1101591999999REMMET045METAR SBLP 081000Z 00000KT CAVOK 23/18 Q1016;
0072832880999992012060811004-13267-043417FM-15+0443SBLP V0209999C000019999999Y0099001N1+02501+01701999999ADDMA1101691999999REMMET045METAR SBLP 081100Z 00000KT CAVOK 25/17 Q1017;
0072832880999992012060812004-13267-043417FM-15+0443SBLP V0209999C000019999999Y0099001N1+02801+01601999999ADDMA1101691999999REMMET045METAR SBLP 081200Z 00000KT CAVOK 28/16 Q1017;
0072832880999992012060813004-13267-043417FM-15+0443SBLP V0209999C000019999999Y0099001N1+03001+01501999999ADDMA1101691999999REMMET045METAR SBLP 081300Z 00000KT CAVOK 30/15 Q1017;
0072832880999992012060814004-13267-043417FM-15+0443SBLP V0209999C000019999999Y0099001N1+03001+01501999999ADDMA1101691999999REMMET045METAR SBLP 081400Z 00000KT CAVOK 30/15 Q1017;
0072832880999992012060815004-13267-043417FM-15+0443SBLP V0201801N003119999999Y0099001N1+03101+01501999999ADDMA1101591999999REMMET045METAR SBLP 081500Z 18006KT CAVOK 31/15 Q1016;
0120832880999992012060816004-13267-043417FM-15+0443SBLP V0202401N003112200019N0112651N1+03201+01701999999ADDGA1021+009001999GF102991999999999999999999MA1101491999999REMMET051METAR SBLP 081600Z 24006KT 9999 FEW030 32/17 Q1015;
0120832880999992012060817004-13267-043417FM-15+0443SBLP V0201801N004112200019N0112651N1+03301+01501999999ADDGA1021+009001999GF102991999999999999999999MA1101391999999REMMET051METAR SBLP 081700Z 18008KT 9999 FEW030 33/15 Q1014;
0120832880999992012060818004-13267-043417FM-15+0443SBLP V0201601N002612200019N0112651N1+03401+01401999999ADDGA1021+009001999GF102991999999999999999999MA1101291999999REMMET051METAR SBLP 081800Z 16005KT 9999 FEW030 34/14 Q1013;
0120832880999992012060819004-13267-043417FM-15+0443SBLP V0202101N003112200019N0112651N1+03501+01401999999ADDGA1021+009001999GF102991999999999999999999MA1101291999999REMMET051METAR SBLP 081900Z 21006KT 9999 FEW030 35/14 Q1013;
0072832880999992012060820004-13267-043417FM-15+0443SBLP V0201901N002619999999Y0099001N1+03301+01601999999ADDMA1101291999999REMMET045METAR SBLP 082000Z 19005KT CAVOK 33/16 Q1013;
0072832880999992012060821004-13267-043417FM-15+0443SBLP V0201801N002619999999Y0099001N1+02901+01701999999ADDMA1101291999999REMMET045METAR SBLP 082100Z 18005KT CAVOK 29/17 Q1013;
0072832880999992012061110004-13267-043417FM-15+0443SBLP V0209999C000019999999Y0099001N1+02301+01801999999ADDMA1101901999999REMMET045METAR SBLP 111000Z 00000KT CAVOK 23/18 Q1019;
0072832880999992012061111004-13267-043417FM-15+0443SBLP V0209999C000019999999Y0099001N1+02501+01701999999ADDMA1102001999999REMMET045METAR SBLP 111100Z 00000KT CAVOK 25/17 Q1020;
0072832880999992012061112004-13267-043417FM-15+0443SBLP V0209999C000019999999Y0099001N1+02701+01601999999ADDMA1102001999999REMMET045METAR SBLP 111200Z 00000KT CAVOK 27/16 Q1020;
0072832880999992012061113004-13267-043417FM-15+0443SBLP V0209999C000019999999Y0099001N1+02901+01601999999ADDMA1101901999999REMMET045METAR SBLP 111300Z 00000KT CAVOK 29/16 Q1019;
0120832880999992012061114004-13267-043417FM-15+0443SBLP V0209999C000012200019N0112651N1+03001+01501999999ADDGA1021+009001999GF102991999999999999999999MA1101801999999REMMET051METAR SBLP 111400Z 00000KT 9999 FEW030 30/15 Q1018;
0120832880999992012061115004-13267-043417FM-15+0443SBLP V0200901N003112200019N0112651N1+03101+01501999999ADDGA1021+009001999GF102991999999999999999999MA1101691999999REMMET051METAR SBLP 111500Z 09006KT 9999 FEW030 31/15 Q1017;
0120832880999992012061116004-13267-043417FM-15+0443SBLP V0201501N003112200019N0112651N1+03201+01601999999ADDGA1021+009001999GF102991999999999999999999MA1101591999999REMMET051METAR SBLP 111600Z 15006KT 9999 FEW030 32/16 Q1016;
0120832880999992012061118004-13267-043417FM-15+0443SBLP V0200901N001512200019N0112651N1+03301+01101999999ADDGA1021+009001999GF102991999999999999999999MA1101391999999REMMET051METAR SBLP 111800Z 09003KT 9999 FEW030 33/11 Q1014;
0120832880999992012061119004-13267-043417FM-15+0443SBLP V0201201N001512200019N0112651N1+03301+01201999999ADDGA1021+009001999GF102991999999999999999999MA1101391999999REMMET051METAR SBLP 111900Z 12003KT 9999 FEW030 33/12 Q1014;
0120832880999992012061120004-13267-043417FM-15+0443SBLP V0201101N003112200019N0112651N1+03201+01101999999ADDGA1021+009001999GF102991999999999999999999MA1101391999999REMMET051METAR SBLP 112000Z 11006KT 9999 FEW030 32/11 Q1014;
0072832880999992012061212004-13267-043417FM-15+0443SBLP V0209999C000019999999Y0099001N1+02701+01601999999ADDMA1101901999999REMMET045METAR SBLP 121200Z 00000KT CAVOK 27/16 Q1019;
0120832880999992012061214004-13267-043417FM-15+0443SBLP V0201801N003112200019N0112651N1+03001+01601999999ADDGA1021+009001999GF102991999999999999999999MA1101691999999REMMET051METAR SBLP 121400Z 18006KT 9999 FEW030 30/16 Q1017;
0120832880999992012061215004-13267-043417FM-15+0443SBLP V0201801N003112200019N0112651N1+03001+01601999999ADDGA1021+009001999GF102991999999999999999999MA1101591999999REMMET051METAR SBLP 121500Z 18006KT 9999 FEW030 30/16 Q1016;
0120832880999992012061216004-13267-043417FM-15+0443SBLP V0201801N003112200019N0112651N1+03101+01501999999ADDGA1021+009001999GF102991999999999999999999MA1101491999999REMMET051METAR SBLP 121600Z 18006KT 9999 FEW030 31/15 Q1015;
0120832880999992012061217004-13267-043417FM-15+0443SBLP V0201901N003112200019N0112651N1+03201+01401999999ADDGA1041+009001999GF104991999999999999999999MA1101391999999REMMET051METAR SBLP 121700Z 19006KT 9999 SCT030 32/14 Q1014;
0120832880999992012061218004-13267-043417FM-15+0443SBLP V0201801N001512200019N0112651N1+03201+01601999999ADDGA1021+009001999GF102991999999999999999999MA1101391999999REMMET051METAR SBLP 121800Z 18003KT 9999 FEW030 32/16 Q1014;
0120832880999992012061219004-13267-043417FM-15+0443SBLP V0202101N002112200019N0112651N1+03301+01501999999ADDGA1021+009001999GF102991999999999999999999MA1101291999999REMMET051METAR SBLP 121900Z 21004KT 9999 FEW030 33/15 Q1013;
0120832880999992012061220004-13267-043417FM-15+0443SBLP V0209999C000012200019N0112651N1+03301+01501999999ADDGA1021+009001999GF102991999999999999999999MA1101291999999REMMET051METAR SBLP 122000Z 00000KT 9999 FEW030 33/15 Q1013;
0120832880999992012061221004-13267-043417FM-15+0443SBLP V0201801N001512200019N0112651N1+03001+01501999999ADDGA1021+008101999GF102991999999999999999999MA1101391999999REMMET051METAR SBLP 122100Z 18003KT 9999 FEW027 30/15 Q1014;
0143832880999992012061310004-13267-043417FM-15+0443SBLP V0209999C000010300019N0112651N1+02201+01901999999ADDGA1021+006001999GA2071+030001999GF107991999999999999999999MA1101801999999REMMET058METAR SBLP 131000Z 00000KT 9999 FEW020 BKN100 22/19 Q1018;
0143832880999992012061311004-13267-043417FM-15+0443SBLP V0209999C000010300019N0112651N1+02401+01801999999ADDGA1021+006001999GA2071+030001999GF107991999999999999999999MA1101901999999REMMET058METAR SBLP 131100Z 00000KT 9999 FEW020 BKN100 24/18 Q1019;
0143832880999992012061312004-13267-043417FM-15+0443SBLP V0209999C000010300019N0112651N1+02601+01801999999ADDGA1021+006001999GA2071+030001999GF107991999999999999999999MA1102001999999REMMET058METAR SBLP 131200Z 00000KT 9999 FEW020 BKN100 26/18 Q1020;
0143832880999992012061313004-13267-043417FM-15+0443SBLP V0209999C000010300019N0112651N1+02601+01801999999ADDGA1041+006001999GA2071+030001999GF107991999999999999999999MA1102001999999REMMET058METAR SBLP 131300Z 00000KT 9999 SCT020 BKN100 26/18 Q1020;
0143832880999992012061314004-13267-043417FM-15+0443SBLP V0200901N003110300019N0112651N1+02701+01701999999ADDGA1041+006001999GA2071+030001999GF107991999999999999999999MA1101901999999REMMET058METAR SBLP 131400Z 09006KT 9999 SCT020 BKN100 27/17 Q1019;
0143832880999992012061315004-13267-043417FM-15+0443SBLP V0200901N003110300019N0112651N1+02801+01701999999ADDGA1041+006001999GA2071+030001999GF107991999999999999999999MA1101801999999REMMET058METAR SBLP 131500Z 09006KT 9999 SCT020 BKN100 28/17 Q1018;
0143832880999992012061316004-13267-043417FM-15+0443SBLP V0201201N003112200019N0112651N1+03201+02001999999ADDGA1021+006001999GA2041+030001999GF104991999999999999999999MA1101801999999REMMET058METAR SBLP 131600Z 12006KT 9999 FEW020 SCT100 32/20 Q1018;
0143832880999992012061317004-13267-043417FM-15+0443SBLP V0200901N003112200019N0112651N1+03201+02001999999ADDGA1021+006001999GA2041+030001999GF104991999999999999999999MA1101591999999REMMET058METAR SBLP 131700Z 09006KT 9999 FEW020 SCT100 32/20 Q1016;
0143832880999992012061318004-13267-043417FM-15+0443SBLP V0201201N005112200019N0112651N1+03201+02201999999ADDGA1021+006001999GA2041+030001999GF104991999999999999999999MA1101491999999REMMET058METAR SBLP 131800Z 12010KT 9999 FEW020 SCT100 32/22 Q1015;
0143832880999992012061319004-13267-043417FM-15+0443SBLP V0200901N003110300019N0112651N1+03101+02201999999ADDGA1021+006001999GA2071+030001999GF107991999999999999999999MA1101491999999REMMET058METAR SBLP 131900Z 09006KT 9999 FEW020 BKN100 31/22 Q1015;
0072832880999992012061320004-13267-043417FM-15+0443SBLP V0200901N003119999999Y0099001N1+02901+02201999999ADDMA1101491999999REMMET045METAR SBLP 132000Z 09006KT CAVOK 29/22 Q1015;
0072832880999992012061321004-13267-043417FM-15+0443SBLP V0209999C000019999999Y0099001N1+02901+02201999999ADDMA1101591999999REMMET045METAR SBLP 132100Z 00000KT CAVOK 29/22 Q1016;
0072832880999992012061410004-13267-043417FM-15+0443SBLP V0209999C000019999999Y0099001N1+02301+01701999999ADDMA1101801999999REMMET045METAR SBLP 141000Z 00000KT CAVOK 23/17 Q1018;
0072832880999992012061411004-13267-043417FM-15+0443SBLP V0209999C000019999999Y0099001N1+02501+01601999999ADDMA1101901999999REMMET045METAR SBLP 141100Z 00000KT CAVOK 25/16 Q1019;
0072832880999992012061412004-13267-043417FM-15+0443SBLP V0209999C000019999999Y0099001N1+02701+01501999999ADDMA1101901999999REMMET045METAR SBLP 141200Z 00000KT CAVOK 27/15 Q1019;
0072832880999992012061413004-13267-043417FM-15+0443SBLP V0209999C000019999999Y0099001N1+03001+01401999999ADDMA1101901999999REMMET045METAR SBLP 141300Z 00000KT CAVOK 30/14 Q1019;
0072832880999992012061414004-13267-043417FM-15+0443SBLP V0209999C000019999999Y0099001N1+03101+01301999999ADDMA1101801999999REMMET045METAR SBLP 141400Z 00000KT CAVOK 31/13 Q1018;
0072832880999992012061415004-13267-043417FM-15+0443SBLP V0200901N003119999999Y0099001N1+03201+01301999999ADDMA1101591999999REMMET045METAR SBLP 141500Z 09006KT CAVOK 32/13 Q1016;
0120832880999992012061416004-13267-043417FM-15+0443SBLP V0201201N004112200019N0112651N1+03301+01501999999ADDGA1021+009001999GF102991999999999999999999MA1101591999999REMMET051METAR SBLP 141600Z 12008KT 9999 FEW030 33/15 Q1016;
0120832880999992012061417004-13267-043417FM-15+0443SBLP V0200901N003112200019N0112651N1+03401+01501999999ADDGA1021+009001999GF102991999999999999999999MA1101391999999REMMET051METAR SBLP 141700Z 09006KT 9999 FEW030 34/15 Q1014;
0120832880999992012061418004-13267-043417FM-15+0443SBLP V0201201N005112200019N0112651N1+03401+01501999999ADDGA1041+009001999GF104991999999999999999999MA1101391999999REMMET051METAR SBLP 141800Z 12010KT 9999 SCT030 34/15 Q1014;
0120832880999992012061419004-13267-043417FM-15+0443SBLP V0201401N005112200019N0112651N1+03401+01401999999ADDGA1041+009001999GF104991999999999999999999MA1101391999999REMMET051METAR SBLP 141900Z 14010KT 9999 SCT030 34/14 Q1014;
0120832880999992012061420004-13267-043417FM-15+0443SBLP V0200601N004112200019N0112651N1+03301+01501999999ADDGA1041+009001999GF104991999999999999999999MA1101391999999REMMET051METAR SBLP 142000Z 06008KT 9999 SCT030 33/15 Q1014;
0123832880999992012061421004-13267-043417FM-15+0443SBLP V0201201N007712200019N0080001N1+02501+01901999999ADDGA1041+009001999GF104991999999999999999999MA1101501999999REMMET054METAR SBLP 142100Z 12015KT 8000 60 SCT030 25/19 Q1015;
0072832880999992012061510004-13267-043417FM-15+0443SBLP V0201201N001519999999Y0099001N1+01901+01601999999ADDMA1101801999999REMMET045METAR SBLP 151000Z 12003KT CAVOK 19/16 Q1018;
0072832880999992012061511004-13267-043417FM-15+0443SBLP V0209999C000019999999Y0099001N1+02201+01701999999ADDMA1101901999999REMMET045METAR SBLP 151100Z 00000KT CAVOK 22/17 Q1019;
0072832880999992012061512004-13267-043417FM-15+0443SBLP V0209999C000019999999Y0099001N1+02501+01801999999ADDMA1101901999999REMMET045METAR SBLP 151200Z 00000KT CAVOK 25/18 Q1019;
0072832880999992012061513004-13267-043417FM-15+0443SBLP V0209999C000019999999Y0099001N1+02701+01501999999ADDMA1101901999999REMMET045METAR SBLP 151300Z 00000KT CAVOK 27/15 Q1019;
0072832880999992012061514004-13267-043417FM-15+0443SBLP V0201201N003119999999Y0099001N1+02901+01501999999ADDMA1101801999999REMMET045METAR SBLP 151400Z 12006KT CAVOK 29/15 Q1018;
0120832880999992012061515004-13267-043417FM-15+0443SBLP V0201301N002112200019N0112651N1+03101+01401999999ADDGA1021+009001999GF102991999999999999999999MA1101691999999REMMET051METAR SBLP 151500Z 13004KT 9999 FEW030 31/14 Q1017;
0120832880999992012061516004-13267-043417FM-15+0443SBLP V0201801N003112200019N0112651N1+03101+01501999999ADDGA1021+009001999GF102991999999999999999999MA1101491999999REMMET051METAR SBLP 151600Z 18006KT 9999 FEW030 31/15 Q1015;
0120832880999992012061517004-13267-043417FM-15+0443SBLP V0201801N003112200019N0112651N1+03201+01501999999ADDGA1041+009001999GF104991999999999999999999MA1101391999999REMMET051METAR SBLP 151700Z 18006KT 9999 SCT030 32/15 Q1014;
0120832880999992012061518004-13267-043417FM-15+0443SBLP V0201801N003112200019N0112651N1+03301+01501999999ADDGA1041+009001999GF104991999999999999999999MA1101291999999REMMET051METAR SBLP 151800Z 18006KT 9999 SCT030 33/15 Q1013;
0120832880999992012061519004-13267-043417FM-15+0443SBLP V0201801N003112200019N0112651N1+03301+01501999999ADDGA1021+009001999GF102991999999999999999999MA1101291999999REMMET051METAR SBLP 151900Z 18006KT 9999 FEW030 33/15 Q1013;
0120832880999992012061520004-13267-043417FM-15+0443SBLP V0209999C000012200019N0112651N1+03201+01501999999ADDGA1021+009001999GF102991999999999999999999MA1101291999999REMMET051METAR SBLP 152000Z 00000KT 9999 FEW030 32/15 Q1013;
0120832880999992012061521004-13267-043417FM-15+0443SBLP V0209999C000012200019N0112651N1+03101+01501999999ADDGA1021+009001999GF102991999999999999999999MA1101391999999REMMET051METAR SBLP 152100Z 00000KT 9999 FEW030 31/15 Q1014;
0072832880999992012061810004-13267-043417FM-15+0443SBLP V0209999C000019999999Y0099001N1+02201+01701999999ADDMA1101591999999REMMET045METAR SBLP 181000Z 00000KT CAVOK 22/17 Q1016;
0072832880999992012061811004-13267-043417FM-15+0443SBLP V0209999C000019999999Y0099001N1+02401+01701999999ADDMA1101691999999REMMET045METAR SBLP 181100Z 00000KT CAVOK 24/17 Q1017;
0072832880999992012061812004-13267-043417FM-15+0443SBLP V0209999C000019999999Y0099001N1+02701+01701999999ADDMA1101801999999REMMET045METAR SBLP 181200Z 00000KT CAVOK 27/17 Q1018;
0072832880999992012061813004-13267-043417FM-15+0443SBLP V0209999C000019999999Y0099001N1+02901+01701999999ADDMA1101801999999REMMET045METAR SBLP 181300Z 00000KT CAVOK 29/17 Q1018;
0072832880999992012061814004-13267-043417FM-15+0443SBLP V0209999C000019999999Y0099001N1+03101+01501999999ADDMA1101691999999REMMET045METAR SBLP 181400Z 00000KT CAVOK 31/15 Q1017;
0120832880999992012061815004-13267-043417FM-15+0443SBLP V0201801N003112200019N0112651N1+03201+01501999999ADDGA1021+009001999GF102991999999999999999999MA1101591999999REMMET051METAR SBLP 181500Z 18006KT 9999 FEW030 32/15 Q1016;
0120832880999992012061816004-13267-043417FM-15+0443SBLP V0202101N002612200019N0112651N1+03301+01501999999ADDGA1021+009001999GF102991999999999999999999MA1101491999999REMMET051METAR SBLP 181600Z 21005KT 9999 FEW030 33/15 Q1015;
0120832880999992012061817004-13267-043417FM-15+0443SBLP V0202501N003112200019N0112651N1+03301+01401999999ADDGA1021+009001999GF102991999999999999999999MA1101391999999REMMET051METAR SBLP 181700Z 25006KT 9999 FEW030 33/14 Q1014;
0120832880999992012061818004-13267-043417FM-15+0443SBLP V0202401N003112200019N0112651N1+03401+01501999999ADDGA1021+009001999GF102991999999999999999999MA1101291999999REMMET051METAR SBLP 181800Z 24006KT 9999 FEW030 34/15 Q1013;
0120832880999992012061819004-13267-043417FM-15+0443SBLP V0202101N003112200019N0112651N1+03401+01501999999ADDGA1021+009001999GF102991999999999999999999MA1101291999999REMMET051METAR SBLP 181900Z 21006KT 9999 FEW030 34/15 Q1013;
0120832880999992012061820004-13267-043417FM-15+0443SBLP V0201801N001012200019N0112651N1+03401+01501999999ADDGA1021+009001999GF102991999999999999999999MA1101291999999REMMET051METAR SBLP 182000Z 18002KT 9999 FEW030 34/15 Q1013;
0072832880999992012061821004-13267-043417FM-15+0443SBLP V0209999C000019999999Y0099001N1+03001+01501999999ADDMA1101391999999REMMET045METAR SBLP 182100Z 00000KT CAVOK 30/15 Q1014;
0072832880999992012061910004-13267-043417FM-15+0443SBLP V0209999C000019999999Y0099001N1+02201+01701999999ADDMA1101591999999REMMET045METAR SBLP 191000Z 00000KT CAVOK 22/17 Q1016;
0072832880999992012061911004-13267-043417FM-15+0443SBLP V0209999C000019999999Y0099001N1+02401+01701999999ADDMA1101691999999REMMET045METAR SBLP 191100Z 00000KT CAVOK 24/17 Q1017;
0072832880999992012061912004-13267-043417FM-15+0443SBLP V0209999C000019999999Y0099001N1+02701+01701999999ADDMA1101801999999REMMET045METAR SBLP 191200Z 00000KT CAVOK 27/17 Q1018;
0072832880999992012061913004-13267-043417FM-15+0443SBLP V0209999C000019999999Y0099001N1+02901+01601999999ADDMA1101691999999REMMET045METAR SBLP 191300Z 00000KT CAVOK 29/16 Q1017;
0072832880999992012061914004-13267-043417FM-15+0443SBLP V0209999C000019999999Y0099001N1+03101+01501999999ADDMA1101691999999REMMET045METAR SBLP 191400Z 00000KT CAVOK 31/15 Q1017;
0120832880999992012061915004-13267-043417FM-15+0443SBLP V0200901N003112200019N0112651N1+03201+01401999999ADDGA1021+009001999GF102991999999999999999999MA1101591999999REMMET051METAR SBLP 191500Z 09006KT 9999 FEW030 32/14 Q1016;
0120832880999992012061916004-13267-043417FM-15+0443SBLP V0209999C000012200019N0112651N1+03401+01401999999ADDGA1021+009001999GF102991999999999999999999MA1101491999999REMMET051METAR SBLP 191600Z 00000KT 9999 FEW030 34/14 Q1015;
0120832880999992012061917004-13267-043417FM-15+0443SBLP V0202401N003112200019N0112651N1+03501+01401999999ADDGA1021+009001999GF102991999999999999999999MA1101391999999REMMET051METAR SBLP 191700Z 24006KT 9999 FEW030 35/14 Q1014;
0120832880999992012061918004-13267-043417FM-15+0443SBLP V0209999C000012200019N0112651N1+03601+01301999999ADDGA1021+009001999GF102991999999999999999999MA1101291999999REMMET051METAR SBLP 191800Z 00000KT 9999 FEW030 36/13 Q1013;
0120832880999992012061919004-13267-043417FM-15+0443SBLP V0209999C000012200019N0112651N1+03601+01401999999ADDGA1021+009001999GF102991999999999999999999MA1101291999999REMMET051METAR SBLP 191900Z 00000KT 9999 FEW030 36/14 Q1013;
0120832880999992012061920004-13267-043417FM-15+0443SBLP V0201801N001512200019N0112651N1+03501+01301999999ADDGA1021+009001999GF102991999999999999999999MA1101291999999REMMET051METAR SBLP 192000Z 18003KT 9999 FEW030 35/13 Q1013;
0072832880999992012061921004-13267-043417FM-15+0443SBLP V0201501N001519999999Y0099001N1+03101+01701999999ADDMA1101291999999REMMET045METAR SBLP 192100Z 15003KT CAVOK 31/17 Q1013;
0072832880999992012062010004-13267-043417FM-15+0443SBLP V0209999C000019999999Y0099001N1+02201+01701999999ADDMA1101591999999REMMET045METAR SBLP 201000Z 00000KT CAVOK 22/17 Q1016;
0072832880999992012062011004-13267-043417FM-15+0443SBLP V0209999C000019999999Y0099001N1+02401+01701999999ADDMA1101691999999REMMET045METAR SBLP 201100Z 00000KT CAVOK 24/17 Q1017;
0120832880999992012062012004-13267-043417FM-15+0443SBLP V0209999C000012200019N0112651N1+02701+01701999999ADDGA1021+009001999GF102991999999999999999999MA1101691999999REMMET051METAR SBLP 201200Z 00000KT 9999 FEW030 27/17 Q1017;
0120832880999992012062013004-13267-043417FM-15+0443SBLP V0209999C000012200019N0112651N1+02901+01701999999ADDGA1021+009001999GF102991999999999999999999MA1101691999999REMMET051METAR SBLP 201300Z 00000KT 9999 FEW030 29/17 Q1017;
0120832880999992012062014004-13267-043417FM-15+0443SBLP V0209999C000012200019N0112651N1+03101+01701999999ADDGA1021+009001999GF102991999999999999999999MA1101591999999REMMET051METAR SBLP 201400Z 00000KT 9999 FEW030 31/17 Q1016;
0120832880999992012062015004-13267-043417FM-15+0443SBLP V0200901N003112200019N0112651N1+03201+01601999999ADDGA1041+009001999GF104991999999999999999999MA1101491999999REMMET051METAR SBLP 201500Z 09006KT 9999 SCT030 32/16 Q1015;
0120832880999992012062016004-13267-043417FM-15+0443SBLP V0202101N001512200019N0112651N1+03401+01501999999ADDGA1041+009001999GF104991999999999999999999MA1101391999999REMMET051METAR SBLP 201600Z 21003KT 9999 SCT030 34/15 Q1014;
0120832880999992012062017004-13267-043417FM-15+0443SBLP V0202101N002612200019N0112651N1+03501+01401999999ADDGA1021+009001999GF102991999999999999999999MA1101291999999REMMET051METAR SBLP 201700Z 21005KT 9999 FEW030 35/14 Q1013;
0120832880999992012062018004-13267-043417FM-15+0443SBLP V0201801N002112200019N0112651N1+03601+01401999999ADDGA1021+009001999GF102991999999999999999999MA1101191999999REMMET051METAR SBLP 201800Z 18004KT 9999 FEW030 36/14 Q1012;
0120832880999992012062019004-13267-043417FM-15+0443SBLP V0201901N001512200019N0112651N1+03501+01401999999ADDGA1021+009001999GF102991999999999999999999MA1101191999999REMMET051METAR SBLP 201900Z 19003KT 9999 FEW030 35/14 Q1012;
0120832880999992012062020004-13267-043417FM-15+0443SBLP V0201701N001012200019N0112651N1+03301+01501999999ADDGA1021+009001999GF102991999999999999999999MA1101191999999REMMET051METAR SBLP 202000Z 17002KT 9999 FEW030 33/15 Q1012;
0072832880999992012062021004-13267-043417FM-15+0443SBLP V0209999C000019999999Y0099001N1+03201+01701999999ADDMA1101191999999REMMET045METAR SBLP 202100Z 00000KT CAVOK 32/17 Q1012;
0072832880999992012062110004-13267-043417FM-15+0443SBLP V0209999C000019999999Y0099001N1+02201+01701999999ADDMA1101491999999REMMET045METAR SBLP 211000Z 00000KT CAVOK 22/17 Q1015;
0072832880999992012062111004-13267-043417FM-15+0443SBLP V0209999C000019999999Y0099001N1+02401+01701999999ADDMA1101591999999REMMET045METAR SBLP 211100Z 00000KT CAVOK 24/17 Q1016;
0072832880999992012062113004-13267-043417FM-15+0443SBLP V0209999C000019999999Y0099001N1+02901+01601999999ADDMA1101691999999REMMET045METAR SBLP 211300Z 00000KT CAVOK 29/16 Q1017;
0072832880999992012062114004-13267-043417FM-15+0443SBLP V0209999C000019999999Y0099001N1+03101+01501999999ADDMA1101591999999REMMET045METAR SBLP 211400Z 00000KT CAVOK 31/15 Q1016;
0120832880999992012062115004-13267-043417FM-15+0443SBLP V0200901N003112200019N0112651N1+03201+01501999999ADDGA1021+009001999GF102991999999999999999999MA1101491999999REMMET051METAR SBLP 211500Z 09006KT 9999 FEW030 32/15 Q1015;
0120832880999992012062116004-13267-043417FM-15+0443SBLP V0202701N001512200019N0112651N1+03501+01401999999ADDGA1041+009001999GF104991999999999999999999MA1101391999999REMMET051METAR SBLP 211600Z 27003KT 9999 SCT030 35/14 Q1014;
0120832880999992012062117004-13267-043417FM-15+0443SBLP V0201901N001512200019N0112651N1+03501+01401999999ADDGA1041+009001999GF104991999999999999999999MA1101291999999REMMET051METAR SBLP 211700Z 19003KT 9999 SCT030 35/14 Q1013;
0120832880999992012062118004-13267-043417FM-15+0443SBLP V0202301N002612200019N0112651N1+03601+01301999999ADDGA1021+009001999GF102991999999999999999999MA1101191999999REMMET051METAR SBLP 211800Z 23005KT 9999 FEW030 36/13 Q1012;
0120832880999992012062119004-13267-043417FM-15+0443SBLP V0202101N002112200019N0112651N1+03601+01401999999ADDGA1021+009001999GF102991999999999999999999MA1101191999999REMMET051METAR SBLP 211900Z 21004KT 9999 FEW030 36/14 Q1012;
0120832880999992012062120004-13267-043417FM-15+0443SBLP V0201801N003112200019N0112651N1+03501+01401999999ADDGA1021+009001999GF102991999999999999999999MA1101191999999REMMET051METAR SBLP 212000Z 18006KT 9999 FEW030 35/14 Q1012;
0120832880999992012062121004-13267-043417FM-15+0443SBLP V0202101N001512200019N0112651N1+03201+01501999999ADDGA1021+009001999GF102991999999999999999999MA1101191999999REMMET051METAR SBLP 212100Z 21003KT 9999 FEW030 32/15 Q1012;
0072832880999992012062210004-13267-043417FM-15+0443SBLP V0209999C000019999999Y0099001N1+02201+01701999999ADDMA1101491999999REMMET045METAR SBLP 221000Z 00000KT CAVOK 22/17 Q1015;
0072832880999992012062211004-13267-043417FM-15+0443SBLP V0209999C000019999999Y0099001N1+02401+01701999999ADDMA1101691999999REMMET045METAR SBLP 221100Z 00000KT CAVOK 24/17 Q1017;
0072832880999992012062212004-13267-043417FM-15+0443SBLP V0209999C000019999999Y0099001N1+02701+01701999999ADDMA1101801999999REMMET045METAR SBLP 221200Z 00000KT CAVOK 27/17 Q1018;
0072832880999992012062213004-13267-043417FM-15+0443SBLP V0209999C000019999999Y0099001N1+02901+01601999999ADDMA1101801999999REMMET045METAR SBLP 221300Z 00000KT CAVOK 29/16 Q1018;
0072832880999992012062214004-13267-043417FM-15+0443SBLP V0209999C000019999999Y0099001N1+03201+01401999999ADDMA1101691999999REMMET045METAR SBLP 221400Z 00000KT CAVOK 32/14 Q1017;
0072832880999992012062215004-13267-043417FM-15+0443SBLP V0209999C000019999999Y0099001N1+03201+01401999999ADDMA1101591999999REMMET045METAR SBLP 221500Z 00000KT CAVOK 32/14 Q1016;
0072832880999992012062216004-13267-043417FM-15+0443SBLP V0202101N003119999999Y0099001N1+03301+02001999999ADDMA1101391999999REMMET045METAR SBLP 221600Z 21006KT CAVOK 33/20 Q1014;
0072832880999992012062217004-13267-043417FM-15+0443SBLP V0202101N003119999999Y0099001N1+03301+02001999999ADDMA1101391999999REMMET045METAR SBLP 221700Z 21006KT CAVOK 33/20 Q1014;
0072832880999992012062218004-13267-043417FM-15+0443SBLP V0202101N003119999999Y0099001N1+03401+02001999999ADDMA1101291999999REMMET045METAR SBLP 221800Z 21006KT CAVOK 34/20 Q1013;
0072832880999992012062219004-13267-043417FM-15+0443SBLP V0201801N003119999999Y0099001N1+03601+01901999999ADDMA1101291999999REMMET045METAR SBLP 221900Z 18006KT CAVOK 36/19 Q1013;
0072832880999992012062220004-13267-043417FM-15+0443SBLP V0201501N003119999999Y0099001N1+03501+01901999999ADDMA1101291999999REMMET045METAR SBLP 222000Z 15006KT CAVOK 35/19 Q1013;
0072832880999992012062221004-13267-043417FM-15+0443SBLP V0201201N003119999999Y0099001N1+03301+02001999999ADDMA1101391999999REMMET045METAR SBLP 222100Z 12006KT CAVOK 33/20 Q1014;
0072832880999992012062510004-13267-043417FM-15+0443SBLP V0201501N003119999999Y0099001N1+02001+01601999999ADDMA1102001999999REMMET045METAR SBLP 251000Z 15006KT CAVOK 20/16 Q1020;
0072832880999992012062511004-13267-043417FM-15+0443SBLP V0201201N003119999999Y0099001N1+02301+01801999999ADDMA1102101999999REMMET045METAR SBLP 251100Z 12006KT CAVOK 23/18 Q1021;
0120832880999992012062512004-13267-043417FM-15+0443SBLP V0200901N003112200019N0112651N1+02601+01701999999ADDGA1021+009001999GF102991999999999999999999MA1102101999999REMMET051METAR SBLP 251200Z 09006KT 9999 FEW030 26/17 Q1021;
0120832880999992012062513004-13267-043417FM-15+0443SBLP V0201901N003112200019N0112651N1+02801+01501999999ADDGA1041+009001999GF104991999999999999999999MA1102101999999REMMET051METAR SBLP 251300Z 19006KT 9999 SCT030 28/15 Q1021;
0120832880999992012062514004-13267-043417FM-15+0443SBLP V0201501N005112200019N0112651N1+03001+01501999999ADDGA1041+009001999GF104991999999999999999999MA1102001999999REMMET051METAR SBLP 251400Z 15010KT 9999 SCT030 30/15 Q1020;
0120832880999992012062515004-13267-043417FM-15+0443SBLP V0201201N004112200019N0112651N1+03001+01501999999ADDGA1021+009001999GF102991999999999999999999MA1101901999999REMMET051METAR SBLP 251500Z 12008KT 9999 FEW030 30/15 Q1019;
0120832880999992012062516004-13267-043417FM-15+0443SBLP V0200901N003112200019N0112651N1+03101+01501999999ADDGA1041+009001999GF104991999999999999999999MA1101801999999REMMET051METAR SBLP 251600Z 09006KT 9999 SCT030 31/15 Q1018;
0120832880999992012062517004-13267-043417FM-15+0443SBLP V0200901N003112200019N0112651N1+03201+01401999999ADDGA1041+009001999GF104991999999999999999999MA1101591999999REMMET051METAR SBLP 251700Z 09006KT 9999 SCT030 32/14 Q1016;
0120832880999992012062518004-13267-043417FM-15+0443SBLP V0200901N003112200019N0112651N1+03301+01401999999ADDGA1041+009001999GF104991999999999999999999MA1101591999999REMMET051METAR SBLP 251800Z 09006KT 9999 SCT030 33/14 Q1016;
0120832880999992012062519004-13267-043417FM-15+0443SBLP V0200901N003112200019N0112651N1+03301+01501999999ADDGA1041+009001999GF104991999999999999999999MA1101591999999REMMET051METAR SBLP 251900Z 09006KT 9999 SCT030 33/15 Q1016;
0120832880999992012062520004-13267-043417FM-15+0443SBLP V0200901N003112200019N0112651N1+03201+01501999999ADDGA1021+009001999GF102991999999999999999999MA1101591999999REMMET051METAR SBLP 252000Z 09006KT 9999 FEW030 32/15 Q1016;
0120832880999992012062521004-13267-043417FM-15+0443SBLP V0200901N003112200019N0112651N1+03001+01601999999ADDGA1021+009001999GF102991999999999999999999MA1101691999999REMMET051METAR SBLP 252100Z 09006KT 9999 FEW030 30/16 Q1017;
0072832880999992012062610004-13267-043417FM-15+0443SBLP V0209999C000019999999Y0099001N1+02201+01701999999ADDMA1102001999999REMMET045METAR SBLP 261000Z 00000KT CAVOK 22/17 Q1020;
0072832880999992012062611004-13267-043417FM-15+0443SBLP V0209999C000019999999Y0099001N1+02401+01701999999ADDMA1102101999999REMMET045METAR SBLP 261100Z 00000KT CAVOK 24/17 Q1021;
0120832880999992012062612004-13267-043417FM-15+0443SBLP V0200901N003112200019N0112651N1+02701+01701999999ADDGA1021+009001999GF102991999999999999999999MA1102101999999REMMET051METAR SBLP 261200Z 09006KT 9999 FEW030 27/17 Q1021;
0120832880999992012062613004-13267-043417FM-15+0443SBLP V0200901N003112200019N0112651N1+02901+01701999999ADDGA1021+009001999GF102991999999999999999999MA1102101999999REMMET051METAR SBLP 261300Z 09006KT 9999 FEW030 29/17 Q1021;
0120832880999992012062614004-13267-043417FM-15+0443SBLP V0200901N003112200019N0112651N1+03101+01501999999ADDGA1021+009001999GF102991999999999999999999MA1102001999999REMMET051METAR SBLP 261400Z 09006KT 9999 FEW030 31/15 Q1020;
0120832880999992012062615004-13267-043417FM-15+0443SBLP V0200901N003112200019N0112651N1+03101+01601999999ADDGA1021+009001999GF102991999999999999999999MA1101901999999REMMET051METAR SBLP 261500Z 09006KT 9999 FEW030 31/16 Q1019;
0120832880999992012062616004-13267-043417FM-15+0443SBLP V0201101N005112200019N0112651N1+03101+01201999999ADDGA1021+009001999GF102991999999999999999999MA1101801999999REMMET051METAR SBLP 261600Z 11010KT 9999 FEW030 31/12 Q1018;
0120832880999992012062617004-13267-043417FM-15+0443SBLP V0200901N004112200019N0112651N1+03201+01301999999ADDGA1041+009001999GF104991999999999999999999MA1101691999999REMMET051METAR SBLP 261700Z 09008KT 9999 SCT030 32/13 Q1017;
0120832880999992012062618004-13267-043417FM-15+0443SBLP V0209999C000012200019N0112651N1+03101+01301999999ADDGA1041+009001999GF104991999999999999999999MA1101691999999REMMET051METAR SBLP 261800Z 00000KT 9999 SCT030 31/13 Q1017;
0120832880999992012062619004-13267-043417FM-15+0443SBLP V0201201N003112200019N0112651N1+03101+01401999999ADDGA1041+009001999GF104991999999999999999999MA1101691999999REMMET051METAR SBLP 261900Z 12006KT 9999 SCT030 31/14 Q1017;
0120832880999992012062620004-13267-043417FM-15+0443SBLP V0200901N005112200019N0112651N1+03001+01601999999ADDGA1021+009001999GF102991999999999999999999MA1101691999999REMMET051METAR SBLP 262000Z 09010KT 9999 FEW030 30/16 Q1017;
0120832880999992012062621004-13267-043417FM-15+0443SBLP V0201201N004112200019N0112651N1+02801+01601999999ADDGA1021+009001999GF102991999999999999999999MA1101801999999REMMET051METAR SBLP 262100Z 12008KT 9999 FEW030 28/16 Q1018;
0072832880999992012062710004-13267-043417FM-15+0443SBLP V0209999C000019999999Y0099001N1+02201+01701999999ADDMA1102101999999REMMET045METAR SBLP 271000Z 00000KT CAVOK 22/17 Q1021;
0072832880999992012062711004-13267-043417FM-15+0443SBLP V0209999C000019999999Y0099001N1+02401+01701999999ADDMA1102201999999REMMET045METAR SBLP 271100Z 00000KT CAVOK 24/17 Q1022;
0072832880999992012062712004-13267-043417FM-15+0443SBLP V0209999C000019999999Y0099001N1+02701+01701999999ADDMA1102301999999REMMET045METAR SBLP 271200Z 00000KT CAVOK 27/17 Q1023;
0120832880999992012062713004-13267-043417FM-15+0443SBLP V0200901N003112200019N0112651N1+02801+01601999999ADDGA1021+009001999GF102991999999999999999999MA1102201999999REMMET051METAR SBLP 271300Z 09006KT 9999 FEW030 28/16 Q1022;
0120832880999992012062714004-13267-043417FM-15+0443SBLP V0200901N003112200019N0112651N1+02901+01601999999ADDGA1021+009001999GF102991999999999999999999MA1102201999999REMMET051METAR SBLP 271400Z 09006KT 9999 FEW030 29/16 Q1022;
0120832880999992012062715004-13267-043417FM-15+0443SBLP V0200901N003112200019N0112651N1+03001+01601999999ADDGA1041+009001999GF104991999999999999999999MA1102101999999REMMET051METAR SBLP 271500Z 09006KT 9999 SCT030 30/16 Q1021;
0120832880999992012062716004-13267-043417FM-15+0443SBLP V0201201N006212200019N0112651N1+03101+01301999999ADDGA1041+009001999GF104991999999999999999999MA1102001999999REMMET051METAR SBLP 271600Z 12012KT 9999 SCT030 31/13 Q1020;
0120832880999992012062717004-13267-043417FM-15+0443SBLP V0201101N006212200019N0112651N1+03201+01201999999ADDGA1041+009001999GF104991999999999999999999MA1101901999999REMMET051METAR SBLP 271700Z 11012KT 9999 SCT030 32/12 Q1019;
0120832880999992012062718004-13267-043417FM-15+0443SBLP V0201201N004112200019N0112651N1+03101+01101999999ADDGA1021+009001999GF102991999999999999999999MA1101901999999REMMET051METAR SBLP 271800Z 12008KT 9999 FEW030 31/11 Q1019;
0120832880999992012062719004-13267-043417FM-15+0443SBLP V0200901N003112200019N0112651N1+03101+01201999999ADDGA1021+009001999GF102991999999999999999999MA1101801999999REMMET051METAR SBLP 271900Z 09006KT 9999 FEW030 31/12 Q1018;
0120832880999992012062720004-13267-043417FM-15+0443SBLP V0200901N003112200019N0112651N1+03101+01301999999ADDGA1021+009001999GF102991999999999999999999MA1101801999999REMMET051METAR SBLP 272000Z 09006KT 9999 FEW030 31/13 Q1018;
0120832880999992012062721004-13267-043417FM-15+0443SBLP V0201101N004112200019N0112651N1+02801+01301999999ADDGA1021+009001999GF102991999999999999999999MA1101901999999REMMET051METAR SBLP 272100Z 11008KT 9999 FEW030 28/13 Q1019;
0072832880999992012062810004-13267-043417FM-15+0443SBLP V0209999C000019999999Y0099001N1+02201+01701999999ADDMA1102201999999REMMET045METAR SBLP 281000Z 00000KT CAVOK 22/17 Q1022;
0072832880999992012062811004-13267-043417FM-15+0443SBLP V0209999C000019999999Y0099001N1+02301+01701999999ADDMA1102201999999REMMET045METAR SBLP 281100Z 00000KT CAVOK 23/17 Q1022;
0072832880999992012062812004-13267-043417FM-15+0443SBLP V0209999C000019999999Y0099001N1+02501+01601999999ADDMA1102201999999REMMET045METAR SBLP 281200Z 00000KT CAVOK 25/16 Q1022;
0120832880999992012062813004-13267-043417FM-15+0443SBLP V0200901N003112200019N0112651N1+02701+01601999999ADDGA1021+009001999GF102991999999999999999999MA1102201999999REMMET051METAR SBLP 281300Z 09006KT 9999 FEW030 27/16 Q1022;
0120832880999992012062814004-13267-043417FM-15+0443SBLP V0200901N003112200019N0112651N1+02901+01501999999ADDGA1021+009001999GF102991999999999999999999MA1102101999999REMMET051METAR SBLP 281400Z 09006KT 9999 FEW030 29/15 Q1021;
0120832880999992012062815004-13267-043417FM-15+0443SBLP V0200901N003112200019N0112651N1+02901+01501999999ADDGA1041+009001999GF104991999999999999999999MA1102001999999REMMET051METAR SBLP 281500Z 09006KT 9999 SCT030 29/15 Q1020;
0120832880999992012062816004-13267-043417FM-15+0443SBLP V0201101N003112200019N0112651N1+03001+01501999999ADDGA1041+009001999GF104991999999999999999999MA1101901999999REMMET051METAR SBLP 281600Z 11006KT 9999 SCT030 30/15 Q1019;
0120832880999992012062817004-13267-043417FM-15+0443SBLP V0200601N003112200019N0112651N1+03101+01401999999ADDGA1041+009001999GF104991999999999999999999MA1101801999999REMMET051METAR SBLP 281700Z 06006KT 9999 SCT030 31/14 Q1018;
0120832880999992012062818004-13267-043417FM-15+0443SBLP V0201201N004112200019N0112651N1+03101+01401999999ADDGA1041+009001999GF104991999999999999999999MA1101801999999REMMET051METAR SBLP 281800Z 12008KT 9999 SCT030 31/14 Q1018;
0120832880999992012062819004-13267-043417FM-15+0443SBLP V0201101N004112200019N0112651N1+03101+01501999999ADDGA1041+009001999GF104991999999999999999999MA1101691999999REMMET051METAR SBLP 281900Z 11008KT 9999 SCT030 31/15 Q1017;
0120832880999992012062820004-13267-043417FM-15+0443SBLP V0201101N003112200019N0112651N1+02901+01501999999ADDGA1041+009001999GF104991999999999999999999MA1101801999999REMMET051METAR SBLP 282000Z 11006KT 9999 SCT030 29/15 Q1018;
0120832880999992012062821004-13267-043417FM-15+0443SBLP V0201201N005112200019N0112651N1+02801+01601999999ADDGA1021+009001999GF102991999999999999999999MA1101801999999REMMET051METAR SBLP 282100Z 12010KT 9999 FEW030 28/16 Q1018;
0072832880999992012062910004-13267-043417FM-15+0443SBLP V0201501N002619999999Y0099001N1+02001+01701999999ADDMA1102001999999REMMET045METAR SBLP 291000Z 15005KT CAVOK 20/17 Q1020;
0072832880999992012062911004-13267-043417FM-15+0443SBLP V0201501N005119999999Y0099001N1+02401+01701999999ADDMA1102001999999REMMET045METAR SBLP 291100Z 15010KT CAVOK 24/17 Q1020;
0120832880999992012062912004-13267-043417FM-15+0443SBLP V0201001N003112200019N0112651N1+02601+01701999999ADDGA1021+009001999GF102991999999999999999999MA1102101999999REMMET051METAR SBLP 291200Z 10006KT 9999 FEW030 26/17 Q1021;
0120832880999992012062913004-13267-043417FM-15+0443SBLP V0200701N002112200019N0112651N1+02701+01701999999ADDGA1041+009001999GF104991999999999999999999MA1102101999999REMMET051METAR SBLP 291300Z 07004KT 9999 SCT030 27/17 Q1021;
0120832880999992012062914004-13267-043417FM-15+0443SBLP V0201301N003112200019N0112651N1+02801+01801999999ADDGA1041+009001999GF104991999999999999999999MA1102001999999REMMET051METAR SBLP 291400Z 13006KT 9999 SCT030 28/18 Q1020;
0120832880999992012062915004-13267-043417FM-15+0443SBLP V0201301N002112200019N0112651N1+02901+01701999999ADDGA1041+009001999GF104991999999999999999999MA1101901999999REMMET051METAR SBLP 291500Z 13004KT 9999 SCT030 29/17 Q1019;
0120832880999992012062916004-13267-043417FM-15+0443SBLP V0200901N003112200019N0112651N1+03101+01601999999ADDGA1041+009001999GF104991999999999999999999MA1101691999999REMMET051METAR SBLP 291600Z 09006KT 9999 SCT030 31/16 Q1017;
0120832880999992012062917004-13267-043417FM-15+0443SBLP V0200901N003112200019N0112651N1+03101+01601999999ADDGA1041+009001999GF104991999999999999999999MA1101591999999REMMET051METAR SBLP 291700Z 09006KT 9999 SCT030 31/16 Q1016;
0120832880999992012062918004-13267-043417FM-15+0443SBLP V0200901N003112200019N0112651N1+03201+01601999999ADDGA1041+009001999GF104991999999999999999999MA1101591999999REMMET051METAR SBLP 291800Z 09006KT 9999 SCT030 32/16 Q1016;
0120832880999992012062919004-13267-043417FM-15+0443SBLP V0200901N003112200019N0112651N1+03201+01601999999ADDGA1041+009001999GF104991999999999999999999MA1101591999999REMMET051METAR SBLP 291900Z 09006KT 9999 SCT030 32/16 Q1016;
0120832880999992012062920004-13267-043417FM-15+0443SBLP V0200901N003112200019N0112651N1+03201+01601999999ADDGA1021+009001999GF102991999999999999999999MA1101591999999REMMET051METAR SBLP 292000Z 09006KT 9999 FEW030 32/16 Q1016;
0120832880999992012062921004-13267-043417FM-15+0443SBLP V0200901N003112200019N0112651N1+03001+01701999999ADDGA1021+009001999GF102991999999999999999999MA1101691999999REMMET051METAR SBLP 292100Z 09006KT 9999 FEW030 30/17 Q1017;
0072832880999992012070310004-13267-043417FM-15+0443SBLP V0209999C000019999999Y0099001N1+02001+01701999999ADDMA1101901999999REMMET045METAR SBLP 031000Z 00000KT CAVOK 20/17 Q1019;
0072832880999992012070311004-13267-043417FM-15+0443SBLP V0209999C000019999999Y0099001N1+02201+01601999999ADDMA1102001999999REMMET045METAR SBLP 031100Z 00000KT CAVOK 22/16 Q1020;
0072832880999992012070312004-13267-043417FM-15+0443SBLP V0209999C000019999999Y0099001N1+02401+01601999999ADDMA1102001999999REMMET045METAR SBLP 031200Z 00000KT CAVOK 24/16 Q1020;
0072832880999992012070313004-13267-043417FM-15+0443SBLP V0209999C000019999999Y0099001N1+02601+01401999999ADDMA1102001999999REMMET045METAR SBLP 031300Z 00000KT CAVOK 26/14 Q1020;
0072832880999992012070314004-13267-043417FM-15+0443SBLP V0209999C000019999999Y0099001N1+02801+01301999999ADDMA1102001999999REMMET045METAR SBLP 031400Z 00000KT CAVOK 28/13 Q1020;
0072832880999992012070315004-13267-043417FM-15+0443SBLP V0200901N003119999999Y0099001N1+03001+01101999999ADDMA1101901999999REMMET045METAR SBLP 031500Z 09006KT CAVOK 30/11 Q1019;
0072832880999992012070316004-13267-043417FM-15+0443SBLP V0200901N002619999999Y0099001N1+03101+00801999999ADDMA1101691999999REMMET045METAR SBLP 031600Z 09005KT CAVOK 31/08 Q1017;
0072832880999992012070317004-13267-043417FM-15+0443SBLP V0200901N005119999999Y0099001N1+03201+00901999999ADDMA1101591999999REMMET045METAR SBLP 031700Z 09010KT CAVOK 32/09 Q1016;
0072832880999992012070318004-13267-043417FM-15+0443SBLP V0200901N004119999999Y0099001N1+03101+00901999999ADDMA1101491999999REMMET045METAR SBLP 031800Z 09008KT CAVOK 31/09 Q1015;
0072832880999992012070319004-13267-043417FM-15+0443SBLP V0201201N005119999999Y0099001N1+03201+01101999999ADDMA1101491999999REMMET045METAR SBLP 031900Z 12010KT CAVOK 32/11 Q1015;
0072832880999992012070320004-13267-043417FM-15+0443SBLP V0201301N005119999999Y0099001N1+03101+01301999999ADDMA1101491999999REMMET045METAR SBLP 032000Z 13010KT CAVOK 31/13 Q1015;
0072832880999992012070321004-13267-043417FM-15+0443SBLP V0201101N003119999999Y0099001N1+02901+01201999999ADDMA1101591999999REMMET045METAR SBLP 032100Z 11006KT CAVOK 29/12 Q1016;
0072832880999992012070410004-13267-043417FM-15+0443SBLP V0209999C000019999999Y0099001N1+01601+01301999999ADDMA1101801999999REMMET045METAR SBLP 041000Z 00000KT CAVOK 16/13 Q1018;
0072832880999992012070411004-13267-043417FM-15+0443SBLP V0209999C000019999999Y0099001N1+01901+01401999999ADDMA1101901999999REMMET045METAR SBLP 041100Z 00000KT CAVOK 19/14 Q1019;
0072832880999992012070412004-13267-043417FM-15+0443SBLP V0201501N002119999999Y0099001N1+02301+01401999999ADDMA1101901999999REMMET045METAR SBLP 041200Z 15004KT CAVOK 23/14 Q1019;
0072832880999992012070413004-13267-043417FM-15+0443SBLP V0201701N002119999999Y0099001N1+02601+01301999999ADDMA1101901999999REMMET045METAR SBLP 041300Z 17004KT CAVOK 26/13 Q1019;
0072832880999992012070414004-13267-043417FM-15+0443SBLP V0202801N002119999999Y0099001N1+02901+01601999999ADDMA1101901999999REMMET045METAR SBLP 041400Z 28004KT CAVOK 29/16 Q1019;
0120832880999992012070415004-13267-043417FM-15+0443SBLP V0202401N002112200019N0112651N1+03001+01201999999ADDGA1021+009001999GF102991999999999999999999MA1101801999999REMMET051METAR SBLP 041500Z 24004KT 9999 FEW030 30/12 Q1018;
0120832880999992012070416004-13267-043417FM-15+0443SBLP V0201801N003112200019N0112651N1+03201+01201999999ADDGA1021+009001999GF102991999999999999999999MA1101591999999REMMET051METAR SBLP 041600Z 18006KT 9999 FEW030 32/12 Q1016;
0120832880999992012070417004-13267-043417FM-15+0443SBLP V0201801N003112200019N0112651N1+03301+01101999999ADDGA1021+009001999GF102991999999999999999999MA1101491999999REMMET051METAR SBLP 041700Z 18006KT 9999 FEW030 33/11 Q1015;
0120832880999992012070418004-13267-043417FM-15+0443SBLP V0201801N003112200019N0112651N1+03301+01101999999ADDGA1041+009001999GF104991999999999999999999MA1101391999999REMMET051METAR SBLP 041800Z 18006KT 9999 SCT030 33/11 Q1014;
0120832880999992012070419004-13267-043417FM-15+0443SBLP V0209999C000012200019N0112651N1+03301+01101999999ADDGA1021+009001999GF102991999999999999999999MA1101391999999REMMET051METAR SBLP 041900Z 00000KT 9999 FEW030 33/11 Q1014;
0120832880999992012070420004-13267-043417FM-15+0443SBLP V0209999C000012200019N0112651N1+03201+01201999999ADDGA1021+009001999GF102991999999999999999999MA1101391999999REMMET051METAR SBLP 042000Z 00000KT 9999 FEW030 32/12 Q1014;
0072832880999992012070421004-13267-043417FM-15+0443SBLP V0209999C000019999999Y0099001N1+03001+01301999999ADDMA1101391999999REMMET045METAR SBLP 042100Z 00000KT CAVOK 30/13 Q1014;
0072832880999992012070510004-13267-043417FM-15+0443SBLP V0209999C000019999999Y0099001N1+01901+01701999999ADDMA1101801999999REMMET045METAR SBLP 051000Z 00000KT CAVOK 19/17 Q1018;
0072832880999992012070511004-13267-043417FM-15+0443SBLP V0209999C000019999999Y0099001N1+02201+01601999999ADDMA1101901999999REMMET045METAR SBLP 051100Z 00000KT CAVOK 22/16 Q1019;
0072832880999992012070512004-13267-043417FM-15+0443SBLP V0209999C000019999999Y0099001N1+02401+01501999999ADDMA1101901999999REMMET045METAR SBLP 051200Z 00000KT CAVOK 24/15 Q1019;
0120832880999992012070513004-13267-043417FM-15+0443SBLP V0200901N003112200019N0112651N1+02601+01501999999ADDGA1021+009001999GF102991999999999999999999MA1101901999999REMMET051METAR SBLP 051300Z 09006KT 9999 FEW030 26/15 Q1019;
0120832880999992012070514004-13267-043417FM-15+0443SBLP V0200901N003112200019N0112651N1+02701+01501999999ADDGA1021+009001999GF102991999999999999999999MA1101901999999REMMET051METAR SBLP 051400Z 09006KT 9999 FEW030 27/15 Q1019;
0120832880999992012070515004-13267-043417FM-15+0443SBLP V0200901N003112200019N0112651N1+02901+01501999999ADDGA1041+009001999GF104991999999999999999999MA1101691999999REMMET051METAR SBLP 051500Z 09006KT 9999 SCT030 29/15 Q1017;
0120832880999992012070516004-13267-043417FM-15+0443SBLP V0201301N005110090019N0112651N1+03001+01701999999ADDGA1071+009001999GF107991999999999999999999MA1101691999999REMMET051METAR SBLP 051600Z 13010KT 9999 BKN030 30/17 Q1017;
0120832880999992012070517004-13267-043417FM-15+0443SBLP V0201001N006210090019N0112651N1+03101+01601999999ADDGA1071+009001999GF107991999999999999999999MA1101491999999REMMET051METAR SBLP 051700Z 10012KT 9999 BKN030 31/16 Q1015;
0120832880999992012070518004-13267-043417FM-15+0443SBLP V0201201N007710090019N0112651N1+03001+01601999999ADDGA1071+009001999GF107991999999999999999999MA1101491999999REMMET051METAR SBLP 051800Z 12015KT 9999 BKN030 30/16 Q1015;
0120832880999992012070519004-13267-043417FM-15+0443SBLP V0201201N006212200019N0112651N1+03001+01601999999ADDGA1041+009001999GF104991999999999999999999MA1101491999999REMMET051METAR SBLP 051900Z 12012KT 9999 SCT030 30/16 Q1015;
0120832880999992012070520004-13267-043417FM-15+0443SBLP V0201201N005112200019N0112651N1+02901+01601999999ADDGA1041+009001999GF104991999999999999999999MA1101491999999REMMET051METAR SBLP 052000Z 12010KT 9999 SCT030 29/16 Q1015;
0120832880999992012070521004-13267-043417FM-15+0443SBLP V0201201N005112200019N0112651N1+02801+01601999999ADDGA1041+009001999GF104991999999999999999999MA1101491999999REMMET051METAR SBLP 052100Z 12010KT 9999 SCT030 28/16 Q1015;
0072832880999992012070610004-13267-043417FM-15+0443SBLP V0201601N003119999999Y0099001N1+01901+01501999999ADDMA1101691999999REMMET045METAR SBLP 061000Z 16006KT CAVOK 19/15 Q1017;
0072832880999992012070611004-13267-043417FM-15+0443SBLP V0201501N004119999999Y0099001N1+02201+01601999999ADDMA1101801999999REMMET045METAR SBLP 061100Z 15008KT CAVOK 22/16 Q1018;
0120832880999992012070612004-13267-043417FM-15+0443SBLP V0201201N006212200019N0112651N1+02401+01501999999ADDGA1041+009001999GF104991999999999999999999MA1101801999999REMMET051METAR SBLP 061200Z 12012KT 9999 SCT030 24/15 Q1018;
0120832880999992012070613004-13267-043417FM-15+0443SBLP V0201201N004112200019N0112651N1+02601+01601999999ADDGA1041+009001999GF104991999999999999999999MA1101801999999REMMET051METAR SBLP 061300Z 12008KT 9999 SCT030 26/16 Q1018;
0120832880999992012070614004-13267-043417FM-15+0443SBLP V0200701N004112200019N0112651N1+02701+01601999999ADDGA1041+009001999GF104991999999999999999999MA1101801999999REMMET051METAR SBLP 061400Z 07008KT 9999 SCT030 27/16 Q1018;
0120832880999992012070615004-13267-043417FM-15+0443SBLP V0201201N003112200019N0112651N1+03001+01601999999ADDGA1041+009001999GF104991999999999999999999MA1101691999999REMMET051METAR SBLP 061500Z 12006KT 9999 SCT030 30/16 Q1017;
0120832880999992012070616004-13267-043417FM-15+0443SBLP V0201801N003112200019N0112651N1+03001+01601999999ADDGA1041+009001999GF104991999999999999999999MA1101591999999REMMET051METAR SBLP 061600Z 18006KT 9999 SCT030 30/16 Q1016;
0120832880999992012070617004-13267-043417FM-15+0443SBLP V0200901N003112200019N0112651N1+03101+01501999999ADDGA1041+009001999GF104991999999999999999999MA1101491999999REMMET051METAR SBLP 061700Z 09006KT 9999 SCT030 31/15 Q1015;
0120832880999992012070618004-13267-043417FM-15+0443SBLP V0200901N003112200019N0112651N1+03201+01501999999ADDGA1021+009001999GF102991999999999999999999MA1101391999999REMMET051METAR SBLP 061800Z 09006KT 9999 FEW030 32/15 Q1014;
0120832880999992012070619004-13267-043417FM-15+0443SBLP V0200901N003112200019N0112651N1+03201+01501999999ADDGA1021+009001999GF102991999999999999999999MA1101391999999REMMET051METAR SBLP 061900Z 09006KT 9999 FEW030 32/15 Q1014;
0120832880999992012070620004-13267-043417FM-15+0443SBLP V0200901N003112200019N0112651N1+03101+01501999999ADDGA1021+009001999GF102991999999999999999999MA1101391999999REMMET051METAR SBLP 062000Z 09006KT 9999 FEW030 31/15 Q1014;
0072832880999992012070621004-13267-043417FM-15+0443SBLP V0200901N003119999999Y0099001N1+03001+01601999999ADDMA1101491999999REMMET045METAR SBLP 062100Z 09006KT CAVOK 30/16 Q1015;
0072832880999992012070910004-13267-043417FM-15+0443SBLP V0209999C000019999999Y0099001N1+02001+01201999999ADDMA1101801999999REMMET045METAR SBLP 091000Z 00000KT CAVOK 20/12 Q1018;
0107832880999992012070911004-13267-043417FM-15+0443SBLP V0209999C000019999999Y0099001N1+02301+99999999999ADDMA1101801999999REMMET045METAR SBLP 091100Z 00000KT CAVOK 23/03 Q1018;EQDQ01+000303ATOD  Q02 +00303ATOD  
0072832880999992012070912004-13267-043417FM-15+0443SBLP V0200901N003119999999Y0099001N1+02701+01601999999ADDMA1101901999999REMMET045METAR SBLP 091200Z 09006KT CAVOK 27/16 Q1019;
0120832880999992012070913004-13267-043417FM-15+0443SBLP V0201201N004112200019N0112651N1+02901+01401999999ADDGA1021+009001999GF102991999999999999999999MA1101901999999REMMET051METAR SBLP 091300Z 12008KT 9999 FEW030 29/14 Q1019;
0120832880999992012070915004-13267-043417FM-15+0443SBLP V0201201N004112200019N0112651N1+02901+01601999999ADDGA1041+009001999GF104991999999999999999999MA1101691999999REMMET051METAR SBLP 091500Z 12008KT 9999 SCT030 29/16 Q1017;
0120832880999992012070916004-13267-043417FM-15+0443SBLP V0201201N007712200019N0112651N1+03201+01401999999ADDGA1041+009001999GF104991999999999999999999MA1101591999999REMMET051METAR SBLP 091600Z 12015KT 9999 SCT030 32/14 Q1016;
0120832880999992012070917004-13267-043417FM-15+0443SBLP V0200901N004112200019N0112651N1+03201+01301999999ADDGA1021+009001999GF102991999999999999999999MA1101491999999REMMET051METAR SBLP 091700Z 09008KT 9999 FEW030 32/13 Q1015;
0120832880999992012070918004-13267-043417FM-15+0443SBLP V0200901N004112200019N0112651N1+03201+01201999999ADDGA1021+009001999GF102991999999999999999999MA1101491999999REMMET051METAR SBLP 091800Z 09008KT 9999 FEW030 32/12 Q1015;
0120832880999992012070919004-13267-043417FM-15+0443SBLP V0200801N004112200019N0112651N1+03201+01401999999ADDGA1021+009001999GF102991999999999999999999MA1101391999999REMMET051METAR SBLP 091900Z 08008KT 9999 FEW030 32/14 Q1014;
0120832880999992012070920004-13267-043417FM-15+0443SBLP V0201201N004112200019N0112651N1+03101+01001999999ADDGA1041+009001999GF104991999999999999999999MA1101491999999REMMET051METAR SBLP 092000Z 12008KT 9999 SCT030 31/10 Q1015;
0120832880999992012070921004-13267-043417FM-15+0443SBLP V0201201N004112200019N0112651N1+02901+01301999999ADDGA1041+009001999GF104991999999999999999999MA1101491999999REMMET051METAR SBLP 092100Z 12008KT 9999 SCT030 29/13 Q1015;
0072832880999992012071010004-13267-043417FM-15+0443SBLP V0201901N002119999999Y0099001N1+01801+01501999999ADDMA1101801999999REMMET045METAR SBLP 101000Z 19004KT CAVOK 18/15 Q1018;
0072832880999992012071011004-13267-043417FM-15+0443SBLP V0201801N003119999999Y0099001N1+02101+01601999999ADDMA1101901999999REMMET045METAR SBLP 101100Z 18006KT CAVOK 21/16 Q1019;
0072832880999992012071012004-13267-043417FM-15+0443SBLP V0201201N004119999999Y0099001N1+02401+01501999999ADDMA1101901999999REMMET045METAR SBLP 101200Z 12008KT CAVOK 24/15 Q1019;
0072832880999992012071013004-13267-043417FM-15+0443SBLP V0201301N004119999999Y0099001N1+02601+01501999999ADDMA1101901999999REMMET045METAR SBLP 101300Z 13008KT CAVOK 26/15 Q1019;
0120832880999992012071014004-13267-043417FM-15+0443SBLP V0201201N001512200019N0112651N1+02801+01401999999ADDGA1021+009001999GF102991999999999999999999MA1101801999999REMMET051METAR SBLP 101400Z 12003KT 9999 FEW030 28/14 Q1018;
0120832880999992012071015004-13267-043417FM-15+0443SBLP V0201201N002112200019N0112651N1+02901+01501999999ADDGA1021+009001999GF102991999999999999999999MA1101691999999REMMET051METAR SBLP 101500Z 12004KT 9999 FEW030 29/15 Q1017;
0120832880999992012071017004-13267-043417FM-15+0443SBLP V0202401N003112200019N0112651N1+03001+01701999999ADDGA1041+009001999GF104991999999999999999999MA1101391999999REMMET051METAR SBLP 101700Z 24006KT 9999 SCT030 30/17 Q1014;
0120832880999992012071018004-13267-043417FM-15+0443SBLP V0202101N003112200019N0112651N1+03101+01601999999ADDGA1041+009001999GF104991999999999999999999MA1101391999999REMMET051METAR SBLP 101800Z 21006KT 9999 SCT030 31/16 Q1014;
0120832880999992012071019004-13267-043417FM-15+0443SBLP V0201801N003112200019N0112651N1+03101+01801999999ADDGA1021+009001999GF102991999999999999999999MA1101291999999REMMET051METAR SBLP 101900Z 18006KT 9999 FEW030 31/18 Q1013;
0120832880999992012071020004-13267-043417FM-15+0443SBLP V0201801N003112200019N0112651N1+02901+01801999999ADDGA1021+009001999GF102991999999999999999999MA1101291999999REMMET051METAR SBLP 102000Z 18006KT 9999 FEW030 29/18 Q1013;
0072832880999992012071021004-13267-043417FM-15+0443SBLP V0209999C000019999999Y0099001N1+02801+01901999999ADDMA1101291999999REMMET045METAR SBLP 102100Z 00000KT CAVOK 28/19 Q1013;
0072832880999992012071110004-13267-043417FM-15+0443SBLP V0209999C000019999999Y0099001N1+02201+01901999999ADDMA1101491999999REMMET045METAR SBLP 111000Z 00000KT CAVOK 22/19 Q1015;
0072832880999992012071111004-13267-043417FM-15+0443SBLP V0209999C000019999999Y0099001N1+02401+01801999999ADDMA1101591999999REMMET045METAR SBLP 111100Z 00000KT CAVOK 24/18 Q1016;
0072832880999992012071112004-13267-043417FM-15+0443SBLP V0209999C000019999999Y0099001N1+02701+01601999999ADDMA1101591999999REMMET045METAR SBLP 111200Z 00000KT CAVOK 27/16 Q1016;
0072832880999992012071113004-13267-043417FM-15+0443SBLP V0209999C000019999999Y0099001N1+02901+01601999999ADDMA1101591999999REMMET045METAR SBLP 111300Z 00000KT CAVOK 29/16 Q1016;
0072832880999992012071114004-13267-043417FM-15+0443SBLP V0209999C000019999999Y0099001N1+03001+01501999999ADDMA1101491999999REMMET045METAR SBLP 111400Z 00000KT CAVOK 30/15 Q1015;
0120832880999992012071115004-13267-043417FM-15+0443SBLP V0200901N003112200019N0112651N1+03101+01501999999ADDGA1021+009001999GF102991999999999999999999MA1101391999999REMMET051METAR SBLP 111500Z 09006KT 9999 FEW030 31/15 Q1014;
0072832880999992012071116004-13267-043417FM-15+0443SBLP V0202401N003119999999Y0099001N1+03101+01801999999ADDMA1101291999999REMMET045METAR SBLP 111600Z 24006KT CAVOK 31/18 Q1013;
0120832880999992012071117004-13267-043417FM-15+0443SBLP V0202701N003112200019N0112651N1+03201+01801999999ADDGA1041+009001999GF104991999999999999999999MA1101191999999REMMET051METAR SBLP 111700Z 27006KT 9999 SCT030 32/18 Q1012;
0120832880999992012071118004-13267-043417FM-15+0443SBLP V0201801N002112200019N0112651N1+03301+01301999999ADDGA1041+009001999GF104991999999999999999999MA1101081999999REMMET051METAR SBLP 111800Z 18004KT 9999 SCT030 33/13 Q1011;
0120832880999992012071119004-13267-043417FM-15+0443SBLP V0209999C000012200019N0112651N1+03301+01401999999ADDGA1041+009001999GF104991999999999999999999MA1101081999999REMMET051METAR SBLP 111900Z 00000KT 9999 SCT030 33/14 Q1011;
0120832880999992012071120004-13267-043417FM-15+0443SBLP V0209999C000012200019N0112651N1+03301+01501999999ADDGA1021+009001999GF102991999999999999999999MA1101081999999REMMET051METAR SBLP 112000Z 00000KT 9999 FEW030 33/15 Q1011;
0120832880999992012071121004-13267-043417FM-15+0443SBLP V0209999C000012200019N0112651N1+03101+01601999999ADDGA1021+009001999GF102991999999999999999999MA1101081999999REMMET051METAR SBLP 112100Z 00000KT 9999 FEW030 31/16 Q1011;
0072832880999992012071210004-13267-043417FM-15+0443SBLP V0209999C000019999999Y0099001N1+01801+01501999999ADDMA1101391999999REMMET045METAR SBLP 121000Z 00000KT CAVOK 18/15 Q1014;
0072832880999992012071211004-13267-043417FM-15+0443SBLP V0209999C000019999999Y0099001N1+01901+01501999999ADDMA1101491999999REMMET045METAR SBLP 121100Z 00000KT CAVOK 19/15 Q1015;
0072832880999992012071212004-13267-043417FM-15+0443SBLP V0209999C000019999999Y0099001N1+02501+01701999999ADDMA1101491999999REMMET045METAR SBLP 121200Z 00000KT CAVOK 25/17 Q1015;
0072832880999992012071213004-13267-043417FM-15+0443SBLP V0209999C000019999999Y0099001N1+02801+01601999999ADDMA1101591999999REMMET045METAR SBLP 121300Z 00000KT CAVOK 28/16 Q1016;
0072832880999992012071214004-13267-043417FM-15+0443SBLP V0209999C000019999999Y0099001N1+03001+01501999999ADDMA1101491999999REMMET045METAR SBLP 121400Z 00000KT CAVOK 30/15 Q1015;
0120832880999992012071215004-13267-043417FM-15+0443SBLP V0202701N003112200019N0112651N1+03101+01601999999ADDGA1021+009001999GF102991999999999999999999MA1101391999999REMMET051METAR SBLP 121500Z 27006KT 9999 FEW030 31/16 Q1014;
0120832880999992012071216004-13267-043417FM-15+0443SBLP V0202701N003112200019N0112651N1+03301+01601999999ADDGA1021+009001999GF102991999999999999999999MA1101291999999REMMET051METAR SBLP 121600Z 27006KT 9999 FEW030 33/16 Q1013;
0120832880999992012071217004-13267-043417FM-15+0443SBLP V0201801N003112200019N0112651N1+03301+01501999999ADDGA1021+009001999GF102991999999999999999999MA1101191999999REMMET051METAR SBLP 121700Z 18006KT 9999 FEW030 33/15 Q1012;
0120832880999992012071218004-13267-043417FM-15+0443SBLP V0200901N003112200019N0112651N1+03501+01401999999ADDGA1021+009001999GF102991999999999999999999MA1101081999999REMMET051METAR SBLP 121800Z 09006KT 9999 FEW030 35/14 Q1011;
0120832880999992012071219004-13267-043417FM-15+0443SBLP V0209999C000012200019N0112651N1+03501+01401999999ADDGA1021+009001999GF102991999999999999999999MA1101081999999REMMET051METAR SBLP 121900Z 00000KT 9999 FEW030 35/14 Q1011;
0072832880999992012071220004-13267-043417FM-15+0443SBLP V0209999C000019999999Y0099001N1+03401+01501999999ADDMA1101081999999REMMET045METAR SBLP 122000Z 00000KT CAVOK 34/15 Q1011;
0072832880999992012071221004-13267-043417FM-15+0443SBLP V0209999C000019999999Y0099001N1+03101+01601999999ADDMA1101191999999REMMET045METAR SBLP 122100Z 00000KT CAVOK 31/16 Q1012;
0072832880999992012071310004-13267-043417FM-15+0443SBLP V0209999C000019999999Y0099001N1+02401+01601999999ADDMA1101591999999REMMET045METAR SBLP 131000Z 00000KT CAVOK 24/16 Q1016;
0072832880999992012071311004-13267-043417FM-15+0443SBLP V0209999C000019999999Y0099001N1+02501+01501999999ADDMA1101691999999REMMET045METAR SBLP 131100Z 00000KT CAVOK 25/15 Q1017;
0072832880999992012071312004-13267-043417FM-15+0443SBLP V0209999C000019999999Y0099001N1+02701+01501999999ADDMA1101801999999REMMET045METAR SBLP 131200Z 00000KT CAVOK 27/15 Q1018;
0072832880999992012071313004-13267-043417FM-15+0443SBLP V0209999C000019999999Y0099001N1+02901+01401999999ADDMA1101691999999REMMET045METAR SBLP 131300Z 00000KT CAVOK 29/14 Q1017;
0072832880999992012071314004-13267-043417FM-15+0443SBLP V0209999C000019999999Y0099001N1+03001+01401999999ADDMA1101591999999REMMET045METAR SBLP 131400Z 00000KT CAVOK 30/14 Q1016;
0072832880999992012071315004-13267-043417FM-15+0443SBLP V0209999C000019999999Y0099001N1+03101+01301999999ADDMA1101491999999REMMET045METAR SBLP 131500Z 00000KT CAVOK 31/13 Q1015;
0072832880999992012071316004-13267-043417FM-15+0443SBLP V0201901N002119999999Y0099001N1+03401+01601999999ADDMA1101391999999REMMET045METAR SBLP 131600Z 19004KT CAVOK 34/16 Q1014;
0072832880999992012071317004-13267-043417FM-15+0443SBLP V0203301N003119999999Y0099001N1+03501+01601999999ADDMA1101291999999REMMET045METAR SBLP 131700Z 33006KT CAVOK 35/16 Q1013;
0072832880999992012071318004-13267-043417FM-15+0443SBLP V0201801N003119999999Y0099001N1+03501+01301999999ADDMA1101291999999REMMET045METAR SBLP 131800Z 18006KT CAVOK 35/13 Q1013;
0072832880999992012071319004-13267-043417FM-15+0443SBLP V0201801N002119999999Y0099001N1+03501+01301999999ADDMA1101291999999REMMET045METAR SBLP 131900Z 18004KT CAVOK 35/13 Q1013;
0072832880999992012071320004-13267-043417FM-15+0443SBLP V0201801N002119999999Y0099001N1+03401+01301999999ADDMA1101291999999REMMET045METAR SBLP 132000Z 18004KT CAVOK 34/13 Q1013;
0072832880999992012071321004-13267-043417FM-15+0443SBLP V0201501N002119999999Y0099001N1+03101+01201999999ADDMA1101391999999REMMET045METAR SBLP 132100Z 15004KT CAVOK 31/12 Q1014;
0072832880999992012071610004-13267-043417FM-15+0443SBLP V0201201N001519999999Y0099001N1+01901+01701999999ADDMA1101901999999REMMET045METAR SBLP 161000Z 12003KT CAVOK 19/17 Q1019;
0072832880999992012071611004-13267-043417FM-15+0443SBLP V0201501N002119999999Y0099001N1+02301+01601999999ADDMA1101901999999REMMET045METAR SBLP 161100Z 15004KT CAVOK 23/16 Q1019;
0107832880999992012071612004-13267-043417FM-15+0443SBLP V0201301N003119999999Y0099001N1+02601+01501999999ADDMA1999999999999REMMET045METAR SBLP 161200Z 13006KT CAVOK 26/15 Q1013;EQDQ01+101293APOA  Q02 101303APOA  
0072832880999992012071613004-13267-043417FM-15+0443SBLP V0209999C000019999999Y0099001N1+02801+01401999999ADDMA1102001999999REMMET045METAR SBLP 161300Z 00000KT CAVOK 28/14 Q1020;
0072832880999992012071614004-13267-043417FM-15+0443SBLP V0200601N004119999999Y0099001N1+03001+01301999999ADDMA1101901999999REMMET045METAR SBLP 161400Z 06008KT CAVOK 30/13 Q1019;
0120832880999992012071615004-13267-043417FM-15+0443SBLP V0200901N004112200019N0112651N1+03101+01301999999ADDGA1021+009001999GF102991999999999999999999MA1101801999999REMMET051METAR SBLP 161500Z 09008KT 9999 FEW030 31/13 Q1018;
0120832880999992012071616004-13267-043417FM-15+0443SBLP V0201801N003112200019N0112651N1+03301+01401999999ADDGA1041+009001999GF104991999999999999999999MA1101691999999REMMET051METAR SBLP 161600Z 18006KT 9999 SCT030 33/14 Q1017;
0120832880999992012071617004-13267-043417FM-15+0443SBLP V0200901N004112200019N0112651N1+03201+01301999999ADDGA1041+009001999GF104991999999999999999999MA1101591999999REMMET051METAR SBLP 161700Z 09008KT 9999 SCT030 32/13 Q1016;
0120832880999992012071618004-13267-043417FM-15+0443SBLP V0201001N002112200019N0112651N1+03301+01201999999ADDGA1041+009001999GF104991999999999999999999MA1101591999999REMMET051METAR SBLP 161800Z 10004KT 9999 SCT030 33/12 Q1016;
0120832880999992012071619004-13267-043417FM-15+0443SBLP V0201001N005112200019N0112651N1+03201+01201999999ADDGA1041+009001999GF104991999999999999999999MA1101591999999REMMET051METAR SBLP 161900Z 10010KT 9999 SCT030 32/12 Q1016;
0120832880999992012071620004-13267-043417FM-15+0443SBLP V0201201N002612200019N0112651N1+03101+01201999999ADDGA1041+009001999GF104991999999999999999999MA1101591999999REMMET051METAR SBLP 162000Z 12005KT 9999 SCT030 31/12 Q1016;
0120832880999992012071621004-13267-043417FM-15+0443SBLP V0201201N004112200019N0112651N1+03001+01501999999ADDGA1041+009001999GF104991999999999999999999MA1101591999999REMMET051METAR SBLP 162100Z 12008KT 9999 SCT030 30/15 Q1016;
0072832880999992012071710004-13267-043417FM-15+0443SBLP V0201801N001019999999Y0099001N1+01701+01501999999ADDMA1102001999999REMMET045METAR SBLP 171000Z 18002KT CAVOK 17/15 Q1020;
0072832880999992012071711004-13267-043417FM-15+0443SBLP V0201501N002619999999Y0099001N1+02101+01501999999ADDMA1102001999999REMMET045METAR SBLP 171100Z 15005KT CAVOK 21/15 Q1020;
0072832880999992012071712004-13267-043417FM-15+0443SBLP V0201101N003119999999Y0099001N1+02501+01401999999ADDMA1102101999999REMMET045METAR SBLP 171200Z 11006KT CAVOK 25/14 Q1021;
0072832880999992012071713004-13267-043417FM-15+0443SBLP V0200901N001519999999Y0099001N1+02801+01301999999ADDMA1102101999999REMMET045METAR SBLP 171300Z 09003KT CAVOK 28/13 Q1021;
0072832880999992012071714004-13267-043417FM-15+0443SBLP V0209999C000019999999Y0099001N1+02901+01301999999ADDMA1102001999999REMMET045METAR SBLP 171400Z 00000KT CAVOK 29/13 Q1020;
0120832880999992012071715004-13267-043417FM-15+0443SBLP V0201901N004112200019N0112651N1+03101+01301999999ADDGA1021+009001999GF102991999999999999999999MA1101901999999REMMET051METAR SBLP 171500Z 19008KT 9999 FEW030 31/13 Q1019;
0120832880999992012071716004-13267-043417FM-15+0443SBLP V0202701N002112200019N0112651N1+03101+01301999999ADDGA1021+009001999GF102991999999999999999999MA1101801999999REMMET051METAR SBLP 171600Z 27004KT 9999 FEW030 31/13 Q1018;
0120832880999992012071717004-13267-043417FM-15+0443SBLP V0203001N001512200019N0112651N1+03201+01201999999ADDGA1021+009001999GF102991999999999999999999MA1101691999999REMMET051METAR SBLP 171700Z 30003KT 9999 FEW030 32/12 Q1017;
0120832880999992012071718004-13267-043417FM-15+0443SBLP V0209999C000012200019N0112651N1+03301+01201999999ADDGA1021+009001999GF102991999999999999999999MA1101591999999REMMET051METAR SBLP 171800Z 00000KT 9999 FEW030 33/12 Q1016;
0120832880999992012071719004-13267-043417FM-15+0443SBLP V0209999C000012200019N0112651N1+03301+01201999999ADDGA1021+009001999GF102991999999999999999999MA1101591999999REMMET051METAR SBLP 171900Z 00000KT 9999 FEW030 33/12 Q1016;
0120832880999992012071720004-13267-043417FM-15+0443SBLP V0202101N002112200019N0112651N1+03201+01201999999ADDGA1021+009001999GF102991999999999999999999MA1101591999999REMMET051METAR SBLP 172000Z 21004KT 9999 FEW030 32/12 Q1016;
0072832880999992012071721004-13267-043417FM-15+0443SBLP V0209999C000019999999Y0099001N1+03001+01301999999ADDMA1101591999999REMMET045METAR SBLP 172100Z 00000KT CAVOK 30/13 Q1016;
0072832880999992012071810004-13267-043417FM-15+0443SBLP V0209999C000019999999Y0099001N1+01901+01401999999ADDMA1101901999999REMMET045METAR SBLP 181000Z 00000KT CAVOK 19/14 Q1019;
0072832880999992012071811004-13267-043417FM-15+0443SBLP V0209999C000019999999Y0099001N1+02101+01501999999ADDMA1102001999999REMMET045METAR SBLP 181100Z 00000KT CAVOK 21/15 Q1020;
0072832880999992012071812004-13267-043417FM-15+0443SBLP V0200901N003119999999Y0099001N1+02601+01401999999ADDMA1102001999999REMMET045METAR SBLP 181200Z 09006KT CAVOK 26/14 Q1020;
0072832880999992012071813004-13267-043417FM-15+0443SBLP V0200401N003119999999Y0099001N1+02801+01401999999ADDMA1102001999999REMMET045METAR SBLP 181300Z 04006KT CAVOK 28/14 Q1020;
0072832880999992012071814004-13267-043417FM-15+0443SBLP V0209999C000019999999Y0099001N1+03001+01201999999ADDMA1101901999999REMMET045METAR SBLP 181400Z 00000KT CAVOK 30/12 Q1019;
0072832880999992012071815004-13267-043417FM-15+0443SBLP V0209999C000019999999Y0099001N1+03101+01301999999ADDMA1101901999999REMMET045METAR SBLP 181500Z 00000KT CAVOK 31/13 Q1019;
0120832880999992012071816004-13267-043417FM-15+0443SBLP V0202101N001512200019N0112651N1+03301+01301999999ADDGA1021+009001999GF102991999999999999999999MA1101801999999REMMET051METAR SBLP 181600Z 21003KT 9999 FEW030 33/13 Q1018;
0120832880999992012071817004-13267-043417FM-15+0443SBLP V0203101N001512200019N0112651N1+03301+01201999999ADDGA1021+009001999GF102991999999999999999999MA1101591999999REMMET051METAR SBLP 181700Z 31003KT 9999 FEW030 33/12 Q1016;
0120832880999992012071818004-13267-043417FM-15+0443SBLP V0203101N003112200019N0112651N1+03401+01301999999ADDGA1021+009001999GF102991999999999999999999MA1101491999999REMMET051METAR SBLP 181800Z 31006KT 9999 FEW030 34/13 Q1015;
0120832880999992012071819004-13267-043417FM-15+0443SBLP V0202401N002112200019N0112651N1+03401+01301999999ADDGA1021+009001999GF102991999999999999999999MA1101491999999REMMET051METAR SBLP 181900Z 24004KT 9999 FEW030 34/13 Q1015;
0120832880999992012071820004-13267-043417FM-15+0443SBLP V0202901N001512200019N0112651N1+03301+01301999999ADDGA1021+009001999GF102991999999999999999999MA1101591999999REMMET051METAR SBLP 182000Z 29003KT 9999 FEW030 33/13 Q1016;
0120832880999992012071821004-13267-043417FM-15+0443SBLP V0201801N001512200019N0112651N1+03001+01301999999ADDGA1021+009001999GF102991999999999999999999MA1101591999999REMMET051METAR SBLP 182100Z 18003KT 9999 FEW030 30/13 Q1016;
0072832880999992012071910004-13267-043417FM-15+0443SBLP V0201801N002119999999Y0099001N1+01901+01501999999ADDMA1101901999999REMMET045METAR SBLP 191000Z 18004KT CAVOK 19/15 Q1019;
0072832880999992012071911004-13267-043417FM-15+0443SBLP V0201801N002119999999Y0099001N1+02201+01401999999ADDMA1101901999999REMMET045METAR SBLP 191100Z 18004KT CAVOK 22/14 Q1019;
0072832880999992012071912004-13267-043417FM-15+0443SBLP V0201801N002119999999Y0099001N1+02501+01401999999ADDMA1102001999999REMMET045METAR SBLP 191200Z 18004KT CAVOK 25/14 Q1020;
0072832880999992012071913004-13267-043417FM-15+0443SBLP V0201801N002119999999Y0099001N1+02701+01701999999ADDMA1101901999999REMMET045METAR SBLP 191300Z 18004KT CAVOK 27/17 Q1019;
0072832880999992012071914004-13267-043417FM-15+0443SBLP V0209999C000019999999Y0099001N1+02901+01701999999ADDMA1101901999999REMMET045METAR SBLP 191400Z 00000KT CAVOK 29/17 Q1019;
0072832880999992012071915004-13267-043417FM-15+0443SBLP V0202101N002119999999Y0099001N1+03001+01601999999ADDMA1101801999999REMMET045METAR SBLP 191500Z 21004KT CAVOK 30/16 Q1018;
0120832880999992012071916004-13267-043417FM-15+0443SBLP V0209999C000012200019N0112651N1+03001+01601999999ADDGA1021+009001999GF102991999999999999999999MA1101691999999REMMET051METAR SBLP 191600Z 00000KT 9999 FEW030 30/16 Q1017;
0120832880999992012071917004-13267-043417FM-15+0443SBLP V0202101N003112200019N0112651N1+03301+01601999999ADDGA1021+009001999GF102991999999999999999999MA1101591999999REMMET051METAR SBLP 191700Z 21006KT 9999 FEW030 33/16 Q1016;
0120832880999992012071918004-13267-043417FM-15+0443SBLP V0209999C000012200019N0112651N1+03301+01501999999ADDGA1021+009001999GF102991999999999999999999MA1101491999999REMMET051METAR SBLP 191800Z 00000KT 9999 FEW030 33/15 Q1015;
0120832880999992012071919004-13267-043417FM-15+0443SBLP V0202101N003112200019N0112651N1+03401+01401999999ADDGA1021+009001999GF102991999999999999999999MA1101391999999REMMET051METAR SBLP 191900Z 21006KT 9999 FEW030 34/14 Q1014;
0120832880999992012071920004-13267-043417FM-15+0443SBLP V0201801N003112200019N0112651N1+03301+01401999999ADDGA1021+009001999GF102991999999999999999999MA1101391999999REMMET051METAR SBLP 192000Z 18006KT 9999 FEW030 33/14 Q1014;
0072832880999992012071921004-13267-043417FM-15+0443SBLP V0209999C000019999999Y0099001N1+03201+01501999999ADDMA1101491999999REMMET045METAR SBLP 192100Z 00000KT CAVOK 32/15 Q1015;
0072832880999992012072010004-13267-043417FM-15+0443SBLP V0209999C000019999999Y0099001N1+01901+01401999999ADDMA1101801999999REMMET045METAR SBLP 201000Z 00000KT CAVOK 19/14 Q1018;
0072832880999992012072011004-13267-043417FM-15+0443SBLP V0200901N003119999999Y0099001N1+02201+01401999999ADDMA1101901999999REMMET045METAR SBLP 201100Z 09006KT CAVOK 22/14 Q1019;
0072832880999992012072012004-13267-043417FM-15+0443SBLP V0200901N003119999999Y0099001N1+02801+01401999999ADDMA1101901999999REMMET045METAR SBLP 201200Z 09006KT CAVOK 28/14 Q1019;
0072832880999992012072013004-13267-043417FM-15+0443SBLP V0201201N002119999999Y0099001N1+02901+01501999999ADDMA1101901999999REMMET045METAR SBLP 201300Z 12004KT CAVOK 29/15 Q1019;
0072832880999992012072014004-13267-043417FM-15+0443SBLP V0209999C000019999999Y0099001N1+03001+01401999999ADDMA1101801999999REMMET045METAR SBLP 201400Z 00000KT CAVOK 30/14 Q1018;
0072832880999992012072015004-13267-043417FM-15+0443SBLP V0209999C000019999999Y0099001N1+03101+01301999999ADDMA1101801999999REMMET045METAR SBLP 201500Z 00000KT CAVOK 31/13 Q1018;
0120832880999992012072016004-13267-043417FM-15+0443SBLP V0201301N002612200019N0112651N1+03301+01301999999ADDGA1021+009001999GF102991999999999999999999MA1101591999999REMMET051METAR SBLP 201600Z 13005KT 9999 FEW030 33/13 Q1016;
0120832880999992012072017004-13267-043417FM-15+0443SBLP V0201201N001512200019N0112651N1+03501+01101999999ADDGA1021+009001999GF102991999999999999999999MA1101491999999REMMET051METAR SBLP 201700Z 12003KT 9999 FEW030 35/11 Q1015;
0120832880999992012072018004-13267-043417FM-15+0443SBLP V0209999C000012200019N0112651N1+03501+01201999999ADDGA1041+009001999GF104991999999999999999999MA1101391999999REMMET051METAR SBLP 201800Z 00000KT 9999 SCT030 35/12 Q1014;
0120832880999992012072019004-13267-043417FM-15+0443SBLP V0201801N001512200019N0112651N1+03501+01201999999ADDGA1021+009001999GF102991999999999999999999MA1101391999999REMMET051METAR SBLP 201900Z 18003KT 9999 FEW030 35/12 Q1014;
0120832880999992012072020004-13267-043417FM-15+0443SBLP V0202101N001512200019N0112651N1+03401+01401999999ADDGA1021+009001999GF102991999999999999999999MA1101391999999REMMET051METAR SBLP 202000Z 21003KT 9999 FEW030 34/14 Q1014;
0120832880999992012072021004-13267-043417FM-15+0443SBLP V0201801N001512200019N0112651N1+03101+01501999999ADDGA1021+009001999GF102991999999999999999999MA1101491999999REMMET051METAR SBLP 202100Z 18003KT 9999 FEW030 31/15 Q1015;
0072832880999992012072310004-13267-043417FM-15+0443SBLP V0209999C000019999999Y0099001N1+02001+01401999999ADDMA1102101999999REMMET045METAR SBLP 231000Z 00000KT CAVOK 20/14 Q1021;
0072832880999992012072311004-13267-043417FM-15+0443SBLP V0209999C000019999999Y0099001N1+02201+01401999999ADDMA1102101999999REMMET045METAR SBLP 231100Z 00000KT CAVOK 22/14 Q1021;
0072832880999992012072312004-13267-043417FM-15+0443SBLP V0209999C000019999999Y0099001N1+02401+01401999999ADDMA1102201999999REMMET045METAR SBLP 231200Z 00000KT CAVOK 24/14 Q1022;
0072832880999992012072313004-13267-043417FM-15+0443SBLP V0209999C000019999999Y0099001N1+02701+01401999999ADDMA1102101999999REMMET045METAR SBLP 231300Z 00000KT CAVOK 27/14 Q1021;
0072832880999992012072314004-13267-043417FM-15+0443SBLP V0200901N003119999999Y0099001N1+02901+01301999999ADDMA1102101999999REMMET045METAR SBLP 231400Z 09006KT CAVOK 29/13 Q1021;
0072832880999992012072315004-13267-043417FM-15+0443SBLP V0200901N003119999999Y0099001N1+03101+01201999999ADDMA1102001999999REMMET045METAR SBLP 231500Z 09006KT CAVOK 31/12 Q1020;
0072832880999992012072316004-13267-043417FM-15+0443SBLP V0201501N004119999999Y0099001N1+03301+01001999999ADDMA1101801999999REMMET045METAR SBLP 231600Z 15008KT CAVOK 33/10 Q1018;
0072832880999992012072317004-13267-043417FM-15+0443SBLP V0201201N006219999999Y0099001N1+03401+01101999999ADDMA1101691999999REMMET045METAR SBLP 231700Z 12012KT CAVOK 34/11 Q1017;
0072832880999992012072318004-13267-043417FM-15+0443SBLP V0201201N006219999999Y0099001N1+03401+00901999999ADDMA1101691999999REMMET045METAR SBLP 231800Z 12012KT CAVOK 34/09 Q1017;
0072832880999992012072319004-13267-043417FM-15+0443SBLP V0201201N002119999999Y0099001N1+03401+00701999999ADDMA1101591999999REMMET045METAR SBLP 231900Z 12004KT CAVOK 34/07 Q1016;
0072832880999992012072320004-13267-043417FM-15+0443SBLP V0201201N004119999999Y0099001N1+03301+00601999999ADDMA1101691999999REMMET045METAR SBLP 232000Z 12008KT CAVOK 33/06 Q1017;
0072832880999992012072321004-13267-043417FM-15+0443SBLP V0201201N004119999999Y0099001N1+03001+01001999999ADDMA1101691999999REMMET045METAR SBLP 232100Z 12008KT CAVOK 30/10 Q1017;
0072832880999992012072410004-13267-043417FM-15+0443SBLP V0202101N004119999999Y0099001N1+02001+00701999999ADDMA1101901999999REMMET045METAR SBLP 241000Z 21008KT CAVOK 20/07 Q1019;
0072832880999992012072411004-13267-043417FM-15+0443SBLP V0201801N004119999999Y0099001N1+02101+01101999999ADDMA1102001999999REMMET045METAR SBLP 241100Z 18008KT CAVOK 21/11 Q1020;
0072832880999992012072412004-13267-043417FM-15+0443SBLP V0209999C000019999999Y0099001N1+02501+01201999999ADDMA1102001999999REMMET045METAR SBLP 241200Z 00000KT CAVOK 25/12 Q1020;
0072832880999992012072413004-13267-043417FM-15+0443SBLP V0209999C000019999999Y0099001N1+02901+01001999999ADDMA1102001999999REMMET045METAR SBLP 241300Z 00000KT CAVOK 29/10 Q1020;
0072832880999992012072414004-13267-043417FM-15+0443SBLP V0209999C000019999999Y0099001N1+03001+01401999999ADDMA1102001999999REMMET045METAR SBLP 241400Z 00000KT CAVOK 30/14 Q1020;
0072832880999992012072415004-13267-043417FM-15+0443SBLP V0201801N002119999999Y0099001N1+03001+01201999999ADDMA1101901999999REMMET045METAR SBLP 241500Z 18004KT CAVOK 30/12 Q1019;
0072832880999992012072416004-13267-043417FM-15+0443SBLP V0202701N001519999999Y0099001N1+03201+01101999999ADDMA1101801999999REMMET045METAR SBLP 241600Z 27003KT CAVOK 32/11 Q1018;
0072832880999992012072417004-13267-043417FM-15+0443SBLP V0202101N003119999999Y0099001N1+03301+01201999999ADDMA1101691999999REMMET045METAR SBLP 241700Z 21006KT CAVOK 33/12 Q1017;
0072832880999992012072418004-13267-043417FM-15+0443SBLP V0202101N004119999999Y0099001N1+03401+01201999999ADDMA1101591999999REMMET045METAR SBLP 241800Z 21008KT CAVOK 34/12 Q1016;
0072832880999992012072419004-13267-043417FM-15+0443SBLP V0202101N002619999999Y0099001N1+03401+01101999999ADDMA1101591999999REMMET045METAR SBLP 241900Z 21005KT CAVOK 34/11 Q1016;
0072832880999992012072420004-13267-043417FM-15+0443SBLP V0202401N002619999999Y0099001N1+03301+01201999999ADDMA1101591999999REMMET045METAR SBLP 242000Z 24005KT CAVOK 33/12 Q1016;
0072832880999992012072421004-13267-043417FM-15+0443SBLP V0201801N003119999999Y0099001N1+02901+01301999999ADDMA1101591999999REMMET045METAR SBLP 242100Z 18006KT CAVOK 29/13 Q1016;
0072832880999992012072510004-13267-043417FM-15+0443SBLP V0201801N001519999999Y0099001N1+01701+01401999999ADDMA1101901999999REMMET045METAR SBLP 251000Z 18003KT CAVOK 17/14 Q1019;
0072832880999992012072511004-13267-043417FM-15+0443SBLP V0209999C000019999999Y0099001N1+01901+01401999999ADDMA1102001999999REMMET045METAR SBLP 251100Z 00000KT CAVOK 19/14 Q1020;
0072832880999992012072512004-13267-043417FM-15+0443SBLP V0209999C000019999999Y0099001N1+02201+01401999999ADDMA1102101999999REMMET045METAR SBLP 251200Z 00000KT CAVOK 22/14 Q1021;
0072832880999992012072513004-13267-043417FM-15+0443SBLP V0200601N001519999999Y0099001N1+02601+01201999999ADDMA1102101999999REMMET045METAR SBLP 251300Z 06003KT CAVOK 26/12 Q1021;
0072832880999992012072514004-13267-043417FM-15+0443SBLP V0200601N003119999999Y0099001N1+02801+01301999999ADDMA1102001999999REMMET045METAR SBLP 251400Z 06006KT CAVOK 28/13 Q1020;
0072832880999992012072515004-13267-043417FM-15+0443SBLP V0201201N003119999999Y0099001N1+03001+01401999999ADDMA1101901999999REMMET045METAR SBLP 251500Z 12006KT CAVOK 30/14 Q1019;
0072832880999992012072516004-13267-043417FM-15+0443SBLP V0202101N003119999999Y0099001N1+03101+01501999999ADDMA1101801999999REMMET045METAR SBLP 251600Z 21006KT CAVOK 31/15 Q1018;
0072832880999992012072517004-13267-043417FM-15+0443SBLP V0202101N003119999999Y0099001N1+03101+01501999999ADDMA1101691999999REMMET045METAR SBLP 251700Z 21006KT CAVOK 31/15 Q1017;
0072832880999992012072518004-13267-043417FM-15+0443SBLP V0202401N003119999999Y0099001N1+03301+01401999999ADDMA1101591999999REMMET045METAR SBLP 251800Z 24006KT CAVOK 33/14 Q1016;
0072832880999992012072519004-13267-043417FM-15+0443SBLP V0201801N003119999999Y0099001N1+03301+01401999999ADDMA1101591999999REMMET045METAR SBLP 251900Z 18006KT CAVOK 33/14 Q1016;
0072832880999992012072520004-13267-043417FM-15+0443SBLP V0202101N003119999999Y0099001N1+03201+01501999999ADDMA1101591999999REMMET045METAR SBLP 252000Z 21006KT CAVOK 32/15 Q1016;
0072832880999992012072521004-13267-043417FM-15+0443SBLP V0209999C000019999999Y0099001N1+02801+01701999999ADDMA1101591999999REMMET045METAR SBLP 252100Z 00000KT CAVOK 28/17 Q1016;
0072832880999992012072611004-13267-043417FM-15+0443SBLP V0209999C000019999999Y0099001N1+01801+01401999999ADDMA1101901999999REMMET045METAR SBLP 261100Z 00000KT CAVOK 18/14 Q1019;
0072832880999992012072612004-13267-043417FM-15+0443SBLP V0209999C000019999999Y0099001N1+02301+01501999999ADDMA1102001999999REMMET045METAR SBLP 261200Z 00000KT CAVOK 23/15 Q1020;
0072832880999992012072613004-13267-043417FM-15+0443SBLP V0201801N003119999999Y0099001N1+02601+01401999999ADDMA1102001999999REMMET045METAR SBLP 261300Z 18006KT CAVOK 26/14 Q1020;
0072832880999992012072614004-13267-043417FM-15+0443SBLP V0209999C000019999999Y0099001N1+02901+01501999999ADDMA1101901999999REMMET045METAR SBLP 261400Z 00000KT CAVOK 29/15 Q1019;
0072832880999992012072615004-13267-043417FM-15+0443SBLP V0202101N003119999999Y0099001N1+02901+01501999999ADDMA1101801999999REMMET045METAR SBLP 261500Z 21006KT CAVOK 29/15 Q1018;
0072832880999992012072616004-13267-043417FM-15+0443SBLP V0201801N003119999999Y0099001N1+03201+01301999999ADDMA1101691999999REMMET045METAR SBLP 261600Z 18006KT CAVOK 32/13 Q1017;
0072832880999992012072617004-13267-043417FM-15+0443SBLP V0201801N003119999999Y0099001N1+03301+01301999999ADDMA1101591999999REMMET045METAR SBLP 261700Z 18006KT CAVOK 33/13 Q1016;
0072832880999992012072618004-13267-043417FM-15+0443SBLP V0201801N003119999999Y0099001N1+03401+01301999999ADDMA1101491999999REMMET045METAR SBLP 261800Z 18006KT CAVOK 34/13 Q1015;
0072832880999992012072619004-13267-043417FM-15+0443SBLP V0201801N003119999999Y0099001N1+03301+01301999999ADDMA1101491999999REMMET045METAR SBLP 261900Z 18006KT CAVOK 33/13 Q1015;
0072832880999992012072620004-13267-043417FM-15+0443SBLP V0209999C000019999999Y0099001N1+03201+01301999999ADDMA1101491999999REMMET045METAR SBLP 262000Z 00000KT CAVOK 32/13 Q1015;
0072832880999992012072621004-13267-043417FM-15+0443SBLP V0209999C000019999999Y0099001N1+02901+01401999999ADDMA1101591999999REMMET045METAR SBLP 262100Z 00000KT CAVOK 29/14 Q1016;
0072832880999992012072710004-13267-043417FM-15+0443SBLP V0201801N001519999999Y0099001N1+01901+01201999999ADDMA1101901999999REMMET045METAR SBLP 271000Z 18003KT CAVOK 19/12 Q1019;
0072832880999992012072711004-13267-043417FM-15+0443SBLP V0209999C000019999999Y0099001N1+02101+01201999999ADDMA1102001999999REMMET045METAR SBLP 271100Z 00000KT CAVOK 21/12 Q1020;
0072832880999992012072712004-13267-043417FM-15+0443SBLP V0209999C000019999999Y0099001N1+02401+01201999999ADDMA1102101999999REMMET045METAR SBLP 271200Z 00000KT CAVOK 24/12 Q1021;
0072832880999992012072713004-13267-043417FM-15+0443SBLP V0209999C000019999999Y0099001N1+02701+01201999999ADDMA1102101999999REMMET045METAR SBLP 271300Z 00000KT CAVOK 27/12 Q1021;
0072832880999992012072714004-13267-043417FM-15+0443SBLP V0209999C000019999999Y0099001N1+02901+01201999999ADDMA1102001999999REMMET045METAR SBLP 271400Z 00000KT CAVOK 29/12 Q1020;
0072832880999992012072715004-13267-043417FM-15+0443SBLP V0200901N003119999999Y0099001N1+03101+01001999999ADDMA1101901999999REMMET045METAR SBLP 271500Z 09006KT CAVOK 31/10 Q1019;
0072832880999992012072716004-13267-043417FM-15+0443SBLP V0202601N002119999999Y0099001N1+03301+01001999999ADDMA1101801999999REMMET045METAR SBLP 271600Z 26004KT CAVOK 33/10 Q1018;
0072832880999992012072717004-13267-043417FM-15+0443SBLP V0201901N002119999999Y0099001N1+03301+00801999999ADDMA1101591999999REMMET045METAR SBLP 271700Z 19004KT CAVOK 33/08 Q1016;
0072832880999992012072718004-13267-043417FM-15+0443SBLP V0202401N004119999999Y0099001N1+03301+01001999999ADDMA1101591999999REMMET045METAR SBLP 271800Z 24008KT CAVOK 33/10 Q1016;
0072832880999992012072719004-13267-043417FM-15+0443SBLP V0202401N004112200019N0099001N1+03401+00901999999ADDMA1101501999999REMMET045METAR SBLP 271900Z 24008KT CACOK 34/09 Q1015;
0072832880999992012072720004-13267-043417FM-15+0443SBLP V0201801N002119999999Y0099001N1+03301+01401999999ADDMA1101591999999REMMET045METAR SBLP 272000Z 18004KT CAVOK 33/14 Q1016;
0072832880999992012072721004-13267-043417FM-15+0443SBLP V0201801N002119999999Y0099001N1+03001+01501999999ADDMA1101591999999REMMET045METAR SBLP 272100Z 18004KT CAVOK 30/15 Q1016;
0072832880999992012073010004-13267-043417FM-15+0443SBLP V0201901N002119999999Y0099001N1+01601+01301999999ADDMA1102001999999REMMET045METAR SBLP 301000Z 19004KT CAVOK 16/13 Q1020;
0072832880999992012073011004-13267-043417FM-15+0443SBLP V0201501N002119999999Y0099001N1+02101+01401999999ADDMA1102101999999REMMET045METAR SBLP 301100Z 15004KT CAVOK 21/14 Q1021;
0072832880999992012073012004-13267-043417FM-15+0443SBLP V0200901N002119999999Y0099001N1+02501+01301999999ADDMA1102101999999REMMET045METAR SBLP 301200Z 09004KT CAVOK 25/13 Q1021;
0072832880999992012073013004-13267-043417FM-15+0443SBLP V0200901N002119999999Y0099001N1+02801+01201999999ADDMA1102201999999REMMET045METAR SBLP 301300Z 09004KT CAVOK 28/12 Q1022;
0072832880999992012073014004-13267-043417FM-15+0443SBLP V0201201N003119999999Y0099001N1+02901+01401999999ADDMA1102101999999REMMET045METAR SBLP 301400Z 12006KT CAVOK 29/14 Q1021;
0072832880999992012073015004-13267-043417FM-15+0443SBLP V0209999C000019999999Y0099001N1+03001+01501999999ADDMA1102001999999REMMET045METAR SBLP 301500Z 00000KT CAVOK 30/15 Q1020;
0072832880999992012073016004-13267-043417FM-15+0443SBLP V0201501N003119999999Y0099001N1+03101+01101999999ADDMA1101901999999REMMET045METAR SBLP 301600Z 15006KT CAVOK 31/11 Q1019;
0072832880999992012073017004-13267-043417FM-15+0443SBLP V0201501N004119999999Y0099001N1+03101+00901999999ADDMA1101801999999REMMET045METAR SBLP 301700Z 15008KY CAVOK 31/09 Q1018;
0072832880999992012073018004-13267-043417FM-15+0443SBLP V0201501N003119999999Y0099001N1+03301+01001999999ADDMA1101691999999REMMET045METAR SBLP 301800Z 15006KT CAVOK 33/10 Q1017;
0072832880999992012073019004-13267-043417FM-15+0443SBLP V0201401N001519999999Y0099001N1+03301+01001999999ADDMA1101691999999REMMET045METAR SBLP 301900Z 14003KT CAVOK 33/10 Q1017;
0072832880999992012073020004-13267-043417FM-15+0443SBLP V0201201N005119999999Y0099001N1+03201+01101999999ADDMA1101691999999REMMET045METAR SBLP 302000Z 12010KT CAVOK 32/11 Q1017;
0072832880999992012073021004-13267-043417FM-15+0443SBLP V0201201N004119999999Y0099001N1+03001+01301999999ADDMA1101801999999REMMET045METAR SBLP 302100Z 12008KT CAVOK 30/13 Q1018;
0072832880999992012073110004-13267-043417FM-15+0443SBLP V0201501N003119999999Y0099001N1+01901+01401999999ADDMA1102101999999REMMET045METAR SBLP 311000Z 15006KT CAVOK 19/14 Q1021;
0120832880999992012073111004-13267-043417FM-15+0443SBLP V0201501N004112200019N0112651N1+02201+01401999999ADDGA1021+009001999GF102991999999999999999999MA1102201999999REMMET051METAR SBLP 311100Z 15008KT 9999 FEW030 22/14 Q1022;
0120832880999992012073112004-13267-043417FM-15+0443SBLP V0201501N004112200019N0112651N1+02501+01401999999ADDGA1021+009001999GF102991999999999999999999MA1102201999999REMMET051METAR SBLP 311200Z 15008KT 9999 FEW030 25/14 Q1022;
0120832880999992012073113004-13267-043417FM-15+0443SBLP V0201201N004112200019N0112651N1+02801+01401999999ADDGA1021+009001999GF102991999999999999999999MA1102201999999REMMET051METAR SBLP 311300Z 12008KT 9999 FEW030 28/14 Q1022;
0120832880999992012073114004-13267-043417FM-15+0443SBLP V0201201N004112200019N0112651N1+02901+01301999999ADDGA1021+009001999GF102991999999999999999999MA1102201999999REMMET051METAR SBLP 311400Z 12008KT 9999 FEW030 29/13 Q1022;
0120832880999992012073115004-13267-043417FM-15+0443SBLP V0201201N003112200019N0112651N1+03001+01201999999ADDGA1021+009001999GF102991999999999999999999MA1102101999999REMMET051METAR SBLP 311500Z 12006KT 9999 FEW030 30/12 Q1021;
0072832880999992012073116004-13267-043417FM-15+0443SBLP V0201501N003119999999Y0099001N1+03001+01201999999ADDMA1102001999999REMMET045METAR SBLP 311600Z 15006KT CAVOK 30/12 Q1020;
0072832880999992012073117004-13267-043417FM-15+0443SBLP V0201201N004119999999Y0099001N1+03301+01201999999ADDMA1101801999999REMMET045METAR SBLP 311700Z 12008KT CAVOK 33/12 Q1018;
0072832880999992012073118004-13267-043417FM-15+0443SBLP V0200901N003119999999Y0099001N1+03301+01201999999ADDMA1101801999999REMMET045METAR SBLP 311800Z 09006KT CAVOK 33/12 Q1018;
0072832880999992012073119004-13267-043417FM-15+0443SBLP V0200901N005119999999Y0099001N1+03201+01101999999ADDMA1101691999999REMMET045METAR SBLP 311900Z 09010KT CAVOK 32/11 Q1017;
0072832880999992012073120004-13267-043417FM-15+0443SBLP V0201201N005119999999Y0099001N1+03001+01301999999ADDMA1101801999999REMMET045METAR SBLP 312000Z 12010KT CAVOK 30/13 Q1018;
0072832880999992012073121004-13267-043417FM-15+0443SBLP V0201201N003119999999Y0099001N1+02901+01501999999ADDMA1101801999999REMMET045METAR SBLP 312100Z 12006KT CAVOK 29/15 Q1018;
0120832880999992012080110004-13267-043417FM-15+0443SBLP V0201801N003112200019N0112651N1+01801+01401999999ADDGA1041+006001999GF104991999999999999999999MA1102201999999REMMET051METAR SBLP 011000Z 18006KT 9999 SCT020 18/14 Q1022;
0143832880999992012080111004-13267-043417FM-15+0443SBLP V0201201N003112200019N0112651N1+02101+01501999999ADDGA1021+006001999GA2041+030001999GF104991999999999999999999MA1102201999999REMMET058METAR SBLP 011100Z 12006KT 9999 FEW020 SCT100 21/15 Q1022;
0120832880999992012080112004-13267-043417FM-15+0443SBLP V0201201N005112200019N0112651N1+02401+01501999999ADDGA1021+006001999GF102991999999999999999999MA1102301999999REMMET051METAR SBLP 011200Z 12010KT 9999 FEW020 24/15 Q1023;
0120832880999992012080113004-13267-043417FM-15+0443SBLP V0200901N006212200019N0112651N1+02701+01401999999ADDGA1021+009001999GF102991999999999999999999MA1102201999999REMMET051METAR SBLP 011300Z 09012KT 9999 FEW030 27/14 Q1022;
0072832880999992012080114004-13267-043417FM-15+0443SBLP V0200901N005119999999Y0099001N1+02901+01301999999ADDMA1102201999999REMMET045METAR SBLP 011400Z 09010KT CAVOK 29/13 Q1022;
0072832880999992012080115004-13267-043417FM-15+0443SBLP V0200901N005119999999Y0099001N1+03101+01401999999ADDMA1102101999999REMMET045METAR SBLP 011500Z 09010KT CAVOK 31/14 Q1021;
0120832880999992012080116004-13267-043417FM-15+0443SBLP V0200901N003112200019N0112651N1+03201+01101999999ADDGA1021+009001999GF102991999999999999999999MA1102001999999REMMET051METAR SBLP 011600Z 09006KT 9999 FEW030 32/11 Q1020;
0120832880999992012080117004-13267-043417FM-15+0443SBLP V0200901N004112200019N0112651N1+03201+00901999999ADDGA1021+009001999GF102991999999999999999999MA1101801999999REMMET051METAR SBLP 011700Z 09008KT 9999 FEW030 32/09 Q1018;
0120832880999992012080118004-13267-043417FM-15+0443SBLP V0201101N006212200019N0112651N1+03201+01001999999ADDGA1021+009001999GF102991999999999999999999MA1101691999999REMMET051METAR SBLP 011800Z 11012KT 9999 FEW030 32/10 Q1017;
0120832880999992012080119004-13267-043417FM-15+0443SBLP V0201201N004112200019N0112651N1+03101+00901999999ADDGA1021+009001999GF102991999999999999999999MA1101691999999REMMET051METAR SBLP 011900Z 12008KT 9999 FEW030 31/09 Q1017;
0120832880999992012080120004-13267-043417FM-15+0443SBLP V0201201N007712200019N0112651N1+03201+01101999999ADDGA1021+009001999GF102991999999999999999999MA1101801999999REMMET051METAR SBLP 012000Z 12015KT 9999 FEW030 32/11 Q1018;
0072832880999992012080121004-13267-043417FM-15+0443SBLP V0201401N006219999999Y0099001N1+02801+01201999999ADDMA1101801999999REMMET045METAR SBLP 012100Z 14012KT CAVOK 28/12 Q1018;
0072832880999992012080210004-13267-043417FM-15+0443SBLP V0201201N002619999999Y0099001N1+01801+99999999999ADDMA1102101999999REMMET045METAR SBLP 021000Z 12005KT CAVOK 18/21 Q1021;
0072832880999992012080213004-13267-043417FM-15+0443SBLP V0201101N003119999999Y0099001N1+02601+01401999999ADDMA1102301999999REMMET045METAR SBLP 021300Z 11006KT CAVOK 26/14 Q1023;
0120832880999992012080214004-13267-043417FM-15+0443SBLP V0201301N002112200019N0112651N1+02701+01301999999ADDGA1041+009001999GF104991999999999999999999MA1102201999999REMMET051METAR SBLP 021400Z 13004KT 9999 SCT030 27/13 Q1022;
0120832880999992012080215004-13267-043417FM-15+0443SBLP V0200901N002112200019N0112651N1+02901+01101999999ADDGA1041+009001999GF104991999999999999999999MA1102001999999REMMET051METAR SBLP 021500Z 09004KT 9999 SCT030 29/11 Q1020;
0120832880999992012080216004-13267-043417FM-15+0443SBLP V0200901N004112200019N0112651N1+03001+01101999999ADDGA1021+009001999GF102991999999999999999999MA1101901999999REMMET051METAR SBLP 021600Z 09008KT 9999 FEW030 30/11 Q1019;
0120832880999992012080217004-13267-043417FM-15+0443SBLP V0201201N002612200019N0112651N1+03101+01101999999ADDGA1021+009001999GF102991999999999999999999MA1101691999999REMMET051METAR SBLP 021700Z 12005KT 9999 FEW030 31/11 Q1017;
0120832880999992012080218004-13267-043417FM-15+0443SBLP V0200601N003112200019N0112651N1+03101+01301999999ADDGA1021+009001999GF102991999999999999999999MA1101691999999REMMET051METAR SBLP 021800Z 06006KT 9999 FEW030 31/13 Q1017;
0072832880999992012080219004-13267-043417FM-15+0443SBLP V0200901N003119999999Y0099001N1+03101+01401999999ADDMA1101591999999REMMET045METAR SBLP 021900Z 09006KT CAVOK 31/14 Q1016;
0072832880999992012080220004-13267-043417FM-15+0443SBLP V0200901N005119999999Y0099001N1+03101+01001999999ADDMA1101691999999REMMET045METAR SBLP 022000Z 09010KT CAVOK 31/10 Q1017;
0072832880999992012080221004-13267-043417FM-15+0443SBLP V0201201N003119999999Y0099001N1+02901+01001999999ADDMA1101691999999REMMET045METAR SBLP 022100Z 12006KT CAVOK 29/10 Q1017;
0072832880999992012080310004-13267-043417FM-15+0443SBLP V0201201N002119999999Y0099001N1+01901+01301999999ADDMA1101901999999REMMET045METAR SBLP 031000Z 12004KT CAVOK 19/13 Q1019;
0072832880999992012080311004-13267-043417FM-15+0443SBLP V0200901N006219999999Y0099001N1+02301+01401999999ADDMA1102001999999REMMET045METAR SBLP 031100Z 09012KT CAVOK 23/14 Q1020;
0120832880999992012080312004-13267-043417FM-15+0443SBLP V0200901N005112200019N0112651N1+02601+01501999999ADDGA1021+009001999GF102991999999999999999999MA1102101999999REMMET051METAR SBLP 031200Z 09010KT 9999 FEW030 26/15 Q1021;
0120832880999992012080313004-13267-043417FM-15+0443SBLP V0201201N007712200019N0112651N1+02701+01301999999ADDGA1041+009001999GF104991999999999999999999MA1102101999999REMMET051METAR SBLP 031300Z 12015KT 9999 SCT030 27/13 Q1021;
0120832880999992012080314004-13267-043417FM-15+0443SBLP V0201201N004110090019N0112651N1+02701+01401999999ADDGA1071+009001999GF107991999999999999999999MA1102101999999REMMET051METAR SBLP 031400Z 12008KT 9999 BKN030 27/14 Q1021;
0120832880999992012080315004-13267-043417FM-15+0443SBLP V0201201N005112200019N0112651N1+02901+01301999999ADDGA1041+009001999GF104991999999999999999999MA1102001999999REMMET051METAR SBLP 031500Z 12010KT 9999 SCT030 29/13 Q1020;
0120832880999992012080316004-13267-043417FM-15+0443SBLP V0200601N003112200019N0112651N1+03101+01201999999ADDGA1041+009001999GF104991999999999999999999MA1101801999999REMMET051METAR SBLP 031600Z 06006KT 9999 SCT030 31/12 Q1018;
0120832880999992012080317004-13267-043417FM-15+0443SBLP V0201201N003112200019N0112651N1+03201+01001999999ADDGA1041+009001999GF104991999999999999999999MA1101691999999REMMET051METAR SBLP 031700Z 12006KT 9999 SCT030 32/10 Q1017;
0120832880999992012080318004-13267-043417FM-15+0443SBLP V0200601N002612200019N0112651N1+03101+01201999999ADDGA1041+009001999GF104991999999999999999999MA1101591999999REMMET051METAR SBLP 031800Z 06005KT 9999 SCT030 31/12 Q1016;
0120832880999992012080319004-13267-043417FM-15+0443SBLP V0200901N004112200019N0112651N1+03001+01201999999ADDGA1041+009001999GF104991999999999999999999MA1101591999999REMMET051METAR SBLP 031900Z 09008KT 9999 SCT030 30/12 Q1016;
0120832880999992012080320004-13267-043417FM-15+0443SBLP V0201201N005112200019N0112651N1+03101+01201999999ADDGA1041+009001999GF104991999999999999999999MA1101591999999REMMET051METAR SBLP 032000Z 12010KT 9999 SCT030 31/12 Q1016;
0072832880999992012080321004-13267-043417FM-15+0443SBLP V0201101N004119999999Y0099001N1+02901+01001999999ADDMA1101591999999REMMET045METAR SBLP 032100Z 11008KT CAVOK 29/10 Q1016;
0072832880999992012080610004-13267-043417FM-15+0443SBLP V0209999C000019999999Y0099001N1+01801+00901999999ADDMA1101691999999REMMET045METAR SBLP 061000Z 00000KT CAVOK 18/09 Q1017;
0072832880999992012080611004-13267-043417FM-15+0443SBLP V0209999C000019999999Y0099001N1+02201+01101999999ADDMA1101691999999REMMET045METAR SBLP 061100Z 00000KT CAVOK 22/11 Q1017;
0072832880999992012080612004-13267-043417FM-15+0443SBLP V0209999C000019999999Y0099001N1+02601+01001999999ADDMA1101801999999REMMET045METAR SBLP 061200Z 00000KT CAVOK 26/10 Q1018;
0072832880999992012080613004-13267-043417FM-15+0443SBLP V0202401N002119999999Y0099001N1+02901+01101999999ADDMA1101801999999REMMET045METAR SBLP 061300Z 24004KT CAVOK 29/11 Q1018;
0072832880999992012080614004-13267-043417FM-15+0443SBLP V0202701N003119999999Y0099001N1+03101+00901999999ADDMA1101691999999REMMET045METAR SBLP 061400Z 27006KT CAVOK 31/09 Q1017;
0072832880999992012080615004-13267-043417FM-15+0443SBLP V0209999C000019999999Y0099001N1+03201+00801999999ADDMA1101591999999REMMET045METAR SBLP 061500Z 00000KT CAVOK 32/08 Q1016;
0072832880999992012080616004-13267-043417FM-15+0443SBLP V0209999C000019999999Y0099001N1+03401+01802999999ADDMA1101491999999REMMET045METAR SBLP 061600Z 00000KT CAVOK 34/18 Q1015;
0072832880999992012080617004-13267-043417FM-15+0443SBLP V0203001N003119999999Y0099001N1+03501+01401999999ADDMA1101391999999REMMET045METAR SBLP 061700Z 30006KT CAVOK 35/14 Q1014;
0072832880999992012080618004-13267-043417FM-15+0443SBLP V0203001N003119999999Y0099001N1+03501+01401999999ADDMA1101291999999REMMET045METAR SBLP 061800Z 30006KT CAVOK 35/14 Q1013;
0072832880999992012080619004-13267-043417FM-15+0443SBLP V0209999C000019999999Y0099001N1+03501+01401999999ADDMA1101291999999REMMET045METAR SBLP 061900Z 00000KT CAVOK 35/14 Q1013;
0072832880999992012080620004-13267-043417FM-15+0443SBLP V0201801N003119999999Y0099001N1+03501+01401999999ADDMA1101291999999REMMET045METAR SBLP 062000Z 18006KT CAVOK 35/14 Q1013;
0072832880999992012080621004-13267-043417FM-15+0443SBLP V0209999C000019999999Y0099001N1+03301+01401999999ADDMA1101391999999REMMET045METAR SBLP 062100Z 00000KT CAVOK 33/14 Q1014;
0072832880999992012080710004-13267-043417FM-15+0443SBLP V0209999C000019999999Y0099001N1+02001+01301999999ADDMA1101801999999REMMET045METAR SBLP 071000Z 00000KT CAVOK 20/13 Q1018;
0072832880999992012080711004-13267-043417FM-15+0443SBLP V0209999C000019999999Y0099001N1+02001+01301999999ADDMA1101901999999REMMET045METAR SBLP 071100Z 00000KT CAVOK 20/13 Q1019;
0072832880999992012080712004-13267-043417FM-15+0443SBLP V0201201N003119999999Y0099001N1+02601+01301999999ADDMA1101901999999REMMET045METAR SBLP 071200Z 12006KT CAVOK 26/13 Q1019;
0143832880999992012080713004-13267-043417FM-15+0443SBLP V0201201N003112200019N0112651N1+02801+01501999999ADDGA1021+009001999GA2041+030001999GF104991999999999999999999MA1101901999999REMMET058METAR SBLP 071300Z 12006KT 9999 FEW030 SCT100 28/15 Q1019;
0072832880999992012080714004-13267-043417FM-15+0443SBLP V0201201N003119999999Y0099001N1+03001+01201999999ADDMA1101901999999REMMET045METAR SBLP 071400Z 12006KT CAVOK 30/12 Q1019;
0143832880999992012080715004-13267-043417FM-15+0443SBLP V0209999C000012200019N0112651N1+03201+01301999999ADDGA1021+009001999GA2041+030001999GF104991999999999999999999MA1101801999999REMMET058METAR SBLP 071500Z 00000KT 9999 FEW030 SCT100 32/13 Q1018;
0120832880999992012080716004-13267-043417FM-15+0443SBLP V0201101N003112200019N0112651N1+03401+01401999999ADDGA1021+009001999GF102991999999999999999999MA1101591999999REMMET051METAR SBLP 071600Z 11006KT 9999 FEW030 34/14 Q1016;
0120832880999992012080717004-13267-043417FM-15+0443SBLP V0209999C000012200019N0112651N1+03401+01201999999ADDGA1021+009001999GF102991999999999999999999MA1101591999999REMMET051METAR SBLP 071700Z 00000KT 9999 FEW030 34/12 Q1016;
0120832880999992012080718004-13267-043417FM-15+0443SBLP V0209999C000012200019N0112651N1+03501+01101999999ADDGA1041+009001999GF104991999999999999999999MA1101491999999REMMET051METAR SBLP 071800Z 00000KT 9999 SCT030 35/11 Q1015;
0120832880999992012080719004-13267-043417FM-15+0443SBLP V0201201N004112200019N0112651N1+03401+01201999999ADDGA1041+009001999GF104991999999999999999999MA1101491999999REMMET051METAR SBLP 071900Z 12008KT 9999 SCT030 34/12 Q1015;
0120832880999992012080720004-13267-043417FM-15+0443SBLP V0201201N004112200019N0112651N1+03401+01301999999ADDGA1021+009001999GF102991999999999999999999MA1101591999999REMMET051METAR SBLP 072000Z 12008KT 9999 FEW030 34/13 Q1016;
0072832880999992012080721004-13267-043417FM-15+0443SBLP V0201101N004119999999Y0099001N1+03101+01201999999ADDMA1101591999999REMMET045METAR SBLP 072100Z 11008KT CAVOK 31/12 Q1016;
0072832880999992012080810004-13267-043417FM-15+0443SBLP V0201701N002119999999Y0099001N1+01801+01401999999ADDMA1102101999999REMMET045METAR SBLP 081000Z 17004KT CAVOK 18/14 Q1021;
0072832880999992012080812004-13267-043417FM-15+0443SBLP V0201201N002119999999Y0099001N1+02501+01301999999ADDMA1102201999999REMMET045METAR SBLP 081200Z 12004KT CAVOK 25/13 Q1022;
0072832880999992012080813004-13267-043417FM-15+0443SBLP V0201201N005119999999Y0099001N1+02801+01101999999ADDMA1102201999999REMMET045METAR SBLP 081300Z 12010KT CAVOK 28/11 Q1022;
0072832880999992012080814004-13267-043417FM-15+0443SBLP V0200901N003119999999Y0099001N1+03001+00801999999ADDMA1102101999999REMMET045METAR SBLP 081400Z 09006KT CAVOK 30/08 Q1021;
0072832880999992012080815004-13267-043417FM-15+0443SBLP V0201201N005119999999Y0099001N1+03201+00601999999ADDMA1102001999999REMMET045METAR SBLP 081500Z 12010KT CAVOK 32/06 Q1020;
0072832880999992012080816004-13267-043417FM-15+0443SBLP V0200901N005119999999Y0099001N1+03201+00901999999ADDMA1101901999999REMMET045METAR SBLP 081600Z 09010KT CAVOK 32/09 Q1019;
0072832880999992012080817004-13267-043417FM-15+0443SBLP V0201501N003119999999Y0099001N1+03301+00901999999ADDMA1101801999999REMMET045METAR SBLP 081700Z 15006KT CAVOK 33/09 Q1018;
0072832880999992012080818004-13267-043417FM-15+0443SBLP V0201801N005119999999Y0099001N1+03301+00901999999ADDMA1101691999999REMMET045METAR SBLP 081800Z 18010KT CAVOK 33/09 Q1017;
0072832880999992012080819004-13267-043417FM-15+0443SBLP V0201201N004119999999Y0099001N1+03301+00901999999ADDMA1101691999999REMMET045METAR SBLP 081900Z 12008KT CAVOK 33/09 Q1017;
0072832880999992012080820004-13267-043417FM-15+0443SBLP V0201501N006219999999Y0099001N1+03201+00601999999ADDMA1101691999999REMMET045METAR SBLP 082000Z 15012KT CAVOK 32/06 Q1017;
0072832880999992012080821004-13267-043417FM-15+0443SBLP V0201501N005119999999Y0099001N1+02901+01001999999ADDMA1101691999999REMMET045METAR SBLP 082100Z 15010KT CAVOK 29/10 Q1017;
0072832880999992012080910004-13267-043417FM-15+0443SBLP V0201201N003119999999Y0099001N1+02101+01101999999ADDMA1102101999999REMMET045METAR SBLP 091000Z 12006KT CAVOK 21/11 Q1021;
0072832880999992012080911004-13267-043417FM-15+0443SBLP V0201201N005119999999Y0099001N1+02401+01501999999ADDMA1102201999999REMMET045METAR SBLP 091100Z 12010KT CAVOK 24/15 Q1022;
0120832880999992012080912004-13267-043417FM-15+0443SBLP V0200901N004112200019N0112651N1+02501+01401999999ADDGA1021+009001999GF102991999999999999999999MA1102201999999REMMET051METAR SBLP 091200Z 09008KT 9999 FEW030 25/14 Q1022;
0120832880999992012080913004-13267-043417FM-15+0443SBLP V0200901N005112200019N0112651N1+02701+01401999999ADDGA1021+009001999GF102991999999999999999999MA1102201999999REMMET051METAR SBLP 091300Z 09010KT 9999 FEW030 27/14 Q1022;
0120832880999992012080914004-13267-043417FM-15+0443SBLP V0200901N003112200019N0112651N1+02901+01201999999ADDGA1041+009001999GF104991999999999999999999MA1102101999999REMMET051METAR SBLP 091400Z 09006KT 9999 SCT030 29/12 Q1021;
0120832880999992012080915004-13267-043417FM-15+0443SBLP V0200901N005112200019N0112651N1+03001+01201999999ADDGA1041+009001999GF104991999999999999999999MA1102001999999REMMET051METAR SBLP 091500Z 09010KT 9999 SCT030 30/12 Q1020;
0120832880999992012080916004-13267-043417FM-15+0443SBLP V0201201N004112200019N0112651N1+03001+01301999999ADDGA1041+009001999GF104991999999999999999999MA1101801999999REMMET051METAR SBLP 091600Z 12008KT 9999 SCT030 30/13 Q1018;
0120832880999992012080917004-13267-043417FM-15+0443SBLP V0201201N004112200019N0112651N1+03101+01201999999ADDGA1041+009001999GF104991999999999999999999MA1101691999999REMMET051METAR SBLP 091700Z 12008KT 9999 SCT030 31/12 Q1017;
0120832880999992012080918004-13267-043417FM-15+0443SBLP V0200901N004112200019N0112651N1+03101+01201999999ADDGA1041+009001999GF104991999999999999999999MA1101591999999REMMET051METAR SBLP 091800Z 09008KT 9999 SCT030 31/12 Q1016;
0120832880999992012080919004-13267-043417FM-15+0443SBLP V0200901N003112200019N0112651N1+03101+01101999999ADDGA1041+009001999GF104991999999999999999999MA1101591999999REMMET051METAR SBLP 091900Z 09006KT 9999 SCT030 31/11 Q1016;
0120832880999992012080920004-13267-043417FM-15+0443SBLP V0201101N004112200019N0112651N1+03001+01101999999ADDGA1041+009001999GF104991999999999999999999MA1101591999999REMMET051METAR SBLP 092000Z 11008KT 9999 SCT030 30/11 Q1016;
0120832880999992012080921004-13267-043417FM-15+0443SBLP V0201101N004112200019N0112651N1+02801+01101999999ADDGA1021+008101999GF102991999999999999999999MA1101691999999REMMET051METAR SBLP 092100Z 11008KT 9999 FEW027 28/11 Q1017;
0072832880999992012081010004-13267-043417FM-15+0443SBLP V0201301N001019999999Y0099001N1+01701+01301999999ADDMA1102001999999REMMET045METAR SBLP 101000Z 13002KT CAVOK 17/13 Q1020;
0072832880999992012081011004-13267-043417FM-15+0443SBLP V0201101N005119999999Y0099001N1+02301+01401999999ADDMA1102101999999REMMET045METAR SBLP 101100Z 11010KT CAVOK 23/14 Q1021;
0072832880999992012081012004-13267-043417FM-15+0443SBLP V0200901N007719999999Y0099001N1+02501+01301999999ADDMA1102101999999REMMET045METAR SBLP 101200Z 09015KT CAVOK 25/13 Q1021;
0072832880999992012081013004-13267-043417FM-15+0443SBLP V0201101N004119999999Y0099001N1+02601+01201999999ADDMA1102101999999REMMET045METAR SBLP 101300Z 11008KT CAVOK 26/12 Q1021;
0072832880999992012081014004-13267-043417FM-15+0443SBLP V0200601N002619999999Y0099001N1+02801+01001999999ADDMA1102001999999REMMET045METAR SBLP 101400Z 06005KT CAVOK 28/10 Q1020;
0072832880999992012081015004-13267-043417FM-15+0443SBLP V0200901N002119999999Y0099001N1+03001+01001999999ADDMA1101901999999REMMET045METAR SBLP 101500Z 09004KT CAVOK 30/10 Q1019;
0072832880999992012081016004-13267-043417FM-15+0443SBLP V0200901N004119999999Y0099001N1+03101+01201999999ADDMA1101801999999REMMET045METAR SBLP 101600Z 09008KT CAVOK 31/12 Q1018;
0072832880999992012081017004-13267-043417FM-15+0443SBLP V0201501N004119999999Y0099001N1+03201+01101999999ADDMA1101691999999REMMET045METAR SBLP 101700Z 15008KT CAVOK 32/11 Q1017;
0072832880999992012081018004-13267-043417FM-15+0443SBLP V0200701N005719999999Y0099001N1+03301+01001999999ADDMA1101591999999REMMET045METAR SBLP 101800Z 07011KT CAVOK 33/10 Q1016;
0072832880999992012081019004-13267-043417FM-15+0443SBLP V0201001N002119999999Y0099001N1+03301+01101999999ADDMA1101591999999REMMET045METAR SBLP 101900Z 10004KT CAVOK 33/11 Q1016;
0072832880999992012081020004-13267-043417FM-15+0443SBLP V0201401N003119999999Y0099001N1+03101+01201999999ADDMA1101591999999REMMET045METAR SBLP 102000Z 14006KT CAVOK 31/12 Q1016;
0072832880999992012081021004-13267-043417FM-15+0443SBLP V0201201N003119999999Y0099001N1+03001+01301999999ADDMA1101591999999REMMET045METAR SBLP 102100Z 12006KT CAVOK 30/13 Q1016;
0072832880999992012081310004-13267-043417FM-15+0443SBLP V0209999C000019999999Y0099001N1+01901+01301999999ADDMA1102201999999REMMET045METAR SBLP 131000Z 00000KT CAVOK 19/13 Q1022;
0072832880999992012081311004-13267-043417FM-15+0443SBLP V0209999C000019999999Y0099001N1+02201+01501999999ADDMA1102301999999REMMET045METAR SBLP 131100Z 00000KT CAVOK 22/15 Q1023;
0072832880999992012081312004-13267-043417FM-15+0443SBLP V0201201N003119999999Y0099001N1+02501+01201999999ADDMA1102301999999REMMET045METAR SBLP 131200Z 12006KT CAVOK 25/12 Q1023;
0072832880999992012081313004-13267-043417FM-15+0443SBLP V0200901N003119999999Y0099001N1+02701+01401999999ADDMA1102301999999REMMET045METAR SBLP 131300Z 09006KT CAVOK 27/14 Q1023;
0120832880999992012081314004-13267-043417FM-15+0443SBLP V0201501N003112200019N0112651N1+02901+01301999999ADDGA1021+009001999GF102991999999999999999999MA1102201999999REMMET051METAR SBLP 131400Z 15006KT 9999 FEW030 29/13 Q1022;
0120832880999992012081315004-13267-043417FM-15+0443SBLP V0201201N003112200019N0112651N1+03001+01401999999ADDGA1021+009001999GF102991999999999999999999MA1102101999999REMMET051METAR SBLP 131500Z 12006KT 9999 FEW030 30/14 Q1021;
0120832880999992012081316004-13267-043417FM-15+0443SBLP V0200601N001512200019N0112651N1+03201+01201999999ADDGA1021+009001999GF102991999999999999999999MA1102001999999REMMET051METAR SBLP 131600Z 06003KT 9999 FEW030 32/12 Q1020;
0120832880999992012081317004-13267-043417FM-15+0443SBLP V0201101N003112200019N0112651N1+03301+01001999999ADDGA1021+009001999GF102991999999999999999999MA1101901999999REMMET051METAR SBLP 131700Z 11006KT 9999 FEW030 33/10 Q1019;
0120832880999992012081318004-13267-043417FM-15+0443SBLP V0209999C000012200019N0112651N1+03301+01001999999ADDGA1021+009001999GF102991999999999999999999MA1101801999999REMMET051METAR SBLP 131800Z 00000KT 9999 FEW030 33/10 Q1018;
0120832880999992012081319004-13267-043417FM-15+0443SBLP V0201501N003112200019N0112651N1+03301+00901999999ADDGA1021+009001999GF102991999999999999999999MA1101801999999REMMET051METAR SBLP 131900Z 15006KT 9999 FEW030 33/09 Q1018;
0120832880999992012081320004-13267-043417FM-15+0443SBLP V0201101N003112200019N0112651N1+03201+00901999999ADDGA1021+009001999GF102991999999999999999999MA1101801999999REMMET051METAR SBLP 132000Z 11006KT 9999 FEW030 32/09 Q1018;
0120832880999992012081321004-13267-043417FM-15+0443SBLP V0200901N002612200019N0112651N1+03001+01001999999ADDGA1021+009001999GF102991999999999999999999MA1101801999999REMMET051METAR SBLP 132100Z 09005KT 9999 FEW030 30/10 Q1018;
0072832880999992012081410004-13267-043417FM-15+0443SBLP V0201801N001519999999Y0099001N1+01801+01301999999ADDMA1102001999999REMMET045METAR SBLP 141000Z 18003KT CAVOK 18/13 Q1020;
0072832880999992012081411004-13267-043417FM-15+0443SBLP V0201501N001519999999Y0099001N1+02201+01501999999ADDMA1102101999999REMMET045METAR SBLP 141100Z 15003KT CAVOK 22/15 Q1021;
0120832880999992012081412004-13267-043417FM-15+0443SBLP V0200601N003112200019N0112651N1+02501+01701999999ADDGA1021+009001999GF102991999999999999999999MA1102101999999REMMET051METAR SBLP 141200Z 06006KT 9999 FEW030 25/17 Q1021;
0120832880999992012081413004-13267-043417FM-15+0443SBLP V0201201N003112200019N0112651N1+02801+01601999999ADDGA1021+009001999GF102991999999999999999999MA1102101999999REMMET051METAR SBLP 141300Z 12006KT 9999 FEW030 28/16 Q1021;
0120832880999992012081414004-13267-043417FM-15+0443SBLP V0200601N003112200019N0112651N1+02901+01501999999ADDGA1021+009001999GF102991999999999999999999MA1102101999999REMMET051METAR SBLP 141400Z 06006KT 9999 FEW030 29/15 Q1021;
0120832880999992012081415004-13267-043417FM-15+0443SBLP V0201301N003112200019N0112651N1+03101+01301999999ADDGA1021+009001999GF102991999999999999999999MA1102001999999REMMET051METAR SBLP 141500Z 13006KT 9999 FEW030 31/13 Q1020;
0120832880999992012081416004-13267-043417FM-15+0443SBLP V0200901N004112200019N0112651N1+03001+01301999999ADDGA1021+009001999GF102991999999999999999999MA1101801999999REMMET051METAR SBLP 141600Z 09008KT 9999 FEW030 30/13 Q1018;
0120832880999992012081417004-13267-043417FM-15+0443SBLP V0200601N005112200019N0112651N1+03301+01301999999ADDGA1021+009001999GF102991999999999999999999MA1101691999999REMMET051METAR SBLP 141700Z 06010KT 9999 FEW030 33/13 Q1017;
0072832880999992012081418004-13267-043417FM-15+0443SBLP V0200901N005119999999Y0099001N1+03301+01401999999ADDMA1101591999999REMMET045METAR SBLP 141800Z 09010KT CAVOK 33/14 Q1016;
0072832880999992012081419004-13267-043417FM-15+0443SBLP V0200301N007719999999Y0099001N1+03301+01101999999ADDMA1101591999999REMMET045METAR SBLP 141900Z 03015KT CAVOK 33/11 Q1016;
0072832880999992012081421004-13267-043417FM-15+0443SBLP V0200901N003119999999Y0099001N1+03101+01001999999ADDMA1101591999999REMMET045METAR SBLP 142100Z 09006KT CAVOK 31/10 Q1016;
0072832880999992012081510004-13267-043417FM-15+0443SBLP V0209999C000019999999Y0099001N1+01901+01301999999ADDMA1102101999999REMMET045METAR SBLP 151000Z 00000KT CAVOK 19/13 Q1021;
0072832880999992012081511004-13267-043417FM-15+0443SBLP V0209999C000019999999Y0099001N1+02201+01301999999ADDMA1102201999999REMMET045METAR SBLP 151100Z 00000KT CAVOK 22/13 Q1022;
0072832880999992012081512004-13267-043417FM-15+0443SBLP V0201201N003119999999Y0099001N1+02401+01501999999ADDMA1102201999999REMMET045METAR SBLP 151200Z 12006KT CAVOK 24/15 Q1022;
0072832880999992012081513004-13267-043417FM-15+0443SBLP V0201201N002119999999Y0099001N1+02701+01301999999ADDMA1102201999999REMMET045METAR SBLP 151300Z 12004KT CAVOK 27/13 Q1022;
0072832880999992012081514004-13267-043417FM-15+0443SBLP V0200401N003119999999Y0099001N1+02801+01401999999ADDMA1102101999999REMMET045METAR SBLP 151400Z 04006KT CAVOK 28/14 Q1021;
0072832880999992012081515004-13267-043417FM-15+0443SBLP V0201201N003119999999Y0099001N1+03001+01101999999ADDMA1102001999999REMMET045METAR SBLP 151500Z 12006KT CAVOK 30/11 Q1020;
0120832880999992012081516004-13267-043417FM-15+0443SBLP V0201501N004112200019N0112651N1+03201+00901999999ADDGA1021+009001999GF102991999999999999999999MA1101901999999REMMET051METAR SBLP 151600Z 15008KT 9999 FEW030 32/09 Q1019;
0120832880999992012081517004-13267-043417FM-15+0443SBLP V0200901N003112200019N0112651N1+03301+00901999999ADDGA1021+009001999GF102991999999999999999999MA1101691999999REMMET051METAR SBLP 151700Z 09006KT 9999 FEW030 33/09 Q1017;
0120832880999992012081518004-13267-043417FM-15+0443SBLP V0201601N004112200019N0112651N1+03301+00801999999ADDGA1021+009001999GF102991999999999999999999MA1101691999999REMMET051METAR SBLP 151800Z 16008KT 9999 FEW030 33/08 Q1017;
0120832880999992012081519004-13267-043417FM-15+0443SBLP V0201301N004112200019N0112651N1+03301+00801999999ADDGA1021+009001999GF102991999999999999999999MA1101591999999REMMET051METAR SBLP 151900Z 13008KT 9999 FEW030 33/08 Q1016;
0072832880999992012081520004-13267-043417FM-15+0443SBLP V0201601N003119999999Y0099001N1+03201+00901999999ADDMA1101691999999REMMET045METAR SBLP 152000Z 16006KT CAVOK 32/09 Q1017;
0072832880999992012081521004-13267-043417FM-15+0443SBLP V0201301N003119999999Y0099001N1+02901+01001999999ADDMA1101691999999REMMET045METAR SBLP 152100Z 13006KT CAVOK 29/10 Q1017;
0072832880999992012081610004-13267-043417FM-15+0443SBLP V0201801N002119999999Y0099001N1+01701+01201999999ADDMA1102101999999REMMET045METAR SBLP 161000Z 18004KT CAVOK 17/12 Q1021;
0072832880999992012081611004-13267-043417FM-15+0443SBLP V0201801N002619999999Y0099001N1+02201+01301999999ADDMA1102101999999REMMET045METAR SBLP 161100Z 18005KT CAVOK 22/13 Q1021;
0072832880999992012081612004-13267-043417FM-15+0443SBLP V0201501N002119999999Y0099001N1+02501+01301999999ADDMA1102201999999REMMET045METAR SBLP 161200Z 15004KT CAVOK 25/13 Q1022;
0072832880999992012081613004-13267-043417FM-15+0443SBLP V0209999C000019999999Y0099001N1+02801+01201999999ADDMA1102201999999REMMET045METAR SBLP 161300Z 00000KT CAVOK 28/12 Q1022;
0072832880999992012081614004-13267-043417FM-15+0443SBLP V0201501N003119999999Y0099001N1+03001+01101999999ADDMA1102101999999REMMET045METAR SBLP 161400Z 15006KT CAVOK 30/11 Q1021;
0120832880999992012081615004-13267-043417FM-15+0443SBLP V0203201N001512200019N0112651N1+03001+01001999999ADDGA1021+009001999GF102991999999999999999999MA1102001999999REMMET051METAR SBLP 161500Z 32003KT 9999 FEW030 30/10 Q1020;
0072832880999992012081616004-13267-043417FM-15+0443SBLP V0209999C000019999999Y0099001N1+03201+01101999999ADDMA1101901999999REMMET045METAR SBLP 161600Z 00000KT CAVOK 32/11 Q1019;
0072832880999992012081617004-13267-043417FM-15+0443SBLP V0202801N001519999999Y0099001N1+03301+01001999999ADDMA1101691999999REMMET045METAR SBLP 161700Z 28003KT CAVOK 33/10 Q1017;
0072832880999992012081618004-13267-043417FM-15+0443SBLP V0201201N004119999999Y0099001N1+03401+01001999999ADDMA1101691999999REMMET045METAR SBLP 161800Z 12008KT CAVOK 34/10 Q1017;
0072832880999992012081620004-13267-043417FM-15+0443SBLP V0200901N002119999999Y0099001N1+03301+01201999999ADDMA1101591999999REMMET045METAR SBLP 162000Z 09004KT CAVOK 33/12 Q1016;
0072832880999992012081621004-13267-043417FM-15+0443SBLP V0200701N003119999999Y0099001N1+03101+00901999999ADDMA1101591999999REMMET045METAR SBLP 162100Z 07006KT CAVOK 31/09 Q1016;
0072832880999992012081710004-13267-043417FM-15+0443SBLP V0201501N001519999999Y0099001N1+01801+01301999999ADDMA1102101999999REMMET045METAR SBLP 171000Z 15003KT CAVOK 18/13 Q1021;
0072832880999992012081711004-13267-043417FM-15+0443SBLP V0201501N004119999999Y0099001N1+02301+01501999999ADDMA1102101999999REMMET045METAR SBLP 171100Z 15008KT CAVOK 23/15 Q1021;
0072832880999992012081712004-13267-043417FM-15+0443SBLP V0200701N004119999999Y0099001N1+02501+01301999999ADDMA1102201999999REMMET045METAR SBLP 171200Z 07008KT CAVOK 25/13 Q1022;
0072832880999992012081713004-13267-043417FM-15+0443SBLP V0201201N007719999999Y0099001N1+02701+01201999999ADDMA1102201999999REMMET045METAR SBLP 171300Z 12015KT CAVOK 27/12 Q1022;
0072832880999992012081714004-13267-043417FM-15+0443SBLP V0200601N004119999999Y0099001N1+02901+01301999999ADDMA1102101999999REMMET045METAR SBLP 171400Z 06008KT CAVOK 29/13 Q1021;
0072832880999992012081715004-13267-043417FM-15+0443SBLP V0201201N004119999999Y0099001N1+03101+01101999999ADDMA1102001999999REMMET045METAR SBLP 171500Z 12008KT CAVOK 31/11 Q1020;
0072832880999992012081716004-13267-043417FM-15+0443SBLP V0200901N003119999999Y0099001N1+03101+01101999999ADDMA1101901999999REMMET045METAR SBLP 171600Z 09006KT CAVOK 31/11 Q1019;
0072832880999992012081717004-13267-043417FM-15+0443SBLP V0200901N003119999999Y0099001N1+03301+01101999999ADDMA1101801999999REMMET045METAR SBLP 171700Z 09006KT CAVOK 33/11 Q1018;
0072832880999992012081718004-13267-043417FM-15+0443SBLP V0200901N003119999999Y0099001N1+03301+01101999999ADDMA1101691999999REMMET045METAR SBLP 171800Z 09006KT CAVOK 33/11 Q1017;
0072832880999992012081719004-13267-043417FM-15+0443SBLP V0200901N003119999999Y0099001N1+03301+01101999999ADDMA1101691999999REMMET045METAR SBLP 171900Z 09006KT CAVOK 33/11 Q1017;
0072832880999992012081720004-13267-043417FM-15+0443SBLP V0200901N003119999999Y0099001N1+03101+01201999999ADDMA1101691999999REMMET045METAR SBLP 172000Z 09006KT CAVOK 31/12 Q1017;
0072832880999992012081721004-13267-043417FM-15+0443SBLP V0200901N003119999999Y0099001N1+02901+01301999999ADDMA1101801999999REMMET045METAR SBLP 172100Z 09006KT CAVOK 29/13 Q1018;
0120832880999992012082010004-13267-043417FM-15+0443SBLP V0200901N003110060019N0112651N1+02201+01701999999ADDGA1071+006001999GF107991999999999999999999MA1102201999999REMMET051METAR SBLP 201000Z 09006KT 9999 BKN020 22/17 Q1022;
0120832880999992012082011004-13267-043417FM-15+0443SBLP V0200901N003112200019N0112651N1+02401+01601999999ADDGA1041+006001999GF104991999999999999999999MA1102301999999REMMET051METAR SBLP 201100Z 09006KT 9999 SCT020 24/16 Q1023;
0120832880999992012082012004-13267-043417FM-15+0443SBLP V0200901N003112200019N0112651N1+02601+01501999999ADDGA1041+006001999GF104991999999999999999999MA1102401999999REMMET051METAR SBLP 201200Z 09006KT 9999 SCT020 26/15 Q1024;
0120832880999992012082013004-13267-043417FM-15+0443SBLP V0200901N003112200019N0112651N1+02701+01501999999ADDGA1041+006001999GF104991999999999999999999MA1102401999999REMMET051METAR SBLP 201300Z 09006KT 9999 SCT020 27/15 Q1024;
0120832880999992012082014004-13267-043417FM-15+0443SBLP V0200901N003112200019N0112651N1+02701+01501999999ADDGA1041+006001999GF104991999999999999999999MA1102401999999REMMET051METAR SBLP 201400Z 09006KT 9999 SCT020 27/15 Q1024;
0120832880999992012082015004-13267-043417FM-15+0443SBLP V0200901N003110060019N0112651N1+02801+01501999999ADDGA1071+006001999GF107991999999999999999999MA1102301999999REMMET051METAR SBLP 201500Z 09006KT 9999 BKN020 28/15 Q1023;
0120832880999992012082016004-13267-043417FM-15+0443SBLP V0209999C000010060019N0112651N1+02801+01501999999ADDGA1071+006001999GF107991999999999999999999MA1102201999999REMMET051METAR SBLP 201600Z 00000KT 9999 BKN020 28/15 Q1022;
0120832880999992012082017004-13267-043417FM-15+0443SBLP V0201201N003112200019N0112651N1+02901+01501999999ADDGA1041+006001999GF104991999999999999999999MA1102101999999REMMET051METAR SBLP 201700Z 12006KT 9999 SCT020 29/15 Q1021;
0120832880999992012082018004-13267-043417FM-15+0443SBLP V0200901N003112200019N0112651N1+02701+01701999999ADDGA1041+006001999GF104991999999999999999999MA1102001999999REMMET051METAR SBLP 201800Z 09006KT 9999 SCT020 27/17 Q1020;
0120832880999992012082019004-13267-043417FM-15+0443SBLP V0200901N003110060019N0112651N1+02701+01701999999ADDGA1071+006001999GF107991999999999999999999MA1102001999999REMMET051METAR SBLP 201900Z 09006KT 9999 BKN020 27/17 Q1020;
0120832880999992012082020004-13267-043417FM-15+0443SBLP V0200901N003110060019N0112651N1+02501+01801999999ADDGA1071+006001999GF107991999999999999999999MA1102001999999REMMET051METAR SBLP 202000Z 09006KT 9999 BKN020 25/18 Q1020;
0120832880999992012082021004-13267-043417FM-15+0443SBLP V0201201N003110060019N0112651N1+02301+01901999999ADDGA1071+006001999GF107991999999999999999999MA1102101999999REMMET051METAR SBLP 202100Z 12006KT 9999 BKN020 23/19 Q1021;
0072832880999992012082110004-13267-043417FM-15+0443SBLP V0209999C000019999999Y0099001N1+01701+01401999999ADDMA1102301999999REMMET045METAR SBLP 211000Z 00000KT CAVOK 17/14 Q1023;
0072832880999992012082111004-13267-043417FM-15+0443SBLP V0209999C000019999999Y0099001N1+02001+01401999999ADDMA1102401999999REMMET045METAR SBLP 211100Z 00000KT CAVOK 20/14 Q1024;
0072832880999992012082112004-13267-043417FM-15+0443SBLP V0201201N003119999999Y0099001N1+02401+01601999999ADDMA1102511999999REMMET045METAR SBLP 211200Z 12006KT CAVOK 24/16 Q1025;
0072832880999992012082113004-13267-043417FM-15+0443SBLP V0201201N003119999999Y0099001N1+02601+01501999999ADDMA1102401999999REMMET045METAR SBLP 211300Z 12006KT CAVOK 26/15 Q1024;
0072832880999992012082114004-13267-043417FM-15+0443SBLP V0209999C000019999999Y0099001N1+02801+01501999999ADDMA1102401999999REMMET045METAR SBLP 211400Z 00000KT CAVOK 28/15 Q1024;
0072832880999992012082115004-13267-043417FM-15+0443SBLP V0201301N003119999999Y0099001N1+02901+01501999999ADDMA1102201999999REMMET045METAR SBLP 211500Z 13006KT CAVOK 29/15 Q1022;
0072832880999992012082116004-13267-043417FM-15+0443SBLP V0200901N003119999999Y0099001N1+03001+01401999999ADDMA1102101999999REMMET045METAR SBLP 211600Z 09006KT CAVOK 30/14 Q1021;
0120832880999992012082117004-13267-043417FM-15+0443SBLP V0200901N003112200019N0112651N1+03201+01301999999ADDGA1021+009001999GF102991999999999999999999MA1101901999999REMMET051METAR SBLP 211700Z 09006KT 9999 FEW030 32/13 Q1019;
0120832880999992012082118004-13267-043417FM-15+0443SBLP V0200901N003112200019N0112651N1+03301+01301999999ADDGA1041+009001999GF104991999999999999999999MA1101801999999REMMET051METAR SBLP 211800Z 09006KT 9999 SCT030 33/13 Q1018;
0120832880999992012082119004-13267-043417FM-15+0443SBLP V0200901N003112200019N0112651N1+03201+01301999999ADDGA1041+009001999GF104991999999999999999999MA1101801999999REMMET051METAR SBLP 211900Z 09006KT 9999 SCT030 32/13 Q1018;
0120832880999992012082120004-13267-043417FM-15+0443SBLP V0200901N003112200019N0112651N1+03101+01301999999ADDGA1021+009001999GF102991999999999999999999MA1101801999999REMMET051METAR SBLP 212000Z 09006KT 9999 FEW030 31/13 Q1018;
0120832880999992012082121004-13267-043417FM-15+0443SBLP V0209999C000012200019N0112651N1+02901+01401999999ADDGA1021+009001999GF102991999999999999999999MA1101801999999REMMET051METAR SBLP 212100Z 00000KT 9999 FEW030 29/14 Q1018;
0072832880999992012082210004-13267-043417FM-15+0443SBLP V0209999C000019999999Y0099001N1+02201+01701999999ADDMA1102201999999REMMET045METAR SBLP 221000Z 00000KT CAVOK 22/17 Q1022;
0072832880999992012082211004-13267-043417FM-15+0443SBLP V0209999C000019999999Y0099001N1+02401+01601999999ADDMA1102201999999REMMET045METAR SBLP 221100Z 00000KT CAVOK 24/16 Q1022;
0120832880999992012082212004-13267-043417FM-15+0443SBLP V0209999C000012200019N0112651N1+02701+01501999999ADDGA1021+009001999GF102991999999999999999999MA1102201999999REMMET051METAR SBLP 221200Z 00000KT 9999 FEW030 27/15 Q1022;
0120832880999992012082213004-13267-043417FM-15+0443SBLP V0200901N003112200019N0112651N1+02901+01401999999ADDGA1021+009001999GF102991999999999999999999MA1102201999999REMMET051METAR SBLP 221300Z 09006KT 9999 FEW030 29/14 Q1022;
0120832880999992012082214004-13267-043417FM-15+0443SBLP V0200901N003112200019N0112651N1+02901+01401999999ADDGA1041+009001999GF104991999999999999999999MA1102101999999REMMET051METAR SBLP 221400Z 09006KT 9999 SCT030 29/14 Q1021;
0120832880999992012082215004-13267-043417FM-15+0443SBLP V0200901N003112200019N0112651N1+03001+01401999999ADDGA1041+009001999GF104991999999999999999999MA1102001999999REMMET051METAR SBLP 221500Z 09006KT 9999 SCT030 30/14 Q1020;
0120832880999992012082216004-13267-043417FM-15+0443SBLP V0201201N002112200019N0112651N1+03001+01401999999ADDGA1041+009001999GF104991999999999999999999MA1101901999999REMMET051METAR SBLP 221600Z 12004KT 9999 SCT030 30/14 Q1019;
0120832880999992012082217004-13267-043417FM-15+0443SBLP V0209999C000012200019N0112651N1+03001+01401999999ADDGA1041+009001999GF104991999999999999999999MA1101801999999REMMET051METAR SBLP 221700Z 00000KT 9999 SCT030 30/14 Q1018;
0120832880999992012082218004-13267-043417FM-15+0443SBLP V0200901N003112200019N0112651N1+03301+01301999999ADDGA1041+009001999GF104991999999999999999999MA1101691999999REMMET051METAR SBLP 221800Z 09006KT 9999 SCT030 33/13 Q1017;
0120832880999992012082219004-13267-043417FM-15+0443SBLP V0201201N003112200019N0112651N1+03401+01101999999ADDGA1021+009001999GF102991999999999999999999MA1101691999999REMMET051METAR SBLP 221900Z 12006KT 9999 FEW030 34/11 Q1017;
0120832880999992012082220004-13267-043417FM-15+0443SBLP V0201201N005112200019N0112651N1+03001+01401999999ADDGA1021+009001999GF102991999999999999999999MA1101691999999REMMET051METAR SBLP 222000Z 12010KT 9999 FEW030 30/14 Q1017;
0072832880999992012082221004-13267-043417FM-15+0443SBLP V0201201N005119999999Y0099001N1+02801+01601999999ADDMA1101801999999REMMET045METAR SBLP 222100Z 12010KT CAVOK 28/16 Q1018;
0072832880999992012082310004-13267-043417FM-15+0443SBLP V0209999C000019999999Y0099001N1+01701+01301999999ADDMA1102201999999REMMET045METAR SBLP 231000Z 00000KT CAVOK 17/13 Q1022;
0072832880999992012082311004-13267-043417FM-15+0443SBLP V0201201N004119999999Y0099001N1+02101+01101999999ADDMA1102201999999REMMET045METAR SBLP 231100Z 12008KT CAVOK 21/11 Q1022;
0120832880999992012082312004-13267-043417FM-15+0443SBLP V0201201N004112200019N0112651N1+02401+01401999999ADDGA1041+006001999GF104991999999999999999999MA1102301999999REMMET051METAR SBLP 231200Z 12008KT 9999 SCT020 24/14 Q1023;
0120832880999992012082313004-13267-043417FM-15+0443SBLP V0201201N003110060019N0112651N1+02501+01601999999ADDGA1071+006001999GF107991999999999999999999MA1102301999999REMMET051METAR SBLP 231300Z 12006KT 9999 BKN020 25/16 Q1023;
0120832880999992012082314004-13267-043417FM-15+0443SBLP V0201201N004112200019N0112651N1+02701+01601999999ADDGA1041+006001999GF104991999999999999999999MA1102301999999REMMET051METAR SBLP 231400Z 12008KT 9999 SCT020 27/16 Q1023;
0120832880999992012082315004-13267-043417FM-15+0443SBLP V0200901N003112200019N0112651N1+02801+01501999999ADDGA1041+006001999GF104991999999999999999999MA1102201999999REMMET051METAR SBLP 231500Z 09006KT 9999 SCT020 28/15 Q1022;
0120832880999992012082316004-13267-043417FM-15+0443SBLP V0200901N003112200019N0112651N1+03001+01401999999ADDGA1021+006001999GF102991999999999999999999MA1102001999999REMMET051METAR SBLP 231600Z 09006KT 9999 FEW020 30/14 Q1020;
0120832880999992012082317004-13267-043417FM-15+0443SBLP V0200901N003112200019N0112651N1+03201+01301999999ADDGA1021+006001999GF102991999999999999999999MA1101901999999REMMET051METAR SBLP 231700Z 09006KT 9999 FEW020 32/13 Q1019;
0072832880999992012082318004-13267-043417FM-15+0443SBLP V0200901N003119999999Y0099001N1+03301+01201999999ADDMA1101801999999REMMET045METAR SBLP 231800Z 09006KT CAVOK 33/12 Q1018;
0072832880999992012082319004-13267-043417FM-15+0443SBLP V0200901N003119999999Y0099001N1+03301+01201999999ADDMA1101691999999REMMET045METAR SBLP 231900Z 09006KT CAVOK 33/12 Q1017;
0072832880999992012082320004-13267-043417FM-15+0443SBLP V0200901N003119999999Y0099001N1+03101+01301999999ADDMA1101691999999REMMET045METAR SBLP 232000Z 09006KT CAVOK 31/13 Q1017;
0072832880999992012082321004-13267-043417FM-15+0443SBLP V0200901N003119999999Y0099001N1+02901+01401999999ADDMA1101801999999REMMET045METAR SBLP 232100Z 09006KT CAVOK 29/14 Q1018;
0072832880999992012082410004-13267-043417FM-15+0443SBLP V0209999C000019999999Y0099001N1+02101+01701999999ADDMA1102001999999REMMET045METAR SBLP 241000Z 00000KT CAVOK 21/17 Q1020;
0072832880999992012082411004-13267-043417FM-15+0443SBLP V0209999C000019999999Y0099001N1+02201+01701999999ADDMA1102101999999REMMET045METAR SBLP 241100Z 00000KT CAVOK 22/17 Q1021;
0120832880999992012082412004-13267-043417FM-15+0443SBLP V0200901N003112200019N0112651N1+02501+01601999999ADDGA1021+009001999GF102991999999999999999999MA1102201999999REMMET051METAR SBLP 241200Z 09006KT 9999 FEW030 25/16 Q1022;
0120832880999992012082413004-13267-043417FM-15+0443SBLP V0200901N003112200019N0112651N1+02701+01401999999ADDGA1021+009001999GF102991999999999999999999MA1102201999999REMMET051METAR SBLP 241300Z 09006KT 9999 FEW030 27/14 Q1022;
0072832880999992012082414004-13267-043417FM-15+0443SBLP V0200901N003119999999Y0099001N1+02901+01301999999ADDMA1102101999999REMMET045METAR SBLP 241400Z 09006KT CAVOK 29/13 Q1021;
0072832880999992012082415004-13267-043417FM-15+0443SBLP V0200901N003119999999Y0099001N1+03101+01101999999ADDMA1102001999999REMMET045METAR SBLP 241500Z 09006KT CAVOK 31/11 Q1020;
0072832880999992012082416004-13267-043417FM-15+0443SBLP V0200401N003119999999Y0099001N1+03201+01001999999ADDMA1101901999999REMMET045METAR SBLP 241600Z 04006KT CAVOK 32/10 Q1019;
0120832880999992012082417004-13267-043417FM-15+0443SBLP V0200401N003112200019N0112651N1+03201+01101999999ADDGA1021+009001999GF102991999999999999999999MA1101691999999REMMET051METAR SBLP 241700Z 04006KT 9999 FEW030 32/11 Q1017;
0120832880999992012082418004-13267-043417FM-15+0443SBLP V0201801N003112200019N0112651N1+03401+01001999999ADDGA1021+009001999GF102991999999999999999999MA1101591999999REMMET051METAR SBLP 241800Z 18006KT 9999 FEW030 34/10 Q1016;
0072832880999992012082419004-13267-043417FM-15+0443SBLP V0209999C000019999999Y0099001N1+03401+01101999999ADDMA1101591999999REMMET045METAR SBLP 241900Z 00000KT CAVOK 34/11 Q1016;
0072832880999992012082420004-13267-043417FM-15+0443SBLP V0201201N003119999999Y0099001N1+03101+01401999999ADDMA1101591999999REMMET045METAR SBLP 242000Z 12006KT CAVOK 31/14 Q1016;
0072832880999992012082421004-13267-043417FM-15+0443SBLP V0200901N003119999999Y0099001N1+02801+01701999999ADDMA1101691999999REMMET045METAR SBLP 242100Z 09006KT CAVOK 28/17 Q1017;
0072832880999992012082710004-13267-043417FM-15+0443SBLP V0209999C000019999999Y0099001N1+01901+01401999999ADDMA1102101999999REMMET045METAR SBLP 271000Z 00000KT CAVOK 19/14 Q1021;
0072832880999992012082711004-13267-043417FM-15+0443SBLP V0201801N002119999999Y0099001N1+02301+01501999999ADDMA1102101999999REMMET045METAR SBLP 271100Z 18004KT CAVOK 23/15 Q1021;
0072832880999992012082712004-13267-043417FM-15+0443SBLP V0200901N002119999999Y0099001N1+02601+01501999999ADDMA1102201999999REMMET045METAR SBLP 271200Z 09004KT CAVOK 26/15 Q1022;
0072832880999992012082713004-13267-043417FM-15+0443SBLP V0200901N002119999999Y0099001N1+02801+01401999999ADDMA1102201999999REMMET045METAR SBLP 271300Z 09004KT CAVOK 28/14 Q1022;
0072832880999992012082714004-13267-043417FM-15+0443SBLP V0200901N002119999999Y0099001N1+02901+01301999999ADDMA1102101999999REMMET045METAR SBLP 271400Z 09004KT CAVOK 29/13 Q1021;
0120832880999992012082715004-13267-043417FM-15+0443SBLP V0201801N002112200019N0112651N1+03101+01501999999ADDGA1021+009001999GF102991999999999999999999MA1102001999999REMMET051METAR SBLP 271500Z 18004KT 9999 FEW030 31/15 Q1020;
0120832880999992012082716004-13267-043417FM-15+0443SBLP V0201801N003112200019N0112651N1+03201+01501999999ADDGA1041+009001999GF104991999999999999999999MA1101901999999REMMET051METAR SBLP 271600Z 18006KT 9999 SCT030 32/15 Q1019;
0120832880999992012082717004-13267-043417FM-15+0443SBLP V0201801N003112200019N0112651N1+03301+01401999999ADDGA1041+009001999GF104991999999999999999999MA1101691999999REMMET051METAR SBLP 271700Z 18006KT 9999 SCT030 33/14 Q1017;
0120832880999992012082718004-13267-043417FM-15+0443SBLP V0201801N003112200019N0112651N1+03401+01301999999ADDGA1041+009001999GF104991999999999999999999MA1101591999999REMMET051METAR SBLP 271800Z 18006KT 9999 SCT030 34/13 Q1016;
0120832880999992012082719004-13267-043417FM-15+0443SBLP V0201801N003112200019N0112651N1+03401+01201999999ADDGA1021+009001999GF102991999999999999999999MA1101591999999REMMET051METAR SBLP 271900Z 18006KT 9999 FEW030 34/12 Q1016;
0120832880999992012082720004-13267-043417FM-15+0443SBLP V0201801N003112200019N0112651N1+03301+01201999999ADDGA1021+009001999GF102991999999999999999999MA1101591999999REMMET051METAR SBLP 272000Z 18006KT 9999 FEW030 33/12 Q1016;
0072832880999992012082721004-13267-043417FM-15+0443SBLP V0209999C000019999999Y0099001N1+03101+01301999999ADDMA1101691999999REMMET045METAR SBLP 272100Z 00000KT CAVOK 31/13 Q1017;
0072832880999992012082810004-13267-043417FM-15+0443SBLP V0209999C000019999999Y0099001N1+02201+01701999999ADDMA1101901999999REMMET045METAR SBLP 281000Z 00000KT CAVOK 22/17 Q1019;
0072832880999992012082811004-13267-043417FM-15+0443SBLP V0209999C000019999999Y0099001N1+02501+01601999999ADDMA1102001999999REMMET045METAR SBLP 281100Z 00000KT CAVOK 25/16 Q1020;
0072832880999992012082812004-13267-043417FM-15+0443SBLP V0200901N003119999999Y0099001N1+02701+01401999999ADDMA1102101999999REMMET045METAR SBLP 281200Z 09006KT CAVOK 27/14 Q1021;
0072832880999992012082813004-13267-043417FM-15+0443SBLP V0200901N003119999999Y0099001N1+03001+01201999999ADDMA1102101999999REMMET045METAR SBLP 281300Z 09006KT CAVOK 30/12 Q1021;
0072832880999992012082814004-13267-043417FM-15+0443SBLP V0200901N003119999999Y0099001N1+03301+01101999999ADDMA1102001999999REMMET045METAR SBLP 281400Z 09006KT CAVOK 33/11 Q1020;
0120832880999992012082815004-13267-043417FM-15+0443SBLP V0200901N003112200019N0112651N1+03301+01101999999ADDGA1021+009001999GF102991999999999999999999MA1101801999999REMMET051METAR SBLP 281500Z 09006KT 9999 FEW030 33/11 Q1018;
0120832880999992012082816004-13267-043417FM-15+0443SBLP V0202101N003112200019N0112651N1+03501+01101999999ADDGA1041+009001999GF104991999999999999999999MA1101691999999REMMET051METAR SBLP 281600Z 21006KT 9999 SCT030 35/11 Q1017;
0120832880999992012082817004-13267-043417FM-15+0443SBLP V0202101N003112200019N0112651N1+03501+01101999999ADDGA1021+009001999GF102991999999999999999999MA1101591999999REMMET051METAR SBLP 281700Z 21006KT 9999 FEW030 35/11 Q1016;
0120832880999992012082818004-13267-043417FM-15+0443SBLP V0202401N006212200019N0112651N1+03501+01001999999ADDGA1021+009001999GF102991999999999999999999MA1101491999999REMMET051METAR SBLP 281800Z 24012KT 9999 FEW030 35/10 Q1015;
0120832880999992012082819004-13267-043417FM-15+0443SBLP V0202101N003112200019N0112651N1+03401+01101999999ADDGA1021+009001999GF102991999999999999999999MA1101491999999REMMET051METAR SBLP 281900Z 21006KT 9999 FEW030 34/11 Q1015;
0120832880999992012082820004-13267-043417FM-15+0443SBLP V0201801N002112200019N0112651N1+03301+01201999999ADDGA1021+009001999GF102991999999999999999999MA1101491999999REMMET051METAR SBLP 282000Z 18004KT 9999 FEW030 33/12 Q1015;
0120832880999992012082821004-13267-043417FM-15+0443SBLP V0201801N002112200019N0112651N1+03001+01201999999ADDGA1021+009001999GF102991999999999999999999MA1101491999999REMMET051METAR SBLP 282100Z 18004KT 9999 FEW030 30/12 Q1015;
0072832880999992012082910004-13267-043417FM-15+0443SBLP V0209999C000019999999Y0099001N1+02101+01201999999ADDMA1101691999999REMMET045METAR SBLP 291000Z 00000KT CAVOK 21/12 Q1017;
0072832880999992012082911004-13267-043417FM-15+0443SBLP V0201501N001519999999Y0099001N1+02401+01301999999ADDMA1101801999999REMMET045METAR SBLP 291100Z 15003KT CAVOK 24/13 Q1018;
0072832880999992012082912004-13267-043417FM-15+0443SBLP V0200801N002119999999Y0099001N1+02801+01401999999ADDMA1101801999999REMMET045METAR SBLP 291200Z 08004KT CAVOK 28/14 Q1018;
0072832880999992012082913004-13267-043417FM-15+0443SBLP V0200301N002119999999Y0099001N1+03101+01201999999ADDMA1101801999999REMMET045METAR SBLP 291300Z 03004KT CAVOK 31/12 Q1018;
0072832880999992012082914004-13267-043417FM-15+0443SBLP V0209999C000019999999Y0099001N1+03301+01201999999ADDMA1101801999999REMMET045METAR SBLP 291400Z 00000KT CAVOK 33/12 Q1018;
0072832880999992012082915004-13267-043417FM-15+0443SBLP V0201801N002119999999Y0099001N1+03501+01201999999ADDMA1101591999999REMMET045METAR SBLP 291500Z 18004KT CAVOK 35/12 Q1016;
0120832880999992012082916004-13267-043417FM-15+0443SBLP V0201801N003112200019N0112651N1+03501+01201999999ADDGA1021+009001999GF102991999999999999999999MA1101491999999REMMET051METAR SBLP 291600Z 18006KT 9999 FEW030 35/12 Q1015;
0120832880999992012082917004-13267-043417FM-15+0443SBLP V0201801N003112200019N0112651N1+03601+01101999999ADDGA1021+009001999GF102991999999999999999999MA1101291999999REMMET051METAR SBLP 291700Z 18006KT 9999 FEW030 36/11 Q1013;
0120832880999992012082918004-13267-043417FM-15+0443SBLP V0201801N003112200019N0112651N1+03701+01001999999ADDGA1041+009001999GF104991999999999999999999MA1101291999999REMMET051METAR SBLP 291800Z 18006KT 9999 SCT030 37/10 Q1013;
0120832880999992012082919004-13267-043417FM-15+0443SBLP V0209999C000012200019N0112651N1+03601+01001999999ADDGA1021+009001999GF102991999999999999999999MA1101291999999REMMET051METAR SBLP 291900Z 00000KT 9999 FEW030 36/10 Q1013;
0120832880999992012082920004-13267-043417FM-15+0443SBLP V0209999C000012200019N0112651N1+03401+01101999999ADDGA1021+009001999GF102991999999999999999999MA1101291999999REMMET051METAR SBLP 292000Z 00000KT 9999 FEW030 34/11 Q1013;
0072832880999992012082921004-13267-043417FM-15+0443SBLP V0209999C000019999999Y0099001N1+03201+01201999999ADDMA1101391999999REMMET045METAR SBLP 292100Z 00000KT CAVOK 32/12 Q1014;
0072832880999992012083010004-13267-043417FM-15+0443SBLP V0209999C000019999999Y0099001N1+02201+01701999999ADDMA1101691999999REMMET045METAR SBLP 301000Z 00000KT CAVOK 22/17 Q1017;
0072832880999992012083011004-13267-043417FM-15+0443SBLP V0209999C000019999999Y0099001N1+02501+01601999999ADDMA1101801999999REMMET045METAR SBLP 301100Z 00000KT CAVOK 25/16 Q1018;
0072832880999992012083012004-13267-043417FM-15+0443SBLP V0209999C000019999999Y0099001N1+02801+01401999999ADDMA1101801999999REMMET045METAR SBLP 301200Z 00000KT CAVOK 28/14 Q1018;
0072832880999992012083013004-13267-043417FM-15+0443SBLP V0209999C000019999999Y0099001N1+03101+01201999999ADDMA1101801999999REMMET045METAR SBLP 301300Z 00000KT CAVOK 31/12 Q1018;
0072832880999992012083014004-13267-043417FM-15+0443SBLP V0209999C000019999999Y0099001N1+03301+01101999999ADDMA1101691999999REMMET045METAR SBLP 301400Z 00000KT CAVOK 33/11 Q1017;
0120832880999992012083015004-13267-043417FM-15+0443SBLP V0201801N003112200019N0112651N1+03501+01001999999ADDGA1021+009001999GF102991999999999999999999MA1101591999999REMMET051METAR SBLP 301500Z 18006KT 9999 FEW030 35/10 Q1016;
0120832880999992012083016004-13267-043417FM-15+0443SBLP V0202101N003112200019N0112651N1+03601+01301999999ADDGA1041+009001999GF104991999999999999999999MA1101491999999REMMET051METAR SBLP 301600Z 21006KT 9999 SCT030 36/13 Q1015;
0120832880999992012083017004-13267-043417FM-15+0443SBLP V0202101N003112200019N0112651N1+03701+01201999999ADDGA1041+009001999GF104991999999999999999999MA1101391999999REMMET051METAR SBLP 301700Z 21006KT 9999 SCT030 37/12 Q1014;
0120832880999992012083018004-13267-043417FM-15+0443SBLP V0201801N003612200019N0112651N1+03801+01401999999ADDGA1041+009001999GF104991999999999999999999MA1101291999999REMMET051METAR SBLP 301800Z 18007KT 9999 SCT030 38/14 Q1013;
0120832880999992012083019004-13267-043417FM-15+0443SBLP V0201801N003112200019N0112651N1+03701+01301999999ADDGA1041+009001999GF104991999999999999999999MA1101291999999REMMET051METAR SBLP 301900Z 18006KT 9999 SCT030 37/13 Q1013;
0120832880999992012083020004-13267-043417FM-15+0443SBLP V0201801N003612200019N0112651N1+03601+01001999999ADDGA1021+009001999GF102991999999999999999999MA1101291999999REMMET051METAR SBLP 302000Z 18007KT 9999 FEW030 36/10 Q1013;
0072832880999992012083021004-13267-043417FM-15+0443SBLP V0201801N003119999999Y0099001N1+03301+01201999999ADDMA1101391999999REMMET045METAR SBLP 302100Z 18006KT CAVOK 33/12 Q1014;
0072832880999992012083110004-13267-043417FM-15+0443SBLP V0201501N001519999999Y0099001N1+02201+01401999999ADDMA1101801999999REMMET045METAR SBLP 311000Z 15003KT CAVOK 22/14 Q1018;
0072832880999992012083111004-13267-043417FM-15+0443SBLP V0201201N002619999999Y0099001N1+02701+01301999999ADDMA1101801999999REMMET045METAR SBLP 311100Z 12005KT CAVOK 27/13 Q1018;
0072832880999992012083112004-13267-043417FM-15+0443SBLP V0200901N003119999999Y0099001N1+02901+01501999999ADDMA1101901999999REMMET045METAR SBLP 311200Z 09006KT CAVOK 29/15 Q1019;
0072832880999992012083113004-13267-043417FM-15+0443SBLP V0201501N004119999999Y0099001N1+03101+01501999999ADDMA1101901999999REMMET045METAR SBLP 311300Z 15008KT CAVOK 31/15 Q1019;
0072832880999992012083114004-13267-043417FM-15+0443SBLP V0201201N003119999999Y0099001N1+03301+01501999999ADDMA1101801999999REMMET045METAR SBLP 311400Z 12006KT CAVOK 33/15 Q1018;
0120832880999992012083115004-13267-043417FM-15+0443SBLP V0201201N004112200019N0112651N1+03501+01601999999ADDGA1021+009001999GF102991999999999999999999MA1101691999999REMMET051METAR SBLP 311500Z 12008KT 9999 FEW030 35/16 Q1017;
0120832880999992012083116004-13267-043417FM-15+0443SBLP V0201801N003112200019N0112651N1+03501+01501999999ADDGA1041+009001999GF104991999999999999999999MA1101591999999REMMET051METAR SBLP 311600Z 18006KT 9999 SCT030 35/15 Q1016;
0120832880999992012083117004-13267-043417FM-15+0443SBLP V0201801N003112200019N0112651N1+03501+01501999999ADDGA1041+009001999GF104991999999999999999999MA1101391999999REMMET051METAR SBLP 311700Z 18006KT 9999 SCT030 35/15 Q1014;
0120832880999992012083118004-13267-043417FM-15+0443SBLP V0201801N003112200019N0112651N1+03601+01401999999ADDGA1041+009001999GF104991999999999999999999MA1101391999999REMMET051METAR SBLP 311800Z 18006KT 9999 SCT030 36/14 Q1014;
0120832880999992012083119004-13267-043417FM-15+0443SBLP V0201801N003112200019N0112651N1+03501+01401999999ADDGA1021+009001999GF102991999999999999999999MA1101391999999REMMET051METAR SBLP 311900Z 18006KT 9999 FEW030 35/14 Q1014;
0120832880999992012083120004-13267-043417FM-15+0443SBLP V0201801N003112200019N0112651N1+03301+01401999999ADDGA1021+009001999GF102991999999999999999999MA1101391999999REMMET051METAR SBLP 312000Z 18006KT 9999 FEW030 33/14 Q1014;
0072832880999992012083121004-13267-043417FM-15+0443SBLP V0201801N003119999999Y0099001N1+03201+01401999999ADDMA1101491999999REMMET045METAR SBLP 312100Z 18006KT CAVOK 32/14 Q1015;
0072832880999992012090310004-13267-043417FM-15+0443SBLP V0209999C000019999999Y0099001N1+02201+01701999999ADDMA1102001999999REMMET045METAR SBLP 031000Z 00000KT CAVOK 22/17 Q1020;
0072832880999992012090311004-13267-043417FM-15+0443SBLP V0209999C000019999999Y0099001N1+02401+01601999999ADDMA1102101999999REMMET045METAR SBLP 031100Z 00000KT CAVOK 24/16 Q1021;
0072832880999992012090312004-13267-043417FM-15+0443SBLP V0209999C000019999999Y0099001N1+02701+01501999999ADDMA1102101999999REMMET045METAR SBLP 031200Z 00000KT CAVOK 27/15 Q1021;
0072832880999992012090313004-13267-043417FM-15+0443SBLP V0209999C000019999999Y0099001N1+02901+01401999999ADDMA1102101999999REMMET045METAR SBLP 031300Z 00000KT CAVOK 29/14 Q1021;
0072832880999992012090314004-13267-043417FM-15+0443SBLP V0209999C000019999999Y0099001N1+03101+01201999999ADDMA1102001999999REMMET045METAR SBLP 031400Z 00000KT CAVOK 31/12 Q1020;
0072832880999992012090315004-13267-043417FM-15+0443SBLP V0201801N003119999999Y0099001N1+03301+01101999999ADDMA1101901999999REMMET045METAR SBLP 031500Z 18006KT CAVOK 33/11 Q1019;
0072832880999992012090316004-13267-043417FM-15+0443SBLP V0201501N002119999999Y0099001N1+03501+00102999999ADDMA1101801999999REMMET045METAR SBLP 031600Z 15004KT CAVOK 35/01 Q1018;
0072832880999992012090317004-13267-043417FM-15+0443SBLP V0201101N001519999999Y0099001N1+03601+00301999999ADDMA1101691999999REMMET045METAR SBLP 031700Z 11003KT CAVOK 36/03 Q1017;
0072832880999992012090318004-13267-043417FM-15+0443SBLP V0201201N005119999999Y0099001N1+03701+00501999999ADDMA1101591999999REMMET045METAR SBLP 031800Z 12010KT CAVOK 37/05 Q1016;
0072832880999992012090319004-13267-043417FM-15+0443SBLP V0200901N001019999999Y0099001N1+03601+00401999999ADDMA1101591999999REMMET045METAR SBLP 031900Z 09002KT CAVOK 36/04 Q1016;
0072832880999992012090320004-13267-043417FM-15+0443SBLP V0201801N002619999999Y0099001N1+03601+00501999999ADDMA1101591999999REMMET045METAR SBLP 032000Z 18005KT CAVOK 36/05 Q1016;
0072832880999992012090321004-13267-043417FM-15+0443SBLP V0201201N002119999999Y0099001N1+03301+00601999999ADDMA1101591999999REMMET045METAR SBLP 032100Z 12004KT CAVOK 33/06 Q1016;
0072832880999992012090410004-13267-043417FM-15+0443SBLP V0201501N001519999999Y0099001N1+02001+01301999999ADDMA1102001999999REMMET045METAR SBLP 041000Z 15003KT CAVOK 20/13 Q1020;
0072832880999992012090411004-13267-043417FM-15+0443SBLP V0209999C000019999999Y0099001N1+02401+01601999999ADDMA1102101999999REMMET045METAR SBLP 041100Z 00000KT CAVOK 24/16 Q1021;
0072832880999992012090412004-13267-043417FM-15+0443SBLP V0209999C000019999999Y0099001N1+02801+01201999999ADDMA1102101999999REMMET045METAR SBLP 041200Z 00000KT CAVOK 28/12 Q1021;
0072832880999992012090413004-13267-043417FM-15+0443SBLP V0200901N004119999999Y0099001N1+03101+01001999999ADDMA1102101999999REMMET045METAR SBLP 041300Z 09008KT CAVOK 31/10 Q1021;
0072832880999992012090414004-13267-043417FM-15+0443SBLP V0201101N002619999999Y0099001N1+03301+00901999999ADDMA1102101999999REMMET045METAR SBLP 041400Z 11005KT CAVOK 33/09 Q1021;
0072832880999992012090415004-13267-043417FM-15+0443SBLP V0201201N004119999999Y0099001N1+03401+00501999999ADDMA1102001999999REMMET045METAR SBLP 041500Z 12008KT CAVOK 34/05 Q1020;
0072832880999992012090416004-13267-043417FM-15+0443SBLP V0200901N003119999999Y0099001N1+03501+00501999999ADDMA1101901999999REMMET045METAR SBLP 041600Z 09006KT CAVOK 35/05 Q1019;
0072832880999992012090417004-13267-043417FM-15+0443SBLP V0200901N003119999999Y0099001N1+03601+00501999999ADDMA1101691999999REMMET045METAR SBLP 041700Z 09006KT CAVOK 36/05 Q1017;
0072832880999992012090418004-13267-043417FM-15+0443SBLP V0200901N003119999999Y0099001N1+03701+00501999999ADDMA1101691999999REMMET045METAR SBLP 041800Z 09006KT CAVOK 37/05 Q1017;
0072832880999992012090419004-13267-043417FM-15+0443SBLP V0200901N003119999999Y0099001N1+03601+00501999999ADDMA1101691999999REMMET045METAR SBLP 041900Z 09006KT CAVOK 36/05 Q1017;
0072832880999992012090420004-13267-043417FM-15+0443SBLP V0200901N003119999999Y0099001N1+03501+00601999999ADDMA1101691999999REMMET045METAR SBLP 042000Z 09006KT CAVOK 35/06 Q1017;
0072832880999992012090421004-13267-043417FM-15+0443SBLP V0200901N003119999999Y0099001N1+03201+00801999999ADDMA1101691999999REMMET045METAR SBLP 042100Z 09006KT CAVOK 32/08 Q1017;
0072832880999992012090510004-13267-043417FM-15+0443SBLP V0209999C000019999999Y0099001N1+02201+01501999999ADDMA1102201999999REMMET045METAR SBLP 051000Z 00000KT CAVOK 22/15 Q1022;
0072832880999992012090511004-13267-043417FM-15+0443SBLP V0209999C000019999999Y0099001N1+02401+01401999999ADDMA1102301999999REMMET045METAR SBLP 051100Z 00000KT CAVOK 24/14 Q1023;
0072832880999992012090512004-13267-043417FM-15+0443SBLP V0209999C000019999999Y0099001N1+02701+01301999999ADDMA1102301999999REMMET045METAR SBLP 051200Z 00000KT CAVOK 27/13 Q1023;
0072832880999992012090513004-13267-043417FM-15+0443SBLP V0209999C000019999999Y0099001N1+02901+01201999999ADDMA1102301999999REMMET045METAR SBLP 051300Z 00000KT CAVOK 29/12 Q1023;
0072832880999992012090514004-13267-043417FM-15+0443SBLP V0209999C000019999999Y0099001N1+03101+01101999999ADDMA1102301999999REMMET045METAR SBLP 051400Z 00000KT CAVOK 31/11 Q1023;
0071832880999992012090515004-13267-043417FM-15+0443SBLP V0200901N003119999999Y0099001N1+03101+01001999999ADDMA1102201999999REMMET044METAR SBLP 051500Z 09006KTCAVOK 31/10 Q1022;
0072832880999992012090516004-13267-043417FM-15+0443SBLP V0200301N003119999999Y0099001N1+03201+00801999999ADDMA1102001999999REMMET045METAR SBLP 051600Z 03006KT CAVOK 32/08 Q1020;
0072832880999992012090517004-13267-043417FM-15+0443SBLP V0201201N003119999999Y0099001N1+03301+00701999999ADDMA1101901999999REMMET045METAR SBLP 051700Z 12006KT CAVOK 33/07 Q1019;
0072832880999992012090518004-13267-043417FM-15+0443SBLP V0200901N003119999999Y0099001N1+03401+01101999999ADDMA1101801999999REMMET045METAR SBLP 051800Z 09006KT CAVOK 34/11 Q1018;
0072832880999992012090519004-13267-043417FM-15+0443SBLP V0201201N003119999999Y0099001N1+03301+01001999999ADDMA1101801999999REMMET045METAR SBLP 051900Z 12006KT CAVOK 33/10 Q1018;
0072832880999992012090520004-13267-043417FM-15+0443SBLP V0201201N002619999999Y0099001N1+03301+00901999999ADDMA1101801999999REMMET045METAR SBLP 052000Z 12005KT CAVOK 33/09 Q1018;
0072832880999992012090521004-13267-043417FM-15+0443SBLP V0201201N005119999999Y0099001N1+03001+01001999999ADDMA1101801999999REMMET045METAR SBLP 052100Z 12010KT CAVOK 30/10 Q1018;
0072832880999992012090610004-13267-043417FM-15+0443SBLP V0201801N001519999999Y0099001N1+01901+01501999999ADDMA1102001999999REMMET045METAR SBLP 061000Z 18003KT CAVOK 19/15 Q1020;
0072832880999992012090611004-13267-043417FM-15+0443SBLP V0209999C000019999999Y0099001N1+02301+01501999999ADDMA1102101999999REMMET045METAR SBLP 061100Z 00000KT CAVOK 23/15 Q1021;
0072832880999992012090612004-13267-043417FM-15+0443SBLP V0200601N003119999999Y0099001N1+02601+01401999999ADDMA1102101999999REMMET045METAR SBLP 061200Z 06006KT CAVOK 26/14 Q1021;
0072832880999992012090613004-13267-043417FM-15+0443SBLP V0201201N003119999999Y0099001N1+02801+01301999999ADDMA1102101999999REMMET045METAR SBLP 061300Z 12006KT CAVOK 28/13 Q1021;
0120832880999992012090614004-13267-043417FM-15+0443SBLP V0209999C000012200019N0112651N1+03101+01201999999ADDGA1021+009001999GF102991999999999999999999MA1102001999999REMMET051METAR SBLP 061400Z 00000KT 9999 FEW030 31/12 Q1020;
0120832880999992012090615004-13267-043417FM-15+0443SBLP V0201801N003112200019N0112651N1+03201+01001999999ADDGA1021+009001999GF102991999999999999999999MA1101901999999REMMET051METAR SBLP 061500Z 18006KT 9999 FEW030 32/10 Q1019;
0072832880999992012090616004-13267-043417FM-15+0443SBLP V0201801N003119999999Y0099001N1+03301+00901999999ADDMA1101691999999REMMET045METAR SBLP 061600Z 18006KT CAVOK 33/09 Q1017;
0072832880999992012090617004-13267-043417FM-15+0443SBLP V0200901N003119999999Y0099001N1+03401+00901999999ADDMA1101591999999REMMET045METAR SBLP 061700Z 09006KT CAVOK 34/09 Q1016;
0072832880999992012090618004-13267-043417FM-15+0443SBLP V0201801N003119999999Y0099001N1+03501+00801999999ADDMA1101491999999REMMET045METAR SBLP 061800Z 18006KT CAVOK 35/08 Q1015;
0072832880999992012090619004-13267-043417FM-15+0443SBLP V0201801N003119999999Y0099001N1+03501+00801999999ADDMA1101491999999REMMET045METAR SBLP 061900Z 18006KT CAVOK 35/08 Q1015;
0072832880999992012090620004-13267-043417FM-15+0443SBLP V0201801N003119999999Y0099001N1+03401+00801999999ADDMA1101491999999REMMET045METAR SBLP 062000Z 18006KT CAVOK 34/08 Q1015;
0072832880999992012090621004-13267-043417FM-15+0443SBLP V0209999C000019999999Y0099001N1+03201+01001999999ADDMA1101491999999REMMET045METAR SBLP 062100Z 00000KT CAVOK 32/10 Q1015;
0072832880999992012091010004-13267-043417FM-15+0443SBLP V0209999C000019999999Y0099001N1+02201+01501999999ADDMA1101901999999REMMET045METAR SBLP 101000Z 00000KT CAVOK 22/15 Q1019;
0072832880999992012091011004-13267-043417FM-15+0443SBLP V0201101N001519999999Y0099001N1+02601+01601999999ADDMA1101901999999REMMET045METAR SBLP 101100Z 11003KT CAVOK 26/16 Q1019;
0072832880999992012091012004-13267-043417FM-15+0443SBLP V0200901N003119999999Y0099001N1+02901+01401999999ADDMA1101901999999REMMET045METAR SBLP 101200Z 09006KT CAVOK 29/14 Q1019;
0072832880999992012091013004-13267-043417FM-15+0443SBLP V0201501N001519999999Y0099001N1+03001+01501999999ADDMA1101901999999REMMET045METAR SBLP 101300Z 15003KT CAVOK 30/15 Q1019;
0072832880999992012091014004-13267-043417FM-15+0443SBLP V0209999C000019999999Y0099001N1+03401+01401999999ADDMA1101801999999REMMET045METAR SBLP 101400Z 00000KT CAVOK 34/14 Q1018;
0072832880999992012091015004-13267-043417FM-15+0443SBLP V0201501N002119999999Y0099001N1+03501+01101999999ADDMA1101591999999REMMET045METAR SBLP 101500Z 15004KT CAVOK 35/11 Q1016;
0072832880999992012091016004-13267-043417FM-15+0443SBLP V0201801N003119999999Y0099001N1+03601+01101999999ADDMA1101491999999REMMET045METAR SBLP 101600Z 18006KT CAVOK 36/11 Q1015;
0120832880999992012091017004-13267-043417FM-15+0443SBLP V0201801N003112200019N0112651N1+03601+01101999999ADDGA1021+009001999GF102991999999999999999999MA1101291999999REMMET051METAR SBLP 101700Z 18006KT 9999 FEW030 36/11 Q1013;
0120832880999992012091018004-13267-043417FM-15+0443SBLP V0201801N003112200019N0112651N1+03701+01101999999ADDGA1021+009001999GF102991999999999999999999MA1101291999999REMMET051METAR SBLP 101800Z 18006KT 9999 FEW030 37/11 Q1013;
0120832880999992012091019004-13267-043417FM-15+0443SBLP V0201801N003112200019N0112651N1+03701+01101999999ADDGA1041+009001999GF104991999999999999999999MA1101291999999REMMET051METAR SBLP 101900Z 18006KT 9999 SCT030 37/11 Q1013;
0120832880999992012091020004-13267-043417FM-15+0443SBLP V0201801N003112200019N0112651N1+03601+01201999999ADDGA1021+009001999GF102991999999999999999999MA1101291999999REMMET051METAR SBLP 102000Z 18006KT 9999 FEW030 36/12 Q1013;
0120832880999992012091021004-13267-043417FM-15+0443SBLP V0201801N003112200019N0112651N1+03401+01301999999ADDGA1021+009001999GF102991999999999999999999MA1101291999999REMMET051METAR SBLP 102100Z 18006KT 9999 FEW030 34/13 Q1013;
0072832880999992012091110004-13267-043417FM-15+0443SBLP V0209999C000019999999Y0099001N1+02401+01401999999ADDMA1101591999999REMMET045METAR SBLP 111000Z 00000KT CAVOK 24/14 Q1016;
0072832880999992012091111004-13267-043417FM-15+0443SBLP V0209999C000019999999Y0099001N1+02701+01401999999ADDMA1101691999999REMMET045METAR SBLP 111100Z 00000KT CAVOK 27/14 Q1017;
0072832880999992012091112004-13267-043417FM-15+0443SBLP V0209999C000019999999Y0099001N1+02901+01401999999ADDMA1101801999999REMMET045METAR SBLP 111200Z 00000KT CAVOK 29/14 Q1018;
0072832880999992012091113004-13267-043417FM-15+0443SBLP V0209999C000019999999Y0099001N1+03101+01401999999ADDMA1101801999999REMMET045METAR SBLP 111300Z 00000KT CAVOK 31/14 Q1018;
0072832880999992012091114004-13267-043417FM-15+0443SBLP V0209999C000019999999Y0099001N1+03201+01401999999ADDMA1101691999999REMMET045METAR SBLP 111400Z 00000KT CAVOK 32/14 Q1017;
0120832880999992012091115004-13267-043417FM-15+0443SBLP V0202701N003112200019N0112651N1+03301+01301999999ADDGA1021+009001999GF102991999999999999999999MA1101491999999REMMET051METAR SBLP 111500Z 27006KT 9999 FEW030 33/13 Q1015;
0120832880999992012091116004-13267-043417FM-15+0443SBLP V0203501N001512200019N0112651N1+03601+01201999999ADDGA1021+009001999GF102991999999999999999999MA1101391999999REMMET051METAR SBLP 111600Z 35003KT 9999 FEW030 36/12 Q1014;
0120832880999992012091117004-13267-043417FM-15+0443SBLP V0202401N002612200019N0112651N1+03801+01001999999ADDGA1021+009001999GF102991999999999999999999MA1101191999999REMMET051METAR SBLP 111700Z 24005KT 9999 FEW030 38/10 Q1012;
0120832880999992012091118004-13267-043417FM-15+0443SBLP V0203301N002612200019N0112651N1+03701+00901999999ADDGA1021+009001999GF102991999999999999999999MA1101191999999REMMET051METAR SBLP 111800Z 33005KT 9999 FEW030 37/09 Q1012;
0072832880999992012091119004-13267-043417FM-15+0443SBLP V0209999C000019999999Y0099001N1+03701+00601999999ADDMA1101081999999REMMET045METAR SBLP 111900Z 00000KT CAVOK 37/06 Q1011;
0072832880999992012091120004-13267-043417FM-15+0443SBLP V0203301N002119999999Y0099001N1+03601+00801999999ADDMA1101081999999REMMET045METAR SBLP 112000Z 33004KT CAVOK 36/08 Q1011;
0072832880999992012091121004-13267-043417FM-15+0443SBLP V0209999C000019999999Y0099001N1+03301+00901999999ADDMA1101191999999REMMET045METAR SBLP 112100Z 00000KT CAVOK 33/09 Q1012;
0072832880999992012091210004-13267-043417FM-15+0443SBLP V0200301N001519999999Y0099001N1+02401+01401999999ADDMA1101591999999REMMET045METAR SBLP 121000Z 03003KT CAVOK 24/14 Q1016;
0072832880999992012091211004-13267-043417FM-15+0443SBLP V0203601N002119999999Y0099001N1+02801+01301999999ADDMA1101591999999REMMET045METAR SBLP 121100Z 36004KT CAVOK 28/13 Q1016;
0072832880999992012091212004-13267-043417FM-15+0443SBLP V0203301N002619999999Y0099001N1+03101+01301999999ADDMA1101691999999REMMET045METAR SBLP 121200Z 33005KT CAVOK 31/13 Q1017;
0072832880999992012091213004-13267-043417FM-15+0443SBLP V0200101N003119999999Y0099001N1+03401+01101999999ADDMA1101691999999REMMET045METAR SBLP 121300Z 01006KT CAVOK 34/11 Q1017;
0072832880999992012091214004-13267-043417FM-15+0443SBLP V0203601N003119999999Y0099001N1+03601+00801999999ADDMA1101591999999REMMET045METAR SBLP 121400Z 36006KT CAVOK 36/08 Q1016;
0072832880999992012091215004-13267-043417FM-15+0443SBLP V0203601N003119999999Y0099001N1+03701+00701999999ADDMA1101491999999REMMET045METAR SBLP 121500Z 36006KT CAVOK 37/07 Q1015;
0072832880999992012091216004-13267-043417FM-15+0443SBLP V0203601N003119999999Y0099001N1+03801+00701999999ADDMA1101291999999REMMET045METAR SBLP 121600Z 36006KT CAVOK 38/07 Q1013;
0072832880999992012091217004-13267-043417FM-15+0443SBLP V0203601N003119999999Y0099001N1+03901+00701999999ADDMA1101191999999REMMET045METAR SBLP 121700Z 36006KT CAVOK 39/07 Q1012;
0072832880999992012091218004-13267-043417FM-15+0443SBLP V0203601N003119999999Y0099001N1+03901+00701999999ADDMA1101081999999REMMET045METAR SBLP 121800Z 36006KT CAVOK 39/07 Q1011;
0072832880999992012091219004-13267-043417FM-15+0443SBLP V0203601N003119999999Y0099001N1+03901+00701999999ADDMA1101081999999REMMET045METAR SBLP 121900Z 36006KT CAVOK 39/07 Q1011;
0072832880999992012091220004-13267-043417FM-15+0443SBLP V0203601N003119999999Y0099001N1+03701+00801999999ADDMA1101081999999REMMET045METAR SBLP 122000Z 36006KT CAVOK 37/08 Q1011;
0072832880999992012091221004-13267-043417FM-15+0443SBLP V0209999C000019999999Y0099001N1+03501+01001999999ADDMA1101191999999REMMET045METAR SBLP 122100Z 00000KT CAVOK 35/10 Q1012;
0072832880999992012091310004-13267-043417FM-15+0443SBLP V0209999C000019999999Y0099001N1+02401+01401999999ADDMA1101491999999REMMET045METAR SBLP 131000Z 00000KT CAVOK 24/14 Q1015;
0072832880999992012091311004-13267-043417FM-15+0443SBLP V0209999C000019999999Y0099001N1+02701+01301999999ADDMA1101591999999REMMET045METAR SBLP 131100Z 00000KT CAVOK 27/13 Q1016;
0072832880999992012091312004-13267-043417FM-15+0443SBLP V0209999C000019999999Y0099001N1+02901+01201999999ADDMA1101691999999REMMET045METAR SBLP 131200Z 00000KT CAVOK 29/12 Q1017;
0072832880999992012091313004-13267-043417FM-15+0443SBLP V0209999C000019999999Y0099001N1+03201+00901999999ADDMA1101691999999REMMET045METAR SBLP 131300Z 00000KT CAVOK 32/09 Q1017;
0072832880999992012091314004-13267-043417FM-15+0443SBLP V0209999C000019999999Y0099001N1+03401+00801999999ADDMA1101591999999REMMET045METAR SBLP 131400Z 00000KT CAVOK 34/08 Q1016;
0072832880999992012091315004-13267-043417FM-15+0443SBLP V0200901N003119999999Y0099001N1+03601+00701999999ADDMA1101491999999REMMET045METAR SBLP 131500Z 09006KT CAVOK 36/07 Q1015;
0072832880999992012091316004-13267-043417FM-15+0443SBLP V0201501N003119999999Y0099001N1+03901+00901999999ADDMA1101291999999REMMET045METAR SBLP 131600Z 15006KT CAVOK 39/09 Q1013;
0120832880999992012091317004-13267-043417FM-15+0443SBLP V0200601N002112200019N0112651N1+03901+01001999999ADDGA1021+009001999GF102991999999999999999999MA1101191999999REMMET051METAR SBLP 131700Z 06004KT 9999 FEW030 39/10 Q1012;
0120832880999992012091318004-13267-043417FM-15+0443SBLP V0201501N002112200019N0112651N1+04001+01001999999ADDGA1041+009001999GF104991999999999999999999MA1101081999999REMMET051METAR SBLP 131800Z 15004KT 9999 SCT030 40/10 Q1011;
0120832880999992012091319004-13267-043417FM-15+0443SBLP V0202101N002112200019N0112651N1+03901+01001999999ADDGA1021+009001999GF102991999999999999999999MA1101081999999REMMET051METAR SBLP 131900Z 21004KT 9999 FEW030 39/10 Q1011;
0120832880999992012091320004-13267-043417FM-15+0443SBLP V0201201N002112200019N0112651N1+03801+01201999999ADDGA1021+009001999GF102991999999999999999999MA1101081999999REMMET051METAR SBLP 132000Z 12004KT 9999 FEW030 38/12 Q1011;
0120832880999992012091321004-13267-043417FM-15+0443SBLP V0200901N003112200019N0112651N1+03601+01301999999ADDGA1021+009001999GF102991999999999999999999MA1101191999999REMMET051METAR SBLP 132100Z 09006KT 9999 FEW030 36/13 Q1012;
0072832880999992012091410004-13267-043417FM-15+0443SBLP V0209999C000019999999Y0099001N1+02401+01501999999ADDMA1101591999999REMMET045METAR SBLP 141000Z 00000KT CAVOK 24/15 Q1016;
0072832880999992012091411004-13267-043417FM-15+0443SBLP V0209999C000019999999Y0099001N1+02801+01101999999ADDMA1101591999999REMMET045METAR SBLP 141100Z 00000KT CAVOK 28/11 Q1016;
0072832880999992012091412004-13267-043417FM-15+0443SBLP V0203601N001519999999Y0099001N1+03101+00901999999ADDMA1101691999999REMMET045METAR SBLP 141200Z 36003KT CAVOK 31/09 Q1017;
0072832880999992012091413004-13267-043417FM-15+0443SBLP V0202701N001519999999Y0099001N1+03301+01001999999ADDMA1101691999999REMMET045METAR SBLP 141300Z 27003KT CAVOK 33/10 Q1017;
0072832880999992012091414004-13267-043417FM-15+0443SBLP V0201101N003119999999Y0099001N1+03801+00401999999ADDMA1101591999999REMMET045METAR SBLP 141400Z 11006KT CAVOK 38/04 Q1016;
0072832880999992012091415004-13267-043417FM-15+0443SBLP V0201101N003119999999Y0099001N1+03801+00701999999ADDMA1101491999999REMMET045METAR SBLP 141500Z 11006KT CAVOK 38/07 Q1015;
0072832880999992012091416004-13267-043417FM-15+0443SBLP V0200901N003119999999Y0099001N1+03901+00701999999ADDMA1101391999999REMMET045METAR SBLP 141600Z 09006KT CAVOK 39/07 Q1014;
0072832880999992012091417004-13267-043417FM-15+0443SBLP V0200901N003119999999Y0099001N1+03901+00701999999ADDMA1101191999999REMMET045METAR SBLP 141700Z 09006KT CAVOK 39/07 Q1012;
0076832880999992012091418004-13267-043417FM-15+0443SBLP V0200901N003112200019N0099001N1+04001+00701999999ADDMA1101201999999REMMET049METAR SBLP 141800Z 09006KT C A V O K 40/07 Q1012;
0072832880999992012091419004-13267-043417FM-15+0443SBLP V0200901N003119999999Y0099001N1+04001+00801999999ADDMA1101191999999REMMET045METAR SBLP 141900Z 09006KT CAVOK 40/08 Q1012;
0072832880999992012091420004-13267-043417FM-15+0443SBLP V0200901N003119999999Y0099001N1+03801+00901999999ADDMA1101191999999REMMET045METAR SBLP 142000Z 09006KT CAVOK 38/09 Q1012;
0072832880999992012091421004-13267-043417FM-15+0443SBLP V0200901N003119999999Y0099001N1+03501+01101999999ADDMA1101291999999REMMET045METAR SBLP 142100Z 09006KT CAVOK 35/11 Q1013;
0072832880999992012091710004-13267-043417FM-15+0443SBLP V0209999C000019999999Y0099001N1+02401+01501999999ADDMA1101901999999REMMET045METAR SBLP 171000Z 00000KT CAVOK 24/15 Q1019;
0072832880999992012091711004-13267-043417FM-15+0443SBLP V0209999C000019999999Y0099001N1+02701+01401999999ADDMA1102001999999REMMET045METAR SBLP 171100Z 00000KT CAVOK 27/14 Q1020;
0072832880999992012091712004-13267-043417FM-15+0443SBLP V0200901N003119999999Y0099001N1+02901+01401999999ADDMA1102001999999REMMET045METAR SBLP 171200Z 09006KT CAVOK 29/14 Q1020;
0072832880999992012091713004-13267-043417FM-15+0443SBLP V0200901N003119999999Y0099001N1+03101+01301999999ADDMA1102001999999REMMET045METAR SBLP 171300Z 09006KT CAVOK 31/13 Q1020;
0072832880999992012091714004-13267-043417FM-15+0443SBLP V0200901N003119999999Y0099001N1+03201+01201999999ADDMA1101901999999REMMET045METAR SBLP 171400Z 09006KT CAVOK 32/12 Q1019;
0120832880999992012091715004-13267-043417FM-15+0443SBLP V0200901N003112200019N0112651N1+03301+01201999999ADDGA1021+009001999GF102991999999999999999999MA1101691999999REMMET051METAR SBLP 171500Z 09006KT 9999 FEW030 33/12 Q1017;
0120832880999992012091716004-13267-043417FM-15+0443SBLP V0201801N001512200019N0112651N1+03501+01101999999ADDGA1021+009001999GF102991999999999999999999MA1101591999999REMMET051METAR SBLP 171600Z 18003KT 9999 FEW030 35/11 Q1016;
0120832880999992012091717004-13267-043417FM-15+0443SBLP V0209999C000012200019N0112651N1+03501+00901999999ADDGA1021+009001999GF102991999999999999999999MA1101491999999REMMET051METAR SBLP 171700Z 00000KT 9999 FEW030 35/09 Q1015;
0120832880999992012091718004-13267-043417FM-15+0443SBLP V0201501N001512200019N0112651N1+03701+00801999999ADDGA1021+009001999GF102991999999999999999999MA1101391999999REMMET051METAR SBLP 171800Z 15003KT 9999 FEW030 37/08 Q1014;
0120832880999992012091719004-13267-043417FM-15+0443SBLP V0203001N002612200019N0112651N1+03701+00801999999ADDGA1021+009001999GF102991999999999999999999MA1101391999999REMMET051METAR SBLP 171900Z 30005KT 9999 FEW030 37/08 Q1014;
0120832880999992012091720004-13267-043417FM-15+0443SBLP V0202701N001512200019N0112651N1+03601+00801999999ADDGA1021+009001999GF102991999999999999999999MA1101391999999REMMET051METAR SBLP 172000Z 27003KT 9999 FEW030 36/08 Q1014;
0072832880999992012091721004-13267-043417FM-15+0443SBLP V0209999C000019999999Y0099001N1+03401+00801999999ADDMA1101391999999REMMET045METAR SBLP 172100Z 00000KT CAVOK 34/08 Q1014;
0072832880999992012091810004-13267-043417FM-15+0443SBLP V0201101N001519999999Y0099001N1+02301+01601999999ADDMA1101801999999REMMET045METAR SBLP 181000Z 11003KT CAVOK 23/16 Q1018;
0072832880999992012091811004-13267-043417FM-15+0443SBLP V0200601N002619999999Y0099001N1+02701+01301999999ADDMA1101901999999REMMET045METAR SBLP 181100Z 06005KT CAVOK 27/13 Q1019;
0072832880999992012091812004-13267-043417FM-15+0443SBLP V0200601N003119999999Y0099001N1+03001+01201999999ADDMA1101901999999REMMET045METAR SBLP 181200Z 06006KT CAVOK 30/12 Q1019;
0072832880999992012091813004-13267-043417FM-15+0443SBLP V0200301N002119999999Y0099001N1+03301+01201999999ADDMA1101801999999REMMET045METAR SBLP 181300Z 03004KT CAVOK 33/12 Q1018;
0072832880999992012091814004-13267-043417FM-15+0443SBLP V0200901N003119999999Y0099001N1+03401+01201999999ADDMA1101691999999REMMET045METAR SBLP 181400Z 09006KT CAVOK 34/12 Q1017;
0072832880999992012091815004-13267-043417FM-15+0443SBLP V0209999C000019999999Y0099001N1+03601+01101999999ADDMA1101591999999REMMET045METAR SBLP 181500Z 00000KT CAVOK 36/11 Q1016;
0120832880999992012091816004-13267-043417FM-15+0443SBLP V0203601N003112200019N0112651N1+03601+01101999999ADDGA1041+009001999GF104991999999999999999999MA1101391999999REMMET051METAR SBLP 181600Z 36006KT 9999 SCT030 36/11 Q1014;
0120832880999992012091817004-13267-043417FM-15+0443SBLP V0203601N003112200019N0112651N1+03701+01101999999ADDGA1041+009001999GF104991999999999999999999MA1101291999999REMMET051METAR SBLP 181700Z 36006KT 9999 SCT030 37/11 Q1013;
0120832880999992012091818004-13267-043417FM-15+0443SBLP V0203601N003112200019N0112651N1+03801+01001999999ADDGA1041+009001999GF104991999999999999999999MA1101191999999REMMET051METAR SBLP 181800Z 36006KT 9999 SCT030 38/10 Q1012;
0120832880999992012091819004-13267-043417FM-15+0443SBLP V0203601N003112200019N0112651N1+03701+01001999999ADDGA1021+009001999GF102991999999999999999999MA1101191999999REMMET051METAR SBLP 181900Z 36006KT 9999 FEW030 37/10 Q1012;
0120832880999992012091820004-13267-043417FM-15+0443SBLP V0209999C000012200019N0112651N1+03601+01101999999ADDGA1021+009001999GF102991999999999999999999MA1101191999999REMMET051METAR SBLP 182000Z 00000KT 9999 FEW030 36/11 Q1012;
0072832880999992012091821004-13267-043417FM-15+0443SBLP V0209999C000019999999Y0099001N1+03401+01201999999ADDMA1101291999999REMMET045METAR SBLP 182100Z 00000KT CAVOK 34/12 Q1013;
0072832880999992012091910004-13267-043417FM-15+0443SBLP V0209999C000019999999Y0099001N1+02401+01501999999ADDMA1101491999999REMMET045METAR SBLP 191000Z 00000KT CAVOK 24/15 Q1015;
0072832880999992012091911004-13267-043417FM-15+0443SBLP V0209999C000019999999Y0099001N1+02701+01401999999ADDMA1101591999999REMMET045METAR SBLP 191100Z 00000KT CAVOK 27/14 Q1016;
0072832880999992012091912004-13267-043417FM-15+0443SBLP V0209999C000019999999Y0099001N1+02901+01401999999ADDMA1101691999999REMMET045METAR SBLP 191200Z 00000KT CAVOK 29/14 Q1017;
0072832880999992012091913004-13267-043417FM-15+0443SBLP V0209999C000019999999Y0099001N1+03201+01301999999ADDMA1101691999999REMMET045METAR SBLP 191300Z 00000KT CAVOK 32/13 Q1017;
0072832880999992012091914004-13267-043417FM-15+0443SBLP V0209999C000019999999Y0099001N1+03401+01201999999ADDMA1101591999999REMMET045METAR SBLP 191400Z 00000KT CAVOK 34/12 Q1016;
0120832880999992012091915004-13267-043417FM-15+0443SBLP V0209999C000012200019N0112651N1+03601+01101999999ADDGA1021+009001999GF102991999999999999999999MA1101491999999REMMET051METAR SBLP 191500Z 00000KT 9999 FEW030 36/11 Q1015;
0120832880999992012091916004-13267-043417FM-15+0443SBLP V0202401N003112200019N0112651N1+03801+00701999999ADDGA1021+009001999GF102991999999999999999999MA1101291999999REMMET051METAR SBLP 191600Z 24006KT 9999 FEW030 38/07 Q1013;
0120832880999992012091917004-13267-043417FM-15+0443SBLP V0202101N002612200019N0112651N1+03801+00801999999ADDGA1021+009001999GF102991999999999999999999MA1101191999999REMMET051METAR SBLP 191700Z 21005KT 9999 FEW030 38/08 Q1012;
0120832880999992012091918004-13267-043417FM-15+0443SBLP V0201301N003112200019N0112651N1+03801+00601999999ADDGA1021+009001999GF102991999999999999999999MA1101081999999REMMET051METAR SBLP 191800Z 13006KT 9999 FEW030 38/06 Q1011;
0120832880999992012091919004-13267-043417FM-15+0443SBLP V0201801N002612200019N0112651N1+03801+00701999999ADDGA1021+009001999GF102991999999999999999999MA1101081999999REMMET051METAR SBLP 191900Z 18005KT 9999 FEW030 38/07 Q1011;
0072832880999992012091920004-13267-043417FM-15+0443SBLP V0201801N003119999999Y0099001N1+03701+01001999999ADDMA1101081999999REMMET045METAR SBLP 192000Z 18006KT CAVOK 37/10 Q1011;
0072832880999992012091921004-13267-043417FM-15+0443SBLP V0209999C000019999999Y0099001N1+03401+00801999999ADDMA1101081999999REMMET045METAR SBLP 192100Z 00000KT CAVOK 34/08 Q1011;
0120832880999992012092010004-13267-043417FM-15+0443SBLP V0209999C000012200019N0112651N1+02501+01601999999ADDGA1041+009001999GF104991999999999999999999MA1101391999999REMMET051METAR SBLP 201000Z 00000KT 9999 SCT030 25/16 Q1014;
0120832880999992012092011004-13267-043417FM-15+0443SBLP V0209999C000012200019N0112651N1+02801+01501999999ADDGA1021+009001999GF102991999999999999999999MA1101491999999REMMET051METAR SBLP 201100Z 00000KT 9999 FEW030 28/15 Q1015;
0120832880999992012092012004-13267-043417FM-15+0443SBLP V0209999C000012200019N0112651N1+03101+01301999999ADDGA1021+009001999GF102991999999999999999999MA1101491999999REMMET051METAR SBLP 201200Z 00000KT 9999 FEW030 31/13 Q1015;
0072832880999992012092013004-13267-043417FM-15+0443SBLP V0209999C000019999999Y0099001N1+03301+01201999999ADDMA1101491999999REMMET045METAR SBLP 201300Z 00000KT CAVOK 33/12 Q1015;
0072832880999992012092014004-13267-043417FM-15+0443SBLP V0203601N003119999999Y0099001N1+03501+01201999999ADDMA1101391999999REMMET045METAR SBLP 201400Z 36006KT CAVOK 35/12 Q1014;
0072832880999992012092015004-13267-043417FM-15+0443SBLP V0203601N003119999999Y0099001N1+03601+01101999999ADDMA1101191999999REMMET045METAR SBLP 201500Z 36006KT CAVOK 36/11 Q1012;
0120832880999992012092016004-13267-043417FM-15+0443SBLP V0203301N004112200019N0112651N1+03501+01301999999ADDGA1021+009001999GF102991999999999999999999MA1101081999999REMMET051METAR SBLP 201600Z 33008KT 9999 FEW030 35/13 Q1011;
0120832880999992012092017004-13267-043417FM-15+0443SBLP V0203301N003112200019N0112651N1+03901+01001999999ADDGA1021+009001999GF102991999999999999999999MA1101021999999REMMET051METAR SBLP 201700Z 33006KT 9999 FEW030 39/10 Q1010;
0120832880999992012092018004-13267-043417FM-15+0443SBLP V0200301N003112200019N0112651N1+03901+01101999999ADDGA1021+009001999GF102991999999999999999999MA1100911999999REMMET051METAR SBLP 201800Z 03006KT 9999 FEW030 39/11 Q1009;
0120832880999992012092019004-13267-043417FM-15+0443SBLP V0209999C000012200019N0112651N1+03801+01001999999ADDGA1021+009001999GF102991999999999999999999MA1100911999999REMMET051METAR SBLP 201900Z 00000KT 9999 FEW030 38/10 Q1009;
0120832880999992012092020004-13267-043417FM-15+0443SBLP V0209999C000012200019N0112651N1+03701+01201999999ADDGA1021+009001999GF102991999999999999999999MA1100911999999REMMET051METAR SBLP 202000Z 00000KT 9999 FEW030 37/12 Q1009;
0072832880999992012092021004-13267-043417FM-15+0443SBLP V0209999C000019999999Y0099001N1+03501+01001999999ADDMA1100911999999REMMET045METAR SBLP 202100Z 00000KT CAVOK 35/10 Q1009;
0072832880999992012092110004-13267-043417FM-15+0443SBLP V0209999C000019999999Y0099001N1+02701+01401999999ADDMA1101391999999REMMET045METAR SBLP 211000Z 00000KT CAVOK 27/14 Q1014;
0072832880999992012092111004-13267-043417FM-15+0443SBLP V0209999C000019999999Y0099001N1+02901+01301999999ADDMA1101491999999REMMET045METAR SBLP 211100Z 00000KT CAVOK 29/13 Q1015;
0072832880999992012092112004-13267-043417FM-15+0443SBLP V0209999C000019999999Y0099001N1+03101+01301999999ADDMA1101491999999REMMET045METAR SBLP 211200Z 00000KT CAVOK 31/13 Q1015;
0072832880999992012092113004-13267-043417FM-15+0443SBLP V0209999C000019999999Y0099001N1+03301+01301999999ADDMA1101391999999REMMET045METAR SBLP 211300Z 00000KT CAVOK 33/13 Q1014;
0072832880999992012092114004-13267-043417FM-15+0443SBLP V0209999C000019999999Y0099001N1+03501+01301999999ADDMA1101291999999REMMET045METAR SBLP 211400Z 00000KT CAVOK 35/13 Q1013;
0072832880999992012092115004-13267-043417FM-15+0443SBLP V0203601N003119999999Y0099001N1+03601+01201999999ADDMA1101191999999REMMET045METAR SBLP 211500Z 36006KT CAVOK 36/12 Q1012;
0120832880999992012092116004-13267-043417FM-15+0443SBLP V0203601N001512200019N0112651N1+03801+01401999999ADDGA1021+009001999GF102991999999999999999999MA1101021999999REMMET051METAR SBLP 211600Z 36003KT 9999 FEW030 38/14 Q1010;
0120832880999992012092117004-13267-043417FM-15+0443SBLP V0209999C000012200019N0112651N1+03901+01101999999ADDGA1021+009001999GF102991999999999999999999MA1100911999999REMMET051METAR SBLP 211700Z 00000KT 9999 FEW030 39/11 Q1009;
0120832880999992012092118004-13267-043417FM-15+0443SBLP V0202401N001512200019N0112651N1+03901+01201999999ADDGA1021+009001999GF102991999999999999999999MA1100811999999REMMET051METAR SBLP 211800Z 24003KT 9999 FEW030 39/12 Q1008;
0120832880999992012092119004-13267-043417FM-15+0443SBLP V0203301N003112200019N0112651N1+03901+01001999999ADDGA1021+009001999GF102991999999999999999999MA1100811999999REMMET051METAR SBLP 211900Z 33006KT 9999 FEW030 39/10 Q1008;
0072832880999992012092120004-13267-043417FM-15+0443SBLP V0202701N001519999999Y0099001N1+03801+00901999999ADDMA1100811999999REMMET045METAR SBLP 212000Z 27003KT CAVOK 38/09 Q1008;
0072832880999992012092121004-13267-043417FM-15+0443SBLP V0203101N001519999999Y0099001N1+03601+00901999999ADDMA1100811999999REMMET045METAR SBLP 212100Z 31003KT CAVOK 36/09 Q1008;
0072832880999992012092410004-13267-043417FM-15+0443SBLP V0209999C000019999999Y0099001N1+02401+01601999999ADDMA1101901999999REMMET045METAR SBLP 241000Z 00000KT CAVOK 24/16 Q1019;
0072832880999992012092411004-13267-043417FM-15+0443SBLP V0209999C000019999999Y0099001N1+02701+01501999999ADDMA1101901999999REMMET045METAR SBLP 241100Z 00000KT CAVOK 27/15 Q1019;
0072832880999992012092412004-13267-043417FM-15+0443SBLP V0209999C000019999999Y0099001N1+02901+01401999999ADDMA1102001999999REMMET045METAR SBLP 241200Z 00000KT CAVOK 29/14 Q1020;
0072832880999992012092413004-13267-043417FM-15+0443SBLP V0209999C000019999999Y0099001N1+03101+01301999999ADDMA1101901999999REMMET045METAR SBLP 241300Z 00000KT CAVOK 31/13 Q1019;
0120832880999992012092414004-13267-043417FM-15+0443SBLP V0200901N003112200019N0112651N1+03201+01301999999ADDGA1021+009001999GF102991999999999999999999MA1101801999999REMMET051METAR SBLP 241400Z 09006KT 9999 FEW030 32/13 Q1018;
0120832880999992012092415004-13267-043417FM-15+0443SBLP V0200901N003112200019N0112651N1+03301+01301999999ADDGA1021+009001999GF102991999999999999999999MA1101591999999REMMET051METAR SBLP 241500Z 09006KT 9999 FEW030 33/13 Q1016;
0120832880999992012092416004-13267-043417FM-15+0443SBLP V0201101N004112200019N0112651N1+03401+01401999999ADDGA1021+009001999GF102991999999999999999999MA1101491999999REMMET051METAR SBLP 241600Z 11008KT 9999 FEW030 34/14 Q1015;
0120832880999992012092417004-13267-043417FM-15+0443SBLP V0201801N003112200019N0112651N1+03501+01401999999ADDGA1041+009001999GF104991999999999999999999MA1101391999999REMMET051METAR SBLP 241700Z 18006KT 9999 SCT030 35/14 Q1014;
0120832880999992012092418004-13267-043417FM-15+0443SBLP V0201201N001512200019N0112651N1+03501+01301999999ADDGA1041+009001999GF104991999999999999999999MA1101291999999REMMET051METAR SBLP 241800Z 12003KT 9999 SCT030 35/13 Q1013;
0120832880999992012092419004-13267-043417FM-15+0443SBLP V0200901N003112200019N0112651N1+03501+01301999999ADDGA1021+009001999GF102991999999999999999999MA1101291999999REMMET051METAR SBLP 241900Z 09006KT 9999 FEW030 35/13 Q1013;
0120832880999992012092420004-13267-043417FM-15+0443SBLP V0201201N004112200019N0112651N1+03301+01401999999ADDGA1021+009001999GF102991999999999999999999MA1101291999999REMMET051METAR SBLP 242000Z 12008KT 9999 FEW030 33/14 Q1013;
0120832880999992012092421004-13267-043417FM-15+0443SBLP V0201201N004112200019N0112651N1+03301+01401999999ADDGA1021+009001999GF102991999999999999999999MA1101391999999REMMET051METAR SBLP 242100Z 12008KT 9999 FEW030 33/14 Q1014;
0072832880999992012092510004-13267-043417FM-15+0443SBLP V0209999C000019999999Y0099001N1+02401+01501999999ADDMA1101801999999REMMET045METAR SBLP 251000Z 00000KT CAVOK 24/15 Q1018;
0072832880999992012092511004-13267-043417FM-15+0443SBLP V0209999C000019999999Y0099001N1+02701+01501999999ADDMA1101901999999REMMET045METAR SBLP 251100Z 00000KT CAVOK 27/15 Q1019;
0120832880999992012092512004-13267-043417FM-15+0443SBLP V0200901N003112200019N0112651N1+02801+01501999999ADDGA1021+009001999GF102991999999999999999999MA1101901999999REMMET051METAR SBLP 251200Z 09006KT 9999 FEW030 28/15 Q1019;
0120832880999992012092513004-13267-043417FM-15+0443SBLP V0200901N003112200019N0112651N1+03001+01501999999ADDGA1021+009001999GF102991999999999999999999MA1101801999999REMMET051METAR SBLP 251300Z 09006KT 9999 FEW030 30/15 Q1018;
0120832880999992012092514004-13267-043417FM-15+0443SBLP V0200901N003112200019N0112651N1+03101+01501999999ADDGA1021+009001999GF102991999999999999999999MA1101691999999REMMET051METAR SBLP 251400Z 09006KT 9999 FEW030 31/15 Q1017;
0120832880999992012092515004-13267-043417FM-15+0443SBLP V0200901N003112200019N0112651N1+03301+01401999999ADDGA1021+009001999GF102991999999999999999999MA1101491999999REMMET051METAR SBLP 251500Z 09006KT 9999 FEW030 33/14 Q1015;
0120832880999992012092516004-13267-043417FM-15+0443SBLP V0202701N001512200019N0112651N1+03401+01101999999ADDGA1021+009001999GF102991999999999999999999MA1101391999999REMMET051METAR SBLP 251600Z 27003KT 9999 FEW030 34/11 Q1014;
0120832880999992012092517004-13267-043417FM-15+0443SBLP V0209999C000012200019N0112651N1+03501+01001999999ADDGA1021+009001999GF102991999999999999999999MA1101291999999REMMET051METAR SBLP 251700Z 00000KT 9999 FEW030 35/10 Q1013;
0120832880999992012092518004-13267-043417FM-15+0443SBLP V0209999C000012200019N0112651N1+03501+00901999999ADDGA1021+009001999GF102991999999999999999999MA1101191999999REMMET051METAR SBLP 251800Z 00000KT 9999 FEW030 35/09 Q1012;
0120832880999992012092519004-13267-043417FM-15+0443SBLP V0200201N001512200019N0112651N1+03601+00701999999ADDGA1021+009001999GF102991999999999999999999MA1101191999999REMMET051METAR SBLP 251900Z 02003KT 9999 FEW030 36/07 Q1012;
0120832880999992012092520004-13267-043417FM-15+0443SBLP V0200201N001512200019N0112651N1+03501+00701999999ADDGA1021+009001999GF102991999999999999999999MA1101191999999REMMET051METAR SBLP 252000Z 02003KT 9999 FEW030 35/07 Q1012;
0072832880999992012092521004-13267-043417FM-15+0443SBLP V0203101N002119999999Y0099001N1+03201+01001999999ADDMA1101191999999REMMET045METAR SBLP 252100Z 31004KT CAVOK 32/10 Q1012;
0072832880999992012092610004-13267-043417FM-15+0443SBLP V0209999C000019999999Y0099001N1+02401+01601999999ADDMA1101691999999REMMET045METAR SBLP 261000Z 00000KT CAVOK 24/16 Q1017;
0072832880999992012092611004-13267-043417FM-15+0443SBLP V0209999C000019999999Y0099001N1+02701+01401999999ADDMA1101691999999REMMET045METAR SBLP 261100Z 00000KT CAVOK 27/14 Q1017;
0072832880999992012092612004-13267-043417FM-15+0443SBLP V0209999C000019999999Y0099001N1+03001+01301999999ADDMA1101691999999REMMET045METAR SBLP 261200Z 00000KT CAVOK 30/13 Q1017;
0072832880999992012092613004-13267-043417FM-15+0443SBLP V0203501N003119999999Y0099001N1+03201+01301999999ADDMA1101691999999REMMET045METAR SBLP 261300Z 35006KT CAVOK 32/13 Q1017;
0072832880999992012092613044-13267-043417FM-15+0443SBLP V0203501N003119999999Y0099001N1+03201+01301999999ADDMA1101691999999REMMET045METAR SBLP 261304Z 35006KT CAVOK 32/13 Q1017;
0072832880999992012092615004-13267-043417FM-15+0443SBLP V0209999C000019999999Y0099001N1+03601+01101999999ADDMA1101591999999REMMET045METAR SBLP 261500Z 00000KT CAVOK 36/11 Q1016;
0072832880999992012092617004-13267-043417FM-15+0443SBLP V0200901N003119999999Y0099001N1+03701+01101999999ADDMA1101291999999REMMET045METAR SBLP 261700Z 09006KT CAVOK 37/11 Q1013;
0072832880999992012092621004-13267-043417FM-15+0443SBLP V0209999C000019999999Y0099001N1+03401+01101999999ADDMA1101191999999REMMET045METAR SBLP 262100Z 00000KT CAVOK 34/11 Q1012;
0072832880999992012092710004-13267-043417FM-15+0443SBLP V0209999C000019999999Y0099001N1+02401+01601999999ADDMA1101491999999REMMET045METAR SBLP 271000Z 00000KT CAVOK 24/16 Q1015;
0072832880999992012092711004-13267-043417FM-15+0443SBLP V0209999C000019999999Y0099001N1+02701+01501999999ADDMA1101591999999REMMET045METAR SBLP 271100Z 00000KT CAVOK 27/15 Q1016;
0072832880999992012092712004-13267-043417FM-15+0443SBLP V0209999C000019999999Y0099001N1+03001+01401999999ADDMA1101691999999REMMET045METAR SBLP 271200Z 00000KT CAVOK 30/14 Q1017;
0072832880999992012092713004-13267-043417FM-15+0443SBLP V0209999C000019999999Y0099001N1+03301+01201999999ADDMA1101691999999REMMET045METAR SBLP 271300Z 00000KT CAVOK 33/12 Q1017;
0072832880999992012092714004-13267-043417FM-15+0443SBLP V0209999C000019999999Y0099001N1+03501+01201999999ADDMA1101591999999REMMET045METAR SBLP 271400Z 00000KT CAVOK 35/12 Q1016;
0120832880999992012092715004-13267-043417FM-15+0443SBLP V0203601N003112200019N0112651N1+03701+01101999999ADDGA1021+009001999GF102991999999999999999999MA1101491999999REMMET051METAR SBLP 271500Z 36006KT 9999 FEW030 37/11 Q1015;
0120832880999992012092716004-13267-043417FM-15+0443SBLP V0202401N003112200019N0112651N1+03801+01001999999ADDGA1021+009001999GF102991999999999999999999MA1101391999999REMMET051METAR SBLP 271600Z 24006KT 9999 FEW030 38/10 Q1014;
0120832880999992012092717004-13267-043417FM-15+0443SBLP V0202101N001512200019N0112651N1+03801+01101999999ADDGA1021+009001999GF102991999999999999999999MA1101291999999REMMET051METAR SBLP 271700Z 21003KT 9999 FEW030 38/11 Q1013;
0120832880999992012092718004-13267-043417FM-15+0443SBLP V0201801N003112200019N0112651N1+03801+01001999999ADDGA1041+009001999GF104991999999999999999999MA1101191999999REMMET051METAR SBLP 271800Z 18006KT 9999 SCT030 38/10 Q1012;
0120832880999992012092719004-13267-043417FM-15+0443SBLP V0201701N004112200019N0112651N1+03801+01101999999ADDGA1041+009001999GF104991999999999999999999MA1101191999999REMMET051METAR SBLP 271900Z 17008KT 9999 SCT030 38/11 Q1012;
0120832880999992012092720004-13267-043417FM-15+0443SBLP V0200901N006212200019N0112651N1+03501+01301999999ADDGA1021+009001999GF102991999999999999999999MA1101291999999REMMET051METAR SBLP 272000Z 09012KT 9999 FEW030 35/13 Q1013;
0120832880999992012092721004-13267-043417FM-15+0443SBLP V0200901N004112200019N0112651N1+03301+01701999999ADDGA1021+009001999GF102991999999999999999999MA1101291999999REMMET051METAR SBLP 272100Z 09008KT 9999 FEW030 33/17 Q1013;
0072832880999992012092810004-13267-043417FM-15+0443SBLP V0201501N004119999999Y0099001N1+02201+01401999999ADDMA1102001999999REMMET045METAR SBLP 281000Z 15008KT CAVOK 22/14 Q1020;
0072832880999992012092811004-13267-043417FM-15+0443SBLP V0201101N004119999999Y0099001N1+02501+01401999999ADDMA1102101999999REMMET045METAR SBLP 281100Z 11008KT CAVOK 25/14 Q1021;
0072832880999992012092812004-13267-043417FM-15+0443SBLP V0200901N003119999999Y0099001N1+02701+01501999999ADDMA1102101999999REMMET045METAR SBLP 281200Z 09006KT CAVOK 27/15 Q1021;
0072832880999992012092813004-13267-043417FM-15+0443SBLP V0200601N001519999999Y0099001N1+02901+01501999999ADDMA1102101999999REMMET045METAR SBLP 281300Z 06003KT CAVOK 29/15 Q1021;
0072832880999992012092814004-13267-043417FM-15+0443SBLP V0200301N003119999999Y0099001N1+03001+01401999999ADDMA1102001999999REMMET045METAR SBLP 281400Z 03006KT CAVOK 30/14 Q1020;
0072832880999992012092815004-13267-043417FM-15+0443SBLP V0201201N003119999999Y0099001N1+03201+01401999999ADDMA1101901999999REMMET045METAR SBLP 281500Z 12006KT CAVOK 32/14 Q1019;
0072832880999992012092816004-13267-043417FM-15+0443SBLP V0200901N003119999999Y0099001N1+03301+01401999999ADDMA1101691999999REMMET045METAR SBLP 281600Z 09006KT CAVOK 33/14 Q1017;
0072832880999992012092817004-13267-043417FM-15+0443SBLP V0200901N003119999999Y0099001N1+03401+01401999999ADDMA1101591999999REMMET045METAR SBLP 281700Z 09006KT CAVOK 34/14 Q1016;
0120832880999992012092818004-13267-043417FM-15+0443SBLP V0200901N003112200019N0112651N1+03601+01401999999ADDGA1021+009001999GF102991999999999999999999MA1101491999999REMMET051METAR SBLP 281800Z 09006KT 9999 FEW030 36/14 Q1015;
0120832880999992012092819004-13267-043417FM-15+0443SBLP V0200901N003112200019N0112651N1+03501+01501999999ADDGA1021+009001999GF102991999999999999999999MA1101491999999REMMET051METAR SBLP 281900Z 09006KT 9999 FEW030 35/15 Q1015;
0120832880999992012092820004-13267-043417FM-15+0443SBLP V0200901N003112200019N0112651N1+03301+01601999999ADDGA1041+009001999GF104991999999999999999999MA1101491999999REMMET051METAR SBLP 282000Z 09006KT 9999 SCT030 33/16 Q1015;
0120832880999992012092821004-13267-043417FM-15+0443SBLP V0200901N003112200019N0112651N1+03201+01601999999ADDGA1041+009001999GF104991999999999999999999MA1101591999999REMMET051METAR SBLP 282100Z 09006KT 9999 SCT030 32/16 Q1016;
0072832880999992012100110004-13267-043417FM-15+0443SBLP V0209999C000019999999Y0099001N1+02401+01501999999ADDMA1101801999999REMMET045METAR SBLP 011000Z 00000KT CAVOK 24/15 Q1018;
0072832880999992012100111004-13267-043417FM-15+0443SBLP V0209999C000019999999Y0099001N1+02701+01401999999ADDMA1101901999999REMMET045METAR SBLP 011100Z 00000KT CAVOK 27/14 Q1019;
0072832880999992012100112004-13267-043417FM-15+0443SBLP V0209999C000019999999Y0099001N1+02801+01301999999ADDMA1101901999999REMMET045METAR SBLP 011200Z 00000KT CAVOK 28/13 Q1019;
0072832880999992012100113004-13267-043417FM-15+0443SBLP V0209999C000019999999Y0099001N1+03001+01201999999ADDMA1101801999999REMMET045METAR SBLP 011300Z 00000KT CAVOK 30/12 Q1018;
0072832880999992012100114004-13267-043417FM-15+0443SBLP V0209999C000019999999Y0099001N1+03201+01201999999ADDMA1101691999999REMMET045METAR SBLP 011400Z 00000KT CAVOK 32/12 Q1017;
0072832880999992012100115004-13267-043417FM-15+0443SBLP V0209999C000019999999Y0099001N1+03201+01201999999ADDMA1101491999999REMMET045METAR SBLP 011500Z 00000KT CAVOK 32/12 Q1015;
0072832880999992012100116004-13267-043417FM-15+0443SBLP V0202501N003119999999Y0099001N1+03401+01001999999ADDMA1101391999999REMMET045METAR SBLP 011600Z 25006KT CAVOK 34/10 Q1014;
0072832880999992012100117004-13267-043417FM-15+0443SBLP V0202101N003119999999Y0099001N1+03401+01001999999ADDMA1101191999999REMMET045METAR SBLP 011700Z 21006KT CAVOK 34/10 Q1012;
0072832880999992012100118004-13267-043417FM-15+0443SBLP V0202401N004119999999Y0099001N1+03501+01001999999ADDMA1101191999999REMMET045METAR SBLP 011800Z 24008KT CAVOK 35/10 Q1012;
0072832880999992012100119004-13267-043417FM-15+0443SBLP V0202401N003119999999Y0099001N1+03501+01101999999ADDMA1101191999999REMMET045METAR SBLP 011900Z 24006KT CAVOK 35/11 Q1012;
0072832880999992012100120004-13267-043417FM-15+0443SBLP V0202101N004119999999Y0099001N1+03401+01201999999ADDMA1101191999999REMMET045METAR SBLP 012000Z 21008KT CAVOK 34/12 Q1012;
0072832880999992012100121004-13267-043417FM-15+0443SBLP V0201801N002619999999Y0099001N1+03201+00801999999ADDMA1101191999999REMMET045METAR SBLP 012100Z 18005KT CAVOK 32/08 Q1012;
0072832880999992012100210004-13267-043417FM-15+0443SBLP V0201201N001519999999Y0099001N1+02101+01301999999ADDMA1101691999999REMMET045METAR SBLP 021000Z 12003KT CAVOK 21/13 Q1017;
0072832880999992012100211004-13267-043417FM-15+0443SBLP V0200901N001519999999Y0099001N1+02601+01401999999ADDMA1101801999999REMMET045METAR SBLP 021100Z 09003KT CAVOK 26/14 Q1018;
0072832880999992012100212004-13267-043417FM-15+0443SBLP V0200701N001519999999Y0099001N1+02801+01401999999ADDMA1101801999999REMMET045METAR SBLP 021200Z 07003KT CAVOK 28/14 Q1018;
0072832880999992012100213004-13267-043417FM-15+0443SBLP V0201201N001519999999Y0099001N1+03101+01301999999ADDMA1101801999999REMMET045METAR SBLP 021300Z 12003KT CAVOK 31/13 Q1018;
0072832880999992012100214004-13267-043417FM-15+0443SBLP V0200901N001519999999Y0099001N1+03301+01201999999ADDMA1101691999999REMMET045METAR SBLP 021400Z 09003KT CAVOK 33/12 Q1017;
0072832880999992012100215004-13267-043417FM-15+0443SBLP V0202401N003119999999Y0099001N1+03401+01201999999ADDMA1101591999999REMMET045METAR SBLP 021500Z 24006KT CAVOK 34/12 Q1016;
0072832880999992012100216004-13267-043417FM-15+0443SBLP V0201801N003119999999Y0099001N1+03601+01101999999ADDMA1101391999999REMMET045METAR SBLP 021600Z 18006KT CAVOK 36/11 Q1014;
0072832880999992012100217004-13267-043417FM-15+0443SBLP V0201801N003119999999Y0099001N1+03701+01101999999ADDMA1101291999999REMMET045METAR SBLP 021700Z 18006KT CAVOK 37/11 Q1013;
0072832880999992012100218004-13267-043417FM-15+0443SBLP V0201801N003119999999Y0099001N1+03701+01101999999ADDMA1101191999999REMMET045METAR SBLP 021800Z 18006KT CAVOK 37/11 Q1012;
0072832880999992012100219004-13267-043417FM-15+0443SBLP V0201801N003119999999Y0099001N1+03701+01101999999ADDMA1101191999999REMMET045METAR SBLP 021900Z 18006KT CAVOK 37/11 Q1012;
0072832880999992012100220004-13267-043417FM-15+0443SBLP V0201801N003119999999Y0099001N1+03501+01201999999ADDMA1101191999999REMMET045METAR SBLP 022000Z 18006KT CAVOK 35/12 Q1012;
0072832880999992012100221004-13267-043417FM-15+0443SBLP V0201801N003119999999Y0099001N1+03301+01301999999ADDMA1101291999999REMMET045METAR SBLP 022100Z 18006KT CAVOK 33/13 Q1013;
0072832880999992012100310004-13267-043417FM-15+0443SBLP V0209999C000019999999Y0099001N1+02401+01301999999ADDMA1101801999999REMMET045METAR SBLP 031000Z 00000KT CAVOK 24/13 Q1018;
0072832880999992012100311004-13267-043417FM-15+0443SBLP V0209999C000019999999Y0099001N1+02701+01201999999ADDMA1101691999999REMMET045METAR SBLP 031100Z 00000KT CAVOK 27/12 Q1017;
0072832880999992012100312004-13267-043417FM-15+0443SBLP V0209999C000019999999Y0099001N1+02901+01201999999ADDMA1101901999999REMMET045METAR SBLP 031200Z 00000KT CAVOK 29/12 Q1019;
0072832880999992012100313004-13267-043417FM-15+0443SBLP V0209999C000019999999Y0099001N1+03101+01101999999ADDMA1101901999999REMMET045METAR SBLP 031300Z 00000KT CAVOK 31/11 Q1019;
0072832880999992012100314004-13267-043417FM-15+0443SBLP V0209999C000019999999Y0099001N1+03301+01101999999ADDMA1101801999999REMMET045METAR SBLP 031400Z 00000KT CAVOK 33/11 Q1018;
0072832880999992012100315004-13267-043417FM-15+0443SBLP V0209999C000019999999Y0099001N1+03301+01101999999ADDMA1101801999999REMMET045METAR SBLP 031500Z 00000KT CAVOK 33/11 Q1018;
0107832880999992012100316004-13267-043417FM-15+0443SBLP V0201501N004119999999Y0099001N1+03601+01001999999ADDMA1999999999999REMMET045METAR SBLP 031600Z 15008KT CAVOK 36/10 Q1029;EQDQ01+102913APOA  Q02 102903APOA  
0072832880999992012100317004-13267-043417FM-15+0443SBLP V0201201N003119999999Y0099001N1+03701+01001999999ADDMA1101391999999REMMET045METAR SBLP 031700Z 12006KT CAVOK 37/10 Q1014;
0072832880999992012100318004-13267-043417FM-15+0443SBLP V0201801N003119999999Y0099001N1+03801+00901999999ADDMA1101291999999REMMET045METAR SBLP 031800Z 18006KT CAVOK 38/09 Q1013;
0072832880999992012100319004-13267-043417FM-15+0443SBLP V0201201N003119999999Y0099001N1+03701+01001999999ADDMA1101291999999REMMET045METAR SBLP 031900Z 12006KT CAVOK 37/10 Q1013;
0072832880999992012100320004-13267-043417FM-15+0443SBLP V0201201N003119999999Y0099001N1+03701+01101999999ADDMA1101291999999REMMET045METAR SBLP 032000Z 12006KT CAVOK 37/11 Q1013;
0072832880999992012100321004-13267-043417FM-15+0443SBLP V0201201N003119999999Y0099001N1+03601+01201999999ADDMA1101291999999REMMET045METAR SBLP 032100Z 12006KT CAVOK 36/12 Q1013;
0072832880999992012100410004-13267-043417FM-15+0443SBLP V0209999C000019999999Y0099001N1+02301+01201999999ADDMA1101801999999REMMET045METAR SBLP 041000Z 00000KT CAVOK 23/12 Q1018;
0072832880999992012100411004-13267-043417FM-15+0443SBLP V0201201N003119999999Y0099001N1+02701+01801999999ADDMA1101901999999REMMET045METAR SBLP 041100Z 12006KT CAVOK 27/18 Q1019;
0072832880999992012100412004-13267-043417FM-15+0443SBLP V0200601N003119999999Y0099001N1+02901+01701999999ADDMA1101901999999REMMET045METAR SBLP 041200Z 06006KT CAVOK 29/17 Q1019;
0072832880999992012100413004-13267-043417FM-15+0443SBLP V0209999C000019999999Y0099001N1+03201+01601999999ADDMA1101801999999REMMET045METAR SBLP 041300Z 00000KT CAVOK 32/16 Q1018;
0072832880999992012100414004-13267-043417FM-15+0443SBLP V0209999C000019999999Y0099001N1+03301+01501999999ADDMA1101691999999REMMET045METAR SBLP 041400Z 00000KT CAVOK 33/15 Q1017;
0072832880999992012100415004-13267-043417FM-15+0443SBLP V0201801N003119999999Y0099001N1+03501+01401999999ADDMA1101591999999REMMET045METAR SBLP 041500Z 18006KT CAVOK 35/14 Q1016;
0072832880999992012100416004-13267-043417FM-15+0443SBLP V0209999C000019999999Y0099001N1+03601+01401999999ADDMA1101391999999REMMET045METAR SBLP 041600Z 00000KT CAVOK 36/14 Q1014;
0072832880999992012100417004-13267-043417FM-15+0443SBLP V0201801N003119999999Y0099001N1+03701+01301999999ADDMA1101291999999REMMET045METAR SBLP 041700Z 18006KT CAVOK 37/13 Q1013;
0072832880999992012100418004-13267-043417FM-15+0443SBLP V0201801N003119999999Y0099001N1+03801+01301999999ADDMA1101191999999REMMET045METAR SBLP 041800Z 18006KT CAVOK 38/13 Q1012;
0072832880999992012100419004-13267-043417FM-15+0443SBLP V0201801N003119999999Y0099001N1+03601+01401999999ADDMA1101191999999REMMET045METAR SBLP 041900Z 18006KT CAVOK 36/14 Q1012;
0072832880999992012100420004-13267-043417FM-15+0443SBLP V0201801N003119999999Y0099001N1+03501+01401999999ADDMA1101191999999REMMET045METAR SBLP 042000Z 18006KT CAVOK 35/14 Q1012;
0072832880999992012100421004-13267-043417FM-15+0443SBLP V0201801N003119999999Y0099001N1+03401+01501999999ADDMA1101191999999REMMET045METAR SBLP 042100Z 18006KT CAVOK 34/15 Q1012;
0072832880999992012100510004-13267-043417FM-15+0443SBLP V0209999C000019999999Y0099001N1+02401+01501999999ADDMA1101591999999REMMET045METAR SBLP 051000Z 00000KT CAVOK 24/15 Q1016;
0072832880999992012100511004-13267-043417FM-15+0443SBLP V0209999C000019999999Y0099001N1+02701+01501999999ADDMA1101691999999REMMET045METAR SBLP 051100Z 00000KT CAVOK 27/15 Q1017;
0072832880999992012100512004-13267-043417FM-15+0443SBLP V0209999C000019999999Y0099001N1+02901+01401999999ADDMA1101691999999REMMET045METAR SBLP 051200Z 00000KT CAVOK 29/14 Q1017;
0072832880999992012100513004-13267-043417FM-15+0443SBLP V0209999C000019999999Y0099001N1+03101+01301999999ADDMA1101691999999REMMET045METAR SBLP 051300Z 00000KT CAVOK 31/13 Q1017;
0072832880999992012100514004-13267-043417FM-15+0443SBLP V0209999C000019999999Y0099001N1+03301+01201999999ADDMA1101491999999REMMET045METAR SBLP 051400Z 00000KT CAVOK 33/12 Q1015;
0072832880999992012100515004-13267-043417FM-15+0443SBLP V0201801N003119999999Y0099001N1+03401+01201999999ADDMA1101391999999REMMET045METAR SBLP 051500Z 18006KT CAVOK 34/12 Q1014;
0120832880999992012100516004-13267-043417FM-15+0443SBLP V0201801N005112200019N0112651N1+03601+01201999999ADDGA1021+009001999GF102991999999999999999999MA1101191999999REMMET051METAR SBLP 051600Z 18010KT 9999 FEW030 36/12 Q1012;
0120832880999992012100517004-13267-043417FM-15+0443SBLP V0201201N003112200019N0112651N1+03601+01001999999ADDGA1021+009001999GF102991999999999999999999MA1101081999999REMMET051METAR SBLP 051700Z 12006KT 9999 FEW030 36/10 Q1011;
0120832880999992012100518004-13267-043417FM-15+0443SBLP V0201201N005112200019N0112651N1+03701+00901999999ADDGA1021+009001999GF102991999999999999999999MA1101081999999REMMET051METAR SBLP 051800Z 12010KT 9999 FEW030 37/09 Q1011;
0072832880999992012100519004-13267-043417FM-15+0443SBLP V0201301N003119999999Y0099001N1+03601+00801999999ADDMA1101021999999REMMET045METAR SBLP 051900Z 13006KT CAVOK 36/08 Q1010;
0072832880999992012100520004-13267-043417FM-15+0443SBLP V0201201N003119999999Y0099001N1+03501+01101999999ADDMA1101081999999REMMET045METAR SBLP 052000Z 12006KT CAVOK 35/11 Q1011;
0072832880999992012100521004-13267-043417FM-15+0443SBLP V0201201N004119999999Y0099001N1+03401+01201999999ADDMA1101081999999REMMET045METAR SBLP 052100Z 12008KT CAVOK 34/12 Q1011;
0072832880999992012100810004-13267-043417FM-15+0443SBLP V0201501N004119999999Y0099001N1+02201+01601999999ADDMA1101801999999REMMET045METAR SBLP 081000Z 15008KT CAVOK 22/16 Q1018;
0072832880999992012100811004-13267-043417FM-15+0443SBLP V0201201N003119999999Y0099001N1+02601+01501999999ADDMA1101901999999REMMET045METAR SBLP 081100Z 12006KT CAVOK 26/15 Q1019;
0072832880999992012100812004-13267-043417FM-15+0443SBLP V0201301N004119999999Y0099001N1+02901+01501999999ADDMA1101901999999REMMET045METAR SBLP 081200Z 13008KT CAVOK 29/15 Q1019;
0072832880999992012100813004-13267-043417FM-15+0443SBLP V0201201N006219999999Y0099001N1+03001+01501999999ADDMA1101901999999REMMET045METAR SBLP 081300Z 12012KT CAVOK 30/15 Q1019;
0120832880999992012100814004-13267-043417FM-15+0443SBLP V0200601N004612200019N0112651N1+03201+01401999999ADDGA1021+009001999GF102991999999999999999999MA1101801999999REMMET051METAR SBLP 081400Z 06009KT 9999 FEW030 32/14 Q1018;
0120832880999992012100815004-13267-043417FM-15+0443SBLP V0201501N002112200019N0112651N1+03301+01501999999ADDGA1021+009001999GF102991999999999999999999MA1101691999999REMMET051METAR SBLP 081500Z 15004KT 9999 FEW030 33/15 Q1017;
0120832880999992012100816004-13267-043417FM-15+0443SBLP V0201801N003112200019N0112651N1+03401+01301999999ADDGA1021+009001999GF102991999999999999999999MA1101491999999REMMET051METAR SBLP 081600Z 18006KT 9999 FEW030 34/13 Q1015;
0120832880999992012100817004-13267-043417FM-15+0443SBLP V0201801N003112200019N0112651N1+03501+01301999999ADDGA1041+009001999GF104991999999999999999999MA1101391999999REMMET051METAR SBLP 081700Z 18006KT 9999 SCT030 35/13 Q1014;
0120832880999992012100818004-13267-043417FM-15+0443SBLP V0201801N003112200019N0112651N1+03701+01101999999ADDGA1041+009001999GF104991999999999999999999MA1101291999999REMMET051METAR SBLP 081800Z 18006KT 9999 SCT030 37/11 Q1013;
0120832880999992012100819004-13267-043417FM-15+0443SBLP V0201801N003112200019N0112651N1+03601+01101999999ADDGA1041+009001999GF104991999999999999999999MA1101191999999REMMET051METAR SBLP 081900Z 18006KT 9999 SCT030 36/11 Q1012;
0120832880999992012100820004-13267-043417FM-15+0443SBLP V0201801N003112200019N0112651N1+03501+01201999999ADDGA1021+009001999GF102991999999999999999999MA1101191999999REMMET051METAR SBLP 082000Z 18006KT 9999 FEW030 35/12 Q1012;
0120832880999992012100821004-13267-043417FM-15+0443SBLP V0201801N003112200019N0112651N1+03201+01301999999ADDGA1021+009001999GF102991999999999999999999MA1101291999999REMMET051METAR SBLP 082100Z 18006KT 9999 FEW030 32/13 Q1013;
0072832880999992012100910004-13267-043417FM-15+0443SBLP V0209999C000019999999Y0099001N1+02401+01601999999ADDMA1101701999999REMMET045METAR SBLP 091000Z OOOOOKT CAVOK 24/16 Q1017;
0072832880999992012100911004-13267-043417FM-15+0443SBLP V0209999C000019999999Y0099001N1+02601+01401999999ADDMA1101801999999REMMET045METAR SBLP 091100Z OOOOOKT CAVOK 26/14 Q1018;
0072832880999992012100913004-13267-043417FM-15+0443SBLP V0201801N003119999999Y0099001N1+03101+01201999999ADDMA1101591999999REMMET045METAR SBLP 091300Z 18006KT CAVOK 31/12 Q1016;
0072832880999992012100915004-13267-043417FM-15+0443SBLP V0201801N003119999999Y0099001N1+03401+01001999999ADDMA1101391999999REMMET045METAR SBLP 091500Z 18006KT CAVOK 34/10 Q1014;
0072832880999992012100916004-13267-043417FM-15+0443SBLP V0201801N005119999999Y0099001N1+03401+01101999999ADDMA1101291999999REMMET045METAR SBLP 091600Z 18010KT CAVOK 34/11 Q1013;
0143832880999992012100917004-13267-043417FM-15+0443SBLP V0202101N004612200019N0112651N1+03901+01101999999ADDGA1021+009001999GA2041+030001999GF104991999999999999999999MA1101191999999REMMET058METAR SBLP 091700Z 21009KT 9999 FEW030 SCT100 39/11 Q1012;
0143832880999992012100918004-13267-043417FM-15+0443SBLP V0201501N005112200019N0112651N1+03401+01201999999ADDGA1021+009001999GA2041+030001999GF104991999999999999999999MA1101081999999REMMET058METAR SBLP 091800Z 15010KT 9999 FEW030 SCT100 34/12 Q1011;
0143832880999992012100919004-13267-043417FM-15+0443SBLP V0201801N005110300019N0112651N1+03301+01301999999ADDGA1041+009001999GA2071+030001999GF107991999999999999999999MA1101081999999REMMET058METAR SBLP 091900Z 18010KT 9999 SCT030 BKN100 33/13 Q1011;
0143832880999992012100920004-13267-043417FM-15+0443SBLP V0201801N004110300019N0112651N1+03201+01501999999ADDGA1021+009001999GA2071+030001999GF107991999999999999999999MA1101191999999REMMET058METAR SBLP 092000Z 18008KT 9999 FEW030 BKN100 32/15 Q1012;
0143832880999992012100921004-13267-043417FM-15+0443SBLP V0201801N003110300019N0112651N1+03001+01401999999ADDGA1021+009001999GA2071+030001999GF107991999999999999999999MA1101191999999REMMET058METAR SBLP 092100Z 18006KT 9999 FEW030 BKN100 30/14 Q1012;
0072832880999992012101010004-13267-043417FM-15+0443SBLP V0201001N003119999999Y0099001N1+02601+01501999999ADDMA1101591999999REMMET045METAR SBLP 101000Z 10006KT CAVOK 26/15 Q1016;
0072832880999992012101011004-13267-043417FM-15+0443SBLP V0200601N003119999999Y0099001N1+02701+01601999999ADDMA1101591999999REMMET045METAR SBLP 101100Z 06006KT CAVOK 27/16 Q1016;
0120832880999992012101012004-13267-043417FM-15+0443SBLP V0200401N003112200019N0112651N1+02801+01801999999ADDGA1041+009001999GF104991999999999999999999MA1101591999999REMMET051METAR SBLP 101200Z 04006KT 9999 SCT030 28/18 Q1016;
0072832880999992012101013004-13267-043417FM-15+0443SBLP V0200601N003119999999Y0099001N1+03101+01601999999ADDMA1101491999999REMMET045METAR SBLP 101300Z 06006KT CAVOK 31/16 Q1015;
0120832880999992012101014004-13267-043417FM-15+0443SBLP V0201501N002112200019N0112651N1+03201+01601999999ADDGA1021+009001999GF102991999999999999999999MA1101391999999REMMET051METAR SBLP 101400Z 15004KT 9999 FEW030 32/16 Q1014;
0120832880999992012101015004-13267-043417FM-15+0443SBLP V0201501N002112200019N0112651N1+03301+01501999999ADDGA1041+009001999GF104991999999999999999999MA1101291999999REMMET051METAR SBLP 101500Z 15004KT 9999 SCT030 33/15 Q1013;
0120832880999992012101016004-13267-043417FM-15+0443SBLP V0203601N003112200019N0112651N1+03401+01501999999ADDGA1041+009001999GF104991999999999999999999MA1101081999999REMMET051METAR SBLP 101600Z 36006KT 9999 SCT030 34/15 Q1011;
0120832880999992012101017004-13267-043417FM-15+0443SBLP V0203601N003112200019N0112651N1+03601+01401999999ADDGA1041+009001999GF104991999999999999999999MA1101021999999REMMET051METAR SBLP 101700Z 36006KT 9999 SCT030 36/14 Q1010;
0120832880999992012101018004-13267-043417FM-15+0443SBLP V0203601N003112200019N0112651N1+03701+01301999999ADDGA1041+009001999GF104991999999999999999999MA1100911999999REMMET051METAR SBLP 101800Z 36006KT 9999 SCT030 37/13 Q1009;
0120832880999992012101019004-13267-043417FM-15+0443SBLP V0203601N003110090019N0112651N1+03501+01401999999ADDGA1071+009001999GF107991999999999999999999MA1100911999999REMMET051METAR SBLP 101900Z 36006KT 9999 BKN030 35/14 Q1009;
0143832880999992012101020004-13267-043417FM-15+0443SBLP V0203601N003112200019N0112651N1+03301+01501999999ADDGA1041+009001999GA2041+030001999GF104991999999999999999999MA1101021999999REMMET058METAR SBLP 102000Z 36006KT 9999 SCT030 SCT100 33/15 Q1010;
0143832880999992012101021004-13267-043417FM-15+0443SBLP V0203601N003110300019N0112651N1+03101+01601999999ADDGA1021+009001999GA2071+030001999GF107991999999999999999999MA1101021999999REMMET058METAR SBLP 102100Z 36006KT 9999 FEW030 BKN100 31/16 Q1010;
0072832880999992012101110004-13267-043417FM-15+0443SBLP V0209999C000019999999Y0099001N1+02401+01501999999ADDMA1101491999999REMMET045METAR SBLP 111000Z 00000KT CAVOK 24/15 Q1015;
0072832880999992012101111004-13267-043417FM-15+0443SBLP V0209999C000019999999Y0099001N1+02701+01501999999ADDMA1101591999999REMMET045METAR SBLP 111100Z 00000KT CAVOK 27/15 Q1016;
0072832880999992012101112004-13267-043417FM-15+0443SBLP V0209999C000019999999Y0099001N1+02901+01501999999ADDMA1101591999999REMMET045METAR SBLP 111200Z 00000KT CAVOK 29/15 Q1016;
0072832880999992012101113004-13267-043417FM-15+0443SBLP V0209999C000019999999Y0099001N1+03101+01501999999ADDMA1101591999999REMMET045METAR SBLP 111300Z 00000KT CAVOK 31/15 Q1016;
0120832880999992012101114004-13267-043417FM-15+0443SBLP V0209999C000012200019N0112651N1+03301+01401999999ADDGA1021+009001999GF102991999999999999999999MA1101491999999REMMET051METAR SBLP 111400Z 00000KT 9999 FEW030 33/14 Q1015;
0120832880999992012101115004-13267-043417FM-15+0443SBLP V0203601N003112200019N0112651N1+03501+01401999999ADDGA1021+009001999GF102991999999999999999999MA1101391999999REMMET051METAR SBLP 111500Z 36006KT 9999 FEW030 35/14 Q1014;
0120832880999992012101116004-13267-043417FM-15+0443SBLP V0203301N002112200019N0112651N1+03601+01501999999ADDGA1041+009001999GF104991999999999999999999MA1101191999999REMMET051METAR SBLP 111600Z 33004KT 9999 SCT030 36/15 Q1012;
0120832880999992012101117004-13267-043417FM-15+0443SBLP V0202701N003112200019N0112651N1+03601+01501999999ADDGA1041+009001999GF104991999999999999999999MA1101081999999REMMET051METAR SBLP 111700Z 27006KT 9999 SCT030 36/15 Q1011;
0120832880999992012101118004-13267-043417FM-15+0443SBLP V0203201N002112200019N0112651N1+03601+01401999999ADDGA1041+009001999GF104991999999999999999999MA1101081999999REMMET051METAR SBLP 111800Z 32004KT 9999 SCT030 36/14 Q1011;
0143832880999992012101119004-13267-043417FM-15+0443SBLP V0202101N002110300019N0112651N1+03601+01501999999ADDGA1041+009001999GA2071+030001999GF107991999999999999999999MA1101021999999REMMET058METAR SBLP 111900Z 21004KT 9999 SCT030 BKN100 36/15 Q1010;
0143832880999992012101120004-13267-043417FM-15+0443SBLP V0201801N003112200019N0112651N1+03501+01601999999ADDGA1041+009001999GA2041+030001999GF104991999999999999999999MA1101081999999REMMET058METAR SBLP 112000Z 18006KT 9999 SCT030 SCT100 35/16 Q1011;
0143832880999992012101121004-13267-043417FM-15+0443SBLP V0201501N002110300019N0112651N1+03301+01401999999ADDGA1021+009001999GA2071+030001999GF107991999999999999999999MA1101191999999REMMET058METAR SBLP 112100Z 15004KT 9999 FEW030 BKN100 33/14 Q1012;
0072832880999992012101510004-13267-043417FM-15+0443SBLP V0209999C000019999999Y0099001N1+02401+01501999999ADDMA1101491999999REMMET045METAR SBLP 151000Z 00000KT CAVOK 24/15 Q1015;
0072832880999992012101511004-13267-043417FM-15+0443SBLP V0209999C000019999999Y0099001N1+02701+01501999999ADDMA1101491999999REMMET045METAR SBLP 151100Z 00000KT CAVOK 27/15 Q1015;
0072832880999992012101512004-13267-043417FM-15+0443SBLP V0209999C000019999999Y0099001N1+02901+01401999999ADDMA1101491999999REMMET045METAR SBLP 151200Z 00000KT CAVOK 29/14 Q1015;
0072832880999992012101514004-13267-043417FM-15+0443SBLP V0209999C000019999999Y0099001N1+03301+01401999999ADDMA1101391999999REMMET045METAR SBLP 151400Z 00000KT CAVOK 33/14 Q1014;
0120832880999992012101516004-13267-043417FM-15+0443SBLP V0209999C000012200019N0112651N1+03401+01601999999ADDGA1021+009001999GF102991999999999999999999MA1101081999999REMMET051METAR SBLP 151600Z 00000KT 9999 FEW030 34/16 Q1011;
0120832880999992012101517004-13267-043417FM-15+0443SBLP V0201801N004112200019N0112651N1+03501+01601999999ADDGA1041+009001999GF104991999999999999999999MA1101021999999REMMET051METAR SBLP 151700Z 18008KT 9999 SCT030 35/16 Q1010;
0155832880999992012101518004-13267-043417FM-15+0443SBLP V0201501N003112200019N0112651N1+03501+01601999999ADDGA1041+009001999GF104991999999999999999999MA1999999999999REMMET051METAR SBLP 151800Z 15006KT 9999 SCT030 35/16 Q1038;EQDQ01+103793APOA  Q02 103803APOA  
0120832880999992012101519004-13267-043417FM-15+0443SBLP V0201201N003112200019N0112651N1+03401+01701999999ADDGA1041+009001999GF104991999999999999999999MA1101021999999REMMET051METAR SBLP 151900Z 12006KT 9999 SCT030 34/17 Q1010;
0120832880999992012101520004-13267-043417FM-15+0443SBLP V0201501N005112200019N0112651N1+03301+01701999999ADDGA1041+009001999GF104991999999999999999999MA1101021999999REMMET051METAR SBLP 152000Z 15010KT 9999 SCT030 33/17 Q1010;
0120832880999992012101521004-13267-043417FM-15+0443SBLP V0201801N003112200019N0112651N1+03101+01801999999ADDGA1041+009001999GF104991999999999999999999MA1101081999999REMMET051METAR SBLP 152100Z 18006KT 9999 SCT030 31/18 Q1011;
0143832880999992012101610004-13267-043417FM-15+0443SBLP V0209999C000010300019N0112651N1+02401+02001999999ADDGA1041+006001999GA2071+030001999GF107991999999999999999999MA1101591999999REMMET058METAR SBLP 161000Z 00000KT 9999 SCT020 BKN100 24/20 Q1016;
0143832880999992012101611004-13267-043417FM-15+0443SBLP V0209999C000012200019N0112651N1+02401+02101999999ADDGA1021+006001999GA2041+030001999GF104991999999999999999999MA1101591999999REMMET058METAR SBLP 161100Z 00000KT 9999 FEW020 SCT100 24/21 Q1016;
0143832880999992012101612004-13267-043417FM-15+0443SBLP V0209999C000012200019N0112651N1+02801+02001999999ADDGA1021+006001999GA2041+030001999GF104991999999999999999999MA1101591999999REMMET058METAR SBLP 161200Z 00000KT 9999 FEW020 SCT100 28/20 Q1016;
0143832880999992012101613004-13267-043417FM-15+0443SBLP V0209999C000012200019N0112651N1+03101+01901999999ADDGA1021+009001999GA2041+030001999GF104991999999999999999999MA1101591999999REMMET058METAR SBLP 161300Z 00000KT 9999 FEW030 SCT100 31/19 Q1016;
0143832880999992012101614004-13267-043417FM-15+0443SBLP V0200901N004112200019N0112651N1+03201+01801999999ADDGA1021+009001999GA2041+030001999GF104991999999999999999999MA1101491999999REMMET058METAR SBLP 161400Z 09008KT 9999 FEW030 SCT100 32/18 Q1015;
0143832880999992012101615004-13267-043417FM-15+0443SBLP V0200301N003112200019N0112651N1+03201+01901999999ADDGA1021+009001999GA2041+030001999GF104991999999999999999999MA1101291999999REMMET058METAR SBLP 161500Z 03006KT 9999 FEW030 SCT100 32/19 Q1013;
0120832880999992012101616004-13267-043417FM-15+0443SBLP V0200901N003112200019N0112651N1+03501+01701999999ADDGA1041+009001999GF104991999999999999999999MA1101191999999REMMET051METAR SBLP 161600Z 09006KT 9999 SCT030 35/17 Q1012;
0120832880999992012101617004-13267-043417FM-15+0443SBLP V0200901N003112200019N0112651N1+03601+01601999999ADDGA1041+009001999GF104991999999999999999999MA1101081999999REMMET051METAR SBLP 161700Z 09006KT 9999 SCT030 36/16 Q1011;
0120832880999992012101618004-13267-043417FM-15+0443SBLP V0200901N003110090019N0112651N1+03701+01501999999ADDGA1071+009001999GF107991999999999999999999MA1101021999999REMMET051METAR SBLP 161800Z 09006KT 9999 BKN030 37/15 Q1010;
0120832880999992012101619004-13267-043417FM-15+0443SBLP V0200901N003112200019N0112651N1+03601+01501999999ADDGA1041+009001999GF104991999999999999999999MA1101021999999REMMET051METAR SBLP 161900Z 09006KT 9999 SCT030 36/15 Q1010;
0120832880999992012101620004-13267-043417FM-15+0443SBLP V0209999C000012200019N0112651N1+03501+01601999999ADDGA1041+009001999GF104991999999999999999999MA1101021999999REMMET051METAR SBLP 162000Z 00000KT 9999 SCT030 35/16 Q1010;
0120832880999992012101621004-13267-043417FM-15+0443SBLP V0209999C000012200019N0112651N1+03301+01701999999ADDGA1041+009001999GF104991999999999999999999MA1101081999999REMMET051METAR SBLP 162100Z 00000KT 9999 SCT030 33/17 Q1011;
0072832880999992012101710004-13267-043417FM-15+0443SBLP V0209999C000019999999Y0099001N1+02501+01401999999ADDMA1101491999999REMMET045METAR SBLP 171000Z 00000KT CAVOK 25/14 Q1015;
0072832880999992012101711004-13267-043417FM-15+0443SBLP V0209999C000019999999Y0099001N1+02801+01301999999ADDMA1101491999999REMMET045METAR SBLP 171100Z 00000KT CAVOK 28/13 Q1015;
0072832880999992012101712004-13267-043417FM-15+0443SBLP V0209999C000019999999Y0099001N1+03101+01301999999ADDMA1101491999999REMMET045METAR SBLP 171200Z 00000KT CAVOK 31/13 Q1015;
0072832880999992012101713004-13267-043417FM-15+0443SBLP V0209999C000019999999Y0099001N1+03301+01301999999ADDMA1101491999999REMMET045METAR SBLP 171300Z 00000KT CAVOK 33/13 Q1015;
0120832880999992012101714004-13267-043417FM-15+0443SBLP V0209999C000012200019N0112651N1+03501+01301999999ADDGA1021+009001999GF102991999999999999999999MA1101391999999REMMET051METAR SBLP 171400Z 00000KT 9999 FEW030 35/13 Q1014;
0120832880999992012101715004-13267-043417FM-15+0443SBLP V0200901N003112200019N0112651N1+03701+01201999999ADDGA1021+009001999GF102991999999999999999999MA1101291999999REMMET051METAR SBLP 171500Z 09006KT 9999 FEW030 37/12 Q1013;
0143832880999992012101716004-13267-043417FM-15+0443SBLP V0203601N003112200019N0112651N1+03701+01501999999ADDGA1021+009001999GA2041+030001999GF104991999999999999999999MA1101191999999REMMET058METAR SBLP 171600Z 36006KT 9999 FEW030 SCT100 37/15 Q1012;
0143832880999992012101717004-13267-043417FM-15+0443SBLP V0209999C000010300019N0112651N1+03701+01601999999ADDGA1041+009001999GA2071+030001999GF107991999999999999999999MA1101081999999REMMET058METAR SBLP 171700Z 00000KT 9999 SCT030 BKN100 37/16 Q1011;
0143832880999992012101718004-13267-043417FM-15+0443SBLP V0203601N003110300019N0112651N1+03601+01701999999ADDGA1041+009001999GA2071+030001999GF107991999999999999999999MA1101081999999REMMET058METAR SBLP 171800Z 36006KT 9999 SCT030 BKN100 36/17 Q1011;
0143832880999992012101719004-13267-043417FM-15+0443SBLP V0209999C000010300019N0112651N1+03501+01801999999ADDGA1041+009001999GA2071+030001999GF107991999999999999999999MA1101021999999REMMET058METAR SBLP 171900Z 00000KT 9999 SCT030 BKN100 35/18 Q1010;
0143832880999992012101720004-13267-043417FM-15+0443SBLP V0209999C000010300019N0112651N1+03401+02001999999ADDGA1041+009001999GA2071+030001999GF107991999999999999999999MA1101021999999REMMET058METAR SBLP 172000Z 00000KT 9999 SCT030 BKN100 34/20 Q1010;
0143832880999992012101721004-13267-043417FM-15+0443SBLP V0209999C000010300019N0112651N1+03401+02001999999ADDGA1041+009001999GA2071+030001999GF107991999999999999999999MA1101021999999REMMET058METAR SBLP 172100Z 00000KT 9999 SCT030 BKN100 34/20 Q1010;
0143832880999992012101810004-13267-043417FM-15+0443SBLP V0209999C000010300019N0112651N1+02301+02101999999ADDGA1041+006001999GA2071+030001999GF107991999999999999999999MA1101591999999REMMET058METAR SBLP 181000Z 00000KT 9999 SCT020 BKN100 23/21 Q1016;
0143832880999992012101811004-13267-043417FM-15+0443SBLP V0201501N003110300019N0112651N1+02201+02001999999ADDGA1041+006001999GA2071+030001999GF107991999999999999999999MA1101691999999REMMET058METAR SBLP 181100Z 15006KT 9999 SCT020 BKN100 22/20 Q1017;
0143832880999992012101812004-13267-043417FM-15+0443SBLP V0201801N003110300019N0112651N1+02201+02101999999ADDGA1021+006001999GA2071+030001999GF107991999999999999999999MA1101801999999REMMET058METAR SBLP 181200Z 18006KT 9999 FEW020 BKN100 22/21 Q1018;
0143832880999992012101813004-13267-043417FM-15+0443SBLP V0209999C000010300019N0112651N1+02401+02101999999ADDGA1041+006001999GA2071+030001999GF107991999999999999999999MA1101801999999REMMET058METAR SBLP 181300Z 00000KT 9999 SCT020 BKN100 24/21 Q1018;
0153832880999992012101814004-13267-043417FM-15+0443SBLP V0201501N002110300019N0112651N1+02301+02001999999ADDGA1041+006001999GA2071+030001999GF107991999999999999999999MA1101801999999MW1611REMMET062METAR SBLP 181400Z 15004KT 9999 -RA SCT020 BKN100 23/20 Q1018;
0153832880999992012101815004-13267-043417FM-15+0443SBLP V0201801N003110300019N0090001N1+02301+02101999999ADDGA1041+006001999GA2071+030001999GF107991999999999999999999MA1101691999999MW1611REMMET062METAR SBLP 181500Z 18006KT 9000 -RA SCT020 BKN100 23/21 Q1017;
0143832880999992012101816004-13267-043417FM-15+0443SBLP V0201801N003110300019N0112651N1+02301+02101999999ADDGA1041+006001999GA2071+030001999GF107991999999999999999999MA1101591999999REMMET058METAR SBLP 181600Z 18006KT 9999 SCT020 BKN100 23/21 Q1016;
0143832880999992012101817004-13267-043417FM-15+0443SBLP V0201801N003110300019N0112651N1+02301+02101999999ADDGA1041+006001999GA2071+030001999GF107991999999999999999999MA1101491999999REMMET058METAR SBLP 181700Z 18006KT 9999 SCT020 BKN100 23/21 Q1015;
0143832880999992012101818004-13267-043417FM-15+0443SBLP V0209999C000010300019N0112651N1+02401+02101999999ADDGA1041+006001999GA2071+030001999GF107991999999999999999999MA1101491999999REMMET058METAR SBLP 181800Z 00000KT 9999 SCT020 BKN100 24/21 Q1015;
0143832880999992012101819004-13267-043417FM-15+0443SBLP V0209999C000010300019N0112651N1+02401+02101999999ADDGA1041+006001999GA2071+030001999GF107991999999999999999999MA1101491999999REMMET058METAR SBLP 181900Z 00000KT 9999 SCT020 BKN100 24/21 Q1015;
0153832880999992012101820004-13267-043417FM-15+0443SBLP V0209999C000010300019N0090001N1+02401+02101999999ADDGA1041+006001999GA2071+030001999GF107991999999999999999999MA1101391999999MW1611REMMET062METAR SBLP 182000Z 00000KT 9000 -RA SCT020 BKN100 24/21 Q1014;
0143832880999992012101821004-13267-043417FM-15+0443SBLP V0209999C000010300019N0112651N1+02301+02101999999ADDGA1041+006001999GA2071+030001999GF107991999999999999999999MA1101491999999REMMET058METAR SBLP 182100Z 00000KT 9999 SCT020 BKN100 23/21 Q1015;
0143832880999992012101910004-13267-043417FM-15+0443SBLP V0209999C000012200019N0112651N1+02301+02101999999ADDGA1021+006001999GA2041+030001999GF104991999999999999999999MA1101491999999REMMET058METAR SBLP 191000Z 00000KT 9999 FEW020 SCT100 23/21 Q1015;
0072832880999992012101911004-13267-043417FM-15+0443SBLP V0209999C000019999999Y0099001N1+02501+02001999999ADDMA1101491999999REMMET045METAR SBLP 191100Z 00000KT CAVOK 25/20 Q1015;
0072832880999992012101912004-13267-043417FM-15+0443SBLP V0209999C000019999999Y0099001N1+02801+02001999999ADDMA1101491999999REMMET045METAR SBLP 191200Z 00000KT CAVOK 28/20 Q1015;
0072832880999992012101913004-13267-043417FM-15+0443SBLP V0209999C000019999999Y0099001N1+03101+01901999999ADDMA1101491999999REMMET045METAR SBLP 191300Z 00000KT CAVOK 31/19 Q1015;
0072832880999992012101914004-13267-043417FM-15+0443SBLP V0209999C000019999999Y0099001N1+03301+01701999999ADDMA1101391999999REMMET045METAR SBLP 191400Z 00000KT CAVOK 33/17 Q1014;
0120832880999992012101915004-13267-043417FM-15+0443SBLP V0200901N003112200019N0112651N1+03501+01601999999ADDGA1021+009001999GF102991999999999999999999MA1101291999999REMMET051METAR SBLP 191500Z 09006KT 9999 FEW030 35/16 Q1013;
0120832880999992012101916004-13267-043417FM-15+0443SBLP V0202401N003112200019N0112651N1+03501+01701999999ADDGA1041+009001999GF104991999999999999999999MA1101081999999REMMET051METAR SBLP 191600Z 24006KT 9999 SCT030 35/17 Q1011;
0120832880999992012101917004-13267-043417FM-15+0443SBLP V0202701N003112200019N0112651N1+03601+01701999999ADDGA1041+009001999GF104991999999999999999999MA1101021999999REMMET051METAR SBLP 191700Z 27006KT 9999 SCT030 36/17 Q1010;
0120832880999992012101918004-13267-043417FM-15+0443SBLP V0202701N003112200019N0112651N1+03801+01501999999ADDGA1041+009001999GF104991999999999999999999MA1100911999999REMMET051METAR SBLP 191800Z 27006KT 9999 SCT030 38/15 Q1009;
0120832880999992012101919004-13267-043417FM-15+0443SBLP V0202701N003112200019N0112651N1+03801+01601999999ADDGA1041+009001999GF104991999999999999999999MA1100911999999REMMET051METAR SBLP 191900Z 27006KT 9999 SCT030 38/16 Q1009;
0120832880999992012101920004-13267-043417FM-15+0443SBLP V0202701N003112200019N0112651N1+03701+01701999999ADDGA1041+009001999GF104991999999999999999999MA1100911999999REMMET051METAR SBLP 192000Z 27006KT 9999 SCT030 37/17 Q1009;
0120832880999992012101921004-13267-043417FM-15+0443SBLP V0209999C000012200019N0112651N1+03501+01801999999ADDGA1041+009001999GF104991999999999999999999MA1100911999999REMMET051METAR SBLP 192100Z 00000KT 9999 SCT030 35/18 Q1009;
0120832880999992012102218004-13267-043417FM-15+0443SBLP V0203601N003112200019N0112651N1+03901+01201999999ADDGA1041+009001999GF104991999999999999999999MA1100611999999REMMET051METAR SBLP 221800Z 36006KT 9999 SCT030 39/12 Q1006;
0072832880999992012102310004-13267-043417FM-15+0443SBLP V0209999C000019999999Y0099001N1+02701+01401999999ADDMA1101191999999REMMET045METAR SBLP 231000Z 00000KT CAVOK 27/14 Q1012;
0120832880999992012102318004-13267-043417FM-15+0443SBLP V0202101N002112200019N0112651N1+04001+01301999999ADDGA1041+009001999GF104991999999999999999999MA1100711999999REMMET051METAR SBLP 231800Z 21004KT 9999 SCT030 40/13 Q1007;
0121832880999992012102421004-13267-043417FM-15+0443SBLP V0209999C000012200019N0112651N1+03801+01201999999ADDGA1041+009001999GF104991999999999999999999MA1100701999999REMMET052METAR SBLP 242100Z 00000KT6 9999 SCT030 38/12 Q1007;
0072832880999992012102510004-13267-043417FM-15+0443SBLP V0209999C000019999999Y0099001N1+02701+01501999999ADDMA1101191999999REMMET045METAR SBLP 251000Z 00000KT CAVOK 27/15 Q1012;
0072832880999992012102512004-13267-043417FM-15+0443SBLP V0209999C000019999999Y0099001N1+03301+01301999999ADDMA1101291999999REMMET045METAR SBLP 251200Z 00000KT CAVOK 33/13 Q1013;
0072832880999992012102519004-13267-043417FM-15+0443SBLP V0201201N004119999999Y0099001N1+04001+01201999999ADDMA1100811999999REMMET045METAR SBLP 251900Z 12008KT CAVOK 40/12 Q1008;
0072832880999992012102521004-13267-043417FM-15+0443SBLP V0200901N005119999999Y0099001N1+03601+01001999999ADDMA1100911999999REMMET045METAR SBLP 252100Z 09010KT CAVOK 36/10 Q1009;
0072832880999992012102613004-13267-043417FM-15+0443SBLP V0200701N005119999999Y0099001N1+03201+01401999999ADDMA1101491999999REMMET045METAR SBLP 261300Z 07010KT CAVOK 32/14 Q1015;
0072832880999992012102614004-13267-043417FM-15+0443SBLP V0200901N002119999999Y0099001N1+03401+01401999999ADDMA1101391999999REMMET045METAR SBLP 261400Z 09004KT CAVOK 34/14 Q1014;
0072832880999992012102617004-13267-043417FM-15+0443SBLP V0209999C000019999999Y0099001N1+03701+01301999999ADDMA1101021999999REMMET045METAR SBLP 261700Z 00000KT CAVOK 37/13 Q1010;
0072832880999992012102618004-13267-043417FM-15+0443SBLP V0200901N003119999999Y0099001N1+03801+01301999999ADDMA1101021999999REMMET045METAR SBLP 261800Z 09006KT CAVOK 38/13 Q1010;
0072832880999992012102911004-13267-043417FM-15+0443SBLP V0209999C000019999999Y0099001N1+03001+01201999999ADDMA1101491999999REMMET045METAR SBLP 291100Z 00000KT CAVOK 30/12 Q1015;
0072832880999992012102913004-13267-043417FM-15+0443SBLP V0209999C000019999999Y0099001N1+03501+01201999999ADDMA1101491999999REMMET045METAR SBLP 291300Z 00000KT CAVOK 35/12 Q1015;
0072832880999992012102915004-13267-043417FM-15+0443SBLP V0209999C000019999999Y0099001N1+03801+01001999999ADDMA1101291999999REMMET045METAR SBLP 291500Z 00000KT CAVOK 38/10 Q1013;
0120832880999992012102917004-13267-043417FM-15+0443SBLP V0200901N005112200019N0112651N1+04101+00701999999ADDGA1021+009001999GF102991999999999999999999MA1101021999999REMMET051METAR SBLP 291700Z 09010KT 9999 FEW030 41/07 Q1010;
0072832880999992012102919004-13267-043417FM-15+0443SBLP V0209999C000019999999Y0099001N1+04001+00701999999ADDMA1100911999999REMMET045METAR SBLP 291900Z 00000KT CAVOK 40/07 Q1009;
0120832880999992012103016004-13267-043417FM-15+0443SBLP V0202101N002112200019N0112651N1+03901+00801999999ADDGA1021+009001999GF102991999999999999999999MA1100911999999REMMET051METAR SBLP 301600Z 21004KT 9999 FEW030 39/08 Q1009;
0120832880999992012103019004-13267-043417FM-15+0443SBLP V0209999C000012200019N0112651N1+04001+00701999999ADDGA1041+009001999GF104991999999999999999999MA1100711999999REMMET051METAR SBLP 301900Z 00000KT 9999 SCT030 40/07 Q1007;
0120832880999992012103020004-13267-043417FM-15+0443SBLP V0209999C000012200019N0112651N1+03901+00901999999ADDGA1041+009001999GF104991999999999999999999MA1100811999999REMMET051METAR SBLP 302000Z 00000KT 9999 SCT030 39/09 Q1008;
0120832880999992012103021004-13267-043417FM-15+0443SBLP V0209999C000012200019N0112651N1+03801+00801999999ADDGA1041+009001999GF104991999999999999999999MA1100811999999REMMET051METAR SBLP 302100Z 00000KT 9999 SCT030 38/08 Q1008;
0143832880999992012103111004-13267-043417FM-15+0443SBLP V0209999C000012200019N0112651N1+02601+01701999999ADDGA1021+006001999GA2041+030001999GF104991999999999999999999MA1101191999999REMMET058METAR SBLP 311100Z 00000KT 9999 FEW020 SCT100 26/17 Q1012;
0143832880999992012103114004-13267-043417FM-15+0443SBLP V0209999C000012200019N0112651N1+03401+01301999999ADDGA1021+009001999GA2041+030001999GF104991999999999999999999MA1101191999999REMMET058METAR SBLP 311400Z 00000KT 9999 FEW030 SCT100 34/13 Q1012;
0143832880999992012103115004-13267-043417FM-15+0443SBLP V0203601N003112200019N0112651N1+03601+01201999999ADDGA1021+009001999GA2041+030001999GF104991999999999999999999MA1101081999999REMMET058METAR SBLP 311500Z 36006KT 9999 FEW030 SCT100 36/12 Q1011;
0120832880999992012103116004-13267-043417FM-15+0443SBLP V0203401N002112200019N0112651N1+03901+01301999999ADDGA1021+009001999GF102991999999999999999999MA1100911999999REMMET051METAR SBLP 311600Z 34004KT 9999 FEW030 39/13 Q1009;
0120832880999992012103117004-13267-043417FM-15+0443SBLP V0209999C000012200019N0112651N1+03901+01201999999ADDGA1021+009001999GF102991999999999999999999MA1100711999999REMMET051METAR SBLP 311700Z 00000KT 9999 FEW030 39/12 Q1007;
0120832880999992012103118004-13267-043417FM-15+0443SBLP V0209999C000012200019N0112651N1+04001+01001999999ADDGA1021+009001999GF102991999999999999999999MA1100611999999REMMET051METAR SBLP 311800Z 00000KT 9999 FEW030 40/10 Q1006;
0120832880999992012103119004-13267-043417FM-15+0443SBLP V0201801N002612200019N0112651N1+04001+01101999999ADDGA1021+009001999GF102991999999999999999999MA1100511999999REMMET051METAR SBLP 311900Z 18005KT 9999 FEW030 40/11 Q1005;
0072832880999992012103120004-13267-043417FM-15+0443SBLP V0202101N002119999999Y0099001N1+03901+01201999999ADDMA1100511999999REMMET045METAR SBLP 312000Z 21004KT CAVOK 39/12 Q1005;
0072832880999992012103121004-13267-043417FM-15+0443SBLP V0201801N003119999999Y0099001N1+03701+01401999999ADDMA1100511999999REMMET045METAR SBLP 312100Z 18006KT CAVOK 37/14 Q1005;
0072832880999992012110110004-13267-043417FM-15+0443SBLP V0209999C000019999999Y0099001N1+02801+02001999999ADDMA1101021999999REMMET045METAR SBLP 011000Z 00000KT CAVOK 28/20 Q1010;
0072832880999992012110111004-13267-043417FM-15+0443SBLP V0209999C000019999999Y0099001N1+03001+01901999999ADDMA1101081999999REMMET045METAR SBLP 011100Z 00000KT CAVOK 30/19 Q1011;
0072832880999992012110112004-13267-043417FM-15+0443SBLP V0201301N003119999999Y0099001N1+03301+01901999999ADDMA1101081999999REMMET045METAR SBLP 011200Z 13006KT CAVOK 33/19 Q1011;
0072832880999992012110113004-13267-043417FM-15+0443SBLP V0209999C000019999999Y0099001N1+03501+01801999999ADDMA1101021999999REMMET045METAR SBLP 011300Z 00000KT CAVOK 35/18 Q1010;
0072832880999992012110114004-13267-043417FM-15+0443SBLP V0209999C000019999999Y0099001N1+03701+01601999999ADDMA1100911999999REMMET045METAR SBLP 011400Z 00000KT CAVOK 37/16 Q1009;
0072832880999992012110115004-13267-043417FM-15+0443SBLP V0202701N003119999999Y0099001N1+03801+01701999999ADDMA1100811999999REMMET045METAR SBLP 011500Z 27006KT CAVOK 38/17 Q1008;
0120832880999992012110116004-13267-043417FM-15+0443SBLP V0203601N003112200019N0112651N1+03901+01601999999ADDGA1021+009001999GF102991999999999999999999MA1100711999999REMMET051METAR SBLP 011600Z 36006KT 9999 FEW030 39/16 Q1007;
0120832880999992012110117004-13267-043417FM-15+0443SBLP V0203601N003112200019N0112651N1+04001+01501999999ADDGA1021+009001999GF102991999999999999999999MA1100511999999REMMET051METAR SBLP 011700Z 36006KT 9999 FEW030 40/15 Q1005;
0120832880999992012110118004-13267-043417FM-15+0443SBLP V0203601N003112200019N0112651N1+04101+01401999999ADDGA1041+009001999GF104991999999999999999999MA1100411999999REMMET051METAR SBLP 011800Z 36006KT 9999 SCT030 41/14 Q1004;
0120832880999992012110119004-13267-043417FM-15+0443SBLP V0209999C000012200019N0112651N1+04001+01401999999ADDGA1041+009001999GF104991999999999999999999MA1100411999999REMMET051METAR SBLP 011900Z 00000KT 9999 SCT030 40/14 Q1004;
0120832880999992012110120004-13267-043417FM-15+0443SBLP V0209999C000012200019N0112651N1+03901+01401999999ADDGA1041+009001999GF104991999999999999999999MA1100411999999REMMET051METAR SBLP 012000Z 00000KT 9999 SCT030 39/14 Q1004;
0120832880999992012110121004-13267-043417FM-15+0443SBLP V0200901N006212200019N0112651N1+03601+01501999999ADDGA1041+009001999GF104991999999999999999999MA1100511999999REMMET051METAR SBLP 012100Z 09012KT 9999 SCT030 36/15 Q1005;
0143832880999992012110510004-13267-043417FM-15+0443SBLP V0209999C000010300019N0112651N1+02201+02101999999ADDGA1041+003001999GA2071+030001999GF107991999999999999999999MA1101291999999REMMET058METAR SBLP 051000Z 00000KT 9999 SCT010 BKN100 22/21 Q1013;
0143832880999992012110511004-13267-043417FM-15+0443SBLP V0209999C000010300019N0112651N1+02201+02101999999ADDGA1041+004501999GA2071+030001999GF107991999999999999999999MA1101391999999REMMET058METAR SBLP 051100Z 00000KT 9999 SCT015 BKN100 22/21 Q1014;
0143832880999992012110512004-13267-043417FM-15+0443SBLP V0209999C000010300019N0112651N1+02301+02101999999ADDGA1041+004501999GA2071+030001999GF107991999999999999999999MA1101491999999REMMET058METAR SBLP 051200Z 00000KT 9999 SCT015 BKN100 23/21 Q1015;
0143832880999992012110513004-13267-043417FM-15+0443SBLP V0209999C000010300019N0112651N1+02501+02101999999ADDGA1041+006001999GA2071+030001999GF107991999999999999999999MA1101391999999REMMET058METAR SBLP 051300Z 00000KT 9999 SCT020 BKN100 25/21 Q1014;
0143832880999992012110514004-13267-043417FM-15+0443SBLP V0209999C000010300019N0112651N1+02601+02101999999ADDGA1021+006001999GA2071+030001999GF107991999999999999999999MA1101391999999REMMET058METAR SBLP 051400Z 00000KT 9999 FEW020 BKN100 26/21 Q1014;
0143832880999992012110515004-13267-043417FM-15+0443SBLP V0209999C000010300019N0112651N1+02701+02101999999ADDGA1021+009001999GA2071+030001999GF107991999999999999999999MA1101191999999REMMET058METAR SBLP 051500Z 00000KT 9999 FEW030 BKN100 27/21 Q1012;
0143832880999992012110516004-13267-043417FM-15+0443SBLP V0209999C000010300019N0112651N1+02901+02201999999ADDGA1021+008101999GA2071+030001999GF107991999999999999999999MA1101081999999REMMET058METAR SBLP 051600Z 00000KT 9999 FEW027 BKN100 29/22 Q1011;
0143832880999992012110517004-13267-043417FM-15+0443SBLP V0209999C000010300019N0112651N1+03001+02101999999ADDGA1021+009001999GA2071+030001999GF107991999999999999999999MA1101021999999REMMET058METAR SBLP 051700Z 00000KT 9999 FEW030 BKN100 30/21 Q1010;
0143832880999992012110518004-13267-043417FM-15+0443SBLP V0209999C000010300019N0112651N1+03001+02001999999ADDGA1021+009001999GA2071+030001999GF107991999999999999999999MA1101021999999REMMET058METAR SBLP 051800Z 00000KT 9999 FEW030 BKN100 30/20 Q1010;
0143832880999992012110519004-13267-043417FM-15+0443SBLP V0209999C000012200019N0112651N1+03101+02101999999ADDGA1021+009001999GA2041+030001999GF104991999999999999999999MA1100811999999REMMET058METAR SBLP 051900Z 00000KT 9999 FEW030 SCT100 31/21 Q1008;
0143832880999992012110520004-13267-043417FM-15+0443SBLP V0209999C000012200019N0112651N1+03001+02101999999ADDGA1021+009001999GA2041+030001999GF104991999999999999999999MA1100811999999REMMET058METAR SBLP 052000Z 00000KT 9999 FEW030 SCT100 30/21 Q1008;
0120832880999992012110521004-13267-043417FM-15+0443SBLP V0200301N001012200019N0112651N1+02901+02201999999ADDGA1041+008101999GF104991999999999999999999MA1100911999999REMMET051METAR SBLP 052100Z 03002KT 9999 SCT027 29/22 Q1009;
0143832880999992012110610004-13267-043417FM-15+0443SBLP V0200901N001010300019N0112651N1+02501+02101999999ADDGA1041+008101999GA2071+030001999GF107991999999999999999999MA1101191999999REMMET058METAR SBLP 061000Z 09002KT 9999 SCT027 BKN100 25/21 Q1012;
0171832880999992012110611004-13267-043417FM-15+0443SBLP V0202201N002110081019N0050001N1+02301+02201999999ADDGA1071+008101999GA2021+012001091GA3071+030001999GF107991999999999999999999MW1811MW2951REMMET073METAR SBLP 061100Z 22004KT 5000 TSRA BKN027 FEW040CB BKN100 23/22 Q10 14;
0187832880999992012110612004-13267-043417FM-15+0443SBLP V0202501N001510300019N0112651N1+02201+02001999999ADDGA1021+008101999GA2021+012001091GA3081+030001999GF108991999999999999999999MA1101501999999MW1801MW2951REMMET074METAR SBLP 061200Z 25003KT 9999 -TSRA FEW027 FEW040CB OVC100 22/20 Q1 015;
0160832880999992012110613004-13267-043417FM-15+0443SBLP V0209999C000010300019N0112651N1+02301+02201999999ADDGA1021+008101999GA2081+030001999GF108991999999999999999999MA1101391999999MW1611REMMET069METAR SBLP 061300Z 00000KT 9999 -RA FEW027 OVC100 23/22 Q1014 RETSRA;
0143832880999992012110614004-13267-043417FM-15+0443SBLP V0201201N001510300019N0112651N1+02501+02101999999ADDGA1021+008101999GA2071+030001999GF107991999999999999999999MA1101391999999REMMET058METAR SBLP 061400Z 12003KT 9999 FEW027 BKN100 25/21 Q1014;
0143832880999992012110615004-13267-043417FM-15+0443SBLP V0209999C000012200019N0112651N1+02701+02201999999ADDGA1021+008101999GA2041+030001999GF104991999999999999999999MA1101291999999REMMET058METAR SBLP 061500Z 00000KT 9999 FEW027 SCT100 27/22 Q1013;
0143832880999992012110616004-13267-043417FM-15+0443SBLP V0209999C000010300019N0112651N1+03001+02101999999ADDGA1041+009001999GA2071+030001999GF107991999999999999999999MA1101191999999REMMET058METAR SBLP 061600Z 00000KT 9999 SCT030 BKN100 30/21 Q1012;
0143832880999992012110617004-13267-043417FM-15+0443SBLP V0209999C000010300019N0112651N1+03001+02101999999ADDGA1041+009001999GA2071+030001999GF107991999999999999999999MA1101081999999REMMET058METAR SBLP 061700Z 00000KT 9999 SCT030 BKN100 30/21 Q1011;
0153832880999992012110618004-13267-043417FM-15+0443SBLP V0209999C000010300019N0090001N1+02801+02101999999ADDGA1041+009001999GA2071+030001999GF107991999999999999999999MA1101081999999MW1611REMMET062METAR SBLP 061800Z 00000KT 9000 -RA SCT030 BKN100 28/21 Q1011;
0153832880999992012110619004-13267-043417FM-15+0443SBLP V0209999C000010300019N0090001N1+02601+02101999999ADDGA1041+009001999GA2081+030001999GF108991999999999999999999MA1101081999999MW1611REMMET062METAR SBLP 061900Z 00000KT 9000 -RA SCT030 OVC100 26/21 Q1011;
0143832880999992012110620004-13267-043417FM-15+0443SBLP V0209999C000010300019N0112651N1+02401+02101999999ADDGA1041+009001999GA2071+030001999GF107991999999999999999999MA1101081999999REMMET058METAR SBLP 062000Z 00000KT 9999 SCT030 BKN100 24/21 Q1011;
0143832880999992012110621004-13267-043417FM-15+0443SBLP V0209999C000010300019N0112651N1+02401+02101999999ADDGA1021+009001999GA2071+030001999GF107991999999999999999999MA1101081999999REMMET058METAR SBLP 062100Z 00000KT 9999 FEW030 BKN100 24/21 Q1011;
0143832880999992012110710004-13267-043417FM-15+0443SBLP V0209999C000010300019N0112651N1+02301+02101999999ADDGA1041+006001999GA2071+030001999GF107991999999999999999999MA1101391999999REMMET058METAR SBLP 071000Z 00000KT 9999 SCT020 BKN100 23/21 Q1014;
0143832880999992012110711004-13267-043417FM-15+0443SBLP V0209999C000010300019N0112651N1+02401+02101999999ADDGA1021+006001999GA2071+030001999GF107991999999999999999999MA1101391999999REMMET058METAR SBLP 071100Z 00000KT 9999 FEW020 BKN100 24/21 Q1014;
0143832880999992012110712004-13267-043417FM-15+0443SBLP V0209999C000010300019N0112651N1+02501+02101999999ADDGA1021+006001999GA2071+030001999GF107991999999999999999999MA1101491999999REMMET058METAR SBLP 071200Z 00000KT 9999 FEW020 BKN100 25/21 Q1015;
0143832880999992012110713004-13267-043417FM-15+0443SBLP V0209999C000010300019N0112651N1+02501+02101999999ADDGA1021+006001999GA2071+030001999GF107991999999999999999999MA1101491999999REMMET058METAR SBLP 071300Z 00000KT 9999 FEW020 BKN100 25/21 Q1015;
0143832880999992012110714004-13267-043417FM-15+0443SBLP V0209999C000010300019N0112651N1+02501+02101999999ADDGA1021+006001999GA2071+030001999GF107991999999999999999999MA1101491999999REMMET058METAR SBLP 071400Z 00000KT 9999 FEW020 BKN100 25/21 Q1015;
0143832880999992012110715004-13267-043417FM-15+0443SBLP V0209999C000010300019N0112651N1+02701+02101999999ADDGA1021+009001999GA2071+030001999GF107991999999999999999999MA1101391999999REMMET058METAR SBLP 071500Z 00000KT 9999 FEW030 BKN100 27/21 Q1014;
0143832880999992012110717004-13267-043417FM-15+0443SBLP V0209999C000012200019N0112651N1+03101+02001999999ADDGA1021+009001999GA2041+030001999GF104991999999999999999999MA1101081999999REMMET058METAR SBLP 071700Z 00000KT 9999 FEW030 SCT100 31/20 Q1011;
0143832880999992012110718004-13267-043417FM-15+0443SBLP V0209999C000012200019N0112651N1+03101+02101999999ADDGA1021+009001999GA2041+030001999GF104991999999999999999999MA1101021999999REMMET058METAR SBLP 071800Z 00000KT 9999 FEW030 SCT100 31/21 Q1010;
0120832880999992012110719004-13267-043417FM-15+0443SBLP V0209999C000012200019N0112651N1+03201+02001999999ADDGA1021+009001999GF102991999999999999999999MA1101021999999REMMET051METAR SBLP 071900Z 00000KT 9999 FEW030 32/20 Q1010;
0143832880999992012110720004-13267-043417FM-15+0443SBLP V0209999C000012200019N0112651N1+03001+02001999999ADDGA1021+009001999GA2041+030001999GF104991999999999999999999MA1100911999999REMMET058METAR SBLP 072000Z 00000KT 9999 FEW030 SCT100 30/20 Q1009;
0143832880999992012110721004-13267-043417FM-15+0443SBLP V0209999C000012200019N0112651N1+02901+02101999999ADDGA1021+008101999GA2041+030001999GF104991999999999999999999MA1101021999999REMMET058METAR SBLP 072100Z 00000KT 9999 FEW027 SCT100 29/21 Q1010;
0153832880999992012110810004-13267-043417FM-15+0443SBLP V0209999C000010300019N0090001N1+02201+02101999999ADDGA1041+003001999GA2071+030001999GF107991999999999999999999MA1101391999999MW1611REMMET062METAR SBLP 081000Z 00000KT 9000 -RA SCT010 BKN100 22/21 Q1014;
0143832880999992012110811004-13267-043417FM-15+0443SBLP V0209999C000010300019N0112651N1+02201+02101999999ADDGA1041+003001999GA2071+030001999GF107991999999999999999999MA1101391999999REMMET058METAR SBLP 081100Z 00000KT 9999 SCT010 BKN100 22/21 Q1014;
0153832880999992012110812004-13267-043417FM-15+0443SBLP V0209999C000010300019N0090001N1+02201+02101999999ADDGA1041+003001999GA2071+030001999GF107991999999999999999999MA1101391999999MW1611REMMET062METAR SBLP 081200Z 00000KT 9000 -RA SCT010 BKN100 22/21 Q1014;
0143832880999992012110814004-13267-043417FM-15+0443SBLP V0209999C000010300019N0112651N1+02701+02101999999ADDGA1041+006001999GA2071+030001999GF107991999999999999999999MA1101291999999REMMET058METAR SBLP 081400Z 00000KT 9999 SCT020 BKN100 27/21 Q1013;
0143832880999992012110815004-13267-043417FM-15+0443SBLP V0209999C000010300019N0112651N1+02901+02101999999ADDGA1021+006001999GA2071+030001999GF107991999999999999999999MA1101191999999REMMET058METAR SBLP 081500Z 00000KT 9999 FEW020 BKN100 29/21 Q1012;
0143832880999992012110816004-13267-043417FM-15+0443SBLP V0209999C000010300019N0112651N1+03001+02201999999ADDGA1021+006001999GA2071+030001999GF107991999999999999999999MA1101021999999REMMET058METAR SBLP 081600Z 00000KT 9999 FEW020 BKN100 30/22 Q1010;
0169832880999992012110817004-13267-043417FM-15+0443SBLP V0209999C000010300019N0112651N1+03101+02201999999ADDGA1021+008101999GA2021+012001021GA3071+030001999GF107991999999999999999999MA1100911999999REMMET068METAR SBLP 081700Z 00000KT 9999 FEW027 FEW040TCU BKN100 31/22 Q1009;
0143832880999992012110819004-13267-043417FM-15+0443SBLP V0201801N001510300019N0112651N1+03001+02001999999ADDGA1041+008101999GA2071+030001999GF107991999999999999999999MA1100811999999REMMET058METAR SBLP 081900Z 18003KT 9999 SCT027 BKN100 30/20 Q1008;
0143832880999992012110820004-13267-043417FM-15+0443SBLP V0201801N001012200019N0112651N1+02901+02201999999ADDGA1021+008101999GA2041+030001999GF104991999999999999999999MA1100911999999REMMET058METAR SBLP 082000Z 18002KT 9999 FEW027 SCT100 29/22 Q1009;
0166832880999992012110821004-13267-043417FM-15+0443SBLP V0203601N00511008101CN0112651N1+02501+02201999999ADDGA1021+006001999GA2041+008101999GA3071+030001999GF107991999999999999999999MA1101021999999REMMET065METAR SBLP 082100Z 36010KT 9999 FEW020 SCT027 BKN100 25/22 Q1010;
0143832880999992012110910004-13267-043417FM-15+0443SBLP V0209999C000010300019N0112651N1+02201+02101999999ADDGA1041+003001999GA2071+030001999GF107991999999999999999999MA1101291999999REMMET058METAR SBLP 091000Z 00000KT 9999 SCT010 BKN100 22/21 Q1013;
0143832880999992012110911004-13267-043417FM-15+0443SBLP V0209999C000010300019N0112651N1+02301+02101999999ADDGA1041+003001999GA2071+030001999GF107991999999999999999999MA1101391999999REMMET058METAR SBLP 091100Z 00000KT 9999 SCT010 BKN100 23/21 Q1014;
0143832880999992012110912004-13267-043417FM-15+0443SBLP V0209999C000010300019N0112651N1+02201+02101999999ADDGA1041+004501999GA2071+030001999GF107991999999999999999999MA1101391999999REMMET058METAR SBLP 091200Z 00000KT 9999 SCT015 BKN100 22/21 Q1014;
0153832880999992012110913004-13267-043417FM-15+0443SBLP V0209999C000010300019N0090001N1+02501+02101999999ADDGA1041+004501999GA2071+030001999GF107991999999999999999999MA1101391999999MW1611REMMET062METAR SBLP 091300Z 00000KT 9000 -RA SCT015 BKN100 25/21 Q1014;
0143832880999992012110914004-13267-043417FM-15+0443SBLP V0209999C000010300019N0112651N1+02501+02101999999ADDGA1021+006001999GA2071+030001999GF107991999999999999999999MA1101391999999REMMET058METAR SBLP 091400Z 00000KT 9999 FEW020 BKN100 25/21 Q1014;
0143832880999992012110915004-13267-043417FM-15+0443SBLP V0209999C000010300019N0112651N1+02501+02101999999ADDGA1041+006001999GA2071+030001999GF107991999999999999999999MA1101291999999REMMET058METAR SBLP 091500Z 00000KT 9999 SCT020 BKN100 25/21 Q1013;
0153832880999992012110916004-13267-043417FM-15+0443SBLP V0209999C000010300019N0112651N1+02501+02201999999ADDGA1021+006001999GA2071+030001999GF107991999999999999999999MA1101191999999MW1611REMMET062METAR SBLP 091600Z 00000KT 9999 -RA FEW020 BKN100 25/22 Q1012;
0153832880999992012110917004-13267-043417FM-15+0443SBLP V0200601N001510300019N0112651N1+02601+02301999999ADDGA1021+006001999GA2071+030001999GF107991999999999999999999MA1101081999999MW1611REMMET062METAR SBLP 091700Z 06003KT 9999 -RA FEW020 BKN100 26/23 Q1011;
0143832880999992012110918004-13267-043417FM-15+0443SBLP V0209999C000010300019N0112651N1+02801+02201999999ADDGA1021+008101999GA2071+030001999GF107991999999999999999999MA1101021999999REMMET058METAR SBLP 091800Z 00000KT 9999 FEW027 BKN100 28/22 Q1010;
0143832880999992012110919004-13267-043417FM-15+0443SBLP V0209999C000010300019N0112651N1+02701+02201999999ADDGA1021+008101999GA2071+030001999GF107991999999999999999999MA1101021999999REMMET058METAR SBLP 091900Z 00000KT 9999 FEW027 BKN100 27/22 Q1010;
0143832880999992012110920004-13267-043417FM-15+0443SBLP V0209999C000010300019N0112651N1+02701+02201999999ADDGA1021+008101999GA2071+030001999GF107991999999999999999999MA1101081999999REMMET058METAR SBLP 092000Z 00000KT 9999 FEW027 BKN100 27/22 Q1011;
0143832880999992012110921004-13267-043417FM-15+0443SBLP V0200901N001510300019N0112651N1+02501+02201999999ADDGA1021+008101999GA2071+030001999GF107991999999999999999999MA1101081999999REMMET058METAR SBLP 092100Z 09003KT 9999 FEW027 BKN100 25/22 Q1011;
0143832880999992012111210004-13267-043417FM-15+0443SBLP V0209999C000010300019N0112651N1+02201+02101999999ADDGA1041+004501999GA2071+030001999GF107991999999999999999999MA1101391999999REMMET058METAR SBLP 121000Z 00000KT 9999 SCT015 BKN100 22/21 Q1014;
0143832880999992012111211004-13267-043417FM-15+0443SBLP V0209999C000010300019N0112651N1+02401+02101999999ADDGA1021+006001999GA2071+030001999GF107991999999999999999999MA1101491999999REMMET058METAR SBLP 121100Z 00000KT 9999 FEW020 BKN100 24/21 Q1015;
0143832880999992012111212004-13267-043417FM-15+0443SBLP V0209999C000010300019N0112651N1+02701+02101999999ADDGA1021+006001999GA2071+030001999GF107991999999999999999999MA1101491999999REMMET058METAR SBLP 121200Z 00000KT 9999 FEW020 BKN100 27/21 Q1015;
0143832880999992012111213004-13267-043417FM-15+0443SBLP V0209999C000010300019N0112651N1+02901+02101999999ADDGA1021+009001999GA2071+030001999GF107991999999999999999999MA1101491999999REMMET058METAR SBLP 121300Z 00000KT 9999 FEW030 BKN100 29/21 Q1015;
0143832880999992012111214004-13267-043417FM-15+0443SBLP V0209999C000012200019N0112651N1+03001+02101999999ADDGA1021+009001999GA2041+030001999GF104991999999999999999999MA1101391999999REMMET058METAR SBLP 121400Z 00000KT 9999 FEW030 SCT100 30/21 Q1014;
0143832880999992012111215004-13267-043417FM-15+0443SBLP V0209999C000012200019N0112651N1+03001+02101999999ADDGA1041+009001999GA2041+030001999GF104991999999999999999999MA1101291999999REMMET058METAR SBLP 121500Z 00000KT 9999 SCT030 SCT100 30/21 Q1013;
0120832880999992012111216004-13267-043417FM-15+0443SBLP V0209999C000012200019N0112651N1+03301+02001999999ADDGA1041+009001999GF104991999999999999999999MA1101191999999REMMET051METAR SBLP 121600Z 00000KT 9999 SCT030 33/20 Q1012;
0120832880999992012111217004-13267-043417FM-15+0443SBLP V0209999C000012200019N0112651N1+03301+02101999999ADDGA1041+009001999GF104991999999999999999999MA1101081999999REMMET051METAR SBLP 121700Z 00000KT 9999 SCT030 33/21 Q1011;
0139832880999992012111218004-13267-043417FM-15+0443SBLP V0209999C000012200019N0112651N1+03201+02101999999ADDGA1041+008101999GA2021+009001021MA1101021999999REMMET061METAR SBLP 121800Z 00000KT 9999 SCT027 FEW030TCU 32/21 Q1010;EQDQ01+000022SCOTCV
0154832880999992012111219004-13267-043417FM-15+0443SBLP V0201301N005112200019N0112651N1+03301+02201999999ADDGA1021+008101999GA2021+009001091GF102991999999999999999999MA1101021999999MW1171REMMET063METAR SBLP 121900Z 13010KT 9999 TS FEW027 FEW030CB 33/22 Q1010;
0125832880999992012111220004-13267-043417FM-15+0443SBLP V0201101N003112200019N0112651N1+03001+02201999999ADDGA1021+008101999GF102991999999999999999999MA1101021999999REMMET056METAR SBLP 122000Z 11006KT 9999 FEW027 30/22 Q1010 RETS;
0120832880999992012111221004-13267-043417FM-15+0443SBLP V0200901N001512200019N0112651N1+03001+01901999999ADDGA1021+008101999GF102991999999999999999999MA1101021999999REMMET051METAR SBLP 122100Z 09003KT 9999 FEW027 30/19 Q1010;
0143832880999992012111310004-13267-043417FM-15+0443SBLP V0209999C000012200019N0112651N1+02701+02001999999ADDGA1021+006001999GA2041+030001999GF104991999999999999999999MA1101291999999REMMET058METAR SBLP 131000Z 00000KT 9999 FEW020 SCT100 27/20 Q1013;
0120832880999992012111311004-13267-043417FM-15+0443SBLP V0209999C000012200019N0112651N1+02801+02001999999ADDGA1021+006001999GF102991999999999999999999MA1101391999999REMMET051METAR SBLP 131100Z 00000KT 9999 FEW020 28/20 Q1014;
0120832880999992012111312004-13267-043417FM-15+0443SBLP V0209999C000012200019N0112651N1+02901+02001999999ADDGA1041+009001999GF104991999999999999999999MA1101391999999REMMET051METAR SBLP 131200Z 00000KT 9999 SCT030 29/20 Q1014;
0120832880999992012111313004-13267-043417FM-15+0443SBLP V0209999C000012200019N0112651N1+03101+02001999999ADDGA1041+009001999GF104991999999999999999999MA1101391999999REMMET051METAR SBLP 131300Z 00000KT 9999 SCT030 31/20 Q1014;
0120832880999992012111314004-13267-043417FM-15+0443SBLP V0209999C000012200019N0112651N1+03201+02001999999ADDGA1041+009001999GF104991999999999999999999MA1101291999999REMMET051METAR SBLP 131400Z 00000KT 9999 SCT030 32/20 Q1013;
0120832880999992012111315004-13267-043417FM-15+0443SBLP V0209999C000012200019N0112651N1+03201+02001999999ADDGA1041+009001999GF104991999999999999999999MA1101081999999REMMET051METAR SBLP 131500Z 00000KT 9999 SCT030 32/20 Q1011;
0120832880999992012111316004-13267-043417FM-15+0443SBLP V0203401N001512200019N0112651N1+03501+02001999999ADDGA1041+009001999GF104991999999999999999999MA1101021999999REMMET051METAR SBLP 131600Z 34003KT 9999 SCT030 35/20 Q1010;
0120832880999992012111317004-13267-043417FM-15+0443SBLP V0202701N001512200019N0112651N1+03501+01901999999ADDGA1041+009001999GF104991999999999999999999MA1100911999999REMMET051METAR SBLP 131700Z 27003KT 9999 SCT030 35/19 Q1009;
0120832880999992012111318004-13267-043417FM-15+0443SBLP V0203601N001512200019N0112651N1+03501+01901999999ADDGA1041+009001999GF104991999999999999999999MA1100711999999REMMET051METAR SBLP 131800Z 36003KT 9999 SCT030 35/19 Q1007;
0120832880999992012111319004-13267-043417FM-15+0443SBLP V0202101N003112200019N0112651N1+03501+02201999999ADDGA1021+009001999GF102991999999999999999999MA1100711999999REMMET051METAR SBLP 131900Z 21006KT 9999 FEW030 35/22 Q1007;
0120832880999992012111320004-13267-043417FM-15+0443SBLP V0202401N002112200019N0112651N1+03301+02001999999ADDGA1021+009001999GF102991999999999999999999MA1100711999999REMMET051METAR SBLP 132000Z 24004KT 9999 FEW030 33/20 Q1007;
0120832880999992012111321004-13267-043417FM-15+0443SBLP V0202101N001512200019N0112651N1+03101+02101999999ADDGA1021+009001999GF102991999999999999999999MA1100811999999REMMET051METAR SBLP 132100Z 21003KT 9999 FEW030 31/21 Q1008;
0158832880999992012111410004-13267-043417FM-15+0443SBLP V0209999C000010060019N0112651N1+02201+02101999999ADDGA1071+006001999GA2081+030001999GF108991999999999999999999MA1101291999999MW1611REMMET067METAR SBLP 141000Z 00000KT 9999 -RA BKN020 OVC100 22/21 Q1013 RERA;
0153832880999992012111411004-13267-043417FM-15+0443SBLP V0209999C000010051019N0080001N1+02201+02201999999ADDGA1071+005101999GA2081+027001999GF108991999999999999999999MA1101291999999MW1611REMMET062METAR SBLP 141100Z 00000KT 8000 -RA BKN017 OVC090 22/22 Q1013;
0176832880999992012111412004-13267-043417FM-15+0443SBLP V0201201N002610045019N0112651N1+02201+02201999999ADDGA1021+003001999GA2071+004501999GA3081+027001999GF108991999999999999999999MA1101391999999MW1611REMMET069METAR SBLP 141200Z 12005KT 9999 -RA FEW010 BKN015 OVC090 22/22 Q1014;
0176832880999992012111413004-13267-043417FM-15+0443SBLP V0209999C000010039019N0112651N1+02201+02201999999ADDGA1021+000901999GA2071+003901999GA3081+027001999GF108991999999999999999999MA1101491999999MW1611REMMET069METAR SBLP 141300Z 00000KT 9999 -RA FEW003 BKN013 OVC090 22/22 Q1015;
0153832880999992012111414004-13267-043417FM-15+0443SBLP V0201301N002110045019N0112651N1+02301+02201999999ADDGA1071+004501999GA2081+027001999GF108991999999999999999999MA1101491999999MW1611REMMET062METAR SBLP 141400Z 13004KT 9999 -RA BKN015 OVC090 23/22 Q1015;
0176832880999992012111415004-13267-043417FM-15+0443SBLP V0209999C000010045019N0112651N1+02301+02201999999ADDGA1021+003001999GA2071+004501999GA3081+027001999GF108991999999999999999999MA1101391999999MW1611REMMET069METAR SBLP 141500Z 00000KT 9999 -RA FEW010 BKN015 OVC090 23/22 Q1014;
0143832880999992012111416004-13267-043417FM-15+0443SBLP V0209999C000010300019N0112651N1+02401+02101999999ADDGA1041+003001999GA2071+030001999GF107991999999999999999999MA1101291999999REMMET058METAR SBLP 141600Z 00000KT 9999 SCT010 BKN100 24/21 Q1013;
0143832880999992012111418004-13267-043417FM-15+0443SBLP V0209999C000010300019N0112651N1+02601+02101999999ADDGA1041+004501999GA2071+030001999GF107991999999999999999999MA1101021999999REMMET058METAR SBLP 141800Z 00000KT 9999 SCT015 BKN100 26/21 Q1010;
0143832880999992012111419004-13267-043417FM-15+0443SBLP V0209999C000010300019N0112651N1+02701+02101999999ADDGA1041+006001999GA2071+030001999GF107991999999999999999999MA1101021999999REMMET058METAR SBLP 141900Z 00000KT 9999 SCT020 BKN100 27/21 Q1010;
0143832880999992012111420004-13267-043417FM-15+0443SBLP V0209999C000010300019N0112651N1+02601+02101999999ADDGA1041+006001999GA2071+030001999GF107991999999999999999999MA1101021999999REMMET058METAR SBLP 142000Z 00000KT 9999 SCT020 BKN100 26/21 Q1010;
0143832880999992012111421004-13267-043417FM-15+0443SBLP V0209999C000010300019N0112651N1+02601+02101999999ADDGA1041+006001999GA2071+030001999GF107991999999999999999999MA1101081999999REMMET058METAR SBLP 142100Z 00000KT 9999 SCT020 BKN100 26/21 Q1011;
0153832880999992012111610004-13267-043417FM-15+0443SBLP V0209999C000010300019N0112651N1+02301+02201999999ADDGA1041+004501999GA2071+030001999GF107991999999999999999999MA1101391999999MW1611REMMET062METAR SBLP 161000Z 00000KT 9999 -RA SCT015 BKN100 23/22 Q1014;
0176832880999992012111611004-13267-043417FM-15+0443SBLP V0209999C00001004501CN0112651N1+02301+02201999999ADDGA1021+003001999GA2041+004501999GA3081+030001999GF108991999999999999999999MA1101491999999MW1611REMMET069METAR SBLP 161100Z 00000KT 9999 -RA FEW010 SCT015 OVC100 23/22 Q1015;
0187832880999992012111612004-13267-043417FM-15+0443SBLP V0209999C000010039019N0080001N1+02301+02201999999ADDGA1071+003901999GA2021+012001091GA3081+027001999GF108991999999999999999999MA1101701999999MW1801MW2951REMMET074METAR SBLP 161200Z 00000KT 8000 -TSRA BKN013 FEW040CB OVC090 23/22 Q1 017;
0158832880999992012111613004-13267-043417FM-15+0443SBLP V0209999C000010270019N0112651N1+02201+02201999999ADDGA1041+003901999GA2081+027001999GF108991999999999999999999MA1101691999999MW1611REMMET067METAR SBLP 161300Z 00000KT 9999 -RA SCT013 OVC090 22/22 Q1017 RETS;
0153832880999992012111614004-13267-043417FM-15+0443SBLP V0200901N002110045019N0090001N1+02201+02201999999ADDGA1071+004501999GA2081+021001999GF108991999999999999999999MA1101591999999MW1611REMMET062METAR SBLP 161400Z 09004KT 9000 -RA BKN015 OVC070 22/22 Q1016;
0153832880999992012111615004-13267-043417FM-15+0443SBLP V0201201N002110045019N0090001N1+02301+02301999999ADDGA1071+004501999GA2081+021001999GF108991999999999999999999MA1101591999999MW1611REMMET062METAR SBLP 161500Z 12004KT 9000 -RA BKN015 OVC070 23/23 Q1016;
0153832880999992012111616004-13267-043417FM-15+0443SBLP V0209999C000010300019N0090001N1+02301+02101999999ADDGA1041+003001999GA2081+030001999GF108991999999999999999999MA1101391999999MW1611REMMET062METAR SBLP 161600Z 00000KT 9000 -RA SCT010 OVC100 23/21 Q1014;
0143832880999992012111617004-13267-043417FM-15+0443SBLP V0209999C000010300019N0112651N1+02301+02101999999ADDGA1041+003001999GA2071+030001999GF107991999999999999999999MA1101291999999REMMET058METAR SBLP 161700Z 00000KT 9999 SCT010 BKN100 23/21 Q1013;
0143832880999992012111618004-13267-043417FM-15+0443SBLP V0209999C000010300019N0112651N1+02401+02101999999ADDGA1041+004501999GA2071+030001999GF107991999999999999999999MA1101191999999REMMET058METAR SBLP 161800Z 00000KT 9999 SCT015 BKN100 24/21 Q1012;
0143832880999992012111619004-13267-043417FM-15+0443SBLP V0209999C000010300019N0112651N1+02601+02101999999ADDGA1021+006001999GA2071+030001999GF107991999999999999999999MA1101191999999REMMET058METAR SBLP 161900Z 00000KT 9999 FEW020 BKN100 26/21 Q1012;
0143832880999992012111620004-13267-043417FM-15+0443SBLP V0209999C000010300019N0112651N1+02701+02101999999ADDGA1021+006001999GA2071+030001999GF107991999999999999999999MA1101081999999REMMET058METAR SBLP 162000Z 00000KT 9999 FEW020 BKN100 27/21 Q1011;
0143832880999992012111621004-13267-043417FM-15+0443SBLP V0209999C000010300019N0112651N1+02601+02101999999ADDGA1021+009001999GA2071+030001999GF107991999999999999999999MA1101191999999REMMET058METAR SBLP 162100Z 00000KT 9999 FEW030 BKN100 26/21 Q1012;
0143832880999992012111910004-13267-043417FM-15+0443SBLP V0209999C000010300019N0112651N1+02301+02201999999ADDGA1021+006001999GA2071+030001999GF107991999999999999999999MA1101591999999REMMET058METAR SBLP 191000Z 00000KT 9999 FEW020 BKN100 23/22 Q1016;
0143832880999992012111911004-13267-043417FM-15+0443SBLP V0209999C000010300019N0112651N1+02401+02301999999ADDGA1021+006001999GA2071+030001999GF107991999999999999999999MA1101591999999REMMET058METAR SBLP 191100Z 00000KT 9999 FEW020 BKN100 24/23 Q1016;
0143832880999992012111912004-13267-043417FM-15+0443SBLP V0209999C000010300019N0112651N1+02801+02101999999ADDGA1021+009001999GA2071+030001999GF107991999999999999999999MA1101591999999REMMET058METAR SBLP 191200Z 00000KT 9999 FEW030 BKN100 28/21 Q1016;
0143832880999992012111913004-13267-043417FM-15+0443SBLP V0209999C000012200019N0112651N1+03001+02201999999ADDGA1041+009001999GA2041+030001999GF104991999999999999999999MA1101591999999REMMET058METAR SBLP 191300Z 00000KT 9999 SCT030 SCT100 30/22 Q1016;
0143832880999992012111914004-13267-043417FM-15+0443SBLP V0209999C000012200019N0112651N1+03101+02001999999ADDGA1041+009001999GA2041+030001999GF104991999999999999999999MA1101591999999REMMET058METAR SBLP 191400Z 00000KT 9999 SCT030 SCT100 31/20 Q1016;
0143832880999992012111915004-13267-043417FM-15+0443SBLP V0209999C000012200019N0112651N1+03101+02201999999ADDGA1041+009001999GA2041+030001999GF104991999999999999999999MA1101491999999REMMET058METAR SBLP 191500Z 00000KT 9999 SCT030 SCT100 31/22 Q1015;
0120832880999992012111916004-13267-043417FM-15+0443SBLP V0209999C000012200019N0112651N1+03201+02101999999ADDGA1041+009001999GF104991999999999999999999MA1101391999999REMMET051METAR SBLP 191600Z 00000KT 9999 SCT030 32/21 Q1014;
0120832880999992012111917004-13267-043417FM-15+0443SBLP V0209999C000012200019N0112651N1+03201+02101999999ADDGA1041+009001999GF104991999999999999999999MA1101291999999REMMET051METAR SBLP 191700Z 00000KT 9999 SCT030 32/21 Q1013;
0143832880999992012111918004-13267-043417FM-15+0443SBLP V0201801N002110300019N0112651N1+03201+02101999999ADDGA1041+009001999GA2071+030001999GF107991999999999999999999MA1101191999999REMMET058METAR SBLP 191800Z 18004KT 9999 SCT030 BKN100 32/21 Q1012;
0143832880999992012111919004-13267-043417FM-15+0443SBLP V0201201N003112200019N0112651N1+03201+02201999999ADDGA1021+009001999GA2041+030001999GF104991999999999999999999MA1101191999999REMMET058METAR SBLP 191900Z 12006KT 9999 FEW030 SCT100 32/22 Q1012;
0143832880999992012111920004-13267-043417FM-15+0443SBLP V0200901N003110300019N0112651N1+02901+02201999999ADDGA1021+009001999GA2071+030001999GF107991999999999999999999MA1101191999999REMMET058METAR SBLP 192000Z 09006KT 9999 FEW030 BKN100 29/22 Q1012;
0143832880999992012111921004-13267-043417FM-15+0443SBLP V0200901N001510300019N0112651N1+02801+02101999999ADDGA1021+009001999GA2071+030001999GF107991999999999999999999MA1101191999999REMMET058METAR SBLP 192100Z 09003KT 9999 FEW030 BKN100 28/21 Q1012;
0072832880999992012112010004-13267-043417FM-15+0443SBLP V0209999C000019999999Y0099001N1+02401+01801999999ADDMA1101391999999REMMET045METAR SBLP 201000Z 00000KT CAVOK 24/18 Q1014;
0072832880999992012112011004-13267-043417FM-15+0443SBLP V0201501N001019999999Y0099001N1+02601+02201999999ADDMA1101491999999REMMET045METAR SBLP 201100Z 15002KT CAVOK 26/22 Q1015;
0072832880999992012112012004-13267-043417FM-15+0443SBLP V0200901N002119999999Y0099001N1+02901+02101999999ADDMA1101491999999REMMET045METAR SBLP 201200Z 09004KT CAVOK 29/21 Q1015;
0072832880999992012112013004-13267-043417FM-15+0443SBLP V0200901N001519999999Y0099001N1+03101+02101999999ADDMA1101491999999REMMET045METAR SBLP 201300Z 09003KT CAVOK 31/21 Q1015;
0120832880999992012112014004-13267-043417FM-15+0443SBLP V0209999C000012200019N0112651N1+03301+02001999999ADDGA1021+009001999GF102991999999999999999999MA1101391999999REMMET051METAR SBLP 201400Z 00000KT 9999 FEW030 33/20 Q1014;
0120832880999992012112015004-13267-043417FM-15+0443SBLP V0202101N002112200019N0112651N1+03201+02201999999ADDGA1021+009001999GF102991999999999999999999MA1101291999999REMMET051METAR SBLP 201500Z 21004KT 9999 FEW030 32/22 Q1013;
0120832880999992012112016004-13267-043417FM-15+0443SBLP V0202301N003112200019N0112651N1+03201+02201999999ADDGA1041+009001999GF104991999999999999999999MA1101191999999REMMET051METAR SBLP 201600Z 23006KT 9999 SCT030 32/22 Q1012;
0120832880999992012112017004-13267-043417FM-15+0443SBLP V0201801N003112200019N0112651N1+03301+02101999999ADDGA1041+009001999GF104991999999999999999999MA1101081999999REMMET051METAR SBLP 201700Z 18006KT 9999 SCT030 33/21 Q1011;
0120832880999992012112018004-13267-043417FM-15+0443SBLP V0202101N002112200019N0112651N1+03301+02201999999ADDGA1021+009001999GF102991999999999999999999MA1101021999999REMMET051METAR SBLP 201800Z 21004KT 9999 FEW030 33/22 Q1010;
0120832880999992012112019004-13267-043417FM-15+0443SBLP V0209999C000012200019N0112651N1+03301+02201999999ADDGA1021+009001999GF102991999999999999999999MA1100911999999REMMET051METAR SBLP 201900Z 00000KT 9999 FEW030 33/22 Q1009;
0120832880999992012112020004-13267-043417FM-15+0443SBLP V0209999C000012200019N0112651N1+03101+02201999999ADDGA1021+009001999GF102991999999999999999999MA1100911999999REMMET051METAR SBLP 202000Z 00000KT 9999 FEW030 31/22 Q1009;
0120832880999992012112021004-13267-043417FM-15+0443SBLP V0200601N004112200019N0112651N1+02901+02301999999ADDGA1041+009001999GF104991999999999999999999MA1101021999999REMMET051METAR SBLP 202100Z 06008KT 9999 SCT030 29/23 Q1010;
0143832880999992012112110004-13267-043417FM-15+0443SBLP V0201801N003110045019N0112651N1+02301+02301999999ADDGA1071+004501999GA2071+030001999GF107991999999999999999999MA1101391999999REMMET058METAR SBLP 211000Z 18006KT 9999 BKN015 BKN100 23/23 Q1014;
0143832880999992012112111004-13267-043417FM-15+0443SBLP V0202101N003110045019N0112651N1+02201+02201999999ADDGA1071+004501999GA2071+030001999GF107991999999999999999999MA1101491999999REMMET058METAR SBLP 211100Z 21006KT 9999 BKN015 BKN100 22/22 Q1015;
0153832880999992012112112004-13267-043417FM-15+0443SBLP V0201601N003110045019N0090001N1+02201+02201999999ADDGA1071+004501999GA2071+030001999GF107991999999999999999999MA1101491999999MW1611REMMET062METAR SBLP 211200Z 16006KT 9000 -RA BKN015 BKN100 22/22 Q1015;
0143832880999992012112113004-13267-043417FM-15+0443SBLP V0201801N003110300019N0112651N1+02301+02301999999ADDGA1041+004501999GA2071+030001999GF107991999999999999999999MA1101491999999REMMET058METAR SBLP 211300Z 18006KT 9999 SCT015 BKN100 23/23 Q1015;
0143832880999992012112114004-13267-043417FM-15+0443SBLP V0201801N004110300019N0112651N1+02301+02301999999ADDGA1041+006001999GA2071+030001999GF107991999999999999999999MA1101491999999REMMET058METAR SBLP 211400Z 18008KT 9999 SCT020 BKN100 23/23 Q1015;
0143832880999992012112116004-13267-043417FM-15+0443SBLP V0201501N002110300019N0112651N1+02701+02301999999ADDGA1021+006001999GA2071+030001999GF107991999999999999999999MA1101391999999REMMET058METAR SBLP 211600Z 15004KT 9999 FEW020 BKN100 27/23 Q1014;
0143832880999992012112117004-13267-043417FM-15+0443SBLP V0201501N001510300019N0112651N1+02801+02201999999ADDGA1021+009001999GA2071+030001999GF107991999999999999999999MA1101191999999REMMET058METAR SBLP 211700Z 15003KT 9999 FEW030 BKN100 28/22 Q1012;
0072832880999992012112118004-13267-043417FM-15+0443SBLP V0201501N001519999999Y0099001N1+02701+02201999999ADDMA1101191999999REMMET045METAR SBLP 211800Z 15003KT CAVOK 27/22 Q1012;
0072832880999992012112119004-13267-043417FM-15+0443SBLP V0201801N001519999999Y0099001N1+02701+02301999999ADDMA1101081999999REMMET045METAR SBLP 211900Z 18003KT CAVOK 27/23 Q1011;
0072832880999992012112120004-13267-043417FM-15+0443SBLP V0200901N001019999999Y0099001N1+02701+02201999999ADDMA1101081999999REMMET045METAR SBLP 212000Z 09002KT CAVOK 27/22 Q1011;
0072832880999992012112121004-13267-043417FM-15+0443SBLP V0209999C000019999999Y0099001N1+02601+02301999999ADDMA1101191999999REMMET045METAR SBLP 212100Z 00000KT CAVOK 26/23 Q1012;
0143832880999992012112210004-13267-043417FM-15+0443SBLP V0209999C000010300019N0112651N1+02301+02201999999ADDGA1041+006001999GA2071+030001999GF107991999999999999999999MA1101391999999REMMET058METAR SBLP 221000Z 00000KT 9999 SCT020 BKN100 23/22 Q1014;
0143832880999992012112211004-13267-043417FM-15+0443SBLP V0209999C000010300019N0112651N1+02301+02201999999ADDGA1041+006001999GA2071+030001999GF107991999999999999999999MA1101391999999REMMET058METAR SBLP 221100Z 00000KT 9999 SCT020 BKN100 23/22 Q1014;
0143832880999992012112212004-13267-043417FM-15+0443SBLP V02099999999990300019N0112651N1+02401+02201999999ADDGA1041+006001999GA2071+030001999GF107991999999999999999999MA1101491999999REMMET058METAR SBLP 221200Z /////KT 9999 SCT020 BKN100 24/22 Q1015;
0143832880999992012112213004-13267-043417FM-15+0443SBLP V02099999999990300019N0112651N1+02501+02201999999ADDGA1021+006001999GA2071+030001999GF107991999999999999999999MA1101491999999REMMET058METAR SBLP 221300Z /////KT 9999 FEW020 BKN100 25/22 Q1015;
0143832880999992012112214004-13267-043417FM-15+0443SBLP V02099999999990060019N0112651N1+02501+02201999999ADDGA1071+006001999GA2071+030001999GF107991999999999999999999MA1101491999999REMMET058METAR SBLP 221400Z /////KT 9999 BKN020 BKN100 25/22 Q1015;
0143832880999992012112215004-13267-043417FM-15+0443SBLP V02099999999990300019N0112651N1+02601+02301999999ADDGA1041+006001999GA2071+030001999GF107991999999999999999999MA1101491999999REMMET058METAR SBLP 221500Z /////KT 9999 SCT020 BKN100 26/23 Q1015;
0143832880999992012112216004-13267-043417FM-15+0443SBLP V02099999999990300019N0112651N1+02701+02001999999ADDGA1041+006001999GA2071+030001999GF107991999999999999999999MA1101291999999REMMET058METAR SBLP 221600Z /////KT 9999 SCT020 BKN100 27/20 Q1013;
0143832880999992012112217004-13267-043417FM-15+0443SBLP V02099999999990300019N0112651N1+02801+02101999999ADDGA1021+006001999GA2071+030001999GF107991999999999999999999MA1101191999999REMMET058METAR SBLP 221700Z /////KT 9999 FEW020 BKN100 28/21 Q1012;
0143832880999992012112218004-13267-043417FM-15+0443SBLP V02099999999992200019N0112651N1+02901+02101999999ADDGA1021+009001999GA2041+030001999GF104991999999999999999999MA1101191999999REMMET058METAR SBLP 221800Z /////KT 9999 FEW030 SCT100 29/21 Q1012;
0143832880999992012112219004-13267-043417FM-15+0443SBLP V02099999999992200019N0112651N1+03001+02101999999ADDGA1021+009001999GA2041+030001999GF104991999999999999999999MA1101081999999REMMET058METAR SBLP 221900Z /////KT 9999 FEW030 SCT100 30/21 Q1011;
0143832880999992012112220004-13267-043417FM-15+0443SBLP V02099999999992200019N0112651N1+02901+02201999999ADDGA1021+009001999GA2041+030001999GF104991999999999999999999MA1101081999999REMMET058METAR SBLP 222000Z /////KT 9999 FEW030 SCT100 29/22 Q1011;
0143832880999992012112221004-13267-043417FM-15+0443SBLP V02099999999992200019N0112651N1+02801+02201999999ADDGA1021+009001999GA2041+030001999GF104991999999999999999999MA1101191999999REMMET058METAR SBLP 222100Z /////KT 9999 FEW030 SCT100 28/22 Q1012;
0143832880999992012112310004-13267-043417FM-15+0443SBLP V02099999999992200019N0112651N1+02401+02201999999ADDGA1021+009001999GA2041+030001999GF104991999999999999999999MA1101591999999REMMET058METAR SBLP 231000Z /////KT 9999 FEW030 SCT100 24/22 Q1016;
0143832880999992012112311004-13267-043417FM-15+0443SBLP V02099999999992200019N0112651N1+02701+02101999999ADDGA1021+006001999GA2041+030001999GF104991999999999999999999MA1101591999999REMMET058METAR SBLP 231100Z /////KT 9999 FEW020 SCT100 27/21 Q1016;
0143832880999992012112312004-13267-043417FM-15+0443SBLP V02099999999992200019N0112651N1+02801+02301999999ADDGA1041+009001999GA2041+030001999GF104991999999999999999999MA1101591999999REMMET058METAR SBLP 231200Z /////KT 9999 SCT030 SCT100 28/23 Q1016;
0120832880999992012112313004-13267-043417FM-15+0443SBLP V02099999999992200019N0112651N1+02901+02201999999ADDGA1041+009001999GF104991999999999999999999MA1101591999999REMMET051METAR SBLP 231300Z /////KT 9999 SCT030 29/22 Q1016;
0120832880999992012112314004-13267-043417FM-15+0443SBLP V02099999999992200019N0112651N1+02901+02201999999ADDGA1041+009001999GF104991999999999999999999MA1101491999999REMMET051METAR SBLP 231400Z /////KT 9999 SCT030 29/22 Q1015;
0120832880999992012112315004-13267-043417FM-15+0443SBLP V02099999999992200019N0112651N1+03101+02201999999ADDGA1041+009001999GF104991999999999999999999MA1101391999999REMMET051METAR SBLP 231500Z /////KT 9999 SCT030 31/22 Q1014;
0120832880999992012112316004-13267-043417FM-15+0443SBLP V02099999999992200019N0112651N1+03201+02101999999ADDGA1021+009001999GF102991999999999999999999MA1101291999999REMMET051METAR SBLP 231600Z /////KT 9999 FEW030 32/21 Q1013;
0120832880999992012112317004-13267-043417FM-15+0443SBLP V02099999999992200019N0112651N1+03301+02001999999ADDGA1021+009001999GF102991999999999999999999MA1101081999999REMMET051METAR SBLP 231700Z /////KT 9999 FEW030 33/20 Q1011;
0120832880999992012112318004-13267-043417FM-15+0443SBLP V02099999999992200019N0112651N1+03301+02101999999ADDGA1041+009001999GF104991999999999999999999MA1101021999999REMMET051METAR SBLP 231800Z /////KT 9999 SCT030 33/21 Q1010;
0120832880999992012112319004-13267-043417FM-15+0443SBLP V02099999999992200019N0112651N1+03301+01901999999ADDGA1041+009001999GF104991999999999999999999MA1100911999999REMMET051METAR SBLP 231900Z /////KT 9999 SCT030 33/19 Q1009;
0120832880999992012112320004-13267-043417FM-15+0443SBLP V02099999999992200019N0112651N1+03301+01901999999ADDGA1041+009001999GF104991999999999999999999MA1100911999999REMMET051METAR SBLP 232000Z /////KT 9999 SCT030 33/19 Q1009;
0154832880999992012112321004-13267-043417FM-15+0443SBLP V02099999999992200019N0112651N1+03001+02201999999ADDGA1021+009001091GA2041+009001999GF104991999999999999999999MA1101021999999MW1171REMMET063METAR SBLP 232100Z /////KT 9999 TS FEW030CB SCT030 30/22 Q1010;
0143832880999992012112610004-13267-043417FM-15+0443SBLP V02099999999990300019N0112651N1+02201+02201999999ADDGA1041+004501999GA2071+030001999GF107991999999999999999999MA1101491999999REMMET058METAR SBLP 261000Z /////KT 9999 SCT015 BKN100 22/22 Q1015;
0143832880999992012112611004-13267-043417FM-15+0443SBLP V02099999999990300019N0112651N1+02301+02301999999ADDGA1041+004501999GA2071+030001999GF107991999999999999999999MA1101491999999REMMET058METAR SBLP 261100Z /////KT 9999 SCT015 BKN100 23/23 Q1015;
0143832880999992012112612004-13267-043417FM-15+0443SBLP V02099999999990300019N0112651N1+02501+02201999999ADDGA1041+004501999GA2071+030001999GF107991999999999999999999MA1101591999999REMMET058METAR SBLP 261200Z /////KT 9999 SCT015 BKN100 25/22 Q1016;
0143832880999992012112613004-13267-043417FM-15+0443SBLP V02099999999990300019N0112651N1+02601+02401999999ADDGA1041+004501999GA2071+030001999GF107991999999999999999999MA1101591999999REMMET058METAR SBLP 261300Z /////KT 9999 SCT015 BKN100 26/24 Q1016;
0143832880999992012112614004-13267-043417FM-15+0443SBLP V02099999999990300019N0112651N1+02601+02401999999ADDGA1041+006001999GA2071+030001999GF107991999999999999999999MA1101691999999REMMET058METAR SBLP 261400Z /////KT 9999 SCT020 BKN100 26/24 Q1017;
0153832880999992012112615004-13267-043417FM-15+0443SBLP V02099999999990300019N0090001N1+02501+02401999999ADDGA1041+006001999GA2071+030001999GF107991999999999999999999MA1101491999999MW1611REMMET062METAR SBLP 261500Z /////KT 9000 -RA SCT020 BKN100 25/24 Q1015;
0143832880999992012112616004-13267-043417FM-15+0443SBLP V02099999999990300019N0112651N1+02701+02301999999ADDGA1041+006001999GA2071+030001999GF107991999999999999999999MA1101391999999REMMET058METAR SBLP 261600Z /////KT 9999 SCT020 BKN100 27/23 Q1014;
0143832880999992012112617004-13267-043417FM-15+0443SBLP V02099999999990300019N0112651N1+02801+02201999999ADDGA1041+006001999GA2071+030001999GF107991999999999999999999MA1101291999999REMMET058METAR SBLP 261700Z /////KT 9999 SCT020 BKN100 28/22 Q1013;
0143832880999992012112618004-13267-043417FM-15+0443SBLP V02099999999990300019N0112651N1+02901+02101999999ADDGA1021+006001999GA2071+030001999GF107991999999999999999999MA1101191999999REMMET058METAR SBLP 261800Z /////KT 9999 FEW020 BKN100 29/21 Q1012;
0143832880999992012112619004-13267-043417FM-15+0443SBLP V02099999999990300019N0112651N1+03001+02101999999ADDGA1021+006001999GA2071+030001999GF107991999999999999999999MA1101081999999REMMET058METAR SBLP 261900Z /////KT 9999 FEW020 BKN100 30/21 Q1011;
0143832880999992012112620004-13267-043417FM-15+0443SBLP V02099999999990300019N0112651N1+02801+02201999999ADDGA1041+009001999GA2071+030001999GF107991999999999999999999MA1101081999999REMMET058METAR SBLP 262000Z /////KT 9999 SCT030 BKN100 28/22 Q1011;
0143832880999992012112621004-13267-043417FM-15+0443SBLP V02099999999990300019N0112651N1+02701+02201999999ADDGA1041+009001999GA2071+030001999GF107991999999999999999999MA1101191999999REMMET058METAR SBLP 262100Z /////KT 9999 SCT030 BKN100 27/22 Q1012;
0153832880999992012112710004-13267-043417FM-15+0443SBLP V02099999999990300019N0090001N1+02201+02101999999ADDGA1041+004501999GA2071+030001999GF107991999999999999999999MA1101391999999MW1611REMMET062METAR SBLP 271000Z /////KT 9000 -RA SCT015 BKN100 22/21 Q1014;
0153832880999992012112711004-13267-043417FM-15+0443SBLP V02099999999990300019N0090001N1+02301+02101999999ADDGA1041+004501999GA2071+030001999GF107991999999999999999999MA1101491999999MW1611REMMET062METAR SBLP 271100Z /////KT 9000 -RA SCT015 BKN100 23/21 Q1015;
0143832880999992012112712004-13267-043417FM-15+0443SBLP V02099999999990300019N0112651N1+02401+02101999999ADDGA1041+006001999GA2071+030001999GF107991999999999999999999MA1101491999999REMMET058METAR SBLP 271200Z /////KT 9999 SCT020 BKN100 24/21 Q1015;
0143832880999992012112713004-13267-043417FM-15+0443SBLP V02099999999990300019N0112651N1+02701+02101999999ADDGA1021+006001999GA2071+030001999GF107991999999999999999999MA1101491999999REMMET058METAR SBLP 271300Z /////KT 9999 FEW020 BKN100 27/21 Q1015;
0143832880999992012112714004-13267-043417FM-15+0443SBLP V02099999999990300019N0112651N1+02901+02101999999ADDGA1021+006001999GA2071+030001999GF107991999999999999999999MA1101391999999REMMET058METAR SBLP 271400Z /////KT 9999 FEW020 BKN100 29/21 Q1014;
0143832880999992012112715004-13267-043417FM-15+0443SBLP V02099999999990300019N0112651N1+02901+02101999999ADDGA1041+006001999GA2071+030001999GF107991999999999999999999MA1101291999999REMMET058METAR SBLP 271500Z /////KT 9999 SCT020 BKN100 29/21 Q1013;
0143832880999992012112716004-13267-043417FM-15+0443SBLP V02099999999990300019N0112651N1+03001+02201999999ADDGA1041+009001999GA2071+030001999GF107991999999999999999999MA1101191999999REMMET058METAR SBLP 271600Z /////KT 9999 SCT030 BKN100 30/22 Q1012;
0143832880999992012112719004-13267-043417FM-15+0443SBLP V02099999999990090019N0112651N1+02501+02301999999ADDGA1071+009001999GA2071+030001999GF107991999999999999999999MA1101021999999REMMET058METAR SBLP 271900Z /////KT 9999 BKN030 BKN100 25/23 Q1010;
0143832880999992012112720004-13267-043417FM-15+0443SBLP V02099999999990300019N0112651N1+02501+02301999999ADDGA1041+006001999GA2071+030001999GF107991999999999999999999MA1101021999999REMMET058METAR SBLP 272000Z /////KT 9999 SCT020 BKN100 25/23 Q1010;
0143832880999992012112721004-13267-043417FM-15+0443SBLP V02099999999990300019N0112651N1+02501+02201999999ADDGA1021+006001999GA2071+030001999GF107991999999999999999999MA1101021999999REMMET058METAR SBLP 272100Z /////KT 9999 FEW020 BKN100 25/22 Q1010;
0143832880999992012112813004-13267-043417FM-15+0443SBLP V02099999999990300019N0112651N1+02701+02401999999ADDGA1041+006001999GA2071+030001999GF107991999999999999999999MA1101391999999REMMET058METAR SBLP 281300Z /////KT 9999 SCT020 BKN100 27/24 Q1014;
0153832880999992012112816004-13267-043417FM-15+0443SBLP V02099999999990300019N0090001N1+02501+02401999999ADDGA1041+004501999GA2071+030001999GF107991999999999999999999MA1101191999999MW1611REMMET062METAR SBLP 281600Z /////KT 9000 -RA SCT015 BKN100 25/24 Q1012;
0143832880999992012112821004-13267-043417FM-15+0443SBLP V02099999999990300019N0112651N1+02401+02201999999ADDGA1041+004501999GA2071+030001999GF107991999999999999999999MA1101081999999REMMET058METAR SBLP 282100Z /////KT 9999 SCT015 BKN100 24/22 Q1011;
0143832880999992012112910004-13267-043417FM-15+0443SBLP V02099999999990300019N0112651N1+02301+02201999999ADDGA1021+004501999GA2071+030001999GF107991999999999999999999MA1101291999999REMMET058METAR SBLP 291000Z /////KT 9999 FEW015 BKN100 23/22 Q1013;
0143832880999992012112911004-13267-043417FM-15+0443SBLP V02099999999990300019N0112651N1+02501+02201999999ADDGA1021+006001999GA2071+030001999GF107991999999999999999999MA1101291999999REMMET058METAR SBLP 291100Z /////KT 9999 FEW020 BKN100 25/22 Q1013;
0143832880999992012112916004-13267-043417FM-15+0443SBLP V02099999999990300019N0112651N1+03101+02201999999ADDGA1021+009001999GA2071+030001999GF107991999999999999999999MA1101081999999REMMET058METAR SBLP 291600Z /////KT 9999 FEW030 BKN100 31/22 Q1011;
0143832880999992012112917004-13267-043417FM-15+0443SBLP V02099999999990300019N0112651N1+03101+02201999999ADDGA1021+009001999GA2071+030001999GF107991999999999999999999MA1101021999999REMMET058METAR SBLP 291700Z /////KT 9999 FEW030 BKN100 31/22 Q1010;
0120832880999992012112921004-13267-043417FM-15+0443SBLP V02099999999992200019N0112651N1+03001+02301999999ADDGA1021+009001999GF102991999999999999999999MA1100911999999REMMET051METAR SBLP 292100Z /////KT 9999 FEW030 30/23 Q1009;
0143832880999992012113015004-13267-043417FM-15+0443SBLP V02099999999992200019N0112651N1+03001+02301999999ADDGA1041+008101999GA2041+030001999GF104991999999999999999999MA1101291999999REMMET058METAR SBLP 301500Z /////KT 9999 SCT027 SCT100 30/23 Q1013;
0143832880999992012113020004-13267-043417FM-15+0443SBLP V02099999999992200019N0112651N1+02701+02301999999ADDGA1041+009001999GA2041+030001999GF104991999999999999999999MA1101081999999REMMET058METAR SBLP 302000Z /////KT 9999 SCT030 SCT100 27/23 Q1011;
0153832880999992012113021004-13267-043417FM-15+0443SBLP V02099999999990300019N0090001N1+02601+02301999999ADDGA1041+009001999GA2071+030001999GF107991999999999999999999MA1101191999999MW1611REMMET062METAR SBLP 302100Z /////KT 9000 -RA SCT030 BKN100 26/23 Q1012;
0072832880999992012120310004-13267-043417FM-15+0443SBLP V02099999999999999999Y0099001N1+02401+01801999999ADDMA1101391999999REMMET045METAR SBLP 031000Z /////KT CAVOK 24/18 Q1014;
0072832880999992012120311004-13267-043417FM-15+0443SBLP V02099999999999999999Y0099001N1+02801+01801999999ADDMA1101391999999REMMET045METAR SBLP 031100Z /////KT CAVOK 28/18 Q1014;
0072832880999992012120312004-13267-043417FM-15+0443SBLP V02099999999999999999Y0099001N1+03001+01701999999ADDMA1101391999999REMMET045METAR SBLP 031200Z /////KT CAVOK 30/17 Q1014;
0072832880999992012120313004-13267-043417FM-15+0443SBLP V02099999999999999999Y0099001N1+03201+01701999999ADDMA1101391999999REMMET045METAR SBLP 031300Z /////KT CAVOK 32/17 Q1014;
0120832880999992012120315004-13267-043417FM-15+0443SBLP V02099999999992200019N0112651N1+03301+01801999999ADDGA1021+009001999GF102991999999999999999999MA1101291999999REMMET051METAR SBLP 031500Z /////KT 9999 FEW030 33/18 Q1013;
0120832880999992012120319004-13267-043417FM-15+0443SBLP V02099999999992200019N0112651N1+03401+01801999999ADDGA1021+009001999GF102991999999999999999999MA1101021999999REMMET051METAR SBLP 031900Z /////KT 9999 FEW030 34/18 Q1010;
0120832880999992012120321004-13267-043417FM-15+0443SBLP V02099999999992200019N0112651N1+03101+01901999999ADDGA1021+009001999GF102991999999999999999999MA1101081999999REMMET051METAR SBLP 032100Z /////KT 9999 FEW030 31/19 Q1011;
0072832880999992012120410004-13267-043417FM-15+0443SBLP V02099999999999999999Y0099001N1+02301+02101999999ADDMA1101491999999REMMET045METAR SBLP 041000Z /////KT CAVOK 23/21 Q1015;
0072832880999992012120411004-13267-043417FM-15+0443SBLP V02099999999999999999Y0099001N1+02601+02001999999ADDMA1101591999999REMMET045METAR SBLP 041100Z /////KT CAVOK 26/20 Q1016;
0120832880999992012120415004-13267-043417FM-15+0443SBLP V02099999999992200019N0112651N1+03201+02001999999ADDGA1021+009001999GF102991999999999999999999MA1101591999999REMMET051METAR SBLP 041500Z /////KT 9999 FEW030 32/20 Q1016;
0120832880999992012120416004-13267-043417FM-15+0443SBLP V02099999999992200019N0112651N1+03201+01901999999ADDGA1021+009001999GF102991999999999999999999MA1101491999999REMMET051METAR SBLP 041600Z /////KT 9999 FEW030 32/19 Q1015;
0120832880999992012120419004-13267-043417FM-15+0443SBLP V02099999999992200019N0112651N1+03301+01901999999ADDGA1041+009001999GF104991999999999999999999MA1101191999999REMMET051METAR SBLP 041900Z /////KT 9999 SCT030 33/19 Q1012;
0120832880999992012120421004-13267-043417FM-15+0443SBLP V02099999999992200019N0112651N1+03101+01901999999ADDGA1021+009001999GF102991999999999999999999MA1101291999999REMMET051METAR SBLP 042100Z /////KT 9999 FEW030 31/19 Q1013;
0072832880999992012120511004-13267-043417FM-15+0443SBLP V02099999999999999999Y0099001N1+02801+02001999999ADDMA1101491999999REMMET045METAR SBLP 051100Z /////KT CAVOK 28/20 Q1015;
0120832880999992012120512004-13267-043417FM-15+0443SBLP V02099999999992200019N0112651N1+03001+01801999999ADDGA1021+009001999GF102991999999999999999999MA1101491999999REMMET051METAR SBLP 051200Z /////KT 9999 FEW030 30/18 Q1015;
0120832880999992012120516004-13267-043417FM-15+0443SBLP V02099999999992200019N0112651N1+03201+02201999999ADDGA1041+009001999GF104991999999999999999999MA1101291999999REMMET051METAR SBLP 051600Z /////KT 9999 SCT030 32/22 Q1013;
0120832880999992012120518004-13267-043417FM-15+0443SBLP V02099999999992200019N0112651N1+03301+02001999999ADDGA1041+009001999GF104991999999999999999999MA1101081999999REMMET051METAR SBLP 051800Z /////KT 9999 SCT030 33/20 Q1011;
0072832880999992012120521004-13267-043417FM-15+0443SBLP V02099999999999999999Y0099001N1+03001+02001999999ADDMA1101021999999REMMET045METAR SBLP 052100Z /////KT CAVOK 30/20 Q1010;
0072832880999992012120610004-13267-043417FM-15+0443SBLP V02099999999999999999Y0099001N1+02501+01901999999ADDMA1101291999999REMMET045METAR SBLP 061000Z /////KT CAVOK 25/19 Q1013;
0072832880999992012120611004-13267-043417FM-15+0443SBLP V02099999999999999999Y0099001N1+02701+01901999999ADDMA1101391999999REMMET045METAR SBLP 061100Z /////KT CAVOK 27/19 Q1014;
0072832880999992012120612004-13267-043417FM-15+0443SBLP V02099999999999999999Y0099001N1+02901+02001999999ADDMA1101391999999REMMET045METAR SBLP 061200Z /////KT CAVOK 29/20 Q1014;
0120832880999992012120615004-13267-043417FM-15+0443SBLP V02099999999992200019N0112651N1+03201+01901999999ADDGA1041+009001999GF104991999999999999999999MA1101191999999REMMET051METAR SBLP 061500Z /////KT 9999 SCT030 32/19 Q1012;
0120832880999992012120616004-13267-043417FM-15+0443SBLP V02099999999992200019N0112651N1+03301+01801999999ADDGA1041+009001999GF104991999999999999999999MA1101081999999REMMET051METAR SBLP 061600Z /////KT 9999 SCT030 33/18 Q1011;
0120832880999992012120617004-13267-043417FM-15+0443SBLP V02099999999992200019N0112651N1+03401+01801999999ADDGA1041+009001999GF104991999999999999999999MA1101021999999REMMET051METAR SBLP 061700Z /////KT 9999 SCT030 34/18 Q1010;
0120832880999992012120619004-13267-043417FM-15+0443SBLP V02099999999992200019N0112651N1+03301+01901999999ADDGA1021+009001999GF102991999999999999999999MA1100911999999REMMET051METAR SBLP 061900Z /////KT 9999 FEW030 33/19 Q1009;
0072832880999992012120710004-13267-043417FM-15+0443SBLP V02099999999999999999Y0099001N1+02601+01901999999ADDMA1101191999999REMMET045METAR SBLP 071000Z /////KT CAVOK 26/19 Q1012;
0072832880999992012120712004-13267-043417FM-15+0443SBLP V02099999999999999999Y0099001N1+03001+01901999999ADDMA1101391999999REMMET045METAR SBLP 071200Z /////KT CAVOK 30/19 Q1014;
0120832880999992012120715004-13267-043417FM-15+0443SBLP V02099999999992200019N0112651N1+03301+01901999999ADDGA1021+009001999GF102991999999999999999999MA1101191999999REMMET051METAR SBLP 071500Z /////KT 9999 FEW030 33/19 Q1012;
0120832880999992012120716004-13267-043417FM-15+0443SBLP V02099999999992200019N0112651N1+03401+01901999999ADDGA1041+009001999GF104991999999999999999999MA1101081999999REMMET051METAR SBLP 071600Z /////KT 9999 SCT030 34/19 Q1011;
0120832880999992012120719004-13267-043417FM-15+0443SBLP V02099999999992200019N0112651N1+03401+01901999999ADDGA1021+009001999GF102991999999999999999999MA1101021999999REMMET051METAR SBLP 071900Z /////KT 9999 FEW030 34/19 Q1010;
0072832880999992012120720004-13267-043417FM-15+0443SBLP V02099999999999999999Y0099001N1+03301+02001999999ADDMA1100911999999REMMET045METAR SBLP 072000Z /////KT CAVOK 33/20 Q1009;
0120832880999992012120721004-13267-043417FM-15+0443SBLP V0203401N001512200019N0112651N1+03201+02001999999ADDGA1021+009001999GF102991999999999999999999MA1101021999999REMMET051METAR SBLP 072100Z 34003KT 9999 FEW030 32/20 Q1010;
