0143833440999992012010111004-14950-040883FM-15+0914SBQV V0200401N001512200019N0112651N1+02201+01901999999ADDGA1021+004501999GA2041+024001999GF104991999999999999999999MA1101801999999REMMET058METAR SBQV 011100Z 04003KT 9999 FEW015 SCT080 22/19 Q1018;
0120833440999992012010112004-14950-040883FM-15+0914SBQV V0200301N004112200019N0112651N1+02301+01901999999ADDGA1021+006001999GF102991999999999999999999MA1101801999999REMMET051METAR SBQV 011200Z 03008KT 9999 FEW020 23/19 Q1018;
0120833440999992012010113004-14950-040883FM-15+0914SBQV V0200201N004112200019N0112651N1+02401+02001999999ADDGA1021+006001999GF102991999999999999999999MA1101801999999REMMET051METAR SBQV 011300Z 02008KT 9999 FEW020 24/20 Q1018;
0120833440999992012010114004-14950-040883FM-15+0914SBQV V0200301N004112200019N0112651N1+02501+02101999999ADDGA1041+007501999GF104991999999999999999999MA1101801999999REMMET051METAR SBQV 011400Z 03008KT 9999 SCT025 25/21 Q1018;
0120833440999992012010115004-14950-040883FM-15+0914SBQV V0200301N004110075019N0112651N1+02601+02001999999ADDGA1071+007501999GF107991999999999999999999MA1101691999999REMMET051METAR SBQV 011500Z 03008KT 9999 BKN025 26/20 Q1017;
0120833440999992012010116004-14950-040883FM-15+0914SBQV V0200301N004112200019N0112651N1+02701+02101999999ADDGA1041+009001999GF104991999999999999999999MA1101591999999REMMET051METAR SBQV 011600Z 03008KT 9999 SCT030 27/21 Q1016;
0120833440999992012010117004-14950-040883FM-15+0914SBQV V0200201N003612200019N0112651N1+02801+02001999999ADDGA1041+009001999GF104991999999999999999999MA1101491999999REMMET051METAR SBQV 011700Z 02007KT 9999 SCT030 28/20 Q1015;
0120833440999992012010118004-14950-040883FM-15+0914SBQV V0200101N005112200019N0112651N1+02701+01901999999ADDGA1041+009001999GF104991999999999999999999MA1101391999999REMMET051METAR SBQV 011800Z 01010KT 9999 SCT030 27/19 Q1014;
0120833440999992012010119004-14950-040883FM-15+0914SBQV V0200201N004612200019N0112651N1+02601+02001999999ADDGA1041+007501999GF104991999999999999999999MA1101391999999REMMET051METAR SBQV 011900Z 02009KT 9999 SCT025 26/20 Q1014;
0120833440999992012010120004-14950-040883FM-15+0914SBQV V0200101N002112200019N0112651N1+02501+02001999999ADDGA1021+006001999GF102991999999999999999999MA1101491999999REMMET051METAR SBQV 012000Z 01004KT 9999 FEW020 25/20 Q1015;
0143833440999992012010121004-14950-040883FM-15+0914SBQV V0209999C000012200019N0112651N1+02401+02001999999ADDGA1021+004801999GA2041+021001999GF104991999999999999999999MA1101591999999REMMET058METAR SBQV 012100Z 00000KT 9999 FEW016 SCT070 24/20 Q1016;
0143833440999992012010122004-14950-040883FM-15+0914SBQV V0209999C000010210019N0112651N1+02501+02001999999ADDGA1021+004501999GA2071+021001999GF107991999999999999999999MA1101491999999REMMET058METAR SBQV 012200Z 00000KT 9999 FEW015 BKN070 25/20 Q1015;
0143833440999992012010211004-14950-040883FM-15+0914SBQV V0209999C000010027019N0112651N1+02201+02001999999ADDGA1071+002701999GA2071+021001999GF107991999999999999999999MA1101691999999REMMET058METAR SBQV 021100Z 00000KT 9999 BKN009 BKN070 22/20 Q1017;
0136833440999992012010212004-14950-040883FM-15+0914SBQV V0200301N00511003301CN0112651N1+02301+02001999999ADDGA1071+003301999GA2041+021001999MA1101691999999REMMET058METAR SBQV 021200Z 03010KT 9999 BKN011 SCT070 23/20 Q1017;EQDQ01+000042SCOTCV
0143833440999992012010213004-14950-040883FM-15+0914SBQV V0200201N005112200019N0112651N1+02401+02101999999ADDGA1041+003601999GA2041+021001999GF104991999999999999999999MA1101591999999REMMET058METAR SBQV 021300Z 02010KT 9999 SCT012 SCT070 24/21 Q1016;
0120833440999992012010214004-14950-040883FM-15+0914SBQV V0200101N005110045019N0112651N1+02501+02101999999ADDGA1071+004501999GF107991999999999999999999MA1101591999999REMMET051METAR SBQV 021400Z 01010KT 9999 BKN015 25/21 Q1016;
0120833440999992012010215004-14950-040883FM-15+0914SBQV V0200201N005110048019N0112651N1+02601+02001999999ADDGA1071+004801999GF107991999999999999999999MA1101491999999REMMET051METAR SBQV 021500Z 02010KT 9999 BKN016 26/20 Q1015;
0120833440999992012010216004-14950-040883FM-15+0914SBQV V0203601N004612200019N0112651N1+02601+02001999999ADDGA1041+005401999GF104991999999999999999999MA1101491999999REMMET051METAR SBQV 021600Z 36009KT 9999 SCT018 26/20 Q1015;
0120833440999992012010217004-14950-040883FM-15+0914SBQV V0200101N005712200019N0112651N1+02801+02101999999ADDGA1041+006001999GF104991999999999999999999MA1101391999999REMMET051METAR SBQV 021700Z 01011KT 9999 SCT020 28/21 Q1014;
0120833440999992012010218004-14950-040883FM-15+0914SBQV V0200201N003112200019N0112651N1+02801+02001999999ADDGA1021+007501999GF102991999999999999999999MA1101291999999REMMET051METAR SBQV 021800Z 02006KT 9999 FEW025 28/20 Q1013;
0120833440999992012010219004-14950-040883FM-15+0914SBQV V0200101N006212200019N0112651N1+02801+01901999999ADDGA1021+007501999GF102991999999999999999999MA1101291999999REMMET051METAR SBQV 021900Z 01012KT 9999 FEW025 28/19 Q1013;
0120833440999992012010220004-14950-040883FM-15+0914SBQV V0200401N006212200019N0112651N1+02601+01901999999ADDGA1041+007501999GF104991999999999999999999MA1101291999999REMMET051METAR SBQV 022000Z 04012KT 9999 SCT025 26/19 Q1013;
0120833440999992012010221004-14950-040883FM-15+0914SBQV V0200301N005112200019N0112651N1+02601+01901999999ADDGA1041+006001999GF104991999999999999999999MA1101391999999REMMET051METAR SBQV 022100Z 03010KT 9999 SCT020 26/19 Q1014;
0120833440999992012010222004-14950-040883FM-15+0914SBQV V0200401N005712200019N0112651N1+02401+02001999999ADDGA1021+006001999GF102991999999999999999999MA1101491999999REMMET051METAR SBQV 022200Z 04011KT 9999 FEW020 24/20 Q1015;
0143833440999992012010311004-14950-040883FM-15+0914SBQV V0200201N004110240019N0112651N1+02101+02001999999ADDGA1041+002401999GA2081+024001999GF108991999999999999999999MA1101801999999REMMET058METAR SBQV 031100Z 02008KT 9999 SCT008 OVC080 21/20 Q1018;
0143833440999992012010312004-14950-040883FM-15+0914SBQV V0200101N003610024019N0112651N1+02001+02001999999ADDGA1071+002401999GA2081+024001999GF108991999999999999999999MA1101901999999REMMET058METAR SBQV 031200Z 01007KT 9999 BKN008 OVC080 20/20 Q1019;
0143833440999992012010313004-14950-040883FM-15+0914SBQV V0200201N002610030019N0112651N1+02101+02001999999ADDGA1071+003001999GA2081+024001999GF108991999999999999999999MA1101901999999REMMET058METAR SBQV 031300Z 02005KT 9999 BKN010 OVC080 21/20 Q1019;
0143833440999992012010314004-14950-040883FM-15+0914SBQV V0203401N004110039019N0112651N1+02201+02001999999ADDGA1071+003901999GA2081+024001999GF108991999999999999999999MA1101901999999REMMET058METAR SBQV 031400Z 34008KT 9999 BKN013 OVC080 22/20 Q1019;
0143833440999992012010315004-14950-040883FM-15+0914SBQV V0203301N003610045019N0112651N1+02301+02001999999ADDGA1071+004501999GA2081+024001999GF108991999999999999999999MA1101801999999REMMET058METAR SBQV 031500Z 33007KT 9999 BKN015 OVC080 23/20 Q1018;
0143833440999992012010316004-14950-040883FM-15+0914SBQV V0203401N001010240019N0112651N1+02401+02001999999ADDGA1041+004501999GA2081+024001999GF108991999999999999999999MA1101691999999REMMET058METAR SBQV 031600Z 34002KT 9999 SCT015 OVC080 24/20 Q1017;
0143833440999992012010317004-14950-040883FM-15+0914SBQV V0209999C000010240019N0112651N1+02501+02001999999ADDGA1041+004501999GA2071+024001999GF107991999999999999999999MA1101691999999REMMET058METAR SBQV 031700Z 00000KT 9999 SCT015 BKN080 25/20 Q1017;
0143833440999992012010318004-14950-040883FM-15+0914SBQV V0203301N002110240019N0112651N1+02501+02101999999ADDGA1041+004501999GA2071+024001999GF107991999999999999999999MA1101591999999REMMET058METAR SBQV 031800Z 33004KT 9999 SCT015 BKN080 25/21 Q1016;
0143833440999992012010319004-14950-040883FM-15+0914SBQV V0203301N002610210019N0112651N1+02401+02001999999ADDGA1041+004501999GA2071+021001999GF107991999999999999999999MA1101691999999REMMET058METAR SBQV 031900Z 33005KT 9999 SCT015 BKN070 24/20 Q1017;
0143833440999992012010320004-14950-040883FM-15+0914SBQV V0203401N001010210019N0112651N1+02401+02001999999ADDGA1041+004501999GA2071+021001999GF107991999999999999999999MA1101691999999REMMET058METAR SBQV 032000Z 34002KT 9999 SCT015 BKN070 24/20 Q1017;
0143833440999992012010321004-14950-040883FM-15+0914SBQV V0209999C000010210019N0112651N1+02301+02001999999ADDGA1021+004501999GA2071+021001999GF107991999999999999999999MA1101691999999REMMET058METAR SBQV 032100Z 00000KT 9999 FEW015 BKN070 23/20 Q1017;
0072833440999992012010322004-14950-040883FM-15+0914SBQV V0209999C000019999999Y0099001N1+02201+02101999999ADDMA1101691999999REMMET045METAR SBQV 032200Z 00000KT CAVOK 22/21 Q1017;
0166833440999992012010411004-14950-040883FM-15+0914SBQV V0200501N00361003601CN0112651N1+02401+02101999999ADDGA1021+001801999GA2041+003601999GA3071+021001999GF107991999999999999999999MA1101901999999REMMET065METAR SBQV 041100Z 05007KT 9999 FEW006 SCT012 BKN070 24/21 Q1019;
0143833440999992012010412004-14950-040883FM-15+0914SBQV V0200401N002610210019N0112651N1+02301+02001999999ADDGA1041+003301999GA2071+021001999GF107991999999999999999999MA1102001999999REMMET058METAR SBQV 041200Z 04005KT 9999 SCT011 BKN070 23/20 Q1020;
0143833440999992012010413004-14950-040883FM-15+0914SBQV V0202301N004110030019N0112651N1+02001+02001999999ADDGA1071+003001999GA2071+021001999GF107991999999999999999999MA1102001999999REMMET058METAR SBQV 041300Z 23008KT 9999 BKN010 BKN070 20/20 Q1020;
0152833440999992012010414004-14950-040883FM-15+0914SBQV V0202801N004110210019N0020001N1+01901+01901999999ADDGA1041+002701999GA2081+021001999GF108991999999999999999999MA1102001999999MW1631REMMET061METAR SBQV 041400Z 28008KT 2000 RA SCT009 OVC070 19/19 Q1020;
0171833440999992012010415004-14950-040883FM-15+0914SBQV V0202601N00261004501CN0112651N1+02001+02001999999ADDGA1021+002701999GA2041+004501999GA3081+021001999GF108991999999999999999999MA1101901999999REMMET070METAR SBQV 041500Z 26005KT 9999 FEW009 SCT015 OVC070 20/20 Q1019 RERA;
0166833440999992012010416004-14950-040883FM-15+0914SBQV V0202501N00261004501CN0112651N1+02201+02001999999ADDGA1021+002701999GA2041+004501999GA3081+021001999GF108991999999999999999999MA1101901999999REMMET065METAR SBQV 041600Z 25005KT 9999 FEW009 SCT015 OVC070 22/20 Q1019;
0143833440999992012010417004-14950-040883FM-15+0914SBQV V0209999C000010210019N0112651N1+02401+02101999999ADDGA1041+004501999GA2071+021001999GF107991999999999999999999MA1101801999999REMMET058METAR SBQV 041700Z 00000KT 9999 SCT015 BKN070 24/21 Q1018;
0143833440999992012010418004-14950-040883FM-15+0914SBQV V0209999C000010210019N0112651N1+02501+02101999999ADDGA1021+004801999GA2071+021001999GF107991999999999999999999MA1101691999999REMMET058METAR SBQV 041800Z 00000KT 9999 FEW016 BKN070 25/21 Q1017;
0143833440999992012010419004-14950-040883FM-15+0914SBQV V0209999C000010210019N0112651N1+02301+02001999999ADDGA1021+003001999GA2071+021001999GF107991999999999999999999MA1101691999999REMMET058METAR SBQV 041900Z 00000KT 9999 FEW010 BKN070 23/20 Q1017;
0143833440999992012010420004-14950-040883FM-15+0914SBQV V0209999C000010210019N0112651N1+02301+02001999999ADDGA1021+004801999GA2071+021001999GF107991999999999999999999MA1101691999999REMMET058METAR SBQV 042000Z 00000KT 9999 FEW016 BKN070 23/20 Q1017;
0143833440999992012010421004-14950-040883FM-15+0914SBQV V0209999C000010210019N0112651N1+02201+02101999999ADDGA1021+004801999GA2071+021001999GF107991999999999999999999MA1101691999999REMMET058METAR SBQV 042100Z 00000KT 9999 FEW016 BKN070 22/21 Q1017;
0143833440999992012010422004-14950-040883FM-15+0914SBQV V0209999C000010210019N0112651N1+02201+02101999999ADDGA1021+004501999GA2071+021001999GF107991999999999999999999MA1101801999999REMMET058METAR SBQV 042200Z 00000KT 9999 FEW015 BKN070 22/21 Q1018;
0143833440999992012010511004-14950-040883FM-15+0914SBQV V0200801N002610210019N0112651N1+02201+02101999999ADDGA1021+002101999GA2071+021001999GF107991999999999999999999MA1102001999999REMMET058METAR SBQV 051100Z 08005KT 9999 FEW007 BKN070 22/21 Q1020;
0166833440999992012010512004-14950-040883FM-15+0914SBQV V0200701N00311004501CN0112651N1+02401+02101999999ADDGA1021+003901999GA2041+004501999GA3071+021001999GF107991999999999999999999MA1102001999999REMMET065METAR SBQV 051200Z 07006KT 9999 FEW013 SCT015 BKN070 24/21 Q1020;
0166833440999992012010513004-14950-040883FM-15+0914SBQV V0201001N003110210019N0112651N1+02401+02101999999ADDGA1041+004501999GA2021+004501999GA3071+021001999GF107991999999999999999999MA1102001999999REMMET065METAR SBQV 051300Z 10006KT 9999 SCT015 FEW015 BKN070 24/21 Q1020;
0143833440999992012010514004-14950-040883FM-15+0914SBQV V0201101N002610045019N0112651N1+02401+02101999999ADDGA1071+004501999GA2071+021001999GF107991999999999999999999MA1102001999999REMMET058METAR SBQV 051400Z 11005KT 9999 BKN015 BKN070 24/21 Q1020;
0146833440999992012010517004-14950-040883FM-15+0914SBQV V0201301N005112200019N0112651N1+02601+02301999999ADDGA1021+004801021GA2041+005401999GF104991999999999999999999MA1101801999999REMMET061METAR SBQV 051700Z 13010KT 9999 FEW016TCU SCT018 26/23 Q1018;
0146833440999992012010518004-14950-040883FM-15+0914SBQV V0200901N003612200019N0112651N1+02501+02201999999ADDGA1021+004801021GA2041+005401999GF104991999999999999999999MA1101691999999REMMET061METAR SBQV 051800Z 09007KT 9999 FEW016TCU SCT018 25/22 Q1017;
0146833440999992012010519004-14950-040883FM-15+0914SBQV V0201101N004612200019N0112651N1+02601+02201999999ADDGA1021+004801021GA2041+005401999GF104991999999999999999999MA1101691999999REMMET061METAR SBQV 051900Z 11009KT 9999 FEW016TCU SCT018 26/22 Q1017;
0146833440999992012010520004-14950-040883FM-15+0914SBQV V0200901N005110240019N0112651N1+02401+02101999999ADDGA1021+004801021GA2071+024001999GF107991999999999999999999MA1101691999999REMMET061METAR SBQV 052000Z 09010KT 9999 FEW016TCU BKN080 24/21 Q1017;
0143833440999992012010521004-14950-040883FM-15+0914SBQV V0201301N004110240019N0112651N1+02201+02201999999ADDGA1021+004801999GA2071+024001999GF107991999999999999999999MA1101691999999REMMET058METAR SBQV 052100Z 13008KT 9999 FEW016 BKN080 22/22 Q1017;
0072833440999992012010522004-14950-040883FM-15+0914SBQV V0201201N004119999999Y0099001N1+02101+02101999999ADDMA1101801999999REMMET045METAR SBQV 052200Z 12008KT CAVOK 21/21 Q1018;
0072833440999992012010611004-14950-040883FM-15+0914SBQV V0200701N004119999999Y0099001N1+02201+01701999999ADDMA1102001999999REMMET045METAR SBQV 061100Z 07008KT CAVOK 22/17 Q1020;
0120833440999992012010612004-14950-040883FM-15+0914SBQV V0200901N005712200019N0112651N1+02401+01701999999ADDGA1021+007501999GF102991999999999999999999MA1102001999999REMMET051METAR SBQV 061200Z 09011KT 9999 FEW025 24/17 Q1020;
0120833440999992012010613004-14950-040883FM-15+0914SBQV V0201301N003112200019N0112651N1+02601+01801999999ADDGA1021+007501999GF102991999999999999999999MA1102001999999REMMET051METAR SBQV 061300Z 13006KT 9999 FEW025 26/18 Q1020;
0120833440999992012010614004-14950-040883FM-15+0914SBQV V0201301N004112200019N0112651N1+02701+01701999999ADDGA1041+009001999GF104991999999999999999999MA1102001999999REMMET051METAR SBQV 061400Z 13008KT 9999 SCT030 27/17 Q1020;
0120833440999992012010615004-14950-040883FM-15+0914SBQV V0201001N004610090019N0112651N1+02601+01801999999ADDGA1071+009001999GF107991999999999999999999MA1101901999999REMMET051METAR SBQV 061500Z 10009KT 9999 BKN030 26/18 Q1019;
0120833440999992012010616004-14950-040883FM-15+0914SBQV V0201201N006212200019N0112651N1+02701+01801999999ADDGA1041+009001999GF104991999999999999999999MA1101801999999REMMET051METAR SBQV 061600Z 12012KT 9999 SCT030 27/18 Q1018;
0120833440999992012010617004-14950-040883FM-15+0914SBQV V0201001N003610090019N0112651N1+02801+01801999999ADDGA1071+009001999GF107991999999999999999999MA1101801999999REMMET051METAR SBQV 061700Z 10007KT 9999 BKN030 28/18 Q1018;
0120833440999992012010618004-14950-040883FM-15+0914SBQV V0201101N005112200019N0112651N1+02801+01801999999ADDGA1041+009001999GF104991999999999999999999MA1101691999999REMMET051METAR SBQV 061800Z 11010KT 9999 SCT030 28/18 Q1017;
0143833440999992012010619004-14950-040883FM-15+0914SBQV V0201001N004112200019N0112651N1+02601+01801999999ADDGA1041+007501999GA2041+024001999GF104991999999999999999999MA1101591999999REMMET058METAR SBQV 061900Z 10008KT 9999 SCT025 SCT080 26/18 Q1016;
0143833440999992012010620004-14950-040883FM-15+0914SBQV V0201101N005710210019N0112651N1+02501+01901999999ADDGA1021+006001999GA2071+021001999GF107991999999999999999999MA1101591999999REMMET058METAR SBQV 062000Z 11011KT 9999 FEW020 BKN070 25/19 Q1016;
0143833440999992012010621004-14950-040883FM-15+0914SBQV V0201201N003612200019N0112651N1+02401+01901999999ADDGA1041+005401999GA2041+021001999GF104991999999999999999999MA1101691999999REMMET058METAR SBQV 062100Z 12007KT 9999 SCT018 SCT070 24/19 Q1017;
0120833440999992012010622004-14950-040883FM-15+0914SBQV V0201001N003612200019N0112651N1+02201+01901999999ADDGA1021+004801999GF102991999999999999999999MA1101691999999REMMET051METAR SBQV 062200Z 10007KT 9999 FEW016 22/19 Q1017;
0120833440999992012010711004-14950-040883FM-15+0914SBQV V0200701N004112200019N0112651N1+02101+01801999999ADDGA1041+003601999GF104991999999999999999999MA1102001999999REMMET051METAR SBQV 071100Z 07008KT 9999 SCT012 21/18 Q1020;
0120833440999992012010712004-14950-040883FM-15+0914SBQV V0200601N006212200019N0112651N1+02301+01901999999ADDGA1041+004501999GF104991999999999999999999MA1102001999999REMMET051METAR SBQV 071200Z 06012KT 9999 SCT015 23/19 Q1020;
0120833440999992012010713004-14950-040883FM-15+0914SBQV V0200101N004610048019N0112651N1+02401+01801999999ADDGA1071+004801999GF107991999999999999999999MA1102001999999REMMET051METAR SBQV 071300Z 01009KT 9999 BKN016 24/18 Q1020;
0120833440999992012010714004-14950-040883FM-15+0914SBQV V0203501N001510054019N0112651N1+02501+01801999999ADDGA1071+005401999GF107991999999999999999999MA1102001999999REMMET051METAR SBQV 071400Z 35003KT 9999 BKN018 25/18 Q1020;
0120833440999992012010715004-14950-040883FM-15+0914SBQV V0203201N002610060019N0112651N1+02601+01801999999ADDGA1071+006001999GF107991999999999999999999MA1101901999999REMMET051METAR SBQV 071500Z 32005KT 9999 BKN020 26/18 Q1019;
0120833440999992012010716004-14950-040883FM-15+0914SBQV V0203501N005110060019N0112651N1+02701+01801999999ADDGA1071+006001999GF107991999999999999999999MA1101901999999REMMET051METAR SBQV 071600Z 35010KT 9999 BKN020 27/18 Q1019;
0120833440999992012010717004-14950-040883FM-15+0914SBQV V0203401N001010075019N0112651N1+02801+01801999999ADDGA1071+007501999GF107991999999999999999999MA1101801999999REMMET051METAR SBQV 071700Z 34002KT 9999 BKN025 28/18 Q1018;
0120833440999992012010718004-14950-040883FM-15+0914SBQV V0203401N002110075019N0112651N1+02701+01801999999ADDGA1071+007501999GF107991999999999999999999MA1101691999999REMMET051METAR SBQV 071800Z 34004KT 9999 BKN025 27/18 Q1017;
0146833440999992012010719004-14950-040883FM-15+0914SBQV V0201301N004112200019N0112651N1+02501+02001999999ADDGA1021+006001021GA2041+007501999GF104991999999999999999999MA1101591999999REMMET061METAR SBQV 071900Z 13008KT 9999 FEW020TCU SCT025 25/20 Q1016;
0120833440999992012010720004-14950-040883FM-15+0914SBQV V0201001N004612200019N0112651N1+02501+02101999999ADDGA1041+006001999GF104991999999999999999999MA1101691999999REMMET051METAR SBQV 072000Z 10009KT 9999 SCT020 25/21 Q1017;
0120833440999992012010721004-14950-040883FM-15+0914SBQV V0201301N003612200019N0112651N1+02401+02101999999ADDGA1041+005401999GF104991999999999999999999MA1101691999999REMMET051METAR SBQV 072100Z 13007KT 9999 SCT018 24/21 Q1017;
0120833440999992012010722004-14950-040883FM-15+0914SBQV V0201301N004112200019N0112651N1+02301+02101999999ADDGA1021+004801999GF102991999999999999999999MA1101801999999REMMET051METAR SBQV 072200Z 13008KT 9999 FEW016 23/21 Q1018;
0143833440999992012010811004-14950-040883FM-15+0914SBQV V0201001N004610045019N0112651N1+02201+02001999999ADDGA1041+002701999GA2071+004501999GF107991999999999999999999MA1102101999999REMMET058METAR SBQV 081100Z 10009KT 9999 SCT009 BKN015 22/20 Q1021;
0120833440999992012010813004-14950-040883FM-15+0914SBQV V0200801N003610060019N0112651N1+02401+02001999999ADDGA1071+006001999GF107991999999999999999999MA1102101999999REMMET051METAR SBQV 081300Z 08007KT 9999 BKN020 24/20 Q1021;
0146833440999992012010815004-14950-040883FM-15+0914SBQV V0209999C000012200019N0112651N1+02601+01901999999ADDGA1021+006001021GA2041+007501999GF104991999999999999999999MA1102001999999REMMET061METAR SBQV 081500Z 00000KT 9999 FEW020TCU SCT025 26/19 Q1020;
0146833440999992012010816004-14950-040883FM-15+0914SBQV V0200701N002612200019N0112651N1+02801+01801999999ADDGA1021+006001021GA2041+007501999GF104991999999999999999999MA1102001999999REMMET061METAR SBQV 081600Z 07005KT 9999 FEW020TCU SCT025 28/18 Q1020;
0146833440999992012010817004-14950-040883FM-15+0914SBQV V0201001N006212200019N0112651N1+02701+02001999999ADDGA1021+006001021GA2041+007501999GF104991999999999999999999MA1101901999999REMMET061METAR SBQV 081700Z 10012KT 9999 FEW020TCU SCT025 27/20 Q1019;
0146833440999992012010818004-14950-040883FM-15+0914SBQV V0200701N004612200019N0112651N1+02701+01901999999ADDGA1021+006001021GA2041+007501999GF104991999999999999999999MA1101801999999REMMET061METAR SBQV 081800Z 07009KT 9999 FEW020TCU SCT025 27/19 Q1018;
0146833440999992012010819004-14950-040883FM-15+0914SBQV V0200801N004612200019N0112651N1+02701+02001999999ADDGA1021+006001021GA2041+007501999GF104991999999999999999999MA1101801999999REMMET061METAR SBQV 081900Z 08009KT 9999 FEW020TCU SCT025 27/20 Q1018;
0146833440999992012010820004-14950-040883FM-15+0914SBQV V0201101N005712200019N0112651N1+02601+02001999999ADDGA1021+005401021GA2041+024001999GF104991999999999999999999MA1101691999999REMMET061METAR SBQV 082000Z 11011KT 9999 FEW018TCU SCT080 26/20 Q1017;
0146833440999992012010821004-14950-040883FM-15+0914SBQV V0201401N004112200019N0112651N1+02401+02101999999ADDGA1021+004501021GA2041+021001999GF104991999999999999999999MA1101801999999REMMET061METAR SBQV 082100Z 14008KT 9999 FEW015TCU SCT070 24/21 Q1018;
0072833440999992012010822004-14950-040883FM-15+0914SBQV V0201001N003119999999Y0099001N1+02301+02001999999ADDMA1101801999999REMMET045METAR SBQV 082200Z 10006KT CAVOK 23/20 Q1018;
0143833440999992012010911004-14950-040883FM-15+0914SBQV V0200801N004610210019N0112651N1+02301+01801999999ADDGA1021+007501999GA2071+021001999GF107991999999999999999999MA1102001999999REMMET058METAR SBQV 091100Z 08009KT 9999 FEW025 BKN070 23/18 Q1020;
0143833440999992012010912004-14950-040883FM-15+0914SBQV V0201001N006712200019N0112651N1+02401+01701999999ADDGA1021+004801999GA2041+024001999GF104991999999999999999999MA1102101999999REMMET058METAR SBQV 091200Z 10013KT 9999 FEW016 SCT080 24/17 Q1021;
0143833440999992012010913004-14950-040883FM-15+0914SBQV V0200801N006712200019N0112651N1+02601+01901999999ADDGA1021+005401999GA2041+024001999GF104991999999999999999999MA1102101999999REMMET058METAR SBQV 091300Z 08013KT 9999 FEW018 SCT080 26/19 Q1021;
0120833440999992012010914004-14950-040883FM-15+0914SBQV V0201001N004610060019N0112651N1+02601+01401999999ADDGA1071+006001999GF107991999999999999999999MA1102101999999REMMET051METAR SBQV 091400Z 10009KT 9999 BKN020 26/14 Q1021;
0120833440999992012010915004-14950-040883FM-15+0914SBQV V0200401N004610075019N0112651N1+02701+01901999999ADDGA1071+007501999GF107991999999999999999999MA1102001999999REMMET051METAR SBQV 091500Z 04009KT 9999 BKN025 27/19 Q1020;
0120833440999992012010916004-14950-040883FM-15+0914SBQV V0200701N005710075019N0112651N1+02601+01901999999ADDGA1071+007501999GF107991999999999999999999MA1102001999999REMMET051METAR SBQV 091600Z 07011KT 9999 BKN025 26/19 Q1020;
0120833440999992012010917004-14950-040883FM-15+0914SBQV V0201001N004612200019N0112651N1+02801+01901999999ADDGA1041+007501999GF104991999999999999999999MA1101901999999REMMET051METAR SBQV 091700Z 10009KT 9999 SCT025 28/19 Q1019;
0120833440999992012010918004-14950-040883FM-15+0914SBQV V0201001N007210075019N0112651N1+02701+01901999999ADDGA1071+007501999GF107991999999999999999999MA1101801999999REMMET051METAR SBQV 091800Z 10014KT 9999 BKN025 27/19 Q1018;
0120833440999992012010919004-14950-040883FM-15+0914SBQV V0201001N006212200019N0112651N1+02601+02001999999ADDGA1041+006001999GF104991999999999999999999MA1101801999999REMMET051METAR SBQV 091900Z 10012KT 9999 SCT020 26/20 Q1018;
0120833440999992012010920004-14950-040883FM-15+0914SBQV V0201001N005712200019N0112651N1+02501+02001999999ADDGA1041+004801999GF104991999999999999999999MA1101801999999REMMET051METAR SBQV 092000Z 10011KT 9999 SCT016 25/20 Q1018;
0120833440999992012010921004-14950-040883FM-15+0914SBQV V0201001N006712200019N0112651N1+02301+02001999999ADDGA1041+004501999GF104991999999999999999999MA1101801999999REMMET051METAR SBQV 092100Z 10013KT 9999 SCT015 23/20 Q1018;
0143833440999992012010922004-14950-040883FM-15+0914SBQV V0200901N006212200019N0112651N1+02101+01901999999ADDGA1021+003901999GA2041+021001999GF104991999999999999999999MA1101901999999REMMET058METAR SBQV 092200Z 09012KT 9999 FEW013 SCT070 21/19 Q1019;
0143833440999992012011011004-14950-040883FM-15+0914SBQV V0200701N006212200019N0112651N1+02401+02001999999ADDGA1041+003601999GA2041+004501999GF104991999999999999999999MA1102001999999REMMET058METAR SBQV 101100Z 07012KT 9999 SCT012 SCT015 24/20 Q1020;
0120833440999992012011012004-14950-040883FM-15+0914SBQV V0200701N006712200019N0112651N1+02401+01901999999ADDGA1041+005401999GF104991999999999999999999MA1102101999999REMMET051METAR SBQV 101200Z 07013KT 9999 SCT018 24/19 Q1021;
0120833440999992012011013004-14950-040883FM-15+0914SBQV V0200701N006212200019N0112651N1+02601+02001999999ADDGA1041+005401999GF104991999999999999999999MA1102101999999REMMET051METAR SBQV 101300Z 07012KT 9999 SCT018 26/20 Q1021;
0146833440999992012011014004-14950-040883FM-15+0914SBQV V0201001N007712200019N0112651N1+02701+01801999999ADDGA1021+005401021GA2041+006001999GF104991999999999999999999MA1102001999999REMMET061METAR SBQV 101400Z 10015KT 9999 FEW018TCU SCT020 27/18 Q1020;
0120833440999992012011015004-14950-040883FM-15+0914SBQV V0201101N007212200019N0112651N1+02701+01801999999ADDGA1041+007501999GF104991999999999999999999MA1102001999999REMMET051METAR SBQV 101500Z 11014KT 9999 SCT025 27/18 Q1020;
0120833440999992012011016004-14950-040883FM-15+0914SBQV V0200901N006210075019N0112651N1+02701+01801999999ADDGA1071+007501999GF107991999999999999999999MA1101901999999REMMET051METAR SBQV 101600Z 09012KT 9999 BKN025 27/18 Q1019;
0120833440999992012011017004-14950-040883FM-15+0914SBQV V0200701N008710090019N0112651N1+02801+01801999999ADDGA1071+009001999GF107991999999999999999999MA1101901999999REMMET051METAR SBQV 101700Z 07017KT 9999 BKN030 28/18 Q1019;
0123833440999992012011018004-14950-040883FM-15+0914SBQV V0201201N006712200019N0112651N1+02701+01801999999ADDGA1021+007501021GF102991999999999999999999MA1101801999999REMMET054METAR SBQV 101800Z 12013KT 9999 FEW025TCU 27/18 Q1018;
0143833440999992012011019004-14950-040883FM-15+0914SBQV V0201101N006212200019N0112651N1+02601+01801999999ADDGA1021+009001999GA2041+030001999GF104991999999999999999999MA1101801999999REMMET058METAR SBQV 101900Z 11012KT 9999 FEW030 SCT100 26/18 Q1018;
0143833440999992012011020004-14950-040883FM-15+0914SBQV V0200901N006210300019N0112651N1+02501+01801999999ADDGA1021+009001999GA2071+030001999GF107991999999999999999999MA1101801999999REMMET058METAR SBQV 102000Z 09012KT 9999 FEW030 BKN100 25/18 Q1018;
0072833440999992012011021004-14950-040883FM-15+0914SBQV V0201101N006719999999Y0099001N1+02401+01801999999ADDMA1101801999999REMMET045METAR SBQV 102100Z 11013KT CAVOK 24/18 Q1018;
0072833440999992012011022004-14950-040883FM-15+0914SBQV V0201001N004619999999Y0099001N1+02201+01801999999ADDMA1101901999999REMMET045METAR SBQV 102200Z 10009KT CAVOK 22/18 Q1019;
0120833440999992012011105004-14950-040883FM-15+0914SBQV V0201001N003112200019N0112651N1+01801+01801999999ADDGA1041+003601999GF104991999999999999999999MA1101901999999REMMET051METAR SBQV 110500Z 10006KT 9999 SCT012 18/18 Q1019;
0120833440999992012011106004-14950-040883FM-15+0914SBQV V0209999C000012200019N0112651N1+01701+01701999999ADDGA1041+003601999GF104991999999999999999999MA1101901999999REMMET051METAR SBQV 110600Z 00000KT 9999 SCT012 17/17 Q1019;
0143833440999992012011111004-14950-040883FM-15+0914SBQV V0201001N005112200019N0112651N1+02101+01901999999ADDGA1021+002701999GA2041+004501999GF104991999999999999999999MA1102001999999REMMET058METAR SBQV 111100Z 10010KT 9999 FEW009 SCT015 21/19 Q1020;
0143833440999992012011112004-14950-040883FM-15+0914SBQV V0201301N007212200019N0112651N1+02101+01901999999ADDGA1041+004501999GA2041+024001999GF104991999999999999999999MA1102101999999REMMET058METAR SBQV 111200Z 13014KT 9999 SCT015 SCT080 21/19 Q1021;
0143833440999992012011113004-14950-040883FM-15+0914SBQV V0201001N003612200019N0112651N1+02301+01901999999ADDGA1041+004801999GA2041+024001999GF104991999999999999999999MA1102101999999REMMET058METAR SBQV 111300Z 10007KT 9999 SCT016 SCT080 23/19 Q1021;
0143833440999992012011114004-14950-040883FM-15+0914SBQV V0201001N004110240019N0112651N1+02001+02001999999ADDGA1021+005401999GA2071+024001999GF107991999999999999999999MA1102101999999REMMET058METAR SBQV 111400Z 10008KT 9999 FEW018 BKN080 20/20 Q1021;
0143833440999992012011115004-14950-040883FM-15+0914SBQV V0201201N006710270019N0112651N1+02401+01901999999ADDGA1021+006001999GA2071+027001999GF107991999999999999999999MA1102001999999REMMET058METAR SBQV 111500Z 12013KT 9999 FEW020 BKN090 24/19 Q1020;
0143833440999992012011116004-14950-040883FM-15+0914SBQV V0200901N006210270019N0112651N1+02401+01901999999ADDGA1021+006001999GA2071+027001999GF107991999999999999999999MA1102001999999REMMET058METAR SBQV 111600Z 09012KT 9999 FEW020 BKN090 24/19 Q1020;
0143833440999992012011117004-14950-040883FM-15+0914SBQV V0200601N006710240019N0112651N1+02201+01801999999ADDGA1041+004801999GA2071+024001999GF107991999999999999999999MA1102001999999REMMET058METAR SBQV 111700Z 06013KT 9999 SCT016 BKN080 22/18 Q1020;
0143833440999992012011118004-14950-040883FM-15+0914SBQV V0201201N005110240019N0112651N1+02201+02001999999ADDGA1041+004801999GA2071+024001999GF107991999999999999999999MA1101901999999REMMET058METAR SBQV 111800Z 12010KT 9999 SCT016 BKN080 22/20 Q1019;
0143833440999992012011119004-14950-040883FM-15+0914SBQV V0201101N004110210019N0112651N1+02001+01901999999ADDGA1041+004501999GA2081+021001999GF108991999999999999999999MA1101901999999REMMET058METAR SBQV 111900Z 11008KT 9999 SCT015 OVC070 20/19 Q1019;
0143833440999992012011120004-14950-040883FM-15+0914SBQV V0201101N003110210019N0112651N1+02101+02001999999ADDGA1041+003901999GA2081+021001999GF108991999999999999999999MA1101901999999REMMET058METAR SBQV 112000Z 11006KT 9999 SCT013 OVC070 21/20 Q1019;
0143833440999992012011121004-14950-040883FM-15+0914SBQV V0200701N003610210019N0112651N1+02101+01801999999ADDGA1021+003901999GA2081+021001999GF108991999999999999999999MA1102001999999REMMET058METAR SBQV 112100Z 07007KT 9999 FEW013 OVC070 21/18 Q1020;
0143833440999992012011122004-14950-040883FM-15+0914SBQV V0200901N002610210019N0112651N1+01901+01801999999ADDGA1041+003601999GA2081+021001999GF108991999999999999999999MA1102001999999REMMET058METAR SBQV 112200Z 09005KT 9999 SCT012 OVC070 19/18 Q1020;
0120833440999992012011211004-14950-040883FM-15+0914SBQV V0200901N003612200019N0112651N1+02101+01901999999ADDGA1041+003301999GF104991999999999999999999MA1102101999999REMMET051METAR SBQV 121100Z 09007KT 9999 SCT011 21/19 Q1021;
0120833440999992012011212004-14950-040883FM-15+0914SBQV V0201001N004112200019N0112651N1+02401+01801999999ADDGA1041+003901999GF104991999999999999999999MA1102101999999REMMET051METAR SBQV 121200Z 10008KT 9999 SCT013 24/18 Q1021;
0120833440999992012011213004-14950-040883FM-15+0914SBQV V0200901N004110045019N0112651N1+02501+01901999999ADDGA1071+004501999GF107991999999999999999999MA1102201999999REMMET051METAR SBQV 121300Z 09008KT 9999 BKN015 25/19 Q1022;
0120833440999992012011214004-14950-040883FM-15+0914SBQV V0200901N004610045019N0112651N1+02601+01801999999ADDGA1071+004501999GF107991999999999999999999MA1102101999999REMMET051METAR SBQV 121400Z 09009KT 9999 BKN015 26/18 Q1021;
0120833440999992012011215004-14950-040883FM-15+0914SBQV V0200601N002610048019N0112651N1+02501+01801999999ADDGA1071+004801999GF107991999999999999999999MA1102101999999REMMET051METAR SBQV 121500Z 06005KT 9999 BKN016 25/18 Q1021;
0120833440999992012011216004-14950-040883FM-15+0914SBQV V0200801N006210048019N0112651N1+02601+02001999999ADDGA1071+004801999GF107991999999999999999999MA1102001999999REMMET051METAR SBQV 121600Z 08012KT 9999 BKN016 26/20 Q1020;
0169833440999992012011217004-14950-040883FM-15+0914SBQV V0200801N004112200019N0112651N1+02701+02001999999ADDGA1021+006001999GA2021+007501021GA3041+027001999GF104991999999999999999999MA1101901999999REMMET068METAR SBQV 121700Z 08008KT 9999 FEW020 FEW025TCU SCT090 27/20 Q1019;
0169833440999992012011218004-14950-040883FM-15+0914SBQV V0200901N005112200019N0112651N1+02501+01701999999ADDGA1021+006001999GA2021+007501021GA3041+027001999GF104991999999999999999999MA1101901999999REMMET068METAR SBQV 121800Z 09010KT 9999 FEW020 FEW025TCU SCT090 25/17 Q1019;
0169833440999992012011219004-14950-040883FM-15+0914SBQV V0200901N005112200019N0112651N1+02701+01601999999ADDGA1021+006001999GA2021+007501021GA3041+027001999GF104991999999999999999999MA1101801999999REMMET068METAR SBQV 121900Z 09010KT 9999 FEW020 FEW025TCU SCT090 27/16 Q1018;
0143833440999992012011220004-14950-040883FM-15+0914SBQV V0200801N005112200019N0112651N1+02601+01601999999ADDGA1021+006001999GA2041+027001999GF104991999999999999999999MA1101801999999REMMET058METAR SBQV 122000Z 08010KT 9999 FEW020 SCT090 26/16 Q1018;
0143833440999992012011221004-14950-040883FM-15+0914SBQV V0201101N005110240019N0112651N1+02301+01901999999ADDGA1021+006001999GA2071+024001999GF107991999999999999999999MA1101901999999REMMET058METAR SBQV 122100Z 11010KT 9999 FEW020 BKN080 23/19 Q1019;
0072833440999992012011222004-14950-040883FM-15+0914SBQV V0201001N005119999999Y0099001N1+02201+01901999999ADDMA1101901999999REMMET045METAR SBQV 122200Z 10010KT CAVOK 22/19 Q1019;
0120833440999992012011311004-14950-040883FM-15+0914SBQV V0200701N005112200019N0112651N1+02201+01801999999ADDGA1041+004501999GF104991999999999999999999MA1102101999999REMMET051METAR SBQV 131100Z 07010KT 9999 SCT015 22/18 Q1021;
0120833440999992012011312004-14950-040883FM-15+0914SBQV V0200601N004612200019N0112651N1+02401+01801999999ADDGA1021+006001999GF102991999999999999999999MA1102101999999REMMET051METAR SBQV 131200Z 06009KT 9999 FEW020 24/18 Q1021;
0120833440999992012011313004-14950-040883FM-15+0914SBQV V0200701N005710075019N0112651N1+02501+01901999999ADDGA1071+007501999GF107991999999999999999999MA1102101999999REMMET051METAR SBQV 131300Z 07011KT 9999 BKN025 25/19 Q1021;
0153833440999992012011314004-14950-040883FM-15+0914SBQV V0200901N005110060019N0112651N1+02501+02001999999ADDGA1041+004801999GA2071+006001999GF107991999999999999999999MA1102101999999MW1611REMMET062METAR SBQV 131400Z 09010KT 9999 -RA SCT016 BKN020 25/20 Q1021;
0166833440999992012011315004-14950-040883FM-15+0914SBQV V0200701N00411004801CN0112651N1+02401+02001999999ADDGA1021+004501999GA2041+004801999GA3071+024001999GF107991999999999999999999MA1102101999999REMMET065METAR SBQV 131500Z 07008KT 9999 FEW015 SCT016 BKN080 24/20 Q1021;
0143833440999992012011316004-14950-040883FM-15+0914SBQV V0200801N005710270019N0112651N1+02601+01701999999ADDGA1041+006001999GA2071+027001999GF107991999999999999999999MA1102001999999REMMET058METAR SBQV 131600Z 08011KT 9999 SCT020 BKN090 26/17 Q1020;
0143833440999992012011317004-14950-040883FM-15+0914SBQV V0200801N004610210019N0112651N1+02701+01801999999ADDGA1041+007501999GA2071+021001999GF107991999999999999999999MA1102001999999REMMET058METAR SBQV 131700Z 08009KT 9999 SCT025 BKN070 27/18 Q1020;
0143833440999992012011318004-14950-040883FM-15+0914SBQV V0200801N004110210019N0112651N1+02601+01901999999ADDGA1041+007501999GA2071+021001999GF107991999999999999999999MA1101901999999REMMET058METAR SBQV 131800Z 08008KT 9999 SCT025 BKN070 26/19 Q1019;
0143833440999992012011319004-14950-040883FM-15+0914SBQV V0201001N004610210019N0112651N1+02601+01801999999ADDGA1041+006001999GA2071+021001999GF107991999999999999999999MA1101901999999REMMET058METAR SBQV 131900Z 10009KT 9999 SCT020 BKN070 26/18 Q1019;
0143833440999992012011321004-14950-040883FM-15+0914SBQV V0201101N004110210019N0112651N1+02301+02001999999ADDGA1021+004501999GA2071+021001999GF107991999999999999999999MA1101901999999REMMET058METAR SBQV 132100Z 11008KT 9999 FEW015 BKN070 23/20 Q1019;
0072833440999992012011322004-14950-040883FM-15+0914SBQV V0201001N003619999999Y0099001N1+02201+02001999999ADDMA1101901999999REMMET045METAR SBQV 132200Z 10007KT CAVOK 22/20 Q1019;
0143833440999992012011411004-14950-040883FM-15+0914SBQV V0200801N004112200019N0112651N1+02301+01901999999ADDGA1021+004501999GA2041+021001999GF104991999999999999999999MA1102101999999REMMET058METAR SBQV 141100Z 08008KT 9999 FEW015 SCT070 23/19 Q1021;
0120833440999992012011412004-14950-040883FM-15+0914SBQV V0200801N004110045019N0112651N1+02301+01901999999ADDGA1071+004501999GF107991999999999999999999MA1102201999999REMMET051METAR SBQV 141200Z 08008KT 9999 BKN015 23/19 Q1022;
0120833440999992012011413004-14950-040883FM-15+0914SBQV V0200801N004110045019N0112651N1+02401+01901999999ADDGA1071+004501999GF107991999999999999999999MA1102201999999REMMET051METAR SBQV 141300Z 08008KT 9999 BKN015 24/19 Q1022;
0120833440999992012011414004-14950-040883FM-15+0914SBQV V0200801N003110048019N0112651N1+02601+02001999999ADDGA1071+004801999GF107991999999999999999999MA1102101999999REMMET051METAR SBQV 141400Z 08006KT 9999 BKN016 26/20 Q1021;
0120833440999992012011415004-14950-040883FM-15+0914SBQV V0200501N005110054019N0112651N1+02701+01901999999ADDGA1071+005401999GF107991999999999999999999MA1102101999999REMMET051METAR SBQV 141500Z 05010KT 9999 BKN018 27/19 Q1021;
0120833440999992012011416004-14950-040883FM-15+0914SBQV V0200501N005712200019N0112651N1+02801+01601999999ADDGA1041+006001999GF104991999999999999999999MA1102001999999REMMET051METAR SBQV 141600Z 05011KT 9999 SCT020 28/16 Q1020;
0120833440999992012011417004-14950-040883FM-15+0914SBQV V0200701N005712200019N0112651N1+02801+01801999999ADDGA1041+006001999GF104991999999999999999999MA1101901999999REMMET051METAR SBQV 141700Z 07011KT 9999 SCT020 28/18 Q1019;
0120833440999992012011418004-14950-040883FM-15+0914SBQV V0200701N005110060019N0112651N1+02701+01801999999ADDGA1071+006001999GF107991999999999999999999MA1101801999999REMMET051METAR SBQV 141800Z 07010KT 9999 BKN020 27/18 Q1018;
0120833440999992012011419004-14950-040883FM-15+0914SBQV V0200901N004112200019N0112651N1+02801+01901999999ADDGA1041+007501999GF104991999999999999999999MA1101801999999REMMET051METAR SBQV 141900Z 09008KT 9999 SCT025 28/19 Q1018;
0120833440999992012011420004-14950-040883FM-15+0914SBQV V0201301N004612200019N0112651N1+02601+02101999999ADDGA1041+007501999GF104991999999999999999999MA1101801999999REMMET051METAR SBQV 142000Z 13009KT 9999 SCT025 26/21 Q1018;
0120833440999992012011421004-14950-040883FM-15+0914SBQV V0201301N005712200019N0112651N1+02201+02101999999ADDGA1021+006001999GF102991999999999999999999MA1101801999999REMMET051METAR SBQV 142100Z 13011KT 9999 FEW020 22/21 Q1018;
0120833440999992012011422004-14950-040883FM-15+0914SBQV V0201101N003612200019N0112651N1+02101+02101999999ADDGA1021+006001999GF102991999999999999999999MA1101901999999REMMET051METAR SBQV 142200Z 11007KT 9999 FEW020 21/21 Q1019;
0120833440999992012011511004-14950-040883FM-15+0914SBQV V0200701N004112200019N0112651N1+02301+01901999999ADDGA1021+003001999GF102991999999999999999999MA1102101999999REMMET051METAR SBQV 151100Z 07008KT 9999 FEW010 23/19 Q1021;
0120833440999992012011512004-14950-040883FM-15+0914SBQV V0200701N005712200019N0112651N1+02501+01801999999ADDGA1021+004801999GF102991999999999999999999MA1102101999999REMMET051METAR SBQV 151200Z 07011KT 9999 FEW016 25/18 Q1021;
0120833440999992012011513004-14950-040883FM-15+0914SBQV V0200601N004612200019N0112651N1+02601+01801999999ADDGA1041+004801999GF104991999999999999999999MA1102101999999REMMET051METAR SBQV 151300Z 06009KT 9999 SCT016 26/18 Q1021;
0120833440999992012011514004-14950-040883FM-15+0914SBQV V0200801N003612200019N0112651N1+02701+01801999999ADDGA1041+005401999GF104991999999999999999999MA1102101999999REMMET051METAR SBQV 151400Z 08007KT 9999 SCT018 27/18 Q1021;
0120833440999992012011515004-14950-040883FM-15+0914SBQV V0200501N004112200019N0112651N1+02801+01701999999ADDGA1041+006001999GF104991999999999999999999MA1102001999999REMMET051METAR SBQV 151500Z 05008KT 9999 SCT020 28/17 Q1020;
0120833440999992012011516004-14950-040883FM-15+0914SBQV V0200401N005110075019N0112651N1+03001+01601999999ADDGA1071+007501999GF107991999999999999999999MA1101901999999REMMET051METAR SBQV 151600Z 04010KT 9999 BKN025 30/16 Q1019;
0120833440999992012011517004-14950-040883FM-15+0914SBQV V0200901N004612200019N0112651N1+03001+01701999999ADDGA1041+009001999GF104991999999999999999999MA1101801999999REMMET051METAR SBQV 151700Z 09009KT 9999 SCT030 30/17 Q1018;
0120833440999992012011518004-14950-040883FM-15+0914SBQV V0200801N005112200019N0112651N1+02801+01601999999ADDGA1041+009001999GF104991999999999999999999MA1101801999999REMMET051METAR SBQV 151800Z 08010KT 9999 SCT030 28/16 Q1018;
0120833440999992012011519004-14950-040883FM-15+0914SBQV V0200601N005112200019N0112651N1+02901+01501999999ADDGA1041+009001999GF104991999999999999999999MA1101691999999REMMET051METAR SBQV 151900Z 06010KT 9999 SCT030 29/15 Q1017;
0120833440999992012011520004-14950-040883FM-15+0914SBQV V0201001N004112200019N0112651N1+02701+01601999999ADDGA1021+009001999GF102991999999999999999999MA1101691999999REMMET051METAR SBQV 152000Z 10008KT 9999 FEW030 27/16 Q1017;
0123833440999992012011521004-14950-040883FM-15+0914SBQV V0200901N005112200019N0112651N1+02601+01801999999ADDGA1021+007501021GF102991999999999999999999MA1101801999999REMMET054METAR SBQV 152100Z 09010KT 9999 FEW025TCU 26/18 Q1018;
0072833440999992012011522004-14950-040883FM-15+0914SBQV V0200801N005719999999Y0099001N1+02401+01701999999ADDMA1101801999999REMMET045METAR SBQV 152200Z 08011KT CAVOK 24/17 Q1018;
0120833440999992012011611004-14950-040883FM-15+0914SBQV V0200501N005112200019N0112651N1+02301+01801999999ADDGA1041+006001999GF104991999999999999999999MA1102101999999REMMET051METAR SBQV 161100Z 05010KT 9999 SCT020 23/18 Q1021;
0120833440999992012011612004-14950-040883FM-15+0914SBQV V0200601N004612200019N0112651N1+02301+01801999999ADDGA1041+007501999GF104991999999999999999999MA1102101999999REMMET051METAR SBQV 161200Z 06009KT 9999 SCT025 23/18 Q1021;
0120833440999992012011613004-14950-040883FM-15+0914SBQV V0200501N003110075019N0112651N1+02501+01701999999ADDGA1071+007501999GF107991999999999999999999MA1102101999999REMMET051METAR SBQV 161300Z 05006KT 9999 BKN025 25/17 Q1021;
0120833440999992012011614004-14950-040883FM-15+0914SBQV V0200901N003610075019N0112651N1+02601+01701999999ADDGA1071+007501999GF107991999999999999999999MA1102101999999REMMET051METAR SBQV 161400Z 09007KT 9999 BKN025 26/17 Q1021;
0120833440999992012011615004-14950-040883FM-15+0914SBQV V0200701N003612200019N0112651N1+02801+01601999999ADDGA1041+009001999GF104991999999999999999999MA1102001999999REMMET051METAR SBQV 161500Z 07007KT 9999 SCT030 28/16 Q1020;
0120833440999992012011616004-14950-040883FM-15+0914SBQV V0201201N004112200019N0112651N1+02801+01701999999ADDGA1041+009001999GF104991999999999999999999MA1101901999999REMMET051METAR SBQV 161600Z 12008KT 9999 SCT030 28/17 Q1019;
0120833440999992012011617004-14950-040883FM-15+0914SBQV V0201301N004612200019N0112651N1+02901+01601999999ADDGA1041+009001999GF104991999999999999999999MA1101801999999REMMET051METAR SBQV 161700Z 13009KT 9999 SCT030 29/16 Q1018;
0120833440999992012011618004-14950-040883FM-15+0914SBQV V0201201N005112200019N0112651N1+02801+01801999999ADDGA1041+009001999GF104991999999999999999999MA1101801999999REMMET051METAR SBQV 161800Z 12010KT 9999 SCT030 28/18 Q1018;
0120833440999992012011619004-14950-040883FM-15+0914SBQV V0201301N005112200019N0112651N1+02701+01701999999ADDGA1041+009001999GF104991999999999999999999MA1101691999999REMMET051METAR SBQV 161900Z 13010KT 9999 SCT030 27/17 Q1017;
0120833440999992012011620004-14950-040883FM-15+0914SBQV V0201301N004112200019N0112651N1+02701+01601999999ADDGA1021+009001999GF102991999999999999999999MA1101691999999REMMET051METAR SBQV 162000Z 13008KT 9999 FEW030 27/16 Q1017;
0120833440999992012011621004-14950-040883FM-15+0914SBQV V0201401N004112200019N0112651N1+02501+01501999999ADDGA1021+007501999GF102991999999999999999999MA1101691999999REMMET051METAR SBQV 162100Z 14008KT 9999 FEW025 25/15 Q1017;
0120833440999992012011622004-14950-040883FM-15+0914SBQV V0201301N003612200019N0112651N1+02301+01601999999ADDGA1021+006001999GF102991999999999999999999MA1101691999999REMMET051METAR SBQV 162200Z 13007KT 9999 FEW020 23/16 Q1017;
0120833440999992012011711004-14950-040883FM-15+0914SBQV V0200501N004112200019N0112651N1+02201+01801999999ADDGA1041+004501999GF104991999999999999999999MA1101901999999REMMET051METAR SBQV 171100Z 05008KT 9999 SCT015 22/18 Q1019;
0120833440999992012011712004-14950-040883FM-15+0914SBQV V0200101N002612200019N0112651N1+02401+01801999999ADDGA1041+004501999GF104991999999999999999999MA1101901999999REMMET051METAR SBQV 171200Z 01005KT 9999 SCT015 24/18 Q1019;
0120833440999992012011713004-14950-040883FM-15+0914SBQV V0200401N003612200019N0112651N1+02501+01601999999ADDGA1041+004801999GF104991999999999999999999MA1101901999999REMMET051METAR SBQV 171300Z 04007KT 9999 SCT016 25/16 Q1019;
0120833440999992012011714004-14950-040883FM-15+0914SBQV V0200201N002610060019N0112651N1+02601+01401999999ADDGA1071+006001999GF107991999999999999999999MA1101901999999REMMET051METAR SBQV 171400Z 02005KT 9999 BKN020 26/14 Q1019;
0120833440999992012011715004-14950-040883FM-15+0914SBQV V0201801N001510075019N0112651N1+02601+01501999999ADDGA1071+007501999GF107991999999999999999999MA1101801999999REMMET051METAR SBQV 171500Z 18003KT 9999 BKN025 26/15 Q1018;
0120833440999992012011716004-14950-040883FM-15+0914SBQV V0201101N003110090019N0112651N1+02801+00801999999ADDGA1071+009001999GF107991999999999999999999MA1101691999999REMMET051METAR SBQV 171600Z 11006KT 9999 BKN030 28/08 Q1017;
0120833440999992012011717004-14950-040883FM-15+0914SBQV V0201001N003610090019N0112651N1+02901+01701999999ADDGA1071+009001999GF107991999999999999999999MA1101591999999REMMET051METAR SBQV 171700Z 10007KT 9999 BKN030 29/17 Q1016;
0120833440999992012011718004-14950-040883FM-15+0914SBQV V0201201N004110090019N0112651N1+02901+01801999999ADDGA1071+009001999GF107991999999999999999999MA1101591999999REMMET051METAR SBQV 171800Z 12008KT 9999 BKN030 29/18 Q1016;
0120833440999992012011719004-14950-040883FM-15+0914SBQV V0201401N004112200019N0112651N1+02801+01701999999ADDGA1021+009001999GF102991999999999999999999MA1101491999999REMMET051METAR SBQV 171900Z 14008KT 9999 FEW030 28/17 Q1015;
0120833440999992012011720004-14950-040883FM-15+0914SBQV V0201401N004112200019N0112651N1+02601+01701999999ADDGA1021+009001999GF102991999999999999999999MA1101591999999REMMET051METAR SBQV 172000Z 14008KT 9999 FEW030 26/17 Q1016;
0120833440999992012011721004-14950-040883FM-15+0914SBQV V0201301N004612200019N0112651N1+02401+01601999999ADDGA1021+007501999GF102991999999999999999999MA1101591999999REMMET051METAR SBQV 172100Z 13009KT 9999 FEW025 24/16 Q1016;
0120833440999992012011722004-14950-040883FM-15+0914SBQV V0201201N003612200019N0112651N1+02301+01601999999ADDGA1021+006001999GF102991999999999999999999MA1101591999999REMMET051METAR SBQV 172200Z 12007KT 9999 FEW020 23/16 Q1016;
0072833440999992012011811004-14950-040883FM-15+0914SBQV V0200801N003619999999Y0099001N1+02201+01701999999ADDMA1101901999999REMMET045METAR SBQV 181100Z 08007KT CAVOK 22/17 Q1019;
0072833440999992012011812004-14950-040883FM-15+0914SBQV V0201101N004119999999Y0099001N1+02501+01701999999ADDMA1101901999999REMMET045METAR SBQV 181200Z 11008KT CAVOK 25/17 Q1019;
0120833440999992012011813004-14950-040883FM-15+0914SBQV V0201001N004112200019N0112651N1+02601+01701999999ADDGA1021+009001999GF102991999999999999999999MA1101901999999REMMET051METAR SBQV 181300Z 10008KT 9999 FEW030 26/17 Q1019;
0120833440999992012011814004-14950-040883FM-15+0914SBQV V0200601N003112200019N0112651N1+02801+01601999999ADDGA1041+010501999GF104991999999999999999999MA1101901999999REMMET051METAR SBQV 181400Z 06006KT 9999 SCT035 28/16 Q1019;
0120833440999992012011815004-14950-040883FM-15+0914SBQV V0201201N004112200019N0112651N1+02801+01501999999ADDGA1041+010501999GF104991999999999999999999MA1101801999999REMMET051METAR SBQV 181500Z 12008KT 9999 SCT035 28/15 Q1018;
0120833440999992012011816004-14950-040883FM-15+0914SBQV V0201501N004112200019N0112651N1+02801+01501999999ADDGA1021+010501999GF102991999999999999999999MA1101691999999REMMET051METAR SBQV 181600Z 15008KT 9999 FEW035 28/15 Q1017;
0120833440999992012011817004-14950-040883FM-15+0914SBQV V0201301N004612200019N0112651N1+02601+01501999999ADDGA1041+010501999GF104991999999999999999999MA1101591999999REMMET051METAR SBQV 181700Z 13009KT 9999 SCT035 26/15 Q1016;
0120833440999992012011818004-14950-040883FM-15+0914SBQV V0201501N004612200019N0112651N1+02801+01401999999ADDGA1021+010501999GF102991999999999999999999MA1101591999999REMMET051METAR SBQV 181800Z 15009KT 9999 FEW035 28/14 Q1016;
0120833440999992012011819004-14950-040883FM-15+0914SBQV V0201301N005712200019N0112651N1+02701+01501999999ADDGA1021+010501999GF102991999999999999999999MA1101591999999REMMET051METAR SBQV 181900Z 13011KT 9999 FEW035 27/15 Q1016;
0120833440999992012011820004-14950-040883FM-15+0914SBQV V0201401N006212200019N0112651N1+02601+01301999999ADDGA1021+010501999GF102991999999999999999999MA1101491999999REMMET051METAR SBQV 182000Z 14012KT 9999 FEW035 26/13 Q1015;
0120833440999992012011821004-14950-040883FM-15+0914SBQV V0201301N004612200019N0112651N1+02401+01401999999ADDGA1021+009001999GF102991999999999999999999MA1101491999999REMMET051METAR SBQV 182100Z 13009KT 9999 FEW030 24/14 Q1015;
0072833440999992012011822004-14950-040883FM-15+0914SBQV V0201301N003619999999Y0099001N1+02201+01601999999ADDMA1101591999999REMMET045METAR SBQV 182200Z 13007KT CAVOK 22/16 Q1016;
0120833440999992012011911004-14950-040883FM-15+0914SBQV V0200801N004110045019N0112651N1+02001+01701999999ADDGA1071+004501999GF107991999999999999999999MA1101901999999REMMET051METAR SBQV 191100Z 08008KT 9999 BKN015 20/17 Q1019;
0120833440999992012011912004-14950-040883FM-15+0914SBQV V0200801N004610045019N0112651N1+02301+01801999999ADDGA1071+004501999GF107991999999999999999999MA1101901999999REMMET051METAR SBQV 191200Z 08009KT 9999 BKN015 23/18 Q1019;
0120833440999992012011913004-14950-040883FM-15+0914SBQV V0200901N004110048019N0112651N1+02401+01701999999ADDGA1071+004801999GF107991999999999999999999MA1101901999999REMMET051METAR SBQV 191300Z 09008KT 9999 BKN016 24/17 Q1019;
0120833440999992012011914004-14950-040883FM-15+0914SBQV V0200901N003110048019N0112651N1+02501+01701999999ADDGA1071+004801999GF107991999999999999999999MA1101801999999REMMET051METAR SBQV 191400Z 09006KT 9999 BKN016 25/17 Q1018;
0120833440999992012011915004-14950-040883FM-15+0914SBQV V0200901N003110054019N0112651N1+02601+01701999999ADDGA1071+005401999GF107991999999999999999999MA1101801999999REMMET051METAR SBQV 191500Z 09006KT 9999 BKN018 26/17 Q1018;
0120833440999992012011916004-14950-040883FM-15+0914SBQV V0201301N006210060019N0112651N1+02601+01901999999ADDGA1071+006001999GF107991999999999999999999MA1101691999999REMMET051METAR SBQV 191600Z 13012KT 9999 BKN020 26/19 Q1017;
0120833440999992012011917004-14950-040883FM-15+0914SBQV V0201301N004110075019N0112651N1+02801+01901999999ADDGA1071+007501999GF107991999999999999999999MA1101591999999REMMET051METAR SBQV 191700Z 13008KT 9999 BKN025 28/19 Q1016;
0120833440999992012011918004-14950-040883FM-15+0914SBQV V0201401N005710075019N0112651N1+02701+02001999999ADDGA1071+007501999GF107991999999999999999999MA1101591999999REMMET051METAR SBQV 191800Z 14011KT 9999 BKN025 27/20 Q1016;
0120833440999992012011919004-14950-040883FM-15+0914SBQV V0201101N005712200019N0112651N1+02601+01801999999ADDGA1021+006001999GF102991999999999999999999MA1101591999999REMMET051METAR SBQV 191900Z 11011KT 9999 FEW020 26/18 Q1016;
0120833440999992012011920004-14950-040883FM-15+0914SBQV V0201201N006212200019N0112651N1+02501+01901999999ADDGA1021+006001999GF102991999999999999999999MA1101591999999REMMET051METAR SBQV 192000Z 12012KT 9999 FEW020 25/19 Q1016;
0120833440999992012011921004-14950-040883FM-15+0914SBQV V0201001N007212200019N0112651N1+02301+01901999999ADDGA1021+005401999GF102991999999999999999999MA1101591999999REMMET051METAR SBQV 192100Z 10014KT 9999 FEW018 23/19 Q1016;
0120833440999992012011922004-14950-040883FM-15+0914SBQV V0200901N006210045019N0112651N1+02101+01901999999ADDGA1071+004501999GF107991999999999999999999MA1101691999999REMMET051METAR SBQV 192200Z 09012KT 9999 BKN015 21/19 Q1017;
0120833440999992012012018004-14950-040883FM-15+0914SBQV V0201301N005112200019N0112651N1+02801+01801999999ADDGA1041+009001999GF104991999999999999999999MA1101691999999REMMET051METAR SBQV 201800Z 13010KT 9999 SCT030 28/18 Q1017;
0120833440999992012012019004-14950-040883FM-15+0914SBQV V0201301N005112200019N0112651N1+02701+01801999999ADDGA1021+007501999GF102991999999999999999999MA1101691999999REMMET051METAR SBQV 201900Z 13010KT 9999 FEW025 27/18 Q1017;
0120833440999992012012020004-14950-040883FM-15+0914SBQV V0201101N005112200019N0112651N1+02601+01801999999ADDGA1021+007501999GF102991999999999999999999MA1101691999999REMMET051METAR SBQV 202000Z 11010KT 9999 FEW025 26/18 Q1017;
0072833440999992012012022004-14950-040883FM-15+0914SBQV V0201001N004619999999Y0099001N1+02301+01801999999ADDMA1101691999999REMMET045METAR SBQV 202200Z 10009KT CAVOK 23/18 Q1017;
0120833440999992012012111004-14950-040883FM-15+0914SBQV V0201001N005110045019N0112651N1+02101+01801999999ADDGA1071+004501999GF107991999999999999999999MA1101901999999REMMET051METAR SBQV 211100Z 10010KT 9999 BKN015 21/18 Q1019;
0120833440999992012012112004-14950-040883FM-15+0914SBQV V0200901N004610048019N0112651N1+02201+01701999999ADDGA1071+004801999GF107991999999999999999999MA1102001999999REMMET051METAR SBQV 211200Z 09009KT 9999 BKN016 22/17 Q1020;
0120833440999992012012113004-14950-040883FM-15+0914SBQV V0201101N004110060019N0112651N1+02501+01801999999ADDGA1071+006001999GF107991999999999999999999MA1102001999999REMMET051METAR SBQV 211300Z 11008KT 9999 BKN020 25/18 Q1020;
0120833440999992012012114004-14950-040883FM-15+0914SBQV V0201101N003610060019N0112651N1+02501+01701999999ADDGA1071+006001999GF107991999999999999999999MA1101901999999REMMET051METAR SBQV 211400Z 11007KT 9999 BKN020 25/17 Q1019;
0120833440999992012012115004-14950-040883FM-15+0914SBQV V0201101N004110075019N0112651N1+02701+01801999999ADDGA1071+007501999GF107991999999999999999999MA1101901999999REMMET051METAR SBQV 211500Z 11008KT 9999 BKN025 27/18 Q1019;
0120833440999992012012116004-14950-040883FM-15+0914SBQV V0201101N003112200019N0112651N1+02701+01701999999ADDGA1041+007501999GF104991999999999999999999MA1101801999999REMMET051METAR SBQV 211600Z 11006KT 9999 SCT025 27/17 Q1018;
0120833440999992012012117004-14950-040883FM-15+0914SBQV V0201301N003610075019N0112651N1+02801+01701999999ADDGA1071+007501999GF107991999999999999999999MA1101691999999REMMET051METAR SBQV 211700Z 13007KT 9999 BKN025 28/17 Q1017;
0120833440999992012012118004-14950-040883FM-15+0914SBQV V0201401N003610075019N0112651N1+02801+01801999999ADDGA1071+007501999GF107991999999999999999999MA1101591999999REMMET051METAR SBQV 211800Z 14007KT 9999 BKN025 28/18 Q1016;
0120833440999992012012119004-14950-040883FM-15+0914SBQV V0201401N004110075019N0112651N1+02801+01701999999ADDGA1071+007501999GF107991999999999999999999MA1101591999999REMMET051METAR SBQV 211900Z 14008KT 9999 BKN025 28/17 Q1016;
0120833440999992012012120004-14950-040883FM-15+0914SBQV V0201401N006212200019N0112651N1+02501+01901999999ADDGA1041+006001999GF104991999999999999999999MA1101591999999REMMET051METAR SBQV 212000Z 14012KT 9999 SCT020 25/19 Q1016;
0120833440999992012012121004-14950-040883FM-15+0914SBQV V0201101N007212200019N0112651N1+02401+02001999999ADDGA1041+005401999GF104991999999999999999999MA1101591999999REMMET051METAR SBQV 212100Z 11014KT 9999 SCT018 24/20 Q1016;
0120833440999992012012122004-14950-040883FM-15+0914SBQV V0200901N006212200019N0112651N1+02201+01901999999ADDGA1021+004801999GF102991999999999999999999MA1101591999999REMMET051METAR SBQV 212200Z 09012KT 9999 FEW016 22/19 Q1016;
0120833440999992012012123004-14950-040883FM-15+0914SBQV V0201001N005112200019N0112651N1+02001+01901999999ADDGA1021+004501999GF102991999999999999999999MA1101591999999REMMET051METAR SBQV 212300Z 10010KT 9999 FEW015 20/19 Q1016;
0120833440999992012012211004-14950-040883FM-15+0914SBQV V0201001N005712200019N0112651N1+02101+01801999999ADDGA1041+003601999GF104991999999999999999999MA1101801999999REMMET051METAR SBQV 221100Z 10011KT 9999 SCT012 21/18 Q1018;
0120833440999992012012212004-14950-040883FM-15+0914SBQV V0200901N005710045019N0112651N1+02301+01801999999ADDGA1071+004501999GF107991999999999999999999MA1101901999999REMMET051METAR SBQV 221200Z 09011KT 9999 BKN015 23/18 Q1019;
0120833440999992012012213004-14950-040883FM-15+0914SBQV V0200901N006710048019N0112651N1+02501+01701999999ADDGA1071+004801999GF107991999999999999999999MA1101901999999REMMET051METAR SBQV 221300Z 09013KT 9999 BKN016 25/17 Q1019;
0120833440999992012012214004-14950-040883FM-15+0914SBQV V0201001N004110048019N0112651N1+02401+01701999999ADDGA1071+004801999GF107991999999999999999999MA1101801999999REMMET051METAR SBQV 221400Z 10008KT 9999 BKN016 24/17 Q1018;
0120833440999992012012215004-14950-040883FM-15+0914SBQV V0201101N005110054019N0112651N1+02701+01701999999ADDGA1071+005401999GF107991999999999999999999MA1101801999999REMMET051METAR SBQV 221500Z 11010KT 9999 BKN018 27/17 Q1018;
0120833440999992012012216004-14950-040883FM-15+0914SBQV V0201101N003610060019N0112651N1+02601+01601999999ADDGA1071+006001999GF107991999999999999999999MA1101801999999REMMET051METAR SBQV 221600Z 11007KT 9999 BKN020 26/16 Q1018;
0146833440999992012012217004-14950-040883FM-15+0914SBQV V0201201N004110075019N0112651N1+02701+01701999999ADDGA1021+006001021GA2071+007501999GF107991999999999999999999MA1101691999999REMMET061METAR SBQV 221700Z 12008KT 9999 FEW020TCU BKN025 27/17 Q1017;
0120833440999992012012218004-14950-040883FM-15+0914SBQV V0201101N004610090019N0112651N1+02901+01601999999ADDGA1071+009001999GF107991999999999999999999MA1101591999999REMMET051METAR SBQV 221800Z 11009KT 9999 BKN030 29/16 Q1016;
0120833440999992012012219004-14950-040883FM-15+0914SBQV V0201301N006212200019N0112651N1+02601+01901999999ADDGA1041+007501999GF104991999999999999999999MA1101591999999REMMET051METAR SBQV 221900Z 13012KT 9999 SCT025 26/19 Q1016;
0120833440999992012012220004-14950-040883FM-15+0914SBQV V0201301N006712200019N0112651N1+02501+01801999999ADDGA1021+007501999GF102991999999999999999999MA1101591999999REMMET051METAR SBQV 222000Z 13013KT 9999 FEW025 25/18 Q1016;
0120833440999992012012221004-14950-040883FM-15+0914SBQV V0201101N006712200019N0112651N1+02301+01801999999ADDGA1021+007501999GF102991999999999999999999MA1101591999999REMMET051METAR SBQV 222100Z 11013KT 9999 FEW025 23/18 Q1016;
0120833440999992012012222004-14950-040883FM-15+0914SBQV V0201001N005712200019N0112651N1+02101+01801999999ADDGA1021+006001999GF102991999999999999999999MA1101591999999REMMET051METAR SBQV 222200Z 10011KT 9999 FEW020 21/18 Q1016;
0120833440999992012012311004-14950-040883FM-15+0914SBQV V0201001N005110039019N0112651N1+02101+01801999999ADDGA1071+003901999GF107991999999999999999999MA1101901999999REMMET051METAR SBQV 231100Z 10010KT 9999 BKN013 21/18 Q1019;
0136833440999992012012312004-14950-040883FM-15+0914SBQV V0200801N00361003901CN0112651N1+02201+01801999999ADDGA1071+003901999GA2041+004501999MA1101901999999REMMET058METAR SBQV 231200Z 08007KT 9999 BKN013 SCT015 22/18 Q1019;EQDQ01+000042SCOTCV
0143833440999992012012313004-14950-040883FM-15+0914SBQV V0201101N00361003901CN0112651N1+02201+01901999999ADDGA1071+003901999GA2041+004501999MA1101901999999REMMET065METAR SBQV 231300Z 11007KT 9999 2000SE BKN013 SCT015 22/19 Q1019;EQDQ01+000042SCOTCV
0146833440999992012012314004-14950-040883FM-15+0914SBQV V0200601N002610048019N0112651N1+02401+01901999999ADDGA1021+004501021GA2071+004801999GF107991999999999999999999MA1101901999999REMMET061METAR SBQV 231400Z 06005KT 9999 FEW015TCU BKN016 24/19 Q1019;
0146833440999992012012315004-14950-040883FM-15+0914SBQV V0200801N002110060019N0112651N1+02401+02001999999ADDGA1021+005401021GA2071+006001999GF107991999999999999999999MA1101801999999REMMET061METAR SBQV 231500Z 08004KT 9999 FEW018TCU BKN020 24/20 Q1018;
0146833440999992012012316004-14950-040883FM-15+0914SBQV V0201401N005110060019N0112651N1+02401+02001999999ADDGA1021+005401021GA2071+006001999GF107991999999999999999999MA1101691999999REMMET061METAR SBQV 231600Z 14010KT 9999 FEW018TCU BKN020 24/20 Q1017;
0146833440999992012012317004-14950-040883FM-15+0914SBQV V0201001N005112200019N0112651N1+02701+01801999999ADDGA1021+006001021GA2041+007501999GF104991999999999999999999MA1101691999999REMMET061METAR SBQV 231700Z 10010KT 9999 FEW020TCU SCT025 27/18 Q1017;
0123833440999992012012318004-14950-040883FM-15+0914SBQV V0201201N005112200019N0112651N1+02701+01801999999ADDGA1021+006001021GF102991999999999999999999MA1101591999999REMMET054METAR SBQV 231800Z 12010KT 9999 FEW020TCU 27/18 Q1016;
0146833440999992012012319004-14950-040883FM-15+0914SBQV V0201401N006712200019N0112651N1+02501+02001999999ADDGA1021+006001021GA2041+007501999GF104991999999999999999999MA1101591999999REMMET061METAR SBQV 231900Z 14013KT 9999 FEW020TCU SCT025 25/20 Q1016;
0146833440999992012012320004-14950-040883FM-15+0914SBQV V0201101N006212200019N0112651N1+02401+01701999999ADDGA1021+005401021GA2041+006001999GF104991999999999999999999MA1101591999999REMMET061METAR SBQV 232000Z 11012KT 9999 FEW018TCU SCT020 24/17 Q1016;
0120833440999992012012321004-14950-040883FM-15+0914SBQV V0201101N006212200019N0112651N1+02201+01901999999ADDGA1021+005401999GF102991999999999999999999MA1101591999999REMMET051METAR SBQV 232100Z 11012KT 9999 FEW018 22/19 Q1016;
0120833440999992012012322004-14950-040883FM-15+0914SBQV V0201001N004612200019N0112651N1+02101+01901999999ADDGA1021+004801999GF102991999999999999999999MA1101691999999REMMET051METAR SBQV 232200Z 10009KT 9999 FEW016 21/19 Q1017;
0120833440999992012012411004-14950-040883FM-15+0914SBQV V0200901N005110045019N0112651N1+02101+01801999999ADDGA1071+004501999GF107991999999999999999999MA1101901999999REMMET051METAR SBQV 241100Z 09010KT 9999 BKN015 21/18 Q1019;
0120833440999992012012412004-14950-040883FM-15+0914SBQV V0201001N004610045019N0112651N1+02201+01901999999ADDGA1071+004501999GF107991999999999999999999MA1101901999999REMMET051METAR SBQV 241200Z 10009KT 9999 BKN015 22/19 Q1019;
0143833440999992012012413004-14950-040883FM-15+0914SBQV V0200701N004112200019N0112651N1+02101+01901999999ADDGA1041+004501999GA2041+021001999GF104991999999999999999999MA1102001999999REMMET058METAR SBQV 241300Z 07008KT 9999 SCT015 SCT070 21/19 Q1020;
0143833440999992012012414004-14950-040883FM-15+0914SBQV V0200701N003612200019N0112651N1+02501+01801999999ADDGA1041+004501999GA2041+004801999GF104991999999999999999999MA1101901999999REMMET058METAR SBQV 241400Z 07007KT 9999 SCT015 SCT016 25/18 Q1019;
0120833440999992012012415004-14950-040883FM-15+0914SBQV V0201101N005710048019N0112651N1+02601+01701999999ADDGA1071+004801999GF107991999999999999999999MA1101801999999REMMET051METAR SBQV 241500Z 11011KT 9999 BKN016 26/17 Q1018;
0120833440999992012012416004-14950-040883FM-15+0914SBQV V0201201N004110048019N0112651N1+02601+01801999999ADDGA1071+004801999GF107991999999999999999999MA1101801999999REMMET051METAR SBQV 241600Z 12008KT 9999 BKN016 26/18 Q1018;
0146833440999992012012417004-14950-040883FM-15+0914SBQV V0201101N004610054019N0112651N1+02601+01801999999ADDGA1021+004801021GA2071+005401999GF107991999999999999999999MA1101801999999REMMET061METAR SBQV 241700Z 11009KT 9999 FEW016TCU BKN018 26/18 Q1018;
0146833440999992012012418004-14950-040883FM-15+0914SBQV V0200901N007712200019N0112651N1+02301+01801999999ADDGA1021+004801021GA2041+005401999GF104991999999999999999999MA1101801999999REMMET061METAR SBQV 241800Z 09015KT 9999 FEW016TCU SCT018 23/18 Q1018;
0143833440999992012012419004-14950-040883FM-15+0914SBQV V0200701N002612200019N0112651N1+02401+01601999999ADDGA1041+005401999GA2041+024001999GF104991999999999999999999MA1101691999999REMMET058METAR SBQV 241900Z 07005KT 9999 SCT018 SCT080 24/16 Q1017;
0143833440999992012012420004-14950-040883FM-15+0914SBQV V0201001N002612200019N0112651N1+02401+01701999999ADDGA1021+004801999GA2041+021001999GF104991999999999999999999MA1101691999999REMMET058METAR SBQV 242000Z 10005KT 9999 FEW016 SCT070 24/17 Q1017;
0143833440999992012012421004-14950-040883FM-15+0914SBQV V0201201N003612200019N0112651N1+02201+01801999999ADDGA1021+004501999GA2041+021001999GF104991999999999999999999MA1101691999999REMMET058METAR SBQV 242100Z 12007KT 9999 FEW015 SCT070 22/18 Q1017;
0120833440999992012012511004-14950-040883FM-15+0914SBQV V0200801N003610045019N0112651N1+02001+01701999999ADDGA1071+004501999GF107991999999999999999999MA1102001999999REMMET051METAR SBQV 251100Z 08007KT 9999 BKN015 20/17 Q1020;
0120833440999992012012512004-14950-040883FM-15+0914SBQV V0200701N004110045019N0112651N1+02301+01701999999ADDGA1071+004501999GF107991999999999999999999MA1102001999999REMMET051METAR SBQV 251200Z 07008KT 9999 BKN015 23/17 Q1020;
0120833440999992012012513004-14950-040883FM-15+0914SBQV V0200701N004112200019N0112651N1+02501+01601999999ADDGA1041+005401999GF104991999999999999999999MA1102001999999REMMET051METAR SBQV 251300Z 07008KT 9999 SCT018 25/16 Q1020;
0120833440999992012012514004-14950-040883FM-15+0914SBQV V0200701N003610060019N0112651N1+02601+01501999999ADDGA1071+006001999GF107991999999999999999999MA1101901999999REMMET051METAR SBQV 251400Z 07007KT 9999 BKN020 26/15 Q1019;
0120833440999992012012515004-14950-040883FM-15+0914SBQV V0200901N003612200019N0112651N1+02801+01501999999ADDGA1041+007501999GF104991999999999999999999MA1101801999999REMMET051METAR SBQV 251500Z 09007KT 9999 SCT025 28/15 Q1018;
0120833440999992012012516004-14950-040883FM-15+0914SBQV V0201101N004112200019N0112651N1+02901+01501999999ADDGA1041+007501999GF104991999999999999999999MA1101801999999REMMET051METAR SBQV 251600Z 11008KT 9999 SCT025 29/15 Q1018;
0120833440999992012012517004-14950-040883FM-15+0914SBQV V0201201N004612200019N0112651N1+02801+01501999999ADDGA1041+007501999GF104991999999999999999999MA1101691999999REMMET051METAR SBQV 251700Z 12009KT 9999 SCT025 28/15 Q1017;
0120833440999992012012518004-14950-040883FM-15+0914SBQV V0201301N004612200019N0112651N1+02901+01601999999ADDGA1041+009001999GF104991999999999999999999MA1101591999999REMMET051METAR SBQV 251800Z 13009KT 9999 SCT030 29/16 Q1016;
0120833440999992012012519004-14950-040883FM-15+0914SBQV V0201301N005112200019N0112651N1+02801+01601999999ADDGA1041+009001999GF104991999999999999999999MA1101591999999REMMET051METAR SBQV 251900Z 13010KT 9999 SCT030 28/16 Q1016;
0120833440999992012012520004-14950-040883FM-15+0914SBQV V0201201N005712200019N0112651N1+02701+01401999999ADDGA1021+009001999GF102991999999999999999999MA1101591999999REMMET051METAR SBQV 252000Z 12011KT 9999 FEW030 27/14 Q1016;
0120833440999992012012521004-14950-040883FM-15+0914SBQV V0201301N005712200019N0112651N1+02401+01701999999ADDGA1021+007501999GF102991999999999999999999MA1101591999999REMMET051METAR SBQV 252100Z 13011KT 9999 FEW025 24/17 Q1016;
0120833440999992012012522004-14950-040883FM-15+0914SBQV V0201201N004112200019N0112651N1+02201+01701999999ADDGA1021+006001999GF102991999999999999999999MA1101691999999REMMET051METAR SBQV 252200Z 12008KT 9999 FEW020 22/17 Q1017;
0120833440999992012012611004-14950-040883FM-15+0914SBQV V0200901N002612200019N0112651N1+02301+01801999999ADDGA1021+004801999GF102991999999999999999999MA1101801999999REMMET051METAR SBQV 261100Z 09005KT 9999 FEW016 23/18 Q1018;
0120833440999992012012612004-14950-040883FM-15+0914SBQV V0200101N001512200019N0112651N1+02501+01701999999ADDGA1021+006001999GF102991999999999999999999MA1101801999999REMMET051METAR SBQV 261200Z 01003KT 9999 FEW020 25/17 Q1018;
0120833440999992012012613004-14950-040883FM-15+0914SBQV V0200401N003112200019N0112651N1+02601+01701999999ADDGA1021+007501999GF102991999999999999999999MA1101901999999REMMET051METAR SBQV 261300Z 04006KT 9999 FEW025 26/17 Q1019;
0120833440999992012012614004-14950-040883FM-15+0914SBQV V0200601N002612200019N0112651N1+02801+01501999999ADDGA1041+007501999GF104991999999999999999999MA1101801999999REMMET051METAR SBQV 261400Z 06005KT 9999 SCT025 28/15 Q1018;
0120833440999992012012615004-14950-040883FM-15+0914SBQV V0201201N002112200019N0112651N1+02901+01401999999ADDGA1041+007501999GF104991999999999999999999MA1101691999999REMMET051METAR SBQV 261500Z 12004KT 9999 SCT025 29/14 Q1017;
0120833440999992012012616004-14950-040883FM-15+0914SBQV V0200501N003112200019N0112651N1+03001+01401999999ADDGA1041+009001999GF104991999999999999999999MA1101691999999REMMET051METAR SBQV 261600Z 05006KT 9999 SCT030 30/14 Q1017;
0120833440999992012012617004-14950-040883FM-15+0914SBQV V0201001N004610090019N0112651N1+02901+01701999999ADDGA1071+009001999GF107991999999999999999999MA1101591999999REMMET051METAR SBQV 261700Z 10009KT 9999 BKN030 29/17 Q1016;
0143833440999992012012618004-14950-040883FM-15+0914SBQV V0201401N005112200019N0112651N1+02901+01901999999ADDGA1041+009001999GA2041+027001999GF104991999999999999999999MA1101491999999REMMET058METAR SBQV 261800Z 14010KT 9999 SCT030 SCT090 29/19 Q1015;
0120833440999992012012619004-14950-040883FM-15+0914SBQV V0201301N005112200019N0112651N1+02901+01801999999ADDGA1041+009001999GF104991999999999999999999MA1101491999999REMMET051METAR SBQV 261900Z 13010KT 9999 SCT030 29/18 Q1015;
0120833440999992012012620004-14950-040883FM-15+0914SBQV V0201301N006212200019N0112651N1+02801+01701999999ADDGA1041+007501999GF104991999999999999999999MA1101491999999REMMET051METAR SBQV 262000Z 13012KT 9999 SCT025 28/17 Q1015;
0120833440999992012012621004-14950-040883FM-15+0914SBQV V0201201N005712200019N0112651N1+02501+01701999999ADDGA1021+006001999GF102991999999999999999999MA1101491999999REMMET051METAR SBQV 262100Z 12011KT 9999 FEW020 25/17 Q1015;
0120833440999992012012622004-14950-040883FM-15+0914SBQV V0201001N004112200019N0112651N1+02401+01801999999ADDGA1021+004801999GF102991999999999999999999MA1101491999999REMMET051METAR SBQV 262200Z 10008KT 9999 FEW016 24/18 Q1015;
0120833440999992012012711004-14950-040883FM-15+0914SBQV V0200401N002612200019N0112651N1+02001+01701999999ADDGA1041+003601999GF104991999999999999999999MA1101801999999REMMET051METAR SBQV 271100Z 04005KT 9999 SCT012 20/17 Q1018;
0120833440999992012012712004-14950-040883FM-15+0914SBQV V0200501N004112200019N0112651N1+02401+01801999999ADDGA1041+004501999GF104991999999999999999999MA1101801999999REMMET051METAR SBQV 271200Z 05008KT 9999 SCT015 24/18 Q1018;
0120833440999992012012713004-14950-040883FM-15+0914SBQV V0200501N003610045019N0112651N1+02501+01801999999ADDGA1071+004501999GF107991999999999999999999MA1101801999999REMMET051METAR SBQV 271300Z 05007KT 9999 BKN015 25/18 Q1018;
0120833440999992012012714004-14950-040883FM-15+0914SBQV V0200101N003610048019N0112651N1+02501+01701999999ADDGA1071+004801999GF107991999999999999999999MA1101801999999REMMET051METAR SBQV 271400Z 01007KT 9999 BKN016 25/17 Q1018;
0120833440999992012012715004-14950-040883FM-15+0914SBQV V0200701N002110054019N0112651N1+02701+01701999999ADDGA1071+005401999GF107991999999999999999999MA1101691999999REMMET051METAR SBQV 271500Z 07004KT 9999 BKN018 27/17 Q1017;
0120833440999992012012716004-14950-040883FM-15+0914SBQV V0200501N002110060019N0112651N1+02701+01601999999ADDGA1071+006001999GF107991999999999999999999MA1101591999999REMMET051METAR SBQV 271600Z 05004KT 9999 BKN020 27/16 Q1016;
0120833440999992012012717004-14950-040883FM-15+0914SBQV V0201201N004110075019N0112651N1+03001+01701999999ADDGA1071+007501999GF107991999999999999999999MA1101591999999REMMET051METAR SBQV 271700Z 12008KT 9999 BKN025 30/17 Q1016;
0120833440999992012012718004-14950-040883FM-15+0914SBQV V0201201N004112200019N0112651N1+02901+01901999999ADDGA1041+007501999GF104991999999999999999999MA1101491999999REMMET051METAR SBQV 271800Z 12008KT 9999 SCT025 29/19 Q1015;
0120833440999992012012719004-14950-040883FM-15+0914SBQV V0201301N004612200019N0112651N1+02901+01901999999ADDGA1041+007501999GF104991999999999999999999MA1101391999999REMMET051METAR SBQV 271900Z 13009KT 9999 SCT025 29/19 Q1014;
0120833440999992012012720004-14950-040883FM-15+0914SBQV V0201101N004112200019N0112651N1+02801+01801999999ADDGA1021+007501999GF102991999999999999999999MA1101491999999REMMET051METAR SBQV 272000Z 11008KT 9999 FEW025 28/18 Q1015;
0120833440999992012012721004-14950-040883FM-15+0914SBQV V0201201N004112200019N0112651N1+02501+01801999999ADDGA1021+006001999GF102991999999999999999999MA1101491999999REMMET051METAR SBQV 272100Z 12008KT 9999 FEW020 25/18 Q1015;
0072833440999992012012722004-14950-040883FM-15+0914SBQV V0201201N002619999999Y0099001N1+02301+01801999999ADDMA1101491999999REMMET045METAR SBQV 272200Z 12005KT CAVOK 23/18 Q1015;
0120833440999992012012811004-14950-040883FM-15+0914SBQV V0200101N003612200019N0112651N1+02201+01801999999ADDGA1021+004501999GF102991999999999999999999MA1101901999999REMMET051METAR SBQV 281100Z 01007KT 9999 FEW015 22/18 Q1019;
0120833440999992012012812004-14950-040883FM-15+0914SBQV V0200401N003112200019N0112651N1+02501+01801999999ADDGA1021+006001999GF102991999999999999999999MA1101901999999REMMET051METAR SBQV 281200Z 04006KT 9999 FEW020 25/18 Q1019;
0120833440999992012012813004-14950-040883FM-15+0914SBQV V0200201N003110060019N0112651N1+02601+01701999999ADDGA1071+006001999GF107991999999999999999999MA1102001999999REMMET051METAR SBQV 281300Z 02006KT 9999 BKN020 26/17 Q1020;
0120833440999992012012814004-14950-040883FM-15+0914SBQV V0200601N001510075019N0112651N1+02801+01701999999ADDGA1071+007501999GF107991999999999999999999MA1101901999999REMMET051METAR SBQV 281400Z 06003KT 9999 BKN025 28/17 Q1019;
0120833440999992012012815004-14950-040883FM-15+0914SBQV V0200901N003112200019N0112651N1+02901+01701999999ADDGA1041+009001999GF104991999999999999999999MA1101801999999REMMET051METAR SBQV 281500Z 09006KT 9999 SCT030 29/17 Q1018;
0120833440999992012012816004-14950-040883FM-15+0914SBQV V0201101N003112200019N0112651N1+02901+01601999999ADDGA1021+009001999GF102991999999999999999999MA1101801999999REMMET051METAR SBQV 281600Z 11006KT 9999 FEW030 29/16 Q1018;
0120833440999992012012817004-14950-040883FM-15+0914SBQV V0201501N004612200019N0112651N1+03001+01601999999ADDGA1041+009001999GF104991999999999999999999MA1101691999999REMMET051METAR SBQV 281700Z 15009KT 9999 SCT030 30/16 Q1017;
0120833440999992012012818004-14950-040883FM-15+0914SBQV V0201401N004612200019N0112651N1+03001+01701999999ADDGA1021+010501999GF102991999999999999999999MA1101591999999REMMET051METAR SBQV 281800Z 14009KT 9999 FEW035 30/17 Q1016;
0120833440999992012012819004-14950-040883FM-15+0914SBQV V0201401N004612200019N0112651N1+02901+01601999999ADDGA1021+010501999GF102991999999999999999999MA1101591999999REMMET051METAR SBQV 281900Z 14009KT 9999 FEW035 29/16 Q1016;
0120833440999992012012820004-14950-040883FM-15+0914SBQV V0201201N004612200019N0112651N1+02801+01601999999ADDGA1021+010501999GF102991999999999999999999MA1101591999999REMMET051METAR SBQV 282000Z 12009KT 9999 FEW035 28/16 Q1016;
0120833440999992012012821004-14950-040883FM-15+0914SBQV V0201201N004612200019N0112651N1+02601+01601999999ADDGA1021+009001999GF102991999999999999999999MA1101591999999REMMET051METAR SBQV 282100Z 12009KT 9999 FEW030 26/16 Q1016;
0072833440999992012012822004-14950-040883FM-15+0914SBQV V0201201N003619999999Y0099001N1+02401+01601999999ADDMA1101691999999REMMET045METAR SBQV 282200Z 12007KT CAVOK 24/16 Q1017;
0120833440999992012012911004-14950-040883FM-15+0914SBQV V0200701N004612200019N0112651N1+02201+01701999999ADDGA1021+003601999GF102991999999999999999999MA1101801999999REMMET051METAR SBQV 291100Z 07009KT 9999 FEW012 22/17 Q1018;
0120833440999992012012912004-14950-040883FM-15+0914SBQV V0200801N004612200019N0112651N1+02301+01701999999ADDGA1021+004501999GF102991999999999999999999MA1101801999999REMMET051METAR SBQV 291200Z 08009KT 9999 FEW015 23/17 Q1018;
0120833440999992012012913004-14950-040883FM-15+0914SBQV V0200701N003112200019N0112651N1+02501+01701999999ADDGA1041+004801999GF104991999999999999999999MA1101801999999REMMET051METAR SBQV 291300Z 07006KT 9999 SCT016 25/17 Q1018;
0120833440999992012012914004-14950-040883FM-15+0914SBQV V0200701N003112200019N0112651N1+02701+01601999999ADDGA1041+005401999GF104991999999999999999999MA1101801999999REMMET051METAR SBQV 291400Z 07006KT 9999 SCT018 27/16 Q1018;
0120833440999992012012915004-14950-040883FM-15+0914SBQV V0200801N003612200019N0112651N1+02701+01601999999ADDGA1041+006001999GF104991999999999999999999MA1101691999999REMMET051METAR SBQV 291500Z 08007KT 9999 SCT020 27/16 Q1017;
0120833440999992012012916004-14950-040883FM-15+0914SBQV V0201001N004112200019N0112651N1+02801+01401999999ADDGA1041+007501999GF104991999999999999999999MA1101691999999REMMET051METAR SBQV 291600Z 10008KT 9999 SCT025 28/14 Q1017;
0120833440999992012012917004-14950-040883FM-15+0914SBQV V0200901N004610075019N0112651N1+02801+01601999999ADDGA1071+007501999GF107991999999999999999999MA1101591999999REMMET051METAR SBQV 291700Z 09009KT 9999 BKN025 28/16 Q1016;
0120833440999992012012918004-14950-040883FM-15+0914SBQV V0201201N004112200019N0112651N1+02801+01601999999ADDGA1041+009001999GF104991999999999999999999MA1101591999999REMMET051METAR SBQV 291800Z 12008KT 9999 SCT030 28/16 Q1016;
0120833440999992012012919004-14950-040883FM-15+0914SBQV V0201201N004612200019N0112651N1+02701+01601999999ADDGA1021+009001999GF102991999999999999999999MA1101491999999REMMET051METAR SBQV 291900Z 12009KT 9999 FEW030 27/16 Q1015;
0120833440999992012012920004-14950-040883FM-15+0914SBQV V0201101N005112200019N0112651N1+02701+01801999999ADDGA1021+009001999GF102991999999999999999999MA1101391999999REMMET051METAR SBQV 292000Z 11010KT 9999 FEW030 27/18 Q1014;
0120833440999992012012921004-14950-040883FM-15+0914SBQV V0201101N005112200019N0112651N1+02501+01801999999ADDGA1021+006001999GF102991999999999999999999MA1101391999999REMMET051METAR SBQV 292100Z 11010KT 9999 FEW020 25/18 Q1014;
0120833440999992012012922004-14950-040883FM-15+0914SBQV V0201001N003612200019N0112651N1+02301+01801999999ADDGA1021+004801999GF102991999999999999999999MA1101491999999REMMET051METAR SBQV 292200Z 10007KT 9999 FEW016 23/18 Q1015;
0143833440999992012013011004-14950-040883FM-15+0914SBQV V0200801N003612200019N0112651N1+02101+01801999999ADDGA1021+003601999GA2041+021001999GF104991999999999999999999MA1101691999999REMMET058METAR SBQV 301100Z 08007KT 9999 FEW012 SCT070 21/18 Q1017;
0143833440999992012013012004-14950-040883FM-15+0914SBQV V0200601N004610210019N0112651N1+02301+01801999999ADDGA1041+003901999GA2071+021001999GF107991999999999999999999MA1101801999999REMMET058METAR SBQV 301200Z 06009KT 9999 SCT013 BKN070 23/18 Q1018;
0143833440999992012013013004-14950-040883FM-15+0914SBQV V0200501N003612200019N0112651N1+02501+01701999999ADDGA1041+004501999GA2041+021001999GF104991999999999999999999MA1101801999999REMMET058METAR SBQV 301300Z 05007KT 9999 SCT015 SCT070 25/17 Q1018;
0120833440999992012013014004-14950-040883FM-15+0914SBQV V0200701N003610060019N0112651N1+02801+01701999999ADDGA1071+006001999GF107991999999999999999999MA1101691999999REMMET051METAR SBQV 301400Z 07007KT 9999 BKN020 28/17 Q1017;
0120833440999992012013015004-14950-040883FM-15+0914SBQV V0200301N003110060019N0112651N1+02701+01701999999ADDGA1071+006001999GF107991999999999999999999MA1101591999999REMMET051METAR SBQV 301500Z 03006KT 9999 BKN020 27/17 Q1016;
0120833440999992012013016004-14950-040883FM-15+0914SBQV V0200801N002110075019N0112651N1+02901+01701999999ADDGA1071+007501999GF107991999999999999999999MA1101491999999REMMET051METAR SBQV 301600Z 08004KT 9999 BKN025 29/17 Q1015;
0120833440999992012013017004-14950-040883FM-15+0914SBQV V0201401N003610090019N0112651N1+02801+01801999999ADDGA1071+009001999GF107991999999999999999999MA1101391999999REMMET051METAR SBQV 301700Z 14007KT 9999 BKN030 28/18 Q1014;
0120833440999992012013018004-14950-040883FM-15+0914SBQV V0201301N004112200019N0112651N1+02901+01801999999ADDGA1021+009001999GF102991999999999999999999MA1101391999999REMMET051METAR SBQV 301800Z 13008KT 9999 FEW030 29/18 Q1014;
0120833440999992012013019004-14950-040883FM-15+0914SBQV V0201301N005712200019N0112651N1+02801+01901999999ADDGA1021+009001999GF102991999999999999999999MA1101391999999REMMET051METAR SBQV 301900Z 13011KT 9999 FEW030 28/19 Q1014;
0120833440999992012013020004-14950-040883FM-15+0914SBQV V0201301N005712200019N0112651N1+02501+01901999999ADDGA1021+007501999GF102991999999999999999999MA1101391999999REMMET051METAR SBQV 302000Z 13011KT 9999 FEW025 25/19 Q1014;
0143833440999992012013021004-14950-040883FM-15+0914SBQV V0201101N005710240019N0112651N1+02401+01901999999ADDGA1021+005401999GA2071+024001999GF107991999999999999999999MA1101391999999REMMET058METAR SBQV 302100Z 11011KT 9999 FEW018 BKN080 24/19 Q1014;
0143833440999992012013022004-14950-040883FM-15+0914SBQV V0201101N005710210019N0112651N1+02301+01901999999ADDGA1021+004501999GA2071+021001999GF107991999999999999999999MA1101491999999REMMET058METAR SBQV 302200Z 11011KT 9999 FEW015 BKN070 23/19 Q1015;
0120833440999992012013111004-14950-040883FM-15+0914SBQV V0200401N005112200019N0112651N1+02201+01801999999ADDGA1041+004501999GF104991999999999999999999MA1101801999999REMMET051METAR SBQV 311100Z 04010KT 9999 SCT015 22/18 Q1018;
0120833440999992012013112004-14950-040883FM-15+0914SBQV V0200501N004110045019N0112651N1+02201+01701999999ADDGA1071+004501999GF107991999999999999999999MA1101801999999REMMET051METAR SBQV 311200Z 05008KT 9999 BKN015 22/17 Q1018;
0136833440999992012013113004-14950-040883FM-15+0914SBQV V0200601N00361005401CN0112651N1+02401+01801999999ADDGA1071+005401999GA2041+021001999MA1101801999999REMMET058METAR SBQV 311300Z 06007KT 9999 BKN018 SCT070 24/18 Q1018;EQDQ01+000042SCOTCV
0120833440999992012013114004-14950-040883FM-15+0914SBQV V0200101N003110060019N0112651N1+02601+01901999999ADDGA1071+006001999GF107991999999999999999999MA1101801999999REMMET051METAR SBQV 311400Z 01006KT 9999 BKN020 26/19 Q1018;
0120833440999992012013115004-14950-040883FM-15+0914SBQV V0203301N002110060019N0112651N1+02601+01701999999ADDGA1071+006001999GF107991999999999999999999MA1101801999999REMMET051METAR SBQV 311500Z 33004KT 9999 BKN020 26/17 Q1018;
0120833440999992012013116004-14950-040883FM-15+0914SBQV V0201401N002610060019N0112651N1+02701+01701999999ADDGA1071+006001999GF107991999999999999999999MA1101691999999REMMET051METAR SBQV 311600Z 14005KT 9999 BKN020 27/17 Q1017;
0120833440999992012013117004-14950-040883FM-15+0914SBQV V0201401N004610060019N0112651N1+03001+01701999999ADDGA1071+006001999GF107991999999999999999999MA1101591999999REMMET051METAR SBQV 311700Z 14009KT 9999 BKN020 30/17 Q1016;
0120833440999992012013118004-14950-040883FM-15+0914SBQV V0201601N003110060019N0112651N1+02701+01801999999ADDGA1071+006001999GF107991999999999999999999MA1101491999999REMMET051METAR SBQV 311800Z 16006KT 9999 BKN020 27/18 Q1015;
0146833440999992012013119004-14950-040883FM-15+0914SBQV V0201201N003612200019N0112651N1+02901+01901999999ADDGA1021+005401021GA2041+006001999GF104991999999999999999999MA1101491999999REMMET061METAR SBQV 311900Z 12007KT 9999 FEW018TCU SCT020 29/19 Q1015;
0120833440999992012013120004-14950-040883FM-15+0914SBQV V0201501N004612200019N0112651N1+02601+01701999999ADDGA1041+006001999GF104991999999999999999999MA1101491999999REMMET051METAR SBQV 312000Z 15009KT 9999 SCT020 26/17 Q1015;
0120833440999992012013121004-14950-040883FM-15+0914SBQV V0201301N004612200019N0112651N1+02501+01801999999ADDGA1021+004801999GF102991999999999999999999MA1101491999999REMMET051METAR SBQV 312100Z 13009KT 9999 FEW016 25/18 Q1015;
0120833440999992012013122004-14950-040883FM-15+0914SBQV V0201101N005112200019N0112651N1+02301+02001999999ADDGA1021+004501999GF102991999999999999999999MA1101591999999REMMET051METAR SBQV 312200Z 11010KT 9999 FEW015 23/20 Q1016;
0120833440999992012020111004-14950-040883FM-15+0914SBQV V0200901N004112200019N0112651N1+02101+01901999999ADDGA1041+002701999GF104991999999999999999999MA1101901999999REMMET051METAR SBQV 011100Z 09008KT 9999 SCT009 21/19 Q1019;
0143833440999992012020112004-14950-040883FM-15+0914SBQV V0200801N004112200019N0112651N1+02401+01901999999ADDGA1041+003601999GA2041+021001999GF104991999999999999999999MA1102001999999REMMET058METAR SBQV 011200Z 08008KT 9999 SCT012 SCT070 24/19 Q1020;
0120833440999992012020113004-14950-040883FM-15+0914SBQV V0201001N004612200019N0112651N1+02301+02001999999ADDGA1041+003601999GF104991999999999999999999MA1102001999999REMMET051METAR SBQV 011300Z 10009KT 9999 SCT012 23/20 Q1020;
0143833440999992012020114004-14950-040883FM-15+0914SBQV V0200901N002612200019N0112651N1+02301+02001999999ADDGA1041+003001999GA2041+021001999GF104991999999999999999999MA1102001999999REMMET058METAR SBQV 011400Z 09005KT 9999 SCT010 SCT070 23/20 Q1020;
0166833440999992012020115004-14950-040883FM-15+0914SBQV V0201301N00361003001CN0112651N1+02401+02101999999ADDGA1021+002401999GA2041+003001999GA3071+021001999GF107991999999999999999999MA1101901999999REMMET065METAR SBQV 011500Z 13007KT 9999 FEW008 SCT010 BKN070 24/21 Q1019;
0188833440999992012020116004-14950-040883FM-15+0914SBQV V0201601N002610027019N0070001N1+02101+02001999999ADDGA1021+002401999GA2071+002701999GA3071+021001999GF107991999999999999999999MA1101901999999MW1611REMMET081METAR SBQV 011600Z 16005KT 7000 1000NW -RA FEW008 BKN009 BKN070 21/20 Q1019 RERA;
0194833440999992012020117004-14950-040883FM-15+0914SBQV V0201301N00311001501CN0050001N1+02101+02101999999ADDGA1021+001201999GA2071+001501999GA3021+006001091MA1101801999999MW1801MW2951REMMET088METAR SBQV 011700Z 13006KT 5000 1500NW -TSRA FEW004 BKN005 FEW020CB B KN070 21/21 Q1018;EQDQ01+000022SCOTCV
0153833440999992012020118004-14950-040883FM-15+0914SBQV V0201201N004610018019N0112651N1+02201+02101999999ADDGA1021+001201999GA2071+001801999GF107991999999999999999999MA1101801999999MW1611REMMET062METAR SBQV 011800Z 12009KT 9999 -RA FEW004 BKN006 22/21 Q1018;
0176833440999992012020119004-14950-040883FM-15+0914SBQV V0201001N005110018019N0112651N1+02101+02001999999ADDGA1021+001201999GA2071+001801999GA3071+021001999GF107991999999999999999999MA1101801999999MW1611REMMET069METAR SBQV 011900Z 10010KT 9999 -RA FEW004 BKN006 BKN070 21/20 Q1018;
0143833440999992012020120004-14950-040883FM-15+0914SBQV V0200801N005710210019N0112651N1+02101+01901999999ADDGA1041+001801999GA2071+021001999GF107991999999999999999999MA1101801999999REMMET058METAR SBQV 012000Z 08011KT 9999 SCT006 BKN070 21/19 Q1018;
0143833440999992012020121004-14950-040883FM-15+0914SBQV V0201001N004610210019N0112651N1+02001+01901999999ADDGA1021+001801999GA2071+021001999GF107991999999999999999999MA1101801999999REMMET058METAR SBQV 012100Z 10009KT 9999 FEW006 BKN070 20/19 Q1018;
0136833440999992012020122004-14950-040883FM-15+0914SBQV V0200901N00571001801CN0112651N1+02001+01901999999ADDGA1071+001801999GA2041+021001999MA1101901999999REMMET058METAR SBQV 012200Z 09011KT 9999 BKN006 SCT070 20/19 Q1019;EQDQ01+000042SCOTCV
0143833440999992012020211004-14950-040883FM-15+0914SBQV V0200901N000510024019N0112651N1+02101+01901999999ADDGA1021+002101999GA2071+002401999GF107991999999999999999999MA1102001999999REMMET058METAR SBQV 021100Z 09001KT 9999 FEW007 BKN008 21/19 Q1020;
0120833440999992012020212004-14950-040883FM-15+0914SBQV V0201001N005710030019N0112651N1+02101+01801999999ADDGA1071+003001999GF107991999999999999999999MA1102101999999REMMET051METAR SBQV 021200Z 10011KT 9999 BKN010 21/18 Q1021;
0143833440999992012020213004-14950-040883FM-15+0914SBQV V0200901N006210045019N0112651N1+02301+01801999999ADDGA1041+003601999GA2071+004501999GF107991999999999999999999MA1102001999999REMMET058METAR SBQV 021300Z 09012KT 9999 SCT012 BKN015 23/18 Q1020;
0120833440999992012020214004-14950-040883FM-15+0914SBQV V0201001N005710048019N0112651N1+02501+01801999999ADDGA1071+004801999GF107991999999999999999999MA1102001999999REMMET051METAR SBQV 021400Z 10011KT 9999 BKN016 25/18 Q1020;
0120833440999992012020215004-14950-040883FM-15+0914SBQV V0201101N005710060019N0112651N1+02601+01801999999ADDGA1071+006001999GF107991999999999999999999MA1102001999999REMMET051METAR SBQV 021500Z 11011KT 9999 BKN020 26/18 Q1020;
0120833440999992012020216004-14950-040883FM-15+0914SBQV V0201201N005710075019N0112651N1+02701+01901999999ADDGA1071+007501999GF107991999999999999999999MA1101901999999REMMET051METAR SBQV 021600Z 12011KT 9999 BKN025 27/19 Q1019;
0120833440999992012020217004-14950-040883FM-15+0914SBQV V0201101N006210075019N0112651N1+02601+01901999999ADDGA1071+007501999GF107991999999999999999999MA1101801999999REMMET051METAR SBQV 021700Z 11012KT 9999 BKN025 26/19 Q1018;
0159833440999992012020218004-14950-040883FM-15+0914SBQV V0200901N007212200019N0112651N1+02401+01901999999ADDGA1041+004801999GA2041+006001999GF104991999999999999999999MA1101801999999MW1611REMMET068METAR SBQV 021800Z 09014KT 9999 2000E -RA SCT016 SCT020 24/19 Q1018;
0143833440999992012020219004-14950-040883FM-15+0914SBQV V0201001N003610240019N0112651N1+02301+01701999999ADDGA1021+005401999GA2071+024001999GF107991999999999999999999MA1101801999999REMMET058METAR SBQV 021900Z 10007KT 9999 FEW018 BKN080 23/17 Q1018;
0143833440999992012020220004-14950-040883FM-15+0914SBQV V0200901N005112200019N0112651N1+02401+01701999999ADDGA1041+005401999GA2041+024001999GF104991999999999999999999MA1101801999999REMMET058METAR SBQV 022000Z 09010KT 9999 SCT018 SCT080 24/17 Q1018;
0120833440999992012020221004-14950-040883FM-15+0914SBQV V0201001N005712200019N0112651N1+02001+01801999999ADDGA1041+004801999GF104991999999999999999999MA1101801999999REMMET051METAR SBQV 022100Z 10011KT 9999 SCT016 20/18 Q1018;
0120833440999992012020222004-14950-040883FM-15+0914SBQV V0201001N005112200019N0112651N1+02001+01801999999ADDGA1021+004801999GF102991999999999999999999MA1101801999999REMMET051METAR SBQV 022200Z 10010KT 9999 FEW016 20/18 Q1018;
0120833440999992012020311004-14950-040883FM-15+0914SBQV V0201201N004612200019N0112651N1+02001+01801999999ADDGA1021+004501999GF102991999999999999999999MA1102001999999REMMET051METAR SBQV 031100Z 12009KT 9999 FEW015 20/18 Q1020;
0120833440999992012020317004-14950-040883FM-15+0914SBQV V0201201N005112200019N0112651N1+02501+01601999999ADDGA1041+007501999GF104991999999999999999999MA1101901999999REMMET051METAR SBQV 031700Z 12010KT 9999 SCT025 25/16 Q1019;
0143833440999992012020318004-14950-040883FM-15+0914SBQV V0201301N005712200019N0112651N1+02501+01801999999ADDGA1041+006001999GA2041+024001999GF104991999999999999999999MA1101901999999REMMET058METAR SBQV 031800Z 13011KT 9999 SCT020 SCT080 25/18 Q1019;
0143833440999992012020319004-14950-040883FM-15+0914SBQV V0201101N006712200019N0112651N1+02301+01801999999ADDGA1041+005401999GA2041+021001999GF104991999999999999999999MA1101901999999REMMET058METAR SBQV 031900Z 11013KT 9999 SCT018 SCT070 23/18 Q1019;
0143833440999992012020320004-14950-040883FM-15+0914SBQV V0200901N004610210019N0112651N1+02201+01801999999ADDGA1021+004801999GA2071+021001999GF107991999999999999999999MA1101901999999REMMET058METAR SBQV 032000Z 09009KT 9999 FEW016 BKN070 22/18 Q1019;
0143833440999992012020321004-14950-040883FM-15+0914SBQV V0201001N004110210019N0112651N1+02101+01801999999ADDGA1021+004501999GA2071+021001999GF107991999999999999999999MA1101901999999REMMET058METAR SBQV 032100Z 10008KT 9999 FEW015 BKN070 21/18 Q1019;
0072833440999992012020322004-14950-040883FM-15+0914SBQV V0201001N005119999999Y0099001N1+02001+01701999999ADDMA1101901999999REMMET045METAR SBQV 032200Z 10010KT CAVOK 20/17 Q1019;
0143833440999992012020411004-14950-040883FM-15+0914SBQV V0201201N005110024019N0112651N1+02001+01801999999ADDGA1021+001801999GA2071+002401999GF107991999999999999999999MA1102001999999REMMET058METAR SBQV 041100Z 12010KT 9999 FEW006 BKN008 20/18 Q1020;
0143833440999992012020412004-14950-040883FM-15+0914SBQV V0201001N005712200019N0112651N1+02201+01801999999ADDGA1041+003001999GA2041+004501999GF104991999999999999999999MA1102101999999REMMET058METAR SBQV 041200Z 10011KT 9999 SCT010 SCT015 22/18 Q1021;
0143833440999992012020413004-14950-040883FM-15+0914SBQV V0201001N006210045019N0112651N1+02201+01801999999ADDGA1041+003001999GA2071+004501999GF107991999999999999999999MA1102101999999REMMET058METAR SBQV 041300Z 10012KT 9999 SCT010 BKN015 22/18 Q1021;
0143833440999992012020414004-14950-040883FM-15+0914SBQV V0201201N005110045019N0112651N1+02401+01801999999ADDGA1021+003901999GA2071+004501999GF107991999999999999999999MA1102101999999REMMET058METAR SBQV 041400Z 12010KT 9999 FEW013 BKN015 24/18 Q1021;
0136833440999992012020415004-14950-040883FM-15+0914SBQV V0201001N00361004801CN0112651N1+02301+02001999999ADDGA1071+004801999GA2041+021001999MA1102001999999REMMET058METAR SBQV 041500Z 10007KT 9999 BKN016 SCT070 23/20 Q1020;EQDQ01+000042SCOTCV
0143833440999992012020416004-14950-040883FM-15+0914SBQV V0201401N004112200019N0112651N1+02401+02001999999ADDGA1041+006001999GA2041+024001999GF104991999999999999999999MA1101901999999REMMET058METAR SBQV 041600Z 14008KT 9999 SCT020 SCT080 24/20 Q1019;
0136833440999992012020417004-14950-040883FM-15+0914SBQV V0201401N00511005401CN0112651N1+02501+02001999999ADDGA1071+005401999GA2041+024001999MA1101901999999REMMET058METAR SBQV 041700Z 14010KT 9999 BKN018 SCT080 25/20 Q1019;EQDQ01+000042SCOTCV
0166833440999992012020418004-14950-040883FM-15+0914SBQV V0200701N00671004801CN0112651N1+02301+02101999999ADDGA1021+004501999GA2041+004801999GA3071+021001999GF107991999999999999999999MA1101901999999REMMET065METAR SBQV 041800Z 07013KT 9999 FEW015 SCT016 BKN070 23/21 Q1019;
0143833440999992012020419004-14950-040883FM-15+0914SBQV V0201101N005110210019N0112651N1+02301+01801999999ADDGA1041+004801999GA2071+021001999GF107991999999999999999999MA1101901999999REMMET058METAR SBQV 041900Z 11010KT 9999 SCT016 BKN070 23/18 Q1019;
0143833440999992012020420004-14950-040883FM-15+0914SBQV V0200901N004110210019N0112651N1+02301+01801999999ADDGA1021+004801999GA2071+021001999GF107991999999999999999999MA1101801999999REMMET058METAR SBQV 042000Z 09008KT 9999 FEW016 BKN070 23/18 Q1018;
0143833440999992012020421004-14950-040883FM-15+0914SBQV V0200901N006710210019N0112651N1+02101+01701999999ADDGA1021+004501999GA2071+021001999GF107991999999999999999999MA1101901999999REMMET058METAR SBQV 042100Z 09013KT 9999 FEW015 BKN070 21/17 Q1019;
0143833440999992012020422004-14950-040883FM-15+0914SBQV V0200901N004610210019N0112651N1+02101+01701999999ADDGA1041+003901999GA2071+021001999GF107991999999999999999999MA1102001999999REMMET058METAR SBQV 042200Z 09009KT 9999 SCT013 BKN070 21/17 Q1020;
0120833440999992012020511004-14950-040883FM-15+0914SBQV V0201001N005710045019N0112651N1+02101+01801999999ADDGA1071+004501999GF107991999999999999999999MA1102101999999REMMET051METAR SBQV 051100Z 10011KT 9999 BKN015 21/18 Q1021;
0120833440999992012020512004-14950-040883FM-15+0914SBQV V0201001N005712200019N0112651N1+02401+01701999999ADDGA1041+005401999GF104991999999999999999999MA1102201999999REMMET051METAR SBQV 051200Z 10011KT 9999 SCT018 24/17 Q1022;
0120833440999992012020513004-14950-040883FM-15+0914SBQV V0201101N004610054019N0112651N1+02401+01701999999ADDGA1071+005401999GF107991999999999999999999MA1102201999999REMMET051METAR SBQV 051300Z 11009KT 9999 BKN018 24/17 Q1022;
0120833440999992012020514004-14950-040883FM-15+0914SBQV V0201201N004610060019N0112651N1+02501+01901999999ADDGA1071+006001999GF107991999999999999999999MA1102101999999REMMET051METAR SBQV 051400Z 12009KT 9999 BKN020 25/19 Q1021;
0120833440999992012020515004-14950-040883FM-15+0914SBQV V0200601N004110075019N0112651N1+02601+01801999999ADDGA1071+007501999GF107991999999999999999999MA1102101999999REMMET051METAR SBQV 051500Z 06008KT 9999 BKN025 26/18 Q1021;
0120833440999992012020516004-14950-040883FM-15+0914SBQV V0201101N004612200019N0112651N1+02601+02001999999ADDGA1041+007501999GF104991999999999999999999MA1102001999999REMMET051METAR SBQV 051600Z 11009KT 9999 SCT025 26/20 Q1020;
0120833440999992012020517004-14950-040883FM-15+0914SBQV V0201301N005110075019N0112651N1+02601+02001999999ADDGA1071+007501999GF107991999999999999999999MA1101901999999REMMET051METAR SBQV 051700Z 13010KT 9999 BKN025 26/20 Q1019;
0143833440999992012020518004-14950-040883FM-15+0914SBQV V0201301N007212200019N0112651N1+02601+02001999999ADDGA1021+003001999GA2041+007501999GF104991999999999999999999MA1101801999999REMMET058METAR SBQV 051800Z 13014KT 9999 FEW010 SCT025 26/20 Q1018;
0143833440999992012020519004-14950-040883FM-15+0914SBQV V0200901N006210210019N0112651N1+02101+02101999999ADDGA1041+006001999GA2071+021001999GF107991999999999999999999MA1101801999999REMMET058METAR SBQV 051900Z 09012KT 9999 SCT020 BKN070 21/21 Q1018;
0143833440999992012020520004-14950-040883FM-15+0914SBQV V0201001N005710210019N0112651N1+02301+02001999999ADDGA1041+004801999GA2071+021001999GF107991999999999999999999MA1101801999999REMMET058METAR SBQV 052000Z 10011KT 9999 SCT016 BKN070 23/20 Q1018;
0143833440999992012020521004-14950-040883FM-15+0914SBQV V0201101N003612200019N0112651N1+02101+02001999999ADDGA1041+004501999GA2041+021001999GF104991999999999999999999MA1101901999999REMMET058METAR SBQV 052100Z 11007KT 9999 SCT015 SCT070 21/20 Q1019;
0143833440999992012020522004-14950-040883FM-15+0914SBQV V0201201N003610210019N0112651N1+02001+02001999999ADDGA1041+001501999GA2071+021001999GF107991999999999999999999MA1101901999999REMMET058METAR SBQV 052200Z 12007KT 9999 SCT005 BKN070 20/20 Q1019;
0143833440999992012020611004-14950-040883FM-15+0914SBQV V0200601N002612200019N0112651N1+02101+01901999999ADDGA1041+003301999GA2041+021001999GF104991999999999999999999MA1102101999999REMMET058METAR SBQV 061100Z 06005KT 9999 SCT011 SCT070 21/19 Q1021;
0136833440999992012020612004-14950-040883FM-15+0914SBQV V0200701N00311004501CN0112651N1+02301+01801999999ADDGA1071+004501999GA2041+021001999MA1102201999999REMMET058METAR SBQV 061200Z 07006KT 9999 BKN015 SCT070 23/18 Q1022;EQDQ01+000042SCOTCV
0120833440999992012020613004-14950-040883FM-15+0914SBQV V0200801N003110045019N0112651N1+02401+01801999999ADDGA1071+004501999GF107991999999999999999999MA1102201999999REMMET051METAR SBQV 061300Z 08006KT 9999 BKN015 24/18 Q1022;
0120833440999992012020614004-14950-040883FM-15+0914SBQV V0200901N002110048019N0112651N1+02601+01701999999ADDGA1071+004801999GF107991999999999999999999MA1102101999999REMMET051METAR SBQV 061400Z 09004KT 9999 BKN016 26/17 Q1021;
0120833440999992012020615004-14950-040883FM-15+0914SBQV V0201301N002610054019N0112651N1+02701+01801999999ADDGA1071+005401999GF107991999999999999999999MA1102001999999REMMET051METAR SBQV 061500Z 13005KT 9999 BKN018 27/18 Q1020;
0120833440999992012020616004-14950-040883FM-15+0914SBQV V0201101N002610060019N0112651N1+02701+01901999999ADDGA1071+006001999GF107991999999999999999999MA1101901999999REMMET051METAR SBQV 061600Z 11005KT 9999 BKN020 27/19 Q1019;
0120833440999992012020617004-14950-040883FM-15+0914SBQV V0201301N005110060019N0112651N1+02901+02001999999ADDGA1071+006001999GF107991999999999999999999MA1101801999999REMMET051METAR SBQV 061700Z 13010KT 9999 BKN020 29/20 Q1018;
0120833440999992012020618004-14950-040883FM-15+0914SBQV V0201101N002610075019N0112651N1+02701+01901999999ADDGA1071+007501999GF107991999999999999999999MA1101901999999REMMET051METAR SBQV 061800Z 11005KT 9999 BKN025 27/19 Q1019;
0120833440999992012020619004-14950-040883FM-15+0914SBQV V0201201N004612200019N0112651N1+02701+01901999999ADDGA1041+007501999GF104991999999999999999999MA1101691999999REMMET051METAR SBQV 061900Z 12009KT 9999 SCT025 27/19 Q1017;
0120833440999992012020620004-14950-040883FM-15+0914SBQV V0201301N005712200019N0112651N1+02701+01801999999ADDGA1041+007501999GF104991999999999999999999MA1101691999999REMMET051METAR SBQV 062000Z 13011KT 9999 SCT025 27/18 Q1017;
0120833440999992012020621004-14950-040883FM-15+0914SBQV V0201201N005712200019N0112651N1+02501+01901999999ADDGA1041+006001999GF104991999999999999999999MA1101691999999REMMET051METAR SBQV 062100Z 12011KT 9999 SCT020 25/19 Q1017;
0120833440999992012020622004-14950-040883FM-15+0914SBQV V0201101N004112200019N0112651N1+02301+01901999999ADDGA1021+004801999GF102991999999999999999999MA1101801999999REMMET051METAR SBQV 062200Z 11008KT 9999 FEW016 23/19 Q1018;
0072833440999992012020711004-14950-040883FM-15+0914SBQV V0200401N004619999999Y0099001N1+02301+01801999999ADDMA1101801999999REMMET045METAR SBQV 071100Z 04009KT CAVOK 23/18 Q1018;
0120833440999992012020712004-14950-040883FM-15+0914SBQV V0200301N002612200019N0112651N1+02501+01801999999ADDGA1021+004501999GF102991999999999999999999MA1101901999999REMMET051METAR SBQV 071200Z 03005KT 9999 FEW015 25/18 Q1019;
0120833440999992012020717004-14950-040883FM-15+0914SBQV V0201301N004112200019N0112651N1+02901+01701999999ADDGA1021+009001999GF102991999999999999999999MA1101591999999REMMET051METAR SBQV 071700Z 13008KT 9999 FEW030 29/17 Q1016;
0120833440999992012020718004-14950-040883FM-15+0914SBQV V0201201N004612200019N0112651N1+02901+01801999999ADDGA1021+009001999GF102991999999999999999999MA1101491999999REMMET051METAR SBQV 071800Z 12009KT 9999 FEW030 29/18 Q1015;
0123833440999992012020719004-14950-040883FM-15+0914SBQV V0201301N004612200019N0112651N1+02801+01801999999ADDGA1021+007501021GF102991999999999999999999MA1101391999999REMMET054METAR SBQV 071900Z 13009KT 9999 FEW025TCU 28/18 Q1014;
0120833440999992012020722004-14950-040883FM-15+0914SBQV V0201201N003612200019N0112651N1+02401+01801999999ADDGA1021+005401999GF102991999999999999999999MA1101491999999REMMET051METAR SBQV 072200Z 12007KT 9999 FEW018 24/18 Q1015;
0120833440999992012020811004-14950-040883FM-15+0914SBQV V0200301N003112200019N0112651N1+02301+01801999999ADDGA1021+005401999GF102991999999999999999999MA1101691999999REMMET051METAR SBQV 081100Z 03006KT 9999 FEW018 23/18 Q1017;
0120833440999992012020812004-14950-040883FM-15+0914SBQV V0200301N003112200019N0112651N1+02501+01801999999ADDGA1021+006001999GF102991999999999999999999MA1101691999999REMMET051METAR SBQV 081200Z 03006KT 9999 FEW020 25/18 Q1017;
0120833440999992012020813004-14950-040883FM-15+0914SBQV V0200201N002112200019N0112651N1+02601+01701999999ADDGA1021+007501999GF102991999999999999999999MA1101691999999REMMET051METAR SBQV 081300Z 02004KT 9999 FEW025 26/17 Q1017;
0120833440999992012020814004-14950-040883FM-15+0914SBQV V0201301N001512200019N0112651N1+02801+01601999999ADDGA1041+009001999GF104991999999999999999999MA1101591999999REMMET051METAR SBQV 081400Z 13003KT 9999 SCT030 28/16 Q1016;
0120833440999992012020815004-14950-040883FM-15+0914SBQV V0201201N002612200019N0112651N1+02901+01301999999ADDGA1041+009001999GF104991999999999999999999MA1101591999999REMMET051METAR SBQV 081500Z 12005KT 9999 SCT030 29/13 Q1016;
0120833440999992012020816004-14950-040883FM-15+0914SBQV V0201001N003612200019N0112651N1+03001+01501999999ADDGA1041+009001999GF104991999999999999999999MA1101491999999REMMET051METAR SBQV 081600Z 10007KT 9999 SCT030 30/15 Q1015;
0120833440999992012020817004-14950-040883FM-15+0914SBQV V0201301N003112200019N0112651N1+02901+01301999999ADDGA1021+010501999GF102991999999999999999999MA1101491999999REMMET051METAR SBQV 081700Z 13006KT 9999 FEW035 29/13 Q1015;
0120833440999992012020818004-14950-040883FM-15+0914SBQV V0201101N004112200019N0112651N1+02901+01001999999ADDGA1041+010501999GF104991999999999999999999MA1101391999999REMMET051METAR SBQV 081800Z 11008KT 9999 SCT035 29/10 Q1014;
0120833440999992012020819004-14950-040883FM-15+0914SBQV V0201501N005112200019N0112651N1+02901+01201999999ADDGA1021+010501999GF102991999999999999999999MA1101391999999REMMET051METAR SBQV 081900Z 15010KT 9999 FEW035 29/12 Q1014;
0120833440999992012020820004-14950-040883FM-15+0914SBQV V0201401N005712200019N0112651N1+02801+01401999999ADDGA1021+009001999GF102991999999999999999999MA1101391999999REMMET051METAR SBQV 082000Z 14011KT 9999 FEW030 28/14 Q1014;
0120833440999992012020821004-14950-040883FM-15+0914SBQV V0201301N005712200019N0112651N1+02601+01401999999ADDGA1021+007501999GF102991999999999999999999MA1101391999999REMMET051METAR SBQV 082100Z 13011KT 9999 FEW025 26/14 Q1014;
0120833440999992012020822004-14950-040883FM-15+0914SBQV V0201101N003612200019N0112651N1+02401+01401999999ADDGA1021+006001999GF102991999999999999999999MA1101391999999REMMET051METAR SBQV 082200Z 11007KT 9999 FEW020 24/14 Q1014;
0120833440999992012020911004-14950-040883FM-15+0914SBQV V0200201N004612200019N0112651N1+02201+01501999999ADDGA1021+004801999GF102991999999999999999999MA1101691999999REMMET051METAR SBQV 091100Z 02009KT 9999 FEW016 22/15 Q1017;
0120833440999992012020912004-14950-040883FM-15+0914SBQV V0200201N005112200019N0112651N1+02501+01401999999ADDGA1021+006001999GF102991999999999999999999MA1101691999999REMMET051METAR SBQV 091200Z 02010KT 9999 FEW020 25/14 Q1017;
0120833440999992012020913004-14950-040883FM-15+0914SBQV V0200401N002112200019N0112651N1+02601+01301999999ADDGA1021+006001999GF102991999999999999999999MA1101691999999REMMET051METAR SBQV 091300Z 04004KT 9999 FEW020 26/13 Q1017;
0120833440999992012020914004-14950-040883FM-15+0914SBQV V0201001N003112200019N0112651N1+02801+01301999999ADDGA1021+007501999GF102991999999999999999999MA1101691999999REMMET051METAR SBQV 091400Z 10006KT 9999 FEW025 28/13 Q1017;
0120833440999992012020915004-14950-040883FM-15+0914SBQV V0201301N002612200019N0112651N1+03001+01301999999ADDGA1041+009001999GF104991999999999999999999MA1101591999999REMMET051METAR SBQV 091500Z 13005KT 9999 SCT030 30/13 Q1016;
0120833440999992012020916004-14950-040883FM-15+0914SBQV V0201601N003612200019N0112651N1+03001+01301999999ADDGA1041+009001999GF104991999999999999999999MA1101591999999REMMET051METAR SBQV 091600Z 16007KT 9999 SCT030 30/13 Q1016;
0120833440999992012020917004-14950-040883FM-15+0914SBQV V0201401N004612200019N0112651N1+03001+01301999999ADDGA1021+009001999GF102991999999999999999999MA1101491999999REMMET051METAR SBQV 091700Z 14009KT 9999 FEW030 30/13 Q1015;
0120833440999992012020918004-14950-040883FM-15+0914SBQV V0201301N006212200019N0112651N1+02901+01401999999ADDGA1021+009001999GF102991999999999999999999MA1101491999999REMMET051METAR SBQV 091800Z 13012KT 9999 FEW030 29/14 Q1015;
0120833440999992012020919004-14950-040883FM-15+0914SBQV V0201401N005112200019N0112651N1+02901+01401999999ADDGA1021+009001999GF102991999999999999999999MA1101391999999REMMET051METAR SBQV 091900Z 14010KT 9999 FEW030 29/14 Q1014;
0120833440999992012020920004-14950-040883FM-15+0914SBQV V0201301N005112200019N0112651N1+02701+01301999999ADDGA1021+007501999GF102991999999999999999999MA1101391999999REMMET051METAR SBQV 092000Z 13010KT 9999 FEW025 27/13 Q1014;
0072833440999992012020921004-14950-040883FM-15+0914SBQV V0201301N005119999999Y0099001N1+02501+01301999999ADDMA1101391999999REMMET045METAR SBQV 092100Z 13010KT CAVOK 25/13 Q1014;
0072833440999992012020922004-14950-040883FM-15+0914SBQV V0201101N003619999999Y0099001N1+02301+01401999999ADDMA1101491999999REMMET045METAR SBQV 092200Z 11007KT CAVOK 23/14 Q1015;
0120833440999992012021012004-14950-040883FM-15+0914SBQV V0200101N003110075019N0112651N1+02501+01901999999ADDGA1071+007501999GF107991999999999999999999MA1101801999999REMMET051METAR SBQV 101200Z 01006KT 9999 BKN025 25/19 Q1018;
0120833440999992012021013004-14950-040883FM-15+0914SBQV V0200101N003612200019N0112651N1+02501+01901999999ADDGA1041+007501999GF104991999999999999999999MA1101801999999REMMET051METAR SBQV 101300Z 01007KT 9999 SCT025 25/19 Q1018;
0120833440999992012021014004-14950-040883FM-15+0914SBQV V0200101N002110075019N0112651N1+02601+01801999999ADDGA1071+007501999GF107991999999999999999999MA1101801999999REMMET051METAR SBQV 101400Z 01004KT 9999 BKN025 26/18 Q1018;
0120833440999992012021015004-14950-040883FM-15+0914SBQV V0200101N002610090019N0112651N1+02801+01801999999ADDGA1071+009001999GF107991999999999999999999MA1101801999999REMMET051METAR SBQV 101500Z 01005KT 9999 BKN030 28/18 Q1018;
0120833440999992012021016004-14950-040883FM-15+0914SBQV V0200101N002610090019N0112651N1+02901+01601999999ADDGA1071+009001999GF107991999999999999999999MA1101691999999REMMET051METAR SBQV 101600Z 01005KT 9999 BKN030 29/16 Q1017;
0120833440999992012021017004-14950-040883FM-15+0914SBQV V0202601N003110090019N0112651N1+03001+01601999999ADDGA1071+009001999GF107991999999999999999999MA1101591999999REMMET051METAR SBQV 101700Z 26006KT 9999 BKN030 30/16 Q1016;
0120833440999992012021018004-14950-040883FM-15+0914SBQV V0203101N001512200019N0112651N1+03101+01401999999ADDGA1041+009001999GF104991999999999999999999MA1101491999999REMMET051METAR SBQV 101800Z 31003KT 9999 SCT030 31/14 Q1015;
0120833440999992012021019004-14950-040883FM-15+0914SBQV V0201301N003612200019N0112651N1+02901+01901999999ADDGA1041+007501999GF104991999999999999999999MA1101391999999REMMET051METAR SBQV 101900Z 13007KT 9999 SCT025 29/19 Q1014;
0120833440999992012021020004-14950-040883FM-15+0914SBQV V0201301N005112200019N0112651N1+02801+01801999999ADDGA1041+006001999GF104991999999999999999999MA1101391999999REMMET051METAR SBQV 102000Z 13010KT 9999 SCT020 28/18 Q1014;
0120833440999992012021021004-14950-040883FM-15+0914SBQV V0201001N005112200019N0112651N1+02701+01801999999ADDGA1021+005401999GF102991999999999999999999MA1101391999999REMMET051METAR SBQV 102100Z 10010KT 9999 FEW018 27/18 Q1014;
0120833440999992012021022004-14950-040883FM-15+0914SBQV V0201001N003612200019N0112651N1+02501+01801999999ADDGA1021+004801999GF102991999999999999999999MA1101491999999REMMET051METAR SBQV 102200Z 10007KT 9999 FEW016 25/18 Q1015;
0120833440999992012021105004-14950-040883FM-15+0914SBQV V0200701N004112200019N0112651N1+02001+01901999999ADDGA1041+002401999GF104991999999999999999999MA1101691999999REMMET051METAR SBQV 110500Z 07008KT 9999 SCT008 20/19 Q1017;
0120833440999992012021106004-14950-040883FM-15+0914SBQV V0201201N001512200019N0112651N1+02001+01901999999ADDGA1041+002101999GF104991999999999999999999MA1101691999999REMMET051METAR SBQV 110600Z 12003KT 9999 SCT007 20/19 Q1017;
0120833440999992012021107004-14950-040883FM-15+0914SBQV V0201001N001512200019N0112651N1+02001+01901999999ADDGA1041+002101999GF104991999999999999999999MA1101691999999REMMET051METAR SBQV 110700Z 10003KT 9999 SCT007 20/19 Q1017;
0120833440999992012021108004-14950-040883FM-15+0914SBQV V0200601N001512200019N0112651N1+02001+01901999999ADDGA1041+002101999GF104991999999999999999999MA1101691999999REMMET051METAR SBQV 110800Z 06003KT 9999 SCT007 20/19 Q1017;
0143833440999992012021111004-14950-040883FM-15+0914SBQV V0200501N002112200019N0112651N1+02301+01901999999ADDGA1021+004501999GA2041+021001999GF104991999999999999999999MA1101901999999REMMET058METAR SBQV 111100Z 05004KT 9999 FEW015 SCT070 23/19 Q1019;
0136833440999992012021112004-14950-040883FM-15+0914SBQV V0200301N00311004801CN0112651N1+02501+01901999999ADDGA1071+004801999GA2041+021001999MA1102001999999REMMET058METAR SBQV 111200Z 03006KT 9999 BKN016 SCT070 25/19 Q1020;EQDQ01+000042SCOTCV
0136833440999992012021113004-14950-040883FM-15+0914SBQV V0200101N00311005401CN0112651N1+02601+01901999999ADDGA1071+005401999GA2041+021001999MA1102001999999REMMET058METAR SBQV 111300Z 01006KT 9999 BKN018 SCT070 26/19 Q1020;EQDQ01+000042SCOTCV
0143833440999992012021114004-14950-040883FM-15+0914SBQV V0203301N001512200019N0112651N1+02601+01901999999ADDGA1041+007501999GA2041+021001999GF104991999999999999999999MA1101901999999REMMET058METAR SBQV 111400Z 33003KT 9999 SCT025 SCT070 26/19 Q1019;
0120833440999992012021115004-14950-040883FM-15+0914SBQV V0203501N002610075019N0112651N1+02801+01801999999ADDGA1071+007501999GF107991999999999999999999MA1101901999999REMMET051METAR SBQV 111500Z 35005KT 9999 BKN025 28/18 Q1019;
0120833440999992012021116004-14950-040883FM-15+0914SBQV V0200201N002110090019N0112651N1+02901+01701999999ADDGA1071+009001999GF107991999999999999999999MA1101691999999REMMET051METAR SBQV 111600Z 02004KT 9999 BKN030 29/17 Q1017;
0155833440999992012021117004-14950-040883FM-15+0914SBQV V0201201N006712200019N0060001N1+02201+02001999999ADDGA1021+004801021GA2041+005401999GF104991999999999999999999MA1101691999999MW1631REMMET064METAR SBQV 111700Z 12013KT 6000 RA FEW016TCU SCT018 22/20 Q1017;
0146833440999992012021118004-14950-040883FM-15+0914SBQV V0201101N004112200019N0112651N1+02401+02101999999ADDGA1021+004801021GA2041+005401999GF104991999999999999999999MA1101591999999REMMET061METAR SBQV 111800Z 11008KT 9999 FEW016TCU SCT018 24/21 Q1016;
0146833440999992012021119004-14950-040883FM-15+0914SBQV V0201101N003612200019N0112651N1+02701+01701999999ADDGA1021+004801021GA2041+005401999GF104991999999999999999999MA1101591999999REMMET061METAR SBQV 111900Z 11007KT 9999 FEW016TCU SCT018 27/17 Q1016;
0123833440999992012021120004-14950-040883FM-15+0914SBQV V0201201N003612200019N0112651N1+02701+01901999999ADDGA1021+004801021GF102991999999999999999999MA1101491999999REMMET054METAR SBQV 112000Z 12007KT 9999 FEW016TCU 27/19 Q1015;
0120833440999992012021121004-14950-040883FM-15+0914SBQV V0201001N002612200019N0112651N1+02501+01901999999ADDGA1021+004801999GF102991999999999999999999MA1101491999999REMMET051METAR SBQV 112100Z 10005KT 9999 FEW016 25/19 Q1015;
0120833440999992012021122004-14950-040883FM-15+0914SBQV V0201201N002112200019N0112651N1+02301+02001999999ADDGA1021+004501999GF102991999999999999999999MA1101591999999REMMET051METAR SBQV 112200Z 12004KT 9999 FEW015 23/20 Q1016;
0120833440999992012021211004-14950-040883FM-15+0914SBQV V0200501N002610048019N0112651N1+02201+01901999999ADDGA1071+004801999GF107991999999999999999999MA1101801999999REMMET051METAR SBQV 121100Z 05005KT 9999 BKN016 22/19 Q1018;
0120833440999992012021212004-14950-040883FM-15+0914SBQV V0200501N003610060019N0112651N1+02401+01901999999ADDGA1071+006001999GF107991999999999999999999MA1101901999999REMMET051METAR SBQV 121200Z 05007KT 9999 BKN020 24/19 Q1019;
0120833440999992012021213004-14950-040883FM-15+0914SBQV V0200601N002612200019N0112651N1+02601+01801999999ADDGA1041+007501999GF104991999999999999999999MA1101901999999REMMET051METAR SBQV 121300Z 06005KT 9999 SCT025 26/18 Q1019;
0120833440999992012021214004-14950-040883FM-15+0914SBQV V0201401N002610075019N0112651N1+02701+01601999999ADDGA1071+007501999GF107991999999999999999999MA1101801999999REMMET051METAR SBQV 121400Z 14005KT 9999 BKN025 27/16 Q1018;
0120833440999992012021215004-14950-040883FM-15+0914SBQV V0201001N001512200019N0112651N1+02801+01801999999ADDGA1041+009001999GF104991999999999999999999MA1101801999999REMMET051METAR SBQV 121500Z 10003KT 9999 SCT030 28/18 Q1018;
0128833440999992012021216004-14950-040883FM-15+0914SBQV V0201201N003112200019N0112651N1+02801+01701999999ADDGA1041+009001999GF104991999999999999999999MA1101691999999REMMET059METAR SBQV 121600Z 12006KT 080V160 9999 SCT030 28/17 Q1017;
0120833440999992012021217004-14950-040883FM-15+0914SBQV V0201101N003112200019N0112651N1+02901+01601999999ADDGA1021+009001999GF102991999999999999999999MA1101591999999REMMET051METAR SBQV 121700Z 11006KT 9999 FEW030 29/16 Q1016;
0120833440999992012021218004-14950-040883FM-15+0914SBQV V0201201N004112200019N0112651N1+03001+01601999999ADDGA1021+010501999GF102991999999999999999999MA1101491999999REMMET051METAR SBQV 121800Z 12008KT 9999 FEW035 30/16 Q1015;
0148833440999992012021219004-14950-040883FM-15+0914SBQV V0200801N005710090019N0112651N1+02801+01901999999ADDGA1021+007501021GA2071+009001999GF107991999999999999999999MW1611REMMET072METAR SBQV 121900Z 08011KT 9999 2000E -RA FEW025TCU BKN030 28/19 Q101 4;
0146833440999992012021220004-14950-040883FM-15+0914SBQV V0200601N005112200019N0112651N1+02601+01801999999ADDGA1021+006001999GA2021+007501021GF102991999999999999999999MA1101491999999REMMET061METAR SBQV 122000Z 06010KT 9999 FEW020 FEW025TCU 26/18 Q1015;
0120833440999992012021221004-14950-040883FM-15+0914SBQV V0201101N006712200019N0112651N1+02501+01901999999ADDGA1021+006001999GF102991999999999999999999MA1101491999999REMMET051METAR SBQV 122100Z 11013KT 9999 FEW020 25/19 Q1015;
0120833440999992012021222004-14950-040883FM-15+0914SBQV V0200901N006212200019N0112651N1+02301+01901999999ADDGA1021+004801999GF102991999999999999999999MA1101591999999REMMET051METAR SBQV 122200Z 09012KT 9999 FEW016 23/19 Q1016;
0120833440999992012021311004-14950-040883FM-15+0914SBQV V0200701N004612200019N0112651N1+02201+01801999999ADDGA1041+004801999GF104991999999999999999999MA1101801999999REMMET051METAR SBQV 131100Z 07009KT 9999 SCT016 22/18 Q1018;
0128833440999992012021312004-14950-040883FM-15+0914SBQV V0200901N004110054019N0112651N1+02401+01801999999ADDGA1071+005401999GF107991999999999999999999MA1101901999999REMMET059METAR SBQV 131200Z 09008KT 060V120 9999 BKN018 24/18 Q1019;
0120833440999992012021313004-14950-040883FM-15+0914SBQV V0200501N003110060019N0112651N1+02501+01801999999ADDGA1071+006001999GF107991999999999999999999MA1101901999999REMMET051METAR SBQV 131300Z 05006KT 9999 BKN020 25/18 Q1019;
0120833440999992012021314004-14950-040883FM-15+0914SBQV V0201101N003610060019N0112651N1+02601+01701999999ADDGA1071+006001999GF107991999999999999999999MA1101901999999REMMET051METAR SBQV 131400Z 11007KT 9999 BKN020 26/17 Q1019;
0120833440999992012021315004-14950-040883FM-15+0914SBQV V0200901N003110075019N0112651N1+02701+01701999999ADDGA1071+007501999GF107991999999999999999999MA1101801999999REMMET051METAR SBQV 131500Z 09006KT 9999 BKN025 27/17 Q1018;
0120833440999992012021316004-14950-040883FM-15+0914SBQV V0201301N003610075019N0112651N1+02801+01701999999ADDGA1071+007501999GF107991999999999999999999MA1101801999999REMMET051METAR SBQV 131600Z 13007KT 9999 BKN025 28/17 Q1018;
0120833440999992012021317004-14950-040883FM-15+0914SBQV V0201301N005110075019N0112651N1+02701+01701999999ADDGA1071+007501999GF107991999999999999999999MA1101691999999REMMET051METAR SBQV 131700Z 13010KT 9999 BKN025 27/17 Q1017;
0120833440999992012021318004-14950-040883FM-15+0914SBQV V0201201N004612200019N0112651N1+02901+01601999999ADDGA1041+007501999GF104991999999999999999999MA1101591999999REMMET051METAR SBQV 131800Z 12009KT 9999 SCT025 29/16 Q1016;
0120833440999992012021319004-14950-040883FM-15+0914SBQV V0201501N006212200019N0112651N1+02801+01601999999ADDGA1041+007501999GF104991999999999999999999MA1101591999999REMMET051METAR SBQV 131900Z 15012KT 9999 SCT025 28/16 Q1016;
0123833440999992012021320004-14950-040883FM-15+0914SBQV V0201201N005712200019N0112651N1+02701+01701999999ADDGA1021+006001021GF102991999999999999999999MA1101491999999REMMET054METAR SBQV 132000Z 12011KT 9999 FEW020TCU 27/17 Q1015;
0123833440999992012021321004-14950-040883FM-15+0914SBQV V0201201N004612200019N0112651N1+02501+01701999999ADDGA1021+005401021GF102991999999999999999999MA1101591999999REMMET054METAR SBQV 132100Z 12009KT 9999 FEW018TCU 25/17 Q1016;
0136833440999992012021322004-14950-040883FM-15+0914SBQV V0200901N006712200019N0112651N1+02301+01901999999ADDGA1021+005401091GF102991999999999999999999MA1101691999999MW1171REMMET061METAR SBQV 132200Z 09013KT 9999 VCTS FEW018CB 23/19 Q1017 NE;
0143833440999992012021411004-14950-040883FM-15+0914SBQV V0200901N004612200019N0112651N1+02201+01801999999ADDGA1021+004801999GA2041+021001999GF104991999999999999999999MA1102101999999REMMET058METAR SBQV 141100Z 09009KT 9999 FEW016 SCT070 22/18 Q1021;
0120833440999992012021412004-14950-040883FM-15+0914SBQV V0200801N004610045019N0112651N1+02301+01801999999ADDGA1071+004501999GF107991999999999999999999MA1102101999999REMMET051METAR SBQV 141200Z 08009KT 9999 BKN015 23/18 Q1021;
0120833440999992012021413004-14950-040883FM-15+0914SBQV V0200901N004110048019N0112651N1+02401+01801999999ADDGA1071+004801999GF107991999999999999999999MA1102101999999REMMET051METAR SBQV 141300Z 09008KT 9999 BKN016 24/18 Q1021;
0120833440999992012021414004-14950-040883FM-15+0914SBQV V0201101N005110060019N0112651N1+02601+01701999999ADDGA1071+006001999GF107991999999999999999999MA1102101999999REMMET051METAR SBQV 141400Z 11010KT 9999 BKN020 26/17 Q1021;
0120833440999992012021415004-14950-040883FM-15+0914SBQV V0201301N005710075019N0112651N1+02601+01701999999ADDGA1071+007501999GF107991999999999999999999MA1102001999999REMMET051METAR SBQV 141500Z 13011KT 9999 BKN025 26/17 Q1020;
0120833440999992012021416004-14950-040883FM-15+0914SBQV V0201201N005112200019N0112651N1+02601+01701999999ADDGA1041+009001999GF104991999999999999999999MA1102001999999REMMET051METAR SBQV 141600Z 12010KT 9999 SCT030 26/17 Q1020;
0120833440999992012021417004-14950-040883FM-15+0914SBQV V0201201N006212200019N0112651N1+02801+01801999999ADDGA1041+009001999GF104991999999999999999999MA1101901999999REMMET051METAR SBQV 141700Z 12012KT 9999 SCT030 28/18 Q1019;
0123833440999992012021418004-14950-040883FM-15+0914SBQV V0201201N005112200019N0112651N1+02901+01701999999ADDGA1021+009001021GF102991999999999999999999MA1101801999999REMMET054METAR SBQV 141800Z 12010KT 9999 FEW030TCU 29/17 Q1018;
0123833440999992012021419004-14950-040883FM-15+0914SBQV V0201201N006212200019N0112651N1+02801+01801999999ADDGA1021+009001021GF102991999999999999999999MA1101801999999REMMET054METAR SBQV 141900Z 12012KT 9999 FEW030TCU 28/18 Q1018;
0120833440999992012021420004-14950-040883FM-15+0914SBQV V0201101N007212200019N0112651N1+02601+01801999999ADDGA1021+007501999GF102991999999999999999999MA1101801999999REMMET051METAR SBQV 142000Z 11014KT 9999 FEW025 26/18 Q1018;
0120833440999992012021421004-14950-040883FM-15+0914SBQV V0201201N005712200019N0112651N1+02401+01701999999ADDGA1021+004801999GF102991999999999999999999MA1101801999999REMMET051METAR SBQV 142100Z 12011KT 9999 FEW016 24/17 Q1018;
0072833440999992012021422004-14950-040883FM-15+0914SBQV V0201001N006719999999Y0099001N1+02201+01801999999ADDMA1101901999999REMMET045METAR SBQV 142200Z 10013KT CAVOK 22/18 Q1019;
0166833440999992012021511004-14950-040883FM-15+0914SBQV V0201201N005710030019N0112651N1+02001+02001999999ADDGA1021+001501999GA2071+003001999GA3071+021001999GF107991999999999999999999MA1102001999999REMMET065METAR SBQV 151100Z 12011KT 9999 FEW005 BKN010 BKN070 20/20 Q1020;
0166833440999992012021512004-14950-040883FM-15+0914SBQV V0201201N005110021019N0112651N1+02001+02001999999ADDGA1021+001501999GA2071+002101999GA3071+021001999GF107991999999999999999999MA1102101999999REMMET065METAR SBQV 151200Z 12010KT 9999 FEW005 BKN007 BKN070 20/20 Q1021;
0146833440999992012021513004-14950-040883FM-15+0914SBQV V0201201N00461002701CN0112651N1+02101+02001999999ADDGA1071+002701999GA2041+021001999MA1102101999999MW1611REMMET062METAR SBQV 151300Z 12009KT 9999 -RA BKN009 SCT070 21/20 Q1021;EQDQ01+000042SCOTCV
0143833440999992012021514004-14950-040883FM-15+0914SBQV V0201201N007712200019N0112651N1+02201+02001999999ADDGA1041+003901999GA2041+021001999GF104991999999999999999999MA1102101999999REMMET058METAR SBQV 151400Z 12015KT 9999 SCT013 SCT070 22/20 Q1021;
0136833440999992012021515004-14950-040883FM-15+0914SBQV V0201301N00511003901CN0112651N1+02101+02001999999ADDGA1071+003901999GA2041+021001999MA1102001999999REMMET058METAR SBQV 151500Z 13010KT 9999 BKN013 SCT070 21/20 Q1020;EQDQ01+000042SCOTCV
0143833440999992012021516004-14950-040883FM-15+0914SBQV V0201101N006712200019N0112651N1+02501+02001999999ADDGA1041+004501999GA2041+021001999GF104991999999999999999999MA1101901999999REMMET058METAR SBQV 151600Z 11013KT 9999 SCT015 SCT070 25/20 Q1019;
0146833440999992012021517004-14950-040883FM-15+0914SBQV V0201301N00671003601CN0070001N1+02301+02101999999ADDGA1071+003601999GA2041+021001999MA1101801999999MW1611REMMET062METAR SBQV 151700Z 13013KT 7000 -RA BKN012 SCT070 23/21 Q1018;EQDQ01+000042SCOTCV
0136833440999992012021518004-14950-040883FM-15+0914SBQV V0201101N00571003901CN0112651N1+02201+02001999999ADDGA1071+003901999GA2041+004501999MA1101901999999REMMET058METAR SBQV 151800Z 11011KT 9999 BKN013 SCT015 22/20 Q1019;EQDQ01+000042SCOTCV
0136833440999992012021519004-14950-040883FM-15+0914SBQV V0201101N00511003901CN0112651N1+02401+02001999999ADDGA1071+003901999GA2041+004501999MA1101801999999REMMET058METAR SBQV 151900Z 11010KT 9999 BKN013 SCT015 24/20 Q1018;EQDQ01+000042SCOTCV
0143833440999992012021520004-14950-040883FM-15+0914SBQV V0201301N005712200019N0112651N1+02201+02001999999ADDGA1041+003901999GA2041+004501999GF104991999999999999999999MA1101801999999REMMET058METAR SBQV 152000Z 13011KT 9999 SCT013 SCT015 22/20 Q1018;
0153833440999992012021521044-14950-040883FM-15+0914SBQV V0201301N00621002701CN0020001N1+02101+02001999999ADDGA1071+002701999GA2041+004501999MA1101801999999MW1611REMMET069METAR SBQV 152104Z 13012KT 2000 1000SE -RA BKN009 SCT015 21/20 Q1018;EQDQ01+000042SCOTCV
0136833440999992012021522004-14950-040883FM-15+0914SBQV V0201101N00461002101CN0112651N1+02001+02001999999ADDGA1071+002101999GA2041+002701999MA1101801999999REMMET058METAR SBQV 152200Z 11009KT 9999 BKN007 SCT009 20/20 Q1018;EQDQ01+000042SCOTCV
0120833440999992012021611004-14950-040883FM-15+0914SBQV V0201301N005710021019N0112651N1+01901+01901999999ADDGA1071+002101999GF107991999999999999999999MA1102001999999REMMET051METAR SBQV 161100Z 13011KT 9999 BKN007 19/19 Q1020;
0143833440999992012021612004-14950-040883FM-15+0914SBQV V0201101N006212200019N0112651N1+02101+01901999999ADDGA1041+002701999GA2041+024001999GF104991999999999999999999MA1102001999999REMMET058METAR SBQV 161200Z 11012KT 9999 SCT009 SCT080 21/19 Q1020;
0146833440999992012021613004-14950-040883FM-15+0914SBQV V0201201N00511002101CN0050001N1+02001+02001999999ADDGA1071+002101999GA2041+021001999MA1102001999999MW1511REMMET062METAR SBQV 161300Z 12010KT 5000 -DZ BKN007 SCT070 20/20 Q1020;EQDQ01+000042SCOTCV
0143833440999992012021614004-14950-040883FM-15+0914SBQV V0201201N006212200019N0112651N1+02201+02001999999ADDGA1041+003301999GA2041+024001999GF104991999999999999999999MA1101901999999REMMET058METAR SBQV 161400Z 12012KT 9999 SCT011 SCT080 22/20 Q1019;
0143833440999992012021615004-14950-040883FM-15+0914SBQV V0201201N006710240019N0112651N1+02401+01801999999ADDGA1041+005401999GA2071+024001999GF107991999999999999999999MA1101901999999REMMET058METAR SBQV 161500Z 12013KT 9999 SCT018 BKN080 24/18 Q1019;
0143833440999992012021616004-14950-040883FM-15+0914SBQV V0201201N004610270019N0112651N1+02501+01801999999ADDGA1041+006001999GA2071+027001999GF107991999999999999999999MA1101801999999REMMET058METAR SBQV 161600Z 12009KT 9999 SCT020 BKN090 25/18 Q1018;
0187833440999992012021617004-14950-040883FM-15+0914SBQV V0201201N005710045019N0050001N1+02001+02001999999ADDGA1041+003601999GA2071+004501999GA3071+027001999GF107991999999999999999999MA1101801999999MW1611REMMET080METAR SBQV 161700Z 12011KT 5000 1500S -RA SCT012 BKN015 BKN090 20/20 Q1018 RERA;
0176833440999992012021618004-14950-040883FM-15+0914SBQV V0201301N005110045019N0050001N1+02101+02101999999ADDGA1041+003601999GA2071+004501999GA3071+021001999GF107991999999999999999999MA1101801999999MW1611REMMET069METAR SBQV 161800Z 13010KT 5000 -RA SCT012 BKN015 BKN070 21/21 Q1018;
0166833440999992012021619004-14950-040883FM-15+0914SBQV V0201101N00361004501CN0112651N1+02201+02001999999ADDGA1041+003601999GA2041+004501999GA3071+021001999GF107991999999999999999999MA1101801999999REMMET065METAR SBQV 161900Z 11007KT 9999 SCT012 SCT015 BKN070 22/20 Q1018;
0166833440999992012021620004-14950-040883FM-15+0914SBQV V0201301N00411004501CN0112651N1+02001+02001999999ADDGA1021+003601999GA2041+004501999GA3071+021001999GF107991999999999999999999MA1101801999999REMMET065METAR SBQV 162000Z 13008KT 9999 FEW012 SCT015 BKN070 20/20 Q1018;
0143833440999992012021621004-14950-040883FM-15+0914SBQV V0201301N004110210019N0112651N1+02001+01901999999ADDGA1021+004501999GA2071+021001999GF107991999999999999999999MA1101801999999REMMET058METAR SBQV 162100Z 13008KT 9999 FEW015 BKN070 20/19 Q1018;
0072833440999992012021622004-14950-040883FM-15+0914SBQV V0201001N003619999999Y0099001N1+02001+01801999999ADDMA1101801999999REMMET045METAR SBQV 162200Z 10007KT CAVOK 20/18 Q1018;
0072833440999992012021623004-14950-040883FM-15+0914SBQV V0201001N003619999999Y0099001N1+01901+01801999999ADDMA1101801999999REMMET045METAR SBQV 162300Z 10007KT CAVOK 19/18 Q1018;
0072833440999992012021700004-14950-040883FM-15+0914SBQV V0201001N003619999999Y0099001N1+01901+01801999999ADDMA1101901999999REMMET045METAR SBQV 170000Z 10007KT CAVOK 19/18 Q1019;
0136833440999992012021711004-14950-040883FM-15+0914SBQV V0201301N00361003001CN0112651N1+02001+01901999999ADDGA1071+003001999GA2041+024001999MA1101901999999REMMET058METAR SBQV 171100Z 13007KT 9999 BKN010 SCT080 20/19 Q1019;EQDQ01+000042SCOTCV
0136833440999992012021712004-14950-040883FM-15+0914SBQV V0201401N00411003901CN0112651N1+02101+01901999999ADDGA1071+003901999GA2041+024001999MA1102001999999REMMET058METAR SBQV 171200Z 14008KT 9999 BKN013 SCT080 21/19 Q1020;EQDQ01+000042SCOTCV
0120833440999992012021713004-14950-040883FM-15+0914SBQV V0201301N004110048019N0112651N1+02301+01901999999ADDGA1071+004801999GF107991999999999999999999MA1101901999999REMMET051METAR SBQV 171300Z 13008KT 9999 BKN016 23/19 Q1019;
0120833440999992012021714004-14950-040883FM-15+0914SBQV V0201101N003612200019N0112651N1+02401+01901999999ADDGA1041+005401999GF104991999999999999999999MA1101901999999REMMET051METAR SBQV 171400Z 11007KT 9999 SCT018 24/19 Q1019;
0143833440999992012021715004-14950-040883FM-15+0914SBQV V0201201N003612200019N0112651N1+02501+01901999999ADDGA1041+006001999GA2041+027001999GF104991999999999999999999MA1101901999999REMMET058METAR SBQV 171500Z 12007KT 9999 SCT020 SCT090 25/19 Q1019;
0120833440999992012021716004-14950-040883FM-15+0914SBQV V0201401N003610060019N0112651N1+02601+01901999999ADDGA1071+006001999GF107991999999999999999999MA1101801999999REMMET051METAR SBQV 171600Z 14007KT 9999 BKN020 26/19 Q1018;
0120833440999992012021717004-14950-040883FM-15+0914SBQV V0201201N003610060019N0112651N1+02701+01901999999ADDGA1071+006001999GF107991999999999999999999MA1101691999999REMMET051METAR SBQV 171700Z 12007KT 9999 BKN020 27/19 Q1017;
0136833440999992012021718004-14950-040883FM-15+0914SBQV V0201401N00411005401CN0112651N1+02601+02001999999ADDGA1071+005401999GA2041+021001999MA1101691999999REMMET058METAR SBQV 171800Z 14008KT 9999 BKN018 SCT070 26/20 Q1017;EQDQ01+000042SCOTCV
0143833440999992012021719004-14950-040883FM-15+0914SBQV V0200701N002610210019N0112651N1+02201+02101999999ADDGA1041+003901999GA2071+021001999GF107991999999999999999999MA1101691999999REMMET058METAR SBQV 171900Z 07005KT 9999 SCT013 BKN070 22/21 Q1017;
0153833440999992012021720004-14950-040883FM-15+0914SBQV V0201301N004610210019N0112651N1+02001+02001999999ADDGA1021+003301999GA2071+021001999GF107991999999999999999999MA1101801999999MW1611REMMET062METAR SBQV 172000Z 13009KT 9999 -RA FEW011 BKN070 20/20 Q1018;
0143833440999992012021721004-14950-040883FM-15+0914SBQV V0201201N003610210019N0112651N1+02001+02001999999ADDGA1041+003301999GA2071+021001999GF107991999999999999999999MA1101801999999REMMET058METAR SBQV 172100Z 12007KT 9999 SCT011 BKN070 20/20 Q1018;
0143833440999992012021722004-14950-040883FM-15+0914SBQV V0201201N005110210019N0112651N1+02001+02001999999ADDGA1041+001801999GA2071+021001999GF107991999999999999999999MA1101801999999REMMET058METAR SBQV 172200Z 12010KT 9999 SCT006 BKN070 20/20 Q1018;
0143833440999992012021811004-14950-040883FM-15+0914SBQV V0200901N003610210019N0112651N1+01901+01901999999ADDGA1041+002701999GA2071+021001999GF107991999999999999999999MA1102001999999REMMET058METAR SBQV 181100Z 09007KT 9999 SCT009 BKN070 19/19 Q1020;
0104833440999992012021812004-14950-040883FM-15+0914SBQV V0201001N005110039019N0112651N1+02201+02001999999ADDGA1071+003901999GF107991999999999999999999REMMET050METAR SBQV 181200Z 10010KT 9999 BKN013 22/20 Q102;
0120833440999992012021813004-14950-040883FM-15+0914SBQV V0201201N005110048019N0112651N1+02401+01901999999ADDGA1071+004801999GF107991999999999999999999MA1102101999999REMMET051METAR SBQV 181300Z 12010KT 9999 BKN016 24/19 Q1021;
0120833440999992012021814004-14950-040883FM-15+0914SBQV V0201001N005712200019N0112651N1+02401+01901999999ADDGA1041+005401999GF104991999999999999999999MA1102101999999REMMET051METAR SBQV 181400Z 10011KT 9999 SCT018 24/19 Q1021;
0120833440999992012021815004-14950-040883FM-15+0914SBQV V0201001N006210060019N0112651N1+02501+01801999999ADDGA1071+006001999GF107991999999999999999999MA1102001999999REMMET051METAR SBQV 181500Z 10012KT 9999 BKN020 25/18 Q1020;
0120833440999992012021816004-14950-040883FM-15+0914SBQV V0201101N006212200019N0112651N1+02601+01801999999ADDGA1041+006001999GF104991999999999999999999MA1102001999999REMMET051METAR SBQV 181600Z 11012KT 9999 SCT020 26/18 Q1020;
0120833440999992012021817004-14950-040883FM-15+0914SBQV V0201101N005112200019N0112651N1+02701+01801999999ADDGA1041+006001999GF104991999999999999999999MA1101901999999REMMET051METAR SBQV 181700Z 11010KT 9999 SCT020 27/18 Q1019;
0120833440999992012021818004-14950-040883FM-15+0914SBQV V0201401N005112200019N0112651N1+02801+01701999999ADDGA1041+006001999GF104991999999999999999999MA1101801999999REMMET051METAR SBQV 181800Z 14010KT 9999 SCT020 28/17 Q1018;
0143833440999992012021819004-14950-040883FM-15+0914SBQV V0201301N005112200019N0112651N1+02701+01701999999ADDGA1041+006001999GA2041+021001999GF104991999999999999999999MA1101801999999REMMET058METAR SBQV 181900Z 13010KT 9999 SCT020 SCT070 27/17 Q1018;
0143833440999992012021820004-14950-040883FM-15+0914SBQV V0201201N004612200019N0112651N1+02501+01601999999ADDGA1021+006001999GA2041+021001999GF104991999999999999999999MA1101801999999REMMET058METAR SBQV 182000Z 12009KT 9999 FEW020 SCT070 25/16 Q1018;
0143833440999992012021821004-14950-040883FM-15+0914SBQV V0201201N004612200019N0112651N1+02401+01401999999ADDGA1021+005401999GA2041+021001999GF104991999999999999999999MA1101801999999REMMET058METAR SBQV 182100Z 12009KT 9999 FEW018 SCT070 24/14 Q1018;
0072833440999992012021822004-14950-040883FM-15+0914SBQV V0201101N003119999999Y0099001N1+02201+01801999999ADDMA1101801999999REMMET045METAR SBQV 182200Z 11006KT CAVOK 22/18 Q1018;
0143833440999992012021911004-14950-040883FM-15+0914SBQV V0201101N003610045019N0112651N1+02101+01801999999ADDGA1041+003001999GA2071+004501999GF107991999999999999999999MA1102101999999REMMET058METAR SBQV 191100Z 11007KT 9999 SCT010 BKN015 21/18 Q1021;
0120833440999992012021912004-14950-040883FM-15+0914SBQV V0201001N005710075019N0112651N1+02301+01701999999ADDGA1071+007501999GF107991999999999999999999MA1102201999999REMMET051METAR SBQV 191200Z 10011KT 9999 BKN025 23/17 Q1022;
0120833440999992012021913004-14950-040883FM-15+0914SBQV V0201001N005712200019N0112651N1+02401+01701999999ADDGA1041+004801999GF104991999999999999999999MA1102201999999REMMET051METAR SBQV 191300Z 10011KT 9999 SCT016 24/17 Q1022;
0120833440999992012021914004-14950-040883FM-15+0914SBQV V0201201N004612200019N0112651N1+02501+01701999999ADDGA1041+005401999GF104991999999999999999999MA1102201999999REMMET051METAR SBQV 191400Z 12009KT 9999 SCT018 25/17 Q1022;
0120833440999992012021915004-14950-040883FM-15+0914SBQV V0201101N004112200019N0112651N1+02601+01701999999ADDGA1041+006001999GF104991999999999999999999MA1102101999999REMMET051METAR SBQV 191500Z 11008KT 9999 SCT020 26/17 Q1021;
0120833440999992012021916004-14950-040883FM-15+0914SBQV V0201101N003612200019N0112651N1+02801+01601999999ADDGA1041+007501999GF104991999999999999999999MA1102001999999REMMET051METAR SBQV 191600Z 11007KT 9999 SCT025 28/16 Q1020;
0120833440999992012021917004-14950-040883FM-15+0914SBQV V0201301N005112200019N0112651N1+02801+01701999999ADDGA1041+007501999GF104991999999999999999999MA1101901999999REMMET051METAR SBQV 191700Z 13010KT 9999 SCT025 28/17 Q1019;
0120833440999992012021918004-14950-040883FM-15+0914SBQV V0201401N005712200019N0112651N1+02801+01601999999ADDGA1021+007501999GF102991999999999999999999MA1101901999999REMMET051METAR SBQV 191800Z 14011KT 9999 FEW025 28/16 Q1019;
0120833440999992012021919004-14950-040883FM-15+0914SBQV V0201301N005112200019N0112651N1+02801+01601999999ADDGA1021+007501999GF102991999999999999999999MA1101801999999REMMET051METAR SBQV 191900Z 13010KT 9999 FEW025 28/16 Q1018;
0120833440999992012021920004-14950-040883FM-15+0914SBQV V0201301N005712200019N0112651N1+02701+01701999999ADDGA1021+007501999GF102991999999999999999999MA1101801999999REMMET051METAR SBQV 192000Z 13011KT 9999 FEW025 27/17 Q1018;
0120833440999992012021921004-14950-040883FM-15+0914SBQV V0201201N005712200019N0112651N1+02401+01801999999ADDGA1021+006001999GF102991999999999999999999MA1101801999999REMMET051METAR SBQV 192100Z 12011KT 9999 FEW020 24/18 Q1018;
0072833440999992012021922004-14950-040883FM-15+0914SBQV V0201301N004619999999Y0099001N1+02201+01801999999ADDMA1101801999999REMMET045METAR SBQV 192200Z 13009KT CAVOK 22/18 Q1018;
0120833440999992012022011004-14950-040883FM-15+0914SBQV V0201001N003610045019N0112651N1+02001+01801999999ADDGA1071+004501999GF107991999999999999999999MA1102001999999REMMET051METAR SBQV 201100Z 10007KT 9999 BKN015 20/18 Q1020;
0120833440999992012022012004-14950-040883FM-15+0914SBQV V0200901N004610054019N0112651N1+02201+01701999999ADDGA1071+005401999GF107991999999999999999999MA1102101999999REMMET051METAR SBQV 201200Z 09009KT 9999 BKN018 22/17 Q1021;
0120833440999992012022013004-14950-040883FM-15+0914SBQV V0201201N005110060019N0112651N1+02401+01701999999ADDGA1071+006001999GF107991999999999999999999MA1102101999999REMMET051METAR SBQV 201300Z 12010KT 9999 BKN020 24/17 Q1021;
0120833440999992012022014004-14950-040883FM-15+0914SBQV V0201001N004112200019N0112651N1+02701+01701999999ADDGA1041+007501999GF104991999999999999999999MA1102001999999REMMET051METAR SBQV 201400Z 10008KT 9999 SCT025 27/17 Q1020;
0120833440999992012022015004-14950-040883FM-15+0914SBQV V0201201N004612200019N0112651N1+02701+01701999999ADDGA1041+007501999GF104991999999999999999999MA1102001999999REMMET051METAR SBQV 201500Z 12009KT 9999 SCT025 27/17 Q1020;
0120833440999992012022016004-14950-040883FM-15+0914SBQV V0201301N004112200019N0112651N1+02701+01601999999ADDGA1041+007501999GF104991999999999999999999MA1101901999999REMMET051METAR SBQV 201600Z 13008KT 9999 SCT025 27/16 Q1019;
0120833440999992012022017004-14950-040883FM-15+0914SBQV V0201301N005112200019N0112651N1+02801+01601999999ADDGA1021+009001999GF102991999999999999999999MA1101801999999REMMET051METAR SBQV 201700Z 13010KT 9999 FEW030 28/16 Q1018;
0120833440999992012022018004-14950-040883FM-15+0914SBQV V0201201N004112200019N0112651N1+02901+01601999999ADDGA1021+009001999GF102991999999999999999999MA1101691999999REMMET051METAR SBQV 201800Z 12008KT 9999 FEW030 29/16 Q1017;
0120833440999992012022019004-14950-040883FM-15+0914SBQV V0201401N005712200019N0112651N1+02801+01601999999ADDGA1021+009001999GF102991999999999999999999MA1101691999999REMMET051METAR SBQV 201900Z 14011KT 9999 FEW030 28/16 Q1017;
0120833440999992012022020004-14950-040883FM-15+0914SBQV V0201401N005112200019N0112651N1+02701+01601999999ADDGA1021+009001999GF102991999999999999999999MA1101691999999REMMET051METAR SBQV 202000Z 14010KT 9999 FEW030 27/16 Q1017;
0120833440999992012022021004-14950-040883FM-15+0914SBQV V0201201N005712200019N0112651N1+02401+01701999999ADDGA1021+006001999GF102991999999999999999999MA1101691999999REMMET051METAR SBQV 202100Z 12011KT 9999 FEW020 24/17 Q1017;
0120833440999992012022022004-14950-040883FM-15+0914SBQV V0201201N005712200019N0112651N1+02201+01901999999ADDGA1021+002701999GF102991999999999999999999MA1101691999999REMMET051METAR SBQV 202200Z 12011KT 9999 FEW009 22/19 Q1017;
0120833440999992012022111004-14950-040883FM-15+0914SBQV V0200901N004612200019N0112651N1+02101+01701999999ADDGA1041+004501999GF104991999999999999999999MA1102101999999REMMET051METAR SBQV 211100Z 09009KT 9999 SCT015 21/17 Q1021;
0120833440999992012022112004-14950-040883FM-15+0914SBQV V0200701N005112200019N0112651N1+02401+01601999999ADDGA1021+007501999GF102991999999999999999999MA1102101999999REMMET051METAR SBQV 211200Z 07010KT 9999 FEW025 24/16 Q1021;
0120833440999992012022113004-14950-040883FM-15+0914SBQV V0200701N004612200019N0112651N1+02701+01601999999ADDGA1041+009001999GF104991999999999999999999MA1102101999999REMMET051METAR SBQV 211300Z 07009KT 9999 SCT030 27/16 Q1021;
0120833440999992012022114004-14950-040883FM-15+0914SBQV V0200801N003612200019N0112651N1+02701+01501999999ADDGA1041+009001999GF104991999999999999999999MA1102001999999REMMET051METAR SBQV 211400Z 08007KT 9999 SCT030 27/15 Q1020;
0120833440999992012022115004-14950-040883FM-15+0914SBQV V0201201N004612200019N0112651N1+02901+01401999999ADDGA1041+010501999GF104991999999999999999999MA1102001999999REMMET051METAR SBQV 211500Z 12009KT 9999 SCT035 29/14 Q1020;
0120833440999992012022116004-14950-040883FM-15+0914SBQV V0201201N005112200019N0112651N1+02701+01601999999ADDGA1041+010501999GF104991999999999999999999MA1101901999999REMMET051METAR SBQV 211600Z 12010KT 9999 SCT035 27/16 Q1019;
0120833440999992012022117004-14950-040883FM-15+0914SBQV V0201201N003612200019N0112651N1+02801+01501999999ADDGA1041+010501999GF104991999999999999999999MA1101801999999REMMET051METAR SBQV 211700Z 12007KT 9999 SCT035 28/15 Q1018;
0120833440999992012022118004-14950-040883FM-15+0914SBQV V0200901N004610090019N0112651N1+02701+01601999999ADDGA1071+009001999GF107991999999999999999999MA1101691999999REMMET051METAR SBQV 211800Z 09009KT 9999 BKN030 27/16 Q1017;
0120833440999992012022119004-14950-040883FM-15+0914SBQV V0201401N004612200019N0112651N1+02701+01701999999ADDGA1041+009001999GF104991999999999999999999MA1101691999999REMMET051METAR SBQV 211900Z 14009KT 9999 SCT030 27/17 Q1017;
0120833440999992012022120004-14950-040883FM-15+0914SBQV V0201301N005712200019N0112651N1+02701+01701999999ADDGA1041+009001999GF104991999999999999999999MA1101691999999REMMET051METAR SBQV 212000Z 13011KT 9999 SCT030 27/17 Q1017;
0124833440999992012022121004-14950-040883FM-15+0914SBQV V0201201N005712200019N0112651N1+02501+01701999999ADDGA1041+007501999GF104991999999999999999999MA1101691999999REMMET055METAR SBQV 212100Z COR 12011KT 9999 SCT025 25/17 Q1017;
0072833440999992012022122004-14950-040883FM-15+0914SBQV V0201001N004119999999Y0099001N1+02301+01701999999ADDMA1101691999999REMMET045METAR SBQV 212200Z 10008KT CAVOK 23/17 Q1017;
0120833440999992012022216004-14950-040883FM-15+0914SBQV V0201301N003612200019N0112651N1+02901+01601999999ADDGA1021+009001999GF102991999999999999999999MA1101691999999REMMET051METAR SBQV 221600Z 13007KT 9999 FEW030 29/16 Q1017;
0120833440999992012022218004-14950-040883FM-15+0914SBQV V0201301N004612200019N0112651N1+02901+01601999999ADDGA1021+009001999GF102991999999999999999999MA1101591999999REMMET051METAR SBQV 221800Z 13009KT 9999 FEW030 29/16 Q1016;
0120833440999992012022219004-14950-040883FM-15+0914SBQV V0201401N004612200019N0112651N1+02901+01501999999ADDGA1021+009001999GF102991999999999999999999MA1101591999999REMMET051METAR SBQV 221900Z 14009KT 9999 FEW030 29/15 Q1016;
0120833440999992012022220004-14950-040883FM-15+0914SBQV V0201301N004112200019N0112651N1+02701+01501999999ADDGA1021+007501999GF102991999999999999999999MA1101491999999REMMET051METAR SBQV 222000Z 13008KT 9999 FEW025 27/15 Q1015;
0120833440999992012022221004-14950-040883FM-15+0914SBQV V0201301N004612200019N0112651N1+02501+01601999999ADDGA1021+006001999GF102991999999999999999999MA1101491999999REMMET051METAR SBQV 222100Z 13009KT 9999 FEW020 25/16 Q1015;
0120833440999992012022222004-14950-040883FM-15+0914SBQV V0201101N002612200019N0112651N1+02301+01701999999ADDGA1021+004801999GF102991999999999999999999MA1101591999999REMMET051METAR SBQV 222200Z 11005KT 9999 FEW016 23/17 Q1016;
0120833440999992012022311004-14950-040883FM-15+0914SBQV V0200601N002612200019N0112651N1+02301+01801999999ADDGA1021+004801999GF102991999999999999999999MA1101801999999REMMET051METAR SBQV 231100Z 06005KT 9999 FEW016 23/18 Q1018;
0120833440999992012022312004-14950-040883FM-15+0914SBQV V0200901N002612200019N0112651N1+02501+01701999999ADDGA1021+006001999GF102991999999999999999999MA1101901999999REMMET051METAR SBQV 231200Z 09005KT 9999 FEW020 25/17 Q1019;
0120833440999992012022313004-14950-040883FM-15+0914SBQV V0201301N003112200019N0112651N1+02701+01501999999ADDGA1021+007501999GF102991999999999999999999MA1101801999999REMMET051METAR SBQV 231300Z 13006KT 9999 FEW025 27/15 Q1018;
0128833440999992012022314004-14950-040883FM-15+0914SBQV V0201401N003612200019N0112651N1+02801+01501999999ADDGA1021+009001999GF102991999999999999999999MA1101801999999REMMET059METAR SBQV 231400Z 14007KT 090V180 9999 FEW030 28/15 Q1018;
0128833440999992012022315004-14950-040883FM-15+0914SBQV V0201401N004612200019N0112651N1+02901+01501999999ADDGA1021+009001999GF102991999999999999999999MA1101691999999REMMET059METAR SBQV 231500Z 14009KT 110V170 9999 FEW030 29/15 Q1017;
0120833440999992012022316004-14950-040883FM-15+0914SBQV V0201301N004612200019N0112651N1+02901+01601999999ADDGA1021+009001999GF102991999999999999999999MA1101691999999REMMET051METAR SBQV 231600Z 13009KT 9999 FEW030 29/16 Q1017;
0120833440999992012022317004-14950-040883FM-15+0914SBQV V0201401N005712200019N0112651N1+03001+01601999999ADDGA1021+007501999GF102991999999999999999999MA1101591999999REMMET051METAR SBQV 231700Z 14011KT 9999 FEW025 30/16 Q1016;
0120833440999992012022318004-14950-040883FM-15+0914SBQV V0201301N005712200019N0112651N1+02901+01601999999ADDGA1021+007501999GF102991999999999999999999MA1101491999999REMMET051METAR SBQV 231800Z 13011KT 9999 FEW025 29/16 Q1015;
0120833440999992012022319004-14950-040883FM-15+0914SBQV V0201201N005712200019N0112651N1+02801+01701999999ADDGA1021+007501999GF102991999999999999999999MA1101491999999REMMET051METAR SBQV 231900Z 12011KT 9999 FEW025 28/17 Q1015;
0120833440999992012022320004-14950-040883FM-15+0914SBQV V0201101N005112200019N0112651N1+02801+01701999999ADDGA1021+009001999GF102991999999999999999999MA1101491999999REMMET051METAR SBQV 232000Z 11010KT 9999 FEW030 28/17 Q1015;
0072833440999992012022322004-14950-040883FM-15+0914SBQV V0201101N003119999999Y0099001N1+02301+01701999999ADDMA1101491999999REMMET045METAR SBQV 232200Z 11006KT CAVOK 23/17 Q1015;
0072833440999992012022323004-14950-040883FM-15+0914SBQV V0200701N005719999999Y0099001N1+02201+01901999999ADDMA1101491999999REMMET045METAR SBQV 232300Z 07011KT CAVOK 22/19 Q1015;
0072833440999992012022400004-14950-040883FM-15+0914SBQV V0200801N005719999999Y0099001N1+02001+01901999999ADDMA1101591999999REMMET045METAR SBQV 240000Z 08011KT CAVOK 20/19 Q1016;
0072833440999992012022401004-14950-040883FM-15+0914SBQV V0201001N004619999999Y0099001N1+02001+01901999999ADDMA1101691999999REMMET045METAR SBQV 240100Z 10009KT CAVOK 20/19 Q1017;
0072833440999992012022402004-14950-040883FM-15+0914SBQV V0200801N005119999999Y0099001N1+01901+01801999999ADDMA1101591999999REMMET045METAR SBQV 240200Z 08010KT CAVOK 19/18 Q1016;
0120833440999992012022411004-14950-040883FM-15+0914SBQV V0200701N005112200019N0112651N1+02201+01801999999ADDGA1041+003301999GF104991999999999999999999MA1101691999999REMMET051METAR SBQV 241100Z 07010KT 9999 SCT011 22/18 Q1017;
0120833440999992012022412004-14950-040883FM-15+0914SBQV V0200801N003112200019N0112651N1+02201+01801999999ADDGA1041+004501999GF104991999999999999999999MA1101691999999REMMET051METAR SBQV 241200Z 08006KT 9999 SCT015 22/18 Q1017;
0120833440999992012022413004-14950-040883FM-15+0914SBQV V0201001N003112200019N0112651N1+02601+01601999999ADDGA1041+005401999GF104991999999999999999999MA1101801999999REMMET051METAR SBQV 241300Z 10006KT 9999 SCT018 26/16 Q1018;
0120833440999992012022414004-14950-040883FM-15+0914SBQV V0201401N002112200019N0112651N1+02801+01501999999ADDGA1041+005401999GF104991999999999999999999MA1101691999999REMMET051METAR SBQV 241400Z 14004KT 9999 SCT018 28/15 Q1017;
0120833440999992012022415004-14950-040883FM-15+0914SBQV V0201201N003112200019N0112651N1+02801+01401999999ADDGA1041+006001999GF104991999999999999999999MA1101691999999REMMET051METAR SBQV 241500Z 12006KT 9999 SCT020 28/14 Q1017;
0120833440999992012022416004-14950-040883FM-15+0914SBQV V0201201N004610075019N0112651N1+02901+01601999999ADDGA1071+007501999GF107991999999999999999999MA1101591999999REMMET051METAR SBQV 241600Z 12009KT 9999 BKN025 29/16 Q1016;
0120833440999992012022417004-14950-040883FM-15+0914SBQV V0201301N003612200019N0112651N1+03001+01401999999ADDGA1021+009001999GF102991999999999999999999MA1101491999999REMMET051METAR SBQV 241700Z 13007KT 9999 FEW030 30/14 Q1015;
0120833440999992012022418004-14950-040883FM-15+0914SBQV V0201401N005112200019N0112651N1+03001+01501999999ADDGA1021+009001999GF102991999999999999999999MA1101491999999REMMET051METAR SBQV 241800Z 14010KT 9999 FEW030 30/15 Q1015;
0120833440999992012022419004-14950-040883FM-15+0914SBQV V0201401N005112200019N0112651N1+02901+01301999999ADDGA1021+009001999GF102991999999999999999999MA1101391999999REMMET051METAR SBQV 241900Z 14010KT 9999 FEW030 29/13 Q1014;
0120833440999992012022420004-14950-040883FM-15+0914SBQV V0201201N005112200019N0112651N1+02801+01401999999ADDGA1021+009001999GF102991999999999999999999MA1101391999999REMMET051METAR SBQV 242000Z 12010KT 9999 FEW030 28/14 Q1014;
0120833440999992012022421004-14950-040883FM-15+0914SBQV V0201301N004612200019N0112651N1+02501+01301999999ADDGA1021+006001999GF102991999999999999999999MA1101491999999REMMET051METAR SBQV 242100Z 13009KT 9999 FEW020 25/13 Q1015;
0072833440999992012022422004-14950-040883FM-15+0914SBQV V0201201N003119999999Y0099001N1+02301+01301999999ADDMA1101491999999REMMET045METAR SBQV 242200Z 12006KT CAVOK 23/13 Q1015;
0072833440999992012022423004-14950-040883FM-15+0914SBQV V0201001N004119999999Y0099001N1+02301+01601999999ADDMA1101491999999REMMET045METAR SBQV 242300Z 10008KT CAVOK 23/16 Q1015;
0072833440999992012022500004-14950-040883FM-15+0914SBQV V0201101N004119999999Y0099001N1+02101+01801999999ADDMA1101591999999REMMET045METAR SBQV 250000Z 11008KT CAVOK 21/18 Q1016;
0072833440999992012022501004-14950-040883FM-15+0914SBQV V0201101N004619999999Y0099001N1+02001+01801999999ADDMA1101591999999REMMET045METAR SBQV 250100Z 11009KT CAVOK 20/18 Q1016;
0072833440999992012022502004-14950-040883FM-15+0914SBQV V0201101N004119999999Y0099001N1+01901+01801999999ADDMA1101691999999REMMET045METAR SBQV 250200Z 11008KT CAVOK 19/18 Q1017;
0120833440999992012022511004-14950-040883FM-15+0914SBQV V0200601N002612200019N0112651N1+02201+01701999999ADDGA1021+004801999GF102991999999999999999999MA1101801999999REMMET051METAR SBQV 251100Z 06005KT 9999 FEW016 22/17 Q1018;
0127833440999992012022512004-14950-040883FM-15+0914SBQV V0200501N003610054019N0112651N1+02401+01601999999ADDGA1071+005401999GF107991999999999999999999MA1101801999999REMMET058METAR SBQV 251200Z 05007KT 010V080 9999 BKN01824/16 Q1018;
0120833440999992012022513004-14950-040883FM-15+0914SBQV V0200801N003610060019N0112651N1+02501+01601999999ADDGA1071+006001999GF107991999999999999999999MA1101801999999REMMET051METAR SBQV 251300Z 08007KT 9999 BKN020 25/16 Q1018;
0120833440999992012022514004-14950-040883FM-15+0914SBQV V0200801N003110075019N0112651N1+02701+01301999999ADDGA1071+007501999GF107991999999999999999999MA1101691999999REMMET051METAR SBQV 251400Z 08006KT 9999 BKN025 27/13 Q1017;
0120833440999992012022515004-14950-040883FM-15+0914SBQV V0200901N004612200019N0112651N1+02701+01501999999ADDGA1041+007501999GF104991999999999999999999MA1101691999999REMMET051METAR SBQV 251500Z 09009KT 9999 SCT025 27/15 Q1017;
0120833440999992012022516004-14950-040883FM-15+0914SBQV V0201401N005710075019N0112651N1+02701+01501999999ADDGA1071+007501999GF107991999999999999999999MA1101491999999REMMET051METAR SBQV 251600Z 14011KT 9999 BKN025 27/15 Q1015;
0120833440999992012022517004-14950-040883FM-15+0914SBQV V0201301N004610075019N0112651N1+02701+01601999999ADDGA1071+007501999GF107991999999999999999999MA1101491999999REMMET051METAR SBQV 251700Z 13009KT 9999 BKN025 27/16 Q1015;
0120833440999992012022518004-14950-040883FM-15+0914SBQV V0201101N005110075019N0112651N1+02701+01601999999ADDGA1071+007501999GF107991999999999999999999MA1101391999999REMMET051METAR SBQV 251800Z 11010KT 9999 BKN025 27/16 Q1014;
0120833440999992012022519004-14950-040883FM-15+0914SBQV V0201101N005712200019N0112651N1+02701+01601999999ADDGA1041+007501999GF104991999999999999999999MA1101391999999REMMET051METAR SBQV 251900Z 11011KT 9999 SCT025 27/16 Q1014;
0120833440999992012022520004-14950-040883FM-15+0914SBQV V0201201N006212200019N0112651N1+02601+01501999999ADDGA1041+006001999GF104991999999999999999999MA1101391999999REMMET051METAR SBQV 252000Z 12012KT 9999 SCT020 26/15 Q1014;
0120833440999992012022521004-14950-040883FM-15+0914SBQV V0201101N005112200019N0112651N1+02301+01601999999ADDGA1021+005401999GF102991999999999999999999MA1101391999999REMMET051METAR SBQV 252100Z 11010KT 9999 FEW018 23/16 Q1014;
0120833440999992012022522004-14950-040883FM-15+0914SBQV V0201001N005712200019N0112651N1+02201+01701999999ADDGA1021+004801999GF102991999999999999999999MA1101491999999REMMET051METAR SBQV 252200Z 10011KT 9999 FEW016 22/17 Q1015;
0072833440999992012022611004-14950-040883FM-15+0914SBQV V0200501N003619999999Y0099001N1+02301+01801999999ADDMA1101901999999REMMET045METAR SBQV 261100Z 05007KT CAVOK 23/18 Q1019;
0120833440999992012022612004-14950-040883FM-15+0914SBQV V0200801N004112200019N0112651N1+02501+01701999999ADDGA1021+004501999GF102991999999999999999999MA1101901999999REMMET051METAR SBQV 261200Z 08008KT 9999 FEW015 25/17 Q1019;
0120833440999992012022613004-14950-040883FM-15+0914SBQV V0200801N003112200019N0112651N1+02701+01601999999ADDGA1041+004801999GF104991999999999999999999MA1101901999999REMMET051METAR SBQV 261300Z 08006KT 9999 SCT016 27/16 Q1019;
0143833440999992012022614004-14950-040883FM-15+0914SBQV V0200601N003112200019N0112651N1+02801+01501999999ADDGA1041+005401999GA2041+024001999GF104991999999999999999999MA1101901999999REMMET058METAR SBQV 261400Z 06006KT 9999 SCT018 SCT080 28/15 Q1019;
0143833440999992012022615004-14950-040883FM-15+0914SBQV V0200801N004112200019N0112651N1+02901+01601999999ADDGA1041+006001999GA2041+024001999GF104991999999999999999999MA1101801999999REMMET058METAR SBQV 261500Z 08008KT 9999 SCT020 SCT080 29/16 Q1018;
0120833440999992012022616004-14950-040883FM-15+0914SBQV V0201101N004110075019N0112651N1+03001+01601999999ADDGA1071+007501999GF107991999999999999999999MA1101691999999REMMET051METAR SBQV 261600Z 11008KT 9999 BKN025 30/16 Q1017;
0120833440999992012022617004-14950-040883FM-15+0914SBQV V0201101N003110075019N0112651N1+03001+01601999999ADDGA1071+007501999GF107991999999999999999999MA1101591999999REMMET051METAR SBQV 261700Z 11006KT 9999 BKN025 30/16 Q1016;
0120833440999992012022618004-14950-040883FM-15+0914SBQV V0201101N003610075019N0112651N1+02801+01601999999ADDGA1071+007501999GF107991999999999999999999MA1101591999999REMMET051METAR SBQV 261800Z 11007KT 9999 BKN025 28/16 Q1016;
0120833440999992012022619004-14950-040883FM-15+0914SBQV V0201201N003610075019N0112651N1+02801+01601999999ADDGA1071+007501999GF107991999999999999999999MA1101491999999REMMET051METAR SBQV 261900Z 12007KT 9999 BKN025 28/16 Q1015;
0143833440999992012022620004-14950-040883FM-15+0914SBQV V0201301N005112200019N0112651N1+02801+01601999999ADDGA1041+007501999GA2041+021001999GF104991999999999999999999MA1101491999999REMMET058METAR SBQV 262000Z 13010KT 9999 SCT025 SCT070 28/16 Q1015;
0143833440999992012022621004-14950-040883FM-15+0914SBQV V0201201N005112200019N0112651N1+02501+01601999999ADDGA1021+006001999GA2041+021001999GF104991999999999999999999MA1101491999999REMMET058METAR SBQV 262100Z 12010KT 9999 FEW020 SCT070 25/16 Q1015;
0072833440999992012022622004-14950-040883FM-15+0914SBQV V0201101N003619999999Y0099001N1+02401+01701999999ADDMA1101591999999REMMET045METAR SBQV 262200Z 11007KT CAVOK 24/17 Q1016;
0072833440999992012022623004-14950-040883FM-15+0914SBQV V0201001N004619999999Y0099001N1+02301+01901999999ADDMA1101591999999REMMET045METAR SBQV 262300Z 10009KT CAVOK 23/19 Q1016;
0120833440999992012022711004-14950-040883FM-15+0914SBQV V0200401N003112200019N0112651N1+02301+01801999999ADDGA1021+006001999GF102991999999999999999999MA1102001999999REMMET051METAR SBQV 271100Z 04006KT 9999 FEW020 23/18 Q1020;
0120833440999992012022712004-14950-040883FM-15+0914SBQV V0200401N003112200019N0112651N1+02401+01801999999ADDGA1021+007501999GF102991999999999999999999MA1102001999999REMMET051METAR SBQV 271200Z 04006KT 9999 FEW025 24/18 Q1020;
0120833440999992012022713004-14950-040883FM-15+0914SBQV V0200201N003612200019N0112651N1+02801+01701999999ADDGA1021+009001999GF102991999999999999999999MA1102001999999REMMET051METAR SBQV 271300Z 02007KT 9999 FEW030 28/17 Q1020;
0120833440999992012022714004-14950-040883FM-15+0914SBQV V0201101N002110105019N0112651N1+02901+01701999999ADDGA1071+010501999GF107991999999999999999999MA1101901999999REMMET051METAR SBQV 271400Z 11004KT 9999 BKN035 29/17 Q1019;
0120833440999992012022715004-14950-040883FM-15+0914SBQV V0201101N002110105019N0112651N1+03001+01601999999ADDGA1071+010501999GF107991999999999999999999MA1101801999999REMMET051METAR SBQV 271500Z 11004KT 9999 BKN035 30/16 Q1018;
0120833440999992012022716004-14950-040883FM-15+0914SBQV V0201301N004612200019N0112651N1+03101+01701999999ADDGA1041+012001999GF104991999999999999999999MA1101801999999REMMET051METAR SBQV 271600Z 13009KT 9999 SCT040 31/17 Q1018;
0120833440999992012022717004-14950-040883FM-15+0914SBQV V0201001N004112200019N0112651N1+03001+01601999999ADDGA1041+012001999GF104991999999999999999999MA1101691999999REMMET051METAR SBQV 271700Z 10008KT 9999 SCT040 30/16 Q1017;
0120833440999992012022718004-14950-040883FM-15+0914SBQV V0201401N004112200019N0112651N1+03001+01501999999ADDGA1041+012001999GF104991999999999999999999MA1101691999999REMMET051METAR SBQV 271800Z 14008KT 9999 SCT040 30/15 Q1017;
0120833440999992012022719004-14950-040883FM-15+0914SBQV V0201101N005712200019N0112651N1+03001+01501999999ADDGA1041+012001999GF104991999999999999999999MA1101591999999REMMET051METAR SBQV 271900Z 11011KT 9999 SCT040 30/15 Q1016;
0120833440999992012022720004-14950-040883FM-15+0914SBQV V0201101N004612200019N0112651N1+02901+01501999999ADDGA1021+010501999GF102991999999999999999999MA1101591999999REMMET051METAR SBQV 272000Z 11009KT 9999 FEW035 29/15 Q1016;
0120833440999992012022721004-14950-040883FM-15+0914SBQV V0201201N005712200019N0112651N1+02701+01601999999ADDGA1021+009001999GF102991999999999999999999MA1101591999999REMMET051METAR SBQV 272100Z 12011KT 9999 FEW030 27/16 Q1016;
0120833440999992012022722004-14950-040883FM-15+0914SBQV V0201101N003612200019N0112651N1+02501+01601999999ADDGA1021+007501999GF102991999999999999999999MA1101591999999REMMET051METAR SBQV 272200Z 11007KT 9999 FEW025 25/16 Q1016;
0120833440999992012022811004-14950-040883FM-15+0914SBQV V0200401N003112200019N0112651N1+02301+01901999999ADDGA1021+003601999GF102991999999999999999999MA1102001999999REMMET051METAR SBQV 281100Z 04006KT 9999 FEW012 23/19 Q1020;
0120833440999992012022812004-14950-040883FM-15+0914SBQV V0200601N004112200019N0112651N1+02401+01701999999ADDGA1021+004501999GF102991999999999999999999MA1102001999999REMMET051METAR SBQV 281200Z 06008KT 9999 FEW015 24/17 Q1020;
0120833440999992012022813004-14950-040883FM-15+0914SBQV V0200901N004112200019N0112651N1+02701+01601999999ADDGA1021+006001999GF102991999999999999999999MA1102001999999REMMET051METAR SBQV 281300Z 09008KT 9999 FEW020 27/16 Q1020;
0120833440999992012022814004-14950-040883FM-15+0914SBQV V0200801N005112200019N0112651N1+02901+01501999999ADDGA1021+009001999GF102991999999999999999999MA1101901999999REMMET051METAR SBQV 281400Z 08010KT 9999 FEW030 29/15 Q1019;
0120833440999992012022815004-14950-040883FM-15+0914SBQV V0201001N004112200019N0112651N1+02901+01401999999ADDGA1021+010501999GF102991999999999999999999MA1101801999999REMMET051METAR SBQV 281500Z 10008KT 9999 FEW035 29/14 Q1018;
0120833440999992012022816004-14950-040883FM-15+0914SBQV V0201201N004112200019N0112651N1+03001+01501999999ADDGA1021+012001999GF102991999999999999999999MA1101801999999REMMET051METAR SBQV 281600Z 12008KT 9999 FEW040 30/15 Q1018;
0120833440999992012022817004-14950-040883FM-15+0914SBQV V0201301N003612200019N0112651N1+02901+01501999999ADDGA1041+012001999GF104991999999999999999999MA1101691999999REMMET051METAR SBQV 281700Z 13007KT 9999 SCT040 29/15 Q1017;
0120833440999992012022818004-14950-040883FM-15+0914SBQV V0201401N004612200019N0112651N1+03001+01401999999ADDGA1021+012001999GF102991999999999999999999MA1101691999999REMMET051METAR SBQV 281800Z 14009KT 9999 FEW040 30/14 Q1017;
0120833440999992012022819004-14950-040883FM-15+0914SBQV V0201301N005712200019N0112651N1+03001+01501999999ADDGA1021+012001999GF102991999999999999999999MA1101591999999REMMET051METAR SBQV 281900Z 13011KT 9999 FEW040 30/15 Q1016;
0120833440999992012022820004-14950-040883FM-15+0914SBQV V0201201N006212200019N0112651N1+02801+01401999999ADDGA1021+012001999GF102991999999999999999999MA1101591999999REMMET051METAR SBQV 282000Z 12012KT 9999 FEW040 28/14 Q1016;
0120833440999992012022821004-14950-040883FM-15+0914SBQV V0201301N005112200019N0112651N1+02601+01401999999ADDGA1021+010501999GF102991999999999999999999MA1101691999999REMMET051METAR SBQV 282100Z 13010KT 9999 FEW035 26/14 Q1017;
0120833440999992012022822004-14950-040883FM-15+0914SBQV V0201301N004612200019N0112651N1+02401+01401999999ADDGA1021+007501999GF102991999999999999999999MA1101691999999REMMET051METAR SBQV 282200Z 13009KT 9999 FEW025 24/14 Q1017;
0120833440999992012022911004-14950-040883FM-15+0914SBQV V0200901N003612200019N0112651N1+02201+01801999999ADDGA1041+003601999GF104991999999999999999999MA1102101999999REMMET051METAR SBQV 291100Z 09007KT 9999 SCT012 22/18 Q1021;
0120833440999992012022912004-14950-040883FM-15+0914SBQV V0201101N004112200019N0112651N1+02401+01701999999ADDGA1041+004501999GF104991999999999999999999MA1102101999999REMMET051METAR SBQV 291200Z 11008KT 9999 SCT015 24/17 Q1021;
0120833440999992012022913004-14950-040883FM-15+0914SBQV V0201001N004112200019N0112651N1+02601+01601999999ADDGA1021+004801999GF102991999999999999999999MA1102001999999REMMET051METAR SBQV 291300Z 10008KT 9999 FEW016 26/16 Q1020;
0120833440999992012022914004-14950-040883FM-15+0914SBQV V0201001N003612200019N0112651N1+02701+01601999999ADDGA1041+006001999GF104991999999999999999999MA1102001999999REMMET051METAR SBQV 291400Z 10007KT 9999 SCT020 27/16 Q1020;
0120833440999992012022915004-14950-040883FM-15+0914SBQV V0201301N002612200019N0112651N1+02901+01501999999ADDGA1021+007501999GF102991999999999999999999MA1101901999999REMMET051METAR SBQV 291500Z 13005KT 9999 FEW025 29/15 Q1019;
0120833440999992012022916004-14950-040883FM-15+0914SBQV V0201101N004612200019N0112651N1+03001+01601999999ADDGA1021+007501999GF102991999999999999999999MA1101801999999REMMET051METAR SBQV 291600Z 11009KT 9999 FEW025 30/16 Q1018;
0120833440999992012022917004-14950-040883FM-15+0914SBQV V0201301N005112200019N0112651N1+03001+01501999999ADDGA1021+009001999GF102991999999999999999999MA1101691999999REMMET051METAR SBQV 291700Z 13010KT 9999 FEW030 30/15 Q1017;
0120833440999992012022918004-14950-040883FM-15+0914SBQV V0201101N004612200019N0112651N1+03001+01501999999ADDGA1021+009001999GF102991999999999999999999MA1101691999999REMMET051METAR SBQV 291800Z 11009KT 9999 FEW030 30/15 Q1017;
0120833440999992012022919004-14950-040883FM-15+0914SBQV V0201301N005712200019N0112651N1+03001+01501999999ADDGA1021+009001999GF102991999999999999999999MA1101591999999REMMET051METAR SBQV 291900Z 13011KT 9999 FEW030 30/15 Q1016;
0120833440999992012022920004-14950-040883FM-15+0914SBQV V0201201N005112200019N0112651N1+02801+01401999999ADDGA1021+007501999GF102991999999999999999999MA1101691999999REMMET051METAR SBQV 292000Z 12010KT 9999 FEW025 28/14 Q1017;
0120833440999992012022921004-14950-040883FM-15+0914SBQV V0201201N004612200019N0112651N1+02601+01401999999ADDGA1021+006001999GF102991999999999999999999MA1101691999999REMMET051METAR SBQV 292100Z 12009KT 9999 FEW020 26/14 Q1017;
0072833440999992012022922004-14950-040883FM-15+0914SBQV V0201101N004119999999Y0099001N1+02401+01501999999ADDMA1101691999999REMMET045METAR SBQV 292200Z 11008KT CAVOK 24/15 Q1017;
0120833440999992012030111004-14950-040883FM-15+0914SBQV V0200901N004610048019N0112651N1+02201+01801999999ADDGA1071+004801999GF107991999999999999999999MA1102101999999REMMET051METAR SBQV 011100Z 09009KT 9999 BKN016 22/18 Q1021;
0120833440999992012030112004-14950-040883FM-15+0914SBQV V0201001N003610054019N0112651N1+02401+01801999999ADDGA1071+005401999GF107991999999999999999999MA1102101999999REMMET051METAR SBQV 011200Z 10007KT 9999 BKN018 24/18 Q1021;
0120833440999992012030113004-14950-040883FM-15+0914SBQV V0201101N004110060019N0112651N1+02501+01901999999ADDGA1071+006001999GF107991999999999999999999MA1102101999999REMMET051METAR SBQV 011300Z 11008KT 9999 BKN020 25/19 Q1021;
0120833440999992012030114004-14950-040883FM-15+0914SBQV V0200901N003610060019N0112651N1+02801+01801999999ADDGA1071+006001999GF107991999999999999999999MA1102101999999REMMET051METAR SBQV 011400Z 09007KT 9999 BKN020 28/18 Q1021;
0120833440999992012030115004-14950-040883FM-15+0914SBQV V0201301N004112200019N0112651N1+02801+01701999999ADDGA1041+007501999GF104991999999999999999999MA1102001999999REMMET051METAR SBQV 011500Z 13008KT 9999 SCT025 28/17 Q1020;
0120833440999992012030116004-14950-040883FM-15+0914SBQV V0201201N003112200019N0112651N1+02901+01501999999ADDGA1021+009001999GF102991999999999999999999MA1101901999999REMMET051METAR SBQV 011600Z 12006KT 9999 FEW030 29/15 Q1019;
0120833440999992012030117004-14950-040883FM-15+0914SBQV V0200901N003610090019N0112651N1+03001+01501999999ADDGA1071+009001999GF107991999999999999999999MA1101801999999REMMET051METAR SBQV 011700Z 09007KT 9999 BKN030 30/15 Q1018;
0128833440999992012030118004-14950-040883FM-15+0914SBQV V0201501N004112200019N0112651N1+03001+01601999999ADDGA1041+009001999GF104991999999999999999999MA1101691999999REMMET059METAR SBQV 011800Z 15008KT 120V180 9999 SCT030 30/16 Q1017;
0120833440999992012030119004-14950-040883FM-15+0914SBQV V0201101N004112200019N0112651N1+03001+01601999999ADDGA1041+009001999GF104991999999999999999999MA1101691999999REMMET051METAR SBQV 011900Z 11008KT 9999 SCT030 30/16 Q1017;
0120833440999992012030120004-14950-040883FM-15+0914SBQV V0201301N005112200019N0112651N1+02801+01601999999ADDGA1021+007501999GF102991999999999999999999MA1101691999999REMMET051METAR SBQV 012000Z 13010KT 9999 FEW025 28/16 Q1017;
0120833440999992012030121004-14950-040883FM-15+0914SBQV V0201201N005112200019N0112651N1+02601+01501999999ADDGA1021+006001999GF102991999999999999999999MA1101691999999REMMET051METAR SBQV 012100Z 12010KT 9999 FEW020 26/15 Q1017;
0120833440999992012030122004-14950-040883FM-15+0914SBQV V0201001N004612200019N0112651N1+02401+01801999999ADDGA1021+004801999GF102991999999999999999999MA1101691999999REMMET051METAR SBQV 012200Z 10009KT 9999 FEW016 24/18 Q1017;
0120833440999992012030211004-14950-040883FM-15+0914SBQV V0200601N004112200019N0112651N1+02201+01701999999ADDGA1021+003901999GF102991999999999999999999MA1102001999999REMMET051METAR SBQV 021100Z 06008KT 9999 FEW013 22/17 Q1020;
0120833440999992012030212004-14950-040883FM-15+0914SBQV V0200501N003612200019N0112651N1+02501+01601999999ADDGA1021+004501999GF102991999999999999999999MA1102001999999REMMET051METAR SBQV 021200Z 05007KT 9999 FEW015 25/16 Q1020;
0120833440999992012030213004-14950-040883FM-15+0914SBQV V0201001N003112200019N0112651N1+02701+01501999999ADDGA1041+004801999GF104991999999999999999999MA1102001999999REMMET051METAR SBQV 021300Z 10006KT 9999 SCT016 27/15 Q1020;
0120833440999992012030214004-14950-040883FM-15+0914SBQV V0201001N003112200019N0112651N1+02801+01501999999ADDGA1041+005401999GF104991999999999999999999MA1102001999999REMMET051METAR SBQV 021400Z 10006KT 9999 SCT018 28/15 Q1020;
0120833440999992012030215004-14950-040883FM-15+0914SBQV V0200701N002110060019N0112651N1+02901+01501999999ADDGA1071+006001999GF107991999999999999999999MA1101901999999REMMET051METAR SBQV 021500Z 07004KT 9999 BKN020 29/15 Q1019;
0120833440999992012030216004-14950-040883FM-15+0914SBQV V0201201N003610075019N0112651N1+02901+01501999999ADDGA1071+007501999GF107991999999999999999999MA1101801999999REMMET051METAR SBQV 021600Z 12007KT 9999 BKN025 29/15 Q1018;
0120833440999992012030217004-14950-040883FM-15+0914SBQV V0201301N004612200019N0112651N1+03001+01501999999ADDGA1041+009001999GF104991999999999999999999MA1101691999999REMMET051METAR SBQV 021700Z 13009KT 9999 SCT030 30/15 Q1017;
0120833440999992012030218004-14950-040883FM-15+0914SBQV V0201301N004112200019N0112651N1+03101+01601999999ADDGA1021+009001999GF102991999999999999999999MA1101591999999REMMET051METAR SBQV 021800Z 13008KT 9999 FEW030 31/16 Q1016;
0120833440999992012030219004-14950-040883FM-15+0914SBQV V0201401N004112200019N0112651N1+03001+01501999999ADDGA1021+009001999GF102991999999999999999999MA1101591999999REMMET051METAR SBQV 021900Z 14008KT 9999 FEW030 30/15 Q1016;
0120833440999992012030220004-14950-040883FM-15+0914SBQV V0201301N005112200019N0112651N1+02901+01501999999ADDGA1021+009001999GF102991999999999999999999MA1101591999999REMMET051METAR SBQV 022000Z 13010KT 9999 FEW030 29/15 Q1016;
0120833440999992012030221004-14950-040883FM-15+0914SBQV V0201201N005112200019N0112651N1+02601+01501999999ADDGA1021+006001999GF102991999999999999999999MA1101691999999REMMET051METAR SBQV 022100Z 12010KT 9999 FEW020 26/15 Q1017;
0072833440999992012030222004-14950-040883FM-15+0914SBQV V0201101N003119999999Y0099001N1+02501+01501999999ADDMA1101691999999REMMET045METAR SBQV 022200Z 11006KT CAVOK 25/15 Q1017;
0120833440999992012030311004-14950-040883FM-15+0914SBQV V0200601N003612200019N0112651N1+02201+01801999999ADDGA1041+005401999GF104991999999999999999999MA1102101999999REMMET051METAR SBQV 031100Z 06007KT 9999 SCT018 22/18 Q1021;
0120833440999992012030312004-14950-040883FM-15+0914SBQV V0200901N004612200019N0112651N1+02501+01701999999ADDGA1021+007501999GF102991999999999999999999MA1102101999999REMMET051METAR SBQV 031200Z 09009KT 9999 FEW025 25/17 Q1021;
0120833440999992012030313004-14950-040883FM-15+0914SBQV V0201101N003112200019N0112651N1+02701+01601999999ADDGA1021+009001999GF102991999999999999999999MA1102001999999REMMET051METAR SBQV 031300Z 11006KT 9999 FEW030 27/16 Q1020;
0120833440999992012030314004-14950-040883FM-15+0914SBQV V0201101N003112200019N0112651N1+02801+01501999999ADDGA1021+009001999GF102991999999999999999999MA1102001999999REMMET051METAR SBQV 031400Z 11006KT 9999 FEW030 28/15 Q1020;
0120833440999992012030315004-14950-040883FM-15+0914SBQV V0201501N004112200019N0112651N1+02901+01501999999ADDGA1021+010501999GF102991999999999999999999MA1101901999999REMMET051METAR SBQV 031500Z 15008KT 9999 FEW035 29/15 Q1019;
0120833440999992012030316004-14950-040883FM-15+0914SBQV V0200901N003112200019N0112651N1+03001+01301999999ADDGA1021+010501999GF102991999999999999999999MA1101801999999REMMET051METAR SBQV 031600Z 09006KT 9999 FEW035 30/13 Q1018;
0120833440999992012030317004-14950-040883FM-15+0914SBQV V0201201N003612200019N0112651N1+03001+01301999999ADDGA1021+012001999GF102991999999999999999999MA1101691999999REMMET051METAR SBQV 031700Z 12007KT 9999 FEW040 30/13 Q1017;
0120833440999992012030318004-14950-040883FM-15+0914SBQV V0201201N003612200019N0112651N1+03001+01201999999ADDGA1021+012001999GF102991999999999999999999MA1101691999999REMMET051METAR SBQV 031800Z 12007KT 9999 FEW040 30/12 Q1017;
0120833440999992012030319004-14950-040883FM-15+0914SBQV V0201101N004612200019N0112651N1+03001+01301999999ADDGA1021+012001999GF102991999999999999999999MA1101691999999REMMET051METAR SBQV 031900Z 11009KT 9999 FEW040 30/13 Q1017;
0120833440999992012030320004-14950-040883FM-15+0914SBQV V0201301N005712200019N0112651N1+02801+01201999999ADDGA1021+010501999GF102991999999999999999999MA1101591999999REMMET051METAR SBQV 032000Z 13011KT 9999 FEW035 28/12 Q1016;
0120833440999992012030321004-14950-040883FM-15+0914SBQV V0201301N004612200019N0112651N1+02601+01201999999ADDGA1021+007501999GF102991999999999999999999MA1101691999999REMMET051METAR SBQV 032100Z 13009KT 9999 FEW025 26/12 Q1017;
0120833440999992012030322004-14950-040883FM-15+0914SBQV V0201201N003112200019N0112651N1+02401+01401999999ADDGA1021+006001999GF102991999999999999999999MA1101691999999REMMET051METAR SBQV 032200Z 12006KT 9999 FEW020 24/14 Q1017;
0120833440999992012030411004-14950-040883FM-15+0914SBQV V0201101N003612200019N0112651N1+02201+01801999999ADDGA1021+004501999GF102991999999999999999999MA1102001999999REMMET051METAR SBQV 041100Z 11007KT 9999 FEW015 22/18 Q1020;
0120833440999992012030412004-14950-040883FM-15+0914SBQV V0201001N003112200019N0112651N1+02501+01801999999ADDGA1041+004801999GF104991999999999999999999MA1102101999999REMMET051METAR SBQV 041200Z 10006KT 9999 SCT016 25/18 Q1021;
0120833440999992012030413004-14950-040883FM-15+0914SBQV V0201201N003612200019N0112651N1+02701+01501999999ADDGA1041+005401999GF104991999999999999999999MA1102001999999REMMET051METAR SBQV 041300Z 12007KT 9999 SCT018 27/15 Q1020;
0120833440999992012030414004-14950-040883FM-15+0914SBQV V0200701N003610075019N0112651N1+02801+01501999999ADDGA1071+007501999GF107991999999999999999999MA1102001999999REMMET051METAR SBQV 041400Z 07007KT 9999 BKN025 28/15 Q1020;
0120833440999992012030415004-14950-040883FM-15+0914SBQV V0201101N004610090019N0112651N1+02901+01501999999ADDGA1071+009001999GF107991999999999999999999MA1101901999999REMMET051METAR SBQV 041500Z 11009KT 9999 BKN030 29/15 Q1019;
0120833440999992012030416004-14950-040883FM-15+0914SBQV V0201301N005110090019N0112651N1+03001+01401999999ADDGA1071+009001999GF107991999999999999999999MA1101801999999REMMET051METAR SBQV 041600Z 13010KT 9999 BKN030 30/14 Q1018;
0105833440999992012030417004-14950-040883FM-15+0914SBQV V0201201N005110090019N0112651N1+03001+01401999999ADDGA1071+009001999GF107991999999999999999999REMMET051METAR SBQV 041700Z 12010KT 9999 BKN030 30/14 Q0101;
0120833440999992012030418004-14950-040883FM-15+0914SBQV V0201301N004112200019N0112651N1+02901+01401999999ADDGA1041+009001999GF104991999999999999999999MA1101591999999REMMET051METAR SBQV 041800Z 13008KT 9999 SCT030 29/14 Q1016;
0120833440999992012030419004-14950-040883FM-15+0914SBQV V0201301N006712200019N0112651N1+02901+01601999999ADDGA1041+009001999GF104991999999999999999999MA1101591999999REMMET051METAR SBQV 041900Z 13013KT 9999 SCT030 29/16 Q1016;
0120833440999992012030420004-14950-040883FM-15+0914SBQV V0201201N006712200019N0112651N1+02701+01601999999ADDGA1021+009001999GF102991999999999999999999MA1101591999999REMMET051METAR SBQV 042000Z 12013KT 9999 FEW030 27/16 Q1016;
0120833440999992012030421004-14950-040883FM-15+0914SBQV V0201201N006712200019N0112651N1+02501+01601999999ADDGA1021+007501999GF102991999999999999999999MA1101691999999REMMET051METAR SBQV 042100Z 12013KT 9999 FEW025 25/16 Q1017;
0120833440999992012030422004-14950-040883FM-15+0914SBQV V0201101N006712200019N0112651N1+02401+01701999999ADDGA1021+006001999GF102991999999999999999999MA1101691999999REMMET051METAR SBQV 042200Z 11013KT 9999 FEW020 24/17 Q1017;
0120833440999992012030511004-14950-040883FM-15+0914SBQV V0201001N003610045019N0112651N1+02201+01801999999ADDGA1071+004501999GF107991999999999999999999MA1102001999999REMMET051METAR SBQV 051100Z 10007KT 9999 BKN015 22/18 Q1020;
0120833440999992012030512004-14950-040883FM-15+0914SBQV V0201001N004610048019N0112651N1+02301+01701999999ADDGA1071+004801999GF107991999999999999999999MA1102101999999REMMET051METAR SBQV 051200Z 10009KT 9999 BKN016 23/17 Q1021;
0120833440999992012030513004-14950-040883FM-15+0914SBQV V0201201N004110060019N0112651N1+02601+01701999999ADDGA1071+006001999GF107991999999999999999999MA1102001999999REMMET051METAR SBQV 051300Z 12008KT 9999 BKN020 26/17 Q1020;
0120833440999992012030514004-14950-040883FM-15+0914SBQV V0201201N004610075019N0112651N1+02801+01701999999ADDGA1071+007501999GF107991999999999999999999MA1102001999999REMMET051METAR SBQV 051400Z 12009KT 9999 BKN025 28/17 Q1020;
0120833440999992012030515004-14950-040883FM-15+0914SBQV V0201201N003610090019N0112651N1+02801+01501999999ADDGA1071+009001999GF107991999999999999999999MA1102001999999REMMET051METAR SBQV 051500Z 12007KT 9999 BKN030 28/15 Q1020;
0120833440999992012030516004-14950-040883FM-15+0914SBQV V0201101N004610090019N0112651N1+02901+01501999999ADDGA1071+009001999GF107991999999999999999999MA1101801999999REMMET051METAR SBQV 051600Z 11009KT 9999 BKN030 29/15 Q1018;
0120833440999992012030517004-14950-040883FM-15+0914SBQV V0200901N003612200019N0112651N1+03001+01401999999ADDGA1021+010501999GF102991999999999999999999MA1101691999999REMMET051METAR SBQV 051700Z 09007KT 9999 FEW035 30/14 Q1017;
0120833440999992012030518004-14950-040883FM-15+0914SBQV V0201301N004612200019N0112651N1+03101+01301999999ADDGA1041+010501999GF104991999999999999999999MA1101691999999REMMET051METAR SBQV 051800Z 13009KT 9999 SCT035 31/13 Q1017;
0120833440999992012030520004-14950-040883FM-15+0914SBQV V0201201N007212200019N0112651N1+02501+01801999999ADDGA1021+009001999GF102991999999999999999999MA1101691999999REMMET051METAR SBQV 052000Z 12014KT 9999 FEW030 25/18 Q1017;
0120833440999992012030521004-14950-040883FM-15+0914SBQV V0201101N007712200019N0112651N1+02201+01801999999ADDGA1021+002401999GF102991999999999999999999MA1101801999999REMMET051METAR SBQV 052100Z 11015KT 9999 FEW008 22/18 Q1018;
0072833440999992012030522004-14950-040883FM-15+0914SBQV V0201101N002619999999Y0099001N1+02001+01801999999ADDMA1101801999999REMMET045METAR SBQV 052200Z 11005KT CAVOK 20/18 Q1018;
0120833440999992012030523004-14950-040883FM-15+0914SBQV V0201101N005712200019N0112651N1+02001+01801999999ADDGA1021+001801999GF102991999999999999999999MA1101901999999REMMET051METAR SBQV 052300Z 11011KT 9999 FEW006 20/18 Q1019;
0143833440999992012030611004-14950-040883FM-15+0914SBQV V0201001N004112200019N0112651N1+02001+01801999999ADDGA1021+003901999GA2041+004501999GF104991999999999999999999MA1102101999999REMMET058METAR SBQV 061100Z 10008KT 9999 FEW013 SCT015 20/18 Q1021;
0120833440999992012030612004-14950-040883FM-15+0914SBQV V0200901N004612200019N0112651N1+02401+01601999999ADDGA1041+004801999GF104991999999999999999999MA1102101999999REMMET051METAR SBQV 061200Z 09009KT 9999 SCT016 24/16 Q1021;
0120833440999992012030613004-14950-040883FM-15+0914SBQV V0201001N006712200019N0112651N1+02501+01601999999ADDGA1041+006001999GF104991999999999999999999MA1102101999999REMMET051METAR SBQV 061300Z 10013KT 9999 SCT020 25/16 Q1021;
0119833440999992012030614004-14950-040883FM-15+0914SBQV V0201001N006212200019N0112651N1+02601+01501999999ADDGA1041+006001999GF104991999999999999999999MA1102101999999REMMET050METAR SBQV 061400Z 10012KT 9999 SCT02026/15 Q1021;
0120833440999992012030615004-14950-040883FM-15+0914SBQV V0201101N005110075019N0112651N1+02801+01401999999ADDGA1071+007501999GF107991999999999999999999MA1102001999999REMMET051METAR SBQV 061500Z 11010KT 9999 BKN025 28/14 Q1020;
0146833440999992012030616004-14950-040883FM-15+0914SBQV V0201101N005710075019N0112651N1+02701+01501999999ADDGA1021+006001021GA2071+007501999GF107991999999999999999999MA1101901999999REMMET061METAR SBQV 061600Z 11011KT 9999 FEW020TCU BKN025 27/15 Q1019;
0120833440999992012030617004-14950-040883FM-15+0914SBQV V0201101N005710075019N0112651N1+02701+01501999999ADDGA1071+007501999GF107991999999999999999999MA1101801999999REMMET051METAR SBQV 061700Z 11011KT 9999 BKN025 27/15 Q1018;
0120833440999992012030618004-14950-040883FM-15+0914SBQV V0201301N006210090019N0112651N1+02801+01401999999ADDGA1071+009001999GF107991999999999999999999MA1101691999999REMMET051METAR SBQV 061800Z 13012KT 9999 BKN030 28/14 Q1017;
0120833440999992012030619004-14950-040883FM-15+0914SBQV V0201101N006210075019N0112651N1+02601+01501999999ADDGA1071+007501999GF107991999999999999999999MA1101691999999REMMET051METAR SBQV 061900Z 11012KT 9999 BKN025 26/15 Q1017;
0120833440999992012030620004-14950-040883FM-15+0914SBQV V0201201N005712200019N0112651N1+02601+01401999999ADDGA1041+006001999GF104991999999999999999999MA1101691999999REMMET051METAR SBQV 062000Z 12011KT 9999 SCT020 26/14 Q1017;
0120833440999992012030621004-14950-040883FM-15+0914SBQV V0201201N006712200019N0112651N1+02401+01301999999ADDGA1041+005401999GF104991999999999999999999MA1101801999999REMMET051METAR SBQV 062100Z 12013KT 9999 SCT018 24/13 Q1018;
0120833440999992012030622004-14950-040883FM-15+0914SBQV V0201101N005112200019N0112651N1+02301+01401999999ADDGA1021+004801999GF102991999999999999999999MA1101801999999REMMET051METAR SBQV 062200Z 11010KT 9999 FEW016 23/14 Q1018;
0120833440999992012030711004-14950-040883FM-15+0914SBQV V0200901N005110033019N0112651N1+02001+01701999999ADDGA1071+003301999GF107991999999999999999999MA1102001999999REMMET051METAR SBQV 071100Z 09010KT 9999 BKN011 20/17 Q1020;
0120833440999992012030712004-14950-040883FM-15+0914SBQV V0201001N007210036019N0112651N1+02101+01701999999ADDGA1071+003601999GF107991999999999999999999MA1102001999999REMMET051METAR SBQV 071200Z 10014KT 9999 BKN012 21/17 Q1020;
0120833440999992012030713004-14950-040883FM-15+0914SBQV V0201001N006710045019N0112651N1+02401+01701999999ADDGA1071+004501999GF107991999999999999999999MA1102001999999REMMET051METAR SBQV 071300Z 10013KT 9999 BKN015 24/17 Q1020;
0120833440999992012030714004-14950-040883FM-15+0914SBQV V0200901N006210045019N0112651N1+02301+01901999999ADDGA1071+004501999GF107991999999999999999999MA1102001999999REMMET051METAR SBQV 071400Z 09012KT 9999 BKN015 23/19 Q1020;
0120833440999992012030715004-14950-040883FM-15+0914SBQV V0201401N005712200019N0112651N1+02601+01701999999ADDGA1041+004801999GF104991999999999999999999MA1102001999999REMMET051METAR SBQV 071500Z 14011KT 9999 SCT016 26/17 Q1020;
0143833440999992012030716004-14950-040883FM-15+0914SBQV V0200801N005112200019N0112651N1+02501+01801999999ADDGA1041+005401999GA2041+021001999GF104991999999999999999999MA1101901999999REMMET058METAR SBQV 071600Z 08010KT 9999 SCT018 SCT070 25/18 Q1019;
0143833440999992012030717004-14950-040883FM-15+0914SBQV V0201101N006212200019N0112651N1+02701+01501999999ADDGA1041+006001999GA2041+024001999GF104991999999999999999999MA1101801999999REMMET058METAR SBQV 071700Z 11012KT 9999 SCT020 SCT080 27/15 Q1018;
0143833440999992012030718004-14950-040883FM-15+0914SBQV V0201101N006212200019N0112651N1+02601+01701999999ADDGA1041+006001999GA2041+024001999GF104991999999999999999999MA1101691999999REMMET058METAR SBQV 071800Z 11012KT 9999 SCT020 SCT080 26/17 Q1017;
0143833440999992012030719004-14950-040883FM-15+0914SBQV V0201201N005112200019N0112651N1+02601+01701999999ADDGA1041+006001999GA2041+024001999GF104991999999999999999999MA1101691999999REMMET058METAR SBQV 071900Z 12010KT 9999 SCT020 SCT080 26/17 Q1017;
0143833440999992012030720004-14950-040883FM-15+0914SBQV V0201001N006712200019N0112651N1+02401+01701999999ADDGA1041+005401999GA2041+024001999GF104991999999999999999999MA1101801999999REMMET058METAR SBQV 072000Z 10013KT 9999 SCT018 SCT080 24/17 Q1018;
0143833440999992012030721004-14950-040883FM-15+0914SBQV V0201001N006212200019N0112651N1+02101+01801999999ADDGA1041+005401999GA2041+021001999GF104991999999999999999999MA1101801999999REMMET058METAR SBQV 072100Z 10012KT 9999 SCT018 SCT070 21/18 Q1018;
0120833440999992012030722004-14950-040883FM-15+0914SBQV V0201001N005112200019N0112651N1+02001+01801999999ADDGA1041+003901999GF104991999999999999999999MA1101901999999REMMET051METAR SBQV 072200Z 10010KT 9999 SCT013 20/18 Q1019;
0120833440999992012030811004-14950-040883FM-15+0914SBQV V0201001N004610030019N0112651N1+02001+01801999999ADDGA1071+003001999GF107991999999999999999999MA1102101999999REMMET051METAR SBQV 081100Z 10009KT 9999 BKN010 20/18 Q1021;
0120833440999992012030813004-14950-040883FM-15+0914SBQV V0201001N004610060019N0112651N1+02301+01801999999ADDGA1071+006001999GF107991999999999999999999MA1102101999999REMMET051METAR SBQV 081300Z 10009KT 9999 BKN020 23/18 Q1021;
0120833440999992012030817004-14950-040883FM-15+0914SBQV V0201001N004110090019N0112651N1+02801+01701999999ADDGA1071+009001999GF107991999999999999999999MA1101801999999REMMET051METAR SBQV 081700Z 10008KT 9999 BKN030 28/17 Q1018;
0120833440999992012030818004-14950-040883FM-15+0914SBQV V0201101N004112200019N0112651N1+02901+01801999999ADDGA1041+010501999GF104991999999999999999999MA1101691999999REMMET051METAR SBQV 081800Z 11008KT 9999 SCT035 29/18 Q1017;
0162833440999992012030819004-14950-040883FM-15+0914SBQV V0201301N005112200019N0112651N1+02701+01801999999ADDGA1021+007501021GA2041+009001999GF104991999999999999999999MA1101691999999MW1611REMMET071METAR SBQV 081900Z 13010KT 9999 2000E -RA FEW025TCU SCT030 27/18 Q1017;
0146833440999992012030820004-14950-040883FM-15+0914SBQV V0201301N004612200019N0112651N1+02501+01901999999ADDGA1021+006001021GA2041+007501999GF104991999999999999999999MA1101691999999REMMET061METAR SBQV 082000Z 13009KT 9999 FEW020TCU SCT025 25/19 Q1017;
0139833440999992012030821004-14950-040883FM-15+0914SBQV V0201001N004612200019N0112651N1+02401+01901999999ADDGA1041+005401999GA2021+006001021MA1101801999999REMMET061METAR SBQV 082100Z 10009KT 9999 SCT018 FEW020TCU 24/19 Q1018;EQDQ01+000022SCOTCV
0139833440999992012030822004-14950-040883FM-15+0914SBQV V0201001N005112200019N0112651N1+02201+01901999999ADDGA1041+004501999GA2021+005401021MA1101801999999REMMET061METAR SBQV 082200Z 10010KT 9999 SCT015 FEW018TCU 22/19 Q1018;EQDQ01+000022SCOTCV
0120833440999992012030914004-14950-040883FM-15+0914SBQV V0200901N003610060019N0112651N1+02601+01801999999ADDGA1071+006001999GF107991999999999999999999MA1102001999999REMMET051METAR SBQV 091400Z 09007KT 9999 BKN020 26/18 Q1020;
0120833440999992012030916004-14950-040883FM-15+0914SBQV V0201101N004610075019N0112651N1+03001+01801999999ADDGA1071+007501999GF107991999999999999999999MA1101801999999REMMET051METAR SBQV 091600Z 11009KT 9999 BKN025 30/18 Q1018;
0146833440999992012030917004-14950-040883FM-15+0914SBQV V0201301N003610075019N0112651N1+02901+01801999999ADDGA1021+006001021GA2071+007501999GF107991999999999999999999MA1101691999999REMMET061METAR SBQV 091700Z 13007KT 9999 FEW020TCU BKN025 29/18 Q1017;
0146833440999992012030918004-14950-040883FM-15+0914SBQV V0201301N004610090019N0112651N1+02901+01801999999ADDGA1021+006001021GA2071+009001999GF107991999999999999999999MA1101591999999REMMET061METAR SBQV 091800Z 13009KT 9999 FEW020TCU BKN030 29/18 Q1016;
0120833440999992012030919004-14950-040883FM-15+0914SBQV V0201301N006210075019N0112651N1+02801+01701999999ADDGA1071+007501999GF107991999999999999999999MA1101591999999REMMET051METAR SBQV 091900Z 13012KT 9999 BKN025 28/17 Q1016;
0120833440999992012030920004-14950-040883FM-15+0914SBQV V0201001N007712200019N0112651N1+02501+02001999999ADDGA1041+006001999GF104991999999999999999999MA1101691999999REMMET051METAR SBQV 092000Z 10015KT 9999 SCT020 25/20 Q1017;
0143833440999992012030921004-14950-040883FM-15+0914SBQV V0201101N005112200019N0112651N1+02401+01901999999ADDGA1041+005401999GA2041+021001999GF104991999999999999999999MA1101691999999REMMET058METAR SBQV 092100Z 11010KT 9999 SCT018 SCT070 24/19 Q1017;
0143833440999992012030922004-14950-040883FM-15+0914SBQV V0201001N005112200019N0112651N1+02301+02001999999ADDGA1021+004801999GA2041+021001999GF104991999999999999999999MA1101801999999REMMET058METAR SBQV 092200Z 10010KT 9999 FEW016 SCT070 23/20 Q1018;
0120833440999992012031011004-14950-040883FM-15+0914SBQV V0200701N004610039019N0112651N1+02201+01901999999ADDGA1071+003901999GF107991999999999999999999MA1102001999999REMMET051METAR SBQV 101100Z 07009KT 9999 BKN013 22/19 Q1020;
0120833440999992012031012004-14950-040883FM-15+0914SBQV V0200801N004110045019N0112651N1+02301+01901999999ADDGA1071+004501999GF107991999999999999999999MA1102101999999REMMET051METAR SBQV 101200Z 08008KT 9999 BKN015 23/19 Q1021;
0120833440999992012031013004-14950-040883FM-15+0914SBQV V0200801N003610060019N0112651N1+02501+01801999999ADDGA1071+006001999GF107991999999999999999999MA1102101999999REMMET051METAR SBQV 101300Z 08007KT 9999 BKN020 25/18 Q1021;
0120833440999992012031014004-14950-040883FM-15+0914SBQV V0201001N003610060019N0112651N1+02701+01801999999ADDGA1071+006001999GF107991999999999999999999MA1102101999999REMMET051METAR SBQV 101400Z 10007KT 9999 BKN020 27/18 Q1021;
0120833440999992012031015004-14950-040883FM-15+0914SBQV V0200801N004610060019N0112651N1+02901+01901999999ADDGA1071+006001999GF107991999999999999999999MA1102001999999REMMET051METAR SBQV 101500Z 08009KT 9999 BKN020 29/19 Q1020;
0146833440999992012031016004-14950-040883FM-15+0914SBQV V0200701N005112200019N0112651N1+02801+02001999999ADDGA1021+006001999GA2021+007501021GF102991999999999999999999MA1102001999999REMMET061METAR SBQV 101600Z 07010KT 9999 FEW020 FEW025TCU 28/20 Q1020;
0146833440999992012031017004-14950-040883FM-15+0914SBQV V0200801N003112200019N0112651N1+03001+01801999999ADDGA1021+006001999GA2021+007501021GF102991999999999999999999MA1101801999999REMMET061METAR SBQV 101700Z 08006KT 9999 FEW020 FEW025TCU 30/18 Q1018;
0143833440999992012031018004-14950-040883FM-15+0914SBQV V0201401N006210240019N0112651N1+02401+02101999999ADDGA1041+006001999GA2071+024001999GF107991999999999999999999MA1101801999999REMMET058METAR SBQV 101800Z 14012KT 9999 SCT020 BKN080 24/21 Q1018;
0143833440999992012031019004-14950-040883FM-15+0914SBQV V0201201N005710240019N0112651N1+02501+02001999999ADDGA1041+006001999GA2071+024001999GF107991999999999999999999MA1101801999999REMMET058METAR SBQV 101900Z 12011KT 9999 SCT020 BKN080 25/20 Q1018;
0143833440999992012031020004-14950-040883FM-15+0914SBQV V0201301N006210210019N0112651N1+02301+02101999999ADDGA1041+004801999GA2071+021001999GF107991999999999999999999MA1101801999999REMMET058METAR SBQV 102000Z 13012KT 9999 SCT016 BKN070 23/21 Q1018;
0143833440999992012031021004-14950-040883FM-15+0914SBQV V0201001N007710210019N0112651N1+02201+01901999999ADDGA1021+003901999GA2071+021001999GF107991999999999999999999MA1101901999999REMMET058METAR SBQV 102100Z 10015KT 9999 FEW013 BKN070 22/19 Q1019;
0143833440999992012031022004-14950-040883FM-15+0914SBQV V0201001N004112200019N0112651N1+02101+02001999999ADDGA1021+003301999GA2041+021001999GF104991999999999999999999MA1102001999999REMMET058METAR SBQV 102200Z 10008KT 9999 FEW011 SCT070 21/20 Q1020;
0143833440999992012031111004-14950-040883FM-15+0914SBQV V0200801N003112200019N0112651N1+02301+01801999999ADDGA1021+004501999GA2041+024001999GF104991999999999999999999MA1102101999999REMMET058METAR SBQV 111100Z 08006KT 9999 FEW015 SCT080 23/18 Q1021;
0143833440999992012031112004-14950-040883FM-15+0914SBQV V0201001N003110270019N0112651N1+02501+01601999999ADDGA1021+006001999GA2071+027001999GF107991999999999999999999MA1102101999999REMMET058METAR SBQV 111200Z 10006KT 9999 FEW020 BKN090 25/16 Q1021;
0120833440999992012031113004-14950-040883FM-15+0914SBQV V0201201N003610075019N0112651N1+02601+01701999999ADDGA1071+007501999GF107991999999999999999999MA1102101999999REMMET051METAR SBQV 111300Z 12007KT 9999 BKN025 26/17 Q1021;
0120833440999992012031114004-14950-040883FM-15+0914SBQV V0201101N003110075019N0112651N1+02801+01901999999ADDGA1071+007501999GF107991999999999999999999MA1102001999999REMMET051METAR SBQV 111400Z 11006KT 9999 BKN025 28/19 Q1020;
0120833440999992012031115004-14950-040883FM-15+0914SBQV V0201201N004110075019N0112651N1+02801+01801999999ADDGA1071+007501999GF107991999999999999999999MA1102001999999REMMET051METAR SBQV 111500Z 12008KT 9999 BKN025 28/18 Q1020;
0120833440999992012031116004-14950-040883FM-15+0914SBQV V0201001N004610075019N0112651N1+02901+01801999999ADDGA1071+007501999GF107991999999999999999999MA1101901999999REMMET051METAR SBQV 111600Z 10009KT 9999 BKN025 29/18 Q1019;
0120833440999992012031117004-14950-040883FM-15+0914SBQV V0201001N005112200019N0112651N1+02901+01701999999ADDGA1041+007501999GF104991999999999999999999MA1101801999999REMMET051METAR SBQV 111700Z 10010KT 9999 SCT025 29/17 Q1018;
0120833440999992012031118004-14950-040883FM-15+0914SBQV V0201001N005112200019N0112651N1+02801+01701999999ADDGA1041+007501999GF104991999999999999999999MA1101801999999REMMET051METAR SBQV 111800Z 10010KT 9999 SCT025 28/17 Q1018;
0120833440999992012031119004-14950-040883FM-15+0914SBQV V0201201N005112200019N0112651N1+02901+01601999999ADDGA1021+007501999GF102991999999999999999999MA1101801999999REMMET051METAR SBQV 111900Z 12010KT 9999 FEW025 29/16 Q1018;
0120833440999992012031120004-14950-040883FM-15+0914SBQV V0201201N005112200019N0112651N1+02701+01601999999ADDGA1021+006001999GF102991999999999999999999MA1101691999999REMMET051METAR SBQV 112000Z 12010KT 9999 FEW020 27/16 Q1017;
0120833440999992012031121004-14950-040883FM-15+0914SBQV V0201101N005112200019N0112651N1+02501+01901999999ADDGA1021+006001999GF102991999999999999999999MA1101801999999REMMET051METAR SBQV 112100Z 11010KT 9999 FEW020 25/19 Q1018;
0072833440999992012031122004-14950-040883FM-15+0914SBQV V0201101N004119999999Y0099001N1+02301+01901999999ADDMA1101801999999REMMET045METAR SBQV 112200Z 11008KT CAVOK 23/19 Q1018;
0120833440999992012031211004-14950-040883FM-15+0914SBQV V0200701N003110036019N0112651N1+02201+01901999999ADDGA1071+003601999GF107991999999999999999999MA1101901999999REMMET051METAR SBQV 121100Z 07006KT 9999 BKN012 22/19 Q1019;
0120833440999992012031212004-14950-040883FM-15+0914SBQV V0200801N003110045019N0112651N1+02501+01801999999ADDGA1071+004501999GF107991999999999999999999MA1102001999999REMMET051METAR SBQV 121200Z 08006KT 9999 BKN015 25/18 Q1020;
0105833440999992012031213004-14950-040883FM-15+0914SBQV V0200901N004110048019N0112651N1+02701+01701999999ADDGA1071+004801999GF107991999999999999999999REMMET051METAR SBQV 121300Z 09008KT 9999 BKN016 27/17 Q1137;
0120833440999992012031214004-14950-040883FM-15+0914SBQV V0201301N003110054019N0112651N1+02601+01701999999ADDGA1071+005401999GF107991999999999999999999MA1101901999999REMMET051METAR SBQV 121400Z 13006KT 9999 BKN018 26/17 Q1019;
0120833440999992012031215004-14950-040883FM-15+0914SBQV V0201301N003610060019N0112651N1+02701+01701999999ADDGA1071+006001999GF107991999999999999999999MA1101801999999REMMET051METAR SBQV 121500Z 13007KT 9999 BKN020 27/17 Q1018;
0120833440999992012031216004-14950-040883FM-15+0914SBQV V0201301N002610060019N0112651N1+02801+01701999999ADDGA1071+006001999GF107991999999999999999999MA1101691999999REMMET051METAR SBQV 121600Z 13005KT 9999 BKN020 28/17 Q1017;
0120833440999992012031217004-14950-040883FM-15+0914SBQV V0201201N004110060019N0112651N1+02501+02001999999ADDGA1071+006001999GF107991999999999999999999MA1101691999999REMMET051METAR SBQV 121700Z 12008KT 9999 BKN020 25/20 Q1017;
0120833440999992012031311004-14950-040883FM-15+0914SBQV V0200501N004112200019N0112651N1+02301+01701999999ADDGA1021+004501999GF102991999999999999999999MA1102001999999REMMET051METAR SBQV 131100Z 05008KT 9999 FEW015 23/17 Q1020;
0120833440999992012031312004-14950-040883FM-15+0914SBQV V0200401N003112200019N0112651N1+02501+01601999999ADDGA1021+004801999GF102991999999999999999999MA1102001999999REMMET051METAR SBQV 131200Z 04006KT 9999 FEW016 25/16 Q1020;
0120833440999992012031313004-14950-040883FM-15+0914SBQV V0200501N003612200019N0112651N1+02701+01601999999ADDGA1021+006001999GF102991999999999999999999MA1101901999999REMMET051METAR SBQV 131300Z 05007KT 9999 FEW020 27/16 Q1019;
0120833440999992012031314004-14950-040883FM-15+0914SBQV V0200801N002610060019N0112651N1+02701+01601999999ADDGA1071+006001999GF107991999999999999999999MA1101901999999REMMET051METAR SBQV 131400Z 08005KT 9999 BKN020 27/16 Q1019;
0120833440999992012031315004-14950-040883FM-15+0914SBQV V0201001N003610075019N0112651N1+02701+01601999999ADDGA1071+007501999GF107991999999999999999999MA1101801999999REMMET051METAR SBQV 131500Z 10007KT 9999 BKN025 27/16 Q1018;
0120833440999992012031316004-14950-040883FM-15+0914SBQV V0200801N003610075019N0112651N1+03101+01601999999ADDGA1071+007501999GF107991999999999999999999MA1101691999999REMMET051METAR SBQV 131600Z 08007KT 9999 BKN025 31/16 Q1017;
0120833440999992012031317004-14950-040883FM-15+0914SBQV V0201201N004610075019N0112651N1+02901+01701999999ADDGA1071+007501999GF107991999999999999999999MA1101691999999REMMET051METAR SBQV 131700Z 12009KT 9999 BKN025 29/17 Q1017;
0120833440999992012031319004-14950-040883FM-15+0914SBQV V0201101N005112200019N0112651N1+03001+01601999999ADDGA1021+009001999GF102991999999999999999999MA1101591999999REMMET051METAR SBQV 131900Z 11010KT 9999 FEW030 30/16 Q1016;
0120833440999992012031320004-14950-040883FM-15+0914SBQV V0201101N005112200019N0112651N1+02801+01501999999ADDGA1021+009001999GF102991999999999999999999MA1101591999999REMMET051METAR SBQV 132000Z 11010KT 9999 FEW030 28/15 Q1016;
0120833440999992012031321004-14950-040883FM-15+0914SBQV V0201101N004612200019N0112651N1+02601+01601999999ADDGA1021+006001999GF102991999999999999999999MA1101591999999REMMET051METAR SBQV 132100Z 11009KT 9999 FEW020 26/16 Q1016;
0120833440999992012031322004-14950-040883FM-15+0914SBQV V0201001N004612200019N0112651N1+02401+02001999999ADDGA1021+004801999GF102991999999999999999999MA1101591999999REMMET051METAR SBQV 132200Z 10009KT 9999 FEW016 24/20 Q1016;
0120833440999992012031323004-14950-040883FM-15+0914SBQV V0200901N006712200019N0112651N1+02201+02001999999ADDGA1041+003901999GF104991999999999999999999MA1101691999999REMMET051METAR SBQV 132300Z 09013KT 9999 SCT013 22/20 Q1017;
0072833440999992012031411004-14950-040883FM-15+0914SBQV V0200501N004119999999Y0099001N1+02301+01601999999ADDMA1102001999999REMMET045METAR SBQV 141100Z 05008KT CAVOK 23/16 Q1020;
0072833440999992012031412004-14950-040883FM-15+0914SBQV V0200601N003619999999Y0099001N1+02501+01501999999ADDMA1102001999999REMMET045METAR SBQV 141200Z 06007KT CAVOK 25/15 Q1020;
0120833440999992012031413004-14950-040883FM-15+0914SBQV V0200701N003112200019N0112651N1+02701+01601999999ADDGA1021+007501999GF102991999999999999999999MA1102001999999REMMET051METAR SBQV 141300Z 07006KT 9999 FEW025 27/16 Q1020;
0120833440999992012031414004-14950-040883FM-15+0914SBQV V0201001N003612200019N0112651N1+02801+01601999999ADDGA1041+009001999GF104991999999999999999999MA1101901999999REMMET051METAR SBQV 141400Z 10007KT 9999 SCT030 28/16 Q1019;
0120833440999992012031415004-14950-040883FM-15+0914SBQV V0200901N003112200019N0112651N1+03001+01501999999ADDGA1041+010501999GF104991999999999999999999MA1101801999999REMMET051METAR SBQV 141500Z 09006KT 9999 SCT035 30/15 Q1018;
0120833440999992012031416004-14950-040883FM-15+0914SBQV V0201101N003612200019N0112651N1+03001+01501999999ADDGA1041+010501999GF104991999999999999999999MA1101691999999REMMET051METAR SBQV 141600Z 11007KT 9999 SCT035 30/15 Q1017;
0120833440999992012031418004-14950-040883FM-15+0914SBQV V0201001N004612200019N0112651N1+03001+01601999999ADDGA1041+010501999GF104991999999999999999999MA1101591999999REMMET051METAR SBQV 141800Z 10009KT 9999 SCT035 30/16 Q1016;
0120833440999992012031420004-14950-040883FM-15+0914SBQV V0201201N005712200019N0112651N1+02801+01601999999ADDGA1021+009001999GF102991999999999999999999MA1101591999999REMMET051METAR SBQV 142000Z 12011KT 9999 FEW030 28/16 Q1016;
0120833440999992012031421004-14950-040883FM-15+0914SBQV V0201001N005712200019N0112651N1+02601+01601999999ADDGA1021+007501999GF102991999999999999999999MA1101591999999REMMET051METAR SBQV 142100Z 10011KT 9999 FEW025 26/16 Q1016;
0120833440999992012031422004-14950-040883FM-15+0914SBQV V0200901N005112200019N0112651N1+02401+01601999999ADDGA1021+005401999GF102991999999999999999999MA1101691999999REMMET051METAR SBQV 142200Z 09010KT 9999 FEW018 24/16 Q1017;
0072833440999992012031505004-14950-040883FM-15+0914SBQV V0200601N006219999999Y0099001N1+01801+01701999999ADDMA1101691999999REMMET045METAR SBQV 150500Z 06012KT CAVOK 18/17 Q1017;
0120833440999992012031506004-14950-040883FM-15+0914SBQV V0200601N005712200019N0112651N1+01801+01701999999ADDGA1021+003901999GF102991999999999999999999MA1101691999999REMMET051METAR SBQV 150600Z 06011KT 9999 FEW013 18/17 Q1017;
0120833440999992012031511004-14950-040883FM-15+0914SBQV V0200401N002612200019N0112651N1+02201+01801999999ADDGA1021+003601999GF102991999999999999999999MA1102001999999REMMET051METAR SBQV 151100Z 04005KT 9999 FEW012 22/18 Q1020;
0120833440999992012031512004-14950-040883FM-15+0914SBQV V0200201N003612200019N0112651N1+02401+01701999999ADDGA1021+004801999GF102991999999999999999999MA1102001999999REMMET051METAR SBQV 151200Z 02007KT 9999 FEW016 24/17 Q1020;
0120833440999992012031513004-14950-040883FM-15+0914SBQV V0200201N003112200019N0112651N1+02701+01701999999ADDGA1021+006001999GF102991999999999999999999MA1102001999999REMMET051METAR SBQV 151300Z 02006KT 9999 FEW020 27/17 Q1020;
0120833440999992012031514004-14950-040883FM-15+0914SBQV V0200701N003612200019N0112651N1+02801+01601999999ADDGA1021+006001999GF102991999999999999999999MA1102001999999REMMET051METAR SBQV 151400Z 07007KT 9999 FEW020 28/16 Q1020;
0120833440999992012031515004-14950-040883FM-15+0914SBQV V0200601N002612200019N0112651N1+02901+01601999999ADDGA1021+007501999GF102991999999999999999999MA1101901999999REMMET051METAR SBQV 151500Z 06005KT 9999 FEW025 29/16 Q1019;
0120833440999992012031516004-14950-040883FM-15+0914SBQV V0200801N002110090019N0112651N1+03001+01601999999ADDGA1071+009001999GF107991999999999999999999MA1101801999999REMMET051METAR SBQV 151600Z 08004KT 9999 BKN030 30/16 Q1018;
0120833440999992012031517004-14950-040883FM-15+0914SBQV V0200901N003112200019N0112651N1+03101+01501999999ADDGA1041+009001999GF104991999999999999999999MA1101691999999REMMET051METAR SBQV 151700Z 09006KT 9999 SCT030 31/15 Q1017;
0120833440999992012031518004-14950-040883FM-15+0914SBQV V0201101N003610090019N0112651N1+03001+01601999999ADDGA1071+009001999GF107991999999999999999999MA1101591999999REMMET051METAR SBQV 151800Z 11007KT 9999 BKN030 30/16 Q1016;
0120833440999992012031519004-14950-040883FM-15+0914SBQV V0200901N004112200019N0112651N1+02901+01701999999ADDGA1021+009001999GF102991999999999999999999MA1101591999999REMMET051METAR SBQV 151900Z 09008KT 9999 FEW030 29/17 Q1016;
0120833440999992012031520004-14950-040883FM-15+0914SBQV V0200901N004112200019N0112651N1+02801+01801999999ADDGA1021+007501999GF102991999999999999999999MA1101591999999REMMET051METAR SBQV 152000Z 09008KT 9999 FEW025 28/18 Q1016;
0120833440999992012031521004-14950-040883FM-15+0914SBQV V0201101N004612200019N0112651N1+02601+01801999999ADDGA1021+007501999GF102991999999999999999999MA1101591999999REMMET051METAR SBQV 152100Z 11009KT 9999 FEW025 26/18 Q1016;
0072833440999992012031522004-14950-040883FM-15+0914SBQV V0201001N003619999999Y0099001N1+02501+01801999999ADDMA1101691999999REMMET045METAR SBQV 152200Z 10007KT CAVOK 25/18 Q1017;
0143833440999992012031612004-14950-040883FM-15+0914SBQV V0200201N003610240019N0112651N1+02501+01601999999ADDGA1021+006001999GA2071+024001999GF107991999999999999999999MA1102001999999REMMET058METAR SBQV 161200Z 02007KT 9999 FEW020 BKN080 25/16 Q1020;
0143833440999992012031614004-14950-040883FM-15+0914SBQV V0200101N002612200019N0112651N1+02801+01701999999ADDGA1021+007501999GA2041+027001999GF104991999999999999999999MA1101901999999REMMET058METAR SBQV 161400Z 01005KT 9999 FEW025 SCT090 28/17 Q1019;
0120833440999992012031615004-14950-040883FM-15+0914SBQV V0200201N002112200019N0112651N1+02901+01701999999ADDGA1041+009001999GF104991999999999999999999MA1101801999999REMMET051METAR SBQV 161500Z 02004KT 9999 SCT030 29/17 Q1018;
0120833440999992012031616004-14950-040883FM-15+0914SBQV V0203101N001010090019N0112651N1+03001+01601999999ADDGA1071+009001999GF107991999999999999999999MA1101691999999REMMET051METAR SBQV 161600Z 31002KT 9999 BKN030 30/16 Q1017;
0120833440999992012031617004-14950-040883FM-15+0914SBQV V0203601N002110090019N0112651N1+03201+01601999999ADDGA1071+009001999GF107991999999999999999999MA1101591999999REMMET051METAR SBQV 161700Z 36004KT 9999 BKN030 32/16 Q1016;
0120833440999992012031618004-14950-040883FM-15+0914SBQV V0202401N002610090019N0112651N1+03201+01601999999ADDGA1071+009001999GF107991999999999999999999MA1101491999999REMMET051METAR SBQV 161800Z 24005KT 9999 BKN030 32/16 Q1015;
0139833440999992012031619004-14950-040883FM-15+0914SBQV V0201101N003112200019N0112651N1+03301+01701999999ADDGA1041+007501999GA2021+009001021MA1101491999999REMMET061METAR SBQV 161900Z 11006KT 9999 SCT025 FEW030TCU 33/17 Q1015;EQDQ01+000022SCOTCV
0139833440999992012031620004-14950-040883FM-15+0914SBQV V0201101N004612200019N0112651N1+03101+01801999999ADDGA1041+006001999GA2021+007501021MA1101491999999REMMET061METAR SBQV 162000Z 11009KT 9999 SCT020 FEW025TCU 31/18 Q1015;EQDQ01+000022SCOTCV
0120833440999992012031621004-14950-040883FM-15+0914SBQV V0201001N005712200019N0112651N1+02801+01901999999ADDGA1041+005401999GF104991999999999999999999MA1101591999999REMMET051METAR SBQV 162100Z 10011KT 9999 SCT018 28/19 Q1016;
0156833440999992012031622004-14950-040883FM-15+0914SBQV V0200901N004112200019N0112651N1+02601+02001999999ADDGA1021+004801999GA2021+005401091GF102991999999999999999999MA1101691999999MW1171REMMET065METAR SBQV 162200Z 09008KT 9999 VCTS FEW016 FEW018CB 26/20 Q1017;
0136833440999992012031710154-14950-040883FM-15+0914SBQV V0200301N00101003301CN0112651N1+02201+02001999999ADDGA1071+003301999GA2041+004501999MA1101801999999REMMET058METAR SBQV 171015Z 03002KT 9999 BKN011 SCT015 22/20 Q1018;EQDQ01+000042SCOTCV
0166833440999992012031711004-14950-040883FM-15+0914SBQV V0200101N00261004501CN0112651N1+02201+02101999999ADDGA1041+003601999GA2041+004501999GA3071+021001999GF107991999999999999999999MA1101901999999REMMET065METAR SBQV 171100Z 01005KT 9999 SCT012 SCT015 BKN070 22/21 Q1019;
0166833440999992012031712004-14950-040883FM-15+0914SBQV V0200801N00311004501CN0112651N1+02401+02001999999ADDGA1041+003901999GA2041+004501999GA3081+021001999GF108991999999999999999999MA1101901999999REMMET065METAR SBQV 171200Z 08006KT 9999 SCT013 SCT015 OVC070 24/20 Q1019;
0143833440999992012031713004-14950-040883FM-15+0914SBQV V0200501N002610240019N0112651N1+02501+02101999999ADDGA1041+004801999GA2081+024001999GF108991999999999999999999MA1101901999999REMMET058METAR SBQV 171300Z 05005KT 9999 SCT016 OVC080 25/21 Q1019;
0143833440999992012031714004-14950-040883FM-15+0914SBQV V0200601N002110240019N0112651N1+02601+02001999999ADDGA1041+006001999GA2081+024001999GF108991999999999999999999MA1101801999999REMMET058METAR SBQV 171400Z 06004KT 9999 SCT020 OVC080 26/20 Q1018;
0153833440999992012031715004-14950-040883FM-15+0914SBQV V0203401N003110060019N0112651N1+02401+02101999999ADDGA1071+006001999GA2081+021001999GF108991999999999999999999MA1101801999999MW1611REMMET062METAR SBQV 171500Z 34006KT 9999 -RA BKN020 OVC070 24/21 Q1018;
0143833440999992012031716004-14950-040883FM-15+0914SBQV V0203601N002610240019N0112651N1+02301+02201999999ADDGA1041+006001999GA2081+024001999GF108991999999999999999999MA1101691999999REMMET058METAR SBQV 171600Z 36005KT 9999 SCT020 OVC080 23/22 Q1017;
0143833440999992012031717004-14950-040883FM-15+0914SBQV V0200201N001010240019N0112651N1+02601+02101999999ADDGA1041+006001999GA2071+024001999GF107991999999999999999999MA1101591999999REMMET058METAR SBQV 171700Z 02002KT 9999 SCT020 BKN080 26/21 Q1016;
0143833440999992012031718004-14950-040883FM-15+0914SBQV V0201401N003110240019N0112651N1+02601+02101999999ADDGA1041+006001999GA2071+024001999GF107991999999999999999999MA1101491999999REMMET058METAR SBQV 171800Z 14006KT 9999 SCT020 BKN080 26/21 Q1015;
0143833440999992012031719004-14950-040883FM-15+0914SBQV V0201401N001010240019N0112651N1+02601+02001999999ADDGA1041+006001999GA2071+024001999GF107991999999999999999999MA1101491999999REMMET058METAR SBQV 171900Z 14002KT 9999 SCT020 BKN080 26/20 Q1015;
0143833440999992012031720004-14950-040883FM-15+0914SBQV V0209999C000010240019N0112651N1+02601+02201999999ADDGA1021+005401999GA2071+024001999GF107991999999999999999999MA1101391999999REMMET058METAR SBQV 172000Z 00000KT 9999 FEW018 BKN080 26/22 Q1014;
0143833440999992012031721004-14950-040883FM-15+0914SBQV V0201101N003110210019N0112651N1+02401+02001999999ADDGA1021+004801999GA2071+021001999GF107991999999999999999999MA1101391999999REMMET058METAR SBQV 172100Z 11006KT 9999 FEW016 BKN070 24/20 Q1014;
0143833440999992012031722004-14950-040883FM-15+0914SBQV V0201101N003112200019N0112651N1+02401+02101999999ADDGA1021+004501999GA2041+021001999GF104991999999999999999999MA1101491999999REMMET058METAR SBQV 172200Z 11006KT 9999 FEW015 SCT070 24/21 Q1015;
0160833440999992012031811004-14950-040883FM-15+0914SBQV V0200801N003110210019N0112651N1+01901+01801999999ADDGA1021+003901999GA2081+021001999GF108991999999999999999999MA1101801999999MW1611REMMET069METAR SBQV 181100Z 08006KT 9999 4000SE -RA FEW013 OVC070 19/18 Q1018;
0153833440999992012031812004-14950-040883FM-15+0914SBQV V0201001N002110210019N0050001N1+02001+02001999999ADDGA1021+001801999GA2081+021001999GF108991999999999999999999MA1101901999999MW1611REMMET062METAR SBQV 181200Z 10004KT 5000 -RA FEW006 OVC070 20/20 Q1019;
0143833440999992012031813004-14950-040883FM-15+0914SBQV V0200801N002610210019N0112651N1+02001+02001999999ADDGA1041+003901999GA2081+021001999GF108991999999999999999999MA1101901999999REMMET058METAR SBQV 181300Z 08005KT 9999 SCT013 OVC070 20/20 Q1019;
0166833440999992012031814004-14950-040883FM-15+0914SBQV V0201201N00211005401CN0112651N1+02101+02001999999ADDGA1021+004501999GA2041+005401999GA3081+024001999GF108991999999999999999999MA1101801999999REMMET065METAR SBQV 181400Z 12004KT 9999 FEW015 SCT018 OVC080 21/20 Q1018;
0166833440999992012031815004-14950-040883FM-15+0914SBQV V0201601N001010048019N0112651N1+02201+02001999999ADDGA1021+003601999GA2071+004801999GA3081+021001999GF108991999999999999999999MA1101801999999REMMET065METAR SBQV 181500Z 16002KT 9999 FEW012 BKN016 OVC070 22/20 Q1018;
0166833440999992012031816004-14950-040883FM-15+0914SBQV V0201101N001510045019N0112651N1+02201+02001999999ADDGA1041+003601999GA2071+004501999GA3081+021001999GF108991999999999999999999MA1101691999999REMMET065METAR SBQV 181600Z 11003KT 9999 SCT012 BKN015 OVC070 22/20 Q1017;
0143833440999992012031817004-14950-040883FM-15+0914SBQV V0201101N002610045019N0112651N1+02301+02001999999ADDGA1071+004501999GA2071+021001999GF107991999999999999999999MA1101591999999REMMET058METAR SBQV 181700Z 11005KT 9999 BKN015 BKN070 23/20 Q1016;
0143833440999992012031818004-14950-040883FM-15+0914SBQV V0201201N003610210019N0112651N1+02401+02101999999ADDGA1021+005401999GA2071+021001999GF107991999999999999999999MA1101491999999REMMET058METAR SBQV 181800Z 12007KT 9999 FEW018 BKN070 24/21 Q1015;
0143833440999992012031819004-14950-040883FM-15+0914SBQV V0201301N003610210019N0112651N1+02401+02001999999ADDGA1021+005401999GA2071+021001999GF107991999999999999999999MA1101491999999REMMET058METAR SBQV 181900Z 13007KT 9999 FEW018 BKN070 24/20 Q1015;
0143833440999992012031820004-14950-040883FM-15+0914SBQV V0201301N004110210019N0112651N1+02301+02001999999ADDGA1021+004801999GA2071+021001999GF107991999999999999999999MA1101491999999REMMET058METAR SBQV 182000Z 13008KT 9999 FEW016 BKN070 23/20 Q1015;
0143833440999992012031821004-14950-040883FM-15+0914SBQV V0201301N003610210019N0112651N1+02201+02001999999ADDGA1021+004501999GA2071+021001999GF107991999999999999999999MA1101591999999REMMET058METAR SBQV 182100Z 13007KT 9999 FEW015 BKN070 22/20 Q1016;
0143833440999992012031822004-14950-040883FM-15+0914SBQV V0201301N004110210019N0112651N1+02101+02101999999ADDGA1041+003901999GA2071+021001999GF107991999999999999999999MA1101691999999REMMET058METAR SBQV 182200Z 13008KT 9999 SCT013 BKN070 21/21 Q1017;
0136833440999992012031911004-14950-040883FM-15+0914SBQV V0201201N00311001201CN0112651N1+01901+01901999999ADDGA1071+001201999GA2041+001501999MA1101801999999REMMET058METAR SBQV 191100Z 12006KT 9999 BKN004 SCT005 19/19 Q1018;EQDQ01+000042SCOTCV
0136833440999992012031912004-14950-040883FM-15+0914SBQV V0201201N00361003001CN0112651N1+02101+02001999999ADDGA1071+003001999GA2041+004501999MA1101901999999REMMET058METAR SBQV 191200Z 12007KT 9999 BKN010 SCT015 21/20 Q1019;EQDQ01+000042SCOTCV
0136833440999992012031913004-14950-040883FM-15+0914SBQV V0201201N00311003601CN0112651N1+02201+01901999999ADDGA1071+003601999GA2041+004501999MA1101901999999REMMET058METAR SBQV 191300Z 12006KT 9999 BKN012 SCT015 22/19 Q1019;EQDQ01+000042SCOTCV
0143833440999992012031914004-14950-040883FM-15+0914SBQV V0201301N001510045019N0112651N1+02301+01901999999ADDGA1021+003601999GA2071+004501999GF107991999999999999999999MA1101901999999REMMET058METAR SBQV 191400Z 13003KT 9999 FEW012 BKN015 23/19 Q1019;
0120833440999992012031915004-14950-040883FM-15+0914SBQV V0201301N002112200019N0112651N1+02601+02001999999ADDGA1041+006001999GF104991999999999999999999MA1101801999999REMMET051METAR SBQV 191500Z 13004KT 9999 SCT020 26/20 Q1018;
0120833440999992012031916004-14950-040883FM-15+0914SBQV V0201301N003112200019N0112651N1+02701+01901999999ADDGA1041+006001999GF104991999999999999999999MA1101691999999REMMET051METAR SBQV 191600Z 13006KT 9999 SCT020 27/19 Q1017;
0120833440999992012031917004-14950-040883FM-15+0914SBQV V0201601N004112200019N0112651N1+02801+02001999999ADDGA1041+006001999GF104991999999999999999999MA1101591999999REMMET051METAR SBQV 191700Z 16008KT 9999 SCT020 28/20 Q1016;
0120833440999992012031918004-14950-040883FM-15+0914SBQV V0201401N004612200019N0112651N1+02901+02001999999ADDGA1041+006001999GF104991999999999999999999MA1101491999999REMMET051METAR SBQV 191800Z 14009KT 9999 SCT020 29/20 Q1015;
0120833440999992012031919004-14950-040883FM-15+0914SBQV V0201301N005112200019N0112651N1+02501+01901999999ADDGA1041+005401999GF104991999999999999999999MA1101491999999REMMET051METAR SBQV 191900Z 13010KT 9999 SCT018 25/19 Q1015;
0120833440999992012031920004-14950-040883FM-15+0914SBQV V0201101N005112200019N0112651N1+02401+01901999999ADDGA1041+004801999GF104991999999999999999999MA1101491999999REMMET051METAR SBQV 192000Z 11010KT 9999 SCT016 24/19 Q1015;
0120833440999992012031921004-14950-040883FM-15+0914SBQV V0201101N005712200019N0112651N1+02301+01901999999ADDGA1021+004501999GF102991999999999999999999MA1101591999999REMMET051METAR SBQV 192100Z 11011KT 9999 FEW015 23/19 Q1016;
0143833440999992012031922004-14950-040883FM-15+0914SBQV V0201301N004112200019N0112651N1+02201+02001999999ADDGA1021+003901999GA2041+021001999GF104991999999999999999999MA1101691999999REMMET058METAR SBQV 192200Z 13008KT 9999 FEW013 SCT070 22/20 Q1017;
0143833440999992012032011004-14950-040883FM-15+0914SBQV V0200501N002112200019N0112651N1+02201+01901999999ADDGA1041+002701999GA2041+003001999GF104991999999999999999999MA1101901999999REMMET058METAR SBQV 201100Z 05004KT 9999 SCT009 SCT010 22/19 Q1019;
0143833440999992012032012004-14950-040883FM-15+0914SBQV V0200201N001510045019N0112651N1+02201+01901999999ADDGA1041+003601999GA2071+004501999GF107991999999999999999999MA1101901999999REMMET058METAR SBQV 201200Z 02003KT 9999 SCT012 BKN015 22/19 Q1019;
0120833440999992012032013004-14950-040883FM-15+0914SBQV V0200201N002110045019N0112651N1+02401+01901999999ADDGA1071+004501999GF107991999999999999999999MA1101901999999REMMET051METAR SBQV 201300Z 02004KT 9999 BKN015 24/19 Q1019;
0120833440999992012032014004-14950-040883FM-15+0914SBQV V0200501N003610054019N0112651N1+02701+01801999999ADDGA1071+005401999GF107991999999999999999999MA1101901999999REMMET051METAR SBQV 201400Z 05007KT 9999 BKN018 27/18 Q1019;
0120833440999992012032015004-14950-040883FM-15+0914SBQV V0200601N002112200019N0112651N1+02701+01701999999ADDGA1041+005401999GF104991999999999999999999MA1101801999999REMMET051METAR SBQV 201500Z 06004KT 9999 SCT018 27/17 Q1018;
0120833440999992012032016004-14950-040883FM-15+0914SBQV V0200501N001512200019N0112651N1+02801+01601999999ADDGA1021+006001999GF102991999999999999999999MA1101691999999REMMET051METAR SBQV 201600Z 05003KT 9999 FEW020 28/16 Q1017;
0120833440999992012032017004-14950-040883FM-15+0914SBQV V0200701N001510075019N0112651N1+02901+01701999999ADDGA1071+007501999GF107991999999999999999999MA1101591999999REMMET051METAR SBQV 201700Z 07003KT 9999 BKN025 29/17 Q1016;
0120833440999992012032018004-14950-040883FM-15+0914SBQV V0201001N002612200019N0112651N1+02901+01601999999ADDGA1041+007501999GF104991999999999999999999MA1101491999999REMMET051METAR SBQV 201800Z 10005KT 9999 SCT025 29/16 Q1015;
0120833440999992012032019004-14950-040883FM-15+0914SBQV V0201201N004612200019N0112651N1+02901+01901999999ADDGA1041+007501999GF104991999999999999999999MA1101491999999REMMET051METAR SBQV 201900Z 12009KT 9999 SCT025 29/19 Q1015;
0120833440999992012032111004-14950-040883FM-15+0914SBQV V0200101N003112200019N0112651N1+02301+01801999999ADDGA1021+004801999GF102991999999999999999999MA1101901999999REMMET051METAR SBQV 211100Z 01006KT 9999 FEW016 23/18 Q1019;
0120833440999992012032112004-14950-040883FM-15+0914SBQV V0200401N002612200019N0112651N1+02501+01701999999ADDGA1021+006001999GF102991999999999999999999MA1101901999999REMMET051METAR SBQV 211200Z 04005KT 9999 FEW020 25/17 Q1019;
0120833440999992012032113004-14950-040883FM-15+0914SBQV V0200501N002612200019N0112651N1+02701+01601999999ADDGA1021+006001999GF102991999999999999999999MA1101801999999REMMET051METAR SBQV 211300Z 05005KT 9999 FEW020 27/16 Q1018;
0120833440999992012032114004-14950-040883FM-15+0914SBQV V0200801N001012200019N0112651N1+02701+01601999999ADDGA1041+006001999GF104991999999999999999999MA1101591999999REMMET051METAR SBQV 211400Z 08002KT 9999 SCT020 27/16 Q1016;
0120833440999992012032115004-14950-040883FM-15+0914SBQV V0203001N002110075019N0112651N1+02901+01601999999ADDGA1071+007501999GF107991999999999999999999MA1101691999999REMMET051METAR SBQV 211500Z 30004KT 9999 BKN025 29/16 Q1017;
0120833440999992012032116004-14950-040883FM-15+0914SBQV V0202601N002610060019N0112651N1+02901+01701999999ADDGA1071+006001999GF107991999999999999999999MA1101591999999REMMET051METAR SBQV 211600Z 26005KT 9999 BKN020 29/17 Q1016;
0120833440999992012032117004-14950-040883FM-15+0914SBQV V0200501N001010060019N0112651N1+02801+01601999999ADDGA1071+006001999GF107991999999999999999999MA1101591999999REMMET051METAR SBQV 211700Z 05002KT 9999 BKN020 28/16 Q1016;
0143833440999992012032118004-14950-040883FM-15+0914SBQV V0201601N001012200019N0112651N1+02801+01701999999ADDGA1041+006001999GA2041+027001999GF104991999999999999999999MA1101491999999REMMET058METAR SBQV 211800Z 16002KT 9999 SCT020 SCT090 28/17 Q1015;
0120833440999992012032119004-14950-040883FM-15+0914SBQV V0201201N002112200019N0112651N1+02801+01701999999ADDGA1021+006001999GF102991999999999999999999MA1101391999999REMMET051METAR SBQV 211900Z 12004KT 9999 FEW020 28/17 Q1014;
0120833440999992012032120004-14950-040883FM-15+0914SBQV V0201301N004112200019N0112651N1+02701+01901999999ADDGA1021+006001999GF102991999999999999999999MA1101391999999REMMET051METAR SBQV 212000Z 13008KT 9999 FEW020 27/19 Q1014;
0120833440999992012032121004-14950-040883FM-15+0914SBQV V0201201N004612200019N0112651N1+02501+01901999999ADDGA1021+005401999GF102991999999999999999999MA1101491999999REMMET051METAR SBQV 212100Z 12009KT 9999 FEW018 25/19 Q1015;
0072833440999992012032122004-14950-040883FM-15+0914SBQV V0201001N003119999999Y0099001N1+02401+01901999999ADDMA1101491999999REMMET045METAR SBQV 212200Z 10006KT CAVOK 24/19 Q1015;
0120833440999992012032211004-14950-040883FM-15+0914SBQV V0200601N002612200019N0112651N1+02201+01901999999ADDGA1041+003601999GF104991999999999999999999MA1101901999999REMMET051METAR SBQV 221100Z 06005KT 9999 SCT012 22/19 Q1019;
0143833440999992012032212004-14950-040883FM-15+0914SBQV V0200301N003112200019N0112651N1+02401+01901999999ADDGA1041+004501999GA2041+021001999GF104991999999999999999999MA1101901999999REMMET058METAR SBQV 221200Z 03006KT 9999 SCT015 SCT070 24/19 Q1019;
0120833440999992012032213004-14950-040883FM-15+0914SBQV V0203601N002610048019N0112651N1+02501+01901999999ADDGA1071+004801999GF107991999999999999999999MA1101901999999REMMET051METAR SBQV 221300Z 36005KT 9999 BKN016 25/19 Q1019;
0120833440999992012032214004-14950-040883FM-15+0914SBQV V0200201N002110054019N0112651N1+02601+01901999999ADDGA1071+005401999GF107991999999999999999999MA1101801999999REMMET051METAR SBQV 221400Z 02004KT 9999 BKN018 26/19 Q1018;
0120833440999992012032215004-14950-040883FM-15+0914SBQV V0203201N002110060019N0112651N1+02901+01801999999ADDGA1071+006001999GF107991999999999999999999MA1101691999999REMMET051METAR SBQV 221500Z 32004KT 9999 BKN020 29/18 Q1017;
0120833440999992012032216004-14950-040883FM-15+0914SBQV V0201901N001510060019N0112651N1+02901+01801999999ADDGA1071+006001999GF107991999999999999999999MA1101591999999REMMET051METAR SBQV 221600Z 19003KT 9999 BKN020 29/18 Q1016;
0120833440999992012032217004-14950-040883FM-15+0914SBQV V0201301N002110060019N0112651N1+02801+01701999999ADDGA1071+006001999GF107991999999999999999999MA1101491999999REMMET051METAR SBQV 221700Z 13004KT 9999 BKN020 28/17 Q1015;
0120833440999992012032218004-14950-040883FM-15+0914SBQV V0201301N004110075019N0112651N1+03001+01901999999ADDGA1071+007501999GF107991999999999999999999MA1101391999999REMMET051METAR SBQV 221800Z 13008KT 9999 BKN025 30/19 Q1014;
0146833440999992012032219004-14950-040883FM-15+0914SBQV V0201301N004610075019N0112651N1+02801+01901999999ADDGA1021+006001021GA2071+007501999GF107991999999999999999999MA1101391999999REMMET061METAR SBQV 221900Z 13009KT 9999 FEW020TCU BKN025 28/19 Q1014;
0120833440999992012032220004-14950-040883FM-15+0914SBQV V0201001N004110060019N0112651N1+02701+01901999999ADDGA1071+006001999GF107991999999999999999999MA1101391999999REMMET051METAR SBQV 222000Z 10008KT 9999 BKN020 27/19 Q1014;
0120833440999992012032221004-14950-040883FM-15+0914SBQV V0201001N003612200019N0112651N1+02501+01801999999ADDGA1021+005401999GF102991999999999999999999MA1101391999999REMMET051METAR SBQV 222100Z 10007KT 9999 FEW018 25/18 Q1014;
0120833440999992012032222004-14950-040883FM-15+0914SBQV V0201001N003112200019N0112651N1+02401+01901999999ADDGA1021+004501999GF102991999999999999999999MA1101491999999REMMET051METAR SBQV 222200Z 10006KT 9999 FEW015 24/19 Q1015;
0072833440999992012032311004-14950-040883FM-15+0914SBQV V0200201N005719999999Y0099001N1+02301+01701999999ADDMA1101691999999REMMET045METAR SBQV 231100Z 02011KT CAVOK 23/17 Q1017;
0072833440999992012032312004-14950-040883FM-15+0914SBQV V0200201N005119999999Y0099001N1+02601+01601999999ADDMA1101801999999REMMET045METAR SBQV 231200Z 02010KT CAVOK 26/16 Q1018;
0072833440999992012032313004-14950-040883FM-15+0914SBQV V0200301N003619999999Y0099001N1+02801+01601999999ADDMA1101801999999REMMET045METAR SBQV 231300Z 03007KT CAVOK 28/16 Q1018;
0120833440999992012032314004-14950-040883FM-15+0914SBQV V0200101N002112200019N0112651N1+03001+01601999999ADDGA1021+012001999GF102991999999999999999999MA1101801999999REMMET051METAR SBQV 231400Z 01004KT 9999 FEW040 30/16 Q1018;
0120833440999992012032315004-14950-040883FM-15+0914SBQV V0200401N002612200019N0112651N1+03101+01601999999ADDGA1041+012001999GF104991999999999999999999MA1101691999999REMMET051METAR SBQV 231500Z 04005KT 9999 SCT040 31/16 Q1017;
0120833440999992012032316004-14950-040883FM-15+0914SBQV V0202801N001012200019N0112651N1+03101+01601999999ADDGA1041+012001999GF104991999999999999999999MA1101591999999REMMET051METAR SBQV 231600Z 28002KT 9999 SCT040 31/16 Q1016;
0120833440999992012032317004-14950-040883FM-15+0914SBQV V0203101N001512200019N0112651N1+03201+01601999999ADDGA1041+012001999GF104991999999999999999999MA1101491999999REMMET051METAR SBQV 231700Z 31003KT 9999 SCT040 32/16 Q1015;
0120833440999992012032318004-14950-040883FM-15+0914SBQV V0201201N001512200019N0112651N1+03001+01501999999ADDGA1041+012001999GF104991999999999999999999MA1101391999999REMMET051METAR SBQV 231800Z 12003KT 9999 SCT040 30/15 Q1014;
0120833440999992012032319004-14950-040883FM-15+0914SBQV V0201101N005112200019N0112651N1+03001+01801999999ADDGA1041+012001999GF104991999999999999999999MA1101391999999REMMET051METAR SBQV 231900Z 11010KT 9999 SCT040 30/18 Q1014;
0120833440999992012032320004-14950-040883FM-15+0914SBQV V0201001N005112200019N0112651N1+02901+01701999999ADDGA1021+010501999GF102991999999999999999999MA1101391999999REMMET051METAR SBQV 232000Z 10010KT 9999 FEW035 29/17 Q1014;
0120833440999992012032321004-14950-040883FM-15+0914SBQV V0201001N004612200019N0112651N1+02601+01601999999ADDGA1021+007501999GF102991999999999999999999MA1101491999999REMMET051METAR SBQV 232100Z 10009KT 9999 FEW025 26/16 Q1015;
0072833440999992012032322004-14950-040883FM-15+0914SBQV V0200901N004119999999Y0099001N1+02501+01501999999ADDMA1101591999999REMMET045METAR SBQV 232200Z 09008KT CAVOK 25/15 Q1016;
0120833440999992012032411004-14950-040883FM-15+0914SBQV V0200301N006712200019N0112651N1+02201+01901999999ADDGA1021+004801999GF102991999999999999999999MA1101901999999REMMET051METAR SBQV 241100Z 03013KT 9999 FEW016 22/19 Q1019;
0120833440999992012032412004-14950-040883FM-15+0914SBQV V0200401N001512200019N0112651N1+02501+01801999999ADDGA1021+005401999GF102991999999999999999999MA1102001999999REMMET051METAR SBQV 241200Z 04003KT 9999 FEW018 25/18 Q1020;
0120833440999992012032413004-14950-040883FM-15+0914SBQV V0200101N002612200019N0112651N1+02701+01801999999ADDGA1021+007501999GF102991999999999999999999MA1102001999999REMMET051METAR SBQV 241300Z 01005KT 9999 FEW025 27/18 Q1020;
0120833440999992012032414004-14950-040883FM-15+0914SBQV V0200501N002612200019N0112651N1+02801+01701999999ADDGA1041+007501999GF104991999999999999999999MA1101901999999REMMET051METAR SBQV 241400Z 05005KT 9999 SCT025 28/17 Q1019;
0120833440999992012032415004-14950-040883FM-15+0914SBQV V0200601N001510075019N0112651N1+03001+01701999999ADDGA1071+007501999GF107991999999999999999999MA1101901999999REMMET051METAR SBQV 241500Z 06003KT 9999 BKN025 30/17 Q1019;
0120833440999992012032416004-14950-040883FM-15+0914SBQV V0200501N001510090019N0112651N1+03001+01701999999ADDGA1071+009001999GF107991999999999999999999MA1101801999999REMMET051METAR SBQV 241600Z 05003KT 9999 BKN030 30/17 Q1018;
0120833440999992012032417004-14950-040883FM-15+0914SBQV V0200901N003110090019N0112651N1+03201+01501999999ADDGA1071+009001999GF107991999999999999999999MA1101591999999REMMET051METAR SBQV 241700Z 09006KT 9999 BKN030 32/15 Q1016;
0120833440999992012032418004-14950-040883FM-15+0914SBQV V0201101N004112200019N0112651N1+03101+01601999999ADDGA1041+010501999GF104991999999999999999999MA1101591999999REMMET051METAR SBQV 241800Z 11008KT 9999 SCT035 31/16 Q1016;
0120833440999992012032419004-14950-040883FM-15+0914SBQV V0201301N003612200019N0112651N1+03101+01701999999ADDGA1041+010501999GF104991999999999999999999MA1101591999999REMMET051METAR SBQV 241900Z 13007KT 9999 SCT035 31/17 Q1016;
0120833440999992012032420004-14950-040883FM-15+0914SBQV V0201201N005112200019N0112651N1+02901+01701999999ADDGA1041+010501999GF104991999999999999999999MA1101591999999REMMET051METAR SBQV 242000Z 12010KT 9999 SCT035 29/17 Q1016;
0120833440999992012032421004-14950-040883FM-15+0914SBQV V0201001N004612200019N0112651N1+02601+01601999999ADDGA1021+009001999GF102991999999999999999999MA1101591999999REMMET051METAR SBQV 242100Z 10009KT 9999 FEW030 26/16 Q1016;
0120833440999992012032422004-14950-040883FM-15+0914SBQV V0200901N004112200019N0112651N1+02501+01601999999ADDGA1021+007501999GF102991999999999999999999MA1101691999999REMMET051METAR SBQV 242200Z 09008KT 9999 FEW025 25/16 Q1017;
0072833440999992012032511004-14950-040883FM-15+0914SBQV V0200701N002119999999Y0099001N1+02301+00901999999ADDMA1102001999999REMMET045METAR SBQV 251100Z 07004KT CAVOK 23/09 Q1020;
0072833440999992012032512004-14950-040883FM-15+0914SBQV V0200301N004119999999Y0099001N1+02601+00901999999ADDMA1102001999999REMMET045METAR SBQV 251200Z 03008KT CAVOK 26/09 Q1020;
0072833440999992012032513004-14950-040883FM-15+0914SBQV V0200301N003619999999Y0099001N1+02801+00801999999ADDMA1102001999999REMMET045METAR SBQV 251300Z 03007KT CAVOK 28/08 Q1020;
0072833440999992012032514004-14950-040883FM-15+0914SBQV V0200501N002619999999Y0099001N1+03001+01101999999ADDMA1102001999999REMMET045METAR SBQV 251400Z 05005KT CAVOK 30/11 Q1020;
0072833440999992012032515004-14950-040883FM-15+0914SBQV V0200901N004119999999Y0099001N1+03201+01001999999ADDMA1101901999999REMMET045METAR SBQV 251500Z 09008KT CAVOK 32/10 Q1019;
0072833440999992012032516004-14950-040883FM-15+0914SBQV V0200901N003119999999Y0099001N1+03101+01101999999ADDMA1101801999999REMMET045METAR SBQV 251600Z 09006KT CAVOK 31/11 Q1018;
0120833440999992012032517004-14950-040883FM-15+0914SBQV V0201101N005112200019N0112651N1+03101+01001999999ADDGA1021+007501999GF102991999999999999999999MA1101691999999REMMET051METAR SBQV 251700Z 11010KT 9999 FEW025 31/10 Q1017;
0120833440999992012032518004-14950-040883FM-15+0914SBQV V0201201N005112200019N0112651N1+03101+01001999999ADDGA1021+009001999GF102991999999999999999999MA1101691999999REMMET051METAR SBQV 251800Z 12010KT 9999 FEW030 31/10 Q1017;
0120833440999992012032519004-14950-040883FM-15+0914SBQV V0201001N005112200019N0112651N1+03001+01201999999ADDGA1021+009001999GF102991999999999999999999MA1101691999999REMMET051METAR SBQV 251900Z 10010KT 9999 FEW030 30/12 Q1017;
0120833440999992012032520004-14950-040883FM-15+0914SBQV V0201101N005112200019N0112651N1+02901+01301999999ADDGA1021+007501999GF102991999999999999999999MA1101691999999REMMET051METAR SBQV 252000Z 11010KT 9999 FEW025 29/13 Q1017;
0072833440999992012032521004-14950-040883FM-15+0914SBQV V0201001N005719999999Y0099001N1+02601+01301999999ADDMA1101691999999REMMET045METAR SBQV 252100Z 10011KT CAVOK 26/13 Q1017;
0072833440999992012032522004-14950-040883FM-15+0914SBQV V0201201N003619999999Y0099001N1+02301+01401999999ADDMA1101691999999REMMET045METAR SBQV 252200Z 12007KT CAVOK 23/14 Q1017;
0072833440999992012032600004-14950-040883FM-15+0914SBQV V0201101N003119999999Y0099001N1+02101+01601999999ADDMA1101901999999REMMET045METAR SBQV 260000Z 11006KT CAVOK 21/16 Q1019;
0072833440999992012032601004-14950-040883FM-15+0914SBQV V0201201N003119999999Y0099001N1+02001+01701999999ADDMA1101901999999REMMET045METAR SBQV 260100Z 12006KT CAVOK 20/17 Q1019;
0072833440999992012032602004-14950-040883FM-15+0914SBQV V0201301N004119999999Y0099001N1+01901+01701999999ADDMA1101901999999REMMET045METAR SBQV 260200Z 13008KT CAVOK 19/17 Q1019;
0120833440999992012032611004-14950-040883FM-15+0914SBQV V0200801N006212200019N0112651N1+02101+01601999999ADDGA1021+004801999GF102991999999999999999999MA1102001999999REMMET051METAR SBQV 261100Z 08012KT 9999 FEW016 21/16 Q1020;
0120833440999992012032612004-14950-040883FM-15+0914SBQV V0200801N006212200019N0112651N1+02401+01401999999ADDGA1021+005401999GF102991999999999999999999MA1102001999999REMMET051METAR SBQV 261200Z 08012KT 9999 FEW018 24/14 Q1020;
0128833440999992012032613004-14950-040883FM-15+0914SBQV V0200501N003612200019N0112651N1+02601+01401999999ADDGA1021+006001999GF102991999999999999999999MA1102001999999REMMET059METAR SBQV 261300Z 05007KT 010V090 9999 FEW020 26/14 Q1020;
0120833440999992012032614004-14950-040883FM-15+0914SBQV V0200801N003612200019N0112651N1+02801+01201999999ADDGA1021+007501999GF102991999999999999999999MA1102001999999REMMET051METAR SBQV 261400Z 08007KT 9999 FEW025 28/12 Q1020;
0120833440999992012032615004-14950-040883FM-15+0914SBQV V0201001N005112200019N0112651N1+02901+01101999999ADDGA1021+009001999GF102991999999999999999999MA1101901999999REMMET051METAR SBQV 261500Z 10010KT 9999 FEW030 29/11 Q1019;
0120833440999992012032616004-14950-040883FM-15+0914SBQV V0201001N005112200019N0112651N1+02901+01401999999ADDGA1021+009001999GF102991999999999999999999MA1101801999999REMMET051METAR SBQV 261600Z 10010KT 9999 FEW030 29/14 Q1018;
0120833440999992012032617004-14950-040883FM-15+0914SBQV V0201101N005712200019N0112651N1+02901+01301999999ADDGA1021+009001999GF102991999999999999999999MA1101801999999REMMET051METAR SBQV 261700Z 11011KT 9999 FEW030 29/13 Q1018;
0120833440999992012032618004-14950-040883FM-15+0914SBQV V0200901N004110090019N0112651N1+02901+01501999999ADDGA1071+009001999GF107991999999999999999999MA1101691999999REMMET051METAR SBQV 261800Z 09008KT 9999 BKN030 29/15 Q1017;
0120833440999992012032619004-14950-040883FM-15+0914SBQV V0201301N005112200019N0112651N1+02601+01601999999ADDGA1041+009001999GF104991999999999999999999MA1101691999999REMMET051METAR SBQV 261900Z 13010KT 9999 SCT030 26/16 Q1017;
0120833440999992012032620004-14950-040883FM-15+0914SBQV V0201301N005712200019N0112651N1+02601+01701999999ADDGA1021+009001999GF102991999999999999999999MA1101691999999REMMET051METAR SBQV 262000Z 13011KT 9999 FEW030 26/17 Q1017;
0120833440999992012032621004-14950-040883FM-15+0914SBQV V0201301N005712200019N0112651N1+02301+01901999999ADDGA1021+006001999GF102991999999999999999999MA1101691999999REMMET051METAR SBQV 262100Z 13011KT 9999 FEW020 23/19 Q1017;
0072833440999992012032622004-14950-040883FM-15+0914SBQV V0201301N004619999999Y0099001N1+02101+01901999999ADDMA1101801999999REMMET045METAR SBQV 262200Z 13009KT CAVOK 21/19 Q1018;
0120833440999992012032623004-14950-040883FM-15+0914SBQV V0201301N003612200019N0112651N1+02001+01901999999ADDGA1021+001801999GF102991999999999999999999MA1101801999999REMMET051METAR SBQV 262300Z 13007KT 9999 FEW006 20/19 Q1018;
0143833440999992012032711004-14950-040883FM-15+0914SBQV V0201001N003612200019N0112651N1+02101+01801999999ADDGA1021+002101999GA2041+003001999GF104991999999999999999999MA1102001999999REMMET058METAR SBQV 271100Z 10007KT 9999 FEW007 SCT010 21/18 Q1020;
0120833440999992012032712004-14950-040883FM-15+0914SBQV V0201201N004612200019N0112651N1+02401+01601999999ADDGA1041+004501999GF104991999999999999999999MA1102101999999REMMET051METAR SBQV 271200Z 12009KT 9999 SCT015 24/16 Q1021;
0120833440999992012032713004-14950-040883FM-15+0914SBQV V0201001N004112200019N0112651N1+02601+01601999999ADDGA1021+004801999GF102991999999999999999999MA1102001999999REMMET051METAR SBQV 271300Z 10008KT 9999 FEW016 26/16 Q1020;
0120833440999992012032714004-14950-040883FM-15+0914SBQV V0200901N005112200019N0112651N1+02801+01501999999ADDGA1021+006001999GF102991999999999999999999MA1101901999999REMMET051METAR SBQV 271400Z 09010KT 9999 FEW020 28/15 Q1019;
0120833440999992012032715004-14950-040883FM-15+0914SBQV V0201001N005112200019N0112651N1+02901+01301999999ADDGA1021+007501999GF102991999999999999999999MA1101801999999REMMET051METAR SBQV 271500Z 10010KT 9999 FEW025 29/13 Q1018;
0120833440999992012032716004-14950-040883FM-15+0914SBQV V0200901N004612200019N0112651N1+03001+01401999999ADDGA1021+009001999GF102991999999999999999999MA1101691999999REMMET051METAR SBQV 271600Z 09009KT 9999 FEW030 30/14 Q1017;
0120833440999992012032717004-14950-040883FM-15+0914SBQV V0201201N004612200019N0112651N1+02901+01501999999ADDGA1041+009001999GF104991999999999999999999MA1101691999999REMMET051METAR SBQV 271700Z 12009KT 9999 SCT030 29/15 Q1017;
0120833440999992012032718004-14950-040883FM-15+0914SBQV V0201101N004112200019N0112651N1+03001+01401999999ADDGA1041+010501999GF104991999999999999999999MA1101591999999REMMET051METAR SBQV 271800Z 11008KT 9999 SCT035 30/14 Q1016;
0120833440999992012032719004-14950-040883FM-15+0914SBQV V0201101N004112200019N0112651N1+02901+01401999999ADDGA1041+010501999GF104991999999999999999999MA1101591999999REMMET051METAR SBQV 271900Z 11008KT 9999 SCT035 29/14 Q1016;
0120833440999992012032720004-14950-040883FM-15+0914SBQV V0201201N005712200019N0112651N1+02701+01501999999ADDGA1041+010501999GF104991999999999999999999MA1101901999999REMMET051METAR SBQV 272000Z 12011KT 9999 SCT035 27/15 Q1019;
0120833440999992012032721004-14950-040883FM-15+0914SBQV V0201201N005712200019N0112651N1+02401+01101999999ADDGA1021+007501999GF102991999999999999999999MA1101591999999REMMET051METAR SBQV 272100Z 12011KT 9999 FEW025 24/11 Q1016;
0091833440999992012032722004-14950-040883FM-15+0914SBQV V0201101N006219999999Y0099001N1+02301+01902999999ADDMA1101801999999REMMET045METAR SBQV 272200Z 11012KT CAVOK 23/19 Q1018;EQDQ01+001903ATOD  
0143833440999992012032811004-14950-040883FM-15+0914SBQV V0200301N003610240019N0112651N1+02201+01801999999ADDGA1021+004801999GA2071+024001999GF107991999999999999999999MA1102001999999REMMET058METAR SBQV 281100Z 03007KT 9999 FEW016 BKN080 22/18 Q1020;
0143833440999992012032812004-14950-040883FM-15+0914SBQV V0200101N003112200019N0112651N1+02501+01801999999ADDGA1021+007501999GA2041+027001999GF104991999999999999999999MA1102001999999REMMET058METAR SBQV 281200Z 01006KT 9999 FEW025 SCT090 25/18 Q1020;
0120833440999992012032813004-14950-040883FM-15+0914SBQV V0200101N002112200019N0112651N1+02601+01701999999ADDGA1041+009001999GF104991999999999999999999MA1102001999999REMMET051METAR SBQV 281300Z 01004KT 9999 SCT030 26/17 Q1020;
0120833440999992012032814004-14950-040883FM-15+0914SBQV V0200601N001510090019N0112651N1+02701+01501999999ADDGA1071+009001999GF107991999999999999999999MA1101901999999REMMET051METAR SBQV 281400Z 06003KT 9999 BKN030 27/15 Q1019;
0120833440999992012032815004-14950-040883FM-15+0914SBQV V0200601N002110105019N0112651N1+02901+01501999999ADDGA1071+010501999GF107991999999999999999999MA1101801999999REMMET051METAR SBQV 281500Z 06004KT 9999 BKN035 29/15 Q1018;
0120833440999992012032816004-14950-040883FM-15+0914SBQV V0201401N002110105019N0112651N1+02901+01501999999ADDGA1071+010501999GF107991999999999999999999MA1101691999999REMMET051METAR SBQV 281600Z 14004KT 9999 BKN035 29/15 Q1017;
0120833440999992012032817004-14950-040883FM-15+0914SBQV V0201101N002112200019N0112651N1+02901+01501999999ADDGA1041+010501999GF104991999999999999999999MA1101591999999REMMET051METAR SBQV 281700Z 11004KT 9999 SCT035 29/15 Q1016;
0120833440999992012032819004-14950-040883FM-15+0914SBQV V0201001N002112200019N0112651N1+03001+01501999999ADDGA1041+010501999GF104991999999999999999999MA1101491999999REMMET051METAR SBQV 281900Z 10004KT 9999 SCT035 30/15 Q1015;
0120833440999992012032820004-14950-040883FM-15+0914SBQV V0201201N005112200019N0112651N1+02701+01601999999ADDGA1041+009001999GF104991999999999999999999MA1101591999999REMMET051METAR SBQV 282000Z 12010KT 9999 SCT030 27/16 Q1016;
0120833440999992012032821004-14950-040883FM-15+0914SBQV V0201101N004112200019N0112651N1+02501+01701999999ADDGA1021+007501999GF102991999999999999999999MA1101591999999REMMET051METAR SBQV 282100Z 11008KT 9999 FEW025 25/17 Q1016;
0120833440999992012032822004-14950-040883FM-15+0914SBQV V0201001N004612200019N0112651N1+02401+01801999999ADDGA1021+006001999GF102991999999999999999999MA1101691999999REMMET051METAR SBQV 282200Z 10009KT 9999 FEW020 24/18 Q1017;
0120833440999992012032911004-14950-040883FM-15+0914SBQV V0200301N002612200019N0112651N1+02301+01901999999ADDGA1021+004801999GF102991999999999999999999MA1102101999999REMMET051METAR SBQV 291100Z 03005KT 9999 FEW016 23/19 Q1021;
0120833440999992012032912004-14950-040883FM-15+0914SBQV V0200301N003112200019N0112651N1+02601+01901999999ADDGA1021+006001999GF102991999999999999999999MA1102201999999REMMET051METAR SBQV 291200Z 03006KT 9999 FEW020 26/19 Q1022;
0120833440999992012032913004-14950-040883FM-15+0914SBQV V0200801N002112200019N0112651N1+02801+01801999999ADDGA1021+006001999GF102991999999999999999999MA1102201999999REMMET051METAR SBQV 291300Z 08004KT 9999 FEW020 28/18 Q1022;
0120833440999992012032914004-14950-040883FM-15+0914SBQV V0200201N002612200019N0112651N1+02901+01701999999ADDGA1041+007501999GF104991999999999999999999MA1102101999999REMMET051METAR SBQV 291400Z 02005KT 9999 SCT025 29/17 Q1021;
0120833440999992012032915004-14950-040883FM-15+0914SBQV V0201201N002610075019N0112651N1+02801+01601999999ADDGA1071+007501999GF107991999999999999999999MA1102001999999REMMET051METAR SBQV 291500Z 12005KT 9999 BKN025 28/16 Q1020;
0120833440999992012032916004-14950-040883FM-15+0914SBQV V0201301N003610075019N0112651N1+02901+01701999999ADDGA1071+007501999GF107991999999999999999999MA1101901999999REMMET051METAR SBQV 291600Z 13007KT 9999 BKN025 29/17 Q1019;
0120833440999992012032917004-14950-040883FM-15+0914SBQV V0201201N005110090019N0112651N1+03101+01701999999ADDGA1071+009001999GF107991999999999999999999MA1101801999999REMMET051METAR SBQV 291700Z 12010KT 9999 BKN030 31/17 Q1018;
0120833440999992012032918004-14950-040883FM-15+0914SBQV V0201101N005110090019N0112651N1+03101+01701999999ADDGA1071+009001999GF107991999999999999999999MA1101801999999REMMET051METAR SBQV 291800Z 11010KT 9999 BKN030 31/17 Q1018;
0120833440999992012032919004-14950-040883FM-15+0914SBQV V0201101N005710090019N0112651N1+02901+01601999999ADDGA1071+009001999GF107991999999999999999999MA1101801999999REMMET051METAR SBQV 291900Z 11011KT 9999 BKN030 29/16 Q1018;
0120833440999992012032920004-14950-040883FM-15+0914SBQV V0201101N005710090019N0112651N1+02801+01601999999ADDGA1071+009001999GF107991999999999999999999MA1101801999999REMMET051METAR SBQV 292000Z 11011KT 9999 BKN030 28/16 Q1018;
0120833440999992012032921004-14950-040883FM-15+0914SBQV V0201201N005712200019N0112651N1+02601+01601999999ADDGA1021+007501999GF102991999999999999999999MA1101901999999REMMET051METAR SBQV 292100Z 12011KT 9999 FEW025 26/16 Q1019;
0072833440999992012032922004-14950-040883FM-15+0914SBQV V0201201N005719999999Y0099001N1+02401+01701999999ADDMA1102001999999REMMET045METAR SBQV 292200Z 12011KT CAVOK 24/17 Q1020;
0120833440999992012033011004-14950-040883FM-15+0914SBQV V0200801N004610036019N0112651N1+02101+01801999999ADDGA1071+003601999GF107991999999999999999999MA1102301999999REMMET051METAR SBQV 301100Z 08009KT 9999 BKN012 21/18 Q1023;
0120833440999992012033013004-14950-040883FM-15+0914SBQV V0200901N005712200019N0112651N1+02501+01701999999ADDGA1041+004501999GF104991999999999999999999MA1102301999999REMMET051METAR SBQV 301300Z 09011KT 9999 SCT015 25/17 Q1023;
0120833440999992012033014004-14950-040883FM-15+0914SBQV V0201001N005712200019N0112651N1+02201+02001999999ADDGA1041+004801999GF104991999999999999999999MA1102201999999REMMET051METAR SBQV 301400Z 10011KT 9999 SCT016 22/20 Q1022;
0128833440999992012033015004-14950-040883FM-15+0914SBQV V0201201N005112200019N0112651N1+02901+01601999999ADDGA1041+006001999GF104991999999999999999999MA1102101999999REMMET059METAR SBQV 301500Z 12010KT 080V150 9999 SCT020 29/16 Q1021;
0120833440999992012033016004-14950-040883FM-15+0914SBQV V0201101N005112200019N0112651N1+02901+01601999999ADDGA1041+007501999GF104991999999999999999999MA1102001999999REMMET051METAR SBQV 301600Z 11010KT 9999 SCT025 29/16 Q1020;
0120833440999992012033017004-14950-040883FM-15+0914SBQV V0201201N004612200019N0112651N1+03001+01601999999ADDGA1021+009001999GF102991999999999999999999MA1102001999999REMMET051METAR SBQV 301700Z 12009KT 9999 FEW030 30/16 Q1020;
0120833440999992012033018004-14950-040883FM-15+0914SBQV V0201001N004612200019N0112651N1+02901+01601999999ADDGA1021+009001999GF102991999999999999999999MA1101901999999REMMET051METAR SBQV 301800Z 10009KT 9999 FEW030 29/16 Q1019;
0120833440999992012033019004-14950-040883FM-15+0914SBQV V0201001N005112200019N0112651N1+02901+01601999999ADDGA1021+009001999GF102991999999999999999999MA1101901999999REMMET051METAR SBQV 301900Z 10010KT 9999 FEW030 29/16 Q1019;
0120833440999992012033020004-14950-040883FM-15+0914SBQV V0201101N005112200019N0112651N1+02701+01601999999ADDGA1021+007501999GF102991999999999999999999MA1101901999999REMMET051METAR SBQV 302000Z 11010KT 9999 FEW025 27/16 Q1019;
0120833440999992012033021004-14950-040883FM-15+0914SBQV V0201101N005112200019N0112651N1+02501+01701999999ADDGA1021+006001999GF102991999999999999999999MA1102001999999REMMET051METAR SBQV 302100Z 11010KT 9999 FEW020 25/17 Q1020;
0072833440999992012033022004-14950-040883FM-15+0914SBQV V0201101N006219999999Y0099001N1+02301+02001999999ADDMA1102001999999REMMET045METAR SBQV 302200Z 11012KT CAVOK 23/20 Q1020;
0143833440999992012033111004-14950-040883FM-15+0914SBQV V0201001N003612200019N0112651N1+02401+01901999999ADDGA1021+004801999GA2041+021001999GF104991999999999999999999MA1102201999999REMMET058METAR SBQV 311100Z 10007KT 9999 FEW016 SCT070 24/19 Q1022;
0120833440999992012033112004-14950-040883FM-15+0914SBQV V0201101N003610060019N0112651N1+02501+01901999999ADDGA1071+006001999GF107991999999999999999999MA1102301999999REMMET051METAR SBQV 311200Z 11007KT 9999 BKN020 25/19 Q1023;
0120833440999992012033113004-14950-040883FM-15+0914SBQV V0201301N003110060019N0112651N1+02601+01901999999ADDGA1071+006001999GF107991999999999999999999MA1102301999999REMMET051METAR SBQV 311300Z 13006KT 9999 BKN020 26/19 Q1023;
0120833440999992012033114004-14950-040883FM-15+0914SBQV V0201201N003112200019N0112651N1+02801+01801999999ADDGA1041+007501999GF104991999999999999999999MA1102201999999REMMET051METAR SBQV 311400Z 12006KT 9999 SCT025 28/18 Q1022;
0128833440999992012033115004-14950-040883FM-15+0914SBQV V0201501N004612200019N0112651N1+02701+01901999999ADDGA1041+007501999GF104991999999999999999999MA1102101999999REMMET059METAR SBQV 311500Z 15009KT 120V180 9999 SCT025 27/19 Q1021;
0120833440999992012033116004-14950-040883FM-15+0914SBQV V0201501N003112200019N0112651N1+03001+01801999999ADDGA1041+007501999GF104991999999999999999999MA1102001999999REMMET051METAR SBQV 311600Z 15006KT 9999 SCT025 30/18 Q1020;
0120833440999992012033117004-14950-040883FM-15+0914SBQV V0201101N002612200019N0112651N1+03001+01801999999ADDGA1041+007501999GF104991999999999999999999MA1101901999999REMMET051METAR SBQV 311700Z 11005KT 9999 SCT025 30/18 Q1019;
0120833440999992012033118004-14950-040883FM-15+0914SBQV V0201501N005112200019N0112651N1+03001+01801999999ADDGA1041+007501999GF104991999999999999999999MA1101801999999REMMET051METAR SBQV 311800Z 15010KT 9999 SCT025 30/18 Q1018;
0139833440999992012033119004-14950-040883FM-15+0914SBQV V0201301N005712200019N0112651N1+02901+01901999999ADDGA1041+006001999GA2021+007501021MA1101801999999REMMET061METAR SBQV 311900Z 13011KT 9999 SCT020 FEW025TCU 29/19 Q1018;EQDQ01+000022SCOTCV
0120833440999992012033120004-14950-040883FM-15+0914SBQV V0201201N005712200019N0112651N1+02601+01901999999ADDGA1041+005401999GF104991999999999999999999MA1101801999999REMMET051METAR SBQV 312000Z 12011KT 9999 SCT018 26/19 Q1018;
0146833440999992012033121004-14950-040883FM-15+0914SBQV V0201201N006212200019N0112651N1+02501+02001999999ADDGA1021+004801999GA2021+005401021GF102991999999999999999999MA1101901999999REMMET061METAR SBQV 312100Z 12012KT 9999 FEW016 FEW018TCU 25/20 Q1019;
0120833440999992012033122004-14950-040883FM-15+0914SBQV V0201001N005112200019N0112651N1+02301+02101999999ADDGA1041+003001999GF104991999999999999999999MA1102001999999REMMET051METAR SBQV 312200Z 10010KT 9999 SCT010 23/21 Q1020;
0120833440999992012040101004-14950-040883FM-15+0914SBQV V0201001N005110033019N0112651N1+02201+02001999999ADDGA1071+003301999GF107991999999999999999999MA1102101999999REMMET051METAR SBQV 010100Z 10010KT 9999 BKN011 22/20 Q1021;
0120833440999992012040102004-14950-040883FM-15+0914SBQV V0200901N005110039019N0112651N1+02101+01901999999ADDGA1071+003901999GF107991999999999999999999MA1102101999999REMMET051METAR SBQV 010200Z 09010KT 9999 BKN013 21/19 Q1021;
0120833440999992012040103004-14950-040883FM-15+0914SBQV V0200801N004612200019N0112651N1+02001+01901999999ADDGA1041+003901999GF104991999999999999999999MA1102101999999REMMET051METAR SBQV 010300Z 08009KT 9999 SCT013 20/19 Q1021;
0120833440999992012040104004-14950-040883FM-15+0914SBQV V0200801N004112200019N0112651N1+01901+01801999999ADDGA1021+003901999GF102991999999999999999999MA1102001999999REMMET051METAR SBQV 010400Z 08008KT 9999 FEW013 19/18 Q1020;
0120833440999992012040111004-14950-040883FM-15+0914SBQV V0200601N004610030019N0112651N1+02101+01901999999ADDGA1081+003001999GF108991999999999999999999MA1102101999999REMMET051METAR SBQV 011100Z 06009KT 9999 OVC010 21/19 Q1021;
0120833440999992012040112004-14950-040883FM-15+0914SBQV V0200901N003110045019N0112651N1+02301+01801999999ADDGA1081+004501999GF108991999999999999999999MA1102201999999REMMET051METAR SBQV 011200Z 09006KT 9999 OVC015 23/18 Q1022;
0120833440999992012040113004-14950-040883FM-15+0914SBQV V0200701N003610045019N0112651N1+02401+01801999999ADDGA1071+004501999GF107991999999999999999999MA1102101999999REMMET051METAR SBQV 011300Z 07007KT 9999 BKN015 24/18 Q1021;
0120833440999992012040114004-14950-040883FM-15+0914SBQV V0200801N004110048019N0112651N1+02701+01801999999ADDGA1071+004801999GF107991999999999999999999MA1102101999999REMMET051METAR SBQV 011400Z 08008KT 9999 BKN016 27/18 Q1021;
0120833440999992012040115004-14950-040883FM-15+0914SBQV V0201001N003110054019N0112651N1+02601+01801999999ADDGA1071+005401999GF107991999999999999999999MA1102001999999REMMET051METAR SBQV 011500Z 10006KT 9999 BKN018 26/18 Q1020;
0120833440999992012040116004-14950-040883FM-15+0914SBQV V0200901N002610060019N0112651N1+02801+01701999999ADDGA1071+006001999GF107991999999999999999999MA1101801999999REMMET051METAR SBQV 011600Z 09005KT 9999 BKN020 28/17 Q1018;
0120833440999992012040117004-14950-040883FM-15+0914SBQV V0200901N003612200019N0112651N1+02901+01701999999ADDGA1041+007501999GF104991999999999999999999MA1101801999999REMMET051METAR SBQV 011700Z 09007KT 9999 SCT025 29/17 Q1018;
0120833440999992012040118004-14950-040883FM-15+0914SBQV V0201201N003612200019N0112651N1+02801+01601999999ADDGA1041+009001999GF104991999999999999999999MA1101691999999REMMET051METAR SBQV 011800Z 12007KT 9999 SCT030 28/16 Q1017;
0120833440999992012040119004-14950-040883FM-15+0914SBQV V0201401N005112200019N0112651N1+02801+01001999999ADDGA1041+009001999GF104991999999999999999999MA1101691999999REMMET051METAR SBQV 011900Z 14010KT 9999 SCT030 28/10 Q1017;
0120833440999992012040120004-14950-040883FM-15+0914SBQV V0201401N006212200019N0112651N1+02701+01801999999ADDGA1021+009001999GF102991999999999999999999MA1101691999999REMMET051METAR SBQV 012000Z 14012KT 9999 FEW030 27/18 Q1017;
0120833440999992012040121004-14950-040883FM-15+0914SBQV V0201101N004612200019N0112651N1+02501+01801999999ADDGA1021+007501999GF102991999999999999999999MA1101691999999REMMET051METAR SBQV 012100Z 11009KT 9999 FEW025 25/18 Q1017;
0072833440999992012040122004-14950-040883FM-15+0914SBQV V0201101N004619999999Y0099001N1+02301+01801999999ADDMA1101801999999REMMET045METAR SBQV 012200Z 11009KT CAVOK 23/18 Q1018;
0120833440999992012040201004-14950-040883FM-15+0914SBQV V0200901N004112200019N0112651N1+02101+02001999999ADDGA1021+003901999GF102991999999999999999999MA1102001999999REMMET051METAR SBQV 020100Z 09008KT 9999 FEW013 21/20 Q1020;
0120833440999992012040202004-14950-040883FM-15+0914SBQV V0201001N004612200019N0112651N1+02001+01901999999ADDGA1021+003301999GF102991999999999999999999MA1102001999999REMMET051METAR SBQV 020200Z 10009KT 9999 FEW011 20/19 Q1020;
0120833440999992012040211004-14950-040883FM-15+0914SBQV V0200801N005112200019N0112651N1+02301+01701999999ADDGA1041+004501999GF104991999999999999999999MA1102101999999REMMET051METAR SBQV 021100Z 08010KT 9999 SCT015 23/17 Q1021;
0120833440999992012040212004-14950-040883FM-15+0914SBQV V0200801N004610060019N0112651N1+02501+01701999999ADDGA1071+006001999GF107991999999999999999999MA1102201999999REMMET051METAR SBQV 021200Z 08009KT 9999 BKN020 25/17 Q1022;
0120833440999992012040213004-14950-040883FM-15+0914SBQV V0201001N004610075019N0112651N1+02701+01701999999ADDGA1071+007501999GF107991999999999999999999MA1102101999999REMMET051METAR SBQV 021300Z 10009KT 9999 BKN025 27/17 Q1021;
0120833440999992012040214004-14950-040883FM-15+0914SBQV V0201001N003610075019N0112651N1+02701+01701999999ADDGA1071+007501999GF107991999999999999999999MA1102101999999REMMET051METAR SBQV 021400Z 10007KT 9999 BKN025 27/17 Q1021;
0120833440999992012040215004-14950-040883FM-15+0914SBQV V0201101N004610075019N0112651N1+02801+01701999999ADDGA1071+007501999GF107991999999999999999999MA1102001999999REMMET051METAR SBQV 021500Z 11009KT 9999 BKN025 28/17 Q1020;
0120833440999992012040216004-14950-040883FM-15+0914SBQV V0201101N005112200019N0112651N1+02901+01701999999ADDGA1041+009001999GF104991999999999999999999MA1101901999999REMMET051METAR SBQV 021600Z 11010KT 9999 SCT030 29/17 Q1019;
0120833440999992012040217004-14950-040883FM-15+0914SBQV V0201201N004612200019N0112651N1+02901+01601999999ADDGA1041+009001999GF104991999999999999999999MA1101801999999REMMET051METAR SBQV 021700Z 12009KT 9999 SCT030 29/16 Q1018;
0120833440999992012040218004-14950-040883FM-15+0914SBQV V0201101N004112200019N0112651N1+02901+01601999999ADDGA1021+009001999GF102991999999999999999999MA1101691999999REMMET051METAR SBQV 021800Z 11008KT 9999 FEW030 29/16 Q1017;
0120833440999992012040219004-14950-040883FM-15+0914SBQV V0201201N004612200019N0112651N1+02901+01601999999ADDGA1041+009001999GF104991999999999999999999MA1101691999999REMMET051METAR SBQV 021900Z 12009KT 9999 SCT030 29/16 Q1017;
0120833440999992012040220004-14950-040883FM-15+0914SBQV V0201301N004612200019N0112651N1+02701+01601999999ADDGA1021+007501999GF102991999999999999999999MA1101691999999REMMET051METAR SBQV 022000Z 13009KT 9999 FEW025 27/16 Q1017;
0120833440999992012040221004-14950-040883FM-15+0914SBQV V0201301N003612200019N0112651N1+02501+01701999999ADDGA1021+006001999GF102991999999999999999999MA1101801999999REMMET051METAR SBQV 022100Z 13007KT 9999 FEW020 25/17 Q1018;
0120833440999992012040222004-14950-040883FM-15+0914SBQV V0201201N004112200019N0112651N1+02301+01801999999ADDGA1021+004501999GF102991999999999999999999MA1101801999999REMMET051METAR SBQV 022200Z 12008KT 9999 FEW015 23/18 Q1018;
0120833440999992012040311004-14950-040883FM-15+0914SBQV V0201001N005712200019N0112651N1+02201+01801999999ADDGA1041+003301999GF104991999999999999999999MA1102101999999REMMET051METAR SBQV 031100Z 10011KT 9999 SCT011 22/18 Q1021;
0120833440999992012040312004-14950-040883FM-15+0914SBQV V0201001N004610045019N0112651N1+02201+01801999999ADDGA1071+004501999GF107991999999999999999999MA1102101999999REMMET051METAR SBQV 031200Z 10009KT 9999 BKN015 22/18 Q1021;
0120833440999992012040313004-14950-040883FM-15+0914SBQV V0201001N004110045019N0112651N1+02301+01801999999ADDGA1071+004501999GF107991999999999999999999MA1102101999999REMMET051METAR SBQV 031300Z 10008KT 9999 BKN015 23/18 Q1021;
0120833440999992012040314004-14950-040883FM-15+0914SBQV V0200801N004610060019N0112651N1+02701+01701999999ADDGA1071+006001999GF107991999999999999999999MA1102101999999REMMET051METAR SBQV 031400Z 08009KT 9999 BKN020 27/17 Q1021;
0120833440999992012040315004-14950-040883FM-15+0914SBQV V0200901N004610075019N0112651N1+02801+01601999999ADDGA1071+007501999GF107991999999999999999999MA1102001999999REMMET051METAR SBQV 031500Z 09009KT 9999 BKN025 28/16 Q1020;
0120833440999992012040316004-14950-040883FM-15+0914SBQV V0201101N004110075019N0112651N1+02801+01801999999ADDGA1071+007501999GF107991999999999999999999MA1101801999999REMMET051METAR SBQV 031600Z 11008KT 9999 BKN025 28/18 Q1018;
0120833440999992012040317004-14950-040883FM-15+0914SBQV V0201001N005710075019N0112651N1+02701+01801999999ADDGA1071+007501999GF107991999999999999999999MA1101801999999REMMET051METAR SBQV 031700Z 10011KT 9999 BKN025 27/18 Q1018;
0120833440999992012040318004-14950-040883FM-15+0914SBQV V0201101N004610075019N0112651N1+02701+01801999999ADDGA1071+007501999GF107991999999999999999999MA1101691999999REMMET051METAR SBQV 031800Z 11009KT 9999 BKN025 27/18 Q1017;
0120833440999992012040319004-14950-040883FM-15+0914SBQV V0201301N006710060019N0112651N1+02401+01901999999ADDGA1071+006001999GF107991999999999999999999MA1101801999999REMMET051METAR SBQV 031900Z 13013KT 9999 BKN020 24/19 Q1018;
0143833440999992012040320004-14950-040883FM-15+0914SBQV V0201301N004612200019N0112651N1+02401+01901999999ADDGA1041+004501999GA2041+005401999GF104991999999999999999999MA1101801999999REMMET058METAR SBQV 032000Z 13009KT 9999 SCT015 SCT018 24/19 Q1018;
0143833440999992012040321004-14950-040883FM-15+0914SBQV V0200901N004112200019N0112651N1+02201+01901999999ADDGA1041+003601999GA2041+021001999GF104991999999999999999999MA1101801999999REMMET058METAR SBQV 032100Z 09008KT 9999 SCT012 SCT070 22/19 Q1018;
0120833440999992012040322004-14950-040883FM-15+0914SBQV V0200901N004612200019N0112651N1+02201+01901999999ADDGA1041+003001999GF104991999999999999999999MA1101801999999REMMET051METAR SBQV 032200Z 09009KT 9999 SCT010 22/19 Q1018;
0120833440999992012040411004-14950-040883FM-15+0914SBQV V0200901N004112200019N0112651N1+02001+01801999999ADDGA1041+002701999GF104991999999999999999999MA1102101999999REMMET051METAR SBQV 041100Z 09008KT 9999 SCT009 20/18 Q1021;
0120833440999992012040412004-14950-040883FM-15+0914SBQV V0200801N004112200019N0112651N1+02401+01801999999ADDGA1021+004501999GF102991999999999999999999MA1102101999999REMMET051METAR SBQV 041200Z 08008KT 9999 FEW015 24/18 Q1021;
0120833440999992012040413004-14950-040883FM-15+0914SBQV V0200701N004112200019N0112651N1+02601+01701999999ADDGA1041+006001999GF104991999999999999999999MA1102101999999REMMET051METAR SBQV 041300Z 07008KT 9999 SCT020 26/17 Q1021;
0120833440999992012040414004-14950-040883FM-15+0914SBQV V0200901N003610075019N0112651N1+02801+01701999999ADDGA1071+007501999GF107991999999999999999999MA1102001999999REMMET051METAR SBQV 041400Z 09007KT 9999 BKN025 28/17 Q1020;
0120833440999992012040415004-14950-040883FM-15+0914SBQV V0201001N004110090019N0112651N1+02801+01701999999ADDGA1071+009001999GF107991999999999999999999MA1101901999999REMMET051METAR SBQV 041500Z 10008KT 9999 BKN030 28/17 Q1019;
0120833440999992012040416004-14950-040883FM-15+0914SBQV V0201201N004110090019N0112651N1+02901+01701999999ADDGA1071+009001999GF107991999999999999999999MA1101801999999REMMET051METAR SBQV 041600Z 12008KT 9999 BKN030 29/17 Q1018;
0120833440999992012040417004-14950-040883FM-15+0914SBQV V0201001N004612200019N0112651N1+03001+01701999999ADDGA1041+010501999GF104991999999999999999999MA1101691999999REMMET051METAR SBQV 041700Z 10009KT 9999 SCT035 30/17 Q1017;
0120833440999992012040418004-14950-040883FM-15+0914SBQV V0201101N005712200019N0112651N1+03001+01701999999ADDGA1021+010501999GF102991999999999999999999MA1101691999999REMMET051METAR SBQV 041800Z 11011KT 9999 FEW035 30/17 Q1017;
0120833440999992012040419004-14950-040883FM-15+0914SBQV V0201101N004612200019N0112651N1+02801+01601999999ADDGA1021+010501999GF102991999999999999999999MA1101691999999REMMET051METAR SBQV 041900Z 11009KT 9999 FEW035 28/16 Q1017;
0120833440999992012040420004-14950-040883FM-15+0914SBQV V0201101N005112200019N0112651N1+02701+01401999999ADDGA1021+010501999GF102991999999999999999999MA1101691999999REMMET051METAR SBQV 042000Z 11010KT 9999 FEW035 27/14 Q1017;
0120833440999992012040421004-14950-040883FM-15+0914SBQV V0201101N004112200019N0112651N1+02501+01601999999ADDGA1021+005401999GF102991999999999999999999MA1101801999999REMMET051METAR SBQV 042100Z 11008KT 9999 FEW018 25/16 Q1018;
0072833440999992012040422004-14950-040883FM-15+0914SBQV V0201101N003119999999Y0099001N1+02401+01701999999ADDMA1101801999999REMMET045METAR SBQV 042200Z 11006KT CAVOK 24/17 Q1018;
0120833440999992012040502004-14950-040883FM-15+0914SBQV V0200801N005712200019N0112651N1+02101+01901999999ADDGA1021+001801999GF102991999999999999999999MA1102001999999REMMET051METAR SBQV 050200Z 08011KT 9999 FEW006 21/19 Q1020;
0120833440999992012040511004-14950-040883FM-15+0914SBQV V0200601N003612200019N0112651N1+02201+01901999999ADDGA1021+004801999GF102991999999999999999999MA1102001999999REMMET051METAR SBQV 051100Z 06007KT 9999 FEW016 22/19 Q1020;
0120833440999992012040512004-14950-040883FM-15+0914SBQV V0200701N003612200019N0112651N1+02501+01801999999ADDGA1021+005401999GF102991999999999999999999MA1102001999999REMMET051METAR SBQV 051200Z 07007KT 9999 FEW018 25/18 Q1020;
0120833440999992012040513004-14950-040883FM-15+0914SBQV V0200801N002612200019N0112651N1+02701+01601999999ADDGA1021+007501999GF102991999999999999999999MA1102001999999REMMET051METAR SBQV 051300Z 08005KT 9999 FEW025 27/16 Q1020;
0120833440999992012040514004-14950-040883FM-15+0914SBQV V0200301N002112200019N0112651N1+02801+01601999999ADDGA1021+007501999GF102991999999999999999999MA1101901999999REMMET051METAR SBQV 051400Z 03004KT 9999 FEW025 28/16 Q1019;
0120833440999992012040515004-14950-040883FM-15+0914SBQV V0200601N002612200019N0112651N1+03101+01501999999ADDGA1041+009001999GF104991999999999999999999MA1101691999999REMMET051METAR SBQV 051500Z 06005KT 9999 SCT030 31/15 Q1017;
0120833440999992012040516004-14950-040883FM-15+0914SBQV V0200201N002612200019N0112651N1+03101+01401999999ADDGA1041+010501999GF104991999999999999999999MA1101591999999REMMET051METAR SBQV 051600Z 02005KT 9999 SCT035 31/14 Q1016;
0120833440999992012040517004-14950-040883FM-15+0914SBQV V0201201N003112200019N0112651N1+03101+01301999999ADDGA1041+006001999GF104991999999999999999999MA1101491999999REMMET051METAR SBQV 051700Z 12006KT 9999 SCT020 31/13 Q1015;
0120833440999992012040518004-14950-040883FM-15+0914SBQV V0201301N002112200019N0112651N1+03201+01301999999ADDGA1041+012001999GF104991999999999999999999MA1101491999999REMMET051METAR SBQV 051800Z 13004KT 9999 SCT040 32/13 Q1015;
0120833440999992012040519004-14950-040883FM-15+0914SBQV V0201101N004112200019N0112651N1+03101+01501999999ADDGA1041+012001999GF104991999999999999999999MA1101391999999REMMET051METAR SBQV 051900Z 11008KT 9999 SCT040 31/15 Q1014;
0120833440999992012040520004-14950-040883FM-15+0914SBQV V0201401N006212200019N0112651N1+02901+01601999999ADDGA1021+010501999GF102991999999999999999999MA1101491999999REMMET051METAR SBQV 052000Z 14012KT 9999 FEW035 29/16 Q1015;
0120833440999992012040521004-14950-040883FM-15+0914SBQV V0201201N005112200019N0112651N1+02601+01601999999ADDGA1021+007501999GF102991999999999999999999MA1101591999999REMMET051METAR SBQV 052100Z 12010KT 9999 FEW025 26/16 Q1016;
0120833440999992012040522004-14950-040883FM-15+0914SBQV V0200901N003112200019N0112651N1+02501+01601999999ADDGA1021+006001999GF102991999999999999999999MA1101691999999REMMET051METAR SBQV 052200Z 09006KT 9999 FEW020 25/16 Q1017;
0072833440999992012040523004-14950-040883FM-15+0914SBQV V0201001N003619999999Y0099001N1+02401+01701999999ADDMA1101691999999REMMET045METAR SBQV 052300Z 10007KT CAVOK 24/17 Q1017;
0120833440999992012040611004-14950-040883FM-15+0914SBQV V0203601N002112200019N0112651N1+02101+01901999999ADDGA1021+001801999GF102991999999999999999999MA1101901999999REMMET051METAR SBQV 061100Z 36004KT 9999 FEW006 21/19 Q1019;
0120833440999992012040612004-14950-040883FM-15+0914SBQV V0200501N001512200019N0112651N1+02401+01901999999ADDGA1021+003901999GF102991999999999999999999MA1102001999999REMMET051METAR SBQV 061200Z 05003KT 9999 FEW013 24/19 Q1020;
0120833440999992012040613004-14950-040883FM-15+0914SBQV V0203601N001512200019N0112651N1+02701+01901999999ADDGA1041+004501999GF104991999999999999999999MA1101901999999REMMET051METAR SBQV 061300Z 36003KT 9999 SCT015 27/19 Q1019;
0120833440999992012040614004-14950-040883FM-15+0914SBQV V0200801N002112200019N0112651N1+02901+01801999999ADDGA1041+006001999GF104991999999999999999999MA1101801999999REMMET051METAR SBQV 061400Z 08004KT 9999 SCT020 29/18 Q1018;
0120833440999992012040615004-14950-040883FM-15+0914SBQV V0201101N002612200019N0112651N1+03101+01701999999ADDGA1041+009001999GF104991999999999999999999MA1101691999999REMMET051METAR SBQV 061500Z 11005KT 9999 SCT030 31/17 Q1017;
0120833440999992012040616004-14950-040883FM-15+0914SBQV V0201201N002612200019N0112651N1+03201+01601999999ADDGA1041+009001999GF104991999999999999999999MA1101591999999REMMET051METAR SBQV 061600Z 12005KT 9999 SCT030 32/16 Q1016;
0120833440999992012040617004-14950-040883FM-15+0914SBQV V0201101N003612200019N0112651N1+03101+01701999999ADDGA1041+009001999GF104991999999999999999999MA1101491999999REMMET051METAR SBQV 061700Z 11007KT 9999 SCT030 31/17 Q1015;
0120833440999992012040618004-14950-040883FM-15+0914SBQV V0201501N003112200019N0112651N1+03101+01501999999ADDGA1021+010501999GF102991999999999999999999MA1101391999999REMMET051METAR SBQV 061800Z 15006KT 9999 FEW035 31/15 Q1014;
0120833440999992012040619004-14950-040883FM-15+0914SBQV V0201401N004612200019N0112651N1+03101+01501999999ADDGA1021+010501999GF102991999999999999999999MA1101391999999REMMET051METAR SBQV 061900Z 14009KT 9999 FEW035 31/15 Q1014;
0120833440999992012040620004-14950-040883FM-15+0914SBQV V0201201N005112200019N0112651N1+02901+01601999999ADDGA1021+010501999GF102991999999999999999999MA1101391999999REMMET051METAR SBQV 062000Z 12010KT 9999 FEW035 29/16 Q1014;
0146833440999992012040621004-14950-040883FM-15+0914SBQV V0201201N004612200019N0112651N1+02601+01701999999ADDGA1021+005401999GA2021+006001021GF102991999999999999999999MA1101491999999REMMET061METAR SBQV 062100Z 12009KT 9999 FEW018 FEW020TCU 26/17 Q1015;
0120833440999992012040622004-14950-040883FM-15+0914SBQV V0201001N003112200019N0112651N1+02501+01701999999ADDGA1021+005401999GF102991999999999999999999MA1101491999999REMMET051METAR SBQV 062200Z 10006KT 9999 FEW018 25/17 Q1015;
0120833440999992012040711004-14950-040883FM-15+0914SBQV V0200801N003112200019N0112651N1+02201+01801999999ADDGA1021+005401999GF102991999999999999999999MA1101801999999REMMET051METAR SBQV 071100Z 08006KT 9999 FEW018 22/18 Q1018;
0120833440999992012040712004-14950-040883FM-15+0914SBQV V0200401N003112200019N0112651N1+02501+01801999999ADDGA1021+009001999GF102991999999999999999999MA1101901999999REMMET051METAR SBQV 071200Z 04006KT 9999 FEW030 25/18 Q1019;
0120833440999992012040713004-14950-040883FM-15+0914SBQV V0200601N003612200019N0112651N1+02801+01601999999ADDGA1021+010501999GF102991999999999999999999MA1101901999999REMMET051METAR SBQV 071300Z 06007KT 9999 FEW035 28/16 Q1019;
0128833440999992012040714004-14950-040883FM-15+0914SBQV V0200801N004112200019N0112651N1+03001+01501999999ADDGA1021+010501999GF102991999999999999999999MA1101801999999REMMET059METAR SBQV 071400Z 08008KT 050V110 9999 FEW035 30/15 Q1018;
0120833440999992012040715004-14950-040883FM-15+0914SBQV V0201201N003612200019N0112651N1+03101+01301999999ADDGA1021+012001999GF102991999999999999999999MA1101691999999REMMET051METAR SBQV 071500Z 12007KT 9999 FEW040 31/13 Q1017;
0143833440999992012040716004-14950-040883FM-15+0914SBQV V0201201N004612200019N0112651N1+03201+01401999999ADDGA1021+012001999GA2041+030001999GF104991999999999999999999MA1101591999999REMMET058METAR SBQV 071600Z 12009KT 9999 FEW040 SCT100 32/14 Q1016;
0143833440999992012040717004-14950-040883FM-15+0914SBQV V0201401N005712200019N0112651N1+03201+01601999999ADDGA1041+012001999GA2041+030001999GF104991999999999999999999MA1101491999999REMMET058METAR SBQV 071700Z 14011KT 9999 SCT040 SCT100 32/16 Q1015;
0143833440999992012040718004-14950-040883FM-15+0914SBQV V0201001N005112200019N0112651N1+03101+01601999999ADDGA1021+010501999GA2041+030001999GF104991999999999999999999MA1101391999999REMMET058METAR SBQV 071800Z 10010KT 9999 FEW035 SCT100 31/16 Q1014;
0120833440999992012040719004-14950-040883FM-15+0914SBQV V0201101N005112200019N0112651N1+03001+01501999999ADDGA1021+010501999GF102991999999999999999999MA1101391999999REMMET051METAR SBQV 071900Z 11010KT 9999 FEW035 30/15 Q1014;
0120833440999992012040720004-14950-040883FM-15+0914SBQV V0201101N005112200019N0112651N1+02801+01601999999ADDGA1021+010501999GF102991999999999999999999MA1101391999999REMMET051METAR SBQV 072000Z 11010KT 9999 FEW035 28/16 Q1014;
0120833440999992012040721004-14950-040883FM-15+0914SBQV V0201001N005112200019N0112651N1+02601+01601999999ADDGA1021+009001999GF102991999999999999999999MA1101491999999REMMET051METAR SBQV 072100Z 10010KT 9999 FEW030 26/16 Q1015;
0072833440999992012040722004-14950-040883FM-15+0914SBQV V0201001N004119999999Y0099001N1+02501+01701999999ADDMA1101591999999REMMET045METAR SBQV 072200Z 10008KT CAVOK 25/17 Q1016;
0120833440999992012040811004-14950-040883FM-15+0914SBQV V0200901N003612200019N0112651N1+02201+01801999999ADDGA1021+004501999GF102991999999999999999999MA1101901999999REMMET051METAR SBQV 081100Z 09007KT 9999 FEW015 22/18 Q1019;
0120833440999992012040812004-14950-040883FM-15+0914SBQV V0200901N003612200019N0112651N1+02401+01801999999ADDGA1041+004801999GF104991999999999999999999MA1102001999999REMMET051METAR SBQV 081200Z 09007KT 9999 SCT016 24/18 Q1020;
0120833440999992012040813004-14950-040883FM-15+0914SBQV V0200601N003110054019N0112651N1+02601+01701999999ADDGA1071+005401999GF107991999999999999999999MA1102001999999REMMET051METAR SBQV 081300Z 06006KT 9999 BKN018 26/17 Q1020;
0120833440999992012040814004-14950-040883FM-15+0914SBQV V0200701N004112200019N0112651N1+02701+01601999999ADDGA1041+006001999GF104991999999999999999999MA1101901999999REMMET051METAR SBQV 081400Z 07008KT 9999 SCT020 27/16 Q1019;
0120833440999992012040815004-14950-040883FM-15+0914SBQV V0200901N004112200019N0112651N1+02801+01601999999ADDGA1041+007501999GF104991999999999999999999MA1101801999999REMMET051METAR SBQV 081500Z 09008KT 9999 SCT025 28/16 Q1018;
0120833440999992012040816004-14950-040883FM-15+0914SBQV V0200801N003112200019N0112651N1+02801+01501999999ADDGA1041+009001999GF104991999999999999999999MA1101691999999REMMET051METAR SBQV 081600Z 08006KT 9999 SCT030 28/15 Q1017;
0120833440999992012040817004-14950-040883FM-15+0914SBQV V0201101N004112200019N0112651N1+02901+01501999999ADDGA1021+010501999GF102991999999999999999999MA1101591999999REMMET051METAR SBQV 081700Z 11008KT 9999 FEW035 29/15 Q1016;
0120833440999992012040818004-14950-040883FM-15+0914SBQV V0201201N003112200019N0112651N1+02901+01501999999ADDGA1021+010501999GF102991999999999999999999MA1101591999999REMMET051METAR SBQV 081800Z 12006KT 9999 FEW035 29/15 Q1016;
0120833440999992012040819004-14950-040883FM-15+0914SBQV V0201201N005112200019N0112651N1+02901+01601999999ADDGA1021+009001999GF102991999999999999999999MA1101591999999REMMET051METAR SBQV 081900Z 12010KT 9999 FEW030 29/16 Q1016;
0120833440999992012040820004-14950-040883FM-15+0914SBQV V0201101N005112200019N0112651N1+02601+01601999999ADDGA1021+006001999GF102991999999999999999999MA1101591999999REMMET051METAR SBQV 082000Z 11010KT 9999 FEW020 26/16 Q1016;
0120833440999992012040821004-14950-040883FM-15+0914SBQV V0201101N005112200019N0112651N1+02501+01801999999ADDGA1021+006001999GF102991999999999999999999MA1101591999999REMMET051METAR SBQV 082100Z 11010KT 9999 FEW020 25/18 Q1016;
0072833440999992012040822004-14950-040883FM-15+0914SBQV V0201101N004619999999Y0099001N1+02301+01801999999ADDMA1101591999999REMMET045METAR SBQV 082200Z 11009KT CAVOK 23/18 Q1016;
0120833440999992012040911004-14950-040883FM-15+0914SBQV V0200701N005712200019N0112651N1+02201+01801999999ADDGA1041+003001999GF104991999999999999999999MA1101901999999REMMET051METAR SBQV 091100Z 07011KT 9999 SCT010 22/18 Q1019;
0120833440999992012040912004-14950-040883FM-15+0914SBQV V0200801N003612200019N0112651N1+02401+01801999999ADDGA1041+003901999GF104991999999999999999999MA1102001999999REMMET051METAR SBQV 091200Z 08007KT 9999 SCT013 24/18 Q1020;
0120833440999992012040913004-14950-040883FM-15+0914SBQV V0200901N004110045019N0112651N1+02501+01701999999ADDGA1071+004501999GF107991999999999999999999MA1102001999999REMMET051METAR SBQV 091300Z 09008KT 9999 BKN015 25/17 Q1020;
0120833440999992012040914004-14950-040883FM-15+0914SBQV V0200901N004610045019N0112651N1+02701+01801999999ADDGA1071+004501999GF107991999999999999999999MA1101901999999REMMET051METAR SBQV 091400Z 09009KT 9999 BKN015 27/18 Q1019;
0120833440999992012040915004-14950-040883FM-15+0914SBQV V0201301N005712200019N0112651N1+02601+01901999999ADDGA1041+005401999GF104991999999999999999999MA1101801999999REMMET051METAR SBQV 091500Z 13011KT 9999 SCT018 26/19 Q1018;
0120833440999992012040916004-14950-040883FM-15+0914SBQV V0201201N004610060019N0112651N1+02801+01801999999ADDGA1071+006001999GF107991999999999999999999MA1101691999999REMMET051METAR SBQV 091600Z 12009KT 9999 BKN020 28/18 Q1017;
0120833440999992012040917004-14950-040883FM-15+0914SBQV V0201101N003610075019N0112651N1+03001+01601999999ADDGA1071+007501999GF107991999999999999999999MA1101591999999REMMET051METAR SBQV 091700Z 11007KT 9999 BKN025 30/16 Q1016;
0120833440999992012040918004-14950-040883FM-15+0914SBQV V0201201N005110075019N0112651N1+02801+01701999999ADDGA1071+007501999GF107991999999999999999999MA1101591999999REMMET051METAR SBQV 091800Z 12010KT 9999 BKN025 28/17 Q1016;
0120833440999992012040919004-14950-040883FM-15+0914SBQV V0201101N005112200019N0112651N1+02801+01701999999ADDGA1041+007501999GF104991999999999999999999MA1101591999999REMMET051METAR SBQV 091900Z 11010KT 9999 SCT025 28/17 Q1016;
0120833440999992012040920004-14950-040883FM-15+0914SBQV V0201001N005712200019N0112651N1+02601+01801999999ADDGA1021+007501999GF102991999999999999999999MA1101591999999REMMET051METAR SBQV 092000Z 10011KT 9999 FEW025 26/18 Q1016;
0120833440999992012040921004-14950-040883FM-15+0914SBQV V0201001N004612200019N0112651N1+02401+01701999999ADDGA1021+006001999GF102991999999999999999999MA1101591999999REMMET051METAR SBQV 092100Z 10009KT 9999 FEW020 24/17 Q1016;
0072833440999992012040922004-14950-040883FM-15+0914SBQV V0201001N003619999999Y0099001N1+02301+01701999999ADDMA1101691999999REMMET045METAR SBQV 092200Z 10007KT CAVOK 23/17 Q1017;
0160833440999992012041011004-14950-040883FM-15+0914SBQV V0201201N005710033019N0112651N1+02101+01901999999ADDGA1041+002101999GA2071+003301999GF107991999999999999999999MA1102101999999MW1511REMMET069METAR SBQV 101100Z 12011KT 9999 2000SE -DZ SCT007 BKN011 21/19 Q1021;
0143833440999992012041012004-14950-040883FM-15+0914SBQV V0201001N004610039019N0112651N1+02301+01901999999ADDGA1021+002401999GA2071+003901999GF107991999999999999999999MA1102201999999REMMET058METAR SBQV 101200Z 10009KT 9999 FEW008 BKN013 23/19 Q1022;
0120833440999992012041013004-14950-040883FM-15+0914SBQV V0201001N005710045019N0112651N1+02301+01901999999ADDGA1071+004501999GF107991999999999999999999MA1102201999999REMMET051METAR SBQV 101300Z 10011KT 9999 BKN015 23/19 Q1022;
0143833440999992012041014004-14950-040883FM-15+0914SBQV V0201101N005110054019N0112651N1+02401+01801999999ADDGA1041+004801999GA2071+005401999GF107991999999999999999999MA1102101999999REMMET058METAR SBQV 101400Z 11010KT 9999 SCT016 BKN018 24/18 Q1021;
0120833440999992012041015004-14950-040883FM-15+0914SBQV V0201301N004110054019N0112651N1+02501+01901999999ADDGA1071+005401999GF107991999999999999999999MA1102101999999REMMET051METAR SBQV 101500Z 13008KT 9999 BKN018 25/19 Q1021;
0120833440999992012041016004-14950-040883FM-15+0914SBQV V0201101N004112200019N0112651N1+02701+01801999999ADDGA1041+006001999GF104991999999999999999999MA1102001999999REMMET051METAR SBQV 101600Z 11008KT 9999 SCT020 27/18 Q1020;
0120833440999992012041017004-14950-040883FM-15+0914SBQV V0201301N005112200019N0112651N1+02701+01701999999ADDGA1041+006001999GF104991999999999999999999MA1101801999999REMMET051METAR SBQV 101700Z 13010KT 9999 SCT020 27/17 Q1018;
0120833440999992012041018004-14950-040883FM-15+0914SBQV V0201201N005112200019N0112651N1+02801+01701999999ADDGA1041+006001999GF104991999999999999999999MA1101801999999REMMET051METAR SBQV 101800Z 12010KT 9999 SCT020 28/17 Q1018;
0120833440999992012041019004-14950-040883FM-15+0914SBQV V0201201N005112200019N0112651N1+02701+01701999999ADDGA1041+006001999GF104991999999999999999999MA1101801999999REMMET051METAR SBQV 101900Z 12010KT 9999 SCT020 27/17 Q1018;
0120833440999992012041020004-14950-040883FM-15+0914SBQV V0201201N005712200019N0112651N1+02601+01701999999ADDGA1021+005401999GF102991999999999999999999MA1101801999999REMMET051METAR SBQV 102000Z 12011KT 9999 FEW018 26/17 Q1018;
0120833440999992012041021004-14950-040883FM-15+0914SBQV V0201001N006212200019N0112651N1+02301+01901999999ADDGA1021+004801999GF102991999999999999999999MA1101801999999REMMET051METAR SBQV 102100Z 10012KT 9999 FEW016 23/19 Q1018;
0120833440999992012041022004-14950-040883FM-15+0914SBQV V0201101N004612200019N0112651N1+02201+01801999999ADDGA1021+004501999GF102991999999999999999999MA1101901999999REMMET051METAR SBQV 102200Z 11009KT 9999 FEW015 22/18 Q1019;
0120833440999992012041111004-14950-040883FM-15+0914SBQV V0201201N003612200019N0112651N1+02101+01801999999ADDGA1041+003301999GF104991999999999999999999MA1102201999999REMMET051METAR SBQV 111100Z 12007KT 9999 SCT011 21/18 Q1022;
0146833440999992012041112004-14950-040883FM-15+0914SBQV V0201201N00411002101CN0050001N1+02001+02001999999ADDGA1071+002101999GA2041+002701999MA1102301999999MW1511REMMET062METAR SBQV 111200Z 12008KT 5000 -DZ BKN007 SCT009 20/20 Q1023;EQDQ01+000042SCOTCV
0120833440999992012041113004-14950-040883FM-15+0914SBQV V0201101N005710045019N0112651N1+02201+01901999999ADDGA1071+004501999GF107991999999999999999999MA1102301999999REMMET051METAR SBQV 111300Z 11011KT 9999 BKN015 22/19 Q1023;
0120833440999992012041114004-14950-040883FM-15+0914SBQV V0201201N005110045019N0112651N1+02501+01801999999ADDGA1071+004501999GF107991999999999999999999MA1102201999999REMMET051METAR SBQV 111400Z 12010KT 9999 BKN015 25/18 Q1022;
0143833440999992012041115004-14950-040883FM-15+0914SBQV V0201001N004610210019N0112651N1+02101+02101999999ADDGA1021+004501999GA2071+021001999GF107991999999999999999999MA1102201999999REMMET058METAR SBQV 111500Z 10009KT 9999 FEW015 BKN070 21/21 Q1022;
0143833440999992012041116004-14950-040883FM-15+0914SBQV V0201101N005112200019N0112651N1+02701+01701999999ADDGA1041+004801999GA2041+021001999GF104991999999999999999999MA1102101999999REMMET058METAR SBQV 111600Z 11010KT 9999 SCT016 SCT070 27/17 Q1021;
0136833440999992012041117004-14950-040883FM-15+0914SBQV V0201401N00151005401CN0112651N1+02701+01801999999ADDGA1071+005401999GA2041+021001999MA1102001999999REMMET058METAR SBQV 111700Z 14003KT 9999 BKN018 SCT070 27/18 Q1020;EQDQ01+000042SCOTCV
0143833440999992012041118004-14950-040883FM-15+0914SBQV V0201301N005712200019N0112651N1+02701+01701999999ADDGA1041+006001999GA2041+024001999GF104991999999999999999999MA1102001999999REMMET058METAR SBQV 111800Z 13011KT 9999 SCT020 SCT080 27/17 Q1020;
0120833440999992012041119004-14950-040883FM-15+0914SBQV V0201001N004112200019N0112651N1+02701+01701999999ADDGA1021+006001999GF102991999999999999999999MA1102001999999REMMET051METAR SBQV 111900Z 10008KT 9999 FEW020 27/17 Q1020;
0120833440999992012041120004-14950-040883FM-15+0914SBQV V0201201N004612200019N0112651N1+02501+01801999999ADDGA1021+006001999GF102991999999999999999999MA1102001999999REMMET051METAR SBQV 112000Z 12009KT 9999 FEW020 25/18 Q1020;
0120833440999992012041121004-14950-040883FM-15+0914SBQV V0201101N003612200019N0112651N1+02301+01801999999ADDGA1021+005401999GF102991999999999999999999MA1102001999999REMMET051METAR SBQV 112100Z 11007KT 9999 FEW018 23/18 Q1020;
0120833440999992012041122004-14950-040883FM-15+0914SBQV V0201001N004612200019N0112651N1+02201+01801999999ADDGA1021+005401999GF102991999999999999999999MA1102001999999REMMET051METAR SBQV 112200Z 10009KT 9999 FEW018 22/18 Q1020;
0120833440999992012041203004-14950-040883FM-15+0914SBQV V0201001N004112200019N0112651N1+01901+01801999999ADDGA1041+002701999GF104991999999999999999999MA1102101999999REMMET051METAR SBQV 120300Z 10008KT 9999 SCT009 19/18 Q1021;
0120833440999992012041204004-14950-040883FM-15+0914SBQV V0201101N004612200019N0112651N1+01801+01801999999ADDGA1021+002701999GF102991999999999999999999MA1102001999999REMMET051METAR SBQV 120400Z 11009KT 9999 FEW009 18/18 Q1020;
0120833440999992012041205004-14950-040883FM-15+0914SBQV V0201101N004112200019N0112651N1+01801+01801999999ADDGA1041+001801999GF104991999999999999999999MA1102001999999REMMET051METAR SBQV 120500Z 11008KT 9999 SCT006 18/18 Q1020;
0120833440999992012041211004-14950-040883FM-15+0914SBQV V0201301N004110045019N0112651N1+02101+01801999999ADDGA1071+004501999GF107991999999999999999999MA1102101999999REMMET051METAR SBQV 121100Z 13008KT 9999 BKN015 21/18 Q1021;
0120833440999992012041212004-14950-040883FM-15+0914SBQV V0201201N005712200019N0112651N1+02301+01601999999ADDGA1041+004801999GF104991999999999999999999MA1102201999999REMMET051METAR SBQV 121200Z 12011KT 9999 SCT016 23/16 Q1022;
0120833440999992012041213004-14950-040883FM-15+0914SBQV V0201201N005110060019N0112651N1+02501+01701999999ADDGA1071+006001999GF107991999999999999999999MA1102201999999REMMET051METAR SBQV 121300Z 12010KT 9999 BKN020 25/17 Q1022;
0143833440999992012041214004-14950-040883FM-15+0914SBQV V0201301N004110018019N0112651N1+02001+02001999999ADDGA1071+001801999GA2071+005401999GF107991999999999999999999MA1102101999999REMMET058METAR SBQV 121400Z 13008KT 9999 BKN006 BKN018 20/20 Q1021;
0143833440999992012041215004-14950-040883FM-15+0914SBQV V0201001N003610054019N0112651N1+02301+01901999999ADDGA1041+002701999GA2071+005401999GF107991999999999999999999MA1102001999999REMMET058METAR SBQV 121500Z 10007KT 9999 SCT009 BKN018 23/19 Q1020;
0143833440999992012041216004-14950-040883FM-15+0914SBQV V0201201N005110054019N0112651N1+01901+01901999999ADDGA1041+001801999GA2071+005401999GF107991999999999999999999MA1102001999999REMMET058METAR SBQV 121600Z 12010KT 9999 SCT006 BKN018 19/19 Q1020;
0143833440999992012041217004-14950-040883FM-15+0914SBQV V0201301N005112200019N0112651N1+02501+01501999999ADDGA1041+004501999GA2041+021001999GF104991999999999999999999MA1101901999999REMMET058METAR SBQV 121700Z 13010KT 9999 SCT015 SCT070 25/15 Q1019;
0120833440999992012041218004-14950-040883FM-15+0914SBQV V0201001N005712200019N0112651N1+02701+01501999999ADDGA1021+005401999GF102991999999999999999999MA1101801999999REMMET051METAR SBQV 121800Z 10011KT 9999 FEW018 27/15 Q1018;
0143833440999992012041219004-14950-040883FM-15+0914SBQV V0201001N004610240019N0112651N1+02601+01401999999ADDGA1021+005401999GA2071+024001999GF107991999999999999999999MA1101801999999REMMET058METAR SBQV 121900Z 10009KT 9999 FEW018 BKN080 26/14 Q1018;
0143833440999992012041220004-14950-040883FM-15+0914SBQV V0201201N004110240019N0112651N1+02501+01501999999ADDGA1021+004801999GA2071+024001999GF107991999999999999999999MA1101801999999REMMET058METAR SBQV 122000Z 12008KT 9999 FEW016 BKN080 25/15 Q1018;
0143833440999992012041221004-14950-040883FM-15+0914SBQV V0201201N003112200019N0112651N1+02201+01501999999ADDGA1021+004501999GA2041+021001999GF104991999999999999999999MA1101801999999REMMET058METAR SBQV 122100Z 12006KT 9999 FEW015 SCT070 22/15 Q1018;
0072833440999992012041222004-14950-040883FM-15+0914SBQV V0201101N003119999999Y0099001N1+02101+01501999999ADDMA1101901999999REMMET045METAR SBQV 122200Z 11006KT CAVOK 21/15 Q1019;
0120833440999992012041311004-14950-040883FM-15+0914SBQV V0201001N003612200019N0112651N1+02101+01701999999ADDGA1041+004501999GF104991999999999999999999MA1102101999999REMMET051METAR SBQV 131100Z 10007KT 9999 SCT015 21/17 Q1021;
0120833440999992012041312004-14950-040883FM-15+0914SBQV V0201001N003112200019N0112651N1+02401+01601999999ADDGA1021+005401999GF102991999999999999999999MA1102101999999REMMET051METAR SBQV 131200Z 10006KT 9999 FEW018 24/16 Q1021;
0120833440999992012041313004-14950-040883FM-15+0914SBQV V0200801N003612200019N0112651N1+02601+01401999999ADDGA1021+006001999GF102991999999999999999999MA1102101999999REMMET051METAR SBQV 131300Z 08007KT 9999 FEW020 26/14 Q1021;
0120833440999992012041314004-14950-040883FM-15+0914SBQV V0201001N003112200019N0112651N1+02701+01301999999ADDGA1021+006001999GF102991999999999999999999MA1102001999999REMMET051METAR SBQV 131400Z 10006KT 9999 FEW020 27/13 Q1020;
0120833440999992012041315004-14950-040883FM-15+0914SBQV V0201101N004110060019N0112651N1+02701+01301999999ADDGA1071+006001999GF107991999999999999999999MA1101901999999REMMET051METAR SBQV 131500Z 11008KT 9999 BKN020 27/13 Q1019;
0120833440999992012041316004-14950-040883FM-15+0914SBQV V0200801N002610060019N0112651N1+02701+01401999999ADDGA1071+006001999GF107991999999999999999999MA1101801999999REMMET051METAR SBQV 131600Z 08005KT 9999 BKN020 27/14 Q1018;
0120833440999992012041317004-14950-040883FM-15+0914SBQV V0201101N004110060019N0112651N1+02701+01401999999ADDGA1071+006001999GF107991999999999999999999MA1101691999999REMMET051METAR SBQV 131700Z 11008KT 9999 BKN020 27/14 Q1017;
0120833440999992012041318004-14950-040883FM-15+0914SBQV V0201001N003610075019N0112651N1+02801+01401999999ADDGA1071+007501999GF107991999999999999999999MA1101691999999REMMET051METAR SBQV 131800Z 10007KT 9999 BKN025 28/14 Q1017;
0120833440999992012041319004-14950-040883FM-15+0914SBQV V0201001N004112200019N0112651N1+02801+01301999999ADDGA1041+007501999GF104991999999999999999999MA1101691999999REMMET051METAR SBQV 131900Z 10008KT 9999 SCT025 28/13 Q1017;
0120833440999992012041320004-14950-040883FM-15+0914SBQV V0200901N004612200019N0112651N1+02601+01301999999ADDGA1021+007501999GF102991999999999999999999MA1101691999999REMMET051METAR SBQV 132000Z 09009KT 9999 FEW025 26/13 Q1017;
0120833440999992012041321004-14950-040883FM-15+0914SBQV V0201101N003112200019N0112651N1+02401+01401999999ADDGA1021+006001999GF102991999999999999999999MA1101691999999REMMET051METAR SBQV 132100Z 11006KT 9999 FEW020 24/14 Q1017;
0120833440999992012041322004-14950-040883FM-15+0914SBQV V0201101N004112200019N0112651N1+02201+01801999999ADDGA1021+006001999GF102991999999999999999999MA1101801999999REMMET051METAR SBQV 132200Z 11008KT 9999 FEW020 22/18 Q1018;
0120833440999992012041323004-14950-040883FM-15+0914SBQV V0201101N004112200019N0112651N1+02201+01801999999ADDGA1021+006001999GF102991999999999999999999MA1101801999999REMMET051METAR SBQV 132300Z 11008KT 9999 FEW020 22/18 Q1018;
0120833440999992012041411004-14950-040883FM-15+0914SBQV V0200801N002112200019N0112651N1+02201+01601999999ADDGA1021+007501999GF102991999999999999999999MA1102001999999REMMET051METAR SBQV 141100Z 08004KT 9999 FEW025 22/16 Q1020;
0072833440999992012041412004-14950-040883FM-15+0914SBQV V0200401N003119999999Y0099001N1+02401+01601999999ADDMA1102001999999REMMET045METAR SBQV 141200Z 04006KT CAVOK 24/16 Q1020;
0120833440999992012041413004-14950-040883FM-15+0914SBQV V0201301N002112200019N0112651N1+02601+01601999999ADDGA1021+007501999GF102991999999999999999999MA1102001999999REMMET051METAR SBQV 141300Z 13004KT 9999 FEW025 26/16 Q1020;
0120833440999992012041414004-14950-040883FM-15+0914SBQV V0200501N002112200019N0112651N1+02801+01501999999ADDGA1021+010501999GF102991999999999999999999MA1101901999999REMMET051METAR SBQV 141400Z 05004KT 9999 FEW035 28/15 Q1019;
0120833440999992012041415004-14950-040883FM-15+0914SBQV V0200101N002112200019N0112651N1+03001+01401999999ADDGA1041+012001999GF104991999999999999999999MA1101801999999REMMET051METAR SBQV 141500Z 01004KT 9999 SCT040 30/14 Q1018;
0120833440999992012041416004-14950-040883FM-15+0914SBQV V0201101N002112200019N0112651N1+02801+01301999999ADDGA1041+012001999GF104991999999999999999999MA1101691999999REMMET051METAR SBQV 141600Z 11004KT 9999 SCT040 28/13 Q1017;
0120833440999992012041417004-14950-040883FM-15+0914SBQV V0201201N003612200019N0112651N1+02901+01601999999ADDGA1041+012001999GF104991999999999999999999MA1101591999999REMMET051METAR SBQV 141700Z 12007KT 9999 SCT040 29/16 Q1016;
0120833440999992012041418004-14950-040883FM-15+0914SBQV V0201101N005110120019N0112651N1+02901+01601999999ADDGA1071+012001999GF107991999999999999999999MA1101591999999REMMET051METAR SBQV 141800Z 11010KT 9999 BKN040 29/16 Q1016;
0120833440999992012041419004-14950-040883FM-15+0914SBQV V0201301N005112200019N0112651N1+02801+01601999999ADDGA1041+012001999GF104991999999999999999999MA1101591999999REMMET051METAR SBQV 141900Z 13010KT 9999 SCT040 28/16 Q1016;
0120833440999992012041420004-14950-040883FM-15+0914SBQV V0201101N004112200019N0112651N1+02701+01601999999ADDGA1021+012001999GF102991999999999999999999MA1101591999999REMMET051METAR SBQV 142000Z 11008KT 9999 FEW040 27/16 Q1016;
0120833440999992012041421004-14950-040883FM-15+0914SBQV V0201101N004112200019N0112651N1+02501+01601999999ADDGA1021+010501999GF102991999999999999999999MA1101591999999REMMET051METAR SBQV 142100Z 11008KT 9999 FEW035 25/16 Q1016;
0120833440999992012041422004-14950-040883FM-15+0914SBQV V0201001N003112200019N0112651N1+02401+01601999999ADDGA1021+006001999GF102991999999999999999999MA1101691999999REMMET051METAR SBQV 142200Z 10006KT 9999 FEW020 24/16 Q1017;
0120833440999992012041511004-14950-040883FM-15+0914SBQV V0200101N004612200019N0112651N1+02201+01801999999ADDGA1021+004501999GF102991999999999999999999MA1101901999999REMMET051METAR SBQV 151100Z 01009KT 9999 FEW015 22/18 Q1019;
0120833440999992012041512004-14950-040883FM-15+0914SBQV V0200201N003612200019N0112651N1+02501+01801999999ADDGA1021+004801999GF102991999999999999999999MA1102001999999REMMET051METAR SBQV 151200Z 02007KT 9999 FEW016 25/18 Q1020;
0120833440999992012041513004-14950-040883FM-15+0914SBQV V0200101N002112200019N0112651N1+02701+01701999999ADDGA1021+006001999GF102991999999999999999999MA1101901999999REMMET051METAR SBQV 151300Z 01004KT 9999 FEW020 27/17 Q1019;
0120833440999992012041514004-14950-040883FM-15+0914SBQV V0200201N002112200019N0112651N1+02901+01601999999ADDGA1021+007501999GF102991999999999999999999MA1101901999999REMMET051METAR SBQV 151400Z 02004KT 9999 FEW025 29/16 Q1019;
0120833440999992012041515004-14950-040883FM-15+0914SBQV V0201001N002112200019N0112651N1+03001+01501999999ADDGA1041+007501999GF104991999999999999999999MA1101801999999REMMET051METAR SBQV 151500Z 10004KT 9999 SCT025 30/15 Q1018;
0120833440999992012041516004-14950-040883FM-15+0914SBQV V0201601N001512200019N0112651N1+03101+01401999999ADDGA1041+009001999GF104991999999999999999999MA1101591999999REMMET051METAR SBQV 151600Z 16003KT 9999 SCT030 31/14 Q1016;
0120833440999992012041517004-14950-040883FM-15+0914SBQV V0202501N001512200019N0112651N1+03101+01201999999ADDGA1041+009001999GF104991999999999999999999MA1101491999999REMMET051METAR SBQV 151700Z 25003KT 9999 SCT030 31/12 Q1015;
0120833440999992012041518004-14950-040883FM-15+0914SBQV V0201401N003612200019N0112651N1+03101+01401999999ADDGA1041+009001999GF104991999999999999999999MA1101491999999REMMET051METAR SBQV 151800Z 14007KT 9999 SCT030 31/14 Q1015;
0120833440999992012041519004-14950-040883FM-15+0914SBQV V0201001N004612200019N0112651N1+02901+01601999999ADDGA1021+009001999GF102991999999999999999999MA1101491999999REMMET051METAR SBQV 151900Z 10009KT 9999 FEW030 29/16 Q1015;
0120833440999992012041520004-14950-040883FM-15+0914SBQV V0200901N003612200019N0112651N1+02801+01601999999ADDGA1021+009001999GF102991999999999999999999MA1101491999999REMMET051METAR SBQV 152000Z 09007KT 9999 FEW030 28/16 Q1015;
0120833440999992012041521004-14950-040883FM-15+0914SBQV V0200901N003112200019N0112651N1+02701+01501999999ADDGA1021+006001999GF102991999999999999999999MA1101591999999REMMET051METAR SBQV 152100Z 09006KT 9999 FEW020 27/15 Q1016;
0072833440999992012041522004-14950-040883FM-15+0914SBQV V0200801N004619999999Y0099001N1+02601+01601999999ADDMA1101591999999REMMET045METAR SBQV 152200Z 08009KT CAVOK 26/16 Q1016;
0120833440999992012041611004-14950-040883FM-15+0914SBQV V0200501N002610015019N0112651N1+02101+02001999999ADDGA1081+001501999GF108991999999999999999999MA1101901999999REMMET051METAR SBQV 161100Z 05005KT 9999 OVC005 21/20 Q1019;
0120833440999992012041613004-14950-040883FM-15+0914SBQV V0203501N002612200019N0112651N1+02701+01901999999ADDGA1041+004501999GF104991999999999999999999MA1101901999999REMMET051METAR SBQV 161300Z 35005KT 9999 SCT015 27/19 Q1019;
0120833440999992012041614004-14950-040883FM-15+0914SBQV V0200201N001512200019N0112651N1+02801+01801999999ADDGA1041+004501999GF104991999999999999999999MA1101901999999REMMET051METAR SBQV 161400Z 02003KT 9999 SCT015 28/18 Q1019;
0120833440999992012041615004-14950-040883FM-15+0914SBQV V0203001N001510054019N0112651N1+03001+01801999999ADDGA1071+005401999GF107991999999999999999999MA1101801999999REMMET051METAR SBQV 161500Z 30003KT 9999 BKN018 30/18 Q1018;
0120833440999992012041616004-14950-040883FM-15+0914SBQV V0201501N001510060019N0112651N1+03201+01601999999ADDGA1071+006001999GF107991999999999999999999MA1101691999999REMMET051METAR SBQV 161600Z 15003KT 9999 BKN020 32/16 Q1017;
0120833440999992012041617004-14950-040883FM-15+0914SBQV V0200801N003112200019N0112651N1+03301+01501999999ADDGA1041+012001999GF104991999999999999999999MA1101591999999REMMET051METAR SBQV 161700Z 08006KT 9999 SCT040 33/15 Q1016;
0120833440999992012041618004-14950-040883FM-15+0914SBQV V0201301N003112200019N0112651N1+03201+01501999999ADDGA1041+012001999GF104991999999999999999999MA1101491999999REMMET051METAR SBQV 161800Z 13006KT 9999 SCT040 32/15 Q1015;
0120833440999992012041619004-14950-040883FM-15+0914SBQV V0201201N004112200019N0112651N1+03001+01601999999ADDGA1041+012001999GF104991999999999999999999MA1101491999999REMMET051METAR SBQV 161900Z 12008KT 9999 SCT040 30/16 Q1015;
0120833440999992012041620004-14950-040883FM-15+0914SBQV V0201101N005112200019N0112651N1+02901+01601999999ADDGA1041+010501999GF104991999999999999999999MA1101591999999REMMET051METAR SBQV 162000Z 11010KT 9999 SCT035 29/16 Q1016;
0120833440999992012041621004-14950-040883FM-15+0914SBQV V0201101N004112200019N0112651N1+02701+01701999999ADDGA1041+007501999GF104991999999999999999999MA1101591999999REMMET051METAR SBQV 162100Z 11008KT 9999 SCT025 27/17 Q1016;
0120833440999992012041622004-14950-040883FM-15+0914SBQV V0201101N003612200019N0112651N1+02601+01801999999ADDGA1021+006001999GF102991999999999999999999MA1101691999999REMMET051METAR SBQV 162200Z 11007KT 9999 FEW020 26/18 Q1017;
0120833440999992012041711004-14950-040883FM-15+0914SBQV V0201201N003112200019N0112651N1+02301+01901999999ADDGA1041+005401999GF104991999999999999999999MA1102101999999REMMET051METAR SBQV 171100Z 12006KT 9999 SCT018 23/19 Q1021;
0120833440999992012041712004-14950-040883FM-15+0914SBQV V0201101N004112200019N0112651N1+02501+01701999999ADDGA1021+007501999GF102991999999999999999999MA1102101999999REMMET051METAR SBQV 171200Z 11008KT 9999 FEW025 25/17 Q1021;
0120833440999992012041713004-14950-040883FM-15+0914SBQV V0201101N004112200019N0112651N1+02701+01701999999ADDGA1041+007501999GF104991999999999999999999MA1102201999999REMMET051METAR SBQV 171300Z 11008KT 9999 SCT025 27/17 Q1022;
0120833440999992012041714004-14950-040883FM-15+0914SBQV V0201201N004612200019N0112651N1+02801+01601999999ADDGA1041+009001999GF104991999999999999999999MA1102101999999REMMET051METAR SBQV 171400Z 12009KT 9999 SCT030 28/16 Q1021;
0120833440999992012041715004-14950-040883FM-15+0914SBQV V0201301N005112200019N0112651N1+02901+01601999999ADDGA1041+010501999GF104991999999999999999999MA1102001999999REMMET051METAR SBQV 171500Z 13010KT 9999 SCT035 29/16 Q1020;
0120833440999992012041716004-14950-040883FM-15+0914SBQV V0201101N004112200019N0112651N1+03001+01601999999ADDGA1021+010501999GF102991999999999999999999MA1101901999999REMMET051METAR SBQV 171600Z 11008KT 9999 FEW035 30/16 Q1019;
0120833440999992012041717004-14950-040883FM-15+0914SBQV V0201201N003612200019N0112651N1+02901+01601999999ADDGA1021+010501999GF102991999999999999999999MA1101801999999REMMET051METAR SBQV 171700Z 12007KT 9999 FEW035 29/16 Q1018;
0120833440999992012041718004-14950-040883FM-15+0914SBQV V0201401N006212200019N0112651N1+02901+01701999999ADDGA1041+010501999GF104991999999999999999999MA1101801999999REMMET051METAR SBQV 171800Z 14012KT 9999 SCT035 29/17 Q1018;
0120833440999992012041719004-14950-040883FM-15+0914SBQV V0201301N005112200019N0112651N1+02801+01601999999ADDGA1041+009001999GF104991999999999999999999MA1101801999999REMMET051METAR SBQV 171900Z 13010KT 9999 SCT030 28/16 Q1018;
0120833440999992012041720004-14950-040883FM-15+0914SBQV V0201201N004612200019N0112651N1+02601+01701999999ADDGA1041+007501999GF104991999999999999999999MA1101901999999REMMET051METAR SBQV 172000Z 12009KT 9999 SCT025 26/17 Q1019;
0120833440999992012041721004-14950-040883FM-15+0914SBQV V0201301N004612200019N0112651N1+02401+01801999999ADDGA1021+006001999GF102991999999999999999999MA1101901999999REMMET051METAR SBQV 172100Z 13009KT 9999 FEW020 24/18 Q1019;
0072833440999992012041722004-14950-040883FM-15+0914SBQV V0201101N004119999999Y0099001N1+02301+01901999999ADDMA1102001999999REMMET045METAR SBQV 172200Z 11008KT CAVOK 23/19 Q1020;
0120833440999992012041811004-14950-040883FM-15+0914SBQV V0201401N005712200019N0112651N1+02201+01701999999ADDGA1041+004801999GF104991999999999999999999MA1102201999999REMMET051METAR SBQV 181100Z 14011KT 9999 SCT016 22/17 Q1022;
0120833440999992012041812004-14950-040883FM-15+0914SBQV V0201301N006210048019N0112651N1+02201+01801999999ADDGA1071+004801999GF107991999999999999999999MA1102201999999REMMET051METAR SBQV 181200Z 13012KT 9999 BKN016 22/18 Q1022;
0120833440999992012041813004-14950-040883FM-15+0914SBQV V0201301N007212200019N0112651N1+02501+01701999999ADDGA1021+006001999GF102991999999999999999999MA1102201999999REMMET051METAR SBQV 181300Z 13014KT 9999 FEW020 25/17 Q1022;
0120833440999992012041814004-14950-040883FM-15+0914SBQV V0201301N006212200019N0112651N1+02701+01601999999ADDGA1021+007501999GF102991999999999999999999MA1102101999999REMMET051METAR SBQV 181400Z 13012KT 9999 FEW025 27/16 Q1021;
0120833440999992012041815004-14950-040883FM-15+0914SBQV V0201201N006212200019N0112651N1+02801+01701999999ADDGA1021+009001999GF102991999999999999999999MA1102101999999REMMET051METAR SBQV 181500Z 12012KT 9999 FEW030 28/17 Q1021;
0120833440999992012041816004-14950-040883FM-15+0914SBQV V0201301N005110090019N0112651N1+02801+01701999999ADDGA1071+009001999GF107991999999999999999999MA1102001999999REMMET051METAR SBQV 181600Z 13010KT 9999 BKN030 28/17 Q1020;
0120833440999992012041817004-14950-040883FM-15+0914SBQV V0201201N005710090019N0112651N1+02601+01701999999ADDGA1071+009001999GF107991999999999999999999MA1101901999999REMMET051METAR SBQV 181700Z 12011KT 9999 BKN030 26/17 Q1019;
0120833440999992012041818004-14950-040883FM-15+0914SBQV V0201301N005710090019N0112651N1+02601+01701999999ADDGA1071+009001999GF107991999999999999999999MA1101801999999REMMET051METAR SBQV 181800Z 13011KT 9999 BKN030 26/17 Q1018;
0120833440999992012041819004-14950-040883FM-15+0914SBQV V0201301N005112200019N0112651N1+02601+01801999999ADDGA1041+009001999GF104991999999999999999999MA1101801999999REMMET051METAR SBQV 181900Z 13010KT 9999 SCT030 26/18 Q1018;
0120833440999992012041820004-14950-040883FM-15+0914SBQV V0201201N005712200019N0112651N1+02401+01801999999ADDGA1021+007501999GF102991999999999999999999MA1101901999999REMMET051METAR SBQV 182000Z 12011KT 9999 FEW025 24/18 Q1019;
0120833440999992012041821004-14950-040883FM-15+0914SBQV V0201201N004612200019N0112651N1+02201+01801999999ADDGA1021+006001999GF102991999999999999999999MA1101901999999REMMET051METAR SBQV 182100Z 12009KT 9999 FEW020 22/18 Q1019;
0072833440999992012041822004-14950-040883FM-15+0914SBQV V0201301N004619999999Y0099001N1+02201+01801999999ADDMA1101901999999REMMET045METAR SBQV 182200Z 13009KT CAVOK 22/18 Q1019;
0120833440999992012041906004-14950-040883FM-15+0914SBQV V0201301N005712200019N0112651N1+01901+01701999999ADDGA1041+003901999GF104991999999999999999999MA1101901999999REMMET051METAR SBQV 190600Z 13011KT 9999 SCT013 19/17 Q1019;
0120833440999992012041907004-14950-040883FM-15+0914SBQV V0201301N005110033019N0112651N1+01901+01801999999ADDGA1071+003301999GF107991999999999999999999MA1101801999999REMMET051METAR SBQV 190700Z 13010KT 9999 BKN011 19/18 Q1018;
0120833440999992012041908004-14950-040883FM-15+0914SBQV V0201301N005110030019N0112651N1+01901+01801999999ADDGA1071+003001999GF107991999999999999999999MA1101901999999REMMET051METAR SBQV 190800Z 13010KT 9999 BKN010 19/18 Q1019;
0120833440999992012041911004-14950-040883FM-15+0914SBQV V0201301N002110027019N0112651N1+02001+01801999999ADDGA1071+002701999GF107991999999999999999999MA1102001999999REMMET051METAR SBQV 191100Z 13004KT 9999 BKN009 20/18 Q1020;
0120833440999992012041912004-14950-040883FM-15+0914SBQV V0201001N006712200019N0112651N1+02201+01701999999ADDGA1041+003601999GF104991999999999999999999MA1102101999999REMMET051METAR SBQV 191200Z 10013KT 9999 SCT012 22/17 Q1021;
0120833440999992012041913004-14950-040883FM-15+0914SBQV V0201401N005112200019N0112651N1+02401+01701999999ADDGA1041+004801999GF104991999999999999999999MA1102101999999REMMET051METAR SBQV 191300Z 14010KT 9999 SCT016 24/17 Q1021;
0120833440999992012041914004-14950-040883FM-15+0914SBQV V0201101N004610054019N0112651N1+02601+01601999999ADDGA1071+005401999GF107991999999999999999999MA1102001999999REMMET051METAR SBQV 191400Z 11009KT 9999 BKN018 26/16 Q1020;
0120833440999992012041915004-14950-040883FM-15+0914SBQV V0201201N005110060019N0112651N1+02501+01701999999ADDGA1071+006001999GF107991999999999999999999MA1101901999999REMMET051METAR SBQV 191500Z 12010KT 9999 BKN020 25/17 Q1019;
0120833440999992012041916004-14950-040883FM-15+0914SBQV V0201401N003610075019N0112651N1+02701+01601999999ADDGA1071+007501999GF107991999999999999999999MA1101801999999REMMET051METAR SBQV 191600Z 14007KT 9999 BKN025 27/16 Q1018;
0120833440999992012041917004-14950-040883FM-15+0914SBQV V0201201N005112200019N0112651N1+02701+01601999999ADDGA1041+007501999GF104991999999999999999999MA1101691999999REMMET051METAR SBQV 191700Z 12010KT 9999 SCT025 27/16 Q1017;
0120833440999992012041918004-14950-040883FM-15+0914SBQV V0201301N005712200019N0112651N1+02601+01601999999ADDGA1041+007501999GF104991999999999999999999MA1101591999999REMMET051METAR SBQV 191800Z 13011KT 9999 SCT025 26/16 Q1016;
0120833440999992012041919004-14950-040883FM-15+0914SBQV V0201201N004612200019N0112651N1+02701+01501999999ADDGA1041+007501999GF104991999999999999999999MA1101591999999REMMET051METAR SBQV 191900Z 12009KT 9999 SCT025 27/15 Q1016;
0120833440999992012041920004-14950-040883FM-15+0914SBQV V0201201N005112200019N0112651N1+02501+01501999999ADDGA1021+006001999GF102991999999999999999999MA1101591999999REMMET051METAR SBQV 192000Z 12010KT 9999 FEW020 25/15 Q1016;
0120833440999992012041921004-14950-040883FM-15+0914SBQV V0201201N004612200019N0112651N1+02301+01601999999ADDGA1021+004801999GF102991999999999999999999MA1101691999999REMMET051METAR SBQV 192100Z 12009KT 9999 FEW016 23/16 Q1017;
0120833440999992012041922004-14950-040883FM-15+0914SBQV V0201101N004112200019N0112651N1+02201+01601999999ADDGA1021+004501999GF102991999999999999999999MA1101691999999REMMET051METAR SBQV 192200Z 11008KT 9999 FEW015 22/16 Q1017;
0120833440999992012042011004-14950-040883FM-15+0914SBQV V0201201N004112200019N0112651N1+02001+01701999999ADDGA1041+004501999GF104991999999999999999999MA1101901999999REMMET051METAR SBQV 201100Z 12008KT 9999 SCT015 20/17 Q1019;
0120833440999992012042012004-14950-040883FM-15+0914SBQV V0201301N003612200019N0112651N1+02301+01701999999ADDGA1021+005401999GF102991999999999999999999MA1102001999999REMMET051METAR SBQV 201200Z 13007KT 9999 FEW018 23/17 Q1020;
0120833440999992012042013004-14950-040883FM-15+0914SBQV V0201301N002610060019N0112651N1+02401+01701999999ADDGA1071+006001999GF107991999999999999999999MA1102001999999REMMET051METAR SBQV 201300Z 13005KT 9999 BKN020 24/17 Q1020;
0120833440999992012042014004-14950-040883FM-15+0914SBQV V0201101N003610060019N0112651N1+02601+01701999999ADDGA1071+006001999GF107991999999999999999999MA1101901999999REMMET051METAR SBQV 201400Z 11007KT 9999 BKN020 26/17 Q1019;
0120833440999992012042015004-14950-040883FM-15+0914SBQV V0200901N004112200019N0112651N1+02701+01601999999ADDGA1041+007501999GF104991999999999999999999MA1101801999999REMMET051METAR SBQV 201500Z 09008KT 9999 SCT025 27/16 Q1018;
0120833440999992012042016004-14950-040883FM-15+0914SBQV V0200901N002612200019N0112651N1+02701+01601999999ADDGA1041+007501999GF104991999999999999999999MA1101691999999REMMET051METAR SBQV 201600Z 09005KT 9999 SCT025 27/16 Q1017;
0120833440999992012042017004-14950-040883FM-15+0914SBQV V0200701N003112200019N0112651N1+02801+01601999999ADDGA1041+007501999GF104991999999999999999999MA1101591999999REMMET051METAR SBQV 201700Z 07006KT 9999 SCT025 28/16 Q1016;
0120833440999992012042018004-14950-040883FM-15+0914SBQV V0200401N001512200019N0112651N1+02801+01501999999ADDGA1041+007501999GF104991999999999999999999MA1101591999999REMMET051METAR SBQV 201800Z 04003KT 9999 SCT025 28/15 Q1016;
0120833440999992012042019004-14950-040883FM-15+0914SBQV V0200901N003612200019N0112651N1+02801+01501999999ADDGA1041+007501999GF104991999999999999999999MA1101491999999REMMET051METAR SBQV 201900Z 09007KT 9999 SCT025 28/15 Q1015;
0120833440999992012042020004-14950-040883FM-15+0914SBQV V0200801N004612200019N0112651N1+02601+01601999999ADDGA1041+006001999GF104991999999999999999999MA1101591999999REMMET051METAR SBQV 202000Z 08009KT 9999 SCT020 26/16 Q1016;
0120833440999992012042021004-14950-040883FM-15+0914SBQV V0201101N004112200019N0112651N1+02401+01701999999ADDGA1021+004801999GF102991999999999999999999MA1101591999999REMMET051METAR SBQV 202100Z 11008KT 9999 FEW016 24/17 Q1016;
0120833440999992012042022004-14950-040883FM-15+0914SBQV V0200901N003112200019N0112651N1+02301+01601999999ADDGA1021+004501999GF102991999999999999999999MA1101591999999REMMET051METAR SBQV 202200Z 09006KT 9999 FEW015 23/16 Q1016;
0072833440999992012042100004-14950-040883FM-15+0914SBQV V0200901N004619999999Y0099001N1+02101+01801999999ADDMA1101801999999REMMET045METAR SBQV 210000Z 09009KT CAVOK 21/18 Q1018;
0072833440999992012042101004-14950-040883FM-15+0914SBQV V0200801N004619999999Y0099001N1+02001+01801999999ADDMA1101801999999REMMET045METAR SBQV 210100Z 08009KT CAVOK 20/18 Q1018;
0072833440999992012042111004-14950-040883FM-15+0914SBQV V0200401N002619999999Y0099001N1+02301+01601999999ADDMA1102001999999REMMET045METAR SBQV 211100Z 04005KT CAVOK 23/16 Q1020;
0072833440999992012042112004-14950-040883FM-15+0914SBQV V0200301N004119999999Y0099001N1+02501+01601999999ADDMA1102001999999REMMET045METAR SBQV 211200Z 03008KT CAVOK 25/16 Q1020;
0120833440999992012042113004-14950-040883FM-15+0914SBQV V0200201N003612200019N0112651N1+02801+01701999999ADDGA1021+004801999GF102991999999999999999999MA1102001999999REMMET051METAR SBQV 211300Z 02007KT 9999 FEW016 28/17 Q1020;
0120833440999992012042114004-14950-040883FM-15+0914SBQV V0203601N004112200019N0112651N1+99999+99999999999ADDGA1041+005401999GF104991999999999999999999MA1101901999999REMMET051METAR SBQV 211400Z 36008KT 9999 SCT018 ///// Q1019;
0120833440999992012042115004-14950-040883FM-15+0914SBQV V0203601N002612200019N0112651N1+02901+01701999999ADDGA1041+006001999GF104991999999999999999999MA1101801999999REMMET051METAR SBQV 211500Z 36005KT 9999 SCT020 29/17 Q1018;
0120833440999992012042116004-14950-040883FM-15+0914SBQV V0200201N003612200019N0112651N1+02901+01601999999ADDGA1041+007501999GF104991999999999999999999MA1101691999999REMMET051METAR SBQV 211600Z 02007KT 9999 SCT025 29/16 Q1017;
0120833440999992012042117004-14950-040883FM-15+0914SBQV V0200301N004112200019N0112651N1+03001+01601999999ADDGA1041+012001999GF104991999999999999999999MA1101591999999REMMET051METAR SBQV 211700Z 03008KT 9999 SCT040 30/16 Q1016;
0120833440999992012042118004-14950-040883FM-15+0914SBQV V0202901N003112200019N0112651N1+03001+01501999999ADDGA1021+012001999GF102991999999999999999999MA1101491999999REMMET051METAR SBQV 211800Z 29006KT 9999 FEW040 30/15 Q1015;
0120833440999992012042119004-14950-040883FM-15+0914SBQV V0200301N003612200019N0112651N1+03001+01501999999ADDGA1021+012001999GF102991999999999999999999MA1101491999999REMMET051METAR SBQV 211900Z 03007KT 9999 FEW040 30/15 Q1015;
0120833440999992012042120004-14950-040883FM-15+0914SBQV V0203001N003112200019N0112651N1+02901+01601999999ADDGA1021+012001999GF102991999999999999999999MA1101591999999REMMET051METAR SBQV 212000Z 30006KT 9999 FEW040 29/16 Q1016;
0120833440999992012042121004-14950-040883FM-15+0914SBQV V0203201N001012200019N0112651N1+02601+01601999999ADDGA1021+006001999GF102991999999999999999999MA1101591999999REMMET051METAR SBQV 212100Z 32002KT 9999 FEW020 26/16 Q1016;
0072833440999992012042122004-14950-040883FM-15+0914SBQV V0201101N002119999999Y0099001N1+02401+01801999999ADDMA1101591999999REMMET045METAR SBQV 212200Z 11004KT CAVOK 24/18 Q1016;
0072833440999992012042211004-14950-040883FM-15+0914SBQV V0200201N007219999999Y0099001N1+02301+01701999999ADDMA1102001999999REMMET045METAR SBQV 221100Z 02014KT CAVOK 23/17 Q1020;
0072833440999992012042212004-14950-040883FM-15+0914SBQV V0200201N007219999999Y0099001N1+02601+01701999999ADDMA1102001999999REMMET045METAR SBQV 221200Z 02014KT CAVOK 26/17 Q1020;
0072833440999992012042213004-14950-040883FM-15+0914SBQV V0200101N005119999999Y0099001N1+02801+01801999999ADDMA1102001999999REMMET045METAR SBQV 221300Z 01010KT CAVOK 28/18 Q1020;
0120833440999992012042214004-14950-040883FM-15+0914SBQV V0200101N004612200019N0112651N1+02901+01701999999ADDGA1021+012001999GF102991999999999999999999MA1101901999999REMMET051METAR SBQV 221400Z 01009KT 9999 FEW040 29/17 Q1019;
0120833440999992012042215004-14950-040883FM-15+0914SBQV V0200201N003112200019N0112651N1+03001+01601999999ADDGA1041+012001999GF104991999999999999999999MA1101801999999REMMET051METAR SBQV 221500Z 02006KT 9999 SCT040 30/16 Q1018;
0120833440999992012042216004-14950-040883FM-15+0914SBQV V0200401N003612200019N0112651N1+03101+01601999999ADDGA1041+012001999GF104991999999999999999999MA1101691999999REMMET051METAR SBQV 221600Z 04007KT 9999 SCT040 31/16 Q1017;
0120833440999992012042217004-14950-040883FM-15+0914SBQV V0203101N002112200019N0112651N1+03101+01501999999ADDGA1041+012001999GF104991999999999999999999MA1101591999999REMMET051METAR SBQV 221700Z 31004KT 9999 SCT040 31/15 Q1016;
0120833440999992012042218004-14950-040883FM-15+0914SBQV V0203001N003112200019N0112651N1+03101+01501999999ADDGA1021+012001999GF102991999999999999999999MA1101491999999REMMET051METAR SBQV 221800Z 30006KT 9999 FEW040 31/15 Q1015;
0155833440999992012042219004-14950-040883FM-15+0914SBQV V0203101N002612200019N0112651N1+03101+99999999999ADDGA1021+012001999GF102991999999999999999999MA1101491999999REMMET051METAR SBQV 221900Z 31005KT 9999 FEW040 31/25 Q1015;EQDQ01+002503ATOD  Q02 +02503ATOD  
0120833440999992012042220004-14950-040883FM-15+0914SBQV V0202601N002112200019N0112651N1+03101+01501999999ADDGA1021+010501999GF102991999999999999999999MA1101491999999REMMET051METAR SBQV 222000Z 26004KT 9999 FEW035 31/15 Q1015;
0120833440999992012042221004-14950-040883FM-15+0914SBQV V0202601N001012200019N0112651N1+02801+01401999999ADDGA1021+007501999GF102991999999999999999999MA1101591999999REMMET051METAR SBQV 222100Z 26002KT 9999 FEW025 28/14 Q1016;
0072833440999992012042222004-14950-040883FM-15+0914SBQV V0200701N004119999999Y0099001N1+02601+01801999999ADDMA1101591999999REMMET045METAR SBQV 222200Z 07008KT CAVOK 26/18 Q1016;
0120833440999992012042311004-14950-040883FM-15+0914SBQV V0200301N004112200019N0112651N1+02301+01901999999ADDGA1021+004801999GF102991999999999999999999MA1101901999999REMMET051METAR SBQV 231100Z 03008KT 9999 FEW016 23/19 Q1019;
0120833440999992012042312004-14950-040883FM-15+0914SBQV V0200101N003112200019N0112651N1+02601+01801999999ADDGA1021+006001999GF102991999999999999999999MA1102001999999REMMET051METAR SBQV 231200Z 01006KT 9999 FEW020 26/18 Q1020;
0128833440999992012042313004-14950-040883FM-15+0914SBQV V0200601N003612200019N0112651N1+02801+01701999999ADDGA1021+009001999GF102991999999999999999999MA1102001999999REMMET059METAR SBQV 231300Z 06007KT 030V090 9999 FEW030 28/17 Q1020;
0128833440999992012042314004-14950-040883FM-15+0914SBQV V0200601N003112200019N0112651N1+02901+01501999999ADDGA1021+010501999GF102991999999999999999999MA1101901999999REMMET059METAR SBQV 231400Z 06006KT 030V090 9999 FEW035 29/15 Q1019;
0120833440999992012042315004-14950-040883FM-15+0914SBQV V0200701N003612200019N0112651N1+02901+01601999999ADDGA1041+010501999GF104991999999999999999999MA1101801999999REMMET051METAR SBQV 231500Z 07007KT 9999 SCT035 29/16 Q1018;
0120833440999992012042316004-14950-040883FM-15+0914SBQV V0200901N003612200019N0112651N1+03101+01501999999ADDGA1041+010501999GF104991999999999999999999MA1101691999999REMMET051METAR SBQV 231600Z 09007KT 9999 SCT035 31/15 Q1017;
0120833440999992012042317004-14950-040883FM-15+0914SBQV V0200701N002112200019N0112651N1+03101+01501999999ADDGA1041+010501999GF104991999999999999999999MA1101591999999REMMET051METAR SBQV 231700Z 07004KT 9999 SCT035 31/15 Q1016;
0120833440999992012042318004-14950-040883FM-15+0914SBQV V0200801N001512200019N0112651N1+03101+01401999999ADDGA1041+010501999GF104991999999999999999999MA1101591999999REMMET051METAR SBQV 231800Z 08003KT 9999 SCT035 31/14 Q1016;
0120833440999992012042319004-14950-040883FM-15+0914SBQV V0202501N001012200019N0112651N1+03101+01401999999ADDGA1041+010501999GF104991999999999999999999MA1101491999999REMMET051METAR SBQV 231900Z 25002KT 9999 SCT035 31/14 Q1015;
0120833440999992012042320004-14950-040883FM-15+0914SBQV V0201201N005112200019N0112651N1+03001+01801999999ADDGA1021+010501999GF102991999999999999999999MA1101591999999REMMET051METAR SBQV 232000Z 12010KT 9999 FEW035 30/18 Q1016;
0120833440999992012042321004-14950-040883FM-15+0914SBQV V0201001N004612200019N0112651N1+02701+01301999999ADDGA1021+009001999GF102991999999999999999999MA1101591999999REMMET051METAR SBQV 232100Z 10009KT 9999 FEW030 27/13 Q1016;
0072833440999992012042322004-14950-040883FM-15+0914SBQV V0200801N004619999999Y0099001N1+02601+01801999999ADDMA1101691999999REMMET045METAR SBQV 232200Z 08009KT CAVOK 26/18 Q1017;
0120833440999992012042411004-14950-040883FM-15+0914SBQV V0200501N002112200019N0112651N1+02301+01901999999ADDGA1021+006001999GF102991999999999999999999MA1102001999999REMMET051METAR SBQV 241100Z 05004KT 9999 FEW020 23/19 Q1020;
0072833440999992012042412004-14950-040883FM-15+0914SBQV V0200701N003119999999Y0099001N1+02501+01901999999ADDMA1102001999999REMMET045METAR SBQV 241200Z 07006KT CAVOK 25/19 Q1020;
0120833440999992012042413004-14950-040883FM-15+0914SBQV V0201001N004612200019N0112651N1+02801+01701999999ADDGA1021+009001999GF102991999999999999999999MA1102001999999REMMET051METAR SBQV 241300Z 10009KT 9999 FEW030 28/17 Q1020;
0120833440999992012042414004-14950-040883FM-15+0914SBQV V0200101N003112200019N0112651N1+03001+01501999999ADDGA1021+010501999GF102991999999999999999999MA1101901999999REMMET051METAR SBQV 241400Z 01006KT 9999 FEW035 30/15 Q1019;
0120833440999992012042415004-14950-040883FM-15+0914SBQV V0200801N002612200019N0112651N1+03101+01501999999ADDGA1021+012001999GF102991999999999999999999MA1101801999999REMMET051METAR SBQV 241500Z 08005KT 9999 FEW040 31/15 Q1018;
0120833440999992012042416004-14950-040883FM-15+0914SBQV V0201001N003110120019N0112651N1+03001+01401999999ADDGA1071+012001999GF107991999999999999999999MA1101691999999REMMET051METAR SBQV 241600Z 10006KT 9999 BKN040 30/14 Q1017;
0120833440999992012042417004-14950-040883FM-15+0914SBQV V0201301N004110120019N0112651N1+03001+01601999999ADDGA1071+012001999GF107991999999999999999999MA1101591999999REMMET051METAR SBQV 241700Z 13008KT 9999 BKN040 30/16 Q1016;
0120833440999992012042418004-14950-040883FM-15+0914SBQV V0201001N004612200019N0112651N1+03001+01701999999ADDGA1041+012001999GF104991999999999999999999MA1101591999999REMMET051METAR SBQV 241800Z 10009KT 9999 SCT040 30/17 Q1016;
0120833440999992012042419004-14950-040883FM-15+0914SBQV V0200901N005112200019N0112651N1+02901+01601999999ADDGA1021+012001999GF102991999999999999999999MA1101591999999REMMET051METAR SBQV 241900Z 09010KT 9999 FEW040 29/16 Q1016;
0120833440999992012042420004-14950-040883FM-15+0914SBQV V0200901N005112200019N0112651N1+02801+01601999999ADDGA1021+010501999GF102991999999999999999999MA1101591999999REMMET051METAR SBQV 242000Z 09010KT 9999 FEW035 28/16 Q1016;
0072833440999992012042421004-14950-040883FM-15+0914SBQV V0201001N005119999999Y0099001N1+02601+01701999999ADDMA1101591999999REMMET045METAR SBQV 242100Z 10010KT CAVOK 26/17 Q1016;
0072833440999992012042422004-14950-040883FM-15+0914SBQV V0201001N003619999999Y0099001N1+02501+01701999999ADDMA1101691999999REMMET045METAR SBQV 242200Z 10007KT CAVOK 25/17 Q1017;
0072833440999992012042511004-14950-040883FM-15+0914SBQV V0200401N003119999999Y0099001N1+02301+01501999999ADDMA1102001999999REMMET045METAR SBQV 251100Z 04006KT CAVOK 23/15 Q1020;
0072833440999992012042512004-14950-040883FM-15+0914SBQV V0200601N003119999999Y0099001N1+02501+01201999999ADDMA1102101999999REMMET045METAR SBQV 251200Z 06006KT CAVOK 25/12 Q1021;
0072833440999992012042513004-14950-040883FM-15+0914SBQV V0200901N002619999999Y0099001N1+02701+01301999999ADDMA1102101999999REMMET045METAR SBQV 251300Z 09005KT CAVOK 27/13 Q1021;
0120833440999992012042514004-14950-040883FM-15+0914SBQV V0201001N003112200019N0112651N1+02901+01201999999ADDGA1021+012001999GF102991999999999999999999MA1102001999999REMMET051METAR SBQV 251400Z 10006KT 9999 FEW040 29/12 Q1020;
0120833440999992012042515004-14950-040883FM-15+0914SBQV V0201101N004612200019N0112651N1+03001+01301999999ADDGA1021+012001999GF102991999999999999999999MA1101801999999REMMET051METAR SBQV 251500Z 11009KT 9999 FEW040 30/13 Q1018;
0120833440999992012042516004-14950-040883FM-15+0914SBQV V0201101N005112200019N0112651N1+03101+01301999999ADDGA1021+012001999GF102991999999999999999999MA1101801999999REMMET051METAR SBQV 251600Z 11010KT 9999 FEW040 31/13 Q1018;
0120833440999992012042517004-14950-040883FM-15+0914SBQV V0201101N006212200019N0112651N1+03001+01401999999ADDGA1021+012001999GF102991999999999999999999MA1101691999999REMMET051METAR SBQV 251700Z 11012KT 9999 FEW040 30/14 Q1017;
0120833440999992012042518004-14950-040883FM-15+0914SBQV V0201201N005712200019N0112651N1+03001+01501999999ADDGA1021+010501999GF102991999999999999999999MA1101691999999REMMET051METAR SBQV 251800Z 12011KT 9999 FEW035 30/15 Q1017;
0120833440999992012042519004-14950-040883FM-15+0914SBQV V0200901N005712200019N0112651N1+02801+01501999999ADDGA1021+009001999GF102991999999999999999999MA1101691999999REMMET051METAR SBQV 251900Z 09011KT 9999 FEW030 28/15 Q1017;
0120833440999992012042520004-14950-040883FM-15+0914SBQV V0200901N004612200019N0112651N1+02701+01501999999ADDGA1021+007501999GF102991999999999999999999MA1101691999999REMMET051METAR SBQV 252000Z 09009KT 9999 FEW025 27/15 Q1017;
0120833440999992012042521004-14950-040883FM-15+0914SBQV V0201001N004112200019N0112651N1+02501+01601999999ADDGA1021+006001999GF102991999999999999999999MA1101691999999REMMET051METAR SBQV 252100Z 10008KT 9999 FEW020 25/16 Q1017;
0120833440999992012042522004-14950-040883FM-15+0914SBQV V0201001N004112200019N0112651N1+02401+01601999999ADDGA1021+005401999GF102991999999999999999999MA1101801999999REMMET051METAR SBQV 252200Z 10008KT 9999 FEW018 24/16 Q1018;
0072833440999992012042611004-14950-040883FM-15+0914SBQV V0200801N002619999999Y0099001N1+02201+01601999999ADDMA1102001999999REMMET045METAR SBQV 261100Z 08005KT CAVOK 22/16 Q1020;
0120833440999992012042612004-14950-040883FM-15+0914SBQV V0200501N004112200019N0112651N1+02501+01301999999ADDGA1021+004501999GF102991999999999999999999MA1102001999999REMMET051METAR SBQV 261200Z 05008KT 9999 FEW015 25/13 Q1020;
0072833440999992012042613004-14950-040883FM-15+0914SBQV V0200601N004119999999Y0099001N1+02801+01301999999ADDMA1102001999999REMMET045METAR SBQV 261300Z 06008KT CAVOK 28/13 Q1020;
0072833440999992012042614004-14950-040883FM-15+0914SBQV V0200501N003619999999Y0099001N1+02801+01101999999ADDMA1101901999999REMMET045METAR SBQV 261400Z 05007KT CAVOK 28/11 Q1019;
0072833440999992012042615004-14950-040883FM-15+0914SBQV V0200501N004119999999Y0099001N1+02901+01201999999ADDMA1101801999999REMMET045METAR SBQV 261500Z 05008KT CAVOK 29/12 Q1018;
0072833440999992012042616004-14950-040883FM-15+0914SBQV V0200401N002619999999Y0099001N1+03101+01001999999ADDMA1101691999999REMMET045METAR SBQV 261600Z 04005KT CAVOK 31/10 Q1017;
0120833440999992012042617004-14950-040883FM-15+0914SBQV V0200501N003612200019N0112651N1+03101+01001999999ADDGA1021+010501999GF102991999999999999999999MA1101591999999REMMET051METAR SBQV 261700Z 05007KT 9999 FEW035 31/10 Q1016;
0120833440999992012042618004-14950-040883FM-15+0914SBQV V0201401N001012200019N0112651N1+03101+00901999999ADDGA1021+010501999GF102991999999999999999999MA1101591999999REMMET051METAR SBQV 261800Z 14002KT 9999 FEW035 31/09 Q1016;
0120833440999992012042619004-14950-040883FM-15+0914SBQV V0203501N003112200019N0112651N1+03101+00901999999ADDGA1021+010501999GF102991999999999999999999MA1101591999999REMMET051METAR SBQV 261900Z 35006KT 9999 FEW035 31/09 Q1016;
0120833440999992012042620004-14950-040883FM-15+0914SBQV V0201001N005712200019N0112651N1+02801+01401999999ADDGA1021+010501999GF102991999999999999999999MA1101591999999REMMET051METAR SBQV 262000Z 10011KT 9999 FEW035 28/14 Q1016;
0072833440999992012042621004-14950-040883FM-15+0914SBQV V0201101N004119999999Y0099001N1+02601+01401999999ADDMA1101591999999REMMET045METAR SBQV 262100Z 11008KT CAVOK 26/14 Q1016;
0072833440999992012042622004-14950-040883FM-15+0914SBQV V0200701N005119999999Y0099001N1+02501+01501999999ADDMA1101591999999REMMET045METAR SBQV 262200Z 07010KT CAVOK 25/15 Q1016;
0072833440999992012042711004-14950-040883FM-15+0914SBQV V0201401N001019999999Y0099001N1+02101+01701999999ADDMA1101901999999REMMET045METAR SBQV 271100Z 14002KT CAVOK 21/17 Q1019;
0072833440999992012042712004-14950-040883FM-15+0914SBQV V0200301N001019999999Y0099001N1+02401+01701999999ADDMA1102001999999REMMET045METAR SBQV 271200Z 03002KT CAVOK 24/17 Q1020;
0072833440999992012042713004-14950-040883FM-15+0914SBQV V0200301N001019999999Y0099001N1+02401+01701999999ADDMA1102001999999REMMET045METAR SBQV 271300Z 03002KT CAVOK 24/17 Q1020;
0072833440999992012042714004-14950-040883FM-15+0914SBQV V0200401N001519999999Y0099001N1+02901+01501999999ADDMA1101801999999REMMET045METAR SBQV 271400Z 04003KT CAVOK 29/15 Q1018;
0120833440999992012042715004-14950-040883FM-15+0914SBQV V0203001N001512200019N0112651N1+03101+01301999999ADDGA1021+012001999GF102991999999999999999999MA1101801999999REMMET051METAR SBQV 271500Z 30003KT 9999 FEW040 31/13 Q1018;
0120833440999992012042716004-14950-040883FM-15+0914SBQV V0201901N001012200019N0112651N1+03101+01201999999ADDGA1021+012001999GF102991999999999999999999MA1101591999999REMMET051METAR SBQV 271600Z 19002KT 9999 FEW040 31/12 Q1016;
0120833440999992012042717004-14950-040883FM-15+0914SBQV V0200301N001512200019N0112651N1+03101+01201999999ADDGA1021+012001999GF102991999999999999999999MA1101491999999REMMET051METAR SBQV 271700Z 03003KT 9999 FEW040 31/12 Q1015;
0120833440999992012042718004-14950-040883FM-15+0914SBQV V0201701N002612200019N0112651N1+03201+01201999999ADDGA1021+012001999GF102991999999999999999999MA1101491999999REMMET051METAR SBQV 271800Z 17005KT 9999 FEW040 32/12 Q1015;
0120833440999992012042719004-14950-040883FM-15+0914SBQV V0201301N002112200019N0112651N1+03101+01201999999ADDGA1021+012001999GF102991999999999999999999MA1101491999999REMMET051METAR SBQV 271900Z 13004KT 9999 FEW040 31/12 Q1015;
0120833440999992012042720004-14950-040883FM-15+0914SBQV V0201301N005712200019N0112651N1+02901+01201999999ADDGA1021+010501999GF102991999999999999999999MA1101491999999REMMET051METAR SBQV 272000Z 13011KT 9999 FEW035 29/12 Q1015;
0120833440999992012042721004-14950-040883FM-15+0914SBQV V0200901N003112200019N0112651N1+02701+01301999999ADDGA1021+009001999GF102991999999999999999999MA1101491999999REMMET051METAR SBQV 272100Z 09006KT 9999 FEW030 27/13 Q1015;
0091833440999992012042722004-14950-040883FM-15+0914SBQV V0200801N004619999999Y0099001N1+02601+01501999999ADDMA1106202999999REMMET045METAR SBQV 272200Z 08009KT CAVOK 26/15 Q1062;EQDQ01+106203APOA  
0072833440999992012042811004-14950-040883FM-15+0914SBQV V0201001N002619999999Y0099001N1+02501+01601999999ADDMA1101801999999REMMET045METAR SBQV 281100Z 10005KT CAVOK 25/16 Q1018;
0072833440999992012042812004-14950-040883FM-15+0914SBQV V0201101N004619999999Y0099001N1+02801+01401999999ADDMA1101901999999REMMET045METAR SBQV 281200Z 11009KT CAVOK 28/14 Q1019;
0120833440999992012042814004-14950-040883FM-15+0914SBQV V0201101N006712200019N0112651N1+03001+01501999999ADDGA1021+010501999GF102991999999999999999999MA1101801999999REMMET051METAR SBQV 281400Z 11013KT 9999 FEW035 30/15 Q1018;
0120833440999992012042815004-14950-040883FM-15+0914SBQV V0201201N007212200019N0112651N1+03001+01501999999ADDGA1021+010501999GF102991999999999999999999MA1101691999999REMMET051METAR SBQV 281500Z 12014KT 9999 FEW035 30/15 Q1017;
0120833440999992012042816004-14950-040883FM-15+0914SBQV V0200901N006212200019N0112651N1+03001+01501999999ADDGA1021+010501999GF102991999999999999999999MA1101691999999REMMET051METAR SBQV 281600Z 09012KT 9999 FEW035 30/15 Q1017;
0120833440999992012042817004-14950-040883FM-15+0914SBQV V0201001N006212200019N0112651N1+03101+01301999999ADDGA1021+010501999GF102991999999999999999999MA1101591999999REMMET051METAR SBQV 281700Z 10012KT 9999 FEW035 31/13 Q1016;
0120833440999992012042818004-14950-040883FM-15+0914SBQV V0200901N005112200019N0112651N1+03001+01401999999ADDGA1021+010501999GF102991999999999999999999MA1101591999999REMMET051METAR SBQV 281800Z 09010KT 9999 FEW035 30/14 Q1016;
0072833440999992012042819004-14950-040883FM-15+0914SBQV V0201001N005119999999Y0099001N1+03001+01301999999ADDMA1101591999999REMMET045METAR SBQV 281900Z 10010KT CAVOK 30/13 Q1016;
0072833440999992012042820004-14950-040883FM-15+0914SBQV V0201101N004619999999Y0099001N1+02801+01401999999ADDMA1101591999999REMMET045METAR SBQV 282000Z 11009KT CAVOK 28/14 Q1016;
0072833440999992012042821004-14950-040883FM-15+0914SBQV V0201001N003619999999Y0099001N1+02601+01301999999ADDMA1101691999999REMMET045METAR SBQV 282100Z 10007KT CAVOK 26/13 Q1017;
0072833440999992012042822004-14950-040883FM-15+0914SBQV V0201001N002619999999Y0099001N1+02401+01301999999ADDMA1101691999999REMMET045METAR SBQV 282200Z 10005KT CAVOK 24/13 Q1017;
0072833440999992012042911004-14950-040883FM-15+0914SBQV V0200401N005119999999Y0099001N1+02001+01401999999ADDMA1101901999999REMMET045METAR SBQV 291100Z 04010KT CAVOK 20/14 Q1019;
0072833440999992012042912004-14950-040883FM-15+0914SBQV V0200401N005119999999Y0099001N1+02401+01101999999ADDMA1102001999999REMMET045METAR SBQV 291200Z 04010KT CAVOK 24/11 Q1020;
0072833440999992012042913004-14950-040883FM-15+0914SBQV V0200401N005119999999Y0099001N1+02601+01001999999ADDMA1102001999999REMMET045METAR SBQV 291300Z 04010KT CAVOK 26/10 Q1020;
0072833440999992012042914004-14950-040883FM-15+0914SBQV V0200401N003619999999Y0099001N1+02701+00801999999ADDMA1101801999999REMMET045METAR SBQV 291400Z 04007KT CAVOK 27/08 Q1018;
0072833440999992012042915004-14950-040883FM-15+0914SBQV V0200701N003119999999Y0099001N1+02901+00801999999ADDMA1101691999999REMMET045METAR SBQV 291500Z 07006KT CAVOK 29/08 Q1017;
0072833440999992012042916004-14950-040883FM-15+0914SBQV V0200301N002619999999Y0099001N1+03001+00901999999ADDMA1101691999999REMMET045METAR SBQV 291600Z 03005KT CAVOK 30/09 Q1017;
0072833440999992012042917004-14950-040883FM-15+0914SBQV V0201201N001519999999Y0099001N1+03101+00901999999ADDMA1101591999999REMMET045METAR SBQV 291700Z 12003KT CAVOK 31/09 Q1016;
0072833440999992012042918004-14950-040883FM-15+0914SBQV V0201201N004619999999Y0099001N1+03101+00801999999ADDMA1101491999999REMMET045METAR SBQV 291800Z 12009KT CAVOK 31/08 Q1015;
0072833440999992012042919004-14950-040883FM-15+0914SBQV V0201401N005719999999Y0099001N1+03001+00801999999ADDMA1101591999999REMMET045METAR SBQV 291900Z 14011KT CAVOK 30/08 Q1016;
0072833440999992012042920004-14950-040883FM-15+0914SBQV V0201401N005719999999Y0099001N1+02801+00901999999ADDMA1101591999999REMMET045METAR SBQV 292000Z 14011KT CAVOK 28/09 Q1016;
0072833440999992012042921004-14950-040883FM-15+0914SBQV V0201101N003119999999Y0099001N1+02501+01001999999ADDMA1101591999999REMMET045METAR SBQV 292100Z 11006KT CAVOK 25/10 Q1016;
0072833440999992012042922004-14950-040883FM-15+0914SBQV V0200901N003619999999Y0099001N1+02401+01201999999ADDMA1101691999999REMMET045METAR SBQV 292200Z 09007KT CAVOK 24/12 Q1017;
0120833440999992012043011004-14950-040883FM-15+0914SBQV V0200101N001512200019N0112651N1+02001+01701999999ADDGA1021+004501999GF102991999999999999999999MA1102001999999REMMET051METAR SBQV 301100Z 01003KT 9999 FEW015 20/17 Q1020;
0120833440999992012043012004-14950-040883FM-15+0914SBQV V0209999C000012200019N0112651N1+02301+01601999999ADDGA1021+004801999GF102991999999999999999999MA1102101999999REMMET051METAR SBQV 301200Z 00000KT 9999 FEW016 23/16 Q1021;
0120833440999992012043013004-14950-040883FM-15+0914SBQV V0203001N001512200019N0112651N1+02501+01401999999ADDGA1021+006001999GF102991999999999999999999MA1102101999999REMMET051METAR SBQV 301300Z 30003KT 9999 FEW020 25/14 Q1021;
0120833440999992012043014004-14950-040883FM-15+0914SBQV V0201501N002612200019N0112651N1+02701+01101999999ADDGA1021+006001999GF102991999999999999999999MA1102001999999REMMET051METAR SBQV 301400Z 15005KT 9999 FEW020 27/11 Q1020;
0072833440999992012043015004-14950-040883FM-15+0914SBQV V0201301N003119999999Y0099001N1+02901+01001999999ADDMA1101801999999REMMET045METAR SBQV 301500Z 13006KT CAVOK 29/10 Q1018;
0072833440999992012043016004-14950-040883FM-15+0914SBQV V0201101N002119999999Y0099001N1+03001+00901999999ADDMA1101691999999REMMET045METAR SBQV 301600Z 11004KT CAVOK 30/09 Q1017;
0072833440999992012043017004-14950-040883FM-15+0914SBQV V0201501N002619999999Y0099001N1+03101+00401999999ADDMA1101591999999REMMET045METAR SBQV 301700Z 15005KT CAVOK 31/04 Q1016;
0072833440999992012043018004-14950-040883FM-15+0914SBQV V0201101N002619999999Y0099001N1+03201+00201999999ADDMA1101591999999REMMET045METAR SBQV 301800Z 11005KT CAVOK 32/02 Q1016;
0072833440999992012043019004-14950-040883FM-15+0914SBQV V0201201N005119999999Y0099001N1+03101+00701999999ADDMA1101591999999REMMET045METAR SBQV 301900Z 12010KT CAVOK 31/07 Q1016;
0072833440999992012043020004-14950-040883FM-15+0914SBQV V0201301N005719999999Y0099001N1+02901+00701999999ADDMA1101691999999REMMET045METAR SBQV 302000Z 13011KT CAVOK 29/07 Q1017;
0072833440999992012043021004-14950-040883FM-15+0914SBQV V0201101N003619999999Y0099001N1+02501+00901999999ADDMA1101691999999REMMET045METAR SBQV 302100Z 11007KT CAVOK 25/09 Q1017;
0072833440999992012043022004-14950-040883FM-15+0914SBQV V0201001N002619999999Y0099001N1+02401+01001999999ADDMA1101691999999REMMET045METAR SBQV 302200Z 10005KT CAVOK 24/10 Q1017;
0120833440999992012050111004-14950-040883FM-15+0914SBQV V0200501N003612200019N0112651N1+02201+01801999999ADDGA1021+003001999GF102991999999999999999999MA1102001999999REMMET051METAR SBQV 011100Z 05007KT 9999 FEW010 22/18 Q1020;
0120833440999992012050112004-14950-040883FM-15+0914SBQV V0200301N005112200019N0112651N1+02301+01801999999ADDGA1021+004501999GF102991999999999999999999MA1102001999999REMMET051METAR SBQV 011200Z 03010KT 9999 FEW015 23/18 Q1020;
0120833440999992012050113004-14950-040883FM-15+0914SBQV V0200501N003612200019N0112651N1+02601+01701999999ADDGA1021+004801999GF102991999999999999999999MA1102001999999REMMET051METAR SBQV 011300Z 05007KT 9999 FEW016 26/17 Q1020;
0120833440999992012050114004-14950-040883FM-15+0914SBQV V0201201N002112200019N0112651N1+02701+01501999999ADDGA1041+005401999GF104991999999999999999999MA1101901999999REMMET051METAR SBQV 011400Z 12004KT 9999 SCT018 27/15 Q1019;
0120833440999992012050115004-14950-040883FM-15+0914SBQV V0203101N001512200019N0112651N1+02901+01301999999ADDGA1041+006001999GF104991999999999999999999MA1101801999999REMMET051METAR SBQV 011500Z 31003KT 9999 SCT020 29/13 Q1018;
0120833440999992012050116004-14950-040883FM-15+0914SBQV V0203101N002112200019N0112651N1+03001+01201999999ADDGA1021+009001999GF102991999999999999999999MA1101691999999REMMET051METAR SBQV 011600Z 31004KT 9999 FEW030 30/12 Q1017;
0120833440999992012050117004-14950-040883FM-15+0914SBQV V0203301N001512200019N0112651N1+03101+01001999999ADDGA1021+010501999GF102991999999999999999999MA1101591999999REMMET051METAR SBQV 011700Z 33003KT 9999 FEW035 31/10 Q1016;
0120833440999992012050118004-14950-040883FM-15+0914SBQV V0201301N001512200019N0112651N1+03101+01001999999ADDGA1021+010501999GF102991999999999999999999MA1101491999999REMMET051METAR SBQV 011800Z 13003KT 9999 FEW035 31/10 Q1015;
0120833440999992012050120004-14950-040883FM-15+0914SBQV V0201101N004612200019N0112651N1+02801+01101999999ADDGA1021+009001999GF102991999999999999999999MA1101591999999REMMET051METAR SBQV 012000Z 11009KT 9999 FEW030 28/11 Q1016;
0120833440999992012050121004-14950-040883FM-15+0914SBQV V0200901N003612200019N0112651N1+02601+01101999999ADDGA1021+006001999GF102991999999999999999999MA1101691999999REMMET051METAR SBQV 012100Z 09007KT 9999 FEW020 26/11 Q1017;
0072833440999992012050122004-14950-040883FM-15+0914SBQV V0200701N003119999999Y0099001N1+02401+01201999999ADDMA1101691999999REMMET045METAR SBQV 012200Z 07006KT CAVOK 24/12 Q1017;
0120833440999992012050211004-14950-040883FM-15+0914SBQV V0201101N002112200019N0112651N1+02001+01701999999ADDGA1021+002701999GF102991999999999999999999MA1102201999999REMMET051METAR SBQV 021100Z 11004KT 9999 FEW009 20/17 Q1022;
0120833440999992012050212004-14950-040883FM-15+0914SBQV V0200901N004612200019N0112651N1+02401+01301999999ADDGA1021+004501999GF102991999999999999999999MA1102201999999REMMET051METAR SBQV 021200Z 09009KT 9999 FEW015 24/13 Q1022;
0120833440999992012050213004-14950-040883FM-15+0914SBQV V0201101N005712200019N0112651N1+02601+01201999999ADDGA1021+004501999GF102991999999999999999999MA1102201999999REMMET051METAR SBQV 021300Z 11011KT 9999 FEW015 26/12 Q1022;
0120833440999992012050214004-14950-040883FM-15+0914SBQV V0201001N004612200019N0112651N1+02701+01401999999ADDGA1021+006001999GF102991999999999999999999MA1102101999999REMMET051METAR SBQV 021400Z 10009KT 9999 FEW020 27/14 Q1021;
0120833440999992012050215004-14950-040883FM-15+0914SBQV V0201001N004112200019N0112651N1+02701+01401999999ADDGA1021+009001999GF102991999999999999999999MA1102001999999REMMET051METAR SBQV 021500Z 10008KT 9999 FEW030 27/14 Q1020;
0120833440999992012050216004-14950-040883FM-15+0914SBQV V0201501N005712200019N0112651N1+02701+01401999999ADDGA1021+010501999GF102991999999999999999999MA1102001999999REMMET051METAR SBQV 021600Z 15011KT 9999 FEW035 27/14 Q1020;
0120833440999992012050217004-14950-040883FM-15+0914SBQV V0201301N006212200019N0112651N1+02701+01501999999ADDGA1021+010501999GF102991999999999999999999MA1101901999999REMMET051METAR SBQV 021700Z 13012KT 9999 FEW035 27/15 Q1019;
0120833440999992012050219004-14950-040883FM-15+0914SBQV V0201401N004612200019N0112651N1+02701+01401999999ADDGA1021+010501999GF102991999999999999999999MA1101901999999REMMET051METAR SBQV 021900Z 14009KT 9999 FEW035 27/14 Q1019;
0120833440999992012050220004-14950-040883FM-15+0914SBQV V0201201N007212200019N0112651N1+02501+01501999999ADDGA1021+009001999GF102991999999999999999999MA1101901999999REMMET051METAR SBQV 022000Z 12014KT 9999 FEW030 25/15 Q1019;
0120833440999992012050221004-14950-040883FM-15+0914SBQV V0201301N005712200019N0112651N1+02301+01701999999ADDGA1021+005401999GF102991999999999999999999MA1102001999999REMMET051METAR SBQV 022100Z 13011KT 9999 FEW018 23/17 Q1020;
0120833440999992012050222004-14950-040883FM-15+0914SBQV V0201201N006212200019N0112651N1+02201+01701999999ADDGA1021+004801999GF102991999999999999999999MA1102101999999REMMET051METAR SBQV 022200Z 12012KT 9999 FEW016 22/17 Q1021;
0120833440999992012050311004-14950-040883FM-15+0914SBQV V0201301N005710039019N0112651N1+02001+01701999999ADDGA1071+003901999GF107991999999999999999999MA1102301999999REMMET051METAR SBQV 031100Z 13011KT 9999 BKN013 20/17 Q1023;
0160833440999992012050312004-14950-040883FM-15+0914SBQV V0201301N006210039019N0112651N1+02001+01801999999ADDGA1021+002101999GA2071+003901999GF107991999999999999999999MA1102401999999MW1511REMMET069METAR SBQV 031200Z 13012KT 9999 4000SE -DZ FEW007 BKN013 20/18 Q1024;
0143833440999992012050313004-14950-040883FM-15+0914SBQV V0201201N005712200019N0112651N1+02101+01701999999ADDGA1041+003901999GA2041+004501999GF104991999999999999999999MA1102401999999REMMET058METAR SBQV 031300Z 12011KT 9999 SCT013 SCT015 21/17 Q1024;
0136833440999992012050314004-14950-040883FM-15+0914SBQV V0201301N00621004801CN0112651N1+02301+01801999999ADDGA1071+004801999GA2041+021001999MA1102301999999REMMET058METAR SBQV 031400Z 13012KT 9999 BKN016 SCT070 23/18 Q1023;EQDQ01+000042SCOTCV
0120833440999992012050315004-14950-040883FM-15+0914SBQV V0201301N005710054019N0112651N1+02401+01701999999ADDGA1071+005401999GF107991999999999999999999MA1102201999999REMMET051METAR SBQV 031500Z 13011KT 9999 BKN018 24/17 Q1022;
0120833440999992012050316004-14950-040883FM-15+0914SBQV V0201301N007212200019N0112651N1+02601+01601999999ADDGA1041+006001999GF104991999999999999999999MA1102101999999REMMET051METAR SBQV 031600Z 13014KT 9999 SCT020 26/16 Q1021;
0120833440999992012050317004-14950-040883FM-15+0914SBQV V0201201N006210060019N0112651N1+02601+01501999999ADDGA1071+006001999GF107991999999999999999999MA1102001999999REMMET051METAR SBQV 031700Z 12012KT 9999 BKN020 26/15 Q1020;
0120833440999992012050318004-14950-040883FM-15+0914SBQV V0201201N006710060019N0112651N1+02401+01601999999ADDGA1071+006001999GF107991999999999999999999MA1102001999999REMMET051METAR SBQV 031800Z 12013KT 9999 BKN020 24/16 Q1020;
0143833440999992012050319004-14950-040883FM-15+0914SBQV V0201001N005112200019N0112651N1+02301+01801999999ADDGA1021+001801999GA2041+005401999GF104991999999999999999999MA1102101999999REMMET058METAR SBQV 031900Z 10010KT 9999 FEW006 SCT018 23/18 Q1021;
0143833440999992012050320004-14950-040883FM-15+0914SBQV V0201001N004612200019N0112651N1+02101+01801999999ADDGA1041+001801999GA2041+004501999GF104991999999999999999999MA1102101999999REMMET058METAR SBQV 032000Z 10009KT 9999 SCT006 SCT015 21/18 Q1021;
0153833440999992012050321004-14950-040883FM-15+0914SBQV V0201301N005710024019N0112651N1+02001+01901999999ADDGA1021+001801999GA2071+002401999GF107991999999999999999999MA1102101999999MW1511REMMET062METAR SBQV 032100Z 13011KT 9999 -DZ FEW006 BKN008 20/19 Q1021;
0131833440999992012050322004-14950-040883FM-15+0914SBQV V0201301N007210015019N0112651N1+01801+01801999999ADDGA1071+001501999GF107991999999999999999999MA1102301999999OC101231REMMET054METAR SBQV 032200Z 13014G24KT 9999 BKN005 18/18 Q1023;
0143833440999992012050411004-14950-040883FM-15+0914SBQV V0201301N005112200019N0112651N1+01701+01701999999ADDGA1021+002101999GA2041+002401999GF104991999999999999999999MA1102301999999REMMET058METAR SBQV 041100Z 13010KT 9999 FEW007 SCT008 17/17 Q1023;
0143833440999992012050412004-14950-040883FM-15+0914SBQV V0201301N006210024019N0112651N1+01901+01801999999ADDGA1021+002101999GA2071+002401999GF107991999999999999999999MA1102511999999REMMET058METAR SBQV 041200Z 13012KT 9999 FEW007 BKN008 19/18 Q1025;
0120833440999992012050413004-14950-040883FM-15+0914SBQV V0201101N006210027019N0112651N1+02001+01701999999ADDGA1071+002701999GF107991999999999999999999MA1102511999999REMMET051METAR SBQV 041300Z 11012KT 9999 BKN009 20/17 Q1025;
0120833440999992012050414004-14950-040883FM-15+0914SBQV V0201001N006712200019N0112651N1+02201+01701999999ADDGA1041+003901999GF104991999999999999999999MA1102401999999REMMET051METAR SBQV 041400Z 10013KT 9999 SCT013 22/17 Q1024;
0120833440999992012050415004-14950-040883FM-15+0914SBQV V0201101N005710048019N0112651N1+02301+01601999999ADDGA1071+004801999GF107991999999999999999999MA1102301999999REMMET051METAR SBQV 041500Z 11011KT 9999 BKN016 23/16 Q1023;
0072833440999992012050416004-14950-040883FM-15+0914SBQV V0200901N005719999999Y0099001N1+02201+01701999999ADDMA1102201999999REMMET045METAR SBQV 041600Z 09011KT CAVOK 22/17 Q1022;
0120833440999992012050417004-14950-040883FM-15+0914SBQV V0201301N005712200019N0112651N1+02201+01801999999ADDGA1021+004801999GF102991999999999999999999MA1102101999999REMMET051METAR SBQV 041700Z 13011KT 9999 FEW016 22/18 Q1021;
0120833440999992012050418004-14950-040883FM-15+0914SBQV V0201301N006212200019N0112651N1+02401+01701999999ADDGA1021+006001999GF102991999999999999999999MA1102001999999REMMET051METAR SBQV 041800Z 13012KT 9999 FEW020 24/17 Q1020;
0120833440999992012050419004-14950-040883FM-15+0914SBQV V0201301N006212200019N0112651N1+02301+01701999999ADDGA1041+005401999GF104991999999999999999999MA1102001999999REMMET051METAR SBQV 041900Z 13012KT 9999 SCT018 23/17 Q1020;
0120833440999992012050420004-14950-040883FM-15+0914SBQV V0201301N006212200019N0112651N1+02101+01701999999ADDGA1041+004801999GF104991999999999999999999MA1102101999999REMMET051METAR SBQV 042000Z 13012KT 9999 SCT016 21/17 Q1021;
0153833440999992012050421004-14950-040883FM-15+0914SBQV V0201001N004110033019N0112651N1+02001+01701999999ADDGA1041+001801999GA2071+003301999GF107991999999999999999999MA1102101999999MW1511REMMET062METAR SBQV 042100Z 10008KT 9999 -DZ SCT006 BKN011 20/17 Q1021;
0153833440999992012050422004-14950-040883FM-15+0914SBQV V0201101N005710030019N0090001N1+01901+01801999999ADDGA1041+001501999GA2071+003001999GF107991999999999999999999MA1102201999999MW1511REMMET062METAR SBQV 042200Z 11011KT 9000 -DZ SCT005 BKN010 19/18 Q1022;
0143833440999992012050511004-14950-040883FM-15+0914SBQV V0201401N004610030019N0090001N1+01801+01801999999ADDGA1021+001801999GA2081+003001999GF108991999999999999999999MA1102201999999REMMET058METAR SBQV 051100Z 14009KT 9000 FEW006 OVC010 18/18 Q1022;
0143833440999992012050512004-14950-040883FM-15+0914SBQV V0201301N004610033019N0112651N1+01901+01801999999ADDGA1041+002101999GA2071+003301999GF107991999999999999999999MA1102301999999REMMET058METAR SBQV 051200Z 13009KT 9999 SCT007 BKN011 19/18 Q1023;
0143833440999992012050513004-14950-040883FM-15+0914SBQV V0201101N004612200019N0112651N1+02101+01701999999ADDGA1041+003901999GA2041+004501999GF104991999999999999999999MA1102301999999REMMET058METAR SBQV 051300Z 11009KT 9999 SCT013 SCT015 21/17 Q1023;
0143833440999992012050514004-14950-040883FM-15+0914SBQV V0201201N004112200019N0112651N1+02001+01801999999ADDGA1041+003901999GA2041+004501999GF104991999999999999999999MA1102201999999REMMET058METAR SBQV 051400Z 12008KT 9999 SCT013 SCT015 20/18 Q1022;
0143833440999992012050515004-14950-040883FM-15+0914SBQV V0201001N004110210019N0112651N1+02201+01601999999ADDGA1041+004801999GA2071+021001999GF107991999999999999999999MA1102201999999REMMET058METAR SBQV 051500Z 10008KT 9999 SCT016 BKN070 22/16 Q1022;
0143833440999992012050516004-14950-040883FM-15+0914SBQV V0201301N004610210019N0112651N1+02301+01701999999ADDGA1041+004801999GA2071+021001999GF107991999999999999999999MA1102101999999REMMET058METAR SBQV 051600Z 13009KT 9999 SCT016 BKN070 23/17 Q1021;
0143833440999992012050517004-14950-040883FM-15+0914SBQV V0201401N004610210019N0112651N1+02301+01601999999ADDGA1041+004801999GA2071+021001999GF107991999999999999999999MA1102001999999REMMET058METAR SBQV 051700Z 14009KT 9999 SCT016 BKN070 23/16 Q1020;
0143833440999992012050518004-14950-040883FM-15+0914SBQV V0201101N004110210019N0112651N1+02401+01601999999ADDGA1041+004801999GA2071+021001999GF107991999999999999999999MA1102001999999REMMET058METAR SBQV 051800Z 11008KT 9999 SCT016 BKN070 24/16 Q1020;
0143833440999992012050519004-14950-040883FM-15+0914SBQV V0201401N004110210019N0112651N1+02301+01701999999ADDGA1021+004801999GA2071+021001999GF107991999999999999999999MA1102001999999REMMET058METAR SBQV 051900Z 14008KT 9999 FEW016 BKN070 23/17 Q1020;
0143833440999992012050520004-14950-040883FM-15+0914SBQV V0201401N004110210019N0112651N1+02201+01601999999ADDGA1021+004801999GA2071+021001999GF107991999999999999999999MA1102001999999REMMET058METAR SBQV 052000Z 14008KT 9999 FEW016 BKN070 22/16 Q1020;
0143833440999992012050521004-14950-040883FM-15+0914SBQV V0201301N003112200019N0112651N1+02001+01701999999ADDGA1021+004501999GA2041+021001999GF104991999999999999999999MA1102001999999REMMET058METAR SBQV 052100Z 13006KT 9999 FEW015 SCT070 20/17 Q1020;
0120833440999992012050522004-14950-040883FM-15+0914SBQV V0201301N002112200019N0112651N1+02101+01701999999ADDGA1041+004501999GF104991999999999999999999MA1102001999999REMMET051METAR SBQV 052200Z 13004KT 9999 SCT015 21/17 Q1020;
0143833440999992012050601004-14950-040883FM-15+0914SBQV V0201301N003112200019N0112651N1+01901+01801999999ADDGA1021+003901999GA2041+021001999GF104991999999999999999999MA1102101999999REMMET058METAR SBQV 060100Z 13006KT 9999 FEW013 SCT070 19/18 Q1021;
0120833440999992012050611004-14950-040883FM-15+0914SBQV V0201201N004112200019N0112651N1+02001+01801999999ADDGA1041+002701999GF104991999999999999999999MA1102101999999REMMET051METAR SBQV 061100Z 12008KT 9999 SCT009 20/18 Q1021;
0120833440999992012050612004-14950-040883FM-15+0914SBQV V0201301N005712200019N0112651N1+02101+01701999999ADDGA1041+005401999GF104991999999999999999999MA1102201999999REMMET051METAR SBQV 061200Z 13011KT 9999 SCT018 21/17 Q1022;
0120833440999992012050613004-14950-040883FM-15+0914SBQV V0201401N005112200019N0112651N1+02401+01701999999ADDGA1021+006001999GF102991999999999999999999MA1102201999999REMMET051METAR SBQV 061300Z 14010KT 9999 FEW020 24/17 Q1022;
0120833440999992012050614004-14950-040883FM-15+0914SBQV V0201401N005112200019N0112651N1+02401+01601999999ADDGA1041+006001999GF104991999999999999999999MA1102101999999REMMET051METAR SBQV 061400Z 14010KT 9999 SCT020 24/16 Q1021;
0120833440999992012050615004-14950-040883FM-15+0914SBQV V0201201N004110060019N0112651N1+02501+01601999999ADDGA1071+006001999GF107991999999999999999999MA1102001999999REMMET051METAR SBQV 061500Z 12008KT 9999 BKN020 25/16 Q1020;
0120833440999992012050616004-14950-040883FM-15+0914SBQV V0201201N003610060019N0112651N1+02601+01501999999ADDGA1071+006001999GF107991999999999999999999MA1102001999999REMMET051METAR SBQV 061600Z 12007KT 9999 BKN020 26/15 Q1020;
0120833440999992012050617004-14950-040883FM-15+0914SBQV V0201301N005712200019N0112651N1+02601+01601999999ADDGA1021+006001999GF102991999999999999999999MA1101901999999REMMET051METAR SBQV 061700Z 13011KT 9999 FEW020 26/16 Q1019;
0120833440999992012050618004-14950-040883FM-15+0914SBQV V0201201N004612200019N0112651N1+02601+01401999999ADDGA1021+006001999GF102991999999999999999999MA1101801999999REMMET051METAR SBQV 061800Z 12009KT 9999 FEW020 26/14 Q1018;
0120833440999992012050619004-14950-040883FM-15+0914SBQV V0201101N004112200019N0112651N1+02501+01401999999ADDGA1021+006001999GF102991999999999999999999MA1101801999999REMMET051METAR SBQV 061900Z 11008KT 9999 FEW020 25/14 Q1018;
0120833440999992012050620004-14950-040883FM-15+0914SBQV V0201101N004612200019N0112651N1+02401+01501999999ADDGA1021+006001999GF102991999999999999999999MA1101901999999REMMET051METAR SBQV 062000Z 11009KT 9999 FEW020 24/15 Q1019;
0120833440999992012050621004-14950-040883FM-15+0914SBQV V0201101N004112200019N0112651N1+02201+01601999999ADDGA1021+006001999GF102991999999999999999999MA1102001999999REMMET051METAR SBQV 062100Z 11008KT 9999 FEW020 22/16 Q1020;
0072833440999992012050622004-14950-040883FM-15+0914SBQV V0201101N003119999999Y0099001N1+02101+01701999999ADDMA1102001999999REMMET045METAR SBQV 062200Z 11006KT CAVOK 21/17 Q1020;
0120833440999992012050623004-14950-040883FM-15+0914SBQV V0201101N003112200019N0112651N1+02001+01601999999ADDGA1021+005401999GF102991999999999999999999MA1102101999999REMMET051METAR SBQV 062300Z 11006KT 9999 FEW018 20/16 Q1021;
0120833440999992012050711004-14950-040883FM-15+0914SBQV V0201301N004610030019N0112651N1+02001+01701999999ADDGA1071+003001999GF107991999999999999999999MA1102301999999REMMET051METAR SBQV 071100Z 13009KT 9999 BKN010 20/17 Q1023;
0143833440999992012050712004-14950-040883FM-15+0914SBQV V0201301N006210024019N0112651N1+01901+01801999999ADDGA1071+002401999GA2071+003301999GF107991999999999999999999MA1102401999999REMMET058METAR SBQV 071200Z 13012KT 9999 BKN008 BKN011 19/18 Q1024;
0143833440999992012050713004-14950-040883FM-15+0914SBQV V0201301N005710045019N0112651N1+02101+01701999999ADDGA1041+003301999GA2071+004501999GF107991999999999999999999MA1102401999999REMMET058METAR SBQV 071300Z 13011KT 9999 SCT011 BKN015 21/17 Q1024;
0120833440999992012050714004-14950-040883FM-15+0914SBQV V0201201N006210048019N0112651N1+02201+01801999999ADDGA1071+004801999GF107991999999999999999999MA1102301999999REMMET051METAR SBQV 071400Z 12012KT 9999 BKN016 22/18 Q1023;
0120833440999992012050715004-14950-040883FM-15+0914SBQV V0201301N006210060019N0112651N1+02401+01701999999ADDGA1071+006001999GF107991999999999999999999MA1102201999999REMMET051METAR SBQV 071500Z 13012KT 9999 BKN020 24/17 Q1022;
0120833440999992012050716004-14950-040883FM-15+0914SBQV V0201401N005710060019N0112651N1+02501+01701999999ADDGA1071+006001999GF107991999999999999999999MA1102201999999REMMET051METAR SBQV 071600Z 14011KT 9999 BKN020 25/17 Q1022;
0120833440999992012050717004-14950-040883FM-15+0914SBQV V0201401N005710075019N0112651N1+02601+01601999999ADDGA1071+007501999GF107991999999999999999999MA1102101999999REMMET051METAR SBQV 071700Z 14011KT 9999 BKN025 26/16 Q1021;
0120833440999992012050718004-14950-040883FM-15+0914SBQV V0201401N005710075019N0112651N1+02501+01701999999ADDGA1071+007501999GF107991999999999999999999MA1102101999999REMMET051METAR SBQV 071800Z 14011KT 9999 BKN025 25/17 Q1021;
0143833440999992012050719004-14950-040883FM-15+0914SBQV V0201301N004110240019N0112651N1+02401+01701999999ADDGA1021+007501999GA2071+024001999GF107991999999999999999999MA1102101999999REMMET058METAR SBQV 071900Z 13008KT 9999 FEW025 BKN080 24/17 Q1021;
0143833440999992012050720004-14950-040883FM-15+0914SBQV V0201201N007712200019N0112651N1+02101+01801999999ADDGA1041+004501999GA2041+021001999GF104991999999999999999999MA1102101999999REMMET058METAR SBQV 072000Z 12015KT 9999 SCT015 SCT070 21/18 Q1021;
0137833440999992012050721004-14950-040883FM-15+0914SBQV V0201301N005710015019N0112651N1+01901+01801999999ADDGA1071+001501999GF107991999999999999999999MA1102201999999MW1511REMMET062METAR SBQV 072100Z 13011KT 9999 4000SE -DZ BKN005 19/18 Q1022;
0137833440999992012050722004-14950-040883FM-15+0914SBQV V0201301N005710015019N0112651N1+01801+01801999999ADDGA1081+001501999GF108991999999999999999999MA1102301999999MW1511REMMET062METAR SBQV 072200Z 13011KT 9999 3000SE -DZ OVC005 18/18 Q1023;
0145833440999992012050811004-14950-040883FM-15+0914SBQV V0201401N00571001501CN0045001N1+01701+01701999999ADDGA1071+001501999GA2041+002101999MA1102401999999MW1101REMMET061METAR SBQV 081100Z 14011KT 4500 BR BKN005 SCT007 17/17 Q1024;EQDQ01+000042SCOTCV
0147833440999992012050812004-14950-040883FM-15+0914SBQV V0201301N00571001801CN0112651N1+01801+01801999999ADDGA1071+001801999GA2041+002701999MA1102401999999MW1161REMMET063METAR SBQV 081200Z 13011KT 9999 VCSH BKN006 SCT009 18/18 Q1024;EQDQ01+000042SCOTCV
0143833440999992012050813004-14950-040883FM-15+0914SBQV V0201301N005710030019N0112651N1+02001+01801999999ADDGA1021+001801999GA2071+003001999GF107991999999999999999999MA1102401999999REMMET058METAR SBQV 081300Z 13011KT 9999 FEW006 BKN010 20/18 Q1024;
0143833440999992012050814004-14950-040883FM-15+0914SBQV V0201301N006210033019N0112651N1+02101+01801999999ADDGA1041+002101999GA2071+003301999GF107991999999999999999999MA1102401999999REMMET058METAR SBQV 081400Z 13012KT 9999 SCT007 BKN011 21/18 Q1024;
0120833440999992012050815004-14950-040883FM-15+0914SBQV V0201301N006710033019N0112651N1+02101+01701999999ADDGA1071+003301999GF107991999999999999999999MA1102301999999REMMET051METAR SBQV 081500Z 13013KT 9999 BKN011 21/17 Q1023;
0120833440999992012050816004-14950-040883FM-15+0914SBQV V0201601N005110033019N0112651N1+02001+01801999999ADDGA1071+003301999GF107991999999999999999999MA1102201999999REMMET051METAR SBQV 081600Z 16010KT 9999 BKN011 20/18 Q1022;
0120833440999992012050817004-14950-040883FM-15+0914SBQV V0201401N006710036019N0112651N1+02101+01801999999ADDGA1071+003601999GF107991999999999999999999MA1102101999999REMMET051METAR SBQV 081700Z 14013KT 9999 BKN012 21/18 Q1021;
0143833440999992012050818004-14950-040883FM-15+0914SBQV V0201301N006710039019N0112651N1+02101+01501999999ADDGA1021+003001999GA2071+003901999GF107991999999999999999999MA1102101999999REMMET058METAR SBQV 081800Z 13013KT 9999 FEW010 BKN013 21/15 Q1021;
0143833440999992012050819004-14950-040883FM-15+0914SBQV V0201401N005110039019N0112651N1+02101+01801999999ADDGA1021+003001999GA2071+003901999GF107991999999999999999999MA1102101999999REMMET058METAR SBQV 081900Z 14010KT 9999 FEW010 BKN013 21/18 Q1021;
0136833440999992012050820004-14950-040883FM-15+0914SBQV V0201301N00511003001CN0112651N1+02001+01801999999ADDGA1071+003001999GA2021+003001999MA1102101999999REMMET058METAR SBQV 082000Z 13010KT 9999 BKN010 FEW010 20/18 Q1021;EQDQ01+000022SCOTCV
0137833440999992012050821004-14950-040883FM-15+0914SBQV V0201301N004110018019N0112651N1+01901+01801999999ADDGA1071+001801999GF107991999999999999999999MA1102101999999MW1511REMMET062METAR SBQV 082100Z 13008KT 9999 3000SE -DZ BKN006 19/18 Q1021;
0120833440999992012050822004-14950-040883FM-15+0914SBQV V0201501N005110015019N0112651N1+01801+01801999999ADDGA1071+001501999GF107991999999999999999999MA1102101999999REMMET051METAR SBQV 082200Z 15010KT 9999 BKN005 18/18 Q1021;
0130833440999992012050911004-14950-040883FM-15+0914SBQV V0201301N004610015019N0030001N1+01801+01801999999ADDGA1081+001501999GF108991999999999999999999MA1102101999999MW1511REMMET055METAR SBQV 091100Z 13009KT 3000 -DZ OVC005 18/18 Q1021;
0130833440999992012050912004-14950-040883FM-15+0914SBQV V0201301N005110015019N0040001N1+01901+01901999999ADDGA1081+001501999GF108991999999999999999999MA1102201999999MW1511REMMET055METAR SBQV 091200Z 13010KT 4000 -DZ OVC005 19/19 Q1022;
0143833440999992012050913004-14950-040883FM-15+0914SBQV V0201301N006710039019N0112651N1+02201+01801999999ADDGA1041+001801999GA2071+003901999GF107991999999999999999999MA1102201999999REMMET058METAR SBQV 091300Z 13013KT 9999 SCT006 BKN013 22/18 Q1022;
0153833440999992012050914004-14950-040883FM-15+0914SBQV V0201301N006210018019N0050001N1+02101+01901999999ADDGA1071+001801999GA2071+003301999GF107991999999999999999999MA1102101999999MW1511REMMET062METAR SBQV 091400Z 13012KT 5000 -DZ BKN006 BKN011 21/19 Q1021;
0153833440999992012050915004-14950-040883FM-15+0914SBQV V0201401N005710018019N0080001N1+02001+01901999999ADDGA1071+001801999GA2071+003001999GF107991999999999999999999MA1102001999999MW1511REMMET062METAR SBQV 091500Z 14011KT 8000 -DZ BKN006 BKN010 20/19 Q1020;
0143833440999992012050916004-14950-040883FM-15+0914SBQV V0201301N006712200019N0112651N1+02301+01801999999ADDGA1041+003301999GA2041+004501999GF104991999999999999999999MA1102001999999REMMET058METAR SBQV 091600Z 13013KT 9999 SCT011 SCT015 23/18 Q1020;
0143833440999992012050917004-14950-040883FM-15+0914SBQV V0201301N005110039019N0112651N1+02201+01801999999ADDGA1041+002101999GA2071+003901999GF107991999999999999999999MA1101901999999REMMET058METAR SBQV 091700Z 13010KT 9999 SCT007 BKN013 22/18 Q1019;
0143833440999992012050918004-14950-040883FM-15+0914SBQV V0201301N005110045019N0112651N1+02201+01801999999ADDGA1021+003901999GA2071+004501999GF107991999999999999999999MA1101801999999REMMET058METAR SBQV 091800Z 13010KT 9999 FEW013 BKN015 22/18 Q1018;
0143833440999992012050919004-14950-040883FM-15+0914SBQV V0201301N006710045019N0112651N1+02101+01801999999ADDGA1021+003901999GA2071+004501999GF107991999999999999999999MA1101901999999REMMET058METAR SBQV 091900Z 13013KT 9999 FEW013 BKN015 21/18 Q1019;
0141833440999992012050920004-14950-040883FM-15+0914SBQV V0201201N006210015019N0030001N1+01901+01901999999ADDGA1071+001501999GF107991999999999999999999MA1101901999999MW1511REMMET066METAR SBQV 092000Z 12012KT 3000 1000N -DZ BKN005 19/19 Q1019 REDZ;
0137833440999992012050921004-14950-040883FM-15+0914SBQV V0201301N005710012019N0070001N1+01801+01801999999ADDGA1081+001201999GF108991999999999999999999MA1101901999999MW1511REMMET062METAR SBQV 092100Z 13011KT 7000 1000SE -DZ OVC004 18/18 Q1019;
0120833440999992012050922004-14950-040883FM-15+0914SBQV V0201301N006210012019N0112651N1+01801+01801999999ADDGA1081+001201999GF108991999999999999999999MA1102001999999REMMET051METAR SBQV 092200Z 13012KT 9999 OVC004 18/18 Q1020;
0120833440999992012051011004-14950-040883FM-15+0914SBQV V0201101N004110018019N0112651N1+01801+01801999999ADDGA1071+001801999GF107991999999999999999999MA1102001999999REMMET051METAR SBQV 101100Z 11008KT 9999 BKN006 18/18 Q1020;
0130833440999992012051012004-14950-040883FM-15+0914SBQV V0201301N003610018019N0090001N1+01901+01901999999ADDGA1081+001801999GF108991999999999999999999MA1102101999999MW1511REMMET055METAR SBQV 101200Z 13007KT 9000 -DZ OVC006 19/19 Q1021;
0143833440999992012051013004-14950-040883FM-15+0914SBQV V0201401N003610024019N0112651N1+02001+01901999999ADDGA1071+002401999GA2071+003001999GF107991999999999999999999MA1102101999999REMMET058METAR SBQV 101300Z 14007KT 9999 BKN008 BKN010 20/19 Q1021;
0120833440999992012051014004-14950-040883FM-15+0914SBQV V0201201N003610039019N0112651N1+02101+01801999999ADDGA1071+003901999GF107991999999999999999999MA1102001999999REMMET051METAR SBQV 101400Z 12007KT 9999 BKN013 21/18 Q1020;
0143833440999992012051015004-14950-040883FM-15+0914SBQV V0201301N003610045019N0112651N1+02201+01801999999ADDGA1041+003901999GA2071+004501999GF107991999999999999999999MA1101901999999REMMET058METAR SBQV 101500Z 13007KT 9999 SCT013 BKN015 22/18 Q1019;
0120833440999992012051016004-14950-040883FM-15+0914SBQV V0201401N003110048019N0112651N1+02301+01801999999ADDGA1071+004801999GF107991999999999999999999MA1101801999999REMMET051METAR SBQV 101600Z 14006KT 9999 BKN016 23/18 Q1018;
0120833440999992012051017004-14950-040883FM-15+0914SBQV V0201201N005112200019N0112651N1+02401+01901999999ADDGA1041+006001999GF104991999999999999999999MA1101801999999REMMET051METAR SBQV 101700Z 12010KT 9999 SCT020 24/19 Q1018;
0120833440999992012051018004-14950-040883FM-15+0914SBQV V0201301N004112200019N0112651N1+02401+01901999999ADDGA1021+006001999GF102991999999999999999999MA1101691999999REMMET051METAR SBQV 101800Z 13008KT 9999 FEW020 24/19 Q1017;
0120833440999992012051019004-14950-040883FM-15+0914SBQV V0201301N005112200019N0112651N1+02301+01901999999ADDGA1021+005401999GF102991999999999999999999MA1101801999999REMMET051METAR SBQV 101900Z 13010KT 9999 FEW018 23/19 Q1018;
0120833440999992012051020004-14950-040883FM-15+0914SBQV V0201001N005112200019N0112651N1+02201+01801999999ADDGA1021+004801999GF102991999999999999999999MA1101801999999REMMET051METAR SBQV 102000Z 10010KT 9999 FEW016 22/18 Q1018;
0120833440999992012051021004-14950-040883FM-15+0914SBQV V0201101N004112200019N0112651N1+02001+01801999999ADDGA1021+004501999GF102991999999999999999999MA1101801999999REMMET051METAR SBQV 102100Z 11008KT 9999 FEW015 20/18 Q1018;
0072833440999992012051022004-14950-040883FM-15+0914SBQV V0201101N003619999999Y0099001N1+01901+01801999999ADDMA1101901999999REMMET045METAR SBQV 102200Z 11007KT CAVOK 19/18 Q1019;
0120833440999992012051111004-14950-040883FM-15+0914SBQV V0200901N003112200019N0112651N1+02101+01801999999ADDGA1021+004501999GF102991999999999999999999MA1102001999999REMMET051METAR SBQV 111100Z 09006KT 9999 FEW015 21/18 Q1020;
0120833440999992012051112004-14950-040883FM-15+0914SBQV V0200601N004112200019N0112651N1+02401+01701999999ADDGA1021+007501999GF102991999999999999999999MA1102101999999REMMET051METAR SBQV 111200Z 06008KT 9999 FEW025 24/17 Q1021;
0120833440999992012051113004-14950-040883FM-15+0914SBQV V0200701N001512200019N0112651N1+02601+01801999999ADDGA1041+007501999GF104991999999999999999999MA1102101999999REMMET051METAR SBQV 111300Z 07003KT 9999 SCT025 26/18 Q1021;
0120833440999992012051114004-14950-040883FM-15+0914SBQV V0202501N001512200019N0112651N1+02701+01701999999ADDGA1041+007501999GF104991999999999999999999MA1102001999999REMMET051METAR SBQV 111400Z 25003KT 9999 SCT025 27/17 Q1020;
0120833440999992012051115004-14950-040883FM-15+0914SBQV V0201801N003110075019N0112651N1+02701+01701999999ADDGA1071+007501999GF107991999999999999999999MA1101901999999REMMET051METAR SBQV 111500Z 18006KT 9999 BKN025 27/17 Q1019;
0120833440999992012051116004-14950-040883FM-15+0914SBQV V0201001N002112200019N0112651N1+02801+01701999999ADDGA1021+009001999GF102991999999999999999999MA1101801999999REMMET051METAR SBQV 111600Z 10004KT 9999 FEW030 28/17 Q1018;
0120833440999992012051117004-14950-040883FM-15+0914SBQV V0201101N003610090019N0112651N1+02801+01601999999ADDGA1071+009001999GF107991999999999999999999MA1101691999999REMMET051METAR SBQV 111700Z 11007KT 9999 BKN030 28/16 Q1017;
0120833440999992012051118004-14950-040883FM-15+0914SBQV V0201101N003110090019N0112651N1+02701+01701999999ADDGA1071+009001999GF107991999999999999999999MA1101691999999REMMET051METAR SBQV 111800Z 11006KT 9999 BKN030 27/17 Q1017;
0141833440999992012051119004-14950-040883FM-15+0914SBQV V0200201N007210090019N0112651N1+02201+01901999999ADDGA1071+009001999GF107991999999999999999999MA1101691999999MW1611OC101231REMMET058METAR SBQV 111900Z 02014G24KT 9999 -RA BKN030 22/19 Q1017;
0120833440999992012051120004-14950-040883FM-15+0914SBQV V0200601N002110060019N0112651N1+02101+02001999999ADDGA1071+006001999GF107991999999999999999999MA1101801999999REMMET051METAR SBQV 112000Z 06004KT 9999 BKN020 21/20 Q1018;
0143833440999992012051122004-14950-040883FM-15+0914SBQV V0201001N002612200019N0112651N1+02101+01901999999ADDGA1041+003001999GA2021+004501999GF104991999999999999999999MA1101801999999REMMET058METAR SBQV 112200Z 10005KT 9999 FEW015 SCT010 21/19 Q1018;
0120833440999992012051211004-14950-040883FM-15+0914SBQV V0200201N004612200019N0112651N1+02001+01901999999ADDGA1041+001801999GF104991999999999999999999MA1102001999999REMMET051METAR SBQV 121100Z 02009KT 9999 SCT006 20/19 Q1020;
0120833440999992012051212004-14950-040883FM-15+0914SBQV V0200201N002612200019N0112651N1+02201+01901999999ADDGA1021+006001999GF102991999999999999999999MA1102001999999REMMET051METAR SBQV 121200Z 02005KT 9999 FEW020 22/19 Q1020;
0120833440999992012051213004-14950-040883FM-15+0914SBQV V0200401N003112200019N0112651N1+02501+01801999999ADDGA1021+007501999GF102991999999999999999999MA1101901999999REMMET051METAR SBQV 121300Z 04006KT 9999 FEW025 25/18 Q1019;
0120833440999992012051214004-14950-040883FM-15+0914SBQV V0200101N002112200019N0112651N1+02601+01701999999ADDGA1021+009001999GF102991999999999999999999MA1101901999999REMMET051METAR SBQV 121400Z 01004KT 9999 FEW030 26/17 Q1019;
0120833440999992012051215004-14950-040883FM-15+0914SBQV V0200401N003112200019N0112651N1+02801+01601999999ADDGA1021+010501999GF102991999999999999999999MA1101801999999REMMET051METAR SBQV 121500Z 04006KT 9999 FEW035 28/16 Q1018;
0120833440999992012051216004-14950-040883FM-15+0914SBQV V0200101N002612200019N0112651N1+02901+01501999999ADDGA1021+010501999GF102991999999999999999999MA1101691999999REMMET051METAR SBQV 121600Z 01005KT 9999 FEW035 29/15 Q1017;
0120833440999992012051217004-14950-040883FM-15+0914SBQV V0203201N001512200019N0112651N1+03001+01301999999ADDGA1021+010501999GF102991999999999999999999MA1101591999999REMMET051METAR SBQV 121700Z 32003KT 9999 FEW035 30/13 Q1016;
0120833440999992012051218004-14950-040883FM-15+0914SBQV V0200501N000512200019N0112651N1+02801+01201999999ADDGA1021+010501999GF102991999999999999999999MA1101491999999REMMET051METAR SBQV 121800Z 05001KT 9999 FEW035 28/12 Q1015;
0120833440999992012051219004-14950-040883FM-15+0914SBQV V0201101N003612200019N0112651N1+02701+01701999999ADDGA1021+010501999GF102991999999999999999999MA1101491999999REMMET051METAR SBQV 121900Z 11007KT 9999 FEW035 27/17 Q1015;
0120833440999992012051220004-14950-040883FM-15+0914SBQV V0200801N003612200019N0112651N1+02601+01701999999ADDGA1021+009001999GF102991999999999999999999MA1101591999999REMMET051METAR SBQV 122000Z 08007KT 9999 FEW030 26/17 Q1016;
0120833440999992012051221004-14950-040883FM-15+0914SBQV V0200901N003112200019N0112651N1+02501+01701999999ADDGA1021+006001999GF102991999999999999999999MA1101591999999REMMET051METAR SBQV 122100Z 09006KT 9999 FEW020 25/17 Q1016;
0072833440999992012051222004-14950-040883FM-15+0914SBQV V0200801N004119999999Y0099001N1+02401+01701999999ADDMA1101691999999REMMET045METAR SBQV 122200Z 08008KT CAVOK 24/17 Q1017;
0072833440999992012051304004-14950-040883FM-15+0914SBQV V0201201N002119999999Y0099001N1+02001+01901999999ADDMA1101591999999REMMET045METAR SBQV 130400Z 12004KT CAVOK 20/19 Q1016;
0072833440999992012051305004-14950-040883FM-15+0914SBQV V0201101N001519999999Y0099001N1+02001+01901999999ADDMA1101591999999REMMET045METAR SBQV 130500Z 11003KT CAVOK 20/19 Q1016;
0072833440999992012051306004-14950-040883FM-15+0914SBQV V0201201N002619999999Y0099001N1+01901+01801999999ADDMA1101591999999REMMET045METAR SBQV 130600Z 12005KT CAVOK 19/18 Q1016;
0120833440999992012051311004-14950-040883FM-15+0914SBQV V0200101N002112200019N0112651N1+02101+01801999999ADDGA1021+004501999GF102991999999999999999999MA1101801999999REMMET051METAR SBQV 131100Z 01004KT 9999 FEW015 21/18 Q1018;
0120833440999992012051312004-14950-040883FM-15+0914SBQV V0200201N005112200019N0112651N1+02301+01801999999ADDGA1021+004801999GF102991999999999999999999MA1101901999999REMMET051METAR SBQV 131200Z 02010KT 9999 FEW016 23/18 Q1019;
0072833440999992012051313004-14950-040883FM-15+0914SBQV V0200101N002619999999Y0099001N1+02601+01801999999ADDMA1101901999999REMMET045METAR SBQV 131300Z 01005KT CAVOK 26/18 Q1019;
0072833440999992012051314004-14950-040883FM-15+0914SBQV V0200101N002619999999Y0099001N1+02801+01701999999ADDMA1101801999999REMMET045METAR SBQV 131400Z 01005KT CAVOK 28/17 Q1018;
0120833440999992012051315004-14950-040883FM-15+0914SBQV V0203201N002112200019N0112651N1+02901+01501999999ADDGA1021+010501999GF102991999999999999999999MA1101691999999REMMET051METAR SBQV 131500Z 32004KT 9999 FEW035 29/15 Q1017;
0120833440999992012051316004-14950-040883FM-15+0914SBQV V0203201N001512200019N0112651N1+03001+01501999999ADDGA1021+010501999GF102991999999999999999999MA1101591999999REMMET051METAR SBQV 131600Z 32003KT 9999 FEW035 30/15 Q1016;
0120833440999992012051317004-14950-040883FM-15+0914SBQV V0200101N002112200019N0112651N1+03001+01401999999ADDGA1041+010501999GF104991999999999999999999MA1101491999999REMMET051METAR SBQV 131700Z 01004KT 9999 SCT035 30/14 Q1015;
0139833440999992012051318004-14950-040883FM-15+0914SBQV V0201201N003610090019N0112651N1+02002+01501999999ADDGA1071+009001999GF107991999999999999999999MA1101391999999REMMET051METAR SBQV 131800Z 12007KT 9999 BKN030 20/15 Q1014;EQDQ01+002003ATOT  
0120833440999992012051319004-14950-040883FM-15+0914SBQV V0201001N004612200019N0112651N1+02701+01601999999ADDGA1041+007501999GF104991999999999999999999MA1101491999999REMMET051METAR SBQV 131900Z 10009KT 9999 SCT025 27/16 Q1015;
0120833440999992012051320004-14950-040883FM-15+0914SBQV V0201001N004612200019N0112651N1+02601+01801999999ADDGA1021+006001999GF102991999999999999999999MA1101491999999REMMET051METAR SBQV 132000Z 10009KT 9999 FEW020 26/18 Q1015;
0120833440999992012051321004-14950-040883FM-15+0914SBQV V0200801N004112200019N0112651N1+02501+01701999999ADDGA1021+005401999GF102991999999999999999999MA1101591999999REMMET051METAR SBQV 132100Z 08008KT 9999 FEW018 25/17 Q1016;
0120833440999992012051322004-14950-040883FM-15+0914SBQV V0200701N004112200019N0112651N1+02401+01701999999ADDGA1021+004501999GF102991999999999999999999MA1101591999999REMMET051METAR SBQV 132200Z 07008KT 9999 FEW015 24/17 Q1016;
0120833440999992012051411004-14950-040883FM-15+0914SBQV V0200601N004612200019N0112651N1+02101+01801999999ADDGA1021+003601999GF102991999999999999999999MA1102001999999REMMET051METAR SBQV 141100Z 06009KT 9999 FEW012 21/18 Q1020;
0120833440999992012051412004-14950-040883FM-15+0914SBQV V0200501N003612200019N0112651N1+02401+01701999999ADDGA1021+007501999GF102991999999999999999999MA1102001999999REMMET051METAR SBQV 141200Z 05007KT 9999 FEW025 24/17 Q1020;
0120833440999992012051413004-14950-040883FM-15+0914SBQV V0200601N003612200019N0112651N1+02601+01501999999ADDGA1021+009001999GF102991999999999999999999MA1102001999999REMMET051METAR SBQV 141300Z 06007KT 9999 FEW030 26/15 Q1020;
0120833440999992012051414004-14950-040883FM-15+0914SBQV V0200301N002612200019N0112651N1+02701+01301999999ADDGA1021+009001999GF102991999999999999999999MA1102001999999REMMET051METAR SBQV 141400Z 03005KT 9999 FEW030 27/13 Q1020;
0120833440999992012051415004-14950-040883FM-15+0914SBQV V0200901N004112200019N0112651N1+02801+01401999999ADDGA1021+009001999GF102991999999999999999999MA1101801999999REMMET051METAR SBQV 141500Z 09008KT 9999 FEW030 28/14 Q1018;
0120833440999992012051416004-14950-040883FM-15+0914SBQV V0201101N005110090019N0112651N1+02701+01501999999ADDGA1071+009001999GF107991999999999999999999MA1101691999999REMMET051METAR SBQV 141600Z 11010KT 9999 BKN030 27/15 Q1017;
0120833440999992012051417004-14950-040883FM-15+0914SBQV V0200901N003612200019N0112651N1+02901+01401999999ADDGA1041+010501999GF104991999999999999999999MA1101691999999REMMET051METAR SBQV 141700Z 09007KT 9999 SCT035 29/14 Q1017;
0120833440999992012051418004-14950-040883FM-15+0914SBQV V0201001N005112200019N0112651N1+02701+01701999999ADDGA1041+010501999GF104991999999999999999999MA1101591999999REMMET051METAR SBQV 141800Z 10010KT 9999 SCT035 27/17 Q1016;
0120833440999992012051419004-14950-040883FM-15+0914SBQV V0201101N005712200019N0112651N1+02701+01801999999ADDGA1021+009001999GF102991999999999999999999MA1101691999999REMMET051METAR SBQV 141900Z 11011KT 9999 FEW030 27/18 Q1017;
0120833440999992012051420004-14950-040883FM-15+0914SBQV V0201001N007212200019N0112651N1+02501+01701999999ADDGA1021+009001999GF102991999999999999999999MA1101691999999REMMET051METAR SBQV 142000Z 10014KT 9999 FEW030 25/17 Q1017;
0072833440999992012051422004-14950-040883FM-15+0914SBQV V0201001N003619999999Y0099001N1+02201+01701999999ADDMA1101801999999REMMET045METAR SBQV 142200Z 10007KT CAVOK 22/17 Q1018;
0072833440999992012051423004-14950-040883FM-15+0914SBQV V0201001N003619999999Y0099001N1+02101+01801999999ADDMA1101901999999REMMET045METAR SBQV 142300Z 10007KT CAVOK 21/18 Q1019;
0072833440999992012051500004-14950-040883FM-15+0914SBQV V0201001N004119999999Y0099001N1+02101+01901999999ADDMA1102001999999REMMET045METAR SBQV 150000Z 10008KT CAVOK 21/19 Q1020;
0120833440999992012051511004-14950-040883FM-15+0914SBQV V0200801N004612200019N0112651N1+02001+01801999999ADDGA1041+003301999GF104991999999999999999999MA1102001999999REMMET051METAR SBQV 151100Z 08009KT 9999 SCT011 20/18 Q1020;
0120833440999992012051512004-14950-040883FM-15+0914SBQV V0200601N004112200019N0112651N1+02301+01801999999ADDGA1021+004501999GF102991999999999999999999MA1102101999999REMMET051METAR SBQV 151200Z 06008KT 9999 FEW015 23/18 Q1021;
0120833440999992012051513004-14950-040883FM-15+0914SBQV V0200501N003612200019N0112651N1+02401+01701999999ADDGA1041+005401999GF104991999999999999999999MA1102101999999REMMET051METAR SBQV 151300Z 05007KT 9999 SCT018 24/17 Q1021;
0120833440999992012051514004-14950-040883FM-15+0914SBQV V0200701N003112200019N0112651N1+02601+01601999999ADDGA1021+006001999GF102991999999999999999999MA1102001999999REMMET051METAR SBQV 151400Z 07006KT 9999 FEW020 26/16 Q1020;
0120833440999992012051515004-14950-040883FM-15+0914SBQV V0200901N003112200019N0112651N1+02701+01401999999ADDGA1021+007501999GF102991999999999999999999MA1101801999999REMMET051METAR SBQV 151500Z 09006KT 9999 FEW025 27/14 Q1018;
0143833440999992012051516004-14950-040883FM-15+0914SBQV V0200901N002612200019N0112651N1+02801+01301999999ADDGA1021+007501999GA2041+027001999GF104991999999999999999999MA1101691999999REMMET058METAR SBQV 151600Z 09005KT 9999 FEW025 SCT090 28/13 Q1017;
0143833440999992012051517004-14950-040883FM-15+0914SBQV V0201001N002110270019N0112651N1+02801+01401999999ADDGA1041+007501999GA2071+027001999GF107991999999999999999999MA1101691999999REMMET058METAR SBQV 151700Z 10004KT 9999 SCT025 BKN090 28/14 Q1017;
0143833440999992012051518004-14950-040883FM-15+0914SBQV V0201401N005710270019N0112651N1+02701+01701999999ADDGA1021+007501999GA2071+027001999GF107991999999999999999999MA1101691999999REMMET058METAR SBQV 151800Z 14011KT 9999 FEW025 BKN090 27/17 Q1017;
0143833440999992012051519004-14950-040883FM-15+0914SBQV V0201201N005710240019N0112651N1+02601+01701999999ADDGA1021+006001999GA2071+024001999GF107991999999999999999999MA1101691999999REMMET058METAR SBQV 151900Z 12011KT 9999 FEW020 BKN080 26/17 Q1017;
0143833440999992012051520004-14950-040883FM-15+0914SBQV V0201101N004610210019N0112651N1+02501+01701999999ADDGA1021+005401999GA2071+021001999GF107991999999999999999999MA1101691999999REMMET058METAR SBQV 152000Z 11009KT 9999 FEW018 BKN070 25/17 Q1017;
0143833440999992012051521004-14950-040883FM-15+0914SBQV V0201201N004112200019N0112651N1+02301+01801999999ADDGA1021+004801999GA2041+021001999GF104991999999999999999999MA1101801999999REMMET058METAR SBQV 152100Z 12008KT 9999 FEW016 SCT070 23/18 Q1018;
0120833440999992012051522004-14950-040883FM-15+0914SBQV V0201101N004112200019N0112651N1+02201+01801999999ADDGA1021+004501999GF102991999999999999999999MA1101801999999REMMET051METAR SBQV 152200Z 11008KT 9999 FEW015 22/18 Q1018;
0120833440999992012051523004-14950-040883FM-15+0914SBQV V0201101N003612200019N0112651N1+02101+01801999999ADDGA1021+003601999GF102991999999999999999999MA1101901999999REMMET051METAR SBQV 152300Z 11007KT 9999 FEW012 21/18 Q1019;
0120833440999992012051600004-14950-040883FM-15+0914SBQV V0201001N003612200019N0112651N1+02001+01901999999ADDGA1021+003301999GF102991999999999999999999MA1101901999999REMMET051METAR SBQV 160000Z 10007KT 9999 FEW011 20/19 Q1019;
0143833440999992012051611004-14950-040883FM-15+0914SBQV V0201001N001512200019N0112651N1+02001+01801999999ADDGA1041+003901999GA2041+021001999GF104991999999999999999999MA1102001999999REMMET058METAR SBQV 161100Z 10003KT 9999 SCT013 SCT070 20/18 Q1020;
0136833440999992012051612004-14950-040883FM-15+0914SBQV V0201101N00151004501CN0112651N1+02101+01801999999ADDGA1071+004501999GA2041+021001999MA1102101999999REMMET058METAR SBQV 161200Z 11003KT 9999 BKN015 SCT070 21/18 Q1021;EQDQ01+000042SCOTCV
0136833440999992012051613004-14950-040883FM-15+0914SBQV V0201001N00211004501CN0112651N1+02201+01801999999ADDGA1071+004501999GA2041+021001999MA1102001999999REMMET058METAR SBQV 161300Z 10004KT 9999 BKN015 SCT070 22/18 Q1020;EQDQ01+000042SCOTCV
0120833440999992012051614004-14950-040883FM-15+0914SBQV V0201101N002610045019N0112651N1+02201+01801999999ADDGA1071+004501999GF107991999999999999999999MA1102001999999REMMET051METAR SBQV 161400Z 11005KT 9999 BKN015 22/18 Q1020;
0120833440999992012051615004-14950-040883FM-15+0914SBQV V0201001N001510045019N0112651N1+02201+01801999999ADDGA1081+004501999GF108991999999999999999999MA1102001999999REMMET051METAR SBQV 161500Z 10003KT 9999 OVC015 22/18 Q1020;
0136833440999992012051616004-14950-040883FM-15+0914SBQV V0201201N00261004801CN0112651N1+02401+01901999999ADDGA1071+004801999GA2041+021001999MA1101801999999REMMET058METAR SBQV 161600Z 12005KT 9999 BKN016 SCT070 24/19 Q1018;EQDQ01+000042SCOTCV
0136833440999992012051617004-14950-040883FM-15+0914SBQV V0201101N00151005401CN0112651N1+02401+01801999999ADDGA1071+005401999GA2041+021001999MA1101801999999REMMET058METAR SBQV 161700Z 11003KT 9999 BKN018 SCT070 24/18 Q1018;EQDQ01+000042SCOTCV
0143833440999992012051618004-14950-040883FM-15+0914SBQV V0201401N004610240019N0112651N1+02401+01901999999ADDGA1041+005401999GA2071+024001999GF107991999999999999999999MA1101691999999REMMET058METAR SBQV 161800Z 14009KT 9999 SCT018 BKN080 24/19 Q1017;
0143833440999992012051619004-14950-040883FM-15+0914SBQV V0201301N005110210019N0112651N1+02201+01901999999ADDGA1041+004801999GA2071+021001999GF107991999999999999999999MA1101801999999REMMET058METAR SBQV 161900Z 13010KT 9999 SCT016 BKN070 22/19 Q1018;
0136833440999992012051620004-14950-040883FM-15+0914SBQV V0201301N00571001501CN0112651N1+02001+01901999999ADDGA1071+001501999GA2041+021001999MA1101801999999REMMET058METAR SBQV 162000Z 13011KT 9999 BKN005 SCT070 20/19 Q1018;EQDQ01+000042SCOTCV
0143833440999992012051716004-14950-040883FM-15+0914SBQV V0201301N003110240019N0112651N1+02201+01801999999ADDGA1041+005401999GA2071+024001999GF107991999999999999999999MA1102001999999REMMET058METAR SBQV 171600Z 13006KT 9999 SCT018 BKN080 22/18 Q1020;
0143833440999992012051717004-14950-040883FM-15+0914SBQV V0201401N002610060019N0112651N1+02201+01701999999ADDGA1071+006001999GA2071+024001999GF107991999999999999999999MA1101901999999REMMET058METAR SBQV 171700Z 14005KT 9999 BKN020 BKN080 22/17 Q1019;
0143833440999992012051718004-14950-040883FM-15+0914SBQV V0201401N003610060019N0112651N1+02201+01701999999ADDGA1071+006001999GA2071+024001999GF107991999999999999999999MA1101901999999REMMET058METAR SBQV 171800Z 14007KT 9999 BKN020 BKN080 22/17 Q1019;
0143833440999992012051719004-14950-040883FM-15+0914SBQV V0201301N004110240019N0112651N1+02101+01701999999ADDGA1021+005401999GA2081+024001999GF108991999999999999999999MA1101901999999REMMET058METAR SBQV 171900Z 13008KT 9999 FEW018 OVC080 21/17 Q1019;
0143833440999992012051720004-14950-040883FM-15+0914SBQV V0201001N003610210019N0112651N1+02101+01701999999ADDGA1021+004801999GA2071+021001999GF107991999999999999999999MA1101901999999REMMET058METAR SBQV 172000Z 10007KT 9999 FEW016 BKN070 21/17 Q1019;
0143833440999992012051721004-14950-040883FM-15+0914SBQV V0201201N004110210019N0112651N1+02001+01701999999ADDGA1041+003901999GA2071+021001999GF107991999999999999999999MA1102001999999REMMET058METAR SBQV 172100Z 12008KT 9999 SCT013 BKN070 20/17 Q1020;
0143833440999992012051722004-14950-040883FM-15+0914SBQV V0201301N003610210019N0112651N1+02001+01701999999ADDGA1041+003901999GA2071+021001999GF107991999999999999999999MA1102001999999REMMET058METAR SBQV 172200Z 13007KT 9999 SCT013 BKN070 20/17 Q1020;
0143833440999992012051723004-14950-040883FM-15+0914SBQV V0201301N003610210019N0112651N1+01901+01701999999ADDGA1021+003301999GA2071+021001999GF107991999999999999999999MA1102001999999REMMET058METAR SBQV 172300Z 13007KT 9999 FEW011 BKN070 19/17 Q1020;
0143833440999992012051811004-14950-040883FM-15+0914SBQV V0201301N005110210019N0112651N1+01801+01601999999ADDGA1041+003301999GA2071+021001999GF107991999999999999999999MA1102001999999REMMET058METAR SBQV 181100Z 13010KT 9999 SCT011 BKN070 18/16 Q1020;
0143833440999992012051812004-14950-040883FM-15+0914SBQV V0201301N005710210019N0112651N1+01901+01601999999ADDGA1021+004501999GA2071+021001999GF107991999999999999999999MA1102101999999REMMET058METAR SBQV 181200Z 13011KT 9999 FEW015 BKN070 19/16 Q1021;
0143833440999992012051813004-14950-040883FM-15+0914SBQV V0201401N005112200019N0112651N1+02001+01601999999ADDGA1021+004501999GA2041+024001999GF104991999999999999999999MA1102101999999REMMET058METAR SBQV 181300Z 14010KT 9999 FEW015 SCT080 20/16 Q1021;
0143833440999992012051814004-14950-040883FM-15+0914SBQV V0201401N004112200019N0112651N1+02101+01601999999ADDGA1021+004501999GA2041+024001999GF104991999999999999999999MA1102101999999REMMET058METAR SBQV 181400Z 14008KT 9999 FEW015 SCT080 21/16 Q1021;
0143833440999992012051815004-14950-040883FM-15+0914SBQV V0201301N004612200019N0112651N1+02301+01501999999ADDGA1021+005401999GA2041+027001999GF104991999999999999999999MA1102001999999REMMET058METAR SBQV 181500Z 13009KT 9999 FEW018 SCT090 23/15 Q1020;
0143833440999992012051816004-14950-040883FM-15+0914SBQV V0201301N005112200019N0112651N1+02301+01401999999ADDGA1021+006001999GA2041+027001999GF104991999999999999999999MA1101901999999REMMET058METAR SBQV 181600Z 13010KT 9999 FEW020 SCT090 23/14 Q1019;
0143833440999992012051817004-14950-040883FM-15+0914SBQV V0201301N004110270019N0112651N1+02301+01501999999ADDGA1041+006001999GA2071+027001999GF107991999999999999999999MA1101801999999REMMET058METAR SBQV 181700Z 13008KT 9999 SCT020 BKN090 23/15 Q1018;
0143833440999992012051818004-14950-040883FM-15+0914SBQV V0201301N005110240019N0112651N1+02201+01601999999ADDGA1021+004801999GA2071+024001999GF107991999999999999999999MA1101801999999REMMET058METAR SBQV 181800Z 13010KT 9999 FEW016 BKN080 22/16 Q1018;
0143833440999992012051819004-14950-040883FM-15+0914SBQV V0201301N005110240019N0112651N1+02101+01601999999ADDGA1021+004801999GA2071+024001999GF107991999999999999999999MA1101801999999REMMET058METAR SBQV 181900Z 13010KT 9999 FEW016 BKN080 21/16 Q1018;
0143833440999992012051820004-14950-040883FM-15+0914SBQV V0201201N004610240019N0112651N1+02001+01601999999ADDGA1021+004801999GA2071+024001999GF107991999999999999999999MA1101901999999REMMET058METAR SBQV 182000Z 12009KT 9999 FEW016 BKN080 20/16 Q1019;
0143833440999992012051821004-14950-040883FM-15+0914SBQV V0201301N004610210019N0112651N1+02001+01601999999ADDGA1021+004501999GA2071+021001999GF107991999999999999999999MA1101901999999REMMET058METAR SBQV 182100Z 13009KT 9999 FEW015 BKN070 20/16 Q1019;
0072833440999992012051822004-14950-040883FM-15+0914SBQV V0201301N003619999999Y0099001N1+01901+01601999999ADDMA1102001999999REMMET045METAR SBQV 182200Z 13007KT CAVOK 19/16 Q1020;
0072833440999992012051823004-14950-040883FM-15+0914SBQV V0201201N003119999999Y0099001N1+01801+01701999999ADDMA1102001999999REMMET045METAR SBQV 182300Z 12006KT CAVOK 18/17 Q1020;
0154833440999992012051911004-14950-040883FM-15+0914SBQV V0201301N00671001801CN0112651N1+01701+01701999999ADDGA1071+001801999GA2041+002101999MA1102201999999MW1511REMMET070METAR SBQV 191100Z 13013KT 9999 4000SE -DZ BKN006 SCT007 17/17 Q1 022;EQDQ01+000042SCOTCV
0143833440999992012051912004-14950-040883FM-15+0914SBQV V0201201N007210027019N0112651N1+01901+01701999999ADDGA1021+002101999GA2071+002701999GF107991999999999999999999MA1102201999999REMMET058METAR SBQV 191200Z 12014KT 9999 FEW007 BKN009 19/17 Q1022;
0143833440999992012051913004-14950-040883FM-15+0914SBQV V0201201N007210030019N0112651N1+01901+01701999999ADDGA1041+002701999GA2071+003001999GF107991999999999999999999MA1102201999999REMMET058METAR SBQV 191300Z 12014KT 9999 SCT009 BKN010 19/17 Q1022;
0120833440999992012051914004-14950-040883FM-15+0914SBQV V0201301N007212200019N0112651N1+02101+01601999999ADDGA1041+003601999GF104991999999999999999999MA1102201999999REMMET051METAR SBQV 191400Z 13014KT 9999 SCT012 21/16 Q1022;
0120833440999992012051915004-14950-040883FM-15+0914SBQV V0201101N006712200019N0112651N1+02101+01601999999ADDGA1041+004801999GF104991999999999999999999MA1102101999999REMMET051METAR SBQV 191500Z 11013KT 9999 SCT016 21/16 Q1021;
0120833440999992012051916004-14950-040883FM-15+0914SBQV V0201301N005712200019N0112651N1+02201+01501999999ADDGA1041+005401999GF104991999999999999999999MA1102101999999REMMET051METAR SBQV 191600Z 13011KT 9999 SCT018 22/15 Q1021;
0143833440999992012051917004-14950-040883FM-15+0914SBQV V0201301N007210240019N0112651N1+02201+01501999999ADDGA1021+005401999GA2071+024001999GF107991999999999999999999MA1102001999999REMMET058METAR SBQV 191700Z 13014KT 9999 FEW018 BKN080 22/15 Q1020;
0143833440999992012051918004-14950-040883FM-15+0914SBQV V0201401N005710240019N0112651N1+02201+01601999999ADDGA1041+005401999GA2071+024001999GF107991999999999999999999MA1101901999999REMMET058METAR SBQV 191800Z 14011KT 9999 SCT018 BKN080 22/16 Q1019;
0143833440999992012051919004-14950-040883FM-15+0914SBQV V0201301N006210240019N0112651N1+02101+01601999999ADDGA1021+005401999GA2071+024001999GF107991999999999999999999MA1102001999999REMMET058METAR SBQV 191900Z 13012KT 9999 FEW018 BKN080 21/16 Q1020;
0143833440999992012051920004-14950-040883FM-15+0914SBQV V0201401N006710210019N0112651N1+02001+01601999999ADDGA1041+003901999GA2071+021001999GF107991999999999999999999MA1102001999999REMMET058METAR SBQV 192000Z 14013KT 9999 SCT013 BKN070 20/16 Q1020;
0143833440999992012051921004-14950-040883FM-15+0914SBQV V0201101N005110027019N0112651N1+02001+01601999999ADDGA1071+002701999GA2071+021001999GF107991999999999999999999MA1102101999999REMMET058METAR SBQV 192100Z 11010KT 9999 BKN009 BKN070 20/16 Q1021;
0136833440999992012051922004-14950-040883FM-15+0914SBQV V0201101N00461002401CN0112651N1+01901+01601999999ADDGA1071+002401999GA2041+021001999MA1102101999999REMMET058METAR SBQV 192200Z 11009KT 9999 BKN008 SCT070 19/16 Q1021;EQDQ01+000042SCOTCV
0143833440999992012051923004-14950-040883FM-15+0914SBQV V0201201N005712200019N0112651N1+01901+01601999999ADDGA1041+002101999GA2041+021001999GF104991999999999999999999MA1102101999999REMMET058METAR SBQV 192300Z 12011KT 9999 SCT007 SCT070 19/16 Q1021;
0152833440999992012052011004-14950-040883FM-15+0914SBQV V0201301N005110015019N0040001N1+01701+01701999999ADDGA1071+001501999GA2081+002101999GF108991999999999999999999MA1102301999999MW1101REMMET061METAR SBQV 201100Z 13010KT 4000 BR BKN005 OVC007 17/17 Q1023;
0160833440999992012052012004-14950-040883FM-15+0914SBQV V0201301N006710021019N0080001N1+01701+01701999999ADDGA1041+001501999GA2071+002101999GF107991999999999999999999MA1102401999999MW1511REMMET069METAR SBQV 201200Z 13013KT 8000 3000SE -DZ SCT005 BKN007 17/17 Q1024;
0154833440999992012052013004-14950-040883FM-15+0914SBQV V0201301N006210018019N0112651N1+01801+01801999999ADDGA1071+001801999GA2071+002701999GF107991999999999999999999MA1102401999999MW1161REMMET063METAR SBQV 201300Z 13012KT 9999 VCSH BKN006 BKN009 18/18 Q1024;
0153833440999992012052014004-14950-040883FM-15+0914SBQV V0201401N006210018019N0090001N1+01801+01801999999ADDGA1071+001801999GA2071+002701999GF107991999999999999999999MA1102401999999MW1611REMMET062METAR SBQV 201400Z 14012KT 9000 -RA BKN006 BKN009 18/18 Q1024;
0166833440999992012052015004-14950-040883FM-15+0914SBQV V0201301N006710030019N0112651N1+01901+01901999999ADDGA1021+001801999GA2071+003001999GA3071+021001999GF107991999999999999999999MA1102301999999REMMET065METAR SBQV 201500Z 13013KT 9999 FEW006 BKN010 BKN070 19/19 Q1023;
0143833440999992012052016004-14950-040883FM-15+0914SBQV V0201301N007210030019N0112651N1+01901+01901999999ADDGA1071+003001999GA2071+021001999GF107991999999999999999999MA1102201999999REMMET058METAR SBQV 201600Z 13014KT 9999 BKN010 BKN070 19/19 Q1022;
0153833440999992012052017004-14950-040883FM-15+0914SBQV V0201401N006210018019N0020001N1+01801+01801999999ADDGA1071+001801999GA2071+021001999GF107991999999999999999999MA1102101999999MW1511REMMET062METAR SBQV 201700Z 14012KT 2000 -DZ BKN006 BKN070 18/18 Q1021;
0153833440999992012052018004-14950-040883FM-15+0914SBQV V0201301N005710021019N0070001N1+01801+01801999999ADDGA1071+002101999GA2071+021001999GF107991999999999999999999MA1102101999999MW1511REMMET062METAR SBQV 201800Z 13011KT 7000 -DZ BKN007 BKN070 18/18 Q1021;
0143833440999992012052019004-14950-040883FM-15+0914SBQV V0201301N007210018019N0112651N1+01801+01801999999ADDGA1071+001801999GA2071+021001999GF107991999999999999999999MA1102201999999REMMET058METAR SBQV 201900Z 13014KT 9999 BKN006 BKN070 18/18 Q1022;
0153833440999992012052020004-14950-040883FM-15+0914SBQV V0201301N007210018019N0060001N1+01701+01701999999ADDGA1071+001801999GA2071+021001999GF107991999999999999999999MA1102201999999MW1511REMMET062METAR SBQV 202000Z 13014KT 6000 -DZ BKN006 BKN070 17/17 Q1022;
0153833440999992012052021004-14950-040883FM-15+0914SBQV V0201301N008210015019N0080001N1+01601+01601999999ADDGA1071+001501999GA2071+021001999GF107991999999999999999999MA1102301999999MW1511REMMET062METAR SBQV 202100Z 13016KT 8000 -DZ BKN005 BKN070 16/16 Q1023;
0143833440999992012052022004-14950-040883FM-15+0914SBQV V0201401N008210015019N0112651N1+01501+01501999999ADDGA1071+001501999GA2071+021001999GF107991999999999999999999MA1102301999999REMMET058METAR SBQV 202200Z 14016KT 9999 BKN005 BKN070 15/15 Q1023;
0120833440999992012052111004-14950-040883FM-15+0914SBQV V0201201N005110015019N0112651N1+01601+01601999999ADDGA1081+001501999GF108991999999999999999999MA1102401999999REMMET051METAR SBQV 211100Z 12010KT 9999 OVC005 16/16 Q1024;
0129833440999992012052112004-14950-040883FM-15+0914SBQV V0201301N005710015019N0050001N1+01601+01601999999ADDGA1081+001501999GF108991999999999999999999MA1102511999999MW1101REMMET054METAR SBQV 211200Z 13011KT 5000 BR OVC005 16/16 Q1025;
0130833440999992012052113004-14950-040883FM-15+0914SBQV V0201301N006210012019N0020001N1+01701+01701999999ADDGA1081+001201999GF108991999999999999999999MA1102511999999MW1511REMMET055METAR SBQV 211300Z 13012KT 2000 -DZ OVC004 17/17 Q1025;
0120833440999992012052114004-14950-040883FM-15+0914SBQV V0201301N005710018019N0112651N1+01801+01701999999ADDGA1081+001801999GF108991999999999999999999MA1102511999999REMMET051METAR SBQV 211400Z 13011KT 9999 OVC006 18/17 Q1025;
0160833440999992012052115004-14950-040883FM-15+0914SBQV V0201201N005710018019N0112651N1+01901+01701999999ADDGA1071+001801999GA2071+002701999GF107991999999999999999999MA1102401999999MW1511REMMET069METAR SBQV 211500Z 12011KT 9999 3000SE -DZ BKN006 BKN009 19/17 Q1024;
0143833440999992012052116004-14950-040883FM-15+0914SBQV V0201401N005110027019N0112651N1+02001+01801999999ADDGA1041+001801999GA2071+002701999GF107991999999999999999999MA1102401999999REMMET058METAR SBQV 211600Z 14010KT 9999 SCT006 BKN009 20/18 Q1024;
0153833440999992012052117004-14950-040883FM-15+0914SBQV V0201401N005110036019N0080001N1+02001+01801999999ADDGA1041+002701999GA2071+003601999GF107991999999999999999999MA1102201999999MW1611REMMET062METAR SBQV 211700Z 14010KT 8000 -RA SCT009 BKN012 20/18 Q1022;
0153833440999992012052118004-14950-040883FM-15+0914SBQV V0201301N004610021019N0112651N1+01901+01801999999ADDGA1071+002101999GA2071+002701999GF107991999999999999999999MA1102201999999MW1611REMMET062METAR SBQV 211800Z 13009KT 9999 -RA BKN007 BKN009 19/18 Q1022;
0148833440999992012052119004-14950-040883FM-15+0914SBQV V0201301N00461001801CN0050001N1+01801+01801999999ADDGA1071+001801999GA2041+002101999MW1101MW2611REMMET073METAR SBQV 211900Z 13009KT 5000 1500NE -RA BR BKN006 SCT007 18/18 Q10 22;EQDQ01+000042SCOTCV
0153833440999992012052120004-14950-040883FM-15+0914SBQV V0201401N003610021019N0112651N1+01801+01801999999ADDGA1041+001501999GA2071+002101999GF107991999999999999999999MA1102201999999MW1511REMMET062METAR SBQV 212000Z 14007KT 9999 -DZ SCT005 BKN007 18/18 Q1022;
0120833440999992012052121004-14950-040883FM-15+0914SBQV V0201301N003110012019N0112651N1+01801+01801999999ADDGA1081+001201999GF108991999999999999999999MA1102301999999REMMET051METAR SBQV 212100Z 13006KT 9999 OVC004 18/18 Q1023;
0137833440999992012052122004-14950-040883FM-15+0914SBQV V0201401N004110012019N0030001N1+01701+01701999999ADDGA1081+001201999GF108991999999999999999999MA1102301999999MW1511REMMET062METAR SBQV 212200Z 14008KT 3000 1000SE -DZ OVC004 17/17 Q1023;
0137833440999992012052123004-14950-040883FM-15+0914SBQV V0201301N005110009019N0050001N1+01701+01701999999ADDGA1081+000901999GF108991999999999999999999MA1102301999999MW1511REMMET062METAR SBQV 212300Z 13010KT 5000 1000SE -DZ OVC003 17/17 Q1023;
0130833440999992012052211004-14950-040883FM-15+0914SBQV V0201301N005710012019N0020001N1+01701+01701999999ADDGA1081+001201999GF108991999999999999999999MA1102301999999MW1511REMMET055METAR SBQV 221100Z 13011KT 2000 -DZ OVC004 17/17 Q1023;
0143833440999992012052214004-14950-040883FM-15+0914SBQV V0201301N006210033019N0112651N1+01901+01801999999ADDGA1041+002401999GA2071+003301999GF107991999999999999999999MA1102401999999REMMET058METAR SBQV 221400Z 13012KT 9999 SCT008 BKN011 19/18 Q1024;
0153833440999992012052215004-14950-040883FM-15+0914SBQV V0201201N005710018019N0050001N1+01901+01801999999ADDGA1071+001801999GA2071+003001999GF107991999999999999999999MA1102301999999MW1511REMMET062METAR SBQV 221500Z 12011KT 5000 -DZ BKN006 BKN010 19/18 Q1023;
0143833440999992012052216004-14950-040883FM-15+0914SBQV V0201101N005712200019N0112651N1+02001+01701999999ADDGA1041+002401999GA2041+021001999GF104991999999999999999999MA1102201999999REMMET058METAR SBQV 221600Z 11011KT 9999 SCT008 SCT070 20/17 Q1022;
0166833440999992012052217004-14950-040883FM-15+0914SBQV V0201301N005710024019N0112651N1+01901+01801999999ADDGA1041+002101999GA2071+002401999GA3071+021001999GF107991999999999999999999MA1102101999999REMMET065METAR SBQV 221700Z 13011KT 9999 SCT007 BKN008 BKN070 19/18 Q1021;
0159833440999992012052218004-14950-040883FM-15+0914SBQV V0201401N005110018019N0090001N1+01901+01801999999ADDGA1041+001201999GA2071+001801999GF107991999999999999999999MA1102101999999MW1511REMMET068METAR SBQV 221800Z 14010KT 9000 3000S -DZ SCT004 BKN006 19/18 Q1021;
0143833440999992012052219004-14950-040883FM-15+0914SBQV V0201201N005710021019N0112651N1+01901+01801999999ADDGA1071+002101999GA2071+021001999GF107991999999999999999999MA1102101999999REMMET058METAR SBQV 221900Z 12011KT 9999 BKN007 BKN070 19/18 Q1021;
0154833440999992012052220004-14950-040883FM-15+0914SBQV V0201201N005110021019N0112651N1+01801+01701999999ADDGA1041+001501999GA2071+002101999GF107991999999999999999999MA1102101999999MW1161REMMET063METAR SBQV 222000Z 12010KT 9999 VCSH SCT005 BKN007 18/17 Q1021;
0143833440999992012052221004-14950-040883FM-15+0914SBQV V0201201N003610018019N0112651N1+01801+01701999999ADDGA1071+001801999GA2071+021001999GF107991999999999999999999MA1102201999999REMMET058METAR SBQV 222100Z 12007KT 9999 BKN006 BKN070 18/17 Q1022;
0136833440999992012052222004-14950-040883FM-15+0914SBQV V0201301N00361001501CN0112651N1+01801+01801999999ADDGA1071+001501999GA2041+021001999MA1102201999999REMMET058METAR SBQV 222200Z 13007KT 9999 BKN005 SCT070 18/18 Q1022;EQDQ01+000042SCOTCV
0145833440999992012052223004-14950-040883FM-15+0914SBQV V0201401N00461001201CN0030001N1+01801+01801999999ADDGA1071+001201999GA2041+021001999MA1102301999999MW1101REMMET061METAR SBQV 222300Z 14009KT 3000 BR BKN004 SCT070 18/18 Q1023;EQDQ01+000042SCOTCV
0137833440999992012052311004-14950-040883FM-15+0914SBQV V0201301N005110012019N0090001N1+01701+01701999999ADDGA1081+001201999GF108991999999999999999999MA1102401999999MW1511REMMET062METAR SBQV 231100Z 13010KT 9000 4000SE -DZ OVC004 17/17 Q1024;
0166833440999992012052312004-14950-040883FM-15+0914SBQV V0201201N005110018019N0112651N1+01701+01701999999ADDGA1041+001201999GA2071+001801999GA3071+021001999GF107991999999999999999999MA1102401999999REMMET065METAR SBQV 231200Z 12010KT 9999 SCT004 BKN006 BKN070 17/17 Q1024;
0177833440999992012052313004-14950-040883FM-15+0914SBQV V0201201N005110018019N0112651N1+01701+01701999999ADDGA1041+001201999GA2071+001801999GA3071+021001999GF107991999999999999999999MA1102401999999MW1161REMMET070METAR SBQV 231300Z 12010KT 9999 VCSH SCT004 BKN006 BKN070 17/17 Q1024;
0176833440999992012052314004-14950-040883FM-15+0914SBQV V0201301N005710018019N0050001N1+01801+01801999999ADDGA1021+001201999GA2071+001801999GA3071+021001999GF107991999999999999999999MA1102401999999MW1511REMMET069METAR SBQV 231400Z 13011KT 5000 -DZ FEW004 BKN006 BKN070 18/18 Q1024;
0160833440999992012052315004-14950-040883FM-15+0914SBQV V0201201N004610018019N0112651N1+01901+01901999999ADDGA1021+001501999GA2081+001801999GF108991999999999999999999MA1102301999999MW1511REMMET069METAR SBQV 231500Z 12009KT 9999 3000SE -DZ FEW005 OVC006 19/19 Q1023;
0153833440999992012052316004-14950-040883FM-15+0914SBQV V0201201N005110021019N0112651N1+01901+01801999999ADDGA1021+001501999GA2081+002101999GF108991999999999999999999MA1102201999999MW1511REMMET062METAR SBQV 231600Z 12010KT 9999 -DZ FEW005 OVC007 19/18 Q1022;
0143833440999992012052317004-14950-040883FM-15+0914SBQV V0201201N004110027019N0112651N1+01901+01801999999ADDGA1021+001501999GA2081+002701999GF108991999999999999999999MA1102201999999REMMET058METAR SBQV 231700Z 12008KT 9999 FEW005 OVC009 19/18 Q1022;
0143833440999992012052318004-14950-040883FM-15+0914SBQV V0201201N004110030019N0112651N1+02001+01701999999ADDGA1071+003001999GA2081+021001999GF108991999999999999999999MA1102101999999REMMET058METAR SBQV 231800Z 12008KT 9999 BKN010 OVC070 20/17 Q1021;
0166833440999992012052319004-14950-040883FM-15+0914SBQV V0201201N003610027019N0112651N1+01901+01801999999ADDGA1041+001801999GA2071+002701999GA3081+021001999GF108991999999999999999999MA1102201999999REMMET065METAR SBQV 231900Z 12007KT 9999 SCT006 BKN009 OVC070 19/18 Q1022;
0166833440999992012052320004-14950-040883FM-15+0914SBQV V0201301N003610030019N0112651N1+01901+01801999999ADDGA1041+001801999GA2071+003001999GA3081+021001999GF108991999999999999999999MA1102201999999REMMET065METAR SBQV 232000Z 13007KT 9999 SCT006 BKN010 OVC070 19/18 Q1022;
0125833440999992012052321004-14950-040883FM-15+0914SBQV V0201101N003610015019N0112651N1+01801+01801999999ADDGA1071+001501999GF107991999999999999999999MA1102201999999REMMET056METAR SBQV 232100Z 11007KT 9999 BKN005 18/18 Q1022 REDZ;
0120833440999992012052322004-14950-040883FM-15+0914SBQV V0201201N004610012019N0080001N1+01701+01701999999ADDGA1081+001201999GF108991999999999999999999MA1102301999999REMMET051METAR SBQV 232200Z 12009KT 8000 OVC004 17/17 Q1023;
0143833440999992012052323004-14950-040883FM-15+0914SBQV V0201301N003110015019N0112651N1+01701+01701999999ADDGA1041+001201999GA2071+001501999GF107991999999999999999999MA1102301999999REMMET058METAR SBQV 232300Z 13006KT 9999 SCT004 BKN005 17/17 Q1023;
0072833440999992012052411004-14950-040883FM-15+0914SBQV V0201101N002619999999Y0099001N1+01801+01801999999ADDMA1102301999999REMMET045METAR SBQV 241100Z 11005KT CAVOK 18/18 Q1023;
0072833440999992012052412004-14950-040883FM-15+0914SBQV V0201101N003619999999Y0099001N1+02001+01601999999ADDMA1102301999999REMMET045METAR SBQV 241200Z 11007KT CAVOK 20/16 Q1023;
0072833440999992012052413004-14950-040883FM-15+0914SBQV V0201001N004119999999Y0099001N1+02301+01501999999ADDMA1102301999999REMMET045METAR SBQV 241300Z 10008KT CAVOK 23/15 Q1023;
0120833440999992012052414004-14950-040883FM-15+0914SBQV V0201201N003612200019N0112651N1+02401+01501999999ADDGA1021+007501999GF102991999999999999999999MA1102301999999REMMET051METAR SBQV 241400Z 12007KT 9999 FEW025 24/15 Q1023;
0120833440999992012052416004-14950-040883FM-15+0914SBQV V0200901N003612200019N0112651N1+02501+01501999999ADDGA1021+007501999GF102991999999999999999999MA1102101999999REMMET051METAR SBQV 241600Z 09007KT 9999 FEW025 25/15 Q1021;
0120833440999992012052417004-14950-040883FM-15+0914SBQV V0201101N004612200019N0112651N1+02601+01501999999ADDGA1021+007501999GF102991999999999999999999MA1102001999999REMMET051METAR SBQV 241700Z 11009KT 9999 FEW025 26/15 Q1020;
0120833440999992012052418004-14950-040883FM-15+0914SBQV V0201101N005712200019N0112651N1+02501+01601999999ADDGA1021+007501999GF102991999999999999999999MA1102001999999REMMET051METAR SBQV 241800Z 11011KT 9999 FEW025 25/16 Q1020;
0120833440999992012052419004-14950-040883FM-15+0914SBQV V0201101N006212200019N0112651N1+02401+01601999999ADDGA1021+006001999GF102991999999999999999999MA1102001999999REMMET051METAR SBQV 241900Z 11012KT 9999 FEW020 24/16 Q1020;
0120833440999992012052420004-14950-040883FM-15+0914SBQV V0201101N005712200019N0112651N1+02201+01701999999ADDGA1021+005401999GF102991999999999999999999MA1102001999999REMMET051METAR SBQV 242000Z 11011KT 9999 FEW018 22/17 Q1020;
0120833440999992012052421004-14950-040883FM-15+0914SBQV V0201101N004612200019N0112651N1+02101+01701999999ADDGA1021+004501999GF102991999999999999999999MA1102101999999REMMET051METAR SBQV 242100Z 11009KT 9999 FEW015 21/17 Q1021;
0072833440999992012052422004-14950-040883FM-15+0914SBQV V0201001N003619999999Y0099001N1+01901+01701999999ADDMA1102201999999REMMET045METAR SBQV 242200Z 10007KT CAVOK 19/17 Q1022;
0072833440999992012052423004-14950-040883FM-15+0914SBQV V0201001N003119999999Y0099001N1+01901+01701999999ADDMA1102201999999REMMET045METAR SBQV 242300Z 10006KT CAVOK 19/17 Q1022;
0072833440999992012052500004-14950-040883FM-15+0914SBQV V0201001N003619999999Y0099001N1+01901+01701999999ADDMA1102201999999REMMET045METAR SBQV 250000Z 10007KT CAVOK 19/17 Q1022;
0120833440999992012052511004-14950-040883FM-15+0914SBQV V0200901N003612200019N0112651N1+01901+01701999999ADDGA1041+003301999GF104991999999999999999999MA1102201999999REMMET051METAR SBQV 251100Z 09007KT 9999 SCT011 19/17 Q1022;
0120833440999992012052512004-14950-040883FM-15+0914SBQV V0200801N004112200019N0112651N1+02101+01801999999ADDGA1021+004501999GF102991999999999999999999MA1102301999999REMMET051METAR SBQV 251200Z 08008KT 9999 FEW015 21/18 Q1023;
0120833440999992012052513004-14950-040883FM-15+0914SBQV V0200801N003612200019N0112651N1+02201+01801999999ADDGA1041+004501999GF104991999999999999999999MA1102301999999REMMET051METAR SBQV 251300Z 08007KT 9999 SCT015 22/18 Q1023;
0120833440999992012052514004-14950-040883FM-15+0914SBQV V0200701N003112200019N0112651N1+02301+01701999999ADDGA1041+004801999GF104991999999999999999999MA1102301999999REMMET051METAR SBQV 251400Z 07006KT 9999 SCT016 23/17 Q1023;
0120833440999992012052515004-14950-040883FM-15+0914SBQV V0200701N002610048019N0112651N1+02501+01701999999ADDGA1071+004801999GF107991999999999999999999MA1102201999999REMMET051METAR SBQV 251500Z 07005KT 9999 BKN016 25/17 Q1022;
0120833440999992012052516004-14950-040883FM-15+0914SBQV V0200701N001510054019N0112651N1+02501+01601999999ADDGA1071+005401999GF107991999999999999999999MA1102101999999REMMET051METAR SBQV 251600Z 07003KT 9999 BKN018 25/16 Q1021;
0120833440999992012052517004-14950-040883FM-15+0914SBQV V0201201N002610054019N0112651N1+02501+01601999999ADDGA1071+005401999GF107991999999999999999999MA1102001999999REMMET051METAR SBQV 251700Z 12005KT 9999 BKN018 25/16 Q1020;
0120833440999992012052518004-14950-040883FM-15+0914SBQV V0201401N003112200019N0112651N1+02501+01701999999ADDGA1041+005401999GF104991999999999999999999MA1102001999999REMMET051METAR SBQV 251800Z 14006KT 9999 SCT018 25/17 Q1020;
0120833440999992012052519004-14950-040883FM-15+0914SBQV V0201301N005112200019N0112651N1+02501+01901999999ADDGA1021+005401999GF102991999999999999999999MA1102001999999REMMET051METAR SBQV 251900Z 13010KT 9999 FEW018 25/19 Q1020;
0120833440999992012052520004-14950-040883FM-15+0914SBQV V0201101N004112200019N0112651N1+02301+01901999999ADDGA1021+005401999GF102991999999999999999999MA1102001999999REMMET051METAR SBQV 252000Z 11008KT 9999 FEW018 23/19 Q1020;
0120833440999992012052521004-14950-040883FM-15+0914SBQV V0201001N004112200019N0112651N1+02101+01801999999ADDGA1021+004801999GF102991999999999999999999MA1102001999999REMMET051METAR SBQV 252100Z 10008KT 9999 FEW016 21/18 Q1020;
0072833440999992012052522004-14950-040883FM-15+0914SBQV V0200901N004119999999Y0099001N1+02001+01801999999ADDMA1102101999999REMMET045METAR SBQV 252200Z 09008KT CAVOK 20/18 Q1021;
0072833440999992012052523004-14950-040883FM-15+0914SBQV V0201001N003619999999Y0099001N1+02001+01801999999ADDMA1102101999999REMMET045METAR SBQV 252300Z 10007KT CAVOK 20/18 Q1021;
0120833440999992012052611004-14950-040883FM-15+0914SBQV V0200301N002110009019N0112651N1+01801+01801999999ADDGA1081+000901999GF108991999999999999999999MA1102201999999REMMET051METAR SBQV 261100Z 03004KT 9999 OVC003 18/18 Q1022;
0120833440999992012052612004-14950-040883FM-15+0914SBQV V0200201N002110012019N0112651N1+01901+01901999999ADDGA1081+001201999GF108991999999999999999999MA1102201999999REMMET051METAR SBQV 261200Z 02004KT 9999 OVC004 19/19 Q1022;
0120833440999992012052613004-14950-040883FM-15+0914SBQV V0200201N003112200019N0112651N1+02001+01801999999ADDGA1041+003301999GF104991999999999999999999MA1102201999999REMMET051METAR SBQV 261300Z 02006KT 9999 SCT011 20/18 Q1022;
0120833440999992012052614004-14950-040883FM-15+0914SBQV V0201101N001512200019N0112651N1+02501+01901999999ADDGA1041+004501999GF104991999999999999999999MA1102101999999REMMET051METAR SBQV 261400Z 11003KT 9999 SCT015 25/19 Q1021;
0120833440999992012052615004-14950-040883FM-15+0914SBQV V0200701N003112200019N0112651N1+02701+01701999999ADDGA1041+006001999GF104991999999999999999999MA1102001999999REMMET051METAR SBQV 261500Z 07006KT 9999 SCT020 27/17 Q1020;
0120833440999992012052616004-14950-040883FM-15+0914SBQV V0200201N002112200019N0112651N1+02801+01601999999ADDGA1041+006001999GF104991999999999999999999MA1101901999999REMMET051METAR SBQV 261600Z 02004KT 9999 SCT020 28/16 Q1019;
0120833440999992012052617004-14950-040883FM-15+0914SBQV V0201201N005710060019N0112651N1+02501+02001999999ADDGA1071+006001999GF107991999999999999999999MA1101801999999REMMET051METAR SBQV 261700Z 12011KT 9999 BKN020 25/20 Q1018;
0120833440999992012052701004-14950-040883FM-15+0914SBQV V0201201N003112200019N0112651N1+01901+01901999999ADDGA1021+001501999GF102991999999999999999999MA1102101999999REMMET051METAR SBQV 270100Z 12006KT 9999 FEW005 19/19 Q1021;
0120833440999992012052708004-14950-040883FM-15+0914SBQV V0200601N003610015019N0112651N1+01801+01801999999ADDGA1081+001501999GF108991999999999999999999MA1102001999999REMMET051METAR SBQV 270800Z 06007KT 9999 OVC005 18/18 Q1020;
0120833440999992012052711004-14950-040883FM-15+0914SBQV V0200301N002110018019N0112651N1+01901+01901999999ADDGA1071+001801999GF107991999999999999999999MA1102201999999REMMET051METAR SBQV 271100Z 03004KT 9999 BKN006 19/19 Q1022;
0120833440999992012052712004-14950-040883FM-15+0914SBQV V0200601N002612200019N0112651N1+02201+01901999999ADDGA1041+004801999GF104991999999999999999999MA1102201999999REMMET051METAR SBQV 271200Z 06005KT 9999 SCT016 22/19 Q1022;
0120833440999992012052713004-14950-040883FM-15+0914SBQV V0200201N003610060019N0112651N1+02401+01901999999ADDGA1071+006001999GF107991999999999999999999MA1102201999999REMMET051METAR SBQV 271300Z 02007KT 9999 BKN020 24/19 Q1022;
0120833440999992012052714004-14950-040883FM-15+0914SBQV V0200401N002610075019N0112651N1+02401+01901999999ADDGA1071+007501999GF107991999999999999999999MA1102201999999REMMET051METAR SBQV 271400Z 04005KT 9999 BKN025 24/19 Q1022;
0120833440999992012052715004-14950-040883FM-15+0914SBQV V0200401N002612200019N0112651N1+02601+01701999999ADDGA1041+009001999GF104991999999999999999999MA1102101999999REMMET051METAR SBQV 271500Z 04005KT 9999 SCT030 26/17 Q1021;
0120833440999992012052716004-14950-040883FM-15+0914SBQV V0200401N003112200019N0112651N1+02701+01701999999ADDGA1041+009001999GF104991999999999999999999MA1102001999999REMMET051METAR SBQV 271600Z 04006KT 9999 SCT030 27/17 Q1020;
0120833440999992012052717004-14950-040883FM-15+0914SBQV V0200501N003112200019N0112651N1+02801+01601999999ADDGA1041+009001999GF104991999999999999999999MA1102001999999REMMET051METAR SBQV 271700Z 05006KT 9999 SCT030 28/16 Q1020;
0120833440999992012052718004-14950-040883FM-15+0914SBQV V0200601N002612200019N0112651N1+02801+01601999999ADDGA1041+006001999GF104991999999999999999999MA1101901999999REMMET051METAR SBQV 271800Z 06005KT 9999 SCT020 28/16 Q1019;
0120833440999992012052719004-14950-040883FM-15+0914SBQV V0201001N004112200019N0112651N1+02701+01801999999ADDGA1041+006001999GF104991999999999999999999MA1102001999999REMMET051METAR SBQV 271900Z 10008KT 9999 SCT020 27/18 Q1020;
0120833440999992012052720004-14950-040883FM-15+0914SBQV V0201001N004612200019N0112651N1+02501+01801999999ADDGA1021+006001999GF102991999999999999999999MA1102001999999REMMET051METAR SBQV 272000Z 10009KT 9999 FEW020 25/18 Q1020;
0120833440999992012052721004-14950-040883FM-15+0914SBQV V0201001N003612200019N0112651N1+02301+01801999999ADDGA1021+004501999GF102991999999999999999999MA1102101999999REMMET051METAR SBQV 272100Z 10007KT 9999 FEW015 23/18 Q1021;
0072833440999992012052722004-14950-040883FM-15+0914SBQV V0201001N002619999999Y0099001N1+02201+01801999999ADDMA1102101999999REMMET045METAR SBQV 272200Z 10005KT CAVOK 22/18 Q1021;
0072833440999992012052723004-14950-040883FM-15+0914SBQV V0200901N002619999999Y0099001N1+02101+01801999999ADDMA1102201999999REMMET045METAR SBQV 272300Z 09005KT CAVOK 21/18 Q1022;
0120833440999992012052811004-14950-040883FM-15+0914SBQV V0200801N001012200019N0112651N1+01901+01801999999ADDGA1041+001801999GF104991999999999999999999MA1102401999999REMMET051METAR SBQV 281100Z 08002KT 9999 SCT006 19/18 Q1024;
0120833440999992012052812004-14950-040883FM-15+0914SBQV V0201101N002112200019N0112651N1+02001+01801999999ADDGA1041+002701999GF104991999999999999999999MA1102401999999REMMET051METAR SBQV 281200Z 11004KT 9999 SCT009 20/18 Q1024;
0120833440999992012052813004-14950-040883FM-15+0914SBQV V0201001N002612200019N0112651N1+02201+01901999999ADDGA1041+003001999GF104991999999999999999999MA1102401999999REMMET051METAR SBQV 281300Z 10005KT 9999 SCT010 22/19 Q1024;
0120833440999992012052814004-14950-040883FM-15+0914SBQV V0200901N003112200019N0112651N1+02401+01901999999ADDGA1041+004501999GF104991999999999999999999MA1102401999999REMMET051METAR SBQV 281400Z 09006KT 9999 SCT015 24/19 Q1024;
0120833440999992012052815004-14950-040883FM-15+0914SBQV V0201101N003112200019N0112651N1+02501+01901999999ADDGA1021+006001999GF102991999999999999999999MA1102301999999REMMET051METAR SBQV 281500Z 11006KT 9999 FEW020 25/19 Q1023;
0120833440999992012052816004-14950-040883FM-15+0914SBQV V0201101N003112200019N0112651N1+02701+01701999999ADDGA1021+009001999GF102991999999999999999999MA1102201999999REMMET051METAR SBQV 281600Z 11006KT 9999 FEW030 27/17 Q1022;
0120833440999992012052817004-14950-040883FM-15+0914SBQV V0201101N003612200019N0112651N1+02801+01601999999ADDGA1021+009001999GF102991999999999999999999MA1102101999999REMMET051METAR SBQV 281700Z 11007KT 9999 FEW030 28/16 Q1021;
0120833440999992012052818004-14950-040883FM-15+0914SBQV V0201101N005112200019N0112651N1+02801+01601999999ADDGA1041+009001999GF104991999999999999999999MA1102101999999REMMET051METAR SBQV 281800Z 11010KT 9999 SCT030 28/16 Q1021;
0120833440999992012052819004-14950-040883FM-15+0914SBQV V0201201N005112200019N0112651N1+02701+01701999999ADDGA1021+009001999GF102991999999999999999999MA1102101999999REMMET051METAR SBQV 281900Z 12010KT 9999 FEW030 27/17 Q1021;
0120833440999992012052820004-14950-040883FM-15+0914SBQV V0201101N005112200019N0112651N1+02501+01801999999ADDGA1021+007501999GF102991999999999999999999MA1102101999999REMMET051METAR SBQV 282000Z 11010KT 9999 FEW025 25/18 Q1021;
0072833440999992012052821004-14950-040883FM-15+0914SBQV V0201201N003619999999Y0099001N1+02301+01901999999ADDMA1102201999999REMMET045METAR SBQV 282100Z 12007KT CAVOK 23/19 Q1022;
0072833440999992012052822004-14950-040883FM-15+0914SBQV V0201101N003619999999Y0099001N1+02201+01801999999ADDMA1102201999999REMMET045METAR SBQV 282200Z 11007KT CAVOK 22/18 Q1022;
0072833440999992012052823004-14950-040883FM-15+0914SBQV V0200901N003619999999Y0099001N1+02101+01801999999ADDMA1102201999999REMMET045METAR SBQV 282300Z 09007KT CAVOK 21/18 Q1022;
0137833440999992012052911004-14950-040883FM-15+0914SBQV V0201201N003112200019N0112651N1+01801+01801999999ADDGA1041+001201999GF104991999999999999999999MA1102301999999MW1411REMMET062METAR SBQV 291100Z 12006KT 9999 3000E PRFG SCT004 18/18 Q1023;
0120833440999992012052912004-14950-040883FM-15+0914SBQV V0201201N003112200019N0112651N1+02101+01901999999ADDGA1021+003601999GF102991999999999999999999MA1102301999999REMMET051METAR SBQV 291200Z 12006KT 9999 FEW012 21/19 Q1023;
0120833440999992012052913004-14950-040883FM-15+0914SBQV V0201101N004612200019N0112651N1+02401+01901999999ADDGA1041+006001999GF104991999999999999999999MA1102301999999REMMET051METAR SBQV 291300Z 11009KT 9999 SCT020 24/19 Q1023;
0120833440999992012052914004-14950-040883FM-15+0914SBQV V0200701N003612200019N0112651N1+02601+01801999999ADDGA1021+007501999GF102991999999999999999999MA1102301999999REMMET051METAR SBQV 291400Z 07007KT 9999 FEW025 26/18 Q1023;
0120833440999992012052915004-14950-040883FM-15+0914SBQV V0200901N004612200019N0112651N1+02701+01801999999ADDGA1021+007501999GF102991999999999999999999MA1102201999999REMMET051METAR SBQV 291500Z 09009KT 9999 FEW025 27/18 Q1022;
0120833440999992012052916004-14950-040883FM-15+0914SBQV V0201001N004612200019N0112651N1+02701+01801999999ADDGA1041+007501999GF104991999999999999999999MA1102101999999REMMET051METAR SBQV 291600Z 10009KT 9999 SCT025 27/18 Q1021;
0120833440999992012052917004-14950-040883FM-15+0914SBQV V0201001N004112200019N0112651N1+02701+01801999999ADDGA1041+007501999GF104991999999999999999999MA1102001999999REMMET051METAR SBQV 291700Z 10008KT 9999 SCT025 27/18 Q1020;
0120833440999992012052918004-14950-040883FM-15+0914SBQV V0201201N005712200019N0112651N1+02701+01801999999ADDGA1021+007501999GF102991999999999999999999MA1102001999999REMMET051METAR SBQV 291800Z 12011KT 9999 FEW025 27/18 Q1020;
0120833440999992012052919004-14950-040883FM-15+0914SBQV V0201301N006212200019N0112651N1+02501+01901999999ADDGA1021+007501999GF102991999999999999999999MA1102001999999REMMET051METAR SBQV 291900Z 13012KT 9999 FEW025 25/19 Q1020;
0120833440999992012052920004-14950-040883FM-15+0914SBQV V0201201N005712200019N0112651N1+02401+01901999999ADDGA1021+006001999GF102991999999999999999999MA1102001999999REMMET051METAR SBQV 292000Z 12011KT 9999 FEW020 24/19 Q1020;
0120833440999992012052921004-14950-040883FM-15+0914SBQV V0201101N003612200019N0112651N1+02201+01901999999ADDGA1021+005401999GF102991999999999999999999MA1102101999999REMMET051METAR SBQV 292100Z 11007KT 9999 FEW018 22/19 Q1021;
0072833440999992012052922004-14950-040883FM-15+0914SBQV V0201001N003619999999Y0099001N1+02101+01901999999ADDMA1102101999999REMMET045METAR SBQV 292200Z 10007KT CAVOK 21/19 Q1021;
0120833440999992012052923004-14950-040883FM-15+0914SBQV V0201001N004612200019N0112651N1+02101+01901999999ADDGA1021+004801999GF102991999999999999999999MA1102101999999REMMET051METAR SBQV 292300Z 10009KT 9999 FEW016 21/19 Q1021;
0146833440999992012053011004-14950-040883FM-15+0914SBQV V0200701N00261003901CN0112651N1+02001+01901999999ADDGA1071+003901999GA2041+021001999MA1102201999999MW1611REMMET062METAR SBQV 301100Z 07005KT 9999 -RA BKN013 SCT070 20/19 Q1022;EQDQ01+000042SCOTCV
0120833440999992012053012004-14950-040883FM-15+0914SBQV V0200901N003110045019N0112651N1+02201+01901999999ADDGA1071+004501999GF107991999999999999999999MA1102201999999REMMET051METAR SBQV 301200Z 09006KT 9999 BKN015 22/19 Q1022;
0120833440999992012053013004-14950-040883FM-15+0914SBQV V0200701N003610048019N0112651N1+02401+01901999999ADDGA1071+004801999GF107991999999999999999999MA1102201999999REMMET051METAR SBQV 301300Z 07007KT 9999 BKN016 24/19 Q1022;
0120833440999992012053014004-14950-040883FM-15+0914SBQV V0200701N003110048019N0112651N1+02401+01801999999ADDGA1071+004801999GF107991999999999999999999MA1102101999999REMMET051METAR SBQV 301400Z 07006KT 9999 BKN016 24/18 Q1021;
0120833440999992012053015004-14950-040883FM-15+0914SBQV V0200701N003112200019N0112651N1+02501+01701999999ADDGA1041+005401999GF104991999999999999999999MA1102001999999REMMET051METAR SBQV 301500Z 07006KT 9999 SCT018 25/17 Q1020;
0120833440999992012053016004-14950-040883FM-15+0914SBQV V0200701N002610060019N0112651N1+02601+01801999999ADDGA1071+006001999GF107991999999999999999999MA1102001999999REMMET051METAR SBQV 301600Z 07005KT 9999 BKN020 26/18 Q1020;
0120833440999992012053017004-14950-040883FM-15+0914SBQV V0201001N004112200019N0112651N1+02701+01701999999ADDGA1041+006001999GF104991999999999999999999MA1101901999999REMMET051METAR SBQV 301700Z 10008KT 9999 SCT020 27/17 Q1019;
0120833440999992012053018004-14950-040883FM-15+0914SBQV V0201001N003610060019N0112651N1+02601+01701999999ADDGA1071+006001999GF107991999999999999999999MA1101901999999REMMET051METAR SBQV 301800Z 10007KT 9999 BKN020 26/17 Q1019;
0120833440999992012053019004-14950-040883FM-15+0914SBQV V0200901N004112200019N0112651N1+02501+01601999999ADDGA1021+006001999GF102991999999999999999999MA1101901999999REMMET051METAR SBQV 301900Z 09008KT 9999 FEW020 25/16 Q1019;
0120833440999992012053020004-14950-040883FM-15+0914SBQV V0201201N004112200019N0112651N1+02401+01701999999ADDGA1021+005401999GF102991999999999999999999MA1101901999999REMMET051METAR SBQV 302000Z 12008KT 9999 FEW018 24/17 Q1019;
0120833440999992012053021004-14950-040883FM-15+0914SBQV V0201101N003612200019N0112651N1+02201+01801999999ADDGA1021+004801999GF102991999999999999999999MA1102001999999REMMET051METAR SBQV 302100Z 11007KT 9999 FEW016 22/18 Q1020;
0072833440999992012053022004-14950-040883FM-15+0914SBQV V0201001N002119999999Y0099001N1+02101+01801999999ADDMA1102001999999REMMET045METAR SBQV 302200Z 10004KT CAVOK 21/18 Q1020;
0072833440999992012053023004-14950-040883FM-15+0914SBQV V0200801N004119999999Y0099001N1+02101+01901999999ADDMA1102101999999REMMET045METAR SBQV 302300Z 08008KT CAVOK 21/19 Q1021;
0072833440999992012053102004-14950-040883FM-15+0914SBQV V0200901N002619999999Y0099001N1+01901+01801999999ADDMA1102201999999REMMET045METAR SBQV 310200Z 09005KT CAVOK 19/18 Q1022;
0072833440999992012053103004-14950-040883FM-15+0914SBQV V0200701N002619999999Y0099001N1+01901+01701999999ADDMA1102101999999REMMET045METAR SBQV 310300Z 07005KT CAVOK 19/17 Q1021;
0072833440999992012053104004-14950-040883FM-15+0914SBQV V0200701N001519999999Y0099001N1+01901+01701999999ADDMA1102101999999REMMET045METAR SBQV 310400Z 07003KT CAVOK 19/17 Q1021;
0072833440999992012053105004-14950-040883FM-15+0914SBQV V0200701N002119999999Y0099001N1+01901+01701999999ADDMA1102101999999REMMET045METAR SBQV 310500Z 07004KT CAVOK 19/17 Q1021;
0120833440999992012053111004-14950-040883FM-15+0914SBQV V0202201N001512200019N0112651N1+02101+01701999999ADDGA1021+001501999GF102991999999999999999999MA1102301999999REMMET051METAR SBQV 311100Z 22003KT 9999 FEW005 21/17 Q1023;
0120833440999992012053112004-14950-040883FM-15+0914SBQV V0203501N001012200019N0112651N1+02301+01801999999ADDGA1021+002701999GF102991999999999999999999MA1102301999999REMMET051METAR SBQV 311200Z 35002KT 9999 FEW009 23/18 Q1023;
0120833440999992012053113004-14950-040883FM-15+0914SBQV V0203201N001512200019N0112651N1+02501+01701999999ADDGA1021+004501999GF102991999999999999999999MA1102301999999REMMET051METAR SBQV 311300Z 32003KT 9999 FEW015 25/17 Q1023;
0120833440999992012053114004-14950-040883FM-15+0914SBQV V0201201N001512200019N0112651N1+02601+01501999999ADDGA1021+007501999GF102991999999999999999999MA1102201999999REMMET051METAR SBQV 311400Z 12003KT 9999 FEW025 26/15 Q1022;
0120833440999992012053115004-14950-040883FM-15+0914SBQV V0200901N002112200019N0112651N1+02701+01401999999ADDGA1021+007501999GF102991999999999999999999MA1102101999999REMMET051METAR SBQV 311500Z 09004KT 9999 FEW025 27/14 Q1021;
0120833440999992012053116004-14950-040883FM-15+0914SBQV V0201101N001012200019N0112651N1+02801+01401999999ADDGA1041+007501999GF104991999999999999999999MA1102001999999REMMET051METAR SBQV 311600Z 11002KT 9999 SCT025 28/14 Q1020;
0120833440999992012053117004-14950-040883FM-15+0914SBQV V0201501N003612200019N0112651N1+02901+01501999999ADDGA1021+009001999GF102991999999999999999999MA1101901999999REMMET051METAR SBQV 311700Z 15007KT 9999 FEW030 29/15 Q1019;
0120833440999992012053118004-14950-040883FM-15+0914SBQV V0201301N005112200019N0112651N1+02801+01601999999ADDGA1021+010501999GF102991999999999999999999MA1101901999999REMMET051METAR SBQV 311800Z 13010KT 9999 FEW035 28/16 Q1019;
0120833440999992012053119004-14950-040883FM-15+0914SBQV V0201301N005712200019N0112651N1+02701+01601999999ADDGA1021+010501999GF102991999999999999999999MA1101901999999REMMET051METAR SBQV 311900Z 13011KT 9999 FEW035 27/16 Q1019;
0120833440999992012053120004-14950-040883FM-15+0914SBQV V0201201N005112200019N0112651N1+02501+01501999999ADDGA1021+009001999GF102991999999999999999999MA1102001999999REMMET051METAR SBQV 312000Z 12010KT 9999 FEW030 25/15 Q1020;
0120833440999992012053121004-14950-040883FM-15+0914SBQV V0201101N003612200019N0112651N1+02301+01801999999ADDGA1021+006001999GF102991999999999999999999MA1102001999999REMMET051METAR SBQV 312100Z 11007KT 9999 FEW020 23/18 Q1020;
0072833440999992012053122004-14950-040883FM-15+0914SBQV V0201001N003119999999Y0099001N1+02201+01801999999ADDMA1102101999999REMMET045METAR SBQV 312200Z 10006KT CAVOK 22/18 Q1021;
0072833440999992012053123004-14950-040883FM-15+0914SBQV V0201001N003119999999Y0099001N1+02101+01801999999ADDMA1102101999999REMMET045METAR SBQV 312300Z 10006KT CAVOK 21/18 Q1021;
0072833440999992012060111004-14950-040883FM-15+0914SBQV V0201201N002119999999Y0099001N1+02001+01701999999ADDMA1102401999999REMMET045METAR SBQV 011100Z 12004KT CAVOK 20/17 Q1024;
0120833440999992012060112004-14950-040883FM-15+0914SBQV V0201301N003112200019N0112651N1+02201+01801999999ADDGA1021+007501999GF102991999999999999999999MA1102401999999REMMET051METAR SBQV 011200Z 13006KT 9999 FEW025 22/18 Q1024;
0120833440999992012060113004-14950-040883FM-15+0914SBQV V0201301N003112200019N0112651N1+02401+01601999999ADDGA1021+007501999GF102991999999999999999999MA1102401999999REMMET051METAR SBQV 011300Z 13006KT 9999 FEW025 24/16 Q1024;
0120833440999992012060114004-14950-040883FM-15+0914SBQV V0201101N003612200019N0112651N1+02601+01501999999ADDGA1021+009001999GF102991999999999999999999MA1102301999999REMMET051METAR SBQV 011400Z 11007KT 9999 FEW030 26/15 Q1023;
0120833440999992012060115004-14950-040883FM-15+0914SBQV V0201301N003612200019N0112651N1+02601+01301999999ADDGA1021+009001999GF102991999999999999999999MA1102301999999REMMET051METAR SBQV 011500Z 13007KT 9999 FEW030 26/13 Q1023;
0120833440999992012060116004-14950-040883FM-15+0914SBQV V0201201N004112200019N0112651N1+02701+01501999999ADDGA1021+009001999GF102991999999999999999999MA1102201999999REMMET051METAR SBQV 011600Z 12008KT 9999 FEW030 27/15 Q1022;
0120833440999992012060117004-14950-040883FM-15+0914SBQV V0201201N004112200019N0112651N1+02701+01501999999ADDGA1021+010501999GF102991999999999999999999MA1102101999999REMMET051METAR SBQV 011700Z 12008KT 9999 FEW035 27/15 Q1021;
0120833440999992012060118004-14950-040883FM-15+0914SBQV V0201201N004612200019N0112651N1+02701+01301999999ADDGA1021+010501999GF102991999999999999999999MA1102001999999REMMET051METAR SBQV 011800Z 12009KT 9999 FEW035 27/13 Q1020;
0120833440999992012060119004-14950-040883FM-15+0914SBQV V0201301N005112200019N0112651N1+02501+01601999999ADDGA1021+010501999GF102991999999999999999999MA1102101999999REMMET051METAR SBQV 011900Z 13010KT 9999 FEW035 25/16 Q1021;
0120833440999992012060120004-14950-040883FM-15+0914SBQV V0201201N005112200019N0112651N1+02401+01701999999ADDGA1021+009001999GF102991999999999999999999MA1102101999999REMMET051METAR SBQV 012000Z 12010KT 9999 FEW030 24/17 Q1021;
0120833440999992012060121004-14950-040883FM-15+0914SBQV V0201101N004112200019N0112651N1+02201+01701999999ADDGA1021+006001999GF102991999999999999999999MA1102101999999REMMET051METAR SBQV 012100Z 11008KT 9999 FEW020 22/17 Q1021;
0072833440999992012060122004-14950-040883FM-15+0914SBQV V0201001N002619999999Y0099001N1+02101+01701999999ADDMA1102201999999REMMET045METAR SBQV 012200Z 10005KT CAVOK 21/17 Q1022;
0072833440999992012060123004-14950-040883FM-15+0914SBQV V0201101N003119999999Y0099001N1+02101+01701999999ADDMA1102201999999REMMET045METAR SBQV 012300Z 11006KT CAVOK 21/17 Q1022;
0120833440999992012060211004-14950-040883FM-15+0914SBQV V0201201N004110030019N0112651N1+02001+01801999999ADDGA1071+003001999GF107991999999999999999999MA1102301999999REMMET051METAR SBQV 021100Z 12008KT 9999 BKN010 20/18 Q1023;
0120833440999992012060212004-14950-040883FM-15+0914SBQV V0201001N004610033019N0112651N1+02101+01801999999ADDGA1071+003301999GF107991999999999999999999MA1102301999999REMMET051METAR SBQV 021200Z 10009KT 9999 BKN011 21/18 Q1023;
0120833440999992012060213004-14950-040883FM-15+0914SBQV V0201101N004610045019N0112651N1+02201+01901999999ADDGA1071+004501999GF107991999999999999999999MA1102301999999REMMET051METAR SBQV 021300Z 11009KT 9999 BKN015 22/19 Q1023;
0120833440999992012060214004-14950-040883FM-15+0914SBQV V0201101N004110045019N0112651N1+02401+01901999999ADDGA1071+004501999GF107991999999999999999999MA1102301999999REMMET051METAR SBQV 021400Z 11008KT 9999 BKN015 24/19 Q1023;
0120833440999992012060215004-14950-040883FM-15+0914SBQV V0201301N004110048019N0112651N1+02501+01901999999ADDGA1071+004801999GF107991999999999999999999MA1102201999999REMMET051METAR SBQV 021500Z 13008KT 9999 BKN016 25/19 Q1022;
0120833440999992012060216004-14950-040883FM-15+0914SBQV V0201301N004610054019N0112651N1+02601+01901999999ADDGA1071+005401999GF107991999999999999999999MA1102101999999REMMET051METAR SBQV 021600Z 13009KT 9999 BKN018 26/19 Q1021;
0120833440999992012060217004-14950-040883FM-15+0914SBQV V0201301N005110060019N0112651N1+02601+01901999999ADDGA1071+006001999GF107991999999999999999999MA1102001999999REMMET051METAR SBQV 021700Z 13010KT 9999 BKN020 26/19 Q1020;
0120833440999992012060218004-14950-040883FM-15+0914SBQV V0201301N004612200019N0112651N1+02601+01901999999ADDGA1021+007501999GF102991999999999999999999MA1101901999999REMMET051METAR SBQV 021800Z 13009KT 9999 FEW025 26/19 Q1019;
0120833440999992012060219004-14950-040883FM-15+0914SBQV V0201201N005712200019N0112651N1+02601+01901999999ADDGA1021+007501999GF102991999999999999999999MA1101901999999REMMET051METAR SBQV 021900Z 12011KT 9999 FEW025 26/19 Q1019;
0120833440999992012060220004-14950-040883FM-15+0914SBQV V0201301N005712200019N0112651N1+02301+01901999999ADDGA1021+006001999GF102991999999999999999999MA1102001999999REMMET051METAR SBQV 022000Z 13011KT 9999 FEW020 23/19 Q1020;
0120833440999992012060221004-14950-040883FM-15+0914SBQV V0201101N003612200019N0112651N1+02201+01901999999ADDGA1021+005401999GF102991999999999999999999MA1102001999999REMMET051METAR SBQV 022100Z 11007KT 9999 FEW018 22/19 Q1020;
0120833440999992012060222004-14950-040883FM-15+0914SBQV V0201001N004112200019N0112651N1+02101+01901999999ADDGA1021+004801999GF102991999999999999999999MA1102101999999REMMET051METAR SBQV 022200Z 10008KT 9999 FEW016 21/19 Q1021;
0143833440999992012060311004-14950-040883FM-15+0914SBQV V0200201N004112200019N0112651N1+02101+01901999999ADDGA1041+002401999GA2041+024001999GF104991999999999999999999MA1102201999999REMMET058METAR SBQV 031100Z 02008KT 9999 SCT008 SCT080 21/19 Q1022;
0120833440999992012060312004-14950-040883FM-15+0914SBQV V0200101N004112200019N0112651N1+02201+01901999999ADDGA1021+005401999GF102991999999999999999999MA1102301999999REMMET051METAR SBQV 031200Z 01008KT 9999 FEW018 22/19 Q1023;
0120833440999992012060313004-14950-040883FM-15+0914SBQV V0200201N004110054019N0112651N1+02301+01901999999ADDGA1071+005401999GF107991999999999999999999MA1102301999999REMMET051METAR SBQV 031300Z 02008KT 9999 BKN018 23/19 Q1023;
0120833440999992012060314004-14950-040883FM-15+0914SBQV V0200101N002610060019N0112651N1+02401+01801999999ADDGA1071+006001999GF107991999999999999999999MA1102201999999REMMET051METAR SBQV 031400Z 01005KT 9999 BKN020 24/18 Q1022;
0120833440999992012060315004-14950-040883FM-15+0914SBQV V0200101N003610060019N0112651N1+02601+01701999999ADDGA1071+006001999GF107991999999999999999999MA1102001999999REMMET051METAR SBQV 031500Z 01007KT 9999 BKN020 26/17 Q1020;
0120833440999992012060316004-14950-040883FM-15+0914SBQV V0200301N003110075019N0112651N1+02701+01701999999ADDGA1071+007501999GF107991999999999999999999MA1101901999999REMMET051METAR SBQV 031600Z 03006KT 9999 BKN025 27/17 Q1019;
0120833440999992012060317004-14950-040883FM-15+0914SBQV V0200301N003110090019N0112651N1+02801+01701999999ADDGA1071+009001999GF107991999999999999999999MA1101801999999REMMET051METAR SBQV 031700Z 03006KT 9999 BKN030 28/17 Q1018;
0120833440999992012060318004-14950-040883FM-15+0914SBQV V0203601N002110090019N0112651N1+02601+01701999999ADDGA1071+009001999GF107991999999999999999999MA1101801999999REMMET051METAR SBQV 031800Z 36004KT 9999 BKN030 26/17 Q1018;
0120833440999992012060319004-14950-040883FM-15+0914SBQV V0201101N005710075019N0112651N1+02501+02001999999ADDGA1071+007501999GF107991999999999999999999MA1101801999999REMMET051METAR SBQV 031900Z 11011KT 9999 BKN025 25/20 Q1018;
0120833440999992012060320004-14950-040883FM-15+0914SBQV V0201101N004110054019N0112651N1+02301+02001999999ADDGA1071+005401999GF107991999999999999999999MA1101801999999REMMET051METAR SBQV 032000Z 11008KT 9999 BKN018 23/20 Q1018;
0120833440999992012060321004-14950-040883FM-15+0914SBQV V0201001N003612200019N0112651N1+02201+02001999999ADDGA1041+004801999GF104991999999999999999999MA1101901999999REMMET051METAR SBQV 032100Z 10007KT 9999 SCT016 22/20 Q1019;
0120833440999992012060322004-14950-040883FM-15+0914SBQV V0201001N002612200019N0112651N1+02201+01901999999ADDGA1021+003901999GF102991999999999999999999MA1101901999999REMMET051METAR SBQV 032200Z 10005KT 9999 FEW013 22/19 Q1019;
0072833440999992012060323004-14950-040883FM-15+0914SBQV V0201001N004119999999Y0099001N1+02101+01901999999ADDMA1102001999999REMMET045METAR SBQV 032300Z 10008KT CAVOK 21/19 Q1020;
0120833440999992012060411004-14950-040883FM-15+0914SBQV V0200401N002612200019N0112651N1+02201+01801999999ADDGA1021+004501999GF102991999999999999999999MA1102201999999REMMET051METAR SBQV 041100Z 04005KT 9999 FEW015 22/18 Q1022;
0120833440999992012060412004-14950-040883FM-15+0914SBQV V0200401N003612200019N0112651N1+02301+01901999999ADDGA1021+004801999GF102991999999999999999999MA1102301999999REMMET051METAR SBQV 041200Z 04007KT 9999 FEW016 23/19 Q1023;
0120833440999992012060413004-14950-040883FM-15+0914SBQV V0200101N003112200019N0112651N1+02301+01901999999ADDGA1021+004801999GF102991999999999999999999MA1102201999999REMMET051METAR SBQV 041300Z 01006KT 9999 FEW016 23/19 Q1022;
0128833440999992012060414004-14950-040883FM-15+0914SBQV V0200501N003612200019N0112651N1+02501+01801999999ADDGA1021+006001999GF102991999999999999999999MA1102201999999REMMET059METAR SBQV 041400Z 05007KT 020V080 9999 FEW020 25/18 Q1022;
0120833440999992012060415004-14950-040883FM-15+0914SBQV V0200401N003112200019N0112651N1+02701+01701999999ADDGA1021+006001999GF102991999999999999999999MA1102101999999REMMET051METAR SBQV 041500Z 04006KT 9999 FEW020 27/17 Q1021;
0120833440999992012060416004-14950-040883FM-15+0914SBQV V0200401N003112200019N0112651N1+02701+01701999999ADDGA1021+007501999GF102991999999999999999999MA1102001999999REMMET051METAR SBQV 041600Z 04006KT 9999 FEW025 27/17 Q1020;
0120833440999992012060417004-14950-040883FM-15+0914SBQV V0200201N002612200019N0112651N1+02701+01701999999ADDGA1041+007501999GF104991999999999999999999MA1101901999999REMMET051METAR SBQV 041700Z 02005KT 9999 SCT025 27/17 Q1019;
0123833440999992012060418004-14950-040883FM-15+0914SBQV V0200501N004612200019N0112651N1+02701+01701999999ADDGA1021+006001021GF102991999999999999999999MA1101901999999REMMET054METAR SBQV 041800Z 05009KT 9999 FEW020TCU 27/17 Q1019;
0120833440999992012060419004-14950-040883FM-15+0914SBQV V0200501N004612200019N0112651N1+02601+01601999999ADDGA1021+007501999GF102991999999999999999999MA1101901999999REMMET051METAR SBQV 041900Z 05009KT 9999 FEW025 26/16 Q1019;
0120833440999992012060420004-14950-040883FM-15+0914SBQV V0200701N003612200019N0112651N1+02501+01701999999ADDGA1021+007501999GF102991999999999999999999MA1101901999999REMMET051METAR SBQV 042000Z 07007KT 9999 FEW025 25/17 Q1019;
0072833440999992012060421004-14950-040883FM-15+0914SBQV V0200601N004619999999Y0099001N1+02201+01801999999ADDMA1102001999999REMMET045METAR SBQV 042100Z 06009KT CAVOK 22/18 Q1020;
0072833440999992012060422004-14950-040883FM-15+0914SBQV V0200701N004119999999Y0099001N1+02101+01701999999ADDMA1102001999999REMMET045METAR SBQV 042200Z 07008KT CAVOK 21/17 Q1020;
0072833440999992012060423004-14950-040883FM-15+0914SBQV V0200701N003619999999Y0099001N1+02101+01701999999ADDMA1102101999999REMMET045METAR SBQV 042300Z 07007KT CAVOK 21/17 Q1021;
0120833440999992012060511004-14950-040883FM-15+0914SBQV V0200401N003112200019N0112651N1+02001+01701999999ADDGA1021+004801999GF102991999999999999999999MA1102301999999REMMET051METAR SBQV 051100Z 04006KT 9999 FEW016 20/17 Q1023;
0120833440999992012060512004-14950-040883FM-15+0914SBQV V0200201N004610054019N0112651N1+02201+01701999999ADDGA1071+005401999GF107991999999999999999999MA1102401999999REMMET051METAR SBQV 051200Z 02009KT 9999 BKN018 22/17 Q1024;
0120833440999992012060513004-14950-040883FM-15+0914SBQV V0200201N003112200019N0112651N1+02301+01701999999ADDGA1021+006001999GF102991999999999999999999MA1102401999999REMMET051METAR SBQV 051300Z 02006KT 9999 FEW020 23/17 Q1024;
0120833440999992012060514004-14950-040883FM-15+0914SBQV V0200401N003112200019N0112651N1+02501+01701999999ADDGA1021+007501999GF102991999999999999999999MA1102301999999REMMET051METAR SBQV 051400Z 04006KT 9999 FEW025 25/17 Q1023;
0120833440999992012060515004-14950-040883FM-15+0914SBQV V0200401N003112200019N0112651N1+02601+01501999999ADDGA1021+009001999GF102991999999999999999999MA1102201999999REMMET051METAR SBQV 051500Z 04006KT 9999 FEW030 26/15 Q1022;
0120833440999992012060516004-14950-040883FM-15+0914SBQV V0200601N003612200019N0112651N1+02801+01401999999ADDGA1021+009001999GF102991999999999999999999MA1102101999999REMMET051METAR SBQV 051600Z 06007KT 9999 FEW030 28/14 Q1021;
0120833440999992012060517004-14950-040883FM-15+0914SBQV V0200301N003612200019N0112651N1+02901+01401999999ADDGA1021+009001999GF102991999999999999999999MA1102001999999REMMET051METAR SBQV 051700Z 03007KT 9999 FEW030 29/14 Q1020;
0120833440999992012060518004-14950-040883FM-15+0914SBQV V0200501N004612200019N0112651N1+02801+01301999999ADDGA1041+009001999GF104991999999999999999999MA1102001999999REMMET051METAR SBQV 051800Z 05009KT 9999 SCT030 28/13 Q1020;
0120833440999992012060519004-14950-040883FM-15+0914SBQV V0200901N005112200019N0112651N1+02801+01301999999ADDGA1041+009001999GF104991999999999999999999MA1102001999999REMMET051METAR SBQV 051900Z 09010KT 9999 SCT030 28/13 Q1020;
0120833440999992012060520004-14950-040883FM-15+0914SBQV V0201001N005112200019N0112651N1+02501+01601999999ADDGA1021+007501999GF102991999999999999999999MA1102001999999REMMET051METAR SBQV 052000Z 10010KT 9999 FEW025 25/16 Q1020;
0120833440999992012060521004-14950-040883FM-15+0914SBQV V0201001N004112200019N0112651N1+02301+01601999999ADDGA1021+006001999GF102991999999999999999999MA1102101999999REMMET051METAR SBQV 052100Z 10008KT 9999 FEW020 23/16 Q1021;
0072833440999992012060522004-14950-040883FM-15+0914SBQV V0200901N003119999999Y0099001N1+02201+01701999999ADDMA1102101999999REMMET045METAR SBQV 052200Z 09006KT CAVOK 22/17 Q1021;
0072833440999992012060523004-14950-040883FM-15+0914SBQV V0200801N004119999999Y0099001N1+02201+01801999999ADDMA1102201999999REMMET045METAR SBQV 052300Z 08008KT CAVOK 22/18 Q1022;
0120833440999992012060611004-14950-040883FM-15+0914SBQV V0201001N003112200019N0112651N1+01801+01701999999ADDGA1041+001501999GF104991999999999999999999MA1102401999999REMMET051METAR SBQV 061100Z 10006KT 9999 SCT005 18/17 Q1024;
0120833440999992012060612004-14950-040883FM-15+0914SBQV V0200801N003610048019N0112651N1+02001+01701999999ADDGA1071+004801999GF107991999999999999999999MA1102511999999REMMET051METAR SBQV 061200Z 08007KT 9999 BKN016 20/17 Q1025;
0120833440999992012060613004-14950-040883FM-15+0914SBQV V0200801N004610060019N0112651N1+02301+01801999999ADDGA1071+006001999GF107991999999999999999999MA1102511999999REMMET051METAR SBQV 061300Z 08009KT 9999 BKN020 23/18 Q1025;
0120833440999992012060614004-14950-040883FM-15+0914SBQV V0201001N003610060019N0112651N1+02301+01801999999ADDGA1071+006001999GF107991999999999999999999MA1102401999999REMMET051METAR SBQV 061400Z 10007KT 9999 BKN020 23/18 Q1024;
0120833440999992012060615004-14950-040883FM-15+0914SBQV V0201101N004612200019N0112651N1+02501+01901999999ADDGA1041+007501999GF104991999999999999999999MA1102401999999REMMET051METAR SBQV 061500Z 11009KT 9999 SCT025 25/19 Q1024;
0123833440999992012060616004-14950-040883FM-15+0914SBQV V0201001N005712200019N0112651N1+02501+01801999999ADDGA1021+006001021GF102991999999999999999999MA1102301999999REMMET054METAR SBQV 061600Z 10011KT 9999 FEW020TCU 25/18 Q1023;
0143833440999992012060617004-14950-040883FM-15+0914SBQV V0201101N006712200019N0112651N1+02501+01901999999ADDGA1021+007501999GA2041+027001999GF104991999999999999999999MA1102201999999REMMET058METAR SBQV 061700Z 11013KT 9999 FEW025 SCT090 25/19 Q1022;
0120833440999992012060618004-14950-040883FM-15+0914SBQV V0200901N005712200019N0112651N1+02501+01701999999ADDGA1021+009001999GF102991999999999999999999MA1102201999999REMMET051METAR SBQV 061800Z 09011KT 9999 FEW030 25/17 Q1022;
0120833440999992012060619004-14950-040883FM-15+0914SBQV V0201101N005712200019N0112651N1+02501+01601999999ADDGA1021+009001999GF102991999999999999999999MA1102201999999REMMET051METAR SBQV 061900Z 11011KT 9999 FEW030 25/16 Q1022;
0120833440999992012060620004-14950-040883FM-15+0914SBQV V0201101N005112200019N0112651N1+02301+01701999999ADDGA1021+007501999GF102991999999999999999999MA1102201999999REMMET051METAR SBQV 062000Z 11010KT 9999 FEW025 23/17 Q1022;
0120833440999992012060621004-14950-040883FM-15+0914SBQV V0201001N004112200019N0112651N1+02201+01701999999ADDGA1021+005401999GF102991999999999999999999MA1102201999999REMMET051METAR SBQV 062100Z 10008KT 9999 FEW018 22/17 Q1022;
0072833440999992012060622004-14950-040883FM-15+0914SBQV V0201001N003119999999Y0099001N1+02101+01701999999ADDMA1102201999999REMMET045METAR SBQV 062200Z 10006KT CAVOK 21/17 Q1022;
0072833440999992012060623004-14950-040883FM-15+0914SBQV V0201001N002619999999Y0099001N1+02001+01701999999ADDMA1102301999999REMMET045METAR SBQV 062300Z 10005KT CAVOK 20/17 Q1023;
0072833440999992012060700004-14950-040883FM-15+0914SBQV V0201001N003619999999Y0099001N1+01901+01701999999ADDMA1102301999999REMMET045METAR SBQV 070000Z 10007KT CAVOK 19/17 Q1023;
0120833440999992012060711004-14950-040883FM-15+0914SBQV V0200701N004612200019N0112651N1+01901+01701999999ADDGA1021+003901999GF102991999999999999999999MA1102301999999REMMET051METAR SBQV 071100Z 07009KT 9999 FEW013 19/17 Q1023;
0120833440999992012060712004-14950-040883FM-15+0914SBQV V0200701N004112200019N0112651N1+02101+01701999999ADDGA1021+004501999GF102991999999999999999999MA1102301999999REMMET051METAR SBQV 071200Z 07008KT 9999 FEW015 21/17 Q1023;
0120833440999992012060713004-14950-040883FM-15+0914SBQV V0200801N005112200019N0112651N1+02401+01301999999ADDGA1021+005401999GF102991999999999999999999MA1102201999999REMMET051METAR SBQV 071300Z 08010KT 9999 FEW018 24/13 Q1022;
0120833440999992012060714004-14950-040883FM-15+0914SBQV V0200601N004112200019N0112651N1+02601+01401999999ADDGA1021+006001999GF102991999999999999999999MA1102201999999REMMET051METAR SBQV 071400Z 06008KT 9999 FEW020 26/14 Q1022;
0120833440999992012060715004-14950-040883FM-15+0914SBQV V0200901N003112200019N0112651N1+02701+01401999999ADDGA1041+006001999GF104991999999999999999999MA1102101999999REMMET051METAR SBQV 071500Z 09006KT 9999 SCT020 27/14 Q1021;
0120833440999992012060716004-14950-040883FM-15+0914SBQV V0200801N003612200019N0112651N1+02601+01401999999ADDGA1041+006001999GF104991999999999999999999MA1102001999999REMMET051METAR SBQV 071600Z 08007KT 9999 SCT020 26/14 Q1020;
0120833440999992012060717004-14950-040883FM-15+0914SBQV V0200701N003112200019N0112651N1+02701+01501999999ADDGA1041+007501999GF104991999999999999999999MA1101901999999REMMET051METAR SBQV 071700Z 07006KT 9999 SCT025 27/15 Q1019;
0120833440999992012060718004-14950-040883FM-15+0914SBQV V0201201N005712200019N0112651N1+02601+01601999999ADDGA1041+009001999GF104991999999999999999999MA1101901999999REMMET051METAR SBQV 071800Z 12011KT 9999 SCT030 26/16 Q1019;
0120833440999992012060719004-14950-040883FM-15+0914SBQV V0200801N004112200019N0112651N1+02601+01601999999ADDGA1021+009001999GF102991999999999999999999MA1101901999999REMMET051METAR SBQV 071900Z 08008KT 9999 FEW030 26/16 Q1019;
0120833440999992012060720004-14950-040883FM-15+0914SBQV V0201001N005112200019N0112651N1+02401+01601999999ADDGA1021+007501999GF102991999999999999999999MA1101901999999REMMET051METAR SBQV 072000Z 10010KT 9999 FEW025 24/16 Q1019;
0120833440999992012060721004-14950-040883FM-15+0914SBQV V0201001N004112200019N0112651N1+02201+01701999999ADDGA1021+006001999GF102991999999999999999999MA1102001999999REMMET051METAR SBQV 072100Z 10008KT 9999 FEW020 22/17 Q1020;
0072833440999992012060722004-14950-040883FM-15+0914SBQV V0201101N004119999999Y0099001N1+02001+01801999999ADDMA1102001999999REMMET045METAR SBQV 072200Z 11008KT CAVOK 20/18 Q1020;
0072833440999992012060723004-14950-040883FM-15+0914SBQV V0201101N004119999999Y0099001N1+01901+01801999999ADDMA1102101999999REMMET045METAR SBQV 072300Z 11008KT CAVOK 19/18 Q1021;
0120833440999992012060811004-14950-040883FM-15+0914SBQV V0200701N004112200019N0112651N1+02001+01701999999ADDGA1021+004501999GF102991999999999999999999MA1102201999999REMMET051METAR SBQV 081100Z 07008KT 9999 FEW015 20/17 Q1022;
0120833440999992012060812004-14950-040883FM-15+0914SBQV V0200701N003112200019N0112651N1+02101+01601999999ADDGA1021+004501999GF102991999999999999999999MA1102201999999REMMET051METAR SBQV 081200Z 07006KT 9999 FEW015 21/16 Q1022;
0120833440999992012060813004-14950-040883FM-15+0914SBQV V0200601N002612200019N0112651N1+02401+01601999999ADDGA1041+004801999GF104991999999999999999999MA1102201999999REMMET051METAR SBQV 081300Z 06005KT 9999 SCT016 24/16 Q1022;
0120833440999992012060814004-14950-040883FM-15+0914SBQV V0200601N002612200019N0112651N1+02501+01601999999ADDGA1041+006001999GF104991999999999999999999MA1102101999999REMMET051METAR SBQV 081400Z 06005KT 9999 SCT020 25/16 Q1021;
0120833440999992012060815004-14950-040883FM-15+0914SBQV V0201301N003112200019N0112651N1+02601+01501999999ADDGA1041+007501999GF104991999999999999999999MA1102001999999REMMET051METAR SBQV 081500Z 13006KT 9999 SCT025 26/15 Q1020;
0120833440999992012060817004-14950-040883FM-15+0914SBQV V0201401N004112200019N0112651N1+02601+01701999999ADDGA1041+007501999GF104991999999999999999999MA1101901999999REMMET051METAR SBQV 081700Z 14008KT 9999 SCT025 26/17 Q1019;
0120833440999992012060818004-14950-040883FM-15+0914SBQV V0201301N004110075019N0112651N1+02601+01701999999ADDGA1071+007501999GF107991999999999999999999MA1101801999999REMMET051METAR SBQV 081800Z 13008KT 9999 BKN025 26/17 Q1018;
0120833440999992012060819004-14950-040883FM-15+0914SBQV V0201201N004112200019N0112651N1+02501+01701999999ADDGA1041+006001999GF104991999999999999999999MA1101901999999REMMET051METAR SBQV 081900Z 12008KT 9999 SCT020 25/17 Q1019;
0120833440999992012060820004-14950-040883FM-15+0914SBQV V0201201N004612200019N0112651N1+02401+01701999999ADDGA1021+005401999GF102991999999999999999999MA1101901999999REMMET051METAR SBQV 082000Z 12009KT 9999 FEW018 24/17 Q1019;
0120833440999992012060821004-14950-040883FM-15+0914SBQV V0201201N004612200019N0112651N1+02101+01801999999ADDGA1021+004501999GF102991999999999999999999MA1102001999999REMMET051METAR SBQV 082100Z 12009KT 9999 FEW015 21/18 Q1020;
0120833440999992012060822004-14950-040883FM-15+0914SBQV V0201101N004112200019N0112651N1+02001+01801999999ADDGA1021+003901999GF102991999999999999999999MA1102001999999REMMET051METAR SBQV 082200Z 11008KT 9999 FEW013 20/18 Q1020;
0120833440999992012060823004-14950-040883FM-15+0914SBQV V0201001N003612200019N0112651N1+01901+01801999999ADDGA1021+002101999GF102991999999999999999999MA1102001999999REMMET051METAR SBQV 082300Z 10007KT 9999 FEW007 19/18 Q1020;
0120833440999992012060911004-14950-040883FM-15+0914SBQV V0201601N002112200019N0112651N1+01801+01601999999ADDGA1041+003001999GF104991999999999999999999MA1102201999999REMMET051METAR SBQV 091100Z 16004KT 9999 SCT010 18/16 Q1022;
0120833440999992012060912004-14950-040883FM-15+0914SBQV V0201101N002612200019N0112651N1+02101+01701999999ADDGA1041+003601999GF104991999999999999999999MA1102201999999REMMET051METAR SBQV 091200Z 11005KT 9999 SCT012 21/17 Q1022;
0120833440999992012060913004-14950-040883FM-15+0914SBQV V0201001N004112200019N0112651N1+02301+01601999999ADDGA1021+004501999GF102991999999999999999999MA1102201999999REMMET051METAR SBQV 091300Z 10008KT 9999 FEW015 23/16 Q1022;
0120833440999992012060914004-14950-040883FM-15+0914SBQV V0201201N004112200019N0112651N1+02501+01401999999ADDGA1041+004801999GF104991999999999999999999MA1102201999999REMMET051METAR SBQV 091400Z 12008KT 9999 SCT016 25/14 Q1022;
0120833440999992012060915004-14950-040883FM-15+0914SBQV V0201101N004112200019N0112651N1+02601+01501999999ADDGA1041+005401999GF104991999999999999999999MA1102101999999REMMET051METAR SBQV 091500Z 11008KT 9999 SCT018 26/15 Q1021;
0120833440999992012060916004-14950-040883FM-15+0914SBQV V0201201N004612200019N0112651N1+02601+01601999999ADDGA1041+006001999GF104991999999999999999999MA1102001999999REMMET051METAR SBQV 091600Z 12009KT 9999 SCT020 26/16 Q1020;
0120833440999992012060917004-14950-040883FM-15+0914SBQV V0201401N005710060019N0112651N1+02601+01601999999ADDGA1071+006001999GF107991999999999999999999MA1102001999999REMMET051METAR SBQV 091700Z 14011KT 9999 BKN020 26/16 Q1020;
0146833440999992012060918004-14950-040883FM-15+0914SBQV V0201201N005712200019N0112651N1+02501+01401999999ADDGA1021+005401021GA2041+006001999GF104991999999999999999999MA1102001999999REMMET061METAR SBQV 091800Z 12011KT 9999 FEW018TCU SCT020 25/14 Q1020;
0120833440999992012060919004-14950-040883FM-15+0914SBQV V0201401N005110060019N0112651N1+02401+01601999999ADDGA1071+006001999GF107991999999999999999999MA1102001999999REMMET051METAR SBQV 091900Z 14010KT 9999 BKN020 24/16 Q1020;
0120833440999992012060920004-14950-040883FM-15+0914SBQV V0201301N005110060019N0112651N1+02301+01701999999ADDGA1071+006001999GF107991999999999999999999MA1102001999999REMMET051METAR SBQV 092000Z 13010KT 9999 BKN020 23/17 Q1020;
0120833440999992012060921004-14950-040883FM-15+0914SBQV V0201201N004112200019N0112651N1+02101+01701999999ADDGA1021+005401999GF102991999999999999999999MA1102101999999REMMET051METAR SBQV 092100Z 12008KT 9999 FEW018 21/17 Q1021;
0072833440999992012060922004-14950-040883FM-15+0914SBQV V0201001N003119999999Y0099001N1+02001+01701999999ADDMA1102101999999REMMET045METAR SBQV 092200Z 10006KT CAVOK 20/17 Q1021;
0120833440999992012061011004-14950-040883FM-15+0914SBQV V0201301N004610033019N0112651N1+01801+01701999999ADDGA1071+003301999GF107991999999999999999999MA1102301999999REMMET051METAR SBQV 101100Z 13009KT 9999 BKN011 18/17 Q1023;
0143833440999992012061012004-14950-040883FM-15+0914SBQV V0201301N006212200019N0112651N1+01901+01701999999ADDGA1041+003901999GA2041+021001999GF104991999999999999999999MA1102301999999REMMET058METAR SBQV 101200Z 13012KT 9999 SCT013 SCT070 19/17 Q1023;
0120833440999992012061013004-14950-040883FM-15+0914SBQV V0201301N005710045019N0112651N1+02101+01701999999ADDGA1071+004501999GF107991999999999999999999MA1102301999999REMMET051METAR SBQV 101300Z 13011KT 9999 BKN015 21/17 Q1023;
0120833440999992012061014004-14950-040883FM-15+0914SBQV V0201401N005110048019N0112651N1+02201+01701999999ADDGA1071+004801999GF107991999999999999999999MA1102301999999REMMET051METAR SBQV 101400Z 14010KT 9999 BKN016 22/17 Q1023;
0120833440999992012061015004-14950-040883FM-15+0914SBQV V0201301N006210048019N0112651N1+02201+01601999999ADDGA1071+004801999GF107991999999999999999999MA1102201999999REMMET051METAR SBQV 101500Z 13012KT 9999 BKN016 22/16 Q1022;
0120833440999992012061016004-14950-040883FM-15+0914SBQV V0201201N004612200019N0112651N1+02401+01601999999ADDGA1041+005401999GF104991999999999999999999MA1102101999999REMMET051METAR SBQV 101600Z 12009KT 9999 SCT018 24/16 Q1021;
0120833440999992012061017004-14950-040883FM-15+0914SBQV V0201201N005112200019N0112651N1+02401+01601999999ADDGA1041+006001999GF104991999999999999999999MA1102001999999REMMET051METAR SBQV 101700Z 12010KT 9999 SCT020 24/16 Q1020;
0120833440999992012061018004-14950-040883FM-15+0914SBQV V0201301N005112200019N0112651N1+02401+01601999999ADDGA1021+006001999GF102991999999999999999999MA1102001999999REMMET051METAR SBQV 101800Z 13010KT 9999 FEW020 24/16 Q1020;
0120833440999992012061019004-14950-040883FM-15+0914SBQV V0201201N004612200019N0112651N1+02401+01701999999ADDGA1021+007501999GF102991999999999999999999MA1102001999999REMMET051METAR SBQV 101900Z 12009KT 9999 FEW025 24/17 Q1020;
0120833440999992012061020004-14950-040883FM-15+0914SBQV V0201201N004612200019N0112651N1+02201+01701999999ADDGA1021+006001999GF102991999999999999999999MA1102101999999REMMET051METAR SBQV 102000Z 12009KT 9999 FEW020 22/17 Q1021;
0072833440999992012061021004-14950-040883FM-15+0914SBQV V0201001N003619999999Y0099001N1+02001+01601999999ADDMA1102101999999REMMET045METAR SBQV 102100Z 10007KT CAVOK 20/16 Q1021;
0072833440999992012061022004-14950-040883FM-15+0914SBQV V0201101N003119999999Y0099001N1+01901+01701999999ADDMA1102201999999REMMET045METAR SBQV 102200Z 11006KT CAVOK 19/17 Q1022;
0072833440999992012061023004-14950-040883FM-15+0914SBQV V0201101N002619999999Y0099001N1+01801+01701999999ADDMA1102201999999REMMET045METAR SBQV 102300Z 11005KT CAVOK 18/17 Q1022;
0143833440999992012061111004-14950-040883FM-15+0914SBQV V0201101N004110045019N0112651N1+01901+01701999999ADDGA1041+002701999GA2071+004501999GF107991999999999999999999MA1102301999999REMMET058METAR SBQV 111100Z 11008KT 9999 SCT009 BKN015 19/17 Q1023;
0143833440999992012061112004-14950-040883FM-15+0914SBQV V0201101N004610045019N0112651N1+02001+01701999999ADDGA1041+002701999GA2071+004501999GF107991999999999999999999MA1102401999999REMMET058METAR SBQV 111200Z 11009KT 9999 SCT009 BKN015 20/17 Q1024;
0136833440999992012061113004-14950-040883FM-15+0914SBQV V0201401N00411004801CN0112651N1+02001+01801999999ADDGA1071+004801999GA2041+024001999MA1102401999999REMMET058METAR SBQV 111300Z 14008KT 9999 BKN016 SCT080 20/18 Q1024;EQDQ01+000042SCOTCV
0120833440999992012061114004-14950-040883FM-15+0914SBQV V0201401N004610060019N0112651N1+02101+01801999999ADDGA1071+006001999GF107991999999999999999999MA1102301999999REMMET051METAR SBQV 111400Z 14009KT 9999 BKN020 21/18 Q1023;
0146833440999992012061115004-14950-040883FM-15+0914SBQV V0201101N003110060019N0112651N1+02201+01701999999ADDGA1021+005401021GA2071+006001999GF107991999999999999999999MA1102201999999REMMET061METAR SBQV 111500Z 11006KT 9999 FEW018TCU BKN020 22/17 Q1022;
0146833440999992012061116004-14950-040883FM-15+0914SBQV V0201401N004112200019N0112651N1+02301+01701999999ADDGA1021+005401021GA2041+006001999GF104991999999999999999999MA1102101999999REMMET061METAR SBQV 111600Z 14008KT 9999 FEW018TCU SCT020 23/17 Q1021;
0146833440999992012061118004-14950-040883FM-15+0914SBQV V0201301N004612200019N0112651N1+02501+01601999999ADDGA1021+006001021GA2041+007501999GF104991999999999999999999MA1102001999999REMMET061METAR SBQV 111800Z 13009KT 9999 FEW020TCU SCT025 25/16 Q1020;
0123833440999992012061119004-14950-040883FM-15+0914SBQV V0201101N004612200019N0112651N1+02401+01601999999ADDGA1021+006001021GF102991999999999999999999MA1102001999999REMMET054METAR SBQV 111900Z 11009KT 9999 FEW020TCU 24/16 Q1020;
0120833440999992012061120004-14950-040883FM-15+0914SBQV V0201201N005112200019N0112651N1+02301+01701999999ADDGA1021+006001999GF102991999999999999999999MA1102001999999REMMET051METAR SBQV 112000Z 12010KT 9999 FEW020 23/17 Q1020;
0120833440999992012061212004-14950-040883FM-15+0914SBQV V0201101N004610012019N0112651N1+02101+01701999999ADDGA1071+001201999GF107991999999999999999999MA1102301999999REMMET051METAR SBQV 121200Z 11009KT 9999 BKN004 21/17 Q1023;
0114833440999992012061214004-14950-040883FM-15+0914SBQV V0200801N004610045019N0112651N1+99999+99999999999ADDGA1071+004501999GF107991999999999999999999MA1102201999999REMMET045METAR SBQV 121400Z 08009KT 9999 BKN015 Q1022;
0120833440999992012061215004-14950-040883FM-15+0914SBQV V0201101N003610060019N0112651N1+02401+01701999999ADDGA1071+006001999GF107991999999999999999999MA1102201999999REMMET051METAR SBQV 121500Z 11007KT 9999 BKN020 24/17 Q1022;
0120833440999992012061216004-14950-040883FM-15+0914SBQV V0201001N004110060019N0112651N1+02501+01701999999ADDGA1071+006001999GF107991999999999999999999MA1102001999999REMMET051METAR SBQV 121600Z 10008KT 9999 BKN020 25/17 Q1020;
0120833440999992012061217004-14950-040883FM-15+0914SBQV V0201301N004610060019N0112651N1+02501+01801999999ADDGA1071+006001999GF107991999999999999999999MA1102001999999REMMET051METAR SBQV 121700Z 13009KT 9999 BKN020 25/18 Q1020;
0143833440999992012061218004-14950-040883FM-15+0914SBQV V0201201N006212200019N0112651N1+02301+01901999999ADDGA1021+003301999GA2041+004501999GF104991999999999999999999MA1102001999999REMMET058METAR SBQV 121800Z 12012KT 9999 FEW011 SCT015 23/19 Q1020;
0143833440999992012061219004-14950-040883FM-15+0914SBQV V0201201N005712200019N0112651N1+02301+01801999999ADDGA1021+003301999GA2041+004501999GF104991999999999999999999MA1102001999999REMMET058METAR SBQV 121900Z 12011KT 9999 FEW011 SCT015 23/18 Q1020;
0143833440999992012061220004-14950-040883FM-15+0914SBQV V0201001N005112200019N0112651N1+02101+01801999999ADDGA1021+003301999GA2041+004501999GF104991999999999999999999MA1102001999999REMMET058METAR SBQV 122000Z 10010KT 9999 FEW011 SCT015 21/18 Q1020;
0120833440999992012061221004-14950-040883FM-15+0914SBQV V0201101N004612200019N0112651N1+02001+01901999999ADDGA1041+003001999GF104991999999999999999999MA1102101999999REMMET051METAR SBQV 122100Z 11009KT 9999 SCT010 20/19 Q1021;
0120833440999992012061222004-14950-040883FM-15+0914SBQV V0201101N005112200019N0112651N1+01901+01801999999ADDGA1041+002101999GF104991999999999999999999MA1102101999999REMMET051METAR SBQV 122200Z 11010KT 9999 SCT007 19/18 Q1021;
0120833440999992012061223004-14950-040883FM-15+0914SBQV V0201101N004612200019N0112651N1+01901+01801999999ADDGA1041+001801999GF104991999999999999999999MA1102201999999REMMET051METAR SBQV 122300Z 11009KT 9999 SCT006 19/18 Q1022;
0127833440999992012061311004-14950-040883FM-15+0914SBQV V0201001N004110240019N0112651N1+01801+01701999999ADDGA1021+002401999GA2071+024001999GF107991999999999999999999REMMET057METAR SBQV 131100Z 10008KT 9999 FEW008 BKN080 18/17 Q102;
0143833440999992012061312004-14950-040883FM-15+0914SBQV V0201101N004610240019N0112651N1+02001+01601999999ADDGA1021+004501999GA2071+024001999GF107991999999999999999999MA1102401999999REMMET058METAR SBQV 131200Z 11009KT 9999 FEW015 BKN080 20/16 Q1024;
0143833440999992012061313004-14950-040883FM-15+0914SBQV V0201001N004610240019N0112651N1+02101+01601999999ADDGA1041+004801999GA2071+024001999GF107991999999999999999999MA1102401999999REMMET058METAR SBQV 131300Z 10009KT 9999 SCT016 BKN080 21/16 Q1024;
0136833440999992012061314004-14950-040883FM-15+0914SBQV V0201001N00411004801CN0112651N1+02301+01601999999ADDGA1071+004801999GA2041+024001999MA1102401999999REMMET058METAR SBQV 131400Z 10008KT 9999 BKN016 SCT080 23/16 Q1024;EQDQ01+000042SCOTCV
0120833440999992012061315004-14950-040883FM-15+0914SBQV V0201101N004110054019N0112651N1+02301+01601999999ADDGA1071+005401999GF107991999999999999999999MA1102301999999REMMET051METAR SBQV 131500Z 11008KT 9999 BKN018 23/16 Q1023;
0120833440999992012061316004-14950-040883FM-15+0914SBQV V0201201N005710054019N0112651N1+02301+01601999999ADDGA1071+005401999GF107991999999999999999999MA1102201999999REMMET051METAR SBQV 131600Z 12011KT 9999 BKN018 23/16 Q1022;
0148833440999992012061317004-14950-040883FM-15+0914SBQV V0201001N00461005401CN0112651N1+02401+01501999999ADDGA1071+005401999GF107991999999999999999999MA1102101999999REMMET060METAR SBQV 131700Z 10009KT 9999 WWW/SUPERBKN018 24/15 Q1021;EQDQ01    792PRSWM1
0120833440999992012061318004-14950-040883FM-15+0914SBQV V0201101N004610060019N0112651N1+02401+01501999999ADDGA1071+006001999GF107991999999999999999999MA1102101999999REMMET051METAR SBQV 131800Z 11009KT 9999 BKN020 24/15 Q1021;
0143833440999992012061319004-14950-040883FM-15+0914SBQV V0201101N004110210019N0112651N1+02301+01601999999ADDGA1041+006001999GA2071+021001999GF107991999999999999999999MA1102101999999REMMET058METAR SBQV 131900Z 11008KT 9999 SCT020 BKN070 23/16 Q1021;
0143833440999992012061320004-14950-040883FM-15+0914SBQV V0201101N004612200019N0112651N1+02201+01301999999ADDGA1021+006001999GA2041+021001999GF104991999999999999999999MA1102101999999REMMET058METAR SBQV 132000Z 11009KT 9999 FEW020 SCT070 22/13 Q1021;
0143833440999992012061321004-14950-040883FM-15+0914SBQV V0200901N005110210019N0112651N1+02001+01701999999ADDGA1021+005401999GA2071+021001999GF107991999999999999999999MA1102101999999REMMET058METAR SBQV 132100Z 09010KT 9999 FEW018 BKN070 20/17 Q1021;
0072833440999992012061322004-14950-040883FM-15+0914SBQV V0201101N003619999999Y0099001N1+01901+01701999999ADDMA1102201999999REMMET045METAR SBQV 132200Z 11007KT CAVOK 19/17 Q1022;
0120833440999992012061323004-14950-040883FM-15+0914SBQV V0201101N004612200019N0112651N1+01901+01701999999ADDGA1041+003001999GF104991999999999999999999MA1102201999999REMMET051METAR SBQV 132300Z 11009KT 9999 SCT010 19/17 Q1022;
0120833440999992012061411004-14950-040883FM-15+0914SBQV V0201101N004112200019N0112651N1+01801+01701999999ADDGA1021+002701999GF102991999999999999999999MA1102301999999REMMET051METAR SBQV 141100Z 11008KT 9999 FEW009 18/17 Q1023;
0120833440999992012061412004-14950-040883FM-15+0914SBQV V0201201N005110048019N0112651N1+02001+01601999999ADDGA1071+004801999GF107991999999999999999999MA1102301999999REMMET051METAR SBQV 141200Z 12010KT 9999 BKN016 20/16 Q1023;
0120833440999992012061413004-14950-040883FM-15+0914SBQV V0201001N006210048019N0112651N1+02101+01601999999ADDGA1071+004801999GF107991999999999999999999MA1102401999999REMMET051METAR SBQV 141300Z 10012KT 9999 BKN016 21/16 Q1024;
0120833440999992012061414004-14950-040883FM-15+0914SBQV V0201201N005710060019N0112651N1+02201+01601999999ADDGA1071+006001999GF107991999999999999999999MA1102301999999REMMET051METAR SBQV 141400Z 12011KT 9999 BKN020 22/16 Q1023;
0120833440999992012061415004-14950-040883FM-15+0914SBQV V0201001N005112200019N0112651N1+02401+01401999999ADDGA1041+006001999GF104991999999999999999999MA1102201999999REMMET051METAR SBQV 141500Z 10010KT 9999 SCT020 24/14 Q1022;
0120833440999992012061416004-14950-040883FM-15+0914SBQV V0201001N004110060019N0112651N1+02501+01501999999ADDGA1071+006001999GF107991999999999999999999MA1102201999999REMMET051METAR SBQV 141600Z 10008KT 9999 BKN020 25/15 Q1022;
0120833440999992012061417004-14950-040883FM-15+0914SBQV V0201001N004612200019N0112651N1+02401+01401999999ADDGA1041+006001999GF104991999999999999999999MA1102101999999REMMET051METAR SBQV 141700Z 10009KT 9999 SCT020 24/14 Q1021;
0120833440999992012061418004-14950-040883FM-15+0914SBQV V0201001N005712200019N0112651N1+02501+01401999999ADDGA1041+006001999GF104991999999999999999999MA1102001999999REMMET051METAR SBQV 141800Z 10011KT 9999 SCT020 25/14 Q1020;
0120833440999992012061419004-14950-040883FM-15+0914SBQV V0201001N004112200019N0112651N1+02401+01401999999ADDGA1021+005401999GF102991999999999999999999MA1102001999999REMMET051METAR SBQV 141900Z 10008KT 9999 FEW018 24/14 Q1020;
0120833440999992012061420004-14950-040883FM-15+0914SBQV V0201101N004112200019N0112651N1+02301+01501999999ADDGA1021+004801999GF102991999999999999999999MA1102101999999REMMET051METAR SBQV 142000Z 11008KT 9999 FEW016 23/15 Q1021;
0120833440999992012061421004-14950-040883FM-15+0914SBQV V0201101N003612200019N0112651N1+02101+01501999999ADDGA1021+004501999GF102991999999999999999999MA1102101999999REMMET051METAR SBQV 142100Z 11007KT 9999 FEW015 21/15 Q1021;
0120833440999992012061422004-14950-040883FM-15+0914SBQV V0201101N003612200019N0112651N1+02001+01601999999ADDGA1041+003601999GF104991999999999999999999MA1102201999999REMMET051METAR SBQV 142200Z 11007KT 9999 SCT012 20/16 Q1022;
0120833440999992012061423004-14950-040883FM-15+0914SBQV V0201201N003612200019N0112651N1+01901+01701999999ADDGA1041+003301999GF104991999999999999999999MA1102301999999REMMET051METAR SBQV 142300Z 12007KT 9999 SCT011 19/17 Q1023;
0120833440999992012061511004-14950-040883FM-15+0914SBQV V0200901N004110045019N0112651N1+01801+01701999999ADDGA1071+004501999GF107991999999999999999999MA1102301999999REMMET051METAR SBQV 151100Z 09008KT 9999 BKN015 18/17 Q1023;
0120833440999992012061512004-14950-040883FM-15+0914SBQV V0201001N004610048019N0112651N1+02001+01601999999ADDGA1071+004801999GF107991999999999999999999MA1102301999999REMMET051METAR SBQV 151200Z 10009KT 9999 BKN016 20/16 Q1023;
0120833440999992012061513004-14950-040883FM-15+0914SBQV V0200701N004610054019N0112651N1+02201+01601999999ADDGA1071+005401999GF107991999999999999999999MA1102201999999REMMET051METAR SBQV 151300Z 07009KT 9999 BKN018 22/16 Q1022;
0120833440999992012061514004-14950-040883FM-15+0914SBQV V0200901N004110060019N0112651N1+02301+01601999999ADDGA1071+006001999GF107991999999999999999999MA1102201999999REMMET051METAR SBQV 151400Z 09008KT 9999 BKN020 23/16 Q1022;
0120833440999992012061515004-14950-040883FM-15+0914SBQV V0201001N004110060019N0112651N1+02301+01501999999ADDGA1071+006001999GF107991999999999999999999MA1102101999999REMMET051METAR SBQV 151500Z 10008KT 9999 BKN020 23/15 Q1021;
0123833440999992012061516004-14950-040883FM-15+0914SBQV V0201201N004112200019N0112651N1+02501+01501999999ADDGA1021+005401021GF102991999999999999999999MA1102001999999REMMET054METAR SBQV 151600Z 12008KT 9999 FEW018TCU 25/15 Q1020;
0146833440999992012061517004-14950-040883FM-15+0914SBQV V0201301N004112200019N0112651N1+02401+01501999999ADDGA1021+005401021GA2041+006001999GF104991999999999999999999MA1101901999999REMMET061METAR SBQV 151700Z 13008KT 9999 FEW018TCU SCT020 24/15 Q1019;
0169833440999992012061518004-14950-040883FM-15+0914SBQV V0200701N00261006001CN0112651N1+02301+01601999999ADDGA1021+005401021GA2041+006001999GA3071+021001999GF107991999999999999999999MA1101901999999REMMET068METAR SBQV 151800Z 07005KT 9999 FEW018TCU SCT020 BKN070 23/16 Q1019;
0169833440999992012061519004-14950-040883FM-15+0914SBQV V0201201N00411006001CN0112651N1+02301+01601999999ADDGA1021+005401021GA2041+006001999GA3071+021001999GF107991999999999999999999MA1101801999999REMMET068METAR SBQV 151900Z 12008KT 9999 FEW018TCU SCT020 BKN070 23/16 Q1018;
0146833440999992012061520004-14950-040883FM-15+0914SBQV V0201001N003110210019N0112651N1+02301+01601999999ADDGA1021+004801021GA2071+021001999GF107991999999999999999999MA1101901999999REMMET061METAR SBQV 152000Z 10006KT 9999 FEW016TCU BKN070 23/16 Q1019;
0143833440999992012061521004-14950-040883FM-15+0914SBQV V0201101N004610210019N0112651N1+02101+01701999999ADDGA1021+004501999GA2071+021001999GF107991999999999999999999MA1102001999999REMMET058METAR SBQV 152100Z 11009KT 9999 FEW015 BKN070 21/17 Q1020;
0072833440999992012061522004-14950-040883FM-15+0914SBQV V0201001N003619999999Y0099001N1+02101+01701999999ADDMA1102001999999REMMET045METAR SBQV 152200Z 10007KT CAVOK 21/17 Q1020;
0072833440999992012061523004-14950-040883FM-15+0914SBQV V0201001N004619999999Y0099001N1+02001+01701999999ADDMA1102101999999REMMET045METAR SBQV 152300Z 10009KT CAVOK 20/17 Q1021;
0072833440999992012061600004-14950-040883FM-15+0914SBQV V0201001N004119999999Y0099001N1+02001+01701999999ADDMA1102101999999REMMET045METAR SBQV 160000Z 10008KT CAVOK 20/17 Q1021;
0120833440999992012061611004-14950-040883FM-15+0914SBQV V0201001N003610045019N0112651N1+01901+01601999999ADDGA1071+004501999GF107991999999999999999999MA1102301999999REMMET051METAR SBQV 161100Z 10007KT 9999 BKN015 19/16 Q1023;
0120833440999992012061612004-14950-040883FM-15+0914SBQV V0201001N004112200019N0112651N1+02001+01601999999ADDGA1021+006001999GF102991999999999999999999MA1102301999999REMMET051METAR SBQV 161200Z 10008KT 9999 FEW020 20/16 Q1023;
0120833440999992012061613004-14950-040883FM-15+0914SBQV V0201001N003612200019N0112651N1+02201+01601999999ADDGA1041+006001999GF104991999999999999999999MA1102301999999REMMET051METAR SBQV 161300Z 10007KT 9999 SCT020 22/16 Q1023;
0120833440999992012061614004-14950-040883FM-15+0914SBQV V0200801N002110060019N0112651N1+02301+01501999999ADDGA1071+006001999GF107991999999999999999999MA1102301999999REMMET051METAR SBQV 161400Z 08004KT 9999 BKN020 23/15 Q1023;
0120833440999992012061615004-14950-040883FM-15+0914SBQV V0201201N002612200019N0112651N1+02401+01501999999ADDGA1041+007501999GF104991999999999999999999MA1102101999999REMMET051METAR SBQV 161500Z 12005KT 9999 SCT025 24/15 Q1021;
0120833440999992012061617004-14950-040883FM-15+0914SBQV V0200701N002110075019N0112651N1+02501+01301999999ADDGA1071+007501999GF107991999999999999999999MA1101901999999REMMET051METAR SBQV 161700Z 07004KT 9999 BKN025 25/13 Q1019;
0146833440999992012061618004-14950-040883FM-15+0914SBQV V0200801N004110075019N0112651N1+02301+01801999999ADDGA1021+006001021GA2071+007501999GF107991999999999999999999MA1101901999999REMMET061METAR SBQV 161800Z 08008KT 9999 FEW020TCU BKN025 23/18 Q1019;
0146833440999992012061620004-14950-040883FM-15+0914SBQV V0201101N003612200019N0112651N1+02001+01901999999ADDGA1021+005401021GA2041+006001999GF104991999999999999999999MA1102001999999REMMET061METAR SBQV 162000Z 11007KT 9999 FEW018TCU SCT020 20/19 Q1020;
0120833440999992012061621004-14950-040883FM-15+0914SBQV V0201101N002610048019N0112651N1+02001+01801999999ADDGA1071+004801999GF107991999999999999999999MA1102001999999REMMET051METAR SBQV 162100Z 11005KT 9999 BKN016 20/18 Q1020;
0120833440999992012061622004-14950-040883FM-15+0914SBQV V0200901N002112200019N0112651N1+01901+01801999999ADDGA1021+004501999GF102991999999999999999999MA1102101999999REMMET051METAR SBQV 162200Z 09004KT 9999 FEW015 19/18 Q1021;
0072833440999992012061711004-14950-040883FM-15+0914SBQV V0200801N002119999999Y0099001N1+02001+01701999999ADDMA1102301999999REMMET045METAR SBQV 171100Z 08004KT CAVOK 20/17 Q1023;
0120833440999992012061712004-14950-040883FM-15+0914SBQV V0200901N001012200019N0112651N1+02101+01601999999ADDGA1021+004501999GF102991999999999999999999MA1102301999999REMMET051METAR SBQV 171200Z 09002KT 9999 FEW015 21/16 Q1023;
0120833440999992012061713004-14950-040883FM-15+0914SBQV V0200601N002112200019N0112651N1+02301+01601999999ADDGA1021+006001999GF102991999999999999999999MA1102301999999REMMET051METAR SBQV 171300Z 06004KT 9999 FEW020 23/16 Q1023;
0120833440999992012061714004-14950-040883FM-15+0914SBQV V0200901N002112200019N0112651N1+02501+01401999999ADDGA1041+007501999GF104991999999999999999999MA1102201999999REMMET051METAR SBQV 171400Z 09004KT 9999 SCT025 25/14 Q1022;
0120833440999992012061715004-14950-040883FM-15+0914SBQV V0200701N002112200019N0112651N1+02601+01401999999ADDGA1041+007501999GF104991999999999999999999MA1102101999999REMMET051METAR SBQV 171500Z 07004KT 9999 SCT025 26/14 Q1021;
0120833440999992012061716004-14950-040883FM-15+0914SBQV V0201101N004112200019N0112651N1+02601+01401999999ADDGA1041+009001999GF104991999999999999999999MA1102001999999REMMET051METAR SBQV 171600Z 11008KT 9999 SCT030 26/14 Q1020;
0120833440999992012061717004-14950-040883FM-15+0914SBQV V0200801N003110075019N0112651N1+02501+01401999999ADDGA1071+007501999GF107991999999999999999999MA1101901999999REMMET051METAR SBQV 171700Z 08006KT 9999 BKN025 25/14 Q1019;
0120833440999992012061718004-14950-040883FM-15+0914SBQV V0201201N003110060019N0112651N1+02501+01401999999ADDGA1071+006001999GF107991999999999999999999MA1101901999999REMMET051METAR SBQV 171800Z 12006KT 9999 BKN020 25/14 Q1019;
0120833440999992012061719004-14950-040883FM-15+0914SBQV V0200901N003112200019N0112651N1+02501+01401999999ADDGA1041+006001999GF104991999999999999999999MA1101901999999REMMET051METAR SBQV 171900Z 09006KT 9999 SCT020 25/14 Q1019;
0120833440999992012061720004-14950-040883FM-15+0914SBQV V0201001N004112200019N0112651N1+02401+01501999999ADDGA1021+005401999GF102991999999999999999999MA1101901999999REMMET051METAR SBQV 172000Z 10008KT 9999 FEW018 24/15 Q1019;
0120833440999992012061721004-14950-040883FM-15+0914SBQV V0201101N003612200019N0112651N1+02201+01501999999ADDGA1021+004801999GF102991999999999999999999MA1102001999999REMMET051METAR SBQV 172100Z 11007KT 9999 FEW016 22/15 Q1020;
0120833440999992012061722004-14950-040883FM-15+0914SBQV V0201001N003612200019N0112651N1+02101+01501999999ADDGA1021+004501999GF102991999999999999999999MA1102001999999REMMET051METAR SBQV 172200Z 10007KT 9999 FEW015 21/15 Q1020;
0120833440999992012061723004-14950-040883FM-15+0914SBQV V0200901N003612200019N0112651N1+02001+01601999999ADDGA1021+003901999GF102991999999999999999999MA1102101999999REMMET051METAR SBQV 172300Z 09007KT 9999 FEW013 20/16 Q1021;
0120833440999992012061811004-14950-040883FM-15+0914SBQV V0200501N002612200019N0112651N1+01801+01701999999ADDGA1021+001201999GF102991999999999999999999MA1102201999999REMMET051METAR SBQV 181100Z 05005KT 9999 FEW004 18/17 Q1022;
0072833440999992012061812004-14950-040883FM-15+0914SBQV V0200801N002119999999Y0099001N1+02101+01601999999ADDMA1102201999999REMMET045METAR SBQV 181200Z 08004KT CAVOK 21/16 Q1022;
0072833440999992012061813004-14950-040883FM-15+0914SBQV V0200701N004619999999Y0099001N1+02401+01501999999ADDMA1102201999999REMMET045METAR SBQV 181300Z 07009KT CAVOK 24/15 Q1022;
0120833440999992012061814004-14950-040883FM-15+0914SBQV V0200501N002612200019N0112651N1+02601+01301999999ADDGA1021+007501999GF102991999999999999999999MA1102201999999REMMET051METAR SBQV 181400Z 05005KT 9999 FEW025 26/13 Q1022;
0120833440999992012061815004-14950-040883FM-15+0914SBQV V0200801N003112200019N0112651N1+02601+01301999999ADDGA1041+007501999GF104991999999999999999999MA1102001999999REMMET051METAR SBQV 181500Z 08006KT 9999 SCT025 26/13 Q1020;
0120833440999992012061816004-14950-040883FM-15+0914SBQV V0200501N002112200019N0112651N1+02701+01101999999ADDGA1041+009001999GF104991999999999999999999MA1102001999999REMMET051METAR SBQV 181600Z 05004KT 9999 SCT030 27/11 Q1020;
0120833440999992012061817004-14950-040883FM-15+0914SBQV V0200601N001510090019N0112651N1+02701+01401999999ADDGA1071+009001999GF107991999999999999999999MA1101801999999REMMET051METAR SBQV 181700Z 06003KT 9999 BKN030 27/14 Q1018;
0120833440999992012061818004-14950-040883FM-15+0914SBQV V0201001N004112200019N0112651N1+02601+01501999999ADDGA1041+009001999GF104991999999999999999999MA1101801999999REMMET051METAR SBQV 181800Z 10008KT 9999 SCT030 26/15 Q1018;
0120833440999992012061819004-14950-040883FM-15+0914SBQV V0201101N005112200019N0112651N1+02601+01601999999ADDGA1041+009001999GF104991999999999999999999MA1101801999999REMMET051METAR SBQV 181900Z 11010KT 9999 SCT030 26/16 Q1018;
0120833440999992012061820004-14950-040883FM-15+0914SBQV V0201001N004612200019N0112651N1+02401+01701999999ADDGA1021+006001999GF102991999999999999999999MA1101801999999REMMET051METAR SBQV 182000Z 10009KT 9999 FEW020 24/17 Q1018;
0120833440999992012061821004-14950-040883FM-15+0914SBQV V0201001N004112200019N0112651N1+02201+01601999999ADDGA1021+005401999GF102991999999999999999999MA1101901999999REMMET051METAR SBQV 182100Z 10008KT 9999 FEW018 22/16 Q1019;
0120833440999992012061822004-14950-040883FM-15+0914SBQV V0200901N004112200019N0112651N1+02201+01601999999ADDGA1021+005401999GF102991999999999999999999MA1102001999999REMMET051METAR SBQV 182200Z 09008KT 9999 FEW018 22/16 Q1020;
0072833440999992012061823004-14950-040883FM-15+0914SBQV V0200901N004119999999Y0099001N1+02101+01701999999ADDMA1102001999999REMMET045METAR SBQV 182300Z 09008KT CAVOK 21/17 Q1020;
0120833440999992012061911004-14950-040883FM-15+0914SBQV V0200301N006712200019N0112651N1+01901+01701999999ADDGA1021+004501999GF102991999999999999999999MA1102201999999REMMET051METAR SBQV 191100Z 03013KT 9999 FEW015 19/17 Q1022;
0143833440999992012061912004-14950-040883FM-15+0914SBQV V0200201N006212200019N0112651N1+02101+01701999999ADDGA1021+004801999GA2041+024001999GF104991999999999999999999MA1102201999999REMMET058METAR SBQV 191200Z 02012KT 9999 FEW016 SCT080 21/17 Q1022;
0120833440999992012061913004-14950-040883FM-15+0914SBQV V0200201N004612200019N0112651N1+02401+01701999999ADDGA1021+007501999GF102991999999999999999999MA1102301999999REMMET051METAR SBQV 191300Z 02009KT 9999 FEW025 24/17 Q1023;
0120833440999992012061914004-14950-040883FM-15+0914SBQV V0200101N005112200019N0112651N1+02501+01601999999ADDGA1021+009001999GF102991999999999999999999MA1102201999999REMMET051METAR SBQV 191400Z 01010KT 9999 FEW030 25/16 Q1022;
0120833440999992012061915004-14950-040883FM-15+0914SBQV V0200301N004112200019N0112651N1+02601+01601999999ADDGA1021+009001999GF102991999999999999999999MA1102101999999REMMET051METAR SBQV 191500Z 03008KT 9999 FEW030 26/16 Q1021;
0120833440999992012061916004-14950-040883FM-15+0914SBQV V0200401N002112200019N0112651N1+02701+01501999999ADDGA1021+009001999GF102991999999999999999999MA1102001999999REMMET051METAR SBQV 191600Z 04004KT 9999 FEW030 27/15 Q1020;
0120833440999992012061917004-14950-040883FM-15+0914SBQV V0200701N002112200019N0112651N1+02601+01301999999ADDGA1041+009001999GF104991999999999999999999MA1101901999999REMMET051METAR SBQV 191700Z 07004KT 9999 SCT030 26/13 Q1019;
0120833440999992012061918004-14950-040883FM-15+0914SBQV V0203301N001012200019N0112651N1+02601+01301999999ADDGA1041+009001999GF104991999999999999999999MA1101801999999REMMET051METAR SBQV 191800Z 33002KT 9999 SCT030 26/13 Q1018;
0120833440999992012061919004-14950-040883FM-15+0914SBQV V0200901N003612200019N0112651N1+02601+01601999999ADDGA1041+007501999GF104991999999999999999999MA1101801999999REMMET051METAR SBQV 191900Z 09007KT 9999 SCT025 26/16 Q1018;
0120833440999992012061920004-14950-040883FM-15+0914SBQV V0200901N004612200019N0112651N1+02501+01701999999ADDGA1041+006001999GF104991999999999999999999MA1101901999999REMMET051METAR SBQV 192000Z 09009KT 9999 SCT020 25/17 Q1019;
0120833440999992012061921004-14950-040883FM-15+0914SBQV V0200901N004112200019N0112651N1+02301+01701999999ADDGA1041+004501999GF104991999999999999999999MA1101901999999REMMET051METAR SBQV 192100Z 09008KT 9999 SCT015 23/17 Q1019;
0120833440999992012061922004-14950-040883FM-15+0914SBQV V0200801N003112200019N0112651N1+02301+01701999999ADDGA1041+003601999GF104991999999999999999999MA1102001999999REMMET051METAR SBQV 192200Z 08006KT 9999 SCT012 23/17 Q1020;
0120833440999992012061923004-14950-040883FM-15+0914SBQV V0200601N003612200019N0112651N1+02201+01701999999ADDGA1041+003301999GF104991999999999999999999MA1102001999999REMMET051METAR SBQV 192300Z 06007KT 9999 SCT011 22/17 Q1020;
0120833440999992012062011004-14950-040883FM-15+0914SBQV V0203101N001512200019N0112651N1+02001+01701999999ADDGA1021+002401999GF102991999999999999999999MA1102201999999REMMET051METAR SBQV 201100Z 31003KT 9999 FEW008 20/17 Q1022;
0072833440999992012062012004-14950-040883FM-15+0914SBQV V0200201N002119999999Y0099001N1+02201+01701999999ADDMA1102201999999REMMET045METAR SBQV 201200Z 02004KT CAVOK 22/17 Q1022;
0072833440999992012062013004-14950-040883FM-15+0914SBQV V0200301N002619999999Y0099001N1+02401+01601999999ADDMA1102201999999REMMET045METAR SBQV 201300Z 03005KT CAVOK 24/16 Q1022;
0072833440999992012062014004-14950-040883FM-15+0914SBQV V0200301N003119999999Y0099001N1+02601+01401999999ADDMA1102101999999REMMET045METAR SBQV 201400Z 03006KT CAVOK 26/14 Q1021;
0120833440999992012062015004-14950-040883FM-15+0914SBQV V0200501N003112200019N0112651N1+02701+01301999999ADDGA1021+007501999GF102991999999999999999999MA1102001999999REMMET051METAR SBQV 201500Z 05006KT 9999 FEW025 27/13 Q1020;
0120833440999992012062016004-14950-040883FM-15+0914SBQV V0200501N002612200019N0112651N1+02801+01301999999ADDGA1041+009001999GF104991999999999999999999MA1101901999999REMMET051METAR SBQV 201600Z 05005KT 9999 SCT030 28/13 Q1019;
0120833440999992012062017004-14950-040883FM-15+0914SBQV V0200101N002112200019N0112651N1+02901+01301999999ADDGA1021+010501999GF102991999999999999999999MA1101801999999REMMET051METAR SBQV 201700Z 01004KT 9999 FEW035 29/13 Q1018;
0120833440999992012062018004-14950-040883FM-15+0914SBQV V0201901N001512200019N0112651N1+02801+01201999999ADDGA1021+010501999GF102991999999999999999999MA1101691999999REMMET051METAR SBQV 201800Z 19003KT 9999 FEW035 28/12 Q1017;
0120833440999992012062019004-14950-040883FM-15+0914SBQV V0201301N005712200019N0112651N1+02701+01601999999ADDGA1021+010501999GF102991999999999999999999MA1101691999999REMMET051METAR SBQV 201900Z 13011KT 9999 FEW035 27/16 Q1017;
0120833440999992012062020004-14950-040883FM-15+0914SBQV V0201001N004612200019N0112651N1+02501+01501999999ADDGA1021+005401999GF102991999999999999999999MA1101801999999REMMET051METAR SBQV 202000Z 10009KT 9999 FEW018 25/15 Q1018;
0120833440999992012062021004-14950-040883FM-15+0914SBQV V0200901N004112200019N0112651N1+02301+01501999999ADDGA1021+005401999GF102991999999999999999999MA1101801999999REMMET051METAR SBQV 202100Z 09008KT 9999 FEW018 23/15 Q1018;
0072833440999992012062022004-14950-040883FM-15+0914SBQV V0200701N003119999999Y0099001N1+02201+01601999999ADDMA1101901999999REMMET045METAR SBQV 202200Z 07006KT CAVOK 22/16 Q1019;
0072833440999992012062023004-14950-040883FM-15+0914SBQV V0200601N004119999999Y0099001N1+02201+01601999999ADDMA1101901999999REMMET045METAR SBQV 202300Z 06008KT CAVOK 22/16 Q1019;
0072833440999992012062111004-14950-040883FM-15+0914SBQV V0209999C000019999999Y0099001N1+02001+01701999999ADDMA1102101999999REMMET045METAR SBQV 211100Z 00000KT CAVOK 20/17 Q1021;
0072833440999992012062113004-14950-040883FM-15+0914SBQV V0200501N003119999999Y0099001N1+02501+01601999999ADDMA1102101999999REMMET045METAR SBQV 211300Z 05006KT CAVOK 25/16 Q1021;
0072833440999992012062114004-14950-040883FM-15+0914SBQV V0200901N002619999999Y0099001N1+02701+01401999999ADDMA1102101999999REMMET045METAR SBQV 211400Z 09005KT CAVOK 27/14 Q1021;
0120833440999992012062115004-14950-040883FM-15+0914SBQV V0200801N003612200019N0112651N1+02901+01301999999ADDGA1021+012001999GF102991999999999999999999MA1102001999999REMMET051METAR SBQV 211500Z 08007KT 9999 FEW040 29/13 Q1020;
0120833440999992012062116004-14950-040883FM-15+0914SBQV V0201101N003612200019N0112651N1+02901+01201999999ADDGA1021+012001999GF102991999999999999999999MA1101901999999REMMET051METAR SBQV 211600Z 11007KT 9999 FEW040 29/12 Q1019;
0120833440999992012062117004-14950-040883FM-15+0914SBQV V0201201N003612200019N0112651N1+02901+01201999999ADDGA1021+012001999GF102991999999999999999999MA1101801999999REMMET051METAR SBQV 211700Z 12007KT 9999 FEW040 29/12 Q1018;
0120833440999992012062118004-14950-040883FM-15+0914SBQV V0201401N005112200019N0112651N1+02901+01301999999ADDGA1021+012001999GF102991999999999999999999MA1101801999999REMMET051METAR SBQV 211800Z 14010KT 9999 FEW040 29/13 Q1018;
0120833440999992012062119004-14950-040883FM-15+0914SBQV V0201001N005112200019N0112651N1+02701+01301999999ADDGA1021+010501999GF102991999999999999999999MA1101801999999REMMET051METAR SBQV 211900Z 10010KT 9999 FEW035 27/13 Q1018;
0120833440999992012062120004-14950-040883FM-15+0914SBQV V0200901N004112200019N0112651N1+02501+01401999999ADDGA1021+007501999GF102991999999999999999999MA1101801999999REMMET051METAR SBQV 212000Z 09008KT 9999 FEW025 25/14 Q1018;
0120833440999992012062121004-14950-040883FM-15+0914SBQV V0201101N002612200019N0112651N1+02301+01601999999ADDGA1021+006001999GF102991999999999999999999MA1101901999999REMMET051METAR SBQV 212100Z 11005KT 9999 FEW020 23/16 Q1019;
0072833440999992012062122004-14950-040883FM-15+0914SBQV V0201001N002619999999Y0099001N1+02201+01601999999ADDMA1101901999999REMMET045METAR SBQV 212200Z 10005KT CAVOK 22/16 Q1019;
0072833440999992012062123004-14950-040883FM-15+0914SBQV V0201001N002619999999Y0099001N1+02101+01701999999ADDMA1102001999999REMMET045METAR SBQV 212300Z 10005KT CAVOK 21/17 Q1020;
0120833440999992012062211004-14950-040883FM-15+0914SBQV V0200601N002110048019N0112651N1+02001+01601999999ADDGA1071+004801999GF107991999999999999999999MA1102201999999REMMET051METAR SBQV 221100Z 06004KT 9999 BKN016 20/16 Q1022;
0120833440999992012062212004-14950-040883FM-15+0914SBQV V0200501N003612200019N0112651N1+02201+01601999999ADDGA1021+005401999GF102991999999999999999999MA1102201999999REMMET051METAR SBQV 221200Z 05007KT 9999 FEW018 22/16 Q1022;
0120833440999992012062213004-14950-040883FM-15+0914SBQV V0200101N003612200019N0112651N1+02401+01601999999ADDGA1021+006001999GF102991999999999999999999MA1102201999999REMMET051METAR SBQV 221300Z 01007KT 9999 FEW020 24/16 Q1022;
0120833440999992012062214004-14950-040883FM-15+0914SBQV V0200101N002612200019N0112651N1+02601+01501999999ADDGA1021+006001999GF102991999999999999999999MA1102201999999REMMET051METAR SBQV 221400Z 01005KT 9999 FEW020 26/15 Q1022;
0120833440999992012062215004-14950-040883FM-15+0914SBQV V0203601N002612200019N0112651N1+02701+01401999999ADDGA1021+007501999GF102991999999999999999999MA1102101999999REMMET051METAR SBQV 221500Z 36005KT 9999 FEW025 27/14 Q1021;
0120833440999992012062216004-14950-040883FM-15+0914SBQV V0203601N002112200019N0112651N1+02801+01401999999ADDGA1041+007501999GF104991999999999999999999MA1102001999999REMMET051METAR SBQV 221600Z 36004KT 9999 SCT025 28/14 Q1020;
0120833440999992012062217004-14950-040883FM-15+0914SBQV V0202301N001012200019N0112651N1+02801+01401999999ADDGA1041+007501999GF104991999999999999999999MA1101901999999REMMET051METAR SBQV 221700Z 23002KT 9999 SCT025 28/14 Q1019;
0120833440999992012062218004-14950-040883FM-15+0914SBQV V0203301N001012200019N0112651N1+02801+01301999999ADDGA1041+007501999GF104991999999999999999999MA1101901999999REMMET051METAR SBQV 221800Z 33002KT 9999 SCT025 28/13 Q1019;
0120833440999992012062219004-14950-040883FM-15+0914SBQV V0200801N002612200019N0112651N1+02801+01801999999ADDGA1041+007501999GF104991999999999999999999MA1101901999999REMMET051METAR SBQV 221900Z 08005KT 9999 SCT025 28/18 Q1019;
0120833440999992012062220004-14950-040883FM-15+0914SBQV V0201001N004612200019N0112651N1+02501+01801999999ADDGA1041+006001999GF104991999999999999999999MA1101901999999REMMET051METAR SBQV 222000Z 10009KT 9999 SCT020 25/18 Q1019;
0120833440999992012062221004-14950-040883FM-15+0914SBQV V0200801N004112200019N0112651N1+02401+01801999999ADDGA1021+004801999GF102991999999999999999999MA1102001999999REMMET051METAR SBQV 222100Z 08008KT 9999 FEW016 24/18 Q1020;
0120833440999992012062222004-14950-040883FM-15+0914SBQV V0200801N003112200019N0112651N1+02201+01801999999ADDGA1021+004501999GF102991999999999999999999MA1102001999999REMMET051METAR SBQV 222200Z 08006KT 9999 FEW015 22/18 Q1020;
0072833440999992012062223004-14950-040883FM-15+0914SBQV V0200501N004119999999Y0099001N1+02201+01801999999ADDMA1102101999999REMMET045METAR SBQV 222300Z 05008KT CAVOK 22/18 Q1021;
0072833440999992012062300004-14950-040883FM-15+0914SBQV V0200501N003619999999Y0099001N1+02101+01801999999ADDMA1102101999999REMMET045METAR SBQV 230000Z 05007KT CAVOK 21/18 Q1021;
0120833440999992012062311004-14950-040883FM-15+0914SBQV V0203201N001010012019N0112651N1+01901+01901999999ADDGA1071+001201999GF107991999999999999999999MA1102301999999REMMET051METAR SBQV 231100Z 32002KT 9999 BKN004 19/19 Q1023;
0120833440999992012062312004-14950-040883FM-15+0914SBQV V0203401N001510012019N0112651N1+02001+01801999999ADDGA1071+001201999GF107991999999999999999999MA1102401999999REMMET051METAR SBQV 231200Z 34003KT 9999 BKN004 20/18 Q1024;
0120833440999992012062313004-14950-040883FM-15+0914SBQV V0200201N001010021019N0112651N1+02001+01801999999ADDGA1081+002101999GF108991999999999999999999MA1102401999999REMMET051METAR SBQV 231300Z 02002KT 9999 OVC007 20/18 Q1024;
0120833440999992012062314004-14950-040883FM-15+0914SBQV V0200701N001512200019N0112651N1+02301+01801999999ADDGA1041+003901999GF104991999999999999999999MA1102401999999REMMET051METAR SBQV 231400Z 07003KT 9999 SCT013 23/18 Q1024;
0120833440999992012062315004-14950-040883FM-15+0914SBQV V0201001N002112200019N0112651N1+02601+01701999999ADDGA1021+004501999GF102991999999999999999999MA1102301999999REMMET051METAR SBQV 231500Z 10004KT 9999 FEW015 26/17 Q1023;
0120833440999992012062316004-14950-040883FM-15+0914SBQV V0202301N002112200019N0112651N1+02701+01601999999ADDGA1041+005401999GF104991999999999999999999MA1102201999999REMMET051METAR SBQV 231600Z 23004KT 9999 SCT018 27/16 Q1022;
0120833440999992012062317004-14950-040883FM-15+0914SBQV V0201401N004112200019N0112651N1+02901+01401999999ADDGA1021+007501999GF102991999999999999999999MA1102101999999REMMET051METAR SBQV 231700Z 14008KT 9999 FEW025 29/14 Q1021;
0120833440999992012062318004-14950-040883FM-15+0914SBQV V0201401N005712200019N0112651N1+02801+01701999999ADDGA1021+007501999GF102991999999999999999999MA1102101999999REMMET051METAR SBQV 231800Z 14011KT 9999 FEW025 28/17 Q1021;
0120833440999992012062319004-14950-040883FM-15+0914SBQV V0201301N007212200019N0112651N1+02501+01601999999ADDGA1021+006001999GF102991999999999999999999MA1102201999999REMMET051METAR SBQV 231900Z 13014KT 9999 FEW020 25/16 Q1022;
0120833440999992012062320004-14950-040883FM-15+0914SBQV V0201201N005112200019N0112651N1+02401+01601999999ADDGA1021+005401999GF102991999999999999999999MA1102301999999REMMET051METAR SBQV 232000Z 12010KT 9999 FEW018 24/16 Q1023;
0120833440999992012062321004-14950-040883FM-15+0914SBQV V0201201N004112200019N0112651N1+02301+01701999999ADDGA1021+004501999GF102991999999999999999999MA1102301999999REMMET051METAR SBQV 232100Z 12008KT 9999 FEW015 23/17 Q1023;
0072833440999992012062322004-14950-040883FM-15+0914SBQV V0201201N003119999999Y0099001N1+02101+01601999999ADDMA1102401999999REMMET045METAR SBQV 232200Z 12006KT CAVOK 21/16 Q1024;
0120833440999992012062405004-14950-040883FM-15+0914SBQV V0201301N004112200019N0112651N1+01801+01701999999ADDGA1021+002401999GF102991999999999999999999MA1102401999999REMMET051METAR SBQV 240500Z 13008KT 9999 FEW008 18/17 Q1024;
0120833440999992012062406004-14950-040883FM-15+0914SBQV V0201201N004610021019N0112651N1+01801+01801999999ADDGA1071+002101999GF107991999999999999999999MA1102401999999REMMET051METAR SBQV 240600Z 12009KT 9999 BKN007 18/18 Q1024;
0120833440999992012062407004-14950-040883FM-15+0914SBQV V0201201N006710015019N0112651N1+01801+01801999999ADDGA1071+001501999GF107991999999999999999999MA1102401999999REMMET051METAR SBQV 240700Z 12013KT 9999 BKN005 18/18 Q1024;
0120833440999992012062408004-14950-040883FM-15+0914SBQV V0201201N006210012019N0112651N1+01801+01801999999ADDGA1071+001201999GF107991999999999999999999MA1102401999999REMMET051METAR SBQV 240800Z 12012KT 9999 BKN004 18/18 Q1024;
0120833440999992012062409004-14950-040883FM-15+0914SBQV V0201201N005710015019N0112651N1+01801+01801999999ADDGA1081+001501999GF108991999999999999999999MA1102401999999REMMET051METAR SBQV 240900Z 12011KT 9999 OVC005 18/18 Q1024;
0120833440999992012062410004-14950-040883FM-15+0914SBQV V0201301N006710015019N0112651N1+01801+01801999999ADDGA1071+001501999GF107991999999999999999999MA1102511999999REMMET051METAR SBQV 241000Z 13013KT 9999 BKN005 18/18 Q1025;
0143833440999992012062411004-14950-040883FM-15+0914SBQV V0201301N006210027019N0112651N1+01901+01801999999ADDGA1041+001501999GA2071+002701999GF107991999999999999999999MA1102511999999REMMET058METAR SBQV 241100Z 13012KT 9999 SCT005 BKN009 19/18 Q1025;
0155833440999992012062412004-14950-040883FM-15+0914SBQV V0201301N00571001501CN0040001N1+01901+01901999999ADDGA1071+001501999GA2041+002701999MA1102511999999MW1101MW2511REMMET065METAR SBQV 241200Z 13011KT 4000 -DZ BR BKN005 SCT009 19/19 Q1025;EQDQ01+000042SCOTCV
0143833440999992012062413004-14950-040883FM-15+0914SBQV V0201301N005710030019N0112651N1+02001+01901999999ADDGA1041+001801999GA2071+003001999GF107991999999999999999999MA1102511999999REMMET058METAR SBQV 241300Z 13011KT 9999 SCT006 BKN010 20/19 Q1025;
0153833440999992012062414004-14950-040883FM-15+0914SBQV V0201001N005710030019N0060001N1+01901+01801999999ADDGA1021+001801999GA2071+003001999GF107991999999999999999999MA1102511999999MW1611REMMET062METAR SBQV 241400Z 10011KT 6000 -RA FEW006 BKN010 19/18 Q1025;
0143833440999992012062415004-14950-040883FM-15+0914SBQV V0201001N004612200019N0112651N1+02101+01901999999ADDGA1041+004501999GA2041+021001999GF104991999999999999999999MA1102511999999REMMET058METAR SBQV 241500Z 10009KT 9999 SCT015 SCT070 21/19 Q1025;
0143833440999992012062416004-14950-040883FM-15+0914SBQV V0201001N005112200019N0112651N1+02201+01701999999ADDGA1041+004801999GA2041+021001999GF104991999999999999999999MA1102401999999REMMET058METAR SBQV 241600Z 10010KT 9999 SCT016 SCT070 22/17 Q1024;
0143833440999992012062417004-14950-040883FM-15+0914SBQV V0201101N004612200019N0112651N1+02101+01801999999ADDGA1041+004801999GA2041+021001999GF104991999999999999999999MA1102401999999REMMET058METAR SBQV 241700Z 11009KT 9999 SCT016 SCT070 21/18 Q1024;
0143833440999992012062418004-14950-040883FM-15+0914SBQV V0201101N005110036019N0112651N1+02101+01801999999ADDGA1071+003601999GA2071+021001999GF107991999999999999999999MA1102301999999REMMET058METAR SBQV 241800Z 11010KT 9999 BKN012 BKN070 21/18 Q1023;
0146833440999992012062420004-14950-040883FM-15+0914SBQV V0201201N00311002101CN0020001N1+01901+01901999999ADDGA1071+002101999GA2041+021001999MA1102401999999MW1511REMMET062METAR SBQV 242000Z 12006KT 2000 -DZ BKN007 SCT070 19/19 Q1024;EQDQ01+000042SCOTCV
0127833440999992012062421004-14950-040883FM-15+0914SBQV V0201201N00361001801CN0060001N1+01801+01801999999ADDGA1071+001801999GA2041+021001999MA1102401999999MW1511REMMET062METAR SBQV 242100Z 12007KT 6000 -DZ BKN006 SCT070 18/18 Q1024;
0120833440999992012062422004-14950-040883FM-15+0914SBQV V0201301N004610015019N0112651N1+01801+01801999999ADDGA1071+001501999GF107991999999999999999999MA1102401999999REMMET051METAR SBQV 242200Z 13009KT 9999 BKN005 18/18 Q1024;
0120833440999992012062423004-14950-040883FM-15+0914SBQV V0201201N004610015019N0112651N1+01801+01801999999ADDGA1071+001501999GF107991999999999999999999MA1102401999999REMMET051METAR SBQV 242300Z 12009KT 9999 BKN005 18/18 Q1024;
0120833440999992012062500004-14950-040883FM-15+0914SBQV V0201201N005110015019N0112651N1+01801+01801999999ADDGA1071+001501999GF107991999999999999999999MA1102401999999REMMET051METAR SBQV 250000Z 12010KT 9999 BKN005 18/18 Q1024;
0130833440999992012062501004-14950-040883FM-15+0914SBQV V0201301N004110015019N0040001N1+01801+01801999999ADDGA1071+001501999GF107991999999999999999999MA1102401999999MW1511REMMET055METAR SBQV 250100Z 13008KT 4000 -DZ BKN005 18/18 Q1024;
0130833440999992012062502004-14950-040883FM-15+0914SBQV V0201301N004610012019N0020001N1+01801+01801999999ADDGA1081+001201999GF108991999999999999999999MA1102401999999MW1511REMMET055METAR SBQV 250200Z 13009KT 2000 -DZ OVC004 18/18 Q1024;
0120833440999992012062511004-14950-040883FM-15+0914SBQV V0201301N003110012019N0112651N1+01601+01601999999ADDGA1081+001201999GF108991999999999999999999MA1102511999999REMMET051METAR SBQV 251100Z 13006KT 9999 OVC004 16/16 Q1025;
0120833440999992012062512004-14950-040883FM-15+0914SBQV V0201301N003110030019N0112651N1+01801+01801999999ADDGA1071+003001999GF107991999999999999999999MA1102511999999REMMET051METAR SBQV 251200Z 13006KT 9999 BKN010 18/18 Q1025;
0120833440999992012062513004-14950-040883FM-15+0914SBQV V0201301N004112200019N0112651N1+02001+01701999999ADDGA1041+004501999GF104991999999999999999999MA1102511999999REMMET051METAR SBQV 251300Z 13008KT 9999 SCT015 20/17 Q1025;
0120833440999992012062514004-14950-040883FM-15+0914SBQV V0201401N004612200019N0112651N1+02201+01601999999ADDGA1041+004801999GF104991999999999999999999MA1102401999999REMMET051METAR SBQV 251400Z 14009KT 9999 SCT016 22/16 Q1024;
0120833440999992012062515004-14950-040883FM-15+0914SBQV V0201301N004612200019N0112651N1+02301+01601999999ADDGA1041+005401999GF104991999999999999999999MA1102301999999REMMET051METAR SBQV 251500Z 13009KT 9999 SCT018 23/16 Q1023;
0120833440999992012062516004-14950-040883FM-15+0914SBQV V0201301N005712200019N0112651N1+02301+01501999999ADDGA1041+006001999GF104991999999999999999999MA1102301999999REMMET051METAR SBQV 251600Z 13011KT 9999 SCT020 23/15 Q1023;
0120833440999992012062517004-14950-040883FM-15+0914SBQV V0201101N005112200019N0112651N1+02401+01401999999ADDGA1041+006001999GF104991999999999999999999MA1102201999999REMMET051METAR SBQV 251700Z 11010KT 9999 SCT020 24/14 Q1022;
0120833440999992012062518004-14950-040883FM-15+0914SBQV V0201201N005110060019N0112651N1+02301+01501999999ADDGA1071+006001999GF107991999999999999999999MA1102201999999REMMET051METAR SBQV 251800Z 12010KT 9999 BKN020 23/15 Q1022;
0120833440999992012062519004-14950-040883FM-15+0914SBQV V0201301N005110060019N0112651N1+02201+01601999999ADDGA1071+006001999GF107991999999999999999999MA1102201999999REMMET051METAR SBQV 251900Z 13010KT 9999 BKN020 22/16 Q1022;
0120833440999992012062520004-14950-040883FM-15+0914SBQV V0201301N005710060019N0112651N1+02001+01701999999ADDGA1071+006001999GF107991999999999999999999MA1102201999999REMMET051METAR SBQV 252000Z 13011KT 9999 BKN020 20/17 Q1022;
0120833440999992012062521004-14950-040883FM-15+0914SBQV V0201101N004112200019N0112651N1+01901+01701999999ADDGA1041+004501999GF104991999999999999999999MA1102201999999REMMET051METAR SBQV 252100Z 11008KT 9999 SCT015 19/17 Q1022;
0143833440999992012062522004-14950-040883FM-15+0914SBQV V0201201N002610210019N0112651N1+01801+01701999999ADDGA1021+004501999GA2071+021001999GF107991999999999999999999MA1102301999999REMMET058METAR SBQV 252200Z 12005KT 9999 FEW015 BKN070 18/17 Q1023;
0143833440999992012062523004-14950-040883FM-15+0914SBQV V0201201N003610210019N0112651N1+01801+01701999999ADDGA1021+003001999GA2071+021001999GF107991999999999999999999MA1102301999999REMMET058METAR SBQV 252300Z 12007KT 9999 FEW010 BKN070 18/17 Q1023;
0136833440999992012062600004-14950-040883FM-15+0914SBQV V0201801N00411001801CN0112651N1+01801+01701999999ADDGA1071+001801999GA2041+003001999MA1102301999999REMMET058METAR SBQV 260000Z 18008KT 9999 BKN006 SCT010 18/17 Q1023;EQDQ01+000042SCOTCV
0120833440999992012062601004-14950-040883FM-15+0914SBQV V0201101N004110018019N0112651N1+01801+01701999999ADDGA1071+001801999GF107991999999999999999999MA1102301999999REMMET051METAR SBQV 260100Z 11008KT 9999 BKN006 18/17 Q1023;
0120833440999992012062602004-14950-040883FM-15+0914SBQV V0201101N004610018019N0112651N1+01801+01801999999ADDGA1071+001801999GF107991999999999999999999MA1102301999999REMMET051METAR SBQV 260200Z 11009KT 9999 BKN006 18/18 Q1023;
0143833440999992012062611004-14950-040883FM-15+0914SBQV V0201201N006210021019N0112651N1+01801+01701999999ADDGA1021+001801999GA2071+002101999GF107991999999999999999999MA1102401999999REMMET058METAR SBQV 261100Z 12012KT 9999 FEW006 BKN007 18/17 Q1024;
0120833440999992012062612004-14950-040883FM-15+0914SBQV V0201301N006210030019N0112651N1+01801+01701999999ADDGA1071+003001999GF107991999999999999999999MA1102511999999REMMET051METAR SBQV 261200Z 13012KT 9999 BKN010 18/17 Q1025;
0120833440999992012062613004-14950-040883FM-15+0914SBQV V0201301N006710027019N0112651N1+02001+01701999999ADDGA1071+002701999GF107991999999999999999999MA1102511999999REMMET051METAR SBQV 261300Z 13013KT 9999 BKN009 20/17 Q1025;
0120833440999992012062614004-14950-040883FM-15+0914SBQV V0201201N007212200019N0112651N1+02001+01701999999ADDGA1041+004501999GF104991999999999999999999MA1102511999999REMMET051METAR SBQV 261400Z 12014KT 9999 SCT015 20/17 Q1025;
0120833440999992012062615004-14950-040883FM-15+0914SBQV V0201401N006210045019N0112651N1+02001+01801999999ADDGA1071+004501999GF107991999999999999999999MA1102401999999REMMET051METAR SBQV 261500Z 14012KT 9999 BKN015 20/18 Q1024;
0146833440999992012062616004-14950-040883FM-15+0914SBQV V0201301N007712200019N0112651N1+02001+01701999999ADDGA1021+004501021GA2041+004801999GF104991999999999999999999MA1102301999999REMMET061METAR SBQV 261600Z 13015KT 9999 FEW015TCU SCT016 20/17 Q1023;
0146833440999992012062617004-14950-040883FM-15+0914SBQV V0201301N008212200019N0112651N1+02101+01701999999ADDGA1021+004501021GA2041+004801999GF104991999999999999999999MA1102301999999REMMET061METAR SBQV 261700Z 13016KT 9999 FEW015TCU SCT016 21/17 Q1023;
0120833440999992012062618004-14950-040883FM-15+0914SBQV V0201301N005712200019N0112651N1+02201+01701999999ADDGA1021+005401999GF102991999999999999999999MA1102301999999REMMET051METAR SBQV 261800Z 13011KT 9999 FEW018 22/17 Q1023;
0120833440999992012062619004-14950-040883FM-15+0914SBQV V0201201N005710048019N0112651N1+02101+01701999999ADDGA1071+004801999GF107991999999999999999999MA1102301999999REMMET051METAR SBQV 261900Z 12011KT 9999 BKN016 21/17 Q1023;
0177833440999992012062620004-14950-040883FM-15+0914SBQV V0201301N00671003301CN0112651N1+01801+01801999999ADDGA1021+002101999GA2041+003301999GA3071+021001999GF107991999999999999999999MA1102401999999MW1161REMMET070METAR SBQV 262000Z 13013KT 9999 VCSH FEW007 SCT011 BKN070 18/18 Q1024;
0143833440999992012062621004-14950-040883FM-15+0914SBQV V0201301N005710012019N0080001N1+01701+01701999999ADDGA1071+001201999GA2071+002701999GF107991999999999999999999MA1102401999999REMMET058METAR SBQV 262100Z 13011KT 8000 BKN004 BKN009 17/17 Q1024;
0136833440999992012062622004-14950-040883FM-15+0914SBQV V0201301N00571001501CN0112651N1+01701+01701999999ADDGA1071+001501999GA2041+002701999MA1102401999999REMMET058METAR SBQV 262200Z 13011KT 9999 BKN005 SCT009 17/17 Q1024;EQDQ01+000042SCOTCV
0162833440999992012062711004-14950-040883FM-15+0914SBQV V0201101N003110027019N0030001N1+01601+01601999999ADDGA1041+001501999GA2071+002701999GF107991999999999999999999MA1102611999999MW1101MW2511REMMET065METAR SBQV 271100Z 11006KT 3000 -DZ BR SCT005 BKN009 16/16 Q1026;
0153833440999992012062712004-14950-040883FM-15+0914SBQV V0201101N004110030019N0112651N1+01701+01701999999ADDGA1071+003001999GA2071+021001999GF107991999999999999999999MA1102611999999MW1611REMMET062METAR SBQV 271200Z 11008KT 9999 -RA BKN010 BKN070 17/17 Q1026;
0143833440999992012062713004-14950-040883FM-15+0914SBQV V0201101N005710210019N0112651N1+01801+01801999999ADDGA1041+003901999GA2071+021001999GF107991999999999999999999MA1102611999999REMMET058METAR SBQV 271300Z 11011KT 9999 SCT013 BKN070 18/18 Q1026;
0166833440999992012062714004-14950-040883FM-15+0914SBQV V0201201N00671004501CN0112651N1+01901+01701999999ADDGA1021+003901999GA2041+004501999GA3071+021001999GF107991999999999999999999MA1102611999999REMMET065METAR SBQV 271400Z 12013KT 9999 FEW013 SCT015 BKN070 19/17 Q1026;
0143833440999992012062715004-14950-040883FM-15+0914SBQV V0201001N007210210019N0112651N1+02201+01601999999ADDGA1041+004801999GA2071+021001999GF107991999999999999999999MA1102511999999REMMET058METAR SBQV 271500Z 10014KT 9999 SCT016 BKN070 22/16 Q1025;
0143833440999992012062716004-14950-040883FM-15+0914SBQV V0201101N006210210019N0112651N1+02201+01601999999ADDGA1041+004801999GA2071+021001999GF107991999999999999999999MA1102401999999REMMET058METAR SBQV 271600Z 11012KT 9999 SCT016 BKN070 22/16 Q1024;
0143833440999992012062717004-14950-040883FM-15+0914SBQV V0201101N006712200019N0112651N1+02201+01601999999ADDGA1041+006001999GA2041+021001999GF104991999999999999999999MA1102401999999REMMET058METAR SBQV 271700Z 11013KT 9999 SCT020 SCT070 22/16 Q1024;
0120833440999992012062718004-14950-040883FM-15+0914SBQV V0201301N005712200019N0112651N1+02201+01701999999ADDGA1041+006001999GF104991999999999999999999MA1102301999999REMMET051METAR SBQV 271800Z 13011KT 9999 SCT020 22/17 Q1023;
0120833440999992012062719004-14950-040883FM-15+0914SBQV V0201101N005112200019N0112651N1+02201+01601999999ADDGA1041+006001999GF104991999999999999999999MA1102301999999REMMET051METAR SBQV 271900Z 11010KT 9999 SCT020 22/16 Q1023;
0120833440999992012062720004-14950-040883FM-15+0914SBQV V0201301N005112200019N0112651N1+02001+01701999999ADDGA1041+004801999GF104991999999999999999999MA1102401999999REMMET051METAR SBQV 272000Z 13010KT 9999 SCT016 20/17 Q1024;
0120833440999992012062721004-14950-040883FM-15+0914SBQV V0201101N003612200019N0112651N1+01801+01701999999ADDGA1021+004501999GF102991999999999999999999MA1102511999999REMMET051METAR SBQV 272100Z 11007KT 9999 FEW015 18/17 Q1025;
0120833440999992012062722004-14950-040883FM-15+0914SBQV V0201201N002612200019N0112651N1+01701+01701999999ADDGA1041+001501999GF104991999999999999999999MA1102511999999REMMET051METAR SBQV 272200Z 12005KT 9999 SCT005 17/17 Q1025;
0120833440999992012062723004-14950-040883FM-15+0914SBQV V0201301N003610015019N0112651N1+01801+01801999999ADDGA1071+001501999GF107991999999999999999999MA1102511999999REMMET051METAR SBQV 272300Z 13007KT 9999 BKN005 18/18 Q1025;
0136833440999992012062811004-14950-040883FM-15+0914SBQV V0201201N00571001501CN0112651N1+01701+01701999999ADDGA1071+001501999GA2041+001801999MA1102511999999REMMET058METAR SBQV 281100Z 12011KT 9999 BKN005 SCT006 17/17 Q1025;EQDQ01+000042SCOTCV
0143833440999992012062812004-14950-040883FM-15+0914SBQV V0201201N006210027019N0112651N1+01701+01701999999ADDGA1041+002401999GA2071+002701999GF107991999999999999999999MA1102611999999REMMET058METAR SBQV 281200Z 12012KT 9999 SCT008 BKN009 17/17 Q1026;
0143833440999992012062813004-14950-040883FM-15+0914SBQV V0201301N006210021019N0112651N1+01901+01801999999ADDGA1041+001801999GA2071+002101999GF107991999999999999999999MA1102611999999REMMET058METAR SBQV 281300Z 13012KT 9999 SCT006 BKN007 19/18 Q1026;
0153833440999992012062814004-14950-040883FM-15+0914SBQV V0201401N00621001801CN0112651N1+01801+01801999999ADDGA1071+001801999GA2041+002101999MA1102611999999MW1511REMMET069METAR SBQV 281400Z 14012KT 9999 3000SE -DZ BKN006 SCT007 18/18 Q1026;EQDQ01+000042SCOTCV
0136833440999992012062815004-14950-040883FM-15+0914SBQV V0201201N00621002401CN0112651N1+02001+01701999999ADDGA1071+002401999GA2041+003001999MA1102511999999REMMET058METAR SBQV 281500Z 12012KT 9999 BKN008 SCT010 20/17 Q1025;EQDQ01+000042SCOTCV
0143833440999992012062816004-14950-040883FM-15+0914SBQV V0201401N005112200019N0112651N1+02001+01801999999ADDGA1041+002401999GA2041+003001999GF104991999999999999999999MA1102401999999REMMET058METAR SBQV 281600Z 14010KT 9999 SCT008 SCT010 20/18 Q1024;
0136833440999992012062817004-14950-040883FM-15+0914SBQV V0201201N00621002101CN0112651N1+02001+01801999999ADDGA1071+002101999GA2041+003001999MA1102301999999REMMET058METAR SBQV 281700Z 12012KT 9999 BKN007 SCT010 20/18 Q1023;EQDQ01+000042SCOTCV
0143833440999992012062818004-14950-040883FM-15+0914SBQV V0201201N005110033019N0090001N1+02001+01801999999ADDGA1021+002101999GA2071+003301999GF107991999999999999999999MA1102301999999REMMET058METAR SBQV 281800Z 12010KT 9000 FEW007 BKN011 20/18 Q1023;
0143833440999992012062819004-14950-040883FM-15+0914SBQV V0201201N004612200019N0112651N1+01901+01901999999ADDGA1041+001801999GA2041+002701999GF104991999999999999999999MA1102301999999REMMET058METAR SBQV 281900Z 12009KT 9999 SCT006 SCT009 19/19 Q1023;
0143833440999992012062820004-14950-040883FM-15+0914SBQV V0201301N003610027019N0112651N1+01801+01801999999ADDGA1041+001801999GA2071+002701999GF107991999999999999999999MA1102401999999REMMET058METAR SBQV 282000Z 13007KT 9999 SCT006 BKN009 18/18 Q1024;
0143833440999992012062821004-14950-040883FM-15+0914SBQV V0201101N003110024019N0112651N1+01801+01801999999ADDGA1041+001801999GA2071+002401999GF107991999999999999999999MA1102401999999REMMET058METAR SBQV 282100Z 11006KT 9999 SCT006 BKN008 18/18 Q1024;
0143833440999992012062822004-14950-040883FM-15+0914SBQV V0201101N003610015019N0112651N1+01801+01801999999ADDGA1071+001501999GA2071+002101999GF107991999999999999999999MA1102511999999REMMET058METAR SBQV 282200Z 11007KT 9999 BKN005 BKN007 18/18 Q1025;
0166833440999992012062823004-14950-040883FM-15+0914SBQV V0201101N00411002101CN0112651N1+01701+01701999999ADDGA1021+001501999GA2041+002101999GA3071+021001999GF107991999999999999999999MA1102511999999REMMET065METAR SBQV 282300Z 11008KT 9999 FEW005 SCT007 BKN070 17/17 Q1025;
0143833440999992012062900004-14950-040883FM-15+0914SBQV V0201101N002610210019N0112651N1+01701+01701999999ADDGA1041+002101999GA2071+021001999GF107991999999999999999999MA1102511999999REMMET058METAR SBQV 290000Z 11005KT 9999 SCT007 BKN070 17/17 Q1025;
0142833440999992012062911244-14950-040883FM-16+0914SBQV V0209999999999001801CN0112651N1+01701+01701999999ADDGA1071+001801999GA2071+002401999GF108991999999999999999999MA1102401999999REMMET057METAR SBQV 291124Z 14011T 9999 BKN006 BKN008 17/17 Q1024;
0143833440999992012062912004-14950-040883FM-15+0914SBQV V0201301N006710024019N0112651N1+01701+01701999999ADDGA1021+001801999GA2071+002401999GF107991999999999999999999MA1102511999999REMMET058METAR SBQV 291200Z 13013KT 9999 FEW006 BKN008 17/17 Q1025;
0120833440999992012062913004-14950-040883FM-15+0914SBQV V0201301N006712200019N0112651N1+01901+01701999999ADDGA1041+003901999GF104991999999999999999999MA1102401999999REMMET051METAR SBQV 291300Z 13013KT 9999 SCT013 19/17 Q1024;
0120833440999992012062914004-14950-040883FM-15+0914SBQV V0201301N005710048019N0112651N1+02001+01701999999ADDGA1071+004801999GF107991999999999999999999MA1102401999999REMMET051METAR SBQV 291400Z 13011KT 9999 BKN016 20/17 Q1024;
0120833440999992012062915004-14950-040883FM-15+0914SBQV V0201401N005710048019N0112651N1+02101+01701999999ADDGA1071+004801999GF107991999999999999999999MA1102301999999REMMET051METAR SBQV 291500Z 14011KT 9999 BKN016 21/17 Q1023;
0120833440999992012062916004-14950-040883FM-15+0914SBQV V0201301N005110048019N0112651N1+02101+01801999999ADDGA1071+004801999GF107991999999999999999999MA1102301999999REMMET051METAR SBQV 291600Z 13010KT 9999 BKN016 21/18 Q1023;
0143833440999992012062917004-14950-040883FM-15+0914SBQV V0201301N005112200019N0112651N1+02101+01801999999ADDGA1041+003001999GA2041+004501999GF104991999999999999999999MA1102201999999REMMET058METAR SBQV 291700Z 13010KT 9999 SCT010 SCT015 21/18 Q1022;
0143833440999992012062918004-14950-040883FM-15+0914SBQV V0201301N005712200019N0112651N1+02201+01801999999ADDGA1041+003001999GA2041+004501999GF104991999999999999999999MA1102201999999REMMET058METAR SBQV 291800Z 13011KT 9999 SCT010 SCT015 22/18 Q1022;
0130833440999992012062919004-14950-040883FM-15+0914SBQV V0201401N004610024019N0070001N1+02001+01901999999ADDGA1071+002401999GF107991999999999999999999MA1102201999999MW1511REMMET055METAR SBQV 291900Z 14009KT 7000 -DZ BKN008 20/19 Q1022;
0120833440999992012062920004-14950-040883FM-15+0914SBQV V0201301N004610021019N0112651N1+01901+01801999999ADDGA1071+002101999GF107991999999999999999999MA1102201999999REMMET051METAR SBQV 292000Z 13009KT 9999 BKN007 19/18 Q1022;
0153833440999992012062921004-14950-040883FM-15+0914SBQV V0201301N003610012019N0020001N1+01801+01801999999ADDGA1071+001201999GA2081+021001999GF108991999999999999999999MA1102301999999MW1511REMMET062METAR SBQV 292100Z 13007KT 2000 -DZ BKN004 OVC070 18/18 Q1023;
0153833440999992012062922004-14950-040883FM-15+0914SBQV V0201201N003110012019N0050001N1+01801+01801999999ADDGA1071+001201999GA2081+021001999GF108991999999999999999999MA1102301999999MW1511REMMET062METAR SBQV 292200Z 12006KT 5000 -DZ BKN004 OVC070 18/18 Q1023;
0153833440999992012062923004-14950-040883FM-15+0914SBQV V0201001N003610012019N0030001N1+01801+01801999999ADDGA1071+001201999GA2081+021001999GF108991999999999999999999MA1102401999999MW1611REMMET062METAR SBQV 292300Z 10007KT 3000 -RA BKN004 OVC070 18/18 Q1024;
0160833440999992012063003004-14950-040883FM-15+0914SBQV V0201001N002110012019N0040001N1+01801+01801999999ADDGA1071+001201999GA2071+001501999GF107991999999999999999999MA1102301999999MW1511REMMET069METAR SBQV 300300Z 10004KT 4000 1000SE -DZ BKN004 BKN005 18/18 Q1023;
0153833440999992012063004004-14950-040883FM-15+0914SBQV V0201301N003610015019N0080001N1+01801+01801999999ADDGA1041+001201999GA2071+001501999GF107991999999999999999999MA1102301999999MW1511REMMET062METAR SBQV 300400Z 13007KT 8000 -DZ SCT004 BKN005 18/18 Q1023;
0129833440999992012063011004-14950-040883FM-15+0914SBQV V0201301N005710012019N0030001N1+01701+01701999999ADDGA1081+001201999GF108991999999999999999999MA1102401999999MW1101REMMET054METAR SBQV 301100Z 13011KT 3000 BR OVC004 17/17 Q1024;
0143833440999992012063012004-14950-040883FM-15+0914SBQV V0201101N006210021019N0112651N1+01701+01701999999ADDGA1041+001501999GA2071+002101999GF107991999999999999999999MA1102401999999REMMET058METAR SBQV 301200Z 11012KT 9999 SCT005 BKN007 17/17 Q1024;
0120833440999992012063013004-14950-040883FM-15+0914SBQV V0201101N006212200019N0112651N1+02001+01801999999ADDGA1041+003301999GF104991999999999999999999MA1102401999999REMMET051METAR SBQV 301300Z 11012KT 9999 SCT011 20/18 Q1024;
0120833440999992012063014004-14950-040883FM-15+0914SBQV V0201301N006210045019N0112651N1+02001+01801999999ADDGA1071+004501999GF107991999999999999999999MA1102401999999REMMET051METAR SBQV 301400Z 13012KT 9999 BKN015 20/18 Q1024;
0120833440999992012063015004-14950-040883FM-15+0914SBQV V0201201N005712200019N0112651N1+02201+01601999999ADDGA1041+004501999GF104991999999999999999999MA1102301999999REMMET051METAR SBQV 301500Z 12011KT 9999 SCT015 22/16 Q1023;
0120833440999992012063016004-14950-040883FM-15+0914SBQV V0201401N005110048019N0112651N1+02301+01601999999ADDGA1071+004801999GF107991999999999999999999MA1102301999999REMMET051METAR SBQV 301600Z 14010KT 9999 BKN016 23/16 Q1023;
0120833440999992012063017004-14950-040883FM-15+0914SBQV V0201301N005710048019N0112651N1+02301+01501999999ADDGA1071+004801999GF107991999999999999999999MA1102201999999REMMET051METAR SBQV 301700Z 13011KT 9999 BKN016 23/15 Q1022;
0120833440999992012063018004-14950-040883FM-15+0914SBQV V0201301N006710060019N0112651N1+02301+01501999999ADDGA1071+006001999GF107991999999999999999999MA1102201999999REMMET051METAR SBQV 301800Z 13013KT 9999 BKN020 23/15 Q1022;
0120833440999992012063019004-14950-040883FM-15+0914SBQV V0201201N005710060019N0112651N1+02201+01501999999ADDGA1071+006001999GF107991999999999999999999MA1102201999999REMMET051METAR SBQV 301900Z 12011KT 9999 BKN020 22/15 Q1022;
0120833440999992012063020004-14950-040883FM-15+0914SBQV V0201301N006712200019N0112651N1+02101+01301999999ADDGA1041+006001999GF104991999999999999999999MA1102201999999REMMET051METAR SBQV 302000Z 13013KT 9999 SCT020 21/13 Q1022;
0072833440999992012063021004-14950-040883FM-15+0914SBQV V0201201N002619999999Y0099001N1+01901+01401999999ADDMA1102201999999REMMET045METAR SBQV 302100Z 12005KT CAVOK 19/14 Q1022;
0072833440999992012063022004-14950-040883FM-15+0914SBQV V0201101N002119999999Y0099001N1+01701+01401999999ADDMA1102201999999REMMET045METAR SBQV 302200Z 11004KT CAVOK 17/14 Q1022;
0143833440999992012070211004-14950-040883FM-15+0914SBQV V0201001N003610030019N0112651N1+01601+01601999999ADDGA1041+001801999GA2071+003001999GF107991999999999999999999MA1102401999999REMMET058METAR SBQV 021100Z 10007KT 9999 SCT006 BKN010 16/16 Q1024;
0177833440999992012070212004-14950-040883FM-15+0914SBQV V0201101N003610027019N0080001N1+01701+01701999999ADDGA1021+001801999GA2071+002701999GA3071+021001999GF107991999999999999999999MA1102401999999MW1511REMMET070METAR SBQV 021200Z 11007KT 8000 -DZ FEW006 BKN009 BKN070 17/17 Q1 024;
0160833440999992012070214004-14950-040883FM-15+0914SBQV V0200901N005110033019N0112651N1+02001+01801999999ADDGA1021+002401999GA2071+003301999GF107991999999999999999999MA1102401999999MW1611REMMET069METAR SBQV 021400Z 09010KT 9999 3000SE -RA FEW008 BKN011 20/18 Q1024;
0136833440999992012070215004-14950-040883FM-15+0914SBQV V0201001N00461003301CN0112651N1+02101+01701999999ADDGA1071+003301999GA2041+004501999MA1102301999999REMMET058METAR SBQV 021500Z 10009KT 9999 BKN011 SCT015 21/17 Q1023;EQDQ01+000042SCOTCV
0143833440999992012070216004-14950-040883FM-15+0914SBQV V0200901N004112200019N0112651N1+02101+01801999999ADDGA1021+003601999GA2041+004501999GF104991999999999999999999MA1102301999999REMMET058METAR SBQV 021600Z 09008KT 9999 FEW012 SCT015 21/18 Q1023;
0143833440999992012070217004-14950-040883FM-15+0914SBQV V0201201N006210045019N0112651N1+02001+01701999999ADDGA1021+003601999GA2071+004501999GF107991999999999999999999MA1102201999999REMMET058METAR SBQV 021700Z 12012KT 9999 FEW012 BKN015 20/17 Q1022;
0153833440999992012070218004-14950-040883FM-15+0914SBQV V0201301N004610030019N0050001N1+02001+01801999999ADDGA1021+001801999GA2071+003001999GF107991999999999999999999MA1102201999999MW1511REMMET062METAR SBQV 021800Z 13009KT 5000 -DZ FEW006 BKN010 20/18 Q1022;
0120833440999992012070219004-14950-040883FM-15+0914SBQV V0201101N003610030019N0112651N1+01901+01801999999ADDGA1071+003001999GF107991999999999999999999MA1102201999999REMMET051METAR SBQV 021900Z 11007KT 9999 BKN010 19/18 Q1022;
0120833440999992012070220004-14950-040883FM-15+0914SBQV V0201401N003112200019N0112651N1+02001+01801999999ADDGA1021+003001999GF102991999999999999999999MA1102201999999REMMET051METAR SBQV 022000Z 14006KT 9999 FEW010 20/18 Q1022;
0143833440999992012070221004-14950-040883FM-15+0914SBQV V0201201N002612200019N0112651N1+01801+01801999999ADDGA1041+002401999GA2041+021001999GF104991999999999999999999MA1102301999999REMMET058METAR SBQV 022100Z 12005KT 9999 SCT008 SCT070 18/18 Q1023;
0143833440999992012070222004-14950-040883FM-15+0914SBQV V0200901N004112200019N0112651N1+01701+01701999999ADDGA1041+002101999GA2041+021001999GF104991999999999999999999MA1102301999999REMMET058METAR SBQV 022200Z 09008KT 9999 SCT007 SCT070 17/17 Q1023;
0120833440999992012070223004-14950-040883FM-15+0914SBQV V0201201N002610021019N0112651N1+01701+01701999999ADDGA1071+002101999GF107991999999999999999999MA1102401999999REMMET051METAR SBQV 022300Z 12005KT 9999 BKN007 17/17 Q1024;
0120833440999992012070311004-14950-040883FM-15+0914SBQV V0201201N004610018019N0112651N1+01601+01601999999ADDGA1071+001801999GF107991999999999999999999MA1102401999999REMMET051METAR SBQV 031100Z 12009KT 9999 BKN006 16/16 Q1024;
0120833440999992012070312004-14950-040883FM-15+0914SBQV V0201201N005712200019N0112651N1+01801+01601999999ADDGA1041+002701999GF104991999999999999999999MA1102511999999REMMET051METAR SBQV 031200Z 12011KT 9999 SCT009 18/16 Q1025;
0120833440999992012070313004-14950-040883FM-15+0914SBQV V0201201N006212200019N0112651N1+01901+01401999999ADDGA1041+004501999GF104991999999999999999999MA1102511999999REMMET051METAR SBQV 031300Z 12012KT 9999 SCT015 19/14 Q1025;
0120833440999992012070314004-14950-040883FM-15+0914SBQV V0201101N007712200019N0112651N1+02101+01301999999ADDGA1041+006001999GF104991999999999999999999MA1102511999999REMMET051METAR SBQV 031400Z 11015KT 9999 SCT020 21/13 Q1025;
0120833440999992012070315004-14950-040883FM-15+0914SBQV V0201001N007212200019N0112651N1+02201+01301999999ADDGA1021+007501999GF102991999999999999999999MA1102401999999REMMET051METAR SBQV 031500Z 10014KT 9999 FEW025 22/13 Q1024;
0120833440999992012070316004-14950-040883FM-15+0914SBQV V0201101N006712200019N0112651N1+02301+01301999999ADDGA1021+007501999GF102991999999999999999999MA1102301999999REMMET051METAR SBQV 031600Z 11013KT 9999 FEW025 23/13 Q1023;
0120833440999992012070317004-14950-040883FM-15+0914SBQV V0201101N005712200019N0112651N1+02301+01301999999ADDGA1041+007501999GF104991999999999999999999MA1102201999999REMMET051METAR SBQV 031700Z 11011KT 9999 SCT025 23/13 Q1022;
0120833440999992012070318004-14950-040883FM-15+0914SBQV V0201001N006712200019N0112651N1+02301+01201999999ADDGA1021+009001999GF102991999999999999999999MA1102201999999REMMET051METAR SBQV 031800Z 10013KT 9999 FEW030 23/12 Q1022;
0120833440999992012070319004-14950-040883FM-15+0914SBQV V0201001N006212200019N0112651N1+02201+01101999999ADDGA1021+009001999GF102991999999999999999999MA1102201999999REMMET051METAR SBQV 031900Z 10012KT 9999 FEW030 22/11 Q1022;
0120833440999992012070320004-14950-040883FM-15+0914SBQV V0201101N005112200019N0112651N1+02001+01401999999ADDGA1021+007501999GF102991999999999999999999MA1102201999999REMMET051METAR SBQV 032000Z 11010KT 9999 FEW025 20/14 Q1022;
0120833440999992012070321004-14950-040883FM-15+0914SBQV V0201001N003612200019N0112651N1+01901+01401999999ADDGA1021+004501999GF102991999999999999999999MA1102201999999REMMET051METAR SBQV 032100Z 10007KT 9999 FEW015 19/14 Q1022;
0120833440999992012070322004-14950-040883FM-15+0914SBQV V0201101N002612200019N0112651N1+01801+01401999999ADDGA1021+003901999GF102991999999999999999999MA1102301999999REMMET051METAR SBQV 032200Z 11005KT 9999 FEW013 18/14 Q1023;
0072833440999992012070323004-14950-040883FM-15+0914SBQV V0201001N002619999999Y0099001N1+01701+01401999999ADDMA1102201999999REMMET045METAR SBQV 032300Z 10005KT CAVOK 17/14 Q1022;
0162833440999992012070411004-14950-040883FM-15+0914SBQV V0201301N004610015019N0030001N1+01701+01701999999ADDGA1071+001501999GA2071+002101999GF107991999999999999999999MA1102201999999MW1101MW2511REMMET065METAR SBQV 041100Z 13009KT 3000 -DZ BR BKN005 BKN007 17/17 Q1022;
0162833440999992012070412004-14950-040883FM-15+0914SBQV V0201301N005710015019N0030001N1+01701+01701999999ADDGA1071+001501999GA2081+002101999GF108991999999999999999999MA1102301999999MW1101MW2511REMMET065METAR SBQV 041200Z 13011KT 3000 -DZ BR BKN005 OVC007 17/17 Q1023;
0143833440999992012070413004-14950-040883FM-15+0914SBQV V0201201N005110027019N0112651N1+01801+01801999999ADDGA1021+001801999GA2071+002701999GF107991999999999999999999MA1102301999999REMMET058METAR SBQV 041300Z 12010KT 9999 FEW006 BKN009 18/18 Q1023;
0143833440999992012070414004-14950-040883FM-15+0914SBQV V0201201N005710027019N0112651N1+01901+01801999999ADDGA1021+001801999GA2071+002701999GF107991999999999999999999MA1102301999999REMMET058METAR SBQV 041400Z 12011KT 9999 FEW006 BKN009 19/18 Q1023;
0153833440999992012070415004-14950-040883FM-15+0914SBQV V0201201N005710030019N0112651N1+02001+01901999999ADDGA1071+003001999GA2071+021001999GF107991999999999999999999MA1102301999999MW1611REMMET062METAR SBQV 041500Z 12011KT 9999 -RA BKN010 BKN070 20/19 Q1023;
0143833440999992012070416004-14950-040883FM-15+0914SBQV V0201001N005712200019N0112651N1+02001+01901999999ADDGA1041+003301999GA2041+021001999GF104991999999999999999999MA1102201999999REMMET058METAR SBQV 041600Z 10011KT 9999 SCT011 SCT070 20/19 Q1022;
0143833440999992012070417004-14950-040883FM-15+0914SBQV V0201101N006212200019N0112651N1+02301+01801999999ADDGA1041+003301999GA2041+021001999GF104991999999999999999999MA1102101999999REMMET058METAR SBQV 041700Z 11012KT 9999 SCT011 SCT070 23/18 Q1021;
0143833440999992012070418004-14950-040883FM-15+0914SBQV V0201101N004612200019N0112651N1+01901+01901999999ADDGA1041+003301999GA2041+004501999GF104991999999999999999999MA1102101999999REMMET058METAR SBQV 041800Z 11009KT 9999 SCT011 SCT015 19/19 Q1021;
0120833440999992012070419004-14950-040883FM-15+0914SBQV V0201101N005112200019N0112651N1+01901+01901999999ADDGA1041+002701999GF104991999999999999999999MA1102101999999REMMET051METAR SBQV 041900Z 11010KT 9999 SCT009 19/19 Q1021;
0120833440999992012070420004-14950-040883FM-15+0914SBQV V0201101N005712200019N0112651N1+01701+01701999999ADDGA1041+001801999GF104991999999999999999999MA1102101999999REMMET051METAR SBQV 042000Z 11011KT 9999 SCT006 17/17 Q1021;
0120833440999992012070421004-14950-040883FM-15+0914SBQV V0201001N004612200019N0112651N1+01701+01701999999ADDGA1021+001801999GF102991999999999999999999MA1102101999999REMMET051METAR SBQV 042100Z 10009KT 9999 FEW006 17/17 Q1021;
0120833440999992012070422004-14950-040883FM-15+0914SBQV V0201001N006212200019N0112651N1+01701+01701999999ADDGA1021+001801999GF102991999999999999999999MA1102101999999REMMET051METAR SBQV 042200Z 10012KT 9999 FEW006 17/17 Q1021;
0120833440999992012070423004-14950-040883FM-15+0914SBQV V0201101N004612200019N0112651N1+01701+01701999999ADDGA1041+001801999GF104991999999999999999999MA1102201999999REMMET051METAR SBQV 042300Z 11009KT 9999 SCT006 17/17 Q1022;
0120833440999992012070500004-14950-040883FM-15+0914SBQV V0201101N004612200019N0112651N1+01601+01601999999ADDGA1021+001801999GF102991999999999999999999MA1102201999999REMMET051METAR SBQV 050000Z 11009KT 9999 FEW006 16/16 Q1022;
0120833440999992012070501004-14950-040883FM-15+0914SBQV V0201101N005112200019N0112651N1+01601+01601999999ADDGA1041+001501999GF104991999999999999999999MA1102201999999REMMET051METAR SBQV 050100Z 11010KT 9999 SCT005 16/16 Q1022;
0120833440999992012070511004-14950-040883FM-15+0914SBQV V0201301N006210015019N0112651N1+01701+01701999999ADDGA1071+001501999GF107991999999999999999999MA1102201999999REMMET051METAR SBQV 051100Z 13012KT 9999 BKN005 17/17 Q1022;
0130833440999992012070512004-14950-040883FM-15+0914SBQV V0201301N006210018019N0060001N1+01701+01701999999ADDGA1081+001801999GF108991999999999999999999MA1102201999999MW1511REMMET055METAR SBQV 051200Z 13012KT 6000 -DZ OVC006 17/17 Q1022;
0130833440999992012070513004-14950-040883FM-15+0914SBQV V0201401N006210018019N0050001N1+01801+01801999999ADDGA1071+001801999GF107991999999999999999999MA1102301999999MW1511REMMET055METAR SBQV 051300Z 14012KT 5000 -DZ BKN006 18/18 Q1023;
0120833440999992012070514004-14950-040883FM-15+0914SBQV V0201401N007710024019N0112651N1+01801+01801999999ADDGA1071+002401999GF107991999999999999999999MA1102301999999REMMET051METAR SBQV 051400Z 14015KT 9999 BKN008 18/18 Q1023;
0120833440999992012070515004-14950-040883FM-15+0914SBQV V0201201N008710030019N0112651N1+01901+01701999999ADDGA1081+003001999GF108991999999999999999999MA1102201999999REMMET051METAR SBQV 051500Z 12017KT 9999 OVC010 19/17 Q1022;
0120833440999992012070516004-14950-040883FM-15+0914SBQV V0201201N007210036019N0112651N1+02001+01701999999ADDGA1081+003601999GF108991999999999999999999MA1102201999999REMMET051METAR SBQV 051600Z 12014KT 9999 OVC012 20/17 Q1022;
0120833440999992012070517004-14950-040883FM-15+0914SBQV V0201301N007210033019N0112651N1+02001+01701999999ADDGA1071+003301999GF107991999999999999999999MA1102101999999REMMET051METAR SBQV 051700Z 13014KT 9999 BKN011 20/17 Q1021;
0143833440999992012070518004-14950-040883FM-15+0914SBQV V0201201N006212200019N0112651N1+02001+01701999999ADDGA1021+003601999GA2041+004501999GF104991999999999999999999MA1102001999999REMMET058METAR SBQV 051800Z 12012KT 9999 FEW012 SCT015 20/17 Q1020;
0143833440999992012070519004-14950-040883FM-15+0914SBQV V0201001N005710030019N0112651N1+01801+01801999999ADDGA1021+002101999GA2071+003001999GF107991999999999999999999MA1102101999999REMMET058METAR SBQV 051900Z 10011KT 9999 FEW007 BKN010 18/18 Q1021;
0143833440999992012070520004-14950-040883FM-15+0914SBQV V0201201N005112200019N0112651N1+01801+01701999999ADDGA1021+002101999GA2041+021001999GF104991999999999999999999MA1102101999999REMMET058METAR SBQV 052000Z 12010KT 9999 FEW007 SCT070 18/17 Q1021;
0146833440999992012070521004-14950-040883FM-15+0914SBQV V0201201N00461001501CN0070001N1+01701+01701999999ADDGA1071+001501999GA2041+001801999MA1102101999999MW1511REMMET062METAR SBQV 052100Z 12009KT 7000 -DZ BKN005 SCT006 17/17 Q1021;EQDQ01+000042SCOTCV
0143833440999992012070522004-14950-040883FM-15+0914SBQV V0201101N005110021019N0112651N1+01701+01701999999ADDGA1041+001501999GA2071+002101999GF107991999999999999999999MA1102101999999REMMET058METAR SBQV 052200Z 11010KT 9999 SCT005 BKN007 17/17 Q1021;
0120833440999992012070523004-14950-040883FM-15+0914SBQV V0201201N004110021019N0112651N1+01701+01701999999ADDGA1071+002101999GF107991999999999999999999MA1102201999999REMMET051METAR SBQV 052300Z 12008KT 9999 BKN007 17/17 Q1022;
0120833440999992012070601004-14950-040883FM-15+0914SBQV V0201001N004110018019N0112651N1+01701+01701999999ADDGA1071+001801999GF107991999999999999999999MA1102201999999REMMET051METAR SBQV 060100Z 10008KT 9999 BKN006 17/17 Q1022;
0120833440999992012070611004-14950-040883FM-15+0914SBQV V0201101N004112200019N0112651N1+01601+01601999999ADDGA1041+002401999GF104991999999999999999999MA1102201999999REMMET051METAR SBQV 061100Z 11008KT 9999 SCT008 16/16 Q1022;
0120833440999992012070612004-14950-040883FM-15+0914SBQV V0201001N006712200019N0112651N1+01801+01501999999ADDGA1041+002701999GF104991999999999999999999MA1102201999999REMMET051METAR SBQV 061200Z 10013KT 9999 SCT009 18/15 Q1022;
0143833440999992012070613004-14950-040883FM-15+0914SBQV V0200901N006212200019N0112651N1+02001+01601999999ADDGA1041+003901999GA2041+004501999GF104991999999999999999999MA1102201999999REMMET058METAR SBQV 061300Z 09012KT 9999 SCT013 SCT015 20/16 Q1022;
0120833440999992012070614004-14950-040883FM-15+0914SBQV V0201101N006710048019N0112651N1+02101+01601999999ADDGA1071+004801999GF107991999999999999999999MA1102201999999REMMET051METAR SBQV 061400Z 11013KT 9999 BKN016 21/16 Q1022;
0120833440999992012070615004-14950-040883FM-15+0914SBQV V0201101N006710054019N0112651N1+02201+01501999999ADDGA1071+005401999GF107991999999999999999999MA1102201999999REMMET051METAR SBQV 061500Z 11013KT 9999 BKN018 22/15 Q1022;
0143833440999992012070616004-14950-040883FM-15+0914SBQV V0201001N005712200019N0112651N1+02201+01501999999ADDGA1041+005401999GA2041+024001999GF104991999999999999999999MA1102101999999REMMET058METAR SBQV 061600Z 10011KT 9999 SCT018 SCT080 22/15 Q1021;
0143833440999992012070617004-14950-040883FM-15+0914SBQV V0201101N003612200019N0112651N1+02301+01601999999ADDGA1041+006001999GA2041+024001999GF104991999999999999999999MA1102001999999REMMET058METAR SBQV 061700Z 11007KT 9999 SCT020 SCT080 23/16 Q1020;
0146833440999992012070618004-14950-040883FM-15+0914SBQV V0200701N004612200019N0112651N1+02301+01501999999ADDGA1021+005401021GA2041+006001999GF104991999999999999999999MA1102001999999REMMET061METAR SBQV 061800Z 07009KT 9999 FEW018TCU SCT020 23/15 Q1020;
0143833440999992012070619004-14950-040883FM-15+0914SBQV V0200601N003612200019N0112651N1+02101+01601999999ADDGA1041+005401999GA2041+021001999GF104991999999999999999999MA1102001999999REMMET058METAR SBQV 061900Z 06007KT 9999 SCT018 SCT070 21/16 Q1020;
0143833440999992012070620004-14950-040883FM-15+0914SBQV V0201001N004112200019N0112651N1+02101+01601999999ADDGA1021+004501999GA2041+005401999GF104991999999999999999999MA1102001999999REMMET058METAR SBQV 062000Z 10008KT 9999 FEW015 SCT018 21/16 Q1020;
0143833440999992012070621004-14950-040883FM-15+0914SBQV V0201101N002612200019N0112651N1+01901+01601999999ADDGA1021+003301999GA2041+021001999GF104991999999999999999999MA1102001999999REMMET058METAR SBQV 062100Z 11005KT 9999 FEW011 SCT070 19/16 Q1020;
0143833440999992012070622004-14950-040883FM-15+0914SBQV V0201401N001512200019N0112651N1+01901+01701999999ADDGA1041+003301999GA2041+021001999GF104991999999999999999999MA1102101999999REMMET058METAR SBQV 062200Z 14003KT 9999 SCT011 SCT070 19/17 Q1021;
0120833440999992012070623004-14950-040883FM-15+0914SBQV V0201101N002112200019N0112651N1+01801+01701999999ADDGA1041+003001999GF104991999999999999999999MA1102101999999REMMET051METAR SBQV 062300Z 11004KT 9999 SCT010 18/17 Q1021;
0143833440999992012070711004-14950-040883FM-15+0914SBQV V0201101N004610210019N0112651N1+01601+01601999999ADDGA1041+002101999GA2071+021001999GF107991999999999999999999MA1102301999999REMMET058METAR SBQV 071100Z 11009KT 9999 SCT007 BKN070 16/16 Q1023;
0143833440999992012070712004-14950-040883FM-15+0914SBQV V0201101N004110210019N0112651N1+01801+01701999999ADDGA1041+003301999GA2071+021001999GF107991999999999999999999MA1102301999999REMMET058METAR SBQV 071200Z 11008KT 9999 SCT011 BKN070 18/17 Q1023;
0143833440999992012070713004-14950-040883FM-15+0914SBQV V0201101N004110210019N0112651N1+01901+01601999999ADDGA1041+003901999GA2071+021001999GF107991999999999999999999MA1102401999999REMMET058METAR SBQV 071300Z 11008KT 9999 SCT013 BKN070 19/16 Q1024;
0143833440999992012070714004-14950-040883FM-15+0914SBQV V0200901N003612200019N0112651N1+02101+01701999999ADDGA1041+003901999GA2041+021001999GF104991999999999999999999MA1102301999999REMMET058METAR SBQV 071400Z 09007KT 9999 SCT013 SCT070 21/17 Q1023;
0120833440999992012070715004-14950-040883FM-15+0914SBQV V0200801N004610048019N0112651N1+02301+01601999999ADDGA1071+004801999GF107991999999999999999999MA1102201999999REMMET051METAR SBQV 071500Z 08009KT 9999 BKN016 23/16 Q1022;
0120833440999992012070716004-14950-040883FM-15+0914SBQV V0201001N004112200019N0112651N1+02401+01501999999ADDGA1041+005401999GF104991999999999999999999MA1102101999999REMMET051METAR SBQV 071600Z 10008KT 9999 SCT018 24/15 Q1021;
0120833440999992012070717004-14950-040883FM-15+0914SBQV V0201101N004112200019N0112651N1+02401+01501999999ADDGA1041+005401999GF104991999999999999999999MA1102101999999REMMET051METAR SBQV 071700Z 11008KT 9999 SCT018 24/15 Q1021;
0120833440999992012070718004-14950-040883FM-15+0914SBQV V0201401N004612200019N0112651N1+02301+01501999999ADDGA1041+006001999GF104991999999999999999999MA1102001999999REMMET051METAR SBQV 071800Z 14009KT 9999 SCT020 23/15 Q1020;
0120833440999992012070719004-14950-040883FM-15+0914SBQV V0201301N004112200019N0112651N1+02301+01501999999ADDGA1041+006001999GF104991999999999999999999MA1102001999999REMMET051METAR SBQV 071900Z 13008KT 9999 SCT020 23/15 Q1020;
0120833440999992012070720004-14950-040883FM-15+0914SBQV V0201401N004612200019N0112651N1+02201+01501999999ADDGA1021+006001999GF102991999999999999999999MA1102101999999REMMET051METAR SBQV 072000Z 14009KT 9999 FEW020 22/15 Q1021;
0120833440999992012070721004-14950-040883FM-15+0914SBQV V0201101N003112200019N0112651N1+02001+01501999999ADDGA1021+004801999GF102991999999999999999999MA1102101999999REMMET051METAR SBQV 072100Z 11006KT 9999 FEW016 20/15 Q1021;
0120833440999992012070722004-14950-040883FM-15+0914SBQV V0201001N002612200019N0112651N1+01901+01501999999ADDGA1021+004501999GF102991999999999999999999MA1102101999999REMMET051METAR SBQV 072200Z 10005KT 9999 FEW015 19/15 Q1021;
0120833440999992012070811004-14950-040883FM-15+0914SBQV V0200701N002610015019N0112651N1+01801+01701999999ADDGA1071+001501999GF107991999999999999999999MA1102301999999REMMET051METAR SBQV 081100Z 07005KT 9999 BKN005 18/17 Q1023;
0120833440999992012070812004-14950-040883FM-15+0914SBQV V0201301N001010027019N0112651N1+01901+01701999999ADDGA1071+002701999GF107991999999999999999999MA1102301999999REMMET051METAR SBQV 081200Z 13002KT 9999 BKN009 19/17 Q1023;
0143833440999992012070813004-14950-040883FM-15+0914SBQV V0202101N001512200019N0112651N1+02001+01601999999ADDGA1021+003001999GA2041+004501999GF104991999999999999999999MA1102301999999REMMET058METAR SBQV 081300Z 21003KT 9999 FEW010 SCT015 20/16 Q1023;
0120833440999992012070814004-14950-040883FM-15+0914SBQV V0201701N002112200019N0112651N1+02201+01501999999ADDGA1041+005401999GF104991999999999999999999MA1102201999999REMMET051METAR SBQV 081400Z 17004KT 9999 SCT018 22/15 Q1022;
0120833440999992012070815004-14950-040883FM-15+0914SBQV V0200901N002112200019N0112651N1+02401+01601999999ADDGA1041+006001999GF104991999999999999999999MA1102201999999REMMET051METAR SBQV 081500Z 09004KT 9999 SCT020 24/16 Q1022;
0120833440999992012070816004-14950-040883FM-15+0914SBQV V0201201N002612200019N0112651N1+02501+01601999999ADDGA1041+006001999GF104991999999999999999999MA1102101999999REMMET051METAR SBQV 081600Z 12005KT 9999 SCT020 25/16 Q1021;
0120833440999992012070817004-14950-040883FM-15+0914SBQV V0201101N002112200019N0112651N1+02501+01401999999ADDGA1021+007501999GF102991999999999999999999MA1102001999999REMMET051METAR SBQV 081700Z 11004KT 9999 FEW025 25/14 Q1020;
0120833440999992012070818004-14950-040883FM-15+0914SBQV V0201301N002612200019N0112651N1+02501+01401999999ADDGA1021+007501999GF102991999999999999999999MA1101901999999REMMET051METAR SBQV 081800Z 13005KT 9999 FEW025 25/14 Q1019;
0120833440999992012070819004-14950-040883FM-15+0914SBQV V0201301N003612200019N0112651N1+02501+01601999999ADDGA1021+007501999GF102991999999999999999999MA1102001999999REMMET051METAR SBQV 081900Z 13007KT 9999 FEW025 25/16 Q1020;
0120833440999992012070820004-14950-040883FM-15+0914SBQV V0201101N005112200019N0112651N1+02301+01601999999ADDGA1021+006001999GF102991999999999999999999MA1102001999999REMMET051METAR SBQV 082000Z 11010KT 9999 FEW020 23/16 Q1020;
0120833440999992012070821004-14950-040883FM-15+0914SBQV V0201001N004612200019N0112651N1+02101+01601999999ADDGA1021+005401999GF102991999999999999999999MA1102001999999REMMET051METAR SBQV 082100Z 10009KT 9999 FEW018 21/16 Q1020;
0072833440999992012070822004-14950-040883FM-15+0914SBQV V0201001N003119999999Y0099001N1+02001+01601999999ADDMA1102001999999REMMET045METAR SBQV 082200Z 10006KT CAVOK 20/16 Q1020;
0072833440999992012070823004-14950-040883FM-15+0914SBQV V0201001N003119999999Y0099001N1+01901+01601999999ADDMA1102101999999REMMET045METAR SBQV 082300Z 10006KT CAVOK 19/16 Q1021;
0143833440999992012070911004-14950-040883FM-15+0914SBQV V0201001N004110210019N0112651N1+01801+01701999999ADDGA1041+003001999GA2071+021001999GF107991999999999999999999MA1102301999999REMMET058METAR SBQV 091100Z 10008KT 9999 SCT010 BKN070 18/17 Q1023;
0120833440999992012070912004-14950-040883FM-15+0914SBQV V0201101N004112200019N0112651N1+01901+01701999999ADDGA1041+003901999GF104991999999999999999999MA1102301999999REMMET051METAR SBQV 091200Z 11008KT 9999 SCT013 19/17 Q1023;
0120833440999992012070913004-14950-040883FM-15+0914SBQV V0201101N005710045019N0112651N1+02101+01601999999ADDGA1071+004501999GF107991999999999999999999MA1102301999999REMMET051METAR SBQV 091300Z 11011KT 9999 BKN015 21/16 Q1023;
0154833440999992012070914004-14950-040883FM-15+0914SBQV V0201101N00621004501CN0112651N1+02101+01701999999ADDGA1071+004501999GA2041+021001999MA1102301999999MW1611REMMET070METAR SBQV 091400Z 11012KT 9999 3000SE -RA BKN015 SCT070 21/17 Q1 023;EQDQ01+000042SCOTCV
0176833440999992012070915004-14950-040883FM-15+0914SBQV V0201201N007210018019N0040001N1+01801+01801999999ADDGA1071+001801999GA2041+003001999GA3071+021001999GF107991999999999999999999MA1102301999999MW1511REMMET069METAR SBQV 091500Z 12014KT 4000 -DZ BKN006 SCT010 BKN070 18/18 Q1023;
0176833440999992012070916004-14950-040883FM-15+0914SBQV V0201001N005710030019N0112651N1+01901+01901999999ADDGA1021+002101999GA2071+003001999GA3071+021001999GF107991999999999999999999MA1102201999999MW1511REMMET069METAR SBQV 091600Z 10011KT 9999 -DZ FEW007 BKN010 BKN070 19/19 Q1022;
0153833440999992012070917004-14950-040883FM-15+0914SBQV V0201201N005710018019N0020001N1+01901+01901999999ADDGA1071+001801999GA2071+021001999GF107991999999999999999999MA1102101999999MW1511REMMET062METAR SBQV 091700Z 12011KT 2000 -DZ BKN006 BKN070 19/19 Q1021;
0153833440999992012070918004-14950-040883FM-15+0914SBQV V0201301N005110018019N0020001N1+01901+01901999999ADDGA1071+001801999GA2071+021001999GF107991999999999999999999MA1102101999999MW1611REMMET062METAR SBQV 091800Z 13010KT 2000 -RA BKN006 BKN070 19/19 Q1021;
0153833440999992012070919004-14950-040883FM-15+0914SBQV V0201301N007210015019N0060001N1+01801+01801999999ADDGA1071+001501999GA2071+021001999GF107991999999999999999999MA1102101999999MW1511REMMET062METAR SBQV 091900Z 13014KT 6000 -DZ BKN005 BKN070 18/18 Q1021;
0143833440999992012070920004-14950-040883FM-15+0914SBQV V0201201N005110015019N0112651N1+01701+01701999999ADDGA1071+001501999GA2071+021001999GF107991999999999999999999MA1102201999999REMMET058METAR SBQV 092000Z 12010KT 9999 BKN005 BKN070 17/17 Q1022;
0146833440999992012070921004-14950-040883FM-15+0914SBQV V0201201N00671001201CN0040001N1+01701+01701999999ADDGA1071+001201999GA2041+021001999MA1102201999999MW1511REMMET062METAR SBQV 092100Z 12013KT 4000 -DZ BKN004 SCT070 17/17 Q1022;EQDQ01+000042SCOTCV
0136833440999992012070922004-14950-040883FM-15+0914SBQV V0201101N00621001501CN0112651N1+01601+01601999999ADDGA1071+001501999GA2041+021001999MA1102201999999REMMET058METAR SBQV 092200Z 11012KT 9999 BKN005 SCT070 16/16 Q1022;EQDQ01+000042SCOTCV
0120833440999992012070923004-14950-040883FM-15+0914SBQV V0201201N008210015019N0112651N1+01601+01601999999ADDGA1071+001501999GF107991999999999999999999MA1102201999999REMMET051METAR SBQV 092300Z 12016KT 9999 BKN005 16/16 Q1022;
0120833440999992012071011004-14950-040883FM-15+0914SBQV V0201301N005710027019N0112651N1+01501+01501999999ADDGA1071+002701999GF107991999999999999999999MA1102201999999REMMET051METAR SBQV 101100Z 13011KT 9999 BKN009 15/15 Q1022;
0120833440999992012071012004-14950-040883FM-15+0914SBQV V0201301N007712200019N0112651N1+01601+01601999999ADDGA1041+003301999GF104991999999999999999999MA1102301999999REMMET051METAR SBQV 101200Z 13015KT 9999 SCT011 16/16 Q1023;
0120833440999992012071013004-14950-040883FM-15+0914SBQV V0201401N006210045019N0112651N1+01701+01501999999ADDGA1071+004501999GF107991999999999999999999MA1102301999999REMMET051METAR SBQV 101300Z 14012KT 9999 BKN015 17/15 Q1023;
0120833440999992012071014004-14950-040883FM-15+0914SBQV V0201301N005710045019N0112651N1+01701+01601999999ADDGA1081+004501999GF108991999999999999999999MA1102201999999REMMET051METAR SBQV 101400Z 13011KT 9999 OVC015 17/16 Q1022;
0120833440999992012071015004-14950-040883FM-15+0914SBQV V0201201N006210045019N0112651N1+01801+01501999999ADDGA1071+004501999GF107991999999999999999999MA1102201999999REMMET051METAR SBQV 101500Z 12012KT 9999 BKN015 18/15 Q1022;
0120833440999992012071017004-14950-040883FM-15+0914SBQV V0201201N005110045019N0112651N1+01801+01501999999ADDGA1081+004501999GF108991999999999999999999MA1102001999999REMMET051METAR SBQV 101700Z 12010KT 9999 OVC015 18/15 Q1020;
0120833440999992012071018004-14950-040883FM-15+0914SBQV V0201301N005710045019N0112651N1+01901+01501999999ADDGA1071+004501999GF107991999999999999999999MA1102001999999REMMET051METAR SBQV 101800Z 13011KT 9999 BKN015 19/15 Q1020;
0120833440999992012071019004-14950-040883FM-15+0914SBQV V0201101N005710045019N0112651N1+01901+01501999999ADDGA1071+004501999GF107991999999999999999999MA1101901999999REMMET051METAR SBQV 101900Z 11011KT 9999 BKN015 19/15 Q1019;
0143833440999992012071020004-14950-040883FM-15+0914SBQV V0201101N004610210019N0112651N1+01801+01501999999ADDGA1021+004501999GA2071+021001999GF107991999999999999999999MA1102001999999REMMET058METAR SBQV 102000Z 11009KT 9999 FEW015 BKN070 18/15 Q1020;
0143833440999992012071021004-14950-040883FM-15+0914SBQV V0201201N005110210019N0112651N1+01701+01501999999ADDGA1021+004501999GA2071+021001999GF107991999999999999999999MA1102001999999REMMET058METAR SBQV 102100Z 12010KT 9999 FEW015 BKN070 17/15 Q1020;
0143833440999992012071022004-14950-040883FM-15+0914SBQV V0201001N004110210019N0112651N1+01701+01601999999ADDGA1021+003601999GA2071+021001999GF107991999999999999999999MA1102001999999REMMET058METAR SBQV 102200Z 10008KT 9999 FEW012 BKN070 17/16 Q1020;
0072833440999992012071023004-14950-040883FM-15+0914SBQV V0201301N003619999999Y0099001N1+01701+01501999999ADDMA1102001999999REMMET045METAR SBQV 102300Z 13007KT CAVOK 17/15 Q1020;
0072833440999992012071111004-14950-040883FM-15+0914SBQV V0201001N003119999999Y0099001N1+01801+01501999999ADDMA1102001999999REMMET045METAR SBQV 111100Z 10006KT CAVOK 18/15 Q1020;
0072833440999992012071112004-14950-040883FM-15+0914SBQV V0201101N002619999999Y0099001N1+02001+01501999999ADDMA1102101999999REMMET045METAR SBQV 111200Z 11005KT CAVOK 20/15 Q1021;
0072833440999992012071113004-14950-040883FM-15+0914SBQV V0200901N003119999999Y0099001N1+02201+01401999999ADDMA1102001999999REMMET045METAR SBQV 111300Z 09006KT CAVOK 22/14 Q1020;
0143833440999992012071114004-14950-040883FM-15+0914SBQV V0200901N004612200019N0112651N1+02301+01301999999ADDGA1021+009001999GA2041+030001999GF104991999999999999999999MA1102001999999REMMET058METAR SBQV 111400Z 09009KT 9999 FEW030 SCT100 23/13 Q1020;
0143833440999992012071115004-14950-040883FM-15+0914SBQV V0200801N003612200019N0112651N1+02401+01301999999ADDGA1021+009001999GA2041+030001999GF104991999999999999999999MA1101901999999REMMET058METAR SBQV 111500Z 08007KT 9999 FEW030 SCT100 24/13 Q1019;
0143833440999992012071116004-14950-040883FM-15+0914SBQV V0200901N003612200019N0112651N1+02401+01301999999ADDGA1041+009001999GA2041+030001999GF104991999999999999999999MA1101801999999REMMET058METAR SBQV 111600Z 09007KT 9999 SCT030 SCT100 24/13 Q1018;
0143833440999992012071117004-14950-040883FM-15+0914SBQV V0201101N003112200019N0112651N1+02401+01301999999ADDGA1021+009001999GA2041+030001999GF104991999999999999999999MA1101691999999REMMET058METAR SBQV 111700Z 11006KT 9999 FEW030 SCT100 24/13 Q1017;
0143833440999992012071118004-14950-040883FM-15+0914SBQV V0201001N004112200019N0112651N1+02401+01401999999ADDGA1041+007501999GA2041+027001999GF104991999999999999999999MA1101691999999REMMET058METAR SBQV 111800Z 10008KT 9999 SCT025 SCT090 24/14 Q1017;
0120833440999992012071119004-14950-040883FM-15+0914SBQV V0201001N004110075019N0112651N1+02301+01401999999ADDGA1071+007501999GF107991999999999999999999MA1101691999999REMMET051METAR SBQV 111900Z 10008KT 9999 BKN025 23/14 Q1017;
0120833440999992012071120004-14950-040883FM-15+0914SBQV V0200801N003612200019N0112651N1+02201+01501999999ADDGA1021+006001999GF102991999999999999999999MA1101591999999REMMET051METAR SBQV 112000Z 08007KT 9999 FEW020 22/15 Q1016;
0120833440999992012071121004-14950-040883FM-15+0914SBQV V0200801N004112200019N0112651N1+02001+01601999999ADDGA1021+005401999GF102991999999999999999999MA1101691999999REMMET051METAR SBQV 112100Z 08008KT 9999 FEW018 20/16 Q1017;
0072833440999992012071122004-14950-040883FM-15+0914SBQV V0200901N004119999999Y0099001N1+01901+01601999999ADDMA1101691999999REMMET045METAR SBQV 112200Z 09008KT CAVOK 19/16 Q1017;
0072833440999992012071123004-14950-040883FM-15+0914SBQV V0200901N004119999999Y0099001N1+01901+01601999999ADDMA1101691999999REMMET045METAR SBQV 112300Z 09008KT CAVOK 19/16 Q1017;
0120833440999992012071211004-14950-040883FM-15+0914SBQV V0200401N004112200019N0112651N1+02001+01701999999ADDGA1021+002401999GF102991999999999999999999MA1101901999999REMMET051METAR SBQV 121100Z 04008KT 9999 FEW008 20/17 Q1019;
0120833440999992012071212004-14950-040883FM-15+0914SBQV V0200201N006712200019N0112651N1+02101+01901999999ADDGA1021+003001999GF102991999999999999999999MA1101901999999REMMET051METAR SBQV 121200Z 02013KT 9999 FEW010 21/19 Q1019;
0120833440999992012071213004-14950-040883FM-15+0914SBQV V0200201N005712200019N0112651N1+02301+01701999999ADDGA1021+004501999GF102991999999999999999999MA1102001999999REMMET051METAR SBQV 121300Z 02011KT 9999 FEW015 23/17 Q1020;
0120833440999992012071214004-14950-040883FM-15+0914SBQV V0203601N004112200019N0112651N1+02501+01701999999ADDGA1041+006001999GF104991999999999999999999MA1101901999999REMMET051METAR SBQV 121400Z 36008KT 9999 SCT020 25/17 Q1019;
0120833440999992012071215004-14950-040883FM-15+0914SBQV V0203601N003110075019N0112651N1+02601+01601999999ADDGA1071+007501999GF107991999999999999999999MA1101801999999REMMET051METAR SBQV 121500Z 36006KT 9999 BKN025 26/16 Q1018;
0120833440999992012071216004-14950-040883FM-15+0914SBQV V0200501N002110090019N0112651N1+02701+01501999999ADDGA1071+009001999GF107991999999999999999999MA1101691999999REMMET051METAR SBQV 121600Z 05004KT 9999 BKN030 27/15 Q1017;
0120833440999992012071217004-14950-040883FM-15+0914SBQV V0203401N002612200019N0112651N1+02701+01301999999ADDGA1041+009001999GF104991999999999999999999MA1101591999999REMMET051METAR SBQV 121700Z 34005KT 9999 SCT030 27/13 Q1016;
0120833440999992012071218004-14950-040883FM-15+0914SBQV V0202901N001512200019N0112651N1+02801+01201999999ADDGA1041+009001999GF104991999999999999999999MA1101591999999REMMET051METAR SBQV 121800Z 29003KT 9999 SCT030 28/12 Q1016;
0120833440999992012071219004-14950-040883FM-15+0914SBQV V0203401N001512200019N0112651N1+02801+01201999999ADDGA1041+009001999GF104991999999999999999999MA1101591999999REMMET051METAR SBQV 121900Z 34003KT 9999 SCT030 28/12 Q1016;
0120833440999992012071220004-14950-040883FM-15+0914SBQV V0201201N004612200019N0112651N1+02401+01701999999ADDGA1021+007501999GF102991999999999999999999MA1101591999999REMMET051METAR SBQV 122000Z 12009KT 9999 FEW025 24/17 Q1016;
0120833440999992012071221004-14950-040883FM-15+0914SBQV V0201001N004112200019N0112651N1+02201+01801999999ADDGA1021+005401999GF102991999999999999999999MA1101691999999REMMET051METAR SBQV 122100Z 10008KT 9999 FEW018 22/18 Q1017;
0072833440999992012071222004-14950-040883FM-15+0914SBQV V0201101N003119999999Y0099001N1+02101+01701999999ADDMA1101801999999REMMET045METAR SBQV 122200Z 11006KT CAVOK 21/17 Q1018;
0072833440999992012071223004-14950-040883FM-15+0914SBQV V0200701N004119999999Y0099001N1+02101+01701999999ADDMA1101801999999REMMET045METAR SBQV 122300Z 07008KT CAVOK 21/17 Q1018;
0072833440999992012071311004-14950-040883FM-15+0914SBQV V0200201N004119999999Y0099001N1+02201+01601999999ADDMA1102101999999REMMET045METAR SBQV 131100Z 02008KT CAVOK 22/16 Q1021;
0072833440999992012071312004-14950-040883FM-15+0914SBQV V0200101N004619999999Y0099001N1+02401+01701999999ADDMA1102201999999REMMET045METAR SBQV 131200Z 01009KT CAVOK 24/17 Q1022;
0072833440999992012071313004-14950-040883FM-15+0914SBQV V0200201N003619999999Y0099001N1+02601+01601999999ADDMA1102101999999REMMET045METAR SBQV 131300Z 02007KT CAVOK 26/16 Q1021;
0072833440999992012071314004-14950-040883FM-15+0914SBQV V0200701N002119999999Y0099001N1+02701+01601999999ADDMA1102101999999REMMET045METAR SBQV 131400Z 07004KT CAVOK 27/16 Q1021;
0120833440999992012071315004-14950-040883FM-15+0914SBQV V0200101N001512200019N0112651N1+02801+01401999999ADDGA1021+010501999GF102991999999999999999999MA1102001999999REMMET051METAR SBQV 131500Z 01003KT 9999 FEW035 28/14 Q1020;
0120833440999992012071316004-14950-040883FM-15+0914SBQV V0200201N001512200019N0112651N1+02901+01401999999ADDGA1041+010501999GF104991999999999999999999MA1101901999999REMMET051METAR SBQV 131600Z 02003KT 9999 SCT035 29/14 Q1019;
0120833440999992012071317004-14950-040883FM-15+0914SBQV V0202901N001012200019N0112651N1+03001+01301999999ADDGA1021+010501999GF102991999999999999999999MA1101801999999REMMET051METAR SBQV 131700Z 29002KT 9999 FEW035 30/13 Q1018;
0120833440999992012071318004-14950-040883FM-15+0914SBQV V0203101N001012200019N0112651N1+03001+01301999999ADDGA1021+009001999GF102991999999999999999999MA1101691999999REMMET051METAR SBQV 131800Z 31002KT 9999 FEW030 30/13 Q1017;
0120833440999992012071319004-14950-040883FM-15+0914SBQV V0200901N001512200019N0112651N1+02901+01301999999ADDGA1041+009001999GF104991999999999999999999MA1101691999999REMMET051METAR SBQV 131900Z 09003KT 9999 SCT030 29/13 Q1017;
0120833440999992012071320004-14950-040883FM-15+0914SBQV V0201001N004612200019N0112651N1+02701+01901999999ADDGA1021+009001999GF102991999999999999999999MA1101801999999REMMET051METAR SBQV 132000Z 10009KT 9999 FEW030 27/19 Q1018;
0120833440999992012071321004-14950-040883FM-15+0914SBQV V0200901N003612200019N0112651N1+02401+01901999999ADDGA1021+006001999GF102991999999999999999999MA1101901999999REMMET051METAR SBQV 132100Z 09007KT 9999 FEW020 24/19 Q1019;
0072833440999992012071322004-14950-040883FM-15+0914SBQV V0200801N003619999999Y0099001N1+02301+01901999999ADDMA1102001999999REMMET045METAR SBQV 132200Z 08007KT CAVOK 23/19 Q1020;
0072833440999992012071323004-14950-040883FM-15+0914SBQV V0200701N004119999999Y0099001N1+02201+01801999999ADDMA1102101999999REMMET045METAR SBQV 132300Z 07008KT CAVOK 22/18 Q1021;
0072833440999992012071400004-14950-040883FM-15+0914SBQV V0200701N004119999999Y0099001N1+02101+01801999999ADDMA1102101999999REMMET045METAR SBQV 140000Z 07008KT CAVOK 21/18 Q1021;
0072833440999992012071401004-14950-040883FM-15+0914SBQV V0200801N003119999999Y0099001N1+02101+01801999999ADDMA1102101999999REMMET045METAR SBQV 140100Z 08006KT CAVOK 21/18 Q1021;
0072833440999992012071402004-14950-040883FM-15+0914SBQV V0200401N003119999999Y0099001N1+02101+01701999999ADDMA1102101999999REMMET045METAR SBQV 140200Z 04006KT CAVOK 21/17 Q1021;
0072833440999992012071403004-14950-040883FM-15+0914SBQV V0200801N002119999999Y0099001N1+02101+01701999999ADDMA1102101999999REMMET045METAR SBQV 140300Z 08004KT CAVOK 21/17 Q1021;
0072833440999992012071404004-14950-040883FM-15+0914SBQV V0201101N002119999999Y0099001N1+02001+01501999999ADDMA1102101999999REMMET045METAR SBQV 140400Z 11004KT CAVOK 20/15 Q1021;
0120833440999992012071411004-14950-040883FM-15+0914SBQV V0201001N003612200019N0112651N1+02001+01701999999ADDGA1021+006001999GF102991999999999999999999MA1102301999999REMMET051METAR SBQV 141100Z 10007KT 9999 FEW020 20/17 Q1023;
0120833440999992012071412004-14950-040883FM-15+0914SBQV V0200701N004612200019N0112651N1+02201+01701999999ADDGA1021+006001999GF102991999999999999999999MA1102401999999REMMET051METAR SBQV 141200Z 07009KT 9999 FEW020 22/17 Q1024;
0120833440999992012071413004-14950-040883FM-15+0914SBQV V0200701N003112200019N0112651N1+02401+01701999999ADDGA1021+007501999GF102991999999999999999999MA1102401999999REMMET051METAR SBQV 141300Z 07006KT 9999 FEW025 24/17 Q1024;
0120833440999992012071414004-14950-040883FM-15+0914SBQV V0201001N004112200019N0112651N1+02601+01601999999ADDGA1041+007501999GF104991999999999999999999MA1102301999999REMMET051METAR SBQV 141400Z 10008KT 9999 SCT025 26/16 Q1023;
0120833440999992012071415004-14950-040883FM-15+0914SBQV V0201001N005710075019N0112651N1+02601+01601999999ADDGA1071+007501999GF107991999999999999999999MA1102301999999REMMET051METAR SBQV 141500Z 10011KT 9999 BKN025 26/16 Q1023;
0120833440999992012071416004-14950-040883FM-15+0914SBQV V0201101N005112200019N0112651N1+02701+01601999999ADDGA1041+007501999GF104991999999999999999999MA1102201999999REMMET051METAR SBQV 141600Z 11010KT 9999 SCT025 27/16 Q1022;
0120833440999992012071417004-14950-040883FM-15+0914SBQV V0201001N005112200019N0112651N1+02701+01601999999ADDGA1041+007501999GF104991999999999999999999MA1102101999999REMMET051METAR SBQV 141700Z 10010KT 9999 SCT025 27/16 Q1021;
0120833440999992012071418004-14950-040883FM-15+0914SBQV V0201101N005110075019N0112651N1+02601+01601999999ADDGA1071+007501999GF107991999999999999999999MA1102101999999REMMET051METAR SBQV 141800Z 11010KT 9999 BKN025 26/16 Q1021;
0120833440999992012071419004-14950-040883FM-15+0914SBQV V0201201N005112200019N0112651N1+02501+01601999999ADDGA1041+006001999GF104991999999999999999999MA1102101999999REMMET051METAR SBQV 141900Z 12010KT 9999 SCT020 25/16 Q1021;
0120833440999992012071420004-14950-040883FM-15+0914SBQV V0201201N004112200019N0112651N1+02401+01701999999ADDGA1021+004801999GF102991999999999999999999MA1102101999999REMMET051METAR SBQV 142000Z 12008KT 9999 FEW016 24/17 Q1021;
0120833440999992012071421004-14950-040883FM-15+0914SBQV V0201201N004612200019N0112651N1+02201+01701999999ADDGA1021+004801999GF102991999999999999999999MA1102201999999REMMET051METAR SBQV 142100Z 12009KT 9999 FEW016 22/17 Q1022;
0120833440999992012071422004-14950-040883FM-15+0914SBQV V0201101N004112200019N0112651N1+02101+01801999999ADDGA1021+004501999GF102991999999999999999999MA1102201999999REMMET051METAR SBQV 142200Z 11008KT 9999 FEW015 21/18 Q1022;
0120833440999992012071511004-14950-040883FM-15+0914SBQV V0201301N003112200019N0112651N1+01801+01701999999ADDGA1041+003301999GF104991999999999999999999MA1102401999999REMMET051METAR SBQV 151100Z 13006KT 9999 SCT011 18/17 Q1024;
0120833440999992012071512004-14950-040883FM-15+0914SBQV V0201301N005712200019N0112651N1+02001+01701999999ADDGA1041+003901999GF104991999999999999999999MA1102401999999REMMET051METAR SBQV 151200Z 13011KT 9999 SCT013 20/17 Q1024;
0120833440999992012071513004-14950-040883FM-15+0914SBQV V0201201N004610045019N0112651N1+02201+01601999999ADDGA1071+004501999GF107991999999999999999999MA1102401999999REMMET051METAR SBQV 151300Z 12009KT 9999 BKN015 22/16 Q1024;
0120833440999992012071514004-14950-040883FM-15+0914SBQV V0201301N005110048019N0112651N1+02101+01701999999ADDGA1071+004801999GF107991999999999999999999MA1102401999999REMMET051METAR SBQV 151400Z 13010KT 9999 BKN016 21/17 Q1024;
0153833440999992012071515004-14950-040883FM-15+0914SBQV V0201301N005710045019N0040001N1+01901+01801999999ADDGA1041+002401999GA2071+004501999GF107991999999999999999999MA1102301999999MW1511REMMET062METAR SBQV 151500Z 13011KT 4000 -DZ SCT008 BKN015 19/18 Q1023;
0143833440999992012071516004-14950-040883FM-15+0914SBQV V0201401N004110027019N0112651N1+01901+01901999999ADDGA1021+002101999GA2071+002701999GF107991999999999999999999MA1102201999999REMMET058METAR SBQV 151600Z 14008KT 9999 FEW007 BKN009 19/19 Q1022;
0120833440999992012071517004-14950-040883FM-15+0914SBQV V0201301N005110027019N0080001N1+01901+01901999999ADDGA1071+002701999GF107991999999999999999999MA1102101999999REMMET051METAR SBQV 151700Z 13010KT 8000 BKN009 19/19 Q1021;
0143833440999992012071518004-14950-040883FM-15+0914SBQV V0201001N003610210019N0112651N1+02001+01901999999ADDGA1041+001501999GA2071+021001999GF107991999999999999999999MA1102101999999REMMET058METAR SBQV 151800Z 10007KT 9999 SCT005 BKN070 20/19 Q1021;
0120833440999992012071519004-14950-040883FM-15+0914SBQV V0201001N003612200019N0112651N1+02001+01901999999ADDGA1041+004801999GF104991999999999999999999MA1102101999999REMMET051METAR SBQV 151900Z 10007KT 9999 SCT016 20/19 Q1021;
0153833440999992012071520004-14950-040883FM-15+0914SBQV V0201101N006210027019N0080001N1+02101+01801999999ADDGA1071+002701999GA2071+021001999GF107991999999999999999999MA1102101999999MW1511REMMET062METAR SBQV 152000Z 11012KT 8000 -DZ BKN009 BKN070 21/18 Q1021;
0143833440999992012071521004-14950-040883FM-15+0914SBQV V0201101N003610210019N0112651N1+01801+01801999999ADDGA1021+002401999GA2071+021001999GF107991999999999999999999MA1102201999999REMMET058METAR SBQV 152100Z 11007KT 9999 FEW008 BKN070 18/18 Q1022;
0143833440999992012071522004-14950-040883FM-15+0914SBQV V0201101N003110210019N0112651N1+01801+01801999999ADDGA1021+002401999GA2071+021001999GF107991999999999999999999MA1102201999999REMMET058METAR SBQV 152200Z 11006KT 9999 FEW008 BKN070 18/18 Q1022;
0143833440999992012071523004-14950-040883FM-15+0914SBQV V0201001N005112200019N0112651N1+01801+01801999999ADDGA1021+002101999GA2041+021001999GF104991999999999999999999MA1102301999999REMMET058METAR SBQV 152300Z 10010KT 9999 FEW007 SCT070 18/18 Q1023;
0143833440999992012071600004-14950-040883FM-15+0914SBQV V0200901N005712200019N0112651N1+01801+01701999999ADDGA1021+002101999GA2041+021001999GF104991999999999999999999MA1102301999999REMMET058METAR SBQV 160000Z 09011KT 9999 FEW007 SCT070 18/17 Q1023;
0120833440999992012071611004-14950-040883FM-15+0914SBQV V0201101N005112200019N0112651N1+01801+01601999999ADDGA1021+004801999GF102991999999999999999999MA1102301999999REMMET051METAR SBQV 161100Z 11010KT 9999 FEW016 18/16 Q1023;
0120833440999992012071612004-14950-040883FM-15+0914SBQV V0201201N004610048019N0112651N1+01801+01601999999ADDGA1071+004801999GF107991999999999999999999MA1102401999999REMMET051METAR SBQV 161200Z 12009KT 9999 BKN016 18/16 Q1024;
0120833440999992012071613004-14950-040883FM-15+0914SBQV V0201301N005110048019N0112651N1+01901+01701999999ADDGA1071+004801999GF107991999999999999999999MA1102511999999REMMET051METAR SBQV 161300Z 13010KT 9999 BKN016 19/17 Q1025;
0120833440999992012071614004-14950-040883FM-15+0914SBQV V0201201N005112200019N0112651N1+02101+01501999999ADDGA1041+006001999GF104991999999999999999999MA1102401999999REMMET051METAR SBQV 161400Z 12010KT 9999 SCT020 21/15 Q1024;
0120833440999992012071615004-14950-040883FM-15+0914SBQV V0201301N006212200019N0112651N1+02201+01601999999ADDGA1041+006001999GF104991999999999999999999MA1102301999999REMMET051METAR SBQV 161500Z 13012KT 9999 SCT020 22/16 Q1023;
0120833440999992012071616004-14950-040883FM-15+0914SBQV V0201401N006212200019N0112651N1+02201+01401999999ADDGA1041+006001999GF104991999999999999999999MA1102201999999REMMET051METAR SBQV 161600Z 14012KT 9999 SCT020 22/14 Q1022;
0120833440999992012071617004-14950-040883FM-15+0914SBQV V0201001N006712200019N0112651N1+02401+01301999999ADDGA1041+007501999GF104991999999999999999999MA1102201999999REMMET051METAR SBQV 161700Z 10013KT 9999 SCT025 24/13 Q1022;
0120833440999992012071618004-14950-040883FM-15+0914SBQV V0201201N005712200019N0112651N1+02301+01401999999ADDGA1041+007501999GF104991999999999999999999MA1102101999999REMMET051METAR SBQV 161800Z 12011KT 9999 SCT025 23/14 Q1021;
0120833440999992012071619004-14950-040883FM-15+0914SBQV V0201101N005112200019N0112651N1+02301+01301999999ADDGA1041+006001999GF104991999999999999999999MA1102201999999REMMET051METAR SBQV 161900Z 11010KT 9999 SCT020 23/13 Q1022;
0120833440999992012071620004-14950-040883FM-15+0914SBQV V0201301N005112200019N0112651N1+02201+01501999999ADDGA1021+005401999GF102991999999999999999999MA1102201999999REMMET051METAR SBQV 162000Z 13010KT 9999 FEW018 22/15 Q1022;
0120833440999992012071621004-14950-040883FM-15+0914SBQV V0201201N004112200019N0112651N1+02001+01601999999ADDGA1021+004801999GF102991999999999999999999MA1102201999999REMMET051METAR SBQV 162100Z 12008KT 9999 FEW016 20/16 Q1022;
0072833440999992012071622004-14950-040883FM-15+0914SBQV V0201101N004119999999Y0099001N1+01901+01601999999ADDMA1102301999999REMMET045METAR SBQV 162200Z 11008KT CAVOK 19/16 Q1023;
0072833440999992012071623004-14950-040883FM-15+0914SBQV V0201101N004119999999Y0099001N1+01801+01601999999ADDMA1102301999999REMMET045METAR SBQV 162300Z 11008KT CAVOK 18/16 Q1023;
0120833440999992012071711004-14950-040883FM-15+0914SBQV V0201201N005112200019N0112651N1+01701+01601999999ADDGA1041+002101999GF104991999999999999999999MA1102401999999REMMET051METAR SBQV 171100Z 12010KT 9999 SCT007 17/16 Q1024;
0120833440999992012071712004-14950-040883FM-15+0914SBQV V0201201N005710033019N0112651N1+01901+01601999999ADDGA1071+003301999GF107991999999999999999999MA1102511999999REMMET051METAR SBQV 171200Z 12011KT 9999 BKN011 19/16 Q1025;
0120833440999992012071713004-14950-040883FM-15+0914SBQV V0200901N006712200019N0112651N1+02201+01401999999ADDGA1041+003901999GF104991999999999999999999MA1102511999999REMMET051METAR SBQV 171300Z 09013KT 9999 SCT013 22/14 Q1025;
0120833440999992012071714004-14950-040883FM-15+0914SBQV V0201101N002612200019N0112651N1+02201+01501999999ADDGA1041+005401999GF104991999999999999999999MA1102511999999REMMET051METAR SBQV 171400Z 11005KT 9999 SCT018 22/15 Q1025;
0120833440999992012071715004-14950-040883FM-15+0914SBQV V0201101N007712200019N0112651N1+02201+01501999999ADDGA1041+007501999GF104991999999999999999999MA1102511999999REMMET051METAR SBQV 171500Z 11015KT 9999 SCT025 22/15 Q1025;
0120833440999992012071716004-14950-040883FM-15+0914SBQV V0201201N006212200019N0112651N1+02301+01601999999ADDGA1041+007501999GF104991999999999999999999MA1102301999999REMMET051METAR SBQV 171600Z 12012KT 9999 SCT025 23/16 Q1023;
0120833440999992012071717004-14950-040883FM-15+0914SBQV V0201301N006212200019N0112651N1+02401+01601999999ADDGA1041+007501999GF104991999999999999999999MA1102301999999REMMET051METAR SBQV 171700Z 13012KT 9999 SCT025 24/16 Q1023;
0120833440999992012071718004-14950-040883FM-15+0914SBQV V0201201N005112200019N0112651N1+02401+01401999999ADDGA1041+007501999GF104991999999999999999999MA1102201999999REMMET051METAR SBQV 171800Z 12010KT 9999 SCT025 24/14 Q1022;
0120833440999992012071719004-14950-040883FM-15+0914SBQV V0201101N005712200019N0112651N1+02401+01401999999ADDGA1021+007501999GF102991999999999999999999MA1102201999999REMMET051METAR SBQV 171900Z 11011KT 9999 FEW025 24/14 Q1022;
0120833440999992012071720004-14950-040883FM-15+0914SBQV V0201301N005712200019N0112651N1+02201+01501999999ADDGA1041+006001999GF104991999999999999999999MA1102201999999REMMET051METAR SBQV 172000Z 13011KT 9999 SCT020 22/15 Q1022;
0120833440999992012071721004-14950-040883FM-15+0914SBQV V0201301N004612200019N0112651N1+02001+01701999999ADDGA1041+004501999GF104991999999999999999999MA1102301999999REMMET051METAR SBQV 172100Z 13009KT 9999 SCT015 20/17 Q1023;
0120833440999992012071722004-14950-040883FM-15+0914SBQV V0201201N003612200019N0112651N1+01901+01701999999ADDGA1021+003601999GF102991999999999999999999MA1102301999999REMMET051METAR SBQV 172200Z 12007KT 9999 FEW012 19/17 Q1023;
0120833440999992012071723004-14950-040883FM-15+0914SBQV V0201101N003612200019N0112651N1+01801+01701999999ADDGA1041+003001999GF104991999999999999999999MA1102301999999REMMET051METAR SBQV 172300Z 11007KT 9999 SCT010 18/17 Q1023;
0120833440999992012071800004-14950-040883FM-15+0914SBQV V0201001N003612200019N0112651N1+01801+01701999999ADDGA1041+002701999GF104991999999999999999999MA1102401999999REMMET051METAR SBQV 180000Z 10007KT 9999 SCT009 18/17 Q1024;
0166833440999992012071811004-14950-040883FM-15+0914SBQV V0200801N00361003001CN0112651N1+01801+01601999999ADDGA1021+001801999GA2041+003001999GA3071+021001999GF107991999999999999999999MA1102401999999REMMET065METAR SBQV 181100Z 08007KT 9999 FEW006 SCT010 BKN070 18/16 Q1024;
0120833440999992012071812004-14950-040883FM-15+0914SBQV V0200801N002112200019N0112651N1+02001+01601999999ADDGA1021+004801999GF102991999999999999999999MA1102511999999REMMET051METAR SBQV 181200Z 08004KT 9999 FEW016 20/16 Q1025;
0120833440999992012071813004-14950-040883FM-15+0914SBQV V0200601N003610060019N0112651N1+02301+01601999999ADDGA1071+006001999GF107991999999999999999999MA1102401999999REMMET051METAR SBQV 181300Z 06007KT 9999 BKN020 23/16 Q1024;
0120833440999992012071814004-14950-040883FM-15+0914SBQV V0200801N003610060019N0112651N1+02301+01601999999ADDGA1071+006001999GF107991999999999999999999MA1102401999999REMMET051METAR SBQV 181400Z 08007KT 9999 BKN020 23/16 Q1024;
0120833440999992012071815004-14950-040883FM-15+0914SBQV V0200401N002610075019N0112651N1+02401+01501999999ADDGA1071+007501999GF107991999999999999999999MA1102301999999REMMET051METAR SBQV 181500Z 04005KT 9999 BKN025 24/15 Q1023;
0120833440999992012071816004-14950-040883FM-15+0914SBQV V0200401N003110075019N0112651N1+02501+01401999999ADDGA1071+007501999GF107991999999999999999999MA1102201999999REMMET051METAR SBQV 181600Z 04006KT 9999 BKN025 25/14 Q1022;
0120833440999992012071817004-14950-040883FM-15+0914SBQV V0200501N002612200019N0112651N1+02601+01301999999ADDGA1041+007501999GF104991999999999999999999MA1102101999999REMMET051METAR SBQV 181700Z 05005KT 9999 SCT025 26/13 Q1021;
0143833440999992012071818004-14950-040883FM-15+0914SBQV V0201301N005712200019N0112651N1+02501+01601999999ADDGA1041+007501999GA2041+027001999GF104991999999999999999999MA1102001999999REMMET058METAR SBQV 181800Z 13011KT 9999 SCT025 SCT090 25/16 Q1020;
0143833440999992012071819004-14950-040883FM-15+0914SBQV V0201201N005712200019N0112651N1+02401+01601999999ADDGA1041+007501999GA2041+027001999GF104991999999999999999999MA1102001999999REMMET058METAR SBQV 181900Z 12011KT 9999 SCT025 SCT090 24/16 Q1020;
0120833440999992012071820004-14950-040883FM-15+0914SBQV V0201001N005112200019N0112651N1+02301+01701999999ADDGA1021+006001999GF102991999999999999999999MA1102101999999REMMET051METAR SBQV 182000Z 10010KT 9999 FEW020 23/17 Q1021;
0120833440999992012071821004-14950-040883FM-15+0914SBQV V0201001N004112200019N0112651N1+02101+01601999999ADDGA1021+005401999GF102991999999999999999999MA1102101999999REMMET051METAR SBQV 182100Z 10008KT 9999 FEW018 21/16 Q1021;
0072833440999992012071822004-14950-040883FM-15+0914SBQV V0201001N003619999999Y0099001N1+02001+01601999999ADDMA1102201999999REMMET045METAR SBQV 182200Z 10007KT CAVOK 20/16 Q1022;
0072833440999992012071823004-14950-040883FM-15+0914SBQV V0201001N003119999999Y0099001N1+01901+01601999999ADDMA1102201999999REMMET045METAR SBQV 182300Z 10006KT CAVOK 19/16 Q1022;
0072833440999992012071900004-14950-040883FM-15+0914SBQV V0200901N003619999999Y0099001N1+01901+01601999999ADDMA1102301999999REMMET045METAR SBQV 190000Z 09007KT CAVOK 19/16 Q1023;
0072833440999992012071909004-14950-040883FM-15+0914SBQV V0201201N001019999999Y0099001N1+01401+01401999999ADDMA1102101999999REMMET045METAR SBQV 190900Z 12002KT CAVOK 14/14 Q1021;
0072833440999992012071910004-14950-040883FM-15+0914SBQV V0209999C000019999999Y0099001N1+01501+01501999999ADDMA1102201999999REMMET045METAR SBQV 191000Z 00000KT CAVOK 15/15 Q1022;
0072833440999992012071911004-14950-040883FM-15+0914SBQV V0200101N001019999999Y0099001N1+02001+01701999999ADDMA1102201999999REMMET045METAR SBQV 191100Z 01002KT CAVOK 20/17 Q1022;
0072833440999992012071912004-14950-040883FM-15+0914SBQV V0200101N002119999999Y0099001N1+02101+01701999999ADDMA1102301999999REMMET045METAR SBQV 191200Z 01004KT CAVOK 21/17 Q1023;
0072833440999992012071913004-14950-040883FM-15+0914SBQV V0200201N001519999999Y0099001N1+02401+01601999999ADDMA1102301999999REMMET045METAR SBQV 191300Z 02003KT CAVOK 24/16 Q1023;
0120833440999992012071914004-14950-040883FM-15+0914SBQV V0201301N001512200019N0112651N1+02601+01601999999ADDGA1021+009001999GF102991999999999999999999MA1102301999999REMMET051METAR SBQV 191400Z 13003KT 9999 FEW030 26/16 Q1023;
0120833440999992012071915004-14950-040883FM-15+0914SBQV V0202001N001012200019N0112651N1+02701+01501999999ADDGA1041+010501999GF104991999999999999999999MA1102201999999REMMET051METAR SBQV 191500Z 20002KT 9999 SCT035 27/15 Q1022;
0120833440999992012071916004-14950-040883FM-15+0914SBQV V0201301N004112200019N0112651N1+02701+01501999999ADDGA1041+010501999GF104991999999999999999999MA1102101999999REMMET051METAR SBQV 191600Z 13008KT 9999 SCT035 27/15 Q1021;
0120833440999992012071917004-14950-040883FM-15+0914SBQV V0201301N004610105019N0112651N1+02701+01601999999ADDGA1071+010501999GF107991999999999999999999MA1102001999999REMMET051METAR SBQV 191700Z 13009KT 9999 BKN035 27/16 Q1020;
0120833440999992012071918004-14950-040883FM-15+0914SBQV V0201401N004112200019N0112651N1+02601+01501999999ADDGA1041+010501999GF104991999999999999999999MA1102001999999REMMET051METAR SBQV 191800Z 14008KT 9999 SCT035 26/15 Q1020;
0120833440999992012071919004-14950-040883FM-15+0914SBQV V0201101N004612200019N0112651N1+02501+01401999999ADDGA1041+009001999GF104991999999999999999999MA1102001999999REMMET051METAR SBQV 191900Z 11009KT 9999 SCT030 25/14 Q1020;
0120833440999992012071920004-14950-040883FM-15+0914SBQV V0201101N004612200019N0112651N1+02401+01601999999ADDGA1041+007501999GF104991999999999999999999MA1102001999999REMMET051METAR SBQV 192000Z 11009KT 9999 SCT025 24/16 Q1020;
0120833440999992012071921004-14950-040883FM-15+0914SBQV V0201101N004112200019N0112651N1+02201+01701999999ADDGA1021+005401999GF102991999999999999999999MA1102001999999REMMET051METAR SBQV 192100Z 11008KT 9999 FEW018 22/17 Q1020;
0120833440999992012071922004-14950-040883FM-15+0914SBQV V0201101N003612200019N0112651N1+02101+01701999999ADDGA1021+004501999GF102991999999999999999999MA1102101999999REMMET051METAR SBQV 192200Z 11007KT 9999 FEW015 21/17 Q1021;
0072833440999992012071923004-14950-040883FM-15+0914SBQV V0200901N003619999999Y0099001N1+02001+01701999999ADDMA1102201999999REMMET045METAR SBQV 192300Z 09007KT CAVOK 20/17 Q1022;
0120833440999992012072011004-14950-040883FM-15+0914SBQV V0200901N004610027019N0112651N1+01801+01601999999ADDGA1071+002701999GF107991999999999999999999MA1102401999999REMMET051METAR SBQV 201100Z 09009KT 9999 BKN009 18/16 Q1024;
0120833440999992012072012004-14950-040883FM-15+0914SBQV V0200801N004110045019N0112651N1+01901+01601999999ADDGA1071+004501999GF107991999999999999999999MA1102511999999REMMET051METAR SBQV 201200Z 08008KT 9999 BKN015 19/16 Q1025;
0120833440999992012072013004-14950-040883FM-15+0914SBQV V0200801N005110048019N0112651N1+02201+01501999999ADDGA1071+004801999GF107991999999999999999999MA1102401999999REMMET051METAR SBQV 201300Z 08010KT 9999 BKN016 22/15 Q1024;
0120833440999992012072014004-14950-040883FM-15+0914SBQV V0200901N005110060019N0112651N1+02401+01501999999ADDGA1071+006001999GF107991999999999999999999MA1102401999999REMMET051METAR SBQV 201400Z 09010KT 9999 BKN020 24/15 Q1024;
0120833440999992012072015004-14950-040883FM-15+0914SBQV V0201101N005110060019N0112651N1+02301+01601999999ADDGA1071+006001999GF107991999999999999999999MA1102301999999REMMET051METAR SBQV 201500Z 11010KT 9999 BKN020 23/16 Q1023;
0120833440999992012072016004-14950-040883FM-15+0914SBQV V0200901N004110060019N0112651N1+02401+01601999999ADDGA1071+006001999GF107991999999999999999999MA1102201999999REMMET051METAR SBQV 201600Z 09008KT 9999 BKN020 24/16 Q1022;
0120833440999992012072017004-14950-040883FM-15+0914SBQV V0201301N006212200019N0112651N1+02401+01701999999ADDGA1021+006001999GF102991999999999999999999MA1102101999999REMMET051METAR SBQV 201700Z 13012KT 9999 FEW020 24/17 Q1021;
0120833440999992012072018004-14950-040883FM-15+0914SBQV V0201301N005712200019N0112651N1+02301+01701999999ADDGA1041+007501999GF104991999999999999999999MA1102101999999REMMET051METAR SBQV 201800Z 13011KT 9999 SCT025 23/17 Q1021;
0120833440999992012072019004-14950-040883FM-15+0914SBQV V0201201N006212200019N0112651N1+02201+01801999999ADDGA1021+007501999GF102991999999999999999999MA1102101999999REMMET051METAR SBQV 201900Z 12012KT 9999 FEW025 22/18 Q1021;
0120833440999992012072020004-14950-040883FM-15+0914SBQV V0201101N005712200019N0112651N1+02101+01801999999ADDGA1021+007501999GF102991999999999999999999MA1102101999999REMMET051METAR SBQV 202000Z 11011KT 9999 FEW025 21/18 Q1021;
0120833440999992012072021004-14950-040883FM-15+0914SBQV V0201201N005112200019N0112651N1+01901+01701999999ADDGA1041+003001999GF104991999999999999999999MA1102201999999REMMET051METAR SBQV 202100Z 12010KT 9999 SCT010 19/17 Q1022;
0120833440999992012072022004-14950-040883FM-15+0914SBQV V0201201N005112200019N0112651N1+01801+01701999999ADDGA1041+003001999GF104991999999999999999999MA1102201999999REMMET051METAR SBQV 202200Z 12010KT 9999 SCT010 18/17 Q1022;
0120833440999992012072023004-14950-040883FM-15+0914SBQV V0201001N005110030019N0112651N1+01801+01701999999ADDGA1071+003001999GF107991999999999999999999MA1102201999999REMMET051METAR SBQV 202300Z 10010KT 9999 BKN010 18/17 Q1022;
0120833440999992012072111004-14950-040883FM-15+0914SBQV V0200701N004612200019N0112651N1+01901+01601999999ADDGA1021+004801999GF102991999999999999999999MA1102401999999REMMET051METAR SBQV 211100Z 07009KT 9999 FEW016 19/16 Q1024;
0120833440999992012072112004-14950-040883FM-15+0914SBQV V0200601N004612200019N0112651N1+02101+01601999999ADDGA1021+005401999GF102991999999999999999999MA1102401999999REMMET051METAR SBQV 211200Z 06009KT 9999 FEW018 21/16 Q1024;
0120833440999992012072113004-14950-040883FM-15+0914SBQV V0200401N004610060019N0112651N1+02001+01601999999ADDGA1071+006001999GF107991999999999999999999MA1102401999999REMMET051METAR SBQV 211300Z 04009KT 9999 BKN020 20/16 Q1024;
0120833440999992012072114004-14950-040883FM-15+0914SBQV V0200401N004610060019N0112651N1+02001+01601999999ADDGA1071+006001999GF107991999999999999999999MA1102511999999REMMET051METAR SBQV 211400Z 04009KT 9999 BKN020 20/16 Q1025;
0120833440999992012072115004-14950-040883FM-15+0914SBQV V0201201N003610060019N0112651N1+02301+01701999999ADDGA1071+006001999GF107991999999999999999999MA1102301999999REMMET051METAR SBQV 211500Z 12007KT 9999 BKN020 23/17 Q1023;
0120833440999992012072116004-14950-040883FM-15+0914SBQV V0200701N003110075019N0112651N1+02501+01601999999ADDGA1071+007501999GF107991999999999999999999MA1102301999999REMMET051METAR SBQV 211600Z 07006KT 9999 BKN025 25/16 Q1023;
0120833440999992012072117004-14950-040883FM-15+0914SBQV V0201001N004612200019N0112651N1+02401+01601999999ADDGA1041+007501999GF104991999999999999999999MA1102201999999REMMET051METAR SBQV 211700Z 10009KT 9999 SCT025 24/16 Q1022;
0120833440999992012072118004-14950-040883FM-15+0914SBQV V0200901N003612200019N0112651N1+02501+01501999999ADDGA1021+007501999GF102991999999999999999999MA1102101999999REMMET051METAR SBQV 211800Z 09007KT 9999 FEW025 25/15 Q1021;
0120833440999992012072119004-14950-040883FM-15+0914SBQV V0201001N004612200019N0112651N1+02401+01401999999ADDGA1041+007501999GF104991999999999999999999MA1102101999999REMMET051METAR SBQV 211900Z 10009KT 9999 SCT025 24/14 Q1021;
0120833440999992012072120004-14950-040883FM-15+0914SBQV V0200901N003612200019N0112651N1+02401+01501999999ADDGA1021+006001999GF102991999999999999999999MA1102101999999REMMET051METAR SBQV 212000Z 09007KT 9999 FEW020 24/15 Q1021;
0120833440999992012072121004-14950-040883FM-15+0914SBQV V0201001N004112200019N0112651N1+02201+01601999999ADDGA1021+005401999GF102991999999999999999999MA1102201999999REMMET051METAR SBQV 212100Z 10008KT 9999 FEW018 22/16 Q1022;
0072833440999992012072122004-14950-040883FM-15+0914SBQV V0201001N003619999999Y0099001N1+02001+01701999999ADDMA1102301999999REMMET045METAR SBQV 212200Z 10007KT CAVOK 20/17 Q1023;
0120833440999992012072211004-14950-040883FM-15+0914SBQV V0200701N002112200019N0112651N1+01901+01601999999ADDGA1021+004501999GF102991999999999999999999MA1102511999999REMMET051METAR SBQV 221100Z 07004KT 9999 FEW015 19/16 Q1025;
0072833440999992012072212004-14950-040883FM-15+0914SBQV V0200701N001019999999Y0099001N1+02001+01501999999ADDMA1102611999999REMMET045METAR SBQV 221200Z 07002KT CAVOK 20/15 Q1026;
0120833440999992012072213004-14950-040883FM-15+0914SBQV V0201101N002612200019N0112651N1+02201+01501999999ADDGA1021+005401999GF102991999999999999999999MA1102611999999REMMET051METAR SBQV 221300Z 11005KT 9999 FEW018 22/15 Q1026;
0120833440999992012072214004-14950-040883FM-15+0914SBQV V0201001N002612200019N0112651N1+02401+01301999999ADDGA1041+007501999GF104991999999999999999999MA1102511999999REMMET051METAR SBQV 221400Z 10005KT 9999 SCT025 24/13 Q1025;
0120833440999992012072215004-14950-040883FM-15+0914SBQV V0201201N002612200019N0112651N1+02501+01301999999ADDGA1041+006001999GF104991999999999999999999MA1102511999999REMMET051METAR SBQV 221500Z 12005KT 9999 SCT020 25/13 Q1025;
0120833440999992012072216004-14950-040883FM-15+0914SBQV V0201101N004110060019N0112651N1+02401+01401999999ADDGA1071+006001999GF107991999999999999999999MA1102401999999REMMET051METAR SBQV 221600Z 11008KT 9999 BKN020 24/14 Q1024;
0120833440999992012072217004-14950-040883FM-15+0914SBQV V0201201N004610060019N0112651N1+02501+01301999999ADDGA1071+006001999GF107991999999999999999999MA1102301999999REMMET051METAR SBQV 221700Z 12009KT 9999 BKN020 25/13 Q1023;
0120833440999992012072218004-14950-040883FM-15+0914SBQV V0201301N005112200019N0112651N1+02501+01501999999ADDGA1041+007501999GF104991999999999999999999MA1102301999999REMMET051METAR SBQV 221800Z 13010KT 9999 SCT025 25/15 Q1023;
0120833440999992012072219004-14950-040883FM-15+0914SBQV V0201201N005112200019N0112651N1+02401+01301999999ADDGA1021+007501999GF102991999999999999999999MA1102301999999REMMET051METAR SBQV 221900Z 12010KT 9999 FEW025 24/13 Q1023;
0120833440999992012072220004-14950-040883FM-15+0914SBQV V0201101N005112200019N0112651N1+02301+01301999999ADDGA1021+006001999GF102991999999999999999999MA1102301999999REMMET051METAR SBQV 222000Z 11010KT 9999 FEW020 23/13 Q1023;
0072833440999992012072221004-14950-040883FM-15+0914SBQV V0201101N003619999999Y0099001N1+02101+01501999999ADDMA1102401999999REMMET045METAR SBQV 222100Z 11007KT CAVOK 21/15 Q1024;
0072833440999992012072222004-14950-040883FM-15+0914SBQV V0200901N003119999999Y0099001N1+02001+01601999999ADDMA1102401999999REMMET045METAR SBQV 222200Z 09006KT CAVOK 20/16 Q1024;
0072833440999992012072223004-14950-040883FM-15+0914SBQV V0200901N003119999999Y0099001N1+02001+01501999999ADDMA1102401999999REMMET045METAR SBQV 222300Z 09006KT CAVOK 20/15 Q1024;
0072833440999992012072311004-14950-040883FM-15+0914SBQV V0200901N001019999999Y0099001N1+01901+01401999999ADDMA1102511999999REMMET045METAR SBQV 231100Z 09002KT CAVOK 19/14 Q1025;
0072833440999992012072312004-14950-040883FM-15+0914SBQV V0201101N001519999999Y0099001N1+02101+01301999999ADDMA1102611999999REMMET045METAR SBQV 231200Z 11003KT CAVOK 21/13 Q1026;
0072833440999992012072313004-14950-040883FM-15+0914SBQV V0201101N004119999999Y0099001N1+02301+01201999999ADDMA1102611999999REMMET045METAR SBQV 231300Z 11008KT CAVOK 23/12 Q1026;
0072833440999992012072314004-14950-040883FM-15+0914SBQV V0201301N006719999999Y0099001N1+02501+00601999999ADDMA1102611999999REMMET045METAR SBQV 231400Z 13013KT CAVOK 25/06 Q1026;
0072833440999992012072315004-14950-040883FM-15+0914SBQV V0201201N007719999999Y0099001N1+02601+00501999999ADDMA1102511999999REMMET045METAR SBQV 231500Z 12015KT CAVOK 26/05 Q1025;
0072833440999992012072316004-14950-040883FM-15+0914SBQV V0201201N005119999999Y0099001N1+02501+00501999999ADDMA1102401999999REMMET045METAR SBQV 231600Z 12010KT CAVOK 25/05 Q1024;
0072833440999992012072317004-14950-040883FM-15+0914SBQV V0201401N006719999999Y0099001N1+02401+00801999999ADDMA1102401999999REMMET045METAR SBQV 231700Z 14013KT CAVOK 24/08 Q1024;
0072833440999992012072318004-14950-040883FM-15+0914SBQV V0201301N005719999999Y0099001N1+02401+00901999999ADDMA1102301999999REMMET045METAR SBQV 231800Z 13011KT CAVOK 24/09 Q1023;
0072833440999992012072319004-14950-040883FM-15+0914SBQV V0201201N005719999999Y0099001N1+02301+00601999999ADDMA1102301999999REMMET045METAR SBQV 231900Z 12011KT CAVOK 23/06 Q1023;
0072833440999992012072320004-14950-040883FM-15+0914SBQV V0201201N005119999999Y0099001N1+02101+01201999999ADDMA1102301999999REMMET045METAR SBQV 232000Z 12010KT CAVOK 21/12 Q1023;
0072833440999992012072321004-14950-040883FM-15+0914SBQV V0201201N004119999999Y0099001N1+01901+01201999999ADDMA1102301999999REMMET045METAR SBQV 232100Z 12008KT CAVOK 19/12 Q1023;
0072833440999992012072322004-14950-040883FM-15+0914SBQV V0201001N003119999999Y0099001N1+01801+01201999999ADDMA1102301999999REMMET045METAR SBQV 232200Z 10006KT CAVOK 18/12 Q1023;
0072833440999992012072323004-14950-040883FM-15+0914SBQV V0200901N002619999999Y0099001N1+01801+01301999999ADDMA1102401999999REMMET045METAR SBQV 232300Z 09005KT CAVOK 18/13 Q1024;
0072833440999992012072400004-14950-040883FM-15+0914SBQV V0201001N002119999999Y0099001N1+01701+01201999999ADDMA1102401999999REMMET045METAR SBQV 240000Z 10004KT CAVOK 17/12 Q1024;
0072833440999992012072401004-14950-040883FM-15+0914SBQV V0201001N001519999999Y0099001N1+01501+01201999999ADDMA1102401999999REMMET045METAR SBQV 240100Z 10003KT CAVOK 15/12 Q1024;
0072833440999992012072402004-14950-040883FM-15+0914SBQV V0201001N001519999999Y0099001N1+01301+01101999999ADDMA1102301999999REMMET045METAR SBQV 240200Z 10003KT CAVOK 13/11 Q1023;
0120833440999992012072411004-14950-040883FM-15+0914SBQV V0201001N002612200019N0112651N1+01601+01501999999ADDGA1041+003901999GF104991999999999999999999MA1102511999999REMMET051METAR SBQV 241100Z 10005KT 9999 SCT013 16/15 Q1025;
0120833440999992012072412004-14950-040883FM-15+0914SBQV V0201001N005110045019N0112651N1+01901+01501999999ADDGA1071+004501999GF107991999999999999999999MA1102611999999REMMET051METAR SBQV 241200Z 10010KT 9999 BKN015 19/15 Q1026;
0155833440999992012072413004-14950-040883FM-15+0914SBQV V0200901N005112200019N0112651N1+02201+01301999999ADDGA1041+005401999GF104991999999999999999999MA1999999999999REMMET051METAR SBQV 241300Z 09010KT 9999 SCT018 22/13 Q1021;EQDQ01+102103APOA  Q02 102103APOA  
0120833440999992012072414004-14950-040883FM-15+0914SBQV V0200901N004612200019N0112651N1+02201+01401999999ADDGA1021+007501999GF102991999999999999999999MA1102511999999REMMET051METAR SBQV 241400Z 09009KT 9999 FEW025 22/14 Q1025;
0120833440999992012072415004-14950-040883FM-15+0914SBQV V0201001N005712200019N0112651N1+02401+01201999999ADDGA1021+007501999GF102991999999999999999999MA1102511999999REMMET051METAR SBQV 241500Z 10011KT 9999 FEW025 24/12 Q1025;
0120833440999992012072416004-14950-040883FM-15+0914SBQV V0201101N005712200019N0112651N1+02401+01301999999ADDGA1021+007501999GF102991999999999999999999MA1102401999999REMMET051METAR SBQV 241600Z 11011KT 9999 FEW025 24/13 Q1024;
0120833440999992012072417004-14950-040883FM-15+0914SBQV V0201101N005712200019N0112651N1+02501+01301999999ADDGA1021+007501999GF102991999999999999999999MA1102301999999REMMET051METAR SBQV 241700Z 11011KT 9999 FEW025 25/13 Q1023;
0120833440999992012072418004-14950-040883FM-15+0914SBQV V0201301N007212200019N0112651N1+02301+01501999999ADDGA1041+007501999GF104991999999999999999999MA1102301999999REMMET051METAR SBQV 241800Z 13014KT 9999 SCT025 23/15 Q1023;
0120833440999992012072419004-14950-040883FM-15+0914SBQV V0201301N006212200019N0112651N1+02301+01401999999ADDGA1021+007501999GF102991999999999999999999MA1102301999999REMMET051METAR SBQV 241900Z 13012KT 9999 FEW025 23/14 Q1023;
0120833440999992012072420004-14950-040883FM-15+0914SBQV V0201301N006212200019N0112651N1+02201+01401999999ADDGA1021+006001999GF102991999999999999999999MA1102301999999REMMET051METAR SBQV 242000Z 13012KT 9999 FEW020 22/14 Q1023;
0120833440999992012072421004-14950-040883FM-15+0914SBQV V0201101N004112200019N0112651N1+02001+01401999999ADDGA1021+004801999GF102991999999999999999999MA1102301999999REMMET051METAR SBQV 242100Z 11008KT 9999 FEW016 20/14 Q1023;
0072833440999992012072422004-14950-040883FM-15+0914SBQV V0201101N003119999999Y0099001N1+01801+01301999999ADDMA1102301999999REMMET045METAR SBQV 242200Z 11006KT CAVOK 18/13 Q1023;
0072833440999992012072423004-14950-040883FM-15+0914SBQV V0201101N003119999999Y0099001N1+01801+01401999999ADDMA1102301999999REMMET045METAR SBQV 242300Z 11006KT CAVOK 18/14 Q1023;
0120833440999992012072511004-14950-040883FM-15+0914SBQV V0200901N004612200019N0112651N1+01701+01501999999ADDGA1021+003001999GF102991999999999999999999MA1102301999999REMMET051METAR SBQV 251100Z 09009KT 9999 FEW010 17/15 Q1023;
0120833440999992012072512004-14950-040883FM-15+0914SBQV V0200801N004612200019N0112651N1+01901+01401999999ADDGA1021+004501999GF102991999999999999999999MA1102401999999REMMET051METAR SBQV 251200Z 08009KT 9999 FEW015 19/14 Q1024;
0120833440999992012072513004-14950-040883FM-15+0914SBQV V0200801N003612200019N0112651N1+02101+01101999999ADDGA1021+004801999GF102991999999999999999999MA1102401999999REMMET051METAR SBQV 251300Z 08007KT 9999 FEW016 21/11 Q1024;
0120833440999992012072514004-14950-040883FM-15+0914SBQV V0200501N001512200019N0112651N1+02301+00901999999ADDGA1021+005401999GF102991999999999999999999MA1102401999999REMMET051METAR SBQV 251400Z 05003KT 9999 FEW018 23/09 Q1024;
0120833440999992012072515004-14950-040883FM-15+0914SBQV V0201001N001512200019N0112651N1+02301+00901999999ADDGA1021+006001999GF102991999999999999999999MA1102301999999REMMET051METAR SBQV 251500Z 10003KT 9999 FEW020 23/09 Q1023;
0120833440999992012072516004-14950-040883FM-15+0914SBQV V0201601N002112200019N0112651N1+02501+00901999999ADDGA1021+007501999GF102991999999999999999999MA1102201999999REMMET051METAR SBQV 251600Z 16004KT 9999 FEW025 25/09 Q1022;
0120833440999992012072517004-14950-040883FM-15+0914SBQV V0201901N002612200019N0112651N1+02601+00901999999ADDGA1021+007501999GF102991999999999999999999MA1102101999999REMMET051METAR SBQV 251700Z 19005KT 9999 FEW025 26/09 Q1021;
0072833440999992012072518004-14950-040883FM-15+0914SBQV V0201301N005119999999Y0099001N1+02501+01201999999ADDMA1102101999999REMMET045METAR SBQV 251800Z 13010KT CAVOK 25/12 Q1021;
0072833440999992012072519004-14950-040883FM-15+0914SBQV V0201201N005719999999Y0099001N1+02401+01201999999ADDMA1102101999999REMMET045METAR SBQV 251900Z 12011KT CAVOK 24/12 Q1021;
0072833440999992012072520004-14950-040883FM-15+0914SBQV V0201101N004619999999Y0099001N1+02301+01201999999ADDMA1102101999999REMMET045METAR SBQV 252000Z 11009KT CAVOK 23/12 Q1021;
0072833440999992012072521004-14950-040883FM-15+0914SBQV V0201201N004619999999Y0099001N1+02101+01301999999ADDMA1102201999999REMMET045METAR SBQV 252100Z 12009KT CAVOK 21/13 Q1022;
0072833440999992012072522004-14950-040883FM-15+0914SBQV V0201201N002619999999Y0099001N1+01901+01301999999ADDMA1102201999999REMMET045METAR SBQV 252200Z 12005KT CAVOK 19/13 Q1022;
0072833440999992012072523004-14950-040883FM-15+0914SBQV V0201001N003119999999Y0099001N1+01801+01201999999ADDMA1102201999999REMMET045METAR SBQV 252300Z 10006KT CAVOK 18/12 Q1022;
0072833440999992012072611004-14950-040883FM-15+0914SBQV V0200501N004119999999Y0099001N1+01901+01301999999ADDMA1102401999999REMMET045METAR SBQV 261100Z 05008KT CAVOK 19/13 Q1024;
0072833440999992012072612004-14950-040883FM-15+0914SBQV V0200801N004619999999Y0099001N1+02001+01201999999ADDMA1102401999999REMMET045METAR SBQV 261200Z 08009KT CAVOK 20/12 Q1024;
0120833440999992012072613004-14950-040883FM-15+0914SBQV V0201101N003612200019N0112651N1+02101+01001999999ADDGA1021+007501999GF102991999999999999999999MA1102401999999REMMET051METAR SBQV 261300Z 11007KT 9999 FEW025 21/10 Q1024;
0120833440999992012072614004-14950-040883FM-15+0914SBQV V0201201N003112200019N0112651N1+02301+01001999999ADDGA1021+007501999GF102991999999999999999999MA1102401999999REMMET051METAR SBQV 261400Z 12006KT 9999 FEW025 23/10 Q1024;
0120833440999992012072615004-14950-040883FM-15+0914SBQV V0201101N002612200019N0112651N1+02401+01001999999ADDGA1021+009001999GF102991999999999999999999MA1102301999999REMMET051METAR SBQV 261500Z 11005KT 9999 FEW030 24/10 Q1023;
0120833440999992012072616004-14950-040883FM-15+0914SBQV V0200901N003112200019N0112651N1+02601+00901999999ADDGA1021+009001999GF102991999999999999999999MA1102201999999REMMET051METAR SBQV 261600Z 09006KT 9999 FEW030 26/09 Q1022;
0072833440999992012072617004-14950-040883FM-15+0914SBQV V0200701N002619999999Y0099001N1+02601+00901999999ADDMA1102101999999REMMET045METAR SBQV 261700Z 07005KT CAVOK 26/09 Q1021;
0072833440999992012072618004-14950-040883FM-15+0914SBQV V0200901N002619999999Y0099001N1+02601+00801999999ADDMA1102101999999REMMET045METAR SBQV 261800Z 09005KT CAVOK 26/08 Q1021;
0072833440999992012072619004-14950-040883FM-15+0914SBQV V0200801N004619999999Y0099001N1+02501+01101999999ADDMA1102101999999REMMET045METAR SBQV 261900Z 08009KT CAVOK 25/11 Q1021;
0072833440999992012072620004-14950-040883FM-15+0914SBQV V0201101N005719999999Y0099001N1+02301+01201999999ADDMA1102201999999REMMET045METAR SBQV 262000Z 11011KT CAVOK 23/12 Q1022;
0072833440999992012072621004-14950-040883FM-15+0914SBQV V0200901N004619999999Y0099001N1+02001+01001999999ADDMA1102201999999REMMET045METAR SBQV 262100Z 09009KT CAVOK 20/10 Q1022;
0072833440999992012072622004-14950-040883FM-15+0914SBQV V0201101N003119999999Y0099001N1+01901+01001999999ADDMA1102301999999REMMET045METAR SBQV 262200Z 11006KT CAVOK 19/10 Q1023;
0072833440999992012072623004-14950-040883FM-15+0914SBQV V0200701N004619999999Y0099001N1+01901+01001999999ADDMA1102301999999REMMET045METAR SBQV 262300Z 07009KT CAVOK 19/10 Q1023;
0120833440999992012072711004-14950-040883FM-15+0914SBQV V0200801N004112200019N0112651N1+01701+01401999999ADDGA1021+003001999GF102991999999999999999999MA1102511999999REMMET051METAR SBQV 271100Z 08008KT 9999 FEW010 17/14 Q1025;
0120833440999992012072712004-14950-040883FM-15+0914SBQV V0200601N004112200019N0112651N1+02001+01301999999ADDGA1021+004501999GF102991999999999999999999MA1102511999999REMMET051METAR SBQV 271200Z 06008KT 9999 FEW015 20/13 Q1025;
0120833440999992012072713004-14950-040883FM-15+0914SBQV V0200401N003112200019N0112651N1+02301+01001999999ADDGA1021+005401999GF102991999999999999999999MA1102511999999REMMET051METAR SBQV 271300Z 04006KT 9999 FEW018 23/10 Q1025;
0072833440999992012072714004-14950-040883FM-15+0914SBQV V0200401N003119999999Y0099001N1+01701+01401999999ADDMA1102511999999REMMET045METAR SBQV 271400Z 04006KT CAVOK 17/14 Q1025;
0072833440999992012072715004-14950-040883FM-15+0914SBQV V0200201N003619999999Y0099001N1+02601+00801999999ADDMA1102301999999REMMET045METAR SBQV 271500Z 02007KT CAVOK 26/08 Q1023;
0072833440999992012072716004-14950-040883FM-15+0914SBQV V0200401N003119999999Y0099001N1+02701+00701999999ADDMA1102201999999REMMET045METAR SBQV 271600Z 04006KT CAVOK 27/07 Q1022;
0072833440999992012072717004-14950-040883FM-15+0914SBQV V0200401N002619999999Y0099001N1+02701+00601999999ADDMA1102101999999REMMET045METAR SBQV 271700Z 04005KT CAVOK 27/06 Q1021;
0120833440999992012072718004-14950-040883FM-15+0914SBQV V0200901N001512200019N0112651N1+02701+00601999999ADDGA1021+007501999GF102991999999999999999999MA1102101999999REMMET051METAR SBQV 271800Z 09003KT 9999 FEW025 27/06 Q1021;
0120833440999992012072719004-14950-040883FM-15+0914SBQV V0201301N004612200019N0112651N1+02601+01401999999ADDGA1021+007501999GF102991999999999999999999MA1102101999999REMMET051METAR SBQV 271900Z 13009KT 9999 FEW025 26/14 Q1021;
0072833440999992012072720004-14950-040883FM-15+0914SBQV V0201201N005719999999Y0099001N1+02401+01501999999ADDMA1102101999999REMMET045METAR SBQV 272000Z 12011KT CAVOK 24/15 Q1021;
0072833440999992012072721004-14950-040883FM-15+0914SBQV V0201001N004119999999Y0099001N1+02201+01501999999ADDMA1102201999999REMMET045METAR SBQV 272100Z 10008KT CAVOK 22/15 Q1022;
0072833440999992012072722004-14950-040883FM-15+0914SBQV V0201201N003619999999Y0099001N1+02101+01501999999ADDMA1102201999999REMMET045METAR SBQV 272200Z 12007KT CAVOK 21/15 Q1022;
0072833440999992012072723004-14950-040883FM-15+0914SBQV V0201001N003119999999Y0099001N1+02001+01501999999ADDMA1102301999999REMMET045METAR SBQV 272300Z 10006KT CAVOK 20/15 Q1023;
0120833440999992012072811004-14950-040883FM-15+0914SBQV V0201001N003612200019N0112651N1+01801+01601999999ADDGA1041+003601999GF104991999999999999999999MA1102401999999REMMET051METAR SBQV 281100Z 10007KT 9999 SCT012 18/16 Q1024;
0120833440999992012072812004-14950-040883FM-15+0914SBQV V0200701N004112200019N0112651N1+02101+01401999999ADDGA1021+004501999GF102991999999999999999999MA1102511999999REMMET051METAR SBQV 281200Z 07008KT 9999 FEW015 21/14 Q1025;
0120833440999992012072813004-14950-040883FM-15+0914SBQV V0201001N003112200019N0112651N1+02201+01301999999ADDGA1021+005401999GF102991999999999999999999MA1102511999999REMMET051METAR SBQV 281300Z 10006KT 9999 FEW018 22/13 Q1025;
0120833440999992012072814004-14950-040883FM-15+0914SBQV V0201101N003112200019N0112651N1+02401+01201999999ADDGA1021+007501999GF102991999999999999999999MA1102401999999REMMET051METAR SBQV 281400Z 11006KT 9999 FEW025 24/12 Q1024;
0120833440999992012072815004-14950-040883FM-15+0914SBQV V0201301N004612200019N0112651N1+02401+01101999999ADDGA1021+007501999GF102991999999999999999999MA1102301999999REMMET051METAR SBQV 281500Z 13009KT 9999 FEW025 24/11 Q1023;
0120833440999992012072816004-14950-040883FM-15+0914SBQV V0201001N004112200019N0112651N1+02501+01101999999ADDGA1021+007501999GF102991999999999999999999MA1102201999999REMMET051METAR SBQV 281600Z 10008KT 9999 FEW025 25/11 Q1022;
0120833440999992012072817004-14950-040883FM-15+0914SBQV V0201301N004112200019N0112651N1+02501+01201999999ADDGA1021+009001999GF102991999999999999999999MA1102101999999REMMET051METAR SBQV 281700Z 13008KT 9999 FEW030 25/12 Q1021;
0120833440999992012072818004-14950-040883FM-15+0914SBQV V0201001N005112200019N0112651N1+02501+01301999999ADDGA1021+009001999GF102991999999999999999999MA1102101999999REMMET051METAR SBQV 281800Z 10010KT 9999 FEW030 25/13 Q1021;
0120833440999992012072819004-14950-040883FM-15+0914SBQV V0201201N005712200019N0112651N1+02501+01301999999ADDGA1021+009001999GF102991999999999999999999MA1102101999999REMMET051METAR SBQV 281900Z 12011KT 9999 FEW030 25/13 Q1021;
0120833440999992012072820004-14950-040883FM-15+0914SBQV V0201101N005112200019N0112651N1+02301+01301999999ADDGA1021+009001999GF102991999999999999999999MA1102101999999REMMET051METAR SBQV 282000Z 11010KT 9999 FEW030 23/13 Q1021;
0120833440999992012072821004-14950-040883FM-15+0914SBQV V0201101N004612200019N0112651N1+02101+01301999999ADDGA1021+006001999GF102991999999999999999999MA1102201999999REMMET051METAR SBQV 282100Z 11009KT 9999 FEW020 21/13 Q1022;
0120833440999992012072822004-14950-040883FM-15+0914SBQV V0201101N003612200019N0112651N1+02001+01301999999ADDGA1021+005401999GF102991999999999999999999MA1102201999999REMMET051METAR SBQV 282200Z 11007KT 9999 FEW018 20/13 Q1022;
0120833440999992012072823004-14950-040883FM-15+0914SBQV V0201001N004112200019N0112651N1+01901+01301999999ADDGA1021+005401999GF102991999999999999999999MA1102301999999REMMET051METAR SBQV 282300Z 10008KT 9999 FEW018 19/13 Q1023;
0120833440999992012072900004-14950-040883FM-15+0914SBQV V0201001N003612200019N0112651N1+01901+01401999999ADDGA1021+004801999GF102991999999999999999999MA1102301999999REMMET051METAR SBQV 290000Z 10007KT 9999 FEW016 19/14 Q1023;
0153833440999992012072911004-14950-040883FM-15+0914SBQV V0201301N003110024019N0060001N1+01601+01601999999ADDGA1021+001801999GA2071+002401999GF107991999999999999999999MA1102301999999MW1511REMMET062METAR SBQV 291100Z 13006KT 6000 -DZ FEW006 BKN008 16/16 Q1023;
0143833440999992012072912004-14950-040883FM-15+0914SBQV V0201001N005710210019N0112651N1+01701+01601999999ADDGA1041+003001999GA2071+021001999GF107991999999999999999999MA1102401999999REMMET058METAR SBQV 291200Z 10011KT 9999 SCT010 BKN070 17/16 Q1024;
0120833440999992012072913004-14950-040883FM-15+0914SBQV V0201001N006210054019N0112651N1+02001+01301999999ADDGA1071+005401999GF107991999999999999999999MA1102401999999REMMET051METAR SBQV 291300Z 10012KT 9999 BKN018 20/13 Q1024;
0120833440999992012072914004-14950-040883FM-15+0914SBQV V0201101N006710054019N0112651N1+02201+01301999999ADDGA1071+005401999GF107991999999999999999999MA1102301999999REMMET051METAR SBQV 291400Z 11013KT 9999 BKN018 22/13 Q1023;
0120833440999992012072915004-14950-040883FM-15+0914SBQV V0201101N006210060019N0112651N1+02301+01301999999ADDGA1071+006001999GF107991999999999999999999MA1102201999999REMMET051METAR SBQV 291500Z 11012KT 9999 BKN020 23/13 Q1022;
0120833440999992012072916004-14950-040883FM-15+0914SBQV V0200801N004612200019N0112651N1+02301+01201999999ADDGA1021+006001999GF102991999999999999999999MA1102101999999REMMET051METAR SBQV 291600Z 08009KT 9999 FEW020 23/12 Q1021;
0120833440999992012072917004-14950-040883FM-15+0914SBQV V0201001N003612200019N0112651N1+02401+01201999999ADDGA1021+007501999GF102991999999999999999999MA1102101999999REMMET051METAR SBQV 291700Z 10007KT 9999 FEW025 24/12 Q1021;
0120833440999992012072918004-14950-040883FM-15+0914SBQV V0201001N004612200019N0112651N1+02401+01201999999ADDGA1041+007501999GF104991999999999999999999MA1102001999999REMMET051METAR SBQV 291800Z 10009KT 9999 SCT025 24/12 Q1020;
0120833440999992012072919004-14950-040883FM-15+0914SBQV V0201001N005112200019N0112651N1+02301+01201999999ADDGA1041+006001999GF104991999999999999999999MA1102101999999REMMET051METAR SBQV 291900Z 10010KT 9999 SCT020 23/12 Q1021;
0120833440999992012072920004-14950-040883FM-15+0914SBQV V0201101N005112200019N0112651N1+02201+01201999999ADDGA1021+005401999GF102991999999999999999999MA1102101999999REMMET051METAR SBQV 292000Z 11010KT 9999 FEW018 22/12 Q1021;
0120833440999992012072921004-14950-040883FM-15+0914SBQV V0201201N004112200019N0112651N1+02001+01201999999ADDGA1021+004801999GF102991999999999999999999MA1102201999999REMMET051METAR SBQV 292100Z 12008KT 9999 FEW016 20/12 Q1022;
0072833440999992012072922004-14950-040883FM-15+0914SBQV V0201101N002619999999Y0099001N1+01901+01301999999ADDMA1102201999999REMMET045METAR SBQV 292200Z 11005KT CAVOK 19/13 Q1022;
0072833440999992012072923004-14950-040883FM-15+0914SBQV V0201101N003619999999Y0099001N1+01801+01301999999ADDMA1102301999999REMMET045METAR SBQV 292300Z 11007KT CAVOK 18/13 Q1023;
0072833440999992012073011004-14950-040883FM-15+0914SBQV V0201101N004619999999Y0099001N1+01801+01301999999ADDMA1102511999999REMMET045METAR SBQV 301100Z 11009KT CAVOK 18/13 Q1025;
0120833440999992012073012004-14950-040883FM-15+0914SBQV V0201201N005712200019N0112651N1+02001+01201999999ADDGA1021+004501999GF102991999999999999999999MA1102511999999REMMET051METAR SBQV 301200Z 12011KT 9999 FEW015 20/12 Q1025;
0120833440999992012073013004-14950-040883FM-15+0914SBQV V0201101N005712200019N0112651N1+02201+01201999999ADDGA1021+004801999GF102991999999999999999999MA1102511999999REMMET051METAR SBQV 301300Z 11011KT 9999 FEW016 22/12 Q1025;
0120833440999992012073014004-14950-040883FM-15+0914SBQV V0201001N004612200019N0112651N1+02301+01201999999ADDGA1041+006001999GF104991999999999999999999MA1102511999999REMMET051METAR SBQV 301400Z 10009KT 9999 SCT020 23/12 Q1025;
0120833440999992012073015004-14950-040883FM-15+0914SBQV V0201001N004612200019N0112651N1+02301+01301999999ADDGA1041+007501999GF104991999999999999999999MA1102511999999REMMET051METAR SBQV 301500Z 10009KT 9999 SCT025 23/13 Q1025;
0120833440999992012073016004-14950-040883FM-15+0914SBQV V0201201N005712200019N0112651N1+02301+01301999999ADDGA1041+007501999GF104991999999999999999999MA1102401999999REMMET051METAR SBQV 301600Z 12011KT 9999 SCT025 23/13 Q1024;
0120833440999992012073017004-14950-040883FM-15+0914SBQV V0201001N005710075019N0112651N1+02301+01401999999ADDGA1071+007501999GF107991999999999999999999MA1102301999999REMMET051METAR SBQV 301700Z 10011KT 9999 BKN025 23/14 Q1023;
0120833440999992012073018004-14950-040883FM-15+0914SBQV V0201201N006210075019N0112651N1+02201+01501999999ADDGA1071+007501999GF107991999999999999999999MA1102301999999REMMET051METAR SBQV 301800Z 12012KT 9999 BKN025 22/15 Q1023;
0120833440999992012073019004-14950-040883FM-15+0914SBQV V0201301N005710060019N0112651N1+02201+01501999999ADDGA1071+006001999GF107991999999999999999999MA1102301999999REMMET051METAR SBQV 301900Z 13011KT 9999 BKN020 22/15 Q1023;
0120833440999992012073020004-14950-040883FM-15+0914SBQV V0201301N006210045019N0112651N1+02101+01501999999ADDGA1071+004501999GF107991999999999999999999MA1102401999999REMMET051METAR SBQV 302000Z 13012KT 9999 BKN015 21/15 Q1024;
0120833440999992012073021004-14950-040883FM-15+0914SBQV V0200901N004110045019N0112651N1+02001+01501999999ADDGA1071+004501999GF107991999999999999999999MA1102401999999REMMET051METAR SBQV 302100Z 09008KT 9999 BKN015 20/15 Q1024;
0120833440999992012073022004-14950-040883FM-15+0914SBQV V0201201N004110045019N0112651N1+01901+01601999999ADDGA1071+004501999GF107991999999999999999999MA1102511999999REMMET051METAR SBQV 302200Z 12008KT 9999 BKN015 19/16 Q1025;
0153833440999992012073023004-14950-040883FM-15+0914SBQV V0201101N003610045019N0112651N1+01901+01601999999ADDGA1021+003001999GA2071+004501999GF107991999999999999999999MA1102511999999MW1611REMMET062METAR SBQV 302300Z 11007KT 9999 -RA FEW010 BKN015 19/16 Q1025;
0120833440999992012073111004-14950-040883FM-15+0914SBQV V0201201N006212200019N0112651N1+01701+01501999999ADDGA1021+004501999GF102991999999999999999999MA1102611999999REMMET051METAR SBQV 311100Z 12012KT 9999 FEW015 17/15 Q1026;
0120833440999992012073112004-14950-040883FM-15+0914SBQV V0201201N007212200019N0112651N1+01901+01301999999ADDGA1021+006001999GF102991999999999999999999MA1102711999999REMMET051METAR SBQV 311200Z 12014KT 9999 FEW020 19/13 Q1027;
0117833440999992012073113004-14950-040883FM-15+0914SBQV V0201101N00721005401CN0112651N1+02001+01401999999ADDGA1071+005401999GA2041+006001999MA1102711999999REMMET058METAR SBQV 311300Z 11014KT 9999 BKN018 SCT020 20/14 Q1027;
0153833440999992012073114004-14950-040883FM-15+0914SBQV V0201201N006710048019N0011001N1+01801+01501999999ADDGA1041+003001999GA2071+004801999GF107991999999999999999999MA1102711999999MW1511REMMET062METAR SBQV 311400Z 12013KT 1100 -DZ SCT010 BKN016 18/15 Q1027;
0143833440999992012073115004-14950-040883FM-15+0914SBQV V0201101N004610048019N0112651N1+01801+01701999999ADDGA1041+003001999GA2071+004801999GF107991999999999999999999MA1102611999999REMMET058METAR SBQV 311500Z 11009KT 9999 SCT010 BKN016 18/17 Q1026;
0120833440999992012073116004-14950-040883FM-15+0914SBQV V0201201N007712200019N0112651N1+02101+01601999999ADDGA1041+005401999GF104991999999999999999999MA1102611999999REMMET051METAR SBQV 311600Z 12015KT 9999 SCT018 21/16 Q1026;
0120833440999992012073117004-14950-040883FM-15+0914SBQV V0201101N008212200019N0112651N1+02201+01501999999ADDGA1041+006001999GF104991999999999999999999MA1102401999999REMMET051METAR SBQV 311700Z 11016KT 9999 SCT020 22/15 Q1024;
0143833440999992012073118004-14950-040883FM-15+0914SBQV V0201101N006710048019N0112651N1+01901+01701999999ADDGA1021+002701999GA2071+004801999GF107991999999999999999999MA1102401999999REMMET058METAR SBQV 311800Z 11013KT 9999 FEW009 BKN016 19/17 Q1024;
0143833440999992012073119004-14950-040883FM-15+0914SBQV V0201301N006210045019N0112651N1+01901+01701999999ADDGA1071+004501999GA2071+021001999GF107991999999999999999999MA1102401999999REMMET058METAR SBQV 311900Z 13012KT 9999 BKN015 BKN070 19/17 Q1024;
0143833440999992012073120004-14950-040883FM-15+0914SBQV V0201101N005710210019N0112651N1+01901+01501999999ADDGA1041+004501999GA2071+021001999GF107991999999999999999999MA1102511999999REMMET058METAR SBQV 312000Z 11011KT 9999 SCT015 BKN070 19/15 Q1025;
0143833440999992012073121004-14950-040883FM-15+0914SBQV V0201301N003612200019N0112651N1+01701+01601999999ADDGA1041+003901999GA2041+021001999GF104991999999999999999999MA1102511999999REMMET058METAR SBQV 312100Z 13007KT 9999 SCT013 SCT070 17/16 Q1025;
0120833440999992012073122004-14950-040883FM-15+0914SBQV V0201301N003610030019N0112651N1+01701+01601999999ADDGA1071+003001999GF107991999999999999999999MA1102511999999REMMET051METAR SBQV 312200Z 13007KT 9999 BKN010 17/16 Q1025;
0120833440999992012073123004-14950-040883FM-15+0914SBQV V0201201N004110030019N0112651N1+01701+01601999999ADDGA1071+003001999GF107991999999999999999999MA1102511999999REMMET051METAR SBQV 312300Z 12008KT 9999 BKN010 17/16 Q1025;
0136833440999992012080111004-14950-040883FM-15+0914SBQV V0201101N00511003001CN0112651N1+01601+01501999999ADDGA1071+003001999GA2041+021001999MA1102611999999REMMET058METAR SBQV 011100Z 11010KT 9999 BKN010 SCT070 16/15 Q1026;EQDQ01+000042SCOTCV
0136833440999992012080112004-14950-040883FM-15+0914SBQV V0201101N00461003301CN0112651N1+01701+01501999999ADDGA1071+003301999GA2041+021001999MA1102611999999REMMET058METAR SBQV 011200Z 11009KT 9999 BKN011 SCT070 17/15 Q1026;EQDQ01+000042SCOTCV
0143833440999992012080113004-14950-040883FM-15+0914SBQV V0201201N004110018019N0112651N1+01601+01601999999ADDGA1071+001801999GA2071+002701999GF107991999999999999999999MA1102611999999REMMET058METAR SBQV 011300Z 12008KT 9999 BKN006 BKN009 16/16 Q1026;
0161833440999992012080114004-14950-040883FM-15+0914SBQV V0201301N005110015019N0010001N1+01701+01701999999ADDGA1071+001501999GA2081+002701999GF108991999999999999999999MA1102611999999MW1511MW2611REMMET064METAR SBQV 011400Z 13010KT 1000 -RADZ BKN005 OVC009 17/17 Q1026;
0143833440999992012080115004-14950-040883FM-15+0914SBQV V0201001N006710210019N0112651N1+01801+01701999999ADDGA1041+003901999GA2071+021001999GF107991999999999999999999MA1102611999999REMMET058METAR SBQV 011500Z 10013KT 9999 SCT013 BKN070 18/17 Q1026;
0120833440999992012080116004-14950-040883FM-15+0914SBQV V0201101N007212200019N0112651N1+02101+01601999999ADDGA1041+005401999GF104991999999999999999999MA1102511999999REMMET051METAR SBQV 011600Z 11014KT 9999 SCT018 21/16 Q1025;
0120833440999992012080117004-14950-040883FM-15+0914SBQV V0201001N007712200019N0112651N1+02201+01501999999ADDGA1041+006001999GF104991999999999999999999MA1102401999999REMMET051METAR SBQV 011700Z 10015KT 9999 SCT020 22/15 Q1024;
0120833440999992012080118004-14950-040883FM-15+0914SBQV V0201201N008212200019N0112651N1+02201+01401999999ADDGA1041+006001999GF104991999999999999999999MA1102301999999REMMET051METAR SBQV 011800Z 12016KT 9999 SCT020 22/14 Q1023;
0120833440999992012080119004-14950-040883FM-15+0914SBQV V0201201N007712200019N0112651N1+02201+01201999999ADDGA1021+006001999GF102991999999999999999999MA1102301999999REMMET051METAR SBQV 011900Z 12015KT 9999 FEW020 22/12 Q1023;
0120833440999992012080120004-14950-040883FM-15+0914SBQV V0201201N006712200019N0112651N1+02101+01301999999ADDGA1021+005401999GF102991999999999999999999MA1102301999999REMMET051METAR SBQV 012000Z 12013KT 9999 FEW018 21/13 Q1023;
0143833440999992012080121004-14950-040883FM-15+0914SBQV V0201101N005112200019N0112651N1+01901+01301999999ADDGA1021+004801999GA2041+024001999GF104991999999999999999999MA1102401999999REMMET058METAR SBQV 012100Z 11010KT 9999 FEW016 SCT080 19/13 Q1024;
0120833440999992012080122004-14950-040883FM-15+0914SBQV V0201101N003112200019N0112651N1+01801+01401999999ADDGA1021+003901999GF102991999999999999999999MA1102401999999REMMET051METAR SBQV 012200Z 11006KT 9999 FEW013 18/14 Q1024;
0120833440999992012080123004-14950-040883FM-15+0914SBQV V0201201N004612200019N0112651N1+01701+01501999999ADDGA1041+003301999GF104991999999999999999999MA1102511999999REMMET051METAR SBQV 012300Z 12009KT 9999 SCT011 17/15 Q1025;
0120833440999992012080200004-14950-040883FM-15+0914SBQV V0201201N004612200019N0112651N1+01701+01401999999ADDGA1021+003001999GF102991999999999999999999MA1102511999999REMMET051METAR SBQV 020000Z 12009KT 9999 FEW010 17/14 Q1025;
0120833440999992012080213004-14950-040883FM-15+0914SBQV V0201301N006710045019N0112651N1+01901+01501999999ADDGA1071+004501999GF107991999999999999999999MA1102611999999REMMET051METAR SBQV 021300Z 13013KT 9999 BKN015 19/15 Q1026;
0120833440999992012080214004-14950-040883FM-15+0914SBQV V0201001N005712200019N0112651N1+02101+01301999999ADDGA1041+005401999GF104991999999999999999999MA1102511999999REMMET051METAR SBQV 021400Z 10011KT 9999 SCT018 21/13 Q1025;
0120833440999992012080215004-14950-040883FM-15+0914SBQV V0201101N006712200019N0112651N1+02201+01301999999ADDGA1021+006001999GF102991999999999999999999MA1102511999999REMMET051METAR SBQV 021500Z 11013KT 9999 FEW020 22/13 Q1025;
0120833440999992012080216004-14950-040883FM-15+0914SBQV V0200901N005712200019N0112651N1+02401+01301999999ADDGA1021+007501999GF102991999999999999999999MA1102301999999REMMET051METAR SBQV 021600Z 09011KT 9999 FEW025 24/13 Q1023;
0120833440999992012080217004-14950-040883FM-15+0914SBQV V0201201N006212200019N0112651N1+02301+01401999999ADDGA1021+007501999GF102991999999999999999999MA1102301999999REMMET051METAR SBQV 021700Z 12012KT 9999 FEW025 23/14 Q1023;
0120833440999992012080218004-14950-040883FM-15+0914SBQV V0201301N005712200019N0112651N1+02301+01301999999ADDGA1021+007501999GF102991999999999999999999MA1102201999999REMMET051METAR SBQV 021800Z 13011KT 9999 FEW025 23/13 Q1022;
0120833440999992012080219004-14950-040883FM-15+0914SBQV V0201201N005112200019N0112651N1+02201+01501999999ADDGA1021+006001999GF102991999999999999999999MA1102101999999REMMET051METAR SBQV 021900Z 12010KT 9999 FEW020 22/15 Q1021;
0143833440999992012080220004-14950-040883FM-15+0914SBQV V0201501N004612200019N0112651N1+02101+01601999999ADDGA1021+005401999GA2041+024001999GF104991999999999999999999MA1102301999999REMMET058METAR SBQV 022000Z 15009KT 9999 FEW018 SCT080 21/16 Q1023;
0153833440999992012080221004-14950-040883FM-15+0914SBQV V0201201N005710033019N0112651N1+01701+01701999999ADDGA1041+002101999GA2071+003301999GF107991999999999999999999MA1102301999999MW1611REMMET062METAR SBQV 022100Z 12011KT 9999 -RA SCT007 BKN011 17/17 Q1023;
0143833440999992012080222004-14950-040883FM-15+0914SBQV V0201301N005110027019N0112651N1+01701+01701999999ADDGA1041+001801999GA2071+002701999GF107991999999999999999999MA1102401999999REMMET058METAR SBQV 022200Z 13010KT 9999 SCT006 BKN009 17/17 Q1024;
0143833440999992012080223004-14950-040883FM-15+0914SBQV V0201201N004110027019N0112651N1+01601+01601999999ADDGA1021+001801999GA2071+002701999GF107991999999999999999999MA1102401999999REMMET058METAR SBQV 022300Z 12008KT 9999 FEW006 BKN009 16/16 Q1024;
0136833440999992012080311004-14950-040883FM-15+0914SBQV V0201001N00461002701CN0112651N1+01601+01501999999ADDGA1071+002701999GA2041+021001999MA1102401999999REMMET058METAR SBQV 031100Z 10009KT 9999 BKN009 SCT070 16/15 Q1024;EQDQ01+000042SCOTCV
0120833440999992012080312004-14950-040883FM-15+0914SBQV V0201001N006710033019N0112651N1+01801+01601999999ADDGA1071+003301999GF107991999999999999999999MA1102401999999REMMET051METAR SBQV 031200Z 10013KT 9999 BKN011 18/16 Q1024;
0120833440999992012080313004-14950-040883FM-15+0914SBQV V0201201N006210039019N0112651N1+01901+01601999999ADDGA1071+003901999GF107991999999999999999999MA1102511999999REMMET051METAR SBQV 031300Z 12012KT 9999 BKN013 19/16 Q1025;
0120833440999992012080314004-14950-040883FM-15+0914SBQV V0201001N006210045019N0112651N1+02001+01501999999ADDGA1071+004501999GF107991999999999999999999MA1102511999999REMMET051METAR SBQV 031400Z 10012KT 9999 BKN015 20/15 Q1025;
0120833440999992012080315004-14950-040883FM-15+0914SBQV V0201001N005110045019N0112651N1+02101+01601999999ADDGA1071+004501999GF107991999999999999999999MA1102401999999REMMET051METAR SBQV 031500Z 10010KT 9999 BKN015 21/16 Q1024;
0120833440999992012080316004-14950-040883FM-15+0914SBQV V0200901N005110039019N0112651N1+01901+01801999999ADDGA1071+003901999GF107991999999999999999999MA1102301999999REMMET051METAR SBQV 031600Z 09010KT 9999 BKN013 19/18 Q1023;
0146833440999992012080317004-14950-040883FM-15+0914SBQV V0200901N00461002101CN0010001N1+01901+01701999999ADDGA1071+002101999GA2041+021001999MA1102201999999MW1611REMMET062METAR SBQV 031700Z 09009KT 1000 -RA BKN007 SCT070 19/17 Q1022;EQDQ01+000042SCOTCV
0136833440999992012080318004-14950-040883FM-15+0914SBQV V0200901N00571004501CN0112651N1+02001+01601999999ADDGA1071+004501999GA2041+024001999MA1102201999999REMMET058METAR SBQV 031800Z 09011KT 9999 BKN015 SCT080 20/16 Q1022;EQDQ01+000042SCOTCV
0120833440999992012080319004-14950-040883FM-15+0914SBQV V0200901N003612200019N0112651N1+02101+01601999999ADDGA1021+006001999GF102991999999999999999999MA1102101999999REMMET051METAR SBQV 031900Z 09007KT 9999 FEW020 21/16 Q1021;
0120833440999992012080320004-14950-040883FM-15+0914SBQV V0200801N004612200019N0112651N1+02001+01601999999ADDGA1021+004801999GF102991999999999999999999MA1102201999999REMMET051METAR SBQV 032000Z 08009KT 9999 FEW016 20/16 Q1022;
0120833440999992012080321004-14950-040883FM-15+0914SBQV V0201001N003612200019N0112651N1+01801+01501999999ADDGA1021+004801999GF102991999999999999999999MA1102201999999REMMET051METAR SBQV 032100Z 10007KT 9999 FEW016 18/15 Q1022;
0120833440999992012080322004-14950-040883FM-15+0914SBQV V0201101N003112200019N0112651N1+01701+01501999999ADDGA1021+002401999GF102991999999999999999999MA1102301999999REMMET051METAR SBQV 032200Z 11006KT 9999 FEW008 17/15 Q1023;
0120833440999992012080323004-14950-040883FM-15+0914SBQV V0201101N002612200019N0112651N1+01701+01501999999ADDGA1021+002401999GF102991999999999999999999MA1102401999999REMMET051METAR SBQV 032300Z 11005KT 9999 FEW008 17/15 Q1024;
0136833440999992012080411004-14950-040883FM-15+0914SBQV V0201201N00311002701CN0112651N1+01701+01601999999ADDGA1071+002701999GA2041+021001999MA1102511999999REMMET058METAR SBQV 041100Z 12006KT 9999 BKN009 SCT070 17/16 Q1025;EQDQ01+000042SCOTCV
0143833440999992012080412004-14950-040883FM-15+0914SBQV V0201001N004612200019N0112651N1+01901+01601999999ADDGA1041+003901999GA2041+021001999GF104991999999999999999999MA1102511999999REMMET058METAR SBQV 041200Z 10009KT 9999 SCT013 SCT070 19/16 Q1025;
0120833440999992012080413004-14950-040883FM-15+0914SBQV V0201101N002110045019N0112651N1+01901+01501999999ADDGA1081+004501999GF108991999999999999999999MA1102611999999REMMET051METAR SBQV 041300Z 11004KT 9999 OVC015 19/15 Q1026;
0153833440999992012080416004-14950-040883FM-15+0914SBQV V0200601N004610045019N0060001N1+01901+01701999999ADDGA1021+002101999GA2071+004501999GF107991999999999999999999MA1102401999999MW1511REMMET062METAR SBQV 041600Z 06009KT 6000 -DZ FEW007 BKN015 19/17 Q1024;
0143833440999992012080417004-14950-040883FM-15+0914SBQV V0200701N002610048019N0112651N1+02101+01601999999ADDGA1021+002401999GA2071+004801999GF107991999999999999999999MA1102301999999REMMET058METAR SBQV 041700Z 07005KT 9999 FEW008 BKN016 21/16 Q1023;
0120833440999992012080418004-14950-040883FM-15+0914SBQV V0200901N004612200019N0112651N1+02301+01501999999ADDGA1041+006001999GF104991999999999999999999MA1102201999999REMMET051METAR SBQV 041800Z 09009KT 9999 SCT020 23/15 Q1022;
0143833440999992012080420004-14950-040883FM-15+0914SBQV V0201301N004112200019N0112651N1+02001+01501999999ADDGA1021+006001999GA2041+024001999GF104991999999999999999999MA1102301999999REMMET058METAR SBQV 042000Z 13008KT 9999 FEW020 SCT080 20/15 Q1023;
0143833440999992012080421004-14950-040883FM-15+0914SBQV V0201001N004612200019N0112651N1+01801+01501999999ADDGA1021+005401999GA2041+021001999GF104991999999999999999999MA1102301999999REMMET058METAR SBQV 042100Z 10009KT 9999 FEW018 SCT070 18/15 Q1023;
0143833440999992012080422004-14950-040883FM-15+0914SBQV V0201001N003612200019N0112651N1+01801+01501999999ADDGA1021+004501999GA2041+021001999GF104991999999999999999999MA1102301999999REMMET058METAR SBQV 042200Z 10007KT 9999 FEW015 SCT070 18/15 Q1023;
0072833440999992012080511004-14950-040883FM-15+0914SBQV V0201101N001519999999Y0099001N1+01901+01201999999ADDMA1102301999999REMMET045METAR SBQV 051100Z 11003KT CAVOK 19/12 Q1023;
0072833440999992012080512004-14950-040883FM-15+0914SBQV V0200901N002119999999Y0099001N1+02001+01201999999ADDMA1102401999999REMMET045METAR SBQV 051200Z 09004KT CAVOK 20/12 Q1024;
0072833440999992012080513004-14950-040883FM-15+0914SBQV V0201001N001519999999Y0099001N1+02201+01101999999ADDMA1102301999999REMMET045METAR SBQV 051300Z 10003KT CAVOK 22/11 Q1023;
0072833440999992012080514004-14950-040883FM-15+0914SBQV V0201801N001519999999Y0099001N1+02401+01001999999ADDMA1102301999999REMMET045METAR SBQV 051400Z 18003KT CAVOK 24/10 Q1023;
0072833440999992012080515004-14950-040883FM-15+0914SBQV V0201901N001519999999Y0099001N1+02401+01001999999ADDMA1102101999999REMMET045METAR SBQV 051500Z 19003KT CAVOK 24/10 Q1021;
0072833440999992012080516004-14950-040883FM-15+0914SBQV V0202801N001019999999Y0099001N1+02601+00801999999ADDMA1102001999999REMMET045METAR SBQV 051600Z 28002KT CAVOK 26/08 Q1020;
0120833440999992012080517004-14950-040883FM-15+0914SBQV V0201201N002112200019N0112651N1+02701+00801999999ADDGA1021+007501999GF102991999999999999999999MA1101901999999REMMET051METAR SBQV 051700Z 12004KT 9999 FEW025 27/08 Q1019;
0120833440999992012080518004-14950-040883FM-15+0914SBQV V0200901N001512200019N0112651N1+02701+00801999999ADDGA1021+009001999GF102991999999999999999999MA1101801999999REMMET051METAR SBQV 051800Z 09003KT 9999 FEW030 27/08 Q1018;
0072833440999992012080519004-14950-040883FM-15+0914SBQV V0201501N002619999999Y0099001N1+02601+00901999999ADDMA1101801999999REMMET045METAR SBQV 051900Z 15005KT CAVOK 26/09 Q1018;
0072833440999992012080520004-14950-040883FM-15+0914SBQV V0201201N004619999999Y0099001N1+02401+01201999999ADDMA1101801999999REMMET045METAR SBQV 052000Z 12009KT CAVOK 24/12 Q1018;
0072833440999992012080521004-14950-040883FM-15+0914SBQV V0201001N003119999999Y0099001N1+02201+01201999999ADDMA1101801999999REMMET045METAR SBQV 052100Z 10006KT CAVOK 22/12 Q1018;
0072833440999992012080522004-14950-040883FM-15+0914SBQV V0200901N002619999999Y0099001N1+02101+01101999999ADDMA1101901999999REMMET045METAR SBQV 052200Z 09005KT CAVOK 21/11 Q1019;
0072833440999992012080523004-14950-040883FM-15+0914SBQV V0200901N003119999999Y0099001N1+02101+01101999999ADDMA1102001999999REMMET045METAR SBQV 052300Z 09006KT CAVOK 21/11 Q1020;
0120833440999992012080611004-14950-040883FM-15+0914SBQV V0200101N001012200019N0112651N1+02001+01501999999ADDGA1021+004501999GF102991999999999999999999MA1102201999999REMMET051METAR SBQV 061100Z 01002KT 9999 FEW015 20/15 Q1022;
0120833440999992012080612004-14950-040883FM-15+0914SBQV V0200901N003112200019N0112651N1+02301+01201999999ADDGA1021+007501999GF102991999999999999999999MA1102201999999REMMET051METAR SBQV 061200Z 09006KT 9999 FEW025 23/12 Q1022;
0120833440999992012080613004-14950-040883FM-15+0914SBQV V0201101N003612200019N0112651N1+02401+01101999999ADDGA1021+007501999GF102991999999999999999999MA1102201999999REMMET051METAR SBQV 061300Z 11007KT 9999 FEW025 24/11 Q1022;
0128833440999992012080614004-14950-040883FM-15+0914SBQV V0200801N003612200019N0112651N1+02501+01201999999ADDGA1041+009001999GF104991999999999999999999MA1102201999999REMMET059METAR SBQV 061400Z 08007KT 040V110 9999 SCT030 25/12 Q1022;
0120833440999992012080615004-14950-040883FM-15+0914SBQV V0201001N004112200019N0112651N1+02501+01201999999ADDGA1021+009001999GF102991999999999999999999MA1102101999999REMMET051METAR SBQV 061500Z 10008KT 9999 FEW030 25/12 Q1021;
0120833440999992012080616004-14950-040883FM-15+0914SBQV V0201201N004112200019N0112651N1+02601+01201999999ADDGA1041+009001999GF104991999999999999999999MA1102001999999REMMET051METAR SBQV 061600Z 12008KT 9999 SCT030 26/12 Q1020;
0120833440999992012080617004-14950-040883FM-15+0914SBQV V0201201N005112200019N0112651N1+02501+01301999999ADDGA1041+009001999GF104991999999999999999999MA1102001999999REMMET051METAR SBQV 061700Z 12010KT 9999 SCT030 25/13 Q1020;
0120833440999992012080618004-14950-040883FM-15+0914SBQV V0201301N004612200019N0112651N1+02501+01201999999ADDGA1041+009001999GF104991999999999999999999MA1101901999999REMMET051METAR SBQV 061800Z 13009KT 9999 SCT030 25/12 Q1019;
0120833440999992012080619004-14950-040883FM-15+0914SBQV V0201301N005712200019N0112651N1+02501+01401999999ADDGA1041+009001999GF104991999999999999999999MA1101901999999REMMET051METAR SBQV 061900Z 13011KT 9999 SCT030 25/14 Q1019;
0120833440999992012080620004-14950-040883FM-15+0914SBQV V0201101N005712200019N0112651N1+02301+01401999999ADDGA1041+007501999GF104991999999999999999999MA1102001999999REMMET051METAR SBQV 062000Z 11011KT 9999 SCT025 23/14 Q1020;
0120833440999992012080621004-14950-040883FM-15+0914SBQV V0201101N005112200019N0112651N1+02101+01501999999ADDGA1021+006001999GF102991999999999999999999MA1102001999999REMMET051METAR SBQV 062100Z 11010KT 9999 FEW020 21/15 Q1020;
0120833440999992012080622004-14950-040883FM-15+0914SBQV V0201001N004612200019N0112651N1+02001+01501999999ADDGA1021+004801999GF102991999999999999999999MA1102101999999REMMET051METAR SBQV 062200Z 10009KT 9999 FEW016 20/15 Q1021;
0120833440999992012080623004-14950-040883FM-15+0914SBQV V0201101N006212200019N0112651N1+01901+01601999999ADDGA1021+004501999GF102991999999999999999999MA1102101999999REMMET051METAR SBQV 062300Z 11012KT 9999 FEW015 19/16 Q1021;
0120833440999992012080702004-14950-040883FM-15+0914SBQV V0201101N006710027019N0112651N1+01701+01501999999ADDGA1071+002701999GF107991999999999999999999MA1102201999999REMMET051METAR SBQV 070200Z 11013KT 9999 BKN009 17/15 Q1022;
0120833440999992012080703004-14950-040883FM-15+0914SBQV V0201101N006210018019N0112651N1+01701+01601999999ADDGA1071+001801999GF107991999999999999999999MA1102201999999REMMET051METAR SBQV 070300Z 11012KT 9999 BKN006 17/16 Q1022;
0120833440999992012080711004-14950-040883FM-15+0914SBQV V0201101N002110030019N0112651N1+01701+01501999999ADDGA1081+003001999GF108991999999999999999999MA1102401999999REMMET051METAR SBQV 071100Z 11004KT 9999 OVC010 17/15 Q1024;
0120833440999992012080712004-14950-040883FM-15+0914SBQV V0201201N006710045019N0112651N1+01801+01501999999ADDGA1071+004501999GF107991999999999999999999MA1102511999999REMMET051METAR SBQV 071200Z 12013KT 9999 BKN015 18/15 Q1025;
0120833440999992012080713004-14950-040883FM-15+0914SBQV V0201201N006210048019N0112651N1+01901+01401999999ADDGA1071+004801999GF107991999999999999999999MA1102611999999REMMET051METAR SBQV 071300Z 12012KT 9999 BKN016 19/14 Q1026;
0120833440999992012080714004-14950-040883FM-15+0914SBQV V0201301N005710048019N0112651N1+02001+01501999999ADDGA1071+004801999GF107991999999999999999999MA1102511999999REMMET051METAR SBQV 071400Z 13011KT 9999 BKN016 20/15 Q1025;
0120833440999992012080715004-14950-040883FM-15+0914SBQV V0201201N005710048019N0112651N1+02101+01401999999ADDGA1071+004801999GF107991999999999999999999MA1102511999999REMMET051METAR SBQV 071500Z 12011KT 9999 BKN016 21/14 Q1025;
0120833440999992012080716004-14950-040883FM-15+0914SBQV V0201101N005710054019N0112651N1+02001+01401999999ADDGA1081+005401999GF108991999999999999999999MA1102401999999REMMET051METAR SBQV 071600Z 11011KT 9999 OVC018 20/14 Q1024;
0136833440999992012080717004-14950-040883FM-15+0914SBQV V0201201N00621005401CN0112651N1+02101+01401999999ADDGA1071+005401999GA2041+006001999MA1102301999999REMMET058METAR SBQV 071700Z 12012KT 9999 BKN018 SCT020 21/14 Q1023;EQDQ01+000042SCOTCV
0143833440999992012080718004-14950-040883FM-15+0914SBQV V0201401N005110060019N0112651N1+02101+01401999999ADDGA1071+006001999GA2071+024001999GF107991999999999999999999MA1102301999999REMMET058METAR SBQV 071800Z 14010KT 9999 BKN020 BKN080 21/14 Q1023;
0143833440999992012080719004-14950-040883FM-15+0914SBQV V0201301N005710240019N0112651N1+02101+01501999999ADDGA1041+005401999GA2071+024001999GF107991999999999999999999MA1102301999999REMMET058METAR SBQV 071900Z 13011KT 9999 SCT018 BKN080 21/15 Q1023;
0143833440999992012080720004-14950-040883FM-15+0914SBQV V0201301N004610210019N0112651N1+02001+01401999999ADDGA1021+004801999GA2071+021001999GF107991999999999999999999MA1102301999999REMMET058METAR SBQV 072000Z 13009KT 9999 FEW016 BKN070 20/14 Q1023;
0072833440999992012080721004-14950-040883FM-15+0914SBQV V0201301N003619999999Y0099001N1+01901+01401999999ADDMA1102301999999REMMET045METAR SBQV 072100Z 13007KT CAVOK 19/14 Q1023;
0072833440999992012080722004-14950-040883FM-15+0914SBQV V0201201N002619999999Y0099001N1+01801+01401999999ADDMA1102401999999REMMET045METAR SBQV 072200Z 12005KT CAVOK 18/14 Q1024;
0072833440999992012080723004-14950-040883FM-15+0914SBQV V0201101N002619999999Y0099001N1+01701+01501999999ADDMA1102511999999REMMET045METAR SBQV 072300Z 11005KT CAVOK 17/15 Q1025;
0120833440999992012080800004-14950-040883FM-15+0914SBQV V0201201N003612200019N0112651N1+01701+01501999999ADDGA1041+003001999GF104991999999999999999999MA1102511999999REMMET051METAR SBQV 080000Z 12007KT 9999 SCT010 17/15 Q1025;
0120833440999992012080812004-14950-040883FM-15+0914SBQV V0201301N006212200019N0112651N1+01701+01301999999ADDGA1041+004501999GF104991999999999999999999MA1102711999999REMMET051METAR SBQV 081200Z 13012KT 9999 SCT015 17/13 Q1027;
0120833440999992012080813004-14950-040883FM-15+0914SBQV V0201401N006212200019N0112651N1+02001+01201999999ADDGA1021+005401999GF102991999999999999999999MA1102711999999REMMET051METAR SBQV 081300Z 14012KT 9999 FEW018 20/12 Q1027;
0120833440999992012080815004-14950-040883FM-15+0914SBQV V0201301N004612200019N0112651N1+02201+01101999999ADDGA1021+006001999GF102991999999999999999999MA1102611999999REMMET051METAR SBQV 081500Z 13009KT 9999 FEW020 22/11 Q1026;
0120833440999992012080816004-14950-040883FM-15+0914SBQV V0201301N004612200019N0112651N1+02301+01101999999ADDGA1021+007501999GF102991999999999999999999MA1102511999999REMMET051METAR SBQV 081600Z 13009KT 9999 FEW025 23/11 Q1025;
0072833440999992012080817004-14950-040883FM-15+0914SBQV V0201001N004619999999Y0099001N1+02401+00901999999ADDMA1102401999999REMMET045METAR SBQV 081700Z 10009KT CAVOK 24/09 Q1024;
0120833440999992012080818004-14950-040883FM-15+0914SBQV V0201201N005112200019N0112651N1+02401+01101999999ADDGA1021+007501999GF102991999999999999999999MA1102301999999REMMET051METAR SBQV 081800Z 12010KT 9999 FEW025 24/11 Q1023;
0120833440999992012080819004-14950-040883FM-15+0914SBQV V0201101N006212200019N0112651N1+02301+01301999999ADDGA1021+007501999GF102991999999999999999999MA1102301999999REMMET051METAR SBQV 081900Z 11012KT 9999 FEW025 23/13 Q1023;
0120833440999992012080820004-14950-040883FM-15+0914SBQV V0201001N005110075019N0112651N1+02201+01401999999ADDGA1071+007501999GF107991999999999999999999MA1102301999999REMMET051METAR SBQV 082000Z 10010KT 9999 BKN025 22/14 Q1023;
0120833440999992012080821004-14950-040883FM-15+0914SBQV V0201201N005712200019N0112651N1+02001+01301999999ADDGA1041+005401999GF104991999999999999999999MA1102401999999REMMET051METAR SBQV 082100Z 12011KT 9999 SCT018 20/13 Q1024;
0072833440999992012080822004-14950-040883FM-15+0914SBQV V0201201N006219999999Y0099001N1+01901+01401999999ADDMA1102401999999REMMET045METAR SBQV 082200Z 12012KT CAVOK 19/14 Q1024;
0120833440999992012080823004-14950-040883FM-15+0914SBQV V0201201N006712200019N0112651N1+01701+01501999999ADDGA1021+002101999GF102991999999999999999999MA1102401999999REMMET051METAR SBQV 082300Z 12013KT 9999 FEW007 17/15 Q1024;
0120833440999992012080911004-14950-040883FM-15+0914SBQV V0201301N007210030019N0112651N1+01701+01501999999ADDGA1071+003001999GF107991999999999999999999MA1102511999999REMMET051METAR SBQV 091100Z 13014KT 9999 BKN010 17/15 Q1025;
0120833440999992012080912004-14950-040883FM-15+0914SBQV V0201201N007210033019N0112651N1+01701+01401999999ADDGA1071+003301999GF107991999999999999999999MA1102611999999REMMET051METAR SBQV 091200Z 12014KT 9999 BKN011 17/14 Q1026;
0120833440999992012080913004-14950-040883FM-15+0914SBQV V0201201N008212200019N0112651N1+01901+01401999999ADDGA1041+003601999GF104991999999999999999999MA1102611999999REMMET051METAR SBQV 091300Z 12016KT 9999 SCT012 19/14 Q1026;
0120833440999992012080914004-14950-040883FM-15+0914SBQV V0201201N006710045019N0112651N1+01901+01501999999ADDGA1071+004501999GF107991999999999999999999MA1102611999999REMMET051METAR SBQV 091400Z 12013KT 9999 BKN015 19/15 Q1026;
0120833440999992012080915004-14950-040883FM-15+0914SBQV V0201301N006210045019N0112651N1+02001+01501999999ADDGA1071+004501999GF107991999999999999999999MA1102511999999REMMET051METAR SBQV 091500Z 13012KT 9999 BKN015 20/15 Q1025;
0120833440999992012080916004-14950-040883FM-15+0914SBQV V0201301N006710048019N0112651N1+02201+01401999999ADDGA1071+004801999GF107991999999999999999999MA1102401999999REMMET051METAR SBQV 091600Z 13013KT 9999 BKN016 22/14 Q1024;
0120833440999992012080917004-14950-040883FM-15+0914SBQV V0201101N006210060019N0112651N1+02301+01401999999ADDGA1071+006001999GF107991999999999999999999MA1102301999999REMMET051METAR SBQV 091700Z 11012KT 9999 BKN020 23/14 Q1023;
0120833440999992012080918004-14950-040883FM-15+0914SBQV V0201201N005710060019N0112651N1+02301+01301999999ADDGA1071+006001999GF107991999999999999999999MA1102201999999REMMET051METAR SBQV 091800Z 12011KT 9999 BKN020 23/13 Q1022;
0120833440999992012080919004-14950-040883FM-15+0914SBQV V0201301N005112200019N0112651N1+02201+01301999999ADDGA1041+006001999GF104991999999999999999999MA1102201999999REMMET051METAR SBQV 091900Z 13010KT 9999 SCT020 22/13 Q1022;
0120833440999992012080920004-14950-040883FM-15+0914SBQV V0201201N006212200019N0112651N1+02101+01301999999ADDGA1021+005401999GF102991999999999999999999MA1102201999999REMMET051METAR SBQV 092000Z 12012KT 9999 FEW018 21/13 Q1022;
0120833440999992012080921004-14950-040883FM-15+0914SBQV V0201201N004112200019N0112651N1+02001+01401999999ADDGA1021+004501999GF102991999999999999999999MA1102301999999REMMET051METAR SBQV 092100Z 12008KT 9999 FEW015 20/14 Q1023;
0072833440999992012080922004-14950-040883FM-15+0914SBQV V0201001N004619999999Y0099001N1+01801+01501999999ADDMA1102301999999REMMET045METAR SBQV 092200Z 10009KT CAVOK 18/15 Q1023;
0120833440999992012080923004-14950-040883FM-15+0914SBQV V0201101N004610045019N0112651N1+01801+01601999999ADDGA1071+004501999GF107991999999999999999999MA1102401999999REMMET051METAR SBQV 092300Z 11009KT 9999 BKN015 18/16 Q1024;
0143833440999992012081000004-14950-040883FM-15+0914SBQV V0201001N004112200019N0112651N1+01701+01501999999ADDGA1021+004501999GA2041+021001999GF104991999999999999999999MA1102401999999REMMET058METAR SBQV 100000Z 10008KT 9999 FEW015 SCT070 17/15 Q1024;
0072833440999992012081001004-14950-040883FM-15+0914SBQV V0201001N003619999999Y0099001N1+01701+01501999999ADDMA1102401999999REMMET045METAR SBQV 100100Z 10007KT CAVOK 17/15 Q1024;
0148833440999992012081002004-14950-040883FM-15+0914SBQV V0201101N004612200019N0112651N1+01601+01501999999ADDGA1021+002101999GA2041+021001999GF104991999999999999999999MA1102401999999REMMET063METAR SBQV 100200Z 11009KT 9999 FEW007 SCT070 16/15 Q1024 REDZ;
0120833440999992012081004004-14950-040883FM-15+0914SBQV V0201201N003610015019N0112651N1+01601+01601999999ADDGA1071+001501999GF107991999999999999999999MA1102301999999REMMET051METAR SBQV 100400Z 12007KT 9999 BKN005 16/16 Q1023;
0120833440999992012081011004-14950-040883FM-15+0914SBQV V0201101N004610021019N0112651N1+01601+01601999999ADDGA1071+002101999GF107991999999999999999999MA1102401999999REMMET051METAR SBQV 101100Z 11009KT 9999 BKN007 16/16 Q1024;
0153833440999992012081012004-14950-040883FM-15+0914SBQV V0201201N005110030019N0090001N1+01701+01601999999ADDGA1041+002101999GA2071+003001999GF107991999999999999999999MA1102511999999MW1511REMMET062METAR SBQV 101200Z 12010KT 9000 -DZ SCT007 BKN010 17/16 Q1025;
0120833440999992012081013004-14950-040883FM-15+0914SBQV V0201201N005710027019N0112651N1+01701+01701999999ADDGA1071+002701999GF107991999999999999999999MA1102511999999REMMET051METAR SBQV 101300Z 12011KT 9999 BKN009 17/17 Q1025;
0143833440999992012081014004-14950-040883FM-15+0914SBQV V0201201N006712200019N0112651N1+01901+01601999999ADDGA1041+003901999GA2041+004801999GF104991999999999999999999MA1102511999999REMMET058METAR SBQV 101400Z 12013KT 9999 SCT013 SCT016 19/16 Q1025;
0120833440999992012081015004-14950-040883FM-15+0914SBQV V0201101N005110048019N0112651N1+02101+01501999999ADDGA1071+004801999GF107991999999999999999999MA1102401999999REMMET051METAR SBQV 101500Z 11010KT 9999 BKN016 21/15 Q1024;
0143833440999992012081016004-14950-040883FM-15+0914SBQV V0201101N005712200019N0112651N1+02001+01601999999ADDGA1041+004801999GA2041+005401999GF104991999999999999999999MA1102401999999REMMET058METAR SBQV 101600Z 11011KT 9999 SCT016 SCT018 20/16 Q1024;
0143833440999992012081017004-14950-040883FM-15+0914SBQV V0201301N004612200019N0112651N1+02101+01601999999ADDGA1021+004801999GA2041+005401999GF104991999999999999999999MA1102301999999REMMET058METAR SBQV 101700Z 13009KT 9999 FEW016 SCT018 21/16 Q1023;
0160833440999992012081018004-14950-040883FM-15+0914SBQV V0201101N004612200019N0112651N1+02101+01601999999ADDGA1021+004801999GA2041+005401999GF104991999999999999999999MA1102201999999MW1611REMMET069METAR SBQV 101800Z 11009KT 9999 3000SE -RA FEW016 SCT018 21/16 Q1022;
0143833440999992012081019004-14950-040883FM-15+0914SBQV V0201001N006710210019N0112651N1+01801+01701999999ADDGA1041+003901999GA2071+021001999GF107991999999999999999999MA1102301999999REMMET058METAR SBQV 101900Z 10013KT 9999 SCT013 BKN070 18/17 Q1023;
0143833440999992012081020004-14950-040883FM-15+0914SBQV V0201201N004610210019N0112651N1+01801+01701999999ADDGA1041+003901999GA2071+021001999GF107991999999999999999999MA1102301999999REMMET058METAR SBQV 102000Z 12009KT 9999 SCT013 BKN070 18/17 Q1023;
0166833440999992012081021004-14950-040883FM-15+0914SBQV V0201101N00361003301CN0112651N1+01801+01601999999ADDGA1021+002101999GA2041+003301999GA3071+021001999GF107991999999999999999999MA1102301999999REMMET065METAR SBQV 102100Z 11007KT 9999 FEW007 SCT011 BKN070 18/16 Q1023;
0143833440999992012081022004-14950-040883FM-15+0914SBQV V0201201N004612200019N0112651N1+01601+01501999999ADDGA1021+002701999GA2041+021001999GF104991999999999999999999MA1102401999999REMMET058METAR SBQV 102200Z 12009KT 9999 FEW009 SCT070 16/15 Q1024;
0120833440999992012081023004-14950-040883FM-15+0914SBQV V0201101N004612200019N0112651N1+01701+01601999999ADDGA1021+002701999GF102991999999999999999999MA1102401999999REMMET051METAR SBQV 102300Z 11009KT 9999 FEW009 17/16 Q1024;
0136833440999992012081111004-14950-040883FM-15+0914SBQV V0201201N00621002701CN0112651N1+01601+01601999999ADDGA1071+002701999GA2041+021001999MA1102511999999REMMET058METAR SBQV 111100Z 12012KT 9999 BKN009 SCT070 16/16 Q1025;EQDQ01+000042SCOTCV
0120833440999992012081112004-14950-040883FM-15+0914SBQV V0201201N007210033019N0112651N1+01801+01601999999ADDGA1071+003301999GF107991999999999999999999MA1102511999999REMMET051METAR SBQV 111200Z 12014KT 9999 BKN011 18/16 Q1025;
0120833440999992012081113004-14950-040883FM-15+0914SBQV V0201101N007212200019N0112651N1+02001+01401999999ADDGA1041+004801999GF104991999999999999999999MA1102611999999REMMET051METAR SBQV 111300Z 11014KT 9999 SCT016 20/14 Q1026;
0120833440999992012081114004-14950-040883FM-15+0914SBQV V0201301N008212200019N0112651N1+02101+01301999999ADDGA1021+005401999GF102991999999999999999999MA1102511999999REMMET051METAR SBQV 111400Z 13016KT 9999 FEW018 21/13 Q1025;
0120833440999992012081115004-14950-040883FM-15+0914SBQV V0201001N007212200019N0112651N1+02301+01201999999ADDGA1021+006001999GF102991999999999999999999MA1102401999999REMMET051METAR SBQV 111500Z 10014KT 9999 FEW020 23/12 Q1024;
0120833440999992012081116004-14950-040883FM-15+0914SBQV V0201301N008212200019N0112651N1+02301+01201999999ADDGA1021+006001999GF102991999999999999999999MA1102401999999REMMET051METAR SBQV 111600Z 13016KT 9999 FEW020 23/12 Q1024;
0120833440999992012081117004-14950-040883FM-15+0914SBQV V0201101N005712200019N0112651N1+02301+01001999999ADDGA1041+006001999GF104991999999999999999999MA1102301999999REMMET051METAR SBQV 111700Z 11011KT 9999 SCT020 23/10 Q1023;
0120833440999992012081118004-14950-040883FM-15+0914SBQV V0201201N006212200019N0112651N1+02301+01101999999ADDGA1041+006001999GF104991999999999999999999MA1102301999999REMMET051METAR SBQV 111800Z 12012KT 9999 SCT020 23/11 Q1023;
0143833440999992012081119004-14950-040883FM-15+0914SBQV V0201201N008712200019N0112651N1+02001+01501999999ADDGA1041+004801999GA2041+021001999GF104991999999999999999999MA1102301999999REMMET058METAR SBQV 111900Z 12017KT 9999 SCT016 SCT070 20/15 Q1023;
0143833440999992012081120004-14950-040883FM-15+0914SBQV V0201201N005112200019N0112651N1+01901+01401999999ADDGA1041+004501999GA2041+021001999GF104991999999999999999999MA1102401999999REMMET058METAR SBQV 112000Z 12010KT 9999 SCT015 SCT070 19/14 Q1024;
0120833440999992012081121004-14950-040883FM-15+0914SBQV V0201301N004612200019N0112651N1+01701+01401999999ADDGA1021+004501999GF102991999999999999999999MA1102401999999REMMET051METAR SBQV 112100Z 13009KT 9999 FEW015 17/14 Q1024;
0120833440999992012081122004-14950-040883FM-15+0914SBQV V0201101N006712200019N0112651N1+01701+01401999999ADDGA1021+003601999GF102991999999999999999999MA1102401999999REMMET051METAR SBQV 112200Z 11013KT 9999 FEW012 17/14 Q1024;
0120833440999992012081211004-14950-040883FM-15+0914SBQV V0201001N005710030019N0112651N1+01701+01601999999ADDGA1071+003001999GF107991999999999999999999MA1102611999999REMMET051METAR SBQV 121100Z 10011KT 9999 BKN010 17/16 Q1026;
0120833440999992012081212004-14950-040883FM-15+0914SBQV V0201001N006212200019N0112651N1+01801+01301999999ADDGA1041+003601999GF104991999999999999999999MA1102611999999REMMET051METAR SBQV 121200Z 10012KT 9999 SCT012 18/13 Q1026;
0120833440999992012081213004-14950-040883FM-15+0914SBQV V0201001N007210045019N0112651N1+02001+01401999999ADDGA1071+004501999GF107991999999999999999999MA1102611999999REMMET051METAR SBQV 121300Z 10014KT 9999 BKN015 20/14 Q1026;
0120833440999992012081214004-14950-040883FM-15+0914SBQV V0201001N007210045019N0112651N1+02101+01401999999ADDGA1071+004501999GF107991999999999999999999MA1102511999999REMMET051METAR SBQV 121400Z 10014KT 9999 BKN015 21/14 Q1025;
0120833440999992012081215004-14950-040883FM-15+0914SBQV V0201001N006210045019N0112651N1+02301+01501999999ADDGA1071+004501999GF107991999999999999999999MA1102511999999REMMET051METAR SBQV 121500Z 10012KT 9999 BKN015 23/15 Q1025;
0120833440999992012081216004-14950-040883FM-15+0914SBQV V0201001N005710048019N0112651N1+02401+01301999999ADDGA1071+004801999GF107991999999999999999999MA1102401999999REMMET051METAR SBQV 121600Z 10011KT 9999 BKN016 24/13 Q1024;
0120833440999992012081217004-14950-040883FM-15+0914SBQV V0201201N007712200019N0112651N1+02201+01601999999ADDGA1041+005401999GF104991999999999999999999MA1102401999999REMMET051METAR SBQV 121700Z 12015KT 9999 SCT018 22/16 Q1024;
0143833440999992012081218004-14950-040883FM-15+0914SBQV V0201001N006212200019N0112651N1+02201+01501999999ADDGA1041+004801999GA2041+021001999GF104991999999999999999999MA1102401999999REMMET058METAR SBQV 121800Z 10012KT 9999 SCT016 SCT070 22/15 Q1024;
0143833440999992012081219004-14950-040883FM-15+0914SBQV V0201101N005110210019N0112651N1+02201+01501999999ADDGA1041+004501999GA2071+021001999GF107991999999999999999999MA1102401999999REMMET058METAR SBQV 121900Z 11010KT 9999 SCT015 BKN070 22/15 Q1024;
0166833440999992012081220004-14950-040883FM-15+0914SBQV V0200901N00361003301CN0112651N1+01701+01601999999ADDGA1021+001801999GA2041+003301999GA3071+021001999GF107991999999999999999999MA1102511999999REMMET065METAR SBQV 122000Z 09007KT 9999 FEW006 SCT011 BKN070 17/16 Q1025;
0143833440999992012081221004-14950-040883FM-15+0914SBQV V0201001N003610210019N0112651N1+01701+01701999999ADDGA1041+003001999GA2071+021001999GF107991999999999999999999MA1102511999999REMMET058METAR SBQV 122100Z 10007KT 9999 SCT010 BKN070 17/17 Q1025;
0143833440999992012081222004-14950-040883FM-15+0914SBQV V0201101N003612200019N0112651N1+01701+01701999999ADDGA1041+002701999GA2041+021001999GF104991999999999999999999MA1102511999999REMMET058METAR SBQV 122200Z 11007KT 9999 SCT009 SCT070 17/17 Q1025;
0117833440999992012081223004-14950-040883FM-15+0914SBQV V0201001N00411002701CN0112651N1+01701+01701999999ADDGA1071+002701999GA2041+021001999MA1102511999999REMMET058METAR SBQV 122300Z 10008KT 9999 BKN009 SCT070 17/17 Q1025;
0120833440999992012081300004-14950-040883FM-15+0914SBQV V0201001N005112200019N0112651N1+01701+01701999999ADDGA1021+002401999GF102991999999999999999999MA1102611999999REMMET051METAR SBQV 130000Z 10010KT 9999 FEW008 17/17 Q1026;
0072833440999992012081301004-14950-040883FM-15+0914SBQV V0201001N006219999999Y0099001N1+01601+01601999999ADDMA1102611999999REMMET045METAR SBQV 130100Z 10012KT CAVOK 16/16 Q1026;
0120833440999992012081302004-14950-040883FM-15+0914SBQV V0201101N004612200019N0112651N1+01601+01601999999ADDGA1021+002101999GF102991999999999999999999MA1102611999999REMMET051METAR SBQV 130200Z 11009KT 9999 FEW007 16/16 Q1026;
0120833440999992012081303004-14950-040883FM-15+0914SBQV V0201001N004112200019N0112651N1+01601+01601999999ADDGA1041+002101999GF104991999999999999999999MA1102611999999REMMET051METAR SBQV 130300Z 10008KT 9999 SCT007 16/16 Q1026;
0120833440999992012081311004-14950-040883FM-15+0914SBQV V0201101N006210027019N0112651N1+01701+01601999999ADDGA1071+002701999GF107991999999999999999999MA1102711999999REMMET051METAR SBQV 131100Z 11012KT 9999 BKN009 17/16 Q1027;
0143833440999992012081312004-14950-040883FM-15+0914SBQV V0201001N007712200019N0112651N1+01901+01501999999ADDGA1021+003901999GA2041+004501999GF104991999999999999999999MA1102711999999REMMET058METAR SBQV 131200Z 10015KT 9999 FEW013 SCT015 19/15 Q1027;
0120833440999992012081313004-14950-040883FM-15+0914SBQV V0201001N008212200019N0112651N1+02101+01401999999ADDGA1041+004801999GF104991999999999999999999MA1102811999999REMMET051METAR SBQV 131300Z 10016KT 9999 SCT016 21/14 Q1028;
0120833440999992012081314004-14950-040883FM-15+0914SBQV V0200901N007710054019N0112651N1+02201+01401999999ADDGA1071+005401999GF107991999999999999999999MA1102711999999REMMET051METAR SBQV 131400Z 09015KT 9999 BKN018 22/14 Q1027;
0120833440999992012081315004-14950-040883FM-15+0914SBQV V0200901N007210054019N0112651N1+02201+01501999999ADDGA1071+005401999GF107991999999999999999999MA1102711999999REMMET051METAR SBQV 131500Z 09014KT 9999 BKN018 22/15 Q1027;
0120833440999992012081316004-14950-040883FM-15+0914SBQV V0201101N006212200019N0112651N1+02301+01601999999ADDGA1041+005401999GF104991999999999999999999MA1102611999999REMMET051METAR SBQV 131600Z 11012KT 9999 SCT018 23/16 Q1026;
0131833440999992012081317004-14950-040883FM-15+0914SBQV V0201001N006712200019N0112651N1+02101+01501999999ADDGA1041+005401999GF104991999999999999999999MA1102511999999OC101181REMMET054METAR SBQV 131700Z 10013G23KT 9999 SCT018 21/15 Q1025;
0120833440999992012081318004-14950-040883FM-15+0914SBQV V0201101N006712200019N0112651N1+02001+01401999999ADDGA1041+004801999GF104991999999999999999999MA1102511999999REMMET051METAR SBQV 131800Z 11013KT 9999 SCT016 20/14 Q1025;
0120833440999992012081319004-14950-040883FM-15+0914SBQV V0200901N005712200019N0112651N1+02201+01501999999ADDGA1041+004501999GF104991999999999999999999MA1102511999999REMMET051METAR SBQV 131900Z 09011KT 9999 SCT015 22/15 Q1025;
0120833440999992012081320004-14950-040883FM-15+0914SBQV V0201001N005112200019N0112651N1+02101+01301999999ADDGA1021+004501999GF102991999999999999999999MA1102511999999REMMET051METAR SBQV 132000Z 10010KT 9999 FEW015 21/13 Q1025;
0120833440999992012081321004-14950-040883FM-15+0914SBQV V0201101N003112200019N0112651N1+01901+01301999999ADDGA1021+003901999GF102991999999999999999999MA1102511999999REMMET051METAR SBQV 132100Z 11006KT 9999 FEW013 19/13 Q1025;
0120833440999992012081322004-14950-040883FM-15+0914SBQV V0201001N003112200019N0112651N1+01801+01301999999ADDGA1021+003601999GF102991999999999999999999MA1102511999999REMMET051METAR SBQV 132200Z 10006KT 9999 FEW012 18/13 Q1025;
0072833440999992012081323004-14950-040883FM-15+0914SBQV V0201101N003619999999Y0099001N1+01701+01401999999ADDMA1102611999999REMMET045METAR SBQV 132300Z 11007KT CAVOK 17/14 Q1026;
0120833440999992012081411004-14950-040883FM-15+0914SBQV V0201001N006712200019N0112651N1+01701+01601999999ADDGA1041+002701999GF104991999999999999999999MA1102511999999REMMET051METAR SBQV 141100Z 10013KT 9999 SCT009 17/16 Q1025;
0120833440999992012081412004-14950-040883FM-15+0914SBQV V0201001N008712200019N0112651N1+01901+01501999999ADDGA1041+003901999GF104991999999999999999999MA1102611999999REMMET051METAR SBQV 141200Z 10017KT 9999 SCT013 19/15 Q1026;
0120833440999992012081413004-14950-040883FM-15+0914SBQV V0201001N009312200019N0112651N1+02101+01401999999ADDGA1041+004501999GF104991999999999999999999MA1102611999999REMMET051METAR SBQV 141300Z 10018KT 9999 SCT015 21/14 Q1026;
0120833440999992012081414004-14950-040883FM-15+0914SBQV V0201201N008710054019N0112651N1+02101+01501999999ADDGA1071+005401999GF107991999999999999999999MA1102611999999REMMET051METAR SBQV 141400Z 12017KT 9999 BKN018 21/15 Q1026;
0120833440999992012081415004-14950-040883FM-15+0914SBQV V0201201N008712200019N0112651N1+02201+01301999999ADDGA1041+006001999GF104991999999999999999999MA1102611999999REMMET051METAR SBQV 141500Z 12017KT 9999 SCT020 22/13 Q1026;
0120833440999992012081416004-14950-040883FM-15+0914SBQV V0201301N007212200019N0112651N1+02301+01301999999ADDGA1041+006001999GF104991999999999999999999MA1102511999999REMMET051METAR SBQV 141600Z 13014KT 9999 SCT020 23/13 Q1025;
0120833440999992012081417004-14950-040883FM-15+0914SBQV V0201101N008212200019N0112651N1+02301+01201999999ADDGA1041+007501999GF104991999999999999999999MA1102401999999REMMET051METAR SBQV 141700Z 11016KT 9999 SCT025 23/12 Q1024;
0120833440999992012081418004-14950-040883FM-15+0914SBQV V0201101N006712200019N0112651N1+02401+01401999999ADDGA1041+007501999GF104991999999999999999999MA1102301999999REMMET051METAR SBQV 141800Z 11013KT 9999 SCT025 24/14 Q1023;
0120833440999992012081419004-14950-040883FM-15+0914SBQV V0201201N007212200019N0112651N1+02201+01401999999ADDGA1041+007501999GF104991999999999999999999MA1102301999999REMMET051METAR SBQV 141900Z 12014KT 9999 SCT025 22/14 Q1023;
0120833440999992012081420004-14950-040883FM-15+0914SBQV V0201101N006712200019N0112651N1+02101+01401999999ADDGA1021+006001999GF102991999999999999999999MA1102301999999REMMET051METAR SBQV 142000Z 11013KT 9999 FEW020 21/14 Q1023;
0120833440999992012081421004-14950-040883FM-15+0914SBQV V0201201N006212200019N0112651N1+02001+01401999999ADDGA1021+004501999GF102991999999999999999999MA1102301999999REMMET051METAR SBQV 142100Z 12012KT 9999 FEW015 20/14 Q1023;
0120833440999992012081422004-14950-040883FM-15+0914SBQV V0201101N005112200019N0112651N1+01901+01401999999ADDGA1021+004501999GF102991999999999999999999MA1102401999999REMMET051METAR SBQV 142200Z 11010KT 9999 FEW015 19/14 Q1024;
0072833440999992012081423004-14950-040883FM-15+0914SBQV V0201101N006719999999Y0099001N1+01801+01501999999ADDMA1102511999999REMMET045METAR SBQV 142300Z 11013KT CAVOK 18/15 Q1025;
0120833440999992012081511004-14950-040883FM-15+0914SBQV V0201101N005712200019N0112651N1+01701+01501999999ADDGA1041+002401999GF104991999999999999999999MA1102611999999REMMET051METAR SBQV 151100Z 11011KT 9999 SCT008 17/15 Q1026;
0143833440999992012081512004-14950-040883FM-15+0914SBQV V0201001N007210045019N0112651N1+01801+01601999999ADDGA1041+002701999GA2071+004501999GF107991999999999999999999MA1102611999999REMMET058METAR SBQV 151200Z 10014KT 9999 SCT009 BKN015 18/16 Q1026;
0120833440999992012081513004-14950-040883FM-15+0914SBQV V0201201N006710045019N0112651N1+01901+01601999999ADDGA1071+004501999GF107991999999999999999999MA1102711999999REMMET051METAR SBQV 151300Z 12013KT 9999 BKN015 19/16 Q1027;
0120833440999992012081514004-14950-040883FM-15+0914SBQV V0201001N007212200019N0112651N1+02101+01401999999ADDGA1041+005401999GF104991999999999999999999MA1102611999999REMMET051METAR SBQV 151400Z 10014KT 9999 SCT018 21/14 Q1026;
0120833440999992012081515004-14950-040883FM-15+0914SBQV V0201001N007712200019N0112651N1+02301+01301999999ADDGA1021+006001999GF102991999999999999999999MA1102511999999REMMET051METAR SBQV 151500Z 10015KT 9999 FEW020 23/13 Q1025;
0120833440999992012081516004-14950-040883FM-15+0914SBQV V0201001N007212200019N0112651N1+02401+00901999999ADDGA1021+007501999GF102991999999999999999999MA1102401999999REMMET051METAR SBQV 151600Z 10014KT 9999 FEW025 24/09 Q1024;
0120833440999992012081517004-14950-040883FM-15+0914SBQV V0201201N006712200019N0112651N1+02401+01101999999ADDGA1021+007501999GF102991999999999999999999MA1102301999999REMMET051METAR SBQV 151700Z 12013KT 9999 FEW025 24/11 Q1023;
0120833440999992012081518004-14950-040883FM-15+0914SBQV V0201101N006212200019N0112651N1+02401+01101999999ADDGA1021+007501999GF102991999999999999999999MA1102301999999REMMET051METAR SBQV 151800Z 11012KT 9999 FEW025 24/11 Q1023;
0120833440999992012081519004-14950-040883FM-15+0914SBQV V0201201N006712200019N0112651N1+02301+01001999999ADDGA1021+007501999GF102991999999999999999999MA1102301999999REMMET051METAR SBQV 151900Z 12013KT 9999 FEW025 23/10 Q1023;
0120833440999992012081520004-14950-040883FM-15+0914SBQV V0201201N006212200019N0112651N1+02201+01001999999ADDGA1021+007501999GF102991999999999999999999MA1102301999999REMMET051METAR SBQV 152000Z 12012KT 9999 FEW025 22/10 Q1023;
0120833440999992012081521004-14950-040883FM-15+0914SBQV V0201101N004112200019N0112651N1+02001+01001999999ADDGA1021+006001999GF102991999999999999999999MA1102401999999REMMET051METAR SBQV 152100Z 11008KT 9999 FEW020 20/10 Q1024;
0072833440999992012081522004-14950-040883FM-15+0914SBQV V0201301N004619999999Y0099001N1+01901+01101999999ADDMA1102511999999REMMET045METAR SBQV 152200Z 13009KT CAVOK 19/11 Q1025;
0072833440999992012081523004-14950-040883FM-15+0914SBQV V0201201N005719999999Y0099001N1+01801+01201999999ADDMA1102511999999REMMET045METAR SBQV 152300Z 12011KT CAVOK 18/12 Q1025;
0136833440999992012081611004-14950-040883FM-15+0914SBQV V0201101N00411003001CN0112651N1+01701+01601999999ADDGA1071+003001999GA2041+021001999MA1102511999999REMMET058METAR SBQV 161100Z 11008KT 9999 BKN010 SCT070 17/16 Q1025;EQDQ01+000042SCOTCV
0143833440999992012081612004-14950-040883FM-15+0914SBQV V0201101N005712200019N0112651N1+02001+01601999999ADDGA1041+004501999GA2041+004801999GF104991999999999999999999MA1102611999999REMMET058METAR SBQV 161200Z 11011KT 9999 SCT015 SCT016 20/16 Q1026;
0143833440999992012081613004-14950-040883FM-15+0914SBQV V0201301N004110030019N0112651N1+01901+01701999999ADDGA1021+002101999GA2071+003001999GF107991999999999999999999MA1102711999999REMMET058METAR SBQV 161300Z 13008KT 9999 FEW007 BKN010 19/17 Q1027;
0153833440999992012081614004-14950-040883FM-15+0914SBQV V0201101N004110030019N0070001N1+02001+01801999999ADDGA1021+002101999GA2071+003001999GF107991999999999999999999MA1102611999999MW1511REMMET062METAR SBQV 161400Z 11008KT 7000 -DZ FEW007 BKN010 20/18 Q1026;
0143833440999992012081615004-14950-040883FM-15+0914SBQV V0201301N005710030019N0112651N1+02001+01801999999ADDGA1021+002101999GA2071+003001999GF107991999999999999999999MA1102611999999REMMET058METAR SBQV 161500Z 13011KT 9999 FEW007 BKN010 20/18 Q1026;
0143833440999992012081616004-14950-040883FM-15+0914SBQV V0201301N006712200019N0112651N1+02101+01801999999ADDGA1041+003901999GA2041+021001999GF104991999999999999999999MA1102511999999REMMET058METAR SBQV 161600Z 13013KT 9999 SCT013 SCT070 21/18 Q1025;
0130833440999992012081617004-14950-040883FM-15+0914SBQV V0201301N006210030019N0040001N1+02001+01901999999ADDGA1071+003001999GF107991999999999999999999MA1102401999999MW1611REMMET055METAR SBQV 161700Z 13012KT 4000 -RA BKN010 20/19 Q1024;
0155833440999992012081618004-14950-040883FM-15+0914SBQV V0201401N006210015019N0020001N1+01801+01801999999ADDGA1041+001201999GA2071+001501999GF107991999999999999999999MW1101MW2511REMMET073METAR SBQV 161800Z 14012KT 2000 1000SE -DZ BR SCT004 BKN005 18/18 Q10 24;
0141833440999992012081620004-14950-040883FM-15+0914SBQV V0201201N00721220001CN0060001N1+01601+01601999999ADDGA1071+001501999GA2041+021001999MA1102401999999REMMET063METAR SBQV 162000Z 12014KT 6000 BKN005 SCT070 16/16 Q1024 REDZ;EQDQ01+000042SCOTCV
0143833440999992012081621004-14950-040883FM-15+0914SBQV V0201101N006710210019N0112651N1+01601+01601999999ADDGA1041+003001999GA2071+021001999GF107991999999999999999999MA1102401999999REMMET058METAR SBQV 162100Z 11013KT 9999 SCT010 BKN070 16/16 Q1024;
0072833440999992012081622004-14950-040883FM-15+0914SBQV V0201001N004119999999Y0099001N1+01601+01601999999ADDMA1102511999999REMMET045METAR SBQV 162200Z 10008KT CAVOK 16/16 Q1025;
0072833440999992012081623004-14950-040883FM-15+0914SBQV V0201101N004619999999Y0099001N1+01601+01601999999ADDMA1102511999999REMMET045METAR SBQV 162300Z 11009KT CAVOK 16/16 Q1025;
0146833440999992012081711004-14950-040883FM-15+0914SBQV V0201201N00571002101CN0112651N1+01601+01601999999ADDGA1071+002101999GA2041+021001999MA1102511999999MW1511REMMET062METAR SBQV 171100Z 12011KT 9999 -DZ BKN007 SCT070 16/16 Q1025;EQDQ01+000042SCOTCV
0120833440999992012081712004-14950-040883FM-15+0914SBQV V0201101N007712200019N0112651N1+01801+01601999999ADDGA1041+003301999GF104991999999999999999999MA1102611999999REMMET051METAR SBQV 171200Z 11015KT 9999 SCT011 18/16 Q1026;
0120833440999992012081713004-14950-040883FM-15+0914SBQV V0201301N005710045019N0112651N1+01901+01601999999ADDGA1071+004501999GF107991999999999999999999MA1102611999999REMMET051METAR SBQV 171300Z 13011KT 9999 BKN015 19/16 Q1026;
0120833440999992012081714004-14950-040883FM-15+0914SBQV V0201101N007210048019N0112651N1+02001+01701999999ADDGA1071+004801999GF107991999999999999999999MA1102611999999REMMET051METAR SBQV 171400Z 11014KT 9999 BKN016 20/17 Q1026;
0120833440999992012081715004-14950-040883FM-15+0914SBQV V0201001N007210054019N0112651N1+02201+01601999999ADDGA1071+005401999GF107991999999999999999999MA1102511999999REMMET051METAR SBQV 171500Z 10014KT 9999 BKN018 22/16 Q1025;
0120833440999992012081716004-14950-040883FM-15+0914SBQV V0201101N006710054019N0112651N1+02201+01501999999ADDGA1071+005401999GF107991999999999999999999MA1102511999999REMMET051METAR SBQV 171600Z 11013KT 9999 BKN018 22/15 Q1025;
0120833440999992012081717004-14950-040883FM-15+0914SBQV V0201401N006710054019N0112651N1+02201+01501999999ADDGA1071+005401999GF107991999999999999999999MA1102401999999REMMET051METAR SBQV 171700Z 14013KT 9999 BKN018 22/15 Q1024;
0120833440999992012081718004-14950-040883FM-15+0914SBQV V0201301N006210054019N0112651N1+02301+01501999999ADDGA1071+005401999GF107991999999999999999999MA1102301999999REMMET051METAR SBQV 171800Z 13012KT 9999 BKN018 23/15 Q1023;
0120833440999992012081719004-14950-040883FM-15+0914SBQV V0201201N007712200019N0112651N1+02201+01301999999ADDGA1041+005401999GF104991999999999999999999MA1102301999999REMMET051METAR SBQV 171900Z 12015KT 9999 SCT018 22/13 Q1023;
0120833440999992012081720004-14950-040883FM-15+0914SBQV V0201301N007212200019N0112651N1+02001+01601999999ADDGA1041+004801999GF104991999999999999999999MA1102401999999REMMET051METAR SBQV 172000Z 13014KT 9999 SCT016 20/16 Q1024;
0120833440999992012081721004-14950-040883FM-15+0914SBQV V0201401N004112200019N0112651N1+01801+01601999999ADDGA1041+003901999GF104991999999999999999999MA1102401999999REMMET051METAR SBQV 172100Z 14008KT 9999 SCT013 18/16 Q1024;
0120833440999992012081722004-14950-040883FM-15+0914SBQV V0201201N003612200019N0112651N1+01701+01601999999ADDGA1021+003001999GF102991999999999999999999MA1102401999999REMMET051METAR SBQV 172200Z 12007KT 9999 FEW010 17/16 Q1024;
0120833440999992012081723004-14950-040883FM-15+0914SBQV V0201201N004112200019N0112651N1+01701+01601999999ADDGA1021+002101999GF102991999999999999999999MA1102511999999REMMET051METAR SBQV 172300Z 12008KT 9999 FEW007 17/16 Q1025;
0120833440999992012081811004-14950-040883FM-15+0914SBQV V0201001N006212200019N0112651N1+01701+01501999999ADDGA1041+003301999GF104991999999999999999999MA1102611999999REMMET051METAR SBQV 181100Z 10012KT 9999 SCT011 17/15 Q1026;
0120833440999992012081812004-14950-040883FM-15+0914SBQV V0201101N008210039019N0112651N1+01901+01401999999ADDGA1071+003901999GF107991999999999999999999MA1102611999999REMMET051METAR SBQV 181200Z 11016KT 9999 BKN013 19/14 Q1026;
0120833440999992012081813004-14950-040883FM-15+0914SBQV V0201001N007212200019N0112651N1+02001+01401999999ADDGA1041+004501999GF104991999999999999999999MA1102711999999REMMET051METAR SBQV 181300Z 10014KT 9999 SCT015 20/14 Q1027;
0143833440999992012081814004-14950-040883FM-15+0914SBQV V0201001N007712200019N0112651N1+02001+01501999999ADDGA1041+003601999GA2041+004501999GF104991999999999999999999MA1102611999999REMMET058METAR SBQV 181400Z 10015KT 9999 SCT012 SCT015 20/15 Q1026;
0143833440999992012081815004-14950-040883FM-15+0914SBQV V0201401N006210045019N0112651N1+02101+01601999999ADDGA1021+003901999GA2071+004501999GF107991999999999999999999MA1102611999999REMMET058METAR SBQV 181500Z 14012KT 9999 FEW013 BKN015 21/16 Q1026;
0143833440999992012081816004-14950-040883FM-15+0914SBQV V0201401N007212200019N0112651N1+02001+01701999999ADDGA1041+003601999GA2041+004501999GF104991999999999999999999MA1102511999999REMMET058METAR SBQV 181600Z 14014KT 9999 SCT012 SCT015 20/17 Q1025;
0143833440999992012081817004-14950-040883FM-15+0914SBQV V0201101N006712200019N0112651N1+01901+01701999999ADDGA1041+003601999GA2041+004501999GF104991999999999999999999MA1102511999999REMMET058METAR SBQV 181700Z 11013KT 9999 SCT012 SCT015 19/17 Q1025;
0143833440999992012081818004-14950-040883FM-15+0914SBQV V0201201N006210045019N0112651N1+01901+01701999999ADDGA1041+003301999GA2071+004501999GF107991999999999999999999MA1102401999999REMMET058METAR SBQV 181800Z 12012KT 9999 SCT011 BKN015 19/17 Q1024;
0130833440999992012081819004-14950-040883FM-15+0914SBQV V0201301N007210018019N0020001N1+01701+01701999999ADDGA1081+001801999GF108991999999999999999999MA1102401999999MW1511REMMET055METAR SBQV 181900Z 13014KT 2000 -DZ OVC006 17/17 Q1024;
0130833440999992012081820004-14950-040883FM-15+0914SBQV V0201201N007710018019N0020001N1+01601+01601999999ADDGA1081+001801999GF108991999999999999999999MA1102511999999MW1511REMMET055METAR SBQV 182000Z 12015KT 2000 -DZ OVC006 16/16 Q1025;
0143833440999992012081821004-14950-040883FM-15+0914SBQV V0201101N006710210019N0112651N1+01501+01501999999ADDGA1021+001801999GA2071+021001999GF107991999999999999999999MA1102511999999REMMET058METAR SBQV 182100Z 11013KT 9999 FEW006 BKN070 15/15 Q1025;
0072833440999992012081822004-14950-040883FM-15+0914SBQV V0201001N006219999999Y0099001N1+01501+01401999999ADDMA1102511999999REMMET045METAR SBQV 182200Z 10012KT CAVOK 15/14 Q1025;
0120833440999992012081902004-14950-040883FM-15+0914SBQV V0201101N003612200019N0112651N1+01501+01501999999ADDGA1041+003001999GF104991999999999999999999MA1102611999999REMMET051METAR SBQV 190200Z 11007KT 9999 SCT010 15/15 Q1026;
0120833440999992012081903004-14950-040883FM-15+0914SBQV V0201201N003612200019N0112651N1+01501+01501999999ADDGA1041+001201999GF104991999999999999999999MA1102511999999REMMET051METAR SBQV 190300Z 12007KT 9999 SCT004 15/15 Q1025;
0120833440999992012081904004-14950-040883FM-15+0914SBQV V0201101N005112200019N0112651N1+01601+01601999999ADDGA1041+001801999GF104991999999999999999999MA1102511999999REMMET051METAR SBQV 190400Z 11010KT 9999 SCT006 16/16 Q1025;
0153833440999992012081911004-14950-040883FM-15+0914SBQV V0201201N005110015019N0050001N1+01601+01601999999ADDGA1071+001501999GA2071+002101999GF107991999999999999999999MA1102611999999MW1611REMMET062METAR SBQV 191100Z 12010KT 5000 -RA BKN005 BKN007 16/16 Q1026;
0143833440999992012081912004-14950-040883FM-15+0914SBQV V0201201N004612200019N0112651N1+01701+01701999999ADDGA1021+002101999GA2041+003301999GF104991999999999999999999MA1102711999999REMMET058METAR SBQV 191200Z 12009KT 9999 FEW007 SCT011 17/17 Q1027;
0120833440999992012081913004-14950-040883FM-15+0914SBQV V0201001N008712200019N0112651N1+02001+01501999999ADDGA1041+004501999GF104991999999999999999999MA1102711999999REMMET051METAR SBQV 191300Z 10017KT 9999 SCT015 20/15 Q1027;
0120833440999992012081914004-14950-040883FM-15+0914SBQV V0201101N006712200019N0112651N1+02001+01601999999ADDGA1041+004501999GF104991999999999999999999MA1102711999999REMMET051METAR SBQV 191400Z 11013KT 9999 SCT015 20/16 Q1027;
0120833440999992012081915004-14950-040883FM-15+0914SBQV V0200901N005110048019N0112651N1+02101+01501999999ADDGA1071+004801999GF107991999999999999999999MA1102611999999REMMET051METAR SBQV 191500Z 09010KT 9999 BKN016 21/15 Q1026;
0120833440999992012081916004-14950-040883FM-15+0914SBQV V0201101N006710048019N0112651N1+02201+01501999999ADDGA1071+004801999GF107991999999999999999999MA1102511999999REMMET051METAR SBQV 191600Z 11013KT 9999 BKN016 22/15 Q1025;
0153833440999992012081917004-14950-040883FM-15+0914SBQV V0200701N006210045019N0050001N1+01801+01701999999ADDGA1071+004501999GA2071+004801999GF107991999999999999999999MA1102511999999MW1611REMMET062METAR SBQV 191700Z 07012KT 5000 -RA BKN015 BKN016 18/17 Q1025;
0120833440999992012081918004-14950-040883FM-15+0914SBQV V0201001N004612200019N0112651N1+01901+01801999999ADDGA1041+004501999GF104991999999999999999999MA1102401999999REMMET051METAR SBQV 191800Z 10009KT 9999 SCT015 19/18 Q1024;
0143833440999992012081919004-14950-040883FM-15+0914SBQV V0201001N004612200019N0112651N1+01901+01801999999ADDGA1041+003601999GA2041+021001999GF104991999999999999999999MA1102401999999REMMET058METAR SBQV 191900Z 10009KT 9999 SCT012 SCT070 19/18 Q1024;
0143833440999992012081920004-14950-040883FM-15+0914SBQV V0201101N004610210019N0112651N1+01901+01701999999ADDGA1041+003601999GA2071+021001999GF107991999999999999999999MA1102401999999REMMET058METAR SBQV 192000Z 11009KT 9999 SCT012 BKN070 19/17 Q1024;
0143833440999992012081921004-14950-040883FM-15+0914SBQV V0201101N004112200019N0112651N1+01701+01701999999ADDGA1041+002101999GA2041+002101999GF104991999999999999999999MA1102401999999REMMET058METAR SBQV 192100Z 11008KT 9999 SCT007 SCT007 17/17 Q1024;
0153833440999992012081922004-14950-040883FM-15+0914SBQV V0201001N003610027019N0070001N1+01701+01701999999ADDGA1021+002101999GA2071+002701999GF107991999999999999999999MA1102511999999MW1611REMMET062METAR SBQV 192200Z 10007KT 7000 -RA FEW007 BKN009 17/17 Q1025;
0130833440999992012081923004-14950-040883FM-15+0914SBQV V0201001N005110021019N0070001N1+01601+01601999999ADDGA1071+002101999GF107991999999999999999999MA1102611999999MW1511REMMET055METAR SBQV 192300Z 10010KT 7000 -DZ BKN007 16/16 Q1026;
0120833440999992012082001004-14950-040883FM-15+0914SBQV V0201201N006710018019N0112651N1+01501+01501999999ADDGA1071+001801999GF107991999999999999999999MA1102711999999REMMET051METAR SBQV 200100Z 12013KT 9999 BKN006 15/15 Q1027;
0139833440999992012082002004-14950-040883FM-15+0914SBQV V0201301N005110015019N0020001N1+01501+01501999999ADDGA1081+001501999GF108991999999999999999999MA1102711999999MW1101MW2511REMMET058METAR SBQV 200200Z 13010KT 2000 -DZ BR OVC005 15/15 Q1027;
0139833440999992012082003004-14950-040883FM-15+0914SBQV V0201301N005710015019N0020001N1+01501+01501999999ADDGA1081+001501999GF108991999999999999999999MA1102611999999MW1101MW2511REMMET058METAR SBQV 200300Z 13011KT 2000 -DZ BR OVC005 15/15 Q1026;
0130833440999992012082011004-14950-040883FM-15+0914SBQV V0201301N006710015019N0070001N1+01501+01501999999ADDGA1081+001501999GF108991999999999999999999MA1102611999999MW1511REMMET055METAR SBQV 201100Z 13013KT 7000 -DZ OVC005 15/15 Q1026;
0143833440999992012082012004-14950-040883FM-15+0914SBQV V0201101N006710210019N0112651N1+01501+01501999999ADDGA1041+002101999GA2071+021001999GF107991999999999999999999MA1102811999999REMMET058METAR SBQV 201200Z 11013KT 9999 SCT007 BKN070 15/15 Q1028;
0120833440999992012082013004-14950-040883FM-15+0914SBQV V0201301N007210045019N0112651N1+01701+01701999999ADDGA1071+004501999GF107991999999999999999999MA1102811999999REMMET051METAR SBQV 201300Z 13014KT 9999 BKN015 17/17 Q1028;
0120833440999992012082014004-14950-040883FM-15+0914SBQV V0201001N007710045019N0112651N1+01701+01701999999ADDGA1071+004501999GF107991999999999999999999MA1102811999999REMMET051METAR SBQV 201400Z 10015KT 9999 BKN015 17/17 Q1028;
0143833440999992012082015004-14950-040883FM-15+0914SBQV V0201001N006212200019N0112651N1+01701+01601999999ADDGA1041+005401999GA2041+024001999GF104991999999999999999999MA1102711999999REMMET058METAR SBQV 201500Z 10012KT 9999 SCT018 SCT080 17/16 Q1027;
0120833440999992012082016004-14950-040883FM-15+0914SBQV V0201201N006712200019N0112651N1+02001+01601999999ADDGA1041+006001999GF104991999999999999999999MA1102611999999REMMET051METAR SBQV 201600Z 12013KT 9999 SCT020 20/16 Q1026;
0120833440999992012082017004-14950-040883FM-15+0914SBQV V0201001N005712200019N0112651N1+02101+01601999999ADDGA1041+006001999GF104991999999999999999999MA1102611999999REMMET051METAR SBQV 201700Z 10011KT 9999 SCT020 21/16 Q1026;
0120833440999992012082018004-14950-040883FM-15+0914SBQV V0201301N007212200019N0112651N1+02101+01501999999ADDGA1041+006001999GF104991999999999999999999MA1102511999999REMMET051METAR SBQV 201800Z 13014KT 9999 SCT020 21/15 Q1025;
0120833440999992012082019004-14950-040883FM-15+0914SBQV V0201301N007212200019N0112651N1+02101+01501999999ADDGA1021+006001999GF102991999999999999999999MA1102511999999REMMET051METAR SBQV 201900Z 13014KT 9999 FEW020 21/15 Q1025;
0137833440999992012082020004-14950-040883FM-15+0914SBQV V0201201N006710048019N0112651N1+02001+01501999999ADDGA1071+004801999GF107991999999999999999999MA1102511999999MW1611REMMET062METAR SBQV 202000Z 12013KT 9999 4000SE -RA BKN016 20/15 Q1025;
0160833440999992012082021004-14950-040883FM-15+0914SBQV V0201201N007210024019N0060001N1+01701+01601999999ADDGA1041+001801999GA2071+002401999GF107991999999999999999999MA1102511999999MW1511REMMET069METAR SBQV 202100Z 12014KT 6000 1600SE -DZ SCT006 BKN008 17/16 Q1025;
0120833440999992012082022004-14950-040883FM-15+0914SBQV V0201101N006710021019N0112651N1+01601+01601999999ADDGA1071+002101999GF107991999999999999999999MA1102611999999REMMET051METAR SBQV 202200Z 11013KT 9999 BKN007 16/16 Q1026;
0120833440999992012082111004-14950-040883FM-15+0914SBQV V0201301N005710030019N0112651N1+01601+01501999999ADDGA1071+003001999GF107991999999999999999999MA1102711999999REMMET051METAR SBQV 211100Z 13011KT 9999 BKN010 16/15 Q1027;
0120833440999992012082112004-14950-040883FM-15+0914SBQV V0201301N005710036019N0112651N1+01701+01601999999ADDGA1071+003601999GF107991999999999999999999MA1102811999999REMMET051METAR SBQV 211200Z 13011KT 9999 BKN012 17/16 Q1028;
0120833440999992012082113004-14950-040883FM-15+0914SBQV V0201101N006210045019N0112651N1+01801+01601999999ADDGA1071+004501999GF107991999999999999999999MA1102811999999REMMET051METAR SBQV 211300Z 11012KT 9999 BKN015 18/16 Q1028;
0120833440999992012082114004-14950-040883FM-15+0914SBQV V0201001N006210048019N0112651N1+02001+01401999999ADDGA1071+004801999GF107991999999999999999999MA1102811999999REMMET051METAR SBQV 211400Z 10012KT 9999 BKN016 20/14 Q1028;
0120833440999992012082115004-14950-040883FM-15+0914SBQV V0201001N006210048019N0112651N1+02001+01401999999ADDGA1071+004801999GF107991999999999999999999MA1102811999999REMMET051METAR SBQV 211500Z 10012KT 9999 BKN016 20/14 Q1028;
0120833440999992012082116004-14950-040883FM-15+0914SBQV V0201101N006210054019N0112651N1+02201+01301999999ADDGA1071+005401999GF107991999999999999999999MA1102611999999REMMET051METAR SBQV 211600Z 11012KT 9999 BKN018 22/13 Q1026;
0120833440999992012082117004-14950-040883FM-15+0914SBQV V0201101N005710054019N0112651N1+02201+01501999999ADDGA1071+005401999GF107991999999999999999999MA1102511999999REMMET051METAR SBQV 211700Z 11011KT 9999 BKN018 22/15 Q1025;
0120833440999992012082118004-14950-040883FM-15+0914SBQV V0201301N004612200019N0112651N1+02301+01401999999ADDGA1021+006001999GF102991999999999999999999MA1102401999999REMMET051METAR SBQV 211800Z 13009KT 9999 FEW020 23/14 Q1024;
0120833440999992012082119004-14950-040883FM-15+0914SBQV V0201101N005712200019N0112651N1+02301+01301999999ADDGA1021+006001999GF102991999999999999999999MA1102401999999REMMET051METAR SBQV 211900Z 11011KT 9999 FEW020 23/13 Q1024;
0120833440999992012082120004-14950-040883FM-15+0914SBQV V0201201N006212200019N0112651N1+02201+01501999999ADDGA1021+005401999GF102991999999999999999999MA1102511999999REMMET051METAR SBQV 212000Z 12012KT 9999 FEW018 22/15 Q1025;
0143833440999992012082121004-14950-040883FM-15+0914SBQV V0201201N004110210019N0112651N1+01801+01701999999ADDGA1021+003601999GA2071+021001999GF107991999999999999999999MA1102511999999REMMET058METAR SBQV 212100Z 12008KT 9999 FEW012 BKN070 18/17 Q1025;
0120833440999992012082122004-14950-040883FM-15+0914SBQV V0201301N004110039019N0112651N1+01701+01701999999ADDGA1071+003901999GF107991999999999999999999MA1102511999999REMMET051METAR SBQV 212200Z 13008KT 9999 BKN013 17/17 Q1025;
0120833440999992012082123004-14950-040883FM-15+0914SBQV V0201201N004110030019N0112651N1+01701+01701999999ADDGA1071+003001999GF107991999999999999999999MA1102611999999REMMET051METAR SBQV 212300Z 12008KT 9999 BKN010 17/17 Q1026;
0165833440999992012082211004-14950-040883FM-15+0914SBQV V0201201N006710018019N0060001N1+01601+01601999999ADDGA1071+001801999GA2071+021001999GF107991999999999999999999MA1102611999999MW1511REMMET074METAR SBQV 221100Z 12013KT 6000 1000SE -DZ BKN006 BKN070 16/16 Q1026 REDZ;
0160833440999992012082212004-14950-040883FM-15+0914SBQV V0201301N007210021019N0070001N1+01601+01601999999ADDGA1071+002101999GA2071+021001999GF107991999999999999999999MA1102711999999MW1511REMMET069METAR SBQV 221200Z 13014KT 7000 3000SE -DZ BKN007 BKN070 16/16 Q1027;
0176833440999992012082213004-14950-040883FM-15+0914SBQV V0201201N008710030019N0060001N1+01601+01601999999ADDGA1041+001801999GA2071+003001999GA3071+021001999GF107991999999999999999999MA1102711999999MW1511REMMET069METAR SBQV 221300Z 12017KT 6000 -DZ SCT006 BKN010 BKN070 16/16 Q1027;
0166833440999992012082214004-14950-040883FM-15+0914SBQV V0201301N007710024019N0112651N1+01601+01601999999ADDGA1021+001801999GA2071+002401999GA3071+021001999GF107991999999999999999999MA1102711999999REMMET065METAR SBQV 221400Z 13015KT 9999 FEW006 BKN008 BKN070 16/16 Q1027;
0153833440999992012082215004-14950-040883FM-15+0914SBQV V0201301N008210027019N0080001N1+01701+01601999999ADDGA1071+002701999GA2071+021001999GF107991999999999999999999MA1102611999999MW1511REMMET062METAR SBQV 221500Z 13016KT 8000 -DZ BKN009 BKN070 17/16 Q1026;
0143833440999992012082216004-14950-040883FM-15+0914SBQV V0201301N006210045019N0112651N1+01901+01501999999ADDGA1071+004501999GA2071+021001999GF107991999999999999999999MA1102611999999REMMET058METAR SBQV 221600Z 13012KT 9999 BKN015 BKN070 19/15 Q1026;
0136833440999992012082217004-14950-040883FM-15+0914SBQV V0201301N00671004501CN0112651N1+01801+01601999999ADDGA1071+004501999GA2041+021001999MA1102511999999REMMET058METAR SBQV 221700Z 13013KT 9999 BKN015 SCT070 18/16 Q1025;EQDQ01+000042SCOTCV
0128833440999992012082218004-14950-040883FM-15+0914SBQV V0201301N006712200019N0013011N1+01701+01601999999ADDGA1041+002401999GF104991999999999999999999MA1102501999999REMMET059METAR SBQV 221800Z 13013KT 13013KT 9999 SCT008 17/16 Q1025;
0120833440999992012082219004-14950-040883FM-15+0914SBQV V0201201N007212200019N0112651N1+01801+01601999999ADDGA1041+002401999GF104991999999999999999999MA1102511999999REMMET051METAR SBQV 221900Z 12014KT 9999 SCT008 18/16 Q1025;
0136833440999992012082220004-14950-040883FM-15+0914SBQV V0201301N00771002401CN0112651N1+01801+01501999999ADDGA1071+002401999GA2041+021001999MA1102511999999REMMET058METAR SBQV 222000Z 13015KT 9999 BKN008 SCT070 18/15 Q1025;EQDQ01+000042SCOTCV
0136833440999992012082221004-14950-040883FM-15+0914SBQV V0201301N00671001801CN0112651N1+01601+01501999999ADDGA1071+001801999GA2041+021001999MA1102511999999REMMET058METAR SBQV 222100Z 13013KT 9999 BKN006 SCT070 16/15 Q1025;EQDQ01+000042SCOTCV
0136833440999992012082222004-14950-040883FM-15+0914SBQV V0201201N00511001801CN0112651N1+01601+01601999999ADDGA1071+001801999GA2041+021001999MA1102611999999REMMET058METAR SBQV 222200Z 12010KT 9999 BKN006 SCT070 16/16 Q1026;EQDQ01+000042SCOTCV
0120833440999992012082311004-14950-040883FM-15+0914SBQV V0201101N004110033019N0112651N1+01701+01401999999ADDGA1071+003301999GF107991999999999999999999MA1102611999999REMMET051METAR SBQV 231100Z 11008KT 9999 BKN011 17/14 Q1026;
0120833440999992012082312004-14950-040883FM-15+0914SBQV V0201101N005710039019N0112651N1+01801+01501999999ADDGA1071+003901999GF107991999999999999999999MA1102711999999REMMET051METAR SBQV 231200Z 11011KT 9999 BKN013 18/15 Q1027;
0120833440999992012082313004-14950-040883FM-15+0914SBQV V0201101N005710045019N0112651N1+01901+01601999999ADDGA1071+004501999GF107991999999999999999999MA1102711999999REMMET051METAR SBQV 231300Z 11011KT 9999 BKN015 19/16 Q1027;
0120833440999992012082314004-14950-040883FM-15+0914SBQV V0201001N005710048019N0112651N1+01901+01601999999ADDGA1071+004801999GF107991999999999999999999MA1102711999999REMMET051METAR SBQV 231400Z 10011KT 9999 BKN016 19/16 Q1027;
0120833440999992012082315004-14950-040883FM-15+0914SBQV V0201201N007210048019N0112651N1+02101+01601999999ADDGA1071+004801999GF107991999999999999999999MA1102611999999REMMET051METAR SBQV 231500Z 12014KT 9999 BKN016 21/16 Q1026;
0120833440999992012082316004-14950-040883FM-15+0914SBQV V0201101N006210048019N0112651N1+02201+01601999999ADDGA1071+004801999GF107991999999999999999999MA1102511999999REMMET051METAR SBQV 231600Z 11012KT 9999 BKN016 22/16 Q1025;
0120833440999992012082317004-14950-040883FM-15+0914SBQV V0201101N006710048019N0112651N1+02201+01601999999ADDGA1071+004801999GF107991999999999999999999MA1102401999999REMMET051METAR SBQV 231700Z 11013KT 9999 BKN016 22/16 Q1024;
0166833440999992012082318004-14950-040883FM-15+0914SBQV V0200901N00621004501CN0112651N1+01801+01701999999ADDGA1021+003001999GA2041+004501999GA3071+024001999GF107991999999999999999999MA1102401999999REMMET065METAR SBQV 231800Z 09012KT 9999 FEW010 SCT015 BKN080 18/17 Q1024;
0143833440999992012082319004-14950-040883FM-15+0914SBQV V0201301N004610210019N0112651N1+01901+01601999999ADDGA1041+004501999GA2071+021001999GF107991999999999999999999MA1102401999999REMMET058METAR SBQV 231900Z 13009KT 9999 SCT015 BKN070 19/16 Q1024;
0143833440999992012082320004-14950-040883FM-15+0914SBQV V0201001N005712200019N0112651N1+01901+01501999999ADDGA1021+004501999GA2041+021001999GF104991999999999999999999MA1102401999999REMMET058METAR SBQV 232000Z 10011KT 9999 FEW015 SCT070 19/15 Q1024;
0143833440999992012082321004-14950-040883FM-15+0914SBQV V0201201N004112200019N0112651N1+01701+01601999999ADDGA1021+003901999GA2041+021001999GF104991999999999999999999MA1102401999999REMMET058METAR SBQV 232100Z 12008KT 9999 FEW013 SCT070 17/16 Q1024;
0120833440999992012082322004-14950-040883FM-15+0914SBQV V0201201N004112200019N0112651N1+01601+01601999999ADDGA1021+002101999GF102991999999999999999999MA1102401999999REMMET051METAR SBQV 232200Z 12008KT 9999 FEW007 16/16 Q1024;
0120833440999992012082411004-14950-040883FM-15+0914SBQV V0201001N004612200019N0112651N1+01701+01601999999ADDGA1041+003001999GF104991999999999999999999MA1102511999999REMMET051METAR SBQV 241100Z 10009KT 9999 SCT010 17/16 Q1025;
0120833440999992012082412004-14950-040883FM-15+0914SBQV V0201201N004612200019N0112651N1+01801+01601999999ADDGA1041+003301999GF104991999999999999999999MA1102611999999REMMET051METAR SBQV 241200Z 12009KT 9999 SCT011 18/16 Q1026;
0120833440999992012082413004-14950-040883FM-15+0914SBQV V0201101N005112200019N0112651N1+02101+01701999999ADDGA1041+003601999GF104991999999999999999999MA1102611999999REMMET051METAR SBQV 241300Z 11010KT 9999 SCT012 21/17 Q1026;
0120833440999992012082414004-14950-040883FM-15+0914SBQV V0201101N006210045019N0112651N1+02101+01701999999ADDGA1071+004501999GF107991999999999999999999MA1102511999999REMMET051METAR SBQV 241400Z 11012KT 9999 BKN015 21/17 Q1025;
0143833440999992012082415004-14950-040883FM-15+0914SBQV V0201101N006212200019N0112651N1+01801+01801999999ADDGA1041+003601999GA2041+004501999GF104991999999999999999999MA1102511999999REMMET058METAR SBQV 241500Z 11012KT 9999 SCT012 SCT015 18/18 Q1025;
0143833440999992012082416004-14950-040883FM-15+0914SBQV V0201101N007710048019N0112651N1+02201+01701999999ADDGA1021+004501999GA2071+004801999GF107991999999999999999999MA1102401999999REMMET058METAR SBQV 241600Z 11015KT 9999 FEW015 BKN016 22/17 Q1024;
0164833440999992012082417004-14950-040883FM-15+0914SBQV V0201101N005710048019N0080001N1+01901+01701999999ADDGA1041+004501999GA2071+004801999GF107991999999999999999999MA1102301999999MW1611OC101131REMMET065METAR SBQV 241700Z 11011G22KT 8000 -RA SCT015 BKN016 19/17 Q1023;
0143833440999992012082418004-14950-040883FM-15+0914SBQV V0201201N007210210019N0112651N1+02101+01701999999ADDGA1041+004501999GA2071+021001999GF107991999999999999999999MA1102301999999REMMET058METAR SBQV 241800Z 12014KT 9999 SCT015 BKN070 21/17 Q1023;
0143833440999992012082419004-14950-040883FM-15+0914SBQV V0201101N008710210019N0112651N1+02101+01501999999ADDGA1041+004501999GA2071+021001999GF107991999999999999999999MA1102301999999REMMET058METAR SBQV 241900Z 11017KT 9999 SCT015 BKN070 21/15 Q1023;
0143833440999992012082420004-14950-040883FM-15+0914SBQV V0201101N007710210019N0112651N1+02001+01501999999ADDGA1021+004501999GA2071+021001999GF107991999999999999999999MA1102301999999REMMET058METAR SBQV 242000Z 11015KT 9999 FEW015 BKN070 20/15 Q1023;
0143833440999992012082421004-14950-040883FM-15+0914SBQV V0201101N006710210019N0112651N1+01801+01601999999ADDGA1021+003001999GA2071+021001999GF107991999999999999999999MA1102401999999REMMET058METAR SBQV 242100Z 11013KT 9999 FEW010 BKN070 18/16 Q1024;
0072833440999992012082422004-14950-040883FM-15+0914SBQV V0201101N006719999999Y0099001N1+01701+01501999999ADDMA1102401999999REMMET045METAR SBQV 242200Z 11013KT CAVOK 17/15 Q1024;
0120833440999992012082511004-14950-040883FM-15+0914SBQV V0201201N006210033019N0112651N1+01601+01401999999ADDGA1071+003301999GF107991999999999999999999MA1102511999999REMMET051METAR SBQV 251100Z 12012KT 9999 BKN011 16/14 Q1025;
0143833440999992012082512004-14950-040883FM-15+0914SBQV V0201101N007210045019N0112651N1+01801+01401999999ADDGA1021+003601999GA2071+004501999GF107991999999999999999999MA1102511999999REMMET058METAR SBQV 251200Z 11014KT 9999 FEW012 BKN015 18/14 Q1025;
0120833440999992012082513004-14950-040883FM-15+0914SBQV V0201001N007210054019N0112651N1+02001+01301999999ADDGA1071+005401999GF107991999999999999999999MA1102611999999REMMET051METAR SBQV 251300Z 10014KT 9999 BKN018 20/13 Q1026;
0120833440999992012082514004-14950-040883FM-15+0914SBQV V0201001N007212200019N0112651N1+02101+01301999999ADDGA1041+006001999GF104991999999999999999999MA1102511999999REMMET051METAR SBQV 251400Z 10014KT 9999 SCT020 21/13 Q1025;
0120833440999992012082515004-14950-040883FM-15+0914SBQV V0201301N007212200019N0112651N1+02301+01201999999ADDGA1041+007501999GF104991999999999999999999MA1102401999999REMMET051METAR SBQV 251500Z 13014KT 9999 SCT025 23/12 Q1024;
0120833440999992012082516004-14950-040883FM-15+0914SBQV V0201201N006712200019N0112651N1+02301+01201999999ADDGA1041+007501999GF104991999999999999999999MA1102401999999REMMET051METAR SBQV 251600Z 12013KT 9999 SCT025 23/12 Q1024;
0120833440999992012082517004-14950-040883FM-15+0914SBQV V0201201N006712200019N0112651N1+02301+01301999999ADDGA1041+007501999GF104991999999999999999999MA1102301999999REMMET051METAR SBQV 251700Z 12013KT 9999 SCT025 23/13 Q1023;
0120833440999992012082518004-14950-040883FM-15+0914SBQV V0201101N006712200019N0112651N1+02301+01301999999ADDGA1021+007501999GF102991999999999999999999MA1102201999999REMMET051METAR SBQV 251800Z 11013KT 9999 FEW025 23/13 Q1022;
0120833440999992012082519004-14950-040883FM-15+0914SBQV V0201001N006712200019N0112651N1+02301+01201999999ADDGA1021+007501999GF102991999999999999999999MA1102201999999REMMET051METAR SBQV 251900Z 10013KT 9999 FEW025 23/12 Q1022;
0120833440999992012082520004-14950-040883FM-15+0914SBQV V0201201N005712200019N0112651N1+02201+01201999999ADDGA1021+006001999GF102991999999999999999999MA1102301999999REMMET051METAR SBQV 252000Z 12011KT 9999 FEW020 22/12 Q1023;
0120833440999992012082521004-14950-040883FM-15+0914SBQV V0201101N004112200019N0112651N1+02001+01301999999ADDGA1021+005401999GF102991999999999999999999MA1102301999999REMMET051METAR SBQV 252100Z 11008KT 9999 FEW018 20/13 Q1023;
0072833440999992012082522004-14950-040883FM-15+0914SBQV V0201001N003119999999Y0099001N1+01801+01301999999ADDMA1102301999999REMMET045METAR SBQV 252200Z 10006KT CAVOK 18/13 Q1023;
0072833440999992012082602004-14950-040883FM-15+0914SBQV V0201201N002619999999Y0099001N1+01401+01401999999ADDMA1102511999999REMMET045METAR SBQV 260200Z 12005KT CAVOK 14/14 Q1025;
0120833440999992012082603004-14950-040883FM-15+0914SBQV V0201001N002112200019N0112651N1+01401+01401999999ADDGA1021+002101999GF102991999999999999999999MA1102511999999REMMET051METAR SBQV 260300Z 10004KT 9999 FEW007 14/14 Q1025;
0072833440999992012082604004-14950-040883FM-15+0914SBQV V0201201N003619999999Y0099001N1+01401+01401999999ADDMA1102401999999REMMET045METAR SBQV 260400Z 12007KT CAVOK 14/14 Q1024;
0120833440999992012082610004-14950-040883FM-15+0914SBQV V0201001N004610027019N0112651N1+01401+01401999999ADDGA1071+002701999GF107991999999999999999999MA1102511999999REMMET051METAR SBQV 261000Z 10009KT 9999 BKN009 14/14 Q1025;
0120833440999992012082611004-14950-040883FM-15+0914SBQV V0201101N004610030019N0112651N1+01601+01401999999ADDGA1071+003001999GF107991999999999999999999MA1102511999999REMMET051METAR SBQV 261100Z 11009KT 9999 BKN010 16/14 Q1025;
0120833440999992012082612004-14950-040883FM-15+0914SBQV V0200901N004612200019N0112651N1+01901+01401999999ADDGA1021+004501999GF102991999999999999999999MA1102611999999REMMET051METAR SBQV 261200Z 09009KT 9999 FEW015 19/14 Q1026;
0120833440999992012082613004-14950-040883FM-15+0914SBQV V0201001N005112200019N0112651N1+02101+01301999999ADDGA1021+005401999GF102991999999999999999999MA1102611999999REMMET051METAR SBQV 261300Z 10010KT 9999 FEW018 21/13 Q1026;
0120833440999992012082614004-14950-040883FM-15+0914SBQV V0201001N005712200019N0112651N1+02301+01101999999ADDGA1041+007501999GF104991999999999999999999MA1102611999999REMMET051METAR SBQV 261400Z 10011KT 9999 SCT025 23/11 Q1026;
0120833440999992012082615004-14950-040883FM-15+0914SBQV V0200901N004112200019N0112651N1+02301+01101999999ADDGA1021+007501999GF102991999999999999999999MA1102511999999REMMET051METAR SBQV 261500Z 09008KT 9999 FEW025 23/11 Q1025;
0120833440999992012082616004-14950-040883FM-15+0914SBQV V0201101N004612200019N0112651N1+02401+01101999999ADDGA1021+009001999GF102991999999999999999999MA1102401999999REMMET051METAR SBQV 261600Z 11009KT 9999 FEW030 24/11 Q1024;
0120833440999992012082617004-14950-040883FM-15+0914SBQV V0201201N004112200019N0112651N1+02401+01201999999ADDGA1041+009001999GF104991999999999999999999MA1102301999999REMMET051METAR SBQV 261700Z 12008KT 9999 SCT030 24/12 Q1023;
0120833440999992012082618004-14950-040883FM-15+0914SBQV V0200901N003612200019N0112651N1+02401+01101999999ADDGA1041+009001999GF104991999999999999999999MA1102301999999REMMET051METAR SBQV 261800Z 09007KT 9999 SCT030 24/11 Q1023;
0120833440999992012082619004-14950-040883FM-15+0914SBQV V0200901N004112200019N0112651N1+02401+01201999999ADDGA1021+009001999GF102991999999999999999999MA1102301999999REMMET051METAR SBQV 261900Z 09008KT 9999 FEW030 24/12 Q1023;
0120833440999992012082620004-14950-040883FM-15+0914SBQV V0201101N006212200019N0112651N1+02201+01301999999ADDGA1021+007501999GF102991999999999999999999MA1102301999999REMMET051METAR SBQV 262000Z 11012KT 9999 FEW025 22/13 Q1023;
0120833440999992012082621004-14950-040883FM-15+0914SBQV V0201101N005112200019N0112651N1+02001+01301999999ADDGA1021+005401999GF102991999999999999999999MA1102401999999REMMET051METAR SBQV 262100Z 11010KT 9999 FEW018 20/13 Q1024;
0120833440999992012082622004-14950-040883FM-15+0914SBQV V0201001N004112200019N0112651N1+01901+01301999999ADDGA1021+004501999GF102991999999999999999999MA1102401999999REMMET051METAR SBQV 262200Z 10008KT 9999 FEW015 19/13 Q1024;
0072833440999992012082701004-14950-040883FM-15+0914SBQV V0201201N001519999999Y0099001N1+01501+01301999999ADDMA1102611999999REMMET045METAR SBQV 270100Z 12003KT CAVOK 15/13 Q1026;
0120833440999992012082706004-14950-040883FM-15+0914SBQV V0200801N004112200019N0112651N1+01401+01301999999ADDGA1021+001201999GF102991999999999999999999MA1102401999999REMMET051METAR SBQV 270600Z 08008KT 9999 FEW004 14/13 Q1024;
0072833440999992012082707004-14950-040883FM-15+0914SBQV V0200901N004119999999Y0099001N1+01301+01301999999ADDMA1102401999999REMMET045METAR SBQV 270700Z 09008KT CAVOK 13/13 Q1024;
0128833440999992012082710004-14950-040883FM-15+0914SBQV V0200901N004110003019N0009001N1+01401+01401999999ADDGA1091+000301999GF109991999999000251999999MA1102511999999MW1451REMMET053METAR SBQV 271000Z 09008KT 0900 FG VV001 14/14 Q1025;
0120833440999992012082711004-14950-040883FM-15+0914SBQV V0201101N004112200019N0112651N1+01501+01501999999ADDGA1041+002701999GF104991999999999999999999MA1102611999999REMMET051METAR SBQV 271100Z 11008KT 9999 SCT009 15/15 Q1026;
0120833440999992012082712004-14950-040883FM-15+0914SBQV V0201001N004612200019N0112651N1+01801+01501999999ADDGA1041+003601999GF104991999999999999999999MA1102711999999REMMET051METAR SBQV 271200Z 10009KT 9999 SCT012 18/15 Q1027;
0120833440999992012082713004-14950-040883FM-15+0914SBQV V0200801N004610048019N0112651N1+02001+01401999999ADDGA1071+004801999GF107991999999999999999999MA1102711999999REMMET051METAR SBQV 271300Z 08009KT 9999 BKN016 20/14 Q1027;
0120833440999992012082714004-14950-040883FM-15+0914SBQV V0200801N003612200019N0112651N1+02201+01401999999ADDGA1021+007501999GF102991999999999999999999MA1102611999999REMMET051METAR SBQV 271400Z 08007KT 9999 FEW025 22/14 Q1026;
0120833440999992012082715004-14950-040883FM-15+0914SBQV V0200701N004112200019N0112651N1+02301+01301999999ADDGA1041+007501999GF104991999999999999999999MA1102511999999REMMET051METAR SBQV 271500Z 07008KT 9999 SCT025 23/13 Q1025;
0120833440999992012082716004-14950-040883FM-15+0914SBQV V0200901N003612200019N0112651N1+02401+01301999999ADDGA1021+007501999GF102991999999999999999999MA1102401999999REMMET051METAR SBQV 271600Z 09007KT 9999 FEW025 24/13 Q1024;
0120833440999992012082717004-14950-040883FM-15+0914SBQV V0201401N005712200019N0112651N1+02501+01401999999ADDGA1021+007501999GF102991999999999999999999MA1102301999999REMMET051METAR SBQV 271700Z 14011KT 9999 FEW025 25/14 Q1023;
0120833440999992012082718004-14950-040883FM-15+0914SBQV V0201201N005112200019N0112651N1+02401+01401999999ADDGA1041+007501999GF104991999999999999999999MA1102201999999REMMET051METAR SBQV 271800Z 12010KT 9999 SCT025 24/14 Q1022;
0120833440999992012082719004-14950-040883FM-15+0914SBQV V0201001N005112200019N0112651N1+02401+01301999999ADDGA1021+007501999GF102991999999999999999999MA1102201999999REMMET051METAR SBQV 271900Z 10010KT 9999 FEW025 24/13 Q1022;
0120833440999992012082720004-14950-040883FM-15+0914SBQV V0201001N005712200019N0112651N1+02301+01401999999ADDGA1041+007501999GF104991999999999999999999MA1102201999999REMMET051METAR SBQV 272000Z 10011KT 9999 SCT025 23/14 Q1022;
0120833440999992012082721004-14950-040883FM-15+0914SBQV V0201001N005112200019N0112651N1+02101+01401999999ADDGA1021+005401999GF102991999999999999999999MA1102201999999REMMET051METAR SBQV 272100Z 10010KT 9999 FEW018 21/14 Q1022;
0072833440999992012082722004-14950-040883FM-15+0914SBQV V0201201N004619999999Y0099001N1+01901+01501999999ADDMA1102301999999REMMET045METAR SBQV 272200Z 12009KT CAVOK 19/15 Q1023;
0120833440999992012082811004-14950-040883FM-15+0914SBQV V0200601N004112200019N0112651N1+01901+01501999999ADDGA1041+003901999GF104991999999999999999999MA1102511999999REMMET051METAR SBQV 281100Z 06008KT 9999 SCT013 19/15 Q1025;
0120833440999992012082812004-14950-040883FM-15+0914SBQV V0200701N004112200019N0112651N1+02001+01501999999ADDGA1021+004501999GF102991999999999999999999MA1102611999999REMMET051METAR SBQV 281200Z 07008KT 9999 FEW015 20/15 Q1026;
0120833440999992012082813004-14950-040883FM-15+0914SBQV V0200501N002112200019N0112651N1+02201+01501999999ADDGA1021+005401999GF102991999999999999999999MA1102611999999REMMET051METAR SBQV 281300Z 05004KT 9999 FEW018 22/15 Q1026;
0120833440999992012082814004-14950-040883FM-15+0914SBQV V0200301N002612200019N0112651N1+02401+01401999999ADDGA1021+006001999GF102991999999999999999999MA1102511999999REMMET051METAR SBQV 281400Z 03005KT 9999 FEW020 24/14 Q1025;
0120833440999992012082815004-14950-040883FM-15+0914SBQV V0200701N002610075019N0112651N1+02501+01301999999ADDGA1071+007501999GF107991999999999999999999MA1102401999999REMMET051METAR SBQV 281500Z 07005KT 9999 BKN025 25/13 Q1024;
0120833440999992012082816004-14950-040883FM-15+0914SBQV V0201201N005110075019N0112651N1+02401+01601999999ADDGA1071+007501999GF107991999999999999999999MA1102201999999REMMET051METAR SBQV 281600Z 12010KT 9999 BKN025 24/16 Q1022;
0120833440999992012082817004-14950-040883FM-15+0914SBQV V0201101N005110075019N0112651N1+02501+01501999999ADDGA1071+007501999GF107991999999999999999999MA1102101999999REMMET051METAR SBQV 281700Z 11010KT 9999 BKN025 25/15 Q1021;
0120833440999992012082818004-14950-040883FM-15+0914SBQV V0200901N004612200019N0112651N1+02601+01401999999ADDGA1041+007501999GF104991999999999999999999MA1102101999999REMMET051METAR SBQV 281800Z 09009KT 9999 SCT025 26/14 Q1021;
0120833440999992012082819004-14950-040883FM-15+0914SBQV V0201001N004612200019N0112651N1+02501+01301999999ADDGA1041+007501999GF104991999999999999999999MA1102101999999REMMET051METAR SBQV 281900Z 10009KT 9999 SCT025 25/13 Q1021;
0120833440999992012082820004-14950-040883FM-15+0914SBQV V0201001N005712200019N0112651N1+02301+01301999999ADDGA1021+006001999GF102991999999999999999999MA1102101999999REMMET051METAR SBQV 282000Z 10011KT 9999 FEW020 23/13 Q1021;
0120833440999992012082821004-14950-040883FM-15+0914SBQV V0201001N004112200019N0112651N1+02201+01401999999ADDGA1021+004801999GF102991999999999999999999MA1102101999999REMMET051METAR SBQV 282100Z 10008KT 9999 FEW016 22/14 Q1021;
0120833440999992012082822004-14950-040883FM-15+0914SBQV V0200801N005112200019N0112651N1+02101+01601999999ADDGA1021+004501999GF102991999999999999999999MA1102201999999REMMET051METAR SBQV 282200Z 08010KT 9999 FEW015 21/16 Q1022;
0072833440999992012082911004-14950-040883FM-15+0914SBQV V0201301N001519999999Y0099001N1+01801+01501999999ADDMA1102201999999REMMET045METAR SBQV 291100Z 13003KT CAVOK 18/15 Q1022;
0072833440999992012082912004-14950-040883FM-15+0914SBQV V0203601N001019999999Y0099001N1+02101+01501999999ADDMA1102301999999REMMET045METAR SBQV 291200Z 36002KT CAVOK 21/15 Q1023;
0072833440999992012082913004-14950-040883FM-15+0914SBQV V0200301N002119999999Y0099001N1+02401+01501999999ADDMA1102301999999REMMET045METAR SBQV 291300Z 03004KT CAVOK 24/15 Q1023;
0120833440999992012082914004-14950-040883FM-15+0914SBQV V0201001N002112200019N0112651N1+02501+01401999999ADDGA1021+004801999GF102991999999999999999999MA1102201999999REMMET051METAR SBQV 291400Z 10004KT 9999 FEW016 25/14 Q1022;
0120833440999992012082915004-14950-040883FM-15+0914SBQV V0200101N002112200019N0112651N1+02701+01401999999ADDGA1021+007501999GF102991999999999999999999MA1102101999999REMMET051METAR SBQV 291500Z 01004KT 9999 FEW025 27/14 Q1021;
0120833440999992012082916004-14950-040883FM-15+0914SBQV V0203201N001512200019N0112651N1+02801+01301999999ADDGA1041+007501999GF104991999999999999999999MA1102001999999REMMET051METAR SBQV 291600Z 32003KT 9999 SCT025 28/13 Q1020;
0120833440999992012082917004-14950-040883FM-15+0914SBQV V0201001N002612200019N0112651N1+02701+01401999999ADDGA1041+009001999GF104991999999999999999999MA1101901999999REMMET051METAR SBQV 291700Z 10005KT 9999 SCT030 27/14 Q1019;
0120833440999992012082918004-14950-040883FM-15+0914SBQV V0201201N004610090019N0112651N1+02701+01701999999ADDGA1071+009001999GF107991999999999999999999MA1101801999999REMMET051METAR SBQV 291800Z 12009KT 9999 BKN030 27/17 Q1018;
0120833440999992012082919004-14950-040883FM-15+0914SBQV V0201101N005110090019N0112651N1+02701+01701999999ADDGA1071+009001999GF107991999999999999999999MA1101801999999REMMET051METAR SBQV 291900Z 11010KT 9999 BKN030 27/17 Q1018;
0120833440999992012082920004-14950-040883FM-15+0914SBQV V0201101N006210075019N0112651N1+02501+01601999999ADDGA1071+007501999GF107991999999999999999999MA1101901999999REMMET051METAR SBQV 292000Z 11012KT 9999 BKN025 25/16 Q1019;
0120833440999992012082921004-14950-040883FM-15+0914SBQV V0201001N004112200019N0112651N1+02301+01601999999ADDGA1021+004501999GF102991999999999999999999MA1102001999999REMMET051METAR SBQV 292100Z 10008KT 9999 FEW015 23/16 Q1020;
0072833440999992012082922004-14950-040883FM-15+0914SBQV V0200901N004119999999Y0099001N1+02101+01601999999ADDMA1102001999999REMMET045METAR SBQV 292200Z 09008KT CAVOK 21/16 Q1020;
0072833440999992012082923004-14950-040883FM-15+0914SBQV V0200601N005719999999Y0099001N1+02101+01601999999ADDMA1102101999999REMMET045METAR SBQV 292300Z 06011KT CAVOK 21/16 Q1021;
0120833440999992012083011004-14950-040883FM-15+0914SBQV V0201001N004112200019N0112651N1+01901+01701999999ADDGA1021+004801999GF102991999999999999999999MA1102301999999REMMET051METAR SBQV 301100Z 10008KT 9999 FEW016 19/17 Q1023;
0120833440999992012083012004-14950-040883FM-15+0914SBQV V0201001N004112200019N0112651N1+02101+01601999999ADDGA1021+006001999GF102991999999999999999999MA1102401999999REMMET051METAR SBQV 301200Z 10008KT 9999 FEW020 21/16 Q1024;
0120833440999992012083013004-14950-040883FM-15+0914SBQV V0200701N004612200019N0112651N1+02301+01601999999ADDGA1021+009001999GF102991999999999999999999MA1102401999999REMMET051METAR SBQV 301300Z 07009KT 9999 FEW030 23/16 Q1024;
0120833440999992012083014004-14950-040883FM-15+0914SBQV V0200901N003612200019N0112651N1+02501+01401999999ADDGA1021+010501999GF102991999999999999999999MA1102301999999REMMET051METAR SBQV 301400Z 09007KT 9999 FEW035 25/14 Q1023;
0120833440999992012083015004-14950-040883FM-15+0914SBQV V0201101N003612200019N0112651N1+02601+01401999999ADDGA1021+010501999GF102991999999999999999999MA1102201999999REMMET051METAR SBQV 301500Z 11007KT 9999 FEW035 26/14 Q1022;
0120833440999992012083016004-14950-040883FM-15+0914SBQV V0201001N004112200019N0112651N1+02801+01101999999ADDGA1021+012001999GF102991999999999999999999MA1102101999999REMMET051METAR SBQV 301600Z 10008KT 9999 FEW040 28/11 Q1021;
0120833440999992012083017004-14950-040883FM-15+0914SBQV V0201201N004612200019N0112651N1+02901+01201999999ADDGA1021+012001999GF102991999999999999999999MA1102001999999REMMET051METAR SBQV 301700Z 12009KT 9999 FEW040 29/12 Q1020;
0120833440999992012083018004-14950-040883FM-15+0914SBQV V0200901N002612200019N0112651N1+02801+01401999999ADDGA1041+012001999GF104991999999999999999999MA1102001999999REMMET051METAR SBQV 301800Z 09005KT 9999 SCT040 28/14 Q1020;
0120833440999992012083019004-14950-040883FM-15+0914SBQV V0201201N005112200019N0112651N1+02701+01401999999ADDGA1021+010501999GF102991999999999999999999MA1102001999999REMMET051METAR SBQV 301900Z 12010KT 9999 FEW035 27/14 Q1020;
0120833440999992012083020004-14950-040883FM-15+0914SBQV V0201101N005112200019N0112651N1+02501+01601999999ADDGA1021+007501999GF102991999999999999999999MA1102001999999REMMET051METAR SBQV 302000Z 11010KT 9999 FEW025 25/16 Q1020;
0120833440999992012083021004-14950-040883FM-15+0914SBQV V0201101N005112200019N0112651N1+02301+01601999999ADDGA1021+005401999GF102991999999999999999999MA1102101999999REMMET051METAR SBQV 302100Z 11010KT 9999 FEW018 23/16 Q1021;
0072833440999992012083022004-14950-040883FM-15+0914SBQV V0200901N004119999999Y0099001N1+02201+01701999999ADDMA1102101999999REMMET045METAR SBQV 302200Z 09008KT CAVOK 22/17 Q1021;
0120833440999992012083111004-14950-040883FM-15+0914SBQV V0201001N005712200019N0112651N1+02001+01601999999ADDGA1021+004801999GF102991999999999999999999MA1102401999999REMMET051METAR SBQV 311100Z 10011KT 9999 FEW016 20/16 Q1024;
0120833440999992012083112004-14950-040883FM-15+0914SBQV V0201101N005710054019N0112651N1+02201+01601999999ADDGA1071+005401999GF107991999999999999999999MA1102511999999REMMET051METAR SBQV 311200Z 11011KT 9999 BKN018 22/16 Q1025;
0120833440999992012083113004-14950-040883FM-15+0914SBQV V0201201N005112200019N0112651N1+02201+01501999999ADDGA1041+006001999GF104991999999999999999999MA1102511999999REMMET051METAR SBQV 311300Z 12010KT 9999 SCT020 22/15 Q1025;
0120833440999992012083114004-14950-040883FM-15+0914SBQV V0201201N004612200019N0112651N1+02401+01601999999ADDGA1041+006001999GF104991999999999999999999MA1102401999999REMMET051METAR SBQV 311400Z 12009KT 9999 SCT020 24/16 Q1024;
0120833440999992012083115004-14950-040883FM-15+0914SBQV V0201401N004610075019N0112651N1+02501+01401999999ADDGA1071+007501999GF107991999999999999999999MA1102301999999REMMET051METAR SBQV 311500Z 14009KT 9999 BKN025 25/14 Q1023;
0120833440999992012083116004-14950-040883FM-15+0914SBQV V0201601N003112200019N0112651N1+02501+01301999999ADDGA1021+007501999GF102991999999999999999999MA1102201999999REMMET051METAR SBQV 311600Z 16006KT 9999 FEW025 25/13 Q1022;
0120833440999992012083117004-14950-040883FM-15+0914SBQV V0201401N005112200019N0112651N1+02601+01701999999ADDGA1041+007501999GF104991999999999999999999MA1102101999999REMMET051METAR SBQV 311700Z 14010KT 9999 SCT025 26/17 Q1021;
0120833440999992012083118004-14950-040883FM-15+0914SBQV V0201301N006212200019N0112651N1+02401+01601999999ADDGA1041+007501999GF104991999999999999999999MA1102101999999REMMET051METAR SBQV 311800Z 13012KT 9999 SCT025 24/16 Q1021;
0120833440999992012083119004-14950-040883FM-15+0914SBQV V0201101N006712200019N0112651N1+02401+01601999999ADDGA1021+006001999GF102991999999999999999999MA1102101999999REMMET051METAR SBQV 311900Z 11013KT 9999 FEW020 24/16 Q1021;
0072833440999992012083120004-14950-040883FM-15+0914SBQV V0201201N006219999999Y0099001N1+02301+01601999999ADDMA1102201999999REMMET045METAR SBQV 312000Z 12012KT CAVOK 23/16 Q1022;
0072833440999992012083121004-14950-040883FM-15+0914SBQV V0201201N006219999999Y0099001N1+02301+01601999999ADDMA1102201999999REMMET045METAR SBQV 312100Z 12012KT CAVOK 23/16 Q1022;
0072833440999992012083122004-14950-040883FM-15+0914SBQV V0201001N004619999999Y0099001N1+01901+01701999999ADDMA1102201999999REMMET045METAR SBQV 312200Z 10009KT CAVOK 19/17 Q1022;
0120833440999992012090111004-14950-040883FM-15+0914SBQV V0201101N003610045019N0112651N1+01701+01401999999ADDGA1071+004501999GF107991999999999999999999MA1102401999999REMMET051METAR SBQV 011100Z 11007KT 9999 BKN015 17/14 Q1024;
0120833440999992012090112004-14950-040883FM-15+0914SBQV V0200901N003110045019N0112651N1+01801+01401999999ADDGA1081+004501999GF108991999999999999999999MA1102511999999REMMET051METAR SBQV 011200Z 09006KT 9999 OVC015 18/14 Q1025;
0120833440999992012090113004-14950-040883FM-15+0914SBQV V0201201N003110048019N0112651N1+01901+01401999999ADDGA1081+004801999GF108991999999999999999999MA1102511999999REMMET051METAR SBQV 011300Z 12006KT 9999 OVC016 19/14 Q1025;
0120833440999992012090114004-14950-040883FM-15+0914SBQV V0201101N002112200019N0112651N1+02101+01301999999ADDGA1021+007501999GF102991999999999999999999MA1102401999999REMMET051METAR SBQV 011400Z 11004KT 9999 FEW025 21/13 Q1024;
0120833440999992012090115004-14950-040883FM-15+0914SBQV V0201301N002612200019N0112651N1+02301+01201999999ADDGA1021+009001999GF102991999999999999999999MA1102401999999REMMET051METAR SBQV 011500Z 13005KT 9999 FEW030 23/12 Q1024;
0120833440999992012090116004-14950-040883FM-15+0914SBQV V0201301N002612200019N0112651N1+02401+01101999999ADDGA1021+009001999GF102991999999999999999999MA1102201999999REMMET051METAR SBQV 011600Z 13005KT 9999 FEW030 24/11 Q1022;
0072833440999992012090117004-14950-040883FM-15+0914SBQV V0201101N003119999999Y0099001N1+02501+01001999999ADDMA1102101999999REMMET045METAR SBQV 011700Z 11006KT CAVOK 25/10 Q1021;
0072833440999992012090118004-14950-040883FM-15+0914SBQV V0201101N003619999999Y0099001N1+02601+00901999999ADDMA1102101999999REMMET045METAR SBQV 011800Z 11007KT CAVOK 26/09 Q1021;
0072833440999992012090119004-14950-040883FM-15+0914SBQV V0201001N004619999999Y0099001N1+02501+01001999999ADDMA1102101999999REMMET045METAR SBQV 011900Z 10009KT CAVOK 25/10 Q1021;
0072833440999992012090120004-14950-040883FM-15+0914SBQV V0201201N005119999999Y0099001N1+02301+01001999999ADDMA1102101999999REMMET045METAR SBQV 012000Z 12010KT CAVOK 23/10 Q1021;
0072833440999992012090121004-14950-040883FM-15+0914SBQV V0201101N004119999999Y0099001N1+02101+01201999999ADDMA1102101999999REMMET045METAR SBQV 012100Z 11008KT CAVOK 21/12 Q1021;
0072833440999992012090122004-14950-040883FM-15+0914SBQV V0201101N003619999999Y0099001N1+02001+01201999999ADDMA1102201999999REMMET045METAR SBQV 012200Z 11007KT CAVOK 20/12 Q1022;
0120833440999992012090211004-14950-040883FM-15+0914SBQV V0200901N004610048019N0112651N1+01701+01201999999ADDGA1071+004801999GF107991999999999999999999MA1102511999999REMMET051METAR SBQV 021100Z 09009KT 9999 BKN016 17/12 Q1025;
0120833440999992012090212004-14950-040883FM-15+0914SBQV V0200701N004610048019N0112651N1+01901+01201999999ADDGA1071+004801999GF107991999999999999999999MA1102511999999REMMET051METAR SBQV 021200Z 07009KT 9999 BKN016 19/12 Q1025;
0120833440999992012090213004-14950-040883FM-15+0914SBQV V0200901N004612200019N0112651N1+02001+01201999999ADDGA1021+006001999GF102991999999999999999999MA1102511999999REMMET051METAR SBQV 021300Z 09009KT 9999 FEW020 20/12 Q1025;
0072833440999992012090214004-14950-040883FM-15+0914SBQV V0201001N004119999999Y0099001N1+02201+01101999999ADDMA1102511999999REMMET045METAR SBQV 021400Z 10008KT CAVOK 22/11 Q1025;
0120833440999992012090215004-14950-040883FM-15+0914SBQV V0200901N003612200019N0112651N1+02401+01201999999ADDGA1021+007501999GF102991999999999999999999MA1102401999999REMMET051METAR SBQV 021500Z 09007KT 9999 FEW025 24/12 Q1024;
0072833440999992012090216004-14950-040883FM-15+0914SBQV V0201201N004619999999Y0099001N1+02501+01201999999ADDMA1102301999999REMMET045METAR SBQV 021600Z 12009KT CAVOK 25/12 Q1023;
0120833440999992012090217004-14950-040883FM-15+0914SBQV V0201301N004612200019N0112651N1+02501+01201999999ADDGA1021+007501999GF102991999999999999999999MA1102201999999REMMET051METAR SBQV 021700Z 13009KT 9999 FEW025 25/12 Q1022;
0120833440999992012090218004-14950-040883FM-15+0914SBQV V0201001N004112200019N0112651N1+02501+01301999999ADDGA1021+007501999GF102991999999999999999999MA1102201999999REMMET051METAR SBQV 021800Z 10008KT 9999 FEW025 25/13 Q1022;
0120833440999992012090219004-14950-040883FM-15+0914SBQV V0201101N005712200019N0112651N1+02401+01301999999ADDGA1021+006001999GF102991999999999999999999MA1102201999999REMMET051METAR SBQV 021900Z 11011KT 9999 FEW020 24/13 Q1022;
0120833440999992012090220004-14950-040883FM-15+0914SBQV V0201001N004612200019N0112651N1+02301+01301999999ADDGA1021+005401999GF102991999999999999999999MA1102301999999REMMET051METAR SBQV 022000Z 10009KT 9999 FEW018 23/13 Q1023;
0072833440999992012090221004-14950-040883FM-15+0914SBQV V0201101N004119999999Y0099001N1+02101+01401999999ADDMA1102301999999REMMET045METAR SBQV 022100Z 11008KT CAVOK 21/14 Q1023;
0072833440999992012090222004-14950-040883FM-15+0914SBQV V0200901N003619999999Y0099001N1+02001+01301999999ADDMA1102401999999REMMET045METAR SBQV 022200Z 09007KT CAVOK 20/13 Q1024;
0120833440999992012090311004-14950-040883FM-15+0914SBQV V0200801N003110045019N0112651N1+01801+01401999999ADDGA1071+004501999GF107991999999999999999999MA1102611999999REMMET051METAR SBQV 031100Z 08006KT 9999 BKN015 18/14 Q1026;
0120833440999992012090312004-14950-040883FM-15+0914SBQV V0200801N003610045019N0112651N1+02001+01401999999ADDGA1071+004501999GF107991999999999999999999MA1102611999999REMMET051METAR SBQV 031200Z 08007KT 9999 BKN015 20/14 Q1026;
0120833440999992012090313004-14950-040883FM-15+0914SBQV V0200801N003112200019N0112651N1+02201+01401999999ADDGA1041+004801999GF104991999999999999999999MA1102611999999REMMET051METAR SBQV 031300Z 08006KT 9999 SCT016 22/14 Q1026;
0120833440999992012090314004-14950-040883FM-15+0914SBQV V0200801N003112200019N0112651N1+02401+01301999999ADDGA1021+005401999GF102991999999999999999999MA1102511999999REMMET051METAR SBQV 031400Z 08006KT 9999 FEW018 24/13 Q1025;
0120833440999992012090315004-14950-040883FM-15+0914SBQV V0201101N003612200019N0112651N1+02501+01201999999ADDGA1021+009001999GF102991999999999999999999MA1102401999999REMMET051METAR SBQV 031500Z 11007KT 9999 FEW030 25/12 Q1024;
0120833440999992012090316004-14950-040883FM-15+0914SBQV V0201201N004612200019N0112651N1+02701+01001999999ADDGA1021+009001999GF102991999999999999999999MA1102301999999REMMET051METAR SBQV 031600Z 12009KT 9999 FEW030 27/10 Q1023;
0120833440999992012090317004-14950-040883FM-15+0914SBQV V0201201N004612200019N0112651N1+02601+01201999999ADDGA1021+009001999GF102991999999999999999999MA1102301999999REMMET051METAR SBQV 031700Z 12009KT 9999 FEW030 26/12 Q1023;
0120833440999992012090318004-14950-040883FM-15+0914SBQV V0200801N003612200019N0112651N1+02601+01101999999ADDGA1021+009001999GF102991999999999999999999MA1102201999999REMMET051METAR SBQV 031800Z 08007KT 9999 FEW030 26/11 Q1022;
0120833440999992012090319004-14950-040883FM-15+0914SBQV V0201101N004612200019N0112651N1+02601+01301999999ADDGA1021+009001999GF102991999999999999999999MA1102201999999REMMET051METAR SBQV 031900Z 11009KT 9999 FEW030 26/13 Q1022;
0120833440999992012090320004-14950-040883FM-15+0914SBQV V0201001N004112200019N0112651N1+02401+01301999999ADDGA1021+007501999GF102991999999999999999999MA1102301999999REMMET051METAR SBQV 032000Z 10008KT 9999 FEW025 24/13 Q1023;
0072833440999992012090321004-14950-040883FM-15+0914SBQV V0201101N004619999999Y0099001N1+02301+01401999999ADDMA1102301999999REMMET045METAR SBQV 032100Z 11009KT CAVOK 23/14 Q1023;
0072833440999992012090322004-14950-040883FM-15+0914SBQV V0201101N004119999999Y0099001N1+02101+01401999999ADDMA1102301999999REMMET045METAR SBQV 032200Z 11008KT CAVOK 21/14 Q1023;
0120833440999992012090411004-14950-040883FM-15+0914SBQV V0201001N005712200019N0112651N1+01901+01401999999ADDGA1021+005401999GF102991999999999999999999MA1102611999999REMMET051METAR SBQV 041100Z 10011KT 9999 FEW018 19/14 Q1026;
0120833440999992012090412004-14950-040883FM-15+0914SBQV V0201101N007712200019N0112651N1+02101+01201999999ADDGA1021+007501999GF102991999999999999999999MA1102711999999REMMET051METAR SBQV 041200Z 11015KT 9999 FEW025 21/12 Q1027;
0120833440999992012090413004-14950-040883FM-15+0914SBQV V0201201N009312200019N0112651N1+02301+01101999999ADDGA1021+007501999GF102991999999999999999999MA1102711999999REMMET051METAR SBQV 041300Z 12018KT 9999 FEW025 23/11 Q1027;
0131833440999992012090414004-14950-040883FM-15+0914SBQV V0201201N008212200019N0112651N1+02401+01101999999ADDGA1021+007501999GF102991999999999999999999MA1102711999999OC101491REMMET054METAR SBQV 041400Z 12016G29KT 9999 FEW025 24/11 Q1027;
0120833440999992012090415004-14950-040883FM-15+0914SBQV V0201001N008212200019N0112651N1+02501+01001999999ADDGA1021+009001999GF102991999999999999999999MA1102611999999REMMET051METAR SBQV 041500Z 10016KT 9999 FEW030 25/10 Q1026;
0120833440999992012090416004-14950-040883FM-15+0914SBQV V0201201N007712200019N0112651N1+02401+01201999999ADDGA1041+009001999GF104991999999999999999999MA1102611999999REMMET051METAR SBQV 041600Z 12015KT 9999 SCT030 24/12 Q1026;
0120833440999992012090417004-14950-040883FM-15+0914SBQV V0201001N007212200019N0112651N1+02501+01101999999ADDGA1021+009001999GF102991999999999999999999MA1102511999999REMMET051METAR SBQV 041700Z 10014KT 9999 FEW030 25/11 Q1025;
0120833440999992012090418004-14950-040883FM-15+0914SBQV V0201001N006212200019N0112651N1+02501+01101999999ADDGA1021+009001999GF102991999999999999999999MA1102401999999REMMET051METAR SBQV 041800Z 10012KT 9999 FEW030 25/11 Q1024;
0131833440999992012090419004-14950-040883FM-15+0914SBQV V0201201N005712200019N0112651N1+02401+01101999999ADDGA1021+009001999GF102991999999999999999999MA1102511999999OC101181REMMET054METAR SBQV 041900Z 12011G23KT 9999 FEW030 24/11 Q1025;
0120833440999992012090420004-14950-040883FM-15+0914SBQV V0201301N006712200019N0112651N1+02301+01001999999ADDGA1021+007501999GF102991999999999999999999MA1102511999999REMMET051METAR SBQV 042000Z 13013KT 9999 FEW025 23/10 Q1025;
0120833440999992012090421004-14950-040883FM-15+0914SBQV V0201101N005712200019N0112651N1+02101+01001999999ADDGA1021+006001999GF102991999999999999999999MA1102511999999REMMET051METAR SBQV 042100Z 11011KT 9999 FEW020 21/10 Q1025;
0072833440999992012090422004-14950-040883FM-15+0914SBQV V0201201N003619999999Y0099001N1+01901+01001999999ADDMA1102511999999REMMET045METAR SBQV 042200Z 12007KT CAVOK 19/10 Q1025;
0183833440999992012090511004-14950-040883FM-15+0914SBQV V0201101N005710027019N0080001N1+01601+01501999999ADDGA1041+001501999GA2071+002701999GA3071+021001999GF107991999999999999999999MA1102711999999MW1511REMMET076METAR SBQV 051100Z 11011KT 8000 3000SE -DZ SCT005 BKN009 BKN070 16/15 Q1027;
0177833440999992012090512004-14950-040883FM-15+0914SBQV V0201201N005710027019N0112651N1+01701+01501999999ADDGA1021+001801999GA2071+002701999GA3071+021001999GF107991999999999999999999MA1102711999999MW1161REMMET070METAR SBQV 051200Z 12011KT 9999 VCSH FEW006 BKN009 BKN070 17/15 Q1027;
0177833440999992012090513004-14950-040883FM-15+0914SBQV V0201301N004610027019N0112651N1+01701+01501999999ADDGA1021+001801999GA2071+002701999GA3071+021001999GF107991999999999999999999MA1102811999999MW1161REMMET070METAR SBQV 051300Z 13009KT 9999 VCSH FEW006 BKN009 BKN070 17/15 Q1028;
0166833440999992012090514004-14950-040883FM-15+0914SBQV V0201201N005110027019N0112651N1+01701+01501999999ADDGA1021+001801999GA2071+002701999GA3071+021001999GF107991999999999999999999MA1102711999999REMMET065METAR SBQV 051400Z 12010KT 9999 FEW006 BKN009 BKN070 17/15 Q1027;
0143833440999992012090515004-14950-040883FM-15+0914SBQV V0201301N005110033019N0112651N1+01901+01501999999ADDGA1071+003301999GA2071+021001999GF107991999999999999999999MA1102711999999REMMET058METAR SBQV 051500Z 13010KT 9999 BKN011 BKN070 19/15 Q1027;
0143833440999992012090516004-14950-040883FM-15+0914SBQV V0201301N006710039019N0112651N1+01901+01601999999ADDGA1071+003901999GA2071+021001999GF107991999999999999999999MA1102611999999REMMET058METAR SBQV 051600Z 13013KT 9999 BKN013 BKN070 19/16 Q1026;
0143833440999992012090517004-14950-040883FM-15+0914SBQV V0201301N005110045019N0112651N1+01901+01501999999ADDGA1071+004501999GA2071+021001999GF107991999999999999999999MA1102511999999REMMET058METAR SBQV 051700Z 13010KT 9999 BKN015 BKN070 19/15 Q1025;
0143833440999992012090518004-14950-040883FM-15+0914SBQV V0201201N004610045019N0112651N1+02001+01601999999ADDGA1071+004501999GA2071+021001999GF107991999999999999999999MA1102511999999REMMET058METAR SBQV 051800Z 12009KT 9999 BKN015 BKN070 20/16 Q1025;
0143833440999992012090519004-14950-040883FM-15+0914SBQV V0201201N005110045019N0112651N1+01901+01601999999ADDGA1071+004501999GA2071+021001999GF107991999999999999999999MA1102511999999REMMET058METAR SBQV 051900Z 12010KT 9999 BKN015 BKN070 19/16 Q1025;
0166833440999992012090520004-14950-040883FM-15+0914SBQV V0201001N00411004501CN0112651N1+01801+01601999999ADDGA1041+003601999GA2041+004501999GA3071+021001999GF107991999999999999999999MA1102511999999REMMET065METAR SBQV 052000Z 10008KT 9999 SCT012 SCT015 BKN070 18/16 Q1025;
0143833440999992012090521004-14950-040883FM-15+0914SBQV V0201201N003610210019N0112651N1+01701+01701999999ADDGA1041+001801999GA2081+021001999GF108991999999999999999999MA1102511999999REMMET058METAR SBQV 052100Z 12007KT 9999 SCT006 OVC070 17/17 Q1025;
0136833440999992012090522004-14950-040883FM-15+0914SBQV V0201201N00461001201CN0112651N1+01701+01701999999ADDGA1071+001201999GA2041+001501999MA1102511999999REMMET058METAR SBQV 052200Z 12009KT 9999 BKN004 SCT005 17/17 Q1025;EQDQ01+000042SCOTCV
0143833440999992012090523004-14950-040883FM-15+0914SBQV V0201201N005110015019N0112651N1+01701+01701999999ADDGA1041+001201999GA2071+001501999GF107991999999999999999999MA1102511999999REMMET058METAR SBQV 052300Z 12010KT 9999 SCT004 BKN005 17/17 Q1025;
0120833440999992012090611004-14950-040883FM-15+0914SBQV V0201101N004112200019N0112651N1+01801+01501999999ADDGA1021+004501999GF102991999999999999999999MA1102511999999REMMET051METAR SBQV 061100Z 11008KT 9999 FEW015 18/15 Q1025;
0120833440999992012090612004-14950-040883FM-15+0914SBQV V0201001N004612200019N0112651N1+02001+01501999999ADDGA1041+004801999GF104991999999999999999999MA1102611999999REMMET051METAR SBQV 061200Z 10009KT 9999 SCT016 20/15 Q1026;
0120833440999992012090613004-14950-040883FM-15+0914SBQV V0201001N004110054019N0112651N1+02001+01401999999ADDGA1071+005401999GF107991999999999999999999MA1102611999999REMMET051METAR SBQV 061300Z 10008KT 9999 BKN018 20/14 Q1026;
0120833440999992012090614004-14950-040883FM-15+0914SBQV V0200801N005710060019N0112651N1+02201+01401999999ADDGA1071+006001999GF107991999999999999999999MA1102511999999REMMET051METAR SBQV 061400Z 08011KT 9999 BKN020 22/14 Q1025;
0120833440999992012090615004-14950-040883FM-15+0914SBQV V0201001N005710090019N0112651N1+02301+01401999999ADDGA1071+009001999GF107991999999999999999999MA1102401999999REMMET051METAR SBQV 061500Z 10011KT 9999 BKN030 23/14 Q1024;
0120833440999992012090616004-14950-040883FM-15+0914SBQV V0200901N006212200019N0112651N1+02401+01301999999ADDGA1041+009001999GF104991999999999999999999MA1102401999999REMMET051METAR SBQV 061600Z 09012KT 9999 SCT030 24/13 Q1024;
0120833440999992012090617004-14950-040883FM-15+0914SBQV V0200901N006212200019N0112651N1+02401+01201999999ADDGA1041+009001999GF104991999999999999999999MA1102301999999REMMET051METAR SBQV 061700Z 09012KT 9999 SCT030 24/12 Q1023;
0120833440999992012090618004-14950-040883FM-15+0914SBQV V0200901N005712200019N0112651N1+02401+01201999999ADDGA1041+009001999GF104991999999999999999999MA1102201999999REMMET051METAR SBQV 061800Z 09011KT 9999 SCT030 24/12 Q1022;
0120833440999992012090619004-14950-040883FM-15+0914SBQV V0201101N005712200019N0112651N1+02401+01201999999ADDGA1021+009001999GF102991999999999999999999MA1102201999999REMMET051METAR SBQV 061900Z 11011KT 9999 FEW030 24/12 Q1022;
0120833440999992012090620004-14950-040883FM-15+0914SBQV V0200901N004612200019N0112651N1+02301+01401999999ADDGA1021+007501999GF102991999999999999999999MA1102201999999REMMET051METAR SBQV 062000Z 09009KT 9999 FEW025 23/14 Q1022;
0120833440999992012090621004-14950-040883FM-15+0914SBQV V0201001N003612200019N0112651N1+02101+01301999999ADDGA1021+006001999GF102991999999999999999999MA1102301999999REMMET051METAR SBQV 062100Z 10007KT 9999 FEW020 21/13 Q1023;
0072833440999992012090622004-14950-040883FM-15+0914SBQV V0200801N003619999999Y0099001N1+01901+01401999999ADDMA1102301999999REMMET045METAR SBQV 062200Z 08007KT CAVOK 19/14 Q1023;
0072833440999992012090623004-14950-040883FM-15+0914SBQV V0200701N004119999999Y0099001N1+01901+01401999999ADDMA1102401999999REMMET045METAR SBQV 062300Z 07008KT CAVOK 19/14 Q1024;
0120833440999992012090711004-14950-040883FM-15+0914SBQV V0200801N004612200019N0112651N1+01901+01401999999ADDGA1021+003301999GF102991999999999999999999MA1102611999999REMMET051METAR SBQV 071100Z 08009KT 9999 FEW011 19/14 Q1026;
0143833440999992012090712004-14950-040883FM-15+0914SBQV V0200901N004112200019N0112651N1+02201+01301999999ADDGA1021+004501999GA2041+021001999GF104991999999999999999999MA1102711999999REMMET058METAR SBQV 071200Z 09008KT 9999 FEW015 SCT070 22/13 Q1027;
0120833440999992012090713004-14950-040883FM-15+0914SBQV V0200801N004612200019N0112651N1+02301+01301999999ADDGA1041+004801999GF104991999999999999999999MA1102611999999REMMET051METAR SBQV 071300Z 08009KT 9999 SCT016 23/13 Q1026;
0120833440999992012090714004-14950-040883FM-15+0914SBQV V0200801N004612200019N0112651N1+02501+01001999999ADDGA1021+007501999GF102991999999999999999999MA1102611999999REMMET051METAR SBQV 071400Z 08009KT 9999 FEW025 25/10 Q1026;
0120833440999992012090715004-14950-040883FM-15+0914SBQV V0200701N004112200019N0112651N1+02501+01101999999ADDGA1041+007501999GF104991999999999999999999MA1102511999999REMMET051METAR SBQV 071500Z 07008KT 9999 SCT025 25/11 Q1025;
0120833440999992012090716004-14950-040883FM-15+0914SBQV V0201001N004612200019N0112651N1+02601+01101999999ADDGA1041+007501999GF104991999999999999999999MA1102401999999REMMET051METAR SBQV 071600Z 10009KT 9999 SCT025 26/11 Q1024;
0120833440999992012090717004-14950-040883FM-15+0914SBQV V0200801N004112200019N0112651N1+02601+01001999999ADDGA1041+007501999GF104991999999999999999999MA1102301999999REMMET051METAR SBQV 071700Z 08008KT 9999 SCT025 26/10 Q1023;
0120833440999992012090718004-14950-040883FM-15+0914SBQV V0201001N005112200019N0112651N1+02601+01101999999ADDGA1041+007501999GF104991999999999999999999MA1102301999999REMMET051METAR SBQV 071800Z 10010KT 9999 SCT025 26/11 Q1023;
0120833440999992012090719004-14950-040883FM-15+0914SBQV V0201201N006712200019N0112651N1+02501+01101999999ADDGA1041+007501999GF104991999999999999999999MA1102301999999REMMET051METAR SBQV 071900Z 12013KT 9999 SCT025 25/11 Q1023;
0120833440999992012090720004-14950-040883FM-15+0914SBQV V0200901N004612200019N0112651N1+02301+01101999999ADDGA1021+006001999GF102991999999999999999999MA1102301999999REMMET051METAR SBQV 072000Z 09009KT 9999 FEW020 23/11 Q1023;
0120833440999992012090721004-14950-040883FM-15+0914SBQV V0201001N003612200019N0112651N1+02201+01101999999ADDGA1021+004801999GF102991999999999999999999MA1102401999999REMMET051METAR SBQV 072100Z 10007KT 9999 FEW016 22/11 Q1024;
0120833440999992012090722004-14950-040883FM-15+0914SBQV V0200901N003612200019N0112651N1+02101+01101999999ADDGA1021+004501999GF102991999999999999999999MA1102401999999REMMET051METAR SBQV 072200Z 09007KT 9999 FEW015 21/11 Q1024;
0072833440999992012090723004-14950-040883FM-15+0914SBQV V0200801N004619999999Y0099001N1+02001+01301999999ADDMA1102511999999REMMET045METAR SBQV 072300Z 08009KT CAVOK 20/13 Q1025;
0072833440999992012090800004-14950-040883FM-15+0914SBQV V0201301N004619999999Y0099001N1+01801+01301999999ADDMA1102511999999REMMET045METAR SBQV 080000Z 13009KT CAVOK 18/13 Q1025;
0072833440999992012090804004-14950-040883FM-15+0914SBQV V0201201N002119999999Y0099001N1+01501+01501999999ADDMA1102611999999REMMET045METAR SBQV 080400Z 12004KT CAVOK 15/15 Q1026;
0072833440999992012090805004-14950-040883FM-15+0914SBQV V0200801N002619999999Y0099001N1+01501+01501999999ADDMA1102511999999REMMET045METAR SBQV 080500Z 08005KT CAVOK 15/15 Q1025;
0120833440999992012090811004-14950-040883FM-15+0914SBQV V0201101N004112200019N0112651N1+01901+01601999999ADDGA1041+003601999GF104991999999999999999999MA1102711999999REMMET051METAR SBQV 081100Z 11008KT 9999 SCT012 19/16 Q1027;
0120833440999992012090812004-14950-040883FM-15+0914SBQV V0201101N004610045019N0112651N1+02101+01501999999ADDGA1071+004501999GF107991999999999999999999MA1102811999999REMMET051METAR SBQV 081200Z 11009KT 9999 BKN015 21/15 Q1028;
0120833440999992012090813004-14950-040883FM-15+0914SBQV V0201001N004110045019N0112651N1+02101+01501999999ADDGA1071+004501999GF107991999999999999999999MA1102811999999REMMET051METAR SBQV 081300Z 10008KT 9999 BKN015 21/15 Q1028;
0120833440999992012090814004-14950-040883FM-15+0914SBQV V0201201N004610045019N0112651N1+02101+01701999999ADDGA1071+004501999GF107991999999999999999999MA1102711999999REMMET051METAR SBQV 081400Z 12009KT 9999 BKN015 21/17 Q1027;
0120833440999992012090815004-14950-040883FM-15+0914SBQV V0201001N005710048019N0112651N1+02301+01601999999ADDGA1071+004801999GF107991999999999999999999MA1102611999999REMMET051METAR SBQV 081500Z 10011KT 9999 BKN016 23/16 Q1026;
0120833440999992012090816004-14950-040883FM-15+0914SBQV V0201401N004110048019N0112651N1+02301+01701999999ADDGA1071+004801999GF107991999999999999999999MA1102511999999REMMET051METAR SBQV 081600Z 14008KT 9999 BKN016 23/17 Q1025;
0120833440999992012090817004-14950-040883FM-15+0914SBQV V0201101N005110060019N0112651N1+02401+01701999999ADDGA1071+006001999GF107991999999999999999999MA1102511999999REMMET051METAR SBQV 081700Z 11010KT 9999 BKN020 24/17 Q1025;
0120833440999992012090818004-14950-040883FM-15+0914SBQV V0201301N005710060019N0112651N1+02301+01801999999ADDGA1071+006001999GF107991999999999999999999MA1102401999999REMMET051METAR SBQV 081800Z 13011KT 9999 BKN020 23/18 Q1024;
0120833440999992012090819004-14950-040883FM-15+0914SBQV V0201301N006712200019N0112651N1+02201+01801999999ADDGA1041+006001999GF104991999999999999999999MA1102401999999REMMET051METAR SBQV 081900Z 13013KT 9999 SCT020 22/18 Q1024;
0120833440999992012090820004-14950-040883FM-15+0914SBQV V0201101N005712200019N0112651N1+02001+01901999999ADDGA1041+006001999GF104991999999999999999999MA1102511999999REMMET051METAR SBQV 082000Z 11011KT 9999 SCT020 20/19 Q1025;
0153833440999992012090821004-14950-040883FM-15+0914SBQV V0201101N005710210019N0112651N1+01901+01801999999ADDGA1041+003001999GA2071+021001999GF107991999999999999999999MA1102511999999MW1611REMMET062METAR SBQV 082100Z 11011KT 9999 -RA SCT010 BKN070 19/18 Q1025;
0120833440999992012090822004-14950-040883FM-15+0914SBQV V0201101N004112200019N0112651N1+01801+01801999999ADDGA1021+003001999GF102991999999999999999999MA1102511999999REMMET051METAR SBQV 082200Z 11008KT 9999 FEW010 18/18 Q1025;
0130833440999992012090911004-14950-040883FM-15+0914SBQV V0201301N003610015019N0050001N1+01801+01801999999ADDGA1081+001501999GF108991999999999999999999MA1102611999999MW1511REMMET055METAR SBQV 091100Z 13007KT 5000 -DZ OVC005 18/18 Q1026;
0120833440999992012090912004-14950-040883FM-15+0914SBQV V0201201N004110021019N0112651N1+01901+01901999999ADDGA1071+002101999GF107991999999999999999999MA1102711999999REMMET051METAR SBQV 091200Z 12008KT 9999 BKN007 19/19 Q1027;
0120833440999992012090913004-14950-040883FM-15+0914SBQV V0201201N004610030019N0112651N1+02101+01901999999ADDGA1071+003001999GF107991999999999999999999MA1102611999999REMMET051METAR SBQV 091300Z 12009KT 9999 BKN010 21/19 Q1026;
0143833440999992012090914004-14950-040883FM-15+0914SBQV V0201101N004610054019N0112651N1+02201+01901999999ADDGA1041+003901999GA2071+005401999GF107991999999999999999999MA1102611999999REMMET058METAR SBQV 091400Z 11009KT 9999 SCT013 BKN018 22/19 Q1026;
0120833440999992012090918004-14950-040883FM-15+0914SBQV V0201101N004110054019N0112651N1+02301+01901999999ADDGA1071+005401999GF107991999999999999999999MA1102301999999REMMET051METAR SBQV 091800Z 11008KT 9999 BKN018 23/19 Q1023;
0120833440999992012090919004-14950-040883FM-15+0914SBQV V0201101N004612200019N0112651N1+02501+01901999999ADDGA1021+006001999GF102991999999999999999999MA1102201999999REMMET051METAR SBQV 091900Z 11009KT 9999 FEW020 25/19 Q1022;
0120833440999992012090920004-14950-040883FM-15+0914SBQV V0201201N004612200019N0112651N1+02301+01901999999ADDGA1021+004501999GF102991999999999999999999MA1102201999999REMMET051METAR SBQV 092000Z 12009KT 9999 FEW015 23/19 Q1022;
0120833440999992012090921004-14950-040883FM-15+0914SBQV V0201101N003612200019N0112651N1+02101+01901999999ADDGA1021+004501999GF102991999999999999999999MA1102201999999REMMET051METAR SBQV 092100Z 11007KT 9999 FEW015 21/19 Q1022;
0120833440999992012090922004-14950-040883FM-15+0914SBQV V0201001N004112200019N0112651N1+02001+01901999999ADDGA1021+004501999GF102991999999999999999999MA1102301999999REMMET051METAR SBQV 092200Z 10008KT 9999 FEW015 20/19 Q1023;
0120833440999992012091001004-14950-040883FM-15+0914SBQV V0201001N003612200019N0112651N1+01901+01901999999ADDGA1041+001801999GF104991999999999999999999MA1102401999999REMMET051METAR SBQV 100100Z 10007KT 9999 SCT006 19/19 Q1024;
0120833440999992012091002004-14950-040883FM-15+0914SBQV V0201001N004110018019N0112651N1+01901+01901999999ADDGA1071+001801999GF107991999999999999999999MA1102401999999REMMET051METAR SBQV 100200Z 10008KT 9999 BKN006 19/19 Q1024;
0120833440999992012091003004-14950-040883FM-15+0914SBQV V0200901N004112200019N0112651N1+01901+01801999999ADDGA1041+001501999GF104991999999999999999999MA1102401999999REMMET051METAR SBQV 100300Z 09008KT 9999 SCT005 19/18 Q1024;
0072833440999992012091011004-14950-040883FM-15+0914SBQV V0200401N003619999999Y0099001N1+02001+01601999999ADDMA1102401999999REMMET045METAR SBQV 101100Z 04007KT CAVOK 20/16 Q1024;
0072833440999992012091012004-14950-040883FM-15+0914SBQV V0200501N003119999999Y0099001N1+02301+01601999999ADDMA1102401999999REMMET045METAR SBQV 101200Z 05006KT CAVOK 23/16 Q1024;
0072833440999992012091013004-14950-040883FM-15+0914SBQV V0200501N002119999999Y0099001N1+02501+01501999999ADDMA1102401999999REMMET045METAR SBQV 101300Z 05004KT CAVOK 25/15 Q1024;
0072833440999992012091014004-14950-040883FM-15+0914SBQV V0200901N002619999999Y0099001N1+02601+01501999999ADDMA1102301999999REMMET045METAR SBQV 101400Z 09005KT CAVOK 26/15 Q1023;
0120833440999992012091015004-14950-040883FM-15+0914SBQV V0200701N003612200019N0112651N1+02801+01301999999ADDGA1021+007501999GF102991999999999999999999MA1102201999999REMMET051METAR SBQV 101500Z 07007KT 9999 FEW025 28/13 Q1022;
0120833440999992012091016004-14950-040883FM-15+0914SBQV V0201301N005712200019N0112651N1+02801+01601999999ADDGA1021+009001999GF102991999999999999999999MA1102101999999REMMET051METAR SBQV 101600Z 13011KT 9999 FEW030 28/16 Q1021;
0120833440999992012091017004-14950-040883FM-15+0914SBQV V0200901N004112200019N0112651N1+02801+01501999999ADDGA1021+009001999GF102991999999999999999999MA1102001999999REMMET051METAR SBQV 101700Z 09008KT 9999 FEW030 28/15 Q1020;
0120833440999992012091018004-14950-040883FM-15+0914SBQV V0201201N005112200019N0112651N1+02801+01501999999ADDGA1021+009001999GF102991999999999999999999MA1102001999999REMMET051METAR SBQV 101800Z 12010KT 9999 FEW030 28/15 Q1020;
0072833440999992012091019004-14950-040883FM-15+0914SBQV V0201201N005719999999Y0099001N1+02701+01601999999ADDMA1102001999999REMMET045METAR SBQV 101900Z 12011KT CAVOK 27/16 Q1020;
0072833440999992012091020004-14950-040883FM-15+0914SBQV V0201201N005719999999Y0099001N1+02501+01701999999ADDMA1102001999999REMMET045METAR SBQV 102000Z 12011KT CAVOK 25/17 Q1020;
0072833440999992012091021004-14950-040883FM-15+0914SBQV V0201001N004619999999Y0099001N1+02301+01701999999ADDMA1102001999999REMMET045METAR SBQV 102100Z 10009KT CAVOK 23/17 Q1020;
0072833440999992012091022004-14950-040883FM-15+0914SBQV V0200901N004119999999Y0099001N1+02201+01701999999ADDMA1102101999999REMMET045METAR SBQV 102200Z 09008KT CAVOK 22/17 Q1021;
0072833440999992012091111004-14950-040883FM-15+0914SBQV V0200401N002119999999Y0099001N1+02101+01701999999ADDMA1102201999999REMMET045METAR SBQV 111100Z 04004KT CAVOK 21/17 Q1022;
0072833440999992012091112004-14950-040883FM-15+0914SBQV V0200301N003619999999Y0099001N1+02301+01701999999ADDMA1102301999999REMMET045METAR SBQV 111200Z 03007KT CAVOK 23/17 Q1023;
0072833440999992012091113004-14950-040883FM-15+0914SBQV V0201001N003619999999Y0099001N1+02501+01701999999ADDMA1102201999999REMMET045METAR SBQV 111300Z 10007KT CAVOK 25/17 Q1022;
0072833440999992012091114004-14950-040883FM-15+0914SBQV V0200301N003119999999Y0099001N1+02701+01601999999ADDMA1102201999999REMMET045METAR SBQV 111400Z 03006KT CAVOK 27/16 Q1022;
0072833440999992012091115004-14950-040883FM-15+0914SBQV V0200301N003119999999Y0099001N1+02901+01401999999ADDMA1102101999999REMMET045METAR SBQV 111500Z 03006KT CAVOK 29/14 Q1021;
0072833440999992012091116004-14950-040883FM-15+0914SBQV V0200901N003119999999Y0099001N1+03001+01201999999ADDMA1101901999999REMMET045METAR SBQV 111600Z 09006KT CAVOK 30/12 Q1019;
0120833440999992012091117004-14950-040883FM-15+0914SBQV V0200501N003612200019N0112651N1+03001+01201999999ADDGA1021+012001999GF102991999999999999999999MA1101801999999REMMET051METAR SBQV 111700Z 05007KT 9999 FEW040 30/12 Q1018;
0120833440999992012091118004-14950-040883FM-15+0914SBQV V0200201N003112200019N0112651N1+03101+01101999999ADDGA1021+012001999GF102991999999999999999999MA1101691999999REMMET051METAR SBQV 111800Z 02006KT 9999 FEW040 31/11 Q1017;
0120833440999992012091119004-14950-040883FM-15+0914SBQV V0200501N004612200019N0112651N1+03001+01201999999ADDGA1021+012001999GF102991999999999999999999MA1101691999999REMMET051METAR SBQV 111900Z 05009KT 9999 FEW040 30/12 Q1017;
0120833440999992012091120004-14950-040883FM-15+0914SBQV V0200501N004112200019N0112651N1+02901+01301999999ADDGA1021+009001999GF102991999999999999999999MA1101801999999REMMET051METAR SBQV 112000Z 05008KT 9999 FEW030 29/13 Q1018;
0120833440999992012091121004-14950-040883FM-15+0914SBQV V0200801N003612200019N0112651N1+02601+01401999999ADDGA1021+006001999GF102991999999999999999999MA1101801999999REMMET051METAR SBQV 112100Z 08007KT 9999 FEW020 26/14 Q1018;
0072833440999992012091122004-14950-040883FM-15+0914SBQV V0200801N003119999999Y0099001N1+02401+01601999999ADDMA1101901999999REMMET045METAR SBQV 112200Z 08006KT CAVOK 24/16 Q1019;
0120833440999992012091211004-14950-040883FM-15+0914SBQV V0203401N002112200019N0112651N1+02001+01801999999ADDGA1021+003901999GF102991999999999999999999MA1102101999999REMMET051METAR SBQV 121100Z 34004KT 9999 FEW013 20/18 Q1021;
0072833440999992012091212004-14950-040883FM-15+0914SBQV V0203201N001019999999Y0099001N1+02201+01701999999ADDMA1102201999999REMMET045METAR SBQV 121200Z 32002KT CAVOK 22/17 Q1022;
0072833440999992012091213004-14950-040883FM-15+0914SBQV V0200201N003619999999Y0099001N1+02701+01301999999ADDMA1102101999999REMMET045METAR SBQV 121300Z 02007KT CAVOK 27/13 Q1021;
0072833440999992012091214004-14950-040883FM-15+0914SBQV V0200301N004619999999Y0099001N1+02901+01301999999ADDMA1102001999999REMMET045METAR SBQV 121400Z 03009KT CAVOK 29/13 Q1020;
0072833440999992012091215004-14950-040883FM-15+0914SBQV V0200201N004619999999Y0099001N1+03101+00901999999ADDMA1102001999999REMMET045METAR SBQV 121500Z 02009KT CAVOK 31/09 Q1020;
0120833440999992012091216004-14950-040883FM-15+0914SBQV V0200501N004612200019N0112651N1+03201+00701999999ADDGA1021+010501999GF102991999999999999999999MA1101801999999REMMET051METAR SBQV 121600Z 05009KT 9999 FEW035 32/07 Q1018;
0120833440999992012091217004-14950-040883FM-15+0914SBQV V0200701N002612200019N0112651N1+03301+00501999999ADDGA1021+012001999GF102991999999999999999999MA1101801999999REMMET051METAR SBQV 121700Z 07005KT 9999 FEW040 33/05 Q1018;
0120833440999992012091218004-14950-040883FM-15+0914SBQV V0200201N002612200019N0112651N1+03301+00501999999ADDGA1041+012001999GF104991999999999999999999MA1101691999999REMMET051METAR SBQV 121800Z 02005KT 9999 SCT040 33/05 Q1017;
0143833440999992012091219004-14950-040883FM-15+0914SBQV V0201101N003612200019N0112651N1+03201+00601999999ADDGA1021+012001999GA2041+030001999GF104991999999999999999999MA1101691999999REMMET058METAR SBQV 121900Z 11007KT 9999 FEW040 SCT100 32/06 Q1017;
0120833440999992012091220004-14950-040883FM-15+0914SBQV V0201101N005112200019N0112651N1+02901+01401999999ADDGA1021+009001999GF102991999999999999999999MA1101801999999REMMET051METAR SBQV 122000Z 11010KT 9999 FEW030 29/14 Q1018;
0072833440999992012091221004-14950-040883FM-15+0914SBQV V0201001N003619999999Y0099001N1+02701+01701999999ADDMA1101801999999REMMET045METAR SBQV 122100Z 10007KT CAVOK 27/17 Q1018;
0072833440999992012091222004-14950-040883FM-15+0914SBQV V0200901N003619999999Y0099001N1+02501+01601999999ADDMA1101901999999REMMET045METAR SBQV 122200Z 09007KT CAVOK 25/16 Q1019;
0072833440999992012091311004-14950-040883FM-15+0914SBQV V0203501N002119999999Y0099001N1+02301+01701999999ADDMA1102101999999REMMET045METAR SBQV 131100Z 35004KT CAVOK 23/17 Q1021;
0072833440999992012091312004-14950-040883FM-15+0914SBQV V0200401N003119999999Y0099001N1+02601+01501999999ADDMA1102101999999REMMET045METAR SBQV 131200Z 04006KT CAVOK 26/15 Q1021;
0072833440999992012091313004-14950-040883FM-15+0914SBQV V0200101N003119999999Y0099001N1+02801+00901999999ADDMA1102101999999REMMET045METAR SBQV 131300Z 01006KT CAVOK 28/09 Q1021;
0072833440999992012091314004-14950-040883FM-15+0914SBQV V0200401N003619999999Y0099001N1+03101+00801999999ADDMA1102101999999REMMET045METAR SBQV 131400Z 04007KT CAVOK 31/08 Q1021;
0072833440999992012091315004-14950-040883FM-15+0914SBQV V0200401N003119999999Y0099001N1+03101+00801999999ADDMA1102001999999REMMET045METAR SBQV 131500Z 04006KT CAVOK 31/08 Q1020;
0072833440999992012091316004-14950-040883FM-15+0914SBQV V0200601N004119999999Y0099001N1+03201+00801999999ADDMA1101901999999REMMET045METAR SBQV 131600Z 06008KT CAVOK 32/08 Q1019;
0072833440999992012091317004-14950-040883FM-15+0914SBQV V0200501N005119999999Y0099001N1+03101+00701999999ADDMA1101801999999REMMET045METAR SBQV 131700Z 05010KT CAVOK 31/07 Q1018;
0072833440999992012091318004-14950-040883FM-15+0914SBQV V0200801N004619999999Y0099001N1+03101+00801999999ADDMA1101801999999REMMET045METAR SBQV 131800Z 08009KT CAVOK 31/08 Q1018;
0072833440999992012091319004-14950-040883FM-15+0914SBQV V0200801N004619999999Y0099001N1+03101+00801999999ADDMA1101801999999REMMET045METAR SBQV 131900Z 08009KT CAVOK 31/08 Q1018;
0072833440999992012091320004-14950-040883FM-15+0914SBQV V0200601N003619999999Y0099001N1+02901+01301999999ADDMA1101801999999REMMET045METAR SBQV 132000Z 06007KT CAVOK 29/13 Q1018;
0072833440999992012091321004-14950-040883FM-15+0914SBQV V0200901N003119999999Y0099001N1+02601+01902999999ADDMA1101901999999REMMET045METAR SBQV 132100Z 09006KT CAVOK 26/19 Q1019;
0072833440999992012091322004-14950-040883FM-15+0914SBQV V0200801N004119999999Y0099001N1+02401+01701999999ADDMA1102001999999REMMET045METAR SBQV 132200Z 08008KT CAVOK 24/17 Q1020;
0072833440999992012091323004-14950-040883FM-15+0914SBQV V0200601N003119999999Y0099001N1+02301+01401999999ADDMA1102001999999REMMET045METAR SBQV 132300Z 06006KT CAVOK 23/14 Q1020;
0072833440999992012091400004-14950-040883FM-15+0914SBQV V0200601N003619999999Y0099001N1+02201+01301999999ADDMA1102101999999REMMET045METAR SBQV 140000Z 06007KT CAVOK 22/13 Q1021;
0072833440999992012091403004-14950-040883FM-15+0914SBQV V0200301N005119999999Y0099001N1+02201+01501999999ADDMA1102001999999REMMET045METAR SBQV 140300Z 03010KT CAVOK 22/15 Q1020;
0072833440999992012091404004-14950-040883FM-15+0914SBQV V0203501N002119999999Y0099001N1+02101+01501999999ADDMA1102001999999REMMET045METAR SBQV 140400Z 35004KT CAVOK 21/15 Q1020;
0120833440999992012091411004-14950-040883FM-15+0914SBQV V0201301N006712200019N0112651N1+02001+01601999999ADDGA1021+004501999GF102991999999999999999999MA1102301999999REMMET051METAR SBQV 141100Z 13013KT 9999 FEW015 20/16 Q1023;
0120833440999992012091412004-14950-040883FM-15+0914SBQV V0201201N006712200019N0112651N1+02201+01601999999ADDGA1021+006001999GF102991999999999999999999MA1102401999999REMMET051METAR SBQV 141200Z 12013KT 9999 FEW020 22/16 Q1024;
0128833440999992012091413004-14950-040883FM-15+0914SBQV V0201101N005112200019N0112651N1+02401+01601999999ADDGA1021+006001999GF102991999999999999999999MA1102401999999REMMET059METAR SBQV 141300Z 11010KT 070V140 9999 FEW020 24/16 Q1024;
0120833440999992012091414004-14950-040883FM-15+0914SBQV V0201101N005112200019N0112651N1+02501+01501999999ADDGA1021+007501999GF102991999999999999999999MA1102301999999REMMET051METAR SBQV 141400Z 11010KT 9999 FEW025 25/15 Q1023;
0072833440999992012091415004-14950-040883FM-15+0914SBQV V0201101N005719999999Y0099001N1+02601+01501999999ADDMA1102301999999REMMET045METAR SBQV 141500Z 11011KT CAVOK 26/15 Q1023;
0072833440999992012091416004-14950-040883FM-15+0914SBQV V0201001N005119999999Y0099001N1+02701+01401999999ADDMA1102201999999REMMET045METAR SBQV 141600Z 10010KT CAVOK 27/14 Q1022;
0072833440999992012091417004-14950-040883FM-15+0914SBQV V0201001N004619999999Y0099001N1+02701+01401999999ADDMA1102101999999REMMET045METAR SBQV 141700Z 10009KT CAVOK 27/14 Q1021;
0072833440999992012091418004-14950-040883FM-15+0914SBQV V0200901N005719999999Y0099001N1+02701+01401999999ADDMA1102101999999REMMET045METAR SBQV 141800Z 09011KT CAVOK 27/14 Q1021;
0072833440999992012091419004-14950-040883FM-15+0914SBQV V0201101N005119999999Y0099001N1+02601+01501999999ADDMA1102101999999REMMET045METAR SBQV 141900Z 11010KT CAVOK 26/15 Q1021;
0072833440999992012091420004-14950-040883FM-15+0914SBQV V0201001N005719999999Y0099001N1+02501+01501999999ADDMA1102101999999REMMET045METAR SBQV 142000Z 10011KT CAVOK 25/15 Q1021;
0072833440999992012091421004-14950-040883FM-15+0914SBQV V0201001N004119999999Y0099001N1+02301+01401999999ADDMA1102201999999REMMET045METAR SBQV 142100Z 10008KT CAVOK 23/14 Q1022;
0072833440999992012091422004-14950-040883FM-15+0914SBQV V0201001N004119999999Y0099001N1+02301+01501999999ADDMA1102201999999REMMET045METAR SBQV 142200Z 10008KT CAVOK 23/15 Q1022;
0120833440999992012091511004-14950-040883FM-15+0914SBQV V0200901N005712200019N0112651N1+01901+01701999999ADDGA1041+004501999GF104991999999999999999999MA1102401999999REMMET051METAR SBQV 151100Z 09011KT 9999 SCT015 19/17 Q1024;
0120833440999992012091512004-14950-040883FM-15+0914SBQV V0201001N005710045019N0112651N1+02001+01701999999ADDGA1081+004501999GF108991999999999999999999MA1102511999999REMMET051METAR SBQV 151200Z 10011KT 9999 OVC015 20/17 Q1025;
0120833440999992012091513004-14950-040883FM-15+0914SBQV V0201001N006210048019N0112651N1+02201+01701999999ADDGA1071+004801999GF107991999999999999999999MA1102511999999REMMET051METAR SBQV 151300Z 10012KT 9999 BKN016 22/17 Q1025;
0120833440999992012091514004-14950-040883FM-15+0914SBQV V0201001N006710054019N0112651N1+02301+01701999999ADDGA1071+005401999GF107991999999999999999999MA1102511999999REMMET051METAR SBQV 151400Z 10013KT 9999 BKN018 23/17 Q1025;
0120833440999992012091515004-14950-040883FM-15+0914SBQV V0201101N006210060019N0112651N1+02401+01601999999ADDGA1071+006001999GF107991999999999999999999MA1102401999999REMMET051METAR SBQV 151500Z 11012KT 9999 BKN020 24/16 Q1024;
0120833440999992012091516004-14950-040883FM-15+0914SBQV V0201101N006210060019N0112651N1+02501+01501999999ADDGA1071+006001999GF107991999999999999999999MA1102301999999REMMET051METAR SBQV 151600Z 11012KT 9999 BKN020 25/15 Q1023;
0120833440999992012091517004-14950-040883FM-15+0914SBQV V0201101N007210075019N0112651N1+02601+01401999999ADDGA1071+007501999GF107991999999999999999999MA1102201999999REMMET051METAR SBQV 151700Z 11014KT 9999 BKN025 26/14 Q1022;
0120833440999992012091518004-14950-040883FM-15+0914SBQV V0201101N006210075019N0112651N1+02601+01401999999ADDGA1071+007501999GF107991999999999999999999MA1102201999999REMMET051METAR SBQV 151800Z 11012KT 9999 BKN025 26/14 Q1022;
0120833440999992012091519004-14950-040883FM-15+0914SBQV V0200901N004112200019N0112651N1+02601+01301999999ADDGA1041+009001999GF104991999999999999999999MA1102201999999REMMET051METAR SBQV 151900Z 09008KT 9999 SCT030 26/13 Q1022;
0072833440999992012091520004-14950-040883FM-15+0914SBQV V0200801N004619999999Y0099001N1+02401+01501999999ADDMA1102201999999REMMET045METAR SBQV 152000Z 08009KT CAVOK 24/15 Q1022;
0072833440999992012091521004-14950-040883FM-15+0914SBQV V0200901N003619999999Y0099001N1+02301+01601999999ADDMA1102201999999REMMET045METAR SBQV 152100Z 09007KT CAVOK 23/16 Q1022;
0072833440999992012091522004-14950-040883FM-15+0914SBQV V0200901N003119999999Y0099001N1+02201+01501999999ADDMA1102201999999REMMET045METAR SBQV 152200Z 09006KT CAVOK 22/15 Q1022;
0120833440999992012091611004-14950-040883FM-15+0914SBQV V0200801N004110048019N0112651N1+02001+01601999999ADDGA1071+004801999GF107991999999999999999999MA1102511999999REMMET051METAR SBQV 161100Z 08008KT 9999 BKN016 20/16 Q1025;
0120833440999992012091612004-14950-040883FM-15+0914SBQV V0200901N004612200019N0112651N1+02201+01501999999ADDGA1041+006001999GF104991999999999999999999MA1102511999999REMMET051METAR SBQV 161200Z 09009KT 9999 SCT020 22/15 Q1025;
0120833440999992012091613004-14950-040883FM-15+0914SBQV V0200701N004612200019N0112651N1+02401+01401999999ADDGA1041+007501999GF104991999999999999999999MA1102511999999REMMET051METAR SBQV 161300Z 07009KT 9999 SCT025 24/14 Q1025;
0120833440999992012091614004-14950-040883FM-15+0914SBQV V0200901N004112200019N0112651N1+02501+01301999999ADDGA1041+007501999GF104991999999999999999999MA1102511999999REMMET051METAR SBQV 161400Z 09008KT 9999 SCT025 25/13 Q1025;
0120833440999992012091615004-14950-040883FM-15+0914SBQV V0201001N003610075019N0112651N1+02601+01201999999ADDGA1071+007501999GF107991999999999999999999MA1102401999999REMMET051METAR SBQV 161500Z 10007KT 9999 BKN025 26/12 Q1024;
0120833440999992012091616004-14950-040883FM-15+0914SBQV V0200801N004112200019N0112651N1+02701+01101999999ADDGA1041+007501999GF104991999999999999999999MA1102201999999REMMET051METAR SBQV 161600Z 08008KT 9999 SCT025 27/11 Q1022;
0120833440999992012091617004-14950-040883FM-15+0914SBQV V0201001N004112200019N0112651N1+02701+01101999999ADDGA1021+007501999GF102991999999999999999999MA1102101999999REMMET051METAR SBQV 161700Z 10008KT 9999 FEW025 27/11 Q1021;
0120833440999992012091618004-14950-040883FM-15+0914SBQV V0201001N006212200019N0112651N1+02601+01201999999ADDGA1041+007501999GF104991999999999999999999MA1102101999999REMMET051METAR SBQV 161800Z 10012KT 9999 SCT025 26/12 Q1021;
0120833440999992012091619004-14950-040883FM-15+0914SBQV V0201001N004112200019N0112651N1+02601+01201999999ADDGA1021+007501999GF102991999999999999999999MA1102001999999REMMET051METAR SBQV 161900Z 10008KT 9999 FEW025 26/12 Q1020;
0120833440999992012091620004-14950-040883FM-15+0914SBQV V0201001N005112200019N0112651N1+02501+01301999999ADDGA1021+006001999GF102991999999999999999999MA1102101999999REMMET051METAR SBQV 162000Z 10010KT 9999 FEW020 25/13 Q1021;
0120833440999992012091621004-14950-040883FM-15+0914SBQV V0200901N004612200019N0112651N1+02301+01401999999ADDGA1021+005401999GF102991999999999999999999MA1102101999999REMMET051METAR SBQV 162100Z 09009KT 9999 FEW018 23/14 Q1021;
0072833440999992012091622004-14950-040883FM-15+0914SBQV V0200801N004619999999Y0099001N1+02201+01501999999ADDMA1102101999999REMMET045METAR SBQV 162200Z 08009KT CAVOK 22/15 Q1021;
0072833440999992012091702004-14950-040883FM-15+0914SBQV V0200901N004119999999Y0099001N1+01801+01601999999ADDMA1102301999999REMMET045METAR SBQV 170200Z 09008KT CAVOK 18/16 Q1023;
0072833440999992012091703004-14950-040883FM-15+0914SBQV V0201201N004119999999Y0099001N1+01701+01501999999ADDMA1102301999999REMMET045METAR SBQV 170300Z 12008KT CAVOK 17/15 Q1023;
0072833440999992012091704004-14950-040883FM-15+0914SBQV V0201001N003619999999Y0099001N1+01701+01501999999ADDMA1102301999999REMMET045METAR SBQV 170400Z 10007KT CAVOK 17/15 Q1023;
0120833440999992012091711004-14950-040883FM-15+0914SBQV V0200801N005112200019N0112651N1+02101+01601999999ADDGA1021+005401999GF102991999999999999999999MA1102511999999REMMET051METAR SBQV 171100Z 08010KT 9999 FEW018 21/16 Q1025;
0120833440999992012091712004-14950-040883FM-15+0914SBQV V0200601N005112200019N0112651N1+02301+01501999999ADDGA1021+006001999GF102991999999999999999999MA1102511999999REMMET051METAR SBQV 171200Z 06010KT 9999 FEW020 23/15 Q1025;
0120833440999992012091713004-14950-040883FM-15+0914SBQV V0200501N004112200019N0112651N1+02501+01401999999ADDGA1021+007501999GF102991999999999999999999MA1102511999999REMMET051METAR SBQV 171300Z 05008KT 9999 FEW025 25/14 Q1025;
0120833440999992012091714004-14950-040883FM-15+0914SBQV V0200601N004612200019N0112651N1+02601+01301999999ADDGA1021+007501999GF102991999999999999999999MA1102401999999REMMET051METAR SBQV 171400Z 06009KT 9999 FEW025 26/13 Q1024;
0120833440999992012091715004-14950-040883FM-15+0914SBQV V0200701N004112200019N0112651N1+02801+01101999999ADDGA1021+009001999GF102991999999999999999999MA1102301999999REMMET051METAR SBQV 171500Z 07008KT 9999 FEW030 28/11 Q1023;
0128833440999992012091716004-14950-040883FM-15+0914SBQV V0200801N004112200019N0112651N1+02801+01301999999ADDGA1021+009001999GF102991999999999999999999MA1102201999999REMMET059METAR SBQV 171600Z 08008KT 040V120 9999 FEW030 28/13 Q1022;
0120833440999992012091717004-14950-040883FM-15+0914SBQV V0200901N004110090019N0112651N1+02801+01301999999ADDGA1071+009001999GF107991999999999999999999MA1102101999999REMMET051METAR SBQV 171700Z 09008KT 9999 BKN030 28/13 Q1021;
0120833440999992012091718004-14950-040883FM-15+0914SBQV V0201101N005712200019N0112651N1+02701+01301999999ADDGA1041+009001999GF104991999999999999999999MA1102101999999REMMET051METAR SBQV 171800Z 11011KT 9999 SCT030 27/13 Q1021;
0120833440999992012091719004-14950-040883FM-15+0914SBQV V0200901N005112200019N0112651N1+02701+01301999999ADDGA1041+009001999GF104991999999999999999999MA1102001999999REMMET051METAR SBQV 171900Z 09010KT 9999 SCT030 27/13 Q1020;
0120833440999992012091720004-14950-040883FM-15+0914SBQV V0201001N005712200019N0112651N1+02501+01301999999ADDGA1041+007501999GF104991999999999999999999MA1102101999999REMMET051METAR SBQV 172000Z 10011KT 9999 SCT025 25/13 Q1021;
0120833440999992012091721004-14950-040883FM-15+0914SBQV V0201001N005712200019N0112651N1+02401+01501999999ADDGA1021+006001999GF102991999999999999999999MA1102101999999REMMET051METAR SBQV 172100Z 10011KT 9999 FEW020 24/15 Q1021;
0120833440999992012091722004-14950-040883FM-15+0914SBQV V0200701N005112200019N0112651N1+02301+01601999999ADDGA1021+004801999GF102991999999999999999999MA1102101999999REMMET051METAR SBQV 172200Z 07010KT 9999 FEW016 23/16 Q1021;
0120833440999992012091811004-14950-040883FM-15+0914SBQV V0200701N003612200019N0112651N1+02101+01601999999ADDGA1021+004501999GF102991999999999999999999MA1102401999999REMMET051METAR SBQV 181100Z 07007KT 9999 FEW015 21/16 Q1024;
0072833440999992012091812004-14950-040883FM-15+0914SBQV V0200401N002619999999Y0099001N1+02301+01501999999ADDMA1102401999999REMMET045METAR SBQV 181200Z 04005KT CAVOK 23/15 Q1024;
0072833440999992012091813004-14950-040883FM-15+0914SBQV V0200501N005119999999Y0099001N1+02501+01401999999ADDMA1102401999999REMMET045METAR SBQV 181300Z 05010KT CAVOK 25/14 Q1024;
0072833440999992012091814004-14950-040883FM-15+0914SBQV V0200701N004119999999Y0099001N1+02701+01101999999ADDMA1102301999999REMMET045METAR SBQV 181400Z 07008KT CAVOK 27/11 Q1023;
0080833440999992012091815004-14950-040883FM-15+0914SBQV V0200401N003119999999Y0099001N1+02801+01001999999ADDMA1102101999999REMMET053METAR SBQV 181500Z 04006KT 360V080 CAVOK 28/10 Q1021;
0120833440999992012091816004-14950-040883FM-15+0914SBQV V0200701N003112200019N0112651N1+02901+01001999999ADDGA1021+007501999GF102991999999999999999999MA1102001999999REMMET051METAR SBQV 181600Z 07006KT 9999 FEW025 29/10 Q1020;
0120833440999992012091817004-14950-040883FM-15+0914SBQV V0200901N003112200019N0112651N1+03001+01001999999ADDGA1021+009001999GF102991999999999999999999MA1101901999999REMMET051METAR SBQV 181700Z 09006KT 9999 FEW030 30/10 Q1019;
0120833440999992012091818004-14950-040883FM-15+0914SBQV V0200501N003612200019N0112651N1+02901+01001999999ADDGA1021+009001999GF102991999999999999999999MA1101801999999REMMET051METAR SBQV 181800Z 05007KT 9999 FEW030 29/10 Q1018;
0120833440999992012091819004-14950-040883FM-15+0914SBQV V0200801N006712200019N0112651N1+02701+01401999999ADDGA1021+009001999GF102991999999999999999999MA1101801999999REMMET051METAR SBQV 181900Z 08013KT 9999 FEW030 27/14 Q1018;
0120833440999992012091820004-14950-040883FM-15+0914SBQV V0201101N006212200019N0112651N1+02601+01501999999ADDGA1021+007501999GF102991999999999999999999MA1101901999999REMMET051METAR SBQV 182000Z 11012KT 9999 FEW025 26/15 Q1019;
0120833440999992012091821004-14950-040883FM-15+0914SBQV V0200901N005712200019N0112651N1+02401+01601999999ADDGA1021+006001999GF102991999999999999999999MA1101901999999REMMET051METAR SBQV 182100Z 09011KT 9999 FEW020 24/16 Q1019;
0072833440999992012091822004-14950-040883FM-15+0914SBQV V0200801N004619999999Y0099001N1+02301+01601999999ADDMA1102001999999REMMET045METAR SBQV 182200Z 08009KT CAVOK 23/16 Q1020;
0120833440999992012091911004-14950-040883FM-15+0914SBQV V0200101N004610045019N0112651N1+01901+01601999999ADDGA1071+004501999GF107991999999999999999999MA1102201999999REMMET051METAR SBQV 191100Z 01009KT 9999 BKN015 19/16 Q1022;
0120833440999992012091912004-14950-040883FM-15+0914SBQV V0200201N005712200019N0112651N1+02201+01601999999ADDGA1021+006001999GF102991999999999999999999MA1102201999999REMMET051METAR SBQV 191200Z 02011KT 9999 FEW020 22/16 Q1022;
0080833440999992012091913004-14950-040883FM-15+0914SBQV V0200301N003619999999Y0099001N1+02401+01501999999ADDMA1102201999999REMMET053METAR SBQV 191300Z 03007KT 340V070 CAVOK 24/15 Q1022;
0072833440999992012091914004-14950-040883FM-15+0914SBQV V0200401N004619999999Y0099001N1+02601+01501999999ADDMA1102101999999REMMET045METAR SBQV 191400Z 04009KT CAVOK 26/15 Q1021;
0072833440999992012091915004-14950-040883FM-15+0914SBQV V0203401N003619999999Y0099001N1+02801+01301999999ADDMA1102001999999REMMET045METAR SBQV 191500Z 34007KT CAVOK 28/13 Q1020;
0072833440999992012091916004-14950-040883FM-15+0914SBQV V0200101N004119999999Y0099001N1+03001+01301999999ADDMA1101901999999REMMET045METAR SBQV 191600Z 01008KT CAVOK 30/13 Q1019;
0120833440999992012091917004-14950-040883FM-15+0914SBQV V0203101N001512200019N0112651N1+03001+01201999999ADDGA1021+009001999GF102991999999999999999999MA1101801999999REMMET051METAR SBQV 191700Z 31003KT 9999 FEW030 30/12 Q1018;
0120833440999992012091918004-14950-040883FM-15+0914SBQV V0200501N002112200019N0112651N1+03001+01201999999ADDGA1021+009001999GF102991999999999999999999MA1101691999999REMMET051METAR SBQV 191800Z 05004KT 9999 FEW030 30/12 Q1017;
0120833440999992012091919004-14950-040883FM-15+0914SBQV V0200301N003112200019N0112651N1+03001+01101999999ADDGA1021+009001999GF102991999999999999999999MA1101691999999REMMET051METAR SBQV 191900Z 03006KT 9999 FEW030 30/11 Q1017;
0120833440999992012091920004-14950-040883FM-15+0914SBQV V0200201N002112200019N0112651N1+02901+01101999999ADDGA1021+007501999GF102991999999999999999999MA1101691999999REMMET051METAR SBQV 192000Z 02004KT 9999 FEW025 29/11 Q1017;
0072833440999992012091921004-14950-040883FM-15+0914SBQV V0200901N003619999999Y0099001N1+02601+01701999999ADDMA1101691999999REMMET045METAR SBQV 192100Z 09007KT CAVOK 26/17 Q1017;
0072833440999992012091922004-14950-040883FM-15+0914SBQV V0200901N004619999999Y0099001N1+02401+01701999999ADDMA1101801999999REMMET045METAR SBQV 192200Z 09009KT CAVOK 24/17 Q1018;
0072833440999992012092001004-14950-040883FM-15+0914SBQV V0200301N005719999999Y0099001N1+02201+01601999999ADDMA1101801999999REMMET045METAR SBQV 200100Z 03011KT CAVOK 22/16 Q1018;
0072833440999992012092011004-14950-040883FM-15+0914SBQV V0203601N006719999999Y0099001N1+02201+01701999999ADDMA1101801999999REMMET045METAR SBQV 201100Z 36013KT CAVOK 22/17 Q1018;
0072833440999992012092012004-14950-040883FM-15+0914SBQV V0203501N004619999999Y0099001N1+02401+01701999999ADDMA1101901999999REMMET045METAR SBQV 201200Z 35009KT CAVOK 24/17 Q1019;
0072833440999992012092013004-14950-040883FM-15+0914SBQV V0203501N004119999999Y0099001N1+02701+01501999999ADDMA1101901999999REMMET045METAR SBQV 201300Z 35008KT CAVOK 27/15 Q1019;
0072833440999992012092014004-14950-040883FM-15+0914SBQV V0203301N002619999999Y0099001N1+02901+01501999999ADDMA1101801999999REMMET045METAR SBQV 201400Z 33005KT CAVOK 29/15 Q1018;
0072833440999992012092015004-14950-040883FM-15+0914SBQV V0203401N002619999999Y0099001N1+03001+01301999999ADDMA1101691999999REMMET045METAR SBQV 201500Z 34005KT CAVOK 30/13 Q1017;
0072833440999992012092016004-14950-040883FM-15+0914SBQV V0203401N003119999999Y0099001N1+03101+01101999999ADDMA1101591999999REMMET045METAR SBQV 201600Z 34006KT CAVOK 31/11 Q1016;
0120833440999992012092017004-14950-040883FM-15+0914SBQV V0203401N002612200019N0112651N1+03201+01201999999ADDGA1021+012001999GF102991999999999999999999MA1101491999999REMMET051METAR SBQV 201700Z 34005KT 9999 FEW040 32/12 Q1015;
0072833440999992012092018004-14950-040883FM-15+0914SBQV V0203301N002619999999Y0099001N1+03201+01101999999ADDMA1101491999999REMMET045METAR SBQV 201800Z 33005KT CAVOK 32/11 Q1015;
0120833440999992012092019004-14950-040883FM-15+0914SBQV V0203601N001012200019N0112651N1+03201+01201999999ADDGA1021+010501999GF102991999999999999999999MA1101491999999REMMET051METAR SBQV 201900Z 36002KT 9999 FEW035 32/12 Q1015;
0120833440999992012092020004-14950-040883FM-15+0914SBQV V0203601N003112200019N0112651N1+03101+01201999999ADDGA1021+010501999GF102991999999999999999999MA1101491999999REMMET051METAR SBQV 202000Z 36006KT 9999 FEW035 31/12 Q1015;
0120833440999992012092021004-14950-040883FM-15+0914SBQV V0200401N003112200019N0112651N1+02901+01301999999ADDGA1021+007501999GF102991999999999999999999MA1101491999999REMMET051METAR SBQV 202100Z 04006KT 9999 FEW025 29/13 Q1015;
0072833440999992012092022004-14950-040883FM-15+0914SBQV V0200601N004119999999Y0099001N1+02601+01601999999ADDMA1101591999999REMMET045METAR SBQV 202200Z 06008KT CAVOK 26/16 Q1016;
0072833440999992012092023004-14950-040883FM-15+0914SBQV V0201001N003119999999Y0099001N1+02401+01701999999ADDMA1101591999999REMMET045METAR SBQV 202300Z 10006KT CAVOK 24/17 Q1016;
0120833440999992012092111004-14950-040883FM-15+0914SBQV V0200901N004612200019N0112651N1+02101+01701999999ADDGA1041+004501999GF104991999999999999999999MA1102101999999REMMET051METAR SBQV 211100Z 09009KT 9999 SCT015 21/17 Q1021;
0120833440999992012092112004-14950-040883FM-15+0914SBQV V0200701N004110054019N0112651N1+02201+01601999999ADDGA1071+005401999GF107991999999999999999999MA1102101999999REMMET051METAR SBQV 211200Z 07008KT 9999 BKN018 22/16 Q1021;
0120833440999992012092113004-14950-040883FM-15+0914SBQV V0200601N004612200019N0112651N1+02501+01601999999ADDGA1041+006001999GF104991999999999999999999MA1102001999999REMMET051METAR SBQV 211300Z 06009KT 9999 SCT020 25/16 Q1020;
0120833440999992012092114004-14950-040883FM-15+0914SBQV V0200601N003610060019N0112651N1+02601+01601999999ADDGA1071+006001999GF107991999999999999999999MA1102001999999REMMET051METAR SBQV 211400Z 06007KT 9999 BKN020 26/16 Q1020;
0120833440999992012092115004-14950-040883FM-15+0914SBQV V0200501N005110075019N0112651N1+02601+01701999999ADDGA1071+007501999GF107991999999999999999999MA1101901999999REMMET051METAR SBQV 211500Z 05010KT 9999 BKN025 26/17 Q1019;
0135833440999992012092116004-14950-040883FM-15+0914SBQV V0200501N004112200019N0112651N1+02701+01601999999ADDGA1041+007501999GF104991999999999999999999MA1101801999999REMMET066METAR SBQV 211600Z 05008KT 010V080 9999 SCT025 27/16 Q1018 WS R33;
0120833440999992012092117004-14950-040883FM-15+0914SBQV V0200601N004112200019N0112651N1+02901+01501999999ADDGA1041+007501999GF104991999999999999999999MA1101691999999REMMET051METAR SBQV 211700Z 06008KT 9999 SCT025 29/15 Q1017;
0120833440999992012092118004-14950-040883FM-15+0914SBQV V0200501N004612200019N0112651N1+02801+01501999999ADDGA1021+007501999GF102991999999999999999999MA1101591999999REMMET051METAR SBQV 211800Z 05009KT 9999 FEW025 28/15 Q1016;
0120833440999992012092119004-14950-040883FM-15+0914SBQV V0200601N004612200019N0112651N1+02801+01601999999ADDGA1041+007501999GF104991999999999999999999MA1101591999999REMMET051METAR SBQV 211900Z 06009KT 9999 SCT025 28/16 Q1016;
0120833440999992012092120004-14950-040883FM-15+0914SBQV V0200601N004612200019N0112651N1+02601+01601999999ADDGA1021+007501999GF102991999999999999999999MA1101591999999REMMET051METAR SBQV 212000Z 06009KT 9999 FEW025 26/16 Q1016;
0072833440999992012092121004-14950-040883FM-15+0914SBQV V0200801N004619999999Y0099001N1+02401+01701999999ADDMA1101691999999REMMET045METAR SBQV 212100Z 08009KT CAVOK 24/17 Q1017;
0072833440999992012092122004-14950-040883FM-15+0914SBQV V0200701N004619999999Y0099001N1+02301+01601999999ADDMA1101691999999REMMET045METAR SBQV 212200Z 07009KT CAVOK 23/16 Q1017;
0072833440999992012092123004-14950-040883FM-15+0914SBQV V0200601N004119999999Y0099001N1+02201+01701999999ADDMA1101801999999REMMET045METAR SBQV 212300Z 06008KT CAVOK 22/17 Q1018;
0120833440999992012092211004-14950-040883FM-15+0914SBQV V0200701N001512200019N0112651N1+02001+01601999999ADDGA1021+004501999GF102991999999999999999999MA1102001999999REMMET051METAR SBQV 221100Z 07003KT 9999 FEW015 20/16 Q1020;
0120833440999992012092212004-14950-040883FM-15+0914SBQV V0200101N002112200019N0112651N1+02201+01601999999ADDGA1021+005401999GF102991999999999999999999MA1102101999999REMMET051METAR SBQV 221200Z 01004KT 9999 FEW018 22/16 Q1021;
0120833440999992012092213004-14950-040883FM-15+0914SBQV V0200701N002612200019N0112651N1+02501+01601999999ADDGA1021+007501999GF102991999999999999999999MA1102101999999REMMET051METAR SBQV 221300Z 07005KT 9999 FEW025 25/16 Q1021;
0120833440999992012092214004-14950-040883FM-15+0914SBQV V0200701N001512200019N0112651N1+02601+01501999999ADDGA1021+007501999GF102991999999999999999999MA1102101999999REMMET051METAR SBQV 221400Z 07003KT 9999 FEW025 26/15 Q1021;
0120833440999992012092215004-14950-040883FM-15+0914SBQV V0200701N002112200019N0112651N1+02801+01501999999ADDGA1021+009001999GF102991999999999999999999MA1102001999999REMMET051METAR SBQV 221500Z 07004KT 9999 FEW030 28/15 Q1020;
0120833440999992012092216004-14950-040883FM-15+0914SBQV V0201901N002112200019N0112651N1+02901+01301999999ADDGA1021+009001999GF102991999999999999999999MA1101901999999REMMET051METAR SBQV 221600Z 19004KT 9999 FEW030 29/13 Q1019;
0120833440999992012092217004-14950-040883FM-15+0914SBQV V0201301N003112200019N0112651N1+03001+01501999999ADDGA1021+009001999GF102991999999999999999999MA1101801999999REMMET051METAR SBQV 221700Z 13006KT 9999 FEW030 30/15 Q1018;
0120833440999992012092218004-14950-040883FM-15+0914SBQV V0201401N005112200019N0112651N1+02901+01601999999ADDGA1041+009001999GF104991999999999999999999MA1101801999999REMMET051METAR SBQV 221800Z 14010KT 9999 SCT030 29/16 Q1018;
0120833440999992012092219004-14950-040883FM-15+0914SBQV V0201301N006212200019N0112651N1+02901+01401999999ADDGA1021+007501999GF102991999999999999999999MA1101801999999REMMET051METAR SBQV 221900Z 13012KT 9999 FEW025 29/14 Q1018;
0120833440999992012092220004-14950-040883FM-15+0914SBQV V0201201N006712200019N0112651N1+02701+01301999999ADDGA1021+006001999GF102991999999999999999999MA1101901999999REMMET051METAR SBQV 222000Z 12013KT 9999 FEW020 27/13 Q1019;
0072833440999992012092221004-14950-040883FM-15+0914SBQV V0201101N005119999999Y0099001N1+02501+01501999999ADDMA1102001999999REMMET045METAR SBQV 222100Z 11010KT CAVOK 25/15 Q1020;
0072833440999992012092222004-14950-040883FM-15+0914SBQV V0200901N004619999999Y0099001N1+02401+01501999999ADDMA1102001999999REMMET045METAR SBQV 222200Z 09009KT CAVOK 24/15 Q1020;
0072833440999992012092223004-14950-040883FM-15+0914SBQV V0200801N005119999999Y0099001N1+02301+01601999999ADDMA1102101999999REMMET045METAR SBQV 222300Z 08010KT CAVOK 23/16 Q1021;
0072833440999992012092301004-14950-040883FM-15+0914SBQV V0200801N006219999999Y0099001N1+02101+01801999999ADDMA1102101999999REMMET045METAR SBQV 230100Z 08012KT CAVOK 21/18 Q1021;
0072833440999992012092302004-14950-040883FM-15+0914SBQV V0201001N006219999999Y0099001N1+02001+01801999999ADDMA1102101999999REMMET045METAR SBQV 230200Z 10012KT CAVOK 20/18 Q1021;
0072833440999992012092303004-14950-040883FM-15+0914SBQV V0201001N005119999999Y0099001N1+02001+01801999999ADDMA1102101999999REMMET045METAR SBQV 230300Z 10010KT CAVOK 20/18 Q1021;
0143833440999992012092311004-14950-040883FM-15+0914SBQV V0200801N005712200019N0112651N1+02101+01701999999ADDGA1021+003601999GA2041+004501999GF104991999999999999999999MA1102301999999REMMET058METAR SBQV 231100Z 08011KT 9999 FEW012 SCT015 21/17 Q1023;
0120833440999992012092312004-14950-040883FM-15+0914SBQV V0200801N006210045019N0112651N1+02301+01601999999ADDGA1071+004501999GF107991999999999999999999MA1102301999999REMMET051METAR SBQV 231200Z 08012KT 9999 BKN015 23/16 Q1023;
0120833440999992012092313004-14950-040883FM-15+0914SBQV V0200901N006710048019N0112651N1+02501+01601999999ADDGA1071+004801999GF107991999999999999999999MA1102301999999REMMET051METAR SBQV 231300Z 09013KT 9999 BKN016 25/16 Q1023;
0120833440999992012092314004-14950-040883FM-15+0914SBQV V0200801N006710054019N0112651N1+02501+01501999999ADDGA1071+005401999GF107991999999999999999999MA1102301999999REMMET051METAR SBQV 231400Z 08013KT 9999 BKN018 25/15 Q1023;
0120833440999992012092315004-14950-040883FM-15+0914SBQV V0200901N006210060019N0112651N1+02601+01501999999ADDGA1071+006001999GF107991999999999999999999MA1102201999999REMMET051METAR SBQV 231500Z 09012KT 9999 BKN020 26/15 Q1022;
0143833440999992012092316004-14950-040883FM-15+0914SBQV V0201001N005712200019N0112651N1+02501+01501999999ADDGA1041+006001999GA2041+024001999GF104991999999999999999999MA1102101999999REMMET058METAR SBQV 231600Z 10011KT 9999 SCT020 SCT080 25/15 Q1021;
0143833440999992012092317004-14950-040883FM-15+0914SBQV V0201001N005710240019N0112651N1+02601+01501999999ADDGA1021+006001999GA2071+024001999GF107991999999999999999999MA1102001999999REMMET058METAR SBQV 231700Z 10011KT 9999 FEW020 BKN080 26/15 Q1020;
0143833440999992012092318004-14950-040883FM-15+0914SBQV V0201201N005110060019N0112651N1+02501+01601999999ADDGA1071+006001999GA2071+024001999GF107991999999999999999999MA1102001999999REMMET058METAR SBQV 231800Z 12010KT 9999 BKN020 BKN080 25/16 Q1020;
0143833440999992012092319004-14950-040883FM-15+0914SBQV V0201301N007212200019N0112651N1+02401+01801999999ADDGA1041+006001999GA2041+024001999GF104991999999999999999999MA1102001999999REMMET058METAR SBQV 231900Z 13014KT 9999 SCT020 SCT080 24/18 Q1020;
0136833440999992012092320004-14950-040883FM-15+0914SBQV V0201301N00771001801CN0112651N1+02001+01901999999ADDGA1071+001801999GA2041+021001999MA1102101999999REMMET058METAR SBQV 232000Z 13015KT 9999 BKN006 SCT070 20/19 Q1021;EQDQ01+000042SCOTCV
0120833440999992012092321004-14950-040883FM-15+0914SBQV V0201201N006710018019N0112651N1+01901+01801999999ADDGA1071+001801999GF107991999999999999999999MA1102201999999REMMET051METAR SBQV 232100Z 12013KT 9999 BKN006 19/18 Q1022;
0130833440999992012092322004-14950-040883FM-15+0914SBQV V0201301N006210015019N0030001N1+01801+01801999999ADDGA1081+001501999GF108991999999999999999999MA1102201999999MW1511REMMET055METAR SBQV 232200Z 13012KT 3000 -DZ OVC005 18/18 Q1022;
0130833440999992012092323004-14950-040883FM-15+0914SBQV V0201201N006710015019N0080001N1+01801+01801999999ADDGA1081+001501999GF108991999999999999999999MA1102301999999MW1511REMMET055METAR SBQV 232300Z 12013KT 8000 -DZ OVC005 18/18 Q1023;
0120833440999992012092400004-14950-040883FM-15+0914SBQV V0201201N007210015019N0112651N1+01701+01701999999ADDGA1081+001501999GF108991999999999999999999MA1102401999999REMMET051METAR SBQV 240000Z 12014KT 9999 OVC005 17/17 Q1024;
0130833440999992012092411004-14950-040883FM-15+0914SBQV V0201201N005710015019N0020001N1+01701+01701999999ADDGA1081+001501999GF108991999999999999999999MA1102401999999MW1511REMMET055METAR SBQV 241100Z 12011KT 2000 -DZ OVC005 17/17 Q1024;
0130833440999992012092412004-14950-040883FM-15+0914SBQV V0201201N004610018019N0050001N1+01701+01701999999ADDGA1081+001801999GF108991999999999999999999MA1102511999999MW1511REMMET055METAR SBQV 241200Z 12009KT 5000 -DZ OVC006 17/17 Q1025;
0130833440999992012092413004-14950-040883FM-15+0914SBQV V0201201N006210018019N0050001N1+01801+01801999999ADDGA1081+001801999GF108991999999999999999999MA1102401999999MW1511REMMET055METAR SBQV 241300Z 12012KT 5000 -DZ OVC006 18/18 Q1024;
0130833440999992012092414004-14950-040883FM-15+0914SBQV V0201301N006210024019N0050001N1+01801+01801999999ADDGA1081+002401999GF108991999999999999999999MA1102401999999MW1511REMMET055METAR SBQV 241400Z 13012KT 5000 -DZ OVC008 18/18 Q1024;
0143833440999992012092415004-14950-040883FM-15+0914SBQV V0201201N006210033019N0112651N1+01901+01801999999ADDGA1041+002701999GA2071+003301999GF107991999999999999999999MA1102301999999REMMET058METAR SBQV 241500Z 12012KT 9999 SCT009 BKN011 19/18 Q1023;
0120833440999992012092416004-14950-040883FM-15+0914SBQV V0201201N005110039019N0112651N1+02101+01801999999ADDGA1071+003901999GF107991999999999999999999MA1102201999999REMMET051METAR SBQV 241600Z 12010KT 9999 BKN013 21/18 Q1022;
0143833440999992012092417004-14950-040883FM-15+0914SBQV V0201201N005112200019N0112651N1+02101+01801999999ADDGA1041+003901999GA2041+004501999GF104991999999999999999999MA1102101999999REMMET058METAR SBQV 241700Z 12010KT 9999 SCT013 SCT015 21/18 Q1021;
0120833440999992012092418004-14950-040883FM-15+0914SBQV V0201001N005712200019N0112651N1+02301+01701999999ADDGA1041+004801999GF104991999999999999999999MA1102001999999REMMET051METAR SBQV 241800Z 10011KT 9999 SCT016 23/17 Q1020;
0120833440999992012092419004-14950-040883FM-15+0914SBQV V0201001N005710048019N0112651N1+02301+01701999999ADDGA1071+004801999GF107991999999999999999999MA1102001999999REMMET051METAR SBQV 241900Z 10011KT 9999 BKN016 23/17 Q1020;
0143833440999992012092420004-14950-040883FM-15+0914SBQV V0200801N004612200019N0112651N1+02201+01801999999ADDGA1041+003901999GA2041+004501999GF104991999999999999999999MA1102101999999REMMET058METAR SBQV 242000Z 08009KT 9999 SCT013 SCT015 22/18 Q1021;
0143833440999992012092421004-14950-040883FM-15+0914SBQV V0201201N004110033019N0112651N1+02001+01801999999ADDGA1021+002101999GA2071+003301999GF107991999999999999999999MA1102101999999REMMET058METAR SBQV 242100Z 12008KT 9999 FEW007 BKN011 20/18 Q1021;
0143833440999992012092422004-14950-040883FM-15+0914SBQV V0201201N004110018019N0112651N1+01901+01901999999ADDGA1071+001801999GA2071+003001999GF107991999999999999999999MA1102201999999REMMET058METAR SBQV 242200Z 12008KT 9999 BKN006 BKN010 19/19 Q1022;
0143833440999992012092423004-14950-040883FM-15+0914SBQV V0201101N004110030019N0112651N1+01901+01901999999ADDGA1021+001801999GA2071+003001999GF107991999999999999999999MA1102201999999REMMET058METAR SBQV 242300Z 11008KT 9999 FEW006 BKN010 19/19 Q1022;
0120833440999992012092511004-14950-040883FM-15+0914SBQV V0200901N004612200019N0112651N1+02001+01701999999ADDGA1041+003001999GF104991999999999999999999MA1102301999999REMMET051METAR SBQV 251100Z 09009KT 9999 SCT010 20/17 Q1023;
0120833440999992012092512004-14950-040883FM-15+0914SBQV V0200701N005712200019N0112651N1+02301+01601999999ADDGA1041+003901999GF104991999999999999999999MA1102201999999REMMET051METAR SBQV 251200Z 07011KT 9999 SCT013 23/16 Q1022;
0120833440999992012092513004-14950-040883FM-15+0914SBQV V0200901N006712200019N0112651N1+02501+01501999999ADDGA1041+004501999GF104991999999999999999999MA1102201999999REMMET051METAR SBQV 251300Z 09013KT 9999 SCT015 25/15 Q1022;
0120833440999992012092514004-14950-040883FM-15+0914SBQV V0201001N007212200019N0112651N1+02601+01401999999ADDGA1041+004501999GF104991999999999999999999MA1102101999999REMMET051METAR SBQV 251400Z 10014KT 9999 SCT015 26/14 Q1021;
0120833440999992012092515004-14950-040883FM-15+0914SBQV V0200801N006212200019N0112651N1+02701+01401999999ADDGA1041+007501999GF104991999999999999999999MA1102001999999REMMET051METAR SBQV 251500Z 08012KT 9999 SCT025 27/14 Q1020;
0120833440999992012092516004-14950-040883FM-15+0914SBQV V0200801N005712200019N0112651N1+02701+01601999999ADDGA1041+007501999GF104991999999999999999999MA1101901999999REMMET051METAR SBQV 251600Z 08011KT 9999 SCT025 27/16 Q1019;
0143833440999992012092517004-14950-040883FM-15+0914SBQV V0200701N005710240019N0112651N1+02501+01601999999ADDGA1021+007501999GA2071+024001999GF107991999999999999999999MA1101801999999REMMET058METAR SBQV 251700Z 07011KT 9999 FEW025 BKN080 25/16 Q1018;
0143833440999992012092518004-14950-040883FM-15+0914SBQV V0200701N005112200019N0112651N1+02601+01401999999ADDGA1041+007501999GA2041+024001999GF104991999999999999999999MA1101801999999REMMET058METAR SBQV 251800Z 07010KT 9999 SCT025 SCT080 26/14 Q1018;
0120833440999992012092519004-14950-040883FM-15+0914SBQV V0200801N005112200019N0112651N1+02601+01501999999ADDGA1021+007501999GF102991999999999999999999MA1101801999999REMMET051METAR SBQV 251900Z 08010KT 9999 FEW025 26/15 Q1018;
0120833440999992012092520004-14950-040883FM-15+0914SBQV V0200701N005112200019N0112651N1+02401+01501999999ADDGA1021+006001999GF102991999999999999999999MA1101801999999REMMET051METAR SBQV 252000Z 07010KT 9999 FEW020 24/15 Q1018;
0120833440999992012092521004-14950-040883FM-15+0914SBQV V0200901N004112200019N0112651N1+02201+01701999999ADDGA1021+004801999GF102991999999999999999999MA1101901999999REMMET051METAR SBQV 252100Z 09008KT 9999 FEW016 22/17 Q1019;
0120833440999992012092522004-14950-040883FM-15+0914SBQV V0200901N005112200019N0112651N1+02101+01701999999ADDGA1021+004501999GF102991999999999999999999MA1102001999999REMMET051METAR SBQV 252200Z 09010KT 9999 FEW015 21/17 Q1020;
0120833440999992012092523004-14950-040883FM-15+0914SBQV V0200901N003612200019N0112651N1+02001+01701999999ADDGA1021+003901999GF102991999999999999999999MA1102001999999REMMET051METAR SBQV 252300Z 09007KT 9999 FEW013 20/17 Q1020;
0072833440999992012092611004-14950-040883FM-15+0914SBQV V0203501N005119999999Y0099001N1+02101+01301999999ADDMA1102101999999REMMET045METAR SBQV 261100Z 35010KT CAVOK 21/13 Q1021;
0072833440999992012092612004-14950-040883FM-15+0914SBQV V0203501N006219999999Y0099001N1+02301+01301999999ADDMA1102101999999REMMET045METAR SBQV 261200Z 35012KT CAVOK 23/13 Q1021;
0072833440999992012092613004-14950-040883FM-15+0914SBQV V0203501N003619999999Y0099001N1+02501+01301999999ADDMA1102101999999REMMET045METAR SBQV 261300Z 35007KT CAVOK 25/13 Q1021;
0072833440999992012092615004-14950-040883FM-15+0914SBQV V0202801N002619999999Y0099001N1+02801+01201999999ADDMA1102001999999REMMET045METAR SBQV 261500Z 28005KT CAVOK 28/12 Q1020;
0120833440999992012092616004-14950-040883FM-15+0914SBQV V0202801N004112200019N0112651N1+03101+01101999999ADDGA1021+006001999GF102991999999999999999999MA1101801999999REMMET051METAR SBQV 261600Z 28008KT 9999 FEW020 31/11 Q1018;
0120833440999992012092617004-14950-040883FM-15+0914SBQV V0202901N003612200019N0112651N1+03101+01101999999ADDGA1021+007501999GF102991999999999999999999MA1101691999999REMMET051METAR SBQV 261700Z 29007KT 9999 FEW025 31/11 Q1017;
0120833440999992012092621004-14950-040883FM-15+0914SBQV V0203401N000512200019N0112651N1+02701+01201999999ADDGA1021+007501999GF102991999999999999999999MA1101691999999REMMET051METAR SBQV 262100Z 34001KT 9999 FEW025 27/12 Q1017;
0072833440999992012092623004-14950-040883FM-15+0914SBQV V0201001N003619999999Y0099001N1+02501+01501999999ADDMA1101901999999REMMET045METAR SBQV 262300Z 10007KT CAVOK 25/15 Q1019;
0143833440999992012092711004-14950-040883FM-15+0914SBQV V0201201N007710027019N0112651N1+01701+01701999999ADDGA1021+001801999GA2071+002701999GF107991999999999999999999MA1102301999999REMMET058METAR SBQV 271100Z 12015KT 9999 FEW006 BKN009 17/17 Q1023;
0136833440999992012092712004-14950-040883FM-15+0914SBQV V0201201N00721002701CN0112651N1+01801+01701999999ADDGA1071+002701999GA2041+021001999MA1102401999999REMMET058METAR SBQV 271200Z 12014KT 9999 BKN009 SCT070 18/17 Q1024;EQDQ01+000042SCOTCV
0153833440999992012092713004-14950-040883FM-15+0914SBQV V0201301N007210027019N0080001N1+01801+01601999999ADDGA1021+002101999GA2071+002701999GF107991999999999999999999MA1102511999999MW1511REMMET062METAR SBQV 271300Z 13014KT 8000 -DZ FEW007 BKN009 18/16 Q1025;
0166833440999992012092714004-14950-040883FM-15+0914SBQV V0201201N008210030019N0112651N1+01901+01601999999ADDGA1021+002101999GA2071+003001999GA3071+021001999GF107991999999999999999999MA1102511999999REMMET065METAR SBQV 271400Z 12016KT 9999 FEW007 BKN010 BKN070 19/16 Q1025;
0136833440999992012092715004-14950-040883FM-15+0914SBQV V0201301N00821003301CN0112651N1+01901+01601999999ADDGA1071+003301999GA2041+021001999MA1102401999999REMMET058METAR SBQV 271500Z 13016KT 9999 BKN011 SCT070 19/16 Q1024;EQDQ01+000042SCOTCV
0136833440999992012092716004-14950-040883FM-15+0914SBQV V0201301N00721003301CN0112651N1+01901+01501999999ADDGA1071+003301999GA2041+021001999MA1102301999999REMMET058METAR SBQV 271600Z 13014KT 9999 BKN011 SCT070 19/15 Q1023;EQDQ01+000042SCOTCV
0120833440999992012092717004-14950-040883FM-15+0914SBQV V0201301N006710033019N0112651N1+01801+01501999999ADDGA1081+003301999GF108991999999999999999999MA1102301999999REMMET051METAR SBQV 271700Z 13013KT 9999 OVC011 18/15 Q1023;
0120833440999992012092718004-14950-040883FM-15+0914SBQV V0201301N006710039019N0112651N1+01701+01501999999ADDGA1081+003901999GF108991999999999999999999MA1102201999999REMMET051METAR SBQV 271800Z 13013KT 9999 OVC013 17/15 Q1022;
0120833440999992012092719004-14950-040883FM-15+0914SBQV V0201201N007210039019N0112651N1+01701+01401999999ADDGA1081+003901999GF108991999999999999999999MA1102301999999REMMET051METAR SBQV 271900Z 12014KT 9999 OVC013 17/14 Q1023;
0120833440999992012092720004-14950-040883FM-15+0914SBQV V0201101N007210033019N0112651N1+01601+01401999999ADDGA1081+003301999GF108991999999999999999999MA1102301999999REMMET051METAR SBQV 272000Z 11014KT 9999 OVC011 16/14 Q1023;
0120833440999992012092721004-14950-040883FM-15+0914SBQV V0201101N006210027019N0112651N1+01601+01401999999ADDGA1081+002701999GF108991999999999999999999MA1102401999999REMMET051METAR SBQV 272100Z 11012KT 9999 OVC009 16/14 Q1024;
0120833440999992012092722004-14950-040883FM-15+0914SBQV V0201101N007710021019N0112651N1+01501+01401999999ADDGA1081+002101999GF108991999999999999999999MA1102401999999REMMET051METAR SBQV 272200Z 11015KT 9999 OVC007 15/14 Q1024;
0120833440999992012092723004-14950-040883FM-15+0914SBQV V0201101N007710021019N0112651N1+01501+01401999999ADDGA1071+002101999GF107991999999999999999999MA1102401999999REMMET051METAR SBQV 272300Z 11015KT 9999 BKN007 15/14 Q1024;
0120833440999992012092811004-14950-040883FM-15+0914SBQV V0201101N008712200019N0112651N1+01701+01201999999ADDGA1041+003601999GF104991999999999999999999MA1102611999999REMMET051METAR SBQV 281100Z 11017KT 9999 SCT012 17/12 Q1026;
0120833440999992012092812004-14950-040883FM-15+0914SBQV V0201201N008212200019N0112651N1+01701+01301999999ADDGA1041+003601999GF104991999999999999999999MA1102711999999REMMET051METAR SBQV 281200Z 12016KT 9999 SCT012 17/13 Q1027;
0120833440999992012092813004-14950-040883FM-15+0914SBQV V0201201N009310045019N0112651N1+01801+01301999999ADDGA1071+004501999GF107991999999999999999999MA1102711999999REMMET051METAR SBQV 281300Z 12018KT 9999 BKN015 18/13 Q1027;
0120833440999992012092814004-14950-040883FM-15+0914SBQV V0201101N008710045019N0112651N1+01901+01301999999ADDGA1071+004501999GF107991999999999999999999MA1102611999999REMMET051METAR SBQV 281400Z 11017KT 9999 BKN015 19/13 Q1026;
0120833440999992012092815004-14950-040883FM-15+0914SBQV V0201201N008210045019N0112651N1+01901+01401999999ADDGA1071+004501999GF107991999999999999999999MA1102511999999REMMET051METAR SBQV 281500Z 12016KT 9999 BKN015 19/14 Q1025;
0120833440999992012092816004-14950-040883FM-15+0914SBQV V0201201N008210054019N0112651N1+01901+01401999999ADDGA1071+005401999GF107991999999999999999999MA1102401999999REMMET051METAR SBQV 281600Z 12016KT 9999 BKN018 19/14 Q1024;
0120833440999992012092817004-14950-040883FM-15+0914SBQV V0201201N008210060019N0112651N1+01901+01401999999ADDGA1071+006001999GF107991999999999999999999MA1102401999999REMMET051METAR SBQV 281700Z 12016KT 9999 BKN020 19/14 Q1024;
0120833440999992012092818004-14950-040883FM-15+0914SBQV V0201201N008210054019N0112651N1+01801+01401999999ADDGA1071+005401999GF107991999999999999999999MA1102301999999REMMET051METAR SBQV 281800Z 12016KT 9999 BKN018 18/14 Q1023;
0120833440999992012092819004-14950-040883FM-15+0914SBQV V0201201N007710054019N0112651N1+01801+01401999999ADDGA1071+005401999GF107991999999999999999999MA1102301999999REMMET051METAR SBQV 281900Z 12015KT 9999 BKN018 18/14 Q1023;
0120833440999992012092820004-14950-040883FM-15+0914SBQV V0201201N007210045019N0112651N1+01801+01401999999ADDGA1071+004501999GF107991999999999999999999MA1102301999999REMMET051METAR SBQV 282000Z 12014KT 9999 BKN015 18/14 Q1023;
0120833440999992012092821004-14950-040883FM-15+0914SBQV V0201201N006710030019N0112651N1+01701+01401999999ADDGA1071+003001999GF107991999999999999999999MA1102401999999REMMET051METAR SBQV 282100Z 12013KT 9999 BKN010 17/14 Q1024;
0120833440999992012092822004-14950-040883FM-15+0914SBQV V0201301N006210039019N0112651N1+01701+01401999999ADDGA1071+003901999GF107991999999999999999999MA1102511999999REMMET051METAR SBQV 282200Z 13012KT 9999 BKN013 17/14 Q1025;
0120833440999992012092823004-14950-040883FM-15+0914SBQV V0201101N006210030019N0112651N1+01601+01401999999ADDGA1071+003001999GF107991999999999999999999MA1102611999999REMMET051METAR SBQV 282300Z 11012KT 9999 BKN010 16/14 Q1026;
0153833440999992012092900004-14950-040883FM-15+0914SBQV V0201201N006710015019N0050001N1+01501+01501999999ADDGA1071+001501999GA2071+002701999GF107991999999999999999999MA1102611999999MW1511REMMET062METAR SBQV 290000Z 12013KT 5000 -DZ BKN005 BKN009 15/15 Q1026;
0130833440999992012092901004-14950-040883FM-15+0914SBQV V0201201N006210015019N0020001N1+01501+01501999999ADDGA1081+001501999GF108991999999999999999999MA1102611999999MW1511REMMET055METAR SBQV 290100Z 12012KT 2000 -DZ OVC005 15/15 Q1026;
0120833440999992012092913004-14950-040883FM-15+0914SBQV V0201301N006210054019N0112651N1+01801+01301999999ADDGA1071+005401999GF107991999999999999999999MA1102711999999REMMET051METAR SBQV 291300Z 13012KT 9999 BKN018 18/13 Q1027;
0120833440999992012092914004-14950-040883FM-15+0914SBQV V0201401N005710054019N0112651N1+01801+01301999999ADDGA1081+005401999GF108991999999999999999999MA1102611999999REMMET051METAR SBQV 291400Z 14011KT 9999 OVC018 18/13 Q1026;
0120833440999992012092915004-14950-040883FM-15+0914SBQV V0201401N005710054019N0112651N1+01901+01401999999ADDGA1081+005401999GF108991999999999999999999MA1102611999999REMMET051METAR SBQV 291500Z 14011KT 9999 OVC018 19/14 Q1026;
0120833440999992012092917004-14950-040883FM-15+0914SBQV V0201201N005710060019N0112651N1+02001+01301999999ADDGA1081+006001999GF108991999999999999999999MA1102301999999REMMET051METAR SBQV 291700Z 12011KT 9999 OVC020 20/13 Q1023;
0120833440999992012092919004-14950-040883FM-15+0914SBQV V0201301N005710060019N0112651N1+02101+01301999999ADDGA1071+006001999GF107991999999999999999999MA1102301999999REMMET051METAR SBQV 291900Z 13011KT 9999 BKN020 21/13 Q1023;
0120833440999992012092921004-14950-040883FM-15+0914SBQV V0201101N005712200019N0112651N1+01801+01301999999ADDGA1021+005401999GF102991999999999999999999MA1102301999999REMMET051METAR SBQV 292100Z 11011KT 9999 FEW018 18/13 Q1023;
0072833440999992012092922004-14950-040883FM-15+0914SBQV V0201101N003619999999Y0099001N1+01701+01201999999ADDMA1102401999999REMMET045METAR SBQV 292200Z 11007KT CAVOK 17/12 Q1024;
0072833440999992012092923004-14950-040883FM-15+0914SBQV V0201001N003119999999Y0099001N1+01601+01201999999ADDMA1102401999999REMMET045METAR SBQV 292300Z 10006KT CAVOK 16/12 Q1024;
0072833440999992012093000004-14950-040883FM-15+0914SBQV V0201101N003619999999Y0099001N1+01601+01201999999ADDMA1102511999999REMMET045METAR SBQV 300000Z 11007KT CAVOK 16/12 Q1025;
0120833440999992012093011004-14950-040883FM-15+0914SBQV V0201201N004610027019N0112651N1+01601+01401999999ADDGA1071+002701999GF107991999999999999999999MA1102511999999REMMET051METAR SBQV 301100Z 12009KT 9999 BKN009 16/14 Q1025;
0120833440999992012093012004-14950-040883FM-15+0914SBQV V0201301N005112200019N0112651N1+01701+01401999999ADDGA1041+003301999GF104991999999999999999999MA1102511999999REMMET051METAR SBQV 301200Z 13010KT 9999 SCT011 17/14 Q1025;
0120833440999992012093013004-14950-040883FM-15+0914SBQV V0201201N005712200019N0112651N1+01801+01401999999ADDGA1041+003601999GF104991999999999999999999MA1102511999999REMMET051METAR SBQV 301300Z 12011KT 9999 SCT012 18/14 Q1025;
0120833440999992012093014004-14950-040883FM-15+0914SBQV V0201201N005712200019N0112651N1+02001+01401999999ADDGA1041+003601999GF104991999999999999999999MA1102401999999REMMET051METAR SBQV 301400Z 12011KT 9999 SCT012 20/14 Q1024;
0120833440999992012093015004-14950-040883FM-15+0914SBQV V0201301N006210048019N0112651N1+02001+01401999999ADDGA1071+004801999GF107991999999999999999999MA1102301999999REMMET051METAR SBQV 301500Z 13012KT 9999 BKN016 20/14 Q1023;
0120833440999992012093016004-14950-040883FM-15+0914SBQV V0201301N006710054019N0112651N1+02201+01401999999ADDGA1071+005401999GF107991999999999999999999MA1102201999999REMMET051METAR SBQV 301600Z 13013KT 9999 BKN018 22/14 Q1022;
0120833440999992012093017004-14950-040883FM-15+0914SBQV V0201201N005112200019N0112651N1+02301+01201999999ADDGA1041+006001999GF104991999999999999999999MA1102101999999REMMET051METAR SBQV 301700Z 12010KT 9999 SCT020 23/12 Q1021;
0120833440999992012093018004-14950-040883FM-15+0914SBQV V0201201N005112200019N0112651N1+02301+01201999999ADDGA1041+006001999GF104991999999999999999999MA1102001999999REMMET051METAR SBQV 301800Z 12010KT 9999 SCT020 23/12 Q1020;
0120833440999992012093019004-14950-040883FM-15+0914SBQV V0201201N006212200019N0112651N1+02201+01201999999ADDGA1041+006001999GF104991999999999999999999MA1102001999999REMMET051METAR SBQV 301900Z 12012KT 9999 SCT020 22/12 Q1020;
0120833440999992012093020004-14950-040883FM-15+0914SBQV V0201101N006212200019N0112651N1+02101+01101999999ADDGA1021+006001999GF102991999999999999999999MA1102001999999REMMET051METAR SBQV 302000Z 11012KT 9999 FEW020 21/11 Q1020;
0072833440999992012093021004-14950-040883FM-15+0914SBQV V0201101N006219999999Y0099001N1+01901+01301999999ADDMA1102101999999REMMET045METAR SBQV 302100Z 11012KT CAVOK 19/13 Q1021;
0072833440999992012093022004-14950-040883FM-15+0914SBQV V0201101N004119999999Y0099001N1+01701+01401999999ADDMA1102101999999REMMET045METAR SBQV 302200Z 11008KT CAVOK 17/14 Q1021;
0072833440999992012093023004-14950-040883FM-15+0914SBQV V0201001N004119999999Y0099001N1+01701+01301999999ADDMA1102201999999REMMET045METAR SBQV 302300Z 10008KT CAVOK 17/13 Q1022;
0072833440999992012100100004-14950-040883FM-15+0914SBQV V0201001N003619999999Y0099001N1+01601+01301999999ADDMA1102201999999REMMET045METAR SBQV 010000Z 10007KT CAVOK 16/13 Q1022;
0120833440999992012100111004-14950-040883FM-15+0914SBQV V0201201N004612200019N0112651N1+01801+01401999999ADDGA1021+004501999GF102991999999999999999999MA1102301999999REMMET051METAR SBQV 011100Z 12009KT 9999 FEW015 18/14 Q1023;
0120833440999992012100112004-14950-040883FM-15+0914SBQV V0201101N004112200019N0112651N1+02001+01401999999ADDGA1021+004801999GF102991999999999999999999MA1102301999999REMMET051METAR SBQV 011200Z 11008KT 9999 FEW016 20/14 Q1023;
0120833440999992012100113004-14950-040883FM-15+0914SBQV V0201001N003112200019N0112651N1+02101+01401999999ADDGA1041+006001999GF104991999999999999999999MA1102201999999REMMET051METAR SBQV 011300Z 10006KT 9999 SCT020 21/14 Q1022;
0120833440999992012100114004-14950-040883FM-15+0914SBQV V0201001N004112200019N0112651N1+02301+01301999999ADDGA1021+007501999GF102991999999999999999999MA1102201999999REMMET051METAR SBQV 011400Z 10008KT 9999 FEW025 23/13 Q1022;
0128833440999992012100115004-14950-040883FM-15+0914SBQV V0201301N003112200019N0112651N1+02401+01201999999ADDGA1021+007501999GF102991999999999999999999MA1102001999999REMMET059METAR SBQV 011500Z 13006KT 080V170 9999 FEW025 24/12 Q1020;
0120833440999992012100116004-14950-040883FM-15+0914SBQV V0201201N002612200019N0112651N1+02501+01001999999ADDGA1041+007501999GF104991999999999999999999MA1101901999999REMMET051METAR SBQV 011600Z 12005KT 9999 SCT025 25/10 Q1019;
0120833440999992012100117004-14950-040883FM-15+0914SBQV V0201301N003112200019N0112651N1+02601+01001999999ADDGA1041+007501999GF104991999999999999999999MA1101801999999REMMET051METAR SBQV 011700Z 13006KT 9999 SCT025 26/10 Q1018;
0120833440999992012100118004-14950-040883FM-15+0914SBQV V0201401N005112200019N0112651N1+02601+01201999999ADDGA1041+007501999GF104991999999999999999999MA1101801999999REMMET051METAR SBQV 011800Z 14010KT 9999 SCT025 26/12 Q1018;
0120833440999992012100119004-14950-040883FM-15+0914SBQV V0201401N006712200019N0112651N1+02501+01101999999ADDGA1021+007501999GF102991999999999999999999MA1101801999999REMMET051METAR SBQV 011900Z 14013KT 9999 FEW025 25/11 Q1018;
0120833440999992012100120004-14950-040883FM-15+0914SBQV V0201201N005712200019N0112651N1+02301+01201999999ADDGA1021+005401999GF102991999999999999999999MA1101801999999REMMET051METAR SBQV 012000Z 12011KT 9999 FEW018 23/12 Q1018;
0072833440999992012100121004-14950-040883FM-15+0914SBQV V0201101N004619999999Y0099001N1+02101+01401999999ADDMA1101901999999REMMET045METAR SBQV 012100Z 11009KT CAVOK 21/14 Q1019;
0072833440999992012100122004-14950-040883FM-15+0914SBQV V0201101N004619999999Y0099001N1+02001+01401999999ADDMA1102001999999REMMET045METAR SBQV 012200Z 11009KT CAVOK 20/14 Q1020;
0072833440999992012100123004-14950-040883FM-15+0914SBQV V0201001N004119999999Y0099001N1+01901+01501999999ADDMA1102001999999REMMET045METAR SBQV 012300Z 10008KT CAVOK 19/15 Q1020;
0120833440999992012100211004-14950-040883FM-15+0914SBQV V0200801N004610045019N0112651N1+02001+01401999999ADDGA1071+004501999GF107991999999999999999999MA1102301999999REMMET051METAR SBQV 021100Z 08009KT 9999 BKN015 20/14 Q1023;
0120833440999992012100212004-14950-040883FM-15+0914SBQV V0200801N004110054019N0112651N1+02101+01301999999ADDGA1071+005401999GF107991999999999999999999MA1102301999999REMMET051METAR SBQV 021200Z 08008KT 9999 BKN018 21/13 Q1023;
0120833440999992012100213004-14950-040883FM-15+0914SBQV V0201101N003112200019N0112651N1+02301+01401999999ADDGA1041+006001999GF104991999999999999999999MA1102301999999REMMET051METAR SBQV 021300Z 11006KT 9999 SCT020 23/14 Q1023;
0120833440999992012100214004-14950-040883FM-15+0914SBQV V0201401N003612200019N0112651N1+02401+01201999999ADDGA1041+007501999GF104991999999999999999999MA1102301999999REMMET051METAR SBQV 021400Z 14007KT 9999 SCT025 24/12 Q1023;
0120833440999992012100215004-14950-040883FM-15+0914SBQV V0201301N004612200019N0112651N1+02501+01201999999ADDGA1021+009001999GF102991999999999999999999MA1102201999999REMMET051METAR SBQV 021500Z 13009KT 9999 FEW030 25/12 Q1022;
0120833440999992012100216004-14950-040883FM-15+0914SBQV V0201301N004612200019N0112651N1+02601+01101999999ADDGA1021+009001999GF102991999999999999999999MA1102101999999REMMET051METAR SBQV 021600Z 13009KT 9999 FEW030 26/11 Q1021;
0120833440999992012100217004-14950-040883FM-15+0914SBQV V0201201N004112200019N0112651N1+02701+01101999999ADDGA1021+009001999GF102991999999999999999999MA1102001999999REMMET051METAR SBQV 021700Z 12008KT 9999 FEW030 27/11 Q1020;
0120833440999992012100218004-14950-040883FM-15+0914SBQV V0200901N004612200019N0112651N1+02701+01101999999ADDGA1021+009001999GF102991999999999999999999MA1101901999999REMMET051METAR SBQV 021800Z 09009KT 9999 FEW030 27/11 Q1019;
0120833440999992012100219004-14950-040883FM-15+0914SBQV V0200901N004112200019N0112651N1+02601+01101999999ADDGA1021+009001999GF102991999999999999999999MA1101901999999REMMET051METAR SBQV 021900Z 09008KT 9999 FEW030 26/11 Q1019;
0072833440999992012100220004-14950-040883FM-15+0914SBQV V0200901N004619999999Y0099001N1+02501+01101999999ADDMA1102001999999REMMET045METAR SBQV 022000Z 09009KT CAVOK 25/11 Q1020;
0072833440999992012100221004-14950-040883FM-15+0914SBQV V0201001N004619999999Y0099001N1+02301+01101999999ADDMA1102001999999REMMET045METAR SBQV 022100Z 10009KT CAVOK 23/11 Q1020;
0072833440999992012100222004-14950-040883FM-15+0914SBQV V0200901N003619999999Y0099001N1+02201+01201999999ADDMA1102001999999REMMET045METAR SBQV 022200Z 09007KT CAVOK 22/12 Q1020;
0072833440999992012100223004-14950-040883FM-15+0914SBQV V0201001N003619999999Y0099001N1+02101+01201999999ADDMA1102101999999REMMET045METAR SBQV 022300Z 10007KT CAVOK 21/12 Q1021;
0120833440999992012100311004-14950-040883FM-15+0914SBQV V0200801N004112200019N0112651N1+02001+01401999999ADDGA1021+003601999GF102991999999999999999999MA1102401999999REMMET051METAR SBQV 031100Z 08008KT 9999 FEW012 20/14 Q1024;
0120833440999992012100312004-14950-040883FM-15+0914SBQV V0200801N003612200019N0112651N1+02301+01501999999ADDGA1041+004501999GF104991999999999999999999MA1102401999999REMMET051METAR SBQV 031200Z 08007KT 9999 SCT015 23/15 Q1024;
0120833440999992012100313004-14950-040883FM-15+0914SBQV V0200701N003612200019N0112651N1+02401+01501999999ADDGA1041+004801999GF104991999999999999999999MA1102401999999REMMET051METAR SBQV 031300Z 07007KT 9999 SCT016 24/15 Q1024;
0120833440999992012100314004-14950-040883FM-15+0914SBQV V0200601N003110054019N0112651N1+02501+01401999999ADDGA1071+005401999GF107991999999999999999999MA1102301999999REMMET051METAR SBQV 031400Z 06006KT 9999 BKN018 25/14 Q1023;
0120833440999992012100315004-14950-040883FM-15+0914SBQV V0201001N004110060019N0112651N1+02601+01501999999ADDGA1071+006001999GF107991999999999999999999MA1102301999999REMMET051METAR SBQV 031500Z 10008KT 9999 BKN020 26/15 Q1023;
0120833440999992012100316004-14950-040883FM-15+0914SBQV V0200801N004110060019N0112651N1+02701+01401999999ADDGA1071+006001999GF107991999999999999999999MA1102201999999REMMET051METAR SBQV 031600Z 08008KT 9999 BKN020 27/14 Q1022;
0120833440999992012100317004-14950-040883FM-15+0914SBQV V0201001N005110060019N0112651N1+02801+01401999999ADDGA1071+006001999GF107991999999999999999999MA1102101999999REMMET051METAR SBQV 031700Z 10010KT 9999 BKN020 28/14 Q1021;
0120833440999992012100318004-14950-040883FM-15+0914SBQV V0200801N004612200019N0112651N1+02701+01401999999ADDGA1041+006001999GF104991999999999999999999MA1102101999999REMMET051METAR SBQV 031800Z 08009KT 9999 SCT020 27/14 Q1021;
0120833440999992012100319004-14950-040883FM-15+0914SBQV V0201001N005712200019N0112651N1+02601+01401999999ADDGA1021+006001999GF102991999999999999999999MA1102101999999REMMET051METAR SBQV 031900Z 10011KT 9999 FEW020 26/14 Q1021;
0120833440999992012100320004-14950-040883FM-15+0914SBQV V0201201N006212200019N0112651N1+02501+01401999999ADDGA1021+006001999GF102991999999999999999999MA1102101999999REMMET051METAR SBQV 032000Z 12012KT 9999 FEW020 25/14 Q1021;
0120833440999992012100321004-14950-040883FM-15+0914SBQV V0201001N004612200019N0112651N1+02301+01601999999ADDGA1021+005401999GF102991999999999999999999MA1102101999999REMMET051METAR SBQV 032100Z 10009KT 9999 FEW018 23/16 Q1021;
0072833440999992012100322004-14950-040883FM-15+0914SBQV V0200701N006219999999Y0099001N1+02101+01701999999ADDMA1102201999999REMMET045METAR SBQV 032200Z 07012KT CAVOK 21/17 Q1022;
0072833440999992012100323004-14950-040883FM-15+0914SBQV V0200801N005719999999Y0099001N1+02001+01701999999ADDMA1102201999999REMMET045METAR SBQV 032300Z 08011KT CAVOK 20/17 Q1022;
0130833440999992012100411004-14950-040883FM-15+0914SBQV V0201001N004110027019N0070001N1+01901+01801999999ADDGA1071+002701999GF107991999999999999999999MA1102401999999MW1511REMMET055METAR SBQV 041100Z 10008KT 7000 -DZ BKN009 19/18 Q1024;
0145833440999992012100412004-14950-040883FM-15+0914SBQV V0201001N005110045019N0112651N1+02001+01801999999ADDGA1021+003001999GA2071+004501999GF107991999999999999999999MA1102401999999REMMET060METAR SBQV 041200Z 10010KT 9999 FEW010 BKN015 20/18 Q1024 Z;
0143833440999992012100413004-14950-040883FM-15+0914SBQV V0201101N003610048019N0112651N1+02001+02001999999ADDGA1041+004501999GA2071+004801999GF107991999999999999999999MA1102401999999REMMET058METAR SBQV 041300Z 11007KT 9999 SCT015 BKN016 20/20 Q1024;
0120833440999992012100414004-14950-040883FM-15+0914SBQV V0201101N005110060019N0112651N1+02401+01801999999ADDGA1071+006001999GF107991999999999999999999MA1102301999999REMMET051METAR SBQV 041400Z 11010KT 9999 BKN020 24/18 Q1023;
0143833440999992012100415004-14950-040883FM-15+0914SBQV V0201301N006212200019N0112651N1+02401+01801999999ADDGA1041+006001999GA2041+024001999GF104991999999999999999999MA1102301999999REMMET058METAR SBQV 041500Z 13012KT 9999 SCT020 SCT080 24/18 Q1023;
0120833440999992012100416004-14950-040883FM-15+0914SBQV V0201301N006212200019N0112651N1+02501+01701999999ADDGA1021+006001999GF102991999999999999999999MA1102101999999REMMET051METAR SBQV 041600Z 13012KT 9999 FEW020 25/17 Q1021;
0120833440999992012100417004-14950-040883FM-15+0914SBQV V0201201N007212200019N0112651N1+02601+01601999999ADDGA1041+006001999GF104991999999999999999999MA1102001999999REMMET051METAR SBQV 041700Z 12014KT 9999 SCT020 26/16 Q1020;
0120833440999992012100418004-14950-040883FM-15+0914SBQV V0201101N006210075019N0112651N1+02601+01401999999ADDGA1071+007501999GF107991999999999999999999MA1102001999999REMMET051METAR SBQV 041800Z 11012KT 9999 BKN025 26/14 Q1020;
0120833440999992012100419004-14950-040883FM-15+0914SBQV V0201201N005112200019N0112651N1+02601+01401999999ADDGA1021+007501999GF102991999999999999999999MA1102001999999REMMET051METAR SBQV 041900Z 12010KT 9999 FEW025 26/14 Q1020;
0120833440999992012100420004-14950-040883FM-15+0914SBQV V0201001N006212200019N0112651N1+02501+01501999999ADDGA1021+006001999GF102991999999999999999999MA1102001999999REMMET051METAR SBQV 042000Z 10012KT 9999 FEW020 25/15 Q1020;
0120833440999992012100421004-14950-040883FM-15+0914SBQV V0200901N004612200019N0112651N1+02301+01601999999ADDGA1021+004501999GF102991999999999999999999MA1102001999999REMMET051METAR SBQV 042100Z 09009KT 9999 FEW015 23/16 Q1020;
0072833440999992012100422004-14950-040883FM-15+0914SBQV V0200901N004619999999Y0099001N1+02001+01701999999ADDMA1102001999999REMMET045METAR SBQV 042200Z 09009KT CAVOK 20/17 Q1020;
0072833440999992012100423004-14950-040883FM-15+0914SBQV V0200801N005719999999Y0099001N1+01901+01701999999ADDMA1102101999999REMMET045METAR SBQV 042300Z 08011KT CAVOK 19/17 Q1021;
0072833440999992012100500004-14950-040883FM-15+0914SBQV V0200801N005719999999Y0099001N1+01801+01601999999ADDMA1102101999999REMMET045METAR SBQV 050000Z 08011KT CAVOK 18/16 Q1021;
0072833440999992012100501004-14950-040883FM-15+0914SBQV V0200801N006719999999Y0099001N1+01701+01601999999ADDMA1102201999999REMMET045METAR SBQV 050100Z 08013KT CAVOK 17/16 Q1022;
0072833440999992012100502004-14950-040883FM-15+0914SBQV V0200801N006219999999Y0099001N1+01701+01601999999ADDMA1102201999999REMMET045METAR SBQV 050200Z 08012KT CAVOK 17/16 Q1022;
0072833440999992012100503004-14950-040883FM-15+0914SBQV V0200901N005119999999Y0099001N1+01701+01601999999ADDMA1102101999999REMMET045METAR SBQV 050300Z 09010KT CAVOK 17/16 Q1021;
0120833440999992012100504004-14950-040883FM-15+0914SBQV V0200901N004112200019N0112651N1+01701+01601999999ADDGA1041+003001999GF104991999999999999999999MA1102101999999REMMET051METAR SBQV 050400Z 09008KT 9999 SCT010 17/16 Q1021;
0120833440999992012100511004-14950-040883FM-15+0914SBQV V0201001N006212200019N0112651N1+02101+01501999999ADDGA1041+004501999GF104991999999999999999999MA1102201999999REMMET051METAR SBQV 051100Z 10012KT 9999 SCT015 21/15 Q1022;
0143833440999992012100512004-14950-040883FM-15+0914SBQV V0201001N006212200019N0112651N1+02201+01401999999ADDGA1041+003901999GA2041+021001999GF104991999999999999999999MA1102301999999REMMET058METAR SBQV 051200Z 10012KT 9999 SCT013 SCT070 22/14 Q1023;
0136833440999992012100513004-14950-040883FM-15+0914SBQV V0201001N00461004501CN0112651N1+02301+01401999999ADDGA1071+004501999GA2041+021001999MA1102301999999REMMET058METAR SBQV 051300Z 10009KT 9999 BKN015 SCT070 23/14 Q1023;EQDQ01+000042SCOTCV
0131833440999992012100514004-14950-040883FM-15+0914SBQV V0200901N005112200019N0112651N1+02501+01201999999ADDGA1041+005401999GF104991999999999999999999MA1102201999999OC101081REMMET054METAR SBQV 051400Z 09010G21KT 9999 SCT018 25/12 Q1022;
0120833440999992012100515004-14950-040883FM-15+0914SBQV V0200901N006210060019N0112651N1+02501+01101999999ADDGA1071+006001999GF107991999999999999999999MA1102101999999REMMET051METAR SBQV 051500Z 09012KT 9999 BKN020 25/11 Q1021;
0120833440999992012100516004-14950-040883FM-15+0914SBQV V0201001N006710060019N0112651N1+02601+01101999999ADDGA1071+006001999GF107991999999999999999999MA1102001999999REMMET051METAR SBQV 051600Z 10013KT 9999 BKN020 26/11 Q1020;
0120833440999992012100517004-14950-040883FM-15+0914SBQV V0200901N004612200019N0112651N1+02601+01001999999ADDGA1041+007501999GF104991999999999999999999MA1101901999999REMMET051METAR SBQV 051700Z 09009KT 9999 SCT025 26/10 Q1019;
0131833440999992012100518004-14950-040883FM-15+0914SBQV V0201001N005712200019N0112651N1+02701+01101999999ADDGA1021+007501999GF102991999999999999999999MA1101801999999OC101181REMMET054METAR SBQV 051800Z 10011G23KT 9999 FEW025 27/11 Q1018;
0120833440999992012100519004-14950-040883FM-15+0914SBQV V0201001N006712200019N0112651N1+02501+01201999999ADDGA1021+007501999GF102991999999999999999999MA1101801999999REMMET051METAR SBQV 051900Z 10013KT 9999 FEW025 25/12 Q1018;
0120833440999992012100520004-14950-040883FM-15+0914SBQV V0201101N005712200019N0112651N1+02401+01401999999ADDGA1021+007501999GF102991999999999999999999MA1101801999999REMMET051METAR SBQV 052000Z 11011KT 9999 FEW025 24/14 Q1018;
0120833440999992012100521004-14950-040883FM-15+0914SBQV V0201001N005712200019N0112651N1+02301+01501999999ADDGA1021+006001999GF102991999999999999999999MA1101901999999REMMET051METAR SBQV 052100Z 10011KT 9999 FEW020 23/15 Q1019;
0120833440999992012100522004-14950-040883FM-15+0914SBQV V0201001N004612200019N0112651N1+02201+01501999999ADDGA1021+004801999GF102991999999999999999999MA1102001999999REMMET051METAR SBQV 052200Z 10009KT 9999 FEW016 22/15 Q1020;
0120833440999992012100523004-14950-040883FM-15+0914SBQV V0200801N006712200019N0112651N1+02001+01601999999ADDGA1021+004501999GF102991999999999999999999MA1102101999999REMMET051METAR SBQV 052300Z 08013KT 9999 FEW015 20/16 Q1021;
0143833440999992012100611004-14950-040883FM-15+0914SBQV V0201101N004110030019N0112651N1+01801+01701999999ADDGA1041+001801999GA2071+003001999GF107991999999999999999999MA1102301999999REMMET058METAR SBQV 061100Z 11008KT 9999 SCT006 BKN010 18/17 Q1023;
0136833440999992012100612004-14950-040883FM-15+0914SBQV V0201401N00411002101CN0112651N1+01801+01801999999ADDGA1071+002101999GA2041+002701999MA1102301999999REMMET058METAR SBQV 061200Z 14008KT 9999 BKN007 SCT009 18/18 Q1023;EQDQ01+000042SCOTCV
0153833440999992012100613004-14950-040883FM-15+0914SBQV V0200601N003610033019N0050001N1+01801+01801999999ADDGA1041+003001999GA2071+003301999GF107991999999999999999999MA1102401999999MW1511REMMET062METAR SBQV 061300Z 06007KT 5000 -DZ SCT010 BKN011 18/18 Q1024;
0166833440999992012100614004-14950-040883FM-15+0914SBQV V0201301N00511004801CN0112651N1+02001+01901999999ADDGA1021+003901999GA2041+004801999GA3071+024001999GF107991999999999999999999MA1102301999999REMMET065METAR SBQV 061400Z 13010KT 9999 FEW013 SCT016 BKN080 20/19 Q1023;
0143833440999992012100615004-14950-040883FM-15+0914SBQV V0201201N004612200019N0112651N1+02001+01901999999ADDGA1041+005401999GA2041+024001999GF104991999999999999999999MA1102201999999REMMET058METAR SBQV 061500Z 12009KT 9999 SCT018 SCT080 20/19 Q1022;
0120833440999992012100616004-14950-040883FM-15+0914SBQV V0201401N005112200019N0112651N1+02301+01801999999ADDGA1041+006001999GF104991999999999999999999MA1102101999999REMMET051METAR SBQV 061600Z 14010KT 9999 SCT020 23/18 Q1021;
0136833440999992012100617004-14950-040883FM-15+0914SBQV V0201001N00621006001CN0112651N1+02401+01801999999ADDGA1071+006001999GA2041+027001999MA1102001999999REMMET058METAR SBQV 061700Z 10012KT 9999 BKN020 SCT090 24/18 Q1020;EQDQ01+000042SCOTCV
0143833440999992012100618004-14950-040883FM-15+0914SBQV V0201001N006212200019N0112651N1+02301+01801999999ADDGA1041+006001999GA2041+027001999GF104991999999999999999999MA1102001999999REMMET058METAR SBQV 061800Z 10012KT 9999 SCT020 SCT090 23/18 Q1020;
0143833440999992012100619004-14950-040883FM-15+0914SBQV V0201101N005112200019N0112651N1+01901+01801999999ADDGA1041+004801999GA2041+024001999GF104991999999999999999999MA1102001999999REMMET058METAR SBQV 061900Z 11010KT 9999 SCT016 SCT080 19/18 Q1020;
0146833440999992012100620004-14950-040883FM-15+0914SBQV V0201101N00621002401CN0040001N1+01801+01801999999ADDGA1071+002401999GA2041+004501999MA1102101999999MW1611REMMET062METAR SBQV 062000Z 11012KT 4000 -RA BKN008 SCT015 18/18 Q1021;EQDQ01+000042SCOTCV
0143833440999992012100621004-14950-040883FM-15+0914SBQV V0201101N005712200019N0112651N1+01701+01701999999ADDGA1041+002401999GA2041+021001999GF104991999999999999999999MA1102101999999REMMET058METAR SBQV 062100Z 11011KT 9999 SCT008 SCT070 17/17 Q1021;
0143833440999992012100622004-14950-040883FM-15+0914SBQV V0201001N005112200019N0112651N1+01701+01701999999ADDGA1021+002401999GA2041+021001999GF104991999999999999999999MA1102101999999REMMET058METAR SBQV 062200Z 10010KT 9999 FEW008 SCT070 17/17 Q1021;
0120833440999992012100623004-14950-040883FM-15+0914SBQV V0200901N005712200019N0112651N1+01601+01601999999ADDGA1021+002101999GF102991999999999999999999MA1102201999999REMMET051METAR SBQV 062300Z 09011KT 9999 FEW007 16/16 Q1022;
0120833440999992012100711004-14950-040883FM-15+0914SBQV V0201001N004610033019N0112651N1+01801+01601999999ADDGA1071+003301999GF107991999999999999999999MA1102401999999REMMET051METAR SBQV 071100Z 10009KT 9999 BKN011 18/16 Q1024;
0143833440999992012100712004-14950-040883FM-15+0914SBQV V0201001N005712200019N0112651N1+02001+01601999999ADDGA1041+004501999GA2041+024001999GF104991999999999999999999MA1102401999999REMMET058METAR SBQV 071200Z 10011KT 9999 SCT015 SCT080 20/16 Q1024;
0143833440999992012100713004-14950-040883FM-15+0914SBQV V0201101N002110240019N0112651N1+02101+01601999999ADDGA1021+004801999GA2071+024001999GF107991999999999999999999MA1102401999999REMMET058METAR SBQV 071300Z 11004KT 9999 FEW016 BKN080 21/16 Q1024;
0120833440999992012100714004-14950-040883FM-15+0914SBQV V0201101N004610054019N0112651N1+02301+01501999999ADDGA1071+005401999GF107991999999999999999999MA1102301999999REMMET051METAR SBQV 071400Z 11009KT 9999 BKN018 23/15 Q1023;
0120833440999992012100715004-14950-040883FM-15+0914SBQV V0200901N004610060019N0112651N1+02501+01401999999ADDGA1071+006001999GF107991999999999999999999MA1102201999999REMMET051METAR SBQV 071500Z 09009KT 9999 BKN020 25/14 Q1022;
0120833440999992012100716004-14950-040883FM-15+0914SBQV V0201201N006210060019N0112651N1+02501+01501999999ADDGA1071+006001999GF107991999999999999999999MA1102101999999REMMET051METAR SBQV 071600Z 12012KT 9999 BKN020 25/15 Q1021;
0155833440999992012100717004-14950-040883FM-15+0914SBQV V0201201N006210060019N0112651N1+99999+01401999999ADDGA1071+006001999GF107991999999999999999999MA1102001999999REMMET051METAR SBQV 071700Z 12012KT 9999 BKN020 14/14 Q1020;EQDQ01+001403ATOT  Q02 +01403ATOT  
0120833440999992012100718004-14950-040883FM-15+0914SBQV V0201201N006712200019N0112651N1+02501+01501999999ADDGA1041+006001999GF104991999999999999999999MA1102001999999REMMET051METAR SBQV 071800Z 12013KT 9999 SCT020 25/15 Q1020;
0120833440999992012100719004-14950-040883FM-15+0914SBQV V0201201N007212200019N0112651N1+02301+01601999999ADDGA1041+006001999GF104991999999999999999999MA1102001999999REMMET051METAR SBQV 071900Z 12014KT 9999 SCT020 23/16 Q1020;
0120833440999992012100720004-14950-040883FM-15+0914SBQV V0201201N007712200019N0112651N1+02201+01601999999ADDGA1021+005401999GF102991999999999999999999MA1102101999999REMMET051METAR SBQV 072000Z 12015KT 9999 FEW018 22/16 Q1021;
0120833440999992012100721004-14950-040883FM-15+0914SBQV V0201101N008212200019N0112651N1+01901+01701999999ADDGA1021+004501999GF102991999999999999999999MA1102101999999REMMET051METAR SBQV 072100Z 11016KT 9999 FEW015 19/17 Q1021;
0120833440999992012100722004-14950-040883FM-15+0914SBQV V0201101N006712200019N0112651N1+01801+01701999999ADDGA1021+003301999GF102991999999999999999999MA1102201999999REMMET051METAR SBQV 072200Z 11013KT 9999 FEW011 18/17 Q1022;
0120833440999992012100723004-14950-040883FM-15+0914SBQV V0201001N006212200019N0112651N1+01801+01701999999ADDGA1041+002701999GF104991999999999999999999MA1102201999999REMMET051METAR SBQV 072300Z 10012KT 9999 SCT009 18/17 Q1022;
0120833440999992012100811004-14950-040883FM-15+0914SBQV V0201001N004110024019N0112651N1+01801+01601999999ADDGA1081+002401999GF108991999999999999999999MA1102401999999REMMET051METAR SBQV 081100Z 10008KT 9999 OVC008 18/16 Q1024;
0143833440999992012100812004-14950-040883FM-15+0914SBQV V0201201N005712200019N0112651N1+02101+01601999999ADDGA1041+003301999GA2041+021001999GF104991999999999999999999MA1102401999999REMMET058METAR SBQV 081200Z 12011KT 9999 SCT011 SCT070 21/16 Q1024;
0143833440999992012100813004-14950-040883FM-15+0914SBQV V0201101N005712200019N0112651N1+02301+01601999999ADDGA1041+004501999GA2041+021001999GF104991999999999999999999MA1102401999999REMMET058METAR SBQV 081300Z 11011KT 9999 SCT015 SCT070 23/16 Q1024;
0143833440999992012100814004-14950-040883FM-15+0914SBQV V0201101N005712200019N0112651N1+02001+01801999999ADDGA1021+003301999GA2041+004501999GF104991999999999999999999MA1102401999999REMMET058METAR SBQV 081400Z 11011KT 9999 FEW011 SCT015 20/18 Q1024;
0143833440999992012100815004-14950-040883FM-15+0914SBQV V0200901N005112200019N0112651N1+02201+01601999999ADDGA1041+003301999GA2041+004501999GF104991999999999999999999MA1102301999999REMMET058METAR SBQV 081500Z 09010KT 9999 SCT011 SCT015 22/16 Q1023;
0143833440999992012100816004-14950-040883FM-15+0914SBQV V0201001N005112200019N0112651N1+02501+01401999999ADDGA1041+004501999GA2041+021001999GF104991999999999999999999MA1102201999999REMMET058METAR SBQV 081600Z 10010KT 9999 SCT015 SCT070 25/14 Q1022;
0143833440999992012100817004-14950-040883FM-15+0914SBQV V0201201N005712200019N0112651N1+02401+01601999999ADDGA1041+004501999GA2041+021001999GF104991999999999999999999MA1102101999999REMMET058METAR SBQV 081700Z 12011KT 9999 SCT015 SCT070 24/16 Q1021;
0143833440999992012100818004-14950-040883FM-15+0914SBQV V0201101N005712200019N0112651N1+02401+01401999999ADDGA1021+004501999GA2041+021001999GF104991999999999999999999MA1102001999999REMMET058METAR SBQV 081800Z 11011KT 9999 FEW015 SCT070 24/14 Q1020;
0143833440999992012100819004-14950-040883FM-15+0914SBQV V0201201N008212200019N0112651N1+02301+01701999999ADDGA1021+004501999GA2041+021001999GF104991999999999999999999MA1102001999999REMMET058METAR SBQV 081900Z 12016KT 9999 FEW015 SCT070 23/17 Q1020;
0120833440999992012100820004-14950-040883FM-15+0914SBQV V0201001N007212200019N0112651N1+02101+01601999999ADDGA1021+004501999GF102991999999999999999999MA1102001999999REMMET051METAR SBQV 082000Z 10014KT 9999 FEW015 21/16 Q1020;
0120833440999992012100821004-14950-040883FM-15+0914SBQV V0200901N006212200019N0112651N1+01901+01601999999ADDGA1021+004501999GF102991999999999999999999MA1102101999999REMMET051METAR SBQV 082100Z 09012KT 9999 FEW015 19/16 Q1021;
0072833440999992012100822004-14950-040883FM-15+0914SBQV V0200901N006219999999Y0099001N1+01801+01601999999ADDMA1102101999999REMMET045METAR SBQV 082200Z 09012KT CAVOK 18/16 Q1021;
0120833440999992012100823004-14950-040883FM-15+0914SBQV V0201001N005112200019N0112651N1+01801+01601999999ADDGA1041+003601999GF104991999999999999999999MA1102201999999REMMET051METAR SBQV 082300Z 10010KT 9999 SCT012 18/16 Q1022;
0120833440999992012100911004-14950-040883FM-15+0914SBQV V0201001N006712200019N0112651N1+02001+01501999999ADDGA1041+004801999GF104991999999999999999999MA1102301999999REMMET051METAR SBQV 091100Z 10013KT 9999 SCT016 20/15 Q1023;
0120833440999992012100912004-14950-040883FM-15+0914SBQV V0201101N005710054019N0112651N1+02201+01501999999ADDGA1071+005401999GF107991999999999999999999MA1102301999999REMMET051METAR SBQV 091200Z 11011KT 9999 BKN018 22/15 Q1023;
0120833440999992012100913004-14950-040883FM-15+0914SBQV V0201001N006210060019N0112651N1+02301+01501999999ADDGA1071+006001999GF107991999999999999999999MA1102201999999REMMET051METAR SBQV 091300Z 10012KT 9999 BKN020 23/15 Q1022;
0120833440999992012100914004-14950-040883FM-15+0914SBQV V0200901N006212200019N0112651N1+02401+01401999999ADDGA1041+006001999GF104991999999999999999999MA1102101999999REMMET051METAR SBQV 091400Z 09012KT 9999 SCT020 24/14 Q1021;
0120833440999992012100915004-14950-040883FM-15+0914SBQV V0201001N006212200019N0112651N1+02501+01401999999ADDGA1041+007501999GF104991999999999999999999MA1102001999999REMMET051METAR SBQV 091500Z 10012KT 9999 SCT025 25/14 Q1020;
0120833440999992012100916004-14950-040883FM-15+0914SBQV V0201001N005712200019N0112651N1+02601+01301999999ADDGA1041+007501999GF104991999999999999999999MA1101901999999REMMET051METAR SBQV 091600Z 10011KT 9999 SCT025 26/13 Q1019;
0120833440999992012100917004-14950-040883FM-15+0914SBQV V0200901N006212200019N0112651N1+02501+01501999999ADDGA1021+007501999GF102991999999999999999999MA1101801999999REMMET051METAR SBQV 091700Z 09012KT 9999 FEW025 25/15 Q1018;
0120833440999992012100918004-14950-040883FM-15+0914SBQV V0201201N007212200019N0112651N1+02601+01501999999ADDGA1041+007501999GF104991999999999999999999MA1101801999999REMMET051METAR SBQV 091800Z 12014KT 9999 SCT025 26/15 Q1018;
0120833440999992012100919004-14950-040883FM-15+0914SBQV V0201101N006712200019N0112651N1+02501+01601999999ADDGA1041+007501999GF104991999999999999999999MA1101691999999REMMET051METAR SBQV 091900Z 11013KT 9999 SCT025 25/16 Q1017;
0120833440999992012100920004-14950-040883FM-15+0914SBQV V0201201N006212200019N0112651N1+02301+01601999999ADDGA1021+007501999GF102991999999999999999999MA1101801999999REMMET051METAR SBQV 092000Z 12012KT 9999 FEW025 23/16 Q1018;
0120833440999992012100921004-14950-040883FM-15+0914SBQV V0201201N006212200019N0112651N1+02101+01701999999ADDGA1021+005401999GF102991999999999999999999MA1101901999999REMMET051METAR SBQV 092100Z 12012KT 9999 FEW018 21/17 Q1019;
0120833440999992012100922004-14950-040883FM-15+0914SBQV V0201101N006212200019N0112651N1+01901+01801999999ADDGA1041+004501999GF104991999999999999999999MA1101901999999REMMET051METAR SBQV 092200Z 11012KT 9999 SCT015 19/18 Q1019;
0120833440999992012100923004-14950-040883FM-15+0914SBQV V0201101N005712200019N0112651N1+01901+01701999999ADDGA1041+004501999GF104991999999999999999999MA1102001999999REMMET051METAR SBQV 092300Z 11011KT 9999 SCT015 19/17 Q1020;
0120833440999992012101011004-14950-040883FM-15+0914SBQV V0200901N003610039019N0112651N1+02001+01701999999ADDGA1071+003901999GF107991999999999999999999MA1102101999999REMMET051METAR SBQV 101100Z 09007KT 9999 BKN013 20/17 Q1021;
0136833440999992012101012004-14950-040883FM-15+0914SBQV V0200901N00411004501CN0112651N1+02201+01701999999ADDGA1071+004501999GA2041+021001999MA1102101999999REMMET058METAR SBQV 101200Z 09008KT 9999 BKN015 SCT070 22/17 Q1021;EQDQ01+000042SCOTCV
0143833440999992012101013004-14950-040883FM-15+0914SBQV V0201101N004112200019N0112651N1+02101+01801999999ADDGA1041+003901999GA2041+004501999GF104991999999999999999999MA1102001999999REMMET058METAR SBQV 101300Z 11008KT 9999 SCT013 SCT015 21/18 Q1020;
0146833440999992012101014004-14950-040883FM-15+0914SBQV V0200801N00261003901CN0060001N1+02001+01901999999ADDGA1071+003901999GA2041+021001999MA1102001999999MW1611REMMET062METAR SBQV 101400Z 08005KT 6000 -RA BKN013 SCT070 20/19 Q1020;EQDQ01+000042SCOTCV
0143833440999992012101015004-14950-040883FM-15+0914SBQV V0201201N003610210019N0112651N1+02101+02001999999ADDGA1041+003901999GA2071+021001999GF107991999999999999999999MA1101901999999REMMET058METAR SBQV 101500Z 12007KT 9999 SCT013 BKN070 21/20 Q1019;
0143833440999992012101016004-14950-040883FM-15+0914SBQV V0201001N004610210019N0112651N1+02201+01901999999ADDGA1041+003901999GA2071+021001999GF107991999999999999999999MA1101801999999REMMET058METAR SBQV 101600Z 10009KT 9999 SCT013 BKN070 22/19 Q1018;
0143833440999992012101017004-14950-040883FM-15+0914SBQV V0201201N004110210019N0112651N1+02301+02001999999ADDGA1041+003901999GA2071+021001999GF107991999999999999999999MA1101691999999REMMET058METAR SBQV 101700Z 12008KT 9999 SCT013 BKN070 23/20 Q1017;
0192833440999992012101018004-14950-040883FM-15+0914SBQV V0200801N00461004801CN0060001N1+01901+01801999999ADDGA1041+003301999GA2021+004801091GA3071+021001999GF107991999999999999999999MA1101701999999MW1801MW2951REMMET079METAR SBQV 101800Z 08009KT 6000 -TSRA SCT011 FEW016CB BKN070 19/18 Q1 017 RERA;
0171833440999992012101019004-14950-040883FM-15+0914SBQV V0201101N005710210019N0112651N1+01801+01801999999ADDGA1021+001801999GA2071+021001999GA3041+024001999GF107991999999999999999999MA1101801999999REMMET070METAR SBQV 101900Z 11011KT 9999 FEW006 SCT080 BKN070 18/18 Q1018 RETS;
0143833440999992012101020004-14950-040883FM-15+0914SBQV V0200801N006212200019N0112651N1+01901+01901999999ADDGA1041+002401999GA2041+021001999GF104991999999999999999999MA1101801999999REMMET058METAR SBQV 102000Z 08012KT 9999 SCT008 SCT070 19/19 Q1018;
0143833440999992012101021004-14950-040883FM-15+0914SBQV V0200701N008210210019N0112651N1+01801+01701999999ADDGA1041+002101999GA2071+021001999GF107991999999999999999999MA1101801999999REMMET058METAR SBQV 102100Z 07016KT 9999 SCT007 BKN070 18/17 Q1018;
0120833440999992012101022004-14950-040883FM-15+0914SBQV V0200601N006712200019N0112651N1+01701+01601999999ADDGA1041+001501999GF104991999999999999999999MA1101901999999REMMET051METAR SBQV 102200Z 06013KT 9999 SCT005 17/16 Q1019;
0120833440999992012101023004-14950-040883FM-15+0914SBQV V0201001N004612200019N0112651N1+01701+01601999999ADDGA1041+001501999GF104991999999999999999999MA1101901999999REMMET051METAR SBQV 102300Z 10009KT 9999 SCT005 17/16 Q1019;
0120833440999992012101111004-14950-040883FM-15+0914SBQV V0200701N004610045019N0112651N1+01901+01701999999ADDGA1071+004501999GF107991999999999999999999MA1102101999999REMMET051METAR SBQV 111100Z 07009KT 9999 BKN015 19/17 Q1021;
0120833440999992012101112004-14950-040883FM-15+0914SBQV V0200401N004110045019N0112651N1+02001+01701999999ADDGA1071+004501999GF107991999999999999999999MA1102101999999REMMET051METAR SBQV 111200Z 04008KT 9999 BKN015 20/17 Q1021;
0120833440999992012101113004-14950-040883FM-15+0914SBQV V0200401N003610060019N0112651N1+02201+01701999999ADDGA1071+006001999GF107991999999999999999999MA1102101999999REMMET051METAR SBQV 111300Z 04007KT 9999 BKN020 22/17 Q1021;
0120833440999992012101114004-14950-040883FM-15+0914SBQV V0200501N004110060019N0112651N1+02401+01701999999ADDGA1071+006001999GF107991999999999999999999MA1102101999999REMMET051METAR SBQV 111400Z 05008KT 9999 BKN020 24/17 Q1021;
0120833440999992012101115004-14950-040883FM-15+0914SBQV V0200401N004110060019N0112651N1+02301+01701999999ADDGA1071+006001999GF107991999999999999999999MA1102001999999REMMET051METAR SBQV 111500Z 04008KT 9999 BKN020 23/17 Q1020;
0143833440999992012101116004-14950-040883FM-15+0914SBQV V0200701N003112200019N0112651N1+02401+01601999999ADDGA1041+006001999GA2041+024001999GF104991999999999999999999MA1101901999999REMMET058METAR SBQV 111600Z 07006KT 9999 SCT020 SCT080 24/16 Q1019;
0120833440999992012101117004-14950-040883FM-15+0914SBQV V0200501N003110060019N0112651N1+02601+01601999999ADDGA1071+006001999GF107991999999999999999999MA1101801999999REMMET051METAR SBQV 111700Z 05006KT 9999 BKN020 26/16 Q1018;
0120833440999992012101118004-14950-040883FM-15+0914SBQV V0200601N003612200019N0112651N1+02601+01501999999ADDGA1021+006001999GF102991999999999999999999MA1101691999999REMMET051METAR SBQV 111800Z 06007KT 9999 FEW020 26/15 Q1017;
0120833440999992012101119004-14950-040883FM-15+0914SBQV V0200901N003612200019N0112651N1+02701+01501999999ADDGA1021+006001999GF102991999999999999999999MA1101691999999REMMET051METAR SBQV 111900Z 09007KT 9999 FEW020 27/15 Q1017;
0120833440999992012101120004-14950-040883FM-15+0914SBQV V0201001N003612200019N0112651N1+02601+01701999999ADDGA1021+006001999GF102991999999999999999999MA1101691999999REMMET051METAR SBQV 112000Z 10007KT 9999 FEW020 26/17 Q1017;
0120833440999992012101121004-14950-040883FM-15+0914SBQV V0201001N004612200019N0112651N1+02301+01801999999ADDGA1021+004801999GF102991999999999999999999MA1101801999999REMMET051METAR SBQV 112100Z 10009KT 9999 FEW016 23/18 Q1018;
0072833440999992012101122004-14950-040883FM-15+0914SBQV V0201001N003619999999Y0099001N1+02201+01701999999ADDMA1101801999999REMMET045METAR SBQV 112200Z 10007KT CAVOK 22/17 Q1018;
0120833440999992012101123004-14950-040883FM-15+0914SBQV V0200801N004612200019N0112651N1+02101+01901999999ADDGA1021+004501999GF102991999999999999999999MA1101901999999REMMET051METAR SBQV 112300Z 08009KT 9999 FEW015 21/19 Q1019;
0072833440999992012101201004-14950-040883FM-15+0914SBQV V0200601N005719999999Y0099001N1+01901+01801999999ADDMA1102001999999REMMET045METAR SBQV 120100Z 06011KT CAVOK 19/18 Q1020;
0072833440999992012101202004-14950-040883FM-15+0914SBQV V0200801N004119999999Y0099001N1+01901+01801999999ADDMA1102001999999REMMET045METAR SBQV 120200Z 08008KT CAVOK 19/18 Q1020;
0072833440999992012101203004-14950-040883FM-15+0914SBQV V0201101N003619999999Y0099001N1+01801+01801999999ADDMA1102001999999REMMET045METAR SBQV 120300Z 11007KT CAVOK 18/18 Q1020;
0143833440999992012101206004-14950-040883FM-15+0914SBQV V0200401N003612200019N0112651N1+01801+01801999999ADDGA1021+001501999GA2041+004501999GF104991999999999999999999MA1101801999999REMMET058METAR SBQV 120600Z 04007KT 9999 FEW005 SCT015 18/18 Q1018;
0120833440999992012101211004-14950-040883FM-15+0914SBQV V0200301N005112200019N0112651N1+02201+01801999999ADDGA1021+004501999GF102991999999999999999999MA1102101999999REMMET051METAR SBQV 121100Z 03010KT 9999 FEW015 22/18 Q1021;
0120833440999992012101212004-14950-040883FM-15+0914SBQV V0200501N003612200019N0112651N1+02401+01801999999ADDGA1021+005401999GF102991999999999999999999MA1102101999999REMMET051METAR SBQV 121200Z 05007KT 9999 FEW018 24/18 Q1021;
0120833440999992012101213004-14950-040883FM-15+0914SBQV V0200801N004112200019N0112651N1+02601+01801999999ADDGA1021+006001999GF102991999999999999999999MA1102101999999REMMET051METAR SBQV 121300Z 08008KT 9999 FEW020 26/18 Q1021;
0120833440999992012101214004-14950-040883FM-15+0914SBQV V0200501N003612200019N0112651N1+02701+01801999999ADDGA1021+007501999GF102991999999999999999999MA1102101999999REMMET051METAR SBQV 121400Z 05007KT 9999 FEW025 27/18 Q1021;
0120833440999992012101215004-14950-040883FM-15+0914SBQV V0200801N003612200019N0112651N1+02701+01801999999ADDGA1021+007501999GF102991999999999999999999MA1102001999999REMMET051METAR SBQV 121500Z 08007KT 9999 FEW025 27/18 Q1020;
0120833440999992012101216004-14950-040883FM-15+0914SBQV V0201101N004112200019N0112651N1+02901+01601999999ADDGA1021+007501999GF102991999999999999999999MA1101901999999REMMET051METAR SBQV 121600Z 11008KT 9999 FEW025 29/16 Q1019;
0120833440999992012101217004-14950-040883FM-15+0914SBQV V0201101N004612200019N0112651N1+02901+01601999999ADDGA1041+007501999GF104991999999999999999999MA1101801999999REMMET051METAR SBQV 121700Z 11009KT 9999 SCT025 29/16 Q1018;
0120833440999992012101218004-14950-040883FM-15+0914SBQV V0201201N005712200019N0112651N1+02901+01401999999ADDGA1021+007501999GF102991999999999999999999MA1101801999999REMMET051METAR SBQV 121800Z 12011KT 9999 FEW025 29/14 Q1018;
0120833440999992012101219004-14950-040883FM-15+0914SBQV V0201101N005112200019N0112651N1+02801+01501999999ADDGA1021+007501999GF102991999999999999999999MA1101801999999REMMET051METAR SBQV 121900Z 11010KT 9999 FEW025 28/15 Q1018;
0120833440999992012101220004-14950-040883FM-15+0914SBQV V0201001N006212200019N0112651N1+02701+01501999999ADDGA1021+007501999GF102991999999999999999999MA1101801999999REMMET051METAR SBQV 122000Z 10012KT 9999 FEW025 27/15 Q1018;
0120833440999992012101221004-14950-040883FM-15+0914SBQV V0201001N005712200019N0112651N1+02501+01501999999ADDGA1021+006001999GF102991999999999999999999MA1101801999999REMMET051METAR SBQV 122100Z 10011KT 9999 FEW020 25/15 Q1018;
0072833440999992012101222004-14950-040883FM-15+0914SBQV V0200901N006219999999Y0099001N1+02301+01901999999ADDMA1101901999999REMMET045METAR SBQV 122200Z 09012KT CAVOK 23/19 Q1019;
0072833440999992012101223004-14950-040883FM-15+0914SBQV V0200901N006719999999Y0099001N1+02201+02001999999ADDMA1101901999999REMMET045METAR SBQV 122300Z 09013KT CAVOK 22/20 Q1019;
0120833440999992012101300004-14950-040883FM-15+0914SBQV V0200901N006212200019N0112651N1+02101+01901999999ADDGA1021+002101999GF102991999999999999999999MA1102001999999REMMET051METAR SBQV 130000Z 09012KT 9999 FEW007 21/19 Q1020;
0120833440999992012101301004-14950-040883FM-15+0914SBQV V0200801N006212200019N0112651N1+02001+01901999999ADDGA1041+002101999GF104991999999999999999999MA1102001999999REMMET051METAR SBQV 130100Z 08012KT 9999 SCT007 20/19 Q1020;
0120833440999992012101311004-14950-040883FM-15+0914SBQV V0200601N002612200019N0112651N1+02301+01801999999ADDGA1041+004501999GF104991999999999999999999MA1102101999999REMMET051METAR SBQV 131100Z 06005KT 9999 SCT015 23/18 Q1021;
0120833440999992012101312004-14950-040883FM-15+0914SBQV V0201201N003610045019N0112651N1+02201+01801999999ADDGA1081+004501999GF108991999999999999999999MA1102101999999REMMET051METAR SBQV 131200Z 12007KT 9999 OVC015 22/18 Q1021;
0120833440999992012101313004-14950-040883FM-15+0914SBQV V0201301N004110048019N0112651N1+02401+01901999999ADDGA1071+004801999GF107991999999999999999999MA1102201999999REMMET051METAR SBQV 131300Z 13008KT 9999 BKN016 24/19 Q1022;
0120833440999992012101314004-14950-040883FM-15+0914SBQV V0201301N005112200019N0112651N1+02501+01901999999ADDGA1041+005401999GF104991999999999999999999MA1102101999999REMMET051METAR SBQV 131400Z 13010KT 9999 SCT018 25/19 Q1021;
0120833440999992012101315004-14950-040883FM-15+0914SBQV V0201301N005110045019N0112651N1+02201+02001999999ADDGA1071+004501999GF107991999999999999999999MA1102001999999REMMET051METAR SBQV 131500Z 13010KT 9999 BKN015 22/20 Q1020;
0120833440999992012101316004-14950-040883FM-15+0914SBQV V0201201N005110048019N0112651N1+02601+01901999999ADDGA1071+004801999GF107991999999999999999999MA1101901999999REMMET051METAR SBQV 131600Z 12010KT 9999 BKN016 26/19 Q1019;
0120833440999992012101317004-14950-040883FM-15+0914SBQV V0201401N005112200019N0112651N1+02701+01701999999ADDGA1021+006001999GF102991999999999999999999MA1101801999999REMMET051METAR SBQV 131700Z 14010KT 9999 FEW020 27/17 Q1018;
0120833440999992012101318004-14950-040883FM-15+0914SBQV V0201201N005112200019N0112651N1+02701+01701999999ADDGA1041+007501999GF104991999999999999999999MA1101691999999REMMET051METAR SBQV 131800Z 12010KT 9999 SCT025 27/17 Q1017;
0120833440999992012101320004-14950-040883FM-15+0914SBQV V0201301N008212200019N0112651N1+02401+02001999999ADDGA1021+006001999GF102991999999999999999999MA1101801999999REMMET051METAR SBQV 132000Z 13016KT 9999 FEW020 24/20 Q1018;
0120833440999992012101321004-14950-040883FM-15+0914SBQV V0201301N006712200019N0112651N1+02201+01901999999ADDGA1041+004501999GF104991999999999999999999MA1101801999999REMMET051METAR SBQV 132100Z 13013KT 9999 SCT015 22/19 Q1018;
0120833440999992012101322004-14950-040883FM-15+0914SBQV V0201101N006212200019N0112651N1+02101+01901999999ADDGA1021+004501999GF102991999999999999999999MA1101901999999REMMET051METAR SBQV 132200Z 11012KT 9999 FEW015 21/19 Q1019;
0120833440999992012101323004-14950-040883FM-15+0914SBQV V0201001N005710045019N0112651N1+02001+01801999999ADDGA1071+004501999GF107991999999999999999999MA1102001999999REMMET051METAR SBQV 132300Z 10011KT 9999 BKN015 20/18 Q1020;
0120833440999992012101411004-14950-040883FM-15+0914SBQV V0201001N004110024019N0112651N1+01901+01901999999ADDGA1071+002401999GF107991999999999999999999MA1102001999999REMMET051METAR SBQV 141100Z 10008KT 9999 BKN008 19/19 Q1020;
0130833440999992012101412004-14950-040883FM-15+0914SBQV V0201201N004610021019N0050001N1+02101+01801999999ADDGA1071+002101999GF107991999999999999999999MA1102101999999MW1511REMMET055METAR SBQV 141200Z 12009KT 5000 -DZ BKN007 21/18 Q1021;
0120833440999992012101413004-14950-040883FM-15+0914SBQV V0201201N005712200019N0112651N1+02401+01701999999ADDGA1041+006001999GF104991999999999999999999MA1102101999999REMMET051METAR SBQV 141300Z 12011KT 9999 SCT020 24/17 Q1021;
0120833440999992012101414004-14950-040883FM-15+0914SBQV V0201101N005110060019N0112651N1+02401+01601999999ADDGA1071+006001999GF107991999999999999999999MA1102001999999REMMET051METAR SBQV 141400Z 11010KT 9999 BKN020 24/16 Q1020;
0120833440999992012101415004-14950-040883FM-15+0914SBQV V0201201N005110075019N0112651N1+02501+01601999999ADDGA1071+007501999GF107991999999999999999999MA1101901999999REMMET051METAR SBQV 141500Z 12010KT 9999 BKN025 25/16 Q1019;
0136833440999992012101416004-14950-040883FM-15+0914SBQV V0201101N00511007501CN0112651N1+02501+01601999999ADDGA1071+007501999GA2041+027001999MA1101801999999REMMET058METAR SBQV 141600Z 11010KT 9999 BKN025 SCT090 25/16 Q1018;EQDQ01+000042SCOTCV
0143833440999992012101417004-14950-040883FM-15+0914SBQV V0201201N005112200019N0112651N1+02401+01601999999ADDGA1041+006001999GA2041+021001999GF104991999999999999999999MA1101691999999REMMET058METAR SBQV 141700Z 12010KT 9999 SCT020 SCT070 24/16 Q1017;
0143833440999992012101418004-14950-040883FM-15+0914SBQV V0201101N005712200019N0112651N1+02301+01601999999ADDGA1041+004801999GA2041+021001999GF104991999999999999999999MA1101691999999REMMET058METAR SBQV 141800Z 11011KT 9999 SCT016 SCT070 23/16 Q1017;
0143833440999992012101419004-14950-040883FM-15+0914SBQV V0201401N004610210019N0112651N1+02301+01701999999ADDGA1021+005401999GA2071+021001999GF107991999999999999999999MA1101691999999REMMET058METAR SBQV 141900Z 14009KT 9999 FEW018 BKN070 23/17 Q1017;
0120833440999992012101420004-14950-040883FM-15+0914SBQV V0201301N003612200019N0112651N1+02301+01701999999ADDGA1021+005401999GF102991999999999999999999MA1101691999999REMMET051METAR SBQV 142000Z 13007KT 9999 FEW018 23/17 Q1017;
0187833440999992012101421004-14950-040883FM-15+0914SBQV V0201301N004612200019N0112651N1+99999+99999999999ADDGA1021+004801999GA2021+005401021GA3041+021001999GF104991999999999999999999MA1101801999999MW1611REMMET080METAR SBQV 142100Z 13009KT 9999 4000SE -RA FEW016 FEW018TCU SCT070 22 /17 Q1018;
0120833440999992012101422004-14950-040883FM-15+0914SBQV V0201201N006712200019N0112651N1+02001+01701999999ADDGA1021+004501999GF102991999999999999999999MA1101901999999REMMET051METAR SBQV 142200Z 12013KT 9999 FEW015 20/17 Q1019;
0120833440999992012101423004-14950-040883FM-15+0914SBQV V0201101N004610033019N0112651N1+01901+01801999999ADDGA1071+003301999GF107991999999999999999999MA1102001999999REMMET051METAR SBQV 142300Z 11009KT 9999 BKN011 19/18 Q1020;
0136833440999992012101511004-14950-040883FM-15+0914SBQV V0201301N00461001801CN0112651N1+01801+01801999999ADDGA1071+001801999GA2041+002401999MA1102001999999REMMET058METAR SBQV 151100Z 13009KT 9999 BKN006 SCT008 18/18 Q1020;EQDQ01+000042SCOTCV
0147833440999992012101512004-14950-040883FM-15+0914SBQV V0201401N00411002701CN0112651N1+01801+01801999999ADDGA1071+002701999GA2041+021001999MA1102001999999MW1161REMMET063METAR SBQV 151200Z 14008KT 9999 VCSH BKN009 SCT070 18/18 Q1020;EQDQ01+000042SCOTCV
0143833440999992012101514004-14950-040883FM-15+0914SBQV V0201401N005112200019N0112651N1+02101+01901999999ADDGA1041+003901999GA2041+021001999GF104991999999999999999999MA1102001999999REMMET058METAR SBQV 151400Z 14010KT 9999 SCT013 SCT070 21/19 Q1020;
0136833440999992012101516004-14950-040883FM-15+0914SBQV V0201001N00211004501CN0112651N1+02201+01801999999ADDGA1071+004501999GA2041+021001999MA1101801999999REMMET058METAR SBQV 151600Z 10004KT 9999 BKN015 SCT070 22/18 Q1018;EQDQ01+000042SCOTCV
0136833440999992012101517004-14950-040883FM-15+0914SBQV V0201101N00461003901CN0112651N1+02001+01801999999ADDGA1071+003901999GA2041+021001999MA1101801999999REMMET058METAR SBQV 151700Z 11009KT 9999 BKN013 SCT070 20/18 Q1018;EQDQ01+000042SCOTCV
0143833440999992012101518004-14950-040883FM-15+0914SBQV V0201301N004112200019N0112651N1+02001+02001999999ADDGA1041+003601999GA2041+021001999GF104991999999999999999999MA1101691999999REMMET058METAR SBQV 151800Z 13008KT 9999 SCT012 SCT070 20/20 Q1017;
0143833440999992012101519004-14950-040883FM-15+0914SBQV V0201301N005712200019N0112651N1+02201+01901999999ADDGA1041+003601999GA2041+021001999GF104991999999999999999999MA1101691999999REMMET058METAR SBQV 151900Z 13011KT 9999 SCT012 SCT070 22/19 Q1017;
0143833440999992012101520004-14950-040883FM-15+0914SBQV V0200901N004610210019N0112651N1+02001+01801999999ADDGA1021+003601999GA2071+021001999GF107991999999999999999999MA1101691999999REMMET058METAR SBQV 152000Z 09009KT 9999 FEW012 BKN070 20/18 Q1017;
0143833440999992012101521004-14950-040883FM-15+0914SBQV V0201201N003610210019N0112651N1+02001+01801999999ADDGA1021+003001999GA2071+021001999GF107991999999999999999999MA1101801999999REMMET058METAR SBQV 152100Z 12007KT 9999 FEW010 BKN070 20/18 Q1018;
0120833440999992012101522004-14950-040883FM-15+0914SBQV V0201201N003110033019N0112651N1+01901+01801999999ADDGA1071+003301999GF107991999999999999999999MA1101801999999REMMET051METAR SBQV 152200Z 12006KT 9999 BKN011 19/18 Q1018;
0120833440999992012101523004-14950-040883FM-15+0914SBQV V0201301N004110024019N0112651N1+01901+01801999999ADDGA1071+002401999GF107991999999999999999999MA1101901999999REMMET051METAR SBQV 152300Z 13008KT 9999 BKN008 19/18 Q1019;
0120833440999992012101611004-14950-040883FM-15+0914SBQV V0201001N003610036019N0112651N1+01901+01701999999ADDGA1071+003601999GF107991999999999999999999MA1102101999999REMMET051METAR SBQV 161100Z 10007KT 9999 BKN012 19/17 Q1021;
0143833440999992012101612004-14950-040883FM-15+0914SBQV V0201101N004110045019N0112651N1+02001+01801999999ADDGA1021+003601999GA2071+004501999GF107991999999999999999999MA1102101999999REMMET058METAR SBQV 161200Z 11008KT 9999 FEW012 BKN015 20/18 Q1021;
0120833440999992012101613004-14950-040883FM-15+0914SBQV V0201001N005110048019N0112651N1+02201+01801999999ADDGA1071+004801999GF107991999999999999999999MA1102101999999REMMET051METAR SBQV 161300Z 10010KT 9999 BKN016 22/18 Q1021;
0120833440999992012101614004-14950-040883FM-15+0914SBQV V0201201N005110060019N0112651N1+02301+01701999999ADDGA1071+006001999GF107991999999999999999999MA1102001999999REMMET051METAR SBQV 161400Z 12010KT 9999 BKN020 23/17 Q1020;
0120833440999992012101615004-14950-040883FM-15+0914SBQV V0201201N004610060019N0112651N1+02501+01801999999ADDGA1071+006001999GF107991999999999999999999MA1102001999999REMMET051METAR SBQV 161500Z 12009KT 9999 BKN020 25/18 Q1020;
0120833440999992012101616004-14950-040883FM-15+0914SBQV V0201101N004610075019N0112651N1+02501+01701999999ADDGA1071+007501999GF107991999999999999999999MA1101801999999REMMET051METAR SBQV 161600Z 11009KT 9999 BKN025 25/17 Q1018;
0120833440999992012101617004-14950-040883FM-15+0914SBQV V0200901N005112200019N0112651N1+02601+01701999999ADDGA1021+007501999GF102991999999999999999999MA1101801999999REMMET051METAR SBQV 161700Z 09010KT 9999 FEW025 26/17 Q1018;
0120833440999992012101618004-14950-040883FM-15+0914SBQV V0201101N005712200019N0112651N1+02601+01601999999ADDGA1041+007501999GF104991999999999999999999MA1101691999999REMMET051METAR SBQV 161800Z 11011KT 9999 SCT025 26/16 Q1017;
0120833440999992012101619004-14950-040883FM-15+0914SBQV V0201001N006712200019N0112651N1+02501+01701999999ADDGA1021+006001999GF102991999999999999999999MA1101691999999REMMET051METAR SBQV 161900Z 10013KT 9999 FEW020 25/17 Q1017;
0120833440999992012101620004-14950-040883FM-15+0914SBQV V0201201N006712200019N0112651N1+02401+01601999999ADDGA1021+006001999GF102991999999999999999999MA1101801999999REMMET051METAR SBQV 162000Z 12013KT 9999 FEW020 24/16 Q1018;
0120833440999992012101621004-14950-040883FM-15+0914SBQV V0201001N005712200019N0112651N1+02201+01601999999ADDGA1021+004801999GF102991999999999999999999MA1101801999999REMMET051METAR SBQV 162100Z 10011KT 9999 FEW016 22/16 Q1018;
0120833440999992012101622004-14950-040883FM-15+0914SBQV V0201001N004612200019N0112651N1+02101+01701999999ADDGA1021+004501999GF102991999999999999999999MA1101801999999REMMET051METAR SBQV 162200Z 10009KT 9999 FEW015 21/17 Q1018;
0120833440999992012101623004-14950-040883FM-15+0914SBQV V0200901N006212200019N0112651N1+02001+01801999999ADDGA1021+003601999GF102991999999999999999999MA1101901999999REMMET051METAR SBQV 162300Z 09012KT 9999 FEW012 20/18 Q1019;
0120833440999992012101711004-14950-040883FM-15+0914SBQV V0200501N004110045019N0112651N1+02101+01601999999ADDGA1071+004501999GF107991999999999999999999MA1102101999999REMMET051METAR SBQV 171100Z 05008KT 9999 BKN015 21/16 Q1021;
0120833440999992012101712004-14950-040883FM-15+0914SBQV V0200301N004110048019N0112651N1+02101+01501999999ADDGA1071+004801999GF107991999999999999999999MA1102201999999REMMET051METAR SBQV 171200Z 03008KT 9999 BKN016 21/15 Q1022;
0120833440999992012101713004-14950-040883FM-15+0914SBQV V0200601N004110054019N0112651N1+02301+01501999999ADDGA1071+005401999GF107991999999999999999999MA1102201999999REMMET051METAR SBQV 171300Z 06008KT 9999 BKN018 23/15 Q1022;
0128833440999992012101714004-14950-040883FM-15+0914SBQV V0200401N004612200019N0112651N1+02501+01601999999ADDGA1021+007501999GF102991999999999999999999MA1102101999999REMMET059METAR SBQV 171400Z 04009KT 010V070 9999 FEW025 25/16 Q1021;
0120833440999992012101715004-14950-040883FM-15+0914SBQV V0200501N004612200019N0112651N1+02601+01501999999ADDGA1041+007501999GF104991999999999999999999MA1102001999999REMMET051METAR SBQV 171500Z 05009KT 9999 SCT025 26/15 Q1020;
0120833440999992012101716004-14950-040883FM-15+0914SBQV V0200401N004112200019N0112651N1+02701+01301999999ADDGA1041+007501999GF104991999999999999999999MA1101901999999REMMET051METAR SBQV 171600Z 04008KT 9999 SCT025 27/13 Q1019;
0120833440999992012101717004-14950-040883FM-15+0914SBQV V0200801N003112200019N0112651N1+02801+01301999999ADDGA1041+007501999GF104991999999999999999999MA1101801999999REMMET051METAR SBQV 171700Z 08006KT 9999 SCT025 28/13 Q1018;
0120833440999992012101718004-14950-040883FM-15+0914SBQV V0201001N004612200019N0112651N1+02801+01401999999ADDGA1021+007501999GF102991999999999999999999MA1101691999999REMMET051METAR SBQV 171800Z 10009KT 9999 FEW025 28/14 Q1017;
0120833440999992012101719004-14950-040883FM-15+0914SBQV V0201001N005712200019N0112651N1+02701+01401999999ADDGA1021+007501999GF102991999999999999999999MA1101691999999REMMET051METAR SBQV 171900Z 10011KT 9999 FEW025 27/14 Q1017;
0120833440999992012101720004-14950-040883FM-15+0914SBQV V0201001N005712200019N0112651N1+02501+01401999999ADDGA1021+007501999GF102991999999999999999999MA1101801999999REMMET051METAR SBQV 172000Z 10011KT 9999 FEW025 25/14 Q1018;
0072833440999992012101721004-14950-040883FM-15+0914SBQV V0201001N004119999999Y0099001N1+02401+01401999999ADDMA1101801999999REMMET045METAR SBQV 172100Z 10008KT CAVOK 24/14 Q1018;
0072833440999992012101722004-14950-040883FM-15+0914SBQV V0200901N004619999999Y0099001N1+02301+01501999999ADDMA1101801999999REMMET045METAR SBQV 172200Z 09009KT CAVOK 23/15 Q1018;
0072833440999992012101723004-14950-040883FM-15+0914SBQV V0200701N005119999999Y0099001N1+02201+01801999999ADDMA1101801999999REMMET045METAR SBQV 172300Z 07010KT CAVOK 22/18 Q1018;
0072833440999992012101800004-14950-040883FM-15+0914SBQV V0200801N004619999999Y0099001N1+02101+01801999999ADDMA1101901999999REMMET045METAR SBQV 180000Z 08009KT CAVOK 21/18 Q1019;
0120833440999992012101801004-14950-040883FM-15+0914SBQV V0200901N005712200019N0112651N1+02001+01801999999ADDGA1021+002401999GF102991999999999999999999MA1102001999999REMMET051METAR SBQV 180100Z 09011KT 9999 FEW008 20/18 Q1020;
0072833440999992012101802004-14950-040883FM-15+0914SBQV V0200801N005719999999Y0099001N1+01901+01801999999ADDMA1101901999999REMMET045METAR SBQV 180200Z 08011KT CAVOK 19/18 Q1019;
0143833440999992012101811004-14950-040883FM-15+0914SBQV V0200401N003610210019N0112651N1+02201+01801999999ADDGA1021+003901999GA2071+021001999GF107991999999999999999999MA1102001999999REMMET058METAR SBQV 181100Z 04007KT 9999 FEW013 BKN070 22/18 Q1020;
0143833440999992012101812004-14950-040883FM-15+0914SBQV V0200401N004610210019N0112651N1+02301+01801999999ADDGA1021+004501999GA2071+021001999GF107991999999999999999999MA1102001999999REMMET058METAR SBQV 181200Z 04009KT 9999 FEW015 BKN070 23/18 Q1020;
0143833440999992012101813004-14950-040883FM-15+0914SBQV V0203601N003610048019N0112651N1+02501+01701999999ADDGA1071+004801999GA2071+021001999GF107991999999999999999999MA1102101999999REMMET058METAR SBQV 181300Z 36007KT 9999 BKN016 BKN070 25/17 Q1021;
0136833440999992012101814004-14950-040883FM-15+0914SBQV V0203201N00211005401CN0112651N1+02401+01701999999ADDGA1071+005401999GA2041+021001999MA1102101999999REMMET058METAR SBQV 181400Z 32004KT 9999 BKN018 SCT070 24/17 Q1021;EQDQ01+000042SCOTCV
0143833440999992012101815004-14950-040883FM-15+0914SBQV V0203601N003610240019N0112651N1+02601+01601999999ADDGA1041+006001999GA2071+024001999GF107991999999999999999999MA1102001999999REMMET058METAR SBQV 181500Z 36007KT 9999 SCT020 BKN080 26/16 Q1020;
0143833440999992012101816004-14950-040883FM-15+0914SBQV V0203601N002610210019N0112651N1+02601+01701999999ADDGA1041+006001999GA2071+021001999GF107991999999999999999999MA1101901999999REMMET058METAR SBQV 181600Z 36005KT 9999 SCT020 BKN070 26/17 Q1019;
0143833440999992012101817004-14950-040883FM-15+0914SBQV V0200101N002610240019N0112651N1+02601+01601999999ADDGA1021+006001999GA2071+024001999GF107991999999999999999999MA1101901999999REMMET058METAR SBQV 181700Z 01005KT 9999 FEW020 BKN080 26/16 Q1019;
0143833440999992012101818004-14950-040883FM-15+0914SBQV V0203601N002610240019N0112651N1+02601+01601999999ADDGA1021+006001999GA2071+024001999GF107991999999999999999999MA1101801999999REMMET058METAR SBQV 181800Z 36005KT 9999 FEW020 BKN080 26/16 Q1018;
0143833440999992012101819004-14950-040883FM-15+0914SBQV V0203301N002110240019N0112651N1+02501+01701999999ADDGA1021+006001999GA2081+024001999GF108991999999999999999999MA1101801999999REMMET058METAR SBQV 181900Z 33004KT 9999 FEW020 OVC080 25/17 Q1018;
0143833440999992012101820004-14950-040883FM-15+0914SBQV V0203301N002110240019N0112651N1+02401+01701999999ADDGA1021+005401999GA2081+024001999GF108991999999999999999999MA1101801999999REMMET058METAR SBQV 182000Z 33004KT 9999 FEW018 OVC080 24/17 Q1018;
0143833440999992012101821004-14950-040883FM-15+0914SBQV V0200201N001010210019N0112651N1+02401+01701999999ADDGA1021+001501999GA2081+021001999GF108991999999999999999999MA1101901999999REMMET058METAR SBQV 182100Z 02002KT 9999 FEW005 OVC070 24/17 Q1019;
0072833440999992012101822004-14950-040883FM-15+0914SBQV V0200701N003619999999Y0099001N1+02301+01901999999ADDMA1101801999999REMMET045METAR SBQV 182200Z 07007KT CAVOK 23/19 Q1018;
0072833440999992012101823004-14950-040883FM-15+0914SBQV V0200901N002619999999Y0099001N1+02201+01901999999ADDMA1101901999999REMMET045METAR SBQV 182300Z 09005KT CAVOK 22/19 Q1019;
0072833440999992012101900004-14950-040883FM-15+0914SBQV V0200801N002619999999Y0099001N1+02101+01901999999ADDMA1102001999999REMMET045METAR SBQV 190000Z 08005KT CAVOK 21/19 Q1020;
0072833440999992012101901004-14950-040883FM-15+0914SBQV V0200801N002619999999Y0099001N1+02101+01901999999ADDMA1102001999999REMMET045METAR SBQV 190100Z 08005KT CAVOK 21/19 Q1020;
0072833440999992012101902004-14950-040883FM-15+0914SBQV V0200501N003619999999Y0099001N1+02101+01901999999ADDMA1101901999999REMMET045METAR SBQV 190200Z 05007KT CAVOK 21/19 Q1019;
0072833440999992012101903004-14950-040883FM-15+0914SBQV V0200501N003619999999Y0099001N1+02101+01901999999ADDMA1101901999999REMMET045METAR SBQV 190300Z 05007KT CAVOK 21/19 Q1019;
0120833440999992012101906004-14950-040883FM-15+0914SBQV V0201001N001512200019N0112651N1+01801+01801999999ADDGA1021+001501999GF102991999999999999999999MA1101801999999REMMET051METAR SBQV 190600Z 10003KT 9999 FEW005 18/18 Q1018;
0120833440999992012101907004-14950-040883FM-15+0914SBQV V0200601N002612200019N0112651N1+01801+01801999999ADDGA1041+001501999GF104991999999999999999999MA1101801999999REMMET051METAR SBQV 190700Z 06005KT 9999 SCT005 18/18 Q1018;
0143833440999992012101911004-14950-040883FM-15+0914SBQV V0200401N002612200019N0112651N1+02101+01701999999ADDGA1021+004801999GA2041+024001999GF104991999999999999999999MA1102101999999REMMET058METAR SBQV 191100Z 04005KT 9999 FEW016 SCT080 21/17 Q1021;
0120833440999992012101912004-14950-040883FM-15+0914SBQV V0200701N002612200019N0112651N1+02401+01701999999ADDGA1021+007501999GF102991999999999999999999MA1102101999999REMMET051METAR SBQV 191200Z 07005KT 9999 FEW025 24/17 Q1021;
0120833440999992012101913004-14950-040883FM-15+0914SBQV V0201301N002112200019N0112651N1+02501+01801999999ADDGA1021+007501999GF102991999999999999999999MA1102101999999REMMET051METAR SBQV 191300Z 13004KT 9999 FEW025 25/18 Q1021;
0120833440999992012101914004-14950-040883FM-15+0914SBQV V0201001N003112200019N0112651N1+02701+01601999999ADDGA1021+009001999GF102991999999999999999999MA1102001999999REMMET051METAR SBQV 191400Z 10006KT 9999 FEW030 27/16 Q1020;
0120833440999992012101915004-14950-040883FM-15+0914SBQV V0201001N004612200019N0112651N1+02901+01701999999ADDGA1021+010501999GF102991999999999999999999MA1101901999999REMMET051METAR SBQV 191500Z 10009KT 9999 FEW035 29/17 Q1019;
0120833440999992012101916004-14950-040883FM-15+0914SBQV V0201201N004612200019N0112651N1+02901+01601999999ADDGA1041+010501999GF104991999999999999999999MA1101801999999REMMET051METAR SBQV 191600Z 12009KT 9999 SCT035 29/16 Q1018;
0120833440999992012101917004-14950-040883FM-15+0914SBQV V0201301N005712200019N0112651N1+02901+01601999999ADDGA1041+010501999GF104991999999999999999999MA1101691999999REMMET051METAR SBQV 191700Z 13011KT 9999 SCT035 29/16 Q1017;
0120833440999992012101918004-14950-040883FM-15+0914SBQV V0201001N007212200019N0112651N1+02801+01701999999ADDGA1021+010501999GF102991999999999999999999MA1101691999999REMMET051METAR SBQV 191800Z 10014KT 9999 FEW035 28/17 Q1017;
0120833440999992012101919004-14950-040883FM-15+0914SBQV V0200901N006212200019N0112651N1+02701+01701999999ADDGA1021+010501999GF102991999999999999999999MA1101691999999REMMET051METAR SBQV 191900Z 09012KT 9999 FEW035 27/17 Q1017;
0120833440999992012101920004-14950-040883FM-15+0914SBQV V0201001N006712200019N0112651N1+02501+01801999999ADDGA1021+009001999GF102991999999999999999999MA1101691999999REMMET051METAR SBQV 192000Z 10013KT 9999 FEW030 25/18 Q1017;
0143833440999992012101921004-14950-040883FM-15+0914SBQV V0200901N006712200019N0112651N1+02401+01801999999ADDGA1021+007501999GA2041+027001999GF104991999999999999999999MA1101691999999REMMET058METAR SBQV 192100Z 09013KT 9999 FEW025 SCT090 24/18 Q1017;
0072833440999992012101922004-14950-040883FM-15+0914SBQV V0200801N006719999999Y0099001N1+02301+01801999999ADDMA1101801999999REMMET045METAR SBQV 192200Z 08013KT CAVOK 23/18 Q1018;
0072833440999992012101923004-14950-040883FM-15+0914SBQV V0200901N005119999999Y0099001N1+02201+01901999999ADDMA1101801999999REMMET045METAR SBQV 192300Z 09010KT CAVOK 22/19 Q1018;
0072833440999992012102000004-14950-040883FM-15+0914SBQV V0201001N005119999999Y0099001N1+02101+01801999999ADDMA1101901999999REMMET045METAR SBQV 200000Z 10010KT CAVOK 21/18 Q1019;
0120833440999992012102011004-14950-040883FM-15+0914SBQV V0200801N005110045019N0112651N1+02101+01601999999ADDGA1071+004501999GF107991999999999999999999MA1102201999999REMMET051METAR SBQV 201100Z 08010KT 9999 BKN015 21/16 Q1022;
0120833440999992012102012004-14950-040883FM-15+0914SBQV V0200801N004612200019N0112651N1+02401+01501999999ADDGA1041+005401999GF104991999999999999999999MA1102201999999REMMET051METAR SBQV 201200Z 08009KT 9999 SCT018 24/15 Q1022;
0072833440999992012102023004-14950-040883FM-15+0914SBQV V0201001N004119999999Y0099001N1+02201+01701999999ADDMA1101901999999REMMET045METAR SBQV 202300Z 10008KT CAVOK 22/17 Q1019;
0120833440999992012102114004-14950-040883FM-15+0914SBQV V0200501N003112200019N0112651N1+02701+01401999999ADDGA1021+007501999GF102991999999999999999999MA1101901999999REMMET051METAR SBQV 211400Z 05006KT 9999 FEW025 27/14 Q1019;
0120833440999992012102117004-14950-040883FM-15+0914SBQV V0201001N005112200019N0112651N1+02901+01501999999ADDGA1041+009001999GF104991999999999999999999MA1101691999999REMMET051METAR SBQV 211700Z 10010KT 9999 SCT030 29/15 Q1017;
0072833440999992012102122004-14950-040883FM-15+0914SBQV V0200801N005719999999Y0099001N1+02301+01601999999ADDMA1101691999999REMMET045METAR SBQV 212200Z 08011KT CAVOK 23/16 Q1017;
0072833440999992012102202004-14950-040883FM-15+0914SBQV V0200701N006219999999Y0099001N1+02001+01801999999ADDMA1101691999999REMMET045METAR SBQV 220200Z 07012KT CAVOK 20/18 Q1017;
0120833440999992012102208004-14950-040883FM-15+0914SBQV V0200401N003112200019N0112651N1+01701+01601999999ADDGA1021+001801999GF102991999999999999999999MA1101691999999REMMET051METAR SBQV 220800Z 04006KT 9999 FEW006 17/16 Q1017;
0143833440999992012102210004-14950-040883FM-15+0914SBQV V0200401N002610210019N0112651N1+01801+01601999999ADDGA1041+003001999GA2071+021001999GF107991999999999999999999MA1101801999999REMMET058METAR SBQV 221000Z 04005KT 9999 SCT010 BKN070 18/16 Q1018;
0120833440999992012102212004-14950-040883FM-15+0914SBQV V0200401N004612200019N0112651N1+02301+01701999999ADDGA1021+004501999GF102991999999999999999999MA1101901999999REMMET051METAR SBQV 221200Z 04009KT 9999 FEW015 23/17 Q1019;
0120833440999992012102213004-14950-040883FM-15+0914SBQV V0200301N003612200019N0112651N1+02601+01601999999ADDGA1021+005401999GF102991999999999999999999MA1101801999999REMMET051METAR SBQV 221300Z 03007KT 9999 FEW018 26/16 Q1018;
0072833440999992012102220004-14950-040883FM-15+0914SBQV V0200701N005119999999Y0099001N1+02801+01601999999ADDMA1101391999999REMMET045METAR SBQV 222000Z 07010KT CAVOK 28/16 Q1014;
0072833440999992012102223004-14950-040883FM-15+0914SBQV V0201101N004619999999Y0099001N1+02201+01801999999ADDMA1101591999999REMMET045METAR SBQV 222300Z 11009KT CAVOK 22/18 Q1016;
0072833440999992012102311004-14950-040883FM-15+0914SBQV V0200301N003119999999Y0099001N1+02201+01501999999ADDMA1101801999999REMMET045METAR SBQV 231100Z 03006KT CAVOK 22/15 Q1018;
0072833440999992012102312004-14950-040883FM-15+0914SBQV V0200401N002619999999Y0099001N1+02501+01401999999ADDMA1101901999999REMMET045METAR SBQV 231200Z 04005KT CAVOK 25/14 Q1019;
0072833440999992012102317004-14950-040883FM-15+0914SBQV V0200801N004119999999Y0099001N1+03201+01201999999ADDMA1101491999999REMMET045METAR SBQV 231700Z 08008KT CAVOK 32/12 Q1015;
0072833440999992012102323004-14950-040883FM-15+0914SBQV V0200901N004619999999Y0099001N1+02401+01701999999ADDMA1101591999999REMMET045METAR SBQV 232300Z 09009KT CAVOK 24/17 Q1016;
0120833440999992012102410004-14950-040883FM-15+0914SBQV V0200401N004610048019N0112651N1+02001+01801999999ADDGA1071+004801999GF107991999999999999999999MA1101901999999REMMET051METAR SBQV 241000Z 04009KT 9999 BKN016 20/18 Q1019;
0072833440999992012102413004-14950-040883FM-15+0914SBQV V0200201N004619999999Y0099001N1+02701+01601999999ADDMA1101901999999REMMET045METAR SBQV 241300Z 02009KT CAVOK 27/16 Q1019;
0120833440999992012102419004-14950-040883FM-15+0914SBQV V0201001N004112200019N0112651N1+03201+01601999999ADDGA1021+010501999GF102991999999999999999999MA1101391999999REMMET051METAR SBQV 241900Z 10008KT 9999 FEW035 32/16 Q1014;
0120833440999992012102420004-14950-040883FM-15+0914SBQV V0201001N005712200019N0112651N1+02901+01801999999ADDGA1021+027001999GF102991999999999999999999MA1101491999999REMMET051METAR SBQV 242000Z 10011KT 9999 FEW090 29/18 Q1015;
0072833440999992012102501004-14950-040883FM-15+0914SBQV V0200801N004119999999Y0099001N1+02201+01801999999ADDMA1101801999999REMMET045METAR SBQV 250100Z 08008KT CAVOK 22/18 Q1018;
0072833440999992012102502004-14950-040883FM-15+0914SBQV V0201001N003119999999Y0099001N1+02101+01801999999ADDMA1101801999999REMMET045METAR SBQV 250200Z 10006KT CAVOK 21/18 Q1018;
0120833440999992012102511004-14950-040883FM-15+0914SBQV V0200701N004112200019N0112651N1+02201+01601999999ADDGA1021+005401999GF102991999999999999999999MA1102001999999REMMET051METAR SBQV 251100Z 07008KT 9999 FEW018 22/16 Q1020;
0072833440999992012102601004-14950-040883FM-15+0914SBQV V0200801N004619999999Y0099001N1+02001+01601999999ADDMA1102001999999REMMET045METAR SBQV 260100Z 08009KT CAVOK 20/16 Q1020;
0128833440999992012102616004-14950-040883FM-15+0914SBQV V0200801N005112200019N0112651N1+02801+01201999999ADDGA1021+009001999GF102991999999999999999999MA1101801999999REMMET059METAR SBQV 261600Z 08010KT 040V120 9999 FEW030 28/12 Q1018;
0120833440999992012102708004-14950-040883FM-15+0914SBQV V0200901N003612200019N0112651N1+01601+01601999999ADDGA1041+001501999GF104991999999999999999999MA1102001999999REMMET051METAR SBQV 270800Z 09007KT 9999 SCT005 16/16 Q1020;
0120833440999992012102712004-14950-040883FM-15+0914SBQV V0200701N004612200019N0112651N1+02401+01601999999ADDGA1041+004801999GF104991999999999999999999MA1102101999999REMMET051METAR SBQV 271200Z 07009KT 9999 SCT016 24/16 Q1021;
0120833440999992012102808004-14950-040883FM-15+0914SBQV V0200601N003112200019N0112651N1+01801+01501999999ADDGA1021+002701999GF102991999999999999999999MA1101901999999REMMET051METAR SBQV 280800Z 06006KT 9999 FEW009 18/15 Q1019;
0120833440999992012102811004-14950-040883FM-15+0914SBQV V0200201N003112200019N0112651N1+02201+01601999999ADDGA1041+004501999GF104991999999999999999999MA1102001999999REMMET051METAR SBQV 281100Z 02006KT 9999 SCT015 22/16 Q1020;
0120833440999992012102812004-14950-040883FM-15+0914SBQV V0200201N002112200019N0112651N1+02301+01601999999ADDGA1041+004801999GF104991999999999999999999MA1102101999999REMMET051METAR SBQV 281200Z 02004KT 9999 SCT016 23/16 Q1021;
0120833440999992012102813004-14950-040883FM-15+0914SBQV V0200301N001512200019N0112651N1+02501+01501999999ADDGA1021+005401999GF102991999999999999999999MA1102001999999REMMET051METAR SBQV 281300Z 03003KT 9999 FEW018 25/15 Q1020;
0072833440999992012102820004-14950-040883FM-15+0914SBQV V0201101N006719999999Y0099001N1+02901+01301999999ADDMA1101591999999REMMET045METAR SBQV 282000Z 11013KT CAVOK 29/13 Q1016;
0072833440999992012102822004-14950-040883FM-15+0914SBQV V0201101N003619999999Y0099001N1+02501+01401999999ADDMA1101691999999REMMET045METAR SBQV 282200Z 11007KT CAVOK 25/14 Q1017;
0072833440999992012102823004-14950-040883FM-15+0914SBQV V0201101N004619999999Y0099001N1+02401+01501999999ADDMA1101691999999REMMET045METAR SBQV 282300Z 11009KT CAVOK 24/15 Q1017;
0120833440999992012102910004-14950-040883FM-15+0914SBQV V0200501N003612200019N0112651N1+02001+01601999999ADDGA1041+004801999GF104991999999999999999999MA1102101999999REMMET051METAR SBQV 291000Z 05007KT 9999 SCT016 20/16 Q1021;
0120833440999992012102912004-14950-040883FM-15+0914SBQV V0200701N003112200019N0112651N1+02501+01401999999ADDGA1021+009001999GF102991999999999999999999MA1102101999999REMMET051METAR SBQV 291200Z 07006KT 9999 FEW030 25/14 Q1021;
0072833440999992012102914004-14950-040883FM-15+0914SBQV V0200701N002619999999Y0099001N1+02901+01401999999ADDMA1102001999999REMMET045METAR SBQV 291400Z 07005KT CAVOK 29/14 Q1020;
0072833440999992012102920004-14950-040883FM-15+0914SBQV V0201001N005119999999Y0099001N1+02901+01401999999ADDMA1101691999999REMMET045METAR SBQV 292000Z 10010KT CAVOK 29/14 Q1017;
0072833440999992012102922004-14950-040883FM-15+0914SBQV V0200901N004119999999Y0099001N1+02601+01401999999ADDMA1101801999999REMMET045METAR SBQV 292200Z 09008KT CAVOK 26/14 Q1018;
0072833440999992012103012004-14950-040883FM-15+0914SBQV V0200601N002619999999Y0099001N1+02501+01701999999ADDMA1101901999999REMMET045METAR SBQV 301200Z 06005KT CAVOK 25/17 Q1019;
0072833440999992012103014004-14950-040883FM-15+0914SBQV V0200701N003619999999Y0099001N1+03001+01301999999ADDMA1101801999999REMMET045METAR SBQV 301400Z 07007KT CAVOK 30/13 Q1018;
0120833440999992012103019004-14950-040883FM-15+0914SBQV V0200901N005712200019N0112651N1+03201+01501999999ADDGA1021+010501999GF102991999999999999999999MA1101391999999REMMET051METAR SBQV 301900Z 09011KT 9999 FEW035 32/15 Q1014;
0120833440999992012103020004-14950-040883FM-15+0914SBQV V0201101N005712200019N0112651N1+03001+01501999999ADDGA1021+009001999GF102991999999999999999999MA1101491999999REMMET051METAR SBQV 302000Z 11011KT 9999 FEW030 30/15 Q1015;
0072833440999992012103022004-14950-040883FM-15+0914SBQV V0200901N004619999999Y0099001N1+02601+01601999999ADDMA1101591999999REMMET045METAR SBQV 302200Z 09009KT CAVOK 26/16 Q1016;
0072833440999992012103101004-14950-040883FM-15+0914SBQV V0201001N003119999999Y0099001N1+02301+01801999999ADDMA1101691999999REMMET045METAR SBQV 310100Z 10006KT CAVOK 23/18 Q1017;
0072833440999992012103108004-14950-040883FM-15+0914SBQV V0200101N004119999999Y0099001N1+02001+01701999999ADDMA1101491999999REMMET045METAR SBQV 310800Z 01008KT CAVOK 20/17 Q1015;
0072833440999992012103114004-14950-040883FM-15+0914SBQV V0200501N001519999999Y0099001N1+03101+01601999999ADDMA1101591999999REMMET045METAR SBQV 311400Z 05003KT CAVOK 31/16 Q1016;
0120833440999992012103115004-14950-040883FM-15+0914SBQV V0201101N001512200019N0112651N1+03301+01501999999ADDGA1021+013501999GF102991999999999999999999MA1101491999999REMMET051METAR SBQV 311500Z 11003KT 9999 FEW045 33/15 Q1015;
0120833440999992012103116004-14950-040883FM-15+0914SBQV V0201801N002112200019N0112651N1+03401+01501999999ADDGA1021+013501999GF102991999999999999999999MA1101291999999REMMET051METAR SBQV 311600Z 18004KT 9999 FEW045 34/15 Q1013;
0120833440999992012103117004-14950-040883FM-15+0914SBQV V0201101N002612200019N0112651N1+03501+01401999999ADDGA1041+013501999GF104991999999999999999999MA1101191999999REMMET051METAR SBQV 311700Z 11005KT 9999 SCT045 35/14 Q1012;
0120833440999992012103118004-14950-040883FM-15+0914SBQV V0201201N005112200019N0112651N1+03501+01401999999ADDGA1041+013501999GF104991999999999999999999MA1101081999999REMMET051METAR SBQV 311800Z 12010KT 9999 SCT045 35/14 Q1011;
0123833440999992012103119004-14950-040883FM-15+0914SBQV V0201101N006212200019N0112651N1+03401+01601999999ADDGA1021+012001021GF102991999999999999999999MA1101081999999REMMET054METAR SBQV 311900Z 11012KT 9999 FEW040TCU 34/16 Q1011;
0146833440999992012103120004-14950-040883FM-15+0914SBQV V0201101N006212200019N0112651N1+03101+01701999999ADDGA1021+010501999GA2021+012001021GF102991999999999999999999MA1101081999999REMMET061METAR SBQV 312000Z 11012KT 9999 FEW035 FEW040TCU 31/17 Q1011;
0120833440999992012103121004-14950-040883FM-15+0914SBQV V0200801N001512200019N0112651N1+02901+01701999999ADDGA1041+009001999GF104991999999999999999999MA1101291999999REMMET051METAR SBQV 312100Z 08003KT 9999 SCT030 29/17 Q1013;
0143833440999992012103122004-14950-040883FM-15+0914SBQV V0201801N001512200019N0112651N1+02701+01701999999ADDGA1021+009001999GA2041+024001999GF104991999999999999999999MA1101291999999REMMET058METAR SBQV 312200Z 18003KT 9999 FEW030 SCT080 27/17 Q1013;
0072833440999992012103123004-14950-040883FM-15+0914SBQV V0201801N001519999999Y0099001N1+02701+01701999999ADDMA1101391999999REMMET045METAR SBQV 312300Z 18003KT CAVOK 27/17 Q1014;
0072833440999992012110100004-14950-040883FM-15+0914SBQV V0201701N000519999999Y0099001N1+02601+01801999999ADDMA1101391999999REMMET045METAR SBQV 010000Z 17001KT CAVOK 26/18 Q1014;
0072833440999992012110101004-14950-040883FM-15+0914SBQV V0201701N001019999999Y0099001N1+02601+01701999999ADDMA1101491999999REMMET045METAR SBQV 010100Z 17002KT CAVOK 26/17 Q1015;
0072833440999992012110108004-14950-040883FM-15+0914SBQV V0200201N001019999999Y0099001N1+02101+01901999999ADDMA1101291999999REMMET045METAR SBQV 010800Z 02002KT CAVOK 21/19 Q1013;
0072833440999992012110109004-14950-040883FM-15+0914SBQV V0201001N001519999999Y0099001N1+02201+01901999999ADDMA1101391999999REMMET045METAR SBQV 010900Z 10003KT CAVOK 22/19 Q1014;
0072833440999992012110110004-14950-040883FM-15+0914SBQV V0201601N000519999999Y0099001N1+02601+01901999999ADDMA1101391999999REMMET045METAR SBQV 011000Z 16001KT CAVOK 26/19 Q1014;
0120833440999992012110111004-14950-040883FM-15+0914SBQV V0200201N002612200019N0112651N1+02801+01901999999ADDGA1021+010501999GF102991999999999999999999MA1101391999999REMMET051METAR SBQV 011100Z 02005KT 9999 FEW035 28/19 Q1014;
0072833440999992012110112004-14950-040883FM-15+0914SBQV V0203101N001519999999Y0099001N1+03001+01901999999ADDMA1101491999999REMMET045METAR SBQV 011200Z 31003KT CAVOK 30/19 Q1015;
0120833440999992012110113004-14950-040883FM-15+0914SBQV V0203501N002112200019N0112651N1+03101+01901999999ADDGA1021+010501999GF102991999999999999999999MA1101391999999REMMET051METAR SBQV 011300Z 35004KT 9999 FEW035 31/19 Q1014;
0120833440999992012110114004-14950-040883FM-15+0914SBQV V0200101N002612200019N0112651N1+03201+01801999999ADDGA1021+010501999GF102991999999999999999999MA1101391999999REMMET051METAR SBQV 011400Z 01005KT 9999 FEW035 32/18 Q1014;
0120833440999992012110115004-14950-040883FM-15+0914SBQV V0202701N001012200019N0112651N1+03301+01801999999ADDGA1041+010501999GF104991999999999999999999MA1101291999999REMMET051METAR SBQV 011500Z 27002KT 9999 SCT035 33/18 Q1013;
0190833440999992012110116004-14950-040883FM-15+0914SBQV V0202201N00821004501CN0020001N1+02201+01901999999ADDGA1041+003001999GA2071+004501999GA3021+004801091MA1101291999999MW1821MW2971OC101541REMMET076METAR SBQV 011600Z 22016G30KT 2000 +TSRA SCT010 BKN015 FEW016CB 22/19 Q1013;EQDQ01+000022SCOTCV
0150833440999992012110117004-14950-040883FM-15+0914SBQV V0200101N004612200019N0112651N1+02301+01901999999ADDGA1041+004801999GA2041+021001999GF104991999999999999999999MA1101081999999REMMET065METAR SBQV 011700Z 01009KT 9999 SCT016 SCT070 23/19 Q1011 RETSRA;
0143833440999992012110118004-14950-040883FM-15+0914SBQV V0200701N000512200019N0112651N1+02601+02201999999ADDGA1041+004801999GA2041+021001999GF104991999999999999999999MA1101081999999REMMET058METAR SBQV 011800Z 07001KT 9999 SCT016 SCT070 26/22 Q1011;
0177833440999992012110119004-14950-040883FM-15+0914SBQV V0201001N002110210019N0112651N1+02601+02301999999ADDGA1021+004801999GA2021+005401091GA3071+021001999GF107991999999999999999999MA1101081999999MW1171REMMET070METAR SBQV 011900Z 10004KT 9999 TS FEW016 FEW018CB BKN070 26/23 Q1011;
0148833440999992012110120004-14950-040883FM-15+0914SBQV V0201201N003110210019N0112651N1+02501+02201999999ADDGA1021+004801999GA2071+021001999GF107991999999999999999999MA1101081999999REMMET063METAR SBQV 012000Z 12006KT 9999 FEW016 BKN070 25/22 Q1011 RETS;
0143833440999992012110121004-14950-040883FM-15+0914SBQV V0201001N004110210019N0112651N1+02501+02201999999ADDGA1021+004801999GA2071+021001999GF107991999999999999999999MA1101291999999REMMET058METAR SBQV 012100Z 10008KT 9999 FEW016 BKN070 25/22 Q1013;
0143833440999992012110122004-14950-040883FM-15+0914SBQV V0200901N003110210019N0112651N1+02501+02101999999ADDGA1021+004801999GA2071+021001999GF107991999999999999999999MA1101291999999REMMET058METAR SBQV 012200Z 09006KT 9999 FEW016 BKN070 25/21 Q1013;
0154833440999992012110123004-14950-040883FM-15+0914SBQV V0203001N002610210019N0112651N1+02401+02001999999ADDGA1021+004801091GA2071+021001999GF107991999999999999999999MA1101391999999MW1171REMMET063METAR SBQV 012300Z 30005KT 9999 TS FEW016CB BKN070 24/20 Q1014;
0154833440999992012110200004-14950-040883FM-15+0914SBQV V0202501N000510210019N0112651N1+02301+02101999999ADDGA1021+004801091GA2071+021001999GF107991999999999999999999MA1101491999999MW1171REMMET063METAR SBQV 020000Z 25001KT 9999 TS FEW016CB BKN070 23/21 Q1015;
0154833440999992012110201004-14950-040883FM-15+0914SBQV V0200801N003610210019N0112651N1+02301+02001999999ADDGA1021+004801091GA2071+021001999GF107991999999999999999999MA1101491999999MW1171REMMET063METAR SBQV 020100Z 08007KT 9999 TS FEW016CB BKN070 23/20 Q1015;
0148833440999992012110201354-14950-040883FM-15+0914SBQV V0201001N001510210019N0112651N1+02301+01901999999ADDGA1021+004801999GA2071+021001999GF107991999999999999999999MA1101491999999REMMET063METAR SBQV 020135Z 10003KT 9999 FEW016 BKN070 23/19 Q1015 RETS;
0143833440999992012110208004-14950-040883FM-15+0914SBQV V0201101N001510210019N0112651N1+02201+02001999999ADDGA1021+003001999GA2071+021001999GF107991999999999999999999MA1101491999999REMMET058METAR SBQV 020800Z 11003KT 9999 FEW010 BKN070 22/20 Q1015;
0143833440999992012110209004-14950-040883FM-15+0914SBQV V0200101N004110210019N0112651N1+02101+02001999999ADDGA1041+002101999GA2081+021001999GF108991999999999999999999MA1101591999999REMMET058METAR SBQV 020900Z 01008KT 9999 SCT007 OVC070 21/20 Q1016;
0143833440999992012110210004-14950-040883FM-15+0914SBQV V0200101N002610210019N0112651N1+02201+02101999999ADDGA1041+002401999GA2081+021001999GF108991999999999999999999MA1101691999999REMMET058METAR SBQV 021000Z 01005KT 9999 SCT008 OVC070 22/21 Q1017;
0143833440999992012110211004-14950-040883FM-15+0914SBQV V0200501N002610210019N0112651N1+02201+02001999999ADDGA1041+003301999GA2081+021001999GF108991999999999999999999MA1101801999999REMMET058METAR SBQV 021100Z 05005KT 9999 SCT011 OVC070 22/20 Q1018;
0143833440999992012110212004-14950-040883FM-15+0914SBQV V0200401N002610210019N0112651N1+02201+02001999999ADDGA1041+003601999GA2081+021001999GF108991999999999999999999MA1101801999999REMMET058METAR SBQV 021200Z 04005KT 9999 SCT012 OVC070 22/20 Q1018;
0153833440999992012110213004-14950-040883FM-15+0914SBQV V0200201N001010210019N0070001N1+02201+02101999999ADDGA1041+004501999GA2081+021001999GF108991999999999999999999MA1101801999999MW1611REMMET062METAR SBQV 021300Z 02002KT 7000 -RA SCT015 OVC070 22/21 Q1018;
0153833440999992012110214004-14950-040883FM-15+0914SBQV V0202301N001510210019N0080001N1+02201+02101999999ADDGA1021+004501999GA2081+021001999GF108991999999999999999999MA1101801999999MW1611REMMET062METAR SBQV 021400Z 23003KT 8000 -RA FEW015 OVC070 22/21 Q1018;
0142833440999992012110215004-14950-040883FM-15+0914SBQV V0209999999999021001CN0112651N1+02101+02101999999ADDGA1021+002101999GA2081+021001999GF108991999999999999999999MA1101801999999REMMET057METAR SBQV 021500Z 2004KT 9999 FEW007 OVC070 21/21 Q1018;
0143833440999992012110216004-14950-040883FM-15+0914SBQV V0202301N002610210019N0112651N1+02201+02201999999ADDGA1041+004501999GA2081+021001999GF108991999999999999999999MA1101691999999REMMET058METAR SBQV 021600Z 23005KT 9999 SCT015 OVC070 22/22 Q1017;
0143833440999992012110217004-14950-040883FM-15+0914SBQV V0201701N002110210019N0112651N1+02201+02101999999ADDGA1041+004501999GA2081+021001999GF108991999999999999999999MA1101691999999REMMET058METAR SBQV 021700Z 17004KT 9999 SCT015 OVC070 22/21 Q1017;
0143833440999992012110218004-14950-040883FM-15+0914SBQV V0201401N002110210019N0112651N1+02201+02101999999ADDGA1041+004501999GA2081+021001999GF108991999999999999999999MA1101591999999REMMET058METAR SBQV 021800Z 14004KT 9999 SCT015 OVC070 22/21 Q1016;
0143833440999992012110219004-14950-040883FM-15+0914SBQV V0201301N001510210019N0112651N1+02201+02101999999ADDGA1021+004501999GA2081+021001999GF108991999999999999999999MA1101591999999REMMET058METAR SBQV 021900Z 13003KT 9999 FEW015 OVC070 22/21 Q1016;
0072833440999992012110220004-14950-040883FM-15+0914SBQV V0201401N000519999999Y0099001N1+02201+02101999999ADDMA1101591999999REMMET045METAR SBQV 022000Z 14001KT CAVOK 22/21 Q1016;
0072833440999992012110221004-14950-040883FM-15+0914SBQV V0202401N001019999999Y0099001N1+02201+02101999999ADDMA1101591999999REMMET045METAR SBQV 022100Z 24002KT CAVOK 22/21 Q1016;
0072833440999992012110222004-14950-040883FM-15+0914SBQV V0203101N001019999999Y0099001N1+02201+02101999999ADDMA1101691999999REMMET045METAR SBQV 022200Z 31002KT CAVOK 22/21 Q1017;
0072833440999992012110223004-14950-040883FM-15+0914SBQV V0203401N001519999999Y0099001N1+02201+02101999999ADDMA1101691999999REMMET045METAR SBQV 022300Z 34003KT CAVOK 22/21 Q1017;
0072833440999992012110300004-14950-040883FM-15+0914SBQV V0203401N002119999999Y0099001N1+02201+02101999999ADDMA1101801999999REMMET045METAR SBQV 030000Z 34004KT CAVOK 22/21 Q1018;
0072833440999992012110301004-14950-040883FM-15+0914SBQV V0200301N002119999999Y0099001N1+02201+02101999999ADDMA1101801999999REMMET045METAR SBQV 030100Z 03004KT CAVOK 22/21 Q1018;
0143833440999992012110308004-14950-040883FM-15+0914SBQV V0200701N002610210019N0112651N1+02001+02001999999ADDGA1021+004501999GA2071+021001999GF107991999999999999999999MA1101591999999REMMET058METAR SBQV 030800Z 07005KT 9999 FEW015 BKN070 20/20 Q1016;
0143833440999992012110309004-14950-040883FM-15+0914SBQV V0209999C000010210019N0112651N1+02001+02001999999ADDGA1021+004501999GA2081+021001999GF108991999999999999999999MA1101691999999REMMET058METAR SBQV 030900Z 00000KT 9999 FEW015 OVC070 20/20 Q1017;
0143833440999992012110310004-14950-040883FM-15+0914SBQV V0209999C000010210019N0112651N1+02001+02001999999ADDGA1021+004501999GA2081+021001999GF108991999999999999999999MA1101801999999REMMET058METAR SBQV 031000Z 00000KT 9999 FEW015 OVC070 20/20 Q1018;
0143833440999992012110311004-14950-040883FM-15+0914SBQV V0201301N001510210019N0112651N1+02101+02001999999ADDGA1041+004501999GA2081+021001999GF108991999999999999999999MA1101801999999REMMET058METAR SBQV 031100Z 13003KT 9999 SCT015 OVC070 21/20 Q1018;
0143833440999992012110312004-14950-040883FM-15+0914SBQV V0201101N001010240019N0112651N1+02201+02101999999ADDGA1041+004801999GA2081+024001999GF108991999999999999999999MA1101901999999REMMET058METAR SBQV 031200Z 11002KT 9999 SCT016 OVC080 22/21 Q1019;
0143833440999992012110313004-14950-040883FM-15+0914SBQV V0200201N002610240019N0112651N1+02301+02001999999ADDGA1041+006001999GA2081+024001999GF108991999999999999999999MA1101901999999REMMET058METAR SBQV 031300Z 02005KT 9999 SCT020 OVC080 23/20 Q1019;
0143833440999992012110314004-14950-040883FM-15+0914SBQV V0203401N002610060019N0112651N1+02501+02001999999ADDGA1071+006001999GA2081+024001999GF108991999999999999999999MA1101801999999REMMET058METAR SBQV 031400Z 34005KT 9999 BKN020 OVC080 25/20 Q1018;
0143833440999992012110315004-14950-040883FM-15+0914SBQV V0203401N002610060019N0112651N1+02501+02001999999ADDGA1071+006001999GA2081+024001999GF108991999999999999999999MA1101801999999REMMET058METAR SBQV 031500Z 34005KT 9999 BKN020 OVC080 25/20 Q1018;
0143833440999992012110316004-14950-040883FM-15+0914SBQV V0203301N002610210019N0112651N1+02501+02001999999ADDGA1041+006001999GA2071+021001999GF107991999999999999999999MA1101691999999REMMET058METAR SBQV 031600Z 33005KT 9999 SCT020 BKN070 25/20 Q1017;
0143833440999992012110317004-14950-040883FM-15+0914SBQV V0203301N003110240019N0112651N1+02601+02001999999ADDGA1041+006001999GA2071+024001999GF107991999999999999999999MA1101591999999REMMET058METAR SBQV 031700Z 33006KT 9999 SCT020 BKN080 26/20 Q1016;
0143833440999992012110318004-14950-040883FM-15+0914SBQV V0203401N002610240019N0112651N1+02601+01901999999ADDGA1041+007501999GA2071+024001999GF107991999999999999999999MA1101491999999REMMET058METAR SBQV 031800Z 34005KT 9999 SCT025 BKN080 26/19 Q1015;
0143833440999992012110319004-14950-040883FM-15+0914SBQV V0203201N003110240019N0112651N1+02801+01901999999ADDGA1021+007501999GA2071+024001999GF107991999999999999999999MA1101491999999REMMET058METAR SBQV 031900Z 32006KT 9999 FEW025 BKN080 28/19 Q1015;
0143833440999992012110320004-14950-040883FM-15+0914SBQV V0203301N001510240019N0112651N1+02601+01901999999ADDGA1021+007501999GA2071+024001999GF107991999999999999999999MA1101491999999REMMET058METAR SBQV 032000Z 33003KT 9999 FEW025 BKN080 26/19 Q1015;
0072833440999992012110321004-14950-040883FM-15+0914SBQV V0203501N001519999999Y0099001N1+02501+01901999999ADDMA1101491999999REMMET045METAR SBQV 032100Z 35003KT CAVOK 25/19 Q1015;
0120833440999992012110322004-14950-040883FM-15+0914SBQV V0200301N002112200019N0112651N1+02501+01901999999ADDGA1041+006001999GF104991999999999999999999MA1101591999999REMMET051METAR SBQV 032200Z 03004KT 9999 SCT020 25/19 Q1016;
0120833440999992012110323004-14950-040883FM-15+0914SBQV V0200101N002612200019N0112651N1+02401+02001999999ADDGA1041+006001999GF104991999999999999999999MA1101591999999REMMET051METAR SBQV 032300Z 01005KT 9999 SCT020 24/20 Q1016;
0143833440999992012110400004-14950-040883FM-15+0914SBQV V0200101N002612200019N0112651N1+02401+01901999999ADDGA1021+005401999GA2041+024001999GF104991999999999999999999MA1101691999999REMMET058METAR SBQV 040000Z 01005KT 9999 FEW018 SCT080 24/19 Q1017;
0143833440999992012110401004-14950-040883FM-15+0914SBQV V0200201N002612200019N0112651N1+02301+01901999999ADDGA1021+004801999GA2041+021001999GF104991999999999999999999MA1101691999999REMMET058METAR SBQV 040100Z 02005KT 9999 FEW016 SCT070 23/19 Q1017;
0143833440999992012110408004-14950-040883FM-15+0914SBQV V0203501N004110210019N0112651N1+02101+02101999999ADDGA1021+001501999GA2071+021001999GF107991999999999999999999MA1101491999999REMMET058METAR SBQV 040800Z 35008KT 9999 FEW005 BKN070 21/21 Q1015;
0072833440999992012110409004-14950-040883FM-15+0914SBQV V0203301N003119999999Y0099001N1+02101+02001999999ADDMA1101491999999REMMET045METAR SBQV 040900Z 33006KT CAVOK 21/20 Q1015;
0143833440999992012110410004-14950-040883FM-15+0914SBQV V0203301N003610210019N0112651N1+02201+02101999999ADDGA1021+003001999GA2071+021001999GF107991999999999999999999MA1101591999999REMMET058METAR SBQV 041000Z 33007KT 9999 FEW010 BKN070 22/21 Q1016;
0143833440999992012110411004-14950-040883FM-15+0914SBQV V0202901N005710030019N0112651N1+02201+02001999999ADDGA1071+003001999GA2081+021001999GF108991999999999999999999MA1101691999999REMMET058METAR SBQV 041100Z 29011KT 9999 BKN010 OVC070 22/20 Q1017;
0143833440999992012110412004-14950-040883FM-15+0914SBQV V0202801N005110036019N0112651N1+02301+02001999999ADDGA1071+003601999GA2081+021001999GF108991999999999999999999MA1101691999999REMMET058METAR SBQV 041200Z 28010KT 9999 BKN012 OVC070 23/20 Q1017;
0143833440999992012110413004-14950-040883FM-15+0914SBQV V0202801N007710210019N0112651N1+02501+01901999999ADDGA1041+003601999GA2071+021001999GF107991999999999999999999MA1101691999999REMMET058METAR SBQV 041300Z 28015KT 9999 SCT012 BKN070 25/19 Q1017;
0143833440999992012110414004-14950-040883FM-15+0914SBQV V0202801N006710210019N0112651N1+02501+01901999999ADDGA1041+004501999GA2071+021001999GF107991999999999999999999MA1101691999999REMMET058METAR SBQV 041400Z 28013KT 9999 SCT015 BKN070 25/19 Q1017;
0143833440999992012110415004-14950-040883FM-15+0914SBQV V0202801N005110240019N0112651N1+02501+01901999999ADDGA1041+005401999GA2081+024001999GF108991999999999999999999MA1101591999999REMMET058METAR SBQV 041500Z 28010KT 9999 SCT018 OVC080 25/19 Q1016;
0143833440999992012110416004-14950-040883FM-15+0914SBQV V0202901N005710240019N0112651N1+02601+01901999999ADDGA1041+006001999GA2071+024001999GF107991999999999999999999MA1101491999999REMMET058METAR SBQV 041600Z 29011KT 9999 SCT020 BKN080 26/19 Q1015;
0143833440999992012110417004-14950-040883FM-15+0914SBQV V0202901N007710240019N0112651N1+02701+01901999999ADDGA1041+006001999GA2071+024001999GF107991999999999999999999MA1101491999999REMMET058METAR SBQV 041700Z 29015KT 9999 SCT020 BKN080 27/19 Q1015;
0153833440999992012110418004-14950-040883FM-15+0914SBQV V0202701N004110240019N0080001N1+02301+02101999999ADDGA1021+004801999GA2081+024001999GF108991999999999999999999MA1101491999999MW1611REMMET062METAR SBQV 041800Z 27008KT 8000 -RA FEW016 OVC080 23/21 Q1015;
0143833440999992012110419004-14950-040883FM-15+0914SBQV V0202901N002110240019N0112651N1+02301+02101999999ADDGA1021+004801999GA2071+024001999GF107991999999999999999999MA1101391999999REMMET058METAR SBQV 041900Z 29004KT 9999 FEW016 BKN080 23/21 Q1014;
0143833440999992012110420004-14950-040883FM-15+0914SBQV V0202501N002610240019N0112651N1+02301+02001999999ADDGA1021+004801999GA2071+024001999GF107991999999999999999999MA1101391999999REMMET058METAR SBQV 042000Z 25005KT 9999 FEW016 BKN080 23/20 Q1014;
0072833440999992012110421004-14950-040883FM-15+0914SBQV V0202701N001519999999Y0099001N1+02301+02001999999ADDMA1101391999999REMMET045METAR SBQV 042100Z 27003KT CAVOK 23/20 Q1014;
0072833440999992012110422004-14950-040883FM-15+0914SBQV V0202701N002119999999Y0099001N1+02301+01801999999ADDMA1101491999999REMMET045METAR SBQV 042200Z 27004KT CAVOK 23/18 Q1015;
0072833440999992012110423004-14950-040883FM-15+0914SBQV V0202701N001519999999Y0099001N1+02201+01801999999ADDMA1101591999999REMMET045METAR SBQV 042300Z 27003KT CAVOK 22/18 Q1016;
0072833440999992012110500004-14950-040883FM-15+0914SBQV V0202601N001019999999Y0099001N1+02201+01901999999ADDMA1101591999999REMMET045METAR SBQV 050000Z 26002KT CAVOK 22/19 Q1016;
0072833440999992012110501004-14950-040883FM-15+0914SBQV V0203601N000519999999Y0099001N1+02201+01901999999ADDMA1101691999999REMMET045METAR SBQV 050100Z 36001KT CAVOK 22/19 Q1017;
0143833440999992012110508004-14950-040883FM-15+0914SBQV V0203501N002110210019N0112651N1+02001+02001999999ADDGA1021+001501999GA2081+021001999GF108991999999999999999999MA1101491999999REMMET058METAR SBQV 050800Z 35004KT 9999 FEW005 OVC070 20/20 Q1015;
0072833440999992012110509004-14950-040883FM-15+0914SBQV V0200201N000519999999Y0099001N1+02001+02001999999ADDMA1101491999999REMMET045METAR SBQV 050900Z 02001KT CAVOK 20/20 Q1015;
0072833440999992012110510004-14950-040883FM-15+0914SBQV V0200101N004619999999Y0099001N1+02101+02101999999ADDMA1101591999999REMMET045METAR SBQV 051000Z 01009KT CAVOK 21/21 Q1016;
0143833440999992012110511004-14950-040883FM-15+0914SBQV V0203001N002610210019N0112651N1+02101+02001999999ADDGA1021+002101999GA2081+021001999GF108991999999999999999999MA1101691999999REMMET058METAR SBQV 051100Z 30005KT 9999 FEW007 OVC070 21/20 Q1017;
0143833440999992012110512004-14950-040883FM-15+0914SBQV V0203001N003110210019N0112651N1+02201+02001999999ADDGA1021+004501999GA2081+021001999GF108991999999999999999999MA1101691999999REMMET058METAR SBQV 051200Z 30006KT 9999 FEW015 OVC070 22/20 Q1017;
0143833440999992012110513004-14950-040883FM-15+0914SBQV V0202901N003110210019N0112651N1+02401+02001999999ADDGA1021+004801999GA2071+021001999GF107991999999999999999999MA1101691999999REMMET058METAR SBQV 051300Z 29006KT 9999 FEW016 BKN070 24/20 Q1017;
0143833440999992012110514004-14950-040883FM-15+0914SBQV V0203001N004110240019N0112651N1+02601+02001999999ADDGA1021+005401999GA2071+024001999GF107991999999999999999999MA1101691999999REMMET058METAR SBQV 051400Z 30008KT 9999 FEW018 BKN080 26/20 Q1017;
0143833440999992012110515004-14950-040883FM-15+0914SBQV V0202901N005110240019N0112651N1+02701+02001999999ADDGA1041+005401999GA2071+024001999GF107991999999999999999999MA1101591999999REMMET058METAR SBQV 051500Z 29010KT 9999 SCT018 BKN080 27/20 Q1016;
0169833440999992012110516004-14950-040883FM-15+0914SBQV V0203201N004112200019N0112651N1+02701+02001999999ADDGA1021+005401999GA2021+006001021GA3041+024001999GF104991999999999999999999MA1101391999999REMMET068METAR SBQV 051600Z 32008KT 9999 FEW018 FEW020TCU SCT080 27/20 Q1014;
0169833440999992012110517004-14950-040883FM-15+0914SBQV V0202901N001012200019N0112651N1+02601+02201999999ADDGA1021+005401999GA2021+006001021GA3041+024001999GF104991999999999999999999MA1101291999999REMMET068METAR SBQV 051700Z 29002KT 9999 FEW018 FEW020TCU SCT080 26/22 Q1013;
0169833440999992012110518004-14950-040883FM-15+0914SBQV V0203201N002112200019N0112651N1+02801+02001999999ADDGA1021+006001999GA2021+007501021GA3041+024001999GF104991999999999999999999MA1101291999999REMMET068METAR SBQV 051800Z 32004KT 9999 FEW020 FEW025TCU SCT080 28/20 Q1013;
0186833440999992012110519004-14950-040883FM-15+0914SBQV V0202901N003612200019N0112651N1+02801+01901999999ADDGA1021+006001999GA2021+007501021GA3041+024001999GF104991999999999999999999MA1101191999999MW1611REMMET079METAR SBQV 051900Z 29007KT 9999 4000N -RA FEW020 FEW025TCU SCT080 28/ 19 Q1012;
0169833440999992012110520004-14950-040883FM-15+0914SBQV V0203301N002612200019N0112651N1+02601+02101999999ADDGA1021+005401999GA2021+006001021GA3041+021001999GF104991999999999999999999MA1101291999999REMMET068METAR SBQV 052000Z 33005KT 9999 FEW018 FEW020TCU SCT070 26/21 Q1013;
0169833440999992012110521004-14950-040883FM-15+0914SBQV V0203501N003612200019N0112651N1+02401+02001999999ADDGA1021+004801999GA2021+005401021GA3041+021001999GF104991999999999999999999MA1101291999999REMMET068METAR SBQV 052100Z 35007KT 9999 FEW016 FEW018TCU SCT070 24/20 Q1013;
0179833440999992012110522004-14950-040883FM-15+0914SBQV V0200201N002612200019N0112651N1+02401+02001999999ADDGA1041+003301999GA2021+004801091GA3041+021001999GF104991999999999999999999MA1101291999999MW1171REMMET072METAR SBQV 052200Z 02005KT 9999 VCTS SCT011 FEW016CB SCT070 24/20 Q1013;
0175833440999992012110523004-14950-040883FM-15+0914SBQV V0202101N005112200019N0050001N1+02201+02101999999ADDGA1041+002701999GA2021+004801091GA3041+021001999GF104991999999999999999999MW1611OC101081REMMET075METAR SBQV 052300Z 21010G21KT 5000 -RA SCT009 FEW016CB SCT070 22/21 Q 1015;
0184833440999992012110600004-14950-040883FM-15+0914SBQV V0200901N003112200019N0112651N1+02101+02101999999ADDGA1041+001801999GA2021+004801091GA3041+021001999GF104991999999999999999999MA1101491999999MW1171REMMET077METAR SBQV 060000Z 09006KT 9999 VCTS SCT006 FEW016CB SCT070 21/21 Q1015 RETS;
0186833440999992012110601004-14950-040883FM-15+0914SBQV V0200501N003112200019N0112651N1+02101+02101999999ADDGA1041+001501999GA2021+004801091GA3041+021001999GF104991999999999999999999MA1101591999999MW1801MW2951REMMET073METAR SBQV 060100Z 05006KT 9999 -TSRA SCT005 FEW016CB SCT070 21/21 Q1016;
0187833440999992012110607004-14950-040883FM-15+0914SBQV V0201301N002112200019N0070001N1+02001+02001999999ADDGA1041+001801999GA2021+004801091GA3041+021001999GF104991999999999999999999MA1101401999999MW1801MW2951REMMET074METAR SBQV 060700Z 13004KT 7000 -TSRA SCT006 FEW016CB SCT070 20/20 Q1 014;
0180833440999992012110608004-14950-040883FM-15+0914SBQV V0201401N00211003901CN0080001N1+02001+02001999999ADDGA1041+001801999GA2071+003901999GA3021+004801091MA1101501999999MW1801MW2951REMMET074METAR SBQV 060800Z 14004KT 8000 -TSRA SCT006 BKN013 FEW016CB 20/20 Q1 015;EQDQ01+000022SCOTCV
0164833440999992012110609004-14950-040883FM-15+0914SBQV V0201101N00211001801CN0020001N1+02001+02001999999ADDGA1071+001801999GA2071+003901999GA3021+004801091MW1811MW2951REMMET073METAR SBQV 060900Z 11004KT 2000 TSRA BKN006 BKN013 FEW016CB 20/20 Q10 16;EQDQ01+000022SCOTCV
0215833440999992012110610004-14950-040883FM-15+0914SBQV V0200601N00151003301CN0112651N1+99999+99999999999ADDGA1021+001801999GA2041+003301999GA3021+004501091GA4071+021001999GF107991999999999999999999MA1101701999999MW1801MW2951REMMET086METAR SBQV 061000Z 06003KT 9999 -TSRA FEW006 SCT011 FEW015CB BKN070 2 0/20 Q1017 RERA;
0158833440999992012110611004-14950-040883FM-15+0914SBQV V0203401N000510210019N0112651N1+01901+01901999999ADDGA1021+003001999GA2081+021001999GF108991999999999999999999MA1101691999999MW1611REMMET067METAR SBQV 061100Z 34001KT 9999 -RA FEW010 OVC070 19/19 Q1017 RETS;
0143833440999992012110612004-14950-040883FM-15+0914SBQV V0203001N000510210019N0112651N1+02001+02001999999ADDGA1021+004501999GA2071+021001999GF107991999999999999999999MA1101801999999REMMET058METAR SBQV 061200Z 30001KT 9999 FEW015 BKN070 20/20 Q1018;
0143833440999992012110613004-14950-040883FM-15+0914SBQV V0202701N001010210019N0112651N1+02001+02001999999ADDGA1021+004501999GA2071+021001999GF107991999999999999999999MA1101801999999REMMET058METAR SBQV 061300Z 27002KT 9999 FEW015 BKN070 20/20 Q1018;
0153833440999992012110614004-14950-040883FM-15+0914SBQV V0203301N000510210019N0112651N1+02101+02101999999ADDGA1041+004501999GA2081+021001999GF108991999999999999999999MA1101691999999MW1611REMMET062METAR SBQV 061400Z 33001KT 9999 -RA SCT015 OVC070 21/21 Q1017;
0143833440999992012110615004-14950-040883FM-15+0914SBQV V0201601N001010210019N0112651N1+02301+02101999999ADDGA1041+004501999GA2071+021001999GF107991999999999999999999MA1101591999999REMMET058METAR SBQV 061500Z 16002KT 9999 SCT015 BKN070 23/21 Q1016;
0143833440999992012110616004-14950-040883FM-15+0914SBQV V0201901N001512200019N0112651N1+02501+02001999999ADDGA1041+004801999GA2041+021001999GF104991999999999999999999MA1101491999999REMMET058METAR SBQV 061600Z 19003KT 9999 SCT016 SCT070 25/20 Q1015;
0136833440999992012110617004-14950-040883FM-15+0914SBQV V0202301N00101005401CN0112651N1+02501+02101999999ADDGA1071+005401999GA2041+024001999MA1101491999999REMMET058METAR SBQV 061700Z 23002KT 9999 BKN018 SCT080 25/21 Q1015;EQDQ01+000042SCOTCV
0136833440999992012110618004-14950-040883FM-15+0914SBQV V0202501N00151005401CN0112651N1+02501+02001999999ADDGA1071+005401999GA2041+024001999MA1101491999999REMMET058METAR SBQV 061800Z 25003KT 9999 BKN018 SCT080 25/20 Q1015;EQDQ01+000042SCOTCV
0143833440999992012110619004-14950-040883FM-15+0914SBQV V0200201N002612200019N0112651N1+02401+02101999999ADDGA1041+003301999GA2041+004501999GF104991999999999999999999MA1101491999999REMMET058METAR SBQV 061900Z 02005KT 9999 SCT011 SCT015 24/21 Q1015;
0165833440999992012110620004-14950-040883FM-15+0914SBQV V0200401N004110240019N0112651N1+02001+02001999999ADDGA1021+001501999GA2081+024001999GF108991999999999999999999MA1101491999999MW1611REMMET074METAR SBQV 062000Z 04008KT 9999 3000SE -RA FEW005 OVC080 20/20 Q1015 RERA;
0166833440999992012110621004-14950-040883FM-15+0914SBQV V0200901N00211004501CN0112651N1+02001+02001999999ADDGA1021+001501999GA2041+004501999GA3081+024001999GF108991999999999999999999MA1101591999999REMMET065METAR SBQV 062100Z 09004KT 9999 FEW005 SCT015 OVC080 20/20 Q1016;
0143833440999992012110622004-14950-040883FM-15+0914SBQV V0201101N001010240019N0112651N1+02101+02101999999ADDGA1041+002101999GA2081+024001999GF108991999999999999999999MA1101591999999REMMET058METAR SBQV 062200Z 11002KT 9999 SCT007 OVC080 21/21 Q1016;
0143833440999992012110623004-14950-040883FM-15+0914SBQV V0201101N002110240019N0112651N1+02001+02001999999ADDGA1021+001501999GA2081+024001999GF108991999999999999999999MA1101691999999REMMET058METAR SBQV 062300Z 11004KT 9999 FEW005 OVC080 20/20 Q1017;
0143833440999992012110700004-14950-040883FM-15+0914SBQV V0200801N002610240019N0112651N1+02001+02001999999ADDGA1021+002101999GA2081+024001999GF108991999999999999999999MA1101691999999REMMET058METAR SBQV 070000Z 08005KT 9999 FEW007 OVC080 20/20 Q1017;
0143833440999992012110701004-14950-040883FM-15+0914SBQV V0200701N002610240019N0112651N1+02001+02001999999ADDGA1021+002101999GA2081+024001999GF108991999999999999999999MA1101801999999REMMET058METAR SBQV 070100Z 07005KT 9999 FEW007 OVC080 20/20 Q1018;
0120833440999992012110708004-14950-040883FM-15+0914SBQV V0201001N001510018019N0112651N1+02001+02001999999ADDGA1071+001801999GF107991999999999999999999MA1101691999999REMMET051METAR SBQV 070800Z 10003KT 9999 BKN006 20/20 Q1017;
0120833440999992012110709004-14950-040883FM-15+0914SBQV V0201301N002610018019N0112651N1+02001+02001999999ADDGA1071+001801999GF107991999999999999999999MA1101691999999REMMET051METAR SBQV 070900Z 13005KT 9999 BKN006 20/20 Q1017;
0136833440999992012110710004-14950-040883FM-15+0914SBQV V0201201N00311002701CN0112651N1+02001+02001999999ADDGA1071+002701999GA2041+021001999MA1101801999999REMMET058METAR SBQV 071000Z 12006KT 9999 BKN009 SCT070 20/20 Q1018;EQDQ01+000042SCOTCV
0143833440999992012110711004-14950-040883FM-15+0914SBQV V0201301N003612200019N0112651N1+02201+02101999999ADDGA1041+003301999GA2041+021001999GF104991999999999999999999MA1101801999999REMMET058METAR SBQV 071100Z 13007KT 9999 SCT011 SCT070 22/21 Q1018;
0143833440999992012110712004-14950-040883FM-15+0914SBQV V0201301N003112200019N0112651N1+02201+02101999999ADDGA1041+003901999GA2041+021001999GF104991999999999999999999MA1101801999999REMMET058METAR SBQV 071200Z 13006KT 9999 SCT013 SCT070 22/21 Q1018;
0143833440999992012110713004-14950-040883FM-15+0914SBQV V0201201N003112200019N0112651N1+02501+02101999999ADDGA1041+004501999GA2041+021001999GF104991999999999999999999MA1101801999999REMMET058METAR SBQV 071300Z 12006KT 9999 SCT015 SCT070 25/21 Q1018;
0169833440999992012110714004-14950-040883FM-15+0914SBQV V0201501N00461004801CN0112651N1+02401+02101999999ADDGA1021+004501021GA2041+004801999GA3071+024001999GF107991999999999999999999MA1101801999999REMMET068METAR SBQV 071400Z 15009KT 9999 FEW015TCU SCT016 BKN080 24/21 Q1018;
0188833440999992012110715004-14950-040883FM-15+0914SBQV V0200301N00261004801CN0030001N1+02201+02101999999ADDGA1021+004501021GA2041+004801999GA3071+024001999GF107991999999999999999999MA1101691999999MW1101MW2611REMMET075METAR SBQV 071500Z 03005KT 3000 -RA BR FEW015TCU SCT016 BKN080 22/21 Q1017;
0161833440999992012110716004-14950-040883FM-15+0914SBQV V0201801N002110210019N0090001N1+02201+02201999999ADDGA1021+003901021GA2071+021001999GF107991999999999999999999MA1101691999999MW1611REMMET070METAR SBQV 071600Z 18004KT 9000 -RA FEW013TCU BKN070 22/22 Q1017 RERA;
0146833440999992012110717004-14950-040883FM-15+0914SBQV V0201201N003110240019N0112651N1+02301+02201999999ADDGA1021+004501021GA2071+024001999GF107991999999999999999999MA1101591999999REMMET061METAR SBQV 071700Z 12006KT 9999 FEW015TCU BKN080 23/22 Q1016;
0169833440999992012110718004-14950-040883FM-15+0914SBQV V0201101N00361004801CN0112651N1+02401+02201999999ADDGA1021+004501021GA2041+004801999GA3071+024001999GF107991999999999999999999MA1101491999999REMMET068METAR SBQV 071800Z 11007KT 9999 FEW015TCU SCT016 BKN080 24/22 Q1015;
0143833440999992012110719004-14950-040883FM-15+0914SBQV V0200901N003610240019N0112651N1+02401+02101999999ADDGA1021+004501999GA2071+024001999GF107991999999999999999999MA1101491999999REMMET058METAR SBQV 071900Z 09007KT 9999 FEW015 BKN080 24/21 Q1015;
0143833440999992012110720004-14950-040883FM-15+0914SBQV V0200801N003110240019N0112651N1+02301+02101999999ADDGA1021+004501999GA2071+024001999GF107991999999999999999999MA1101591999999REMMET058METAR SBQV 072000Z 08006KT 9999 FEW015 BKN080 23/21 Q1016;
0072833440999992012110721004-14950-040883FM-15+0914SBQV V0200801N003619999999Y0099001N1+02301+02101999999ADDMA1101591999999REMMET045METAR SBQV 072100Z 08007KT CAVOK 23/21 Q1016;
0072833440999992012110722004-14950-040883FM-15+0914SBQV V0201001N003619999999Y0099001N1+02201+02001999999ADDMA1101591999999REMMET045METAR SBQV 072200Z 10007KT CAVOK 22/20 Q1016;
0072833440999992012110723004-14950-040883FM-15+0914SBQV V0201101N003619999999Y0099001N1+02201+02001999999ADDMA1101691999999REMMET045METAR SBQV 072300Z 11007KT CAVOK 22/20 Q1017;
0070833440999992012110800004-14950-040883FM-15+0914SBQV V0201301N010019999999Y0099001N1+02101+02101999999ADDMA1101801999999REMMET043METAR SBQV 080000Z 13010 CAVOK 21/21 Q1018;
0143833440999992012110801004-14950-040883FM-15+0914SBQV V0201001N003612200019N0112651N1+02001+02001999999ADDGA1041+003301999GA2041+021001999GF104991999999999999999999MA1101801999999REMMET058METAR SBQV 080100Z 10007KT 9999 SCT011 SCT070 20/20 Q1018;
0130833440999992012110808004-14950-040883FM-15+0914SBQV V0200601N001510015019N0030001N1+02001+02001999999ADDGA1071+001501999GF107991999999999999999999MA1101591999999MW1511REMMET055METAR SBQV 080800Z 06003KT 3000 -DZ BKN005 20/20 Q1016;
0130833440999992012110809004-14950-040883FM-15+0914SBQV V0200401N003610015019N0050001N1+02001+02001999999ADDGA1071+001501999GF107991999999999999999999MA1101691999999MW1511REMMET055METAR SBQV 080900Z 04007KT 5000 -DZ BKN005 20/20 Q1017;
0146833440999992012110810004-14950-040883FM-15+0914SBQV V0200501N00361001501CN0090001N1+01901+01901999999ADDGA1071+001501999GA2041+024001999MA1101691999999MW1611REMMET062METAR SBQV 081000Z 05007KT 9000 -RA BKN005 SCT080 19/19 Q1017;EQDQ01+000042SCOTCV
0143833440999992012110811004-14950-040883FM-15+0914SBQV V0200601N003110240019N0112651N1+02001+02001999999ADDGA1041+002101999GA2071+024001999GF107991999999999999999999MA1101801999999REMMET058METAR SBQV 081100Z 06006KT 9999 SCT007 BKN080 20/20 Q1018;
0143833440999992012110812004-14950-040883FM-15+0914SBQV V0200201N005712200019N0112651N1+02201+01901999999ADDGA1041+003901999GA2041+027001999GF104991999999999999999999MA1101801999999REMMET058METAR SBQV 081200Z 02011KT 9999 SCT013 SCT090 22/19 Q1018;
0143833440999992012110814004-14950-040883FM-15+0914SBQV V0200401N004110048019N0112651N1+02201+01901999999ADDGA1071+004801999GA2071+027001999GF107991999999999999999999MA1101801999999REMMET058METAR SBQV 081400Z 04008KT 9999 BKN016 BKN090 22/19 Q1018;
0143833440999992012110815004-14950-040883FM-15+0914SBQV V0200501N003610270019N0112651N1+02201+01901999999ADDGA1041+005401999GA2071+027001999GF107991999999999999999999MA1101691999999REMMET058METAR SBQV 081500Z 05007KT 9999 SCT018 BKN090 22/19 Q1017;
0143833440999992012110816004-14950-040883FM-15+0914SBQV V0200501N003610270019N0112651N1+02301+01901999999ADDGA1041+006001999GA2071+027001999GF107991999999999999999999MA1101591999999REMMET058METAR SBQV 081600Z 05007KT 9999 SCT020 BKN090 23/19 Q1016;
0143833440999992012110817004-14950-040883FM-15+0914SBQV V0200901N004110210019N0112651N1+02301+01901999999ADDGA1041+006001999GA2081+021001999GF108991999999999999999999MA1101491999999REMMET058METAR SBQV 081700Z 09008KT 9999 SCT020 OVC070 23/19 Q1015;
0143833440999992012110818004-14950-040883FM-15+0914SBQV V0200801N005110240019N0112651N1+02401+01901999999ADDGA1041+006001999GA2071+024001999GF107991999999999999999999MA1101391999999REMMET058METAR SBQV 081800Z 08010KT 9999 SCT020 BKN080 24/19 Q1014;
0143833440999992012110819004-14950-040883FM-15+0914SBQV V0200701N004110210019N0112651N1+02301+01901999999ADDGA1041+006001999GA2071+021001999GF107991999999999999999999MA1101391999999REMMET058METAR SBQV 081900Z 07008KT 9999 SCT020 BKN070 23/19 Q1014;
0143833440999992012110820004-14950-040883FM-15+0914SBQV V0200901N004110240019N0112651N1+02301+01901999999ADDGA1021+006001999GA2071+024001999GF107991999999999999999999MA1101391999999REMMET058METAR SBQV 082000Z 09008KT 9999 FEW020 BKN080 23/19 Q1014;
0072833440999992012110821004-14950-040883FM-15+0914SBQV V0201001N004119999999Y0099001N1+02201+01901999999ADDMA1101491999999REMMET045METAR SBQV 082100Z 10008KT CAVOK 22/19 Q1015;
0143833440999992012110822004-14950-040883FM-15+0914SBQV V0200901N004612200019N0112651N1+02101+01901999999ADDGA1041+004501999GA2041+021001999GF104991999999999999999999MA1101591999999REMMET058METAR SBQV 082200Z 09009KT 9999 SCT015 SCT070 21/19 Q1016;
0120833440999992012110823004-14950-040883FM-15+0914SBQV V0200701N005710033019N0112651N1+02001+01901999999ADDGA1071+003301999GF107991999999999999999999MA1101591999999REMMET051METAR SBQV 082300Z 07011KT 9999 BKN011 20/19 Q1016;
0120833440999992012110900004-14950-040883FM-15+0914SBQV V0200801N004112200019N0112651N1+02001+01901999999ADDGA1021+003301999GF102991999999999999999999MA1101691999999REMMET051METAR SBQV 090000Z 08008KT 9999 FEW011 20/19 Q1017;
0120833440999992012110901004-14950-040883FM-15+0914SBQV V0200901N004612200019N0112651N1+02001+01801999999ADDGA1021+003301999GF102991999999999999999999MA1101691999999REMMET051METAR SBQV 090100Z 09009KT 9999 FEW011 20/18 Q1017;
0072833440999992012110908004-14950-040883FM-15+0914SBQV V0200801N004619999999Y0099001N1+01901+01701999999ADDMA1101591999999REMMET045METAR SBQV 090800Z 08009KT CAVOK 19/17 Q1016;
0072833440999992012110909004-14950-040883FM-15+0914SBQV V0200901N004619999999Y0099001N1+01901+01801999999ADDMA1101691999999REMMET045METAR SBQV 090900Z 09009KT CAVOK 19/18 Q1017;
0143833440999992012110910004-14950-040883FM-15+0914SBQV V0200601N005110210019N0112651N1+02001+01801999999ADDGA1021+003001999GA2071+021001999GF107991999999999999999999MA1101691999999REMMET058METAR SBQV 091000Z 06010KT 9999 FEW010 BKN070 20/18 Q1017;
0143833440999992012110911004-14950-040883FM-15+0914SBQV V0200501N005110240019N0112651N1+02101+01701999999ADDGA1021+004501999GA2081+024001999GF108991999999999999999999MA1101801999999REMMET058METAR SBQV 091100Z 05010KT 9999 FEW015 OVC080 21/17 Q1018;
0143833440999992012110912004-14950-040883FM-15+0914SBQV V0200501N005110048019N0112651N1+02201+01801999999ADDGA1071+004801999GA2071+024001999GF107991999999999999999999MA1101801999999REMMET058METAR SBQV 091200Z 05010KT 9999 BKN016 BKN080 22/18 Q1018;
0143833440999992012110913004-14950-040883FM-15+0914SBQV V0200501N004110054019N0112651N1+02201+01801999999ADDGA1071+005401999GA2071+024001999GF107991999999999999999999MA1101801999999REMMET058METAR SBQV 091300Z 05008KT 9999 BKN018 BKN080 22/18 Q1018;
0143833440999992012110914004-14950-040883FM-15+0914SBQV V0200501N004610054019N0112651N1+02301+01801999999ADDGA1071+005401999GA2071+024001999GF107991999999999999999999MA1101801999999REMMET058METAR SBQV 091400Z 05009KT 9999 BKN018 BKN080 23/18 Q1018;
0143833440999992012110915004-14950-040883FM-15+0914SBQV V0201001N004110048019N0112651N1+02201+01801999999ADDGA1071+004801999GA2071+021001999GF107991999999999999999999MA1101691999999REMMET058METAR SBQV 091500Z 10008KT 9999 BKN016 BKN070 22/18 Q1017;
0143833440999992012110916004-14950-040883FM-15+0914SBQV V0200901N003610048019N0112651N1+02401+01701999999ADDGA1071+004801999GA2071+021001999GF107991999999999999999999MA1101591999999REMMET058METAR SBQV 091600Z 09007KT 9999 BKN016 BKN070 24/17 Q1016;
0143833440999992012110917004-14950-040883FM-15+0914SBQV V0200601N002610054019N0112651N1+02401+01701999999ADDGA1071+005401999GA2071+024001999GF107991999999999999999999MA1101491999999REMMET058METAR SBQV 091700Z 06005KT 9999 BKN018 BKN080 24/17 Q1015;
0143833440999992012110918004-14950-040883FM-15+0914SBQV V0201001N004110048019N0112651N1+02301+01901999999ADDGA1071+004801999GA2071+021001999GF107991999999999999999999MA1101491999999REMMET058METAR SBQV 091800Z 10008KT 9999 BKN016 BKN070 23/19 Q1015;
0143833440999992012110919004-14950-040883FM-15+0914SBQV V0201101N005110210019N0112651N1+02201+01901999999ADDGA1041+004501999GA2071+021001999GF107991999999999999999999MA1101491999999REMMET058METAR SBQV 091900Z 11010KT 9999 SCT015 BKN070 22/19 Q1015;
0160833440999992012110920004-14950-040883FM-15+0914SBQV V0201101N003610210019N0112651N1+01901+01901999999ADDGA1041+003901999GA2081+021001999GF108991999999999999999999MA1101591999999MW1611REMMET069METAR SBQV 092000Z 11007KT 9999 4000SE -RA SCT013 OVC070 19/19 Q1016;
0143833440999992012110921004-14950-040883FM-15+0914SBQV V0201101N004610210019N0112651N1+01901+01901999999ADDGA1021+003901999GA2081+021001999GF108991999999999999999999MA1101591999999REMMET058METAR SBQV 092100Z 11009KT 9999 FEW013 OVC070 19/19 Q1016;
0143833440999992012110922004-14950-040883FM-15+0914SBQV V0201101N003110210019N0112651N1+01901+01901999999ADDGA1021+003901999GA2081+021001999GF108991999999999999999999MA1101691999999REMMET058METAR SBQV 092200Z 11006KT 9999 FEW013 OVC070 19/19 Q1017;
0143833440999992012110923004-14950-040883FM-15+0914SBQV V0201001N003610210019N0112651N1+01901+01901999999ADDGA1021+003901999GA2071+021001999GF107991999999999999999999MA1101691999999REMMET058METAR SBQV 092300Z 10007KT 9999 FEW013 BKN070 19/19 Q1017;
0143833440999992012111000004-14950-040883FM-15+0914SBQV V0200901N003610210019N0112651N1+01901+01901999999ADDGA1021+003001999GA2071+021001999GF107991999999999999999999MA1101801999999REMMET058METAR SBQV 100000Z 09007KT 9999 FEW010 BKN070 19/19 Q1018;
0143833440999992012111001004-14950-040883FM-15+0914SBQV V0200901N004110210019N0112651N1+01901+01801999999ADDGA1021+003001999GA2071+021001999GF107991999999999999999999MA1101801999999REMMET058METAR SBQV 100100Z 09008KT 9999 FEW010 BKN070 19/18 Q1018;
0143833440999992012111008004-14950-040883FM-15+0914SBQV V0200701N003110240019N0112651N1+01801+01701999999ADDGA1021+001501999GA2071+024001999GF107991999999999999999999MA1101591999999REMMET058METAR SBQV 100800Z 07006KT 9999 FEW005 BKN080 18/17 Q1016;
0143833440999992012111009004-14950-040883FM-15+0914SBQV V0201001N002610240019N0112651N1+01801+01801999999ADDGA1021+001501999GA2071+024001999GF107991999999999999999999MA1101691999999REMMET058METAR SBQV 100900Z 10005KT 9999 FEW005 BKN080 18/18 Q1017;
0143833440999992012111010004-14950-040883FM-15+0914SBQV V0200701N003610240019N0112651N1+02001+01801999999ADDGA1021+002401999GA2071+024001999GF107991999999999999999999MA1101691999999REMMET058METAR SBQV 101000Z 07007KT 9999 FEW008 BKN080 20/18 Q1017;
0143833440999992012111011004-14950-040883FM-15+0914SBQV V0200701N004110240019N0112651N1+02101+01801999999ADDGA1021+004801999GA2071+024001999GF107991999999999999999999MA1101801999999REMMET058METAR SBQV 101100Z 07008KT 9999 FEW016 BKN080 21/18 Q1018;
0143833440999992012111012004-14950-040883FM-15+0914SBQV V0200901N004110270019N0112651N1+02301+01801999999ADDGA1041+006001999GA2071+027001999GF107991999999999999999999MA1101801999999REMMET058METAR SBQV 101200Z 09008KT 9999 SCT020 BKN090 23/18 Q1018;
0136833440999992012111013004-14950-040883FM-15+0914SBQV V0200701N00311006001CN0112651N1+02301+01901999999ADDGA1071+006001999GA2041+027001999MA1101801999999REMMET058METAR SBQV 101300Z 07006KT 9999 BKN020 SCT090 23/19 Q1018;EQDQ01+000042SCOTCV
0154833440999992012111014004-14950-040883FM-15+0914SBQV V0200901N004610270019N0112651N1+02301+01901999999ADDGA1041+003901999GA2071+027001999GF107991999999999999999999MA1101801999999MW1161REMMET063METAR SBQV 101400Z 09009KT 9999 VCSH SCT013 BKN090 23/19 Q1018;
0153833440999992012111015004-14950-040883FM-15+0914SBQV V0200901N004110240019N0112651N1+02101+02001999999ADDGA1041+003301999GA2081+024001999GF108991999999999999999999MA1101691999999MW1611REMMET062METAR SBQV 101500Z 09008KT 9999 -RA SCT011 OVC080 21/20 Q1017;
0166833440999992012111016004-14950-040883FM-15+0914SBQV V0201001N00261005401CN0112651N1+02201+02101999999ADDGA1021+003901999GA2041+005401999GA3071+024001999GF107991999999999999999999MA1101591999999REMMET065METAR SBQV 101600Z 10005KT 9999 FEW013 SCT018 BKN080 22/21 Q1016;
0166833440999992012111017004-14950-040883FM-15+0914SBQV V0200901N00511005401CN0112651N1+02401+02001999999ADDGA1021+004501999GA2041+005401999GA3071+024001999GF107991999999999999999999MA1101591999999REMMET065METAR SBQV 101700Z 09010KT 9999 FEW015 SCT018 BKN080 24/20 Q1016;
0143833440999992012111018004-14950-040883FM-15+0914SBQV V0201101N004110240019N0112651N1+02401+01901999999ADDGA1041+006001999GA2071+024001999GF107991999999999999999999MA1101491999999REMMET058METAR SBQV 101800Z 11008KT 9999 SCT020 BKN080 24/19 Q1015;
0143833440999992012111019004-14950-040883FM-15+0914SBQV V0201001N002610240019N0112651N1+02301+02101999999ADDGA1021+006001999GA2071+024001999GF107991999999999999999999MA1101491999999REMMET058METAR SBQV 101900Z 10005KT 9999 FEW020 BKN080 23/21 Q1015;
0143833440999992012111020004-14950-040883FM-15+0914SBQV V0201301N003610210019N0112651N1+02101+02001999999ADDGA1021+003301999GA2071+021001999GF107991999999999999999999MA1101491999999REMMET058METAR SBQV 102000Z 13007KT 9999 FEW011 BKN070 21/20 Q1015;
0143833440999992012111021004-14950-040883FM-15+0914SBQV V0201101N003610210019N0112651N1+02101+02001999999ADDGA1041+003301999GA2071+021001999GF107991999999999999999999MA1101591999999REMMET058METAR SBQV 102100Z 11007KT 9999 SCT011 BKN070 21/20 Q1016;
0143833440999992012111022004-14950-040883FM-15+0914SBQV V0201101N004612200019N0112651N1+02101+01901999999ADDGA1041+003001999GA2041+021001999GF104991999999999999999999MA1101691999999REMMET058METAR SBQV 102200Z 11009KT 9999 SCT010 SCT070 21/19 Q1017;
0120833440999992012111023004-14950-040883FM-15+0914SBQV V0200901N004612200019N0112651N1+02001+01901999999ADDGA1041+002701999GF104991999999999999999999MA1101801999999REMMET051METAR SBQV 102300Z 09009KT 9999 SCT009 20/19 Q1018;
0120833440999992012111100004-14950-040883FM-15+0914SBQV V0200801N005112200019N0112651N1+02001+01901999999ADDGA1041+002101999GF104991999999999999999999MA1101801999999REMMET051METAR SBQV 110000Z 08010KT 9999 SCT007 20/19 Q1018;
0120833440999992012111101004-14950-040883FM-15+0914SBQV V0200801N006212200019N0112651N1+01901+01801999999ADDGA1041+001801999GF104991999999999999999999MA1101801999999REMMET051METAR SBQV 110100Z 08012KT 9999 SCT006 19/18 Q1018;
0120833440999992012111108004-14950-040883FM-15+0914SBQV V0200901N004110033019N0112651N1+01801+01701999999ADDGA1071+003301999GF107991999999999999999999MA1101691999999REMMET051METAR SBQV 110800Z 09008KT 9999 BKN011 18/17 Q1017;
0120833440999992012111109004-14950-040883FM-15+0914SBQV V0200801N003610033019N0112651N1+01901+01701999999ADDGA1071+003301999GF107991999999999999999999MA1101801999999REMMET051METAR SBQV 110900Z 08007KT 9999 BKN011 19/17 Q1018;
0120833440999992012111110004-14950-040883FM-15+0914SBQV V0200801N003110033019N0112651N1+01901+01801999999ADDGA1071+003301999GF107991999999999999999999MA1101901999999REMMET051METAR SBQV 111000Z 08006KT 9999 BKN011 19/18 Q1019;
0120833440999992012111111004-14950-040883FM-15+0914SBQV V0200801N003610039019N0112651N1+02001+01801999999ADDGA1071+003901999GF107991999999999999999999MA1101901999999REMMET051METAR SBQV 111100Z 08007KT 9999 BKN013 20/18 Q1019;
0120833440999992012111112004-14950-040883FM-15+0914SBQV V0200501N003610045019N0112651N1+02101+01801999999ADDGA1071+004501999GF107991999999999999999999MA1102001999999REMMET051METAR SBQV 111200Z 05007KT 9999 BKN015 21/18 Q1020;
0120833440999992012111113004-14950-040883FM-15+0914SBQV V0200501N003610048019N0112651N1+02301+01801999999ADDGA1071+004801999GF107991999999999999999999MA1101901999999REMMET051METAR SBQV 111300Z 05007KT 9999 BKN016 23/18 Q1019;
0136833440999992012111114004-14950-040883FM-15+0914SBQV V0201101N00411003001CN0112651N1+02301+01901999999ADDGA1071+003001999GA2041+004501999MA1101901999999REMMET058METAR SBQV 111400Z 11008KT 9999 BKN010 SCT015 23/19 Q1019;EQDQ01+000042SCOTCV
0143833440999992012111115004-14950-040883FM-15+0914SBQV V0201101N001510210019N0112651N1+02301+02101999999ADDGA1041+003001999GA2071+021001999GF107991999999999999999999MA1101801999999REMMET058METAR SBQV 111500Z 11003KT 9999 SCT010 BKN070 23/21 Q1018;
0166833440999992012111116004-14950-040883FM-15+0914SBQV V0200701N00311004501CN0112651N1+02201+02101999999ADDGA1021+003001999GA2041+004501999GA3071+021001999GF107991999999999999999999MA1101691999999REMMET065METAR SBQV 111600Z 07006KT 9999 FEW010 SCT015 BKN070 22/21 Q1017;
0166833440999992012111117004-14950-040883FM-15+0914SBQV V0201601N00361004501CN0112651N1+02201+02101999999ADDGA1041+003301999GA2041+004501999GA3071+021001999GF107991999999999999999999MA1101691999999REMMET065METAR SBQV 111700Z 16007KT 9999 SCT011 SCT015 BKN070 22/21 Q1017;
0166833440999992012111118004-14950-040883FM-15+0914SBQV V0201201N00151004501CN0112651N1+02201+02101999999ADDGA1041+003001999GA2041+004501999GA3071+021001999GF107991999999999999999999MA1101591999999REMMET065METAR SBQV 111800Z 12003KT 9999 SCT010 SCT015 BKN070 22/21 Q1016;
0143833440999992012111119004-14950-040883FM-15+0914SBQV V0201701N002110210019N0112651N1+02101+02101999999ADDGA1041+003001999GA2071+021001999GF107991999999999999999999MA1101591999999REMMET058METAR SBQV 111900Z 17004KT 9999 SCT010 BKN070 21/21 Q1016;
0181833440999992012111120004-14950-040883FM-15+0914SBQV V0201301N00361004501CN0050001N1+02101+02101999999ADDGA1021+002701999GA2041+004501999GA3081+021001999GF108991999999999999999999MA1101591999999MW1611REMMET074METAR SBQV 112000Z 13007KT 5000 -RA FEW009 SCT015 OVC070 21/21 Q1016 RERA;
0143833440999992012111121004-14950-040883FM-15+0914SBQV V0200901N004610210019N0112651N1+02001+02001999999ADDGA1041+002701999GA2071+021001999GF107991999999999999999999MA1101691999999REMMET058METAR SBQV 112100Z 09009KT 9999 SCT009 BKN070 20/20 Q1017;
0143833440999992012111122004-14950-040883FM-15+0914SBQV V0200901N004110210019N0112651N1+02001+02001999999ADDGA1041+001501999GA2071+021001999GF107991999999999999999999MA1101691999999REMMET058METAR SBQV 112200Z 09008KT 9999 SCT005 BKN070 20/20 Q1017;
0143833440999992012111123004-14950-040883FM-15+0914SBQV V0200901N005110210019N0112651N1+02001+02001999999ADDGA1021+002701999GA2071+021001999GF107991999999999999999999MA1101801999999REMMET058METAR SBQV 112300Z 09010KT 9999 FEW009 BKN070 20/20 Q1018;
0143833440999992012111200004-14950-040883FM-15+0914SBQV V0200701N004610018019N0112651N1+02001+02001999999ADDGA1071+001801999GA2071+021001999GF107991999999999999999999MA1101901999999REMMET058METAR SBQV 120000Z 07009KT 9999 BKN006 BKN070 20/20 Q1019;
0143833440999992012111201004-14950-040883FM-15+0914SBQV V0200701N005710210019N0112651N1+01901+01801999999ADDGA1041+001801999GA2071+021001999GF107991999999999999999999MA1101901999999REMMET058METAR SBQV 120100Z 07011KT 9999 SCT006 BKN070 19/18 Q1019;
0143833440999992012111208004-14950-040883FM-15+0914SBQV V0200901N002610210019N0112651N1+01801+01601999999ADDGA1021+002101999GA2071+021001999GF107991999999999999999999MA1101801999999REMMET058METAR SBQV 120800Z 09005KT 9999 FEW007 BKN070 18/16 Q1018;
0143833440999992012111209004-14950-040883FM-15+0914SBQV V0200501N002110210019N0112651N1+01801+01701999999ADDGA1021+003001999GA2071+021001999GF107991999999999999999999MA1101901999999REMMET058METAR SBQV 120900Z 05004KT 9999 FEW010 BKN070 18/17 Q1019;
0143833440999992012111210004-14950-040883FM-15+0914SBQV V0200501N003110210019N0112651N1+02001+01701999999ADDGA1021+003301999GA2071+021001999GF107991999999999999999999MA1102001999999REMMET058METAR SBQV 121000Z 05006KT 9999 FEW011 BKN070 20/17 Q1020;
0143833440999992012111211004-14950-040883FM-15+0914SBQV V0200401N005112200019N0112651N1+02101+01801999999ADDGA1021+003901999GA2041+021001999GF104991999999999999999999MA1102001999999REMMET058METAR SBQV 121100Z 04010KT 9999 FEW013 SCT070 21/18 Q1020;
0143833440999992012111212004-14950-040883FM-15+0914SBQV V0200301N004612200019N0112651N1+02201+01701999999ADDGA1021+004501999GA2041+024001999GF104991999999999999999999MA1102001999999REMMET058METAR SBQV 121200Z 03009KT 9999 FEW015 SCT080 22/17 Q1020;
0143833440999992012111213004-14950-040883FM-15+0914SBQV V0200501N004112200019N0112651N1+02401+01701999999ADDGA1041+004801999GA2041+024001999GF104991999999999999999999MA1102001999999REMMET058METAR SBQV 121300Z 05008KT 9999 SCT016 SCT080 24/17 Q1020;
0143833440999992012111214004-14950-040883FM-15+0914SBQV V0200401N004112200019N0112651N1+02601+01601999999ADDGA1021+006001999GA2041+024001999GF104991999999999999999999MA1101901999999REMMET058METAR SBQV 121400Z 04008KT 9999 FEW020 SCT080 26/16 Q1019;
0120833440999992012111215004-14950-040883FM-15+0914SBQV V0200601N005112200019N0112651N1+02601+01601999999ADDGA1021+006001999GF102991999999999999999999MA1101801999999REMMET051METAR SBQV 121500Z 06010KT 9999 FEW020 26/16 Q1018;
0120833440999992012111216004-14950-040883FM-15+0914SBQV V0200501N004112200019N0112651N1+02701+01501999999ADDGA1021+007501999GF102991999999999999999999MA1101691999999REMMET051METAR SBQV 121600Z 05008KT 9999 FEW025 27/15 Q1017;
0120833440999992012111217004-14950-040883FM-15+0914SBQV V0200701N003110075019N0112651N1+02801+01601999999ADDGA1071+007501999GF107991999999999999999999MA1101691999999REMMET051METAR SBQV 121700Z 07006KT 9999 BKN025 28/16 Q1017;
0143833440999992012111218004-14950-040883FM-15+0914SBQV V0200501N003112200019N0112651N1+02701+01401999999ADDGA1041+007501999GA2041+024001999GF104991999999999999999999MA1101591999999REMMET058METAR SBQV 121800Z 05006KT 9999 SCT025 SCT080 27/14 Q1016;
0120833440999992012111219004-14950-040883FM-15+0914SBQV V0201101N003612200019N0112651N1+02701+01701999999ADDGA1021+007501999GF102991999999999999999999MA1101491999999REMMET051METAR SBQV 121900Z 11007KT 9999 FEW025 27/17 Q1015;
0120833440999992012111220004-14950-040883FM-15+0914SBQV V0200901N004112200019N0112651N1+02701+01601999999ADDGA1021+007501999GF102991999999999999999999MA1101491999999REMMET051METAR SBQV 122000Z 09008KT 9999 FEW025 27/16 Q1015;
0072833440999992012111221004-14950-040883FM-15+0914SBQV V0201001N004619999999Y0099001N1+02501+01701999999ADDMA1101591999999REMMET045METAR SBQV 122100Z 10009KT CAVOK 25/17 Q1016;
0072833440999992012111222004-14950-040883FM-15+0914SBQV V0200901N003619999999Y0099001N1+02301+01701999999ADDMA1101591999999REMMET045METAR SBQV 122200Z 09007KT CAVOK 23/17 Q1016;
0072833440999992012111223004-14950-040883FM-15+0914SBQV V0200701N004619999999Y0099001N1+02201+01901999999ADDMA1101691999999REMMET045METAR SBQV 122300Z 07009KT CAVOK 22/19 Q1017;
0072833440999992012111300004-14950-040883FM-15+0914SBQV V0200801N004119999999Y0099001N1+02101+01901999999ADDMA1101801999999REMMET045METAR SBQV 130000Z 08008KT CAVOK 21/19 Q1018;
0072833440999992012111301004-14950-040883FM-15+0914SBQV V0200601N004619999999Y0099001N1+02001+01901999999ADDMA1101801999999REMMET045METAR SBQV 130100Z 06009KT CAVOK 20/19 Q1018;
0072833440999992012111308004-14950-040883FM-15+0914SBQV V0200101N004619999999Y0099001N1+01901+01701999999ADDMA1101491999999REMMET045METAR SBQV 130800Z 01009KT CAVOK 19/17 Q1015;
0072833440999992012111309004-14950-040883FM-15+0914SBQV V0202501N000519999999Y0099001N1+02001+01801999999ADDMA1101591999999REMMET045METAR SBQV 130900Z 25001KT CAVOK 20/18 Q1016;
0072833440999992012111310004-14950-040883FM-15+0914SBQV V0200401N002119999999Y0099001N1+02101+01801999999ADDMA1101691999999REMMET045METAR SBQV 131000Z 04004KT CAVOK 21/18 Q1017;
0072833440999992012111311004-14950-040883FM-15+0914SBQV V0200101N005719999999Y0099001N1+02301+01901999999ADDMA1101691999999REMMET045METAR SBQV 131100Z 01011KT CAVOK 23/19 Q1017;
0143833440999992012111312004-14950-040883FM-15+0914SBQV V0200101N004110300019N0112651N1+02601+01901999999ADDGA1021+009001999GA2071+030001999GF107991999999999999999999MA1101691999999REMMET058METAR SBQV 131200Z 01008KT 9999 FEW030 BKN100 26/19 Q1017;
0143833440999992012111313004-14950-040883FM-15+0914SBQV V0203301N002110300019N0112651N1+02701+01901999999ADDGA1021+009001999GA2071+030001999GF107991999999999999999999MA1101691999999REMMET058METAR SBQV 131300Z 33004KT 9999 FEW030 BKN100 27/19 Q1017;
0128833440999992012111314004-14950-040883FM-15+0914SBQV V0201601N003612200019N0112651N1+02801+01901999999ADDGA1021+009001999GF102991999999999999999999MA1101691999999REMMET059METAR SBQV 131400Z 16007KT 310V010 9999 FEW030 28/19 Q1017;
0120833440999992012111315004-14950-040883FM-15+0914SBQV V0203601N002612200019N0112651N1+02901+01901999999ADDGA1021+009001999GF102991999999999999999999MA1101591999999REMMET051METAR SBQV 131500Z 36005KT 9999 FEW030 29/19 Q1016;
0120833440999992012111316004-14950-040883FM-15+0914SBQV V0200401N001512200019N0112651N1+02901+01801999999ADDGA1041+009001999GF104991999999999999999999MA1101491999999REMMET051METAR SBQV 131600Z 04003KT 9999 SCT030 29/18 Q1015;
0120833440999992012111317004-14950-040883FM-15+0914SBQV V0203501N002112200019N0112651N1+02901+01801999999ADDGA1021+009001999GF102991999999999999999999MA1101391999999REMMET051METAR SBQV 131700Z 35004KT 9999 FEW030 29/18 Q1014;
0120833440999992012111318004-14950-040883FM-15+0914SBQV V0200101N002612200019N0112651N1+03101+01801999999ADDGA1041+009001999GF104991999999999999999999MA1101191999999REMMET051METAR SBQV 131800Z 01005KT 9999 SCT030 31/18 Q1012;
0120833440999992012111319004-14950-040883FM-15+0914SBQV V0200501N002112200019N0112651N1+02901+01701999999ADDGA1021+009001999GF102991999999999999999999MA1101191999999REMMET051METAR SBQV 131900Z 05004KT 9999 FEW030 29/17 Q1012;
0120833440999992012111320004-14950-040883FM-15+0914SBQV V0200101N003112200019N0112651N1+02901+01801999999ADDGA1021+009001999GF102991999999999999999999MA1101191999999REMMET051METAR SBQV 132000Z 01006KT 9999 FEW030 29/18 Q1012;
0143833440999992012111321004-14950-040883FM-15+0914SBQV V0200301N004112200019N0112651N1+02701+01901999999ADDGA1021+004501999GA2041+021001999GF104991999999999999999999MA1101191999999REMMET058METAR SBQV 132100Z 03008KT 9999 FEW015 SCT070 27/19 Q1012;
0143833440999992012111322004-14950-040883FM-15+0914SBQV V0200501N004612200019N0112651N1+02501+01901999999ADDGA1021+004501999GA2041+024001999GF104991999999999999999999MA1101291999999REMMET058METAR SBQV 132200Z 05009KT 9999 FEW015 SCT080 25/19 Q1013;
0072833440999992012111323004-14950-040883FM-15+0914SBQV V0200701N003119999999Y0099001N1+02401+01901999999ADDMA1101391999999REMMET045METAR SBQV 132300Z 07006KT CAVOK 24/19 Q1014;
0072833440999992012111400004-14950-040883FM-15+0914SBQV V0200501N003119999999Y0099001N1+02301+01901999999ADDMA1101491999999REMMET045METAR SBQV 140000Z 05006KT CAVOK 23/19 Q1015;
0072833440999992012111401004-14950-040883FM-15+0914SBQV V0203201N001519999999Y0099001N1+02301+01901999999ADDMA1101591999999REMMET045METAR SBQV 140100Z 32003KT CAVOK 23/19 Q1016;
0072833440999992012111402004-14950-040883FM-15+0914SBQV V0203301N001019999999Y0099001N1+02301+01901999999ADDMA1101591999999REMMET045METAR SBQV 140200Z 33002KT CAVOK 23/19 Q1016;
0072833440999992012111403004-14950-040883FM-15+0914SBQV V0200201N000519999999Y0099001N1+02201+02001999999ADDMA1101491999999REMMET045METAR SBQV 140300Z 02001KT CAVOK 22/20 Q1015;
0128833440999992012111408004-14950-040883FM-15+0914SBQV V0201001N003112200019N0112651N1+02101+02001999999ADDGA1041+001501999GF104991999999999999999999MA1101401999999REMMET059METAR SBQV 140800Z 10006KT 9999 SCT005 BKNN070 21/20 Q1014;
0143833440999992012111409004-14950-040883FM-15+0914SBQV V0201201N002610210019N0112651N1+02001+02001999999ADDGA1041+001501999GA2081+021001999GF108991999999999999999999MA1101491999999REMMET058METAR SBQV 140900Z 12005KT 9999 SCT005 OVC070 20/20 Q1015;
0143833440999992012111410004-14950-040883FM-15+0914SBQV V0201001N002610210019N0112651N1+02101+02001999999ADDGA1041+003001999GA2081+021001999GF108991999999999999999999MA1101591999999REMMET058METAR SBQV 141000Z 10005KT 9999 SCT010 OVC070 21/20 Q1016;
0143833440999992012111411004-14950-040883FM-15+0914SBQV V0201101N002610210019N0112651N1+02101+02001999999ADDGA1041+003301999GA2081+021001999GF108991999999999999999999MA1101691999999REMMET058METAR SBQV 141100Z 11005KT 9999 SCT011 OVC070 21/20 Q1017;
0143833440999992012111412004-14950-040883FM-15+0914SBQV V0201201N002110210019N0112651N1+02201+02001999999ADDGA1041+003001999GA2081+021001999GF108991999999999999999999MA1101691999999REMMET058METAR SBQV 141200Z 12004KT 9999 SCT010 OVC070 22/20 Q1017;
0152833440999992012111413004-14950-040883FM-15+0914SBQV V0200901N003110027019N0060001N1+02201+02001999999ADDGA1071+002701999GA2081+021001999GF108991999999999999999999MA1101801999999MW1631REMMET061METAR SBQV 141300Z 09006KT 6000 RA BKN009 OVC070 22/20 Q1018;
0158833440999992012111414004-14950-040883FM-15+0914SBQV V0201601N002110027019N0010001N1+02001+02001999999ADDGA1071+002701999GA2081+021001999GF108991999999999999999999MA1101801999999MW1651REMMET067METAR SBQV 141400Z 16004KT 1000 +RA BKN009 OVC070 20/20 Q1018 RERA;
0157833440999992012111415004-14950-040883FM-15+0914SBQV V0200701N001510027019N0010001N1+02001+02001999999ADDGA1071+002701999GA2081+021001999GF108991999999999999999999MA1101801999999MW1631REMMET066METAR SBQV 141500Z 07003KT 1000 RA BKN009 OVC070 20/20 Q1018 RERA;
0143833440999992012111416004-14950-040883FM-15+0914SBQV V0200701N001010210019N0112651N1+02001+02001999999ADDGA1021+002701999GA2081+021001999GF108991999999999999999999MA1101691999999REMMET058METAR SBQV 141600Z 07002KT 9999 FEW009 OVC070 20/20 Q1017;
0143833440999992012111418004-14950-040883FM-15+0914SBQV V0200101N001510210019N0112651N1+02101+02101999999ADDGA1041+004501999GA2081+021001999GF108991999999999999999999MA1101491999999REMMET058METAR SBQV 141800Z 01003KT 9999 SCT015 OVC070 21/21 Q1015;
0166833440999992012111419004-14950-040883FM-15+0914SBQV V0203601N002110045019N0112651N1+02201+02101999999ADDGA1041+003001999GA2071+004501999GA3081+021001999GF108991999999999999999999MA1101491999999REMMET065METAR SBQV 141900Z 36004KT 9999 SCT010 BKN015 OVC070 22/21 Q1015;
0143833440999992012111420004-14950-040883FM-15+0914SBQV V0200301N002110210019N0112651N1+02201+02101999999ADDGA1041+003001999GA2081+021001999GF108991999999999999999999MA1101391999999REMMET058METAR SBQV 142000Z 03004KT 9999 SCT010 OVC070 22/21 Q1014;
0143833440999992012111421004-14950-040883FM-15+0914SBQV V0200401N001010210019N0112651N1+02201+02001999999ADDGA1021+004501999GA2081+021001999GF108991999999999999999999MA1101491999999REMMET058METAR SBQV 142100Z 04002KT 9999 FEW015 OVC070 22/20 Q1015;
0143833440999992012111422004-14950-040883FM-15+0914SBQV V0200101N001010210019N0112651N1+02101+02101999999ADDGA1021+003901999GA2071+021001999GF107991999999999999999999MA1101491999999REMMET058METAR SBQV 142200Z 01002KT 9999 FEW013 BKN070 21/21 Q1015;
0143833440999992012111423004-14950-040883FM-15+0914SBQV V0200501N001010210019N0112651N1+02101+02101999999ADDGA1021+003301999GA2071+021001999GF107991999999999999999999MA1101591999999REMMET058METAR SBQV 142300Z 05002KT 9999 FEW011 BKN070 21/21 Q1016;
0143833440999992012111500004-14950-040883FM-15+0914SBQV V0201101N001010210019N0112651N1+02101+02101999999ADDGA1041+003001999GA2071+021001999GF107991999999999999999999MA1101691999999REMMET058METAR SBQV 150000Z 11002KT 9999 SCT010 BKN070 21/21 Q1017;
0153833440999992012111501004-14950-040883FM-15+0914SBQV V0201101N00211001801CN0112651N1+02101+02101999999ADDGA1071+001801999GA2041+021001999MA1101691999999MW1511REMMET069METAR SBQV 150100Z 11004KT 9999 2000SE -DZ BKN006 SCT070 21/21 Q1017;EQDQ01+000042SCOTCV
0143833440999992012111502004-14950-040883FM-15+0914SBQV V0200701N002612200019N0112651N1+02001+02001999999ADDGA1021+001501999GA2041+021001999GF104991999999999999999999MA1101691999999REMMET058METAR SBQV 150200Z 07005KT 9999 FEW005 SCT070 20/20 Q1017;
0143833440999992012111508004-14950-040883FM-15+0914SBQV V0200801N001512200019N0112651N1+01901+01901999999ADDGA1021+001501999GA2041+021001999GF104991999999999999999999MA1101491999999REMMET058METAR SBQV 150800Z 08003KT 9999 FEW005 SCT070 19/19 Q1015;
0143833440999992012111509004-14950-040883FM-15+0914SBQV V0200801N002610210019N0112651N1+02001+02001999999ADDGA1021+002101999GA2071+021001999GF107991999999999999999999MA1101591999999REMMET058METAR SBQV 150900Z 08005KT 9999 FEW007 BKN070 20/20 Q1016;
0143833440999992012111510004-14950-040883FM-15+0914SBQV V0200801N002610210019N0112651N1+02101+02001999999ADDGA1021+002101999GA2071+021001999GF107991999999999999999999MA1101591999999REMMET058METAR SBQV 151000Z 08005KT 9999 FEW007 BKN070 21/20 Q1016;
0143833440999992012111511004-14950-040883FM-15+0914SBQV V0200501N003610210019N0112651N1+02201+02001999999ADDGA1021+002101999GA2071+021001999GF107991999999999999999999MA1101691999999REMMET058METAR SBQV 151100Z 05007KT 9999 FEW007 BKN070 22/20 Q1017;
0143833440999992012111512004-14950-040883FM-15+0914SBQV V0200501N002610210019N0112651N1+02301+02001999999ADDGA1041+004501999GA2071+021001999GF107991999999999999999999MA1101691999999REMMET058METAR SBQV 151200Z 05005KT 9999 SCT015 BKN070 23/20 Q1017;
0143833440999992012111513004-14950-040883FM-15+0914SBQV V0200501N003110054019N0112651N1+02401+02001999999ADDGA1071+005401999GA2071+024001999GF107991999999999999999999MA1101691999999REMMET058METAR SBQV 151300Z 05006KT 9999 BKN018 BKN080 24/20 Q1017;
0143833440999992012111514004-14950-040883FM-15+0914SBQV V0200601N002610054019N0112651N1+02401+02001999999ADDGA1071+005401999GA2071+024001999GF107991999999999999999999MA1101691999999REMMET058METAR SBQV 151400Z 06005KT 9999 BKN018 BKN080 24/20 Q1017;
0136833440999992012111515004-14950-040883FM-15+0914SBQV V0200601N00211005401CN0112651N1+02201+02101999999ADDGA1071+005401999GA2041+024001999MA1101691999999REMMET058METAR SBQV 151500Z 06004KT 9999 BKN018 SCT080 22/21 Q1017;EQDQ01+000042SCOTCV
0136833440999992012111516004-14950-040883FM-15+0914SBQV V0201101N00311005401CN0112651N1+02401+02101999999ADDGA1071+005401999GA2041+024001999MA1101491999999REMMET058METAR SBQV 151600Z 11006KT 9999 BKN018 SCT080 24/21 Q1015;EQDQ01+000042SCOTCV
0143833440999992012111517004-14950-040883FM-15+0914SBQV V0201201N002112200019N0112651N1+02501+02101999999ADDGA1041+006001999GA2041+024001999GF104991999999999999999999MA1101491999999REMMET058METAR SBQV 151700Z 12004KT 9999 SCT020 SCT080 25/21 Q1015;
0169833440999992012111518004-14950-040883FM-15+0914SBQV V0201001N002612200019N0112651N1+02501+02201999999ADDGA1041+006001999GA2021+007501021GA3041+024001999GF104991999999999999999999MA1101391999999REMMET068METAR SBQV 151800Z 10005KT 9999 SCT020 FEW025TCU SCT080 25/22 Q1014;
0162833440999992012111519004-14950-040883FM-15+0914SBQV V0201201N004112200019N0112651N1+02401+02201999999ADDGA1021+004501999GA2041+006001999GA3021+007501021MA1101391999999REMMET068METAR SBQV 151900Z 12008KT 9999 FEW015 SCT020 FEW025TCU 24/22 Q1014;EQDQ01+000022SCOTCV
0162833440999992012111520004-14950-040883FM-15+0914SBQV V0201001N003612200019N0112651N1+02201+02201999999ADDGA1041+003301999GA2041+004801999GA3021+006001021MA1101391999999REMMET068METAR SBQV 152000Z 10007KT 9999 SCT011 SCT016 FEW020TCU 22/22 Q1014;EQDQ01+000022SCOTCV
0187833440999992012111521004-14950-040883FM-15+0914SBQV V0201101N00411005401CN0070001N1+02201+02201999999ADDGA1041+002101999GA2021+005401091GA3071+021001999GF107991999999999999999999MA1101401999999MW1801MW2951REMMET074METAR SBQV 152100Z 11008KT 7000 -TSRA SCT007 FEW018CB BKN070 22/22 Q1 014;
0175833440999992012111522004-14950-040883FM-15+0914SBQV V0202801N00461005401CN0010001N1+02001+02001999999ADDGA1041+001801999GA2021+005401091GA3071+021001999GF107991999999999999999999MW1651OC101031REMMET075METAR SBQV 152200Z 28009G20KT 1000 +RA SCT006 FEW018CB BKN070 20/20 Q 1015;
0191833440999992012111523004-14950-040883FM-15+0914SBQV V0200901N001512200019N0070001N1+01901+01901999999ADDGA1041+001501999GA2021+005401091GA3041+021001999GF104991999999999999999999MA1101591999999MW1801MW2951REMMET078METAR SBQV 152300Z 09003KT 7000 -TSRA SCT005 FEW018CB SCT070 19/19 Q1016 RERA;
0177833440999992012111600004-14950-040883FM-15+0914SBQV V0201001N001012200019N0112651N1+02001+02001999999ADDGA1041+001801999GA2021+005401091GA3041+021001999GF104991999999999999999999MA1101691999999MW1171REMMET070METAR SBQV 160000Z 10002KT 9999 TS SCT006 FEW018CB SCT070 20/20 Q1017;
0148833440999992012111601004-14950-040883FM-15+0914SBQV V0200801N003110210019N0112651N1+02101+02101999999ADDGA1021+001801999GA2071+021001999GF107991999999999999999999MA1101691999999REMMET063METAR SBQV 160100Z 08006KT 9999 FEW006 BKN070 21/21 Q1017 RETS;
0143833440999992012111608004-14950-040883FM-15+0914SBQV V0200601N001010210019N0112651N1+02001+02001999999ADDGA1021+002101999GA2071+021001999GF107991999999999999999999MA1101591999999REMMET058METAR SBQV 160800Z 06002KT 9999 FEW007 BKN070 20/20 Q1016;
0143833440999992012111609004-14950-040883FM-15+0914SBQV V0201501N000510210019N0112651N1+02001+02001999999ADDGA1021+001501999GA2071+021001999GF107991999999999999999999MA1101591999999REMMET058METAR SBQV 160900Z 15001KT 9999 FEW005 BKN070 20/20 Q1016;
0143833440999992012111610004-14950-040883FM-15+0914SBQV V0200301N002610210019N0112651N1+02101+02001999999ADDGA1021+001501999GA2071+021001999GF107991999999999999999999MA1101691999999REMMET058METAR SBQV 161000Z 03005KT 9999 FEW005 BKN070 21/20 Q1017;
0143833440999992012111611004-14950-040883FM-15+0914SBQV V0200301N002110210019N0112651N1+02101+02101999999ADDGA1041+002101999GA2071+021001999GF107991999999999999999999MA1101801999999REMMET058METAR SBQV 161100Z 03004KT 9999 SCT007 BKN070 21/21 Q1018;
0143833440999992012111612004-14950-040883FM-15+0914SBQV V0200301N002610210019N0112651N1+02301+02101999999ADDGA1041+003901999GA2071+021001999GF107991999999999999999999MA1101801999999REMMET058METAR SBQV 161200Z 03005KT 9999 SCT013 BKN070 23/21 Q1018;
0143833440999992012111613004-14950-040883FM-15+0914SBQV V0203601N003110240019N0112651N1+02401+02101999999ADDGA1041+004501999GA2071+024001999GF107991999999999999999999MA1101801999999REMMET058METAR SBQV 161300Z 36006KT 9999 SCT015 BKN080 24/21 Q1018;
0143833440999992012111614004-14950-040883FM-15+0914SBQV V0203301N003110240019N0112651N1+02501+02101999999ADDGA1041+004501999GA2071+024001999GF107991999999999999999999MA1101801999999REMMET058METAR SBQV 161400Z 33006KT 9999 SCT015 BKN080 25/21 Q1018;
0143833440999992012111615004-14950-040883FM-15+0914SBQV V0203301N002610240019N0112651N1+02601+02101999999ADDGA1041+004801999GA2071+024001999GF107991999999999999999999MA1101801999999REMMET058METAR SBQV 161500Z 33005KT 9999 SCT016 BKN080 26/21 Q1018;
0143833440999992012111616004-14950-040883FM-15+0914SBQV V0202901N002610240019N0112651N1+02701+02001999999ADDGA1041+004801999GA2071+024001999GF107991999999999999999999MA1101591999999REMMET058METAR SBQV 161600Z 29005KT 9999 SCT016 BKN080 27/20 Q1016;
0143833440999992012111617004-14950-040883FM-15+0914SBQV V0202701N003110240019N0112651N1+02701+02001999999ADDGA1041+005401999GA2071+024001999GF107991999999999999999999MA1101591999999REMMET058METAR SBQV 161700Z 27006KT 9999 SCT018 BKN080 27/20 Q1016;
0171833440999992012111618004-14950-040883FM-15+0914SBQV V0203601N00411005401CN0050001N1+02501+02101999999ADDGA1041+002401999GA2021+005401091GA3081+021001999GF108991999999999999999999MW1811MW2951REMMET073METAR SBQV 161800Z 36008KT 5000 TSRA SCT008 FEW018CB OVC070 25/21 Q10 15;
0148833440999992012111619004-14950-040883FM-15+0914SBQV V0203301N002110210019N0112651N1+02101+02101999999ADDGA1041+001501999GA2081+021001999GF108991999999999999999999MA1101591999999REMMET063METAR SBQV 161900Z 33004KT 9999 SCT005 OVC070 21/21 Q1016 RETS;
0153833440999992012111620004-14950-040883FM-15+0914SBQV V0203301N002610210019N0090001N1+02101+02101999999ADDGA1041+001501999GA2081+021001999GF108991999999999999999999MA1101491999999MW1611REMMET062METAR SBQV 162000Z 33005KT 9000 -RA SCT005 OVC070 21/21 Q1015;
0143833440999992012111621004-14950-040883FM-15+0914SBQV V0200101N001510210019N0112651N1+02101+02101999999ADDGA1021+001501999GA2081+021001999GF108991999999999999999999MA1101591999999REMMET058METAR SBQV 162100Z 01003KT 9999 FEW005 OVC070 21/21 Q1016;
0153833440999992012111622004-14950-040883FM-15+0914SBQV V0200101N001510210019N0112651N1+02101+02101999999ADDGA1021+001501999GA2081+021001999GF108991999999999999999999MA1101691999999MW1611REMMET062METAR SBQV 162200Z 01003KT 9999 -RA FEW005 OVC070 21/21 Q1017;
0153833440999992012111623004-14950-040883FM-15+0914SBQV V0209999C000010210019N0112651N1+02101+02101999999ADDGA1021+003301999GA2081+021001999GF108991999999999999999999MA1101801999999MW1611REMMET062METAR SBQV 162300Z 00000KT 9999 -RA FEW011 OVC070 21/21 Q1018;
0143833440999992012111700004-14950-040883FM-15+0914SBQV V0201501N000510210019N0112651N1+02101+02101999999ADDGA1041+003301999GA2081+021001999GF108991999999999999999999MA1101801999999REMMET058METAR SBQV 170000Z 15001KT 9999 SCT011 OVC070 21/21 Q1018;
0143833440999992012111701004-14950-040883FM-15+0914SBQV V0200801N000510210019N0080001N1+02101+02101999999ADDGA1021+003301999GA2081+021001999GF108991999999999999999999MA1101801999999REMMET058METAR SBQV 170100Z 08001KT 8000 FEW011 OVC070 21/21 Q1018;
0072833440999992012111708004-14950-040883FM-15+0914SBQV V0200101N002619999999Y0099001N1+02201+01901999999ADDMA1101591999999REMMET045METAR SBQV 170800Z 01005KT CAVOK 22/19 Q1016;
0072833440999992012111709004-14950-040883FM-15+0914SBQV V0203501N001519999999Y0099001N1+02101+02001999999ADDMA1101691999999REMMET045METAR SBQV 170900Z 35003KT CAVOK 21/20 Q1017;
0143833440999992012111710004-14950-040883FM-15+0914SBQV V0203401N001510210019N0112651N1+02201+02101999999ADDGA1041+001501999GA2081+021001999GF108991999999999999999999MA1101801999999REMMET058METAR SBQV 171000Z 34003KT 9999 SCT005 OVC070 22/21 Q1018;
0143833440999992012111711004-14950-040883FM-15+0914SBQV V0201701N001010033019N0112651N1+02201+02201999999ADDGA1071+003301999GA2081+021001999GF108991999999999999999999MA1101901999999REMMET058METAR SBQV 171100Z 17002KT 9999 BKN011 OVC070 22/22 Q1019;
0143833440999992012111712004-14950-040883FM-15+0914SBQV V0201901N001010210019N0112651N1+02301+02101999999ADDGA1041+003601999GA2081+021001999GF108991999999999999999999MA1102001999999REMMET058METAR SBQV 171200Z 19002KT 9999 SCT012 OVC070 23/21 Q1020;
0143833440999992012111713004-14950-040883FM-15+0914SBQV V0201901N001010210019N0112651N1+02401+02101999999ADDGA1041+003601999GA2081+021001999GF108991999999999999999999MA1101901999999REMMET058METAR SBQV 171300Z 19002KT 9999 SCT012 OVC070 24/21 Q1019;
0143833440999992012111714004-14950-040883FM-15+0914SBQV V0201901N002110210019N0112651N1+02401+02201999999ADDGA1041+003901999GA2081+021001999GF108991999999999999999999MA1101901999999REMMET058METAR SBQV 171400Z 19004KT 9999 SCT013 OVC070 24/22 Q1019;
0143833440999992012111715004-14950-040883FM-15+0914SBQV V0201601N003110240019N0112651N1+02601+02301999999ADDGA1041+004801999GA2071+024001999GF107991999999999999999999MA1101801999999REMMET058METAR SBQV 171500Z 16006KT 9999 SCT016 BKN080 26/23 Q1018;
0139833440999992012111716004-14950-040883FM-15+0914SBQV V0201001N002612200019N0112651N1+02601+02201999999ADDGA1041+004801999GA2021+005401021MA1101691999999REMMET061METAR SBQV 171600Z 10005KT 9999 SCT016 FEW018TCU 26/22 Q1017;EQDQ01+000022SCOTCV
0139833440999992012111717004-14950-040883FM-15+0914SBQV V0201001N003112200019N0112651N1+02601+02201999999ADDGA1041+004801999GA2021+005401021MA1101691999999REMMET061METAR SBQV 171700Z 10006KT 9999 SCT016 FEW018TCU 26/22 Q1017;EQDQ01+000022SCOTCV
0187833440999992012111718004-14950-040883FM-15+0914SBQV V0201001N004612200019N0112651N1+99999+99999999999ADDGA1041+004501999GA2021+004801021GA3041+021001999GF104991999999999999999999MA1101701999999MW1611REMMET080METAR SBQV 171800Z 10009KT 9999 3000SE -RA SCT015 FEW016TCU SCT070 23 /23 Q1017;
0177833440999992012111719004-14950-040883FM-15+0914SBQV V0201001N003610210019N0112651N1+02201+02201999999ADDGA1021+004501999GA2021+004801091GA3071+021001999GF107991999999999999999999MA1101591999999MW1171REMMET070METAR SBQV 171900Z 10007KT 9999 TS FEW015 FEW016CB BKN070 22/22 Q1016;
0186833440999992012111720004-14950-040883FM-15+0914SBQV V0201101N002610210019N0112651N1+02201+02201999999ADDGA1021+004501999GA2021+004801091GA3081+021001999GF108991999999999999999999MA1101691999999MW1801MW2951REMMET073METAR SBQV 172000Z 11005KT 9999 -TSRA FEW015 FEW016CB OVC070 22/22 Q1017;
0187833440999992012111721004-14950-040883FM-15+0914SBQV V0200801N00211004801CN0050001N1+02201+02201999999ADDGA1041+004501999GA2021+004801091GA3081+021001999GF108991999999999999999999MA1101801999999MW1801MW2951REMMET074METAR SBQV 172100Z 08004KT 5000 -TSRA SCT015 FEW016CB OVC070 22/22 Q1 018;
0187833440999992012111722004-14950-040883FM-15+0914SBQV V0200401N004110210019N0050001N1+02101+02101999999ADDGA1021+004501999GA2021+004801091GA3081+021001999GF108991999999999999999999MA1101901999999MW1801MW2951REMMET074METAR SBQV 172200Z 04008KT 5000 -TSRA FEW015 FEW016CB OVC070 21/21 Q1 019;
0187833440999992012111723004-14950-040883FM-15+0914SBQV V0200601N004610210019N0070001N1+02001+02001999999ADDGA1021+004501999GA2021+004801091GA3081+021001999GF108991999999999999999999MA1101901999999MW1801MW2951REMMET074METAR SBQV 172300Z 06009KT 7000 -TSRA FEW015 FEW016CB OVC070 20/20 Q1 019;
0158833440999992012111800004-14950-040883FM-15+0914SBQV V0201101N003610210019N0070001N1+02001+02001999999ADDGA1021+002101999GA2081+021001999GF108991999999999999999999MA1102001999999MW1611REMMET067METAR SBQV 180000Z 11007KT 7000 -RA FEW007 OVC070 20/20 Q1020 RETS;
0143833440999992012111801004-14950-040883FM-15+0914SBQV V0201101N002610210019N0112651N1+02001+02001999999ADDGA1041+002101999GA2071+021001999GF107991999999999999999999MA1102001999999REMMET058METAR SBQV 180100Z 11005KT 9999 SCT007 BKN070 20/20 Q1020;
0152833440999992012111808004-14950-040883FM-15+0914SBQV V0201301N004610015019N0015001N1+01901+01901999999ADDGA1071+001501999GA2081+021001999GF108991999999999999999999MA1101901999999MW1101REMMET061METAR SBQV 180800Z 13009KT 1500 BR BKN005 OVC070 19/19 Q1019;
0152833440999992012111809004-14950-040883FM-15+0914SBQV V0201301N004610015019N0020001N1+01901+01901999999ADDGA1071+001501999GA2081+021001999GF108991999999999999999999MA1102001999999MW1101REMMET061METAR SBQV 180900Z 13009KT 2000 BR BKN005 OVC070 19/19 Q1020;
0153833440999992012111810004-14950-040883FM-15+0914SBQV V0201301N005710015019N0040001N1+01901+01901999999ADDGA1071+001501999GA2081+021001999GF108991999999999999999999MA1102001999999MW1511REMMET062METAR SBQV 181000Z 13011KT 4000 -DZ BKN005 OVC070 19/19 Q1020;
0153833440999992012111811004-14950-040883FM-15+0914SBQV V0201301N006210015019N0080001N1+01801+01801999999ADDGA1071+001501999GA2081+021001999GF108991999999999999999999MA1102101999999MW1511REMMET062METAR SBQV 181100Z 13012KT 8000 -DZ BKN005 OVC070 18/18 Q1021;
0143833440999992012111812004-14950-040883FM-15+0914SBQV V0201201N006710210019N0112651N1+01901+01901999999ADDGA1041+001801999GA2071+021001999GF107991999999999999999999MA1102201999999REMMET058METAR SBQV 181200Z 12013KT 9999 SCT006 BKN070 19/19 Q1022;
0143833440999992012111813004-14950-040883FM-15+0914SBQV V0201301N005710018019N0112651N1+01901+01901999999ADDGA1071+001801999GA2071+021001999GF107991999999999999999999MA1102201999999REMMET058METAR SBQV 181300Z 13011KT 9999 BKN006 BKN070 19/19 Q1022;
0143833440999992012111814004-14950-040883FM-15+0914SBQV V0201101N005110027019N0112651N1+02001+01901999999ADDGA1071+002701999GA2071+021001999GF107991999999999999999999MA1102101999999REMMET058METAR SBQV 181400Z 11010KT 9999 BKN009 BKN070 20/19 Q1021;
0166833440999992012111815004-14950-040883FM-15+0914SBQV V0201401N00461004501CN0112651N1+02101+02001999999ADDGA1041+003601999GA2041+004501999GA3071+024001999GF107991999999999999999999MA1102101999999REMMET065METAR SBQV 181500Z 14009KT 9999 SCT012 SCT015 BKN080 21/20 Q1021;
0166833440999992012111816004-14950-040883FM-15+0914SBQV V0201401N00511004801CN0112651N1+02201+02001999999ADDGA1021+003901999GA2041+004801999GA3071+024001999GF107991999999999999999999MA1102001999999REMMET065METAR SBQV 181600Z 14010KT 9999 FEW013 SCT016 BKN080 22/20 Q1020;
0166833440999992012111817004-14950-040883FM-15+0914SBQV V0201301N00461004801CN0112651N1+02301+02001999999ADDGA1021+003901999GA2041+004801999GA3071+024001999GF107991999999999999999999MA1102001999999REMMET065METAR SBQV 181700Z 13009KT 9999 FEW013 SCT016 BKN080 23/20 Q1020;
0143833440999992012111818004-14950-040883FM-15+0914SBQV V0201401N005110210019N0112651N1+02201+02001999999ADDGA1021+003901999GA2071+021001999GF107991999999999999999999MA1101901999999REMMET058METAR SBQV 181800Z 14010KT 9999 FEW013 BKN070 22/20 Q1019;
0143833440999992012111819004-14950-040883FM-15+0914SBQV V0201401N005110210019N0112651N1+02301+02001999999ADDGA1041+004501999GA2071+021001999GF107991999999999999999999MA1101901999999REMMET058METAR SBQV 181900Z 14010KT 9999 SCT015 BKN070 23/20 Q1019;
0143833440999992012111820004-14950-040883FM-15+0914SBQV V0201401N004610210019N0112651N1+02201+02001999999ADDGA1021+003601999GA2071+021001999GF107991999999999999999999MA1101901999999REMMET058METAR SBQV 182000Z 14009KT 9999 FEW012 BKN070 22/20 Q1019;
0143833440999992012111821004-14950-040883FM-15+0914SBQV V0201301N004610210019N0112651N1+02101+02001999999ADDGA1021+003001999GA2071+021001999GF107991999999999999999999MA1101801999999REMMET058METAR SBQV 182100Z 13009KT 9999 FEW010 BKN070 21/20 Q1018;
0143833440999992012111822004-14950-040883FM-15+0914SBQV V0201301N005710036019N0112651N1+02001+02001999999ADDGA1021+002401999GA2071+003601999GF107991999999999999999999MA1102001999999REMMET058METAR SBQV 182200Z 13011KT 9999 FEW008 BKN012 20/20 Q1020;
0143833440999992012111823004-14950-040883FM-15+0914SBQV V0201301N005110030019N0112651N1+02001+02001999999ADDGA1021+001801999GA2071+003001999GF107991999999999999999999MA1102001999999REMMET058METAR SBQV 182300Z 13010KT 9999 FEW006 BKN010 20/20 Q1020;
0120833440999992012111900004-14950-040883FM-15+0914SBQV V0201201N005110015019N0112651N1+02001+02001999999ADDGA1071+001501999GF107991999999999999999999MA1102101999999REMMET051METAR SBQV 190000Z 12010KT 9999 BKN005 20/20 Q1021;
0143833440999992012111901004-14950-040883FM-15+0914SBQV V0201201N004610018019N0112651N1+01901+01901999999ADDGA1041+001501999GA2071+001801999GF107991999999999999999999MA1102101999999REMMET058METAR SBQV 190100Z 12009KT 9999 SCT005 BKN006 19/19 Q1021;
0143833440999992012111902004-14950-040883FM-15+0914SBQV V0201101N004610021019N0112651N1+01901+01901999999ADDGA1041+001501999GA2071+002101999GF107991999999999999999999MA1102101999999REMMET058METAR SBQV 190200Z 11009KT 9999 SCT005 BKN007 19/19 Q1021;
0160833440999992012111903004-14950-040883FM-15+0914SBQV V0201201N004610009019N0050001N1+01901+01901999999ADDGA1071+000901999GA2071+001801999GF107991999999999999999999MA1102001999999MW1511REMMET069METAR SBQV 190300Z 12009KT 5000 1000SE -DZ BKN003 BKN006 19/19 Q1020;
0152833440999992012111908004-14950-040883FM-15+0914SBQV V0201201N004610009019N0018001N1+01801+01801999999ADDGA1071+000901999GA2071+001801999GF107991999999999999999999MA1102001999999MW1101REMMET061METAR SBQV 190800Z 12009KT 1800 BR BKN003 BKN006 18/18 Q1020;
0152833440999992012111909004-14950-040883FM-15+0914SBQV V0201301N004610009019N0020001N1+01801+01801999999ADDGA1071+000901999GA2071+001801999GF107991999999999999999999MA1102001999999MW1101REMMET061METAR SBQV 190900Z 13009KT 2000 BR BKN003 BKN006 18/18 Q1020;
0143833440999992012111910004-14950-040883FM-15+0914SBQV V0201301N006210012019N0112651N1+01801+01801999999ADDGA1071+001201999GA2071+001801999GF107991999999999999999999MA1102101999999REMMET058METAR SBQV 191000Z 13012KT 9999 BKN004 BKN006 18/18 Q1021;
0143833440999992012111911004-14950-040883FM-15+0914SBQV V0201201N004610018019N0112651N1+01801+01801999999ADDGA1041+001501999GA2071+001801999GF107991999999999999999999MA1102101999999REMMET058METAR SBQV 191100Z 12009KT 9999 SCT005 BKN006 18/18 Q1021;
0143833440999992012111912004-14950-040883FM-15+0914SBQV V0201101N005110030019N0112651N1+02001+01901999999ADDGA1071+003001999GA2071+021001999GF107991999999999999999999MA1102201999999REMMET058METAR SBQV 191200Z 11010KT 9999 BKN010 BKN070 20/19 Q1022;
0143833440999992012111913004-14950-040883FM-15+0914SBQV V0201101N004612200019N0112651N1+02201+01901999999ADDGA1021+004501999GA2041+005401999GF104991999999999999999999MA1102101999999REMMET058METAR SBQV 191300Z 11009KT 9999 FEW015 SCT018 22/19 Q1021;
0143833440999992012111914004-14950-040883FM-15+0914SBQV V0200801N004610054019N0112651N1+02301+02001999999ADDGA1041+004501999GA2071+005401999GF107991999999999999999999MA1102101999999REMMET058METAR SBQV 191400Z 08009KT 9999 SCT015 BKN018 23/20 Q1021;
0136833440999992012111915004-14950-040883FM-15+0914SBQV V0200901N00511004501CN0112651N1+02401+02001999999ADDGA1071+004501999GA2041+005401999MA1102001999999REMMET058METAR SBQV 191500Z 09010KT 9999 BKN015 SCT018 24/20 Q1020;EQDQ01+000042SCOTCV
0136833440999992012111916004-14950-040883FM-15+0914SBQV V0201101N00461004801CN0112651N1+02401+02001999999ADDGA1071+004801999GA2041+005701999MA1101901999999REMMET058METAR SBQV 191600Z 11009KT 9999 BKN016 SCT019 24/20 Q1019;EQDQ01+000042SCOTCV
0120833440999992012111917004-14950-040883FM-15+0914SBQV V0201101N004112200019N0112651N1+02501+01901999999ADDGA1021+004801999GF102991999999999999999999MA1101801999999REMMET051METAR SBQV 191700Z 11008KT 9999 FEW016 25/19 Q1018;
0120833440999992012111918004-14950-040883FM-15+0914SBQV V0201201N004112200019N0112651N1+02601+02001999999ADDGA1041+004501999GF104991999999999999999999MA1101801999999REMMET051METAR SBQV 191800Z 12008KT 9999 SCT015 26/20 Q1018;
0146833440999992012111919004-14950-040883FM-15+0914SBQV V0201201N005112200019N0112651N1+02401+02001999999ADDGA1021+003901999GA2021+005401021GF102991999999999999999999MA1101691999999REMMET061METAR SBQV 191900Z 12010KT 9999 FEW013 FEW018TCU 24/20 Q1017;
0120833440999992012111920004-14950-040883FM-15+0914SBQV V0201301N005112200019N0112651N1+02301+02001999999ADDGA1021+003901999GF102991999999999999999999MA1101801999999REMMET051METAR SBQV 192000Z 13010KT 9999 FEW013 23/20 Q1018;
0143833440999992012111921004-14950-040883FM-15+0914SBQV V0201201N004612200019N0112651N1+02201+02001999999ADDGA1021+003001999GA2041+021001999GF104991999999999999999999MA1101801999999REMMET058METAR SBQV 192100Z 12009KT 9999 FEW010 SCT070 22/20 Q1018;
0143833440999992012111922004-14950-040883FM-15+0914SBQV V0201201N005112200019N0112651N1+02101+02001999999ADDGA1041+002401999GA2041+021001999GF104991999999999999999999MA1101801999999REMMET058METAR SBQV 192200Z 12010KT 9999 SCT008 SCT070 21/20 Q1018;
0143833440999992012111923004-14950-040883FM-15+0914SBQV V0201201N004112200019N0112651N1+02001+02001999999ADDGA1041+002101999GA2041+021001999GF104991999999999999999999MA1102001999999REMMET058METAR SBQV 192300Z 12008KT 9999 SCT007 SCT070 20/20 Q1020;
0143833440999992012112000004-14950-040883FM-15+0914SBQV V0201101N004612200019N0112651N1+02001+02001999999ADDGA1041+002101999GA2041+021001999GF104991999999999999999999MA1102001999999REMMET058METAR SBQV 200000Z 11009KT 9999 SCT007 SCT070 20/20 Q1020;
0143833440999992012112001004-14950-040883FM-15+0914SBQV V0201101N004612200019N0112651N1+02001+02001999999ADDGA1041+001501999GA2041+021001999GF104991999999999999999999MA1102001999999REMMET058METAR SBQV 200100Z 11009KT 9999 SCT005 SCT070 20/20 Q1020;
0120833440999992012112002004-14950-040883FM-15+0914SBQV V0201101N004610015019N0112651N1+02001+02001999999ADDGA1071+001501999GF107991999999999999999999MA1101901999999REMMET051METAR SBQV 200200Z 11009KT 9999 BKN005 20/20 Q1019;
0072833440999992012112008004-14950-040883FM-15+0914SBQV V0200701N003619999999Y0099001N1+01801+01801999999ADDMA1101691999999REMMET045METAR SBQV 200800Z 07007KT CAVOK 18/18 Q1017;
0143833440999992012112009004-14950-040883FM-15+0914SBQV V0200801N003610210019N0112651N1+01801+01801999999ADDGA1021+001201999GA2071+021001999GF107991999999999999999999MA1101801999999REMMET058METAR SBQV 200900Z 08007KT 9999 FEW004 BKN070 18/18 Q1018;
0143833440999992012112010004-14950-040883FM-15+0914SBQV V0200901N003110018019N0112651N1+01901+01901999999ADDGA1041+001201999GA2071+001801999GF107991999999999999999999MA1101901999999REMMET058METAR SBQV 201000Z 09006KT 9999 SCT004 BKN006 19/19 Q1019;
0143833440999992012112011004-14950-040883FM-15+0914SBQV V0200601N003610027019N0112651N1+02001+01901999999ADDGA1041+002101999GA2071+002701999GF107991999999999999999999MA1101901999999REMMET058METAR SBQV 201100Z 06007KT 9999 SCT007 BKN009 20/19 Q1019;
0120833440999992012112012004-14950-040883FM-15+0914SBQV V0200401N003110036019N0112651N1+02101+02001999999ADDGA1071+003601999GF107991999999999999999999MA1101901999999REMMET051METAR SBQV 201200Z 04006KT 9999 BKN012 21/20 Q1019;
0120833440999992012112013004-14950-040883FM-15+0914SBQV V0200301N002610045019N0112651N1+02301+01801999999ADDGA1071+004501999GF107991999999999999999999MA1101901999999REMMET051METAR SBQV 201300Z 03005KT 9999 BKN015 23/18 Q1019;
0136833440999992012112014004-14950-040883FM-15+0914SBQV V0200101N00311004501CN0112651N1+02301+01901999999ADDGA1071+004501999GA2041+021001999MA1101901999999REMMET058METAR SBQV 201400Z 01006KT 9999 BKN015 SCT070 23/19 Q1019;EQDQ01+000042SCOTCV
0143833440999992012112015004-14950-040883FM-15+0914SBQV V0200301N002612200019N0112651N1+02401+01901999999ADDGA1041+005401999GA2041+024001999GF104991999999999999999999MA1101801999999REMMET058METAR SBQV 201500Z 03005KT 9999 SCT018 SCT080 24/19 Q1018;
0143833440999992012112016004-14950-040883FM-15+0914SBQV V0200201N001512200019N0112651N1+02501+01801999999ADDGA1041+006001999GA2041+024001999GF104991999999999999999999MA1101691999999REMMET058METAR SBQV 201600Z 02003KT 9999 SCT020 SCT080 25/18 Q1017;
0143833440999992012112017004-14950-040883FM-15+0914SBQV V0201001N001512200019N0112651N1+02701+01801999999ADDGA1041+006001999GA2041+024001999GF104991999999999999999999MA1101591999999REMMET058METAR SBQV 201700Z 10003KT 9999 SCT020 SCT080 27/18 Q1016;
0120833440999992012112018004-14950-040883FM-15+0914SBQV V0200401N002610060019N0112651N1+02601+02001999999ADDGA1071+006001999GF107991999999999999999999MA1101491999999REMMET051METAR SBQV 201800Z 04005KT 9999 BKN020 26/20 Q1015;
0120833440999992012112019004-14950-040883FM-15+0914SBQV V0200801N005112200019N0112651N1+02401+02101999999ADDGA1041+006001999GF104991999999999999999999MA1101491999999REMMET051METAR SBQV 201900Z 08010KT 9999 SCT020 24/21 Q1015;
0120833440999992012112020004-14950-040883FM-15+0914SBQV V0200901N003612200019N0112651N1+02401+02101999999ADDGA1041+005401999GF104991999999999999999999MA1101491999999REMMET051METAR SBQV 202000Z 09007KT 9999 SCT018 24/21 Q1015;
0143833440999992012112021004-14950-040883FM-15+0914SBQV V0201101N003612200019N0112651N1+02301+02101999999ADDGA1021+004801999GA2041+021001999GF104991999999999999999999MA1101491999999REMMET058METAR SBQV 202100Z 11007KT 9999 FEW016 SCT070 23/21 Q1015;
0143833440999992012112022004-14950-040883FM-15+0914SBQV V0201101N003112200019N0112651N1+02201+02101999999ADDGA1021+004501999GA2041+021001999GF104991999999999999999999MA1101591999999REMMET058METAR SBQV 202200Z 11006KT 9999 FEW015 SCT070 22/21 Q1016;
0143833440999992012112023004-14950-040883FM-15+0914SBQV V0200901N002612200019N0112651N1+02201+02101999999ADDGA1021+003601999GA2041+021001999GF104991999999999999999999MA1101691999999REMMET058METAR SBQV 202300Z 09005KT 9999 FEW012 SCT070 22/21 Q1017;
0143833440999992012112100004-14950-040883FM-15+0914SBQV V0200901N004112200019N0112651N1+02101+02101999999ADDGA1041+003301999GA2041+021001999GF104991999999999999999999MA1101691999999REMMET058METAR SBQV 210000Z 09008KT 9999 SCT011 SCT070 21/21 Q1017;
0143833440999992012112101004-14950-040883FM-15+0914SBQV V0200901N004112200019N0112651N1+02101+02001999999ADDGA1041+002401999GA2041+021001999GF104991999999999999999999MA1101691999999REMMET058METAR SBQV 210100Z 09008KT 9999 SCT008 SCT070 21/20 Q1017;
0143833440999992012112108004-14950-040883FM-15+0914SBQV V0200601N002110210019N0112651N1+01901+01701999999ADDGA1021+003301999GA2071+021001999GF107991999999999999999999MA1101691999999REMMET058METAR SBQV 210800Z 06004KT 9999 FEW011 BKN070 19/17 Q1017;
0072833440999992012112109004-14950-040883FM-15+0914SBQV V0200801N002119999999Y0099001N1+02001+01801999999ADDMA1101691999999REMMET045METAR SBQV 210900Z 08004KT CAVOK 20/18 Q1017;
0143833440999992012112110004-14950-040883FM-15+0914SBQV V0200301N002110240019N0112651N1+02001+01801999999ADDGA1021+004501999GA2071+024001999GF107991999999999999999999MA1101801999999REMMET058METAR SBQV 211000Z 03004KT 9999 FEW015 BKN080 20/18 Q1018;
0143833440999992012112111004-14950-040883FM-15+0914SBQV V0200301N002610240019N0112651N1+02101+01801999999ADDGA1021+004801999GA2071+024001999GF107991999999999999999999MA1101801999999REMMET058METAR SBQV 211100Z 03005KT 9999 FEW016 BKN080 21/18 Q1018;
0143833440999992012112112004-14950-040883FM-15+0914SBQV V0200101N003610240019N0112651N1+02301+01901999999ADDGA1021+005401999GA2071+024001999GF107991999999999999999999MA1101801999999REMMET058METAR SBQV 211200Z 01007KT 9999 FEW018 BKN080 23/19 Q1018;
0143833440999992012112113004-14950-040883FM-15+0914SBQV V0203601N002610240019N0112651N1+02301+01901999999ADDGA1041+005401999GA2081+024001999GF108991999999999999999999MA1101801999999REMMET058METAR SBQV 211300Z 36005KT 9999 SCT018 OVC080 23/19 Q1018;
0143833440999992012112114004-14950-040883FM-15+0914SBQV V0203401N002110210019N0112651N1+02201+02001999999ADDGA1041+004501999GA2081+021001999GF108991999999999999999999MA1101801999999REMMET058METAR SBQV 211400Z 34004KT 9999 SCT015 OVC070 22/20 Q1018;
0153833440999992012112115004-14950-040883FM-15+0914SBQV V0203201N001510210019N0080001N1+02101+02001999999ADDGA1041+004501999GA2081+021001999GF108991999999999999999999MA1101801999999MW1611REMMET062METAR SBQV 211500Z 32003KT 8000 -RA SCT015 OVC070 21/20 Q1018;
0143833440999992012112116004-14950-040883FM-15+0914SBQV V0200101N002110210019N0112651N1+02301+02001999999ADDGA1041+004501999GA2081+021001999GF108991999999999999999999MA1101691999999REMMET058METAR SBQV 211600Z 01004KT 9999 SCT015 OVC070 23/20 Q1017;
0143833440999992012112117004-14950-040883FM-15+0914SBQV V0200201N001510210019N0112651N1+02501+02001999999ADDGA1041+004501999GA2071+021001999GF107991999999999999999999MA1101591999999REMMET058METAR SBQV 211700Z 02003KT 9999 SCT015 BKN070 25/20 Q1016;
0143833440999992012112118004-14950-040883FM-15+0914SBQV V0202401N003110210019N0112651N1+02501+02101999999ADDGA1041+004801999GA2081+021001999GF108991999999999999999999MA1101491999999REMMET058METAR SBQV 211800Z 24006KT 9999 SCT016 OVC070 25/21 Q1015;
0143833440999992012112119004-14950-040883FM-15+0914SBQV V0202501N003110210019N0112651N1+02301+02101999999ADDGA1041+004501999GA2081+021001999GF108991999999999999999999MA1101591999999REMMET058METAR SBQV 211900Z 25006KT 9999 SCT015 OVC070 23/21 Q1016;
0153833440999992012112120004-14950-040883FM-15+0914SBQV V0202401N001010210019N0112651N1+02201+02101999999ADDGA1021+004801999GA2081+021001999GF108991999999999999999999MA1101591999999MW1611REMMET062METAR SBQV 212000Z 24002KT 9999 -RA FEW016 OVC070 22/21 Q1016;
0143833440999992012112121004-14950-040883FM-15+0914SBQV V0201701N001510210019N0112651N1+02201+02101999999ADDGA1021+004501999GA2081+021001999GF108991999999999999999999MA1101691999999REMMET058METAR SBQV 212100Z 17003KT 9999 FEW015 OVC070 22/21 Q1017;
0143833440999992012112122004-14950-040883FM-15+0914SBQV V0201001N002610210019N0112651N1+02101+02101999999ADDGA1021+001501999GA2081+021001999GF108991999999999999999999MA1101691999999REMMET058METAR SBQV 212200Z 10005KT 9999 FEW005 OVC070 21/21 Q1017;
0143833440999992012112123004-14950-040883FM-15+0914SBQV V0201201N002110240019N0112651N1+02101+02101999999ADDGA1021+001801999GA2081+024001999GF108991999999999999999999MA1101801999999REMMET058METAR SBQV 212300Z 12004KT 9999 FEW006 OVC080 21/21 Q1018;
0143833440999992012112200004-14950-040883FM-15+0914SBQV V0201001N002110210019N0080001N1+02101+02101999999ADDGA1041+001801999GA2081+021001999GF108991999999999999999999MA1101801999999REMMET058METAR SBQV 220000Z 10004KT 8000 SCT006 OVC070 21/21 Q1018;
0143833440999992012112201004-14950-040883FM-15+0914SBQV V0201001N002610210019N0112651N1+02101+02101999999ADDGA1041+001501999GA2081+021001999GF108991999999999999999999MA1101801999999REMMET058METAR SBQV 220100Z 10005KT 9999 SCT005 OVC070 21/21 Q1018;
0143833440999992012112202004-14950-040883FM-15+0914SBQV V0201401N001510015019N0112651N1+02101+02101999999ADDGA1071+001501999GA2081+021001999GF108991999999999999999999MA1101901999999REMMET058METAR SBQV 220200Z 14003KT 9999 BKN005 OVC070 21/21 Q1019;
0143833440999992012112208004-14950-040883FM-15+0914SBQV V0200601N001510210019N0112651N1+02001+02001999999ADDGA1041+001801999GA2071+021001999GF107991999999999999999999MA1101591999999REMMET058METAR SBQV 220800Z 06003KT 9999 SCT006 BKN070 20/20 Q1016;
0143833440999992012112209004-14950-040883FM-15+0914SBQV V0201801N002110210019N0112651N1+02001+01801999999ADDGA1021+002101999GA2071+021001999GF107991999999999999999999MA1101691999999REMMET058METAR SBQV 220900Z 18004KT 9999 FEW007 BKN070 20/18 Q1017;
0143833440999992012112210004-14950-040883FM-15+0914SBQV V0201701N001010210019N0112651N1+02001+01901999999ADDGA1021+003901999GA2071+021001999GF107991999999999999999999MA1101801999999REMMET058METAR SBQV 221000Z 17002KT 9999 FEW013 BKN070 20/19 Q1018;
0143833440999992012112211004-14950-040883FM-15+0914SBQV V0201701N001012200019N0112651N1+02101+01901999999ADDGA1021+004501999GA2041+021001999GF104991999999999999999999MA1101801999999REMMET058METAR SBQV 221100Z 17002KT 9999 FEW015 SCT070 21/19 Q1018;
0143833440999992012112212004-14950-040883FM-15+0914SBQV V0201801N001012200019N0112651N1+02301+02001999999ADDGA1021+004801999GA2041+024001999GF104991999999999999999999MA1101801999999REMMET058METAR SBQV 221200Z 18002KT 9999 FEW016 SCT080 23/20 Q1018;
0120833440999992012112213004-14950-040883FM-15+0914SBQV V0202301N001012200019N0112651N1+02501+02001999999ADDGA1041+005401999GF104991999999999999999999MA1101801999999REMMET051METAR SBQV 221300Z 23002KT 9999 SCT018 25/20 Q1018;
0120833440999992012112214004-14950-040883FM-15+0914SBQV V0202001N001510060019N0112651N1+02701+02001999999ADDGA1071+006001999GF107991999999999999999999MA1101801999999REMMET051METAR SBQV 221400Z 20003KT 9999 BKN020 27/20 Q1018;
0139833440999992012112215004-14950-040883FM-15+0914SBQV V0202601N00151006001CN0112651N1+02701+02001999999ADDGA1071+006001999GA2021+007501021MA1101691999999REMMET061METAR SBQV 221500Z 26003KT 9999 BKN020 FEW025TCU 27/20 Q1017;EQDQ01+000022SCOTCV
0149833440999992012112216004-14950-040883FM-15+0914SBQV V0202801N00361005401CN0070001N1+02401+02201999999ADDGA1071+005401999GA2021+006001021MA1101591999999MW1611REMMET065METAR SBQV 221600Z 28007KT 7000 -RA BKN018 FEW020TCU 24/22 Q1016;EQDQ01+000022SCOTCV
0147833440999992012112217004-14950-040883FM-15+0914SBQV V0202001N001012200019N0112651N1+02401+02101999999ADDGA1041+005401999GA2021+006001091MA1101491999999MW1171REMMET063METAR SBQV 221700Z 20002KT 9999 TS SCT018 FEW020CB 24/21 Q1015;EQDQ01+000022SCOTCV
0144833440999992012112218004-14950-040883FM-15+0914SBQV V0200201N003612200019N0112651N1+02601+02201999999ADDGA1041+006001999GA2021+007501021MA1101491999999REMMET066METAR SBQV 221800Z 02007KT 9999 SCT020 FEW025TCU 26/22 Q1015 RETS;EQDQ01+000022SCOTCV
0147833440999992012112219004-14950-040883FM-15+0914SBQV V0200401N00511006001CN0112651N1+02601+02201999999ADDGA1071+006001999GA2021+007501091MA1101491999999MW1171REMMET063METAR SBQV 221900Z 04010KT 9999 TS BKN020 FEW025CB 26/22 Q1015;EQDQ01+000022SCOTCV
0182833440999992012112220004-14950-040883FM-15+0914SBQV V0200401N004612200019N0112651N1+02001+01901999999ADDGA1041+004501999GA2021+007501091GA3041+024001999GF104991999999999999999999MA1101591999999MW1171REMMET075METAR SBQV 222000Z 04009KT 9999 TS SCT015 FEW025CB SCT080 20/19 Q1016 RERA;
0177833440999992012112221004-14950-040883FM-15+0914SBQV V0201101N00211006001CN0112651N1+02101+02101999999ADDGA1041+004501999GA2021+006001091GA3071+021001999GF107991999999999999999999MA1101591999999MW1171REMMET070METAR SBQV 222100Z 11004KT 9999 TS SCT015 FEW020CB BKN070 21/21 Q1016;
0177833440999992012112222004-14950-040883FM-15+0914SBQV V0200901N002112200019N0112651N1+02101+02001999999ADDGA1041+004501999GA2021+006001091GA3041+021001999GF104991999999999999999999MA1101691999999MW1171REMMET070METAR SBQV 222200Z 09004KT 9999 TS SCT015 FEW020CB SCT070 21/20 Q1017;
0161833440999992012112223004-14950-040883FM-15+0914SBQV V0201201N002612200019N0112651N1+02101+02101999999ADDGA1021+004501999GA2021+006001091GF102991999999999999999999MA1101801999999MW1171REMMET070METAR SBQV 222300Z 12005KT 9999 VCTS FEW015 FEW020CB 21/21 Q1018 RETS;
0143833440999992012112300004-14950-040883FM-15+0914SBQV V0201301N003610210019N0112651N1+02101+02101999999ADDGA1041+003001999GA2071+021001999GF107991999999999999999999MA1101801999999REMMET058METAR SBQV 230000Z 13007KT 9999 SCT010 BKN070 21/21 Q1018;
0155833440999992012112301004-14950-040883FM-15+0914SBQV V0201201N004110015019N0020001N1+02001+02001999999ADDGA1071+001501999GA2071+021001999GF107991999999999999999999MA1101901999999MW1611REMMET064METAR SBQV 230100Z 12008KT 2000SE -RA BKN005 BKN070 20/20 Q1019;
0167833440999992012112302004-14950-040883FM-15+0914SBQV V0200801N00311002101CN0020001N1+02001+02001999999ADDGA1071+002101999GA2071+021001999GF108991999999999999999999MA1101801999999MW1651REMMET076METAR SBQV 230200Z 08006KT 2000 0500SE +RA ACT004 BKN007 BKN070 20/20 Q1018;
0129833440999992012112308004-14950-040883FM-15+0914SBQV V0201201N002112200019N0050001N1+01801+01801999999ADDGA1021+001201999GF102991999999999999999999MA1101691999999MW1101REMMET054METAR SBQV 230800Z 12004KT 5000 BR FEW004 18/18 Q1017;
0129833440999992012112309004-14950-040883FM-15+0914SBQV V0201201N001012200019N0009001N1+01801+01801999999ADDGA1041+001201999GF104991999999999999999999MA1101801999999MW1441REMMET054METAR SBQV 230900Z 12002KT 0900 FG SCT004 18/18 Q1018;
0120833440999992012112310004-14950-040883FM-15+0914SBQV V0201501N000512200019N0090001N1+02001+02001999999ADDGA1021+004501999GF102991999999999999999999MA1101901999999REMMET051METAR SBQV 231000Z 15001KT 9000 FEW015 20/20 Q1019;
0120833440999992012112311004-14950-040883FM-15+0914SBQV V0200201N001012200019N0112651N1+02301+01901999999ADDGA1021+005401999GF102991999999999999999999MA1101901999999REMMET051METAR SBQV 231100Z 02002KT 9999 FEW018 23/19 Q1019;
0120833440999992012112312004-14950-040883FM-15+0914SBQV V0200701N001012200019N0112651N1+02501+02001999999ADDGA1021+007501999GF102991999999999999999999MA1101901999999REMMET051METAR SBQV 231200Z 07002KT 9999 FEW025 25/20 Q1019;
0120833440999992012112313004-14950-040883FM-15+0914SBQV V0200401N002110075019N0112651N1+02601+01901999999ADDGA1071+007501999GF107991999999999999999999MA1101901999999REMMET051METAR SBQV 231300Z 04004KT 9999 BKN025 26/19 Q1019;
0120833440999992012112315004-14950-040883FM-15+0914SBQV V0203401N003610075019N0112651N1+02801+02001999999ADDGA1071+007501999GF107991999999999999999999MA1101691999999REMMET051METAR SBQV 231500Z 34007KT 9999 BKN025 28/20 Q1017;
0146833440999992012112316004-14950-040883FM-15+0914SBQV V0203601N003610075019N0112651N1+02801+01901999999ADDGA1021+006001021GA2071+007501999GF107991999999999999999999MA1101591999999REMMET061METAR SBQV 231600Z 36007KT 9999 FEW020TCU BKN025 28/19 Q1016;
0146833440999992012112317004-14950-040883FM-15+0914SBQV V0200101N002110075019N0112651N1+02701+02101999999ADDGA1021+006001021GA2071+007501999GF107991999999999999999999MA1101591999999REMMET061METAR SBQV 231700Z 01004KT 9999 FEW020TCU BKN025 27/21 Q1016;
0146833440999992012112318004-14950-040883FM-15+0914SBQV V0201401N005110075019N0112651N1+02401+02201999999ADDGA1021+006001021GA2071+007501999GF107991999999999999999999MA1101491999999REMMET061METAR SBQV 231800Z 14010KT 9999 FEW020TCU BKN025 24/22 Q1015;
0146833440999992012112319004-14950-040883FM-15+0914SBQV V0201101N003112200019N0112651N1+02701+02101999999ADDGA1021+006001021GA2041+007501999GF104991999999999999999999MA1101391999999REMMET061METAR SBQV 231900Z 11006KT 9999 FEW020TCU SCT025 27/21 Q1014;
0123833440999992012112320004-14950-040883FM-15+0914SBQV V0200801N003112200019N0112651N1+02601+02001999999ADDGA1021+006001021GF102991999999999999999999MA1101391999999REMMET054METAR SBQV 232000Z 08006KT 9999 FEW020TCU 26/20 Q1014;
0123833440999992012112321004-14950-040883FM-15+0914SBQV V0200901N003612200019N0112651N1+02501+02001999999ADDGA1021+006001021GF102991999999999999999999MA1101491999999REMMET054METAR SBQV 232100Z 09007KT 9999 FEW020TCU 25/20 Q1015;
0146833440999992012112322004-14950-040883FM-15+0914SBQV V0200701N002612200019N0112651N1+02401+02001999999ADDGA1021+005401999GA2021+006001021GF102991999999999999999999MA1101491999999REMMET061METAR SBQV 232200Z 07005KT 9999 FEW018 FEW020TCU 24/20 Q1015;
0072833440999992012112323004-14950-040883FM-15+0914SBQV V0200701N003619999999Y0099001N1+02301+02001999999ADDMA1101591999999REMMET045METAR SBQV 232300Z 07007KT CAVOK 23/20 Q1016;
0072833440999992012112400004-14950-040883FM-15+0914SBQV V0200801N003619999999Y0099001N1+02201+02001999999ADDMA1101591999999REMMET045METAR SBQV 240000Z 08007KT CAVOK 22/20 Q1016;
0072833440999992012112401004-14950-040883FM-15+0914SBQV V0200701N003619999999Y0099001N1+02201+02101999999ADDMA1101691999999REMMET045METAR SBQV 240100Z 07007KT CAVOK 22/21 Q1017;
0072833440999992012112408004-14950-040883FM-15+0914SBQV V0200101N001519999999Y0099001N1+02101+01701999999ADDMA1101591999999REMMET045METAR SBQV 240800Z 01003KT CAVOK 21/17 Q1016;
0072833440999992012112409004-14950-040883FM-15+0914SBQV V0200601N000519999999Y0099001N1+02101+01901999999ADDMA1101691999999REMMET045METAR SBQV 240900Z 06001KT CAVOK 21/19 Q1017;
0072833440999992012112410004-14950-040883FM-15+0914SBQV V0200101N003619999999Y0099001N1+02301+02001999999ADDMA1101801999999REMMET045METAR SBQV 241000Z 01007KT CAVOK 23/20 Q1018;
0072833440999992012112411004-14950-040883FM-15+0914SBQV V0203101N002119999999Y0099001N1+02401+02001999999ADDMA1101801999999REMMET045METAR SBQV 241100Z 31004KT CAVOK 24/20 Q1018;
0120833440999992012112412004-14950-040883FM-15+0914SBQV V0203501N003612200019N0112651N1+02601+02001999999ADDGA1021+004501999GF102991999999999999999999MA1101801999999REMMET051METAR SBQV 241200Z 35007KT 9999 FEW015 26/20 Q1018;
0120833440999992012112413004-14950-040883FM-15+0914SBQV V0203401N003112200019N0112651N1+02701+02001999999ADDGA1021+006001999GF102991999999999999999999MA1101801999999REMMET051METAR SBQV 241300Z 34006KT 9999 FEW020 27/20 Q1018;
0120833440999992012112414004-14950-040883FM-15+0914SBQV V0200101N002610060019N0112651N1+02701+02001999999ADDGA1071+006001999GF107991999999999999999999MA1101691999999REMMET051METAR SBQV 241400Z 01005KT 9999 BKN020 27/20 Q1017;
0120833440999992012112415004-14950-040883FM-15+0914SBQV V0200101N003110060019N0112651N1+02801+02001999999ADDGA1071+006001999GF107991999999999999999999MA1101691999999REMMET051METAR SBQV 241500Z 01006KT 9999 BKN020 28/20 Q1017;
0120833440999992012112416004-14950-040883FM-15+0914SBQV V0203501N002112200019N0112651N1+02801+01901999999ADDGA1041+006001999GF104991999999999999999999MA1101591999999REMMET051METAR SBQV 241600Z 35004KT 9999 SCT020 28/19 Q1016;
0120833440999992012112417004-14950-040883FM-15+0914SBQV V0203401N002112200019N0112651N1+02901+01801999999ADDGA1041+007501999GF104991999999999999999999MA1101491999999REMMET051METAR SBQV 241700Z 34004KT 9999 SCT025 29/18 Q1015;
0120833440999992012112418004-14950-040883FM-15+0914SBQV V0200301N003112200019N0112651N1+02901+02001999999ADDGA1021+007501999GF102991999999999999999999MA1101391999999REMMET051METAR SBQV 241800Z 03006KT 9999 FEW025 29/20 Q1014;
0146833440999992012112419004-14950-040883FM-15+0914SBQV V0200201N003112200019N0112651N1+02901+01901999999ADDGA1021+007501999GA2021+009001021GF102991999999999999999999MA1101291999999REMMET061METAR SBQV 241900Z 02006KT 9999 FEW025 FEW030TCU 29/19 Q1013;
0120833440999992012112420004-14950-040883FM-15+0914SBQV V0200201N002612200019N0112651N1+02801+01901999999ADDGA1041+006001999GF104991999999999999999999MA1101291999999REMMET051METAR SBQV 242000Z 02005KT 9999 SCT020 28/19 Q1013;
0120833440999992012112421004-14950-040883FM-15+0914SBQV V0200701N002112200019N0112651N1+02601+02101999999ADDGA1041+004801999GF104991999999999999999999MA1101291999999REMMET051METAR SBQV 242100Z 07004KT 9999 SCT016 26/21 Q1013;
0120833440999992012112422004-14950-040883FM-15+0914SBQV V0201001N003612200019N0112651N1+02501+02101999999ADDGA1041+004501999GF104991999999999999999999MA1101491999999REMMET051METAR SBQV 242200Z 10007KT 9999 SCT015 25/21 Q1015;
0120833440999992012112423004-14950-040883FM-15+0914SBQV V0200901N004612200019N0112651N1+02401+02001999999ADDGA1021+003901999GF102991999999999999999999MA1101591999999REMMET051METAR SBQV 242300Z 09009KT 9999 FEW013 24/20 Q1016;
0120833440999992012112500004-14950-040883FM-15+0914SBQV V0200501N004112200019N0112651N1+02301+02001999999ADDGA1021+003001999GF102991999999999999999999MA1101591999999REMMET051METAR SBQV 250000Z 05008KT 9999 FEW010 23/20 Q1016;
0072833440999992012112501004-14950-040883FM-15+0914SBQV V0200601N002619999999Y0099001N1+02301+01901999999ADDMA1101691999999REMMET045METAR SBQV 250100Z 06005KT CAVOK 23/19 Q1017;
0143833440999992012112508004-14950-040883FM-15+0914SBQV V0200101N005710210019N0112651N1+02201+02001999999ADDGA1021+003001999GA2071+021001999GF107991999999999999999999MA1101491999999REMMET058METAR SBQV 250800Z 01011KT 9999 FEW010 BKN070 22/20 Q1015;
0072833440999992012112509004-14950-040883FM-15+0914SBQV V0201001N001019999999Y0099001N1+02201+02001999999ADDMA1101691999999REMMET045METAR SBQV 250900Z 10002KT CAVOK 22/20 Q1017;
0072833440999992012112510004-14950-040883FM-15+0914SBQV V0203601N002119999999Y0099001N1+02401+02101999999ADDMA1101691999999REMMET045METAR SBQV 251000Z 36004KT CAVOK 24/21 Q1017;
0143833440999992012112511004-14950-040883FM-15+0914SBQV V0203601N002110240019N0112651N1+02401+02101999999ADDGA1021+004801999GA2071+024001999GF107991999999999999999999MA1101691999999REMMET058METAR SBQV 251100Z 36004KT 9999 FEW016 BKN080 24/21 Q1017;
0120833440999992012112512004-14950-040883FM-15+0914SBQV V0203501N004112200019N0112651N1+02601+02101999999ADDGA1021+006001999GF102991999999999999999999MA1101691999999REMMET051METAR SBQV 251200Z 35008KT 9999 FEW020 26/21 Q1017;
0120833440999992012112513004-14950-040883FM-15+0914SBQV V0200101N002612200019N0112651N1+02701+02101999999ADDGA1041+006001999GF104991999999999999999999MA1101801999999REMMET051METAR SBQV 251300Z 01005KT 9999 SCT020 27/21 Q1018;
0120833440999992012112514004-14950-040883FM-15+0914SBQV V0203501N003610075019N0112651N1+02801+02001999999ADDGA1071+007501999GF107991999999999999999999MA1101691999999REMMET051METAR SBQV 251400Z 35007KT 9999 BKN025 28/20 Q1017;
0120833440999992012112515004-14950-040883FM-15+0914SBQV V0203601N004112200019N0112651N1+02901+02001999999ADDGA1021+007501999GF102991999999999999999999MA1101591999999REMMET051METAR SBQV 251500Z 36008KT 9999 FEW025 29/20 Q1016;
0146833440999992012112516004-14950-040883FM-15+0914SBQV V0200101N003612200019N0112651N1+03001+02001999999ADDGA1021+007501999GA2021+009001021GF102991999999999999999999MA1101391999999REMMET061METAR SBQV 251600Z 01007KT 9999 FEW025 FEW030TCU 30/20 Q1014;
0146833440999992012112517004-14950-040883FM-15+0914SBQV V0203601N004112200019N0112651N1+03001+01901999999ADDGA1021+007501999GA2021+009001021GF102991999999999999999999MA1101291999999REMMET061METAR SBQV 251700Z 36008KT 9999 FEW025 FEW030TCU 30/19 Q1013;
0146833440999992012112518004-14950-040883FM-15+0914SBQV V0203501N003612200019N0112651N1+03001+01901999999ADDGA1021+007501999GA2021+009001021GF102991999999999999999999MA1101291999999REMMET061METAR SBQV 251800Z 35007KT 9999 FEW025 FEW030TCU 30/19 Q1013;
0146833440999992012112519004-14950-040883FM-15+0914SBQV V0200301N003112200019N0112651N1+02901+02001999999ADDGA1021+006001999GA2021+007501021GF102991999999999999999999MA1101291999999REMMET061METAR SBQV 251900Z 03006KT 9999 FEW020 FEW025TCU 29/20 Q1013;
0139833440999992012112520004-14950-040883FM-15+0914SBQV V0201401N004612200019N0112651N1+02601+02301999999ADDGA1041+004801999GA2021+006001021MA1101391999999REMMET061METAR SBQV 252000Z 14009KT 9999 SCT016 FEW020TCU 26/23 Q1014;EQDQ01+000022SCOTCV
0154833440999992012112521004-14950-040883FM-15+0914SBQV V0201101N003112200019N0112651N1+02501+02201999999ADDGA1021+002401999GA2021+005401091GF102991999999999999999999MA1101491999999MW1171REMMET063METAR SBQV 252100Z 11006KT 9999 TS FEW008 FEW018CB 25/22 Q1015;
0177833440999992012112522004-14950-040883FM-15+0914SBQV V0200801N004112200019N0112651N1+02501+02001999999ADDGA1041+002401999GA2021+005401091GA3041+021001999GF104991999999999999999999MA1101591999999MW1171REMMET070METAR SBQV 252200Z 08008KT 9999 TS SCT008 FEW018CB SCT070 25/20 Q1016;
0148833440999992012112523004-14950-040883FM-15+0914SBQV V0200801N002112200019N0112651N1+02401+02001999999ADDGA1041+002401999GA2041+021001999GF104991999999999999999999MA1101691999999REMMET063METAR SBQV 252300Z 08004KT 9999 SCT008 SCT070 24/20 Q1017 RETS;
0143833440999992012112600004-14950-040883FM-15+0914SBQV V0201301N002612200019N0112651N1+02301+02001999999ADDGA1041+002401999GA2041+021001999GF104991999999999999999999MA1101801999999REMMET058METAR SBQV 260000Z 13005KT 9999 SCT008 SCT070 23/20 Q1018;
0143833440999992012112601004-14950-040883FM-15+0914SBQV V0201401N003112200019N0112651N1+02201+02101999999ADDGA1021+002101999GA2041+021001999GF104991999999999999999999MA1101801999999REMMET058METAR SBQV 260100Z 14006KT 9999 FEW007 SCT070 22/21 Q1018;
0182833440999992012112608004-14950-040883FM-15+0914SBQV V0200701N003110030019N0112651N1+02001+01901999999ADDGA1021+002101999GA2071+003001999GA3071+021001999GF107991999999999999999999MA1101691999999MW1611REMMET075METAR SBQV 260800Z 07006KT 9999 4000E -RA FEW007 BKN010 BKN070 20/19 Q1017;
0143833440999992012112609004-14950-040883FM-15+0914SBQV V0200701N004610210019N0112651N1+02001+01901999999ADDGA1041+003001999GA2071+021001999GF107991999999999999999999MA1101691999999REMMET058METAR SBQV 260900Z 07009KT 9999 SCT010 BKN070 20/19 Q1017;
0143833440999992012112610004-14950-040883FM-15+0914SBQV V0200701N004610030019N0112651N1+02101+01901999999ADDGA1071+003001999GA2071+021001999GF107991999999999999999999MA1101801999999REMMET058METAR SBQV 261000Z 07009KT 9999 BKN010 BKN070 21/19 Q1018;
0143833440999992012112611004-14950-040883FM-15+0914SBQV V0200601N004110039019N0112651N1+02201+01901999999ADDGA1071+003901999GA2071+021001999GF107991999999999999999999MA1101901999999REMMET058METAR SBQV 261100Z 06008KT 9999 BKN013 BKN070 22/19 Q1019;
0143833440999992012112612004-14950-040883FM-15+0914SBQV V0200701N004610039019N0112651N1+02201+01901999999ADDGA1071+003901999GA2071+021001999GF107991999999999999999999MA1101901999999REMMET058METAR SBQV 261200Z 07009KT 9999 BKN013 BKN070 22/19 Q1019;
0143833440999992012112613004-14950-040883FM-15+0914SBQV V0200701N005110045019N0112651N1+02201+01901999999ADDGA1071+004501999GA2071+021001999GF107991999999999999999999MA1101901999999REMMET058METAR SBQV 261300Z 07010KT 9999 BKN015 BKN070 22/19 Q1019;
0143833440999992012112614004-14950-040883FM-15+0914SBQV V0200401N004110045019N0112651N1+02201+01901999999ADDGA1071+004501999GA2071+021001999GF107991999999999999999999MA1101901999999REMMET058METAR SBQV 261400Z 04008KT 9999 BKN015 BKN070 22/19 Q1019;
0143833440999992012112615004-14950-040883FM-15+0914SBQV V0200601N003610048019N0112651N1+02401+01901999999ADDGA1071+004801999GA2071+021001999GF107991999999999999999999MA1101801999999REMMET058METAR SBQV 261500Z 06007KT 9999 BKN016 BKN070 24/19 Q1018;
0143833440999992012112616004-14950-040883FM-15+0914SBQV V0200201N003610048019N0112651N1+02401+01901999999ADDGA1071+004801999GA2071+021001999GF107991999999999999999999MA1101801999999REMMET058METAR SBQV 261600Z 02007KT 9999 BKN016 BKN070 24/19 Q1018;
0143833440999992012112617004-14950-040883FM-15+0914SBQV V0203601N003110210019N0112651N1+02401+01901999999ADDGA1041+004801999GA2071+021001999GF107991999999999999999999MA1101691999999REMMET058METAR SBQV 261700Z 36006KT 9999 SCT016 BKN070 24/19 Q1017;
0143833440999992012112618004-14950-040883FM-15+0914SBQV V0203501N003110240019N0112651N1+02401+01901999999ADDGA1041+005401999GA2071+024001999GF107991999999999999999999MA1101691999999REMMET058METAR SBQV 261800Z 35006KT 9999 SCT018 BKN080 24/19 Q1017;
0143833440999992012112619004-14950-040883FM-15+0914SBQV V0203101N002110210019N0112651N1+02401+02001999999ADDGA1041+005401999GA2071+021001999GF107991999999999999999999MA1101591999999REMMET058METAR SBQV 261900Z 31004KT 9999 SCT018 BKN070 24/20 Q1016;
0143833440999992012112620004-14950-040883FM-15+0914SBQV V0203101N001510240019N0112651N1+02301+02001999999ADDGA1021+005401999GA2081+024001999GF108991999999999999999999MA1101591999999REMMET058METAR SBQV 262000Z 31003KT 9999 FEW018 OVC080 23/20 Q1016;
0143833440999992012112621004-14950-040883FM-15+0914SBQV V0202301N001510210019N0112651N1+02201+02101999999ADDGA1021+004801999GA2081+021001999GF108991999999999999999999MA1101591999999REMMET058METAR SBQV 262100Z 23003KT 9999 FEW016 OVC070 22/21 Q1016;
0143833440999992012112622004-14950-040883FM-15+0914SBQV V0201701N001510210019N0112651N1+02201+02101999999ADDGA1041+001801999GA2081+021001999GF108991999999999999999999MA1101691999999REMMET058METAR SBQV 262200Z 17003KT 9999 SCT006 OVC070 22/21 Q1017;
0143833440999992012112623004-14950-040883FM-15+0914SBQV V0201301N003110210019N0112651N1+02201+02101999999ADDGA1041+001801999GA2081+021001999GF108991999999999999999999MA1101691999999REMMET058METAR SBQV 262300Z 13006KT 9999 SCT006 OVC070 22/21 Q1017;
0143833440999992012112700004-14950-040883FM-15+0914SBQV V0201301N001510210019N0112651N1+02201+02101999999ADDGA1041+001801999GA2081+021001999GF108991999999999999999999MA1101801999999REMMET058METAR SBQV 270000Z 13003KT 9999 SCT006 OVC070 22/21 Q1018;
0143833440999992012112701004-14950-040883FM-15+0914SBQV V0201001N002610210019N0112651N1+02101+02001999999ADDGA1021+001801999GA2081+021001999GF108991999999999999999999MA1101801999999REMMET058METAR SBQV 270100Z 10005KT 9999 FEW006 OVC070 21/20 Q1018;
0143833440999992012112708004-14950-040883FM-15+0914SBQV V0200601N004612200019N0112651N1+02001+01801999999ADDGA1021+002101999GA2041+021001999GF104991999999999999999999MA1101691999999REMMET058METAR SBQV 270800Z 06009KT 9999 FEW007 SCT070 20/18 Q1017;
0143833440999992012112709004-14950-040883FM-15+0914SBQV V0200401N003112200019N0112651N1+02001+01901999999ADDGA1041+002701999GA2041+021001999GF104991999999999999999999MA1101801999999REMMET058METAR SBQV 270900Z 04006KT 9999 SCT009 SCT070 20/19 Q1018;
0143833440999992012112710004-14950-040883FM-15+0914SBQV V0200401N005112200019N0112651N1+02101+01801999999ADDGA1041+003301999GA2041+021001999GF104991999999999999999999MA1101801999999REMMET058METAR SBQV 271000Z 04010KT 9999 SCT011 SCT070 21/18 Q1018;
0143833440999992012112711004-14950-040883FM-15+0914SBQV V0200501N005710210019N0112651N1+02101+01801999999ADDGA1041+003901999GA2071+021001999GF107991999999999999999999MA1101801999999REMMET058METAR SBQV 271100Z 05011KT 9999 SCT013 BKN070 21/18 Q1018;
0143833440999992012112712004-14950-040883FM-15+0914SBQV V0200301N004110210019N0112651N1+02201+01801999999ADDGA1041+004501999GA2071+021001999GF107991999999999999999999MA1101901999999REMMET058METAR SBQV 271200Z 03008KT 9999 SCT015 BKN070 22/18 Q1019;
0143833440999992012112713004-14950-040883FM-15+0914SBQV V0200301N004610210019N0112651N1+02301+01801999999ADDGA1041+004801999GA2071+021001999GF107991999999999999999999MA1101901999999REMMET058METAR SBQV 271300Z 03009KT 9999 SCT016 BKN070 23/18 Q1019;
0144833440999992012112714004-14950-040883FM-15+0914SBQV V0200201N00461005401CN0112651N1+02401+01801999999ADDGA1071+005401999GA2041+024001999MA1101901999999REMMET066METAR SBQV 271400Z 02009KT 350V050 9999 BKN018 SCT080 24/18 Q1019;EQDQ01+000042SCOTCV
0143833440999992012112715004-14950-040883FM-15+0914SBQV V0200501N003610054019N0112651N1+02501+01701999999ADDGA1071+005401999GA2071+024001999GF107991999999999999999999MA1101801999999REMMET058METAR SBQV 271500Z 05007KT 9999 BKN018 BKN080 25/17 Q1018;
0143833440999992012112716004-14950-040883FM-15+0914SBQV V0203401N003110240019N0112651N1+02501+01801999999ADDGA1021+005401999GA2071+024001999GF107991999999999999999999MA1101691999999REMMET058METAR SBQV 271600Z 34006KT 9999 FEW018 BKN080 25/18 Q1017;
0143833440999992012112719004-14950-040883FM-15+0914SBQV V0200501N002110240019N0112651N1+02501+01701999999ADDGA1021+005401999GA2071+024001999GF107991999999999999999999MA1101391999999REMMET058METAR SBQV 271900Z 05004KT 9999 FEW018 BKN080 25/17 Q1014;
0143833440999992012112722004-14950-040883FM-15+0914SBQV V0201001N004110240019N0112651N1+02201+02001999999ADDGA1041+004801999GA2081+024001999GF108991999999999999999999MA1101391999999REMMET058METAR SBQV 272200Z 10008KT 9999 SCT016 OVC080 22/20 Q1014;
0143833440999992012112723004-14950-040883FM-15+0914SBQV V0200901N002610240019N0112651N1+02201+01901999999ADDGA1041+004801999GA2071+024001999GF107991999999999999999999MA1101491999999REMMET058METAR SBQV 272300Z 09005KT 9999 SCT016 BKN080 22/19 Q1015;
0143833440999992012112802004-14950-040883FM-15+0914SBQV V0200701N003610240019N0112651N1+02101+01901999999ADDGA1021+003901999GA2081+024001999GF108991999999999999999999MA1101591999999REMMET058METAR SBQV 280200Z 07007KT 9999 FEW013 OVC080 21/19 Q1016;
0143833440999992012112808004-14950-040883FM-15+0914SBQV V0200501N004110240019N0112651N1+01901+01801999999ADDGA1021+004501999GA2081+024001999GF108991999999999999999999MA1101391999999REMMET058METAR SBQV 280800Z 05008KT 9999 FEW015 OVC080 19/18 Q1014;
0143833440999992012112811004-14950-040883FM-15+0914SBQV V0200201N004110240019N0112651N1+02101+01801999999ADDGA1021+004501999GA2081+024001999GF108991999999999999999999MA1101591999999REMMET058METAR SBQV 281100Z 02008KT 9999 FEW015 OVC080 21/18 Q1016;
0143833440999992012112815004-14950-040883FM-15+0914SBQV V0200101N004110240019N0112651N1+02401+01801999999ADDGA1041+005401999GA2081+024001999GF108991999999999999999999MA1101691999999REMMET058METAR SBQV 281500Z 01008KT 9999 SCT018 OVC080 24/18 Q1017;
0143833440999992012112817004-14950-040883FM-15+0914SBQV V0203301N003110054019N0112651N1+02501+01801999999ADDGA1071+005401999GA2081+024001999GF108991999999999999999999MA1101491999999REMMET058METAR SBQV 281700Z 33006KT 9999 BKN018 OVC080 25/18 Q1015;
0072833440999992012112901004-14950-040883FM-15+0914SBQV V0209999C000019999999Y0099001N1+02101+01901999999ADDMA1101801999999REMMET045METAR SBQV 290100Z 00000KT CAVOK 21/19 Q1018;
0143833440999992012112908004-14950-040883FM-15+0914SBQV V0203601N002110240019N0112651N1+02101+01901999999ADDGA1021+003601999GA2071+024001999GF107991999999999999999999MA1101591999999REMMET058METAR SBQV 290800Z 36004KT 9999 FEW012 BKN080 21/19 Q1016;
0143833440999992012112910004-14950-040883FM-15+0914SBQV V0200201N001010240019N0112651N1+02201+01901999999ADDGA1021+003901999GA2081+024001999GF108991999999999999999999MA1101691999999REMMET058METAR SBQV 291000Z 02002KT 9999 FEW013 OVC080 22/19 Q1017;
0143833440999992012112911004-14950-040883FM-15+0914SBQV V0200801N003110240019N0112651N1+02201+02001999999ADDGA1021+004501999GA2071+024001999GF107991999999999999999999MA1101691999999REMMET058METAR SBQV 291100Z 08006KT 9999 FEW015 BKN080 22/20 Q1017;
0143833440999992012112914004-14950-040883FM-15+0914SBQV V0203401N002110270019N0112651N1+02501+01901999999ADDGA1041+006001999GA2071+027001999GF107991999999999999999999MA1101691999999REMMET058METAR SBQV 291400Z 34004KT 9999 SCT020 BKN090 25/19 Q1017;
0139833440999992012112917004-14950-040883FM-15+0914SBQV V0202901N002612200019N0112651N1+02801+02001999999ADDGA1041+006001999GA2021+007501021MA1101391999999REMMET061METAR SBQV 291700Z 29005KT 9999 SCT020 FEW025TCU 28/20 Q1014;EQDQ01+000022SCOTCV
0136833440999992012112918004-14950-040883FM-15+0914SBQV V0201101N00361006001CN0112651N1+02601+02101999999ADDGA1071+006001999GA2041+027001999MA1101391999999REMMET058METAR SBQV 291800Z 11007KT 9999 BKN020 SCT090 26/21 Q1014;EQDQ01+000042SCOTCV
0143833440999992012113003004-14950-040883FM-15+0914SBQV V0201001N005112200019N0112651N1+02101+02001999999ADDGA1021+002401999GA2041+021001999GF104991999999999999999999MA1101591999999REMMET058METAR SBQV 300300Z 10010KT 9999 FEW008 SCT070 21/20 Q1016;
0143833440999992012113011004-14950-040883FM-15+0914SBQV V0200601N003110240019N0112651N1+02001+02001999999ADDGA1041+003001999GA2081+024001999GF108991999999999999999999MA1101901999999REMMET058METAR SBQV 301100Z 06006KT 9999 SCT010 OVC080 20/20 Q1019;
0120833440999992012113014004-14950-040883FM-15+0914SBQV V0201001N006210075019N0112651N1+02701+01701999999ADDGA1071+007501999GF107991999999999999999999MA1101801999999REMMET051METAR SBQV 301400Z 10012KT 9999 BKN025 27/17 Q1018;
0120833440999992012113015004-14950-040883FM-15+0914SBQV V0201201N005710075019N0112651N1+02701+01801999999ADDGA1071+007501999GF107991999999999999999999MA1101801999999REMMET051METAR SBQV 301500Z 12011KT 9999 BKN025 27/18 Q1018;
0146833440999992012113017004-14950-040883FM-15+0914SBQV V0201101N008210075019N0112651N1+02501+02001999999ADDGA1021+006001021GA2071+007501999GF107991999999999999999999MA1101691999999REMMET061METAR SBQV 301700Z 11016KT 9999 FEW020TCU BKN025 25/20 Q1017;
0123833440999992012113019004-14950-040883FM-15+0914SBQV V0201401N005712200019N0112651N1+02501+02001999999ADDGA1021+006001021GF102991999999999999999999MA1101591999999REMMET054METAR SBQV 301900Z 14011KT 9999 FEW020TCU 25/20 Q1016;
0120833440999992012113022004-14950-040883FM-15+0914SBQV V0201001N003612200019N0112651N1+02101+02001999999ADDGA1041+002401999GF104991999999999999999999MA1101691999999REMMET051METAR SBQV 302200Z 10007KT 9999 SCT008 21/20 Q1017;
0120833440999992012120100004-14950-040883FM-15+0914SBQV V0200701N004612200019N0112651N1+02101+02001999999ADDGA1041+001801999GF104991999999999999999999MA1101901999999REMMET051METAR SBQV 010000Z 07009KT 9999 SCT006 21/20 Q1019;
0120833440999992012120102004-14950-040883FM-15+0914SBQV V0200801N005112200019N0112651N1+01901+01801999999ADDGA1041+002101999GF104991999999999999999999MA1101901999999REMMET051METAR SBQV 010200Z 08010KT 9999 SCT007 19/18 Q1019;
0120833440999992012120108004-14950-040883FM-15+0914SBQV V0200901N002112200019N0112651N1+01801+01701999999ADDGA1021+003001999GF102991999999999999999999MA1101901999999REMMET051METAR SBQV 010800Z 09004KT 9999 FEW010 18/17 Q1019;
0120833440999992012120109004-14950-040883FM-15+0914SBQV V0201201N002110033019N0112651N1+01901+01801999999ADDGA1071+003301999GF107991999999999999999999MA1101901999999REMMET051METAR SBQV 010900Z 12004KT 9999 BKN011 19/18 Q1019;
0120833440999992012120112004-14950-040883FM-15+0914SBQV V0200801N004110045019N0112651N1+02201+01801999999ADDGA1071+004501999GF107991999999999999999999MA1102001999999REMMET051METAR SBQV 011200Z 08008KT 9999 BKN015 22/18 Q1020;
0120833440999992012120113004-14950-040883FM-15+0914SBQV V0201101N004610060019N0112651N1+02501+01701999999ADDGA1071+006001999GF107991999999999999999999MA1102001999999REMMET051METAR SBQV 011300Z 11009KT 9999 BKN020 25/17 Q1020;
0120833440999992012120117004-14950-040883FM-15+0914SBQV V0200701N003610060019N0112651N1+02701+01501999999ADDGA1071+006001999GF107991999999999999999999MA1101691999999REMMET051METAR SBQV 011700Z 07007KT 9999 BKN020 27/15 Q1017;
0120833440999992012120120004-14950-040883FM-15+0914SBQV V0201101N004612200019N0112651N1+02601+01601999999ADDGA1021+007501999GF102991999999999999999999MA1101591999999REMMET051METAR SBQV 012000Z 11009KT 9999 FEW025 26/16 Q1016;
0072833440999992012120201004-14950-040883FM-15+0914SBQV V0201001N005119999999Y0099001N1+02101+01901999999ADDMA1101801999999REMMET045METAR SBQV 020100Z 10010KT CAVOK 21/19 Q1018;
0120833440999992012120208004-14950-040883FM-15+0914SBQV V0200801N004112200019N0112651N1+01801+01601999999ADDGA1021+003901999GF102991999999999999999999MA1101801999999REMMET051METAR SBQV 020800Z 08008KT 9999 FEW013 18/16 Q1018;
0120833440999992012120209004-14950-040883FM-15+0914SBQV V0200701N005712200019N0112651N1+01801+01601999999ADDGA1021+004501999GF102991999999999999999999MA1101801999999REMMET051METAR SBQV 020900Z 07011KT 9999 FEW015 18/16 Q1018;
0120833440999992012120210004-14950-040883FM-15+0914SBQV V0200701N004612200019N0112651N1+02101+01701999999ADDGA1021+004501999GF102991999999999999999999MA1101801999999REMMET051METAR SBQV 021000Z 07009KT 9999 FEW015 21/17 Q1018;
0120833440999992012120211004-14950-040883FM-15+0914SBQV V0200501N003112200019N0112651N1+02201+01701999999ADDGA1021+004801999GF102991999999999999999999MA1101901999999REMMET051METAR SBQV 021100Z 05006KT 9999 FEW016 22/17 Q1019;
0120833440999992012120212004-14950-040883FM-15+0914SBQV V0200301N004112200019N0112651N1+02401+01701999999ADDGA1041+005401999GF104991999999999999999999MA1101901999999REMMET051METAR SBQV 021200Z 03008KT 9999 SCT018 24/17 Q1019;
0120833440999992012120213004-14950-040883FM-15+0914SBQV V0200301N002612200019N0112651N1+02601+01501999999ADDGA1041+006001999GF104991999999999999999999MA1101901999999REMMET051METAR SBQV 021300Z 03005KT 9999 SCT020 26/15 Q1019;
0120833440999992012120215004-14950-040883FM-15+0914SBQV V0200401N003112200019N0112651N1+02701+01501999999ADDGA1041+007501999GF104991999999999999999999MA1101801999999REMMET051METAR SBQV 021500Z 04006KT 9999 SCT025 27/15 Q1018;
0120833440999992012120220004-14950-040883FM-15+0914SBQV V0201101N005112200019N0112651N1+02601+01501999999ADDGA1021+007501999GF102991999999999999999999MA1101591999999REMMET051METAR SBQV 022000Z 11010KT 9999 FEW025 26/15 Q1016;
0072833440999992012120301004-14950-040883FM-15+0914SBQV V0201001N004119999999Y0099001N1+02001+01901999999ADDMA1101801999999REMMET045METAR SBQV 030100Z 10008KT CAVOK 20/19 Q1018;
0120833440999992012120302004-14950-040883FM-15+0914SBQV V0201001N004612200019N0112651N1+01901+01901999999ADDGA1021+002101999GF102991999999999999999999MA1101801999999REMMET051METAR SBQV 030200Z 10009KT 9999 FEW007 19/19 Q1018;
0120833440999992012120311004-14950-040883FM-15+0914SBQV V0201001N004110045019N0112651N1+02101+01801999999ADDGA1071+004501999GF107991999999999999999999MA1101901999999REMMET051METAR SBQV 031100Z 10008KT 9999 BKN015 21/18 Q1019;
0120833440999992012120314004-14950-040883FM-15+0914SBQV V0200901N002112200019N0112651N1+02501+01701999999ADDGA1041+006001999GF104991999999999999999999MA1101901999999REMMET051METAR SBQV 031400Z 09004KT 9999 SCT020 25/17 Q1019;
0120833440999992012120319004-14950-040883FM-15+0914SBQV V0201401N005712200019N0112651N1+02701+01801999999ADDGA1021+007501999GF102991999999999999999999MA1101591999999REMMET051METAR SBQV 031900Z 14011KT 9999 FEW025 27/18 Q1016;
0120833440999992012120320004-14950-040883FM-15+0914SBQV V0201201N005112200019N0112651N1+02601+01701999999ADDGA1021+007501999GF102991999999999999999999MA1101591999999REMMET051METAR SBQV 032000Z 12010KT 9999 FEW025 26/17 Q1016;
0072833440999992012120401004-14950-040883FM-15+0914SBQV V0200801N004619999999Y0099001N1+02101+01901999999ADDMA1101901999999REMMET045METAR SBQV 040100Z 08009KT CAVOK 21/19 Q1019;
0120833440999992012120408004-14950-040883FM-15+0914SBQV V0200601N004112200019N0112651N1+01801+01801999999ADDGA1041+002401999GF104991999999999999999999MA1101801999999REMMET051METAR SBQV 040800Z 06008KT 9999 SCT008 18/18 Q1018;
0120833440999992012120411004-14950-040883FM-15+0914SBQV V0200501N002112200019N0112651N1+02201+01801999999ADDGA1041+003901999GF104991999999999999999999MA1102101999999REMMET051METAR SBQV 041100Z 05004KT 9999 SCT013 22/18 Q1021;
0120833440999992012120412004-14950-040883FM-15+0914SBQV V0200501N002612200019N0112651N1+02301+01801999999ADDGA1041+004501999GF104991999999999999999999MA1102101999999REMMET051METAR SBQV 041200Z 05005KT 9999 SCT015 23/18 Q1021;
0120833440999992012120415004-14950-040883FM-15+0914SBQV V0201201N003110060019N0112651N1+02601+01801999999ADDGA1071+006001999GF107991999999999999999999MA1102001999999REMMET051METAR SBQV 041500Z 12006KT 9999 BKN020 26/18 Q1020;
0120833440999992012120416004-14950-040883FM-15+0914SBQV V0201401N005110060019N0112651N1+02601+01901999999ADDGA1071+006001999GF107991999999999999999999MA1101901999999REMMET051METAR SBQV 041600Z 14010KT 9999 BKN020 26/19 Q1019;
0120833440999992012120418004-14950-040883FM-15+0914SBQV V0201501N004610060019N0112651N1+02601+01801999999ADDGA1071+006001999GF107991999999999999999999MA1101801999999REMMET051METAR SBQV 041800Z 15009KT 9999 BKN020 26/18 Q1018;
0072833440999992012120423004-14950-040883FM-15+0914SBQV V0201101N003619999999Y0099001N1+02201+01701999999ADDMA1101901999999REMMET045METAR SBQV 042300Z 11007KT CAVOK 22/17 Q1019;
0120833440999992012120510004-14950-040883FM-15+0914SBQV V0201001N003612200019N0112651N1+02001+01801999999ADDGA1041+003601999GF104991999999999999999999MA1102001999999REMMET051METAR SBQV 051000Z 10007KT 9999 SCT012 20/18 Q1020;
0120833440999992012120511004-14950-040883FM-15+0914SBQV V0200901N004112200019N0112651N1+02201+01801999999ADDGA1041+004501999GF104991999999999999999999MA1102001999999REMMET051METAR SBQV 051100Z 09008KT 9999 SCT015 22/18 Q1020;
0120833440999992012120512004-14950-040883FM-15+0914SBQV V0200801N003610048019N0112651N1+02301+01801999999ADDGA1071+004801999GF107991999999999999999999MA1102001999999REMMET051METAR SBQV 051200Z 08007KT 9999 BKN016 23/18 Q1020;
0120833440999992012120513004-14950-040883FM-15+0914SBQV V0201101N004110060019N0112651N1+02501+01701999999ADDGA1071+006001999GF107991999999999999999999MA1102001999999REMMET051METAR SBQV 051300Z 11008KT 9999 BKN020 25/17 Q1020;
0120833440999992012120518004-14950-040883FM-15+0914SBQV V0201101N003612200019N0112651N1+02801+01601999999ADDGA1021+007501999GF102991999999999999999999MA1101591999999REMMET051METAR SBQV 051800Z 11007KT 9999 FEW025 28/16 Q1016;
0072833440999992012120522004-14950-040883FM-15+0914SBQV V0201201N003619999999Y0099001N1+02301+01701999999ADDMA1101591999999REMMET045METAR SBQV 052200Z 12007KT CAVOK 23/17 Q1016;
0072833440999992012120600004-14950-040883FM-15+0914SBQV V0200701N005119999999Y0099001N1+02101+01901999999ADDMA1101691999999REMMET045METAR SBQV 060000Z 07010KT CAVOK 21/19 Q1017;
0072833440999992012120601004-14950-040883FM-15+0914SBQV V0201101N004119999999Y0099001N1+02001+01901999999ADDMA1101691999999REMMET045METAR SBQV 060100Z 11008KT CAVOK 20/19 Q1017;
0120833440999992012120610004-14950-040883FM-15+0914SBQV V0200701N002112200019N0112651N1+02101+01801999999ADDGA1041+004501999GF104991999999999999999999MA1101801999999REMMET051METAR SBQV 061000Z 07004KT 9999 SCT015 21/18 Q1018;
0120833440999992012120615004-14950-040883FM-15+0914SBQV V0200201N001010060019N0112651N1+02701+01601999999ADDGA1071+006001999GF107991999999999999999999MA1101691999999REMMET051METAR SBQV 061500Z 02002KT 9999 BKN020 27/16 Q1017;
0120833440999992012120616004-14950-040883FM-15+0914SBQV V0201101N003110060019N0112651N1+02801+01701999999ADDGA1071+006001999GF107991999999999999999999MA1101591999999REMMET051METAR SBQV 061600Z 11006KT 9999 BKN020 28/17 Q1016;
0120833440999992012120617004-14950-040883FM-15+0914SBQV V0201001N005110060019N0112651N1+02801+01801999999ADDGA1071+006001999GF107991999999999999999999MA1101591999999REMMET051METAR SBQV 061700Z 10010KT 9999 BKN020 28/18 Q1016;
0104833440999992012120620004-14950-040883FM-15+0914SBQV V0201301N005112200019N0112651N1+02701+01701999999ADDGA1021+007501999GF102991999999999999999999REMMET050METAR SBQV 062000Z 13010KT 9999 FEW025 27/17 Q015;
0072833440999992012120701004-14950-040883FM-15+0914SBQV V0200801N005719999999Y0099001N1+02001+01801999999ADDMA1101591999999REMMET045METAR SBQV 070100Z 08011KT CAVOK 20/18 Q1016;
0120833440999992012120708004-14950-040883FM-15+0914SBQV V0200601N003110033019N0112651N1+02001+01801999999ADDGA1071+003301999GF107991999999999999999999MA1101691999999REMMET051METAR SBQV 070800Z 06006KT 9999 BKN011 20/18 Q1017;
0136833440999992012120709004-14950-040883FM-15+0914SBQV V0200601N00311003601CN0112651N1+02001+01801999999ADDGA1071+003601999GA2041+004501999MA1101801999999REMMET058METAR SBQV 070900Z 06006KT 9999 BKN012 SCT015 20/18 Q1018;EQDQ01+000042SCOTCV
0120833440999992012120712004-14950-040883FM-15+0914SBQV V0200401N003610048019N0112651N1+02401+01801999999ADDGA1071+004801999GF107991999999999999999999MA1101801999999REMMET051METAR SBQV 071200Z 04007KT 9999 BKN016 24/18 Q1018;
0120833440999992012120714004-14950-040883FM-15+0914SBQV V0200401N003610075019N0112651N1+02601+01701999999ADDGA1071+007501999GF107991999999999999999999MA1101801999999REMMET051METAR SBQV 071400Z 04007KT 9999 BKN025 26/17 Q1018;
0146833440999992012120716004-14950-040883FM-15+0914SBQV V0200801N002112200019N0112651N1+02801+01501999999ADDGA1021+007501021GA2041+009001999GF104991999999999999999999MA1101691999999REMMET061METAR SBQV 071600Z 08004KT 9999 FEW025TCU SCT030 28/15 Q1017;
0146833440999992012120720004-14950-040883FM-15+0914SBQV V0201301N004612200019N0112651N1+02601+01801999999ADDGA1021+006001021GA2041+007501999GF104991999999999999999999MA1101591999999REMMET061METAR SBQV 072000Z 13009KT 9999 FEW020TCU SCT025 26/18 Q1016;
0146833440999992012120721004-14950-040883FM-15+0914SBQV V0201101N004112200019N0112651N1+02501+01801999999ADDGA1021+005401021GA2041+006001999GF104991999999999999999999MA1101591999999REMMET061METAR SBQV 072100Z 11008KT 9999 FEW018TCU SCT020 25/18 Q1016;
0072833440999992012120800004-14950-040883FM-15+0914SBQV V0200901N005119999999Y0099001N1+02101+01901999999ADDMA1101801999999REMMET045METAR SBQV 080000Z 09010KT CAVOK 21/19 Q1018;
0072833440999992012120801004-14950-040883FM-15+0914SBQV V0201001N003619999999Y0099001N1+02101+01901999999ADDMA1101801999999REMMET045METAR SBQV 080100Z 10007KT CAVOK 21/19 Q1018;
0120833440999992012120809004-14950-040883FM-15+0914SBQV V0200501N002612200019N0112651N1+01801+01701999999ADDGA1021+001501999GF102991999999999999999999MA1101801999999REMMET051METAR SBQV 080900Z 05005KT 9999 FEW005 18/17 Q1018;
0120833440999992012120810004-14950-040883FM-15+0914SBQV V0200301N002112200019N0112651N1+02001+01801999999ADDGA1041+004501999GF104991999999999999999999MA1101901999999REMMET051METAR SBQV 081000Z 03004KT 9999 SCT015 20/18 Q1019;
0120833440999992012120813004-14950-040883FM-15+0914SBQV V0200301N003612200019N0112651N1+02501+01801999999ADDGA1041+007501999GF104991999999999999999999MA1102001999999REMMET051METAR SBQV 081300Z 03007KT 9999 SCT025 25/18 Q1020;
0120833440999992012120818004-14950-040883FM-15+0914SBQV V0201001N002610090019N0112651N1+02801+01601999999ADDGA1071+009001999GF107991999999999999999999MA1101591999999REMMET051METAR SBQV 081800Z 10005KT 9999 BKN030 28/16 Q1016;
0120833440999992012120819004-14950-040883FM-15+0914SBQV V0201201N004610090019N0112651N1+02701+01901999999ADDGA1071+009001999GF107991999999999999999999MA1101491999999REMMET051METAR SBQV 081900Z 12009KT 9999 BKN030 27/19 Q1015;
0072833440999992012120900004-14950-040883FM-15+0914SBQV V0201001N002619999999Y0099001N1+02301+01801999999ADDMA1101691999999REMMET045METAR SBQV 090000Z 10005KT CAVOK 23/18 Q1017;
0120833440999992012120910004-14950-040883FM-15+0914SBQV V0200201N003612200019N0112651N1+02201+01901999999ADDGA1021+004801999GF102991999999999999999999MA1101801999999REMMET051METAR SBQV 091000Z 02007KT 9999 FEW016 22/19 Q1018;
0120833440999992012120912004-14950-040883FM-15+0914SBQV V0200501N002112200019N0112651N1+02501+02001999999ADDGA1021+006001999GF102991999999999999999999MA1101901999999REMMET051METAR SBQV 091200Z 05004KT 9999 FEW020 25/20 Q1019;
0120833440999992012120913004-14950-040883FM-15+0914SBQV V0201401N002112200019N0112651N1+02701+01901999999ADDGA1021+006001999GF102991999999999999999999MA1101901999999REMMET051METAR SBQV 091300Z 14004KT 9999 FEW020 27/19 Q1019;
0120833440999992012120916004-14950-040883FM-15+0914SBQV V0201701N002110090019N0112651N1+03001+01701999999ADDGA1071+009001999GF107991999999999999999999MA1101591999999REMMET051METAR SBQV 091600Z 17004KT 9999 BKN030 30/17 Q1016;
0120833440999992012120920004-14950-040883FM-15+0914SBQV V0200701N002112200019N0112651N1+02801+01701999999ADDGA1041+009001999GF104991999999999999999999MA1101391999999REMMET051METAR SBQV 092000Z 07004KT 9999 SCT030 28/17 Q1014;
0121833440999992012120922004-14950-040883FM-15+0914SBQV V0201101N003612200019N0112651N1+02601+01801999999ADDGA1021+006001999GF102991999999999999999999MA1101491999999REMMET052METAR SBQV 092200Z 110007KT 9999 FEW020 26/18 Q1015;
