0178823920999992011010100004-03700-040350FM-12+008399999V0200501N004112200019N0040001N1+02701+02131100761ADDGA1001+999999999GF100991001001999999001001KA1240M+03481MA1999999099741MD1999999-0021REMSYN082AAXX  01004 82392 32996 00508 10270 20213 39974 40076 333 10348 29062 55097 59002;
0156823920999992011010112004-03700-040350FM-12+008399999V0201401N003112200019N0500001N1+02771+01981100961ADDGF104991041021004501001001KA1240N+02081MA1999999099941MD1999999+0101REMSYN076AAXX  01124 82392 32499 41406 10277 20198 39994 40096 84200 333 20208 58010;
0137823920999992011010118004-03700-040350FM-12+008399999V0201401N001010450019N0500001N1+03471+01661100451ADDGF105991041041004501031001MA1999999099451MD1999999+0011REMSYN070AAXX  01184 82392 32499 51402 10347 20166 39945 40045 84430 333 58001;
0178823920999992011010200004-03700-040350FM-12+008399999V0200501N005112200019N0040001N1+02801+01921100771ADDGA1001+999999999GF100991001001999999001001KA1240M+03581MA1999999099751MD1999999+0011REMSYN082AAXX  02004 82392 32996 00510 10280 20192 39975 40077 333 10358 29054 55109 58001;
0175823920999992011010212004-03700-040350FM-12+008399999V0200501N001019999999N0500001N1+02741+02021100821ADDGF105991999021004501001001KA1240N+02201MA1999999099801MD1999999-0141REMSYN076AAXX  02124 82392 32499 50502 10274 20202 39980 40082 83200 333 20220 59014;EQDQ01+000032SCOTLC
0137823920999992011010218004-03700-040350FM-12+008399999V0200501N003112200019N0500001N1+03501+01861100401ADDGF104991041041004501001001MA1999999099401MD1999999-0051REMSYN070AAXX  02184 82392 32499 40506 10350 20186 39940 40040 84400 333 59005;
0213823920999992011010300004-03700-040350FM-12+008399999V0202701N002110450019N0040001N1+02261+02161100891ADDAA106035191AY161061AY261061GF108991041071004501021001KA1240M+03541MA1999999099861MD1999999+0111MW1531REMSYN100AAXX  03004 82392 21496 82704 10226 20216 39986 40089 75366 84720 333 10354 29073 55073 58011 60351;
0201823920999992011010312004-03700-040350FM-12+008399999V0200901N001012200019N0500001N1+02661+02291100901ADDAA124038191AY161061AY261061GF104991041021004501001001KA1240N+02301MA1999999099871MD1999999+0071MW1021REMSYN088AAXX  03124 82392 21499 40902 10266 20229 39987 40090 70266 84200 333 20230 58007 60384;
0182823920999992011010318004-03700-040350FM-12+008399999V0202301N001010450019N0500001N1+02681+02281100531ADDAA106013091AY161061AY221061GF108991031061004501021999MA1999999099511MD1999999+0111MW1021REMSYN082AAXX  03184 82392 21499 82302 10268 20228 39951 40053 70262 8362/ 333 58011 60131;
0213823920999992011010400004-03700-040350FM-12+008399999V0203601N000512200019N0040001N1+02401+02261100781ADDAA106003091AY161061AY261061GF103991031001004501031001KA1240M+03201MA1999999099751MD1999999-0111MW1031REMSYN100AAXX  04004 82392 21496 33601 10240 20226 39975 40078 70366 83030 333 10320 29086 55054 59011 60031;
0192823920999992011010412004-03700-040350FM-12+008399999V0200501N002619999999N0500001N1+02781+02231100991ADDAA124016091GF105991999021004501001001KA1240N+02281MA1999999099971MD1999999+0101REMSYN082AAXX  04124 82392 22499 50505 10278 20223 39997 40099 84200 333 20228 58010 60164;EQDQ01+000042SCOTLC
0137823920999992011010418004-03700-040350FM-12+008399999V0202301N001010450019N0500001N1+03311+02071100531ADDGF105991031021004501031011MA1999999099521MD1999999+0011REMSYN070AAXX  04184 82392 32499 52302 10331 20207 39952 40053 83231 333 58001;
0178823920999992011010500004-03700-040350FM-12+008399999V0200501N001512200019N0040001N1+02691+02171100141ADDGA1001+999999999GF100991001001999999001001KA1240M+03201MA1999999099841MD1999999+0021REMSYN082AAXX  05004 82392 32996 00503 10269 20217 39984 40014 333 10320 29068 55089 58002;
0156823920999992011010512004-03700-040350FM-12+008399999V0201801N001010450019N0500001N1+02741+02261101021ADDGF108991041061004501021999KA1240N+02301MA1999999100001MD1999999+0031REMSYN076AAXX  05124 82392 32499 81802 10274 20226 30000 40102 8462/ 333 20230 58003;
0137823920999992011010518004-03700-040350FM-12+008399999V0201401N004110450019N0500001N1+03301+02181100561ADDGF108991041051004501021001MA1999999099561MD1999999+0041REMSYN070AAXX  05184 82392 32499 81408 10330 20218 39956 40056 84520 333 58004;
0168823920999992011010600004-03700-040350FM-12+008399999V0203601N002112200019N0040001N1+02631+02231100781ADDGF102991021001008001011001KA1240M+03381MA1999999099761MD1999999-0081REMSYN088AAXX  06004 82392 32596 23604 10263 20223 39976 40078 82010 333 10338 29071 55080 59008;
0156823920999992011010612004-03700-040350FM-12+008399999V0201401N001010042019N0500001N1+02771+02251100921ADDGF106991051041004501031001KA1240N+02181MA1999999099901MD1999999-0101REMSYN076AAXX  06124 82392 32499 61402 10277 20225 39990 40092 85430 333 20218 59010;
0137823920999992011010618004-03700-040350FM-12+008399999V0200901N000510450019N0500001N1+03391+01891100501ADDGF106991031021004501011011MA1999999099501MD1999999-0061REMSYN070AAXX  06184 82392 32499 60901 10339 20189 39950 40050 83211 333 59006;
0168823920999992011010700004-03700-040350FM-12+008399999V0200501N004112200019N0040001N1+02781+02161100741ADDGF103991031001004501031001KA1240M+03461MA1999999099721MD1999999-0041REMSYN088AAXX  07004 82392 32496 30508 10278 20216 39972 40074 83030 333 10346 29063 55101 59004;
0175823920999992011010712004-03700-040350FM-12+008399999V0201401N002619999999N0500001N1+02861+02231100921ADDGF105991999021004501001001KA1240N+02361MA1999999099901MD1999999+0001REMSYN076AAXX  07124 82392 32499 51405 10286 20223 39990 40092 84200 333 20236 58000;EQDQ01+000042SCOTLC
0137823920999992011010718004-03700-040350FM-12+008399999V0201401N000510042019N0500001N1+03261+02081100521ADDGF108991051061004501011999MA1999999099511MD1999999+0011REMSYN070AAXX  07184 82392 32499 81401 10326 20208 39951 40052 8561/ 333 58001;
0178823920999992011010800004-03700-040350FM-12+008399999V0200501N003112200019N0040001N1+02721+02151100821ADDGA1001+999999999GF100991001001999999001001KA1240M+03421MA1999999099801MD1999999+0081REMSYN082AAXX  08004 82392 32996 00506 10272 20215 39980 40082 333 10342 29065 55055 58008;
0156823920999992011010812004-03700-040350FM-12+008399999V0200501N002610450019N0500001N1+02721+02191101021ADDGF108991041061004501021999KA1240N+02451MA1999999100001MD1999999+0101REMSYN076AAXX  08124 82392 32499 80505 10272 20219 30000 40102 8462/ 333 20245 58010;
0137823920999992011010818004-03700-040350FM-12+008399999V0200501N004110450019N0500001N1+03001+02171100721ADDGF107991031051004501011001MA1999999099701MD1999999+0191REMSYN070AAXX  08184 82392 32499 70508 10300 20217 39970 40072 83510 333 58019;
0168823920999992011010900004-03700-040350FM-12+008399999V0200501N003112200019N0040001N1+02561+02191100921ADDGF103991031001004501031001KA1240M+03061MA1999999099901MD1999999+0101REMSYN088AAXX  09004 82392 32496 30506 10256 20219 39990 40092 83030 333 10306 29074 55004 58010;
0156823920999992011010912004-03700-040350FM-12+008399999V0200501N000510450019N0500001N1+02831+02241100951ADDGF105991041021004501031001KA1240N+02331MA1999999099931MD1999999-0071REMSYN076AAXX  09124 82392 32499 50501 10283 20224 39993 40095 84230 333 20233 59007;
0182823920999992011010918004-03700-040350FM-12+008399999V0200501N002110042019N0200001N1+02541+02311100651ADDAA106003091AY161061AY261061GF108991071061004501031999MA1999999099631MD1999999-0071MW1021REMSYN082AAXX  09184 82392 21498 80504 10254 20231 39963 40065 70266 8763/ 333 59007 60031;
0213823920999992011011000004-03700-040350FM-12+008399999V0209999C000010042019N0040001N1+02381+02311100971ADDAA106014091AY161061AY261061GF108991081051004501999999KA1240M+03241MA1999999099951MD1999999+0051MW1211REMSYN100AAXX  10004 82392 21496 80000 10238 20231 39995 40097 72166 885// 333 10324 29087 55042 58005 60141;
0201823920999992011011012004-03700-040350FM-12+008399999V0200501N001010450019N0100001N1+02201+02131101131ADDAA124033091AY161061AY261061GF108991041061004501021999KA1240N+02151MA1999999100101MD1999999+0071MW1611REMSYN088AAXX  10124 82392 21497 80502 10220 20213 30010 40113 76166 8462/ 333 20215 58007 60334;
0182823920999992011011018004-03700-040350FM-12+008399999V0203601N002610450019N0200001N1+02321+02271100901ADDAA106006191AY161061AY251061GF108991041071004501021999MA1999999099871MD1999999+0241MW1021REMSYN082AAXX  10184 82392 21498 83605 10232 20227 39987 40090 70265 8472/ 333 58024 60061;
0168823920999992011011100004-03700-040350FM-12+008399999V0209999C000010450019N0040001N1+02231+02191101061ADDGF105991031021004501011001KA1240M+02421MA1999999100021MD1999999+0071REMSYN088AAXX  11004 82392 32496 50000 10223 20219 30002 40106 83210 333 10242 29097 55000 58007;
0173823920999992011011112004-03700-040350FM-12+008399999V0202701N002110450019N0500001N1+02461+02321101131ADDAA124006191GF105991041011004501031001KA1240N+02101MA1999999100101MD1999999+0001REMSYN082AAXX  11124 82392 22499 52704 10246 20232 30010 40113 84130 333 20210 58000 60064;
0137823920999992011011118004-03700-040350FM-12+008399999V0200501N001010450019N0500001N1+03141+02041100751ADDGF106991031051004501021001MA1999999099731MD1999999-0141REMSYN070AAXX  11184 82392 32499 60502 10314 20204 39973 40075 83520 333 59014;
0178823920999992011011200004-03700-040350FM-12+008399999V0203601N000512200019N0040001N1+02531+02151100991ADDGA1001+999999999GF100991001001999999001001KA1240M+03201MA1999999099961MD1999999-0061REMSYN082AAXX  12004 82392 32996 03601 10253 20215 39996 40099 333 10320 29076 55080 59006;
0156823920999992011011212004-03700-040350FM-12+008399999V0200501N002610450019N0500001N1+02761+02251101081ADDGF107991041051004501031001KA1240N+02101MA1999999100061MD1999999-0041REMSYN076AAXX  12124 82392 32499 70505 10276 20225 30006 40108 84530 333 20210 59004;
0137823920999992011011218004-03700-040350FM-12+008399999V0200501N004610450019N0500001N1+03281+02481100761ADDGF108991031061004501021999MA1999999099741MD1999999+0011REMSYN070AAXX  12184 82392 32499 80509 10328 20248 39974 40076 8362/ 333 58001;
0168823920999992011011300004-03700-040350FM-12+008399999V0203601N000512200019N0040001N1+02611+02121101081ADDGF102991021001008001011001KA1240M+03331MA1999999100061MD1999999+0101REMSYN088AAXX  13004 82392 32596 23601 10261 20212 30006 40108 82010 333 10333 29071 55078 58010;
0156823920999992011011312004-03700-040350FM-12+008399999V0201401N000510450019N0500001N1+02731+02381101021ADDGF106991031051004501011021KA1240N+02261MA1999999100001MD1999999-0061REMSYN076AAXX  13124 82392 32499 61401 10273 20238 30000 40102 83512 333 20226 59006;
0182823920999992011011318004-03700-040350FM-12+008399999V0203601N000510450019N0500001N1+03021+02341100671ADDAA106002091AY161061AY261061GF107991041051004501031001MA1999999099651MD1999999-0091MW1021REMSYN082AAXX  13184 82392 21499 73601 10302 20234 39965 40067 70266 84530 333 59009 60021;
0168823920999992011011400004-03700-040350FM-12+008399999V0203601N003112200019N0040001N1+02561+02291100921ADDGF102991021001004501031001KA1240M+03221MA1999999099901MD1999999-0161REMSYN088AAXX  14004 82392 32496 23606 10256 20229 39990 40092 82030 333 10322 29080 55059 59016;
0173823920999992011011412004-03700-040350FM-12+008399999V0201801N001010450019N0500001N1+02621+02121101021ADDAA124002091GF108991031051004501021999KA1240N+02201MA1999999100001MD1999999+0001REMSYN082AAXX  14124 82392 22499 81802 10262 20212 30000 40102 8352/ 333 20220 58000 60024;
0137823920999992011011418004-03700-040350FM-12+008399999V0201401N000510450019N0500001N1+03101+02001100581ADDGF107991021021004501011001MA1999999099571MD1999999-0081REMSYN070AAXX  14184 82392 32499 71401 10310 20200 39957 40058 82210 333 59008;
0168823920999992011011500004-03700-040350FM-12+008399999V0200501N002612200019N0040001N1+02581+02011100861ADDGF102991021001004501031001KA1240M+03181MA1999999099841MD1999999-0061REMSYN088AAXX  15004 82392 32496 20505 10258 20201 39984 40086 82030 333 10318 29067 55058 59006;
0156823920999992011011512004-03700-040350FM-12+008399999V0203601N000512200019N0500001N1+02731+02171100961ADDGF104991021021004501001021KA1240N+02181MA1999999099941MD1999999-0061REMSYN076AAXX  15124 82392 32499 43601 10273 20217 39994 40096 82202 333 20218 59006;
0137823920999992011011518004-03700-040350FM-12+008399999V0202301N000510450019N0500001N1+03191+02151100541ADDGF107991031021004501011001MA1999999099531MD1999999-0041REMSYN070AAXX  15184 82392 32499 72301 10319 20215 39953 40054 83210 333 59004;
0168823920999992011011600004-03700-040350FM-12+008399999V0202601N001511050019N0040001N1+02611+02251100811ADDGF105991011011004501001021KA1240M+03311MA1999999099791MD1999999-0051REMSYN088AAXX  16004 82392 32496 52603 10261 20225 39979 40081 81102 333 10331 29071 55091 59005;
0156823920999992011011612004-03700-040350FM-12+008399999V0200501N001010042019N0500001N1+02641+02141100931ADDGF106991051051004501031001KA1240N+02301MA1999999099911MD1999999-0031REMSYN076AAXX  16124 82392 32499 60502 10264 20214 39991 40093 85530 333 20230 59003;
0137823920999992011011618004-03700-040350FM-12+008399999V0200501N003110450019N0500001N1+03321+02041100501ADDGF105991041021004501031001MA1999999099501MD1999999-0031REMSYN070AAXX  16184 82392 32499 50506 10332 20204 39950 40050 84230 333 59003;
0213823920999992011011700004-03700-040350FM-12+008399999V0203601N003110450019N0040001N1+02581+02171100971ADDAA106000891AY121061AY221061GF107991041041004501031001KA1240M+03381MA1999999099951MD1999999+0161MW1201REMSYN100AAXX  17004 82392 21496 73606 10258 20217 39995 40097 72022 84430 333 10338 29069 55011 58016 69981;
0173823920999992011011712004-03700-040350FM-12+008399999V0200901N002110450019N0500001N1+02681+02201101061ADDAA124000891GF106991041041004501031001KA1240N+02341MA1999999100041MD1999999+0131REMSYN082AAXX  17124 82392 22499 60904 10268 20220 30004 40106 84430 333 20234 58013 69984;
0182823920999992011011718004-03700-040350FM-12+008399999V0203601N001010042019N0500001N1+02661+02241100731ADDAA106009991AY121061AY221061GF107991051051004501011001MA1999999099701MD1999999+0201MW1201REMSYN082AAXX  17184 82392 21499 73602 10266 20224 39970 40073 72022 85510 333 58020 60101;
0168823920999992011011800004-03700-040350FM-12+008399999V0203601N000510450019N0040001N1+02491+02361100981ADDGF107991031051004501031001KA1240M+03301MA1999999099961MD1999999+0011REMSYN088AAXX  18004 82392 32496 73601 10249 20236 39996 40098 83530 333 10330 29084 55042 58001;
0173823920999992011011812004-03700-040350FM-12+008399999V0200501N004110042019N0500001N1+02721+02241101051ADDAA124009991GF107991051051004501031001KA1240N+02361MA1999999100031MD1999999-0011REMSYN082AAXX  18124 82392 22499 70508 10272 20224 30003 40105 85530 333 20236 59001 60104;
0182823920999992011011818004-03700-040350FM-12+008399999V0203601N002110042019N0500001N1+02591+02461100711ADDAA106003091AY161061AY261061GF106991051051004501031001MA1999999099681MD1999999-0021MW1021REMSYN082AAXX  18184 82392 21499 63604 10259 20246 39968 40071 70266 85530 333 59002 60031;
0213823920999992011011900004-03700-040350FM-12+008399999V0200501N001010042019N0040001N1+02251+02181100901ADDAA106004191AY161061AY261061GF108991051051004501031999KA1240M+03161MA1999999099871MD1999999-0091MW1201REMSYN100AAXX  19004 82392 21496 80502 10225 20218 39987 40090 72066 8553/ 333 10316 29089 55043 59009 60041;
0173823920999992011011912004-03700-040350FM-12+008399999V0200901N001510450019N0500001N1+02661+02181100881ADDAA124007191GF107991031041004501031001KA1240N+02151MA1999999099851MD1999999-0181REMSYN082AAXX  19124 82392 22499 70903 10266 20218 39985 40088 83430 333 20215 59018 60074;
0137823920999992011011918004-03700-040350FM-12+008399999V0203601N005110450019N0500001N1+02491+02211100621ADDGF108991031071004501021001MA1999999099601MD1999999-0081REMSYN070AAXX  19184 82392 32499 83610 10249 20221 39960 40062 83720 333 59008;
0168823920999992011012000004-03700-040350FM-12+008399999V0203601N001010450019N0040001N1+02331+02261100841ADDGF108991041051004501011001KA1240M+02981MA1999999099811MD1999999-0061REMSYN088AAXX  20004 82392 32496 83602 10233 20226 39981 40084 84510 333 10298 29087 55017 59006;
0220823920999992011012012004-03700-040350FM-12+008399999V0200901N000510042019N0500001N1+02431+02301100881ADDAA124000091AY151061AY251061GF108991061051004501011999KA1240N+02271MA1999999099851MD1999999+0001MW1021REMSYN088AAXX  20124 82392 21499 80901 10243 20230 39985 40088 70255 8651/ 333 20227 58000 69924;EQDQ01  00002PRCP24
0182823920999992011012018004-03700-040350FM-12+008399999V0203601N000510450019N0200001N1+02501+02091100631ADDAA106006191AY161061AY261061GF106991031051004501021999MA1999999099611MD1999999+0011MW1021REMSYN082AAXX  20184 82392 21498 63601 10250 20209 39961 40063 70266 8352/ 333 58001 60061;
0213823920999992011012100004-03700-040350FM-12+008399999V0202701N001010450019N0040001N1+02121+01931100831ADDAA106003091AY161061AY261061GF108991031061004501021999KA1240M+02641MA1999999099801MD1999999-0011MW1021REMSYN100AAXX  21004 82392 21496 82702 10212 20193 39980 40083 70266 8362/ 333 10264 29087 55000 59001 60031;
0173823920999992011012112004-03700-040350FM-12+008399999V0201801N000510450019N0500001N1+02401+02261100881ADDAA124007991GF108991041071004501021999KA1240N+02091MA1999999099851MD1999999+0001REMSYN082AAXX  21124 82392 22499 81801 10240 20226 39985 40088 8472/ 333 20209 58000 60084;
0137823920999992011012118004-03700-040350FM-12+008399999V0202301N001510450019N0500001N1+02951+02261100461ADDGF107991041051004501011001MA1999999099451MD1999999-0161REMSYN070AAXX  21184 82392 32499 72303 10295 20226 39945 40046 84510 333 59016;
0213823920999992011012200004-03700-040350FM-12+008399999V0200501N001010450019N0040001N1+02281+02161100811ADDAA106003091AY161061AY221061GF108991031071004501021999KA1240M+03001MA1999999099781MD1999999-0021MW1021REMSYN100AAXX  22004 82392 21496 80502 10228 20216 39978 40081 70262 8372/ 333 10300 29086 55016 59002 60031;
0201823920999992011012212004-03700-040350FM-12+008399999V0200501N000510042019N0500001N1+02381+02171100971ADDAA124003091AY161061AY251061GF108991061031004501021001KA1240N+02201MA1999999099941MD1999999+0091MW1021REMSYN088AAXX  22124 82392 21499 80501 10238 20217 39994 40097 70265 86320 333 20220 58009 60034;
0201823920999992011012218004-03700-040350FM-12+008399999V0203601N001010042019N0500001N1+02481+02291100731ADDAA106001091AY151061AY251061GF108991999021004501001001MA1999999099701MD1999999+0251MW1021REMSYN082AAXX  22184 82392 21499 83602 10248 20229 39970 40073 70255 86200 333 58025 60011;EQDQ01+000062SCOTLC
0168823920999992011012300004-03700-040350FM-12+008399999V0200501N001010450019N0040001N1+02321+02181100971ADDGF108991041071004501021999KA1240M+02541MA1999999099941MD1999999+0161REMSYN088AAXX  23004 82392 32496 80502 10232 20218 39994 40097 8472/ 333 10254 29090 55000 58016;
0173823920999992011012312004-03700-040350FM-12+008399999V0200901N000510450019N0500001N1+02661+02331101041ADDAA124001091GF106991021021004501031011KA1240N+02121MA1999999100011MD1999999+0071REMSYN082AAXX  23124 82392 22499 60901 10266 20233 30001 40104 82231 333 20212 58007 60014;
0137823920999992011012318004-03700-040350FM-12+008399999V0203601N000510450019N0500001N1+03111+02191100641ADDGF106991031021004501031001MA1999999099631MD1999999-0071REMSYN070AAXX  23184 82392 32499 63601 10311 20219 39963 40064 83230 333 59007;
0168823920999992011012400004-03700-040350FM-12+008399999V0203601N002610450019N0040001N1+02461+02301100881ADDGF106991041061004501021001KA1240M+03161MA1999999099861MD1999999-0081REMSYN088AAXX  24004 82392 32496 63605 10246 20230 39986 40088 84620 333 10316 29081 55077 59008;
0201823920999992011012412004-03700-040350FM-12+008399999V0200501N002110450019N0500001N1+02481+02341101031ADDAA124009991AY161061AY221061GF108991041061004501021999KA1240N+02281MA1999999100001MD1999999-0011MW1021REMSYN088AAXX  24124 82392 21499 80504 10248 20234 30000 40103 70262 8462/ 333 20228 59001 60104;
0182823920999992011012418004-03700-040350FM-12+008399999V0200501N002610450019N0500001N1+02521+02341100661ADDAA106000591AY151061AY221061GF108991041061004501021999MA1999999099641MD1999999+0011MW1031REMSYN082AAXX  24184 82392 21499 80505 10252 20234 39964 40066 70352 8462/ 333 58001 69941;
0213823920999992011012500004-03700-040350FM-12+008399999V0209999C000010042019N0040001N1+02281+02231101031ADDAA106029091AY161061AY261061GF108991051061004501021999KA1240M+02811MA1999999100001MD1999999+0141MW1551REMSYN100AAXX  25004 82392 21496 80000 10228 20223 30000 40103 75566 8562/ 333 10281 29094 55012 58014 60291;
0201823920999992011012512004-03700-040350FM-12+008399999V0200501N002110450019N0500001N1+02481+02191101011ADDAA124032091AY161061AY261061GF107991041051004501011001KA1240N+02201MA1999999099981MD1999999-0021MW1031REMSYN088AAXX  25124 82392 21499 70504 10248 20219 39998 40101 70366 84510 333 20220 59002 60324;
0201823920999992011012518004-03700-040350FM-12+008399999V0203601N001519999999N0500001N1+02571+02271100851ADDAA106005191AY161061AY261061GF107991999021004501001001MA1999999099821MD1999999+0181MW1021REMSYN082AAXX  25184 82392 21499 73603 10257 20227 39982 40085 70266 84200 333 58018 60051;EQDQ01+000042SCOTLC
0213823920999992011012600004-03700-040350FM-12+008399999V0200901N000510450019N0040001N1+02281+02211101141ADDAA106000891AY151061AY251061GF108991041051004501021999KA1240M+02641MA1999999100111MD1999999+0011MW1201REMSYN100AAXX  26004 82392 21496 80901 10228 20221 30011 40114 72055 8452/ 333 10264 29090 55006 58001 69981;
0173823920999992011012612004-03700-040350FM-12+008399999V0202301N000510450019N0500001N1+02441+02231101031ADDAA124006191GF106991031051004501031001KA1240N+02201MA1999999100001MD1999999+0021REMSYN082AAXX  26124 82392 22499 62301 10244 20223 30000 40103 83530 333 20220 58002 60064;
0137823920999992011012618004-03700-040350FM-12+008399999V0201401N002110450019N0500001N1+03121+02251100651ADDGF105991031021004501031001MA1999999099641MD1999999-0181REMSYN070AAXX  26184 82392 32499 51404 10312 20225 39964 40065 83230 333 59018;
0232823920999992011012700004-03700-040350FM-12+008399999V0203601N001010042019N0040001N1+02541+02331100911ADDAA106000091AY151061AY251061GF106991061021004501001001KA1240M+03211MA1999999099881MD1999999-0231MW1021REMSYN100AAXX  27004 82392 21496 63602 10254 20233 39988 40091 70255 86200 333 10321 29081 55081 59023 69911;EQDQ01  00002PRCP06
0192823920999992011012712004-03700-040350FM-12+008399999V0209999C000012200019N0500001N1+02741+02121101021ADDAA124000091GF103991031021004501001001KA1240N+02181MA1999999100001MD1999999+0001REMSYN082AAXX  27124 82392 22499 30000 10274 20212 30000 40102 83200 333 20218 58000 69914;EQDQ01  00002PRCP24
0137823920999992011012718004-03700-040350FM-12+008399999V0200901N001510042019N0500001N1+03261+02151100611ADDGF106991051051004501001011MA1999999099601MD1999999-0041REMSYN070AAXX  27184 82392 32499 60903 10326 20215 39960 40061 85501 333 59004;
0168823920999992011012800004-03700-040350FM-12+008399999V0200501N004112200019N0040001N1+02581+02421100811ADDGF103991031001999999031001KA1240M+03321MA1999999099791MD1999999-0091REMSYN088AAXX  28004 82392 32996 30508 10258 20242 39979 40081 83030 333 10332 29076 55108 59009;
0201823920999992011012812004-03700-040350FM-12+008399999V0200501N001010042019N0500001N1+02601+02371101121ADDAA124000591AY151061AY251061GF107991051051004501031001KA1240N+02401MA1999999100101MD1999999+0101MW1031REMSYN088AAXX  28124 82392 21499 70502 10260 20237 30010 40112 70355 85530 333 20240 58010 69964;
0182823920999992011012818004-03700-040350FM-12+008399999V0200901N000510042019N0500001N1+02721+02471100861ADDAA106001091AY101061AY221061GF107991051051004501061001MA1999999099841MD1999999+0241MW1211REMSYN082AAXX  28184 82392 21499 70901 10272 20247 39984 40086 72102 85560 333 58024 60011;
0178823920999992011012900004-03700-040350FM-12+008399999V0203601N000512200019N0040001N1+02461+02251101081ADDGA1001+999999999GF100991001001999999001001KA1240M+02941MA1999999100051MD1999999+0261REMSYN082AAXX  29004 82392 32996 03601 10246 20225 30005 40108 333 10294 29087 55025 58026;
0173823920999992011012912004-03700-040350FM-12+008399999V0200901N001010450019N0500001N1+02691+02281101311ADDAA124001091GF106991041051004501031001KA1240N+02161MA1999999100291MD1999999+0191REMSYN082AAXX  29124 82392 22499 60902 10269 20228 30029 40131 84530 333 20216 58019 60014;
0182823920999992011012918004-03700-040350FM-12+008399999V0203601N001510450019N0500001N1+02841+02261100971ADDAA106002091AY161061AY261061GF106991041051004501031001MA1999999099941MD1999999+0101MW1021REMSYN082AAXX  29184 82392 21499 63603 10284 20226 39994 40097 70266 84530 333 58010 60021;
0213823920999992011013000004-03700-040350FM-12+008399999V0209999C000010450019N0040001N1+02411+02331101271ADDAA106004191AY161061AY261061GF108991031051004501021999KA1240M+03121MA1999999100251MD1999999+0201MW1021REMSYN100AAXX  30004 82392 21496 80000 10241 20233 30025 40127 70266 8352/ 333 10312 29085 55071 58020 60041;
0173823920999992011013012004-03700-040350FM-12+008399999V0201801N001010450019N0500001N1+02581+02331101371ADDAA124006191GF107991031051004501011001KA1240N+02301MA1999999100341MD1999999+0051REMSYN082AAXX  30124 82392 22499 71802 10258 20233 30034 40137 83510 333 20230 58005 60064;
0137823920999992011013018004-03700-040350FM-12+008399999V0202701N000512200019N0500001N1+03081+02241100921ADDGF103991031021004501001001MA1999999099901MD1999999-0041REMSYN070AAXX  30184 82392 32499 32701 10308 20224 39990 40092 83200 333 59004;
0213823920999992011013100004-03700-040350FM-12+008399999V0200501N000510042019N0040001N1+02381+02091101171ADDAA106010991AY161061AY221061GF106991051051004501031001KA1240M+03201MA1999999100141MD1999999-0111MW1031REMSYN100AAXX  31004 82392 21496 60501 10238 20209 30014 40117 70362 85530 333 10320 29079 55063 59011 60111;
0173823920999992011013112004-03700-040350FM-12+008399999V0202301N001012200019N0500001N1+02561+02401101231ADDAA124010991GF104991021011004501031001KA1240N+02301MA1999999100201MD1999999-0141REMSYN082AAXX  31124 82392 22499 42302 10256 20240 30020 40123 82130 333 20230 59014 60114;
0182823920999992011013118004-03700-040350FM-12+008399999V0203601N001010450019N0200001N1+02381+02241100951ADDAA106016091AY151061AY251061GF108991031081004501021999MA1999999099921MD1999999+0021MW1611REMSYN082AAXX  31184 82392 21498 83602 10238 20224 39992 40095 76155 8382/ 333 58002 60161;
0232823920999992011020100004-03700-040350FM-12+008399999V0209999C000010450019N0040001N1+02451+02371101121ADDAA106015091AY161061AY261061GF108991041061004501021999KA1240M+03221MA1999999101092MD1999999-0051MW1021REMSYN100AAXX  01004 82392 21496 80000 10245 20237 30109 40112 70266 8462/ 333 10322 29093 55049 59005 60151;EQDQ01+101093APOSP 
0173823920999992011020112004-03700-040350FM-12+008399999V0201401N001510450019N0500001N1+02721+02301101201ADDAA124016091GF106991041051004501031001KA1240N+02401MA1999999100181MD1999999-0021REMSYN082AAXX  01124 82392 22499 61403 10272 20230 30018 40120 84530 333 20240 59002 60164;
0137823920999992011020118004-03700-040350FM-12+008399999V0200901N002112200019N0500001N1+03171+02361100801ADDGF104991021021004501011001MA1999999099781MD1999999-0141REMSYN070AAXX  01184 82392 32499 40904 10317 20236 39978 40080 82210 333 59014;
0168823920999992011020200004-03700-040350FM-12+008399999V0203601N001012200019N0040001N1+02641+02331101081ADDGF103991031021004501001001KA1240M+03261MA1999999100061MD1999999-0031REMSYN088AAXX  02004 82392 32496 33602 10264 20233 30006 40108 83200 333 10326 29077 55010 59003;
0156823920999992011020212004-03700-040350FM-12+008399999V0200901N002610450019N0500001N1+02801+02001101261ADDGF105991041021004501031001KA1240N+02281MA1999999100241MD1999999+0061REMSYN076AAXX  02124 82392 32499 50905 10280 20200 30024 40126 84230 333 20228 58006;
0137823920999992011020218004-03700-040350FM-12+008399999V0202701N001012200019N0500001N1+03241+02361100821ADDGF102991021011004501001001MA1999999099801MD1999999+0021REMSYN070AAXX  02184 82392 32499 22702 10324 20236 39980 40082 82100 333 58002;
0168823920999992011020300004-03700-040350FM-12+008399999V0200901N000510450019N0040001N1+02451+02251101071ADDGF106991031021004501021001KA1240M+03361MA1999999100051MD1999999-0011REMSYN088AAXX  03004 82392 32496 60901 10245 20225 30005 40107 83220 333 10336 29075 55106 59001;
0156823920999992011020312004-03700-040350FM-12+008399999V0201801N000510450019N0500001N1+02661+02291101111ADDGF106991031041004501031001KA1240N+02331MA1999999100091MD1999999-0151REMSYN076AAXX  03124 82392 32499 61801 10266 20229 30009 40111 83430 333 20233 59015;
0182823920999992011020318004-03700-040350FM-12+008399999V0202701N000510042019N0500001N1+02681+02281100731ADDAA106001091AY161061AY261061GF107991051041004501031001MA1999999099701MD1999999-0101MW1211REMSYN082AAXX  03184 82392 21499 72701 10268 20228 39970 40073 72166 85430 333 59010 60011;
0168823920999992011020400004-03700-040350FM-12+008399999V0203601N001012200019N0040001N1+02501+02211101001ADDGF102991021001004501031001KA1240M+03161MA1999999099981MD1999999-0071REMSYN088AAXX  04004 82392 32496 23602 10250 20221 39998 40100 82030 333 10316 29082 55050 59007;
0173823920999992011020412004-03700-040350FM-12+008399999V0201401N001012200019N0500001N1+02761+02211101061ADDAA124001091GF103991031021004501001001KA1240N+02211MA1999999100041MD1999999-0051REMSYN082AAXX  04124 82392 22499 31402 10276 20221 30004 40106 83200 333 20221 59005 60014;
0137823920999992011020418004-03700-040350FM-12+008399999V0200501N000512200019N0500001N1+03161+02121100631ADDGF104991021021004501031001MA1999999099621MD1999999-0081REMSYN070AAXX  04184 82392 32499 40501 10316 20212 39962 40063 82230 333 59008;
0178823920999992011020500004-03700-040350FM-12+008399999V0203601N003112200019N0040001N1+02581+02311100861ADDGA1001+999999999GF100991001001999999001001KA1240M+03261MA1999999099841MD1999999-0141REMSYN082AAXX  05004 82392 32996 03606 10258 20231 39984 40086 333 10326 29074 55100 59014;
0156823920999992011020512004-03700-040350FM-12+008399999V0200901N002612200019N0500001N1+02721+02301100971ADDGF104991041021004501001001KA1240N+02211MA1999999099951MD1999999-0091REMSYN076AAXX  05124 82392 32499 40905 10272 20230 39995 40097 84200 333 20221 59009;
0137823920999992011020518004-03700-040350FM-12+008399999V0200901N004112200019N0500001N1+03161+02341100611ADDGF104991031011004501031001MA1999999099601MD1999999-0021REMSYN070AAXX  05184 82392 32499 40908 10316 20234 39960 40061 83130 333 59002;
0178823920999992011020600004-03700-040350FM-12+008399999V0203601N002112200019N0040001N1+02501+02071100871ADDGA1001+999999999GF100991001001999999001001KA1240M+03281MA1999999099851MD1999999+0011REMSYN082AAXX  06004 82392 32996 03604 10250 20207 39985 40087 333 10328 29074 55102 58001;
0156823920999992011020612004-03700-040350FM-12+008399999V0200901N001510042019N0500001N1+02711+02391101011ADDGF106991061041004501001001KA1240N+02171MA1999999099991MD1999999+0041REMSYN076AAXX  06124 82392 32499 60903 10271 20239 39999 40101 86400 333 20217 58004;
0137823920999992011020618004-03700-040350FM-12+008399999V0200901N000510450019N0500001N1+03111+02281100701ADDGF106991031021004501031001MA1999999099681MD1999999+0081REMSYN070AAXX  06184 82392 32499 60901 10311 20228 39968 40070 83230 333 58008;
0168823920999992011020700004-03700-040350FM-12+008399999V0209999C000012200019N0040001N1+02621+02331100881ADDGF102991021021004501001001KA1240M+03221MA1999999099861MD1999999+0011REMSYN088AAXX  07004 82392 32496 20000 10262 20233 39986 40088 82200 333 10322 29078 55095 58001;
0156823920999992011020712004-03700-040350FM-12+008399999V0200501N002110450019N0500001N1+02801+02181101171ADDGF105991041021004501031001KA1240N+02261MA1999999100151MD1999999+0161REMSYN076AAXX  07124 82392 32499 50504 10280 20218 30015 40117 84230 333 20226 58016;
0137823920999992011020718004-03700-040350FM-12+008399999V0200501N003112200019N0500001N1+03121+01951100791ADDGF103991031021004501001001MA1999999099771MD1999999+0091REMSYN070AAXX  07184 82392 32499 30506 10312 20195 39977 40079 83200 333 58009;
0168823920999992011020800004-03700-040350FM-12+008399999V0203601N000512200019N0040001N1+02541+02311101011ADDGF102991021011004501001001KA1240M+03261MA1999999099991MD1999999+0131REMSYN088AAXX  08004 82392 32496 23601 10254 20231 39999 40101 82100 333 10326 29073 55074 58013;
0156823920999992011020812004-03700-040350FM-12+008399999V0200901N002612200019N0500001N1+02741+02141101171ADDGF104991041021004501001001KA1240N+02301MA1999999100151MD1999999+0001REMSYN076AAXX  08124 82392 32499 40905 10274 20214 30015 40117 84200 333 20230 58000;
0137823920999992011020818004-03700-040350FM-12+008399999V0200901N001012200019N0500001N1+03191+02241100851ADDGF102991011021004501031001MA1999999099831MD1999999+0061REMSYN070AAXX  08184 82392 32499 20902 10319 20224 39983 40085 81230 333 58006;
0168823920999992011020900004-03700-040350FM-12+008399999V0200501N002112200019N0040001N1+02641+02271101001ADDGF101991011001008001031001KA1240M+03331MA1999999099981MD1999999-0011REMSYN088AAXX  09004 82392 32596 10504 10264 20227 39998 40100 81030 333 10333 29072 55103 59001;
0156823920999992011020912004-03700-040350FM-12+008399999V0200501N003112200019N0500001N1+02741+02171101161ADDGF103991031011004501001001KA1240N+02211MA1999999100141MD1999999-0011REMSYN076AAXX  09124 82392 32499 30506 10274 20217 30014 40116 83100 333 20221 59001;
0173823920999992011021112004-03700-040350FM-12+008399999V0200501N000512200019N0500001N1+02581+02171101071ADDAA124001091GF104991041021004501001001KA1240N+02181MA1999999100041MD1999999+0081REMSYN082AAXX  11124 82392 22499 40501 10258 20217 30004 40107 84200 333 20218 58008 60014;
0137823920999992011021118004-03700-040350FM-12+008399999V0200501N001010450019N0500001N1+03031+02091100761ADDGF106991021021004501011001MA1999999099741MD1999999+0091REMSYN070AAXX  11184 82392 32499 60502 10303 20209 39974 40076 82210 333 58009;
0168823920999992011021200004-03700-040350FM-12+008399999V0200501N001012200019N0040001N1+02601+02171101021ADDGF102991021001004501031001KA1240M+03201MA1999999100001MD1999999+0101REMSYN088AAXX  12004 82392 32496 20502 10260 20217 30000 40102 82030 333 10320 29072 55045 58010;
0201823920999992011021212004-03700-040350FM-12+008399999V0209999C000010450019N0500001N1+02491+02341101191ADDAA124001091AY101061AY221061GF106991041051004501031001KA1240N+02231MA1999999100171MD1999999+0131MW1211REMSYN088AAXX  12124 82392 21499 60000 10249 20234 30017 40119 72102 84530 333 20223 58013 60014;
0182823920999992011021218004-03700-040350FM-12+008399999V0203601N001010450019N0500001N1+02571+02351101001ADDAA106018091AY161061AY261061GF108991041051004501021999MA1999999099981MD1999999+0141MW1021REMSYN082AAXX  12184 82392 21499 83602 10257 20235 39998 40100 70266 8452/ 333 58014 60181;
0168823920999992011021300004-03700-040350FM-12+008399999V0209999C000010450019N0040001N1+02321+02301101041ADDGF108991041051004501021999KA1240M+03081MA1999999100011MD1999999+0011REMSYN088AAXX  13004 82392 32496 80000 10232 20230 30001 40104 8452/ 333 10308 29091 55029 58001;
0173823920999992011021312004-03700-040350FM-12+008399999V0201801N001012200019N0500001N1+02601+02371101211ADDAA124018091GF104991011011004501031001KA1240N+02301MA1999999100181MD1999999+0011REMSYN082AAXX  13124 82392 22499 41802 10260 20237 30018 40121 81130 333 20230 58001 60184;
0137823920999992011021318004-03700-040350FM-12+008399999V0202301N001010450019N0500001N1+02761+02141100831ADDGF107991031051004501011001MA1999999099801MD1999999-0181REMSYN070AAXX  13184 82392 32499 72302 10276 20214 39980 40083 83510 333 59018;
0213823920999992011021400004-03700-040350FM-12+008399999V0200901N001010450019N0040001N1+02421+02281101151ADDAA106006191AY161061AY221061GF108991041051004501011999KA1240M+03181MA1999999100121MD1999999+0111MW1021REMSYN100AAXX  14004 82392 21496 80902 10242 20228 30012 40115 70262 8451/ 333 10318 29084 55058 58011 60061;
0173823920999992011021412004-03700-040350FM-12+008399999V0201401N002110450019N0500001N1+02581+02251101131ADDAA124006191GF106991031011004501031001KA1240N+02301MA1999999100101MD1999999-0081REMSYN082AAXX  14124 82392 22499 61404 10258 20225 30010 40113 83130 333 20230 59008 60064;
0137823920999992011021418004-03700-040350FM-12+008399999V0200901N004612200019N0500001N1+02981+02011100761ADDGF103991031011004501001001MA1999999099741MD1999999-0061REMSYN070AAXX  14184 82392 32499 30909 10298 20201 39974 40076 83100 333 59006;
0168823920999992011021500004-03700-040350FM-12+008399999V0209999C000010450019N0040001N1+02451+02251101011ADDGF107991021011004501011001KA1240M+03081MA1999999099981MD1999999-0141REMSYN088AAXX  15004 82392 32496 70000 10245 20225 39998 40101 82110 333 10308 29079 55063 59014;
0182823920999992011021518004-03700-040350FM-12+008399999V0200501N001010042019N0500001N1+02611+02421100741ADDAA106001091AY161061AY261061GF107991061071004501011001MA1999999099711MD1999999-0031MW1021REMSYN082AAXX  15184 82392 21499 70502 10261 20242 39971 40074 70266 86710 333 59003 60011;
0168823920999992011021600004-03700-040350FM-12+008399999V0209999C000010450019N0040001N1+02431+02271101031ADDGF108991041051004501011999KA1240M+03121MA1999999100011MD1999999+0031REMSYN088AAXX  16004 82392 32496 80000 10243 20227 30001 40103 8451/ 333 10312 29087 55040 58003;
0173823920999992011021612004-03700-040350FM-12+008399999V0202301N000510450019N0500001N1+02561+01991101151ADDAA124001091GF108991031051004501021999KA1240N+02301MA1999999100121MD1999999+0141REMSYN082AAXX  16124 82392 22499 82301 10256 20199 30012 40115 8352/ 333 20230 58014 60014;
0137823920999992011021618004-03700-040350FM-12+008399999V0203601N001510450019N0500001N1+03121+02111100731ADDGF106991041051004501031001MA1999999099711MD1999999+0001REMSYN070AAXX  16184 82392 32499 63603 10312 20211 39971 40073 84530 333 58000;
0168823920999992011021700004-03700-040350FM-12+008399999V0209999C000010450019N0040001N1+02411+02251101121ADDGF108991041051004501031999KA1240M+03201MA1999999100091MD1999999+0081REMSYN088AAXX  17004 82392 32496 80000 10241 20225 30009 40112 8453/ 333 10320 29077 55049 58008;
0156823920999992011021712004-03700-040350FM-12+008399999V0209999C000010450019N0500001N1+02611+02421101181ADDGF106991041041004501031001KA1240N+02271MA1999999100151MD1999999+0031REMSYN076AAXX  17124 82392 32499 61800 10261 20242 30015 40118 84430 333 20227 58003;
0137823920999992011021718004-03700-040350FM-12+008399999V0209999C000010450019N0500001N1+03061+02271100801ADDGF107991031051004501021001MA1999999099781MD1999999+0081REMSYN070AAXX  17184 82392 32499 70900 10306 20227 39978 40080 83520 333 58008;
0168823920999992011021800004-03700-040350FM-12+008399999V0200501N002110450019N0040001N1+02481+02341101031ADDGF106991041051004501031001KA1240M+03161MA1999999100001MD1999999-0091REMSYN088AAXX  18004 82392 32496 60504 10248 20234 30000 40103 84530 333 10316 29084 55051 59009;
0156823920999992011021812004-03700-040350FM-12+008399999V0200901N002610042019N0500001N1+02681+02131101061ADDGF106991051041004501031001KA1240N+02221MA1999999100041MD1999999-0111REMSYN076AAXX  18124 82392 32499 60905 10268 20213 30004 40106 85430 333 20222 59011;
0182823920999992011021818004-03700-040350FM-12+008399999V0203601N000510042019N0500001N1+02661+02431100621ADDAA106002091AY161061AY261061GF108991071061004501031999MA1999999099601MD1999999-0181MW1551REMSYN082AAXX  18184 82392 21499 83601 10266 20243 39960 40062 75566 8763/ 333 59018 60021;
0213823920999992011021900004-03700-040350FM-12+008399999V0200501N000510450019N0040001N1+02341+02201100831ADDAA106002091AY161061AY261061GF107991031051004501011001KA1240M+03141MA1999999099801MD1999999-0201MW1031REMSYN100AAXX  19004 82392 21496 70501 10234 20220 39980 40083 70366 83510 333 10314 29086 55054 59020 60021;
0173823920999992011021912004-03700-040350FM-12+008399999V0201801N000510450019N0500001N1+02641+01981100991ADDAA124004191GF105991031021004501031001KA1240N+02201MA1999999099961MD1999999-0081REMSYN082AAXX  19124 82392 22499 51801 10264 20198 39996 40099 83230 333 20220 59008 60044;
0182823920999992011021918004-03700-040350FM-12+008399999V0200901N004610450019N0200001N1+02381+02261100881ADDAA106014091AY161061AY261061GF108991041061004501021999MA1999999099851MD1999999+0251MW1021REMSYN082AAXX  19184 82392 21498 80909 10238 20226 39985 40088 70266 8462/ 333 58025 60141;
0213823920999992011022000004-03700-040350FM-12+008399999V0201801N001010450019N0040001N1+02271+02161101081ADDAA106007191AY161061AY261061GF108991041071004501021999KA1240M+02961MA1999999100051MD1999999+0251MW1021REMSYN100AAXX  20004 82392 21496 81802 10227 20216 30005 40108 70266 8472/ 333 10296 29086 55028 58025 60071;
0173823920999992011022012004-03700-040350FM-12+008399999V0201401N000510042019N0500001N1+02441+02371101151ADDAA124021191GF107991051051004501031001KA1240N+02131MA1999999100121MD1999999+0161REMSYN082AAXX  20124 82392 22499 71401 10244 20237 30012 40115 85530 333 20213 58016 60214;
0137823920999992011022018004-03700-040350FM-12+008399999V0203601N001010042019N0500001N1+02571+02531100921ADDGF108991061051004501031001MA1999999099891MD1999999+0041REMSYN070AAXX  20184 82392 32499 83602 10257 20253 39989 40092 86530 333 58004;
0168823920999992011022100004-03700-040350FM-12+008399999V0209999C000010042019N0040001N1+02361+02311101161ADDGF107991061061004501011001KA1240M+03061MA1999999100131MD1999999+0081REMSYN088AAXX  21004 82392 32496 70000 10236 20231 30013 40116 86610 333 10306 29097 55037 58008;
0156823920999992011022112004-03700-040350FM-12+008399999V0202301N002612200019N0500001N1+02441+02341101271ADDGF104991021011004501031001KA1240N+02101MA1999999100241MD1999999+0121REMSYN076AAXX  21124 82392 32499 42305 10244 20234 30024 40127 82130 333 20210 58012;
0182823920999992011022118004-03700-040350FM-12+008399999V0203201N001510450019N0500001N1+02461+02361100951ADDAA106016091AY161061AY221061GF107991021081004501031001MA1999999099921MD1999999+0031MW1021REMSYN082AAXX  21184 82392 21499 73203 10246 20236 39992 40095 70262 82830 333 58003 60161;
0168823920999992011022200004-03700-040350FM-12+008399999V0209999C000010450019N0040001N1+02491+02361101221ADDGF107991031021004501021001KA1240M+03101MA1999999100191MD1999999+0061REMSYN088AAXX  22004 82392 32496 70000 10249 20236 30019 40122 83220 333 10310 29093 55055 58006;
0173823920999992011022212004-03700-040350FM-12+008399999V0202301N001012200019N0500001N1+02681+02281101121ADDAA124016091GF104991041021004501001001KA1240N+02201MA1999999100101MD1999999-0141REMSYN082AAXX  22124 82392 22499 42302 10268 20228 30010 40112 84200 333 20220 59014 60164;
0137823920999992011022218004-03700-040350FM-12+008399999V0200501N000510450019N0500001N1+03111+02411100781ADDGF106991031021004501031001MA1999999099761MD1999999-0161REMSYN070AAXX  22184 82392 32499 60501 10311 20241 39976 40078 83230 333 59016;
0213823920999992011022300004-03700-040350FM-12+008399999V0200501N000510450019N0040001N1+02411+02331100921ADDAA106017091AY161061AY261061GF106991021021004501021001KA1240M+03181MA1999999099911MD1999999-0281MW1021REMSYN100AAXX  23004 82392 21496 60501 10241 20233 39991 40092 70266 82220 333 10318 29084 55090 59028 60171;
0173823920999992011022312004-03700-040350FM-12+008399999V0200901N002112200019N0500001N1+02701+02431100971ADDAA124017091GF104991021011004501031001KA1240N+02201MA1999999099951MD1999999-0151REMSYN082AAXX  23124 82392 22499 40904 10270 20243 39995 40097 82130 333 20220 59015 60174;
0182823920999992011022318004-03700-040350FM-12+008399999V0200501N002610450019N0200001N1+02501+02401100661ADDAA106002091AY121061AY221061GF108991031081004501021999MA1999999099641MD1999999-0121MW1611REMSYN082AAXX  23184 82392 21498 80505 10250 20240 39964 40066 76122 8382/ 333 59012 60021;
0213823920999992011022400004-03700-040350FM-12+008399999V0200501N000510450019N0040001N1+02341+02271100851ADDAA106002091AY161061AY261061GF106991031051004501021001KA1240M+03261MA1999999099821MD1999999-0091MW1021REMSYN100AAXX  24004 82392 21496 60501 10234 20227 39982 40085 70266 83520 333 10326 29093 55074 59009 60021;
0173823920999992011022412004-03700-040350FM-12+008399999V0201401N002110042019N0500001N1+02681+02451100931ADDAA124004191GF107991051051004501031001KA1240N+02241MA1999999099901MD1999999-0051REMSYN082AAXX  24124 82392 22499 71404 10268 20245 39990 40093 85530 333 20224 59005 60044;
0182823920999992011022418004-03700-040350FM-12+008399999V0203601N002110450019N0500001N1+02951+02681100591ADDAA106002091AY161061AY261061GF106991041041004501031001MA1999999099581MD1999999-0061MW1021REMSYN082AAXX  24184 82392 21499 63604 10295 20268 39958 40059 70266 84430 333 59006 60021;
0168823920999992011022500004-03700-040350FM-12+008399999V0200901N000510450019N0040001N1+02401+02261100891ADDGF106991041051004501021001KA1240M+03101MA1999999099861MD1999999+0041REMSYN088AAXX  25004 82392 32496 60901 10240 20226 39986 40089 84520 333 10310 29089 55061 58004;
0173823920999992011022512004-03700-040350FM-12+008399999V0202301N001012200019N0500001N1+02621+02351101081ADDAA124002091GF104991041021004501001001KA1240N+02281MA1999999100051MD1999999+0151REMSYN082AAXX  25124 82392 22499 42302 10262 20235 30005 40108 84200 333 20228 58015 60024;
0182823920999992011022518004-03700-040350FM-12+008399999V0203601N001010042019N0500001N1+02481+02381100831ADDAA106000391AY161061AY221061GF108991051061004501021001MA1999999099801MD1999999+0231MW1021REMSYN082AAXX  25184 82392 21499 83602 10248 20238 39980 40083 70262 85620 333 58023 69931;
0168823920999992011022600004-03700-040350FM-12+008399999V0202301N000512200019N0040001N1+02421+02321101061ADDGF104991021011004501031001KA1240M+03121MA1999999100031MD1999999+0171REMSYN088AAXX  26004 82392 32496 42301 10242 20232 30003 40106 82130 333 10312 29092 55045 58017;
0173823920999992011022612004-03700-040350FM-12+008399999V0202301N000510042019N0500001N1+02491+02361101101ADDAA124000391GF107991051061004501031001KA1240N+02331MA1999999100011MD1999999+0021REMSYN082AAXX  26124 82392 22499 72301 10249 20236 30001 40110 85630 333 20233 58002 69934;
0137823920999992011022618004-03700-040350FM-12+008399999V0200501N001510450019N0500001N1+03061+02301100601ADDGF105991031021004501031011MA1999999099591MD1999999-0211REMSYN070AAXX  26184 82392 32499 50503 10306 20230 39959 40060 83231 333 59021;
0213823920999992011022700004-03700-040350FM-12+008399999V0209999C000010042019N0040001N1+02331+02291101081ADDAA106003091AY161061AY261061GF108991081051004501999999KA1240M+03121MA1999999100051MD1999999+0021MW1551REMSYN100AAXX  27004 82392 21496 80000 10233 20229 30005 40108 75566 885// 333 10312 29088 55070 58002 60031;
0173823920999992011022712004-03700-040350FM-12+008399999V0202301N000512200019N0500001N1+02481+02341100981ADDAA124006191GF104991041041004501001001KA1240N+02201MA1999999099951MD1999999-0121REMSYN082AAXX  27124 82392 22499 42301 10248 20234 39995 40098 84400 333 20220 59012 60064;
0182823920999992011022718004-03700-040350FM-12+008399999V0203601N001010450019N0500001N1+02681+01991100571ADDAA106002091AY161061AY221061GF106991041051004501031001MA1999999099551MD1999999-0041MW1021REMSYN082AAXX  27184 82392 21499 63602 10268 20199 39955 40057 70262 84530 333 59004 60021;
0213823920999992011022800004-03700-040350FM-12+008399999V0203601N000510450019N0040001N1+02361+02261100931ADDAA106006191AY161061AY261061GF108991041071004501021999KA1240M+03041MA1999999099901MD1999999-0151MW1511REMSYN100AAXX  28004 82392 21496 83601 10236 20226 39990 40093 75166 8472/ 333 10304 29086 55042 59015 60061;
0201823920999992011022812004-03700-040350FM-12+008399999V0202301N000510450019N0500001N1+02401+02261101081ADDAA124022191AY161061AY261061GF108991031071004501021999KA1240N+02281MA1999999100051MD1999999+0101MW1021REMSYN088AAXX  28124 82392 21499 82301 10240 20226 30005 40108 70266 8372/ 333 20228 58010 60224;
0213823920999992011030100004-03700-040350FM-12+008399999V0209999C000010090019N0040001N1+02281+02071101011ADDAA106014091AY161061AY261061GF108991081081004501999999KA1240M+02981MA1999999099981MD1999999+0081MW1201REMSYN100AAXX  01004 82392 21496 80000 10228 20207 39998 40101 72066 888// 333 10298 29085 55018 58008 60141;
0173823920999992011030112004-03700-040350FM-12+008399999V0202301N000510450019N0500001N1+02521+02231101081ADDAA124014091GF107991041051004501011001KA1240N+02201MA1999999100051MD1999999+0001REMSYN082AAXX  01124 82392 22499 72301 10252 20223 30005 40108 84510 333 20220 58000 60144;
0182823920999992011030118004-03700-040350FM-12+008399999V0202701N000510042019N0500001N1+02741+02361100761ADDAA106006191AY161061AY261061GF107991051051004501031001MA1999999099731MD1999999-0091MW1021REMSYN082AAXX  01184 82392 21499 72701 10274 20236 39973 40076 70266 85530 333 59009 60061;
0187823920999992011030200004-03700-040350FM-12+008399999V0209999C000010450019N0040001N1+03391+02231101041ADDGF108991031021004501021999KA1240M+99999MA1999999100011MD1999999+0031REMSYN088AAXX  02004 82392 32496 80000 10339 20223 30001 40104 8322/ 333 10289 29086 55050 58003;EQDQ01 +02892ATMX  
0173823920999992011030212004-03700-040350FM-12+008399999V0201401N001010450019N0500001N1+02541+00221101021ADDAA124006191GF106991031051004501031001KA1240N+02201MA1999999099991MD1999999-0061REMSYN082AAXX  02124 82392 22499 61402 10254 20022 39999 40102 83530 333 20220 59006 60064;
0137823920999992011030218004-03700-040350FM-12+008399999V0200501N001012200019N0500001N1+02941+02081100681ADDGF104991031021004501031001MA1999999099661MD1999999-0071REMSYN070AAXX  02184 82392 32499 40502 10294 20208 39966 40068 83230 333 59007;
0168823920999992011030300004-03700-040350FM-12+008399999V0203601N000512200019N0040001N1+02481+02341100881ADDGF103991021021004501011001KA1240M+03181MA1999999099851MD1999999-0161REMSYN088AAXX  03004 82392 32496 33601 10248 20234 39985 40088 82210 333 10318 29082 55100 59016;
0156823920999992011030312004-03700-040350FM-12+008399999V0200901N000510450019N0500001N1+02771+02361101021ADDGF105991031021004501031001KA1240N+02311MA1999999100001MD1999999+0011REMSYN076AAXX  03124 82392 32499 50901 10277 20236 30000 40102 83230 333 20231 58001;
0182823920999992011030318004-03700-040350FM-12+008399999V0200501N000510042019N0500001N1+02931+02471100621ADDAA106003091AY161061AY261061GF107991061051004501031001MA1999999099611MD1999999-0051MW1651REMSYN082AAXX  03184 82392 21499 70501 10293 20247 39961 40062 76566 86530 333 59005 60031;
0213823920999992011030400004-03700-040350FM-12+008399999V0200901N000512200019N0040001N1+02381+02261100971ADDAA106014091AY161061AY261061GF104991041011004501001001KA1240M+03261MA1999999099951MD1999999+0101MW1021REMSYN100AAXX  04004 82392 21496 40901 10238 20226 39995 40097 70266 84100 333 10326 29085 55076 58010 60141;
0173823920999992011030412004-03700-040350FM-12+008399999V0200901N001010450019N0500001N1+02481+02341100981ADDAA124017091GF107991031051004501031001KA1240N+02101MA1999999099951MD1999999-0051REMSYN082AAXX  04124 82392 22499 70902 10248 20234 39995 40098 83530 333 20210 59005 60174;
0137823920999992011030418004-03700-040350FM-12+008399999V0203601N001510450019N0500001N1+02811+02521100751ADDGF106991041051004501031021MA1999999099721MD1999999+0111REMSYN070AAXX  04184 82392 32499 63603 10281 20252 39972 40075 84532 333 58011;
0213823920999992011030500004-03700-040350FM-12+008399999V0200501N002112200019N0040001N1+02401+02141100931ADDAA106005191AY161061AY221061GF104991021011004501031011KA1240M+03181MA1999999099901MD1999999-0051MW1021REMSYN100AAXX  05004 82392 21496 40504 10240 20214 39990 40093 70262 82131 333 10318 29088 55076 59005 60051;
0201823920999992011030512004-03700-040350FM-12+008399999V0200501N001010450019N0500001N1+02661+02241101081ADDAA124005191AY151061AY261061GF106991031041004501031001KA1240N+02301MA1999999100051MD1999999+0101MW1021REMSYN088AAXX  05124 82392 21499 60502 10266 20224 30005 40108 70256 83430 333 20230 58010 60054;
0182823920999992011030518004-03700-040350FM-12+008399999V0200501N001512200019N0500001N1+03081+02241100671ADDAA106000891AY151061AY221061GF104991021011004501031001MA1999999099651MD1999999-0071MW1021REMSYN082AAXX  05184 82392 21499 40503 10308 20224 39965 40067 70252 82130 333 59007 69981;
0213823920999992011030600004-03700-040350FM-12+008399999V0200501N000512200019N0040001N1+02441+02231100881ADDAA106005191AY151061AY261061GF102991021001004501031001KA1240M+03161MA1999999099861MD1999999-0041MW1021REMSYN100AAXX  06004 82392 21496 20501 10244 20223 39986 40088 70256 82030 333 10316 29079 55068 59004 60051;
0173823920999992011030612004-03700-040350FM-12+008399999V0200901N000512200019N0500001N1+02731+02301100971ADDAA124006191GF105991041021004501001011KA1240N+02141MA1999999099951MD1999999-0101REMSYN082AAXX  06124 82392 22499 50901 10273 20230 39995 40097 84201 333 20214 59010 60064;
0182823920999992011030618004-03700-040350FM-12+008399999V0200501N000512200019N0500001N1+03111+02431100561ADDAA106001091AY161061AY261061GF105991041021004501001011MA1999999099551MD1999999-0101MW1021REMSYN082AAXX  06184 82392 21499 50501 10311 20243 39955 40056 70266 84201 333 59010 60011;
0213823920999992011030700004-03700-040350FM-12+008399999V0209999C000010450019N0040001N1+02391+02231100861ADDAA106018091AY161061AY261061GF107991041051004501021001KA1240M+03181MA1999999099841MD1999999-0021MW1021REMSYN100AAXX  07004 82392 21496 70000 10239 20223 39984 40086 70266 84520 333 10318 29081 55087 59002 60181;
0173823920999992011030712004-03700-040350FM-12+008399999V0201401N001012200019N0500001N1+02701+02111101031ADDAA124020191GF104991021011004501031001KA1240N+02201MA1999999100001MD1999999+0051REMSYN082AAXX  07124 82392 22499 41402 10270 20211 30000 40103 82130 333 20220 58005 60204;
0182823920999992011030718004-03700-040350FM-12+008399999V0200501N000510450019N0500001N1+02561+02351100731ADDAA106000591AY151061AY221061GF108991031081004501021999MA1999999099701MD1999999+0151MW1021REMSYN082AAXX  07184 82392 21499 80501 10256 20235 39970 40073 70252 8382/ 333 58015 69961;
0168823920999992011030800004-03700-040350FM-12+008399999V0209999C000010450019N0040001N1+02421+02251100901ADDGF106991041021004501021001KA1240M+03161MA1999999099881MD1999999+0041REMSYN088AAXX  08004 82392 32496 60000 10242 20225 39988 40090 84220 333 10316 29085 55082 58004;
0173823920999992011030812004-03700-040350FM-12+008399999V0203201N000510450019N0500001N1+02601+02371101181ADDAA124000591GF107991041051004501031001KA1240N+02231MA1999999100151MD1999999+0151REMSYN082AAXX  08124 82392 22499 73201 10260 20237 30015 40118 84530 333 20223 58015 69964;
0182823920999992011030818004-03700-040350FM-12+008399999V0202301N000510450019N0500001N1+02421+02251100821ADDAA106001091AY151061AY251061GF108991031051004501021999MA1999999099791MD1999999+0091MW1201REMSYN082AAXX  08184 82392 21499 82301 10242 20225 39979 40082 72055 8352/ 333 58009 60011;
0213823920999992011030900004-03700-040350FM-12+008399999V0209999C000010042019N0040001N1+02381+02211101071ADDAA106005191AY161061AY261061GF108991061051004501999999KA1240M+03101MA1999999100041MD1999999+0061MW1021REMSYN100AAXX  09004 82392 21496 80000 10238 20221 30004 40107 70266 865// 333 10310 29089 55048 58006 60051;
0173823920999992011030912004-03700-040350FM-12+008399999V0202301N000510450019N0500001N1+02501+02311101131ADDAA124006191GF108991031051004501021999KA1240N+02201MA1999999100101MD1999999-0051REMSYN082AAXX  09124 82392 22499 82301 10250 20231 30010 40113 8352/ 333 20220 59005 60064;
0168823920999992011031000004-03700-040350FM-12+008399999V0209999C000012200019N0040001N1+02421+02231100881ADDGF102991021001008001011001KA1240M+02781MA1999999099851MD1999999-0191REMSYN088AAXX  10004 82392 32596 20000 10242 20223 39985 40088 82010 333 10278 29088 55005 59019;
0173823920999992011031012004-03700-040350FM-12+008399999V0200501N000510450019N0500001N1+02691+02281101001ADDAA124000591GF106991031021004501031001KA1240N+02201MA1999999099981MD1999999-0121REMSYN082AAXX  10124 82392 22499 60501 10269 20228 39998 40100 83230 333 20220 59012 69964;
0182823920999992011031018004-03700-040350FM-12+008399999V0201801N000510450019N0500001N1+02551+02351100761ADDAA106006191AY161061AY261061GF108991041021004501021999MA1999999099731MD1999999+0031MW1021REMSYN082AAXX  10184 82392 21499 81801 10255 20235 39973 40076 70266 8422/ 333 58003 60061;
0168823920999992011031100004-03700-040350FM-12+008399999V0201801N000510450019N0500001N1+02521+02381100881ADDGF106991031041004501031001KA1240M+03061MA1999999099861MD1999999+0011REMSYN088AAXX  11004 82392 32499 61801 10252 20238 39986 40088 83430 333 10306 29088 55053 58001;
0220823920999992011031112004-03700-040350FM-12+008399999V0200501N000519999999N0200001N1+02441+02371101081ADDAA124007991AY161061AY251061GF108991999021004501001001KA1240N+02201MA1999999100051MD1999999+0071MW1511REMSYN088AAXX  11124 82392 21498 80501 10244 20237 30005 40108 75165 84200 333 20220 58007 60084;EQDQ01+000042SCOTLC
0182823920999992011031118004-03700-040350FM-12+008399999V0200901N001010450019N0500001N1+02861+02501100701ADDAA106000591AY151061AY251061GF108991041051004501011999MA1999999099681MD1999999-0081MW1021REMSYN082AAXX  11184 82392 21499 80902 10286 20250 39968 40070 70255 8451/ 333 59008 69951;
0168823920999992011031200004-03700-040350FM-12+008399999V0200501N001010450019N0040001N1+02441+02371100951ADDGF108991031071004501021999KA1240M+02941MA1999999099921MD1999999+0061REMSYN088AAXX  12004 82392 32496 80502 10244 20237 39992 40095 8372/ 333 10294 29092 55028 58006;
0173823920999992011031212004-03700-040350FM-12+008399999V0200501N001010450019N0500001N1+02691+02461101021ADDAA124000591GF106991031021004501031011KA1240N+02251MA1999999100001MD1999999-0051REMSYN082AAXX  12124 82392 22499 60502 10269 20246 30000 40102 83231 333 20225 59005 69954;
0137823920999992011031218004-03700-040350FM-12+008399999V0201801N001010042019N0500001N1+02731+02471100601ADDGF107991051061004501031001MA1999999099581MD1999999-0101REMSYN070AAXX  12184 82392 32499 71802 10273 20247 39958 40060 85630 333 59010;
0213823920999992011031300004-03700-040350FM-12+008399999V0209999C000010450019N0040001N1+02361+02291100951ADDAA106057991AY161061AY261061GF106991031021004501031001KA1240M+03111MA1999999099921MD1999999+0001MW1021REMSYN100AAXX  13004 82392 21496 60000 10236 20229 39992 40095 70266 83230 333 10311 29091 55067 58000 60581;
0173823920999992011031312004-03700-040350FM-12+008399999V0200901N001010450019N0500001N1+02661+02391101031ADDAA124057991GF106991031021004501031001KA1240N+02091MA1999999100001MD1999999+0001REMSYN082AAXX  13124 82392 22499 60902 10266 20239 30000 40103 83230 333 20209 58000 60584;
0137823920999992011031318004-03700-040350FM-12+008399999V0200501N004110450019N0500001N1+02601+02401100731ADDGF107991041051004501031001MA1999999099701MD1999999+0121REMSYN070AAXX  13184 82392 32499 70508 10260 20240 39970 40073 84530 333 58012;
0168823920999992011031400004-03700-040350FM-12+008399999V0200501N001012200019N0040001N1+02441+02301101001ADDGF102991021001004501031001KA1240M+03161MA1999999099981MD1999999+0061REMSYN088AAXX  14004 82392 32496 20502 10244 20230 39998 40100 82030 333 10316 29089 55079 58006;
0156823920999992011031412004-03700-040350FM-12+008399999V0202701N000510450019N0500001N1+02521+02231101231ADDGF105991041021004501031001KA1240N+02101MA1999999100201MD1999999+0201REMSYN076AAXX  14124 82392 32499 52701 10252 20223 30020 40123 84230 333 20210 58020;
0182823920999992011031418004-03700-040350FM-12+008399999V0200501N001010450019N0500001N1+02561+02331100781ADDAA106007191AY161061AY221061GF106991041051004501031001MA1999999099751MD1999999+0051MW1021REMSYN082AAXX  14184 82392 21499 60502 10256 20233 39975 40078 70262 84530 333 58005 60071;
0168823920999992011031500004-03700-040350FM-12+008399999V0200501N001010450019N0040001N1+02331+02201101121ADDGF106991021021004501011001KA1240M+03021MA1999999100091MD1999999+0111REMSYN088AAXX  15004 82392 32496 60502 10233 20220 30009 40112 82210 333 10302 29089 55050 58011;
0173823920999992011031512004-03700-040350FM-12+008399999V0201401N000510450019N0500001N1+02541+02331101281ADDAA124007191GF105991041051004501031001KA1240N+02201MA1999999100251MD1999999+0051REMSYN082AAXX  15124 82392 22499 51401 10254 20233 30025 40128 84530 333 20220 58005 60074;
0137823920999992011031518004-03700-040350FM-12+008399999V0200501N000510450019N0500001N1+02881+02501100921ADDGF108991031061004501011999MA1999999099961MD1999999+0211REMSYN070AAXX  15184 82392 32499 80501 10288 20250 39996 40092 8361/ 333 58021;
0168823920999992011031600004-03700-040350FM-12+008399999V0209999C000010450019N0040001N1+02431+02341101131ADDGF108991041051004501011999KA1240M+02941MA1999999100101MD1999999+0011REMSYN088AAXX  16004 82392 32496 80000 10243 20234 30010 40113 8451/ 333 10294 29089 55028 58001;
0156823920999992011031612004-03700-040350FM-12+008399999V0200901N002112200019N0500001N1+02741+02261101311ADDGF104991021011004501031001KA1240N+02201MA1999999100281MD1999999+0031REMSYN076AAXX  16124 82392 32499 40904 10274 20226 30028 40131 82130 333 20220 58003;
0137823920999992011031618004-03700-040350FM-12+008399999V0200501N001012200019N0500001N1+03101+02261100901ADDGF103991031051004501001001MA1999999099881MD1999999-0081REMSYN070AAXX  16184 82392 32499 30502 10310 20226 39988 40090 83500 333 59008;
0232823920999992011031700004-03700-040350FM-12+008399999V0209999C000012200019N0040001N1+02431+02191101131ADDAA106005191AY161061AY261061GF104991999011004501001001KA1240M+03181MA1999999100111MD1999999+0011MW1021REMSYN100AAXX  17004 82392 21496 40000 10243 20219 30011 40113 70266 82100 333 10318 29077 55085 58001 60051;EQDQ01+000022SCOTLC
0173823920999992011031712004-03700-040350FM-12+008399999V0200901N000510450019N0500001N1+02701+02411101211ADDAA124005191GF106991041021004501031001KA1240N+02251MA1999999100191MD1999999-0091REMSYN082AAXX  17124 82392 22499 60901 10270 20241 30019 40121 84230 333 20225 59009 60054;
0168823920999992011031800004-03700-040350FM-12+008399999V0200501N002612200019N0040001N1+02481+02341101121ADDGF103991031001004501031001KA1240M+03221MA1999999100101MD1999999-0011REMSYN088AAXX  18004 82392 32496 30505 10248 20234 30010 40112 83030 333 10322 29082 55102 59001;
0156823920999992011031812004-03700-040350FM-12+008399999V0200901N000510450019N0500001N1+02671+02391101221ADDGF105991041051004501031001KA1240N+02311MA1999999100201MD1999999+0011REMSYN076AAXX  18124 82392 32499 50901 10267 20239 30020 40122 84530 333 20231 58001;
0201823920999992011031818004-03700-040350FM-12+008399999V0203601N001019999999N0500001N1+02381+02211100901ADDAA106001091AY101061AY221061GF107991999041004501001001MA1999999099871MD1999999+0161MW1211REMSYN082AAXX  18184 82392 21499 73602 10238 20221 39987 40090 72102 84400 333 58016 60011;EQDQ01+000042SCOTLC
0213823920999992011031900004-03700-040350FM-12+008399999V0202701N000512200019N0040001N1+02361+02221101181ADDAA106001091AY161061AY261061GF104991021011004501031001KA1240M+03181MA1999999100151MD1999999+0051MW1021REMSYN100AAXX  19004 82392 21496 42701 10236 20222 30015 40118 70266 82130 333 10318 29090 55048 58005 60011;
0173823920999992011031912004-03700-040350FM-12+008399999V0202301N000510450019N0500001N1+02421+02281101151ADDAA124003091GF107991031051004501011001KA1240N+02201MA1999999100121MD1999999-0091REMSYN082AAXX  19124 82392 22499 72301 10242 20228 30012 40115 83510 333 20220 59009 60034;
0137823920999992011031918004-03700-040350FM-12+008399999V0203601N000510042019N0500001N1+02301+02071100731ADDGF107991051051004501031001MA1999999099711MD1999999-0161REMSYN070AAXX  19184 82392 32499 73601 10230 20207 39971 40073 85530 333 59016;
0168823920999992011032000004-03700-040350FM-12+008399999V0200501N002610450019N0040001N1+02481+02361100921ADDGF105991041041004501031001KA1240M+03181MA1999999099891MD1999999-0261REMSYN088AAXX  20004 82392 32496 50505 10248 20236 39989 40092 84430 333 10318 29085 55075 59026;
0156823920999992011032012004-03700-040350FM-12+008399999V0200501N000510450019N0500001N1+02771+02401101071ADDGF106991041041004501031001KA1240N+02251MA1999999100051MD1999999-0071REMSYN076AAXX  20124 82392 32499 60501 10277 20240 30005 40107 84430 333 20225 59007;
0137823920999992011032018004-03700-040350FM-12+008399999V0201401N000511050019N0500001N1+03181+02191100641ADDGF105991031021004501001021MA1999999099631MD1999999-0081REMSYN070AAXX  20184 82392 32499 51401 10318 20219 39963 40064 83202 333 59008;
0168823920999992011032100004-03700-040350FM-12+008399999V0200501N000512200019N0040001N1+02481+02291100871ADDGF102991011011004501031001KA1240M+03231MA1999999099851MD1999999-0041REMSYN088AAXX  21004 82392 32496 20501 10248 20229 39985 40087 81130 333 10323 29079 55094 59004;
0156823920999992011032112004-03700-040350FM-12+008399999V0201801N001010450019N0500001N1+02701+02131101021ADDGF105991041041004501031001KA1240N+02281MA1999999100001MD1999999-0051REMSYN076AAXX  21124 82392 32499 51802 10270 20213 30000 40102 84430 333 20228 59005;
0137823920999992011032118004-03700-040350FM-12+008399999V0200501N002612200019N0500001N1+03101+02261100611ADDGF104991041021004501001001MA1999999099601MD1999999-0031REMSYN070AAXX  21184 82392 32499 40505 10310 20226 39960 40061 84200 333 59003;
0232823920999992011032200004-03700-040350FM-12+008399999V0200501N000510450019N0040001N1+02381+02241100921ADDAA106002091AY161061AY261061GF107991031021004501011001KA1240M+99999MA1999999099901MD1999999+0051MW1021REMSYN100AAXX  22004 82392 21496 70501 10238 20224 39990 40092 70266 83210 333 10217 29079 55072 58005 60021;EQDQ01 +02172ATMX  
0173823920999992011032212004-03700-040350FM-12+008399999V0203601N000512200019N0500001N1+02741+02401101021ADDAA124002091GF104991041021004501001001KA1240N+02211MA1999999100001MD1999999+0001REMSYN082AAXX  22124 82392 22499 43601 10274 20240 30000 40102 84200 333 20221 58000 60024;
0137823920999992011032218004-03700-040350FM-12+008399999V0200501N002610450019N0500001N1+03061+02301100561ADDGF105991031091004501031011MA1999999099551MD1999999-0051REMSYN070AAXX  22184 82392 32499 50505 10306 20230 39955 40056 83931 333 59005;
0168823920999992011032300004-03700-040350FM-12+008399999V0203601N000512200019N0040001N1+02471+02231100901ADDGF102991011011004501011001KA1240M+03171MA1999999099881MD1999999-0021REMSYN088AAXX  23004 82392 32496 23601 10247 20223 39988 40090 81110 333 10317 29080 55092 59002;
0156823920999992011032312004-03700-040350FM-12+008399999V0202301N000510450019N0500001N1+02481+02321101131ADDGF105991041041004501031001KA1240N+02101MA1999999100101MD1999999+0101REMSYN076AAXX  23124 82392 32499 52301 10248 20232 30010 40113 84430 333 20210 58010;
0137823920999992011032318004-03700-040350FM-12+008399999V0201401N000510450019N0500001N1+03141+02301100821ADDGF105991041021004501031001MA1999999099801MD1999999+0251REMSYN070AAXX  23184 82392 32499 51401 10314 20230 39980 40082 84230 333 58025;
0168823920999992011032400004-03700-040350FM-12+008399999V0203601N000512200019N0040001N1+02561+02311100961ADDGF101991011011004501001001KA1240M+03211MA1999999099931MD1999999+0051REMSYN088AAXX  24004 82392 32496 13601 10256 20231 39993 40096 81100 333 10321 29081 55090 58005;
0156823920999992011032412004-03700-040350FM-12+008399999V0200901N000512200019N0500001N1+02821+02331101221ADDGF102991011011004501031001KA1240N+02211MA1999999100201MD1999999+0101REMSYN076AAXX  24124 82392 32499 20901 10282 20233 30020 40122 81130 333 20221 58010;
0137823920999992011032418004-03700-040350FM-12+008399999V0200501N007210042019N0500001N1+02461+02281100931ADDGF108991051061004501021999MA1999999099901MD1999999+0101REMSYN070AAXX  24184 82392 32499 80514 10246 20228 39990 40093 8562/ 333 58010;
0213823920999992011032500004-03700-040350FM-12+008399999V0202301N000510042019N0040001N1+02321+02181101121ADDAA106002091AY161061AY221061GF106991051051004501031001KA1240M+03261MA1999999100101MD1999999+0071MW1021REMSYN100AAXX  25004 82392 21496 62301 10232 20218 30010 40112 70262 85530 333 10326 29087 55068 58007 60021;
0173823920999992011032512004-03700-040350FM-12+008399999V0200501N000510450019N0500001N1+02601+02331101181ADDAA124002091GF107991031051004501011001KA1240N+02301MA1999999100151MD1999999-0051REMSYN082AAXX  25124 82392 22499 70501 10260 20233 30015 40118 83510 333 20230 59005 60024;
0137823920999992011032518004-03700-040350FM-12+008399999V0203601N002110450019N0500001N1+03101+02411100801ADDGF108991041061004501031011MA1999999099781MD1999999-0121REMSYN070AAXX  25184 82392 32499 83604 10310 20241 39978 40080 84631 333 59012;
0168823920999992011032600004-03700-040350FM-12+008399999V0200901N000512200019N0040001N1+02461+02361101011ADDGF103991031001004501031001KA1240M+03181MA1999999099981MD1999999-0121REMSYN088AAXX  26004 82392 32496 30901 10246 20236 39998 40101 83030 333 10318 29085 55064 59012;
0156823920999992011032612004-03700-040350FM-12+008399999V0201401N000510042019N0500001N1+02691+02431101001ADDGF106991051041004501031001KA1240N+02161MA1999999099981MD1999999-0171REMSYN076AAXX  26124 82392 32499 61401 10269 20243 39998 40100 85430 333 20216 59017;
0137823920999992011032618004-03700-040350FM-12+008399999V0203601N001010450019N0500001N1+02671+02451100651ADDGF107991041051004501031011MA1999999099631MD1999999-0151REMSYN070AAXX  26184 82392 32499 73602 10267 20245 39963 40065 84531 333 59015;
0168823920999992011032700004-03700-040350FM-12+008399999V0203601N000510450019N0040001N1+02511+02401101001ADDGF106991031021004501021001KA1240M+03221MA1999999099981MD1999999+0001REMSYN088AAXX  27004 82392 32496 63601 10251 20240 39998 40100 83220 333 10322 29090 55066 58000;
0156823920999992011032712004-03700-040350FM-12+008399999V0200901N002610450019N0500001N1+02701+02281101121ADDGF106991041051004501031001KA1240N+02261MA1999999100101MD1999999+0121REMSYN076AAXX  27124 82392 32499 60905 10270 20228 30010 40112 84530 333 20226 58012;
0137823920999992011032718004-03700-040350FM-12+008399999V0200501N002110450019N0500001N1+02701+02431100821ADDGF108991031051004501011999MA1999999099801MD1999999+0171REMSYN070AAXX  27184 82392 32499 80504 10270 20243 39980 40082 8351/ 333 58017;
0213823920999992011032800004-03700-040350FM-12+008399999V0202301N000510450019N0040001N1+02341+02271101081ADDAA106002091AY151061AY251061GF108991031071004501021999KA1240M+03041MA1999999100051MD1999999+0071MW1021REMSYN100AAXX  28004 82392 21496 82301 10234 20227 30005 40108 70255 8372/ 333 10304 29089 55020 58007 60021;
0201823920999992011032812004-03700-040350FM-12+008399999V0202301N001010450019N0500001N1+02601+02331101251ADDAA124002091AY151061AY251061GF106991031041004501031001KA1240N+02201MA1999999100221MD1999999+0121MW1021REMSYN088AAXX  28124 82392 21499 62302 10260 20233 30022 40125 70255 83430 333 20220 58012 60024;
0182823920999992011032818004-03700-040350FM-12+008399999V0200501N001010450019N0200001N1+02401+02301101101ADDAA106029091AY161061AY261061GF108991041061004501021999MA1999999100071MD1999999+0271MW1531REMSYN082AAXX  28184 82392 21498 80502 10240 20230 30007 40110 75366 8462/ 333 58027 60291;
0173823920999992011032912004-03700-040350FM-12+008399999V0200501N000512200019N0500001N1+02661+02431101251ADDAA124030091GF104991021011004501031001KA1240N+02201MA1999999100221MD1999999+0001REMSYN082AAXX  29124 82392 22499 40501 10266 20243 30022 40125 82130 333 20220 58000 60304;
0182823920999992011032918004-03700-040350FM-12+008399999V0203201N000510042019N0500001N1+02561+02401100881ADDAA106003091AY101061AY221061GF106991051051004501011001MA1999999099851MD1999999-0221MW1211REMSYN082AAXX  29184 82392 21499 63201 10256 20240 39985 40088 72102 85510 333 59022 60031;
0173823920999992011033012004-03700-040350FM-12+008399999V0202301N001010450019N0500001N1+02681+02431101241ADDAA124011991GF105991031041004501031001KA1240N+02211MA1999999100221MD1999999+0001REMSYN082AAXX  30124 82392 22499 52302 10268 20243 30022 40124 83430 333 20221 58000 60124;
0201823920999992011033018004-03700-040350FM-12+008399999V0200501N001019999999N0200001N1+02501+02361100931ADDAA106001091AY161061AY221061GF108991999021004501001001MA1999999099901MD1999999+0051MW1021REMSYN082AAXX  30184 82392 21498 80502 10250 20236 39990 40093 70262 84200 333 58005 60011;EQDQ01+000042SCOTLC
0168823920999992011033100004-03700-040350FM-12+008399999V0209999C000010042019N0040001N1+02371+02281101071ADDGF106991051041004501011001KA1240M+03191MA1999999100041MD1999999-0131REMSYN088AAXX  31004 82392 32496 60000 10237 20228 30004 40107 85410 333 10319 29029 55059 59013;
0173823920999992011033112004-03700-040350FM-12+008399999V0201801N000510042019N0500001N1+02571+02441101211ADDAA124001091GF106991051041004501011001KA1240N+02171MA1999999100181MD1999999-0041REMSYN082AAXX  31124 82392 22499 61801 10257 20244 30018 40121 85410 333 20217 59004 60014;
0137823920999992011033118004-03700-040350FM-12+008399999V0200501N000510450019N0500001N1+03041+02331100751ADDGF106991031021004501011011MA1999999099741MD1999999-0161REMSYN070AAXX  31184 82392 32499 60501 10304 20233 39974 40075 83211 333 59016;
0168823920999992011040100004-03700-040350FM-12+008399999V0200501N003112200019N0040001N1+02541+02331101041ADDGF102991021001004501031001KA1240M+03121MA1999999100021MD1999999-0021REMSYN088AAXX  01004 82392 32496 20506 10254 20233 30002 40104 82030 333 10312 29084 55077 59002;
0156823920999992011040112004-03700-040350FM-12+008399999V0200901N002112200019N0500001N1+02781+02161101171ADDGF104991021011004501031001KA1240N+02231MA1999999100151MD1999999-0031REMSYN076AAXX  01124 82392 32499 40904 10278 20216 30015 40117 82130 333 20223 59003;
0137823920999992011040118004-03700-040350FM-12+008399999V0201801N000512200019N0500001N1+03181+02191100771ADDGF103991021091004501031001MA1999999099751MD1999999+0011REMSYN070AAXX  01184 82392 32499 31801 10318 20219 39975 40077 82930 333 58001;
0168823920999992011040200004-03700-040350FM-12+008399999V0200501N004612200019N0040001N1+02521+02231101071ADDGF102991021011004501001001KA1240M+03281MA1999999100051MD1999999+0031REMSYN088AAXX  02004 82392 32496 20509 10252 20223 30005 40107 82100 333 10328 29073 55101 58003;
0156823920999992011040212004-03700-040350FM-12+008399999V0200901N001012200019N0500001N1+02801+02221101211ADDGF104991021011004501031001KA1240N+02301MA1999999100191MD1999999+0041REMSYN076AAXX  02124 82392 32499 40902 10280 20222 30019 40121 82130 333 20230 58004;
0137823920999992011040218004-03700-040350FM-12+008399999V0203601N002610450019N0500001N1+02561+02191100801ADDGF107991031051004501011001MA1999999099771MD1999999+0021REMSYN070AAXX  02184 82392 32499 73605 10256 20219 39977 40080 83510 333 58002;
0213823920999992011040300004-03700-040350FM-12+008399999V0200501N000510450019N0040001N1+02401+02041101001ADDAA106008991AY161061AY221061GF105991041041004501031001KA1240M+03141MA1999999099981MD1999999-0071MW1021REMSYN100AAXX  03004 82392 21496 50501 10240 20204 39998 40100 70262 84430 333 10314 29083 55068 59007 60091;
0173823920999992011040312004-03700-040350FM-12+008399999V0202301N000510042019N0500001N1+02511+02331101091ADDAA124008991GF106991051041004501031001KA1240N+02231MA1999999100061MD1999999-0131REMSYN082AAXX  03124 82392 22499 62301 10251 20233 30006 40109 85430 333 20223 59013 60094;
0137823920999992011040318004-03700-040350FM-12+008399999V0203601N000510450019N0500001N1+03131+02401100671ADDGF106991041021004501011011MA1999999099651MD1999999-0121REMSYN070AAXX  03184 82392 32499 63601 10313 20240 39965 40067 84211 333 59012;
0213823920999992011040400004-03700-040350FM-12+008399999V0200501N000512200019N0040001N1+02371+02221100921ADDAA106011991AY161061AY261061GF102991011011004501011001KA1240M+03211MA1999999099891MD1999999-0091MW1021REMSYN100AAXX  04004 82392 21496 20501 10237 20222 39989 40092 70266 81110 333 10321 29084 55081 59009 60121;
0173823920999992011040412004-03700-040350FM-12+008399999V0201801N001512200019N0500001N1+02661+02181101101ADDAA124011991GF104991031011004501031001KA1240N+02141MA1999999100071MD1999999+0011REMSYN082AAXX  04124 82392 22499 41803 10266 20218 30007 40110 83130 333 20214 58001 60124;
0182823920999992011040418004-03700-040350FM-12+008399999V0200501N002110450019N0500001N1+02501+02211100801ADDAA106008991AY161061AY261061GF108991041051004501021999MA1999999099771MD1999999+0121MW1021REMSYN082AAXX  04184 82392 21499 80504 10250 20221 39977 40080 70266 8452/ 333 58012 60091;
0168823920999992011040500004-03700-040350FM-12+008399999V0209999C000012200019N0040001N1+02381+02221101021ADDGF103991021011004501011001KA1240M+03101MA1999999099991MD1999999+0101REMSYN088AAXX  05004 82392 32496 30000 10238 20222 39999 40102 82110 333 10310 29085 55049 58010;
0173823920999992011040512004-03700-040350FM-12+008399999V0200501N002110450019N0500001N1+02701+02131101111ADDAA124008991GF105991031021004501031001KA1240N+02211MA1999999100081MD1999999+0011REMSYN082AAXX  05124 82392 22499 50504 10270 20213 30008 40111 83230 333 20221 58001 60094;
0182823920999992011040518004-03700-040350FM-12+008399999V0209999C000010042019N0500001N1+02461+02361100881ADDAA106032091AY161061AY261061GF107991051051004501011001MA1999999099861MD1999999+0091MW1211REMSYN082AAXX  05184 82392 21499 70000 10246 20236 39986 40088 72166 85510 333 58009 60321;
0168823920999992011040600004-03700-040350FM-12+008399999V0209999C000012200019N0040001N1+02381+02221101121ADDGF102991021011004501001001KA1240M+02901MA1999999100091MD1999999+0101REMSYN088AAXX  06004 82392 32496 20000 10238 20222 30009 40112 82100 333 10290 29087 55041 58010;
0173823920999992011040612004-03700-040350FM-12+008399999V0201401N001012200019N0500001N1+02701+02131101191ADDAA124032091GF103991031011004501001001KA1240N+02201MA1999999100161MD1999999+0081REMSYN082AAXX  06124 82392 22499 31402 10270 20213 30016 40119 83100 333 20220 58008 60324;
0137823920999992011040618004-03700-040350FM-12+008399999V0200501N002112200019N0500001N1+03161+02341100721ADDGF101991011011004501001001MA1999999099701MD1999999-0161REMSYN070AAXX  06184 82392 32499 10504 10316 20234 39970 40072 81100 333 59016;
0178823920999992011040700004-03700-040350FM-12+008399999V0203601N000512200019N0040001N1+02541+02331100951ADDGA1001+999999999GF100991001001999999001001KA1240M+03211MA1999999099931MD1999999-0161REMSYN082AAXX  07004 82392 32996 03601 10254 20233 39993 40095 333 10321 29077 55100 59016;
0156823920999992011040712004-03700-040350FM-12+008399999V0202301N000510042019N0500001N1+02541+02331101041ADDGF106991061021004501001001KA1240N+02121MA1999999100011MD1999999-0151REMSYN076AAXX  07124 82392 32499 62301 10254 20233 30001 40104 86200 333 20212 59015;
0137823920999992011040718004-03700-040350FM-12+008399999V0200501N000512200019N0500001N1+02211+02081100651ADDGF103991011011004501031001MA1999999099641MD1999999-0061REMSYN070AAXX  07184 82392 32499 30501 10221 20208 39964 40065 81130 333 59006;
0168823920999992011040800004-03700-040350FM-12+008399999V0203601N003112200019N0500001N1+02521+02231100931ADDGF102991021001004501031001KA1240M+03301MA1999999099901MD1999999-0031REMSYN088AAXX  08004 82392 32499 23606 10252 20223 39990 40093 82030 333 10330 29077 55097 59003;
0156823920999992011040812004-03700-040350FM-12+008399999V0200501N003112200019N0500001N1+02801+02201101041ADDGF103991021011004501031001KA1240N+02131MA1999999100021MD1999999+0011REMSYN076AAXX  08124 82392 32499 30506 10280 20220 30002 40104 82130 333 20213 58001;
0182823920999992011040818004-03700-040350FM-12+008399999V0203601N000510450019N0500001N1+02981+02301100781ADDAA106003091AY161061AY261061GF105991021091004501031001MA1999999099761MD1999999+0121MW1021REMSYN082AAXX  08184 82392 21499 53601 10298 20230 39976 40078 70266 82930 333 58012 60031;
0223823920999992011040900004-03700-040350FM-12+008399999V0203601N000512200019N0040001N1+02341+02271101071ADDAA106035191AY161061AY261061GA1001+999999999GF100991001001999999001001KA1240M+03201MA1999999100051MD1999999+0151MW1021REMSYN094AAXX  09004 82392 21996 03601 10234 20227 30005 40107 70266 333 10320 29082 55087 58015 60351;
0201823920999992011040912004-03700-040350FM-12+008399999V0209999C000010042019N0500001N1+02521+02421101251ADDAA124035191AY151061AY251061GF108991081051004501999999KA1240N+02201MA1999999100221MD1999999+0201MW1021REMSYN088AAXX  09124 82392 21499 80000 10252 20242 30022 40125 70255 885// 333 20220 58020 60354;
0137823920999992011040918004-03700-040350FM-12+008399999V0200501N000510450019N0500001N1+02941+02381100841ADDGF106991031021004501031001MA1999999099821MD1999999+0061REMSYN070AAXX  09184 82392 32499 60501 10294 20238 39982 40084 83230 333 58006;
0201823920999992011041012004-03700-040350FM-12+008399999V0203601N000510450019N0200001N1+02521+02431101281ADDAA124007191AY121061AY221061GF108991041061004501021999KA1240N+02211MA1999999100251MD1999999+0031MW1631REMSYN088AAXX  10124 82392 21498 83601 10252 20243 30025 40128 76322 8462/ 333 20221 58003 60074;
0182823920999992011041018004-03700-040350FM-12+008399999V0200501N000510450019N0500001N1+02701+02281100931ADDAA106004191AY161061AY261061GF108991031071004501021999MA1999999099901MD1999999+0081MW1021REMSYN082AAXX  10184 82392 21499 80501 10270 20228 39990 40093 70266 8372/ 333 58008 60041;
0168823920999992011041100004-03700-040350FM-12+008399999V0200501N000512200019N0040001N1+02381+02261101081ADDGF102991021001004501031001KA1240M+02801MA1999999100051MD1999999-0081REMSYN088AAXX  11004 82392 32496 20501 10238 20226 30005 40108 82030 333 10280 29090 55010 59008;
0173823920999992011041112004-03700-040350FM-12+008399999V0201801N001012200019N0500001N1+02601+02191101211ADDAA124004191GF104991011011004501031001KA1240N+02201MA1999999100181MD1999999-0071REMSYN082AAXX  11124 82392 22499 41802 10260 20219 30018 40121 81130 333 20220 59007 60044;
0137823920999992011041118004-03700-040350FM-12+008399999V0203201N002112200019N0500001N1+02901+02041100761ADDGF104991021011004501031001MA1999999099741MD1999999-0161REMSYN070AAXX  11184 82392 32499 43204 10290 20204 39974 40076 82130 333 59016;
0213823920999992011041200004-03700-040350FM-12+008399999V0202301N000510042019N0040001N1+02441+02281101061ADDAA106007991AY161061AY261061GF108991051051004501021999KA1240M+03141MA1999999100031MD1999999-0021MW1951REMSYN100AAXX  12004 82392 21496 82301 10244 20228 30003 40106 79566 8552/ 333 10314 29080 55060 59002 60081;
0201823920999992011041212004-03700-040350FM-12+008399999V0202301N001010450019N0500001N1+02501+02211101071ADDAA124008991AY161061AY261061GF108991041071004501021999KA1240N+02281MA1999999100041MD1999999-0141MW1021REMSYN088AAXX  12124 82392 21499 82302 10250 20221 30004 40107 70266 8472/ 333 20228 59014 60094;
0182823920999992011041218004-03700-040350FM-12+008399999V0209999C000010042019N0200001N1+02361+02041100791ADDAA106056991AY161061AY261061GF108991081071004501999999MA1999999099761MD1999999+0021MW1951REMSYN082AAXX  12184 82392 21498 80000 10236 20204 39976 40079 79566 887// 333 58002 60571;
0213823920999992011041300004-03700-040350FM-12+008399999V0209999C000010042019N0040001N1+02411+02281101051ADDAA106003091AY161061AY261061GF108991081071004501999999KA1240M+02941MA1999999100021MD1999999-0011MW1201REMSYN100AAXX  13004 82392 21496 80000 10241 20228 30002 40105 72066 887// 333 10294 29092 55014 59001 60031;
0173823920999992011041312004-03700-040350FM-12+008399999V0202701N000510450019N0500001N1+02521+02381101081ADDAA124059991GF106991041041004501031001KA1240N+02201MA1999999100051MD1999999+0011REMSYN082AAXX  13124 82392 22499 62701 10252 20238 30005 40108 84430 333 20220 58001 60604;
0182823920999992011041318004-03700-040350FM-12+008399999V0200501N002110450019N0500001N1+02821+02201100721ADDAA106001091AY121061AY251061GF108991041081004501021999MA1999999099701MD1999999-0061MW1031REMSYN082AAXX  13184 82392 21499 80504 10282 20220 39970 40072 70325 8482/ 333 59006 69991;
0173823920999992011041412004-03700-040350FM-12+008399999V0202301N000510450019N0500001N1+02511+02361101061ADDAA124020191GF106991031021004501031001KA1240N+02131MA1999999100031MD1999999-0021REMSYN082AAXX  14124 82392 22499 62301 10251 20236 30003 40106 83230 333 20213 59002 60204;
0201823920999992011041418004-03700-040350FM-12+008399999V0209999C000010042019N0500001N1+02711+02461100701ADDAA106002091AY161061AY261061GF107991999021004501001001MA1999999099671MD1999999-0031MW1211REMSYN082AAXX  14184 82392 21499 70000 10271 20246 39967 40070 72166 86200 333 59003 60021;EQDQ01+000062SCOTLC
0213823920999992011041500004-03700-040350FM-12+008399999V0202701N001010450019N0040001N1+02341+02241101081ADDAA106021191AY161061AY261061GF108991031071004501021999KA1240M+02981MA1999999100051MD1999999+0071MW1031REMSYN100AAXX  15004 82392 21496 82702 10234 20224 30005 40108 70366 8372/ 333 10298 29092 55042 58007 60211;
0173823920999992011041512004-03700-040350FM-12+008399999V0202701N000510450019N0500001N1+02481+02361101131ADDAA124023191GF107991031051004501011001KA1240N+02281MA1999999100101MD1999999+0071REMSYN082AAXX  15124 82392 22499 72701 10248 20236 30010 40113 83510 333 20228 58007 60234;
0182823920999992011041518004-03700-040350FM-12+008399999V0203601N000510450019N0500001N1+02621+02521100721ADDAA106000021AY101061AY221061GF107991041061004501031001MA1999999099691MD1999999+0021MW1201REMSYN082AAXX  15184 82392 21499 73601 10262 20252 39969 40072 72002 84630 333 58002 69921;
0213823920999992011041600004-03700-040350FM-12+008399999V0202701N000510450019N0040001N1+02381+02281101011ADDAA106011991AY121061AY221061GF108991031081004501021999KA1240M+03041MA1999999099981MD1999999-0071MW1651REMSYN100AAXX  16004 82392 21496 82701 10238 20228 39998 40101 76522 8382/ 333 10304 29094 55025 59007 60121;
0173823920999992011041612004-03700-040350FM-12+008399999V0203201N000512200019N0500001N1+02661+02241101031ADDAA124011991GF102991021011004501001001KA1240N+02261MA1999999100001MD1999999-0101REMSYN082AAXX  16124 82392 22499 23201 10266 20224 30000 40103 82100 333 20226 59010 60124;
0137823920999992011041618004-03700-040350FM-12+008399999V0202701N002610450019N0500001N1+02901+02041100591ADDGF108991041071004501021999MA1999999099581MD1999999-0111REMSYN070AAXX  16184 82392 32499 82705 10290 20204 39958 40059 8472/ 333 59011;
0213823920999992011041700004-03700-040350FM-12+008399999V0200901N000510450019N0040001N1+02221+02101101031ADDAA106041991AY161061AY261061GF108991041061004501021999KA1240M+03101MA1999999100001MD1999999+0021MW1501REMSYN100AAXX  17004 82392 21496 80901 10222 20210 30000 40103 75066 8462/ 333 10310 29081 55058 58002 60421;
0173823920999992011041712004-03700-040350FM-12+008399999V0200901N000510450019N0500001N1+02731+02401101041ADDAA124041991GF105991031041004501031001KA1240N+02181MA1999999100011MD1999999+0011REMSYN082AAXX  17124 82392 22499 50901 10273 20240 30001 40104 83430 333 20218 58001 60424;
0137823920999992011041718004-03700-040350FM-12+008399999V0203601N000510042019N0500001N1+02611+02411100731ADDGF107991051051004501031021MA1999999099701MD1999999+0121REMSYN070AAXX  17184 82392 32499 73601 10261 20241 39970 40073 85532 333 58012;
0213823920999992011041800004-03700-040350FM-12+008399999V0209999C000010450019N0040001N1+02441+02391101041ADDAA106003091AY161061AY261061GF106991031041004501031001KA1240M+03141MA1999999100021MD1999999+0021MW1021REMSYN100AAXX  18004 82392 21496 60000 10244 20239 30002 40104 70266 83430 333 10314 29091 55063 58002 60031;
0173823920999992011041812004-03700-040350FM-12+008399999V0200501N003110450019N0500001N1+02641+02251101251ADDAA124003091GF106991031041004501031001KA1240N+02211MA1999999100521MD1999999+0211REMSYN082AAXX  18124 82392 22499 60506 10264 20225 30052 40125 83430 333 20221 58021 60034;
0182823920999992011041818004-03700-040350FM-12+008399999V0200501N002612200019N0500001N1+02741+02261100861ADDAA106006191AY161061AY251061GF104991031011004501031001MA1999999099831MD1999999+0131MW1021REMSYN082AAXX  18184 82392 21499 40505 10274 20226 39983 40086 70265 83130 333 58013 60061;
0232823920999992011041900004-03700-040350FM-12+008399999V0209999C000010042019N0040001N1+02411+02331101231ADDAA106000091AY151061AY251061GF108991051051004501031001KA1240M+02981MA1999999100201MD1999999+0181MW1021REMSYN100AAXX  19004 82392 21496 80000 10241 20233 30020 40123 70255 85530 333 10298 29087 55035 58018 69911;EQDQ01  00002PRCP06
0173823920999992011041912004-03700-040350FM-12+008399999V0201801N000510450019N0500001N1+02601+02101101271ADDAA124006191GF106991041041004501031001KA1240N+02301MA1999999100241MD1999999+0021REMSYN082AAXX  19124 82392 22499 61801 10260 20210 30024 40127 84430 333 20230 58002 60064;
0182823920999992011041918004-03700-040350FM-12+008399999V0202701N001010450019N0500001N1+02661+02431100821ADDAA106001091AY101061AY221061GF106991041041004501031011MA1999999099791MD1999999-0041MW1211REMSYN082AAXX  19184 82392 21499 62702 10266 20243 39979 40082 72102 84431 333 59004 60011;
0213823920999992011042000004-03700-040350FM-12+008399999V0202701N000510450019N0040001N1+02361+02311101151ADDAA106004191AY161061AY261061GF106991031061004501011001KA1240M+03041MA1999999100121MD1999999-0081MW1021REMSYN100AAXX  20004 82392 21496 62701 10236 20231 30012 40115 70266 83610 333 10304 29089 55073 59008 60041;
0173823920999992011042012004-03700-040350FM-12+008399999V0201801N000510450019N0500001N1+02561+02151101251ADDAA124005191GF105991041021004501031001KA1240N+02111MA1999999100221MD1999999-0021REMSYN082AAXX  20124 82392 22499 51801 10256 20215 30022 40125 84230 333 20211 59002 60054;
0156823920999992011042018004-03700-040350FM-12+008399999V0201401N001019999999N0500001N1+03041+02131100771ADDGF106991999021004501001001MA1999999099751MD1999999-0041REMSYN070AAXX  20184 82392 32499 61402 10304 20213 39975 40077 83200 333 59004;EQDQ01+000032SCOTLC
0168823920999992011042100004-03700-040350FM-12+008399999V0200901N000510450019N0040001N1+02451+02361101021ADDGF105991031021004501031001KA1240M+03121MA1999999099991MD1999999-0131REMSYN088AAXX  21004 82392 32496 50901 10245 20236 39999 40102 83230 333 10312 29081 55069 59013;
0156823920999992011042112004-03700-040350FM-12+008399999V0209999C000010450019N0500001N1+02671+02391101121ADDGF106991021041004501031011KA1240N+02271MA1999999100101MD1999999-0121REMSYN076AAXX  21124 82392 32499 60000 10267 20239 30010 40112 82431 333 20227 59012;
0137823920999992011042118004-03700-040350FM-12+008399999V0203601N000510042019N0500001N1+03031+02501100741ADDGF107991051061004501031001MA1999999099721MD1999999-0031REMSYN070AAXX  21184 82392 32499 73601 10303 20250 39972 40074 85630 333 59003;
0213823920999992011042200004-03700-040350FM-12+008399999V0202301N000510450019N0040001N1+02381+02261101081ADDAA106016091AY161061AY261061GF108991041061004501021999KA1240M+03141MA1999999100051MD1999999+0061MW1021REMSYN100AAXX  22004 82392 21496 82301 10238 20226 30005 40108 70266 8462/ 333 10314 29086 55066 58006 60161;
0173823920999992011042212004-03700-040350FM-12+008399999V0202301N000510450019N0500001N1+02521+02341101081ADDAA124016091GF106991031051004501031001KA1240N+02231MA1999999100051MD1999999-0051REMSYN082AAXX  22124 82392 22499 62301 10252 20234 30005 40108 83530 333 20223 59005 60164;
0137823920999992011042218004-03700-040350FM-12+008399999V0201401N000510450019N0500001N1+02921+02411100671ADDGF106991041061004501031001MA1999999099651MD1999999-0071REMSYN070AAXX  22184 82392 32499 61401 10292 20241 39965 40067 84630 333 59007;
0213823920999992011042300004-03700-040350FM-12+008399999V0200501N001010450019N0040001N1+02421+02251100981ADDAA106011991AY161061AY261061GF106991041041004501031001KA1240M+03201MA1999999099951MD1999999-0101MW1021REMSYN100AAXX  23004 82392 21496 60502 10242 20225 39995 40098 70266 84430 333 10320 29086 55066 59010 60121;
0173823920999992011042312004-03700-040350FM-12+008399999V0200501N000510450019N0500001N1+02691+02281101071ADDAA124011991GF106991031021004501011001KA1240N+02281MA1999999100051MD1999999+0001REMSYN082AAXX  23124 82392 22499 60501 10269 20228 30005 40107 83210 333 20228 58000 60124;
0137823920999992011042318004-03700-040350FM-12+008399999V0203601N002110450019N0500001N1+02931+02451100771ADDGF106991041061004501011001MA1999999099751MD1999999+0101REMSYN070AAXX  23184 82392 32499 63604 10293 20245 39975 40077 84610 333 58010;
0168823920999992011042400004-03700-040350FM-12+008399999V0209999C000010450019N0040001N1+02481+02361101041ADDGF108991041041004501021999KA1240M+03081MA1999999100001MD1999999+0071REMSYN088AAXX  24004 82392 32496 80000 10248 20236 30000 40104 8442/ 333 10308 29085 55079 58007;
0156823920999992011042412004-03700-040350FM-12+008399999V0201801N001012200019N0500001N1+02641+02141101171ADDGF104991021021004501031001KA1240N+02341MA1999999100151MD1999999+0101REMSYN076AAXX  24124 82392 32499 41802 10264 20214 30015 40117 82230 333 20234 58010;
0137823920999992011042418004-03700-040350FM-12+008399999V0200501N004110450019N0500001N1+02881+02031100721ADDGF105991041041004501031001MA1999999099701MD1999999-0051REMSYN070AAXX  24184 82392 32499 50508 10288 20203 39970 40072 84430 333 59005;
0213823920999992011042500004-03700-040350FM-12+008399999V0200901N000510450019N0040001N1+02421+02251101101ADDAA106002091AY151061AY251061GF108991041061004501021999KA1240M+03141MA1999999100071MD1999999+0051MW1511REMSYN100AAXX  25004 82392 21496 80901 10242 20225 30007 40110 75155 8462/ 333 10314 29078 55073 58005 60021;
0201823920999992011042512004-03700-040350FM-12+008399999V0201801N001010450019N0500001N1+02401+02261101261ADDAA124006191AY151061AY251061GF108991041061004501021999KA1240N+02301MA1999999100231MD1999999+0081MW1511REMSYN088AAXX  25124 82392 21499 81802 10240 20226 30023 40126 75155 8462/ 333 20230 58008 60064;
0182823920999992011042518004-03700-040350FM-12+008399999V0201401N002110450019N0500001N1+02761+01971100861ADDAA106003091AY161061AY221061GF107991031051004501011001MA1999999099841MD1999999+0141MW1021REMSYN082AAXX  25184 82392 21499 71404 10276 20197 39984 40086 70262 83510 333 58014 60031;
0213823920999992011042600004-03700-040350FM-12+008399999V0209999C000010450019N0040001N1+02401+02331101151ADDAA106000021AY101061AY221061GF108991041051004501021999KA1240M+02861MA1999999100121MD1999999+0051MW1201REMSYN100AAXX  26004 82392 21496 80000 10240 20233 30012 40115 72002 8452/ 333 10286 29087 55018 58005 69911;
0201823920999992011042612004-03700-040350FM-12+008399999V0201801N001010450019N0500001N1+02601+02031101191ADDAA124003091AY151061AY261061GF105991031021004501031001KA1240N+02381MA1999999100161MD1999999-0071MW1021REMSYN088AAXX  26124 82392 21499 51802 10260 20203 30016 40119 70256 83230 333 20238 59007 60034;
0137823920999992011042618004-03700-040350FM-12+008399999V0203201N000510450019N0500001N1+02661+02411100891ADDGF107991041051004501021001MA1999999099861MD1999999+0021REMSYN070AAXX  26184 82392 32499 73201 10266 20241 39986 40089 84520 333 58002;
0168823920999992011042700004-03700-040350FM-12+008399999V0200501N000510450019N0040001N1+02371+02281101151ADDGF106991031021004501021001KA1240M+03041MA1999999100121MD1999999+0001REMSYN088AAXX  27004 82392 32496 60501 10237 20228 30012 40115 83220 333 10304 29086 55030 58000;
0156823920999992011042712004-03700-040350FM-12+008399999V0200901N001012200019N0500001N1+02701+02061101191ADDGF104991031021004501031001KA1240N+02201MA1999999100161MD1999999+0001REMSYN076AAXX  27124 82392 32499 40902 10270 20206 30016 40119 83230 333 20220 58000;
0137823920999992011042718004-03700-040350FM-12+008399999V0201801N003610450019N0500001N1+02901+02041100761ADDGF107991041051004501031001MA1999999099741MD1999999-0121REMSYN070AAXX  27184 82392 32499 71807 10290 20204 39974 40076 84530 333 59012;
0213823920999992011042800004-03700-040350FM-12+008399999V0209999C000010042019N0040001N1+02281+02231101241ADDAA106005191AY161061AY261061GF108991081051004501999999KA1240M+03101MA1999999100211MD1999999+0091MW1201REMSYN100AAXX  28004 82392 21496 80000 10228 20223 30021 40124 72066 885// 333 10310 29081 55078 58009 60051;
0201823920999992011042812004-03700-040350FM-12+008399999V0201801N000512200019N0500001N1+02491+02381101201ADDAA124006191AY151061AY251061GF104991031021004501011001KA1240N+02141MA1999999100171MD1999999+0011MW1021REMSYN088AAXX  28124 82392 21499 41801 10249 20238 30017 40120 70255 83210 333 20214 58001 60064;
0156823920999992011042818004-03700-040350FM-12+008399999V0203201N000519999999N0500001N1+03131+02221100791ADDGF107991999001004501011001MA1999999099771MD1999999+0031REMSYN070AAXX  28184 82392 32499 73201 10313 20222 39977 40079 85010 333 58003;EQDQ01+000052SCOTLC
0213823920999992011042900004-03700-040350FM-12+008399999V0203201N000510450019N0040001N1+02401+02261101171ADDAA106006191AY161061AY221061GF107991041051004501011001KA1240M+03181MA1999999100141MD1999999-0071MW1021REMSYN100AAXX  29004 82392 21496 73201 10240 20226 30014 40117 70262 84510 333 10318 29084 55076 59007 60061;
0173823920999992011042912004-03700-040350FM-12+008399999V0200501N001010450019N0500001N1+02601+02031101151ADDAA124006191GF105991031021004501031001KA1240N+02281MA1999999100121MD1999999-0051REMSYN082AAXX  29124 82392 22499 50502 10260 20203 30012 40115 83230 333 20228 59005 60064;
0137823920999992011042918004-03700-040350FM-12+008399999V0200901N000510450019N0500001N1+03031+02281100711ADDGF107991031021004501011001MA1999999099691MD1999999-0081REMSYN070AAXX  29184 82392 32499 70901 10303 20228 39969 40071 83210 333 59008;
0213823920999992011043000004-03700-040350FM-12+008399999V0201801N000510042019N0040001N1+02401+02111101081ADDAA106000591AY151061AY221061GF106991051051004501031001KA1240M+03141MA1999999100051MD1999999-0091MW1021REMSYN100AAXX  30004 82392 21496 61801 10240 20211 30005 40108 70252 85530 333 10314 29076 55070 59009 69961;
0173823920999992011043012004-03700-040350FM-12+008399999V0200901N000510450019N0500001N1+02641+02351101131ADDAA124000591GF105991041021004501031001KA1240N+02241MA1999999100101MD1999999-0021REMSYN082AAXX  30124 82392 22499 50901 10264 20235 30010 40113 84230 333 20224 59002 69964;
0137823920999992011043018004-03700-040350FM-12+008399999V0203601N000512200019N0500001N1+03001+02081100671ADDGF104991031011004501031001MA1999999099651MD1999999-0041REMSYN070AAXX  30184 82392 32499 43601 10300 20208 39965 40067 83130 333 59004;
0137823920999992011050118004-03700-040350FM-12+008399999V0200501N001010042019N0500001N1+02811+02441100691ADDGF107991051061004501021001MA1999999099671MD1999999+0021REMSYN070AAXX  01184 82392 32499 70502 10281 20244 39967 40069 85620 333 58002;
0213823920999992011050200004-03700-040350FM-12+008399999V0203601N000510042019N0040001N1+02461+02361101021ADDAA106000891AY151061AY251061GF108991051051004501021999KA1240M+03161MA1999999100001MD1999999+0051MW1021REMSYN100AAXX  02004 82392 21496 83601 10246 20236 30000 40102 70255 8552/ 333 10316 29086 55065 58005 69971;
0173823920999992011050212004-03700-040350FM-12+008399999V0201801N000510450019N0500001N1+02401+02051101151ADDAA124000891GF106991041051004501031001KA1240N+02381MA1999999100121MD1999999+0051REMSYN082AAXX  02124 82392 22499 61801 10240 20205 30012 40115 84530 333 20238 58005 69974;
0156823920999992011050218004-03700-040350FM-12+008399999V0200901N002612200019N0500001N1+03001+02081100741ADDGF104991999021004501001001MA1999999099721MD1999999+0051REMSYN070AAXX  02184 82392 32499 40905 10300 20208 39972 40074 83200 333 58005;EQDQ01+000032SCOTLC
0168823920999992011050300004-03700-040350FM-12+008399999V0209999C000012200019N0040001N1+02521+02341101031ADDGF102991011011004501011001KA1240M+03141MA1999999100011MD1999999+0011REMSYN088AAXX  03004 82392 32496 20000 10252 20234 30001 40103 81110 333 10314 29078 55067 58001;
0156823920999992011050312004-03700-040350FM-12+008399999V0201801N001512200019N0500001N1+02701+02111101141ADDGF104991031021004501031001KA1240N+02301MA1999999100121MD1999999+0001REMSYN076AAXX  03124 82392 32499 41803 10270 20211 30012 40114 83230 333 20230 58000;
0137823920999992011050318004-03700-040350FM-12+008399999V0203601N001010450019N0500001N1+02841+02501100761ADDGF106991031051004501011001MA1999999099741MD1999999+0021REMSYN070AAXX  03184 82392 32499 63602 10284 20250 39974 40076 83510 333 58002;
0213823920999992011050400004-03700-040350FM-12+008399999V0200901N000510450019N0040001N1+02531+02451101171ADDAA106001091AY101061AY221061GF106991041051004501021001KA1240M+03141MA1999999100151MD1999999+0141MW1211REMSYN100AAXX  04004 82392 21496 60901 10253 20245 30015 40117 72102 84520 333 10314 29086 55066 58014 60011;
0173823920999992011050412004-03700-040350FM-12+008399999V0201801N001010042019N0500001N1+02681+01971101181ADDAA124001091GF106991051051004501031001KA1240N+02231MA1999999100161MD1999999+0041REMSYN082AAXX  04124 82392 22499 61802 10268 20197 30016 40118 85530 333 20223 58004 60014;
0182823920999992011050418004-03700-040350FM-12+008399999V0200501N004610450019N0500001N1+02601+02011100851ADDAA106003091AY161061AY221061GF108991041051004501011999MA1999999099821MD1999999+0081MW1021REMSYN082AAXX  04184 82392 21499 80509 10260 20201 39982 40085 70262 8451/ 333 58008 60031;
0168823920999992011050500004-03700-040350FM-12+008399999V0209999C000010450019N0040001N1+02391+02331101091ADDGF106991031051004501021001KA1240M+02821MA1999999100061MD1999999-0091REMSYN088AAXX  05004 82392 32496 60000 10239 20233 30006 40109 83520 333 10282 29082 55022 59009;
0173823920999992011050512004-03700-040350FM-12+008399999V0201401N000510450019N0500001N1+02611+02411101191ADDAA124003091GF106991031021004501031001KA1240N+02291MA1999999100161MD1999999+0001REMSYN082AAXX  05124 82392 22499 61401 10261 20241 30016 40119 83230 333 20229 58000 60034;
0137823920999992011050518004-03700-040350FM-12+008399999V0209999C000010450019N0500001N1+02701+02411100811ADDGF107991041051004501011001MA1999999099781MD1999999-0041REMSYN070AAXX  05184 82392 32499 70500 10270 20241 39978 40081 84510 333 59004;
0213823920999992011050600004-03700-040350FM-12+008399999V0200901N000512200019N0040001N1+02501+02361101071ADDAA106000591AY121061AY221061GF103991031011004501071001KA1240M+02881MA1999999100051MD1999999-0011MW1201REMSYN100AAXX  06004 82392 21496 30901 10250 20236 30005 40107 72022 83170 333 10288 29089 55010 59001 69951;
0201823920999992011050612004-03700-040350FM-12+008399999V0202701N001012200019N0500001N1+02641+02291101161ADDAA124000891AY151061AY251061GF104991041021004501001001KA1240N+02321MA1999999100141MD1999999-0021MW1021REMSYN088AAXX  06124 82392 21499 42702 10264 20229 30014 40116 70255 84200 333 20232 59002 69984;
0137823920999992011050618004-03700-040350FM-12+008399999V0200501N000510450019N0500001N1+03021+02441100851ADDGF107991031021004501011001MA1999999099831MD1999999+0051REMSYN070AAXX  06184 82392 32499 70501 10302 20244 39983 40085 83210 333 58005;
0178823920999992011050700004-03700-040350FM-12+008399999V0200501N003112200019N0040001N1+02541+02401101171ADDGA1001+999999999GF100991001001999999001001KA1240M+03101MA1999999100151MD1999999+0101REMSYN082AAXX  07004 82392 32996 00506 10254 20240 30015 40117 333 10310 29084 55054 58010;
0201823920999992011050712004-03700-040350FM-12+008399999V0201801N000510450019N0500001N1+02651+02411101261ADDAA124007991AY161061AY261061GF106991031021004501031001KA1240N+02241MA1999999100241MD1999999+0101MW1021REMSYN088AAXX  07124 82392 21499 61801 10265 20241 30024 40126 70266 83230 333 20224 58010 60084;
0137823920999992011050718004-03700-040350FM-12+008399999V0200501N000510450019N0500001N1+02811+02461100921ADDGF107991041061004501031021MA1999999099901MD1999999+0071REMSYN070AAXX  07184 82392 32499 70501 10281 20246 39990 40092 84632 333 58007;
0168823920999992011050800004-03700-040350FM-12+008399999V0200501N000510450019N0040001N1+02511+02431101101ADDGF105991021021004501021001KA1240M+03041MA1999999100081MD1999999-0051REMSYN088AAXX  08004 82392 32496 50501 10251 20243 30008 40110 82220 333 10304 29089 55028 59005;
0156823920999992011050812004-03700-040350FM-12+008399999V0202701N001012200019N0500001N1+02621+02271101121ADDGF103991021011004501001011KA1240N+02341MA1999999100141MD1999999+0141REMSYN076AAXX  08124 82392 32499 32702 10262 20227 30014 40112 82101 333 20234 58014;
0156823920999992011050818004-03700-040350FM-12+008399999V0201801N002112200019N0500001N1+03141+02241100771ADDGF102991999011004501001001MA1999999099751MD1999999-0151REMSYN070AAXX  08184 82392 32499 21804 10314 20224 39975 40077 81100 333 59015;EQDQ01+000012SCOTLC
0213823920999992011050900004-03700-040350FM-12+008399999V0202701N000510450019N0040001N1+02401+02261101031ADDAA106016091AY161061AY261061GF108991041061004501021999KA1240M+03261MA1999999100001MD1999999-0081MW1211REMSYN100AAXX  09004 82392 21496 82701 10240 20226 30000 40103 72166 8462/ 333 10326 29081 55084 59008 60161;
0173823920999992011050912004-03700-040350FM-12+008399999V0201801N002112200019N0500001N1+02661+02181101071ADDAA124016091GF104991021011004501001011KA1240N+02301MA1999999100011MD1999999-0061REMSYN082AAXX  09124 82392 22499 41804 10266 20218 30001 40107 82101 333 20230 59006 60164;
0156823920999992011050918004-03700-040350FM-12+008399999V0200501N004119999999N0500001N1+03101+02231100711ADDGF106991999021004501001001MA1999999099691MD1999999-0061REMSYN070AAXX  09184 82392 32499 60508 10310 20223 39969 40071 84200 333 59006;EQDQ01+000042SCOTLC
0168823920999992011051000004-03700-040350FM-12+008399999V0200901N000510450019N0040001N1+02511+02361100861ADDGF106991021011004501011001KA1240M+03141MA1999999099841MD1999999-0161REMSYN088AAXX  10004 82392 32496 60901 10251 20236 39984 40086 82110 333 10314 29079 55076 59016;
0201823920999992011051012004-03700-040350FM-12+008399999V0201801N000510450019N0500001N1+02681+02201100981ADDAA124000391AY151061AY221061GF107991031051004501011001KA1240N+02341MA1999999099961MD1999999-0081MW1021REMSYN088AAXX  10124 82392 21499 71801 10268 20220 39996 40098 70252 83510 333 20234 59008 69934;
0182823920999992011051018004-03700-040350FM-12+008399999V0203601N001010042019N0500001N1+02491+02431100701ADDAA106003091AY101061AY221061GF108991051051004501011999MA1999999099671MD1999999-0021MW1211REMSYN082AAXX  10184 82392 21499 83602 10249 20243 39967 40070 72102 8551/ 333 59002 60031;
0213823920999992011051100004-03700-040350FM-12+008399999V0209999C000010042019N0040001N1+02391+02351101071ADDAA106015091AY161061AY261061GF108991081051004501999999KA1240M+03131MA1999999100041MD1999999+0201MW1511REMSYN100AAXX  11004 82392 21496 80000 10239 20235 30004 40107 75166 885// 333 10313 29091 55049 58020 60151;
0201823920999992011051112004-03700-040350FM-12+008399999V0201801N001010450019N0500001N1+02501+02291101111ADDAA124033091AY161061AY261061GF107991031051004501031001KA1240N+02301MA1999999100081MD1999999+0121MW1021REMSYN088AAXX  11124 82392 21499 71802 10250 20229 30008 40111 70266 83530 333 20230 58012 60334;
0182823920999992011051118004-03700-040350FM-12+008399999V0202701N000510450019N0500001N1+02741+02141100831ADDAA106000391AY151061AY221061GF108991031051004501011999MA1999999099801MD1999999+0131MW1021REMSYN082AAXX  11184 82392 21499 82701 10274 20214 39980 40083 70252 8351/ 333 58013 69931;
0168823920999992011051200004-03700-040350FM-12+008399999V0209999C000010450019N0040001N1+02581+02351101021ADDGF108991031051004501031999KA1240M+02871MA1999999099991MD1999999-0051REMSYN088AAXX  12004 82392 32496 80000 10258 20235 39999 40102 8353/ 333 10287 29083 55007 59005;
0173823920999992011051212004-03700-040350FM-12+008399999V0202301N000510450019N0500001N1+02621+02331101041ADDAA124000391GF107991031021004501031001KA1240N+02361MA1999999100021MD1999999-0061REMSYN082AAXX  12124 82392 22499 72301 10262 20233 30002 40104 83230 333 20236 59006 69934;
0137823920999992011051218004-03700-040350FM-12+008399999V0201801N000510450019N0500001N1+03001+02031100591ADDGF107991021021004501031001MA1999999099581MD1999999-0221REMSYN070AAXX  12184 82392 32499 71801 10300 20203 39958 40059 82230 333 59022;
0168823920999992011051300004-03700-040350FM-12+008399999V0200501N001010450019N0040001N1+02601+02311100911ADDGF107991041041004501031001KA1240M+03101MA1999999099891MD1999999-0101REMSYN088AAXX  13004 82392 32496 70502 10260 20231 39989 40091 84430 333 10310 29077 55052 59010;
0156823920999992011051312004-03700-040350FM-12+008399999V0201801N001012200019N0500001N1+02661+02071100921ADDGF104991031011004501001011KA1240N+02191MA1999999099901MD1999999-0121REMSYN076AAXX  13124 82392 32499 41802 10266 20207 39990 40092 83101 333 20219 59012;
0137823920999992011051318004-03700-040350FM-12+008399999V0202301N000510450019N0500001N1+03111+02251100541ADDGF106991031061004501031001MA1999999099531MD1999999-0051REMSYN070AAXX  13184 82392 32499 62301 10311 20225 39953 40054 83630 333 59005;
0168823920999992011051400004-03700-040350FM-12+008399999V0200901N001010450019N0040001N1+02601+02031100881ADDGF106991041041004501031001KA1240M+03181MA1999999099861MD1999999-0031REMSYN088AAXX  14004 82392 32496 60902 10260 20203 39986 40088 84430 333 10318 29068 55095 59003;
0156823920999992011051412004-03700-040350FM-12+008399999V0202701N001010450019N0500001N1+02601+02031101021ADDGF106991031011004501031001KA1240N+02201MA1999999100001MD1999999+0101REMSYN076AAXX  14124 82392 32499 62702 10260 20203 30000 40102 83130 333 20220 58010;
0137823920999992011051418004-03700-040350FM-12+008399999V0200501N000510450019N0500001N1+02861+02011100781ADDGF108991031051004501021999MA1999999099761MD1999999+0231REMSYN070AAXX  14184 82392 32499 80501 10286 20201 39976 40078 8352/ 333 58023;
0168823920999992011051500004-03700-040350FM-12+008399999V0200501N002110450019N0040001N1+02461+02321101091ADDGF108991031011004501011999KA1240M+03001MA1999999100061MD1999999+0201REMSYN088AAXX  15004 82392 32496 80504 10246 20232 30006 40109 8311/ 333 10300 29079 55023 58020;
0156823920999992011051512004-03700-040350FM-12+008399999V0201401N000510450019N0500001N1+02571+02371101031ADDGF106991031041004501031001KA1240N+02281MA1999999100001MD1999999+0001REMSYN076AAXX  15124 82392 32499 61401 10257 20237 30000 40103 83430 333 20228 58000;
0137823920999992011051518004-03700-040350FM-12+008399999V0209999C000010450019N0500001N1+02971+02331100621ADDGF106991021021004501031011MA1999999099611MD1999999-0151REMSYN070AAXX  15184 82392 32499 61800 10297 20233 39961 40062 82231 333 59015;
0168823920999992011051600004-03700-040350FM-12+008399999V0209999C000010450019N0040001N1+02511+02361100971ADDGF106991021041004501031001KA1240M+03131MA1999999099941MD1999999-0121REMSYN088AAXX  16004 82392 32496 60000 10251 20236 39994 40097 82430 333 10313 29085 55041 59012;
0156823920999992011051612004-03700-040350FM-12+008399999V0201801N001012200019N0500001N1+02741+02261101021ADDGF105991041011004501001011KA1240N+02321MA1999999100001MD1999999+0001REMSYN076AAXX  16124 82392 32499 51802 10274 20226 30000 40102 84101 333 20232 58000;
0137823920999992011051618004-03700-040350FM-12+008399999V0200501N001010450019N0500001N1+03061+02171100691ADDGF106991031041004501031001MA1999999099671MD1999999+0061REMSYN070AAXX  16184 82392 32499 60502 10306 20217 39967 40069 83430 333 58006;
0172823920999992011051700004-03700-040350FM-12+008399999V0203601N001010450019N0040001N1+02571+02371101041ADDGF106991021021004501011001KA1240M+03111MD1999999+0081REMSYN088AAXX  17004 82392 32496 63602 10257 20237 33002 40104 82210 333 10311 29078 55085 58008;EQDQ01+030021APOSP 
0156823920999992011051712004-03700-040350FM-12+008399999V0203201N000510450019N0500001N1+02681+02111101181ADDGF105991041021004501031001KA1240N+02241MA1999999100161MD1999999+0161REMSYN076AAXX  17124 82392 32499 53201 10268 20211 30016 40118 84230 333 20224 58016;
0137823920999992011051718004-03700-040350FM-12+008399999V0209999C000012200019N0500001N1+03131+02211100751ADDGF106991031021008001001011MA1999999099731MD1999999+0061REMSYN070AAXX  17184 82392 32599 60000 10313 20221 39973 40075 83201 333 58006;
0168823920999992011051800004-03700-040350FM-12+008399999V0201801N000510450019N0040001N1+02411+02281101031ADDGF106991041061004501011001KA1240M+03171MA1999999100011MD1999999-0011REMSYN088AAXX  18004 82392 32496 61801 10241 20228 30001 40103 84610 333 10317 29078 55095 59001;
0156823920999992011051812004-03700-040350FM-12+008399999V0200501N001012200019N0500001N1+02681+02111101151ADDGF104991041021004501001001KA1240N+02281MA1999999100131MD1999999-0131REMSYN076AAXX  18124 82392 32499 40502 10268 20211 30013 40115 84200 333 20228 59013;
0137823920999992011051818004-03700-040350FM-12+008399999V0200501N001512200019N0500001N1+03081+02101100821ADDGF104991021011004501031001MA1999999099801MD1999999+0071REMSYN070AAXX  18184 82392 32499 40503 10308 20210 39980 40082 82130 333 58007;
0168823920999992011051900004-03700-040350FM-12+008399999V0200501N000510450019N0040001N1+02441+02011101111ADDGF106991021011004501031001KA1240M+03131MA1999999100091MD1999999+0081REMSYN088AAXX  19004 82392 32496 60501 10244 20201 30009 40111 82130 333 10313 29070 55088 58008;
0156823920999992011051912004-03700-040350FM-12+008399999V0202701N000510450019N0500001N1+02721+02411101211ADDGF106991031021004501031001KA1240N+02291MA1999999100191MD1999999+0061REMSYN076AAXX  19124 82392 32499 62701 10272 20241 30019 40121 83230 333 20229 58006;
0182823920999992011051918004-03700-040350FM-12+008399999V0209999C000010042019N0500001N1+02681+02451100901ADDAA106009991AY161061AY261061GF107991051061004501031001MA1999999099871MD1999999+0071MW1021REMSYN082AAXX  19184 82392 21499 72700 10268 20245 39987 40090 70266 85630 333 58007 60101;
0213823920999992011052000004-03700-040350FM-12+008399999V0201801N000512200019N0040001N1+02341+02201101231ADDAA106034091AY161061AY261061GF104991041021004501001001KA1240M+03041MA1999999100201MD1999999+0111MW1021REMSYN100AAXX  20004 82392 21496 41801 10234 20220 30020 40123 70266 84200 333 10304 29088 55050 58011 60341;
0173823920999992011052012004-03700-040350FM-12+008399999V0201801N002110450019N0500001N1+02561+02421101361ADDAA124045091GF108991041071004501021999KA1240N+02201MA1999999100331MD1999999+0141REMSYN082AAXX  20124 82392 22499 81804 10256 20242 30033 40136 8472/ 333 20220 58014 60454;
0137823920999992011052018004-03700-040350FM-12+008399999V0200501N001010042019N0500001N1+02521+02421100971ADDGF106991051061004501031001MA1999999099941MD1999999+0071REMSYN070AAXX  20184 82392 32499 60502 10252 20242 39994 40097 85630 333 58007;
0168823920999992011052100004-03700-040350FM-12+008399999V0201801N001012200019N0040001N1+02461+02321101161ADDGF103991031001004501031001KA1240M+03041MA1999999100131MD1999999-0071REMSYN088AAXX  21004 82392 32496 31802 10246 20232 30013 40116 83030 333 10304 29092 55039 59007;
0156823920999992011052112004-03700-040350FM-12+008399999V0201801N000510450019N0500001N1+02631+02331101371ADDGF105991031021004501031001KA1240N+02191MA1999999100351MD1999999+0021REMSYN076AAXX  21124 82392 32499 51801 10263 20233 30035 40137 83230 333 20219 58002;
0137823920999992011052118004-03700-040350FM-12+008399999V0209999C000010450019N0500001N1+03001+01841101011ADDGF106991031021004501031001MA1999999099991MD1999999+0051REMSYN070AAXX  21184 82392 32499 60900 10300 20184 39999 40101 83230 333 58005;
0168823920999992011052200004-03700-040350FM-12+008399999V0209999C000012200019N0040001N1+02501+02401101131ADDGF102991011011004501011001KA1240M+03071MA1999999100111MD1999999-0021REMSYN088AAXX  22004 82392 32496 20500 10250 20240 30011 40113 81110 333 10307 29085 55080 59002;
0156823920999992011052212004-03700-040350FM-12+008399999V0201801N003112200019N0500001N1+02601+02031101241ADDGF101991011011004501001001KA1240N+02301MA1999999100221MD1999999-0131REMSYN076AAXX  22124 82392 32499 11806 10260 20203 30022 40124 81100 333 20230 59013;
0178823920999992011052300004-03700-040350FM-12+008399999V0201801N001012200019N0040001N1+02481+02361101201ADDGA1001+999999999GF100991001001999999001001KA1240M+03001MA1999999100171MD1999999+0061REMSYN082AAXX  23004 82392 32496 01802 10248 20236 30017 40120 333 10300 29078 55059 58006;
0156823920999992011052312004-03700-040350FM-12+008399999V0201401N001012200019N0500001N1+02621+02311101221ADDGF103991031011004501001001KA1240N+02301MA1999999100201MD1999999-0021REMSYN076AAXX  23124 82392 32499 31402 10262 20231 30020 40122 83100 333 20230 59002;
0137823920999992011052318004-03700-040350FM-12+008399999V0200901N001010450019N0500001N1+03041+02031100961ADDGF105991021041004501031001MA1999999099941MD1999999-0061REMSYN070AAXX  23184 82392 32499 50902 10304 20203 39994 40096 82430 333 59006;
0213823920999992011052400004-03700-040350FM-12+008399999V0209999C000010450019N0040001N1+02431+02351101231ADDAA106004191AY161061AY261061GF106991041041004501021001KA1240M+03081MA1999999100201MD1999999+0031MW1021REMSYN100AAXX  24004 82392 21496 60000 10243 20235 30020 40123 70266 84420 333 10308 29082 55089 58003 60041;
0173823920999992011052412004-03700-040350FM-12+008399999V0200901N000512200019N0500001N1+02661+02021101281ADDAA124004191GF104991041021004501001001KA1240N+02281MA1999999100251MD1999999+0051REMSYN082AAXX  24124 82392 22499 40901 10266 20202 30025 40128 84200 333 20228 58005 60044;
0201823920999992011052418004-03700-040350FM-12+008399999V0200901N000510450019N0500001N1+03121+02251100871ADDAA106000091AY161061AY261061GF105991021021004501031001MA1999999099851MD1999999-0091MW1021REMSYN082AAXX  24184 82392 21499 50901 10312 20225 39985 40087 70266 82230 333 59009 69921;EQDQ01  00002PRCP06
0168823920999992011052500004-03700-040350FM-12+008399999V0203601N000512200019N0040001N1+02411+02331101211ADDGF102991021001008001011001KA1240M+03141MA1999999100181MD1999999-0021REMSYN088AAXX  25004 82392 32596 23601 10241 20233 30018 40121 82010 333 10314 29080 55084 59002;
0201823920999992011052512004-03700-040350FM-12+008399999V0201401N002112200019N0500001N1+02741+02101101321ADDAA124000591AY151061AY251061GF104991041021004501001001KA1240N+02301MA1999999100301MD1999999+0051MW1021REMSYN088AAXX  25124 82392 21499 41404 10274 20210 30030 40132 70255 84200 333 20230 58005 69944;
0137823920999992011052518004-03700-040350FM-12+008399999V0201401N001010450019N0500001N1+03001+02111101021ADDGF106991031051004501031001MA1999999100001MD1999999+0151REMSYN070AAXX  25184 82392 32499 61402 10300 20211 30000 40102 83530 333 58015;
0168823920999992011052600004-03700-040350FM-12+008399999V0209999C000010450019N0040001N1+02561+02401101291ADDGF106991031051004501011001KA1240M+03131MA1999999100271MD1999999+0091REMSYN088AAXX  26004 82392 32496 60000 10256 20240 30027 40129 83510 333 10313 29077 55072 58009;
0156823920999992011052612004-03700-040350FM-12+008399999V0201401N000510450019N0500001N1+02631+02311101351ADDGF106991041061004501031001KA1240N+02321MA1999999100331MD1999999+0031REMSYN076AAXX  26124 82392 32499 61401 10263 20231 30033 40135 84630 333 20232 58003;
0137823920999992011052618004-03700-040350FM-12+008399999V0201401N000510450019N0500001N1+02861+02231101071ADDGF106991011021004501031001MA1999999100051MD1999999+0051REMSYN070AAXX  26184 82392 32499 61401 10286 20223 30005 40107 81230 333 58005;
0178823920999992011052700004-03700-040350FM-12+008399999V0200501N000512200019N0040001N1+02481+02341101361ADDGA1001+999999999GF100991001001999999001001KA1240M+02941MA1999999100341MD1999999+0071REMSYN082AAXX  27004 82392 32996 00501 10248 20234 30034 40136 333 10294 29084 55054 58007;
0156823920999992011052712004-03700-040350FM-12+008399999V0201801N000510450019N0500001N1+02601+02191101381ADDGF105991011011004501031001KA1240N+02201MA1999999100351MD1999999+0021REMSYN076AAXX  27124 82392 32499 51801 10260 20219 30035 40138 81130 333 20220 58002;
0137823920999992011052718004-03700-040350FM-12+008399999V0209999C000010450019N0500001N1+02981+02281100951ADDGF106991021021004501011011MA1999999099931MD1999999-0121REMSYN070AAXX  27184 82392 32499 61800 10298 20228 39993 40095 82211 333 59012;
0168823920999992011052800004-03700-040350FM-12+008399999V0200501N001012200019N0040001N1+02541+02251101161ADDGF103991031001004501031001KA1240M+03061MA1999999100141MD1999999-0201REMSYN088AAXX  28004 82392 32496 30502 10254 20225 30014 40116 83030 333 10306 29078 55068 59020;
0156823920999992011052812004-03700-040350FM-12+008399999V0201801N001012200019N0500001N1+02681+02111101261ADDGF103991031011004501001001KA1240N+02101MA1999999100241MD1999999-0111REMSYN076AAXX  28124 82392 32499 31802 10268 20211 30024 40126 83100 333 20210 59011;
0137823920999992011052818004-03700-040350FM-12+008399999V0201801N000512200019N0500001N1+03141+02161100861ADDGF104991031011004501001011MA1999999099841MD1999999-0091REMSYN070AAXX  28184 82392 32499 41801 10314 20216 39984 40086 83101 333 59009;
0178823920999992011052900004-03700-040350FM-12+008399999V0203601N000512200019N0040001N1+02501+02341101121ADDGA1001+999999999GF100991001001999999001001KA1240M+03201MA1999999100101MD1999999-0041REMSYN082AAXX  29004 82392 32996 03601 10250 20234 30010 40112 333 10320 29077 55104 59004;
0156823920999992011052912004-03700-040350FM-12+008399999V0200901N000512200019N0500001N1+02661+02271101211ADDGF106991031021004501001011KA1240N+02161MA1999999100191MD1999999-0051REMSYN076AAXX  29124 82392 32499 60901 10266 20227 30019 40121 83201 333 20216 59005;
0137823920999992011052918004-03700-040350FM-12+008399999V0200901N000510450019N0020001N1+03091+02201100761ADDGF105991021021004501031001MA1999999099741MD1999999-0101REMSYN070AAXX  29184 82392 32495 50901 10309 20220 39974 40076 82230 333 59010;
0213823920999992011053000004-03700-040350FM-12+008399999V0200501N000510450019N0040001N1+02331+02261101201ADDAA106007191AY161061AY261061GF105991031041004501031001KA1240M+03121MA1999999100171MD1999999+0071MW1211REMSYN100AAXX  30004 82392 21496 50501 10233 20226 30017 40120 72166 83430 333 10312 29082 55101 58007 60071;
0173823920999992011053012004-03700-040350FM-12+008399999V0201801N001012200019N0500001N1+02601+02031101331ADDAA124007191GF102991021011004501001001KA1240N+02281MA1999999100301MD1999999+0111REMSYN082AAXX  30124 82392 22499 21802 10260 20203 30030 40133 82100 333 20228 58011 60074;
0137823920999992011053018004-03700-040350FM-12+008399999V0200901N002112200019N0500001N1+03061+02221100901ADDGF104991011011004501001011MA1999999099881MD1999999+0141REMSYN070AAXX  30184 82392 32499 40904 10306 20222 39988 40090 81101 333 58014;
0178823920999992011053100004-03700-040350FM-12+008399999V0209999C000012200019N0040001N1+02431+02271101111ADDGA1001+999999999GF100991001001999999001001KA1240M+03131MA1999999100081MD1999999-0091REMSYN082AAXX  31004 82392 32996 00000 10243 20227 30008 40111 333 10313 29078 55094 59009;
0156823920999992011053112004-03700-040350FM-12+008399999V0200901N001510450019N0500001N1+02701+02061101171ADDGF106991041021004501031001KA1240N+02141MA1999999100151MD1999999-0151REMSYN076AAXX  31124 82392 32499 60903 10270 20206 30015 40117 84230 333 20214 59015;
0168823920999992011060100004-03700-040350FM-12+008399999V0209999C000012200019N0040001N1+02421+02091101101ADDGF102991021001008001031001KA1240M+03131MA1999999100081MD1999999+0001REMSYN088AAXX  01004 82392 32596 20000 10242 20209 30008 40110 82030 333 10313 29073 55104 58000;
0156823920999992011060112004-03700-040350FM-12+008399999V0209999C000010450019N0500001N1+02561+01901101181ADDGF106991031021004501031001KA1240N+02021MA1999999100151MD1999999+0001REMSYN076AAXX  01124 82392 32499 60000 10256 20190 30015 40118 83230 333 20202 58000;
0156823920999992011060118004-03700-040350FM-12+008399999V0201801N000519999999N0500001N1+02901+02041100771ADDGF106991999021004501001001MA1999999099751MD1999999-0051REMSYN070AAXX  01184 82392 32499 61801 10290 20204 39975 40077 83200 333 59005;EQDQ01+000032SCOTLC
0168823920999992011060200004-03700-040350FM-12+008399999V0209999C000010450019N0040001N1+02531+02351101081ADDGF108991041041004501021999KA1240M+02971MA1999999100061MD1999999-0021REMSYN088AAXX  02004 82392 32496 80000 10253 20235 30006 40108 8442/ 333 10297 29076 55031 59002;
0156823920999992011060212004-03700-040350FM-12+008399999V0201401N000510450019N0500001N1+02591+02141101191ADDGF106991021011004501011001KA1240N+01991MA1999999100171MD1999999+0021REMSYN076AAXX  02124 82392 32499 61401 10259 20214 30017 40119 82110 333 20199 58002;
0137823920999992011060218004-03700-040350FM-12+008399999V0201401N001010450019N0500001N1+02961+02181100891ADDGF106991021021004501041011MA1999999099861MD1999999+0111REMSYN070AAXX  02184 82392 32499 61402 10296 20218 39986 40089 82241 333 58011;
0178823920999992011060300004-03700-040350FM-12+008399999V0201401N000512200019N0040001N1+02501+02151101011ADDGA1001+999999999GF100991001001999999001001KA1240M+03041MA1999999099981MD1999999-0081REMSYN082AAXX  03004 82392 32996 01401 10250 20215 39998 40101 333 10304 29075 55055 59008;
0156823920999992011060312004-03700-040350FM-12+008399999V0201801N000512200019N0500001N1+02561+01991101161ADDGF104991021021004501031001KA1240N+02001MA1999999100131MD1999999-0041REMSYN076AAXX  03124 82392 32499 41801 10256 20199 30013 40116 82230 333 20200 59004;
0137823920999992011060318004-03700-040350FM-12+008399999V0209999C000010450019N0500001N1+02931+02211100941ADDGF107991031041004501031001MA1999999099911MD1999999+0051REMSYN070AAXX  03184 82392 32499 70000 10293 20221 39991 40094 83430 333 58005;
0168823920999992011060400004-03700-040350FM-12+008399999V0200501N000512200019N0040001N1+02521+02171101131ADDGF103991011021004501011031KA1240M+03101MA1999999100101MD1999999+0021REMSYN088AAXX  04004 82392 32496 30501 10252 20217 30010 40113 81213 333 10310 29074 55051 58002;
0201823920999992011060412004-03700-040350FM-12+008399999V0202301N001010450019N0500001N1+02231+02101101471ADDAA124019191AY161061AY261061GF107991031041004501031001KA1240N+02041MA1999999100441MD1999999+0021MW1021REMSYN088AAXX  04124 82392 21499 72302 10223 20210 30044 40147 70266 83430 333 20204 58002 60194;
0137823920999992011060418004-03700-040350FM-12+008399999V0201801N000512200019N0500001N1+02971+02151101011ADDGF103991011011004501001021MA1999999099991MD1999999+0081REMSYN070AAXX  04184 82392 32499 31801 10297 20215 39999 40101 81102 333 58008;
0168823920999992011060500004-03700-040350FM-12+008399999V0209999C000010450019N0200001N1+02481+02321101221ADDGF107991041041004501031001KA1240M+03041MA1999999100191MD1999999+0091REMSYN088AAXX  05004 82392 32498 70000 10248 20232 30019 40122 84430 333 10304 29084 55077 58009;
0156823920999992011060512004-03700-040350FM-12+008399999V0202701N000512200019N0500001N1+02581+02311101271ADDGF102991021011004501001001KA1240N+02101MA1999999100241MD1999999-0201REMSYN076AAXX  05124 82392 32499 22701 10258 20231 30024 40127 82100 333 20210 59020;
0137823920999992011060518004-03700-040350FM-12+008399999V0202701N000512200019N0500001N1+03161+02201100921ADDGF102991021011004501001001MA1999999099901MD1999999-0091REMSYN070AAXX  05184 82392 32499 22701 10316 20220 39990 40092 82100 333 59009;
0178823920999992011060600004-03700-040350FM-12+008399999V0200501N002112200019N0040001N1+02481+02191101181ADDGA1001+999999999GF100991001001999999001001KA1240M+03261MA1999999100151MD1999999-0041REMSYN082AAXX  06004 82392 32996 00504 10248 20219 30015 40118 333 10326 29078 55099 59004;
0156823920999992011060612004-03700-040350FM-12+008399999V0200901N001010450019N0500001N1+02581+02311101331ADDGF107991031051004501031001KA1240N+02101MA1999999100301MD1999999+0061REMSYN076AAXX  06124 82392 32499 70902 10258 20231 30030 40133 83530 333 20210 58006;
0137823920999992011060618004-03700-040350FM-12+008399999V0202301N001010042019N0500001N1+02901+02041100941ADDGF106991051051004501031001MA1999999099921MD1999999+0021REMSYN070AAXX  06184 82392 32499 62302 10290 20204 39992 40094 85530 333 58002;
0168823920999992011060700004-03700-040350FM-12+008399999V0200501N000512200019N0040001N1+02401+02331101271ADDGF103991011021004501031001KA1240M+03151MA1999999100241MD1999999+0091REMSYN088AAXX  07004 82392 32496 30501 10240 20233 30024 40127 81230 333 10315 29084 55065 58009;
0201823920999992011060712004-03700-040350FM-12+008399999V0202301N000512200019N0500001N1+02621+02071101541ADDAA124000591AY151061AY221061GF103991031011004501001001KA1240N+02201MA1999999100501MD1999999+0201MW1021REMSYN088AAXX  07124 82392 21499 32301 10262 20207 30050 40154 70252 83100 333 20220 58020 69944;
0137823920999992011060718004-03700-040350FM-12+008399999V0201801N000510450019N0500001N1+03071+02131101241ADDGF105991021011004501031001MA1999999100221MD1999999+0031REMSYN070AAXX  07184 82392 32499 51801 10307 20213 30022 40124 82130 333 58003;
0168823920999992011060800004-03700-040350FM-12+008399999V0209999C000012200019N0040001N1+02391+02241101311ADDGF101991011001999999031001KA1240M+03131MA1999999100281MD1999999+0041REMSYN088AAXX  08004 82392 32996 10000 10239 20224 30028 40131 81030 333 10313 29078 55095 58004;
0156823920999992011060812004-03700-040350FM-12+008399999V0201801N003110450019N0500001N1+02601+02191101541ADDGF106991031041004501031001KA1240N+02201MA1999999100501MD1999999+0001REMSYN076AAXX  08124 82392 32499 61806 10260 20219 30050 40154 83430 333 20220 58000;
0137823920999992011060818004-03700-040350FM-12+008399999V0202301N001010450019N0500001N1+02901+02041101181ADDGF107991031051004501031001MA1999999100161MD1999999-0041REMSYN070AAXX  08184 82392 32499 72302 10290 20204 30016 40118 83530 333 59004;
0156823920999992011060912004-03700-040350FM-12+008399999V0200501N001010450019N0500001N1+02631+02271101411ADDGF106991041051004501031001KA1240N+02211MA1999999100391MD1999999-0111REMSYN076AAXX  09124 82392 32499 60502 10263 20227 30039 40141 84530 333 20221 59011;
0137823920999992011060918004-03700-040350FM-12+008399999V0200901N000511050019N0500001N1+03041+02261101101ADDGF105991021021004501031011MA1999999100081MD1999999-0081REMSYN070AAXX  09184 82392 32499 50901 10304 20226 30008 40110 82231 333 59008;
0168823920999992011061000004-03700-040350FM-12+008399999V0200501N002112200019N0040001N1+02401+02031101381ADDGF102991021001008001031001KA1240M+03121MA1999999100351MD1999999+0091REMSYN088AAXX  10004 82392 32596 20504 10240 20203 30035 40138 82030 333 10312 29076 55064 58009;
0156823920999992011061012004-03700-040350FM-12+008399999V0201801N002112200019N0500001N1+02681+02061101491ADDGF103991031021004501001001KA1240N+02221MA1999999100451MD1999999+0061REMSYN076AAXX  10124 82392 32499 31804 10268 20206 30045 40149 83200 333 20222 58006;
0137823920999992011061018004-03700-040350FM-12+008399999V0203201N000510450019N0100001N1+03071+02291101161ADDGF106991031021008001061001MA1999999100141MD1999999+0061REMSYN070AAXX  10184 82392 32597 63201 10307 20229 30014 40116 83260 333 58006;
0213823920999992011061100004-03700-040350FM-12+008399999V0203601N003110450019N0040001N1+02461+02151101451ADDAA106004191AY161061AY211061GF106991031051004501011001KA1240M+03121MA1999999100431MD1999999+0081MW1021REMSYN100AAXX  11004 82392 21496 63606 10246 20215 30043 40145 70261 83510 333 10312 29074 55090 58008 60041;
0192823920999992011061112004-03700-040350FM-12+008399999V0202301N001012200019N0500001N1+02481+02211101421ADDAA124004191GF102991999021004501001001KA1240N+02001MA1999999100391MD1999999-0061REMSYN082AAXX  11124 82392 22499 22302 10248 20221 30039 40142 83200 333 20200 59006 60044;EQDQ01+000032SCOTLC
0137823920999992011061118004-03700-040350FM-12+008399999V0203601N002612200019N0500001N1+03201+02241101011ADDGF101991011011004501001001MA1999999099991MD1999999-0151REMSYN070AAXX  11184 82392 32499 13605 10320 20224 39999 40101 81100 333 59015;
0178823920999992011061200004-03700-040350FM-12+008399999V0203601N002112200019N0040001N1+02521+02271101271ADDGA1001+999999999GF100991001001999999001001KA1240M+03341MA1999999100241MD1999999-0191REMSYN082AAXX  12004 82392 32996 03604 10252 20227 30024 40127 333 10334 29078 55104 59019;
0156823920999992011061212004-03700-040350FM-12+008399999V0202301N000510042019N0500001N1+02661+02221101361ADDGF105991051041004501001001KA1240N+02151MA1999999100341MD1999999-0051REMSYN076AAXX  12124 82392 32499 52301 10266 20222 30034 40136 85400 333 20215 59005;
0137823920999992011061218004-03700-040350FM-12+008399999V0201401N000512200019N0500001N1+03101+02201100951ADDGF103991011011004501031001MA1999999099931MD1999999-0061REMSYN070AAXX  12184 82392 32499 31401 10310 20220 39993 40095 81130 333 59006;
0168823920999992011061300004-03700-040350FM-12+008399999V0200501N000510450019N0040001N1+02531+02351101251ADDGF105991021021004501031001KA1240M+03201MA1999999100231MD1999999-0011REMSYN088AAXX  13004 82392 32496 50501 10253 20235 30023 40125 82230 333 10320 29079 55098 59001;
0156823920999992011061312004-03700-040350FM-12+008399999V0201801N002612200019N0500001N1+02761+01971101441ADDGF101991011011004501001001KA1240N+02101MA1999999100421MD1999999+0081REMSYN076AAXX  13124 82392 32499 11805 10276 20197 30042 40144 81100 333 20210 58008;
0137823920999992011061318004-03700-040350FM-12+008399999V0200901N002612200019N0500001N1+03201+01631101061ADDGF101991011011004501001001MA1999999100041MD1999999+0111REMSYN070AAXX  13184 82392 32499 10905 10320 20163 30004 40106 81100 333 58011;
0168823920999992011061400004-03700-040350FM-12+008399999V0209999C000012200019N0040001N1+02331+02111101301ADDGF102991021001008001031001KA1240M+03251MA1999999100281MD1999999+0051REMSYN088AAXX  14004 82392 32596 20000 10233 20211 30028 40130 82030 333 10325 29069 55106 58005;
0156823920999992011061412004-03700-040350FM-12+008399999V0203201N002112200019N0500001N1+02541+02111101331ADDGF101991011011004501001001KA1240N+01841MA1999999100301MD1999999-0071REMSYN076AAXX  14124 82392 32499 13204 10254 20211 30030 40133 81100 333 20184 59007;
0137823920999992011061418004-03700-040350FM-12+008399999V0209999C000012200019N0500001N1+03171+01981100951ADDGF101991011011008001001001MA1999999099931MD1999999-0111REMSYN070AAXX  14184 82392 32599 10000 10317 20198 39993 40095 81100 333 59011;
0168823920999992011061500004-03700-040350FM-12+008399999V0200501N000512200019N0040001N1+02431+02131101201ADDGF102991021001008001031001KA1240M+03241MA1999999100171MD1999999-0111REMSYN088AAXX  15004 82392 32596 20501 10243 20213 30017 40120 82030 333 10324 29073 55108 59011;
0156823920999992011061512004-03700-040350FM-12+008399999V0201801N003112200019N0500001N1+02621+02011101231ADDGF101991011011004501001001KA1240N+01901MA1999999100201MD1999999-0151REMSYN076AAXX  15124 82392 32499 11806 10262 20201 30020 40123 81100 333 20190 59015;
0137823920999992011061518004-03700-040350FM-12+008399999V0200501N001012200019N0500001N1+03241+01931100881ADDGF101991011011004501001001MA1999999099861MD1999999-0071REMSYN070AAXX  15184 82392 32499 10502 10324 20193 39986 40088 81100 333 59007;
0168823920999992011061600004-03700-040350FM-12+008399999V0200901N000512200019N0040001N1+02591+01891101091ADDGF101991011001008001031001KA1240M+03301MA1999999100071MD1999999-0101REMSYN088AAXX  16004 82392 32596 10901 10259 20189 30007 40109 81030 333 10330 29061 55108 59010;
0156823920999992011061612004-03700-040350FM-12+008399999V0201401N003112200019N0500001N1+02671+01561101311ADDGF102991021001004501031001KA1240N+01961MA1999999100291MD1999999+0091REMSYN076AAXX  16124 82392 32499 21406 10267 20156 30029 40131 82030 333 20196 58009;
0182823920999992011061618004-03700-040350FM-12+008399999V0200501N001010450019N0500001N1+02631+02331101021ADDAA106000021AY101061AY221061GF107991041051004501021001MA1999999099991MD1999999+0131MW1201REMSYN082AAXX  16184 82392 21499 70502 10263 20233 39999 40102 72002 84520 333 58013 69921;
0168823920999992011061700004-03700-040350FM-12+008399999V0200901N002610450019N0040001N1+02541+02251101221ADDGF107991021051004501011001KA1240M+03121MA1999999100201MD1999999+0051REMSYN088AAXX  17004 82392 32496 70905 10254 20225 30020 40122 82510 333 10312 29078 55040 58005;
0173823920999992011061712004-03700-040350FM-12+008399999V0200901N003110450019N0500001N1+02661+02091101371ADDAA124000021GF107991031051004501031001KA1240N+02301MA1999999100351MD1999999+0061REMSYN082AAXX  17124 82392 22499 70906 10266 20209 30035 40137 83530 333 20230 58006 69924;
0137823920999992011061718004-03700-040350FM-12+008399999V0200901N001010450019N0500001N1+03111+02111100951ADDGF106991021021004501031001MA1999999099931MD1999999-0061REMSYN070AAXX  17184 82392 32499 60902 10311 20211 39993 40095 82230 333 59006;
0187823920999992011061800004-03700-040350FM-12+008399999V0200501N002612200019N0020001N1+02521+02381101271ADDGF104991999021004501001001KA1240M+03211MA1999999100251MD1999999+0051REMSYN088AAXX  18004 82392 32495 40505 10252 20238 30025 40127 83200 333 10321 29078 55066 58005;EQDQ01+000032SCOTLC
0156823920999992011061812004-03700-040350FM-12+008399999V0202301N000510450019N0500001N1+02641+02291101261ADDGF106991041051004501031001KA1240N+02141MA1999999100241MD1999999-0111REMSYN076AAXX  18124 82392 32499 62301 10264 20229 30024 40126 84530 333 20214 59011;
0137823920999992011061818004-03700-040350FM-12+008399999V0201801N001010450019N0500001N1+02931+02311100981ADDGF106991031061004501031001MA1999999099951MD1999999+0021REMSYN070AAXX  18184 82392 32499 61802 10293 20231 39995 40098 83630 333 58002;
0168823920999992011061900004-03700-040350FM-12+008399999V0209999C000010450019N0040001N1+02431+02341101111ADDGF106991031021004501031001KA1240M+03101MA1999999100081MD1999999-0171REMSYN088AAXX  19004 82392 32496 60000 10243 20234 30008 40111 83230 333 10310 29078 55069 59017;
0156823920999992011061912004-03700-040350FM-12+008399999V0200901N001012200019N0500001N1+02681+02111101221ADDGF104991021021004501031001KA1240N+02401MA1999999100201MD1999999-0041REMSYN076AAXX  19124 82392 32499 40902 10268 20211 30020 40122 82230 333 20240 59004;
0182823920999992011061918004-03700-040350FM-12+008399999V0200501N001010450019N0500001N1+02641+02291101001ADDAA106002091AY121061AY221061GF105991041051004501031001MA1999999099981MD1999999-0031MW1211REMSYN082AAXX  19184 82392 21499 50502 10264 20229 39998 40100 72122 84530 333 59003 60021;
0213823920999992011062000004-03700-040350FM-12+008399999V0200501N000510450019N0040001N1+02401+02261101231ADDAA106004191AY161061AY261061GF108991041071004501021999KA1240M+03121MA1999999100201MD1999999+0121MW1021REMSYN100AAXX  20004 82392 21496 80501 10240 20226 30020 40123 70266 8472/ 333 10312 29084 55043 58012 60041;
0201823920999992011062012004-03700-040350FM-12+008399999V0201801N000512200019N0500001N1+02621+02051101241ADDAA124007191AY161061AY261061GF104991041021004501001001KA1240N+02121MA1999999100211MD1999999+0011MW1021REMSYN088AAXX  20124 82392 21499 41801 10262 20205 30021 40124 70266 84200 333 20212 58001 60074;
0137823920999992011062018004-03700-040350FM-12+008399999V0200501N003112200019N0500001N1+03061+02221100921ADDGF104991031021004501031001MA1999999099901MD1999999+0081REMSYN070AAXX  20184 82392 32499 40506 10306 20222 39990 40092 83230 333 58008;
0178823920999992011062100004-03700-040350FM-12+008399999V0203601N000512200019N0040001N1+02411+02251101121ADDGA1001+999999999GF100991001001999999001001KA1240M+03101MA1999999100091MD1999999-0111REMSYN082AAXX  21004 82392 32996 03601 10241 20225 30009 40112 333 10310 29078 55046 59011;
0156823920999992011062112004-03700-040350FM-12+008399999V0202301N000512200019N0500001N1+02601+02061101331ADDGF101991011011004501001001KA1240N+02001MA1999999100301MD1999999+0091REMSYN076AAXX  21124 82392 32499 12301 10260 20206 30030 40133 81100 333 20200 58009;
0137823920999992011062118004-03700-040350FM-12+008399999V0201401N000512200019N0500001N1+03231+01931100931ADDGF102991021011004501001001MA1999999099911MD1999999+0011REMSYN070AAXX  21184 82392 32499 21401 10323 20193 39991 40093 82100 333 58001;
0178823920999992011062200004-03700-040350FM-12+008399999V0209999C000012200019N0040001N1+02481+02211101211ADDGA1001+999999999GF100991001001999999001001KA1240M+03281MA1999999100181MD1999999+0091REMSYN082AAXX  22004 82392 32996 00000 10248 20221 30018 40121 333 10328 29072 55099 58009;
0156823920999992011062212004-03700-040350FM-12+008399999V0201801N001012200019N0500001N1+02641+02091101371ADDGF102991021021004501001001KA1240N+02001MA1999999100651MD1999999+0051REMSYN076AAXX  22124 82392 32499 21802 10264 20209 30065 40137 82200 333 20200 58005;
0137823920999992011062218004-03700-040350FM-12+008399999V0201801N002112200019N0500001N1+03021+02181101061ADDGF103991031021004501001001MA1999999100041MD1999999+0131REMSYN070AAXX  22184 82392 32499 31804 10302 20218 30004 40106 83200 333 58013;
0168823920999992011062300004-03700-040350FM-12+008399999V0209999C000010450019N0040001N1+02541+02251101261ADDGF106991031041004501021001KA1240M+03101MA1999999100241MD1999999+0061REMSYN088AAXX  23004 82392 32496 60000 10254 20225 30024 40126 83420 333 10310 29072 55078 58006;
0173823920999992011062312004-03700-040350FM-12+008399999V0201801N000510450019N0500001N1+02721+02241101321ADDAA124002091GF106991041041004501031001KA1240N+02131MA1999999100301MD1999999-0051REMSYN082AAXX  23124 82392 22499 61801 10272 20224 30030 40132 84430 333 20213 59005 60024;
0137823920999992011062318004-03700-040350FM-12+008399999V0200901N000510450019N0500001N1+03161+02021100911ADDGF105991031041004501031001MA1999999099891MD1999999-0151REMSYN070AAXX  23184 82392 32499 50901 10316 20202 39989 40091 83430 333 59015;
0178823920999992011062400004-03700-040350FM-12+008399999V0200501N002612200019N0040001N1+02461+02031101161ADDGA1001+999999999GF100991001001999999001001KA1240M+03261MA1999999100141MD1999999-0111REMSYN082AAXX  24004 82392 32996 00505 10246 20203 30014 40116 333 10326 29070 55093 59011;
0201823920999992011062412004-03700-040350FM-12+008399999V0200501N002110450019N0500001N1+02501+02291101231ADDAA124001091AY121061AY221061GF108991041071004501011999KA1240N+02201MA1999999100201MD1999999-0101MW1531REMSYN088AAXX  24124 82392 21499 80504 10250 20229 30020 40123 75322 8471/ 333 20220 59010 60014;
0182823920999992011062418004-03700-040350FM-12+008399999V0200501N000510042019N0200001N1+02531+02291100981ADDAA106011991AY161061AY261061GF108991061051004501011999MA1999999099951MD1999999+0061MW1211REMSYN082AAXX  24184 82392 21498 80501 10253 20229 39995 40098 72166 8651/ 333 58006 60121;
0213823920999992011062500004-03700-040350FM-12+008399999V0200901N000512200019N0040001N1+02361+02221101181ADDAA106006191AY161061AY261061GF102991021001004501031001KA1240M+02841MA1999999100151MD1999999+0011MW1021REMSYN100AAXX  25004 82392 21496 20901 10236 20222 30015 40118 70266 82030 333 10284 29090 55015 58001 60061;
0173823920999992011062512004-03700-040350FM-12+008399999V0200901N001012200019N0500001N1+02541+02041101281ADDAA124018091GF103991031021004501001001KA1240N+02121MA1999999100251MD1999999+0051REMSYN082AAXX  25124 82392 22499 30902 10254 20204 30025 40128 83200 333 20212 58005 60184;
0137823920999992011062518004-03700-040350FM-12+008399999V0201401N000512200019N0500001N1+03121+02051100911ADDGF102991011011004501031001MA1999999099891MD1999999-0061REMSYN070AAXX  25184 82392 32499 21401 10312 20205 39989 40091 81130 333 59006;
0178823920999992011062600004-03700-040350FM-12+008399999V0200501N003112200019N0040001N1+02541+02251101131ADDGA1001+999999999GF100991001001999999001001KA1240M+03241MA1999999100101MD1999999-0051REMSYN082AAXX  26004 82392 32996 00506 10254 20225 30010 40113 333 10324 29074 55092 59005;
0156823920999992011062612004-03700-040350FM-12+008399999V0201401N000510450019N0500001N1+02671+02221101291ADDGF105991021021004501031001KA1240N+02191MA1999999100271MD1999999+0021REMSYN076AAXX  26124 82392 32499 51401 10267 20222 30027 40129 82230 333 20219 58002;
0137823920999992011062618004-03700-040350FM-12+008399999V0201801N000512200019N0500001N1+03271+02321100771ADDGF102991021021004501031001MA1999999099751MD1999999-0141REMSYN070AAXX  26184 82392 32499 21801 10327 20232 39975 40077 82230 333 59014;
0168823920999992011062700004-03700-040350FM-12+008399999V0203601N000512200019N0040001N1+02581+02331101331ADDGF102991021001008001021001KA1240M+03321MA1999999100111MD1999999+0011REMSYN088AAXX  27004 82392 32596 23601 10258 20233 30011 40133 82020 333 10332 29076 55100 58001;
0156823920999992011062712004-03700-040350FM-12+008399999V0200901N002110450019N0500001N1+02681+02111101271ADDGF105991041021004501031001KA1240N+02161MA1999999100251MD1999999-0021REMSYN076AAXX  27124 82392 32499 50904 10268 20211 30025 40127 84230 333 20216 59002;
0137823920999992011062718004-03700-040350FM-12+008399999V0200901N001510450019N0500001N1+03121+02051100891ADDGF105991031021004501031001MA1999999099871MD1999999+0121REMSYN070AAXX  27184 82392 32499 50903 10312 20205 39987 40089 83230 333 58012;
0168823920999992011062800004-03700-040350FM-12+008399999V0200901N000512200019N0040001N1+02411+02191101211ADDGF102991011011004501031001KA1240M+03241MA1999999100191MD1999999+0081REMSYN088AAXX  28004 82392 32496 20901 10241 20219 30019 40121 81130 333 10324 29075 55090 58008;
0156823920999992011062812004-03700-040350FM-12+008399999V0200501N001010450019N0500001N1+02601+02031101361ADDGF106991041041004501031001KA1240N+02201MA1999999100331MD1999999+0081REMSYN076AAXX  28124 82392 32499 60502 10260 20203 30033 40136 84430 333 20220 58008;
0182823920999992011062818004-03700-040350FM-12+008399999V0203601N000510450019N0500001N1+02601+02391101011ADDAA106000021AY101061AY221061GF106991031051004501031001MA1999999099981MD1999999+0111MW1201REMSYN082AAXX  28184 82392 21499 63601 10260 20239 39998 40101 72002 83530 333 58011 69911;
0168823920999992011062900004-03700-040350FM-12+008399999V0200501N000512200019N0040001N1+02331+02261101221ADDGF102991021021004501001001KA1240M+03061MA1999999100191MD1999999+0001REMSYN088AAXX  29004 82392 32496 20501 10233 20226 30019 40122 82200 333 10306 29087 55047 58000;
0173823920999992011062912004-03700-040350FM-12+008399999V0200501N003112200019N0500001N1+02661+02041101311ADDAA124000021GF104991021021004501031001KA1240N+02091MA1999999100281MD1999999-0021REMSYN082AAXX  29124 82392 22499 40506 10266 20204 30028 40131 82230 333 20209 59002 69914;
0182823920999992011062918004-03700-040350FM-12+008399999V0203601N002110450019N0500001N1+02501+02211101131ADDAA106001091AY161061AY221061GF108991041071004501021999MA1999999100101MD1999999+0121MW1021REMSYN082AAXX  29184 82392 21499 83604 10250 20221 30010 40113 70262 8472/ 333 58012 60011;
0168823920999992011063000004-03700-040350FM-12+008399999V0200501N000512200019N0040001N1+02271+02161101181ADDGF102991021021004501001001KA1240M+03121MA1999999100151MD1999999-0041REMSYN088AAXX  30004 82392 32496 20501 10227 20216 30015 40118 82200 333 10312 29085 55056 59004;
0173823920999992011063012004-03700-040350FM-12+008399999V0202701N000512200019N0500001N1+02631+02231101171ADDAA124001091GF102991021021004501001001KA1240N+02021MA1999999100141MD1999999-0141REMSYN082AAXX  30124 82392 22499 22701 10263 20223 30014 40117 82200 333 20202 59014 60014;
0137823920999992011063018004-03700-040350FM-12+008399999V0201401N001010450019N0500001N1+03181+02071100841ADDGF106991021021004501031001MA1999999099821MD1999999-0181REMSYN070AAXX  30184 82392 32499 61402 10318 20207 39982 40084 82230 333 59018;
0178823920999992011070100004-03700-040350FM-12+008399999V0203601N001012200019N0040001N1+02421+01991101081ADDGA1001+999999999GF100991001001999999001001KA1240M+03241MA1999999100051MD1999999-0101REMSYN082AAXX  01004 82392 32996 03602 10242 20199 30005 40108 333 10324 29071 55088 59010;
0156823920999992011070112004-03700-040350FM-12+008399999V0201801N001512200019N0500001N1+02581+02211101231ADDGF101991011011004501001001KA1240N+02101MA1999999100201MD1999999+0061REMSYN076AAXX  01124 82392 32499 11803 10258 20221 30020 40123 81100 333 20210 58006;
0168823920999992011070200004-03700-040350FM-12+008399999V0203201N000510450019N0040001N1+02641+02071101071ADDGF106991031011004501031001KA1240M+03271MA1999999100051MD1999999+0001REMSYN088AAXX  02004 82392 32496 63201 10264 20207 30005 40107 83130 333 10327 29074 55107 58000;
0156823920999992011070212004-03700-040350FM-12+008399999V0201401N001512200019N0500001N1+02731+01951101221ADDGF102991011011004501011001KA1240N+02081MA1999999100201MD1999999+0001REMSYN076AAXX  02124 82392 32499 21403 10273 20195 30020 40122 81110 333 20208 58000;
0168823920999992011070300004-03700-040350FM-12+008399999V0209999C000012200019N0040001N1+02561+01901101041ADDGF102991011011004501031001KA1240M+03331MA1999999100021MD1999999-0031REMSYN088AAXX  03004 82392 32496 20000 10256 20190 30002 40104 81130 333 10333 29065 55106 59003;
0156823920999992011070312004-03700-040350FM-12+008399999V0201801N002612200019N0500001N1+02661+02071101171ADDGF102991021011004501001001KA1240N+02131MA1999999100151MD1999999-0051REMSYN076AAXX  03124 82392 32499 21805 10266 20207 30015 40117 82100 333 20213 59005;
0168823920999992011070400004-03700-040350FM-12+008399999V0203601N001012200019N0040001N1+02621+02351101421ADDGF102991021001004501031001KA1240M+03281MA1999999100001MD1999999-0021REMSYN088AAXX  04004 82392 32496 23602 10262 20235 30000 40142 82030 333 10328 29080 55100 59002;
0156823920999992011070412004-03700-040350FM-12+008399999V0200501N004112200019N0500001N1+02781+02061101191ADDGF102991021011004501001001KA1240N+02201MA1999999100171MD1999999+0021REMSYN076AAXX  04124 82392 32499 20508 10278 20206 30017 40119 82100 333 20220 58002;
0168823920999992011070500004-03700-040350FM-12+008399999V0200501N001012200019N0040001N1+02461+02051101171ADDGF102991021021004501001001KA1240M+03281MA1999999100151MD1999999+0051REMSYN088AAXX  05004 82392 32496 20502 10246 20205 30015 40117 82200 333 10328 29074 55100 58005;
0156823920999992011070512004-03700-040350FM-12+008399999V0201401N000510450019N0500001N1+02671+02161101361ADDGF106991031021004501031001KA1240N+02001MA1999999100341MD1999999+0171REMSYN076AAXX  05124 82392 32499 61401 10267 20216 30034 40136 83230 333 20200 58017;
0213823920999992011070600004-03700-040350FM-12+008399999V0200901N000510450019N0040001N1+02481+02411101341ADDAA106001091AY161061AY261061GF106991031021004501031001KA1240M+02941MA1999999100321MD1999999+0171MW1021REMSYN100AAXX  06004 82392 21496 60901 10248 20241 30032 40134 70266 83230 333 10294 29088 55035 58017 60011;
0173823920999992011070612004-03700-040350FM-12+008399999V0201801N000510450019N0500001N1+02601+02171101381ADDAA124001091GF106991021021004501031001KA1240N+02191MA1999999100351MD1999999+0011REMSYN082AAXX  06124 82392 22499 61801 10260 20217 30035 40138 82230 333 20219 58001 60014;
0168823920999992011070700004-03700-040350FM-12+008399999V0203601N001510450019N0040001N1+02581+02291101241ADDGF105991021011004501031001KA1240M+02741MA1999999100221MD1999999-0101REMSYN088AAXX  07004 82392 32496 53603 10258 20229 30022 40124 82130 333 10274 29082 55063 59010;
0156823920999992011070712004-03700-040350FM-12+008399999V0201801N000510450019N0500001N1+02631+02231101311ADDGF106991021011004501031001KA1240N+02241MA1999999100291MD1999999-0061REMSYN076AAXX  07124 82392 32499 61801 10263 20223 30029 40131 82130 333 20224 59006;
0213823920999992011070800004-03700-040350FM-12+008399999V0203601N000512200019N0040001N1+02281+02161101171ADDAA106003091AY161061AY261061GF104991011011004501031001KA1240M+03281MA1999999100141MD1999999-0081MW1021REMSYN100AAXX  08004 82392 21496 43601 10228 20216 30014 40117 70266 81130 333 10328 29088 55062 59008 60031;
0173823920999992011070812004-03700-040350FM-12+008399999V0200901N000510450019N0500001N1+02591+02291101381ADDAA124003091GF106991031021004501031001KA1240N+02271MA1999999100351MD1999999+0061REMSYN082AAXX  08124 82392 22499 60901 10259 20229 30035 40138 83230 333 20227 58006 60034;
0213823920999992011070900004-03700-040350FM-12+008399999V0209999C000010450019N0040001N1+02371+02281101381ADDAA106009991AY161061AY261061GF108991041041004501011999KA1240M+02961MA1999999100351MD1999999+0211MW1021REMSYN100AAXX  09004 82392 21496 80000 10237 20228 30035 40138 70266 8441/ 333 10296 29090 55031 58021 60101;
0173823920999992011070912004-03700-040350FM-12+008399999V0200901N000510450019N0500001N1+02531+02331101441ADDAA124009991GF106991031041004501031001KA1240N+02171MA1999999100411MD1999999+0061REMSYN082AAXX  09124 82392 22499 60901 10253 20233 30041 40144 83430 333 20217 58006 60104;
0213823920999992011071000004-03700-040350FM-12+008399999V0209999C000012200019N0040001N1+02261+02191101431ADDAA106005191AY161061AY261061GF102991011011004501031001KA1240M+02941MA1999999100401MD1999999+0051MW1021REMSYN100AAXX  10004 82392 21496 20000 10226 20219 30040 40143 70266 81130 333 10294 29093 55041 58005 60051;
0173823920999992011071012004-03700-040350FM-12+008399999V0201401N001512200019N0500001N1+02681+02131101491ADDAA124005191GF102991021011004501001001KA1240N+02071MA1999999100451MD1999999+0041REMSYN082AAXX  10124 82392 22499 21403 10268 20213 30045 40149 82100 333 20207 58004 60054;
0168823920999992011071100004-03700-040350FM-12+008399999V0209999C000019999999N0040001N1+02351+02111101331ADDGF106991061001004501031001KA1240M+03191MA1999999100301MD1999999-0101REMSYN088AAXX  11004 82392 32496 60000 10235 20211 30030 40133 86030 333 10319 29081 55099 59010;
0156823920999992011071112004-03700-040350FM-12+008399999V0200901N000512200019N0500001N1+02701+02081101411ADDGF104991041021004501001001KA1240N+02231MA1999999100381MD1999999-0071REMSYN076AAXX  11124 82392 32499 40901 10270 20208 30038 40141 84200 333 20223 59007;
0201823920999992011071212004-03700-040350FM-12+008399999V0209999C000010042019N0500001N1+02491+02251101391ADDAA124001091AY161061AY261061GF107991051061004501031001KA1240N+02271MA1999999100361MD1999999-0021MW1021REMSYN088AAXX  12124 82392 21499 70000 10249 20225 30036 40139 70266 85630 333 20227 59002 60014;
0213823920999992011071300004-03700-040350FM-12+008399999V0209999C000010042019N0040001N1+02311+02161101351ADDAA106008991AY161061AY261061GF108991051061004501011999KA1240M+02921MA1999999100321MD1999999+0031MW1201REMSYN100AAXX  13004 82392 21496 82700 10231 20216 30032 40135 72066 8561/ 333 10292 29089 55041 58003 60091;
0201823920999992011071312004-03700-040350FM-12+008399999V0201401N000510450019N0500001N1+02441+02211101381ADDAA124008991AY151061AY251061GF107991041051004501031001KA1240N+02221MA1999999100351MD1999999-0011MW1021REMSYN088AAXX  13124 82392 21499 71401 10244 20221 30035 40138 70255 84530 333 20222 59001 60094;
0168823920999992011071400004-03700-040350FM-12+008399999V0209999C000010450019N0040001N1+02491+02131101161ADDGF106991021021004501031001KA1240M+03061MA1999999100131MD1999999-0191REMSYN088AAXX  14004 82392 32496 61400 10249 20213 30013 40116 82230 333 10306 29082 55054 59019;
0156823920999992011071412004-03700-040350FM-12+008399999V0201401N001012200019N0500001N1+02531+01931101251ADDGF102991021011004501001001KA1240N+01991MA1999999100221MD1999999-0131REMSYN076AAXX  14124 82392 32499 21402 10253 20193 30022 40125 82100 333 20199 59013;
0168823920999992011071500004-03700-040350FM-12+008399999V0201401N000510450019N0040001N1+02471+02011101181ADDGF108991041041004501011999KA1240M+03121MA1999999100151MD1999999+0021REMSYN088AAXX  15004 82392 32496 81401 10247 20201 30015 40118 8441/ 333 10312 29073 55087 58002;
0156823920999992011071512004-03700-040350FM-12+008399999V0201401N000512200019N0500001N1+02691+02081101261ADDGF103991011011004501031001KA1240N+01961MA1999999100241MD1999999+0021REMSYN076AAXX  15124 82392 32499 31401 10269 20208 30024 40126 81130 333 20196 58002;
0168823920999992011071600004-03700-040350FM-12+008399999V0200501N000510450019N0040001N1+02591+02121101271ADDGF106991021011004501031001KA1240M+03271MA1999999100251MD1999999+0011REMSYN088AAXX  16004 82392 32496 60501 10259 20212 30025 40127 82130 333 10327 29073 55094 58001;
0156823920999992011071612004-03700-040350FM-12+008399999V0200501N001510042019N0500001N1+02551+02211101421ADDGF107991061041004501031001KA1240N+02331MA1999999100401MD1999999+0161REMSYN076AAXX  16124 82392 32499 70503 10255 20221 30040 40142 86430 333 20233 58016;
0213823920999992011071700004-03700-040350FM-12+008399999V0209999C000010450019N0040001N1+02311+02251101451ADDAA106021191AY161061AY261061GF106991031051004501011001KA1240M+02721MA1999999100421MD1999999+0101MW1021REMSYN100AAXX  17004 82392 21496 60000 10231 20225 30042 40145 70266 83510 333 10272 29091 55010 58010 60211;
0156823920999992011071812004-03700-040350FM-12+008399999V0209999C000012200019N0500001N1+02711+02101101341ADDGF103991021011004501031001KA1240N+02061MA1999999100311MD1999999-0151REMSYN076AAXX  18124 82392 32499 31800 10271 20210 30031 40134 82130 333 20206 59015;
0168823920999992011071900004-03700-040350FM-12+008399999V0200501N000512200019N0040001N1+02471+02111101251ADDGF102991021001004501031001KA1240M+03421MA1999999100231MD1999999+0001REMSYN088AAXX  19004 82392 32496 20501 10247 20211 30023 40125 82030 333 10342 29076 55107 58000;
0156823920999992011071912004-03700-040350FM-12+008399999V0200901N000510450019N0500001N1+02671+02201101381ADDGF105991041021008001011001KA1240N+02001MA1999999100361MD1999999+0091REMSYN076AAXX  19124 82392 32599 50901 10267 20220 30036 40138 84210 333 20200 58009;
0168823920999992011072000004-03700-040350FM-12+008399999V0203601N000512200019N0040001N1+02541+02271101291ADDGF101991011011004501001001KA1240M+03361MA1999999100221MD1999999-0011REMSYN088AAXX  20004 82392 32496 13601 10254 20227 30022 40129 81100 333 10336 29080 55101 59001;
0156823920999992011072012004-03700-040350FM-12+008399999V0200901N001510042019N0500001N1+02711+02151101381ADDGF106991061021004501001001KA1240N+02181MA1999999100361MD1999999+0001REMSYN076AAXX  20124 82392 32499 60903 10271 20215 30036 40138 86200 333 20218 58000;
0168823920999992011072100004-03700-040350FM-12+008399999V0200501N000512200019N0040001N1+02481+02091101341ADDGF101991011001008001011001KA1240M+03241MA1999999100321MD1999999+0101REMSYN088AAXX  21004 82392 32596 10501 10248 20209 30032 40134 81010 333 10324 29076 55066 58010;
0156823920999992011072112004-03700-040350FM-12+008399999V0209999C000010042019N0500001N1+02581+02171101431ADDGF106991061041004501001001KA1240N+02131MA1999999100401MD1999999+0041REMSYN076AAXX  21124 82392 32499 61800 10258 20217 30040 40143 86400 333 20213 58004;
0168823920999992011072200004-03700-040350FM-12+008399999V0200501N000512200019N0040001N1+02531+02211101311ADDGF101991011011004501001001KA1240M+03341MA1999999100291MD1999999-0031REMSYN088AAXX  22004 82392 32496 10501 10253 20221 30029 40131 81100 333 10334 29081 55093 59003;
0156823920999992011072212004-03700-040350FM-12+008399999V0201801N000512200019N0500001N1+02631+01981101441ADDGF101991011011004501001001KA1240N+01961MA1999999100421MD1999999+0021REMSYN076AAXX  22124 82392 32499 11801 10263 20198 30042 40144 81100 333 20196 58002;
0168823920999992011072300004-03700-040350FM-12+008399999V0200501N001010450019N0040001N1+02711+01981101301ADDGF106991041021004501031001KA1240M+03301MA1999999100281MD1999999-0011REMSYN088AAXX  23004 82392 32496 60502 10271 20198 30028 40130 84230 333 10330 29065 55088 59001;
0156823920999992011072312004-03700-040350FM-12+008399999V0202301N005712200019N0500001N1+02711+02031101371ADDGF101991011011004501001001KA1240N+02041MA1999999100351MD1999999-0071REMSYN076AAXX  23124 82392 32499 12311 10271 20203 30035 40137 81100 333 20204 59007;
0168823920999992011072400004-03700-040350FM-12+008399999V0201401N000512200019N0040001N1+02661+01901101381ADDGF104991041021004501001001KA1240M+03391MA1999999100361MD1999999+0081REMSYN088AAXX  24004 82392 32496 41401 10266 20190 30036 40138 84200 333 10339 29064 55104 58008;
0156823920999992011072412004-03700-040350FM-12+008399999V0201401N001512200019N0500001N1+02651+01901101561ADDGF102991011011004501031001KA1240N+01971MA1999999100581MD1999999+0181REMSYN076AAXX  24124 82392 32499 21403 10265 20190 30058 40156 81130 333 20197 58018;
0178823920999992011072500004-03700-040350FM-12+008399999V0209999C000012200019N0040001N1+02501+01891101421ADDGA1001+999999999GF100991001001999999001001KA1240M+03211MA1999999100401MD1999999+0041REMSYN082AAXX  25004 82392 32996 00000 10250 20189 30040 40142 333 10321 29067 55083 58004;
0156823920999992011072512004-03700-040350FM-12+008399999V0201801N000512200019N0500001N1+02661+02041101421ADDGF104991031021004501031001KA1240N+02061MA1999999100401MD1999999-0131REMSYN076AAXX  25124 82392 32499 41801 10266 20204 30040 40142 83230 333 20206 59013;
0168823920999992011072600004-03700-040350FM-12+008399999V0203601N001010450019N0040001N1+02761+01891101241ADDGF105991021011004501031001KA1240M+03361MA1999999100221MD1999999-0181REMSYN088AAXX  26004 82392 32496 53602 10276 20189 30022 40124 82130 333 10336 29062 55092 59018;
0156823920999992011072612004-03700-040350FM-12+008399999V0201401N003110450019N0040001N1+02641+01801101481ADDGF106991011011004501031001KA1240N+02041MA1999999100361MD1999999-0041REMSYN076AAXX  26124 82392 32496 61406 10264 20180 30036 40148 81130 333 20204 59004;
0168823920999992011072700004-03700-040350FM-12+008399999V0209999C000010450019N0040001N1+02581+01921101181ADDGF106991021011004501031001KA1240M+03261MA1999999100161MD1999999-0061REMSYN088AAXX  27004 82392 32496 61400 10258 20192 30016 40118 82130 333 10326 29065 55108 59006;
0166823920999992011072712004-03700-040350FM-12+008399999V0201801N003112200019N0500001N1+02611+01621101291ADDGA1001+999999999GF100991001001999999001001KA1240N+01881MA1999999100271MD1999999-0091REMSYN070AAXX  27124 82392 32999 01806 10261 20162 30027 40129 333 20188 59009;
0156823920999992011072812004-03700-040350FM-12+008399999V0201401N000512200019N0500001N1+02641+01801101151ADDGF101991011001008001011001KA1240N+01941MA1999999100131MD1999999-0141REMSYN076AAXX  28124 82392 32599 11401 10264 20180 30013 40115 81010 333 20194 59014;
0168823920999992011072900004-03700-040350FM-12+008399999V0203601N000512200019N0040001N1+02611+02011100971ADDGF101991011001008001011001KA1240M+03301MA1999999099951MD1999999-0111REMSYN088AAXX  29004 82392 32596 13601 10261 20201 39995 40097 81010 333 10330 29066 55072 59011;
0156823920999992011072912004-03700-040350FM-12+008399999V0201401N001012200019N0500001N1+02541+02041101101ADDGF102991021021004501001001KA1240N+01981MA1999999100081MD1999999-0051REMSYN076AAXX  29124 82392 32499 21402 10254 20204 30008 40110 82200 333 20198 59005;
0168823920999992011073000004-03700-040350FM-12+008399999V0203601N000512200019N0040001N1+02531+02111100971ADDGF102991021011004501001001KA1240M+03281MA1999999099941MD1999999-0011REMSYN088AAXX  30004 82392 32496 23601 10253 20211 39994 40097 82100 333 10328 29076 55062 59001;
0156823920999992011073012004-03700-040350FM-12+008399999V0201401N000510450019N0500001N1+02691+02111101101ADDGF106991031021004501031001KA1240N+02251MA1999999100081MD1999999+0001REMSYN076AAXX  30124 82392 32499 61401 10269 20211 30008 40110 83230 333 20225 58000;
0168823920999992011073100004-03700-040350FM-12+008399999V0200501N000512200019N0040001N1+02661+02181101051ADDGF101991011001008001031001KA1240M+03401MA1999999100031MD1999999+0091REMSYN088AAXX  31004 82392 32596 10501 10266 20218 30003 40105 81030 333 10340 29073 55057 58009;
0156823920999992011073112004-03700-040350FM-12+008399999V0201801N000510042019N0500001N1+02671+02111101221ADDGF107991061041004501061001KA1240N+02041MA1999999100201MD1999999+0121REMSYN076AAXX  31124 82392 32499 71801 10267 20211 30020 40122 86460 333 20204 58012;
0123823920999992011073118004-03700-040350FM-12+008399999V0201401N000510450019N0500001N1+03351+01971100781ADDGF106991041041004501031001MA1999999099771REMSYN070AAXX  31184 82392 32499 61401 10335 20197 39977 40078 84430 333 5////;
0178823920999992011080100004-03700-040350FM-12+008399999V0203601N000512200019N0040001N1+02531+02151101091ADDGA1001+999999999GF100991001001999999001001KA1240M+03441MA1999999100071MD1999999+0041REMSYN082AAXX  01004 82392 32996 03601 10253 20215 30007 40109 333 10344 29068 55061 58004;
0156823920999992011080112004-03700-040350FM-12+008399999V0209999C000010450019N0500001N1+02601+02141101231ADDGF106991041041004501031001KA1240N+02091MA1999999100211MD1999999+0011REMSYN076AAXX  01124 82392 32499 62700 10260 20214 30021 40123 84430 333 20209 58001;
0137823920999992011080118004-03700-040350FM-12+008399999V0201801N001012200019N0500001N1+03171+01941100851ADDGF103991021021004501011001MA1999999099831MD1999999+0061REMSYN070AAXX  01184 82392 32499 31802 10317 20194 39983 40085 82210 333 58006;
0178823920999992011080200004-03700-040350FM-12+008399999V0203601N001012200019N0040001N1+02541+01951101101ADDGA1001+999999999GF100991001001999999001001KA1240M+03281MA1999999100081MD1999999+0011REMSYN082AAXX  02004 82392 32996 03602 10254 20195 30008 40110 333 10328 29066 55059 58001;
0156823920999992011080212004-03700-040350FM-12+008399999V0201401N000510042019N0500001N1+02761+02191101271ADDGF106991061021004501001001KA1240N+01991MA1999999100251MD1999999+0041REMSYN076AAXX  02124 82392 32499 61401 10276 20219 30025 40127 86200 333 20199 58004;
0137823920999992011080218004-03700-040350FM-12+008399999V0200901N000512200019N0500001N1+03371+01911100801ADDGF104991041021004501001001MA1999999099781MD1999999-0051REMSYN070AAXX  02184 82392 32499 40901 10337 20191 39978 40080 84200 333 59005;
0178823920999992011080300004-03700-040350FM-12+008399999V0203601N001512200019N0040001N1+02521+02021101161ADDGA1001+999999999GF100991001001999999001001KA1240M+03531MA1999999100141MD1999999+0061REMSYN082AAXX  03004 82392 32996 03603 10252 20202 30014 40116 333 10353 29065 55094 58006;
0156823920999992011080312004-03700-040350FM-12+008399999V0201401N000510450019N0500001N1+02741+02021101441ADDGF105991041021004501031001KA1240N+02041MA1999999100421MD1999999+0171REMSYN076AAXX  03124 82392 32499 51401 10274 20202 30042 40144 84230 333 20204 58017;
0156823920999992011080318004-03700-040350FM-12+008399999V0200501N000512200019N0500001N1+03371+01791101011ADDGF103991999021004501031011MA1999999099991MD1999999+0211REMSYN070AAXX  03184 82392 32499 30501 10337 20179 39999 40101 84231 333 58021;EQDQ01+000042SCOTLC
0168823920999992011080400004-03700-040350FM-12+008399999V0200501N001012200019N0040001N1+02521+02131101381ADDGF101991011011004501001001KA1240M+03471MA1999999100361MD1999999+0221REMSYN088AAXX  04004 82392 32496 10502 10252 20213 30036 40138 81100 333 10347 29066 55095 58022;
0156823920999992011080412004-03700-040350FM-12+008399999V0201401N001010042019N0500001N1+02731+02171101591ADDGF106991051021004501031001KA1240N+02191MA1999999100561MD1999999+0141REMSYN076AAXX  04124 82392 32499 61402 10273 20217 30056 40159 85230 333 20219 58014;
0137823920999992011080418004-03700-040350FM-12+008399999V0200901N000512200019N0500001N1+03471+01751101031ADDGF104991041011004501001001MA1999999100011MD1999999+0021REMSYN070AAXX  04184 82392 32499 40901 10347 20175 30001 40103 84100 333 58002;
0178823920999992011080500004-03700-040350FM-12+008399999V0200501N003112200019N0040001N1+02601+02331101331ADDGA1001+999999999GF100991001001999999001001KA1240M+03561MA1999999100311MD1999999-0051REMSYN082AAXX  05004 82392 32996 00506 10260 20233 30031 40133 333 10356 29069 55102 59005;
0156823920999992011080512004-03700-040350FM-12+008399999V0200901N004110450019N0500001N1+02761+01971101491ADDGF106991041021004501031001KA1240N+02201MA1999999100461MD1999999-0101REMSYN076AAXX  05124 82392 32499 60908 10276 20197 30046 40149 84230 333 20220 59010;
0156823920999992011080518004-03700-040350FM-12+008399999V0200901N001012200019N0500001N1+02461+01691101061ADDGF104991999041004501011001MA1999999100041MD1999999+0031REMSYN070AAXX  05184 82392 32499 40902 10246 20169 30004 40106 88410 333 58003;EQDQ01+000082SCOTLC
0137823920999992011080618004-03700-040350FM-12+008399999V0201801N001512200019N0500001N1+03481+01571101191ADDGF101991011011004501001001MA1999999100171MD1999999+0131REMSYN070AAXX  06184 82392 32499 11803 10348 20157 30017 40119 81100 333 58013;
0156823920999992011080712004-03700-040350FM-12+008399999V0201801N001012200019N0500001N1+02681+01891101531ADDGF104991031021004501031001KA1240N+02101MA1999999100501MD1999999-0121REMSYN076AAXX  07124 82392 32499 41802 10268 20189 30050 40153 83230 333 20210 59012;
0137823920999992011080718004-03700-040350FM-12+008399999V0201401N001012200019N0500001N1+03381+01381101061ADDGF104991021021004501031001MA1999999100041MD1999999-0131REMSYN070AAXX  07184 82392 32499 41402 10338 20138 30004 40106 82230 333 59013;
0178823920999992011080800004-03700-040350FM-12+008399999V0200501N002112200019N0040001N1+02661+02021101321ADDGA1001+999999999GF100991001001999999001001KA1240M+03441MA1999999100301MD1999999-0101REMSYN082AAXX  08004 82392 32496 00504 10266 20202 30030 40132 333 10344 29057 55095 59010;
0156823920999992011080812004-03700-040350FM-12+008399999V0201401N001012200019N0500001N1+02701+01911101521ADDGF103991031011004501001001KA1240N+02001MA1999999100491MD1999999-0011REMSYN076AAXX  08124 82392 32499 31402 10270 20191 30049 40152 83100 333 20200 59001;
0137823920999992011080818004-03700-040350FM-12+008399999V0201401N004112200019N0500001N1+03461+01341101071ADDGF101991011011004501001001MA1999999100051MD1999999+0011REMSYN070AAXX  08184 82392 32499 11408 10346 20134 30005 40107 81100 333 58001;
0178823920999992011080900004-03700-040350FM-12+008399999V0203601N001012200019N0040001N1+02601+01941101341ADDGA1001+999999999GF100991001001999999001001KA1240M+03541MA1999999100321MD1999999+0021REMSYN082AAXX  09004 82392 32996 03602 10260 20194 30032 40134 333 10354 29056 55105 58002;
0156823920999992011080912004-03700-040350FM-12+008399999V0200501N002112200019N0500001N1+02741+01891101411ADDGF101991011011004501001001KA1240N+01861MA1999999100391MD1999999-0101REMSYN076AAXX  09124 82392 32499 10504 10274 20189 30039 40141 81100 333 20186 59010;
0137823920999992011080918004-03700-040350FM-12+008399999V0201801N003112200019N0500001N1+03411+02751100861ADDGF103991031021004501001001MA1999999099841MD1999999-0211REMSYN070AAXX  09184 82392 32499 31806 10341 20275 39984 40086 83200 333 59021;
0168823920999992011081000004-03700-040350FM-12+008399999V0203601N001012200019N0040001N1+02631+02091101241ADDGF102991021001008001031001KA1240M+03611MA1999999100221MD1999999-0101REMSYN088AAXX  10004 82392 32596 23602 10263 20209 30022 40124 82030 333 10361 29060 55103 59010;
0156823920999992011081012004-03700-040350FM-12+008399999V0201401N003112200019N0500001N1+02861+02011101321ADDGF102991021011004501001001KA1240N+02201MA1999999100301MD1999999-0091REMSYN076AAXX  10124 82392 32499 21406 10286 20201 30030 40132 82100 333 20220 59009;
0137823920999992011081018004-03700-040350FM-12+008399999V0201401N004112200019N0500001N1+03501+01581100891ADDGF104991031011004501031001MA1999999099881MD1999999+0041REMSYN070AAXX  10184 82392 32499 41408 10350 20158 39988 40089 83130 333 58004;
0178823920999992011081100004-03700-040350FM-12+008399999V0203601N002612200019N0040001N1+02641+02141101111ADDGA1001+999999999GF100991001001999999001001KA1240M+03601MA1999999100091MD1999999-0131REMSYN082AAXX  11004 82392 32996 03605 10264 20214 30009 40111 333 10360 29060 55107 59013;
0156823920999992011081112004-03700-040350FM-12+008399999V0200901N001010042019N0500001N1+02801+02131101361ADDGF105991051021004501001001KA1240N+02321MA1999999100341MD1999999+0041REMSYN076AAXX  11124 82392 32499 50902 10280 20213 30034 40136 85200 333 20232 58004;
0182823920999992011081118004-03700-040350FM-12+008399999V0202301N000510450019N0500001N1+02971+02281100841ADDAA106000591AY101061AY221061GF105991041041004501031001MA1999999099821MD1999999-0061MW1211REMSYN082AAXX  11184 82392 21499 52301 10297 20228 39982 40084 72102 84430 333 59006 69941;
0178823920999992011081200004-03700-040350FM-12+008399999V0203601N002112200019N0040001N1+02661+02091101221ADDGA1001+999999999GF100991001001999999001001KA1240M+03521MA1999999100201MD1999999+0111REMSYN082AAXX  12004 82392 32996 03604 10266 20209 30020 40122 333 10352 29069 55096 58011;
0173823920999992011081212004-03700-040350FM-12+008399999V0201401N001012200019N0500001N1+02861+02011101371ADDAA124000591GF104991021021004501031001KA1240N+02281MA1999999100351MD1999999+0011REMSYN082AAXX  12124 82392 22499 41402 10286 20201 30035 40137 82230 333 20228 58001 69944;
0156823920999992011081218004-03700-040350FM-12+008399999V0201401N002112200019N0500001N1+03331+01711100871ADDGF104991999021004501001001MA1999999099851MD1999999+0031REMSYN070AAXX  12184 82392 32499 41404 10333 20171 39985 40087 83200 333 58003;EQDQ01+000032SCOTLC
0178823920999992011081300004-03700-040350FM-12+008399999V0200501N003112200019N0040001N1+02601+02061101221ADDGA1001+999999999GF100991001001999999001001KA1240M+03461MA1999999100201MD1999999+0001REMSYN082AAXX  13004 82392 32996 00506 10260 20206 30020 40122 333 10346 29060 55102 58000;
0156823920999992011081312004-03700-040350FM-12+008399999V0201401N002112200019N0500001N1+02701+01991101331ADDGF103991031021004501001001KA1240N+01981MA1999999100311MD1999999-0041REMSYN076AAXX  13124 82392 32499 31404 10270 20199 30031 40133 83200 333 20198 59004;
0137823920999992011081318004-03700-040350FM-12+008399999V0200901N004610450019N0500001N1+03321+01611100881ADDGF106991041041004501031001MA1999999099861MD1999999-0011REMSYN070AAXX  13184 82392 32499 60909 10332 20161 39986 40088 84430 333 59001;
0168823920999992011081400004-03700-040350FM-12+008399999V0200901N002110450019N0040001N1+02721+02031101131ADDGF106991031011004501031001KA1240M+03441MA1999999100111MD1999999-0091REMSYN088AAXX  14004 82392 32496 60904 10272 20203 30011 40113 83130 333 10344 29058 55088 59009;
0156823920999992011081412004-03700-040350FM-12+008399999V0200901N000510042019N0500001N1+02641+02141101321ADDGF107991051041004501031001KA1240N+01991MA1999999100301MD1999999-0011REMSYN076AAXX  14124 82392 32499 70901 10264 20214 30030 40132 85430 333 20199 59001;
0137823920999992011081418004-03700-040350FM-12+008399999V0200901N002110042019N0500001N1+03461+01451100861ADDGF105991051021004501001001MA1999999099841MD1999999-0021REMSYN070AAXX  14184 82392 32499 50904 10346 20145 39984 40086 85200 333 59002;
0178823920999992011081500004-03700-040350FM-12+008399999V0203601N002112200019N0040001N1+02631+01981101051ADDGA1001+999999999GF100991001001999999001001KA1240M+03501MA1999999100031MD1999999-0081REMSYN082AAXX  15004 82392 32996 03604 10263 20198 30003 40105 333 10350 29060 55084 59008;
0156823920999992011081512004-03700-040350FM-12+008399999V0200901N004612200019N0500001N1+02741+01951101251ADDGF104991041021004501001001KA1240N+02081MA1999999100231MD1999999-0071REMSYN076AAXX  15124 82392 32499 40909 10274 20195 30023 40125 84200 333 20208 59007;
0137823920999992011081518004-03700-040350FM-12+008399999V0200901N003112200019N0500001N1+03461+01641100761ADDGF104991041021004501001001MA1999999099741MD1999999-0101REMSYN070AAXX  15184 82392 32499 40906 10346 20164 39974 40076 84200 333 59010;
0168823920999992011081600004-03700-040350FM-12+008399999V0200901N001012200019N0040001N1+02621+01911101091ADDGF102991021001008001031001KA1240M+03561MA1999999100071MD1999999+0041REMSYN088AAXX  16004 82392 32596 20902 10262 20191 30007 40109 82030 333 10356 29057 55088 58004;
0156823920999992011081612004-03700-040350FM-12+008399999V0201401N003110450019N0500001N1+02761+01771101251ADDGF105991031021004501031001KA1240N+02201MA1999999100231MD1999999+0001REMSYN076AAXX  16124 82392 32499 51406 10276 20177 30023 40125 83230 333 20220 58000;
0137823920999992011081618004-03700-040350FM-12+008399999V0201401N003110450019N0500001N1+03441+01431100841ADDGF106991031011004501011001MA1999999099831MD1999999+0091REMSYN070AAXX  16184 82392 32499 61406 10344 20143 39983 40084 83110 333 58009;
0168823920999992011081700004-03700-040350FM-12+008399999V0203601N002112200019N0040001N1+02581+01821101161ADDGF103991011011004501031001KA1240M+03511MA1999999100141MD1999999+0071REMSYN088AAXX  17004 82392 32496 33604 10258 20182 30014 40116 81130 333 10351 29053 55106 58007;
0156823920999992011081712004-03700-040350FM-12+008399999V0201801N002112200019N0500001N1+02741+01781101321ADDGF103991031011004501001001KA1240N+01921MA1999999100301MD1999999+0071REMSYN076AAXX  17124 82392 32499 31804 10274 20178 30030 40132 83100 333 20192 58007;
0156823920999992011081718004-03700-040350FM-12+008399999V0201801N002119999999N0500001N1+03481+01251100901ADDGF106991999011004501001001MA1999999099881MD1999999+0051REMSYN070AAXX  17184 82392 32499 61804 10348 20125 39988 40090 83100 333 58005;EQDQ01+000032SCOTLC
0168823920999992011081800004-03700-040350FM-12+008399999V0203601N000512200019N0040001N1+02631+02001101091ADDGF101991011011004501001001KA1240M+03541MA1999999100071MD1999999-0071REMSYN088AAXX  18004 82392 32496 13601 10263 20200 30007 40109 81100 333 10354 29055 55107 59007;
0156823920999992011081812004-03700-040350FM-12+008399999V0200901N001512200019N0500001N1+02771+01821101211ADDGF104991011011004501001011KA1240N+02061MA1999999100191MD1999999-0111REMSYN076AAXX  18124 82392 32499 40903 10277 20182 30019 40121 81101 333 20206 59011;
0156823920999992011081818004-03700-040350FM-12+008399999V0200901N001019999999N0500001N1+03501+02531100721ADDGF106991999021004501001001MA1999999099691MD1999999-0191REMSYN070AAXX  18184 82392 32499 60902 10350 20253 39969 40072 83200 333 59019;EQDQ01+000032SCOTLC
0178823920999992011081900004-03700-040350FM-12+008399999V0200501N002112200019N0040001N1+02661+02061101021ADDGA1001+999999999GF100991001001999999001001KA1240M+03541MA1999999100001MD1999999-0071REMSYN082AAXX  19004 82392 32996 00504 10266 20206 30000 40102 333 10354 29057 55091 59007;
0156823920999992011081912004-03700-040350FM-12+008399999V0201801N001010450019N0500001N1+02701+01991101101ADDGF105991031021004501031001KA1240N+02041MA1999999100081MD1999999-0111REMSYN076AAXX  19124 82392 32499 51802 10270 20199 30008 40110 83230 333 20204 59011;
0137823920999992011081918004-03700-040350FM-12+008399999V0201801N002112200019N0500001N1+03481+01611100621ADDGF103991031011004501001001MA1999999099611MD1999999-0081REMSYN070AAXX  19184 82392 32499 31804 10348 20161 39961 40062 83100 333 59008;
0187823920999992011082000004-03700-040350FM-12+008399999V0202601N002112200019N0500001N1+02721+01881100921ADDGF103991999001008001031001KA1240M+03581MA1999999099901MD1999999-0101REMSYN088AAXX  20004 82392 32599 32604 10272 20188 39990 40092 82030 333 10358 29056 55093 59010;EQDQ01+000022SCOTLC
0156823920999992011082012004-03700-040350FM-12+008399999V0201401N001012200019N0500001N1+02761+01911101161ADDGF104991041011004501001001KA1240N+02041MA1999999100141MD1999999+0061REMSYN076AAXX  20124 82392 32499 41402 10276 20191 30014 40116 84100 333 20204 58006;
0137823920999992011082018004-03700-040350FM-12+008399999V0201801N002112200019N0500001N1+03561+01481100691ADDGF101991011011004501001001MA1999999099671MD1999999+0061REMSYN070AAXX  20184 82392 32499 11804 10356 20148 39967 40069 81100 333 58006;
0168823920999992011082100004-03700-040350FM-12+008399999V0203601N001012200019N0040001N1+02551+01951101121ADDGF102991021001008001011001KA1240M+03621MA1999999100101MD1999999+0201REMSYN088AAXX  21004 82392 32596 23602 10255 20195 30010 40112 82010 333 10362 29057 55110 58020;
0156823920999992011082112004-03700-040350FM-12+008399999V0200901N004112200019N0500001N1+02761+01661101271ADDGF103991021011004501031001KA1240N+02001MA1999999100251MD1999999+0111REMSYN076AAXX  21124 82392 32499 30908 10276 20166 30025 40127 82130 333 20200 58011;
0137823920999992011082118004-03700-040350FM-12+008399999V0200901N001012200019N0500001N1+03561+01431100861ADDGF103991031011004501001001MA1999999099841MD1999999+0171REMSYN070AAXX  21184 82392 32499 30902 10356 20143 39984 40086 83100 333 58017;
0168823920999992011082200004-03700-040350FM-12+008399999V0203601N001012200019N0040001N1+02591+01961101251ADDGF101991011001008001011001KA1240M+03611MA1999999100231MD1999999+0131REMSYN088AAXX  22004 82392 32596 13602 10259 20196 30023 40125 81010 333 10361 29054 55110 58013;
0156823920999992011082212004-03700-040350FM-12+008399999V0200501N005112200019N0500001N1+02781+01881101351ADDGF104991031021004501031001KA1240N+02011MA1999999100331MD1999999+0081REMSYN076AAXX  22124 82392 32499 40510 10278 20188 30033 40135 83230 333 20201 58008;
0137823920999992011082218004-03700-040350FM-12+008399999V0200501N003112200019N0500001N1+03461+01661100921ADDGF104991031021004501031001MA1999999099901MD1999999+0061REMSYN070AAXX  22184 82392 32499 40506 10346 20166 39990 40092 83230 333 58006;
0178823920999992011082300004-03700-040350FM-12+008399999V0203601N001512200019N0040001N1+02591+02031101221ADDGA1001+999999999GF100991001001999999001001KA1240M+03541MA1999999100201MD1999999-0031REMSYN082AAXX  23004 82392 32996 03603 10259 20203 30020 40122 333 10354 29058 55106 59003;
0156823920999992011082312004-03700-040350FM-12+008399999V0201401N001512200019N0500001N1+02901+01961101451ADDGF104991041021004501001001KA1240N+02301MA1999999100431MD1999999+0101REMSYN076AAXX  23124 82392 32499 41403 10290 20196 30043 40145 84200 333 20230 58010;
0168823920999992011082400004-03700-040350FM-12+008399999V0209999C000012200019N0040001N1+02711+01821101331ADDGF101991011001008001011001KA1240M+03521MA1999999100311MD1999999+0111REMSYN088AAXX  24004 82392 32596 10500 10271 20182 30031 40133 81010 333 10352 29053 55100 58011;
0156823920999992011082412004-03700-040350FM-12+008399999V0200501N004610450019N0500001N1+02901+01961101571ADDGF105991041041004501031001KA1240N+02231MA1999999100541MD1999999+0111REMSYN076AAXX  24124 82392 32499 50509 10290 20196 30054 40157 84430 333 20223 58011;
0137823920999992011082418004-03700-040350FM-12+008399999V0200501N005112200019N0500001N1+03481+01471101011ADDGF104991031011004501031001MA1999999100001MD1999999+0001REMSYN070AAXX  24184 82392 32499 40510 10348 20147 30000 40101 83130 333 58000;
0178823920999992011082500004-03700-040350FM-12+008399999V0203601N000512200019N0040001N1+02641+01851101311ADDGA1001+999999999GF100991001001999999001001KA1240M+03561MA1999999100291MD1999999-0021REMSYN082AAXX  25004 82392 32996 03601 10264 20185 30029 40131 333 10356 29053 55083 59002;
0156823920999992011082512004-03700-040350FM-12+008399999V0200901N004112200019N0500001N1+02871+01801101541ADDGF102991021011004501001001KA1240N+02091MA1999999100511MD1999999-0031REMSYN076AAXX  25124 82392 32499 20908 10287 20180 30051 40154 82100 333 20209 59003;
0137823920999992011082518004-03700-040350FM-12+008399999V0200901N001012200019N0500001N1+03571+01391101171ADDGF103991031011004501001001MA1999999100151MD1999999+0101REMSYN070AAXX  25184 82392 32499 30902 10357 20139 30015 40117 83100 333 58010;
0178823920999992011082600004-03700-040350FM-12+008399999V0203601N004112200019N0040001N1+02801+01921101281ADDGA1001+999999999GF100991001001999999001001KA1240M+03541MA1999999100261MD1999999-0031REMSYN082AAXX  26004 82392 32996 03608 10280 20192 30026 40128 333 10354 29049 55106 59003;
0201823920999992011082612004-03700-040350FM-12+008399999V0202701N000510450019N0500001N1+02181+02041101821ADDAA124005191AY121061AY221061GF108991041061004501021999KA1240N+02211MA1999999100781MD1999999+0271MW1511REMSYN088AAXX  26124 82392 21499 82701 10218 20204 30078 40182 75122 8462/ 333 20221 58027 60054;
0182823920999992011082618004-03700-040350FM-12+008399999V0202301N001010450019N0500001N1+02731+02021101331ADDAA106006191AY161061AY261061GF106991021041004501031001MA1999999100311MD1999999+0161MW1021REMSYN082AAXX  26184 82392 21499 62302 10273 20202 30031 40133 70266 82430 333 58016 60061;
0178823920999992011082700004-03700-040350FM-12+008399999V0203601N003112200019N0040001N1+02421+02281101591ADDGA1001+999999999GF100991001001999999001001KA1240M+02841MA1999999100551MD1999999+0291REMSYN082AAXX  27004 82392 32996 03606 10242 20228 30055 40159 333 10284 29085 55005 58029;
0173823920999992011082712004-03700-040350FM-12+008399999V0200901N004612200019N0500001N1+02761+02091101601ADDAA124001091GF104991031021004501031001KA1240N+02301MA1999999100571MD1999999-0211REMSYN082AAXX  27124 82392 22499 40909 10276 20209 30057 40160 83230 333 20230 59021 60014;
0137823920999992011082718004-03700-040350FM-12+008399999V0201401N001010042019N0500001N1+03281+01821101111ADDGF106991051021004501031001MA1999999100091MD1999999-0221REMSYN070AAXX  27184 82392 32499 61402 10328 20182 30009 40111 85230 333 59022;
0178823920999992011082800004-03700-040350FM-12+008399999V0203601N002112200019N0040001N1+02621+02051101321ADDGA1001+999999999GF100991001001999999001001KA1240M+03401MA1999999100301MD1999999-0251REMSYN082AAXX  28004 82392 32996 03604 10262 20205 30030 40132 333 10340 29063 55092 59025;
0156823920999992011082812004-03700-040350FM-12+008399999V0200901N001510450019N0500001N1+02611+01981101621ADDGF107991041041004501031001KA1240N+02061MA1999999100591MD1999999+0021REMSYN076AAXX  28124 82392 32499 70903 10261 20198 30059 40162 84430 333 20206 58002;
0137823920999992011082818004-03700-040350FM-12+008399999V0200901N001510042019N0500001N1+03361+01601101021ADDGF105991051021004501001001MA1999999100001MD1999999-0091REMSYN070AAXX  28184 82392 32499 50903 10336 20160 30000 40102 85200 333 59009;
0178823920999992011082900004-03700-040350FM-12+008399999V0203601N001012200019N0040001N1+02541+01731101291ADDGA1001+999999999GF100991001001999999001001KA1240M+03481MA1999999100271MD1999999-0031REMSYN082AAXX  29004 82392 32996 03602 10254 20173 30027 40129 333 10348 29056 55079 59003;
0156823920999992011082912004-03700-040350FM-12+008399999V0200901N003112200019N0500001N1+02801+01981101441ADDGF102991021011004501001001KA1240N+02081MA1999999100421MD1999999-0171REMSYN076AAXX  29124 82392 32499 20906 10280 20198 30042 40144 82100 333 20208 59017;
0137823920999992011082918004-03700-040350FM-12+008399999V0200501N005112200019N0500001N1+03461+01551100901ADDGF104991031021004501031001MA1999999099881MD1999999-0121REMSYN070AAXX  29184 82392 32499 40510 10346 20155 39988 40090 83230 333 59012;
0168823920999992011083000004-03700-040350FM-12+008399999V0203601N001010450019N0040001N1+02781+02091101241ADDGF106991021021004501031001KA1240M+03541MA1999999100221MD1999999-0051REMSYN088AAXX  30004 82392 32496 63602 10278 20209 30022 40124 82230 333 10354 29056 55098 59005;
0156823920999992011083012004-03700-040350FM-12+008399999V0200901N004112200019N0500001N1+02681+02041101421ADDGF104991041011004501001001KA1240N+02001MA1999999100401MD1999999-0021REMSYN076AAXX  30124 82392 32499 40908 10268 20204 30040 40142 84100 333 20200 59002;
0156823920999992011083018004-03700-040350FM-12+008399999V0201401N003112200019N0500001N1+03491+01251100981ADDGF101991999011008001001001MA1999999099961MD1999999+0081REMSYN070AAXX  30184 82392 32599 11406 10349 20125 39996 40098 82100 333 58008;EQDQ01+000022SCOTLC
0178823920999992011083100004-03700-040350FM-12+008399999V0200501N002112200019N0040001N1+02571+01941101261ADDGA1001+999999999GF100991001001999999001001KA1240M+03541MA1999999100241MD1999999+0021REMSYN082AAXX  31004 82392 32996 00504 10257 20194 30024 40126 333 10354 29058 55104 58002;
0156823920999992011083112004-03700-040350FM-12+008399999V0200501N004612200019N0500001N1+02821+01911101551ADDGF103991031011004501001001KA1240N+01821MA1999999100521MD1999999+0121REMSYN076AAXX  31124 82392 32499 30509 10282 20191 30052 40155 83100 333 20182 58012;
0137823920999992011083118004-03700-040350FM-12+008399999V0200501N004112200019N0500001N1+03621+01741100991ADDGF102991021011004501001001MA1999999099981MD1999999+0021REMSYN070AAXX  31184 82392 32499 20508 10362 20174 39998 40099 82100 333 58002;
0178823920999992011090100004-03700-040350FM-12+008399999V0203601N003112200019N0040001N1+02541+01951101321ADDGA1001+999999999GF100991001001999999001001KA1240M+03661MA1999999100301MD1999999+0061REMSYN082AAXX  01004 82392 32996 03606 10254 20195 30030 40132 333 10366 29058 55103 58006;
0156823920999992011090112004-03700-040350FM-12+008399999V0200501N000512200019N0500001N1+02831+02011101541ADDGF102991021011004501001001KA1240N+02201MA1999999100511MD1999999-0011REMSYN076AAXX  01124 82392 32499 20501 10283 20201 30051 40154 82100 333 20220 59001;
0137823920999992011090118004-03700-040350FM-12+008399999V0200501N003112200019N0500001N1+03591+01621100991ADDGF104991041021004501001001MA1999999099981MD1999999+0001REMSYN070AAXX  01184 82392 32499 40506 10359 20162 39998 40099 84200 333 58000;
0178823920999992011090200004-03700-040350FM-12+008399999V0200501N003112200019N0040001N1+02641+02141101281ADDGA1001+999999999GF100991001001999999001001KA1240M+03661MA1999999100261MD1999999-0041REMSYN082AAXX  02004 82392 32996 00506 10264 20214 30026 40128 333 10366 29060 55092 59004;
0156823920999992011090212004-03700-040350FM-12+008399999V0200501N005112200019N0500001N1+02781+01821101451ADDGF102991021011004501001001KA1240N+02101MA1999999100431MD1999999-0081REMSYN076AAXX  02124 82392 32499 20510 10278 20182 30043 40145 82100 333 20210 59008;
0137823920999992011090218004-03700-040350FM-12+008399999V0200501N000512200019N0500001N1+03411+01611100951ADDGF104991041011004501001001MA1999999099931MD1999999-0051REMSYN070AAXX  02184 82392 32499 40501 10341 20161 39993 40095 84100 333 59005;
0178823920999992011090300004-03700-040350FM-12+008399999V0200501N004112200019N0040001N1+02621+02051101261ADDGA1001+999999999GF100991001001999999001001KA1240M+03601MA1999999100241MD1999999-0021REMSYN082AAXX  03004 82392 32996 00508 10262 20205 30024 40126 333 10360 29058 55094 59002;
0156823920999992011090312004-03700-040350FM-12+008399999V0201401N002110450019N0500001N1+02791+01901101431ADDGF106991021021004501031001KA1240N+02231MA1999999100411MD1999999-0021REMSYN076AAXX  03124 82392 32499 61404 10279 20190 30041 40143 82230 333 20223 59002;
0137823920999992011090318004-03700-040350FM-12+008399999V0209999C000012200019N0500001N1+03501+01381100881ADDGF104991041011004501001001MA1999999099871MD1999999-0061REMSYN070AAXX  03184 82392 32499 41800 10350 20138 39987 40088 84100 333 59006;
0178823920999992011090400004-03700-040350FM-12+008399999V0203601N002112200019N0040001N1+02641+01931101221ADDGA1001+999999999GF100991001001999999001001KA1240M+03581MA1999999100201MD1999999-0041REMSYN082AAXX  04004 82392 32996 03604 10264 20193 30020 40122 333 10358 29054 55094 59004;
0156823920999992011090412004-03700-040350FM-12+008399999V0201801N001010450019N0500001N1+02681+02041101461ADDGF106991031051004501031001KA1240N+02121MA1999999100441MD1999999+0031REMSYN076AAXX  04124 82392 32499 61802 10268 20204 30044 40146 83530 333 20212 58003;
0137823920999992011090418004-03700-040350FM-12+008399999V0201401N002610450019N0500001N1+03321+01701100971ADDGF107991041041004501031001MA1999999099951MD1999999+0081REMSYN070AAXX  04184 82392 32499 71405 10332 20170 39995 40097 84430 333 58008;
0178823920999992011090500004-03700-040350FM-12+008399999V0200501N004612200019N0040001N1+02721+02121101171ADDGA1001+999999999GF100991001001999999001001KA1240M+03501MA1999999100151MD1999999-0051REMSYN082AAXX  05004 82392 32996 00509 10272 20212 30015 40117 333 10350 29062 55064 59005;
0156823920999992011090512004-03700-040350FM-12+008399999V0201801N002110450019N0500001N1+02881+02031101491ADDGF105991041021004501061001KA1240N+02041MA1999999100761MD1999999+0021REMSYN076AAXX  05124 82392 32499 51804 10288 20203 30076 40149 84260 333 20204 58002;
0178823920999992011090600004-03700-040350FM-12+008399999V0200501N004112200019N0040001N1+02681+02111101271ADDGA1001+999999999GF100991001001999999001001KA1240M+03581MA1999999100251MD1999999+0101REMSYN082AAXX  06004 82392 32996 00508 10268 20211 30025 40127 333 10358 29067 55105 58010;
0156823920999992011090612004-03700-040350FM-12+008399999V0201401N003112200019N0500001N1+02841+02041101401ADDGF103991031011004501001001KA1240N+02101MA1999999100381MD1999999-0081REMSYN076AAXX  06124 82392 32499 31406 10284 20204 30038 40140 83100 333 20210 59008;
0168823920999992011090700004-03700-040350FM-12+008399999V0200501N005112200019N0040001N1+02701+02061101271ADDGF102991021001008001031001KA1240M+03661MA1999999100251MD1999999+0001REMSYN088AAXX  07004 82392 32596 20510 10270 20206 30025 40127 82030 333 10366 29066 55100 58000;
0156823920999992011090712004-03700-040350FM-12+008399999V0202701N000512200019N0500001N1+02801+01921101421ADDGF102991021011004501001001KA1240N+01901MA1999999100401MD1999999+0021REMSYN076AAXX  07124 82392 32499 22701 10280 20192 30040 40142 82100 333 20190 58002;
0178823920999992011090800004-03700-040350FM-12+008399999V0200501N003112200019N0040001N1+02661+02021101261ADDGA1001+999999999GF100991001001999999001001KA1240M+03601MA1999999100241MD1999999-0011REMSYN082AAXX  08004 82392 32996 00506 10266 20202 30024 40126 333 10360 29065 55101 59001;
0156823920999992011090812004-03700-040350FM-12+008399999V0200901N004112200019N0500001N1+02901+01871101361ADDGF101991011011004501001001KA1240N+02101MA1999999100341MD1999999-0061REMSYN076AAXX  08124 82392 32499 10908 10290 20187 30034 40136 81100 333 20210 59006;
0178823920999992011090900004-03700-040350FM-12+008399999V0200501N004612200019N0040001N1+02701+02061101151ADDGA1001+999999999GF100991001001999999001001KA1240M+03601MA1999999100131MD1999999-0111REMSYN082AAXX  09004 82392 32996 00509 10270 20206 30013 40115 333 10360 29063 55101 59011;
0156823920999992011090912004-03700-040350FM-12+008399999V0200901N002112200019N0500001N1+02861+01921101271ADDGF101991011011004501001001KA1240N+02101MA1999999100241MD1999999-0091REMSYN076AAXX  09124 82392 32499 10904 10286 20192 30024 40127 81100 333 20210 59009;
0178823920999992011091000004-03700-040350FM-12+008399999V0203601N004112200019N0040001N1+02601+02101101051ADDGA1001+999999999GF100991001001999999001001KA1240M+03701MA1999999100031MD1999999-0101REMSYN082AAXX  10004 82392 32996 03608 10260 20210 30003 40105 333 10370 29068 55108 59010;
0156823920999992011091012004-03700-040350FM-12+008399999V0200901N005112200019N0500001N1+02831+01771101451ADDGF103991031021004501001001KA1240N+02011MA1999999100431MD1999999+0181REMSYN076AAXX  10124 82392 32499 30910 10283 20177 30043 40145 83200 333 20201 58018;
0178823920999992011091100004-03700-040350FM-12+008399999V0200501N003112200019N0040001N1+02661+02091101381ADDGA1001+999999999GF100991001001999999001001KA1240M+03681MA1999999100361MD1999999+0331REMSYN082AAXX  11004 82392 32996 00506 10266 20209 30036 40138 333 10368 29065 55108 58033;
0156823920999992011091112004-03700-040350FM-12+008399999V0200901N002612200019N0500001N1+02821+01941101621ADDGF101991011011004501001001KA1240N+02301MA1999999100591MD1999999+0161REMSYN076AAXX  11124 82392 32499 10905 10282 20194 30059 40162 81100 333 20230 58016;
0178823920999992011091200004-03700-040350FM-12+008399999V0200501N003112200019N0040001N1+02661+02091101481ADDGA1001+999999999GF100991001001999999001001KA1240M+03501MA1999999100451MD1999999+0091REMSYN082AAXX  12004 82392 32996 00506 10266 20209 30045 40148 333 10350 29067 55078 58009;
0156823920999992011091212004-03700-040350FM-12+008399999V0201401N001012200019N0500001N1+02901+02041101481ADDGF102991021011004501001001KA1240N+02001MA1999999100451MD1999999-0141REMSYN076AAXX  12124 82392 32499 21402 10290 20204 30045 40148 82100 333 20200 59014;
0168823920999992011091300004-03700-040350FM-12+008399999V0200501N002612200019N0040001N1+02701+02121101371ADDGF102991021001008001031001KA1240M+03681MA1999999100351MD1999999-0101REMSYN088AAXX  13004 82392 32596 20505 10270 20212 30035 40137 82030 333 10368 29067 55106 59010;
0156823920999992011091312004-03700-040350FM-12+008399999V0200901N002110450019N0500001N1+02841+01961101481ADDGF105991021021004501031001KA1240N+02041MA1999999100451MD1999999+0001REMSYN076AAXX  13124 82392 32499 50904 10284 20196 30045 40148 82230 333 20204 58000;
0178823920999992011091400004-03700-040350FM-12+008399999V0200501N003112200019N0040001N1+02761+01801101171ADDGA1001+999999999GF100991001001999999001001KA1240M+03641MA1999999100151MD1999999-0201REMSYN082AAXX  14004 82392 32996 00506 10276 20180 30015 40117 333 10364 29057 55101 59020;
0156823920999992011091412004-03700-040350FM-12+008399999V0200901N005112200019N0500001N1+02861+02011101481ADDGF103991031011004501001001KA1240N+02001MA1999999100451MD1999999+0001REMSYN076AAXX  14124 82392 32499 30910 10286 20201 30045 40148 83100 333 20200 58000;
0178823920999992011091500004-03700-040350FM-12+008399999V0200501N005112200019N0040001N1+02721+02001101271ADDGA1001+999999999GF100991001001999999001001KA1240M+03601MA1999999100251MD1999999+0101REMSYN082AAXX  15004 82392 32996 00510 10272 20200 30025 40127 333 10360 29063 55094 58010;
0175823920999992011091512004-03700-040350FM-12+008399999V0201401N001019999999N0500001N1+02861+02011101481ADDGF106991999021004501001001KA1240N+02081MA1999999100451MD1999999+0001REMSYN076AAXX  15124 82392 32499 61402 10286 20201 30045 40148 83200 333 20208 58000;EQDQ01+000032SCOTLC
0178823920999992011091600004-03700-040350FM-12+008399999V0200501N004112200019N0040001N1+02721+02301101251ADDGA1001+999999999GF100991001001999999001001KA1240M+03701MA1999999100231MD1999999-0021REMSYN082AAXX  16004 82392 32996 00508 10272 20230 30023 40125 333 10370 29072 55101 59002;
0156823920999992011091612004-03700-040350FM-12+008399999V0201801N004110450019N0500001N1+02821+02021101351ADDGF107991031051004501031001KA1240N+02381MA1999999100331MD1999999-0121REMSYN076AAXX  16124 82392 32499 71808 10282 20202 30033 40135 83530 333 20238 59012;
0178823920999992011091700004-03700-040350FM-12+008399999V0200501N003612200019N0040001N1+02721+02191101121ADDGA1001+999999999GF100991001001999999001001KA1240M+03621MA1999999100101MD1999999-0131REMSYN082AAXX  17004 82392 32996 00507 10272 20219 30010 40112 333 10362 29069 55079 59013;
0156823920999992011091712004-03700-040350FM-12+008399999V0200901N005112200019N0500001N1+02921+02061101351ADDGF104991041021004501001001KA1240N+02181MA1999999100331MD1999999+0001REMSYN076AAXX  17124 82392 32499 40910 10292 20206 30033 40135 84200 333 20218 58000;
0178823920999992011091800004-03700-040350FM-12+008399999V0200501N004112200019N0040001N1+02641+02141101121ADDGA1001+999999999GF100991001001999999001001KA1240M+03651MA1999999100101MD1999999+0001REMSYN082AAXX  18004 82392 32996 00508 10264 20214 30010 40112 333 10365 29069 55106 58000;
0156823920999992011091812004-03700-040350FM-12+008399999V0201401N003112200019N0500001N1+02821+01771101341ADDGF101991011011004501001001KA1240N+02081MA1999999100321MD1999999-0051REMSYN076AAXX  18124 82392 32499 11406 10282 20177 30032 40134 81100 333 20208 59005;
0168823920999992011091900004-03700-040350FM-12+008399999V0200501N003112200019N0040001N1+02641+02071101201ADDGF101991011001008001021001KA1240M+03721MA1999999100181MD1999999+0081REMSYN088AAXX  19004 82392 32596 10506 10264 20207 30018 40120 81020 333 10372 29065 55106 58008;
0156823920999992011091912004-03700-040350FM-12+008399999V0201401N003112200019N0500001N1+02841+01931101291ADDGF101991011011004501001001KA1240N+02121MA1999999100271MD1999999-0051REMSYN076AAXX  19124 82392 32499 11406 10284 20193 30027 40129 81100 333 20212 59005;
0168823920999992011092000004-03700-040350FM-12+008399999V0200501N005112200019N0040001N1+02661+02201101121ADDGF102991021001008001031001KA1240M+03641MA1999999100101MD1999999-0081REMSYN088AAXX  20004 82392 32596 20510 10266 20220 30010 40112 82030 333 10364 29070 55106 59008;
0156823920999992011092012004-03700-040350FM-12+008399999V0200901N004612200019N0500001N1+02841+01961101271ADDGF103991031011004501001001KA1240N+02041MA1999999100251MD1999999-0021REMSYN076AAXX  20124 82392 32499 30909 10284 20196 30025 40127 83100 333 20204 59002;
0178823920999992011092100004-03700-040350FM-12+008399999V0200501N003612200019N0040001N1+02721+02031101171ADDGA1001+999999999GF100991001001999999001001KA1240M+03651MA1999999100151MD1999999+0051REMSYN082AAXX  21004 82392 32996 00507 10272 20203 30015 40117 333 10365 29064 55101 58005;
0156823920999992011092112004-03700-040350FM-12+008399999V0201401N002112200019N0500001N1+02861+02011101371ADDGF104991041021004501001001KA1240N+02091MA1999999100351MD1999999+0101REMSYN076AAXX  21124 82392 32499 41404 10286 20201 30035 40137 84200 333 20209 58010;
0178823920999992011092200004-03700-040350FM-12+008399999V0200501N004112200019N0040001N1+02681+02111101171ADDGA1001+999999999GF100991001001999999001001KA1240M+03721MA1999999100151MD1999999+0001REMSYN082AAXX  22004 82392 32996 00508 10268 20211 30015 40117 333 10372 29067 55108 58000;
0156823920999992011092212004-03700-040350FM-12+008399999V0200501N002110450019N0500001N1+02801+01921101421ADDGF105991031021004501031001KA1240N+02081MA1999999100401MD1999999+0051REMSYN076AAXX  22124 82392 32499 50504 10280 20192 30040 40142 83230 333 20208 58005;
0178823920999992011092300004-03700-040350FM-12+008399999V0200501N003112200019N0040001N1+02701+02221101171ADDGA1001+999999999GF100991001001999999001001KA1240M+03761MA1999999100151MD1999999+0001REMSYN082AAXX  23004 82392 32996 00506 10270 20222 30015 40117 333 10376 29070 55099 58000;
0156823920999992011092312004-03700-040350FM-12+008399999V0201401N002610450019N0500001N1+02961+02131101341ADDGF106991031041004501031001KA1240N+02231MA1999999100321MD1999999-0081REMSYN076AAXX  23124 82392 32499 61405 10296 20213 30032 40134 83430 333 20223 59008;
0178823920999992011092400004-03700-040350FM-12+008399999V0200501N002612200019N0040001N1+02741+02211101141ADDGA1001+999999999GF100991001001999999001001KA1240M+03761MA1999999100121MD1999999-0031REMSYN082AAXX  24004 82392 32996 00505 10274 20221 30012 40114 333 10376 29069 55103 59003;
0156823920999992011092412004-03700-040350FM-12+008399999V0200901N004612200019N0500001N1+03021+02011101271ADDGF104991011021004501031001KA1240N+02291MA1999999100251MD1999999-0071REMSYN076AAXX  24124 82392 32499 40909 10302 20201 30025 40127 81230 333 20229 59007;
0178823920999992011092500004-03700-040350FM-12+008399999V0200501N003112200019N0040001N1+02701+02031101171ADDGA1001+999999999GF100991001001999999001001KA1240M+03701MA1999999100151MD1999999+0031REMSYN082AAXX  25004 82392 32996 00506 10270 20203 30015 40117 333 10370 29063 55099 58003;
0156823920999992011092512004-03700-040350FM-12+008399999V0200901N002112200019N0500001N1+02901+02041101351ADDGF101991011011004501001001KA1240N+01981MA1999999100331MD1999999+0081REMSYN076AAXX  25124 82392 32499 10904 10290 20204 30033 40135 81100 333 20198 58008;
0178823920999992011092600004-03700-040350FM-12+008399999V0200501N004112200019N0040001N1+02641+02141101121ADDGA1001+999999999GF100991001001999999001001KA1240M+03851MA1999999100101MD1999999-0051REMSYN082AAXX  26004 82392 32996 00508 10264 20214 30010 40112 333 10385 29069 55106 59005;
0156823920999992011092612004-03700-040350FM-12+008399999V0200901N004612200019N0500001N1+03021+02021101441ADDGF102991021011004501001001KA1240N+02261MA1999999100421MD1999999+0091REMSYN076AAXX  26124 82392 32499 20909 10302 20202 30042 40144 82100 333 20226 58009;
0178823920999992011092700004-03700-040350FM-12+008399999V0200501N003112200019N0040001N1+02641+02181101281ADDGA1001+999999999GF100991001001999999001001KA1240M+03781MA1999999100261MD1999999+0161REMSYN082AAXX  27004 82392 32996 00506 10264 20218 30026 40128 333 10378 29091 55069 58016;
0156823920999992011092712004-03700-040350FM-12+008399999V0200901N005112200019N0500001N1+03001+02001101481ADDGF103991031021004501001001KA1240N+02281MA1999999100451MD1999999+0031REMSYN076AAXX  27124 82392 32499 30910 10300 20200 30045 40148 83200 333 20228 58003;
0178823920999992011092800004-03700-040350FM-12+008399999V0200501N002612200019N0040001N1+02701+02061101311ADDGA1001+999999999GF100991001001999999001001KA1240M+03641MA1999999100301MD1999999+0041REMSYN082AAXX  28004 82392 32996 00505 10270 20206 30030 40131 333 10364 29064 55098 58004;
0175823920999992011092812004-03700-040350FM-12+008399999V0200901N005112200019N0500001N1+02941+01911101411ADDGF102991999021004501001001KA1240N+02001MA1999999100391MD1999999-0061REMSYN076AAXX  28124 82392 32499 20910 10294 20191 30039 40141 83200 333 20200 59006;EQDQ01+000032SCOTLC
0178823920999992011092900004-03700-040350FM-12+008399999V0200501N005112200019N0040001N1+02801+01921101151ADDGA1001+999999999GF100991001001999999001001KA1240M+03681MA1999999100141MD1999999-0161REMSYN082AAXX  29004 82392 32996 00510 10280 20192 30014 40115 333 10368 29057 55108 59016;
0156823920999992011092912004-03700-040350FM-12+008399999V0200901N004110450019N0500001N1+02861+02011101421ADDGF105991021011004501031001KA1240N+02181MA1999999100401MD1999999+0011REMSYN076AAXX  29124 82392 32499 50908 10286 20201 30040 40142 82130 333 20218 58001;
0178823920999992011093000004-03700-040350FM-12+008399999V0200501N005112200019N0040001N1+02621+02211101121ADDGA1001+999999999GF100991001001999999001001KA1240M+03701MA1999999100101MD1999999-0041REMSYN082AAXX  30004 82392 32996 00510 10262 20221 30010 40112 333 10370 29072 55106 59004;
0156823920999992011093012004-03700-040350FM-12+008399999V0200901N003612200019N0500001N1+03001+02081101321ADDGF103991031011004501001001KA1240N+02281MA1999999100301MD1999999-0101REMSYN076AAXX  30124 82392 32499 30907 10300 20208 30030 40132 83100 333 20228 59010;
0178823920999992011100100004-03700-040350FM-12+008399999V0203601N005112200019N0040001N1+02661+02091101101ADDGA1001+999999999GF100991001001999999001001KA1240M+03701MA1999999100081MD1999999-0021REMSYN082AAXX  01004 82392 32996 03610 10266 20209 30008 40110 333 10370 29067 55100 59002;
0175823920999992011100112004-03700-040350FM-12+008399999V0201401N003119999999N0500001N1+02781+02131101221ADDGF107991999021004501001001KA1240N+02301MA1999999100201MD1999999-0101REMSYN076AAXX  01124 82392 32499 71406 10278 20213 30020 40122 83200 333 20230 59010;EQDQ01+000032SCOTLC
0123823920999992011100118004-03700-040350FM-12+008399999V0200501N002112200019N0500001N1+03621+01921100711ADDGF102991021011004501001001MA1999999099701REMSYN070AAXX  01184 82392 32499 20504 10362 20192 39970 40071 82100 333 5////;
0178823920999992011100200004-03700-040350FM-12+008399999V0200901N004112200019N0040001N1+02601+02031101021ADDGA1001+999999999GF100991001001999999001001KA1240M+03681MA1999999100001MD1999999-0081REMSYN082AAXX  02004 82392 32996 00908 10260 20203 30000 40102 333 10368 29062 55080 59008;
0156823920999992011100212004-03700-040350FM-12+008399999V0200901N002612200019N0500001N1+02801+01921101201ADDGF103991011011004501031001KA1240N+02001MA1999999100181MD1999999-0021REMSYN076AAXX  02124 82392 32499 30905 10280 20192 30018 40120 81130 333 20200 59002;
0178823920999992011100300004-03700-040350FM-12+008399999V0203601N003112200019N0040001N1+02581+02311100961ADDGA1001+999999999GF100991001001999999001001KA1240M+03701MA1999999099941MD1999999-0061REMSYN082AAXX  03004 82392 32996 03606 10258 20231 39994 40096 333 10370 29066 55094 59006;
0156823920999992011100312004-03700-040350FM-12+008399999V0200901N004110450019N0500001N1+02821+02151101281ADDGF107991031041004501031001KA1240N+02381MA1999999100261MD1999999+0081REMSYN076AAXX  03124 82392 32499 70908 10282 20215 30026 40128 83430 333 20238 58008;
0137823920999992011100318004-03700-040350FM-12+008399999V0200501N003110450019N0500001N1+03521+01871100731ADDGF105991031021004501031001MA1999999099721MD1999999+0081REMSYN070AAXX  03184 82392 32499 50506 10352 20187 39972 40073 83230 333 58008;
0178823920999992011100400004-03700-040350FM-12+008399999V0200501N001512200019N0040001N1+02661+02021101101ADDGA1001+999999999GF100991001001999999001001KA1240M+03621MA1999999100081MD1999999+0141REMSYN082AAXX  04004 82392 32996 00503 10266 20202 30008 40110 333 10362 29060 55073 58014;
0156823920999992011100412004-03700-040350FM-12+008399999V0200901N004610450019N0500001N1+02881+02051101281ADDGF107991031041004501031001KA1240N+02191MA1999999100261MD1999999+0001REMSYN076AAXX  04124 82392 32499 70909 10288 20205 30026 40128 83430 333 20219 58000;
0137823920999992011100418004-03700-040350FM-12+008399999V0200501N005112200019N0500001N1+03641+01751100721ADDGF102991021011004501001001MA1999999099711MD1999999-0011REMSYN070AAXX  04184 82392 32499 20510 10364 20175 39971 40072 82100 333 59001;
0178823920999992011100500004-03700-040350FM-12+008399999V0200501N003112200019N0040001N1+02661+02021101071ADDGA1001+999999999GF100991001001999999001001KA1240M+03721MA1999999100051MD1999999-0031REMSYN082AAXX  05004 82392 32996 00506 10266 20202 30005 40107 333 10372 29058 55102 59003;
0156823920999992011100512004-03700-040350FM-12+008399999V0200901N005112200019N0500001N1+03081+02101101311ADDGF104991011011004501031001KA1240N+02281MA1999999100301MD1999999+0041REMSYN076AAXX  05124 82392 32499 40910 10308 20210 30030 40131 81130 333 20228 58004;
0137823920999992011100518004-03700-040350FM-12+008399999V0200901N004612200019N0500001N1+03661+01621100721ADDGF102991021011004501001001MA1999999099711MD1999999+0001REMSYN070AAXX  05184 82392 32499 20909 10366 20162 39971 40072 82100 333 58000;
0178823920999992011100600004-03700-040350FM-12+008399999V0203601N001012200019N0040001N1+02741+01871101071ADDGA1001+999999999GF100991001001999999001001KA1240M+03701MA1999999100061MD1999999+0011REMSYN082AAXX  06004 82392 32996 03602 10274 20187 30006 40107 333 10370 29052 55097 58001;
0156823920999992011100612004-03700-040350FM-12+008399999V0200901N001012200019N0500001N1+02961+01681101311ADDGF101991011011004501001001KA1240N+02311MA1999999100301MD1999999+0001REMSYN076AAXX  06124 82392 32499 10902 10296 20168 30030 40131 81100 333 20231 58000;
0137823920999992011100618004-03700-040350FM-12+008399999V0200901N001012200019N0500001N1+03631+01131100701ADDGF101991011011004501001001MA1999999099691MD1999999-0021REMSYN070AAXX  06184 82392 32499 10902 10363 20113 39969 40070 81100 333 59002;
0168823920999992011100700004-03700-040350FM-12+008399999V0200501N004112200019N0040001N1+02701+02061101081ADDGF103991031001008001031001KA1240M+03741MA1999999100061MD1999999+0001REMSYN088AAXX  07004 82392 32596 30508 10270 20206 30006 40108 83030 333 10374 29051 55109 58000;
0156823920999992011100712004-03700-040350FM-12+008399999V0200901N005112200019N0500001N1+03041+02031101231ADDGF101991011011004501001001KA1240N+02281MA1999999100221MD1999999-0081REMSYN076AAXX  07124 82392 32499 10910 10304 20203 30022 40123 81100 333 20228 59008;
0137823920999992011100718004-03700-040350FM-12+008399999V0200901N004112200019N0500001N1+03691+01311100621ADDGF102991011011004501001011MA1999999099621MD1999999-0071REMSYN070AAXX  07184 82392 32499 20908 10369 20131 39962 40062 81101 333 59007;
0178823920999992011100800004-03700-040350FM-12+008399999V0200501N005112200019N0040001N1+02681+02111100961ADDGA1001+999999999GF100991001001999999001001KA1240M+03791MA1999999099951MD1999999-0111REMSYN082AAXX  08004 82392 32996 00510 10268 20211 39995 40096 333 10379 29055 55108 59011;
0156823920999992011100812004-03700-040350FM-12+008399999V0200901N003112200019N0500001N1+02961+01961101071ADDGF102991021011004501001001KA1240N+02101MA1999999100051MD1999999-0171REMSYN076AAXX  08124 82392 32499 20906 10296 20196 30005 40107 82100 333 20210 59017;
0137823920999992011100818004-03700-040350FM-12+008399999V0201401N001012200019N0500001N1+03761+01541100551ADDGF102991021011004501001001MA1999999099551MD1999999-0071REMSYN070AAXX  08184 82392 32499 21402 10376 20154 39955 40055 82100 333 59007;
0168823920999992011100900004-03700-040350FM-12+008399999V0200901N003110450019N0040001N1+02641+02091100981ADDGF106991021041004501031001KA1240M+03861MA1999999099961MD1999999+0011REMSYN088AAXX  09004 82392 32496 60906 10264 20209 39996 40098 82430 333 10386 29056 55108 58001;
0156823920999992011100912004-03700-040350FM-12+008399999V0201401N001012200019N0500001N1+02961+01841101161ADDGF103991031011004501001001KA1240N+02181MA1999999100141MD1999999+0091REMSYN076AAXX  09124 82392 32499 31402 10296 20184 30014 40116 83100 333 20218 58009;
0137823920999992011100918004-03700-040350FM-12+008399999V0200501N000512200019N0500001N1+03681+01471100511ADDGF102991021011004501001001MA1999999099511MD1999999-0041REMSYN070AAXX  09184 82392 32499 20501 10368 20147 39951 40051 82100 333 59004;
0178823920999992011101000004-03700-040350FM-12+008399999V0203601N001012200019N0040001N1+02691+01911100891ADDGA1001+999999999GF100991001001999999001001KA1240M+03761MA1999999099871MD1999999-0091REMSYN082AAXX  10004 82392 32996 03602 10269 20191 39987 40089 333 10376 29051 55108 59009;
0156823920999992011101012004-03700-040350FM-12+008399999V0200901N001010450019N0500001N1+02821+02051101101ADDGF107991031041004501031001KA1240N+02241MA1999999100081MD1999999-0061REMSYN076AAXX  10124 82392 32499 70902 10282 20205 30008 40110 83430 333 20224 59006;
0137823920999992011101018004-03700-040350FM-12+008399999V0200501N004110450019N0500001N1+03581+01971100601ADDGF105991031021004501031001MA1999999099601MD1999999+0091REMSYN070AAXX  10184 82392 32499 50508 10358 20197 39960 40060 83230 333 58009;
0178823920999992011101100004-03700-040350FM-12+008399999V0203601N002112200019N0040001N1+02621+02011100921ADDGA1001+999999999GF100991001001999999001001KA1240M+03661MA1999999099901MD1999999+0031REMSYN082AAXX  11004 82392 32996 03604 10262 20201 39990 40092 333 10366 29060 55067 58003;
0156823920999992011101112004-03700-040350FM-12+008399999V0200901N004610450019N0500001N1+02901+02041101191ADDGF105991031021004501031001KA1240N+02301MA1999999100171MD1999999+0091REMSYN076AAXX  11124 82392 32499 50909 10290 20204 30017 40119 83230 333 20230 58009;
0137823920999992011101118004-03700-040350FM-12+008399999V0201401N000512200019N0500001N1+03661+01571100541ADDGF102991021011004501001001MA1999999099541MD1999999-0061REMSYN070AAXX  11184 82392 32499 21401 10366 20157 39954 40054 82100 333 59006;
0178823920999992011101200004-03700-040350FM-12+008399999V0203601N002112200019N0040001N1+02601+02081100901ADDGA1001+999999999GF100991001001999999001001KA1240M+03701MA1999999099881MD1999999-0021REMSYN082AAXX  12004 82392 32996 03604 10260 20208 39988 40090 333 10370 29059 55094 59002;
0156823920999992011101212004-03700-040350FM-12+008399999V0200901N005112200019N0500001N1+02901+02041101171ADDGF104991041021004501001001KA1240N+02201MA1999999100151MD1999999-0021REMSYN076AAXX  12124 82392 32499 40910 10290 20204 30015 40117 84200 333 20220 59002;
0137823920999992011101218004-03700-040350FM-12+008399999V0201801N001012200019N0500001N1+03561+01781100541ADDGF103991031021004501001001MA1999999099541MD1999999+0001REMSYN070AAXX  12184 82392 32499 31802 10356 20178 39954 40054 83200 333 58000;
0178823920999992011101300004-03700-040350FM-12+008399999V0203601N002112200019N0040001N1+02601+02101100871ADDGA1001+999999999GF100991001001999999001001KA1240M+03681MA1999999099851MD1999999-0031REMSYN082AAXX  13004 82392 32996 03604 10260 20210 39985 40087 333 10368 29061 55086 59003;
0156823920999992011101312004-03700-040350FM-12+008399999V0200901N001010042019N0500001N1+02901+02071101021ADDGF107991061041004501031001KA1240N+02451MA1999999100001MD1999999-0151REMSYN076AAXX  13124 82392 32499 70902 10290 20207 30000 40102 86430 333 20245 59015;
0137823920999992011101318004-03700-040350FM-12+008399999V0200901N000512200019N0500001N1+03401+01891100581ADDGF104991041021004501001001MA1999999099581MD1999999+0041REMSYN070AAXX  13184 82392 32499 40901 10340 20189 39958 40058 84200 333 58004;
0168823920999992011101400004-03700-040350FM-12+008399999V0200501N004612200019N0040001N1+02601+02141100981ADDGF104991021011004501031001KA1240M+03581MA1999999099861MD1999999+0011REMSYN088AAXX  14004 82392 32496 40509 10260 20214 39986 40098 82130 333 10358 29064 55071 58001;
0156823920999992011101412004-03700-040350FM-12+008399999V0200501N001010450019N0500001N1+02841+02041101021ADDGF105991021021004501031001KA1240N+02381MA1999999100001MD1999999+0001REMSYN076AAXX  14124 82392 32499 50502 10284 20204 30000 40102 82230 333 20238 58000;
0137823920999992011101418004-03700-040350FM-12+008399999V0200501N001510450019N0500001N1+03491+01881100481ADDGF106991041041004501031001MA1999999099481MD1999999-0101REMSYN070AAXX  14184 82392 32499 60503 10349 20188 39948 40048 84430 333 59010;
0178823920999992011101500004-03700-040350FM-12+008399999V0200501N005112200019N0040001N1+02621+02161100871ADDGA1001+999999999GF100991001001999999001001KA1240M+03601MA1999999099851MD1999999-0011REMSYN082AAXX  15004 82392 32996 00510 10262 20216 39985 40087 333 10360 29063 55067 59001;
0156823920999992011101512004-03700-040350FM-12+008399999V0200501N001010042019N0500001N1+02811+02071100951ADDGF107991061041004501031001KA1240N+02311MA1999999099931MD1999999-0071REMSYN076AAXX  15124 82392 32499 70502 10281 20207 39993 40095 86430 333 20231 59007;
0137823920999992011101518004-03700-040350FM-12+008399999V0201401N000510042019N0500001N1+03461+01901100391ADDGF106991061021004501001001MA1999999099391MD1999999-0071REMSYN070AAXX  15184 82392 32499 61401 10346 20190 39939 40039 86200 333 59007;
0168823920999992011101600004-03700-040350FM-12+008399999V0203601N002112200019N0040001N1+02631+02141100751ADDGF103991031021004501031001KA1240M+03601MA1999999099731MD1999999-0121REMSYN088AAXX  16004 82392 32496 33604 10263 20214 39973 40075 83230 333 10360 29063 55067 59012;
0156823920999992011101612004-03700-040350FM-12+008399999V0200501N001010450019N0500001N1+02781+02211101021ADDGF108991031041004501021999KA1240N+02501MA1999999100001MD1999999+0071REMSYN076AAXX  16124 82392 32499 80502 10278 20221 30000 40102 8342/ 333 20250 58007;
0137823920999992011101618004-03700-040350FM-12+008399999V0200501N003112200019N0500001N1+03401+01961100521ADDGF102991021011004501001001MA1999999099521MD1999999+0131REMSYN070AAXX  16184 82392 32499 20506 10340 20196 39952 40052 82100 333 58013;
0168823920999992011101700004-03700-040350FM-12+008399999V0203601N002112200019N0040001N1+02681+02181100971ADDGF102991021001004501031001KA1240M+03541MA1999999099951MD1999999+0221REMSYN088AAXX  17004 82392 32496 23604 10268 20218 39995 40097 82030 333 10354 29066 55028 58022;
0156823920999992011101712004-03700-040350FM-12+008399999V0200501N001010450019N0500001N1+02741+02171100951ADDGF107991031051004501011001KA1240N+02401MA1999999099931MD1999999-0071REMSYN076AAXX  17124 82392 32499 70502 10274 20217 39993 40095 83510 333 20240 59007;
0137823920999992011101718004-03700-040350FM-12+008399999V0200501N001010450019N0500001N1+03441+01841100451ADDGF105991021021004501031001MA1999999099451MD1999999-0071REMSYN070AAXX  17184 82392 32499 50502 10344 20184 39945 40045 82230 333 59007;
0178823920999992011101800004-03700-040350FM-12+008399999V0200501N001512200019N0040001N1+02611+02141100741ADDGA1001+999999999GF100991001001999999001001KA1240M+03541MA1999999099721MD1999999-0231REMSYN082AAXX  18004 82392 32996 00503 10261 20214 39972 40074 333 10354 29065 55038 59023;
0156823920999992011101812004-03700-040350FM-12+008399999V0200901N004610450019N0500001N1+02941+02081100851ADDGF106991031041004501031001KA1240N+02181MA1999999099831MD1999999-0101REMSYN076AAXX  18124 82392 32499 60909 10294 20208 39983 40085 83430 333 20218 59010;
0137823920999992011101818004-03700-040350FM-12+008399999V0203201N000512200019N0500001N1+03481+01921100381ADDGF104991041021004501001001MA1999999099381MD1999999-0071REMSYN070AAXX  18184 82392 32499 43201 10348 20192 39938 40038 84200 333 59007;
0178823920999992011101900004-03700-040350FM-12+008399999V0203601N003112200019N0040001N1+02711+02101100841ADDGA1001+999999999GF100991001001999999001001KA1240M+03561MA1999999099821MD1999999+0101REMSYN082AAXX  19004 82392 32996 03606 10271 20210 39982 40084 333 10356 29069 55069 58010;
0156823920999992011101912004-03700-040350FM-12+008399999V0200901N002110450019N0500001N1+02841+02121101081ADDGF108991031051004501011999KA1240N+02361MA1999999100061MD1999999+0231REMSYN076AAXX  19124 82392 32499 80904 10284 20212 30006 40108 8351/ 333 20236 58023;
0137823920999992011101918004-03700-040350FM-12+008399999V0200901N000512200019N0500001N1+03501+02091100541ADDGF102991021011004501001001MA1999999099541MD1999999+0161REMSYN070AAXX  19184 82392 32499 20901 10350 20209 39954 40054 82100 333 58016;
0168823920999992011102000004-03700-040350FM-12+008399999V0203601N003112200019N0040001N1+02681+02131100941ADDGF102991021001008001011001KA1240M+03571MA1999999099921MD1999999+0101REMSYN088AAXX  20004 82392 32596 23606 10268 20213 39992 40094 82010 333 10357 29063 55065 58010;
0156823920999992011102012004-03700-040350FM-12+008399999V0209999C000010042019N0500001N1+02891+02341101071ADDGF107991051041004501031001KA1240N+02551MA1999999100051MD1999999-0011REMSYN076AAXX  20124 82392 32499 70500 10289 20234 30005 40107 85430 333 20255 59001;
0137823920999992011102018004-03700-040350FM-12+008399999V0202701N000510042019N0500001N1+02541+02311100691ADDGF107991061061004501021001MA1999999099661MD1999999+0121REMSYN070AAXX  20184 82392 32499 72701 10254 20231 39966 40069 86620 333 58012;
0213823920999992011102100004-03700-040350FM-12+008399999V0200501N002610450019N0040001N1+02241+02011101071ADDAA106022191AY161061AY261061GF108991031071004501021999KA1240M+03401MA1999999100051MD1999999+0131MW1021REMSYN100AAXX  21004 82392 21496 80505 10224 20201 30005 40107 70266 8372/ 333 10340 29083 55020 58013 60221;
0201823920999992011102112004-03700-040350FM-12+008399999V0201801N001010450019N0500001N1+02661+02181101111ADDAA124023191AY151061AY261061GF108991031051004501011001KA1240N+02201MA1999999100081MD1999999+0031MW1031REMSYN088AAXX  21124 82392 21499 81802 10266 20218 30008 40111 70356 83510 333 20220 58003 60234;
0182823920999992011102118004-03700-040350FM-12+008399999V0200901N002110450019N0500001N1+03061+02271100751ADDAA106014091AY161061AY261061GF106991041061004501011001MA1999999099731MD1999999+0071MW1021REMSYN082AAXX  21184 82392 21499 60904 10306 20227 39973 40075 70266 84610 333 58007 60141;
0223823920999992011102200004-03700-040350FM-12+008399999V0203601N000512200019N0040001N1+02341+02151101081ADDAA106014091AY161061AY261061GA1001+999999999GF100991001001999999001001KA1240M+03161MA1999999100051MD1999999-0031MW1021REMSYN094AAXX  22004 82392 21996 03601 10234 20215 30005 40108 70266 333 10316 29079 55039 59003 60141;
0173823920999992011102212004-03700-040350FM-12+008399999V0200901N002110042019N0500001N1+02801+02081101191ADDAA124018091GF106991061021004501001001KA1240N+02161MA1999999100171MD1999999+0091REMSYN082AAXX  22124 82392 22499 60904 10280 20208 30017 40119 86200 333 20216 58009 60184;
0137823920999992011102218004-03700-040350FM-12+008399999V0200501N002112200019N0500001N1+03381+01751100741ADDGF103991031021004501001001MA1999999099721MD1999999-0011REMSYN070AAXX  22184 82392 32499 30504 10338 20175 39972 40074 83200 333 59001;
0178823920999992011102300004-03700-040350FM-12+008399999V0200501N004612200019N0040001N1+02601+02331101121ADDGA1001+999999999GF100991001001999999001001KA1240M+03561MA1999999100101MD1999999+0081REMSYN082AAXX  23004 82392 32996 00509 10260 20233 30010 40112 333 10356 29068 55105 58008;
0156823920999992011102312004-03700-040350FM-12+008399999V0200901N000510450019N0500001N1+02801+02061101401ADDGF105991021021004501031001KA1240N+02261MA1999999100381MD1999999+0211REMSYN076AAXX  23124 82392 32499 50901 10280 20206 30038 40140 82230 333 20226 58021;
0137823920999992011102318004-03700-040350FM-12+008399999V0209999C000012200019N0500001N1+03511+01831100841ADDGF105991041021004501001011MA1999999099831MD1999999+0111REMSYN070AAXX  23184 82392 32499 51400 10351 20183 39983 40084 84201 333 58011;
0178823920999992011102400004-03700-040350FM-12+008399999V0203601N001512200019N0040001N1+02651+02071101171ADDGA1001+999999999GF100991001001999999001001KA1240M+03561MA1999999100151MD1999999+0051REMSYN082AAXX  24004 82392 32996 03603 10265 20207 30015 40117 333 10356 29060 55088 58005;
0156823920999992011102412004-03700-040350FM-12+008399999V0200901N002612200019N0500001N1+02921+01981101231ADDGF104991041021004501001001KA1240N+02241MA1999999100211MD1999999-0171REMSYN076AAXX  24124 82392 32499 40905 10292 20198 30021 40123 84200 333 20224 59017;
0137823920999992011102418004-03700-040350FM-12+008399999V0200501N003112200019N0500001N1+03621+01741100601ADDGF102991021011004501001001MA1999999099601MD1999999-0231REMSYN070AAXX  24184 82392 32499 20506 10362 20174 39960 40060 82100 333 59023;
0178823920999992011102500004-03700-040350FM-12+008399999V0203601N003112200019N0040001N1+02581+02041101011ADDGA1001+999999999GF100991001001999999001001KA1240M+03641MA1999999099991MD1999999-0161REMSYN082AAXX  25004 82392 32996 03606 10258 20204 39999 40101 333 10364 29059 55110 59016;
0156823920999992011102512004-03700-040350FM-12+008399999V0200901N005112200019N0500001N1+02961+01961101151ADDGF103991031021004501001001KA1240N+02181MA1999999100131MD1999999-0081REMSYN076AAXX  25124 82392 32499 30910 10296 20196 30013 40115 83200 333 20218 59008;
0137823920999992011102518004-03700-040350FM-12+008399999V0200901N003610042019N0500001N1+03561+01591100661ADDGF105991051021004501001001MA1999999099651MD1999999+0051REMSYN070AAXX  25184 82392 32499 50907 10356 20159 39965 40066 85200 333 58005;
0178823920999992011102600004-03700-040350FM-12+008399999V0203601N002112200019N0040001N1+02641+01981101001ADDGA1001+999999999GF100991001001999999001001KA1240M+03591MA1999999099981MD1999999-0011REMSYN082AAXX  26004 82392 32996 03604 10264 20198 39998 40100 333 10359 29055 55100 59001;
0156823920999992011102612004-03700-040350FM-12+008399999V0200901N003112200019N0500001N1+03001+02001101201ADDGF104991011011004501011031KA1240N+02101MA1999999100181MD1999999+0051REMSYN076AAXX  26124 82392 32499 40906 10300 20200 30018 40120 81113 333 20210 58005;
0156823920999992011102618004-03700-040350FM-12+008399999V0200901N002612200019N0500001N1+03581+01701100611ADDGF103991031021004501001001MA1999999099212MD1999999-0041REMSYN070AAXX  26184 82392 32499 30905 10358 20170 39921 40061 83200 333 59004;EQDQ01+099213APOSP 
0178823920999992011102700004-03700-040350FM-12+008399999V0203601N002112200019N0040001N1+02631+01901101021ADDGA1001+999999999GF100991001001999999001001KA1240M+03601MA1999999100001MD1999999+0021REMSYN082AAXX  27004 82392 32996 03604 10263 20190 30000 40102 333 10360 29054 55109 58002;
0156823920999992011102712004-03700-040350FM-12+008399999V0200501N001510075019N0500001N1+02881+02181101081ADDGF105991051021008001001001KA1240N+02171MA1999999100061MD1999999-0121REMSYN076AAXX  27124 82392 32599 50503 10288 20218 30006 40108 85200 333 20217 59012;
0156823920999992011102718004-03700-040350FM-12+008399999V0200901N000519999999N0500001N1+03511+01651100491ADDGF105991999021004501001001MA1999999099491MD1999999-0121REMSYN070AAXX  27184 82392 32499 50901 10351 20165 39949 40049 84200 333 59012;EQDQ01+000042SCOTLC
0178823920999992011102800004-03700-040350FM-12+008399999V0200501N004112200019N0040001N1+02701+02061100891ADDGA1001+999999999GF100991001001999999001001KA1240M+03681MA1999999099871MD1999999-0131REMSYN082AAXX  28004 82392 32996 00508 10270 20206 39987 40089 333 10368 29059 55100 59013;
0156823920999992011102812004-03700-040350FM-12+008399999V0201401N001010450019N0500001N1+02821+02021101021ADDGF107991031041004501031001KA1240N+02301MA1999999100001MD1999999-0061REMSYN076AAXX  28124 82392 32499 71402 10282 20202 30000 40102 83430 333 20230 59006;
0137823920999992011102818004-03700-040350FM-12+008399999V0201401N000510042019N0500001N1+03411+01871100541ADDGF105991051021004501001001MA1999999099541MD1999999+0051REMSYN070AAXX  28184 82392 32499 51401 10341 20187 39954 40054 85200 333 58005;
0178823920999992011102900004-03700-040350FM-12+008399999V0200501N005112200019N0040001N1+02621+02051100871ADDGA1001+999999999GF100991001001999999001001KA1240M+03541MA1999999099851MD1999999-0051REMSYN082AAXX  29004 82392 32996 00510 10262 20205 39985 40087 333 10354 29061 55089 59005;
0156823920999992011102912004-03700-040350FM-12+008399999V0200501N001010042019N0500001N1+02861+02061101091ADDGF107991071041004501001001KA1240N+02381MA1999999100071MD1999999+0071REMSYN076AAXX  29124 82392 32499 70502 10286 20206 30007 40109 87400 333 20238 58007;
0137823920999992011102918004-03700-040350FM-12+008399999V0200901N002112200019N0500001N1+03411+01911100551ADDGF104991041021004501001001MA1999999099551MD1999999+0011REMSYN070AAXX  29184 82392 32499 40904 10341 20191 39955 40055 84200 333 58001;
0178823920999992011103000004-03700-040350FM-12+008399999V0203601N002112200019N0040001N1+02581+01891100861ADDGA1001+999999999GF100991001001999999001001KA1240M+03461MA1999999099861MD1999999+0011REMSYN082AAXX  30004 82392 32996 03604 10258 20189 39986 40086 333 10346 29061 55078 58001;
0156823920999992011103012004-03700-040350FM-12+008399999V0200501N003112200019N0500001N1+02801+01921101021ADDGF104991041021004501001001KA1240N+02101MA1999999100001MD1999999-0071REMSYN076AAXX  30124 82392 32499 40506 10280 20192 30000 40102 84200 333 20210 59007;
0137823920999992011103018004-03700-040350FM-12+008399999V0200501N002612200019N0500001N1+03541+01621100541ADDGF103991031011004501001001MA1999999099541MD1999999-0011REMSYN070AAXX  30184 82392 32499 30505 10354 20162 39954 40054 83100 333 59001;
0178823920999992011103100004-03700-040350FM-12+008399999V0203601N003112200019N0040001N1+02641+02141100831ADDGA1001+999999999GF100991001001999999001001KA1240M+03601MA1999999099811MD1999999-0051REMSYN082AAXX  31004 82392 32996 03606 10264 20214 39981 40083 333 10360 29060 55103 59005;
0156823920999992011103112004-03700-040350FM-12+008399999V0200501N004110450019N0500001N1+02901+02041101051ADDGF106991021021004501031001KA1240N+02251MA1999999100031MD1999999+0031REMSYN076AAXX  31124 82392 32499 60508 10290 20204 30003 40105 82230 333 20225 58003;
0137823920999992011103118004-03700-040350FM-12+008399999V0202301N000512200019N0500001N1+03541+01621100501ADDGF103991031011004501001001MA1999999099501MD1999999-0041REMSYN070AAXX  31184 82392 32499 32301 10354 20162 39950 40050 83100 333 59004;
0168823920999992011110100004-03700-040350FM-12+008399999V0203601N005112200019N0040001N1+02671+02201100831ADDGF103991031001008001031001KA1240M+03571MA1999999099811MD1999999+0001REMSYN088AAXX  01004 82392 32596 33610 10267 20220 39981 40083 83030 333 10357 29061 55093 58000;
0156823920999992011110112004-03700-040350FM-12+008399999V0200901N002110450019N0500001N1+02681+02041101161ADDGF108991031051004501021999KA1240N+02211MA1999999100141MD1999999+0111REMSYN076AAXX  01124 82392 32499 80904 10268 20204 30014 40116 8352/ 333 20221 58011;
0182823920999992011110118004-03700-040350FM-12+008399999V0200501N002610042019N0500001N1+02961+02211100731ADDAA106000021AY101061AY231061GF107991051051004501031001MA1999999099711MD1999999+0211MW1201REMSYN082AAXX  01184 82392 21499 70505 10296 20221 39971 40073 72003 85530 333 58021 69921;
0168823920999992011110200004-03700-040350FM-12+008399999V0203601N000512200019N0040001N1+02491+02211101111ADDGF104991041001008001031001KA1240M+03281MA1999999100091MD1999999+0281REMSYN088AAXX  02004 82392 32596 43601 10249 20221 30009 40111 84030 333 10328 29075 55026 58028;
0192823920999992011110212004-03700-040350FM-12+008399999V0203601N000512200019N0500001N1+02821+01861101271ADDAA124000021GF104991999011004501001001KA1240N+02181MA1999999100251MD1999999+0111REMSYN082AAXX  02124 82392 22499 43601 10282 20186 30025 40127 83100 333 20218 58011 69924;EQDQ01+000032SCOTLC
0137823920999992011110218004-03700-040350FM-12+008399999V0203601N003112200019N0500001N1+03261+01781100871ADDGF104991041021004501001001MA1999999099851MD1999999+0141REMSYN070AAXX  02184 82392 32499 43606 10326 20178 39985 40087 84200 333 58014;
0178823920999992011110300004-03700-040350FM-12+008399999V0203601N001012200019N0040001N1+02571+02041101181ADDGA1001+999999999GF100991001001999999001001KA1240M+03411MA1999999100161MD1999999+0071REMSYN082AAXX  03004 82392 32996 03602 10257 20204 30016 40118 333 10341 29061 55061 58007;
0156823920999992011110312004-03700-040350FM-12+008399999V0203601N001010450019N0500001N1+02911+02191101301ADDGF106991041021004501031001KA1240N+02021MA1999999100281MD1999999+0031REMSYN076AAXX  03124 82392 32499 63602 10291 20219 30028 40130 84230 333 20202 58003;
0137823920999992011110318004-03700-040350FM-12+008399999V0200501N001510450019N0500001N1+03051+02141100841ADDGF106991041021004501031001MA1999999099821MD1999999-0031REMSYN070AAXX  03184 82392 32499 60503 10305 20214 39982 40084 84230 333 59003;
0168823920999992011110400004-03700-040350FM-12+008399999V0200501N003112200019N0040001N1+02621+01981101151ADDGF103991021011004501031001KA1240M+03501MA1999999100131MD1999999-0031REMSYN088AAXX  04004 82392 32496 30506 10262 20198 30013 40115 82130 333 10350 29065 55078 59003;
0156823920999992011110412004-03700-040350FM-12+008399999V0200901N004112200019N0500001N1+02981+01981101271ADDGF103991031021004501001001KA1240N+02101MA1999999100251MD1999999-0031REMSYN076AAXX  04124 82392 32499 30908 10298 20198 30025 40127 83200 333 20210 59003;
0137823920999992011110418004-03700-040350FM-12+008399999V0200901N003112200019N0500001N1+03491+01941100761ADDGF104991041021004501001001MA1999999099751MD1999999-0071REMSYN070AAXX  04184 82392 32499 40906 10349 20194 39975 40076 84200 333 59007;
0178823920999992011110500004-03700-040350FM-12+008399999V0203601N003112200019N0040001N1+02681+02111101071ADDGA1001+999999999GF100991001001999999001001KA1240M+03521MA1999999100051MD1999999-0081REMSYN082AAXX  05004 82392 32996 03606 10268 20211 30005 40107 333 10352 29059 55103 59008;
0156823920999992011110512004-03700-040350FM-12+008399999V0200901N004110450019N0500001N1+02921+01921101221ADDGF106991031021004501031001KA1240N+02321MA1999999100201MD1999999-0051REMSYN076AAXX  05124 82392 32499 60908 10292 20192 30020 40122 83230 333 20232 59005;
0137823920999992011110518004-03700-040350FM-12+008399999V0201401N000512200019N0500001N1+03481+01571100661ADDGF103991031011004501001001MA1999999099651MD1999999-0101REMSYN070AAXX  05184 82392 32499 31401 10348 20157 39965 40066 83100 333 59010;
0178823920999992011110600004-03700-040350FM-12+008399999V0200501N004612200019N0040001N1+02661+02091101021ADDGA1001+999999999GF100991001001999999001001KA1240M+03541MA1999999100001MD1999999-0051REMSYN082AAXX  06004 82392 32996 00509 10266 20209 30000 40102 333 10354 29057 55098 59005;
0156823920999992011110612004-03700-040350FM-12+008399999V0200901N002110042019N0500001N1+03021+01961101161ADDGF105991051021004501001001KA1240N+02291MA1999999100141MD1999999-0061REMSYN076AAXX  06124 82392 32499 50904 10302 20196 30014 40116 85200 333 20229 59006;
0137823920999992011110618004-03700-040350FM-12+008399999V0201401N001010042019N0500001N1+03581+01601100621ADDGF105991051021004501001001MA1999999099621MD1999999-0031REMSYN070AAXX  06184 82392 32499 51402 10358 20160 39962 40062 85200 333 59003;
0178823920999992011110700004-03700-040350FM-12+008399999V0203601N002112200019N0040001N1+02581+01991101071ADDGA1001+999999999GF100991001001999999001001KA1240M+03621MA1999999100051MD1999999+0051REMSYN082AAXX  07004 82392 32496 03604 10258 20199 30005 40107 333 10362 29056 55099 58005;
0156823920999992011110712004-03700-040350FM-12+008399999V0200901N004612200019N0500001N1+02861+01921101071ADDGF103991031011004501001001KA1240N+02001MA1999999100051MD1999999-0091REMSYN076AAXX  07124 82392 32499 30909 10286 20192 30005 40107 83100 333 20200 59009;
0137823920999992011110718004-03700-040350FM-12+008399999V0203601N003112200019N0500001N1+03561+01481100481ADDGF103991021011004501001011MA1999999099471MD1999999-0151REMSYN070AAXX  07184 82392 32499 33606 10356 20148 39947 40048 82101 333 59015;
0178823920999992011110800004-03700-040350FM-12+008399999V0203601N002112200019N0040001N1+02611+01931100871ADDGA1001+999999999GF100991001001999999001001KA1240M+03641MA1999999099851MD1999999-0201REMSYN082AAXX  08004 82392 32996 03604 10261 20193 39985 40087 333 10364 29055 55102 59020;
0156823920999992011110812004-03700-040350FM-12+008399999V0200501N004612200019N0500001N1+02961+01961100921ADDGF104991011011004501031001KA1240N+02051MA1999999099901MD1999999-0151REMSYN076AAXX  08124 82392 32499 40509 10296 20196 39990 40092 81130 333 20205 59015;
0137823920999992011110818004-03700-040350FM-12+008399999V0200501N002112200019N0500001N1+03571+01501100381ADDGF103991021011004501011001MA1999999099381MD1999999-0091REMSYN070AAXX  08184 82392 32499 30504 10357 20150 39938 40038 82110 333 59009;
0168823920999992011110900004-03700-040350FM-12+008399999V0200501N001512200019N0040001N1+02671+01941100881ADDGF101991011001008001011001KA1240M+03681MA1999999099861MD1999999+0011REMSYN088AAXX  09004 82392 32596 10503 10267 20194 39986 40088 81010 333 10368 29053 55109 58001;
0156823920999992011110912004-03700-040350FM-12+008399999V0200501N002112200019N0500001N1+02981+01951101091ADDGF104991041021004501001001KA1240N+02101MA1999999100071MD1999999+0171REMSYN076AAXX  09124 82392 32499 40504 10298 20195 30007 40109 84200 333 20210 58017;
0137823920999992011110918004-03700-040350FM-12+008399999V0200901N004612200019N0500001N1+03581+01551100501ADDGF103991031011004501001001MA1999999099501MD1999999+0121REMSYN070AAXX  09184 82392 32499 30909 10358 20155 39950 40050 83100 333 58012;
0168823920999992011111000004-03700-040350FM-12+008399999V0203601N001012200019N0040001N1+02671+01971100941ADDGF101991011001008001011001KA1240M+03641MA1999999099921MD1999999+0061REMSYN088AAXX  10004 82392 32596 13602 10267 20197 39992 40094 81010 333 10364 29054 55099 58006;
0156823920999992011111012004-03700-040350FM-12+008399999V0200901N003112200019N0500001N1+02971+01951101061ADDGF104991021011004501011001KA1240N+02141MA1999999100041MD1999999-0031REMSYN076AAXX  10124 82392 32499 40906 10297 20195 30004 40106 82110 333 20214 59003;
0137823920999992011111018004-03700-040350FM-12+008399999V0200901N000510450019N0500001N1+03541+01521100571ADDGF105991031021004501011001MA1999999099571MD1999999+0071REMSYN070AAXX  10184 82392 32499 50901 10354 20152 39957 40057 83210 333 58007;
0178823920999992011111100004-03700-040350FM-12+008399999V0200501N004612200019N0040001N1+02701+02061100971ADDGA1001+999999999GF100991001001999999001001KA1240M+03721MA1999999099951MD1999999+0031REMSYN082AAXX  11004 82392 32996 00509 10270 20206 39995 40097 333 10372 29055 55098 58003;
0156823920999992011111112004-03700-040350FM-12+008399999V0200901N003110450019N0500001N1+02841+01961101071ADDGF106991031041004501031001KA1240N+02201MA1999999100051MD1999999+0011REMSYN076AAXX  11124 82392 32499 60906 10284 20196 30005 40107 83430 333 20220 58001;
0137823920999992011111118004-03700-040350FM-12+008399999V0200901N001010042019N0500001N1+03581+01751100551ADDGF105991051021004501001001MA1999999099551MD1999999-0021REMSYN070AAXX  11184 82392 32499 50902 10358 20175 39955 40055 85200 333 59002;
0168823920999992011111200004-03700-040350FM-12+008399999V0203601N004610450019N0040001N1+02741+02071100731ADDGF107991031051004501031001KA1240M+03641MA1999999099911MD1999999-0041REMSYN088AAXX  12004 82392 32496 73609 10274 20207 39991 40073 83530 333 10364 29057 55073 59004;
0156823920999992011111212004-03700-040350FM-12+008399999V0200901N003110042019N0500001N1+02961+01961101031ADDGF106991061021004501001001KA1240N+02341MA1999999100021MD1999999-0031REMSYN076AAXX  12124 82392 32499 60906 10296 20196 30002 40103 86200 333 20234 59003;
0137823920999992011111218004-03700-040350FM-12+008399999V0200901N002110450019N0500001N1+03491+01631100551ADDGF106991031021004501031001MA1999999099551MD1999999+0001REMSYN070AAXX  12184 82392 32499 60904 10349 20163 39955 40055 83230 333 58000;
0168823920999992011111300004-03700-040350FM-12+008399999V0203601N002612200019N0040001N1+02671+01991100921ADDGF103991011021004501031001KA1240M+03661MA1999999099901MD1999999-0011REMSYN088AAXX  13004 82392 32496 33605 10267 20199 39990 40092 81230 333 10366 29055 55090 59001;
0156823920999992011111312004-03700-040350FM-12+008399999V0200901N004110450019N0500001N1+02861+02011101071ADDGF106991031041004501031001KA1240N+02181MA1999999100051MD1999999+0031REMSYN076AAXX  13124 82392 32499 60908 10286 20201 30005 40107 83430 333 20218 58003;
0137823920999992011111318004-03700-040350FM-12+008399999V0200501N005110450019N0500001N1+03521+01501100601ADDGF105991021021004501031001MA1999999099601MD1999999+0051REMSYN070AAXX  13184 82392 32499 50510 10352 20150 39960 40060 82230 333 58005;
0178823920999992011111400004-03700-040350FM-12+008399999V0200501N005112200019N0040001N1+02581+02041100911ADDGA1001+999999999GF100991001001999999001001KA1240M+03621MA1999999099891MD1999999-0011REMSYN082AAXX  14004 82392 32996 00510 10258 20204 39989 40091 333 10362 29058 55099 59001;
0156823920999992011111412004-03700-040350FM-12+008399999V0200901N004610450019N0500001N1+02861+02011101141ADDGF105991021021004501031001KA1240N+02011MA1999999100121MD1999999+0071REMSYN076AAXX  14124 82392 32499 50909 10286 20201 30012 40114 82230 333 20201 58007;
0137823920999992011111418004-03700-040350FM-12+008399999V0200901N003110450019N0500001N1+03521+01601100601ADDGF106991031011004501031001MA1999999099601MD1999999+0001REMSYN070AAXX  14184 82392 32499 60906 10352 20160 39960 40060 83130 333 58000;
0178823920999992011111500004-03700-040350FM-12+008399999V0203601N001512200019N0040001N1+02691+01991100931ADDGA1001+999999999GF100991001001999999001001KA1240M+03591MA1999999099911MD1999999+0021REMSYN082AAXX  15004 82392 32996 03603 10269 20199 39991 40093 333 10359 29056 55103 58002;
0156823920999992011111512004-03700-040350FM-12+008399999V0200501N002112200019N0500001N1+02961+01871101081ADDGF104991031011004501031001KA1240N+02211MA1999999100061MD1999999-0061REMSYN076AAXX  15124 82392 32499 40504 10296 20187 30006 40108 83130 333 20221 59006;
0137823920999992011111518004-03700-040350FM-12+008399999V0200901N003110450019N0500001N1+03501+01811100531ADDGF106991031021004501031011MA1999999099531MD1999999-0071REMSYN070AAXX  15184 82392 32499 60906 10350 20181 39953 40053 83231 333 59007;
0178823920999992011111600004-03700-040350FM-12+008399999V0203601N002112200019N0040001N1+02681+02111100901ADDGA1001+999999999GF100991001001999999001001KA1240M+03621MA1999999099881MD1999999-0031REMSYN082AAXX  16004 82392 32996 03604 10268 20211 39988 40090 333 10362 29058 55090 59003;
0156823920999992011111612004-03700-040350FM-12+008399999V0200501N005110450019N0500001N1+02941+01851101061ADDGF106991031011004501031001KA1240N+02081MA1999999100041MD1999999-0021REMSYN076AAXX  16124 82392 32499 60510 10294 20185 30004 40106 83130 333 20208 59002;
0137823920999992011111618004-03700-040350FM-12+008399999V0203601N002112200019N0500001N1+03661+01511100511ADDGF103991031011004501001001MA1999999099511MD1999999-0021REMSYN070AAXX  16184 82392 32499 33604 10366 20151 39951 40051 83100 333 59002;
0178823920999992011111700004-03700-040350FM-12+008399999V0203601N002612200019N0040001N1+02631+02031100881ADDGA1001+999999999GF100991001001999999001001KA1240M+03701MA1999999099861MD1999999-0021REMSYN082AAXX  17004 82392 32996 03605 10263 20203 39986 40088 333 10370 29062 55105 59002;
0156823920999992011111712004-03700-040350FM-12+008399999V0203601N000510450019N0500001N1+02861+02061101011ADDGF106991031041004501031001KA1240N+02091MA1999999099991MD1999999-0051REMSYN076AAXX  17124 82392 32499 63601 10286 20206 39999 40101 83430 333 20209 59005;
0137823920999992011111718004-03700-040350FM-12+008399999V0203601N002612200019N0500001N1+03541+01851100451ADDGF104991041021004501001001MA1999999099451MD1999999-0061REMSYN070AAXX  17184 82392 32499 43605 10354 20185 39945 40045 84200 333 59006;
0178823920999992011111800004-03700-040350FM-12+008399999V0200501N005112200019N0040001N1+02681+02111100821ADDGA1001+999999999GF100991001001999999001001KA1240M+03721MA1999999099801MD1999999-0061REMSYN082AAXX  18004 82392 32996 00510 10268 20211 39980 40082 333 10372 29060 55098 59006;
0156823920999992011111812004-03700-040350FM-12+008399999V0200501N001010450019N0500001N1+02901+01871101021ADDGF105991031011004501031001KA1240N+02141MA1999999100001MD1999999+0011REMSYN076AAXX  18124 82392 32499 50502 10290 20187 30000 40102 83130 333 20214 58001;
0137823920999992011111818004-03700-040350FM-12+008399999V0200901N002112200019N0500001N1+03601+01411100501ADDGF104991041021004501001001MA1999999099501MD1999999+0051REMSYN070AAXX  18184 82392 32499 40904 10360 20141 39950 40050 84200 333 58005;
0178823920999992011111900004-03700-040350FM-12+008399999V0200501N003112200019N0040001N1+02701+01961100881ADDGA1001+999999999GF100991001001999999001001KA1240M+03741MA1999999099861MD1999999+0061REMSYN082AAXX  19004 82392 32996 00506 10270 20196 39986 40088 333 10374 29052 55108 58006;
0156823920999992011111912004-03700-040350FM-12+008399999V0200901N002112200019N0500001N1+02961+01871101091ADDGF104991041021004501001001KA1240N+02081MA1999999100071MD1999999+0071REMSYN076AAXX  19124 82392 32499 40904 10296 20187 30007 40109 84200 333 20208 58007;
0137823920999992011111918004-03700-040350FM-12+008399999V0200501N004112200019N0500001N1+03661+01721100601ADDGF102991021011004501001001MA1999999099601MD1999999+0101REMSYN070AAXX  19184 82392 32499 20508 10366 20172 39960 40060 82100 333 58010;
0178823920999992011112000004-03700-040350FM-12+008399999V0200501N004112200019N0040001N1+02701+01801100961ADDGA1001+999999999GF100991001001999999001001KA1240M+03721MA1999999099941MD1999999+0081REMSYN082AAXX  20004 82392 32996 00508 10270 20180 39994 40096 333 10372 29050 55101 58008;
0156823920999992011112012004-03700-040350FM-12+008399999V0200501N000510450019N0500001N1+03831+01821101101ADDGF107991041021004501011001KA1240N+02171MA1999999100081MD1999999+0011REMSYN076AAXX  20124 82392 32499 70501 10383 20182 30008 40110 84210 333 20217 58001;
0137823920999992011112018004-03700-040350FM-12+008399999V0209999C000010450019N0500001N1+03411+01781100591ADDGF107991041041004501011001MA1999999099591MD1999999-0011REMSYN070AAXX  20184 82392 32499 70000 10341 20178 39959 40059 84410 333 59001;
0168823920999992011112100004-03700-040350FM-12+008399999V0203601N001012200019N0040001N1+02631+02161101001ADDGF102991011021004501011001KA1240M+03501MA1999999099981MD1999999+0041REMSYN088AAXX  21004 82392 32496 23602 10263 20216 39998 40100 81210 333 10350 29063 55039 58004;
0156823920999992011112112004-03700-040350FM-12+008399999V0200901N003112200019N0500001N1+02901+01961101161ADDGF103991031011004501001001KA1240N+02101MA1999999100141MD1999999+0161REMSYN076AAXX  21124 82392 32499 30906 10290 20196 30014 40116 83100 333 20210 58016;
0137823920999992011112118004-03700-040350FM-12+008399999V0200901N004612200019N0500001N1+03601+01721100661ADDGF103991031011004501001001MA1999999099651MD1999999+0061REMSYN070AAXX  21184 82392 32499 30909 10360 20172 39965 40066 83100 333 58006;
0178823920999992011112200004-03700-040350FM-12+008399999V0203601N002612200019N0040001N1+02681+01941100991ADDGA1001+999999999GF100991001001999999001001KA1240M+03681MA1999999099971MD1999999-0011REMSYN082AAXX  22004 82392 32996 03605 10268 20194 39997 40099 333 10368 29055 55106 59001;
0156823920999992011112212004-03700-040350FM-12+008399999V0200501N002612200019N0500001N1+02961+01961101271ADDGF104991031021004501031001KA1240N+02241MA1999999100251MD1999999+0111REMSYN076AAXX  22124 82392 32499 40505 10296 20196 30025 40127 83230 333 20224 58011;
0137823920999992011112218004-03700-040350FM-12+008399999V0200501N002110450019N0500001N1+03501+01771100771ADDGF106991041061004501031001MA1999999099761MD1999999+0111REMSYN070AAXX  22184 82392 32499 60504 10350 20177 39976 40077 84630 333 58011;
0178823920999992011112300004-03700-040350FM-12+008399999V0200501N001012200019N0040001N1+02701+01861101101ADDGA1001+999999999GF100991001001999999001001KA1240M+03681MA1999999100081MD1999999+0111REMSYN082AAXX  23004 82392 32996 00502 10270 20186 30008 40110 333 10368 29053 55092 58011;
0156823920999992011112312004-03700-040350FM-12+008399999V0200901N004610450019N0500001N1+02921+02061101251ADDGF106991041021004501031001KA1240N+02101MA1999999100231MD1999999-0021REMSYN076AAXX  23124 82392 32499 60909 10292 20206 30023 40125 84230 333 20210 59002;
0137823920999992011112318004-03700-040350FM-12+008399999V0200501N002110450019N0500001N1+03661+01821100661ADDGF105991031011004501031001MA1999999099651MD1999999-0111REMSYN070AAXX  23184 82392 32499 50504 10366 20182 39965 40066 83130 333 59011;
0168823920999992011112400004-03700-040350FM-12+008399999V0203601N001512200019N0040001N1+02711+02101101081ADDGF102991021001008001011001KA1240M+03731MA1999999100061MD1999999-0021REMSYN088AAXX  24004 82392 32596 23603 10271 20210 30006 40108 82010 333 10373 29059 55094 59002;
0156823920999992011112412004-03700-040350FM-12+008399999V0200901N001510042019N0500001N1+02871+02131101221ADDGF107991051041004501031001KA1240N+02141MA1999999100201MD1999999-0031REMSYN076AAXX  24124 82392 32499 70903 10287 20213 30020 40122 85430 333 20214 59003;
0137823920999992011112418004-03700-040350FM-12+008399999V0200501N002610450019N0500001N1+03491+01861100631ADDGF105991031021004501011001MA1999999099631MD1999999-0021REMSYN070AAXX  24184 82392 32499 50505 10349 20186 39963 40063 83210 333 59002;
0178823920999992011112500004-03700-040350FM-12+008399999V0203601N004112200019N0040001N1+02721+02081100921ADDGA1001+999999999GF100991001001999999001001KA1240M+03661MA1999999099901MD1999999-0161REMSYN082AAXX  25004 82392 32996 03608 10272 20208 39990 40092 333 10366 29060 55073 59016;
0156823920999992011112512004-03700-040350FM-12+008399999V0201401N003110450019N0500001N1+03001+02001101081ADDGF105991021011004501031001KA1240N+02201MA1999999100071MD1999999-0131REMSYN076AAXX  25124 82392 32499 51406 10300 20200 30007 40108 82130 333 20220 59013;
0137823920999992011112518004-03700-040350FM-12+008399999V0200501N003110450019N0500001N1+03621+01531100551ADDGF105991041021004501031001MA1999999099551MD1999999-0131REMSYN070AAXX  25184 82392 32499 50506 10362 20153 39955 40055 84230 333 59013;
0178823920999992011112600004-03700-040350FM-12+008399999V0200501N004112200019N0040001N1+02641+02071100961ADDGA1001+999999999GF100991001001999999001001KA1240M+03661MA1999999099941MD1999999+0041REMSYN082AAXX  26004 82392 32996 00508 10264 20207 39994 40096 333 10366 29056 55082 58004;
0156823920999992011112612004-03700-040350FM-12+008399999V0200501N001010450019N0500001N1+02771+02011101131ADDGF106991041021004501011001KA1240N+02151MA1999999100111MD1999999+0041REMSYN076AAXX  26124 82392 32499 60502 10277 20201 30011 40113 84210 333 20215 58004;
0137823920999992011112618004-03700-040350FM-12+008399999V0200901N000510450019N0500001N1+03521+01501100591ADDGF107991031021004501011001MA1999999099591MD1999999+0041REMSYN070AAXX  26184 82392 32499 70901 10352 20150 39959 40059 83210 333 58004;
0178823920999992011112700004-03700-040350FM-12+008399999V0203601N002112200019N0040001N1+02601+02101100941ADDGA1001+999999999GF100991001001999999001001KA1240M+03611MA1999999099921MD1999999-0021REMSYN082AAXX  27004 82392 32996 03604 10260 20210 39992 40094 333 10361 29060 55079 59002;
0156823920999992011112712004-03700-040350FM-12+008399999V0200501N001010450019N0500001N1+02781+02061101031ADDGF106991021051004501011001KA1240N+02181MA1999999100011MD1999999-0101REMSYN076AAXX  27124 82392 32499 60502 10278 20206 30001 40103 82510 333 20218 59010;
0137823920999992011112718004-03700-040350FM-12+008399999V0202701N000510450019N0500001N1+03621+01741100501ADDGF106991021041004501011001MA1999999099501MD1999999-0091REMSYN070AAXX  27184 82392 32499 62701 10362 20174 39950 40050 82410 333 59009;
0178823920999992011112800004-03700-040350FM-12+008399999V0200501N003112200019N0040001N1+02661+02181100721ADDGA1001+999999999GF100991001001999999001001KA1240M+03701MA1999999099701MD1999999-0021REMSYN082AAXX  28004 82392 32996 00506 10266 20218 39970 40072 333 10370 29062 55087 59002;
0156823920999992011112812004-03700-040350FM-12+008399999V0201401N001010450019N0500001N1+02681+02111101001ADDGF107991031051004501011001KA1240N+02121MA1999999099981MD1999999-0031REMSYN076AAXX  28124 82392 32499 71402 10268 20211 39998 40100 83510 333 20212 59003;
0156823920999992011112818004-03700-040350FM-12+008399999V0201401N001012200019N0500001N1+03621+01741100421ADDGF104991999021004501001001MA1999999099421MD1999999-0081REMSYN070AAXX  28184 82392 32499 41402 10362 20174 39942 40042 83200 333 59008;EQDQ01+000032SCOTLC
0178823920999992011112900004-03700-040350FM-12+008399999V0203601N001512200019N0040001N1+02631+02161100691ADDGA1001+999999999GF100991001001999999001001KA1240M+03671MA1999999099671MD1999999-0031REMSYN082AAXX  29004 82392 32996 03603 10263 20216 39967 40069 333 10367 29064 55080 59003;
0156823920999992011112912004-03700-040350FM-12+008399999V0200901N003110450019N0500001N1+02901+02041100971ADDGF106991031041004501031001KA1240N+02401MA1999999099951MD1999999-0031REMSYN076AAXX  29124 82392 32499 60906 10290 20204 39995 40097 83430 333 20240 59003;
0137823920999992011112918004-03700-040350FM-12+008399999V0200901N000510450019N0500001N1+03501+01861100471ADDGF105991041021004501011001MA1999999099471MD1999999+0051REMSYN070AAXX  29184 82392 32499 50901 10350 20186 39947 40047 84210 333 58005;
0168823920999992011113000004-03700-040350FM-12+008399999V0203601N002612200019N0040001N1+02631+02161100801ADDGF101991011011004501001001KA1240M+03571MA1999999099781MD1999999+0111REMSYN088AAXX  30004 82392 32496 13605 10263 20216 39978 40080 81100 333 10357 29062 55076 58011;
0175823920999992011113012004-03700-040350FM-12+008399999V0200501N004619999999N0500001N1+02921+02091100921ADDGF107991999021004501001001KA1240N+02501MA1999999099901MD1999999-0051REMSYN076AAXX  30124 82392 32499 70509 10292 20209 39990 40092 83200 333 20250 59005;EQDQ01+000032SCOTLC
0137823920999992011113018004-03700-040350FM-12+008399999V0200501N003112200019N0500001N1+03561+01871100451ADDGF104991041021004501001001MA1999999099451MD1999999-0021REMSYN070AAXX  30184 82392 32499 40506 10356 20187 39945 40045 84200 333 59002;
0168823920999992011120100004-03700-040350FM-12+008399999V0203601N002612200019N0040001N1+02601+02121101171ADDGF102991021001008001011001KA1240M+03641MA1999999100151MD1999999+0071REMSYN088AAXX  01004 82392 32596 23605 10260 20212 30015 40117 82010 333 10364 29062 55062 58007;
0156823920999992011120112004-03700-040350FM-12+008399999V0200901N001010450019N0500001N1+02971+02041101131ADDGF106991041021004501031081KA1240N+02381MA1999999100111MD1999999+0211REMSYN076AAXX  01124 82392 32499 60902 10297 20204 30011 40113 84238 333 20238 58021;
0178823920999992011120200004-03700-040350FM-12+008399999V0200501N004612200019N0040001N1+02631+02121100971ADDGA1001+999999999GF100991001001999999001001KA1240M+03761MA1999999099951MD1999999-0201REMSYN082AAXX  02004 82392 32996 00509 10263 20212 39995 40097 333 10376 29058 55095 59020;
0156823920999992011120212004-03700-040350FM-12+008399999V0200901N004610450019N0500001N1+02781+01911101141ADDGF106991031041004501031001KA1240N+02101MA1999999100121MD1999999+0011REMSYN076AAXX  02124 82392 32499 60909 10278 20191 30012 40114 83430 333 20210 58001;
0178823920999992011120300004-03700-040350FM-12+008399999V0200501N003112200019N0040001N1+02601+02031100971ADDGA1001+999999999GF100991001001999999001001KA1240M+03661MA1999999099951MD1999999+0001REMSYN082AAXX  03004 82392 32996 00506 10260 20203 39995 40097 333 10366 29067 55080 58000;
0175823920999992011120312004-03700-040350FM-12+008399999V0200901N002619999999N0500001N1+02881+01941101071ADDGF105991999031004501001001KA1240N+02001MA1999999100051MD1999999-0071REMSYN076AAXX  03124 82392 32499 50905 10288 20194 30005 40107 82300 333 20200 59007;EQDQ01+000022SCOTLC
0178823920999992011120400004-03700-040350FM-12+008399999V0203601N004112200019N0040001N1+02701+02131100891ADDGA1001+999999999GF100991001001999999001001KA1240M+03641MA1999999099871MD1999999-0081REMSYN082AAXX  04004 82392 32996 03608 10270 20213 39987 40089 333 10364 29066 55109 59008;
0178823920999992011120500004-03700-040350FM-12+008399999V0203601N004112200019N0040001N1+02761+01971100791ADDGA1001+999999999GF100991001001999999001001KA1240M+03661MA1999999099781MD1999999-0091REMSYN082AAXX  05004 82392 32996 03608 10276 20197 39978 40079 333 10366 29062 55107 59009;
0156823920999992011120512004-03700-040350FM-12+008399999V0200901N004612200019N0500001N1+02911+02061101011ADDGF104991021011004501031001KA1240N+02101MA1999999099991MD1999999+0021REMSYN076AAXX  05124 82392 32499 40909 10291 20206 39999 40101 82130 333 20210 58002;
0178823920999992011120600004-03700-040350FM-12+008399999V0200501N005112200019N0040001N1+02741+02171100841ADDGA1001+999999999GF100991001001999999001001KA1240M+03721MA1999999099821MD1999999+0041REMSYN082AAXX  06004 82392 32996 00510 10274 20217 39982 40084 333 10372 29067 55109 58004;
0156823920999992011120612004-03700-040350FM-12+008399999V0200901N000510450019N0500001N1+02981+02061100921ADDGF106991031041004501031001KA1240N+02081MA1999999099911MD1999999-0081REMSYN076AAXX  06124 82392 32499 60901 10298 20206 39991 40092 83430 333 20208 59008;
0178823920999992011120700004-03700-040350FM-12+008399999V0200501N005112200019N0040001N1+02661+02181100761ADDGA1001+999999999GF100991001001999999001001KA1240M+03561MA1999999099741MD1999999-0081REMSYN082AAXX  07004 82392 32996 00510 10266 20218 39974 40076 333 10356 29069 55110 59008;
0156823920999992011120712004-03700-040350FM-12+008399999V0200901N004110450019N0500001N1+02901+02041100921ADDGF107991031041004501011001KA1240N+02101MA1999999099901MD1999999-0011REMSYN076AAXX  07124 82392 32499 70908 10290 20204 39990 40092 83410 333 20210 59001;
0178823920999992011120800004-03700-040350FM-12+008399999V0203601N005112200019N0040001N1+02701+01991100841ADDGA1001+999999999GF100991001001999999001001KA1240M+03681MA1999999099821MD1999999+0081REMSYN082AAXX  08004 82392 32996 03610 10270 20199 39982 40084 333 10368 29063 55096 58008;
0156823920999992011120812004-03700-040350FM-12+008399999V0200901N005110450019N0500001N1+02801+02081101071ADDGF107991031051004501011001KA1240N+02101MA1999999100051MD1999999+0151REMSYN076AAXX  08124 82392 32499 70910 10280 20208 30005 40107 83510 333 20210 58015;
0156823920999992011120912004-03700-040350FM-12+008399999V0200901N004110450019N0500001N1+02861+02011101071ADDGF106991031041004501031001KA1240N+02041MA1999999100051MD1999999+0001REMSYN076AAXX  09124 82392 32499 60908 10286 20201 30005 40107 83430 333 20204 58000;
0178823920999992011121000004-03700-040350FM-12+008399999V0203601N005112200019N0040001N1+02741+02021100871ADDGA1001+999999999GF100991001001999999001001KA1240M+03601MA1999999099851MD1999999-0081REMSYN082AAXX  10004 82392 32996 03610 10274 20202 39985 40087 333 10360 29063 55082 59008;
0156823920999992011121012004-03700-040350FM-12+008399999V0200901N004110450019N0500001N1+02961+02131101041ADDGF105991021021004501031001KA1240N+02201MA1999999100031MD1999999-0021REMSYN076AAXX  10124 82392 32499 50908 10296 20213 30003 40104 82230 333 20220 59002;
0178823920999992011121100004-03700-040350FM-12+008399999V0200501N003112200019N0040001N1+02701+02111100861ADDGA1001+999999999GF100991001001999999001001KA1240M+03701MA1999999099841MD1999999-0011REMSYN082AAXX  11004 82392 32996 00506 10270 20211 39984 40086 333 10370 29067 55102 59001;
0156823920999992011121112004-03700-040350FM-12+008399999V0203601N002610450019N0500001N1+02801+02001101051ADDGF106991021041004501031001KA1240N+02301MA1999999100031MD1999999+0001REMSYN076AAXX  11124 82392 32499 63605 10280 20200 30003 40105 82430 333 20230 58000;
0178823920999992011121200004-03700-040350FM-12+008399999V0200501N003112200019N0040001N1+02601+02211100891ADDGA1001+999999999GF100991001001999999001001KA1240M+03661MA1999999099871MD1999999+0031REMSYN082AAXX  12004 82392 32996 00506 10260 20221 39987 40089 333 10366 29073 55098 58003;
0156823920999992011121212004-03700-040350FM-12+008399999V0202701N000510450019N0500001N1+02801+01921101051ADDGF106991031041004501031001KA1240N+02181MA1999999100031MD1999999+0001REMSYN076AAXX  12124 82392 32499 62701 10280 20192 30003 40105 83430 333 20218 58000;
0178823920999992011121300004-03700-040350FM-12+008399999V0200501N005112200019N0040001N1+02661+02181100921ADDGA1001+999999999GF100991001001999999001001KA1240M+03621MA1999999099901MD1999999+0031REMSYN082AAXX  13004 82392 32996 00510 10266 20218 39990 40092 333 10362 29072 55100 58003;
0156823920999992011121312004-03700-040350FM-12+008399999V0200901N003112200019N0500001N1+02861+01981101021ADDGF104991021011004501031001KA1240N+02401MA1999999100001MD1999999-0031REMSYN076AAXX  13124 82392 32499 40906 10286 20198 30000 40102 82130 333 20240 59003;
0156823920999992011121412004-03700-040350FM-12+008399999V0200501N002610450019N0500001N1+02901+02041100991ADDGF106991031021004501031001KA1240N+02301MA1999999099971MD1999999-0031REMSYN076AAXX  14124 82392 32499 60505 10290 20204 39997 40099 83230 333 20230 59003;
0178823920999992011121500004-03700-040350FM-12+008399999V0200501N004612200019N0040001N1+02621+02211100871ADDGA1001+999999999GF100991001001999999001001KA1240M+03561MA1999999099851MD1999999+0001REMSYN082AAXX  15004 82392 32996 00509 10262 20221 39985 40087 333 10356 29072 55076 58000;
0156823920999992011121512004-03700-040350FM-12+008399999V0200501N005112200019N0500001N1+02901+02041101061ADDGF104991031021004501031001KA1240N+02081MA1999999100041MD1999999+0071REMSYN076AAXX  15124 82392 32499 40510 10290 20204 30004 40106 83230 333 20208 58007;
0178823920999992011121600004-03700-040350FM-12+008399999V0203601N003112200019N0040001N1+02641+01901100891ADDGA1001+999999999GF100991001001999999001001KA1240M+03641MA1999999099871MD1999999+0021REMSYN082AAXX  16004 82392 32996 03606 10264 20190 39987 40089 333 10364 29063 55096 58002;
0156823920999992011121612004-03700-040350FM-12+008399999V0203601N000512200019N0500001N1+02801+02001101121ADDGF104991021011004501031001KA1240N+01981MA1999999100101MD1999999+0061REMSYN076AAXX  16124 82392 32499 43601 10280 20200 30010 40112 82130 333 20198 58006;
0156823920999992011121712004-03700-040350FM-12+008399999V0200901N005112200019N0500001N1+02941+02031101121ADDGF103991031011004501001001KA1240N+01981MA1999999100101MD1999999+0001REMSYN076AAXX  17124 82392 32499 30910 10294 20203 30010 40112 83100 333 20198 58000;
0178823920999992011121800004-03700-040350FM-12+008399999V0200501N003112200019N0040001N1+02741+02021100921ADDGA1001+999999999GF100991001001999999001001KA1240M+03701MA1999999099901MD1999999+0041REMSYN082AAXX  18004 82392 32996 00506 10274 20202 39990 40092 333 10370 29063 55109 58004;
0156823920999992011121812004-03700-040350FM-12+008399999V0200901N004112200019N0500001N1+03041+02031101091ADDGF101991011011004501001001KA1240N+02101MA1999999100081MD1999999-0021REMSYN076AAXX  18124 82392 32499 10908 10304 20203 30008 40109 81100 333 20210 59002;
0178823920999992011121900004-03700-040350FM-12+008399999V0203601N004612200019N0040001N1+02681+02161100961ADDGA1001+999999999GF100991001001999999001001KA1240M+03761MA1999999099951MD1999999+0051REMSYN082AAXX  19004 82392 32996 03609 10268 20216 39995 40096 333 10376 29067 55111 58005;
0156823920999992011121912004-03700-040350FM-12+008399999V0200501N005110450019N0500001N1+02941+02081101161ADDGF105991031021004501031001KA1240N+02101MA1999999100141MD1999999+0061REMSYN076AAXX  19124 82392 32499 50510 10294 20208 30014 40116 83230 333 20210 58006;
0168823920999992011122000004-03700-040350FM-12+008399999V0200501N004612200019N0040001N1+02761+02211100961ADDGF102991021001008001031001KA1240M+03701MA1999999099951MD1999999+0001REMSYN088AAXX  20004 82392 32596 20509 10276 20221 39995 40096 82030 333 10370 29060 55098 58000;
0156823920999992011122012004-03700-040350FM-12+008399999V0200901N003110450019N0500001N1+02861+02091101141ADDGF107991041051004501031001KA1240N+02211MA1999999100121MD1999999-0021REMSYN076AAXX  20124 82392 32499 70906 10286 20209 30012 40114 84530 333 20221 59002;
0178823920999992011122100004-03700-040350FM-12+008399999V0200501N005112200019N0040001N1+02741+02261100921ADDGA1001+999999999GF100991001001999999001001KA1240M+03781MA1999999099901MD1999999-0051REMSYN082AAXX  21004 82392 32996 00510 10274 20226 39990 40092 333 10378 29071 55087 59005;
0156823920999992011122112004-03700-040350FM-12+008399999V0200501N002610450019N0500001N1+03061+02221101041ADDGF106991031051004501031001KA1240N+02461MA1999999100031MD1999999-0051REMSYN076AAXX  21124 82392 32499 60505 10306 20222 30003 40104 83530 333 20246 59005;
0178823920999992011122200004-03700-040350FM-12+008399999V0200501N005112200019N0040001N1+02701+02281100881ADDGA1001+999999999GF100991001001999999001001KA1240M+03701MA1999999099851MD1999999-0051REMSYN082AAXX  22004 82392 32996 00510 10270 20228 39985 40088 333 10370 29072 55076 59005;
0156823920999992011122212004-03700-040350FM-12+008399999V0200501N002610450019N0500001N1+02761+02281101071ADDGF107991031051004501011001KA1240N+02491MA1999999100051MD1999999+0021REMSYN076AAXX  22124 82392 32499 70505 10276 20228 30005 40107 83510 333 20249 58002;
0178823920999992011122300004-03700-040350FM-12+008399999V0200501N005112200019N0040001N1+02621+02211100941ADDGA1001+999999999GF100991001001999999001001KA1240M+03561MA1999999099921MD1999999+0071REMSYN082AAXX  23004 82392 32996 00510 10262 20221 39992 40094 333 10356 29077 55078 58007;
0156823920999992011122312004-03700-040350FM-12+008399999V0200501N001010450019N0500001N1+02841+02121101111ADDGF106991031041004501031001KA1240N+02281MA1999999100091MD1999999+0041REMSYN076AAXX  23124 82392 32499 60502 10284 20212 30009 40111 83430 333 20228 58004;
0178823920999992011122400004-03700-040350FM-12+008399999V0200501N002612200019N0040001N1+02621+02211100921ADDGA1001+999999999GF100991001001999999001001KA1240M+03681MA1999999099901MD1999999-0021REMSYN082AAXX  24004 82392 32996 00505 10262 20221 39990 40092 333 10368 29074 55073 59002;
0156823920999992011122412004-03700-040350FM-12+008399999V0200901N005110450019N0500001N1+02981+02171101151ADDGF105991021021004501031001KA1240N+02301MA1999999100131MD1999999+0041REMSYN076AAXX  24124 82392 32499 50910 10298 20217 30013 40115 82230 333 20230 58004;
0178823920999992011122500004-03700-040350FM-12+008399999V0200501N005112200019N0040001N1+02701+02221100941ADDGA1001+999999999GF100991001001999999001001KA1240M+03701MA1999999099921MD1999999+0021REMSYN082AAXX  25004 82392 32996 00510 10270 20222 39992 40094 333 10370 29071 55093 58002;
0156823920999992011122512004-03700-040350FM-12+008399999V0200901N002110450019N0500001N1+02841+02121101171ADDGF107991031051004501011001KA1240N+02301MA1999999100151MD1999999+0021REMSYN076AAXX  25124 82392 32499 70904 10284 20212 30015 40117 83510 333 20230 58002;
0178823920999992011122600004-03700-040350FM-12+008399999V0200501N003112200019N0040001N1+02801+02311101021ADDGA1001+999999999GF100991001001999999001001KA1240M+03801MA1999999100001MD1999999+0081REMSYN082AAXX  26004 82392 32996 00506 10280 20231 30000 40102 333 10380 29072 55084 58008;
0175823920999992011122612004-03700-040350FM-12+008399999V0200901N004119999999N0500001N1+02881+02101101161ADDGF106991999021004501001001KA1240N+02201MA1999999100141MD1999999-0011REMSYN076AAXX  26124 82392 32499 60908 10288 20210 30014 40116 83200 333 20220 59001;EQDQ01+000032SCOTLC
0178823920999992011122700004-03700-040350FM-12+008399999V0203601N002112200019N0040001N1+02761+02211101121ADDGA1001+999999999GF100991001001999999001001KA1240M+03701MA1999999100101MD1999999+0101REMSYN082AAXX  27004 82392 32996 03604 10276 20221 30010 40112 333 10370 29069 55081 58010;
0156823920999992011122712004-03700-040350FM-12+008399999V0200501N002112200019N0500001N1+02901+02041101351ADDGF103991011011004501031001KA1240N+02401MA1999999100331MD1999999+0191REMSYN076AAXX  27124 82392 32499 30504 10290 20204 30033 40135 81130 333 20240 58019;
0178823920999992011122800004-03700-040350FM-12+008399999V0200501N003112200019N0040001N1+02701+02151101161ADDGA1001+999999999GF100991001001999999001001KA1240M+03641MA1999999100141MD1999999+0001REMSYN082AAXX  28004 82392 32996 00506 10270 20215 30014 40116 333 10364 29068 55062 58000;
0156823920999992011122812004-03700-040350FM-12+008399999V0200501N003112200019N0500001N1+02881+02031101441ADDGF104991041021004501001001KA1240N+02311MA1999999100421MD1999999+0091REMSYN076AAXX  28124 82392 32499 40506 10288 20203 30042 40144 84200 333 20231 58009;
0187823920999992011122900004-03700-040350FM-12+008399999V0200501N004112200019N0040001N1+02701+02221101221ADDGF103991999031004501001001KA1240M+03581MA1999999100201MD1999999+0061REMSYN088AAXX  29004 82392 32496 30508 10270 20222 30020 40122 80300 333 10358 29070 55084 58006;EQDQ01+000002SCOTLC
0156823920999992011122912004-03700-040350FM-12+008399999V0200501N002112200019N0500001N1+02901+02041101321ADDGF104991021011004501031001KA1240N+02301MA1999999100301MD1999999-0121REMSYN076AAXX  29124 82392 32499 40504 10290 20204 30030 40132 82130 333 20230 59012;
0178823920999992011123000004-03700-040350FM-12+008399999V0200501N005112200019N0040001N1+02681+02221101071ADDGA1001+999999999GF100991001001999999001001KA1240M+03681MA1999999100051MD1999999-0151REMSYN082AAXX  30004 82392 32996 00510 10268 20222 30005 40107 333 10368 29071 55097 59015;
0156823920999992011123012004-03700-040350FM-12+008399999V0200501N001012200019N0500001N1+02841+01961101221ADDGF104991041021004501001001KA1240N+02201MA1999999100201MD1999999-0101REMSYN076AAXX  30124 82392 32499 40502 10284 20196 30020 40122 84200 333 20220 59010;
0178823920999992011123100004-03700-040350FM-12+008399999V0200501N003112200019N0040001N1+02741+02171101001ADDGA1001+999999999GF100991001001999999001001KA1240M+03741MA1999999099981MD1999999-0071REMSYN082AAXX  31004 82392 32996 00506 10274 20217 39998 40100 333 10374 29067 55101 59007;
0175823920999992011123112004-03700-040350FM-12+008399999V0200901N004119999999N0500001N1+03001+02081101091ADDGF105991999021004501001001KA1240N+02281MA1999999100081MD1999999-0121REMSYN076AAXX  31124 82392 32499 50908 10300 20208 30008 40109 83200 333 20228 59012;EQDQ01+000032SCOTLC
0123823920999992011123118004-03700-040350FM-12+008399999V0200501N005110450019N0500001N1+03541+01971100631ADDGF105991021041004501031001MA1999999099631REMSYN070AAXX  31184 82392 32499 50510 10354 20197 39963 40063 82430 333 5////;
