0178825830999992011010100004-05167-040667FM-12+029999999V0200901N002112200019N0040001N1+02661+01921100731ADDGA1001+999999999GF100991001001999999001001KA1240M+03211MA1999999097371MD1999999+0021REMSYN082AAXX  01004 82583 32996 00904 10266 20192 39737 40073 333 10321 29063 55040 58002;
0156825830999992011010112004-05167-040667FM-12+029999999V0200901N003610075019N0500001N1+02581+02041100941ADDGF106991051021008001001011KA1240N+02241MA1999999097571MD1999999+0041REMSYN076AAXX  01124 82583 32599 60907 10258 20204 39757 40094 85201 333 20224 58004;
0137825830999992011010118004-05167-040667FM-12+029999999V0200901N001510075019N0500001N1+03201+01861100501ADDGF106991051021008001001011MA1999999097171MD1999999-0031REMSYN070AAXX  01184 82583 32599 60903 10320 20186 39717 40050 85201 333 59003;
0168825830999992011010200004-05167-040667FM-12+029999999V0201801N001512200019N0040001N1+02781+01931100701ADDGF102991021011008001001001KA1240M+03311MA1999999097351MD1999999-0021REMSYN088AAXX  02004 82583 32596 21803 10278 20193 39735 40070 82100 333 10331 29060 55090 59002;
0156825830999992011010212004-05167-040667FM-12+029999999V0200901N001510075019N0500001N1+02481+02091100881ADDGF106991061051008001999999KA1240N+02241MA1999999097521MD1999999-0051REMSYN076AAXX  02124 82583 32599 60903 10248 20209 39752 40088 865// 333 20224 59005;
0156825830999992011010218004-05167-040667FM-12+029999999V0202301N002119999999N0500001N1+03211+01951100471ADDGF105991999021008001001001MA1999999097141MD1999999-0031REMSYN070AAXX  02184 82583 32599 52304 10321 20195 39714 40047 83200 333 59003;EQDQ01+000032SCOTLC
0213825830999992011010300004-05167-040667FM-12+029999999V0203201N002610075019N0020001N1+02251+01991100831ADDAA106013091AY121061AY221061GF108991081051008001999999KA1240M+03341MA1999999097431MD1999999+0081MW1631REMSYN100AAXX  03004 82583 21595 83205 10225 20199 39743 40083 76322 885// 333 10334 29074 55079 58008 60131;
0173825830999992011010312004-05167-040667FM-12+029999999V0200901N001510120019N0500001N1+02461+02231101011ADDAA124013091GF108991081081008001999999KA1240N+02191MA1999999097611MD1999999+0091REMSYN082AAXX  03124 82583 22599 80903 10246 20223 39761 40101 888// 333 20219 58009 60134;
0137825830999992011010318004-05167-040667FM-12+029999999V0201401N003610450019N0500001N1+02831+02261100581ADDGF105991031021008001041001MA1999999097231MD1999999+0091REMSYN070AAXX  03184 82583 32599 51407 10283 20226 39723 40058 83240 333 58009;
0213825830999992011010400004-05167-040667FM-12+029999999V0203601N000512200019N0040001N1+02481+02191100751ADDAA106003091AY161061AY261061GF102991021021008001001001KA1240M+03101MA1999999097371MD1999999-0061MW1021REMSYN100AAXX  04004 82583 21596 23601 10248 20219 39737 40075 70266 82200 333 10310 29082 55054 59006 60031;
0173825830999992011010412004-05167-040667FM-12+029999999V0200501N000512200019N0500001N1+02591+02271101051ADDAA124003091GF104991041011008001001021KA1240N+02321MA1999999097671MD1999999+0061REMSYN082AAXX  04124 82583 22599 40501 10259 20227 39767 40105 84102 333 20232 58006 60034;
0137825830999992011010418004-05167-040667FM-12+029999999V0200501N001010075019N0500001N1+03241+02001100611ADDGF105991051021008001001001MA1999999097281MD1999999+0051REMSYN070AAXX  04184 82583 32599 50502 10324 20200 39728 40061 85200 333 58005;
0196825830999992011010500004-05167-040667FM-12+029999999V0202701N001512200019N0040001N1+02841+02221100761ADDAY121061AY221061GF102991021021008001001001KA1240M+03341MA1999999097411MD1999999+0041MW1131REMSYN094AAXX  05004 82583 31596 22703 10284 20222 39741 40076 71322 82200 333 10334 29067 55100 58004;
0156825830999992011010512004-05167-040667FM-12+029999999V0200901N001510075019N0500001N1+02671+02201100961ADDGF106991061021008001001001KA1240N+02381MA1999999097621MD1999999-0051REMSYN076AAXX  05124 82583 32599 60903 10267 20220 39762 40096 86200 333 20238 59005;
0137825830999992011010518004-05167-040667FM-12+029999999V0200901N003110075019N0500001N1+03181+02071100551ADDGF106991051021008001001011MA1999999097231MD1999999-0051REMSYN070AAXX  05184 82583 32599 60906 10318 20207 39723 40055 85201 333 59005;
0187825830999992011010600004-05167-040667FM-12+029999999V0200501N002119999999N0040001N1+02721+02101100741ADDGF108991999021008001001001KA1240M+03351MA1999999097391MD1999999-0021REMSYN088AAXX  06004 82583 32596 80504 10272 20210 39739 40074 83200 333 10335 29066 55074 59002;EQDQ01+000032SCOTLC
0220825830999992011010612004-05167-040667FM-12+029999999V0200901N003110450019N0500001N1+02631+02161100981ADDAA124000091AY151061AY251061GF105991041011008001021021KA1240N+02271MA1999999097621MD1999999+0001MW1031REMSYN088AAXX  06124 82583 21599 50906 10263 20216 39762 40098 70355 84122 333 20227 58000 69924;EQDQ01  00002PRCP24
0137825830999992011010618004-05167-040667FM-12+029999999V0200501N002110450019N0500001N1+03201+01891100591ADDGF105991041011008001021001MA1999999097261MD1999999+0031REMSYN070AAXX  06184 82583 32599 50504 10320 20189 39726 40059 84120 333 58003;
0178825830999992011010700004-05167-040667FM-12+029999999V0200901N003112200019N0040001N1+02751+01971100781ADDGA1001+999999999GF100991001001999999001001KA1240M+03361MA1999999097431MD1999999+0041REMSYN082AAXX  07004 82583 32996 00906 10275 20197 39743 40078 333 10336 29061 55079 58004;
0156825830999992011010712004-05167-040667FM-12+029999999V0200901N001510120019N0500001N1+02591+02191100971ADDGF108991081081008001999999KA1240N+02391MA1999999097601MD1999999-0021REMSYN076AAXX  07124 82583 32599 80903 10259 20219 39760 40097 888// 333 20239 59002;
0137825830999992011010718004-05167-040667FM-12+029999999V0201401N003110075019N0500001N1+03341+01981100531ADDGF107991061021008001001011MA1999999097211MD1999999-0051REMSYN070AAXX  07184 82583 32599 71406 10334 20198 39721 40053 86201 333 59005;
0178825830999992011010800004-05167-040667FM-12+029999999V0200501N002112200019N0040001N1+02921+01921100681ADDGA1001+999999999GF100991001001999999001001KA1240M+03351MA1999999097341MD1999999-0091REMSYN082AAXX  08004 82583 32996 00504 10292 20192 39734 40068 333 10335 29058 55055 59009;
0156825830999992011010812004-05167-040667FM-12+029999999V0200901N003110075019N0500001N1+02651+02091100911ADDGF106991051011008001031999KA1240N+02401MA1999999097571MD1999999-0031REMSYN076AAXX  08124 82583 32599 60906 10265 20209 39757 40091 8513/ 333 20240 59003;
0137825830999992011010818004-05167-040667FM-12+029999999V0203601N003110075019N0500001N1+03221+02011100611ADDGF106991051011008001021001MA1999999097291MD1999999+0081REMSYN070AAXX  08184 82583 32599 63606 10322 20201 39729 40061 85120 333 58008;
0201825830999992011010912004-05167-040667FM-12+029999999V0200501N002110120019N0500001N1+02681+02221100991ADDAA124004191AY161061AY261061GF108991081081008001999999KA1240N+02291MA1999999097631MD1999999+0061MW1021REMSYN088AAXX  09124 82583 21599 80504 10268 20222 39763 40099 70266 888// 333 20229 58006 60044;
0137825830999992011010918004-05167-040667FM-12+029999999V0200501N001510120019N0500001N1+02671+02331100631ADDGF108991081081008001999999MA1999999097261MD1999999-0031REMSYN070AAXX  09184 82583 32599 80503 10267 20233 39726 40063 888// 333 59003;
0196825830999992011011000004-05167-040667FM-12+029999999V0203601N002610120019N0040001N1+02611+02251100901ADDAY121061AY221061GF106991061081008001001001KA1240M+03021MA1999999097541MD1999999-0061MW1131REMSYN094AAXX  10004 82583 31596 63605 10261 20225 39754 40090 71322 86800 333 10302 29079 55032 59006;
0201825830999992011011012004-05167-040667FM-12+029999999V0200901N001010075019N0500001N1+02221+02151101141ADDAA124045091AY161061AY261061GF108991081051008001999999KA1240N+01971MA1999999097751MD1999999+0121MW1021REMSYN088AAXX  10124 82583 21599 80902 10222 20215 39775 40114 70266 885// 333 20197 58012 60454;
0182825830999992011011018004-05167-040667FM-12+029999999V0200901N003610075019N0010001N1+02371+02281100901ADDAA106006191AY161061AY261061GF108991081051008001999999MA1999999097481MD1999999+0221MW1631REMSYN082AAXX  10184 82583 21594 80907 10237 20228 39748 40090 76366 885// 333 58022 60061;
0223825830999992011011100004-05167-040667FM-12+029999999V0203601N000512200019N0040001N1+02231+02191101111ADDAA106010991AY161061AY261061GA1001+999999999GF100991001001999999001001KA1240M+02621MA1999999097681MD1999999+0141MW1031REMSYN094AAXX  11004 82583 21596 03601 10223 20219 39768 40111 70366 333 10262 29096 55000 58014 60111;
0173825830999992011011112004-05167-040667FM-12+029999999V0201401N000510450019N0500001N1+02361+02241101131ADDAA124016091GF106991031051008001031001KA1240N+02171MA1999999097821MD1999999-0031REMSYN082AAXX  11124 82583 22599 61401 10236 20224 39782 40113 83530 333 20217 59003 60164;
0137825830999992011011118004-05167-040667FM-12+029999999V0200501N001510075019N0500001N1+03051+02191100751ADDGF106991051021008001031001MA1999999097391MD1999999-0091REMSYN070AAXX  11184 82583 32599 60503 10305 20219 39739 40075 85230 333 59009;
0168825830999992011011200004-05167-040667FM-12+029999999V0200501N001012200019N0040001N1+02661+02241100951ADDGF102991021021008001001001KA1240M+03131MA1999999097571MD1999999-0111REMSYN088AAXX  12004 82583 32596 20502 10266 20224 39757 40095 82200 333 10313 29077 55070 59011;
0156825830999992011011212004-05167-040667FM-12+029999999V0200901N001010450019N0500001N1+02591+02271101151ADDGF105991041011008001021021KA1240N+02181MA1999999097781MD1999999+0061REMSYN076AAXX  12124 82583 32599 50902 10259 20227 39778 40115 84122 333 20218 58006;
0137825830999992011011218004-05167-040667FM-12+029999999V0200501N003612200019N0500001N1+03091+02261100781ADDGF104991031021008001021001MA1999999097431MD1999999+0041REMSYN070AAXX  12184 82583 32599 40507 10309 20226 39743 40078 83220 333 58004;
0168825830999992011011300004-05167-040667FM-12+029999999V0200901N000512200019N0040001N1+02441+02231100991ADDGF103991021011008001031001KA1240M+03171MA1999999097611MD1999999+0041REMSYN088AAXX  13004 82583 32596 30901 10244 20223 39761 40099 82130 333 10317 29080 55069 58004;
0175825830999992011011312004-05167-040667FM-12+029999999V0200901N003610075019N0500001N1+02671+02311101081ADDGF107991999021008001001001KA1240N+02291MA1999999097701MD1999999-0081REMSYN076AAXX  13124 82583 32599 70907 10267 20231 39770 40108 86200 333 20229 59008;EQDQ01+000062SCOTLC
0137825830999992011011318004-05167-040667FM-12+029999999V0200901N002110075019N0500001N1+03121+02141100671ADDGF106991051021008001011001MA1999999097331MD1999999-0101REMSYN070AAXX  13184 82583 32599 60904 10312 20214 39733 40067 85210 333 59010;
0178825830999992011011400004-05167-040667FM-12+029999999V0200501N002112200019N0040001N1+02591+02121100861ADDGA1001+999999999GF100991001001999999001001KA1240M+03171MA1999999097501MD1999999-0111REMSYN082AAXX  14004 82583 32996 00504 10259 20212 39750 40086 333 10317 29072 55088 59011;
0156825830999992011011412004-05167-040667FM-12+029999999V0200901N002110120019N0500001N1+02561+02251100991ADDGF108991081081008001999999KA1240N+02241MA1999999097621MD1999999-0081REMSYN076AAXX  14124 82583 32599 80904 10256 20225 39762 40099 888// 333 20224 59008;
0137825830999992011011418004-05167-040667FM-12+029999999V0200501N001510450019N0500001N1+03031+02061100591ADDGF106991031011008001021001MA1999999097251MD1999999-0081REMSYN070AAXX  14184 82583 32599 60503 10303 20206 39725 40059 83120 333 59008;
0168825830999992011011500004-05167-040667FM-12+029999999V0200501N001010075019N0040001N1+02551+02131100791ADDGF105991051001008001021001KA1240M+03111MA1999999097431MD1999999-0071REMSYN088AAXX  15004 82583 32596 50502 10255 20213 39743 40079 85020 333 10311 29073 55063 59007;
0156825830999992011011512004-05167-040667FM-12+029999999V0200901N003612200019N0500001N1+02521+02061101021ADDGF103991021011008001031001KA1240N+02101MA1999999097641MD1999999+0021REMSYN076AAXX  15124 82583 32599 30907 10252 20206 39764 40102 82130 333 20210 58002;
0137825830999992011011518004-05167-040667FM-12+029999999V0201401N002112200019N0500001N1+03061+02221100631ADDGF104991031011008001021021MA1999999097291MD1999999+0041REMSYN070AAXX  15184 82583 32599 41404 10306 20222 39729 40063 83122 333 58004;
0168825830999992011011600004-05167-040667FM-12+029999999V0203601N001012200019N0040001N1+02811+02271100721ADDGF103991031001017501001021KA1240M+03191MA1999999097371MD1999999-0061REMSYN088AAXX  16004 82583 32796 33602 10281 20227 39737 40072 83002 333 10319 29070 55107 59006;
0156825830999992011011612004-05167-040667FM-12+029999999V0200901N003110075019N0500001N1+02361+02201101061ADDGF108991081051008001999999KA1240N+02171MA1999999097691MD1999999+0051REMSYN076AAXX  16124 82583 32599 80906 10236 20220 39769 40106 885// 333 20217 58005;
0137825830999992011011618004-05167-040667FM-12+029999999V0201401N002112200019N0500001N1+03051+02271100641ADDGF104991041011008001001001MA1999999097301MD1999999+0011REMSYN070AAXX  16184 82583 32599 41404 10305 20227 39730 40064 84100 333 58001;
0168825830999992011011700004-05167-040667FM-12+029999999V0200501N004110075019N0040001N1+02671+02181100931ADDGF108991081051008001999999KA1240M+03241MA1999999097561MD1999999+0191REMSYN088AAXX  17004 82583 32596 80508 10267 20218 39756 40093 885// 333 10324 29076 55060 58019;
0156825830999992011011712004-05167-040667FM-12+029999999V0200901N004610120019N0500001N1+02641+02251101081ADDGF107991061081008001041011KA1240N+02251MA1999999097721MD1999999+0031REMSYN076AAXX  17124 82583 32599 70909 10264 20225 39772 40108 86841 333 20225 58003;
0137825830999992011011718004-05167-040667FM-12+029999999V0201401N004110450019N0500001N1+03031+02181100711ADDGF106991021021008001031011MA1999999097361MD1999999+0061REMSYN070AAXX  17184 82583 32599 61408 10303 20218 39736 40071 82231 333 58006;
0168825830999992011011800004-05167-040667FM-12+029999999V0203601N003110075019N0040001N1+02671+02181100881ADDGF108991081071008001999999KA1240M+03121MA1999999097521MD1999999-0041REMSYN088AAXX  18004 82583 32596 83606 10267 20218 39752 40088 887// 333 10312 29072 55045 59004;
0156825830999992011011812004-05167-040667FM-12+029999999V0200901N002610075019N0500001N1+02591+02271101081ADDGF106991051011008001031001KA1240N+02351MA1999999097721MD1999999+0001REMSYN076AAXX  18124 82583 32599 60905 10259 20227 39772 40108 85130 333 20235 58000;
0137825830999992011011818004-05167-040667FM-12+029999999V0201401N003110075019N0500001N1+02881+02181100761ADDGF106991051011008001031011MA1999999097401MD1999999+0041REMSYN070AAXX  18184 82583 32599 61406 10288 20218 39740 40076 85131 333 58004;
0168825830999992011011900004-05167-040667FM-12+029999999V0203601N003110075019N0040001N1+02551+02191100951ADDGF107991071051008001999999KA1240M+03001MA1999999097571MD1999999+0051REMSYN088AAXX  19004 82583 32596 73606 10255 20219 39757 40095 875// 333 10300 29077 55019 58005;
0156825830999992011011912004-05167-040667FM-12+029999999V0200901N001010120019N0500001N1+02541+02311100871ADDGF108991071081008001051999KA1240N+02281MA1999999097511MD1999999-0211REMSYN076AAXX  19124 82583 32599 80902 10254 20231 39751 40087 8785/ 333 20228 59021;
0137825830999992011011918004-05167-040667FM-12+029999999V0201401N002112200019N0500001N1+03091+02201100461ADDGF103991031021008001001001MA1999999097121MD1999999-0281REMSYN070AAXX  19184 82583 32599 31404 10309 20220 39712 40046 83200 333 59028;
0168825830999992011012000004-05167-040667FM-12+029999999V0200501N001010075019N0040001N1+02461+02151100841ADDGF108991081091008001999999KA1240M+03201MA1999999097471MD1999999-0101REMSYN088AAXX  20004 82583 32596 80502 10246 20215 39747 40084 889// 333 10320 29078 55070 59010;
0201825830999992011012012004-05167-040667FM-12+029999999V0201801N001510075019N0500001N1+02341+02221100921ADDAA124007191AY161061AY261061GF108991081071008001999999KA1240N+02151MA1999999097531MD1999999+0021MW1021REMSYN088AAXX  20124 82583 21599 81803 10234 20222 39753 40092 70266 887// 333 20215 58002 60074;
0156825830999992011012018004-05167-040667FM-12+029999999V0200501N001510075019N0500001N1+02871+02231100581ADDGF106991999021008001001001MA1999999097721MD1999999+0101REMSYN070AAXX  20184 82583 32599 60503 10287 20223 39772 40058 85200 333 58010;EQDQ01+000052SCOTLC
0213825830999992011012100004-05167-040667FM-12+029999999V0202701N001010075019N0040001N1+02181+02101100931ADDAA106008991AY161061AY261061GF108991081071008001999999KA1240M+02931MA1999999097521MD1999999+0061MW1501REMSYN100AAXX  21004 82583 21596 82702 10218 20210 39752 40093 75066 887// 333 10293 29088 55020 58006 60091;
0201825830999992011012112004-05167-040667FM-12+029999999V0201801N002110120019N0500001N1+02341+02241100871ADDAA124009991AY161061AY251061GF108991081081008001999999KA1240N+02111MA1999999097461MD1999999-0071MW1021REMSYN088AAXX  21124 82583 21599 81804 10234 20224 39746 40087 70265 888// 333 20211 59007 60104;
0137825830999992011012118004-05167-040667FM-12+029999999V0200501N001010450019N0500001N1+02791+02291100561ADDGF108991041021008001021011MA1999999097191MD1999999-0031REMSYN070AAXX  21184 82583 32599 80502 10279 20229 39719 40056 84221 333 59003;
0168825830999992011012200004-05167-040667FM-12+029999999V0201401N003110120019N0040001N1+02161+02011100811ADDGF108991081081008001999999KA1240M+02861MA1999999097411MD1999999-0111REMSYN088AAXX  22004 82583 32596 81406 10216 20201 39741 40081 888// 333 10286 29088 55023 59011;
0201825830999992011012212004-05167-040667FM-12+029999999V0200901N002610075019N0500001N1+02311+02181100991ADDAA124014091AY161061AY261061GF108991081071008001999999KA1240N+02061MA1999999097581MD1999999+0121MW1021REMSYN088AAXX  22124 82583 21599 80905 10231 20218 39758 40099 70266 887// 333 20206 58012 60144;
0182825830999992011012218004-05167-040667FM-12+029999999V0200901N001510075019N0500001N1+02761+02341100691ADDAA106000021AY121061AY251061GF108991081071008001999999MA1999999097311MD1999999+0121MW1501REMSYN082AAXX  22184 82583 21599 80903 10276 20234 39731 40069 75025 887// 333 58012 69921;
0213825830999992011012300004-05167-040667FM-12+029999999V0202701N001010075019N0040001N1+02301+02221100961ADDAA106011991AY161061AY261061GF106991061051008001999999KA1240M+02821MA1999999097561MD1999999+0151MW1031REMSYN100AAXX  23004 82583 21596 62702 10230 20222 39756 40096 70366 865// 333 10282 29090 55013 58015 60121;
0173825830999992011012312004-05167-040667FM-12+029999999V0201401N002110120019N0500001N1+02401+02261101081ADDAA124011991GF108991081081008001999999KA1240N+02231MA1999999097681MD1999999+0101REMSYN082AAXX  23124 82583 22599 81404 10240 20226 39768 40108 888// 333 20223 58010 60124;
0201825830999992011012318004-05167-040667FM-12+029999999V0203201N002110075019N0500001N1+02931+02261100661ADDAA106000091AY161061AY261061GF106991061051008001001001MA1999999097301MD1999999-0011MW1021REMSYN082AAXX  23184 82583 21599 63204 10293 20226 39730 40066 70266 86500 333 59001 69921;EQDQ01  00002PRCP06
0232825830999992011012400004-05167-040667FM-12+029999999V0201801N001510075019N0040001N1+02331+02241100851ADDAA106000091AY151061AY251061GF106991061051008001001001KA1240M+02981MA1999999097451MD1999999+0001MW1021REMSYN100AAXX  24004 82583 21596 61803 10233 20224 39745 40085 70255 86500 333 10298 29087 55029 58000 69911;EQDQ01  00002PRCP06
0201825830999992011012412004-05167-040667FM-12+029999999V0209999C000010120019N0500001N1+02331+02261101051ADDAA124018091AY161061AY261061GF108991081081008001999999KA1240N+02201MA1999999097651MD1999999-0031MW1021REMSYN088AAXX  24124 82583 21599 83200 10233 20226 39765 40105 70266 888// 333 20220 59003 60184;
0182825830999992011012418004-05167-040667FM-12+029999999V0201401N002610075019N0500001N1+02351+02191100791ADDAA106003091AY161061AY261061GF108991081051008001999999MA1999999097391MD1999999+0091MW1021REMSYN082AAXX  24184 82583 21599 81405 10235 20219 39739 40079 70266 885// 333 58009 60031;
0213825830999992011012500004-05167-040667FM-12+029999999V0203601N002610075019N0040001N1+02251+02211101061ADDAA106001091AY161061AY261061GF108991081051008001999999KA1240M+02551MA1999999097661MD1999999+0211MW1601REMSYN100AAXX  25004 82583 21596 83605 10225 20221 39766 40106 76066 885// 333 10255 29094 55000 58021 60011;
0220825830999992011012512004-05167-040667FM-12+029999999V0200901N001510075019N0500001N1+02331+02261101121ADDAA124009991AY161061AY261061GF108991999071008001031999KA1240N+02131MA1999999097711MD1999999+0061MW1021REMSYN088AAXX  25124 82583 21599 80903 10233 20226 39771 40112 70266 8873/ 333 20213 58006 60104;EQDQ01+000082SCOTLC
0156825830999992011012518004-05167-040667FM-12+029999999V0200501N005719999999N0040001N1+02521+02151100871ADDGF108991999021008001001001MA1999999097471MD1999999+0081REMSYN070AAXX  25184 82583 32596 80511 10252 20215 39747 40087 83200 333 58008;EQDQ01+000032SCOTLC
0213825830999992011012600004-05167-040667FM-12+029999999V0201401N002110075019N0010001N1+02181+02111101201ADDAA106004191AY121061AY221061GF108991081051008001999999KA1240M+02841MA1999999097781MD1999999+0121MW1611REMSYN100AAXX  26004 82583 21594 81404 10218 20211 39778 40120 76122 885// 333 10284 29092 55019 58012 60041;
0201825830999992011012612004-05167-040667FM-12+029999999V0202301N000510075019N0500001N1+02371+02221101231ADDAA124007191AY161061AY261061GF106991061011008001031011KA1240N+02121MA1999999097821MD1999999+0111MW1031REMSYN088AAXX  26124 82583 21599 62301 10237 20222 39782 40123 70366 86131 333 20212 58011 60074;
0137825830999992011012618004-05167-040667FM-12+029999999V0201401N001510450019N0500001N1+02951+02181100831ADDGF105991041011008001031021MA1999999097461MD1999999-0011REMSYN070AAXX  26184 82583 32599 51403 10295 20218 39746 40083 84132 333 59001;
0168825830999992011012700004-05167-040667FM-12+029999999V0203601N000512200019N0040001N1+02551+02351101051ADDGF101991011011008001001001KA1240M+03051MA1999999097671MD1999999-0111REMSYN088AAXX  27004 82583 32596 13601 10255 20235 39767 40105 81100 333 10305 29082 55064 59011;
0156825830999992011012712004-05167-040667FM-12+029999999V0200501N004110120019N0500001N1+02531+02191101101ADDGF106991061081008001001001KA1240N+02191MA1999999097721MD1999999-0101REMSYN076AAXX  27124 82583 32599 60508 10253 20219 39772 40110 86800 333 20219 59010;
0137825830999992011012718004-05167-040667FM-12+029999999V0201401N002612200019N0500001N1+03051+02251100681ADDGF103991021021008001001011MA1999999097331MD1999999-0131REMSYN070AAXX  27184 82583 32599 31405 10305 20225 39733 40068 82201 333 59013;
0168825830999992011012800004-05167-040667FM-12+029999999V0200901N001012200019N0040001N1+02631+02251100801ADDGF101991011011008001001001KA1240M+03131MA1999999097441MD1999999-0231REMSYN088AAXX  28004 82583 32596 10902 10263 20225 39744 40080 81100 333 10313 29075 55100 59023;
0201825830999992011012812004-05167-040667FM-12+029999999V0201801N000510075019N0500001N1+02131+02111101241ADDAA124022191AY161061AY261061GF107991071051008001999999KA1240N+02041MA1999999097841MD1999999+0121MW1031REMSYN088AAXX  28124 82583 21599 71801 10213 20211 39784 40124 70366 875// 333 20204 58012 60224;
0182825830999992011012818004-05167-040667FM-12+029999999V0201401N002110075019N0500001N1+02621+02331100841ADDAA106002091AY121061AY261061GF106991051021008001021021MA1999999097471MD1999999+0141MW1031REMSYN082AAXX  28184 82583 21599 61404 10262 20233 39747 40084 70326 85222 333 58014 60021;
0168825830999992011012900004-05167-040667FM-12+029999999V0203601N001512200019N0040001N1+02431+02301101151ADDGF103991031011008001001001KA1240M+02711MA1999999097741MD1999999+0301REMSYN088AAXX  29004 82583 32596 33603 10243 20230 39774 40115 83100 333 10271 29092 55008 58030;
0173825830999992011012912004-05167-040667FM-12+029999999V0200901N001510120019N0500001N1+02571+02271101341ADDAA124002091GF108991081081008001999999KA1240N+02161MA1999999097951MD1999999+0111REMSYN082AAXX  29124 82583 22599 80903 10257 20227 39795 40134 888// 333 20216 58011 60024;
0137825830999992011012918004-05167-040667FM-12+029999999V0201401N002610075019N0500001N1+03021+02291100931ADDGF105991051021008001001001MA1999999097561MD1999999+0091REMSYN070AAXX  29184 82583 32599 51405 10302 20229 39756 40093 85200 333 58009;
0178825830999992011013000004-05167-040667FM-12+029999999V0203601N003612200019N0040001N1+02421+02151101261ADDGA1001+999999999GF100991001001999999001001KA1240M+03091MA1999999097871MD1999999-0131REMSYN082AAXX  30004 82583 32996 03607 10242 20215 39787 40126 333 10309 29080 55093 59013;
0156825830999992011013012004-05167-040667FM-12+029999999V0200901N002110075019N0500001N1+02491+02251101461ADDGF107991071051008001999999KA1240N+02201MA1999999098061MD1999999+0111REMSYN076AAXX  30124 82583 32599 70904 10249 20225 39806 40146 875// 333 20220 58011;
0182825830999992011013018004-05167-040667FM-12+029999999V0201801N004110075019N0500001N1+02821+02361100971ADDAA106000391AY151061AY251061GF106991051011008001031021MA1999999097591MD1999999+0031MW1031REMSYN082AAXX  30184 82583 21599 61808 10282 20236 39759 40097 70355 85132 333 58003 69931;
0178825830999992011013100004-05167-040667FM-12+029999999V0203601N002112200019N0040001N1+02491+02361101181ADDGA1001+999999999GF100991001001999999001001KA1240M+02981MA1999999097801MD1999999-0071REMSYN082AAXX  31004 82583 32996 03604 10249 20236 39780 40118 333 10298 29086 55066 59007;
0173825830999992011013112004-05167-040667FM-12+029999999V0200501N005110075019N0500001N1+02521+02191101261ADDAA124000391GF108991061051008001021001KA1240N+02271MA1999999097901MD1999999-0161REMSYN082AAXX  31124 82583 22599 80510 10252 20219 39790 40126 86520 333 20227 59016 69934;
0137825830999992011013118004-05167-040667FM-12+029999999V0200901N003110075019N0500001N1+02951+02281100821ADDGF106991051021008001001011MA1999999097461MD1999999-0131REMSYN070AAXX  31184 82583 32599 60906 10295 20228 39746 40082 85201 333 59013;
0168825830999992011020100004-05167-040667FM-12+029999999V0203201N000512200019N0040001N1+02451+02231101101ADDGF102991021011008001001001KA1240M+03071MA1999999097721MD1999999-0081REMSYN088AAXX  01004 82583 32596 23201 10245 20223 39772 40110 82100 333 10307 29081 55073 59008;
0156825830999992011020112004-05167-040667FM-12+029999999V0201401N003110075019N0500001N1+02451+02301100851ADDGF106991051011008001021001KA1240N+02201MA1999999097471MD1999999+0071REMSYN076AAXX  01124 82583 32599 61406 10245 20230 39747 40085 85120 333 20220 58007;
0137825830999992011020118004-05167-040667FM-12+029999999V0200901N005110450019N0500001N1+02811+02201100921ADDGF105991041011008001021061MA1999999097551MD1999999+0091REMSYN070AAXX  01184 82583 32599 50910 10281 20220 39755 40092 84126 333 58009;
0168825830999992011020200004-05167-040667FM-12+029999999V0200901N001012200019N0040001N1+02521+02211101141ADDGF101991011011008001001001KA1240M+02951MA1999999097761MD1999999+0041REMSYN088AAXX  02004 82583 32596 10902 10252 20221 39776 40114 81100 333 10295 29082 55052 58004;
0156825830999992011020212004-05167-040667FM-12+029999999V0203201N001510120019N0500001N1+02511+02231101331ADDGF107991061081008001041011KA1240N+02171MA1999999097941MD1999999-0031REMSYN076AAXX  02124 82583 32599 73203 10251 20223 39794 40133 86841 333 20217 59003;
0165825830999992011020218004-05167-040667FM-12+029999999V0202301N003110120019N0040001N1+02641+02161100931ADDAY121061AY221061GF107991061081008001041011MA1999999097541MD1999999-0011MW1171REMSYN076AAXX  02184 82583 31596 72306 10264 20216 39754 40093 71722 86841 333 59001;
0168825830999992011020300004-05167-040667FM-12+029999999V0209999C000012200019N0040001N1+02381+02221101111ADDGF102991021021008001001001KA1240M+03091MA1999999097731MD1999999-0031REMSYN088AAXX  03004 82583 32596 21400 10238 20222 39773 40111 82200 333 10309 29085 55058 59003;
0156825830999992011020312004-05167-040667FM-12+029999999V0200901N002110075019N0500001N1+02631+02331101171ADDGF105991051021008001001001KA1240N+02251MA1999999097791MD1999999-0151REMSYN076AAXX  03124 82583 32599 50904 10263 20233 39779 40117 85200 333 20225 59015;
0182825830999992011020318004-05167-040667FM-12+029999999V0200901N003610075019N0500001N1+02471+02171100801ADDAA106000591AY121061AY291061GF106991051051008001031001MA1999999097421MD1999999-0121MW1601REMSYN082AAXX  03184 82583 21599 60907 10247 20217 39742 40080 76029 85530 333 59012 69941;
0213825830999992011020400004-05167-040667FM-12+029999999V0203201N001010075019N0040001N1+02411+02281101051ADDAA106002091AY161061AY261061GF106991061051008001001001KA1240M+03121MA1999999097671MD1999999-0061MW1031REMSYN100AAXX  04004 82583 21596 63202 10241 20228 39767 40105 70366 86500 333 10312 29088 55056 59006 60021;
0173825830999992011020412004-05167-040667FM-12+029999999V0200901N003112200019N0500001N1+02591+02271101031ADDAA124002091GF103991031011008001001001KA1240N+02221MA1999999097651MD1999999-0141REMSYN082AAXX  04124 82583 22599 30906 10259 20227 39765 40103 83100 333 20222 59014 60024;
0182825830999992011020418004-05167-040667FM-12+029999999V0201401N003110450019N0500001N1+02911+02391100691ADDAA106000891AY161061AY261061GF106991041021008001031041MA1999999097331MD1999999-0091MW1031REMSYN082AAXX  04184 82583 21599 61406 10291 20239 39733 40069 70366 84234 333 59009 69971;
0168825830999992011020500004-05167-040667FM-12+029999999V0202701N001512200019N0040001N1+02451+02271100831ADDGF101991011011008001001001KA1240M+02961MA1999999097461MD1999999-0211REMSYN088AAXX  05004 82583 32596 12703 10245 20227 39746 40083 81100 333 10296 29083 55047 59021;
0173825830999992011020512004-05167-040667FM-12+029999999V0200901N002610075019N0500001N1+02511+02251101041ADDAA124001091GF105991051011008001001001KA1240N+02281MA1999999097661MD1999999+0011REMSYN082AAXX  05124 82583 22599 50905 10251 20225 39766 40104 85100 333 20228 58001 60014;
0137825830999992011020518004-05167-040667FM-12+029999999V0201401N003612200019N0500001N1+03041+02181100661ADDGF104991031021008001021021MA1999999097321MD1999999-0011REMSYN070AAXX  05184 82583 32599 41407 10304 20218 39732 40066 83222 333 59001;
0168825830999992011020600004-05167-040667FM-12+029999999V0202701N000512200019N0040001N1+02571+02271100871ADDGF101991011011008001001001KA1240M+03121MA1999999097511MD1999999+0051REMSYN088AAXX  06004 82583 32596 12701 10257 20227 39751 40087 81100 333 10312 29078 55070 58005;
0156825830999992011020612004-05167-040667FM-12+029999999V0200901N006212200019N0500001N1+02621+02051101061ADDGF104991041011008001001001KA1240N+02161MA1999999097691MD1999999+0031REMSYN076AAXX  06124 82583 32599 40912 10262 20205 39769 40106 84100 333 20216 58003;
0137825830999992011020618004-05167-040667FM-12+029999999V0200901N002110075019N0500001N1+03051+02111100751ADDGF106991061021008001001001MA1999999097391MD1999999+0071REMSYN070AAXX  06184 82583 32599 60904 10305 20211 39739 40075 86200 333 58007;
0168825830999992011020700004-05167-040667FM-12+029999999V0200901N001012200019N0040001N1+02531+02211100881ADDGF102991021021008001001001KA1240M+03101MA1999999097521MD1999999+0011REMSYN088AAXX  07004 82583 32596 20902 10253 20221 39752 40088 82200 333 10310 29073 55081 58001;
0156825830999992011020712004-05167-040667FM-12+029999999V0201401N001510120019N0500001N1+02591+02231101191ADDGF107991071081008001001001KA1240N+02151MA1999999097811MD1999999+0121REMSYN076AAXX  07124 82583 32599 71403 10259 20223 39781 40119 87800 333 20215 58012;
0137825830999992011020718004-05167-040667FM-12+029999999V0201401N002112200019N0500001N1+03161+02141100751ADDGF104991031021008001001011MA1999999097391MD1999999+0001REMSYN070AAXX  07184 82583 32599 41404 10316 20214 39739 40075 83201 333 58000;
0232825830999992011020800004-05167-040667FM-12+029999999V0200501N001012200019N0040001N1+02651+02201101021ADDAA106000091AY161061AY261061GF102991021021008001001001KA1240M+03241MA1999999097651MD1999999+0031MW1011REMSYN100AAXX  08004 82583 21596 20502 10265 20220 39765 40102 70166 82200 333 10324 29072 55094 58003 69921;EQDQ01  00002PRCP06
0192825830999992011020812004-05167-040667FM-12+029999999V0200901N003110450019N0500001N1+02641+02181101191ADDAA124000091GF106991031011008001031001KA1240N+02271MA1999999097831MD1999999+0021REMSYN082AAXX  08124 82583 22599 60906 10264 20218 39783 40119 83130 333 20227 58002 69924;EQDQ01  00002PRCP24
0137825830999992011020818004-05167-040667FM-12+029999999V0201401N002610450019N0500001N1+03121+02111100851ADDGF106991031021008001031001MA1999999097501MD1999999+0111REMSYN070AAXX  08184 82583 32599 61405 10312 20211 39750 40085 83230 333 58011;
0168825830999992011020900004-05167-040667FM-12+029999999V0200901N001012200019N0040001N1+02511+02191100981ADDGF101991011011008001001001KA1240M+03181MA1999999097611MD1999999-0041REMSYN088AAXX  09004 82583 32596 10902 10251 20219 39761 40098 81100 333 10318 29074 55104 59004;
0156825830999992011020912004-05167-040667FM-12+029999999V0200901N002610075019N0500001N1+02531+02151101171ADDGF106991051011008001031001KA1240N+02181MA1999999097791MD1999999-0041REMSYN076AAXX  09124 82583 32599 60905 10253 20215 39779 40117 85130 333 20218 59004;
0156825830999992011021112004-05167-040667FM-12+029999999V0200901N002110075019N0500001N1+02501+02231101131ADDGF106991051011008001031021KA1240N+02211MA1999999097751MD1999999+0091REMSYN076AAXX  11124 82583 32599 60904 10250 20223 39775 40113 85132 333 20221 58009;
0182825830999992011021118004-05167-040667FM-12+029999999V0201401N001510450019N0500001N1+02971+02371100781ADDAA106001091AY161061AY261061GF105991041021008001031011MA1999999097421MD1999999+0091MW1031REMSYN082AAXX  11184 82583 21599 51403 10297 20237 39742 40078 70366 84231 333 58009 60011;
0213825830999992011021200004-05167-040667FM-12+029999999V0202701N000510075019N0040001N1+02461+02361101091ADDAA106002091AY161061AY261061GF108991081051008001999999KA1240M+03091MA1999999097711MD1999999+0111MW1021REMSYN100AAXX  12004 82583 21596 82701 10246 20236 39771 40109 70266 885// 333 10309 29086 55027 58011 60021;
0173825830999992011021212004-05167-040667FM-12+029999999V0200901N003112200019N0500001N1+02651+02291101181ADDAA124004191GF105991041011008001001011KA1240N+02301MA1999999097801MD1999999+0051REMSYN082AAXX  12124 82583 22599 50906 10265 20229 39780 40118 84101 333 20230 58005 60044;
0137825830999992011021218004-05167-040667FM-12+029999999V0200901N003610075019N0500001N1+03131+02211100721ADDGF106991051021008001001011MA1999999097371MD1999999-0051REMSYN070AAXX  12184 82583 32599 60907 10313 20221 39737 40072 85201 333 59005;
0213825830999992011021300004-05167-040667FM-12+029999999V0202701N001010075019N0040001N1+02371+02241101091ADDAA106000591AY161061AY261061GF108991081051008001999999KA1240M+03261MA1999999097711MD1999999+0001MW1021REMSYN100AAXX  13004 82583 21596 82702 10237 20224 39771 40109 70266 885// 333 10326 29080 55085 58000 69951;
0137825830999992011021318004-05167-040667FM-12+029999999V0201401N002110450019N0500001N1+03131+02301100721ADDGF105991041051008001031021MA1999999093731MD1999999+0001REMSYN070AAXX  13184 82583 32599 51404 10313 20230 39373 40072 84532 333 58000;
0232825830999992011021400004-05167-040667FM-12+029999999V0203601N002610075019N0040001N1+02481+02301101141ADDAA106020191AY161061AY261061GF108991061051008001999999KA1240M+03211MA1999999097762MD1999999+0051MW1021REMSYN100AAXX  14004 82583 21596 83605 10248 20230 39776 40114 70266 865// 333 10321 29082 55062 58005 60201;EQDQ01+097763APOSP 
0173825830999992011021412004-05167-040667FM-12+029999999V0200901N002610120019N0500001N1+02471+02341101161ADDAA124020191GF108991071081008001051999KA1240N+02231MA1999999097781MD1999999-0071REMSYN082AAXX  14124 82583 22599 80905 10247 20234 39778 40116 8785/ 333 20223 59007 60204;
0137825830999992011021418004-05167-040667FM-12+029999999V0201401N004110075019N0500001N1+02971+02231100741ADDGF106991051021008001001011MA1999999097381MD1999999+0011REMSYN070AAXX  14184 82583 32599 61408 10297 20223 39738 40074 85201 333 58001;
0168825830999992011021500004-05167-040667FM-12+029999999V0200901N002610120019N0040001N1+02551+02191101011ADDGF108991081081008001999999KA1240M+03061MA1999999097631MD1999999-0131REMSYN088AAXX  15004 82583 32596 80905 10255 20219 39763 40101 888// 333 10306 29079 55042 59013;
0156825830999992011021512004-05167-040667FM-12+029999999V0200901N001510075019N0500001N1+02511+02311101061ADDGF107991061051008001061999KA1240N+02261MA1999999097681MD1999999-0101REMSYN076AAXX  15124 82583 32599 70903 10251 20231 39768 40106 8656/ 333 20226 59010;
0137825830999992011021518004-05167-040667FM-12+029999999V0200901N003110075019N0500001N1+02981+02121100721ADDGF106991061021008001001011MA1999999097361MD1999999-0021REMSYN070AAXX  15184 82583 32599 60906 10298 20212 39736 40072 86201 333 59002;
0168825830999992011021600004-05167-040667FM-12+029999999V0203201N001510075019N0040001N1+02531+02231101021ADDGF108991081051008001999999KA1240M+03101MA1999999097641MD1999999+0011REMSYN088AAXX  16004 82583 32596 83203 10253 20223 39764 40102 885// 333 10310 29078 55029 58001;
0156825830999992011021612004-05167-040667FM-12+029999999V0200901N001510075019N0500001N1+02311+02201101231ADDGF108991081051008001999999KA1240N+02271MA1999999097831MD1999999+0151REMSYN076AAXX  16124 82583 32599 80903 10231 20220 39783 40123 885// 333 20227 58015;
0137825830999992011021618004-05167-040667FM-12+029999999V0200901N002610120019N0500001N1+02831+02121100851ADDGF108991061081008001021999MA1999999097491MD1999999+0131REMSYN070AAXX  16184 82583 32599 80905 10283 20212 39749 40085 8682/ 333 58013;
0168825830999992011021700004-05167-040667FM-12+029999999V0202701N001510075019N0040001N1+02491+02211101071ADDGF108991081051008001999999KA1240M+02911MA1999999097681MD1999999+0041REMSYN088AAXX  17004 82583 32596 82703 10249 20221 39768 40107 885// 333 10291 29082 55001 58004;
0156825830999992011021712004-05167-040667FM-12+029999999V0200501N001510075019N0500001N1+02531+02231101221ADDGF108991081051008001999999KA1240N+02251MA1999999097891MD1999999+0061REMSYN076AAXX  17124 82583 32599 80503 10253 20223 39789 40122 885// 333 20225 58006;
0137825830999992011021718004-05167-040667FM-12+029999999V0200901N001510075019N0500001N1+02941+02161100951ADDGF106991051011008001031011MA1999999097581MD1999999-0091REMSYN070AAXX  17184 82583 32599 60903 10294 20216 39758 40095 85131 333 59009;
0168825830999992011021800004-05167-040667FM-12+029999999V0201801N001510450019N0040001N1+02411+02211101101ADDGF105991041011008001031011KA1240M+03051MA1999999097721MD1999999+0041REMSYN088AAXX  18004 82583 32596 51803 10241 20221 39772 40110 84131 333 10305 29080 55047 58004;
0156825830999992011021812004-05167-040667FM-12+029999999V0201401N003112200019N0500001N1+02521+02171101121ADDGF106991041021008001001011KA1240N+02231MA1999999097741MD1999999-0151REMSYN076AAXX  18124 82583 32599 61406 10252 20217 39774 40112 84201 333 20223 59015;
0137825830999992011021818004-05167-040667FM-12+029999999V0201401N003110075019N0500001N1+02851+02141100681ADDGF106991061021008001001001MA1999999097351MD1999999-0271REMSYN070AAXX  18184 82583 32599 61406 10285 20214 39735 40068 86200 333 59027;
0168825830999992011021900004-05167-040667FM-12+029999999V0200501N002112200019N0040001N1+02551+02151100861ADDGF104991041051008001001001KA1240M+03071MA1999999097501MD1999999-0221REMSYN088AAXX  19004 82583 32596 40504 10255 20215 39750 40086 84500 333 10307 29076 55088 59022;
0156825830999992011021912004-05167-040667FM-12+029999999V0200901N001510075019N0500001N1+02501+02271101101ADDGF106991051021008001031011KA1240N+02201MA1999999097721MD1999999-0021REMSYN076AAXX  19124 82583 32599 60903 10250 20227 39772 40110 85231 333 20220 59002;
0137825830999992011021918004-05167-040667FM-12+029999999V0203201N002610075019N0500001N1+03021+02261100721ADDGF106991061051008001001001MA1999999097361MD1999999+0051REMSYN070AAXX  19184 82583 32599 63205 10302 20226 39736 40072 86500 333 58005;
0213825830999992011022000004-05167-040667FM-12+029999999V0202701N001510120019N0040001N1+02241+02191101101ADDAA106035191AY161061AY261061GF108991081081008001999999KA1240M+03061MA1999999097711MD1999999+0211MW1021REMSYN100AAXX  20004 82583 21596 82703 10224 20219 39771 40110 70266 888// 333 10306 29086 55043 58021 60351;
0192825830999992011022012004-05167-040667FM-12+029999999V0200901N002119999999N0500001N1+02391+02281101201ADDAA124035191GF106991999081008001999999KA1240N+02131MA1999999097791MD1999999+0071REMSYN082AAXX  20124 82583 22599 60904 10239 20228 39779 40120 888// 333 20213 58007 60354;EQDQ01+000082SCOTLC
0137825830999992011022018004-05167-040667FM-12+029999999V0203201N002110075019N0500001N1+02971+02301100691ADDGF106991061051008001001001MA1999999097331MD1999999-0031REMSYN070AAXX  20184 82583 32599 63204 10297 20230 39733 40069 86500 333 59003;
0213825830999992011022100004-05167-040667FM-12+029999999V0203601N000510120019N0040001N1+02311+02271101241ADDAA106002091AY161061AY261061GF108991081081008001999999KA1240M+03041MA1999999097841MD1999999+0131MW1021REMSYN100AAXX  21004 82583 21596 83601 10231 20227 39784 40124 70266 888// 333 10304 29088 55046 58013 60021;
0173825830999992011022112004-05167-040667FM-12+029999999V0200901N003110075019N0500001N1+02491+02341101341ADDAA124002091GF106991061051008001001001KA1240N+02171MA1999999097941MD1999999+0151REMSYN082AAXX  21124 82583 22599 60906 10249 20234 39794 40134 86500 333 20217 58015 60024;
0137825830999992011022118004-05167-040667FM-12+029999999V0200901N003112200019N0500001N1+02931+02241100921ADDGF104991031021008001021001MA1999999097561MD1999999+0231REMSYN070AAXX  21184 82583 32599 40906 10293 20224 39756 40092 83220 333 58023;
0232825830999992011022200004-05167-040667FM-12+029999999V0200901N002112200019N0040001N1+02421+02191101241ADDAA106000091AY121061AY251061GF102991021011008001001001KA1240M+03251MA1999999097851MD1999999+0011MW1031REMSYN100AAXX  22004 82583 21596 20904 10242 20219 39785 40124 70325 82100 333 10325 29083 55001 58001 69921;EQDQ01  00002PRCP06
0192825830999992011022212004-05167-040667FM-12+029999999V0200901N003612200019N0500001N1+02611+02291101171ADDAA124000091GF104991041011008001001001KA1240N+02161MA1999999097791MD1999999-0151REMSYN082AAXX  22124 82583 22599 40907 10261 20229 39779 40117 84100 333 20216 59015 69924;EQDQ01  00002PRCP24
0137825830999992011022218004-05167-040667FM-12+029999999V0200901N002110075019N0500001N1+03051+02191100821ADDGF106991061021008001001001MA1999999097461MD1999999-0101REMSYN070AAXX  22184 82583 32599 60904 10305 20219 39746 40082 86200 333 59010;
0168825830999992011022300004-05167-040667FM-12+029999999V0201401N001012200019N0040001N1+02631+02271100931ADDGF102991011011008001001011KA1240M+03161MA1999999097561MD1999999-0291REMSYN088AAXX  23004 82583 32596 21402 10263 20227 39756 40093 81101 333 10316 29076 55098 59029;
0156825830999992011022312004-05167-040667FM-12+029999999V0200901N002610450019N0500001N1+02651+02181101021ADDGF105991041011008001021021KA1240N+02251MA1999999097661MD1999999-0131REMSYN076AAXX  23124 82583 32599 50905 10265 20218 39766 40102 84122 333 20225 59013;
0137825830999992011022318004-05167-040667FM-12+029999999V0201801N003610075019N0500001N1+03081+02201100611ADDGF106991051021008001021021MA1999999097271MD1999999-0191REMSYN070AAXX  23184 82583 32599 61807 10308 20220 39727 40061 85222 333 59019;
0213825830999992011022400004-05167-040667FM-12+029999999V0203601N001512200019N0040001N1+02411+02321100871ADDAA106000891AY161061AY261061GF103991031051008001001001KA1240M+03221MA1999999097511MD1999999-0051MW1031REMSYN100AAXX  24004 82583 21596 33603 10241 20232 39751 40087 70366 83500 333 10322 29080 55076 59005 69981;
0173825830999992011022412004-05167-040667FM-12+029999999V0200901N002110120019N0500001N1+02531+02331100951ADDAA124000891GF108991071081008001041999KA1240N+02241MA1999999097571MD1999999-0091REMSYN082AAXX  24124 82583 22599 80904 10253 20233 39757 40095 8784/ 333 20224 59009 69984;
0137825830999992011022418004-05167-040667FM-12+029999999V0200901N002111050019N0500001N1+03141+02241100551ADDGF106991031021008001001021MA1999999097211MD1999999-0061REMSYN070AAXX  24184 82583 32599 60904 10314 20224 39721 40055 83202 333 59006;
0213825830999992011022500004-05167-040667FM-12+029999999V0203201N001510120019N0040001N1+02411+02221100891ADDAA106003091AY161061AY261061GF108991081081008001999999KA1240M+03211MA1999999097511MD1999999+0001MW1031REMSYN100AAXX  25004 82583 21596 83203 10241 20222 39751 40089 70366 888// 333 10321 29081 55076 58000 60031;
0173825830999992011022512004-05167-040667FM-12+029999999V0201801N000510075019N0500001N1+02411+02351101231ADDAA124003091GF107991071051008001999999KA1240N+02211MA1999999097831MD1999999+0261REMSYN082AAXX  25124 82583 22599 71801 10241 20235 39783 40123 875// 333 20221 58026 60034;
0137825830999992011022518004-05167-040667FM-12+029999999V0201801N001010075019N0500001N1+03081+02271100731ADDGF107991061021008001021999MA1999999097301MD1999999+0161REMSYN070AAXX  25184 82583 32599 71802 10308 20227 39730 40073 8622/ 333 58016;
0213825830999992011022600004-05167-040667FM-12+029999999V0203201N001510075019N0040001N1+02211+02191101171ADDAA106015091AY161061AY261061GF105991051051008001001001KA1240M+03131MA1999999097761MD1999999+0251MW1021REMSYN100AAXX  26004 82583 21596 53203 10221 20219 39776 40117 70266 85500 333 10313 29089 55041 58025 60151;
0173825830999992011022612004-05167-040667FM-12+029999999V0202301N000510075019N0500001N1+02391+02301101141ADDAA124015091GF106991051011008001061001KA1240N+02181MA1999999097731MD1999999-0101REMSYN082AAXX  26124 82583 22599 62301 10239 20230 39773 40114 85160 333 20218 59010 60154;
0137825830999992011022618004-05167-040667FM-12+029999999V0201401N003610075019N0500001N1+02421+02171100751ADDGF107991071051008001999999MA1999999097351MD1999999-0021REMSYN070AAXX  26184 82583 32599 71407 10242 20217 39735 40075 875// 333 59002;
0213825830999992011022700004-05167-040667FM-12+029999999V0201801N000510120019N0040001N1+02321+02271101111ADDAA106007991AY161061AY261061GF108991081081008001999999KA1240M+03061MA1999999097711MD1999999-0051MW1601REMSYN100AAXX  27004 82583 21596 81801 10232 20227 39771 40111 76066 888// 333 10306 29094 55054 59005 60081;
0201825830999992011022712004-05167-040667FM-12+029999999V0200501N001510075019N0500001N1+02421+02281101011ADDAA124008991AY161061AY261061GF107991071051008001999999KA1240N+02211MA1999999097611MD1999999-0121MW1021REMSYN088AAXX  27124 82583 21599 70503 10242 20228 39761 40101 70266 875// 333 20221 59012 60094;
0137825830999992011022718004-05167-040667FM-12+029999999V0201801N001510075019N0500001N1+02891+02201100641ADDGF106991051051008001021021MA1999999097281MD1999999-0071REMSYN070AAXX  27184 82583 32599 61803 10289 20220 39728 40064 85522 333 59007;
0168825830999992011022800004-05167-040667FM-12+029999999V0203201N001512200019N0040001N1+02401+02171100931ADDGF104991041051008001001001KA1240M+02961MA1999999097541MD1999999-0171REMSYN088AAXX  28004 82583 32596 43203 10240 20217 39754 40093 84500 333 10296 29083 55035 59017;
0201825830999992011022812004-05167-040667FM-12+029999999V0203601N001010075019N0500001N1+02231+02211101151ADDAA124022191AY161061AY261061GF108991081051008001999999KA1240N+02031MA1999999097741MD1999999+0131MW1031REMSYN088AAXX  28124 82583 21599 83602 10223 20221 39774 40115 70366 885// 333 20203 58013 60224;
0213825830999992011030100004-05167-040667FM-12+029999999V0209999C000010075019N0040001N1+02171+02151101031ADDAA106002091AY151061AY251061GF108991081071008001999999KA1240M+02611MA1999999097611MD1999999+0071MW1021REMSYN100AAXX  01004 82583 21596 83600 10217 20215 39761 40103 70255 887// 333 10261 29097 55000 58007 60021;
0201825830999992011030112004-05167-040667FM-12+029999999V0200501N001510075019N0500001N1+02391+02211101201ADDAA124003091AY151061AY251061GF106991051051008001031011KA1240N+02141MA1999999097791MD1999999+0051MW1031REMSYN088AAXX  01124 82583 21599 60503 10239 20221 39779 40120 70355 85531 333 20214 58005 60034;
0137825830999992011030118004-05167-040667FM-12+029999999V0203201N002610450019N0100001N1+02691+02221100711ADDGF105991041021008001041011MA1999999097331MD1999999-0041REMSYN070AAXX  01184 82583 32597 53205 10269 20222 39733 40071 84241 333 59004;
0213825830999992011030200004-05167-040667FM-12+029999999V0200901N001010075019N0020001N1+02211+02171101101ADDAA106016091AY161061AY261061GF108991081051008001999999KA1240M+02481MA1999999097691MD1999999+0081MW1631REMSYN100AAXX  02004 82583 21595 80902 10221 20217 39769 40110 76366 885// 333 10248 29090 55032 58008 60161;
0201825830999992011030212004-05167-040667FM-12+029999999V0200901N000510120019N0500001N1+02311+02221101051ADDAA124019191AY161061AY251061GF108991081081008001999999KA1240N+02151MA1999999097641MD1999999-0151MW1021REMSYN088AAXX  02124 82583 21599 80901 10231 20222 39764 40105 70265 888// 333 20215 59015 60194;
0137825830999992011030218004-05167-040667FM-12+029999999V0200901N000510450019N0500001N1+02971+02301100661ADDGF106991041021008001041001MA1999999097301MD1999999-0031REMSYN070AAXX  02184 82583 32599 60901 10297 20230 39730 40066 84240 333 59003;
0213825830999992011030300004-05167-040667FM-12+029999999V0201401N001512200019N0040001N1+02391+02311100891ADDAA106019191AY191061AY261061GF102991021021008001001001KA1240M+03051MA1999999097491MD1999999-0201MW1011REMSYN100AAXX  03004 82583 21596 21403 10239 20231 39749 40089 70196 82200 333 10305 29088 55050 59020 60191;
0201825830999992011030312004-05167-040667FM-12+029999999V0200901N001510075019N0500001N1+02461+02361101131ADDAA124019191AY121061AY251061GF107991071051008001999999KA1240N+02291MA1999999097711MD1999999+0101MW1031REMSYN088AAXX  03124 82583 21599 70903 10246 20236 39771 40113 70325 875// 333 20229 58010 60194;
0137825830999992011030318004-05167-040667FM-12+029999999V0201401N002110075019N0500001N1+02501+02341100811ADDGF106991051051008001061001MA1999999097431MD1999999+0131REMSYN070AAXX  03184 82583 32599 61404 10250 20234 39743 40081 85560 333 58013;
0213825830999992011030400004-05167-040667FM-12+029999999V0203201N001010075019N0040001N1+02311+02241101011ADDAA106002091AY161061AY261061GF108991081051008001999999KA1240M+02951MA1999999097621MD1999999+0131MW1601REMSYN100AAXX  04004 82583 21596 83202 10231 20224 39762 40101 76066 885// 333 10295 29094 55021 58013 60021;
0201825830999992011030412004-05167-040667FM-12+029999999V0200901N001510120019N0500001N1+02491+02291101001ADDAA124002091AY151061AY221061GF108991081081008001999999KA1240N+02171MA1999999097611MD1999999-0131MW1031REMSYN088AAXX  04124 82583 21599 80903 10249 20229 39761 40100 70352 888// 333 20217 59013 60024;
0137825830999992011030418004-05167-040667FM-12+029999999V0200901N002112200019N0500001N1+03081+02161100611ADDGF104991041021008001001001MA1999999097271MD1999999-0161REMSYN070AAXX  04184 82583 32599 40904 10308 20216 39727 40061 84200 333 59016;
0168825830999992011030500004-05167-040667FM-12+029999999V0203201N001512200019N0040001N1+02471+02191100981ADDGF103991031051008001001001KA1240M+03141MA1999999097591MD1999999-0031REMSYN088AAXX  05004 82583 32596 33203 10247 20219 39759 40098 83500 333 10314 29078 55083 59003;
0156825830999992011030512004-05167-040667FM-12+029999999V0200501N002110075019N0500001N1+02451+02281101131ADDGF107991071051008001999999KA1240N+02251MA1999999097751MD1999999+0141REMSYN076AAXX  05124 82583 32599 70504 10245 20228 39775 40113 875// 333 20225 58014;
0182825830999992011030518004-05167-040667FM-12+029999999V0203601N001510450019N0500001N1+02771+02361100761ADDAA106001091AY161061AY261061GF105991041011008001041021MA1999999097401MD1999999+0131MW1151REMSYN082AAXX  05184 82583 21599 53603 10277 20236 39740 40076 71566 84142 333 58013 60011;
0168825830999992011030600004-05167-040667FM-12+029999999V0201801N001012200019N0040001N1+02441+02391100981ADDGF104991041051008001001001KA1240M+02901MA1999999097601MD1999999+0011REMSYN088AAXX  06004 82583 32596 41802 10244 20239 39760 40098 84500 333 10290 29089 55011 58001;
0173825830999992011030612004-05167-040667FM-12+029999999V0201401N001010075019N0500001N1+02501+02291100991ADDAA124002091GF106991061051008001001001KA1240N+02251MA1999999097611MD1999999-0141REMSYN082AAXX  06124 82583 22599 61402 10250 20229 39761 40099 86500 333 20225 59014 60024;
0137825830999992011030618004-05167-040667FM-12+029999999V0200901N002110075019N0500001N1+03031+02231100621ADDGF105991051021008001001001MA1999999097271MD1999999-0131REMSYN070AAXX  06184 82583 32599 50904 10303 20223 39727 40062 85200 333 59013;
0168825830999992011030700004-05167-040667FM-12+029999999V0200501N002112200019N0040001N1+02541+02211100841ADDGF104991041051008001001001KA1240M+03081MA1999999097471MD1999999-0131REMSYN088AAXX  07004 82583 32596 40504 10254 20221 39747 40084 84500 333 10308 29078 55089 59013;
0156825830999992011030712004-05167-040667FM-12+029999999V0200901N003110075019N0500001N1+02631+02331101011ADDGF105991051021008001001001KA1240N+02231MA1999999097641MD1999999+0031REMSYN076AAXX  07124 82583 32599 50906 10263 20233 39764 40101 85200 333 20223 58003;
0137825830999992011030718004-05167-040667FM-12+029999999V0200901N003610075019N0500001N1+03071+02211100611ADDGF105991051021008001001001MA1999999097271MD1999999+0001REMSYN070AAXX  07184 82583 32599 50907 10307 20221 39727 40061 85200 333 58000;
0168825830999992011030800004-05167-040667FM-12+029999999V0203601N002112200019N0040001N1+02471+02271100851ADDGF102991021011008001001001KA1240M+03131MA1999999097491MD1999999+0021REMSYN088AAXX  08004 82583 32596 23604 10247 20227 39749 40085 82100 333 10313 29080 55101 58002;
0156825830999992011030812004-05167-040667FM-12+029999999V0201801N022612200019N0500001N1+02511+02331101191ADDGF106991021021008001001011KA1240N+02161MA1999999097811MD1999999+0171REMSYN076AAXX  08124 82583 32599 61844 10251 20233 39781 40119 82201 333 20216 58017;
0182825830999992011030818004-05167-040667FM-12+029999999V0200901N008710075019N0020001N1+02501+02231100831ADDAA106011991AY121061AY221061GF108991081051008001999999MA1999999097431MD1999999-0061MW1951REMSYN082AAXX  08184 82583 21595 80917 10250 20223 39743 40083 79522 885// 333 59006 60121;
0213825830999992011030900004-05167-040667FM-12+029999999V0203601N000510120019N0020001N1+02151+02131101121ADDAA106038191AY191061AY291061GF108991081081008001999999KA1240M+03021MA1999999097721MD1999999+0231MW1631REMSYN100AAXX  09004 82583 21595 83601 10215 20213 39772 40112 76399 888// 333 10302 29092 55047 58023 60381;
0168825830999992011031000004-05167-040667FM-12+029999999V0203601N001012200019N0040001N1+02441+02211100901ADDGF104991041051008001001001KA1240M+02891MA1999999097511MD1999999-0211REMSYN088AAXX  10004 82583 32596 43602 10244 20221 39751 40090 84500 333 10289 29086 55032 59021;
0156825830999992011031012004-05167-040667FM-12+029999999V0200901N001510120019N0500001N1+02531+02361101061ADDGF108991081081008001999999KA1240N+02231MA1999999097681MD1999999-0141REMSYN076AAXX  10124 82583 32599 80903 10253 20236 39768 40106 888// 333 20223 59014;
0182825830999992011031018004-05167-040667FM-12+029999999V0203201N001510120019N0100001N1+02611+02271100711ADDAA106005191AY161061AY261061GF107991061081008001001011MA1999999097331MD1999999-0021MW1631REMSYN082AAXX  10184 82583 21597 73203 10261 20227 39733 40071 76366 86801 333 59002 60051;
0213825830999992011031100004-05167-040667FM-12+029999999V0203201N000510075019N0040001N1+02411+02331100951ADDAA106000021AY161061AY261061GF106991061051008001001001KA1240M+03051MA1999999097571MD1999999+0061MW1021REMSYN100AAXX  11004 82583 21596 63201 10241 20233 39757 40095 70266 86500 333 10305 29090 55066 58006 69911;
0173825830999992011031112004-05167-040667FM-12+029999999V0200901N001010075019N0500001N1+02481+02291101141ADDAA124000021GF106991061051008001001001KA1240N+02191MA1999999097751MD1999999+0071REMSYN082AAXX  11124 82583 22599 60902 10248 20229 39775 40114 86500 333 20219 58007 69914;
0182825830999992011031118004-05167-040667FM-12+029999999V0203601N002610075019N0500001N1+02521+02251100781ADDAA106002091AY161061AY261061GF106991051051008001021001MA1999999097401MD1999999+0071MW1291REMSYN082AAXX  11184 82583 21599 63605 10252 20225 39740 40078 72966 85520 333 58007 60021;
0232825830999992011031200004-05167-040667FM-12+029999999V0202301N001012200019N0040001N1+02301+02251101071ADDAA106000091AY151061AY251061GF104991041051008001001001KA1240M+03001MA1999999097681MD1999999+0111MW1031REMSYN100AAXX  12004 82583 21596 42302 10230 20225 39768 40107 70355 84500 333 10300 29092 55043 58011 69911;EQDQ01  00002PRCP06
0192825830999992011031212004-05167-040667FM-12+029999999V0200901N003110075019N0500001N1+02601+02291101051ADDAA124000091GF105991051011008001001011KA1240N+02181MA1999999097671MD1999999-0081REMSYN082AAXX  12124 82583 22599 50906 10260 20229 39767 40105 85101 333 20218 59008 69914;EQDQ01  00002PRCP24
0137825830999992011031218004-05167-040667FM-12+029999999V0200901N001010075019N0500001N1+02941+02291100641ADDGF106991051011008001021011MA1999999097281MD1999999-0121REMSYN070AAXX  12184 82583 32599 60902 10294 20229 39728 40064 85121 333 59012;
0168825830999992011031300004-05167-040667FM-12+029999999V0203601N002110075019N0040001N1+02471+02231101001ADDGF105991051011008001001001KA1240M+03021MA1999999097621MD1999999-0061REMSYN088AAXX  13004 82583 32596 53604 10247 20223 39762 40100 85100 333 10302 29081 55096 59006;
0156825830999992011031312004-05167-040667FM-12+029999999V0203601N001510075019N0500001N1+02611+02271101111ADDGF106991051011008001051021KA1240N+02281MA1999999097731MD1999999+0061REMSYN076AAXX  13124 82583 32599 63603 10261 20227 39773 40111 85152 333 20228 58006;
0137825830999992011031318004-05167-040667FM-12+029999999V0200501N001012200019N0500001N1+03041+02201100641ADDGF104991031011008001021011MA1999999097301MD1999999+0021REMSYN070AAXX  13184 82583 32599 40502 10304 20220 39730 40064 83121 333 58002;
0232825830999992011031400004-05167-040667FM-12+029999999V0202701N003110075019N0040001N1+02341+02271101101ADDAA106000091AY151061AY251061GF108991081071008001999999KA1240M+03161MA1999999097721MD1999999+0101MW1021REMSYN100AAXX  14004 82583 21596 82706 10234 20227 39772 40110 70255 887// 333 10316 29083 55095 58010 69921;EQDQ01  00002PRCP06
0201825830999992011031412004-05167-040667FM-12+029999999V0203201N003610075019N0500001N1+02491+02191101271ADDAA124000591AY121061AY251061GF106991061011008001001001KA1240N+02221MA1999999097871MD1999999+0141MW1031REMSYN088AAXX  14124 82583 21599 63207 10249 20219 39787 40127 70325 86100 333 20222 58014 69964;
0137825830999992011031418004-05167-040667FM-12+029999999V0203201N003110450019N0500001N1+02931+02261100801ADDGF105991041021008001021021MA1999999097441MD1999999+0141REMSYN070AAXX  14184 82583 32599 53206 10293 20226 39744 40080 84222 333 58014;
0168825830999992011031500004-05167-040667FM-12+029999999V0200901N000512200019N0040001N1+02481+02321101111ADDGF104991041011008001001001KA1240M+02991MA1999999097731MD1999999+0011REMSYN088AAXX  15004 82583 32596 40901 10248 20232 39773 40111 84100 333 10299 29083 55072 58001;
0156825830999992011031512004-05167-040667FM-12+029999999V0203601N001010075019N0500001N1+02371+02241101331ADDGF108991081051008001999999KA1240N+02201MA1999999097931MD1999999+0061REMSYN076AAXX  15124 82583 32599 83602 10237 20224 39793 40133 885// 333 20220 58006;
0182825830999992011031518004-05167-040667FM-12+029999999V0201801N002110075019N0500001N1+02391+02231101081ADDAA106013091AY161061AY261061GF108991081051008001999999MA1999999097671MD1999999+0231MW1631REMSYN082AAXX  15184 82583 21599 81804 10239 20223 39767 40108 76366 885// 333 58023 60131;
0213825830999992011031600004-05167-040667FM-12+029999999V0202701N001010075019N0040001N1+02261+02211101241ADDAA106004191AY161061AY261061GF108991081051008001999999KA1240M+02991MA1999999097831MD1999999+0101MW1021REMSYN100AAXX  16004 82583 21596 82702 10226 20221 39783 40124 70266 885// 333 10299 29094 55026 58010 60041;
0173825830999992011031612004-05167-040667FM-12+029999999V0200901N003110075019N0500001N1+02571+02211101371ADDAA124017091GF106991061021008001001001KA1240N+02171MA1999999097971MD1999999+0041REMSYN082AAXX  16124 82583 22599 60906 10257 20221 39797 40137 86200 333 20217 58004 60174;
0137825830999992011031618004-05167-040667FM-12+029999999V0201401N004612200019N0500001N1+02931+02161100891ADDGF102991021021008001001001MA1999999097531MD1999999-0141REMSYN070AAXX  16184 82583 32599 21409 10293 20216 39753 40089 82200 333 59014;
0168825830999992011031700004-05167-040667FM-12+029999999V0203201N001511050019N0040001N1+02391+02261101181ADDGF105991011011008001001021KA1240M+02971MA1999999097801MD1999999-0031REMSYN088AAXX  17004 82583 32596 53203 10239 20226 39780 40118 81102 333 10297 29082 55099 59003;
0156825830999992011031712004-05167-040667FM-12+029999999V0200901N001510075019N0500001N1+02591+02371101261ADDGF106991051021008001021011KA1240N+02241MA1999999097871MD1999999-0101REMSYN076AAXX  17124 82583 32599 60903 10259 20237 39787 40126 85221 333 20224 59010;
0168825830999992011031800004-05167-040667FM-12+029999999V0203601N001012200019N0040001N1+02591+02251101091ADDGF102991021011008001001001KA1240M+03151MA1999999097721MD1999999-0081REMSYN088AAXX  18004 82583 32596 23602 10259 20225 39772 40109 82100 333 10315 29079 55081 59008;
0156825830999992011031812004-05167-040667FM-12+029999999V0200901N001510075019N0500001N1+02531+02331101271ADDGF106991061021008001001001KA1240N+02211MA1999999097881MD1999999+0011REMSYN076AAXX  18124 82583 32599 60903 10253 20233 39788 40127 86200 333 20221 58001;
0137825830999992011031818004-05167-040667FM-12+029999999V0202301N001012200019N0500001N1+03071+02241100751ADDGF104991041021008001001001MA1999999097401MD1999999-0011REMSYN070AAXX  18184 82583 32599 42302 10307 20224 39740 40075 84200 333 59001;
0168825830999992011031900004-05167-040667FM-12+029999999V0203201N002610075019N0040001N1+02331+02131101171ADDGF105991051051008001001001KA1240M+03201MA1999999097781MD1999999+0021REMSYN088AAXX  19004 82583 32596 53205 10233 20213 39778 40117 85500 333 10320 29081 55096 58002;
0156825830999992011031912004-05167-040667FM-12+029999999V0200901N002110075019N0500001N1+02331+02201101221ADDGF107991071051008001999999KA1240N+02131MA1999999097821MD1999999-0061REMSYN076AAXX  19124 82583 32599 70904 10233 20220 39782 40122 875// 333 20213 59006;
0137825830999992011031918004-05167-040667FM-12+029999999V0201401N002612200019N0500001N1+03011+02211100761ADDGF104991041011008001001001MA1999999097401MD1999999+0001REMSYN070AAXX  19184 82583 32599 41405 10301 20221 39740 40076 84100 333 58000;
0168825830999992011032000004-05167-040667FM-12+029999999V0200901N001512200019N0040001N1+02581+02291100871ADDGF103991021011008001041001KA1240M+03081MA1999999097491MD1999999-0291REMSYN088AAXX  20004 82583 32596 30903 10258 20229 39749 40087 82140 333 10308 29080 55081 59029;
0175825830999992011032012004-05167-040667FM-12+029999999V0200901N001512200019N0500001N1+02601+02331101091ADDGF104991999011008001001001KA1240N+02251MA1999999097721MD1999999-0101REMSYN076AAXX  20124 82583 32599 40903 10260 20233 39772 40109 85100 333 20225 59010;EQDQ01+000052SCOTLC
0137825830999992011032018004-05167-040667FM-12+029999999V0201401N002612200019N0500001N1+03041+02381100671ADDGF104991041021008001001001MA1999999097321MD1999999-0081REMSYN070AAXX  20184 82583 32599 41405 10304 20238 39732 40067 84200 333 59008;
0168825830999992011032100004-05167-040667FM-12+029999999V0203601N001012200019N0040001N1+02561+02251100821ADDGF101991011011008001001001KA1240M+03121MA1999999097961MD1999999-0031REMSYN088AAXX  21004 82583 32596 13602 10256 20225 39796 40082 81100 333 10312 29080 55010 59003;
0156825830999992011032112004-05167-040667FM-12+029999999V0200901N002112200019N0500001N1+02601+02291101011ADDGF104991041011008001001011KA1240N+02231MA1999999097641MD1999999-0081REMSYN076AAXX  21124 82583 32599 40904 10260 20229 39764 40101 84101 333 20223 59008;
0137825830999992011032118004-05167-040667FM-12+029999999V0201401N003112200019N0500001N1+02971+02351100581ADDGF103991021021008001001011MA1999999097241MD1999999-0081REMSYN070AAXX  21184 82583 32599 31406 10297 20235 39724 40058 82201 333 59008;
0168825830999992011032200004-05167-040667FM-12+029999999V0203601N001512200019N0040001N1+02491+02211100981ADDGF104991041021008001001001KA1240M+03101MA1999999097601MD1999999+0141REMSYN088AAXX  22004 82583 32596 43603 10249 20221 39760 40098 84200 333 10310 29080 55069 58014;
0156825830999992011032212004-05167-040667FM-12+029999999V0200901N001510120019N0500001N1+02561+02271101001ADDGF108991081081008001999999KA1240N+02201MA1999999097621MD1999999-0021REMSYN076AAXX  22124 82583 32599 80903 10256 20227 39762 40100 888// 333 20220 59002;
0137825830999992011032218004-05167-040667FM-12+029999999V0200901N004112200019N0500001N1+03091+02291100581ADDGF103991021021008001001011MA1999999097241MD1999999+0001REMSYN070AAXX  22184 82583 32599 30908 10309 20229 39724 40058 82201 333 58000;
0168825830999992011032300004-05167-040667FM-12+029999999V0209999C000012200019N0040001N1+02421+02251100901ADDGF103991031011008001031001KA1240M+03101MA1999999097531MD1999999-0071REMSYN088AAXX  23004 82583 32596 32700 10242 20225 39753 40090 83130 333 10310 29082 55081 59007;
0156825830999992011032312004-05167-040667FM-12+029999999V0200901N003110075019N0100001N1+02551+02251101171ADDGF105991051011008001001011KA1240N+02171MA1999999097791MD1999999+0171REMSYN076AAXX  23124 82583 32597 50906 10255 20225 39779 40117 85101 333 20217 58017;
0137825830999992011032318004-05167-040667FM-12+029999999V0200901N003612200019N0500001N1+03071+02131100751ADDGF102991021011008001001001MA1999999097391MD1999999+0151REMSYN070AAXX  23184 82583 32599 20907 10307 20213 39739 40075 82100 333 58015;
0168825830999992011032400004-05167-040667FM-12+029999999V0209999C000012200019N0040001N1+02601+02311100991ADDGF101991011011008001001001KA1240M+03131MA1999999097621MD1999999+0091REMSYN088AAXX  24004 82583 32596 11800 10260 20231 39762 40099 81100 333 10313 29077 55097 58009;
0156825830999992011032412004-05167-040667FM-12+029999999V0203601N001512200019N0500001N1+02551+02311101271ADDGF104991041011008001001001KA1240N+02261MA1999999097891MD1999999+0101REMSYN076AAXX  24124 82583 32599 43603 10255 20231 39789 40127 84100 333 20226 58010;
0156825830999992011032418004-05167-040667FM-12+029999999V0201401N001010075019N0500001N1+03131+02271100791ADDGF106991999021008001001001MA1999999097441MD1999999+0051REMSYN070AAXX  24184 82583 32599 61402 10313 20227 39744 40079 85200 333 58005;EQDQ01+000052SCOTLC
0213825830999992011032500004-05167-040667FM-12+029999999V0203601N002110075019N0040001N1+02321+02201101171ADDAA106001091AY161061AY261061GF108991081051008001999999KA1240M+03191MA1999999097781MD1999999+0161MW1021REMSYN100AAXX  25004 82583 21596 83604 10232 20220 39778 40117 70266 885// 333 10319 29083 55067 58016 60011;
0173825830999992011032512004-05167-040667FM-12+029999999V0200901N004610075019N0500001N1+02561+02351101221ADDAA124001091GF106991051011008001031021KA1240N+02231MA1999999097831MD1999999-0061REMSYN082AAXX  25124 82583 22599 60909 10256 20235 39783 40122 85132 333 20223 59006 60014;
0137825830999992011032518004-05167-040667FM-12+029999999V0200901N003610075019N0500001N1+03041+02261100761ADDGF106991061011008001001001MA1999999097401MD1999999-0041REMSYN070AAXX  25184 82583 32599 60907 10304 20226 39740 40076 86100 333 59004;
0168825830999992011032600004-05167-040667FM-12+029999999V0203201N001512200019N0040001N1+02491+02171101061ADDGF104991041011008001001001KA1240M+03091MA1999999097681MD1999999-0101REMSYN088AAXX  26004 82583 32596 43203 10249 20217 39768 40106 84100 333 10309 29079 55047 59010;
0156825830999992011032612004-05167-040667FM-12+029999999V0200901N002110075019N0500001N1+02511+02251101061ADDGF107991071051008001999999KA1240N+02211MA1999999097681MD1999999-0151REMSYN076AAXX  26124 82583 32599 70904 10251 20225 39768 40106 875// 333 20221 59015;
0137825830999992011032618004-05167-040667FM-12+029999999V0200901N003112200019N0500001N1+03091+02201100661ADDGF104991031011008001011011MA1999999097321MD1999999-0081REMSYN070AAXX  26184 82583 32599 40906 10309 20220 39732 40066 83111 333 59008;
0168825830999992011032700004-05167-040667FM-12+029999999V0200501N003112200019N0040001N1+02531+02191101031ADDGF101991011011008001001001KA1240M+03131MA1999999097651MD1999999-0031REMSYN088AAXX  27004 82583 32596 10506 10253 20219 39765 40103 81100 333 10313 29076 55070 59003;
0156825830999992011032712004-05167-040667FM-12+029999999V0201401N003110075019N0500001N1+02551+02351101161ADDGF106991061021008001001001KA1240N+02191MA1999999097781MD1999999+0101REMSYN076AAXX  27124 82583 32599 61406 10255 20235 39778 40116 86200 333 20219 58010;
0182825830999992011032718004-05167-040667FM-12+029999999V0200901N002610120019N0100001N1+02351+02171100751ADDAA106005191AY121061AY221061GF108991081081008001999999MA1999999097781MD1999999+0061MW1631REMSYN082AAXX  27184 82583 21597 80905 10235 20217 39778 40075 76322 888// 333 58006 60051;
0213825830999992011032800004-05167-040667FM-12+029999999V0203201N001010075019N0040001N1+02351+02221101101ADDAA106009991AY161061AY261061GF108991081051008001999999KA1240M+03131MA1999999097721MD1999999+0071MW1021REMSYN100AAXX  28004 82583 21596 83202 10235 20222 39772 40110 70266 885// 333 10313 29092 55042 58007 60101;
0173825830999992011032812004-05167-040667FM-12+029999999V0201401N002110075019N0500001N1+02521+02381101291ADDAA124015091GF106991051021008001001011KA1240N+02191MA1999999097891MD1999999+0111REMSYN082AAXX  28124 82583 22599 61404 10252 20238 39789 40129 85201 333 20219 58011 60154;
0182825830999992011032818004-05167-040667FM-12+029999999V0200901N003110120019N0500001N1+03071+02321100901ADDAA106000891AY161061AY261061GF107991061081008001001011MA1999999097541MD1999999+0161MW1031REMSYN082AAXX  28184 82583 21599 70906 10307 20232 39754 40090 70366 86801 333 58016 69981;
0173825830999992011032912004-05167-040667FM-12+029999999V0200901N002110075019N0500001N1+02521+02361101341ADDAA124020191GF106991061051008001999999KA1240N+02211MA1999999097941MD1999999+0051REMSYN082AAXX  29124 82583 22599 60904 10252 20236 39794 40134 865// 333 20221 58005 60204;
0137825830999992011032918004-05167-040667FM-12+029999999V0200901N004112200019N0500001N1+03031+02231100851ADDGF102991021021008001001001MA1999999097491MD1999999-0051REMSYN070AAXX  29184 82583 32599 20908 10303 20223 39749 40085 82200 333 59005;
0156825830999992011033012004-05167-040667FM-12+029999999V0200901N002112200019N0500001N1+02501+02361101221ADDGF103991021011008001001011KA1240N+02151MA1999999097831MD1999999-0111REMSYN076AAXX  30124 82583 32599 30904 10250 20236 39783 40122 82101 333 20215 59011;
0137825830999992011033018004-05167-040667FM-12+029999999V0200901N003612200019N0500001N1+03071+02131100801ADDGF103991031021008001001001MA1999999097741MD1999999-0051REMSYN070AAXX  30184 82583 32599 30907 10307 20213 39774 40080 83200 333 59005;
0168825830999992011033100004-05167-040667FM-12+029999999V0203601N001512200019N0040001N1+02461+02251101151ADDGF101991011011008001001001KA1240M+03121MA1999999097771MD1999999-0041REMSYN088AAXX  31004 82583 32596 13603 10246 20225 39777 40115 81100 333 10312 29081 55092 59004;
0156825830999992011033112004-05167-040667FM-12+029999999V0200901N002110075019N0500001N1+02591+02311101221ADDGF106991051021008001051001KA1240N+02261MA1999999097841MD1999999+0011REMSYN076AAXX  31124 82583 32599 60904 10259 20231 39784 40122 85250 333 20226 58001;
0137825830999992011033118004-05167-040667FM-12+029999999V0200901N004612200019N0500001N1+03051+02141100741ADDGF103991031021008001001001MA1999999097651MD1999999-0051REMSYN070AAXX  31184 82583 32599 30909 10305 20214 39765 40074 83200 333 59005;
0168825830999992011040100004-05167-040667FM-12+029999999V0200501N002112200019N0040001N1+02621+02211101071ADDGF103991031011008001001001KA1240M+03121MA1999999097701MD1999999-0071REMSYN088AAXX  01004 82583 32596 30504 10262 20221 39770 40107 83100 333 10312 29074 55087 59007;
0156825830999992011040112004-05167-040667FM-12+029999999V0200501N002110075019N0500001N1+02451+02231101261ADDGF106991061021008001001001KA1240N+02151MA1999999097881MD1999999+0041REMSYN076AAXX  01124 82583 32599 60504 10245 20223 39788 40126 86200 333 20215 58004;
0178825830999992011040200004-05167-040667FM-12+029999999V0200501N002112200019N0040001N1+02591+02231100991ADDGA1001+999999999GF100991001001999999001001KA1240M+03071MA1999999097611MD1999999-0091REMSYN082AAXX  02004 82583 32996 00504 10259 20223 39761 40099 333 10307 29079 55066 59009;
0156825830999992011040212004-05167-040667FM-12+029999999V0200901N001512200019N0500001N1+02631+02271101251ADDGF103991031021008001001001KA1240N+02201MA1999999097871MD1999999-0011REMSYN076AAXX  02124 82583 32599 30903 10263 20227 39787 40125 83200 333 20220 59001;
0168825830999992011040300004-05167-040667FM-12+029999999V0203201N000512200019N0040001N1+02381+02211101021ADDGF101991011011008001001001KA1240M+03101MA1999999097641MD1999999+0031REMSYN088AAXX  03004 82583 32596 13201 10238 20221 39764 40102 81100 333 10310 29086 55069 58003;
0156825830999992011040312004-05167-040667FM-12+029999999V0200901N001510075019N0500001N1+02541+02291101121ADDGF105991051021008001001001KA1240N+02261MA1999999097741MD1999999-0131REMSYN076AAXX  03124 82583 32599 50903 10254 20229 39774 40112 85200 333 20226 59013;
0168825830999992011040400004-05167-040667FM-12+029999999V0200501N002112200019N0040001N1+02591+02231100851ADDGF101991011011008001001001KA1240M+03351MA1999999097491MD1999999-0151REMSYN088AAXX  04004 82583 32596 10504 10259 20223 39749 40085 81100 333 10335 29078 55087 59015;
0156825830999992011040412004-05167-040667FM-12+029999999V0200901N002110120019N0500001N1+02611+02371101141ADDGF108991081081008001999999KA1240N+02171MA1999999097771MD1999999+0031REMSYN076AAXX  04124 82583 32599 80904 10261 20237 39777 40114 888// 333 20217 58003;
0168825830999992011040500004-05167-040667FM-12+029999999V0203601N003112200019N0040001N1+02471+02271101021ADDGF101991011011008001001001KA1240M+03231MA1999999097641MD1999999+0151REMSYN088AAXX  05004 82583 32596 13606 10247 20227 39764 40102 81100 333 10323 29081 55086 58015;
0156825830999992011040512004-05167-040667FM-12+029999999V0200901N000510120019N0500001N1+02491+02381101151ADDGF106991061081008001001001KA1240N+02231MA1999999097771MD1999999+0001REMSYN076AAXX  05124 82583 32599 60901 10249 20238 39777 40115 86800 333 20223 58000;
0168825830999992011040600004-05167-040667FM-12+029999999V0203201N000512200019N0040001N1+02431+02271101071ADDGF101991011011008001001001KA1240M+03291MA1999999097691MD1999999+0051REMSYN088AAXX  06004 82583 32596 13201 10243 20227 39769 40107 81100 333 10329 29083 55080 58005;
0156825830999992011040612004-05167-040667FM-12+029999999V0200501N004610120019N0500001N1+02541+02291101231ADDGF107991061081008001031999KA1240N+02161MA1999999097851MD1999999+0081REMSYN076AAXX  06124 82583 32599 70509 10254 20229 39785 40123 8683/ 333 20216 58008;
0168825830999992011040700004-05167-040667FM-12+029999999V0200501N001012200019N0040001N1+02551+02111100941ADDGF101991011011008001001001KA1240M+03271MA1999999097561MD1999999-0131REMSYN088AAXX  07004 82583 32596 10502 10255 20211 39756 40094 81100 333 10327 29073 55078 59013;
0156825830999992011040712004-05167-040667FM-12+029999999V0200901N002112200019N0500001N1+02531+02251101091ADDGF102991011011008001001011KA1240N+02061MA1999999097711MD1999999-0141REMSYN076AAXX  07124 82583 32599 20904 10253 20225 39771 40109 81101 333 20206 59014;
0168825830999992011040800004-05167-040667FM-12+029999999V0200501N001512200019N0040001N1+02751+02281100851ADDGF102991021011008001001001KA1240M+03331MA1999999097491MD1999999-0071REMSYN088AAXX  08004 82583 32596 20503 10275 20228 39749 40085 82100 333 10333 29074 55100 59007;
0156825830999992011040812004-05167-040667FM-12+029999999V0200901N003610120019N0500001N1+02641+02271101071ADDGF106991051081008001031001KA1240N+02071MA1999999097711MD1999999+0001REMSYN076AAXX  08124 82583 32599 60907 10264 20227 39771 40107 85830 333 20207 58000;
0168825830999992011040900004-05167-040667FM-12+029999999V0203601N001512200019N0040001N1+02531+02251101101ADDGF101991011011008001001001KA1240M+03321MA1999999097731MD1999999+0241REMSYN088AAXX  09004 82583 32596 13603 10253 20225 39773 40110 81100 333 10332 29076 55098 58024;
0156825830999992011040912004-05167-040667FM-12+029999999V0200901N003612200019N0500001N1+02701+02131101301ADDGF104991041011008001001001KA1240N+02131MA1999999097921MD1999999+0211REMSYN076AAXX  09124 82583 32599 40907 10270 20213 39792 40130 84100 333 20213 58021;
0213825830999992011041000004-05167-040667FM-12+029999999V0200501N001510075019N0040001N1+02651+02181101171ADDAA106000391AY151061AY251061GF106991061011008001001001KA1240M+03151MA1999999097811MD1999999+0081MW1031REMSYN100AAXX  10004 82583 21596 60503 10265 20218 39781 40117 70355 86100 333 10315 29073 55081 58008 69931;
0173825830999992011041012004-05167-040667FM-12+029999999V0201401N004110075019N0500001N1+02591+02251101181ADDAA124000391GF108991061051008001999999KA1240N+02211MA1999999097811MD1999999+0111REMSYN082AAXX  10124 82583 22599 81408 10259 20225 39781 40118 865// 333 20221 58011 69934;
0213825830999992011041100004-05167-040667FM-12+029999999V0203601N001010075019N0040001N1+02331+02221101161ADDAA106010991AY161061AY261061GF105991051051008001001001KA1240M+03261MA1999999097771MD1999999-0041MW1021REMSYN100AAXX  11004 82583 21596 53602 10233 20222 39777 40116 70266 85500 333 10326 29082 55050 59004 60111;
0201825830999992011041112004-05167-040667FM-12+029999999V0201401N002610120019N0500001N1+02461+02251101231ADDAA124019191AY161061AY251061GF108991081081008001999999KA1240N+02121MA1999999097831MD1999999+0021MW1031REMSYN088AAXX  11124 82583 21599 81405 10246 20225 39783 40123 70365 888// 333 20212 58002 60194;
0168825830999992011041200004-05167-040667FM-12+029999999V0200901N001512200019N0040001N1+02351+02011100991ADDGF101991011011008001001001KA1240M+03161MA1999999097601MD1999999-0171REMSYN088AAXX  12004 82583 32596 10903 10235 20201 39760 40099 81100 333 10316 29083 55075 59017;
0201825830999992011041212004-05167-040667FM-12+029999999V0201401N002110075019N0100001N1+02271+02231101181ADDAA124000891AY151061AY251061GF108991081051008001999999KA1240N+02061MA1999999097771MD1999999-0061MW1631REMSYN088AAXX  12124 82583 21597 81404 10227 20223 39777 40118 76355 885// 333 20206 59006 69974;
0213825830999992011041300004-05167-040667FM-12+029999999V0203601N002610042019N0010001N1+02361+02281101031ADDAA106008991AY151061AY251061GF108991081071004501999999KA1240M+03061MA1999999097631MD1999999+0031MW1631REMSYN100AAXX  13004 82583 21494 83605 10236 20228 39763 40103 76355 887// 333 10306 29090 55022 58003 60091;
0201825830999992011041312004-05167-040667FM-12+029999999V0200901N001510120019N0040001N1+02391+02311101161ADDAA124023991AY161061AY261061GF108991081081008001999999KA1240N+02011MA1999999097761MD1999999-0011MW1161REMSYN088AAXX  13124 82583 21596 80903 10239 20231 39776 40116 71666 888// 333 20201 59001 60244;
0213825830999992011041400004-05167-040667FM-12+029999999V0203201N000512200019N0040001N1+02391+02331101031ADDAA106011991AY161061AY261061GF103991031001017501031001KA1240M+02731MA1999999097641MD1999999+0011MW1011REMSYN100AAXX  14004 82583 21796 33201 10239 20233 39764 40103 70166 83030 333 10273 29096 55000 58001 60121;
0148825830999992011041412004-05167-040667FM-12+029999999V0209999C000010120019N0500001N1+02391+02311101111ADDGF108991081081008001999999KA1240N+02231MA1999999097721REMSYN082AAXX  14124 82583 22599 81400 10239 20231 39772 40111 888// 333 20223 29004 60124;
0213825830999992011041500004-05167-040667FM-12+029999999V0203601N000510075019N0040001N1+02271+02231101051ADDAA106017091AY161061AY261061GF108991081051008001999999KA1240M+02721MA1999999097651MD1999999+0011MW1021REMSYN100AAXX  15004 82583 21596 83601 10227 20223 39765 40105 70266 885// 333 10272 29096 55000 58001 60171;
0201825830999992011041512004-05167-040667FM-12+029999999V0201801N001012200019N0500001N1+02401+02311101151ADDAA124018091AY161061AY261061GF103991021021008001001011KA1240N+02111MA1999999097751MD1999999+0031MW1011REMSYN088AAXX  15124 82583 21599 31802 10240 20231 39775 40115 70166 82201 333 20211 58003 60184;
0168825830999992011041600004-05167-040667FM-12+029999999V0203201N002110075019N0040001N1+02311+02201101031ADDGF106991061051008001001001KA1240M+03021MA1999999097631MD1999999-0021REMSYN088AAXX  16004 82583 32596 63204 10231 20220 39763 40103 86500 333 10302 29088 55076 59002;
0156825830999992011041612004-05167-040667FM-12+029999999V0200901N002610450019N0500001N1+02601+02351101051ADDGF105991041011008001061021KA1240N+02091MA1999999097671MD1999999-0081REMSYN076AAXX  16124 82583 32599 50905 10260 20235 39767 40105 84162 333 20209 59008;
0168825830999992011041700004-05167-040667FM-12+029999999V0200501N002610120019N0040001N1+02391+02231100981ADDGF108991081081008001999999KA1240M+03101MA1999999097601MD1999999-0031REMSYN088AAXX  17004 82583 32596 80505 10239 20223 39760 40098 888// 333 10310 29085 55085 59003;
0156825830999992011041712004-05167-040667FM-12+029999999V0201401N001510120019N0500001N1+02401+02301101121ADDGF108991081081008001999999KA1240N+02211MA1999999097731MD1999999+0061REMSYN076AAXX  17124 82583 32599 81403 10240 20230 39773 40112 888// 333 20221 58006;
0168825830999992011041800004-05167-040667FM-12+029999999V0209999C000010075019N0040001N1+02541+02331100921ADDGF105991051011008001001001KA1240M+03081MA1999999097541MD1999999-0061REMSYN088AAXX  18004 82583 32596 53200 10254 20233 39754 40092 85100 333 10308 29086 55084 59006;
0156825830999992011041812004-05167-040667FM-12+029999999V0201401N002610120019N0500001N1+02541+02351101201ADDGF106991061081008001001001KA1240N+02171MA1999999097821MD1999999-0091REMSYN076AAXX  18124 82583 32599 61405 10254 20235 39782 40120 86800 333 20217 59009;
0213825830999992011041900004-05167-040667FM-12+029999999V0203601N000510075019N0040001N1+02341+02291101261ADDAA106021191AY161061AY291061GF108991051021008001999999KA1240M+03011MA1999999097861MD1999999+0361MW1031REMSYN100AAXX  19004 82583 21596 83601 10234 20229 39786 40126 70369 852// 333 10301 29092 55076 58036 60211;
0201825830999992011041912004-05167-040667FM-12+029999999V0200901N002610075019N0500001N1+02491+02321101321ADDAA124022191AY151061AY221061GF106991051021008001031001KA1240N+02201MA1999999097921MD1999999+0101MW1011REMSYN088AAXX  19124 82583 21599 60905 10249 20232 39792 40132 70152 85230 333 20220 58010 60224;
0213825830999992011042000004-05167-040667FM-12+029999999V0201801N001510042019N0010001N1+02391+02301101221ADDAA106010991AY161061AY261061GF108991081071004501999999KA1240M+03021MA1999999097841MD1999999-0021MW1631REMSYN100AAXX  20004 82583 21494 81803 10239 20230 39784 40122 76366 887// 333 10302 29090 55050 59002 60111;
0201825830999992011042012004-05167-040667FM-12+029999999V0200901N001010120019N0500001N1+02461+02301101251ADDAA124018091AY161061AY261061GF107991061081008001001011KA1240N+02161MA1999999097851MD1999999-0071MW1031REMSYN088AAXX  20124 82583 21599 70902 10246 20230 39785 40125 70366 86801 333 20216 59007 60184;
0196825830999992011042100004-05167-040667FM-12+029999999V0209999C000012200019N0040001N1+02531+02381101031ADDAY111061AY211061GF102991011021008001041001KA1240M+03041MA1999999097651MD1999999-0191MW1131REMSYN094AAXX  21004 82583 31596 21800 10253 20238 39765 40103 71311 81240 333 10304 29086 55063 59019;
0156825830999992011042112004-05167-040667FM-12+029999999V0200901N001510075019N0500001N1+02531+02331101191ADDGF105991051011008001001011KA1240N+02201MA1999999097811MD1999999-0041REMSYN076AAXX  21124 82583 32599 50903 10253 20233 39781 40119 85101 333 20220 59004;
0137825830999992011042118004-05167-040667FM-12+029999999V0201401N003610120019N0500001N1+02841+02221100761ADDGF107991061081008001021999MA1999999097401MD1999999-0061REMSYN070AAXX  21184 82583 32599 71407 10284 20222 39740 40076 8682/ 333 59006;
0168825830999992011042200004-05167-040667FM-12+029999999V0203601N002612200019N0040001N1+02391+02171101151ADDGF103991031011008001001001KA1240M+03011MA1999999097761MD1999999+0111REMSYN088AAXX  22004 82583 32596 33605 10239 20217 39776 40115 83100 333 10301 29083 55057 58011;
0156825830999992011042212004-05167-040667FM-12+029999999V0200901N001010120019N0040001N1+02511+02311101081ADDGF106991061081008001999999KA1240N+02191MA1999999097701MD1999999-0111REMSYN076AAXX  22124 82583 32596 60902 10251 20231 39770 40108 868// 333 20219 59011;
0137825830999992011042218004-05167-040667FM-12+029999999V0200901N001510075019N0500001N1+02841+02291100691ADDGF106991061051008001001001MA1999999097321MD1999999-0081REMSYN070AAXX  22184 82583 32599 60903 10284 20229 39732 40069 86500 333 59008;
0168825830999992011042300004-05167-040667FM-12+029999999V0209999C000012200019N0040001N1+02471+02341100971ADDGF101991011011008001001001KA1240M+03071MA1999999097591MD1999999-0171REMSYN088AAXX  23004 82583 32596 11400 10247 20234 39759 40097 81100 333 10307 29086 55108 59017;
0156825830999992011042312004-05167-040667FM-12+029999999V0200901N002610075019N0500001N1+02601+02251101121ADDGF106991061051008001001001KA1240N+02321MA1999999097741MD1999999+0041REMSYN076AAXX  23124 82583 32599 60905 10260 20225 39774 40112 86500 333 20232 58004;
0182825830999992011042318004-05167-040667FM-12+029999999V0201801N002110450019N0500001N1+03531+02381100871ADDAA106003091AY111061AY261061GF105991041071008001031001MA1999999097491MD1999999+0171MW1211REMSYN082AAXX  23184 82583 21599 51804 10353 20238 39749 40087 72116 84730 333 58017 60031;
0213825830999992011042400004-05167-040667FM-12+029999999V0201801N000510075019N0040001N1+02421+02331101121ADDAA106000391AY151061AY251061GF108991081051008001999999KA1240M+03071MA1999999097741MD1999999+0151MW1021REMSYN100AAXX  24004 82583 21596 81801 10242 20233 39774 40112 70255 885// 333 10307 29091 55049 58015 69931;
0201825830999992011042412004-05167-040667FM-12+029999999V0202701N000510120019N0500001N1+02391+02371101201ADDAA124006191AY161061AY261061GF107991071081008001999999KA1240N+02171MA1999999097801MD1999999-0061MW1211REMSYN088AAXX  24124 82583 21599 72701 10239 20237 39780 40120 72166 878// 333 20217 59006 60064;
0182825830999992011042418004-05167-040667FM-12+029999999V0201401N002112200019N0500001N1+03001+02371100631ADDAA106000591AY161061AY261061GF104991041021008001001001MA1999999097271MD1999999-0221MW1021REMSYN082AAXX  24184 82583 21599 41404 10300 20237 39727 40063 70266 84200 333 59022 69941;
0168825830999992011042500004-05167-040667FM-12+029999999V0203201N002612200019N0040001N1+02391+02231101161ADDGF103991031051008001001001KA1240M+03101MA1999999097761MD1999999+0021REMSYN088AAXX  25004 82583 32596 33205 10239 20223 39776 40116 83500 333 10310 29087 55045 58002;
0201825830999992011042512004-05167-040667FM-12+029999999V0202701N000510075019N0500001N1+02221+02191101311ADDAA124023991AY161061AY261061GF106991061051008001001001KA1240N+02151MA1999999097901MD1999999+0101MW1031REMSYN088AAXX  25124 82583 21599 62701 10222 20219 39790 40131 70366 86500 333 20215 58010 60244;
0137825830999992011042518004-05167-040667FM-12+029999999V0200901N001510120019N0500001N1+02681+02281100941ADDGF108991061081008001021999MA1999999097561MD1999999+0291REMSYN070AAXX  25184 82583 32599 80903 10268 20228 39756 40094 8682/ 333 58029;
0213825830999992011042600004-05167-040667FM-12+029999999V0200501N000510075019N0040001N1+02411+02281101201ADDAA106000391AY121061AY251061GF108991081051008001999999KA1240M+02791MA1999999097791MD1999999+0031MW1021REMSYN100AAXX  26004 82583 21596 80501 10241 20228 39779 40120 70225 885// 333 10279 29090 55023 58003 69931;
0173825830999992011042612004-05167-040667FM-12+029999999V0200901N002112200019N0500001N1+02521+02311101271ADDAA124000391GF104991021011008001031001KA1240N+02111MA1999999097871MD1999999-0031REMSYN082AAXX  26124 82583 22599 40904 10252 20231 39787 40127 82130 333 20211 59003 69934;
0137825830999992011042618004-05167-040667FM-12+029999999V0201401N002112200019N0500001N1+03031+02231100801ADDGF104991031021008001001011MA1999999097441MD1999999-0121REMSYN070AAXX  26184 82583 32599 41404 10303 20223 39744 40080 83201 333 59012;
0168825830999992011042700004-05167-040667FM-12+029999999V0200901N001012200019N0040001N1+02391+02231101141ADDGF101991011011008001001001KA1240M+03071MA1999999097761MD1999999-0031REMSYN088AAXX  27004 82583 32596 10902 10239 20223 39776 40114 81100 333 10307 29082 55102 59003;
0156825830999992011042712004-05167-040667FM-12+029999999V0201401N001510075019N0500001N1+02391+02301101281ADDGF106991061011008001001001KA1240N+02171MA1999999097881MD1999999+0011REMSYN076AAXX  27124 82583 32599 61403 10239 20230 39788 40128 86100 333 20217 58001;
0182825830999992011042718004-05167-040667FM-12+029999999V0201401N003112200019N0500001N1+02931+02211100731ADDAA106001091AY161061AY251061GF104991031021008001041001MA1999999097371MD1999999-0071MW1021REMSYN082AAXX  27184 82583 21599 41406 10293 20221 39737 40073 70265 83240 333 59007 69991;
0168825830999992011042800004-05167-040667FM-12+029999999V0203601N002112200019N0040001N1+02541+02331101191ADDGF104991041011008001001001KA1240M+02971MA1999999097801MD1999999+0041REMSYN088AAXX  28004 82583 32596 43604 10254 20233 39780 40119 84100 333 10297 29084 55030 58004;
0173825830999992011042812004-05167-040667FM-12+029999999V0201401N001010450019N0500001N1+02551+02291101211ADDAA124001091GF105991041011008001041001KA1240N+02161MA1999999097831MD1999999-0051REMSYN082AAXX  28124 82583 22599 51402 10255 20229 39783 40121 84140 333 20216 59005 69994;
0137825830999992011042818004-05167-040667FM-12+029999999V0201801N001512200019N0500001N1+03021+02211100781ADDGF104991021021008001001011MA1999999097421MD1999999+0051REMSYN070AAXX  28184 82583 32599 41803 10302 20221 39742 40078 82201 333 58005;
0168825830999992011042900004-05167-040667FM-12+029999999V0200501N002112200019N0040001N1+02491+02311101201ADDGF102991021011008001001001KA1240M+03071MA1999999097821MD1999999+0021REMSYN088AAXX  29004 82583 32596 20504 10249 20231 39782 40120 82100 333 10307 29081 55070 58002;
0156825830999992011042912004-05167-040667FM-12+029999999V0201801N001510120019N0500001N1+02451+02281101191ADDGF107991061081008001001011KA1240N+02271MA1999999097801MD1999999-0031REMSYN076AAXX  29124 82583 32599 71803 10245 20228 39780 40119 86801 333 20227 59003;
0137825830999992011042918004-05167-040667FM-12+029999999V0201401N001510075019N0500001N1+03041+02271100701ADDGF106991061021008001001001MA1999999097351MD1999999-0071REMSYN070AAXX  29184 82583 32599 61403 10304 20227 39735 40070 86200 333 59007;
0213825830999992011043000004-05167-040667FM-12+029999999V0202701N003110075019N0040001N1+02351+02291101201ADDAA106018091AY121061AY261061GF108991081071008001999999KA1240M+03111MA1999999097801MD1999999-0021MW1651REMSYN100AAXX  30004 82583 21596 82706 10235 20229 39780 40120 76526 887// 333 10311 29086 55082 59002 60181;
0201825830999992011043012004-05167-040667FM-12+029999999V0209999C000010075019N0500001N1+02371+02281101171ADDAA124070191AY161061AY261061GF107991071051008001999999KA1240N+02081MA1999999097771MD1999999-0031MW1021REMSYN088AAXX  30124 82583 21599 70900 10237 20228 39777 40117 70266 875// 333 20208 59003 60704;
0137825830999992011043018004-05167-040667FM-12+029999999V0202701N001010075019N0500001N1+02951+02391100691ADDGF106991061051008001001001MA1999999097331MD1999999-0021REMSYN070AAXX  30184 82583 32599 62702 10295 20239 39733 40069 86500 333 59002;
0137825830999992011050118004-05167-040667FM-12+029999999V0201401N002110450019N0500001N1+02971+02351100761ADDGF105991041021008001021021MA1999999097361MD1999999+0031REMSYN070AAXX  01184 82583 32599 51404 10297 20235 39736 40076 84222 333 58003;
0168825830999992011050200004-05167-040667FM-12+029999999V0203601N001010075019N0040001N1+02481+02271101131ADDGF106991061051008001001001KA1240M+03081MA1999999097751MD1999999+0241REMSYN088AAXX  02004 82583 32596 63602 10248 20227 39775 40113 86500 333 10308 29085 55062 58024;
0156825830999992011050212004-05167-040667FM-12+029999999V0200901N003110120019N0500001N1+02551+02351101171ADDGF106991051081008001051001KA1240N+02311MA1999999097791MD1999999+0041REMSYN076AAXX  02124 82583 32599 60906 10255 20235 39779 40117 85850 333 20231 58004;
0182825830999992011050218004-05167-040667FM-12+029999999V0201401N001512200019N0500001N1+03051+02301100701ADDAA106002091AY161061AY261061GF103991031021008001001001MA1999999097351MD1999999-0011MW1011REMSYN082AAXX  02184 82583 21599 31403 10305 20230 39735 40070 70166 83200 333 59001 60021;
0213825830999992011050300004-05167-040667FM-12+029999999V0209999C000010120019N0040001N1+02511+02421101071ADDAA106007991AY161061AY261061GF106991061081008001001001KA1240M+03171MA1999999097691MD1999999-0061MW1021REMSYN100AAXX  03004 82583 21596 62700 10251 20242 39769 40107 70266 86800 333 10317 29085 55061 59006 60081;
0173825830999992011050312004-05167-040667FM-12+029999999V0200901N003110075019N0500001N1+02661+02331101201ADDAA124009991GF106991061051008001001001KA1240N+02271MA1999999097831MD1999999+0041REMSYN082AAXX  03124 82583 22599 60906 10266 20233 39783 40120 86500 333 20227 58004 60104;
0182825830999992011050318004-05167-040667FM-12+029999999V0200501N001510450019N0500001N1+02671+02411100741ADDAA106002091AY161061AY261061GF106991041031008001031011MA1999999097381MD1999999+0031MW1211REMSYN082AAXX  03184 82583 21599 60503 10267 20241 39738 40074 72166 84331 333 58003 60021;
0213825830999992011050400004-05167-040667FM-12+029999999V0200501N001010042019N0010001N1+02411+02331101201ADDAA106031091AY191061AY291061GF108991081071004501999999KA1240M+03081MA1999999097821MD1999999+0131MW1631REMSYN100AAXX  04004 82583 21494 80502 10241 20233 39782 40120 76399 887// 333 10308 29089 55061 58013 60311;
0201825830999992011050412004-05167-040667FM-12+029999999V0201401N002110120019N0500001N1+02501+02361101201ADDAA124036191AY161061AY261061GF108991071081008001041999KA1240N+02321MA1999999097811MD1999999-0021MW1031REMSYN088AAXX  04124 82583 21599 81404 10250 20236 39781 40120 70366 8784/ 333 20232 59002 60364;
0182825830999992011050418004-05167-040667FM-12+029999999V0203201N002110120019N0500001N1+02871+02461100781ADDAA106001091AY161061AY261061GF107991061081008001031011MA1999999097421MD1999999+0041MW1031REMSYN082AAXX  04184 82583 21599 73204 10287 20246 39742 40078 70366 86831 333 58004 60011;
0168825830999992011050500004-05167-040667FM-12+029999999V0200501N001510120019N0040001N1+02491+02381101131ADDGF108991081081008001999999KA1240M+03031MA1999999097751MD1999999-0071REMSYN088AAXX  05004 82583 32596 80503 10249 20238 39775 40113 888// 333 10303 29089 55039 59007;
0201825830999992011050512004-05167-040667FM-12+029999999V0201401N003110120019N0500001N1+02561+02371101251ADDAA124015091AY161061AY261061GF107991061081008001031011KA1240N+02271MA1999999097861MD1999999-0051MW1021REMSYN088AAXX  05124 82583 21599 71406 10256 20237 39786 40125 70266 86831 333 20227 59005 60154;
0182825830999992011050518004-05167-040667FM-12+029999999V0200501N001510120019N0500001N1+02471+02411100841ADDAA106010991AY161061AY261061GF108991061081008001031999MA1999999097471MD1999999+0051MW1211REMSYN082AAXX  05184 82583 21599 80503 10247 20241 39747 40084 72166 8683/ 333 58005 60111;
0213825830999992011050600004-05167-040667FM-12+029999999V0200901N001010075019N0040001N1+02391+02351101101ADDAA106001091AY161061AY261061GF105991051051008001001001KA1240M+02851MA1999999097721MD1999999-0031MW1021REMSYN100AAXX  06004 82583 21596 50902 10239 20235 39772 40110 70266 85500 333 10285 29094 55024 59003 60011;
0201825830999992011050612004-05167-040667FM-12+029999999V0201401N003610120019N0500001N1+02561+02351101191ADDAA124011991AY161061AY251061GF106991051081008001031001KA1240N+02221MA1999999097811MD1999999-0051MW1031REMSYN088AAXX  06124 82583 21599 61407 10256 20235 39781 40119 70365 85830 333 20222 59005 60124;
0137825830999992011050618004-05167-040667FM-12+029999999V0201401N001512200019N0500001N1+02901+02481100881ADDGF105991041021008001001011MA1999999097521MD1999999+0051REMSYN070AAXX  06184 82583 32599 51403 10290 20248 39752 40088 84201 333 58005;
0168825830999992011050700004-05167-040667FM-12+029999999V0209999C000012200019N0040001N1+02471+02301101211ADDGF102991021021008001001001KA1240M+03021MA1999999097831MD1999999+0111REMSYN088AAXX  07004 82583 32596 22300 10247 20230 39783 40121 82200 333 10302 29088 55061 58011;
0201825830999992011050712004-05167-040667FM-12+029999999V0200901N001510120019N0500001N1+02471+02341101341ADDAA124001091AY161061AY251061GF108991071081008001041999KA1240N+02311MA1999999097941MD1999999+0131MW1021REMSYN088AAXX  07124 82583 21599 80903 10247 20234 39794 40134 70265 8784/ 333 20231 58013 60014;
0137825830999992011050718004-05167-040667FM-12+029999999V0201401N002612200019N0500001N1+03061+02251100921ADDGF103991021011008001001011MA1999999097561MD1999999+0041REMSYN070AAXX  07184 82583 32599 31405 10306 20225 39756 40092 82101 333 58004;
0178825830999992011050800004-05167-040667FM-12+029999999V0201401N000512200019N0040001N1+02341+02151101121ADDGA1001+999999999GF100991001001999999001001KA1240M+03111MA1999999097741MD1999999-0091REMSYN082AAXX  08004 82583 32996 01401 10234 20215 39774 40112 333 10311 29083 55073 59009;
0156825830999992011050812004-05167-040667FM-12+029999999V0201401N003612200019N0500001N1+02591+02171101171ADDGF102991021011008001001001KA1240N+02051MA1999999097781MD1999999-0161REMSYN076AAXX  08124 82583 32599 21407 10259 20217 39778 40117 82100 333 20205 59016;
0137825830999992011050818004-05167-040667FM-12+029999999V0200901N003112200019N0500001N1+03001+02191100781ADDGF104991041011008001001001MA1999999097421MD1999999-0141REMSYN070AAXX  08184 82583 32599 40906 10300 20219 39742 40078 84100 333 59014;
0178825830999992011050900004-05167-040667FM-12+029999999V0201401N002112200019N0040001N1+02311+02131101051ADDGA1001+999999999GF100991001001999999001001KA1240M+03051MA1999999097671MD1999999-0071REMSYN082AAXX  09004 82583 32996 01404 10231 20213 39767 40105 333 10305 29079 55105 59007;
0156825830999992011050912004-05167-040667FM-12+029999999V0201401N003112200019N0500001N1+02581+02171101091ADDGF102991011011008001001011KA1240N+02071MA1999999097711MD1999999-0071REMSYN076AAXX  09124 82583 32599 21406 10258 20217 39771 40109 81101 333 20207 59007;
0137825830999992011050918004-05167-040667FM-12+029999999V0202301N001010075019N0500001N1+02941+02161100741ADDGF106991061021008001001001MA1999999097371MD1999999-0051REMSYN070AAXX  09184 82583 32599 62302 10294 20216 39737 40074 86200 333 59005;
0168825830999992011051000004-05167-040667FM-12+029999999V0201401N002112200019N0040001N1+02351+02151100901ADDGF101991001001999999001011KA1240M+03071MA1999999097531MD1999999-0141REMSYN088AAXX  10004 82583 32996 11404 10235 20215 39753 40090 80001 333 10307 29079 55098 59014;
0201825830999992011051012004-05167-040667FM-12+029999999V0201801N002610075019N0040001N1+02371+02331101071ADDAA124001091AY161061AY261061GF108991081051008001999999KA1240N+02161MA1999999097671MD1999999-0041MW1211REMSYN088AAXX  10124 82583 21596 81805 10237 20233 39767 40107 72166 885// 333 20216 59004 60014;
0182825830999992011051018004-05167-040667FM-12+029999999V0201401N001510120019N0500001N1+02511+02361100761ADDAA106007191AY161061AY261061GF108991081081008001999999MA1999999097361MD1999999-0011MW1211REMSYN082AAXX  10184 82583 21599 81403 10251 20236 39736 40076 72166 888// 333 59001 60071;
0213825830999992011051100004-05167-040667FM-12+029999999V0200501N004610042019N0010001N1+02331+02291101141ADDAA106009991AY161061AY261061GF108991081051004501999999KA1240M+02681MA1999999097741MD1999999+0211MW1631REMSYN100AAXX  11004 82583 21494 80509 10233 20229 39774 40114 76366 885// 333 10268 29096 55000 58021 60101;
0201825830999992011051112004-05167-040667FM-12+029999999V0201401N003110075019N0100001N1+02301+02251101221ADDAA124059991AY161061AY261061GF108991081051008001999999KA1240N+02231MA1999999097811MD1999999+0141MW1631REMSYN088AAXX  11124 82583 21597 81406 10230 20225 39781 40122 76366 885// 333 20223 58014 60604;
0137825830999992011051118004-05167-040667FM-12+029999999V0201801N003110120019N0500001N1+02781+02321100821ADDGF108991061081008001031011MA1999999097451MD1999999+0091REMSYN070AAXX  11184 82583 32599 81806 10278 20232 39745 40082 86831 333 58009;
0168825830999992011051200004-05167-040667FM-12+029999999V0201401N001510075019N0040001N1+02451+02371101051ADDGF108991081051008001999999KA1240M+02831MA1999999097661MD1999999-0081REMSYN088AAXX  12004 82583 32596 81403 10245 20237 39766 40105 885// 333 10283 29091 55009 59008;
0156825830999992011051212004-05167-040667FM-12+029999999V0201401N003110450019N0500001N1+02511+02231101091ADDGF106991031011008001041011KA1240N+02231MA1999999097711MD1999999-0101REMSYN076AAXX  12124 82583 32599 61406 10251 20223 39771 40109 83141 333 20223 59010;
0137825830999992011051218004-05167-040667FM-12+029999999V0201801N002110075019N0500001N1+02841+02121100671ADDGF108991071051008001041999MA1999999097311MD1999999-0141REMSYN070AAXX  12184 82583 32599 81804 10284 20212 39731 40067 8754/ 333 59014;
0168825830999992011051300004-05167-040667FM-12+029999999V0200901N001510450019N0040001N1+02451+02211100991ADDGF105991041011008001031001KA1240M+02951MA1999999097611MD1999999-0051REMSYN088AAXX  13004 82583 32596 50903 10245 20221 39761 40099 84130 333 10295 29080 55054 59005;
0156825830999992011051312004-05167-040667FM-12+029999999V0201401N003612200019N0500001N1+02351+02211101041ADDGF104991031011008001061011KA1240N+02091MA1999999097661MD1999999-0051REMSYN076AAXX  13124 82583 32599 41407 10235 20221 39766 40104 83161 333 20209 59005;
0137825830999992011051318004-05167-040667FM-12+029999999V0200901N003112200019N0500001N1+02901+02121100681ADDGF103991021011008001001011MA1999999097311MD1999999+0001REMSYN070AAXX  13184 82583 32599 30906 10290 20212 39731 40068 82101 333 58000;
0168825830999992011051400004-05167-040667FM-12+029999999V0200901N002112200019N0040001N1+02301+02141101041ADDGF103991031011008001001001KA1240M+02991MA1999999097651MD1999999+0041REMSYN088AAXX  14004 82583 32596 30904 10230 20214 39765 40104 83100 333 10299 29082 55102 58004;
0156825830999992011051412004-05167-040667FM-12+029999999V0201801N002612200019N0500001N1+02531+02131101131ADDGF103991031001008001031011KA1240N+02041MA1999999097741MD1999999+0081REMSYN076AAXX  14124 82583 32599 31805 10253 20213 39774 40113 83031 333 20204 58008;
0137825830999992011051418004-05167-040667FM-12+029999999V0203201N000510075019N0500001N1+03051+02221100621ADDGF106991061021008001001001MA1999999097261MD1999999-0051REMSYN070AAXX  14184 82583 32599 63201 10305 20222 39726 40062 86200 333 59005;
0168825830999992011051500004-05167-040667FM-12+029999999V0203601N000510075019N0040001N1+02431+02231101121ADDGF106991061011008001001001KA1240M+03121MA1999999097741MD1999999+0091REMSYN088AAXX  15004 82583 32596 63601 10243 20223 39774 40112 86100 333 10312 29079 55073 58009;
0156825830999992011051512004-05167-040667FM-12+029999999V0201801N003110075019N0500001N1+02381+02281101131ADDGF106991061011008001001011KA1240N+02191MA1999999097741MD1999999+0001REMSYN076AAXX  15124 82583 32599 61806 10238 20228 39774 40113 86101 333 20219 58000;
0137825830999992011051518004-05167-040667FM-12+029999999V0200901N004110450019N0500001N1+02891+02271100741ADDGF105991041011008001031011MA1999999097371MD1999999+0111REMSYN070AAXX  15184 82583 32599 50908 10289 20227 39737 40074 84131 333 58011;
0168825830999992011051600004-05167-040667FM-12+029999999V0200901N003110075019N0040001N1+02421+02251101011ADDGF106991051011008001031001KA1240M+03011MA1999999097621MD1999999-0121REMSYN088AAXX  16004 82583 32596 60906 10242 20225 39762 40101 85130 333 10301 29085 55053 59012;
0156825830999992011051612004-05167-040667FM-12+029999999V0200901N003110075019N0500001N1+02611+02331101061ADDGF106991061021008001001001KA1240N+02231MA1999999097681MD1999999-0041REMSYN076AAXX  16124 82583 32599 60906 10261 20233 39768 40106 86200 333 20223 59004;
0137825830999992011051618004-05167-040667FM-12+029999999V0200901N001510075019N0500001N1+02951+02331100671ADDGF106991051021008001041001MA1999999097311MD1999999-0061REMSYN070AAXX  16184 82583 32599 60903 10295 20233 39731 40067 85240 333 59006;
0168825830999992011051700004-05167-040667FM-12+029999999V0200501N001510075019N0040001N1+02621+02391101051ADDGF107991071051008001999999KA1240M+03061MA1999999097681MD1999999+0061REMSYN088AAXX  17004 82583 32596 70503 10262 20239 39768 40105 875// 333 10306 29082 55058 58006;
0201825830999992011051712004-05167-040667FM-12+029999999V0201401N001510450019N0500001N1+02461+02281101201ADDAA124031091AY161061AY261061GF105991041011008001031011KA1240N+02081MA1999999097821MD1999999+0141MW1031REMSYN088AAXX  17124 82583 21599 51403 10246 20228 39782 40120 70366 84131 333 20208 58014 60314;
0137825830999992011051718004-05167-040667FM-12+029999999V0200901N001512200019N0500001N1+02991+02441100731ADDGF103991021021008001031011MA1999999097381MD1999999+0071REMSYN070AAXX  17184 82583 32599 30903 10299 20244 39738 40073 82231 333 58007;
0232825830999992011051800004-05167-040667FM-12+029999999V0200901N001510075019N0020001N1+02451+02341101041ADDAA106000091AY121061AY251061GF107991071071008001999999KA1240M+02431MA1999999097661MD1999999-0021MW1021REMSYN100AAXX  18004 82583 21595 70903 10245 20234 39766 40104 70225 877// 333 10243 29087 55081 59002 69911;EQDQ01  00002PRCP06
0201825830999992011051812004-05167-040667FM-12+029999999V0200501N002110120019N0500001N1+02491+02361101211ADDAA124007991AY161061AY261061GF108991071081008001021999KA1240N+02251MA1999999097821MD1999999+0001MW1031REMSYN088AAXX  18124 82583 21599 80504 10249 20236 39782 40121 70366 8782/ 333 20225 58000 60084;
0137825830999992011051818004-05167-040667FM-12+029999999V0200901N002612200019N0500001N1+02871+02391100781ADDGF105991041021008001001011MA1999999097421MD1999999+0041REMSYN070AAXX  18184 82583 32599 50905 10287 20239 39742 40078 84201 333 58004;
0232825830999992011051900004-05167-040667FM-12+029999999V0203601N001510075019N0040001N1+02511+02311101131ADDAA106000091AY101061AY251061GF106991051051008001031011KA1240M+02991MA1999999097751MD1999999+0091MW1031REMSYN100AAXX  19004 82583 21596 63603 10251 20231 39775 40113 70305 85531 333 10299 29086 55063 58009 69911;EQDQ01  00002PRCP06
0192825830999992011051912004-05167-040667FM-12+029999999V0200901N002110075019N0500001N1+02471+02321101291ADDAA124000091GF107991061051008001031999KA1240N+02301MA1999999097901MD1999999+0081REMSYN082AAXX  19124 82583 22599 70904 10247 20232 39790 40129 8653/ 333 20230 58008 69914;EQDQ01  00002PRCP24
0201825830999992011051918004-05167-040667FM-12+029999999V0201401N002110120019N0500001N1+02681+02261100881ADDAA106000091AY161061AY261061GF106991061081008001001001MA1999999097521MD1999999+0101MW1031REMSYN082AAXX  19184 82583 21599 61404 10268 20226 39752 40088 70366 86800 333 58010 69921;EQDQ01  00002PRCP06
0168825830999992011052000004-05167-040667FM-12+029999999V0202701N000510075019N0040001N1+02411+02251101231ADDGF106991051051008001031001KA1240M+02931MA1999999097841MD1999999+0091REMSYN088AAXX  20004 82583 32596 62701 10241 20225 39784 40123 85530 333 10293 29087 55045 58009;
0201825830999992011052012004-05167-040667FM-12+029999999V0201401N003110120019N0500001N1+02411+02281101391ADDAA124000891AY161061AY251061GF108991071081008001031999KA1240N+02251MA1999999097991MD1999999+0091MW1031REMSYN088AAXX  20124 82583 21599 81406 10241 20228 39799 40139 70365 8783/ 333 20225 58009 69974;
0137825830999992011052018004-05167-040667FM-12+029999999V0201401N003610075019N0500001N1+02771+02251100981ADDGF106991051021008001041001MA1999999097601MD1999999+0081REMSYN070AAXX  20184 82583 32599 61407 10277 20225 39760 40098 85240 333 58008;
0168825830999992011052100004-05167-040667FM-12+029999999V0200901N001512200019N0040001N1+02371+02281101281ADDGF104991031011008001031001KA1240M+02881MA1999999097881MD1999999+0041REMSYN088AAXX  21004 82583 32596 40903 10237 20228 39788 40128 83130 333 10288 29088 55046 58004;
0201825830999992011052112004-05167-040667FM-12+029999999V0201401N003612200019N0500001N1+02431+02191101431ADDAA124000591AY151061AY251061GF104991021011008001041001KA1240N+02221MA1999999098031MD1999999+0041MW1021REMSYN088AAXX  21124 82583 21599 41407 10243 20219 39803 40143 70255 82140 333 20222 58004 69964;
0137825830999992011052118004-05167-040667FM-12+029999999V0200901N003612200019N0500001N1+02891+02101101051ADDGF104991031021008001001011MA1999999097681MD1999999+0081REMSYN070AAXX  21184 82583 32599 40907 10289 20210 39768 40105 83201 333 58008;
0178825830999992011052200004-05167-040667FM-12+029999999V0201401N001012200019N0040001N1+02351+02151101181ADDGA1001+999999999GF100991001001999999001001KA1240M+02981MA1999999097781MD1999999-0101REMSYN082AAXX  22004 82583 32996 01402 10235 20215 39778 40118 333 10298 29081 55078 59010;
0156825830999992011052212004-05167-040667FM-12+029999999V0201401N003612200019N0500001N1+02341+01931100871ADDGF101991011011008001001001KA1240N+02011MA1999999097971MD1999999-0061REMSYN076AAXX  22124 82583 32599 11407 10234 20193 39797 40087 81100 333 20201 59006;
0178825830999992011052300004-05167-040667FM-12+029999999V0200901N001012200019N0040001N1+02251+02111101231ADDGA1001+999999999GF100991001001999999001001KA1240M+02951MA1999999097821MD1999999+0041REMSYN082AAXX  23004 82583 32996 00902 10225 20211 39782 40123 333 10295 29081 55103 58004;
0156825830999992011052312004-05167-040667FM-12+029999999V0201401N002110075019N0500001N1+02341+02151101301ADDGF106991051011008001031001KA1240N+01981MA1999999097891MD1999999-0081REMSYN076AAXX  23124 82583 32599 61404 10234 20215 39789 40130 85130 333 20198 59008;
0137825830999992011052318004-05167-040667FM-12+029999999V0200901N002110075019N0500001N1+02901+02271100951ADDGF106991061021008001001001MA1999999097571MD1999999-0091REMSYN070AAXX  23184 82583 32599 60904 10290 20227 39757 40095 86200 333 59009;
0187825830999992011052400004-05167-040667FM-12+029999999V0200901N002619999999N0040001N1+02501+02291101221ADDGF105991999011008001001001KA1240M+03021MA1999999097831MD1999999+0011REMSYN088AAXX  24004 82583 32596 50905 10250 20229 39783 40122 84100 333 10302 29084 55046 58001;EQDQ01+000042SCOTLC
0156825830999992011052412004-05167-040667FM-12+029999999V0200901N003110120019N0500001N1+02531+02291101301ADDGF106991061081008001001001KA1240N+02211MA1999999097911MD1999999+0021REMSYN076AAXX  24124 82583 32599 60906 10253 20229 39791 40130 86800 333 20221 58002;
0182825830999992011052418004-05167-040667FM-12+029999999V0201801N002610450019N0500001N1+02631+02331100981ADDAA106001091AY161061AY261061GF105991021021008001031001MA1999999097601MD1999999+0031MW1031REMSYN082AAXX  24184 82583 21599 51805 10263 20233 39760 40098 70366 82230 333 58003 69991;
0168825830999992011052500004-05167-040667FM-12+029999999V0200901N002112200019N0040001N1+02451+02281101241ADDGF102991021011008001001001KA1240M+02931MA1999999097861MD1999999+0031REMSYN088AAXX  25004 82583 32596 20904 10245 20228 39786 40124 82100 333 10293 29087 55073 58003;
0173825830999992011052512004-05167-040667FM-12+029999999V0201401N003610075019N0500001N1+02511+02291101381ADDAA124001091GF106991051011008001021001KA1240N+02211MA1999999097991MD1999999+0081REMSYN082AAXX  25124 82583 22599 61407 10251 20229 39799 40138 85120 333 20221 58008 69994;
0137825830999992011052518004-05167-040667FM-12+029999999V0201401N001510120019N0500001N1+02811+02201101041ADDGF107991061081008001041999MA1999999097661MD1999999+0061REMSYN070AAXX  25184 82583 32599 71403 10281 20220 39766 40104 8684/ 333 58006;
0168825830999992011052600004-05167-040667FM-12+029999999V0200901N001512200019N0040001N1+02431+02251101291ADDGF104991041011008001001001KA1240M+02921MA1999999097901MD1999999+0041REMSYN088AAXX  26004 82583 32596 40903 10243 20225 39790 40129 84100 333 10292 29083 55069 58004;
0156825830999992011052612004-05167-040667FM-12+029999999V0201401N003110075019N0500001N1+02331+02011101451ADDGF107991061051008001041001KA1240N+02151MA1999999098051MD1999999+0061REMSYN076AAXX  26124 82583 32599 71406 10233 20201 39805 40145 86540 333 20215 58006;
0137825830999992011052618004-05167-040667FM-12+029999999V0201401N002110120019N0500001N1+02881+02101101111ADDGF106991051081008001041001MA1999999097731MD1999999+0071REMSYN070AAXX  26184 82583 32599 61404 10288 20210 39773 40111 85840 333 58007;
0168825830999992011052700004-05167-040667FM-12+029999999V0200901N001510075019N0040001N1+02431+02151101301ADDGF105991051011008001001001KA1240M+03001MA1999999097941MD1999999+0041REMSYN088AAXX  27004 82583 32596 50903 10243 20215 39794 40130 85100 333 10300 29078 55047 58004;
0156825830999992011052712004-05167-040667FM-12+029999999V0201801N002612200019N0500001N1+02511+02231101381ADDGF102991011011008001001011KA1240N+02061MA1999999097981MD1999999-0071REMSYN076AAXX  27124 82583 32599 21805 10251 20223 39798 40138 81101 333 20206 59007;
0137825830999992011052718004-05167-040667FM-12+029999999V0200901N002610075019N0500001N1+03071+02191100931ADDGF105991051011008001001001MA1999999097561MD1999999-0171REMSYN070AAXX  27184 82583 32599 50905 10307 20219 39756 40093 85100 333 59017;
0178825830999992011052800004-05167-040667FM-12+029999999V0200901N002112200019N0040001N1+02351+02131101181ADDGA1001+999999999GF100991001001999999001001KA1240M+03121MA1999999097791MD1999999-0151REMSYN082AAXX  28004 82583 32996 00904 10235 20213 39779 40118 333 10312 29078 55088 59015;
0156825830999992011052812004-05167-040667FM-12+029999999V0201401N003112200019N0500001N1+02531+02231101321ADDGF104991031011008001031011KA1240N+02021MA1999999097921MD1999999-0061REMSYN076AAXX  28124 82583 32599 41406 10253 20223 39792 40132 83131 333 20202 59006;
0137825830999992011052818004-05167-040667FM-12+029999999V0200901N002612200019N0500001N1+03031+02231100871ADDGF104991041011008001001011MA1999999097501MD1999999-0061REMSYN070AAXX  28184 82583 32599 40905 10303 20223 39750 40087 84101 333 59006;
0178825830999992011052900004-05167-040667FM-12+029999999V0201801N001012200019N0040001N1+02441+02171101171ADDGA1001+999999999GF100991001001999999001001KA1240M+03091MA1999999097791MD1999999+0001REMSYN082AAXX  29004 82583 32996 01802 10244 20217 39779 40117 333 10309 29079 55088 58000;
0156825830999992011052912004-05167-040667FM-12+029999999V0200901N003110075019N0500001N1+02541+02251101271ADDGF105991051011008001001021KA1240N+02061MA1999999097881MD1999999-0041REMSYN076AAXX  29124 82583 32599 50906 10254 20225 39788 40127 85102 333 20206 59004;
0137825830999992011052918004-05167-040667FM-12+029999999V0201401N003110075019N0500001N1+02941+02161100951ADDGF107991061011008001061001MA1999999097571MD1999999+0071REMSYN070AAXX  29184 82583 32599 71406 10294 20216 39757 40095 86160 333 58007;
0168825830999992011053000004-05167-040667FM-12+029999999V0200901N001012200019N0040001N1+02391+02231101221ADDGF102991021051008001001001KA1240M+03031MA1999999097831MD1999999+0041REMSYN088AAXX  30004 82583 32596 20902 10239 20223 39783 40122 82500 333 10303 29082 55065 58004;
0156825830999992011053012004-05167-040667FM-12+029999999V0201401N003110075019N0500001N1+02461+02191101381ADDGF106991061021008001001001KA1240N+02131MA1999999097981MD1999999+0101REMSYN076AAXX  30124 82583 32599 61406 10246 20219 39798 40138 86200 333 20213 58010;
0156825830999992011053018004-05167-040667FM-12+029999999V0200901N003610075019N0500001N1+02831+02141100961ADDGF107991999021008001001001MA1999999097581MD1999999+0011REMSYN070AAXX  30184 82583 32599 70907 10283 20214 39758 40096 86200 333 58001;EQDQ01+000062SCOTLC
0168825830999992011053100004-05167-040667FM-12+029999999V0200901N000512200019N0040001N1+02351+02201101201ADDGF102991021011008001001001KA1240M+02961MA1999999097801MD1999999-0031REMSYN088AAXX  31004 82583 32596 20901 10235 20220 39780 40120 82100 333 10296 29083 55041 59003;
0156825830999992011053112004-05167-040667FM-12+029999999V0200901N006210075019N0500001N1+02481+02051101291ADDGF106991061011008001001001KA1240N+02021MA1999999097891MD1999999-0091REMSYN076AAXX  31124 82583 32599 60912 10248 20205 39789 40129 86100 333 20202 59009;
0168825830999992011060100004-05167-040667FM-12+029999999V0200901N001012200019N0040001N1+02231+02011101201ADDGF101991011011008001001001KA1240M+02991MA1999999097801MD1999999+0001REMSYN088AAXX  01004 82583 32596 10902 10223 20201 39780 40120 81100 333 10299 29076 55096 58000;
0156825830999992011060112004-05167-040667FM-12+029999999V0201401N004610120019N0500001N1+02471+02111101241ADDGF107991051081008001031011KA1240N+01901MA1999999097841MD1999999-0051REMSYN076AAXX  01124 82583 32599 71409 10247 20211 39784 40124 85831 333 20190 59005;
0137825830999992011060118004-05167-040667FM-12+029999999V0201401N004610450019N0500001N1+02891+01871100751ADDGF106991031011008001041001MA1999999097451MD1999999+0131REMSYN070AAXX  01184 82583 32599 61409 10289 20187 39745 40075 83140 333 58013;
0178825830999992011060200004-05167-040667FM-12+029999999V0200901N001012200019N0500001N1+02291+01941101191ADDGA1001+999999999GF100991001001999999001001KA1240M+02991MA1999999097791MD1999999-0011REMSYN082AAXX  02004 82583 32599 00902 10229 20194 39779 40119 333 10299 29074 55082 59001;
0156825830999992011060212004-05167-040667FM-12+029999999V0201401N006210450019N0500001N1+02551+02061101241ADDGF105991041011008001021031KA1240N+01891MA1999999097841MD1999999+0001REMSYN076AAXX  02124 82583 32599 51412 10255 20206 39784 40124 84123 333 20189 58000;
0137825830999992011060218004-05167-040667FM-12+029999999V0200901N004610120019N0500001N1+02871+01941100931ADDGF106991061081008001001001MA1999999097541MD1999999+0091REMSYN070AAXX  02184 82583 32599 60909 10287 20194 39754 40093 86800 333 58009;
0178825830999992011060300004-05167-040667FM-12+029999999V0200901N002112200019N0040001N1+02251+02031101161ADDGA1001+999999999GF100991001001999999001001KA1240M+03051MA1999999097761MD1999999-0031REMSYN082AAXX  03004 82583 32996 00904 10225 20203 39776 40116 333 10305 29076 55072 59003;
0156825830999992011060312004-05167-040667FM-12+029999999V0201401N002612200019N0500001N1+02491+02091101231ADDGF103991021011008001041011KA1240N+01891MA1999999097831MD1999999-0011REMSYN076AAXX  03124 82583 32599 31405 10249 20209 39783 40123 82141 333 20189 59001;
0137825830999992011060318004-05167-040667FM-12+029999999V0201401N002112200019N0500001N1+03011+01991100951ADDGF104991031011008001021011MA1999999097581MD1999999+0041REMSYN070AAXX  03184 82583 32599 41404 10301 20199 39758 40095 83121 333 58004;
0168825830999992011060400004-05167-040667FM-12+029999999V0200901N001512200019N0040001N1+02311+02241101281ADDGF104991041051008001001001KA1240M+03081MA1999999097881MD1999999+0121REMSYN088AAXX  04004 82583 32596 40903 10231 20224 39788 40128 84500 333 10308 29081 55078 58012;
0156825830999992011060412004-05167-040667FM-12+029999999V0203601N003110075019N0500001N1+02291+02031101551ADDGF108991081071008001999999KA1240N+02141MA1999999098131MD1999999+0301REMSYN076AAXX  04124 82583 32599 83606 10229 20203 39813 40155 887// 333 20214 58030;
0182825830999992011060418004-05167-040667FM-12+029999999V0200901N002110075019N0500001N1+02821+02201101101ADDAA106000591AY161061AY261061GF105991051021008001001001MA1999999097711MD1999999+0131MW1021REMSYN082AAXX  04184 82583 21599 50904 10282 20220 39771 40110 70266 85200 333 58013 69941;
0178825830999992011060500004-05167-040667FM-12+029999999V0200501N001012200019N0040001N1+02381+02111101261ADDGA1001+999999999GF100991001001999999001001KA1240M+02931MA1999999097861MD1999999-0021REMSYN082AAXX  05004 82583 32996 00502 10238 20211 39786 40126 333 10293 29081 55049 59002;
0173825830999992011060512004-05167-040667FM-12+029999999V0201401N000512200019N0500001N1+02501+02211101311ADDAA124000591GF101991011011008001001001KA1240N+01951MA1999999097911MD1999999-0221REMSYN082AAXX  05124 82583 22599 11401 10250 20221 39791 40131 81100 333 20195 59022 69944;
0137825830999992011060518004-05167-040667FM-12+029999999V0201801N002112200019N0500001N1+03171+02161100901ADDGF102991021011008001001001MA1999999097541MD1999999-0171REMSYN070AAXX  05184 82583 32599 21804 10317 20216 39754 40090 82100 333 59017;
0178825830999992011060600004-05167-040667FM-12+029999999V0200901N001512200019N0040001N1+02481+02071101161ADDGA1001+999999999GF100991001001999999001001KA1240M+03261MA1999999097781MD1999999-0081REMSYN082AAXX  06004 82583 32996 00903 10248 20207 39778 40116 333 10326 29074 55103 59008;
0156825830999992011060612004-05167-040667FM-12+029999999V0201401N003610075019N0500001N1+02391+02171101441ADDGF106991061011008001001001KA1240N+02021MA1999999098041MD1999999-0131REMSYN076AAXX  06124 82583 32599 61407 10239 20217 39804 40144 86100 333 20202 59013;
0137825830999992011060618004-05167-040667FM-12+029999999V0201401N003112200019N0500001N1+03171+01981100991ADDGF102991021011008001001001MA1999999097631MD1999999+0091REMSYN070AAXX  06184 82583 32599 21406 10317 20198 39763 40099 82100 333 58009;
0178825830999992011060700004-05167-040667FM-12+029999999V0200901N002112200019N0040001N1+02351+02011101361ADDGA1001+999999999GF100991001001999999001001KA1240M+03201MA1999999097961MD1999999+0181REMSYN082AAXX  07004 82583 32996 00904 10235 20201 39796 40136 333 10320 29074 55083 58018;
0156825830999992011060712004-05167-040667FM-12+029999999V0201401N004112200019N0500001N1+02481+02131101561ADDGF101991011011008001001001KA1240N+01991MA1999999098151MD1999999+0111REMSYN076AAXX  07124 82583 32599 11408 10248 20213 39815 40156 81100 333 20199 58011;
0137825830999992011060718004-05167-040667FM-12+029999999V0200901N003112200019N0500001N1+02991+01941101251ADDGF105991041011008001001011MA1999999097861MD1999999+0231REMSYN070AAXX  07184 82583 32599 50906 10299 20194 39786 40125 84101 333 58023;
0168825830999992011060800004-05167-040667FM-12+029999999V0201801N000512200019N0040001N1+02311+02021101401ADDGF101991011011008001001001KA1240M+03091MA1999999098001MD1999999+0041REMSYN088AAXX  08004 82583 32596 11801 10231 20202 39800 40140 81100 333 10309 29075 55091 58004;
0156825830999992011060812004-05167-040667FM-12+029999999V0201401N002110075019N0500001N1+02311+02031101581ADDGF108991071051008001041999KA1240N+02011MA1999999098161MD1999999+0011REMSYN076AAXX  08124 82583 32599 81404 10231 20203 39816 40158 8754/ 333 20201 58001;
0137825830999992011060818004-05167-040667FM-12+029999999V0201401N001010120019N0500001N1+02891+02171101161ADDGF108991081081008001999999MA1999999097781MD1999999-0081REMSYN070AAXX  08184 82583 32599 81402 10289 20217 39778 40116 888// 333 59008;
0156825830999992011060912004-05167-040667FM-12+029999999V0201801N002112200019N0500001N1+02521+02131101431ADDGF102991011011008001041001KA1240N+02021MA1999999098031MD1999999-0131REMSYN076AAXX  09124 82583 32599 21804 10252 20213 39803 40143 81140 333 20202 59013;
0137825830999992011060918004-05167-040667FM-12+029999999V0201801N002110075019N0500001N1+02991+02111101121ADDGF106991061021008001001001MA1999999097741MD1999999-0041REMSYN070AAXX  09184 82583 32599 61804 10299 20211 39774 40112 86200 333 59004;
0168825830999992011061000004-05167-040667FM-12+029999999V0200901N002612200019N0500001N1+02571+02211101341ADDGF103991031011008001001001KA1240M+03091MA1999999097961MD1999999+0041REMSYN088AAXX  10004 82583 32599 30905 10257 20221 39796 40134 83100 333 10309 29074 55056 58004;
0156825830999992011061012004-05167-040667FM-12+029999999V0200901N002610075019N0500001N1+02531+02151101551ADDGF106991061011008001001001KA1240N+02111MA1999999098151MD1999999+0121REMSYN076AAXX  10124 82583 32599 60905 10253 20215 39815 40155 86100 333 20211 58012;
0137825830999992011061018004-05167-040667FM-12+029999999V0201401N003112200019N0200001N1+03031+02081101151ADDGF104991041011008001001001MA1999999097791MD1999999+0051REMSYN070AAXX  10184 82583 32598 41406 10303 20208 39779 40115 84100 333 58005;
0168825830999992011061100004-05167-040667FM-12+029999999V0200901N001012200019N0040001N1+02411+02111101441ADDGF103991021011008001031001KA1240M+03111MA1999999098051MD1999999+0091REMSYN088AAXX  11004 82583 32596 30902 10241 20211 39805 40144 82130 333 10311 29076 55080 58009;
0156825830999992011061112004-05167-040667FM-12+029999999V0201401N001512200019N0500001N1+02421+02191101461ADDGF104991041021008001001001KA1240N+02161MA1999999098051MD1999999-0101REMSYN076AAXX  11124 82583 32599 41403 10242 20219 39805 40146 84200 333 20216 59010;
0137825830999992011061118004-05167-040667FM-12+029999999V0201401N004610450019N0500001N1+03141+01841101011ADDGF105991041011008001021001MA1999999097661MD1999999-0131REMSYN070AAXX  11184 82583 32599 51409 10314 20184 39766 40101 84120 333 59013;
0178825830999992011061200004-05167-040667FM-12+029999999V0200901N000512200019N0040001N1+02471+02171101281ADDGA1001+999999999GF100991001001999999001001KA1240M+03261MA1999999097881MD1999999-0171REMSYN082AAXX  12004 82583 32996 00901 10247 20217 39788 40128 333 10326 29076 55080 59017;
0156825830999992011061212004-05167-040667FM-12+029999999V0200901N002110075019N0500001N1+02421+02251101441ADDGF106991061011008001001001KA1240N+02071MA1999999098041MD1999999-0011REMSYN076AAXX  12124 82583 32599 60904 10242 20225 39804 40144 86100 333 20207 59001;
0137825830999992011061218004-05167-040667FM-12+029999999V0201401N004110075019N0500001N1+03131+01661101011ADDGF105991051011008001001001MA1999999097641MD1999999-0021REMSYN070AAXX  12184 82583 32599 51408 10313 20166 39764 40101 85100 333 59002;
0168825830999992011061300004-05167-040667FM-12+029999999V0201801N002112200019N0040001N1+02941+02091101301ADDGF103991021011008001061021KA1240M+03191MA1999999097901MD1999999+0021REMSYN088AAXX  13004 82583 32596 31804 10294 20209 39790 40130 82162 333 10319 29077 55064 58002;
0156825830999992011061312004-05167-040667FM-12+029999999V0201801N003612200019N0500001N1+02491+02111101491ADDGF102991011011008001051001KA1240N+01991MA1999999098091MD1999999+0051REMSYN076AAXX  13124 82583 32599 21807 10249 20211 39809 40149 81150 333 20199 58005;
0137825830999992011061318004-05167-040667FM-12+029999999V0201401N004612200019N0500001N1+03111+01681101031ADDGF101991011011008001001001MA1999999097671MD1999999+0031REMSYN070AAXX  13184 82583 32599 11409 10311 20168 39767 40103 81100 333 58003;
0168825830999992011061400004-05167-040667FM-12+029999999V0200901N001012200019N0040001N1+02331+02001101431ADDGF102991021011008001001001KA1240M+03201MA1999999098031MD1999999+0131REMSYN088AAXX  14004 82583 32596 20902 10233 20200 39803 40143 82100 333 10320 29071 55096 58013;
0156825830999992011061412004-05167-040667FM-12+029999999V0201401N004112200019N0500001N1+02481+01901101491ADDGF103991031011008001001001KA1240N+01871MA1999999098081MD1999999-0011REMSYN076AAXX  14124 82583 32599 31408 10248 20190 39808 40149 83100 333 20187 59001;
0137825830999992011061418004-05167-040667FM-12+029999999V0201801N002112200019N0500001N1+03111+01681101021ADDGF102991011011008001001011MA1999999097641MD1999999-0031REMSYN070AAXX  14184 82583 32599 21804 10311 20168 39764 40102 81101 333 59003;
0178825830999992011061500004-05167-040667FM-12+029999999V0200901N001012200019N0040001N1+02251+01881101311ADDGA1001+999999999GF100991001001999999001001KA1240M+03231MA1999999097911MD1999999-0121REMSYN082AAXX  15004 82583 32996 00902 10225 20188 39791 40131 333 10323 29068 55102 59012;
0156825830999992011061512004-05167-040667FM-12+029999999V0201401N005112200019N0500001N1+02401+01981101341ADDGF101991011011008001001001KA1240N+01811MA1999999097931MD1999999-0151REMSYN076AAXX  15124 82583 32599 11410 10240 20198 39793 40134 81100 333 20181 59015;
0137825830999992011061518004-05167-040667FM-12+029999999V0201401N005112200019N0500001N1+03141+01911100871ADDGF101991011011008001001001MA1999999097501MD1999999-0141REMSYN070AAXX  15184 82583 32599 11410 10314 20191 39750 40087 81100 333 59014;
0168825830999992011061600004-05167-040667FM-12+029999999V0200901N001012200019N0040001N1+02351+01951101221ADDGF101991011001008001061001KA1240M+03231MA1999999097821MD1999999-0091REMSYN088AAXX  16004 82583 32596 10902 10235 20195 39782 40122 81060 333 10323 29070 55104 59009;
0156825830999992011061612004-05167-040667FM-12+029999999V0201401N005712200019N0500001N1+02591+01921101401ADDGF103991021011008001061001KA1240N+01831MA1999999098011MD1999999+0081REMSYN076AAXX  16124 82583 32599 31411 10259 20192 39801 40140 82160 333 20183 58008;
0137825830999992011061618004-05167-040667FM-12+029999999V0200901N004612200019N0500001N1+03171+01611100981ADDGF102991011011008001041001MA1999999097601MD1999999+0101REMSYN070AAXX  16184 82583 32599 20909 10317 20161 39760 40098 81140 333 58010;
0168825830999992011061700004-05167-040667FM-12+029999999V0200901N002112200019N0040001N1+02441+01861101191ADDGF102991011011008001031001KA1240M+03221MA1999999097811MD1999999-0011REMSYN088AAXX  17004 82583 32596 20904 10244 20186 39781 40119 81130 333 10322 29061 55087 59001;
0175825830999992011061712004-05167-040667FM-12+029999999V0201401N003619999999N0500001N1+02531+02111101321ADDGF106991999061008001001001KA1240N+02011MA1999999097931MD1999999-0081REMSYN076AAXX  17124 82583 32599 61407 10253 20211 39793 40132 83600 333 20201 59008;EQDQ01+000032SCOTLC
0137825830999992011061718004-05167-040667FM-12+029999999V0201401N003110075019N0200001N1+02981+02061101051ADDGF106991061051008001001001MA1999999097651MD1999999+0051REMSYN070AAXX  17184 82583 32598 61406 10298 20206 39765 40105 86500 333 58005;
0168825830999992011061800004-05167-040667FM-12+029999999V0201401N002110450019N0040001N1+02441+02111101321ADDGF105991041011008001031001KA1240M+03051MA1999999097931MD1999999+0121REMSYN088AAXX  18004 82583 32596 51404 10244 20211 39793 40132 84130 333 10305 29075 55034 58012;
0220825830999992011061812004-05167-040667FM-12+029999999V0201401N003110075019N0500001N1+02441+02171101401ADDAA124000091AY151061AY251061GF107991071051008001999999KA1240N+02201MA1999999098001MD1999999+0071MW1021REMSYN088AAXX  18124 82583 21599 71406 10244 20217 39800 40140 70255 875// 333 20220 58007 69924;EQDQ01  00002PRCP24
0182825830999992011061818004-05167-040667FM-12+029999999V0202701N001510120019N0500001N1+02791+02271101011ADDAA106000021AY121061AY221061GF106991061081008001001001MA1999999097631MD1999999-0021MW1211REMSYN082AAXX  18184 82583 21599 62703 10279 20227 39763 40101 72122 86800 333 59002 69911;
0168825830999992011061900004-05167-040667FM-12+029999999V0201801N000510075019N0040001N1+02561+02151101141ADDGF105991051011008001001001KA1240M+03091MA1999999097761MD1999999+0171REMSYN088AAXX  19004 82583 32596 51801 10256 20215 39776 40114 85100 333 10309 29059 55029 58017;
0173825830999992011061912004-05167-040667FM-12+029999999V0201401N002610075019N0500001N1+02591+02211101241ADDAA124001091GF106991061051008001001001KA1240N+02151MA1999999097861MD1999999+0141REMSYN082AAXX  19124 82583 22599 61405 10259 20221 39786 40124 86500 333 20215 58014 60014;
0137825830999992011061918004-05167-040667FM-12+029999999V0200901N003110075019N0500001N1+03141+02041100881ADDGF105991051021008001001001MA1999999097521MD1999999-0111REMSYN070AAXX  19184 82583 32599 50906 10314 20204 39752 40088 85200 333 59011;
0178825830999992011062000004-05167-040667FM-12+029999999V0200501N001012200019N0040001N1+02521+02171101171ADDGA1001+999999999GF100991001001999999001001KA1240M+03271MA1999999097791MD1999999+0031REMSYN082AAXX  20004 82583 32996 00502 10252 20217 39779 40117 333 10327 29073 55068 58003;
0156825830999992011062012004-05167-040667FM-12+029999999V0201401N004610075019N0500001N1+02401+02151101341ADDGF108991081051008001999999KA1240N+02181MA1999999097901MD1999999+0081REMSYN076AAXX  20124 82583 32599 81409 10240 20215 39790 40134 885// 333 20218 58008;
0137825830999992011062018004-05167-040667FM-12+029999999V0201401N004610120019N0500001N1+03131+01871100921ADDGF107991061081008001071001MA1999999097561MD1999999+0041REMSYN070AAXX  20184 82583 32599 71409 10313 20187 39756 40092 86870 333 58004;
0178825830999992011062100004-05167-040667FM-12+029999999V0209999C000012200019N0040001N1+02361+02171101201ADDGA1001+999999999GF100991001001999999001001KA1240M+03261MA1999999097801MD1999999+0051REMSYN082AAXX  21004 82583 32996 01800 10236 20217 39780 40120 333 10326 29070 55048 58005;
0194825830999992011062112004-05167-040667FM-12+029999999V0200701N002612200019N0200001N1+01901+01291999999ADDGA1001+999999999GF100991001001999999001001KA1240N+01351MA1999999999999MD1999999-0041ME1315609REMSYN070AAXX  21124 82583 32970 00705 10190 20129 39294 48560 333 20135 59004;EQDQ01 092943APOSP 
0156825830999992011062118004-05167-040667FM-12+029999999V0201401N003112200019N0500001N1+03251+01721100981ADDGF101991011011008001001001MA1999999097612MD1999999+0051REMSYN070AAXX  21184 82583 32599 11406 10325 20172 39761 40098 81100 333 58005;EQDQ01+097613APOSP 
0168825830999992011062200004-05167-040667FM-12+029999999V0200901N002112200019N0040001N1+02501+02001101271ADDGF102991021011008001001001KA1240M+03291MA1999999097891MD1999999+0091REMSYN088AAXX  22004 82583 32596 20904 10250 20200 39789 40127 82100 333 10329 29065 55012 58009;
0156825830999992011062212004-05167-040667FM-12+029999999V0201401N003112200019N0500001N1+02681+02061101441ADDGF104991041011008001001001KA1240N+02041MA1999999098061MD1999999+0131REMSYN076AAXX  22124 82583 32599 41406 10268 20206 39806 40144 84100 333 20204 58013;
0137825830999992011062218004-05167-040667FM-12+029999999V0200901N004110075019N0500001N1+03131+01941101091ADDGF106991061021008001001001MA1999999097731MD1999999+0121REMSYN070AAXX  22184 82583 32599 60908 10313 20194 39773 40109 86200 333 58012;
0168825830999992011062300004-05167-040667FM-12+029999999V0201801N001012200019N0040001N1+02551+02151101301ADDGF101991011011008001001001KA1240M+03181MA1999999097921MD1999999+0031REMSYN088AAXX  23004 82583 32596 11802 10255 20215 39792 40130 81100 333 10318 29080 55078 58003;
0156825830999992011062312004-05167-040667FM-12+029999999V0200901N003110120019N0500001N1+02611+02141101361ADDGF107991061081008001031001KA1240N+02121MA1999999097981MD1999999-0081REMSYN076AAXX  23124 82583 32599 70906 10261 20214 39798 40136 86830 333 20212 59008;
0137825830999992011062318004-05167-040667FM-12+029999999V0200501N002110075019N0500001N1+02971+02121101021ADDGF106991061021008001001001MA1999999097651MD1999999-0081REMSYN070AAXX  23184 82583 32599 60504 10297 20212 39765 40102 86200 333 59008;
0232825830999992011062400004-05167-040667FM-12+029999999V0200901N001012200019N0040001N1+02411+02151101211ADDAA106000091AY101061AY251061GF101991011011008001001001KA1240M+03121MA1999999097831MD1999999-0091MW1031REMSYN100AAXX  24004 82583 21596 10902 10241 20215 39783 40121 70305 81100 333 10312 29076 55034 59009 69921;EQDQ01  00002PRCP06
0201825830999992011062412004-05167-040667FM-12+029999999V0201401N004110075019N0500001N1+02381+02241101371ADDAA124011991AY161061AY261061GF106991051051008001031001KA1240N+02211MA1999999097971MD1999999-0011MW1031REMSYN088AAXX  24124 82583 21599 61408 10238 20224 39797 40137 70366 85530 333 20221 59001 60124;
0137825830999992011062418004-05167-040667FM-12+029999999V0200901N004610075019N0500001N1+03001+01911100891ADDGF106991061051008001001001MA1999999097531MD1999999-0121REMSYN070AAXX  24184 82583 32599 60909 10300 20191 39753 40089 86500 333 59012;
0168825830999992011062500004-05167-040667FM-12+029999999V0200901N001012200019N0040001N1+02431+02091101211ADDGF102991021051008001001001KA1240M+03091MA1999999097811MD1999999-0021REMSYN088AAXX  25004 82583 32596 20902 10243 20209 39781 40121 82500 333 10309 29076 55028 59002;
0156825830999992011062512004-05167-040667FM-12+029999999V0200901N002612200019N0500001N1+02531+02091101361ADDGF103991021021008001031001KA1240N+02081MA1999999097971MD1999999+0001REMSYN076AAXX  25124 82583 32599 30905 10253 20209 39797 40136 82230 333 20208 58000;
0137825830999992011062518004-05167-040667FM-12+029999999V0203201N002110075019N0500001N1+03141+02041100921ADDGF106991061011008001001001MA1999999097561MD1999999+0031REMSYN070AAXX  25184 82583 32599 63204 10314 20204 39756 40092 86100 333 58003;
0168825830999992011062600004-05167-040667FM-12+029999999V0209999C000010075019N0040001N1+02611+02161101191ADDGF105991051011008001001001KA1240M+03201MA1999999097821MD1999999+0011REMSYN088AAXX  26004 82583 32596 50900 10261 20216 39782 40119 85100 333 10320 29070 55057 58001;
0156825830999992011062612004-05167-040667FM-12+029999999V0201401N003612200019N0500001N1+02741+02501101301ADDGF101991011011008001001001KA1240N+02291MA1999999097941MD1999999-0031REMSYN076AAXX  26124 82583 32599 11407 10274 20250 39794 40130 81100 333 20229 59003;
0137825830999992011062618004-05167-040667FM-12+029999999V0201401N003112200019N0500001N1+03431+02041100741ADDGF104991041021008001001001MA1999999097411MD1999999-0151REMSYN070AAXX  26184 82583 32599 41406 10343 20204 39741 40074 84200 333 59015;
0178825830999992011062700004-05167-040667FM-12+029999999V0200901N001512200019N0040001N1+02581+02551101141ADDGA1001+999999999GF100991001001999999001001KA1240M+03471MA1999999097781MD1999999-0041REMSYN082AAXX  27004 82583 32996 00903 10258 20255 39778 40114 333 10347 29082 55097 59004;
0156825830999992011062712004-05167-040667FM-12+029999999V0200901N004610120019N0500001N1+02631+02051101331ADDGF106991061081008001001001KA1240N+02191MA1999999097951MD1999999+0011REMSYN076AAXX  27124 82583 32599 60909 10263 20205 39795 40133 86800 333 20219 58001;
0137825830999992011062718004-05167-040667FM-12+029999999V0200901N003112200019N0500001N1+03131+01801100861ADDGF103991031021008001001001MA1999999097511MD1999999+0101REMSYN070AAXX  27184 82583 32599 30906 10313 20180 39751 40086 83200 333 58010;
0178825830999992011062800004-05167-040667FM-12+029999999V0200901N002112200019N0040001N1+02421+01971101281ADDGA1001+999999999GF100991001001999999001001KA1240M+03271MA1999999097891MD1999999+0111REMSYN082AAXX  28004 82583 32996 00904 10242 20197 39789 40128 333 10327 29068 55061 58011;
0156825830999992011062812004-05167-040667FM-12+029999999V0200901N004112200019N0500001N1+02591+02121101421ADDGF104991041021008001001001KA1240N+01981MA1999999098031MD1999999+0081REMSYN076AAXX  28124 82583 32599 40908 10259 20212 39803 40142 84200 333 20198 58008;
0137825830999992011062818004-05167-040667FM-12+029999999V0200901N003610075019N0500001N1+03141+01941100941ADDGF106991061021008001001001MA1999999097571MD1999999+0061REMSYN070AAXX  28184 82583 32599 60907 10314 20194 39757 40094 86200 333 58006;
0178825830999992011062900004-05167-040667FM-12+029999999V0200901N001512200019N0040001N1+02491+02131101221ADDGA1001+999999999GF100991001001999999001001KA1240M+03221MA1999999097841MD1999999-0051REMSYN082AAXX  29004 82583 32996 00903 10249 20213 39784 40122 333 10322 29071 55078 59005;
0156825830999992011062912004-05167-040667FM-12+029999999V0200901N002612200019N0500001N1+02541+02091101381ADDGF102991021011008001001001KA1240N+02071MA1999999097991MD1999999-0041REMSYN076AAXX  29124 82583 32599 20905 10254 20209 39799 40138 82100 333 20207 59004;
0137825830999992011062918004-05167-040667FM-12+029999999V0200901N005710075019N0500001N1+03151+01711100961ADDGF105991051011008001001001MA1999999097591MD1999999+0021REMSYN070AAXX  29184 82583 32599 50911 10315 20171 39759 40096 85100 333 58002;
0178825830999992011063000004-05167-040667FM-12+029999999V0200901N002112200019N0040001N1+02631+02091101111ADDGA1001+999999999GF100991001001999999001001KA1240M+03301MA1999999097741MD1999999-0101REMSYN082AAXX  30004 82583 32996 00904 10263 20209 39774 40111 333 10330 29066 55079 59010;
0156825830999992011063012004-05167-040667FM-12+029999999V0201401N003112200019N0500001N1+02671+01991101311ADDGF103991021011008001061001KA1240N+02211MA1999999097941MD1999999-0051REMSYN076AAXX  30124 82583 32599 31406 10267 20199 39794 40131 82160 333 20221 59005;
0137825830999992011063018004-05167-040667FM-12+029999999V0200901N004612200019N0500001N1+03271+01781100831ADDGF103991031011008001001001MA1999999097751MD1999999-0101REMSYN070AAXX  30184 82583 32599 30909 10327 20178 39775 40083 83100 333 59010;
0178825830999992011070100004-05167-040667FM-12+029999999V0200901N000512200019N0040001N1+02511+02051101121ADDGA1001+999999999GF100991001001999999001001KA1240M+03321MA1999999097751MD1999999+0011REMSYN082AAXX  01004 82583 32996 00901 10251 20205 39775 40112 333 10332 29064 55088 58001;
0156825830999992011070112004-05167-040667FM-12+029999999V0200901N005110075019N0500001N1+02541+01881101311ADDGF106991061021008001001001KA1240N+02131MA1999999097911MD1999999-0031REMSYN076AAXX  01124 82583 32599 60910 10254 20188 39791 40131 86200 333 20213 59003;
0137825830999992011070118004-05167-040667FM-12+029999999V0201401N005112200019N0500001N1+03121+01521100871ADDGF102991021011008001001001MA1999999097521MD1999999+0031REMSYN070AAXX  01184 82583 32599 21410 10312 20152 39752 40087 82100 333 58003;
0178825830999992011070200004-05167-040667FM-12+029999999V0200901N002112200019N0040001N1+02351+01761101151ADDGA1001+999999999GF100991001001999999001001KA1240M+03241MA1999999097761MD1999999+0011REMSYN082AAXX  02004 82583 32996 00904 10235 20176 39776 40115 333 10324 29061 55102 58001;
0156825830999992011070212004-05167-040667FM-12+029999999V0201401N005112200019N0500001N1+02531+01711101301ADDGF101991011001017501041001KA1240N+01851MA1999999097901MD1999999-0011REMSYN076AAXX  02124 82583 32799 11410 10253 20171 39790 40130 81040 333 20185 59001;
0137825830999992011070218004-05167-040667FM-12+029999999V0200901N003612200019N0500001N1+03281+01621100851ADDGF102991021011008001001001MA1999999097491MD1999999-0031REMSYN070AAXX  02184 82583 32599 20907 10328 20162 39749 40085 82100 333 59003;
0178825830999992011070300004-05167-040667FM-12+029999999V0201401N001512200019N0040001N1+02541+01781101071ADDGA1001+999999999GF100991001001999999001001KA1240M+03331MA1999999097691MD1999999-0071REMSYN082AAXX  03004 82583 32996 01403 10254 20178 39769 40107 333 10333 29056 55094 59007;
0156825830999992011070312004-05167-040667FM-12+029999999V0200901N006712200019N0500001N1+02671+01781101181ADDGF101991011011008001001001KA1240N+01971MA1999999097811MD1999999-0091REMSYN076AAXX  03124 82583 32599 10913 10267 20178 39781 40118 81100 333 20197 59009;
0137825830999992011070318004-05167-040667FM-12+029999999V0200901N003112200019N0500001N1+03281+01821100791ADDGF102991021011008001001001MA1999999097451MD1999999-0041REMSYN070AAXX  03184 82583 32599 20906 10328 20182 39745 40079 82100 333 59004;
0178825830999992011070400004-05167-040667FM-12+029999999V0200901N001512200019N0040001N1+02531+01911101071ADDGA1001+999999999GF100991001001999999001001KA1240M+02711MA1999999097701MD1999999-0011REMSYN082AAXX  04004 82583 32996 00903 10253 20191 39770 40107 333 10271 29059 55102 59001;
0156825830999992011070412004-05167-040667FM-12+029999999V0200901N002612200019N0500001N1+02691+02011101291ADDGF104991031011008001031001KA1240N+02031MA1999999097911MD1999999+0101REMSYN076AAXX  04124 82583 32599 40905 10269 20201 39791 40129 83130 333 20203 58010;
0137825830999992011070418004-05167-040667FM-12+029999999V0201401N003112200019N0500001N1+03301+01761100741ADDGF103991031011008001001001MA1999999097451MD1999999+0001REMSYN070AAXX  04184 82583 32599 31406 10330 20176 39745 40074 83100 333 58000;
0213825830999992011070500004-05167-040667FM-12+029999999V0200901N000512200019N0040001N1+02521+01981101151ADDGA1001+999999999GF100991001001999999001001KA1240M+03371MA1999999097781MD1999999+0081REMSYN082AAXX  05004 82583 32996 00901 10252 20198 39778 40115 333 10337 29062 55083 58008;EQDQ01+000002SCOTCVQ02    993SCOTCV
0156825830999992011070512004-05167-040667FM-12+029999999V0200901N003110120019N0500001N1+02511+01981101421ADDGF108991081081008001999999KA1240N+01951MA1999999098031MD1999999+0121REMSYN076AAXX  05124 82583 32599 80906 10251 20198 39803 40142 888// 333 20195 58012;
0137825830999992011070518004-05167-040667FM-12+029999999V0201401N003110120019N0500001N1+03001+02081101091ADDGF108991081081008001999999MA1999999097721MD1999999+0271REMSYN070AAXX  05184 82583 32599 81406 10300 20208 39772 40109 888// 333 58027;
0232825830999992011070600004-05167-040667FM-12+029999999V0200901N001510075019N0040001N1+02481+02301101381ADDAA106000091AY151061AY251061GF108991081051008001999999KA1240M+03051MA1999999097991MD1999999+0211MW1021REMSYN100AAXX  06004 82583 21596 80903 10248 20230 39799 40138 70255 885// 333 10305 29078 55031 58021 69921;EQDQ01  00002PRCP06
0201825830999992011070612004-05167-040667FM-12+029999999V0200901N002610450019N0500001N1+02531+02231101451ADDAA124000591AY151061AY251061GF105991041011008001031001KA1240N+02221MA1999999098061MD1999999+0031MW1031REMSYN088AAXX  06124 82583 21599 50905 10253 20223 39806 40145 70355 84130 333 20222 58003 69964;
0137825830999992011070618004-05167-040667FM-12+029999999V0201401N002110075019N0500001N1+03011+02101101051ADDGF106991051021008001031001MA1999999097691MD1999999-0031REMSYN070AAXX  06184 82583 32599 61404 10301 20210 39769 40105 85230 333 59003;
0168825830999992011070700004-05167-040667FM-12+029999999V0201801N001010075019N0040001N1+02531+02171101291ADDGF106991061011008001001001KA1240M+03131MA1999999097911MD1999999-0081REMSYN088AAXX  07004 82583 32596 61802 10253 20217 39791 40129 86100 333 10313 29075 55039 59008;
0156825830999992011070712004-05167-040667FM-12+029999999V0201401N001510075019N0500001N1+02521+02231101351ADDGF106991061021008001001001KA1240N+02141MA1999999097961MD1999999-0101REMSYN076AAXX  07124 82583 32599 61403 10252 20223 39796 40135 86200 333 20214 59010;
0137825830999992011070718004-05167-040667FM-12+029999999V0200501N004610075019N0500001N1+03041+02061100921ADDGF105991051021008001001001MA1999999097561MD1999999-0131REMSYN070AAXX  07184 82583 32599 50509 10304 20206 39756 40092 85200 333 59013;
0168825830999992011070800004-05167-040667FM-12+029999999V0200901N001512200019N0040001N1+02631+02161101151ADDGF102991011011008001041001KA1240M+03271MA1999999097781MD1999999-0131REMSYN088AAXX  08004 82583 32596 20903 10263 20216 39778 40115 81140 333 10327 29072 55080 59013;
0156825830999992011070812004-05167-040667FM-12+029999999V0200901N004610075019N0500001N1+02641+02161101391ADDGF106991061011008001001001KA1240N+02331MA1999999098011MD1999999+0051REMSYN076AAXX  08124 82583 32599 60909 10264 20216 39801 40139 86100 333 20233 58005;
0182825830999992011070818004-05167-040667FM-12+029999999V0200901N002112200019N0500001N1+02931+02161100921ADDAA106000591AY111061AY221061GF102991021021008001001001MA1999999097561MD1999999+0001MW1211REMSYN082AAXX  08184 82583 21599 20904 10293 20216 39756 40092 72112 82200 333 58000 69961;
0168825830999992011070900004-05167-040667FM-12+029999999V0203601N002112200019N0040001N1+03201+02231101371ADDGF104991041011008001001001KA1240M+03201MA1999999097991MD1999999+0211REMSYN088AAXX  09004 82583 32596 43604 10320 20223 39799 40137 84100 333 10320 29079 55056 58021;
0201825830999992011070912004-05167-040667FM-12+029999999V0200901N001010075019N0100001N1+02191+02171101541ADDAA124007991AY121061AY221061GF108991081051008001999999KA1240N+02171MA1999999098121MD1999999+0111MW1631REMSYN088AAXX  09124 82583 21597 80902 10219 20217 39812 40154 76322 885// 333 20217 58011 60084;
0182825830999992011070918004-05167-040667FM-12+029999999V0200901N005110450019N0500001N1+03011+02021101041ADDAA106000591AY151061AY251061GF105991041021008001031001MA1999999097681MD1999999+0121MW1151REMSYN082AAXX  09184 82583 21599 50910 10301 20202 39768 40104 71555 84230 333 58012 69941;
0232825830999992011071000004-05167-040667FM-12+029999999V0203201N001510075019N0040001N1+02341+02261101501ADDAA106000091AY121061AY221061GF106991061051008001001001KA1240M+03151MA1999999098071MD1999999+0081MW1021REMSYN100AAXX  10004 82583 21596 63203 10234 20226 39807 40150 70222 86500 333 10315 29086 55035 58008 69911;EQDQ01  00002PRCP06
0173825830999992011071012004-05167-040667FM-12+029999999V0201401N003612200019N0500001N1+02531+01811101581ADDAA124000591GF104991031021008001031001KA1240N+02141MA1999999098181MD1999999+0061REMSYN082AAXX  10124 82583 22599 41407 10253 20181 39818 40158 83230 333 20214 58006 69954;
0137825830999992011071018004-05167-040667FM-12+029999999V0200901N006712200019N0500001N1+03191+01591101121ADDGF103991031011008001001001MA1999999097761MD1999999+0081REMSYN070AAXX  10184 82583 32599 30913 10319 20159 39776 40112 83100 333 58008;
0178825830999992011071100004-05167-040667FM-12+029999999V0200901N000512200019N0040001N1+02501+01981101371ADDGA1001+999999999GF100991001001999999001001KA1240M+03251MA1999999097981MD1999999-0091REMSYN082AAXX  11004 82583 32996 00901 10250 20198 39798 40137 333 10325 29062 55083 59009;
0156825830999992011071112004-05167-040667FM-12+029999999V0201401N005112200019N0500001N1+02651+01951101441ADDGF101991011011008001001001KA1240N+02141MA1999999098061MD1999999-0121REMSYN076AAXX  11124 82583 32599 11410 10265 20195 39806 40144 81100 333 20214 59012;
0137825830999992011071118004-05167-040667FM-12+029999999V0200901N004610075019N0500001N1+02971+01981101111ADDGF108991071051008001041999MA1999999097751MD1999999-0011REMSYN070AAXX  11184 82583 32599 80909 10297 20198 39775 40111 8754/ 333 59001;
0168825830999992011071200004-05167-040667FM-12+029999999V0200901N002110075019N0040001N1+02511+02071101291ADDGF106991051021008001051001KA1240M+03191MA1999999097911MD1999999-0071REMSYN088AAXX  12004 82583 32596 60904 10251 20207 39791 40129 85250 333 10319 29068 55073 59007;
0201825830999992011071212004-05167-040667FM-12+029999999V0201801N003110075019N0500001N1+02291+02181101491ADDAA124000591AY151061AY251061GF108991081071008001999999KA1240N+02141MA1999999098081MD1999999+0021MW1501REMSYN088AAXX  12124 82583 21599 81806 10229 20218 39808 40149 75055 887// 333 20214 58002 69954;
0137825830999992011071218004-05167-040667FM-12+029999999V0201401N003610075019N0500001N1+02851+02061101021ADDGF105991051021008001001001MA1999999097641MD1999999-0111REMSYN070AAXX  12184 82583 32599 51407 10285 20206 39764 40102 85200 333 59011;
0168825830999992011071300004-05167-040667FM-12+029999999V0203601N002610075019N0040001N1+02461+02231101351ADDGF108991081051008001999999KA1240M+03031MA1999999097951MD1999999+0041REMSYN088AAXX  13004 82583 32596 83605 10246 20223 39795 40135 885// 333 10303 29082 55019 58004;
0201825830999992011071312004-05167-040667FM-12+029999999V0201401N003110120019N0500001N1+02271+02181101461ADDAA124006191AY161061AY261061GF108991081081008001999999KA1240N+02121MA1999999098041MD1999999-0041MW1031REMSYN088AAXX  13124 82583 21599 81406 10227 20218 39804 40146 70366 888// 333 20212 59004 60064;
0137825830999992011071318004-05167-040667FM-12+029999999V0201401N005710120019N0500001N1+02741+02021101031ADDGF107991061081008001051001MA1999999097651MD1999999+0011REMSYN070AAXX  13184 82583 32599 71411 10274 20202 39765 40103 86850 333 58001;
0168825830999992011071400004-05167-040667FM-12+029999999V0200901N001512200019N0040001N1+02331+02031101291ADDGF104991031011008001031011KA1240M+02861MA1999999097881MD1999999-0071REMSYN088AAXX  14004 82583 32596 40903 10233 20203 39788 40129 83131 333 10286 29082 55021 59007;
0156825830999992011071412004-05167-040667FM-12+029999999V0201401N006712200019N0500001N1+02431+01861101331ADDGF103991021011008001031001KA1240N+01911MA1999999097931MD1999999-0111REMSYN076AAXX  14124 82583 32599 31413 10243 20186 39793 40133 82130 333 20191 59011;
0137825830999992011071418004-05167-040667FM-12+029999999V0201401N005112200019N0500001N1+03021+01921100871ADDGF103991031011008001001001MA1999999097491MD1999999-0161REMSYN070AAXX  14184 82583 32599 31410 10302 20192 39749 40087 83100 333 59016;
0168825830999992011071500004-05167-040667FM-12+029999999V0200901N001512200019N0040001N1+02381+01991101251ADDGF102991021001008001061001KA1240M+03141MA1999999097851MD1999999-0031REMSYN088AAXX  15004 82583 32596 20903 10238 20199 39785 40125 82060 333 10314 29070 55097 59003;
0156825830999992011071512004-05167-040667FM-12+029999999V0200901N003612200019N0500001N1+02571+02061101331ADDGF102991011011008001001011KA1240N+01891MA1999999097941MD1999999+0011REMSYN076AAXX  15124 82583 32599 20907 10257 20206 39794 40133 81101 333 20189 58001;
0137825830999992011071518004-05167-040667FM-12+029999999V0201401N003112200019N0500001N1+03161+01551100941ADDGF101991011011008001001001MA1999999097561MD1999999+0071REMSYN070AAXX  15184 82583 32599 11406 10316 20155 39756 40094 81100 333 58007;
0168825830999992011071600004-05167-040667FM-12+029999999V0200901N002119999999N0040001N1+02431+01641101301ADDGF106991061001008001031001KA1240M+03241MA1999999097911MD1999999+0061REMSYN088AAXX  16004 82583 32596 60904 10243 20164 39791 40130 86030 333 10324 29058 55102 58006;
0156825830999992011071612004-05167-040667FM-12+029999999V0201401N000510075019N0500001N1+02271+01901101541ADDGF106991061051008001001001KA1240N+01901MA1999999098121MD1999999+0181REMSYN076AAXX  16124 82583 32599 61401 10227 20190 39812 40154 86500 333 20190 58018;
0137825830999992011071618004-05167-040667FM-12+029999999V0200501N002610075019N0500001N1+02731+02101101261ADDGF107991071051008001001001MA1999999097851MD1999999+0291REMSYN070AAXX  16184 82583 32599 70505 10273 20210 39785 40126 87500 333 58029;
0168825830999992011071700004-05167-040667FM-12+029999999V0203201N001512200019N0040001N1+02291+02091101441ADDGF103991031001008001051001KA1240M+02811MA1999999098021MD1999999+0111REMSYN088AAXX  17004 82583 32596 33203 10229 20209 39802 40144 83050 333 10281 29081 55006 58011;
0156825830999992011071812004-05167-040667FM-12+029999999V0201401N003612200019N0500001N1+02481+01961101441ADDGF104991041011008001001001KA1240N+01831MA1999999098041MD1999999-0101REMSYN076AAXX  18124 82583 32599 41407 10248 20196 39804 40144 84100 333 20183 59010;
0156825830999992011071818004-05167-040667FM-12+029999999V0201801N001519999999N0500001N1+03211+01771100971ADDGF106991999051008001001011MA1999999097601MD1999999-0111REMSYN070AAXX  18184 82583 32599 61803 10321 20177 39760 40097 88501 333 59011;EQDQ01+000082SCOTLC
0168825830999992011071900004-05167-040667FM-12+029999999V0200901N001012200019N0040001N1+02451+02011101311ADDGF101991011011008001001001KA1240M+03311MA1999999097911MD1999999+0041REMSYN088AAXX  19004 82583 32596 10902 10245 20201 39791 40131 81100 333 10331 29067 55075 58004;
0156825830999992011071912004-05167-040667FM-12+029999999V0200901N001512200019N0500001N1+02391+02091101451ADDGF102991021011008001001001KA1240N+01951MA1999999098051MD1999999+0011REMSYN076AAXX  19124 82583 32599 20903 10239 20209 39805 40145 82100 333 20195 58001;
0137825830999992011071918004-05167-040667FM-12+029999999V0201401N003112200019N0500001N1+03271+01861101001ADDGF104991041021008001001001MA1999999097641MD1999999+0041REMSYN070AAXX  19184 82583 32599 41406 10327 20186 39764 40100 84200 333 58004;
0178825830999992011072000004-05167-040667FM-12+029999999V0200901N002112200019N0040001N1+02571+02011101291ADDGA1001+999999999GF100991001001999999001001KA1240M+03351MA1999999097901MD1999999-0011REMSYN082AAXX  20004 82583 32996 00904 10257 20201 39790 40129 333 10335 29067 55075 59001;
0201825830999992011072012004-05167-040667FM-12+029999999V0201401N004610450019N0500001N1+02481+01941101431ADDAA124001091AY161061AY261061GF105991041011008001061001KA1240N+02121MA1999999098041MD1999999-0011MW1031REMSYN088AAXX  20124 82583 21599 51409 10248 20194 39804 40143 70366 84160 333 20212 59001 60014;
0137825830999992011072018004-05167-040667FM-12+029999999V0201401N002112200019N0500001N1+03231+01781101031ADDGF103991031021008001001001MA1999999097671MD1999999+0031REMSYN070AAXX  20184 82583 32599 31404 10323 20178 39767 40103 83200 333 58003;
0178825830999992011072100004-05167-040667FM-12+029999999V0200901N001512200019N0040001N1+02481+01901101371ADDGA1001+999999999GF100991001001999999001001KA1240M+03311MA1999999097981MD1999999+0081REMSYN082AAXX  21004 82583 32996 00903 10248 20190 39798 40137 333 10331 29063 55075 58008;
0156825830999992011072112004-05167-040667FM-12+029999999V0200901N002610075019N0500001N1+02491+02001101491ADDGF106991061021008001001001KA1240N+02031MA1999999098091MD1999999+0051REMSYN076AAXX  21124 82583 32599 60905 10249 20200 39809 40149 86200 333 20203 58005;
0137825830999992011072118004-05167-040667FM-12+029999999V0201401N002112200019N0500001N1+03231+01631101061ADDGF103991031011008001001001MA1999999097691MD1999999+0021REMSYN070AAXX  21184 82583 32599 31404 10323 20163 39769 40106 83100 333 58002;
0178825830999992011072200004-05167-040667FM-12+029999999V0200901N001512200019N0040001N1+02511+01841101401ADDGA1001+999999999GF100991001001999999001001KA1240M+03291MA1999999098011MD1999999+0031REMSYN082AAXX  22004 82583 32996 00903 10251 20184 39801 40140 333 10329 29061 55083 58003;
0156825830999992011072212004-05167-040667FM-12+029999999V0201401N004612200019N0500001N1+02661+01741101501ADDGF101991011011008001001001KA1240N+01861MA1999999098121MD1999999+0031REMSYN076AAXX  22124 82583 32599 11409 10266 20174 39812 40150 81100 333 20186 58003;
0137825830999992011072218004-05167-040667FM-12+029999999V0201401N003112200019N0500001N1+03241+01861101081ADDGF104991041011008001001001MA1999999097701MD1999999+0011REMSYN070AAXX  22184 82583 32599 41406 10324 20186 39770 40108 84100 333 58001;
0178825830999992011072300004-05167-040667FM-12+029999999V0200901N002112200019N0040001N1+02511+01841101341ADDGA1001+999999999GF100991001001999999001001KA1240M+03411MA1999999097961MD1999999-0051REMSYN082AAXX  23004 82583 32996 00904 10251 20184 39796 40134 333 10341 29058 55090 59005;
0175825830999992011072312004-05167-040667FM-12+029999999V0201401N003612200019N0500001N1+02671+01811101451ADDGF102991999011008001001001KA1240N+01911MA1999999098071MD1999999-0051REMSYN076AAXX  23124 82583 32599 21407 10267 20181 39807 40145 81100 333 20191 59005;EQDQ01+000012SCOTLC
0137825830999992011072318004-05167-040667FM-12+029999999V0201401N005112200019N0500001N1+03191+01891101191ADDGF104991041011008001001001MA1999999097821MD1999999+0121REMSYN070AAXX  23184 82583 32599 41410 10319 20189 39782 40119 84100 333 58012;
0178825830999992011072400004-05167-040667FM-12+029999999V0201801N001512200019N0040001N1+02481+01921101501ADDGA1001+999999999GF100991001001999999001001KA1240M+03261MA1999999098121MD1999999+0161REMSYN082AAXX  24004 82583 32996 01803 10248 20192 39812 40150 333 10326 29062 55109 58016;
0156825830999992011072412004-05167-040667FM-12+029999999V0201401N006710075019N0500001N1+02531+01711101661ADDGF105991051011008001001001KA1240N+01961MA1999999098261MD1999999+0191REMSYN076AAXX  24124 82583 32599 51413 10253 20171 39826 40166 85100 333 20196 58019;
0137825830999992011072418004-05167-040667FM-12+029999999V0201401N005710075019N0500001N1+02991+01641101351ADDGF106991061011008001001001MA1999999097961MD1999999+0141REMSYN070AAXX  24184 82583 32599 61411 10299 20164 39796 40135 86100 333 58014;
0168825830999992011072500004-05167-040667FM-12+029999999V0200901N002112200019N0040001N1+02361+01731101531ADDGF101991011001017501001011KA1240M+03111MA1999999098131MD1999999+0011REMSYN088AAXX  25004 82583 32796 10904 10236 20173 39813 40153 81001 333 10311 29060 55102 58001;
0156825830999992011072512004-05167-040667FM-12+029999999V0201401N006710075019N0500001N1+02591+01791101471ADDGF105991051011008001001001KA1240N+02041MA1999999098071MD1999999-0191REMSYN076AAXX  25124 82583 32599 51413 10259 20179 39807 40147 85100 333 20204 59019;
0137825830999992011072518004-05167-040667FM-12+029999999V0201401N005112200019N0500001N1+03131+01581101051ADDGF102991011011008001041001MA1999999097681MD1999999-0281REMSYN070AAXX  25184 82583 32599 21410 10313 20158 39768 40105 81140 333 59028;
0178825830999992011072600004-05167-040667FM-12+029999999V0200901N002112200019N0040001N1+02621+01831101321ADDGA1001+999999999GF100991001001999999001001KA1240M+03201MA1999999097941MD1999999-0191REMSYN082AAXX  26004 82583 32996 00904 10262 20183 39794 40132 333 10320 29056 55106 59019;
0156825830999992011072612004-05167-040667FM-12+029999999V0201401N005712200019N0500001N1+02521+01661101451ADDGF104991031011008001031001KA1240N+02061MA1999999098071MD1999999+0001REMSYN076AAXX  26124 82583 32599 41411 10252 20166 39807 40145 83130 333 20206 58000;
0137825830999992011072618004-05167-040667FM-12+029999999V0201401N006212200019N0500001N1+03151+01431100921ADDGF102991011011008001031001MA1999999097551MD1999999-0131REMSYN070AAXX  26184 82583 32599 21412 10315 20143 39755 40092 81130 333 59013;
0178825830999992011072700004-05167-040667FM-12+029999999V0200901N002112200019N0040001N1+02431+01691101301ADDGA1001+999999999GF100991001001999999001001KA1240M+03231MA1999999097911MD1999999-0031REMSYN082AAXX  27004 82583 32996 00904 10243 20169 39791 40130 333 10323 29055 55085 59003;
0166825830999992011072712004-05167-040667FM-12+029999999V0201401N004612200019N0500001N1+02431+01531101401ADDGA1001+999999999GF100991001001999999001001KA1240N+01771MA1999999098001MD1999999-0071REMSYN070AAXX  27124 82583 32999 01409 10243 20153 39800 40140 333 20177 59007;
0147825830999992011072718004-05167-040667FM-12+029999999V0201401N004612200019N0500001N1+03191+01171100901ADDGA1001+999999999GF100991001001999999001001MA1999999097531MD1999999-0021REMSYN064AAXX  27184 82583 32999 01409 10319 20117 39753 40090 333 59002;
0178825830999992011072800004-05167-040667FM-12+029999999V0200901N000512200019N0040001N1+02441+01641101191ADDGA1001+999999999GF100991001001999999001001KA1240M+03291MA1999999097801MD1999999-0111REMSYN082AAXX  28004 82583 32996 00901 10244 20164 39780 40119 333 10329 29052 55109 59011;
0156825830999992011072812004-05167-040667FM-12+029999999V0201401N004612200019N0500001N1+02561+01671101201ADDGF101991011011008001001001KA1240N+01721MA1999999097821MD1999999-0181REMSYN076AAXX  28124 82583 32599 11409 10256 20167 39782 40120 81100 333 20172 59018;
0137825830999992011072818004-05167-040667FM-12+029999999V0201401N004612200019N0500001N1+03291+01461100701ADDGF101991011011008001001001MA1999999097331MD1999999-0201REMSYN070AAXX  28184 82583 32599 11409 10329 20146 39733 40070 81100 333 59020;
0178825830999992011072900004-05167-040667FM-12+029999999V0200901N001512200019N0040001N1+02521+01661101141ADDGA1001+999999999GF100991001001999999001001KA1240M+03361MA1999999097761MD1999999-0041REMSYN082AAXX  29004 82583 32996 00903 10252 20166 39776 40114 333 10336 29052 55105 59004;
0156825830999992011072912004-05167-040667FM-12+029999999V0201401N003110120019N0500001N1+02521+01891101201ADDGF108991081081008001999999KA1240N+02021MA1999999097821MD1999999+0001REMSYN076AAXX  29124 82583 32599 81406 10252 20189 39782 40120 888// 333 20202 58000;
0137825830999992011072918004-05167-040667FM-12+029999999V0201401N003110075019N0500001N1+03181+01651100691ADDGF106991061021008001001001MA1999999097331MD1999999+0001REMSYN070AAXX  29184 82583 32599 61406 10318 20165 39733 40069 86200 333 58000;
0178825830999992011073000004-05167-040667FM-12+029999999V0200901N001512200019N0040001N1+02671+01731100951ADDGA1001+999999999GF100991001001999999001001KA1240M+03341MA1999999097581MD1999999-0181REMSYN082AAXX  30004 82583 32996 00903 10267 20173 39758 40095 333 10334 29055 55081 59018;
0156825830999992011073012004-05167-040667FM-12+029999999V0200901N004112200019N0500001N1+02631+01931101171ADDGF104991041011008001001001KA1240N+01961MA1999999097811MD1999999-0011REMSYN076AAXX  30124 82583 32599 40908 10263 20193 39781 40117 84100 333 20196 59001;
0137825830999992011073018004-05167-040667FM-12+029999999V0200901N006210075019N0500001N1+03261+01681100771ADDGF106991061051008001001001MA1999999097411MD1999999+0081REMSYN070AAXX  30184 82583 32599 60912 10326 20168 39741 40077 86500 333 58008;
0178825830999992011073100004-05167-040667FM-12+029999999V0201401N003112200019N0040001N1+02531+01811100941ADDGA1001+999999999GF100991001001999999001001KA1240M+03361MA1999999097571MD1999999-0011REMSYN082AAXX  31004 82583 32996 01406 10253 20181 39757 40094 333 10336 29058 55079 59001;
0156825830999992011073112004-05167-040667FM-12+029999999V0200901N002110075019N0500001N1+02571+02121101241ADDGF105991051051008001001001KA1240N+02051MA1999999097861MD1999999+0051REMSYN076AAXX  31124 82583 32599 50904 10257 20212 39786 40124 85500 333 20205 58005;
0137825830999992011073118004-05167-040667FM-12+029999999V0200901N003612200019N0500001N1+03131+01941100901ADDGF104991041021008001001001MA1999999097541MD1999999+0131REMSYN070AAXX  31184 82583 32599 40907 10313 20194 39754 40090 84200 333 58013;
0178825830999992011080100004-05167-040667FM-12+029999999V0200901N001512200019N0040001N1+02591+01961101031ADDGA1001+999999999GF100991001001999999001001KA1240M+03301MA1999999097661MD1999999+0091REMSYN082AAXX  01004 82583 32996 00903 10259 20196 39766 40103 333 10330 29065 55067 58009;
0201825830999992011080112004-05167-040667FM-12+029999999V0201401N001010075019N0500001N1+02271+02231101351ADDAA124004191AY161061AY261061GF107991071051008001999999KA1240N+02131MA1999999097951MD1999999+0091MW1031REMSYN088AAXX  01124 82583 21599 71402 10227 20223 39795 40135 70366 875// 333 20213 58009 60044;
0137825830999992011080118004-05167-040667FM-12+029999999V0201401N004612200019N0500001N1+03061+02021100861ADDGF104991041021008001001001MA1999999097501MD1999999-0041REMSYN070AAXX  01184 82583 32599 41409 10306 20202 39750 40086 84200 333 59004;
0178825830999992011080200004-05167-040667FM-12+029999999V0200901N001012200019N0040001N1+02601+02121101151ADDGA1001+999999999GF100991001001999999001001KA1240M+03201MA1999999097761MD1999999+0101REMSYN082AAXX  02004 82583 32996 00902 10260 20212 39776 40115 333 10320 29075 55024 58010;
0156825830999992011080212004-05167-040667FM-12+029999999V0200501N002110120019N0500001N1+02541+02211101311ADDGF108991081081008001999999KA1240N+02141MA1999999097931MD1999999-0021REMSYN076AAXX  02124 82583 32599 80504 10254 20221 39793 40131 888// 333 20214 59002;
0137825830999992011080218004-05167-040667FM-12+029999999V0200901N003112200019N0500001N1+03351+01651100791ADDGF102991021021008001001001MA1999999097461MD1999999-0041REMSYN070AAXX  02184 82583 32599 20906 10335 20165 39746 40079 82200 333 59004;
0178825830999992011080300004-05167-040667FM-12+029999999V0200501N002112200019N0040001N1+02621+01931101121ADDGA1001+999999999GF100991001001999999001001KA1240M+03441MA1999999097751MD1999999-0011REMSYN082AAXX  03004 82583 32996 00504 10262 20193 39775 40112 333 10344 29062 55089 59001;
0156825830999992011080312004-05167-040667FM-12+029999999V0200901N005110075019N0500001N1+02551+01971101511ADDGF105991051011008001001001KA1240N+01981MA1999999098131MD1999999+0201REMSYN076AAXX  03124 82583 32599 50910 10255 20197 39813 40151 85100 333 20198 58020;
0137825830999992011080318004-05167-040667FM-12+029999999V0200901N003612200019N0500001N1+03311+01821100991ADDGF102991021021008001001001MA1999999097651MD1999999+0191REMSYN070AAXX  03184 82583 32599 20907 10331 20182 39765 40099 82200 333 58019;
0187825830999992011080400004-05167-040667FM-12+029999999V0200901N002612200019N0040001N1+02641+01851101281ADDGF102991999011008001001001KA1240M+03391MA1999999097901MD1999999+0151REMSYN088AAXX  04004 82583 32596 20905 10264 20185 39790 40128 81100 333 10339 29059 55098 58015;EQDQ01+000012SCOTLC
0156825830999992011080412004-05167-040667FM-12+029999999V0200901N003110120019N0500001N1+02571+02011101601ADDGF106991061081008001001001KA1240N+02081MA1999999098211MD1999999+0081REMSYN076AAXX  04124 82583 32599 60906 10257 20201 39821 40160 86800 333 20208 58008;
0137825830999992011080418004-05167-040667FM-12+029999999V0200901N003612200019N0500001N1+03401+01721101041ADDGF102991021011008001001001MA1999999097701MD1999999+0051REMSYN070AAXX  04184 82583 32599 20907 10340 20172 39770 40104 82100 333 58005;
0178825830999992011080500004-05167-040667FM-12+029999999V0200901N002612200019N0040001N1+02591+01841101331ADDGA1001+999999999GF100991001001999999001001KA1240M+03401MA1999999097951MD1999999+0051REMSYN082AAXX  05004 82583 32996 00905 10259 20184 39795 40133 333 10340 29058 55086 58005;
0156825830999992011080512004-05167-040667FM-12+029999999V0200901N004110075019N0500001N1+02651+02071101561ADDGF106991061011008001001001KA1240N+02221MA1999999098171MD1999999-0041REMSYN076AAXX  05124 82583 32599 60908 10265 20207 39817 40156 86100 333 20222 59004;
0137825830999992011080518004-05167-040667FM-12+029999999V0201401N004112200019N0500001N1+03371+01661101121ADDGF104991041011008001001001MA1999999097781MD1999999+0081REMSYN070AAXX  05184 82583 32599 41408 10337 20166 39778 40112 84100 333 58008;
0168825830999992011080600004-05167-040667FM-12+029999999V0200901N003612200019N0040001N1+02591+01841101481ADDGF101991011011008001001001KA1240M+03451MA1999999098101MD1999999+0151REMSYN088AAXX  06004 82583 32596 10907 10259 20184 39810 40148 81100 333 10345 29058 55090 58015;
0156825830999992011080612004-05167-040667FM-12+029999999V0201401N005710075019N0500001N1+02701+01941101681ADDGF105991051011008001001001KA1240N+02071MA1999999098301MD1999999+0131REMSYN076AAXX  06124 82583 32599 51411 10270 20194 39830 40168 85100 333 20207 58013;
0137825830999992011080618004-05167-040667FM-12+029999999V0201401N003112200019N0500001N1+03301+01361101161ADDGF101991011011008001001001MA1999999097821MD1999999+0041REMSYN070AAXX  06184 82583 32599 11406 10330 20136 39782 40116 81100 333 58004;
0178825830999992011080700004-05167-040667FM-12+029999999V0201401N000512200019N0040001N1+02531+01711101451ADDGA1001+999999999GF100991001001999999001001KA1240M+03381MA1999999098071MD1999999-0031REMSYN082AAXX  07004 82583 32996 01401 10253 20171 39807 40145 333 10338 29053 55108 59003;
0156825830999992011080712004-05167-040667FM-12+029999999V0200901N004612200019N0500001N1+02581+01941101651ADDGF104991041011008001001001KA1240N+01881MA1999999098251MD1999999-0051REMSYN076AAXX  07124 82583 32599 40909 10258 20194 39825 40165 84100 333 20188 59005;
0137825830999992011080718004-05167-040667FM-12+029999999V0201401N003612200019N0500001N1+03171+01691101161ADDGF103991031011008001001001MA1999999097791MD1999999-0031REMSYN070AAXX  07184 82583 32599 31407 10317 20169 39779 40116 83100 333 59003;
0168825830999992011080800004-05167-040667FM-12+029999999V0200901N002612200019N0040001N1+02501+01641101411ADDGF101991011011008001001001KA1240M+03291MA1999999098031MD1999999-0041REMSYN088AAXX  08004 82583 32596 10905 10250 20164 39803 40141 81100 333 10329 29057 55096 59004;
0156825830999992011080812004-05167-040667FM-12+029999999V0200901N006212200019N0500001N1+02691+01631101571ADDGF101991011011008001001001KA1240N+01951MA1999999098181MD1999999-0071REMSYN076AAXX  08124 82583 32599 10912 10269 20163 39818 40157 81100 333 20195 59007;
0137825830999992011080818004-05167-040667FM-12+029999999V0201401N004612200019N0500001N1+03251+01511101061ADDGF101991011011008001001001MA1999999097701MD1999999-0091REMSYN070AAXX  08184 82583 32599 11409 10325 20151 39770 40106 81100 333 59009;
0178825830999992011080900004-05167-040667FM-12+029999999V0200901N001012200019N0040001N1+02571+01821101371ADDGA1001+999999999GF100991001001999999001001KA1240M+03321MA1999999097991MD1999999-0041REMSYN082AAXX  09004 82583 32996 00902 10257 20182 39799 40137 333 10332 29053 55110 59004;
0156825830999992011080912004-05167-040667FM-12+029999999V0201401N005712200019N0500001N1+02671+01641101461ADDGF102991011011008001011001KA1240N+01861MA1999999098081MD1999999-0101REMSYN076AAXX  09124 82583 32599 21411 10267 20164 39808 40146 81110 333 20186 59010;
0137825830999992011080918004-05167-040667FM-12+029999999V0201801N002112200019N0500001N1+03411+01611100901ADDGF102991021011008001001001MA1999999097541MD1999999-0161REMSYN070AAXX  09184 82583 32599 21804 10341 20161 39754 40090 82100 333 59016;
0178825830999992011081000004-05167-040667FM-12+029999999V0200901N001012200019N0040001N1+02691+01881101181ADDGA1001+999999999GF100991001001999999001001KA1240M+03531MA1999999097821MD1999999-0171REMSYN082AAXX  10004 82583 32996 00902 10269 20188 39782 40118 333 10353 29052 55108 59017;
0156825830999992011081012004-05167-040667FM-12+029999999V0201401N003612200019N0500001N1+02731+01871101371ADDGF101991011011008001001001KA1240N+02051MA1999999098001MD1999999-0081REMSYN076AAXX  10124 82583 32599 11407 10273 20187 39800 40137 81100 333 20205 59008;
0137825830999992011081018004-05167-040667FM-12+029999999V0201801N003112200019N0500001N1+03461+01691100821ADDGF102991021011008001001001MA1999999097491MD1999999-0051REMSYN070AAXX  10184 82583 32599 21806 10346 20169 39749 40082 82100 333 59005;
0168825830999992011081100004-05167-040667FM-12+029999999V0200501N001512200019N0040001N1+02841+01791101021ADDGF101991011011008001001001KA1240M+03621MA1999999097671MD1999999-0151REMSYN088AAXX  11004 82583 32596 10503 10284 20179 39767 40102 81100 333 10362 29050 55110 59015;
0156825830999992011081112004-05167-040667FM-12+029999999V0200301N001510075019N0500001N1+02621+02161101391ADDGF105991051011008001001001KA1240N+02291MA1999999098031MD1999999+0031REMSYN076AAXX  11124 82583 32599 50303 10262 20216 39803 40139 85100 333 20229 58003;
0195825830999992011081118004-05167-040667FM-12+029999999V0202301N002110075019N0500001N1+02851+02091100891ADDAA106005191AY101061AY231061GF106991061021008001001001MA1999999097531MD1999999+0041REMSYN082AAXX  11184 82583 21599 62304 10285 20209 39753 40089 76503 86200 333 58004 60051;EQDQ01+000652PRSWM1
0213825830999992011081200004-05167-040667FM-12+029999999V0201401N000512200019N0040001N1+02471+02301101141ADDAA106001091AY161061AY261061GF103991031011008001001011KA1240M+03511MA1999999097761MD1999999+0091MW1031REMSYN100AAXX  12004 82583 21596 31401 10247 20230 39776 40114 70366 83101 333 10351 29080 55086 58009 60011;
0173825830999992011081212004-05167-040667FM-12+029999999V0201401N004610075019N0500001N1+02471+01961101431ADDAA124007191GF106991061051008001001001KA1240N+02171MA1999999098031MD1999999+0001REMSYN082AAXX  12124 82583 22599 61409 10247 20196 39803 40143 86500 333 20217 58000 60074;
0156825830999992011081218004-05167-040667FM-12+029999999V0201401N002612200019N0500001N1+03281+01701100951ADDGF104991999011008001001001MA1999999097601MD1999999+0071REMSYN070AAXX  12184 82583 32599 41405 10328 20170 39760 40095 83100 333 58007;EQDQ01+000032SCOTLC
0178825830999992011081300004-05167-040667FM-12+029999999V0200901N001012200019N0040001N1+02541+01541101231ADDGA1001+999999999GF100991001001999999001001KA1240M+03341MA1999999097851MD1999999+0091REMSYN082AAXX  13004 82583 32996 00902 10254 20154 39785 40123 333 10334 29055 55090 58009;
0156825830999992011081312004-05167-040667FM-12+029999999V0200901N003612200019N0500001N1+02711+01771101411ADDGF102991021011008001001001KA1240N+01991MA1999999098031MD1999999+0001REMSYN076AAXX  13124 82583 32599 20907 10271 20177 39803 40141 82100 333 20199 58000;
0137825830999992011081318004-05167-040667FM-12+029999999V0200901N004610075019N0500001N1+03231+01581100871ADDGF106991061051008001001001MA1999999097511MD1999999-0091REMSYN070AAXX  13184 82583 32599 60909 10323 20158 39751 40087 86500 333 59009;
0168825830999992011081400004-05167-040667FM-12+029999999V0200901N001512200019N0040001N1+02711+01821101161ADDGF102991021011008001001001KA1240M+03371MA1999999097801MD1999999-0051REMSYN088AAXX  14004 82583 32596 20903 10271 20182 39780 40116 82100 333 10337 29052 55089 59005;
0156825830999992011081412004-05167-040667FM-12+029999999V0201401N004612200019N0500001N1+02731+01971101261ADDGF104991041011008001001001KA1240N+02161MA1999999097901MD1999999-0131REMSYN076AAXX  14124 82583 32599 41409 10273 20197 39790 40126 84100 333 20216 59013;
0137825830999992011081418004-05167-040667FM-12+029999999V0200901N004612200019N0500001N1+03351+01601100851ADDGF104991041021008001001001MA1999999097511MD1999999+0001REMSYN070AAXX  14184 82583 32599 40909 10335 20160 39751 40085 84200 333 58000;
0178825830999992011081500004-05167-040667FM-12+029999999V0200901N000512200019N0040001N1+02731+01921100981ADDGA1001+999999999GF100991001001999999001001KA1240M+03431MA1999999097631MD1999999-0171REMSYN082AAXX  15004 82583 32996 00901 10273 20192 39763 40098 333 10343 29055 55097 59017;
0156825830999992011081512004-05167-040667FM-12+029999999V0200901N003612200019N0500001N1+02701+01911101261ADDGF104991041011008001001001KA1240N+02171MA1999999097901MD1999999+0001REMSYN076AAXX  15124 82583 32599 40907 10270 20191 39790 40126 84100 333 20217 58000;
0137825830999992011081518004-05167-040667FM-12+029999999V0200501N004112200019N0500001N1+03371+01661100771ADDGF103991031011008001001001MA1999999097431MD1999999-0081REMSYN070AAXX  15184 82583 32599 30508 10337 20166 39743 40077 83100 333 59008;
0168825830999992011081600004-05167-040667FM-12+029999999V0201401N002110075019N0040001N1+02911+01671101021ADDGF106991061051008001001001KA1240M+03491MA1999999097671MD1999999+0041REMSYN088AAXX  16004 82583 32596 61404 10291 20167 39767 40102 86500 333 10349 29048 55084 58004;
0156825830999992011081612004-05167-040667FM-12+029999999V0201401N006212200019N0500001N1+02691+01511101371ADDGF103991031001008001021011KA1240N+02181MA1999999098011MD1999999+0111REMSYN076AAXX  16124 82583 32599 31412 10269 20151 39801 40137 83021 333 20218 58011;
0137825830999992011081618004-05167-040667FM-12+029999999V0201401N005111050019N0500001N1+03331+01451100911ADDGF105991041001008001021021MA1999999097571MD1999999+0141REMSYN070AAXX  16184 82583 32599 51410 10333 20145 39757 40091 84022 333 58014;
0168825830999992011081700004-05167-040667FM-12+029999999V0200901N004612200019N0040001N1+02811+01251101231ADDGF103991031011008001001001KA1240M+03411MA1999999097871MD1999999+0201REMSYN088AAXX  17004 82583 32596 30909 10281 20125 39787 40123 83100 333 10341 29039 55107 58020;
0156825830999992011081712004-05167-040667FM-12+029999999V0200901N005712200019N0500001N1+02741+01671101351ADDGF101991011011008001001001KA1240N+01971MA1999999097991MD1999999-0021REMSYN076AAXX  17124 82583 32599 10911 10274 20167 39799 40135 81100 333 20197 59002;
0137825830999992011081718004-05167-040667FM-12+029999999V0200901N003112200019N0500001N1+03311+01281100931ADDGF103991021011008001001011MA1999999097571MD1999999+0001REMSYN070AAXX  17184 82583 32599 30906 10331 20128 39757 40093 82101 333 58000;
0168825830999992011081800004-05167-040667FM-12+029999999V0201401N002112200019N0040001N1+02711+01591101131ADDGF101991011011008001001001KA1240M+03431MA1999999097771MD1999999-0101REMSYN088AAXX  18004 82583 32596 11404 10271 20159 39777 40113 81100 333 10343 29045 55106 59010;
0156825830999992011081812004-05167-040667FM-12+029999999V0201401N003610450019N0500001N1+02631+01801101281ADDGF105991041011008001021011KA1240N+02171MA1999999097911MD1999999-0081REMSYN076AAXX  18124 82583 32599 51407 10263 20180 39791 40128 84121 333 20217 59008;
0137825830999992011081818004-05167-040667FM-12+029999999V0201401N002110450019N0500001N1+03321+01571100761ADDGF105991041011008001021001MA1999999097421MD1999999-0151REMSYN070AAXX  18184 82583 32599 51404 10332 20157 39742 40076 84120 333 59015;
0178825830999992011081900004-05167-040667FM-12+029999999V0200901N002112200019N0040001N1+02701+01631101071ADDGA1001+999999999GF100991001001999999001001KA1240M+03381MA1999999097711MD1999999-0061REMSYN082AAXX  19004 82583 32996 00904 10270 20163 39771 40107 333 10338 29050 55092 59006;
0156825830999992011081912004-05167-040667FM-12+029999999V0201401N005112200019N0500001N1+02631+01931101161ADDGF104991041021008001001001KA1240N+02121MA1999999097801MD1999999-0111REMSYN076AAXX  19124 82583 32599 41410 10263 20193 39780 40116 84200 333 20212 59011;
0137825830999992011081918004-05167-040667FM-12+029999999V0201401N001512200019N0500001N1+03351+01731100651ADDGF102991021011008001001001MA1999999097311MD1999999-0111REMSYN070AAXX  19184 82583 32599 21403 10335 20173 39731 40065 82100 333 59011;
0168825830999992011082000004-05167-040667FM-12+029999999V0201401N002112200019N0040001N1+02731+01511100891ADDGF101991011011008001001001KA1240M+03451MA1999999097541MD1999999-0171REMSYN088AAXX  20004 82583 32596 11404 10273 20151 39754 40089 81100 333 10345 29049 55099 59017;
0156825830999992011082012004-05167-040667FM-12+029999999V0200901N004110075019N0500001N1+02551+01951101271ADDGF106991061011008001001001KA1240N+02091MA1999999097901MD1999999+0101REMSYN076AAXX  20124 82583 32599 60908 10255 20195 39790 40127 86100 333 20209 58010;
0137825830999992011082018004-05167-040667FM-12+029999999V0201401N004112200019N0500001N1+03351+01561100751ADDGF102991021011008001001001MA1999999097411MD1999999+0101REMSYN070AAXX  20184 82583 32599 21408 10335 20156 39741 40075 82100 333 58010;
0178825830999992011082100004-05167-040667FM-12+029999999V0200901N001512200019N0040001N1+02721+01561101021ADDGA1001+999999999GF100991001001999999001001KA1240M+03461MA1999999097661MD1999999+0121REMSYN082AAXX  21004 82583 32996 00903 10272 20156 39766 40102 333 10346 29050 55097 58012;
0156825830999992011082112004-05167-040667FM-12+029999999V0200901N004112200019N0500001N1+02731+01841101361ADDGF103991031011008001001001KA1240N+02041MA1999999097991MD1999999+0091REMSYN076AAXX  21124 82583 32599 30908 10273 20184 39799 40136 83100 333 20204 58009;
0137825830999992011082118004-05167-040667FM-12+029999999V0201401N003112200019N0500001N1+03391+01721100891ADDGF104991041011008001001001MA1999999097551MD1999999+0141REMSYN070AAXX  21184 82583 32599 41406 10339 20172 39755 40089 84100 333 58014;
0168825830999992011082200004-05167-040667FM-12+029999999V0200901N002112200019N0040001N1+02851+01551101141ADDGF101991011011008001001001KA1240M+03511MA1999999097791MD1999999+0131REMSYN088AAXX  22004 82583 32596 10904 10285 20155 39779 40114 81100 333 10351 29046 55108 58013;
0156825830999992011082212004-05167-040667FM-12+029999999V0200901N004610075019N0500001N1+02691+01961101391ADDGF106991061021008001001001KA1240N+02341MA1999999098031MD1999999+0041REMSYN076AAXX  22124 82583 32599 60909 10269 20196 39803 40139 86200 333 20234 58004;
0137825830999992011082218004-05167-040667FM-12+029999999V0201401N004610075019N0500001N1+03351+01651100931ADDGF105991051021008001001001MA1999999097591MD1999999+0041REMSYN070AAXX  22184 82583 32599 51409 10335 20165 39759 40093 85200 333 58004;
0168825830999992011082300004-05167-040667FM-12+029999999V0200901N000512200019N0040001N1+02771+02041101161ADDGF101991011011008001001001KA1240M+03461MA1999999097801MD1999999+0011REMSYN088AAXX  23004 82583 32596 10901 10277 20204 39780 40116 81100 333 10346 29057 55082 58001;
0156825830999992011082312004-05167-040667FM-12+029999999V0200901N004610075019N0500001N1+02671+01991101531ADDGF106991061021008001001001KA1240N+02361MA1999999098151MD1999999+0121REMSYN076AAXX  23124 82583 32599 60909 10267 20199 39815 40153 86200 333 20236 58012;
0178825830999992011082400004-05167-040667FM-12+029999999V0200901N001512200019N0040001N1+02551+01951101401ADDGA1001+999999999GF100991001001999999001001KA1240M+03341MA1999999098021MD1999999+0221REMSYN082AAXX  24004 82583 32996 00903 10255 20195 39802 40140 333 10334 29062 55053 58022;
0156825830999992011082412004-05167-040667FM-12+029999999V0201401N005710075019N0500001N1+02561+01971101661ADDGF107991071051008001999999KA1240N+02211MA1999999098261MD1999999+0111REMSYN076AAXX  24124 82583 32599 71411 10256 20197 39826 40166 875// 333 20221 58011;
0137825830999992011082418004-05167-040667FM-12+029999999V0201401N004610075019N0500001N1+03151+01751101151ADDGF105991051011008001001001MA1999999097791MD1999999+0041REMSYN070AAXX  24184 82583 32599 51409 10315 20175 39779 40115 85100 333 58004;
0178825830999992011082500004-05167-040667FM-12+029999999V0200901N001512200019N0040001N1+02581+01661101311ADDGA1001+999999999GF100991001001999999001001KA1240M+03261MA1999999097931MD1999999-0091REMSYN082AAXX  25004 82583 32996 00903 10258 20166 39793 40131 333 10326 29058 55041 59009;
0156825830999992011082512004-05167-040667FM-12+029999999V0200901N004612200019N0500001N1+02711+01851101551ADDGF102991021011008001001001KA1240N+02111MA1999999098171MD1999999-0091REMSYN076AAXX  25124 82583 32599 20909 10271 20185 39817 40155 82100 333 20211 59009;
0137825830999992011082518004-05167-040667FM-12+029999999V0201401N004612200019N0500001N1+03411+01511101121ADDGF104991041011008001001001MA1999999097781MD1999999-0011REMSYN070AAXX  25184 82583 32599 41409 10341 20151 39778 40112 84100 333 59001;
0168825830999992011082600004-05167-040667FM-12+029999999V0201401N001510075019N0500001N1+02881+01701101331ADDGF108991081051008001999999KA1240M+03521MA1999999097971MD1999999+0041REMSYN088AAXX  26004 82583 32599 81403 10288 20170 39797 40133 885// 333 10352 29047 55100 58004;
0156825830999992011082612004-05167-040667FM-12+029999999V0201801N002610120019N0500001N1+02481+02011101691ADDGF108991071081008001031999KA1240N+02291MA1999999098311MD1999999+0141REMSYN076AAXX  26124 82583 32599 81805 10248 20201 39831 40169 8783/ 333 20229 58014;
0137825830999992011082618004-05167-040667FM-12+029999999V0200901N002610450019N0500001N1+03251+01681101211ADDGF105991041021008001021001MA1999999097861MD1999999+0081REMSYN070AAXX  26184 82583 32599 50905 10325 20168 39786 40121 84220 333 58008;
0178825830999992011082700004-05167-040667FM-12+029999999V0203601N002112200019N0040001N1+02651+01971101491ADDGA1001+999999999GF100991001001999999001001KA1240M+03341MA1999999098101MD1999999+0131REMSYN082AAXX  27004 82583 32996 03604 10265 20197 39810 40149 333 10334 29062 55046 58013;
0156825830999992011082712004-05167-040667FM-12+029999999V0200901N003612200019N0500001N1+02731+01971101591ADDGF104991041011008001001001KA1240N+02251MA1999999098211MD1999999-0101REMSYN076AAXX  27124 82583 32599 40907 10273 20197 39821 40159 84100 333 20225 59010;
0137825830999992011082718004-05167-040667FM-12+029999999V0200901N004610120019N0500001N1+03201+01671101061ADDGF106991061081008001001001MA1999999097701MD1999999-0161REMSYN070AAXX  27184 82583 32599 60909 10320 20167 39770 40106 86800 333 59016;
0213825830999992011082800004-05167-040667FM-12+029999999V0200901N001012200019N0040001N1+02611+02251101291ADDAA106004191AY161061AY261061GF102991021011008001001001KA1240M+03331MA1999999097921MD1999999-0181MW1011REMSYN100AAXX  28004 82583 21596 20902 10261 20225 39792 40129 70166 82100 333 10333 29066 55076 59018 60041;
0173825830999992011082812004-05167-040667FM-12+029999999V0201401N003610075019N0500001N1+02631+01951101631ADDAA124004191GF106991061051008001001001KA1240N+02151MA1999999098241MD1999999+0031REMSYN082AAXX  28124 82583 22599 61407 10263 20195 39824 40163 86500 333 20215 58003 60044;
0137825830999992011082818004-05167-040667FM-12+029999999V0200901N003610075019N0500001N1+03341+01581101071ADDGF105991051021008001001001MA1999999097711MD1999999+0011REMSYN070AAXX  28184 82583 32599 50907 10334 20158 39771 40107 85200 333 58001;
0178825830999992011082900004-05167-040667FM-12+029999999V0201401N001512200019N0040001N1+02711+01621101251ADDGA1001+999999999GF100991001001999999001001KA1240M+03421MA1999999097881MD1999999-0041REMSYN082AAXX  29004 82583 32996 01403 10271 20162 39788 40125 333 10342 29051 55089 59004;
0156825830999992011082912004-05167-040667FM-12+029999999V0201401N002612200019N0500001N1+02721+01851101471ADDGF104991031011008001021001KA1240N+01931MA1999999098101MD1999999-0141REMSYN076AAXX  29124 82583 32599 41405 10272 20185 39810 40147 83120 333 20193 59014;
0137825830999992011082918004-05167-040667FM-12+029999999V0201401N005112200019N0500001N1+03421+01361100901ADDGF104991031011008001001011MA1999999097551MD1999999-0161REMSYN070AAXX  29184 82583 32599 41410 10342 20136 39755 40090 83101 333 59016;
0178825830999992011083000004-05167-040667FM-12+029999999V0201401N001512200019N0040001N1+02781+01851101241ADDGA1001+999999999GF100991001001999999001001KA1240M+03571MA1999999097881MD1999999+0001REMSYN082AAXX  30004 82583 32996 01403 10278 20185 39788 40124 333 10357 29050 55098 58000;
0156825830999992011083012004-05167-040667FM-12+029999999V0200901N005110075019N0500001N1+02711+01951101411ADDGF106991061011008001001001KA1240N+02231MA1999999098051MD1999999-0051REMSYN076AAXX  30124 82583 32599 60910 10271 20195 39805 40141 86100 333 20223 59005;
0137825830999992011083018004-05167-040667FM-12+029999999V0201401N004612200019N0200001N1+03361+01361101021ADDGF102991021011008001001001MA1999999097681MD1999999+0131REMSYN070AAXX  30184 82583 32598 21409 10336 20136 39768 40102 82100 333 58013;
0178825830999992011083100004-05167-040667FM-12+029999999V0200901N002112200019N0040001N1+02561+01351101351ADDGA1001+999999999GF100991001001999999001001KA1240M+03441MA1999999097971MD1999999+0091REMSYN082AAXX  31004 82583 32996 00904 10256 20135 39797 40135 333 10344 29047 55106 58009;
0156825830999992011083112004-05167-040667FM-12+029999999V0201401N002612200019N0500001N1+02681+01861101571ADDGF101991011011008001001001KA1240N+01981MA1999999098181MD1999999+0131REMSYN076AAXX  31124 82583 32599 11405 10268 20186 39818 40157 81100 333 20198 58013;
0137825830999992011083118004-05167-040667FM-12+029999999V0201401N004112200019N0500001N1+03521+01391101041ADDGF101991011011008001001001MA1999999097691MD1999999+0011REMSYN070AAXX  31184 82583 32599 11408 10352 20139 39769 40104 81100 333 58001;
0178825830999992011090100004-05167-040667FM-12+029999999V0200901N001012200019N0040001N1+02771+01841101191ADDGA1001+999999999GF100991001001999999001001KA1240M+03601MA1999999097831MD1999999-0141REMSYN082AAXX  01004 82583 32996 00902 10277 20184 39783 40119 333 10360 29045 55106 59014;
0156825830999992011090112004-05167-040667FM-12+029999999V0200901N003110450019N0500001N1+02701+01991101561ADDGF105991041011008001021001KA1240N+02111MA1999999098191MD1999999+0011REMSYN076AAXX  01124 82583 32599 50906 10270 20199 39819 40156 84120 333 20211 58001;
0137825830999992011090118004-05167-040667FM-12+029999999V0201401N003612200019N0500001N1+03501+01531101051ADDGF104991041011008001001001MA1999999097711MD1999999+0021REMSYN070AAXX  01184 82583 32599 41407 10350 20153 39771 40105 84100 333 58002;
0178825830999992011090200004-05167-040667FM-12+029999999V0200901N002112200019N0040001N1+02881+01671101221ADDGA1001+999999999GF100991001001999999001001KA1240M+03591MA1999999097871MD1999999+0041REMSYN082AAXX  02004 82583 32996 00904 10288 20167 39787 40122 333 10359 29048 55101 58004;
0156825830999992011090212004-05167-040667FM-12+029999999V0200901N005710075019N0500001N1+02671+01971101471ADDGF106991061051008001001001KA1240N+02191MA1999999098111MD1999999-0081REMSYN076AAXX  02124 82583 32599 60911 10267 20197 39811 40147 86500 333 20219 59008;
0137825830999992011090218004-05167-040667FM-12+029999999V0200901N003612200019N0500001N1+03361+01691100971ADDGF104991041011008001001001MA1999999097631MD1999999-0081REMSYN070AAXX  02184 82583 32599 40907 10336 20169 39763 40097 84100 333 59008;
0178825830999992011090300004-05167-040667FM-12+029999999V0200901N002112200019N0040001N1+02781+01611101161ADDGA1001+999999999GF100991001001999999001001KA1240M+03451MA1999999097801MD1999999+0071REMSYN082AAXX  03004 82583 32996 00904 10278 20161 39780 40116 333 10345 29050 55095 58007;
0156825830999992011090312004-05167-040667FM-12+029999999V0201401N005710450019N0500001N1+02751+01971101481ADDGF105991041021008001021001KA1240N+02301MA1999999098121MD1999999+0011REMSYN076AAXX  03124 82583 32599 51411 10275 20197 39812 40148 84220 333 20230 58001;
0137825830999992011090318004-05167-040667FM-12+029999999V0201401N003612200019N0500001N1+03331+01581101011ADDGF103991021011008001021001MA1999999097671MD1999999+0041REMSYN070AAXX  03184 82583 32599 31407 10333 20158 39767 40101 82120 333 58004;
0168825830999992011090400004-05167-040667FM-12+029999999V0201401N002112200019N0040001N1+02741+01641101231ADDGF102991021011008001001001KA1240M+03421MA1999999097871MD1999999+0071REMSYN088AAXX  04004 82583 32596 21404 10274 20164 39787 40123 82100 333 10342 29050 55073 58007;
0156825830999992011090412004-05167-040667FM-12+029999999V0201401N008712200019N0500001N1+02811+01611101511ADDGF103991021011008001031001KA1240N+02311MA1999999098151MD1999999+0031REMSYN076AAXX  04124 82583 32599 31417 10281 20161 39815 40151 82130 333 20231 58003;
0137825830999992011090418004-05167-040667FM-12+029999999V0201401N006212200019N0500001N1+03381+01331100991ADDGF104991041011008001001001MA1999999097671MD1999999+0001REMSYN070AAXX  04184 82583 32599 41412 10338 20133 39767 40099 84100 333 58000;
0168825830999992011090500004-05167-040667FM-12+029999999V0201401N002612200019N0040001N1+02781+01441101211ADDGF101991011011008001001001KA1240M+03501MA1999999097861MD1999999-0011REMSYN088AAXX  05004 82583 32596 11405 10278 20144 39786 40121 81100 333 10350 29041 55104 59001;
0156825830999992011090512004-05167-040667FM-12+029999999V0201401N006212200019N0500001N1+02671+01731101551ADDGF102991021011008001001001KA1240N+02231MA1999999098171MD1999999+0021REMSYN076AAXX  05124 82583 32599 21412 10267 20173 39817 40155 82100 333 20223 58002;
0137825830999992011090518004-05167-040667FM-12+029999999V0201401N002110075019N0500001N1+03211+01431101061ADDGF105991051011008001001001MA1999999097701MD1999999+0031REMSYN070AAXX  05184 82583 32599 51404 10321 20143 39770 40106 85100 333 58003;
0168825830999992011090600004-05167-040667FM-12+029999999V0200901N001512200019N0040001N1+02651+01331101291ADDGF104991041011008001001001KA1240M+03371MA1999999097921MD1999999+0061REMSYN088AAXX  06004 82583 32596 40903 10265 20133 39792 40129 84100 333 10337 29044 55107 58006;
0156825830999992011090612004-05167-040667FM-12+029999999V0201401N002612200019N0500001N1+02631+01881101421ADDGF102991021011008001001001KA1240N+01981MA1999999098041MD1999999-0131REMSYN076AAXX  06124 82583 32599 21405 10263 20188 39804 40142 82100 333 20198 59013;
0137825830999992011090618004-05167-040667FM-12+029999999V0201801N001512200019N0500001N1+03411+01511100911ADDGF102991021011008001001001MA1999999097561MD1999999-0141REMSYN070AAXX  06184 82583 32599 21803 10341 20151 39756 40091 82100 333 59014;
0168825830999992011090700004-05167-040667FM-12+029999999V0200901N003112200019N0040001N1+02911+01421101191ADDGF101991011011008001001001KA1240M+03531MA1999999097831MD1999999-0091REMSYN088AAXX  07004 82583 32596 10906 10291 20142 39783 40119 81100 333 10353 29044 55098 59009;
0156825830999992011090712004-05167-040667FM-12+029999999V0200901N005110075019N0500001N1+02631+01771101491ADDGF105991051011008001001001KA1240N+02131MA1999999098131MD1999999+0091REMSYN076AAXX  07124 82583 32599 50910 10263 20177 39813 40149 85100 333 20213 58009;
0137825830999992011090718004-05167-040667FM-12+029999999V0200901N003112200019N0500001N1+03451+01501100911ADDGF104991041011008001001001MA1999999097571MD1999999+0011REMSYN070AAXX  07184 82583 32599 40906 10345 20150 39757 40091 84100 333 58001;
0178825830999992011090800004-05167-040667FM-12+029999999V0200901N002612200019N0040001N1+02791+01661101211ADDGA1001+999999999GF100991001001999999001001KA1240M+03541MA1999999097851MD1999999+0021REMSYN082AAXX  08004 82583 32996 00905 10279 20166 39785 40121 333 10354 29047 55102 58002;
0156825830999992011090812004-05167-040667FM-12+029999999V0201401N006710075019N0500001N1+02731+01811101341ADDGF106991061021008001001001KA1240N+02251MA1999999097981MD1999999-0151REMSYN076AAXX  08124 82583 32599 61413 10273 20181 39798 40134 86200 333 20225 59015;
0137825830999992011090818004-05167-040667FM-12+029999999V0201401N003612200019N0500001N1+03361+01651100841ADDGF103991031021008001001001MA1999999097501MD1999999-0071REMSYN070AAXX  08184 82583 32599 31407 10336 20165 39750 40084 83200 333 59007;
0168825830999992011090900004-05167-040667FM-12+029999999V0200901N000512200019N0040001N1+02751+01621101061ADDGF101991011011008001001001KA1240M+03461MA1999999097701MD1999999-0151REMSYN088AAXX  09004 82583 32596 10901 10275 20162 39770 40106 81100 333 10346 29048 55095 59015;
0156825830999992011090912004-05167-040667FM-12+029999999V0201401N006712200019N0500001N1+02771+01821101291ADDGF104991041011008001001001KA1240N+02181MA1999999097931MD1999999-0051REMSYN076AAXX  09124 82583 32599 41413 10277 20182 39793 40129 84100 333 20218 59005;
0137825830999992011090918004-05167-040667FM-12+029999999V0201401N004112200019N0500001N1+03491+01261100741ADDGF102991021011008001001001MA1999999097411MD1999999-0091REMSYN070AAXX  09184 82583 32599 21408 10349 20126 39741 40074 82100 333 59009;
0178825830999992011091000004-05167-040667FM-12+029999999V0200901N003112200019N0040001N1+02841+01231100981ADDGA1001+999999999GF100991001001999999001001KA1240M+03581MA1999999097641MD1999999-0061REMSYN082AAXX  10004 82583 32996 00906 10284 20123 39764 40098 333 10358 29039 55109 59006;
0156825830999992011091012004-05167-040667FM-12+029999999V0200901N005712200019N0500001N1+02751+01751101391ADDGF102991021011008001001001KA1240N+02031MA1999999098031MD1999999+0101REMSYN076AAXX  10124 82583 32599 20911 10275 20175 39803 40139 82100 333 20203 58010;
0137825830999992011091018004-05167-040667FM-12+029999999V0201401N005712200019N0500001N1+03481+01191100901ADDGF101991011011008001001001MA1999999097561MD1999999+0151REMSYN070AAXX  10184 82583 32599 11411 10348 20119 39756 40090 81100 333 58015;
0178825830999992011091100004-05167-040667FM-12+029999999V0200901N002112200019N0040001N1+02771+01261101251ADDGA1001+999999999GF100991001001999999001001KA1240M+03581MA1999999097891MD1999999+0251REMSYN082AAXX  11004 82583 32996 00904 10277 20126 39789 40125 333 10358 29039 55109 58025;
0156825830999992011091112004-05167-040667FM-12+029999999V0200901N006212200019N0500001N1+02901+01751101581ADDGF102991021011008001001001KA1240N+02291MA1999999098221MD1999999+0191REMSYN076AAXX  11124 82583 32599 20912 10290 20175 39822 40158 82100 333 20229 58019;
0137825830999992011091118004-05167-040667FM-12+029999999V0201401N004612200019N0500001N1+03451+01601101061ADDGF102991021011008001001001MA1999999097721MD1999999+0161REMSYN070AAXX  11184 82583 32599 21409 10345 20160 39772 40106 82100 333 58016;
0168825830999992011091200004-05167-040667FM-12+029999999V0200901N000512200019N0040001N1+02911+01861101391ADDGF101991011001017501031001KA1240M+03541MA1999999098051MD1999999+0161REMSYN088AAXX  12004 82583 32796 10901 10291 20186 39805 40139 81030 333 10354 29047 55107 58016;
0156825830999992011091212004-05167-040667FM-12+029999999V0200901N005112200019N0500001N1+02801+01841101461ADDGF102991021011008001001001KA1240N+02241MA1999999098101MD1999999-0121REMSYN076AAXX  12124 82583 32599 20910 10280 20184 39810 40146 82100 333 20224 59012;
0137825830999992011091218004-05167-040667FM-12+029999999V0200901N002112200019N0500001N1+03411+01651100951ADDGF102991021011008001001001MA1999999097611MD1999999-0111REMSYN070AAXX  12184 82583 32599 20904 10341 20165 39761 40095 82100 333 59011;
0168825830999992011091300004-05167-040667FM-12+029999999V0200901N001012200019N0040001N1+02871+01641101221ADDGF101991011011008001001001KA1240M+03531MA1999999097881MD1999999-0171REMSYN088AAXX  13004 82583 32596 10902 10287 20164 39788 40122 81100 333 10353 29046 55092 59017;
0156825830999992011091312004-05167-040667FM-12+029999999V0200901N003610075019N0500001N1+02611+01931101521ADDGF106991061051008001001001KA1240N+02191MA1999999098161MD1999999+0061REMSYN076AAXX  13124 82583 32599 60907 10261 20193 39816 40152 86500 333 20219 58006;
0156825830999992011091318004-05167-040667FM-12+029999999V0201401N005712200019N0500001N1+03391+01591100941ADDGF104991999011008001001001MA1999999097601MD1999999-0011REMSYN070AAXX  13184 82583 32599 41411 10339 20159 39760 40094 83100 333 59001;EQDQ01+000032SCOTLC
0178825830999992011091400004-05167-040667FM-12+029999999V0200901N001012200019N0040001N1+02721+01421101161ADDGA1001+999999999GF100991001001999999001001KA1240M+03491MA1999999097801MD1999999-0081REMSYN082AAXX  14004 82583 32996 00902 10272 20142 39780 40116 333 10349 29048 55071 59008;
0156825830999992011091412004-05167-040667FM-12+029999999V0200901N004110075019N0500001N1+02731+01871101501ADDGF106991061021008001001001KA1240N+02101MA1999999098131MD1999999-0031REMSYN076AAXX  14124 82583 32599 60908 10273 20187 39813 40150 86200 333 20210 59003;
0137825830999992011091418004-05167-040667FM-12+029999999V0200901N001512200019N0500001N1+03331+01631101021ADDGF103991031021008001001001MA1999999097661MD1999999+0031REMSYN070AAXX  14184 82583 32599 30903 10333 20163 39766 40102 83200 333 58003;
0168825830999992011091500004-05167-040667FM-12+029999999V0200901N002112200019N0040001N1+02781+01461101141ADDGF101991011011008001001001KA1240M+03441MA1999999097781MD1999999-0021REMSYN088AAXX  15004 82583 32596 10904 10278 20146 39778 40114 81100 333 10344 29046 55095 59002;
0156825830999992011091512004-05167-040667FM-12+029999999V0201401N004110450019N0500001N1+02741+01951101541ADDGF105991041011008001021001KA1240N+02141MA1999999098171MD1999999+0041REMSYN076AAXX  15124 82583 32599 51408 10274 20195 39817 40154 84120 333 20214 58004;
0137825830999992011091518004-05167-040667FM-12+029999999V0201401N002612200019N0500001N1+03421+01451100921ADDGF104991041021008001001001MA1999999097591MD1999999-0071REMSYN070AAXX  15184 82583 32599 41405 10342 20145 39759 40092 84200 333 59007;
0168825830999992011091600004-05167-040667FM-12+029999999V0200901N001510075019N0040001N1+02911+01551101161ADDGF105991051011008001001001KA1240M+03581MA1999999097811MD1999999+0031REMSYN088AAXX  16004 82583 32596 50903 10291 20155 39781 40116 85100 333 10358 29045 55093 58003;
0156825830999992011091612004-05167-040667FM-12+029999999V0201401N007712200019N0500001N1+02851+01921101131ADDGF102991021011008001001001KA1240N+02571MA1999999097981MD1999999-0191REMSYN076AAXX  16124 82583 32599 21415 10285 20192 39798 40113 82100 333 20257 59019;
0137825830999992011091618004-05167-040667FM-12+029999999V0201401N005110075019N0500001N1+03231+01581100941ADDGF105991051011008001001001MA1999999097641MD1999999+0051REMSYN070AAXX  16184 82583 32599 51410 10323 20158 39764 40094 85100 333 58005;
0168825830999992011091700004-05167-040667FM-12+029999999V0200901N001512200019N0040001N1+02871+01831101111ADDGF103991031011008001001001KA1240M+03441MA1999999097771MD1999999-0041REMSYN088AAXX  17004 82583 32596 30903 10287 20183 39777 40111 83100 333 10344 29050 55098 59004;
0156825830999992011091712004-05167-040667FM-12+029999999V0201401N005110075019N0500001N1+02711+01771101421ADDGF105991051011008001001001KA1240N+02271MA1999999098061MD1999999+0081REMSYN076AAXX  17124 82583 32599 51410 10271 20177 39806 40142 85100 333 20227 58008;
0137825830999992011091718004-05167-040667FM-12+029999999V0201401N004112200019N0500001N1+03381+01531100851ADDGF101991011011008001001001MA1999999097861MD1999999-0111REMSYN070AAXX  17184 82583 32599 11408 10338 20153 39786 40085 81100 333 59011;
0178825830999992011091800004-05167-040667FM-12+029999999V0201801N001012200019N0040001N1+02771+01581101141ADDGA1001+999999999GF100991001001999999001001KA1240M+03501MA1999999097781MD1999999+0011REMSYN082AAXX  18004 82583 32996 01802 10277 20158 39778 40114 333 10350 29046 55091 58001;
0156825830999992011091812004-05167-040667FM-12+029999999V0201401N007212200019N0500001N1+02791+01661101371ADDGF101991011011008001001001KA1240N+02151MA1999999098011MD1999999-0051REMSYN076AAXX  18124 82583 32599 11414 10279 20166 39801 40137 81100 333 20215 59005;
0137825830999992011091818004-05167-040667FM-12+029999999V0200901N004110075019N0500001N1+03361+01311100941ADDGF105991051011008001001001MA1999999097601MD1999999+0071REMSYN070AAXX  18184 82583 32599 50908 10336 20131 39760 40094 85100 333 58007;
0178825830999992011091900004-05167-040667FM-12+029999999V0201401N005112200019N0040001N1+02801+01661101251ADDGA1001+999999999GF100991001001999999001001KA1240M+03491MA1999999097901MD1999999+0121REMSYN082AAXX  19004 82583 32996 01410 10280 20166 39790 40125 333 10349 29045 55109 58012;
0156825830999992011091912004-05167-040667FM-12+029999999V0201401N005712200019N0500001N1+02641+01581101381ADDGF101991011011008001001001KA1240N+01981MA1999999098011MD1999999+0001REMSYN076AAXX  19124 82583 32599 11411 10264 20158 39801 40138 81100 333 20198 58000;
0137825830999992011091918004-05167-040667FM-12+029999999V0201401N003112200019N0500001N1+03311+01481100881ADDGF103991031011008001001001MA1999999097541MD1999999-0061REMSYN070AAXX  19184 82583 32599 31406 10331 20148 39754 40088 83100 333 59006;
0178825830999992011092000004-05167-040667FM-12+029999999V0201401N001512200019N0040001N1+02751+01391101131ADDGA1001+999999999GF100991001001999999001001KA1240M+03441MA1999999097771MD1999999-0131REMSYN082AAXX  20004 82583 32996 01403 10275 20139 39777 40113 333 10344 29043 55106 59013;
0166825830999992011092012004-05167-040667FM-12+029999999V0201401N005712200019N0500001N1+02701+01441101411ADDGA1001+999999999GF100991001001999999001001KA1240N+02051MA1999999098041MD1999999+0031REMSYN070AAXX  20124 82583 32999 01411 10270 20144 39804 40141 333 20205 58003;
0137825830999992011092018004-05167-040667FM-12+029999999V0201401N004112200019N0500001N1+03331+01451100901ADDGF102991021011008001001001MA1999999097541MD1999999+0001REMSYN070AAXX  20184 82583 32599 21408 10333 20145 39754 40090 82100 333 58000;
0178825830999992011092100004-05167-040667FM-12+029999999V0201401N002612200019N0040001N1+02761+01391101191ADDGA1001+999999999GF100991001001999999001001KA1240M+03421MA1999999097831MD1999999+0061REMSYN082AAXX  21004 82583 32996 01405 10276 20139 39783 40119 333 10342 29041 55112 58006;
0156825830999992011092112004-05167-040667FM-12+029999999V0201401N004610075019N0500001N1+02691+01691101471ADDGF105991051021008001001001KA1240N+02081MA1999999098101MD1999999+0061REMSYN076AAXX  21124 82583 32599 51409 10269 20169 39810 40147 85200 333 20208 58006;
0137825830999992011092118004-05167-040667FM-12+029999999V0201401N002612200019N0500001N1+03431+01671100851ADDGF101991011011008001001001MA1999999097511MD1999999-0031REMSYN070AAXX  21184 82583 32599 11405 10343 20167 39751 40085 81100 333 59003;
0178825830999992011092200004-05167-040667FM-12+029999999V0200901N002612200019N0040001N1+03001+01531101251ADDGA1001+999999999GF100991001001999999001001KA1240M+03511MA1999999097911MD1999999+0081REMSYN082AAXX  22004 82583 32996 00905 10300 20153 39791 40125 333 10351 29042 55098 58008;
0156825830999992011092212004-05167-040667FM-12+029999999V0200901N004610120019N0500001N1+02631+01901101451ADDGF108991081081008001999999KA1240N+02291MA1999999098091MD1999999-0011REMSYN076AAXX  22124 82583 32599 80909 10263 20190 39809 40145 888// 333 20229 59001;
0156825830999992011092218004-05167-040667FM-12+029999999V0201401N002612200019N0500001N1+03441+01631100831ADDGF102991999021008001001001MA1999999097501MD1999999-0011REMSYN070AAXX  22184 82583 32599 21405 10344 20163 39750 40083 83200 333 59001;EQDQ01+000032SCOTLC
0178825830999992011092300004-05167-040667FM-12+029999999V0200901N002112200019N0040001N1+02901+01551101151ADDGA1001+999999999GF100991001001999999001001KA1240M+03531MA1999999097791MD1999999-0121REMSYN082AAXX  23004 82583 32996 00904 10290 20155 39779 40115 333 10353 29046 55078 59012;
0156825830999992011092312004-05167-040667FM-12+029999999V0200901N006210075019N0500001N1+02771+01961101431ADDGF106991061011008001001001KA1240N+02261MA1999999098071MD1999999-0021REMSYN076AAXX  23124 82583 32599 60912 10277 20196 39807 40143 86100 333 20226 59002;
0137825830999992011092318004-05167-040667FM-12+029999999V0200901N006212200019N0500001N1+03551+01481100741ADDGF101991011011008001001001MA1999999097421MD1999999-0081REMSYN070AAXX  23184 82583 32599 10912 10355 20148 39742 40074 81100 333 59008;
0178825830999992011092400004-05167-040667FM-12+029999999V0200901N001512200019N0040001N1+02871+01531101121ADDGA1001+999999999GF100991001001999999001001KA1240M+03631MA1999999097771MD1999999-0021REMSYN082AAXX  24004 82583 32996 00903 10287 20153 39777 40112 333 10363 29044 55093 59002;
0156825830999992011092412004-05167-040667FM-12+029999999V0200901N003110075019N0500001N1+02731+02021101381ADDGF106991051011008001021001KA1240N+02401MA1999999098021MD1999999-0051REMSYN076AAXX  24124 82583 32599 60906 10273 20202 39802 40138 85120 333 20240 59005;
0156825830999992011092418004-05167-040667FM-12+029999999V0201801N002112200019N0500001N1+03481+01751100781ADDGF104991999021008001001001MA1999999097461MD1999999+0041REMSYN070AAXX  24184 82583 32599 41804 10348 20175 39746 40078 83200 333 58004;EQDQ01+000032SCOTLC
0178825830999992011092500004-05167-040667FM-12+029999999V0201401N002112200019N0040001N1+02861+01551101111ADDGA1001+999999999GF100991001001999999001001KA1240M+03581MA1999999097761MD1999999-0011REMSYN082AAXX  25004 82583 32996 01404 10286 20155 39776 40111 333 10358 29048 55093 59001;
0156825830999992011092512004-05167-040667FM-12+029999999V0200501N004612200019N0500001N1+02931+01551101351ADDGF101991011011008001001001KA1240N+02131MA1999999098001MD1999999-0021REMSYN076AAXX  25124 82583 32599 10509 10293 20155 39800 40135 81100 333 20213 59002;
0137825830999992011092518004-05167-040667FM-12+029999999V0201401N003612200019N0500001N1+03741+01141100641ADDGF101991011011008001001001MA1999999097321MD1999999-0141REMSYN070AAXX  25184 82583 32599 11407 10374 20114 39732 40064 81100 333 59014;
0178825830999992011092600004-05167-040667FM-12+029999999V0200901N002612200019N0040001N1+03041+01321100961ADDGA1001+999999999GF100991001001999999001001KA1240M+03341MA1999999097641MD1999999-0121REMSYN082AAXX  26004 82583 32996 00905 10304 20132 39764 40096 333 10334 29034 55109 59012;
0156825830999992011092612004-05167-040667FM-12+029999999V0201401N005712200019N0500001N1+02801+01921101491ADDGF104991041011008001001001KA1240N+02381MA1999999098141MD1999999+0141REMSYN076AAXX  26124 82583 32599 41411 10280 20192 39814 40149 84100 333 20238 58014;
0147825830999992011092618004-05167-040667FM-12+029999999V0201401N005112200019N0500001N1+02581+01391100881ADDGA1001+999999999GF100991001001999999001001MA1999999097561MD1999999+0141REMSYN064AAXX  26184 82583 32599 01410 10258 20139 39756 40088 333 58014;
0178825830999992011092700004-05167-040667FM-12+029999999V0201401N003112200019N0040001N1+02881+01421101211ADDGA1001+999999999GF100991001001999999001001KA1240M+03631MA1999999097871MD1999999+0231REMSYN082AAXX  27004 82583 32996 01406 10288 20142 39787 40121 333 10363 29042 55086 58023;
0156825830999992011092712004-05167-040667FM-12+029999999V0201401N004612200019N0500001N1+02851+01781101451ADDGF103991021011008001021011KA1240N+02341MA1999999098091MD1999999-0051REMSYN076AAXX  27124 82583 32599 31409 10285 20178 39809 40145 82121 333 20234 59005;
0137825830999992011092718004-05167-040667FM-12+029999999V0201401N004610450019N0500001N1+03401+01501100961ADDGF105991041011008001021001MA1999999097641MD1999999+0081REMSYN070AAXX  27184 82583 32599 51409 10340 20150 39764 40096 84120 333 58008;
0178825830999992011092800004-05167-040667FM-12+029999999V0200901N002112200019N0040001N1+02851+01481101241ADDGA1001+999999999GF100991001001999999001001KA1240M+03471MA1999999097901MD1999999+0031REMSYN082AAXX  28004 82583 32996 00904 10285 20148 39790 40124 333 10347 29042 55091 58003;
0156825830999992011092812004-05167-040667FM-12+029999999V0200901N004112200019N0500001N1+02901+02021101361ADDGF102991021011008001001001KA1240N+02321MA1999999098011MD1999999-0081REMSYN076AAXX  28124 82583 32599 20908 10290 20202 39801 40136 82100 333 20232 59008;
0156825830999992011092818004-05167-040667FM-12+029999999V0200901N003112200019N0500001N1+03531+01461100891ADDGF104991999021008001001001MA1999999097561MD1999999-0081REMSYN070AAXX  28184 82583 32599 40906 10353 20146 39756 40089 83200 333 59008;EQDQ01+000032SCOTLC
0168825830999992011092900004-05167-040667FM-12+029999999V0200901N001512200019N0040001N1+02871+01601101071ADDGF101991011011008001001001KA1240M+03621MA1999999097731MD1999999-0171REMSYN088AAXX  29004 82583 32596 10903 10287 20160 39773 40107 81100 333 10362 29044 55098 59017;
0156825830999992011092912004-05167-040667FM-12+029999999V0200901N003610075019N0500001N1+02871+02051101381ADDGF105991051011008001001001KA1240N+02261MA1999999098031MD1999999+0021REMSYN076AAXX  29124 82583 32599 50907 10287 20205 39803 40138 85100 333 20226 58002;
0137825830999992011092918004-05167-040667FM-12+029999999V0200901N002110075019N0500001N1+02611+02071100881ADDGF105991051011008001001001MA1999999097501MD1999999-0061REMSYN070AAXX  29184 82583 32599 50904 10261 20207 39750 40088 85100 333 59006;
0178825830999992011093000004-05167-040667FM-12+029999999V0200901N001012200019N0040001N1+02921+01861101051ADDGA1001+999999999GF100991001001999999001001KA1240M+03691MA1999999097711MD1999999-0021REMSYN082AAXX  30004 82583 32996 00902 10292 20186 39771 40105 333 10369 29060 55099 59002;
0156825830999992011093012004-05167-040667FM-12+029999999V0200901N005110075019N0500001N1+02831+01961101301ADDGF106991061021008001001001KA1240N+02321MA1999999097951MD1999999-0081REMSYN076AAXX  30124 82583 32599 60910 10283 20196 39795 40130 86200 333 20232 59008;
0137825830999992011093018004-05167-040667FM-12+029999999V0200901N002612200019N0500001N1+03551+01681100711ADDGF102991021011008001001001MA1999999097391MD1999999-0111REMSYN070AAXX  30184 82583 32599 20905 10355 20168 39739 40071 82100 333 59011;
0178825830999992011100100004-05167-040667FM-12+029999999V0200901N002612200019N0040001N1+02931+01441100951ADDGA1001+999999999GF100991001001999999001001KA1240M+03631MA1999999097621MD1999999-0091REMSYN082AAXX  01004 82583 32996 00905 10293 20144 39762 40095 333 10363 29043 55093 59009;
0156825830999992011100112004-05167-040667FM-12+029999999V0200901N005710075019N0500001N1+02751+01861101221ADDGF106991061051008001001001KA1240N+02441MA1999999097881MD1999999-0071REMSYN076AAXX  01124 82583 32599 60911 10275 20186 39788 40122 86500 333 20244 59007;
0137825830999992011100118004-05167-040667FM-12+029999999V0201401N003612200019N0500001N1+03531+01671100681ADDGF104991041011008001001001MA1999999097361MD1999999-0031REMSYN070AAXX  01184 82583 32599 41407 10353 20167 39736 40068 84100 333 59003;
0168825830999992011100200004-05167-040667FM-12+029999999V0200901N002112200019N0040001N1+02911+01421100921ADDGF101991011001017501001011KA1240M+03631MA1999999097581MD1999999-0041REMSYN088AAXX  02004 82583 32796 10904 10291 20142 39758 40092 81001 333 10363 29043 55074 59004;
0156825830999992011100212004-05167-040667FM-12+029999999V0201401N005710075019N0500001N1+02811+01861101221ADDGF105991051011008001001001KA1240N+02261MA1999999097881MD1999999+0001REMSYN076AAXX  02124 82583 32599 51411 10281 20186 39788 40122 85100 333 20226 58000;
0137825830999992011100218004-05167-040667FM-12+029999999V0201401N002612200019N0500001N1+03561+01481100611ADDGF104991031011008001021021MA1999999097301MD1999999-0061REMSYN070AAXX  02184 82583 32599 41405 10356 20148 39730 40061 83122 333 59006;
0178825830999992011100300004-05167-040667FM-12+029999999V0200901N002112200019N0040001N1+02971+01351100851ADDGA1001+999999999GF100991001001999999001001KA1240M+03661MA1999999097521MD1999999-0061REMSYN082AAXX  03004 82583 32996 00904 10297 20135 39752 40085 333 10366 29080 55088 59006;
0175825830999992011100312004-05167-040667FM-12+029999999V0200901N005110075019N0500001N1+02651+01851101271ADDGF108991999021008001001001KA1240N+02391MA1999999097921MD1999999+0041REMSYN076AAXX  03124 82583 32599 80910 10265 20185 39792 40127 85200 333 20239 58004;EQDQ01+000052SCOTLC
0137825830999992011100318004-05167-040667FM-12+029999999V0201401N003112200019N0500001N1+03491+01631100701ADDGF103991021011008001021001MA1999999097381MD1999999+0081REMSYN070AAXX  03184 82583 32599 31406 10349 20163 39738 40070 82120 333 58008;
0168825830999992011100400004-05167-040667FM-12+029999999V0200901N003112200019N0040001N1+02981+01621100991ADDGF102991011011008001021001KA1240M+03561MA1999999097651MD1999999+0131REMSYN088AAXX  04004 82583 32596 20906 10298 20162 39765 40099 81120 333 10356 29046 55065 58013;
0156825830999992011100412004-05167-040667FM-12+029999999V0200901N004610075019N0500001N1+02771+01851101301ADDGF106991051011008001001011KA1240N+02381MA1999999097951MD1999999+0031REMSYN076AAXX  04124 82583 32599 60909 10277 20185 39795 40130 85101 333 20238 58003;
0137825830999992011100418004-05167-040667FM-12+029999999V0200901N004612200019N0500001N1+03611+01181100651ADDGF102991011011008001001021MA1999999097341MD1999999-0041REMSYN070AAXX  04184 82583 32599 20909 10361 20118 39734 40065 81102 333 59004;
0168825830999992011100500004-05167-040667FM-12+029999999V0200901N002112200019N0040001N1+02951+01501100961ADDGF101991001001999999001011KA1240M+03691MA1999999097621MD1999999-0031REMSYN088AAXX  05004 82583 32996 10904 10295 20150 39762 40096 80001 333 10369 29040 55088 59003;
0156825830999992011100512004-05167-040667FM-12+029999999V0200901N006710075019N0500001N1+02781+01911101341ADDGF106991061011008001001001KA1240N+02441MA1999999097981MD1999999+0031REMSYN076AAXX  05124 82583 32599 60913 10278 20191 39798 40134 86100 333 20244 58003;
0137825830999992011100518004-05167-040667FM-12+029999999V0201401N003612200019N0500001N1+03551+01481100751ADDGF101991011011008001001001MA1999999097431MD1999999+0091REMSYN070AAXX  05184 82583 32599 11407 10355 20148 39743 40075 81100 333 58009;
0178825830999992011100600004-05167-040667FM-12+029999999V0200901N002112200019N0040001N1+02931+01441101031ADDGA1001+999999999GF100991001001999999001001KA1240M+03641MA1999999097691MD1999999+0071REMSYN082AAXX  06004 82583 32996 00904 10293 20144 39769 40103 333 10364 29042 55086 58007;
0156825830999992011100612004-05167-040667FM-12+029999999V0200901N007712200019N0500001N1+02931+01691101301ADDGF102991011011008001001011KA1240N+02321MA1999999097961MD1999999-0021REMSYN076AAXX  06124 82583 32599 20915 10293 20169 39796 40130 81101 333 20232 59002;
0137825830999992011100618004-05167-040667FM-12+029999999V0201401N004612200019N0500001N1+03531+01241100741ADDGF102991001001999999001011MA1999999097421MD1999999-0011REMSYN070AAXX  06184 82583 32999 21409 10353 20124 39742 40074 80001 333 59001;
0168825830999992011100700004-05167-040667FM-12+029999999V0200901N002612200019N0040001N1+02951+01341101021ADDGF101991011011008001001001KA1240M+03631MA1999999097691MD1999999+0001REMSYN088AAXX  07004 82583 32596 10905 10295 20134 39769 40102 81100 333 10363 29036 55110 58000;
0156825830999992011100712004-05167-040667FM-12+029999999V0201401N005112200019N0500001N1+02921+01861101311ADDGF103991031011008001001001KA1240N+02381MA1999999097941MD1999999-0021REMSYN076AAXX  07124 82583 32599 31410 10292 20186 39794 40131 83100 333 20238 59002;
0137825830999992011100718004-05167-040667FM-12+029999999V0201401N005112200019N0500001N1+02571+01501100691ADDGF102991011011008001021011MA1999999097381MD1999999-0041REMSYN070AAXX  07184 82583 32599 21410 10257 20150 39738 40069 81121 333 59004;
0178825830999992011100800004-05167-040667FM-12+029999999V0200901N001512200019N0040001N1+02891+01321100921ADDGA1001+999999999GF100991001001999999001001KA1240M+03671MA1999999097591MD1999999-0101REMSYN082AAXX  08004 82583 32996 00903 10289 20132 39759 40092 333 10367 29040 55107 59010;
0156825830999992011100812004-05167-040667FM-12+029999999V0201401N004612200019N0500001N1+02841+01881101101ADDGF102991011011008001031001KA1240N+02201MA1999999097761MD1999999-0181REMSYN076AAXX  08124 82583 32599 21409 10284 20188 39776 40110 81130 333 20220 59018;
0137825830999992011100818004-05167-040667FM-12+029999999V0201401N002612200019N0500001N1+03581+01441100551ADDGF101991011011008001001001MA1999999097251MD1999999-0131REMSYN070AAXX  08184 82583 32599 11405 10358 20144 39725 40055 81100 333 59013;
0168825830999992011100900004-05167-040667FM-12+029999999V0200901N002612200019N0040001N1+03091+01191100891ADDGF104991041011008001001001KA1240M+03691MA1999999097571MD1999999-0021REMSYN088AAXX  09004 82583 32596 40905 10309 20119 39757 40089 84100 333 10369 29036 55105 59002;
0156825830999992011100912004-05167-040667FM-12+029999999V0200901N005712200019N0500001N1+02871+01891101101ADDGF103991031011008001001001KA1240N+02251MA1999999097771MD1999999+0011REMSYN076AAXX  09124 82583 32599 30911 10287 20189 39777 40110 83100 333 20225 58001;
0137825830999992011100918004-05167-040667FM-12+029999999V0200901N001512200019N0500001N1+03591+01861100521ADDGF102991021011008001001001MA1999999097201MD1999999-0051REMSYN070AAXX  09184 82583 32599 20903 10359 20186 39720 40052 82100 333 59005;
0168825830999992011101000004-05167-040667FM-12+029999999V0200901N002112200019N0040001N1+03071+01601100731ADDGF101991011011008001001001KA1240M+03701MA1999999097411MD1999999-0161REMSYN088AAXX  10004 82583 32596 10904 10307 20160 39741 40073 81100 333 10370 29043 55105 59016;
0156825830999992011101012004-05167-040667FM-12+029999999V0200901N005710075019N0500001N1+02831+01931101111ADDGF105991051011008001001001KA1240N+02251MA1999999097771MD1999999+0001REMSYN076AAXX  10124 82583 32599 50911 10283 20193 39777 40111 85100 333 20225 58000;
0137825830999992011101018004-05167-040667FM-12+029999999V0200901N002612200019N0500001N1+03431+01881100581ADDGF101991011011008001001001MA1999999097261MD1999999+0061REMSYN070AAXX  10184 82583 32599 10905 10343 20188 39726 40058 81100 333 58006;
0178825830999992011101100004-05167-040667FM-12+029999999V0200901N003112200019N0040001N1+02971+01761100721ADDGA1001+999999999GF100991001001999999001001KA1240M+03521MA1999999097391MD1999999-0021REMSYN082AAXX  11004 82583 32996 00906 10297 20176 39739 40072 333 10352 29048 55077 59002;
0156825830999992011101112004-05167-040667FM-12+029999999V0200901N004610075019N0500001N1+02751+01391101181ADDGF106991061011008001001001KA1240N+02311MA1999999097841MD1999999+0071REMSYN076AAXX  11124 82583 32599 60909 10275 20139 39784 40118 86100 333 20231 58007;
0137825830999992011101118004-05167-040667FM-12+029999999V0200901N002112200019N0500001N1+03601+01771100531ADDGF104991041021008001001001MA1999999097221MD1999999-0041REMSYN070AAXX  11184 82583 32599 40904 10360 20177 39722 40053 84200 333 59004;
0168825830999992011101200004-05167-040667FM-12+029999999V0200901N003112200019N0040001N1+03131+01661100731ADDGF101991011011008001001001KA1240M+03701MA1999999097411MD1999999+0021REMSYN088AAXX  12004 82583 32596 10906 10313 20166 39741 40073 81100 333 10370 29044 55076 58002;
0156825830999992011101212004-05167-040667FM-12+029999999V0200901N004612200019N0500001N1+02941+01821101091ADDGF102991021011008001001001KA1240N+02451MA1999999097771MD1999999-0071REMSYN076AAXX  12124 82583 32599 20909 10294 20182 39777 40109 82100 333 20245 59007;
0137825830999992011101218004-05167-040667FM-12+029999999V0201401N002612200019N0500001N1+03561+01821100501ADDGF102991021011008001001001MA1999999097181MD1999999-0041REMSYN070AAXX  12184 82583 32599 21405 10356 20182 39718 40050 82100 333 59004;
0168825830999992011101300004-05167-040667FM-12+029999999V0200901N001512200019N0040001N1+03001+01781100671ADDGF101991011011008001001001KA1240M+03631MA1999999097351MD1999999-0061REMSYN088AAXX  13004 82583 32596 10903 10300 20178 39735 40067 81100 333 10363 29046 55095 59006;
0156825830999992011101312004-05167-040667FM-12+029999999V0200901N003110120019N0500001N1+02721+02081101041ADDGF108991081081008001999999KA1240N+02451MA1999999097701MD1999999-0071REMSYN076AAXX  13124 82583 32599 80906 10272 20208 39770 40104 888// 333 20245 59007;
0137825830999992011101318004-05167-040667FM-12+029999999V0201401N003612200019N0500001N1+03411+01911100551ADDGF102991021011008001001001MA1999999097231MD1999999-0121REMSYN070AAXX  13184 82583 32599 21407 10341 20191 39723 40055 82100 333 59012;
0168825830999992011101400004-05167-040667FM-12+029999999V0203601N001010075019N0040001N1+02921+02041100741ADDGF106991051011008001021001KA1240M+03491MA1999999097401MD1999999+0051REMSYN088AAXX  14004 82583 32596 63602 10292 20204 39740 40074 85120 333 10349 29057 55060 58005;
0156825830999992011101412004-05167-040667FM-12+029999999V0200901N005710120019N0500001N1+02611+02051100991ADDGF108991081081008001999999KA1240N+02451MA1999999097641MD1999999-0061REMSYN076AAXX  14124 82583 32599 80911 10261 20205 39764 40099 888// 333 20245 59006;
0156825830999992011101418004-05167-040667FM-12+029999999V0201401N002119999999N0500001N1+03171+01981100971ADDGF106991999081008001999999MA1999999097631MD1999999+0001REMSYN070AAXX  14184 82583 32599 61404 10317 20198 39763 40097 878// 333 58000;EQDQ01+000072SCOTLC
0168825830999992011101500004-05167-040667FM-12+029999999V0200901N003612200019N0040001N1+02831+01911100701ADDGF101991011011008001001001KA1240M+03331MA1999999097351MD1999999-0051REMSYN088AAXX  15004 82583 32596 10907 10283 20191 39735 40070 81100 333 10333 29058 55018 59005;
0156825830999992011101512004-05167-040667FM-12+029999999V0200901N003610075019N0500001N1+02751+02041101011ADDGF106991061011008001001001KA1240N+02361MA1999999097661MD1999999+0021REMSYN076AAXX  15124 82583 32599 60907 10275 20204 39766 40101 86100 333 20236 58002;
0137825830999992011101518004-05167-040667FM-12+029999999V0201401N001010075019N0500001N1+03431+01881100461ADDGF105991051011008001001001MA1999999097141MD1999999-0091REMSYN070AAXX  15184 82583 32599 51402 10343 20188 39714 40046 85100 333 59009;
0168825830999992011101600004-05167-040667FM-12+029999999V0200901N001012200019N0040001N1+03541+01971100621ADDGF101991011011008001021001KA1240M+03541MA1999999097301MD1999999-0051REMSYN088AAXX  16004 82583 32596 10902 10354 20197 39730 40062 81120 333 10354 29053 55065 59005;
0156825830999992011101612004-05167-040667FM-12+029999999V0200901N003110450019N0500001N1+02881+02181101001ADDGF105991041011008001021001KA1240N+02441MA1999999097671MD1999999+0011REMSYN076AAXX  16124 82583 32599 50906 10288 20218 39767 40100 84120 333 20244 58001;
0137825830999992011101618004-05167-040667FM-12+029999999V0200501N001512200019N0500001N1+03391+02041100561ADDGF104991041011008001001001MA1999999097241MD1999999+0101REMSYN070AAXX  16184 82583 32599 40503 10339 20204 39724 40056 84100 333 58010;
0168825830999992011101700004-05167-040667FM-12+029999999V0203601N002112200019N0040001N1+02771+02131100781ADDGF102991021011008001001001KA1240M+03521MA1999999097441MD1999999+0141REMSYN088AAXX  17004 82583 32596 23604 10277 20213 39744 40078 82100 333 10352 29062 55066 58014;
0156825830999992011101712004-05167-040667FM-12+029999999V0200501N002610075019N0500001N1+02651+02141100931ADDGF108991081051008001999999KA1240N+02331MA1999999097571MD1999999-0101REMSYN076AAXX  17124 82583 32599 80505 10265 20214 39757 40093 885// 333 20233 59010;
0137825830999992011101718004-05167-040667FM-12+029999999V0200501N002610075019N0500001N1+03271+02071100511ADDGF106991061051008001001001MA1999999097181MD1999999-0061REMSYN070AAXX  17184 82583 32599 60505 10327 20207 39718 40051 86500 333 59006;
0178825830999992011101800004-05167-040667FM-12+029999999V0200901N001012200019N0040001N1+02791+02221100671ADDGA1001+999999999GF100991001001999999001001KA1240M+03321MA1999999097331MD1999999-0111REMSYN082AAXX  18004 82583 32996 00902 10279 20222 39733 40067 333 10332 29066 55022 59011;
0156825830999992011101812004-05167-040667FM-12+029999999V0200901N002110075019N0500001N1+02661+02021100911ADDGF108991081051008001999999KA1240N+02291MA1999999097551MD1999999-0021REMSYN076AAXX  18124 82583 32599 80904 10266 20202 39755 40091 885// 333 20229 59002;
0137825830999992011101818004-05167-040667FM-12+029999999V0202301N001512200019N0500001N1+03321+01851100451ADDGF106991041021008001001011MA1999999097131MD1999999-0051REMSYN070AAXX  18184 82583 32599 62303 10332 20185 39713 40045 84201 333 59005;
0168825830999992011101900004-05167-040667FM-12+029999999V0201801N000512200019N0040001N1+02941+02141100751ADDGF102991021051008001001001KA1240M+03561MA1999999097411MD1999999+0081REMSYN088AAXX  19004 82583 32596 21801 10294 20214 39741 40075 82500 333 10356 29060 55058 58008;
0201825830999992011101912004-05167-040667FM-12+029999999V0200901N001510075019N0500001N1+02691+02221101151ADDAA124004191AY161061AY261061GF106991061051008001001001KA1240N+02351MA1999999097801MD1999999+0251MW1031REMSYN088AAXX  19124 82583 21599 60903 10269 20222 39780 40115 70366 86500 333 20235 58025 60044;
0137825830999992011101918004-05167-040667FM-12+029999999V0201401N003610450019N0500001N1+03481+01921100521ADDGF105991041021008001021011MA1999999097211MD1999999+0081REMSYN070AAXX  19184 82583 32599 51407 10348 20192 39721 40052 84221 333 58008;
0168825830999992011102000004-05167-040667FM-12+029999999V0200501N001012200019N0040001N1+03111+02081100851ADDGF103991031051008001001001KA1240M+03541MA1999999097521MD1999999+0111REMSYN088AAXX  20004 82583 32596 30502 10311 20208 39752 40085 83500 333 10354 29056 55073 58011;
0156825830999992011102012004-05167-040667FM-12+029999999V0203601N001510120019N0500001N1+02631+02231101091ADDGF107991061081008001001011KA1240N+02441MA1999999097751MD1999999-0051REMSYN076AAXX  20124 82583 32599 73603 10263 20223 39775 40109 86801 333 20244 59005;
0182825830999992011102018004-05167-040667FM-12+029999999V0200901N002110450019N0500001N1+02551+02291100771ADDAA106005191AY161061AY261061GF108991031021008001021001MA1999999097411MD1999999+0201MW1021REMSYN082AAXX  20184 82583 21599 80904 10255 20229 39741 40077 70266 83220 333 58020 60051;
0213825830999992011102100004-05167-040667FM-12+029999999V0203601N000510120019N0040001N1+02511+02311100971ADDAA106000021AY151061AY251061GF108991081081008001999999KA1240M+03041MA1999999097611MD1999999-0091MW1631REMSYN100AAXX  21004 82583 21596 83601 10251 20231 39761 40097 76355 888// 333 10304 29085 55022 59009 69921;
0201825830999992011102112004-05167-040667FM-12+029999999V0201801N003110120019N0500001N1+02121+02051101301ADDAA124021191AY161061AY261061GF108991081081008001999999KA1240N+02021MA1999999097891MD1999999+0141MW1601REMSYN088AAXX  21124 82583 21599 81806 10212 20205 39789 40130 76066 888// 333 20202 58014 60214;
0182825830999992011102118004-05167-040667FM-12+029999999V0203201N001510075019N0500001N1+02881+02211100821ADDAA106003091AY161061AY261061GF106991061051008001021001MA1999999097461MD1999999+0051MW1031REMSYN082AAXX  21184 82583 21599 63203 10288 20221 39746 40082 70366 86520 333 58005 60031;
0168825830999992011102200004-05167-040667FM-12+029999999V0200501N002112200019N0040001N1+02481+02211101081ADDGF102991021051008001001001KA1240M+02911MA1999999097671MD1999999+0061REMSYN088AAXX  22004 82583 32596 20504 10248 20221 39767 40108 82500 333 10291 29083 55000 58006;
0173825830999992011102212004-05167-040667FM-12+029999999V0200901N006210450019N0500001N1+02721+02001101161ADDAA124003091GF105991031011008001011001KA1240N+02111MA1999999097791MD1999999-0101REMSYN082AAXX  22124 82583 22599 50912 10272 20200 39779 40116 83110 333 20211 59010 60034;
0137825830999992011102218004-05167-040667FM-12+029999999V0200501N002112200019N0500001N1+03451+01691100731ADDGF103991031021008001001001MA1999999097401MD1999999-0061REMSYN070AAXX  22184 82583 32599 30504 10345 20169 39740 40073 83200 333 59006;
0178825830999992011102300004-05167-040667FM-12+029999999V0202701N001012200019N0040001N1+02831+01911101111ADDGA1001+999999999GF100991001001999999001001KA1240M+03511MA1999999097751MD1999999+0081REMSYN082AAXX  23004 82583 32996 02702 10283 20191 39775 40111 333 10351 29054 55097 58008;
0156825830999992011102312004-05167-040667FM-12+029999999V0200501N002110120019N0500001N1+02701+02061101421ADDGF107991071081008001999999KA1240N+02091MA1999999098061MD1999999+0271REMSYN076AAXX  23124 82583 32599 70504 10270 20206 39806 40142 878// 333 20209 58027;
0137825830999992011102318004-05167-040667FM-12+029999999V0201401N004112200019N0500001N1+03371+01711100861ADDGF102991021021008001001001MA1999999097521MD1999999+0121REMSYN070AAXX  23184 82583 32599 21408 10337 20171 39752 40086 82200 333 58012;
0178825830999992011102400004-05167-040667FM-12+029999999V0200901N001012200019N0040001N1+02791+01841101131ADDGA1001+999999999GF100991001001999999001001KA1240M+03471MA1999999097771MD1999999+0021REMSYN082AAXX  24004 82583 32996 00902 10279 20184 39777 40113 333 10347 29054 55096 58002;
0156825830999992011102412004-05167-040667FM-12+029999999V0201401N006712200019N0500001N1+02921+01981101221ADDGF103991031011008001001001KA1240N+02221MA1999999097881MD1999999-0181REMSYN076AAXX  24124 82583 32599 31413 10292 20198 39788 40122 83100 333 20222 59018;
0137825830999992011102418004-05167-040667FM-12+029999999V0201401N005712200019N0500001N1+03521+01651100581ADDGF101991011011008001001001MA1999999097261MD1999999-0261REMSYN070AAXX  24184 82583 32599 11411 10352 20165 39726 40058 81100 333 59026;
0178825830999992011102500004-05167-040667FM-12+029999999V0200901N004112200019N0040001N1+02931+01591100871ADDGA1001+999999999GF100991001001999999001001KA1240M+03611MA1999999097541MD1999999-0231REMSYN082AAXX  25004 82583 32996 00908 10293 20159 39754 40087 333 10361 29044 55111 59023;
0156825830999992011102512004-05167-040667FM-12+029999999V0200901N006210075019N0500001N1+02681+01841101251ADDGF106991061011008001001001KA1240N+02251MA1999999097901MD1999999+0021REMSYN076AAXX  25124 82583 32599 60912 10268 20184 39790 40125 86100 333 20225 58002;
0137825830999992011102518004-05167-040667FM-12+029999999V0200901N003112200019N0500001N1+03291+01551100791ADDGF104991041011008001001001MA1999999097451MD1999999+0191REMSYN070AAXX  25184 82583 32599 40906 10329 20155 39745 40079 84100 333 58019;
0178825830999992011102600004-05167-040667FM-12+029999999V0200901N002612200019N0040001N1+02701+01541101021ADDGA1001+999999999GF100991001001999999001001KA1240M+03441MA1999999097661MD1999999+0121REMSYN082AAXX  26004 82583 32996 00905 10270 20154 39766 40102 333 10344 29048 55080 58012;
0156825830999992011102612004-05167-040667FM-12+029999999V0200901N006212200019N0500001N1+02891+01811101191ADDGF102991011011008001001011KA1240N+02201MA1999999097841MD1999999-0061REMSYN076AAXX  26124 82583 32599 20912 10289 20181 39784 40119 81101 333 20220 59006;
0137825830999992011102618004-05167-040667FM-12+029999999V0200901N004612200019N0500001N1+03501+01531100621ADDGF104991011011008001001011MA1999999097301MD1999999-0151REMSYN070AAXX  26184 82583 32599 40909 10350 20153 39730 40062 81101 333 59015;
0178825830999992011102700004-05167-040667FM-12+029999999V0200901N002612200019N0040001N1+02891+01551100891ADDGA1001+999999999GF100991001001999999001001KA1240M+03571MA1999999097561MD1999999-0101REMSYN082AAXX  27004 82583 32996 00905 10289 20155 39756 40089 333 10357 29043 55104 59010;
0156825830999992011102712004-05167-040667FM-12+029999999V0200901N005112200019N0500001N1+02941+01971101121ADDGF103991031011008001001001KA1240N+02261MA1999999097781MD1999999-0061REMSYN076AAXX  27124 82583 32599 30910 10294 20197 39778 40112 83100 333 20226 59006;
0137825830999992011102718004-05167-040667FM-12+029999999V0201401N003610075019N0500001N1+03551+01781100541ADDGF105991051021008001001001MA1999999097221MD1999999-0081REMSYN070AAXX  27184 82583 32599 51407 10355 20178 39722 40054 85200 333 59008;
0178825830999992011102800004-05167-040667FM-12+029999999V0200901N002112200019N0040001N1+02901+01721100801ADDGA1001+999999999GF100991001001999999001001KA1240M+03551MA1999999097471MD1999999-0091REMSYN082AAXX  28004 82583 32996 00904 10290 20172 39747 40080 333 10355 29047 55099 59009;
0156825830999992011102812004-05167-040667FM-12+029999999V0200901N003610120019N0500001N1+02851+02061101041ADDGF107991061081008001001011KA1240N+02411MA1999999097701MD1999999-0081REMSYN076AAXX  28124 82583 32599 70907 10285 20206 39770 40104 86801 333 20241 59008;
0156825830999992011102818004-05167-040667FM-12+029999999V0201401N003119999999N0500001N1+03401+02001100531ADDGF105991999051008001021001MA1999999097211MD1999999-0011REMSYN070AAXX  28184 82583 32599 51406 10340 20200 39721 40053 88520 333 59001;EQDQ01+000082SCOTLC
0178825830999992011102900004-05167-040667FM-12+029999999V0200901N001512200019N0040001N1+02911+01741100621ADDGA1001+999999999GF100991001001999999001001KA1240M+03531MA1999999097301MD1999999-0171REMSYN082AAXX  29004 82583 32996 00903 10291 20174 39730 40062 333 10353 29051 55099 59017;
0156825830999992011102912004-05167-040667FM-12+029999999V0200901N005710075019N0500001N1+02741+01891101131ADDGF106991061011008001001001KA1240N+02401MA1999999097781MD1999999+0081REMSYN076AAXX  29124 82583 32599 60911 10274 20189 39778 40113 86100 333 20240 58008;
0178825830999992011103000004-05167-040667FM-12+029999999V0200901N002112200019N0040001N1+02811+01741100751ADDGA1001+999999999GF100991001001999999001001KA1240M+03481MA1999999097411MD1999999+0111REMSYN082AAXX  30004 82583 32996 00904 10281 20174 39741 40075 333 10348 29050 55050 58011;
0156825830999992011103012004-05167-040667FM-12+029999999V0200901N003112200019N0500001N1+02801+01921101111ADDGF103991021011008001021001KA1240N+02211MA1999999097761MD1999999-0021REMSYN076AAXX  30124 82583 32599 30906 10280 20192 39776 40111 82120 333 20221 59002;
0137825830999992011103018004-05167-040667FM-12+029999999V0200901N001510450019N0500001N1+03491+01631100531ADDGF105991041021008001021001MA1999999097211MD1999999+0011REMSYN070AAXX  30184 82583 32599 50903 10349 20163 39721 40053 84220 333 58001;
0168825830999992011103100004-05167-040667FM-12+029999999V0202701N001512200019N0040001N1+02911+01921100781ADDGF103991031011008001001001KA1240M+03591MA1999999097411MD1999999+0071REMSYN088AAXX  31004 82583 32596 32703 10291 20192 39741 40078 83100 333 10359 29050 55099 58007;
0156825830999992011103112004-05167-040667FM-12+029999999V0200901N002110120019N0500001N1+02701+02061101041ADDGF107991071081008001001001KA1240N+02331MA1999999097691MD1999999-0071REMSYN076AAXX  31124 82583 32599 70904 10270 20206 39769 40104 87800 333 20233 59007;
0137825830999992011103118004-05167-040667FM-12+029999999V0201401N002110450019N0500001N1+03431+01881100541ADDGF105991031021008001021001MA1999999097221MD1999999+0011REMSYN070AAXX  31184 82583 32599 51404 10343 20188 39722 40054 83220 333 58001;
0168825830999992011110100004-05167-040667FM-12+029999999V0200901N000512200019N0040001N1+02931+02031100671ADDGF102991021011008001001001KA1240M+03511MA1999999097341MD1999999-0101REMSYN088AAXX  01004 82583 32596 20901 10293 20203 39734 40067 82100 333 10351 29056 55087 59010;
0156825830999992011110112004-05167-040667FM-12+029999999V0200901N003110120019N0500001N1+02691+02061101121ADDGF106991061081008001001001KA1240N+02481MA1999999097771MD1999999+0081REMSYN076AAXX  01124 82583 32599 60906 10269 20206 39777 40112 86800 333 20248 58008;
0137825830999992011110118004-05167-040667FM-12+029999999V0201401N004612200019N0500001N1+03291+01951100691ADDGF103991021011008001001011MA1999999097351MD1999999+0131REMSYN070AAXX  01184 82583 32599 31409 10329 20195 39735 40069 82101 333 58013;
0168825830999992011110200004-05167-040667FM-12+029999999V0200901N000512200019N0040001N1+02821+02051100971ADDGF101991011011008001001001KA1240M+03371MA1999999097631MD1999999+0291REMSYN088AAXX  02004 82583 32596 10901 10282 20205 39763 40097 81100 333 10337 29060 55045 58029;
0156825830999992011110212004-05167-040667FM-12+029999999V0200901N005110075019N0500001N1+02821+01891101311ADDGF106991061011008001001001KA1240N+02341MA1999999097951MD1999999+0181REMSYN076AAXX  02124 82583 32599 60910 10282 20189 39795 40131 86100 333 20234 58018;
0137825830999992011110218004-05167-040667FM-12+029999999V0200901N004610075019N0500001N1+03261+01641100881ADDGF105991051011008001001001MA1999999097541MD1999999+0191REMSYN070AAXX  02184 82583 32599 50909 10326 20164 39754 40088 85100 333 58019;
0168825830999992011110300004-05167-040667FM-12+029999999V0202301N001012200019N0040001N1+02711+02151101161ADDGF103991031011008001001001KA1240M+03351MA1999999097801MD1999999+0171REMSYN088AAXX  03004 82583 32596 32302 10271 20215 39780 40116 83100 333 10335 29059 55036 58017;
0156825830999992011110312004-05167-040667FM-12+029999999V0200901N003110120019N0500001N1+02811+02071101291ADDGF106991061081008001001001KA1240N+02221MA1999999097931MD1999999-0021REMSYN076AAXX  03124 82583 32599 60906 10281 20207 39793 40129 86800 333 20222 59002;
0165825830999992011110318004-05167-040667FM-12+029999999V0201401N002610120019N0500001N1+03331+01981100751ADDAY121061AY221061GF107991061081008001001011MA1999999097411MD1999999-0131MW1161REMSYN076AAXX  03184 82583 31599 71405 10333 20198 39741 40075 71622 86801 333 59013;
0213825830999992011110400004-05167-040667FM-12+029999999V0202701N001019999999N0040001N1+02471+02271101121ADDAA106023991AY161061AY261061GF108991081999008001999999KA1240M+03511MA1999999097761MD1999999-0041MW1171REMSYN100AAXX  04004 82583 21596 82702 10247 20227 39776 40112 71766 88/// 333 10351 29071 55059 59004 60241;
0201825830999992011110412004-05167-040667FM-12+029999999V0201401N002610120019N0500001N1+02591+02191101251ADDAA124032091AY191061AY261061GF106991061081008001001001KA1240N+02271MA1999999097871MD1999999-0061MW1031REMSYN088AAXX  04124 82583 21599 61405 10259 20219 39787 40125 70396 86800 333 20227 59006 60324;
0137825830999992011110418004-05167-040667FM-12+029999999V0201401N003110450019N0500001N1+03011+02101100931ADDGF105991041051008001031001MA1999999097571MD1999999+0161REMSYN070AAXX  04184 82583 32599 51406 10301 20210 39757 40093 84530 333 58016;
0178825830999992011110500004-05167-040667FM-12+029999999V0201801N001512200019N0500001N1+02521+02131101161ADDGA1001+999999999GF100991001001999999001001KA1240M+03061MA1999999097781MD1999999+0021REMSYN082AAXX  05004 82583 32599 01803 10252 20213 39778 40116 333 10306 29074 55046 58002;
0156825830999992011110512004-05167-040667FM-12+029999999V0200901N004110075019N0500001N1+02441+02071101361ADDGF106991051051008001031001KA1240N+02241MA1999999097971MD1999999+0101REMSYN076AAXX  05124 82583 32599 60908 10244 20207 39797 40136 85530 333 20224 58010;
0137825830999992011110518004-05167-040667FM-12+029999999V0201401N006210075019N0500001N1+03111+01951100741ADDGF105991051021008001001001MA1999999097391MD1999999-0181REMSYN070AAXX  05184 82583 32599 51412 10311 20195 39739 40074 85200 333 59018;
0178825830999992011110600004-05167-040667FM-12+029999999V0201801N003112200019N0040001N1+02591+02061101001ADDGA1001+999999999GF100991001001999999001001KA1240M+03211MA1999999097621MD1999999-0161REMSYN082AAXX  06004 82583 32996 01806 10259 20206 39762 40100 333 10321 29068 55075 59016;
0156825830999992011110612004-05167-040667FM-12+029999999V0201401N004610120019N0500001N1+02311+02221101281ADDGF107991071081008001999999KA1240N+02311MA1999999097881MD1999999-0091REMSYN076AAXX  06124 82583 32599 71409 10231 20222 39788 40128 878// 333 20231 59009;
0137825830999992011110618004-05167-040667FM-12+029999999V0201801N004612200019N0500001N1+03001+02031100811ADDGF106991031021008001001011MA1999999097451MD1999999+0061REMSYN070AAXX  06184 82583 32599 61809 10300 20203 39745 40081 83201 333 58006;
0168825830999992011110700004-05167-040667FM-12+029999999V0201801N001019999999N0040001N1+02551+02081101041ADDGF106991061001012501051001KA1240M+03111MA1999999097661MD1999999+0041REMSYN088AAXX  07004 82583 32696 61802 10255 20208 39766 40104 86050 333 10311 29075 55055 58004;
0156825830999992011110712004-05167-040667FM-12+029999999V0200901N004610075019N0500001N1+02661+02001101091ADDGF105991051051008001001001KA1240N+02071MA1999999097721MD1999999-0161REMSYN076AAXX  07124 82583 32599 50909 10266 20200 39772 40109 85500 333 20207 59016;
0137825830999992011110718004-05167-040667FM-12+029999999V0200901N002111050019N0500001N1+03211+01801100591ADDGF106991031021008001001021MA1999999097251MD1999999-0201REMSYN070AAXX  07184 82583 32599 60904 10321 20180 39725 40059 83202 333 59020;
0168825830999992011110800004-05167-040667FM-12+029999999V0201401N002112200019N0040001N1+02671+02041100851ADDGF101991001001999999001011KA1240M+03301MA1999999097491MD1999999-0171REMSYN088AAXX  08004 82583 32996 11404 10267 20204 39749 40085 80001 333 10330 29062 55086 59017;
0156825830999992011110812004-05167-040667FM-12+029999999V0200901N005112200019N0500001N1+02831+01911101021ADDGF104991041011008001001001KA1240N+02181MA1999999097661MD1999999-0061REMSYN076AAXX  08124 82583 32599 40910 10283 20191 39766 40102 84100 333 20218 59006;
0137825830999992011110818004-05167-040667FM-12+029999999V0200901N004612200019N0500001N1+03291+01711100541ADDGF104991041011008001001021MA1999999097201MD1999999-0051REMSYN070AAXX  08184 82583 32599 40909 10329 20171 39720 40054 84102 333 59005;
0168825830999992011110900004-05167-040667FM-12+029999999V0201801N001512200019N0040001N1+02631+01931100861ADDGF103991021011008001021001KA1240M+03331MA1999999097521MD1999999+0031REMSYN088AAXX  09004 82583 32596 31803 10263 20193 39752 40086 82120 333 10333 29056 55102 58003;
0156825830999992011110912004-05167-040667FM-12+029999999V0200901N005112200019N0500001N1+02781+01981101121ADDGF104991031011008001001011KA1240N+02291MA1999999097761MD1999999+0101REMSYN076AAXX  09124 82583 32599 40910 10278 20198 39776 40112 83101 333 20229 58010;
0137825830999992011110918004-05167-040667FM-12+029999999V0201401N002612200019N0500001N1+03491+01721100491ADDGF103991031011008001001001MA1999999097171MD1999999-0031REMSYN070AAXX  09184 82583 32599 31405 10349 20172 39717 40049 83100 333 59003;
0168825830999992011111000004-05167-040667FM-12+029999999V0201401N001512200019N0040001N1+02911+01801100821ADDGF102991021051008001001001KA1240M+03571MA1999999097481MD1999999-0041REMSYN088AAXX  10004 82583 32596 21403 10291 20180 39748 40082 82500 333 10357 29050 55096 59004;
0156825830999992011111012004-05167-040667FM-12+029999999V0200901N005112200019N0500001N1+02871+01911101121ADDGF104991041011008001001001KA1240N+02331MA1999999097781MD1999999+0021REMSYN076AAXX  10124 82583 32599 40910 10287 20191 39778 40112 84100 333 20233 58002;
0137825830999992011111018004-05167-040667FM-12+029999999V0200901N002610450019N0500001N1+03411+01651100651ADDGF105991041011008001021001MA1999999097331MD1999999+0161REMSYN070AAXX  10184 82583 32599 50905 10341 20165 39733 40065 84120 333 58016;
0168825830999992011111100004-05167-040667FM-12+029999999V0200901N001510075019N0040001N1+03051+01991100831ADDGF106991061011008001001001KA1240M+03591MA1999999097511MD1999999+0031REMSYN088AAXX  11004 82583 32596 60903 10305 20199 39751 40083 86100 333 10359 29049 55096 58003;
0156825830999992011111112004-05167-040667FM-12+029999999V0200901N005112200019N0500001N1+02891+01931101031ADDGF104991031011008001001011KA1240N+02381MA1999999097701MD1999999-0081REMSYN076AAXX  11124 82583 32599 40910 10289 20193 39770 40103 83101 333 20238 59008;
0137825830999992011111118004-05167-040667FM-12+029999999V0200901N003110075019N0500001N1+03351+01851100561ADDGF106991061021008001001001MA1999999097241MD1999999-0091REMSYN070AAXX  11184 82583 32599 60906 10335 20185 39724 40056 86200 333 59009;
0168825830999992011111200004-05167-040667FM-12+029999999V0201401N002112200019N0040001N1+02891+01751100821ADDGF102991021021008001001001KA1240M+03461MA1999999097491MD1999999-0021REMSYN088AAXX  12004 82583 32596 21404 10289 20175 39749 40082 82200 333 10346 29048 55062 59002;
0156825830999992011111212004-05167-040667FM-12+029999999V0200901N005110075019N0500001N1+02911+01921101041ADDGF105991051011008001001001KA1240N+02481MA1999999097701MD1999999+0001REMSYN076AAXX  12124 82583 32599 50910 10291 20192 39770 40104 85100 333 20248 58000;
0137825830999992011111218004-05167-040667FM-12+029999999V0200901N004110075019N0500001N1+03291+01871100651ADDGF106991051011008001031011MA1999999097331MD1999999+0091REMSYN070AAXX  12184 82583 32599 60908 10329 20187 39733 40065 85131 333 58009;
0168825830999992011111300004-05167-040667FM-12+029999999V0200901N002112200019N0040001N1+02731+01761100851ADDGF103991021011008001031001KA1240M+03411MA1999999097511MD1999999+0021REMSYN088AAXX  13004 82583 32596 30904 10273 20176 39751 40085 82130 333 10341 29052 55064 58002;
0156825830999992011111312004-05167-040667FM-12+029999999V0200901N005712200019N0500001N1+02881+01771101081ADDGF103991031011008001001011KA1240N+02441MA1999999097731MD1999999+0031REMSYN076AAXX  13124 82583 32599 30911 10288 20177 39773 40108 83101 333 20244 58003;
0137825830999992011111318004-05167-040667FM-12+029999999V0200901N005112200019N0500001N1+03441+01431100611ADDGF103991021011008001021021MA1999999098291MD1999999-0041REMSYN070AAXX  13184 82583 32599 30910 10344 20143 39829 40061 82122 333 59004;
0187825830999992011111400004-05167-040667FM-12+029999999V0200901N004112200019N0040001N1+02821+01441100821ADDGF104991041001017501021001KA1240M+03531MA1999999097482MD1999999-0031REMSYN088AAXX  14004 82583 32796 40908 10282 20144 39748 40082 84020 333 10353 29042 55086 59003;EQDQ01+097483APOSP 
0156825830999992011111412004-05167-040667FM-12+029999999V0201401N006210075019N0500001N1+02831+01881101141ADDGF106991051021008001001011KA1240N+02341MA1999999097791MD1999999+0061REMSYN076AAXX  14124 82583 32599 61412 10283 20188 39779 40114 85201 333 20234 58006;
0137825830999992011111418004-05167-040667FM-12+029999999V0200901N005110075019N0500001N1+03381+01621100631ADDGF105991051011008001001001MA1999999097311MD1999999+0021REMSYN070AAXX  14184 82583 32599 50910 10338 20162 39731 40063 85100 333 58002;
0178825830999992011111500004-05167-040667FM-12+029999999V0200901N002112200019N0040001N1+02731+01571100861ADDGA1001+999999999GF100991001001999999001001KA1240M+03441MA1999999097521MD1999999+0041REMSYN082AAXX  15004 82583 32996 00904 10273 20157 39752 40086 333 10344 29047 55095 58004;
0156825830999992011111512004-05167-040667FM-12+029999999V0200901N003612200019N0500001N1+02861+01951101071ADDGF103991031011008001001001KA1240N+02291MA1999999097721MD1999999-0071REMSYN076AAXX  15124 82583 32599 30907 10286 20195 39772 40107 83100 333 20229 59007;
0137825830999992011111518004-05167-040667FM-12+029999999V0200901N004610075019N0500001N1+03421+01781100571ADDGF106991051021008001001011MA1999999097251MD1999999-0061REMSYN070AAXX  15184 82583 32599 60909 10342 20178 39725 40057 85201 333 59006;
0168825830999992011111600004-05167-040667FM-12+029999999V0201401N002112200019N0040001N1+02891+01841100761ADDGF101991011011008001001001KA1240M+03511MA1999999097431MD1999999-0091REMSYN088AAXX  16004 82583 32596 11404 10289 20184 39743 40076 81100 333 10351 29050 55095 59009;
0156825830999992011111612004-05167-040667FM-12+029999999V0200901N003612200019N0500001N1+02891+01871101031ADDGF101991011011008001001001KA1240N+02261MA1999999097691MD1999999-0031REMSYN076AAXX  16124 82583 32599 10907 10289 20187 39769 40103 81100 333 20226 59003;
0137825830999992011111618004-05167-040667FM-12+029999999V0201401N003610075019N0500001N1+03521+01551100861ADDGF105991051011008001001001MA1999999097231MD1999999-0021REMSYN070AAXX  16184 82583 32599 51407 10352 20155 39723 40086 85100 333 59002;
0178825830999992011111700004-05167-040667FM-12+029999999V0200901N002112200019N0040001N1+02951+01681100741ADDGA1001+999999999GF100991001001999999001001KA1240M+03611MA1999999097411MD1999999-0021REMSYN082AAXX  17004 82583 32996 00904 10295 20168 39741 40074 333 10361 29044 55107 59002;
0156825830999992011111712004-05167-040667FM-12+029999999V0200901N006210120019N0500001N1+02801+01981101031ADDGF107991071081008001001001KA1240N+02351MA1999999097681MD1999999-0011REMSYN076AAXX  17124 82583 32599 70912 10280 20198 39768 40103 87800 333 20235 59001;
0137825830999992011111718004-05167-040667FM-12+029999999V0200501N002612200019N0500001N1+03511+01721100481ADDGF104991041021008001001001MA1999999097161MD1999999-0071REMSYN070AAXX  17184 82583 32599 40505 10351 20172 39716 40048 84200 333 59007;
0178825830999992011111800004-05167-040667FM-12+029999999V0200901N003112200019N0040001N1+02911+01831100671ADDGA1001+999999999GF100991001001999999001001KA1240M+03621MA1999999097351MD1999999-0061REMSYN082AAXX  18004 82583 32996 00906 10291 20183 39735 40067 333 10362 29050 55087 59006;
0156825830999992011111812004-05167-040667FM-12+029999999V0200901N005110075019N0500001N1+02961+01811101011ADDGF105991051011008001001001KA1240N+02291MA1999999097681MD1999999+0001REMSYN076AAXX  18124 82583 32599 50910 10296 20181 39768 40101 85100 333 20229 58000;
0137825830999992011111818004-05167-040667FM-12+029999999V0201401N004112200019N0500001N1+03531+01971100591ADDGF104991031011008001021001MA1999999097281MD1999999+0121REMSYN070AAXX  18184 82583 32599 41408 10353 20197 39728 40059 83120 333 58012;
0178825830999992011111900004-05167-040667FM-12+029999999V0201801N000512200019N0040001N1+02891+01841100831ADDGA1001+999999999GF100991001001999999001001KA1240M+03611MA1999999097501MD1999999+0151REMSYN082AAXX  19004 82583 32996 01801 10289 20184 39750 40083 333 10361 29048 55096 58015;
0156825830999992011111912004-05167-040667FM-12+029999999V0200901N004610075019N0500001N1+02791+01981101131ADDGF106991051011008001021001KA1240N+02201MA1999999097791MD1999999-0181REMSYN076AAXX  19124 82583 32599 60909 10279 20198 39779 40113 85120 333 20220 59018;
0137825830999992011111918004-05167-040667FM-12+029999999V0200501N002610075019N0500001N1+03501+01681100501ADDGF106991061021008001001001MA1999999097181MD1999999-0101REMSYN070AAXX  19184 82583 32599 60505 10350 20168 39718 40050 86200 333 59010;
0178825830999992011112000004-05167-040667FM-12+029999999V0201401N002612200019N0040001N1+02921+01641100851ADDGA1001+999999999GF100991001001999999001001KA1240M+03631MA1999999097511MD1999999+0011REMSYN082AAXX  20004 82583 32996 01405 10292 20164 39751 40085 333 10363 29045 55072 58001;
0156825830999992011112012004-05167-040667FM-12+029999999V0200901N004110120019N0500001N1+02771+01981101111ADDGF108991081081008001999999KA1240N+02371MA1999999097771MD1999999-0021REMSYN076AAXX  20124 82583 32599 80908 10277 20198 39777 40111 888// 333 20237 59002;
0137825830999992011112018004-05167-040667FM-12+029999999V0200901N002110120019N0500001N1+03351+01771100581ADDGF106991061081008001001001MA1999999097261MD1999999+0081REMSYN070AAXX  20184 82583 32599 60904 10335 20177 39726 40058 86800 333 58008;
0178825830999992011112100004-05167-040667FM-12+029999999V0201401N002112200019N0040001N1+02861+01751100881ADDGA1001+999999999GF100991001001999999001001KA1240M+03451MA1999999097541MD1999999+0031REMSYN082AAXX  21004 82583 32996 01404 10286 20175 39754 40088 333 10345 29051 55080 58003;
0156825830999992011112112004-05167-040667FM-12+029999999V0200901N003612200019N0500001N1+02791+01871101181ADDGF105991041011008001001011KA1240N+02331MA1999999097831MD1999999+0061REMSYN076AAXX  21124 82583 32599 50907 10279 20187 39783 40118 84101 333 20233 58006;
0137825830999992011112118004-05167-040667FM-12+029999999V0200901N003112200019N0500001N1+03381+01751100651ADDGF102991021011008001001001MA1999999097331MD1999999+0071REMSYN070AAXX  21184 82583 32599 20906 10338 20175 39733 40065 82100 333 58007;
0178825830999992011112200004-05167-040667FM-12+029999999V0200901N002612200019N0040001N1+02821+01801100891ADDGA1001+999999999GF100991001001999999001001KA1240M+03441MA1999999097551MD1999999+0011REMSYN082AAXX  22004 82583 32996 00905 10282 20180 39755 40089 333 10344 29051 55091 58001;
0156825830999992011112212004-05167-040667FM-12+029999999V0200901N006710075019N0500001N1+02951+01841101391ADDGF105991051011008001001001KA1240N+02411MA1999999098001MD1999999+0171REMSYN076AAXX  22124 82583 32599 50913 10295 20184 39800 40139 85100 333 20241 58017;
0156825830999992011112218004-05167-040667FM-12+029999999V0200901N004612200019N0500001N1+03391+01451100831ADDGF103991999011008001001001MA1999999097501MD1999999+0171REMSYN070AAXX  22184 82583 32599 30909 10339 20145 39750 40083 82100 333 58017;EQDQ01+000022SCOTLC
0178825830999992011112300004-05167-040667FM-12+029999999V0200901N002112200019N0040001N1+02831+01601101011ADDGA1001+999999999GF100991001001999999001001KA1240M+03551MA1999999097671MD1999999+0121REMSYN082AAXX  23004 82583 32996 00904 10283 20160 39767 40101 333 10355 29044 55098 58012;
0156825830999992011112312004-05167-040667FM-12+029999999V0200901N004612200019N0500001N1+02901+01901101241ADDGF101991011011008001001001KA1240N+02361MA1999999097901MD1999999-0101REMSYN076AAXX  23124 82583 32599 10909 10290 20190 39790 40124 81100 333 20236 59010;
0137825830999992011112318004-05167-040667FM-12+029999999V0200901N003112200019N0500001N1+03561+01641100661ADDGF104991031011008001001011MA1999999097341MD1999999-0161REMSYN070AAXX  23184 82583 32599 40906 10356 20164 39734 40066 83101 333 59016;
0168825830999992011112400004-05167-040667FM-12+029999999V0200401N001512200019N0040001N1+02931+01621100881ADDGF101991011011008001001001KA1240M+03651MA1999999097551MD1999999-0121REMSYN088AAXX  24004 82583 32596 10403 10293 20162 39755 40088 81100 333 10365 29044 55110 59012;
0156825830999992011112412004-05167-040667FM-12+029999999V0200901N000512200019N0500001N1+02821+02001101261ADDGF104991031011008001021001KA1240N+02351MA1999999097921MD1999999+0021REMSYN076AAXX  24124 82583 32599 40901 10282 20200 39792 40126 83120 333 20235 58002;
0137825830999992011112418004-05167-040667FM-12+029999999V0200901N003610075019N0500001N1+03451+01691100681ADDGF106991051021008001021001MA1999999097371MD1999999+0031REMSYN070AAXX  24184 82583 32599 60907 10345 20169 39737 40068 85220 333 58003;
0178825830999992011112500004-05167-040667FM-12+029999999V0200901N001512200019N0040001N1+02861+01751101031ADDGA1001+999999999GF100991001001999999001001KA1240M+03581MA1999999097691MD1999999+0141REMSYN082AAXX  25004 82583 32996 00903 10286 20175 39769 40103 333 10358 29050 55094 58014;
0156825830999992011112512004-05167-040667FM-12+029999999V0200901N004610075019N0500001N1+02721+01901101101ADDGF108991081061008001999999KA1240N+02431MA1999999097751MD1999999-0171REMSYN076AAXX  25124 82583 32599 80909 10272 20190 39775 40110 886// 333 20243 59017;
0137825830999992011112518004-05167-040667FM-12+029999999V0200901N001510075019N0500001N1+03311+01781100601ADDGF105991051021008001001001MA1999999097271MD1999999+0101REMSYN070AAXX  25184 82583 32599 50903 10331 20178 39727 40060 85200 333 58010;
0178825830999992011112600004-05167-040667FM-12+029999999V0200901N001512200019N0040001N1+02801+01661100881ADDGA1001+999999999GF100991001001999999001001KA1240M+03471MA1999999097541MD1999999-0151REMSYN082AAXX  26004 82583 32996 00903 10280 20166 39754 40088 333 10347 29050 55057 59015;
0156825830999992011112612004-05167-040667FM-12+029999999V0200901N003110075019N0500001N1+02611+01981101171ADDGF108991081061008001001001KA1240N+02311MA1999999097811MD1999999+0061REMSYN076AAXX  26124 82583 32599 80906 10261 20198 39781 40117 88600 333 20231 58006;
0137825830999992011112618004-05167-040667FM-12+029999999V0200501N004610075019N0500001N1+03401+01771100601ADDGF105991051011008001001001MA1999999097281MD1999999-0011REMSYN070AAXX  26184 82583 32599 50509 10340 20177 39728 40060 85100 333 59001;
0178825830999992011112700004-05167-040667FM-12+029999999V0200901N002612200019N0040001N1+02811+01551100841ADDGA1001+999999999GF100991001001999999001001KA1240M+03511MA1999999097491MD1999999-0051REMSYN082AAXX  27004 82583 32996 00905 10281 20155 39749 40084 333 10351 29050 55059 59005;
0156825830999992011112712004-05167-040667FM-12+029999999V0200901N004610075019N0500001N1+02711+02051101101ADDGF106991061011008001001001KA1240N+02251MA1999999097741MD1999999-0011REMSYN076AAXX  27124 82583 32599 60909 10271 20205 39774 40110 86100 333 20225 59001;
0137825830999992011112718004-05167-040667FM-12+029999999V0200901N003112200019N0500001N1+03391+01541100561ADDGF104991041011008001001001MA1999999097241MD1999999-0041REMSYN070AAXX  27184 82583 32599 40906 10339 20154 39724 40056 84100 333 59004;
0178825830999992011112800004-05167-040667FM-12+029999999V0201401N001512200019N0040001N1+02891+01721100711ADDGA1001+999999999GF100991001001999999001001KA1240M+03541MA1999999097371MD1999999-0121REMSYN082AAXX  28004 82583 32996 01403 10289 20172 39737 40071 333 10354 29050 55077 59012;
0156825830999992011112812004-05167-040667FM-12+029999999V0200901N004610450019N0500001N1+02751+02041101041ADDGF105991041011008001021001KA1240N+02241MA1999999097691MD1999999-0051REMSYN076AAXX  28124 82583 32599 50909 10275 20204 39769 40104 84120 333 20224 59005;
0137825830999992011112818004-05167-040667FM-12+029999999V0201401N002612200019N0200001N1+03401+01621100621ADDGF104991041021008001001001MA1999999097301MD1999999+0061REMSYN070AAXX  28184 82583 32598 41405 10340 20162 39730 40062 84200 333 58006;
0178825830999992011112900004-05167-040667FM-12+029999999V0201801N001512200019N0040001N1+02841+01881100651ADDGA1001+999999999GF100991001001999999001001KA1240M+03441MA1999999097321MD1999999-0051REMSYN082AAXX  29004 82583 32996 01803 10284 20188 39732 40065 333 10344 29054 55073 59005;
0156825830999992011112912004-05167-040667FM-12+029999999V0200901N003610120019N0500001N1+02781+02011100961ADDGF107991061081008001001011KA1240N+02451MA1999999097621MD1999999-0071REMSYN076AAXX  29124 82583 32599 70907 10278 20201 39762 40096 86801 333 20245 59007;
0137825830999992011112918004-05167-040667FM-12+029999999V0200901N003112200019N0500001N1+03401+01851100501ADDGF103991031011008001001001MA1999999097181MD1999999-0011REMSYN070AAXX  29184 82583 32599 30906 10340 20185 39718 40050 83100 333 59001;
0168825830999992011113000004-05167-040667FM-12+029999999V0200901N003112200019N0040001N1+02931+01721100641ADDGF101991011011008001001001KA1240M+03481MA1999999097321MD1999999+0001REMSYN088AAXX  30004 82583 32596 10906 10293 20172 39732 40064 81100 333 10348 29050 55070 58000;
0156825830999992011113012004-05167-040667FM-12+029999999V0200901N005112200019N0500001N1+02901+01931100951ADDGF104991041011008001001011KA1240N+02481MA1999999097621MD1999999+0001REMSYN076AAXX  30124 82583 32599 40910 10290 20193 39762 40095 84101 333 20248 58000;
0137825830999992011113018004-05167-040667FM-12+029999999V0200901N004112200019N0500001N1+03391+01931100561ADDGF104991031011008001021011MA1999999097241MD1999999+0061REMSYN070AAXX  30184 82583 32599 40908 10339 20193 39724 40056 83121 333 58006;
0168825830999992011120100004-05167-040667FM-12+029999999V0200901N002112200019N0040001N1+02901+01811100981ADDGF101991001001999999001011KA1240M+03491MA1999999097651MD1999999+0151REMSYN088AAXX  01004 82583 32996 10904 10290 20181 39765 40098 80001 333 10349 29050 55090 58015;
0156825830999992011120112004-05167-040667FM-12+029999999V0200901N003110075019N0500001N1+02821+02051101161ADDGF106991061021008001001001KA1240N+02461MA1999999097821MD1999999+0201REMSYN076AAXX  01124 82583 32599 60906 10282 20205 39782 40116 86200 333 20246 58020;
0168825830999992011120200004-05167-040667FM-12+029999999V0200901N002112200019N0040001N1+02901+01841100891ADDGF101991001001999999001011KA1240M+03591MA1999999097551MD1999999-0101REMSYN088AAXX  02004 82583 32996 10904 10290 20184 39755 40089 80001 333 10359 29052 55088 59010;
0156825830999992011120212004-05167-040667FM-12+029999999V0200901N002610075019N0500001N1+02591+02121101201ADDGF107991071051008001999999KA1240N+02391MA1999999097841MD1999999+0021REMSYN076AAXX  02124 82583 32599 70905 10259 20212 39784 40120 875// 333 20239 58002;
0168825830999992011120300004-05167-040667FM-12+029999999V0200901N003612200019N0040001N1+02931+01691101041ADDGF101991001001999999001011KA1240M+03571MA1999999097681MD1999999+0131REMSYN088AAXX  03004 82583 32996 10907 10293 20169 39768 40104 80001 333 10357 29052 55069 58013;
0156825830999992011120312004-05167-040667FM-12+029999999V0200901N005112200019N0500001N1+02841+01791101101ADDGF103991031011008001001001KA1240N+02161MA1999999097761MD1999999-0081REMSYN076AAXX  03124 82583 32599 30910 10284 20179 39776 40110 83100 333 20216 59008;
0168825830999992011120400004-05167-040667FM-12+029999999V0200901N005712200019N0040001N1+02981+01401100801ADDGF101991001001999999001011KA1240M+03611MA1999999097471MD1999999-0211REMSYN088AAXX  04004 82583 32996 10911 10298 20140 39747 40080 80001 333 10361 29040 55100 59021;
0156825830999992011120412004-05167-040667FM-12+029999999V0200901N003110075019N0500001N1+02851+01871101051ADDGF105991051011008001001011KA1240N+02311MA1999999097711MD1999999-0051REMSYN076AAXX  04124 82583 32599 50906 10285 20187 39771 40105 85101 333 20231 59005;
0178825830999992011120500004-05167-040667FM-12+029999999V0200901N001512200019N0040001N1+02941+01481100691ADDGA1001+999999999GF100991001001999999001001KA1240M+03671MA1999999097361MD1999999-0111REMSYN082AAXX  05004 82583 32996 00903 10294 20148 39736 40069 333 10367 29043 55097 59011;
0156825830999992011120512004-05167-040667FM-12+029999999V0200901N003612200019N0500001N1+02881+01941101051ADDGF103991031011008001001001KA1240N+02251MA1999999097711MD1999999+0001REMSYN076AAXX  05124 82583 32599 30907 10288 20194 39771 40105 83100 333 20225 58000;
0178825830999992011120600004-05167-040667FM-12+029999999V0200901N002612200019N0040001N1+02901+01201100831ADDGA1001+999999999GF100991001001999999001001KA1240M+03661MA1999999097501MD1999999+0141REMSYN082AAXX  06004 82583 32996 00905 10290 20120 39750 40083 333 10366 29040 55112 58014;
0175825830999992011120612004-05167-040667FM-12+029999999V0200501N005110075019N0500001N1+02791+02031101101ADDGF107991999021008001001001KA1240N+02431MA1999999097761MD1999999+0051REMSYN076AAXX  06124 82583 32599 70510 10279 20203 39776 40110 85200 333 20243 58005;EQDQ01+000052SCOTLC
0178825830999992011120700004-05167-040667FM-12+029999999V0200901N002112200019N0040001N1+02961+01811100651ADDGA1001+999999999GF100991001001999999001001KA1240M+03601MA1999999097331MD1999999-0171REMSYN082AAXX  07004 82583 32996 00904 10296 20181 39733 40065 333 10360 29051 55073 59017;
0156825830999992011120712004-05167-040667FM-12+029999999V0200901N004110075019N0500001N1+02711+01881101021ADDGF106991061051008001001001KA1240N+02421MA1999999097681MD1999999-0081REMSYN076AAXX  07124 82583 32599 60908 10271 20188 39768 40102 86500 333 20242 59008;
0168825830999992011120800004-05167-040667FM-12+029999999V0200901N003112200019N0040001N1+02911+01571100781ADDGF102991021011008001001011KA1240M+03581MA1999999097441MD1999999+0111REMSYN088AAXX  08004 82583 32596 20906 10291 20157 39744 40078 82101 333 10358 29042 55071 58011;
0156825830999992011120812004-05167-040667FM-12+029999999V0200901N004610450019N0500001N1+02801+01781101141ADDGF105991041011008001021011KA1240N+02271MA1999999097801MD1999999+0121REMSYN076AAXX  08124 82583 32599 50909 10280 20178 39780 40114 84121 333 20227 58012;
0156825830999992011120912004-05167-040667FM-12+029999999V0200901N003112200019N0500001N1+02871+01891101121ADDGF104991031011008001021001KA1240N+02211MA1999999097781MD1999999-0021REMSYN076AAXX  09124 82583 32599 40906 10287 20189 39778 40112 83120 333 20221 59002;
0187825830999992011121000004-05167-040667FM-12+029999999V0200501N001512200019N0040001N1+02951+01781100791ADDGF101991001001999999001011KA1240M+03641MA1999999097461MD1999999-0011REMSYN088AAXX  10004 82583 32996 10503 10295 20178 39746 40079 81001 333 10364 29048 55084 59001;EQDQ01+000012SCOTLC
0156825830999992011121012004-05167-040667FM-12+029999999V0200901N004612200019N0500001N1+02811+01911101101ADDGF104991031011008001021001KA1240N+02241MA1999999097761MD1999999-0021REMSYN076AAXX  10124 82583 32599 40909 10281 20191 39776 40110 83120 333 20224 59002;
0178825830999992011121100004-05167-040667FM-12+029999999V0200501N001512200019N0040001N1+03001+01781100681ADDGA1001+999999999GF100991001001999999001001KA1240M+03751MA1999999097351MD1999999-0111REMSYN082AAXX  11004 82583 32996 00503 10300 20178 39735 40068 333 10375 29048 55091 59011;
0156825830999992011121112004-05167-040667FM-12+029999999V0200901N004610075019N0500001N1+02811+02101101071ADDGF106991051011008001021001KA1240N+02341MA1999999097731MD1999999-0031REMSYN076AAXX  11124 82583 32599 60909 10281 20210 39773 40107 85120 333 20234 59003;
0168825830999992011121200004-05167-040667FM-12+029999999V0203601N002612200019N0040001N1+03021+01991100821ADDGF103991021011008001021001KA1240M+03711MA1999999097491MD1999999+0141REMSYN088AAXX  12004 82583 32596 33605 10302 20199 39749 40082 82120 333 10371 29057 55063 58014;
0156825830999992011121212004-05167-040667FM-12+029999999V0200501N003110075019N0500001N1+02741+02001101111ADDGF105991051011008001001001KA1240N+02191MA1999999097771MD1999999+0041REMSYN076AAXX  12124 82583 32599 50506 10274 20200 39777 40111 85100 333 20219 58004;
0168825830999992011121300004-05167-040667FM-12+029999999V0200501N003110075019N0040001N1+03031+01711100841ADDGF107991071051008001999999KA1240M+03691MA1999999097511MD1999999+0021REMSYN088AAXX  13004 82583 32596 70506 10303 20171 39751 40084 875// 333 10369 29048 55087 58002;
0156825830999992011121312004-05167-040667FM-12+029999999V0200901N005110075019N0500001N1+02821+01861101061ADDGF106991061051008001001001KA1240N+02181MA1999999097721MD1999999-0051REMSYN076AAXX  13124 82583 32599 60910 10282 20186 39772 40106 86500 333 20218 59005;
0156825830999992011121412004-05167-040667FM-12+029999999V0200901N005110075019N0500001N1+02831+01911100971ADDGF106991051021008001001011KA1240N+02471MA1999999097631MD1999999-0091REMSYN076AAXX  14124 82583 32599 60910 10283 20191 39763 40097 85201 333 20247 59009;
0178825830999992011121500004-05167-040667FM-12+029999999V0200901N001512200019N0040001N1+02861+01681100741ADDGA1001+999999999GF100991001001999999001001KA1240M+03551MA1999999097401MD1999999-0011REMSYN082AAXX  15004 82583 32996 00903 10286 20168 39740 40074 333 10355 29050 55058 59001;
0156825830999992011121512004-05167-040667FM-12+029999999V0200901N005112200019N0500001N1+02851+01901101071ADDGF104991041011008001001001KA1240N+02291MA1999999097731MD1999999+0101REMSYN076AAXX  15124 82583 32599 40910 10285 20190 39773 40107 84100 333 20229 58010;
0168825830999992011121600004-05167-040667FM-12+029999999V0200901N003112200019N0500001N1+02981+01761100801ADDGF102991021011008001001001KA1240M+03511MA1999999097471MD1999999+0071REMSYN088AAXX  16004 82583 32599 20906 10298 20176 39747 40080 82100 333 10351 29048 55076 58007;
0156825830999992011121612004-05167-040667FM-12+029999999V0200901N006210075019N0500001N1+02911+01921101131ADDGF105991051011008001001001KA1240N+02301MA1999999097791MD1999999+0061REMSYN076AAXX  16124 82583 32599 50912 10291 20192 39779 40113 85100 333 20230 58006;
0178825830999992011121700004-05167-040667FM-12+029999999V0200901N002112200019N0040001N1+02871+01701100841ADDGA1001+999999999GF100991001001999999001001KA1240M+03751MA1999999097511MD1999999+0041REMSYN082AAXX  17004 82583 32996 00904 10287 20170 39751 40084 333 10375 29049 55081 58004;
0156825830999992011121712004-05167-040667FM-12+029999999V0200901N005112200019N0500001N1+02911+01891101171ADDGF104991041011008001001011KA1240N+02321MA1999999097831MD1999999+0041REMSYN076AAXX  17124 82583 32599 40910 10291 20189 39783 40117 84101 333 20232 58004;
0178825830999992011121800004-05167-040667FM-12+029999999V0200901N001512200019N0040001N1+02881+01671100871ADDGA1001+999999999GF100991001001999999001001KA1240M+03691MA1999999097541MD1999999+0031REMSYN082AAXX  18004 82583 32996 00903 10288 20167 39754 40087 333 10369 29050 55106 58003;
0156825830999992011121812004-05167-040667FM-12+029999999V0200901N004612200019N0500001N1+02971+01861101141ADDGF101991011011008001001001KA1240N+02281MA1999999097801MD1999999-0031REMSYN076AAXX  18124 82583 32599 10909 10297 20186 39780 40114 81100 333 20228 59003;
0178825830999992011121900004-05167-040667FM-12+029999999V0200901N003112200019N0040001N1+03011+01301100781ADDGA1001+999999999GF100991001001999999001001KA1240M+03791MA1999999097461MD1999999-0081REMSYN082AAXX  19004 82583 32996 00906 10301 20130 39746 40078 333 10379 29038 55112 59008;
0156825830999992011121912004-05167-040667FM-12+029999999V0200901N004612200019N0500001N1+02871+01861101191ADDGF104991041011008001001001KA1240N+02201MA1999999097851MD1999999+0051REMSYN076AAXX  19124 82583 32599 40909 10287 20186 39785 40119 84100 333 20220 58005;
0178825830999992011122000004-05167-040667FM-12+029999999V0200901N002112200019N0040001N1+02981+01661101031ADDGA1001+999999999GF100991001001999999001001KA1240M+03711MA1999999097691MD1999999+0231REMSYN082AAXX  20004 82583 32996 00904 10298 20166 39769 40103 333 10371 29044 55102 58023;
0156825830999992011122012004-05167-040667FM-12+029999999V0200901N004110075019N0500001N1+02741+02051101241ADDGF106991061051008001001001KA1240N+02331MA1999999097901MD1999999+0051REMSYN076AAXX  20124 82583 32599 60908 10274 20205 39790 40124 86500 333 20233 58005;
0178825830999992011122100004-05167-040667FM-12+029999999V0200901N001512200019N0040001N1+03051+01831100791ADDGA1001+999999999GF100991001001999999001001KA1240M+03721MA1999999097461MD1999999-0141REMSYN082AAXX  21004 82583 32996 00903 10305 20183 39746 40079 333 10372 29050 55076 59014;
0156825830999992011122112004-05167-040667FM-12+029999999V0200901N005112200019N0500001N1+03081+01981101041ADDGF104991041011008001001001KA1240N+02491MA1999999097721MD1999999-0181REMSYN076AAXX  21124 82583 32599 40910 10308 20198 39772 40104 84100 333 20249 59018;
0178825830999992011122200004-05167-040667FM-12+029999999V0200901N002612200019N0040001N1+03021+01801100731ADDGA1001+999999999GF100991001001999999001001KA1240M+03711MA1999999097421MD1999999-0041REMSYN082AAXX  22004 82583 32996 00905 10302 20180 39742 40073 333 10371 29047 55091 59004;
0156825830999992011122212004-05167-040667FM-12+029999999V0200901N006210075019N0500001N1+02821+02051101101ADDGF106991061051008001001001KA1240N+02531MA1999999097761MD1999999+0041REMSYN076AAXX  22124 82583 32599 60912 10282 20205 39776 40110 86500 333 20253 58004;
0168825830999992011122300004-05167-040667FM-12+029999999V0200901N002112200019N0040001N1+02961+01991100891ADDGF102991021011999999001001KA1240M+03601MA1999999097561MD1999999+0141REMSYN088AAXX  23004 82583 32996 20904 10296 20199 39756 40089 82100 333 10360 29057 55029 58014;
0156825830999992011122312004-05167-040667FM-12+029999999V0200901N006710075019N0500001N1+02831+02041101131ADDGF106991061021008001001001KA1240N+02441MA1999999097791MD1999999+0031REMSYN076AAXX  23124 82583 32599 60913 10283 20204 39779 40113 86200 333 20244 58003;
0178825830999992011122400004-05167-040667FM-12+029999999V0200901N002112200019N0040001N1+02911+02041100861ADDGA1001+999999999GF100991001001999999001001KA1240M+03591MA1999999097531MD1999999-0031REMSYN082AAXX  24004 82583 32996 00904 10291 20204 39753 40086 333 10359 29056 55042 59003;
0156825830999992011122412004-05167-040667FM-12+029999999V0200901N006210075019N0500001N1+02711+02051101261ADDGF108991081051008001999999KA1240N+02441MA1999999097911MD1999999+0121REMSYN076AAXX  24124 82583 32599 80912 10271 20205 39791 40126 885// 333 20244 58012;
0156825830999992011122512004-05167-040667FM-12+029999999V0200901N003610075019N0500001N1+02811+02051101181ADDGF106991061051008001001001KA1240N+02311MA1999999097841MD1999999-0071REMSYN076AAXX  25124 82583 32599 60907 10281 20205 39784 40118 86500 333 20231 59007;
0178825830999992011122600004-05167-040667FM-12+029999999V0200901N002112200019N0040001N1+02991+01841100981ADDGA1001+999999999GF100991001001999999001001KA1240M+03751MA1999999097651MD1999999+0101REMSYN082AAXX  26004 82583 32996 00904 10299 20184 39765 40098 333 10375 29052 55043 58010;
0156825830999992011122612004-05167-040667FM-12+029999999V0200901N004110075019N0500001N1+02761+02121101221ADDGF106991051011008001021001KA1240N+02481MA1999999097881MD1999999+0041REMSYN076AAXX  26124 82583 32599 60908 10276 20212 39788 40122 85120 333 20248 58004;
0178825830999992011122700004-05167-040667FM-12+029999999V0201401N001512200019N0040001N1+02961+01931101061ADDGA1001+999999999GF100991001001999999001001KA1240M+03611MA1999999097731MD1999999+0081REMSYN082AAXX  27004 82583 32996 01403 10296 20193 39773 40106 333 10361 29055 55035 58008;
0156825830999992011122712004-05167-040667FM-12+029999999V0200501N005112200019N0500001N1+02881+02131101081ADDGF104991041021008001001001KA1240N+02371MA1999999098001MD1999999+0121REMSYN076AAXX  27124 82583 32599 40510 10288 20213 39800 40108 84200 333 20237 58012;
0178825830999992011122800004-05167-040667FM-12+029999999V0200901N002612200019N0040001N1+03071+01921101051ADDGA1001+999999999GF100991001001999999001001KA1240M+03681MA1999999097731MD1999999+0001REMSYN082AAXX  28004 82583 32996 00905 10307 20192 39773 40105 333 10368 29052 55086 58000;
0156825830999992011122812004-05167-040667FM-12+029999999V0200901N004612200019N0500001N1+02801+01951101491ADDGF104991031021008001031001KA1240N+02301MA1999999098151MD1999999+0151REMSYN076AAXX  28124 82583 32599 40909 10280 20195 39815 40149 83230 333 20230 58015;
0187825830999992011122900004-05167-040667FM-12+029999999V0201801N000512200019N0040001N1+02951+01991101121ADDGF104991999011008001001001KA1240M+03771MA1999999097781MD1999999+0051REMSYN088AAXX  29004 82583 32596 41801 10295 20199 39778 40112 82100 333 10377 29055 55043 58005;EQDQ01+000022SCOTLC
0156825830999992011122912004-05167-040667FM-12+029999999V0200901N003110075019N0500001N1+02701+02061101351ADDGF105991051011008001001001KA1240N+02331MA1999999097991MD1999999-0161REMSYN076AAXX  29124 82583 32599 50906 10270 20206 39799 40135 85100 333 20233 59016;
0168825830999992011123000004-05167-040667FM-12+029999999V0200901N001512200019N0040001N1+02981+01861100961ADDGF102991021011008001001001KA1240M+03671MA1999999097621MD1999999-0161REMSYN088AAXX  30004 82583 32596 20903 10298 20186 39762 40096 82100 333 10367 29053 55075 59016;
0156825830999992011123012004-05167-040667FM-12+029999999V0200901N005710075019N0500001N1+02761+02091101261ADDGF106991061011008001001001KA1240N+02361MA1999999097921MD1999999-0071REMSYN076AAXX  30124 82583 32599 60911 10276 20209 39792 40126 86100 333 20236 59007;
0187825830999992011123100004-05167-040667FM-12+029999999V0200901N002612200019N0040001N1+02901+01621100931ADDGF101991001001999999001011KA1240M+03731MA1999999097591MD1999999-0031REMSYN088AAXX  31004 82583 32996 10905 10290 20162 39759 40093 81001 333 10373 29048 55088 59003;EQDQ01+000012SCOTLC
0156825830999992011123112004-05167-040667FM-12+029999999V0200901N006710075019N0750001N1+02851+01901101111ADDGF106991061021008001001001KA1240N+02451MA1999999097771MD1999999-0151REMSYN076AAXX  31124 82583 32589 60913 10285 20190 39777 40111 86200 333 20245 59015;
