0143832880999992011010110004-13267-043417FM-15+0443SBLP V0202201N002110300019N0112651N1+02301+02201999999ADDGA1041+006001999GA2071+030001999GF107991999999999999999999MA1101191999999REMMET058METAR SBLP 011000Z 22004KT 9999 SCT020 BKN100 23/22 Q1012;
0143832880999992011010111004-13267-043417FM-15+0443SBLP V0202201N003110300019N0112651N1+02401+02201999999ADDGA1041+006001999GA2071+030001999GF107991999999999999999999MA1101291999999REMMET058METAR SBLP 011100Z 22006KT 9999 SCT020 BKN100 24/22 Q1013;
0143832880999992011010112004-13267-043417FM-15+0443SBLP V0209999C000010300019N0112651N1+02601+02201999999ADDGA1041+006001999GA2071+030001999GF107991999999999999999999MA1101291999999REMMET058METAR SBLP 011200Z 00000KT 9999 SCT020 BKN100 26/22 Q1013;
0143832880999992011010114004-13267-043417FM-15+0443SBLP V0203501N003110300019N0112651N1+02801+02201999999ADDGA1041+006001999GA2071+030001999GF107991999999999999999999MA1101191999999REMMET058METAR SBLP 011400Z 35006KT 9999 SCT020 BKN100 28/22 Q1012;
0143832880999992011010115004-13267-043417FM-15+0443SBLP V0209999C000010300019N0112651N1+02901+02201999999ADDGA1041+006001999GA2071+030001999GF107991999999999999999999MA1101191999999REMMET058METAR SBLP 011500Z 00000KT 9999 SCT020 BKN100 29/22 Q1012;
0153832880999992011010116004-13267-043417FM-15+0443SBLP V0203601N006210300019N0090001N1+02701+02101999999ADDGA1041+004501999GA2071+030001999GF107991999999999999999999MA1101191999999MW1611REMMET062METAR SBLP 011600Z 36012KT 9000 -RA SCT015 BKN100 27/21 Q1012;
0153832880999992011010117004-13267-043417FM-15+0443SBLP V0203601N003110300019N0060001N1+02501+02101999999ADDGA1041+003001999GA2081+030001999GF108991999999999999999999MA1101081999999MW1611REMMET062METAR SBLP 011700Z 36006KT 6000 -RA SCT010 OVC100 25/21 Q1011;
0143832880999992011010118004-13267-043417FM-15+0443SBLP V0203601N003110300019N0112651N1+02501+02101999999ADDGA1041+003001999GA2071+030001999GF107991999999999999999999MA1101021999999REMMET058METAR SBLP 011800Z 36006KT 9999 SCT010 BKN100 25/21 Q1010;
0153832880999992011010119004-13267-043417FM-15+0443SBLP V0209999C000010300019N0090001N1+02401+02101999999ADDGA1041+003001999GA2071+030001999GF107991999999999999999999MA1101021999999MW1611REMMET062METAR SBLP 011900Z 00000KT 9000 -RA SCT010 BKN100 24/21 Q1010;
0143832880999992011010120004-13267-043417FM-15+0443SBLP V0209999C000010300019N0112651N1+02401+02101999999ADDGA1041+003001999GA2071+030001999GF107991999999999999999999MA1100911999999REMMET058METAR SBLP 012000Z 00000KT 9999 SCT010 BKN100 24/21 Q1009;
0143832880999992011010121004-13267-043417FM-15+0443SBLP V0209999C000010300019N0112651N1+02401+02101999999ADDGA1041+003001999GA2071+030001999GF107991999999999999999999MA1101021999999REMMET058METAR SBLP 012100Z 00000KT 9999 SCT010 BKN100 24/21 Q1010;
0143832880999992011010210004-13267-043417FM-15+0443SBLP V0209999C000010300019N0112651N1+02201+02101999999ADDGA1041+003001999GA2071+030001999GF107991999999999999999999MA1101081999999REMMET058METAR SBLP 021000Z 00000KT 9999 SCT010 BKN100 22/21 Q1011;
0143832880999992011010211004-13267-043417FM-15+0443SBLP V0209999C000010300019N0112651N1+02301+02101999999ADDGA1041+003001999GA2071+030001999GF107991999999999999999999MA1101081999999REMMET058METAR SBLP 021100Z 00000KT 9999 SCT010 BKN100 23/21 Q1011;
0143832880999992011010212004-13267-043417FM-15+0443SBLP V0209999C000010300019N0112651N1+02501+02101999999ADDGA1041+004501999GA2071+030001999GF107991999999999999999999MA1101191999999REMMET058METAR SBLP 021200Z 00000KT 9999 SCT015 BKN100 25/21 Q1012;
0143832880999992011010214004-13267-043417FM-15+0443SBLP V0209999C000010300019N0112651N1+02901+02101999999ADDGA1041+006001999GA2071+030001999GF107991999999999999999999MA1101081999999REMMET058METAR SBLP 021400Z 00000KT 9999 SCT020 BKN100 29/21 Q1011;
0143832880999992011010215004-13267-043417FM-15+0443SBLP V0209999C000012200019N0112651N1+02901+02101999999ADDGA1041+009001999GA2041+030001999GF104991999999999999999999MA1101081999999REMMET058METAR SBLP 021500Z 00000KT 9999 SCT030 SCT100 29/21 Q1011;
0143832880999992011010216004-13267-043417FM-15+0443SBLP V0203101N003112200019N0112651N1+03101+02101999999ADDGA1041+009001999GA2041+030001999GF104991999999999999999999MA1101021999999REMMET058METAR SBLP 021600Z 31006KT 9999 SCT030 SCT100 31/21 Q1010;
0143832880999992011010217004-13267-043417FM-15+0443SBLP V0203301N002612200019N0112651N1+03101+02101999999ADDGA1041+009001999GA2041+030001999GF104991999999999999999999MA1100811999999REMMET058METAR SBLP 021700Z 33005KT 9999 SCT030 SCT100 31/21 Q1008;
0143832880999992011010218004-13267-043417FM-15+0443SBLP V0203601N002612200019N0112651N1+03401+01801999999ADDGA1021+009001999GA2041+030001999GF104991999999999999999999MA1100811999999REMMET058METAR SBLP 021800Z 36005KT 9999 FEW030 SCT100 34/18 Q1008;
0143832880999992011010219004-13267-043417FM-15+0443SBLP V0203501N002112200019N0112651N1+03001+02001999999ADDGA1021+009001999GA2041+030001999GF104991999999999999999999MA1100711999999REMMET058METAR SBLP 021900Z 35004KT 9999 FEW030 SCT100 30/20 Q1007;
0143832880999992011010220004-13267-043417FM-15+0443SBLP V0203101N001510300019N0112651N1+02901+01901999999ADDGA1021+009001999GA2071+030001999GF107991999999999999999999MA1100711999999REMMET058METAR SBLP 022000Z 31003KT 9999 FEW030 BKN100 29/19 Q1007;
0143832880999992011010221004-13267-043417FM-15+0443SBLP V0202101N002110300019N0112651N1+02801+02101999999ADDGA1021+009001999GA2071+030001999GF107991999999999999999999MA1100811999999REMMET058METAR SBLP 022100Z 21004KT 9999 FEW030 BKN100 28/21 Q1008;
0153832880999992011010310004-13267-043417FM-15+0443SBLP V0200901N003110045019N0112651N1+02201+02101999999ADDGA1071+004501999GA2071+030001999GF107991999999999999999999MA1101191999999MW1611REMMET062METAR SBLP 031000Z 09006KT 9999 -RA BKN015 BKN100 22/21 Q1012;
0143832880999992011010311004-13267-043417FM-15+0443SBLP V0200601N002110045019N0112651N1+02401+02201999999ADDGA1071+004501999GA2071+030001999GF107991999999999999999999MA1101191999999REMMET058METAR SBLP 031100Z 06004KT 9999 BKN015 BKN100 24/22 Q1012;
0143832880999992011010312004-13267-043417FM-15+0443SBLP V0200401N001512200019N0112651N1+02601+02201999999ADDGA1041+006001999GA2041+030001999GF104991999999999999999999MA1101191999999REMMET058METAR SBLP 031200Z 04003KT 9999 SCT020 SCT100 26/22 Q1012;
0136832880999992011010313004-13267-043417FM-15+0443SBLP V0200301N00311006001CN0112651N1+02701+02101999999ADDGA1071+006001999GA2041+030001999MA1101191999999REMMET058METAR SBLP 031300Z 03006KT 9999 BKN020 SCT100 27/21 Q1012;EQDQ01+000042SCOTCV
0136832880999992011010314004-13267-043417FM-15+0443SBLP V0203301N00261006901CN0112651N1+02801+02201999999ADDGA1071+006901999GA2041+030001999MA1101191999999REMMET058METAR SBLP 031400Z 33005KT 9999 BKN023 SCT100 28/22 Q1012;EQDQ01+000042SCOTCV
0136832880999992011010315004-13267-043417FM-15+0443SBLP V0203601N00311009001CN0112651N1+02901+02101999999ADDGA1071+009001999GA2041+030001999MA1101191999999REMMET058METAR SBLP 031500Z 36006KT 9999 BKN030 SCT100 29/21 Q1012;EQDQ01+000042SCOTCV
0143832880999992011010316004-13267-043417FM-15+0443SBLP V0209999C000010090019N0112651N1+02901+02101999999ADDGA1071+009001999GA2071+030001999GF107991999999999999999999MA1101081999999REMMET058METAR SBLP 031600Z 00000KT 9999 BKN030 BKN100 29/21 Q1011;
0143832880999992011010317004-13267-043417FM-15+0443SBLP V0200401N003112200019N0112651N1+03001+02101999999ADDGA1021+009001999GA2041+030001999GF104991999999999999999999MA1100911999999REMMET058METAR SBLP 031700Z 04006KT 9999 FEW030 SCT100 30/21 Q1009;
0143832880999992011010318004-13267-043417FM-15+0443SBLP V0203401N003110300019N0112651N1+03201+02101999999ADDGA1041+009001999GA2071+030001999GF107991999999999999999999MA1100811999999REMMET058METAR SBLP 031800Z 34006KT 9999 SCT030 BKN100 32/21 Q1008;
0143832880999992011010319004-13267-043417FM-15+0443SBLP V0200401N003112200019N0112651N1+03101+02201999999ADDGA1021+009001999GA2041+030001999GF104991999999999999999999MA1100811999999REMMET058METAR SBLP 031900Z 04006KT 9999 FEW030 SCT100 31/22 Q1008;
0143832880999992011010320004-13267-043417FM-15+0443SBLP V0203601N003112200019N0112651N1+03001+02201999999ADDGA1021+009001999GA2041+030001999GF104991999999999999999999MA1100811999999REMMET058METAR SBLP 032000Z 36006KT 9999 FEW030 SCT100 30/22 Q1008;
0143832880999992011010321004-13267-043417FM-15+0443SBLP V0209999C000010300019N0112651N1+02701+02401999999ADDGA1021+009001999GA2071+030001999GF107991999999999999999999MA1100811999999REMMET058METAR SBLP 032100Z 00000KT 9999 FEW030 BKN100 27/24 Q1008;
0143832880999992011010410004-13267-043417FM-15+0443SBLP V0209999C000010300019N0112651N1+02301+02201999999ADDGA1021+006001999GA2071+030001999GF107991999999999999999999MA1101291999999REMMET058METAR SBLP 041000Z 00000KT 9999 FEW020 BKN100 23/22 Q1013;
0143832880999992011010411004-13267-043417FM-15+0443SBLP V0201201N003110300019N0112651N1+02401+02101999999ADDGA1041+006001999GA2071+030001999GF107991999999999999999999MA1101391999999REMMET058METAR SBLP 041100Z 12006KT 9999 SCT020 BKN100 24/21 Q1014;
0143832880999992011010412004-13267-043417FM-15+0443SBLP V0201201N003112200019N0112651N1+02501+02201999999ADDGA1021+006001999GA2041+030001999GF104991999999999999999999MA1101391999999REMMET058METAR SBLP 041200Z 12006KT 9999 FEW020 SCT100 25/22 Q1014;
0143832880999992011010413004-13267-043417FM-15+0443SBLP V0200401N003110300019N0112651N1+02601+02201999999ADDGA1041+006001999GA2071+030001999GF107991999999999999999999MA1101391999999REMMET058METAR SBLP 041300Z 04006KT 9999 SCT020 BKN100 26/22 Q1014;
0143832880999992011010414004-13267-043417FM-15+0443SBLP V0200601N003110300019N0112651N1+02701+02201999999ADDGA1021+009001999GA2071+030001999GF107991999999999999999999MA1101291999999REMMET058METAR SBLP 041400Z 06006KT 9999 FEW030 BKN100 27/22 Q1013;
0143832880999992011010415004-13267-043417FM-15+0443SBLP V0209999C000010300019N0112651N1+02901+02201999999ADDGA1021+009001999GA2071+030001999GF107991999999999999999999MA1101291999999REMMET058METAR SBLP 041500Z 00000KT 9999 FEW030 BKN100 29/22 Q1013;
0120832880999992011010416004-13267-043417FM-15+0443SBLP V0209999C000012200019N0112651N1+02901+02101999999ADDGA1021+009001999GF102991999999999999999999MA1101191999999REMMET051METAR SBLP 041600Z 00000KT 9999 FEW030 29/21 Q1012;
0120832880999992011010417004-13267-043417FM-15+0443SBLP V0202301N002112200019N0112651N1+03001+02201999999ADDGA1021+009001999GF102991999999999999999999MA1101081999999REMMET051METAR SBLP 041700Z 23004KT 9999 FEW030 30/22 Q1011;
0120832880999992011010418004-13267-043417FM-15+0443SBLP V0202701N002112200019N0112651N1+03001+02201999999ADDGA1041+009001999GF104991999999999999999999MA1101021999999REMMET051METAR SBLP 041800Z 27004KT 9999 SCT030 30/22 Q1010;
0120832880999992011010419004-13267-043417FM-15+0443SBLP V0202101N002112200019N0112651N1+03001+02201999999ADDGA1041+009001999GF104991999999999999999999MA1101021999999REMMET051METAR SBLP 041900Z 21004KT 9999 SCT030 30/22 Q1010;
0120832880999992011010420004-13267-043417FM-15+0443SBLP V0201501N002112200019N0112651N1+02901+02301999999ADDGA1041+009001999GF104991999999999999999999MA1101021999999REMMET051METAR SBLP 042000Z 15004KT 9999 SCT030 29/23 Q1010;
0147832880999992011010421004-13267-043417FM-15+0443SBLP V0201201N003112200019N0112651N1+02801+02301999999ADDGA1021+009001091GA2041+009001999MA1101021999999MW1171REMMET063METAR SBLP 042100Z 12006KT 9999 TS SCT030 FEW030CB 28/23 Q1010;EQDQ01+000022SCOTCV
0143832880999992011010510004-13267-043417FM-15+0443SBLP V0201501N003112200019N0112651N1+02401+02101999999ADDGA1021+006001999GA2041+030001999GF104991999999999999999999MA1101391999999REMMET058METAR SBLP 051000Z 15006KT 9999 FEW020 SCT100 24/21 Q1014;
0143832880999992011010511004-13267-043417FM-15+0443SBLP V0201501N003112200019N0112651N1+02401+02101999999ADDGA1021+006001999GA2041+030001999GF104991999999999999999999MA1101391999999REMMET058METAR SBLP 051100Z 15006KT 9999 FEW020 SCT100 24/21 Q1014;
0143832880999992011010512004-13267-043417FM-15+0443SBLP V0201401N003112200019N0112651N1+02801+02201999999ADDGA1021+009001999GA2041+030001999GF104991999999999999999999MA1101491999999REMMET058METAR SBLP 051200Z 14006KT 9999 FEW030 SCT100 28/22 Q1015;
0143832880999992011010513004-13267-043417FM-15+0443SBLP V0201301N003112200019N0112651N1+03001+02101999999ADDGA1021+009001999GA2041+030001999GF104991999999999999999999MA1101391999999REMMET058METAR SBLP 051300Z 13006KT 9999 FEW030 SCT100 30/21 Q1014;
0143832880999992011010514004-13267-043417FM-15+0443SBLP V0200401N002112200019N0112651N1+03301+02201999999ADDGA1041+009001999GA2041+030001999GF104991999999999999999999MA1101391999999REMMET058METAR SBLP 051400Z 04004KT 9999 SCT030 SCT100 33/22 Q1014;
0143832880999992011010515004-13267-043417FM-15+0443SBLP V0201201N003112200019N0112651N1+03301+02201999999ADDGA1041+009001999GA2041+030001999GF104991999999999999999999MA1101391999999REMMET058METAR SBLP 051500Z 12006KT 9999 SCT030 SCT100 33/22 Q1014;
0152832880999992011010516004-13267-043417FM-15+0443SBLP V0203501N009310090019N0050001N1+03001+02201999999ADDGA1071+009001999GA2071+030001999GF107991999999999999999999MA1101291999999MW1631REMMET061METAR SBLP 051600Z 35018KT 5000 RA BKN030 BKN100 30/22 Q1013;
0152832880999992011010517004-13267-043417FM-15+0443SBLP V0209999C000012200019N0112651N1+02901+02401999999ADDGA1021+009001091GA2041+009001999MA1101191999999MW1171REMMET068METAR SBLP 051700Z 00000KT 9999 TS SCT030 FEW030CB 29/24 Q1012 RERA;EQDQ01+000022SCOTCV
0125832880999992011010518004-13267-043417FM-15+0443SBLP V0201801N002112200019N0112651N1+02601+02301999999ADDGA1041+009001999GF104991999999999999999999MA1101081999999REMMET056METAR SBLP 051800Z 18004KT 9999 SCT030 26/23 Q1011 RETS;
0120832880999992011010519004-13267-043417FM-15+0443SBLP V0202101N003112200019N0112651N1+02801+02201999999ADDGA1041+009001999GF104991999999999999999999MA1101021999999REMMET051METAR SBLP 051900Z 21006KT 9999 SCT030 28/22 Q1010;
0120832880999992011010520004-13267-043417FM-15+0443SBLP V0201801N002112200019N0112651N1+02801+02301999999ADDGA1041+009001999GF104991999999999999999999MA1101021999999REMMET051METAR SBLP 052000Z 18004KT 9999 SCT030 28/23 Q1010;
0120832880999992011010521004-13267-043417FM-15+0443SBLP V0201901N002112200019N0112651N1+02801+02201999999ADDGA1021+009001999GF102991999999999999999999MA1101021999999REMMET051METAR SBLP 052100Z 19004KT 9999 FEW030 28/22 Q1010;
0072832880999992011010610004-13267-043417FM-15+0443SBLP V0209999C000019999999Y0099001N1+02201+02001999999ADDMA1101291999999REMMET045METAR SBLP 061000Z 00000KT CAVOK 22/20 Q1013;
0072832880999992011010611004-13267-043417FM-15+0443SBLP V0201301N002119999999Y0099001N1+02701+02001999999ADDMA1101391999999REMMET045METAR SBLP 061100Z 13004KT CAVOK 27/20 Q1014;
0072832880999992011010612004-13267-043417FM-15+0443SBLP V0201801N003119999999Y0099001N1+02901+02001999999ADDMA1101391999999REMMET045METAR SBLP 061200Z 18006KT CAVOK 29/20 Q1014;
0120832880999992011010613004-13267-043417FM-15+0443SBLP V0201301N002112200019N0112651N1+03001+02101999999ADDGA1021+009001999GF102991999999999999999999MA1101391999999REMMET051METAR SBLP 061300Z 13004KT 9999 FEW030 30/21 Q1014;
0120832880999992011010614004-13267-043417FM-15+0443SBLP V0209999C000012200019N0112651N1+03001+02001999999ADDGA1021+009001999GF102991999999999999999999MA1101391999999REMMET051METAR SBLP 061400Z 00000KT 9999 FEW030 30/20 Q1014;
0120832880999992011010615004-13267-043417FM-15+0443SBLP V0202701N002112200019N0112651N1+03001+01901999999ADDGA1021+009001999GF102991999999999999999999MA1101291999999REMMET051METAR SBLP 061500Z 27004KT 9999 FEW030 30/19 Q1013;
0120832880999992011010616004-13267-043417FM-15+0443SBLP V0203601N003112200019N0112651N1+03101+01901999999ADDGA1021+009001999GF102991999999999999999999MA1101291999999REMMET051METAR SBLP 061600Z 36006KT 9999 FEW030 31/19 Q1013;
0120832880999992011010617004-13267-043417FM-15+0443SBLP V0203601N003112200019N0112651N1+03301+01801999999ADDGA1041+009001999GF104991999999999999999999MA1101191999999REMMET051METAR SBLP 061700Z 36006KT 9999 SCT030 33/18 Q1012;
0120832880999992011010618004-13267-043417FM-15+0443SBLP V0202701N003112200019N0112651N1+03501+01801999999ADDGA1041+009001999GF104991999999999999999999MA1101081999999REMMET051METAR SBLP 061800Z 27006KT 9999 SCT030 35/18 Q1011;
0120832880999992011010619004-13267-043417FM-15+0443SBLP V0201801N003112200019N0112651N1+03401+01801999999ADDGA1041+009001999GF104991999999999999999999MA1101021999999REMMET051METAR SBLP 061900Z 18006KT 9999 SCT030 34/18 Q1010;
0120832880999992011010620004-13267-043417FM-15+0443SBLP V0201801N003112200019N0112651N1+03401+01801999999ADDGA1041+009001999GF104991999999999999999999MA1101021999999REMMET051METAR SBLP 062000Z 18006KT 9999 SCT030 34/18 Q1010;
0120832880999992011010621004-13267-043417FM-15+0443SBLP V0201801N003112200019N0112651N1+03201+01901999999ADDGA1021+009001999GF102991999999999999999999MA1101021999999REMMET051METAR SBLP 062100Z 18006KT 9999 FEW030 32/19 Q1010;
0072832880999992011010710004-13267-043417FM-15+0443SBLP V0209999C000019999999Y0099001N1+02401+02001999999ADDMA1101391999999REMMET045METAR SBLP 071000Z 00000KT CAVOK 24/20 Q1014;
0072832880999992011010711004-13267-043417FM-15+0443SBLP V0209999C000019999999Y0099001N1+02601+02001999999ADDMA1101391999999REMMET045METAR SBLP 071100Z 00000KT CAVOK 26/20 Q1014;
0072832880999992011010712004-13267-043417FM-15+0443SBLP V0209999C000019999999Y0099001N1+02901+02001999999ADDMA1101391999999REMMET045METAR SBLP 071200Z 00000KT CAVOK 29/20 Q1014;
0072832880999992011010713004-13267-043417FM-15+0443SBLP V0209999C000019999999Y0099001N1+03201+01901999999ADDMA1101391999999REMMET045METAR SBLP 071300Z 00000KT CAVOK 32/19 Q1014;
0120832880999992011010714004-13267-043417FM-15+0443SBLP V0201801N003112200019N0112651N1+03201+01901999999ADDGA1021+009001999GF102991999999999999999999MA1101391999999REMMET051METAR SBLP 071400Z 18006KT 9999 FEW030 32/19 Q1014;
0120832880999992011010715004-13267-043417FM-15+0443SBLP V0201801N003112200019N0112651N1+03301+01901999999ADDGA1021+009001999GF102991999999999999999999MA1101291999999REMMET051METAR SBLP 071500Z 18006KT 9999 FEW030 33/19 Q1013;
0120832880999992011010716004-13267-043417FM-15+0443SBLP V0201901N003112200019N0112651N1+03301+02001999999ADDGA1041+009001999GF104991999999999999999999MA1101291999999REMMET051METAR SBLP 071600Z 19006KT 9999 SCT030 33/20 Q1013;
0120832880999992011010717004-13267-043417FM-15+0443SBLP V0201301N003112200019N0112651N1+03301+01901999999ADDGA1041+009001999GF104991999999999999999999MA1101191999999REMMET051METAR SBLP 071700Z 13006KT 9999 SCT030 33/19 Q1012;
0120832880999992011010718004-13267-043417FM-15+0443SBLP V0201801N003112200019N0112651N1+03301+01901999999ADDGA1041+009001999GF104991999999999999999999MA1101081999999REMMET051METAR SBLP 071800Z 18006KT 9999 SCT030 33/19 Q1011;
0120832880999992011010719004-13267-043417FM-15+0443SBLP V0201801N003112200019N0112651N1+03301+01901999999ADDGA1041+009001999GF104991999999999999999999MA1101081999999REMMET051METAR SBLP 071900Z 18006KT 9999 SCT030 33/19 Q1011;
0120832880999992011010720004-13267-043417FM-15+0443SBLP V0201801N004112200019N0112651N1+03201+02001999999ADDGA1021+009001999GF102991999999999999999999MA1101021999999REMMET051METAR SBLP 072000Z 18008KT 9999 FEW030 32/20 Q1010;
0072832880999992011010721004-13267-043417FM-15+0443SBLP V0201801N003119999999Y0099001N1+03001+02001999999ADDMA1101021999999REMMET045METAR SBLP 072100Z 18006KT CAVOK 30/20 Q1010;
0072832880999992011010810004-13267-043417FM-15+0443SBLP V0201501N001519999999Y0099001N1+02201+02001999999ADDMA1101291999999REMMET045METAR SBLP 081000Z 15003KT CAVOK 22/20 Q1013;
0072832880999992011010811004-13267-043417FM-15+0443SBLP V0201501N001519999999Y0099001N1+02701+01901999999ADDMA1101391999999REMMET045METAR SBLP 081100Z 15003KT CAVOK 27/19 Q1014;
0120832880999992011010812004-13267-043417FM-15+0443SBLP V0201201N002112200019N0112651N1+02901+01901999999ADDGA1021+009001999GF102991999999999999999999MA1101391999999REMMET051METAR SBLP 081200Z 12004KT 9999 FEW030 29/19 Q1014;
0120832880999992011010813004-13267-043417FM-15+0443SBLP V0200901N002112200019N0112651N1+03001+01901999999ADDGA1021+009001999GF102991999999999999999999MA1101391999999REMMET051METAR SBLP 081300Z 09004KT 9999 FEW030 30/19 Q1014;
0120832880999992011010814004-13267-043417FM-15+0443SBLP V0201701N001512200019N0112651N1+03001+02001999999ADDGA1041+009001999GF104991999999999999999999MA1101391999999REMMET051METAR SBLP 081400Z 17003KT 9999 SCT030 30/20 Q1014;
0143832880999992011010815004-13267-043417FM-15+0443SBLP V0201801N001012200019N0112651N1+03201+01901999999ADDGA1041+009001999GA2041+030001999GF104991999999999999999999MA1101291999999REMMET058METAR SBLP 081500Z 18002KT 9999 SCT030 SCT100 32/19 Q1013;
0143832880999992011010817004-13267-043417FM-15+0443SBLP V0201801N003112200019N0112651N1+03201+01901999999ADDGA1041+009001999GA2041+030001999GF104991999999999999999999MA1101191999999REMMET058METAR SBLP 081700Z 18006KT 9999 SCT030 SCT100 32/19 Q1012;
0143832880999992011010818004-13267-043417FM-15+0443SBLP V0201801N003112200019N0112651N1+03201+02001999999ADDGA1041+009001999GA2041+030001999GF104991999999999999999999MA1101081999999REMMET058METAR SBLP 081800Z 18006KT 9999 SCT030 SCT100 32/20 Q1011;
0143832880999992011010819004-13267-043417FM-15+0443SBLP V0201801N003112200019N0112651N1+03201+02001999999ADDGA1041+009001999GA2041+030001999GF104991999999999999999999MA1101081999999REMMET058METAR SBLP 081900Z 18006KT 9999 SCT030 SCT100 32/20 Q1011;
0143832880999992011010820004-13267-043417FM-15+0443SBLP V0202401N003112200019N0112651N1+03001+02201999999ADDGA1021+009001999GA2041+030001999GF104991999999999999999999MA1101021999999REMMET058METAR SBLP 082000Z 24006KT 9999 FEW030 SCT100 30/22 Q1010;
0143832880999992011010821004-13267-043417FM-15+0443SBLP V0202101N004112200019N0112651N1+02801+02201999999ADDGA1021+009001999GA2041+030001999GF104991999999999999999999MA1101021999999REMMET058METAR SBLP 082100Z 21008KT 9999 FEW030 SCT100 28/22 Q1010;
0143832880999992011010910004-13267-043417FM-15+0443SBLP V0201801N003110300019N0112651N1+02201+02101999999ADDGA1021+006901999GA2071+030001999GF107991999999999999999999MA1101291999999REMMET058METAR SBLP 091000Z 18006KT 9999 FEW023 BKN100 22/21 Q1013;
0143832880999992011010911004-13267-043417FM-15+0443SBLP V0201701N002110300019N0112651N1+02301+02001999999ADDGA1021+006901999GA2071+030001999GF107991999999999999999999MA1101391999999REMMET058METAR SBLP 091100Z 17004KT 9999 FEW023 BKN100 23/20 Q1014;
0143832880999992011010912004-13267-043417FM-15+0443SBLP V0209999C000010300019N0112651N1+02501+02101999999ADDGA1021+006901999GA2071+030001999GF107991999999999999999999MA1101391999999REMMET058METAR SBLP 091200Z 00000KT 9999 FEW023 BKN100 25/21 Q1014;
0143832880999992011010913004-13267-043417FM-15+0443SBLP V0200801N001510300019N0112651N1+02901+02201999999ADDGA1021+009001999GA2071+030001999GF107991999999999999999999MA1101391999999REMMET058METAR SBLP 091300Z 08003KT 9999 FEW030 BKN100 29/22 Q1014;
0143832880999992011010914004-13267-043417FM-15+0443SBLP V0209999C000012200019N0112651N1+02901+02001999999ADDGA1021+009001999GA2041+030001999GF104991999999999999999999MA1101291999999REMMET058METAR SBLP 091400Z 00000KT 9999 FEW030 SCT100 29/20 Q1013;
0143832880999992011010915004-13267-043417FM-15+0443SBLP V0209999C000012200019N0112651N1+03001+02101999999ADDGA1021+009001999GA2041+030001999GF104991999999999999999999MA1101291999999REMMET058METAR SBLP 091500Z 00000KT 9999 FEW030 SCT100 30/21 Q1013;
0143832880999992011010916004-13267-043417FM-15+0443SBLP V0209999C000012200019N0112651N1+03201+02001999999ADDGA1021+009001999GA2041+030001999GF104991999999999999999999MA1101191999999REMMET058METAR SBLP 091600Z 00000KT 9999 FEW030 SCT100 32/20 Q1012;
0120832880999992011010917004-13267-043417FM-15+0443SBLP V0209999C000012200019N0112651N1+03201+02001999999ADDGA1021+009001999GF102991999999999999999999MA1101081999999REMMET051METAR SBLP 091700Z 00000KT 9999 FEW030 32/20 Q1011;
0120832880999992011010918004-13267-043417FM-15+0443SBLP V0201801N003112200019N0112651N1+03301+02001999999ADDGA1041+009001999GF104991999999999999999999MA1100911999999REMMET051METAR SBLP 091800Z 18006KT 9999 SCT030 33/20 Q1009;
0120832880999992011010919004-13267-043417FM-15+0443SBLP V0201801N003112200019N0112651N1+03301+02001999999ADDGA1041+009001999GF104991999999999999999999MA1100911999999REMMET051METAR SBLP 091900Z 18006KT 9999 SCT030 33/20 Q1009;
0120832880999992011010920004-13267-043417FM-15+0443SBLP V0209999C000012200019N0112651N1+03201+01901999999ADDGA1021+009001999GF102991999999999999999999MA1100911999999REMMET051METAR SBLP 092000Z 00000KT 9999 FEW030 32/19 Q1009;
0120832880999992011010921004-13267-043417FM-15+0443SBLP V0209999C000012200019N0112651N1+03101+02101999999ADDGA1021+009001999GF102991999999999999999999MA1100911999999REMMET051METAR SBLP 092100Z 00000KT 9999 FEW030 31/21 Q1009;
0143832880999992011011010004-13267-043417FM-15+0443SBLP V0209999C000012200019N0112651N1+02401+02101999999ADDGA1021+009001999GA2041+030001999GF104991999999999999999999MA1101191999999REMMET058METAR SBLP 101000Z 00000KT 9999 FEW030 SCT100 24/21 Q1012;
0143832880999992011011011004-13267-043417FM-15+0443SBLP V0209999C000012200019N0112651N1+02601+02001999999ADDGA1021+009001999GA2041+030001999GF104991999999999999999999MA1101291999999REMMET058METAR SBLP 101100Z 00000KT 9999 FEW030 SCT100 26/20 Q1013;
0120832880999992011011012004-13267-043417FM-15+0443SBLP V0203401N002112200019N0112651N1+02801+02101999999ADDGA1021+009001999GF102991999999999999999999MA1101291999999REMMET051METAR SBLP 101200Z 34004KT 9999 FEW030 28/21 Q1013;
0120832880999992011011013004-13267-043417FM-15+0443SBLP V0209999C000012200019N0112651N1+03001+02001999999ADDGA1041+009001999GF104991999999999999999999MA1101191999999REMMET051METAR SBLP 101300Z 00000KT 9999 SCT030 30/20 Q1012;
0120832880999992011011014004-13267-043417FM-15+0443SBLP V0209999C000012200019N0112651N1+03101+02001999999ADDGA1041+009001999GF104991999999999999999999MA1101191999999REMMET051METAR SBLP 101400Z 00000KT 9999 SCT030 31/20 Q1012;
0120832880999992011011015004-13267-043417FM-15+0443SBLP V0203301N003112200019N0112651N1+03101+02101999999ADDGA1041+009001999GF104991999999999999999999MA1101081999999REMMET051METAR SBLP 101500Z 33006KT 9999 SCT030 31/21 Q1011;
0120832880999992011011016004-13267-043417FM-15+0443SBLP V0201701N002112200019N0112651N1+03201+02201999999ADDGA1041+009001999GF104991999999999999999999MA1101021999999REMMET051METAR SBLP 101600Z 17004KT 9999 SCT030 32/22 Q1010;
0120832880999992011011017004-13267-043417FM-15+0443SBLP V0200601N001512200019N0112651N1+03201+02001999999ADDGA1041+009001999GF104991999999999999999999MA1100911999999REMMET051METAR SBLP 101700Z 06003KT 9999 SCT030 32/20 Q1009;
0120832880999992011011018004-13267-043417FM-15+0443SBLP V0203601N001012200019N0112651N1+03401+02001999999ADDGA1041+009001999GF104991999999999999999999MA1100811999999REMMET051METAR SBLP 101800Z 36002KT 9999 SCT030 34/20 Q1008;
0139832880999992011011019004-13267-043417FM-15+0443SBLP V0203301N005112200019N0112651N1+03101+02301999999ADDGA1041+009001999GA2021+009001021MA1100811999999REMMET061METAR SBLP 101900Z 33010KT 9999 SCT030 FEW030TCU 31/23 Q1008;EQDQ01+000022SCOTCV
0120832880999992011011020004-13267-043417FM-15+0443SBLP V0203201N002112200019N0112651N1+03401+02001999999ADDGA1041+009001999GF104991999999999999999999MA1100811999999REMMET051METAR SBLP 102000Z 32004KT 9999 SCT030 34/20 Q1008;
0120832880999992011011021004-13267-043417FM-15+0443SBLP V0203001N002112200019N0112651N1+02901+02101999999ADDGA1021+009001999GF102991999999999999999999MA1100811999999REMMET051METAR SBLP 102100Z 30004KT 9999 FEW030 29/21 Q1008;
0143832880999992011011110004-13267-043417FM-15+0443SBLP V0203601N003110300019N0112651N1+02401+02201999999ADDGA1041+006001999GA2071+030001999GF107991999999999999999999MA1101191999999REMMET058METAR SBLP 111000Z 36006KT 9999 SCT020 BKN100 24/22 Q1012;
0072832880999992011011111004-13267-043417FM-15+0443SBLP V0203401N004119999999Y0099001N1+02701+02201999999ADDMA1101291999999REMMET045METAR SBLP 111100Z 34008KT CAVOK 27/22 Q1013;
0143832880999992011011112004-13267-043417FM-15+0443SBLP V0203601N005110300019N0112651N1+02801+02301999999ADDGA1041+006001999GA2071+030001999GF107991999999999999999999MA1101391999999REMMET058METAR SBLP 111200Z 36010KT 9999 SCT020 BKN100 28/23 Q1014;
0148832880999992011011113004-13267-043417FM-15+0443SBLP V0203401N003110300019N0112651N1+02701+02301999999ADDGA1041+009001999GA2071+030001999GF107991999999999999999999MA1101291999999REMMET063METAR SBLP 111300Z 34006KT 9999 SCT030 BKN100 27/23 Q1013 RERA;
0180832880999992011011114004-13267-043417FM-15+0443SBLP V0203301N004110300019N0080001N1+02701+02201999999ADDGA1041+009001999GA2021+009001021GA3071+030001999GF107991999999999999999999MA1101291999999MW1161REMMET073METAR SBLP 111400Z 33008KT 8000 VCSH SCT030 FEW030TCU BKN100 27/22 Q1013;
0146832880999992011011115004-13267-043417FM-15+0443SBLP V0203601N005110300019N0112651N1+02601+02301999999ADDGA1041+009001021GA2071+030001999GF107991999999999999999999MA1101191999999REMMET061METAR SBLP 111500Z 36010KT 9999 SCT030TCU BKN100 26/23 Q1012;
0143832880999992011011116004-13267-043417FM-15+0443SBLP V0203601N003110300019N0112651N1+02801+02201999999ADDGA1041+009001999GA2071+030001999GF107991999999999999999999MA1101081999999REMMET058METAR SBLP 111600Z 36006KT 9999 SCT030 BKN100 28/22 Q1011;
0153832880999992011011117004-13267-043417FM-15+0443SBLP V0203601N003110300019N0090001N1+02801+02201999999ADDGA1041+009001999GA2071+030001999GF107991999999999999999999MA1101021999999MW1611REMMET062METAR SBLP 111700Z 36006KT 9000 -RA SCT030 BKN100 28/22 Q1010;
0180832880999992011011118004-13267-043417FM-15+0443SBLP V0203601N00311012001CN0112651N1+02701+02201999999ADDGA1041+009001021GA2021+012001091GA3071+030001999GF107991999999999999999999MA1101021999999MW1171REMMET073METAR SBLP 111800Z 36006KT 9999 TS SCT030TCU FEW040CB BKN100 27/22 Q1010;
0143832880999992011011119004-13267-043417FM-15+0443SBLP V0203601N003110300019N0112651N1+02701+02201999999ADDGA1041+009001999GA2071+030001999GF107991999999999999999999MA1101021999999REMMET058METAR SBLP 111900Z 36006KT 9999 SCT030 BKN100 27/22 Q1010;
0153832880999992011011120004-13267-043417FM-15+0443SBLP V0203601N003110300019N0090001N1+02501+02201999999ADDGA1041+009001999GA2071+030001999GF107991999999999999999999MA1101021999999MW1611REMMET062METAR SBLP 112000Z 36006KT 9000 -RA SCT030 BKN100 25/22 Q1010;
0143832880999992011011121004-13267-043417FM-15+0443SBLP V0203601N003110300019N0112651N1+02501+02201999999ADDGA1041+009001999GA2071+030001999GF107991999999999999999999MA1101021999999REMMET058METAR SBLP 112100Z 36006KT 9999 SCT030 BKN100 25/22 Q1010;
0143832880999992011011210004-13267-043417FM-15+0443SBLP V0200901N002110300019N0112651N1+02201+02201999999ADDGA1021+006001999GA2071+030001999GF107991999999999999999999MA1101391999999REMMET058METAR SBLP 121000Z 09004KT 9999 FEW020 BKN100 22/22 Q1014;
0143832880999992011011211004-13267-043417FM-15+0443SBLP V0200601N001510300019N0112651N1+02301+02201999999ADDGA1021+006001999GA2071+030001999GF107991999999999999999999MA1101491999999REMMET058METAR SBLP 121100Z 06003KT 9999 FEW020 BKN100 23/22 Q1015;
0143832880999992011011212004-13267-043417FM-15+0443SBLP V0200901N001510300019N0112651N1+02401+02301999999ADDGA1021+006001999GA2071+030001999GF107991999999999999999999MA1101491999999REMMET058METAR SBLP 121200Z 09003KT 9999 FEW020 BKN100 24/23 Q1015;
0143832880999992011011213004-13267-043417FM-15+0443SBLP V0209999C000010300019N0112651N1+02501+02201999999ADDGA1041+006001999GA2071+030001999GF107991999999999999999999MA1101491999999REMMET058METAR SBLP 121300Z 00000KT 9999 SCT020 BKN100 25/22 Q1015;
0143832880999992011011214004-13267-043417FM-15+0443SBLP V0209999C000010300019N0112651N1+02701+02201999999ADDGA1041+006001999GA2071+030001999GF107991999999999999999999MA1101491999999REMMET058METAR SBLP 121400Z 00000KT 9999 SCT020 BKN100 27/22 Q1015;
0120832880999992011011215004-13267-043417FM-15+0443SBLP V0200901N002612200019N0112651N1+02901+02401999999ADDGA1041+009001999GF104991999999999999999999MA1101391999999REMMET051METAR SBLP 121500Z 09005KT 9999 SCT030 29/24 Q1014;
0120832880999992011011216004-13267-043417FM-15+0443SBLP V0203601N001512200019N0112651N1+03001+02201999999ADDGA1041+009001999GF104991999999999999999999MA1101191999999REMMET051METAR SBLP 121600Z 36003KT 9999 SCT030 30/22 Q1012;
0120832880999992011011217004-13267-043417FM-15+0443SBLP V0203601N003112200019N0112651N1+03101+02301999999ADDGA1041+009001999GF104991999999999999999999MA1101081999999REMMET051METAR SBLP 121700Z 36006KT 9999 SCT030 31/23 Q1011;
0154832880999992011011218004-13267-043417FM-15+0443SBLP V0203601N002612200019N0112651N1+03101+02201999999ADDGA1021+009001999GA2021+012001091GF102991999999999999999999MA1101021999999MW1171REMMET063METAR SBLP 121800Z 36005KT 9999 TS FEW030 FEW040CB 31/22 Q1010;
0163832880999992011011219004-13267-043417FM-15+0443SBLP V0202901N00211004501CN0050001N1+02302+02301999999ADDGA1071+004501999GA2021+012001091MA1101191999999MW1801MW2951REMMET073METAR SBLP 121900Z 29004KT 5000 -TSRA BKN015 FEW040CB 23/23 Q1012 RETSRA;EQDQ01+000022SCOTCV
0125832880999992011011220004-13267-043417FM-15+0443SBLP V0200101N001512200019N0112651N1+02301+02201999999ADDGA1041+004501999GF104991999999999999999999MA1101081999999REMMET056METAR SBLP 122000Z 01003KT 9999 SCT015 23/22 Q1011 RETS;
0153832880999992011011221004-13267-043417FM-15+0443SBLP V0209999C000012200019N0112651N1+02301+02201999999ADDGA1041+004501999GA2041+030001999GF104991999999999999999999MA1101191999999MW1611REMMET062METAR SBLP 122100Z 00000KT 9999 -RA SCT015 SCT100 23/22 Q1012;
0143832880999992011011310004-13267-043417FM-15+0443SBLP V0209999C000010300019N0112651N1+02201+02101999999ADDGA1041+003001999GA2071+030001999GF107991999999999999999999MA1101391999999REMMET058METAR SBLP 131000Z 00000KT 9999 SCT010 BKN100 22/21 Q1014;
0143832880999992011011311004-13267-043417FM-15+0443SBLP V0209999C000010300019N0112651N1+02401+02101999999ADDGA1041+003001999GA2071+030001999GF107991999999999999999999MA1101491999999REMMET058METAR SBLP 131100Z 00000KT 9999 SCT010 BKN100 24/21 Q1015;
0143832880999992011011312004-13267-043417FM-15+0443SBLP V0209999C000010300019N0112651N1+02601+02101999999ADDGA1041+003001999GA2071+030001999GF107991999999999999999999MA1101491999999REMMET058METAR SBLP 131200Z 00000KT 9999 SCT010 BKN100 26/21 Q1015;
0143832880999992011011314004-13267-043417FM-15+0443SBLP V0209999C000012200019N0112651N1+02801+02101999999ADDGA1041+004501999GA2041+030001999GF104991999999999999999999MA1101491999999REMMET058METAR SBLP 131400Z 00000KT 9999 SCT015 SCT100 28/21 Q1015;
0143832880999992011011315004-13267-043417FM-15+0443SBLP V0209999C000012200019N0112651N1+02901+02101999999ADDGA1041+006001999GA2041+030001999GF104991999999999999999999MA1101391999999REMMET058METAR SBLP 131500Z 00000KT 9999 SCT020 SCT100 29/21 Q1014;
0143832880999992011011316004-13267-043417FM-15+0443SBLP V0209999C000012200019N0112651N1+03101+02101999999ADDGA1041+008101999GA2041+030001999GF104991999999999999999999MA1101291999999REMMET058METAR SBLP 131600Z 00000KT 9999 SCT027 SCT100 31/21 Q1013;
0143832880999992011011317004-13267-043417FM-15+0443SBLP V0203001N003112200019N0112651N1+03101+02101999999ADDGA1041+008101999GA2041+030001999GF104991999999999999999999MA1101081999999REMMET058METAR SBLP 131700Z 30006KT 9999 SCT027 SCT100 31/21 Q1011;
0143832880999992011011318004-13267-043417FM-15+0443SBLP V0200601N003110300019N0112651N1+03201+02201999999ADDGA1041+008101999GA2071+030001999GF107991999999999999999999MA1101081999999REMMET058METAR SBLP 131800Z 06006KT 9999 SCT027 BKN100 32/22 Q1011;
0143832880999992011011319004-13267-043417FM-15+0443SBLP V0200901N003110300019N0112651N1+02801+02201999999ADDGA1041+009001999GA2071+030001999GF107991999999999999999999MA1101021999999REMMET058METAR SBLP 131900Z 09006KT 9999 SCT030 BKN100 28/22 Q1010;
0143832880999992011011320004-13267-043417FM-15+0443SBLP V0200601N003112200019N0112651N1+02901+02301999999ADDGA1041+009001999GA2041+030001999GF104991999999999999999999MA1101081999999REMMET058METAR SBLP 132000Z 06006KT 9999 SCT030 SCT100 29/23 Q1011;
0143832880999992011011321004-13267-043417FM-15+0443SBLP V0209999C000010300019N0112651N1+02801+02401999999ADDGA1041+008101999GA2071+030001999GF107991999999999999999999MA1101191999999REMMET058METAR SBLP 132100Z 00000KT 9999 SCT027 BKN100 28/24 Q1012;
0143832880999992011011410004-13267-043417FM-15+0443SBLP V0201701N002610300019N0112651N1+02301+02201999999ADDGA1021+006901999GA2071+030001999GF107991999999999999999999MA1101391999999REMMET058METAR SBLP 141000Z 17005KT 9999 FEW023 BKN100 23/22 Q1014;
0143832880999992011011411004-13267-043417FM-15+0443SBLP V0201701N003112200019N0112651N1+02501+02201999999ADDGA1021+006901999GA2041+030001999GF104991999999999999999999MA1101391999999REMMET058METAR SBLP 141100Z 17006KT 9999 FEW023 SCT100 25/22 Q1014;
0143832880999992011011412004-13267-043417FM-15+0443SBLP V0201901N003112200019N0112651N1+02701+02201999999ADDGA1021+008101999GA2041+030001999GF104991999999999999999999MA1101391999999REMMET058METAR SBLP 141200Z 19006KT 9999 FEW027 SCT100 27/22 Q1014;
0143832880999992011011413004-13267-043417FM-15+0443SBLP V0201801N003112200019N0112651N1+02901+02301999999ADDGA1021+009001999GA2041+030001999GF104991999999999999999999MA1101391999999REMMET058METAR SBLP 141300Z 18006KT 9999 FEW030 SCT100 29/23 Q1014;
0143832880999992011011414004-13267-043417FM-15+0443SBLP V0201901N004112200019N0112651N1+03001+02301999999ADDGA1021+009001999GA2041+030001999GF104991999999999999999999MA1101291999999REMMET058METAR SBLP 141400Z 19008KT 9999 FEW030 SCT100 30/23 Q1013;
0143832880999992011011415004-13267-043417FM-15+0443SBLP V0202101N001510300019N0112651N1+03001+02301999999ADDGA1021+009001999GA2071+030001999GF107991999999999999999999MA1101291999999REMMET058METAR SBLP 141500Z 21003KT 9999 FEW030 BKN100 30/23 Q1013;
0143832880999992011011416004-13267-043417FM-15+0443SBLP V0202401N003110300019N0112651N1+03101+02301999999ADDGA1041+009001999GA2071+030001999GF107991999999999999999999MA1101191999999REMMET058METAR SBLP 141600Z 24006KT 9999 SCT030 BKN100 31/23 Q1012;
0143832880999992011011417004-13267-043417FM-15+0443SBLP V0202301N002110300019N0112651N1+03001+02401999999ADDGA1041+009001999GA2071+030001999GF107991999999999999999999MA1101021999999REMMET058METAR SBLP 141700Z 23004KT 9999 SCT030 BKN100 30/24 Q1010;
0143832880999992011011418004-13267-043417FM-15+0443SBLP V0201801N002110300019N0112651N1+02901+02401999999ADDGA1041+009001999GA2071+030001999GF107991999999999999999999MA1101021999999REMMET058METAR SBLP 141800Z 18004KT 9999 SCT030 BKN100 29/24 Q1010;
0143832880999992011011419004-13267-043417FM-15+0443SBLP V0201501N002110300019N0112651N1+02701+02501999999ADDGA1041+009001999GA2071+030001999GF107991999999999999999999MA1101021999999REMMET058METAR SBLP 141900Z 15004KT 9999 SCT030 BKN100 27/25 Q1010;
0143832880999992011011420004-13267-043417FM-15+0443SBLP V0201201N002110300019N0112651N1+02501+02201999999ADDGA1041+008101999GA2071+030001999GF107991999999999999999999MA1101021999999REMMET058METAR SBLP 142000Z 12004KT 9999 SCT027 BKN100 25/22 Q1010;
0153832880999992011011421004-13267-043417FM-15+0443SBLP V0201501N003110300019N0090001N1+02401+02301999999ADDGA1041+006901999GA2071+030001999GF107991999999999999999999MA1101021999999MW1611REMMET062METAR SBLP 142100Z 15006KT 9000 -RA SCT023 BKN100 24/23 Q1010;
0126832880999992011011510004-13267-043417FM-15+0443SBLP V0209999C000012200019N0112651N1+02301+02201999999ADDGF100991999999999999999999MA1101291999999REMMET054METAR SBLP 151000Z 00000KT 9999 2500S NSC 23/22 Q1013;EQDQ01    003SCCGA1
0143832880999992011011511004-13267-043417FM-15+0443SBLP V0202101N001512200019N0112651N1+02601+02301999999ADDGA1021+006901999GA2041+030001999GF104991999999999999999999MA1101291999999REMMET058METAR SBLP 151100Z 21003KT 9999 FEW023 SCT100 26/23 Q1013;
0143832880999992011011512004-13267-043417FM-15+0443SBLP V0209999C000012200019N0112651N1+02801+02201999999ADDGA1021+009001999GA2041+030001999GF104991999999999999999999MA1101291999999REMMET058METAR SBLP 151200Z 00000KT 9999 FEW030 SCT100 28/22 Q1013;
0120832880999992011011513004-13267-043417FM-15+0443SBLP V0202101N001512200019N0112651N1+02901+02201999999ADDGA1021+009001999GF102991999999999999999999MA1101291999999REMMET051METAR SBLP 151300Z 21003KT 9999 FEW030 29/22 Q1013;
0120832880999992011011514004-13267-043417FM-15+0443SBLP V0209999C000012200019N0112651N1+03201+02201999999ADDGA1021+009001999GF102991999999999999999999MA1101191999999REMMET051METAR SBLP 151400Z 00000KT 9999 FEW030 32/22 Q1012;
0120832880999992011011515004-13267-043417FM-15+0443SBLP V0202101N003112200019N0112651N1+03201+02101999999ADDGA1041+009001999GF104991999999999999999999MA1101191999999REMMET051METAR SBLP 151500Z 21006KT 9999 SCT030 32/21 Q1012;
0120832880999992011011516004-13267-043417FM-15+0443SBLP V0202101N001512200019N0112651N1+03201+02201999999ADDGA1041+009001999GF104991999999999999999999MA1101081999999REMMET051METAR SBLP 151600Z 21003KT 9999 SCT030 32/22 Q1011;
0120832880999992011011517004-13267-043417FM-15+0443SBLP V0209999C000012200019N0112651N1+03301+01901999999ADDGA1041+009001999GF104991999999999999999999MA1100911999999REMMET051METAR SBLP 151700Z 00000KT 9999 SCT030 33/19 Q1009;
0120832880999992011011518004-13267-043417FM-15+0443SBLP V0202101N003112200019N0112651N1+03401+01901999999ADDGA1041+009001999GF104991999999999999999999MA1100811999999REMMET051METAR SBLP 151800Z 21006KT 9999 SCT030 34/19 Q1008;
0120832880999992011011519004-13267-043417FM-15+0443SBLP V0202101N003112200019N0112651N1+03401+01901999999ADDGA1021+009001999GF102991999999999999999999MA1100711999999REMMET051METAR SBLP 151900Z 21006KT 9999 FEW030 34/19 Q1007;
0120832880999992011011520004-13267-043417FM-15+0443SBLP V0202101N002112200019N0112651N1+03401+01901999999ADDGA1021+009001999GF102991999999999999999999MA1100711999999REMMET051METAR SBLP 152000Z 21004KT 9999 FEW030 34/19 Q1007;
0072832880999992011011521004-13267-043417FM-15+0443SBLP V0201801N001519999999Y0099001N1+03201+01901999999ADDMA1100811999999REMMET045METAR SBLP 152100Z 18003KT CAVOK 32/19 Q1008;
0072832880999992011011610004-13267-043417FM-15+0443SBLP V0209999C000019999999Y0099001N1+02501+02301999999ADDMA1101191999999REMMET045METAR SBLP 161000Z 00000KT CAVOK 25/23 Q1012;
0072832880999992011011611004-13267-043417FM-15+0443SBLP V0209999C000019999999Y0099001N1+02901+02201999999ADDMA1101191999999REMMET045METAR SBLP 161100Z 00000KT CAVOK 29/22 Q1012;
0072832880999992011011612004-13267-043417FM-15+0443SBLP V0209999C000019999999Y0099001N1+03001+01901999999ADDMA1101291999999REMMET045METAR SBLP 161200Z 00000KT CAVOK 30/19 Q1013;
0072832880999992011011613004-13267-043417FM-15+0443SBLP V0209999C000019999999Y0099001N1+03201+01701999999ADDMA1101291999999REMMET045METAR SBLP 161300Z 00000KT CAVOK 32/17 Q1013;
0072832880999992011011614004-13267-043417FM-15+0443SBLP V0209999C000019999999Y0099001N1+03201+01801999999ADDMA1101191999999REMMET045METAR SBLP 161400Z 00000KT CAVOK 32/18 Q1012;
0120832880999992011011615004-13267-043417FM-15+0443SBLP V0203601N002612200019N0112651N1+03301+01801999999ADDGA1021+009001999GF102991999999999999999999MA1101191999999REMMET051METAR SBLP 161500Z 36005KT 9999 FEW030 33/18 Q1012;
0120832880999992011011616004-13267-043417FM-15+0443SBLP V0209999C000012200019N0112651N1+03301+01901999999ADDGA1041+009001999GF104991999999999999999999MA1101081999999REMMET051METAR SBLP 161600Z 00000KT 9999 SCT030 33/19 Q1011;
0120832880999992011011617004-13267-043417FM-15+0443SBLP V0202101N003112200019N0112651N1+03401+01801999999ADDGA1041+009001999GF104991999999999999999999MA1101021999999REMMET051METAR SBLP 161700Z 21006KT 9999 SCT030 34/18 Q1010;
0120832880999992011011618004-13267-043417FM-15+0443SBLP V0201801N001512200019N0112651N1+03501+01701999999ADDGA1041+009001999GF104991999999999999999999MA1100911999999REMMET051METAR SBLP 161800Z 18003KT 9999 SCT030 35/17 Q1009;
0120832880999992011011619004-13267-043417FM-15+0443SBLP V0209999C000012200019N0112651N1+03401+01701999999ADDGA1021+009001999GF102991999999999999999999MA1100911999999REMMET051METAR SBLP 161900Z 00000KT 9999 FEW030 34/17 Q1009;
0120832880999992011011620004-13267-043417FM-15+0443SBLP V0201801N001512200019N0112651N1+03401+01701999999ADDGA1021+009001999GF102991999999999999999999MA1100911999999REMMET051METAR SBLP 162000Z 18003KT 9999 FEW030 34/17 Q1009;
0072832880999992011011621004-13267-043417FM-15+0443SBLP V0202101N001519999999Y0099001N1+03301+01701999999ADDMA1100911999999REMMET045METAR SBLP 162100Z 21003KT CAVOK 33/17 Q1009;
0072832880999992011011710004-13267-043417FM-15+0443SBLP V0209999C000019999999Y0099001N1+02601+02001999999ADDMA1101291999999REMMET045METAR SBLP 171000Z 00000KT CAVOK 26/20 Q1013;
0072832880999992011011711004-13267-043417FM-15+0443SBLP V0202101N002119999999Y0099001N1+02901+02101999999ADDMA1101391999999REMMET045METAR SBLP 171100Z 21004KT CAVOK 29/21 Q1014;
0072832880999992011011712004-13267-043417FM-15+0443SBLP V0209999C000019999999Y0099001N1+03201+02101999999ADDMA1101391999999REMMET045METAR SBLP 171200Z 00000KT CAVOK 32/21 Q1014;
0072832880999992011011713004-13267-043417FM-15+0443SBLP V0201501N002619999999Y0099001N1+03201+02001999999ADDMA1101391999999REMMET045METAR SBLP 171300Z 15005KT CAVOK 32/20 Q1014;
0072832880999992011011714004-13267-043417FM-15+0443SBLP V0209999C000019999999Y0099001N1+03401+02101999999ADDMA1101291999999REMMET045METAR SBLP 171400Z 00000KT CAVOK 34/21 Q1013;
0120832880999992011011715004-13267-043417FM-15+0443SBLP V0200901N003112200019N0112651N1+03401+02101999999ADDGA1021+009001999GF102991999999999999999999MA1101291999999REMMET051METAR SBLP 171500Z 09006KT 9999 FEW030 34/21 Q1013;
0120832880999992011011716004-13267-043417FM-15+0443SBLP V0200901N003112200019N0112651N1+03501+02101999999ADDGA1021+009001999GF102991999999999999999999MA1101191999999REMMET051METAR SBLP 171600Z 09006KT 9999 FEW030 35/21 Q1012;
0120832880999992011011717004-13267-043417FM-15+0443SBLP V0200901N003112200019N0112651N1+03501+02001999999ADDGA1041+009001999GF104991999999999999999999MA1101081999999REMMET051METAR SBLP 171700Z 09006KT 9999 SCT030 35/20 Q1011;
0120832880999992011011718004-13267-043417FM-15+0443SBLP V0200901N003112200019N0112651N1+03601+02001999999ADDGA1041+009001999GF104991999999999999999999MA1100911999999REMMET051METAR SBLP 171800Z 09006KT 9999 SCT030 36/20 Q1009;
0147832880999992011011719004-13267-043417FM-15+0443SBLP V0200901N006212200019N0112651N1+03601+02001999999ADDGA1041+003001999GA2021+012001091MA1100911999999MW1171REMMET063METAR SBLP 171900Z 09012KT 9999 TS SCT010 FEW040CB 36/20 Q1009;EQDQ01+000022SCOTCV
0156832880999992011011720004-13267-043417FM-15+0443SBLP V0200901N006212200019N0090001N1+03101+02101999999ADDGA1041+009001999GA2021+012001091MA1101021999999MW1801MW2951REMMET066METAR SBLP 172000Z 09012KT 9000 -TSRA SCT030 FEW040CB 31/21 Q1010;EQDQ01+000022SCOTCV
0143832880999992011011721004-13267-043417FM-15+0443SBLP V0209999C000012200019N0112651N1+03001+02101999999ADDGA1041+009001999GA2041+030001999GF104991999999999999999999MA1100911999999REMMET058METAR SBLP 172100Z 00000KT 9999 SCT030 SCT100 30/21 Q1009;
0072832880999992011011810004-13267-043417FM-15+0443SBLP V0209999C000019999999Y0099001N1+02401+02001999999ADDMA1101291999999REMMET045METAR SBLP 181000Z 00000KT CAVOK 24/20 Q1013;
0072832880999992011011811004-13267-043417FM-15+0443SBLP V0209999C000019999999Y0099001N1+02701+02001999999ADDMA1101291999999REMMET045METAR SBLP 181100Z 00000KT CAVOK 27/20 Q1013;
0120832880999992011011812004-13267-043417FM-15+0443SBLP V0209999C000012200019N0112651N1+03001+02001999999ADDGA1021+009001999GF102991999999999999999999MA1101391999999REMMET051METAR SBLP 181200Z 00000KT 9999 FEW030 30/20 Q1014;
0120832880999992011011813004-13267-043417FM-15+0443SBLP V0209999C000012200019N0112651N1+03201+02001999999ADDGA1041+009001999GF104991999999999999999999MA1101391999999REMMET051METAR SBLP 181300Z 00000KT 9999 SCT030 32/20 Q1014;
0120832880999992011011814004-13267-043417FM-15+0443SBLP V0203601N003112200019N0112651N1+03201+02001999999ADDGA1041+009001999GF104991999999999999999999MA1101391999999REMMET051METAR SBLP 181400Z 36006KT 9999 SCT030 32/20 Q1014;
0120832880999992011011815004-13267-043417FM-15+0443SBLP V0202701N003112200019N0112651N1+03301+02001999999ADDGA1041+009001999GF104991999999999999999999MA1101291999999REMMET051METAR SBLP 181500Z 27006KT 9999 SCT030 33/20 Q1013;
0120832880999992011011816004-13267-043417FM-15+0443SBLP V0202101N001512200019N0112651N1+03401+01901999999ADDGA1041+009001999GF104991999999999999999999MA1101191999999REMMET051METAR SBLP 181600Z 21003KT 9999 SCT030 34/19 Q1012;
0120832880999992011011817004-13267-043417FM-15+0443SBLP V0202901N001512200019N0112651N1+03401+01801999999ADDGA1041+009001999GF104991999999999999999999MA1101021999999REMMET051METAR SBLP 181700Z 29003KT 9999 SCT030 34/18 Q1010;
0149832880999992011011818004-13267-043417FM-15+0443SBLP V0202101N002112200019N0112651N1+03401+02101999999ADDGA1041+009001999GA2021+012001091MA1100911999999MW1161REMMET065METAR SBLP 181800Z 21004KT 9999 VCSH SCT030 FEW040CB 34/21 Q1009;EQDQ01+000022SCOTCV
0154832880999992011011819004-13267-043417FM-15+0443SBLP V0201301N002112200019N0112651N1+03101+02101999999ADDGA1021+009001999GA2021+012001091GF102991999999999999999999MA1101021999999MW1171REMMET063METAR SBLP 181900Z 13004KT 9999 TS FEW030 FEW040CB 31/21 Q1010;
0125832880999992011011820004-13267-043417FM-15+0443SBLP V0201201N003112200019N0112651N1+02801+02001999999ADDGA1021+009001999GF102991999999999999999999MA1101021999999REMMET056METAR SBLP 182000Z 12006KT 9999 FEW030 28/20 Q1010 RETS;
0120832880999992011011821004-13267-043417FM-15+0443SBLP V0209999C000012200019N0112651N1+02801+02101999999ADDGA1021+009001999GF102991999999999999999999MA1100911999999REMMET051METAR SBLP 182100Z 00000KT 9999 FEW030 28/21 Q1009;
0072832880999992011011910004-13267-043417FM-15+0443SBLP V0209999C000019999999Y0099001N1+02301+02101999999ADDMA1101191999999REMMET045METAR SBLP 191000Z 00000KT CAVOK 23/21 Q1012;
0072832880999992011011911004-13267-043417FM-15+0443SBLP V0209999C000019999999Y0099001N1+02701+01901999999ADDMA1101191999999REMMET045METAR SBLP 191100Z 00000KT CAVOK 27/19 Q1012;
0072832880999992011011912004-13267-043417FM-15+0443SBLP V0201201N001519999999Y0099001N1+03001+01901999999ADDMA1101291999999REMMET045METAR SBLP 191200Z 12003KT CAVOK 30/19 Q1013;
0072832880999992011011913004-13267-043417FM-15+0443SBLP V0201101N002619999999Y0099001N1+03101+01901999999ADDMA1101291999999REMMET045METAR SBLP 191300Z 11005KT CAVOK 31/19 Q1013;
0072832880999992011011914004-13267-043417FM-15+0443SBLP V0201501N003119999999Y0099001N1+03201+01801999999ADDMA1101191999999REMMET045METAR SBLP 191400Z 15006KT CAVOK 32/18 Q1012;
0120832880999992011011915004-13267-043417FM-15+0443SBLP V0201501N003112200019N0112651N1+03201+01801999999ADDGA1021+009001999GF102991999999999999999999MA1101081999999REMMET051METAR SBLP 191500Z 15006KT 9999 FEW030 32/18 Q1011;
0120832880999992011011916004-13267-043417FM-15+0443SBLP V0201801N003112200019N0112651N1+03301+01801999999ADDGA1021+009001999GF102991999999999999999999MA1101021999999REMMET051METAR SBLP 191600Z 18006KT 9999 FEW030 33/18 Q1010;
0120832880999992011011917004-13267-043417FM-15+0443SBLP V0201601N003112200019N0112651N1+03401+01801999999ADDGA1021+009001999GF102991999999999999999999MA1100911999999REMMET051METAR SBLP 191700Z 16006KT 9999 FEW030 34/18 Q1009;
0120832880999992011011918004-13267-043417FM-15+0443SBLP V0201201N003112200019N0112651N1+03401+01801999999ADDGA1021+009001999GF102991999999999999999999MA1100811999999REMMET051METAR SBLP 191800Z 12006KT 9999 FEW030 34/18 Q1008;
0120832880999992011011919004-13267-043417FM-15+0443SBLP V0201401N003112200019N0112651N1+03401+01701999999ADDGA1021+009001999GF102991999999999999999999MA1100711999999REMMET051METAR SBLP 191900Z 14006KT 9999 FEW030 34/17 Q1007;
0120832880999992011011920004-13267-043417FM-15+0443SBLP V0201801N003112200019N0112651N1+03301+01801999999ADDGA1021+009001999GF102991999999999999999999MA1100711999999REMMET051METAR SBLP 192000Z 18006KT 9999 FEW030 33/18 Q1007;
0072832880999992011011921004-13267-043417FM-15+0443SBLP V0201801N003119999999Y0099001N1+03201+01901999999ADDMA1100711999999REMMET045METAR SBLP 192100Z 18006KT CAVOK 32/19 Q1007;
0072832880999992011012010004-13267-043417FM-15+0443SBLP V0209999C000019999999Y0099001N1+02301+01601999999ADDMA1101081999999REMMET045METAR SBLP 201000Z 00000KT CAVOK 23/16 Q1011;
0072832880999992011012011004-13267-043417FM-15+0443SBLP V0201201N002119999999Y0099001N1+02701+01901999999ADDMA1101081999999REMMET045METAR SBLP 201100Z 12004KT CAVOK 27/19 Q1011;
0072832880999992011012012004-13267-043417FM-15+0443SBLP V0209999C000019999999Y0099001N1+02901+01901999999ADDMA1101191999999REMMET045METAR SBLP 201200Z 00000KT CAVOK 29/19 Q1012;
0072832880999992011012013004-13267-043417FM-15+0443SBLP V0200901N003119999999Y0099001N1+03101+01801999999ADDMA1101081999999REMMET045METAR SBLP 201300Z 09006KT CAVOK 31/18 Q1011;
0120832880999992011012014004-13267-043417FM-15+0443SBLP V0209999C000012200019N0112651N1+03201+01801999999ADDGA1021+009001999GF102991999999999999999999MA1101081999999REMMET051METAR SBLP 201400Z 00000KT 9999 FEW030 32/18 Q1011;
0120832880999992011012015004-13267-043417FM-15+0443SBLP V0209999C000012200019N0112651N1+03201+01801999999ADDGA1021+009001999GF102991999999999999999999MA1101021999999REMMET051METAR SBLP 201500Z 00000KT 9999 FEW030 32/18 Q1010;
0120832880999992011012016004-13267-043417FM-15+0443SBLP V0202501N004112200019N0112651N1+03301+01801999999ADDGA1041+009001999GF104991999999999999999999MA1100911999999REMMET051METAR SBLP 201600Z 25008KT 9999 SCT030 33/18 Q1009;
0120832880999992011012017004-13267-043417FM-15+0443SBLP V0202401N003112200019N0112651N1+03401+01601999999ADDGA1041+009001999GF104991999999999999999999MA1100811999999REMMET051METAR SBLP 201700Z 24006KT 9999 SCT030 34/16 Q1008;
0120832880999992011012018004-13267-043417FM-15+0443SBLP V0202201N003112200019N0112651N1+03401+01601999999ADDGA1041+009001999GF104991999999999999999999MA1100711999999REMMET051METAR SBLP 201800Z 22006KT 9999 SCT030 34/16 Q1007;
0120832880999992011012019004-13267-043417FM-15+0443SBLP V0202101N003112200019N0112651N1+03401+01601999999ADDGA1041+009001999GF104991999999999999999999MA1100711999999REMMET051METAR SBLP 201900Z 21006KT 9999 SCT030 34/16 Q1007;
0120832880999992011012020004-13267-043417FM-15+0443SBLP V0202101N004112200019N0112651N1+03401+01701999999ADDGA1021+009001999GF102991999999999999999999MA1100611999999REMMET051METAR SBLP 202000Z 21008KT 9999 FEW030 34/17 Q1006;
0120832880999992011012021004-13267-043417FM-15+0443SBLP V0201801N003112200019N0112651N1+03201+01801999999ADDGA1021+009001999GF102991999999999999999999MA1100711999999REMMET051METAR SBLP 202100Z 18006KT 9999 FEW030 32/18 Q1007;
0072832880999992011012110004-13267-043417FM-15+0443SBLP V0209999C000019999999Y0099001N1+02601+02001999999ADDMA1101021999999REMMET045METAR SBLP 211000Z 00000KT CAVOK 26/20 Q1010;
0072832880999992011012111004-13267-043417FM-15+0443SBLP V0200901N003119999999Y0099001N1+02801+01901999999ADDMA1101081999999REMMET045METAR SBLP 211100Z 09006KT CAVOK 28/19 Q1011;
0072832880999992011012112004-13267-043417FM-15+0443SBLP V0201701N001519999999Y0099001N1+03001+01901999999ADDMA1101081999999REMMET045METAR SBLP 211200Z 17003KT CAVOK 30/19 Q1011;
0120832880999992011012113004-13267-043417FM-15+0443SBLP V0201501N002112200019N0112651N1+03201+02101999999ADDGA1021+009001999GF102991999999999999999999MA1101081999999REMMET051METAR SBLP 211300Z 15004KT 9999 FEW030 32/21 Q1011;
0120832880999992011012114004-13267-043417FM-15+0443SBLP V0201201N002112200019N0112651N1+03201+02101999999ADDGA1021+009001999GF102991999999999999999999MA1101081999999REMMET051METAR SBLP 211400Z 12004KT 9999 FEW030 32/21 Q1011;
0120832880999992011012115004-13267-043417FM-15+0443SBLP V0202401N003112200019N0112651N1+03201+01901999999ADDGA1041+009001999GF104991999999999999999999MA1101021999999REMMET051METAR SBLP 211500Z 24006KT 9999 SCT030 32/19 Q1010;
0120832880999992011012116004-13267-043417FM-15+0443SBLP V0202701N003112200019N0112651N1+03301+01901999999ADDGA1041+009001999GF104991999999999999999999MA1100911999999REMMET051METAR SBLP 211600Z 27006KT 9999 SCT030 33/19 Q1009;
0156832880999992011012117004-13267-043417FM-15+0443SBLP V0200901N00621009001CN0060001N1+02901+02101999999ADDGA1071+009001999GA2021+012001091MA1100911999999MW1801MW2951REMMET066METAR SBLP 211700Z 09012KT 6000 -TSRA BKN030 FEW040CB 29/21 Q1009;EQDQ01+000022SCOTCV
0177832880999992011012118004-13267-043417FM-15+0443SBLP V0203601N003112200019N0112651N1+02801+02101999999ADDGA1041+009001999GA2021+012001091GA3041+030001999GF104991999999999999999999MA1100811999999MW1171REMMET070METAR SBLP 211800Z 36006KT 9999 TS SCT030 FEW040CB SCT100 28/21 Q1008;
0177832880999992011012119004-13267-043417FM-15+0443SBLP V0203601N00311012001CN0112651N1+02801+02101999999ADDGA1041+009001999GA2021+012001091GA3071+030001999GF107991999999999999999999MA1100711999999MW1171REMMET070METAR SBLP 211900Z 36006KT 9999 TS SCT030 FEW040CB BKN100 28/21 Q1007;
0186832880999992011012120004-13267-043417FM-15+0443SBLP V0203601N00311012001CN0090001N1+02601+02101999999ADDGA1041+009001999GA2021+012001091GA3071+030001999GF107991999999999999999999MA1100711999999MW1801MW2951REMMET073METAR SBLP 212000Z 36006KT 9000 -TSRA SCT030 FEW040CB BKN100 26/21 Q1007;
0143832880999992011012121004-13267-043417FM-15+0443SBLP V0209999C000010300019N0112651N1+02601+02101999999ADDGA1041+009001999GA2071+030001999GF107991999999999999999999MA1100811999999REMMET058METAR SBLP 212100Z 00000KT 9999 SCT030 BKN100 26/21 Q1008;
0143832880999992011012210004-13267-043417FM-15+0443SBLP V0209999C000010300019N0112651N1+02301+02101999999ADDGA1021+004501999GA2071+030001999GF107991999999999999999999MA1101191999999REMMET058METAR SBLP 221000Z 00000KT 9999 FEW015 BKN100 23/21 Q1012;
0143832880999992011012211004-13267-043417FM-15+0443SBLP V0209999C000010300019N0112651N1+02601+02101999999ADDGA1021+006001999GA2071+030001999GF107991999999999999999999MA1101291999999REMMET058METAR SBLP 221100Z 00000KT 9999 FEW020 BKN100 26/21 Q1013;
0143832880999992011012212004-13267-043417FM-15+0443SBLP V0209999C000010300019N0112651N1+02701+02101999999ADDGA1021+009001999GA2071+030001999GF107991999999999999999999MA1101291999999REMMET058METAR SBLP 221200Z 00000KT 9999 FEW030 BKN100 27/21 Q1013;
0143832880999992011012213004-13267-043417FM-15+0443SBLP V0209999C000012200019N0112651N1+02901+02001999999ADDGA1021+009001999GA2041+030001999GF104991999999999999999999MA1101391999999REMMET058METAR SBLP 221300Z 00000KT 9999 FEW030 SCT100 29/20 Q1014;
0143832880999992011012214004-13267-043417FM-15+0443SBLP V0209999C000012200019N0112651N1+03001+02001999999ADDGA1041+009001999GA2041+030001999GF104991999999999999999999MA1101291999999REMMET058METAR SBLP 221400Z 00000KT 9999 SCT030 SCT100 30/20 Q1013;
0120832880999992011012215004-13267-043417FM-15+0443SBLP V0209999C000012200019N0112651N1+03001+02001999999ADDGA1041+009001999GF104991999999999999999999MA1101291999999REMMET051METAR SBLP 221500Z 00000KT 9999 SCT030 30/20 Q1013;
0143832880999992011012216004-13267-043417FM-15+0443SBLP V0201501N003112200019N0112651N1+03101+01901999999ADDGA1041+009001999GA2041+030001999GF104991999999999999999999MA1101191999999REMMET058METAR SBLP 221600Z 15006KT 9999 SCT030 SCT100 31/19 Q1012;
0143832880999992011012217004-13267-043417FM-15+0443SBLP V0201401N003112200019N0112651N1+03301+01901999999ADDGA1021+009001999GA2041+030001999GF104991999999999999999999MA1101081999999REMMET058METAR SBLP 221700Z 14006KT 9999 FEW030 SCT100 33/19 Q1011;
0153832880999992011012218004-13267-043417FM-15+0443SBLP V0202401N003110300019N0112651N1+03001+02101999999ADDGA1041+009001999GA2071+030001999GF107991999999999999999999MA1101021999999MW1611REMMET062METAR SBLP 221800Z 24006KT 9999 -RA SCT030 BKN100 30/21 Q1010;
0143832880999992011012219004-13267-043417FM-15+0443SBLP V0201801N003112200019N0112651N1+03101+01901999999ADDGA1021+009001999GA2041+030001999GF104991999999999999999999MA1100911999999REMMET058METAR SBLP 221900Z 18006KT 9999 FEW030 SCT100 31/19 Q1009;
0143832880999992011012220004-13267-043417FM-15+0443SBLP V0201501N003112200019N0112651N1+03101+02101999999ADDGA1041+009001999GA2041+030001999GF104991999999999999999999MA1100911999999REMMET058METAR SBLP 222000Z 15006KT 9999 SCT030 SCT100 31/21 Q1009;
0143832880999992011012221004-13267-043417FM-15+0443SBLP V0201201N003110300019N0112651N1+03001+02201999999ADDGA1041+008101999GA2071+030001999GF107991999999999999999999MA1100911999999REMMET058METAR SBLP 222100Z 12006KT 9999 SCT027 BKN100 30/22 Q1009;
0143832880999992011012310004-13267-043417FM-15+0443SBLP V0209999C000010300019N0112651N1+02401+02101999999ADDGA1021+004501999GA2071+030001999GF107991999999999999999999MA1101391999999REMMET058METAR SBLP 231000Z 00000KT 9999 FEW015 BKN100 24/21 Q1014;
0143832880999992011012311004-13267-043417FM-15+0443SBLP V0209999C000010300019N0112651N1+02601+02101999999ADDGA1021+006001999GA2071+030001999GF107991999999999999999999MA1101491999999REMMET058METAR SBLP 231100Z 00000KT 9999 FEW020 BKN100 26/21 Q1015;
0143832880999992011012312004-13267-043417FM-15+0443SBLP V0209999C000010300019N0112651N1+02701+02101999999ADDGA1021+006001999GA2071+030001999GF107991999999999999999999MA1101491999999REMMET058METAR SBLP 231200Z 00000KT 9999 FEW020 BKN100 27/21 Q1015;
0143832880999992011012313004-13267-043417FM-15+0443SBLP V0201801N003112200019N0112651N1+02801+02001999999ADDGA1041+006001999GA2041+030001999GF104991999999999999999999MA1101491999999REMMET058METAR SBLP 231300Z 18006KT 9999 SCT020 SCT100 28/20 Q1015;
0143832880999992011012314004-13267-043417FM-15+0443SBLP V0200901N003112200019N0112651N1+02901+02001999999ADDGA1041+009001999GA2041+030001999GF104991999999999999999999MA1101491999999REMMET058METAR SBLP 231400Z 09006KT 9999 SCT030 SCT100 29/20 Q1015;
0143832880999992011012315004-13267-043417FM-15+0443SBLP V0200901N003112200019N0112651N1+03001+02001999999ADDGA1041+009001999GA2041+030001999GF104991999999999999999999MA1101391999999REMMET058METAR SBLP 231500Z 09006KT 9999 SCT030 SCT100 30/20 Q1014;
0143832880999992011012316004-13267-043417FM-15+0443SBLP V0201401N003110300019N0112651N1+03101+02001999999ADDGA1041+009001999GA2071+030001999GF107991999999999999999999MA1101291999999REMMET058METAR SBLP 231600Z 14006KT 9999 SCT030 BKN100 31/20 Q1013;
0143832880999992011012317004-13267-043417FM-15+0443SBLP V0201401N003112200019N0112651N1+03201+01901999999ADDGA1041+009001999GA2041+030001999GF104991999999999999999999MA1101191999999REMMET058METAR SBLP 231700Z 14006KT 9999 SCT030 SCT100 32/19 Q1012;
0143832880999992011012318004-13267-043417FM-15+0443SBLP V0202101N003112200019N0112651N1+03301+02001999999ADDGA1021+009001999GA2041+030001999GF104991999999999999999999MA1101081999999REMMET058METAR SBLP 231800Z 21006KT 9999 FEW030 SCT100 33/20 Q1011;
0143832880999992011012319004-13267-043417FM-15+0443SBLP V0201601N004112200019N0112651N1+03201+01901999999ADDGA1041+009001999GA2041+030001999GF104991999999999999999999MA1101021999999REMMET058METAR SBLP 231900Z 16008KT 9999 SCT030 SCT100 32/19 Q1010;
0143832880999992011012320004-13267-043417FM-15+0443SBLP V0201801N003112200019N0112651N1+03201+02001999999ADDGA1021+009001999GA2041+030001999GF104991999999999999999999MA1101021999999REMMET058METAR SBLP 232000Z 18006KT 9999 FEW030 SCT100 32/20 Q1010;
0143832880999992011012321004-13267-043417FM-15+0443SBLP V0201601N003112200019N0112651N1+03101+02001999999ADDGA1021+009001999GA2041+030001999GF104991999999999999999999MA1101021999999REMMET058METAR SBLP 232100Z 16006KT 9999 FEW030 SCT100 31/20 Q1010;
0072832880999992011012410004-13267-043417FM-15+0443SBLP V0201701N003119999999Y0099001N1+02401+01901999999ADDMA1101391999999REMMET045METAR SBLP 241000Z 17006KT CAVOK 24/19 Q1014;
0072832880999992011012411004-13267-043417FM-15+0443SBLP V0201701N004119999999Y0099001N1+02601+02001999999ADDMA1101391999999REMMET045METAR SBLP 241100Z 17008KT CAVOK 26/20 Q1014;
0120832880999992011012412004-13267-043417FM-15+0443SBLP V0201501N003112200019N0112651N1+02801+01901999999ADDGA1021+009001999GF102991999999999999999999MA1101491999999REMMET051METAR SBLP 241200Z 15006KT 9999 FEW030 28/19 Q1015;
0120832880999992011012413004-13267-043417FM-15+0443SBLP V0201701N001512200019N0112651N1+02901+02001999999ADDGA1021+009001999GF102991999999999999999999MA1101491999999REMMET051METAR SBLP 241300Z 17003KT 9999 FEW030 29/20 Q1015;
0120832880999992011012414004-13267-043417FM-15+0443SBLP V0201501N003112200019N0112651N1+03101+01901999999ADDGA1021+009001999GF102991999999999999999999MA1101391999999REMMET051METAR SBLP 241400Z 15006KT 9999 FEW030 31/19 Q1014;
0120832880999992011012415004-13267-043417FM-15+0443SBLP V0201801N003112200019N0112651N1+03201+02001999999ADDGA1021+009001999GF102991999999999999999999MA1101291999999REMMET051METAR SBLP 241500Z 18006KT 9999 FEW030 32/20 Q1013;
0120832880999992011012416004-13267-043417FM-15+0443SBLP V0202101N003112200019N0112651N1+03201+01901999999ADDGA1021+009001999GF102991999999999999999999MA1101191999999REMMET051METAR SBLP 241600Z 21006KT 9999 FEW030 32/19 Q1012;
0120832880999992011012417004-13267-043417FM-15+0443SBLP V0201201N002112200019N0112651N1+03201+01901999999ADDGA1021+009001999GF102991999999999999999999MA1101081999999REMMET051METAR SBLP 241700Z 12004KT 9999 FEW030 32/19 Q1011;
0120832880999992011012418004-13267-043417FM-15+0443SBLP V0209999C000012200019N0112651N1+03301+01901999999ADDGA1041+009001999GF104991999999999999999999MA1101081999999REMMET051METAR SBLP 241800Z 00000KT 9999 SCT030 33/19 Q1011;
0120832880999992011012419004-13267-043417FM-15+0443SBLP V0201801N003112200019N0112651N1+03101+02001999999ADDGA1021+009001999GF102991999999999999999999MA1101021999999REMMET051METAR SBLP 241900Z 18006KT 9999 FEW030 31/20 Q1010;
0120832880999992011012420004-13267-043417FM-15+0443SBLP V0201501N003112200019N0112651N1+03001+02201999999ADDGA1021+009001999GF102991999999999999999999MA1101021999999REMMET051METAR SBLP 242000Z 15006KT 9999 FEW030 30/22 Q1010;
0120832880999992011012421004-13267-043417FM-15+0443SBLP V0201501N003112200019N0112651N1+02901+02201999999ADDGA1021+009001999GF102991999999999999999999MA1101021999999REMMET051METAR SBLP 242100Z 15006KT 9999 FEW030 29/22 Q1010;
0072832880999992011012510004-13267-043417FM-15+0443SBLP V0201401N002619999999Y0099001N1+02501+02001999999ADDMA1101391999999REMMET045METAR SBLP 251000Z 14005KT CAVOK 25/20 Q1014;
0072832880999992011012511004-13267-043417FM-15+0443SBLP V0200901N004119999999Y0099001N1+02601+01901999999ADDMA1101391999999REMMET045METAR SBLP 251100Z 09008KT CAVOK 26/19 Q1014;
0072832880999992011012512004-13267-043417FM-15+0443SBLP V0201401N002619999999Y0099001N1+02901+02001999999ADDMA1101491999999REMMET045METAR SBLP 251200Z 14005KT CAVOK 29/20 Q1015;
0072832880999992011012513004-13267-043417FM-15+0443SBLP V0201101N004119999999Y0099001N1+03101+01801999999ADDMA1101491999999REMMET045METAR SBLP 251300Z 11008KT CAVOK 31/18 Q1015;
0120832880999992011012514004-13267-043417FM-15+0443SBLP V0201201N003112200019N0112651N1+03201+01901999999ADDGA1041+009001999GF104991999999999999999999MA1101391999999REMMET051METAR SBLP 251400Z 12006KT 9999 SCT030 32/19 Q1014;
0120832880999992011012515004-13267-043417FM-15+0443SBLP V0201201N003112200019N0112651N1+03201+01901999999ADDGA1041+009001999GF104991999999999999999999MA1101391999999REMMET051METAR SBLP 251500Z 12006KT 9999 SCT030 32/19 Q1014;
0120832880999992011012517004-13267-043417FM-15+0443SBLP V0202401N003112200019N0112651N1+03201+02001999999ADDGA1041+009001999GF104991999999999999999999MA1101191999999REMMET051METAR SBLP 251700Z 24006KT 9999 SCT030 32/20 Q1012;
0120832880999992011012518004-13267-043417FM-15+0443SBLP V0209999C000012200019N0112651N1+03301+02001999999ADDGA1041+009001999GF104991999999999999999999MA1101081999999REMMET051METAR SBLP 251800Z 00000KT 9999 SCT030 33/20 Q1011;
0120832880999992011012519004-13267-043417FM-15+0443SBLP V0201801N003112200019N0112651N1+03301+02001999999ADDGA1041+009001999GF104991999999999999999999MA1101021999999REMMET051METAR SBLP 251900Z 18006KT 9999 SCT030 33/20 Q1010;
0120832880999992011012520004-13267-043417FM-15+0443SBLP V0202101N003112200019N0112651N1+03201+02001999999ADDGA1041+009001999GF104991999999999999999999MA1101021999999REMMET051METAR SBLP 252000Z 21006KT 9999 SCT030 32/20 Q1010;
0120832880999992011012521004-13267-043417FM-15+0443SBLP V0202101N003112200019N0112651N1+03001+02101999999ADDGA1041+009001999GF104991999999999999999999MA1101021999999REMMET051METAR SBLP 252100Z 21006KT 9999 SCT030 30/21 Q1010;
0143832880999992011012610004-13267-043417FM-15+0443SBLP V0209999C000010300019N0112651N1+02301+02101999999ADDGA1021+006001999GA2071+030001999GF107991999999999999999999MA1101391999999REMMET058METAR SBLP 261000Z 00000KT 9999 FEW020 BKN100 23/21 Q1014;
0143832880999992011012611004-13267-043417FM-15+0443SBLP V0209999C000010300019N0112651N1+02501+02201999999ADDGA1041+006001999GA2071+030001999GF107991999999999999999999MA1101491999999REMMET058METAR SBLP 261100Z 00000KT 9999 SCT020 BKN100 25/22 Q1015;
0143832880999992011012613004-13267-043417FM-15+0443SBLP V0200301N003112200019N0112651N1+02801+02001999999ADDGA1021+009001999GA2041+030001999GF104991999999999999999999MA1101591999999REMMET058METAR SBLP 261300Z 03006KT 9999 FEW030 SCT100 28/20 Q1016;
0120832880999992011012614004-13267-043417FM-15+0443SBLP V0209999C000012200019N0112651N1+03001+02001999999ADDGA1041+009001999GF104991999999999999999999MA1101491999999REMMET051METAR SBLP 261400Z 00000KT 9999 SCT030 30/20 Q1015;
0120832880999992011012615004-13267-043417FM-15+0443SBLP V0203601N003112200019N0112651N1+03201+01901999999ADDGA1041+009001999GF104991999999999999999999MA1101391999999REMMET051METAR SBLP 261500Z 36006KT 9999 SCT030 32/19 Q1014;
0120832880999992011012616004-13267-043417FM-15+0443SBLP V0200301N002112200019N0112651N1+03201+01901999999ADDGA1041+009001999GF104991999999999999999999MA1101391999999REMMET051METAR SBLP 261600Z 03004KT 9999 SCT030 32/19 Q1014;
0120832880999992011012617004-13267-043417FM-15+0443SBLP V0203001N001012200019N0112651N1+03301+01801999999ADDGA1041+009001999GF104991999999999999999999MA1101291999999REMMET051METAR SBLP 261700Z 30002KT 9999 SCT030 33/18 Q1013;
0120832880999992011012618004-13267-043417FM-15+0443SBLP V0201801N002112200019N0112651N1+03401+01801999999ADDGA1041+009001999GF104991999999999999999999MA1101081999999REMMET051METAR SBLP 261800Z 18004KT 9999 SCT030 34/18 Q1011;
0120832880999992011012619004-13267-043417FM-15+0443SBLP V0202401N002112200019N0112651N1+03301+01801999999ADDGA1021+009001999GF102991999999999999999999MA1101081999999REMMET051METAR SBLP 261900Z 24004KT 9999 FEW030 33/18 Q1011;
0120832880999992011012620004-13267-043417FM-15+0443SBLP V0202001N003112200019N0112651N1+03401+01801999999ADDGA1021+009001999GF102991999999999999999999MA1101021999999REMMET051METAR SBLP 262000Z 20006KT 9999 FEW030 34/18 Q1010;
0146832880999992011012621004-13267-043417FM-15+0443SBLP V0201801N003112200019N0112651N1+03201+01901999999ADDGA1021+009001999GA2021+009001021GF102991999999999999999999MA1101081999999REMMET061METAR SBLP 262100Z 18006KT 9999 FEW030 FEW030TCU 32/19 Q1011;
0072832880999992011012710004-13267-043417FM-15+0443SBLP V0209999C000019999999Y0099001N1+02501+02001999999ADDMA1101391999999REMMET045METAR SBLP 271000Z 00000KT CAVOK 25/20 Q1014;
0072832880999992011012711004-13267-043417FM-15+0443SBLP V0203601N002119999999Y0099001N1+02801+02001999999ADDMA1101491999999REMMET045METAR SBLP 271100Z 36004KT CAVOK 28/20 Q1015;
0072832880999992011012712004-13267-043417FM-15+0443SBLP V0200901N001519999999Y0099001N1+02901+02001999999ADDMA1101491999999REMMET045METAR SBLP 271200Z 09003KT CAVOK 29/20 Q1015;
0120832880999992011012713004-13267-043417FM-15+0443SBLP V0201201N003112200019N0112651N1+03101+02001999999ADDGA1021+009001999GF102991999999999999999999MA1101491999999REMMET051METAR SBLP 271300Z 12006KT 9999 FEW030 31/20 Q1015;
0120832880999992011012714004-13267-043417FM-15+0443SBLP V0200701N001512200019N0112651N1+03201+02001999999ADDGA1021+009001999GF102991999999999999999999MA1101491999999REMMET051METAR SBLP 271400Z 07003KT 9999 FEW030 32/20 Q1015;
0120832880999992011012715004-13267-043417FM-15+0443SBLP V0200601N002112200019N0112651N1+03301+01801999999ADDGA1021+009001999GF102991999999999999999999MA1101391999999REMMET051METAR SBLP 271500Z 06004KT 9999 FEW030 33/18 Q1014;
0120832880999992011012716004-13267-043417FM-15+0443SBLP V0200901N003112200019N0112651N1+03301+01801999999ADDGA1041+009001999GF104991999999999999999999MA1101191999999REMMET051METAR SBLP 271600Z 09006KT 9999 SCT030 33/18 Q1012;
0120832880999992011012717004-13267-043417FM-15+0443SBLP V0200901N003112200019N0112651N1+03501+01801999999ADDGA1041+009001999GF104991999999999999999999MA1101081999999REMMET051METAR SBLP 271700Z 09006KT 9999 SCT030 35/18 Q1011;
0120832880999992011012718004-13267-043417FM-15+0443SBLP V0200901N003112200019N0112651N1+03601+01801999999ADDGA1041+009001999GF104991999999999999999999MA1101021999999REMMET051METAR SBLP 271800Z 09006KT 9999 SCT030 36/18 Q1010;
0120832880999992011012719004-13267-043417FM-15+0443SBLP V0200901N003112200019N0112651N1+03601+01801999999ADDGA1041+009001999GF104991999999999999999999MA1101021999999REMMET051METAR SBLP 271900Z 09006KT 9999 SCT030 36/18 Q1010;
0147832880999992011012720004-13267-043417FM-15+0443SBLP V0200901N006212200019N0112651N1+03301+01901999999ADDGA1041+009001999GA2021+012001091MA1101021999999MW1171REMMET063METAR SBLP 272000Z 09012KT 9999 TS SCT030 FEW040CB 33/19 Q1010;EQDQ01+000022SCOTCV
0177832880999992011012721004-13267-043417FM-15+0443SBLP V0200901N006212200019N0112651N1+02901+02101999999ADDGA1041+009001999GA2021+012001091GA3041+030001999GF104991999999999999999999MA1101021999999MW1171REMMET070METAR SBLP 272100Z 09012KT 9999 TS SCT030 FEW040CB SCT100 29/21 Q1010;
0072832880999992011012810004-13267-043417FM-15+0443SBLP V0201201N001519999999Y0099001N1+02501+02001999999ADDMA1101391999999REMMET045METAR SBLP 281000Z 12003KT CAVOK 25/20 Q1014;
0072832880999992011012811004-13267-043417FM-15+0443SBLP V0201201N001519999999Y0099001N1+02701+02101999999ADDMA1101491999999REMMET045METAR SBLP 281100Z 12003KT CAVOK 27/21 Q1015;
0120832880999992011012812004-13267-043417FM-15+0443SBLP V0200601N003112200019N0112651N1+02901+02001999999ADDGA1021+009001999GF102991999999999999999999MA1101491999999REMMET051METAR SBLP 281200Z 06006KT 9999 FEW030 29/20 Q1015;
0120832880999992011012813004-13267-043417FM-15+0443SBLP V0200401N003112200019N0112651N1+03001+02001999999ADDGA1021+009001999GF102991999999999999999999MA1101491999999REMMET051METAR SBLP 281300Z 04006KT 9999 FEW030 30/20 Q1015;
0120832880999992011012814004-13267-043417FM-15+0443SBLP V0209999C000012200019N0112651N1+03201+02001999999ADDGA1021+009001999GF102991999999999999999999MA1101391999999REMMET051METAR SBLP 281400Z 00000KT 9999 FEW030 32/20 Q1014;
0120832880999992011012815004-13267-043417FM-15+0443SBLP V0200901N003112200019N0112651N1+03401+02001999999ADDGA1021+009001999GF102991999999999999999999MA1101391999999REMMET051METAR SBLP 281500Z 09006KT 9999 FEW030 34/20 Q1014;
0120832880999992011012816004-13267-043417FM-15+0443SBLP V0200901N003112200019N0112651N1+03401+02001999999ADDGA1041+009001999GF104991999999999999999999MA1101291999999REMMET051METAR SBLP 281600Z 09006KT 9999 SCT030 34/20 Q1013;
0120832880999992011012817004-13267-043417FM-15+0443SBLP V0200901N006212200019N0112651N1+03601+01801999999ADDGA1041+009001999GF104991999999999999999999MA1101191999999REMMET051METAR SBLP 281700Z 09012KT 9999 SCT030 36/18 Q1012;
0120832880999992011012818004-13267-043417FM-15+0443SBLP V0200901N006212200019N0112651N1+03601+01801999999ADDGA1041+009001999GF104991999999999999999999MA1101081999999REMMET051METAR SBLP 281800Z 09012KT 9999 SCT030 36/18 Q1011;
0147832880999992011012819004-13267-043417FM-15+0443SBLP V0200901N006212200019N0112651N1+03401+01901999999ADDGA1041+009001999GA2021+012001091MA1101081999999MW1171REMMET063METAR SBLP 281900Z 09012KT 9999 TS SCT030 FEW040CB 34/19 Q1011;EQDQ01+000022SCOTCV
0143832880999992011012820004-13267-043417FM-15+0443SBLP V0200901N003112200019N0112651N1+03101+02001999999ADDGA1041+009001999GA2041+030001999GF104991999999999999999999MA1101081999999REMMET058METAR SBLP 282000Z 09006KT 9999 SCT030 SCT100 31/20 Q1011;
0143832880999992011012821004-13267-043417FM-15+0443SBLP V0209999C000010300019N0112651N1+02801+02101999999ADDGA1041+009001999GA2071+030001999GF107991999999999999999999MA1101081999999REMMET058METAR SBLP 282100Z 00000KT 9999 SCT030 BKN100 28/21 Q1011;
0072832880999992011012909154-13267-043417FM-15+0443SBLP V0209999C000019999999Y0099001N1+02301+02001999999ADDMA1101591999999REMMET045METAR SBLP 290915Z 00000KT CAVOK 23/20 Q1016;
0072832880999992011012911004-13267-043417FM-15+0443SBLP V0209999C000019999999Y0099001N1+02701+02001999999ADDMA1101691999999REMMET045METAR SBLP 291100Z 00000KT CAVOK 27/20 Q1017;
0143832880999992011012912004-13267-043417FM-15+0443SBLP V0200901N003110300019N0112651N1+02701+02001999999ADDGA1021+006001999GA2071+030001999GF107991999999999999999999MA1101691999999REMMET058METAR SBLP 291200Z 09006KT 9999 FEW020 BKN100 27/20 Q1017;
0143832880999992011012913004-13267-043417FM-15+0443SBLP V0200901N003110300019N0112651N1+02901+02001999999ADDGA1021+006001999GA2071+030001999GF107991999999999999999999MA1101691999999REMMET058METAR SBLP 291300Z 09006KT 9999 FEW020 BKN100 29/20 Q1017;
0143832880999992011012914004-13267-043417FM-15+0443SBLP V0200901N003112200019N0112651N1+03001+01901999999ADDGA1021+009001999GA2041+030001999GF104991999999999999999999MA1101691999999REMMET058METAR SBLP 291400Z 09006KT 9999 FEW030 SCT100 30/19 Q1017;
0143832880999992011012915004-13267-043417FM-15+0443SBLP V0200901N003112200019N0112651N1+03101+01901999999ADDGA1041+009001999GA2041+030001999GF104991999999999999999999MA1101591999999REMMET058METAR SBLP 291500Z 09006KT 9999 SCT030 SCT100 31/19 Q1016;
0120832880999992011012916004-13267-043417FM-15+0443SBLP V0202101N003112200019N0112651N1+03201+01901999999ADDGA1041+009001999GF104991999999999999999999MA1101491999999REMMET051METAR SBLP 291600Z 21006KT 9999 SCT030 32/19 Q1015;
0120832880999992011012917004-13267-043417FM-15+0443SBLP V0202401N003112200019N0112651N1+03401+01801999999ADDGA1041+009001999GF104991999999999999999999MA1101391999999REMMET051METAR SBLP 291700Z 24006KT 9999 SCT030 34/18 Q1014;
0120832880999992011012918004-13267-043417FM-15+0443SBLP V0201801N003112200019N0112651N1+03501+01801999999ADDGA1041+009001999GF104991999999999999999999MA1101291999999REMMET051METAR SBLP 291800Z 18006KT 9999 SCT030 35/18 Q1013;
0120832880999992011012919004-13267-043417FM-15+0443SBLP V0201801N003112200019N0112651N1+03501+01901999999ADDGA1021+009001999GF102991999999999999999999MA1101291999999REMMET051METAR SBLP 291900Z 18006KT 9999 FEW030 35/19 Q1013;
0120832880999992011012920004-13267-043417FM-15+0443SBLP V0201801N003112200019N0112651N1+03401+02001999999ADDGA1021+009001999GF102991999999999999999999MA1101191999999REMMET051METAR SBLP 292000Z 18006KT 9999 FEW030 34/20 Q1012;
0120832880999992011012921004-13267-043417FM-15+0443SBLP V0201801N003112200019N0112651N1+03101+02101999999ADDGA1021+009001999GF102991999999999999999999MA1101191999999REMMET051METAR SBLP 292100Z 18006KT 9999 FEW030 31/21 Q1012;
0072832880999992011013010004-13267-043417FM-15+0443SBLP V0201801N001519999999Y0099001N1+02301+01901999999ADDMA1101491999999REMMET045METAR SBLP 301000Z 18003KT CAVOK 23/19 Q1015;
0072832880999992011013011004-13267-043417FM-15+0443SBLP V0209999C000019999999Y0099001N1+02801+01801999999ADDMA1101591999999REMMET045METAR SBLP 301100Z 00000KT CAVOK 28/18 Q1016;
0072832880999992011013012004-13267-043417FM-15+0443SBLP V0209999C000019999999Y0099001N1+03001+01801999999ADDMA1101691999999REMMET045METAR SBLP 301200Z 00000KT CAVOK 30/18 Q1017;
0072832880999992011013013004-13267-043417FM-15+0443SBLP V0202401N002119999999Y0099001N1+03101+01901999999ADDMA1101691999999REMMET045METAR SBLP 301300Z 24004KT CAVOK 31/19 Q1017;
0120832880999992011013014004-13267-043417FM-15+0443SBLP V0201201N003112200019N0112651N1+03201+01901999999ADDGA1021+009001999GF102991999999999999999999MA1101691999999REMMET051METAR SBLP 301400Z 12006KT 9999 FEW030 32/19 Q1017;
0120832880999992011013015004-13267-043417FM-15+0443SBLP V0201201N003112200019N0112651N1+03301+01701999999ADDGA1021+009001999GF102991999999999999999999MA1101591999999REMMET051METAR SBLP 301500Z 12006KT 9999 FEW030 33/17 Q1016;
0120832880999992011013016004-13267-043417FM-15+0443SBLP V0201801N003112200019N0112651N1+03401+01701999999ADDGA1041+009001999GF104991999999999999999999MA1101491999999REMMET051METAR SBLP 301600Z 18006KT 9999 SCT030 34/17 Q1015;
0120832880999992011013017004-13267-043417FM-15+0443SBLP V0202101N003112200019N0112651N1+03501+01701999999ADDGA1041+009001999GF104991999999999999999999MA1101291999999REMMET051METAR SBLP 301700Z 21006KT 9999 SCT030 35/17 Q1013;
0120832880999992011013018004-13267-043417FM-15+0443SBLP V0202401N003112200019N0112651N1+03501+01801999999ADDGA1041+009001999GF104991999999999999999999MA1101291999999REMMET051METAR SBLP 301800Z 24006KT 9999 SCT030 35/18 Q1013;
0120832880999992011013019004-13267-043417FM-15+0443SBLP V0202101N003112200019N0112651N1+03601+01801999999ADDGA1021+009001999GF102991999999999999999999MA1101191999999REMMET051METAR SBLP 301900Z 21006KT 9999 FEW030 36/18 Q1012;
0120832880999992011013020004-13267-043417FM-15+0443SBLP V0201801N003112200019N0112651N1+03501+01701999999ADDGA1021+009001999GF102991999999999999999999MA1101081999999REMMET051METAR SBLP 302000Z 18006KT 9999 FEW030 35/17 Q1011;
0120832880999992011013021004-13267-043417FM-15+0443SBLP V0209999C000012200019N0112651N1+03301+01901999999ADDGA1021+009001999GF102991999999999999999999MA1101081999999REMMET051METAR SBLP 302100Z 00000KT 9999 FEW030 33/19 Q1011;
0072832880999992011013110004-13267-043417FM-15+0443SBLP V0209999C000019999999Y0099001N1+02201+02001999999ADDMA1101391999999REMMET045METAR SBLP 311000Z 00000KT CAVOK 22/20 Q1014;
0072832880999992011013111004-13267-043417FM-15+0443SBLP V0209999C000019999999Y0099001N1+02801+02101999999ADDMA1101491999999REMMET045METAR SBLP 311100Z 00000KT CAVOK 28/21 Q1015;
0072832880999992011013112004-13267-043417FM-15+0443SBLP V0201201N003119999999Y0099001N1+03101+01901999999ADDMA1101491999999REMMET045METAR SBLP 311200Z 12006KT CAVOK 31/19 Q1015;
0072832880999992011013113004-13267-043417FM-15+0443SBLP V0200401N003119999999Y0099001N1+03201+01901999999ADDMA1101491999999REMMET045METAR SBLP 311300Z 04006KT CAVOK 32/19 Q1015;
0143832880999992011013114004-13267-043417FM-15+0443SBLP V0203001N003112200019N0112651N1+03301+01901999999ADDGA1021+009001999GA2041+030001999GF104991999999999999999999MA1101491999999REMMET058METAR SBLP 311400Z 30006KT 9999 FEW030 SCT100 33/19 Q1015;
0120832880999992011013115004-13267-043417FM-15+0443SBLP V0200901N003112200019N0112651N1+03401+01801999999ADDGA1041+009001999GF104991999999999999999999MA1101391999999REMMET051METAR SBLP 311500Z 09006KT 9999 SCT030 34/18 Q1014;
0120832880999992011013116004-13267-043417FM-15+0443SBLP V0202101N002112200019N0112651N1+03501+01601999999ADDGA1041+009001999GF104991999999999999999999MA1101291999999REMMET051METAR SBLP 311600Z 21004KT 9999 SCT030 35/16 Q1013;
0120832880999992011013117004-13267-043417FM-15+0443SBLP V0203001N002112200019N0112651N1+03601+01701999999ADDGA1041+009001999GF104991999999999999999999MA1101191999999REMMET051METAR SBLP 311700Z 30004KT 9999 SCT030 36/17 Q1012;
0120832880999992011013118004-13267-043417FM-15+0443SBLP V0203001N001512200019N0112651N1+03601+01701999999ADDGA1041+009001999GF104991999999999999999999MA1101081999999REMMET051METAR SBLP 311800Z 30003KT 9999 SCT030 36/17 Q1011;
0120832880999992011013119004-13267-043417FM-15+0443SBLP V0202401N002112200019N0112651N1+03701+01701999999ADDGA1021+009001999GF102991999999999999999999MA1101021999999REMMET051METAR SBLP 311900Z 24004KT 9999 FEW030 37/17 Q1010;
0120832880999992011013120004-13267-043417FM-15+0443SBLP V0201801N002112200019N0112651N1+03501+01701999999ADDGA1021+009001999GF102991999999999999999999MA1101021999999REMMET051METAR SBLP 312000Z 18004KT 9999 FEW030 35/17 Q1010;
0072832880999992011013121004-13267-043417FM-15+0443SBLP V0201801N002119999999Y0099001N1+03401+01801999999ADDMA1101021999999REMMET045METAR SBLP 312100Z 18004KT CAVOK 34/18 Q1010;
0143832880999992011020110004-13267-043417FM-15+0443SBLP V0209999C000010300019N0112651N1+02401+01901999999ADDGA1021+006001999GA2071+030001999GF107991999999999999999999MA1101491999999REMMET058METAR SBLP 011000Z 00000KT 9999 FEW020 BKN100 24/19 Q1015;
0143832880999992011020111004-13267-043417FM-15+0443SBLP V0209999C000012200019N0112651N1+02701+01901999999ADDGA1021+009001999GA2041+030001999GF104991999999999999999999MA1101491999999REMMET058METAR SBLP 011100Z 00000KT 9999 FEW030 SCT100 27/19 Q1015;
0143832880999992011020112004-13267-043417FM-15+0443SBLP V0200901N003112200019N0112651N1+03001+01801999999ADDGA1021+009001999GA2041+030001999GF104991999999999999999999MA1101491999999REMMET058METAR SBLP 011200Z 09006KT 9999 FEW030 SCT100 30/18 Q1015;
0120832880999992011020113004-13267-043417FM-15+0443SBLP V0200901N003112200019N0112651N1+03201+01801999999ADDGA1021+009001999GF102991999999999999999999MA1101491999999REMMET051METAR SBLP 011300Z 09006KT 9999 FEW030 32/18 Q1015;
0120832880999992011020114004-13267-043417FM-15+0443SBLP V0200901N003112200019N0112651N1+03301+01801999999ADDGA1041+009001999GF104991999999999999999999MA1101391999999REMMET051METAR SBLP 011400Z 09006KT 9999 SCT030 33/18 Q1014;
0120832880999992011020115004-13267-043417FM-15+0443SBLP V0200901N003112200019N0112651N1+03501+01801999999ADDGA1041+009001999GF104991999999999999999999MA1101291999999REMMET051METAR SBLP 011500Z 09006KT 9999 SCT030 35/18 Q1013;
0120832880999992011020116004-13267-043417FM-15+0443SBLP V0200901N002112200019N0112651N1+03601+01701999999ADDGA1041+009001999GF104991999999999999999999MA1101291999999REMMET051METAR SBLP 011600Z 09004KT 9999 SCT030 36/17 Q1013;
0120832880999992011020117004-13267-043417FM-15+0443SBLP V0202101N001512200019N0112651N1+03601+01601999999ADDGA1041+009001999GF104991999999999999999999MA1101081999999REMMET051METAR SBLP 011700Z 21003KT 9999 SCT030 36/16 Q1011;
0120832880999992011020118004-13267-043417FM-15+0443SBLP V0201801N003112200019N0112651N1+03701+01501999999ADDGA1041+009001999GF104991999999999999999999MA1101021999999REMMET051METAR SBLP 011800Z 18006KT 9999 SCT030 37/15 Q1010;
0120832880999992011020119004-13267-043417FM-15+0443SBLP V0201701N001512200019N0112651N1+03701+01501999999ADDGA1021+009001999GF102991999999999999999999MA1100911999999REMMET051METAR SBLP 011900Z 17003KT 9999 FEW030 37/15 Q1009;
0120832880999992011020120004-13267-043417FM-15+0443SBLP V0202201N003112200019N0112651N1+03701+01701999999ADDGA1021+009001999GF102991999999999999999999MA1100911999999REMMET051METAR SBLP 012000Z 22006KT 9999 FEW030 37/17 Q1009;
0120832880999992011020121004-13267-043417FM-15+0443SBLP V0202001N001512200019N0112651N1+03501+01701999999ADDGA1021+009001999GF102991999999999999999999MA1100911999999REMMET051METAR SBLP 012100Z 20003KT 9999 FEW030 35/17 Q1009;
0143832880999992011020210004-13267-043417FM-15+0443SBLP V0200301N002112200019N0112651N1+02601+02201999999ADDGA1021+009001999GA2041+030001999GF104991999999999999999999MA1101391999999REMMET058METAR SBLP 021000Z 03004KT 9999 FEW030 SCT100 26/22 Q1014;
0143832880999992011020211004-13267-043417FM-15+0443SBLP V0203301N002112200019N0112651N1+02801+02201999999ADDGA1021+009001999GA2041+030001999GF104991999999999999999999MA1101491999999REMMET058METAR SBLP 021100Z 33004KT 9999 FEW030 SCT100 28/22 Q1015;
0120832880999992011020212004-13267-043417FM-15+0443SBLP V0203601N002112200019N0112651N1+02801+02201999999ADDGA1041+009001999GF104991999999999999999999MA1101591999999REMMET051METAR SBLP 021200Z 36004KT 9999 SCT030 28/22 Q1016;
0120832880999992011020213004-13267-043417FM-15+0443SBLP V0203301N003110090019N0112651N1+02901+02201999999ADDGA1071+009001999GF107991999999999999999999MA1101591999999REMMET051METAR SBLP 021300Z 33006KT 9999 BKN030 29/22 Q1016;
0120832880999992011020214004-13267-043417FM-15+0443SBLP V0203601N004112200019N0112651N1+03101+02101999999ADDGA1041+009001999GF104991999999999999999999MA1101591999999REMMET051METAR SBLP 021400Z 36008KT 9999 SCT030 31/21 Q1016;
0120832880999992011020215004-13267-043417FM-15+0443SBLP V0203301N002612200019N0112651N1+03101+02001999999ADDGA1041+009001999GF104991999999999999999999MA1101491999999REMMET051METAR SBLP 021500Z 33005KT 9999 SCT030 31/20 Q1015;
0120832880999992011020216004-13267-043417FM-15+0443SBLP V0202701N003112200019N0112651N1+03301+02001999999ADDGA1041+009001999GF104991999999999999999999MA1101291999999REMMET051METAR SBLP 021600Z 27006KT 9999 SCT030 33/20 Q1013;
0120832880999992011020217004-13267-043417FM-15+0443SBLP V0202701N003112200019N0112651N1+03401+01901999999ADDGA1041+009001999GF104991999999999999999999MA1101191999999REMMET051METAR SBLP 021700Z 27006KT 9999 SCT030 34/19 Q1012;
0120832880999992011020218004-13267-043417FM-15+0443SBLP V0202701N003112200019N0112651N1+03601+01901999999ADDGA1041+009001999GF104991999999999999999999MA1101081999999REMMET051METAR SBLP 021800Z 27006KT 9999 SCT030 36/19 Q1011;
0120832880999992011020219004-13267-043417FM-15+0443SBLP V0202701N003112200019N0112651N1+03601+01901999999ADDGA1041+009001999GF104991999999999999999999MA1101081999999REMMET051METAR SBLP 021900Z 27006KT 9999 SCT030 36/19 Q1011;
0120832880999992011020220004-13267-043417FM-15+0443SBLP V0203601N003112200019N0112651N1+03401+01901999999ADDGA1041+009001999GF104991999999999999999999MA1101081999999REMMET051METAR SBLP 022000Z 36006KT 9999 SCT030 34/19 Q1011;
0120832880999992011020221004-13267-043417FM-15+0443SBLP V0203601N003112200019N0112651N1+03201+01901999999ADDGA1041+009001999GF104991999999999999999999MA1101081999999REMMET051METAR SBLP 022100Z 36006KT 9999 SCT030 32/19 Q1011;
0153832880999992011020310004-13267-043417FM-15+0443SBLP V0203601N002610300019N0112651N1+02401+02301999999ADDGA1041+006001999GA2071+030001999GF107991999999999999999999MA1101391999999MW1611REMMET062METAR SBLP 031000Z 36005KT 9999 -RA SCT020 BKN100 24/23 Q1014;
0143832880999992011020311004-13267-043417FM-15+0443SBLP V0203501N003110300019N0112651N1+02501+02201999999ADDGA1021+006001999GA2071+030001999GF107991999999999999999999MA1101491999999REMMET058METAR SBLP 031100Z 35006KT 9999 FEW020 BKN100 25/22 Q1015;
0143832880999992011020312004-13267-043417FM-15+0443SBLP V0203301N002112200019N0112651N1+02701+02201999999ADDGA1021+009001999GA2041+030001999GF104991999999999999999999MA1101491999999REMMET058METAR SBLP 031200Z 33004KT 9999 FEW030 SCT100 27/22 Q1015;
0143832880999992011020313004-13267-043417FM-15+0443SBLP V0203001N002112200019N0112651N1+02901+02201999999ADDGA1021+009001999GA2041+030001999GF104991999999999999999999MA1101491999999REMMET058METAR SBLP 031300Z 30004KT 9999 FEW030 SCT100 29/22 Q1015;
0120832880999992011020315004-13267-043417FM-15+0443SBLP V0202901N002610090019N0112651N1+03001+02101999999ADDGA1071+009001999GF107991999999999999999999MA1101391999999REMMET051METAR SBLP 031500Z 29005KT 9999 BKN030 30/21 Q1014;
0120832880999992011020316004-13267-043417FM-15+0443SBLP V0203001N003112200019N0112651N1+03101+02101999999ADDGA1041+009001999GF104991999999999999999999MA1101291999999REMMET051METAR SBLP 031600Z 30006KT 9999 SCT030 31/21 Q1013;
0120832880999992011020317004-13267-043417FM-15+0443SBLP V0203001N003112200019N0112651N1+03301+02001999999ADDGA1041+009001999GF104991999999999999999999MA1101191999999REMMET051METAR SBLP 031700Z 30006KT 9999 SCT030 33/20 Q1012;
0120832880999992011020318004-13267-043417FM-15+0443SBLP V0209999C000012200019N0112651N1+03401+02001999999ADDGA1041+009001999GF104991999999999999999999MA1101081999999REMMET051METAR SBLP 031800Z 00000KT 9999 SCT030 34/20 Q1011;
0143832880999992011020319004-13267-043417FM-15+0443SBLP V0209999C000012200019N0112651N1+03101+02101999999ADDGA1041+009001999GA2041+030001999GF104991999999999999999999MA1101021999999REMMET058METAR SBLP 031900Z 00000KT 9999 SCT030 SCT100 31/21 Q1010;
0143832880999992011020320004-13267-043417FM-15+0443SBLP V0202101N003110300019N0112651N1+02901+02301999999ADDGA1041+009001999GA2071+030001999GF107991999999999999999999MA1101021999999REMMET058METAR SBLP 032000Z 21006KT 9999 SCT030 BKN100 29/23 Q1010;
0143832880999992011020321004-13267-043417FM-15+0443SBLP V0203601N003112200019N0112651N1+02701+02301999999ADDGA1021+009001999GA2041+030001999GF104991999999999999999999MA1101021999999REMMET058METAR SBLP 032100Z 36006KT 9999 FEW030 SCT100 27/23 Q1010;
0072832880999992011020410004-13267-043417FM-15+0443SBLP V0209999C000019999999Y0099001N1+02301+02101999999ADDMA1101291999999REMMET045METAR SBLP 041000Z 00000KT CAVOK 23/21 Q1013;
0072832880999992011020411004-13267-043417FM-15+0443SBLP V0209999C000019999999Y0099001N1+02701+02001999999ADDMA1101291999999REMMET045METAR SBLP 041100Z 00000KT CAVOK 27/20 Q1013;
0072832880999992011020412004-13267-043417FM-15+0443SBLP V0201201N003119999999Y0099001N1+03001+01801999999ADDMA1101391999999REMMET045METAR SBLP 041200Z 12006KT CAVOK 30/18 Q1014;
0120832880999992011020413004-13267-043417FM-15+0443SBLP V0200401N003112200019N0112651N1+03101+01801999999ADDGA1021+009001999GF102991999999999999999999MA1101391999999REMMET051METAR SBLP 041300Z 04006KT 9999 FEW030 31/18 Q1014;
0120832880999992011020414004-13267-043417FM-15+0443SBLP V0201201N003112200019N0112651N1+03201+01901999999ADDGA1021+009001999GF102991999999999999999999MA1101291999999REMMET051METAR SBLP 041400Z 12006KT 9999 FEW030 32/19 Q1013;
0120832880999992011020415004-13267-043417FM-15+0443SBLP V0200901N003112200019N0112651N1+03301+01801999999ADDGA1041+009001999GF104991999999999999999999MA1101291999999REMMET051METAR SBLP 041500Z 09006KT 9999 SCT030 33/18 Q1013;
0120832880999992011020416004-13267-043417FM-15+0443SBLP V0202401N004112200019N0112651N1+03301+01901999999ADDGA1041+009001999GF104991999999999999999999MA1101081999999REMMET051METAR SBLP 041600Z 24008KT 9999 SCT030 33/19 Q1011;
0120832880999992011020417004-13267-043417FM-15+0443SBLP V0201601N002112200019N0112651N1+03501+01801999999ADDGA1041+009001999GF104991999999999999999999MA1101021999999REMMET051METAR SBLP 041700Z 16004KT 9999 SCT030 35/18 Q1010;
0120832880999992011020418004-13267-043417FM-15+0443SBLP V0201801N005112200019N0112651N1+03601+01601999999ADDGA1041+009001999GF104991999999999999999999MA1100911999999REMMET051METAR SBLP 041800Z 18010KT 9999 SCT030 36/16 Q1009;
0120832880999992011020419004-13267-043417FM-15+0443SBLP V0201201N003112200019N0112651N1+03601+01601999999ADDGA1041+009001999GF104991999999999999999999MA1100811999999REMMET051METAR SBLP 041900Z 12006KT 9999 SCT030 36/16 Q1008;
0120832880999992011020420004-13267-043417FM-15+0443SBLP V0201801N004112200019N0112651N1+03601+01701999999ADDGA1041+009001999GF104991999999999999999999MA1100711999999REMMET051METAR SBLP 042000Z 18008KT 9999 SCT030 36/17 Q1007;
0120832880999992011020421004-13267-043417FM-15+0443SBLP V0201501N004112200019N0112651N1+03401+01601999999ADDGA1021+009001999GF102991999999999999999999MA1100711999999REMMET051METAR SBLP 042100Z 15008KT 9999 FEW030 34/16 Q1007;
0072832880999992011020510004-13267-043417FM-15+0443SBLP V0209999C000019999999Y0099001N1+02501+01801999999ADDMA1101191999999REMMET045METAR SBLP 051000Z 00000KT CAVOK 25/18 Q1012;
0072832880999992011020511004-13267-043417FM-15+0443SBLP V0209999C000019999999Y0099001N1+02701+01801999999ADDMA1101291999999REMMET045METAR SBLP 051100Z 00000KT CAVOK 27/18 Q1013;
0072832880999992011020512004-13267-043417FM-15+0443SBLP V0200901N003119999999Y0099001N1+03001+01801999999ADDMA1101291999999REMMET045METAR SBLP 051200Z 09006KT CAVOK 30/18 Q1013;
0120832880999992011020513004-13267-043417FM-15+0443SBLP V0200901N003112200019N0112651N1+03201+01801999999ADDGA1021+009001999GF102991999999999999999999MA1101291999999REMMET051METAR SBLP 051300Z 09006KT 9999 FEW030 32/18 Q1013;
0120832880999992011020514004-13267-043417FM-15+0443SBLP V0200901N003112200019N0112651N1+03201+01801999999ADDGA1021+009001999GF102991999999999999999999MA1101291999999REMMET051METAR SBLP 051400Z 09006KT 9999 FEW030 32/18 Q1013;
0120832880999992011020515004-13267-043417FM-15+0443SBLP V0203601N003112200019N0112651N1+03301+01801999999ADDGA1041+009001999GF104991999999999999999999MA1101291999999REMMET051METAR SBLP 051500Z 36006KT 9999 SCT030 33/18 Q1013;
0120832880999992011020516004-13267-043417FM-15+0443SBLP V0203001N003112200019N0112651N1+03401+01801999999ADDGA1041+009001999GF104991999999999999999999MA1101191999999REMMET051METAR SBLP 051600Z 30006KT 9999 SCT030 34/18 Q1012;
0120832880999992011020517004-13267-043417FM-15+0443SBLP V0201801N005112200019N0112651N1+03501+01701999999ADDGA1041+009001999GF104991999999999999999999MA1101081999999REMMET051METAR SBLP 051700Z 18010KT 9999 SCT030 35/17 Q1011;
0120832880999992011020518004-13267-043417FM-15+0443SBLP V0201001N003112200019N0112651N1+03601+01401999999ADDGA1041+009001999GF104991999999999999999999MA1100911999999REMMET051METAR SBLP 051800Z 10006KT 9999 SCT030 36/14 Q1009;
0120832880999992011020519004-13267-043417FM-15+0443SBLP V0201801N003112200019N0112651N1+03701+01201999999ADDGA1021+009001999GF102991999999999999999999MA1100811999999REMMET051METAR SBLP 051900Z 18006KT 9999 FEW030 37/12 Q1008;
0120832880999992011020520004-13267-043417FM-15+0443SBLP V0201301N003112200019N0112651N1+03601+01301999999ADDGA1021+009001999GF102991999999999999999999MA1100811999999REMMET051METAR SBLP 052000Z 13006KT 9999 FEW030 36/13 Q1008;
0072832880999992011020521004-13267-043417FM-15+0443SBLP V0201201N003119999999Y0099001N1+03501+01301999999ADDMA1100811999999REMMET045METAR SBLP 052100Z 12006KT CAVOK 35/13 Q1008;
0072832880999992011020610004-13267-043417FM-15+0443SBLP V0209999C000019999999Y0099001N1+02201+01901999999ADDMA1101291999999REMMET045METAR SBLP 061000Z 00000KT CAVOK 22/19 Q1013;
0072832880999992011020611004-13267-043417FM-15+0443SBLP V0201801N002119999999Y0099001N1+02801+01901999999ADDMA1101391999999REMMET045METAR SBLP 061100Z 18004KT CAVOK 28/19 Q1014;
0072832880999992011020612004-13267-043417FM-15+0443SBLP V0201201N003119999999Y0099001N1+03001+01801999999ADDMA1101391999999REMMET045METAR SBLP 061200Z 12006KT CAVOK 30/18 Q1014;
0072832880999992011020613004-13267-043417FM-15+0443SBLP V0200901N004119999999Y0099001N1+03201+02001999999ADDMA1101391999999REMMET045METAR SBLP 061300Z 09008KT CAVOK 32/20 Q1014;
0120832880999992011020614004-13267-043417FM-15+0443SBLP V0201201N004112200019N0112651N1+03401+01901999999ADDGA1021+009001999GF102991999999999999999999MA1101291999999REMMET051METAR SBLP 061400Z 12008KT 9999 FEW030 34/19 Q1013;
0120832880999992011020615004-13267-043417FM-15+0443SBLP V0202701N002112200019N0112651N1+03401+01901999999ADDGA1041+009001999GF104991999999999999999999MA1101291999999REMMET051METAR SBLP 061500Z 27004KT 9999 SCT030 34/19 Q1013;
0120832880999992011020616004-13267-043417FM-15+0443SBLP V0202701N003112200019N0112651N1+03501+01901999999ADDGA1041+009001999GF104991999999999999999999MA1101191999999REMMET051METAR SBLP 061600Z 27006KT 9999 SCT030 35/19 Q1012;
0120832880999992011020617004-13267-043417FM-15+0443SBLP V0201801N003112200019N0112651N1+03601+01801999999ADDGA1041+009001999GF104991999999999999999999MA1101081999999REMMET051METAR SBLP 061700Z 18006KT 9999 SCT030 36/18 Q1011;
0120832880999992011020618004-13267-043417FM-15+0443SBLP V0201801N003112200019N0112651N1+03601+01801999999ADDGA1041+009001999GF104991999999999999999999MA1101021999999REMMET051METAR SBLP 061800Z 18006KT 9999 SCT030 36/18 Q1010;
0120832880999992011020619004-13267-043417FM-15+0443SBLP V0201801N003112200019N0112651N1+03701+01701999999ADDGA1041+009001999GF104991999999999999999999MA1100911999999REMMET051METAR SBLP 061900Z 18006KT 9999 SCT030 37/17 Q1009;
0120832880999992011020620004-13267-043417FM-15+0443SBLP V0201801N003112200019N0112651N1+03601+01701999999ADDGA1021+009001999GF102991999999999999999999MA1100911999999REMMET051METAR SBLP 062000Z 18006KT 9999 FEW030 36/17 Q1009;
0120832880999992011020621004-13267-043417FM-15+0443SBLP V0201801N003112200019N0112651N1+03501+01701999999ADDGA1021+009001999GF102991999999999999999999MA1100911999999REMMET051METAR SBLP 062100Z 18006KT 9999 FEW030 35/17 Q1009;
0072832880999992011020710004-13267-043417FM-15+0443SBLP V0209999C000019999999Y0099001N1+02501+01901999999ADDMA1101491999999REMMET045METAR SBLP 071000Z 00000KT CAVOK 25/19 Q1015;
0072832880999992011020711004-13267-043417FM-15+0443SBLP V0209999C000019999999Y0099001N1+02901+01901999999ADDMA1101491999999REMMET045METAR SBLP 071100Z 00000KT CAVOK 29/19 Q1015;
0072832880999992011020712004-13267-043417FM-15+0443SBLP V0200901N003119999999Y0099001N1+03101+01901999999ADDMA1101491999999REMMET045METAR SBLP 071200Z 09006KT CAVOK 31/19 Q1015;
0072832880999992011020713004-13267-043417FM-15+0443SBLP V0200901N003119999999Y0099001N1+03301+01801999999ADDMA1101491999999REMMET045METAR SBLP 071300Z 09006KT CAVOK 33/18 Q1015;
0120832880999992011020714004-13267-043417FM-15+0443SBLP V0200901N003112200019N0112651N1+03401+01701999999ADDGA1021+009001999GF102991999999999999999999MA1101391999999REMMET051METAR SBLP 071400Z 09006KT 9999 FEW030 34/17 Q1014;
0120832880999992011020715004-13267-043417FM-15+0443SBLP V0200901N003112200019N0112651N1+03501+01701999999ADDGA1021+009001999GF102991999999999999999999MA1101391999999REMMET051METAR SBLP 071500Z 09006KT 9999 FEW030 35/17 Q1014;
0120832880999992011020716004-13267-043417FM-15+0443SBLP V0202701N001512200019N0112651N1+03501+01601999999ADDGA1041+009001999GF104991999999999999999999MA1101191999999REMMET051METAR SBLP 071600Z 27003KT 9999 SCT030 35/16 Q1012;
0120832880999992011020718004-13267-043417FM-15+0443SBLP V0201801N004112200019N0112651N1+03701+01701999999ADDGA1041+009001999GF104991999999999999999999MA1101021999999REMMET051METAR SBLP 071800Z 18008KT 9999 SCT030 37/17 Q1010;
0172832880999992011020719004-13267-043417FM-15+0443SBLP V0200301N005112200019N0112651N1+02402+02301999999ADDGA1041+006901999GA2021+012001091MA1101081999999MW1801MW2951REMMET066METAR SBLP 071900Z 03010KT 9999 -TSRA SCT023 FEW040CB 24/23 Q1011;EQDQ01+000022SCOTCVQ02+002403ATOT  
0125832880999992011020720004-13267-043417FM-15+0443SBLP V0209999C000010081019N0112651N1+02701+02201999999ADDGA1071+008101999GF107991999999999999999999MA1101021999999REMMET056METAR SBLP 072000Z 00000KT 9999 BKN027 27/22 Q1010 RETS;
0120832880999992011020721004-13267-043417FM-15+0443SBLP V0209999C000012200019N0112651N1+02701+02201999999ADDGA1041+008101999GF104991999999999999999999MA1101081999999REMMET051METAR SBLP 072100Z 00000KT 9999 SCT027 27/22 Q1011;
0072832880999992011020810004-13267-043417FM-15+0443SBLP V0201201N002119999999Y0099001N1+02401+01901999999ADDMA1101491999999REMMET045METAR SBLP 081000Z 12004KT CAVOK 24/19 Q1015;
0072832880999992011020811004-13267-043417FM-15+0443SBLP V0201201N002119999999Y0099001N1+02701+02001999999ADDMA1101591999999REMMET045METAR SBLP 081100Z 12004KT CAVOK 27/20 Q1016;
0072832880999992011020812004-13267-043417FM-15+0443SBLP V0201301N001519999999Y0099001N1+02901+01901999999ADDMA1101591999999REMMET045METAR SBLP 081200Z 13003KT CAVOK 29/19 Q1016;
0072832880999992011020813004-13267-043417FM-15+0443SBLP V0201501N002119999999Y0099001N1+03001+01901999999ADDMA1101591999999REMMET045METAR SBLP 081300Z 15004KT CAVOK 30/19 Q1016;
0120832880999992011020814004-13267-043417FM-15+0443SBLP V0209999C000012200019N0112651N1+03201+01901999999ADDGA1021+009001999GF102991999999999999999999MA1101491999999REMMET051METAR SBLP 081400Z 00000KT 9999 FEW030 32/19 Q1015;
0120832880999992011020815004-13267-043417FM-15+0443SBLP V0209999C000012200019N0112651N1+03301+01801999999ADDGA1021+009001999GF102991999999999999999999MA1101491999999REMMET051METAR SBLP 081500Z 00000KT 9999 FEW030 33/18 Q1015;
0120832880999992011020816004-13267-043417FM-15+0443SBLP V0209999C000012200019N0112651N1+03301+01901999999ADDGA1021+009001999GF102991999999999999999999MA1101291999999REMMET051METAR SBLP 081600Z 00000KT 9999 FEW030 33/19 Q1013;
0120832880999992011020817004-13267-043417FM-15+0443SBLP V0202101N003112200019N0112651N1+03501+01801999999ADDGA1021+009001999GF102991999999999999999999MA1101191999999REMMET051METAR SBLP 081700Z 21006KT 9999 FEW030 35/18 Q1012;
0120832880999992011020818004-13267-043417FM-15+0443SBLP V0202101N003112200019N0112651N1+03601+01801999999ADDGA1041+009001999GF104991999999999999999999MA1101081999999REMMET051METAR SBLP 081800Z 21006KT 9999 SCT030 36/18 Q1011;
0120832880999992011020819004-13267-043417FM-15+0443SBLP V0209999C000012200019N0112651N1+03601+01801999999ADDGA1041+009001999GF104991999999999999999999MA1101021999999REMMET051METAR SBLP 081900Z 00000KT 9999 SCT030 36/18 Q1010;
0120832880999992011020820004-13267-043417FM-15+0443SBLP V0202101N003112200019N0112651N1+03401+01801999999ADDGA1041+009001999GF104991999999999999999999MA1101021999999REMMET051METAR SBLP 082000Z 21006KT 9999 SCT030 34/18 Q1010;
0120832880999992011020821004-13267-043417FM-15+0443SBLP V0209999C000012200019N0112651N1+03301+01901999999ADDGA1021+009001999GF102991999999999999999999MA1101021999999REMMET051METAR SBLP 082100Z 00000KT 9999 FEW030 33/19 Q1010;
0072832880999992011020910004-13267-043417FM-15+0443SBLP V0209999C000019999999Y0099001N1+02401+02001999999ADDMA1101291999999REMMET045METAR SBLP 091000Z 00000KT CAVOK 24/20 Q1013;
0072832880999992011020911004-13267-043417FM-15+0443SBLP V0209999C000019999999Y0099001N1+02701+02001999999ADDMA1101391999999REMMET045METAR SBLP 091100Z 00000KT CAVOK 27/20 Q1014;
0072832880999992011020912004-13267-043417FM-15+0443SBLP V0209999C000019999999Y0099001N1+02901+01901999999ADDMA1101391999999REMMET045METAR SBLP 091200Z 00000KT CAVOK 29/19 Q1014;
0072832880999992011020913004-13267-043417FM-15+0443SBLP V0209999C000019999999Y0099001N1+03001+02001999999ADDMA1101391999999REMMET045METAR SBLP 091300Z 00000KT CAVOK 30/20 Q1014;
0120832880999992011020914004-13267-043417FM-15+0443SBLP V0209999C000012200019N0112651N1+03301+01901999999ADDGA1021+009001999GF102991999999999999999999MA1101391999999REMMET051METAR SBLP 091400Z 00000KT 9999 FEW030 33/19 Q1014;
0120832880999992011020915004-13267-043417FM-15+0443SBLP V0202701N002112200019N0112651N1+03401+01801999999ADDGA1041+009001999GF104991999999999999999999MA1101291999999REMMET051METAR SBLP 091500Z 27004KT 9999 SCT030 34/18 Q1013;
0120832880999992011020916004-13267-043417FM-15+0443SBLP V0202401N003112200019N0112651N1+03501+01901999999ADDGA1041+009001999GF104991999999999999999999MA1101191999999REMMET051METAR SBLP 091600Z 24006KT 9999 SCT030 35/19 Q1012;
0120832880999992011020917004-13267-043417FM-15+0443SBLP V0202101N004112200019N0112651N1+03501+01801999999ADDGA1041+009001999GF104991999999999999999999MA1101021999999REMMET051METAR SBLP 091700Z 21008KT 9999 SCT030 35/18 Q1010;
0120832880999992011020918004-13267-043417FM-15+0443SBLP V0202401N003112200019N0112651N1+03501+01801999999ADDGA1041+009001999GF104991999999999999999999MA1100911999999REMMET051METAR SBLP 091800Z 24006KT 9999 SCT030 35/18 Q1009;
0120832880999992011020919004-13267-043417FM-15+0443SBLP V0202401N003112200019N0112651N1+03601+01701999999ADDGA1041+009001999GF104991999999999999999999MA1100811999999REMMET051METAR SBLP 091900Z 24006KT 9999 SCT030 36/17 Q1008;
0120832880999992011020920004-13267-043417FM-15+0443SBLP V0201801N002112200019N0112651N1+03401+01701999999ADDGA1041+009001999GF104991999999999999999999MA1100811999999REMMET051METAR SBLP 092000Z 18004KT 9999 SCT030 34/17 Q1008;
0120832880999992011020921004-13267-043417FM-15+0443SBLP V0201801N001010090019N0112651N1+03101+01801999999ADDGA1071+009001999GF107991999999999999999999MA1100911999999REMMET051METAR SBLP 092100Z 18002KT 9999 BKN030 31/18 Q1009;
0143832880999992011021010004-13267-043417FM-15+0443SBLP V0209999C000010300019N0112651N1+02301+02101999999ADDGA1041+006001999GA2071+030001999GF107991999999999999999999MA1101291999999REMMET058METAR SBLP 101000Z 00000KT 9999 SCT020 BKN100 23/21 Q1013;
0143832880999992011021011004-13267-043417FM-15+0443SBLP V0209999C000010300019N0112651N1+02501+02101999999ADDGA1021+006001999GA2071+030001999GF107991999999999999999999MA1101291999999REMMET058METAR SBLP 101100Z 00000KT 9999 FEW020 BKN100 25/21 Q1013;
0143832880999992011021012004-13267-043417FM-15+0443SBLP V0203601N003110300019N0112651N1+02801+02101999999ADDGA1021+006001999GA2071+030001999GF107991999999999999999999MA1101391999999REMMET058METAR SBLP 101200Z 36006KT 9999 FEW020 BKN100 28/21 Q1014;
0143832880999992011021013004-13267-043417FM-15+0443SBLP V0203601N003110300019N0112651N1+02901+02101999999ADDGA1021+009001999GA2071+030001999GF107991999999999999999999MA1101391999999REMMET058METAR SBLP 101300Z 36006KT 9999 FEW030 BKN100 29/21 Q1014;
0143832880999992011021014004-13267-043417FM-15+0443SBLP V0203601N003110300019N0112651N1+03001+02101999999ADDGA1021+009001999GA2071+030001999GF107991999999999999999999MA1101391999999REMMET058METAR SBLP 101400Z 36006KT 9999 FEW030 BKN100 30/21 Q1014;
0143832880999992011021015004-13267-043417FM-15+0443SBLP V0202701N003112200019N0112651N1+03101+02101999999ADDGA1041+009001999GA2041+030001999GF104991999999999999999999MA1101291999999REMMET058METAR SBLP 101500Z 27006KT 9999 SCT030 SCT100 31/21 Q1013;
0177832880999992011021016004-13267-043417FM-15+0443SBLP V0201801N00411030001CN0112651N1+02601+02201999999ADDGA1021+009001091GA2071+009001999GA3071+030001999GF107991999999999999999999MA1101291999999MW1171REMMET070METAR SBLP 101600Z 18008KT 9999 TS BKN030 FEW030CB BKN100 26/22 Q1013;
0186832880999992011021017004-13267-043417FM-15+0443SBLP V0209999C00001030001CN0070001N1+02401+02101999999ADDGA1021+009001091GA2071+009001999GA3071+030001999GF107991999999999999999999MA1101191999999MW1801MW2951REMMET073METAR SBLP 101700Z 00000KT 7000 -TSRA BKN030 FEW030CB BKN100 24/21 Q1012;
0186832880999992011021018004-13267-043417FM-15+0443SBLP V0202701N002110300019N0112651N1+02401+02301999999ADDGA1021+009001091GA2041+009001999GA3071+030001999GF107991999999999999999999MA1101191999999MW1801MW2951REMMET073METAR SBLP 101800Z 27004KT 9999 -TSRA SCT030 FEW030CB BKN100 24/23 Q1012;
0153832880999992011021019004-13267-043417FM-15+0443SBLP V0202701N002110300019N0112651N1+02401+02301999999ADDGA1041+009001999GA2071+030001999GF107991999999999999999999MA1101191999999MW1611REMMET062METAR SBLP 101900Z 27004KT 9999 -RA SCT030 BKN100 24/23 Q1012;
0153832880999992011021020004-13267-043417FM-15+0443SBLP V0202701N002610300019N0112651N1+02301+02201999999ADDGA1041+009001999GA2071+030001999GF107991999999999999999999MA1101291999999MW1611REMMET062METAR SBLP 102000Z 27005KT 9999 -RA SCT030 BKN100 23/22 Q1013;
0143832880999992011021021004-13267-043417FM-15+0443SBLP V0200401N003110300019N0112651N1+02301+02201999999ADDGA1021+009001999GA2071+030001999GF107991999999999999999999MA1101291999999REMMET058METAR SBLP 102100Z 04006KT 9999 FEW030 BKN100 23/22 Q1013;
0143832880999992011021109154-13267-043417FM-15+0443SBLP V0201801N001510300019N0112651N1+02201+02101999999ADDGA1041+006001999GA2071+030001999GF107991999999999999999999MA1101391999999REMMET058METAR SBLP 110915Z 18003KT 9999 SCT020 BKN100 22/21 Q1014;
0143832880999992011021110004-13267-043417FM-15+0443SBLP V0202101N001510300019N0112651N1+02201+02201999999ADDGA1041+006001999GA2071+030001999GF107991999999999999999999MA1101391999999REMMET058METAR SBLP 111000Z 21003KT 9999 SCT020 BKN100 22/22 Q1014;
0143832880999992011021111004-13267-043417FM-15+0443SBLP V0201701N001510300019N0112651N1+02301+02201999999ADDGA1041+006001999GA2071+030001999GF107991999999999999999999MA1101491999999REMMET058METAR SBLP 111100Z 17003KT 9999 SCT020 BKN100 23/22 Q1015;
0143832880999992011021112004-13267-043417FM-15+0443SBLP V0201901N002610300019N0112651N1+02501+02201999999ADDGA1041+006001999GA2071+030001999GF107991999999999999999999MA1101491999999REMMET058METAR SBLP 111200Z 19005KT 9999 SCT020 BKN100 25/22 Q1015;
0143832880999992011021113004-13267-043417FM-15+0443SBLP V0201801N001510300019N0112651N1+02601+02201999999ADDGA1041+006001999GA2071+030001999GF107991999999999999999999MA1101591999999REMMET058METAR SBLP 111300Z 18003KT 9999 SCT020 BKN100 26/22 Q1016;
0143832880999992011021114004-13267-043417FM-15+0443SBLP V0201501N003110300019N0112651N1+02801+02301999999ADDGA1021+009001999GA2071+030001999GF107991999999999999999999MA1101491999999REMMET058METAR SBLP 111400Z 15006KT 9999 FEW030 BKN100 28/23 Q1015;
0143832880999992011021115004-13267-043417FM-15+0443SBLP V0201801N003110300019N0112651N1+02901+02201999999ADDGA1041+009001999GA2071+030001999GF107991999999999999999999MA1101491999999REMMET058METAR SBLP 111500Z 18006KT 9999 SCT030 BKN100 29/22 Q1015;
0143832880999992011021116004-13267-043417FM-15+0443SBLP V0202701N003110300019N0112651N1+03001+02101999999ADDGA1041+009001999GA2071+030001999GF107991999999999999999999MA1101391999999REMMET058METAR SBLP 111600Z 27006KT 9999 SCT030 BKN100 30/21 Q1014;
0143832880999992011021117004-13267-043417FM-15+0443SBLP V0202701N003112200019N0112651N1+03201+02001999999ADDGA1041+009001999GA2041+030001999GF104991999999999999999999MA1101291999999REMMET058METAR SBLP 111700Z 27006KT 9999 SCT030 SCT100 32/20 Q1013;
0143832880999992011021118004-13267-043417FM-15+0443SBLP V0201801N003112200019N0112651N1+03401+01901999999ADDGA1041+009001999GA2041+030001999GF104991999999999999999999MA1101191999999REMMET058METAR SBLP 111800Z 18006KT 9999 SCT030 SCT100 34/19 Q1012;
0120832880999992011021119004-13267-043417FM-15+0443SBLP V0200901N003112200019N0112651N1+03301+01901999999ADDGA1041+009001999GF104991999999999999999999MA1101191999999REMMET051METAR SBLP 111900Z 09006KT 9999 SCT030 33/19 Q1012;
0120832880999992011021120004-13267-043417FM-15+0443SBLP V0200901N003112200019N0112651N1+03201+01901999999ADDGA1041+009001999GF104991999999999999999999MA1101191999999REMMET051METAR SBLP 112000Z 09006KT 9999 SCT030 32/19 Q1012;
0120832880999992011021121004-13267-043417FM-15+0443SBLP V0200901N003112200019N0112651N1+03001+02001999999ADDGA1041+009001999GF104991999999999999999999MA1101191999999REMMET051METAR SBLP 112100Z 09006KT 9999 SCT030 30/20 Q1012;
0072832880999992011021210004-13267-043417FM-15+0443SBLP V0209999C000019999999Y0099001N1+02301+02001999999ADDMA1101491999999REMMET045METAR SBLP 121000Z 00000KT CAVOK 23/20 Q1015;
0072832880999992011021211004-13267-043417FM-15+0443SBLP V0201201N003119999999Y0099001N1+02601+02101999999ADDMA1101491999999REMMET045METAR SBLP 121100Z 12006KT CAVOK 26/21 Q1015;
0072832880999992011021212004-13267-043417FM-15+0443SBLP V0200901N002119999999Y0099001N1+02701+02001999999ADDMA1101591999999REMMET045METAR SBLP 121200Z 09004KT CAVOK 27/20 Q1016;
0143832880999992011021213004-13267-043417FM-15+0443SBLP V0209999C000012200019N0112651N1+02901+02001999999ADDGA1021+009001999GA2041+030001999GF104991999999999999999999MA1101491999999REMMET058METAR SBLP 121300Z 00000KT 9999 FEW030 SCT100 29/20 Q1015;
0120832880999992011021214004-13267-043417FM-15+0443SBLP V0201801N003112200019N0112651N1+03001+02001999999ADDGA1041+009001999GF104991999999999999999999MA1101491999999REMMET051METAR SBLP 121400Z 18006KT 9999 SCT030 30/20 Q1015;
0120832880999992011021215004-13267-043417FM-15+0443SBLP V0201301N003112200019N0112651N1+03201+02001999999ADDGA1041+009001999GF104991999999999999999999MA1101391999999REMMET051METAR SBLP 121500Z 13006KT 9999 SCT030 32/20 Q1014;
0120832880999992011021216004-13267-043417FM-15+0443SBLP V0201901N002112200019N0112651N1+03301+01801999999ADDGA1041+009001999GF104991999999999999999999MA1101391999999REMMET051METAR SBLP 121600Z 19004KT 9999 SCT030 33/18 Q1014;
0120832880999992011021217004-13267-043417FM-15+0443SBLP V0202101N001510081019N0112651N1+03101+02101999999ADDGA1071+008101999GF107991999999999999999999MA1101291999999REMMET051METAR SBLP 121700Z 21003KT 9999 BKN027 31/21 Q1013;
0120832880999992011021218004-13267-043417FM-15+0443SBLP V0202101N001510081019N0112651N1+03201+01901999999ADDGA1071+008101999GF107991999999999999999999MA1101191999999REMMET051METAR SBLP 121800Z 21003KT 9999 BKN027 32/19 Q1012;
0120832880999992011021219004-13267-043417FM-15+0443SBLP V0202701N002612200019N0112651N1+03201+02001999999ADDGA1041+008101999GF104991999999999999999999MA1101081999999REMMET051METAR SBLP 121900Z 27005KT 9999 SCT027 32/20 Q1011;
0143832880999992011021220004-13267-043417FM-15+0443SBLP V0202101N001512200019N0112651N1+03201+02001999999ADDGA1021+008101999GA2041+030001999GF104991999999999999999999MA1101081999999REMMET058METAR SBLP 122000Z 21003KT 9999 FEW027 SCT100 32/20 Q1011;
0143832880999992011021221004-13267-043417FM-15+0443SBLP V0209999C000012200019N0112651N1+03101+01901999999ADDGA1021+008101999GA2041+030001999GF104991999999999999999999MA1101081999999REMMET058METAR SBLP 122100Z 00000KT 9999 FEW027 SCT100 31/19 Q1011;
0143832880999992011021309154-13267-043417FM-15+0443SBLP V0203301N002112200019N0112651N1+02401+02101999999ADDGA1021+008101999GA2041+030001999GF104991999999999999999999MA1101291999999REMMET058METAR SBLP 130915Z 33004KT 9999 FEW027 SCT100 24/21 Q1013;
0143832880999992011021310004-13267-043417FM-15+0443SBLP V0209999C000012200019N0112651N1+02501+02201999999ADDGA1021+008101999GA2041+030001999GF104991999999999999999999MA1101391999999REMMET058METAR SBLP 131000Z 00000KT 9999 FEW027 SCT100 25/22 Q1014;
0143832880999992011021311004-13267-043417FM-15+0443SBLP V0209999C000012200019N0112651N1+02601+02201999999ADDGA1021+008101999GA2041+030001999GF104991999999999999999999MA1101491999999REMMET058METAR SBLP 131100Z 00000KT 9999 FEW027 SCT100 26/22 Q1015;
0120832880999992011021312004-13267-043417FM-15+0443SBLP V0209999C000012200019N0112651N1+02801+02201999999ADDGA1021+009001999GF102991999999999999999999MA1101491999999REMMET051METAR SBLP 131200Z 00000KT 9999 FEW030 28/22 Q1015;
0143832880999992011021313004-13267-043417FM-15+0443SBLP V0209999C000012200019N0112651N1+02901+02101999999ADDGA1021+009001999GA2041+030001999GF104991999999999999999999MA1101491999999REMMET058METAR SBLP 131300Z 00000KT 9999 FEW030 SCT100 29/21 Q1015;
0143832880999992011021314004-13267-043417FM-15+0443SBLP V0209999C000012200019N0112651N1+03001+02101999999ADDGA1021+009001999GA2041+030001999GF104991999999999999999999MA1101491999999REMMET058METAR SBLP 131400Z 00000KT 9999 FEW030 SCT100 30/21 Q1015;
0143832880999992011021315004-13267-043417FM-15+0443SBLP V0201101N001512200019N0112651N1+03201+02001999999ADDGA1041+009001999GA2041+030001999GF104991999999999999999999MA1101391999999REMMET058METAR SBLP 131500Z 11003KT 9999 SCT030 SCT100 32/20 Q1014;
0143832880999992011021316004-13267-043417FM-15+0443SBLP V0209999C000012200019N0112651N1+03301+02001999999ADDGA1041+009001999GA2041+030001999GF104991999999999999999999MA1101191999999REMMET058METAR SBLP 131600Z 00000KT 9999 SCT030 SCT100 33/20 Q1012;
0143832880999992011021317004-13267-043417FM-15+0443SBLP V0203001N003112200019N0112651N1+03501+01901999999ADDGA1041+009001999GA2041+030001999GF104991999999999999999999MA1101081999999REMMET058METAR SBLP 131700Z 30006KT 9999 SCT030 SCT100 35/19 Q1011;
0143832880999992011021318004-13267-043417FM-15+0443SBLP V0203001N003112200019N0112651N1+03501+01901999999ADDGA1041+009001999GA2041+030001999GF104991999999999999999999MA1101081999999REMMET058METAR SBLP 131800Z 30006KT 9999 SCT030 SCT100 35/19 Q1011;
0143832880999992011021319004-13267-043417FM-15+0443SBLP V0201801N003110300019N0112651N1+03301+02001999999ADDGA1041+009001999GA2071+030001999GF107991999999999999999999MA1101021999999REMMET058METAR SBLP 131900Z 18006KT 9999 SCT030 BKN100 33/20 Q1010;
0143832880999992011021320004-13267-043417FM-15+0443SBLP V0201501N003110300019N0112651N1+03001+02101999999ADDGA1021+009001999GA2071+030001999GF107991999999999999999999MA1101021999999REMMET058METAR SBLP 132000Z 15006KT 9999 FEW030 BKN100 30/21 Q1010;
0143832880999992011021321004-13267-043417FM-15+0443SBLP V0209999C000012200019N0112651N1+02901+02201999999ADDGA1021+009001999GA2041+030001999GF104991999999999999999999MA1101021999999REMMET058METAR SBLP 132100Z 00000KT 9999 FEW030 SCT100 29/22 Q1010;
0143832880999992011021410004-13267-043417FM-15+0443SBLP V0201101N001512200019N0112651N1+02401+02101999999ADDGA1021+008101999GA2041+030001999GF104991999999999999999999MA1101391999999REMMET058METAR SBLP 141000Z 11003KT 9999 FEW027 SCT100 24/21 Q1014;
0143832880999992011021411004-13267-043417FM-15+0443SBLP V0201701N001510300019N0112651N1+02601+02101999999ADDGA1021+008101999GA2071+030001999GF107991999999999999999999MA1101391999999REMMET058METAR SBLP 141100Z 17003KT 9999 FEW027 BKN100 26/21 Q1014;
0143832880999992011021412004-13267-043417FM-15+0443SBLP V0203501N002110300019N0112651N1+02601+02201999999ADDGA1021+008101999GA2071+030001999GF107991999999999999999999MA1101491999999REMMET058METAR SBLP 141200Z 35004KT 9999 FEW027 BKN100 26/22 Q1015;
0143832880999992011021414004-13267-043417FM-15+0443SBLP V0203301N001510300019N0112651N1+03001+02201999999ADDGA1021+009001999GA2071+030001999GF107991999999999999999999MA1101491999999REMMET058METAR SBLP 141400Z 33003KT 9999 FEW030 BKN100 30/22 Q1015;
0143832880999992011021415004-13267-043417FM-15+0443SBLP V0203501N003110300019N0112651N1+03101+02001999999ADDGA1041+009001999GA2071+030001999GF107991999999999999999999MA1101391999999REMMET058METAR SBLP 141500Z 35006KT 9999 SCT030 BKN100 31/20 Q1014;
0143832880999992011021416004-13267-043417FM-15+0443SBLP V0203601N004110300019N0112651N1+03301+02101999999ADDGA1041+009001999GA2071+030001999GF107991999999999999999999MA1101191999999REMMET058METAR SBLP 141600Z 36008KT 9999 SCT030 BKN100 33/21 Q1012;
0143832880999992011021417004-13267-043417FM-15+0443SBLP V0203001N002110300019N0112651N1+03101+02101999999ADDGA1041+009001999GA2071+030001999GF107991999999999999999999MA1101081999999REMMET058METAR SBLP 141700Z 30004KT 9999 SCT030 BKN100 31/21 Q1011;
0177832880999992011021418004-13267-043417FM-15+0443SBLP V0202901N003110300019N0112651N1+03001+02201999999ADDGA1021+009001091GA2041+009001999GA3071+030001999GF107991999999999999999999MA1101081999999MW1171REMMET070METAR SBLP 141800Z 29006KT 9999 TS SCT030 FEW030CB BKN100 30/22 Q1011;
0177832880999992011021419004-13267-043417FM-15+0443SBLP V0201301N003110300019N0112651N1+02801+02001999999ADDGA1021+009001091GA2021+009001999GA3071+030001999GF107991999999999999999999MA1101081999999MW1171REMMET070METAR SBLP 141900Z 13006KT 9999 TS FEW030 FEW030CB BKN100 28/20 Q1011;
0148832880999992011021420004-13267-043417FM-15+0443SBLP V0200301N003110300019N0112651N1+02801+02101999999ADDGA1021+009001999GA2071+030001999GF107991999999999999999999MA1101081999999REMMET063METAR SBLP 142000Z 03006KT 9999 FEW030 BKN100 28/21 Q1011 RETS;
0143832880999992011021421004-13267-043417FM-15+0443SBLP V0202401N002110300019N0112651N1+02701+02101999999ADDGA1021+006001999GA2071+030001999GF107991999999999999999999MA1101081999999REMMET058METAR SBLP 142100Z 24004KT 9999 FEW020 BKN100 27/21 Q1011;
0143832880999992011021510004-13267-043417FM-15+0443SBLP V0202101N002110300019N0112651N1+02301+02101999999ADDGA1041+006001999GA2071+030001999GF107991999999999999999999MA1101291999999REMMET058METAR SBLP 151000Z 21004KT 9999 SCT020 BKN100 23/21 Q1013;
0143832880999992011021511004-13267-043417FM-15+0443SBLP V0202401N001510300019N0112651N1+02401+02101999999ADDGA1041+006001999GA2071+030001999GF107991999999999999999999MA1101391999999REMMET058METAR SBLP 151100Z 24003KT 9999 SCT020 BKN100 24/21 Q1014;
0143832880999992011021512004-13267-043417FM-15+0443SBLP V0202101N001510300019N0112651N1+02601+02101999999ADDGA1021+006001999GA2071+030001999GF107991999999999999999999MA1101391999999REMMET058METAR SBLP 151200Z 21003KT 9999 FEW020 BKN100 26/21 Q1014;
0072832880999992011021513004-13267-043417FM-15+0443SBLP V0201801N002119999999Y0099001N1+02801+02201999999ADDMA1101391999999REMMET045METAR SBLP 151300Z 18004KT CAVOK 28/22 Q1014;
0143832880999992011021514004-13267-043417FM-15+0443SBLP V0202201N001510300019N0112651N1+02901+02201999999ADDGA1021+009001999GA2071+030001999GF107991999999999999999999MA1101391999999REMMET058METAR SBLP 151400Z 22003KT 9999 FEW030 BKN100 29/22 Q1014;
0143832880999992011021519004-13267-043417FM-15+0443SBLP V0201801N003110300019N0112651N1+03201+02001999999ADDGA1021+009001999GA2071+030001999GF107991999999999999999999MA1101021999999REMMET058METAR SBLP 151900Z 18006KT 9999 FEW030 BKN100 32/20 Q1010;
0143832880999992011021521004-13267-043417FM-15+0443SBLP V0201801N003110300019N0112651N1+02901+02101999999ADDGA1021+009001999GA2071+030001999GF107991999999999999999999MA1101021999999REMMET058METAR SBLP 152100Z 18006KT 9999 FEW030 BKN100 29/21 Q1010;
0072832880999992011021610004-13267-043417FM-15+0443SBLP V0202101N004119999999Y0099001N1+02301+02201999999ADDMA1101391999999REMMET045METAR SBLP 161000Z 21008KT CAVOK 23/22 Q1014;
0072832880999992011021611004-13267-043417FM-15+0443SBLP V0202101N002119999999Y0099001N1+02401+02101999999ADDMA1101491999999REMMET045METAR SBLP 161100Z 21004KT CAVOK 24/21 Q1015;
0072832880999992011021612004-13267-043417FM-15+0443SBLP V0209999C000019999999Y0099001N1+02501+02101999999ADDMA1101491999999REMMET045METAR SBLP 161200Z 00000KT CAVOK 25/21 Q1015;
0143832880999992011021613004-13267-043417FM-15+0443SBLP V0202101N003112200019N0112651N1+03001+02001999999ADDGA1021+009001999GA2041+030001999GF104991999999999999999999MA1101491999999REMMET058METAR SBLP 161300Z 21006KT 9999 FEW030 SCT100 30/20 Q1015;
0143832880999992011021614004-13267-043417FM-15+0443SBLP V0202101N004110300019N0112651N1+03101+01901999999ADDGA1021+009001999GA2071+030001999GF107991999999999999999999MA1101491999999REMMET058METAR SBLP 161400Z 21008KT 9999 FEW030 BKN100 31/19 Q1015;
0120832880999992011021615004-13267-043417FM-15+0443SBLP V0202101N003112200019N0112651N1+03201+02001999999ADDGA1041+009001999GF104991999999999999999999MA1101391999999REMMET051METAR SBLP 161500Z 21006KT 9999 SCT030 32/20 Q1014;
0120832880999992011021616004-13267-043417FM-15+0443SBLP V0201801N003112200019N0112651N1+03301+02001999999ADDGA1041+009001999GF104991999999999999999999MA1101191999999REMMET051METAR SBLP 161600Z 18006KT 9999 SCT030 33/20 Q1012;
0120832880999992011021617004-13267-043417FM-15+0443SBLP V0201801N003112200019N0112651N1+03401+01901999999ADDGA1041+009001999GF104991999999999999999999MA1101081999999REMMET051METAR SBLP 161700Z 18006KT 9999 SCT030 34/19 Q1011;
0120832880999992011021618004-13267-043417FM-15+0443SBLP V0201801N003112200019N0112651N1+03601+01801999999ADDGA1041+009001999GF104991999999999999999999MA1101021999999REMMET051METAR SBLP 161800Z 18006KT 9999 SCT030 36/18 Q1010;
0120832880999992011021619004-13267-043417FM-15+0443SBLP V0201801N003112200019N0112651N1+03601+01801999999ADDGA1041+009001999GF104991999999999999999999MA1100911999999REMMET051METAR SBLP 161900Z 18006KT 9999 SCT030 36/18 Q1009;
0120832880999992011021620004-13267-043417FM-15+0443SBLP V0201801N003112200019N0112651N1+03501+01801999999ADDGA1041+009001999GF104991999999999999999999MA1100911999999REMMET051METAR SBLP 162000Z 18006KT 9999 SCT030 35/18 Q1009;
0120832880999992011021621004-13267-043417FM-15+0443SBLP V0200901N006212200019N0112651N1+03301+01801999999ADDGA1041+009001999GF104991999999999999999999MA1100911999999REMMET051METAR SBLP 162100Z 09012KT 9999 SCT030 33/18 Q1009;
0143832880999992011021710004-13267-043417FM-15+0443SBLP V0209999C000012200019N0112651N1+02301+02101999999ADDGA1021+006001999GA2041+030001999GF104991999999999999999999MA1101391999999REMMET058METAR SBLP 171000Z 00000KT 9999 FEW020 SCT100 23/21 Q1014;
0143832880999992011021711004-13267-043417FM-15+0443SBLP V0209999C000012200019N0112651N1+02601+02101999999ADDGA1021+006001999GA2041+030001999GF104991999999999999999999MA1101491999999REMMET058METAR SBLP 171100Z 00000KT 9999 FEW020 SCT100 26/21 Q1015;
0143832880999992011021712004-13267-043417FM-15+0443SBLP V0209999C000012200019N0112651N1+02901+02001999999ADDGA1021+006001999GA2041+030001999GF104991999999999999999999MA1101491999999REMMET058METAR SBLP 171200Z 00000KT 9999 FEW020 SCT100 29/20 Q1015;
0120832880999992011021713004-13267-043417FM-15+0443SBLP V0203601N003112200019N0112651N1+03201+01901999999ADDGA1041+009001999GF104991999999999999999999MA1101491999999REMMET051METAR SBLP 171300Z 36006KT 9999 SCT030 32/19 Q1015;
0120832880999992011021714004-13267-043417FM-15+0443SBLP V0203601N003112200019N0112651N1+03201+01901999999ADDGA1041+009001999GF104991999999999999999999MA1101491999999REMMET051METAR SBLP 171400Z 36006KT 9999 SCT030 32/19 Q1015;
0120832880999992011021715004-13267-043417FM-15+0443SBLP V0203601N003110090019N0112651N1+03301+01901999999ADDGA1071+009001999GF107991999999999999999999MA1101391999999REMMET051METAR SBLP 171500Z 36006KT 9999 BKN030 33/19 Q1014;
0120832880999992011021716004-13267-043417FM-15+0443SBLP V0209999C000010090019N0112651N1+03401+01901999999ADDGA1071+009001999GF107991999999999999999999MA1101291999999REMMET051METAR SBLP 171600Z 00000KT 9999 BKN030 34/19 Q1013;
0120832880999992011021717004-13267-043417FM-15+0443SBLP V0201501N004112200019N0112651N1+03401+01901999999ADDGA1041+009001999GF104991999999999999999999MA1101191999999REMMET051METAR SBLP 171700Z 15008KT 9999 SCT030 34/19 Q1012;
0120832880999992011021718004-13267-043417FM-15+0443SBLP V0200601N002112200019N0112651N1+03501+01901999999ADDGA1041+009001999GF104991999999999999999999MA1101081999999REMMET051METAR SBLP 171800Z 06004KT 9999 SCT030 35/19 Q1011;
0120832880999992011021719004-13267-043417FM-15+0443SBLP V0201501N002112200019N0112651N1+03401+01801999999ADDGA1041+009001999GF104991999999999999999999MA1101021999999REMMET051METAR SBLP 171900Z 15004KT 9999 SCT030 34/18 Q1010;
0120832880999992011021720004-13267-043417FM-15+0443SBLP V0201201N001512200019N0112651N1+03401+01801999999ADDGA1041+009001999GF104991999999999999999999MA1101021999999REMMET051METAR SBLP 172000Z 12003KT 9999 SCT030 34/18 Q1010;
0120832880999992011021721004-13267-043417FM-15+0443SBLP V0200301N001512200019N0112651N1+03401+01901999999ADDGA1021+009001999GF102991999999999999999999MA1101021999999REMMET051METAR SBLP 172100Z 03003KT 9999 FEW030 34/19 Q1010;
0072832880999992011021810004-13267-043417FM-15+0443SBLP V0201701N002119999999Y0099001N1+02301+01801999999ADDMA1101391999999REMMET045METAR SBLP 181000Z 17004KT CAVOK 23/18 Q1014;
0072832880999992011021811004-13267-043417FM-15+0443SBLP V0201801N002119999999Y0099001N1+02701+01801999999ADDMA1101491999999REMMET045METAR SBLP 181100Z 18004KT CAVOK 27/18 Q1015;
0120832880999992011021813004-13267-043417FM-15+0443SBLP V0209999C000012200019N0112651N1+03001+01701999999ADDGA1021+009001999GF102991999999999999999999MA1101491999999REMMET051METAR SBLP 181300Z 00000KT 9999 FEW030 30/17 Q1015;
0120832880999992011021814004-13267-043417FM-15+0443SBLP V0201701N003112200019N0112651N1+03201+01901999999ADDGA1021+009001999GF102991999999999999999999MA1101491999999REMMET051METAR SBLP 181400Z 17006KT 9999 FEW030 32/19 Q1015;
0120832880999992011021815004-13267-043417FM-15+0443SBLP V0200101N002612200019N0112651N1+03301+01801999999ADDGA1041+009001999GF104991999999999999999999MA1101391999999REMMET051METAR SBLP 181500Z 01005KT 9999 SCT030 33/18 Q1014;
0120832880999992011021816004-13267-043417FM-15+0443SBLP V0200601N003112200019N0112651N1+03301+01801999999ADDGA1041+009001999GF104991999999999999999999MA1101191999999REMMET051METAR SBLP 181600Z 06006KT 9999 SCT030 33/18 Q1012;
0120832880999992011021817004-13267-043417FM-15+0443SBLP V0201801N003112200019N0112651N1+03501+01701999999ADDGA1041+009001999GF104991999999999999999999MA1101081999999REMMET051METAR SBLP 181700Z 18006KT 9999 SCT030 35/17 Q1011;
0120832880999992011021818004-13267-043417FM-15+0443SBLP V0202101N003112200019N0112651N1+03501+01701999999ADDGA1041+009001999GF104991999999999999999999MA1101021999999REMMET051METAR SBLP 181800Z 21006KT 9999 SCT030 35/17 Q1010;
0120832880999992011021819004-13267-043417FM-15+0443SBLP V0201801N003112200019N0112651N1+03501+01701999999ADDGA1041+009001999GF104991999999999999999999MA1100911999999REMMET051METAR SBLP 181900Z 18006KT 9999 SCT030 35/17 Q1009;
0120832880999992011021820004-13267-043417FM-15+0443SBLP V0209999C000012200019N0112651N1+03501+01601999999ADDGA1021+009001999GF102991999999999999999999MA1100911999999REMMET051METAR SBLP 182000Z 00000KT 9999 FEW030 35/16 Q1009;
0072832880999992011021821004-13267-043417FM-15+0443SBLP V0209999C000019999999Y0099001N1+03301+01701999999ADDMA1100811999999REMMET045METAR SBLP 182100Z 00000KT CAVOK 33/17 Q1008;
0072832880999992011021910004-13267-043417FM-15+0443SBLP V0201201N003119999999Y0099001N1+02301+01601999999ADDMA1101291999999REMMET045METAR SBLP 191000Z 12006KT CAVOK 23/16 Q1013;
0072832880999992011021911004-13267-043417FM-15+0443SBLP V0209999C000019999999Y0099001N1+02601+01801999999ADDMA1101391999999REMMET045METAR SBLP 191100Z 00000KT CAVOK 26/18 Q1014;
0072832880999992011021912004-13267-043417FM-15+0443SBLP V0201201N003119999999Y0099001N1+02801+01701999999ADDMA1101491999999REMMET045METAR SBLP 191200Z 12006KT CAVOK 28/17 Q1015;
0072832880999992011021913004-13267-043417FM-15+0443SBLP V0201201N003119999999Y0099001N1+03001+01801999999ADDMA1101491999999REMMET045METAR SBLP 191300Z 12006KT CAVOK 30/18 Q1015;
0120832880999992011021914004-13267-043417FM-15+0443SBLP V0209999C000012200019N0112651N1+03101+01801999999ADDGA1021+009001999GF102991999999999999999999MA1101391999999REMMET051METAR SBLP 191400Z 00000KT 9999 FEW030 31/18 Q1014;
0120832880999992011021915004-13267-043417FM-15+0443SBLP V0201201N003112200019N0112651N1+03201+01801999999ADDGA1021+009001999GF102991999999999999999999MA1101291999999REMMET051METAR SBLP 191500Z 12006KT 9999 FEW030 32/18 Q1013;
0120832880999992011021916004-13267-043417FM-15+0443SBLP V0209999C000010090019N0112651N1+03401+01901999999ADDGA1071+009001999GF107991999999999999999999MA1101191999999REMMET051METAR SBLP 191600Z 00000KT 9999 BKN030 34/19 Q1012;
0120832880999992011021917004-13267-043417FM-15+0443SBLP V0202101N004112200019N0112651N1+03401+01801999999ADDGA1041+009001999GF104991999999999999999999MA1101081999999REMMET051METAR SBLP 191700Z 21008KT 9999 SCT030 34/18 Q1011;
0120832880999992011021918004-13267-043417FM-15+0443SBLP V0209999C000012200019N0112651N1+03501+01601999999ADDGA1041+009001999GF104991999999999999999999MA1101021999999REMMET051METAR SBLP 191800Z 00000KT 9999 SCT030 35/16 Q1010;
0120832880999992011021919004-13267-043417FM-15+0443SBLP V0201301N002612200019N0112651N1+03501+01601999999ADDGA1041+009001999GF104991999999999999999999MA1100911999999REMMET051METAR SBLP 191900Z 13005KT 9999 SCT030 35/16 Q1009;
0120832880999992011021920004-13267-043417FM-15+0443SBLP V0201301N004112200019N0112651N1+03501+01601999999ADDGA1041+009001999GF104991999999999999999999MA1100911999999REMMET051METAR SBLP 192000Z 13008KT 9999 SCT030 35/16 Q1009;
0120832880999992011021921004-13267-043417FM-15+0443SBLP V0201201N003112200019N0112651N1+03301+01701999999ADDGA1041+009001999GF104991999999999999999999MA1100911999999REMMET051METAR SBLP 192100Z 12006KT 9999 SCT030 33/17 Q1009;
0072832880999992011022010004-13267-043417FM-15+0443SBLP V0200301N002119999999Y0099001N1+02301+02001999999ADDMA1101391999999REMMET045METAR SBLP 201000Z 03004KT CAVOK 23/20 Q1014;
0072832880999992011022011004-13267-043417FM-15+0443SBLP V0200301N002119999999Y0099001N1+02701+01801999999ADDMA1101491999999REMMET045METAR SBLP 201100Z 03004KT CAVOK 27/18 Q1015;
0072832880999992011022012004-13267-043417FM-15+0443SBLP V0201101N001019999999Y0099001N1+02901+01601999999ADDMA1101491999999REMMET045METAR SBLP 201200Z 11002KT CAVOK 29/16 Q1015;
0072832880999992011022013004-13267-043417FM-15+0443SBLP V0200901N004119999999Y0099001N1+03001+01701999999ADDMA1101491999999REMMET045METAR SBLP 201300Z 09008KT CAVOK 30/17 Q1015;
0120832880999992011022014004-13267-043417FM-15+0443SBLP V0200901N005112200019N0112651N1+03101+01401999999ADDGA1021+009001999GF102991999999999999999999MA1101491999999REMMET051METAR SBLP 201400Z 09010KT 9999 FEW030 31/14 Q1015;
0120832880999992011022015004-13267-043417FM-15+0443SBLP V0200301N002112200019N0112651N1+03201+01501999999ADDGA1021+009001999GF102991999999999999999999MA1101391999999REMMET051METAR SBLP 201500Z 03004KT 9999 FEW030 32/15 Q1014;
0120832880999992011022016004-13267-043417FM-15+0443SBLP V0201601N003112200019N0112651N1+03401+01501999999ADDGA1021+009001999GF102991999999999999999999MA1101191999999REMMET051METAR SBLP 201600Z 16006KT 9999 FEW030 34/15 Q1012;
0120832880999992011022017004-13267-043417FM-15+0443SBLP V0202101N003112200019N0112651N1+03501+01601999999ADDGA1021+009001999GF102991999999999999999999MA1101081999999REMMET051METAR SBLP 201700Z 21006KT 9999 FEW030 35/16 Q1011;
0120832880999992011022018004-13267-043417FM-15+0443SBLP V0200901N003112200019N0112651N1+03501+01601999999ADDGA1021+009001999GF102991999999999999999999MA1101021999999REMMET051METAR SBLP 201800Z 09006KT 9999 FEW030 35/16 Q1010;
0120832880999992011022019004-13267-043417FM-15+0443SBLP V0203001N003112200019N0112651N1+03501+01601999999ADDGA1021+009001999GF102991999999999999999999MA1100911999999REMMET051METAR SBLP 201900Z 30006KT 9999 FEW030 35/16 Q1009;
0120832880999992011022020004-13267-043417FM-15+0443SBLP V0202101N003112200019N0112651N1+03401+01701999999ADDGA1021+009001999GF102991999999999999999999MA1100911999999REMMET051METAR SBLP 202000Z 21006KT 9999 FEW030 34/17 Q1009;
0120832880999992011022021004-13267-043417FM-15+0443SBLP V0209999C000012200019N0112651N1+03201+01801999999ADDGA1021+009001999GF102991999999999999999999MA1100911999999REMMET051METAR SBLP 202100Z 00000KT 9999 FEW030 32/18 Q1009;
0072832880999992011022110004-13267-043417FM-15+0443SBLP V0201201N001519999999Y0099001N1+02301+02001999999ADDMA1101491999999REMMET045METAR SBLP 211000Z 12003KT CAVOK 23/20 Q1015;
0072832880999992011022111004-13267-043417FM-15+0443SBLP V0201201N002619999999Y0099001N1+02501+02001999999ADDMA1101591999999REMMET045METAR SBLP 211100Z 12005KT CAVOK 25/20 Q1016;
0072832880999992011022112004-13267-043417FM-15+0443SBLP V0200601N002119999999Y0099001N1+02901+01901999999ADDMA1101591999999REMMET045METAR SBLP 211200Z 06004KT CAVOK 29/19 Q1016;
0120832880999992011022113004-13267-043417FM-15+0443SBLP V0200901N004112200019N0112651N1+03101+01901999999ADDGA1021+009001999GF102991999999999999999999MA1101591999999REMMET051METAR SBLP 211300Z 09008KT 9999 FEW030 31/19 Q1016;
0120832880999992011022114004-13267-043417FM-15+0443SBLP V0201801N001512200019N0112651N1+03201+01701999999ADDGA1041+009001999GF104991999999999999999999MA1101591999999REMMET051METAR SBLP 211400Z 18003KT 9999 SCT030 32/17 Q1016;
0120832880999992011022115004-13267-043417FM-15+0443SBLP V0201201N004112200019N0112651N1+03301+01801999999ADDGA1041+009001999GF104991999999999999999999MA1101491999999REMMET051METAR SBLP 211500Z 12008KT 9999 SCT030 33/18 Q1015;
0120832880999992011022116004-13267-043417FM-15+0443SBLP V0201801N003112200019N0112651N1+03401+01701999999ADDGA1041+009001999GF104991999999999999999999MA1101391999999REMMET051METAR SBLP 211600Z 18006KT 9999 SCT030 34/17 Q1014;
0104832880999992011022117004-13267-043417FM-15+0443SBLP V0201801N003112200019N0112651N1+03501+01701999999ADDGA1041+009001999GF104991999999999999999999REMMET050METAR SBLP 211700Z 18006KT 9999 SCT030 35/17 Q101;
0120832880999992011022118004-13267-043417FM-15+0443SBLP V0200901N003112200019N0112651N1+03601+01701999999ADDGA1041+009001999GF104991999999999999999999MA1101191999999REMMET051METAR SBLP 211800Z 09006KT 9999 SCT030 36/17 Q1012;
0120832880999992011022119004-13267-043417FM-15+0443SBLP V0200901N003112200019N0112651N1+03601+01701999999ADDGA1041+009001999GF104991999999999999999999MA1101081999999REMMET051METAR SBLP 211900Z 09006KT 9999 SCT030 36/17 Q1011;
0120832880999992011022120004-13267-043417FM-15+0443SBLP V0200901N003112200019N0112651N1+03501+01801999999ADDGA1041+009001999GF104991999999999999999999MA1101081999999REMMET051METAR SBLP 212000Z 09006KT 9999 SCT030 35/18 Q1011;
0120832880999992011022121004-13267-043417FM-15+0443SBLP V0201801N003112200019N0112651N1+03101+01901999999ADDGA1041+009001999GF104991999999999999999999MA1101081999999REMMET051METAR SBLP 212100Z 18006KT 9999 SCT030 31/19 Q1011;
0072832880999992011022210004-13267-043417FM-15+0443SBLP V0209999C000019999999Y0099001N1+02501+02001999999ADDMA1101491999999REMMET045METAR SBLP 221000Z 00000KT CAVOK 25/20 Q1015;
0072832880999992011022211004-13267-043417FM-15+0443SBLP V0203601N003119999999Y0099001N1+02801+02001999999ADDMA1101591999999REMMET045METAR SBLP 221100Z 36006KT CAVOK 28/20 Q1016;
0072832880999992011022212004-13267-043417FM-15+0443SBLP V0203601N003119999999Y0099001N1+03001+01901999999ADDMA1101591999999REMMET045METAR SBLP 221200Z 36006KT CAVOK 30/19 Q1016;
0072832880999992011022213004-13267-043417FM-15+0443SBLP V0203601N003119999999Y0099001N1+03201+01801999999ADDMA1101491999999REMMET045METAR SBLP 221300Z 36006KT CAVOK 32/18 Q1015;
0120832880999992011022214004-13267-043417FM-15+0443SBLP V0203601N003112200019N0112651N1+03201+01801999999ADDGA1021+009001999GF102991999999999999999999MA1101491999999REMMET051METAR SBLP 221400Z 36006KT 9999 FEW030 32/18 Q1015;
0120832880999992011022215004-13267-043417FM-15+0443SBLP V0202701N003112200019N0112651N1+03301+01801999999ADDGA1021+009001999GF102991999999999999999999MA1101391999999REMMET051METAR SBLP 221500Z 27006KT 9999 FEW030 33/18 Q1014;
0120832880999992011022216004-13267-043417FM-15+0443SBLP V0202401N002112200019N0112651N1+03401+01601999999ADDGA1021+009001999GF102991999999999999999999MA1101191999999REMMET051METAR SBLP 221600Z 24004KT 9999 FEW030 34/16 Q1012;
0120832880999992011022217004-13267-043417FM-15+0443SBLP V0202401N002112200019N0112651N1+03601+01701999999ADDGA1041+009001999GF104991999999999999999999MA1101081999999REMMET051METAR SBLP 221700Z 24004KT 9999 SCT030 36/17 Q1011;
0120832880999992011022218004-13267-043417FM-15+0443SBLP V0201301N002112200019N0112651N1+03701+01701999999ADDGA1041+009001999GF104991999999999999999999MA1101021999999REMMET051METAR SBLP 221800Z 13004KT 9999 SCT030 37/17 Q1010;
0120832880999992011022219004-13267-043417FM-15+0443SBLP V0201201N004112200019N0112651N1+03701+01601999999ADDGA1041+009001999GF104991999999999999999999MA1100911999999REMMET051METAR SBLP 221900Z 12008KT 9999 SCT030 37/16 Q1009;
0120832880999992011022220004-13267-043417FM-15+0443SBLP V0201801N004112200019N0112651N1+03701+01501999999ADDGA1021+009001999GF102991999999999999999999MA1100911999999REMMET051METAR SBLP 222000Z 18008KT 9999 FEW030 37/15 Q1009;
0120832880999992011022221004-13267-043417FM-15+0443SBLP V0201801N003112200019N0112651N1+03501+01501999999ADDGA1021+009001999GF102991999999999999999999MA1100911999999REMMET051METAR SBLP 222100Z 18006KT 9999 FEW030 35/15 Q1009;
0072832880999992011022310004-13267-043417FM-15+0443SBLP V0209999C000019999999Y0099001N1+02501+02001999999ADDMA1101191999999REMMET045METAR SBLP 231000Z 00000KT CAVOK 25/20 Q1012;
0072832880999992011022311004-13267-043417FM-15+0443SBLP V0209999C000019999999Y0099001N1+02801+02001999999ADDMA1101291999999REMMET045METAR SBLP 231100Z 00000KT CAVOK 28/20 Q1013;
0072832880999992011022312004-13267-043417FM-15+0443SBLP V0209999C000019999999Y0099001N1+03101+01801999999ADDMA1101291999999REMMET045METAR SBLP 231200Z 00000KT CAVOK 31/18 Q1013;
0072832880999992011022313004-13267-043417FM-15+0443SBLP V0209999C000019999999Y0099001N1+03201+01901999999ADDMA1101191999999REMMET045METAR SBLP 231300Z 00000KT CAVOK 32/19 Q1012;
0120832880999992011022314004-13267-043417FM-15+0443SBLP V0200301N001512200019N0112651N1+03401+01801999999ADDGA1021+009001999GF102991999999999999999999MA1101191999999REMMET051METAR SBLP 231400Z 03003KT 9999 FEW030 34/18 Q1012;
0120832880999992011022315004-13267-043417FM-15+0443SBLP V0200201N001512200019N0112651N1+03501+01901999999ADDGA1021+009001999GF102991999999999999999999MA1101081999999REMMET051METAR SBLP 231500Z 02003KT 9999 FEW030 35/19 Q1011;
0120832880999992011022316004-13267-043417FM-15+0443SBLP V0200901N003112200019N0112651N1+03501+01801999999ADDGA1021+009001999GF102991999999999999999999MA1100911999999REMMET051METAR SBLP 231600Z 09006KT 9999 FEW030 35/18 Q1009;
0120832880999992011022317004-13267-043417FM-15+0443SBLP V0201801N003112200019N0112651N1+03601+01701999999ADDGA1041+009001999GF104991999999999999999999MA1100811999999REMMET051METAR SBLP 231700Z 18006KT 9999 SCT030 36/17 Q1008;
0120832880999992011022318004-13267-043417FM-15+0443SBLP V0202701N003112200019N0112651N1+03701+01601999999ADDGA1041+009001999GF104991999999999999999999MA1100611999999REMMET051METAR SBLP 231800Z 27006KT 9999 SCT030 37/16 Q1006;
0120832880999992011022319004-13267-043417FM-15+0443SBLP V0202701N003112200019N0112651N1+03801+01601999999ADDGA1041+009001999GF104991999999999999999999MA1100511999999REMMET051METAR SBLP 231900Z 27006KT 9999 SCT030 38/16 Q1005;
0120832880999992011022320004-13267-043417FM-15+0443SBLP V0202701N003112200019N0112651N1+03601+01601999999ADDGA1041+009001999GF104991999999999999999999MA1100511999999REMMET051METAR SBLP 232000Z 27006KT 9999 SCT030 36/16 Q1005;
0120832880999992011022321004-13267-043417FM-15+0443SBLP V0202701N003112200019N0112651N1+03501+01601999999ADDGA1041+009001999GF104991999999999999999999MA1100511999999REMMET051METAR SBLP 232100Z 27006KT 9999 SCT030 35/16 Q1005;
0154832880999992011022410004-13267-043417FM-15+0443SBLP V0209999C000010090019N0080001N1+02501+02201999999ADDGA1071+009001999GA2071+030001999GF107991999999999999999999MA1101191999999MW1161REMMET063METAR SBLP 241000Z 00000KT 8000 VCSH BKN030 BKN100 25/22 Q1012;
0120832880999992011022411004-13267-043417FM-15+0443SBLP V0203301N001512200019N0112651N1+02601+02301999999ADDGA1021+009001999GF102991999999999999999999MA1101191999999REMMET051METAR SBLP 241100Z 33003KT 9999 FEW030 26/23 Q1012;
0143832880999992011022412004-13267-043417FM-15+0443SBLP V0200301N003110300019N0112651N1+02701+02201999999ADDGA1041+009001999GA2071+030001999GF107991999999999999999999MA1101291999999REMMET058METAR SBLP 241200Z 03006KT 9999 SCT030 BKN100 27/22 Q1013;
0144832880999992011022413004-13267-043417FM-15+0443SBLP V0203401N003110300019N0112651N1+02901+02201999999ADDGA1041+009001999GA2071+030001999GF107991999999999999999999MA1101391999999REMMET059METAR SBLP 241300Z 34006KT 9999 SCT030 BKN100 29/22 Q10142;
0130832880999992011022414004-13267-043417FM-15+0443SBLP V0203601N003110090019N0112651N1+02901+02201999999ADDGA1071+009001999GF107991999999999999999999MA1101291999999MW1611REMMET055METAR SBLP 241400Z 36006KT 9999 -RA BKN030 29/22 Q1013;
0186832880999992011022415004-13267-043417FM-15+0443SBLP V0202401N00511030001CN0112651N1+02501+02301999999ADDGA1021+009001091GA2071+009001999GA3071+030001999GF107991999999999999999999MA1101291999999MW1801MW2951REMMET073METAR SBLP 241500Z 24010KT 9999 -TSRA BKN030 FEW030CB BKN100 25/23 Q1013;
0186832880999992011022416004-13267-043417FM-15+0443SBLP V0202401N00151009001CN0112651N1+02501+02201999999ADDGA1041+008101999GA2021+009001091GA3071+030001999GF107991999999999999999999MA1101191999999MW1801MW2951REMMET073METAR SBLP 241600Z 24003KT 9999 -TSRA SCT027 FEW030CB BKN100 25/22 Q1012;
0148832880999992011022417004-13267-043417FM-15+0443SBLP V0203301N002112200019N0112651N1+02801+02301999999ADDGA1041+009001999GA2041+030001999GF104991999999999999999999MA1101021999999REMMET063METAR SBLP 241700Z 33004KT 9999 SCT030 SCT100 28/23 Q1010 RETS;
0120832880999992011022418004-13267-043417FM-15+0443SBLP V0203301N004112200019N0112651N1+03001+02301999999ADDGA1041+009001999GF104991999999999999999999MA1101021999999REMMET051METAR SBLP 241800Z 33008KT 9999 SCT030 30/23 Q1010;
0177832880999992011022419004-13267-043417FM-15+0443SBLP V0203601N004110300019N0112651N1+02801+02201999999ADDGA1021+009001091GA2021+009001999GA3071+030001999GF107991999999999999999999MA1101021999999MW1171REMMET070METAR SBLP 241900Z 36008KT 9999 TS FEW030 FEW030CB BKN100 28/22 Q1010;
0186832880999992011022420004-13267-043417FM-15+0443SBLP V0202701N00411009001CN0050001N1+02601+02201999999ADDGA1041+004501999GA2021+009001091GA3071+030001999GF107991999999999999999999MA1101191999999MW1801MW2951REMMET073METAR SBLP 242000Z 27008KT 5000 -TSRA SCT015 FEW030CB BKN100 26/22 Q1012;
0158832880999992011022421004-13267-043417FM-15+0443SBLP V0202101N001510039019N0080001N1+02301+02201999999ADDGA1071+003901999GA2071+030001999GF107991999999999999999999MA1101191999999MW1611REMMET067METAR SBLP 242100Z 21003KT 8000 -RA BKN013 BKN100 23/22 Q1012 RETS;
0152832880999992011022510004-13267-043417FM-15+0443SBLP V0209999C000010300019N0009001N1+02301+02201999999ADDGA1041+006001999GA2071+030001999GF107991999999999999999999MA1101391999999MW1441REMMET061METAR SBLP 251000Z 00000KT 0900 FG SCT020 BKN100 23/22 Q1014;
0143832880999992011022511004-13267-043417FM-15+0443SBLP V0200601N002110300019N0112651N1+02401+02301999999ADDGA1041+006001999GA2071+030001999GF107991999999999999999999MA1101391999999REMMET058METAR SBLP 251100Z 06004KT 9999 SCT020 BKN100 24/23 Q1014;
0143832880999992011022512004-13267-043417FM-15+0443SBLP V0209999C000010300019N0112651N1+02601+02201999999ADDGA1041+006001999GA2071+030001999GF107991999999999999999999MA1101391999999REMMET058METAR SBLP 251200Z 00000KT 9999 SCT020 BKN100 26/22 Q1014;
0143832880999992011022513004-13267-043417FM-15+0443SBLP V0209999C000012200019N0112651N1+02701+02301999999ADDGA1041+006001999GA2041+030001999GF104991999999999999999999MA1101391999999REMMET058METAR SBLP 251300Z 00000KT 9999 SCT020 SCT100 27/23 Q1014;
0120832880999992011022514004-13267-043417FM-15+0443SBLP V0202401N001512200019N0112651N1+02901+02301999999ADDGA1041+009001999GF104991999999999999999999MA1101391999999REMMET051METAR SBLP 251400Z 24003KT 9999 SCT030 29/23 Q1014;
0120832880999992011022515004-13267-043417FM-15+0443SBLP V0203301N002112200019N0112651N1+03101+02301999999ADDGA1041+009001999GF104991999999999999999999MA1101291999999REMMET051METAR SBLP 251500Z 33004KT 9999 SCT030 31/23 Q1013;
0120832880999992011022516004-13267-043417FM-15+0443SBLP V0202701N003112200019N0112651N1+03201+02201999999ADDGA1041+009001999GF104991999999999999999999MA1101081999999REMMET051METAR SBLP 251600Z 27006KT 9999 SCT030 32/22 Q1011;
0120832880999992011022517004-13267-043417FM-15+0443SBLP V0202701N003112200019N0112651N1+03201+02101999999ADDGA1041+009001999GF104991999999999999999999MA1101021999999REMMET051METAR SBLP 251700Z 27006KT 9999 SCT030 32/21 Q1010;
0120832880999992011022518004-13267-043417FM-15+0443SBLP V0202701N003112200019N0112651N1+03401+02001999999ADDGA1041+009001999GF104991999999999999999999MA1100911999999REMMET051METAR SBLP 251800Z 27006KT 9999 SCT030 34/20 Q1009;
0143832880999992011022519004-13267-043417FM-15+0443SBLP V0202701N003112200019N0112651N1+03401+02001999999ADDGA1041+009001999GA2041+030001999GF104991999999999999999999MA1100811999999REMMET058METAR SBLP 251900Z 27006KT 9999 SCT030 SCT100 34/20 Q1008;
0143832880999992011022520004-13267-043417FM-15+0443SBLP V0202701N003110300019N0112651N1+03201+02001999999ADDGA1041+009001999GA2071+030001999GF107991999999999999999999MA1100911999999REMMET058METAR SBLP 252000Z 27006KT 9999 SCT030 BKN100 32/20 Q1009;
0177832880999992011022521004-13267-043417FM-15+0443SBLP V0203601N00311012001CN0112651N1+03001+02101999999ADDGA1041+009001999GA2021+012001091GA3071+030001999GF107991999999999999999999MA1100911999999MW1171REMMET070METAR SBLP 252100Z 36006KT 9999 TS SCT030 FEW040CB BKN100 30/21 Q1009;
0153832880999992011022610004-13267-043417FM-15+0443SBLP V0209999C000010300019N0060001N1+02201+02101999999ADDGA1041+003001999GA2071+030001999GF107991999999999999999999MA1101291999999MW1611REMMET062METAR SBLP 261000Z 00000KT 6000 -RA SCT010 BKN100 22/21 Q1013;
0153832880999992011022611004-13267-043417FM-15+0443SBLP V0209999C000010300019N0060001N1+02301+02101999999ADDGA1041+003001999GA2081+030001999GF108991999999999999999999MA1101491999999MW1611REMMET062METAR SBLP 261100Z 00000KT 6000 -RA SCT010 OVC100 23/21 Q1015;
0143832880999992011022612004-13267-043417FM-15+0443SBLP V0209999C000010300019N0112651N1+02301+02101999999ADDGA1041+003001999GA2081+030001999GF108991999999999999999999MA1101491999999REMMET058METAR SBLP 261200Z 00000KT 9999 SCT010 OVC100 23/21 Q1015;
0143832880999992011022613004-13267-043417FM-15+0443SBLP V0209999C000010300019N0112651N1+02301+02101999999ADDGA1041+003001999GA2071+030001999GF107991999999999999999999MA1101491999999REMMET058METAR SBLP 261300Z 00000KT 9999 SCT010 BKN100 23/21 Q1015;
0143832880999992011022614004-13267-043417FM-15+0443SBLP V0209999C000010300019N0112651N1+02501+02101999999ADDGA1041+004501999GA2071+030001999GF107991999999999999999999MA1101391999999REMMET058METAR SBLP 261400Z 00000KT 9999 SCT015 BKN100 25/21 Q1014;
0143832880999992011022615004-13267-043417FM-15+0443SBLP V0209999C000010300019N0112651N1+02501+02101999999ADDGA1041+006001999GA2071+030001999GF107991999999999999999999MA1101291999999REMMET058METAR SBLP 261500Z 00000KT 9999 SCT020 BKN100 25/21 Q1013;
0143832880999992011022616004-13267-043417FM-15+0443SBLP V0209999C000010300019N0112651N1+02701+02101999999ADDGA1041+006001999GA2071+030001999GF107991999999999999999999MA1101191999999REMMET058METAR SBLP 261600Z 00000KT 9999 SCT020 BKN100 27/21 Q1012;
0143832880999992011022617004-13267-043417FM-15+0443SBLP V0209999C000010300019N0112651N1+02901+02201999999ADDGA1041+008101999GA2071+030001999GF107991999999999999999999MA1101081999999REMMET058METAR SBLP 261700Z 00000KT 9999 SCT027 BKN100 29/22 Q1011;
0143832880999992011022618004-13267-043417FM-15+0443SBLP V0209999C000012200019N0112651N1+03001+02101999999ADDGA1041+008101999GA2041+030001999GF104991999999999999999999MA1101021999999REMMET058METAR SBLP 261800Z 00000KT 9999 SCT027 SCT100 30/21 Q1010;
0120832880999992011022619004-13267-043417FM-15+0443SBLP V0203301N002612200019N0112651N1+03001+02101999999ADDGA1021+009001999GF102991999999999999999999MA1100911999999REMMET051METAR SBLP 261900Z 33005KT 9999 FEW030 30/21 Q1009;
0120832880999992011022620004-13267-043417FM-15+0443SBLP V0203001N002112200019N0112651N1+03001+02101999999ADDGA1021+009001999GF102991999999999999999999MA1100911999999REMMET051METAR SBLP 262000Z 30004KT 9999 FEW030 30/21 Q1009;
0120832880999992011022621004-13267-043417FM-15+0443SBLP V0209999C000012200019N0112651N1+02801+02001999999ADDGA1021+009001999GF102991999999999999999999MA1100911999999REMMET051METAR SBLP 262100Z 00000KT 9999 FEW030 28/20 Q1009;
0186832880999992011022710004-13267-043417FM-15+0443SBLP V0209999C00001012001CN0060001N1+02101+02101999999ADDGA1041+003001999GA2021+012001091GA3071+030001999GF107991999999999999999999MA1101291999999MW1801MW2951REMMET073METAR SBLP 271000Z 00000KT 6000 -TSRA SCT010 FEW040CB BKN100 21/21 Q1013;
0153832880999992011022711004-13267-043417FM-15+0443SBLP V0209999C000010300019N0090001N1+02101+02101999999ADDGA1041+003001999GA2081+030001999GF108991999999999999999999MA1101391999999MW1611REMMET062METAR SBLP 271100Z 00000KT 9000 -RA SCT010 OVC100 21/21 Q1014;
0153832880999992011022712004-13267-043417FM-15+0443SBLP V0209999C000010300019N0090001N1+02201+02101999999ADDGA1041+003001999GA2081+030001999GF108991999999999999999999MA1101491999999MW1611REMMET062METAR SBLP 271200Z 00000KT 9000 -RA SCT010 OVC100 22/21 Q1015;
0143832880999992011022713004-13267-043417FM-15+0443SBLP V0203601N003110300019N0112651N1+02301+02101999999ADDGA1041+003001999GA2071+030001999GF107991999999999999999999MA1101491999999REMMET058METAR SBLP 271300Z 36006KT 9999 SCT010 BKN100 23/21 Q1015;
0143832880999992011022714004-13267-043417FM-15+0443SBLP V0203601N003110300019N0112651N1+02501+02101999999ADDGA1041+004501999GA2071+030001999GF107991999999999999999999MA1101391999999REMMET058METAR SBLP 271400Z 36006KT 9999 SCT015 BKN100 25/21 Q1014;
0143832880999992011022715004-13267-043417FM-15+0443SBLP V0203601N003110300019N0112651N1+02601+02101999999ADDGA1021+006001999GA2071+030001999GF107991999999999999999999MA1101291999999REMMET058METAR SBLP 271500Z 36006KT 9999 FEW020 BKN100 26/21 Q1013;
0143832880999992011022716004-13267-043417FM-15+0443SBLP V0203101N002112200019N0112651N1+02701+02201999999ADDGA1021+006001999GA2041+030001999GF104991999999999999999999MA1101191999999REMMET058METAR SBLP 271600Z 31004KT 9999 FEW020 SCT100 27/22 Q1012;
0120832880999992011022717004-13267-043417FM-15+0443SBLP V0203001N002112200019N0112651N1+02901+02101999999ADDGA1021+006001999GF102991999999999999999999MA1101081999999REMMET051METAR SBLP 271700Z 30004KT 9999 FEW020 29/21 Q1011;
0120832880999992011022718004-13267-043417FM-15+0443SBLP V0203301N002612200019N0112651N1+03001+02101999999ADDGA1021+008101999GF102991999999999999999999MA1101021999999REMMET051METAR SBLP 271800Z 33005KT 9999 FEW027 30/21 Q1010;
0143832880999992011022719004-13267-043417FM-15+0443SBLP V0209999C000012200019N0112651N1+02901+02101999999ADDGA1021+008101999GA2041+030001999GF104991999999999999999999MA1100911999999REMMET058METAR SBLP 271900Z 00000KT 9999 FEW027 SCT100 29/21 Q1009;
0120832880999992011022720004-13267-043417FM-15+0443SBLP V0203601N001512200019N0112651N1+02901+02101999999ADDGA1021+008101999GF102991999999999999999999MA1100911999999REMMET051METAR SBLP 272000Z 36003KT 9999 FEW027 29/21 Q1009;
0120832880999992011022721004-13267-043417FM-15+0443SBLP V0209999C000012200019N0112651N1+02901+02201999999ADDGA1021+009001999GF102991999999999999999999MA1100911999999REMMET051METAR SBLP 272100Z 00000KT 9999 FEW030 29/22 Q1009;
0120832880999992011022810004-13267-043417FM-15+0443SBLP V0209999C000012200019N0112651N1+02301+02101999999ADDGA1041+006001999GF104991999999999999999999MA1101191999999REMMET051METAR SBLP 281000Z 00000KT 9999 SCT020 23/21 Q1012;
0120832880999992011022811004-13267-043417FM-15+0443SBLP V0202601N002112200019N0112651N1+02401+02001999999ADDGA1021+009001999GF102991999999999999999999MA1101291999999REMMET051METAR SBLP 281100Z 26004KT 9999 FEW030 24/20 Q1013;
0120832880999992011022812004-13267-043417FM-15+0443SBLP V0203301N003112200019N0112651N1+02701+02001999999ADDGA1021+009001999GF102991999999999999999999MA1101391999999REMMET051METAR SBLP 281200Z 33006KT 9999 FEW030 27/20 Q1014;
0120832880999992011022813004-13267-043417FM-15+0443SBLP V0209999C000012200019N0112651N1+02901+02001999999ADDGA1041+009001999GF104991999999999999999999MA1101291999999REMMET051METAR SBLP 281300Z 00000KT 9999 SCT030 29/20 Q1013;
0143832880999992011022814004-13267-043417FM-15+0443SBLP V0203101N001012200019N0112651N1+02901+02001999999ADDGA1041+009001999GA2041+030001999GF104991999999999999999999MA1101291999999REMMET058METAR SBLP 281400Z 31002KT 9999 SCT030 SCT100 29/20 Q1013;
0143832880999992011022815004-13267-043417FM-15+0443SBLP V0202701N002112200019N0112651N1+03101+02101999999ADDGA1041+009001999GA2041+030001999GF104991999999999999999999MA1101291999999REMMET058METAR SBLP 281500Z 27004KT 9999 SCT030 SCT100 31/21 Q1013;
0143832880999992011022816004-13267-043417FM-15+0443SBLP V0203601N003112200019N0112651N1+03101+02001999999ADDGA1041+009001999GA2041+030001999GF104991999999999999999999MA1101191999999REMMET058METAR SBLP 281600Z 36006KT 9999 SCT030 SCT100 31/20 Q1012;
0143832880999992011022817004-13267-043417FM-15+0443SBLP V0203101N003112200019N0112651N1+03201+02101999999ADDGA1041+009001999GA2041+030001999GF104991999999999999999999MA1101021999999REMMET058METAR SBLP 281700Z 31006KT 9999 SCT030 SCT100 32/21 Q1010;
0143832880999992011022818004-13267-043417FM-15+0443SBLP V0202701N003112200019N0112651N1+03201+02001999999ADDGA1021+009001999GA2041+030001999GF104991999999999999999999MA1100911999999REMMET058METAR SBLP 281800Z 27006KT 9999 FEW030 SCT100 32/20 Q1009;
0143832880999992011022819004-13267-043417FM-15+0443SBLP V0203501N003112200019N0112651N1+03301+02001999999ADDGA1021+009001999GA2041+030001999GF104991999999999999999999MA1100811999999REMMET058METAR SBLP 281900Z 35006KT 9999 FEW030 SCT100 33/20 Q1008;
0143832880999992011022820004-13267-043417FM-15+0443SBLP V0200901N003110300019N0112651N1+03101+02001999999ADDGA1021+009001999GA2071+030001999GF107991999999999999999999MA1100811999999REMMET058METAR SBLP 282000Z 09006KT 9999 FEW030 BKN100 31/20 Q1008;
0143832880999992011022821004-13267-043417FM-15+0443SBLP V0209999C000012200019N0112651N1+02901+02101999999ADDGA1021+009001999GA2041+030001999GF104991999999999999999999MA1100811999999REMMET058METAR SBLP 282100Z 00000KT 9999 FEW030 SCT100 29/21 Q1008;
0143832880999992011030110004-13267-043417FM-15+0443SBLP V0200901N003110300019N0112651N1+02301+02301999999ADDGA1021+009001999GA2071+030001999GF107991999999999999999999MA1101191999999REMMET058METAR SBLP 011000Z 09006KT 9999 FEW030 BKN100 23/23 Q1012;
0143832880999992011030111004-13267-043417FM-15+0443SBLP V0203501N003112200019N0112651N1+02601+02101999999ADDGA1021+009001999GA2041+030001999GF104991999999999999999999MA1101191999999REMMET058METAR SBLP 011100Z 35006KT 9999 FEW030 SCT100 26/21 Q1012;
0143832880999992011030112004-13267-043417FM-15+0443SBLP V0203501N003110300019N0112651N1+02801+02101999999ADDGA1021+009001999GA2071+030001999GF107991999999999999999999MA1101291999999REMMET058METAR SBLP 011200Z 35006KT 9999 FEW030 BKN100 28/21 Q1013;
0143832880999992011030114004-13267-043417FM-15+0443SBLP V0203601N003112200019N0112651N1+03001+02001999999ADDGA1041+009001999GA2041+030001999GF104991999999999999999999MA1101191999999REMMET058METAR SBLP 011400Z 36006KT 9999 SCT030 SCT100 30/20 Q1012;
0120832880999992011030115004-13267-043417FM-15+0443SBLP V0203301N003112200019N0112651N1+03101+02001999999ADDGA1041+009001999GF104991999999999999999999MA1101081999999REMMET051METAR SBLP 011500Z 33006KT 9999 SCT030 31/20 Q1011;
0120832880999992011030116004-13267-043417FM-15+0443SBLP V0203301N004112200019N0112651N1+03201+02101999999ADDGA1041+009001999GF104991999999999999999999MA1101021999999REMMET051METAR SBLP 011600Z 33008KT 9999 SCT030 32/21 Q1010;
0120832880999992011030117004-13267-043417FM-15+0443SBLP V0200201N003112200019N0112651N1+03301+02001999999ADDGA1041+009001999GF104991999999999999999999MA1100911999999REMMET051METAR SBLP 011700Z 02006KT 9999 SCT030 33/20 Q1009;
0120832880999992011030118004-13267-043417FM-15+0443SBLP V0200501N003112200019N0112651N1+03301+02001999999ADDGA1041+009001999GF104991999999999999999999MA1100811999999REMMET051METAR SBLP 011800Z 05006KT 9999 SCT030 33/20 Q1008;
0143832880999992011030119004-13267-043417FM-15+0443SBLP V0203501N003110300019N0112651N1+03201+02201999999ADDGA1021+009001999GA2071+030001999GF107991999999999999999999MA1100711999999REMMET058METAR SBLP 011900Z 35006KT 9999 FEW030 BKN100 32/22 Q1007;
0120832880999992011030120004-13267-043417FM-15+0443SBLP V0203601N003112200019N0112651N1+03201+02101999999ADDGA1021+009001999GF102991999999999999999999MA1100811999999REMMET051METAR SBLP 012000Z 36006KT 9999 FEW030 32/21 Q1008;
0120832880999992011030121004-13267-043417FM-15+0443SBLP V0200201N003112200019N0112651N1+03101+02201999999ADDGA1021+009001999GF102991999999999999999999MA1100811999999REMMET051METAR SBLP 012100Z 02006KT 9999 FEW030 31/22 Q1008;
0143832880999992011030210004-13267-043417FM-15+0443SBLP V0209999C000010300019N0112651N1+02301+02301999999ADDGA1041+004501999GA2071+030001999GF107991999999999999999999MA1101291999999REMMET058METAR SBLP 021000Z 00000KT 9999 SCT015 BKN100 23/23 Q1013;
0143832880999992011030211004-13267-043417FM-15+0443SBLP V0209999C000010300019N0112651N1+02501+02301999999ADDGA1041+004501999GA2071+030001999GF107991999999999999999999MA1101391999999REMMET058METAR SBLP 021100Z 00000KT 9999 SCT015 BKN100 25/23 Q1014;
0143832880999992011030212004-13267-043417FM-15+0443SBLP V0209999C000010300019N0112651N1+02501+02301999999ADDGA1041+004501999GA2071+030001999GF107991999999999999999999MA1101391999999REMMET058METAR SBLP 021200Z 00000KT 9999 SCT015 BKN100 25/23 Q1014;
0143832880999992011030213004-13267-043417FM-15+0443SBLP V0209999C000010300019N0112651N1+02701+02201999999ADDGA1041+006001999GA2071+030001999GF107991999999999999999999MA1101391999999REMMET058METAR SBLP 021300Z 00000KT 9999 SCT020 BKN100 27/22 Q1014;
0143832880999992011030214004-13267-043417FM-15+0443SBLP V0209999C000012200019N0112651N1+02901+02201999999ADDGA1041+006001999GA2041+030001999GF104991999999999999999999MA1101391999999REMMET058METAR SBLP 021400Z 00000KT 9999 SCT020 SCT100 29/22 Q1014;
0143832880999992011030215004-13267-043417FM-15+0443SBLP V0202101N003110300019N0112651N1+02701+02301999999ADDGA1041+006001999GA2071+030001999GF107991999999999999999999MA1101291999999REMMET058METAR SBLP 021500Z 21006KT 9999 SCT020 BKN100 27/23 Q1013;
0148832880999992011030216004-13267-043417FM-15+0443SBLP V0202101N003112200019N0112651N1+02801+02101999999ADDGA1041+009001999GA2041+030001999GF104991999999999999999999MA1101191999999REMMET063METAR SBLP 021600Z 21006KT 9999 SCT030 SCT100 28/21 Q1012 RERA;
0169832880999992011030217004-13267-043417FM-15+0443SBLP V0202201N003112200019N0112651N1+03001+02301999999ADDGA1041+009001999GA2021+009001021GA3041+030001999GF104991999999999999999999MA1101081999999REMMET068METAR SBLP 021700Z 22006KT 9999 SCT030 FEW030TCU SCT100 30/23 Q1011;
0143832880999992011030218004-13267-043417FM-15+0443SBLP V0202701N003112200019N0112651N1+03001+02301999999ADDGA1041+009001999GA2041+030001999GF104991999999999999999999MA1101021999999REMMET058METAR SBLP 021800Z 27006KT 9999 SCT030 SCT100 30/23 Q1010;
0120832880999992011030219004-13267-043417FM-15+0443SBLP V0209999C000012200019N0112651N1+03101+02201999999ADDGA1021+009001999GF102991999999999999999999MA1100911999999REMMET051METAR SBLP 021900Z 00000KT 9999 FEW030 31/22 Q1009;
0120832880999992011030220004-13267-043417FM-15+0443SBLP V0202301N002112200019N0112651N1+03101+02101999999ADDGA1021+009001999GF102991999999999999999999MA1100811999999REMMET051METAR SBLP 022000Z 23004KT 9999 FEW030 31/21 Q1008;
0072832880999992011030221004-13267-043417FM-15+0443SBLP V0201801N002119999999Y0099001N1+02901+02201999999ADDMA1100811999999REMMET045METAR SBLP 022100Z 18004KT CAVOK 29/22 Q1008;
0120832880999992011030310004-13267-043417FM-15+0443SBLP V0209999C000012200019N0112651N1+02401+02301999999ADDGA1041+009001999GF104991999999999999999999MA1101191999999REMMET051METAR SBLP 031000Z 00000KT 9999 SCT030 24/23 Q1012;
0120832880999992011030311004-13267-043417FM-15+0443SBLP V0209999C000012200019N0112651N1+02601+02301999999ADDGA1041+009001999GF104991999999999999999999MA1101291999999REMMET051METAR SBLP 031100Z 00000KT 9999 SCT030 26/23 Q1013;
0120832880999992011030312004-13267-043417FM-15+0443SBLP V0201001N001512200019N0112651N1+02701+02301999999ADDGA1041+009001999GF104991999999999999999999MA1101391999999REMMET051METAR SBLP 031200Z 10003KT 9999 SCT030 27/23 Q1014;
0120832880999992011030313004-13267-043417FM-15+0443SBLP V0200301N002112200019N0112651N1+03001+02301999999ADDGA1021+009001999GF102991999999999999999999MA1101291999999REMMET051METAR SBLP 031300Z 03004KT 9999 FEW030 30/23 Q1013;
0120832880999992011030314004-13267-043417FM-15+0443SBLP V0200301N003112200019N0112651N1+03101+02201999999ADDGA1041+009001999GF104991999999999999999999MA1101291999999REMMET051METAR SBLP 031400Z 03006KT 9999 SCT030 31/22 Q1013;
0120832880999992011030315004-13267-043417FM-15+0443SBLP V0203401N003110090019N0112651N1+03201+02201999999ADDGA1071+009001999GF107991999999999999999999MA1101191999999REMMET051METAR SBLP 031500Z 34006KT 9999 BKN030 32/22 Q1012;
0120832880999992011030316004-13267-043417FM-15+0443SBLP V0203601N003112200019N0112651N1+03201+02201999999ADDGA1041+009001999GF104991999999999999999999MA1101081999999REMMET051METAR SBLP 031600Z 36006KT 9999 SCT030 32/22 Q1011;
0120832880999992011030317004-13267-043417FM-15+0443SBLP V0203601N003112200019N0112651N1+03301+02101999999ADDGA1041+009001999GF104991999999999999999999MA1101021999999REMMET051METAR SBLP 031700Z 36006KT 9999 SCT030 33/21 Q1010;
0120832880999992011030318004-13267-043417FM-15+0443SBLP V0203601N003112200019N0112651N1+03501+02001999999ADDGA1041+003001999GF104991999999999999999999MA1100911999999REMMET051METAR SBLP 031800Z 36006KT 9999 SCT010 35/20 Q1009;
0120832880999992011030319004-13267-043417FM-15+0443SBLP V0203601N003112200019N0112651N1+03401+02001999999ADDGA1041+009001999GF104991999999999999999999MA1100811999999REMMET051METAR SBLP 031900Z 36006KT 9999 SCT030 34/20 Q1008;
0120832880999992011030320004-13267-043417FM-15+0443SBLP V0203601N003112200019N0112651N1+03401+02001999999ADDGA1041+009001999GF104991999999999999999999MA1100811999999REMMET051METAR SBLP 032000Z 36006KT 9999 SCT030 34/20 Q1008;
0120832880999992011030321004-13267-043417FM-15+0443SBLP V0203601N003112200019N0112651N1+03301+02001999999ADDGA1041+009001999GF104991999999999999999999MA1100811999999REMMET051METAR SBLP 032100Z 36006KT 9999 SCT030 33/20 Q1008;
0143832880999992011030410004-13267-043417FM-15+0443SBLP V0209999C000010300019N0112651N1+02301+02101999999ADDGA1021+006001999GA2071+030001999GF107991999999999999999999MA1101191999999REMMET058METAR SBLP 041000Z 00000KT 9999 FEW020 BKN100 23/21 Q1012;
0143832880999992011030411004-13267-043417FM-15+0443SBLP V0209999C000010300019N0112651N1+02401+02101999999ADDGA1021+006001999GA2071+030001999GF107991999999999999999999MA1101291999999REMMET058METAR SBLP 041100Z 00000KT 9999 FEW020 BKN100 24/21 Q1013;
0143832880999992011030412004-13267-043417FM-15+0443SBLP V0209999C000010300019N0112651N1+02501+02101999999ADDGA1021+006001999GA2071+030001999GF107991999999999999999999MA1101391999999REMMET058METAR SBLP 041200Z 00000KT 9999 FEW020 BKN100 25/21 Q1014;
0143832880999992011030413004-13267-043417FM-15+0443SBLP V0203601N003112200019N0112651N1+02701+02101999999ADDGA1041+006001999GA2041+030001999GF104991999999999999999999MA1101391999999REMMET058METAR SBLP 041300Z 36006KT 9999 SCT020 SCT100 27/21 Q1014;
0143832880999992011030414004-13267-043417FM-15+0443SBLP V0203601N003112200019N0112651N1+02901+02101999999ADDGA1041+006001999GA2041+030001999GF104991999999999999999999MA1101291999999REMMET058METAR SBLP 041400Z 36006KT 9999 SCT020 SCT100 29/21 Q1013;
0120832880999992011030415004-13267-043417FM-15+0443SBLP V0203601N003112200019N0112651N1+03001+02101999999ADDGA1041+009001999GF104991999999999999999999MA1101191999999REMMET051METAR SBLP 041500Z 36006KT 9999 SCT030 30/21 Q1012;
0120832880999992011030416004-13267-043417FM-15+0443SBLP V0203001N002112200019N0112651N1+03101+02201999999ADDGA1041+009001999GF104991999999999999999999MA1101081999999REMMET051METAR SBLP 041600Z 30004KT 9999 SCT030 31/22 Q1011;
0143832880999992011030417004-13267-043417FM-15+0443SBLP V0202701N003112200019N0112651N1+03101+02201999999ADDGA1041+009001999GA2041+030001999GF104991999999999999999999MA1101021999999REMMET058METAR SBLP 041700Z 27006KT 9999 SCT030 SCT100 31/22 Q1010;
0169832880999992011030418004-13267-043417FM-15+0443SBLP V0202301N002112200019N0112651N1+03101+02201999999ADDGA1041+009001999GA2021+009001021GA3041+030001999GF104991999999999999999999MA1101021999999REMMET068METAR SBLP 041800Z 23004KT 9999 SCT030 FEW030TCU SCT100 31/22 Q1010;
0169832880999992011030419004-13267-043417FM-15+0443SBLP V0201301N004112200019N0112651N1+02901+02301999999ADDGA1041+009001999GA2021+009001021GA3041+030001999GF104991999999999999999999MA1101021999999REMMET068METAR SBLP 041900Z 13008KT 9999 SCT030 FEW030TCU SCT100 29/23 Q1010;
0143832880999992011030420004-13267-043417FM-15+0443SBLP V0201301N002112200019N0112651N1+02701+02201999999ADDGA1021+009001999GA2041+030001999GF104991999999999999999999MA1100911999999REMMET058METAR SBLP 042000Z 13004KT 9999 FEW030 SCT100 27/22 Q1009;
0143832880999992011030421004-13267-043417FM-15+0443SBLP V0201301N002110300019N0112651N1+02701+02101999999ADDGA1021+009001999GA2071+030001999GF107991999999999999999999MA1101021999999REMMET058METAR SBLP 042100Z 13004KT 9999 FEW030 BKN100 27/21 Q1010;
0153832880999992011030510004-13267-043417FM-15+0443SBLP V0203501N002110270019N0112651N1+02201+02101999999ADDGA1041+003901999GA2081+027001999GF108991999999999999999999MA1101391999999MW1611REMMET062METAR SBLP 051000Z 35004KT 9999 -RA SCT013 OVC090 22/21 Q1014;
0153832880999992011030511004-13267-043417FM-15+0443SBLP V0209999C000010270019N0112651N1+02201+02101999999ADDGA1041+003001999GA2071+027001999GF107991999999999999999999MA1101491999999MW1611REMMET062METAR SBLP 051100Z 00000KT 9999 -RA SCT010 BKN090 22/21 Q1015;
0153832880999992011030512004-13267-043417FM-15+0443SBLP V0203001N001510270019N0080001N1+02201+02201999999ADDGA1041+002101999GA2081+027001999GF108991999999999999999999MA1101491999999MW1611REMMET062METAR SBLP 051200Z 30003KT 8000 -RA SCT007 OVC090 22/22 Q1015;
0153832880999992011030514004-13267-043417FM-15+0443SBLP V0201801N002110270019N0112651N1+02301+02101999999ADDGA1041+004501999GA2071+027001999GF107991999999999999999999MA1101591999999MW1611REMMET062METAR SBLP 051400Z 18004KT 9999 -RA SCT015 BKN090 23/21 Q1016;
0153832880999992011030515004-13267-043417FM-15+0443SBLP V0201801N001510270019N0112651N1+02301+02201999999ADDGA1041+004501999GA2071+027001999GF107991999999999999999999MA1101491999999MW1611REMMET062METAR SBLP 051500Z 18003KT 9999 -RA SCT015 BKN090 23/22 Q1015;
0143832880999992011030516004-13267-043417FM-15+0443SBLP V0201201N002110270019N0112651N1+02401+02201999999ADDGA1041+004501999GA2071+027001999GF107991999999999999999999MA1101391999999REMMET058METAR SBLP 051600Z 12004KT 9999 SCT015 BKN090 24/22 Q1014;
0143832880999992011030517004-13267-043417FM-15+0443SBLP V0209999C000010045019N0112651N1+02401+02201999999ADDGA1071+004501999GA2071+030001999GF107991999999999999999999MA1101291999999REMMET058METAR SBLP 051700Z 00000KT 9999 BKN015 BKN100 24/22 Q1013;
0143832880999992011030518004-13267-043417FM-15+0443SBLP V0209999C000010300019N0112651N1+02601+02201999999ADDGA1041+006001999GA2071+030001999GF107991999999999999999999MA1101081999999REMMET058METAR SBLP 051800Z 00000KT 9999 SCT020 BKN100 26/22 Q1011;
0143832880999992011030519004-13267-043417FM-15+0443SBLP V0202101N002110300019N0112651N1+02601+02201999999ADDGA1041+006001999GA2071+030001999GF107991999999999999999999MA1101081999999REMMET058METAR SBLP 051900Z 21004KT 9999 SCT020 BKN100 26/22 Q1011;
0143832880999992011030520004-13267-043417FM-15+0443SBLP V0201801N002110300019N0112651N1+02701+02101999999ADDGA1021+006001999GA2071+030001999GF107991999999999999999999MA1101081999999REMMET058METAR SBLP 052000Z 18004KT 9999 FEW020 BKN100 27/21 Q1011;
0143832880999992011030521004-13267-043417FM-15+0443SBLP V0202001N002112200019N0112651N1+02501+02301999999ADDGA1021+006001999GA2041+030001999GF104991999999999999999999MA1101081999999REMMET058METAR SBLP 052100Z 20004KT 9999 FEW020 SCT100 25/23 Q1011;
0131832880999992011030610004-13267-043417FM-15+0443SBLP V0209999C000010030019N0080001N1+02201+02201999999ADDGA1071+003001999GF107991999999999999999999MA1101191999999MW1411REMMET056METAR SBLP 061000Z 00000KT 8000 BCFG BKN010 22/22 Q1012;
0153832880999992011030611004-13267-043417FM-15+0443SBLP V0209999C000010045019N0050001N1+02201+02201999999ADDGA1071+004501999GA2071+027001999GF107991999999999999999999MA1101291999999MW1611REMMET062METAR SBLP 061100Z 00000KT 5000 -RA BKN015 BKN090 22/22 Q1013;
0153832880999992011030612004-13267-043417FM-15+0443SBLP V0200301N002112200019N0112651N1+02501+02301999999ADDGA1041+004501999GA2041+030001999GF104991999999999999999999MA1101391999999MW1611REMMET062METAR SBLP 061200Z 03004KT 9999 -RA SCT015 SCT100 25/23 Q1014;
0143832880999992011030613004-13267-043417FM-15+0443SBLP V0200301N001512200019N0112651N1+02601+02301999999ADDGA1021+006001999GA2041+030001999GF104991999999999999999999MA1101391999999REMMET058METAR SBLP 061300Z 03003KT 9999 FEW020 SCT100 26/23 Q1014;
0120832880999992011030614004-13267-043417FM-15+0443SBLP V0200101N001012200019N0112651N1+02801+02301999999ADDGA1041+008101999GF104991999999999999999999MA1101291999999REMMET051METAR SBLP 061400Z 01002KT 9999 SCT027 28/23 Q1013;
0120832880999992011030615004-13267-043417FM-15+0443SBLP V0209999C000012200019N0112651N1+02901+02201999999ADDGA1041+008101999GF104991999999999999999999MA1101191999999REMMET051METAR SBLP 061500Z 00000KT 9999 SCT027 29/22 Q1012;
0143832880999992011030616004-13267-043417FM-15+0443SBLP V0202701N003112200019N0112651N1+03001+02201999999ADDGA1041+008101999GA2041+030001999GF104991999999999999999999MA1101081999999REMMET058METAR SBLP 061600Z 27006KT 9999 SCT027 SCT100 30/22 Q1011;
0143832880999992011030617004-13267-043417FM-15+0443SBLP V0203001N002112200019N0112651N1+03001+02201999999ADDGA1021+009001999GA2041+030001999GF104991999999999999999999MA1101021999999REMMET058METAR SBLP 061700Z 30004KT 9999 FEW030 SCT100 30/22 Q1010;
0143832880999992011030618004-13267-043417FM-15+0443SBLP V0203001N003110300019N0112651N1+03101+02201999999ADDGA1041+009001999GA2071+030001999GF107991999999999999999999MA1100911999999REMMET058METAR SBLP 061800Z 30006KT 9999 SCT030 BKN100 31/22 Q1009;
0143832880999992011030619004-13267-043417FM-15+0443SBLP V0209999C000010300019N0112651N1+03201+02201999999ADDGA1041+009001999GA2071+030001999GF107991999999999999999999MA1100911999999REMMET058METAR SBLP 061900Z 00000KT 9999 SCT030 BKN100 32/22 Q1009;
0143832880999992011030620004-13267-043417FM-15+0443SBLP V0209999C000010300019N0112651N1+03001+02201999999ADDGA1021+009001999GA2071+030001999GF107991999999999999999999MA1100911999999REMMET058METAR SBLP 062000Z 00000KT 9999 FEW030 BKN100 30/22 Q1009;
0143832880999992011030621004-13267-043417FM-15+0443SBLP V0209999C000010300019N0112651N1+03001+02301999999ADDGA1021+009001999GA2071+030001999GF107991999999999999999999MA1100911999999REMMET058METAR SBLP 062100Z 00000KT 9999 FEW030 BKN100 30/23 Q1009;
0143832880999992011030710004-13267-043417FM-15+0443SBLP V0209999C000012200019N0112651N1+02301+02201999999ADDGA1021+006001999GA2041+030001999GF104991999999999999999999MA1101291999999REMMET058METAR SBLP 071000Z 00000KT 9999 FEW020 SCT100 23/22 Q1013;
0143832880999992011030711004-13267-043417FM-15+0443SBLP V0201201N002110300019N0112651N1+02401+02301999999ADDGA1041+006001999GA2071+030001999GF107991999999999999999999MA1101391999999REMMET058METAR SBLP 071100Z 12004KT 9999 SCT020 BKN100 24/23 Q1014;
0143832880999992011030712004-13267-043417FM-15+0443SBLP V0209999C000012200019N0112651N1+02701+02201999999ADDGA1021+006001999GA2041+030001999GF104991999999999999999999MA1101391999999REMMET058METAR SBLP 071200Z 00000KT 9999 FEW020 SCT100 27/22 Q1014;
0143832880999992011030713004-13267-043417FM-15+0443SBLP V0209999C000012200019N0112651N1+02801+02201999999ADDGA1021+008101999GA2041+030001999GF104991999999999999999999MA1101391999999REMMET058METAR SBLP 071300Z 00000KT 9999 FEW027 SCT100 28/22 Q1014;
0120832880999992011030715004-13267-043417FM-15+0443SBLP V0209999C000012200019N0112651N1+03101+02101999999ADDGA1041+008101999GF104991999999999999999999MA1101291999999REMMET051METAR SBLP 071500Z 00000KT 9999 SCT027 31/21 Q1013;
0143832880999992011030716004-13267-043417FM-15+0443SBLP V0203601N002110300019N0112651N1+03201+02201999999ADDGA1041+009001999GA2071+030001999GF107991999999999999999999MA1101191999999REMMET058METAR SBLP 071600Z 36004KT 9999 SCT030 BKN100 32/22 Q1012;
0143832880999992011030717004-13267-043417FM-15+0443SBLP V0203601N003110300019N0112651N1+03001+02301999999ADDGA1041+009001999GA2071+030001999GF107991999999999999999999MA1101081999999REMMET058METAR SBLP 071700Z 36006KT 9999 SCT030 BKN100 30/23 Q1011;
0143832880999992011030718004-13267-043417FM-15+0443SBLP V0201801N004110300019N0112651N1+02901+02401999999ADDGA1021+009001999GA2071+030001999GF107991999999999999999999MA1101021999999REMMET058METAR SBLP 071800Z 18008KT 9999 FEW030 BKN100 29/24 Q1010;
0143832880999992011030719004-13267-043417FM-15+0443SBLP V0201801N004110300019N0112651N1+02801+02401999999ADDGA1021+009001999GA2071+030001999GF107991999999999999999999MA1101021999999REMMET058METAR SBLP 071900Z 18008KT 9999 FEW030 BKN100 28/24 Q1010;
0143832880999992011030720004-13267-043417FM-15+0443SBLP V0201801N003110300019N0112651N1+02701+02301999999ADDGA1021+009001999GA2071+030001999GF107991999999999999999999MA1101021999999REMMET058METAR SBLP 072000Z 18006KT 9999 FEW030 BKN100 27/23 Q1010;
0143832880999992011030721004-13267-043417FM-15+0443SBLP V0201801N002110300019N0112651N1+02701+02301999999ADDGA1021+009001999GA2071+030001999GF107991999999999999999999MA1101021999999REMMET058METAR SBLP 072100Z 18004KT 9999 FEW030 BKN100 27/23 Q1010;
0143832880999992011030810004-13267-043417FM-15+0443SBLP V0202701N002112200019N0112651N1+02301+02101999999ADDGA1041+009001999GA2041+030001999GF104991999999999999999999MA1101391999999REMMET058METAR SBLP 081000Z 27004KT 9999 SCT030 SCT100 23/21 Q1014;
0072832880999992011030811004-13267-043417FM-15+0443SBLP V0202901N002119999999Y0099001N1+02501+02101999999ADDMA1101491999999REMMET045METAR SBLP 081100Z 29004KT CAVOK 25/21 Q1015;
0120832880999992011030812004-13267-043417FM-15+0443SBLP V0203001N002112200019N0112651N1+02701+02101999999ADDGA1041+009001999GF104991999999999999999999MA1101491999999REMMET051METAR SBLP 081200Z 30004KT 9999 SCT030 27/21 Q1015;
0120832880999992011030813004-13267-043417FM-15+0443SBLP V0203001N003112200019N0112651N1+02701+02201999999ADDGA1041+009001999GF104991999999999999999999MA1101591999999REMMET051METAR SBLP 081300Z 30006KT 9999 SCT030 27/22 Q1016;
0120832880999992011030814004-13267-043417FM-15+0443SBLP V0203101N004110090019N0112651N1+02801+02201999999ADDGA1071+009001999GF107991999999999999999999MA1101491999999REMMET051METAR SBLP 081400Z 31008KT 9999 BKN030 28/22 Q1015;
0120832880999992011030815004-13267-043417FM-15+0443SBLP V0202701N004112200019N0112651N1+02901+02201999999ADDGA1041+009001999GF104991999999999999999999MA1101491999999REMMET051METAR SBLP 081500Z 27008KT 9999 SCT030 29/22 Q1015;
0120832880999992011030816004-13267-043417FM-15+0443SBLP V0202701N003112200019N0112651N1+03101+02101999999ADDGA1041+009001999GF104991999999999999999999MA1101291999999REMMET051METAR SBLP 081600Z 27006KT 9999 SCT030 31/21 Q1013;
0120832880999992011030817004-13267-043417FM-15+0443SBLP V0202701N003110090019N0112651N1+03101+02101999999ADDGA1071+009001999GF107991999999999999999999MA1101191999999REMMET051METAR SBLP 081700Z 27006KT 9999 BKN030 31/21 Q1012;
0120832880999992011030818004-13267-043417FM-15+0443SBLP V0203601N003110090019N0112651N1+03101+02101999999ADDGA1071+009001999GF107991999999999999999999MA1101081999999REMMET051METAR SBLP 081800Z 36006KT 9999 BKN030 31/21 Q1011;
0143832880999992011030819004-13267-043417FM-15+0443SBLP V0203601N003112200019N0112651N1+03001+02101999999ADDGA1041+009001999GA2041+030001999GF104991999999999999999999MA1101081999999REMMET058METAR SBLP 081900Z 36006KT 9999 SCT030 SCT100 30/21 Q1011;
0143832880999992011030820004-13267-043417FM-15+0443SBLP V0200901N006210300019N0112651N1+02901+02101999999ADDGA1041+009001999GA2071+030001999GF107991999999999999999999MA1101081999999REMMET058METAR SBLP 082000Z 09012KT 9999 SCT030 BKN100 29/21 Q1011;
0177832880999992011030821004-13267-043417FM-15+0443SBLP V0200901N00621012001CN0112651N1+02701+02101999999ADDGA1041+009001999GA2021+012001091GA3071+030001999GF107991999999999999999999MA1101191999999MW1171REMMET070METAR SBLP 082100Z 09012KT 9999 TS SCT030 FEW040CB BKN100 27/21 Q1012;
0072832880999992011030910004-13267-043417FM-15+0443SBLP V0209999C000019999999Y0099001N1+02201+02101999999ADDMA1101291999999REMMET045METAR SBLP 091000Z 00000KT CAVOK 22/21 Q1013;
0120832880999992011030911004-13267-043417FM-15+0443SBLP V0209999C000012200019N0112651N1+02301+02101999999ADDGA1021+003001999GF102991999999999999999999MA1101391999999REMMET051METAR SBLP 091100Z 00000KT 9999 FEW010 23/21 Q1014;
0120832880999992011030913004-13267-043417FM-15+0443SBLP V0200901N003112200019N0112651N1+02801+02101999999ADDGA1041+004501999GF104991999999999999999999MA1101391999999REMMET051METAR SBLP 091300Z 09006KT 9999 SCT015 28/21 Q1014;
0120832880999992011030914004-13267-043417FM-15+0443SBLP V0200901N003112200019N0112651N1+03001+02101999999ADDGA1021+006001999GF102991999999999999999999MA1101391999999REMMET051METAR SBLP 091400Z 09006KT 9999 FEW020 30/21 Q1014;
0120832880999992011030915004-13267-043417FM-15+0443SBLP V0203601N003112200019N0112651N1+03001+02101999999ADDGA1041+009001999GF104991999999999999999999MA1101291999999REMMET051METAR SBLP 091500Z 36006KT 9999 SCT030 30/21 Q1013;
0120832880999992011030916004-13267-043417FM-15+0443SBLP V0201701N001512200019N0112651N1+03201+02201999999ADDGA1041+009001999GF104991999999999999999999MA1101191999999REMMET051METAR SBLP 091600Z 17003KT 9999 SCT030 32/22 Q1012;
0120832880999992011030917004-13267-043417FM-15+0443SBLP V0202501N002112200019N0112651N1+03201+02101999999ADDGA1021+009001999GF102991999999999999999999MA1101021999999REMMET051METAR SBLP 091700Z 25004KT 9999 FEW030 32/21 Q1010;
0120832880999992011030918004-13267-043417FM-15+0443SBLP V0209999C000012200019N0112651N1+03401+02001999999ADDGA1021+009001999GF102991999999999999999999MA1100911999999REMMET051METAR SBLP 091800Z 00000KT 9999 FEW030 34/20 Q1009;
0120832880999992011030919004-13267-043417FM-15+0443SBLP V0202401N001512200019N0112651N1+03301+01801999999ADDGA1021+009001999GF102991999999999999999999MA1100811999999REMMET051METAR SBLP 091900Z 24003KT 9999 FEW030 33/18 Q1008;
0120832880999992011030920004-13267-043417FM-15+0443SBLP V0202701N001512200019N0112651N1+03401+01801999999ADDGA1021+009001999GF102991999999999999999999MA1100811999999REMMET051METAR SBLP 092000Z 27003KT 9999 FEW030 34/18 Q1008;
0120832880999992011030921004-13267-043417FM-15+0443SBLP V0202701N001512200019N0112651N1+03201+01901999999ADDGA1021+009001999GF102991999999999999999999MA1100811999999REMMET051METAR SBLP 092100Z 27003KT 9999 FEW030 32/19 Q1008;
0143832880999992011031010004-13267-043417FM-15+0443SBLP V0202101N001510300019N0112651N1+02401+02301999999ADDGA1041+004501999GA2071+030001999GF107991999999999999999999MA1101191999999REMMET058METAR SBLP 101000Z 21003KT 9999 SCT015 BKN100 24/23 Q1012;
0143832880999992011031011004-13267-043417FM-15+0443SBLP V0202101N003110300019N0112651N1+02401+02301999999ADDGA1041+004501999GA2071+030001999GF107991999999999999999999MA1101191999999REMMET058METAR SBLP 101100Z 21006KT 9999 SCT015 BKN100 24/23 Q1012;
0177832880999992011031012004-13267-043417FM-15+0443SBLP V0202101N00311009001CN0112651N1+02501+02301999999ADDGA1041+003001999GA2021+009001091GA3071+030001999GF107991999999999999999999MA1101291999999MW1171REMMET070METAR SBLP 101200Z 21006KT 9999 TS SCT010 FEW030CB BKN100 25/23 Q1013;
0185832880999992011031013004-13267-043417FM-15+0443SBLP V0200301N003110045019N0050001N1+02301+02301999999ADDGA1071+004501999GA2021+009001091GA3071+030001999GF107991999999999999999999MA1101391999999MW1811MW2951REMMET072METAR SBLP 101300Z 03006KT 5000 TSRA BKN015 FEW030CB BKN100 23/23 Q1014;
0160832880999992011031014004-13267-043417FM-15+0443SBLP V0200601N003110045019N0080001N1+02201+02101999999ADDGA1071+004501999GA2071+030001999GF107991999999999999999999MA1101391999999MW1611REMMET069METAR SBLP 101400Z 06006KT 8000 -RA BKN015 BKN100 22/21 Q1014 RETSRA;
0143832880999992011031016004-13267-043417FM-15+0443SBLP V0200901N003110300019N0112651N1+02601+02201999999ADDGA1041+006001999GA2071+030001999GF107991999999999999999999MA1101191999999REMMET058METAR SBLP 101600Z 09006KT 9999 SCT020 BKN100 26/22 Q1012;
0143832880999992011031017004-13267-043417FM-15+0443SBLP V0203601N003110300019N0112651N1+02801+02101999999ADDGA1041+006001999GA2071+030001999GF107991999999999999999999MA1101081999999REMMET058METAR SBLP 101700Z 36006KT 9999 SCT020 BKN100 28/21 Q1011;
0143832880999992011031018004-13267-043417FM-15+0443SBLP V0200801N003110300019N0112651N1+02901+02101999999ADDGA1041+004501999GA2071+030001999GF107991999999999999999999MA1101021999999REMMET058METAR SBLP 101800Z 08006KT 9999 SCT015 BKN100 29/21 Q1010;
0143832880999992011031019004-13267-043417FM-15+0443SBLP V0201201N003110300019N0112651N1+02801+02201999999ADDGA1041+006001999GA2071+030001999GF107991999999999999999999MA1101021999999REMMET058METAR SBLP 101900Z 12006KT 9999 SCT020 BKN100 28/22 Q1010;
0143832880999992011031020004-13267-043417FM-15+0443SBLP V0201201N003110300019N0112651N1+02601+02301999999ADDGA1041+004501999GA2071+030001999GF107991999999999999999999MA1101021999999REMMET058METAR SBLP 102000Z 12006KT 9999 SCT015 BKN100 26/23 Q1010;
0143832880999992011031021004-13267-043417FM-15+0443SBLP V0201401N002110300019N0112651N1+02401+02401999999ADDGA1041+004501999GA2071+030001999GF107991999999999999999999MA1101021999999REMMET058METAR SBLP 102100Z 14004KT 9999 SCT015 BKN100 24/24 Q1010;
0143832880999992011031110004-13267-043417FM-15+0443SBLP V0209999C000012200019N0112651N1+02301+02201999999ADDGA1021+006001999GA2041+030001999GF104991999999999999999999MA1101191999999REMMET058METAR SBLP 111000Z 00000KT 9999 FEW020 SCT100 23/22 Q1012;
0143832880999992011031111004-13267-043417FM-15+0443SBLP V0202401N003110300019N0112651N1+02401+02201999999ADDGA1041+006001999GA2071+030001999GF107991999999999999999999MA1101391999999REMMET058METAR SBLP 111100Z 24006KT 9999 SCT020 BKN100 24/22 Q1014;
0143832880999992011031112004-13267-043417FM-15+0443SBLP V0200901N003110300019N0112651N1+02601+02301999999ADDGA1041+006001999GA2071+030001999GF107991999999999999999999MA1101391999999REMMET058METAR SBLP 111200Z 09006KT 9999 SCT020 BKN100 26/23 Q1014;
0143832880999992011031113004-13267-043417FM-15+0443SBLP V0200601N003112200019N0112651N1+02901+02301999999ADDGA1021+006001999GA2041+030001999GF104991999999999999999999MA1101391999999REMMET058METAR SBLP 111300Z 06006KT 9999 FEW020 SCT100 29/23 Q1014;
0143832880999992011031114004-13267-043417FM-15+0443SBLP V0200301N003112200019N0112651N1+03001+02001999999ADDGA1041+006001999GA2041+030001999GF104991999999999999999999MA1101291999999REMMET058METAR SBLP 111400Z 03006KT 9999 SCT020 SCT100 30/20 Q1013;
0120832880999992011031115004-13267-043417FM-15+0443SBLP V0203601N003112200019N0112651N1+03001+02201999999ADDGA1041+006001999GF104991999999999999999999MA1101191999999REMMET051METAR SBLP 111500Z 36006KT 9999 SCT020 30/22 Q1012;
0120832880999992011031116004-13267-043417FM-15+0443SBLP V0200101N003112200019N0112651N1+03101+02201999999ADDGA1041+008101999GF104991999999999999999999MA1101081999999REMMET051METAR SBLP 111600Z 01006KT 9999 SCT027 31/22 Q1011;
0120832880999992011031117004-13267-043417FM-15+0443SBLP V0200301N003112200019N0112651N1+03201+02201999999ADDGA1041+008101999GF104991999999999999999999MA1101021999999REMMET051METAR SBLP 111700Z 03006KT 9999 SCT027 32/22 Q1010;
0120832880999992011031118004-13267-043417FM-15+0443SBLP V0203601N003112200019N0112651N1+03201+02201999999ADDGA1041+008101999GF104991999999999999999999MA1100911999999REMMET051METAR SBLP 111800Z 36006KT 9999 SCT027 32/22 Q1009;
0120832880999992011031119004-13267-043417FM-15+0443SBLP V0203601N002612200019N0112651N1+03301+02201999999ADDGA1021+008101999GF102991999999999999999999MA1100811999999REMMET051METAR SBLP 111900Z 36005KT 9999 FEW027 33/22 Q1008;
0120832880999992011031120004-13267-043417FM-15+0443SBLP V0200101N001512200019N0112651N1+03201+02101999999ADDGA1021+008101999GF102991999999999999999999MA1100811999999REMMET051METAR SBLP 112000Z 01003KT 9999 FEW027 32/21 Q1008;
0143832880999992011031121004-13267-043417FM-15+0443SBLP V0200301N002112200019N0112651N1+03001+02101999999ADDGA1021+008101999GA2041+030001999GF104991999999999999999999MA1100911999999REMMET058METAR SBLP 112100Z 03004KT 9999 FEW027 SCT100 30/21 Q1009;
0143832880999992011031210004-13267-043417FM-15+0443SBLP V0203301N003110300019N0112651N1+02501+02201999999ADDGA1021+009001999GA2071+030001999GF107991999999999999999999MA1101291999999REMMET058METAR SBLP 121000Z 33006KT 9999 FEW030 BKN100 25/22 Q1013;
0143832880999992011031211004-13267-043417FM-15+0443SBLP V0203601N002110300019N0112651N1+02601+02301999999ADDGA1021+009001999GA2071+030001999GF107991999999999999999999MA1101391999999REMMET058METAR SBLP 121100Z 36004KT 9999 FEW030 BKN100 26/23 Q1014;
0143832880999992011031212004-13267-043417FM-15+0443SBLP V0202701N002110300019N0112651N1+02601+02301999999ADDGA1041+009001999GA2071+030001999GF107991999999999999999999MA1101491999999REMMET058METAR SBLP 121200Z 27004KT 9999 SCT030 BKN100 26/23 Q1015;
0143832880999992011031213004-13267-043417FM-15+0443SBLP V0202501N003110300019N0112651N1+02601+02301999999ADDGA1041+009001999GA2071+030001999GF107991999999999999999999MA1101391999999REMMET058METAR SBLP 121300Z 25006KT 9999 SCT030 BKN100 26/23 Q1014;
0143832880999992011031214004-13267-043417FM-15+0443SBLP V0202801N002110300019N0112651N1+02801+02301999999ADDGA1041+009001999GA2071+030001999GF107991999999999999999999MA1101391999999REMMET058METAR SBLP 121400Z 28004KT 9999 SCT030 BKN100 28/23 Q1014;
0143832880999992011031215004-13267-043417FM-15+0443SBLP V0202101N002110300019N0112651N1+02901+02201999999ADDGA1041+009001999GA2071+030001999GF107991999999999999999999MA1101291999999REMMET058METAR SBLP 121500Z 21004KT 9999 SCT030 BKN100 29/22 Q1013;
0143832880999992011031216004-13267-043417FM-15+0443SBLP V0202701N003110300019N0112651N1+02901+02201999999ADDGA1041+006001999GA2071+030001999GF107991999999999999999999MA1101081999999REMMET058METAR SBLP 121600Z 27006KT 9999 SCT020 BKN100 29/22 Q1011;
0143832880999992011031217004-13267-043417FM-15+0443SBLP V0202701N002610300019N0112651N1+03001+02201999999ADDGA1041+006001999GA2071+030001999GF107991999999999999999999MA1101081999999REMMET058METAR SBLP 121700Z 27005KT 9999 SCT020 BKN100 30/22 Q1011;
0143832880999992011031218004-13267-043417FM-15+0443SBLP V0203601N003110300019N0112651N1+03101+02101999999ADDGA1041+006001999GA2071+030001999GF107991999999999999999999MA1100811999999REMMET058METAR SBLP 121800Z 36006KT 9999 SCT020 BKN100 31/21 Q1008;
0143832880999992011031219004-13267-043417FM-15+0443SBLP V0203601N003110300019N0112651N1+03001+02101999999ADDGA1041+009001999GA2071+030001999GF107991999999999999999999MA1100811999999REMMET058METAR SBLP 121900Z 36006KT 9999 SCT030 BKN100 30/21 Q1008;
0143832880999992011031220004-13267-043417FM-15+0443SBLP V0200901N003110300019N0112651N1+02901+02101999999ADDGA1041+009001999GA2071+030001999GF107991999999999999999999MA1100811999999REMMET058METAR SBLP 122000Z 09006KT 9999 SCT030 BKN100 29/21 Q1008;
0143832880999992011031221004-13267-043417FM-15+0443SBLP V0200901N003112200019N0112651N1+02901+02101999999ADDGA1041+009001999GA2041+030001999GF104991999999999999999999MA1100811999999REMMET058METAR SBLP 122100Z 09006KT 9999 SCT030 SCT100 29/21 Q1008;
0143832880999992011031310004-13267-043417FM-15+0443SBLP V0200501N003110060019N0112651N1+02201+02201999999ADDGA1071+006001999GA2071+030001999GF107991999999999999999999MA1101191999999REMMET058METAR SBLP 131000Z 05006KT 9999 BKN020 BKN100 22/22 Q1012;
0143832880999992011031311004-13267-043417FM-15+0443SBLP V0200601N003110300019N0112651N1+02301+02201999999ADDGA1041+006001999GA2071+030001999GF107991999999999999999999MA1101191999999REMMET058METAR SBLP 131100Z 06006KT 9999 SCT020 BKN100 23/22 Q1012;
0143832880999992011031312004-13267-043417FM-15+0443SBLP V0203601N003110300019N0112651N1+02301+02201999999ADDGA1041+006001999GA2071+030001999GF107991999999999999999999MA1101291999999REMMET058METAR SBLP 131200Z 36006KT 9999 SCT020 BKN100 23/22 Q1013;
0143832880999992011031313004-13267-043417FM-15+0443SBLP V0200101N004110060019N0112651N1+02401+02201999999ADDGA1071+006001999GA2071+030001999GF107991999999999999999999MA1101291999999REMMET058METAR SBLP 131300Z 01008KT 9999 BKN020 BKN100 24/22 Q1013;
0143832880999992011031314004-13267-043417FM-15+0443SBLP V0200101N004110300019N0112651N1+02501+02201999999ADDGA1041+006001999GA2071+030001999GF107991999999999999999999MA1101291999999REMMET058METAR SBLP 131400Z 01008KT 9999 SCT020 BKN100 25/22 Q1013;
0143832880999992011031315004-13267-043417FM-15+0443SBLP V0203501N006210300019N0112651N1+02601+02301999999ADDGA1041+006001999GA2071+030001999GF107991999999999999999999MA1101191999999REMMET058METAR SBLP 131500Z 35012KT 9999 SCT020 BKN100 26/23 Q1012;
0143832880999992011031317004-13267-043417FM-15+0443SBLP V0203601N006210300019N0112651N1+02801+02101999999ADDGA1041+006001999GA2071+030001999GF107991999999999999999999MA1100911999999REMMET058METAR SBLP 131700Z 36012KT 9999 SCT020 BKN100 28/21 Q1009;
0143832880999992011031318004-13267-043417FM-15+0443SBLP V0203601N006210300019N0112651N1+02901+02001999999ADDGA1021+006001999GA2071+030001999GF107991999999999999999999MA1100811999999REMMET058METAR SBLP 131800Z 36012KT 9999 FEW020 BKN100 29/20 Q1008;
0143832880999992011031319004-13267-043417FM-15+0443SBLP V0203601N006210300019N0112651N1+03001+02001999999ADDGA1041+006001999GA2071+030001999GF107991999999999999999999MA1100811999999REMMET058METAR SBLP 131900Z 36012KT 9999 SCT020 BKN100 30/20 Q1008;
0143832880999992011031320004-13267-043417FM-15+0443SBLP V0203601N006210300019N0112651N1+02801+02101999999ADDGA1041+009001999GA2071+030001999GF107991999999999999999999MA1100911999999REMMET058METAR SBLP 132000Z 36012KT 9999 SCT030 BKN100 28/21 Q1009;
0143832880999992011031321004-13267-043417FM-15+0443SBLP V0203601N003110300019N0112651N1+02701+02101999999ADDGA1041+009001999GA2071+030001999GF107991999999999999999999MA1100911999999REMMET058METAR SBLP 132100Z 36006KT 9999 SCT030 BKN100 27/21 Q1009;
0143832880999992011031410004-13267-043417FM-15+0443SBLP V0203601N003110300019N0112651N1+02301+02101999999ADDGA1041+003001999GA2071+030001999GF107991999999999999999999MA1101081999999REMMET058METAR SBLP 141000Z 36006KT 9999 SCT010 BKN100 23/21 Q1011;
0143832880999992011031411004-13267-043417FM-15+0443SBLP V0203601N003110300019N0112651N1+02501+02101999999ADDGA1041+003001999GA2071+030001999GF107991999999999999999999MA1101191999999REMMET058METAR SBLP 141100Z 36006KT 9999 SCT010 BKN100 25/21 Q1012;
0143832880999992011031412004-13267-043417FM-15+0443SBLP V0203601N003110300019N0112651N1+02601+02101999999ADDGA1041+004501999GA2071+030001999GF107991999999999999999999MA1101291999999REMMET058METAR SBLP 141200Z 36006KT 9999 SCT015 BKN100 26/21 Q1013;
0143832880999992011031413004-13267-043417FM-15+0443SBLP V0203601N003110300019N0112651N1+02801+02101999999ADDGA1021+006001999GA2071+030001999GF107991999999999999999999MA1101291999999REMMET058METAR SBLP 141300Z 36006KT 9999 FEW020 BKN100 28/21 Q1013;
0143832880999992011031414004-13267-043417FM-15+0443SBLP V0203601N003110300019N0112651N1+02901+02101999999ADDGA1041+006001999GA2071+030001999GF107991999999999999999999MA1101291999999REMMET058METAR SBLP 141400Z 36006KT 9999 SCT020 BKN100 29/21 Q1013;
0143832880999992011031415004-13267-043417FM-15+0443SBLP V0203601N003110300019N0112651N1+02901+02101999999ADDGA1041+006001999GA2071+030001999GF107991999999999999999999MA1101191999999REMMET058METAR SBLP 141500Z 36006KT 9999 SCT020 BKN100 29/21 Q1012;
0120832880999992011031416004-13267-043417FM-15+0443SBLP V0203001N005112200019N0112651N1+03001+02101999999ADDGA1041+006001999GF104991999999999999999999MA1101081999999REMMET051METAR SBLP 141600Z 30010KT 9999 SCT020 30/21 Q1011;
0120832880999992011031417004-13267-043417FM-15+0443SBLP V0203501N003112200019N0112651N1+03001+02101999999ADDGA1041+006001999GF104991999999999999999999MA1100911999999REMMET051METAR SBLP 141700Z 35006KT 9999 SCT020 30/21 Q1009;
0120832880999992011031418004-13267-043417FM-15+0443SBLP V0203601N005112200019N0112651N1+02801+02201999999ADDGA1021+009001999GF102991999999999999999999MA1100911999999REMMET051METAR SBLP 141800Z 36010KT 9999 FEW030 28/22 Q1009;
0143832880999992011031419004-13267-043417FM-15+0443SBLP V0203501N002112200019N0112651N1+02801+02201999999ADDGA1021+009001999GA2041+030001999GF104991999999999999999999MA1100811999999REMMET058METAR SBLP 141900Z 35004KT 9999 FEW030 SCT100 28/22 Q1008;
0143832880999992011031420004-13267-043417FM-15+0443SBLP V0203401N001512200019N0112651N1+02801+02201999999ADDGA1021+009001999GA2041+030001999GF104991999999999999999999MA1100911999999REMMET058METAR SBLP 142000Z 34003KT 9999 FEW030 SCT100 28/22 Q1009;
0143832880999992011031421004-13267-043417FM-15+0443SBLP V0203601N001512200019N0112651N1+02601+02201999999ADDGA1021+009001999GA2041+030001999GF104991999999999999999999MA1100911999999REMMET058METAR SBLP 142100Z 36003KT 9999 FEW030 SCT100 26/22 Q1009;
0072832880999992011031510004-13267-043417FM-15+0443SBLP V0203501N001519999999Y0099001N1+02301+02101999999ADDMA1101391999999REMMET045METAR SBLP 151000Z 35003KT CAVOK 23/21 Q1014;
0072832880999992011031511004-13267-043417FM-15+0443SBLP V0203301N003119999999Y0099001N1+02601+02101999999ADDMA1101491999999REMMET045METAR SBLP 151100Z 33006KT CAVOK 26/21 Q1015;
0120832880999992011031512004-13267-043417FM-15+0443SBLP V0203501N004112200019N0112651N1+02801+02101999999ADDGA1021+009001999GF102991999999999999999999MA1101591999999REMMET051METAR SBLP 151200Z 35008KT 9999 FEW030 28/21 Q1016;
0120832880999992011031513004-13267-043417FM-15+0443SBLP V0203501N003112200019N0112651N1+02901+02201999999ADDGA1021+009001999GF102991999999999999999999MA1101491999999REMMET051METAR SBLP 151300Z 35006KT 9999 FEW030 29/22 Q1015;
0120832880999992011031514004-13267-043417FM-15+0443SBLP V0203601N003110090019N0112651N1+03101+02101999999ADDGA1071+009001999GF107991999999999999999999MA1101491999999REMMET051METAR SBLP 151400Z 36006KT 9999 BKN030 31/21 Q1015;
0139832880999992011031515004-13267-043417FM-15+0443SBLP V0202401N00311009001CN0112651N1+02801+02201999999ADDGA1071+009001999GA2021+009001021MA1101491999999REMMET061METAR SBLP 151500Z 24006KT 9999 BKN030 FEW030TCU 28/22 Q1015;EQDQ01+000022SCOTCV
0143832880999992011031516004-13267-043417FM-15+0443SBLP V0203601N003112200019N0112651N1+02901+02101999999ADDGA1041+009001999GA2041+030001999GF104991999999999999999999MA1101291999999REMMET058METAR SBLP 151600Z 36006KT 9999 SCT030 SCT100 29/21 Q1013;
0143832880999992011031517004-13267-043417FM-15+0443SBLP V0203601N003110300019N0112651N1+03001+02101999999ADDGA1041+009001999GA2071+030001999GF107991999999999999999999MA1101191999999REMMET058METAR SBLP 151700Z 36006KT 9999 SCT030 BKN100 30/21 Q1012;
0143832880999992011031518004-13267-043417FM-15+0443SBLP V0203601N003110300019N0112651N1+03001+02001999999ADDGA1041+009001999GA2071+030001999GF107991999999999999999999MA1101191999999REMMET058METAR SBLP 151800Z 36006KT 9999 SCT030 BKN100 30/20 Q1012;
0143832880999992011031519004-13267-043417FM-15+0443SBLP V0203601N003110300019N0112651N1+03001+02001999999ADDGA1041+009001999GA2071+030001999GF107991999999999999999999MA1101081999999REMMET058METAR SBLP 151900Z 36006KT 9999 SCT030 BKN100 30/20 Q1011;
0143832880999992011031520004-13267-043417FM-15+0443SBLP V0203601N003110300019N0112651N1+02901+02001999999ADDGA1021+009001999GA2071+030001999GF107991999999999999999999MA1101081999999REMMET058METAR SBLP 152000Z 36006KT 9999 FEW030 BKN100 29/20 Q1011;
0143832880999992011031521004-13267-043417FM-15+0443SBLP V0209999C000012200019N0112651N1+02901+02001999999ADDGA1021+009001999GA2041+030001999GF104991999999999999999999MA1101081999999REMMET058METAR SBLP 152100Z 00000KT 9999 FEW030 SCT100 29/20 Q1011;
0072832880999992011031610004-13267-043417FM-15+0443SBLP V0201101N001019999999Y0099001N1+02501+02301999999ADDMA1101491999999REMMET045METAR SBLP 161000Z 11002KT CAVOK 25/23 Q1015;
0143832880999992011031612004-13267-043417FM-15+0443SBLP V0209999C000012200019N0112651N1+02901+02301999999ADDGA1021+009001999GA2041+030001999GF104991999999999999999999MA1101591999999REMMET058METAR SBLP 161200Z 00000KT 9999 FEW030 SCT100 29/23 Q1016;
0143832880999992011031613004-13267-043417FM-15+0443SBLP V0201501N003112200019N0112651N1+03001+02301999999ADDGA1021+009001999GA2041+030001999GF104991999999999999999999MA1101591999999REMMET058METAR SBLP 161300Z 15006KT 9999 FEW030 SCT100 30/23 Q1016;
0143832880999992011031614004-13267-043417FM-15+0443SBLP V0201801N001512200019N0112651N1+03101+02301999999ADDGA1021+009001999GA2041+030001999GF104991999999999999999999MA1101591999999REMMET058METAR SBLP 161400Z 18003KT 9999 FEW030 SCT100 31/23 Q1016;
0143832880999992011031615004-13267-043417FM-15+0443SBLP V0202401N002112200019N0112651N1+03201+02201999999ADDGA1041+009001999GA2041+030001999GF104991999999999999999999MA1101491999999REMMET058METAR SBLP 161500Z 24004KT 9999 SCT030 SCT100 32/22 Q1015;
0143832880999992011031616004-13267-043417FM-15+0443SBLP V0209999C000012200019N0112651N1+03201+02201999999ADDGA1041+009001999GA2041+030001999GF104991999999999999999999MA1101291999999REMMET058METAR SBLP 161600Z 00000KT 9999 SCT030 SCT100 32/22 Q1013;
0143832880999992011031617004-13267-043417FM-15+0443SBLP V0202401N003112200019N0112651N1+03301+02201999999ADDGA1021+009001999GA2041+030001999GF104991999999999999999999MA1101191999999REMMET058METAR SBLP 161700Z 24006KT 9999 FEW030 SCT100 33/22 Q1012;
0120832880999992011031618004-13267-043417FM-15+0443SBLP V0209999C000012200019N0112651N1+03401+02101999999ADDGA1021+009001999GF102991999999999999999999MA1101081999999REMMET051METAR SBLP 161800Z 00000KT 9999 FEW030 34/21 Q1011;
0120832880999992011031620004-13267-043417FM-15+0443SBLP V0209999C000012200019N0112651N1+03301+02201999999ADDGA1021+006001999GF102991999999999999999999MA1101081999999REMMET051METAR SBLP 162000Z 00000KT 9999 FEW020 33/22 Q1011;
0120832880999992011031621004-13267-043417FM-15+0443SBLP V0209999C000012200019N0112651N1+03101+02201999999ADDGA1021+009001999GF102991999999999999999999MA1101081999999REMMET051METAR SBLP 162100Z 00000KT 9999 FEW030 31/22 Q1011;
0143832880999992011031710004-13267-043417FM-15+0443SBLP V0200901N003110300019N0112651N1+02401+02301999999ADDGA1041+006001999GA2071+030001999GF107991999999999999999999MA1101391999999REMMET058METAR SBLP 171000Z 09006KT 9999 SCT020 BKN100 24/23 Q1014;
0143832880999992011031711004-13267-043417FM-15+0443SBLP V0200301N003110300019N0112651N1+02401+02301999999ADDGA1041+006001999GA2071+030001999GF107991999999999999999999MA1101491999999REMMET058METAR SBLP 171100Z 03006KT 9999 SCT020 BKN100 24/23 Q1015;
0143832880999992011031712004-13267-043417FM-15+0443SBLP V0209999C000010300019N0112651N1+02601+02301999999ADDGA1021+006001999GA2071+030001999GF107991999999999999999999MA1101491999999REMMET058METAR SBLP 171200Z 00000KT 9999 FEW020 BKN100 26/23 Q1015;
0143832880999992011031713004-13267-043417FM-15+0443SBLP V0209999C000010300019N0112651N1+02701+02001999999ADDGA1021+006001999GA2071+030001999GF107991999999999999999999MA1101491999999REMMET058METAR SBLP 171300Z 00000KT 9999 FEW020 BKN100 27/20 Q1015;
0143832880999992011031714004-13267-043417FM-15+0443SBLP V0209999C000012200019N0112651N1+02901+02201999999ADDGA1021+006001999GA2041+030001999GF104991999999999999999999MA1101491999999REMMET058METAR SBLP 171400Z 00000KT 9999 FEW020 SCT100 29/22 Q1015;
0120832880999992011031715004-13267-043417FM-15+0443SBLP V0201801N003112200019N0112651N1+03001+02201999999ADDGA1021+009001999GF102991999999999999999999MA1101391999999REMMET051METAR SBLP 171500Z 18006KT 9999 FEW030 30/22 Q1014;
0120832880999992011031716004-13267-043417FM-15+0443SBLP V0202001N002112200019N0112651N1+03201+02201999999ADDGA1041+009001999GF104991999999999999999999MA1101191999999REMMET051METAR SBLP 171600Z 20004KT 9999 SCT030 32/22 Q1012;
0120832880999992011031717004-13267-043417FM-15+0443SBLP V0200901N002612200019N0112651N1+03201+02201999999ADDGA1041+009001999GF104991999999999999999999MA1101081999999REMMET051METAR SBLP 171700Z 09005KT 9999 SCT030 32/22 Q1011;
0120832880999992011031719004-13267-043417FM-15+0443SBLP V0203301N002112200019N0112651N1+03301+02201999999ADDGA1041+009001999GF104991999999999999999999MA1101021999999REMMET051METAR SBLP 171900Z 33004KT 9999 SCT030 33/22 Q1010;
0120832880999992011031721004-13267-043417FM-15+0443SBLP V0202101N002112200019N0112651N1+03101+02101999999ADDGA1041+009001999GF104991999999999999999999MA1101081999999REMMET051METAR SBLP 172100Z 21004KT 9999 SCT030 31/21 Q1011;
0143832880999992011031810004-13267-043417FM-15+0443SBLP V0201801N003110045019N0112651N1+02401+02301999999ADDGA1071+004501999GA2071+030001999GF107991999999999999999999MA1101491999999REMMET058METAR SBLP 181000Z 18006KT 9999 BKN015 BKN100 24/23 Q1015;
0200832880999992011031810334-13267-043417FM-15+0443SBLP V0201801N003110069019N0112651N1+02401+02301999999ADDGA1041+003001999GA2021+006901091GA3071+006901999GA4071+030001999GF107991999999999999999999MA1101491999999MW1171REMMET077METAR SBLP 181033Z 18006KT 9999 TS SCT010 BKN023 FEW023CB BKN100 24/23 Q1015;
0191832880999992011031812004-13267-043417FM-15+0443SBLP V0201501N00411006901CN0112651N1+02501+02201999999ADDGA1041+004501999GA2021+006901091GA3041+006901999GA4071+030001999GF107991999999999999999999MA1101691999999REMMET074METAR SBLP 181200Z 15008KT 9999 SCT015 SCT023 FEW023CB BKN100 25/22 Q1017;
0148832880999992011031813004-13267-043417FM-15+0443SBLP V0201501N005110300019N0112651N1+02601+02301999999ADDGA1041+004501999GA2071+030001999GF107991999999999999999999MA1101591999999REMMET063METAR SBLP 181300Z 15010KT 9999 SCT015 BKN100 26/23 Q1016 RETS;
0120832880999992011031814004-13267-043417FM-15+0443SBLP V0201801N005112200019N0112651N1+02801+02201999999ADDGA1021+009001999GF102991999999999999999999MA1101491999999REMMET051METAR SBLP 181400Z 18010KT 9999 FEW030 28/22 Q1015;
0120832880999992011031815004-13267-043417FM-15+0443SBLP V0201801N005112200019N0112651N1+02801+02201999999ADDGA1021+009001999GF102991999999999999999999MA1101491999999REMMET051METAR SBLP 181500Z 18010KT 9999 FEW030 28/22 Q1015;
0120832880999992011031816004-13267-043417FM-15+0443SBLP V0201801N003112200019N0112651N1+02901+02201999999ADDGA1041+009001999GF104991999999999999999999MA1101291999999REMMET051METAR SBLP 181600Z 18006KT 9999 SCT030 29/22 Q1013;
0120832880999992011031817004-13267-043417FM-15+0443SBLP V0201801N003110090019N0112651N1+03101+02101999999ADDGA1071+009001999GF107991999999999999999999MA1101191999999REMMET051METAR SBLP 181700Z 18006KT 9999 BKN030 31/21 Q1012;
0143832880999992011031818004-13267-043417FM-15+0443SBLP V0201801N003112200019N0112651N1+03101+02001999999ADDGA1041+009001999GA2041+030001999GF104991999999999999999999MA1101191999999REMMET058METAR SBLP 181800Z 18006KT 9999 SCT030 SCT100 31/20 Q1012;
0143832880999992011031819004-13267-043417FM-15+0443SBLP V0200901N003110300019N0112651N1+03101+02001999999ADDGA1041+009001999GA2071+030001999GF107991999999999999999999MA1101081999999REMMET058METAR SBLP 181900Z 09006KT 9999 SCT030 BKN100 31/20 Q1011;
0143832880999992011031820004-13267-043417FM-15+0443SBLP V0200901N003110300019N0112651N1+03001+02001999999ADDGA1041+009001999GA2071+030001999GF107991999999999999999999MA1101191999999REMMET058METAR SBLP 182000Z 09006KT 9999 SCT030 BKN100 30/20 Q1012;
0143832880999992011031821004-13267-043417FM-15+0443SBLP V0200901N003110300019N0112651N1+03001+02001999999ADDGA1041+009001999GA2071+030001999GF107991999999999999999999MA1101191999999REMMET058METAR SBLP 182100Z 09006KT 9999 SCT030 BKN100 30/20 Q1012;
0143832880999992011031910004-13267-043417FM-15+0443SBLP V0209999C000010300019N0112651N1+02401+02101999999ADDGA1021+004501999GA2071+030001999GF107991999999999999999999MA1101291999999REMMET058METAR SBLP 191000Z 00000KT 9999 FEW015 BKN100 24/21 Q1013;
0143832880999992011031911004-13267-043417FM-15+0443SBLP V0209999C000010300019N0112651N1+02401+02101999999ADDGA1021+004501999GA2071+030001999GF107991999999999999999999MA1101391999999REMMET058METAR SBLP 191100Z 00000KT 9999 FEW015 BKN100 24/21 Q1014;
0143832880999992011031912004-13267-043417FM-15+0443SBLP V0209999C000012200019N0112651N1+02701+02101999999ADDGA1021+006001999GA2041+030001999GF104991999999999999999999MA1101391999999REMMET058METAR SBLP 191200Z 00000KT 9999 FEW020 SCT100 27/21 Q1014;
0143832880999992011031913004-13267-043417FM-15+0443SBLP V0209999C000012200019N0112651N1+02801+02101999999ADDGA1021+006001999GA2041+030001999GF104991999999999999999999MA1101391999999REMMET058METAR SBLP 191300Z 00000KT 9999 FEW020 SCT100 28/21 Q1014;
0120832880999992011031914004-13267-043417FM-15+0443SBLP V0203601N003112200019N0112651N1+03001+02101999999ADDGA1041+006001999GF104991999999999999999999MA1101391999999REMMET051METAR SBLP 191400Z 36006KT 9999 SCT020 30/21 Q1014;
0120832880999992011031915004-13267-043417FM-15+0443SBLP V0203601N003112200019N0112651N1+03101+02101999999ADDGA1041+009001999GF104991999999999999999999MA1101191999999REMMET051METAR SBLP 191500Z 36006KT 9999 SCT030 31/21 Q1012;
0120832880999992011031916004-13267-043417FM-15+0443SBLP V0203101N002112200019N0112651N1+03201+02101999999ADDGA1041+009001999GF104991999999999999999999MA1101081999999REMMET051METAR SBLP 191600Z 31004KT 9999 SCT030 32/21 Q1011;
0120832880999992011031917004-13267-043417FM-15+0443SBLP V0203201N002112200019N0112651N1+03301+01901999999ADDGA1041+009001999GF104991999999999999999999MA1101021999999REMMET051METAR SBLP 191700Z 32004KT 9999 SCT030 33/19 Q1010;
0120832880999992011031918004-13267-043417FM-15+0443SBLP V0200301N002112200019N0112651N1+03401+02001999999ADDGA1041+009001999GF104991999999999999999999MA1101021999999REMMET051METAR SBLP 191800Z 03004KT 9999 SCT030 34/20 Q1010;
0120832880999992011031919004-13267-043417FM-15+0443SBLP V0200601N002112200019N0112651N1+03401+02001999999ADDGA1041+009001999GF104991999999999999999999MA1100911999999REMMET051METAR SBLP 191900Z 06004KT 9999 SCT030 34/20 Q1009;
0120832880999992011031920004-13267-043417FM-15+0443SBLP V0200301N003112200019N0112651N1+03101+02201999999ADDGA1021+009001999GF102991999999999999999999MA1100911999999REMMET051METAR SBLP 192000Z 03006KT 9999 FEW030 31/22 Q1009;
0120832880999992011031921004-13267-043417FM-15+0443SBLP V0200601N002112200019N0112651N1+03001+02201999999ADDGA1021+009001999GF102991999999999999999999MA1100911999999REMMET051METAR SBLP 192100Z 06004KT 9999 FEW030 30/22 Q1009;
0143832880999992011032010004-13267-043417FM-15+0443SBLP V0200201N002610300019N0112651N1+02401+02201999999ADDGA1041+004501999GA2071+030001999GF107991999999999999999999MA1101291999999REMMET058METAR SBLP 201000Z 02005KT 9999 SCT015 BKN100 24/22 Q1013;
0153832880999992011032011004-13267-043417FM-15+0443SBLP V0203301N002110300019N0112651N1+02401+02201999999ADDGA1041+004501999GA2071+030001999GF107991999999999999999999MA1101391999999MW1611REMMET062METAR SBLP 201100Z 33004KT 9999 -RA SCT015 BKN100 24/22 Q1014;
0143832880999992011032012004-13267-043417FM-15+0443SBLP V0209999C000010300019N0112651N1+02401+02201999999ADDGA1041+006001999GA2071+030001999GF107991999999999999999999MA1101391999999REMMET058METAR SBLP 201200Z 00000KT 9999 SCT020 BKN100 24/22 Q1014;
0143832880999992011032013004-13267-043417FM-15+0443SBLP V0201301N002110300019N0112651N1+02601+02201999999ADDGA1021+006001999GA2071+030001999GF107991999999999999999999MA1101491999999REMMET058METAR SBLP 201300Z 13004KT 9999 FEW020 BKN100 26/22 Q1015;
0143832880999992011032014004-13267-043417FM-15+0443SBLP V0201801N001512200019N0112651N1+02901+02301999999ADDGA1021+006001999GA2041+030001999GF104991999999999999999999MA1101391999999REMMET058METAR SBLP 201400Z 18003KT 9999 FEW020 SCT100 29/23 Q1014;
0143832880999992011032015004-13267-043417FM-15+0443SBLP V0209999C000012200019N0112651N1+03101+02401999999ADDGA1021+008101999GA2041+030001999GF104991999999999999999999MA1101391999999REMMET058METAR SBLP 201500Z 00000KT 9999 FEW027 SCT100 31/24 Q1014;
0177832880999992011032016004-13267-043417FM-15+0443SBLP V0203601N00621012001CN0112651N1+03101+02201999999ADDGA1041+009001999GA2021+012001091GA3071+030001999GF107991999999999999999999MA1101191999999MW1171REMMET070METAR SBLP 201600Z 36012KT 9999 TS SCT030 FEW040CB BKN100 31/22 Q1012;
0186832880999992011032017004-13267-043417FM-15+0443SBLP V0200901N00621012001CN0090001N1+02601+02101999999ADDGA1041+009001999GA2021+012001091GA3071+030001999GF107991999999999999999999MA1101191999999MW1801MW2951REMMET073METAR SBLP 201700Z 09012KT 9000 -TSRA SCT030 FEW040CB BKN100 26/21 Q1012;
0143832880999992011032018004-13267-043417FM-15+0443SBLP V0200901N003110300019N0112651N1+02501+02101999999ADDGA1041+009001999GA2071+030001999GF107991999999999999999999MA1101081999999REMMET058METAR SBLP 201800Z 09006KT 9999 SCT030 BKN100 25/21 Q1011;
0153832880999992011032019004-13267-043417FM-15+0443SBLP V0200901N003110300019N0090001N1+02501+02101999999ADDGA1041+009001999GA2071+030001999GF107991999999999999999999MA1101081999999MW1611REMMET062METAR SBLP 201900Z 09006KT 9000 -RA SCT030 BKN100 25/21 Q1011;
0143832880999992011032020004-13267-043417FM-15+0443SBLP V0201801N003110300019N0112651N1+02501+02101999999ADDGA1021+009001999GA2071+030001999GF107991999999999999999999MA1101191999999REMMET058METAR SBLP 202000Z 18006KT 9999 FEW030 BKN100 25/21 Q1012;
0143832880999992011032021004-13267-043417FM-15+0443SBLP V0201801N003110300019N0112651N1+02401+02101999999ADDGA1021+009001999GA2071+030001999GF107991999999999999999999MA1101191999999REMMET058METAR SBLP 202100Z 18006KT 9999 FEW030 BKN100 24/21 Q1012;
0143832880999992011032110004-13267-043417FM-15+0443SBLP V0202101N003112200019N0112651N1+02301+02101999999ADDGA1021+004501999GA2041+030001999GF104991999999999999999999MA1101191999999REMMET058METAR SBLP 211000Z 21006KT 9999 FEW015 SCT100 23/21 Q1012;
0143832880999992011032111004-13267-043417FM-15+0443SBLP V0202101N002112200019N0112651N1+02501+02101999999ADDGA1021+004501999GA2041+030001999GF104991999999999999999999MA1101391999999REMMET058METAR SBLP 211100Z 21004KT 9999 FEW015 SCT100 25/21 Q1014;
0143832880999992011032112004-13267-043417FM-15+0443SBLP V0202101N002110300019N0112651N1+02601+02201999999ADDGA1021+006001999GA2071+030001999GF107991999999999999999999MA1101391999999REMMET058METAR SBLP 211200Z 21004KT 9999 FEW020 BKN100 26/22 Q1014;
0143832880999992011032113004-13267-043417FM-15+0443SBLP V0202101N001510300019N0112651N1+02701+02101999999ADDGA1021+006001999GA2071+030001999GF107991999999999999999999MA1101391999999REMMET058METAR SBLP 211300Z 21003KT 9999 FEW020 BKN100 27/21 Q1014;
0143832880999992011032114004-13267-043417FM-15+0443SBLP V0202101N002610300019N0112651N1+02801+02101999999ADDGA1021+008101999GA2071+030001999GF107991999999999999999999MA1101391999999REMMET058METAR SBLP 211400Z 21005KT 9999 FEW027 BKN100 28/21 Q1014;
0143832880999992011032115004-13267-043417FM-15+0443SBLP V0209999C000010300019N0112651N1+02901+02101999999ADDGA1041+008101999GA2071+030001999GF107991999999999999999999MA1101291999999REMMET058METAR SBLP 211500Z 00000KT 9999 SCT027 BKN100 29/21 Q1013;
0143832880999992011032116004-13267-043417FM-15+0443SBLP V0202101N003110300019N0112651N1+02901+02101999999ADDGA1041+009001999GA2071+030001999GF107991999999999999999999MA1101191999999REMMET058METAR SBLP 211600Z 21006KT 9999 SCT030 BKN100 29/21 Q1012;
0143832880999992011032117004-13267-043417FM-15+0443SBLP V0202101N004112200019N0112651N1+03001+02201999999ADDGA1041+009001999GA2041+030001999GF104991999999999999999999MA1101081999999REMMET058METAR SBLP 211700Z 21008KT 9999 SCT030 SCT100 30/22 Q1011;
0120832880999992011032118004-13267-043417FM-15+0443SBLP V0202001N005112200019N0112651N1+03101+02101999999ADDGA1041+009001999GF104991999999999999999999MA1101021999999REMMET051METAR SBLP 211800Z 20010KT 9999 SCT030 31/21 Q1010;
0120832880999992011032119004-13267-043417FM-15+0443SBLP V0201501N003112200019N0112651N1+03101+02101999999ADDGA1041+009001999GF104991999999999999999999MA1101021999999REMMET051METAR SBLP 211900Z 15006KT 9999 SCT030 31/21 Q1010;
0143832880999992011032120004-13267-043417FM-15+0443SBLP V0201201N005112200019N0112651N1+02901+02101999999ADDGA1041+009001999GA2041+030001999GF104991999999999999999999MA1101021999999REMMET058METAR SBLP 212000Z 12010KT 9999 SCT030 SCT100 29/21 Q1010;
0143832880999992011032121004-13267-043417FM-15+0443SBLP V0201501N004112200019N0112651N1+02701+02101999999ADDGA1021+009001999GA2041+030001999GF104991999999999999999999MA1101021999999REMMET058METAR SBLP 212100Z 15008KT 9999 FEW030 SCT100 27/21 Q1010;
0072832880999992011032210004-13267-043417FM-15+0443SBLP V0201901N003119999999Y0099001N1+02301+02001999999ADDMA1101291999999REMMET045METAR SBLP 221000Z 19006KT CAVOK 23/20 Q1013;
0072832880999992011032211004-13267-043417FM-15+0443SBLP V0202101N002119999999Y0099001N1+02401+02101999999ADDMA1101391999999REMMET045METAR SBLP 221100Z 21004KT CAVOK 24/21 Q1014;
0072832880999992011032212004-13267-043417FM-15+0443SBLP V0201701N002119999999Y0099001N1+02601+02101999999ADDMA1101391999999REMMET045METAR SBLP 221200Z 17004KT CAVOK 26/21 Q1014;
0120832880999992011032213004-13267-043417FM-15+0443SBLP V0201401N001512200019N0112651N1+02901+02101999999ADDGA1041+009001999GF104991999999999999999999MA1101391999999REMMET051METAR SBLP 221300Z 14003KT 9999 SCT030 29/21 Q1014;
0120832880999992011032214004-13267-043417FM-15+0443SBLP V0201201N003112200019N0112651N1+02901+02101999999ADDGA1041+009001999GF104991999999999999999999MA1101391999999REMMET051METAR SBLP 221400Z 12006KT 9999 SCT030 29/21 Q1014;
0120832880999992011032215004-13267-043417FM-15+0443SBLP V0201801N002112200019N0112651N1+03101+02101999999ADDGA1041+009001999GF104991999999999999999999MA1101291999999REMMET051METAR SBLP 221500Z 18004KT 9999 SCT030 31/21 Q1013;
0120832880999992011032216004-13267-043417FM-15+0443SBLP V0201801N003112200019N0112651N1+03101+02001999999ADDGA1041+009001999GF104991999999999999999999MA1101191999999REMMET051METAR SBLP 221600Z 18006KT 9999 SCT030 31/20 Q1012;
0120832880999992011032217004-13267-043417FM-15+0443SBLP V0201801N003110090019N0112651N1+03201+02001999999ADDGA1071+009001999GF107991999999999999999999MA1101021999999REMMET051METAR SBLP 221700Z 18006KT 9999 BKN030 32/20 Q1010;
0120832880999992011032218004-13267-043417FM-15+0443SBLP V0201801N003112200019N0112651N1+03301+02001999999ADDGA1041+009001999GF104991999999999999999999MA1101021999999REMMET051METAR SBLP 221800Z 18006KT 9999 SCT030 33/20 Q1010;
0120832880999992011032219004-13267-043417FM-15+0443SBLP V0201801N003112200019N0112651N1+03301+02001999999ADDGA1041+009001999GF104991999999999999999999MA1100911999999REMMET051METAR SBLP 221900Z 18006KT 9999 SCT030 33/20 Q1009;
0120832880999992011032220004-13267-043417FM-15+0443SBLP V0201801N003112200019N0112651N1+03101+02101999999ADDGA1041+009001999GF104991999999999999999999MA1100911999999REMMET051METAR SBLP 222000Z 18006KT 9999 SCT030 31/21 Q1009;
0120832880999992011032221004-13267-043417FM-15+0443SBLP V0201801N003112200019N0112651N1+03001+02101999999ADDGA1041+009001999GF104991999999999999999999MA1100911999999REMMET051METAR SBLP 222100Z 18006KT 9999 SCT030 30/21 Q1009;
0072832880999992011032310004-13267-043417FM-15+0443SBLP V0201801N003119999999Y0099001N1+02201+02001999999ADDMA1101391999999REMMET045METAR SBLP 231000Z 18006KT CAVOK 22/20 Q1014;
0072832880999992011032311004-13267-043417FM-15+0443SBLP V0201501N004119999999Y0099001N1+02501+02101999999ADDMA1101491999999REMMET045METAR SBLP 231100Z 15008KT CAVOK 25/21 Q1015;
0072832880999992011032312004-13267-043417FM-15+0443SBLP V0201801N004119999999Y0099001N1+02701+02101999999ADDMA1101591999999REMMET045METAR SBLP 231200Z 18008KT CAVOK 27/21 Q1016;
0120832880999992011032313004-13267-043417FM-15+0443SBLP V0201501N002112200019N0112651N1+02901+02001999999ADDGA1021+009001999GF102991999999999999999999MA1101591999999REMMET051METAR SBLP 231300Z 15004KT 9999 FEW030 29/20 Q1016;
0120832880999992011032314004-13267-043417FM-15+0443SBLP V0202101N003112200019N0112651N1+03001+02101999999ADDGA1041+009001999GF104991999999999999999999MA1101591999999REMMET051METAR SBLP 231400Z 21006KT 9999 SCT030 30/21 Q1016;
0120832880999992011032315004-13267-043417FM-15+0443SBLP V0201501N001512200019N0112651N1+03101+02101999999ADDGA1041+009001999GF104991999999999999999999MA1101491999999REMMET051METAR SBLP 231500Z 15003KT 9999 SCT030 31/21 Q1015;
0120832880999992011032316004-13267-043417FM-15+0443SBLP V0201801N003112200019N0112651N1+03201+02001999999ADDGA1041+009001999GF104991999999999999999999MA1101291999999REMMET051METAR SBLP 231600Z 18006KT 9999 SCT030 32/20 Q1013;
0120832880999992011032317004-13267-043417FM-15+0443SBLP V0201801N003112200019N0112651N1+03301+02001999999ADDGA1041+009001999GF104991999999999999999999MA1101191999999REMMET051METAR SBLP 231700Z 18006KT 9999 SCT030 33/20 Q1012;
0120832880999992011032318004-13267-043417FM-15+0443SBLP V0201801N003112200019N0112651N1+03401+02001999999ADDGA1041+009001999GF104991999999999999999999MA1101191999999REMMET051METAR SBLP 231800Z 18006KT 9999 SCT030 34/20 Q1012;
0120832880999992011032319004-13267-043417FM-15+0443SBLP V0201801N003112200019N0112651N1+03201+02001999999ADDGA1041+009001999GF104991999999999999999999MA1101081999999REMMET051METAR SBLP 231900Z 18006KT 9999 SCT030 32/20 Q1011;
0120832880999992011032320004-13267-043417FM-15+0443SBLP V0201801N003112200019N0112651N1+03201+02001999999ADDGA1021+009001999GF102991999999999999999999MA1101081999999REMMET051METAR SBLP 232000Z 18006KT 9999 FEW030 32/20 Q1011;
0120832880999992011032321004-13267-043417FM-15+0443SBLP V0201801N003112200019N0112651N1+03101+02001999999ADDGA1021+009001999GF102991999999999999999999MA1101081999999REMMET051METAR SBLP 232100Z 18006KT 9999 FEW030 31/20 Q1011;
0143832880999992011032410004-13267-043417FM-15+0443SBLP V0209999C000012200019N0112651N1+02401+02101999999ADDGA1021+004501999GA2041+030001999GF104991999999999999999999MA1101591999999REMMET058METAR SBLP 241000Z 00000KT 9999 FEW015 SCT100 24/21 Q1016;
0143832880999992011032411004-13267-043417FM-15+0443SBLP V0209999C000012200019N0112651N1+02601+02101999999ADDGA1021+006001999GA2041+030001999GF104991999999999999999999MA1101591999999REMMET058METAR SBLP 241100Z 00000KT 9999 FEW020 SCT100 26/21 Q1016;
0143832880999992011032412004-13267-043417FM-15+0443SBLP V0209999C000012200019N0112651N1+02801+02101999999ADDGA1021+009001999GA2041+030001999GF104991999999999999999999MA1101591999999REMMET058METAR SBLP 241200Z 00000KT 9999 FEW030 SCT100 28/21 Q1016;
0143832880999992011032413004-13267-043417FM-15+0443SBLP V0201801N003112200019N0112651N1+03001+02001999999ADDGA1021+009001999GA2041+030001999GF104991999999999999999999MA1101691999999REMMET058METAR SBLP 241300Z 18006KT 9999 FEW030 SCT100 30/20 Q1017;
0120832880999992011032414004-13267-043417FM-15+0443SBLP V0201801N003112200019N0112651N1+03101+02001999999ADDGA1041+009001999GF104991999999999999999999MA1101591999999REMMET051METAR SBLP 241400Z 18006KT 9999 SCT030 31/20 Q1016;
0120832880999992011032415004-13267-043417FM-15+0443SBLP V0201801N003112200019N0112651N1+03101+02101999999ADDGA1041+009001999GF104991999999999999999999MA1101491999999REMMET051METAR SBLP 241500Z 18006KT 9999 SCT030 31/21 Q1015;
0120832880999992011032416004-13267-043417FM-15+0443SBLP V0201801N001510090019N0112651N1+03201+02201999999ADDGA1071+009001999GF107991999999999999999999MA1101491999999REMMET051METAR SBLP 241600Z 18003KT 9999 BKN030 32/22 Q1015;
0120832880999992011032417004-13267-043417FM-15+0443SBLP V0202101N003110090019N0112651N1+03201+02201999999ADDGA1071+009001999GF107991999999999999999999MA1101291999999REMMET051METAR SBLP 241700Z 21006KT 9999 BKN030 32/22 Q1013;
0147832880999992011032418004-13267-043417FM-15+0443SBLP V0201801N006212200019N0112651N1+03201+02201999999ADDGA1021+009001091GA2041+009001999MA1101291999999MW1171REMMET063METAR SBLP 241800Z 18012KT 9999 TS SCT030 FEW030CB 32/22 Q1013;EQDQ01+000022SCOTCV
0147832880999992011032419004-13267-043417FM-15+0443SBLP V0203301N002112200019N0112651N1+03001+02301999999ADDGA1021+009001091GA2041+009001999MA1101191999999MW1171REMMET063METAR SBLP 241900Z 33004KT 9999 TS SCT030 FEW030CB 30/23 Q1012;EQDQ01+000022SCOTCV
0147832880999992011032420004-13267-043417FM-15+0443SBLP V0209999C000012200019N0112651N1+02701+02401999999ADDGA1021+009001091GA2041+009001999MA1101191999999MW1171REMMET063METAR SBLP 242000Z 00000KT 9999 TS SCT030 FEW030CB 27/24 Q1012;EQDQ01+000022SCOTCV
0148832880999992011032421004-13267-043417FM-15+0443SBLP V0209999C000012200019N0112651N1+02601+02101999999ADDGA1041+009001999GA2041+030001999GF104991999999999999999999MA1101191999999REMMET063METAR SBLP 242100Z 00000KT 9999 SCT030 SCT100 26/21 Q1012 RETS;
0072832880999992011032510004-13267-043417FM-15+0443SBLP V0201801N002119999999Y0099001N1+02401+02101999999ADDMA1101391999999REMMET045METAR SBLP 251000Z 18004KT CAVOK 24/21 Q1014;
0072832880999992011032511004-13267-043417FM-15+0443SBLP V0201801N003119999999Y0099001N1+02701+02101999999ADDMA1101491999999REMMET045METAR SBLP 251100Z 18006KT CAVOK 27/21 Q1015;
0143832880999992011032512004-13267-043417FM-15+0443SBLP V0202401N002612200019N0112651N1+02701+02101999999ADDGA1021+009001999GA2041+030001999GF104991999999999999999999MA1101591999999REMMET058METAR SBLP 251200Z 24005KT 9999 FEW030 SCT100 27/21 Q1016;
0143832880999992011032513004-13267-043417FM-15+0443SBLP V0201801N001512200019N0112651N1+02801+02201999999ADDGA1041+008101999GA2041+030001999GF104991999999999999999999MA1101591999999REMMET058METAR SBLP 251300Z 18003KT 9999 SCT027 SCT100 28/22 Q1016;
0120832880999992011032514004-13267-043417FM-15+0443SBLP V0209999C000012200019N0112651N1+03001+02001999999ADDGA1041+008101999GF104991999999999999999999MA1101491999999REMMET051METAR SBLP 251400Z 00000KT 9999 SCT027 30/20 Q1015;
0120832880999992011032515004-13267-043417FM-15+0443SBLP V0202301N002110090019N0112651N1+03101+02101999999ADDGA1071+009001999GF107991999999999999999999MA1101391999999REMMET051METAR SBLP 251500Z 23004KT 9999 BKN030 31/21 Q1014;
0120832880999992011032516004-13267-043417FM-15+0443SBLP V0202401N003112200019N0112651N1+03201+02101999999ADDGA1041+009001999GF104991999999999999999999MA1101291999999REMMET051METAR SBLP 251600Z 24006KT 9999 SCT030 32/21 Q1013;
0120832880999992011032517004-13267-043417FM-15+0443SBLP V0201801N003112200019N0112651N1+03201+02101999999ADDGA1041+009001999GF104991999999999999999999MA1101191999999REMMET051METAR SBLP 251700Z 18006KT 9999 SCT030 32/21 Q1012;
0120832880999992011032518004-13267-043417FM-15+0443SBLP V0202101N003112200019N0112651N1+03201+02101999999ADDGA1041+009001999GF104991999999999999999999MA1101081999999REMMET051METAR SBLP 251800Z 21006KT 9999 SCT030 32/21 Q1011;
0120832880999992011032519004-13267-043417FM-15+0443SBLP V0202101N003112200019N0112651N1+03201+02101999999ADDGA1021+009001999GF102991999999999999999999MA1101081999999REMMET051METAR SBLP 251900Z 21006KT 9999 FEW030 32/21 Q1011;
0120832880999992011032520004-13267-043417FM-15+0443SBLP V0201801N003112200019N0112651N1+03101+02101999999ADDGA1021+009001999GF102991999999999999999999MA1101081999999REMMET051METAR SBLP 252000Z 18006KT 9999 FEW030 31/21 Q1011;
0120832880999992011032521004-13267-043417FM-15+0443SBLP V0201801N003112200019N0112651N1+03001+02201999999ADDGA1021+009001999GF102991999999999999999999MA1101081999999REMMET051METAR SBLP 252100Z 18006KT 9999 FEW030 30/22 Q1011;
0072832880999992011032610004-13267-043417FM-15+0443SBLP V0209999C000019999999Y0099001N1+02301+02001999999ADDMA1101291999999REMMET045METAR SBLP 261000Z 00000KT CAVOK 23/20 Q1013;
0072832880999992011032611004-13267-043417FM-15+0443SBLP V0209999C000019999999Y0099001N1+02601+02101999999ADDMA1101291999999REMMET045METAR SBLP 261100Z 00000KT CAVOK 26/21 Q1013;
0072832880999992011032612004-13267-043417FM-15+0443SBLP V0200701N003119999999Y0099001N1+02901+02101999999ADDMA1101391999999REMMET045METAR SBLP 261200Z 07006KT CAVOK 29/21 Q1014;
0120832880999992011032613004-13267-043417FM-15+0443SBLP V0200901N003112200019N0112651N1+03001+02101999999ADDGA1021+009001999GF102991999999999999999999MA1101391999999REMMET051METAR SBLP 261300Z 09006KT 9999 FEW030 30/21 Q1014;
0120832880999992011032614004-13267-043417FM-15+0443SBLP V0209999C000012200019N0112651N1+03201+02101999999ADDGA1041+009001999GF104991999999999999999999MA1101391999999REMMET051METAR SBLP 261400Z 00000KT 9999 SCT030 32/21 Q1014;
0120832880999992011032615004-13267-043417FM-15+0443SBLP V0202701N002110090019N0112651N1+03201+02101999999ADDGA1071+009001999GF107991999999999999999999MA1101291999999REMMET051METAR SBLP 261500Z 27004KT 9999 BKN030 32/21 Q1013;
0158832880999992011032616004-13267-043417FM-15+0443SBLP V0202101N003112200019N0080001N1+03301+02101999999ADDGA1021+009001091GA2041+009001999MA1101191999999MW1161MW2171REMMET068METAR SBLP 261600Z 21006KT 8000 TS VCSH SCT030 FEW030CB 33/21 Q1012;EQDQ01+000022SCOTCV
0156832880999992011032617004-13267-043417FM-15+0443SBLP V0201301N00621009001CN0060001N1+02302+02201999999ADDGA1021+009001091GA2071+009001999MA1101191999999MW1801MW2951REMMET066METAR SBLP 261700Z 13012KT 6000 -TSRA BKN030 FEW030CB 23/22 Q1012;EQDQ01+000022SCOTCV
0177832880999992011032618004-13267-043417FM-15+0443SBLP V0201401N003110300019N0112651N1+02501+02401999999ADDGA1021+009001091GA2041+009001999GA3071+030001999GF107991999999999999999999MA1101191999999MW1171REMMET070METAR SBLP 261800Z 14006KT 9999 TS SCT030 FEW030CB BKN100 25/24 Q1012;
0143832880999992011032619004-13267-043417FM-15+0443SBLP V0209999C000010300019N0112651N1+02601+02301999999ADDGA1021+009001999GA2071+030001999GF107991999999999999999999MA1101081999999REMMET058METAR SBLP 261900Z 00000KT 9999 FEW030 BKN100 26/23 Q1011;
0143832880999992011032620004-13267-043417FM-15+0443SBLP V0200901N003110300019N0112651N1+02701+02401999999ADDGA1021+009001999GA2071+030001999GF107991999999999999999999MA1101021999999REMMET058METAR SBLP 262000Z 09006KT 9999 FEW030 BKN100 27/24 Q1010;
0143832880999992011032621004-13267-043417FM-15+0443SBLP V0201001N002110300019N0112651N1+02601+02301999999ADDGA1021+009001999GA2071+030001999GF107991999999999999999999MA1101081999999REMMET058METAR SBLP 262100Z 10004KT 9999 FEW030 BKN100 26/23 Q1011;
0128832880999992011032710004-13267-043417FM-15+0443SBLP V0209999C000010099019N0005001N1+02301+02301999999ADDGA1091+009901999GF109991999999000251999999MA1101391999999MW1451REMMET053METAR SBLP 271000Z 00000KT 0500 FG VV033 23/23 Q1014;
0128832880999992011032711004-13267-043417FM-15+0443SBLP V0209999C000010099019N0005001N1+02301+02301999999ADDGA1091+009901999GF109991999999000251999999MA1101491999999MW1451REMMET053METAR SBLP 271100Z 00000KT 0500 FG VV033 23/23 Q1015;
0072832880999992011032712004-13267-043417FM-15+0443SBLP V0209999C000019999999Y0099001N1+02701+02301999999ADDMA1101491999999REMMET045METAR SBLP 271200Z 00000KT CAVOK 27/23 Q1015;
0120832880999992011032713004-13267-043417FM-15+0443SBLP V0200901N001512200019N0112651N1+02901+02201999999ADDGA1021+009001999GF102991999999999999999999MA1101491999999REMMET051METAR SBLP 271300Z 09003KT 9999 FEW030 29/22 Q1015;
0120832880999992011032714004-13267-043417FM-15+0443SBLP V0200901N003112200019N0112651N1+03001+02201999999ADDGA1041+009001999GF104991999999999999999999MA1101491999999REMMET051METAR SBLP 271400Z 09006KT 9999 SCT030 30/22 Q1015;
0120832880999992011032715004-13267-043417FM-15+0443SBLP V0200901N004112200019N0112651N1+03201+02101999999ADDGA1041+009001999GF104991999999999999999999MA1101391999999REMMET051METAR SBLP 271500Z 09008KT 9999 SCT030 32/21 Q1014;
0120832880999992011032716004-13267-043417FM-15+0443SBLP V0200901N003112200019N0112651N1+03201+02101999999ADDGA1041+009001999GF104991999999999999999999MA1101191999999REMMET051METAR SBLP 271600Z 09006KT 9999 SCT030 32/21 Q1012;
0120832880999992011032717004-13267-043417FM-15+0443SBLP V0200901N003112200019N0112651N1+03301+02001999999ADDGA1041+009001999GF104991999999999999999999MA1101081999999REMMET051METAR SBLP 271700Z 09006KT 9999 SCT030 33/20 Q1011;
0120832880999992011032718004-13267-043417FM-15+0443SBLP V0200901N003112200019N0112651N1+03301+02001999999ADDGA1041+009001999GF104991999999999999999999MA1101021999999REMMET051METAR SBLP 271800Z 09006KT 9999 SCT030 33/20 Q1010;
0120832880999992011032719004-13267-043417FM-15+0443SBLP V0200901N003112200019N0112651N1+03301+02001999999ADDGA1041+009001999GF104991999999999999999999MA1101021999999REMMET051METAR SBLP 271900Z 09006KT 9999 SCT030 33/20 Q1010;
0120832880999992011032720004-13267-043417FM-15+0443SBLP V0201801N003112200019N0112651N1+03201+02001999999ADDGA1041+009001999GF104991999999999999999999MA1101021999999REMMET051METAR SBLP 272000Z 18006KT 9999 SCT030 32/20 Q1010;
0147832880999992011032721004-13267-043417FM-15+0443SBLP V0201801N006212200019N0112651N1+03101+02001999999ADDGA1041+009001999GA2021+012001091MA1101021999999MW1171REMMET063METAR SBLP 272100Z 18012KT 9999 TS SCT030 FEW040CB 31/20 Q1010;EQDQ01+000022SCOTCV
0143832880999992011032809154-13267-043417FM-15+0443SBLP V0202701N003110300019N0112651N1+02201+02001999999ADDGA1041+003001999GA2071+030001999GF107991999999999999999999MA1101491999999REMMET058METAR SBLP 280915Z 27006KT 9999 SCT010 BKN100 22/20 Q1015;
0143832880999992011032810004-13267-043417FM-15+0443SBLP V0202701N003110300019N0112651N1+02401+02001999999ADDGA1041+003001999GA2071+030001999GF107991999999999999999999MA1101591999999REMMET058METAR SBLP 281000Z 27006KT 9999 SCT010 BKN100 24/20 Q1016;
0143832880999992011032811004-13267-043417FM-15+0443SBLP V0203601N003110300019N0112651N1+02501+02001999999ADDGA1021+004501999GA2071+030001999GF107991999999999999999999MA1101691999999REMMET058METAR SBLP 281100Z 36006KT 9999 FEW015 BKN100 25/20 Q1017;
0143832880999992011032812004-13267-043417FM-15+0443SBLP V0203601N003110300019N0112651N1+02801+02001999999ADDGA1021+006001999GA2071+030001999GF107991999999999999999999MA1101691999999REMMET058METAR SBLP 281200Z 36006KT 9999 FEW020 BKN100 28/20 Q1017;
0143832880999992011032813004-13267-043417FM-15+0443SBLP V0203601N003110300019N0112651N1+02901+02001999999ADDGA1021+006001999GA2071+030001999GF107991999999999999999999MA1101691999999REMMET058METAR SBLP 281300Z 36006KT 9999 FEW020 BKN100 29/20 Q1017;
0143832880999992011032814004-13267-043417FM-15+0443SBLP V0203601N003112200019N0112651N1+03001+02001999999ADDGA1041+006001999GA2041+030001999GF104991999999999999999999MA1101691999999REMMET058METAR SBLP 281400Z 36006KT 9999 SCT020 SCT100 30/20 Q1017;
0143832880999992011032815004-13267-043417FM-15+0443SBLP V0200901N003112200019N0112651N1+03101+02001999999ADDGA1041+009001999GA2041+030001999GF104991999999999999999999MA1101591999999REMMET058METAR SBLP 281500Z 09006KT 9999 SCT030 SCT100 31/20 Q1016;
0120832880999992011032816004-13267-043417FM-15+0443SBLP V0202401N002112200019N0112651N1+03201+02201999999ADDGA1041+009001999GF104991999999999999999999MA1101491999999REMMET051METAR SBLP 281600Z 24004KT 9999 SCT030 32/22 Q1015;
0120832880999992011032817004-13267-043417FM-15+0443SBLP V0209999C000010090019N0112651N1+03201+02101999999ADDGA1071+009001999GF107991999999999999999999MA1101391999999REMMET051METAR SBLP 281700Z 00000KT 9999 BKN030 32/21 Q1014;
0156832880999992011032818004-13267-043417FM-15+0443SBLP V0200601N005112200019N0080001N1+02801+02301999999ADDGA1021+009001091GA2041+009001999MA1101291999999MW1801MW2951REMMET066METAR SBLP 281800Z 06010KT 8000 -TSRA SCT030 FEW030CB 28/23 Q1013;EQDQ01+000022SCOTCV
0148832880999992011032819004-13267-043417FM-15+0443SBLP V0209999C000012200019N0112651N1+02401+02201999999ADDGA1041+009001999GA2041+030001999GF104991999999999999999999MA1101291999999REMMET063METAR SBLP 281900Z 00000KT 9999 SCT030 SCT100 24/22 Q1013 RETS;
0143832880999992011032820004-13267-043417FM-15+0443SBLP V0209999C000012200019N0112651N1+02501+02301999999ADDGA1021+009001999GA2041+030001999GF104991999999999999999999MA1101291999999REMMET058METAR SBLP 282000Z 00000KT 9999 FEW030 SCT100 25/23 Q1013;
0143832880999992011032821004-13267-043417FM-15+0443SBLP V0209999C000012200019N0112651N1+02501+02401999999ADDGA1041+009001999GA2041+030001999GF104991999999999999999999MA1101291999999REMMET058METAR SBLP 282100Z 00000KT 9999 SCT030 SCT100 25/24 Q1013;
0143832880999992011032910004-13267-043417FM-15+0443SBLP V0202701N001512200019N0112651N1+02301+02001999999ADDGA1021+006001999GA2041+030001999GF104991999999999999999999MA1101591999999REMMET058METAR SBLP 291000Z 27003KT 9999 FEW020 SCT100 23/20 Q1016;
0143832880999992011032911004-13267-043417FM-15+0443SBLP V0201301N001510300019N0112651N1+02601+02201999999ADDGA1021+006001999GA2071+030001999GF107991999999999999999999MA1101691999999REMMET058METAR SBLP 291100Z 13003KT 9999 FEW020 BKN100 26/22 Q1017;
0143832880999992011032912004-13267-043417FM-15+0443SBLP V0201501N002110300019N0112651N1+02701+02201999999ADDGA1021+008101999GA2071+030001999GF107991999999999999999999MA1101691999999REMMET058METAR SBLP 291200Z 15004KT 9999 FEW027 BKN100 27/22 Q1017;
0143832880999992011032913004-13267-043417FM-15+0443SBLP V0201801N001510300019N0112651N1+02801+02301999999ADDGA1021+008101999GA2071+030001999GF107991999999999999999999MA1101691999999REMMET058METAR SBLP 291300Z 18003KT 9999 FEW027 BKN100 28/23 Q1017;
0143832880999992011032914004-13267-043417FM-15+0443SBLP V0209999C000010300019N0112651N1+03001+02201999999ADDGA1041+008101999GA2071+030001999GF107991999999999999999999MA1101691999999REMMET058METAR SBLP 291400Z 00000KT 9999 SCT027 BKN100 30/22 Q1017;
0143832880999992011032915004-13267-043417FM-15+0443SBLP V0202101N003112200019N0112651N1+03101+02201999999ADDGA1041+009001999GA2041+030001999GF104991999999999999999999MA1101491999999REMMET058METAR SBLP 291500Z 21006KT 9999 SCT030 SCT100 31/22 Q1015;
0120832880999992011032916004-13267-043417FM-15+0443SBLP V0202501N003112200019N0112651N1+03101+02201999999ADDGA1041+009001999GF104991999999999999999999MA1101391999999REMMET051METAR SBLP 291600Z 25006KT 9999 SCT030 31/22 Q1014;
0120832880999992011032917004-13267-043417FM-15+0443SBLP V0202001N003112200019N0112651N1+03201+02201999999ADDGA1041+009001999GF104991999999999999999999MA1101291999999REMMET051METAR SBLP 291700Z 20006KT 9999 SCT030 32/22 Q1013;
0120832880999992011032918004-13267-043417FM-15+0443SBLP V0202401N003112200019N0112651N1+03301+02101999999ADDGA1041+009001999GF104991999999999999999999MA1101191999999REMMET051METAR SBLP 291800Z 24006KT 9999 SCT030 33/21 Q1012;
0120832880999992011032919004-13267-043417FM-15+0443SBLP V0202701N003112200019N0112651N1+03301+02201999999ADDGA1021+009001999GF102991999999999999999999MA1101081999999REMMET051METAR SBLP 291900Z 27006KT 9999 FEW030 33/22 Q1011;
0072832880999992011032920004-13267-043417FM-15+0443SBLP V0201801N003119999999Y0099001N1+03201+02201999999ADDMA1101081999999REMMET045METAR SBLP 292000Z 18006KT CAVOK 32/22 Q1011;
0072832880999992011032921004-13267-043417FM-15+0443SBLP V0209999C000019999999Y0099001N1+03101+02301999999ADDMA1101191999999REMMET045METAR SBLP 292100Z 00000KT CAVOK 31/23 Q1012;
0072832880999992011033010004-13267-043417FM-15+0443SBLP V0200201N001519999999Y0099001N1+02401+02101999999ADDMA1101591999999REMMET045METAR SBLP 301000Z 02003KT CAVOK 24/21 Q1016;
0120832880999992011033011004-13267-043417FM-15+0443SBLP V0209999C000012200019N0112651N1+02501+02201999999ADDGA1021+009001999GF102991999999999999999999MA1101591999999REMMET051METAR SBLP 301100Z 00000KT 9999 FEW030 25/22 Q1016;
0120832880999992011033012004-13267-043417FM-15+0443SBLP V0209999C000012200019N0112651N1+02801+02201999999ADDGA1021+009001999GF102991999999999999999999MA1101691999999REMMET051METAR SBLP 301200Z 00000KT 9999 FEW030 28/22 Q1017;
0120832880999992011033013004-13267-043417FM-15+0443SBLP V0202101N001512200019N0112651N1+02901+02101999999ADDGA1041+009001999GF104991999999999999999999MA1101691999999REMMET051METAR SBLP 301300Z 21003KT 9999 SCT030 29/21 Q1017;
0120832880999992011033014004-13267-043417FM-15+0443SBLP V0201901N002612200019N0112651N1+03001+02101999999ADDGA1041+009001999GF104991999999999999999999MA1101591999999REMMET051METAR SBLP 301400Z 19005KT 9999 SCT030 30/21 Q1016;
0120832880999992011033015004-13267-043417FM-15+0443SBLP V0201201N001010090019N0112651N1+03101+02101999999ADDGA1071+009001999GF107991999999999999999999MA1101491999999REMMET051METAR SBLP 301500Z 12002KT 9999 BKN030 31/21 Q1015;
0120832880999992011033016004-13267-043417FM-15+0443SBLP V0201801N003112200019N0112651N1+03101+02101999999ADDGA1041+009001999GF104991999999999999999999MA1101291999999REMMET051METAR SBLP 301600Z 18006KT 9999 SCT030 31/21 Q1013;
0120832880999992011033017004-13267-043417FM-15+0443SBLP V0201801N003112200019N0112651N1+03201+02001999999ADDGA1041+009001999GF104991999999999999999999MA1101191999999REMMET051METAR SBLP 301700Z 18006KT 9999 SCT030 32/20 Q1012;
0120832880999992011033018004-13267-043417FM-15+0443SBLP V0201801N003112200019N0112651N1+03301+01901999999ADDGA1041+009001999GF104991999999999999999999MA1101081999999REMMET051METAR SBLP 301800Z 18006KT 9999 SCT030 33/19 Q1011;
0120832880999992011033019004-13267-043417FM-15+0443SBLP V0201801N003112200019N0112651N1+03301+01901999999ADDGA1021+009001999GF102991999999999999999999MA1101081999999REMMET051METAR SBLP 301900Z 18006KT 9999 FEW030 33/19 Q1011;
0120832880999992011033020004-13267-043417FM-15+0443SBLP V0201801N003112200019N0112651N1+03301+01901999999ADDGA1021+009001999GF102991999999999999999999MA1101081999999REMMET051METAR SBLP 302000Z 18006KT 9999 FEW030 33/19 Q1011;
0120832880999992011033021004-13267-043417FM-15+0443SBLP V0201801N003112200019N0112651N1+03101+02001999999ADDGA1021+009001999GF102991999999999999999999MA1101081999999REMMET051METAR SBLP 302100Z 18006KT 9999 FEW030 31/20 Q1011;
0072832880999992011033110004-13267-043417FM-15+0443SBLP V0209999C000019999999Y0099001N1+02301+02201999999ADDMA1101391999999REMMET045METAR SBLP 311000Z 00000KT CAVOK 23/22 Q1014;
0072832880999992011033111004-13267-043417FM-15+0443SBLP V0202701N003119999999Y0099001N1+02501+02101999999ADDMA1101491999999REMMET045METAR SBLP 311100Z 27006KT CAVOK 25/21 Q1015;
0143832880999992011033112004-13267-043417FM-15+0443SBLP V0202701N003112200019N0112651N1+02701+02101999999ADDGA1021+009001999GA2041+030001999GF104991999999999999999999MA1101591999999REMMET058METAR SBLP 311200Z 27006KT 9999 FEW030 SCT100 27/21 Q1016;
0120832880999992011033114004-13267-043417FM-15+0443SBLP V0203001N003112200019N0112651N1+03101+02001999999ADDGA1021+009001999GF102991999999999999999999MA1101391999999REMMET051METAR SBLP 311400Z 30006KT 9999 FEW030 31/20 Q1014;
0120832880999992011033115004-13267-043417FM-15+0443SBLP V0202401N003112200019N0112651N1+03201+01901999999ADDGA1041+009001999GF104991999999999999999999MA1101291999999REMMET051METAR SBLP 311500Z 24006KT 9999 SCT030 32/19 Q1013;
0120832880999992011033116004-13267-043417FM-15+0443SBLP V0209999C000012200019N0112651N1+03301+01901999999ADDGA1041+009001999GF104991999999999999999999MA1101191999999REMMET051METAR SBLP 311600Z 00000KT 9999 SCT030 33/19 Q1012;
0120832880999992011033117004-13267-043417FM-15+0443SBLP V0202201N002112200019N0112651N1+03401+02001999999ADDGA1041+009001999GF104991999999999999999999MA1101081999999REMMET051METAR SBLP 311700Z 22004KT 9999 SCT030 34/20 Q1011;
0120832880999992011033118004-13267-043417FM-15+0443SBLP V0202301N002112200019N0112651N1+03301+02001999999ADDGA1021+009001999GF102991999999999999999999MA1101021999999REMMET051METAR SBLP 311800Z 23004KT 9999 FEW030 33/20 Q1010;
0120832880999992011033119004-13267-043417FM-15+0443SBLP V0209999C000012200019N0112651N1+03401+02001999999ADDGA1021+009001999GF102991999999999999999999MA1101021999999REMMET051METAR SBLP 311900Z 00000KT 9999 FEW030 34/20 Q1010;
0123832880999992011033120004-13267-043417FM-15+0443SBLP V0202101N002112200019N0112651N1+03301+02001999999ADDGA1021+009001021GF102991999999999999999999MA1101021999999REMMET054METAR SBLP 312000Z 21004KT 9999 FEW030TCU 33/20 Q1010;
0120832880999992011033121004-13267-043417FM-15+0443SBLP V0201501N002112200019N0112651N1+03101+02101999999ADDGA1021+009001999GF102991999999999999999999MA1101021999999REMMET051METAR SBLP 312100Z 15004KT 9999 FEW030 31/21 Q1010;
0072832880999992011040110004-13267-043417FM-15+0443SBLP V0200601N002119999999Y0099001N1+02401+02201999999ADDMA1101391999999REMMET045METAR SBLP 011000Z 06004KT CAVOK 24/22 Q1014;
0072832880999992011040111004-13267-043417FM-15+0443SBLP V0209999C000019999999Y0099001N1+02501+02201999999ADDMA1101491999999REMMET045METAR SBLP 011100Z 00000KT CAVOK 25/22 Q1015;
0072832880999992011040112004-13267-043417FM-15+0443SBLP V0203501N002119999999Y0099001N1+02601+02301999999ADDMA1101591999999REMMET045METAR SBLP 011200Z 35004KT CAVOK 26/23 Q1016;
0072832880999992011040113004-13267-043417FM-15+0443SBLP V0209999C000019999999Y0099001N1+02801+02301999999ADDMA1101591999999REMMET045METAR SBLP 011300Z 00000KT CAVOK 28/23 Q1016;
0143832880999992011040114004-13267-043417FM-15+0443SBLP V0203301N001512200019N0112651N1+02901+02101999999ADDGA1021+009001999GA2041+030001999GF104991999999999999999999MA1101491999999REMMET058METAR SBLP 011400Z 33003KT 9999 FEW030 SCT100 29/21 Q1015;
0120832880999992011040115004-13267-043417FM-15+0443SBLP V0200301N001512200019N0112651N1+03001+02201999999ADDGA1021+009001999GF102991999999999999999999MA1101391999999REMMET051METAR SBLP 011500Z 03003KT 9999 FEW030 30/22 Q1014;
0120832880999992011040116004-13267-043417FM-15+0443SBLP V0203001N003112200019N0112651N1+03101+02101999999ADDGA1021+009001999GF102991999999999999999999MA1101291999999REMMET051METAR SBLP 011600Z 30006KT 9999 FEW030 31/21 Q1013;
0120832880999992011040117004-13267-043417FM-15+0443SBLP V0202701N003112200019N0112651N1+03301+02101999999ADDGA1021+009001999GF102991999999999999999999MA1101191999999REMMET051METAR SBLP 011700Z 27006KT 9999 FEW030 33/21 Q1012;
0120832880999992011040118004-13267-043417FM-15+0443SBLP V0200401N003112200019N0112651N1+03401+02101999999ADDGA1021+009001999GF102991999999999999999999MA1101081999999REMMET051METAR SBLP 011800Z 04006KT 9999 FEW030 34/21 Q1011;
0120832880999992011040119004-13267-043417FM-15+0443SBLP V0209999C000012200019N0112651N1+03401+02001999999ADDGA1021+009001999GF102991999999999999999999MA1101081999999REMMET051METAR SBLP 011900Z 00000KT 9999 FEW030 34/20 Q1011;
0120832880999992011040120004-13267-043417FM-15+0443SBLP V0209999C000012200019N0112651N1+03401+02101999999ADDGA1021+009001999GF102991999999999999999999MA1101081999999REMMET051METAR SBLP 012000Z 00000KT 9999 FEW030 34/21 Q1011;
0072832880999992011040121004-13267-043417FM-15+0443SBLP V0209999C000019999999Y0099001N1+03201+02101999999ADDMA1101081999999REMMET045METAR SBLP 012100Z 00000KT CAVOK 32/21 Q1011;
0120832880999992011040209154-13267-043417FM-15+0443SBLP V0209999C000012200019N0112651N1+02401+02201999999ADDGA1021+009001999GF102991999999999999999999MA1101291999999REMMET051METAR SBLP 020915Z 00000KT 9999 FEW030 24/22 Q1013;
0143832880999992011040210004-13267-043417FM-15+0443SBLP V0209999C000012200019N0112651N1+02501+02201999999ADDGA1021+009001999GA2041+030001999GF104991999999999999999999MA1101391999999REMMET058METAR SBLP 021000Z 00000KT 9999 FEW030 SCT100 25/22 Q1014;
0143832880999992011040211004-13267-043417FM-15+0443SBLP V0203501N002112200019N0112651N1+02601+02201999999ADDGA1021+009001999GA2041+030001999GF104991999999999999999999MA1101491999999REMMET058METAR SBLP 021100Z 35004KT 9999 FEW030 SCT100 26/22 Q1015;
0143832880999992011040212004-13267-043417FM-15+0443SBLP V0209999C000012200019N0112651N1+02801+02101999999ADDGA1021+009001999GA2041+030001999GF104991999999999999999999MA1101491999999REMMET058METAR SBLP 021200Z 00000KT 9999 FEW030 SCT100 28/21 Q1015;
0143832880999992011040213004-13267-043417FM-15+0443SBLP V0203001N003112200019N0112651N1+03001+02201999999ADDGA1021+009001999GA2041+030001999GF104991999999999999999999MA1101491999999REMMET058METAR SBLP 021300Z 30006KT 9999 FEW030 SCT100 30/22 Q1015;
0120832880999992011040214004-13267-043417FM-15+0443SBLP V0209999C000012200019N0112651N1+03101+02101999999ADDGA1041+009001999GF104991999999999999999999MA1101391999999REMMET051METAR SBLP 021400Z 00000KT 9999 SCT030 31/21 Q1014;
0120832880999992011040215004-13267-043417FM-15+0443SBLP V0203501N002112200019N0112651N1+03201+02101999999ADDGA1041+009001999GF104991999999999999999999MA1101391999999REMMET051METAR SBLP 021500Z 35004KT 9999 SCT030 32/21 Q1014;
0120832880999992011040216004-13267-043417FM-15+0443SBLP V0203601N003112200019N0112651N1+03301+02101999999ADDGA1041+009001999GF104991999999999999999999MA1101191999999REMMET051METAR SBLP 021600Z 36006KT 9999 SCT030 33/21 Q1012;
0120832880999992011040217004-13267-043417FM-15+0443SBLP V0203601N003112200019N0112651N1+03401+02001999999ADDGA1041+009001999GF104991999999999999999999MA1101021999999REMMET051METAR SBLP 021700Z 36006KT 9999 SCT030 34/20 Q1010;
0120832880999992011040218004-13267-043417FM-15+0443SBLP V0203601N003112200019N0112651N1+03501+01901999999ADDGA1041+009001999GF104991999999999999999999MA1101021999999REMMET051METAR SBLP 021800Z 36006KT 9999 SCT030 35/19 Q1010;
0120832880999992011040219004-13267-043417FM-15+0443SBLP V0203601N003112200019N0112651N1+03401+01901999999ADDGA1041+009001999GF104991999999999999999999MA1100911999999REMMET051METAR SBLP 021900Z 36006KT 9999 SCT030 34/19 Q1009;
0120832880999992011040220004-13267-043417FM-15+0443SBLP V0203601N003112200019N0112651N1+03201+02001999999ADDGA1041+009001999GF104991999999999999999999MA1101021999999REMMET051METAR SBLP 022000Z 36006KT 9999 SCT030 32/20 Q1010;
0120832880999992011040221004-13267-043417FM-15+0443SBLP V0203601N003112200019N0112651N1+03001+02101999999ADDGA1041+009001999GF104991999999999999999999MA1101081999999REMMET051METAR SBLP 022100Z 36006KT 9999 SCT030 30/21 Q1011;
0120832880999992011040309154-13267-043417FM-15+0443SBLP V0209999C000012200019N0112651N1+02301+02301999999ADDGA1021+009001999GF102991999999999999999999MA1101291999999REMMET051METAR SBLP 030915Z 00000KT 9999 FEW030 23/23 Q1013;
0120832880999992011040310004-13267-043417FM-15+0443SBLP V0209999C000012200019N0112651N1+02501+02201999999ADDGA1041+009001999GF104991999999999999999999MA1101291999999REMMET051METAR SBLP 031000Z 00000KT 9999 SCT030 25/22 Q1013;
0143832880999992011040311004-13267-043417FM-15+0443SBLP V0209999C000012200019N0112651N1+02501+02201999999ADDGA1041+009001999GA2041+030001999GF104991999999999999999999MA1101391999999REMMET058METAR SBLP 031100Z 00000KT 9999 SCT030 SCT100 25/22 Q1014;
0143832880999992011040312004-13267-043417FM-15+0443SBLP V0209999C000010300019N0112651N1+02801+02101999999ADDGA1041+009001999GA2071+030001999GF107991999999999999999999MA1101391999999REMMET058METAR SBLP 031200Z 00000KT 9999 SCT030 BKN100 28/21 Q1014;
0143832880999992011040313004-13267-043417FM-15+0443SBLP V0202101N002110300019N0112651N1+02801+02201999999ADDGA1041+009001999GA2071+030001999GF107991999999999999999999MA1101391999999REMMET058METAR SBLP 031300Z 21004KT 9999 SCT030 BKN100 28/22 Q1014;
0143832880999992011040314004-13267-043417FM-15+0443SBLP V0203001N003112200019N0112651N1+03001+02201999999ADDGA1021+009001999GA2041+030001999GF104991999999999999999999MA1101391999999REMMET058METAR SBLP 031400Z 30006KT 9999 FEW030 SCT100 30/22 Q1014;
0120832880999992011040315004-13267-043417FM-15+0443SBLP V0202701N003112200019N0112651N1+03101+02101999999ADDGA1041+009001999GF104991999999999999999999MA1101291999999REMMET051METAR SBLP 031500Z 27006KT 9999 SCT030 31/21 Q1013;
0120832880999992011040316004-13267-043417FM-15+0443SBLP V0203601N003112200019N0112651N1+03301+02101999999ADDGA1041+009001999GF104991999999999999999999MA1101081999999REMMET051METAR SBLP 031600Z 36006KT 9999 SCT030 33/21 Q1011;
0120832880999992011040317004-13267-043417FM-15+0443SBLP V0203601N003112200019N0112651N1+03301+02001999999ADDGA1041+009001999GF104991999999999999999999MA1101021999999REMMET051METAR SBLP 031700Z 36006KT 9999 SCT030 33/20 Q1010;
0120832880999992011040318004-13267-043417FM-15+0443SBLP V0203601N003112200019N0112651N1+03401+02001999999ADDGA1041+009001999GF104991999999999999999999MA1100911999999REMMET051METAR SBLP 031800Z 36006KT 9999 SCT030 34/20 Q1009;
0120832880999992011040319004-13267-043417FM-15+0443SBLP V0203601N003112200019N0112651N1+03301+02001999999ADDGA1041+009001999GF104991999999999999999999MA1100911999999REMMET051METAR SBLP 031900Z 36006KT 9999 SCT030 33/20 Q1009;
0120832880999992011040320004-13267-043417FM-15+0443SBLP V0203601N003112200019N0112651N1+03201+02001999999ADDGA1041+009001999GF104991999999999999999999MA1100911999999REMMET051METAR SBLP 032000Z 36006KT 9999 SCT030 32/20 Q1009;
0120832880999992011040321004-13267-043417FM-15+0443SBLP V0203601N003112200019N0112651N1+03101+02001999999ADDGA1041+009001999GF104991999999999999999999MA1101021999999REMMET051METAR SBLP 032100Z 36006KT 9999 SCT030 31/20 Q1010;
0143832880999992011040410004-13267-043417FM-15+0443SBLP V0209999C000012200019N0112651N1+02401+02301999999ADDGA1021+008101999GA2041+030001999GF104991999999999999999999MA1101391999999REMMET058METAR SBLP 041000Z 00000KT 9999 FEW027 SCT100 24/23 Q1014;
0143832880999992011040411004-13267-043417FM-15+0443SBLP V0201701N002112200019N0112651N1+02501+02201999999ADDGA1021+008101999GA2041+030001999GF104991999999999999999999MA1101491999999REMMET058METAR SBLP 041100Z 17004KT 9999 FEW027 SCT100 25/22 Q1015;
0143832880999992011040412004-13267-043417FM-15+0443SBLP V0202101N001512200019N0112651N1+02601+02201999999ADDGA1021+008101999GA2041+030001999GF104991999999999999999999MA1101491999999REMMET058METAR SBLP 041200Z 21003KT 9999 FEW027 SCT100 26/22 Q1015;
0143832880999992011040413004-13267-043417FM-15+0443SBLP V0209999C000012200019N0112651N1+02901+02201999999ADDGA1021+008101999GA2041+030001999GF104991999999999999999999MA1101591999999REMMET058METAR SBLP 041300Z 00000KT 9999 FEW027 SCT100 29/22 Q1016;
0143832880999992011040414004-13267-043417FM-15+0443SBLP V0209999C000012200019N0112651N1+03001+02201999999ADDGA1021+009001999GA2041+030001999GF104991999999999999999999MA1101491999999REMMET058METAR SBLP 041400Z 00000KT 9999 FEW030 SCT100 30/22 Q1015;
0143832880999992011040415004-13267-043417FM-15+0443SBLP V0200701N001512200019N0112651N1+03101+02001999999ADDGA1041+009001999GA2041+030001999GF104991999999999999999999MA1101291999999REMMET058METAR SBLP 041500Z 07003KT 9999 SCT030 SCT100 31/20 Q1013;
0120832880999992011040416004-13267-043417FM-15+0443SBLP V0203601N003112200019N0112651N1+03201+02001999999ADDGA1041+009001999GF104991999999999999999999MA1101191999999REMMET051METAR SBLP 041600Z 36006KT 9999 SCT030 32/20 Q1012;
0120832880999992011040417004-13267-043417FM-15+0443SBLP V0203601N003112200019N0112651N1+03301+02001999999ADDGA1041+009001999GF104991999999999999999999MA1101081999999REMMET051METAR SBLP 041700Z 36006KT 9999 SCT030 33/20 Q1011;
0120832880999992011040418004-13267-043417FM-15+0443SBLP V0203601N003112200019N0112651N1+03401+02001999999ADDGA1041+009001999GF104991999999999999999999MA1101021999999REMMET051METAR SBLP 041800Z 36006KT 9999 SCT030 34/20 Q1010;
0120832880999992011040421004-13267-043417FM-15+0443SBLP V0202701N003112200019N0112651N1+03101+02101999999ADDGA1041+009001999GF104991999999999999999999MA1101081999999REMMET051METAR SBLP 042100Z 27006KT 9999 SCT030 31/21 Q1011;
0072832880999992011040510004-13267-043417FM-15+0443SBLP V0209999C000019999999Y0099001N1+02301+02001999999ADDMA1101391999999REMMET045METAR SBLP 051000Z 00000KT CAVOK 23/20 Q1014;
0120832880999992011040511004-13267-043417FM-15+0443SBLP V0209999C000012200019N0112651N1+02601+02201999999ADDGA1021+008101999GF102991999999999999999999MA1101491999999REMMET051METAR SBLP 051100Z 00000KT 9999 FEW027 26/22 Q1015;
0120832880999992011040512004-13267-043417FM-15+0443SBLP V0200601N001512200019N0112651N1+02801+02201999999ADDGA1021+009001999GF102991999999999999999999MA1101491999999REMMET051METAR SBLP 051200Z 06003KT 9999 FEW030 28/22 Q1015;
0120832880999992011040513004-13267-043417FM-15+0443SBLP V0202701N001512200019N0112651N1+02901+02201999999ADDGA1021+009001999GF102991999999999999999999MA1101491999999REMMET051METAR SBLP 051300Z 27003KT 9999 FEW030 29/22 Q1015;
0120832880999992011040514004-13267-043417FM-15+0443SBLP V0201801N001512200019N0112651N1+03101+02201999999ADDGA1021+009001999GF102991999999999999999999MA1101491999999REMMET051METAR SBLP 051400Z 18003KT 9999 FEW030 31/22 Q1015;
0120832880999992011040515004-13267-043417FM-15+0443SBLP V0202301N001512200019N0112651N1+03101+02101999999ADDGA1021+009001999GF102991999999999999999999MA1101391999999REMMET051METAR SBLP 051500Z 23003KT 9999 FEW030 31/21 Q1014;
0120832880999992011040516004-13267-043417FM-15+0443SBLP V0209999C000012200019N0112651N1+03301+02101999999ADDGA1041+009001999GF104991999999999999999999MA1101191999999REMMET051METAR SBLP 051600Z 00000KT 9999 SCT030 33/21 Q1012;
0120832880999992011040517004-13267-043417FM-15+0443SBLP V0203601N001512200019N0112651N1+03401+02101999999ADDGA1041+009001999GF104991999999999999999999MA1101081999999REMMET051METAR SBLP 051700Z 36003KT 9999 SCT030 34/21 Q1011;
0120832880999992011040518004-13267-043417FM-15+0443SBLP V0203601N003112200019N0112651N1+03301+02001999999ADDGA1021+009001999GF102991999999999999999999MA1101021999999REMMET051METAR SBLP 051800Z 36006KT 9999 FEW030 33/20 Q1010;
0123832880999992011040519004-13267-043417FM-15+0443SBLP V0200201N002112200019N0112651N1+03301+02001999999ADDGA1021+009001021GF102991999999999999999999MA1101021999999REMMET054METAR SBLP 051900Z 02004KT 9999 FEW030TCU 33/20 Q1010;
0120832880999992011040520004-13267-043417FM-15+0443SBLP V0200301N003112200019N0112651N1+03201+02001999999ADDGA1021+009001999GF102991999999999999999999MA1101021999999REMMET051METAR SBLP 052000Z 03006KT 9999 FEW030 32/20 Q1010;
0072832880999992011040521004-13267-043417FM-15+0443SBLP V0209999C000019999999Y0099001N1+03101+01901999999ADDMA1101081999999REMMET045METAR SBLP 052100Z 00000KT CAVOK 31/19 Q1011;
0072832880999992011040610004-13267-043417FM-15+0443SBLP V0209999C000019999999Y0099001N1+02501+02201999999ADDMA1101391999999REMMET045METAR SBLP 061000Z 00000KT CAVOK 25/22 Q1014;
0072832880999992011040611004-13267-043417FM-15+0443SBLP V0209999C000019999999Y0099001N1+02601+02201999999ADDMA1101491999999REMMET045METAR SBLP 061100Z 00000KT CAVOK 26/22 Q1015;
0120832880999992011040612004-13267-043417FM-15+0443SBLP V0202701N002112200019N0112651N1+02801+02201999999ADDGA1041+009001999GF104991999999999999999999MA1101491999999REMMET051METAR SBLP 061200Z 27004KT 9999 SCT030 28/22 Q1015;
0143832880999992011040613004-13267-043417FM-15+0443SBLP V0202401N003112200019N0112651N1+02901+02301999999ADDGA1041+009001999GA2041+030001999GF104991999999999999999999MA1101591999999REMMET058METAR SBLP 061300Z 24006KT 9999 SCT030 SCT100 29/23 Q1016;
0120832880999992011040614004-13267-043417FM-15+0443SBLP V0202101N002612200019N0112651N1+03101+02301999999ADDGA1041+009001999GF104991999999999999999999MA1101491999999REMMET051METAR SBLP 061400Z 21005KT 9999 SCT030 31/23 Q1015;
0120832880999992011040615004-13267-043417FM-15+0443SBLP V0202101N002112200019N0112651N1+03201+02201999999ADDGA1041+009001999GF104991999999999999999999MA1101391999999REMMET051METAR SBLP 061500Z 21004KT 9999 SCT030 32/22 Q1014;
0120832880999992011040616004-13267-043417FM-15+0443SBLP V0202701N003112200019N0112651N1+03201+02301999999ADDGA1041+009001999GF104991999999999999999999MA1101291999999REMMET051METAR SBLP 061600Z 27006KT 9999 SCT030 32/23 Q1013;
0177832880999992011040617004-13267-043417FM-15+0443SBLP V0202101N003112200019N0112651N1+03001+02301999999ADDGA1041+009001999GA2021+012001091GA3041+030001999GF104991999999999999999999MA1101191999999MW1171REMMET070METAR SBLP 061700Z 21006KT 9999 TS SCT030 FEW040CB SCT100 30/23 Q1012;
0177832880999992011040618004-13267-043417FM-15+0443SBLP V0202101N00311012001CN0112651N1+02701+02401999999ADDGA1041+009001999GA2021+012001091GA3071+030001999GF107991999999999999999999MA1101081999999MW1171REMMET070METAR SBLP 061800Z 21006KT 9999 TS SCT030 FEW040CB BKN100 27/24 Q1011;
0143832880999992011040619004-13267-043417FM-15+0443SBLP V0201801N003110300019N0112651N1+02801+02401999999ADDGA1041+009001999GA2071+030001999GF107991999999999999999999MA1101081999999REMMET058METAR SBLP 061900Z 18006KT 9999 SCT030 BKN100 28/24 Q1011;
0143832880999992011040620004-13267-043417FM-15+0443SBLP V0201901N003110300019N0112651N1+02801+02401999999ADDGA1041+009001999GA2071+030001999GF107991999999999999999999MA1101081999999REMMET058METAR SBLP 062000Z 19006KT 9999 SCT030 BKN100 28/24 Q1011;
0143832880999992011040621004-13267-043417FM-15+0443SBLP V0209999C000010300019N0112651N1+02701+02401999999ADDGA1021+009001999GA2071+030001999GF107991999999999999999999MA1101081999999REMMET058METAR SBLP 062100Z 00000KT 9999 FEW030 BKN100 27/24 Q1011;
0143832880999992011040710004-13267-043417FM-15+0443SBLP V0209999C000010300019N0112651N1+02501+02301999999ADDGA1041+006001999GA2071+030001999GF107991999999999999999999MA1101391999999REMMET058METAR SBLP 071000Z 00000KT 9999 SCT020 BKN100 25/23 Q1014;
0143832880999992011040711004-13267-043417FM-15+0443SBLP V0201801N003110300019N0112651N1+02601+02201999999ADDGA1041+006001999GA2071+030001999GF107991999999999999999999MA1101491999999REMMET058METAR SBLP 071100Z 18006KT 9999 SCT020 BKN100 26/22 Q1015;
0143832880999992011040712004-13267-043417FM-15+0443SBLP V0209999C000010300019N0112651N1+02601+02301999999ADDGA1041+006001999GA2071+030001999GF107991999999999999999999MA1101491999999REMMET058METAR SBLP 071200Z 00000KT 9999 SCT020 BKN100 26/23 Q1015;
0143832880999992011040713004-13267-043417FM-15+0443SBLP V0200901N003112200019N0112651N1+02801+02301999999ADDGA1021+006001999GA2041+030001999GF104991999999999999999999MA1101491999999REMMET058METAR SBLP 071300Z 09006KT 9999 FEW020 SCT100 28/23 Q1015;
0120832880999992011040714004-13267-043417FM-15+0443SBLP V0200901N003112200019N0112651N1+03101+02201999999ADDGA1041+009001999GF104991999999999999999999MA1101391999999REMMET051METAR SBLP 071400Z 09006KT 9999 SCT030 31/22 Q1014;
0120832880999992011040715004-13267-043417FM-15+0443SBLP V0209999C000012200019N0112651N1+03101+02201999999ADDGA1041+009001999GF104991999999999999999999MA1101291999999REMMET051METAR SBLP 071500Z 00000KT 9999 SCT030 31/22 Q1013;
0120832880999992011040716004-13267-043417FM-15+0443SBLP V0200901N003112200019N0112651N1+03301+02101999999ADDGA1041+009001999GF104991999999999999999999MA1101191999999REMMET051METAR SBLP 071600Z 09006KT 9999 SCT030 33/21 Q1012;
0120832880999992011040717004-13267-043417FM-15+0443SBLP V0203601N003110090019N0112651N1+03201+02101999999ADDGA1071+009001999GF107991999999999999999999MA1101081999999REMMET051METAR SBLP 071700Z 36006KT 9999 BKN030 32/21 Q1011;
0120832880999992011040718004-13267-043417FM-15+0443SBLP V0203601N003110090019N0112651N1+03201+02101999999ADDGA1071+009001999GF107991999999999999999999MA1101081999999REMMET051METAR SBLP 071800Z 36006KT 9999 BKN030 32/21 Q1011;
0120832880999992011040719004-13267-043417FM-15+0443SBLP V0203601N003112200019N0112651N1+03101+02101999999ADDGA1041+009001999GF104991999999999999999999MA1101021999999REMMET051METAR SBLP 071900Z 36006KT 9999 SCT030 31/21 Q1010;
0120832880999992011040720004-13267-043417FM-15+0443SBLP V0203601N003112200019N0112651N1+03001+02101999999ADDGA1041+009001999GF104991999999999999999999MA1101021999999REMMET051METAR SBLP 072000Z 36006KT 9999 SCT030 30/21 Q1010;
0120832880999992011040721004-13267-043417FM-15+0443SBLP V0202701N003112200019N0112651N1+02901+02101999999ADDGA1041+009001999GF104991999999999999999999MA1101021999999REMMET051METAR SBLP 072100Z 27006KT 9999 SCT030 29/21 Q1010;
0072832880999992011040810004-13267-043417FM-15+0443SBLP V0201301N002619999999Y0099001N1+02401+02001999999ADDMA1101391999999REMMET045METAR SBLP 081000Z 13005KT CAVOK 24/20 Q1014;
0072832880999992011040811004-13267-043417FM-15+0443SBLP V0201201N003119999999Y0099001N1+02701+01901999999ADDMA1101491999999REMMET045METAR SBLP 081100Z 12006KT CAVOK 27/19 Q1015;
0072832880999992011040812004-13267-043417FM-15+0443SBLP V0200901N001519999999Y0099001N1+02801+01901999999ADDMA1101591999999REMMET045METAR SBLP 081200Z 09003KT CAVOK 28/19 Q1016;
0120832880999992011040813004-13267-043417FM-15+0443SBLP V0209999C000012200019N0112651N1+03001+02101999999ADDGA1021+009001999GF102991999999999999999999MA1101591999999REMMET051METAR SBLP 081300Z 00000KT 9999 FEW030 30/21 Q1016;
0120832880999992011040814004-13267-043417FM-15+0443SBLP V0200601N002612200019N0112651N1+03101+01801999999ADDGA1021+009001999GF102991999999999999999999MA1101591999999REMMET051METAR SBLP 081400Z 06005KT 9999 FEW030 31/18 Q1016;
0120832880999992011040815004-13267-043417FM-15+0443SBLP V0201901N003112200019N0112651N1+03101+01801999999ADDGA1021+009001999GF102991999999999999999999MA1101491999999REMMET051METAR SBLP 081500Z 19006KT 9999 FEW030 31/18 Q1015;
0120832880999992011040816004-13267-043417FM-15+0443SBLP V0201801N003112200019N0112651N1+03201+01801999999ADDGA1041+009001999GF104991999999999999999999MA1101391999999REMMET051METAR SBLP 081600Z 18006KT 9999 SCT030 32/18 Q1014;
0120832880999992011040817004-13267-043417FM-15+0443SBLP V0202701N003112200019N0112651N1+03301+01801999999ADDGA1041+009001999GF104991999999999999999999MA1101291999999REMMET051METAR SBLP 081700Z 27006KT 9999 SCT030 33/18 Q1013;
0120832880999992011040818004-13267-043417FM-15+0443SBLP V0201801N003112200019N0112651N1+03401+01801999999ADDGA1041+009001999GF104991999999999999999999MA1101191999999REMMET051METAR SBLP 081800Z 18006KT 9999 SCT030 34/18 Q1012;
0120832880999992011040820004-13267-043417FM-15+0443SBLP V0201801N003112200019N0112651N1+03201+01901999999ADDGA1021+009001999GF102991999999999999999999MA1101191999999REMMET051METAR SBLP 082000Z 18006KT 9999 FEW030 32/19 Q1012;
0120832880999992011040821004-13267-043417FM-15+0443SBLP V0201801N003112200019N0112651N1+03101+01901999999ADDGA1041+009001999GF104991999999999999999999MA1101191999999REMMET051METAR SBLP 082100Z 18006KT 9999 SCT030 31/19 Q1012;
0072832880999992011040910004-13267-043417FM-15+0443SBLP V0209999C000019999999Y0099001N1+02401+02101999999ADDMA1101591999999REMMET045METAR SBLP 091000Z 00000KT CAVOK 24/21 Q1016;
0072832880999992011040911004-13267-043417FM-15+0443SBLP V0209999C000019999999Y0099001N1+02601+02101999999ADDMA1101691999999REMMET045METAR SBLP 091100Z 00000KT CAVOK 26/21 Q1017;
0072832880999992011040912004-13267-043417FM-15+0443SBLP V0209999C000019999999Y0099001N1+02701+02101999999ADDMA1101691999999REMMET045METAR SBLP 091200Z 00000KT CAVOK 27/21 Q1017;
0120832880999992011040913004-13267-043417FM-15+0443SBLP V0201801N003112200019N0112651N1+02901+02101999999ADDGA1021+009001999GF102991999999999999999999MA1101691999999REMMET051METAR SBLP 091300Z 18006KT 9999 FEW030 29/21 Q1017;
0120832880999992011040914004-13267-043417FM-15+0443SBLP V0201801N003112200019N0112651N1+03001+02001999999ADDGA1021+009001999GF102991999999999999999999MA1101691999999REMMET051METAR SBLP 091400Z 18006KT 9999 FEW030 30/20 Q1017;
0120832880999992011040915004-13267-043417FM-15+0443SBLP V0201801N003112200019N0112651N1+03101+02001999999ADDGA1041+009001999GF104991999999999999999999MA1101591999999REMMET051METAR SBLP 091500Z 18006KT 9999 SCT030 31/20 Q1016;
0120832880999992011040916004-13267-043417FM-15+0443SBLP V0202401N003112200019N0112651N1+03101+02201999999ADDGA1041+009001999GF104991999999999999999999MA1101491999999REMMET051METAR SBLP 091600Z 24006KT 9999 SCT030 31/22 Q1015;
0120832880999992011040917004-13267-043417FM-15+0443SBLP V0202101N001512200019N0112651N1+03201+02001999999ADDGA1041+009001999GF104991999999999999999999MA1101391999999REMMET051METAR SBLP 091700Z 21003KT 9999 SCT030 32/20 Q1014;
0120832880999992011040918004-13267-043417FM-15+0443SBLP V0200901N004112200019N0112651N1+03301+02101999999ADDGA1041+009001999GF104991999999999999999999MA1101291999999REMMET051METAR SBLP 091800Z 09008KT 9999 SCT030 33/21 Q1013;
0120832880999992011040919004-13267-043417FM-15+0443SBLP V0201201N004112200019N0112651N1+03001+02301999999ADDGA1041+009001999GF104991999999999999999999MA1101291999999REMMET051METAR SBLP 091900Z 12008KT 9999 SCT030 30/23 Q1013;
0143832880999992011040920004-13267-043417FM-15+0443SBLP V0201201N003112200019N0112651N1+02801+02101999999ADDGA1021+009001999GA2041+030001999GF104991999999999999999999MA1101291999999REMMET058METAR SBLP 092000Z 12006KT 9999 FEW030 SCT100 28/21 Q1013;
0143832880999992011040921004-13267-043417FM-15+0443SBLP V0200901N004112200019N0112651N1+02701+02201999999ADDGA1021+009001999GA2041+030001999GF104991999999999999999999MA1101391999999REMMET058METAR SBLP 092100Z 09008KT 9999 FEW030 SCT100 27/22 Q1014;
0148832880999992011041010004-13267-043417FM-15+0443SBLP V0209999C000010060019N0112651N1+02301+02201999999ADDGA1071+006001999GA2071+030001999GF107991999999999999999999MA1101591999999REMMET063METAR SBLP 101000Z 00000KT 9999 BKN020 BKN100 23/22 Q1016 RERA;
0072832880999992011041011004-13267-043417FM-15+0443SBLP V0202101N003119999999Y0099001N1+02501+02201999999ADDMA1101691999999REMMET045METAR SBLP 101100Z 21006KT CAVOK 25/22 Q1017;
0143832880999992011041012004-13267-043417FM-15+0443SBLP V0202801N002110300019N0112651N1+02801+02201999999ADDGA1021+009001999GA2071+030001999GF107991999999999999999999MA1101691999999REMMET058METAR SBLP 101200Z 28004KT 9999 FEW030 BKN100 28/22 Q1017;
0143832880999992011041013004-13267-043417FM-15+0443SBLP V0203601N003110300019N0112651N1+02901+02201999999ADDGA1021+009001999GA2071+030001999GF107991999999999999999999MA1101691999999REMMET058METAR SBLP 101300Z 36006KT 9999 FEW030 BKN100 29/22 Q1017;
0120832880999992011041014004-13267-043417FM-15+0443SBLP V0209999C000012200019N0112651N1+02901+02201999999ADDGA1021+009001999GF102991999999999999999999MA1101591999999REMMET051METAR SBLP 101400Z 00000KT 9999 FEW030 29/22 Q1016;
0120832880999992011041015004-13267-043417FM-15+0443SBLP V0201801N004112200019N0112651N1+03101+02101999999ADDGA1041+009001999GF104991999999999999999999MA1101591999999REMMET051METAR SBLP 101500Z 18008KT 9999 SCT030 31/21 Q1016;
0120832880999992011041016004-13267-043417FM-15+0443SBLP V0201901N003112200019N0112651N1+03201+02101999999ADDGA1041+009001999GF104991999999999999999999MA1101491999999REMMET051METAR SBLP 101600Z 19006KT 9999 SCT030 32/21 Q1015;
0139832880999992011041017004-13267-043417FM-15+0443SBLP V0202101N002112200019N0112651N1+03101+02001999999ADDGA1041+009001999GA2021+009001021MA1101291999999REMMET061METAR SBLP 101700Z 21004KT 9999 SCT030 FEW030TCU 31/20 Q1013;EQDQ01+000022SCOTCV
0139832880999992011041018004-13267-043417FM-15+0443SBLP V0201201N010312200019N0112651N1+03001+02101999999ADDGA1041+009001999GA2021+012001021MA1101391999999REMMET061METAR SBLP 101800Z 12020KT 9999 SCT030 FEW040TCU 30/21 Q1014;EQDQ01+000022SCOTCV
0156832880999992011041019004-13267-043417FM-15+0443SBLP V0201201N005112200019N0112651N1+02401+02201999999ADDGA1041+008101999GA2021+009001091MA1101391999999MW1801MW2951REMMET066METAR SBLP 101900Z 12010KT 9999 -TSRA SCT027 FEW030CB 24/22 Q1014;EQDQ01+000022SCOTCV
0148832880999992011041020004-13267-043417FM-15+0443SBLP V0201101N004112200019N0112651N1+02301+02101999999ADDGA1041+008101999GA2041+030001999GF104991999999999999999999MA1101491999999REMMET063METAR SBLP 102000Z 11008KT 9999 SCT027 SCT100 23/21 Q1015 RETS;
0153832880999992011041021004-13267-043417FM-15+0443SBLP V0200301N002110081019N0112651N1+02301+02101999999ADDGA1071+008101999GA2071+030001999GF107991999999999999999999MA1101491999999MW1611REMMET062METAR SBLP 102100Z 03004KT 9999 -RA BKN027 BKN100 23/21 Q1015;
0120832880999992011041111004-13267-043417FM-15+0443SBLP V0201501N002112200019N0112651N1+02501+02201999999ADDGA1021+006001999GF102991999999999999999999MA1101591999999REMMET051METAR SBLP 111100Z 15004KT 9999 FEW020 25/22 Q1016;
0120832880999992011041112004-13267-043417FM-15+0443SBLP V0201501N002112200019N0112651N1+02501+02201999999ADDGA1021+006001999GF102991999999999999999999MA1101591999999REMMET051METAR SBLP 111200Z 15004KT 9999 FEW020 25/22 Q1016;
0120832880999992011041113004-13267-043417FM-15+0443SBLP V0201501N002110060019N0112651N1+02801+02201999999ADDGA1071+006001999GF107991999999999999999999MA1101691999999REMMET051METAR SBLP 111300Z 15004KT 9999 BKN020 28/22 Q1017;
0120832880999992011041114004-13267-043417FM-15+0443SBLP V0209999C000012200019N0112651N1+03001+02201999999ADDGA1041+009001999GF104991999999999999999999MA1101591999999REMMET051METAR SBLP 111400Z 00000KT 9999 SCT030 30/22 Q1016;
0120832880999992011041115004-13267-043417FM-15+0443SBLP V0209999C000012200019N0112651N1+03001+02201999999ADDGA1041+009001999GF104991999999999999999999MA1101491999999REMMET051METAR SBLP 111500Z 00000KT 9999 SCT030 30/22 Q1015;
0120832880999992011041116004-13267-043417FM-15+0443SBLP V0202101N003112200019N0112651N1+03101+02201999999ADDGA1041+009001999GF104991999999999999999999MA1101391999999REMMET051METAR SBLP 111600Z 21006KT 9999 SCT030 31/22 Q1014;
0120832880999992011041117004-13267-043417FM-15+0443SBLP V0201501N003112200019N0112651N1+03101+02201999999ADDGA1041+009001999GF104991999999999999999999MA1101291999999REMMET051METAR SBLP 111700Z 15006KT 9999 SCT030 31/22 Q1013;
0120832880999992011041118004-13267-043417FM-15+0443SBLP V0201201N003112200019N0112651N1+03301+02101999999ADDGA1041+009001999GF104991999999999999999999MA1101191999999REMMET051METAR SBLP 111800Z 12006KT 9999 SCT030 33/21 Q1012;
0120832880999992011041119004-13267-043417FM-15+0443SBLP V0201501N003112200019N0112651N1+03301+02101999999ADDGA1041+009001999GF104991999999999999999999MA1101191999999REMMET051METAR SBLP 111900Z 15006KT 9999 SCT030 33/21 Q1012;
0120832880999992011041120004-13267-043417FM-15+0443SBLP V0201401N003112200019N0112651N1+03201+02201999999ADDGA1021+009001999GF102991999999999999999999MA1101191999999REMMET051METAR SBLP 112000Z 14006KT 9999 FEW030 32/22 Q1012;
0072832880999992011041121004-13267-043417FM-15+0443SBLP V0201801N003119999999Y0099001N1+03001+02301999999ADDMA1101191999999REMMET045METAR SBLP 112100Z 18006KT CAVOK 30/23 Q1012;
0072832880999992011041210004-13267-043417FM-15+0443SBLP V0201801N002119999999Y0099001N1+02201+02001999999ADDMA1101491999999REMMET045METAR SBLP 121000Z 18004KT CAVOK 22/20 Q1015;
0072832880999992011041211004-13267-043417FM-15+0443SBLP V0201801N003119999999Y0099001N1+02401+01901999999ADDMA1101591999999REMMET045METAR SBLP 121100Z 18006KT CAVOK 24/19 Q1016;
0072832880999992011041212004-13267-043417FM-15+0443SBLP V0201201N003119999999Y0099001N1+02701+02001999999ADDMA1101591999999REMMET045METAR SBLP 121200Z 12006KT CAVOK 27/20 Q1016;
0120832880999992011041213004-13267-043417FM-15+0443SBLP V0200901N003112200019N0112651N1+02901+02101999999ADDGA1021+009001999GF102991999999999999999999MA1101591999999REMMET051METAR SBLP 121300Z 09006KT 9999 FEW030 29/21 Q1016;
0120832880999992011041214004-13267-043417FM-15+0443SBLP V0209999C000012200019N0112651N1+03001+02101999999ADDGA1021+009001999GF102991999999999999999999MA1101491999999REMMET051METAR SBLP 121400Z 00000KT 9999 FEW030 30/21 Q1015;
0120832880999992011041215004-13267-043417FM-15+0443SBLP V0200901N003112200019N0112651N1+03201+02001999999ADDGA1041+009001999GF104991999999999999999999MA1101391999999REMMET051METAR SBLP 121500Z 09006KT 9999 SCT030 32/20 Q1014;
0120832880999992011041216004-13267-043417FM-15+0443SBLP V0200901N003112200019N0112651N1+03301+02001999999ADDGA1041+009001999GF104991999999999999999999MA1101291999999REMMET051METAR SBLP 121600Z 09006KT 9999 SCT030 33/20 Q1013;
0120832880999992011041217004-13267-043417FM-15+0443SBLP V0201301N002610090019N0112651N1+03101+02001999999ADDGA1071+009001999GF107991999999999999999999MA1101191999999REMMET051METAR SBLP 121700Z 13005KT 9999 BKN030 31/20 Q1012;
0120832880999992011041218004-13267-043417FM-15+0443SBLP V0200901N003110090019N0112651N1+03101+02001999999ADDGA1071+009001999GF107991999999999999999999MA1101081999999REMMET051METAR SBLP 121800Z 09006KT 9999 BKN030 31/20 Q1011;
0120832880999992011041219004-13267-043417FM-15+0443SBLP V0200901N003112200019N0112651N1+03101+02001999999ADDGA1041+009001999GF104991999999999999999999MA1101081999999REMMET051METAR SBLP 121900Z 09006KT 9999 SCT030 31/20 Q1011;
0120832880999992011041220004-13267-043417FM-15+0443SBLP V0201801N003112200019N0112651N1+03101+02001999999ADDGA1041+009001999GF104991999999999999999999MA1101081999999REMMET051METAR SBLP 122000Z 18006KT 9999 SCT030 31/20 Q1011;
0120832880999992011041221004-13267-043417FM-15+0443SBLP V0201801N003112200019N0112651N1+03001+02001999999ADDGA1041+009001999GF104991999999999999999999MA1101081999999REMMET051METAR SBLP 122100Z 18006KT 9999 SCT030 30/20 Q1011;
0072832880999992011041310004-13267-043417FM-15+0443SBLP V0209999C000019999999Y0099001N1+02401+02101999999ADDMA1101491999999REMMET045METAR SBLP 131000Z 00000KT CAVOK 24/21 Q1015;
0072832880999992011041311004-13267-043417FM-15+0443SBLP V0209999C000019999999Y0099001N1+02601+02101999999ADDMA1101591999999REMMET045METAR SBLP 131100Z 00000KT CAVOK 26/21 Q1016;
0072832880999992011041312004-13267-043417FM-15+0443SBLP V0209999C000019999999Y0099001N1+02801+02001999999ADDMA1101591999999REMMET045METAR SBLP 131200Z 00000KT CAVOK 28/20 Q1016;
0072832880999992011041313004-13267-043417FM-15+0443SBLP V0209999C000019999999Y0099001N1+02901+02001999999ADDMA1101591999999REMMET045METAR SBLP 131300Z 00000KT CAVOK 29/20 Q1016;
0072832880999992011041314004-13267-043417FM-15+0443SBLP V0201801N003119999999Y0099001N1+03101+01901999999ADDMA1101491999999REMMET045METAR SBLP 131400Z 18006KT CAVOK 31/19 Q1015;
0072832880999992011041315004-13267-043417FM-15+0443SBLP V0201801N003119999999Y0099001N1+03101+01901999999ADDMA1101391999999REMMET045METAR SBLP 131500Z 18006KT CAVOK 31/19 Q1014;
0120832880999992011041316004-13267-043417FM-15+0443SBLP V0209999C000012200019N0112651N1+03201+01801999999ADDGA1021+009001999GF102991999999999999999999MA1101391999999REMMET051METAR SBLP 131600Z 00000KT 9999 FEW030 32/18 Q1014;
0120832880999992011041317004-13267-043417FM-15+0443SBLP V0201101N003112200019N0112651N1+03401+01701999999ADDGA1021+009001999GF102991999999999999999999MA1101291999999REMMET051METAR SBLP 131700Z 11006KT 9999 FEW030 34/17 Q1013;
0120832880999992011041318004-13267-043417FM-15+0443SBLP V0201101N003112200019N0112651N1+03401+01701999999ADDGA1021+009001999GF102991999999999999999999MA1101191999999REMMET051METAR SBLP 131800Z 11006KT 9999 FEW030 34/17 Q1012;
0120832880999992011041319004-13267-043417FM-15+0443SBLP V0201501N003112200019N0112651N1+03301+01601999999ADDGA1021+009001999GF102991999999999999999999MA1101191999999REMMET051METAR SBLP 131900Z 15006KT 9999 FEW030 33/16 Q1012;
0120832880999992011041320004-13267-043417FM-15+0443SBLP V0201501N003112200019N0112651N1+03301+01601999999ADDGA1021+009001999GF102991999999999999999999MA1101191999999REMMET051METAR SBLP 132000Z 15006KT 9999 FEW030 33/16 Q1012;
0072832880999992011041321004-13267-043417FM-15+0443SBLP V0201801N001519999999Y0099001N1+03001+01801999999ADDMA1101191999999REMMET045METAR SBLP 132100Z 18003KT CAVOK 30/18 Q1012;
0072832880999992011041410004-13267-043417FM-15+0443SBLP V0209999C000019999999Y0099001N1+02301+02001999999ADDMA1101491999999REMMET045METAR SBLP 141000Z 00000KT CAVOK 23/20 Q1015;
0072832880999992011041411004-13267-043417FM-15+0443SBLP V0200901N003119999999Y0099001N1+02601+02001999999ADDMA1101591999999REMMET045METAR SBLP 141100Z 09006KT CAVOK 26/20 Q1016;
0072832880999992011041412004-13267-043417FM-15+0443SBLP V0200901N003119999999Y0099001N1+02801+02001999999ADDMA1101591999999REMMET045METAR SBLP 141200Z 09006KT CAVOK 28/20 Q1016;
0120832880999992011041413004-13267-043417FM-15+0443SBLP V0200901N003112200019N0112651N1+02901+01901999999ADDGA1021+009001999GF102991999999999999999999MA1101591999999REMMET051METAR SBLP 141300Z 09006KT 9999 FEW030 29/19 Q1016;
0120832880999992011041414004-13267-043417FM-15+0443SBLP V0200901N003112200019N0112651N1+03101+01901999999ADDGA1021+009001999GF102991999999999999999999MA1101491999999REMMET051METAR SBLP 141400Z 09006KT 9999 FEW030 31/19 Q1015;
0120832880999992011041415004-13267-043417FM-15+0443SBLP V0200901N003112200019N0112651N1+03101+01901999999ADDGA1041+009001999GF104991999999999999999999MA1101391999999REMMET051METAR SBLP 141500Z 09006KT 9999 SCT030 31/19 Q1014;
0120832880999992011041416004-13267-043417FM-15+0443SBLP V0201501N003112200019N0112651N1+03301+01701999999ADDGA1041+009001999GF104991999999999999999999MA1101291999999REMMET051METAR SBLP 141600Z 15006KT 9999 SCT030 33/17 Q1013;
0120832880999992011041417004-13267-043417FM-15+0443SBLP V0201201N003112200019N0112651N1+03301+01901999999ADDGA1041+009001999GF104991999999999999999999MA1101191999999REMMET051METAR SBLP 141700Z 12006KT 9999 SCT030 33/19 Q1012;
0120832880999992011041418004-13267-043417FM-15+0443SBLP V0201101N001512200019N0112651N1+03301+01901999999ADDGA1041+009001999GF104991999999999999999999MA1101191999999REMMET051METAR SBLP 141800Z 11003KT 9999 SCT030 33/19 Q1012;
0120832880999992011041419004-13267-043417FM-15+0443SBLP V0201501N003112200019N0112651N1+03301+01901999999ADDGA1041+009001999GF104991999999999999999999MA1101081999999REMMET051METAR SBLP 141900Z 15006KT 9999 SCT030 33/19 Q1011;
0120832880999992011041420004-13267-043417FM-15+0443SBLP V0201701N001512200019N0112651N1+03101+02001999999ADDGA1041+009001999GF104991999999999999999999MA1101191999999REMMET051METAR SBLP 142000Z 17003KT 9999 SCT030 31/20 Q1012;
0120832880999992011041421004-13267-043417FM-15+0443SBLP V0201901N001512200019N0112651N1+02901+02101999999ADDGA1021+009001999GF102991999999999999999999MA1101191999999REMMET051METAR SBLP 142100Z 19003KT 9999 FEW030 29/21 Q1012;
0072832880999992011041510004-13267-043417FM-15+0443SBLP V0201301N001519999999Y0099001N1+02201+01901999999ADDMA1101591999999REMMET045METAR SBLP 151000Z 13003KT CAVOK 22/19 Q1016;
0072832880999992011041511004-13267-043417FM-15+0443SBLP V0201301N001519999999Y0099001N1+02201+01901999999ADDMA1101591999999REMMET045METAR SBLP 151100Z 13003KT CAVOK 22/19 Q1016;
0120832880999992011041512004-13267-043417FM-15+0443SBLP V0200901N003112200019N0112651N1+02701+01901999999ADDGA1021+009001999GF102991999999999999999999MA1101691999999REMMET051METAR SBLP 151200Z 09006KT 9999 FEW030 27/19 Q1017;
0120832880999992011041513004-13267-043417FM-15+0443SBLP V0200901N003112200019N0112651N1+02901+01801999999ADDGA1021+009001999GF102991999999999999999999MA1101691999999REMMET051METAR SBLP 151300Z 09006KT 9999 FEW030 29/18 Q1017;
0120832880999992011041514004-13267-043417FM-15+0443SBLP V0201101N005110081019N0112651N1+03101+01901999999ADDGA1071+008101999GF107991999999999999999999MA1101591999999REMMET051METAR SBLP 151400Z 11010KT 9999 BKN027 31/19 Q1016;
0120832880999992011041515004-13267-043417FM-15+0443SBLP V0201301N003110081019N0112651N1+03201+01901999999ADDGA1071+008101999GF107991999999999999999999MA1101491999999REMMET051METAR SBLP 151500Z 13006KT 9999 BKN027 32/19 Q1015;
0143832880999992011041516004-13267-043417FM-15+0443SBLP V0201501N004110300019N0112651N1+03001+01901999999ADDGA1041+009001999GA2071+030001999GF107991999999999999999999MA1101391999999REMMET058METAR SBLP 151600Z 15008KT 9999 SCT030 BKN100 30/19 Q1014;
0143832880999992011041517004-13267-043417FM-15+0443SBLP V0201801N004110300019N0112651N1+03101+02001999999ADDGA1021+009001999GA2071+030001999GF107991999999999999999999MA1101291999999REMMET058METAR SBLP 151700Z 18008KT 9999 FEW030 BKN100 31/20 Q1013;
0143832880999992011041518004-13267-043417FM-15+0443SBLP V0201801N003112200019N0112651N1+03101+01901999999ADDGA1021+009001999GA2041+030001999GF104991999999999999999999MA1101291999999REMMET058METAR SBLP 151800Z 18006KT 9999 FEW030 SCT100 31/19 Q1013;
0143832880999992011041519004-13267-043417FM-15+0443SBLP V0201801N003112200019N0112651N1+03101+02101999999ADDGA1021+009001999GA2041+030001999GF104991999999999999999999MA1101291999999REMMET058METAR SBLP 151900Z 18006KT 9999 FEW030 SCT100 31/21 Q1013;
0120832880999992011041520004-13267-043417FM-15+0443SBLP V0201801N003112200019N0112651N1+03001+02101999999ADDGA1021+009001999GF102991999999999999999999MA1101291999999REMMET051METAR SBLP 152000Z 18006KT 9999 FEW030 30/21 Q1013;
0120832880999992011041521004-13267-043417FM-15+0443SBLP V0202101N003112200019N0112651N1+02801+02101999999ADDGA1021+009001999GF102991999999999999999999MA1101291999999REMMET051METAR SBLP 152100Z 21006KT 9999 FEW030 28/21 Q1013;
0072832880999992011041610004-13267-043417FM-15+0443SBLP V0201801N003119999999Y0099001N1+02201+01901999999ADDMA1101491999999REMMET045METAR SBLP 161000Z 18006KT CAVOK 22/19 Q1015;
0072832880999992011041611004-13267-043417FM-15+0443SBLP V0201501N005119999999Y0099001N1+02401+02001999999ADDMA1101591999999REMMET045METAR SBLP 161100Z 15010KT CAVOK 24/20 Q1016;
0072832880999992011041612004-13267-043417FM-15+0443SBLP V0201501N004119999999Y0099001N1+02701+02001999999ADDMA1101591999999REMMET045METAR SBLP 161200Z 15008KT CAVOK 27/20 Q1016;
0120832880999992011041613004-13267-043417FM-15+0443SBLP V0201501N005112200019N0112651N1+02801+01901999999ADDGA1041+009001999GF104991999999999999999999MA1101591999999REMMET051METAR SBLP 161300Z 15010KT 9999 SCT030 28/19 Q1016;
0120832880999992011041614004-13267-043417FM-15+0443SBLP V0201401N004112200019N0112651N1+03001+02001999999ADDGA1041+009001999GF104991999999999999999999MA1101491999999REMMET051METAR SBLP 161400Z 14008KT 9999 SCT030 30/20 Q1015;
0120832880999992011041615004-13267-043417FM-15+0443SBLP V0201201N006212200019N0112651N1+03101+02001999999ADDGA1041+009001999GF104991999999999999999999MA1101391999999REMMET051METAR SBLP 161500Z 12012KT 9999 SCT030 31/20 Q1014;
0120832880999992011041616004-13267-043417FM-15+0443SBLP V0201501N003112200019N0112651N1+03201+02001999999ADDGA1041+009001999GF104991999999999999999999MA1101291999999REMMET051METAR SBLP 161600Z 15006KT 9999 SCT030 32/20 Q1013;
0120832880999992011041617004-13267-043417FM-15+0443SBLP V0202101N003112200019N0112651N1+03201+01901999999ADDGA1041+009001999GF104991999999999999999999MA1101191999999REMMET051METAR SBLP 161700Z 21006KT 9999 SCT030 32/19 Q1012;
0120832880999992011041618004-13267-043417FM-15+0443SBLP V0201201N004112200019N0112651N1+03201+02001999999ADDGA1041+009001999GF104991999999999999999999MA1101081999999REMMET051METAR SBLP 161800Z 12008KT 9999 SCT030 32/20 Q1011;
0120832880999992011041619004-13267-043417FM-15+0443SBLP V0201401N004112200019N0112651N1+03201+02201999999ADDGA1041+009001999GF104991999999999999999999MA1101081999999REMMET051METAR SBLP 161900Z 14008KT 9999 SCT030 32/22 Q1011;
0120832880999992011041620004-13267-043417FM-15+0443SBLP V0201501N003112200019N0112651N1+03101+02001999999ADDGA1021+009001999GF102991999999999999999999MA1101191999999REMMET051METAR SBLP 162000Z 15006KT 9999 FEW030 31/20 Q1012;
0120832880999992011041621004-13267-043417FM-15+0443SBLP V0201801N004112200019N0112651N1+02801+02201999999ADDGA1041+009001999GF104991999999999999999999MA1101191999999REMMET051METAR SBLP 162100Z 18008KT 9999 SCT030 28/22 Q1012;
0072832880999992011041710004-13267-043417FM-15+0443SBLP V0201801N004119999999Y0099001N1+02201+01901999999ADDMA1101491999999REMMET045METAR SBLP 171000Z 18008KT CAVOK 22/19 Q1015;
0072832880999992011041711004-13267-043417FM-15+0443SBLP V0201501N004119999999Y0099001N1+02501+01901999999ADDMA1101591999999REMMET045METAR SBLP 171100Z 15008KT CAVOK 25/19 Q1016;
0120832880999992011041712004-13267-043417FM-15+0443SBLP V0201501N003112200019N0112651N1+02701+01801999999ADDGA1021+009001999GF102991999999999999999999MA1101691999999REMMET051METAR SBLP 171200Z 15006KT 9999 FEW030 27/18 Q1017;
0120832880999992011041713004-13267-043417FM-15+0443SBLP V0202101N005112200019N0112651N1+02801+01901999999ADDGA1041+009001999GF104991999999999999999999MA1101691999999REMMET051METAR SBLP 171300Z 21010KT 9999 SCT030 28/19 Q1017;
0120832880999992011041714004-13267-043417FM-15+0443SBLP V0201501N003112200019N0112651N1+03001+01801999999ADDGA1041+009001999GF104991999999999999999999MA1101591999999REMMET051METAR SBLP 171400Z 15006KT 9999 SCT030 30/18 Q1016;
0120832880999992011041715004-13267-043417FM-15+0443SBLP V0202101N004112200019N0112651N1+03001+01901999999ADDGA1041+009001999GF104991999999999999999999MA1101491999999REMMET051METAR SBLP 171500Z 21008KT 9999 SCT030 30/19 Q1015;
0120832880999992011041716004-13267-043417FM-15+0443SBLP V0202101N003112200019N0112651N1+03201+01801999999ADDGA1041+009001999GF104991999999999999999999MA1101391999999REMMET051METAR SBLP 171600Z 21006KT 9999 SCT030 32/18 Q1014;
0120832880999992011041719004-13267-043417FM-15+0443SBLP V0201801N003112200019N0112651N1+03201+02001999999ADDGA1021+009001999GF102991999999999999999999MA1101081999999REMMET051METAR SBLP 171900Z 18006KT 9999 FEW030 32/20 Q1011;
0072832880999992011041720004-13267-043417FM-15+0443SBLP V0201801N003119999999Y0099001N1+03101+02101999999ADDMA1101191999999REMMET045METAR SBLP 172000Z 18006KT CAVOK 31/21 Q1012;
0072832880999992011041721004-13267-043417FM-15+0443SBLP V0201801N003119999999Y0099001N1+02801+02301999999ADDMA1101291999999REMMET045METAR SBLP 172100Z 18006KT CAVOK 28/23 Q1013;
0072832880999992011041810004-13267-043417FM-15+0443SBLP V0201601N003119999999Y0099001N1+02201+02101999999ADDMA1101691999999REMMET045METAR SBLP 181000Z 16006KT CAVOK 22/21 Q1017;
0072832880999992011041811004-13267-043417FM-15+0443SBLP V0201601N003119999999Y0099001N1+02401+02101999999ADDMA1101691999999REMMET045METAR SBLP 181100Z 16006KT CAVOK 24/21 Q1017;
0072832880999992011041812004-13267-043417FM-15+0443SBLP V0201201N003119999999Y0099001N1+02701+02001999999ADDMA1101801999999REMMET045METAR SBLP 181200Z 12006KT CAVOK 27/20 Q1018;
0120832880999992011041813004-13267-043417FM-15+0443SBLP V0201201N003112200019N0112651N1+02801+02101999999ADDGA1021+009001999GF102991999999999999999999MA1101801999999REMMET051METAR SBLP 181300Z 12006KT 9999 FEW030 28/21 Q1018;
0120832880999992011041814004-13267-043417FM-15+0443SBLP V0200401N002112200019N0112651N1+02901+02101999999ADDGA1041+009001999GF104991999999999999999999MA1101691999999REMMET051METAR SBLP 181400Z 04004KT 9999 SCT030 29/21 Q1017;
0120832880999992011041815004-13267-043417FM-15+0443SBLP V0200901N002112200019N0112651N1+03101+02001999999ADDGA1041+009001999GF104991999999999999999999MA1101691999999REMMET051METAR SBLP 181500Z 09004KT 9999 SCT030 31/20 Q1017;
0120832880999992011041816004-13267-043417FM-15+0443SBLP V0200901N003112200019N0112651N1+03201+02001999999ADDGA1041+009001999GF104991999999999999999999MA1101491999999REMMET051METAR SBLP 181600Z 09006KT 9999 SCT030 32/20 Q1015;
0120832880999992011041817004-13267-043417FM-15+0443SBLP V0200901N003112200019N0112651N1+03201+02001999999ADDGA1041+009001999GF104991999999999999999999MA1101391999999REMMET051METAR SBLP 181700Z 09006KT 9999 SCT030 32/20 Q1014;
0120832880999992011041818004-13267-043417FM-15+0443SBLP V0200901N003112200019N0112651N1+03201+01901999999ADDGA1041+009001999GF104991999999999999999999MA1101391999999REMMET051METAR SBLP 181800Z 09006KT 9999 SCT030 32/19 Q1014;
0120832880999992011041819004-13267-043417FM-15+0443SBLP V0200901N003112200019N0112651N1+03301+01901999999ADDGA1041+009001999GF104991999999999999999999MA1101291999999REMMET051METAR SBLP 181900Z 09006KT 9999 SCT030 33/19 Q1013;
0120832880999992011041820004-13267-043417FM-15+0443SBLP V0200901N003112200019N0112651N1+03201+01901999999ADDGA1041+009001999GF104991999999999999999999MA1101291999999REMMET051METAR SBLP 182000Z 09006KT 9999 SCT030 32/19 Q1013;
0120832880999992011041821004-13267-043417FM-15+0443SBLP V0201801N003112200019N0112651N1+03001+02001999999ADDGA1041+009001999GF104991999999999999999999MA1101291999999REMMET051METAR SBLP 182100Z 18006KT 9999 SCT030 30/20 Q1013;
0072832880999992011041910004-13267-043417FM-15+0443SBLP V0209999C000019999999Y0099001N1+02401+02001999999ADDMA1101591999999REMMET045METAR SBLP 191000Z 00000KT CAVOK 24/20 Q1016;
0072832880999992011041911004-13267-043417FM-15+0443SBLP V0201801N003119999999Y0099001N1+02701+02001999999ADDMA1101691999999REMMET045METAR SBLP 191100Z 18006KT CAVOK 27/20 Q1017;
0120832880999992011041912004-13267-043417FM-15+0443SBLP V0201801N003112200019N0112651N1+02901+01901999999ADDGA1021+009001999GF102991999999999999999999MA1101691999999REMMET051METAR SBLP 191200Z 18006KT 9999 FEW030 29/19 Q1017;
0120832880999992011041913004-13267-043417FM-15+0443SBLP V0201801N003112200019N0112651N1+02901+01901999999ADDGA1021+009001999GF102991999999999999999999MA1101801999999REMMET051METAR SBLP 191300Z 18006KT 9999 FEW030 29/19 Q1018;
0120832880999992011041914004-13267-043417FM-15+0443SBLP V0201801N003112200019N0112651N1+03001+01901999999ADDGA1041+009001999GF104991999999999999999999MA1101691999999REMMET051METAR SBLP 191400Z 18006KT 9999 SCT030 30/19 Q1017;
0120832880999992011041915004-13267-043417FM-15+0443SBLP V0201801N003112200019N0112651N1+03001+02001999999ADDGA1041+009001999GF104991999999999999999999MA1101591999999REMMET051METAR SBLP 191500Z 18006KT 9999 SCT030 30/20 Q1016;
0143832880999992011041916004-13267-043417FM-15+0443SBLP V0201501N003110300019N0112651N1+02901+02201999999ADDGA1041+009001999GA2071+030001999GF107991999999999999999999MA1101491999999REMMET058METAR SBLP 191600Z 15006KT 9999 SCT030 BKN100 29/22 Q1015;
0143832880999992011041917004-13267-043417FM-15+0443SBLP V0201801N006210300019N0112651N1+03001+02201999999ADDGA1041+009001999GA2071+030001999GF107991999999999999999999MA1101391999999REMMET058METAR SBLP 191700Z 18012KT 9999 SCT030 BKN100 30/22 Q1014;
0143832880999992011041918004-13267-043417FM-15+0443SBLP V0200301N002110300019N0112651N1+03001+02101999999ADDGA1041+009001999GA2071+030001999GF107991999999999999999999MA1101391999999REMMET058METAR SBLP 191800Z 03004KT 9999 SCT030 BKN100 30/21 Q1014;
0143832880999992011041919004-13267-043417FM-15+0443SBLP V0201801N003112200019N0112651N1+03001+02001999999ADDGA1021+009001999GA2041+030001999GF104991999999999999999999MA1101291999999REMMET058METAR SBLP 191900Z 18006KT 9999 FEW030 SCT100 30/20 Q1013;
0120832880999992011041920004-13267-043417FM-15+0443SBLP V0201801N003112200019N0112651N1+03001+01801999999ADDGA1021+009001999GF102991999999999999999999MA1101291999999REMMET051METAR SBLP 192000Z 18006KT 9999 FEW030 30/18 Q1013;
0120832880999992011041921004-13267-043417FM-15+0443SBLP V0201701N003112200019N0112651N1+02801+02001999999ADDGA1021+009001999GF102991999999999999999999MA1101291999999REMMET051METAR SBLP 192100Z 17006KT 9999 FEW030 28/20 Q1013;
0072832880999992011042009154-13267-043417FM-15+0443SBLP V0209999C000019999999Y0099001N1+02001+01801999999ADDMA1101491999999REMMET045METAR SBLP 200915Z 00000KT CAVOK 20/18 Q1015;
0072832880999992011042010004-13267-043417FM-15+0443SBLP V0201801N003119999999Y0099001N1+02101+01801999999ADDMA1101591999999REMMET045METAR SBLP 201000Z 18006KT CAVOK 21/18 Q1016;
0072832880999992011042011004-13267-043417FM-15+0443SBLP V0201801N003119999999Y0099001N1+02401+01801999999ADDMA1101591999999REMMET045METAR SBLP 201100Z 18006KT CAVOK 24/18 Q1016;
0072832880999992011042012004-13267-043417FM-15+0443SBLP V0201801N004119999999Y0099001N1+02701+01801999999ADDMA1101591999999REMMET045METAR SBLP 201200Z 18008KT CAVOK 27/18 Q1016;
0072832880999992011042013004-13267-043417FM-15+0443SBLP V0200901N002119999999Y0099001N1+02901+01801999999ADDMA1101591999999REMMET045METAR SBLP 201300Z 09004KT CAVOK 29/18 Q1016;
0120832880999992011042014004-13267-043417FM-15+0443SBLP V0203001N001512200019N0112651N1+02901+01801999999ADDGA1021+009001999GF102991999999999999999999MA1101591999999REMMET051METAR SBLP 201400Z 30003KT 9999 FEW030 29/18 Q1016;
0120832880999992011042015004-13267-043417FM-15+0443SBLP V0201801N002112200019N0112651N1+03001+01901999999ADDGA1021+009001999GF102991999999999999999999MA1101491999999REMMET051METAR SBLP 201500Z 18004KT 9999 FEW030 30/19 Q1015;
0120832880999992011042018004-13267-043417FM-15+0443SBLP V0202701N003112200019N0112651N1+03201+01901999999ADDGA1041+009001999GF104991999999999999999999MA1101191999999REMMET051METAR SBLP 201800Z 27006KT 9999 SCT030 32/19 Q1012;
0143832880999992011042019004-13267-043417FM-15+0443SBLP V0209999C000012200019N0112651N1+03001+02001999999ADDGA1041+008101999GA2041+030001999GF104991999999999999999999MA1101191999999REMMET058METAR SBLP 201900Z 00000KT 9999 SCT027 SCT100 30/20 Q1012;
0143832880999992011042020004-13267-043417FM-15+0443SBLP V0209999C000010300019N0112651N1+02901+02201999999ADDGA1041+009001999GA2071+030001999GF107991999999999999999999MA1101191999999REMMET058METAR SBLP 202000Z 00000KT 9999 SCT030 BKN100 29/22 Q1012;
0162832880999992011042021004-13267-043417FM-15+0443SBLP V0209999C000010300019N0112651N1+02801+02201999999ADDGA1021+009001999GA2071+030001999GF107991999999999999999999MA1101291999999REMMET058METAR SBLP 202100Z 00000KT 9999 FEW030 BKN100 28/22 Q1013;EQDQ01+000001WODIR 
0072832880999992011042110004-13267-043417FM-15+0443SBLP V0209999C000019999999Y0099001N1+02201+02001999999ADDMA1101491999999REMMET045METAR SBLP 211000Z 00000KT CAVOK 22/20 Q1015;
0072832880999992011042111004-13267-043417FM-15+0443SBLP V0209999C000019999999Y0099001N1+02501+02101999999ADDMA1101491999999REMMET045METAR SBLP 211100Z 00000KT CAVOK 25/21 Q1015;
0072832880999992011042112004-13267-043417FM-15+0443SBLP V0209999C000019999999Y0099001N1+02801+02101999999ADDMA1101591999999REMMET045METAR SBLP 211200Z 00000KT CAVOK 28/21 Q1016;
0120832880999992011042113004-13267-043417FM-15+0443SBLP V0201801N002112200019N0112651N1+02901+02001999999ADDGA1021+009001999GF102991999999999999999999MA1101591999999REMMET051METAR SBLP 211300Z 18004KT 9999 FEW030 29/20 Q1016;
0120832880999992011042114004-13267-043417FM-15+0443SBLP V0201201N003112200019N0112651N1+03001+02001999999ADDGA1021+009001999GF102991999999999999999999MA1101491999999REMMET051METAR SBLP 211400Z 12006KT 9999 FEW030 30/20 Q1015;
0120832880999992011042115004-13267-043417FM-15+0443SBLP V0202701N003112200019N0112651N1+03101+02001999999ADDGA1021+009001999GF102991999999999999999999MA1101391999999REMMET051METAR SBLP 211500Z 27006KT 9999 FEW030 31/20 Q1014;
0120832880999992011042116004-13267-043417FM-15+0443SBLP V0201801N002112200019N0112651N1+03201+02001999999ADDGA1041+009001999GF104991999999999999999999MA1101291999999REMMET051METAR SBLP 211600Z 18004KT 9999 SCT030 32/20 Q1013;
0120832880999992011042117004-13267-043417FM-15+0443SBLP V0202401N003112200019N0112651N1+03301+01901999999ADDGA1041+009001999GF104991999999999999999999MA1101191999999REMMET051METAR SBLP 211700Z 24006KT 9999 SCT030 33/19 Q1012;
0130832880999992011042118004-13267-043417FM-15+0443SBLP V0203101N002112200019N0112651N1+02801+02301999999ADDGA1041+009001999GF104991999999999999999999MA1101191999999MW1611REMMET055METAR SBLP 211800Z 31004KT 9999 -RA SCT030 28/23 Q1012;
0125832880999992011042119004-13267-043417FM-15+0443SBLP V0202401N002112200019N0112651N1+02701+02201999999ADDGA1041+009001999GF104991999999999999999999MA1101191999999REMMET056METAR SBLP 211900Z 24004KT 9999 SCT030 27/22 Q1012 RERA;
0120832880999992011042120004-13267-043417FM-15+0443SBLP V0201801N003112200019N0112651N1+02901+02301999999ADDGA1021+009001999GF102991999999999999999999MA1101191999999REMMET051METAR SBLP 212000Z 18006KT 9999 FEW030 29/23 Q1012;
0120832880999992011042121004-13267-043417FM-15+0443SBLP V0201801N003112200019N0112651N1+02701+02101999999ADDGA1021+009001999GF102991999999999999999999MA1101191999999REMMET051METAR SBLP 212100Z 18006KT 9999 FEW030 27/21 Q1012;
0072832880999992011042210004-13267-043417FM-15+0443SBLP V0209999C000019999999Y0099001N1+02401+02001999999ADDMA1101491999999REMMET045METAR SBLP 221000Z 00000KT CAVOK 24/20 Q1015;
0072832880999992011042211004-13267-043417FM-15+0443SBLP V0209999C000019999999Y0099001N1+02601+02001999999ADDMA1101491999999REMMET045METAR SBLP 221100Z 00000KT CAVOK 26/20 Q1015;
0072832880999992011042212004-13267-043417FM-15+0443SBLP V0209999C000019999999Y0099001N1+02801+02001999999ADDMA1101491999999REMMET045METAR SBLP 221200Z 00000KT CAVOK 28/20 Q1015;
0072832880999992011042213004-13267-043417FM-15+0443SBLP V0201801N003119999999Y0099001N1+02901+02001999999ADDMA1101491999999REMMET045METAR SBLP 221300Z 18006KT CAVOK 29/20 Q1015;
0120832880999992011042214004-13267-043417FM-15+0443SBLP V0201801N003112200019N0112651N1+03001+01901999999ADDGA1021+009001999GF102991999999999999999999MA1101391999999REMMET051METAR SBLP 221400Z 18006KT 9999 FEW030 30/19 Q1014;
0120832880999992011042215004-13267-043417FM-15+0443SBLP V0201801N003112200019N0112651N1+03101+01901999999ADDGA1021+009001999GF102991999999999999999999MA1101291999999REMMET051METAR SBLP 221500Z 18006KT 9999 FEW030 31/19 Q1013;
0120832880999992011042216004-13267-043417FM-15+0443SBLP V0201201N003112200019N0112651N1+03201+01801999999ADDGA1041+009001999GF104991999999999999999999MA1101291999999REMMET051METAR SBLP 221600Z 12006KT 9999 SCT030 32/18 Q1013;
0120832880999992011042217004-13267-043417FM-15+0443SBLP V0201801N003112200019N0112651N1+03301+01801999999ADDGA1041+009001999GF104991999999999999999999MA1101191999999REMMET051METAR SBLP 221700Z 18006KT 9999 SCT030 33/18 Q1012;
0120832880999992011042218004-13267-043417FM-15+0443SBLP V0202101N003112200019N0112651N1+03301+01801999999ADDGA1041+009001999GF104991999999999999999999MA1101081999999REMMET051METAR SBLP 221800Z 21006KT 9999 SCT030 33/18 Q1011;
0120832880999992011042219004-13267-043417FM-15+0443SBLP V0209999C000012200019N0112651N1+03201+01801999999ADDGA1021+009001999GF102991999999999999999999MA1101081999999REMMET051METAR SBLP 221900Z 00000KT 9999 FEW030 32/18 Q1011;
0072832880999992011042220004-13267-043417FM-15+0443SBLP V0209999C000019999999Y0099001N1+03101+01901999999ADDMA1101191999999REMMET045METAR SBLP 222000Z 00000KT CAVOK 31/19 Q1012;
0072832880999992011042221004-13267-043417FM-15+0443SBLP V0209999C000019999999Y0099001N1+03101+01901999999ADDMA1101191999999REMMET045METAR SBLP 222100Z 00000KT CAVOK 31/19 Q1012;
0072832880999992011042310004-13267-043417FM-15+0443SBLP V0201801N003119999999Y0099001N1+02001+01901999999ADDMA1101491999999REMMET045METAR SBLP 231000Z 18006KT CAVOK 20/19 Q1015;
0072832880999992011042311004-13267-043417FM-15+0443SBLP V0201801N003119999999Y0099001N1+02401+01901999999ADDMA1101591999999REMMET045METAR SBLP 231100Z 18006KT CAVOK 24/19 Q1016;
0072832880999992011042312004-13267-043417FM-15+0443SBLP V0202101N002119999999Y0099001N1+02701+02101999999ADDMA1101591999999REMMET045METAR SBLP 231200Z 21004KT CAVOK 27/21 Q1016;
0072832880999992011042313004-13267-043417FM-15+0443SBLP V0209999C000019999999Y0099001N1+02901+02101999999ADDMA1101591999999REMMET045METAR SBLP 231300Z 00000KT CAVOK 29/21 Q1016;
0072832880999992011042314004-13267-043417FM-15+0443SBLP V0209999C000019999999Y0099001N1+03001+02001999999ADDMA1101491999999REMMET045METAR SBLP 231400Z 00000KT CAVOK 30/20 Q1015;
0120832880999992011042315004-13267-043417FM-15+0443SBLP V0201201N003112200019N0112651N1+03201+01901999999ADDGA1021+009001999GF102991999999999999999999MA1101391999999REMMET051METAR SBLP 231500Z 12006KT 9999 FEW030 32/19 Q1014;
0120832880999992011042316004-13267-043417FM-15+0443SBLP V0201801N003112200019N0112651N1+03201+01901999999ADDGA1021+009001999GF102991999999999999999999MA1101291999999REMMET051METAR SBLP 231600Z 18006KT 9999 FEW030 32/19 Q1013;
0120832880999992011042317004-13267-043417FM-15+0443SBLP V0201801N003112200019N0112651N1+03301+01801999999ADDGA1041+009001999GF104991999999999999999999MA1101191999999REMMET051METAR SBLP 231700Z 18006KT 9999 SCT030 33/18 Q1012;
0120832880999992011042318004-13267-043417FM-15+0443SBLP V0201801N003112200019N0112651N1+03401+01701999999ADDGA1041+009001999GF104991999999999999999999MA1101081999999REMMET051METAR SBLP 231800Z 18006KT 9999 SCT030 34/17 Q1011;
0120832880999992011042319004-13267-043417FM-15+0443SBLP V0201801N003112200019N0112651N1+03301+01801999999ADDGA1021+009001999GF102991999999999999999999MA1101081999999REMMET051METAR SBLP 231900Z 18006KT 9999 FEW030 33/18 Q1011;
0120832880999992011042320004-13267-043417FM-15+0443SBLP V0201801N003112200019N0112651N1+03201+01801999999ADDGA1021+009001999GF102991999999999999999999MA1101191999999REMMET051METAR SBLP 232000Z 18006KT 9999 FEW030 32/18 Q1012;
0072832880999992011042321004-13267-043417FM-15+0443SBLP V0201801N003119999999Y0099001N1+03101+01801999999ADDMA1101191999999REMMET045METAR SBLP 232100Z 18006KT CAVOK 31/18 Q1012;
0072832880999992011042410004-13267-043417FM-15+0443SBLP V0209999C000019999999Y0099001N1+02101+02001999999ADDMA1101491999999REMMET045METAR SBLP 241000Z 00000KT CAVOK 21/20 Q1015;
0072832880999992011042411004-13267-043417FM-15+0443SBLP V0209999C000019999999Y0099001N1+02601+01901999999ADDMA1101591999999REMMET045METAR SBLP 241100Z 00000KT CAVOK 26/19 Q1016;
0072832880999992011042412004-13267-043417FM-15+0443SBLP V0200601N004119999999Y0099001N1+02701+01901999999ADDMA1101591999999REMMET045METAR SBLP 241200Z 06008KT CAVOK 27/19 Q1016;
0072832880999992011042413004-13267-043417FM-15+0443SBLP V0200901N003119999999Y0099001N1+02901+01901999999ADDMA1101591999999REMMET045METAR SBLP 241300Z 09006KT CAVOK 29/19 Q1016;
0072832880999992011042414004-13267-043417FM-15+0443SBLP V0201201N004119999999Y0099001N1+03101+01801999999ADDMA1101491999999REMMET045METAR SBLP 241400Z 12008KT CAVOK 31/18 Q1015;
0120832880999992011042415004-13267-043417FM-15+0443SBLP V0201801N002112200019N0112651N1+03101+01901999999ADDGA1021+009001999GF102991999999999999999999MA1101391999999REMMET051METAR SBLP 241500Z 18004KT 9999 FEW030 31/19 Q1014;
0120832880999992011042416004-13267-043417FM-15+0443SBLP V0201801N003112200019N0112651N1+03201+01801999999ADDGA1021+009001999GF102991999999999999999999MA1101191999999REMMET051METAR SBLP 241600Z 18006KT 9999 FEW030 32/18 Q1012;
0120832880999992011042417004-13267-043417FM-15+0443SBLP V0201801N003112200019N0112651N1+03301+01801999999ADDGA1021+009001999GF102991999999999999999999MA1101081999999REMMET051METAR SBLP 241700Z 18006KT 9999 FEW030 33/18 Q1011;
0120832880999992011042418004-13267-043417FM-15+0443SBLP V0201801N003112200019N0112651N1+03401+01801999999ADDGA1021+009001999GF102991999999999999999999MA1101081999999REMMET051METAR SBLP 241800Z 18006KT 9999 FEW030 34/18 Q1011;
0120832880999992011042419004-13267-043417FM-15+0443SBLP V0201801N003112200019N0112651N1+03401+01801999999ADDGA1021+009001999GF102991999999999999999999MA1101021999999REMMET051METAR SBLP 241900Z 18006KT 9999 FEW030 34/18 Q1010;
0072832880999992011042420004-13267-043417FM-15+0443SBLP V0201801N003119999999Y0099001N1+03301+01801999999ADDMA1101021999999REMMET045METAR SBLP 242000Z 18006KT CAVOK 33/18 Q1010;
0072832880999992011042421004-13267-043417FM-15+0443SBLP V0209999C000019999999Y0099001N1+03101+01801999999ADDMA1101081999999REMMET045METAR SBLP 242100Z 00000KT CAVOK 31/18 Q1011;
0072832880999992011042510004-13267-043417FM-15+0443SBLP V0202001N001519999999Y0099001N1+02201+01901999999ADDMA1101491999999REMMET045METAR SBLP 251000Z 20003KT CAVOK 22/19 Q1015;
0072832880999992011042511004-13267-043417FM-15+0443SBLP V0201901N002119999999Y0099001N1+02401+02001999999ADDMA1101591999999REMMET045METAR SBLP 251100Z 19004KT CAVOK 24/20 Q1016;
0072832880999992011042512004-13267-043417FM-15+0443SBLP V0209999C000019999999Y0099001N1+02801+01901999999ADDMA1101691999999REMMET045METAR SBLP 251200Z 00000KT CAVOK 28/19 Q1017;
0120832880999992011042513004-13267-043417FM-15+0443SBLP V0200301N002112200019N0112651N1+03001+02001999999ADDGA1021+009001999GF102991999999999999999999MA1101691999999REMMET051METAR SBLP 251300Z 03004KT 9999 FEW030 30/20 Q1017;
0120832880999992011042514004-13267-043417FM-15+0443SBLP V0202401N002112200019N0112651N1+03001+02001999999ADDGA1041+009001999GF104991999999999999999999MA1101591999999REMMET051METAR SBLP 251400Z 24004KT 9999 SCT030 30/20 Q1016;
0120832880999992011042515004-13267-043417FM-15+0443SBLP V0203601N002112200019N0112651N1+03101+02001999999ADDGA1041+009001999GF104991999999999999999999MA1101491999999REMMET051METAR SBLP 251500Z 36004KT 9999 SCT030 31/20 Q1015;
0120832880999992011042516004-13267-043417FM-15+0443SBLP V0203501N003112200019N0112651N1+03201+02001999999ADDGA1041+009001999GF104991999999999999999999MA1101391999999REMMET051METAR SBLP 251600Z 35006KT 9999 SCT030 32/20 Q1014;
0120832880999992011042517004-13267-043417FM-15+0443SBLP V0201801N002112200019N0112651N1+03401+01901999999ADDGA1041+009001999GF104991999999999999999999MA1101291999999REMMET051METAR SBLP 251700Z 18004KT 9999 SCT030 34/19 Q1013;
0120832880999992011042518004-13267-043417FM-15+0443SBLP V0201801N003112200019N0112651N1+03301+02001999999ADDGA1041+009001999GF104991999999999999999999MA1101191999999REMMET051METAR SBLP 251800Z 18006KT 9999 SCT030 33/20 Q1012;
0120832880999992011042519004-13267-043417FM-15+0443SBLP V0201801N003112200019N0112651N1+03301+01901999999ADDGA1021+009001999GF102991999999999999999999MA1101191999999REMMET051METAR SBLP 251900Z 18006KT 9999 FEW030 33/19 Q1012;
0072832880999992011042520004-13267-043417FM-15+0443SBLP V0201801N002119999999Y0099001N1+03201+02001999999ADDMA1101191999999REMMET045METAR SBLP 252000Z 18004KT CAVOK 32/20 Q1012;
0072832880999992011042521004-13267-043417FM-15+0443SBLP V0209999C000019999999Y0099001N1+03001+02101999999ADDMA1101191999999REMMET045METAR SBLP 252100Z 00000KT CAVOK 30/21 Q1012;
0072832880999992011042610004-13267-043417FM-15+0443SBLP V0209999C000019999999Y0099001N1+02001+01901999999ADDMA1101591999999REMMET045METAR SBLP 261000Z 00000KT CAVOK 20/19 Q1016;
0072832880999992011042611004-13267-043417FM-15+0443SBLP V0202101N003119999999Y0099001N1+02201+01901999999ADDMA1101591999999REMMET045METAR SBLP 261100Z 21006KT CAVOK 22/19 Q1016;
0072832880999992011042613004-13267-043417FM-15+0443SBLP V0202101N003119999999Y0099001N1+02801+01601999999ADDMA1101691999999REMMET045METAR SBLP 261300Z 21006KT CAVOK 28/16 Q1017;
0120832880999992011042614004-13267-043417FM-15+0443SBLP V0202101N003112200019N0112651N1+03001+01701999999ADDGA1021+009001999GF102991999999999999999999MA1101591999999REMMET051METAR SBLP 261400Z 21006KT 9999 FEW030 30/17 Q1016;
0120832880999992011042615004-13267-043417FM-15+0443SBLP V0202101N003112200019N0112651N1+03201+01601999999ADDGA1041+009001999GF104991999999999999999999MA1101491999999REMMET051METAR SBLP 261500Z 21006KT 9999 SCT030 32/16 Q1015;
0120832880999992011042616004-13267-043417FM-15+0443SBLP V0201801N003112200019N0112651N1+03301+01701999999ADDGA1041+009001999GF104991999999999999999999MA1101291999999REMMET051METAR SBLP 261600Z 18006KT 9999 SCT030 33/17 Q1013;
0120832880999992011042617004-13267-043417FM-15+0443SBLP V0201801N002112200019N0112651N1+03301+01601999999ADDGA1041+009001999GF104991999999999999999999MA1101291999999REMMET051METAR SBLP 261700Z 18004KT 9999 SCT030 33/16 Q1013;
0120832880999992011042618004-13267-043417FM-15+0443SBLP V0202101N004112200019N0112651N1+03401+01501999999ADDGA1041+009001999GF104991999999999999999999MA1101191999999REMMET051METAR SBLP 261800Z 21008KT 9999 SCT030 34/15 Q1012;
0120832880999992011042619004-13267-043417FM-15+0443SBLP V0201501N004112200019N0112651N1+03301+01601999999ADDGA1041+009001999GF104991999999999999999999MA1101191999999REMMET051METAR SBLP 261900Z 15008KT 9999 SCT030 33/16 Q1012;
0120832880999992011042620004-13267-043417FM-15+0443SBLP V0201501N004112200019N0112651N1+03101+01601999999ADDGA1021+009001999GF102991999999999999999999MA1101291999999REMMET051METAR SBLP 262000Z 15008KT 9999 FEW030 31/16 Q1013;
0072832880999992011042621004-13267-043417FM-15+0443SBLP V0202101N002119999999Y0099001N1+02801+01801999999ADDMA1101291999999REMMET045METAR SBLP 262100Z 21004KT CAVOK 28/18 Q1013;
0072832880999992011042710004-13267-043417FM-15+0443SBLP V0209999C000019999999Y0099001N1+02201+01901999999ADDMA1101591999999REMMET045METAR SBLP 271000Z 00000KT CAVOK 22/19 Q1016;
0072832880999992011042711004-13267-043417FM-15+0443SBLP V0209999C000019999999Y0099001N1+02401+01901999999ADDMA1101691999999REMMET045METAR SBLP 271100Z 00000KT CAVOK 24/19 Q1017;
0120832880999992011042712004-13267-043417FM-15+0443SBLP V0200901N003112200019N0112651N1+02701+01901999999ADDGA1021+009001999GF102991999999999999999999MA1101691999999REMMET051METAR SBLP 271200Z 09006KT 9999 FEW030 27/19 Q1017;
0120832880999992011042713004-13267-043417FM-15+0443SBLP V0200901N003112200019N0112651N1+02901+01901999999ADDGA1021+009001999GF102991999999999999999999MA1101691999999REMMET051METAR SBLP 271300Z 09006KT 9999 FEW030 29/19 Q1017;
0120832880999992011042714004-13267-043417FM-15+0443SBLP V0200901N003112200019N0112651N1+03001+01801999999ADDGA1041+009001999GF104991999999999999999999MA1101691999999REMMET051METAR SBLP 271400Z 09006KT 9999 SCT030 30/18 Q1017;
0120832880999992011042715004-13267-043417FM-15+0443SBLP V0200901N003112200019N0112651N1+03001+01901999999ADDGA1041+009001999GF104991999999999999999999MA1101491999999REMMET051METAR SBLP 271500Z 09006KT 9999 SCT030 30/19 Q1015;
0120832880999992011042716004-13267-043417FM-15+0443SBLP V0201501N003112200019N0112651N1+03101+01801999999ADDGA1041+009001999GF104991999999999999999999MA1101501999999REMMET051METAR SBLP 271600Z 9999 15006KT SCT030 31/18 Q1015;
0143832880999992011042717004-13267-043417FM-15+0443SBLP V0201401N003112200019N0112651N1+03001+01901999999ADDGA1041+009001999GA2041+030001999GF104991999999999999999999MA1101391999999REMMET058METAR SBLP 271700Z 14006KT 9999 SCT030 SCT100 30/19 Q1014;
0120832880999992011042718004-13267-043417FM-15+0443SBLP V0201401N004112200019N0112651N1+03101+01801999999ADDGA1021+009001999GF102991999999999999999999MA1101291999999REMMET051METAR SBLP 271800Z 14008KT 9999 FEW030 31/18 Q1013;
0143832880999992011042719004-13267-043417FM-15+0443SBLP V0201801N005112200019N0112651N1+03101+01901999999ADDGA1021+009001999GA2041+030001999GF104991999999999999999999MA1101291999999REMMET058METAR SBLP 271900Z 18010KT 9999 FEW030 SCT100 31/19 Q1013;
0120832880999992011042720004-13267-043417FM-15+0443SBLP V0202101N003112200019N0112651N1+02901+01901999999ADDGA1021+009001999GF102991999999999999999999MA1101291999999REMMET051METAR SBLP 272000Z 21006KT 9999 FEW030 29/19 Q1013;
0072832880999992011042721004-13267-043417FM-15+0443SBLP V0202101N003119999999Y0099001N1+02801+02001999999ADDMA1101291999999REMMET045METAR SBLP 272100Z 21006KT CAVOK 28/20 Q1013;
0072832880999992011042810004-13267-043417FM-15+0443SBLP V0209999C000019999999Y0099001N1+02101+01901999999ADDMA1101691999999REMMET045METAR SBLP 281000Z 00000KT CAVOK 21/19 Q1017;
0072832880999992011042811004-13267-043417FM-15+0443SBLP V0201801N003119999999Y0099001N1+02301+01901999999ADDMA1101691999999REMMET045METAR SBLP 281100Z 18006KT CAVOK 23/19 Q1017;
0072832880999992011042812004-13267-043417FM-15+0443SBLP V0201801N001019999999Y0099001N1+02601+01801999999ADDMA1101691999999REMMET045METAR SBLP 281200Z 18002KT CAVOK 26/18 Q1017;
0120832880999992011042813004-13267-043417FM-15+0443SBLP V0201801N003112200019N0112651N1+02701+01801999999ADDGA1021+009001999GF102991999999999999999999MA1101691999999REMMET051METAR SBLP 281300Z 18006KT 9999 FEW030 27/18 Q1017;
0120832880999992011042814004-13267-043417FM-15+0443SBLP V0201501N003112200019N0112651N1+02901+01701999999ADDGA1021+009001999GF102991999999999999999999MA1101691999999REMMET051METAR SBLP 281400Z 15006KT 9999 FEW030 29/17 Q1017;
0120832880999992011042815004-13267-043417FM-15+0443SBLP V0202101N003112200019N0112651N1+03001+01801999999ADDGA1021+009001999GF102991999999999999999999MA1101591999999REMMET051METAR SBLP 281500Z 21006KT 9999 FEW030 30/18 Q1016;
0120832880999992011042816004-13267-043417FM-15+0443SBLP V0201801N003112200019N0112651N1+03001+01801999999ADDGA1041+009001999GF104991999999999999999999MA1101391999999REMMET051METAR SBLP 281600Z 18006KT 9999 SCT030 30/18 Q1014;
0120832880999992011042817004-13267-043417FM-15+0443SBLP V0201801N003112200019N0112651N1+03201+01701999999ADDGA1041+009001999GF104991999999999999999999MA1101291999999REMMET051METAR SBLP 281700Z 18006KT 9999 SCT030 32/17 Q1013;
0120832880999992011042818004-13267-043417FM-15+0443SBLP V0200901N003112200019N0112651N1+03301+01701999999ADDGA1041+009001999GF104991999999999999999999MA1101291999999REMMET051METAR SBLP 281800Z 09006KT 9999 SCT030 33/17 Q1013;
0120832880999992011042819004-13267-043417FM-15+0443SBLP V0200901N003112200019N0112651N1+03201+01701999999ADDGA1021+009001999GF102991999999999999999999MA1101291999999REMMET051METAR SBLP 281900Z 09006KT 9999 FEW030 32/17 Q1013;
0120832880999992011042820004-13267-043417FM-15+0443SBLP V0200901N003112200019N0112651N1+03101+01701999999ADDGA1021+009001999GF102991999999999999999999MA1101291999999REMMET051METAR SBLP 282000Z 09006KT 9999 FEW030 31/17 Q1013;
0072832880999992011042821004-13267-043417FM-15+0443SBLP V0209999C000019999999Y0099001N1+03001+01801999999ADDMA1101391999999REMMET045METAR SBLP 282100Z 00000KT CAVOK 30/18 Q1014;
0072832880999992011042910004-13267-043417FM-15+0443SBLP V0209999C000019999999Y0099001N1+02301+02001999999ADDMA1101491999999REMMET045METAR SBLP 291000Z 00000KT CAVOK 23/20 Q1015;
0072832880999992011042911004-13267-043417FM-15+0443SBLP V0209999C000019999999Y0099001N1+02401+01901999999ADDMA1101591999999REMMET045METAR SBLP 291100Z 00000KT CAVOK 24/19 Q1016;
0072832880999992011042912004-13267-043417FM-15+0443SBLP V0209999C000019999999Y0099001N1+02601+01901999999ADDMA1101591999999REMMET045METAR SBLP 291200Z 00000KT CAVOK 26/19 Q1016;
0072832880999992011042913004-13267-043417FM-15+0443SBLP V0209999C000019999999Y0099001N1+02801+01801999999ADDMA1101591999999REMMET045METAR SBLP 291300Z 00000KT CAVOK 28/18 Q1016;
0120832880999992011042914004-13267-043417FM-15+0443SBLP V0209999C000012200019N0112651N1+03001+01801999999ADDGA1021+009001999GF102991999999999999999999MA1101591999999REMMET051METAR SBLP 291400Z 00000KT 9999 FEW030 30/18 Q1016;
0120832880999992011042915004-13267-043417FM-15+0443SBLP V0201801N003112200019N0112651N1+03101+01801999999ADDGA1021+009001999GF102991999999999999999999MA1101391999999REMMET051METAR SBLP 291500Z 18006KT 9999 FEW030 31/18 Q1014;
0120832880999992011042916004-13267-043417FM-15+0443SBLP V0201801N003112200019N0112651N1+03201+01701999999ADDGA1041+009001999GF104991999999999999999999MA1101291999999REMMET051METAR SBLP 291600Z 18006KT 9999 SCT030 32/17 Q1013;
0120832880999992011042917004-13267-043417FM-15+0443SBLP V0202101N002112200019N0112651N1+03301+01701999999ADDGA1041+009001999GF104991999999999999999999MA1101191999999REMMET051METAR SBLP 291700Z 21004KT 9999 SCT030 33/17 Q1012;
0120832880999992011042918004-13267-043417FM-15+0443SBLP V0201301N003112200019N0112651N1+03301+01701999999ADDGA1041+009001999GF104991999999999999999999MA1101191999999REMMET051METAR SBLP 291800Z 13006KT 9999 SCT030 33/17 Q1012;
0120832880999992011042919004-13267-043417FM-15+0443SBLP V0201601N002112200019N0112651N1+03201+01701999999ADDGA1041+009001999GF104991999999999999999999MA1101191999999REMMET051METAR SBLP 291900Z 16004KT 9999 SCT030 32/17 Q1012;
0120832880999992011042920004-13267-043417FM-15+0443SBLP V0201201N003112200019N0112651N1+03201+01901999999ADDGA1041+009001999GF104991999999999999999999MA1101191999999REMMET051METAR SBLP 292000Z 12006KT 9999 SCT030 32/19 Q1012;
0120832880999992011042921004-13267-043417FM-15+0443SBLP V0209999C000012200019N0112651N1+02801+02101999999ADDGA1041+009001999GF104991999999999999999999MA1101191999999REMMET051METAR SBLP 292100Z 00000KT 9999 SCT030 28/21 Q1012;
0072832880999992011043010004-13267-043417FM-15+0443SBLP V0202201N002119999999Y0099001N1+02201+02001999999ADDMA1101491999999REMMET045METAR SBLP 301000Z 22004KT CAVOK 22/20 Q1015;
0072832880999992011043011004-13267-043417FM-15+0443SBLP V0202101N002119999999Y0099001N1+02501+02001999999ADDMA1101491999999REMMET045METAR SBLP 301100Z 21004KT CAVOK 25/20 Q1015;
0072832880999992011043012004-13267-043417FM-15+0443SBLP V0201801N001519999999Y0099001N1+02701+02001999999ADDMA1101491999999REMMET045METAR SBLP 301200Z 18003KT CAVOK 27/20 Q1015;
0072832880999992011043013004-13267-043417FM-15+0443SBLP V0200901N003119999999Y0099001N1+02901+02001999999ADDMA1101491999999REMMET045METAR SBLP 301300Z 09006KT CAVOK 29/20 Q1015;
0120832880999992011043014004-13267-043417FM-15+0443SBLP V0200301N003112200019N0112651N1+03101+01801999999ADDGA1021+009001999GF102991999999999999999999MA1101491999999REMMET051METAR SBLP 301400Z 03006KT 9999 FEW030 31/18 Q1015;
0120832880999992011043015004-13267-043417FM-15+0443SBLP V0202101N003112200019N0112651N1+03201+01701999999ADDGA1021+009001999GF102991999999999999999999MA1101391999999REMMET051METAR SBLP 301500Z 21006KT 9999 FEW030 32/17 Q1014;
0120832880999992011043016004-13267-043417FM-15+0443SBLP V0201801N003112200019N0112651N1+03201+01801999999ADDGA1041+009001999GF104991999999999999999999MA1101291999999REMMET051METAR SBLP 301600Z 18006KT 9999 SCT030 32/18 Q1013;
0120832880999992011043017004-13267-043417FM-15+0443SBLP V0202101N003112200019N0112651N1+03301+01801999999ADDGA1041+009001999GF104991999999999999999999MA1101191999999REMMET051METAR SBLP 301700Z 21006KT 9999 SCT030 33/18 Q1012;
0120832880999992011043018004-13267-043417FM-15+0443SBLP V0202101N002112200019N0112651N1+03401+01801999999ADDGA1041+009001999GF104991999999999999999999MA1101081999999REMMET051METAR SBLP 301800Z 21004KT 9999 SCT030 34/18 Q1011;
0120832880999992011043019004-13267-043417FM-15+0443SBLP V0202101N003112200019N0112651N1+03301+01901999999ADDGA1021+009001999GF102991999999999999999999MA1101081999999REMMET051METAR SBLP 301900Z 21006KT 9999 FEW030 33/19 Q1011;
0120832880999992011043020004-13267-043417FM-15+0443SBLP V0202101N003112200019N0112651N1+03201+01901999999ADDGA1021+009001999GF102991999999999999999999MA1101081999999REMMET051METAR SBLP 302000Z 21006KT 9999 FEW030 32/19 Q1011;
0120832880999992011043021004-13267-043417FM-15+0443SBLP V0209999C000012200019N0112651N1+03001+02001999999ADDGA1021+009001999GF102991999999999999999999MA1101081999999REMMET051METAR SBLP 302100Z 00000KT 9999 FEW030 30/20 Q1011;
0072832880999992011050110004-13267-043417FM-15+0443SBLP V0209999C000019999999Y0099001N1+02001+01901999999ADDMA1101491999999REMMET045METAR SBLP 011000Z 00000KT CAVOK 20/19 Q1015;
0072832880999992011050111004-13267-043417FM-15+0443SBLP V0201501N003119999999Y0099001N1+02401+01901999999ADDMA1101491999999REMMET045METAR SBLP 011100Z 15006KT CAVOK 24/19 Q1015;
0072832880999992011050112004-13267-043417FM-15+0443SBLP V0202401N003119999999Y0099001N1+02701+01901999999ADDMA1101591999999REMMET045METAR SBLP 011200Z 24006KT CAVOK 27/19 Q1016;
0072832880999992011050113004-13267-043417FM-15+0443SBLP V0202701N002119999999Y0099001N1+02901+01801999999ADDMA1101491999999REMMET045METAR SBLP 011300Z 27004KT CAVOK 29/18 Q1015;
0072832880999992011050114004-13267-043417FM-15+0443SBLP V0202701N003119999999Y0099001N1+03001+01801999999ADDMA1101491999999REMMET045METAR SBLP 011400Z 27006KT CAVOK 30/18 Q1015;
0120832880999992011050115004-13267-043417FM-15+0443SBLP V0202101N003112200019N0112651N1+03101+01801999999ADDGA1021+009001999GF102991999999999999999999MA1101391999999REMMET051METAR SBLP 011500Z 21006KT 9999 FEW030 31/18 Q1014;
0120832880999992011050116004-13267-043417FM-15+0443SBLP V0202101N003112200019N0112651N1+03301+02001999999ADDGA1021+009001999GF102991999999999999999999MA1101291999999REMMET051METAR SBLP 011600Z 21006KT 9999 FEW030 33/20 Q1013;
0120832880999992011050117004-13267-043417FM-15+0443SBLP V0202401N005112200019N0112651N1+03301+02001999999ADDGA1021+009001999GF102991999999999999999999MA1101081999999REMMET051METAR SBLP 011700Z 24010KT 9999 FEW030 33/20 Q1011;
0072832880999992011050118004-13267-043417FM-15+0443SBLP V0202101N005119999999Y0099001N1+03301+01801999999ADDMA1101081999999REMMET045METAR SBLP 011800Z 21010KT CAVOK 33/18 Q1011;
0072832880999992011050119004-13267-043417FM-15+0443SBLP V0202101N004119999999Y0099001N1+03301+01701999999ADDMA1101081999999REMMET045METAR SBLP 011900Z 21008KT CAVOK 33/17 Q1011;
0072832880999992011050120004-13267-043417FM-15+0443SBLP V0202101N004119999999Y0099001N1+03201+01901999999ADDMA1101081999999REMMET045METAR SBLP 012000Z 21008KT CAVOK 32/19 Q1011;
0072832880999992011050121004-13267-043417FM-15+0443SBLP V0202101N003119999999Y0099001N1+02901+01901999999ADDMA1101081999999REMMET045METAR SBLP 012100Z 21006KT CAVOK 29/19 Q1011;
0072832880999992011050210004-13267-043417FM-15+0443SBLP V0209999C000019999999Y0099001N1+02101+02001999999ADDMA1101491999999REMMET045METAR SBLP 021000Z 00000KT CAVOK 21/20 Q1015;
0072832880999992011050211004-13267-043417FM-15+0443SBLP V0201201N003119999999Y0099001N1+02501+02101999999ADDMA1101491999999REMMET045METAR SBLP 021100Z 12006KT CAVOK 25/21 Q1015;
0072832880999992011050212004-13267-043417FM-15+0443SBLP V0201801N002119999999Y0099001N1+02901+02001999999ADDMA1101591999999REMMET045METAR SBLP 021200Z 18004KT CAVOK 29/20 Q1016;
0120832880999992011050213004-13267-043417FM-15+0443SBLP V0209999C000012200019N0112651N1+03001+02001999999ADDGA1021+009001999GF102991999999999999999999MA1101491999999REMMET051METAR SBLP 021300Z 00000KT 9999 FEW030 30/20 Q1015;
0120832880999992011050214004-13267-043417FM-15+0443SBLP V0209999C000012200019N0112651N1+03201+02001999999ADDGA1021+009001999GF102991999999999999999999MA1101391999999REMMET051METAR SBLP 021400Z 00000KT 9999 FEW030 32/20 Q1014;
0120832880999992011050215004-13267-043417FM-15+0443SBLP V0201801N003112200019N0112651N1+03401+02001999999ADDGA1021+009001999GF102991999999999999999999MA1101391999999REMMET051METAR SBLP 021500Z 18006KT 9999 FEW030 34/20 Q1014;
0120832880999992011050216004-13267-043417FM-15+0443SBLP V0202101N002112200019N0112651N1+03401+01901999999ADDGA1041+009001999GF104991999999999999999999MA1101191999999REMMET051METAR SBLP 021600Z 21004KT 9999 SCT030 34/19 Q1012;
0120832880999992011050217004-13267-043417FM-15+0443SBLP V0202701N002612200019N0112651N1+03401+02001999999ADDGA1041+009001999GF104991999999999999999999MA1101191999999REMMET051METAR SBLP 021700Z 27005KT 9999 SCT030 34/20 Q1012;
0120832880999992011050218004-13267-043417FM-15+0443SBLP V0202401N003112200019N0112651N1+03501+01901999999ADDGA1041+009001999GF104991999999999999999999MA1101081999999REMMET051METAR SBLP 021800Z 24006KT 9999 SCT030 35/19 Q1011;
0120832880999992011050219004-13267-043417FM-15+0443SBLP V0202401N003112200019N0112651N1+03401+02001999999ADDGA1041+009001999GF104991999999999999999999MA1101081999999REMMET051METAR SBLP 021900Z 24006KT 9999 SCT030 34/20 Q1011;
0120832880999992011050220004-13267-043417FM-15+0443SBLP V0202101N001512200019N0112651N1+03301+01901999999ADDGA1041+009001999GF104991999999999999999999MA1101081999999REMMET051METAR SBLP 022000Z 21003KT 9999 SCT030 33/19 Q1011;
0130832880999992011050221004-13267-043417FM-15+0443SBLP V0201201N006210081019N0080001N1+02601+02401999999ADDGA1071+008101999GF107991999999999999999999MA1101191999999MW1611REMMET055METAR SBLP 022100Z 12012KT 8000 -RA BKN027 26/24 Q1012;
0072832880999992011050310004-13267-043417FM-15+0443SBLP V0209999C000019999999Y0099001N1+02301+02101999999ADDMA1101491999999REMMET045METAR SBLP 031000Z 00000KT CAVOK 23/21 Q1015;
0072832880999992011050311004-13267-043417FM-15+0443SBLP V0209999C000019999999Y0099001N1+02601+02101999999ADDMA1101491999999REMMET045METAR SBLP 031100Z 00000KT CAVOK 26/21 Q1015;
0072832880999992011050312004-13267-043417FM-15+0443SBLP V0209999C000019999999Y0099001N1+02701+02101999999ADDMA1101591999999REMMET045METAR SBLP 031200Z 00000KT CAVOK 27/21 Q1016;
0120832880999992011050313004-13267-043417FM-15+0443SBLP V0200901N003112200019N0112651N1+02901+02001999999ADDGA1021+009001999GF102991999999999999999999MA1101591999999REMMET051METAR SBLP 031300Z 09006KT 9999 FEW030 29/20 Q1016;
0120832880999992011050314004-13267-043417FM-15+0443SBLP V0200901N003112200019N0112651N1+03101+01901999999ADDGA1021+009001999GF102991999999999999999999MA1101491999999REMMET051METAR SBLP 031400Z 09006KT 9999 FEW030 31/19 Q1015;
0120832880999992011050315004-13267-043417FM-15+0443SBLP V0201801N003112200019N0112651N1+03201+01901999999ADDGA1041+009001999GF104991999999999999999999MA1101391999999REMMET051METAR SBLP 031500Z 18006KT 9999 SCT030 32/19 Q1014;
0120832880999992011050316004-13267-043417FM-15+0443SBLP V0202401N001512200019N0112651N1+03301+01801999999ADDGA1041+009001999GF104991999999999999999999MA1101291999999REMMET051METAR SBLP 031600Z 24003KT 9999 SCT030 33/18 Q1013;
0120832880999992011050317004-13267-043417FM-15+0443SBLP V0202401N001512200019N0112651N1+03401+01901999999ADDGA1041+009001999GF104991999999999999999999MA1101191999999REMMET051METAR SBLP 031700Z 24003KT 9999 SCT030 34/19 Q1012;
0120832880999992011050318004-13267-043417FM-15+0443SBLP V0202201N003112200019N0112651N1+03501+01901999999ADDGA1041+009001999GF104991999999999999999999MA1101081999999REMMET051METAR SBLP 031800Z 22006KT 9999 SCT030 35/19 Q1011;
0120832880999992011050319004-13267-043417FM-15+0443SBLP V0202101N002112200019N0112651N1+03501+02001999999ADDGA1041+009001999GF104991999999999999999999MA1101081999999REMMET051METAR SBLP 031900Z 21004KT 9999 SCT030 35/20 Q1011;
0120832880999992011050320004-13267-043417FM-15+0443SBLP V0209999C000012200019N0112651N1+03301+02101999999ADDGA1041+009001999GF104991999999999999999999MA1101081999999REMMET051METAR SBLP 032000Z 00000KT 9999 SCT030 33/21 Q1011;
0120832880999992011050321004-13267-043417FM-15+0443SBLP V0201801N002612200019N0112651N1+03001+02001999999ADDGA1041+008101999GF104991999999999999999999MA1101191999999REMMET051METAR SBLP 032100Z 18005KT 9999 SCT027 30/20 Q1012;
0072832880999992011050410004-13267-043417FM-15+0443SBLP V0201601N001519999999Y0099001N1+02201+01901999999ADDMA1101591999999REMMET045METAR SBLP 041000Z 16003KT CAVOK 22/19 Q1016;
0072832880999992011050411004-13267-043417FM-15+0443SBLP V0201701N001519999999Y0099001N1+02501+02001999999ADDMA1101691999999REMMET045METAR SBLP 041100Z 17003KT CAVOK 25/20 Q1017;
0072832880999992011050412004-13267-043417FM-15+0443SBLP V0201201N003119999999Y0099001N1+02801+01901999999ADDMA1101691999999REMMET045METAR SBLP 041200Z 12006KT CAVOK 28/19 Q1017;
0120832880999992011050413004-13267-043417FM-15+0443SBLP V0202101N001512200019N0112651N1+03001+01801999999ADDGA1021+009001999GF102991999999999999999999MA1101691999999REMMET051METAR SBLP 041300Z 21003KT 9999 FEW030 30/18 Q1017;
0120832880999992011050414004-13267-043417FM-15+0443SBLP V0201701N004112200019N0112651N1+03201+01901999999ADDGA1021+009001999GF102991999999999999999999MA1101591999999REMMET051METAR SBLP 041400Z 17008KT 9999 FEW030 32/19 Q1016;
0120832880999992011050415004-13267-043417FM-15+0443SBLP V0202101N004112200019N0112651N1+03201+01901999999ADDGA1041+009001999GF104991999999999999999999MA1101491999999REMMET051METAR SBLP 041500Z 21008KT 9999 SCT030 32/19 Q1015;
0120832880999992011050416004-13267-043417FM-15+0443SBLP V0202701N004110090019N0112651N1+03101+02001999999ADDGA1071+009001999GF107991999999999999999999MA1101391999999REMMET051METAR SBLP 041600Z 27008KT 9999 BKN030 31/20 Q1014;
0120832880999992011050417004-13267-043417FM-15+0443SBLP V0202701N003110090019N0112651N1+03201+02001999999ADDGA1071+009001999GF107991999999999999999999MA1101291999999REMMET051METAR SBLP 041700Z 27006KT 9999 BKN030 32/20 Q1013;
0120832880999992011050418004-13267-043417FM-15+0443SBLP V0201101N002112200019N0112651N1+03301+01901999999ADDGA1041+009001999GF104991999999999999999999MA1101191999999REMMET051METAR SBLP 041800Z 11004KT 9999 SCT030 33/19 Q1012;
0120832880999992011050419004-13267-043417FM-15+0443SBLP V0201501N004112200019N0112651N1+03301+01901999999ADDGA1021+009001999GF102991999999999999999999MA1101191999999REMMET051METAR SBLP 041900Z 15008KT 9999 FEW030 33/19 Q1012;
0120832880999992011050420004-13267-043417FM-15+0443SBLP V0201501N004112200019N0112651N1+03201+01901999999ADDGA1021+009001999GF102991999999999999999999MA1101191999999REMMET051METAR SBLP 042000Z 15008KT 9999 FEW030 32/19 Q1012;
0072832880999992011050421004-13267-043417FM-15+0443SBLP V0201501N003119999999Y0099001N1+03001+01901999999ADDMA1101291999999REMMET045METAR SBLP 042100Z 15006KT CAVOK 30/19 Q1013;
0072832880999992011050510004-13267-043417FM-15+0443SBLP V0209999C000019999999Y0099001N1+02101+01901999999ADDMA1101591999999REMMET045METAR SBLP 051000Z 00000KT CAVOK 21/19 Q1016;
0072832880999992011050511004-13267-043417FM-15+0443SBLP V0209999C000019999999Y0099001N1+02501+02001999999ADDMA1101691999999REMMET045METAR SBLP 051100Z 00000KT CAVOK 25/20 Q1017;
0072832880999992011050512004-13267-043417FM-15+0443SBLP V0202201N002119999999Y0099001N1+02701+02001999999ADDMA1101691999999REMMET045METAR SBLP 051200Z 22004KT CAVOK 27/20 Q1017;
0072832880999992011050513004-13267-043417FM-15+0443SBLP V0201501N003119999999Y0099001N1+02901+02001999999ADDMA1101691999999REMMET045METAR SBLP 051300Z 15006KT CAVOK 29/20 Q1017;
0072832880999992011050514004-13267-043417FM-15+0443SBLP V0202701N002119999999Y0099001N1+03101+02101999999ADDMA1101591999999REMMET045METAR SBLP 051400Z 27004KT CAVOK 31/21 Q1016;
0072832880999992011050515004-13267-043417FM-15+0443SBLP V0202701N003119999999Y0099001N1+03201+02001999999ADDMA1101491999999REMMET045METAR SBLP 051500Z 27006KT CAVOK 32/20 Q1015;
0120832880999992011050516004-13267-043417FM-15+0443SBLP V0209999C000012200019N0112651N1+03201+02101999999ADDGA1021+009001999GF102991999999999999999999MA1101391999999REMMET051METAR SBLP 051600Z 00000KT 9999 FEW030 32/21 Q1014;
0120832880999992011050517004-13267-043417FM-15+0443SBLP V0202101N002112200019N0112651N1+03401+02001999999ADDGA1021+009001999GF102991999999999999999999MA1101191999999REMMET051METAR SBLP 051700Z 21004KT 9999 FEW030 34/20 Q1012;
0120832880999992011050518004-13267-043417FM-15+0443SBLP V0201501N003112200019N0112651N1+03501+01901999999ADDGA1021+009001999GF102991999999999999999999MA1101191999999REMMET051METAR SBLP 051800Z 15006KT 9999 FEW030 35/19 Q1012;
0120832880999992011050519004-13267-043417FM-15+0443SBLP V0201801N003112200019N0112651N1+03301+02001999999ADDGA1021+009001999GF102991999999999999999999MA1101081999999REMMET051METAR SBLP 051900Z 18006KT 9999 FEW030 33/20 Q1011;
0072832880999992011050520004-13267-043417FM-15+0443SBLP V0209999C000019999999Y0099001N1+03201+02001999999ADDMA1101191999999REMMET045METAR SBLP 052000Z 00000KT CAVOK 32/20 Q1012;
0072832880999992011050521004-13267-043417FM-15+0443SBLP V0201401N003119999999Y0099001N1+03001+02101999999ADDMA1101191999999REMMET045METAR SBLP 052100Z 14006KT CAVOK 30/21 Q1012;
0072832880999992011050610004-13267-043417FM-15+0443SBLP V0209999C000019999999Y0099001N1+02001+01701999999ADDMA1101591999999REMMET045METAR SBLP 061000Z 00000KT CAVOK 20/17 Q1016;
0072832880999992011050611004-13267-043417FM-15+0443SBLP V0209999C000019999999Y0099001N1+02301+01901999999ADDMA1101691999999REMMET045METAR SBLP 061100Z 00000KT CAVOK 23/19 Q1017;
0072832880999992011050612004-13267-043417FM-15+0443SBLP V0209999C000019999999Y0099001N1+02501+01801999999ADDMA1101801999999REMMET045METAR SBLP 061200Z 00000KT CAVOK 25/18 Q1018;
0120832880999992011050615004-13267-043417FM-15+0443SBLP V0202101N003112200019N0112651N1+03001+02001999999ADDGA1021+009001999GF102991999999999999999999MA1101591999999REMMET051METAR SBLP 061500Z 21006KT 9999 FEW030 30/20 Q1016;
0120832880999992011050616004-13267-043417FM-15+0443SBLP V0201801N003112200019N0112651N1+03101+02001999999ADDGA1021+009001999GF102991999999999999999999MA1101491999999REMMET051METAR SBLP 061600Z 18006KT 9999 FEW030 31/20 Q1015;
0120832880999992011050617004-13267-043417FM-15+0443SBLP V0201801N003112200019N0112651N1+03101+02001999999ADDGA1041+009001999GF104991999999999999999999MA1101391999999REMMET051METAR SBLP 061700Z 18006KT 9999 SCT030 31/20 Q1014;
0120832880999992011050618004-13267-043417FM-15+0443SBLP V0201801N003112200019N0112651N1+03301+01901999999ADDGA1041+009001999GF104991999999999999999999MA1101291999999REMMET051METAR SBLP 061800Z 18006KT 9999 SCT030 33/19 Q1013;
0120832880999992011050619004-13267-043417FM-15+0443SBLP V0201801N003112200019N0112651N1+03301+01801999999ADDGA1021+009001999GF102991999999999999999999MA1101291999999REMMET051METAR SBLP 061900Z 18006KT 9999 FEW030 33/18 Q1013;
0120832880999992011050620004-13267-043417FM-15+0443SBLP V0201801N003112200019N0112651N1+03201+01901999999ADDGA1021+009001999GF102991999999999999999999MA1101391999999REMMET051METAR SBLP 062000Z 18006KT 9999 FEW030 32/19 Q1014;
0120832880999992011050621004-13267-043417FM-15+0443SBLP V0200901N003112200019N0112651N1+03001+01901999999ADDGA1021+009001999GF102991999999999999999999MA1101391999999REMMET051METAR SBLP 062100Z 09006KT 9999 FEW030 30/19 Q1014;
0072832880999992011050710004-13267-043417FM-15+0443SBLP V0209999C000019999999Y0099001N1+02301+01901999999ADDMA1101591999999REMMET045METAR SBLP 071000Z 00000KT CAVOK 23/19 Q1016;
0072832880999992011050711004-13267-043417FM-15+0443SBLP V0209999C000019999999Y0099001N1+02601+01901999999ADDMA1101691999999REMMET045METAR SBLP 071100Z 00000KT CAVOK 26/19 Q1017;
0072832880999992011050712004-13267-043417FM-15+0443SBLP V0209999C000019999999Y0099001N1+02801+01901999999ADDMA1101691999999REMMET045METAR SBLP 071200Z 00000KT CAVOK 28/19 Q1017;
0120832880999992011050713004-13267-043417FM-15+0443SBLP V0200901N003112200019N0112651N1+02801+01901999999ADDGA1021+009001999GF102991999999999999999999MA1101691999999REMMET051METAR SBLP 071300Z 09006KT 9999 FEW030 28/19 Q1017;
0120832880999992011050714004-13267-043417FM-15+0443SBLP V0200901N003112200019N0112651N1+03001+01901999999ADDGA1041+009001999GF104991999999999999999999MA1101591999999REMMET051METAR SBLP 071400Z 09006KT 9999 SCT030 30/19 Q1016;
0120832880999992011050715004-13267-043417FM-15+0443SBLP V0200901N003110090019N0112651N1+03001+01901999999ADDGA1071+009001999GF107991999999999999999999MA1101491999999REMMET051METAR SBLP 071500Z 09006KT 9999 BKN030 30/19 Q1015;
0120832880999992011050716004-13267-043417FM-15+0443SBLP V0201301N003110090019N0112651N1+03201+01801999999ADDGA1071+009001999GF107991999999999999999999MA1101391999999REMMET051METAR SBLP 071600Z 13006KT 9999 BKN030 32/18 Q1014;
0120832880999992011050717004-13267-043417FM-15+0443SBLP V0202001N003110090019N0112651N1+03301+01801999999ADDGA1071+009001999GF107991999999999999999999MA1101391999999REMMET051METAR SBLP 071700Z 20006KT 9999 BKN030 33/18 Q1014;
0120832880999992011050718004-13267-043417FM-15+0443SBLP V0201901N003112200019N0112651N1+03201+01801999999ADDGA1041+009001999GF104991999999999999999999MA1101291999999REMMET051METAR SBLP 071800Z 19006KT 9999 SCT030 32/18 Q1013;
0120832880999992011050719004-13267-043417FM-15+0443SBLP V0201801N003112200019N0112651N1+03101+01801999999ADDGA1041+009001999GF104991999999999999999999MA1101291999999REMMET051METAR SBLP 071900Z 18006KT 9999 SCT030 31/18 Q1013;
0120832880999992011050720004-13267-043417FM-15+0443SBLP V0202101N002612200019N0112651N1+02901+02001999999ADDGA1021+009001999GF102991999999999999999999MA1101391999999REMMET051METAR SBLP 072000Z 21005KT 9999 FEW030 29/20 Q1014;
0072832880999992011050721004-13267-043417FM-15+0443SBLP V0201801N001519999999Y0099001N1+02701+02001999999ADDMA1101391999999REMMET045METAR SBLP 072100Z 18003KT CAVOK 27/20 Q1014;
0072832880999992011050810004-13267-043417FM-15+0443SBLP V0201801N001519999999Y0099001N1+02201+01701999999ADDMA1101691999999REMMET045METAR SBLP 081000Z 18003KT CAVOK 22/17 Q1017;
0072832880999992011050811004-13267-043417FM-15+0443SBLP V0202301N001519999999Y0099001N1+02301+01801999999ADDMA1101691999999REMMET045METAR SBLP 081100Z 23003KT CAVOK 23/18 Q1017;
0072832880999992011050812004-13267-043417FM-15+0443SBLP V0201801N003119999999Y0099001N1+02701+01501999999ADDMA1101691999999REMMET045METAR SBLP 081200Z 18006KT CAVOK 27/15 Q1017;
0072832880999992011050813004-13267-043417FM-15+0443SBLP V0201301N004119999999Y0099001N1+02901+01601999999ADDMA1101691999999REMMET045METAR SBLP 081300Z 13008KT CAVOK 29/16 Q1017;
0120832880999992011050814004-13267-043417FM-15+0443SBLP V0201501N003112200019N0112651N1+03101+01601999999ADDGA1021+009001999GF102991999999999999999999MA1101691999999REMMET051METAR SBLP 081400Z 15006KT 9999 FEW030 31/16 Q1017;
0120832880999992011050815004-13267-043417FM-15+0443SBLP V0201501N003112200019N0112651N1+03201+01501999999ADDGA1021+009001999GF102991999999999999999999MA1101591999999REMMET051METAR SBLP 081500Z 15006KT 9999 FEW030 32/15 Q1016;
0120832880999992011050816004-13267-043417FM-15+0443SBLP V0201801N003112200019N0112651N1+03201+01501999999ADDGA1041+009001999GF104991999999999999999999MA1101391999999REMMET051METAR SBLP 081600Z 18006KT 9999 SCT030 32/15 Q1014;
0120832880999992011050817004-13267-043417FM-15+0443SBLP V0201801N003112200019N0112651N1+03301+01501999999ADDGA1041+009001999GF104991999999999999999999MA1101291999999REMMET051METAR SBLP 081700Z 18006KT 9999 SCT030 33/15 Q1013;
0120832880999992011050818004-13267-043417FM-15+0443SBLP V0201801N003112200019N0112651N1+03401+01501999999ADDGA1041+009001999GF104991999999999999999999MA1101291999999REMMET051METAR SBLP 081800Z 18006KT 9999 SCT030 34/15 Q1013;
0120832880999992011050819004-13267-043417FM-15+0443SBLP V0201801N003112200019N0112651N1+03301+01601999999ADDGA1041+009001999GF104991999999999999999999MA1101291999999REMMET051METAR SBLP 081900Z 18006KT 9999 SCT030 33/16 Q1013;
0120832880999992011050820004-13267-043417FM-15+0443SBLP V0201801N003112200019N0112651N1+03201+01601999999ADDGA1021+009001999GF102991999999999999999999MA1101291999999REMMET051METAR SBLP 082000Z 18006KT 9999 FEW030 32/16 Q1013;
0120832880999992011050821004-13267-043417FM-15+0443SBLP V0201801N003112200019N0112651N1+03101+01601999999ADDGA1021+009001999GF102991999999999999999999MA1101291999999REMMET051METAR SBLP 082100Z 18006KT 9999 FEW030 31/16 Q1013;
0072832880999992011050910004-13267-043417FM-15+0443SBLP V0202101N002119999999Y0099001N1+01901+01501999999ADDMA1101591999999REMMET045METAR SBLP 091000Z 21004KT CAVOK 19/15 Q1016;
0072832880999992011050911004-13267-043417FM-15+0443SBLP V0202101N002619999999Y0099001N1+02201+01701999999ADDMA1101591999999REMMET045METAR SBLP 091100Z 21005KT CAVOK 22/17 Q1016;
0072832880999992011050912004-13267-043417FM-15+0443SBLP V0201901N002619999999Y0099001N1+02501+01701999999ADDMA1101591999999REMMET045METAR SBLP 091200Z 19005KT CAVOK 25/17 Q1016;
0072832880999992011050913004-13267-043417FM-15+0443SBLP V0209999C000019999999Y0099001N1+02801+01501999999ADDMA1101591999999REMMET045METAR SBLP 091300Z 00000KT CAVOK 28/15 Q1016;
0120832880999992011050914004-13267-043417FM-15+0443SBLP V0209999C000012200019N0112651N1+02901+01501999999ADDGA1021+009001999GF102991999999999999999999MA1101491999999REMMET051METAR SBLP 091400Z 00000KT 9999 FEW030 29/15 Q1015;
0120832880999992011050915004-13267-043417FM-15+0443SBLP V0202501N003112200019N0112651N1+03001+01601999999ADDGA1021+009001999GF102991999999999999999999MA1101391999999REMMET051METAR SBLP 091500Z 25006KT 9999 FEW030 30/16 Q1014;
0120832880999992011050916004-13267-043417FM-15+0443SBLP V0202101N002612200019N0112651N1+03101+01601999999ADDGA1021+009001999GF102991999999999999999999MA1101291999999REMMET051METAR SBLP 091600Z 21005KT 9999 FEW030 31/16 Q1013;
0120832880999992011050917004-13267-043417FM-15+0443SBLP V0202401N003112200019N0112651N1+03201+01501999999ADDGA1021+009001999GF102991999999999999999999MA1101191999999REMMET051METAR SBLP 091700Z 24006KT 9999 FEW030 32/15 Q1012;
0120832880999992011050918004-13267-043417FM-15+0443SBLP V0202401N003112200019N0112651N1+03201+01401999999ADDGA1021+009001999GF102991999999999999999999MA1101081999999REMMET051METAR SBLP 091800Z 24006KT 9999 FEW030 32/14 Q1011;
0120832880999992011050919004-13267-043417FM-15+0443SBLP V0202101N003112200019N0112651N1+03201+01401999999ADDGA1021+009001999GF102991999999999999999999MA1101081999999REMMET051METAR SBLP 091900Z 21006KT 9999 FEW030 32/14 Q1011;
0072832880999992011050920004-13267-043417FM-15+0443SBLP V0202001N002119999999Y0099001N1+03001+01501999999ADDMA1101081999999REMMET045METAR SBLP 092000Z 20004KT CAVOK 30/15 Q1011;
0072832880999992011050921004-13267-043417FM-15+0443SBLP V0201801N002119999999Y0099001N1+02701+01501999999ADDMA1101191999999REMMET045METAR SBLP 092100Z 18004KT CAVOK 27/15 Q1012;
0072832880999992011051010004-13267-043417FM-15+0443SBLP V0202001N002119999999Y0099001N1+01901+01501999999ADDMA1101391999999REMMET045METAR SBLP 101000Z 20004KT CAVOK 19/15 Q1014;
0072832880999992011051011004-13267-043417FM-15+0443SBLP V0201801N003119999999Y0099001N1+02201+01601999999ADDMA1101491999999REMMET045METAR SBLP 101100Z 18006KT CAVOK 22/16 Q1015;
0072832880999992011051013004-13267-043417FM-15+0443SBLP V0200901N003119999999Y0099001N1+02901+01601999999ADDMA1101591999999REMMET045METAR SBLP 101300Z 09006KT CAVOK 29/16 Q1016;
0120832880999992011051014004-13267-043417FM-15+0443SBLP V0200901N003112200019N0112651N1+03001+01701999999ADDGA1021+009001999GF102991999999999999999999MA1101491999999REMMET051METAR SBLP 101400Z 09006KT 9999 FEW030 30/17 Q1015;
0120832880999992011051015004-13267-043417FM-15+0443SBLP V0202401N003112200019N0112651N1+03101+01701999999ADDGA1041+009001999GF104991999999999999999999MA1101391999999REMMET051METAR SBLP 101500Z 24006KT 9999 SCT030 31/17 Q1014;
0120832880999992011051016004-13267-043417FM-15+0443SBLP V0202101N003112200019N0112651N1+03301+01701999999ADDGA1041+009001999GF104991999999999999999999MA1101291999999REMMET051METAR SBLP 101600Z 21006KT 9999 SCT030 33/17 Q1013;
0120832880999992011051017004-13267-043417FM-15+0443SBLP V0209999C000012200019N0112651N1+03301+01701999999ADDGA1021+009001999GF102991999999999999999999MA1101191999999REMMET051METAR SBLP 101700Z 00000KT 9999 FEW030 33/17 Q1012;
0120832880999992011051018004-13267-043417FM-15+0443SBLP V0202701N002112200019N0112651N1+03401+01701999999ADDGA1021+009001999GF102991999999999999999999MA1101081999999REMMET051METAR SBLP 101800Z 27004KT 9999 FEW030 34/17 Q1011;
0120832880999992011051019004-13267-043417FM-15+0443SBLP V0202401N003112200019N0112651N1+03301+01701999999ADDGA1021+009001999GF102991999999999999999999MA1101081999999REMMET051METAR SBLP 101900Z 24006KT 9999 FEW030 33/17 Q1011;
0120832880999992011051020004-13267-043417FM-15+0443SBLP V0209999C000012200019N0112651N1+03001+01901999999ADDGA1021+009001999GF102991999999999999999999MA1101191999999REMMET051METAR SBLP 102000Z 00000KT 9999 FEW030 30/19 Q1012;
0120832880999992011051021004-13267-043417FM-15+0443SBLP V0209999C000012200019N0112651N1+02901+02001999999ADDGA1021+009001999GF102991999999999999999999MA1101191999999REMMET051METAR SBLP 102100Z 00000KT 9999 FEW030 29/20 Q1012;
0072832880999992011051110004-13267-043417FM-15+0443SBLP V0209999C000019999999Y0099001N1+01901+01701999999ADDMA1101591999999REMMET045METAR SBLP 111000Z 00000KT CAVOK 19/17 Q1016;
0072832880999992011051111004-13267-043417FM-15+0443SBLP V0209999C000019999999Y0099001N1+02301+01901999999ADDMA1101691999999REMMET045METAR SBLP 111100Z 00000KT CAVOK 23/19 Q1017;
0072832880999992011051112004-13267-043417FM-15+0443SBLP V0202101N002119999999Y0099001N1+02601+02001999999ADDMA1101691999999REMMET045METAR SBLP 111200Z 21004KT CAVOK 26/20 Q1017;
0072832880999992011051114004-13267-043417FM-15+0443SBLP V0209999C000019999999Y0099001N1+03001+02001999999ADDMA1101591999999REMMET045METAR SBLP 111400Z 00000KT CAVOK 30/20 Q1016;
0120832880999992011051115004-13267-043417FM-15+0443SBLP V0202701N003112200019N0112651N1+03201+01901999999ADDGA1021+009001999GF102991999999999999999999MA1101391999999REMMET051METAR SBLP 111500Z 27006KT 9999 FEW030 32/19 Q1014;
0120832880999992011051116004-13267-043417FM-15+0443SBLP V0202701N003112200019N0112651N1+03201+01901999999ADDGA1041+009001999GF104991999999999999999999MA1101291999999REMMET051METAR SBLP 111600Z 27006KT 9999 SCT030 32/19 Q1013;
0120832880999992011051117004-13267-043417FM-15+0443SBLP V0202701N003112200019N0112651N1+03301+01801999999ADDGA1041+009001999GF104991999999999999999999MA1101191999999REMMET051METAR SBLP 111700Z 27006KT 9999 SCT030 33/18 Q1012;
0120832880999992011051119004-13267-043417FM-15+0443SBLP V0201801N003112200019N0112651N1+03301+01701999999ADDGA1021+009001999GF102991999999999999999999MA1101191999999REMMET051METAR SBLP 111900Z 18006KT 9999 FEW030 33/17 Q1012;
0120832880999992011051120004-13267-043417FM-15+0443SBLP V0201801N003112200019N0112651N1+03201+01801999999ADDGA1021+009001999GF102991999999999999999999MA1101191999999REMMET051METAR SBLP 112000Z 18006KT 9999 FEW030 32/18 Q1012;
0072832880999992011051121004-13267-043417FM-15+0443SBLP V0201801N003119999999Y0099001N1+03001+01801999999ADDMA1101291999999REMMET045METAR SBLP 112100Z 18006KT CAVOK 30/18 Q1013;
0072832880999992011051210004-13267-043417FM-15+0443SBLP V0209999C000019999999Y0099001N1+01901+01701999999ADDMA1101491999999REMMET045METAR SBLP 121000Z 00000KT CAVOK 19/17 Q1015;
0072832880999992011051211004-13267-043417FM-15+0443SBLP V0201801N003119999999Y0099001N1+02201+01801999999ADDMA1101491999999REMMET045METAR SBLP 121100Z 18006KT CAVOK 22/18 Q1015;
0072832880999992011051212004-13267-043417FM-15+0443SBLP V0209999C000019999999Y0099001N1+02601+01801999999ADDMA1101491999999REMMET045METAR SBLP 121200Z 00000KT CAVOK 26/18 Q1015;
0072832880999992011051213004-13267-043417FM-15+0443SBLP V0202101N002119999999Y0099001N1+02801+01901999999ADDMA1101491999999REMMET045METAR SBLP 121300Z 21004KT CAVOK 28/19 Q1015;
0120832880999992011051214004-13267-043417FM-15+0443SBLP V0202101N003112200019N0112651N1+03001+01901999999ADDGA1021+009001999GF102991999999999999999999MA1101391999999REMMET051METAR SBLP 121400Z 21006KT 9999 FEW030 30/19 Q1014;
0120832880999992011051215004-13267-043417FM-15+0443SBLP V0201801N003112200019N0112651N1+03101+01901999999ADDGA1021+009001999GF102991999999999999999999MA1101291999999REMMET051METAR SBLP 121500Z 18006KT 9999 FEW030 31/19 Q1013;
0120832880999992011051216004-13267-043417FM-15+0443SBLP V0209999C000012200019N0112651N1+03201+01801999999ADDGA1021+009001999GF102991999999999999999999MA1101191999999REMMET051METAR SBLP 121600Z 00000KT 9999 FEW030 32/18 Q1012;
0120832880999992011051217004-13267-043417FM-15+0443SBLP V0201801N003112200019N0112651N1+03301+01801999999ADDGA1021+009001999GF102991999999999999999999MA1101021999999REMMET051METAR SBLP 121700Z 18006KT 9999 FEW030 33/18 Q1010;
0120832880999992011051218004-13267-043417FM-15+0443SBLP V0201801N003112200019N0112651N1+03301+01701999999ADDGA1021+009001999GF102991999999999999999999MA1101021999999REMMET051METAR SBLP 121800Z 18006KT 9999 FEW030 33/17 Q1010;
0120832880999992011051219004-13267-043417FM-15+0443SBLP V0201801N003112200019N0112651N1+03201+01701999999ADDGA1021+009001999GF102991999999999999999999MA1101021999999REMMET051METAR SBLP 121900Z 18006KT 9999 FEW030 32/17 Q1010;
0072832880999992011051220004-13267-043417FM-15+0443SBLP V0201801N003119999999Y0099001N1+03001+01701999999ADDMA1101081999999REMMET045METAR SBLP 122000Z 18006KT CAVOK 30/17 Q1011;
0072832880999992011051221004-13267-043417FM-15+0443SBLP V0201801N003119999999Y0099001N1+02801+01801999999ADDMA1101081999999REMMET045METAR SBLP 122100Z 18006KT CAVOK 28/18 Q1011;
0072832880999992011051310004-13267-043417FM-15+0443SBLP V0209999C000019999999Y0099001N1+02201+01801999999ADDMA1101291999999REMMET045METAR SBLP 131000Z 00000KT CAVOK 22/18 Q1013;
0072832880999992011051311004-13267-043417FM-15+0443SBLP V0209999C000019999999Y0099001N1+02401+01801999999ADDMA1101391999999REMMET045METAR SBLP 131100Z 00000KT CAVOK 24/18 Q1014;
0072832880999992011051312004-13267-043417FM-15+0443SBLP V0209999C000019999999Y0099001N1+02601+01801999999ADDMA1101391999999REMMET045METAR SBLP 131200Z 00000KT CAVOK 26/18 Q1014;
0072832880999992011051313004-13267-043417FM-15+0443SBLP V0201801N003119999999Y0099001N1+02801+01801999999ADDMA1101491999999REMMET045METAR SBLP 131300Z 18006KT CAVOK 28/18 Q1015;
0120832880999992011051314004-13267-043417FM-15+0443SBLP V0201801N003112200019N0112651N1+02901+01801999999ADDGA1021+009001999GF102991999999999999999999MA1101391999999REMMET051METAR SBLP 131400Z 18006KT 9999 FEW030 29/18 Q1014;
0120832880999992011051315004-13267-043417FM-15+0443SBLP V0201801N003112200019N0112651N1+02901+01801999999ADDGA1021+009001999GF102991999999999999999999MA1101291999999REMMET051METAR SBLP 131500Z 18006KT 9999 FEW030 29/18 Q1013;
0120832880999992011051316004-13267-043417FM-15+0443SBLP V0202401N003112200019N0112651N1+03001+01701999999ADDGA1021+009001999GF102991999999999999999999MA1101291999999REMMET051METAR SBLP 131600Z 24006KT 9999 FEW030 30/17 Q1013;
0120832880999992011051317004-13267-043417FM-15+0443SBLP V0202101N003112200019N0112651N1+03101+01801999999ADDGA1041+009001999GF104991999999999999999999MA1101191999999REMMET051METAR SBLP 131700Z 21006KT 9999 SCT030 31/18 Q1012;
0120832880999992011051318004-13267-043417FM-15+0443SBLP V0202101N003110090019N0112651N1+03201+01701999999ADDGA1071+009001999GF107991999999999999999999MA1101081999999REMMET051METAR SBLP 131800Z 21006KT 9999 BKN030 32/17 Q1011;
0120832880999992011051319004-13267-043417FM-15+0443SBLP V0201901N003112200019N0112651N1+03001+01701999999ADDGA1041+009001999GF104991999999999999999999MA1101081999999REMMET051METAR SBLP 131900Z 19006KT 9999 SCT030 30/17 Q1011;
0120832880999992011051320004-13267-043417FM-15+0443SBLP V0201501N003112200019N0112651N1+02901+01801999999ADDGA1021+009001999GF102991999999999999999999MA1101191999999REMMET051METAR SBLP 132000Z 15006KT 9999 FEW030 29/18 Q1012;
0120832880999992011051321004-13267-043417FM-15+0443SBLP V0201501N003112200019N0112651N1+02801+01701999999ADDGA1021+009001999GF102991999999999999999999MA1101191999999REMMET051METAR SBLP 132100Z 15006KT 9999 FEW030 28/17 Q1012;
0072832880999992011051410004-13267-043417FM-15+0443SBLP V0209999C000019999999Y0099001N1+02001+01601999999ADDMA1101491999999REMMET045METAR SBLP 141000Z 00000KT CAVOK 20/16 Q1015;
0072832880999992011051411004-13267-043417FM-15+0443SBLP V0202101N001519999999Y0099001N1+02201+01801999999ADDMA1101591999999REMMET045METAR SBLP 141100Z 21003KT CAVOK 22/18 Q1016;
0072832880999992011051412004-13267-043417FM-15+0443SBLP V0201801N003119999999Y0099001N1+02501+01701999999ADDMA1101591999999REMMET045METAR SBLP 141200Z 18006KT CAVOK 25/17 Q1016;
0072832880999992011051413004-13267-043417FM-15+0443SBLP V0201201N001519999999Y0099001N1+02801+01801999999ADDMA1101591999999REMMET045METAR SBLP 141300Z 12003KT CAVOK 28/18 Q1016;
0143832880999992011051414004-13267-043417FM-15+0443SBLP V0201801N002612200019N0112651N1+03001+01501999999ADDGA1021+009001999GA2041+030001999GF104991999999999999999999MA1101491999999REMMET058METAR SBLP 141400Z 18005KT 9999 FEW030 SCT100 30/15 Q1015;
0143832880999992011051415004-13267-043417FM-15+0443SBLP V0201201N005112200019N0112651N1+03201+01501999999ADDGA1021+009001999GA2041+030001999GF104991999999999999999999MA1101391999999REMMET058METAR SBLP 141500Z 12010KT 9999 FEW030 SCT100 32/15 Q1014;
0143832880999992011051416004-13267-043417FM-15+0443SBLP V0202301N004112200019N0112651N1+03201+01601999999ADDGA1021+009001999GA2041+030001999GF104991999999999999999999MA1101291999999REMMET058METAR SBLP 141600Z 23008KT 9999 FEW030 SCT100 32/16 Q1013;
0143832880999992011051417004-13267-043417FM-15+0443SBLP V0201801N004112200019N0112651N1+03201+01601999999ADDGA1021+009001999GA2041+030001999GF104991999999999999999999MA1101191999999REMMET058METAR SBLP 141700Z 18008KT 9999 FEW030 SCT100 32/16 Q1012;
0143832880999992011051418004-13267-043417FM-15+0443SBLP V0202101N004112200019N0112651N1+03301+01601999999ADDGA1041+009001999GA2041+030001999GF104991999999999999999999MA1101191999999REMMET058METAR SBLP 141800Z 21008KT 9999 SCT030 SCT100 33/16 Q1012;
0120832880999992011051419004-13267-043417FM-15+0443SBLP V0201501N003112200019N0112651N1+03201+01601999999ADDGA1021+009001999GF102991999999999999999999MA1101081999999REMMET051METAR SBLP 141900Z 15006KT 9999 FEW030 32/16 Q1011;
0120832880999992011051420004-13267-043417FM-15+0443SBLP V0201801N004112200019N0112651N1+03101+01501999999ADDGA1021+009001999GF102991999999999999999999MA1101191999999REMMET051METAR SBLP 142000Z 18008KT 9999 FEW030 31/15 Q1012;
0143832880999992011051421004-13267-043417FM-15+0443SBLP V0201801N003112200019N0112651N1+02801+01701999999ADDGA1021+009001999GA2041+030001999GF104991999999999999999999MA1101191999999REMMET058METAR SBLP 142100Z 18006KT 9999 FEW030 SCT100 28/17 Q1012;
0072832880999992011051510004-13267-043417FM-15+0443SBLP V0202101N002119999999Y0099001N1+01801+01501999999ADDMA1101491999999REMMET045METAR SBLP 151000Z 21004KT CAVOK 18/15 Q1015;
0072832880999992011051511004-13267-043417FM-15+0443SBLP V0201801N002119999999Y0099001N1+02201+01701999999ADDMA1101491999999REMMET045METAR SBLP 151100Z 18004KT CAVOK 22/17 Q1015;
0072832880999992011051512004-13267-043417FM-15+0443SBLP V0201801N004119999999Y0099001N1+02501+01801999999ADDMA1101591999999REMMET045METAR SBLP 151200Z 18008KT CAVOK 25/18 Q1016;
0072832880999992011051513004-13267-043417FM-15+0443SBLP V0201101N002619999999Y0099001N1+02701+01601999999ADDMA1101491999999REMMET045METAR SBLP 151300Z 11005KT CAVOK 27/16 Q1015;
0072832880999992011051514004-13267-043417FM-15+0443SBLP V0201201N002119999999Y0099001N1+02901+01701999999ADDMA1101391999999REMMET045METAR SBLP 151400Z 12004KT CAVOK 29/17 Q1014;
0120832880999992011051515004-13267-043417FM-15+0443SBLP V0202701N003112200019N0112651N1+02901+01701999999ADDGA1021+009001999GF102991999999999999999999MA1101291999999REMMET051METAR SBLP 151500Z 27006KT 9999 FEW030 29/17 Q1013;
0120832880999992011051516004-13267-043417FM-15+0443SBLP V0202401N003112200019N0112651N1+03101+01501999999ADDGA1021+009001999GF102991999999999999999999MA1101191999999REMMET051METAR SBLP 151600Z 24006KT 9999 FEW030 31/15 Q1012;
0120832880999992011051517004-13267-043417FM-15+0443SBLP V0202701N002112200019N0112651N1+03201+01401999999ADDGA1021+009001999GF102991999999999999999999MA1101081999999REMMET051METAR SBLP 151700Z 27004KT 9999 FEW030 32/14 Q1011;
0120832880999992011051518004-13267-043417FM-15+0443SBLP V0202501N002112200019N0112651N1+03301+01501999999ADDGA1021+009001999GF102991999999999999999999MA1101021999999REMMET051METAR SBLP 151800Z 25004KT 9999 FEW030 33/15 Q1010;
0120832880999992011051519004-13267-043417FM-15+0443SBLP V0202301N002112200019N0112651N1+03201+01401999999ADDGA1021+009001999GF102991999999999999999999MA1101021999999REMMET051METAR SBLP 151900Z 23004KT 9999 FEW030 32/14 Q1010;
0072832880999992011051520004-13267-043417FM-15+0443SBLP V0202101N001019999999Y0099001N1+03101+01601999999ADDMA1101021999999REMMET045METAR SBLP 152000Z 21002KT CAVOK 31/16 Q1010;
0072832880999992011051521004-13267-043417FM-15+0443SBLP V0209999C000019999999Y0099001N1+02801+01701999999ADDMA1101081999999REMMET045METAR SBLP 152100Z 00000KT CAVOK 28/17 Q1011;
0072832880999992011051610004-13267-043417FM-15+0443SBLP V0209999C000019999999Y0099001N1+01801+01501999999ADDMA1101291999999REMMET045METAR SBLP 161000Z 00000KT CAVOK 18/15 Q1013;
0072832880999992011051611004-13267-043417FM-15+0443SBLP V0209999C000019999999Y0099001N1+02001+01501999999ADDMA1101391999999REMMET045METAR SBLP 161100Z 00000KT CAVOK 20/15 Q1014;
0072832880999992011051612004-13267-043417FM-15+0443SBLP V0203001N002119999999Y0099001N1+02301+01601999999ADDMA1101391999999REMMET045METAR SBLP 161200Z 30004KT CAVOK 23/16 Q1014;
0072832880999992011051613004-13267-043417FM-15+0443SBLP V0200401N003119999999Y0099001N1+02801+01701999999ADDMA1101391999999REMMET045METAR SBLP 161300Z 04006KT CAVOK 28/17 Q1014;
0072832880999992011051614004-13267-043417FM-15+0443SBLP V0203601N002119999999Y0099001N1+02901+01801999999ADDMA1101291999999REMMET045METAR SBLP 161400Z 36004KT CAVOK 29/18 Q1013;
0120832880999992011051615004-13267-043417FM-15+0443SBLP V0203401N003112200019N0112651N1+03101+01801999999ADDGA1021+009001999GF102991999999999999999999MA1101191999999REMMET051METAR SBLP 161500Z 34006KT 9999 FEW030 31/18 Q1012;
0120832880999992011051616004-13267-043417FM-15+0443SBLP V0203601N003112200019N0112651N1+03301+01801999999ADDGA1021+009001999GF102991999999999999999999MA1101081999999REMMET051METAR SBLP 161600Z 36006KT 9999 FEW030 33/18 Q1011;
0120832880999992011051617004-13267-043417FM-15+0443SBLP V0200901N003112200019N0112651N1+03301+01801999999ADDGA1041+009001999GF104991999999999999999999MA1101021999999REMMET051METAR SBLP 161700Z 09006KT 9999 SCT030 33/18 Q1010;
0120832880999992011051618004-13267-043417FM-15+0443SBLP V0201801N003112200019N0112651N1+03401+01801999999ADDGA1041+009001999GF104991999999999999999999MA1101021999999REMMET051METAR SBLP 161800Z 18006KT 9999 SCT030 34/18 Q1010;
0120832880999992011051619004-13267-043417FM-15+0443SBLP V0201801N003112200019N0112651N1+03301+01801999999ADDGA1041+009001999GF104991999999999999999999MA1101021999999REMMET051METAR SBLP 161900Z 18006KT 9999 SCT030 33/18 Q1010;
0120832880999992011051620004-13267-043417FM-15+0443SBLP V0209999C000012200019N0112651N1+03101+01901999999ADDGA1041+009001999GF104991999999999999999999MA1101021999999REMMET051METAR SBLP 162000Z 00000KT 9999 SCT030 31/19 Q1010;
0120832880999992011051621004-13267-043417FM-15+0443SBLP V0209999C000010090019N0112651N1+03001+01901999999ADDGA1071+009001999GF107991999999999999999999MA1101081999999REMMET051METAR SBLP 162100Z 00000KT 9999 BKN030 30/19 Q1011;
0143832880999992011051710004-13267-043417FM-15+0443SBLP V0209999C000010300019N0112651N1+02201+01901999999ADDGA1021+006001999GA2071+030001999GF107991999999999999999999MA1101291999999REMMET058METAR SBLP 171000Z 00000KT 9999 FEW020 BKN100 22/19 Q1013;
0143832880999992011051711004-13267-043417FM-15+0443SBLP V0209999C000010300019N0112651N1+02401+01901999999ADDGA1021+009001999GA2071+030001999GF107991999999999999999999MA1101391999999REMMET058METAR SBLP 171100Z 00000KT 9999 FEW030 BKN100 24/19 Q1014;
0143832880999992011051712004-13267-043417FM-15+0443SBLP V0209999C000010300019N0112651N1+02501+01901999999ADDGA1021+009001999GA2071+030001999GF107991999999999999999999MA1101491999999REMMET058METAR SBLP 171200Z 00000KT 9999 FEW030 BKN100 25/19 Q1015;
0143832880999992011051713004-13267-043417FM-15+0443SBLP V0209999C000010300019N0112651N1+02501+01901999999ADDGA1041+009001999GA2071+030001999GF107991999999999999999999MA1101491999999REMMET058METAR SBLP 171300Z 00000KT 9999 SCT030 BKN100 25/19 Q1015;
0143832880999992011051714004-13267-043417FM-15+0443SBLP V0209999C000012200019N0112651N1+02701+01901999999ADDGA1041+009001999GA2041+030001999GF104991999999999999999999MA1101491999999REMMET058METAR SBLP 171400Z 00000KT 9999 SCT030 SCT100 27/19 Q1015;
0120832880999992011051715004-13267-043417FM-15+0443SBLP V0201801N003112200019N0112651N1+02901+01801999999ADDGA1021+009001999GF102991999999999999999999MA1101391999999REMMET051METAR SBLP 171500Z 18006KT 9999 FEW030 29/18 Q1014;
0120832880999992011051716004-13267-043417FM-15+0443SBLP V0201801N002612200019N0112651N1+03101+01701999999ADDGA1021+009001999GF102991999999999999999999MA1101291999999REMMET051METAR SBLP 171600Z 18005KT 9999 FEW030 31/17 Q1013;
0120832880999992011051717004-13267-043417FM-15+0443SBLP V0202101N003112200019N0112651N1+03301+01501999999ADDGA1021+009001999GF102991999999999999999999MA1101191999999REMMET051METAR SBLP 171700Z 21006KT 9999 FEW030 33/15 Q1012;
0120832880999992011051719004-13267-043417FM-15+0443SBLP V0209999C000012200019N0112651N1+03201+01601999999ADDGA1021+009001999GF102991999999999999999999MA1101081999999REMMET051METAR SBLP 171900Z 00000KT 9999 FEW030 32/16 Q1011;
0072832880999992011051720004-13267-043417FM-15+0443SBLP V0209999C000019999999Y0099001N1+03101+01701999999ADDMA1101081999999REMMET045METAR SBLP 172000Z 00000KT CAVOK 31/17 Q1011;
0072832880999992011051721004-13267-043417FM-15+0443SBLP V0201801N002119999999Y0099001N1+02901+01801999999ADDMA1101081999999REMMET045METAR SBLP 172100Z 18004KT CAVOK 29/18 Q1011;
0072832880999992011051810004-13267-043417FM-15+0443SBLP V0201801N001519999999Y0099001N1+02101+01801999999ADDMA1101491999999REMMET045METAR SBLP 181000Z 18003KT CAVOK 21/18 Q1015;
0072832880999992011051811004-13267-043417FM-15+0443SBLP V0202101N002119999999Y0099001N1+02201+01901999999ADDMA1101591999999REMMET045METAR SBLP 181100Z 21004KT CAVOK 22/19 Q1016;
0072832880999992011051812004-13267-043417FM-15+0443SBLP V0209999C000019999999Y0099001N1+02601+01901999999ADDMA1101591999999REMMET045METAR SBLP 181200Z 00000KT CAVOK 26/19 Q1016;
0072832880999992011051813004-13267-043417FM-15+0443SBLP V0200901N001519999999Y0099001N1+02901+01801999999ADDMA1101491999999REMMET045METAR SBLP 181300Z 09003KT CAVOK 29/18 Q1015;
0143832880999992011051814004-13267-043417FM-15+0443SBLP V0209999C000010300019N0112651N1+03201+01701999999ADDGA1021+009001999GA2071+030001999GF107991999999999999999999MA1101491999999REMMET058METAR SBLP 181400Z 00000KT 9999 FEW030 BKN100 32/17 Q1015;
0143832880999992011051815004-13267-043417FM-15+0443SBLP V0201101N001510300019N0112651N1+03101+01701999999ADDGA1041+009001999GA2071+030001999GF107991999999999999999999MA1101391999999REMMET058METAR SBLP 181500Z 11003KT 9999 SCT030 BKN100 31/17 Q1014;
0143832880999992011051816004-13267-043417FM-15+0443SBLP V0209999C000012200019N0112651N1+03201+01801999999ADDGA1041+009001999GA2041+030001999GF104991999999999999999999MA1101291999999REMMET058METAR SBLP 181600Z 00000KT 9999 SCT030 SCT100 32/18 Q1013;
0143832880999992011051817004-13267-043417FM-15+0443SBLP V0209999C000012200019N0112651N1+03201+01801999999ADDGA1041+009001999GA2041+030001999GF104991999999999999999999MA1101191999999REMMET058METAR SBLP 181700Z 00000KT 9999 SCT030 SCT100 32/18 Q1012;
0143832880999992011051818004-13267-043417FM-15+0443SBLP V0209999C000012200019N0112651N1+03301+01801999999ADDGA1041+009001999GA2041+030001999GF104991999999999999999999MA1101191999999REMMET058METAR SBLP 181800Z 00000KT 9999 SCT030 SCT100 33/18 Q1012;
0143832880999992011051819004-13267-043417FM-15+0443SBLP V0209999C000012200019N0112651N1+03301+01801999999ADDGA1041+009001999GA2041+030001999GF104991999999999999999999MA1101191999999REMMET058METAR SBLP 181900Z 00000KT 9999 SCT030 SCT100 33/18 Q1012;
0143832880999992011051820004-13267-043417FM-15+0443SBLP V0209999C000010300019N0112651N1+03201+01801999999ADDGA1041+009001999GA2071+030001999GF107991999999999999999999MA1101191999999REMMET058METAR SBLP 182000Z 00000KT 9999 SCT030 BKN100 32/18 Q1012;
0143832880999992011051821004-13267-043417FM-15+0443SBLP V0209999C000010300019N0112651N1+03001+01901999999ADDGA1041+009001999GA2071+030001999GF107991999999999999999999MA1101191999999REMMET058METAR SBLP 182100Z 00000KT 9999 SCT030 BKN100 30/19 Q1012;
0143832880999992011051910004-13267-043417FM-15+0443SBLP V0209999C000010300019N0112651N1+02201+02101999999ADDGA1021+006001999GA2071+030001999GF107991999999999999999999MA1101491999999REMMET058METAR SBLP 191000Z 00000KT 9999 FEW020 BKN100 22/21 Q1015;
0143832880999992011051911004-13267-043417FM-15+0443SBLP V0209999C000010300019N0112651N1+02301+02101999999ADDGA1021+006001999GA2071+030001999GF107991999999999999999999MA1101591999999REMMET058METAR SBLP 191100Z 00000KT 9999 FEW020 BKN100 23/21 Q1016;
0143832880999992011051912004-13267-043417FM-15+0443SBLP V0209999C000010300019N0112651N1+02501+02101999999ADDGA1021+006001999GA2071+030001999GF107991999999999999999999MA1101691999999REMMET058METAR SBLP 191200Z 00000KT 9999 FEW020 BKN100 25/21 Q1017;
0143832880999992011051913004-13267-043417FM-15+0443SBLP V0209999C000012200019N0112651N1+02701+02101999999ADDGA1021+009001999GA2041+030001999GF104991999999999999999999MA1101691999999REMMET058METAR SBLP 191300Z 00000KT 9999 FEW030 SCT100 27/21 Q1017;
0143832880999992011051914004-13267-043417FM-15+0443SBLP V0201801N003112200019N0112651N1+02801+02001999999ADDGA1041+009001999GA2041+030001999GF104991999999999999999999MA1101591999999REMMET058METAR SBLP 191400Z 18006KT 9999 SCT030 SCT100 28/20 Q1016;
0120832880999992011051915004-13267-043417FM-15+0443SBLP V0201801N003112200019N0112651N1+02901+02001999999ADDGA1041+009001999GF104991999999999999999999MA1101591999999REMMET051METAR SBLP 191500Z 18006KT 9999 SCT030 29/20 Q1016;
0136832880999992011051916004-13267-043417FM-15+0443SBLP V0202301N00151009001CN0112651N1+02801+02001999999ADDGA1071+009001999GA2041+030001999MA1101491999999REMMET058METAR SBLP 191600Z 23003KT 9999 BKN030 SCT100 28/20 Q1015;EQDQ01+000042SCOTCV
0143832880999992011051917004-13267-043417FM-15+0443SBLP V0202301N002110090019N0112651N1+02801+02001999999ADDGA1071+009001999GA2071+030001999GF107991999999999999999999MA1101391999999REMMET058METAR SBLP 191700Z 23004KT 9999 BKN030 BKN100 28/20 Q1014;
0143832880999992011051918004-13267-043417FM-15+0443SBLP V0202001N004110090019N0112651N1+02801+02101999999ADDGA1071+009001999GA2071+030001999GF107991999999999999999999MA1101391999999REMMET058METAR SBLP 191800Z 20008KT 9999 BKN030 BKN100 28/21 Q1014;
0143832880999992011051919004-13267-043417FM-15+0443SBLP V0202101N003110090019N0112651N1+02601+02101999999ADDGA1071+009001999GA2071+030001999GF107991999999999999999999MA1101391999999REMMET058METAR SBLP 191900Z 21006KT 9999 BKN030 BKN100 26/21 Q1014;
0143832880999992011051920004-13267-043417FM-15+0443SBLP V0201801N004110300019N0112651N1+02401+02101999999ADDGA1041+009001999GA2071+030001999GF107991999999999999999999MA1101491999999REMMET058METAR SBLP 192000Z 18008KT 9999 SCT030 BKN100 24/21 Q1015;
0143832880999992011051921004-13267-043417FM-15+0443SBLP V0201501N003110300019N0112651N1+02301+02101999999ADDGA1041+008101999GA2071+030001999GF107991999999999999999999MA1101491999999REMMET058METAR SBLP 192100Z 15006KT 9999 SCT027 BKN100 23/21 Q1015;
0143832880999992011052010004-13267-043417FM-15+0443SBLP V0209999C000010300019N0112651N1+01901+01701999999ADDGA1021+006901999GA2071+030001999GF107991999999999999999999MA1101591999999REMMET058METAR SBLP 201000Z 00000KT 9999 FEW023 BKN100 19/17 Q1016;
0072832880999992011052011004-13267-043417FM-15+0443SBLP V0201701N001519999999Y0099001N1+02101+01901999999ADDMA1101801999999REMMET045METAR SBLP 201100Z 17003KT CAVOK 21/19 Q1018;
0072832880999992011052012004-13267-043417FM-15+0443SBLP V0209999C000019999999Y0099001N1+02301+01801999999ADDMA1101801999999REMMET045METAR SBLP 201200Z 00000KT CAVOK 23/18 Q1018;
0120832880999992011052014004-13267-043417FM-15+0443SBLP V0200401N002112200019N0112651N1+02901+01801999999ADDGA1041+009001999GF104991999999999999999999MA1101801999999REMMET051METAR SBLP 201400Z 04004KT 9999 SCT030 29/18 Q1018;
0120832880999992011052015004-13267-043417FM-15+0443SBLP V0202301N001512200019N0112651N1+02801+01801999999ADDGA1041+009001999GF104991999999999999999999MA1101691999999REMMET051METAR SBLP 201500Z 23003KT 9999 SCT030 28/18 Q1017;
0143832880999992011052016004-13267-043417FM-15+0443SBLP V0201801N003112200019N0112651N1+03001+01901999999ADDGA1041+009001999GA2041+030001999GF104991999999999999999999MA1101591999999REMMET058METAR SBLP 201600Z 18006KT 9999 SCT030 SCT100 30/19 Q1016;
0143832880999992011052017004-13267-043417FM-15+0443SBLP V0202301N002110300019N0112651N1+03001+01801999999ADDGA1041+009001999GA2071+030001999GF107991999999999999999999MA1101491999999REMMET058METAR SBLP 201700Z 23004KT 9999 SCT030 BKN100 30/18 Q1015;
0143832880999992011052018004-13267-043417FM-15+0443SBLP V0202101N004110300019N0112651N1+02901+02001999999ADDGA1041+009001999GA2071+030001999GF107991999999999999999999MA1101491999999REMMET058METAR SBLP 201800Z 21008KT 9999 SCT030 BKN100 29/20 Q1015;
0143832880999992011052019004-13267-043417FM-15+0443SBLP V0201801N002110300019N0112651N1+02801+02101999999ADDGA1021+009001999GA2071+030001999GF107991999999999999999999MA1101491999999REMMET058METAR SBLP 201900Z 18004KT 9999 FEW030 BKN100 28/21 Q1015;
0143832880999992011052020004-13267-043417FM-15+0443SBLP V0201501N003110300019N0112651N1+02701+02001999999ADDGA1041+009001999GA2071+030001999GF107991999999999999999999MA1101491999999REMMET058METAR SBLP 202000Z 15006KT 9999 SCT030 BKN100 27/20 Q1015;
0143832880999992011052021004-13267-043417FM-15+0443SBLP V0201801N003110300019N0112651N1+02601+01901999999ADDGA1041+006001999GA2071+030001999GF107991999999999999999999MA1101591999999REMMET058METAR SBLP 202100Z 18006KT 9999 SCT020 BKN100 26/19 Q1016;
0072832880999992011052110004-13267-043417FM-15+0443SBLP V0202101N002619999999Y0099001N1+01901+01801999999ADDMA1101901999999REMMET045METAR SBLP 211000Z 21005KT CAVOK 19/18 Q1019;
0072832880999992011052112004-13267-043417FM-15+0443SBLP V0201101N002619999999Y0099001N1+02501+01901999999ADDMA1102001999999REMMET045METAR SBLP 211200Z 11005KT CAVOK 25/19 Q1020;
0120832880999992011052113004-13267-043417FM-15+0443SBLP V0201401N004112200019N0112651N1+02701+01801999999ADDGA1021+009001999GF102991999999999999999999MA1102001999999REMMET051METAR SBLP 211300Z 14008KT 9999 FEW030 27/18 Q1020;
0120832880999992011052114004-13267-043417FM-15+0443SBLP V0201801N003112200019N0112651N1+02901+01801999999ADDGA1041+009001999GF104991999999999999999999MA1101901999999REMMET051METAR SBLP 211400Z 18006KT 9999 SCT030 29/18 Q1019;
0120832880999992011052115004-13267-043417FM-15+0443SBLP V0201301N002112200019N0112651N1+02901+01901999999ADDGA1041+009001999GF104991999999999999999999MA1101801999999REMMET051METAR SBLP 211500Z 13004KT 9999 SCT030 29/19 Q1018;
0120832880999992011052116004-13267-043417FM-15+0443SBLP V0201201N004112200019N0112651N1+03001+01701999999ADDGA1041+009001999GF104991999999999999999999MA1101691999999REMMET051METAR SBLP 211600Z 12008KT 9999 SCT030 30/17 Q1017;
0120832880999992011052117004-13267-043417FM-15+0443SBLP V0201201N004112200019N0112651N1+03001+01701999999ADDGA1041+009001999GF104991999999999999999999MA1101691999999REMMET051METAR SBLP 211700Z 12008KT 9999 SCT030 30/17 Q1017;
0120832880999992011052118004-13267-043417FM-15+0443SBLP V0201401N005112200019N0112651N1+03101+01701999999ADDGA1041+009001999GF104991999999999999999999MA1101591999999REMMET051METAR SBLP 211800Z 14010KT 9999 SCT030 31/17 Q1016;
0120832880999992011052119004-13267-043417FM-15+0443SBLP V0201201N003112200019N0112651N1+03001+01501999999ADDGA1041+009001999GF104991999999999999999999MA1101591999999REMMET051METAR SBLP 211900Z 12006KT 9999 SCT030 30/15 Q1016;
0120832880999992011052120004-13267-043417FM-15+0443SBLP V0200901N003112200019N0112651N1+02901+01901999999ADDGA1021+009001999GF102991999999999999999999MA1101691999999REMMET051METAR SBLP 212000Z 09006KT 9999 FEW030 29/19 Q1017;
0072832880999992011052121004-13267-043417FM-15+0443SBLP V0201201N003119999999Y0099001N1+02601+01901999999ADDMA1101691999999REMMET045METAR SBLP 212100Z 12006KT CAVOK 26/19 Q1017;
0072832880999992011052210004-13267-043417FM-15+0443SBLP V0202101N002119999999Y0099001N1+01701+01401999999ADDMA1102001999999REMMET045METAR SBLP 221000Z 21004KT CAVOK 17/14 Q1020;
0072832880999992011052211004-13267-043417FM-15+0443SBLP V0201801N004119999999Y0099001N1+02001+01401999999ADDMA1102101999999REMMET045METAR SBLP 221100Z 18008KT CAVOK 20/14 Q1021;
0072832880999992011052212004-13267-043417FM-15+0443SBLP V0201501N005119999999Y0099001N1+02301+01301999999ADDMA1102101999999REMMET045METAR SBLP 221200Z 15010KT CAVOK 23/13 Q1021;
0072832880999992011052213004-13267-043417FM-15+0443SBLP V0201501N006219999999Y0099001N1+02601+01501999999ADDMA1102101999999REMMET045METAR SBLP 221300Z 15012KT CAVOK 26/15 Q1021;
0072832880999992011052214004-13267-043417FM-15+0443SBLP V0201501N005119999999Y0099001N1+02701+01401999999ADDMA1102001999999REMMET045METAR SBLP 221400Z 15010KT CAVOK 27/14 Q1020;
0072832880999992011052215004-13267-043417FM-15+0443SBLP V0201501N004119999999Y0099001N1+02901+01401999999ADDMA1101901999999REMMET045METAR SBLP 221500Z 15008KT CAVOK 29/14 Q1019;
0120832880999992011052216004-13267-043417FM-15+0443SBLP V0201201N003112200019N0112651N1+03001+01501999999ADDGA1021+009001999GF102991999999999999999999MA1101691999999REMMET051METAR SBLP 221600Z 12006KT 9999 FEW030 30/15 Q1017;
0120832880999992011052217004-13267-043417FM-15+0443SBLP V0200901N003112200019N0112651N1+03001+01501999999ADDGA1021+009001999GF102991999999999999999999MA1101591999999REMMET051METAR SBLP 221700Z 09006KT 9999 FEW030 30/15 Q1016;
0120832880999992011052218004-13267-043417FM-15+0443SBLP V0201501N004112200019N0112651N1+03001+01601999999ADDGA1041+009001999GF104991999999999999999999MA1101591999999REMMET051METAR SBLP 221800Z 15008KT 9999 SCT030 30/16 Q1016;
0120832880999992011052219004-13267-043417FM-15+0443SBLP V0200901N003112200019N0112651N1+02901+01601999999ADDGA1041+009001999GF104991999999999999999999MA1101591999999REMMET051METAR SBLP 221900Z 09006KT 9999 SCT030 29/16 Q1016;
0120832880999992011052220004-13267-043417FM-15+0443SBLP V0200901N004112200019N0112651N1+02801+01701999999ADDGA1021+009001999GF102991999999999999999999MA1101591999999REMMET051METAR SBLP 222000Z 09008KT 9999 FEW030 28/17 Q1016;
0072832880999992011052221004-13267-043417FM-15+0443SBLP V0201201N003119999999Y0099001N1+02601+01901999999ADDMA1101591999999REMMET045METAR SBLP 222100Z 12006KT CAVOK 26/19 Q1016;
0072832880999992011052310004-13267-043417FM-15+0443SBLP V0201801N003119999999Y0099001N1+01801+01501999999ADDMA1101901999999REMMET045METAR SBLP 231000Z 18006KT CAVOK 18/15 Q1019;
0072832880999992011052311004-13267-043417FM-15+0443SBLP V0201801N003119999999Y0099001N1+02101+01701999999ADDMA1101901999999REMMET045METAR SBLP 231100Z 18006KT CAVOK 21/17 Q1019;
0120832880999992011052312004-13267-043417FM-15+0443SBLP V0201601N004112200019N0112651N1+02401+01801999999ADDGA1021+009001999GF102991999999999999999999MA1102001999999REMMET051METAR SBLP 231200Z 16008KT 9999 FEW030 24/18 Q1020;
0120832880999992011052313004-13267-043417FM-15+0443SBLP V0201201N003112200019N0112651N1+02701+01801999999ADDGA1041+009001999GF104991999999999999999999MA1101901999999REMMET051METAR SBLP 231300Z 12006KT 9999 SCT030 27/18 Q1019;
0120832880999992011052314004-13267-043417FM-15+0443SBLP V0201201N003112200019N0112651N1+02701+01801999999ADDGA1041+009001999GF104991999999999999999999MA1101901999999REMMET051METAR SBLP 231400Z 12006KT 9999 SCT030 27/18 Q1019;
0120832880999992011052315004-13267-043417FM-15+0443SBLP V0200901N003110090019N0112651N1+02901+02001999999ADDGA1071+009001999GF107991999999999999999999MA1101801999999REMMET051METAR SBLP 231500Z 09006KT 9999 BKN030 29/20 Q1018;
0120832880999992011052316004-13267-043417FM-15+0443SBLP V0200901N003110090019N0112651N1+02901+01901999999ADDGA1071+009001999GF107991999999999999999999MA1101691999999REMMET051METAR SBLP 231600Z 09006KT 9999 BKN030 29/19 Q1017;
0120832880999992011052317004-13267-043417FM-15+0443SBLP V0200901N003110090019N0112651N1+03101+01801999999ADDGA1071+009001999GF107991999999999999999999MA1101591999999REMMET051METAR SBLP 231700Z 09006KT 9999 BKN030 31/18 Q1016;
0120832880999992011052318004-13267-043417FM-15+0443SBLP V0200901N003110090019N0112651N1+03101+01801999999ADDGA1071+009001999GF107991999999999999999999MA1101491999999REMMET051METAR SBLP 231800Z 09006KT 9999 BKN030 31/18 Q1015;
0120832880999992011052319004-13267-043417FM-15+0443SBLP V0200901N003110090019N0112651N1+03101+01801999999ADDGA1071+009001999GF107991999999999999999999MA1101491999999REMMET051METAR SBLP 231900Z 09006KT 9999 BKN030 31/18 Q1015;
0120832880999992011052320004-13267-043417FM-15+0443SBLP V0200901N003110090019N0112651N1+03001+01801999999ADDGA1071+009001999GF107991999999999999999999MA1101491999999REMMET051METAR SBLP 232000Z 09006KT 9999 BKN030 30/18 Q1015;
0120832880999992011052321004-13267-043417FM-15+0443SBLP V0200901N003110090019N0112651N1+02901+01801999999ADDGA1071+009001999GF107991999999999999999999MA1101591999999REMMET051METAR SBLP 232100Z 09006KT 9999 BKN030 29/18 Q1016;
0072832880999992011052410004-13267-043417FM-15+0443SBLP V0209999C000019999999Y0099001N1+02101+01801999999ADDMA1101691999999REMMET045METAR SBLP 241000Z 00000KT CAVOK 21/18 Q1017;
0072832880999992011052411004-13267-043417FM-15+0443SBLP V0209999C000019999999Y0099001N1+02301+01801999999ADDMA1101901999999REMMET045METAR SBLP 241100Z 00000KT CAVOK 23/18 Q1019;
0072832880999992011052412004-13267-043417FM-15+0443SBLP V0201801N003119999999Y0099001N1+02501+01801999999ADDMA1101901999999REMMET045METAR SBLP 241200Z 18006KT CAVOK 25/18 Q1019;
0120832880999992011052413004-13267-043417FM-15+0443SBLP V0201801N003112200019N0112651N1+02801+01801999999ADDGA1021+009001999GF102991999999999999999999MA1101901999999REMMET051METAR SBLP 241300Z 18006KT 9999 FEW030 28/18 Q1019;
0120832880999992011052414004-13267-043417FM-15+0443SBLP V0201801N003112200019N0112651N1+02901+01801999999ADDGA1021+009001999GF102991999999999999999999MA1101801999999REMMET051METAR SBLP 241400Z 18006KT 9999 FEW030 29/18 Q1018;
0120832880999992011052415004-13267-043417FM-15+0443SBLP V0201801N003112200019N0112651N1+02901+01801999999ADDGA1041+009001999GF104991999999999999999999MA1101691999999REMMET051METAR SBLP 241500Z 18006KT 9999 SCT030 29/18 Q1017;
0120832880999992011052416004-13267-043417FM-15+0443SBLP V0202801N002112200019N0112651N1+03101+01701999999ADDGA1041+009001999GF104991999999999999999999MA1101591999999REMMET051METAR SBLP 241600Z 28004KT 9999 SCT030 31/17 Q1016;
0120832880999992011052417004-13267-043417FM-15+0443SBLP V0202201N003112200019N0112651N1+03101+01701999999ADDGA1041+009001999GF104991999999999999999999MA1101491999999REMMET051METAR SBLP 241700Z 22006KT 9999 SCT030 31/17 Q1015;
0120832880999992011052418004-13267-043417FM-15+0443SBLP V0202401N003110090019N0112651N1+03201+01701999999ADDGA1071+009001999GF107991999999999999999999MA1101391999999REMMET051METAR SBLP 241800Z 24006KT 9999 BKN030 32/17 Q1014;
0143832880999992011052419004-13267-043417FM-15+0443SBLP V0202401N003112200019N0112651N1+03201+01801999999ADDGA1041+009001999GA2041+030001999GF104991999999999999999999MA1101391999999REMMET058METAR SBLP 241900Z 24006KT 9999 SCT030 SCT100 32/18 Q1014;
0143832880999992011052420004-13267-043417FM-15+0443SBLP V0202301N002112200019N0112651N1+03001+01901999999ADDGA1041+009001999GA2041+030001999GF104991999999999999999999MA1101391999999REMMET058METAR SBLP 242000Z 23004KT 9999 SCT030 SCT100 30/19 Q1014;
0120832880999992011052421004-13267-043417FM-15+0443SBLP V0201801N004110090019N0112651N1+02901+01901999999ADDGA1071+009001999GF107991999999999999999999MA1101491999999REMMET051METAR SBLP 242100Z 18008KT 9999 BKN030 29/19 Q1015;
0072832880999992011052510004-13267-043417FM-15+0443SBLP V0209999C000019999999Y0099001N1+01801+01701999999ADDMA1101801999999REMMET045METAR SBLP 251000Z 00000KT CAVOK 18/17 Q1018;
0072832880999992011052511004-13267-043417FM-15+0443SBLP V0209999C000019999999Y0099001N1+02201+02001999999ADDMA1101901999999REMMET045METAR SBLP 251100Z 00000KT CAVOK 22/20 Q1019;
0072832880999992011052512004-13267-043417FM-15+0443SBLP V0201201N003119999999Y0099001N1+02501+01901999999ADDMA1101901999999REMMET045METAR SBLP 251200Z 12006KT CAVOK 25/19 Q1019;
0072832880999992011052513004-13267-043417FM-15+0443SBLP V0200701N003119999999Y0099001N1+02801+02001999999ADDMA1101901999999REMMET045METAR SBLP 251300Z 07006KT CAVOK 28/20 Q1019;
0120832880999992011052514004-13267-043417FM-15+0443SBLP V0202201N003112200019N0112651N1+03001+01901999999ADDGA1021+009001999GF102991999999999999999999MA1101801999999REMMET051METAR SBLP 251400Z 22006KT 9999 FEW030 30/19 Q1018;
0120832880999992011052515004-13267-043417FM-15+0443SBLP V0202701N003112200019N0112651N1+03201+01901999999ADDGA1021+009001999GF102991999999999999999999MA1101691999999REMMET051METAR SBLP 251500Z 27006KT 9999 FEW030 32/19 Q1017;
0120832880999992011052516004-13267-043417FM-15+0443SBLP V0202401N005112200019N0112651N1+03101+01801999999ADDGA1041+009001999GF104991999999999999999999MA1101591999999REMMET051METAR SBLP 251600Z 24010KT 9999 SCT030 31/18 Q1016;
0120832880999992011052517004-13267-043417FM-15+0443SBLP V0202401N003112200019N0112651N1+03201+01701999999ADDGA1041+009001999GF104991999999999999999999MA1101591999999REMMET051METAR SBLP 251700Z 24006KT 9999 SCT030 32/17 Q1016;
0120832880999992011052518004-13267-043417FM-15+0443SBLP V0202101N004112200019N0112651N1+03201+01701999999ADDGA1041+009001999GF104991999999999999999999MA1101491999999REMMET051METAR SBLP 251800Z 21008KT 9999 SCT030 32/17 Q1015;
0120832880999992011052519004-13267-043417FM-15+0443SBLP V0202101N003612200019N0112651N1+03201+01701999999ADDGA1021+009001999GF102991999999999999999999MA1101591999999REMMET051METAR SBLP 251900Z 21007KT 9999 FEW030 32/17 Q1016;
0120832880999992011052520004-13267-043417FM-15+0443SBLP V0202101N005112200019N0112651N1+03101+01801999999ADDGA1021+009001999GF102991999999999999999999MA1101591999999REMMET051METAR SBLP 252000Z 21010KT 9999 FEW030 31/18 Q1016;
0120832880999992011052521004-13267-043417FM-15+0443SBLP V0201801N002112200019N0112651N1+02801+01801999999ADDGA1021+009001999GF102991999999999999999999MA1101691999999REMMET051METAR SBLP 252100Z 18004KT 9999 FEW030 28/18 Q1017;
0072832880999992011052609154-13267-043417FM-15+0443SBLP V0202101N002119999999Y0099001N1+01901+01501999999ADDMA1101901999999REMMET045METAR SBLP 260915Z 21004KT CAVOK 19/15 Q1019;
0072832880999992011052610004-13267-043417FM-15+0443SBLP V0201801N003119999999Y0099001N1+01901+01501999999ADDMA1101901999999REMMET045METAR SBLP 261000Z 18006KT CAVOK 19/15 Q1019;
0072832880999992011052611004-13267-043417FM-15+0443SBLP V0201801N002619999999Y0099001N1+02101+01701999999ADDMA1102001999999REMMET045METAR SBLP 261100Z 18005KT CAVOK 21/17 Q1020;
0072832880999992011052612004-13267-043417FM-15+0443SBLP V0201401N004119999999Y0099001N1+02601+01501999999ADDMA1102001999999REMMET045METAR SBLP 261200Z 14008KT CAVOK 26/15 Q1020;
0072832880999992011052613004-13267-043417FM-15+0443SBLP V0202401N003119999999Y0099001N1+02701+01701999999ADDMA1101901999999REMMET045METAR SBLP 261300Z 24006KT CAVOK 27/17 Q1019;
0072832880999992011052614004-13267-043417FM-15+0443SBLP V0202401N003119999999Y0099001N1+02701+01701999999ADDMA1101901999999REMMET045METAR SBLP 261400Z 24006KT CAVOK 27/17 Q1019;
0120832880999992011052615004-13267-043417FM-15+0443SBLP V0202101N005112200019N0112651N1+03101+01401999999ADDGA1041+009001999GF104991999999999999999999MA1101691999999REMMET051METAR SBLP 261500Z 21010KT 9999 SCT030 31/14 Q1017;
0120832880999992011052616004-13267-043417FM-15+0443SBLP V0202101N003112200019N0112651N1+03101+01401999999ADDGA1041+009001999GF104991999999999999999999MA1101591999999REMMET051METAR SBLP 261600Z 21006KT 9999 SCT030 31/14 Q1016;
0120832880999992011052617004-13267-043417FM-15+0443SBLP V0201801N003112200019N0112651N1+03101+01401999999ADDGA1021+009001999GF102991999999999999999999MA1101491999999REMMET051METAR SBLP 261700Z 18006KT 9999 FEW030 31/14 Q1015;
0120832880999992011052618004-13267-043417FM-15+0443SBLP V0202101N003112200019N0112651N1+03101+01501999999ADDGA1021+009001999GF102991999999999999999999MA1101491999999REMMET051METAR SBLP 261800Z 21006KT 9999 FEW030 31/15 Q1015;
0072832880999992011052619004-13267-043417FM-15+0443SBLP V0201801N003119999999Y0099001N1+03001+01501999999ADDMA1101491999999REMMET045METAR SBLP 261900Z 18006KT CAVOK 30/15 Q1015;
0072832880999992011052620004-13267-043417FM-15+0443SBLP V0209999C000019999999Y0099001N1+03001+01501999999ADDMA1101491999999REMMET045METAR SBLP 262000Z 00000KT CAVOK 30/15 Q1015;
0072832880999992011052621004-13267-043417FM-15+0443SBLP V0202101N003119999999Y0099001N1+02701+01801999999ADDMA1101491999999REMMET045METAR SBLP 262100Z 21006KT CAVOK 27/18 Q1015;
0072832880999992011052710004-13267-043417FM-15+0443SBLP V0209999C000019999999Y0099001N1+01601+01301999999ADDMA1101691999999REMMET045METAR SBLP 271000Z 00000KT CAVOK 16/13 Q1017;
0072832880999992011052711004-13267-043417FM-15+0443SBLP V0209999C000019999999Y0099001N1+01901+01301999999ADDMA1101801999999REMMET045METAR SBLP 271100Z 00000KT CAVOK 19/13 Q1018;
0072832880999992011052712004-13267-043417FM-15+0443SBLP V0202401N002119999999Y0099001N1+02401+01401999999ADDMA1101801999999REMMET045METAR SBLP 271200Z 24004KT CAVOK 24/14 Q1018;
0072832880999992011052713004-13267-043417FM-15+0443SBLP V0202701N003119999999Y0099001N1+02601+01701999999ADDMA1101801999999REMMET045METAR SBLP 271300Z 27006KT CAVOK 26/17 Q1018;
0072832880999992011052714004-13267-043417FM-15+0443SBLP V0202701N003119999999Y0099001N1+02701+01601999999ADDMA1101691999999REMMET045METAR SBLP 271400Z 27006KT CAVOK 27/16 Q1017;
0120832880999992011052715004-13267-043417FM-15+0443SBLP V0202401N003112200019N0112651N1+02901+01701999999ADDGA1021+009001999GF102991999999999999999999MA1101691999999REMMET051METAR SBLP 271500Z 24006KT 9999 FEW030 29/17 Q1017;
0120832880999992011052716004-13267-043417FM-15+0443SBLP V0202701N003112200019N0112651N1+03001+01601999999ADDGA1021+009001999GF102991999999999999999999MA1101491999999REMMET051METAR SBLP 271600Z 27006KT 9999 FEW030 30/16 Q1015;
0120832880999992011052717004-13267-043417FM-15+0443SBLP V0202701N003112200019N0112651N1+03101+01501999999ADDGA1021+009001999GF102991999999999999999999MA1101491999999REMMET051METAR SBLP 271700Z 27006KT 9999 FEW030 31/15 Q1015;
0120832880999992011052718004-13267-043417FM-15+0443SBLP V0202701N003112200019N0112651N1+03201+01401999999ADDGA1021+009001999GF102991999999999999999999MA1101391999999REMMET051METAR SBLP 271800Z 27006KT 9999 FEW030 32/14 Q1014;
0120832880999992011052719004-13267-043417FM-15+0443SBLP V0209999C000012200019N0112651N1+03201+01401999999ADDGA1021+009001999GF102991999999999999999999MA1101391999999REMMET051METAR SBLP 271900Z 00000KT 9999 FEW030 32/14 Q1014;
0072832880999992011052720004-13267-043417FM-15+0443SBLP V0209999C000019999999Y0099001N1+03101+01401999999ADDMA1101391999999REMMET045METAR SBLP 272000Z 00000KT CAVOK 31/14 Q1014;
0072832880999992011052721004-13267-043417FM-15+0443SBLP V0209999C000019999999Y0099001N1+03001+01501999999ADDMA1101491999999REMMET045METAR SBLP 272100Z 00000KT CAVOK 30/15 Q1015;
0072832880999992011052810004-13267-043417FM-15+0443SBLP V0209999C000019999999Y0099001N1+02001+01701999999ADDMA1101591999999REMMET045METAR SBLP 281000Z 00000KT CAVOK 20/17 Q1016;
0072832880999992011052811004-13267-043417FM-15+0443SBLP V0209999C000019999999Y0099001N1+02201+01701999999ADDMA1101691999999REMMET045METAR SBLP 281100Z 00000KT CAVOK 22/17 Q1017;
0120832880999992011052812004-13267-043417FM-15+0443SBLP V0209999C000012200019N0112651N1+02401+01701999999ADDGA1021+009001999GF102991999999999999999999MA1101691999999REMMET051METAR SBLP 281200Z 00000KT 9999 FEW030 24/17 Q1017;
0120832880999992011052813004-13267-043417FM-15+0443SBLP V0201801N003112200019N0112651N1+02701+01601999999ADDGA1021+009001999GF102991999999999999999999MA1101691999999REMMET051METAR SBLP 281300Z 18006KT 9999 FEW030 27/16 Q1017;
0120832880999992011052814004-13267-043417FM-15+0443SBLP V0201801N003112200019N0112651N1+02901+01501999999ADDGA1041+009001999GF104991999999999999999999MA1101591999999REMMET051METAR SBLP 281400Z 18006KT 9999 SCT030 29/15 Q1016;
0120832880999992011052815004-13267-043417FM-15+0443SBLP V0201801N003112200019N0112651N1+03001+01401999999ADDGA1041+009001999GF104991999999999999999999MA1101491999999REMMET051METAR SBLP 281500Z 18006KT 9999 SCT030 30/14 Q1015;
0120832880999992011052816004-13267-043417FM-15+0443SBLP V0202401N003112200019N0112651N1+03201+01401999999ADDGA1041+009001999GF104991999999999999999999MA1101391999999REMMET051METAR SBLP 281600Z 24006KT 9999 SCT030 32/14 Q1014;
0120832880999992011052817004-13267-043417FM-15+0443SBLP V0202701N002112200019N0112651N1+03301+01201999999ADDGA1041+009001999GF104991999999999999999999MA1101291999999REMMET051METAR SBLP 281700Z 27004KT 9999 SCT030 33/12 Q1013;
0120832880999992011052818004-13267-043417FM-15+0443SBLP V0202401N001512200019N0112651N1+03301+01101999999ADDGA1021+009001999GF102991999999999999999999MA1101291999999REMMET051METAR SBLP 281800Z 24003KT 9999 FEW030 33/11 Q1013;
0120832880999992011052819004-13267-043417FM-15+0443SBLP V0202301N001512200019N0112651N1+03301+01301999999ADDGA1041+009001999GF104991999999999999999999MA1101291999999REMMET051METAR SBLP 281900Z 23003KT 9999 SCT030 33/13 Q1013;
0120832880999992011052820004-13267-043417FM-15+0443SBLP V0201901N001512200019N0112651N1+03101+01501999999ADDGA1021+009001999GF102991999999999999999999MA1101291999999REMMET051METAR SBLP 282000Z 19003KT 9999 FEW030 31/15 Q1013;
0072832880999992011052821004-13267-043417FM-15+0443SBLP V0201801N001519999999Y0099001N1+02801+01501999999ADDMA1101291999999REMMET045METAR SBLP 282100Z 18003KT CAVOK 28/15 Q1013;
0072832880999992011052910004-13267-043417FM-15+0443SBLP V0209999C000019999999Y0099001N1+01801+01401999999ADDMA1101691999999REMMET045METAR SBLP 291000Z 00000KT CAVOK 18/14 Q1017;
0072832880999992011052911004-13267-043417FM-15+0443SBLP V0202401N001519999999Y0099001N1+02101+01601999999ADDMA1101801999999REMMET045METAR SBLP 291100Z 24003KT CAVOK 21/16 Q1018;
0072832880999992011052912004-13267-043417FM-15+0443SBLP V0201901N001519999999Y0099001N1+02501+01701999999ADDMA1101801999999REMMET045METAR SBLP 291200Z 19003KT CAVOK 25/17 Q1018;
0072832880999992011052913004-13267-043417FM-15+0443SBLP V0202401N001519999999Y0099001N1+02701+01701999999ADDMA1101801999999REMMET045METAR SBLP 291300Z 24003KT CAVOK 27/17 Q1018;
0120832880999992011052914004-13267-043417FM-15+0443SBLP V0202401N001512200019N0112651N1+02901+01701999999ADDGA1021+009001999GF102991999999999999999999MA1101691999999REMMET051METAR SBLP 291400Z 24003KT 9999 FEW030 29/17 Q1017;
0120832880999992011052915004-13267-043417FM-15+0443SBLP V0202901N003112200019N0112651N1+03101+01501999999ADDGA1021+009001999GF102991999999999999999999MA1101591999999REMMET051METAR SBLP 291500Z 29006KT 9999 FEW030 31/15 Q1016;
0120832880999992011052916004-13267-043417FM-15+0443SBLP V0202701N003112200019N0112651N1+03201+01501999999ADDGA1041+009001999GF104991999999999999999999MA1101491999999REMMET051METAR SBLP 291600Z 27006KT 9999 SCT030 32/15 Q1015;
0120832880999992011052917004-13267-043417FM-15+0443SBLP V0202701N003112200019N0112651N1+03301+01401999999ADDGA1041+009001999GF104991999999999999999999MA1101291999999REMMET051METAR SBLP 291700Z 27006KT 9999 SCT030 33/14 Q1013;
0120832880999992011052918004-13267-043417FM-15+0443SBLP V0201801N003112200019N0112651N1+03401+01301999999ADDGA1041+009001999GF104991999999999999999999MA1101291999999REMMET051METAR SBLP 291800Z 18006KT 9999 SCT030 34/13 Q1013;
0120832880999992011052919004-13267-043417FM-15+0443SBLP V0201801N003112200019N0112651N1+03301+01301999999ADDGA1021+009001999GF102991999999999999999999MA1101291999999REMMET051METAR SBLP 291900Z 18006KT 9999 FEW030 33/13 Q1013;
0120832880999992011052920004-13267-043417FM-15+0443SBLP V0201801N003112200019N0112651N1+03201+01401999999ADDGA1021+009001999GF102991999999999999999999MA1101291999999REMMET051METAR SBLP 292000Z 18006KT 9999 FEW030 32/14 Q1013;
0072832880999992011052921004-13267-043417FM-15+0443SBLP V0209999C000019999999Y0099001N1+03001+01501999999ADDMA1101391999999REMMET045METAR SBLP 292100Z 00000KT CAVOK 30/15 Q1014;
0072832880999992011053010004-13267-043417FM-15+0443SBLP V0202101N001519999999Y0099001N1+01901+01401999999ADDMA1101801999999REMMET045METAR SBLP 301000Z 21003KT CAVOK 19/14 Q1018;
0072832880999992011053011004-13267-043417FM-15+0443SBLP V0201801N001519999999Y0099001N1+02201+01501999999ADDMA1101901999999REMMET045METAR SBLP 301100Z 18003KT CAVOK 22/15 Q1019;
0072832880999992011053012004-13267-043417FM-15+0443SBLP V0209999C000019999999Y0099001N1+02501+01601999999ADDMA1101901999999REMMET045METAR SBLP 301200Z 00000KT CAVOK 25/16 Q1019;
0072832880999992011053013004-13267-043417FM-15+0443SBLP V0200901N002619999999Y0099001N1+02901+01301999999ADDMA1101901999999REMMET045METAR SBLP 301300Z 09005KT CAVOK 29/13 Q1019;
0120832880999992011053014004-13267-043417FM-15+0443SBLP V0209999C000012200019N0112651N1+03201+01201999999ADDGA1021+009001999GF102991999999999999999999MA1101801999999REMMET051METAR SBLP 301400Z 00000KT 9999 FEW030 32/12 Q1018;
0120832880999992011053015004-13267-043417FM-15+0443SBLP V0202701N001512200019N0112651N1+03301+01301999999ADDGA1021+009001999GF102991999999999999999999MA1101691999999REMMET051METAR SBLP 301500Z 27003KT 9999 FEW030 33/13 Q1017;
0072832880999992011053016004-13267-043417FM-15+0443SBLP V0202101N005119999999Y0099001N1+03401+01401999999ADDMA1101491999999REMMET045METAR SBLP 301600Z 21010KT CAVOK 34/14 Q1015;
0072832880999992011053017004-13267-043417FM-15+0443SBLP V0202101N003119999999Y0099001N1+03401+01401999999ADDMA1101391999999REMMET045METAR SBLP 301700Z 21006KT CAVOK 34/14 Q1014;
0072832880999992011053018004-13267-043417FM-15+0443SBLP V0202401N006219999999Y0099001N1+03301+01401999999ADDMA1101391999999REMMET045METAR SBLP 301800Z 24012KT CAVOK 33/14 Q1014;
0072832880999992011053019004-13267-043417FM-15+0443SBLP V0202101N004119999999Y0099001N1+03301+01401999999ADDMA1101291999999REMMET045METAR SBLP 301900Z 21008KT CAVOK 33/14 Q1013;
0072832880999992011053020004-13267-043417FM-15+0443SBLP V0202101N004119999999Y0099001N1+03101+01501999999ADDMA1101291999999REMMET045METAR SBLP 302000Z 21008KT CAVOK 31/15 Q1013;
0072832880999992011053021004-13267-043417FM-15+0443SBLP V0201801N003119999999Y0099001N1+02801+01601999999ADDMA1101391999999REMMET045METAR SBLP 302100Z 18006KT CAVOK 28/16 Q1014;
0072832880999992011053110004-13267-043417FM-15+0443SBLP V0201901N001019999999Y0099001N1+01801+01501999999ADDMA1101691999999REMMET045METAR SBLP 311000Z 19002KT CAVOK 18/15 Q1017;
0072832880999992011053111004-13267-043417FM-15+0443SBLP V0202001N002119999999Y0099001N1+02001+01501999999ADDMA1101801999999REMMET045METAR SBLP 311100Z 20004KT CAVOK 20/15 Q1018;
0072832880999992011053112004-13267-043417FM-15+0443SBLP V0202201N001019999999Y0099001N1+02401+01801999999ADDMA1101901999999REMMET045METAR SBLP 311200Z 22002KT CAVOK 24/18 Q1019;
0072832880999992011053115004-13267-043417FM-15+0443SBLP V0201301N002119999999Y0099001N1+03001+01701999999ADDMA1101591999999REMMET045METAR SBLP 311500Z 13004KT CAVOK 30/17 Q1016;
0072832880999992011053116004-13267-043417FM-15+0443SBLP V0200401N003119999999Y0099001N1+03101+01701999999ADDMA1101491999999REMMET045METAR SBLP 311600Z 04006KT CAVOK 31/17 Q1015;
0120832880999992011053118004-13267-043417FM-15+0443SBLP V0202401N003112200019N0112651N1+03301+01601999999ADDGA1021+009001999GF102991999999999999999999MA1101291999999REMMET051METAR SBLP 311800Z 24006KT 9999 FEW030 33/16 Q1013;
0120832880999992011053119004-13267-043417FM-15+0443SBLP V0202401N003112200019N0112651N1+03201+01701999999ADDGA1021+009001999GF102991999999999999999999MA1101291999999REMMET051METAR SBLP 311900Z 24006KT 9999 FEW030 32/17 Q1013;
0120832880999992011053120004-13267-043417FM-15+0443SBLP V0202401N003112200019N0112651N1+03001+01801999999ADDGA1021+009001999GF102991999999999999999999MA1101291999999REMMET051METAR SBLP 312000Z 24006KT 9999 FEW030 30/18 Q1013;
0072832880999992011053121004-13267-043417FM-15+0443SBLP V0201801N002119999999Y0099001N1+02701+02001999999ADDMA1101391999999REMMET045METAR SBLP 312100Z 18004KT CAVOK 27/20 Q1014;
0072832880999992011060110004-13267-043417FM-15+0443SBLP V0209999C000019999999Y0099001N1+01801+01601999999ADDMA1101691999999REMMET045METAR SBLP 011000Z 00000KT CAVOK 18/16 Q1017;
0072832880999992011060111004-13267-043417FM-15+0443SBLP V0209999C000019999999Y0099001N1+02001+01601999999ADDMA1101691999999REMMET045METAR SBLP 011100Z 00000KT CAVOK 20/16 Q1017;
0072832880999992011060112004-13267-043417FM-15+0443SBLP V0202101N003119999999Y0099001N1+02201+01901999999ADDMA1101691999999REMMET045METAR SBLP 011200Z 21006KT CAVOK 22/19 Q1017;
0072832880999992011060113004-13267-043417FM-15+0443SBLP V0209999C000019999999Y0099001N1+02601+01901999999ADDMA1101691999999REMMET045METAR SBLP 011300Z 00000KT CAVOK 26/19 Q1017;
0120832880999992011060114004-13267-043417FM-15+0443SBLP V0209999C000012200019N0112651N1+02801+01901999999ADDGA1021+009001999GF102991999999999999999999MA1101691999999REMMET051METAR SBLP 011400Z 00000KT 9999 FEW030 28/19 Q1017;
0120832880999992011060115004-13267-043417FM-15+0443SBLP V0202701N003112200019N0112651N1+02801+01901999999ADDGA1021+009001999GF102991999999999999999999MA1101591999999REMMET051METAR SBLP 011500Z 27006KT 9999 FEW030 28/19 Q1016;
0120832880999992011060116004-13267-043417FM-15+0443SBLP V0202701N003112200019N0112651N1+02901+01801999999ADDGA1041+009001999GF104991999999999999999999MA1101491999999REMMET051METAR SBLP 011600Z 27006KT 9999 SCT030 29/18 Q1015;
0120832880999992011060117004-13267-043417FM-15+0443SBLP V0202701N003112200019N0112651N1+03001+01801999999ADDGA1041+009001999GF104991999999999999999999MA1101391999999REMMET051METAR SBLP 011700Z 27006KT 9999 SCT030 30/18 Q1014;
0120832880999992011060118004-13267-043417FM-15+0443SBLP V0202701N003112200019N0112651N1+03101+01701999999ADDGA1041+009001999GF104991999999999999999999MA1101291999999REMMET051METAR SBLP 011800Z 27006KT 9999 SCT030 31/17 Q1013;
0120832880999992011060119004-13267-043417FM-15+0443SBLP V0202701N003112200019N0112651N1+03001+01701999999ADDGA1021+009001999GF102991999999999999999999MA1101291999999REMMET051METAR SBLP 011900Z 27006KT 9999 FEW030 30/17 Q1013;
0120832880999992011060121004-13267-043417FM-15+0443SBLP V0209999C000012200019N0112651N1+02801+01801999999ADDGA1021+009001999GF102991999999999999999999MA1101391999999REMMET051METAR SBLP 012100Z 00000KT 9999 FEW030 28/18 Q1014;
0072832880999992011060211004-13267-043417FM-15+0443SBLP V0202101N003119999999Y0099001N1+02101+01701999999ADDMA1101691999999REMMET045METAR SBLP 021100Z 21006KT CAVOK 21/17 Q1017;
0072832880999992011060212004-13267-043417FM-15+0443SBLP V0209999C000019999999Y0099001N1+02501+01701999999ADDMA1101691999999REMMET045METAR SBLP 021200Z 00000KT CAVOK 25/17 Q1017;
0072832880999992011060213004-13267-043417FM-15+0443SBLP V0200401N001519999999Y0099001N1+02901+01701999999ADDMA1101691999999REMMET045METAR SBLP 021300Z 04003KT CAVOK 29/17 Q1017;
0120832880999992011060214004-13267-043417FM-15+0443SBLP V0200601N002612200019N0112651N1+03001+01601999999ADDGA1041+009001999GF104991999999999999999999MA1101591999999REMMET051METAR SBLP 021400Z 06005KT 9999 SCT030 30/16 Q1016;
0120832880999992011060215004-13267-043417FM-15+0443SBLP V0209999C000012200019N0112651N1+03101+01701999999ADDGA1041+009001999GF104991999999999999999999MA1101591999999REMMET051METAR SBLP 021500Z 00000KT 9999 SCT030 31/17 Q1016;
0120832880999992011060216004-13267-043417FM-15+0443SBLP V0209999C000012200019N0112651N1+03101+01701999999ADDGA1041+009001999GF104991999999999999999999MA1101391999999REMMET051METAR SBLP 021600Z 00000KT 9999 SCT030 31/17 Q1014;
0120832880999992011060217004-13267-043417FM-15+0443SBLP V0209999C000012200019N0112651N1+03301+01701999999ADDGA1041+009001999GF104991999999999999999999MA1101291999999REMMET051METAR SBLP 021700Z 00000KT 9999 SCT030 33/17 Q1013;
0120832880999992011060218004-13267-043417FM-15+0443SBLP V0209999C000012200019N0112651N1+03301+01701999999ADDGA1041+009001999GF104991999999999999999999MA1101291999999REMMET051METAR SBLP 021800Z 00000KT 9999 SCT030 33/17 Q1013;
0120832880999992011060219004-13267-043417FM-15+0443SBLP V0209999C000012200019N0112651N1+03201+01701999999ADDGA1041+009001999GF104991999999999999999999MA1101291999999REMMET051METAR SBLP 021900Z 00000KT 9999 SCT030 32/17 Q1013;
0120832880999992011060220004-13267-043417FM-15+0443SBLP V0209999C000012200019N0112651N1+03201+01701999999ADDGA1041+009001999GF104991999999999999999999MA1101291999999REMMET051METAR SBLP 022000Z 00000KT 9999 SCT030 32/17 Q1013;
0120832880999992011060221004-13267-043417FM-15+0443SBLP V0209999C000012200019N0112651N1+03001+01701999999ADDGA1041+009001999GF104991999999999999999999MA1101291999999REMMET051METAR SBLP 022100Z 00000KT 9999 SCT030 30/17 Q1013;
0072832880999992011060310004-13267-043417FM-15+0443SBLP V0209999C000019999999Y0099001N1+02201+01901999999ADDMA1101591999999REMMET045METAR SBLP 031000Z 00000KT CAVOK 22/19 Q1016;
0072832880999992011060311004-13267-043417FM-15+0443SBLP V0209999C000019999999Y0099001N1+02401+01801999999ADDMA1101691999999REMMET045METAR SBLP 031100Z 00000KT CAVOK 24/18 Q1017;
0072832880999992011060312004-13267-043417FM-15+0443SBLP V0209999C000019999999Y0099001N1+02701+01701999999ADDMA1101691999999REMMET045METAR SBLP 031200Z 00000KT CAVOK 27/17 Q1017;
0072832880999992011060313004-13267-043417FM-15+0443SBLP V0209999C000019999999Y0099001N1+02901+01601999999ADDMA1101691999999REMMET045METAR SBLP 031300Z 00000KT CAVOK 29/16 Q1017;
0072832880999992011060314004-13267-043417FM-15+0443SBLP V0201801N003119999999Y0099001N1+03001+01601999999ADDMA1101691999999REMMET045METAR SBLP 031400Z 18006KT CAVOK 30/16 Q1017;
0120832880999992011060315004-13267-043417FM-15+0443SBLP V0201801N003112200019N0112651N1+03001+01601999999ADDGA1021+009001999GF102991999999999999999999MA1101591999999REMMET051METAR SBLP 031500Z 18006KT 9999 FEW030 30/16 Q1016;
0120832880999992011060316004-13267-043417FM-15+0443SBLP V0201901N001512200019N0112651N1+03201+01601999999ADDGA1021+009001999GF102991999999999999999999MA1101491999999REMMET051METAR SBLP 031600Z 19003KT 9999 FEW030 32/16 Q1015;
0120832880999992011060317004-13267-043417FM-15+0443SBLP V0202701N002612200019N0112651N1+03201+01501999999ADDGA1041+009001999GF104991999999999999999999MA1101391999999REMMET051METAR SBLP 031700Z 27005KT 9999 SCT030 32/15 Q1014;
0120832880999992011060318004-13267-043417FM-15+0443SBLP V0202101N001512200019N0112651N1+03301+01501999999ADDGA1041+009001999GF104991999999999999999999MA1101291999999REMMET051METAR SBLP 031800Z 21003KT 9999 SCT030 33/15 Q1013;
0120832880999992011060319004-13267-043417FM-15+0443SBLP V0202101N002112200019N0112651N1+03201+01601999999ADDGA1021+009001999GF102991999999999999999999MA1101291999999REMMET051METAR SBLP 031900Z 21004KT 9999 FEW030 32/16 Q1013;
0120832880999992011060320004-13267-043417FM-15+0443SBLP V0209999C000012200019N0112651N1+03201+01601999999ADDGA1021+009001999GF102991999999999999999999MA1101291999999REMMET051METAR SBLP 032000Z 00000KT 9999 FEW030 32/16 Q1013;
0072832880999992011060321004-13267-043417FM-15+0443SBLP V0209999C000019999999Y0099001N1+03001+01701999999ADDMA1101391999999REMMET045METAR SBLP 032100Z 00000KT CAVOK 30/17 Q1014;
0072832880999992011060410004-13267-043417FM-15+0443SBLP V0209999C000019999999Y0099001N1+01901+01401999999ADDMA1101691999999REMMET045METAR SBLP 041000Z 00000KT CAVOK 19/14 Q1017;
0072832880999992011060411004-13267-043417FM-15+0443SBLP V0209999C000019999999Y0099001N1+02101+01701999999ADDMA1101691999999REMMET045METAR SBLP 041100Z 00000KT CAVOK 21/17 Q1017;
0072832880999992011060412004-13267-043417FM-15+0443SBLP V0202501N002119999999Y0099001N1+02601+01801999999ADDMA1101801999999REMMET045METAR SBLP 041200Z 25004KT CAVOK 26/18 Q1018;
0072832880999992011060413004-13267-043417FM-15+0443SBLP V0202701N002119999999Y0099001N1+02801+01801999999ADDMA1101801999999REMMET045METAR SBLP 041300Z 27004KT CAVOK 28/18 Q1018;
0072832880999992011060414004-13267-043417FM-15+0443SBLP V0203001N002119999999Y0099001N1+03001+01801999999ADDMA1101691999999REMMET045METAR SBLP 041400Z 30004KT CAVOK 30/18 Q1017;
0120832880999992011060415004-13267-043417FM-15+0443SBLP V0202501N002112200019N0112651N1+03101+01901999999ADDGA1041+009001999GF104991999999999999999999MA1101591999999REMMET051METAR SBLP 041500Z 25004KT 9999 SCT030 31/19 Q1016;
0120832880999992011060416004-13267-043417FM-15+0443SBLP V0202101N003112200019N0112651N1+03301+01801999999ADDGA1041+009001999GF104991999999999999999999MA1101491999999REMMET051METAR SBLP 041600Z 21006KT 9999 SCT030 33/18 Q1015;
0120832880999992011060417004-13267-043417FM-15+0443SBLP V0209999C000012200019N0112651N1+03301+01901999999ADDGA1021+009001999GF102991999999999999999999MA1101391999999REMMET051METAR SBLP 041700Z 00000KT 9999 FEW030 33/19 Q1014;
0120832880999992011060418004-13267-043417FM-15+0443SBLP V0202101N003112200019N0112651N1+03401+01901999999ADDGA1021+009001999GF102991999999999999999999MA1101291999999REMMET051METAR SBLP 041800Z 21006KT 9999 FEW030 34/19 Q1013;
0120832880999992011060419004-13267-043417FM-15+0443SBLP V0202101N003112200019N0112651N1+03401+01901999999ADDGA1021+009001999GF102991999999999999999999MA1101291999999REMMET051METAR SBLP 041900Z 21006KT 9999 FEW030 34/19 Q1013;
0072832880999992011060420004-13267-043417FM-15+0443SBLP V0209999C000019999999Y0099001N1+03301+01901999999ADDMA1101291999999REMMET045METAR SBLP 042000Z 00000KT CAVOK 33/19 Q1013;
0072832880999992011060421004-13267-043417FM-15+0443SBLP V0209999C000019999999Y0099001N1+03001+02101999999ADDMA1101291999999REMMET045METAR SBLP 042100Z 00000KT CAVOK 30/21 Q1013;
0072832880999992011060510004-13267-043417FM-15+0443SBLP V0209999C000019999999Y0099001N1+01901+01501999999ADDMA1101591999999REMMET045METAR SBLP 051000Z 00000KT CAVOK 19/15 Q1016;
0072832880999992011060511004-13267-043417FM-15+0443SBLP V0209999C000019999999Y0099001N1+02101+01501999999ADDMA1101591999999REMMET045METAR SBLP 051100Z 00000KT CAVOK 21/15 Q1016;
0072832880999992011060512004-13267-043417FM-15+0443SBLP V0201801N003119999999Y0099001N1+02401+01901999999ADDMA1101691999999REMMET045METAR SBLP 051200Z 18006KT CAVOK 24/19 Q1017;
0072832880999992011060513004-13267-043417FM-15+0443SBLP V0201801N003119999999Y0099001N1+02401+01901999999ADDMA1101691999999REMMET045METAR SBLP 051300Z 18006KT CAVOK 24/19 Q1017;
0072832880999992011060514004-13267-043417FM-15+0443SBLP V0202101N003119999999Y0099001N1+03001+01801999999ADDMA1101591999999REMMET045METAR SBLP 051400Z 21006KT CAVOK 30/18 Q1016;
0120832880999992011060515004-13267-043417FM-15+0443SBLP V0203001N003112200019N0112651N1+03201+01801999999ADDGA1021+009001999GF102991999999999999999999MA1101491999999REMMET051METAR SBLP 051500Z 30006KT 9999 FEW030 32/18 Q1015;
0120832880999992011060517004-13267-043417FM-15+0443SBLP V0201801N003112200019N0112651N1+03301+01701999999ADDGA1041+009001999GF104991999999999999999999MA1101291999999REMMET051METAR SBLP 051700Z 18006KT 9999 SCT030 33/17 Q1013;
0120832880999992011060518004-13267-043417FM-15+0443SBLP V0201801N003112200019N0112651N1+03401+01701999999ADDGA1041+009001999GF104991999999999999999999MA1101191999999REMMET051METAR SBLP 051800Z 18006KT 9999 SCT030 34/17 Q1012;
0120832880999992011060519004-13267-043417FM-15+0443SBLP V0201801N003112200019N0112651N1+03401+01701999999ADDGA1021+009001999GF102991999999999999999999MA1101191999999REMMET051METAR SBLP 051900Z 18006KT 9999 FEW030 34/17 Q1012;
0120832880999992011060520004-13267-043417FM-15+0443SBLP V0201801N003112200019N0112651N1+03301+01701999999ADDGA1021+009001999GF102991999999999999999999MA1101191999999REMMET051METAR SBLP 052000Z 18006KT 9999 FEW030 33/17 Q1012;
0072832880999992011060521004-13267-043417FM-15+0443SBLP V0209999C000019999999Y0099001N1+03101+01801999999ADDMA1101291999999REMMET045METAR SBLP 052100Z 00000KT CAVOK 31/18 Q1013;
0072832880999992011060610004-13267-043417FM-15+0443SBLP V0209999C000019999999Y0099001N1+01801+01501999999ADDMA1101801999999REMMET045METAR SBLP 061000Z 00000KT CAVOK 18/15 Q1018;
0072832880999992011060611004-13267-043417FM-15+0443SBLP V0201201N003119999999Y0099001N1+02101+01501999999ADDMA1101901999999REMMET045METAR SBLP 061100Z 12006KT CAVOK 21/15 Q1019;
0072832880999992011060612004-13267-043417FM-15+0443SBLP V0201201N003119999999Y0099001N1+02501+01901999999ADDMA1102001999999REMMET045METAR SBLP 061200Z 12006KT CAVOK 25/19 Q1020;
0072832880999992011060613004-13267-043417FM-15+0443SBLP V0200301N003119999999Y0099001N1+02701+01701999999ADDMA1101901999999REMMET045METAR SBLP 061300Z 03006KT CAVOK 27/17 Q1019;
0072832880999992011060614004-13267-043417FM-15+0443SBLP V0200401N003119999999Y0099001N1+02901+01601999999ADDMA1101901999999REMMET045METAR SBLP 061400Z 04006KT CAVOK 29/16 Q1019;
0143832880999992011060615004-13267-043417FM-15+0443SBLP V0201801N003112200019N0112651N1+03101+01601999999ADDGA1021+009001999GA2041+030001999GF104991999999999999999999MA1101691999999REMMET058METAR SBLP 061500Z 18006KT 9999 FEW030 SCT100 31/16 Q1017;
0120832880999992011060616004-13267-043417FM-15+0443SBLP V0201801N003112200019N0112651N1+03201+01601999999ADDGA1021+009001999GF102991999999999999999999MA1101591999999REMMET051METAR SBLP 061600Z 18006KT 9999 FEW030 32/16 Q1016;
0120832880999992011060617004-13267-043417FM-15+0443SBLP V0201801N003112200019N0112651N1+03301+01601999999ADDGA1041+009001999GF104991999999999999999999MA1101491999999REMMET051METAR SBLP 061700Z 18006KT 9999 SCT030 33/16 Q1015;
0120832880999992011060618004-13267-043417FM-15+0443SBLP V0201801N003112200019N0112651N1+03501+01501999999ADDGA1041+009001999GF104991999999999999999999MA1101391999999REMMET051METAR SBLP 061800Z 18006KT 9999 SCT030 35/15 Q1014;
0120832880999992011060619004-13267-043417FM-15+0443SBLP V0201801N003112200019N0112651N1+03401+01501999999ADDGA1021+009001999GF102991999999999999999999MA1101391999999REMMET051METAR SBLP 061900Z 18006KT 9999 FEW030 34/15 Q1014;
0120832880999992011060620004-13267-043417FM-15+0443SBLP V0201801N003112200019N0112651N1+03201+01601999999ADDGA1021+009001999GF102991999999999999999999MA1101391999999REMMET051METAR SBLP 062000Z 18006KT 9999 FEW030 32/16 Q1014;
0120832880999992011060621004-13267-043417FM-15+0443SBLP V0200901N003112200019N0112651N1+03101+01601999999ADDGA1021+009001999GF102991999999999999999999MA1101391999999REMMET051METAR SBLP 062100Z 09006KT 9999 FEW030 31/16 Q1014;
0072832880999992011060710004-13267-043417FM-15+0443SBLP V0202201N001519999999Y0099001N1+01901+01601999999ADDMA1102001999999REMMET045METAR SBLP 071000Z 22003KT CAVOK 19/16 Q1020;
0072832880999992011060711004-13267-043417FM-15+0443SBLP V0209999C000019999999Y0099001N1+02101+01701999999ADDMA1102101999999REMMET045METAR SBLP 071100Z 00000KT CAVOK 21/17 Q1021;
0072832880999992011060712004-13267-043417FM-15+0443SBLP V0200301N004119999999Y0099001N1+02501+01501999999ADDMA1102101999999REMMET045METAR SBLP 071200Z 03008KT CAVOK 25/15 Q1021;
0072832880999992011060713004-13267-043417FM-15+0443SBLP V0200901N002119999999Y0099001N1+02801+01901999999ADDMA1102001999999REMMET045METAR SBLP 071300Z 09004KT CAVOK 28/19 Q1020;
0072832880999992011060715004-13267-043417FM-15+0443SBLP V0202301N001019999999Y0099001N1+03101+01401999999ADDMA1101801999999REMMET045METAR SBLP 071500Z 23002KT CAVOK 31/14 Q1018;
0120832880999992011060716004-13267-043417FM-15+0443SBLP V0202701N003112200019N0112651N1+03201+01401999999ADDGA1021+009001999GF102991999999999999999999MA1101691999999REMMET051METAR SBLP 071600Z 27006KT 9999 FEW030 32/14 Q1017;
0120832880999992011060717004-13267-043417FM-15+0443SBLP V0202701N003112200019N0112651N1+03201+01401999999ADDGA1021+009001999GF102991999999999999999999MA1101591999999REMMET051METAR SBLP 071700Z 27006KT 9999 FEW030 32/14 Q1016;
0120832880999992011060718004-13267-043417FM-15+0443SBLP V0202701N003112200019N0112651N1+03201+01401999999ADDGA1021+009001999GF102991999999999999999999MA1101591999999REMMET051METAR SBLP 071800Z 27006KT 9999 FEW030 32/14 Q1016;
0120832880999992011060719004-13267-043417FM-15+0443SBLP V0201801N003112200019N0112651N1+03301+01401999999ADDGA1021+009001999GF102991999999999999999999MA1101591999999REMMET051METAR SBLP 071900Z 18006KT 9999 FEW030 33/14 Q1016;
0072832880999992011060720004-13267-043417FM-15+0443SBLP V0209999C000019999999Y0099001N1+03301+01401999999ADDMA1101591999999REMMET045METAR SBLP 072000Z 00000KT CAVOK 33/14 Q1016;
0072832880999992011060721004-13267-043417FM-15+0443SBLP V0209999C000019999999Y0099001N1+03101+01401999999ADDMA1101591999999REMMET045METAR SBLP 072100Z 00000KT CAVOK 31/14 Q1016;
0072832880999992011060810004-13267-043417FM-15+0443SBLP V0209999C000019999999Y0099001N1+02101+01701999999ADDMA1101801999999REMMET045METAR SBLP 081000Z 00000KT CAVOK 21/17 Q1018;
0072832880999992011060811004-13267-043417FM-15+0443SBLP V0203601N003119999999Y0099001N1+02401+01701999999ADDMA1101901999999REMMET045METAR SBLP 081100Z 36006KT CAVOK 24/17 Q1019;
0072832880999992011060812004-13267-043417FM-15+0443SBLP V0203601N003119999999Y0099001N1+02601+01601999999ADDMA1101901999999REMMET045METAR SBLP 081200Z 36006KT CAVOK 26/16 Q1019;
0072832880999992011060813004-13267-043417FM-15+0443SBLP V0203601N003119999999Y0099001N1+02801+01601999999ADDMA1101901999999REMMET045METAR SBLP 081300Z 36006KT CAVOK 28/16 Q1019;
0072832880999992011060814004-13267-043417FM-15+0443SBLP V0203601N003119999999Y0099001N1+03001+01601999999ADDMA1101801999999REMMET045METAR SBLP 081400Z 36006KT CAVOK 30/16 Q1018;
0120832880999992011060815004-13267-043417FM-15+0443SBLP V0203601N003112200019N0112651N1+03001+01501999999ADDGA1021+009001999GF102991999999999999999999MA1101691999999REMMET051METAR SBLP 081500Z 36006KT 9999 FEW030 30/15 Q1017;
0120832880999992011060816004-13267-043417FM-15+0443SBLP V0209999C000012200019N0112651N1+03201+01501999999ADDGA1021+009001999GF102991999999999999999999MA1101491999999REMMET051METAR SBLP 081600Z 00000KT 9999 FEW030 32/15 Q1015;
0120832880999992011060817004-13267-043417FM-15+0443SBLP V0202701N002112200019N0112651N1+03301+01601999999ADDGA1021+009001999GF102991999999999999999999MA1101491999999REMMET051METAR SBLP 081700Z 27004KT 9999 FEW030 33/16 Q1015;
0120832880999992011060818004-13267-043417FM-15+0443SBLP V0202401N001512200019N0112651N1+03301+01501999999ADDGA1021+009001999GF102991999999999999999999MA1101391999999REMMET051METAR SBLP 081800Z 24003KT 9999 FEW030 33/15 Q1014;
0120832880999992011060819004-13267-043417FM-15+0443SBLP V0202101N002112200019N0112651N1+03301+01501999999ADDGA1021+009001999GF102991999999999999999999MA1101391999999REMMET051METAR SBLP 081900Z 21004KT 9999 FEW030 33/15 Q1014;
0120832880999992011060820004-13267-043417FM-15+0443SBLP V0201801N002112200019N0112651N1+03201+01601999999ADDGA1021+009001999GF102991999999999999999999MA1101391999999REMMET051METAR SBLP 082000Z 18004KT 9999 FEW030 32/16 Q1014;
0072832880999992011060821004-13267-043417FM-15+0443SBLP V0201801N001519999999Y0099001N1+03001+01501999999ADDMA1101491999999REMMET045METAR SBLP 082100Z 18003KT CAVOK 30/15 Q1015;
0072832880999992011060910004-13267-043417FM-15+0443SBLP V0201801N001519999999Y0099001N1+02001+01601999999ADDMA1101691999999REMMET045METAR SBLP 091000Z 18003KT CAVOK 20/16 Q1017;
0072832880999992011060911004-13267-043417FM-15+0443SBLP V0209999C000019999999Y0099001N1+02201+01701999999ADDMA1101801999999REMMET045METAR SBLP 091100Z 00000KT CAVOK 22/17 Q1018;
0072832880999992011060912004-13267-043417FM-15+0443SBLP V0202801N002119999999Y0099001N1+02601+01601999999ADDMA1101801999999REMMET045METAR SBLP 091200Z 28004KT CAVOK 26/16 Q1018;
0072832880999992011060913004-13267-043417FM-15+0443SBLP V0202801N002119999999Y0099001N1+02801+01701999999ADDMA1101801999999REMMET045METAR SBLP 091300Z 28004KT CAVOK 28/17 Q1018;
0072832880999992011060914004-13267-043417FM-15+0443SBLP V0203001N002619999999Y0099001N1+03001+01601999999ADDMA1101691999999REMMET045METAR SBLP 091400Z 30005KT CAVOK 30/16 Q1017;
0072832880999992011060915004-13267-043417FM-15+0443SBLP V0202901N002119999999Y0099001N1+03101+01601999999ADDMA1101591999999REMMET045METAR SBLP 091500Z 29004KT CAVOK 31/16 Q1016;
0072832880999992011060916004-13267-043417FM-15+0443SBLP V0209999C000019999999Y0099001N1+03201+02001999999ADDMA1101491999999REMMET045METAR SBLP 091600Z 00000KT CAVOK 32/20 Q1015;
0072832880999992011060917004-13267-043417FM-15+0443SBLP V0203001N002119999999Y0099001N1+03401+01701999999ADDMA1101391999999REMMET045METAR SBLP 091700Z 30004KT CAVOK 34/17 Q1014;
0072832880999992011060918004-13267-043417FM-15+0443SBLP V0202701N003119999999Y0099001N1+03501+01401999999ADDMA1101291999999REMMET045METAR SBLP 091800Z 27006KT CAVOK 35/14 Q1013;
0072832880999992011060919004-13267-043417FM-15+0443SBLP V0209999C000019999999Y0099001N1+03401+01301999999ADDMA1101291999999REMMET045METAR SBLP 091900Z 00000KT CAVOK 34/13 Q1013;
0072832880999992011060920004-13267-043417FM-15+0443SBLP V0209999C000019999999Y0099001N1+03201+01401999999ADDMA1101291999999REMMET045METAR SBLP 092000Z 00000KT CAVOK 32/14 Q1013;
0072832880999992011060921004-13267-043417FM-15+0443SBLP V0209999C000019999999Y0099001N1+02801+01901999999ADDMA1101391999999REMMET045METAR SBLP 092100Z 00000KT CAVOK 28/19 Q1014;
0072832880999992011061010004-13267-043417FM-15+0443SBLP V0209999C000019999999Y0099001N1+01901+01301999999ADDMA1101801999999REMMET045METAR SBLP 101000Z 00000KT CAVOK 19/13 Q1018;
0072832880999992011061011004-13267-043417FM-15+0443SBLP V0202101N003119999999Y0099001N1+02001+01501999999ADDMA1101901999999REMMET045METAR SBLP 101100Z 21006KT CAVOK 20/15 Q1019;
0072832880999992011061012004-13267-043417FM-15+0443SBLP V0202101N003119999999Y0099001N1+02401+01901999999ADDMA1102001999999REMMET045METAR SBLP 101200Z 21006KT CAVOK 24/19 Q1020;
0072832880999992011061013004-13267-043417FM-15+0443SBLP V0209999C000019999999Y0099001N1+02701+01901999999ADDMA1101901999999REMMET045METAR SBLP 101300Z 00000KT CAVOK 27/19 Q1019;
0072832880999992011061014004-13267-043417FM-15+0443SBLP V0202101N003119999999Y0099001N1+02901+01801999999ADDMA1101901999999REMMET045METAR SBLP 101400Z 21006KT CAVOK 29/18 Q1019;
0072832880999992011061015004-13267-043417FM-15+0443SBLP V0201801N003119999999Y0099001N1+03101+01801999999ADDMA1101801999999REMMET045METAR SBLP 101500Z 18006KT CAVOK 31/18 Q1018;
0120832880999992011061016004-13267-043417FM-15+0443SBLP V0201901N004112200019N0112651N1+03201+01601999999ADDGA1021+009001999GF102991999999999999999999MA1101691999999REMMET051METAR SBLP 101600Z 19008KT 9999 FEW030 32/16 Q1017;
0120832880999992011061017004-13267-043417FM-15+0443SBLP V0201901N003612200019N0112651N1+03301+01601999999ADDGA1041+009001999GF104991999999999999999999MA1101591999999REMMET051METAR SBLP 101700Z 19007KT 9999 SCT030 33/16 Q1016;
0120832880999992011061018004-13267-043417FM-15+0443SBLP V0201901N004112200019N0112651N1+03201+01601999999ADDGA1041+009001999GF104991999999999999999999MA1101591999999REMMET051METAR SBLP 101800Z 19008KT 9999 SCT030 32/16 Q1016;
0120832880999992011061019004-13267-043417FM-15+0443SBLP V0201801N003112200019N0112651N1+03201+01701999999ADDGA1041+009001999GF104991999999999999999999MA1101591999999REMMET051METAR SBLP 101900Z 18006KT 9999 SCT030 32/17 Q1016;
0120832880999992011061020004-13267-043417FM-15+0443SBLP V0201801N003112200019N0112651N1+03001+01701999999ADDGA1021+009001999GF102991999999999999999999MA1101591999999REMMET051METAR SBLP 102000Z 18006KT 9999 FEW030 30/17 Q1016;
0072832880999992011061021004-13267-043417FM-15+0443SBLP V0201801N003119999999Y0099001N1+02801+01801999999ADDMA1101691999999REMMET045METAR SBLP 102100Z 18006KT CAVOK 28/18 Q1017;
0072832880999992011061110004-13267-043417FM-15+0443SBLP V0202101N002119999999Y0099001N1+01801+01401999999ADDMA1101801999999REMMET045METAR SBLP 111000Z 21004KT CAVOK 18/14 Q1018;
0072832880999992011061111004-13267-043417FM-15+0443SBLP V0202101N004119999999Y0099001N1+02101+01601999999ADDMA1101801999999REMMET045METAR SBLP 111100Z 21008KT CAVOK 21/16 Q1018;
0072832880999992011061112004-13267-043417FM-15+0443SBLP V0202101N002119999999Y0099001N1+02401+01801999999ADDMA1101801999999REMMET045METAR SBLP 111200Z 21004KT CAVOK 24/18 Q1018;
0072832880999992011061113004-13267-043417FM-15+0443SBLP V0202401N003119999999Y0099001N1+02701+01801999999ADDMA1101801999999REMMET045METAR SBLP 111300Z 24006KT CAVOK 27/18 Q1018;
0072832880999992011061114004-13267-043417FM-15+0443SBLP V0202101N003119999999Y0099001N1+03001+01701999999ADDMA1101691999999REMMET045METAR SBLP 111400Z 21006KT CAVOK 30/17 Q1017;
0120832880999992011061115004-13267-043417FM-15+0443SBLP V0202401N002112200019N0112651N1+03201+01701999999ADDGA1021+009001999GF102991999999999999999999MA1101591999999REMMET051METAR SBLP 111500Z 24004KT 9999 FEW030 32/17 Q1016;
0120832880999992011061116004-13267-043417FM-15+0443SBLP V0202301N003112200019N0112651N1+03301+01501999999ADDGA1021+009001999GF102991999999999999999999MA1101491999999REMMET051METAR SBLP 111600Z 23006KT 9999 FEW030 33/15 Q1015;
0120832880999992011061117004-13267-043417FM-15+0443SBLP V0202101N003112200019N0112651N1+03301+01501999999ADDGA1021+009001999GF102991999999999999999999MA1101391999999REMMET051METAR SBLP 111700Z 21006KT 9999 FEW030 33/15 Q1014;
0120832880999992011061118004-13267-043417FM-15+0443SBLP V0202101N003112200019N0112651N1+03401+01501999999ADDGA1021+009001999GF102991999999999999999999MA1101291999999REMMET051METAR SBLP 111800Z 21006KT 9999 FEW030 34/15 Q1013;
0120832880999992011061119004-13267-043417FM-15+0443SBLP V0202401N003112200019N0112651N1+03401+01601999999ADDGA1021+009001999GF102991999999999999999999MA1101291999999REMMET051METAR SBLP 111900Z 24006KT 9999 FEW030 34/16 Q1013;
0120832880999992011061120004-13267-043417FM-15+0443SBLP V0202101N001512200019N0112651N1+03301+01601999999ADDGA1021+009001999GF102991999999999999999999MA1101291999999REMMET051METAR SBLP 112000Z 21003KT 9999 FEW030 33/16 Q1013;
0120832880999992011061121004-13267-043417FM-15+0443SBLP V0202101N001512200019N0112651N1+02801+01601999999ADDGA1021+009001999GF102991999999999999999999MA1101391999999REMMET051METAR SBLP 112100Z 21003KT 9999 FEW030 28/16 Q1014;
0072832880999992011061210004-13267-043417FM-15+0443SBLP V0201801N001519999999Y0099001N1+02101+01701999999ADDMA1101801999999REMMET045METAR SBLP 121000Z 18003KT CAVOK 21/17 Q1018;
0072832880999992011061211004-13267-043417FM-15+0443SBLP V0202201N002119999999Y0099001N1+02301+01801999999ADDMA1101901999999REMMET045METAR SBLP 121100Z 22004KT CAVOK 23/18 Q1019;
0072832880999992011061212004-13267-043417FM-15+0443SBLP V0201201N002119999999Y0099001N1+02601+01701999999ADDMA1101901999999REMMET045METAR SBLP 121200Z 12004KT CAVOK 26/17 Q1019;
0120832880999992011061213004-13267-043417FM-15+0443SBLP V0200901N003112200019N0112651N1+02901+01701999999ADDGA1021+009001999GF102991999999999999999999MA1101901999999REMMET051METAR SBLP 121300Z 09006KT 9999 FEW030 29/17 Q1019;
0120832880999992011061214004-13267-043417FM-15+0443SBLP V0209999C000012200019N0112651N1+03001+01601999999ADDGA1021+009001999GF102991999999999999999999MA1101901999999REMMET051METAR SBLP 121400Z 00000KT 9999 FEW030 30/16 Q1019;
0120832880999992011061215004-13267-043417FM-15+0443SBLP V0201101N003112200019N0112651N1+03201+01601999999ADDGA1021+009001999GF102991999999999999999999MA1101801999999REMMET051METAR SBLP 121500Z 11006KT 9999 FEW030 32/16 Q1018;
0120832880999992011061216004-13267-043417FM-15+0443SBLP V0201501N003112200019N0112651N1+03201+01601999999ADDGA1021+009001999GF102991999999999999999999MA1101591999999REMMET051METAR SBLP 121600Z 15006KT 9999 FEW030 32/16 Q1016;
0120832880999992011061217004-13267-043417FM-15+0443SBLP V0200901N002112200019N0112651N1+03201+01701999999ADDGA1021+009001999GF102991999999999999999999MA1101491999999REMMET051METAR SBLP 121700Z 09004KT 9999 FEW030 32/17 Q1015;
0120832880999992011061218004-13267-043417FM-15+0443SBLP V0201201N003112200019N0112651N1+03101+01601999999ADDGA1021+009001999GF102991999999999999999999MA1101491999999REMMET051METAR SBLP 121800Z 12006KT 9999 FEW030 31/16 Q1015;
0120832880999992011061219004-13267-043417FM-15+0443SBLP V0201201N004112200019N0112651N1+03201+01701999999ADDGA1021+009001999GF102991999999999999999999MA1101491999999REMMET051METAR SBLP 121900Z 12008KT 9999 FEW030 32/17 Q1015;
0072832880999992011061220004-13267-043417FM-15+0443SBLP V0201201N003119999999Y0099001N1+03001+01701999999ADDMA1101591999999REMMET045METAR SBLP 122000Z 12006KT CAVOK 30/17 Q1016;
0072832880999992011061221004-13267-043417FM-15+0443SBLP V0201201N003119999999Y0099001N1+02801+01901999999ADDMA1101591999999REMMET045METAR SBLP 122100Z 12006KT CAVOK 28/19 Q1016;
0072832880999992011061310004-13267-043417FM-15+0443SBLP V0209999C000019999999Y0099001N1+02201+01901999999ADDMA1102101999999REMMET045METAR SBLP 131000Z 00000KT CAVOK 22/19 Q1021;
0072832880999992011061311004-13267-043417FM-15+0443SBLP V0209999C000019999999Y0099001N1+02401+01801999999ADDMA1102101999999REMMET045METAR SBLP 131100Z 00000KT CAVOK 24/18 Q1021;
0072832880999992011061312004-13267-043417FM-15+0443SBLP V0201801N003119999999Y0099001N1+02701+01701999999ADDMA1102201999999REMMET045METAR SBLP 131200Z 18006KT CAVOK 27/17 Q1022;
0072832880999992011061313004-13267-043417FM-15+0443SBLP V0201801N003119999999Y0099001N1+02701+01701999999ADDMA1102201999999REMMET045METAR SBLP 131300Z 18006KT CAVOK 27/17 Q1022;
0120832880999992011061314004-13267-043417FM-15+0443SBLP V0201801N003112200019N0112651N1+02901+01601999999ADDGA1021+009001999GF102991999999999999999999MA1102101999999REMMET051METAR SBLP 131400Z 18006KT 9999 FEW030 29/16 Q1021;
0120832880999992011061315004-13267-043417FM-15+0443SBLP V0201801N003112200019N0112651N1+02901+01701999999ADDGA1041+009001999GF104991999999999999999999MA1102001999999REMMET051METAR SBLP 131500Z 18006KT 9999 SCT030 29/17 Q1020;
0143832880999992011061316004-13267-043417FM-15+0443SBLP V0202501N003110300019N0112651N1+02801+01701999999ADDGA1041+009001999GA2071+030001999GF107991999999999999999999MA1101901999999REMMET058METAR SBLP 131600Z 25006KT 9999 SCT030 BKN100 28/17 Q1019;
0143832880999992011061317004-13267-043417FM-15+0443SBLP V0202401N003110300019N0112651N1+03001+01701999999ADDGA1041+009001999GA2071+030001999GF107991999999999999999999MA1101801999999REMMET058METAR SBLP 131700Z 24006KT 9999 SCT030 BKN100 30/17 Q1018;
0143832880999992011061318004-13267-043417FM-15+0443SBLP V0201201N003110300019N0112651N1+03001+01701999999ADDGA1041+009001999GA2071+030001999GF107991999999999999999999MA1101691999999REMMET058METAR SBLP 131800Z 12006KT 9999 SCT030 BKN100 30/17 Q1017;
0143832880999992011061319004-13267-043417FM-15+0443SBLP V0202101N003110300019N0112651N1+02801+01801999999ADDGA1041+009001999GA2071+030001999GF107991999999999999999999MA1101691999999REMMET058METAR SBLP 131900Z 21006KT 9999 SCT030 BKN100 28/18 Q1017;
0143832880999992011061320004-13267-043417FM-15+0443SBLP V0201501N005110300019N0112651N1+02801+01801999999ADDGA1041+006001999GA2071+030001999GF107991999999999999999999MA1101691999999REMMET058METAR SBLP 132000Z 15010KT 9999 SCT020 BKN100 28/18 Q1017;
0143832880999992011061321004-13267-043417FM-15+0443SBLP V0201501N004110300019N0112651N1+02801+01601999999ADDGA1041+006001999GA2071+030001999GF107991999999999999999999MA1101801999999REMMET058METAR SBLP 132100Z 15008KT 9999 SCT020 BKN100 28/16 Q1018;
0072832880999992011061410004-13267-043417FM-15+0443SBLP V0201501N003119999999Y0099001N1+02101+01701999999ADDMA1101901999999REMMET045METAR SBLP 141000Z 15006KT CAVOK 21/17 Q1019;
0072832880999992011061411004-13267-043417FM-15+0443SBLP V0201201N004119999999Y0099001N1+02301+01701999999ADDMA1101901999999REMMET045METAR SBLP 141100Z 12008KT CAVOK 23/17 Q1019;
0072832880999992011061412004-13267-043417FM-15+0443SBLP V0201501N005119999999Y0099001N1+02601+01601999999ADDMA1102001999999REMMET045METAR SBLP 141200Z 15010KT CAVOK 26/16 Q1020;
0072832880999992011061413004-13267-043417FM-15+0443SBLP V0201301N002119999999Y0099001N1+02701+01601999999ADDMA1102001999999REMMET045METAR SBLP 141300Z 13004KT CAVOK 27/16 Q1020;
0072832880999992011061414004-13267-043417FM-15+0443SBLP V0201201N004119999999Y0099001N1+02901+01701999999ADDMA1101901999999REMMET045METAR SBLP 141400Z 12008KT CAVOK 29/17 Q1019;
0072832880999992011061415004-13267-043417FM-15+0443SBLP V0201201N006219999999Y0099001N1+03001+01601999999ADDMA1101801999999REMMET045METAR SBLP 141500Z 12012KT CAVOK 30/16 Q1018;
0120832880999992011061416004-13267-043417FM-15+0443SBLP V0201201N003112200019N0112651N1+03101+01601999999ADDGA1021+009001999GF102991999999999999999999MA1101691999999REMMET051METAR SBLP 141600Z 12006KT 9999 FEW030 31/16 Q1017;
0120832880999992011061417004-13267-043417FM-15+0443SBLP V0202101N003112200019N0112651N1+03201+01601999999ADDGA1021+009001999GF102991999999999999999999MA1101491999999REMMET051METAR SBLP 141700Z 21006KT 9999 FEW030 32/16 Q1015;
0120832880999992011061418004-13267-043417FM-15+0443SBLP V0201201N003112200019N0112651N1+03201+02101999999ADDGA1041+009001999GF104991999999999999999999MA1101491999999REMMET051METAR SBLP 141800Z 12006KT 9999 SCT030 32/21 Q1015;
0120832880999992011061419004-13267-043417FM-15+0443SBLP V0201501N003110090019N0112651N1+03101+01601999999ADDGA1071+009001999GF107991999999999999999999MA1101391999999REMMET051METAR SBLP 141900Z 15006KT 9999 BKN030 31/16 Q1014;
0120832880999992011061420004-13267-043417FM-15+0443SBLP V0201801N003110090019N0112651N1+03001+01701999999ADDGA1071+009001999GF107991999999999999999999MA1101491999999REMMET051METAR SBLP 142000Z 18006KT 9999 BKN030 30/17 Q1015;
0120832880999992011061421004-13267-043417FM-15+0443SBLP V0201801N003112200019N0112651N1+02901+01801999999ADDGA1041+009001999GF104991999999999999999999MA1101491999999REMMET051METAR SBLP 142100Z 18006KT 9999 SCT030 29/18 Q1015;
0072832880999992011061510004-13267-043417FM-15+0443SBLP V0209999C000019999999Y0099001N1+02001+01601999999ADDMA1101801999999REMMET045METAR SBLP 151000Z 00000KT CAVOK 20/16 Q1018;
0072832880999992011061511004-13267-043417FM-15+0443SBLP V0201801N003119999999Y0099001N1+02301+01501999999ADDMA1101901999999REMMET045METAR SBLP 151100Z 18006KT CAVOK 23/15 Q1019;
0120832880999992011061512004-13267-043417FM-15+0443SBLP V0200901N002112200019N0112651N1+02501+01601999999ADDGA1021+009001999GF102991999999999999999999MA1101901999999REMMET051METAR SBLP 151200Z 09004KT 9999 FEW030 25/16 Q1019;
0120832880999992011061513004-13267-043417FM-15+0443SBLP V0200901N003112200019N0112651N1+02701+01501999999ADDGA1021+009001999GF102991999999999999999999MA1102001999999REMMET051METAR SBLP 151300Z 09006KT 9999 FEW030 27/15 Q1020;
0120832880999992011061514004-13267-043417FM-15+0443SBLP V0201201N003112200019N0112651N1+02901+01501999999ADDGA1021+009001999GF102991999999999999999999MA1101901999999REMMET051METAR SBLP 151400Z 12006KT 9999 FEW030 29/15 Q1019;
0120832880999992011061515004-13267-043417FM-15+0443SBLP V0200901N003112200019N0112651N1+03001+01601999999ADDGA1021+009001999GF102991999999999999999999MA1101801999999REMMET051METAR SBLP 151500Z 09006KT 9999 FEW030 30/16 Q1018;
0120832880999992011061516004-13267-043417FM-15+0443SBLP V0201501N005112200019N0112651N1+03001+01601999999ADDGA1021+009001999GF102991999999999999999999MA1101691999999REMMET051METAR SBLP 151600Z 15010KT 9999 FEW030 30/16 Q1017;
0120832880999992011061517004-13267-043417FM-15+0443SBLP V0201201N004112200019N0112651N1+03101+01501999999ADDGA1021+009001999GF102991999999999999999999MA1101591999999REMMET051METAR SBLP 151700Z 12008KT 9999 FEW030 31/15 Q1016;
0120832880999992011061518004-13267-043417FM-15+0443SBLP V0201201N005112200019N0112651N1+03101+01501999999ADDGA1021+009001999GF102991999999999999999999MA1101491999999REMMET051METAR SBLP 151800Z 12010KT 9999 FEW030 31/15 Q1015;
0120832880999992011061519004-13267-043417FM-15+0443SBLP V0201201N004112200019N0112651N1+03101+01401999999ADDGA1021+009001999GF102991999999999999999999MA1101491999999REMMET051METAR SBLP 151900Z 12008KT 9999 FEW030 31/14 Q1015;
0120832880999992011061520004-13267-043417FM-15+0443SBLP V0201201N003112200019N0112651N1+03001+01401999999ADDGA1021+009001999GF102991999999999999999999MA1101491999999REMMET051METAR SBLP 152000Z 12006KT 9999 FEW030 30/14 Q1015;
0072832880999992011061521004-13267-043417FM-15+0443SBLP V0201201N004119999999Y0099001N1+02801+01401999999ADDMA1101591999999REMMET045METAR SBLP 152100Z 12008KT CAVOK 28/14 Q1016;
0072832880999992011061610004-13267-043417FM-15+0443SBLP V0209999C000019999999Y0099001N1+01901+01601999999ADDMA1101901999999REMMET045METAR SBLP 161000Z 00000KT CAVOK 19/16 Q1019;
0072832880999992011061611004-13267-043417FM-15+0443SBLP V0201801N003119999999Y0099001N1+02101+01601999999ADDMA1102001999999REMMET045METAR SBLP 161100Z 18006KT CAVOK 21/16 Q1020;
0072832880999992011061612004-13267-043417FM-15+0443SBLP V0201801N003119999999Y0099001N1+02401+01601999999ADDMA1102001999999REMMET045METAR SBLP 161200Z 18006KT CAVOK 24/16 Q1020;
0072832880999992011061613004-13267-043417FM-15+0443SBLP V0201801N003119999999Y0099001N1+02601+01401999999ADDMA1102001999999REMMET045METAR SBLP 161300Z 18006KT CAVOK 26/14 Q1020;
0072832880999992011061614004-13267-043417FM-15+0443SBLP V0200901N003119999999Y0099001N1+02701+01401999999ADDMA1101901999999REMMET045METAR SBLP 161400Z 09006KT CAVOK 27/14 Q1019;
0072832880999992011061615004-13267-043417FM-15+0443SBLP V0200901N003119999999Y0099001N1+02801+01301999999ADDMA1101901999999REMMET045METAR SBLP 161500Z 09006KT CAVOK 28/13 Q1019;
0072832880999992011061616004-13267-043417FM-15+0443SBLP V0202401N003119999999Y0099001N1+02901+01301999999ADDMA1101691999999REMMET045METAR SBLP 161600Z 24006KT CAVOK 29/13 Q1017;
0072832880999992011061617004-13267-043417FM-15+0443SBLP V0209999C000019999999Y0099001N1+03001+01301999999ADDMA1101591999999REMMET045METAR SBLP 161700Z 00000KT CAVOK 30/13 Q1016;
0072832880999992011061618004-13267-043417FM-15+0443SBLP V0201501N003119999999Y0099001N1+03001+01301999999ADDMA1101591999999REMMET045METAR SBLP 161800Z 15006KT CAVOK 30/13 Q1016;
0072832880999992011061619004-13267-043417FM-15+0443SBLP V0201501N003119999999Y0099001N1+03001+01301999999ADDMA1101491999999REMMET045METAR SBLP 161900Z 15006KT CAVOK 30/13 Q1015;
0072832880999992011061620004-13267-043417FM-15+0443SBLP V0209999C000019999999Y0099001N1+02801+01601999999ADDMA1101591999999REMMET045METAR SBLP 162000Z 00000KT CAVOK 28/16 Q1016;
0072832880999992011061621004-13267-043417FM-15+0443SBLP V0201401N003119999999Y0099001N1+02601+01701999999ADDMA1101591999999REMMET045METAR SBLP 162100Z 14006KT CAVOK 26/17 Q1016;
0072832880999992011061710004-13267-043417FM-15+0443SBLP V0209999C000019999999Y0099001N1+01601+01301999999ADDMA1101901999999REMMET045METAR SBLP 171000Z 00000KT CAVOK 16/13 Q1019;
0072832880999992011061711004-13267-043417FM-15+0443SBLP V0202001N003119999999Y0099001N1+01801+01501999999ADDMA1102001999999REMMET045METAR SBLP 171100Z 20006KT CAVOK 18/15 Q1020;
0072832880999992011061712004-13267-043417FM-15+0443SBLP V0201801N003119999999Y0099001N1+02201+01601999999ADDMA1102001999999REMMET045METAR SBLP 171200Z 18006KT CAVOK 22/16 Q1020;
0072832880999992011061713004-13267-043417FM-15+0443SBLP V0201501N003119999999Y0099001N1+02501+01601999999ADDMA1102001999999REMMET045METAR SBLP 171300Z 15006KT CAVOK 25/16 Q1020;
0072832880999992011061714004-13267-043417FM-15+0443SBLP V0203601N003119999999Y0099001N1+02901+01501999999ADDMA1101901999999REMMET045METAR SBLP 171400Z 36006KT CAVOK 29/15 Q1019;
0072832880999992011061715004-13267-043417FM-15+0443SBLP V0202401N004119999999Y0099001N1+03001+01501999999ADDMA1101801999999REMMET045METAR SBLP 171500Z 24008KT CAVOK 30/15 Q1018;
0072832880999992011061716004-13267-043417FM-15+0443SBLP V0201801N003119999999Y0099001N1+03001+01601999999ADDMA1101691999999REMMET045METAR SBLP 171600Z 18006KT CAVOK 30/16 Q1017;
0072832880999992011061717004-13267-043417FM-15+0443SBLP V0201801N003119999999Y0099001N1+03001+01501999999ADDMA1101591999999REMMET045METAR SBLP 171700Z 18006KT CAVOK 30/15 Q1016;
0072832880999992011061718004-13267-043417FM-15+0443SBLP V0201801N003119999999Y0099001N1+03101+01501999999ADDMA1101491999999REMMET045METAR SBLP 171800Z 18006KT CAVOK 31/15 Q1015;
0072832880999992011061719004-13267-043417FM-15+0443SBLP V0201801N003119999999Y0099001N1+03001+01601999999ADDMA1101491999999REMMET045METAR SBLP 171900Z 18006KT CAVOK 30/16 Q1015;
0072832880999992011061720004-13267-043417FM-15+0443SBLP V0209999C000019999999Y0099001N1+03001+01601999999ADDMA1101491999999REMMET045METAR SBLP 172000Z 00000KT CAVOK 30/16 Q1015;
0072832880999992011061721004-13267-043417FM-15+0443SBLP V0209999C000019999999Y0099001N1+02901+01601999999ADDMA1101491999999REMMET045METAR SBLP 172100Z 00000KT CAVOK 29/16 Q1015;
0072832880999992011061810004-13267-043417FM-15+0443SBLP V0209999C000019999999Y0099001N1+01901+01501999999ADDMA1101691999999REMMET045METAR SBLP 181000Z 00000KT CAVOK 19/15 Q1017;
0072832880999992011061811004-13267-043417FM-15+0443SBLP V0209999C000019999999Y0099001N1+02201+01501999999ADDMA1101801999999REMMET045METAR SBLP 181100Z 00000KT CAVOK 22/15 Q1018;
0072832880999992011061812004-13267-043417FM-15+0443SBLP V0209999C000019999999Y0099001N1+02501+01501999999ADDMA1101901999999REMMET045METAR SBLP 181200Z 00000KT CAVOK 25/15 Q1019;
0072832880999992011061813004-13267-043417FM-15+0443SBLP V0209999C000019999999Y0099001N1+02701+01501999999ADDMA1101901999999REMMET045METAR SBLP 181300Z 00000KT CAVOK 27/15 Q1019;
0072832880999992011061814004-13267-043417FM-15+0443SBLP V0201801N003119999999Y0099001N1+02801+01501999999ADDMA1101801999999REMMET045METAR SBLP 181400Z 18006KT CAVOK 28/15 Q1018;
0072832880999992011061815004-13267-043417FM-15+0443SBLP V0201801N003119999999Y0099001N1+02901+01501999999ADDMA1101691999999REMMET045METAR SBLP 181500Z 18006KT CAVOK 29/15 Q1017;
0072832880999992011061816004-13267-043417FM-15+0443SBLP V0202801N002119999999Y0099001N1+03101+01601999999ADDMA1101591999999REMMET045METAR SBLP 181600Z 28004KT CAVOK 31/16 Q1016;
0072832880999992011061817004-13267-043417FM-15+0443SBLP V0202101N003619999999Y0099001N1+03101+01501999999ADDMA1101491999999REMMET045METAR SBLP 181700Z 21007KT CAVOK 31/15 Q1015;
0072832880999992011061818004-13267-043417FM-15+0443SBLP V0202101N003119999999Y0099001N1+03201+01301999999ADDMA1101391999999REMMET045METAR SBLP 181800Z 21006KT CAVOK 32/13 Q1014;
0072832880999992011061819004-13267-043417FM-15+0443SBLP V0202101N003119999999Y0099001N1+03201+01301999999ADDMA1101391999999REMMET045METAR SBLP 181900Z 21006KT CAVOK 32/13 Q1014;
0072832880999992011061820004-13267-043417FM-15+0443SBLP V0202101N002119999999Y0099001N1+03101+01401999999ADDMA1101391999999REMMET045METAR SBLP 182000Z 21004KT CAVOK 31/14 Q1014;
0072832880999992011061821004-13267-043417FM-15+0443SBLP V0201801N002119999999Y0099001N1+02801+01501999999ADDMA1101391999999REMMET045METAR SBLP 182100Z 18004KT CAVOK 28/15 Q1014;
0072832880999992011061910004-13267-043417FM-15+0443SBLP V0201801N002119999999Y0099001N1+01801+01501999999ADDMA1101591999999REMMET045METAR SBLP 191000Z 18004KT CAVOK 18/15 Q1016;
0072832880999992011061911004-13267-043417FM-15+0443SBLP V0201501N002619999999Y0099001N1+02101+01401999999ADDMA1101691999999REMMET045METAR SBLP 191100Z 15005KT CAVOK 21/14 Q1017;
0072832880999992011061912004-13267-043417FM-15+0443SBLP V0201801N002619999999Y0099001N1+02501+01701999999ADDMA1101691999999REMMET045METAR SBLP 191200Z 18005KT CAVOK 25/17 Q1017;
0072832880999992011061913004-13267-043417FM-15+0443SBLP V0202401N003119999999Y0099001N1+02801+01801999999ADDMA1101691999999REMMET045METAR SBLP 191300Z 24006KT CAVOK 28/18 Q1017;
0072832880999992011061914004-13267-043417FM-15+0443SBLP V0202701N004119999999Y0099001N1+02901+01701999999ADDMA1101591999999REMMET045METAR SBLP 191400Z 27008KT CAVOK 29/17 Q1016;
0120832880999992011061915004-13267-043417FM-15+0443SBLP V0202401N003112200019N0112651N1+03101+01701999999ADDGA1021+009001999GF102991999999999999999999MA1101491999999REMMET051METAR SBLP 191500Z 24006KT 9999 FEW030 31/17 Q1015;
0120832880999992011061916004-13267-043417FM-15+0443SBLP V0202401N003112200019N0112651N1+03201+01601999999ADDGA1021+009001999GF102991999999999999999999MA1101391999999REMMET051METAR SBLP 191600Z 24006KT 9999 FEW030 32/16 Q1014;
0120832880999992011061917004-13267-043417FM-15+0443SBLP V0202201N003112200019N0112651N1+03301+01401999999ADDGA1041+009001999GF104991999999999999999999MA1101291999999REMMET051METAR SBLP 191700Z 22006KT 9999 SCT030 33/14 Q1013;
0120832880999992011061918004-13267-043417FM-15+0443SBLP V0202501N003112200019N0112651N1+03301+01301999999ADDGA1041+009001999GF104991999999999999999999MA1101291999999REMMET051METAR SBLP 191800Z 25006KT 9999 SCT030 33/13 Q1013;
0120832880999992011061919004-13267-043417FM-15+0443SBLP V0202101N001512200019N0112651N1+03301+01201999999ADDGA1021+009001999GF102991999999999999999999MA1101291999999REMMET051METAR SBLP 191900Z 21003KT 9999 FEW030 33/12 Q1013;
0120832880999992011061920004-13267-043417FM-15+0443SBLP V0202101N001512200019N0112651N1+03201+01301999999ADDGA1021+009001999GF102991999999999999999999MA1101291999999REMMET051METAR SBLP 192000Z 21003KT 9999 FEW030 32/13 Q1013;
0072832880999992011061921004-13267-043417FM-15+0443SBLP V0209999C000019999999Y0099001N1+02801+01501999999ADDMA1101291999999REMMET045METAR SBLP 192100Z 00000KT CAVOK 28/15 Q1013;
0072832880999992011062010004-13267-043417FM-15+0443SBLP V0202001N002119999999Y0099001N1+01801+01501999999ADDMA1101691999999REMMET045METAR SBLP 201000Z 20004KT CAVOK 18/15 Q1017;
0072832880999992011062011004-13267-043417FM-15+0443SBLP V0201801N003119999999Y0099001N1+02001+01401999999ADDMA1101691999999REMMET045METAR SBLP 201100Z 18006KT CAVOK 20/14 Q1017;
0072832880999992011062012004-13267-043417FM-15+0443SBLP V0202101N004119999999Y0099001N1+02501+01601999999ADDMA1101801999999REMMET045METAR SBLP 201200Z 21008KT CAVOK 25/16 Q1018;
0072832880999992011062013004-13267-043417FM-15+0443SBLP V0202101N002619999999Y0099001N1+02701+01601999999ADDMA1101801999999REMMET045METAR SBLP 201300Z 21005KT CAVOK 27/16 Q1018;
0120832880999992011062014004-13267-043417FM-15+0443SBLP V0201801N003112200019N0112651N1+02901+01701999999ADDGA1021+009001999GF102991999999999999999999MA1101691999999REMMET051METAR SBLP 201400Z 18006KT 9999 FEW030 29/17 Q1017;
0120832880999992011062015004-13267-043417FM-15+0443SBLP V0202401N003112200019N0112651N1+03101+01701999999ADDGA1021+009001999GF102991999999999999999999MA1101591999999REMMET051METAR SBLP 201500Z 24006KT 9999 FEW030 31/17 Q1016;
0120832880999992011062016004-13267-043417FM-15+0443SBLP V0202101N003112200019N0112651N1+03101+01601999999ADDGA1041+009001999GF104991999999999999999999MA1101491999999REMMET051METAR SBLP 201600Z 21006KT 9999 SCT030 31/16 Q1015;
0120832880999992011062017004-13267-043417FM-15+0443SBLP V0202701N003112200019N0112651N1+03201+01701999999ADDGA1021+009001999GF102991999999999999999999MA1101391999999REMMET051METAR SBLP 201700Z 27006KT 9999 FEW030 32/17 Q1014;
0120832880999992011062018004-13267-043417FM-15+0443SBLP V0202101N003112200019N0112651N1+03301+01601999999ADDGA1021+009001999GF102991999999999999999999MA1101291999999REMMET051METAR SBLP 201800Z 21006KT 9999 FEW030 33/16 Q1013;
0120832880999992011062019004-13267-043417FM-15+0443SBLP V0202101N003112200019N0112651N1+03201+01601999999ADDGA1021+009001999GF102991999999999999999999MA1101291999999REMMET051METAR SBLP 201900Z 21006KT 9999 FEW030 32/16 Q1013;
0072832880999992011062020004-13267-043417FM-15+0443SBLP V0202101N003119999999Y0099001N1+03101+01701999999ADDMA1101291999999REMMET045METAR SBLP 202000Z 21006KT CAVOK 31/17 Q1013;
0072832880999992011062021004-13267-043417FM-15+0443SBLP V0209999C000019999999Y0099001N1+02801+01901999999ADDMA1101391999999REMMET045METAR SBLP 202100Z 00000KT CAVOK 28/19 Q1014;
0072832880999992011062110004-13267-043417FM-15+0443SBLP V0209999C000019999999Y0099001N1+01701+01401999999ADDMA1101801999999REMMET045METAR SBLP 211000Z 00000KT CAVOK 17/14 Q1018;
0072832880999992011062111004-13267-043417FM-15+0443SBLP V0202101N003119999999Y0099001N1+01901+01401999999ADDMA1101801999999REMMET045METAR SBLP 211100Z 21006KT CAVOK 19/14 Q1018;
0072832880999992011062112004-13267-043417FM-15+0443SBLP V0202101N003119999999Y0099001N1+02401+01501999999ADDMA1101901999999REMMET045METAR SBLP 211200Z 21006KT CAVOK 24/15 Q1019;
0072832880999992011062113004-13267-043417FM-15+0443SBLP V0202101N003119999999Y0099001N1+02601+01501999999ADDMA1101901999999REMMET045METAR SBLP 211300Z 21006KT CAVOK 26/15 Q1019;
0120832880999992011062114004-13267-043417FM-15+0443SBLP V0202701N003112200019N0112651N1+02801+01601999999ADDGA1021+009001999GF102991999999999999999999MA1101801999999REMMET051METAR SBLP 211400Z 27006KT 9999 FEW030 28/16 Q1018;
0120832880999992011062115004-13267-043417FM-15+0443SBLP V0202701N003112200019N0112651N1+02901+01501999999ADDGA1041+009001999GF104991999999999999999999MA1101691999999REMMET051METAR SBLP 211500Z 27006KT 9999 SCT030 29/15 Q1017;
0120832880999992011062116004-13267-043417FM-15+0443SBLP V0202701N003112200019N0112651N1+03101+01401999999ADDGA1021+009001999GF102991999999999999999999MA1101591999999REMMET051METAR SBLP 211600Z 27006KT 9999 FEW030 31/14 Q1016;
0120832880999992011062117004-13267-043417FM-15+0443SBLP V0202701N003112200019N0112651N1+03201+01401999999ADDGA1021+009001999GF102991999999999999999999MA1101491999999REMMET051METAR SBLP 211700Z 27006KT 9999 FEW030 32/14 Q1015;
0072832880999992011062118004-13267-043417FM-15+0443SBLP V0202701N003119999999Y0099001N1+03301+01401999999ADDMA1101391999999REMMET045METAR SBLP 211800Z 27006KT CAVOK 33/14 Q1014;
0072832880999992011062119004-13267-043417FM-15+0443SBLP V0202701N003119999999Y0099001N1+03201+01401999999ADDMA1101391999999REMMET045METAR SBLP 211900Z 27006KT CAVOK 32/14 Q1014;
0072832880999992011062120004-13267-043417FM-15+0443SBLP V0201801N003119999999Y0099001N1+03101+01401999999ADDMA1101391999999REMMET045METAR SBLP 212000Z 18006KT CAVOK 31/14 Q1014;
0072832880999992011062121004-13267-043417FM-15+0443SBLP V0209999C000019999999Y0099001N1+02901+01501999999ADDMA1101491999999REMMET045METAR SBLP 212100Z 00000KT CAVOK 29/15 Q1015;
0072832880999992011062210004-13267-043417FM-15+0443SBLP V0209999C000019999999Y0099001N1+01901+01601999999ADDMA1101901999999REMMET045METAR SBLP 221000Z 00000KT CAVOK 19/16 Q1019;
0072832880999992011062211004-13267-043417FM-15+0443SBLP V0209999C000019999999Y0099001N1+02101+01601999999ADDMA1102001999999REMMET045METAR SBLP 221100Z 00000KT CAVOK 21/16 Q1020;
0072832880999992011062212004-13267-043417FM-15+0443SBLP V0209999C000019999999Y0099001N1+02401+01501999999ADDMA1102001999999REMMET045METAR SBLP 221200Z 00000KT CAVOK 24/15 Q1020;
0072832880999992011062213004-13267-043417FM-15+0443SBLP V0209999C000019999999Y0099001N1+02701+01501999999ADDMA1102001999999REMMET045METAR SBLP 221300Z 00000KT CAVOK 27/15 Q1020;
0072832880999992011062214004-13267-043417FM-15+0443SBLP V0202701N003119999999Y0099001N1+02901+01401999999ADDMA1101901999999REMMET045METAR SBLP 221400Z 27006KT CAVOK 29/14 Q1019;
0072832880999992011062215004-13267-043417FM-15+0443SBLP V0202701N003119999999Y0099001N1+02901+01401999999ADDMA1101801999999REMMET045METAR SBLP 221500Z 27006KT CAVOK 29/14 Q1018;
0072832880999992011062216004-13267-043417FM-15+0443SBLP V0203001N002119999999Y0099001N1+03101+01001999999ADDMA1101691999999REMMET045METAR SBLP 221600Z 30004KT CAVOK 31/10 Q1017;
0072832880999992011062217004-13267-043417FM-15+0443SBLP V0202401N003119999999Y0099001N1+03201+01201999999ADDMA1101491999999REMMET045METAR SBLP 221700Z 24006KT CAVOK 32/12 Q1015;
0072832880999992011062218004-13267-043417FM-15+0443SBLP V0202401N003119999999Y0099001N1+03301+01101999999ADDMA1101491999999REMMET045METAR SBLP 221800Z 24006KT CAVOK 33/11 Q1015;
0072832880999992011062219004-13267-043417FM-15+0443SBLP V0202101N001519999999Y0099001N1+03301+01101999999ADDMA1101491999999REMMET045METAR SBLP 221900Z 21003KT CAVOK 33/11 Q1015;
0072832880999992011062220004-13267-043417FM-15+0443SBLP V0202101N001519999999Y0099001N1+03101+01201999999ADDMA1101491999999REMMET045METAR SBLP 222000Z 21003KT CAVOK 31/12 Q1015;
0072832880999992011062221004-13267-043417FM-15+0443SBLP V0202101N001019999999Y0099001N1+02801+01101999999ADDMA1101491999999REMMET045METAR SBLP 222100Z 21002KT CAVOK 28/11 Q1015;
0072832880999992011062310004-13267-043417FM-15+0443SBLP V0202101N002119999999Y0099001N1+01701+01401999999ADDMA1101801999999REMMET045METAR SBLP 231000Z 21004KT CAVOK 17/14 Q1018;
0072832880999992011062311004-13267-043417FM-15+0443SBLP V0201801N003119999999Y0099001N1+02001+01401999999ADDMA1101901999999REMMET045METAR SBLP 231100Z 18006KT CAVOK 20/14 Q1019;
0072832880999992011062312004-13267-043417FM-15+0443SBLP V0202101N003119999999Y0099001N1+02401+01501999999ADDMA1101901999999REMMET045METAR SBLP 231200Z 21006KT CAVOK 24/15 Q1019;
0072832880999992011062313004-13267-043417FM-15+0443SBLP V0201201N003119999999Y0099001N1+02701+01601999999ADDMA1101901999999REMMET045METAR SBLP 231300Z 12006KT CAVOK 27/16 Q1019;
0072832880999992011062314004-13267-043417FM-15+0443SBLP V0202401N002119999999Y0099001N1+02901+01501999999ADDMA1101801999999REMMET045METAR SBLP 231400Z 24004KT CAVOK 29/15 Q1018;
0120832880999992011062315004-13267-043417FM-15+0443SBLP V0202701N004112200019N0112651N1+03001+01601999999ADDGA1021+009001999GF102991999999999999999999MA1101691999999REMMET051METAR SBLP 231500Z 27008KT 9999 FEW030 30/16 Q1017;
0120832880999992011062316004-13267-043417FM-15+0443SBLP V0202701N003112200019N0112651N1+03101+01501999999ADDGA1021+009001999GF102991999999999999999999MA1101591999999REMMET051METAR SBLP 231600Z 27006KT 9999 FEW030 31/15 Q1016;
0120832880999992011062317004-13267-043417FM-15+0443SBLP V0202701N003112200019N0112651N1+03101+01501999999ADDGA1021+009001999GF102991999999999999999999MA1101591999999REMMET051METAR SBLP 231700Z 27006KT 9999 FEW030 31/15 Q1016;
0120832880999992011062318004-13267-043417FM-15+0443SBLP V0202401N004112200019N0112651N1+03201+01501999999ADDGA1021+009001999GF102991999999999999999999MA1101491999999REMMET051METAR SBLP 231800Z 24008KT 9999 FEW030 32/15 Q1015;
0120832880999992011062319004-13267-043417FM-15+0443SBLP V0202401N002612200019N0112651N1+03201+01501999999ADDGA1021+009001999GF102991999999999999999999MA1101391999999REMMET051METAR SBLP 231900Z 24005KT 9999 FEW030 32/15 Q1014;
0120832880999992011062320004-13267-043417FM-15+0443SBLP V0202101N003112200019N0112651N1+03101+01501999999ADDGA1021+009001999GF102991999999999999999999MA1101491999999REMMET051METAR SBLP 232000Z 21006KT 9999 FEW030 31/15 Q1015;
0072832880999992011062321004-13267-043417FM-15+0443SBLP V0201901N002619999999Y0099001N1+02801+01501999999ADDMA1101491999999REMMET045METAR SBLP 232100Z 19005KT CAVOK 28/15 Q1015;
0072832880999992011062410004-13267-043417FM-15+0443SBLP V0202101N001519999999Y0099001N1+01701+01401999999ADDMA1101691999999REMMET045METAR SBLP 241000Z 21003KT CAVOK 17/14 Q1017;
0072832880999992011062411004-13267-043417FM-15+0443SBLP V0202101N001519999999Y0099001N1+01901+01501999999ADDMA1101691999999REMMET045METAR SBLP 241100Z 21003KT CAVOK 19/15 Q1017;
0072832880999992011062412004-13267-043417FM-15+0443SBLP V0202001N002119999999Y0099001N1+02401+01601999999ADDMA1101801999999REMMET045METAR SBLP 241200Z 20004KT CAVOK 24/16 Q1018;
0072832880999992011062413004-13267-043417FM-15+0443SBLP V0202701N003119999999Y0099001N1+02601+01701999999ADDMA1101691999999REMMET045METAR SBLP 241300Z 27006KT CAVOK 26/17 Q1017;
0120832880999992011062414004-13267-043417FM-15+0443SBLP V0202401N001512200019N0112651N1+02801+01601999999ADDGA1021+009001999GF102991999999999999999999MA1101691999999REMMET051METAR SBLP 241400Z 24003KT 9999 FEW030 28/16 Q1017;
0120832880999992011062415004-13267-043417FM-15+0443SBLP V0202901N001512200019N0112651N1+02901+01501999999ADDGA1021+009001999GF102991999999999999999999MA1101591999999REMMET051METAR SBLP 241500Z 29003KT 9999 FEW030 29/15 Q1016;
0072832880999992011062416004-13267-043417FM-15+0443SBLP V0202401N005119999999Y0099001N1+03001+01601999999ADDMA1101491999999REMMET045METAR SBLP 241600Z 24010KT CAVOK 30/16 Q1015;
0072832880999992011062417004-13267-043417FM-15+0443SBLP V0202401N004119999999Y0099001N1+03101+01601999999ADDMA1101291999999REMMET045METAR SBLP 241700Z 24008KT CAVOK 31/16 Q1013;
0072832880999992011062418004-13267-043417FM-15+0443SBLP V0202401N006219999999Y0099001N1+03101+01401999999ADDMA1101291999999REMMET045METAR SBLP 241800Z 24012KT CAVOK 31/14 Q1013;
0072832880999992011062419004-13267-043417FM-15+0443SBLP V0202401N004119999999Y0099001N1+03101+01401999999ADDMA1101291999999REMMET045METAR SBLP 241900Z 24008KT CAVOK 31/14 Q1013;
0072832880999992011062420004-13267-043417FM-15+0443SBLP V0202101N004119999999Y0099001N1+02901+01501999999ADDMA1101291999999REMMET045METAR SBLP 242000Z 21008KT CAVOK 29/15 Q1013;
0072832880999992011062421004-13267-043417FM-15+0443SBLP V0201801N004119999999Y0099001N1+02701+01501999999ADDMA1101291999999REMMET045METAR SBLP 242100Z 18008KT CAVOK 27/15 Q1013;
0072832880999992011062510004-13267-043417FM-15+0443SBLP V0202101N002119999999Y0099001N1+01601+01301999999ADDMA1101691999999REMMET045METAR SBLP 251000Z 21004KT CAVOK 16/13 Q1017;
0072832880999992011062511004-13267-043417FM-15+0443SBLP V0201801N003119999999Y0099001N1+01901+01501999999ADDMA1101901999999REMMET045METAR SBLP 251100Z 18006KT CAVOK 19/15 Q1019;
0072832880999992011062512004-13267-043417FM-15+0443SBLP V0201801N003119999999Y0099001N1+02301+01501999999ADDMA1101901999999REMMET045METAR SBLP 251200Z 18006KT CAVOK 23/15 Q1019;
0072832880999992011062513004-13267-043417FM-15+0443SBLP V0201801N003119999999Y0099001N1+02601+01401999999ADDMA1101901999999REMMET045METAR SBLP 251300Z 18006KT CAVOK 26/14 Q1019;
0072832880999992011062514004-13267-043417FM-15+0443SBLP V0202701N003119999999Y0099001N1+02801+01401999999ADDMA1101801999999REMMET045METAR SBLP 251400Z 27006KT CAVOK 28/14 Q1018;
0120832880999992011062515004-13267-043417FM-15+0443SBLP V0202401N003112200019N0112651N1+03001+01501999999ADDGA1021+009001999GF102991999999999999999999MA1101691999999REMMET051METAR SBLP 251500Z 24006KT 9999 FEW030 30/15 Q1017;
0120832880999992011062516004-13267-043417FM-15+0443SBLP V0202701N003112200019N0112651N1+03001+01501999999ADDGA1021+009001999GF102991999999999999999999MA1101591999999REMMET051METAR SBLP 251600Z 27006KT 9999 FEW030 30/15 Q1016;
0072832880999992011062517004-13267-043417FM-15+0443SBLP V0202701N003119999999Y0099001N1+03001+01501999999ADDMA1101491999999REMMET045METAR SBLP 251700Z 27006KT CAVOK 30/15 Q1015;
0072832880999992011062518004-13267-043417FM-15+0443SBLP V0202701N003119999999Y0099001N1+03201+01401999999ADDMA1101391999999REMMET045METAR SBLP 251800Z 27006KT CAVOK 32/14 Q1014;
0072832880999992011062519004-13267-043417FM-15+0443SBLP V0201801N003119999999Y0099001N1+03201+01401999999ADDMA1101391999999REMMET045METAR SBLP 251900Z 18006KT CAVOK 32/14 Q1014;
0072832880999992011062520004-13267-043417FM-15+0443SBLP V0209999C000019999999Y0099001N1+03101+01501999999ADDMA1101391999999REMMET045METAR SBLP 252000Z 00000KT CAVOK 31/15 Q1014;
0072832880999992011062521004-13267-043417FM-15+0443SBLP V0209999C000019999999Y0099001N1+02901+01501999999ADDMA1101391999999REMMET045METAR SBLP 252100Z 00000KT CAVOK 29/15 Q1014;
0072832880999992011062610004-13267-043417FM-15+0443SBLP V0209999C000019999999Y0099001N1+01901+01501999999ADDMA1101691999999REMMET045METAR SBLP 261000Z 00000KT CAVOK 19/15 Q1017;
0072832880999992011062611004-13267-043417FM-15+0443SBLP V0209999C000019999999Y0099001N1+02201+01501999999ADDMA1101801999999REMMET045METAR SBLP 261100Z 00000KT CAVOK 22/15 Q1018;
0072832880999992011062612004-13267-043417FM-15+0443SBLP V0209999C000019999999Y0099001N1+02501+01501999999ADDMA1101801999999REMMET045METAR SBLP 261200Z 00000KT CAVOK 25/15 Q1018;
0072832880999992011062613004-13267-043417FM-15+0443SBLP V0209999C000019999999Y0099001N1+02701+01501999999ADDMA1101801999999REMMET045METAR SBLP 261300Z 00000KT CAVOK 27/15 Q1018;
0072832880999992011062614004-13267-043417FM-15+0443SBLP V0209999C000019999999Y0099001N1+02901+01401999999ADDMA1101691999999REMMET045METAR SBLP 261400Z 00000KT CAVOK 29/14 Q1017;
0072832880999992011062615004-13267-043417FM-15+0443SBLP V0202701N003119999999Y0099001N1+03001+01401999999ADDMA1101591999999REMMET045METAR SBLP 261500Z 27006KT CAVOK 30/14 Q1016;
0072832880999992011062616004-13267-043417FM-15+0443SBLP V0202401N003119999999Y0099001N1+03101+01401999999ADDMA1101491999999REMMET045METAR SBLP 261600Z 24006KT CAVOK 31/14 Q1015;
0072832880999992011062617004-13267-043417FM-15+0443SBLP V0202401N003119999999Y0099001N1+03201+01401999999ADDMA1101391999999REMMET045METAR SBLP 261700Z 24006KT CAVOK 32/14 Q1014;
0072832880999992011062618004-13267-043417FM-15+0443SBLP V0202101N003119999999Y0099001N1+03301+01401999999ADDMA1101291999999REMMET045METAR SBLP 261800Z 21006KT CAVOK 33/14 Q1013;
0072832880999992011062619004-13267-043417FM-15+0443SBLP V0202101N003119999999Y0099001N1+03201+01401999999ADDMA1101291999999REMMET045METAR SBLP 261900Z 21006KT CAVOK 32/14 Q1013;
0072832880999992011062620004-13267-043417FM-15+0443SBLP V0202101N003119999999Y0099001N1+03101+01401999999ADDMA1101291999999REMMET045METAR SBLP 262000Z 21006KT CAVOK 31/14 Q1013;
0072832880999992011062621004-13267-043417FM-15+0443SBLP V0209999C000019999999Y0099001N1+02901+01501999999ADDMA1101291999999REMMET045METAR SBLP 262100Z 00000KT CAVOK 29/15 Q1013;
0072832880999992011062710004-13267-043417FM-15+0443SBLP V0209999C000019999999Y0099001N1+01801+01401999999ADDMA1101491999999REMMET045METAR SBLP 271000Z 00000KT CAVOK 18/14 Q1015;
0072832880999992011062711004-13267-043417FM-15+0443SBLP V0209999C000019999999Y0099001N1+02001+01501999999ADDMA1101591999999REMMET045METAR SBLP 271100Z 00000KT CAVOK 20/15 Q1016;
0072832880999992011062712004-13267-043417FM-15+0443SBLP V0209999C000019999999Y0099001N1+02301+01301999999ADDMA1101591999999REMMET045METAR SBLP 271200Z 00000KT CAVOK 23/13 Q1016;
0072832880999992011062713004-13267-043417FM-15+0443SBLP V0209999C000019999999Y0099001N1+02301+01301999999ADDMA1101591999999REMMET045METAR SBLP 271300Z 00000KT CAVOK 23/13 Q1016;
0072832880999992011062714004-13267-043417FM-15+0443SBLP V0203001N003119999999Y0099001N1+03001+01501999999ADDMA1101591999999REMMET045METAR SBLP 271400Z 30006KT CAVOK 30/15 Q1016;
0120832880999992011062715004-13267-043417FM-15+0443SBLP V0209999C000012200019N0112651N1+03101+01501999999ADDGA1021+009001999GF102991999999999999999999MA1101491999999REMMET051METAR SBLP 271500Z 00000KT 9999 FEW030 31/15 Q1015;
0120832880999992011062716004-13267-043417FM-15+0443SBLP V0202701N003112200019N0112651N1+03201+01501999999ADDGA1021+009001999GF102991999999999999999999MA1101391999999REMMET051METAR SBLP 271600Z 27006KT 9999 FEW030 32/15 Q1014;
0072832880999992011062717004-13267-043417FM-15+0443SBLP V0202701N003119999999Y0099001N1+03201+01501999999ADDMA1101191999999REMMET045METAR SBLP 271700Z 27006KT CAVOK 32/15 Q1012;
0072832880999992011062718004-13267-043417FM-15+0443SBLP V0202701N003119999999Y0099001N1+03401+01401999999ADDMA1101191999999REMMET045METAR SBLP 271800Z 27006KT CAVOK 34/14 Q1012;
0072832880999992011062719004-13267-043417FM-15+0443SBLP V0201801N003119999999Y0099001N1+03301+01401999999ADDMA1101191999999REMMET045METAR SBLP 271900Z 18006KT CAVOK 33/14 Q1012;
0072832880999992011062720004-13267-043417FM-15+0443SBLP V0209999C000019999999Y0099001N1+03201+01401999999ADDMA1101191999999REMMET045METAR SBLP 272000Z 00000KT CAVOK 32/14 Q1012;
0072832880999992011062721004-13267-043417FM-15+0443SBLP V0209999C000019999999Y0099001N1+03001+01501999999ADDMA1101291999999REMMET045METAR SBLP 272100Z 00000KT CAVOK 30/15 Q1013;
0072832880999992011062810004-13267-043417FM-15+0443SBLP V0202101N001019999999Y0099001N1+01801+01401999999ADDMA1101591999999REMMET045METAR SBLP 281000Z 21002KT CAVOK 18/14 Q1016;
0072832880999992011062811004-13267-043417FM-15+0443SBLP V0209999C000019999999Y0099001N1+02001+01301999999ADDMA1101691999999REMMET045METAR SBLP 281100Z 00000KT CAVOK 20/13 Q1017;
0072832880999992011062812004-13267-043417FM-15+0443SBLP V0202101N001019999999Y0099001N1+02401+01401999999ADDMA1101691999999REMMET045METAR SBLP 281200Z 21002KT CAVOK 24/14 Q1017;
0072832880999992011062813004-13267-043417FM-15+0443SBLP V0209999C000019999999Y0099001N1+02701+01501999999ADDMA1101691999999REMMET045METAR SBLP 281300Z 00000KT CAVOK 27/15 Q1017;
0120832880999992011062814004-13267-043417FM-15+0443SBLP V0202701N002112200019N0112651N1+03001+01301999999ADDGA1021+009001999GF102991999999999999999999MA1101691999999REMMET051METAR SBLP 281400Z 27004KT 9999 FEW030 30/13 Q1017;
0120832880999992011062815004-13267-043417FM-15+0443SBLP V0209999C000012200019N0112651N1+03301+01101999999ADDGA1021+009001999GF102991999999999999999999MA1101591999999REMMET051METAR SBLP 281500Z 00000KT 9999 FEW030 33/11 Q1016;
0072832880999992011062816004-13267-043417FM-15+0443SBLP V0202701N004119999999Y0099001N1+03301+01401999999ADDMA1101491999999REMMET045METAR SBLP 281600Z 27008KT CAVOK 33/14 Q1015;
0072832880999992011062817004-13267-043417FM-15+0443SBLP V0202401N004119999999Y0099001N1+03401+01101999999ADDMA1101391999999REMMET045METAR SBLP 281700Z 24008KT CAVOK 34/11 Q1014;
0072832880999992011062818004-13267-043417FM-15+0443SBLP V0202101N005119999999Y0099001N1+03401+01201999999ADDMA1101291999999REMMET045METAR SBLP 281800Z 21010KT CAVOK 34/12 Q1013;
0072832880999992011062819004-13267-043417FM-15+0443SBLP V0202401N003119999999Y0099001N1+03401+01201999999ADDMA1101291999999REMMET045METAR SBLP 281900Z 24006KT CAVOK 34/12 Q1013;
0072832880999992011062820004-13267-043417FM-15+0443SBLP V0202101N003119999999Y0099001N1+03301+01301999999ADDMA1101291999999REMMET045METAR SBLP 282000Z 21006KT CAVOK 33/13 Q1013;
0072832880999992011062821004-13267-043417FM-15+0443SBLP V0202101N001519999999Y0099001N1+02901+01601999999ADDMA1101291999999REMMET045METAR SBLP 282100Z 21003KT CAVOK 29/16 Q1013;
0072832880999992011062910004-13267-043417FM-15+0443SBLP V0201801N002119999999Y0099001N1+01901+01401999999ADDMA1101801999999REMMET045METAR SBLP 291000Z 18004KT CAVOK 19/14 Q1018;
0072832880999992011062911004-13267-043417FM-15+0443SBLP V0202101N002119999999Y0099001N1+02201+01501999999ADDMA1101901999999REMMET045METAR SBLP 291100Z 21004KT CAVOK 22/15 Q1019;
0072832880999992011062912004-13267-043417FM-15+0443SBLP V0201201N003119999999Y0099001N1+02601+01401999999ADDMA1102001999999REMMET045METAR SBLP 291200Z 12006KT CAVOK 26/14 Q1020;
0072832880999992011062913004-13267-043417FM-15+0443SBLP V0201501N003119999999Y0099001N1+02801+01401999999ADDMA1101901999999REMMET045METAR SBLP 291300Z 15006KT CAVOK 28/14 Q1019;
0072832880999992011062914004-13267-043417FM-15+0443SBLP V0201501N003119999999Y0099001N1+03101+01201999999ADDMA1101901999999REMMET045METAR SBLP 291400Z 15006KT CAVOK 31/12 Q1019;
0120832880999992011062915004-13267-043417FM-15+0443SBLP V0200901N003112200019N0112651N1+03201+01001999999ADDGA1021+009001999GF102991999999999999999999MA1101801999999REMMET051METAR SBLP 291500Z 09006KT 9999 FEW030 32/10 Q1018;
0120832880999992011062916004-13267-043417FM-15+0443SBLP V0202101N005112200019N0112651N1+03201+01201999999ADDGA1021+009001999GF102991999999999999999999MA1101591999999REMMET051METAR SBLP 291600Z 21010KT 9999 FEW030 32/12 Q1016;
0120832880999992011062917004-13267-043417FM-15+0443SBLP V0201501N006212200019N0112651N1+03301+01201999999ADDGA1041+009001999GF104991999999999999999999MA1101591999999REMMET051METAR SBLP 291700Z 15012KT 9999 SCT030 33/12 Q1016;
0120832880999992011062918004-13267-043417FM-15+0443SBLP V0201401N004112200019N0112651N1+03301+01101999999ADDGA1041+009001999GF104991999999999999999999MA1101491999999REMMET051METAR SBLP 291800Z 14008KT 9999 SCT030 33/11 Q1015;
0120832880999992011062919004-13267-043417FM-15+0443SBLP V0201201N005112200019N0112651N1+03301+01001999999ADDGA1021+009001999GF102991999999999999999999MA1101491999999REMMET051METAR SBLP 291900Z 12010KT 9999 FEW030 33/10 Q1015;
0120832880999992011062920004-13267-043417FM-15+0443SBLP V0201201N003112200019N0112651N1+03201+01101999999ADDGA1021+009001999GF102991999999999999999999MA1101491999999REMMET051METAR SBLP 292000Z 12006KT 9999 FEW030 32/11 Q1015;
0072832880999992011062921004-13267-043417FM-15+0443SBLP V0201201N003119999999Y0099001N1+02901+01201999999ADDMA1101491999999REMMET045METAR SBLP 292100Z 12006KT CAVOK 29/12 Q1015;
0072832880999992011063010004-13267-043417FM-15+0443SBLP V0202101N002119999999Y0099001N1+01901+01601999999ADDMA1101801999999REMMET045METAR SBLP 301000Z 21004KT CAVOK 19/16 Q1018;
0072832880999992011063011004-13267-043417FM-15+0443SBLP V0201801N004119999999Y0099001N1+02201+01701999999ADDMA1101801999999REMMET045METAR SBLP 301100Z 18008KT CAVOK 22/17 Q1018;
0120832880999992011063012004-13267-043417FM-15+0443SBLP V0201801N005112200019N0112651N1+02601+01701999999ADDGA1021+009001999GF102991999999999999999999MA1101801999999REMMET051METAR SBLP 301200Z 18010KT 9999 FEW030 26/17 Q1018;
0120832880999992011063013004-13267-043417FM-15+0443SBLP V0200901N003112200019N0112651N1+02901+01701999999ADDGA1041+009001999GF104991999999999999999999MA1101801999999REMMET051METAR SBLP 301300Z 09006KT 9999 SCT030 29/17 Q1018;
0120832880999992011063014004-13267-043417FM-15+0443SBLP V0200801N005112200019N0112651N1+03001+01701999999ADDGA1041+009001999GF104991999999999999999999MA1101691999999REMMET051METAR SBLP 301400Z 08010KT 9999 SCT030 30/17 Q1017;
0120832880999992011063015004-13267-043417FM-15+0443SBLP V0200601N004112200019N0112651N1+03201+01701999999ADDGA1041+009001999GF104991999999999999999999MA1101591999999REMMET051METAR SBLP 301500Z 06008KT 9999 SCT030 32/17 Q1016;
0120832880999992011063016004-13267-043417FM-15+0443SBLP V0200901N003112200019N0112651N1+03201+01801999999ADDGA1041+009001999GF104991999999999999999999MA1101491999999REMMET051METAR SBLP 301600Z 09006KT 9999 SCT030 32/18 Q1015;
0120832880999992011063017004-13267-043417FM-15+0443SBLP V0200901N003112200019N0112651N1+03201+01801999999ADDGA1041+009001999GF104991999999999999999999MA1101391999999REMMET051METAR SBLP 301700Z 09006KT 9999 SCT030 32/18 Q1014;
0120832880999992011063018004-13267-043417FM-15+0443SBLP V0201201N003112200019N0112651N1+03301+01801999999ADDGA1041+009001999GF104991999999999999999999MA1101391999999REMMET051METAR SBLP 301800Z 12006KT 9999 SCT030 33/18 Q1014;
0120832880999992011063019004-13267-043417FM-15+0443SBLP V0200601N003112200019N0112651N1+03301+01701999999ADDGA1041+009001999GF104991999999999999999999MA1101391999999REMMET051METAR SBLP 301900Z 06006KT 9999 SCT030 33/17 Q1014;
0120832880999992011063020004-13267-043417FM-15+0443SBLP V0201201N004112200019N0112651N1+03101+01801999999ADDGA1021+009001999GF102991999999999999999999MA1101391999999REMMET051METAR SBLP 302000Z 12008KT 9999 FEW030 31/18 Q1014;
0072832880999992011063021004-13267-043417FM-15+0443SBLP V0209999C000019999999Y0099001N1+02901+02001999999ADDMA1101491999999REMMET045METAR SBLP 302100Z 00000KT CAVOK 29/20 Q1015;
0072832880999992011070110004-13267-043417FM-15+0443SBLP V0209999C000019999999Y0099001N1+02201+01601999999ADDMA1101801999999REMMET045METAR SBLP 011000Z 00000KT CAVOK 22/16 Q1018;
0072832880999992011070111004-13267-043417FM-15+0443SBLP V0209999C000019999999Y0099001N1+02401+01601999999ADDMA1101801999999REMMET045METAR SBLP 011100Z 00000KT CAVOK 24/16 Q1018;
0120832880999992011070112004-13267-043417FM-15+0443SBLP V0200901N003112200019N0112651N1+02601+01501999999ADDGA1021+009001999GF102991999999999999999999MA1101901999999REMMET051METAR SBLP 011200Z 09006KT 9999 FEW030 26/15 Q1019;
0120832880999992011070113004-13267-043417FM-15+0443SBLP V0200901N003112200019N0112651N1+02801+01401999999ADDGA1021+009001999GF102991999999999999999999MA1101901999999REMMET051METAR SBLP 011300Z 09006KT 9999 FEW030 28/14 Q1019;
0104832880999992011070114004-13267-043417FM-15+0443SBLP V0200901N003112200019N0112651N1+02901+01401999999ADDGA1021+009001999GF102991999999999999999999REMMET050METAR SBLP 011400Z 09006KT 9999 FEW030 29/14 1018;
0072832880999992011070115004-13267-043417FM-15+0443SBLP V0200901N003119999999Y0099001N1+03101+01301999999ADDMA1101691999999REMMET045METAR SBLP 011500Z 09006KT CAVOK 31/13 Q1017;
0072832880999992011070116004-13267-043417FM-15+0443SBLP V0201201N003119999999Y0099001N1+03101+01301999999ADDMA1101591999999REMMET045METAR SBLP 011600Z 12006KT CAVOK 31/13 Q1016;
0072832880999992011070117004-13267-043417FM-15+0443SBLP V0201801N003119999999Y0099001N1+03201+01201999999ADDMA1101491999999REMMET045METAR SBLP 011700Z 18006KT CAVOK 32/12 Q1015;
0072832880999992011070118004-13267-043417FM-15+0443SBLP V0200901N005119999999Y0099001N1+03201+01101999999ADDMA1101491999999REMMET045METAR SBLP 011800Z 09010KT CAVOK 32/11 Q1015;
0072832880999992011070119004-13267-043417FM-15+0443SBLP V0201501N004119999999Y0099001N1+03201+01001999999ADDMA1101491999999REMMET045METAR SBLP 011900Z 15008KT CAVOK 32/10 Q1015;
0072832880999992011070120004-13267-043417FM-15+0443SBLP V0201201N004119999999Y0099001N1+03301+01001999999ADDMA1101491999999REMMET045METAR SBLP 012000Z 12008KT CAVOK 33/10 Q1015;
0072832880999992011070121004-13267-043417FM-15+0443SBLP V0201201N003119999999Y0099001N1+02801+01401999999ADDMA1101491999999REMMET045METAR SBLP 012100Z 12006KT CAVOK 28/14 Q1015;
0072832880999992011070210004-13267-043417FM-15+0443SBLP V0201801N001519999999Y0099001N1+01601+01301999999ADDMA1101801999999REMMET045METAR SBLP 021000Z 18003KT CAVOK 16/13 Q1018;
0072832880999992011070211004-13267-043417FM-15+0443SBLP V0201501N002119999999Y0099001N1+01901+01501999999ADDMA1101901999999REMMET045METAR SBLP 021100Z 15004KT CAVOK 19/15 Q1019;
0072832880999992011070212004-13267-043417FM-15+0443SBLP V0201501N003119999999Y0099001N1+02401+01301999999ADDMA1102001999999REMMET045METAR SBLP 021200Z 15006KT CAVOK 24/13 Q1020;
0072832880999992011070213004-13267-043417FM-15+0443SBLP V0209999C000019999999Y0099001N1+02701+01201999999ADDMA1101901999999REMMET045METAR SBLP 021300Z 00000KT CAVOK 27/12 Q1019;
0072832880999992011070214004-13267-043417FM-15+0443SBLP V0200701N003119999999Y0099001N1+02901+01201999999ADDMA1101901999999REMMET045METAR SBLP 021400Z 07006KT CAVOK 29/12 Q1019;
0072832880999992011070215004-13267-043417FM-15+0443SBLP V0201301N002119999999Y0099001N1+03101+01001999999ADDMA1101801999999REMMET045METAR SBLP 021500Z 13004KT CAVOK 31/10 Q1018;
0072832880999992011070216004-13267-043417FM-15+0443SBLP V0200901N003119999999Y0099001N1+03201+01101999999ADDMA1101591999999REMMET045METAR SBLP 021600Z 09006KT CAVOK 32/11 Q1016;
0072832880999992011070217004-13267-043417FM-15+0443SBLP V0201201N003119999999Y0099001N1+03201+01101999999ADDMA1101491999999REMMET045METAR SBLP 021700Z 12006KT CAVOK 32/11 Q1015;
0072832880999992011070218004-13267-043417FM-15+0443SBLP V0202101N003119999999Y0099001N1+03301+01101999999ADDMA1101391999999REMMET045METAR SBLP 021800Z 21006KT CAVOK 33/11 Q1014;
0072832880999992011070219004-13267-043417FM-15+0443SBLP V0202101N003119999999Y0099001N1+03301+01101999999ADDMA1101291999999REMMET045METAR SBLP 021900Z 21006KT CAVOK 33/11 Q1013;
0072832880999992011070220004-13267-043417FM-15+0443SBLP V0201901N003119999999Y0099001N1+03201+01201999999ADDMA1101291999999REMMET045METAR SBLP 022000Z 19006KT CAVOK 32/12 Q1013;
0072832880999992011070221004-13267-043417FM-15+0443SBLP V0202101N002119999999Y0099001N1+02901+01401999999ADDMA1101291999999REMMET045METAR SBLP 022100Z 21004KT CAVOK 29/14 Q1013;
0072832880999992011070310004-13267-043417FM-15+0443SBLP V0202101N001519999999Y0099001N1+01701+01401999999ADDMA1101691999999REMMET045METAR SBLP 031000Z 21003KT CAVOK 17/14 Q1017;
0072832880999992011070311004-13267-043417FM-15+0443SBLP V0202101N001519999999Y0099001N1+01901+01601999999ADDMA1101801999999REMMET045METAR SBLP 031100Z 21003KT CAVOK 19/16 Q1018;
0072832880999992011070312004-13267-043417FM-15+0443SBLP V0202501N001519999999Y0099001N1+02401+01701999999ADDMA1101801999999REMMET045METAR SBLP 031200Z 25003KT CAVOK 24/17 Q1018;
0072832880999992011070313004-13267-043417FM-15+0443SBLP V0201801N004119999999Y0099001N1+02801+01401999999ADDMA1101801999999REMMET045METAR SBLP 031300Z 18008KT CAVOK 28/14 Q1018;
0072832880999992011070314004-13267-043417FM-15+0443SBLP V0201201N004119999999Y0099001N1+03001+01301999999ADDMA1101801999999REMMET045METAR SBLP 031400Z 12008KT CAVOK 30/13 Q1018;
0072832880999992011070315004-13267-043417FM-15+0443SBLP V0201201N003119999999Y0099001N1+03101+01201999999ADDMA1101691999999REMMET045METAR SBLP 031500Z 12006KT CAVOK 31/12 Q1017;
0072832880999992011070316004-13267-043417FM-15+0443SBLP V0201201N005119999999Y0099001N1+03301+01101999999ADDMA1101491999999REMMET045METAR SBLP 031600Z 12010KT CAVOK 33/11 Q1015;
0072832880999992011070317004-13267-043417FM-15+0443SBLP V0201201N002119999999Y0099001N1+03301+01101999999ADDMA1101391999999REMMET045METAR SBLP 031700Z 12004KT CAVOK 33/11 Q1014;
0072832880999992011070318004-13267-043417FM-15+0443SBLP V0201501N005119999999Y0099001N1+03301+01301999999ADDMA1101291999999REMMET045METAR SBLP 031800Z 15010KT CAVOK 33/13 Q1013;
0072832880999992011070319004-13267-043417FM-15+0443SBLP V0202101N004619999999Y0099001N1+03201+01301999999ADDMA1101291999999REMMET045METAR SBLP 031900Z 21009KT CAVOK 32/13 Q1013;
0072832880999992011070320004-13267-043417FM-15+0443SBLP V0201201N003119999999Y0099001N1+03201+01201999999ADDMA1101291999999REMMET045METAR SBLP 032000Z 12006KT CAVOK 32/12 Q1013;
0072832880999992011070321004-13267-043417FM-15+0443SBLP V0201801N003119999999Y0099001N1+02901+01201999999ADDMA1101291999999REMMET045METAR SBLP 032100Z 18006KT CAVOK 29/12 Q1013;
0072832880999992011070410004-13267-043417FM-15+0443SBLP V0202001N002119999999Y0099001N1+01601+01301999999ADDMA1101591999999REMMET045METAR SBLP 041000Z 20004KT CAVOK 16/13 Q1016;
0072832880999992011070411004-13267-043417FM-15+0443SBLP V0202101N002119999999Y0099001N1+01901+01401999999ADDMA1101691999999REMMET045METAR SBLP 041100Z 21004KT CAVOK 19/14 Q1017;
0072832880999992011070412004-13267-043417FM-15+0443SBLP V0202101N001519999999Y0099001N1+02301+01501999999ADDMA1101801999999REMMET045METAR SBLP 041200Z 21003KT CAVOK 23/15 Q1018;
0072832880999992011070413004-13267-043417FM-15+0443SBLP V0202401N003119999999Y0099001N1+02601+01601999999ADDMA1101801999999REMMET045METAR SBLP 041300Z 24006KT CAVOK 26/16 Q1018;
0072832880999992011070414004-13267-043417FM-15+0443SBLP V0202401N003119999999Y0099001N1+02901+01501999999ADDMA1101691999999REMMET045METAR SBLP 041400Z 24006KT CAVOK 29/15 Q1017;
0072832880999992011070415004-13267-043417FM-15+0443SBLP V0202101N005119999999Y0099001N1+03001+01401999999ADDMA1101591999999REMMET045METAR SBLP 041500Z 21010KT CAVOK 30/14 Q1016;
0072832880999992011070416004-13267-043417FM-15+0443SBLP V0202501N001519999999Y0099001N1+03201+01201999999ADDMA1101491999999REMMET045METAR SBLP 041600Z 25003KT CAVOK 32/12 Q1015;
0072832880999992011070417004-13267-043417FM-15+0443SBLP V0202401N002119999999Y0099001N1+03301+01201999999ADDMA1101391999999REMMET045METAR SBLP 041700Z 24004KT CAVOK 33/12 Q1014;
0072832880999992011070418004-13267-043417FM-15+0443SBLP V0202401N002119999999Y0099001N1+03301+01201999999ADDMA1101391999999REMMET045METAR SBLP 041800Z 24004KT CAVOK 33/12 Q1014;
0072832880999992011070419004-13267-043417FM-15+0443SBLP V0202101N003119999999Y0099001N1+03301+00701999999ADDMA1101291999999REMMET045METAR SBLP 041900Z 21006KT CAVOK 33/07 Q1013;
0072832880999992011070420004-13267-043417FM-15+0443SBLP V0202401N001519999999Y0099001N1+03201+01001999999ADDMA1101291999999REMMET045METAR SBLP 042000Z 24003KT CAVOK 32/10 Q1013;
0072832880999992011070421004-13267-043417FM-15+0443SBLP V0202401N001519999999Y0099001N1+03201+01001999999ADDMA1101291999999REMMET045METAR SBLP 042100Z 24003KT CAVOK 32/10 Q1013;
0072832880999992011070510004-13267-043417FM-15+0443SBLP V0201801N003119999999Y0099001N1+01701+01301999999ADDMA1101691999999REMMET045METAR SBLP 051000Z 18006KT CAVOK 17/13 Q1017;
0072832880999992011070511004-13267-043417FM-15+0443SBLP V0202101N003119999999Y0099001N1+01901+01301999999ADDMA1101691999999REMMET045METAR SBLP 051100Z 21006KT CAVOK 19/13 Q1017;
0072832880999992011070512004-13267-043417FM-15+0443SBLP V0202701N003119999999Y0099001N1+02401+01701999999ADDMA1101801999999REMMET045METAR SBLP 051200Z 27006KT CAVOK 24/17 Q1018;
0072832880999992011070513004-13267-043417FM-15+0443SBLP V0202701N003119999999Y0099001N1+02701+01601999999ADDMA1101801999999REMMET045METAR SBLP 051300Z 27006KT CAVOK 27/16 Q1018;
0072832880999992011070514004-13267-043417FM-15+0443SBLP V0202401N003119999999Y0099001N1+03001+01601999999ADDMA1101691999999REMMET045METAR SBLP 051400Z 24006KT CAVOK 30/16 Q1017;
0072832880999992011070515004-13267-043417FM-15+0443SBLP V0202401N003119999999Y0099001N1+03101+01501999999ADDMA1101591999999REMMET045METAR SBLP 051500Z 24006KT CAVOK 31/15 Q1016;
0072832880999992011070516004-13267-043417FM-15+0443SBLP V0202201N002619999999Y0099001N1+03201+01301999999ADDMA1101491999999REMMET045METAR SBLP 051600Z 22005KT CAVOK 32/13 Q1015;
0072832880999992011070517004-13267-043417FM-15+0443SBLP V0202101N004119999999Y0099001N1+03301+01201999999ADDMA1101391999999REMMET045METAR SBLP 051700Z 21008KT CAVOK 33/12 Q1014;
0072832880999992011070518004-13267-043417FM-15+0443SBLP V0202301N002119999999Y0099001N1+03401+01301999999ADDMA1101291999999REMMET045METAR SBLP 051800Z 23004KT CAVOK 34/13 Q1013;
0072832880999992011070519004-13267-043417FM-15+0443SBLP V0202101N003119999999Y0099001N1+03401+01301999999ADDMA1101291999999REMMET045METAR SBLP 051900Z 21006KT CAVOK 34/13 Q1013;
0072832880999992011070520004-13267-043417FM-15+0443SBLP V0202101N003119999999Y0099001N1+03301+01501999999ADDMA1101391999999REMMET045METAR SBLP 052000Z 21006KT CAVOK 33/15 Q1014;
0072832880999992011070521004-13267-043417FM-15+0443SBLP V0202101N002119999999Y0099001N1+02901+01501999999ADDMA1101391999999REMMET045METAR SBLP 052100Z 21004KT CAVOK 29/15 Q1014;
0072832880999992011070610004-13267-043417FM-15+0443SBLP V0202101N002119999999Y0099001N1+01701+01501999999ADDMA1101801999999REMMET045METAR SBLP 061000Z 21004KT CAVOK 17/15 Q1018;
0072832880999992011070611004-13267-043417FM-15+0443SBLP V0202101N002119999999Y0099001N1+01901+01401999999ADDMA1101801999999REMMET045METAR SBLP 061100Z 21004KT CAVOK 19/14 Q1018;
0072832880999992011070612004-13267-043417FM-15+0443SBLP V0209999C000019999999Y0099001N1+02401+01601999999ADDMA1101901999999REMMET045METAR SBLP 061200Z 00000KT CAVOK 24/16 Q1019;
0072832880999992011070614004-13267-043417FM-15+0443SBLP V0202101N003119999999Y0099001N1+02901+01601999999ADDMA1101801999999REMMET045METAR SBLP 061400Z 21006KT CAVOK 29/16 Q1018;
0072832880999992011070615004-13267-043417FM-15+0443SBLP V0202401N002619999999Y0099001N1+03101+01601999999ADDMA1101691999999REMMET045METAR SBLP 061500Z 24005KT CAVOK 31/16 Q1017;
0072832880999992011070616004-13267-043417FM-15+0443SBLP V0202701N003119999999Y0099001N1+03201+01301999999ADDMA1101591999999REMMET045METAR SBLP 061600Z 27006KT CAVOK 32/13 Q1016;
0072832880999992011070617004-13267-043417FM-15+0443SBLP V0202101N003119999999Y0099001N1+03301+01201999999ADDMA1101491999999REMMET045METAR SBLP 061700Z 21006KT CAVOK 33/12 Q1015;
0072832880999992011070618004-13267-043417FM-15+0443SBLP V0202101N003119999999Y0099001N1+03401+01601999999ADDMA1101391999999REMMET045METAR SBLP 061800Z 21006KT CAVOK 34/16 Q1014;
0072832880999992011070619004-13267-043417FM-15+0443SBLP V0202101N003119999999Y0099001N1+03201+01601999999ADDMA1101391999999REMMET045METAR SBLP 061900Z 21006KT CAVOK 32/16 Q1014;
0072832880999992011070620004-13267-043417FM-15+0443SBLP V0202101N002119999999Y0099001N1+03201+01601999999ADDMA1101391999999REMMET045METAR SBLP 062000Z 21004KT CAVOK 32/16 Q1014;
0072832880999992011070621004-13267-043417FM-15+0443SBLP V0201801N003119999999Y0099001N1+02901+01801999999ADDMA1101391999999REMMET045METAR SBLP 062100Z 18006KT CAVOK 29/18 Q1014;
0072832880999992011070710004-13267-043417FM-15+0443SBLP V0209999C000019999999Y0099001N1+01601+00901999999ADDMA1101591999999REMMET045METAR SBLP 071000Z 00000KT CAVOK 16/09 Q1016;
0072832880999992011070711004-13267-043417FM-15+0443SBLP V0202101N001519999999Y0099001N1+01901+01201999999ADDMA1101691999999REMMET045METAR SBLP 071100Z 21003KT CAVOK 19/12 Q1017;
0072832880999992011070712004-13267-043417FM-15+0443SBLP V0201901N002119999999Y0099001N1+02401+01301999999ADDMA1101691999999REMMET045METAR SBLP 071200Z 19004KT CAVOK 24/13 Q1017;
0072832880999992011070713004-13267-043417FM-15+0443SBLP V0202401N001519999999Y0099001N1+02801+01301999999ADDMA1101691999999REMMET045METAR SBLP 071300Z 24003KT CAVOK 28/13 Q1017;
0072832880999992011070714004-13267-043417FM-15+0443SBLP V0202701N003119999999Y0099001N1+03001+01301999999ADDMA1101691999999REMMET045METAR SBLP 071400Z 27006KT CAVOK 30/13 Q1017;
0072832880999992011070715004-13267-043417FM-15+0443SBLP V0202401N002119999999Y0099001N1+03201+01101999999ADDMA1101491999999REMMET045METAR SBLP 071500Z 24004KT CAVOK 32/11 Q1015;
0072832880999992011070716004-13267-043417FM-15+0443SBLP V0202101N003119999999Y0099001N1+03201+01201999999ADDMA1101391999999REMMET045METAR SBLP 071600Z 21006KT CAVOK 32/12 Q1014;
0072832880999992011070717004-13267-043417FM-15+0443SBLP V0202101N003119999999Y0099001N1+03301+01301999999ADDMA1101291999999REMMET045METAR SBLP 071700Z 21006KT CAVOK 33/13 Q1013;
0072832880999992011070718004-13267-043417FM-15+0443SBLP V0202101N003119999999Y0099001N1+03301+01301999999ADDMA1101291999999REMMET045METAR SBLP 071800Z 21006KT CAVOK 33/13 Q1013;
0072832880999992011071013004-13267-043417FM-15+0443SBLP V0201701N003119999999Y0099001N1+02701+01401999999ADDMA1102201999999REMMET045METAR SBLP 101300Z 17006KT CAVOK 27/14 Q1022;
0072832880999992011071217004-13267-043417FM-15+0443SBLP V0202701N003119999999Y0099001N1+03201+01401999999ADDMA1101591999999REMMET045METAR SBLP 121700Z 27006KT CAVOK 32/14 Q1016;
0072832880999992011071219004-13267-043417FM-15+0443SBLP V0202701N003119999999Y0099001N1+03101+01401999999ADDMA1101391999999REMMET045METAR SBLP 121900Z 27006KT CAVOK 31/14 Q1014;
0072832880999992011071221004-13267-043417FM-15+0443SBLP V0202701N003119999999Y0099001N1+02901+01401999999ADDMA1101491999999REMMET045METAR SBLP 122100Z 27006KT CAVOK 29/14 Q1015;
0072832880999992011071312004-13267-043417FM-15+0443SBLP V0201801N003119999999Y0099001N1+02501+01501999999ADDMA1101901999999REMMET045METAR SBLP 131200Z 18006KT CAVOK 25/15 Q1019;
0120832880999992011071317004-13267-043417FM-15+0443SBLP V0202201N005112200019N0112651N1+03201+01301999999ADDGA1041+009001999GF104991999999999999999999MA1101491999999REMMET051METAR SBLP 131700Z 22010KT 9999 SCT030 32/13 Q1015;
0120832880999992011071319004-13267-043417FM-15+0443SBLP V0202001N003612200019N0112651N1+03101+01401999999ADDGA1041+009001999GF104991999999999999999999MA1101391999999REMMET051METAR SBLP 131900Z 20007KT 9999 SCT030 31/14 Q1014;
0120832880999992011071418004-13267-043417FM-15+0443SBLP V0202101N003112200019N0112651N1+03201+01101999999ADDGA1021+009001999GF102991999999999999999999MA1101291999999REMMET051METAR SBLP 141800Z 21006KT 9999 FEW030 32/11 Q1013;
0120832880999992011071420004-13267-043417FM-15+0443SBLP V0202101N003112200019N0112651N1+03101+01201999999ADDGA1021+009001999GF102991999999999999999999MA1101191999999REMMET051METAR SBLP 142000Z 21006KT 9999 FEW030 31/12 Q1012;
0120832880999992011071421004-13267-043417FM-15+0443SBLP V0209999C000012200019N0112651N1+02901+01401999999ADDGA1021+009001999GF102991999999999999999999MA1101291999999REMMET051METAR SBLP 142100Z 00000KT 9999 FEW030 29/14 Q1013;
0072832880999992011071510004-13267-043417FM-15+0443SBLP V0209999C000019999999Y0099001N1+01701+01201999999ADDMA1101691999999REMMET045METAR SBLP 151000Z 00000KT CAVOK 17/12 Q1017;
0072832880999992011071511004-13267-043417FM-15+0443SBLP V0209999C000019999999Y0099001N1+01901+01401999999ADDMA1101691999999REMMET045METAR SBLP 151100Z 00000KT CAVOK 19/14 Q1017;
0072832880999992011071512004-13267-043417FM-15+0443SBLP V0209999C000019999999Y0099001N1+02401+01301999999ADDMA1101801999999REMMET045METAR SBLP 151200Z 00000KT CAVOK 24/13 Q1018;
0072832880999992011071513004-13267-043417FM-15+0443SBLP V0201501N003119999999Y0099001N1+02601+01401999999ADDMA1101801999999REMMET045METAR SBLP 151300Z 15006KT CAVOK 26/14 Q1018;
0072832880999992011071514004-13267-043417FM-15+0443SBLP V0202701N003119999999Y0099001N1+02901+01401999999ADDMA1101691999999REMMET045METAR SBLP 151400Z 27006KT CAVOK 29/14 Q1017;
0072832880999992011071515004-13267-043417FM-15+0443SBLP V0200901N003119999999Y0099001N1+03101+01401999999ADDMA1101691999999REMMET045METAR SBLP 151500Z 09006KT CAVOK 31/14 Q1017;
0072832880999992011071516004-13267-043417FM-15+0443SBLP V0202701N003119999999Y0099001N1+03201+01301999999ADDMA1101591999999REMMET045METAR SBLP 151600Z 27006KT CAVOK 32/13 Q1016;
0120832880999992011071517004-13267-043417FM-15+0443SBLP V0202701N003112200019N0112651N1+03301+01301999999ADDGA1021+009001999GF102991999999999999999999MA1101491999999REMMET051METAR SBLP 151700Z 27006KT 9999 FEW030 33/13 Q1015;
0115832880999992011071518004-13267-043417FM-15+0443SBLP V0201801N003112200019N9999999N1+03401+01201999999ADDGA1021+009001999GF102991999999999999999999MA1101401999999REMMET046METAR SBLP 151800Z 18006KT FEW030 34/12 Q1014;
0120832880999992011071519004-13267-043417FM-15+0443SBLP V0201801N003112200019N0112651N1+03301+01201999999ADDGA1021+009001999GF102991999999999999999999MA1101391999999REMMET051METAR SBLP 151900Z 18006KT 9999 FEW030 33/12 Q1014;
0072832880999992011071520004-13267-043417FM-15+0443SBLP V0201801N003119999999Y0099001N1+03201+01301999999ADDMA1101391999999REMMET045METAR SBLP 152000Z 18006KT CAVOK 32/13 Q1014;
0072832880999992011071521004-13267-043417FM-15+0443SBLP V0201801N003119999999Y0099001N1+03001+01401999999ADDMA1101391999999REMMET045METAR SBLP 152100Z 18006KR CAVOK 30/14 Q1014;
0072832880999992011071610004-13267-043417FM-15+0443SBLP V0202101N002119999999Y0099001N1+01901+01401999999ADDMA1101691999999REMMET045METAR SBLP 161000Z 21004KT CAVOK 19/14 Q1017;
0072832880999992011071611004-13267-043417FM-15+0443SBLP V0200901N002619999999Y0099001N1+02301+01401999999ADDMA1101801999999REMMET045METAR SBLP 161100Z 09005KT CAVOK 23/14 Q1018;
0072832880999992011071613004-13267-043417FM-15+0443SBLP V0200301N003119999999Y0099001N1+02801+01601999999ADDMA1101901999999REMMET045METAR SBLP 161300Z 03006KT CAVOK 28/16 Q1019;
0072832880999992011071614004-13267-043417FM-15+0443SBLP V0209999C000019999999Y0099001N1+03001+01501999999ADDMA1101901999999REMMET045METAR SBLP 161400Z 00000KT CAVOK 30/15 Q1019;
0072832880999992011071615004-13267-043417FM-15+0443SBLP V0201501N003119999999Y0099001N1+03101+01401999999ADDMA1101801999999REMMET045METAR SBLP 161500Z 15006KT CAVOK 31/14 Q1018;
0072832880999992011071616004-13267-043417FM-15+0443SBLP V0201801N003119999999Y0099001N1+03201+01401999999ADDMA1101591999999REMMET045METAR SBLP 161600Z 18006KT CAVOK 32/14 Q1016;
0072832880999992011071617004-13267-043417FM-15+0443SBLP V0201801N003119999999Y0099001N1+03301+01401999999ADDMA1101591999999REMMET045METAR SBLP 161700Z 18006KT CAVOK 33/14 Q1016;
0072832880999992011071618004-13267-043417FM-15+0443SBLP V0201801N003119999999Y0099001N1+03501+01201999999ADDMA1101491999999REMMET045METAR SBLP 161800Z 18006KT CAVOK 35/12 Q1015;
0072832880999992011071619004-13267-043417FM-15+0443SBLP V0201801N003119999999Y0099001N1+03501+01201999999ADDMA1101491999999REMMET045METAR SBLP 161900Z 18006KT CAVOK 35/12 Q1015;
0072832880999992011071620004-13267-043417FM-15+0443SBLP V0201801N003119999999Y0099001N1+03401+01201999999ADDMA1101491999999REMMET045METAR SBLP 162000Z 18006KT CAVOK 34/12 Q1015;
0072832880999992011071621004-13267-043417FM-15+0443SBLP V0201801N003119999999Y0099001N1+03101+01401999999ADDMA1101591999999REMMET045METAR SBLP 162100Z 18006KT CAVOK 31/14 Q1016;
0072832880999992011071711004-13267-043417FM-15+0443SBLP V0209999C000019999999Y0099001N1+02401+01601999999ADDMA1102001999999REMMET045METAR SBLP 171100Z 00000KT CAVOK 24/16 Q1020;
0072832880999992011071712004-13267-043417FM-15+0443SBLP V0200901N003119999999Y0099001N1+02601+01501999999ADDMA1102001999999REMMET045METAR SBLP 171200Z 09006KT CAVOK 26/15 Q1020;
0072832880999992011071717004-13267-043417FM-15+0443SBLP V0201801N003119999999Y0099001N1+03201+01101999999ADDMA1101591999999REMMET045METAR SBLP 171700Z 18006KT CAVOK 32/11 Q1016;
0072832880999992011071718004-13267-043417FM-15+0443SBLP V0201801N004119999999Y0099001N1+03301+01201999999ADDMA1101491999999REMMET045METAR SBLP 171800Z 18008KT CAVOK 33/12 Q1015;
0072832880999992011071721004-13267-043417FM-15+0443SBLP V0201801N003119999999Y0099001N1+03001+01501999999ADDMA1101491999999REMMET045METAR SBLP 172100Z 18006KT CAVOK 30/15 Q1015;
0072832880999992011071810004-13267-043417FM-15+0443SBLP V0209999C000019999999Y0099001N1+02201+01601999999ADDMA1101691999999REMMET045METAR SBLP 181000Z 00000KT CAVOK 22/16 Q1017;
0072832880999992011071811004-13267-043417FM-15+0443SBLP V0209999C000019999999Y0099001N1+02401+01501999999ADDMA1101901999999REMMET045METAR SBLP 181100Z 00000KT CAVOK 24/15 Q1019;
0072832880999992011071812004-13267-043417FM-15+0443SBLP V0200901N003119999999Y0099001N1+02601+01401999999ADDMA1101901999999REMMET045METAR SBLP 181200Z 09006KT CAVOK 26/14 Q1019;
0072832880999992011071813004-13267-043417FM-15+0443SBLP V0200901N003119999999Y0099001N1+02701+01301999999ADDMA1101901999999REMMET045METAR SBLP 181300Z 09006KT CAVOK 27/13 Q1019;
0072832880999992011071814004-13267-043417FM-15+0443SBLP V0201801N003119999999Y0099001N1+02801+01301999999ADDMA1101901999999REMMET045METAR SBLP 181400Z 18006KT CAVOK 28/13 Q1019;
0072832880999992011071815004-13267-043417FM-15+0443SBLP V0201801N003119999999Y0099001N1+02901+01301999999ADDMA1101801999999REMMET045METAR SBLP 181500Z 18006KT CAVOK 29/13 Q1018;
0072832880999992011071816004-13267-043417FM-15+0443SBLP V0200601N002619999999Y0099001N1+03101+01301999999ADDMA1101591999999REMMET045METAR SBLP 181600Z 06005KT CAVOK 31/13 Q1016;
0072832880999992011071817004-13267-043417FM-15+0443SBLP V0201801N006219999999Y0099001N1+03301+01301999999ADDMA1101491999999REMMET045METAR SBLP 181700Z 18012KT CAVOK 33/13 Q1015;
0072832880999992011071818004-13267-043417FM-15+0443SBLP V0201501N005119999999Y0099001N1+03301+01101999999ADDMA1101391999999REMMET045METAR SBLP 181800Z 15010KT CAVOK 33/11 Q1014;
0072832880999992011071819004-13267-043417FM-15+0443SBLP V0201801N003119999999Y0099001N1+03201+01101999999ADDMA1101391999999REMMET045METAR SBLP 181900Z 18006KT CAVOK 32/11 Q1014;
0072832880999992011071820004-13267-043417FM-15+0443SBLP V0201801N005119999999Y0099001N1+03201+01001999999ADDMA1101391999999REMMET045METAR SBLP 182000Z 18010KT CAVOK 32/10 Q1014;
0072832880999992011071821004-13267-043417FM-15+0443SBLP V0202101N002119999999Y0099001N1+02801+01401999999ADDMA1101491999999REMMET045METAR SBLP 182100Z 21004KT CAVOK 28/14 Q1015;
0072832880999992011071909154-13267-043417FM-15+0443SBLP V0202301N002619999999Y0099001N1+01701+01401999999ADDMA1101691999999REMMET045METAR SBLP 190915Z 23005KT CAVOK 17/14 Q1017;
0072832880999992011071911004-13267-043417FM-15+0443SBLP V0202101N003119999999Y0099001N1+02001+01601999999ADDMA1101901999999REMMET045METAR SBLP 191100Z 21006KT CAVOK 20/16 Q1019;
0072832880999992011071912004-13267-043417FM-15+0443SBLP V0202701N002119999999Y0099001N1+02401+01601999999ADDMA1101901999999REMMET045METAR SBLP 191200Z 27004KT CAVOK 24/16 Q1019;
0072832880999992011071913004-13267-043417FM-15+0443SBLP V0201201N002619999999Y0099001N1+02801+01601999999ADDMA1101901999999REMMET045METAR SBLP 191300Z 12005KT CAVOK 28/16 Q1019;
0121832880999992011071914004-13267-043417FM-15+0443SBLP V0201201N005112200019N0112651N1+03101+01501999999ADDGA1021+009001999GF102991999999999999999999MA1101801999999REMMET052METAR SBLP 191400Z 12010KT 99999 FEW030 31/15 Q1018;
0120832880999992011071915004-13267-043417FM-15+0443SBLP V0200901N003112200019N0112651N1+03201+01401999999ADDGA1021+009001999GF102991999999999999999999MA1101691999999REMMET051METAR SBLP 191500Z 09006KT 9999 FEW030 32/14 Q1017;
0120832880999992011071916004-13267-043417FM-15+0443SBLP V0201501N004112200019N0112651N1+03201+01401999999ADDGA1021+009001999GF102991999999999999999999MA1101591999999REMMET051METAR SBLP 191600Z 15008KT 9999 FEW030 32/14 Q1016;
0120832880999992011071917004-13267-043417FM-15+0443SBLP V0201501N003112200019N0112651N1+03401+01401999999ADDGA1041+009001999GF104991999999999999999999MA1101491999999REMMET051METAR SBLP 191700Z 15006KT 9999 SCT030 34/14 Q1015;
0120832880999992011071918004-13267-043417FM-15+0443SBLP V0200901N003112200019N0112651N1+03401+01401999999ADDGA1041+009001999GF104991999999999999999999MA1101491999999REMMET051METAR SBLP 191800Z 09006KT 9999 SCT030 34/14 Q1015;
0120832880999992011071919004-13267-043417FM-15+0443SBLP V0201101N003112200019N0112651N1+03301+01301999999ADDGA1021+009001999GF102991999999999999999999MA1101391999999REMMET051METAR SBLP 191900Z 11006KT 9999 FEW030 33/13 Q1014;
0120832880999992011071920004-13267-043417FM-15+0443SBLP V0201201N003112200019N0112651N1+03301+01301999999ADDGA1021+009001999GF102991999999999999999999MA1101491999999REMMET051METAR SBLP 192000Z 12006KT 9999 FEW030 33/13 Q1015;
0072832880999992011071921004-13267-043417FM-15+0443SBLP V0209999C000019999999Y0099001N1+02901+01601999999ADDMA1101491999999REMMET045METAR SBLP 192100Z 00000KT CAVOK 29/16 Q1015;
0072832880999992011072010004-13267-043417FM-15+0443SBLP V0209999C000019999999Y0099001N1+01701+01501999999ADDMA1101801999999REMMET045METAR SBLP 201000Z 00000KT CAVOK 17/15 Q1018;
0055832880999992011072011004-13267-043417FM-15+0443SBLP V0201201N003119999999Y0099001N1+02001+01301999999REMMET046METAR SBLP 201100Z 12006KT CAVOK 20/13 Q11019;
0120832880999992011072012004-13267-043417FM-15+0443SBLP V0201201N003112200019N0112651N1+02501+01501999999ADDGA1021+009001999GF102991999999999999999999MA1102001999999REMMET051METAR SBLP 201200Z 12006KT 9999 FEW030 25/15 Q1020;
0120832880999992011072013004-13267-043417FM-15+0443SBLP V0201201N003112200019N0112651N1+02901+01501999999ADDGA1041+009001999GF104991999999999999999999MA1102001999999REMMET051METAR SBLP 201300Z 12006KT 9999 SCT030 29/15 Q1020;
0120832880999992011072014004-13267-043417FM-15+0443SBLP V0209999C000012200019N0112651N1+03001+01601999999ADDGA1041+009001999GF104991999999999999999999MA1101901999999REMMET051METAR SBLP 201400Z 00000KT 9999 SCT030 30/16 Q1019;
0120832880999992011072015004-13267-043417FM-15+0443SBLP V0200901N003112200019N0112651N1+03001+01601999999ADDGA1021+009001999GF102991999999999999999999MA1101901999999REMMET051METAR SBLP 201500Z 09006KT 9999 FEW030 30/16 Q1019;
0072832880999992011072016004-13267-043417FM-15+0443SBLP V0200901N004119999999Y0099001N1+03001+01201999999ADDMA1101801999999REMMET045METAR SBLP 201600Z 09008KT CAVOK 30/12 Q1018;
0072832880999992011072017004-13267-043417FM-15+0443SBLP V0201201N005119999999Y0099001N1+03101+01201999999ADDMA1101691999999REMMET045METAR SBLP 201700Z 12010KT CAVOK 31/12 Q1017;
0072832880999992011072018004-13267-043417FM-15+0443SBLP V0200301N003119999999Y0099001N1+03201+01001999999ADDMA1101591999999REMMET045METAR SBLP 201800Z 03006KT CAVOK 32/10 Q1016;
0072832880999992011072019004-13267-043417FM-15+0443SBLP V0200901N006219999999Y0099001N1+03201+01001999999ADDMA1101591999999REMMET045METAR SBLP 201900Z 09012KT CAVOK 32/10 Q1016;
0072832880999992011072020004-13267-043417FM-15+0443SBLP V0200601N003119999999Y0099001N1+03101+01201999999ADDMA1101591999999REMMET045METAR SBLP 202000Z 06006KT CAVOK 31/12 Q1016;
0072832880999992011072021004-13267-043417FM-15+0443SBLP V0200901N001519999999Y0099001N1+02901+01201999999ADDMA1101591999999REMMET045METAR SBLP 202100Z 09003KT CAVOK 29/12 Q1016;
0072832880999992011072110004-13267-043417FM-15+0443SBLP V0209999C000019999999Y0099001N1+01601+01301999999ADDMA1102101999999REMMET045METAR SBLP 211000Z 00000KT CAVOK 16/13 Q1021;
0072832880999992011072111004-13267-043417FM-15+0443SBLP V0201601N002119999999Y0099001N1+01901+01401999999ADDMA1102101999999REMMET045METAR SBLP 211100Z 16004KT CAVOK 19/14 Q1021;
0072832880999992011072112004-13267-043417FM-15+0443SBLP V0209999C000019999999Y0099001N1+02401+01401999999ADDMA1102201999999REMMET045METAR SBLP 211200Z 00000KT CAVOK 24/14 Q1022;
0072832880999992011072113004-13267-043417FM-15+0443SBLP V0200901N004119999999Y0099001N1+02701+01201999999ADDMA1102201999999REMMET045METAR SBLP 211300Z 09008KT CAVOK 27/12 Q1022;
0072832880999992011072118004-13267-043417FM-15+0443SBLP V0201801N003119999999Y0099001N1+03101+01401999999ADDMA1101591999999REMMET045METAR SBLP 211800Z 18006KT CAVOK 31/14 Q1016;
0072832880999992011072119004-13267-043417FM-15+0443SBLP V0202401N003119999999Y0099001N1+03201+01401999999ADDMA1101591999999REMMET045METAR SBLP 211900Z 24006KT CAVOK 32/14 Q1016;
0072832880999992011072120004-13267-043417FM-15+0443SBLP V0201801N003119999999Y0099001N1+03001+01501999999ADDMA1101591999999REMMET045METAR SBLP 212000Z 18006KT CAVOK 30/15 Q1016;
0072832880999992011072121004-13267-043417FM-15+0443SBLP V0209999C000019999999Y0099001N1+02801+01601999999ADDMA1101591999999REMMET045METAR SBLP 212100Z 00000KT CAVOK 28/16 Q1016;
0072832880999992011072209154-13267-043417FM-15+0443SBLP V0209999C000019999999Y0099001N1+01601+01301999999ADDMA1102001999999REMMET045METAR SBLP 220915Z 00000KT CAVOK 16/13 Q1020;
0072832880999992011072210004-13267-043417FM-15+0443SBLP V0203101N003119999999Y0099001N1+01601+01301999999ADDMA1102001999999REMMET045METAR SBLP 221000Z 31006KT CAVOK 16/13 Q1020;
0072832880999992011072211004-13267-043417FM-15+0443SBLP V0202101N003119999999Y0099001N1+01801+01401999999ADDMA1102101999999REMMET045METAR SBLP 221100Z 21006KT CAVOK 18/14 Q1021;
0072832880999992011072212004-13267-043417FM-15+0443SBLP V0202101N003119999999Y0099001N1+02301+01501999999ADDMA1102101999999REMMET045METAR SBLP 221200Z 21006KT CAVOK 23/15 Q1021;
0120832880999992011072213004-13267-043417FM-15+0443SBLP V0202401N003112200019N0112651N1+02601+01501999999ADDGA1021+009001999GF102991999999999999999999MA1102101999999REMMET051METAR SBLP 221300Z 24006KT 9999 FEW030 26/15 Q1021;
0072832880999992011072219004-13267-043417FM-15+0443SBLP V0209999C000019999999Y0099001N1+03401+01101999999ADDMA1101591999999REMMET045METAR SBLP 221900Z 00000KT CAVOK 34/11 Q1016;
0072832880999992011072221004-13267-043417FM-15+0443SBLP V0209999C000019999999Y0099001N1+03001+01301999999ADDMA1101691999999REMMET045METAR SBLP 222100Z 00000KT CAVOK 30/13 Q1017;
0072832880999992011072309154-13267-043417FM-15+0443SBLP V0209999C000019999999Y0099001N1+01801+01501999999ADDMA1102001999999REMMET045METAR SBLP 230915Z 00000KT CAVOK 18/15 Q1020;
0072832880999992011072310004-13267-043417FM-15+0443SBLP V0209999C000019999999Y0099001N1+02001+01501999999ADDMA1102001999999REMMET045METAR SBLP 231000Z 00000KT CAVOK 20/15 Q1020;
0072832880999992011072311004-13267-043417FM-15+0443SBLP V0209999C000019999999Y0099001N1+02201+01501999999ADDMA1102001999999REMMET045METAR SBLP 231100Z 00000KT CAVOK 22/15 Q1020;
0072832880999992011072312004-13267-043417FM-15+0443SBLP V0200901N003119999999Y0099001N1+02501+01501999999ADDMA1102101999999REMMET045METAR SBLP 231200Z 09006KT CAVOK 25/15 Q1021;
0072832880999992011072313004-13267-043417FM-15+0443SBLP V0200901N003119999999Y0099001N1+02701+01401999999ADDMA1102101999999REMMET045METAR SBLP 231300Z 09006KT CAVOK 27/14 Q1021;
0072832880999992011072314004-13267-043417FM-15+0443SBLP V0200901N003119999999Y0099001N1+02901+01301999999ADDMA1102101999999REMMET045METAR SBLP 231400Z 09006KT CAVOK 29/13 Q1021;
0072832880999992011072315004-13267-043417FM-15+0443SBLP V0200901N003119999999Y0099001N1+03001+01201999999ADDMA1101901999999REMMET045METAR SBLP 231500Z 09006KT CAVOK 30/12 Q1019;
0072832880999992011072316004-13267-043417FM-15+0443SBLP V0201201N007719999999Y0099001N1+03101+01301999999ADDMA1101901999999REMMET045METAR SBLP 231600Z 12015KT CAVOK 31/13 Q1019;
0072832880999992011072317004-13267-043417FM-15+0443SBLP V0201701N003119999999Y0099001N1+03201+01301999999ADDMA1101801999999REMMET045METAR SBLP 231700Z 17006KT CAVOK 32/13 Q1018;
0072832880999992011072318004-13267-043417FM-15+0443SBLP V0200901N006219999999Y0099001N1+03201+01401999999ADDMA1101691999999REMMET045METAR SBLP 231800Z 09012KT CAVOK 32/14 Q1017;
0072832880999992011072319004-13267-043417FM-15+0443SBLP V0201101N006219999999Y0099001N1+03201+01401999999ADDMA1101691999999REMMET045METAR SBLP 231900Z 11012KT CAVOK 32/14 Q1017;
0072832880999992011072320004-13267-043417FM-15+0443SBLP V0201201N004119999999Y0099001N1+03101+01201999999ADDMA1101691999999REMMET045METAR SBLP 232000Z 12008KT CAVOK 31/12 Q1017;
0072832880999992011072321004-13267-043417FM-15+0443SBLP V0201201N006219999999Y0099001N1+02801+01301999999ADDMA1101801999999REMMET045METAR SBLP 232100Z 12012KT CAVOK 28/13 Q1018;
0072832880999992011072409154-13267-043417FM-15+0443SBLP V0201501N003119999999Y0099001N1+01801+01201999999ADDMA1102201999999REMMET045METAR SBLP 240915Z 15006KT CAVOK 18/12 Q1022;
0072832880999992011072410004-13267-043417FM-15+0443SBLP V0201501N005119999999Y0099001N1+01801+01301999999ADDMA1102301999999REMMET045METAR SBLP 241000Z 15010KT CAVOK 18/13 Q1023;
0072832880999992011072411004-13267-043417FM-15+0443SBLP V0201801N006219999999Y0099001N1+02001+01301999999ADDMA1102301999999REMMET045METAR SBLP 241100Z 18012KT CAVOK 20/13 Q1023;
0120832880999992011072412004-13267-043417FM-15+0443SBLP V0201501N005112200019N0112651N1+02401+01401999999ADDGA1021+006001999GF102991999999999999999999MA1102301999999REMMET051METAR SBLP 241200Z 15010KT 9999 FEW020 24/14 Q1023;
0120832880999992011072413004-13267-043417FM-15+0443SBLP V0201401N005110060019N0112651N1+02701+01401999999ADDGA1071+006001999GF107991999999999999999999MA1102301999999REMMET051METAR SBLP 241300Z 14010KT 9999 BKN020 27/14 Q1023;
0120832880999992011072414004-13267-043417FM-15+0443SBLP V0200901N006210060019N0112651N1+02901+01401999999ADDGA1071+006001999GF107991999999999999999999MA1102201999999REMMET051METAR SBLP 241400Z 09012KT 9999 BKN020 29/14 Q1022;
0120832880999992011072415004-13267-043417FM-15+0443SBLP V0201201N006212200019N0112651N1+02901+01501999999ADDGA1041+006001999GF104991999999999999999999MA1102101999999REMMET051METAR SBLP 241500Z 12012KT 9999 SCT020 29/15 Q1021;
0120832880999992011072416004-13267-043417FM-15+0443SBLP V0201201N004112200019N0112651N1+03101+01501999999ADDGA1041+006001999GF104991999999999999999999MA1102001999999REMMET051METAR SBLP 241600Z 12008KT 9999 SCT020 31/15 Q1020;
0120832880999992011072417004-13267-043417FM-15+0443SBLP V0201201N005112200019N0112651N1+03201+01501999999ADDGA1041+009001999GF104991999999999999999999MA1101901999999REMMET051METAR SBLP 241700Z 12010KT 9999 SCT030 32/15 Q1019;
0120832880999992011072418004-13267-043417FM-15+0443SBLP V0201201N005112200019N0112651N1+03101+01501999999ADDGA1041+009001999GF104991999999999999999999MA1101801999999REMMET051METAR SBLP 241800Z 12010KT 9999 SCT030 31/15 Q1018;
0120832880999992011072419004-13267-043417FM-15+0443SBLP V0201201N005112200019N0112651N1+03101+01501999999ADDGA1041+009001999GF104991999999999999999999MA1101801999999REMMET051METAR SBLP 241900Z 12010KT 9999 SCT030 31/15 Q1018;
0120832880999992011072420004-13267-043417FM-15+0443SBLP V0201201N004112200019N0112651N1+02901+01601999999ADDGA1021+009001999GF102991999999999999999999MA1101901999999REMMET051METAR SBLP 242000Z 12008KT 9999 FEW030 29/16 Q1019;
0120832880999992011072421004-13267-043417FM-15+0443SBLP V0201201N003112200019N0112651N1+02801+01701999999ADDGA1021+009001999GF102991999999999999999999MA1101901999999REMMET051METAR SBLP 242100Z 12006KT 9999 FEW030 28/17 Q1019;
0072832880999992011072509154-13267-043417FM-15+0443SBLP V0209999C000019999999Y0099001N1+01501+01101999999ADDMA1102101999999REMMET045METAR SBLP 250915Z 00000KT CAVOK 15/11 Q1021;
0107832880999992011072510004-13267-043417FM-15+0443SBLP V0202101N002119999999Y0099001N1+01601+01301999999ADDMA1999999999999REMMET045METAR SBLP 251000Z 21004KT CAVOK 16/13 Q1017;EQDQ01+101693APOA  Q02 101703APOA  
0072832880999992011072511004-13267-043417FM-15+0443SBLP V0201201N003119999999Y0099001N1+01901+01301999999ADDMA1102201999999REMMET045METAR SBLP 251100Z 12006KT CAVOK 19/13 Q1022;
0072832880999992011072512004-13267-043417FM-15+0443SBLP V0201801N003119999999Y0099001N1+02301+01501999999ADDMA1101901999999REMMET045METAR SBLP 251200Z 18006KT CAVOK 23/15 Q1019;
0120832880999992011072513004-13267-043417FM-15+0443SBLP V0201201N003112200019N0112651N1+02601+01501999999ADDGA1021+009001999GF102991999999999999999999MA1102201999999REMMET051METAR SBLP 251300Z 12006KT 9999 FEW030 26/15 Q1022;
0120832880999992011072514004-13267-043417FM-15+0443SBLP V0201201N004112200019N0112651N1+02701+01801999999ADDGA1021+009001999GF102991999999999999999999MA1102101999999REMMET051METAR SBLP 251400Z 12008KT 9999 FEW030 27/18 Q1021;
0120832880999992011072515004-13267-043417FM-15+0443SBLP V0201201N004112200019N0112651N1+03001+01401999999ADDGA1021+009001999GF102991999999999999999999MA1102001999999REMMET051METAR SBLP 251500Z 12008KT 9999 FEW030 30/14 Q1020;
0120832880999992011072516004-13267-043417FM-15+0443SBLP V0201201N004112200019N0112651N1+03001+01501999999ADDGA1021+009001999GF102991999999999999999999MA1101901999999REMMET051METAR SBLP 251600Z 12008KT 9999 FEW030 30/15 Q1019;
0091832880999992011072517004-13267-043417FM-15+0443SBLP V0202701N003119999999Y0099001N1+03001+01501999999ADDMA1101492999999REMMET045METAR SBLP 251700Z 27006KT CAVOK 30/15 Q1015;EQDQ01+101493APOA  
0120832880999992011072518004-13267-043417FM-15+0443SBLP V0200901N005112200019N0112651N1+03101+01401999999ADDGA1041+009001999GF104991999999999999999999MA1101691999999REMMET051METAR SBLP 251800Z 09010KT 9999 SCT030 31/14 Q1017;
0120832880999992011072519004-13267-043417FM-15+0443SBLP V0201201N004112200019N0112651N1+03101+01401999999ADDGA1021+009001999GF102991999999999999999999MA1101691999999REMMET051METAR SBLP 251900Z 12008KT 9999 FEW030 31/14 Q1017;
0072832880999992011072521004-13267-043417FM-15+0443SBLP V0201201N004119999999Y0099001N1+02801+01201999999ADDMA1101691999999REMMET045METAR SBLP 252100Z 12008KT CAVOK 28/12 Q1017;
0072832880999992011072609154-13267-043417FM-15+0443SBLP V0209999C000019999999Y0099001N1+01801+01501999999ADDMA1102001999999REMMET045METAR SBLP 260915Z 00000KT CAVOK 18/15 Q1020;
0072832880999992011072610004-13267-043417FM-15+0443SBLP V0209999C000019999999Y0099001N1+02001+01401999999ADDMA1102001999999REMMET045METAR SBLP 261000Z 00000KT CAVOK 20/14 Q1020;
0072832880999992011072612004-13267-043417FM-15+0443SBLP V0209999C000019999999Y0099001N1+02501+01301999999ADDMA1102201999999REMMET045METAR SBLP 261200Z 00000KT CAVOK 25/13 Q1022;
0072832880999992011072613004-13267-043417FM-15+0443SBLP V0209999C000019999999Y0099001N1+02701+01301999999ADDMA1102201999999REMMET045METAR SBLP 261300Z 00000KT CAVOK 27/13 Q1022;
0072832880999992011072614004-13267-043417FM-15+0443SBLP V0201801N003119999999Y0099001N1+02801+01101999999ADDMA1102101999999REMMET045METAR SBLP 261400Z 18006KT CAVOK 28/11 Q1021;
0072832880999992011072615004-13267-043417FM-15+0443SBLP V0201801N003119999999Y0099001N1+03001+01101999999ADDMA1101901999999REMMET045METAR SBLP 261500Z 18006KT CAVOK 30/11 Q1019;
0072832880999992011072616004-13267-043417FM-15+0443SBLP V0201201N003119999999Y0099001N1+03001+01201999999ADDMA1101801999999REMMET045METAR SBLP 261600Z 12006KT CAVOK 30/12 Q1018;
0072832880999992011072617004-13267-043417FM-15+0443SBLP V0201201N005119999999Y0099001N1+03201+01101999999ADDMA1101691999999REMMET045METAR SBLP 261700Z 12010KT CAVOK 32/11 Q1017;
0072832880999992011072618004-13267-043417FM-15+0443SBLP V0201201N005119999999Y0099001N1+03201+01201999999ADDMA1101591999999REMMET045METAR SBLP 261800Z 12010KT CAVOK 32/12 Q1016;
0072832880999992011072619004-13267-043417FM-15+0443SBLP V0201201N003119999999Y0099001N1+03301+01201999999ADDMA1101491999999REMMET045METAR SBLP 261900Z 12006KT CAVOK 33/12 Q1015;
0072832880999992011072620004-13267-043417FM-15+0443SBLP V0201501N003119999999Y0099001N1+03101+01301999999ADDMA1101491999999REMMET045METAR SBLP 262000Z 15006KT CAVOK 31/13 Q1015;
0072832880999992011072621004-13267-043417FM-15+0443SBLP V0201201N005119999999Y0099001N1+02801+01401999999ADDMA1101591999999REMMET045METAR SBLP 262100Z 12010KT CAVOK 28/14 Q1016;
0120832880999992011072709154-13267-043417FM-15+0443SBLP V0209999C000012200019N0112651N1+01901+01601999999ADDGA1041+006001999GF104991999999999999999999MA1101801999999REMMET051METAR SBLP 270915Z 00000KT 9999 SCT020 19/16 Q1018;
0120832880999992011072710004-13267-043417FM-15+0443SBLP V0201801N003112200019N0112651N1+02001+01601999999ADDGA1041+006001999GF104991999999999999999999MA1101901999999REMMET051METAR SBLP 271000Z 18006KT 9999 SCT020 20/16 Q1019;
0143832880999992011072711004-13267-043417FM-15+0443SBLP V0201801N003112200019N0112651N1+02201+01701999999ADDGA1021+006001999GA2041+030001999GF104991999999999999999999MA1101901999999REMMET058METAR SBLP 271100Z 18006KT 9999 FEW020 SCT100 22/17 Q1019;
0143832880999992011072712004-13267-043417FM-15+0443SBLP V0201501N004110300019N0112651N1+02501+01601999999ADDGA1041+006001999GA2071+030001999GF107991999999999999999999MA1102001999999REMMET058METAR SBLP 271200Z 15008KT 9999 SCT020 BKN100 25/16 Q1020;
0143832880999992011072713004-13267-043417FM-15+0443SBLP V0201201N004112200019N0112651N1+02501+01701999999ADDGA1041+006001999GA2041+030001999GF104991999999999999999999MA1102001999999REMMET058METAR SBLP 271300Z 12008KT 9999 SCT020 SCT100 25/17 Q1020;
0120832880999992011072714004-13267-043417FM-15+0443SBLP V0201501N004112200019N0112651N1+02801+01601999999ADDGA1041+006001999GF104991999999999999999999MA1101901999999REMMET051METAR SBLP 271400Z 15008KT 9999 SCT020 28/16 Q1019;
0120832880999992011072715004-13267-043417FM-15+0443SBLP V0201201N004112200019N0112651N1+02801+01601999999ADDGA1041+006001999GF104991999999999999999999MA1101801999999REMMET051METAR SBLP 271500Z 12008KT 9999 SCT020 28/16 Q1018;
0120832880999992011072716004-13267-043417FM-15+0443SBLP V0200901N003112200019N0112651N1+02901+01601999999ADDGA1041+006001999GF104991999999999999999999MA1101691999999REMMET051METAR SBLP 271600Z 09006KT 9999 SCT020 29/16 Q1017;
0120832880999992011072717004-13267-043417FM-15+0443SBLP V0200901N003110060019N0112651N1+03001+01601999999ADDGA1071+006001999GF107991999999999999999999MA1101591999999REMMET051METAR SBLP 271700Z 09006KT 9999 BKN020 30/16 Q1016;
0120832880999992011072718004-13267-043417FM-15+0443SBLP V0200901N003112200019N0112651N1+03101+01501999999ADDGA1041+006001999GF104991999999999999999999MA1101491999999REMMET051METAR SBLP 271800Z 09006KT 9999 SCT020 31/15 Q1015;
0120832880999992011072719004-13267-043417FM-15+0443SBLP V0200901N003112200019N0112651N1+03001+01601999999ADDGA1041+009001999GF104991999999999999999999MA1101491999999REMMET051METAR SBLP 271900Z 09006KT 9999 SCT030 30/16 Q1015;
0120832880999992011072721004-13267-043417FM-15+0443SBLP V0200901N003112200019N0112651N1+02801+01601999999ADDGA1021+009001999GF102991999999999999999999MA1101591999999REMMET051METAR SBLP 272100Z 09006KT 9999 FEW030 28/16 Q1016;
0072832880999992011072809154-13267-043417FM-15+0443SBLP V0209999C000019999999Y0099001N1+01801+01601999999ADDMA1101691999999REMMET045METAR SBLP 280915Z 00000KT CAVOK 18/16 Q1017;
0072832880999992011072810004-13267-043417FM-15+0443SBLP V0209999C000019999999Y0099001N1+02001+01501999999ADDMA1101691999999REMMET045METAR SBLP 281000Z 00000KT CAVOK 20/15 Q1017;
0072832880999992011072811004-13267-043417FM-15+0443SBLP V0209999C000019999999Y0099001N1+02301+01401999999ADDMA1101901999999REMMET045METAR SBLP 281100Z 00000KT CAVOK 23/14 Q1019;
0072832880999992011072812004-13267-043417FM-15+0443SBLP V0209999C000019999999Y0099001N1+02301+01401999999ADDMA1101901999999REMMET045METAR SBLP 281200Z 00000KT CAVOK 23/14 Q1019;
0072832880999992011072813004-13267-043417FM-15+0443SBLP V0200901N003119999999Y0099001N1+02801+01301999999ADDMA1101901999999REMMET045METAR SBLP 281300Z 09006KT CAVOK 28/13 Q1019;
0120832880999992011072814004-13267-043417FM-15+0443SBLP V0200901N003112200019N0112651N1+02901+01301999999ADDGA1021+009001999GF102991999999999999999999MA1101801999999REMMET051METAR SBLP 281400Z 09006KT 9999 FEW030 29/13 Q1018;
0120832880999992011072815004-13267-043417FM-15+0443SBLP V0200901N003112200019N0112651N1+02901+01301999999ADDGA1021+009001999GF102991999999999999999999MA1101691999999REMMET051METAR SBLP 281500Z 09006KT 9999 FEW030 29/13 Q1017;
0120832880999992011072816004-13267-043417FM-15+0443SBLP V0200901N004112200019N0112651N1+02901+01201999999ADDGA1041+009001999GF104991999999999999999999MA1101491999999REMMET051METAR SBLP 281600Z 09008KT 9999 SCT030 29/12 Q1015;
0120832880999992011072817004-13267-043417FM-15+0443SBLP V0201101N003112200019N0112651N1+03001+01101999999ADDGA1041+009001999GF104991999999999999999999MA1101391999999REMMET051METAR SBLP 281700Z 11006KT 9999 SCT030 30/11 Q1014;
0120832880999992011072818004-13267-043417FM-15+0443SBLP V0200701N004112200019N0112651N1+03001+01201999999ADDGA1041+009001999GF104991999999999999999999MA1101291999999REMMET051METAR SBLP 281800Z 07008KT 9999 SCT030 30/12 Q1013;
0120832880999992011072819004-13267-043417FM-15+0443SBLP V0200601N003112200019N0112651N1+03101+01201999999ADDGA1041+009001999GF104991999999999999999999MA1101291999999REMMET051METAR SBLP 281900Z 06006KT 9999 SCT030 31/12 Q1013;
0120832880999992011072820004-13267-043417FM-15+0443SBLP V0200901N003112200019N0112651N1+03001+01301999999ADDGA1041+009001999GF104991999999999999999999MA1101291999999REMMET051METAR SBLP 282000Z 09006KT 9999 SCT030 30/13 Q1013;
0120832880999992011072821004-13267-043417FM-15+0443SBLP V0200901N003112200019N0112651N1+02801+01201999999ADDGA1041+009001999GF104991999999999999999999MA1101291999999REMMET051METAR SBLP 282100Z 09006KT 9999 SCT030 28/12 Q1013;
0072832880999992011072909154-13267-043417FM-15+0443SBLP V0209999C000019999999Y0099001N1+02001+01401999999ADDMA1101591999999REMMET045METAR SBLP 290915Z 00000KT CAVOK 20/14 Q1016;
0072832880999992011072910004-13267-043417FM-15+0443SBLP V0209999C000019999999Y0099001N1+01901+01501999999ADDMA1101591999999REMMET045METAR SBLP 291000Z 00000KT CAVOK 19/15 Q1016;
0072832880999992011072911004-13267-043417FM-15+0443SBLP V0202401N002119999999Y0099001N1+02101+01601999999ADDMA1101691999999REMMET045METAR SBLP 291100Z 24004KT CAVOK 21/16 Q1017;
0072832880999992011072912004-13267-043417FM-15+0443SBLP V0202101N002119999999Y0099001N1+02401+01501999999ADDMA1101691999999REMMET045METAR SBLP 291200Z 21004KT CAVOK 24/15 Q1017;
0072832880999992011072913004-13267-043417FM-15+0443SBLP V0202401N003119999999Y0099001N1+02601+01501999999ADDMA1101691999999REMMET045METAR SBLP 291300Z 24006KT CAVOK 26/15 Q1017;
0120832880999992011072914004-13267-043417FM-15+0443SBLP V0202101N003112200019N0112651N1+02801+01401999999ADDGA1041+009001999GF104991999999999999999999MA1101691999999REMMET051METAR SBLP 291400Z 21006KT 9999 SCT030 28/14 Q1017;
0120832880999992011072915004-13267-043417FM-15+0443SBLP V0202101N002112200019N0112651N1+02901+01501999999ADDGA1041+009001999GF104991999999999999999999MA1101591999999REMMET051METAR SBLP 291500Z 21004KT 9999 SCT030 29/15 Q1016;
0072832880999992011072917004-13267-043417FM-15+0443SBLP V0201801N003119999999Y0099001N1+03101+01701999999ADDMA1101291999999REMMET045METAR SBLP 291700Z 18006KT CAVOK 31/17 Q1013;
0072832880999992011072918004-13267-043417FM-15+0443SBLP V0201801N003119999999Y0099001N1+03101+01701999999ADDMA1101291999999REMMET045METAR SBLP 291800Z 18006KT CAVOK 31/17 Q1013;
0072832880999992011072919004-13267-043417FM-15+0443SBLP V0201201N003119999999Y0099001N1+03301+01501999999ADDMA1101081999999REMMET045METAR SBLP 291900Z 12006KT CAVOK 33/15 Q1011;
0072832880999992011072920004-13267-043417FM-15+0443SBLP V0209999C000019999999Y0099001N1+03201+01401999999ADDMA1101081999999REMMET045METAR SBLP 292000Z 00000KT CAVOK 32/14 Q1011;
0072832880999992011072921004-13267-043417FM-15+0443SBLP V0209999C000019999999Y0099001N1+02901+01701999999ADDMA1101191999999REMMET045METAR SBLP 292100Z 00000KT CAVOK 29/17 Q1012;
0072832880999992011073009154-13267-043417FM-15+0443SBLP V0209999C000019999999Y0099001N1+01701+01301999999ADDMA1101591999999REMMET045METAR SBLP 300915Z 00000KT CAVOK 17/13 Q1016;
0072832880999992011073010004-13267-043417FM-15+0443SBLP V0209999C000019999999Y0099001N1+01701+01301999999ADDMA1101691999999REMMET045METAR SBLP 301000Z 00000KT CAVOK 17/13 Q1017;
0072832880999992011073011004-13267-043417FM-15+0443SBLP V0209999C000019999999Y0099001N1+01901+01501999999ADDMA1101691999999REMMET045METAR SBLP 301100Z 00000KT CAVOK 19/15 Q1017;
0072832880999992011073012004-13267-043417FM-15+0443SBLP V0209999C000019999999Y0099001N1+02501+01601999999ADDMA1101801999999REMMET045METAR SBLP 301200Z 00000KT CAVOK 25/16 Q1018;
0072832880999992011073013004-13267-043417FM-15+0443SBLP V0209999C000019999999Y0099001N1+02701+01601999999ADDMA1101801999999REMMET045METAR SBLP 301300Z 00000KT CAVOK 27/16 Q1018;
0107832880999992011073014004-13267-043417FM-15+0443SBLP V0200901N003119999999Y0099001N1+03001+01401999999ADDMA1999999999999REMMET045METAR SBLP 301400Z 09006KT CAVOK 30/14 Q1012;EQDQ01+101193APOA  Q02 101203APOA  
0072832880999992011073015004-13267-043417FM-15+0443SBLP V0200901N003119999999Y0099001N1+03001+01401999999ADDMA1101691999999REMMET045METAR SBLP 301500Z 09006KT CAVOK 30/14 Q1017;
0072832880999992011073016004-13267-043417FM-15+0443SBLP V0200901N004119999999Y0099001N1+03201+01201999999ADDMA1101491999999REMMET045METAR SBLP 301600Z 09008KT CAVOK 32/12 Q1015;
0072832880999992011073017004-13267-043417FM-15+0443SBLP V0200301N003119999999Y0099001N1+03301+01301999999ADDMA1101291999999REMMET045METAR SBLP 301700Z 03006KT CAVOK 33/13 Q1013;
0072832880999992011073018004-13267-043417FM-15+0443SBLP V0200601N004119999999Y0099001N1+03401+01201999999ADDMA1101291999999REMMET045METAR SBLP 301800Z 06008KT CAVOK 34/12 Q1013;
0072832880999992011073019004-13267-043417FM-15+0443SBLP V0200501N003119999999Y0099001N1+03401+00901999999ADDMA1101191999999REMMET045METAR SBLP 301900Z 05006KT CAVOK 34/09 Q1012;
0072832880999992011073020004-13267-043417FM-15+0443SBLP V0201101N002119999999Y0099001N1+03301+01101999999ADDMA1101191999999REMMET045METAR SBLP 302000Z 11004KT CAVOK 33/11 Q1012;
0072832880999992011073021004-13267-043417FM-15+0443SBLP V0200701N002119999999Y0099001N1+03001+01201999999ADDMA1101191999999REMMET045METAR SBLP 302100Z 07004KT CAVOK 30/12 Q1012;
0072832880999992011073109154-13267-043417FM-15+0443SBLP V0202101N002119999999Y0099001N1+01801+01501999999ADDMA1101491999999REMMET045METAR SBLP 310915Z 21004KT CAVOK 18/15 Q1015;
0072832880999992011073110004-13267-043417FM-15+0443SBLP V0201801N001519999999Y0099001N1+01701+01501999999ADDMA1101591999999REMMET045METAR SBLP 311000Z 18003KT CAVOK 17/15 Q1016;
0072832880999992011073111004-13267-043417FM-15+0443SBLP V0201801N001519999999Y0099001N1+02001+01601999999ADDMA1101691999999REMMET045METAR SBLP 311100Z 18003KT CAVOK 20/16 Q1017;
0072832880999992011073112004-13267-043417FM-15+0443SBLP V0202501N002119999999Y0099001N1+02501+01601999999ADDMA1101691999999REMMET045METAR SBLP 311200Z 25004KT CAVOK 25/16 Q1017;
0072832880999992011073113004-13267-043417FM-15+0443SBLP V0202101N002119999999Y0099001N1+02801+01501999999ADDMA1101691999999REMMET045METAR SBLP 311300Z 21004KT CAVOK 28/15 Q1017;
0072832880999992011073114004-13267-043417FM-15+0443SBLP V0202701N002119999999Y0099001N1+02901+01501999999ADDMA1101691999999REMMET045METAR SBLP 311400Z 27004KT CAVOK 29/15 Q1017;
0072832880999992011073115004-13267-043417FM-15+0443SBLP V0203001N003119999999Y0099001N1+03101+01401999999ADDMA1101591999999REMMET045METAR SBLP 311500Z 30006KT CAVOK 31/14 Q1016;
0072832880999992011073116004-13267-043417FM-15+0443SBLP V0209999C000019999999Y0099001N1+03301+01501999999ADDMA1101491999999REMMET045METAR SBLP 311600Z 00000KT CAVOK 33/15 Q1015;
0072832880999992011073117004-13267-043417FM-15+0443SBLP V0209999C000019999999Y0099001N1+03401+01501999999ADDMA1101291999999REMMET045METAR SBLP 311700Z 00000KT CAVOK 34/15 Q1013;
0072832880999992011073118004-13267-043417FM-15+0443SBLP V0202101N003119999999Y0099001N1+03401+01301999999ADDMA1101191999999REMMET045METAR SBLP 311800Z 21006KT CAVOK 34/13 Q1012;
0072832880999992011073119004-13267-043417FM-15+0443SBLP V0202101N003119999999Y0099001N1+03301+01501999999ADDMA1101191999999REMMET045METAR SBLP 311900Z 21006KT CAVOK 33/15 Q1012;
0072832880999992011073120004-13267-043417FM-15+0443SBLP V0209999C000019999999Y0099001N1+03301+01501999999ADDMA1101191999999REMMET045METAR SBLP 312000Z 00000KT CAVOK 33/15 Q1012;
0072832880999992011073121004-13267-043417FM-15+0443SBLP V0209999C000019999999Y0099001N1+03001+01701999999ADDMA1101191999999REMMET045METAR SBLP 312100Z 00000KT CAVOK 30/17 Q1012;
0072832880999992011080109154-13267-043417FM-15+0443SBLP V0209999C000019999999Y0099001N1+02001+01601999999ADDMA1101491999999REMMET045METAR SBLP 010915Z 00000KT CAVOK 20/16 Q1015;
0072832880999992011080110004-13267-043417FM-15+0443SBLP V0209999C000019999999Y0099001N1+02001+01501999999ADDMA1101491999999REMMET045METAR SBLP 011000Z 00000KT CAVOK 20/15 Q1015;
0072832880999992011080111004-13267-043417FM-15+0443SBLP V0209999C000019999999Y0099001N1+02301+01601999999ADDMA1101591999999REMMET045METAR SBLP 011100Z 00000KT CAVOK 23/16 Q1016;
0072832880999992011080112004-13267-043417FM-15+0443SBLP V0209999C000019999999Y0099001N1+02301+01601999999ADDMA1101591999999REMMET045METAR SBLP 011200Z 00000KT CAVOK 23/16 Q1016;
0072832880999992011080113004-13267-043417FM-15+0443SBLP V0202701N003119999999Y0099001N1+02901+01601999999ADDMA1101591999999REMMET045METAR SBLP 011300Z 27006KT CAVOK 29/16 Q1016;
0120832880999992011080114004-13267-043417FM-15+0443SBLP V0202401N003112200019N0112651N1+03001+01701999999ADDGA1021+009001999GF102991999999999999999999MA1101491999999REMMET051METAR SBLP 011400Z 24006KT 9999 FEW030 30/17 Q1015;
0120832880999992011080115004-13267-043417FM-15+0443SBLP V0209999C000012200019N0112651N1+03101+01601999999ADDGA1021+009001999GF102991999999999999999999MA1101391999999REMMET051METAR SBLP 011500Z 00000KT 9999 FEW030 31/16 Q1014;
0120832880999992011080116004-13267-043417FM-15+0443SBLP V0202701N002112200019N0112651N1+03401+01501999999ADDGA1021+009001999GF102991999999999999999999MA1101291999999REMMET051METAR SBLP 011600Z 27004KT 9999 FEW030 34/15 Q1013;
0120832880999992011080117004-13267-043417FM-15+0443SBLP V0209999C000012200019N0112651N1+03501+01201999999ADDGA1021+009001999GF102991999999999999999999MA1101191999999REMMET051METAR SBLP 011700Z 00000KT 9999 FEW030 35/12 Q1012;
0120832880999992011080118004-13267-043417FM-15+0443SBLP V0209999C000012200019N0112651N1+03601+01201999999ADDGA1021+009001999GF102991999999999999999999MA1101081999999REMMET051METAR SBLP 011800Z 00000KT 9999 FEW030 36/12 Q1011;
0120832880999992011080119004-13267-043417FM-15+0443SBLP V0209999C000012200019N0112651N1+03601+01201999999ADDGA1021+009001999GF102991999999999999999999MA1101081999999REMMET051METAR SBLP 011900Z 00000KT 9999 FEW030 36/12 Q1011;
0120832880999992011080120004-13267-043417FM-15+0443SBLP V0202401N001512200019N0112651N1+03501+01101999999ADDGA1021+009001999GF102991999999999999999999MA1101081999999REMMET051METAR SBLP 012000Z 24003KT 9999 FEW030 35/11 Q1011;
0072832880999992011080121004-13267-043417FM-15+0443SBLP V0209999C000019999999Y0099001N1+03201+01301999999ADDMA1101081999999REMMET045METAR SBLP 012100Z 00000KT CAVOK 32/13 Q1011;
0072832880999992011080209154-13267-043417FM-15+0443SBLP V0209999C000019999999Y0099001N1+01901+01401999999ADDMA1101391999999REMMET045METAR SBLP 020915Z 00000KT CAVOK 19/14 Q1014;
0072832880999992011080210004-13267-043417FM-15+0443SBLP V0209999C000019999999Y0099001N1+02101+01401999999ADDMA1101391999999REMMET045METAR SBLP 021000Z 00000KT CAVOK 21/14 Q1014;
0072832880999992011080211004-13267-043417FM-15+0443SBLP V0209999C000019999999Y0099001N1+02301+01401999999ADDMA1101491999999REMMET045METAR SBLP 021100Z 00000KT CAVOK 23/14 Q1015;
0072832880999992011080212004-13267-043417FM-15+0443SBLP V0209999C000019999999Y0099001N1+02701+01401999999ADDMA1101591999999REMMET045METAR SBLP 021200Z 00000KT CAVOK 27/14 Q1016;
0072832880999992011080213004-13267-043417FM-15+0443SBLP V0209999C000019999999Y0099001N1+02701+01401999999ADDMA1101591999999REMMET045METAR SBLP 021300Z 00000KT CAVOK 27/14 Q1016;
0072832880999992011080214004-13267-043417FM-15+0443SBLP V0203601N003119999999Y0099001N1+03201+01401999999ADDMA1101491999999REMMET045METAR SBLP 021400Z 36006KT CAVOK 32/14 Q1015;
0120832880999992011080215004-13267-043417FM-15+0443SBLP V0203001N002112200019N0112651N1+03401+01301999999ADDGA1021+009001999GF102991999999999999999999MA1101291999999REMMET051METAR SBLP 021500Z 30004KT 9999 FEW030 34/13 Q1013;
0120832880999992011080216004-13267-043417FM-15+0443SBLP V0200401N002112200019N0112651N1+03401+01601999999ADDGA1021+009001999GF102991999999999999999999MA1101191999999REMMET051METAR SBLP 021600Z 04004KT 9999 FEW030 34/16 Q1012;
0120832880999992011080217004-13267-043417FM-15+0443SBLP V0209999C000012200019N0112651N1+03601+01501999999ADDGA1021+009001999GF102991999999999999999999MA1101081999999REMMET051METAR SBLP 021700Z 00000KT 9999 FEW030 36/15 Q1011;
0120832880999992011080218004-13267-043417FM-15+0443SBLP V0203601N002612200019N0112651N1+03601+01401999999ADDGA1021+009001999GF102991999999999999999999MA1101021999999REMMET051METAR SBLP 021800Z 36005KT 9999 FEW030 36/14 Q1010;
0120832880999992011080219004-13267-043417FM-15+0443SBLP V0209999C000012200019N0112651N1+03701+01201999999ADDGA1021+009001999GF102991999999999999999999MA1101021999999REMMET051METAR SBLP 021900Z 00000KT 9999 FEW030 37/12 Q1010;
0072832880999992011080220004-13267-043417FM-15+0443SBLP V0209999C000019999999Y0099001N1+03601+01301999999ADDMA1101021999999REMMET045METAR SBLP 022000Z 00000KT CAVOK 36/13 Q1010;
0072832880999992011080221004-13267-043417FM-15+0443SBLP V0201201N002119999999Y0099001N1+03201+01301999999ADDMA1101021999999REMMET045METAR SBLP 022100Z 12004KT CAVOK 32/13 Q1010;
0072832880999992011080309154-13267-043417FM-15+0443SBLP V0209999C000019999999Y0099001N1+02201+01201999999ADDMA1101391999999REMMET045METAR SBLP 030915Z 00000KT CAVOK 22/12 Q1014;
0072832880999992011080310004-13267-043417FM-15+0443SBLP V0209999C000019999999Y0099001N1+02101+01501999999ADDMA1101491999999REMMET045METAR SBLP 031000Z 00000KT CAVOK 21/15 Q1015;
0072832880999992011080311004-13267-043417FM-15+0443SBLP V0209999C000019999999Y0099001N1+02301+01601999999ADDMA1101491999999REMMET045METAR SBLP 031100Z 00000KT CAVOK 23/16 Q1015;
0072832880999992011080312004-13267-043417FM-15+0443SBLP V0203101N001519999999Y0099001N1+02801+01501999999ADDMA1101591999999REMMET045METAR SBLP 031200Z 31003KT CAVOK 28/15 Q1016;
0072832880999992011080313004-13267-043417FM-15+0443SBLP V0203601N002619999999Y0099001N1+03001+01501999999ADDMA1101591999999REMMET045METAR SBLP 031300Z 36005KT CAVOK 30/15 Q1016;
0072832880999992011080314004-13267-043417FM-15+0443SBLP V0209999C000019999999Y0099001N1+03301+01501999999ADDMA1101491999999REMMET045METAR SBLP 031400Z 00000KT CAVOK 33/15 Q1015;
0120832880999992011080315004-13267-043417FM-15+0443SBLP V0203301N003112200019N0112651N1+03501+01601999999ADDGA1021+009001999GF102991999999999999999999MA1101491999999REMMET051METAR SBLP 031500Z 33006KT 9999 FEW030 35/16 Q1015;
0120832880999992011080316004-13267-043417FM-15+0443SBLP V0202701N002112200019N0112651N1+03601+01201999999ADDGA1021+009001999GF102991999999999999999999MA1101391999999REMMET051METAR SBLP 031600Z 27004KT 9999 FEW030 36/12 Q1014;
0120832880999992011080317004-13267-043417FM-15+0443SBLP V0203301N003112200019N0112651N1+03701+00901999999ADDGA1021+009001999GF102991999999999999999999MA1101291999999REMMET051METAR SBLP 031700Z 33006KT 9999 FEW030 37/09 Q1013;
0120832880999992011080318004-13267-043417FM-15+0443SBLP V0203301N003112200019N0112651N1+03701+00901999999ADDGA1021+009001999GF102991999999999999999999MA1101291999999REMMET051METAR SBLP 031800Z 33006KT 9999 FEW030 37/09 Q1013;
0120832880999992011080319004-13267-043417FM-15+0443SBLP V0209999C000012200019N0112651N1+03801+00901999999ADDGA1021+009001999GF102991999999999999999999MA1101191999999REMMET051METAR SBLP 031900Z 00000KT 9999 FEW030 38/09 Q1012;
0072832880999992011080320004-13267-043417FM-15+0443SBLP V0209999C000019999999Y0099001N1+03701+01101999999ADDMA1101191999999REMMET045METAR SBLP 032000Z 00000KT CAVOK 37/11 Q1012;
0072832880999992011080321004-13267-043417FM-15+0443SBLP V0209999C000019999999Y0099001N1+03301+01101999999ADDMA1101191999999REMMET045METAR SBLP 032100Z 00000KT CAVOK 33/11 Q1012;
0120832880999992011080410004-13267-043417FM-15+0443SBLP V0202401N001512200019N0112651N1+02301+01401999999ADDGA1021+009001999GF102991999999999999999999MA1101591999999REMMET051METAR SBLP 041000Z 24003KT 9999 FEW030 23/14 Q1016;
0120832880999992011080411004-13267-043417FM-15+0443SBLP V0202401N005112200019N0112651N1+02501+01601999999ADDGA1021+009001999GF102991999999999999999999MA1101691999999REMMET051METAR SBLP 041100Z 24010KT 9999 FEW030 25/16 Q1017;
0072832880999992011080412004-13267-043417FM-15+0443SBLP V0202001N003119999999Y0099001N1+02801+01601999999ADDMA1101801999999REMMET045METAR SBLP 041200Z 20006KT CAVOK 28/16 Q1018;
0072832880999992011080413004-13267-043417FM-15+0443SBLP V0202101N006219999999Y0099001N1+03001+01501999999ADDMA1101801999999REMMET045METAR SBLP 041300Z 21012KT CAVOK 30/15 Q1018;
0072832880999992011080414004-13267-043417FM-15+0443SBLP V0202401N005119999999Y0099001N1+03201+01501999999ADDMA1101691999999REMMET045METAR SBLP 041400Z 24010KT CAVOK 32/15 Q1017;
0072832880999992011080415004-13267-043417FM-15+0443SBLP V0202101N005119999999Y0099001N1+03301+01501999999ADDMA1101591999999REMMET045METAR SBLP 041500Z 21010KT CAVOK 33/15 Q1016;
0072832880999992011080416004-13267-043417FM-15+0443SBLP V0202101N004119999999Y0099001N1+03501+01501999999ADDMA1101491999999REMMET045METAR SBLP 041600Z 21008KT CAVOK 35/15 Q1015;
0120832880999992011080417004-13267-043417FM-15+0443SBLP V0202101N003112200019N0112651N1+03501+01401999999ADDGA1021+009001999GF102991999999999999999999MA1101391999999REMMET051METAR SBLP 041700Z 21006KT 9999 FEW030 35/14 Q1014;
0072832880999992011080418004-13267-043417FM-15+0443SBLP V0202401N002119999999Y0099001N1+03601+01401999999ADDMA1101291999999REMMET045METAR SBLP 041800Z 24004KT CAVOK 36/14 Q1013;
0120832880999992011080419004-13267-043417FM-15+0443SBLP V0202101N004112200019N0112651N1+03501+01501999999ADDGA1021+009001999GF102991999999999999999999MA1101291999999REMMET051METAR SBLP 041900Z 21008KT 9999 FEW030 35/15 Q1013;
0120832880999992011080420004-13267-043417FM-15+0443SBLP V0202401N002112200019N0112651N1+03401+01501999999ADDGA1021+009001999GF102991999999999999999999MA1101291999999REMMET051METAR SBLP 042000Z 24004KT 9999 FEW030 34/15 Q1013;
0072832880999992011080421004-13267-043417FM-15+0443SBLP V0209999C000019999999Y0099001N1+03201+01601999999ADDMA1101291999999REMMET045METAR SBLP 042100Z 00000KT CAVOK 32/16 Q1013;
0072832880999992011080510004-13267-043417FM-15+0443SBLP V0209999C000019999999Y0099001N1+02101+01601999999ADDMA1101691999999REMMET045METAR SBLP 051000Z 00000KT CAVOK 21/16 Q1017;
0072832880999992011080511004-13267-043417FM-15+0443SBLP V0201201N002119999999Y0099001N1+02501+01501999999ADDMA1101801999999REMMET045METAR SBLP 051100Z 12004KT CAVOK 25/15 Q1018;
0072832880999992011080512004-13267-043417FM-15+0443SBLP V0201201N002119999999Y0099001N1+02501+01501999999ADDMA1101801999999REMMET045METAR SBLP 051200Z 12004KT CAVOK 25/15 Q1018;
0072832880999992011080513004-13267-043417FM-15+0443SBLP V0200901N003119999999Y0099001N1+03101+01401999999ADDMA1101901999999REMMET045METAR SBLP 051300Z 09006KT CAVOK 31/14 Q1019;
0072832880999992011080514004-13267-043417FM-15+0443SBLP V0201501N003119999999Y0099001N1+03301+01501999999ADDMA1101901999999REMMET045METAR SBLP 051400Z 15006KT CAVOK 33/15 Q1019;
0072832880999992011080515004-13267-043417FM-15+0443SBLP V0201501N003119999999Y0099001N1+03401+01401999999ADDMA1101801999999REMMET045METAR SBLP 051500Z 15006KT CAVOK 34/14 Q1018;
0072832880999992011080516004-13267-043417FM-15+0443SBLP V0201501N005119999999Y0099001N1+03501+01201999999ADDMA1101691999999REMMET045METAR SBLP 051600Z 15010KT CAVOK 35/12 Q1017;
0072832880999992011080517004-13267-043417FM-15+0443SBLP V0201501N004119999999Y0099001N1+03601+01001999999ADDMA1101591999999REMMET045METAR SBLP 051700Z 15008KT CAVOK 36/10 Q1016;
0072832880999992011080518004-13267-043417FM-15+0443SBLP V0200901N004119999999Y0099001N1+03601+01101999999ADDMA1101591999999REMMET045METAR SBLP 051800Z 09008KT CAVOK 36/11 Q1016;
0072832880999992011080519004-13267-043417FM-15+0443SBLP V0201201N005119999999Y0099001N1+03601+00901999999ADDMA1101591999999REMMET045METAR SBLP 051900Z 12010KT CAVOK 36/09 Q1016;
0072832880999992011080520004-13267-043417FM-15+0443SBLP V0201201N005119999999Y0099001N1+03601+00901999999ADDMA1101591999999REMMET045METAR SBLP 052000Z 12010KT CAVOK 36/09 Q1016;
0072832880999992011080521004-13267-043417FM-15+0443SBLP V0201201N003119999999Y0099001N1+03201+01001999999ADDMA1101691999999REMMET045METAR SBLP 052100Z 12006KT CAVOK 32/10 Q1017;
0072832880999992011080610004-13267-043417FM-15+0443SBLP V0209999C000019999999Y0099001N1+02201+01601999999ADDMA1102201999999REMMET045METAR SBLP 061000Z 00000KT CAVOK 22/16 Q1022;
0072832880999992011080611004-13267-043417FM-15+0443SBLP V0209999C000019999999Y0099001N1+02401+01701999999ADDMA1102301999999REMMET045METAR SBLP 061100Z 00000KT CAVOK 24/17 Q1023;
0072832880999992011080612004-13267-043417FM-15+0443SBLP V0201201N004119999999Y0099001N1+02701+01701999999ADDMA1102301999999REMMET045METAR SBLP 061200Z 12008KT CAVOK 27/17 Q1023;
0120832880999992011080613004-13267-043417FM-15+0443SBLP V0201101N001512200019N0112651N1+02801+01601999999ADDGA1021+009001999GF102991999999999999999999MA1102301999999REMMET051METAR SBLP 061300Z 11003KT 9999 FEW030 28/16 Q1023;
0120832880999992011080614004-13267-043417FM-15+0443SBLP V0202101N002112200019N0112651N1+03001+01501999999ADDGA1021+009001999GF102991999999999999999999MA1102201999999REMMET051METAR SBLP 061400Z 21004KT 9999 FEW030 30/15 Q1022;
0120832880999992011080615004-13267-043417FM-15+0443SBLP V0201501N003112200019N0112651N1+03201+01601999999ADDGA1021+009001999GF102991999999999999999999MA1102001999999REMMET051METAR SBLP 061500Z 15006KT 9999 FEW030 32/16 Q1020;
0120832880999992011080616004-13267-043417FM-15+0443SBLP V0200901N003112200019N0112651N1+03301+01601999999ADDGA1041+009001999GF104991999999999999999999MA1101901999999REMMET051METAR SBLP 061600Z 09006KT 9999 SCT030 33/16 Q1019;
0143832880999992011080617004-13267-043417FM-15+0443SBLP V0200901N003112200019N0112651N1+03301+01601999999ADDGA1041+009001999GA2041+030001999GF104991999999999999999999MA1101801999999REMMET058METAR SBLP 061700Z 09006KT 9999 SCT030 SCT100 33/16 Q1018;
0143832880999992011080618004-13267-043417FM-15+0443SBLP V0201201N003110300019N0112651N1+03101+01601999999ADDGA1041+009001999GA2071+030001999GF107991999999999999999999MA1101801999999REMMET058METAR SBLP 061800Z 12006KT 9999 SCT030 BKN100 31/16 Q1018;
0143832880999992011080619004-13267-043417FM-15+0443SBLP V0200901N003110300019N0112651N1+02901+01901999999ADDGA1041+009001999GA2071+030001999GF107991999999999999999999MA1101691999999REMMET058METAR SBLP 061900Z 09006KT 9999 SCT030 BKN100 29/19 Q1017;
0143832880999992011080620004-13267-043417FM-15+0443SBLP V0201201N004110300019N0112651N1+02801+01901999999ADDGA1041+009001999GA2071+030001999GF107991999999999999999999MA1101801999999REMMET058METAR SBLP 062000Z 12008KT 9999 SCT030 BKN100 28/19 Q1018;
0143832880999992011080621004-13267-043417FM-15+0443SBLP V0200901N003112200019N0112651N1+02701+02001999999ADDGA1021+009001999GA2041+030001999GF104991999999999999999999MA1101801999999REMMET058METAR SBLP 062100Z 09006KT 9999 FEW030 SCT100 27/20 Q1018;
0072832880999992011080710004-13267-043417FM-15+0443SBLP V0201501N001519999999Y0099001N1+02201+01701999999ADDMA1102101999999REMMET045METAR SBLP 071000Z 15003KT CAVOK 22/17 Q1021;
0072832880999992011080711004-13267-043417FM-15+0443SBLP V0201201N003119999999Y0099001N1+02501+01701999999ADDMA1102101999999REMMET045METAR SBLP 071100Z 12006KT CAVOK 25/17 Q1021;
0120832880999992011080712004-13267-043417FM-15+0443SBLP V0201301N004112200019N0112651N1+02701+01601999999ADDGA1021+009001999GF102991999999999999999999MA1102201999999REMMET051METAR SBLP 071200Z 13008KT 9999 FEW030 27/16 Q1022;
0120832880999992011080713004-13267-043417FM-15+0443SBLP V0201501N004112200019N0112651N1+02901+01601999999ADDGA1021+009001999GF102991999999999999999999MA1102101999999REMMET051METAR SBLP 071300Z 15008KT 9999 FEW030 29/16 Q1021;
0120832880999992011080714004-13267-043417FM-15+0443SBLP V0201301N002112200019N0112651N1+03101+01501999999ADDGA1021+009001999GF102991999999999999999999MA1102101999999REMMET051METAR SBLP 071400Z 13004KT 9999 FEW030 31/15 Q1021;
0120832880999992011080715004-13267-043417FM-15+0443SBLP V0201301N002112200019N0112651N1+03101+01501999999ADDGA1021+009001999GF102991999999999999999999MA1102101999999REMMET051METAR SBLP 071500Z 13004KT 9999 FEW030 31/15 Q1021;
0120832880999992011080716004-13267-043417FM-15+0443SBLP V0201501N006212200019N0112651N1+03401+01301999999ADDGA1021+009001999GF102991999999999999999999MA1101801999999REMMET051METAR SBLP 071600Z 15012KT 9999 FEW030 34/13 Q1018;
0120832880999992011080717004-13267-043417FM-15+0443SBLP V0201801N004112200019N0112651N1+03401+01301999999ADDGA1021+009001999GF102991999999999999999999MA1101691999999REMMET051METAR SBLP 071700Z 18008KT 9999 FEW030 34/13 Q1017;
0120832880999992011080718004-13267-043417FM-15+0443SBLP V0200901N005112200019N0112651N1+03501+01301999999ADDGA1041+009001999GF104991999999999999999999MA1101591999999REMMET051METAR SBLP 071800Z 09010KT 9999 SCT030 35/13 Q1016;
0120832880999992011080719004-13267-043417FM-15+0443SBLP V0200901N004112200019N0112651N1+03401+01401999999ADDGA1041+009001999GF104991999999999999999999MA1101591999999REMMET051METAR SBLP 071900Z 09008KT 9999 SCT030 34/14 Q1016;
0120832880999992011080720004-13267-043417FM-15+0443SBLP V0201201N005112200019N0112651N1+03301+01401999999ADDGA1021+009001999GF102991999999999999999999MA1101591999999REMMET051METAR SBLP 072000Z 12010KT 9999 FEW030 33/14 Q1016;
0072832880999992011080721004-13267-043417FM-15+0443SBLP V0201201N005119999999Y0099001N1+03201+01401999999ADDMA1101691999999REMMET045METAR SBLP 072100Z 12010KT CAVOK 32/14 Q1017;
0081832880999992011080810004-13267-043417FM-15+0443SBLP V0209999C000019999999Y0099001N1+01901+01601999999ADDMA1102001999999REMMET054METAR SBLP 081000Z 0810000Z 00000KT CAVOK 19/16 Q1020;
0072832880999992011080811004-13267-043417FM-15+0443SBLP V0202101N002619999999Y0099001N1+02201+01701999999ADDMA1102101999999REMMET045METAR SBLP 081100Z 21005KT CAVOK 22/17 Q1021;
0072832880999992011080812004-13267-043417FM-15+0443SBLP V0209999C000019999999Y0099001N1+02501+01501999999ADDMA1102101999999REMMET045METAR SBLP 081200Z 00000KT CAVOK 25/15 Q1021;
0072832880999992011080813004-13267-043417FM-15+0443SBLP V0202101N002119999999Y0099001N1+02801+01401999999ADDMA1102101999999REMMET045METAR SBLP 081300Z 21004KT CAVOK 28/14 Q1021;
0072832880999992011080814004-13267-043417FM-15+0443SBLP V0209999C000019999999Y0099001N1+03001+01501999999ADDMA1102001999999REMMET045METAR SBLP 081400Z 00000KT CAVOK 30/15 Q1020;
0072832880999992011080815004-13267-043417FM-15+0443SBLP V0202401N003119999999Y0099001N1+03101+01301999999ADDMA1101901999999REMMET045METAR SBLP 081500Z 24006KT CAVOK 31/13 Q1019;
0072832880999992011080816004-13267-043417FM-15+0443SBLP V0209999C000019999999Y0099001N1+03201+01301999999ADDMA1101691999999REMMET045METAR SBLP 081600Z 00000KT CAVOK 32/13 Q1017;
0072832880999992011080817004-13267-043417FM-15+0443SBLP V0209999C000019999999Y0099001N1+03301+01201999999ADDMA1101591999999REMMET045METAR SBLP 081700Z 00000KT CAVOK 33/12 Q1016;
0072832880999992011080818004-13267-043417FM-15+0443SBLP V0202701N003119999999Y0099001N1+03301+01201999999ADDMA1101491999999REMMET045METAR SBLP 081800Z 27006KT CAVOK 33/12 Q1015;
0072832880999992011080819004-13267-043417FM-15+0443SBLP V0202401N003119999999Y0099001N1+03401+01201999999ADDMA1101491999999REMMET045METAR SBLP 081900Z 24006KT CAVOK 34/12 Q1015;
0072832880999992011080820004-13267-043417FM-15+0443SBLP V0202101N003119999999Y0099001N1+03301+01301999999ADDMA1101491999999REMMET045METAR SBLP 082000Z 21006KT CAVOK 33/13 Q1015;
0072832880999992011080821004-13267-043417FM-15+0443SBLP V0209999C000019999999Y0099001N1+03001+01401999999ADDMA1101491999999REMMET045METAR SBLP 082100Z 00000KT CAVOK 30/14 Q1015;
0072832880999992011080910004-13267-043417FM-15+0443SBLP V0202101N002119999999Y0099001N1+01701+01301999999ADDMA1101901999999REMMET045METAR SBLP 091000Z 21004KT CAVOK 17/13 Q1019;
0072832880999992011080911004-13267-043417FM-15+0443SBLP V0209999C000019999999Y0099001N1+02101+01301999999ADDMA1101901999999REMMET045METAR SBLP 091100Z 00000KT CAVOK 21/13 Q1019;
0072832880999992011080912004-13267-043417FM-15+0443SBLP V0200301N003119999999Y0099001N1+02701+01301999999ADDMA1101901999999REMMET045METAR SBLP 091200Z 03006KT CAVOK 27/13 Q1019;
0072832880999992011080913004-13267-043417FM-15+0443SBLP V0202101N002119999999Y0099001N1+02901+01401999999ADDMA1101901999999REMMET045METAR SBLP 091300Z 21004KT CAVOK 29/14 Q1019;
0072832880999992011080914004-13267-043417FM-15+0443SBLP V0202401N004119999999Y0099001N1+03101+01501999999ADDMA1101801999999REMMET045METAR SBLP 091400Z 24008KT CAVOK 31/15 Q1018;
0072832880999992011080915004-13267-043417FM-15+0443SBLP V0202701N003119999999Y0099001N1+03101+01301999999ADDMA1101691999999REMMET045METAR SBLP 091500Z 27006KT CAVOK 31/13 Q1017;
0072832880999992011080916004-13267-043417FM-15+0443SBLP V0202401N003119999999Y0099001N1+03301+01301999999ADDMA1101591999999REMMET045METAR SBLP 091600Z 24006KT CAVOK 33/13 Q1016;
0072832880999992011080917004-13267-043417FM-15+0443SBLP V0202701N003119999999Y0099001N1+03301+01401999999ADDMA1101491999999REMMET045METAR SBLP 091700Z 27006KT CAVOK 33/14 Q1015;
0072832880999992011080918004-13267-043417FM-15+0443SBLP V0202101N003119999999Y0099001N1+03401+01301999999ADDMA1101391999999REMMET045METAR SBLP 091800Z 21006KT CAVOK 34/13 Q1014;
0072832880999992011080919004-13267-043417FM-15+0443SBLP V0202401N003119999999Y0099001N1+03401+01301999999ADDMA1101391999999REMMET045METAR SBLP 091900Z 24006KT CAVOK 34/13 Q1014;
0072832880999992011080920004-13267-043417FM-15+0443SBLP V0209999C000019999999Y0099001N1+03401+01301999999ADDMA1101391999999REMMET045METAR SBLP 092000Z 00000KT CAVOK 34/13 Q1014;
0072832880999992011080921004-13267-043417FM-15+0443SBLP V0202101N003119999999Y0099001N1+03001+01501999999ADDMA1101391999999REMMET045METAR SBLP 092100Z 21006KT CAVOK 30/15 Q1014;
0072832880999992011081010004-13267-043417FM-15+0443SBLP V0202101N003119999999Y0099001N1+01701+01201999999ADDMA1101691999999REMMET045METAR SBLP 101000Z 21006KT CAVOK 17/12 Q1017;
0072832880999992011081011004-13267-043417FM-15+0443SBLP V0209999C000019999999Y0099001N1+02101+01301999999ADDMA1101691999999REMMET045METAR SBLP 101100Z 00000KT CAVOK 21/13 Q1017;
0072832880999992011081012004-13267-043417FM-15+0443SBLP V0209999C000019999999Y0099001N1+02401+01401999999ADDMA1101801999999REMMET045METAR SBLP 101200Z 00000KT CAVOK 24/14 Q1018;
0072832880999992011081013004-13267-043417FM-15+0443SBLP V0209999C000019999999Y0099001N1+02901+01401999999ADDMA1101691999999REMMET045METAR SBLP 101300Z 00000KT CAVOK 29/14 Q1017;
0072832880999992011081014004-13267-043417FM-15+0443SBLP V0203501N003119999999Y0099001N1+03101+01301999999ADDMA1101691999999REMMET045METAR SBLP 101400Z 35006KT CAVOK 31/13 Q1017;
0072832880999992011081015004-13267-043417FM-15+0443SBLP V0202701N003119999999Y0099001N1+03301+01201999999ADDMA1101491999999REMMET045METAR SBLP 101500Z 27006KT CAVOK 33/12 Q1015;
0072832880999992011081016004-13267-043417FM-15+0443SBLP V0209999C000019999999Y0099001N1+03501+00701999999ADDMA1101391999999REMMET045METAR SBLP 101600Z 00000KT CAVOK 35/07 Q1014;
0072832880999992011081021004-13267-043417FM-15+0443SBLP V0209999C000019999999Y0099001N1+03501+01001999999ADDMA1101191999999REMMET045METAR SBLP 102100Z 00000KT CAVOK 35/10 Q1012;
0072832880999992011081110004-13267-043417FM-15+0443SBLP V0209999C000019999999Y0099001N1+01801+01101999999ADDMA1101491999999REMMET045METAR SBLP 111000Z 00000KT CAVOK 18/11 Q1015;
0072832880999992011081111004-13267-043417FM-15+0443SBLP V0209999C000019999999Y0099001N1+02201+01001999999ADDMA1101591999999REMMET045METAR SBLP 111100Z 00000KT CAVOK 22/10 Q1016;
0072832880999992011081112004-13267-043417FM-15+0443SBLP V0203001N003119999999Y0099001N1+02601+01501999999ADDMA1101691999999REMMET045METAR SBLP 111200Z 30006KT CAVOK 26/15 Q1017;
0072832880999992011081113004-13267-043417FM-15+0443SBLP V0209999C000019999999Y0099001N1+03001+01401999999ADDMA1101691999999REMMET045METAR SBLP 111300Z 00000KT CAVOK 30/14 Q1017;
0072832880999992011081114004-13267-043417FM-15+0443SBLP V0209999C000019999999Y0099001N1+03201+01301999999ADDMA1101591999999REMMET045METAR SBLP 111400Z 00000KT CAVOK 32/13 Q1016;
0072832880999992011081115004-13267-043417FM-15+0443SBLP V0209999C000019999999Y0099001N1+03401+01301999999ADDMA1101491999999REMMET045METAR SBLP 111500Z 00000KT CAVOK 34/13 Q1015;
0120832880999992011081116004-13267-043417FM-15+0443SBLP V0200301N002112200019N0112651N1+03501+00601999999ADDGA1021+009001999GF102991999999999999999999MA1101391999999REMMET051METAR SBLP 111600Z 03004KT 9999 FEW030 35/06 Q1014;
0120832880999992011081117004-13267-043417FM-15+0443SBLP V0202101N002112200019N0112651N1+03701+00801999999ADDGA1021+009001999GF102991999999999999999999MA1101291999999REMMET051METAR SBLP 111700Z 21004KT 9999 FEW030 37/08 Q1013;
0072832880999992011081118004-13267-043417FM-15+0443SBLP V0201601N003119999999Y0099001N1+03701+00801999999ADDMA1101191999999REMMET045METAR SBLP 111800Z 16006KT CAVOK 37/08 Q1012;
0072832880999992011081119004-13267-043417FM-15+0443SBLP V0201501N004119999999Y0099001N1+03601+01001999999ADDMA1101191999999REMMET045METAR SBLP 111900Z 15008KT CAVOK 36/10 Q1012;
0072832880999992011081120004-13267-043417FM-15+0443SBLP V0201201N004119999999Y0099001N1+03501+01101999999ADDMA1101291999999REMMET045METAR SBLP 112000Z 12008KT CAVOK 35/11 Q1013;
0072832880999992011081121004-13267-043417FM-15+0443SBLP V0201501N004119999999Y0099001N1+03201+01301999999ADDMA1101291999999REMMET045METAR SBLP 112100Z 15008KT CAVOK 32/13 Q1013;
0072832880999992011081209154-13267-043417FM-15+0443SBLP V0209999C000019999999Y0099001N1+02101+01701999999ADDMA1101691999999REMMET045METAR SBLP 120915Z 00000KT CAVOK 21/17 Q1017;
0072832880999992011081210004-13267-043417FM-15+0443SBLP V0209999C000019999999Y0099001N1+02001+01701999999ADDMA1101801999999REMMET045METAR SBLP 121000Z 00000KT CAVOK 20/17 Q1018;
0072832880999992011081211004-13267-043417FM-15+0443SBLP V0209999C000019999999Y0099001N1+02201+01601999999ADDMA1101801999999REMMET045METAR SBLP 121100Z 00000KT CAVOK 22/16 Q1018;
0072832880999992011081212004-13267-043417FM-15+0443SBLP V0200901N003119999999Y0099001N1+02601+01501999999ADDMA1101901999999REMMET045METAR SBLP 121200Z 09006KT CAVOK 26/15 Q1019;
0072832880999992011081213004-13267-043417FM-15+0443SBLP V0209999C000019999999Y0099001N1+02901+01401999999ADDMA1101801999999REMMET045METAR SBLP 121300Z 00000KT CAVOK 29/14 Q1018;
0072832880999992011081214004-13267-043417FM-15+0443SBLP V0201101N003119999999Y0099001N1+03101+01401999999ADDMA1101801999999REMMET045METAR SBLP 121400Z 11006KT CAVOK 31/14 Q1018;
0120832880999992011081217004-13267-043417FM-15+0443SBLP V0201801N005112200019N0112651N1+03401+01301999999ADDGA1021+009001999GF102991999999999999999999MA1101391999999REMMET051METAR SBLP 121700Z 18010KT 9999 FEW030 34/13 Q1014;
0120832880999992011081218004-13267-043417FM-15+0443SBLP V0201801N005112200019N0112651N1+03501+01201999999ADDGA1041+009001999GF104991999999999999999999MA1101291999999REMMET051METAR SBLP 121800Z 18010KT 9999 SCT030 35/12 Q1013;
0120832880999992011081219004-13267-043417FM-15+0443SBLP V0201801N003112200019N0112651N1+03501+01001999999ADDGA1021+009001999GF102991999999999999999999MA1101291999999REMMET051METAR SBLP 121900Z 18006KT 9999 FEW030 35/10 Q1013;
0120832880999992011081220004-13267-043417FM-15+0443SBLP V0201501N005112200019N0112651N1+03401+01201999999ADDGA1021+009001999GF102991999999999999999999MA1101391999999REMMET051METAR SBLP 122000Z 15010KT 9999 FEW030 34/12 Q1014;
0072832880999992011081221004-13267-043417FM-15+0443SBLP V0201301N004119999999Y0099001N1+03101+01201999999ADDMA1101391999999REMMET045METAR SBLP 122100Z 13008KT CAVOK 31/12 Q1014;
0072832880999992011081310004-13267-043417FM-15+0443SBLP V0201801N001519999999Y0099001N1+01701+01401999999ADDMA1101691999999REMMET045METAR SBLP 131000Z 18003KT CAVOK 17/14 Q1017;
0072832880999992011081311004-13267-043417FM-15+0443SBLP V0201501N003119999999Y0099001N1+02201+01501999999ADDMA1101801999999REMMET045METAR SBLP 131100Z 15006KT CAVOK 22/15 Q1018;
0072832880999992011081312004-13267-043417FM-15+0443SBLP V0200901N003119999999Y0099001N1+02601+01501999999ADDMA1101901999999REMMET045METAR SBLP 131200Z 09006KT CAVOK 26/15 Q1019;
0072832880999992011081313004-13267-043417FM-15+0443SBLP V0201201N003119999999Y0099001N1+02801+01401999999ADDMA1101901999999REMMET045METAR SBLP 131300Z 12006KT CAVOK 28/14 Q1019;
0072832880999992011081314004-13267-043417FM-15+0443SBLP V0209999C000019999999Y0099001N1+03001+01401999999ADDMA1101801999999REMMET045METAR SBLP 131400Z 00000KT CAVOK 30/14 Q1018;
0072832880999992011081315004-13267-043417FM-15+0443SBLP V0202101N004119999999Y0099001N1+03101+01301999999ADDMA1101691999999REMMET045METAR SBLP 131500Z 21008KT CAVOK 31/13 Q1017;
0072832880999992011081316004-13267-043417FM-15+0443SBLP V0201801N002619999999Y0099001N1+03301+00901999999ADDMA1101491999999REMMET045METAR SBLP 131600Z 18005KT CAVOK 33/09 Q1015;
0072832880999992011081317004-13267-043417FM-15+0443SBLP V0201201N002619999999Y0099001N1+03401+00901999999ADDMA1101391999999REMMET045METAR SBLP 131700Z 12005KT CAVOK 34/09 Q1014;
0072832880999992011081318004-13267-043417FM-15+0443SBLP V0202701N003119999999Y0099001N1+03301+00901999999ADDMA1101291999999REMMET045METAR SBLP 131800Z 27006KT CAVOK 33/09 Q1013;
0072832880999992011081319004-13267-043417FM-15+0443SBLP V0202401N004119999999Y0099001N1+03301+00901999999ADDMA1101291999999REMMET045METAR SBLP 131900Z 24008KT CAVOK 33/09 Q1013;
0072832880999992011081320004-13267-043417FM-15+0443SBLP V0202201N003119999999Y0099001N1+03201+01001999999ADDMA1101291999999REMMET045METAR SBLP 132000Z 22006KT CAVOK 32/10 Q1013;
0072832880999992011081321004-13267-043417FM-15+0443SBLP V0202101N002119999999Y0099001N1+02901+01001999999ADDMA1101391999999REMMET045METAR SBLP 132100Z 21004KT CAVOK 29/10 Q1014;
0072832880999992011081410004-13267-043417FM-15+0443SBLP V0202101N002119999999Y0099001N1+01701+01401999999ADDMA1101691999999REMMET045METAR SBLP 141000Z 21004KT CAVOK 17/14 Q1017;
0072832880999992011081411004-13267-043417FM-15+0443SBLP V0202101N002119999999Y0099001N1+01901+01501999999ADDMA1101691999999REMMET045METAR SBLP 141100Z 21004KT CAVOK 19/15 Q1017;
0072832880999992011081412004-13267-043417FM-15+0443SBLP V0209999C000019999999Y0099001N1+02401+01501999999ADDMA1101801999999REMMET045METAR SBLP 141200Z 00000KT CAVOK 24/15 Q1018;
0072832880999992011081413004-13267-043417FM-15+0443SBLP V0203001N002119999999Y0099001N1+02701+01501999999ADDMA1101801999999REMMET045METAR SBLP 141300Z 30004KT CAVOK 27/15 Q1018;
0072832880999992011081414004-13267-043417FM-15+0443SBLP V0202801N002619999999Y0099001N1+02801+01401999999ADDMA1101801999999REMMET045METAR SBLP 141400Z 28005KT CAVOK 28/14 Q1018;
0120832880999992011081415004-13267-043417FM-15+0443SBLP V0200901N003112200019N0112651N1+03001+01501999999ADDGA1021+009001999GF102991999999999999999999MA1101691999999REMMET051METAR SBLP 141500Z 09006KT 9999 FEW030 30/15 Q1017;
0120832880999992011081416004-13267-043417FM-15+0443SBLP V0202701N003112200019N0112651N1+03201+01401999999ADDGA1021+009001999GF102991999999999999999999MA1101591999999REMMET051METAR SBLP 141600Z 27006KT 9999 FEW030 32/14 Q1016;
0120832880999992011081417004-13267-043417FM-15+0443SBLP V0202401N003112200019N0112651N1+03301+01301999999ADDGA1041+009001999GF104991999999999999999999MA1101391999999REMMET051METAR SBLP 141700Z 24006KT 9999 SCT030 33/13 Q1014;
0120832880999992011081418004-13267-043417FM-15+0443SBLP V0203001N003112200019N0112651N1+03401+01301999999ADDGA1041+009001999GF104991999999999999999999MA1101291999999REMMET051METAR SBLP 141800Z 30006KT 9999 SCT030 34/13 Q1013;
0120832880999992011081419004-13267-043417FM-15+0443SBLP V0202101N003112200019N0112651N1+03301+01401999999ADDGA1021+009001999GF102991999999999999999999MA1101291999999REMMET051METAR SBLP 141900Z 21006KT 9999 FEW030 33/14 Q1013;
0120832880999992011081420004-13267-043417FM-15+0443SBLP V0202101N003112200019N0112651N1+03201+01401999999ADDGA1021+009001999GF102991999999999999999999MA1101291999999REMMET051METAR SBLP 142000Z 21006KT 9999 FEW030 32/14 Q1013;
0072832880999992011081421004-13267-043417FM-15+0443SBLP V0209999C000019999999Y0099001N1+03001+01501999999ADDMA1101291999999REMMET045METAR SBLP 142100Z 00000KT CAVOK 30/15 Q1013;
0072832880999992011081510004-13267-043417FM-15+0443SBLP V0209999C000019999999Y0099001N1+01601+01101999999ADDMA1101691999999REMMET045METAR SBLP 151000Z 00000KT CAVOK 16/11 Q1017;
0072832880999992011081511004-13267-043417FM-15+0443SBLP V0201401N002119999999Y0099001N1+02201+00601999999ADDMA1101691999999REMMET045METAR SBLP 151100Z 14004KT CAVOK 22/06 Q1017;
0072832880999992011081512004-13267-043417FM-15+0443SBLP V0201801N005119999999Y0099001N1+02601+00301999999ADDMA1101801999999REMMET045METAR SBLP 151200Z 18010KT CAVOK 26/03 Q1018;
0072832880999992011081513004-13267-043417FM-15+0443SBLP V0201801N005119999999Y0099001N1+02901+00501999999ADDMA1101801999999REMMET045METAR SBLP 151300Z 18010KT CAVOK 29/05 Q1018;
0072832880999992011081514004-13267-043417FM-15+0443SBLP V0201201N002119999999Y0099001N1+03101+00301999999ADDMA1101801999999REMMET045METAR SBLP 151400Z 12004KT CAVOK 31/03 Q1018;
0072832880999992011081515004-13267-043417FM-15+0443SBLP V0201201N003119999999Y0099001N1+03201+00601999999ADDMA1101691999999REMMET045METAR SBLP 151500Z 12006KT CAVOK 32/06 Q1017;
0072832880999992011081516004-13267-043417FM-15+0443SBLP V0201301N005119999999Y0099001N1+03301+00501999999ADDMA1101491999999REMMET045METAR SBLP 151600Z 13010KT CAVOK 33/05 Q1015;
0072832880999992011081517004-13267-043417FM-15+0443SBLP V0201201N001519999999Y0099001N1+03501+00301999999ADDMA1101391999999REMMET045METAR SBLP 151700Z 12003KT CAVOK 35/03 Q1014;
0072832880999992011081518004-13267-043417FM-15+0443SBLP V0200901N003119999999Y0099001N1+03501+00201999999ADDMA1101291999999REMMET045METAR SBLP 151800Z 09006KT CAVOK 35/02 Q1013;
0072832880999992011081519004-13267-043417FM-15+0443SBLP V0200901N004119999999Y0099001N1+03501+00301999999ADDMA1101291999999REMMET045METAR SBLP 151900Z 09008KT CAVOK 35/03 Q1013;
0072832880999992011081520004-13267-043417FM-15+0443SBLP V0200601N004119999999Y0099001N1+03401+00401999999ADDMA1101291999999REMMET045METAR SBLP 152000Z 06008KT CAVOK 34/04 Q1013;
0072832880999992011081521004-13267-043417FM-15+0443SBLP V0201201N002119999999Y0099001N1+03101+00301999999ADDMA1101391999999REMMET045METAR SBLP 152100Z 12004KT CAVOK 31/03 Q1014;
0072832880999992011081610004-13267-043417FM-15+0443SBLP V0209999C000019999999Y0099001N1+01701+01201999999ADDMA1102001999999REMMET045METAR SBLP 161000Z 00000KT CAVOK 17/12 Q1020;
0072832880999992011081611004-13267-043417FM-15+0443SBLP V0201201N003119999999Y0099001N1+02301+01101999999ADDMA1102001999999REMMET045METAR SBLP 161100Z 12006KT CAVOK 23/11 Q1020;
0072832880999992011081612004-13267-043417FM-15+0443SBLP V0209999C000019999999Y0099001N1+02601+01301999999ADDMA1102101999999REMMET045METAR SBLP 161200Z 00000KT CAVOK 26/13 Q1021;
0120832880999992011081613004-13267-043417FM-15+0443SBLP V0200901N004112200019N0112651N1+02701+01401999999ADDGA1021+009001999GF102991999999999999999999MA1102201999999REMMET051METAR SBLP 161300Z 09008KT 9999 FEW030 27/14 Q1022;
0120832880999992011081614004-13267-043417FM-15+0443SBLP V0201201N003112200019N0112651N1+02801+01301999999ADDGA1021+009001999GF102991999999999999999999MA1102101999999REMMET051METAR SBLP 161400Z 12006KT 9999 FEW030 28/13 Q1021;
0120832880999992011081615004-13267-043417FM-15+0443SBLP V0200901N003112200019N0112651N1+02901+01201999999ADDGA1021+009001999GF102991999999999999999999MA1102001999999REMMET051METAR SBLP 161500Z 09006KT 9999 FEW030 29/12 Q1020;
0072832880999992011081616004-13267-043417FM-15+0443SBLP V0200601N004119999999Y0099001N1+03001+01001999999ADDMA1101901999999REMMET045METAR SBLP 161600Z 06008KT CAVOK 30/10 Q1019;
0072832880999992011081617004-13267-043417FM-15+0443SBLP V0209999C000019999999Y0099001N1+03101+01001999999ADDMA1101691999999REMMET045METAR SBLP 161700Z 00000KT CAVOK 31/10 Q1017;
0072832880999992011081618004-13267-043417FM-15+0443SBLP V0202501N003119999999Y0099001N1+03201+01001999999ADDMA1101591999999REMMET045METAR SBLP 161800Z 25006KT CAVOK 32/10 Q1016;
0120832880999992011081619004-13267-043417FM-15+0443SBLP V0202401N003112200019N0112651N1+03201+01101999999ADDGA1021+009001999GF102991999999999999999999MA1101591999999REMMET051METAR SBLP 161900Z 24006KT 9999 FEW030 32/11 Q1016;
0120832880999992011081620004-13267-043417FM-15+0443SBLP V0202101N003112200019N0112651N1+03201+01101999999ADDGA1021+009001999GF102991999999999999999999MA1101491999999REMMET051METAR SBLP 162000Z 21006KT 9999 FEW030 32/11 Q1015;
0072832880999992011081621004-13267-043417FM-15+0443SBLP V0209999C000019999999Y0099001N1+02901+01201999999ADDMA1101491999999REMMET045METAR SBLP 162100Z 00000KT CAVOK 29/12 Q1015;
0072832880999992011081710004-13267-043417FM-15+0443SBLP V0201501N001519999999Y0099001N1+01701+01201999999ADDMA1101901999999REMMET045METAR SBLP 171000Z 15003KT CAVOK 17/12 Q1019;
0072832880999992011081711004-13267-043417FM-15+0443SBLP V0201501N003119999999Y0099001N1+02301+01301999999ADDMA1102001999999REMMET045METAR SBLP 171100Z 15006KT CAVOK 23/13 Q1020;
0072832880999992011081712004-13267-043417FM-15+0443SBLP V0200901N003119999999Y0099001N1+02501+01301999999ADDMA1102001999999REMMET045METAR SBLP 171200Z 09006KT CAVOK 25/13 Q1020;
0072832880999992011081713004-13267-043417FM-15+0443SBLP V0200901N001519999999Y0099001N1+02701+01101999999ADDMA1102001999999REMMET045METAR SBLP 171300Z 09003KT CAVOK 27/11 Q1020;
0072832880999992011081714004-13267-043417FM-15+0443SBLP V0201201N003119999999Y0099001N1+02901+01001999999ADDMA1102001999999REMMET045METAR SBLP 171400Z 12006KT CAVOK 29/10 Q1020;
0072832880999992011081718004-13267-043417FM-15+0443SBLP V0200601N004119999999Y0099001N1+03301+01001999999ADDMA1101491999999REMMET045METAR SBLP 171800Z 06008KT CAVOK 33/10 Q1015;
0072832880999992011081719004-13267-043417FM-15+0443SBLP V0209999C000019999999Y0099001N1+03301+00801999999ADDMA1101391999999REMMET045METAR SBLP 171900Z 00000KT CAVOK 33/08 Q1014;
0072832880999992011081720004-13267-043417FM-15+0443SBLP V0202301N002119999999Y0099001N1+03101+01201999999ADDMA1101391999999REMMET045METAR SBLP 172000Z 23004KT CAVOK 31/12 Q1014;
0072832880999992011081721004-13267-043417FM-15+0443SBLP V0202101N003119999999Y0099001N1+02901+01301999999ADDMA1101391999999REMMET045METAR SBLP 172100Z 21006KT CAVOK 29/13 Q1014;
0072832880999992011081810004-13267-043417FM-15+0443SBLP V0202101N001519999999Y0099001N1+01601+01001999999ADDMA1101691999999REMMET045METAR SBLP 181000Z 21003KT CAVOK 16/10 Q1017;
0072832880999992011081811004-13267-043417FM-15+0443SBLP V0202401N003119999999Y0099001N1+02001+01201999999ADDMA1101691999999REMMET045METAR SBLP 181100Z 24006KT CAVOK 20/12 Q1017;
0072832880999992011081812004-13267-043417FM-15+0443SBLP V0202401N001519999999Y0099001N1+02401+01501999999ADDMA1101801999999REMMET045METAR SBLP 181200Z 24003KT CAVOK 24/15 Q1018;
0072832880999992011081813004-13267-043417FM-15+0443SBLP V0202401N002119999999Y0099001N1+02701+01301999999ADDMA1101801999999REMMET045METAR SBLP 181300Z 24004KT CAVOK 27/13 Q1018;
0120832880999992011081814004-13267-043417FM-15+0443SBLP V0201901N003112200019N0112651N1+02901+01201999999ADDGA1021+009001999GF102991999999999999999999MA1101691999999REMMET051METAR SBLP 181400Z 19006KT 9999 FEW030 29/12 Q1017;
0120832880999992011081815004-13267-043417FM-15+0443SBLP V0201801N001512200019N0112651N1+03001+01101999999ADDGA1021+009001999GF102991999999999999999999MA1101591999999REMMET051METAR SBLP 181500Z 18003KT 9999 FEW030 30/11 Q1016;
0072832880999992011081816004-13267-043417FM-15+0443SBLP V0200401N003119999999Y0099001N1+03301+01001999999ADDMA1101391999999REMMET045METAR SBLP 181600Z 04006KT CAVOK 33/10 Q1014;
0072832880999992011081817004-13267-043417FM-15+0443SBLP V0200401N003119999999Y0099001N1+03401+01101999999ADDMA1101291999999REMMET045METAR SBLP 181700Z 04006KT CAVOK 34/11 Q1013;
0072832880999992011081818004-13267-043417FM-15+0443SBLP V0200601N003119999999Y0099001N1+03401+00901999999ADDMA1101191999999REMMET045METAR SBLP 181800Z 06006KT CAVOK 34/09 Q1012;
0072832880999992011081819004-13267-043417FM-15+0443SBLP V0200601N003119999999Y0099001N1+03301+01101999999ADDMA1101191999999REMMET045METAR SBLP 181900Z 06006KT CAVOK 33/11 Q1012;
0072832880999992011081820004-13267-043417FM-15+0443SBLP V0200401N003119999999Y0099001N1+03301+01201999999ADDMA1101191999999REMMET045METAR SBLP 182000Z 04006KT CAVOK 33/12 Q1012;
0072832880999992011081821004-13267-043417FM-15+0443SBLP V0209999C000019999999Y0099001N1+03001+01401999999ADDMA1101191999999REMMET045METAR SBLP 182100Z 00000KT CAVOK 30/14 Q1012;
0072832880999992011081910004-13267-043417FM-15+0443SBLP V0209999C000019999999Y0099001N1+01701+01301999999ADDMA1101491999999REMMET045METAR SBLP 191000Z 00000KT CAVOK 17/13 Q1015;
0072832880999992011081911004-13267-043417FM-15+0443SBLP V0209999C000019999999Y0099001N1+02501+01501999999ADDMA1101491999999REMMET045METAR SBLP 191100Z 00000KT CAVOK 25/15 Q1015;
0072832880999992011081912004-13267-043417FM-15+0443SBLP V0200401N003119999999Y0099001N1+02801+01301999999ADDMA1101591999999REMMET045METAR SBLP 191200Z 04006KT CAVOK 28/13 Q1016;
0072832880999992011081913004-13267-043417FM-15+0443SBLP V0200901N003119999999Y0099001N1+03001+01301999999ADDMA1101591999999REMMET045METAR SBLP 191300Z 09006KT CAVOK 30/13 Q1016;
0072832880999992011081914004-13267-043417FM-15+0443SBLP V0203601N003119999999Y0099001N1+03101+01301999999ADDMA1101491999999REMMET045METAR SBLP 191400Z 36006KT CAVOK 31/13 Q1015;
0072832880999992011081915004-13267-043417FM-15+0443SBLP V0209999C000019999999Y0099001N1+03201+01201999999ADDMA1101391999999REMMET045METAR SBLP 191500Z 00000KT CAVOK 32/12 Q1014;
0072832880999992011081916004-13267-043417FM-15+0443SBLP V0209999C000019999999Y0099001N1+03301+01101999999ADDMA1101291999999REMMET045METAR SBLP 191600Z 00000KT CAVOK 33/11 Q1013;
0072832880999992011081917004-13267-043417FM-15+0443SBLP V0203601N003119999999Y0099001N1+03401+01001999999ADDMA1101081999999REMMET045METAR SBLP 191700Z 36006KT CAVOK 34/10 Q1011;
0072832880999992011081918004-13267-043417FM-15+0443SBLP V0203601N003119999999Y0099001N1+03501+01001999999ADDMA1101081999999REMMET045METAR SBLP 191800Z 36006KT CAVOK 35/10 Q1011;
0072832880999992011081919004-13267-043417FM-15+0443SBLP V0203601N003119999999Y0099001N1+03601+01001999999ADDMA1101021999999REMMET045METAR SBLP 191900Z 36006KT CAVOK 36/10 Q1010;
0072832880999992011081920004-13267-043417FM-15+0443SBLP V0209999C000019999999Y0099001N1+03501+01101999999ADDMA1101021999999REMMET045METAR SBLP 192000Z 00000KT CAVOK 35/11 Q1010;
0072832880999992011081921004-13267-043417FM-15+0443SBLP V0209999C000019999999Y0099001N1+03301+01201999999ADDMA1101081999999REMMET045METAR SBLP 192100Z 00000KT CAVOK 33/12 Q1011;
0072832880999992011082010004-13267-043417FM-15+0443SBLP V0209999C000019999999Y0099001N1+02201+01501999999ADDMA1101591999999REMMET045METAR SBLP 201000Z 00000KT CAVOK 22/15 Q1016;
0072832880999992011082011004-13267-043417FM-15+0443SBLP V0209999C000019999999Y0099001N1+02501+01401999999ADDMA1101691999999REMMET045METAR SBLP 201100Z 00000KT CAVOK 25/14 Q1017;
0072832880999992011082012004-13267-043417FM-15+0443SBLP V0209999C000019999999Y0099001N1+02701+01401999999ADDMA1101691999999REMMET045METAR SBLP 201200Z 00000KT CAVOK 27/14 Q1017;
0072832880999992011082013004-13267-043417FM-15+0443SBLP V0209999C000019999999Y0099001N1+02901+01301999999ADDMA1101691999999REMMET045METAR SBLP 201300Z 00000KT CAVOK 29/13 Q1017;
0072832880999992011082014004-13267-043417FM-15+0443SBLP V0201801N003119999999Y0099001N1+03101+01201999999ADDMA1101591999999REMMET045METAR SBLP 201400Z 18006KT CAVOK 31/12 Q1016;
0072832880999992011082015004-13267-043417FM-15+0443SBLP V0201801N003119999999Y0099001N1+03301+01101999999ADDMA1101491999999REMMET045METAR SBLP 201500Z 18006KT CAVOK 33/11 Q1015;
0072832880999992011082016004-13267-043417FM-15+0443SBLP V0201201N001519999999Y0099001N1+03401+01101999999ADDMA1101391999999REMMET045METAR SBLP 201600Z 12003KT CAVOK 34/11 Q1014;
0072832880999992011082019004-13267-043417FM-15+0443SBLP V0202101N002619999999Y0099001N1+03401+01101999999ADDMA1101081999999REMMET045METAR SBLP 201900Z 21005KT CAVOK 34/11 Q1011;
0072832880999992011082020004-13267-043417FM-15+0443SBLP V0202101N001519999999Y0099001N1+03201+01101999999ADDMA1101191999999REMMET045METAR SBLP 202000Z 21003KT CAVOK 32/11 Q1012;
0072832880999992011082021004-13267-043417FM-15+0443SBLP V0209999C000019999999Y0099001N1+03101+01201999999ADDMA1101191999999REMMET045METAR SBLP 202100Z 00000KT CAVOK 31/12 Q1012;
0072832880999992011082110004-13267-043417FM-15+0443SBLP V0202101N001519999999Y0099001N1+01801+01101999999ADDMA1101591999999REMMET045METAR SBLP 211000Z 21003KT CAVOK 18/11 Q1016;
0072832880999992011082111004-13267-043417FM-15+0443SBLP V0202101N001519999999Y0099001N1+02201+01301999999ADDMA1101691999999REMMET045METAR SBLP 211100Z 21003KT CAVOK 22/13 Q1017;
0072832880999992011082112004-13267-043417FM-15+0443SBLP V0201201N001519999999Y0099001N1+02701+01101999999ADDMA1101801999999REMMET045METAR SBLP 211200Z 12003KT CAVOK 27/11 Q1018;
0072832880999992011082113004-13267-043417FM-15+0443SBLP V0201201N004119999999Y0099001N1+03001+00801999999ADDMA1101801999999REMMET045METAR SBLP 211300Z 12008KT CAVOK 30/08 Q1018;
0072832880999992011082114004-13267-043417FM-15+0443SBLP V0201501N003119999999Y0099001N1+03201+00801999999ADDMA1101691999999REMMET045METAR SBLP 211400Z 15006KT CAVOK 32/08 Q1017;
0072832880999992011082115004-13267-043417FM-15+0443SBLP V0201701N002119999999Y0099001N1+03401+00801999999ADDMA1101591999999REMMET045METAR SBLP 211500Z 17004KT CAVOK 34/08 Q1016;
0072832880999992011082116004-13267-043417FM-15+0443SBLP V0200901N003119999999Y0099001N1+03501+00801999999ADDMA1101391999999REMMET045METAR SBLP 211600Z 09006KT CAVOK 35/08 Q1014;
0072832880999992011082117004-13267-043417FM-15+0443SBLP V0200901N003119999999Y0099001N1+03601+00801999999ADDMA1101291999999REMMET045METAR SBLP 211700Z 09006KT CAVOK 36/08 Q1013;
0072832880999992011082118004-13267-043417FM-15+0443SBLP V0200901N003119999999Y0099001N1+03701+00801999999ADDMA1101291999999REMMET045METAR SBLP 211800Z 09006KT CAVOK 37/08 Q1013;
0072832880999992011082119004-13267-043417FM-15+0443SBLP V0200901N003119999999Y0099001N1+03601+00901999999ADDMA1101291999999REMMET045METAR SBLP 211900Z 09006KT CAVOK 36/09 Q1013;
0072832880999992011082120004-13267-043417FM-15+0443SBLP V0200901N003119999999Y0099001N1+03501+01001999999ADDMA1101291999999REMMET045METAR SBLP 212000Z 09006KT CAVOK 35/10 Q1013;
0072832880999992011082121004-13267-043417FM-15+0443SBLP V0201801N003119999999Y0099001N1+03201+01101999999ADDMA1101391999999REMMET045METAR SBLP 212100Z 18006KT CAVOK 32/11 Q1014;
0072832880999992011082210004-13267-043417FM-15+0443SBLP V0200901N003119999999Y0099001N1+02201+01301999999ADDMA1102001999999REMMET045METAR SBLP 221000Z 09006KT CAVOK 22/13 Q1020;
0072832880999992011082211004-13267-043417FM-15+0443SBLP V0200901N003119999999Y0099001N1+02401+01201999999ADDMA1102101999999REMMET045METAR SBLP 221100Z 09006KT CAVOK 24/12 Q1021;
0072832880999992011082212004-13267-043417FM-15+0443SBLP V0200901N003119999999Y0099001N1+02501+01101999999ADDMA1102101999999REMMET045METAR SBLP 221200Z 09006KT CAVOK 25/11 Q1021;
0072832880999992011082213004-13267-043417FM-15+0443SBLP V0200901N003119999999Y0099001N1+02801+01001999999ADDMA1102101999999REMMET045METAR SBLP 221300Z 09006KT CAVOK 28/10 Q1021;
0072832880999992011082214004-13267-043417FM-15+0443SBLP V0200901N003119999999Y0099001N1+02901+00901999999ADDMA1102001999999REMMET045METAR SBLP 221400Z 09006KT CAVOK 29/09 Q1020;
0072832880999992011082215004-13267-043417FM-15+0443SBLP V0200901N003119999999Y0099001N1+03001+00801999999ADDMA1101901999999REMMET045METAR SBLP 221500Z 09006KT CAVOK 30/08 Q1019;
0072832880999992011082216004-13267-043417FM-15+0443SBLP V0200901N003119999999Y0099001N1+03201+00901999999ADDMA1101691999999REMMET045METAR SBLP 221600Z 09006KT CAVOK 32/09 Q1017;
0072832880999992011082217004-13267-043417FM-15+0443SBLP V0201301N004119999999Y0099001N1+03301+00801999999ADDMA1101591999999REMMET045METAR SBLP 221700Z 13008KT CAVOK 33/08 Q1016;
0072832880999992011082218004-13267-043417FM-15+0443SBLP V0200901N002119999999Y0099001N1+03301+00801999999ADDMA1101491999999REMMET045METAR SBLP 221800Z 09004KT CAVOK 33/08 Q1015;
0072832880999992011082219004-13267-043417FM-15+0443SBLP V0200701N002619999999Y0099001N1+03301+00901999999ADDMA1101491999999REMMET045METAR SBLP 221900Z 07005KT CAVOK 33/09 Q1015;
0072832880999992011082220004-13267-043417FM-15+0443SBLP V0200901N004119999999Y0099001N1+03201+00801999999ADDMA1101491999999REMMET045METAR SBLP 222000Z 09008KT CAVOK 32/08 Q1015;
0072832880999992011082221004-13267-043417FM-15+0443SBLP V0200901N004119999999Y0099001N1+03201+00801999999ADDMA1101491999999REMMET045METAR SBLP 222100Z 09008KT CAVOK 32/08 Q1015;
0072832880999992011082310004-13267-043417FM-15+0443SBLP V0201901N002119999999Y0099001N1+01701+01301999999ADDMA1102001999999REMMET045METAR SBLP 231000Z 19004KT CAVOK 17/13 Q1020;
0072832880999992011082311004-13267-043417FM-15+0443SBLP V0201801N003119999999Y0099001N1+02201+01101999999ADDMA1102101999999REMMET045METAR SBLP 231100Z 18006KT CAVOK 22/11 Q1021;
0072832880999992011082312004-13267-043417FM-15+0443SBLP V0201101N001519999999Y0099001N1+02601+01301999999ADDMA1102101999999REMMET045METAR SBLP 231200Z 11003KT CAVOK 26/13 Q1021;
0072832880999992011082313004-13267-043417FM-15+0443SBLP V0200601N003119999999Y0099001N1+03001+01401999999ADDMA1102101999999REMMET045METAR SBLP 231300Z 06006KT CAVOK 30/14 Q1021;
0120832880999992011082314004-13267-043417FM-15+0443SBLP V0200301N004112200019N0112651N1+03201+01401999999ADDGA1021+009001999GF102991999999999999999999MA1102001999999REMMET051METAR SBLP 231400Z 03008KT 9999 FEW030 32/14 Q1020;
0072832880999992011082315004-13267-043417FM-15+0443SBLP V0201201N001519999999Y0099001N1+03201+01201999999ADDMA1101901999999REMMET045METAR SBLP 231500Z 12003KT CAVOK 32/12 Q1019;
0120832880999992011082316004-13267-043417FM-15+0443SBLP V0201201N003112200019N0112651N1+03301+01201999999ADDGA1021+009001999GF102991999999999999999999MA1101801999999REMMET051METAR SBLP 231600Z 12006KT 9999 FEW030 33/12 Q1018;
0120832880999992011082317004-13267-043417FM-15+0443SBLP V0209999C000012200019N0112651N1+03401+01201999999ADDGA1041+009001999GF104991999999999999999999MA1101591999999REMMET051METAR SBLP 231700Z 00000KT 9999 SCT030 34/12 Q1016;
0120832880999992011082318004-13267-043417FM-15+0443SBLP V0209999C000012200019N0112651N1+03401+01201999999ADDGA1041+009001999GF104991999999999999999999MA1101491999999REMMET051METAR SBLP 231800Z 00000KT 9999 SCT030 34/12 Q1015;
0120832880999992011082319004-13267-043417FM-15+0443SBLP V0202401N003112200019N0112651N1+03401+01201999999ADDGA1021+009001999GF102991999999999999999999MA1101491999999REMMET051METAR SBLP 231900Z 24006KT 9999 FEW030 34/12 Q1015;
0120832880999992011082320004-13267-043417FM-15+0443SBLP V0201801N003112200019N0112651N1+03201+01301999999ADDGA1021+009001999GF102991999999999999999999MA1101491999999REMMET051METAR SBLP 232000Z 18006KT 9999 FEW030 32/13 Q1015;
0072832880999992011082321004-13267-043417FM-15+0443SBLP V0209999C000019999999Y0099001N1+03001+01501999999ADDMA1101591999999REMMET045METAR SBLP 232100Z 00000KT CAVOK 30/15 Q1016;
0072832880999992011082410004-13267-043417FM-15+0443SBLP V0209999C000019999999Y0099001N1+01901+01601999999ADDMA1101901999999REMMET045METAR SBLP 241000Z 00000KT CAVOK 19/16 Q1019;
0072832880999992011082411004-13267-043417FM-15+0443SBLP V0209999C000019999999Y0099001N1+02401+01701999999ADDMA1102001999999REMMET045METAR SBLP 241100Z 00000KT CAVOK 24/17 Q1020;
0072832880999992011082412004-13267-043417FM-15+0443SBLP V0200801N002119999999Y0099001N1+02601+01601999999ADDMA1102101999999REMMET045METAR SBLP 241200Z 08004KT CAVOK 26/16 Q1021;
0120832880999992011082413004-13267-043417FM-15+0443SBLP V0201201N003112200019N0112651N1+02901+01501999999ADDGA1021+009001999GF102991999999999999999999MA1102101999999REMMET051METAR SBLP 241300Z 12006KT 9999 FEW030 29/15 Q1021;
0120832880999992011082414004-13267-043417FM-15+0443SBLP V0201801N003112200019N0112651N1+02901+01501999999ADDGA1041+009001999GF104991999999999999999999MA1102001999999REMMET051METAR SBLP 241400Z 18006KT 9999 SCT030 29/15 Q1020;
0120832880999992011082415004-13267-043417FM-15+0443SBLP V0200901N003112200019N0112651N1+03201+01101999999ADDGA1041+009001999GF104991999999999999999999MA1101901999999REMMET051METAR SBLP 241500Z 09006KT 9999 SCT030 32/11 Q1019;
0120832880999992011082416004-13267-043417FM-15+0443SBLP V0200901N003112200019N0112651N1+03301+01401999999ADDGA1041+009001999GF104991999999999999999999MA1101691999999REMMET051METAR SBLP 241600Z 09006KT 9999 SCT030 33/14 Q1017;
0120832880999992011082417004-13267-043417FM-15+0443SBLP V0200901N003112200019N0112651N1+03501+01401999999ADDGA1041+009001999GF104991999999999999999999MA1101591999999REMMET051METAR SBLP 241700Z 09006KT 9999 SCT030 35/14 Q1016;
0120832880999992011082418004-13267-043417FM-15+0443SBLP V0200901N003112200019N0112651N1+03501+01401999999ADDGA1041+009001999GF104991999999999999999999MA1101491999999REMMET051METAR SBLP 241800Z 09006KT 9999 SCT030 35/14 Q1015;
0120832880999992011082419004-13267-043417FM-15+0443SBLP V0200901N003112200019N0112651N1+03501+01401999999ADDGA1041+009001999GF104991999999999999999999MA1101391999999REMMET051METAR SBLP 241900Z 09006KT 9999 SCT030 35/14 Q1014;
0120832880999992011082420004-13267-043417FM-15+0443SBLP V0200901N003112200019N0112651N1+03301+01401999999ADDGA1041+009001999GF104991999999999999999999MA1101491999999REMMET051METAR SBLP 242000Z 09006KT 9999 SCT030 33/14 Q1015;
0120832880999992011082421004-13267-043417FM-15+0443SBLP V0200901N003112200019N0112651N1+03201+01501999999ADDGA1041+009001999GF104991999999999999999999MA1101491999999REMMET051METAR SBLP 242100Z 09006KT 9999 SCT030 32/15 Q1015;
0072832880999992011082510004-13267-043417FM-15+0443SBLP V0209999C000019999999Y0099001N1+02201+01501999999ADDMA1102001999999REMMET045METAR SBLP 251000Z 00000KT CAVOK 22/15 Q1020;
0072832880999992011082511004-13267-043417FM-15+0443SBLP V0209999C000019999999Y0099001N1+02401+01501999999ADDMA1102101999999REMMET045METAR SBLP 251100Z 00000KT CAVOK 24/15 Q1021;
0072832880999992011082512004-13267-043417FM-15+0443SBLP V0200901N003119999999Y0099001N1+02601+01401999999ADDMA1102201999999REMMET045METAR SBLP 251200Z 09006KT CAVOK 26/14 Q1022;
0072832880999992011082513004-13267-043417FM-15+0443SBLP V0200901N003119999999Y0099001N1+02901+01301999999ADDMA1102201999999REMMET045METAR SBLP 251300Z 09006KT CAVOK 29/13 Q1022;
0072832880999992011082514004-13267-043417FM-15+0443SBLP V0200901N003119999999Y0099001N1+03101+01201999999ADDMA1102101999999REMMET045METAR SBLP 251400Z 09006KT CAVOK 31/12 Q1021;
0072832880999992011082515004-13267-043417FM-15+0443SBLP V0200901N003119999999Y0099001N1+03201+01201999999ADDMA1102001999999REMMET045METAR SBLP 251500Z 09006KT CAVOK 32/12 Q1020;
0120832880999992011082516004-13267-043417FM-15+0443SBLP V0201201N003112200019N0112651N1+03301+01101999999ADDGA1021+009001999GF102991999999999999999999MA1101901999999REMMET051METAR SBLP 251600Z 12006KT 9999 FEW030 33/11 Q1019;
0120832880999992011082517004-13267-043417FM-15+0443SBLP V0201201N003112200019N0112651N1+03301+01201999999ADDGA1021+009001999GF102991999999999999999999MA1101691999999REMMET051METAR SBLP 251700Z 12006KT 9999 FEW030 33/12 Q1017;
0072832880999992011082518004-13267-043417FM-15+0443SBLP V0200401N003119999999Y0099001N1+03401+01101999999ADDMA1101691999999REMMET045METAR SBLP 251800Z 04006KT CAVOK 34/11 Q1017;
0072832880999992011082519004-13267-043417FM-15+0443SBLP V0201401N003119999999Y0099001N1+03401+01101999999ADDMA1101591999999REMMET045METAR SBLP 251900Z 14006KT CAVOK 34/11 Q1016;
0072832880999992011082520004-13267-043417FM-15+0443SBLP V0200901N003119999999Y0099001N1+03301+01101999999ADDMA1101591999999REMMET045METAR SBLP 252000Z 09006KT CAVOK 33/11 Q1016;
0072832880999992011082521004-13267-043417FM-15+0443SBLP V0209999C000019999999Y0099001N1+03001+01301999999ADDMA1101691999999REMMET045METAR SBLP 252100Z 00000KT CAVOK 30/13 Q1017;
0072832880999992011082610004-13267-043417FM-15+0443SBLP V0209999C000019999999Y0099001N1+01901+01401999999ADDMA1102101999999REMMET045METAR SBLP 261000Z 00000KT CAVOK 19/14 Q1021;
0072832880999992011082611004-13267-043417FM-15+0443SBLP V0209999C000019999999Y0099001N1+02601+01301999999ADDMA1102101999999REMMET045METAR SBLP 261100Z 00000KT CAVOK 26/13 Q1021;
0072832880999992011082612004-13267-043417FM-15+0443SBLP V0200901N003119999999Y0099001N1+02701+01301999999ADDMA1102101999999REMMET045METAR SBLP 261200Z 09006KT CAVOK 27/13 Q1021;
0072832880999992011082613004-13267-043417FM-15+0443SBLP V0201201N003119999999Y0099001N1+02901+01401999999ADDMA1102101999999REMMET045METAR SBLP 261300Z 12006KT CAVOK 29/14 Q1021;
0072832880999992011082614004-13267-043417FM-15+0443SBLP V0209999C000019999999Y0099001N1+03101+01301999999ADDMA1102001999999REMMET045METAR SBLP 261400Z 00000KT CAVOK 31/13 Q1020;
0072832880999992011082615004-13267-043417FM-15+0443SBLP V0200901N003119999999Y0099001N1+03201+01301999999ADDMA1101801999999REMMET045METAR SBLP 261500Z 09006KT CAVOK 32/13 Q1018;
0072832880999992011082616004-13267-043417FM-15+0443SBLP V0201801N003119999999Y0099001N1+03301+01201999999ADDMA1101801999999REMMET045METAR SBLP 261600Z 18006KT CAVOK 33/12 Q1018;
0072832880999992011082617004-13267-043417FM-15+0443SBLP V0201801N003119999999Y0099001N1+03501+01201999999ADDMA1101591999999REMMET045METAR SBLP 261700Z 18006KT CAVOK 35/12 Q1016;
0072832880999992011082618004-13267-043417FM-15+0443SBLP V0201801N003119999999Y0099001N1+03501+01201999999ADDMA1101491999999REMMET045METAR SBLP 261800Z 18006KT CAVOK 35/12 Q1015;
0072832880999992011082619004-13267-043417FM-15+0443SBLP V0201801N003119999999Y0099001N1+03501+01201999999ADDMA1101491999999REMMET045METAR SBLP 261900Z 18006KT CAVOK 35/12 Q1015;
0072832880999992011082620004-13267-043417FM-15+0443SBLP V0201801N003119999999Y0099001N1+03301+01201999999ADDMA1101491999999REMMET045METAR SBLP 262000Z 18006KT CAVOK 33/12 Q1015;
0072832880999992011082621004-13267-043417FM-15+0443SBLP V0201801N003119999999Y0099001N1+03101+01301999999ADDMA1101491999999REMMET045METAR SBLP 262100Z 18006KT CAVOK 31/13 Q1015;
0072832880999992011082710004-13267-043417FM-15+0443SBLP V0209999C000019999999Y0099001N1+02201+01501999999ADDMA1101901999999REMMET045METAR SBLP 271000Z 00000KT CAVOK 22/15 Q1019;
0072832880999992011082711004-13267-043417FM-15+0443SBLP V0209999C000019999999Y0099001N1+02501+01401999999ADDMA1102001999999REMMET045METAR SBLP 271100Z 00000KT CAVOK 25/14 Q1020;
0072832880999992011082712004-13267-043417FM-15+0443SBLP V0209999C000019999999Y0099001N1+02701+01301999999ADDMA1102001999999REMMET045METAR SBLP 271200Z 00000KT CAVOK 27/13 Q1020;
0072832880999992011082713004-13267-043417FM-15+0443SBLP V0209999C000019999999Y0099001N1+03001+01201999999ADDMA1102001999999REMMET045METAR SBLP 271300Z 00000KT CAVOK 30/12 Q1020;
0072832880999992011082714004-13267-043417FM-15+0443SBLP V0200901N003119999999Y0099001N1+03201+01101999999ADDMA1101901999999REMMET045METAR SBLP 271400Z 09006KT CAVOK 32/11 Q1019;
0072832880999992011082715004-13267-043417FM-15+0443SBLP V0200901N003119999999Y0099001N1+03301+01001999999ADDMA1101801999999REMMET045METAR SBLP 271500Z 09006KT CAVOK 33/10 Q1018;
0120832880999992011082716004-13267-043417FM-15+0443SBLP V0202201N003112200019N0112651N1+03401+00901999999ADDGA1021+009001999GF102991999999999999999999MA1101691999999REMMET051METAR SBLP 271600Z 22006KT 9999 FEW030 34/09 Q1017;
0120832880999992011082717004-13267-043417FM-15+0443SBLP V0202401N006212200019N0112651N1+03501+00901999999ADDGA1021+009001999GF102991999999999999999999MA1101491999999REMMET051METAR SBLP 271700Z 24012KT 9999 FEW030 35/09 Q1015;
0120832880999992011082718004-13267-043417FM-15+0443SBLP V0202701N003112200019N0112651N1+03501+00901999999ADDGA1021+009001999GF102991999999999999999999MA1101391999999REMMET051METAR SBLP 271800Z 27006KT 9999 FEW030 35/09 Q1014;
0072832880999992011082719004-13267-043417FM-15+0443SBLP V0202501N003119999999Y0099001N1+03401+00901999999ADDMA1101391999999REMMET045METAR SBLP 271900Z 25006KT CAVOK 34/09 Q1014;
0072832880999992011082720004-13267-043417FM-15+0443SBLP V0209999C000019999999Y0099001N1+03401+00901999999ADDMA1101391999999REMMET045METAR SBLP 272000Z 00000KT CAVOK 34/09 Q1014;
0072832880999992011082721004-13267-043417FM-15+0443SBLP V0201901N002119999999Y0099001N1+03101+01101999999ADDMA1101491999999REMMET045METAR SBLP 272100Z 19004KT CAVOK 31/11 Q1015;
0072832880999992011082810004-13267-043417FM-15+0443SBLP V0209999C000019999999Y0099001N1+02001+01501999999ADDMA1102001999999REMMET045METAR SBLP 281000Z 00000KT CAVOK 20/15 Q1020;
0072832880999992011082811004-13267-043417FM-15+0443SBLP V0201801N001519999999Y0099001N1+02401+01501999999ADDMA1102001999999REMMET045METAR SBLP 281100Z 18003KT CAVOK 24/15 Q1020;
0072832880999992011082812004-13267-043417FM-15+0443SBLP V0201501N003119999999Y0099001N1+02701+01401999999ADDMA1102101999999REMMET045METAR SBLP 281200Z 15006KT CAVOK 27/14 Q1021;
0072832880999992011082813004-13267-043417FM-15+0443SBLP V0200601N003119999999Y0099001N1+02901+01401999999ADDMA1102101999999REMMET045METAR SBLP 281300Z 06006KT CAVOK 29/14 Q1021;
0072832880999992011082814004-13267-043417FM-15+0443SBLP V0201801N003119999999Y0099001N1+03101+01401999999ADDMA1102001999999REMMET045METAR SBLP 281400Z 18006KT CAVOK 31/14 Q1020;
0072832880999992011082815004-13267-043417FM-15+0443SBLP V0201701N002119999999Y0099001N1+03201+01301999999ADDMA1101901999999REMMET045METAR SBLP 281500Z 17004KT CAVOK 32/13 Q1019;
0120832880999992011082816004-13267-043417FM-15+0443SBLP V0201201N003112200019N0112651N1+03301+01301999999ADDGA1021+009001999GF102991999999999999999999MA1101801999999REMMET051METAR SBLP 281600Z 12006KT 9999 FEW030 33/13 Q1018;
0120832880999992011082817004-13267-043417FM-15+0443SBLP V0201501N003112200019N0112651N1+03401+01201999999ADDGA1021+009001999GF102991999999999999999999MA1101591999999REMMET051METAR SBLP 281700Z 15006KT 9999 FEW030 34/12 Q1016;
0120832880999992011082818004-13267-043417FM-15+0443SBLP V0201801N003112200019N0112651N1+03401+01201999999ADDGA1021+009001999GF102991999999999999999999MA1101491999999REMMET051METAR SBLP 281800Z 18006KT 9999 FEW030 34/12 Q1015;
0120832880999992011082819004-13267-043417FM-15+0443SBLP V0201801N003112200019N0112651N1+03401+01301999999ADDGA1021+009001999GF102991999999999999999999MA1101491999999REMMET051METAR SBLP 281900Z 18006KT 9999 FEW030 34/13 Q1015;
0120832880999992011082820004-13267-043417FM-15+0443SBLP V0201801N003112200019N0112651N1+03301+01401999999ADDGA1021+009001999GF102991999999999999999999MA1101491999999REMMET051METAR SBLP 282000Z 18006KT 9999 FEW030 33/14 Q1015;
0072832880999992011082821004-13267-043417FM-15+0443SBLP V0209999C000019999999Y0099001N1+03001+01501999999ADDMA1101591999999REMMET045METAR SBLP 282100Z 00000KT CAVOK 30/15 Q1016;
0072832880999992011082910004-13267-043417FM-15+0443SBLP V0209999C000019999999Y0099001N1+02001+01501999999ADDMA1101901999999REMMET045METAR SBLP 291000Z 00000KT CAVOK 20/15 Q1019;
0072832880999992011082911004-13267-043417FM-15+0443SBLP V0209999C000019999999Y0099001N1+02401+01401999999ADDMA1101901999999REMMET045METAR SBLP 291100Z 00000KT CAVOK 24/14 Q1019;
0072832880999992011082912004-13267-043417FM-15+0443SBLP V0201201N003119999999Y0099001N1+02601+01501999999ADDMA1102001999999REMMET045METAR SBLP 291200Z 12006KT CAVOK 26/15 Q1020;
0072832880999992011082913004-13267-043417FM-15+0443SBLP V0209999C000019999999Y0099001N1+02901+01301999999ADDMA1102001999999REMMET045METAR SBLP 291300Z 00000KT CAVOK 29/13 Q1020;
0072832880999992011082914004-13267-043417FM-15+0443SBLP V0201201N003119999999Y0099001N1+03101+01201999999ADDMA1101901999999REMMET045METAR SBLP 291400Z 12006KT CAVOK 31/12 Q1019;
0072832880999992011082915004-13267-043417FM-15+0443SBLP V0201201N003119999999Y0099001N1+03201+01201999999ADDMA1101801999999REMMET045METAR SBLP 291500Z 12006KT CAVOK 32/12 Q1018;
0072832880999992011082916004-13267-043417FM-15+0443SBLP V0200901N003119999999Y0099001N1+03301+01201999999ADDMA1101591999999REMMET045METAR SBLP 291600Z 09006KT CAVOK 33/12 Q1016;
0072832880999992011082917004-13267-043417FM-15+0443SBLP V0200901N003119999999Y0099001N1+03401+01101999999ADDMA1101491999999REMMET045METAR SBLP 291700Z 09006KT CAVOK 34/11 Q1015;
0072832880999992011082918004-13267-043417FM-15+0443SBLP V0200901N003119999999Y0099001N1+03501+01101999999ADDMA1101391999999REMMET045METAR SBLP 291800Z 09006KT CAVOK 35/11 Q1014;
0072832880999992011082919004-13267-043417FM-15+0443SBLP V0209999C000019999999Y0099001N1+03501+01101999999ADDMA1101291999999REMMET045METAR SBLP 291900Z 00000KT CAVOK 35/11 Q1013;
0072832880999992011082920004-13267-043417FM-15+0443SBLP V0209999C000019999999Y0099001N1+03401+01101999999ADDMA1101391999999REMMET045METAR SBLP 292000Z 00000KT CAVOK 34/11 Q1014;
0072832880999992011082921004-13267-043417FM-15+0443SBLP V0209999C000019999999Y0099001N1+03201+01201999999ADDMA1101391999999REMMET045METAR SBLP 292100Z 00000KT CAVOK 32/12 Q1014;
0072832880999992011083010004-13267-043417FM-15+0443SBLP V0209999C000019999999Y0099001N1+02201+01401999999ADDMA1101801999999REMMET045METAR SBLP 301000Z 00000KT CAVOK 22/14 Q1018;
0072832880999992011083011004-13267-043417FM-15+0443SBLP V0200901N003119999999Y0099001N1+02501+01301999999ADDMA1101901999999REMMET045METAR SBLP 301100Z 09006KT CAVOK 25/13 Q1019;
0072832880999992011083012004-13267-043417FM-15+0443SBLP V0200901N003119999999Y0099001N1+02801+01301999999ADDMA1101901999999REMMET045METAR SBLP 301200Z 09006KT CAVOK 28/13 Q1019;
0072832880999992011083013004-13267-043417FM-15+0443SBLP V0200901N003119999999Y0099001N1+03101+01201999999ADDMA1101901999999REMMET045METAR SBLP 301300Z 09006KT CAVOK 31/12 Q1019;
0073832880999992011083014004-13267-043417FM-15+0443SBLP V0200901N003119999999Y0099001N1+03101+01101999999ADDMA1101901999999REMMET046METAR SBLP 301400Z 09006KT CAVOK 31/11 Q10198;
0120832880999992011083015004-13267-043417FM-15+0443SBLP V0200901N003112200019N0112651N1+03301+01101999999ADDGA1021+009001999GF102991999999999999999999MA1101691999999REMMET051METAR SBLP 301500Z 09006KT 9999 FEW030 33/11 Q1017;
0120832880999992011083016004-13267-043417FM-15+0443SBLP V0209999C000012200019N0112651N1+03301+01101999999ADDGA1021+009001999GF102991999999999999999999MA1101591999999REMMET051METAR SBLP 301600Z 00000KT 9999 FEW030 33/11 Q1016;
0120832880999992011083017004-13267-043417FM-15+0443SBLP V0202701N003112200019N0112651N1+03401+01001999999ADDGA1021+009001999GF102991999999999999999999MA1101491999999REMMET051METAR SBLP 301700Z 27006KT 9999 FEW030 34/10 Q1015;
0120832880999992011083018004-13267-043417FM-15+0443SBLP V0202701N003112200019N0112651N1+03501+01001999999ADDGA1021+009001999GF102991999999999999999999MA1101391999999REMMET051METAR SBLP 301800Z 27006KT 9999 FEW030 35/10 Q1014;
0120832880999992011083019004-13267-043417FM-15+0443SBLP V0202701N003112200019N0112651N1+03401+01001999999ADDGA1021+009001999GF102991999999999999999999MA1101291999999REMMET051METAR SBLP 301900Z 27006KT 9999 FEW030 34/10 Q1013;
0072832880999992011083020004-13267-043417FM-15+0443SBLP V0209999C000019999999Y0099001N1+03301+01201999999ADDMA1101391999999REMMET045METAR SBLP 302000Z 00000KT CAVOK 33/12 Q1014;
0072832880999992011083021004-13267-043417FM-15+0443SBLP V0209999C000019999999Y0099001N1+03101+01401999999ADDMA1101391999999REMMET045METAR SBLP 302100Z 00000KT CAVOK 31/14 Q1014;
0072832880999992011083110004-13267-043417FM-15+0443SBLP V0202101N001519999999Y0099001N1+02001+01301999999ADDMA1101801999999REMMET045METAR SBLP 311000Z 21003KT CAVOK 20/13 Q1018;
0072832880999992011083111004-13267-043417FM-15+0443SBLP V0202101N001519999999Y0099001N1+02301+01301999999ADDMA1101901999999REMMET045METAR SBLP 311100Z 21003KT CAVOK 23/13 Q1019;
0072832880999992011083112004-13267-043417FM-15+0443SBLP V0209999C000019999999Y0099001N1+02801+01301999999ADDMA1101901999999REMMET045METAR SBLP 311200Z 00000KT CAVOK 28/13 Q1019;
0072832880999992011083113004-13267-043417FM-15+0443SBLP V0200601N002119999999Y0099001N1+03201+01101999999ADDMA1101901999999REMMET045METAR SBLP 311300Z 06004KT CAVOK 32/11 Q1019;
0072832880999992011083114004-13267-043417FM-15+0443SBLP V0201101N003119999999Y0099001N1+03301+01301999999ADDMA1101801999999REMMET045METAR SBLP 311400Z 11006KT CAVOK 33/13 Q1018;
0072832880999992011083115004-13267-043417FM-15+0443SBLP V0202101N003119999999Y0099001N1+03501+01001999999ADDMA1101691999999REMMET045METAR SBLP 311500Z 21006KT CAVOK 35/10 Q1017;
0072832880999992011083116004-13267-043417FM-15+0443SBLP V0201801N003119999999Y0099001N1+03501+01001999999ADDMA1101591999999REMMET045METAR SBLP 311600Z 18006KT CAVOK 35/10 Q1016;
0072832880999992011083117004-13267-043417FM-15+0443SBLP V0201801N003119999999Y0099001N1+03601+01001999999ADDMA1101491999999REMMET045METAR SBLP 311700Z 18006KT CAVOK 36/10 Q1015;
0072832880999992011083118004-13267-043417FM-15+0443SBLP V0201801N003119999999Y0099001N1+03701+00901999999ADDMA1101391999999REMMET045METAR SBLP 311800Z 18006KT CAVOK 37/09 Q1014;
0072832880999992011083119004-13267-043417FM-15+0443SBLP V0201801N003119999999Y0099001N1+03701+01001999999ADDMA1101391999999REMMET045METAR SBLP 311900Z 18006KT CAVOK 37/10 Q1014;
0072832880999992011083120004-13267-043417FM-15+0443SBLP V0201801N003119999999Y0099001N1+03501+01001999999ADDMA1101391999999REMMET045METAR SBLP 312000Z 18006KT CAVOK 35/10 Q1014;
0072832880999992011083121004-13267-043417FM-15+0443SBLP V0201801N003119999999Y0099001N1+03301+01101999999ADDMA1101391999999REMMET045METAR SBLP 312100Z 18006KT CAVOK 33/11 Q1014;
0072832880999992011090110004-13267-043417FM-15+0443SBLP V0209999C000019999999Y0099001N1+02401+01301999999ADDMA1101691999999REMMET045METAR SBLP 011000Z 00000KT CAVOK 24/13 Q1017;
0072832880999992011090111004-13267-043417FM-15+0443SBLP V0209999C000019999999Y0099001N1+02601+01301999999ADDMA1101801999999REMMET045METAR SBLP 011100Z 00000KT CAVOK 26/13 Q1018;
0072832880999992011090112004-13267-043417FM-15+0443SBLP V0201801N003119999999Y0099001N1+02801+01201999999ADDMA1101901999999REMMET045METAR SBLP 011200Z 18006KT CAVOK 28/12 Q1019;
0072832880999992011090113004-13267-043417FM-15+0443SBLP V0201801N003119999999Y0099001N1+03001+01201999999ADDMA1101801999999REMMET045METAR SBLP 011300Z 18006KT CAVOK 30/12 Q1018;
0072832880999992011090114004-13267-043417FM-15+0443SBLP V0201801N003119999999Y0099001N1+03201+01101999999ADDMA1101801999999REMMET045METAR SBLP 011400Z 18006KT CAVOK 32/11 Q1018;
0072832880999992011090115004-13267-043417FM-15+0443SBLP V0201801N003119999999Y0099001N1+03401+01001999999ADDMA1101691999999REMMET045METAR SBLP 011500Z 18006KT CAVOK 34/10 Q1017;
0120832880999992011090116004-13267-043417FM-15+0443SBLP V0200901N003112200019N0112651N1+03501+01201999999ADDGA1021+009001999GF102991999999999999999999MA1101591999999REMMET051METAR SBLP 011600Z 09006KT 9999 FEW030 35/12 Q1016;
0072832880999992011090117004-13267-043417FM-15+0443SBLP V0201801N005119999999Y0099001N1+03601+01301999999ADDMA1101491999999REMMET045METAR SBLP 011700Z 18010KT CAVOK 36/13 Q1015;
0072832880999992011090118004-13267-043417FM-15+0443SBLP V0201801N004119999999Y0099001N1+03601+01301999999ADDMA1101391999999REMMET045METAR SBLP 011800Z 18008KT CAVOK 36/13 Q1014;
0072832880999992011090119004-13267-043417FM-15+0443SBLP V0201201N004119999999Y0099001N1+03701+01201999999ADDMA1101391999999REMMET045METAR SBLP 011900Z 12008KT CAVOK 37/12 Q1014;
0072832880999992011090120004-13267-043417FM-15+0443SBLP V0201201N002119999999Y0099001N1+03501+01101999999ADDMA1101491999999REMMET045METAR SBLP 012000Z 12004KT CAVOK 35/11 Q1015;
0072832880999992011090121004-13267-043417FM-15+0443SBLP V0201501N003119999999Y0099001N1+03301+00601999999ADDMA1101491999999REMMET045METAR SBLP 012100Z 15006KT CAVOK 33/06 Q1015;
0072832880999992011090210004-13267-043417FM-15+0443SBLP V0201801N002119999999Y0099001N1+02101+01501999999ADDMA1101901999999REMMET045METAR SBLP 021000Z 18004KT CAVOK 21/15 Q1019;
0072832880999992011090211004-13267-043417FM-15+0443SBLP V0201401N005119999999Y0099001N1+02501+01401999999ADDMA1102001999999REMMET045METAR SBLP 021100Z 14010KT CAVOK 25/14 Q1020;
0072832880999992011090212004-13267-043417FM-15+0443SBLP V0201501N003119999999Y0099001N1+02801+01301999999ADDMA1102001999999REMMET045METAR SBLP 021200Z 15006KT CAVOK 28/13 Q1020;
0072832880999992011090213004-13267-043417FM-15+0443SBLP V0201201N004119999999Y0099001N1+03001+01201999999ADDMA1102001999999REMMET045METAR SBLP 021300Z 12008KT CAVOK 30/12 Q1020;
0072832880999992011090214004-13267-043417FM-15+0443SBLP V0201801N005119999999Y0099001N1+03101+01401999999ADDMA1102001999999REMMET045METAR SBLP 021400Z 18010KT CAVOK 31/14 Q1020;
0072832880999992011090215004-13267-043417FM-15+0443SBLP V0201201N004119999999Y0099001N1+03201+01201999999ADDMA1101901999999REMMET045METAR SBLP 021500Z 12008KT CAVOK 32/12 Q1019;
0072832880999992011090216004-13267-043417FM-15+0443SBLP V0201201N003119999999Y0099001N1+03401+01201999999ADDMA1101691999999REMMET045METAR SBLP 021600Z 12006KT CAVOK 34/12 Q1017;
0072832880999992011090217004-13267-043417FM-15+0443SBLP V0201501N003119999999Y0099001N1+03501+01101999999ADDMA1101591999999REMMET045METAR SBLP 021700Z 15006KT CAVOK 35/11 Q1016;
0072832880999992011090218004-13267-043417FM-15+0443SBLP V0201801N003119999999Y0099001N1+03501+01101999999ADDMA1101491999999REMMET045METAR SBLP 021800Z 18006KT CAVOK 35/11 Q1015;
0072832880999992011090219004-13267-043417FM-15+0443SBLP V0201601N003119999999Y0099001N1+03501+01201999999ADDMA1101491999999REMMET045METAR SBLP 021900Z 16006KT CAVOK 35/12 Q1015;
0072832880999992011090220004-13267-043417FM-15+0443SBLP V0200901N003119999999Y0099001N1+03301+01301999999ADDMA1101591999999REMMET045METAR SBLP 022000Z 09006KT CAVOK 33/13 Q1016;
0072832880999992011090221004-13267-043417FM-15+0443SBLP V0200901N003119999999Y0099001N1+03301+01301999999ADDMA1101491999999REMMET045METAR SBLP 022100Z 09006KT CAVOK 33/13 Q1015;
0072832880999992011090310004-13267-043417FM-15+0443SBLP V0209999C000019999999Y0099001N1+02001+01401999999ADDMA1102001999999REMMET045METAR SBLP 031000Z 00000KT CAVOK 20/14 Q1020;
0072832880999992011090311004-13267-043417FM-15+0443SBLP V0201201N003119999999Y0099001N1+02501+01501999999ADDMA1102001999999REMMET045METAR SBLP 031100Z 12006KT CAVOK 25/15 Q1020;
0072832880999992011090312004-13267-043417FM-15+0443SBLP V0200901N003119999999Y0099001N1+02701+01501999999ADDMA1102101999999REMMET045METAR SBLP 031200Z 09006KT CAVOK 27/15 Q1021;
0120832880999992011090313004-13267-043417FM-15+0443SBLP V0200901N004112200019N0112651N1+02901+01501999999ADDGA1041+009001999GF104991999999999999999999MA1102101999999REMMET051METAR SBLP 031300Z 09008KT 9999 SCT030 29/15 Q1021;
0120832880999992011090314004-13267-043417FM-15+0443SBLP V0201601N003112200019N0112651N1+03101+01401999999ADDGA1041+009001999GF104991999999999999999999MA1102001999999REMMET051METAR SBLP 031400Z 16006KT 9999 SCT030 31/14 Q1020;
0120832880999992011090315004-13267-043417FM-15+0443SBLP V0201601N003112200019N0112651N1+03201+01301999999ADDGA1041+009001999GF104991999999999999999999MA1101901999999REMMET051METAR SBLP 031500Z 16006KT 9999 SCT030 32/13 Q1019;
0120832880999992011090316004-13267-043417FM-15+0443SBLP V0200301N003112200019N0112651N1+03401+01401999999ADDGA1041+009001999GF104991999999999999999999MA1101801999999REMMET051METAR SBLP 031600Z 03006KT 9999 SCT030 34/14 Q1018;
0120832880999992011090317004-13267-043417FM-15+0443SBLP V0201201N003112200019N0112651N1+03301+01201999999ADDGA1041+009001999GF104991999999999999999999MA1101591999999REMMET051METAR SBLP 031700Z 12006KT 9999 SCT030 33/12 Q1016;
0120832880999992011090318004-13267-043417FM-15+0443SBLP V0200901N003112200019N0112651N1+03401+01201999999ADDGA1041+009001999GF104991999999999999999999MA1101491999999REMMET051METAR SBLP 031800Z 09006KT 9999 SCT030 34/12 Q1015;
0120832880999992011090319004-13267-043417FM-15+0443SBLP V0200901N003112200019N0112651N1+03301+01001999999ADDGA1041+009001999GF104991999999999999999999MA1101491999999REMMET051METAR SBLP 031900Z 09006KT 9999 SCT030 33/10 Q1015;
0120832880999992011090320004-13267-043417FM-15+0443SBLP V0200901N003112200019N0112651N1+03301+01101999999ADDGA1041+009001999GF104991999999999999999999MA1101591999999REMMET051METAR SBLP 032000Z 09006KT 9999 SCT030 33/11 Q1016;
0120832880999992011090321004-13267-043417FM-15+0443SBLP V0200901N005112200019N0112651N1+03001+01001999999ADDGA1041+009001999GF104991999999999999999999MA1101591999999REMMET051METAR SBLP 032100Z 09010KT 9999 SCT030 30/10 Q1016;
0072832880999992011090410004-13267-043417FM-15+0443SBLP V0201801N003119999999Y0099001N1+01901+01301999999ADDMA1102101999999REMMET045METAR SBLP 041000Z 18006KT CAVOK 19/13 Q1021;
0072832880999992011090411004-13267-043417FM-15+0443SBLP V0201201N004119999999Y0099001N1+02301+01301999999ADDMA1102201999999REMMET045METAR SBLP 041100Z 12008KT CAVOK 23/13 Q1022;
0072832880999992011090412004-13267-043417FM-15+0443SBLP V0200901N004119999999Y0099001N1+02501+01401999999ADDMA1102201999999REMMET045METAR SBLP 041200Z 09008KT CAVOK 25/14 Q1022;
0072832880999992011090413004-13267-043417FM-15+0443SBLP V0201201N002119999999Y0099001N1+02701+01301999999ADDMA1102201999999REMMET045METAR SBLP 041300Z 12004KT CAVOK 27/13 Q1022;
0072832880999992011090414004-13267-043417FM-15+0443SBLP V0201801N002119999999Y0099001N1+02901+01301999999ADDMA1102101999999REMMET045METAR SBLP 041400Z 18004KT CAVOK 29/13 Q1021;
0072832880999992011090415004-13267-043417FM-15+0443SBLP V0209999C000019999999Y0099001N1+03001+01301999999ADDMA1102001999999REMMET045METAR SBLP 041500Z 00000KT CAVOK 30/13 Q1020;
0072832880999992011090416004-13267-043417FM-15+0443SBLP V0202101N004119999999Y0099001N1+03101+01201999999ADDMA1101801999999REMMET045METAR SBLP 041600Z 21008KT CAVOK 31/12 Q1018;
0072832880999992011090417004-13267-043417FM-15+0443SBLP V0202101N003119999999Y0099001N1+03201+01201999999ADDMA1101691999999REMMET045METAR SBLP 041700Z 21006KT CAVOK 32/12 Q1017;
0072832880999992011090418004-13267-043417FM-15+0443SBLP V0202701N003119999999Y0099001N1+03301+01201999999ADDMA1101591999999REMMET045METAR SBLP 041800Z 27006KT CAVOK 33/12 Q1016;
0072832880999992011090419004-13267-043417FM-15+0443SBLP V0200601N003119999999Y0099001N1+03401+01101999999ADDMA1101591999999REMMET045METAR SBLP 041900Z 06006KT CAVOK 34/11 Q1016;
0072832880999992011090420004-13267-043417FM-15+0443SBLP V0201201N003119999999Y0099001N1+03301+01201999999ADDMA1101591999999REMMET045METAR SBLP 042000Z 12006KT CAVOK 33/12 Q1016;
0072832880999992011090421004-13267-043417FM-15+0443SBLP V0201201N003119999999Y0099001N1+03001+01401999999ADDMA1101591999999REMMET045METAR SBLP 042100Z 12006KT CAVOK 30/14 Q1016;
0072832880999992011090510004-13267-043417FM-15+0443SBLP V0209999C000019999999Y0099001N1+01901+01101999999ADDMA1102001999999REMMET045METAR SBLP 051000Z 00000KT CAVOK 19/11 Q1020;
0072832880999992011090511004-13267-043417FM-15+0443SBLP V0209999C000019999999Y0099001N1+02201+01201999999ADDMA1102101999999REMMET045METAR SBLP 051100Z 00000KT CAVOK 22/12 Q1021;
0072832880999992011090512004-13267-043417FM-15+0443SBLP V0209999C000019999999Y0099001N1+02401+01101999999ADDMA1102201999999REMMET045METAR SBLP 051200Z 00000KT CAVOK 24/11 Q1022;
0072832880999992011090513004-13267-043417FM-15+0443SBLP V0209999C000019999999Y0099001N1+02701+01201999999ADDMA1102201999999REMMET045METAR SBLP 051300Z 00000KT CAVOK 27/12 Q1022;
0072832880999992011090514004-13267-043417FM-15+0443SBLP V0201201N003119999999Y0099001N1+02901+01201999999ADDMA1102101999999REMMET045METAR SBLP 051400Z 12006KT CAVOK 29/12 Q1021;
0072832880999992011090515004-13267-043417FM-15+0443SBLP V0201201N003119999999Y0099001N1+03101+01001999999ADDMA1101901999999REMMET045METAR SBLP 051500Z 12006KT CAVOK 31/10 Q1019;
0072832880999992011090516004-13267-043417FM-15+0443SBLP V0201801N003119999999Y0099001N1+03201+00901999999ADDMA1101801999999REMMET045METAR SBLP 051600Z 18006KT CAVOK 32/09 Q1018;
0072832880999992011090517004-13267-043417FM-15+0443SBLP V0201801N003119999999Y0099001N1+03401+00801999999ADDMA1101691999999REMMET045METAR SBLP 051700Z 18006KT CAVOK 34/08 Q1017;
0072832880999992011090518004-13267-043417FM-15+0443SBLP V0201801N003119999999Y0099001N1+03501+00701999999ADDMA1101491999999REMMET045METAR SBLP 051800Z 18006KT CAVOK 35/07 Q1015;
0072832880999992011090519004-13267-043417FM-15+0443SBLP V0201801N003119999999Y0099001N1+03401+00701999999ADDMA1101491999999REMMET045METAR SBLP 051900Z 18006KT CAVOK 34/07 Q1015;
0072832880999992011090520004-13267-043417FM-15+0443SBLP V0201801N003119999999Y0099001N1+03301+00801999999ADDMA1101491999999REMMET045METAR SBLP 052000Z 18006KT CAVOK 33/08 Q1015;
0072832880999992011090521004-13267-043417FM-15+0443SBLP V0201801N003119999999Y0099001N1+03101+00901999999ADDMA1101491999999REMMET045METAR SBLP 052100Z 18006KT CAVOK 31/09 Q1015;
0072832880999992011090610004-13267-043417FM-15+0443SBLP V0209999C000019999999Y0099001N1+02001+01301999999ADDMA1101901999999REMMET045METAR SBLP 061000Z 00000KT CAVOK 20/13 Q1019;
0072832880999992011090611004-13267-043417FM-15+0443SBLP V0209999C000019999999Y0099001N1+02301+01201999999ADDMA1101901999999REMMET045METAR SBLP 061100Z 00000KT CAVOK 23/12 Q1019;
0072832880999992011090612004-13267-043417FM-15+0443SBLP V0200901N003119999999Y0099001N1+02601+01201999999ADDMA1101901999999REMMET045METAR SBLP 061200Z 09006KT CAVOK 26/12 Q1019;
0072832880999992011090613004-13267-043417FM-15+0443SBLP V0200901N003119999999Y0099001N1+02801+01101999999ADDMA1101901999999REMMET045METAR SBLP 061300Z 09006KT CAVOK 28/11 Q1019;
0072832880999992011090614004-13267-043417FM-15+0443SBLP V0200901N003119999999Y0099001N1+03001+00901999999ADDMA1101801999999REMMET045METAR SBLP 061400Z 09006KT CAVOK 30/09 Q1018;
0072832880999992011090615004-13267-043417FM-15+0443SBLP V0201801N003119999999Y0099001N1+03201+00801999999ADDMA1101691999999REMMET045METAR SBLP 061500Z 18006KT CAVOK 32/08 Q1017;
0072832880999992011090616004-13267-043417FM-15+0443SBLP V0202401N005119999999Y0099001N1+03201+01101999999ADDMA1101591999999REMMET045METAR SBLP 061600Z 24010KT CAVOK 32/11 Q1016;
0072832880999992011090617004-13267-043417FM-15+0443SBLP V0202101N005119999999Y0099001N1+03401+01101999999ADDMA1101391999999REMMET045METAR SBLP 061700Z 21010KT CAVOK 34/11 Q1014;
0072832880999992011090618004-13267-043417FM-15+0443SBLP V0202101N003119999999Y0099001N1+03301+00901999999ADDMA1101391999999REMMET045METAR SBLP 061800Z 21006KT CAVOK 33/09 Q1014;
0072832880999992011090619004-13267-043417FM-15+0443SBLP V0202701N004119999999Y0099001N1+03401+00701999999ADDMA1101291999999REMMET045METAR SBLP 061900Z 27008KT CAVOK 34/07 Q1013;
0072832880999992011090620004-13267-043417FM-15+0443SBLP V0202101N003119999999Y0099001N1+03301+00801999999ADDMA1101391999999REMMET045METAR SBLP 062000Z 21006KT CAVOK 33/08 Q1014;
0072832880999992011090621004-13267-043417FM-15+0443SBLP V0202101N002119999999Y0099001N1+03001+00801999999ADDMA1101391999999REMMET045METAR SBLP 062100Z 21004KT CAVOK 30/08 Q1014;
0072832880999992011090710004-13267-043417FM-15+0443SBLP V0209999C000019999999Y0099001N1+02001+01201999999ADDMA1101801999999REMMET045METAR SBLP 071000Z 00000KT CAVOK 20/12 Q1018;
0072832880999992011090711004-13267-043417FM-15+0443SBLP V0200601N004119999999Y0099001N1+02501+01201999999ADDMA1101801999999REMMET045METAR SBLP 071100Z 06008KT CAVOK 25/12 Q1018;
0072832880999992011090712004-13267-043417FM-15+0443SBLP V0200601N004619999999Y0099001N1+02701+01201999999ADDMA1101901999999REMMET045METAR SBLP 071200Z 06009KT CAVOK 27/12 Q1019;
0072832880999992011090713004-13267-043417FM-15+0443SBLP V0200601N002119999999Y0099001N1+02901+01201999999ADDMA1101901999999REMMET045METAR SBLP 071300Z 06004KT CAVOK 29/12 Q1019;
0072832880999992011090714004-13267-043417FM-15+0443SBLP V0201801N002119999999Y0099001N1+03101+01201999999ADDMA1101801999999REMMET045METAR SBLP 071400Z 18004KT CAVOK 31/12 Q1018;
0072832880999992011090715004-13267-043417FM-15+0443SBLP V0201801N002119999999Y0099001N1+03301+01101999999ADDMA1101591999999REMMET045METAR SBLP 071500Z 18004KT CAVOK 33/11 Q1016;
0072832880999992011090716004-13267-043417FM-15+0443SBLP V0209999C000019999999Y0099001N1+03401+01101999999ADDMA1101491999999REMMET045METAR SBLP 071600Z 00000KT CAVOK 34/11 Q1015;
0072832880999992011090717004-13267-043417FM-15+0443SBLP V0209999C000019999999Y0099001N1+03501+01001999999ADDMA1101391999999REMMET045METAR SBLP 071700Z 00000KT CAVOK 35/10 Q1014;
0072832880999992011090718004-13267-043417FM-15+0443SBLP V0202401N003119999999Y0099001N1+03501+01001999999ADDMA1101291999999REMMET045METAR SBLP 071800Z 24006KT CAVOK 35/10 Q1013;
0072832880999992011090719004-13267-043417FM-15+0443SBLP V0202101N003119999999Y0099001N1+03501+00901999999ADDMA1101291999999REMMET045METAR SBLP 071900Z 21006KT CAVOK 35/09 Q1013;
0072832880999992011090720004-13267-043417FM-15+0443SBLP V0202101N003119999999Y0099001N1+03401+01001999999ADDMA1101291999999REMMET045METAR SBLP 072000Z 21006KT CAVOK 34/10 Q1013;
0072832880999992011090721004-13267-043417FM-15+0443SBLP V0209999C000019999999Y0099001N1+03301+01101999999ADDMA1101391999999REMMET045METAR SBLP 072100Z 00000KT CAVOK 33/11 Q1014;
0072832880999992011090810004-13267-043417FM-15+0443SBLP V0209999C000019999999Y0099001N1+01901+01201999999ADDMA1101691999999REMMET045METAR SBLP 081000Z 00000KT CAVOK 19/12 Q1017;
0054832880999992011090811004-13267-043417FM-15+0443SBLP V0209999C000019999999Y0099001N1+02401+01101999999REMMET045METAR SBLP 081100Z 00000KT CAVOK 24/11 Q////;
0072832880999992011090812004-13267-043417FM-15+0443SBLP V0200901N003119999999Y0099001N1+02701+01201999999ADDMA1101801999999REMMET045METAR SBLP 081200Z 09006KT CAVOK 27/12 Q1018;
0072832880999992011090813004-13267-043417FM-15+0443SBLP V0201201N003119999999Y0099001N1+03001+01001999999ADDMA1101801999999REMMET045METAR SBLP 081300Z 12006KT CAVOK 30/10 Q1018;
0072832880999992011090814004-13267-043417FM-15+0443SBLP V0200601N002119999999Y0099001N1+03101+01001999999ADDMA1101691999999REMMET045METAR SBLP 081400Z 06004KT CAVOK 31/10 Q1017;
0072832880999992011090815004-13267-043417FM-15+0443SBLP V0201801N003119999999Y0099001N1+03301+00901999999ADDMA1101591999999REMMET045METAR SBLP 081500Z 18006KT CAVOK 33/09 Q1016;
0072832880999992011090816004-13267-043417FM-15+0443SBLP V0201801N003119999999Y0099001N1+03401+00901999999ADDMA1101491999999REMMET045METAR SBLP 081600Z 18006KT CAVOK 34/09 Q1015;
0072832880999992011090817004-13267-043417FM-15+0443SBLP V0201801N003119999999Y0099001N1+03501+00801999999ADDMA1101291999999REMMET045METAR SBLP 081700Z 18006KT CAVOK 35/08 Q1013;
0072832880999992011090818004-13267-043417FM-15+0443SBLP V0201801N003119999999Y0099001N1+03601+00801999999ADDMA1101191999999REMMET045METAR SBLP 081800Z 18006KT CAVOK 36/08 Q1012;
0072832880999992011090913004-13267-043417FM-15+0443SBLP V0200901N003119999999Y0099001N1+02901+01201999999ADDMA1101691999999REMMET045METAR SBLP 091300Z 09006KT CAVOK 29/12 Q1017;
0072832880999992011090914004-13267-043417FM-15+0443SBLP V0200901N003119999999Y0099001N1+03101+01101999999ADDMA1101591999999REMMET045METAR SBLP 091400Z 09006KT CAVOK 31/11 Q1016;
0072832880999992011090915004-13267-043417FM-15+0443SBLP V0201801N003119999999Y0099001N1+03401+01001999999ADDMA1101391999999REMMET045METAR SBLP 091500Z 18006KT CAVOK 34/10 Q1014;
0072832880999992011090916004-13267-043417FM-15+0443SBLP V0209999C000019999999Y0099001N1+03601+00301999999ADDMA1101291999999REMMET045METAR SBLP 091600Z 00000KT CAVOK 36/03 Q1013;
0072832880999992011090918004-13267-043417FM-15+0443SBLP V0201801N004119999999Y0099001N1+03801+00601999999ADDMA1101081999999REMMET045METAR SBLP 091800Z 18008KT CAVOK 38/06 Q1011;
0072832880999992011090919004-13267-043417FM-15+0443SBLP V0201201N002119999999Y0099001N1+03701+00501999999ADDMA1101021999999REMMET045METAR SBLP 091900Z 12004KT CAVOK 37/05 Q1010;
0107832880999992011090920004-13267-043417FM-15+0443SBLP V0201501N002119999999Y0099001N1+03601+99999999999ADDMA1101021999999REMMET045METAR SBLP 092000Z 15004KT CAVOK 36/15 Q1010;EQDQ01+001503ATOD  Q02 +01503ATOD  
0072832880999992011090921004-13267-043417FM-15+0443SBLP V0202101N001519999999Y0099001N1+03201+00601999999ADDMA1101081999999REMMET045METAR SBLP 092100Z 21003KT CAVOK 32/06 Q1011;
0072832880999992011091010004-13267-043417FM-15+0443SBLP V0201301N001519999999Y0099001N1+01901+01101999999ADDMA1101591999999REMMET045METAR SBLP 101000Z 13003KT CAVOK 19/11 Q1016;
0072832880999992011091011004-13267-043417FM-15+0443SBLP V0209999C000019999999Y0099001N1+02301+01201999999ADDMA1101691999999REMMET045METAR SBLP 101100Z 00000KT CAVOK 23/12 Q1017;
0072832880999992011091012004-13267-043417FM-15+0443SBLP V0209999C000019999999Y0099001N1+02601+01201999999ADDMA1101801999999REMMET045METAR SBLP 101200Z 00000KT CAVOK 26/12 Q1018;
0072832880999992011091013004-13267-043417FM-15+0443SBLP V0201301N003119999999Y0099001N1+03101+01101999999ADDMA1101801999999REMMET045METAR SBLP 101300Z 13006KT CAVOK 31/11 Q1018;
0072832880999992011091014004-13267-043417FM-15+0443SBLP V0209999C000019999999Y0099001N1+03301+00901999999ADDMA1101691999999REMMET045METAR SBLP 101400Z 00000KT CAVOK 33/09 Q1017;
0072832880999992011091015004-13267-043417FM-15+0443SBLP V0201801N003119999999Y0099001N1+03501+00701999999ADDMA1101591999999REMMET045METAR SBLP 101500Z 18006KT CAVOK 35/07 Q1016;
0072832880999992011091016004-13267-043417FM-15+0443SBLP V0201801N003119999999Y0099001N1+03701+00601999999ADDMA1101491999999REMMET045METAR SBLP 101600Z 18006KT CAVOK 37/06 Q1015;
0072832880999992011091017004-13267-043417FM-15+0443SBLP V0201801N003119999999Y0099001N1+03701+00501999999ADDMA1101291999999REMMET045METAR SBLP 101700Z 18006KT CAVOK 37/05 Q1013;
0072832880999992011091018004-13267-043417FM-15+0443SBLP V0201801N003119999999Y0099001N1+03801+00501999999ADDMA1101191999999REMMET045METAR SBLP 101800Z 18006KT CAVOK 38/05 Q1012;
0072832880999992011091019004-13267-043417FM-15+0443SBLP V0201801N003119999999Y0099001N1+03801+00501999999ADDMA1101191999999REMMET045METAR SBLP 101900Z 18006KT CAVOK 38/05 Q1012;
0072832880999992011091020004-13267-043417FM-15+0443SBLP V0201801N003119999999Y0099001N1+03701+00501999999ADDMA1101291999999REMMET045METAR SBLP 102000Z 18006KT CAVOK 37/05 Q1013;
0072832880999992011091021004-13267-043417FM-15+0443SBLP V0201801N003119999999Y0099001N1+03501+00601999999ADDMA1101391999999REMMET045METAR SBLP 102100Z 18006KT CAVOK 35/06 Q1014;
0072832880999992011091110004-13267-043417FM-15+0443SBLP V0209999C000019999999Y0099001N1+02301+01501999999ADDMA1101901999999REMMET045METAR SBLP 111000Z 00000KT CAVOK 23/15 Q1019;
0072832880999992011091111004-13267-043417FM-15+0443SBLP V0209999C000019999999Y0099001N1+02501+01401999999ADDMA1102001999999REMMET045METAR SBLP 111100Z 00000KT CAVOK 25/14 Q1020;
0072832880999992011091112004-13267-043417FM-15+0443SBLP V0209999C000019999999Y0099001N1+02801+01201999999ADDMA1102001999999REMMET045METAR SBLP 111200Z 00000KT CAVOK 28/12 Q1020;
0072832880999992011091113004-13267-043417FM-15+0443SBLP V0209999C000019999999Y0099001N1+03101+01001999999ADDMA1102001999999REMMET045METAR SBLP 111300Z 00000KT CAVOK 31/10 Q1020;
0072832880999992011091114004-13267-043417FM-15+0443SBLP V0200901N003119999999Y0099001N1+03301+00801999999ADDMA1101901999999REMMET045METAR SBLP 111400Z 09006KT CAVOK 33/08 Q1019;
0072832880999992011091115004-13267-043417FM-15+0443SBLP V0200901N003119999999Y0099001N1+03501+00601999999ADDMA1101691999999REMMET045METAR SBLP 111500Z 09006KT CAVOK 35/06 Q1017;
0072832880999992011091116004-13267-043417FM-15+0443SBLP V0200901N003119999999Y0099001N1+03701+00301999999ADDMA1101591999999REMMET045METAR SBLP 111600Z 09006KT CAVOK 37/03 Q1016;
0072832880999992011091117004-13267-043417FM-15+0443SBLP V0200901N004119999999Y0099001N1+03701+00101999999ADDMA1101491999999REMMET045METAR SBLP 111700Z 09008KT CAVOK 37/01 Q1015;
0054832880999992011091118004-13267-043417FM-15+0443SBLP V0201201N004119999999Y0099001N1+03801+00401999999REMMET045METAR SBLP 111800Z 12008KT CAVOK 38/04 Q////;
0072832880999992011091119004-13267-043417FM-15+0443SBLP V0201501N003119999999Y0099001N1+03801+00201999999ADDMA1101391999999REMMET045METAR SBLP 111900Z 15006KT CAVOK 38/02 Q1014;
0073832880999992011091120004-13267-043417FM-15+0443SBLP V0209999C000019999999Y0099001N1+03701-00101999999ADDMA1101391999999REMMET046METAR SBLP 112000Z 00000KT CAVOK 37/M01 Q1014;
0072832880999992011091121004-13267-043417FM-15+0443SBLP V0201201N002119999999Y0099001N1+03401+00001999999ADDMA1101491999999REMMET045METAR SBLP 112100Z 12004KT CAVOK 34/00 Q1015;
0072832880999992011091210004-13267-043417FM-15+0443SBLP V0209999C000019999999Y0099001N1+02101+00601999999ADDMA1101691999999REMMET045METAR SBLP 121000Z 00000KT CAVOK 21/06 Q1017;
0072832880999992011091211004-13267-043417FM-15+0443SBLP V0202101N002119999999Y0099001N1+02301+01101999999ADDMA1101801999999REMMET045METAR SBLP 121100Z 21004KT CAVOK 23/11 Q1018;
0072832880999992011091212004-13267-043417FM-15+0443SBLP V0209999C000019999999Y0099001N1+02801+01401999999ADDMA1101801999999REMMET045METAR SBLP 121200Z 00000KT CAVOK 28/14 Q1018;
0072832880999992011091213004-13267-043417FM-15+0443SBLP V0201201N003119999999Y0099001N1+03201+01101999999ADDMA1101801999999REMMET045METAR SBLP 121300Z 12006KT CAVOK 32/11 Q1018;
0072832880999992011091214004-13267-043417FM-15+0443SBLP V0201501N005119999999Y0099001N1+03401+01201999999ADDMA1101801999999REMMET045METAR SBLP 121400Z 15010KT CAVOK 34/12 Q1018;
0072832880999992011091215004-13267-043417FM-15+0443SBLP V0201501N002119999999Y0099001N1+03501+00901999999ADDMA1101691999999REMMET045METAR SBLP 121500Z 15004KT CAVOK 35/09 Q1017;
0072832880999992011091216004-13267-043417FM-15+0443SBLP V0200901N003119999999Y0099001N1+03701+00801999999ADDMA1101491999999REMMET045METAR SBLP 121600Z 09006KT CAVOK 37/08 Q1015;
0072832880999992011091217004-13267-043417FM-15+0443SBLP V0201501N003119999999Y0099001N1+03701+00801999999ADDMA1101391999999REMMET045METAR SBLP 121700Z 15006KT CAVOK 37/08 Q1014;
0072832880999992011091218004-13267-043417FM-15+0443SBLP V0201201N004119999999Y0099001N1+03701+00801999999ADDMA1101391999999REMMET045METAR SBLP 121800Z 12008KT CAVOK 37/08 Q1014;
0072832880999992011091219004-13267-043417FM-15+0443SBLP V0201501N003119999999Y0099001N1+03701+00801999999ADDMA1101291999999REMMET045METAR SBLP 121900Z 15006KT CAVOK 37/08 Q1013;
0072832880999992011091220004-13267-043417FM-15+0443SBLP V0200901N004119999999Y0099001N1+03501+01001999999ADDMA1101391999999REMMET045METAR SBLP 122000Z 09008KT CAVOK 35/10 Q1014;
0072832880999992011091221004-13267-043417FM-15+0443SBLP V0201201N003119999999Y0099001N1+03301+01201999999ADDMA1101491999999REMMET045METAR SBLP 122100Z 12006KT CAVOK 33/12 Q1015;
0072832880999992011091310004-13267-043417FM-15+0443SBLP V0209999C000019999999Y0099001N1+02201+01401999999ADDMA1102001999999REMMET045METAR SBLP 131000Z 00000KT CAVOK 22/14 Q1020;
0072832880999992011091311004-13267-043417FM-15+0443SBLP V0201201N003119999999Y0099001N1+02501+01401999999ADDMA1102001999999REMMET045METAR SBLP 131100Z 12006KT CAVOK 25/14 Q1020;
0072832880999992011091312004-13267-043417FM-15+0443SBLP V0201201N005119999999Y0099001N1+02701+01501999999ADDMA1102101999999REMMET045METAR SBLP 131200Z 12010KT CAVOK 27/15 Q1021;
0072832880999992011091313004-13267-043417FM-15+0443SBLP V0200901N004119999999Y0099001N1+02801+01401999999ADDMA1102001999999REMMET045METAR SBLP 131300Z 09008KT CAVOK 28/14 Q1020;
0072832880999992011091314004-13267-043417FM-15+0443SBLP V0200901N004119999999Y0099001N1+03101+01201999999ADDMA1101901999999REMMET045METAR SBLP 131400Z 09008KT CAVOK 31/12 Q1019;
0072832880999992011091315004-13267-043417FM-15+0443SBLP V0201501N003119999999Y0099001N1+03201+01201999999ADDMA1101801999999REMMET045METAR SBLP 131500Z 15006KT CAVOK 32/12 Q1018;
0072832880999992011091316004-13267-043417FM-15+0443SBLP V0200601N002619999999Y0099001N1+03301+01101999999ADDMA1101591999999REMMET045METAR SBLP 131600Z 06005KT CAVOK 33/11 Q1016;
0072832880999992011091317004-13267-043417FM-15+0443SBLP V0201201N003119999999Y0099001N1+03501+01001999999ADDMA1101491999999REMMET045METAR SBLP 131700Z 12006KT CAVOK 35/10 Q1015;
0072832880999992011091318004-13267-043417FM-15+0443SBLP V0201301N002119999999Y0099001N1+03501+01101999999ADDMA1101391999999REMMET045METAR SBLP 131800Z 13004KT CAVOK 35/11 Q1014;
0072832880999992011091319004-13267-043417FM-15+0443SBLP V0201401N002119999999Y0099001N1+03501+01101999999ADDMA1101391999999REMMET045METAR SBLP 131900Z 14004KT CAVOK 35/11 Q1014;
0072832880999992011091320004-13267-043417FM-15+0443SBLP V0201801N003119999999Y0099001N1+03401+01201999999ADDMA1101391999999REMMET045METAR SBLP 132000Z 18006KT CAVOK 34/12 Q1014;
0072832880999992011091321004-13267-043417FM-15+0443SBLP V0201401N004119999999Y0099001N1+03201+01001999999ADDMA1101391999999REMMET045METAR SBLP 132100Z 14008KT CAVOK 32/10 Q1014;
0072832880999992011091410004-13267-043417FM-15+0443SBLP V0209999C000019999999Y0099001N1+02201+01401999999ADDMA1101901999999REMMET045METAR SBLP 141000Z 00000KT CAVOK 22/14 Q1019;
0072832880999992011091411004-13267-043417FM-15+0443SBLP V0209999C000019999999Y0099001N1+02601+01101999999ADDMA1101901999999REMMET045METAR SBLP 141100Z 00000KT CAVOK 26/11 Q1019;
0072832880999992011091412004-13267-043417FM-15+0443SBLP V0200901N003119999999Y0099001N1+02801+01101999999ADDMA1102001999999REMMET045METAR SBLP 141200Z 09006KT CAVOK 28/11 Q1020;
0072832880999992011091413004-13267-043417FM-15+0443SBLP V0200901N003119999999Y0099001N1+03001+01001999999ADDMA1101901999999REMMET045METAR SBLP 141300Z 09006KT CAVOK 30/10 Q1019;
0072832880999992011091414004-13267-043417FM-15+0443SBLP V0200901N003119999999Y0099001N1+03101+00901999999ADDMA1101901999999REMMET045METAR SBLP 141400Z 09006KT CAVOK 31/09 Q1019;
0072832880999992011091415004-13267-043417FM-15+0443SBLP V0200901N003119999999Y0099001N1+03301+00901999999ADDMA1101801999999REMMET045METAR SBLP 141500Z 09006KT CAVOK 33/09 Q1018;
0072832880999992011091416004-13267-043417FM-15+0443SBLP V0201801N003119999999Y0099001N1+03501+00801999999ADDMA1101591999999REMMET045METAR SBLP 141600Z 18006KT CAVOK 35/08 Q1016;
0072832880999992011091417004-13267-043417FM-15+0443SBLP V0201801N003119999999Y0099001N1+03701+00701999999ADDMA1101491999999REMMET045METAR SBLP 141700Z 18006KT CAVOK 37/07 Q1015;
0072832880999992011091418004-13267-043417FM-15+0443SBLP V0200401N003119999999Y0099001N1+03701+00801999999ADDMA1101391999999REMMET045METAR SBLP 141800Z 04006KT CAVOK 37/08 Q1014;
0072832880999992011091419004-13267-043417FM-15+0443SBLP V0201501N005119999999Y0099001N1+03601+00801999999ADDMA1101391999999REMMET045METAR SBLP 141900Z 15010KT CAVOK 36/08 Q1014;
0072832880999992011091420004-13267-043417FM-15+0443SBLP V0201201N003119999999Y0099001N1+03501+00901999999ADDMA1101391999999REMMET045METAR SBLP 142000Z 12006KT CAVOK 35/09 Q1014;
0072832880999992011091421004-13267-043417FM-15+0443SBLP V0201501N003119999999Y0099001N1+03301+01201999999ADDMA1101391999999REMMET045METAR SBLP 142100Z 15006KT CAVOK 33/12 Q1014;
0072832880999992011091510004-13267-043417FM-15+0443SBLP V0209999C000019999999Y0099001N1+02401+01401999999ADDMA1102001999999REMMET045METAR SBLP 151000Z 00000KT CAVOK 24/14 Q1020;
0072832880999992011091511004-13267-043417FM-15+0443SBLP V0200901N003119999999Y0099001N1+02601+01301999999ADDMA1102101999999REMMET045METAR SBLP 151100Z 09006KT CAVOK 26/13 Q1021;
0072832880999992011091512004-13267-043417FM-15+0443SBLP V0200901N003119999999Y0099001N1+02801+01201999999ADDMA1102101999999REMMET045METAR SBLP 151200Z 09006KT CAVOK 28/12 Q1021;
0072832880999992011091513004-13267-043417FM-15+0443SBLP V0200901N003119999999Y0099001N1+03001+01101999999ADDMA1102101999999REMMET045METAR SBLP 151300Z 09006KT CAVOK 30/11 Q1021;
0072832880999992011091514004-13267-043417FM-15+0443SBLP V0200901N003119999999Y0099001N1+03101+01001999999ADDMA1102001999999REMMET045METAR SBLP 151400Z 09006KT CAVOK 31/10 Q1020;
0072832880999992011091515004-13267-043417FM-15+0443SBLP V0200901N003119999999Y0099001N1+03301+00901999999ADDMA1101901999999REMMET045METAR SBLP 151500Z 09006KT CAVOK 33/09 Q1019;
0072832880999992011091516004-13267-043417FM-15+0443SBLP V0200901N003119999999Y0099001N1+03301+00901999999ADDMA1101801999999REMMET045METAR SBLP 151600Z 09006KT CAVOK 33/09 Q1018;
0072832880999992011091517004-13267-043417FM-15+0443SBLP V0200901N003119999999Y0099001N1+03401+00901999999ADDMA1101691999999REMMET045METAR SBLP 151700Z 09006KT CAVOK 34/09 Q1017;
0072832880999992011091518004-13267-043417FM-15+0443SBLP V0200901N003119999999Y0099001N1+03301+01001999999ADDMA1101591999999REMMET045METAR SBLP 151800Z 09006KT CAVOK 33/10 Q1016;
0072832880999992011091519004-13267-043417FM-15+0443SBLP V0200901N003119999999Y0099001N1+03301+01001999999ADDMA1101591999999REMMET045METAR SBLP 151900Z 09006KT CAVOK 33/10 Q1016;
0072832880999992011091520004-13267-043417FM-15+0443SBLP V0200901N003119999999Y0099001N1+03301+01101999999ADDMA1101591999999REMMET045METAR SBLP 152000Z 09006KT CAVOK 33/11 Q1016;
0072832880999992011091521004-13267-043417FM-15+0443SBLP V0209999C000019999999Y0099001N1+03001+01501999999ADDMA1101591999999REMMET045METAR SBLP 152100Z 00000KT CAVOK 30/15 Q1016;
0072832880999992011091609154-13267-043417FM-15+0443SBLP V0200901N003119999999Y0099001N1+02101+01501999999ADDMA1102001999999REMMET045METAR SBLP 160915Z 09006KT CAVOK 21/15 Q1020;
0072832880999992011091610004-13267-043417FM-15+0443SBLP V0200901N003119999999Y0099001N1+02401+01401999999ADDMA1102101999999REMMET045METAR SBLP 161000Z 09006KT CAVOK 24/14 Q1021;
0072832880999992011091611004-13267-043417FM-15+0443SBLP V0200901N003119999999Y0099001N1+02601+01301999999ADDMA1102201999999REMMET045METAR SBLP 161100Z 09006KT CAVOK 26/13 Q1022;
0072832880999992011091612004-13267-043417FM-15+0443SBLP V0200901N003119999999Y0099001N1+02801+01201999999ADDMA1102201999999REMMET045METAR SBLP 161200Z 09006KT CAVOK 28/12 Q1022;
0072832880999992011091613004-13267-043417FM-15+0443SBLP V0200901N003119999999Y0099001N1+02901+01201999999ADDMA1102201999999REMMET045METAR SBLP 161300Z 09006KT CAVOK 29/12 Q1022;
0072832880999992011091614004-13267-043417FM-15+0443SBLP V0200901N003119999999Y0099001N1+03001+01101999999ADDMA1102101999999REMMET045METAR SBLP 161400Z 09006KT CAVOK 30/11 Q1021;
0072832880999992011091615004-13267-043417FM-15+0443SBLP V0200901N003119999999Y0099001N1+03101+01101999999ADDMA1101901999999REMMET045METAR SBLP 161500Z 09006KT CAVOK 31/11 Q1019;
0072832880999992011091616004-13267-043417FM-15+0443SBLP V0200901N002119999999Y0099001N1+03201+01101999999ADDMA1101801999999REMMET045METAR SBLP 161600Z 09004KT CAVOK 32/11 Q1018;
0072832880999992011091617004-13267-043417FM-15+0443SBLP V0201501N002119999999Y0099001N1+03301+01201999999ADDMA1101591999999REMMET045METAR SBLP 161700Z 15004KT CAVOK 33/12 Q1016;
0072832880999992011091618004-13267-043417FM-15+0443SBLP V0201501N003119999999Y0099001N1+03401+01201999999ADDMA1101591999999REMMET045METAR SBLP 161800Z 15006KT CAVOK 34/12 Q1016;
0072832880999992011091619004-13267-043417FM-15+0443SBLP V0201201N007719999999Y0099001N1+03301+01201999999ADDMA1101591999999REMMET045METAR SBLP 161900Z 12015KT CAVOK 33/12 Q1016;
0072832880999992011091620004-13267-043417FM-15+0443SBLP V0201201N004119999999Y0099001N1+03201+01401999999ADDMA1101591999999REMMET045METAR SBLP 162000Z 12008KT CAVOK 32/14 Q1016;
0072832880999992011091621004-13267-043417FM-15+0443SBLP V0201201N006219999999Y0099001N1+03001+01301999999ADDMA1101591999999REMMET045METAR SBLP 162100Z 12012KT CAVOK 30/13 Q1016;
0072832880999992011091710004-13267-043417FM-15+0443SBLP V0201501N004119999999Y0099001N1+02101+01401999999ADDMA1102101999999REMMET045METAR SBLP 171000Z 15008KT CAVOK 21/14 Q1021;
0072832880999992011091711004-13267-043417FM-15+0443SBLP V0201501N005119999999Y0099001N1+02301+01401999999ADDMA1102201999999REMMET045METAR SBLP 171100Z 15010KT CAVOK 23/14 Q1022;
0072832880999992011091712004-13267-043417FM-15+0443SBLP V0200901N003119999999Y0099001N1+02501+01501999999ADDMA1102201999999REMMET045METAR SBLP 171200Z 09006KT CAVOK 25/15 Q1022;
0072832880999992011091713004-13267-043417FM-15+0443SBLP V0201201N007719999999Y0099001N1+02801+01401999999ADDMA1102201999999REMMET045METAR SBLP 171300Z 12015KT CAVOK 28/14 Q1022;
0072832880999992011091714004-13267-043417FM-15+0443SBLP V0201201N007719999999Y0099001N1+02901+01401999999ADDMA1102101999999REMMET045METAR SBLP 171400Z 12015KT CAVOK 29/14 Q1021;
0072832880999992011091715004-13267-043417FM-15+0443SBLP V0201201N006219999999Y0099001N1+02901+01301999999ADDMA1102001999999REMMET045METAR SBLP 171500Z 12012KT CAVOK 29/13 Q1020;
0120832880999992011091716004-13267-043417FM-15+0443SBLP V0209999C000012200019N0112651N1+03001+01301999999ADDGA1021+009001999GF102991999999999999999999MA1101801999999REMMET051METAR SBLP 171600Z 00000KT 9999 FEW030 30/13 Q1018;
0120832880999992011091717004-13267-043417FM-15+0443SBLP V0209999C000012200019N0112651N1+03201+01201999999ADDGA1021+009001999GF102991999999999999999999MA1101691999999REMMET051METAR SBLP 171700Z 00000KT 9999 FEW030 32/12 Q1017;
0120832880999992011091718004-13267-043417FM-15+0443SBLP V0200901N003112200019N0112651N1+03301+01201999999ADDGA1041+009001999GF104991999999999999999999MA1101591999999REMMET051METAR SBLP 171800Z 09006KT 9999 SCT030 33/12 Q1016;
0120832880999992011091719004-13267-043417FM-15+0443SBLP V0201201N003112200019N0112651N1+03301+01201999999ADDGA1041+009001999GF104991999999999999999999MA1101591999999REMMET051METAR SBLP 171900Z 12006KT 9999 SCT030 33/12 Q1016;
0120832880999992011091720004-13267-043417FM-15+0443SBLP V0209999C000012200019N0112651N1+03101+01201999999ADDGA1021+009001999GF102991999999999999999999MA1101591999999REMMET051METAR SBLP 172000Z 00000KT 9999 FEW030 31/12 Q1016;
0120832880999992011091721004-13267-043417FM-15+0443SBLP V0209999C000012200019N0112651N1+03101+01201999999ADDGA1021+009001999GF102991999999999999999999MA1101591999999REMMET051METAR SBLP 172100Z 00000KT 9999 FEW030 31/12 Q1016;
0072832880999992011091810004-13267-043417FM-15+0443SBLP V0201401N003119999999Y0099001N1+01901+01301999999ADDMA1102201999999REMMET045METAR SBLP 181000Z 14006KT CAVOK 19/13 Q1022;
0072832880999992011091811004-13267-043417FM-15+0443SBLP V0201401N005119999999Y0099001N1+02301+01401999999ADDMA1102201999999REMMET045METAR SBLP 181100Z 14010KT CAVOK 23/14 Q1022;
0072832880999992011091812004-13267-043417FM-15+0443SBLP V0200901N005119999999Y0099001N1+02501+01401999999ADDMA1102201999999REMMET045METAR SBLP 181200Z 09010KT CAVOK 25/14 Q1022;
0072832880999992011091813004-13267-043417FM-15+0443SBLP V0200901N005119999999Y0099001N1+02701+01301999999ADDMA1102201999999REMMET045METAR SBLP 181300Z 09010KT CAVOK 27/13 Q1022;
0072832880999992011091814004-13267-043417FM-15+0443SBLP V0200901N003119999999Y0099001N1+03001+01401999999ADDMA1102101999999REMMET045METAR SBLP 181400Z 09006KT CAVOK 30/14 Q1021;
0120832880999992011091815004-13267-043417FM-15+0443SBLP V0200901N005112200019N0112651N1+03101+01401999999ADDGA1021+009001999GF102991999999999999999999MA1102001999999REMMET051METAR SBLP 181500Z 09010KT 9999 FEW030 31/14 Q1020;
0072832880999992011091816004-13267-043417FM-15+0443SBLP V0201501N006219999999Y0099001N1+03101+01301999999ADDMA1101901999999REMMET045METAR SBLP 181600Z 15012KT CAVOK 31/13 Q1019;
0072832880999992011091820004-13267-043417FM-15+0443SBLP V0201201N004119999999Y0099001N1+03101+01201999999ADDMA1101691999999REMMET045METAR SBLP 182000Z 12008KT CAVOK 31/12 Q1017;
0072832880999992011091821004-13267-043417FM-15+0443SBLP V0201201N005119999999Y0099001N1+02901+01101999999ADDMA1101691999999REMMET045METAR SBLP 182100Z 12010KT CAVOK 29/11 Q1017;
0072832880999992011091910004-13267-043417FM-15+0443SBLP V0201201N005119999999Y0099001N1+02001+01201999999ADDMA1102101999999REMMET045METAR SBLP 191000Z 12010KT CAVOK 20/12 Q1021;
0072832880999992011091911004-13267-043417FM-15+0443SBLP V0200901N005119999999Y0099001N1+02301+01201999999ADDMA1102201999999REMMET045METAR SBLP 191100Z 09010KT CAVOK 23/12 Q1022;
0072832880999992011091912004-13267-043417FM-15+0443SBLP V0200901N003119999999Y0099001N1+02501+01101999999ADDMA1102201999999REMMET045METAR SBLP 191200Z 09006KT CAVOK 25/11 Q1022;
0072832880999992011091913004-13267-043417FM-15+0443SBLP V0201201N002119999999Y0099001N1+02601+01101999999ADDMA1102201999999REMMET045METAR SBLP 191300Z 12004KT CAVOK 26/11 Q1022;
0072832880999992011091914004-13267-043417FM-15+0443SBLP V0201201N004119999999Y0099001N1+02801+01401999999ADDMA1102101999999REMMET045METAR SBLP 191400Z 12008KT CAVOK 28/14 Q1021;
0120832880999992011091915004-13267-043417FM-15+0443SBLP V0201201N006212200019N0112651N1+02901+01001999999ADDGA1021+009001999GF102991999999999999999999MA1102001999999REMMET051METAR SBLP 191500Z 12012KT 9999 FEW030 29/10 Q1020;
0120832880999992011091916004-13267-043417FM-15+0443SBLP V0200901N003112200019N0112651N1+02901+01101999999ADDGA1021+009001999GF102991999999999999999999MA1101801999999REMMET051METAR SBLP 191600Z 09006KT 9999 FEW030 29/11 Q1018;
0120832880999992011091917004-13267-043417FM-15+0443SBLP V0200901N003112200019N0112651N1+03101+01001999999ADDGA1021+009001999GF102991999999999999999999MA1101691999999REMMET051METAR SBLP 191700Z 09006KT 9999 FEW030 31/10 Q1017;
0072832880999992011092021004-13267-043417FM-15+0443SBLP V0201801N003119999999Y0099001N1+02801+01301999999ADDMA1101491999999REMMET045METAR SBLP 202100Z 18006KT CAVOK 28/13 Q1015;
0072832880999992011092110004-13267-043417FM-15+0443SBLP V0209999C000019999999Y0099001N1+02101+01401999999ADDMA1101901999999REMMET045METAR SBLP 211000Z 00000KT CAVOK 21/14 Q1019;
0072832880999992011092111004-13267-043417FM-15+0443SBLP V0209999C000019999999Y0099001N1+02401+01301999999ADDMA1101901999999REMMET045METAR SBLP 211100Z 00000KT CAVOK 24/13 Q1019;
0072832880999992011092112004-13267-043417FM-15+0443SBLP V0200901N003119999999Y0099001N1+02701+01201999999ADDMA1102001999999REMMET045METAR SBLP 211200Z 09006KT CAVOK 27/12 Q1020;
0072832880999992011092113004-13267-043417FM-15+0443SBLP V0200901N003119999999Y0099001N1+02801+01101999999ADDMA1101901999999REMMET045METAR SBLP 211300Z 09006KT CAVOK 28/11 Q1019;
0072832880999992011092114004-13267-043417FM-15+0443SBLP V0200901N003119999999Y0099001N1+03001+01101999999ADDMA1101801999999REMMET045METAR SBLP 211400Z 09006KT CAVOK 30/11 Q1018;
0072832880999992011092115004-13267-043417FM-15+0443SBLP V0200901N003119999999Y0099001N1+03001+01001999999ADDMA1101691999999REMMET045METAR SBLP 211500Z 09006KT CAVOK 30/10 Q1017;
0072832880999992011092116004-13267-043417FM-15+0443SBLP V0202201N005119999999Y0099001N1+03201+01101999999ADDMA1101491999999REMMET045METAR SBLP 211600Z 22010KT CAVOK 32/11 Q1015;
0072832880999992011092117004-13267-043417FM-15+0443SBLP V0202401N002619999999Y0099001N1+03301+01201999999ADDMA1101391999999REMMET045METAR SBLP 211700Z 24005KT CAVOK 33/12 Q1014;
0072832880999992011092118004-13267-043417FM-15+0443SBLP V0202401N002119999999Y0099001N1+03401+01101999999ADDMA1101291999999REMMET045METAR SBLP 211800Z 24004KT CAVOK 34/11 Q1013;
0072832880999992011092119004-13267-043417FM-15+0443SBLP V0202101N003119999999Y0099001N1+03401+01201999999ADDMA1101191999999REMMET045METAR SBLP 211900Z 21006KT CAVOK 34/12 Q1012;
0072832880999992011092120004-13267-043417FM-15+0443SBLP V0202101N003119999999Y0099001N1+03301+01201999999ADDMA1101291999999REMMET045METAR SBLP 212000Z 21006KT CAVOK 33/12 Q1013;
0072832880999992011092121004-13267-043417FM-15+0443SBLP V0202101N002119999999Y0099001N1+03101+01201999999ADDMA1101291999999REMMET045METAR SBLP 212100Z 21004KT CAVOK 31/12 Q1013;
0072832880999992011092210004-13267-043417FM-15+0443SBLP V0202101N001519999999Y0099001N1+02001+01101999999ADDMA1101691999999REMMET045METAR SBLP 221000Z 21003KT CAVOK 20/11 Q1017;
0072832880999992011092211004-13267-043417FM-15+0443SBLP V0209999C000019999999Y0099001N1+02501+01201999999ADDMA1101801999999REMMET045METAR SBLP 221100Z 00000KT CAVOK 25/12 Q1018;
0072832880999992011092212004-13267-043417FM-15+0443SBLP V0209999C000019999999Y0099001N1+02801+01201999999ADDMA1101801999999REMMET045METAR SBLP 221200Z 00000KT CAVOK 28/12 Q1018;
0072832880999992011092213004-13267-043417FM-15+0443SBLP V0209999C000019999999Y0099001N1+03101+01301999999ADDMA1101801999999REMMET045METAR SBLP 221300Z 00000KT CAVOK 31/13 Q1018;
0072832880999992011092214004-13267-043417FM-15+0443SBLP V0201201N004119999999Y0099001N1+03301+01101999999ADDMA1101691999999REMMET045METAR SBLP 221400Z 12008KT CAVOK 33/11 Q1017;
0072832880999992011092215004-13267-043417FM-15+0443SBLP V0209999C000019999999Y0099001N1+03401+01201999999ADDMA1101591999999REMMET045METAR SBLP 221500Z 00000KT CAVOK 34/12 Q1016;
0072832880999992011092216004-13267-043417FM-15+0443SBLP V0202101N003119999999Y0099001N1+03401+01201999999ADDMA1101391999999REMMET045METAR SBLP 221600Z 21006KT CAVOK 34/12 Q1014;
0072832880999992011092217004-13267-043417FM-15+0443SBLP V0200201N003119999999Y0099001N1+03601+01101999999ADDMA1101291999999REMMET045METAR SBLP 221700Z 02006KT CAVOK 36/11 Q1013;
0072832880999992011092218004-13267-043417FM-15+0443SBLP V0202101N003119999999Y0099001N1+03701+01101999999ADDMA1101191999999REMMET045METAR SBLP 221800Z 21006KT CAVOK 37/11 Q1012;
0072832880999992011092219004-13267-043417FM-15+0443SBLP V0202101N003119999999Y0099001N1+03701+01101999999ADDMA1101191999999REMMET045METAR SBLP 221900Z 21006KT CAVOK 37/11 Q1012;
0072832880999992011092220004-13267-043417FM-15+0443SBLP V0202101N003119999999Y0099001N1+03701+01101999999ADDMA1101191999999REMMET045METAR SBLP 222000Z 21006KT CAVOK 37/11 Q1012;
0072832880999992011092221004-13267-043417FM-15+0443SBLP V0209999C000019999999Y0099001N1+03401+01301999999ADDMA1101291999999REMMET045METAR SBLP 222100Z 00000KT CAVOK 34/13 Q1013;
0072832880999992011092310004-13267-043417FM-15+0443SBLP V0209999C000019999999Y0099001N1+02201+01601999999ADDMA1101801999999REMMET045METAR SBLP 231000Z 00000KT CAVOK 22/16 Q1018;
0072832880999992011092311004-13267-043417FM-15+0443SBLP V0209999C000019999999Y0099001N1+02501+01601999999ADDMA1101801999999REMMET045METAR SBLP 231100Z 00000KT CAVOK 25/16 Q1018;
0072832880999992011092312004-13267-043417FM-15+0443SBLP V0209999C000019999999Y0099001N1+02901+01401999999ADDMA1101801999999REMMET045METAR SBLP 231200Z 00000KT CAVOK 29/14 Q1018;
0072832880999992011092313004-13267-043417FM-15+0443SBLP V0200901N003119999999Y0099001N1+03201+01301999999ADDMA1101801999999REMMET045METAR SBLP 231300Z 09006KT CAVOK 32/13 Q1018;
0072832880999992011092314004-13267-043417FM-15+0443SBLP V0200901N003119999999Y0099001N1+03401+01201999999ADDMA1101591999999REMMET045METAR SBLP 231400Z 09006KT CAVOK 34/12 Q1016;
0072832880999992011092315004-13267-043417FM-15+0443SBLP V0209999C000019999999Y0099001N1+03601+01101999999ADDMA1101491999999REMMET045METAR SBLP 231500Z 00000KT CAVOK 36/11 Q1015;
0120832880999992011092316004-13267-043417FM-15+0443SBLP V0200901N003112200019N0112651N1+03501+01201999999ADDGA1021+009001999GF102991999999999999999999MA1101291999999REMMET051METAR SBLP 231600Z 09006KT 9999 FEW030 35/12 Q1013;
0120832880999992011092317004-13267-043417FM-15+0443SBLP V0200901N003112200019N0112651N1+03701+01101999999ADDGA1021+009001999GF102991999999999999999999MA1101191999999REMMET051METAR SBLP 231700Z 09006KT 9999 FEW030 37/11 Q1012;
0120832880999992011092318004-13267-043417FM-15+0443SBLP V0200901N003112200019N0112651N1+03801+01101999999ADDGA1041+009001999GF104991999999999999999999MA1101081999999REMMET051METAR SBLP 231800Z 09006KT 9999 SCT030 38/11 Q1011;
0120832880999992011092319004-13267-043417FM-15+0443SBLP V0200901N003112200019N0112651N1+03801+01101999999ADDGA1041+009001999GF104991999999999999999999MA1101081999999REMMET051METAR SBLP 231900Z 09006KT 9999 SCT030 38/11 Q1011;
0120832880999992011092320004-13267-043417FM-15+0443SBLP V0200901N003112200019N0112651N1+03701+01101999999ADDGA1021+009001999GF102991999999999999999999MA1101191999999REMMET051METAR SBLP 232000Z 09006KT 9999 FEW030 37/11 Q1012;
0120832880999992011092321004-13267-043417FM-15+0443SBLP V0200901N003112200019N0112651N1+03501+01201999999ADDGA1021+009001999GF102991999999999999999999MA1101191999999REMMET051METAR SBLP 232100Z 09006KT 9999 FEW030 35/12 Q1012;
0072832880999992011092410004-13267-043417FM-15+0443SBLP V0209999C000019999999Y0099001N1+02201+01301999999ADDMA1101591999999REMMET045METAR SBLP 241000Z 00000KT CAVOK 22/13 Q1016;
0072832880999992011092411004-13267-043417FM-15+0443SBLP V0209999C000019999999Y0099001N1+02701+01301999999ADDMA1101591999999REMMET045METAR SBLP 241100Z 00000KT CAVOK 27/13 Q1016;
0072832880999992011092412004-13267-043417FM-15+0443SBLP V0209999C000019999999Y0099001N1+02901+01501999999ADDMA1101691999999REMMET045METAR SBLP 241200Z 00000KT CAVOK 29/15 Q1017;
0072832880999992011092413004-13267-043417FM-15+0443SBLP V0209999C000019999999Y0099001N1+03201+01401999999ADDMA1101591999999REMMET045METAR SBLP 241300Z 00000KT CAVOK 32/14 Q1016;
0072832880999992011092414004-13267-043417FM-15+0443SBLP V0203001N004119999999Y0099001N1+03401+01201999999ADDMA1101591999999REMMET045METAR SBLP 241400Z 30008KT CAVOK 34/12 Q1016;
0072832880999992011092415004-13267-043417FM-15+0443SBLP V0203001N003119999999Y0099001N1+03601+01301999999ADDMA1101391999999REMMET045METAR SBLP 241500Z 30006KT CAVOK 36/13 Q1014;
0072832880999992011092416004-13267-043417FM-15+0443SBLP V0202701N003119999999Y0099001N1+03801+01201999999ADDMA1101291999999REMMET045METAR SBLP 241600Z 27006KT CAVOK 38/12 Q1013;
0072832880999992011092417004-13267-043417FM-15+0443SBLP V0202701N003119999999Y0099001N1+03801+01201999999ADDMA1101191999999REMMET045METAR SBLP 241700Z 27006KT CAVOK 38/12 Q1012;
0072832880999992011092418004-13267-043417FM-15+0443SBLP V0201501N003119999999Y0099001N1+03801+01301999999ADDMA1101081999999REMMET045METAR SBLP 241800Z 15006KT CAVOK 38/13 Q1011;
0072832880999992011092419004-13267-043417FM-15+0443SBLP V0202101N003119999999Y0099001N1+03801+01301999999ADDMA1101021999999REMMET045METAR SBLP 241900Z 21006KT CAVOK 38/13 Q1010;
0072832880999992011092420004-13267-043417FM-15+0443SBLP V0202101N003119999999Y0099001N1+03601+01301999999ADDMA1101081999999REMMET045METAR SBLP 242000Z 21006KT CAVOK 36/13 Q1011;
0072832880999992011092421004-13267-043417FM-15+0443SBLP V0209999C000019999999Y0099001N1+03601+01401999999ADDMA1101081999999REMMET045METAR SBLP 242100Z 00000KT CAVOK 36/14 Q1011;
0072832880999992011092510004-13267-043417FM-15+0443SBLP V0209999C000019999999Y0099001N1+02501+01401999999ADDMA1101491999999REMMET045METAR SBLP 251000Z 00000KT CAVOK 25/14 Q1015;
0072832880999992011092511004-13267-043417FM-15+0443SBLP V0209999C000019999999Y0099001N1+02701+01501999999ADDMA1101591999999REMMET045METAR SBLP 251100Z 00000KT CAVOK 27/15 Q1016;
0072832880999992011092512004-13267-043417FM-15+0443SBLP V0209999C000019999999Y0099001N1+02901+01601999999ADDMA1101691999999REMMET045METAR SBLP 251200Z 00000KT CAVOK 29/16 Q1017;
0072832880999992011092513004-13267-043417FM-15+0443SBLP V0201801N003119999999Y0099001N1+03101+01801999999ADDMA1101691999999REMMET045METAR SBLP 251300Z 18006KT CAVOK 31/18 Q1017;
0072832880999992011092514004-13267-043417FM-15+0443SBLP V0201801N003119999999Y0099001N1+03301+01301999999ADDMA1101591999999REMMET045METAR SBLP 251400Z 18006KT CAVOK 33/13 Q1016;
0072832880999992011092515004-13267-043417FM-15+0443SBLP V0202101N003119999999Y0099001N1+03601+01501999999ADDMA1101391999999REMMET045METAR SBLP 251500Z 21006KT CAVOK 36/15 Q1014;
0072832880999992011092516004-13267-043417FM-15+0443SBLP V0201501N003119999999Y0099001N1+03801+01401999999ADDMA1101291999999REMMET045METAR SBLP 251600Z 15006KT CAVOK 38/14 Q1013;
0072832880999992011092518004-13267-043417FM-15+0443SBLP V0201501N003119999999Y0099001N1+03901+00901999999ADDMA1101081999999REMMET045METAR SBLP 251800Z 15006KT CAVOK 39/09 Q1011;
0072832880999992011092519004-13267-043417FM-15+0443SBLP V0201201N003119999999Y0099001N1+03801+01001999999ADDMA1101081999999REMMET045METAR SBLP 251900Z 12006KT CAVOK 38/10 Q1011;
0072832880999992011092520004-13267-043417FM-15+0443SBLP V0201201N004119999999Y0099001N1+03701+01101999999ADDMA1101191999999REMMET045METAR SBLP 252000Z 12008KT CAVOK 37/11 Q1012;
0072832880999992011092521004-13267-043417FM-15+0443SBLP V0201201N004119999999Y0099001N1+03701+01101999999ADDMA1101191999999REMMET045METAR SBLP 252100Z 12008KT CAVOK 37/11 Q1012;
0072832880999992011092610004-13267-043417FM-15+0443SBLP V0201501N002619999999Y0099001N1+02401+01501999999ADDMA1102001999999REMMET045METAR SBLP 261000Z 15005KT CAVOK 24/15 Q1020;
0072832880999992011092611004-13267-043417FM-15+0443SBLP V0201201N003119999999Y0099001N1+02701+01601999999ADDMA1102001999999REMMET045METAR SBLP 261100Z 12006KT CAVOK 27/16 Q1020;
0072832880999992011092612004-13267-043417FM-15+0443SBLP V0200601N003119999999Y0099001N1+02801+01601999999ADDMA1102001999999REMMET045METAR SBLP 261200Z 06006KT CAVOK 28/16 Q1020;
0120832880999992011092613004-13267-043417FM-15+0443SBLP V0200901N006212200019N0112651N1+03001+01601999999ADDGA1021+009001999GF102991999999999999999999MA1102001999999REMMET051METAR SBLP 261300Z 09012KT 9999 FEW030 30/16 Q1020;
0120832880999992011092614004-13267-043417FM-15+0443SBLP V0201201N005112200019N0112651N1+03101+01501999999ADDGA1021+009001999GF102991999999999999999999MA1101901999999REMMET051METAR SBLP 261400Z 12010KT 9999 FEW030 31/15 Q1019;
0120832880999992011092615004-13267-043417FM-15+0443SBLP V0201201N003112200019N0112651N1+03301+01501999999ADDGA1021+009001999GF102991999999999999999999MA1101801999999REMMET051METAR SBLP 261500Z 12006KT 9999 FEW030 33/15 Q1018;
0115832880999992011092616004-13267-043417FM-15+0443SBLP V0201201N004112200019N9999999N1+03401+01401999999ADDGA1021+009001999GF102991999999999999999999MA1101701999999REMMET046METAR SBLP 261600Z 12008KT FEW030 34/14 Q1017;
0072832880999992011092617004-13267-043417FM-15+0443SBLP V0201501N006219999999Y0099001N1+03401+01501999999ADDMA1101591999999REMMET045METAR SBLP 261700Z 15012KT CAVOK 34/15 Q1016;
0072832880999992011092618004-13267-043417FM-15+0443SBLP V0201501N004119999999Y0099001N1+03401+01501999999ADDMA1101491999999REMMET045METAR SBLP 261800Z 15008KT CAVOK 34/15 Q1015;
0072832880999992011092619004-13267-043417FM-15+0443SBLP V0201201N005119999999Y0099001N1+03401+01401999999ADDMA1101491999999REMMET045METAR SBLP 261900Z 12010KT CAVOK 34/14 Q1015;
0072832880999992011092620004-13267-043417FM-15+0443SBLP V0201501N004119999999Y0099001N1+03301+01401999999ADDMA1101491999999REMMET045METAR SBLP 262000Z 15008KT CAVOK 33/14 Q1015;
0072832880999992011092621004-13267-043417FM-15+0443SBLP V0201201N006219999999Y0099001N1+03101+01401999999ADDMA1101591999999REMMET045METAR SBLP 262100Z 12012KT CAVOK 31/14 Q1016;
0072832880999992011092710004-13267-043417FM-15+0443SBLP V0201801N002119999999Y0099001N1+02201+01501999999ADDMA1101901999999REMMET045METAR SBLP 271000Z 18004KT CAVOK 22/15 Q1019;
0072832880999992011092711004-13267-043417FM-15+0443SBLP V0200901N003119999999Y0099001N1+02601+01501999999ADDMA1102001999999REMMET045METAR SBLP 271100Z 09006KT CAVOK 26/15 Q1020;
0072832880999992011092712004-13267-043417FM-15+0443SBLP V0200901N002119999999Y0099001N1+02801+01501999999ADDMA1102001999999REMMET045METAR SBLP 271200Z 09004KT CAVOK 28/15 Q1020;
0120832880999992011092713004-13267-043417FM-15+0443SBLP V0200901N005112200019N0112651N1+03001+01601999999ADDGA1021+009001999GF102991999999999999999999MA1102001999999REMMET051METAR SBLP 271300Z 09010KT 9999 FEW030 30/16 Q1020;
0120832880999992011092714004-13267-043417FM-15+0443SBLP V0200901N003112200019N0112651N1+03101+01601999999ADDGA1021+009001999GF102991999999999999999999MA1101901999999REMMET051METAR SBLP 271400Z 09006KT 9999 FEW030 31/16 Q1019;
0120832880999992011092715004-13267-043417FM-15+0443SBLP V0200601N002112200019N0112651N1+03201+01501999999ADDGA1041+009001999GF104991999999999999999999MA1101801999999REMMET051METAR SBLP 271500Z 06004KT 9999 SCT030 32/15 Q1018;
0120832880999992011092716004-13267-043417FM-15+0443SBLP V0201201N004112200019N0112651N1+03301+01501999999ADDGA1041+009001999GF104991999999999999999999MA1101591999999REMMET051METAR SBLP 271600Z 12008KT 9999 SCT030 33/15 Q1016;
0120832880999992011092717004-13267-043417FM-15+0443SBLP V0201201N003112200019N0112651N1+03401+01601999999ADDGA1041+009001999GF104991999999999999999999MA1101491999999REMMET051METAR SBLP 271700Z 12006KT 9999 SCT030 34/16 Q1015;
0120832880999992011092718004-13267-043417FM-15+0443SBLP V0203601N003112200019N0112651N1+03401+01601999999ADDGA1041+009001999GF104991999999999999999999MA1101491999999REMMET051METAR SBLP 271800Z 36006KT 9999 SCT030 34/16 Q1015;
0120832880999992011092719004-13267-043417FM-15+0443SBLP V0201201N003112200019N0112651N1+03501+01601999999ADDGA1041+009001999GF104991999999999999999999MA1101391999999REMMET051METAR SBLP 271900Z 12006KT 9999 SCT030 35/16 Q1014;
0120832880999992011092720004-13267-043417FM-15+0443SBLP V0200901N003112200019N0112651N1+03401+01701999999ADDGA1041+009001999GF104991999999999999999999MA1101391999999REMMET051METAR SBLP 272000Z 09006KT 9999 SCT030 34/17 Q1014;
0120832880999992011092721004-13267-043417FM-15+0443SBLP V0200901N003112200019N0112651N1+03201+01901999999ADDGA1041+009001999GF104991999999999999999999MA1101491999999REMMET051METAR SBLP 272100Z 09006KT 9999 SCT030 32/19 Q1015;
0072832880999992011092810004-13267-043417FM-15+0443SBLP V0201201N003119999999Y0099001N1+02301+01601999999ADDMA1101801999999REMMET045METAR SBLP 281000Z 12006KT CAVOK 23/16 Q1018;
0072832880999992011092811004-13267-043417FM-15+0443SBLP V0201201N003119999999Y0099001N1+02601+01701999999ADDMA1101901999999REMMET045METAR SBLP 281100Z 12006KT CAVOK 26/17 Q1019;
0072832880999992011092812004-13267-043417FM-15+0443SBLP V0200901N003119999999Y0099001N1+02801+01601999999ADDMA1101901999999REMMET045METAR SBLP 281200Z 09006KT CAVOK 28/16 Q1019;
0120832880999992011092813004-13267-043417FM-15+0443SBLP V0200901N003112200019N0112651N1+03101+01601999999ADDGA1021+009001999GF102991999999999999999999MA1101901999999REMMET051METAR SBLP 281300Z 09006KT 9999 FEW030 31/16 Q1019;
0120832880999992011092814004-13267-043417FM-15+0443SBLP V0203601N003112200019N0112651N1+03201+01701999999ADDGA1021+009001999GF102991999999999999999999MA1101801999999REMMET051METAR SBLP 281400Z 36006KT 9999 FEW030 32/17 Q1018;
0120832880999992011092815004-13267-043417FM-15+0443SBLP V0201201N003112200019N0112651N1+03301+01801999999ADDGA1041+009001999GF104991999999999999999999MA1101691999999REMMET051METAR SBLP 281500Z 12006KT 9999 SCT030 33/18 Q1017;
0120832880999992011092816004-13267-043417FM-15+0443SBLP V0202101N004112200019N0112651N1+03401+01601999999ADDGA1041+009001999GF104991999999999999999999MA1101491999999REMMET051METAR SBLP 281600Z 21008KT 9999 SCT030 34/16 Q1015;
0120832880999992011092817004-13267-043417FM-15+0443SBLP V0202101N004112200019N0112651N1+03301+01801999999ADDGA1041+009001999GF104991999999999999999999MA1101391999999REMMET051METAR SBLP 281700Z 21008KT 9999 SCT030 33/18 Q1014;
0143832880999992011092818004-13267-043417FM-15+0443SBLP V0202101N005110300019N0112651N1+03201+01501999999ADDGA1021+009001999GA2071+030001999GF107991999999999999999999MA1101391999999REMMET058METAR SBLP 281800Z 21010KT 9999 FEW030 BKN100 32/15 Q1014;
0143832880999992011092819004-13267-043417FM-15+0443SBLP V0202101N003110300019N0112651N1+03201+01501999999ADDGA1021+009001999GA2071+030001999GF107991999999999999999999MA1101291999999REMMET058METAR SBLP 281900Z 21006KT 9999 FEW030 BKN100 32/15 Q1013;
0143832880999992011092820004-13267-043417FM-15+0443SBLP V0202101N003110300019N0112651N1+03101+01401999999ADDGA1021+009001999GA2071+030001999GF107991999999999999999999MA1101391999999REMMET058METAR SBLP 282000Z 21006KT 9999 FEW030 BKN100 31/14 Q1014;
0143832880999992011092821004-13267-043417FM-15+0443SBLP V0201801N003110300019N0112651N1+03001+01501999999ADDGA1021+009001999GA2071+030001999GF107991999999999999999999MA1101391999999REMMET058METAR SBLP 282100Z 18006KT 9999 FEW030 BKN100 30/15 Q1014;
0120832880999992011092910004-13267-043417FM-15+0443SBLP V0201601N002112200019N0112651N1+02301+01601999999ADDGA1041+009001999GF104991999999999999999999MA1101691999999REMMET051METAR SBLP 291000Z 16004KT 9999 SCT030 23/16 Q1017;
0120832880999992011092911004-13267-043417FM-15+0443SBLP V0201201N004112200019N0112651N1+02801+01701999999ADDGA1021+009001999GF102991999999999999999999MA1101801999999REMMET051METAR SBLP 291100Z 12008KT 9999 FEW030 28/17 Q1018;
0120832880999992011092912004-13267-043417FM-15+0443SBLP V0200901N004112200019N0112651N1+02901+01701999999ADDGA1021+009001999GF102991999999999999999999MA1101801999999REMMET051METAR SBLP 291200Z 09008KT 9999 FEW030 29/17 Q1018;
0072832880999992011092913004-13267-043417FM-15+0443SBLP V0201201N004119999999Y0099001N1+03101+01701999999ADDMA1101801999999REMMET045METAR SBLP 291300Z 12008KT CAVOK 31/17 Q1018;
0072832880999992011092914004-13267-043417FM-15+0443SBLP V0201201N003119999999Y0099001N1+03101+01701999999ADDMA1101801999999REMMET045METAR SBLP 291400Z 12006KT CAVOK 31/17 Q1018;
0120832880999992011092915004-13267-043417FM-15+0443SBLP V0201801N004112200019N0112651N1+03401+01601999999ADDGA1021+009001999GF102991999999999999999999MA1101591999999REMMET051METAR SBLP 291500Z 18008KT 9999 FEW030 34/16 Q1016;
0120832880999992011092916004-13267-043417FM-15+0443SBLP V0201801N003112200019N0112651N1+03401+01601999999ADDGA1021+009001999GF102991999999999999999999MA1101491999999REMMET051METAR SBLP 291600Z 18006KT 9999 FEW030 34/16 Q1015;
0120832880999992011092917004-13267-043417FM-15+0443SBLP V0201201N003112200019N0112651N1+03401+01701999999ADDGA1021+009001999GF102991999999999999999999MA1101391999999REMMET051METAR SBLP 291700Z 12006KT 9999 FEW030 34/17 Q1014;
0120832880999992011092918004-13267-043417FM-15+0443SBLP V0200601N003112200019N0112651N1+03401+01701999999ADDGA1041+009001999GF104991999999999999999999MA1101291999999REMMET051METAR SBLP 291800Z 06006KT 9999 SCT030 34/17 Q1013;
0120832880999992011092919004-13267-043417FM-15+0443SBLP V0201601N003112200019N0112651N1+03301+01701999999ADDGA1041+009001999GF104991999999999999999999MA1101291999999REMMET051METAR SBLP 291900Z 16006KT 9999 SCT030 33/17 Q1013;
0072832880999992011092920004-13267-043417FM-15+0443SBLP V0201601N003119999999Y0099001N1+03301+01601999999ADDMA1101291999999REMMET045METAR SBLP 292000Z 16006KT CAVOK 33/16 Q1013;
0120832880999992011092921004-13267-043417FM-15+0443SBLP V0201201N003112200019N0112651N1+03201+01901999999ADDGA1021+009001999GF102991999999999999999999MA1101291999999REMMET051METAR SBLP 292100Z 12006KT 9999 FEW030 32/19 Q1013;
0072832880999992011093010004-13267-043417FM-15+0443SBLP V0201801N003119999999Y0099001N1+02301+01801999999ADDMA1101691999999REMMET045METAR SBLP 301000Z 18006KT CAVOK 23/18 Q1017;
0072832880999992011093011004-13267-043417FM-15+0443SBLP V0201201N004119999999Y0099001N1+02801+01601999999ADDMA1101691999999REMMET045METAR SBLP 301100Z 12008KT CAVOK 28/16 Q1017;
0072832880999992011093012004-13267-043417FM-15+0443SBLP V0201201N003119999999Y0099001N1+03001+01701999999ADDMA1101691999999REMMET045METAR SBLP 301200Z 12006KT CAVOK 30/17 Q1017;
0072832880999992011093013004-13267-043417FM-15+0443SBLP V0201801N003119999999Y0099001N1+03101+01801999999ADDMA1101691999999REMMET045METAR SBLP 301300Z 18006KT CAVOK 31/18 Q1017;
0120832880999992011093014004-13267-043417FM-15+0443SBLP V0200901N003112200019N0112651N1+03301+01701999999ADDGA1021+009001999GF102991999999999999999999MA1101591999999REMMET051METAR SBLP 301400Z 09006KT 9999 FEW030 33/17 Q1016;
0120832880999992011093015004-13267-043417FM-15+0443SBLP V0202101N003112200019N0112651N1+03401+01601999999ADDGA1021+009001999GF102991999999999999999999MA1101491999999REMMET051METAR SBLP 301500Z 21006KT 9999 FEW030 34/16 Q1015;
0120832880999992011093016004-13267-043417FM-15+0443SBLP V0200901N002112200019N0112651N1+03601+01101999999ADDGA1021+009001999GF102991999999999999999999MA1101291999999REMMET051METAR SBLP 301600Z 09004KT 9999 FEW030 36/11 Q1013;
0120832880999992011093017004-13267-043417FM-15+0443SBLP V0200601N001012200019N0112651N1+03701+01001999999ADDGA1021+009001999GF102991999999999999999999MA1101191999999REMMET051METAR SBLP 301700Z 06002KT 9999 FEW030 37/10 Q1012;
0120832880999992011093018004-13267-043417FM-15+0443SBLP V0200301N002112200019N0112651N1+03701+01001999999ADDGA1021+009001999GF102991999999999999999999MA1101081999999REMMET051METAR SBLP 301800Z 03004KT 9999 FEW030 37/10 Q1011;
0120832880999992011093019004-13267-043417FM-15+0443SBLP V0209999C000012200019N0112651N1+03601+01001999999ADDGA1021+009001999GF102991999999999999999999MA1101081999999REMMET051METAR SBLP 301900Z 00000KT 9999 FEW030 36/10 Q1011;
0072832880999992011093020004-13267-043417FM-15+0443SBLP V0209999C000019999999Y0099001N1+03501+00901999999ADDMA1101081999999REMMET045METAR SBLP 302000Z 00000KT CAVOK 35/09 Q1011;
0072832880999992011093021004-13267-043417FM-15+0443SBLP V0201801N001519999999Y0099001N1+03401+00901999999ADDMA1101081999999REMMET045METAR SBLP 302100Z 18003KT CAVOK 34/09 Q1011;
0072832880999992011100110004-13267-043417FM-15+0443SBLP V0202101N001519999999Y0099001N1+02201+01501999999ADDMA1101491999999REMMET045METAR SBLP 011000Z 21003KT CAVOK 22/15 Q1015;
0072832880999992011100111004-13267-043417FM-15+0443SBLP V0209999C000019999999Y0099001N1+02501+01501999999ADDMA1101591999999REMMET045METAR SBLP 011100Z 00000KT CAVOK 25/15 Q1016;
0072832880999992011100112004-13267-043417FM-15+0443SBLP V0201101N001519999999Y0099001N1+02801+01401999999ADDMA1101591999999REMMET045METAR SBLP 011200Z 11003KT CAVOK 28/14 Q1016;
0072832880999992011100113004-13267-043417FM-15+0443SBLP V0201201N001519999999Y0099001N1+03001+01401999999ADDMA1101591999999REMMET045METAR SBLP 011300Z 12003KT CAVOK 30/14 Q1016;
0072832880999992011100114004-13267-043417FM-15+0443SBLP V0201501N001519999999Y0099001N1+03201+01401999999ADDMA1101491999999REMMET045METAR SBLP 011400Z 15003KT CAVOK 32/14 Q1015;
0143832880999992011100115004-13267-043417FM-15+0443SBLP V0200301N002112200019N0112651N1+03401+01301999999ADDGA1021+009001999GA2041+030001999GF104991999999999999999999MA1101391999999REMMET058METAR SBLP 011500Z 03004KT 9999 FEW030 SCT100 34/13 Q1014;
0120832880999992011100116004-13267-043417FM-15+0443SBLP V0203201N002112200019N0112651N1+03401+01401999999ADDGA1021+009001999GF102991999999999999999999MA1101291999999REMMET051METAR SBLP 011600Z 32004KT 9999 FEW030 34/14 Q1013;
0120832880999992011100117004-13267-043417FM-15+0443SBLP V0202701N002112200019N0112651N1+03501+01301999999ADDGA1021+009001999GF102991999999999999999999MA1101191999999REMMET051METAR SBLP 011700Z 27004KT 9999 FEW030 35/13 Q1012;
0120832880999992011100118004-13267-043417FM-15+0443SBLP V0202401N002612200019N0112651N1+03501+01301999999ADDGA1021+009001999GF102991999999999999999999MA1101081999999REMMET051METAR SBLP 011800Z 24005KT 9999 FEW030 35/13 Q1011;
0120832880999992011100119004-13267-043417FM-15+0443SBLP V0202401N004112200019N0112651N1+03501+01301999999ADDGA1021+009001999GF102991999999999999999999MA1101081999999REMMET051METAR SBLP 011900Z 24008KT 9999 FEW030 35/13 Q1011;
0120832880999992011100120004-13267-043417FM-15+0443SBLP V0202401N003112200019N0112651N1+03401+01201999999ADDGA1021+009001999GF102991999999999999999999MA1101081999999REMMET051METAR SBLP 012000Z 24006KT 9999 FEW030 34/12 Q1011;
0072832880999992011100121004-13267-043417FM-15+0443SBLP V0201801N002119999999Y0099001N1+03201+01301999999ADDMA1101081999999REMMET045METAR SBLP 012100Z 18004KT CAVOK 32/13 Q1011;
0072832880999992011100210004-13267-043417FM-15+0443SBLP V0201801N002119999999Y0099001N1+02301+01501999999ADDMA1101391999999REMMET045METAR SBLP 021000Z 18004KT CAVOK 23/15 Q1014;
0072832880999992011100211004-13267-043417FM-15+0443SBLP V0200901N002119999999Y0099001N1+02801+01401999999ADDMA1101491999999REMMET045METAR SBLP 021100Z 09004KT CAVOK 28/14 Q1015;
0072832880999992011100212004-13267-043417FM-15+0443SBLP V0200601N001519999999Y0099001N1+03001+01501999999ADDMA1101491999999REMMET045METAR SBLP 021200Z 06003KT CAVOK 30/15 Q1015;
0072832880999992011100213004-13267-043417FM-15+0443SBLP V0202301N002119999999Y0099001N1+03201+01601999999ADDMA1101391999999REMMET045METAR SBLP 021300Z 23004KT CAVOK 32/16 Q1014;
0072832880999992011100214004-13267-043417FM-15+0443SBLP V0203201N004119999999Y0099001N1+03301+01501999999ADDMA1101291999999REMMET045METAR SBLP 021400Z 32008KT CAVOK 33/15 Q1013;
0072832880999992011100215004-13267-043417FM-15+0443SBLP V0203101N003119999999Y0099001N1+03501+01501999999ADDMA1101191999999REMMET045METAR SBLP 021500Z 31006KT CAVOK 35/15 Q1012;
0120832880999992011100216004-13267-043417FM-15+0443SBLP V0202701N003112200019N0112651N1+03501+01501999999ADDGA1021+009001999GF102991999999999999999999MA1101021999999REMMET051METAR SBLP 021600Z 27006KT 9999 FEW030 35/15 Q1010;
0120832880999992011100217004-13267-043417FM-15+0443SBLP V0202101N003112200019N0112651N1+03601+01401999999ADDGA1041+009001999GF104991999999999999999999MA1100911999999REMMET051METAR SBLP 021700Z 21006KT 9999 SCT030 36/14 Q1009;
0120832880999992011100218004-13267-043417FM-15+0443SBLP V0202401N003112200019N0112651N1+03701+01301999999ADDGA1021+009001999GF102991999999999999999999MA1100811999999REMMET051METAR SBLP 021800Z 24006KT 9999 FEW030 37/13 Q1008;
0120832880999992011100219004-13267-043417FM-15+0443SBLP V0202101N003112200019N0112651N1+03701+01301999999ADDGA1021+009001999GF102991999999999999999999MA1100811999999REMMET051METAR SBLP 021900Z 21006KT 9999 FEW030 37/13 Q1008;
0120832880999992011100220004-13267-043417FM-15+0443SBLP V0202101N003112200019N0112651N1+03501+01401999999ADDGA1021+009001999GF102991999999999999999999MA1100811999999REMMET051METAR SBLP 022000Z 21006KT 9999 FEW030 35/14 Q1008;
0072832880999992011100221004-13267-043417FM-15+0443SBLP V0209999C000019999999Y0099001N1+03301+01601999999ADDMA1100811999999REMMET045METAR SBLP 022100Z 00000KT CAVOK 33/16 Q1008;
0072832880999992011100310004-13267-043417FM-15+0443SBLP V0201801N003119999999Y0099001N1+02701+01601999999ADDMA1101291999999REMMET045METAR SBLP 031000Z 18006KT CAVOK 27/16 Q1013;
0072832880999992011100311004-13267-043417FM-15+0443SBLP V0200601N004119999999Y0099001N1+02801+01601999999ADDMA1101391999999REMMET045METAR SBLP 031100Z 06008KT CAVOK 28/16 Q1014;
0072832880999992011100312004-13267-043417FM-15+0443SBLP V0203401N003119999999Y0099001N1+02901+01501999999ADDMA1101391999999REMMET045METAR SBLP 031200Z 34006KT CAVOK 29/15 Q1014;
0072832880999992011100313004-13267-043417FM-15+0443SBLP V0203601N003119999999Y0099001N1+03201+01601999999ADDMA1101391999999REMMET045METAR SBLP 031300Z 36006KT CAVOK 32/16 Q1014;
0143832880999992011100314004-13267-043417FM-15+0443SBLP V0202701N003112200019N0112651N1+03301+01601999999ADDGA1021+009001999GA2041+030001999GF104991999999999999999999MA1101291999999REMMET058METAR SBLP 031400Z 27006KT 9999 FEW030 SCT100 33/16 Q1013;
0143832880999992011100315004-13267-043417FM-15+0443SBLP V0203301N003112200019N0112651N1+03501+01601999999ADDGA1021+009001999GA2041+030001999GF104991999999999999999999MA1101191999999REMMET058METAR SBLP 031500Z 33006KT 9999 FEW030 SCT100 35/16 Q1012;
0143832880999992011100316004-13267-043417FM-15+0443SBLP V0203601N003110300019N0112651N1+03601+01601999999ADDGA1021+009001999GA2071+030001999GF107991999999999999999999MA1101081999999REMMET058METAR SBLP 031600Z 36006KT 9999 FEW030 BKN100 36/16 Q1011;
0143832880999992011100317004-13267-043417FM-15+0443SBLP V0203601N003110300019N0112651N1+03601+01501999999ADDGA1041+009001999GA2071+030001999GF107991999999999999999999MA1101021999999REMMET058METAR SBLP 031700Z 36006KT 9999 SCT030 BKN100 36/15 Q1010;
0143832880999992011100318004-13267-043417FM-15+0443SBLP V0203601N003110300019N0112651N1+03501+01501999999ADDGA1041+009001999GA2071+030001999GF107991999999999999999999MA1100911999999REMMET058METAR SBLP 031800Z 36006KT 9999 SCT030 BKN100 35/15 Q1009;
0143832880999992011100319004-13267-043417FM-15+0443SBLP V0203601N003110300019N0112651N1+03401+01501999999ADDGA1041+009001999GA2071+030001999GF107991999999999999999999MA1101021999999REMMET058METAR SBLP 031900Z 36006KT 9999 SCT030 BKN100 34/15 Q1010;
0143832880999992011100320004-13267-043417FM-15+0443SBLP V0202701N003110300019N0112651N1+03201+01601999999ADDGA1041+009001999GA2071+030001999GF107991999999999999999999MA1101021999999REMMET058METAR SBLP 032000Z 27006KT 9999 SCT030 BKN100 32/16 Q1010;
0143832880999992011100321004-13267-043417FM-15+0443SBLP V0202701N003110300019N0112651N1+03001+01701999999ADDGA1041+009001999GA2071+030001999GF107991999999999999999999MA1101191999999REMMET058METAR SBLP 032100Z 27006KT 9999 SCT030 BKN100 30/17 Q1012;
0143832880999992011100410004-13267-043417FM-15+0443SBLP V0202701N003110300019N0112651N1+02201+02101999999ADDGA1041+004501999GA2071+030001999GF107991999999999999999999MA1101591999999REMMET058METAR SBLP 041000Z 27006KT 9999 SCT015 BKN100 22/21 Q1016;
0143832880999992011100411004-13267-043417FM-15+0443SBLP V0202701N003110300019N0112651N1+02401+02101999999ADDGA1041+006001999GA2071+030001999GF107991999999999999999999MA1101691999999REMMET058METAR SBLP 041100Z 27006KT 9999 SCT020 BKN100 24/21 Q1017;
0143832880999992011100412004-13267-043417FM-15+0443SBLP V0201801N003110300019N0112651N1+02501+02101999999ADDGA1021+006001999GA2071+030001999GF107991999999999999999999MA1101691999999REMMET058METAR SBLP 041200Z 18006KT 9999 FEW020 BKN100 25/21 Q1017;
0143832880999992011100413004-13267-043417FM-15+0443SBLP V0201801N003110300019N0112651N1+02701+02101999999ADDGA1021+006001999GA2071+030001999GF107991999999999999999999MA1101691999999REMMET058METAR SBLP 041300Z 18006KT 9999 FEW020 BKN100 27/21 Q1017;
0143832880999992011100414004-13267-043417FM-15+0443SBLP V0201801N003110300019N0112651N1+02801+02001999999ADDGA1021+006001999GA2071+030001999GF107991999999999999999999MA1101691999999REMMET058METAR SBLP 041400Z 18006KT 9999 FEW020 BKN100 28/20 Q1017;
0143832880999992011100415004-13267-043417FM-15+0443SBLP V0202701N003110300019N0112651N1+02801+02101999999ADDGA1041+006001999GA2071+030001999GF107991999999999999999999MA1101591999999REMMET058METAR SBLP 041500Z 27006KT 9999 SCT020 BKN100 28/21 Q1016;
0143832880999992011100416004-13267-043417FM-15+0443SBLP V0202101N003110300019N0112651N1+02801+02101999999ADDGA1041+009001999GA2071+030001999GF107991999999999999999999MA1101491999999REMMET058METAR SBLP 041600Z 21006KT 9999 SCT030 BKN100 28/21 Q1015;
0143832880999992011100417004-13267-043417FM-15+0443SBLP V0201801N005110300019N0112651N1+02701+02101999999ADDGA1041+009001999GA2071+030001999GF107991999999999999999999MA1101491999999REMMET058METAR SBLP 041700Z 18010KT 9999 SCT030 BKN100 27/21 Q1015;
0143832880999992011100418004-13267-043417FM-15+0443SBLP V0202101N003110300019N0112651N1+02501+02101999999ADDGA1041+006001999GA2071+030001999GF107991999999999999999999MA1101491999999REMMET058METAR SBLP 041800Z 21006KT 9999 SCT020 BKN100 25/21 Q1015;
0143832880999992011100419004-13267-043417FM-15+0443SBLP V0201801N003110300019N0112651N1+02501+02201999999ADDGA1041+006001999GA2071+030001999GF107991999999999999999999MA1101391999999REMMET058METAR SBLP 041900Z 18006KT 9999 SCT020 BKN100 25/22 Q1014;
0143832880999992011100420004-13267-043417FM-15+0443SBLP V0209999C000010300019N0112651N1+02501+02201999999ADDGA1021+009001999GA2071+030001999GF107991999999999999999999MA1101491999999REMMET058METAR SBLP 042000Z 00000KT 9999 FEW030 BKN100 25/22 Q1015;
0143832880999992011100421004-13267-043417FM-15+0443SBLP V0209999C000010300019N0112651N1+02401+02201999999ADDGA1021+009001999GA2071+030001999GF107991999999999999999999MA1101491999999REMMET058METAR SBLP 042100Z 00000KT 9999 FEW030 BKN100 24/22 Q1015;
0072832880999992011100510004-13267-043417FM-15+0443SBLP V0209999C000019999999Y0099001N1+02301+01901999999ADDMA1101691999999REMMET045METAR SBLP 051000Z 00000KT CAVOK 23/19 Q1017;
0072832880999992011100511004-13267-043417FM-15+0443SBLP V0209999C000019999999Y0099001N1+02501+01901999999ADDMA1101801999999REMMET045METAR SBLP 051100Z 00000KT CAVOK 25/19 Q1018;
0072832880999992011100512004-13267-043417FM-15+0443SBLP V0200901N004119999999Y0099001N1+02701+01901999999ADDMA1101801999999REMMET045METAR SBLP 051200Z 09008KT CAVOK 27/19 Q1018;
0072832880999992011100513004-13267-043417FM-15+0443SBLP V0200901N003119999999Y0099001N1+02901+01901999999ADDMA1101801999999REMMET045METAR SBLP 051300Z 09006KT CAVOK 29/19 Q1018;
0072832880999992011100514004-13267-043417FM-15+0443SBLP V0200901N003119999999Y0099001N1+03101+01801999999ADDMA1101691999999REMMET045METAR SBLP 051400Z 09006KT CAVOK 31/18 Q1017;
0072832880999992011100515004-13267-043417FM-15+0443SBLP V0200901N003119999999Y0099001N1+03201+01801999999ADDMA1101491999999REMMET045METAR SBLP 051500Z 09006KT CAVOK 32/18 Q1015;
0120832880999992011100516004-13267-043417FM-15+0443SBLP V0200901N003112200019N0112651N1+03301+01801999999ADDGA1021+009001999GF102991999999999999999999MA1101391999999REMMET051METAR SBLP 051600Z 09006KT 9999 FEW030 33/18 Q1014;
0120832880999992011100517004-13267-043417FM-15+0443SBLP V0200901N003112200019N0112651N1+03401+01701999999ADDGA1021+009001999GF102991999999999999999999MA1101291999999REMMET051METAR SBLP 051700Z 09006KT 9999 FEW030 34/17 Q1013;
0120832880999992011100518004-13267-043417FM-15+0443SBLP V0200901N003112200019N0112651N1+03601+01601999999ADDGA1041+009001999GF104991999999999999999999MA1101191999999REMMET051METAR SBLP 051800Z 09006KT 9999 SCT030 36/16 Q1012;
0120832880999992011100519004-13267-043417FM-15+0443SBLP V0203601N003112200019N0112651N1+03601+01601999999ADDGA1041+009001999GF104991999999999999999999MA1101191999999REMMET051METAR SBLP 051900Z 36006KT 9999 SCT030 36/16 Q1012;
0120832880999992011100520004-13267-043417FM-15+0443SBLP V0203601N003112200019N0112651N1+03401+01701999999ADDGA1041+009001999GF104991999999999999999999MA1101191999999REMMET051METAR SBLP 052000Z 36006KT 9999 SCT030 34/17 Q1012;
0120832880999992011100521004-13267-043417FM-15+0443SBLP V0203601N003112200019N0112651N1+03201+01801999999ADDGA1041+009001999GF104991999999999999999999MA1101191999999REMMET051METAR SBLP 052100Z 36006KT 9999 SCT030 32/18 Q1012;
0072832880999992011100610004-13267-043417FM-15+0443SBLP V0209999C000019999999Y0099001N1+02401+01901999999ADDMA1101691999999REMMET045METAR SBLP 061000Z 00000KT CAVOK 24/19 Q1017;
0072832880999992011100611004-13267-043417FM-15+0443SBLP V0200901N003119999999Y0099001N1+02701+01901999999ADDMA1101801999999REMMET045METAR SBLP 061100Z 09006KT CAVOK 27/19 Q1018;
0072832880999992011100612004-13267-043417FM-15+0443SBLP V0200901N003119999999Y0099001N1+02901+01801999999ADDMA1101801999999REMMET045METAR SBLP 061200Z 09006KT CAVOK 29/18 Q1018;
0072832880999992011100613004-13267-043417FM-15+0443SBLP V0200901N003119999999Y0099001N1+03201+01601999999ADDMA1101801999999REMMET045METAR SBLP 061300Z 09006KT CAVOK 32/16 Q1018;
0120832880999992011100614004-13267-043417FM-15+0443SBLP V0200901N003112200019N0112651N1+03201+01601999999ADDGA1021+009001999GF102991999999999999999999MA1101691999999REMMET051METAR SBLP 061400Z 09006KT 9999 FEW030 32/16 Q1017;
0120832880999992011100615004-13267-043417FM-15+0443SBLP V0200901N003112200019N0112651N1+03401+01501999999ADDGA1021+009001999GF102991999999999999999999MA1101491999999REMMET051METAR SBLP 061500Z 09006KT 9999 FEW030 34/15 Q1015;
0120832880999992011100616004-13267-043417FM-15+0443SBLP V0202101N004112200019N0112651N1+03401+01601999999ADDGA1021+009001999GF102991999999999999999999MA1101391999999REMMET051METAR SBLP 061600Z 21008KT 9999 FEW030 34/16 Q1014;
0120832880999992011100617004-13267-043417FM-15+0443SBLP V0202401N001512200019N0112651N1+03401+01601999999ADDGA1041+009001999GF104991999999999999999999MA1101291999999REMMET051METAR SBLP 061700Z 24003KT 9999 SCT030 34/16 Q1013;
0120832880999992011100618004-13267-043417FM-15+0443SBLP V0202401N003112200019N0112651N1+03401+01601999999ADDGA1041+009001999GF104991999999999999999999MA1101291999999REMMET051METAR SBLP 061800Z 24006KT 9999 SCT030 34/16 Q1013;
0120832880999992011100619004-13267-043417FM-15+0443SBLP V0201801N004112200019N0112651N1+03501+01601999999ADDGA1041+009001999GF104991999999999999999999MA1101191999999REMMET051METAR SBLP 061900Z 18008KT 9999 SCT030 35/16 Q1012;
0120832880999992011100620004-13267-043417FM-15+0443SBLP V0201801N004112200019N0112651N1+03301+01701999999ADDGA1021+009001999GF102991999999999999999999MA1101291999999REMMET051METAR SBLP 062000Z 18008KT 9999 FEW030 33/17 Q1013;
0120832880999992011100621004-13267-043417FM-15+0443SBLP V0201801N004112200019N0112651N1+03201+01501999999ADDGA1041+009001999GF104991999999999999999999MA1101391999999REMMET051METAR SBLP 062100Z 18008KT 9999 SCT030 32/15 Q1014;
0072832880999992011100710004-13267-043417FM-15+0443SBLP V0201201N004119999999Y0099001N1+02401+01801999999ADDMA1101591999999REMMET045METAR SBLP 071000Z 12008KT CAVOK 24/18 Q1016;
0072832880999992011100711004-13267-043417FM-15+0443SBLP V0201201N004119999999Y0099001N1+02701+01701999999ADDMA1101691999999REMMET045METAR SBLP 071100Z 12008KT CAVOK 27/17 Q1017;
0072832880999992011100712004-13267-043417FM-15+0443SBLP V0201201N002119999999Y0099001N1+02801+01801999999ADDMA1101691999999REMMET045METAR SBLP 071200Z 12004KT CAVOK 28/18 Q1017;
0120832880999992011100714004-13267-043417FM-15+0443SBLP V0201201N004112200019N0112651N1+03201+01501999999ADDGA1021+009001999GF102991999999999999999999MA1101591999999REMMET051METAR SBLP 071400Z 12008KT 9999 FEW030 32/15 Q1016;
0120832880999992011100715004-13267-043417FM-15+0443SBLP V0200601N004112200019N0112651N1+03401+01601999999ADDGA1021+009001999GF102991999999999999999999MA1101491999999REMMET051METAR SBLP 071500Z 06008KT 9999 FEW030 34/16 Q1015;
0120832880999992011100716004-13267-043417FM-15+0443SBLP V0202401N003112200019N0112651N1+03501+01601999999ADDGA1021+009001999GF102991999999999999999999MA1101391999999REMMET051METAR SBLP 071600Z 24006KT 9999 FEW030 35/16 Q1014;
0120832880999992011100717004-13267-043417FM-15+0443SBLP V0201001N003112200019N0112651N1+03601+01501999999ADDGA1041+009001999GF104991999999999999999999MA1101191999999REMMET051METAR SBLP 071700Z 10006KT 9999 SCT030 36/15 Q1012;
0120832880999992011100718004-13267-043417FM-15+0443SBLP V0201801N003112200019N0112651N1+03701+01601999999ADDGA1041+009001999GF104991999999999999999999MA1101191999999REMMET051METAR SBLP 071800Z 18006KT 9999 SCT030 37/16 Q1012;
0120832880999992011100719004-13267-043417FM-15+0443SBLP V0201801N003112200019N0112651N1+03601+01601999999ADDGA1021+009001999GF102991999999999999999999MA1101081999999REMMET051METAR SBLP 071900Z 18006KT 9999 FEW030 36/16 Q1011;
0120832880999992011100720004-13267-043417FM-15+0443SBLP V0201201N003112200019N0112651N1+03501+01501999999ADDGA1021+009001999GF102991999999999999999999MA1101081999999REMMET051METAR SBLP 072000Z 12006KT 9999 FEW030 35/15 Q1011;
0072832880999992011100721004-13267-043417FM-15+0443SBLP V0209999C000019999999Y0099001N1+03301+01701999999ADDMA1101191999999REMMET045METAR SBLP 072100Z 00000KT CAVOK 33/17 Q1012;
0072832880999992011100810004-13267-043417FM-15+0443SBLP V0201201N003119999999Y0099001N1+02401+01801999999ADDMA1101591999999REMMET045METAR SBLP 081000Z 12006KT CAVOK 24/18 Q1016;
0072832880999992011100811004-13267-043417FM-15+0443SBLP V0201201N003119999999Y0099001N1+02601+01901999999ADDMA1101691999999REMMET045METAR SBLP 081100Z 12006KT CAVOK 26/19 Q1017;
0120832880999992011100812004-13267-043417FM-15+0443SBLP V0201801N003112200019N0112651N1+02801+01901999999ADDGA1021+009001999GF102991999999999999999999MA1101691999999REMMET051METAR SBLP 081200Z 18006KT 9999 FEW030 28/19 Q1017;
0120832880999992011100813004-13267-043417FM-15+0443SBLP V0209999C000012200019N0112651N1+02901+01901999999ADDGA1021+009001999GF102991999999999999999999MA1101691999999REMMET051METAR SBLP 081300Z 00000KT 9999 FEW030 29/19 Q1017;
0120832880999992011100814004-13267-043417FM-15+0443SBLP V0200901N003112200019N0112651N1+03201+01901999999ADDGA1021+009001999GF102991999999999999999999MA1101591999999REMMET051METAR SBLP 081400Z 09006KT 9999 FEW030 32/19 Q1016;
0120832880999992011100815004-13267-043417FM-15+0443SBLP V0200901N003112200019N0112651N1+03201+01901999999ADDGA1021+009001999GF102991999999999999999999MA1101591999999REMMET051METAR SBLP 081500Z 09006KT 9999 FEW030 32/19 Q1016;
0072832880999992011100816004-13267-043417FM-15+0443SBLP V0200901N003119999999Y0099001N1+03501+01801999999ADDMA1101291999999REMMET045METAR SBLP 081600Z 09006KT CAVOK 35/18 Q1013;
0072832880999992011100817004-13267-043417FM-15+0443SBLP V0200901N003119999999Y0099001N1+03601+01701999999ADDMA1101191999999REMMET045METAR SBLP 081700Z 09006KT CAVOK 36/17 Q1012;
0072832880999992011100818004-13267-043417FM-15+0443SBLP V0200901N003119999999Y0099001N1+03701+01601999999ADDMA1101081999999REMMET045METAR SBLP 081800Z 09006KT CAVOK 37/16 Q1011;
0072832880999992011100819004-13267-043417FM-15+0443SBLP V0200901N003119999999Y0099001N1+03601+01601999999ADDMA1101021999999REMMET045METAR SBLP 081900Z 09006KT CAVOK 36/16 Q1010;
0072832880999992011100820004-13267-043417FM-15+0443SBLP V0200901N003119999999Y0099001N1+03501+01601999999ADDMA1101021999999REMMET045METAR SBLP 082000Z 09006KT CAVOK 35/16 Q1010;
0072832880999992011100821004-13267-043417FM-15+0443SBLP V0200901N003119999999Y0099001N1+03301+01701999999ADDMA1101021999999REMMET045METAR SBLP 082100Z 09006KT CAVOK 33/17 Q1010;
0072832880999992011100910004-13267-043417FM-15+0443SBLP V0209999C000019999999Y0099001N1+02401+01801999999ADDMA1101491999999REMMET045METAR SBLP 091000Z 00000KT CAVOK 24/18 Q1015;
0072832880999992011100911004-13267-043417FM-15+0443SBLP V0200901N003119999999Y0099001N1+02701+01701999999ADDMA1101591999999REMMET045METAR SBLP 091100Z 09006KT CAVOK 27/17 Q1016;
0072832880999992011100912004-13267-043417FM-15+0443SBLP V0200901N003119999999Y0099001N1+02901+01601999999ADDMA1101591999999REMMET045METAR SBLP 091200Z 09006KT CAVOK 29/16 Q1016;
0072832880999992011100913004-13267-043417FM-15+0443SBLP V0200901N003119999999Y0099001N1+03201+01401999999ADDMA1101491999999REMMET045METAR SBLP 091300Z 09006KT CAVOK 32/14 Q1015;
0072832880999992011100914004-13267-043417FM-15+0443SBLP V0200901N003119999999Y0099001N1+03401+01301999999ADDMA1101391999999REMMET045METAR SBLP 091400Z 09006KT CAVOK 34/13 Q1014;
0072832880999992011100915004-13267-043417FM-15+0443SBLP V0200901N003119999999Y0099001N1+03401+01301999999ADDMA1101291999999REMMET045METAR SBLP 091500Z 09006KT CAVOK 34/13 Q1013;
0072832880999992011100916004-13267-043417FM-15+0443SBLP V0209999C000019999999Y0099001N1+03501+01301999999ADDMA1101081999999REMMET045METAR SBLP 091600Z 00000KT CAVOK 35/13 Q1011;
0072832880999992011100917004-13267-043417FM-15+0443SBLP V0201201N003119999999Y0099001N1+03601+01201999999ADDMA1100911999999REMMET045METAR SBLP 091700Z 12006KT CAVOK 36/12 Q1009;
0072832880999992011100918004-13267-043417FM-15+0443SBLP V0202401N003119999999Y0099001N1+03701+01201999999ADDMA1100811999999REMMET045METAR SBLP 091800Z 24006KT CAVOK 37/12 Q1008;
0072832880999992011100919004-13267-043417FM-15+0443SBLP V0202101N003119999999Y0099001N1+03701+01201999999ADDMA1100811999999REMMET045METAR SBLP 091900Z 21006KT CAVOK 37/12 Q1008;
0072832880999992011100920004-13267-043417FM-15+0443SBLP V0202101N003119999999Y0099001N1+03601+01301999999ADDMA1100811999999REMMET045METAR SBLP 092000Z 21006KT CAVOK 36/13 Q1008;
0072832880999992011100921004-13267-043417FM-15+0443SBLP V0209999C000019999999Y0099001N1+03501+01401999999ADDMA1100811999999REMMET045METAR SBLP 092100Z 00000KT CAVOK 35/14 Q1008;
0072832880999992011101010004-13267-043417FM-15+0443SBLP V0209999C000019999999Y0099001N1+02401+01801999999ADDMA1101191999999REMMET045METAR SBLP 101000Z 00000KT CAVOK 24/18 Q1012;
0072832880999992011101011004-13267-043417FM-15+0443SBLP V0209999C000019999999Y0099001N1+02901+01701999999ADDMA1101291999999REMMET045METAR SBLP 101100Z 00000KT CAVOK 29/17 Q1013;
0072832880999992011101012004-13267-043417FM-15+0443SBLP V0209999C000019999999Y0099001N1+03201+01601999999ADDMA1101291999999REMMET045METAR SBLP 101200Z 00000KT CAVOK 32/16 Q1013;
0072832880999992011101013004-13267-043417FM-15+0443SBLP V0209999C000019999999Y0099001N1+03401+01501999999ADDMA1101291999999REMMET045METAR SBLP 101300Z 00000KT CAVOK 34/15 Q1013;
0072832880999992011101014004-13267-043417FM-15+0443SBLP V0209999C000019999999Y0099001N1+03501+01401999999ADDMA1101191999999REMMET045METAR SBLP 101400Z 00000KT CAVOK 35/14 Q1012;
0072832880999992011101015004-13267-043417FM-15+0443SBLP V0202401N003119999999Y0099001N1+03501+01401999999ADDMA1101081999999REMMET045METAR SBLP 101500Z 24006KT CAVOK 35/14 Q1011;
0120832880999992011101016004-13267-043417FM-15+0443SBLP V0202701N003112200019N0112651N1+03701+01401999999ADDGA1021+009001999GF102991999999999999999999MA1100911999999REMMET051METAR SBLP 101600Z 27006KT 9999 FEW030 37/14 Q1009;
0120832880999992011101017004-13267-043417FM-15+0443SBLP V0202701N003112200019N0112651N1+03801+01401999999ADDGA1021+009001999GF102991999999999999999999MA1100811999999REMMET051METAR SBLP 101700Z 27006KT 9999 FEW030 38/14 Q1008;
0120832880999992011101018004-13267-043417FM-15+0443SBLP V0202701N003112200019N0112651N1+03901+01401999999ADDGA1041+009001999GF104991999999999999999999MA1100711999999REMMET051METAR SBLP 101800Z 27006KT 9999 SCT030 39/14 Q1007;
0120832880999992011101020004-13267-043417FM-15+0443SBLP V0202701N003112200019N0112651N1+03701+01401999999ADDGA1041+009001999GF104991999999999999999999MA1100711999999REMMET051METAR SBLP 102000Z 27006KT 9999 SCT030 37/14 Q1007;
0120832880999992011101021004-13267-043417FM-15+0443SBLP V0202701N003112200019N0112651N1+03401+01501999999ADDGA1041+009001999GF104991999999999999999999MA1100811999999REMMET051METAR SBLP 102100Z 27006KT 9999 SCT030 34/15 Q1008;
0072832880999992011101110004-13267-043417FM-15+0443SBLP V0200901N003119999999Y0099001N1+02701+01501999999ADDMA1101191999999REMMET045METAR SBLP 111000Z 09006KT CAVOK 27/15 Q1012;
0072832880999992011101111004-13267-043417FM-15+0443SBLP V0200901N003119999999Y0099001N1+02901+01501999999ADDMA1101291999999REMMET045METAR SBLP 111100Z 09006KT CAVOK 29/15 Q1013;
0120832880999992011101113004-13267-043417FM-15+0443SBLP V0200901N003112200019N0112651N1+03301+01501999999ADDGA1041+009001999GF104991999999999999999999MA1101291999999REMMET051METAR SBLP 111300Z 09006KT 9999 SCT030 33/15 Q1013;
0120832880999992011101114004-13267-043417FM-15+0443SBLP V0200901N003112200019N0112651N1+03401+01501999999ADDGA1041+009001999GF104991999999999999999999MA1101191999999REMMET051METAR SBLP 111400Z 09006KT 9999 SCT030 34/15 Q1012;
0120832880999992011101115004-13267-043417FM-15+0443SBLP V0200901N003112200019N0112651N1+03401+01501999999ADDGA1041+009001999GF104991999999999999999999MA1101081999999REMMET051METAR SBLP 111500Z 09006KT 9999 SCT030 34/15 Q1011;
0120832880999992011101116004-13267-043417FM-15+0443SBLP V0209999C000012200019N0112651N1+03601+01401999999ADDGA1021+009001999GF102991999999999999999999MA1101021999999REMMET051METAR SBLP 111600Z 00000KT 9999 FEW030 36/14 Q1010;
0120832880999992011101117004-13267-043417FM-15+0443SBLP V0209999C000012200019N0112651N1+03801+01401999999ADDGA1021+009001999GF102991999999999999999999MA1100911999999REMMET051METAR SBLP 111700Z 00000KT 9999 FEW030 38/14 Q1009;
0143832880999992011101118004-13267-043417FM-15+0443SBLP V0202601N002112200019N0112651N1+03801+01401999999ADDGA1021+009001999GA2041+030001999GF104991999999999999999999MA1100811999999REMMET058METAR SBLP 111800Z 26004KT 9999 FEW030 SCT100 38/14 Q1008;
0143832880999992011101119004-13267-043417FM-15+0443SBLP V0202101N004112200019N0112651N1+03801+01401999999ADDGA1021+009001999GA2041+030001999GF104991999999999999999999MA1100711999999REMMET058METAR SBLP 111900Z 21008KT 9999 FEW030 SCT100 38/14 Q1007;
0120832880999992011101120004-13267-043417FM-15+0443SBLP V0201801N002112200019N0112651N1+03601+01601999999ADDGA1041+009001999GF104991999999999999999999MA1100711999999REMMET051METAR SBLP 112000Z 18004KT 9999 SCT030 36/16 Q1007;
0072832880999992011101121004-13267-043417FM-15+0443SBLP V0201801N002119999999Y0099001N1+03401+01701999999ADDMA1100711999999REMMET045METAR SBLP 112100Z 18004KT CAVOK 34/17 Q1007;
0072832880999992011101210004-13267-043417FM-15+0443SBLP V0201501N003119999999Y0099001N1+02701+01801999999ADDMA1101291999999REMMET045METAR SBLP 121000Z 15006KT CAVOK 27/18 Q1013;
0054832880999992011101211004-13267-043417FM-15+0443SBLP V0201501N004119999999Y0099001N1+02901+01901999999REMMET045METAR SBLP 121100Z 15008KT CAVOK 29/19 Q////;
0143832880999992011101212004-13267-043417FM-15+0443SBLP V0201201N005110300019N0112651N1+03101+01801999999ADDGA1021+009001999GA2071+030001999GF107991999999999999999999MA1101391999999REMMET058METAR SBLP 121200Z 12010KT 9999 FEW030 BKN100 31/18 Q1014;
0143832880999992011101213004-13267-043417FM-15+0443SBLP V0201801N002110300019N0112651N1+03101+01801999999ADDGA1041+009001999GA2071+030001999GF107991999999999999999999MA1101391999999REMMET058METAR SBLP 121300Z 18004KT 9999 SCT030 BKN100 31/18 Q1014;
0143832880999992011101214004-13267-043417FM-15+0443SBLP V0201601N005110300019N0112651N1+03201+01901999999ADDGA1041+009001999GA2071+030001999GF107991999999999999999999MA1101291999999REMMET058METAR SBLP 121400Z 16010KT 9999 SCT030 BKN100 32/19 Q1013;
0143832880999992011101215004-13267-043417FM-15+0443SBLP V0202101N005110300019N0112651N1+03201+01801999999ADDGA1021+009001999GA2071+030001999GF107991999999999999999999MA1101291999999REMMET058METAR SBLP 121500Z 21010KT 9999 FEW030 BKN100 32/18 Q1013;
0143832880999992011101216004-13267-043417FM-15+0443SBLP V0201801N003110300019N0112651N1+03201+01801999999ADDGA1041+009001999GA2071+030001999GF107991999999999999999999MA1101191999999REMMET058METAR SBLP 121600Z 18006KT 9999 SCT030 BKN100 32/18 Q1012;
0143832880999992011101217004-13267-043417FM-15+0443SBLP V0202101N003110300019N0112651N1+02901+02001999999ADDGA1021+009001999GA2071+030001999GF107991999999999999999999MA1101081999999REMMET058METAR SBLP 121700Z 21006KT 9999 FEW030 BKN100 29/20 Q1011;
0143832880999992011101218004-13267-043417FM-15+0443SBLP V0201801N003110300019N0112651N1+02901+02001999999ADDGA1021+009001999GA2071+030001999GF107991999999999999999999MA1101021999999REMMET058METAR SBLP 121800Z 18006KT 9999 FEW030 BKN100 29/20 Q1010;
0143832880999992011101219004-13267-043417FM-15+0443SBLP V0201801N003110300019N0112651N1+02801+02001999999ADDGA1021+009001999GA2071+030001999GF107991999999999999999999MA1101021999999REMMET058METAR SBLP 121900Z 18006KT 9999 FEW030 BKN100 28/20 Q1010;
0143832880999992011101220004-13267-043417FM-15+0443SBLP V0201801N003110300019N0112651N1+02801+02101999999ADDGA1021+009001999GA2071+030001999GF107991999999999999999999MA1101021999999REMMET058METAR SBLP 122000Z 18006KT 9999 FEW030 BKN100 28/21 Q1010;
0143832880999992011101221004-13267-043417FM-15+0443SBLP V0201801N004110300019N0112651N1+02701+02101999999ADDGA1021+009001999GA2071+030001999GF107991999999999999999999MA1101021999999REMMET058METAR SBLP 122100Z 18008KT 9999 FEW030 BKN100 27/21 Q1010;
0072832880999992011101310004-13267-043417FM-15+0443SBLP V0209999C000019999999Y0099001N1+02301+02101999999ADDMA1101291999999REMMET045METAR SBLP 131000Z 00000KT CAVOK 23/21 Q1013;
0072832880999992011101311004-13267-043417FM-15+0443SBLP V0201801N002119999999Y0099001N1+02601+02001999999ADDMA1101291999999REMMET045METAR SBLP 131100Z 18004KT CAVOK 26/20 Q1013;
0072832880999992011101312004-13267-043417FM-15+0443SBLP V0201801N002119999999Y0099001N1+02601+02001999999ADDMA1101291999999REMMET045METAR SBLP 131200Z 18004KT CAVOK 26/20 Q1013;
0143832880999992011101313004-13267-043417FM-15+0443SBLP V0209999C000010300019N0112651N1+02701+02001999999ADDGA1041+006001999GA2071+030001999GF107991999999999999999999MA1101391999999REMMET058METAR SBLP 131300Z 00000KT 9999 SCT020 BKN100 27/20 Q1014;
0143832880999992011101314004-13267-043417FM-15+0443SBLP V0209999C000010300019N0112651N1+02901+02001999999ADDGA1021+006001999GA2071+030001999GF107991999999999999999999MA1101291999999REMMET058METAR SBLP 131400Z 00000KT 9999 FEW020 BKN100 29/20 Q1013;
0143832880999992011101315004-13267-043417FM-15+0443SBLP V0209999C000010300019N0112651N1+03101+01901999999ADDGA1021+006001999GA2071+030001999GF107991999999999999999999MA1101191999999REMMET058METAR SBLP 131500Z 00000KT 9999 FEW020 BKN100 31/19 Q1012;
0143832880999992011101316004-13267-043417FM-15+0443SBLP V0200601N003110300019N0112651N1+03401+01801999999ADDGA1041+009001999GA2071+030001999GF107991999999999999999999MA1101081999999REMMET058METAR SBLP 131600Z 06006KT 9999 SCT030 BKN100 34/18 Q1011;
0143832880999992011101317004-13267-043417FM-15+0443SBLP V0209999C000010300019N0112651N1+03401+01801999999ADDGA1041+009001999GA2071+030001999GF107991999999999999999999MA1101021999999REMMET058METAR SBLP 131700Z 00000KT 9999 SCT030 BKN100 34/18 Q1010;
0143832880999992011101318004-13267-043417FM-15+0443SBLP V0203601N003112200019N0112651N1+03401+01801999999ADDGA1041+009001999GA2041+030001999GF104991999999999999999999MA1100911999999REMMET058METAR SBLP 131800Z 36006KT 9999 SCT030 SCT100 34/18 Q1009;
0143832880999992011101319004-13267-043417FM-15+0443SBLP V0209999C000012200019N0112651N1+03501+01701999999ADDGA1041+009001999GA2041+030001999GF104991999999999999999999MA1100811999999REMMET058METAR SBLP 131900Z 00000KT 9999 SCT030 SCT100 35/17 Q1008;
0120832880999992011101320004-13267-043417FM-15+0443SBLP V0200901N005112200019N0112651N1+03201+01901999999ADDGA1041+009001999GF104991999999999999999999MA1100811999999REMMET051METAR SBLP 132000Z 09010KT 9999 SCT030 32/19 Q1008;
0054832880999992011101321004-13267-043417FM-15+0443SBLP V0200901N005119999999Y0099001N1+03101+01901999999REMMET045METAR SBLP 132100Z 09010KT CAVOK 31/19 Q////;
0143832880999992011101410004-13267-043417FM-15+0443SBLP V0209999C000010300019N0112651N1+02501+02201999999ADDGA1041+006001999GA2071+030001999GF107991999999999999999999MA1101291999999REMMET058METAR SBLP 141000Z 00000KT 9999 SCT020 BKN100 25/22 Q1013;
0153832880999992011101411004-13267-043417FM-15+0443SBLP V0209999C000010060019N0112651N1+02301+02201999999ADDGA1071+006001999GA2071+030001999GF107991999999999999999999MA1101391999999MW1611REMMET062METAR SBLP 141100Z 00000KT 9999 -RA BKN020 BKN100 23/22 Q1014;
0153832880999992011101412004-13267-043417FM-15+0443SBLP V0209999C000010300019N0112651N1+02501+02201999999ADDGA1041+006001999GA2071+030001999GF107991999999999999999999MA1101391999999MW1611REMMET062METAR SBLP 141200Z 00000KT 9999 -RA SCT020 BKN100 25/22 Q1014;
0143832880999992011101413004-13267-043417FM-15+0443SBLP V0203201N002110300019N0112651N1+02801+02301999999ADDGA1021+006001999GA2071+030001999GF107991999999999999999999MA1101291999999REMMET058METAR SBLP 141300Z 32004KT 9999 FEW020 BKN100 28/23 Q1013;
0143832880999992011101414004-13267-043417FM-15+0443SBLP V0202901N002110300019N0112651N1+02801+02101999999ADDGA1021+009001999GA2071+030001999GF107991999999999999999999MA1101291999999REMMET058METAR SBLP 141400Z 29004KT 9999 FEW030 BKN100 28/21 Q1013;
0143832880999992011101415004-13267-043417FM-15+0443SBLP V0209999C000012200019N0112651N1+03001+02101999999ADDGA1041+009001999GA2041+030001999GF104991999999999999999999MA1101191999999REMMET058METAR SBLP 141500Z 00000KT 9999 SCT030 SCT100 30/21 Q1012;
0143832880999992011101416004-13267-043417FM-15+0443SBLP V0202501N003112200019N0112651N1+03101+02101999999ADDGA1021+009001999GA2041+030001999GF104991999999999999999999MA1101021999999REMMET058METAR SBLP 141600Z 25006KT 9999 FEW030 SCT100 31/21 Q1010;
0143832880999992011101417004-13267-043417FM-15+0443SBLP V0209999C000012200019N0112651N1+03201+02101999999ADDGA1021+009001999GA2041+030001999GF104991999999999999999999MA1100911999999REMMET058METAR SBLP 141700Z 00000KT 9999 FEW030 SCT100 32/21 Q1009;
0143832880999992011101419004-13267-043417FM-15+0443SBLP V0209999C000010300019N0112651N1+03201+02001999999ADDGA1021+009001999GA2071+030001999GF107991999999999999999999MA1100711999999REMMET058METAR SBLP 141900Z 00000KT 9999 FEW030 BKN100 32/20 Q1007;
0143832880999992011101420004-13267-043417FM-15+0443SBLP V0209999C000010300019N0112651N1+03201+02001999999ADDGA1021+009001999GA2071+030001999GF107991999999999999999999MA1100811999999REMMET058METAR SBLP 142000Z 00000KT 9999 FEW030 BKN100 32/20 Q1008;
0143832880999992011101421004-13267-043417FM-15+0443SBLP V0209999C000010300019N0112651N1+03001+02201999999ADDGA1021+009001999GA2071+030001999GF107991999999999999999999MA1100811999999REMMET058METAR SBLP 142100Z 00000KT 9999 FEW030 BKN100 30/22 Q1008;
0143832880999992011101510004-13267-043417FM-15+0443SBLP V0203601N003110300019N0112651N1+02501+02101999999ADDGA1021+006001999GA2071+030001999GF107991999999999999999999MA1101191999999REMMET058METAR SBLP 151000Z 36006KT 9999 FEW020 BKN100 25/21 Q1012;
0143832880999992011101511004-13267-043417FM-15+0443SBLP V0203601N003110300019N0112651N1+02801+02301999999ADDGA1041+006001999GA2071+030001999GF107991999999999999999999MA1101291999999REMMET058METAR SBLP 151100Z 36006KT 9999 SCT020 BKN100 28/23 Q1013;
0143832880999992011101512004-13267-043417FM-15+0443SBLP V0203601N003110300019N0112651N1+02701+02201999999ADDGA1041+006001999GA2071+030001999GF107991999999999999999999MA1101291999999REMMET058METAR SBLP 151200Z 36006KT 9999 SCT020 BKN100 27/22 Q1013;
0143832880999992011101513004-13267-043417FM-15+0443SBLP V0209999C000010300019N0112651N1+02801+02001999999ADDGA1021+006001999GA2071+030001999GF107991999999999999999999MA1101291999999REMMET058METAR SBLP 151300Z 00000KT 9999 FEW020 BKN100 28/20 Q1013;
0143832880999992011101514004-13267-043417FM-15+0443SBLP V0203601N004110300019N0112651N1+03001+02001999999ADDGA1021+006001999GA2071+030001999GF107991999999999999999999MA1101191999999REMMET058METAR SBLP 151400Z 36008KT 9999 FEW020 BKN100 30/20 Q1012;
0143832880999992011101515004-13267-043417FM-15+0443SBLP V0203601N003110300019N0112651N1+03101+02001999999ADDGA1021+006001999GA2071+030001999GF107991999999999999999999MA1101081999999REMMET058METAR SBLP 151500Z 36006KT 9999 FEW020 BKN100 31/20 Q1011;
0143832880999992011101516004-13267-043417FM-15+0443SBLP V0203601N003110300019N0112651N1+03101+02001999999ADDGA1021+006001999GA2071+030001999GF107991999999999999999999MA1101021999999REMMET058METAR SBLP 151600Z 36006KT 9999 FEW020 BKN100 31/20 Q1010;
0143832880999992011101517004-13267-043417FM-15+0443SBLP V0203601N003112200019N0112651N1+03201+01901999999ADDGA1021+009001999GA2041+030001999GF104991999999999999999999MA1100911999999REMMET058METAR SBLP 151700Z 36006KT 9999 FEW030 SCT100 32/19 Q1009;
0143832880999992011101518004-13267-043417FM-15+0443SBLP V0203601N006212200019N0112651N1+03201+01901999999ADDGA1041+009001999GA2041+030001999GF104991999999999999999999MA1100811999999REMMET058METAR SBLP 151800Z 36012KT 9999 SCT030 SCT100 32/19 Q1008;
0143832880999992011101519004-13267-043417FM-15+0443SBLP V0203601N003112200019N0112651N1+03201+01901999999ADDGA1041+009001999GA2041+030001999GF104991999999999999999999MA1100811999999REMMET058METAR SBLP 151900Z 36006KT 9999 SCT030 SCT100 32/19 Q1008;
0143832880999992011101520004-13267-043417FM-15+0443SBLP V0202701N003110300019N0112651N1+03101+01901999999ADDGA1041+009001999GA2071+030001999GF107991999999999999999999MA1100811999999REMMET058METAR SBLP 152000Z 27006KT 9999 SCT030 BKN100 31/19 Q1008;
0143832880999992011101521004-13267-043417FM-15+0443SBLP V0202701N003110300019N0112651N1+03001+02001999999ADDGA1021+009001999GA2071+030001999GF107991999999999999999999MA1100911999999REMMET058METAR SBLP 152100Z 27006KT 9999 FEW030 BKN100 30/20 Q1009;
0143832880999992011101610004-13267-043417FM-15+0443SBLP V0209999C000010300019N0112651N1+02301+02101999999ADDGA1041+006001999GA2071+030001999GF107991999999999999999999MA1101191999999REMMET058METAR SBLP 161000Z 00000KT 9999 SCT020 BKN100 23/21 Q1012;
0143832880999992011101611004-13267-043417FM-15+0443SBLP V0209999C000010300019N0112651N1+02401+02101999999ADDGA1041+006001999GA2071+030001999GF107991999999999999999999MA1101291999999REMMET058METAR SBLP 161100Z 00000KT 9999 SCT020 BKN100 24/21 Q1013;
0153832880999992011101612004-13267-043417FM-15+0443SBLP V0209999C000010300019N0090001N1+02401+02101999999ADDGA1041+006001999GA2071+030001999GF107991999999999999999999MA1101291999999MW1611REMMET062METAR SBLP 161200Z 00000KT 9000 -RA SCT020 BKN100 24/21 Q1013;
0143832880999992011101613004-13267-043417FM-15+0443SBLP V0203601N003110300019N0112651N1+02501+02101999999ADDGA1041+006001999GA2071+030001999GF107991999999999999999999MA1101291999999REMMET058METAR SBLP 161300Z 36006KT 9999 SCT020 BKN100 25/21 Q1013;
0143832880999992011101614004-13267-043417FM-15+0443SBLP V0203601N003110300019N0112651N1+02701+02101999999ADDGA1041+006001999GA2071+030001999GF107991999999999999999999MA1101191999999REMMET058METAR SBLP 161400Z 36006KT 9999 SCT020 BKN100 27/21 Q1012;
0143832880999992011101615004-13267-043417FM-15+0443SBLP V0203601N003110300019N0112651N1+02901+02101999999ADDGA1021+006001999GA2071+030001999GF107991999999999999999999MA1101081999999REMMET058METAR SBLP 161500Z 36006KT 9999 FEW020 BKN100 29/21 Q1011;
0153832880999992011101616004-13267-043417FM-15+0443SBLP V0202101N006210060019N0112651N1+02801+02201999999ADDGA1071+006001999GA2071+030001999GF107991999999999999999999MA1101081999999MW1611REMMET062METAR SBLP 161600Z 21012KT 9999 -RA BKN020 BKN100 28/22 Q1011;
0143832880999992011101617004-13267-043417FM-15+0443SBLP V0202401N005110300019N0112651N1+02901+02201999999ADDGA1021+009001999GA2071+030001999GF107991999999999999999999MA1100911999999REMMET058METAR SBLP 161700Z 24010KT 9999 FEW030 BKN100 29/22 Q1009;
0143832880999992011101618004-13267-043417FM-15+0443SBLP V0202401N002610300019N0112651N1+03001+02101999999ADDGA1021+009001999GA2071+030001999GF107991999999999999999999MA1100811999999REMMET058METAR SBLP 161800Z 24005KT 9999 FEW030 BKN100 30/21 Q1008;
0143832880999992011101619004-13267-043417FM-15+0443SBLP V0202701N002110300019N0112651N1+03101+02101999999ADDGA1021+009001999GA2071+030001999GF107991999999999999999999MA1100811999999REMMET058METAR SBLP 161900Z 27004KT 9999 FEW030 BKN100 31/21 Q1008;
0128832880999992011101620004-13267-043417FM-15+0443SBLP V0202701N002110300019N0112651N1+03101+02001999999ADDGA1021+009001999GA2071+030001999GF107991999999999999999999REMMET058METAR SBLP 162000Z 27004KT 9999 FEW030 BKN100 31/20 Q////;
0072832880999992011101621004-13267-043417FM-15+0443SBLP V0209999C000019999999Y0099001N1+03001+02001999999ADDMA1100811999999REMMET045METAR SBLP 162100Z 00000KT CAVOK 30/20 Q1008;
0143832880999992011101710004-13267-043417FM-15+0443SBLP V0203601N002110300019N0112651N1+02601+02201999999ADDGA1021+009001999GA2071+030001999GF107991999999999999999999MA1101021999999REMMET058METAR SBLP 171000Z 36004KT 9999 FEW030 BKN100 26/22 Q1010;
0143832880999992011101711004-13267-043417FM-15+0443SBLP V0203601N002110300019N0112651N1+02801+02301999999ADDGA1041+009001999GA2071+030001999GF107991999999999999999999MA1101081999999REMMET058METAR SBLP 171100Z 36004KT 9999 SCT030 BKN100 28/23 Q1011;
0143832880999992011101712004-13267-043417FM-15+0443SBLP V0203001N002112200019N0112651N1+02901+02201999999ADDGA1041+009001999GA2041+030001999GF104991999999999999999999MA1101081999999REMMET058METAR SBLP 171200Z 30004KT 9999 SCT030 SCT100 29/22 Q1011;
0143832880999992011101713004-13267-043417FM-15+0443SBLP V0203301N003112200019N0112651N1+03201+02201999999ADDGA1041+009001999GA2041+030001999GF104991999999999999999999MA1101021999999REMMET058METAR SBLP 171300Z 33006KT 9999 SCT030 SCT100 32/22 Q1010;
0120832880999992011101715004-13267-043417FM-15+0443SBLP V0203301N004112200019N0112651N1+03501+02201999999ADDGA1041+009001999GF104991999999999999999999MA1100811999999REMMET051METAR SBLP 171500Z 33008KT 9999 SCT030 35/22 Q1008;
0120832880999992011101716004-13267-043417FM-15+0443SBLP V0203501N003112200019N0112651N1+03501+02201999999ADDGA1041+009001999GF104991999999999999999999MA1100611999999REMMET051METAR SBLP 171600Z 35006KT 9999 SCT030 35/22 Q1006;
0120832880999992011101717004-13267-043417FM-15+0443SBLP V0209999C000012200019N0112651N1+03201+02301999999ADDGA1041+009001999GF104991999999999999999999MA1100611999999REMMET051METAR SBLP 171700Z 00000KT 9999 SCT030 32/23 Q1006;
0143832880999992011101718004-13267-043417FM-15+0443SBLP V0203001N003110300019N0112651N1+03001+02401999999ADDGA1041+009001999GA2071+030001999GF107991999999999999999999MA1100611999999REMMET058METAR SBLP 171800Z 30006KT 9999 SCT030 BKN100 30/24 Q1006;
0143832880999992011101719004-13267-043417FM-15+0443SBLP V0203001N003110300019N0112651N1+03001+02401999999ADDGA1041+009001999GA2071+030001999GF107991999999999999999999MA1100611999999REMMET058METAR SBLP 171900Z 30006KT 9999 SCT030 BKN100 30/24 Q1006;
0143832880999992011101720004-13267-043417FM-15+0443SBLP V0209999C000010300019N0112651N1+02901+02501999999ADDGA1021+009001999GA2071+030001999GF107991999999999999999999MA1100611999999REMMET058METAR SBLP 172000Z 00000KT 9999 FEW030 BKN100 29/25 Q1006;
0143832880999992011101721004-13267-043417FM-15+0443SBLP V0209999C000010300019N0112651N1+02901+02501999999ADDGA1021+009001999GA2071+030001999GF107991999999999999999999MA1100611999999REMMET058METAR SBLP 172100Z 00000KT 9999 FEW030 BKN100 29/25 Q1006;
0143832880999992011101810004-13267-043417FM-15+0443SBLP V0209999C000010300019N0112651N1+02201+02201999999ADDGA1041+004501999GA2071+030001999GF107991999999999999999999MA1101021999999REMMET058METAR SBLP 181000Z 00000KT 9999 SCT015 BKN100 22/22 Q1010;
0143832880999992011101811004-13267-043417FM-15+0443SBLP V0209999C000010300019N0112651N1+02401+02101999999ADDGA1041+006001999GA2071+030001999GF107991999999999999999999MA1101081999999REMMET058METAR SBLP 181100Z 00000KT 9999 SCT020 BKN100 24/21 Q1011;
0143832880999992011101812004-13267-043417FM-15+0443SBLP V0209999C000010300019N0112651N1+02601+02101999999ADDGA1041+006001999GA2071+030001999GF107991999999999999999999MA1101021999999REMMET058METAR SBLP 181200Z 00000KT 9999 SCT020 BKN100 26/21 Q1010;
0143832880999992011101813004-13267-043417FM-15+0443SBLP V0209999C000010300019N0112651N1+02801+02101999999ADDGA1041+006001999GA2071+030001999GF107991999999999999999999MA1101191999999REMMET058METAR SBLP 181300Z 00000KT 9999 SCT020 BKN100 28/21 Q1012;
0143832880999992011101814004-13267-043417FM-15+0443SBLP V0209999C000010300019N0112651N1+02801+02101999999ADDGA1041+006001999GA2071+030001999GF107991999999999999999999MA1101191999999REMMET058METAR SBLP 181400Z 00000KT 9999 SCT020 BKN100 28/21 Q1012;
0143832880999992011101815004-13267-043417FM-15+0443SBLP V0209999C000010300019N0112651N1+02901+02201999999ADDGA1041+006001999GA2071+030001999GF107991999999999999999999MA1101081999999REMMET058METAR SBLP 181500Z 00000KT 9999 SCT020 BKN100 29/22 Q1011;
0143832880999992011101816004-13267-043417FM-15+0443SBLP V0209999C000010300019N0112651N1+02801+02101999999ADDGA1041+006001999GA2071+030001999GF107991999999999999999999MA1101021999999REMMET058METAR SBLP 181600Z 00000KT 9999 SCT020 BKN100 28/21 Q1010;
0153832880999992011101817004-13267-043417FM-15+0443SBLP V0203601N004110300019N0112651N1+02701+02301999999ADDGA1041+006001999GA2071+030001999GF107991999999999999999999MA1101021999999MW1611REMMET062METAR SBLP 181700Z 36008KT 9999 -RA SCT020 BKN100 27/23 Q1010;
0153832880999992011101818004-13267-043417FM-15+0443SBLP V0203401N005110060019N0080001N1+02601+02401999999ADDGA1071+006001999GA2081+030001999GF108991999999999999999999MA1101021999999MW1611REMMET062METAR SBLP 181800Z 34010KT 8000 -RA BKN020 OVC100 26/24 Q1010;
0153832880999992011101819004-13267-043417FM-15+0443SBLP V0203601N004110060019N0112651N1+02501+02301999999ADDGA1071+006001999GA2081+030001999GF108991999999999999999999MA1101021999999MW1611REMMET062METAR SBLP 181900Z 36008KT 9999 -RA BKN020 OVC100 25/23 Q1010;
0153832880999992011101820004-13267-043417FM-15+0443SBLP V0203601N003110060019N0080001N1+02401+02201999999ADDGA1071+006001999GA2081+030001999GF108991999999999999999999MA1101081999999MW1611REMMET062METAR SBLP 182000Z 36006KT 8000 -RA BKN020 OVC100 24/22 Q1011;
0153832880999992011101821004-13267-043417FM-15+0443SBLP V0203601N003110060019N0080001N1+02401+02201999999ADDGA1071+006001999GA2081+030001999GF108991999999999999999999MA1101081999999MW1611REMMET062METAR SBLP 182100Z 36006KT 8000 -RA BKN020 OVC100 24/22 Q1011;
0072832880999992011101910004-13267-043417FM-15+0443SBLP V0201801N005119999999Y0099001N1+02201+02101999999ADDMA1101391999999REMMET045METAR SBLP 191000Z 18010KT CAVOK 22/21 Q1014;
0143832880999992011101911004-13267-043417FM-15+0443SBLP V0201801N003112200019N0112651N1+02401+02101999999ADDGA1021+006001999GA2041+030001999GF104991999999999999999999MA1101491999999REMMET058METAR SBLP 191100Z 18006KT 9999 FEW020 SCT100 24/21 Q1015;
0143832880999992011101912004-13267-043417FM-15+0443SBLP V0201801N005112200019N0112651N1+02701+02001999999ADDGA1021+006001999GA2041+030001999GF104991999999999999999999MA1101491999999REMMET058METAR SBLP 191200Z 18010KT 9999 FEW020 SCT100 27/20 Q1015;
0143832880999992011101913004-13267-043417FM-15+0443SBLP V0201201N003110300019N0112651N1+02801+01901999999ADDGA1041+006001999GA2071+030001999GF107991999999999999999999MA1101491999999REMMET058METAR SBLP 191300Z 12006KT 9999 SCT020 BKN100 28/19 Q1015;
0143832880999992011101914004-13267-043417FM-15+0443SBLP V0201801N005112200019N0112651N1+02901+01901999999ADDGA1041+006001999GA2041+030001999GF104991999999999999999999MA1101491999999REMMET058METAR SBLP 191400Z 18010KT 9999 SCT020 SCT100 29/19 Q1015;
0143832880999992011101915004-13267-043417FM-15+0443SBLP V0201201N003110060019N0112651N1+03001+02001999999ADDGA1071+006001999GA2071+030001999GF107991999999999999999999MA1101391999999REMMET058METAR SBLP 191500Z 12006KT 9999 BKN020 BKN100 30/20 Q1014;
0143832880999992011101916004-13267-043417FM-15+0443SBLP V0201801N003110060019N0112651N1+03101+02001999999ADDGA1071+006001999GA2071+030001999GF107991999999999999999999MA1101291999999REMMET058METAR SBLP 191600Z 18006KT 9999 BKN020 BKN100 31/20 Q1013;
0143832880999992011101918004-13267-043417FM-15+0443SBLP V0201801N003110300019N0112651N1+02801+02101999999ADDGA1041+006001999GA2071+030001999GF107991999999999999999999MA1101191999999REMMET058METAR SBLP 191800Z 18006KT 9999 SCT020 BKN100 28/21 Q1012;
0143832880999992011101919004-13267-043417FM-15+0443SBLP V0201801N003110300019N0112651N1+02801+02201999999ADDGA1041+006001999GA2071+030001999GF107991999999999999999999MA1101191999999REMMET058METAR SBLP 191900Z 18006KT 9999 SCT020 BKN100 28/22 Q1012;
0143832880999992011101920004-13267-043417FM-15+0443SBLP V0201201N003110300019N0112651N1+02701+02001999999ADDGA1021+006001999GA2071+030001999GF107991999999999999999999MA1101191999999REMMET058METAR SBLP 192000Z 12006KT 9999 FEW020 BKN100 27/20 Q1012;
0143832880999992011101921004-13267-043417FM-15+0443SBLP V0201401N003110300019N0112651N1+02601+02301999999ADDGA1021+006001999GA2071+030001999GF107991999999999999999999MA1101291999999REMMET058METAR SBLP 192100Z 14006KT 9999 FEW020 BKN100 26/23 Q1013;
0072832880999992011102010004-13267-043417FM-15+0443SBLP V0209999C000019999999Y0099001N1+02301+02001999999ADDMA1101591999999REMMET045METAR SBLP 201000Z 00000KT CAVOK 23/20 Q1016;
0072832880999992011102011004-13267-043417FM-15+0443SBLP V0200601N003119999999Y0099001N1+02301+02201999999ADDMA1101691999999REMMET045METAR SBLP 201100Z 06006KT CAVOK 23/22 Q1017;
0143832880999992011102012004-13267-043417FM-15+0443SBLP V0201201N003112200019N0112651N1+02601+01801999999ADDGA1021+009001999GA2041+030001999GF104991999999999999999999MA1101591999999REMMET058METAR SBLP 201200Z 12006KT 9999 FEW030 SCT100 26/18 Q1016;
0143832880999992011102013004-13267-043417FM-15+0443SBLP V0201201N004112200019N0112651N1+02801+01801999999ADDGA1021+009001999GA2041+030001999GF104991999999999999999999MA1101491999999REMMET058METAR SBLP 201300Z 12008KT 9999 FEW030 SCT100 28/18 Q1015;
0143832880999992011102014004-13267-043417FM-15+0443SBLP V0209999C000012200019N0112651N1+02901+01801999999ADDGA1021+009001999GA2041+030001999GF104991999999999999999999MA1101491999999REMMET058METAR SBLP 201400Z 00000KT 9999 FEW030 SCT100 29/18 Q1015;
0143832880999992011102015004-13267-043417FM-15+0443SBLP V0201201N003112200019N0112651N1+03101+01801999999ADDGA1021+009001999GA2041+030001999GF104991999999999999999999MA1101391999999REMMET058METAR SBLP 201500Z 12006KT 9999 FEW030 SCT100 31/18 Q1014;
0143832880999992011102016004-13267-043417FM-15+0443SBLP V0201801N003112200019N0112651N1+03101+01801999999ADDGA1041+009001999GA2041+030001999GF104991999999999999999999MA1101191999999REMMET058METAR SBLP 201600Z 18006KT 9999 SCT030 SCT100 31/18 Q1012;
0120832880999992011102017004-13267-043417FM-15+0443SBLP V0201801N003112200019N0112651N1+03201+01801999999ADDGA1041+009001999GF104991999999999999999999MA1101081999999REMMET051METAR SBLP 201700Z 18006KT 9999 SCT030 32/18 Q1011;
0120832880999992011102018004-13267-043417FM-15+0443SBLP V0201801N003112200019N0112651N1+03201+01701999999ADDGA1041+009001999GF104991999999999999999999MA1101081999999REMMET051METAR SBLP 201800Z 18006KT 9999 SCT030 32/17 Q1011;
0120832880999992011102019004-13267-043417FM-15+0443SBLP V0201801N003110090019N0112651N1+03101+01701999999ADDGA1071+009001999GF107991999999999999999999MA1101081999999REMMET051METAR SBLP 201900Z 18006KT 9999 BKN030 31/17 Q1011;
0120832880999992011102020004-13267-043417FM-15+0443SBLP V0201801N003110090019N0112651N1+03101+01701999999ADDGA1071+009001999GF107991999999999999999999MA1101081999999REMMET051METAR SBLP 202000Z 18006KT 9999 BKN030 31/17 Q1011;
0120832880999992011102021004-13267-043417FM-15+0443SBLP V0201801N003110090019N0112651N1+02901+01801999999ADDGA1071+009001999GF107991999999999999999999MA1101191999999REMMET051METAR SBLP 202100Z 18006KT 9999 BKN030 29/18 Q1012;
0143832880999992011102110004-13267-043417FM-15+0443SBLP V0201801N003110300019N0112651N1+02301+01901999999ADDGA1041+006001999GA2071+030001999GF107991999999999999999999MA1101391999999REMMET058METAR SBLP 211000Z 18006KT 9999 SCT020 BKN100 23/19 Q1014;
0143832880999992011102111004-13267-043417FM-15+0443SBLP V0201801N003110300019N0112651N1+02401+01901999999ADDGA1021+006001999GA2071+030001999GF107991999999999999999999MA1101591999999REMMET058METAR SBLP 211100Z 18006KT 9999 FEW020 BKN100 24/19 Q1016;
0143832880999992011102112004-13267-043417FM-15+0443SBLP V0200901N003112200019N0112651N1+02501+01801999999ADDGA1021+006001999GA2041+030001999GF104991999999999999999999MA1101591999999REMMET058METAR SBLP 211200Z 09006KT 9999 FEW020 SCT100 25/18 Q1016;
0143832880999992011102113004-13267-043417FM-15+0443SBLP V0200901N003112200019N0112651N1+02701+01801999999ADDGA1021+006001999GA2041+030001999GF104991999999999999999999MA1101591999999REMMET058METAR SBLP 211300Z 09006KT 9999 FEW020 SCT100 27/18 Q1016;
0143832880999992011102114004-13267-043417FM-15+0443SBLP V0200901N003112200019N0112651N1+02901+01701999999ADDGA1021+009001999GA2041+030001999GF104991999999999999999999MA1101591999999REMMET058METAR SBLP 211400Z 09006KT 9999 FEW030 SCT100 29/17 Q1016;
0143832880999992011102115004-13267-043417FM-15+0443SBLP V0200901N003112200019N0112651N1+03001+01701999999ADDGA1041+009001999GA2041+030001999GF104991999999999999999999MA1101391999999REMMET058METAR SBLP 211500Z 09006KT 9999 SCT030 SCT100 30/17 Q1014;
0143832880999992011102116004-13267-043417FM-15+0443SBLP V0209999C000010300019N0112651N1+03001+01601999999ADDGA1041+009001999GA2071+030001999GF107991999999999999999999MA1101391999999REMMET058METAR SBLP 211600Z 00000KT 9999 SCT030 BKN100 30/16 Q1014;
0143832880999992011102117004-13267-043417FM-15+0443SBLP V0201501N005110300019N0112651N1+02901+01701999999ADDGA1041+006001999GA2071+030001999GF107991999999999999999999MA1101291999999REMMET058METAR SBLP 211700Z 15010KT 9999 SCT020 BKN100 29/17 Q1013;
0143832880999992011102118004-13267-043417FM-15+0443SBLP V0201501N003110300019N0112651N1+03001+01701999999ADDGA1041+006001999GA2071+030001999GF107991999999999999999999MA1101291999999REMMET058METAR SBLP 211800Z 15006KT 9999 SCT020 BKN100 30/17 Q1013;
0143832880999992011102119004-13267-043417FM-15+0443SBLP V0201201N005110300019N0112651N1+02901+01701999999ADDGA1041+006001999GA2071+030001999GF107991999999999999999999MA1101291999999REMMET058METAR SBLP 211900Z 12010KT 9999 SCT020 BKN100 29/17 Q1013;
0072832880999992011102120004-13267-043417FM-15+0443SBLP V0201201N005119999999Y0099001N1+02801+01701999999ADDMA1101291999999REMMET045METAR SBLP 212000Z 12010KT CAVOK 28/17 Q1013;
0143832880999992011102121004-13267-043417FM-15+0443SBLP V0201201N005110300019N0112651N1+02701+01601999999ADDGA1041+006001999GA2071+030001999GF107991999999999999999999MA1101391999999REMMET058METAR SBLP 212100Z 12010KT 9999 SCT020 BKN100 27/16 Q1014;
0072832880999992011102209154-13267-043417FM-15+0443SBLP V0201201N005119999999Y0099001N1+02201+01501999999ADDMA1101691999999REMMET045METAR SBLP 220915Z 12010KT CAVOK 22/15 Q1017;
0072832880999992011102210004-13267-043417FM-15+0443SBLP V0201201N005119999999Y0099001N1+02301+01501999999ADDMA1101691999999REMMET045METAR SBLP 221000Z 12010KT CAVOK 23/15 Q1017;
0072832880999992011102211004-13267-043417FM-15+0443SBLP V0201201N005119999999Y0099001N1+02401+01601999999ADDMA1101801999999REMMET045METAR SBLP 221100Z 12010KT CAVOK 24/16 Q1018;
0143832880999992011102212004-13267-043417FM-15+0443SBLP V0201201N002112200019N0112651N1+02701+01701999999ADDGA1021+009001999GA2041+030001999GF104991999999999999999999MA1101801999999REMMET058METAR SBLP 221200Z 12004KT 9999 FEW030 SCT100 27/17 Q1018;
0120832880999992011102213004-13267-043417FM-15+0443SBLP V0201201N005112200019N0112651N1+02901+01701999999ADDGA1021+009001999GF102991999999999999999999MA1101801999999REMMET051METAR SBLP 221300Z 12010KT 9999 FEW030 29/17 Q1018;
0120832880999992011102214004-13267-043417FM-15+0443SBLP V0200901N005112200019N0112651N1+03101+01801999999ADDGA1041+009001999GF104991999999999999999999MA1101691999999REMMET051METAR SBLP 221400Z 09010KT 9999 SCT030 31/18 Q1017;
0120832880999992011102215004-13267-043417FM-15+0443SBLP V0201201N005110090019N0112651N1+03201+01701999999ADDGA1071+009001999GF107991999999999999999999MA1101591999999REMMET051METAR SBLP 221500Z 12010KT 9999 BKN030 32/17 Q1016;
0120832880999992011102216004-13267-043417FM-15+0443SBLP V0201201N004110090019N0112651N1+03201+01701999999ADDGA1071+009001999GF107991999999999999999999MA1101391999999REMMET051METAR SBLP 221600Z 12008KT 9999 BKN030 32/17 Q1014;
0120832880999992011102217004-13267-043417FM-15+0443SBLP V0201201N004110090019N0112651N1+03301+01801999999ADDGA1071+009001999GF107991999999999999999999MA1101391999999REMMET051METAR SBLP 221700Z 12008KT 9999 BKN030 33/18 Q1014;
0120832880999992011102218004-13267-043417FM-15+0443SBLP V0201201N005110090019N0112651N1+03301+02001999999ADDGA1071+009001999GF107991999999999999999999MA1101291999999REMMET051METAR SBLP 221800Z 12010KT 9999 BKN030 33/20 Q1013;
0143832880999992011102219004-13267-043417FM-15+0443SBLP V0200901N003112200019N0112651N1+02901+02101999999ADDGA1041+009001999GA2041+030001999GF104991999999999999999999MA1101391999999REMMET058METAR SBLP 221900Z 09006KT 9999 SCT030 SCT100 29/21 Q1014;
0143832880999992011102220004-13267-043417FM-15+0443SBLP V0200901N003110300019N0112651N1+02901+02001999999ADDGA1041+009001999GA2071+030001999GF107991999999999999999999MA1101391999999REMMET058METAR SBLP 222000Z 09006KT 9999 SCT030 BKN100 29/20 Q1014;
0143832880999992011102221004-13267-043417FM-15+0443SBLP V0200901N003110300019N0112651N1+02801+02201999999ADDGA1041+009001999GA2071+030001999GF107991999999999999999999MA1101391999999REMMET058METAR SBLP 222100Z 09006KT 9999 SCT030 BKN100 28/22 Q1014;
0072832880999992011102310004-13267-043417FM-15+0443SBLP V0201201N003119999999Y0099001N1+02401+02101999999ADDMA1101901999999REMMET045METAR SBLP 231000Z 12006KT CAVOK 24/21 Q1019;
0072832880999992011102311004-13267-043417FM-15+0443SBLP V0201401N003119999999Y0099001N1+02701+02001999999ADDMA1101901999999REMMET045METAR SBLP 231100Z 14006KT CAVOK 27/20 Q1019;
0072832880999992011102312004-13267-043417FM-15+0443SBLP V0209999C000019999999Y0099001N1+02901+02001999999ADDMA1101901999999REMMET045METAR SBLP 231200Z 00000KT CAVOK 29/20 Q1019;
0072832880999992011102313004-13267-043417FM-15+0443SBLP V0200901N004119999999Y0099001N1+03101+01901999999ADDMA1101901999999REMMET045METAR SBLP 231300Z 09008KT CAVOK 31/19 Q1019;
0120832880999992011102314004-13267-043417FM-15+0443SBLP V0200901N003112200019N0112651N1+03201+01901999999ADDGA1021+009001999GF102991999999999999999999MA1101801999999REMMET051METAR SBLP 231400Z 09006KT 9999 FEW030 32/19 Q1018;
0120832880999992011102315004-13267-043417FM-15+0443SBLP V0203001N003112200019N0112651N1+03301+01901999999ADDGA1041+009001999GF104991999999999999999999MA1101591999999REMMET051METAR SBLP 231500Z 30006KT 9999 SCT030 33/19 Q1016;
0120832880999992011102316004-13267-043417FM-15+0443SBLP V0201201N003112200019N0112651N1+03501+01501999999ADDGA1041+009001999GF104991999999999999999999MA1101491999999REMMET051METAR SBLP 231600Z 12006KT 9999 SCT030 35/15 Q1015;
0120832880999992011102317004-13267-043417FM-15+0443SBLP V0202401N002112200019N0112651N1+03501+01501999999ADDGA1041+009001999GF104991999999999999999999MA1101391999999REMMET051METAR SBLP 231700Z 24004KT 9999 SCT030 35/15 Q1014;
0120832880999992011102318004-13267-043417FM-15+0443SBLP V0202101N003112200019N0112651N1+03601+01501999999ADDGA1041+009001999GF104991999999999999999999MA1101291999999REMMET051METAR SBLP 231800Z 21006KT 9999 SCT030 36/15 Q1013;
0120832880999992011102319004-13267-043417FM-15+0443SBLP V0201801N005112200019N0112651N1+03601+01501999999ADDGA1041+009001999GF104991999999999999999999MA1101291999999REMMET051METAR SBLP 231900Z 18010KT 9999 SCT030 36/15 Q1013;
0120832880999992011102320004-13267-043417FM-15+0443SBLP V0202101N002112200019N0112651N1+03501+01501999999ADDGA1041+009001999GF104991999999999999999999MA1101291999999REMMET051METAR SBLP 232000Z 21004KT 9999 SCT030 35/15 Q1013;
0120832880999992011102321004-13267-043417FM-15+0443SBLP V0201801N003110090019N0112651N1+03301+01501999999ADDGA1071+009001999GF107991999999999999999999MA1101291999999REMMET051METAR SBLP 232100Z 18006KT 9999 BKN030 33/15 Q1013;
0072832880999992011102410004-13267-043417FM-15+0443SBLP V0202101N002119999999Y0099001N1+02501+01901999999ADDMA1101691999999REMMET045METAR SBLP 241000Z 21004KT CAVOK 25/19 Q1017;
0072832880999992011102411004-13267-043417FM-15+0443SBLP V0200901N002119999999Y0099001N1+02901+01901999999ADDMA1101691999999REMMET045METAR SBLP 241100Z 09004KT CAVOK 29/19 Q1017;
0072832880999992011102412004-13267-043417FM-15+0443SBLP V0201801N002119999999Y0099001N1+03001+01801999999ADDMA1101691999999REMMET045METAR SBLP 241200Z 18004KT CAVOK 30/18 Q1017;
0072832880999992011102413004-13267-043417FM-15+0443SBLP V0201801N002119999999Y0099001N1+03001+01801999999ADDMA1101691999999REMMET045METAR SBLP 241300Z 18004KT CAVOK 30/18 Q1017;
0120832880999992011102414004-13267-043417FM-15+0443SBLP V0201501N003112200019N0112651N1+03301+01801999999ADDGA1041+009001999GF104991999999999999999999MA1101491999999REMMET051METAR SBLP 241400Z 15006KT 9999 SCT030 33/18 Q1015;
0120832880999992011102415004-13267-043417FM-15+0443SBLP V0201201N004112200019N0112651N1+03501+01801999999ADDGA1041+009001999GF104991999999999999999999MA1101391999999REMMET051METAR SBLP 241500Z 12008KT 9999 SCT030 35/18 Q1014;
0120832880999992011102416004-13267-043417FM-15+0443SBLP V0209999C000012200019N0112651N1+03401+01801999999ADDGA1041+009001999GF104991999999999999999999MA1101191999999REMMET051METAR SBLP 241600Z 00000KT 9999 SCT030 34/18 Q1012;
0120832880999992011102417004-13267-043417FM-15+0443SBLP V0202101N003112200019N0112651N1+03401+01801999999ADDGA1041+009001999GF104991999999999999999999MA1101081999999REMMET051METAR SBLP 241700Z 21006KT 9999 SCT030 34/18 Q1011;
0120832880999992011102418004-13267-043417FM-15+0443SBLP V0203001N003112200019N0112651N1+03601+01801999999ADDGA1041+009001999GF104991999999999999999999MA1101021999999REMMET051METAR SBLP 241800Z 30006KT 9999 SCT030 36/18 Q1010;
0120832880999992011102419004-13267-043417FM-15+0443SBLP V0201601N003112200019N0112651N1+03701+01801999999ADDGA1041+009001999GF104991999999999999999999MA1101021999999REMMET051METAR SBLP 241900Z 16006KT 9999 SCT030 37/18 Q1010;
0120832880999992011102420004-13267-043417FM-15+0443SBLP V0201201N003112200019N0112651N1+03401+01901999999ADDGA1041+009001999GF104991999999999999999999MA1101021999999REMMET051METAR SBLP 242000Z 12006KT 9999 SCT030 34/19 Q1010;
0120832880999992011102421004-13267-043417FM-15+0443SBLP V0201201N004112200019N0112651N1+03201+02001999999ADDGA1021+009001999GF102991999999999999999999MA1101021999999REMMET051METAR SBLP 242100Z 12008KT 9999 FEW030 32/20 Q1010;
0072832880999992011102510004-13267-043417FM-15+0443SBLP V0209999C000019999999Y0099001N1+02501+01901999999ADDMA1101491999999REMMET045METAR SBLP 251000Z 00000KT CAVOK 25/19 Q1015;
0072832880999992011102511004-13267-043417FM-15+0443SBLP V0209999C000019999999Y0099001N1+02701+02001999999ADDMA1101591999999REMMET045METAR SBLP 251100Z 00000KT CAVOK 27/20 Q1016;
0143832880999992011102512004-13267-043417FM-15+0443SBLP V0209999C000012200019N0112651N1+02901+02001999999ADDGA1021+009001999GA2041+030001999GF104991999999999999999999MA1101591999999REMMET058METAR SBLP 251200Z 00000KT 9999 FEW030 SCT100 29/20 Q1016;
0143832880999992011102513004-13267-043417FM-15+0443SBLP V0203601N003112200019N0112651N1+03101+01801999999ADDGA1021+009001999GA2041+030001999GF104991999999999999999999MA1101591999999REMMET058METAR SBLP 251300Z 36006KT 9999 FEW030 SCT100 31/18 Q1016;
0143832880999992011102514004-13267-043417FM-15+0443SBLP V0209999C000012200019N0112651N1+03201+01801999999ADDGA1041+009001999GA2041+030001999GF104991999999999999999999MA1101491999999REMMET058METAR SBLP 251400Z 00000KT 9999 SCT030 SCT100 32/18 Q1015;
0120832880999992011102515004-13267-043417FM-15+0443SBLP V0209999C000012200019N0112651N1+03301+01801999999ADDGA1041+009001999GF104991999999999999999999MA1101391999999REMMET051METAR SBLP 251500Z 00000KT 9999 SCT030 33/18 Q1014;
0120832880999992011102516004-13267-043417FM-15+0443SBLP V0203601N003112200019N0112651N1+03301+01801999999ADDGA1041+009001999GF104991999999999999999999MA1101191999999REMMET051METAR SBLP 251600Z 36006KT 9999 SCT030 33/18 Q1012;
0120832880999992011102517004-13267-043417FM-15+0443SBLP V0203601N003112200019N0112651N1+03501+01701999999ADDGA1041+009001999GF104991999999999999999999MA1101021999999REMMET051METAR SBLP 251700Z 36006KT 9999 SCT030 35/17 Q1010;
0156832880999992011102518004-13267-043417FM-15+0443SBLP V0200901N006212200019N0090001N1+03301+01801999999ADDGA1041+009001999GA2021+012001091MA1101021999999MW1801MW2951REMMET066METAR SBLP 251800Z 09012KT 9000 -TSRA SCT030 FEW040CB 33/18 Q1010;EQDQ01+000022SCOTCV
0143832880999992011102520004-13267-043417FM-15+0443SBLP V0200901N003110300019N0112651N1+02801+02101999999ADDGA1041+009001999GA2071+030001999GF107991999999999999999999MA1101021999999REMMET058METAR SBLP 252000Z 09006KT 9999 SCT030 BKN100 28/21 Q1010;
0143832880999992011102521004-13267-043417FM-15+0443SBLP V0200901N003110300019N0112651N1+02701+02101999999ADDGA1021+009001999GA2071+030001999GF107991999999999999999999MA1101021999999REMMET058METAR SBLP 252100Z 09006KT 9999 FEW030 BKN100 27/21 Q1010;
0072832880999992011102610004-13267-043417FM-15+0443SBLP V0209999C000019999999Y0099001N1+02401+02001999999ADDMA1101291999999REMMET045METAR SBLP 261000Z 00000KT CAVOK 24/20 Q1013;
0072832880999992011102611004-13267-043417FM-15+0443SBLP V0209999C000019999999Y0099001N1+02701+01901999999ADDMA1101391999999REMMET045METAR SBLP 261100Z 00000KT CAVOK 27/19 Q1014;
0072832880999992011102612004-13267-043417FM-15+0443SBLP V0209999C000019999999Y0099001N1+03001+01801999999ADDMA1101391999999REMMET045METAR SBLP 261200Z 00000KT CAVOK 30/18 Q1014;
0120832880999992011102613004-13267-043417FM-15+0443SBLP V0209999C000012200019N0112651N1+03101+01801999999ADDGA1021+009001999GF102991999999999999999999MA1101391999999REMMET051METAR SBLP 261300Z 00000KT 9999 FEW030 31/18 Q1014;
0120832880999992011102614004-13267-043417FM-15+0443SBLP V0209999C000012200019N0112651N1+03201+01801999999ADDGA1021+009001999GF102991999999999999999999MA1101291999999REMMET051METAR SBLP 261400Z 00000KT 9999 FEW030 32/18 Q1013;
0120832880999992011102615004-13267-043417FM-15+0443SBLP V0200901N003112200019N0112651N1+03301+01801999999ADDGA1041+009001999GF104991999999999999999999MA1101191999999REMMET051METAR SBLP 261500Z 09006KT 9999 SCT030 33/18 Q1012;
0120832880999992011102616004-13267-043417FM-15+0443SBLP V0200901N003112200019N0112651N1+03501+01701999999ADDGA1041+009001999GF104991999999999999999999MA1101081999999REMMET051METAR SBLP 261600Z 09006KT 9999 SCT030 35/17 Q1011;
0120832880999992011102617004-13267-043417FM-15+0443SBLP V0200901N004112200019N0112651N1+03601+01801999999ADDGA1041+009001999GF104991999999999999999999MA1101021999999REMMET051METAR SBLP 261700Z 09008KT 9999 SCT030 36/18 Q1010;
0147832880999992011102618004-13267-043417FM-15+0443SBLP V0209999C000012200019N0112651N1+03601+01901999999ADDGA1021+009001091GA2041+009001999MA1100911999999MW1171REMMET063METAR SBLP 261800Z 00000KT 9999 TS SCT030 FEW030CB 36/19 Q1009;EQDQ01+000022SCOTCV
0156832880999992011102619004-13267-043417FM-15+0443SBLP V0200901N00771009001CN0112651N1+02502+02101999999ADDGA1021+009001091GA2071+009001999MA1101021999999MW1801MW2951REMMET066METAR SBLP 261900Z 09015KT 9999 -TSRA BKN030 FEW030CB 25/21 Q1010;EQDQ01+000022SCOTCV
0125832880999992011102620004-13267-043417FM-15+0443SBLP V0200901N002112200019N0112651N1+02801+01901999999ADDGA1041+009001999GF104991999999999999999999MA1100911999999REMMET056METAR SBLP 262000Z 09004KT 9999 SCT030 28/19 Q1009 RERA;
0146832880999992011102621004-13267-043417FM-15+0443SBLP V0200901N00411030001CN0112651N1+02601+02001999999ADDGA1041+006001999GA2071+030001999GF108991999999999999999999MA1101001999999REMMET061METAR SBLP 262100Z 09008KT 9999 03 SCT020 BKN100 26/20 Q1010;
0072832880999992011102710004-13267-043417FM-15+0443SBLP V0200801N001519999999Y0099001N1+02701+02101999999ADDMA1101291999999REMMET045METAR SBLP 271000Z 08003KT CAVOK 27/21 Q1013;
0072832880999992011102711004-13267-043417FM-15+0443SBLP V0209999C000019999999Y0099001N1+02801+02101999999ADDMA1101391999999REMMET045METAR SBLP 271100Z 00000KT CAVOK 28/21 Q1014;
0072832880999992011102712004-13267-043417FM-15+0443SBLP V0209999C000019999999Y0099001N1+03001+02001999999ADDMA1101391999999REMMET045METAR SBLP 271200Z 00000KT CAVOK 30/20 Q1014;
0120832880999992011102713004-13267-043417FM-15+0443SBLP V0200801N002112200019N0112651N1+03101+01901999999ADDGA1021+009001999GF102991999999999999999999MA1101391999999REMMET051METAR SBLP 271300Z 08004KT 9999 FEW030 31/19 Q1014;
0120832880999992011102714004-13267-043417FM-15+0443SBLP V0202501N003112200019N0112651N1+03301+01801999999ADDGA1041+009001999GF104991999999999999999999MA1101291999999REMMET051METAR SBLP 271400Z 25006KT 9999 SCT030 33/18 Q1013;
0120832880999992011102715004-13267-043417FM-15+0443SBLP V0202501N003112200019N0112651N1+03401+01801999999ADDGA1041+009001999GF104991999999999999999999MA1101191999999REMMET051METAR SBLP 271500Z 25006KT 9999 SCT030 34/18 Q1012;
0120832880999992011102716004-13267-043417FM-15+0443SBLP V0209999C000012200019N0112651N1+03501+01801999999ADDGA1041+009001999GF104991999999999999999999MA1101081999999REMMET051METAR SBLP 271600Z 00000KT 9999 SCT030 35/18 Q1011;
0143832880999992011102717004-13267-043417FM-15+0443SBLP V0203401N003112200019N0112651N1+03701+01701999999ADDGA1021+009001999GA2041+030001999GF104991999999999999999999MA1100911999999REMMET058METAR SBLP 271700Z 34006KT 9999 FEW030 SCT100 37/17 Q1009;
0143832880999992011102718004-13267-043417FM-15+0443SBLP V0200401N003112200019N0112651N1+03401+01801999999ADDGA1041+009001999GA2041+030001999GF104991999999999999999999MA1100911999999REMMET058METAR SBLP 271800Z 04006KT 9999 SCT030 SCT100 34/18 Q1009;
0143832880999992011102719004-13267-043417FM-15+0443SBLP V0209999C000010300019N0112651N1+03301+01901999999ADDGA1041+009001999GA2071+030001999GF107991999999999999999999MA1100911999999REMMET058METAR SBLP 271900Z 00000KT 9999 SCT030 BKN100 33/19 Q1009;
0143832880999992011102720004-13267-043417FM-15+0443SBLP V0209999C000010300019N0112651N1+03101+02001999999ADDGA1021+009001999GA2071+030001999GF107991999999999999999999MA1101021999999REMMET058METAR SBLP 272000Z 00000KT 9999 FEW030 BKN100 31/20 Q1010;
0143832880999992011102721004-13267-043417FM-15+0443SBLP V0209999C000010300019N0112651N1+03001+02201999999ADDGA1021+009001999GA2071+030001999GF107991999999999999999999MA1101081999999REMMET058METAR SBLP 272100Z 00000KT 9999 FEW030 BKN100 30/22 Q1011;
0072832880999992011102810004-13267-043417FM-15+0443SBLP V0209999C000019999999Y0099001N1+02501+02001999999ADDMA1101291999999REMMET045METAR SBLP 281000Z 00000KT CAVOK 25/20 Q1013;
0072832880999992011102811004-13267-043417FM-15+0443SBLP V0209999C000019999999Y0099001N1+02701+01901999999ADDMA1101391999999REMMET045METAR SBLP 281100Z 00000KT CAVOK 27/19 Q1014;
0072832880999992011102812004-13267-043417FM-15+0443SBLP V0209999C000019999999Y0099001N1+03101+01801999999ADDMA1101391999999REMMET045METAR SBLP 281200Z 00000KT CAVOK 31/18 Q1014;
0120832880999992011102813004-13267-043417FM-15+0443SBLP V0209999C000012200019N0112651N1+03201+01701999999ADDGA1021+009001999GF102991999999999999999999MA1101391999999REMMET051METAR SBLP 281300Z 00000KT 9999 FEW030 32/17 Q1014;
0120832880999992011102814004-13267-043417FM-15+0443SBLP V0209999C000012200019N0112651N1+03401+01701999999ADDGA1041+009001999GF104991999999999999999999MA1101291999999REMMET051METAR SBLP 281400Z 00000KT 9999 SCT030 34/17 Q1013;
0120832880999992011102815004-13267-043417FM-15+0443SBLP V0201801N003112200019N0112651N1+03501+01601999999ADDGA1021+009001999GF102991999999999999999999MA1101191999999REMMET051METAR SBLP 281500Z 18006KT 9999 FEW030 35/16 Q1012;
0120832880999992011102816004-13267-043417FM-15+0443SBLP V0202101N001512200019N0112651N1+03601+01901999999ADDGA1041+009001999GF104991999999999999999999MA1101081999999REMMET051METAR SBLP 281600Z 21003KT 9999 SCT030 36/19 Q1011;
0130832880999992011102817004-13267-043417FM-15+0443SBLP V0202201N003110090019N0112651N1+03201+02301999999ADDGA1071+009001999GF107991999999999999999999MA1101021999999MW1611REMMET055METAR SBLP 281700Z 22006KT 9999 -RA BKN030 32/23 Q1010;
0156832880999992011102818004-13267-043417FM-15+0443SBLP V0202701N00511009001CN0060001N1+02402+02101999999ADDGA1021+009001091GA2071+009001999MA1101021999999MW1801MW2951REMMET066METAR SBLP 281800Z 27010KT 6000 -TSRA BKN030 FEW030CB 24/21 Q1010;EQDQ01+000022SCOTCV
0125832880999992011102819004-13267-043417FM-15+0443SBLP V0209999C000012200019N0112651N1+02701+02301999999ADDGA1041+009001999GF104991999999999999999999MA1100911999999REMMET056METAR SBLP 281900Z 00000KT 9999 SCT030 27/23 Q1009 RERA;
0120832880999992011102820004-13267-043417FM-15+0443SBLP V0200501N002112200019N0112651N1+03001+02401999999ADDGA1041+009001999GF104991999999999999999999MA1100811999999REMMET051METAR SBLP 282000Z 05004KT 9999 SCT030 30/24 Q1008;
0143832880999992011102821004-13267-043417FM-15+0443SBLP V0209999C000010300019N0112651N1+02901+02501999999ADDGA1021+009001999GA2071+030001999GF107991999999999999999999MA1100911999999REMMET058METAR SBLP 282100Z 00000KT 9999 FEW030 BKN100 29/25 Q1009;
0072832880999992011102910004-13267-043417FM-15+0443SBLP V0209999C000019999999Y0099001N1+02401+02101999999ADDMA1101191999999REMMET045METAR SBLP 291000Z 00000KT CAVOK 24/21 Q1012;
0072832880999992011102911004-13267-043417FM-15+0443SBLP V0209999C000019999999Y0099001N1+02701+02001999999ADDMA1101291999999REMMET045METAR SBLP 291100Z 00000KT CAVOK 27/20 Q1013;
0072832880999992011102912004-13267-043417FM-15+0443SBLP V0209999C000019999999Y0099001N1+03001+01901999999ADDMA1101291999999REMMET045METAR SBLP 291200Z 00000KT CAVOK 30/19 Q1013;
0120832880999992011102913004-13267-043417FM-15+0443SBLP V0203601N003112200019N0112651N1+03201+01901999999ADDGA1021+009001999GF102991999999999999999999MA1101191999999REMMET051METAR SBLP 291300Z 36006KT 9999 FEW030 32/19 Q1012;
0120832880999992011102914004-13267-043417FM-15+0443SBLP V0203601N003112200019N0112651N1+03401+01801999999ADDGA1021+009001999GF102991999999999999999999MA1101191999999REMMET051METAR SBLP 291400Z 36006KT 9999 FEW030 34/18 Q1012;
0120832880999992011102915004-13267-043417FM-15+0443SBLP V0203601N003112200019N0112651N1+03401+01801999999ADDGA1041+009001999GF104991999999999999999999MA1101021999999REMMET051METAR SBLP 291500Z 36006KT 9999 SCT030 34/18 Q1010;
0120832880999992011102916004-13267-043417FM-15+0443SBLP V0209999C000012200019N0112651N1+03601+01701999999ADDGA1041+009001999GF104991999999999999999999MA1100911999999REMMET051METAR SBLP 291600Z 00000KT 9999 SCT030 36/17 Q1009;
0120832880999992011102917004-13267-043417FM-15+0443SBLP V0209999C000012200019N0112651N1+03601+01801999999ADDGA1041+009001999GF104991999999999999999999MA1100711999999REMMET051METAR SBLP 291700Z 00000KT 9999 SCT030 36/18 Q1007;
0120832880999992011102918004-13267-043417FM-15+0443SBLP V0201801N003112200019N0112651N1+03601+01701999999ADDGA1041+009001999GF104991999999999999999999MA1100611999999REMMET051METAR SBLP 291800Z 18006KT 9999 SCT030 36/17 Q1006;
0120832880999992011102919004-13267-043417FM-15+0443SBLP V0209999C000012200019N0112651N1+03601+01701999999ADDGA1041+009001999GF104991999999999999999999MA1100611999999REMMET051METAR SBLP 291900Z 00000KT 9999 SCT030 36/17 Q1006;
0120832880999992011102920004-13267-043417FM-15+0443SBLP V0209999C000012200019N0112651N1+03501+01801999999ADDGA1041+009001999GF104991999999999999999999MA1100611999999REMMET051METAR SBLP 292000Z 00000KT 9999 SCT030 35/18 Q1006;
0120832880999992011102921004-13267-043417FM-15+0443SBLP V0209999C000012200019N0112651N1+03401+01801999999ADDGA1041+009001999GF104991999999999999999999MA1100611999999REMMET051METAR SBLP 292100Z 00000KT 9999 SCT030 34/18 Q1006;
0072832880999992011103010004-13267-043417FM-15+0443SBLP V0209999C000019999999Y0099001N1+02501+01901999999ADDMA1101191999999REMMET045METAR SBLP 301000Z 00000KT CAVOK 25/19 Q1012;
0143832880999992011103011004-13267-043417FM-15+0443SBLP V0209999C000012200019N0112651N1+02801+01901999999ADDGA1021+009001999GA2041+030001999GF104991999999999999999999MA1101191999999REMMET058METAR SBLP 301100Z 00000KT 9999 FEW030 SCT100 28/19 Q1012;
0143832880999992011103012004-13267-043417FM-15+0443SBLP V0209999C000012200019N0112651N1+03001+02001999999ADDGA1021+009001999GA2041+030001999GF104991999999999999999999MA1101191999999REMMET058METAR SBLP 301200Z 00000KT 9999 FEW030 SCT100 30/20 Q1012;
0143832880999992011103013004-13267-043417FM-15+0443SBLP V0209999C000012200019N0112651N1+03101+01901999999ADDGA1021+009001999GA2041+030001999GF104991999999999999999999MA1101191999999REMMET058METAR SBLP 301300Z 00000KT 9999 FEW030 SCT100 31/19 Q1012;
0143832880999992011103014004-13267-043417FM-15+0443SBLP V0203601N003112200019N0112651N1+03201+02001999999ADDGA1021+009001999GA2041+030001999GF104991999999999999999999MA1101191999999REMMET058METAR SBLP 301400Z 36006KT 9999 FEW030 SCT100 32/20 Q1012;
0120832880999992011103015004-13267-043417FM-15+0443SBLP V0200101N003112200019N0112651N1+03501+01801999999ADDGA1041+009001999GF104991999999999999999999MA1101081999999REMMET051METAR SBLP 301500Z 01006KT 9999 SCT030 35/18 Q1011;
0120832880999992011103016004-13267-043417FM-15+0443SBLP V0203601N003112200019N0112651N1+03601+01701999999ADDGA1041+009001999GF104991999999999999999999MA1100911999999REMMET051METAR SBLP 301600Z 36006KT 9999 SCT030 36/17 Q1009;
0120832880999992011103017004-13267-043417FM-15+0443SBLP V0203601N003112200019N0112651N1+03601+01701999999ADDGA1041+009001999GF104991999999999999999999MA1100811999999REMMET051METAR SBLP 301700Z 36006KT 9999 SCT030 36/17 Q1008;
0120832880999992011103019004-13267-043417FM-15+0443SBLP V0203601N003112200019N0112651N1+03601+01701999999ADDGA1041+009001999GF104991999999999999999999MA1100711999999REMMET051METAR SBLP 301900Z 36006KT 9999 SCT030 36/17 Q1007;
0120832880999992011103020004-13267-043417FM-15+0443SBLP V0209999C000012200019N0112651N1+03401+01701999999ADDGA1041+009001999GF104991999999999999999999MA1100711999999REMMET051METAR SBLP 302000Z 00000KT 9999 SCT030 34/17 Q1007;
0120832880999992011103021004-13267-043417FM-15+0443SBLP V0209999C000012200019N0112651N1+03301+01701999999ADDGA1021+009001999GF102991999999999999999999MA1100711999999REMMET051METAR SBLP 302100Z 00000KT 9999 FEW030 33/17 Q1007;
0143832880999992011103110004-13267-043417FM-15+0443SBLP V0209999C000012200019N0112651N1+02401+02101999999ADDGA1021+006001999GA2041+030001999GF104991999999999999999999MA1101191999999REMMET058METAR SBLP 311000Z 00000KT 9999 FEW020 SCT100 24/21 Q1012;
0143832880999992011103111004-13267-043417FM-15+0443SBLP V0209999C000012200019N0112651N1+02701+02001999999ADDGA1021+009001999GA2041+030001999GF104991999999999999999999MA1101291999999REMMET058METAR SBLP 311100Z 00000KT 9999 FEW030 SCT100 27/20 Q1013;
0120832880999992011103112004-13267-043417FM-15+0443SBLP V0209999C000012200019N0112651N1+02901+02001999999ADDGA1021+009001999GF102991999999999999999999MA1101291999999REMMET051METAR SBLP 311200Z 00000KT 9999 FEW030 29/20 Q1013;
0120832880999992011103113004-13267-043417FM-15+0443SBLP V0209999C000012200019N0112651N1+03001+01901999999ADDGA1021+009001999GF102991999999999999999999MA1101191999999REMMET051METAR SBLP 311300Z 00000KT 9999 FEW030 30/19 Q1012;
0120832880999992011103114004-13267-043417FM-15+0443SBLP V0209999C000012200019N0112651N1+03201+01901999999ADDGA1041+009001999GF104991999999999999999999MA1101081999999REMMET051METAR SBLP 311400Z 00000KT 9999 SCT030 32/19 Q1011;
0120832880999992011103115004-13267-043417FM-15+0443SBLP V0209999C000012200019N0112651N1+03301+01801999999ADDGA1041+009001999GF104991999999999999999999MA1101021999999REMMET051METAR SBLP 311500Z 00000KT 9999 SCT030 33/18 Q1010;
0120832880999992011103116004-13267-043417FM-15+0443SBLP V0201901N002112200019N0112651N1+03401+01801999999ADDGA1041+009001999GF104991999999999999999999MA1100911999999REMMET051METAR SBLP 311600Z 19004KT 9999 SCT030 34/18 Q1009;
0120832880999992011103117004-13267-043417FM-15+0443SBLP V0203001N002112200019N0112651N1+03501+01901999999ADDGA1041+009001999GF104991999999999999999999MA1100811999999REMMET051METAR SBLP 311700Z 30004KT 9999 SCT030 35/19 Q1008;
0143832880999992011103118004-13267-043417FM-15+0443SBLP V0202701N003112200019N0112651N1+03401+01901999999ADDGA1021+009001999GA2041+030001999GF104991999999999999999999MA1100711999999REMMET058METAR SBLP 311800Z 27006KT 9999 FEW030 SCT100 34/19 Q1007;
0143832880999992011103119004-13267-043417FM-15+0443SBLP V0202101N003112200019N0112651N1+03201+02001999999ADDGA1041+009001999GA2041+030001999GF104991999999999999999999MA1100711999999REMMET058METAR SBLP 311900Z 21006KT 9999 SCT030 SCT100 32/20 Q1007;
0143832880999992011103120004-13267-043417FM-15+0443SBLP V0202601N003110300019N0112651N1+03101+02001999999ADDGA1021+009001999GA2071+030001999GF107991999999999999999999MA1100711999999REMMET058METAR SBLP 312000Z 26006KT 9999 FEW030 BKN100 31/20 Q1007;
0109832880999992011103121004-13267-043417FM-15+0443SBLP V0200901N004112200019N0112651N1+03001+02001999999ADDGA1041+009001999GF104991999999999999999999REMMET055METAR SBLP 312100Z 09008KT 9999 SCT030 BKN 30/20 Q////;
0153832880999992011110110004-13267-043417FM-15+0443SBLP V0202101N002110060019N0060001N1+02301+02301999999ADDGA1071+006001999GA2081+030001999GF108991999999999999999999MA1101391999999MW1611REMMET062METAR SBLP 011000Z 21004KT 6000 -RA BKN020 OVC100 23/23 Q1014;
0134832880999992011110111004-13267-043417FM-15+0443SBLP V0201801N002112200019N0112651N1+02401+02301999999ADDGA1041+006001999GF104991999999999999999999MA1101401999999MW1611REMMET059METAR SBLP 011100Z 18004KT 9999 -RA SCT020 BKN 24/23 Q1014;
0127832880999992011110112004-13267-043417FM-15+0443SBLP V0201801N002112200019N0112651N1+02401+02301999999ADDGA1041+006001999GF104991999999999999999999MA1101501999999REMMET058METAR SBLP 011200Z 18004KT 9999 02 SCT020 BKN 24/23 Q1015;
0143832880999992011110113004-13267-043417FM-15+0443SBLP V0200901N002110300019N0112651N1+02501+02201999999ADDGA1041+006001999GA2071+030001999GF107991999999999999999999MA1101491999999REMMET058METAR SBLP 011300Z 09004KT 9999 SCT020 BKN100 25/22 Q1015;
0143832880999992011110114004-13267-043417FM-15+0443SBLP V0202001N002110060019N0112651N1+02601+02301999999ADDGA1071+006001999GA2071+030001999GF107991999999999999999999MA1101491999999REMMET058METAR SBLP 011400Z 20004KT 9999 BKN020 BKN100 26/23 Q1015;
0124832880999992011110115004-13267-043417FM-15+0443SBLP V0201801N003112200019N0112651N1+02601+02301999999ADDGA1041+006001999GF104991999999999999999999MA1101501999999REMMET055METAR SBLP 011500Z 18006KT 9999 SCT020 BKN 26/23 Q1015;
0147832880999992011110116004-13267-043417FM-15+0443SBLP V0203001N002110300019N0112651N1+02401+02201999999ADDGA1041+006001999GA2071+030001999GF107991999999999999999999MA1101391999999REMMET062METAR SBLP 011600Z COR 30004KT 9999 SCT020 BKN100 24/22 Q1014;
0147832880999992011110117004-13267-043417FM-15+0443SBLP V0209999C000010300019N0112651N1+02501+02301999999ADDGA1041+006001999GA2071+030001999GF107991999999999999999999MA1101291999999REMMET062METAR SBLP 011700Z COR 00000KT 9999 SCT020 BKN100 25/23 Q1013;
0143832880999992011110118004-13267-043417FM-15+0443SBLP V0209999C000010300019N0112651N1+02501+02201999999ADDGA1041+006001999GA2071+030001999GF107991999999999999999999MA1101191999999REMMET058METAR SBLP 011800Z 00000KT 9999 SCT020 BKN100 25/22 Q1012;
0143832880999992011110119004-13267-043417FM-15+0443SBLP V0209999C000010300019N0112651N1+02501+02301999999ADDGA1041+006001999GA2071+030001999GF107991999999999999999999MA1101191999999REMMET058METAR SBLP 011900Z 00000KT 9999 SCT020 BKN100 25/23 Q1012;
0143832880999992011110120004-13267-043417FM-15+0443SBLP V0209999C000010300019N0112651N1+02501+02201999999ADDGA1021+006001999GA2071+030001999GF107991999999999999999999MA1101191999999REMMET058METAR SBLP 012000Z 00000KT 9999 FEW020 BKN100 25/22 Q1012;
0143832880999992011110121004-13267-043417FM-15+0443SBLP V0201101N003110300019N0112651N1+02501+02201999999ADDGA1021+006001999GA2071+030001999GF107991999999999999999999MA1101191999999REMMET058METAR SBLP 012100Z 11006KT 9999 FEW020 BKN100 25/22 Q1012;
0072832880999992011110210004-13267-043417FM-15+0443SBLP V0201801N003119999999Y0099001N1+02201+02101999999ADDMA1101591999999REMMET045METAR SBLP 021000Z 18006KT CAVOK 22/21 Q1016;
0054832880999992011110211004-13267-043417FM-15+0443SBLP V0201601N003119999999Y0099001N1+02401+02001999999REMMET045METAR SBLP 021100Z 16006KT CAVOK 24/20 Q////;
0072832880999992011110212004-13267-043417FM-15+0443SBLP V0209999C000019999999Y0099001N1+02501+02001999999ADDMA1101691999999REMMET045METAR SBLP 021200Z 00000KT CAVOK 25/20 Q1017;
0143832880999992011110213004-13267-043417FM-15+0443SBLP V0201201N003110300019N0112651N1+02701+02001999999ADDGA1021+009001999GA2071+030001999GF107991999999999999999999MA1101691999999REMMET058METAR SBLP 021300Z 12006KT 9999 FEW030 BKN100 27/20 Q1017;
0143832880999992011110214004-13267-043417FM-15+0443SBLP V0209999C000010300019N0112651N1+02801+02001999999ADDGA1041+006001999GA2071+030001999GF107991999999999999999999MA1101691999999REMMET058METAR SBLP 021400Z 00000KT 9999 SCT020 BKN100 28/20 Q1017;
0143832880999992011110215004-13267-043417FM-15+0443SBLP V0209999C000010300019N0112651N1+02701+02101999999ADDGA1041+006001999GA2071+030001999GF107991999999999999999999MA1101591999999REMMET058METAR SBLP 021500Z 00000KT 9999 SCT020 BKN100 27/21 Q1016;
0143832880999992011110216004-13267-043417FM-15+0443SBLP V0209999C000010300019N0112651N1+02801+02101999999ADDGA1021+006001999GA2071+030001999GF107991999999999999999999MA1101491999999REMMET058METAR SBLP 021600Z 00000KT 9999 FEW020 BKN100 28/21 Q1015;
0143832880999992011110217004-13267-043417FM-15+0443SBLP V0209999C000010300019N0112651N1+03001+02001999999ADDGA1021+009001999GA2071+030001999GF107991999999999999999999MA1101391999999REMMET058METAR SBLP 021700Z 00000KT 9999 FEW030 BKN100 30/20 Q1014;
0143832880999992011110218004-13267-043417FM-15+0443SBLP V0202701N003110300019N0112651N1+03101+01901999999ADDGA1041+009001999GA2071+030001999GF107991999999999999999999MA1101391999999REMMET058METAR SBLP 021800Z 27006KT 9999 SCT030 BKN100 31/19 Q1014;
0143832880999992011110219004-13267-043417FM-15+0443SBLP V0202701N003110300019N0112651N1+03001+01901999999ADDGA1041+009001999GA2071+030001999GF107991999999999999999999MA1101391999999REMMET058METAR SBLP 021900Z 27006KT 9999 SCT030 BKN100 30/19 Q1014;
0143832880999992011110220004-13267-043417FM-15+0443SBLP V0202701N003110300019N0112651N1+02901+01901999999ADDGA1041+009001999GA2071+030001999GF107991999999999999999999MA1101391999999REMMET058METAR SBLP 022000Z 27006KT 9999 SCT030 BKN100 29/19 Q1014;
0143832880999992011110221004-13267-043417FM-15+0443SBLP V0203601N003110300019N0112651N1+02701+02001999999ADDGA1041+009001999GA2071+030001999GF107991999999999999999999MA1101491999999REMMET058METAR SBLP 022100Z 36006KT 9999 SCT030 BKN100 27/20 Q1015;
0143832880999992011110310004-13267-043417FM-15+0443SBLP V0209999C000010300019N0112651N1+02201+02101999999ADDGA1041+004501999GA2071+030001999GF107991999999999999999999MA1101801999999REMMET058METAR SBLP 031000Z 00000KT 9999 SCT015 BKN100 22/21 Q1018;
0143832880999992011110311004-13267-043417FM-15+0443SBLP V0209999C000010300019N0112651N1+02201+02101999999ADDGA1041+004501999GA2071+030001999GF107991999999999999999999MA1101801999999REMMET058METAR SBLP 031100Z 00000KT 9999 SCT015 BKN100 22/21 Q1018;
0143832880999992011110312004-13267-043417FM-15+0443SBLP V0201801N003110300019N0112651N1+02601+02001999999ADDGA1021+006001999GA2071+030001999GF107991999999999999999999MA1101901999999REMMET058METAR SBLP 031200Z 18006KT 9999 FEW020 BKN100 26/20 Q1019;
0143832880999992011110313004-13267-043417FM-15+0443SBLP V0200901N003110300019N0112651N1+02601+02001999999ADDGA1021+009001999GA2071+030001999GF107991999999999999999999MA1101901999999REMMET058METAR SBLP 031300Z 09006KT 9999 FEW030 BKN100 26/20 Q1019;
0143832880999992011110314004-13267-043417FM-15+0443SBLP V0200901N003110300019N0112651N1+02601+02001999999ADDGA1021+009001999GA2071+030001999GF107991999999999999999999MA1101801999999REMMET058METAR SBLP 031400Z 09006KT 9999 FEW030 BKN100 26/20 Q1018;
0143832880999992011110315004-13267-043417FM-15+0443SBLP V0203601N003110300019N0112651N1+02601+01901999999ADDGA1021+009001999GA2071+030001999GF107991999999999999999999MA1101691999999REMMET058METAR SBLP 031500Z 36006KT 9999 FEW030 BKN100 26/19 Q1017;
0143832880999992011110316004-13267-043417FM-15+0443SBLP V0209999C000010300019N0112651N1+02801+02101999999ADDGA1041+006001999GA2071+030001999GF107991999999999999999999MA1101591999999REMMET058METAR SBLP 031600Z 00000KT 9999 SCT020 BKN100 28/21 Q1016;
0143832880999992011110317004-13267-043417FM-15+0443SBLP V0209999C000010300019N0112651N1+02801+02201999999ADDGA1041+006001999GA2071+030001999GF107991999999999999999999MA1101491999999REMMET058METAR SBLP 031700Z 00000KT 9999 SCT020 BKN100 28/22 Q1015;
0143832880999992011110318004-13267-043417FM-15+0443SBLP V0209999C000010300019N0112651N1+02801+02101999999ADDGA1041+006001999GA2071+030001999GF107991999999999999999999MA1101491999999REMMET058METAR SBLP 031800Z 00000KT 9999 SCT020 BKN100 28/21 Q1015;
0143832880999992011110319004-13267-043417FM-15+0443SBLP V0202101N003110300019N0112651N1+02701+02101999999ADDGA1041+006001999GA2071+030001999GF107991999999999999999999MA1101491999999REMMET058METAR SBLP 031900Z 21006KT 9999 SCT020 BKN100 27/21 Q1015;
0143832880999992011110320004-13267-043417FM-15+0443SBLP V0209999C000010300019N0112651N1+02701+02201999999ADDGA1021+006001999GA2071+030001999GF107991999999999999999999MA1101491999999REMMET058METAR SBLP 032000Z 00000KT 9999 FEW020 BKN100 27/22 Q1015;
0143832880999992011110321004-13267-043417FM-15+0443SBLP V0201501N004110300019N0112651N1+02501+02301999999ADDGA1021+006001999GA2071+030001999GF107991999999999999999999MA1101491999999REMMET058METAR SBLP 032100Z 15008KT 9999 FEW020 BKN100 25/23 Q1015;
0143832880999992011110410004-13267-043417FM-15+0443SBLP V0209999C000010300019N0112651N1+02101+01801999999ADDGA1021+006001999GA2071+030001999GF107991999999999999999999MA1101801999999REMMET058METAR SBLP 041000Z 00000KT 9999 FEW020 BKN100 21/18 Q1018;
0143832880999992011110411004-13267-043417FM-15+0443SBLP V0209999C000010300019N0112651N1+02401+01801999999ADDGA1021+006001999GA2071+030001999GF107991999999999999999999MA1101901999999REMMET058METAR SBLP 041100Z 00000KT 9999 FEW020 BKN100 24/18 Q1019;
0143832880999992011110412004-13267-043417FM-15+0443SBLP V0201801N003110300019N0112651N1+02601+01901999999ADDGA1021+006001999GA2071+030001999GF107991999999999999999999MA1101901999999REMMET058METAR SBLP 041200Z 18006KT 9999 FEW020 BKN100 26/19 Q1019;
0143832880999992011110413004-13267-043417FM-15+0443SBLP V0202701N003110300019N0112651N1+02701+01801999999ADDGA1021+006001999GA2071+030001999GF107991999999999999999999MA1101901999999REMMET058METAR SBLP 041300Z 27006KT 9999 FEW020 BKN100 27/18 Q1019;
0143832880999992011110414004-13267-043417FM-15+0443SBLP V0202101N003110300019N0112651N1+02801+01901999999ADDGA1021+009001999GA2071+030001999GF107991999999999999999999MA1101801999999REMMET058METAR SBLP 041400Z 21006KT 9999 FEW030 BKN100 28/19 Q1018;
0147832880999992011110415004-13267-043417FM-15+0443SBLP V0202401N003112200019N0112651N1+02901+01901999999ADDGA1021+009001999GA2041+030001999GF104991999999999999999999MA1101691999999REMMET062METAR SBLP 041500Z COR 24006KT 9999 FEW030 SCT100 29/19 Q1017;
0143832880999992011110416004-13267-043417FM-15+0443SBLP V0202701N003112200019N0112651N1+03101+01901999999ADDGA1021+009001999GA2041+030001999GF104991999999999999999999MA1101491999999REMMET058METAR SBLP 041600Z 27006KT 9999 FEW030 SCT100 31/19 Q1015;
0120832880999992011110417004-13267-043417FM-15+0443SBLP V0203601N003112200019N0112651N1+03201+01801999999ADDGA1041+009001999GF104991999999999999999999MA1101391999999REMMET051METAR SBLP 041700Z 36006KT 9999 SCT030 32/18 Q1014;
0120832880999992011110418004-13267-043417FM-15+0443SBLP V0203601N003112200019N0112651N1+03201+01701999999ADDGA1041+009001999GF104991999999999999999999MA1101391999999REMMET051METAR SBLP 041800Z 36006KT 9999 SCT030 32/17 Q1014;
0120832880999992011110419004-13267-043417FM-15+0443SBLP V0203601N003112200019N0112651N1+03101+01701999999ADDGA1041+009001999GF104991999999999999999999MA1101391999999REMMET051METAR SBLP 041900Z 36006KT 9999 SCT030 31/17 Q1014;
0120832880999992011110420004-13267-043417FM-15+0443SBLP V0200901N003112200019N0112651N1+03001+01801999999ADDGA1041+009001999GF104991999999999999999999MA1101391999999REMMET051METAR SBLP 042000Z 09006KT 9999 SCT030 30/18 Q1014;
0120832880999992011110421004-13267-043417FM-15+0443SBLP V0200901N003112200019N0112651N1+02901+01801999999ADDGA1041+009001999GF104991999999999999999999MA1101491999999REMMET051METAR SBLP 042100Z 09006KT 9999 SCT030 29/18 Q1015;
0072832880999992011110510004-13267-043417FM-15+0443SBLP V0201801N003119999999Y0099001N1+02301+01801999999ADDMA1101691999999REMMET045METAR SBLP 051000Z 18006KT CAVOK 23/18 Q1017;
0072832880999992011110511004-13267-043417FM-15+0443SBLP V0201801N003119999999Y0099001N1+02501+01801999999ADDMA1101691999999REMMET045METAR SBLP 051100Z 18006KT CAVOK 25/18 Q1017;
0072832880999992011110512004-13267-043417FM-15+0443SBLP V0201801N003119999999Y0099001N1+02801+01701999999ADDMA1101801999999REMMET045METAR SBLP 051200Z 18006KT CAVOK 28/17 Q1018;
0072832880999992011110513004-13267-043417FM-15+0443SBLP V0200901N003119999999Y0099001N1+02901+01601999999ADDMA1101691999999REMMET045METAR SBLP 051300Z 09006KT CAVOK 29/16 Q1017;
0120832880999992011110514004-13267-043417FM-15+0443SBLP V0200901N003112200019N0112651N1+03101+01501999999ADDGA1021+009001999GF102991999999999999999999MA1101591999999REMMET051METAR SBLP 051400Z 09006KT 9999 FEW030 31/15 Q1016;
0143832880999992011110515004-13267-043417FM-15+0443SBLP V0200901N003112200019N0112651N1+03201+01501999999ADDGA1021+009001999GA2041+030001999GF104991999999999999999999MA1101491999999REMMET058METAR SBLP 051500Z 09006KT 9999 FEW030 SCT100 32/15 Q1015;
0072832880999992011110516004-13267-043417FM-15+0443SBLP V0209999C000019999999Y0099001N1+03301+01301999999ADDMA1101391999999REMMET045METAR SBLP 051600Z 00000KT CAVOK 33/13 Q1014;
0072832880999992011110517004-13267-043417FM-15+0443SBLP V0209999C000019999999Y0099001N1+03401+01301999999ADDMA1101291999999REMMET045METAR SBLP 051700Z 00000KT CAVOK 34/13 Q1013;
0120832880999992011110518004-13267-043417FM-15+0443SBLP V0200901N003112200019N0112651N1+03401+01201999999ADDGA1021+009001999GF102991999999999999999999MA1101191999999REMMET051METAR SBLP 051800Z 09006KT 9999 FEW030 34/12 Q1012;
0072832880999992011110519004-13267-043417FM-15+0443SBLP V0200901N004119999999Y0099001N1+03401+01201999999ADDMA1101191999999REMMET045METAR SBLP 051900Z 09008KT CAVOK 34/12 Q1012;
0120832880999992011110520004-13267-043417FM-15+0443SBLP V0202101N007712200019N0112651N1+03201+01401999999ADDGA1021+009001999GF102991999999999999999999MA1101191999999REMMET051METAR SBLP 052000Z 21015KT 9999 FEW030 32/14 Q1012;
0120832880999992011110521004-13267-043417FM-15+0443SBLP V0201801N003112200019N0112651N1+03001+01201999999ADDGA1021+009001999GF102991999999999999999999MA1101291999999REMMET051METAR SBLP 052100Z 18006KT 9999 FEW030 30/12 Q1013;
0072832880999992011110610004-13267-043417FM-15+0443SBLP V0200901N002119999999Y0099001N1+02101+01501999999ADDMA1101691999999REMMET045METAR SBLP 061000Z 09004KT CAVOK 21/15 Q1017;
0072832880999992011110611004-13267-043417FM-15+0443SBLP V0200901N003119999999Y0099001N1+02401+01501999999ADDMA1101691999999REMMET045METAR SBLP 061100Z 09006KT CAVOK 24/15 Q1017;
0072832880999992011110612004-13267-043417FM-15+0443SBLP V0201201N003119999999Y0099001N1+02601+01401999999ADDMA1101691999999REMMET045METAR SBLP 061200Z 12006KT CAVOK 26/14 Q1017;
0072832880999992011110613004-13267-043417FM-15+0443SBLP V0200301N003119999999Y0099001N1+02901+01401999999ADDMA1101691999999REMMET045METAR SBLP 061300Z 03006KT CAVOK 29/14 Q1017;
0072832880999992011110614004-13267-043417FM-15+0443SBLP V0200901N002119999999Y0099001N1+03001+01401999999ADDMA1101591999999REMMET045METAR SBLP 061400Z 09004KT CAVOK 30/14 Q1016;
0072832880999992011110615004-13267-043417FM-15+0443SBLP V0200601N002119999999Y0099001N1+03101+01501999999ADDMA1101491999999REMMET045METAR SBLP 061500Z 06004KT CAVOK 31/15 Q1015;
0119832880999992011110616004-13267-043417FM-15+0443SBLP V0200201N003112200019N0112651N1+03301+01501999999ADDGA1021+000901999GF102991999999999999999999MA1101391999999REMMET050METAR SBLP 061600Z 02006KT 9999 FEW03 33/15 Q1014;
0120832880999992011110617004-13267-043417FM-15+0443SBLP V0202001N003112200019N0112651N1+03301+01601999999ADDGA1021+009001999GF102991999999999999999999MA1101191999999REMMET051METAR SBLP 061700Z 20006KT 9999 FEW030 33/16 Q1012;
0120832880999992011110618004-13267-043417FM-15+0443SBLP V0202101N003112200019N0112651N1+03401+01601999999ADDGA1021+009001999GF102991999999999999999999MA1101191999999REMMET051METAR SBLP 061800Z 21006KT 9999 FEW030 34/16 Q1012;
0120832880999992011110619004-13267-043417FM-15+0443SBLP V0202201N003112200019N0112651N1+03401+01601999999ADDGA1021+009001999GF102991999999999999999999MA1101191999999REMMET051METAR SBLP 061900Z 22006KT 9999 FEW030 34/16 Q1012;
0120832880999992011110620004-13267-043417FM-15+0443SBLP V0201801N003112200019N0112651N1+03301+01601999999ADDGA1021+009001999GF102991999999999999999999MA1101191999999REMMET051METAR SBLP 062000Z 18006KT 9999 FEW030 33/16 Q1012;
0072832880999992011110621004-13267-043417FM-15+0443SBLP V0209999C000019999999Y0099001N1+03001+02001999999ADDMA1101191999999REMMET045METAR SBLP 062100Z 00000KT CAVOK 30/20 Q1012;
0054832880999992011110710004-13267-043417FM-15+0443SBLP V0209999C000019999999Y0099001N1+02201+01601999999REMMET045METAR SBLP 071000Z 00000KT CAVOK 22/16 Q1914;
0072832880999992011110711004-13267-043417FM-15+0443SBLP V0200801N003119999999Y0099001N1+02501+01901999999ADDMA1101391999999REMMET045METAR SBLP 071100Z 08006KT CAVOK 25/19 Q1014;
0072832880999992011110712004-13267-043417FM-15+0443SBLP V0209999C000019999999Y0099001N1+02901+01901999999ADDMA1101391999999REMMET045METAR SBLP 071200Z 00000KT CAVOK 29/19 Q1014;
0143832880999992011110714004-13267-043417FM-15+0443SBLP V0203601N003110300019N0112651N1+03001+01901999999ADDGA1021+009001999GA2071+030001999GF107991999999999999999999MA1101391999999REMMET058METAR SBLP 071400Z 36006KT 9999 FEW030 BKN100 30/19 Q1014;
0143832880999992011110715004-13267-043417FM-15+0443SBLP V0202701N003110300019N0112651N1+03301+01801999999ADDGA1041+009001999GA2071+030001999GF107991999999999999999999MA1101291999999REMMET058METAR SBLP 071500Z 27006KT 9999 SCT030 BKN100 33/18 Q1013;
0143832880999992011110716004-13267-043417FM-15+0443SBLP V0209999C000010300019N0112651N1+03301+01501999999ADDGA1041+009001999GA2071+030001999GF107991999999999999999999MA1101081999999REMMET058METAR SBLP 071600Z 00000KT 9999 SCT030 BKN100 33/15 Q1011;
0143832880999992011110717004-13267-043417FM-15+0443SBLP V0200701N003110300019N0112651N1+03201+01701999999ADDGA1041+009001999GA2071+030001999GF107991999999999999999999MA1101021999999REMMET058METAR SBLP 071700Z 07006KT 9999 SCT030 BKN100 32/17 Q1010;
0143832880999992011110718004-13267-043417FM-15+0443SBLP V0202101N004110300019N0112651N1+02901+01901999999ADDGA1021+009001999GA2071+030001999GF107991999999999999999999MA1101021999999REMMET058METAR SBLP 071800Z 21008KT 9999 FEW030 BKN100 29/19 Q1010;
0143832880999992011110719004-13267-043417FM-15+0443SBLP V0201801N004110300019N0112651N1+02901+01901999999ADDGA1021+009001999GA2071+030001999GF107991999999999999999999MA1101021999999REMMET058METAR SBLP 071900Z 18008KT 9999 FEW030 BKN100 29/19 Q1010;
0143832880999992011110720004-13267-043417FM-15+0443SBLP V0201201N003110300019N0112651N1+02901+01801999999ADDGA1021+009001999GA2071+030001999GF107991999999999999999999MA1101021999999REMMET058METAR SBLP 072000Z 12006KT 9999 FEW030 BKN100 29/18 Q1010;
0143832880999992011110721004-13267-043417FM-15+0443SBLP V0202101N002110300019N0112651N1+02801+01701999999ADDGA1021+009001999GA2071+030001999GF107991999999999999999999MA1101021999999REMMET058METAR SBLP 072100Z 21004KT 9999 FEW030 BKN100 28/17 Q1010;
0153832880999992011110811004-13267-043417FM-15+0443SBLP V0201501N002110045019N0112651N1+02201+02101999999ADDGA1071+004501999GA2081+030001999GF108991999999999999999999MA1101491999999MW1611REMMET062METAR SBLP 081100Z 15004KT 9999 -RA BKN015 OVC100 22/21 Q1015;
0148832880999992011110812004-13267-043417FM-15+0443SBLP V0201801N004110045019N0112651N1+02201+02101999999ADDGA1071+004501999GA2071+030001999GF107991999999999999999999MA1101491999999REMMET063METAR SBLP 081200Z 18008KT 9999 BKN015 BKN100 22/21 Q1015 RERA;
0153832880999992011110813004-13267-043417FM-15+0443SBLP V0201801N003110045019N0060001N1+02201+02101999999ADDGA1071+004501999GA2071+030001999GF107991999999999999999999MA1101491999999MW1611REMMET062METAR SBLP 081300Z 18006KT 6000 -RA BKN015 BKN100 22/21 Q1015;
0153832880999992011110814004-13267-043417FM-15+0443SBLP V0201801N004110045019N0112651N1+02401+02201999999ADDGA1071+004501999GA2081+030001999GF108991999999999999999999MA1101391999999MW1611REMMET062METAR SBLP 081400Z 18008KT 9999 -RA BKN015 OVC100 24/22 Q1014;
0148832880999992011110815004-13267-043417FM-15+0443SBLP V0201801N004110300019N0112651N1+02301+02101999999ADDGA1041+004501999GA2071+030001999GF107991999999999999999999MA1101391999999REMMET063METAR SBLP 081500Z 18008KT 9999 SCT015 BKN100 23/21 Q1014 RERA;
0153832880999992011110816004-13267-043417FM-15+0443SBLP V0201801N003110300019N0090001N1+02301+02201999999ADDGA1041+004501999GA2071+030001999GF107991999999999999999999MA1101291999999MW1611REMMET062METAR SBLP 081600Z 18006KT 9000 -RA SCT015 BKN100 23/22 Q1013;
0153832880999992011110817004-13267-043417FM-15+0443SBLP V0201801N003110300019N0112651N1+02201+02201999999ADDGA1041+004501999GA2071+030001999GF107991999999999999999999MA1101191999999MW1611REMMET062METAR SBLP 081700Z 18006KT 9999 -RA SCT015 BKN100 22/22 Q1012;
0153832880999992011110818004-13267-043417FM-15+0443SBLP V0201801N003110270019N0090001N1+02101+02101999999ADDGA1041+004501999GA2081+027001999GF108991999999999999999999MA1101191999999MW1611REMMET062METAR SBLP 081800Z 18006KT 9000 -RA SCT015 OVC090 21/21 Q1012;
0153832880999992011110819004-13267-043417FM-15+0443SBLP V0201601N003110270019N0090001N1+02001+02001999999ADDGA1041+004501999GA2081+027001999GF108991999999999999999999MA1101191999999MW1611REMMET062METAR SBLP 081900Z 16006KT 9000 -RA SCT015 OVC090 20/20 Q1012;
0153832880999992011110820004-13267-043417FM-15+0443SBLP V0201601N003110270019N0090001N1+02101+02001999999ADDGA1041+004501999GA2081+027001999GF108991999999999999999999MA1101191999999MW1611REMMET062METAR SBLP 082000Z 16006KT 9000 -RA SCT015 OVC090 21/20 Q1012;
0153832880999992011110821004-13267-043417FM-15+0443SBLP V0201801N003110045019N0090001N1+02001+02001999999ADDGA1071+004501999GA2081+027001999GF108991999999999999999999MA1101391999999MW1611REMMET062METAR SBLP 082100Z 18006KT 9000 -RA BKN015 OVC090 20/20 Q1014;
0143832880999992011110910004-13267-043417FM-15+0443SBLP V0209999C000010300019N0112651N1+02001+02001999999ADDGA1041+006001999GA2071+030001999GF107991999999999999999999MA1101491999999REMMET058METAR SBLP 091000Z 00000KT 9999 SCT020 BKN100 20/20 Q1015;
0143832880999992011110911004-13267-043417FM-15+0443SBLP V0209999C000010300019N0112651N1+02001+02001999999ADDGA1041+006001999GA2071+030001999GF107991999999999999999999MA1101591999999REMMET058METAR SBLP 091100Z 00000KT 9999 SCT020 BKN100 20/20 Q1016;
0143832880999992011110912004-13267-043417FM-15+0443SBLP V0209999C000010300019N0112651N1+02101+02001999999ADDGA1041+006001999GA2071+030001999GF107991999999999999999999MA1101591999999REMMET058METAR SBLP 091200Z 00000KT 9999 SCT020 BKN100 21/20 Q1016;
0143832880999992011110913004-13267-043417FM-15+0443SBLP V0200901N003110300019N0112651N1+02301+02201999999ADDGA1041+006001999GA2071+030001999GF107991999999999999999999MA1101591999999REMMET058METAR SBLP 091300Z 09006KT 9999 SCT020 BKN100 23/22 Q1016;
0143832880999992011110914004-13267-043417FM-15+0443SBLP V0201201N003110300019N0112651N1+02501+02101999999ADDGA1041+006001999GA2071+030001999GF107991999999999999999999MA1101591999999REMMET058METAR SBLP 091400Z 12006KT 9999 SCT020 BKN100 25/21 Q1016;
0143832880999992011110915004-13267-043417FM-15+0443SBLP V0209999C000010300019N0112651N1+02501+02201999999ADDGA1041+006001999GA2071+030001999GF107991999999999999999999MA1101591999999REMMET058METAR SBLP 091500Z 00000KT 9999 SCT020 BKN100 25/22 Q1016;
0143832880999992011110916004-13267-043417FM-15+0443SBLP V0209999C000010300019N0112651N1+02401+02101999999ADDGA1041+006001999GA2071+030001999GF107991999999999999999999MA1101491999999REMMET058METAR SBLP 091600Z 00000KT 9999 SCT020 BKN100 24/21 Q1015;
0153832880999992011110917004-13267-043417FM-15+0443SBLP V0209999C000010300019N0112651N1+02301+02101999999ADDGA1041+006001999GA2071+030001999GF107991999999999999999999MA1101391999999MW1611REMMET062METAR SBLP 091700Z 00000KT 9999 -RA SCT020 BKN100 23/21 Q1014;
0153832880999992011110918004-13267-043417FM-15+0443SBLP V0200401N001510300019N0080001N1+02101+02001999999ADDGA1041+006001999GA2071+030001999GF107991999999999999999999MA1101391999999MW1611REMMET062METAR SBLP 091800Z 04003KT 8000 -RA SCT020 BKN100 21/20 Q1014;
0153832880999992011110919004-13267-043417FM-15+0443SBLP V0201201N001510300019N0112651N1+02201+02001999999ADDGA1041+006001999GA2071+030001999GF107991999999999999999999MA1101391999999MW1611REMMET062METAR SBLP 091900Z 12003KT 9999 -RA SCT020 BKN100 22/20 Q1014;
0153832880999992011110920004-13267-043417FM-15+0443SBLP V0201201N001510300019N0112651N1+02101+02001999999ADDGA1041+006001999GA2071+030001999GF107991999999999999999999MA1101391999999MW1611REMMET062METAR SBLP 092000Z 12003KT 9999 -RA SCT020 BKN100 21/20 Q1014;
0146832880999992011110921004-13267-043417FM-15+0443SBLP V0200901N00211030001CN0112651N1+02101+02001999999ADDGA1041+006001999GA2071+030001999GF108991999999999999999999MA1101401999999REMMET061METAR SBLP 092100Z 09004KT 9999 02 SCT020 BKN100 21/20 Q1014;
0143832880999992011111010004-13267-043417FM-15+0443SBLP V0201501N003110300019N0112651N1+02101+02001999999ADDGA1041+006001999GA2071+030001999GF107991999999999999999999MA1101491999999REMMET058METAR SBLP 101000Z 15006KT 9999 SCT020 BKN100 21/20 Q1015;
0143832880999992011111011004-13267-043417FM-15+0443SBLP V02099999999990300019N0112651N1+02201+02101999999ADDGA1041+006001999GA2071+030001999GF107991999999999999999999MA1101591999999REMMET058METAR SBLP 101100Z /////KT 9999 SCT020 BKN100 22/21 Q1016;
0143832880999992011111012004-13267-043417FM-15+0443SBLP V02099999999990300019N0112651N1+02301+02001999999ADDGA1041+006001999GA2071+030001999GF107991999999999999999999MA1101691999999REMMET058METAR SBLP 101200Z /////KT 9999 SCT020 BKN100 23/20 Q1017;
0143832880999992011111013004-13267-043417FM-15+0443SBLP V0201201N001510300019N0112651N1+02601+02001999999ADDGA1041+008101999GA2071+030001999GF107991999999999999999999MA1101591999999REMMET058METAR SBLP 101300Z 12003KT 9999 SCT027 BKN100 26/20 Q1016;
0143832880999992011111014004-13267-043417FM-15+0443SBLP V0201101N002610300019N0112651N1+02801+02101999999ADDGA1041+008101999GA2071+030001999GF107991999999999999999999MA1101591999999REMMET058METAR SBLP 101400Z 11005KT 9999 SCT027 BKN100 28/21 Q1016;
0143832880999992011111015004-13267-043417FM-15+0443SBLP V0209999C000010300019N0112651N1+02801+02001999999ADDGA1041+008101999GA2071+030001999GF107991999999999999999999MA1101491999999REMMET058METAR SBLP 101500Z 00000KT 9999 SCT027 BKN100 28/20 Q1015;
0143832880999992011111016004-13267-043417FM-15+0443SBLP V0209999C000010300019N0112651N1+02901+02101999999ADDGA1041+009001999GA2071+030001999GF107991999999999999999999MA1101491999999REMMET058METAR SBLP 101600Z 00000KT 9999 SCT030 BKN100 29/21 Q1015;
0143832880999992011111017004-13267-043417FM-15+0443SBLP V0202701N003110300019N0112651N1+02801+02101999999ADDGA1041+009001999GA2071+030001999GF107991999999999999999999MA1101391999999REMMET058METAR SBLP 101700Z 27006KT 9999 SCT030 BKN100 28/21 Q1014;
0153832880999992011111018004-13267-043417FM-15+0443SBLP V0203601N003110300019N0090001N1+02701+02101999999ADDGA1041+009001999GA2071+030001999GF107991999999999999999999MA1101291999999MW1611REMMET062METAR SBLP 101800Z 36006KT 9000 -RA SCT030 BKN100 27/21 Q1013;
0143832880999992011111019004-13267-043417FM-15+0443SBLP V0203601N003110300019N0112651N1+02801+02001999999ADDGA1041+009001999GA2071+030001999GF107991999999999999999999MA1101291999999REMMET058METAR SBLP 101900Z 36006KT 9999 SCT030 BKN100 28/20 Q1013;
0143832880999992011111021004-13267-043417FM-15+0443SBLP V0203601N003110300019N0112651N1+02701+02101999999ADDGA1041+009001999GA2071+030001999GF107991999999999999999999MA1101391999999REMMET058METAR SBLP 102100Z 36006KT 9999 SCT030 BKN100 27/21 Q1014;
0143832880999992011111110004-13267-043417FM-15+0443SBLP V0201501N001510300019N0112651N1+02301+02101999999ADDGA1021+008101999GA2071+030001999GF107991999999999999999999MA1101491999999REMMET058METAR SBLP 111000Z 15003KT 9999 FEW027 BKN100 23/21 Q1015;
0077832880999992011111112004-13267-043417FM-15+0443SBLP V0200901N003119999999Y0112651N1+02701+02001999999ADDMA1101601999999REMMET050METAR SBLP 111200Z 09006KT 9999 CAVOK 27/20 Q1016;
0143832880999992011111113004-13267-043417FM-15+0443SBLP V0200401N002110300019N0112651N1+02801+01901999999ADDGA1021+009001999GA2071+030001999GF107991999999999999999999MA1101591999999REMMET058METAR SBLP 111300Z 04004KT 9999 FEW030 BKN100 28/19 Q1016;
0143832880999992011111114004-13267-043417FM-15+0443SBLP V0203601N002610300019N0112651N1+03001+01801999999ADDGA1021+009001999GA2071+030001999GF107991999999999999999999MA1101591999999REMMET058METAR SBLP 111400Z 36005KT 9999 FEW030 BKN100 30/18 Q1016;
0143832880999992011111115004-13267-043417FM-15+0443SBLP V0209999C000010300019N0112651N1+03101+01901999999ADDGA1021+009001999GA2071+030001999GF107991999999999999999999MA1101391999999REMMET058METAR SBLP 111500Z 00000KT 9999 FEW030 BKN100 31/19 Q1014;
0143832880999992011111116004-13267-043417FM-15+0443SBLP V0200301N003110300019N0112651N1+03201+02101999999ADDGA1041+009001999GA2071+030001999GF107991999999999999999999MA1101391999999REMMET058METAR SBLP 111600Z 03006KT 9999 SCT030 BKN100 32/21 Q1014;
0169832880999992011111117004-13267-043417FM-15+0443SBLP V0200701N003110300019N0112651N1+03301+02201999999ADDGA1021+009001999GA2021+012001021GA3071+030001999GF107991999999999999999999MA1101191999999REMMET068METAR SBLP 111700Z 07006KT 9999 FEW030 FEW040TCU BKN100 33/22 Q1012;
0143832880999992011111118004-13267-043417FM-15+0443SBLP V0201301N003110300019N0112651N1+02701+01701999999ADDGA1021+009001999GA2071+030001999GF107991999999999999999999MA1101191999999REMMET058METAR SBLP 111800Z 13006KT 9999 FEW030 BKN100 27/17 Q1012;
0143832880999992011111119004-13267-043417FM-15+0443SBLP V0201501N001510300019N0112651N1+02801+02101999999ADDGA1021+009001999GA2071+030001999GF107991999999999999999999MA1101191999999REMMET058METAR SBLP 111900Z 15003KT 9999 FEW030 BKN100 28/21 Q1012;
0143832880999992011111120004-13267-043417FM-15+0443SBLP V0209999C000012200019N0112651N1+02601+02201999999ADDGA1021+009001999GA2041+030001999GF104991999999999999999999MA1101191999999REMMET058METAR SBLP 112000Z 00000KT 9999 FEW030 SCT100 26/22 Q1012;
0143832880999992011111121004-13267-043417FM-15+0443SBLP V0209999C000012200019N0112651N1+02601+02201999999ADDGA1021+008101999GA2041+030001999GF104991999999999999999999MA1101191999999REMMET058METAR SBLP 112100Z 00000KT 9999 FEW027 SCT100 26/22 Q1012;
0072832880999992011111212004-13267-043417FM-15+0443SBLP V0209999C000019999999Y0099001N1+02901+01901999999ADDMA1101491999999REMMET045METAR SBLP 121200Z 00000KT CAVOK 29/19 Q1015;
0072832880999992011111213004-13267-043417FM-15+0443SBLP V0209999C000019999999Y0099001N1+03001+01901999999ADDMA1101491999999REMMET045METAR SBLP 121300Z 00000KT CAVOK 30/19 Q1015;
0120832880999992011111214004-13267-043417FM-15+0443SBLP V0209999C000012200019N0112651N1+03101+01601999999ADDGA1041+009001999GF104991999999999999999999MA1101391999999REMMET051METAR SBLP 121400Z 00000KT 9999 SCT030 31/16 Q1014;
0120832880999992011111215004-13267-043417FM-15+0443SBLP V0209999C000012200019N0112651N1+03201+01901999999ADDGA1041+009001999GF104991999999999999999999MA1101391999999REMMET051METAR SBLP 121500Z 00000KT 9999 SCT030 32/19 Q1014;
0120832880999992011111216004-13267-043417FM-15+0443SBLP V0202701N003110090019N0112651N1+03301+01901999999ADDGA1071+009001999GF107991999999999999999999MA1101291999999REMMET051METAR SBLP 121600Z 27006KT 9999 BKN030 33/19 Q1013;
0120832880999992011111217004-13267-043417FM-15+0443SBLP V0202701N003110090019N0112651N1+03201+01901999999ADDGA1071+009001999GF107991999999999999999999MA1101191999999REMMET051METAR SBLP 121700Z 27006KT 9999 BKN030 32/19 Q1012;
0143832880999992011111218004-13267-043417FM-15+0443SBLP V0202701N003112200019N0112651N1+03101+01901999999ADDGA1041+009001999GA2041+030001999GF104991999999999999999999MA1101081999999REMMET058METAR SBLP 121800Z 27006KT 9999 SCT030 SCT100 31/19 Q1011;
0143832880999992011111219004-13267-043417FM-15+0443SBLP V0203601N003112200019N0112651N1+03001+02001999999ADDGA1041+009001999GA2041+030001999GF104991999999999999999999MA1101081999999REMMET058METAR SBLP 121900Z 36006KT 9999 SCT030 SCT100 30/20 Q1011;
0143832880999992011111220004-13267-043417FM-15+0443SBLP V0203601N003110300019N0112651N1+03001+02001999999ADDGA1041+009001999GA2071+030001999GF107991999999999999999999MA1101081999999REMMET058METAR SBLP 122000Z 36006KT 9999 SCT030 BKN100 30/20 Q1011;
0143832880999992011111221004-13267-043417FM-15+0443SBLP V0200901N003112200019N0112651N1+02901+02001999999ADDGA1021+009001999GA2041+030001999GF104991999999999999999999MA1101081999999REMMET058METAR SBLP 122100Z 09006KT 9999 FEW030 SCT100 29/20 Q1011;
0143832880999992011111310004-13267-043417FM-15+0443SBLP V0209999C000012200019N0112651N1+02401+02001999999ADDGA1021+006001999GA2041+030001999GF104991999999999999999999MA1101491999999REMMET058METAR SBLP 131000Z 00000KT 9999 FEW020 SCT100 24/20 Q1015;
0143832880999992011111311004-13267-043417FM-15+0443SBLP V0200901N003112200019N0112651N1+02701+02001999999ADDGA1021+006001999GA2041+030001999GF104991999999999999999999MA1101491999999REMMET058METAR SBLP 131100Z 09006KT 9999 FEW020 SCT100 27/20 Q1015;
0143832880999992011111312004-13267-043417FM-15+0443SBLP V0200901N003112200019N0112651N1+02901+01901999999ADDGA1021+009001999GA2041+030001999GF104991999999999999999999MA1101491999999REMMET058METAR SBLP 131200Z 09006KT 9999 FEW030 SCT100 29/19 Q1015;
0120832880999992011111313004-13267-043417FM-15+0443SBLP V0200901N003112200019N0112651N1+03001+01901999999ADDGA1021+009001999GF102991999999999999999999MA1101391999999REMMET051METAR SBLP 131300Z 09006KT 9999 FEW030 30/19 Q1014;
0120832880999992011111314004-13267-043417FM-15+0443SBLP V0200901N003112200019N0112651N1+03101+01901999999ADDGA1041+009001999GF104991999999999999999999MA1101291999999REMMET051METAR SBLP 131400Z 09006KT 9999 SCT030 31/19 Q1013;
0120832880999992011111315004-13267-043417FM-15+0443SBLP V0203601N003112200019N0112651N1+03201+01801999999ADDGA1041+009001999GF104991999999999999999999MA1101191999999REMMET051METAR SBLP 131500Z 36006KT 9999 SCT030 32/18 Q1012;
0120832880999992011111316004-13267-043417FM-15+0443SBLP V0203301N003112200019N0112651N1+03201+01901999999ADDGA1041+009001999GF104991999999999999999999MA1101081999999REMMET051METAR SBLP 131600Z 33006KT 9999 SCT030 32/19 Q1011;
0120832880999992011111317004-13267-043417FM-15+0443SBLP V0203601N003112200019N0112651N1+03501+01701999999ADDGA1041+009001999GF104991999999999999999999MA1101021999999REMMET051METAR SBLP 131700Z 36006KT 9999 SCT030 35/17 Q1010;
0120832880999992011111319004-13267-043417FM-15+0443SBLP V0209999C000012200019N0112651N1+03301+01901999999ADDGA1021+009001999GF102991999999999999999999MA1100911999999REMMET051METAR SBLP 131900Z 00000KT 9999 FEW030 33/19 Q1009;
0124832880999992011111320004-13267-043417FM-15+0443SBLP V0209999C000012200019N0112651N1+03101+01801999999ADDGA1021+009001999GF102991999999999999999999MA1100911999999REMMET055METAR SBLP 132000Z COR 00000KT 9999 FEW030 31/18 Q1009;
0120832880999992011111321004-13267-043417FM-15+0443SBLP V0209999C000012200019N0112651N1+02901+01901999999ADDGA1021+009001999GF102991999999999999999999MA1101021999999REMMET051METAR SBLP 132100Z 00000KT 9999 FEW030 29/19 Q1010;
0072832880999992011111410004-13267-043417FM-15+0443SBLP V0209999C000019999999Y0099001N1+02401+02101999999ADDMA1101391999999REMMET045METAR SBLP 141000Z 00000KT CAVOK 24/21 Q1014;
0072832880999992011111411004-13267-043417FM-15+0443SBLP V0200901N003119999999Y0099001N1+02801+01901999999ADDMA1101491999999REMMET045METAR SBLP 141100Z 09006KT CAVOK 28/19 Q1015;
0072832880999992011111412004-13267-043417FM-15+0443SBLP V0209999C000019999999Y0099001N1+03001+01901999999ADDMA1101391999999REMMET045METAR SBLP 141200Z 00000KT CAVOK 30/19 Q1014;
0072832880999992011111413004-13267-043417FM-15+0443SBLP V0209999C000019999999Y0099001N1+03201+01801999999ADDMA1101391999999REMMET045METAR SBLP 141300Z 00000KT CAVOK 32/18 Q1014;
0120832880999992011111414004-13267-043417FM-15+0443SBLP V0203601N003112200019N0112651N1+03201+01801999999ADDGA1021+009001999GF102991999999999999999999MA1101291999999REMMET051METAR SBLP 141400Z 36006KT 9999 FEW030 32/18 Q1013;
0120832880999992011111415004-13267-043417FM-15+0443SBLP V0203601N003112200019N0112651N1+03301+01601999999ADDGA1021+009001999GF102991999999999999999999MA1101191999999REMMET051METAR SBLP 141500Z 36006KT 9999 FEW030 33/16 Q1012;
0120832880999992011111416004-13267-043417FM-15+0443SBLP V0203601N003112200019N0112651N1+03301+01701999999ADDGA1041+009001999GF104991999999999999999999MA1101081999999REMMET051METAR SBLP 141600Z 36006KT 9999 SCT030 33/17 Q1011;
0120832880999992011111417004-13267-043417FM-15+0443SBLP V0203601N003112200019N0112651N1+03401+01701999999ADDGA1041+009001999GF104991999999999999999999MA1101021999999REMMET051METAR SBLP 141700Z 36006KT 9999 SCT030 34/17 Q1010;
0120832880999992011111418004-13267-043417FM-15+0443SBLP V0203601N003112200019N0112651N1+03601+01701999999ADDGA1041+009001999GF104991999999999999999999MA1101021999999REMMET051METAR SBLP 141800Z 36006KT 9999 SCT030 36/17 Q1010;
0120832880999992011111419004-13267-043417FM-15+0443SBLP V0203601N003112200019N0112651N1+03501+01701999999ADDGA1041+009001999GF104991999999999999999999MA1101021999999REMMET051METAR SBLP 141900Z 36006KT 9999 SCT030 35/17 Q1010;
0120832880999992011111420004-13267-043417FM-15+0443SBLP V0203601N003112200019N0112651N1+03301+01801999999ADDGA1021+009001999GF102991999999999999999999MA1100911999999REMMET051METAR SBLP 142000Z 36006KT 9999 FEW030 33/18 Q1009;
0120832880999992011111421004-13267-043417FM-15+0443SBLP V0203601N003112200019N0112651N1+03201+01801999999ADDGA1021+009001999GF102991999999999999999999MA1101021999999REMMET051METAR SBLP 142100Z 36006KT 9999 FEW030 32/18 Q1010;
0072832880999992011111510004-13267-043417FM-15+0443SBLP V0209999C000019999999Y0099001N1+02401+01901999999ADDMA1101291999999REMMET045METAR SBLP 151000Z 00000KT CAVOK 24/19 Q1013;
0072832880999992011111511004-13267-043417FM-15+0443SBLP V0209999C000019999999Y0099001N1+02701+01801999999ADDMA1101391999999REMMET045METAR SBLP 151100Z 00000KT CAVOK 27/18 Q1014;
0072832880999992011111512004-13267-043417FM-15+0443SBLP V0209999C000019999999Y0099001N1+02901+01701999999ADDMA1101391999999REMMET045METAR SBLP 151200Z 00000KT CAVOK 29/17 Q1014;
0072832880999992011111513004-13267-043417FM-15+0443SBLP V0209999C000019999999Y0099001N1+03101+01701999999ADDMA1101291999999REMMET045METAR SBLP 151300Z 00000KT CAVOK 31/17 Q1013;
0120832880999992011111514004-13267-043417FM-15+0443SBLP V0200901N003112200019N0112651N1+03101+01701999999ADDGA1021+009001999GF102991999999999999999999MA1101291999999REMMET051METAR SBLP 151400Z 09006KT 9999 FEW030 31/17 Q1013;
0120832880999992011111515004-13267-043417FM-15+0443SBLP V0200901N003112200019N0112651N1+03201+01701999999ADDGA1021+009001999GF102991999999999999999999MA1101191999999REMMET051METAR SBLP 151500Z 09006KT 9999 FEW030 32/17 Q1012;
0120832880999992011111516004-13267-043417FM-15+0443SBLP V0203301N006212200019N0112651N1+03401+01901999999ADDGA1021+009001999GF102991999999999999999999MA1101081999999REMMET051METAR SBLP 151600Z 33012KT 9999 FEW030 34/19 Q1011;
0120832880999992011111517004-13267-043417FM-15+0443SBLP V0203401N004112200019N0112651N1+03501+01901999999ADDGA1021+009001999GF102991999999999999999999MA1101021999999REMMET051METAR SBLP 151700Z 34008KT 9999 FEW030 35/19 Q1010;
0120832880999992011111518004-13267-043417FM-15+0443SBLP V0203301N004112200019N0112651N1+03401+01601999999ADDGA1041+009001999GF104991999999999999999999MA1100911999999REMMET051METAR SBLP 151800Z 33008KT 9999 SCT030 34/16 Q1009;
0120832880999992011111519004-13267-043417FM-15+0443SBLP V0203301N003112200019N0112651N1+03301+01801999999ADDGA1021+009001999GF102991999999999999999999MA1100911999999REMMET051METAR SBLP 151900Z 33006KT 9999 FEW030 33/18 Q1009;
0120832880999992011111520004-13267-043417FM-15+0443SBLP V0203301N003112200019N0112651N1+03301+01701999999ADDGA1021+009001999GF102991999999999999999999MA1100911999999REMMET051METAR SBLP 152000Z 33006KT 9999 FEW030 33/17 Q1009;
0120832880999992011111521004-13267-043417FM-15+0443SBLP V0203601N002112200019N0112651N1+03201+01801999999ADDGA1021+009001999GF102991999999999999999999MA1100911999999REMMET051METAR SBLP 152100Z 36004KT 9999 FEW030 32/18 Q1009;
0072832880999992011111610004-13267-043417FM-15+0443SBLP V0209999C000019999999Y0099001N1+02601+02101999999ADDMA1101191999999REMMET045METAR SBLP 161000Z 00000KT CAVOK 26/21 Q1012;
0072832880999992011111611004-13267-043417FM-15+0443SBLP V0201801N001519999999Y0099001N1+02801+02101999999ADDMA1101191999999REMMET045METAR SBLP 161100Z 18003KT CAVOK 28/21 Q1012;
0072832880999992011111612004-13267-043417FM-15+0443SBLP V0209999C000019999999Y0099001N1+03001+02201999999ADDMA1101191999999REMMET045METAR SBLP 161200Z 00000KT CAVOK 30/22 Q1012;
0120832880999992011111613004-13267-043417FM-15+0443SBLP V0202901N001512200019N0112651N1+03201+02001999999ADDGA1021+009001999GF102991999999999999999999MA1101291999999REMMET051METAR SBLP 161300Z 29003KT 9999 FEW030 32/20 Q1013;
0120832880999992011111614004-13267-043417FM-15+0443SBLP V0200901N003112200019N0112651N1+03301+01901999999ADDGA1041+009001999GF104991999999999999999999MA1101191999999REMMET051METAR SBLP 161400Z 09006KT 9999 SCT030 33/19 Q1012;
0120832880999992011111615004-13267-043417FM-15+0443SBLP V0203301N002112200019N0112651N1+03401+01901999999ADDGA1041+009001999GF104991999999999999999999MA1101081999999REMMET051METAR SBLP 161500Z 33004KT 9999 SCT030 34/19 Q1011;
0120832880999992011111616004-13267-043417FM-15+0443SBLP V0203001N003110090019N0112651N1+03401+01901999999ADDGA1071+009001999GF107991999999999999999999MA1100911999999REMMET051METAR SBLP 161600Z 30006KT 9999 BKN030 34/19 Q1009;
0120832880999992011111617004-13267-043417FM-15+0443SBLP V0203301N003112200019N0112651N1+03301+01901999999ADDGA1041+009001999GF104991999999999999999999MA1100811999999REMMET051METAR SBLP 161700Z 33006KT 9999 SCT030 33/19 Q1008;
0177832880999992011111618004-13267-043417FM-15+0443SBLP V0202401N005110300019N0112651N1+02901+02201999999ADDGA1021+009001091GA2041+009001999GA3071+030001999GF107991999999999999999999MA1100911999999MW1171REMMET070METAR SBLP 161800Z 24010KT 9999 TS FEW030CB SCT030 BKN100 29/22 Q1009;
0153832880999992011111619004-13267-043417FM-15+0443SBLP V0202101N003110090019N0112651N1+02701+02201999999ADDGA1071+009001999GA2071+030001999GF107991999999999999999999MA1100911999999MW1611REMMET062METAR SBLP 161900Z 21006KT 9999 -RA BKN030 BKN100 27/22 Q1009;
0143832880999992011111620004-13267-043417FM-15+0443SBLP V0202401N003110300019N0112651N1+02701+02201999999ADDGA1021+009001999GA2071+030001999GF107991999999999999999999MA1100911999999REMMET058METAR SBLP 162000Z 24006KT 9999 FEW030 BKN100 27/22 Q1009;
0072832880999992011111621004-13267-043417FM-15+0443SBLP V0209999C000019999999Y0099001N1+02601+02201999999ADDMA1100911999999REMMET045METAR SBLP 162100Z 00000KT CAVOK 26/22 Q1009;
0143832880999992011111710004-13267-043417FM-15+0443SBLP V0209999C000010300019N0112651N1+02401+02301999999ADDGA1041+009001999GA2071+030001999GF107991999999999999999999MA1101191999999REMMET058METAR SBLP 171000Z 00000KT 9999 SCT030 BKN100 24/23 Q1012;
0143832880999992011111711004-13267-043417FM-15+0443SBLP V0209999C000010300019N0112651N1+02601+02301999999ADDGA1041+009001999GA2071+030001999GF107991999999999999999999MA1101291999999REMMET058METAR SBLP 171100Z 00000KT 9999 SCT030 BKN100 26/23 Q1013;
0146832880999992011111712004-13267-043417FM-15+0443SBLP V0203601N00211030001CN0112651N1+03001+02201999999ADDGA1021+009001999GA2041+030001999GF106991999999999999999999MA1101301999999REMMET061METAR SBLP 171200Z 36004KT 9999 01 FEW030 SCT100 30/22 Q1013;
0120832880999992011111713004-13267-043417FM-15+0443SBLP V0203301N004112200019N0112651N1+03201+02201999999ADDGA1041+009001999GF104991999999999999999999MA1101291999999REMMET051METAR SBLP 171300Z 33008KT 9999 SCT030 32/22 Q1013;
0120832880999992011111714004-13267-043417FM-15+0443SBLP V0203301N003112200019N0112651N1+03201+02201999999ADDGA1041+009001999GF104991999999999999999999MA1101191999999REMMET051METAR SBLP 171400Z 33006KT 9999 SCT030 32/22 Q1012;
0120832880999992011111715004-13267-043417FM-15+0443SBLP V0203301N003112200019N0112651N1+03301+02201999999ADDGA1041+009001999GF104991999999999999999999MA1101081999999REMMET051METAR SBLP 171500Z 33006KT 9999 SCT030 33/22 Q1011;
0120832880999992011111716004-13267-043417FM-15+0443SBLP V0203601N003112200019N0112651N1+03401+02101999999ADDGA1041+009001999GF104991999999999999999999MA1101021999999REMMET051METAR SBLP 171600Z 36006KT 9999 SCT030 34/21 Q1010;
0120832880999992011111717004-13267-043417FM-15+0443SBLP V0203601N003112200019N0112651N1+03501+02001999999ADDGA1041+009001999GF104991999999999999999999MA1100911999999REMMET051METAR SBLP 171700Z 36006KT 9999 SCT030 35/20 Q1009;
0120832880999992011111718004-13267-043417FM-15+0443SBLP V0203601N003112200019N0112651N1+03601+01901999999ADDGA1041+009001999GF104991999999999999999999MA1100811999999REMMET051METAR SBLP 171800Z 36006KT 9999 SCT030 36/19 Q1008;
0120832880999992011111719004-13267-043417FM-15+0443SBLP V0203601N003112200019N0112651N1+03501+01901999999ADDGA1041+009001999GF104991999999999999999999MA1100811999999REMMET051METAR SBLP 171900Z 36006KT 9999 SCT030 35/19 Q1008;
0120832880999992011111720004-13267-043417FM-15+0443SBLP V0209999C000012200019N0112651N1+03401+01901999999ADDGA1021+009001999GF102991999999999999999999MA1100811999999REMMET051METAR SBLP 172000Z 00000KT 9999 FEW030 34/19 Q1008;
0120832880999992011111721004-13267-043417FM-15+0443SBLP V0209999C000012200019N0112651N1+03301+01901999999ADDGA1021+009001999GF102991999999999999999999MA1100811999999REMMET051METAR SBLP 172100Z 00000KT 9999 FEW030 33/19 Q1008;
0072832880999992011111810004-13267-043417FM-15+0443SBLP V0201501N004119999999Y0099001N1+02701+02201999999ADDMA1101191999999REMMET045METAR SBLP 181000Z 15008KT CAVOK 27/22 Q1012;
0072832880999992011111811064-13267-043417FM-15+0443SBLP V0201201N004119999999Y0099001N1+02901+02201999999ADDMA1101291999999REMMET045METAR SBLP 181106Z 12008KT CAVOK 29/22 Q1013;
0120832880999992011111812004-13267-043417FM-15+0443SBLP V0201201N004112200019N0112651N1+03101+02301999999ADDGA1021+009001999GF102991999999999999999999MA1101291999999REMMET051METAR SBLP 181200Z 12008KT 9999 FEW030 31/23 Q1013;
0120832880999992011111813004-13267-043417FM-15+0443SBLP V0203601N003112200019N0112651N1+03201+02201999999ADDGA1041+009001999GF104991999999999999999999MA1101291999999REMMET051METAR SBLP 181300Z 36006KT 9999 SCT030 32/22 Q1013;
0120832880999992011111814004-13267-043417FM-15+0443SBLP V0200901N002112200019N0112651N1+03401+02201999999ADDGA1041+009001999GF104991999999999999999999MA1101191999999REMMET051METAR SBLP 181400Z 09004KT 9999 SCT030 34/22 Q1012;
0120832880999992011111815004-13267-043417FM-15+0443SBLP V0203601N003612200019N0112651N1+03501+02101999999ADDGA1041+009001999GF104991999999999999999999MA1101081999999REMMET051METAR SBLP 181500Z 36007KT 9999 SCT030 35/21 Q1011;
0120832880999992011111816004-13267-043417FM-15+0443SBLP V0203601N003110090019N0112651N1+03501+02101999999ADDGA1071+009001999GF107991999999999999999999MA1100911999999REMMET051METAR SBLP 181600Z 36006KT 9999 BKN030 35/21 Q1009;
0147832880999992011111817004-13267-043417FM-15+0443SBLP V0200901N006212200019N0112651N1+03401+02001999999ADDGA1041+009001999GA2021+012001091MA1101021999999MW1171REMMET063METAR SBLP 181700Z 09012KT 9999 TS SCT030 FEW040CB 34/20 Q1010;EQDQ01+000022SCOTCV
0171832880999992011111818004-13267-043417FM-15+0443SBLP V0200901N00311012001CN0060001N1+02901+02101999999ADDGA1041+009001999GA2021+012001091GA3041+030001999GF108991999999999999999999MA1101101999999REMMET070METAR SBLP 181800Z 09006KT 6000 95 SCT030 FEW040CB SCT100 29/21 Q1011;
0186832880999992011111819004-13267-043417FM-15+0443SBLP V0209999C00001012001CN0090001N1+02801+02101999999ADDGA1041+009001999GA2021+012001091GA3071+030001999GF107991999999999999999999MA1101081999999MW1801MW2951REMMET073METAR SBLP 181900Z 00000KT 9000 -TSRA SCT030 FEW040CB BKN100 28/21 Q1011;
0187832880999992011111820004-13267-043417FM-15+0443SBLP V0209999C00001012001CN0090001N1+02601+02101999999ADDGA1041+009001999GA2021+012001091GA3071+030001999GF107991999999999999999999MA1101201999999MW1801MW2951REMMET074METAR SBLP 182000Z 00000KT 9000 -TSRA SCT030 FEW040CB BKN100 26/21 Q1 012;
0187832880999992011111821004-13267-043417FM-15+0443SBLP V0209999C00001012001CN0090001N1+02501+02101999999ADDGA1041+009001999GA2021+012001091GA3071+030001999GF107991999999999999999999MA1101101999999MW1801MW2951REMMET074METAR SBLP 182100Z 00000KT 9000 -TSRA SCT030 FEW040CB BKN100 25/21 Q1 011;
0143832880999992011111910004-13267-043417FM-15+0443SBLP V0209999C000010300019N0112651N1+02201+02101999999ADDGA1041+003001999GA2071+030001999GF107991999999999999999999MA1101491999999REMMET058METAR SBLP 191000Z 00000KT 9999 SCT010 BKN100 22/21 Q1015;
0143832880999992011111911004-13267-043417FM-15+0443SBLP V0209999C000010300019N0112651N1+02301+02101999999ADDGA1041+004501999GA2071+030001999GF107991999999999999999999MA1101491999999REMMET058METAR SBLP 191100Z 00000KT 9999 SCT015 BKN100 23/21 Q1015;
0143832880999992011111912004-13267-043417FM-15+0443SBLP V0209999C000010300019N0112651N1+02501+02101999999ADDGA1041+006001999GA2071+030001999GF107991999999999999999999MA1101491999999REMMET058METAR SBLP 191200Z 00000KT 9999 SCT020 BKN100 25/21 Q1015;
0143832880999992011111913004-13267-043417FM-15+0443SBLP V0209999C000012200019N0112651N1+02701+02101999999ADDGA1021+006001999GA2041+030001999GF104991999999999999999999MA1101491999999REMMET058METAR SBLP 191300Z 00000KT 9999 FEW020 SCT100 27/21 Q1015;
0143832880999992011111914004-13267-043417FM-15+0443SBLP V0209999C000012200019N0112651N1+03001+02101999999ADDGA1021+006001999GA2041+030001999GF104991999999999999999999MA1101391999999REMMET058METAR SBLP 191400Z 00000KT 9999 FEW020 SCT100 30/21 Q1014;
0120832880999992011111915004-13267-043417FM-15+0443SBLP V0203601N003112200019N0112651N1+03001+02101999999ADDGA1041+009001999GF104991999999999999999999MA1101291999999REMMET051METAR SBLP 191500Z 36006KT 9999 SCT030 30/21 Q1013;
0120832880999992011111916004-13267-043417FM-15+0443SBLP V0202101N003112200019N0112651N1+03201+02101999999ADDGA1041+009001999GF104991999999999999999999MA1101191999999REMMET051METAR SBLP 191600Z 21006KT 9999 SCT030 32/21 Q1012;
0120832880999992011111917004-13267-043417FM-15+0443SBLP V0209999C000012200019N0112651N1+03301+02001999999ADDGA1021+009001999GF102991999999999999999999MA1101081999999REMMET051METAR SBLP 191700Z 00000KT 9999 FEW030 33/20 Q1011;
0124832880999992011111918004-13267-043417FM-15+0443SBLP V0200901N005112200019N0112651N1+02701+02101999999ADDGA1041+009001999GF104991999999999999999999MA1101081999999REMMET055METAR SBLP 191800Z COR 09010KT 9999 SCT030 27/21 Q1011;
0120832880999992011111919004-13267-043417FM-15+0443SBLP V0200601N005112200019N0112651N1+02701+02101999999ADDGA1041+009001999GF104991999999999999999999MA1101021999999REMMET051METAR SBLP 191900Z 06010KT 9999 SCT030 27/21 Q1010;
0120832880999992011111920004-13267-043417FM-15+0443SBLP V0209999C000012200019N0112651N1+02501+02201999999ADDGA1041+009001999GF104991999999999999999999MA1101191999999REMMET051METAR SBLP 192000Z 00000KT 9999 SCT030 25/22 Q1012;
0120832880999992011111921004-13267-043417FM-15+0443SBLP V0203001N002112200019N0112651N1+02401+02201999999ADDGA1041+009001999GF104991999999999999999999MA1101191999999REMMET051METAR SBLP 192100Z 30004KT 9999 SCT030 24/22 Q1012;
0143832880999992011112010004-13267-043417FM-15+0443SBLP V0209999C000010300019N0112651N1+02301+02101999999ADDGA1041+004501999GA2071+030001999GF107991999999999999999999MA1101391999999REMMET058METAR SBLP 201000Z 00000KT 9999 SCT015 BKN100 23/21 Q1014;
0143832880999992011112011004-13267-043417FM-15+0443SBLP V0209999C000010300019N0112651N1+02401+02101999999ADDGA1021+006001999GA2071+030001999GF107991999999999999999999MA1101491999999REMMET058METAR SBLP 201100Z 00000KT 9999 FEW020 BKN100 24/21 Q1015;
0143832880999992011112012004-13267-043417FM-15+0443SBLP V0209999C000010300019N0112651N1+02701+02101999999ADDGA1021+006001999GA2071+030001999GF107991999999999999999999MA1101491999999REMMET058METAR SBLP 201200Z 00000KT 9999 FEW020 BKN100 27/21 Q1015;
0143832880999992011112013004-13267-043417FM-15+0443SBLP V0209999C000012200019N0112651N1+02901+02101999999ADDGA1021+006001999GA2041+030001999GF104991999999999999999999MA1101491999999REMMET058METAR SBLP 201300Z 00000KT 9999 FEW020 SCT100 29/21 Q1015;
0143832880999992011112014004-13267-043417FM-15+0443SBLP V0209999C000012200019N0112651N1+02901+02101999999ADDGA1021+009001999GA2041+030001999GF104991999999999999999999MA1101391999999REMMET058METAR SBLP 201400Z 00000KT 9999 FEW030 SCT100 29/21 Q1014;
0120832880999992011112015004-13267-043417FM-15+0443SBLP V0203601N003112200019N0112651N1+02901+02101999999ADDGA1041+009001999GF104991999999999999999999MA1101291999999REMMET051METAR SBLP 201500Z 36006KT 9999 SCT030 29/21 Q1013;
0177832880999992011112016004-13267-043417FM-15+0443SBLP V0201201N00771030001CN0112651N1+02901+02201999999ADDGA1021+009001091GA2071+009001999GA3071+030001999GF107991999999999999999999MA1101191999999MW1171REMMET070METAR SBLP 201600Z 12015KT 9999 TS BKN030 FEW030CB BKN100 29/22 Q1012;
0148832880999992011112017004-13267-043417FM-15+0443SBLP V0201401N003110300019N0112651N1+02801+02101999999ADDGA1041+009001999GA2071+030001999GF107991999999999999999999MA1101081999999REMMET063METAR SBLP 201700Z 14006KT 9999 SCT030 BKN100 28/21 Q1011 RETS;
0143832880999992011112018004-13267-043417FM-15+0443SBLP V0201101N005110300019N0112651N1+02601+02401999999ADDGA1041+009001999GA2071+030001999GF107991999999999999999999MA1101081999999REMMET058METAR SBLP 201800Z 11010KT 9999 SCT030 BKN100 26/24 Q1011;
0143832880999992011112019004-13267-043417FM-15+0443SBLP V0201301N004110300019N0112651N1+02601+02301999999ADDGA1021+009001999GA2071+030001999GF107991999999999999999999MA1101081999999REMMET058METAR SBLP 201900Z 13008KT 9999 FEW030 BKN100 26/23 Q1011;
0143832880999992011112020004-13267-043417FM-15+0443SBLP V0201201N003110300019N0112651N1+02501+02201999999ADDGA1041+006001999GA2071+030001999GF107991999999999999999999MA1101191999999REMMET058METAR SBLP 202000Z 12006KT 9999 SCT020 BKN100 25/22 Q1012;
0143832880999992011112021004-13267-043417FM-15+0443SBLP V0203601N003110300019N0112651N1+02501+02201999999ADDGA1041+006001999GA2071+030001999GF107991999999999999999999MA1101191999999REMMET058METAR SBLP 202100Z 36006KT 9999 SCT020 BKN100 25/22 Q1012;
0072832880999992011112110004-13267-043417FM-15+0443SBLP V0209999C000019999999Y0099001N1+02401+02101999999ADDMA1101491999999REMMET045METAR SBLP 211000Z 00000KT CAVOK 24/21 Q1015;
0072832880999992011112111004-13267-043417FM-15+0443SBLP V0200901N002119999999Y0099001N1+02801+02101999999ADDMA1101491999999REMMET045METAR SBLP 211100Z 09004KT CAVOK 28/21 Q1015;
0120832880999992011112112004-13267-043417FM-15+0443SBLP V0209999C000012200019N0112651N1+02901+02101999999ADDGA1041+009001999GF104991999999999999999999MA1101491999999REMMET051METAR SBLP 211200Z 00000KT 9999 SCT030 29/21 Q1015;
0120832880999992011112113004-13267-043417FM-15+0443SBLP V0201201N002112200019N0112651N1+03001+02201999999ADDGA1041+009001999GF104991999999999999999999MA1101491999999REMMET051METAR SBLP 211300Z 12004KT 9999 SCT030 30/22 Q1015;
0120832880999992011112114004-13267-043417FM-15+0443SBLP V0209999C000010090019N0112651N1+03101+02101999999ADDGA1071+009001999GF107991999999999999999999MA1101391999999REMMET051METAR SBLP 211400Z 00000KT 9999 BKN030 31/21 Q1014;
0120832880999992011112115004-13267-043417FM-15+0443SBLP V0203601N002112200019N0112651N1+03101+02101999999ADDGA1041+009001999GF104991999999999999999999MA1101391999999REMMET051METAR SBLP 211500Z 36004KT 9999 SCT030 31/21 Q1014;
0120832880999992011112116004-13267-043417FM-15+0443SBLP V0200901N003112200019N0112651N1+03301+02201999999ADDGA1041+009001999GF104991999999999999999999MA1101291999999REMMET051METAR SBLP 211600Z 09006KT 9999 SCT030 33/22 Q1013;
0153832880999992011112117004-13267-043417FM-15+0443SBLP V0200201N003112200019N0090001N1+02402+02301999999ADDGA1041+008101999GA2041+030001999GF104991999999999999999999MA1101291999999MW1611REMMET062METAR SBLP 211700Z 02006KT 9000 -RA SCT027 SCT100 24/23 Q1013;
0143832880999992011112118004-13267-043417FM-15+0443SBLP V0200901N003112200019N0112651N1+02801+02101999999ADDGA1021+009001999GA2041+030001999GF104991999999999999999999MA1101081999999REMMET058METAR SBLP 211800Z 09006KT 9999 FEW030 SCT100 28/21 Q1011;
0143832880999992011112119004-13267-043417FM-15+0443SBLP V0209999C000012200019N0112651N1+03001+02201999999ADDGA1021+009001999GA2041+030001999GF104991999999999999999999MA1101081999999REMMET058METAR SBLP 211900Z 00000KT 9999 FEW030 SCT100 30/22 Q1011;
0072832880999992011112120004-13267-043417FM-15+0443SBLP V0209999C000019999999Y0099001N1+02901+02201999999ADDMA1101081999999REMMET045METAR SBLP 212000Z 00000KT CAVOK 29/22 Q1011;
0072832880999992011112121004-13267-043417FM-15+0443SBLP V0209999C000019999999Y0099001N1+02701+02101999999ADDMA1101081999999REMMET045METAR SBLP 212100Z 00000KT CAVOK 27/21 Q1011;
0072832880999992011112210004-13267-043417FM-15+0443SBLP V0209999C000019999999Y0099001N1+02401+02001999999ADDMA1101491999999REMMET045METAR SBLP 221000Z 00000KT CAVOK 24/20 Q1015;
0072832880999992011112211004-13267-043417FM-15+0443SBLP V0201201N003119999999Y0099001N1+02701+02001999999ADDMA1101491999999REMMET045METAR SBLP 221100Z 12006KT CAVOK 27/20 Q1015;
0072832880999992011112212004-13267-043417FM-15+0443SBLP V0209999C000019999999Y0099001N1+02901+02001999999ADDMA1101591999999REMMET045METAR SBLP 221200Z 00000KT CAVOK 29/20 Q1016;
0072832880999992011112213004-13267-043417FM-15+0443SBLP V0200901N003119999999Y0099001N1+02901+02001999999ADDMA1101491999999REMMET045METAR SBLP 221300Z 09006KT CAVOK 29/20 Q1015;
0120832880999992011112214004-13267-043417FM-15+0443SBLP V0200201N003112200019N0112651N1+03201+01901999999ADDGA1021+009001999GF102991999999999999999999MA1101491999999REMMET051METAR SBLP 221400Z 02006KT 9999 FEW030 32/19 Q1015;
0120832880999992011112215004-13267-043417FM-15+0443SBLP V0209999C000012200019N0112651N1+03201+01901999999ADDGA1021+009001999GF102991999999999999999999MA1101391999999REMMET051METAR SBLP 221500Z 00000KT 9999 FEW030 32/19 Q1014;
0120832880999992011112216004-13267-043417FM-15+0443SBLP V0203601N003112200019N0112651N1+03401+01901999999ADDGA1041+009001999GF104991999999999999999999MA1101191999999REMMET051METAR SBLP 221600Z 36006KT 9999 SCT030 34/19 Q1012;
0120832880999992011112217004-13267-043417FM-15+0443SBLP V0203601N003112200019N0112651N1+03401+01901999999ADDGA1041+009001999GF104991999999999999999999MA1101081999999REMMET051METAR SBLP 221700Z 36006KT 9999 SCT030 34/19 Q1011;
0120832880999992011112218004-13267-043417FM-15+0443SBLP V0203601N003112200019N0112651N1+03401+01901999999ADDGA1041+009001999GF104991999999999999999999MA1101081999999REMMET051METAR SBLP 221800Z 36006KT 9999 SCT030 34/19 Q1011;
0120832880999992011112219004-13267-043417FM-15+0443SBLP V0203601N003112200019N0112651N1+03301+01901999999ADDGA1041+009001999GF104991999999999999999999MA1101021999999REMMET051METAR SBLP 221900Z 36006KT 9999 SCT030 33/19 Q1010;
0120832880999992011112220004-13267-043417FM-15+0443SBLP V0203601N003112200019N0112651N1+03301+01901999999ADDGA1041+009001999GF104991999999999999999999MA1101021999999REMMET051METAR SBLP 222000Z 36006KT 9999 SCT030 33/19 Q1010;
0120832880999992011112221004-13267-043417FM-15+0443SBLP V0203601N003112200019N0112651N1+03201+01901999999ADDGA1041+009001999GF104991999999999999999999MA1101081999999REMMET051METAR SBLP 222100Z 36006KT 9999 SCT030 32/19 Q1011;
0143832880999992011112310004-13267-043417FM-15+0443SBLP V0202101N004110300019N0112651N1+02501+02201999999ADDGA1021+006001999GA2071+030001999GF107991999999999999999999MA1101491999999REMMET058METAR SBLP 231000Z 21008KT 9999 FEW020 BKN100 25/22 Q1015;
0143832880999992011112311004-13267-043417FM-15+0443SBLP V0201901N003110300019N0112651N1+02701+02201999999ADDGA1021+008101999GA2071+030001999GF107991999999999999999999MA1101591999999REMMET058METAR SBLP 231100Z 19006KT 9999 FEW027 BKN100 27/22 Q1016;
0143832880999992011112312004-13267-043417FM-15+0443SBLP V0202101N002110300019N0112651N1+02701+02201999999ADDGA1041+008101999GA2071+030001999GF107991999999999999999999MA1101591999999REMMET058METAR SBLP 231200Z 21004KT 9999 SCT027 BKN100 27/22 Q1016;
0143832880999992011112313004-13267-043417FM-15+0443SBLP V0201801N001510300019N0112651N1+02801+02201999999ADDGA1041+006901999GA2071+030001999GF107991999999999999999999MA1101591999999REMMET058METAR SBLP 231300Z 18003KT 9999 SCT023 BKN100 28/22 Q1016;
0143832880999992011112314004-13267-043417FM-15+0443SBLP V0202101N002110300019N0112651N1+02801+02101999999ADDGA1041+006001999GA2071+030001999GF107991999999999999999999MA1101591999999REMMET058METAR SBLP 231400Z 21004KT 9999 SCT020 BKN100 28/21 Q1016;
0143832880999992011112315004-13267-043417FM-15+0443SBLP V0201801N003110300019N0112651N1+02901+02201999999ADDGA1041+006001999GA2071+030001999GF107991999999999999999999MA1101491999999REMMET058METAR SBLP 231500Z 18006KT 9999 SCT020 BKN100 29/22 Q1015;
0143832880999992011112316004-13267-043417FM-15+0443SBLP V0200901N003110300019N0112651N1+03001+02201999999ADDGA1021+009001999GA2071+030001999GF107991999999999999999999MA1101391999999REMMET058METAR SBLP 231600Z 09006KT 9999 FEW030 BKN100 30/22 Q1014;
0187832880999992011112317004-13267-043417FM-15+0443SBLP V0203601N00311012001CN0090001N1+02801+02101999999ADDGA1041+009001999GA2021+012001091GA3071+030001999GF107991999999999999999999MA1101401999999MW1801MW2951REMMET074METAR SBLP 231700Z 36006KT 9000 -TSRA SCT030 FEW040CB BKN100 28/21 Q1 014;
0143832880999992011112318004-13267-043417FM-15+0443SBLP V0203601N003110300019N0112651N1+02701+02101999999ADDGA1041+009001999GA2071+030001999GF107991999999999999999999MA1101291999999REMMET058METAR SBLP 231800Z 36006KT 9999 SCT030 BKN100 27/21 Q1013;
0143832880999992011112319004-13267-043417FM-15+0443SBLP V0200901N003110300019N0112651N1+02701+02101999999ADDGA1041+009001999GA2071+030001999GF107991999999999999999999MA1101191999999REMMET058METAR SBLP 231900Z 09006KT 9999 SCT030 BKN100 27/21 Q1012;
0143832880999992011112320004-13267-043417FM-15+0443SBLP V0209999C000010300019N0112651N1+02601+02101999999ADDGA1021+009001999GA2071+030001999GF107991999999999999999999MA1101191999999REMMET058METAR SBLP 232000Z 00000KT 9999 FEW030 BKN100 26/21 Q1012;
0143832880999992011112321004-13267-043417FM-15+0443SBLP V0209999C000010300019N0112651N1+02601+02101999999ADDGA1021+009001999GA2071+030001999GF107991999999999999999999MA1101291999999REMMET058METAR SBLP 232100Z 00000KT 9999 FEW030 BKN100 26/21 Q1013;
0143832880999992011112409154-13267-043417FM-15+0443SBLP V0209999C000010300019N0112651N1+02201+02101999999ADDGA1041+006001999GA2071+030001999GF107991999999999999999999MA1101491999999REMMET058METAR SBLP 240915Z 00000KT 9999 SCT020 BKN100 22/21 Q1015;
0143832880999992011112411004-13267-043417FM-15+0443SBLP V0209999C000010300019N0112651N1+02301+02101999999ADDGA1021+006001999GA2071+030001999GF107991999999999999999999MA1101591999999REMMET058METAR SBLP 241100Z 00000KT 9999 FEW020 BKN100 23/21 Q1016;
0143832880999992011112412004-13267-043417FM-15+0443SBLP V0209999C000010300019N0112651N1+02401+02101999999ADDGA1021+006001999GA2071+030001999GF107991999999999999999999MA1101591999999REMMET058METAR SBLP 241200Z 00000KT 9999 FEW020 BKN100 24/21 Q1016;
0143832880999992011112413004-13267-043417FM-15+0443SBLP V0209999C000010300019N0112651N1+02501+02101999999ADDGA1021+006001999GA2071+030001999GF107991999999999999999999MA1101591999999REMMET058METAR SBLP 241300Z 00000KT 9999 FEW020 BKN100 25/21 Q1016;
0143832880999992011112414004-13267-043417FM-15+0443SBLP V0209999C000010300019N0112651N1+02701+02101999999ADDGA1021+006001999GA2071+030001999GF107991999999999999999999MA1101591999999REMMET058METAR SBLP 241400Z 00000KT 9999 FEW020 BKN100 27/21 Q1016;
0143832880999992011112415004-13267-043417FM-15+0443SBLP V0209999C000012200019N0112651N1+02901+02101999999ADDGA1041+006001999GA2041+030001999GF104991999999999999999999MA1101491999999REMMET058METAR SBLP 241500Z 00000KT 9999 SCT020 SCT100 29/21 Q1015;
0143832880999992011112416004-13267-043417FM-15+0443SBLP V0209999C000012200019N0112651N1+03101+02201999999ADDGA1021+008101999GA2041+030001999GF104991999999999999999999MA1101291999999REMMET058METAR SBLP 241600Z 00000KT 9999 FEW027 SCT100 31/22 Q1013;
0143832880999992011112417004-13267-043417FM-15+0443SBLP V0200901N003112200019N0112651N1+03201+02101999999ADDGA1021+008101999GA2041+030001999GF104991999999999999999999MA1101191999999REMMET058METAR SBLP 241700Z 09006KT 9999 FEW027 SCT100 32/21 Q1012;
0143832880999992011112418004-13267-043417FM-15+0443SBLP V0209999C000012200019N0112651N1+03201+02101999999ADDGA1041+009001999GA2041+030001999GF104991999999999999999999MA1101081999999REMMET058METAR SBLP 241800Z 00000KT 9999 SCT030 SCT100 32/21 Q1011;
0169832880999992011112419004-13267-043417FM-15+0443SBLP V0209999C000012200019N0112651N1+03101+02101999999ADDGA1041+009001999GA2021+012001021GA3041+030001999GF104991999999999999999999MA1101081999999REMMET068METAR SBLP 241900Z 00000KT 9999 SCT030 FEW040TCU SCT100 31/21 Q1011;
0169832880999992011112420004-13267-043417FM-15+0443SBLP V0200601N00311012001CN0112651N1+03001+02201999999ADDGA1041+008101999GA2021+012001021GA3071+030001999GF107991999999999999999999MA1101081999999REMMET068METAR SBLP 242000Z 06006KT 9999 SCT027 FEW040TCU BKN100 30/22 Q1011;
0188832880999992011112421004-13267-043417FM-15+0443SBLP V0200201N00411012001CN0112651N1+02501+02301999999ADDGA1041+006901999GA2021+012001091GA3071+030001999GF107991999999999999999999MA1101291999999MW1161MW2171REMMET075METAR SBLP 242100Z 02008KT 9999 TS VCSH SCT023 FEW040CB BKN100 25/23 Q1013;
0143832880999992011112510004-13267-043417FM-15+0443SBLP V0209999C000010300019N0112651N1+02201+02101999999ADDGA1041+003001999GA2071+030001999GF107991999999999999999999MA1101491999999REMMET058METAR SBLP 251000Z 00000KT 9999 SCT010 BKN100 22/21 Q1015;
0143832880999992011112511004-13267-043417FM-15+0443SBLP V0209999C000010300019N0112651N1+02401+02101999999ADDGA1041+004501999GA2071+030001999GF107991999999999999999999MA1101491999999REMMET058METAR SBLP 251100Z 00000KT 9999 SCT015 BKN100 24/21 Q1015;
0143832880999992011112512004-13267-043417FM-15+0443SBLP V0209999C000010300019N0112651N1+02701+02101999999ADDGA1021+006001999GA2071+030001999GF107991999999999999999999MA1101491999999REMMET058METAR SBLP 251200Z 00000KT 9999 FEW020 BKN100 27/21 Q1015;
0143832880999992011112513004-13267-043417FM-15+0443SBLP V0209999C000010300019N0112651N1+02801+02101999999ADDGA1021+006001999GA2071+030001999GF107991999999999999999999MA1101491999999REMMET058METAR SBLP 251300Z 00000KT 9999 FEW020 BKN100 28/21 Q1015;
0143832880999992011112514004-13267-043417FM-15+0443SBLP V0209999C000012200019N0112651N1+03001+02101999999ADDGA1021+006001999GA2041+030001999GF104991999999999999999999MA1101391999999REMMET058METAR SBLP 251400Z 00000KT 9999 FEW020 SCT100 30/21 Q1014;
0120832880999992011112515004-13267-043417FM-15+0443SBLP V0203601N003112200019N0112651N1+03101+02101999999ADDGA1041+009001999GF104991999999999999999999MA1101291999999REMMET051METAR SBLP 251500Z 36006KT 9999 SCT030 31/21 Q1013;
0120832880999992011112516004-13267-043417FM-15+0443SBLP V0209999C000012200019N0112651N1+03101+02101999999ADDGA1041+009001999GF104991999999999999999999MA1101081999999REMMET051METAR SBLP 251600Z 00000KT 9999 SCT030 31/21 Q1011;
0120832880999992011112517004-13267-043417FM-15+0443SBLP V0203301N001512200019N0112651N1+03201+02101999999ADDGA1041+009001999GF104991999999999999999999MA1101021999999REMMET051METAR SBLP 251700Z 33003KT 9999 SCT030 32/21 Q1010;
0120832880999992011112518004-13267-043417FM-15+0443SBLP V0202701N003112200019N0112651N1+03201+02101999999ADDGA1041+009001999GF104991999999999999999999MA1100911999999REMMET051METAR SBLP 251800Z 27006KT 9999 SCT030 32/21 Q1009;
0120832880999992011112519004-13267-043417FM-15+0443SBLP V0203601N003112200019N0112651N1+03301+02001999999ADDGA1041+009001999GF104991999999999999999999MA1100911999999REMMET051METAR SBLP 251900Z 36006KT 9999 SCT030 33/20 Q1009;
0120832880999992011112520004-13267-043417FM-15+0443SBLP V0203001N003112200019N0112651N1+03101+02101999999ADDGA1041+009001999GF104991999999999999999999MA1100911999999REMMET051METAR SBLP 252000Z 30006KT 9999 SCT030 31/21 Q1009;
0139832880999992011112521004-13267-043417FM-15+0443SBLP V0200601N00771009001CN0112651N1+02701+02301999999ADDGA1071+009001999GA2021+009001021MA1101021999999REMMET061METAR SBLP 252100Z 06015KT 9999 BKN030 FEW030TCU 27/23 Q1010;EQDQ01+000022SCOTCV
0153832880999992011112610004-13267-043417FM-15+0443SBLP V0201801N002610045019N0050001N1+02201+02201999999ADDGA1071+004501999GA2081+030001999GF108991999999999999999999MA1101491999999MW1611REMMET062METAR SBLP 261000Z 18005KT 5000 -RA BKN015 OVC100 22/22 Q1015;
0153832880999992011112611004-13267-043417FM-15+0443SBLP V0202101N002110045019N0050001N1+02201+02201999999ADDGA1071+004501999GA2081+030001999GF108991999999999999999999MA1101491999999MW1611REMMET062METAR SBLP 261100Z 21004KT 5000 -RA BKN015 OVC100 22/22 Q1015;
0143832880999992011112612004-13267-043417FM-15+0443SBLP V0201801N002110045019N0112651N1+02401+02301999999ADDGA1071+004501999GA2071+030001999GF107991999999999999999999MA1101491999999REMMET058METAR SBLP 261200Z 18004KT 9999 BKN015 BKN100 24/23 Q1015;
0143832880999992011112613004-13267-043417FM-15+0443SBLP V0201201N003110300019N0112651N1+02501+02301999999ADDGA1041+004501999GA2071+030001999GF107991999999999999999999MA1101491999999REMMET058METAR SBLP 261300Z 12006KT 9999 SCT015 BKN100 25/23 Q1015;
0143832880999992011112614004-13267-043417FM-15+0443SBLP V0209999C000010300019N0112651N1+02601+02301999999ADDGA1041+004501999GA2071+030001999GF107991999999999999999999MA1101491999999REMMET058METAR SBLP 261400Z 00000KT 9999 SCT015 BKN100 26/23 Q1015;
0143832880999992011112615004-13267-043417FM-15+0443SBLP V0209999C000010045019N0112651N1+02601+02301999999ADDGA1071+004501999GA2071+030001999GF107991999999999999999999MA1101391999999REMMET058METAR SBLP 261500Z 00000KT 9999 BKN015 BKN100 26/23 Q1014;
0143832880999992011112616004-13267-043417FM-15+0443SBLP V0201801N001510300019N0112651N1+02701+02201999999ADDGA1041+006001999GA2071+030001999GF107991999999999999999999MA1101391999999REMMET058METAR SBLP 261600Z 18003KT 9999 SCT020 BKN100 27/22 Q1014;
0143832880999992011112617004-13267-043417FM-15+0443SBLP V0209999C000010300019N0112651N1+02701+02101999999ADDGA1041+006001999GA2071+030001999GF107991999999999999999999MA1101291999999REMMET058METAR SBLP 261700Z 00000KT 9999 SCT020 BKN100 27/21 Q1013;
0143832880999992011112618004-13267-043417FM-15+0443SBLP V0200901N001510300019N0112651N1+02901+02101999999ADDGA1021+006001999GA2071+030001999GF107991999999999999999999MA1101081999999REMMET058METAR SBLP 261800Z 09003KT 9999 FEW020 BKN100 29/21 Q1011;
0143832880999992011112619004-13267-043417FM-15+0443SBLP V0202101N002110300019N0112651N1+02801+02301999999ADDGA1021+006001999GA2071+030001999GF107991999999999999999999MA1101081999999REMMET058METAR SBLP 261900Z 21004KT 9999 FEW020 BKN100 28/23 Q1011;
0143832880999992011112620004-13267-043417FM-15+0443SBLP V0201801N001510300019N0112651N1+02701+02301999999ADDGA1021+009001999GA2071+030001999GF107991999999999999999999MA1101081999999REMMET058METAR SBLP 262000Z 18003KT 9999 FEW030 BKN100 27/23 Q1011;
0143832880999992011112621004-13267-043417FM-15+0443SBLP V0202101N002110300019N0112651N1+02601+02301999999ADDGA1021+006001999GA2071+030001999GF107991999999999999999999MA1101081999999REMMET058METAR SBLP 262100Z 21004KT 9999 FEW020 BKN100 26/23 Q1011;
0072832880999992011112710004-13267-043417FM-15+0443SBLP V0209999C000019999999Y0099001N1+02401+02201999999ADDMA1101291999999REMMET045METAR SBLP 271000Z 00000KT CAVOK 24/22 Q1013;
0072832880999992011112711004-13267-043417FM-15+0443SBLP V0200601N002119999999Y0099001N1+02801+02201999999ADDMA1101291999999REMMET045METAR SBLP 271100Z 06004KT CAVOK 28/22 Q1013;
0072832880999992011112712004-13267-043417FM-15+0443SBLP V0200701N002119999999Y0099001N1+02901+02001999999ADDMA1101291999999REMMET045METAR SBLP 271200Z 07004KT CAVOK 29/20 Q1013;
0120832880999992011112713004-13267-043417FM-15+0443SBLP V0200601N001512200019N0112651N1+03101+02001999999ADDGA1021+009001999GF102991999999999999999999MA1101291999999REMMET051METAR SBLP 271300Z 06003KT 9999 FEW030 31/20 Q1013;
0120832880999992011112714004-13267-043417FM-15+0443SBLP V0201501N001512200019N0112651N1+03201+02101999999ADDGA1021+009001999GF102991999999999999999999MA1101291999999REMMET051METAR SBLP 271400Z 15003KT 9999 FEW030 32/21 Q1013;
0120832880999992011112715004-13267-043417FM-15+0443SBLP V0202101N001512200019N0112651N1+03001+01901999999ADDGA1041+009001999GF104991999999999999999999MA1101291999999REMMET051METAR SBLP 271500Z 21003KT 9999 SCT030 30/19 Q1013;
0120832880999992011112716004-13267-043417FM-15+0443SBLP V0209999C000012200019N0112651N1+03201+02101999999ADDGA1041+009001999GF104991999999999999999999MA1101081999999REMMET051METAR SBLP 271600Z 00000KT 9999 SCT030 32/21 Q1011;
0120832880999992011112717004-13267-043417FM-15+0443SBLP V0200301N002112200019N0112651N1+03301+02001999999ADDGA1041+009001999GF104991999999999999999999MA1101021999999REMMET051METAR SBLP 271700Z 03004KT 9999 SCT030 33/20 Q1010;
0120832880999992011112718004-13267-043417FM-15+0443SBLP V0200601N005112200019N0112651N1+03201+02101999999ADDGA1041+009001999GF104991999999999999999999MA1101021999999REMMET051METAR SBLP 271800Z 06010KT 9999 SCT030 32/21 Q1010;
0143832880999992011112719004-13267-043417FM-15+0443SBLP V0200901N002110300019N0112651N1+03301+01801999999ADDGA1021+009001999GA2071+030001999GF107991999999999999999999MA1100911999999REMMET058METAR SBLP 271900Z 09004KT 9999 FEW030 BKN100 33/18 Q1009;
0143832880999992011112720004-13267-043417FM-15+0443SBLP V0200401N003110300019N0112651N1+03101+02001999999ADDGA1021+009001999GA2071+030001999GF107991999999999999999999MA1100911999999REMMET058METAR SBLP 272000Z 04006KT 9999 FEW030 BKN100 31/20 Q1009;
0143832880999992011112721004-13267-043417FM-15+0443SBLP V0201201N002110300019N0112651N1+03001+02001999999ADDGA1021+009001999GA2071+030001999GF107991999999999999999999MA1100911999999REMMET058METAR SBLP 272100Z 12004KT 9999 FEW030 BKN100 30/20 Q1009;
0072832880999992011112810004-13267-043417FM-15+0443SBLP V0201501N002119999999Y0099001N1+02301+02101999999ADDMA1101191999999REMMET045METAR SBLP 281000Z 15004KT CAVOK 23/21 Q1012;
0072832880999992011112811004-13267-043417FM-15+0443SBLP V0201501N001519999999Y0099001N1+02501+02201999999ADDMA1101291999999REMMET045METAR SBLP 281100Z 15003KT CAVOK 25/22 Q1013;
0072832880999992011112812004-13267-043417FM-15+0443SBLP V0201201N001519999999Y0099001N1+02901+02101999999ADDMA1101391999999REMMET045METAR SBLP 281200Z 12003KT CAVOK 29/21 Q1014;
0120832880999992011112813004-13267-043417FM-15+0443SBLP V0200601N001512200019N0112651N1+03001+01901999999ADDGA1021+009001999GF102991999999999999999999MA1101291999999REMMET051METAR SBLP 281300Z 06003KT 9999 FEW030 30/19 Q1013;
0115832880999992011112814004-13267-043417FM-15+0443SBLP V0201401N001512200019N9999999N1+03101+01901999999ADDGA1021+009001999GF102991999999999999999999MA1101301999999REMMET046METAR SBLP 281400Z 14003KT FEW030 31/19 Q1013;
0120832880999992011112815004-13267-043417FM-15+0443SBLP V0209999C000012200019N0112651N1+03201+02001999999ADDGA1041+009001999GF104991999999999999999999MA1101191999999REMMET051METAR SBLP 281500Z 00000KT 9999 SCT030 32/20 Q1012;
0120832880999992011112816004-13267-043417FM-15+0443SBLP V0200901N003112200019N0112651N1+03201+01901999999ADDGA1041+009001999GF104991999999999999999999MA1101081999999REMMET051METAR SBLP 281600Z 09006KT 9999 SCT030 32/19 Q1011;
0120832880999992011112817004-13267-043417FM-15+0443SBLP V0200901N003112200019N0112651N1+03301+01901999999ADDGA1041+009001999GF104991999999999999999999MA1101021999999REMMET051METAR SBLP 281700Z 09006KT 9999 SCT030 33/19 Q1010;
0156832880999992011112818004-13267-043417FM-15+0443SBLP V0200901N006212200019N0090001N1+02901+02101999999ADDGA1041+009001999GA2021+012001091MA1101021999999MW1801MW2951REMMET066METAR SBLP 281800Z 09012KT 9000 -TSRA SCT030 FEW040CB 29/21 Q1010;EQDQ01+000022SCOTCV
0143832880999992011112819004-13267-043417FM-15+0443SBLP V0200901N003112200019N0112651N1+02801+02101999999ADDGA1041+009001999GA2041+030001999GF104991999999999999999999MA1100911999999REMMET058METAR SBLP 281900Z 09006KT 9999 SCT030 SCT100 28/21 Q1009;
0143832880999992011112820004-13267-043417FM-15+0443SBLP V0200901N003110300019N0112651N1+02701+02101999999ADDGA1041+009001999GA2071+030001999GF107991999999999999999999MA1100911999999REMMET058METAR SBLP 282000Z 09006KT 9999 SCT030 BKN100 27/21 Q1009;
0143832880999992011112821004-13267-043417FM-15+0443SBLP V0209999C000010300019N0112651N1+02701+02101999999ADDGA1041+009001999GA2071+030001999GF107991999999999999999999MA1101021999999REMMET058METAR SBLP 282100Z 00000KT 9999 SCT030 BKN100 27/21 Q1010;
0143832880999992011112910004-13267-043417FM-15+0443SBLP V0201501N002110060019N0112651N1+02201+02101999999ADDGA1071+006001999GA2071+030001999GF107991999999999999999999MA1101291999999REMMET058METAR SBLP 291000Z 15004KT 9999 BKN020 BKN100 22/21 Q1013;
0143832880999992011112911004-13267-043417FM-15+0443SBLP V0201801N002110300019N0112651N1+02501+02101999999ADDGA1041+006001999GA2071+030001999GF107991999999999999999999MA1101291999999REMMET058METAR SBLP 291100Z 18004KT 9999 SCT020 BKN100 25/21 Q1013;
0143832880999992011112912004-13267-043417FM-15+0443SBLP V0209999C000012200019N0112651N1+02601+02101999999ADDGA1041+006001999GA2041+030001999GF104991999999999999999999MA1101291999999REMMET058METAR SBLP 291200Z 00000KT 9999 SCT020 SCT100 26/21 Q1013;
0143832880999992011112913004-13267-043417FM-15+0443SBLP V0209999C000012200019N0112651N1+02801+02001999999ADDGA1041+006001999GA2041+030001999GF104991999999999999999999MA1101291999999REMMET058METAR SBLP 291300Z 00000KT 9999 SCT020 SCT100 28/20 Q1013;
0143832880999992011112914004-13267-043417FM-15+0443SBLP V0200901N002112200019N0112651N1+03001+02001999999ADDGA1041+009001999GA2041+030001999GF104991999999999999999999MA1101291999999REMMET058METAR SBLP 291400Z 09004KT 9999 SCT030 SCT100 30/20 Q1013;
0120832880999992011112915004-13267-043417FM-15+0443SBLP V0201501N002112200019N0112651N1+03101+01901999999ADDGA1041+009001999GF104991999999999999999999MA1101191999999REMMET051METAR SBLP 291500Z 15004KT 9999 SCT030 31/19 Q1012;
0120832880999992011112916004-13267-043417FM-15+0443SBLP V0201801N003112200019N0112651N1+03101+01901999999ADDGA1041+009001999GF104991999999999999999999MA1101081999999REMMET051METAR SBLP 291600Z 18006KT 9999 SCT030 31/19 Q1011;
0120832880999992011112917004-13267-043417FM-15+0443SBLP V0201801N003112200019N0112651N1+03201+01901999999ADDGA1041+009001999GF104991999999999999999999MA1101021999999REMMET051METAR SBLP 291700Z 18006KT 9999 SCT030 32/19 Q1010;
0143832880999992011112918004-13267-043417FM-15+0443SBLP V0201801N003112200019N0112651N1+03201+01901999999ADDGA1041+009001999GA2041+030001999GF104991999999999999999999MA1101021999999REMMET058METAR SBLP 291800Z 18006KT 9999 SCT030 SCT100 32/19 Q1010;
0143832880999992011112919004-13267-043417FM-15+0443SBLP V0200901N006210300019N0112651N1+03101+02001999999ADDGA1041+009001999GA2071+030001999GF107991999999999999999999MA1101021999999REMMET058METAR SBLP 291900Z 09012KT 9999 SCT030 BKN100 31/20 Q1010;
0143832880999992011112920004-13267-043417FM-15+0443SBLP V0200901N003110300019N0112651N1+02901+02101999999ADDGA1041+009001999GA2071+030001999GF107991999999999999999999MA1100911999999REMMET058METAR SBLP 292000Z 09006KT 9999 SCT030 BKN100 29/21 Q1009;
0143832880999992011112921004-13267-043417FM-15+0443SBLP V0209999C000010300019N0112651N1+02701+02101999999ADDGA1041+009001999GA2071+030001999GF107991999999999999999999MA1100911999999REMMET058METAR SBLP 292100Z 00000KT 9999 SCT030 BKN100 27/21 Q1009;
0143832880999992011113010004-13267-043417FM-15+0443SBLP V0209999C000010300019N0112651N1+02401+02001999999ADDGA1021+006001999GA2071+030001999GF107991999999999999999999MA1101191999999REMMET058METAR SBLP 301000Z 00000KT 9999 FEW020 BKN100 24/20 Q1012;
0143832880999992011113011004-13267-043417FM-15+0443SBLP V0209999C000010300019N0112651N1+02601+02001999999ADDGA1021+006001999GA2071+030001999GF107991999999999999999999MA1101191999999REMMET058METAR SBLP 301100Z 00000KT 9999 FEW020 BKN100 26/20 Q1012;
0143832880999992011113012004-13267-043417FM-15+0443SBLP V0200901N003112200019N0112651N1+02801+01901999999ADDGA1021+006001999GA2041+030001999GF104991999999999999999999MA1101191999999REMMET058METAR SBLP 301200Z 09006KT 9999 FEW020 SCT100 28/19 Q1012;
0143832880999992011113013004-13267-043417FM-15+0443SBLP V0200901N003112200019N0112651N1+02901+01901999999ADDGA1021+009001999GA2041+030001999GF104991999999999999999999MA1101191999999REMMET058METAR SBLP 301300Z 09006KT 9999 FEW030 SCT100 29/19 Q1012;
0120832880999992011113014004-13267-043417FM-15+0443SBLP V0200901N003112200019N0112651N1+03001+01901999999ADDGA1021+009001999GF102991999999999999999999MA1101191999999REMMET051METAR SBLP 301400Z 09006KT 9999 FEW030 30/19 Q1012;
0120832880999992011113015004-13267-043417FM-15+0443SBLP V0200901N003112200019N0112651N1+03101+01901999999ADDGA1021+009001999GF102991999999999999999999MA1101081999999REMMET051METAR SBLP 301500Z 09006KT 9999 FEW030 31/19 Q1011;
0143832880999992011113016004-13267-043417FM-15+0443SBLP V0201801N003110300019N0112651N1+03201+02001999999ADDGA1021+009001999GA2071+030001999GF107991999999999999999999MA1101021999999REMMET058METAR SBLP 301600Z 18006KT 9999 FEW030 BKN100 32/20 Q1010;
0120832880999992011113017004-13267-043417FM-15+0443SBLP V0201801N002112200019N0112651N1+03301+02001999999ADDGA1021+009001999GF102991999999999999999999MA1101021999999REMMET051METAR SBLP 301700Z 18004KT 9999 FEW030 33/20 Q1010;
0120832880999992011113018004-13267-043417FM-15+0443SBLP V0202401N003112200019N0112651N1+03201+02101999999ADDGA1041+009001999GF104991999999999999999999MA1100911999999REMMET051METAR SBLP 301800Z 24006KT 9999 SCT030 32/21 Q1009;
0120832880999992011113019004-13267-043417FM-15+0443SBLP V0202101N004112200019N0112651N1+03301+02001999999ADDGA1041+009001999GF104991999999999999999999MA1100911999999REMMET051METAR SBLP 301900Z 21008KT 9999 SCT030 33/20 Q1009;
0120832880999992011113020004-13267-043417FM-15+0443SBLP V0202101N003112200019N0112651N1+03101+02101999999ADDGA1021+009001999GF102991999999999999999999MA1100911999999REMMET051METAR SBLP 302000Z 21006KT 9999 FEW030 31/21 Q1009;
0120832880999992011113021004-13267-043417FM-15+0443SBLP V0200601N003112200019N0112651N1+02901+02101999999ADDGA1041+009001999GF104991999999999999999999MA1101021999999REMMET051METAR SBLP 302100Z 06006KT 9999 SCT030 29/21 Q1010;
0153832880999992011120110004-13267-043417FM-15+0443SBLP V0201801N004110045019N0112651N1+02201+02101999999ADDGA1071+004501999GA2071+030001999GF107991999999999999999999MA1101491999999MW1611REMMET062METAR SBLP 011000Z 18008KT 9999 -RA BKN015 BKN100 22/21 Q1015;
0143832880999992011120111004-13267-043417FM-15+0443SBLP V0201801N003110300019N0112651N1+02201+02101999999ADDGA1041+004501999GA2071+030001999GF107991999999999999999999MA1101591999999REMMET058METAR SBLP 011100Z 18006KT 9999 SCT015 BKN100 22/21 Q1016;
0157832880999992011120112004-13267-043417FM-15+0443SBLP V0201501N003110045019N0112651N1+02201+02201999999ADDGA1071+004501999GA2071+030001999GF107991999999999999999999MA1101591999999MW1611REMMET066METAR SBLP 011200Z COR 15006KT 9999 -RA BKN015 BKN100 22/22 Q1016;
0153832880999992011120113004-13267-043417FM-15+0443SBLP V0201801N004110045019N0112651N1+02201+02201999999ADDGA1071+004501999GA2081+030001999GF108991999999999999999999MA1101691999999MW1611REMMET062METAR SBLP 011300Z 18008KT 9999 -RA BKN015 OVC100 22/22 Q1017;
0143832880999992011120114004-13267-043417FM-15+0443SBLP V0201801N003110045019N0112651N1+02401+02201999999ADDGA1071+004501999GA2071+030001999GF107991999999999999999999MA1101591999999REMMET058METAR SBLP 011400Z 18006KT 9999 BKN015 BKN100 24/22 Q1016;
0146832880999992011120115004-13267-043417FM-15+0443SBLP V0201801N00311030001CN0112651N1+02501+02201999999ADDGA1041+004501999GA2071+030001999GF108991999999999999999999MA1101601999999REMMET061METAR SBLP 011500Z 18006KT 9999 01 SCT015 BKN100 25/22 Q1016;
0143832880999992011120116004-13267-043417FM-15+0443SBLP V0201801N003110300019N0112651N1+02501+02101999999ADDGA1041+006001999GA2071+030001999GF107991999999999999999999MA1101491999999REMMET058METAR SBLP 011600Z 18006KT 9999 SCT020 BKN100 25/21 Q1015;
0153832880999992011120117004-13267-043417FM-15+0443SBLP V0201801N003110300019N0090001N1+02501+02101999999ADDGA1041+006001999GA2071+030001999GF107991999999999999999999MA1101391999999MW1611REMMET062METAR SBLP 011700Z 18006KT 9000 -RA SCT020 BKN100 25/21 Q1014;
0143832880999992011120118004-13267-043417FM-15+0443SBLP V0201801N003110300019N0112651N1+02501+02101999999ADDGA1041+006001999GA2071+030001999GF107991999999999999999999MA1101391999999REMMET058METAR SBLP 011800Z 18006KT 9999 SCT020 BKN100 25/21 Q1014;
0143832880999992011120119004-13267-043417FM-15+0443SBLP V0201801N003110300019N0112651N1+02401+02101999999ADDGA1041+006001999GA2071+030001999GF107991999999999999999999MA1101291999999REMMET058METAR SBLP 011900Z 18006KT 9999 SCT020 BKN100 24/21 Q1013;
0143832880999992011120120004-13267-043417FM-15+0443SBLP V0201801N003110300019N0112651N1+02401+02101999999ADDGA1041+006001999GA2071+030001999GF107991999999999999999999MA1101291999999REMMET058METAR SBLP 012000Z 18006KT 9999 SCT020 BKN100 24/21 Q1013;
0143832880999992011120121004-13267-043417FM-15+0443SBLP V0201801N003110300019N0112651N1+02401+02101999999ADDGA1041+009001999GA2071+030001999GF107991999999999999999999MA1101391999999REMMET058METAR SBLP 012100Z 18006KT 9999 SCT030 BKN100 24/21 Q1014;
0143832880999992011120210004-13267-043417FM-15+0443SBLP V0209999C000010300019N0112651N1+02201+02101999999ADDGA1041+003001999GA2071+030001999GF107991999999999999999999MA1101291999999REMMET058METAR SBLP 021000Z 00000KT 9999 SCT010 BKN100 22/21 Q1013;
0143832880999992011120211004-13267-043417FM-15+0443SBLP V0209999C000010300019N0112651N1+02301+02101999999ADDGA1041+003001999GA2071+030001999GF107991999999999999999999MA1101391999999REMMET058METAR SBLP 021100Z 00000KT 9999 SCT010 BKN100 23/21 Q1014;
0143832880999992011120213004-13267-043417FM-15+0443SBLP V0209999C000010300019N0112651N1+02701+02101999999ADDGA1041+006001999GA2071+030001999GF107991999999999999999999MA1101391999999REMMET058METAR SBLP 021300Z 00000KT 9999 SCT020 BKN100 27/21 Q1014;
0143832880999992011120214004-13267-043417FM-15+0443SBLP V0209999C000012200019N0112651N1+02901+02101999999ADDGA1021+006001999GA2041+030001999GF104991999999999999999999MA1101291999999REMMET058METAR SBLP 021400Z 00000KT 9999 FEW020 SCT100 29/21 Q1013;
0143832880999992011120215004-13267-043417FM-15+0443SBLP V0209999C000012200019N0112651N1+02901+02101999999ADDGA1041+009001999GA2041+030001999GF104991999999999999999999MA1101191999999REMMET058METAR SBLP 021500Z 00000KT 9999 SCT030 SCT100 29/21 Q1012;
0143832880999992011120216004-13267-043417FM-15+0443SBLP V0202101N002112200019N0112651N1+03101+02201999999ADDGA1041+009001999GA2041+030001999GF104991999999999999999999MA1101081999999REMMET058METAR SBLP 021600Z 21004KT 9999 SCT030 SCT100 31/22 Q1011;
0139832880999992011120217004-13267-043417FM-15+0443SBLP V0201801N003112200019N0112651N1+03101+02301999999ADDGA1041+009001999GA2021+009001021MA1101021999999REMMET061METAR SBLP 021700Z 18006KT 9999 SCT030 FEW030TCU 31/23 Q1010;EQDQ01+000022SCOTCV
0136832880999992011120218004-13267-043417FM-15+0443SBLP V0201401N002112200019N0112651N1+03101+02201999999ADDGA1041+009001999GA2021+009001999MA1100911999999REMMET058METAR SBLP 021800Z 14004KT 9999 SCT030 FEW030 31/22 Q1009;EQDQ01+000022SCOTCV
0147832880999992011120219004-13267-043417FM-15+0443SBLP V0200701N00771009001CN0112651N1+02601+02201999999ADDGA1021+009001091GA2071+009001999MA1101021999999MW1171REMMET063METAR SBLP 021900Z 07015KT 9999 TS BKN030 FEW030CB 26/22 Q1010;EQDQ01+000022SCOTCV
0148832880999992011120220004-13267-043417FM-15+0443SBLP V0201501N002110300019N0112651N1+02501+02201999999ADDGA1021+009001999GA2071+030001999GF107991999999999999999999MA1100911999999REMMET063METAR SBLP 022000Z 15004KT 9999 FEW030 BKN100 25/22 Q1009 RETS;
0146832880999992011120221004-13267-043417FM-15+0443SBLP V0201201N00311030001CN0112651N1+02501+02201999999ADDGA1021+009001999GA2071+030001999GF108991999999999999999999MA1100901999999REMMET061METAR SBLP 022100Z 12006KT 9999 01 FEW030 BKN100 25/22 Q1009;
0072832880999992011120510004-13267-043417FM-15+0443SBLP V0201501N003119999999Y0099001N1+02401+02101999999ADDMA1101391999999REMMET045METAR SBLP 051000Z 15006KT CAVOK 24/21 Q1014;
0072832880999992011120511004-13267-043417FM-15+0443SBLP V0201201N003119999999Y0099001N1+02601+02301999999ADDMA1101391999999REMMET045METAR SBLP 051100Z 12006KT CAVOK 26/23 Q1014;
0072832880999992011120512004-13267-043417FM-15+0443SBLP V0200901N003119999999Y0099001N1+02801+02201999999ADDMA1101491999999REMMET045METAR SBLP 051200Z 09006KT CAVOK 28/22 Q1015;
0120832880999992011120513004-13267-043417FM-15+0443SBLP V0200801N003112200019N0112651N1+03001+02201999999ADDGA1041+009001999GF104991999999999999999999MA1101391999999REMMET051METAR SBLP 051300Z 08006KT 9999 SCT030 30/22 Q1014;
0120832880999992011120514004-13267-043417FM-15+0443SBLP V0200901N002112200019N0112651N1+03201+02101999999ADDGA1041+009001999GF104991999999999999999999MA1101391999999REMMET051METAR SBLP 051400Z 09004KT 9999 SCT030 32/21 Q1014;
0143832880999992011120515004-13267-043417FM-15+0443SBLP V0200901N002112200019N0112651N1+03101+01901999999ADDGA1041+009001999GA2041+030001999GF104991999999999999999999MA1101291999999REMMET058METAR SBLP 051500Z 09004KT 9999 SCT030 SCT100 31/19 Q1013;
0120832880999992011120516004-13267-043417FM-15+0443SBLP V0200901N003112200019N0112651N1+03201+01901999999ADDGA1041+009001999GF104991999999999999999999MA1101191999999REMMET051METAR SBLP 051600Z 09006KT 9999 SCT030 32/19 Q1012;
0120832880999992011120517004-13267-043417FM-15+0443SBLP V0200901N003112200019N0112651N1+03401+01801999999ADDGA1041+009001999GF104991999999999999999999MA1101081999999REMMET051METAR SBLP 051700Z 09006KT 9999 SCT030 34/18 Q1011;
0120832880999992011120518004-13267-043417FM-15+0443SBLP V0201801N003112200019N0112651N1+03401+01801999999ADDGA1041+009001999GF104991999999999999999999MA1101081999999REMMET051METAR SBLP 051800Z 18006KT 9999 SCT030 34/18 Q1011;
0120832880999992011120519004-13267-043417FM-15+0443SBLP V0201801N003112200019N0112651N1+03201+01901999999ADDGA1041+009001999GF104991999999999999999999MA1101021999999REMMET051METAR SBLP 051900Z 18006KT 9999 SCT030 32/19 Q1010;
0120832880999992011120520004-13267-043417FM-15+0443SBLP V0209999C000012200019N0112651N1+03001+01901999999ADDGA1041+009001999GF104991999999999999999999MA1101021999999REMMET051METAR SBLP 052000Z 00000KT 9999 SCT030 30/19 Q1010;
0120832880999992011120521004-13267-043417FM-15+0443SBLP V0209999C000012200019N0112651N1+02901+02001999999ADDGA1041+009001999GF104991999999999999999999MA1101081999999REMMET051METAR SBLP 052100Z 00000KT 9999 SCT030 29/20 Q1011;
0072832880999992011120610004-13267-043417FM-15+0443SBLP V0209999C000019999999Y0099001N1+02401+02001999999ADDMA1101391999999REMMET045METAR SBLP 061000Z 00000KT CAVOK 24/20 Q1014;
0072832880999992011120611004-13267-043417FM-15+0443SBLP V0209999C000019999999Y0099001N1+02601+01901999999ADDMA1101391999999REMMET045METAR SBLP 061100Z 00000KT CAVOK 26/19 Q1014;
0072832880999992011120612004-13267-043417FM-15+0443SBLP V0209999C000019999999Y0099001N1+02901+01801999999ADDMA1101491999999REMMET045METAR SBLP 061200Z 00000KT CAVOK 29/18 Q1015;
0072832880999992011120613004-13267-043417FM-15+0443SBLP V0209999C000019999999Y0099001N1+03001+01801999999ADDMA1101391999999REMMET045METAR SBLP 061300Z 00000KT CAVOK 30/18 Q1014;
0072832880999992011120614004-13267-043417FM-15+0443SBLP V0209999C000019999999Y0099001N1+03101+01801999999ADDMA1101391999999REMMET045METAR SBLP 061400Z 00000KT CAVOK 31/18 Q1014;
0120832880999992011120615004-13267-043417FM-15+0443SBLP V0200901N003112200019N0112651N1+03201+01801999999ADDGA1021+009001999GF102991999999999999999999MA1101291999999REMMET051METAR SBLP 061500Z 09006KT 9999 FEW030 32/18 Q1013;
0072832880999992011120616004-13267-043417FM-15+0443SBLP V0201001N002119999999Y0099001N1+03301+01801999999ADDMA1101191999999REMMET045METAR SBLP 061600Z 10004KT CAVOK 33/18 Q1012;
0072832880999992011120617004-13267-043417FM-15+0443SBLP V0200701N003119999999Y0099001N1+03301+01701999999ADDMA1101081999999REMMET045METAR SBLP 061700Z 07006KT CAVOK 33/17 Q1011;
0072832880999992011120618004-13267-043417FM-15+0443SBLP V0209999C000019999999Y0099001N1+03401+01701999999ADDMA1101021999999REMMET045METAR SBLP 061800Z 00000KT CAVOK 34/17 Q1010;
0072832880999992011120619004-13267-043417FM-15+0443SBLP V0201001N002119999999Y0099001N1+03301+01701999999ADDMA1101021999999REMMET045METAR SBLP 061900Z 10004KT CAVOK 33/17 Q1010;
0072832880999992011120620004-13267-043417FM-15+0443SBLP V0201201N002119999999Y0099001N1+03301+01401999999ADDMA1100911999999REMMET045METAR SBLP 062000Z 12004KT CAVOK 33/14 Q1009;
0072832880999992011120621004-13267-043417FM-15+0443SBLP V0200301N002119999999Y0099001N1+03101+01701999999ADDMA1100911999999REMMET045METAR SBLP 062100Z 03004KT CAVOK 31/17 Q1009;
0072832880999992011120710004-13267-043417FM-15+0443SBLP V0201301N003119999999Y0099001N1+02301+01901999999ADDMA1101391999999REMMET045METAR SBLP 071000Z 13006KT CAVOK 23/19 Q1014;
0072832880999992011120711004-13267-043417FM-15+0443SBLP V0200901N003119999999Y0099001N1+02701+02001999999ADDMA1101391999999REMMET045METAR SBLP 071100Z 09006KT CAVOK 27/20 Q1014;
0072832880999992011120712004-13267-043417FM-15+0443SBLP V0200901N006219999999Y0099001N1+02901+01901999999ADDMA1101391999999REMMET045METAR SBLP 071200Z 09012KT CAVOK 29/19 Q1014;
0072832880999992011120713004-13267-043417FM-15+0443SBLP V0200601N005119999999Y0099001N1+03001+01801999999ADDMA1101391999999REMMET045METAR SBLP 071300Z 06010KT CAVOK 30/18 Q1014;
0072832880999992011120714004-13267-043417FM-15+0443SBLP V0200901N004119999999Y0099001N1+03101+01801999999ADDMA1101391999999REMMET045METAR SBLP 071400Z 09008KT CAVOK 31/18 Q1014;
0120832880999992011120715004-13267-043417FM-15+0443SBLP V0200901N003112200019N0112651N1+03201+01701999999ADDGA1021+009001999GF102991999999999999999999MA1101291999999REMMET051METAR SBLP 071500Z 09006KT 9999 FEW030 32/17 Q1013;
0120832880999992011120716004-13267-043417FM-15+0443SBLP V0200901N003112200019N0112651N1+03301+01701999999ADDGA1021+009001999GF102991999999999999999999MA1101191999999REMMET051METAR SBLP 071600Z 09006KT 9999 FEW030 33/17 Q1012;
0120832880999992011120717004-13267-043417FM-15+0443SBLP V0200901N003112200019N0112651N1+03401+01701999999ADDGA1041+009001999GF104991999999999999999999MA1101081999999REMMET051METAR SBLP 071700Z 09006KT 9999 SCT030 34/17 Q1011;
0120832880999992011120718004-13267-043417FM-15+0443SBLP V0200901N003112200019N0112651N1+03401+01801999999ADDGA1041+009001999GF104991999999999999999999MA1101021999999REMMET051METAR SBLP 071800Z 09006KT 9999 SCT030 34/18 Q1010;
0120832880999992011120719004-13267-043417FM-15+0443SBLP V0200901N003112200019N0112651N1+03401+01801999999ADDGA1021+009001999GF102991999999999999999999MA1101021999999REMMET051METAR SBLP 071900Z 09006KT 9999 FEW030 34/18 Q1010;
0120832880999992011120720004-13267-043417FM-15+0443SBLP V0209999C000012200019N0112651N1+03301+01801999999ADDGA1021+009001999GF102991999999999999999999MA1101021999999REMMET051METAR SBLP 072000Z 00000KT 9999 FEW030 33/18 Q1010;
0120832880999992011120721004-13267-043417FM-15+0443SBLP V0209999C000012200019N0112651N1+03201+01801999999ADDGA1021+009001999GF102991999999999999999999MA1101021999999REMMET051METAR SBLP 072100Z 00000KT 9999 FEW030 32/18 Q1010;
0072832880999992011120810004-13267-043417FM-15+0443SBLP V0209999C000019999999Y0099001N1+02501+02001999999ADDMA1101391999999REMMET045METAR SBLP 081000Z 00000KT CAVOK 25/20 Q1014;
0076832880999992011120811004-13267-043417FM-15+0443SBLP V0209999C000019999999Y0099001N1+02801+02001999999ADDMA1101391999999REMMET049METAR SBLP 081100Z COR 00000KT CAVOK 28/20 Q1014;
0072832880999992011120812004-13267-043417FM-15+0443SBLP V0200901N003119999999Y0099001N1+03001+01901999999ADDMA1101391999999REMMET045METAR SBLP 081200Z 09006KT CAVOK 30/19 Q1014;
0072832880999992011120813004-13267-043417FM-15+0443SBLP V0200901N003119999999Y0099001N1+03101+01901999999ADDMA1101391999999REMMET045METAR SBLP 081300Z 09006KT CAVOK 31/19 Q1014;
0120832880999992011120814004-13267-043417FM-15+0443SBLP V0200901N003112200019N0112651N1+03201+01801999999ADDGA1021+009001999GF102991999999999999999999MA1101391999999REMMET051METAR SBLP 081400Z 09006KT 9999 FEW030 32/18 Q1014;
0120832880999992011120815004-13267-043417FM-15+0443SBLP V0200901N003112200019N0112651N1+03301+01801999999ADDGA1021+009001999GF102991999999999999999999MA1101291999999REMMET051METAR SBLP 081500Z 09006KT 9999 FEW030 33/18 Q1013;
0120832880999992011120816004-13267-043417FM-15+0443SBLP V0200901N002112200019N0112651N1+03301+01801999999ADDGA1041+009001999GF104991999999999999999999MA1101191999999REMMET051METAR SBLP 081600Z 09004KT 9999 SCT030 33/18 Q1012;
0120832880999992011120817004-13267-043417FM-15+0443SBLP V0202101N002112200019N0112651N1+03401+01801999999ADDGA1041+009001999GF104991999999999999999999MA1101081999999REMMET051METAR SBLP 081700Z 21004KT 9999 SCT030 34/18 Q1011;
0120832880999992011120818004-13267-043417FM-15+0443SBLP V0201801N003112200019N0112651N1+03401+01701999999ADDGA1041+009001999GF104991999999999999999999MA1101021999999REMMET051METAR SBLP 081800Z 18006KT 9999 SCT030 34/17 Q1010;
0120832880999992011120819004-13267-043417FM-15+0443SBLP V0201801N003112200019N0112651N1+03401+01601999999ADDGA1021+009001999GF102991999999999999999999MA1101021999999REMMET051METAR SBLP 081900Z 18006KT 9999 FEW030 34/16 Q1010;
0120832880999992011120820004-13267-043417FM-15+0443SBLP V0201801N003112200019N0112651N1+03301+01701999999ADDGA1021+009001999GF102991999999999999999999MA1100911999999REMMET051METAR SBLP 082000Z 18006KT 9999 FEW030 33/17 Q1009;
0072832880999992011120821004-13267-043417FM-15+0443SBLP V0209999C000019999999Y0099001N1+03201+01701999999ADDMA1100911999999REMMET045METAR SBLP 082100Z 00000KT CAVOK 32/17 Q1009;
0072832880999992011120910004-13267-043417FM-15+0443SBLP V0209999C000019999999Y0099001N1+02501+01801999999ADDMA1101291999999REMMET045METAR SBLP 091000Z 00000KT CAVOK 25/18 Q1013;
0072832880999992011120911004-13267-043417FM-15+0443SBLP V0200601N002119999999Y0099001N1+02801+01901999999ADDMA1101291999999REMMET045METAR SBLP 091100Z 06004KT CAVOK 28/19 Q1013;
0072832880999992011120912004-13267-043417FM-15+0443SBLP V0200901N002119999999Y0099001N1+03001+02001999999ADDMA1101291999999REMMET045METAR SBLP 091200Z 09004KT CAVOK 30/20 Q1013;
0072832880999992011120913004-13267-043417FM-15+0443SBLP V0200701N002119999999Y0099001N1+03201+01901999999ADDMA1101291999999REMMET045METAR SBLP 091300Z 07004KT CAVOK 32/19 Q1013;
0072832880999992011120914004-13267-043417FM-15+0443SBLP V0203601N003119999999Y0099001N1+03301+02001999999ADDMA1101291999999REMMET045METAR SBLP 091400Z 36006KT CAVOK 33/20 Q1013;
0120832880999992011120915004-13267-043417FM-15+0443SBLP V0202701N003112200019N0112651N1+03301+01901999999ADDGA1021+009001999GF102991999999999999999999MA1101191999999REMMET051METAR SBLP 091500Z 27006KT 9999 FEW030 33/19 Q1012;
0120832880999992011120916004-13267-043417FM-15+0443SBLP V0203601N003112200019N0112651N1+03401+01801999999ADDGA1021+009001999GF102991999999999999999999MA1101081999999REMMET051METAR SBLP 091600Z 36006KT 9999 FEW030 34/18 Q1011;
0120832880999992011120917004-13267-043417FM-15+0443SBLP V0203601N003112200019N0112651N1+03501+01801999999ADDGA1021+009001999GF102991999999999999999999MA1101021999999REMMET051METAR SBLP 091700Z 36006KT 9999 FEW030 35/18 Q1010;
0120832880999992011120918004-13267-043417FM-15+0443SBLP V0203601N003112200019N0112651N1+03501+01601999999ADDGA1021+009001999GF102991999999999999999999MA1100911999999REMMET051METAR SBLP 091800Z 36006KT 9999 FEW030 35/16 Q1009;
0120832880999992011120919004-13267-043417FM-15+0443SBLP V0203601N003112200019N0112651N1+03501+01801999999ADDGA1021+009001999GF102991999999999999999999MA1100911999999REMMET051METAR SBLP 091900Z 36006KT 9999 FEW030 35/18 Q1009;
0120832880999992011120920004-13267-043417FM-15+0443SBLP V0209999C000012200019N0112651N1+03401+01801999999ADDGA1021+009001999GF102991999999999999999999MA1100811999999REMMET051METAR SBLP 092000Z 00000KT 9999 FEW030 34/18 Q1008;
0072832880999992011120921004-13267-043417FM-15+0443SBLP V0209999C000019999999Y0099001N1+03301+01901999999ADDMA1100811999999REMMET045METAR SBLP 092100Z 00000KT CAVOK 33/19 Q1008;
0143832880999992011121210004-13267-043417FM-15+0443SBLP V0209999C000010300019N0112651N1+02201+02101999999ADDGA1041+003001999GA2071+030001999GF107991999999999999999999MA1101291999999REMMET058METAR SBLP 121000Z 00000KT 9999 SCT010 BKN100 22/21 Q1013;
0143832880999992011121211004-13267-043417FM-15+0443SBLP V0209999C000010300019N0112651N1+02201+02101999999ADDGA1041+003001999GA2071+030001999GF107991999999999999999999MA1101391999999REMMET058METAR SBLP 121100Z 00000KT 9999 SCT010 BKN100 22/21 Q1014;
0143832880999992011121212004-13267-043417FM-15+0443SBLP V0209999C000010300019N0112651N1+02301+02101999999ADDGA1041+003001999GA2071+030001999GF107991999999999999999999MA1101391999999REMMET058METAR SBLP 121200Z 00000KT 9999 SCT010 BKN100 23/21 Q1014;
0143832880999992011121213004-13267-043417FM-15+0443SBLP V0209999C000010300019N0112651N1+02401+02101999999ADDGA1041+004501999GA2071+030001999GF107991999999999999999999MA1101391999999REMMET058METAR SBLP 121300Z 00000KT 9999 SCT015 BKN100 24/21 Q1014;
0143832880999992011121214004-13267-043417FM-15+0443SBLP V0209999C000010300019N0112651N1+02701+02101999999ADDGA1041+006001999GA2071+030001999GF107991999999999999999999MA1101391999999REMMET058METAR SBLP 121400Z 00000KT 9999 SCT020 BKN100 27/21 Q1014;
0143832880999992011121215004-13267-043417FM-15+0443SBLP V0203601N003110300019N0112651N1+02801+02101999999ADDGA1021+006001999GA2071+030001999GF107991999999999999999999MA1101291999999REMMET058METAR SBLP 121500Z 36006KT 9999 FEW020 BKN100 28/21 Q1013;
0120832880999992011121216004-13267-043417FM-15+0443SBLP V0201201N003112200019N0112651N1+03001+02101999999ADDGA1041+009001999GF104991999999999999999999MA1101191999999REMMET051METAR SBLP 121600Z 12006KT 9999 SCT030 30/21 Q1012;
0120832880999992011121217004-13267-043417FM-15+0443SBLP V0203601N003112200019N0112651N1+03001+02201999999ADDGA1041+009001999GF104991999999999999999999MA1101081999999REMMET051METAR SBLP 121700Z 36006KT 9999 SCT030 30/22 Q1011;
0120832880999992011121218004-13267-043417FM-15+0443SBLP V0203601N003112200019N0112651N1+02901+02201999999ADDGA1021+009001999GF102991999999999999999999MA1101021999999REMMET051METAR SBLP 121800Z 36006KT 9999 FEW030 29/22 Q1010;
0120832880999992011121219004-13267-043417FM-15+0443SBLP V0203601N003112200019N0112651N1+02901+02201999999ADDGA1021+009001999GF102991999999999999999999MA1101021999999REMMET051METAR SBLP 121900Z 36006KT 9999 FEW030 29/22 Q1010;
0143832880999992011121220004-13267-043417FM-15+0443SBLP V0203301N003110300019N0112651N1+02801+02201999999ADDGA1021+009001999GA2071+030001999GF107991999999999999999999MA1101021999999REMMET058METAR SBLP 122000Z 33006KT 9999 FEW030 BKN100 28/22 Q1010;
0143832880999992011121221004-13267-043417FM-15+0443SBLP V0200401N002110300019N0112651N1+02801+02101999999ADDGA1021+006001999GA2071+030001999GF107991999999999999999999MA1101081999999REMMET058METAR SBLP 122100Z 04004KT 9999 FEW020 BKN100 28/21 Q1011;
0072832880999992011121310004-13267-043417FM-15+0443SBLP V0200301N002119999999Y0099001N1+02401+02101999999ADDMA1101391999999REMMET045METAR SBLP 131000Z 03004KT CAVOK 24/21 Q1014;
0143832880999992011121311004-13267-043417FM-15+0443SBLP V0200601N002110300019N0112651N1+02401+02201999999ADDGA1021+006001999GA2071+030001999GF107991999999999999999999MA1101391999999REMMET058METAR SBLP 131100Z 06004KT 9999 FEW020 BKN100 24/22 Q1014;
0147832880999992011121312004-13267-043417FM-15+0443SBLP V0203601N004110300019N0112651N1+02601+02201999999ADDGA1021+006001999GA2071+030001999GF107991999999999999999999MA1101491999999REMMET062METAR SBLP 131200Z COR 36008KT 9999 FEW020 BKN100 26/22 Q1015;
0143832880999992011121313004-13267-043417FM-15+0443SBLP V0203601N003110300019N0112651N1+02701+02301999999ADDGA1021+009001999GA2071+030001999GF107991999999999999999999MA1101391999999REMMET058METAR SBLP 131300Z 36006KT 9999 FEW030 BKN100 27/23 Q1014;
0143832880999992011121314004-13267-043417FM-15+0443SBLP V0203301N003110300019N0112651N1+02801+02101999999ADDGA1021+009001999GA2071+030001999GF107991999999999999999999MA1101391999999REMMET058METAR SBLP 131400Z 33006KT 9999 FEW030 BKN100 28/21 Q1014;
0143832880999992011121315004-13267-043417FM-15+0443SBLP V0203301N003112200019N0112651N1+02901+02101999999ADDGA1041+009001999GA2041+030001999GF104991999999999999999999MA1101291999999REMMET058METAR SBLP 131500Z 33006KT 9999 SCT030 SCT100 29/21 Q1013;
0143832880999992011121316004-13267-043417FM-15+0443SBLP V0203201N003110300019N0112651N1+03201+02001999999ADDGA1041+009001999GA2071+030001999GF107991999999999999999999MA1101191999999REMMET058METAR SBLP 131600Z 32006KT 9999 SCT030 BKN100 32/20 Q1012;
0143832880999992011121317004-13267-043417FM-15+0443SBLP V0203201N003112200019N0112651N1+03201+02101999999ADDGA1021+009001999GA2041+030001999GF104991999999999999999999MA1101081999999REMMET058METAR SBLP 131700Z 32006KT 9999 FEW030 SCT100 32/21 Q1011;
0143832880999992011121318004-13267-043417FM-15+0443SBLP V0200301N003112200019N0112651N1+03301+02001999999ADDGA1021+009001999GA2041+030001999GF104991999999999999999999MA1101021999999REMMET058METAR SBLP 131800Z 03006KT 9999 FEW030 SCT100 33/20 Q1010;
0143832880999992011121319004-13267-043417FM-15+0443SBLP V0209999C000012200019N0112651N1+03301+02001999999ADDGA1021+009001999GA2041+030001999GF104991999999999999999999MA1100911999999REMMET058METAR SBLP 131900Z 00000KT 9999 FEW030 SCT100 33/20 Q1009;
0143832880999992011121415004-13267-043417FM-15+0443SBLP V0203001N003112200019N0112651N1+03101+02101999999ADDGA1021+009001999GA2041+030001999GF104991999999999999999999MA1101191999999REMMET058METAR SBLP 141500Z 30006KT 9999 FEW030 SCT100 31/21 Q1012;
0143832880999992011121416004-13267-043417FM-15+0443SBLP V0202801N003110300019N0112651N1+03101+02101999999ADDGA1041+009001999GA2071+030001999GF107991999999999999999999MA1101191999999REMMET058METAR SBLP 141600Z 28006KT 9999 SCT030 BKN100 31/21 Q1012;
0143832880999992011121417004-13267-043417FM-15+0443SBLP V0202701N004110300019N0112651N1+02901+02201999999ADDGA1041+009001999GA2071+030001999GF107991999999999999999999MA1101081999999REMMET058METAR SBLP 141700Z 27008KT 9999 SCT030 BKN100 29/22 Q1011;
0181832880999992011121418004-13267-043417FM-15+0443SBLP V0200601N00621030001CN0090001N1+02601+02401999999ADDGA1021+009001091GA2071+009001999GA3071+030001999GF107991999999999999999999MA1101081999999MW1171REMMET074METAR SBLP 141800Z COR 06012KT 9000 TS FEW030CB BKN030 BKN100 26/24 Q1011;
0148832880999992011121419004-13267-043417FM-15+0443SBLP V0200901N002110300019N0112651N1+02401+02201999999ADDGA1041+009001999GA2071+030001999GF107991999999999999999999MA1100711999999REMMET063METAR SBLP 141900Z 09004KT 9999 SCT030 BKN100 24/22 Q1007 RETS;
0143832880999992011121420004-13267-043417FM-15+0443SBLP V0200901N002110300019N0112651N1+02401+02301999999ADDGA1021+009001999GA2071+030001999GF107991999999999999999999MA1101021999999REMMET058METAR SBLP 142000Z 09004KT 9999 FEW030 BKN100 24/23 Q1010;
0143832880999992011121421004-13267-043417FM-15+0443SBLP V0200601N001510300019N0112651N1+02401+02301999999ADDGA1021+009001999GA2071+030001999GF107991999999999999999999MA1101021999999REMMET058METAR SBLP 142100Z 06003KT 9999 FEW030 BKN100 24/23 Q1010;
0128832880999992011121510004-13267-043417FM-15+0443SBLP V0209999C000010030019N0005001N1+02301+02301999999ADDGA1091+003001999GF109991999999000251999999MA1101191999999MW1451REMMET053METAR SBLP 151000Z 00000KT 0500 FG VV010 23/23 Q1012;
0120832880999992011121511004-13267-043417FM-15+0443SBLP V0209999C000012200019N0112651N1+02501+02301999999ADDGA1041+006001999GF104991999999999999999999MA1101291999999REMMET051METAR SBLP 151100Z 00000KT 9999 SCT020 25/23 Q1013;
0120832880999992011121512004-13267-043417FM-15+0443SBLP V0209999C000012200019N0112651N1+02801+02201999999ADDGA1021+009001999GF102991999999999999999999MA1101291999999REMMET051METAR SBLP 151200Z 00000KT 9999 FEW030 28/22 Q1013;
0120832880999992011121513004-13267-043417FM-15+0443SBLP V0200601N002112200019N0112651N1+02901+02201999999ADDGA1021+009001999GF102991999999999999999999MA1101291999999REMMET051METAR SBLP 151300Z 06004KT 9999 FEW030 29/22 Q1013;
0120832880999992011121514004-13267-043417FM-15+0443SBLP V0200901N003112200019N0112651N1+03001+02201999999ADDGA1021+009001999GF102991999999999999999999MA1101291999999REMMET051METAR SBLP 151400Z 09006KT 9999 FEW030 30/22 Q1013;
0143832880999992011121515004-13267-043417FM-15+0443SBLP V0200301N003110300019N0112651N1+03101+02301999999ADDGA1021+009001999GA2071+030001999GF107991999999999999999999MA1101191999999REMMET058METAR SBLP 151500Z 03006KT 9999 FEW030 BKN100 31/23 Q1012;
0143832880999992011121516004-13267-043417FM-15+0443SBLP V0203601N003110300019N0112651N1+03101+02301999999ADDGA1021+009001999GA2071+030001999GF107991999999999999999999MA1101081999999REMMET058METAR SBLP 151600Z 36006KT 9999 FEW030 BKN100 31/23 Q1011;
0143832880999992011121517004-13267-043417FM-15+0443SBLP V0203301N003110300019N0112651N1+03201+02301999999ADDGA1041+009001999GA2071+030001999GF107991999999999999999999MA1101021999999REMMET058METAR SBLP 151700Z 33006KT 9999 SCT030 BKN100 32/23 Q1010;
0143832880999992011121518004-13267-043417FM-15+0443SBLP V0201201N003110300019N0112651N1+03301+02301999999ADDGA1041+009001999GA2071+030001999GF107991999999999999999999MA1101021999999REMMET058METAR SBLP 151800Z 12006KT 9999 SCT030 BKN100 33/23 Q1010;
0143832880999992011121519004-13267-043417FM-15+0443SBLP V0209999C000010300019N0112651N1+03101+02101999999ADDGA1021+009001999GA2071+030001999GF107991999999999999999999MA1100911999999REMMET058METAR SBLP 151900Z 00000KT 9999 FEW030 BKN100 31/21 Q1009;
0143832880999992011121520004-13267-043417FM-15+0443SBLP V0209999C000010300019N0112651N1+02901+02201999999ADDGA1021+009001999GA2071+030001999GF107991999999999999999999MA1100911999999REMMET058METAR SBLP 152000Z 00000KT 9999 FEW030 BKN100 29/22 Q1009;
0143832880999992011121521004-13267-043417FM-15+0443SBLP V0209999C000010300019N0112651N1+02801+02101999999ADDGA1021+009001999GA2071+030001999GF107991999999999999999999MA1101021999999REMMET058METAR SBLP 152100Z 00000KT 9999 FEW030 BKN100 28/21 Q1010;
0072832880999992011121610004-13267-043417FM-15+0443SBLP V0209999C000019999999Y0099001N1+02201+02201999999ADDMA1101291999999REMMET045METAR SBLP 161000Z 00000KT CAVOK 22/22 Q1013;
0143832880999992011121611004-13267-043417FM-15+0443SBLP V0209999C000010300019N0112651N1+02401+02101999999ADDGA1021+006001999GA2071+030001999GF107991999999999999999999MA1101291999999REMMET058METAR SBLP 161100Z 00000KT 9999 FEW020 BKN100 24/21 Q1013;
0143832880999992011121612004-13267-043417FM-15+0443SBLP V0209999C000010300019N0112651N1+02601+02101999999ADDGA1021+006001999GA2071+030001999GF107991999999999999999999MA1101391999999REMMET058METAR SBLP 161200Z 00000KT 9999 FEW020 BKN100 26/21 Q1014;
0143832880999992011121613004-13267-043417FM-15+0443SBLP V0209999C000012200019N0112651N1+02801+02201999999ADDGA1021+006001999GA2041+030001999GF104991999999999999999999MA1101391999999REMMET058METAR SBLP 161300Z 00000KT 9999 FEW020 SCT100 28/22 Q1014;
0143832880999992011121614004-13267-043417FM-15+0443SBLP V0209999C000012200019N0112651N1+03001+02101999999ADDGA1021+006001999GA2041+030001999GF104991999999999999999999MA1101291999999REMMET058METAR SBLP 161400Z 00000KT 9999 FEW020 SCT100 30/21 Q1013;
0143832880999992011121615004-13267-043417FM-15+0443SBLP V0209999C000012200019N0112651N1+03101+02001999999ADDGA1021+009001999GA2041+030001999GF104991999999999999999999MA1101291999999REMMET058METAR SBLP 161500Z 00000KT 9999 FEW030 SCT100 31/20 Q1013;
0120832880999992011121616004-13267-043417FM-15+0443SBLP V0203601N003112200019N0112651N1+03101+02001999999ADDGA1041+009001999GF104991999999999999999999MA1101191999999REMMET051METAR SBLP 161600Z 36006KT 9999 SCT030 31/20 Q1012;
0120832880999992011121617004-13267-043417FM-15+0443SBLP V0209999C000012200019N0112651N1+03201+02101999999ADDGA1041+009001999GF104991999999999999999999MA1101081999999REMMET051METAR SBLP 161700Z 00000KT 9999 SCT030 32/21 Q1011;
0120832880999992011121618004-13267-043417FM-15+0443SBLP V0209999C000012200019N0112651N1+03301+02001999999ADDGA1021+009001999GF102991999999999999999999MA1101021999999REMMET051METAR SBLP 161800Z 00000KT 9999 FEW030 33/20 Q1010;
0120832880999992011121619004-13267-043417FM-15+0443SBLP V0203301N003112200019N0112651N1+03201+02101999999ADDGA1021+009001999GF102991999999999999999999MA1100911999999REMMET051METAR SBLP 161900Z 33006KT 9999 FEW030 32/21 Q1009;
0120832880999992011121620004-13267-043417FM-15+0443SBLP V0202901N003112200019N0112651N1+03001+02101999999ADDGA1021+009001999GF102991999999999999999999MA1100911999999REMMET051METAR SBLP 162000Z 29006KT 9999 FEW030 30/21 Q1009;
0143832880999992011121621004-13267-043417FM-15+0443SBLP V0201801N002110300019N0112651N1+02901+02201999999ADDGA1021+009001999GA2071+030001999GF107991999999999999999999MA1101021999999REMMET058METAR SBLP 162100Z 18004KT 9999 FEW030 BKN100 29/22 Q1010;
0072832880999992011121910004-13267-043417FM-15+0443SBLP V0209999C000019999999Y0099001N1+02401+01901999999ADDMA1101391999999REMMET045METAR SBLP 191000Z 00000KT CAVOK 24/19 Q1014;
0072832880999992011121911004-13267-043417FM-15+0443SBLP V0209999C000019999999Y0099001N1+02701+01901999999ADDMA1101391999999REMMET045METAR SBLP 191100Z 00000KT CAVOK 27/19 Q1014;
0072832880999992011121912004-13267-043417FM-15+0443SBLP V0209999C000019999999Y0099001N1+02901+01901999999ADDMA1101491999999REMMET045METAR SBLP 191200Z 00000KT CAVOK 29/19 Q1015;
0072832880999992011121913004-13267-043417FM-15+0443SBLP V0209999C000019999999Y0099001N1+03001+01701999999ADDMA1101491999999REMMET045METAR SBLP 191300Z 00000KT CAVOK 30/17 Q1015;
0072832880999992011121914004-13267-043417FM-15+0443SBLP V0209999C000019999999Y0099001N1+03101+01801999999ADDMA1101391999999REMMET045METAR SBLP 191400Z 00000KT CAVOK 31/18 Q1014;
0072832880999992011121915004-13267-043417FM-15+0443SBLP V0209999C000019999999Y0099001N1+03201+01701999999ADDMA1101291999999REMMET045METAR SBLP 191500Z 00000KT CAVOK 32/17 Q1013;
0120832880999992011121916004-13267-043417FM-15+0443SBLP V0203601N003112200019N0112651N1+03301+01801999999ADDGA1021+009001999GF102991999999999999999999MA1101191999999REMMET051METAR SBLP 191600Z 36006KT 9999 FEW030 33/18 Q1012;
0120832880999992011121917004-13267-043417FM-15+0443SBLP V0203601N003112200019N0112651N1+03401+01901999999ADDGA1021+009001999GF102991999999999999999999MA1101081999999REMMET051METAR SBLP 191700Z 36006KT 9999 FEW030 34/19 Q1011;
0120832880999992011121918004-13267-043417FM-15+0443SBLP V0203601N003112200019N0112651N1+03501+01901999999ADDGA1041+009001999GF104991999999999999999999MA1101081999999REMMET051METAR SBLP 191800Z 36006KT 9999 SCT030 35/19 Q1011;
0120832880999992011121919004-13267-043417FM-15+0443SBLP V0203601N003112200019N0112651N1+03401+01901999999ADDGA1021+009001999GF102991999999999999999999MA1101021999999REMMET051METAR SBLP 191900Z 36006KT 9999 FEW030 34/19 Q1010;
0120832880999992011121920004-13267-043417FM-15+0443SBLP V0209999C000012200019N0112651N1+03301+01901999999ADDGA1021+009001999GF102991999999999999999999MA1101021999999REMMET051METAR SBLP 192000Z 00000KT 9999 FEW030 33/19 Q1010;
0120832880999992011121921004-13267-043417FM-15+0443SBLP V0209999C000012200019N0112651N1+03101+01901999999ADDGA1021+009001999GF102991999999999999999999MA1101081999999REMMET051METAR SBLP 192100Z 00000KT 9999 FEW030 31/19 Q1011;
0072832880999992011122010004-13267-043417FM-15+0443SBLP V0209999C000019999999Y0099001N1+02401+02101999999ADDMA1101491999999REMMET045METAR SBLP 201000Z 00000KT CAVOK 24/21 Q1015;
0072832880999992011122011004-13267-043417FM-15+0443SBLP V0201801N003119999999Y0099001N1+02701+02101999999ADDMA1101591999999REMMET045METAR SBLP 201100Z 18006KT CAVOK 27/21 Q1016;
0072832880999992011122012004-13267-043417FM-15+0443SBLP V0201801N003119999999Y0099001N1+02901+02001999999ADDMA1101591999999REMMET045METAR SBLP 201200Z 18006KT CAVOK 29/20 Q1016;
0072832880999992011122013004-13267-043417FM-15+0443SBLP V0201801N003119999999Y0099001N1+03001+02001999999ADDMA1101591999999REMMET045METAR SBLP 201300Z 18006KT CAVOK 30/20 Q1016;
0120832880999992011122015004-13267-043417FM-15+0443SBLP V0201801N003112200019N0112651N1+03301+01901999999ADDGA1021+009001999GF102991999999999999999999MA1101391999999REMMET051METAR SBLP 201500Z 18006KT 9999 FEW030 33/19 Q1014;
0120832880999992011122016004-13267-043417FM-15+0443SBLP V0201401N003112200019N0112651N1+03301+01701999999ADDGA1021+009001999GF102991999999999999999999MA1101391999999REMMET051METAR SBLP 201600Z 14006KT 9999 FEW030 33/17 Q1014;
0124832880999992011122017004-13267-043417FM-15+0443SBLP V0209999C000012200019N0112651N1+03401+01901999999ADDGA1021+009001999GF102991999999999999999999MA1101291999999REMMET055METAR SBLP 201700Z COR 00000KT 9999 FEW030 34/19 Q1013;
0120832880999992011122019004-13267-043417FM-15+0443SBLP V0209999C000012200019N0112651N1+03101+01901999999ADDGA1021+009001999GF102991999999999999999999MA1101081999999REMMET051METAR SBLP 201900Z 00000KT 9999 FEW030 31/19 Q1011;
0072832880999992011122020004-13267-043417FM-15+0443SBLP V0201801N003119999999Y0099001N1+02901+01901999999ADDMA1101081999999REMMET045METAR SBLP 202000Z 18006KT CAVOK 29/19 Q1011;
0076832880999992011122021004-13267-043417FM-15+0443SBLP V0209999C000019999999Y0099001N1+02801+02101999999ADDMA1101081999999REMMET049METAR SBLP 202100Z COR 00000KT CAVOK 28/21 Q1011;
0072832880999992011122110004-13267-043417FM-15+0443SBLP V0209999C000019999999Y0099001N1+02201+02001999999ADDMA1101291999999REMMET045METAR SBLP 211000Z 00000KT CAVOK 22/20 Q1013;
0072832880999992011122111004-13267-043417FM-15+0443SBLP V0209999C000019999999Y0099001N1+02701+01801999999ADDMA1101391999999REMMET045METAR SBLP 211100Z 00000KT CAVOK 27/18 Q1014;
0072832880999992011122112004-13267-043417FM-15+0443SBLP V0209999C000019999999Y0099001N1+02901+01801999999ADDMA1101391999999REMMET045METAR SBLP 211200Z 00000KT CAVOK 29/18 Q1014;
0072832880999992011122113004-13267-043417FM-15+0443SBLP V0209999C000019999999Y0099001N1+03001+01701999999ADDMA1101391999999REMMET045METAR SBLP 211300Z 00000KT CAVOK 30/17 Q1014;
0072832880999992011122114004-13267-043417FM-15+0443SBLP V0200901N003119999999Y0099001N1+03001+01701999999ADDMA1101391999999REMMET045METAR SBLP 211400Z 09006KT CAVOK 30/17 Q1014;
0072832880999992011122115004-13267-043417FM-15+0443SBLP V0209999C000019999999Y0099001N1+03201+01701999999ADDMA1101291999999REMMET045METAR SBLP 211500Z 00000KT CAVOK 32/17 Q1013;
0072832880999992011122116004-13267-043417FM-15+0443SBLP V0203601N003119999999Y0099001N1+03401+01701999999ADDMA1101191999999REMMET045METAR SBLP 211600Z 36006KT CAVOK 34/17 Q1012;
0072832880999992011122117004-13267-043417FM-15+0443SBLP V0202701N003119999999Y0099001N1+03401+01701999999ADDMA1101021999999REMMET045METAR SBLP 211700Z 27006KT CAVOK 34/17 Q1010;
0120832880999992011122118004-13267-043417FM-15+0443SBLP V0202701N003112200019N0112651N1+03501+01701999999ADDGA1021+009001999GF102991999999999999999999MA1101021999999REMMET051METAR SBLP 211800Z 27006KT 9999 FEW030 35/17 Q1010;
0120832880999992011122119004-13267-043417FM-15+0443SBLP V0202701N003112200019N0112651N1+03401+01801999999ADDGA1021+009001999GF102991999999999999999999MA1101021999999REMMET051METAR SBLP 211900Z 27006KT 9999 FEW030 34/18 Q1010;
0120832880999992011122120004-13267-043417FM-15+0443SBLP V0201801N003112200019N0112651N1+03301+01801999999ADDGA1021+009001999GF102991999999999999999999MA1101021999999REMMET051METAR SBLP 212000Z 18006KT 9999 FEW030 33/18 Q1010;
0120832880999992011122121004-13267-043417FM-15+0443SBLP V0201801N003112200019N0112651N1+03101+01901999999ADDGA1021+009001999GF102991999999999999999999MA1101021999999REMMET051METAR SBLP 212100Z 18006KT 9999 FEW030 31/19 Q1010;
0120832880999992011122210004-13267-043417FM-15+0443SBLP V0201801N003112200019N0112651N1+02201+02101999999ADDGA1021+006001999GF102991999999999999999999MA1101291999999REMMET051METAR SBLP 221000Z 18006KT 9999 FEW020 22/21 Q1013;
0120832880999992011122211004-13267-043417FM-15+0443SBLP V0201801N003112200019N0112651N1+02401+02001999999ADDGA1041+006001999GF104991999999999999999999MA1101291999999REMMET051METAR SBLP 221100Z 18006KT 9999 SCT020 24/20 Q1013;
0120832880999992011122212004-13267-043417FM-15+0443SBLP V0201801N003112200019N0112651N1+02701+02001999999ADDGA1041+006001999GF104991999999999999999999MA1101391999999REMMET051METAR SBLP 221200Z 18006KT 9999 SCT020 27/20 Q1014;
0120832880999992011122213004-13267-043417FM-15+0443SBLP V0201801N003112200019N0112651N1+02901+01901999999ADDGA1021+006001999GF102991999999999999999999MA1101391999999REMMET051METAR SBLP 221300Z 18006KT 9999 FEW020 29/19 Q1014;
0120832880999992011122214004-13267-043417FM-15+0443SBLP V0200901N003112200019N0112651N1+03001+01901999999ADDGA1021+009001999GF102991999999999999999999MA1101391999999REMMET051METAR SBLP 221400Z 09006KT 9999 FEW030 30/19 Q1014;
0120832880999992011122215004-13267-043417FM-15+0443SBLP V0200901N003112200019N0112651N1+03101+01801999999ADDGA1021+009001999GF102991999999999999999999MA1101291999999REMMET051METAR SBLP 221500Z 09006KT 9999 FEW030 31/18 Q1013;
0124832880999992011122216004-13267-043417FM-15+0443SBLP V0202001N003112200019N0112651N1+03201+01801999999ADDGA1021+009001999GF102991999999999999999999MA1101191999999REMMET055METAR SBLP 221600Z COR 20006KT 9999 FEW030 32/18 Q1012;
0120832880999992011122217004-13267-043417FM-15+0443SBLP V0201201N003112200019N0112651N1+03301+01801999999ADDGA1021+009001999GF102991999999999999999999MA1101191999999REMMET051METAR SBLP 221700Z 12006KT 9999 FEW030 33/18 Q1012;
0124832880999992011122218004-13267-043417FM-15+0443SBLP V0201801N003112200019N0112651N1+03301+01801999999ADDGA1021+009001999GF102991999999999999999999MA1101081999999REMMET055METAR SBLP 221800Z COR 18006KT 9999 FEW030 33/18 Q1011;
0120832880999992011122219004-13267-043417FM-15+0443SBLP V0209999C000012200019N0112651N1+03201+01901999999ADDGA1021+009001999GF102991999999999999999999MA1101081999999REMMET051METAR SBLP 221900Z 00000KT 9999 FEW030 32/19 Q1011;
0072832880999992011122220004-13267-043417FM-15+0443SBLP V0209999C000019999999Y0099001N1+03001+01901999999ADDMA1101081999999REMMET045METAR SBLP 222000Z 00000KT CAVOK 30/19 Q1011;
0072832880999992011122221004-13267-043417FM-15+0443SBLP V0201801N003119999999Y0099001N1+02901+01901999999ADDMA1101081999999REMMET045METAR SBLP 222100Z 18006KT CAVOK 29/19 Q1011;
0072832880999992011122310004-13267-043417FM-15+0443SBLP V0209999C000019999999Y0099001N1+02201+02001999999ADDMA1101391999999REMMET045METAR SBLP 231000Z 00000KT CAVOK 22/20 Q1014;
0072832880999992011122311004-13267-043417FM-15+0443SBLP V0201501N003119999999Y0099001N1+02401+02001999999ADDMA1101391999999REMMET045METAR SBLP 231100Z 15006KT CAVOK 24/20 Q1014;
0072832880999992011122312004-13267-043417FM-15+0443SBLP V0209999C000019999999Y0099001N1+02601+02001999999ADDMA1101491999999REMMET045METAR SBLP 231200Z 00000KT CAVOK 26/20 Q1015;
0143832880999992011122313004-13267-043417FM-15+0443SBLP V0200901N003110300019N0112651N1+02901+01801999999ADDGA1021+009001999GA2071+030001999GF107991999999999999999999MA1101491999999REMMET058METAR SBLP 231300Z 09006KT 9999 FEW030 BKN100 29/18 Q1015;
0143832880999992011122314004-13267-043417FM-15+0443SBLP V0209999C000012200019N0112651N1+03001+01501999999ADDGA1021+009001999GA2041+030001999GF104991999999999999999999MA1101391999999REMMET058METAR SBLP 231400Z 00000KT 9999 FEW030 SCT100 30/15 Q1014;
0143832880999992011122315004-13267-043417FM-15+0443SBLP V0209999C000012200019N0112651N1+03001+01901999999ADDGA1021+009001999GA2041+030001999GF104991999999999999999999MA1101391999999REMMET058METAR SBLP 231500Z 00000KT 9999 FEW030 SCT100 30/19 Q1014;
0143832880999992011122317004-13267-043417FM-15+0443SBLP V0200901N003112200019N0112651N1+03201+01901999999ADDGA1021+009001999GA2041+030001999GF104991999999999999999999MA1101291999999REMMET058METAR SBLP 231700Z 09006KT 9999 FEW030 SCT100 32/19 Q1013;
0143832880999992011122318004-13267-043417FM-15+0443SBLP V0200901N003112200019N0112651N1+03301+01901999999ADDGA1021+009001999GA2041+030001999GF104991999999999999999999MA1101191999999REMMET058METAR SBLP 231800Z 09006KT 9999 FEW030 SCT100 33/19 Q1012;
0143832880999992011122319004-13267-043417FM-15+0443SBLP V0209999C000012200019N0112651N1+03201+01901999999ADDGA1021+009001999GA2041+030001999GF104991999999999999999999MA1101081999999REMMET058METAR SBLP 231900Z 00000KT 9999 FEW030 SCT100 32/19 Q1011;
0143832880999992011122320004-13267-043417FM-15+0443SBLP V0209999C000012200019N0112651N1+03101+01901999999ADDGA1021+009001999GA2041+030001999GF104991999999999999999999MA1101081999999REMMET058METAR SBLP 232000Z 00000KT 9999 FEW030 SCT100 31/19 Q1011;
0143832880999992011122321004-13267-043417FM-15+0443SBLP V0209999C000012200019N0112651N1+03101+01901999999ADDGA1021+009001999GA2041+030001999GF104991999999999999999999MA1101081999999REMMET058METAR SBLP 232100Z 00000KT 9999 FEW030 SCT100 31/19 Q1011;
0072832880999992011122610004-13267-043417FM-15+0443SBLP V0209999C000019999999Y0099001N1+02401+02001999999ADDMA1101391999999REMMET045METAR SBLP 261000Z 00000KT CAVOK 24/20 Q1014;
0072832880999992011122611004-13267-043417FM-15+0443SBLP V0209999C000019999999Y0099001N1+02701+01901999999ADDMA1101491999999REMMET045METAR SBLP 261100Z 00000KT CAVOK 27/19 Q1015;
0072832880999992011122612004-13267-043417FM-15+0443SBLP V0209999C000019999999Y0099001N1+02901+01901999999ADDMA1101491999999REMMET045METAR SBLP 261200Z 00000KT CAVOK 29/19 Q1015;
0072832880999992011122613004-13267-043417FM-15+0443SBLP V0209999C000019999999Y0099001N1+03101+01901999999ADDMA1101591999999REMMET045METAR SBLP 261300Z 00000KT CAVOK 31/19 Q1016;
0072832880999992011122614004-13267-043417FM-15+0443SBLP V0209999C000019999999Y0099001N1+03301+01801999999ADDMA1101491999999REMMET045METAR SBLP 261400Z 00000KT CAVOK 33/18 Q1015;
0120832880999992011122615004-13267-043417FM-15+0443SBLP V0201801N003112200019N0112651N1+03301+01801999999ADDGA1021+009001999GF102991999999999999999999MA1101491999999REMMET051METAR SBLP 261500Z 18006KT 9999 FEW030 33/18 Q1015;
0120832880999992011122616004-13267-043417FM-15+0443SBLP V0202701N003112200019N0112651N1+03401+01801999999ADDGA1021+009001999GF102991999999999999999999MA1101391999999REMMET051METAR SBLP 261600Z 27006KT 9999 FEW030 34/18 Q1014;
0120832880999992011122618004-13267-043417FM-15+0443SBLP V0209999C000012200019N0112651N1+03501+01801999999ADDGA1021+009001999GF102991999999999999999999MA1101191999999REMMET051METAR SBLP 261800Z 00000KT 9999 FEW030 35/18 Q1012;
0120832880999992011122619004-13267-043417FM-15+0443SBLP V0209999C000012200019N0112651N1+03501+01701999999ADDGA1021+009001999GF102991999999999999999999MA1101081999999REMMET051METAR SBLP 261900Z 00000KT 9999 FEW030 35/17 Q1011;
0120832880999992011122620004-13267-043417FM-15+0443SBLP V0200901N003112200019N0112651N1+03301+01701999999ADDGA1041+009001999GF104991999999999999999999MA1101191999999REMMET051METAR SBLP 262000Z 09006KT 9999 SCT030 33/17 Q1012;
0120832880999992011122621004-13267-043417FM-15+0443SBLP V0209999C000012200019N0112651N1+03201+01901999999ADDGA1021+009001999GF102991999999999999999999MA1101191999999REMMET051METAR SBLP 262100Z 00000KT 9999 FEW030 32/19 Q1012;
0072832880999992011122710004-13267-043417FM-15+0443SBLP V0209999C000019999999Y0099001N1+02401+01901999999ADDMA1101591999999REMMET045METAR SBLP 271000Z 00000KT CAVOK 24/19 Q1016;
0072832880999992011122711004-13267-043417FM-15+0443SBLP V0209999C000019999999Y0099001N1+02601+01901999999ADDMA1101691999999REMMET045METAR SBLP 271100Z 00000KT CAVOK 26/19 Q1017;
0072832880999992011122712004-13267-043417FM-15+0443SBLP V0209999C000019999999Y0099001N1+02801+01901999999ADDMA1101691999999REMMET045METAR SBLP 271200Z 00000KT CAVOK 28/19 Q1017;
0072832880999992011122713004-13267-043417FM-15+0443SBLP V0209999C000019999999Y0099001N1+03001+01901999999ADDMA1101691999999REMMET045METAR SBLP 271300Z 00000KT CAVOK 30/19 Q1017;
0072832880999992011122714004-13267-043417FM-15+0443SBLP V0209999C000019999999Y0099001N1+03101+01901999999ADDMA1101691999999REMMET045METAR SBLP 271400Z 00000KT CAVOK 31/19 Q1017;
0120832880999992011122715004-13267-043417FM-15+0443SBLP V0200901N003112200019N0112651N1+03301+01801999999ADDGA1021+009001999GF102991999999999999999999MA1101591999999REMMET051METAR SBLP 271500Z 09006KT 9999 FEW030 33/18 Q1016;
0120832880999992011122716004-13267-043417FM-15+0443SBLP V0209999C000012200019N0112651N1+03301+01801999999ADDGA1021+009001999GF102991999999999999999999MA1101491999999REMMET051METAR SBLP 271600Z 00000KT 9999 FEW030 33/18 Q1015;
0120832880999992011122717004-13267-043417FM-15+0443SBLP V0209999C000012200019N0112651N1+03401+01901999999ADDGA1021+009001999GF102991999999999999999999MA1101391999999REMMET051METAR SBLP 271700Z 00000KT 9999 FEW030 34/19 Q1014;
0120832880999992011122718004-13267-043417FM-15+0443SBLP V0202401N003112200019N0112651N1+03301+01901999999ADDGA1021+009001999GF102991999999999999999999MA1101291999999REMMET051METAR SBLP 271800Z 24006KT 9999 FEW030 33/19 Q1013;
0072832880999992011122719004-13267-043417FM-15+0443SBLP V0209999C000019999999Y0099001N1+03201+01901999999ADDMA1101291999999REMMET045METAR SBLP 271900Z 00000KT CAVOK 32/19 Q1013;
0076832880999992011122720004-13267-043417FM-15+0443SBLP V0209999C000019999999Y0099001N1+03001+01901999999ADDMA1101191999999REMMET049METAR SBLP 272000Z COR 00000KT CAVOK 30/19 Q1012;
0076832880999992011122721004-13267-043417FM-15+0443SBLP V0209999C000019999999Y0099001N1+02901+01901999999ADDMA1101191999999REMMET049METAR SBLP 272100Z COR 00000KT CAVOK 29/19 Q1012;
0072832880999992011122810004-13267-043417FM-15+0443SBLP V0209999C000019999999Y0099001N1+02401+02001999999ADDMA1101691999999REMMET045METAR SBLP 281000Z 00000KT CAVOK 24/20 Q1017;
0072832880999992011122811004-13267-043417FM-15+0443SBLP V0209999C000019999999Y0099001N1+02601+02001999999ADDMA1101691999999REMMET045METAR SBLP 281100Z 00000KT CAVOK 26/20 Q1017;
0072832880999992011122812004-13267-043417FM-15+0443SBLP V0209999C000019999999Y0099001N1+02701+01901999999ADDMA1101691999999REMMET045METAR SBLP 281200Z 00000KT CAVOK 27/19 Q1017;
0072832880999992011122813004-13267-043417FM-15+0443SBLP V0201801N003119999999Y0099001N1+02901+01901999999ADDMA1101691999999REMMET045METAR SBLP 281300Z 18006KT CAVOK 29/19 Q1017;
0072832880999992011122814004-13267-043417FM-15+0443SBLP V0201801N003119999999Y0099001N1+03101+01901999999ADDMA1101691999999REMMET045METAR SBLP 281400Z 18006KT CAVOK 31/19 Q1017;
0120832880999992011122815004-13267-043417FM-15+0443SBLP V0201801N003112200019N0112651N1+03201+01801999999ADDGA1021+009001999GF102991999999999999999999MA1101591999999REMMET051METAR SBLP 281500Z 18006KT 9999 FEW030 32/18 Q1016;
0120832880999992011122816004-13267-043417FM-15+0443SBLP V0209999C000012200019N0112651N1+03301+01701999999ADDGA1021+009001999GF102991999999999999999999MA1101491999999REMMET051METAR SBLP 281600Z 00000KT 9999 FEW030 33/17 Q1015;
0120832880999992011122817004-13267-043417FM-15+0443SBLP V0202101N003112200019N0112651N1+03301+01801999999ADDGA1021+009001999GF102991999999999999999999MA1101391999999REMMET051METAR SBLP 281700Z 21006KT 9999 FEW030 33/18 Q1014;
0120832880999992011122818004-13267-043417FM-15+0443SBLP V0201801N003112200019N0112651N1+03401+01801999999ADDGA1021+009001999GF102991999999999999999999MA1101291999999REMMET051METAR SBLP 281800Z 18006KT 9999 FEW030 34/18 Q1013;
0124832880999992011122819004-13267-043417FM-15+0443SBLP V0209999C000012200019N0112651N1+03401+01801999999ADDGA1021+009001999GF102991999999999999999999MA1101191999999REMMET055METAR SBLP 281900Z COR 00000KT 9999 FEW030 34/18 Q1012;
0076832880999992011122820004-13267-043417FM-15+0443SBLP V0201801N003119999999Y0099001N1+03201+01801999999ADDMA1101191999999REMMET049METAR SBLP 282000Z COR 18006KT CAVOK 32/18 Q1012;
0072832880999992011122821004-13267-043417FM-15+0443SBLP V0209999C000019999999Y0099001N1+02801+02001999999ADDMA1101191999999REMMET045METAR SBLP 282100Z 00000KT CAVOK 28/20 Q1012;
0072832880999992011122910004-13267-043417FM-15+0443SBLP V0209999C000019999999Y0099001N1+02501+02101999999ADDMA1101491999999REMMET045METAR SBLP 291000Z 00000KT CAVOK 25/21 Q1015;
0072832880999992011122911004-13267-043417FM-15+0443SBLP V0209999C000019999999Y0099001N1+02801+01901999999ADDMA1101491999999REMMET045METAR SBLP 291100Z 00000KT CAVOK 28/19 Q1015;
0072832880999992011122912004-13267-043417FM-15+0443SBLP V0200201N003119999999Y0099001N1+03001+01901999999ADDMA1101491999999REMMET045METAR SBLP 291200Z 02006KT CAVOK 30/19 Q1015;
0072832880999992011122913004-13267-043417FM-15+0443SBLP V0203601N003119999999Y0099001N1+03001+02001999999ADDMA1101491999999REMMET045METAR SBLP 291300Z 36006KT CAVOK 30/20 Q1015;
0072832880999992011122914004-13267-043417FM-15+0443SBLP V0203601N003119999999Y0099001N1+03301+01801999999ADDMA1101391999999REMMET045METAR SBLP 291400Z 36006KT CAVOK 33/18 Q1014;
0120832880999992011122915004-13267-043417FM-15+0443SBLP V0203001N003112200019N0112651N1+03401+01701999999ADDGA1021+009001999GF102991999999999999999999MA1101391999999REMMET051METAR SBLP 291500Z 30006KT 9999 FEW030 34/17 Q1014;
0120832880999992011122916004-13267-043417FM-15+0443SBLP V0203601N003112200019N0112651N1+03401+01701999999ADDGA1021+009001999GF102991999999999999999999MA1101191999999REMMET051METAR SBLP 291600Z 36006KT 9999 FEW030 34/17 Q1012;
0120832880999992011122917004-13267-043417FM-15+0443SBLP V0203601N003112200019N0112651N1+03501+01701999999ADDGA1041+009001999GF104991999999999999999999MA1101081999999REMMET051METAR SBLP 291700Z 36006KT 9999 SCT030 35/17 Q1011;
0120832880999992011122918004-13267-043417FM-15+0443SBLP V0203601N003112200019N0112651N1+03601+01701999999ADDGA1041+009001999GF104991999999999999999999MA1101021999999REMMET051METAR SBLP 291800Z 36006KT 9999 SCT030 36/17 Q1010;
0120832880999992011122919004-13267-043417FM-15+0443SBLP V0203601N003112200019N0112651N1+03401+01801999999ADDGA1041+009001999GF104991999999999999999999MA1101021999999REMMET051METAR SBLP 291900Z 36006KT 9999 SCT030 34/18 Q1010;
0120832880999992011122921004-13267-043417FM-15+0443SBLP V0202701N003112200019N0112651N1+02901+01901999999ADDGA1041+009001999GF104991999999999999999999MA1101191999999REMMET051METAR SBLP 292100Z 27006KT 9999 SCT030 29/19 Q1012;
0143832880999992011123010004-13267-043417FM-15+0443SBLP V0201801N003110300019N0112651N1+02401+02001999999ADDGA1021+006001999GA2071+030001999GF107991999999999999999999MA1101591999999REMMET058METAR SBLP 301000Z 18006KT 9999 FEW020 BKN100 24/20 Q1016;
0143832880999992011123011004-13267-043417FM-15+0443SBLP V0201801N003110300019N0112651N1+02601+01901999999ADDGA1021+006001999GA2071+030001999GF107991999999999999999999MA1101591999999REMMET058METAR SBLP 301100Z 18006KT 9999 FEW020 BKN100 26/19 Q1016;
0143832880999992011123012004-13267-043417FM-15+0443SBLP V0201801N003110300019N0112651N1+02701+01901999999ADDGA1021+006001999GA2071+030001999GF107991999999999999999999MA1101591999999REMMET058METAR SBLP 301200Z 18006KT 9999 FEW020 BKN100 27/19 Q1016;
0143832880999992011123013004-13267-043417FM-15+0443SBLP V0200901N003110300019N0112651N1+02801+01901999999ADDGA1021+006001999GA2071+030001999GF107991999999999999999999MA1101591999999REMMET058METAR SBLP 301300Z 09006KT 9999 FEW020 BKN100 28/19 Q1016;
0143832880999992011123014004-13267-043417FM-15+0443SBLP V0200901N003110300019N0112651N1+02801+02001999999ADDGA1041+006001999GA2071+030001999GF107991999999999999999999MA1101591999999REMMET058METAR SBLP 301400Z 09006KT 9999 SCT020 BKN100 28/20 Q1016;
0143832880999992011123015004-13267-043417FM-15+0443SBLP V0200901N003110300019N0112651N1+02901+02001999999ADDGA1041+006001999GA2071+030001999GF107991999999999999999999MA1101591999999REMMET058METAR SBLP 301500Z 09006KT 9999 SCT020 BKN100 29/20 Q1016;
0143832880999992011123016004-13267-043417FM-15+0443SBLP V0209999C000010300019N0112651N1+03001+02001999999ADDGA1021+009001999GA2071+030001999GF107991999999999999999999MA1101491999999REMMET058METAR SBLP 301600Z 00000KT 9999 FEW030 BKN100 30/20 Q1015;
0143832880999992011123017004-13267-043417FM-15+0443SBLP V0203601N003110300019N0112651N1+03101+02001999999ADDGA1041+006001999GA2071+030001999GF107991999999999999999999MA1101391999999REMMET058METAR SBLP 301700Z 36006KT 9999 SCT020 BKN100 31/20 Q1014;
0143832880999992011123018004-13267-043417FM-15+0443SBLP V0200201N003112200019N0112651N1+03301+02001999999ADDGA1021+006001999GA2041+030001999GF104991999999999999999999MA1101291999999REMMET058METAR SBLP 301800Z 02006KT 9999 FEW020 SCT100 33/20 Q1013;
0143832880999992011123019004-13267-043417FM-15+0443SBLP V0209999C000012200019N0112651N1+03401+01901999999ADDGA1021+009001999GA2041+030001999GF104991999999999999999999MA1101191999999REMMET058METAR SBLP 301900Z 00000KT 9999 FEW030 SCT100 34/19 Q1012;
0143832880999992011123020004-13267-043417FM-15+0443SBLP V0209999C000012200019N0112651N1+03101+02001999999ADDGA1021+009001999GA2041+030001999GF104991999999999999999999MA1101191999999REMMET058METAR SBLP 302000Z 00000KT 9999 FEW030 SCT100 31/20 Q1012;
0076832880999992011123021004-13267-043417FM-15+0443SBLP V0200601N003119999999Y0099001N1+02901+02201999999ADDMA1101291999999REMMET049METAR SBLP 302100Z COR 06006KT CAVOK 29/22 Q1013;
