0156834980999992011010112004-17733-039250FM-12+000399999V0200501N001510450019N0020001N1+02681+02411101331ADDGF108991041051008001011999KA1240N+02381MA1999999101281MD1999999+0221REMSYN076AAXX  01124 83498 32595 80503 10268 20241 30128 40133 8451/ 333 20238 58022;
0137834980999992011010118004-17733-039250FM-12+000399999V0203601N001510450019N0020001N1+02781+02401101031ADDGF106991021011008001051001MA1999999100981MD1999999+0031REMSYN070AAXX  01184 83498 32595 63603 10278 20240 30098 40103 82150 333 58003;
0168834980999992011010200004-17733-039250FM-12+000399999V0203601N001510450019N0020001N1+02601+02511101211ADDGF106991031051008001011001KA1240M+02971MA1999999101161MD1999999-0101REMSYN088AAXX  02004 83498 32595 63603 10260 20251 30116 40121 83510 333 10297 29089 55/// 59010;
0175834980999992011010212004-17733-039250FM-12+000399999V0203601N003119999999N0020001N1+02811+02441101201ADDGF106991999021008001001001KA1240N+02331MA1999999101151MD1999999-0131REMSYN076AAXX  02124 83498 32595 63606 10281 20244 30115 40120 83200 333 20233 59013;EQDQ01+000032SCOTLC
0137834980999992011010218004-17733-039250FM-12+000399999V0200501N003112200019N0020001N1+02961+02381100941ADDGF103991031011008001001011MA1999999100891MD1999999-0101REMSYN070AAXX  02184 83498 32595 30506 10296 20238 30089 40094 83101 333 59010;
0178834980999992011010300004-17733-039250FM-12+000399999V0203601N001512200019N0020001N1+02531+02331101131ADDGA1001+999999999GF100991001001999999001001KA1240M+03001MA1999999101081MD1999999-0081REMSYN082AAXX  03004 83498 32995 03603 10253 20233 30108 40113 333 10300 29083 55/// 59008;
0156834980999992011010312004-17733-039250FM-12+000399999V0203601N003610450019N0020001N1+02781+02501101261ADDGF108991041021008001051999KA1240N+02371MA1999999101211MD1999999+0061REMSYN076AAXX  03124 83498 32595 83607 10278 20250 30121 40126 8425/ 333 20237 58006;
0137834980999992011010318004-17733-039250FM-12+000399999V0203601N004110450019N0020001N1+02961+02561101031ADDGF108991021011008001051021MA1999999100981MD1999999+0091REMSYN070AAXX  03184 83498 32595 83608 10296 20256 30098 40103 82152 333 58009;
0168834980999992011010400004-17733-039250FM-12+000399999V0203601N001510450019N0020001N1+02561+02471101231ADDGF105991031011008001051001KA1240M+02991MA1999999101181MD1999999+0101REMSYN088AAXX  04004 83498 32595 53603 10256 20247 30118 40123 83150 333 10299 29088 55/// 58010;
0156834980999992011010412004-17733-039250FM-12+000399999V0200501N003110450019N0020001N1+02881+02321101351ADDGF106991031021008001011001KA1240N+02481MA1999999101301MD1999999+0091REMSYN076AAXX  04124 83498 32595 60506 10288 20232 30130 40135 83210 333 20248 58009;
0137834980999992011010418004-17733-039250FM-12+000399999V0200501N002612200019N0020001N1+02921+02411101141ADDGF103991031011008001001001MA1999999101091MD1999999+0111REMSYN070AAXX  04184 83498 32595 30505 10292 20241 30109 40114 83100 333 58011;
0178834980999992011010500004-17733-039250FM-12+000399999V0200901N001012200019N0020001N1+02521+02361101421ADDGA1001+999999999GF100991001001999999001001KA1240M+02991MA1999999101371MD1999999+0191REMSYN082AAXX  05004 83498 32995 00902 10252 20236 30137 40142 333 10299 29082 55/// 58019;
0156834980999992011010512004-17733-039250FM-12+000399999V0200501N001510450019N0020001N1+02801+02461101601ADDGF106991031021008001051001KA1240N+02331MA1999999101551MD1999999+0251REMSYN076AAXX  05124 83498 32595 60503 10280 20246 30155 40160 83250 333 20233 58025;
0137834980999992011010518004-17733-039250FM-12+000399999V0200501N002612200019N0020001N1+02921+02521101431ADDGF105991041021008001001011MA1999999101381MD1999999+0291REMSYN070AAXX  05184 83498 32595 50505 10292 20252 30138 40143 84201 333 58029;
0168834980999992011010600004-17733-039250FM-12+000399999V0200501N001012200019N0020001N1+02521+02431101601ADDGF103991031011008001001001KA1240M+02991MA1999999101551MD1999999+0181REMSYN088AAXX  06004 83498 32595 30502 10252 20243 30155 40160 83100 333 10299 29088 55/// 58018;
0156834980999992011010612004-17733-039250FM-12+000399999V0200901N002612200019N0020001N1+02821+02331101551ADDGF104991021021008001011001KA1240N+02411MA1999999101501MD1999999-0051REMSYN076AAXX  06124 83498 32595 40905 10282 20233 30150 40155 82210 333 20241 59005;
0137834980999992011010618004-17733-039250FM-12+000399999V0200901N005112200019N0020001N1+02851+02311101371ADDGF102991021011008001001011MA1999999101321MD1999999-0061REMSYN070AAXX  06184 83498 32595 20910 10285 20231 30132 40137 82101 333 59006;
0156834980999992011010712004-17733-039250FM-12+000399999V0200901N001510075019N0020001N1+02801+02501101671ADDGF108991051021008001031001KA1240N+02321MA1999999101621MD1999999+0121REMSYN076AAXX  07124 83498 32595 80903 10280 20250 30162 40167 85230 333 20232 58012;
0137834980999992011010718004-17733-039250FM-12+000399999V0200501N004110450019N0020001N1+02901+02501101431ADDGF105991031011008001031001MA1999999101381MD1999999+0061REMSYN070AAXX  07184 83498 32595 50508 10290 20250 30138 40143 83130 333 58006;
0168834980999992011010800004-17733-039250FM-12+000399999V0200901N001512200019N0020001N1+02561+02421101501ADDGF102991021011008001001001KA1240M+02951MA1999999101451MD1999999+0081REMSYN088AAXX  08004 83498 32595 20903 10256 20242 30145 40150 82100 333 10295 29087 55/// 58008;
0156834980999992011010812004-17733-039250FM-12+000399999V0200901N002612200019N0020001N1+02831+02241101541ADDGF104991021021008001011001KA1240N+02371MA1999999101491MD1999999-0131REMSYN076AAXX  08124 83498 32595 40905 10283 20224 30149 40154 82210 333 20237 59013;
0137834980999992011010818004-17733-039250FM-12+000399999V0200901N003112200019N0020001N1+02941+02211101371ADDGF102991021011008001001001MA1999999101321MD1999999-0061REMSYN070AAXX  08184 83498 32595 20906 10294 20221 30132 40137 82100 333 59006;
0156834980999992011010912004-17733-039250FM-12+000399999V0200901N001511050019N0020001N1+02841+02401101431ADDGF106991041021008001001021KA1240N+02411MA1999999101381MD1999999-0111REMSYN076AAXX  09124 83498 32595 60903 10284 20240 30138 40143 84202 333 20241 59011;
0137834980999992011010918004-17733-039250FM-12+000399999V0200901N003110450019N0020001N1+02941+02521101191ADDGF105991031011008001031001MA1999999101141MD1999999-0181REMSYN070AAXX  09184 83498 32595 50906 10294 20252 30114 40119 83130 333 59018;
0156834980999992011011012004-17733-039250FM-12+000399999V0203601N003110450019N0020001N1+02841+02261101231ADDGF106991031021008001011001KA1240N+02251MA1999999101181MD1999999-0201REMSYN076AAXX  10124 83498 32595 63606 10284 20226 30118 40123 83210 333 20225 59020;
0137834980999992011011018004-17733-039250FM-12+000399999V0200501N001512200019N0020001N1+03011+02171100881ADDGF101991011011008001001001MA1999999100831MD1999999-0311REMSYN070AAXX  10184 83498 32595 10503 10301 20217 30083 40088 81100 333 59031;
0178834980999992011011100004-17733-039250FM-12+000399999V0203601N001512200019N0020001N1+02591+02291100981ADDGA1001+999999999GF100991001001999999001001KA1240M+03081MA1999999100931MD1999999-0251REMSYN082AAXX  11004 83498 32995 03603 10259 20229 30093 40098 333 10308 29075 55/// 59025;
0156834980999992011011112004-17733-039250FM-12+000399999V0203601N006712200019N0020001N1+02891+02251101151ADDGF102991021011008001001001KA1240N+02351MA1999999101101MD1999999-0081REMSYN076AAXX  11124 83498 32595 23613 10289 20225 30110 40115 82100 333 20235 59008;
0137834980999992011011118004-17733-039250FM-12+000399999V0203601N006712200019N0020001N1+02951+02311100851ADDGF101991011011008001001001MA1999999100801MD1999999-0031REMSYN070AAXX  11184 83498 32595 13613 10295 20231 30080 40085 81100 333 59003;
0187834980999992011011200004-17733-039250FM-12+000399999V0203601N005112200019N0020001N1+02571+02381101031ADDGF103991001001999999001011KA1240M+03121MA1999999100981MD1999999+0051REMSYN088AAXX  12004 83498 32595 33610 10257 20238 30098 40103 80001 333 10312 29079 55/// 58005;EQDQ01+008002SCOLCB
0201834980999992011011212004-17733-039250FM-12+000399999V0203601N001510450019N0020001N1+02681+02581101261ADDAA124005191AY161061AY221061GF108991041051008001011999KA1240N+02401MA1999999101211MD1999999+0111MW1211REMSYN088AAXX  12124 83498 21595 83603 10268 20258 30121 40126 72162 8451/ 333 20240 58011 60054;
0182834980999992011011218004-17733-039250FM-12+000399999V0203601N004110450019N0020001N1+02741+02561101071ADDAA106002091AY161061AY261061GF107991031051008001051011MA1999999101021MD1999999+0221MW1211REMSYN082AAXX  12184 83498 21595 73608 10274 20256 30102 40107 72166 83551 333 58022 60021;
0213834980999992011011300004-17733-039250FM-12+000399999V0203601N001510450019N0020001N1+02461+02431101131ADDAA106000591AY161061AY261061GF106991031051008001011001KA1240M+03051MA1999999101081MD1999999+0101MW1211REMSYN100AAXX  13004 83498 21595 63603 10246 20243 30108 40113 72166 83510 333 10305 29095 55/// 58010 69951;
0173834980999992011011312004-17733-039250FM-12+000399999V0203601N004612200019N0020001N1+02841+02401101291ADDAA124002091GF104991021041008001041001KA1240N+02451MA1999999101241MD1999999+0031REMSYN082AAXX  13124 83498 22595 43609 10284 20240 30124 40129 82440 333 20245 58003 60024;
0137834980999992011011318004-17733-039250FM-12+000399999V0203601N006210450019N0020001N1+02881+02411101001ADDGF106991021011008001021001MA1999999100951MD1999999-0071REMSYN070AAXX  13184 83498 32595 63612 10288 20241 30095 40100 82120 333 59007;
0168834980999992011011400004-17733-039250FM-12+000399999V0203601N003110075019N0020001N1+02561+02461101261ADDGF107991051051008001011001KA1240M+03171MA1999999101211MD1999999+0131REMSYN088AAXX  14004 83498 32595 73606 10256 20246 30121 40126 85510 333 10317 29085 55/// 58013;
0156834980999992011011412004-17733-039250FM-12+000399999V0203601N001510075019N0020001N1+02871+02351101311ADDGF107991051051008001011001KA1240N+02501MA1999999101261MD1999999+0021REMSYN076AAXX  14124 83498 32595 73603 10287 20235 30126 40131 85510 333 20250 58002;
0137834980999992011011418004-17733-039250FM-12+000399999V0203601N004112200019N0020001N1+02951+02331100981ADDGF101991011011008001001091MA1999999100931MD1999999-0021REMSYN070AAXX  14184 83498 32595 13608 10295 20233 30093 40098 81109 333 59002;
0178834980999992011011500004-17733-039250FM-12+000399999V0203601N001512200019N0020001N1+02511+02291101121ADDGA1001+999999999GF100991001001999999001001KA1240M+03101MA1999999101071MD1999999-0141REMSYN082AAXX  15004 83498 32995 03603 10251 20229 30107 40112 333 10310 29080 55/// 59014;
0156834980999992011011512004-17733-039250FM-12+000399999V0200501N001512200019N0020001N1+02911+02251101191ADDGF102991021011008001001001KA1240N+02311MA1999999101141MD1999999-0121REMSYN076AAXX  15124 83498 32595 20503 10291 20225 30114 40119 82100 333 20231 59012;
0137834980999992011011518004-17733-039250FM-12+000399999V0200501N004112200019N0020001N1+03051+02281100831ADDGF101991011011008001001001MA1999999100781MD1999999-0151REMSYN070AAXX  15184 83498 32595 10508 10305 20228 30078 40083 81100 333 59015;
0156834980999992011011612004-17733-039250FM-12+000399999V0203601N004112200019N0020001N1+02961+02401101301ADDGF103991021021008001001011KA1240N+02331MA1999999101251MD1999999+0111REMSYN076AAXX  16124 83498 32595 33608 10296 20240 30125 40130 82201 333 20233 58011;
0137834980999992011011618004-17733-039250FM-12+000399999V0203601N005712200019N0020001N1+02991+02401101031ADDGF102991011011008001001011MA1999999100981MD1999999+0201REMSYN070AAXX  16184 83498 32595 23611 10299 20240 30098 40103 81101 333 58020;
0156834980999992011011712004-17733-039250FM-12+000399999V0203601N002110450019N0020001N1+02941+02431101571ADDGF106991031021008001011001KA1240N+02361MA1999999101521MD1999999+0271REMSYN076AAXX  17124 83498 32595 63604 10294 20243 30152 40157 83210 333 20236 58027;
0137834980999992011011718004-17733-039250FM-12+000399999V0200501N004112200019N0020001N1+02991+02301101171ADDGF101991011011008001001001MA1999999101121MD1999999+0141REMSYN070AAXX  17184 83498 32595 10508 10299 20230 30112 40117 81100 333 58014;
0168834980999992011011800004-17733-039250FM-12+000399999V0200501N000512200019N0020001N1+02531+02361101341ADDGF101991011001008001001011KA1240M+03131MA1999999101291MD1999999-0081REMSYN088AAXX  18004 83498 32595 10501 10253 20236 30129 40134 81001 333 10313 29081 55/// 59008;
0156834980999992011011812004-17733-039250FM-12+000399999V0200501N003112200019N0020001N1+02921+02341101541ADDGF102991021011008001001001KA1240N+02251MA1999999101491MD1999999-0031REMSYN076AAXX  18124 83498 32595 20506 10292 20234 30149 40154 82100 333 20225 59003;
0137834980999992011011818004-17733-039250FM-12+000399999V0200501N005712200019N0020001N1+02991+02281101121ADDGF101991011011008001001001MA1999999101071MD1999999-0051REMSYN070AAXX  18184 83498 32595 10511 10299 20228 30107 40112 81100 333 59005;
0178834980999992011011900004-17733-039250FM-12+000399999V0200501N001012200019N0020001N1+02501+02361101291ADDGA1001+999999999GF100991001001999999001001KA1240M+03161MA1999999101241MD1999999-0051REMSYN082AAXX  19004 83498 32995 00502 10250 20236 30124 40129 333 10316 29080 55/// 59005;
0175834980999992011011912004-17733-039250FM-12+000399999V0209999C000019999999N0020001N1+02681+02371101271ADDGF106991999021008001001001KA1240N+02251MA1999999101221MD1999999-0271REMSYN076AAXX  19124 83498 32595 60000 10268 20237 30122 40127 83200 333 20225 59027;EQDQ01+000032SCOTLC
0137834980999992011011918004-17733-039250FM-12+000399999V0200901N003112200019N0020001N1+03051+02501100981ADDGF101991011011008001001011MA1999999100931MD1999999-0141REMSYN070AAXX  19184 83498 32595 10906 10305 20250 30093 40098 81101 333 59014;
0178834980999992011012000004-17733-039250FM-12+000399999V0200901N001512200019N0020001N1+02531+02361101081ADDGA1001+999999999GF100991001001999999001001KA1240M+03161MA1999999101031MD1999999-0211REMSYN082AAXX  20004 83498 32995 00903 10253 20236 30103 40108 333 10316 29085 55/// 59021;
0156834980999992011012012004-17733-039250FM-12+000399999V0201401N002112200019N0020001N1+02851+02501101191ADDGF104991041021008001001001KA1240N+02271MA1999999101141MD1999999-0081REMSYN076AAXX  20124 83498 32595 41404 10285 20250 30114 40119 84200 333 20227 59008;
0137834980999992011012018004-17733-039250FM-12+000399999V0200901N003612200019N0020001N1+02971+02451100921ADDGF101991011011008001001001MA1999999100871MD1999999-0061REMSYN070AAXX  20184 83498 32595 10907 10297 20245 30087 40092 81100 333 59006;
0168834980999992011012100004-17733-039250FM-12+000399999V0200901N001512200019N0020001N1+02531+02471101101ADDGF101991011041008001001001KA1240M+03091MA1999999101051MD1999999+0021REMSYN088AAXX  21004 83498 32595 10903 10253 20247 30105 40110 81400 333 10309 29087 55/// 58002;
0201834980999992011012112004-17733-039250FM-12+000399999V0200901N001010450019N0020001N1+02741+02451101181ADDAA124002091AY161061AY261061GF107991031051008001011001KA1240N+02351MA1999999101131MD1999999-0011MW1601REMSYN088AAXX  21124 83498 21595 70902 10274 20245 30113 40118 76066 83510 333 20235 59001 60024;
0137834980999992011012118004-17733-039250FM-12+000399999V0200901N003112200019N0020001N1+02881+02501101021ADDGF102991021021008001061001MA1999999100971MD1999999+0101REMSYN070AAXX  21184 83498 32595 20906 10288 20250 30097 40102 82260 333 58010;
0178834980999992011012200004-17733-039250FM-12+000399999V0209999C000012200019N0020001N1+02541+02421101211ADDGA1001+999999999GF100991001001999999001001KA1240M+03031MA1999999101161MD1999999+0111REMSYN082AAXX  22004 83498 32995 00000 10254 20242 30116 40121 333 10303 29087 55/// 58011;
0156834980999992011012212004-17733-039250FM-12+000399999V0200901N002612200019N0020001N1+02851+02561101411ADDGF104991041021008001001001KA1240N+02481MA1999999101361MD1999999+0231REMSYN076AAXX  22124 83498 32595 40905 10285 20256 30136 40141 84200 333 20248 58023;
0156834980999992011012312004-17733-039250FM-12+000399999V0200901N001510450019N0020001N1+02791+02461101561ADDGF106991041051008001041001KA1240N+02351MA1999999101511MD1999999+0151REMSYN076AAXX  23124 83498 32595 60903 10279 20246 30151 40156 84540 333 20235 58015;
0137834980999992011012318004-17733-039250FM-12+000399999V0200901N002612200019N0020001N1+02901+02321101421ADDGF103991021011008001041001MA1999999101371MD1999999+0121REMSYN070AAXX  23184 83498 32595 30905 10290 20232 30137 40142 82140 333 58012;
0201834980999992011012412004-17733-039250FM-12+000399999V0200901N001010450019N0020001N1+02781+02361101501ADDAA124000021AY161061AY261061GF106991031051008001011001KA1240N+02541MA1999999101451MD1999999-0061MW1601REMSYN088AAXX  24124 83498 21595 60902 10278 20236 30145 40150 76066 83510 333 20254 59006 69924;
0137834980999992011012418004-17733-039250FM-12+000399999V0200901N001510450019N0020001N1+02951+02241101321ADDGF105991021021008001011001MA1999999101271MD1999999-0101REMSYN070AAXX  24184 83498 32595 50903 10295 20224 30127 40132 82210 333 59010;
0178834980999992011012500004-17733-039250FM-12+000399999V0200901N000512200019N0020001N1+02631+02461101401ADDGA1001+999999999GF100991001001999999001001KA1240M+02991MA1999999101351MD1999999-0061REMSYN082AAXX  25004 83498 32995 00901 10263 20246 30135 40140 333 10299 29082 55/// 59006;
0156834980999992011012512004-17733-039250FM-12+000399999V0200901N002610450019N0020001N1+02711+02301101471ADDGF106991031041008001011001KA1240N+02441MA1999999101421MD1999999-0031REMSYN076AAXX  25124 83498 32595 60905 10271 20230 30142 40147 83410 333 20244 59003;
0178834980999992011012600004-17733-039250FM-12+000399999V0200901N001512200019N0020001N1+02591+02381101481ADDGA1001+999999999GF100991001001999999001001KA1240M+03041MA1999999101431MD1999999+0081REMSYN082AAXX  26004 83498 32995 00903 10259 20238 30143 40148 333 10304 29083 55/// 58008;
0201834980999992011012612004-17733-039250FM-12+000399999V0201401N001010450019N0020001N1+02711+02411101571ADDAA124003091AY121061AY211061GF106991021071008001011001KA1240N+02381MA1999999101521MD1999999+0101MW1031REMSYN088AAXX  26124 83498 21595 61402 10271 20241 30152 40157 70321 82710 333 20238 58010 60034;
0182834980999992011012618004-17733-039250FM-12+000399999V0200901N003110450019N0020001N1+02931+02501101371ADDAA106014091AY121061AY211061GF105991031021008001041001MA1999999101321MD1999999+0021MW1031REMSYN082AAXX  26184 83498 21595 50906 10293 20250 30132 40137 70321 83240 333 58002 60141;
0168834980999992011012700004-17733-039250FM-12+000399999V0200901N001012200019N0020001N1+02571+02471101551ADDGF103991031021008001001001KA1240M+02991MA1999999101501MD1999999+0071REMSYN088AAXX  27004 83498 32595 30902 10257 20247 30150 40155 83200 333 10299 29088 55/// 58007;
0201834980999992011012712004-17733-039250FM-12+000399999V0202701N001010450019N0020001N1+02591+02461101541ADDAA124020191AY161061AY261061GF107991031061008001011001KA1240N+02401MA1999999101491MD1999999-0031MW1211REMSYN088AAXX  27124 83498 21595 72702 10259 20246 30149 40154 72166 83610 333 20240 59003 60204;
0137834980999992011012718004-17733-039250FM-12+000399999V0203601N001510450019N0020001N1+02831+02501101361ADDGF106991031041008001011001MA1999999101311MD1999999-0011REMSYN070AAXX  27184 83498 32595 63603 10283 20250 30131 40136 83410 333 59001;
0168834980999992011012800004-17733-039250FM-12+000399999V0209999C000012200019N0020001N1+02491+02341101421ADDGF101991011011008001001001KA1240M+03021MA1999999101371MD1999999-0131REMSYN088AAXX  28004 83498 32595 10000 10249 20234 30137 40142 81100 333 10302 29090 55/// 59013;
0201834980999992011012812004-17733-039250FM-12+000399999V0200901N001512200019N0020001N1+02691+02431101601ADDAA124000021AY121061AY211061GF104991041021008001001001KA1240N+02321MA1999999101551MD1999999+0061MW1031REMSYN088AAXX  28124 83498 21595 40903 10269 20243 30155 40160 70321 84200 333 20232 58006 69924;
0137834980999992011012818004-17733-039250FM-12+000399999V0200501N004612200019N0020001N1+02991+02351101431ADDGF102991021011008001001001MA1999999101381MD1999999+0071REMSYN070AAXX  28184 83498 32595 20509 10299 20235 30138 40143 82100 333 58007;
0178834980999992011012900004-17733-039250FM-12+000399999V0200501N001512200019N0020001N1+02511+02341101521ADDGA1001+999999999GF100991001001999999001001KA1240M+03071MA1999999101471MD1999999+0101REMSYN082AAXX  29004 83498 32995 00503 10251 20234 30147 40152 333 10307 29084 55/// 58010;
0156834980999992011012912004-17733-039250FM-12+000399999V0200901N001510450019N0020001N1+02571+02381101741ADDGF107991031061008001011001KA1240N+02281MA1999999101691MD1999999+0141REMSYN076AAXX  29124 83498 32595 70903 10257 20238 30169 40174 83610 333 20228 58014;
0137834980999992011012918004-17733-039250FM-12+000399999V0200901N003112200019N0020001N1+02951+02381101551ADDGF102991021011008001001001MA1999999101501MD1999999+0121REMSYN070AAXX  29184 83498 32595 20906 10295 20238 30150 40155 82100 333 58012;
0156834980999992011013012004-17733-039250FM-12+000399999V0200501N000510450019N0020001N1+02721+02481101681ADDGF106991041051008001041001KA1240N+02291MA1999999101631MD1999999-0061REMSYN076AAXX  30124 83498 32595 60501 10272 20248 30163 40168 84540 333 20229 59006;
0182834980999992011013018004-17733-039250FM-12+000399999V0200501N003610450019N0020001N1+02971+02401101381ADDAA106000591AY121061AY211061GF105991021011008001031001MA1999999101331MD1999999-0171MW1031REMSYN082AAXX  30184 83498 21595 50507 10297 20240 30133 40138 70321 82130 333 59017 69961;
0192834980999992011013112004-17733-039250FM-12+000399999V0203601N001519999999N0020001N1+02791+02341101491ADDAA124000591GF106991999021008001001001KA1240N+02331MA1999999101441MD1999999-0191REMSYN082AAXX  31124 83498 22595 63603 10279 20234 30144 40149 83200 333 20233 59019 69964;EQDQ01+000032SCOTLC
0137834980999992011013118004-17733-039250FM-12+000399999V0200901N001510450019N0020001N1+02961+02351101361ADDGF106991031041008001081001MA1999999101311MD1999999-0021REMSYN070AAXX  31184 83498 32595 60903 10296 20235 30131 40136 83480 333 59002;
0178834980999992011020100004-17733-039250FM-12+000399999V0200901N001012200019N0020001N1+02551+02131101441ADDGA1001+999999999GF100991001001999999001001KA1240M+03121MA1999999101391MD1999999-0011REMSYN082AAXX  01004 83498 32595 00902 10255 20213 30139 40144 333 10312 29080 55/// 59001;
0156834980999992011020112004-17733-039250FM-12+000399999V0200901N001510450019N0020001N1+02791+02361101561ADDGF106991031021008001011001KA1240N+02321MA1999999101511MD1999999-0071REMSYN076AAXX  01124 83498 32595 60903 10279 20236 30151 40156 83210 333 20232 59007;
0137834980999992011020118004-17733-039250FM-12+000399999V0200501N005112200019N0020001N1+02971+02311101371ADDGF104991021011008001031001MA1999999101321MD1999999+0011REMSYN070AAXX  01184 83498 32595 40510 10297 20231 30132 40137 82130 333 58001;
0178834980999992011020200004-17733-039250FM-12+000399999V0200901N000512200019N0020001N1+02481+02271101461ADDGA1001+999999999GF100991001001999999001001KA1240M+03091MA1999999101411MD1999999+0021REMSYN082AAXX  02004 83498 32995 00901 10248 20227 30141 40146 333 10309 29081 55/// 58002;
0156834980999992011020212004-17733-039250FM-12+000399999V0200901N001510450019N0020001N1+02791+02341101581ADDGF106991031021008001011001KA1240N+02331MA1999999101531MD1999999+0021REMSYN076AAXX  02124 83498 32595 60903 10279 20234 30153 40158 83210 333 20233 58002;
0137834980999992011020218004-17733-039250FM-12+000399999V0200901N001511050019N0020001N1+03021+02131101391ADDGF105991021011008001031061MA1999999101341MD1999999+0021REMSYN070AAXX  02184 83498 32595 50903 10302 20213 30134 40139 82136 333 58002;
0156834980999992011020312004-17733-039250FM-12+000399999V0200901N001512200019N0020001N1+02751+02471101551ADDGF104991041021008001001001KA1240N+02281MA1999999101501MD1999999-0031REMSYN076AAXX  03124 83498 32595 40903 10275 20247 30150 40155 84200 333 20228 59003;
0137834980999992011020318004-17733-039250FM-12+000399999V0200901N004612200019N0020001N1+02951+02561101311ADDGF102991021011008001001001MA1999999101261MD1999999-0081REMSYN070AAXX  03184 83498 32595 20909 10295 20256 30126 40131 82100 333 59008;
0178834980999992011020400004-17733-039250FM-12+000399999V0209999C000012200019N0020001N1+02481+02391101451ADDGA1001+999999999GF100991001001999999001001KA1240M+03071MA1999999101401MD1999999-0011REMSYN082AAXX  04004 83498 32995 00000 10248 20239 30140 40145 333 10307 29088 55/// 59001;
0207834980999992011020412004-17733-039250FM-12+000399999V0200901N002610450019N0020001N1+02841+02501101501ADDAA101000991AY121061AY211061GF107991031051008001021001KA1240N+02401MA1999999101451MD1999999-0051MW1031REMSYN094AAXX  04124 83498 21595 70905 10284 20250 30145 40150 70321 83520 333 20240 59005 69995 10005;
0137834980999992011020418004-17733-039250FM-12+000399999V0200501N003612200019N0020001N1+02931+02471101261ADDGF102991021011008001001001MA1999999101211MD1999999-0051REMSYN070AAXX  04184 83498 32595 20507 10293 20247 30121 40126 82100 333 59005;
0168834980999992011020500004-17733-039250FM-12+000399999V0200901N000512200019N0020001N1+02551+02401101301ADDGF101991011011008001001001KA1240M+03021MA1999999101251MD1999999-0151REMSYN088AAXX  05004 83498 32595 10901 10255 20240 30125 40130 81100 333 10302 29086 55/// 59015;
0156834980999992011020512004-17733-039250FM-12+000399999V0200901N002112200019N0020001N1+02831+02521101421ADDGF105991031021008001001011KA1240N+02501MA1999999101371MD1999999-0081REMSYN076AAXX  05124 83498 32595 50904 10283 20252 30137 40142 83201 333 20250 59008;
0137834980999992011020518004-17733-039250FM-12+000399999V0200901N003612200019N0020001N1+02951+02491101281ADDGF103991021011008001001011MA1999999101231MD1999999+0021REMSYN070AAXX  05184 83498 32595 30907 10295 20249 30123 40128 82101 333 58002;
0220834980999992011020612004-17733-039250FM-12+000399999V0209999C000012200019N0020001N1+02681+02371101511ADDAA124000091AY121061AY211061GF106991031021008001001011KA1240N+02401MA1999999101461MD1999999+0091MW1031REMSYN088AAXX  06124 83498 21595 60000 10268 20237 30146 40151 70321 83201 333 20240 58009 69924;EQDQ01  00002PRCP24
0137834980999992011020618004-17733-039250FM-12+000399999V0200901N001512200019N0020001N1+02991+02351101321ADDGF102991021011008001001011MA1999999101271MD1999999-0181REMSYN070AAXX  06184 83498 32595 20903 10299 20235 30127 40132 82101 333 59018;
0156834980999992011020712004-17733-039250FM-12+000399999V0200901N003112200019N0020001N1+02771+02381101681ADDGF104991041021008001001001KA1240N+02251MA1999999101631MD1999999+0171REMSYN076AAXX  07124 83498 32595 40906 10277 20238 30163 40168 84200 333 20225 58017;
0137834980999992011020718004-17733-039250FM-12+000399999V0200901N004112200019N0020001N1+03051+02501101461ADDGF102991021011008001001001MA1999999101411MD1999999+0141REMSYN070AAXX  07184 83498 32595 20908 10305 20250 30141 40146 82100 333 58014;
0168834980999992011020800004-17733-039250FM-12+000399999V0200901N002112200019N0020001N1+02651+02351101601ADDGF102991021011008001001001KA1240M+03151MA1999999101551MD1999999+0101REMSYN088AAXX  08004 83498 32595 20904 10265 20235 30155 40160 82100 333 10315 29080 55/// 58010;
0156834980999992011020812004-17733-039250FM-12+000399999V0200901N001010450019N0020001N1+02791+02271101711ADDGF106991031051008001011001KA1240N+02171MA1999999101661MD1999999+0031REMSYN076AAXX  08124 83498 32595 60902 10279 20227 30166 40171 83510 333 20217 58003;
0137834980999992011020818004-17733-039250FM-12+000399999V0200901N003112200019N0020001N1+02951+02291101481ADDGF101991011011008001001001MA1999999101431MD1999999+0021REMSYN070AAXX  08184 83498 32595 10906 10295 20229 30143 40148 81100 333 58002;
0168834980999992011020900004-17733-039250FM-12+000399999V0200901N001512200019N0020001N1+02511+02401101531ADDGF101991011011008001001001KA1240M+03051MA1999999101481MD1999999-0071REMSYN088AAXX  09004 83498 32595 10903 10251 20240 30148 40153 81100 333 10305 29083 55/// 59007;
0201834980999992011020912004-17733-039250FM-12+000399999V0200501N003110450019N0020001N1+02691+02371101511ADDAA124002091AY121061AY211061GF106991041051008001041001KA1240N+02431MA1999999101461MD1999999-0201MW1031REMSYN088AAXX  09124 83498 21595 60506 10269 20237 30146 40151 70321 84540 333 20243 59020 60024;
0156834980999992011021112004-17733-039250FM-12+000399999V0201801N001012200019N0020001N1+02891+02351101561ADDGF105991041021008001001011KA1240N+02301MA1999999101511MD1999999-0191REMSYN076AAXX  11124 83498 32595 51802 10289 20235 30151 40156 84201 333 20230 59019;
0137834980999992011021118004-17733-039250FM-12+000399999V0200501N003610450019N0020001N1+02871+02481101331ADDGF105991011011008001031001MA1999999101281MD1999999+0111REMSYN070AAXX  11184 83498 32595 50507 10287 20248 30128 40133 81130 333 58011;
0178834980999992011021200004-17733-039250FM-12+000399999V0209999C000012200019N0020001N1+02461+02411101521ADDGA1001+999999999GF100991001001999999001001KA1240M+03191MA1999999101471MD1999999+0181REMSYN082AAXX  12004 83498 32995 00000 10246 20241 30147 40152 333 10319 29087 55/// 58018;
0156834980999992011021212004-17733-039250FM-12+000399999V0200901N003110450019N0020001N1+02871+02521101601ADDGF106991031041008001021001KA1240N+02251MA1999999101551MD1999999+0041REMSYN076AAXX  12124 83498 32595 60906 10287 20252 30155 40160 83420 333 20225 58004;
0137834980999992011021218004-17733-039250FM-12+000399999V0200501N001010450019N0020001N1+02811+02251101431ADDGF106991031061008001011001MA1999999101381MD1999999+0101REMSYN070AAXX  12184 83498 32595 60502 10281 20225 30138 40143 83610 333 58010;
0156834980999992011021312004-17733-039250FM-12+000399999V0200901N003112200019N0020001N1+02951+02381101551ADDGF105991041021008001001011KA1240N+02331MA1999999101501MD1999999-0051REMSYN076AAXX  13124 83498 32595 50906 10295 20238 30150 40155 84201 333 20233 59005;
0137834980999992011021318004-17733-039250FM-12+000399999V0200501N003110450019N0020001N1+02851+02381101331ADDGF105991011011008001021001MA1999999101281MD1999999-0101REMSYN070AAXX  13184 83498 32595 50506 10285 20238 30128 40133 81120 333 59010;
0156834980999992011021412004-17733-039250FM-12+000399999V0203601N000510075019N0020001N1+02721+02431101461ADDGF105991051021008001001001KA1240N+02251MA1999999101411MD1999999-0091REMSYN076AAXX  14124 83498 32595 53601 10272 20243 30141 40146 85200 333 20225 59009;
0137834980999992011021418004-17733-039250FM-12+000399999V0203601N002611050019N0020001N1+03081+02471101261ADDGF105991021011008001001021MA1999999101211MD1999999-0071REMSYN070AAXX  14184 83498 32595 53605 10308 20247 30121 40126 82102 333 59007;
0168834980999992011021500004-17733-039250FM-12+000399999V0200501N001512200019N0020001N1+02581+02441101381ADDGF101991011011008001001001KA1240M+03191MA1999999101331MD1999999-0031REMSYN088AAXX  15004 83498 32595 10503 10258 20244 30133 40138 81100 333 10319 29084 55/// 59003;
0156834980999992011021512004-17733-039250FM-12+000399999V0200501N001510450019N0020001N1+02951+02311101451ADDGF105991021021008001011001KA1240N+02311MA1999999101401MD1999999-0011REMSYN076AAXX  15124 83498 32595 50503 10295 20231 30140 40145 82210 333 20231 59001;
0137834980999992011021518004-17733-039250FM-12+000399999V0200501N002612200019N0020001N1+03051+02351101241ADDGF104991021011008001001021MA1999999101191MD1999999-0021REMSYN070AAXX  15184 83498 32595 40505 10305 20235 30119 40124 82102 333 59002;
0168834980999992011021600004-17733-039250FM-12+000399999V0200901N001510450019N0020001N1+02631+02271101431ADDGF105991021011008001031001KA1240M+03221MA1999999101381MD1999999+0051REMSYN088AAXX  16004 83498 32595 50903 10263 20227 30138 40143 82130 333 10322 29074 55/// 58005;
0156834980999992011021612004-17733-039250FM-12+000399999V0200901N003112200019N0020001N1+02851+02381101561ADDGF104991041021008001001001KA1240N+02391MA1999999101511MD1999999+0111REMSYN076AAXX  16124 83498 32595 40906 10285 20238 30151 40156 84200 333 20239 58011;
0137834980999992011021618004-17733-039250FM-12+000399999V0200901N003610450019N0020001N1+03031+02501101411ADDGF105991021021008001021001MA1999999101261MD1999999+0171REMSYN070AAXX  16184 83498 32595 50907 10303 20250 30126 40141 82220 333 58017;
0168834980999992011021700004-17733-039250FM-12+000399999V0200901N001512200019N0020001N1+02571+02291101561ADDGF102991021041008001001001KA1240M+03091MA1999999101511MD1999999+0131REMSYN088AAXX  17004 83498 32595 20903 10257 20229 30151 40156 82400 333 10309 29080 55/// 58013;
0156834980999992011021712004-17733-039250FM-12+000399999V0200501N003112200019N0020001N1+02881+02441101651ADDGF104991021011008001001011KA1240N+02371MA1999999101601MD1999999+0091REMSYN076AAXX  17124 83498 32595 40506 10288 20244 30160 40165 82101 333 20237 58009;
0137834980999992011021718004-17733-039250FM-12+000399999V0200901N003112200019N0020001N1+02981+02511101561ADDGF104991041021008001001001MA1999999101511MD1999999+0151REMSYN070AAXX  17184 83498 32595 40906 10298 20251 30151 40156 84200 333 58015;
0168834980999992011021800004-17733-039250FM-12+000399999V0200901N001510075019N0020001N1+02641+02441101701ADDGF105991051021008001001001KA1240M+03141MA1999999101651MD1999999+0141REMSYN088AAXX  18004 83498 32595 50903 10264 20244 30165 40170 85200 333 10314 29083 55/// 58014;
0201834980999992011021812004-17733-039250FM-12+000399999V0200901N003110450019N0020001N1+02801+02341101661ADDAA124001091AY121061AY211061GF106991031041008001011001KA1240N+02551MA1999999101611MD1999999+0011MW1031REMSYN088AAXX  18124 83498 21595 60906 10280 20234 30161 40166 70321 83410 333 20255 58001 60014;
0137834980999992011021818004-17733-039250FM-12+000399999V0200901N002611050019N0020001N1+02931+02341101431ADDGF105991021021008001001021MA1999999101381MD1999999-0131REMSYN070AAXX  18184 83498 32595 50905 10293 20234 30138 40143 82202 333 59013;
0168834980999992011021900004-17733-039250FM-12+000399999V0200901N001012200019N0020001N1+02651+02421101511ADDGF104991041021008001001001KA1240M+03041MA1999999101461MD1999999-0191REMSYN088AAXX  19004 83498 32595 40902 10265 20242 30146 40151 84200 333 10304 29081 55/// 59019;
0156834980999992011021912004-17733-039250FM-12+000399999V0201801N002110450019N0020001N1+02751+02431101521ADDGF106991041021008001041001KA1240N+02401MA1999999101471MD1999999-0171REMSYN076AAXX  19124 83498 32595 61804 10275 20243 30147 40152 84240 333 20240 59017;
0137834980999992011021918004-17733-039250FM-12+000399999V0201401N003110450019N0020001N1+02931+02411101301ADDGF106991021031008001051001MA1999999101251MD1999999-0131REMSYN070AAXX  19184 83498 32595 61406 10293 20241 30125 40130 82350 333 59013;
0201834980999992011022012004-17733-039250FM-12+000399999V0200901N001510450019N0020001N1+02761+02521101601ADDAA124004191AY161061AY221061GF106991031051008001011001KA1240N+02361MA1999999101551MD1999999+0081MW1211REMSYN088AAXX  20124 83498 21595 60903 10276 20252 30155 40160 72162 83510 333 20236 58008 60044;
0137834980999992011022018004-17733-039250FM-12+000399999V0200901N002612200019N0020001N1+02921+02521101351ADDGF105991021011008001001011MA1999999101301MD1999999+0051REMSYN070AAXX  20184 83498 32595 50905 10292 20252 30130 40135 82101 333 58005;
0201834980999992011022112004-17733-039250FM-12+000399999V0209999C000010450019N0020001N1+02731+02431101701ADDAA124005191AY121061AY211061GF107991031051008001021001KA1240N+02411MA1999999101651MD1999999+0101MW1031REMSYN088AAXX  21124 83498 21595 70000 10273 20243 30165 40170 70321 83520 333 20241 58010 60054;
0182834980999992011022118004-17733-039250FM-12+000399999V0203601N002612200019N0020001N1+03071+02401101491ADDAA106010991AY121061AY211061GF106991031031008001001011MA1999999101441MD1999999+0141MW1031REMSYN082AAXX  21184 83498 21595 63605 10307 20240 30144 40149 70321 83301 333 58014 60111;
0168834980999992011022200004-17733-039250FM-12+000399999V0200901N001012200019N0020001N1+02551+02381101601ADDGF103991031051008001001001KA1240M+03101MA1999999101551MD1999999+0041REMSYN088AAXX  22004 83498 32595 30902 10255 20238 30155 40160 83500 333 10310 29084 55/// 58004;
0173834980999992011022212004-17733-039250FM-12+000399999V0203601N002610450019N0020001N1+02851+02461101561ADDAA124010991GF106991031051008001041001KA1240N+02391MA1999999101511MD1999999-0141REMSYN082AAXX  22124 83498 22595 63605 10285 20246 30151 40156 83540 333 20239 59014 60114;
0137834980999992011022218004-17733-039250FM-12+000399999V0203601N002610450019N0020001N1+02871+02561101221ADDGF106991031031008001051001MA1999999101171MD1999999-0271REMSYN070AAXX  22184 83498 32595 63605 10287 20256 30117 40122 83350 333 59027;
0178834980999992011022300004-17733-039250FM-12+000399999V0200501N003112200019N0020001N1+02551+02421101241ADDGA1001+999999999GF100991001001999999001001KA1240M+03151MA1999999101191MD1999999-0361REMSYN082AAXX  23004 83498 32995 00506 10255 20242 30119 40124 333 10315 29088 55/// 59036;
0156834980999992011022312004-17733-039250FM-12+000399999V0203601N003610075019N0020001N1+02841+02461101181ADDGF105991051021008001001001KA1240N+02281MA1999999101131MD1999999-0381REMSYN076AAXX  23124 83498 32595 53607 10284 20246 30113 40118 85200 333 20228 59038;
0137834980999992011022318004-17733-039250FM-12+000399999V0203601N004112200019N0020001N1+03061+02541100761ADDGF102991021011008001001001MA1999999100711MD1999999-0461REMSYN070AAXX  23184 83498 32595 23608 10306 20254 30071 40076 82100 333 59046;
0168834980999992011022400004-17733-039250FM-12+000399999V0203601N004112200019N0020001N1+02701+02591100831ADDGF102991021011008001001001KA1240M+03211MA1999999100781MD1999999-0411REMSYN088AAXX  24004 83498 32595 23608 10270 20259 30078 40083 82100 333 10321 29086 55/// 59041;
0156834980999992011022412004-17733-039250FM-12+000399999V0203201N003112200019N0020001N1+02931+02501101151ADDGF104991021011008001061001KA1240N+02531MA1999999101101MD1999999-0031REMSYN076AAXX  24124 83498 32595 43206 10293 20250 30110 40115 82160 333 20253 59003;
0137834980999992011022418004-17733-039250FM-12+000399999V0200501N001511050019N0020001N1+02791+02501100871ADDGF105991021011008001031021MA1999999100821MD1999999+0111REMSYN070AAXX  24184 83498 32595 50503 10279 20250 30082 40087 82132 333 58011;
0190834980999992011022500004-17733-039250FM-12+000399999V0203601N001512200019N0020001N1+02631+02531101071ADDGA1001+999999999GF100991001001999999001001KA1240M+03331MA1999999101021MD1999999+0241MW1131REMSYN088AAXX  25004 83498 31995 03603 10263 20253 30102 40107 713// 333 10333 29089 55/// 58024;
0156834980999992011022512004-17733-039250FM-12+000399999V0203601N001510450019N0020001N1+02831+02501101291ADDGF106991041051008001041001KA1240N+02481MA1999999101241MD1999999+0141REMSYN076AAXX  25124 83498 32595 63603 10283 20250 30124 40129 84540 333 20248 58014;
0156834980999992011022518004-17733-039250FM-12+000399999V0200501N003110450019N0020001N1+03091+02561999999ADDGF105991031031008001021001MA1999999100941MD1999999+0121REMSYN070AAXX  25184 83498 32595 50506 10309 20256 30094 40009 83320 333 58012;EQDQ01+100093APOSLP
0168834980999992011022600004-17733-039250FM-12+000399999V0202701N001510075019N0020001N1+02631+02551101281ADDGF108991051051008001021999KA1240M+03191MA1999999101231MD1999999+0211REMSYN088AAXX  26004 83498 32595 82703 10263 20255 30123 40128 8552/ 333 10319 29088 55/// 58021;
0156834980999992011022612004-17733-039250FM-12+000399999V0203201N001510450019N0020001N1+02701+02521101331ADDGF108991041051008001051011KA1240N+02361MA1999999101281MD1999999+0041REMSYN076AAXX  26124 83498 32595 83203 10270 20252 30128 40133 84551 333 20236 58004;
0137834980999992011022618004-17733-039250FM-12+000399999V0200501N002611050019N0020001N1+03021+02461101051ADDGF106991031011008001001021MA1999999101001MD1999999+0061REMSYN070AAXX  26184 83498 32595 60505 10302 20246 30100 40105 83102 333 58006;
0173834980999992011022712004-17733-039250FM-12+000399999V0203601N002110450019N0020001N1+02751+02521101271ADDAA124002091GF107991031051008001021001KA1240N+02421MA1999999101221MD1999999-0061REMSYN082AAXX  27124 83498 22595 73604 10275 20252 30122 40127 83520 333 20242 59006 60024;
0137834980999992011022718004-17733-039250FM-12+000399999V0200901N002612200019N0020001N1+03141+02321100941ADDGF101991011011008001001001MA1999999100891MD1999999-0111REMSYN070AAXX  27184 83498 32595 10905 10314 20232 30089 40094 81100 333 59011;
0156834980999992011022812004-17733-039250FM-12+000399999V0203601N002612200019N0020001N1+02931+02521101181ADDGF105991031021008001001011KA1240N+02481MA1999999101131MD1999999-0091REMSYN076AAXX  28124 83498 32595 53605 10293 20252 30113 40118 83201 333 20248 59009;
0178834980999992011030100004-17733-039250FM-12+000399999V0200501N002612200019N0020001N1+02551+02291101031ADDGA1001+999999999GF100991001001999999001001KA1240M+03151MA1999999100981MD1999999-0071REMSYN082AAXX  01004 83498 32995 00505 10255 20229 30098 40103 333 10315 29080 55/// 59007;
0156834980999992011030112004-17733-039250FM-12+000399999V0203601N003612200019N0020001N1+02861+02371101151ADDGF106991041021008001001011KA1240N+02311MA1999999101101MD1999999-0031REMSYN076AAXX  01124 83498 32595 63607 10286 20237 30110 40115 84201 333 20231 59003;
0137834980999992011030118004-17733-039250FM-12+000399999V0203601N004111050019N0020001N1+03081+02431100921ADDGF105991021011008001001021MA1999999100871MD1999999+0011REMSYN070AAXX  01184 83498 32595 53608 10308 20243 30087 40092 82102 333 58001;
0168834980999992011030200004-17733-039250FM-12+000399999V0200901N000512200019N0020001N1+02541+02401101111ADDGF102991021011008001001001KA1240M+03141MA1999999101061MD1999999+0081REMSYN088AAXX  02004 83498 32595 20901 10254 20240 30106 40111 82100 333 10314 29082 55/// 58008;
0156834980999992011030212004-17733-039250FM-12+000399999V0203601N002612200019N0020001N1+02771+02341101321ADDGF105991031021008001001011KA1240N+02261MA1999999101271MD1999999+0171REMSYN076AAXX  02124 83498 32595 53605 10277 20234 30127 40132 83201 333 20226 58017;
0137834980999992011030218004-17733-039250FM-12+000399999V0200501N002612200019N0020001N1+03151+02321100981ADDGF101991011011008001001051MA1999999100931MD1999999+0061REMSYN070AAXX  02184 83498 32595 10505 10315 20232 30093 40098 81105 333 58006;
0178834980999992011030300004-17733-039250FM-12+000399999V0200901N001012200019N0020001N1+02581+02401101221ADDGA1001+999999999GF100991001001999999001001KA1240M+03231MA1999999101171MD1999999+0111REMSYN082AAXX  03004 83498 32995 00902 10258 20240 30117 40122 333 10323 29080 55/// 58011;
0220834980999992011030312004-17733-039250FM-12+000399999V0200901N001510450019N0020001N1+02741+02401101421ADDAA124000091AY121061AY211061GF107991031061008001021001KA1240N+02171MA1999999101371MD1999999+0101MW1031REMSYN088AAXX  03124 83498 21595 70903 10274 20240 30137 40142 70321 83620 333 20217 58010 69924;EQDQ01  00002PRCP24
0182834980999992011030318004-17733-039250FM-12+000399999V0200901N003612200019N0020001N1+02931+02411101041ADDAA106023191AY121061AY211061GF102991011011008001001011MA1999999100991MD1999999+0061MW1031REMSYN082AAXX  03184 83498 21595 20907 10293 20241 30099 40104 70321 81101 333 58006 60231;
0173834980999992011030412004-17733-039250FM-12+000399999V0201801N001511050019N0020001N1+02761+02561101401ADDAA124023191GF107991041051008001001021KA1240N+02351MA1999999101351MD1999999-0021REMSYN082AAXX  04124 83498 22595 71803 10276 20256 30135 40140 84502 333 20235 59002 60234;
0137834980999992011030418004-17733-039250FM-12+000399999V0200901N003110450019N0020001N1+02821+02621101151ADDGF108991041051008001051021MA1999999101101MD1999999-0111REMSYN070AAXX  04184 83498 32595 80906 10282 20262 30110 40115 84552 333 59011;
0201834980999992011030512004-17733-039250FM-12+000399999V0201801N001010450019N0020001N1+02571+02441101361ADDAA124000591AY121061AY211061GF107991031061008001011001KA1240N+02231MA1999999101311MD1999999-0041MW1031REMSYN088AAXX  05124 83498 21595 71802 10257 20244 30131 40136 70321 83610 333 20223 59004 69954;
0182834980999992011030518004-17733-039250FM-12+000399999V0200901N002610450019N0020001N1+02781+02501101151ADDAA106004191AY121061AY211061GF107991031051008001051001MA1999999101101MD1999999+0001MW1031REMSYN082AAXX  05184 83498 21595 70905 10278 20250 30110 40115 70321 83550 333 58000 60041;
0201834980999992011030612004-17733-039250FM-12+000399999V0200901N001510450019N0020001N1+02701+02231101281ADDAA124006191AY161061AY261061GF107991041051008001011001KA1240N+02411MA1999999101231MD1999999-0081MW1211REMSYN088AAXX  06124 83498 21595 70903 10270 20223 30123 40128 72166 84510 333 20241 59008 60064;
0182834980999992011030618004-17733-039250FM-12+000399999V0200901N002610450019N0020001N1+02811+02401101071ADDAA106000891AY121061AY211061GF107991041061008001011001MA1999999101021MD1999999-0081MW1031REMSYN082AAXX  06184 83498 21595 70905 10281 20240 30102 40107 70321 84610 333 59008 69971;
0173834980999992011030712004-17733-039250FM-12+000399999V0203601N001512200019N0020001N1+02841+02501101311ADDAA124000591GF106991041041008001001011KA1240N+02391MA1999999101261MD1999999+0031REMSYN082AAXX  07124 83498 22595 63603 10284 20250 30126 40131 84401 333 20239 58003 69964;
0137834980999992011030718004-17733-039250FM-12+000399999V0200501N003612200019N0020001N1+03101+02491101001ADDGF104991021011008001001011MA1999999100951MD1999999-0071REMSYN070AAXX  07184 83498 32595 40507 10310 20249 30095 40100 82101 333 59007;
0201834980999992011030812004-17733-039250FM-12+000399999V0203601N003110450019N0020001N1+02781+02561101351ADDAA124002091AY121061AY211061GF107991031051008001021001KA1240N+02481MA1999999101301MD1999999+0041MW1031REMSYN088AAXX  08124 83498 21595 73606 10278 20256 30130 40135 70321 83520 333 20248 58004 60024;
0182834980999992011030818004-17733-039250FM-12+000399999V0200501N001510450019N0020001N1+02741+02451101071ADDAA106004191AY121061AY211061GF107991031051008001031001MA1999999101021MD1999999+0071MW1031REMSYN082AAXX  08184 83498 21595 70503 10274 20245 30102 40107 70321 83530 333 58007 60041;
0179834980999992011030912004-17733-039250FM-12+000399999V0203601N002610450019N0020001N1+02791+02521101181ADDAA124004091GF107991041051008001011001KA1240N+02531MA1999999101131MD1999999-0171REMSYN088AAXX  09124 83498 22595 73605 10279 20252 30113 40118 84510 333 20253 59017 60044 10042;
0145834980999992011030918004-17733-039250FM-12+000399999V0203601N005119999999N0020001N1+02851+02501100821ADDGA1031+015001031GF107991999999008001999999MA1999999100771REMSYN076AAXX  09184 83498 31595 73610 10285 20250 30077 40082 333 717// 83350 59025;
0201834980999992011031012004-17733-039250FM-12+000399999V0202701N001510450019N0020001N1+02601+02501101061ADDAA124013091AY161061AY261061GF108991041061008001011999KA1240N+02351MA1999999101011MD1999999-0121MW1211REMSYN088AAXX  10124 83498 21595 82703 10260 20250 30101 40106 72166 8461/ 333 20235 59012 60134;
0137834980999992011031018004-17733-039250FM-12+000399999V0200501N001010450019N0020001N1+02741+02581100841ADDGF108991031061008001021999MA1999999100791MD1999999+0021REMSYN070AAXX  10184 83498 32595 80502 10274 20258 30079 40084 8362/ 333 58002;
0213834980999992011031100004-17733-039250FM-12+000399999V0203601N001510450019N0020001N1+02361+02331101041ADDAA106042991AY191061AY261061GF108991041071008001021999KA1240M+02891MA1999999100991MD1999999-0061MW1921REMSYN100AAXX  11004 83498 21595 83603 10236 20233 30099 40104 79296 8472/ 333 10289 29095 55/// 59006 60431;
0201834980999992011031112004-17733-039250FM-12+000399999V0203601N001010450019N0020001N1+02421+02331101131ADDAA124045091AY131061AY211061GF108991041061008001021999KA1240N+02331MA1999999101081MD1999999+0071MW1031REMSYN088AAXX  11124 83498 21595 83602 10242 20233 30108 40113 70331 8462/ 333 20233 58007 60454;
0149834980999992011031118004-17733-039250FM-12+000399999V0200901N001510450019N0020001N1+02651+02401100871ADDGF108991041061008001021001MA1999999100821MD1999999+0031MW1171REMSYN076AAXX  11184 83498 31595 80903 10265 20240 30082 40087 717// 84620 333 58003;
0213834980999992011031200004-17733-039250FM-12+000399999V0203601N003110450019N0020001N1+02511+02451101071ADDAA106055991AY161061AY261061GF108991041071008001021999KA1240M+02911MA1999999101021MD1999999+0031MW1211REMSYN100AAXX  12004 83498 21595 83606 10251 20245 30102 40107 72166 8472/ 333 10291 29095 55/// 58003 60561;
0201834980999992011031212004-17733-039250FM-12+000399999V0203601N003110075019N0020001N1+02551+02471101201ADDAA124057991AY121061AY211061GF108991051061008001021999KA1240N+02471MA1999999101151MD1999999+0071MW1031REMSYN088AAXX  12124 83498 21595 83606 10255 20247 30115 40120 70321 8562/ 333 20247 58007 60584;
0182834980999992011031218004-17733-039250FM-12+000399999V0203601N003110450019N0020001N1+02531+02471100811ADDAA106001091AY161061AY261061GF108991031071008001021999MA1999999100761MD1999999-0061MW1601REMSYN082AAXX  12184 83498 21595 83606 10253 20247 30076 40081 76066 8372/ 333 59006 60011;
0173834980999992011031312004-17733-039250FM-12+000399999V0203601N004110450019N0020001N1+02621+02311100891ADDAA124001091GF108991041061008001021999KA1240N+02331MA1999999100841MD1999999-0311REMSYN082AAXX  13124 83498 22595 83608 10262 20231 30084 40089 8462/ 333 20233 59031 60014;
0137834980999992011031318004-17733-039250FM-12+000399999V0203601N004610075019N0020001N1+02821+02541100621ADDGF108991051061008001021999MA1999999100571MD1999999-0191REMSYN070AAXX  13184 83498 32595 83609 10282 20254 30057 40062 8562/ 333 59019;
0201834980999992011031412004-17733-039250FM-12+000399999V0203601N003110450019N0020001N1+02581+02421100781ADDAA124013091AY161061AY261061GF107991041061008001021001KA1240N+02451MA1999999100731MD1999999-0111MW1211REMSYN088AAXX  14124 83498 21595 73606 10258 20242 30073 40078 72166 84620 333 20245 59011 60134;
0137834980999992011031418004-17733-039250FM-12+000399999V0203601N002610450019N0020001N1+03011+02551100521ADDGF106991031051008001031001MA1999999100471MD1999999-0101REMSYN070AAXX  14184 83498 32595 63605 10301 20255 30047 40052 83530 333 59010;
0229834980999992011031500004-17733-039250FM-12+000399999V0203601N002110012019N0020001N1+02671+02461100881ADDAA106002091AY161061AY221061GA1091+999999999GF109991091999999999999999KA1240M+03031MA1999999100831MD1999999+0141MW1611REMSYN100AAXX  15004 83498 21595 93604 10267 20246 30083 40088 76162 8472/ 333 10303 29087 55/// 58014 60021;
0173834980999992011031512004-17733-039250FM-12+000399999V0203601N003112200019N0020001N1+03011+02601101061ADDAA124002091GF103991021011008001001011KA1240N+02511MA1999999101011MD1999999+0281REMSYN082AAXX  15124 83498 22595 33606 10301 20260 30101 40106 82101 333 20251 58028 60024;
0182834980999992011031518004-17733-039250FM-12+000399999V0203601N003112200019N0020001N1+02931+02701100771ADDAA106001091AY161061AY261061GF104991021031008001041001MA1999999100721MD1999999+0251MW1211REMSYN082AAXX  15184 83498 21595 43606 10293 20270 30072 40077 72166 82340 333 58025 60011;
0213834980999992011031600004-17733-039250FM-12+000399999V0202701N001010450019N0020001N1+02321+02221101101ADDAA106007191AY161061AY261061GF108991021071008001021999KA1240M+03311MA1999999101051MD1999999+0221MW1211REMSYN100AAXX  16004 83498 21595 82702 10232 20222 30105 40110 72166 8272/ 333 10331 29089 55/// 58022 60071;
0201834980999992011031612004-17733-039250FM-12+000399999V0203201N000510450019N0020001N1+02701+02671101391ADDAA124010991AY161061AY261061GF108991041061008001021999KA1240N+02251MA1999999101341MD1999999+0331MW1211REMSYN088AAXX  16124 83498 21595 83201 10270 20267 30134 40139 72166 8462/ 333 20225 58033 60114;
0137834980999992011031618004-17733-039250FM-12+000399999V0200901N001010450019N0020001N1+02861+02661101121ADDGF108991041051008001011999MA1999999101071MD1999999+0351REMSYN070AAXX  16184 83498 32595 80902 10286 20266 30107 40112 8451/ 333 58035;
0168834980999992011031700004-17733-039250FM-12+000399999V0201801N001510450019N0020001N1+02601+02461101321ADDGF108991021051008001011999KA1240M+02991MA1999999101271MD1999999+0221REMSYN088AAXX  17004 83498 32595 81803 10260 20246 30127 40132 8251/ 333 10299 29093 55/// 58022;
0201834980999992011031712004-17733-039250FM-12+000399999V0201801N002610450019N0020001N1+02401+02351101421ADDAA124011991AY161061AY221061GF108991041071008001021999KA1240N+02381MA1999999101371MD1999999+0031MW1611REMSYN088AAXX  17124 83498 21595 81805 10240 20235 30137 40142 76162 8472/ 333 20238 58003 60124;
0187834980999992011031800004-17733-039250FM-12+000399999V0201401N001519999999N0020001N1+02631+02411101401ADDGF105991999021008001001001KA1240M+02961MA1999999101351MD1999999+0081REMSYN088AAXX  18004 83498 32595 51403 10263 20241 30135 40140 83200 333 10296 29089 55/// 58008;EQDQ01+000032SCOTLC
0156834980999992011031812004-17733-039250FM-12+000399999V0201401N003110450019N0020001N1+02711+02451101441ADDGF106991031041008001021001KA1240N+02401MA1999999101391MD1999999+0021REMSYN076AAXX  18124 83498 32595 61406 10271 20245 30139 40144 83420 333 20240 58002;
0201834980999992011031818004-17733-039250FM-12+000399999V0201401N002110450019N0020001N1+02761+02281101231ADDAA106000091AY121061AY211061GF106991031041008001011001MA1999999101181MD1999999+0041MW1031REMSYN082AAXX  18184 83498 21595 61404 10276 20228 30118 40123 70321 83410 333 58004 69921;EQDQ01  00002PRCP06
0168834980999992011031900004-17733-039250FM-12+000399999V0200901N001512200019N0020001N1+02521+02391101421ADDGF101991011001008001001051KA1240M+02791MA1999999101371MD1999999+0021REMSYN088AAXX  19004 83498 32595 10903 10252 20239 30137 40142 81005 333 10279 29084 55/// 58002;
0192834980999992011031912004-17733-039250FM-12+000399999V0200901N001512200019N0020001N1+02701+02241101401ADDAA124000091GF104991041021008001001001KA1240N+02181MA1999999101351MD1999999-0041REMSYN082AAXX  19124 83498 22595 40903 10270 20224 30135 40140 84200 333 20218 59004 69924;EQDQ01  00002PRCP24
0137834980999992011031918004-17733-039250FM-12+000399999V0200901N002612200019N0020001N1+02841+02381101201ADDGF102991021011008001001001MA1999999101151MD1999999-0031REMSYN070AAXX  19184 83498 32595 20905 10284 20238 30115 40120 82100 333 59003;
0168834980999992011032000004-17733-039250FM-12+000399999V0200901N001512200019N0020001N1+02561+02291101381ADDGF102991021011008001001001KA1240M+02921MA1999999101331MD1999999-0041REMSYN088AAXX  20004 83498 32595 20903 10256 20229 30133 40138 82100 333 10292 29081 55/// 59004;
0156834980999992011032012004-17733-039250FM-12+000399999V0201801N003110450019N0020001N1+02751+02401101481ADDGF107991041051008001041001KA1240N+02221MA1999999101431MD1999999+0081REMSYN076AAXX  20124 83498 32595 71806 10275 20240 30143 40148 84540 333 20222 58008;
0137834980999992011032018004-17733-039250FM-12+000399999V0201801N002610450019N0020001N1+02951+02541101311ADDGF106991041051008001041001MA1999999101261MD1999999+0111REMSYN070AAXX  20184 83498 32595 61805 10295 20254 30126 40131 84540 333 58011;
0213834980999992011032100004-17733-039250FM-12+000399999V0201401N003110450019N0020001N1+02531+02361101491ADDAA106001091AY161061AY261061GF108991031071008001021999KA1240M+02931MA1999999101441MD1999999+0111MW1211REMSYN100AAXX  21004 83498 21595 81406 10253 20236 30144 40149 72166 8372/ 333 10293 29087 55/// 58011 60011;
0201834980999992011032112004-17733-039250FM-12+000399999V0200901N004110450019N0020001N1+02771+02361101421ADDAA124002091AY121061AY211061GF106991041021008001041001KA1240N+02381MA1999999101371MD1999999-0061MW1031REMSYN088AAXX  21124 83498 21595 60908 10277 20236 30137 40142 70321 84240 333 20238 59006 60024;
0137834980999992011032118004-17733-039250FM-12+000399999V0201401N003110450019N0020001N1+02811+02461101311ADDGF106991031021008001041001MA1999999101261MD1999999+0001REMSYN070AAXX  21184 83498 32595 61406 10281 20246 30126 40131 83240 333 58000;
0213834980999992011032200004-17733-039250FM-12+000399999V0201401N004110075019N0020001N1+02601+02401101441ADDAA106002091AY121061AY211061GF108991051051008001021999KA1240M+02891MA1999999101391MD1999999-0051MW1031REMSYN100AAXX  22004 83498 21595 81408 10260 20240 30139 40144 70321 8552/ 333 10289 29085 55/// 59005 60021;
0173834980999992011032212004-17733-039250FM-12+000399999V0201401N001512200019N0020001N1+02781+02441101511ADDAA124002091GF106991041021008001001011KA1240N+02311MA1999999101461MD1999999+0091REMSYN082AAXX  22124 83498 22595 61403 10278 20244 30146 40151 84201 333 20231 58009 60024;
0137834980999992011032218004-17733-039250FM-12+000399999V0201401N003110075019N0020001N1+02801+02581101351ADDGF105991051021008001001001MA1999999101301MD1999999+0041REMSYN070AAXX  22184 83498 32595 51406 10280 20258 30130 40135 85200 333 58004;
0220834980999992011032312004-17733-039250FM-12+000399999V0200901N003110450019N0020001N1+02811+02401101651ADDAA124000091AY121061AY211061GF105991021021008001031001KA1240N+02551MA1999999101601MD1999999+0141MW1031REMSYN088AAXX  23124 83498 21595 50906 10281 20240 30160 40165 70321 82230 333 20255 58014 69924;EQDQ01  00002PRCP24
0137834980999992011032318004-17733-039250FM-12+000399999V0200901N004110450019N0020001N1+02831+02441101431ADDGF106991031041008001011001MA1999999101381MD1999999+0081REMSYN070AAXX  23184 83498 32595 60908 10283 20244 30138 40143 83410 333 58008;
0168834980999992011032400004-17733-039250FM-12+000399999V0200901N001510450019N0020001N1+02641+02421101631ADDGF105991021051008001011001KA1240M+02931MA1999999101581MD1999999+0081REMSYN088AAXX  24004 83498 32595 50903 10264 20242 30158 40163 82510 333 10293 29084 55/// 58008;
0156834980999992011032412004-17733-039250FM-12+000399999V0201401N001510450019N0020001N1+02751+02481101661ADDGF106991041051008001011001KA1240N+02531MA1999999101611MD1999999+0011REMSYN076AAXX  24124 83498 32595 61403 10275 20248 30161 40166 84510 333 20253 58001;
0141834980999992011032418004-17733-039250FM-12+000399999V0201401N003111050019N0020001N1+02871+02521101421ADDGF105991031021008001001021MD1999999-0011REMSYN070AAXX  24184 83498 32595 51406 10287 20252 39137 40142 83202 333 59001;EQDQ01+091373APOSP 
0168834980999992011032500004-17733-039250FM-12+000399999V0200901N001512200019N0020001N1+02671+02481101581ADDGF104991041021008001001001KA1240M+02991MA1999999101531MD1999999-0051REMSYN088AAXX  25004 83498 32595 40903 10267 20248 30153 40158 84200 333 10299 29087 55/// 59005;
0201834980999992011032512004-17733-039250FM-12+000399999V0202301N000510075019N0020001N1+02701+02521101531ADDAA124000021AY161061AY221061GF105991051021008001001001KA1240N+02371MA1999999101481MD1999999-0131MW1211REMSYN088AAXX  25124 83498 21595 52301 10270 20252 30148 40153 72162 85200 333 20237 59013 69924;
0182834980999992011032518004-17733-039250FM-12+000399999V0200901N001510450019N0020001N1+02821+02581101251ADDAA106003091AY161061AY261061GF108991031051008001011999MA1999999101201MD1999999-0171MW1211REMSYN082AAXX  25184 83498 21595 80903 10282 20258 30120 40125 72166 8351/ 333 59017 60031;
0178834980999992011032600004-17733-039250FM-12+000399999V0209999C000012200019N0020001N1+02501+02451101451ADDGA1001+999999999GF100991001001999999001001KA1240M+02871MA1999999101401MD1999999-0131REMSYN082AAXX  26004 83498 32995 00000 10250 20245 30140 40145 333 10287 29093 55/// 59013;
0173834980999992011032612004-17733-039250FM-12+000399999V0209999C000010450019N0020001N1+02591+02481101441ADDAA124003091GF107991021071008001011001KA1240N+02331MA1999999101391MD1999999-0091REMSYN082AAXX  26124 83498 22595 70000 10259 20248 30139 40144 82710 333 20233 59009 60034;
0182834980999992011032618004-17733-039250FM-12+000399999V0200901N003112200019N0020001N1+02931+02521101151ADDAA106000591AY121061AY211061GF102991021011008001001001MA1999999101101MD1999999-0101MW1031REMSYN082AAXX  26184 83498 21595 20906 10293 20252 30110 40115 70321 82100 333 59010 69941;
0178834980999992011032700004-17733-039250FM-12+000399999V0200501N000512200019N0020001N1+02501+02401101351ADDGA1001+999999999GF100991001001999999001001KA1240M+03031MA1999999101301MD1999999-0101REMSYN082AAXX  27004 83498 32995 00501 10250 20240 30130 40135 333 10303 29090 55/// 59010;
0173834980999992011032712004-17733-039250FM-12+000399999V0209999C000010450019N0020001N1+02711+02391101491ADDAA124000591GF106991041051008001041001KA1240N+02331MA1999999101441MD1999999+0051REMSYN082AAXX  27124 83498 22595 60000 10271 20239 30144 40149 84540 333 20233 58005 69944;
0137834980999992011032718004-17733-039250FM-12+000399999V0200901N004612200019N0020001N1+02971+02471101171ADDGF102991021011008001001001MA1999999101121MD1999999+0021REMSYN070AAXX  27184 83498 32595 20909 10297 20247 30112 40117 82100 333 58002;
0178834980999992011032800004-17733-039250FM-12+000399999V0200501N001012200019N0020001N1+02481+02321101371ADDGA1001+999999999GF100991001001999999001001KA1240M+03091MA1999999101321MD1999999+0021REMSYN082AAXX  28004 83498 32995 00502 10248 20232 30132 40137 333 10309 29085 55/// 58002;
0156834980999992011032812004-17733-039250FM-12+000399999V0201801N001010075019N0020001N1+02761+02501101681ADDGF105991051021008001001001KA1240N+02261MA1999999101631MD1999999+0191REMSYN076AAXX  28124 83498 32595 51802 10276 20250 30163 40168 85200 333 20226 58019;
0137834980999992011032818004-17733-039250FM-12+000399999V0200901N001512200019N0020001N1+02921+02521101451ADDGF102991021011008001001001MA1999999101401MD1999999+0281REMSYN070AAXX  28184 83498 32595 20903 10292 20252 30140 40145 82100 333 58028;
0168834980999992011032900004-17733-039250FM-12+000399999V0200901N001512200019N0020001N1+02601+02461101501ADDGF101991011011008001001001KA1240M+02981MA1999999101451MD1999999+0131REMSYN088AAXX  29004 83498 32595 10903 10260 20246 30145 40150 81100 333 10298 29087 55/// 58013;
0175834980999992011032912004-17733-039250FM-12+000399999V0201801N001519999999N0020001N1+02781+02521101601ADDGF106991999021008001001001KA1240N+02351MA1999999101551MD1999999-0081REMSYN076AAXX  29124 83498 32595 61803 10278 20252 30155 40160 84200 333 20235 59008;EQDQ01+000042SCOTLC
0137834980999992011032918004-17733-039250FM-12+000399999V0200901N003112200019N0020001N1+03021+02411101271ADDGF102991021011008001001001MA1999999101221MD1999999-0181REMSYN070AAXX  29184 83498 32595 20906 10302 20241 30122 40127 82100 333 59018;
0178834980999992011033000004-17733-039250FM-12+000399999V0209999C000012200019N0020001N1+02491+02301101451ADDGA1001+999999999GF100991001001999999001001KA1240M+03051MA1999999101401MD1999999-0051REMSYN082AAXX  30004 83498 32995 00000 10249 20230 30140 40145 333 10305 29084 55/// 59005;
0156834980999992011033012004-17733-039250FM-12+000399999V0203201N002612200019N0020001N1+02891+02481101561ADDGF102991021011008001001011KA1240N+02351MA1999999101511MD1999999-0041REMSYN076AAXX  30124 83498 32595 23205 10289 20248 30151 40156 82101 333 20235 59004;
0137834980999992011033018004-17733-039250FM-12+000399999V0200501N004612200019N0020001N1+03081+02321101131ADDGF101991011011008001001011MA1999999101081MD1999999-0141REMSYN070AAXX  30184 83498 32595 10509 10308 20232 30108 40113 81101 333 59014;
0178834980999992011033100004-17733-039250FM-12+000399999V0200501N001012200019N0020001N1+02551+02361101371ADDGA1001+999999999GF100991001001999999001001KA1240M+03211MA1999999101321MD1999999-0081REMSYN082AAXX  31004 83498 32995 00502 10255 20236 30132 40137 333 10321 29081 55/// 59008;
0156834980999992011033112004-17733-039250FM-12+000399999V0203601N001510450019N0020001N1+02821+02521101451ADDGF108991041021008001031999KA1240N+02341MA1999999101401MD1999999-0111REMSYN076AAXX  31124 83498 32595 83603 10282 20252 30140 40145 8423/ 333 20234 59011;
0137834980999992011033118004-17733-039250FM-12+000399999V0203601N004111050019N0020001N1+03041+02591101071ADDGF106991021011008001001021MA1999999101021MD1999999-0061REMSYN070AAXX  31184 83498 32595 63608 10304 20259 30102 40107 82102 333 59006;
0168834980999992011040100004-17733-039250FM-12+000399999V0200501N001012200019N0020001N1+02641+02571101211ADDGF103991031011008001001001KA1240M+03151MA1999999101161MD1999999-0161REMSYN088AAXX  01004 83498 32595 30502 10264 20257 30116 40121 83100 333 10315 29088 55/// 59016;
0201834980999992011040112004-17733-039250FM-12+000399999V0203201N003112200019N0020001N1+02891+02461101341ADDAA124000891AY161061AY261061GF101991011011008001031001KA1240N+02391MA1999999101291MD1999999-0111MW1211REMSYN088AAXX  01124 83498 21595 13206 10289 20246 30129 40134 72166 81130 333 20239 59011 69984;
0137834980999992011040118004-17733-039250FM-12+000399999V0200501N004112200019N0020001N1+03131+02481101001ADDGF102991021021008001001001MA1999999100951MD1999999-0071REMSYN070AAXX  01184 83498 32595 20508 10313 20248 30095 40100 82200 333 59007;
0180834980999992011040200004-17733-039250FM-12+000399999V0200901N001512200019N0020001N1+02651+02501101271ADDGF101991011011008001001001KA1240M+03321MA1999999101221MD1999999+0061MW1131REMSYN094AAXX  02004 83498 31595 10903 10265 20250 30122 40127 713// 81100 333 10332 29083 55/// 58006;
0201834980999992011040212004-17733-039250FM-12+000399999V0202301N001012200019N0020001N1+02801+02581101371ADDAA124003091AY161061AY221061GF104991041021008001001001KA1240N+02331MA1999999101321MD1999999+0031MW1211REMSYN088AAXX  02124 83498 21595 42302 10280 20258 30132 40137 72162 84200 333 20233 58003 60034;
0137834980999992011040218004-17733-039250FM-12+000399999V0201401N001512200019N0020001N1+02921+02621101051ADDGF104991031021008001031001MA1999999101001MD1999999+0051REMSYN070AAXX  02184 83498 32595 41403 10292 20262 30100 40105 83230 333 58005;
0168834980999992011040300004-17733-039250FM-12+000399999V0200901N000512200019N0020001N1+02581+02481101241ADDGF103991031051008001001001KA1240M+02991MA1999999101191MD1999999-0031REMSYN088AAXX  03004 83498 32595 30901 10258 20248 30119 40124 83500 333 10299 29090 55/// 59003;
0156834980999992011040312004-17733-039250FM-12+000399999V0203201N003110450019N0020001N1+02851+02521101291ADDGF106991031051008001021001KA1240N+02451MA1999999101241MD1999999-0081REMSYN076AAXX  03124 83498 32595 63206 10285 20252 30124 40129 83520 333 20245 59008;
0137834980999992011040318004-17733-039250FM-12+000399999V0200501N003112200019N0020001N1+03001+02571100851ADDGF101991011011008001001011MA1999999100801MD1999999-0201REMSYN070AAXX  03184 83498 32595 10506 10300 20257 30080 40085 81101 333 59020;
0190834980999992011040400004-17733-039250FM-12+000399999V0200501N000510012019N0020001N1+02711+02501101161ADDGA1091+999999999GF109991091999999999999999KA1240M+03191MA1999999101111MD1999999-0081MW1131REMSYN088AAXX  04004 83498 31/95 90501 10271 20250 30111 40116 713// 333 10319 29085 55/// 59008;
0201834980999992011040412004-17733-039250FM-12+000399999V0202701N001010450019N0020001N1+02481+02291101431ADDAA124017091AY161061AY221061GF108991041051008001011999KA1240N+02271MA1999999101381MD1999999+0141MW1211REMSYN088AAXX  04124 83498 21595 82702 10248 20229 30138 40143 72162 8451/ 333 20227 58014 60174;
0137834980999992011040418004-17733-039250FM-12+000399999V0202301N001010075019N0020001N1+02761+02541101211ADDGF108991051051008001011999MA1999999101161MD1999999+0361REMSYN070AAXX  04184 83498 32595 82302 10276 20254 30116 40121 8551/ 333 58036;
0168834980999992011040500004-17733-039250FM-12+000399999V0202701N000512200019N0020001N1+02401+02371101251ADDGF104991041051008001001001KA1240M+02801MA1999999101201MD1999999+0091REMSYN088AAXX  05004 83498 32595 42701 10240 20237 30120 40125 84500 333 10280 29094 55/// 58009;
0156834980999992011040512004-17733-039250FM-12+000399999V0203201N002612200019N0020001N1+02921+02471101371ADDGF103991031011008001031001KA1240N+02361MA1999999101321MD1999999-0061REMSYN076AAXX  05124 83498 32595 33205 10292 20247 30132 40137 83130 333 20236 59006;
0137834980999992011040518004-17733-039250FM-12+000399999V0200501N004112200019N0020001N1+03041+02481101061ADDGF102991021021008001001061MA1999999101011MD1999999-0151REMSYN070AAXX  05184 83498 32595 20508 10304 20248 30101 40106 82206 333 59015;
0178834980999992011040600004-17733-039250FM-12+000399999V0203601N001512200019N0020001N1+02611+02531101251ADDGA1001+999999999GF100991001001999999001001KA1240M+03211MA1999999101201MD1999999+0001REMSYN082AAXX  06004 83498 32995 03603 10261 20253 30120 40125 333 10321 29086 55/// 58000;
0156834980999992011040612004-17733-039250FM-12+000399999V0203601N003610450019N0020001N1+02821+02521101431ADDGF108991031021008001051011KA1240N+02411MA1999999101381MD1999999+0061REMSYN076AAXX  06124 83498 32595 83607 10282 20252 30138 40143 83251 333 20241 58006;
0137834980999992011040618004-17733-039250FM-12+000399999V0200501N003110450019N0020001N1+03041+02631101061ADDGF106991021011008001031011MA1999999101011MD1999999+0001REMSYN070AAXX  06184 83498 32595 60506 10304 20263 30101 40106 82131 333 58000;
0213834980999992011040700004-17733-039250FM-12+000399999V0201401N001010075019N0020001N1+02521+02491101471ADDAA106052191AY161061AY221061GF108991051071008001021999KA1240M+03111MA1999999101421MD1999999+0221MW1641REMSYN100AAXX  07004 83498 21595 81402 10252 20249 30142 40147 76462 8572/ 333 10311 29090 55/// 58022 60521;
0201834980999992011040712004-17733-039250FM-12+000399999V0203601N001510075019N0020001N1+02161+02111101711ADDAA124081091AY161061AY231061GF108991051071008001021999KA1240N+02181MA1999999101661MD1999999+0281MW1611REMSYN088AAXX  07124 83498 21595 83603 10216 20211 30166 40171 76163 8572/ 333 20218 58028 60814;
0182834980999992011040718004-17733-039250FM-12+000399999V0201801N001510450019N0020001N1+02691+02481101381ADDAA106004191AY161061AY261061GF107991031061008001031001MA1999999101331MD1999999+0321MW1211REMSYN082AAXX  07184 83498 21595 71803 10269 20248 30133 40138 72166 83630 333 58032 60041;
0173834980999992011040812004-17733-039250FM-12+000399999V0200901N001010450019N0020001N1+02741+02501101271ADDAA124004191GF108991041071008001021999KA1240N+02111MA1999999101621MD1999999-0041REMSYN082AAXX  08124 83498 22595 80902 10274 20250 30162 40127 8472/ 333 20211 59004 60044;
0182834980999992011040818004-17733-039250FM-12+000399999V0201801N000510075019N0020001N1+02401+02371101631ADDAA106051191AY161061AY221061GF108991061071008001021999MA1999999101581MD1999999+0251MW1211REMSYN082AAXX  08184 83498 21595 81801 10240 20237 30158 40163 72162 8672/ 333 58025 60511;
0213834980999992011040900004-17733-039250FM-12+000399999V0201801N001510450019N0020001N1+02361+02311101811ADDAA106000591AY161061AY261061GF106991031051008001011001KA1240M+02741MA1999999101761MD1999999+0161MW1211REMSYN100AAXX  09004 83498 21595 61803 10236 20231 30176 40181 72166 83510 333 10274 29095 55/// 58016 69951;
0173834980999992011040912004-17733-039250FM-12+000399999V0201801N001010450019N0020001N1+02441+02321101751ADDAA124051191GF107991031061008001031001KA1240N+02301MA1999999101701MD1999999+0081REMSYN082AAXX  09124 83498 22595 71802 10244 20232 30170 40175 83630 333 20230 58008 60514;
0182834980999992011040918004-17733-039250FM-12+000399999V0200901N001510450019N0020001N1+02831+02501101571ADDAA106001091AY121061AY211061GF106991031051008001031001MA1999999101521MD1999999-0061MW1031REMSYN082AAXX  09184 83498 21595 60903 10283 20250 30152 40157 70321 83530 333 59006 60011;
0168834980999992011041000004-17733-039250FM-12+000399999V0209999C000010450019N0020001N1+02481+02291101761ADDGF107991031061008001021001KA1240M+02851MA1999999101711MD1999999-0051REMSYN088AAXX  10004 83498 32595 70000 10248 20229 30171 40176 83620 333 10285 29092 55/// 59005;
0173834980999992011041012004-17733-039250FM-12+000399999V0202301N001510450019N0020001N1+02601+02371101761ADDAA124001091GF107991031011008001051011KA1240N+02181MA1999999101711MD1999999+0011REMSYN082AAXX  10124 83498 22595 72303 10260 20237 30171 40176 83151 333 20218 58001 60014;
0182834980999992011041018004-17733-039250FM-12+000399999V0200901N001010450019N0020001N1+02521+02421101691ADDAA106005191AY161061AY221061GF108991031051008001011999MA1999999101641MD1999999+0121MW1211REMSYN082AAXX  10184 83498 21595 80902 10252 20242 30164 40169 72162 8351/ 333 58012 60051;
0213834980999992011041100004-17733-039250FM-12+000399999V0200901N001510450019N0020001N1+02421+02371101661ADDAA106000591AY161061AY261061GF107991041051008001011001KA1240M+02801MA1999999101611MD1999999-0101MW1211REMSYN100AAXX  11004 83498 21595 70903 10242 20237 30161 40166 72166 84510 333 10280 29094 55/// 59010 69961;
0201834980999992011041112004-17733-039250FM-12+000399999V0201801N000512200019N0020001N1+02671+02481101751ADDAA124006191AY121061AY211061GF103991031011008001031001KA1240N+02281MA1999999101701MD1999999-0011MW1031REMSYN088AAXX  11124 83498 21595 31801 10267 20248 30170 40175 70321 83130 333 20228 59001 60064;
0137834980999992011041118004-17733-039250FM-12+000399999V0200901N002610450019N0020001N1+02901+02501101451ADDGF105991021031008001011001MA1999999101401MD1999999-0241REMSYN070AAXX  11184 83498 32595 50905 10290 20250 30140 40145 82310 333 59024;
0187834980999992011041200004-17733-039250FM-12+000399999V0200901N001519999999N0020001N1+02651+02441101591ADDGF106991999021008001001001KA1240M+02971MA1999999101541MD1999999-0071REMSYN088AAXX  12004 83498 32595 60903 10265 20244 30154 40159 83200 333 10297 29087 55/// 59007;EQDQ01+000032SCOTLC
0201834980999992011041212004-17733-039250FM-12+000399999V0202701N001010450019N0020001N1+02501+02451101661ADDAA124002091AY161061AY221061GF106991041051008001051001KA1240N+02231MA1999999101611MD1999999-0091MW1611REMSYN088AAXX  12124 83498 21595 62702 10250 20245 30161 40166 76162 84550 333 20223 59009 60024;
0137834980999992011041218004-17733-039250FM-12+000399999V0200901N001512200019N0020001N1+02861+02561101381ADDGF104991031051008001001011MA1999999101331MD1999999-0071REMSYN070AAXX  12184 83498 32595 40903 10286 20256 30133 40138 83501 333 59007;
0168834980999992011041300004-17733-039250FM-12+000399999V0200901N000510450019N0020001N1+02621+02461101381ADDGF105991031051008001011001KA1240M+02981MA1999999101331MD1999999-0211REMSYN088AAXX  13004 83498 32595 50901 10262 20246 30133 40138 83510 333 10298 29091 55/// 59021;
0201834980999992011041312004-17733-039250FM-12+000399999V0201801N001010450019N0020001N1+02641+02441101731ADDAA124004191AY161061AY221061GF105991021011008001041001KA1240N+02311MA1999999101681MD1999999+0071MW1211REMSYN088AAXX  13124 83498 21595 51802 10264 20244 30168 40173 72162 82140 333 20231 58007 60044;
0137834980999992011041318004-17733-039250FM-12+000399999V0200901N001512200019N0020001N1+02881+02521101451ADDGF104991041021008001001001MA1999999101401MD1999999+0071REMSYN070AAXX  13184 83498 32595 40903 10288 20252 30140 40145 84200 333 58007;
0168834980999992011041400004-17733-039250FM-12+000399999V0200901N001012200019N0020001N1+02601+02461101681ADDGF103991031011008001001001KA1240M+03001MA1999999101631MD1999999+0301REMSYN088AAXX  14004 83498 32595 30902 10260 20246 30163 40168 83100 333 10300 29088 55/// 58030;
0175834980999992011041412004-17733-039250FM-12+000399999V0200901N000519999999N0020001N1+02831+02501101681ADDGF105991999021008001001001KA1240N+02311MA1999999101631MD1999999-0051REMSYN076AAXX  14124 83498 32595 50901 10283 20250 30163 40168 83200 333 20231 59005;EQDQ01+000032SCOTLC
0137834980999992011041418004-17733-039250FM-12+000399999V0200901N002112200019N0020001N1+02911+02521101361ADDGF102991021021008001011001MA1999999101311MD1999999-0091REMSYN070AAXX  14184 83498 32595 20904 10291 20252 30131 40136 82210 333 59009;
0168834980999992011041500004-17733-039250FM-12+000399999V0200901N001512200019N0020001N1+02631+02441101651ADDGF101991011011008001001001KA1240M+03291MA1999999101601MD1999999-0031REMSYN088AAXX  15004 83498 32595 10903 10263 20244 30160 40165 81100 333 10329 29086 55/// 59003;
0201834980999992011041512004-17733-039250FM-12+000399999V0200901N001510450019N0020001N1+02731+02481101721ADDAA124002091AY161061AY261061GF106991031021008001011001KA1240N+02331MA1999999101671MD1999999+0041MW1211REMSYN088AAXX  15124 83498 21595 60903 10273 20248 30167 40172 72166 83210 333 20233 58004 60024;
0137834980999992011041518004-17733-039250FM-12+000399999V0201401N002612200019N0020001N1+02841+02521101441ADDGF104991021021008001001011MA1999999101391MD1999999+0081REMSYN070AAXX  15184 83498 32595 41405 10284 20252 30139 40144 82201 333 58008;
0187834980999992011041600004-17733-039250FM-12+000399999V0200901N001019999999N0020001N1+02611+02391101651ADDGF106991999021008001001001KA1240M+03031MA1999999101601MD1999999+0001REMSYN088AAXX  16004 83498 32595 60902 10261 20239 30160 40165 84200 333 10303 29087 55/// 58000;EQDQ01+000042SCOTLC
0201834980999992011041612004-17733-039250FM-12+000399999V0200901N002112200019N0020001N1+02841+02461101691ADDAA124000591AY161061AY261061GF104991031011008001001011KA1240N+02341MA1999999101641MD1999999-0031MW1211REMSYN088AAXX  16124 83498 21595 40904 10284 20246 30164 40169 72166 83101 333 20234 59003 69964;
0137834980999992011041618004-17733-039250FM-12+000399999V0200901N002612200019N0020001N1+02901+02501101431ADDGF104991041011008001001001MA1999999101381MD1999999-0011REMSYN070AAXX  16184 83498 32595 40905 10290 20250 30138 40143 84100 333 59001;
0201834980999992011041712004-17733-039250FM-12+000399999V0200901N002610450019N0020001N1+02591+02441101691ADDAA124005191AY161061AY261061GF107991031051008001011001KA1240N+02531MA1999999101641MD1999999+0001MW1211REMSYN088AAXX  17124 83498 21595 70905 10259 20244 30164 40169 72166 83510 333 20253 58000 60054;
0182834980999992011041718004-17733-039250FM-12+000399999V0200901N002110450019N0020001N1+02781+02501101451ADDAA106000021AY121061AY211061GF106991031041008001021001MA1999999101401MD1999999+0021MW1031REMSYN082AAXX  17184 83498 21595 60904 10278 20250 30140 40145 70321 83420 333 58002 69921;
0220834980999992011041812004-17733-039250FM-12+000399999V0200901N001519999999N0020001N1+02821+02521101831ADDAA124007191AY161061AY261061GF105991999021008001001001KA1240N+02311MA1999999101781MD1999999+0141MW1211REMSYN088AAXX  18124 83498 21595 50903 10282 20252 30178 40183 72166 84200 333 20231 58014 60074;EQDQ01+000042SCOTLC
0182834980999992011041818004-17733-039250FM-12+000399999V0200901N001511050019N0020001N1+02781+02461101651ADDAA106001091AY161061AY261061GF105991031051008001001021MA1999999101601MD1999999+0201MW1211REMSYN082AAXX  18184 83498 21595 50903 10278 20246 30160 40165 72166 83502 333 58020 60011;
0213834980999992011041900004-17733-039250FM-12+000399999V0200901N001012200019N0020001N1+02541+02471101811ADDAA106001091AY161061AY261061GF104991041021008001001001KA1240M+02961MA1999999101761MD1999999+0091MW1211REMSYN100AAXX  19004 83498 21595 40902 10254 20247 30176 40181 72166 84200 333 10296 29090 55/// 58009 60011;
0201834980999992011041912004-17733-039250FM-12+000399999V0201801N003110450019N0020001N1+02581+02421101831ADDAA124010991AY161061AY221061GF106991031051008001021001KA1240N+02291MA1999999101781MD1999999+0001MW1611REMSYN088AAXX  19124 83498 21595 61806 10258 20242 30178 40183 76162 83520 333 20229 58000 60114;
0182834980999992011041918004-17733-039250FM-12+000399999V0200901N002612200019N0020001N1+02831+02421101561ADDAA106000591AY121061AY211061GF106991031021008001001011MA1999999101511MD1999999-0091MW1031REMSYN082AAXX  19184 83498 21595 60905 10283 20242 30151 40156 70321 83201 333 59009 69941;
0168834980999992011042000004-17733-039250FM-12+000399999V0200901N001012200019N0020001N1+02611+02311101731ADDGF101991011011008001001001KA1240M+02931MA1999999101681MD1999999-0081REMSYN088AAXX  20004 83498 32595 10902 10261 20231 30168 40173 81100 333 10293 29085 55/// 59008;
0201834980999992011042012004-17733-039250FM-12+000399999V0201801N001010450019N0020001N1+02561+02461101761ADDAA124000891AY161061AY221061GF106991041061008001011001KA1240N+02361MA1999999101711MD1999999-0071MW1211REMSYN088AAXX  20124 83498 21595 61802 10256 20246 30171 40176 72162 84610 333 20236 59007 69974;
0182834980999992011042018004-17733-039250FM-12+000399999V0200901N002110450019N0020001N1+02841+02481101461ADDAA106018091AY161061AY261061GF106991021011008001051011MA1999999101411MD1999999-0101MW1211REMSYN082AAXX  20184 83498 21595 60904 10284 20248 30141 40146 72166 82151 333 59010 60181;
0168834980999992011042100004-17733-039250FM-12+000399999V0200901N001012200019N0020001N1+02541+02401101631ADDGF105991041021008001001011KA1240M+02881MA1999999101581MD1999999-0101REMSYN088AAXX  21004 83498 32595 50902 10254 20240 30158 40163 84201 333 10288 29090 55/// 59010;
0201834980999992011042112004-17733-039250FM-12+000399999V0202701N001510450019N0020001N1+02541+02361101691ADDAA124022191AY161061AY221061GF106991031031008001021001KA1240N+02301MA1999999101641MD1999999-0131MW1211REMSYN088AAXX  21124 83498 21595 62703 10254 20236 30164 40169 72162 83320 333 20230 59013 60224;
0182834980999992011042118004-17733-039250FM-12+000399999V0200901N001512200019N0020001N1+02851+02311101391ADDAA106005191AY121061AY211061GF102991021011008001001001MA1999999101341MD1999999-0071MW1031REMSYN082AAXX  21184 83498 21595 20903 10285 20231 30134 40139 70321 82100 333 59007 60051;
0168834980999992011042200004-17733-039250FM-12+000399999V0200901N000512200019N0020001N1+02541+02331101601ADDGF101991011011008001001001KA1240M+02881MA1999999101551MD1999999-0031REMSYN088AAXX  22004 83498 32595 10901 10254 20233 30155 40160 81100 333 10288 29085 55/// 59003;
0201834980999992011042212004-17733-039250FM-12+000399999V0202701N000510450019N0020001N1+02521+02431101701ADDAA124011991AY161061AY221061GF108991041061008001011999KA1240N+02221MA1999999101651MD1999999+0011MW1621REMSYN088AAXX  22124 83498 21595 82701 10252 20243 30165 40170 76262 8461/ 333 20222 58001 60124;
0137834980999992011042218004-17733-039250FM-12+000399999V0200901N001512200019N0020001N1+02881+02411101421ADDGF103991031011008001001001MA1999999101371MD1999999+0031REMSYN070AAXX  22184 83498 32595 30903 10288 20241 30137 40142 83100 333 58003;
0201834980999992011042312004-17733-039250FM-12+000399999V0202701N000510450019N0020001N1+02481+02341101631ADDAA124000891AY161061AY261061GF106991031041008001021001KA1240N+02271MA1999999101581MD1999999-0071MW1601REMSYN088AAXX  23124 83498 21595 62701 10248 20234 30158 40163 76066 83420 333 20227 59007 69974;
0137834980999992011042318004-17733-039250FM-12+000399999V0200901N002610450019N0020001N1+02771+02321101391ADDGF105991021041008001031001MA1999999101341MD1999999-0031REMSYN070AAXX  23184 83498 32595 50905 10277 20232 30134 40139 82430 333 59003;
0175834980999992011042412004-17733-039250FM-12+000399999V0202701N001012200019N0020001N1+02521+02361101581ADDGF103991999011008001001001KA1240N+02131MA1999999101531MD1999999-0051REMSYN076AAXX  24124 83498 32595 32702 10252 20236 30153 40158 82100 333 20213 59005;EQDQ01+000022SCOTLC
0137834980999992011042418004-17733-039250FM-12+000399999V0200901N002112200019N0020001N1+02801+02421101321ADDGF101991011011008001001001MA1999999101271MD1999999-0071REMSYN070AAXX  24184 83498 32595 10904 10280 20242 30127 40132 81100 333 59007;
0201834980999992011042512004-17733-039250FM-12+000399999V0202701N001512200019N0020001N1+02621+02331101681ADDAA124000891AY161061AY261061GF102991021011008001001001KA1240N+02211MA1999999101631MD1999999+0011MW1601REMSYN088AAXX  25124 83498 21595 22703 10262 20233 30163 40168 76066 82100 333 20221 58001 69984;
0182834980999992011042518004-17733-039250FM-12+000399999V0200901N001510450019N0020001N1+02771+02341101451ADDAA106001091AY161061AY261061GF105991021011008001031001MA1999999101401MD1999999+0131MW1211REMSYN082AAXX  25184 83498 21595 50903 10277 20234 30140 40145 72166 82130 333 58013 60011;
0168834980999992011042600004-17733-039250FM-12+000399999V0200901N000512200019N0020001N1+02511+02231101591ADDGF101991011011008001001001KA1240M+02861MA1999999101541MD1999999+0071REMSYN088AAXX  26004 83498 32595 10901 10251 20223 30154 40159 81100 333 10286 29083 55/// 58007;
0201834980999992011042612004-17733-039250FM-12+000399999V0202301N001010450019N0020001N1+02481+02391101711ADDAA124009991AY161061AY221061GF108991041061008001011999KA1240N+02231MA1999999101661MD1999999+0031MW1211REMSYN088AAXX  26124 83498 21595 82302 10248 20239 30166 40171 72162 8461/ 333 20223 58003 60104;
0137834980999992011042618004-17733-039250FM-12+000399999V0200901N001511050019N0020001N1+02821+02421101531ADDGF106991031011008001001021MA1999999101481MD1999999+0081REMSYN070AAXX  26184 83498 32595 60903 10282 20242 30148 40153 83102 333 58008;
0168834980999992011042700004-17733-039250FM-12+000399999V0200901N003112200019N0020001N1+02641+02421101771ADDGF102991021011008001001001KA1240M+02881MA1999999101721MD1999999+0181REMSYN088AAXX  27004 83498 32595 20906 10264 20242 30172 40177 82100 333 10288 29088 55/// 58018;
0201834980999992011042712004-17733-039250FM-12+000399999V0202701N002110450019N0100001N1+02511+02341101871ADDAA124000021AY161061AY221061GF107991041061008001021001KA1240N+02231MA1999999101821MD1999999+0161MW1211REMSYN088AAXX  27124 83498 21597 72704 10251 20234 30182 40187 72162 84620 333 20223 58016 69914;
0182834980999992011042718004-17733-039250FM-12+000399999V0201401N001510450019N0020001N1+02801+02381101641ADDAA106006191AY161061AY261061GF105991021021008001031001MA1999999101591MD1999999+0111MW1211REMSYN082AAXX  27184 83498 21595 51403 10280 20238 30159 40164 72166 82230 333 58011 60061;
0187834980999992011042800004-17733-039250FM-12+000399999V0201801N001512200019N0020001N1+02621+02251101791ADDGF104991999021008001001001KA1240M+02841MA1999999101741MD1999999+0021REMSYN088AAXX  28004 83498 32595 41803 10262 20225 30174 40179 82200 333 10284 29083 55/// 58002;EQDQ01+000022SCOTLC
0201834980999992011042812004-17733-039250FM-12+000399999V0202301N002110450019N0020001N1+02381+02311101851ADDAA124032091AY161061AY221061GF106991031011008001031021KA1240N+02071MA1999999101801MD1999999-0021MW1211REMSYN088AAXX  28124 83498 21595 62304 10238 20231 30180 40185 72162 83132 333 20207 59002 60324;
0137834980999992011042818004-17733-039250FM-12+000399999V0201801N001510450019N0020001N1+02661+02461101481ADDGF108991031021008001051011MA1999999101431MD1999999-0161REMSYN070AAXX  28184 83498 32595 81803 10266 20246 30143 40148 83251 333 59016;
0213834980999992011042900004-17733-039250FM-12+000399999V0201801N001010450019N0020001N1+02341+02311101781ADDAA106022191AY161061AY221061GF108991041061008001021999KA1240M+02811MA1999999101731MD1999999-0011MW1621REMSYN100AAXX  29004 83498 21595 81802 10234 20231 30173 40178 76262 8462/ 333 10281 29095 55/// 59001 60221;
0201834980999992011042912004-17733-039250FM-12+000399999V0201801N002610450019N0020001N1+02421+02321101741ADDAA124036191AY161061AY221061GF106991031061008001031001KA1240N+02311MA1999999101691MD1999999-0111MW1211REMSYN088AAXX  29124 83498 21595 61805 10242 20232 30169 40174 72162 83630 333 20231 59011 60364;
0137834980999992011042918004-17733-039250FM-12+000399999V0201401N002110450019N0020001N1+02711+02411101431ADDGF106991031031008001031001MA1999999101381MD1999999-0051REMSYN070AAXX  29184 83498 32595 61404 10271 20241 30138 40143 83330 333 59005;
0168834980999992011043000004-17733-039250FM-12+000399999V0209999C000010450019N0020001N1+02461+02171101601ADDGF106991031061008001021001KA1240M+02851MA1999999101551MD1999999-0181REMSYN088AAXX  30004 83498 32595 60000 10246 20217 30155 40160 83620 333 10285 29092 55/// 59018;
0201834980999992011043012004-17733-039250FM-12+000399999V0203201N001010450019N0020001N1+02481+02431101671ADDAA124007191AY161061AY221061GF106991041051008001041001KA1240N+02271MA1999999101621MD1999999-0071MW1621REMSYN088AAXX  30124 83498 21595 63202 10248 20243 30162 40167 76262 84540 333 20227 59007 60074;
0137834980999992011043018004-17733-039250FM-12+000399999V0200901N001512200019N0020001N1+02881+02391101351ADDGF104991021011008001001011MA1999999101301MD1999999-0081REMSYN070AAXX  30184 83498 32595 40903 10288 20239 30130 40135 82101 333 59008;
0175834980999992011050112004-17733-039250FM-12+000399999V0203601N001012200019N0020001N1+02731+02431101691ADDGF104991999021008001001001KA1240N+02311MA1999999101641MD1999999+0021REMSYN076AAXX  01124 83498 32595 43602 10273 20243 30164 40169 82200 333 20231 58002;EQDQ01+000022SCOTLC
0137834980999992011050118004-17733-039250FM-12+000399999V0200501N002612200019N0020001N1+02911+02341101291ADDGF102991021021008001011001MA1999999101241MD1999999-0061REMSYN070AAXX  01184 83498 32595 20505 10291 20234 30124 40129 82210 333 59006;
0178834980999992011050200004-17733-039250FM-12+000399999V0209999C000012200019N0020001N1+02481+02341101451ADDGA1001+999999999GF100991001001999999001001KA1240M+02981MA1999999101401MD1999999-0101REMSYN082AAXX  02004 83498 32995 00000 10248 20234 30140 40145 333 10298 29085 55/// 59010;
0201834980999992011050212004-17733-039250FM-12+000399999V0203601N001510450019N0020001N1+02481+02431101591ADDAA124015091AY161061AY221061GF108991041061008001021999KA1240N+02271MA1999999101541MD1999999-0101MW1211REMSYN088AAXX  02124 83498 21595 83603 10248 20243 30154 40159 72162 8462/ 333 20227 59010 60154;
0137834980999992011050218004-17733-039250FM-12+000399999V0203601N002110450019N0020001N1+02781+02501101391ADDGF108991031051008001011999MA1999999101341MD1999999+0101REMSYN070AAXX  02184 83498 32595 83604 10278 20250 30134 40139 8351/ 333 58010;
0168834980999992011050300004-17733-039250FM-12+000399999V0203601N001010075019N0020001N1+02501+02451101571ADDGF108991061051008001011999KA1240M+02941MA1999999101521MD1999999+0121REMSYN088AAXX  03004 83498 32595 83602 10250 20245 30152 40157 8651/ 333 10294 29094 55/// 58012;
0156834980999992011050312004-17733-039250FM-12+000399999V0200901N001512200019N0020001N1+02781+02461101681ADDGF103991031021008001031001KA1240N+02281MA1999999101631MD1999999+0091REMSYN076AAXX  03124 83498 32595 30903 10278 20246 30163 40168 83230 333 20228 58009;
0137834980999992011050318004-17733-039250FM-12+000399999V0200901N001510450019N0020001N1+02761+02481101481ADDGF106991031051008001011001MA1999999101431MD1999999+0091REMSYN070AAXX  03184 83498 32595 60903 10276 20248 30143 40148 83510 333 58009;
0168834980999992011050400004-17733-039250FM-12+000399999V0209999C000010450019N0020001N1+02531+02421101751ADDGF108991041071008001021999KA1240M+02851MA1999999101701MD1999999+0181REMSYN088AAXX  04004 83498 32595 80000 10253 20242 30170 40175 8472/ 333 10285 29089 55/// 58018;
0201834980999992011050412004-17733-039250FM-12+000399999V0202301N001010450019N0020001N1+02441+02411101851ADDAA124009991AY161061AY221061GF108991041061008001021999KA1240N+02271MA1999999101801MD1999999+0171MW1211REMSYN088AAXX  04124 83498 21595 82302 10244 20241 30180 40185 72162 8462/ 333 20227 58017 60104;
0182834980999992011050418004-17733-039250FM-12+000399999V0201401N001510075019N0020001N1+02661+02461101551ADDAA106000591AY161061AY261061GF108991051051008001021999MA1999999101501MD1999999+0071MW1211REMSYN082AAXX  04184 83498 21595 81403 10266 20246 30150 40155 72166 8552/ 333 58007 69941;
0168834980999992011050500004-17733-039250FM-12+000399999V0201401N002610450019N0020001N1+02561+02401101761ADDGF108991041061008001021999KA1240M+02761MA1999999101711MD1999999+0011REMSYN088AAXX  05004 83498 32595 81405 10256 20240 30171 40176 8462/ 333 10276 29092 55/// 58001;
0201834980999992011050512004-17733-039250FM-12+000399999V0201801N001510450019N0020001N1+02561+02461101781ADDAA124026991AY161061AY221061GF107991031051008001011001KA1240N+02381MA1999999101731MD1999999-0071MW1211REMSYN088AAXX  05124 83498 21595 71803 10256 20246 30173 40178 72162 83510 333 20238 59007 60274;
0137834980999992011050518004-17733-039250FM-12+000399999V0200501N002610450019N0020001N1+02651+02371101431ADDGF107991031051008001021001MA1999999101381MD1999999-0121REMSYN070AAXX  05184 83498 32595 70505 10265 20237 30138 40143 83520 333 59012;
0213834980999992011050600004-17733-039250FM-12+000399999V0209999C000012200019N0020001N1+02491+02291101541ADDAA106001091AY161061AY261061GF101991011011008001001001KA1240M+03051MA1999999101491MD1999999-0221MW1211REMSYN100AAXX  06004 83498 21595 10000 10249 20229 30149 40154 72166 81100 333 10305 29090 55/// 59022 60011;
0201834980999992011050612004-17733-039250FM-12+000399999V0200901N001011050019N0020001N1+02701+02461101761ADDAA124002091AY161061AY261061GF108991041051008001001021KA1240N+02331MA1999999101711MD1999999-0021MW1211REMSYN088AAXX  06124 83498 21595 80902 10270 20246 30171 40176 72166 84502 333 20233 59002 60024;
0137834980999992011050618004-17733-039250FM-12+000399999V0200901N001512200019N0020001N1+02661+02521101531ADDGF105991031011008001001011MA1999999101481MD1999999+0101REMSYN070AAXX  06184 83498 32595 50903 10266 20252 30148 40153 83101 333 58010;
0168834980999992011050700004-17733-039250FM-12+000399999V0200901N000512200019N0020001N1+02461+02371101751ADDGF102991021011008001001001KA1240M+02951MA1999999101701MD1999999+0211REMSYN088AAXX  07004 83498 32595 20901 10246 20237 30170 40175 82100 333 10295 29090 55/// 58021;
0156834980999992011050712004-17733-039250FM-12+000399999V0201801N001012200019N0020001N1+02611+02401101811ADDGF102991021021008001001011KA1240N+02291MA1999999101761MD1999999+0051REMSYN076AAXX  07124 83498 32595 21802 10261 20240 30176 40181 82201 333 20229 58005;
0137834980999992011050718004-17733-039250FM-12+000399999V0200501N001510450019N0020001N1+02761+02361101621ADDGF105991021021008001031001MA1999999101571MD1999999+0091REMSYN070AAXX  07184 83498 32595 50503 10276 20236 30157 40162 82230 333 58009;
0168834980999992011050800004-17733-039250FM-12+000399999V0201401N003112200019N0020001N1+02581+02211101831ADDGF101991011011008001001001KA1240M+02941MA1999999101771MD1999999-0131REMSYN088AAXX  08004 83498 32595 11406 10258 20221 30177 40183 81100 333 10294 29082 55/// 59013;
0156834980999992011050812004-17733-039250FM-12+000399999V0202301N001510450019N0020001N1+02381+02191101831ADDGF106991031011008001031001KA1240N+02061MA1999999101781MD1999999+0021REMSYN076AAXX  08124 83498 32595 62303 10238 20219 30178 40183 83130 333 20206 58002;
0156834980999992011050818004-17733-039250FM-12+000399999V0201801N003610075019N0020001N1+02681+02341101571ADDGF108991999021008001001001MA1999999101521MD1999999-0051REMSYN070AAXX  08184 83498 32595 81807 10268 20234 30152 40157 85200 333 59005;EQDQ01+000052SCOTLC
0168834980999992011050900004-17733-039250FM-12+000399999V0201801N000512200019N0020001N1+02441+02231101661ADDGF102991021011008001001001KA1240M+02741MA1999999101611MD1999999-0161REMSYN088AAXX  09004 83498 32595 21801 10244 20223 30161 40166 82100 333 10274 29085 55/// 59016;
0156834980999992011050912004-17733-039250FM-12+000399999V0202301N002612200019N0020001N1+02381+02211101631ADDGF101991011011008001001001KA1240N+01921MA1999999101581MD1999999-0201REMSYN076AAXX  09124 83498 32595 12305 10238 20221 30158 40163 81100 333 20192 59020;
0137834980999992011050918004-17733-039250FM-12+000399999V0200901N001512200019N0020001N1+02731+02101101261ADDGF102991021011008001001001MA1999999101211MD1999999-0311REMSYN070AAXX  09184 83498 32595 20903 10273 20210 30121 40126 82100 333 59031;
0178834980999992011051000004-17733-039250FM-12+000399999V0209999C000012200019N0020001N1+02241+02091101531ADDGA1001+999999999GF100991001001999999001001KA1240M+02801MA1999999101481MD1999999-0131REMSYN082AAXX  10004 83498 32995 00000 10224 20209 30148 40153 333 10280 29086 55/// 59013;
0156834980999992011051012004-17733-039250FM-12+000399999V0201801N001012200019N0020001N1+02421+02251101731ADDGF102991021011008001001001KA1240N+01901MA1999999101681MD1999999+0101REMSYN076AAXX  10124 83498 32595 21802 10242 20225 30168 40173 82100 333 20190 58010;
0137834980999992011051018004-17733-039250FM-12+000399999V0201801N003610450019N0020001N1+02641+02311101481ADDGF106991041021008001031001MA1999999101431MD1999999+0221REMSYN070AAXX  10184 83498 32595 61807 10264 20231 30143 40148 84230 333 58022;
0168834980999992011051100004-17733-039250FM-12+000399999V0201801N000512200019N0020001N1+02321+02091101761ADDGF102991021011008001001001KA1240M+02741MA1999999101711MD1999999+0231REMSYN088AAXX  11004 83498 32595 21801 10232 20209 30171 40176 82100 333 10274 29086 55/// 58023;
0156834980999992011051112004-17733-039250FM-12+000399999V0202701N001512200019N0020001N1+02461+02281101831ADDGF102991021021008001031001KA1240N+02021MA1999999101781MD1999999+0101REMSYN076AAXX  11124 83498 32595 22703 10246 20228 30178 40183 82230 333 20202 58010;
0156834980999992011051118004-17733-039250FM-12+000399999V0201401N001519999999N0020001N1+02681+02241101551ADDGF105991999021008001001001MA1999999101501MD1999999+0071REMSYN070AAXX  11184 83498 32595 51403 10268 20224 30150 40155 83200 333 58007;EQDQ01+000032SCOTLC
0168834980999992011051200004-17733-039250FM-12+000399999V0201401N002612200019N0020001N1+02511+02051101721ADDGF104991041011008001031001KA1240M+02831MA1999999101671MD1999999-0041REMSYN088AAXX  12004 83498 32595 41405 10251 20205 30167 40172 84130 333 10283 29080 55/// 59004;
0201834980999992011051212004-17733-039250FM-12+000399999V0202701N001010450019N0020001N1+02081+02051101731ADDAA124000591AY161061AY221061GF108991041061008001021999KA1240N+01921MA1999999101681MD1999999-0101MW1611REMSYN088AAXX  12124 83498 21595 82702 10208 20205 30168 40173 76162 8462/ 333 20192 59010 69944;
0137834980999992011051218004-17733-039250FM-12+000399999V0201801N001510450019N0020001N1+02661+02221101361ADDGF106991021011008001031011MA1999999101311MD1999999-0191REMSYN070AAXX  12184 83498 32595 61803 10266 20222 30131 40136 82131 333 59019;
0168834980999992011051300004-17733-039250FM-12+000399999V0201801N000512200019N0020001N1+02221+02151101521ADDGF102991021011008001001001KA1240M+02701MA1999999101471MD1999999-0201REMSYN088AAXX  13004 83498 32595 21801 10222 20215 30147 40152 82100 333 10270 29092 55/// 59020;
0156834980999992011051312004-17733-039250FM-12+000399999V0202301N002112200019N0020001N1+02451+02191101551ADDGF103991031011008001031001KA1240N+02071MA1999999101501MD1999999-0181REMSYN076AAXX  13124 83498 32595 32304 10245 20219 30150 40155 83130 333 20207 59018;
0182834980999992011051318004-17733-039250FM-12+000399999V0201801N000511050019N0020001N1+02671+02201101301ADDAA106002091AY161061AY261061GF105991021031008001031011MA1999999101251MD1999999-0061MW1211REMSYN082AAXX  13184 83498 21595 51801 10267 20220 30125 40130 72166 82331 333 59006 60021;
0168834980999992011051400004-17733-039250FM-12+000399999V0209999C000010075019N0020001N1+02201+02101101521ADDGF105991051011008001001001KA1240M+02701MA1999999101471MD1999999+0001REMSYN088AAXX  14004 83498 32595 50000 10220 20210 30147 40152 85100 333 10270 29088 55/// 58000;
0201834980999992011051412004-17733-039250FM-12+000399999V0201801N001510450019N0020001N1+02401+02301101671ADDAA124003091AY161061AY221061GF106991031051008001031011KA1240N+02161MA1999999101621MD1999999+0121MW1211REMSYN088AAXX  14124 83498 21595 61803 10240 20230 30162 40167 72162 83531 333 20216 58012 60034;
0182834980999992011051418004-17733-039250FM-12+000399999V0201801N003110450019N0020001N1+02621+02291101471ADDAA106001091AY161061AY261061GF108991021011008001031011MA1999999101421MD1999999+0171MW1211REMSYN082AAXX  14184 83498 21595 81806 10262 20229 30142 40147 72166 82131 333 58017 60011;
0168834980999992011051500004-17733-039250FM-12+000399999V0201801N003610450019N0020001N1+02441+02191101621ADDGF108991021011008001051011KA1240M+02671MA1999999101571MD1999999+0101REMSYN088AAXX  15004 83498 32595 81807 10244 20219 30157 40162 82151 333 10267 29087 55/// 58010;
0173834980999992011051512004-17733-039250FM-12+000399999V0202301N003112200019N0020001N1+02341+02171101601ADDAA124001091GF104991041021008001001001KA1240N+02071MA1999999101551MD1999999-0071REMSYN082AAXX  15124 83498 22595 42306 10234 20217 30155 40160 84200 333 20207 59007 60014;
0137834980999992011051518004-17733-039250FM-12+000399999V0201801N002612200019N0020001N1+02611+02231101271ADDGF103991031011008001001021MA1999999101221MD1999999-0201REMSYN070AAXX  15184 83498 32595 31805 10261 20223 30122 40127 83102 333 59020;
0168834980999992011051600004-17733-039250FM-12+000399999V0209999C000012200019N0020001N1+02121+02051101401ADDGF101991011011008001001001KA1240M+03211MA1999999101351MD1999999-0221REMSYN088AAXX  16004 83498 32595 10000 10212 20205 30135 40140 81100 333 10321 29091 55/// 59022;
0156834980999992011051612004-17733-039250FM-12+000399999V0203201N003110450019N0020001N1+02441+02251101311ADDGF108991041051008001031999KA1240N+02001MA1999999101261MD1999999-0291REMSYN076AAXX  16124 83498 32595 83206 10244 20225 30126 40131 8453/ 333 20200 59029;
0137834980999992011051618004-17733-039250FM-12+000399999V0203201N001511050019N0020001N1+02741+02281100961ADDGF108991041051008001001091MA1999999100911MD1999999-0311REMSYN070AAXX  16184 83498 32595 83203 10274 20228 30091 40096 84509 333 59031;
0168834980999992011051700004-17733-039250FM-12+000399999V0200501N000511050019N0020001N1+02381+02331101281ADDGF108991041051008001001091KA1240M+02811MA1999999101231MD1999999-0121REMSYN088AAXX  17004 83498 32595 80501 10238 20233 30123 40128 84509 333 10281 29090 55/// 59012;
0201834980999992011051712004-17733-039250FM-12+000399999V0201801N005110450019N0020001N1+02491+02071101581ADDAA124000021AY161061AY261061GF107991031051008001031001KA1240N+02101MA1999999101531MD1999999+0271MW1211REMSYN088AAXX  17124 83498 21595 71810 10249 20207 30153 40158 72166 83530 333 20210 58027 69924;
0137834980999992011051718004-17733-039250FM-12+000399999V0201801N003610450019N0020001N1+02541+02251101411ADDGF107991031051008001021001MA1999999101361MD1999999+0451REMSYN070AAXX  17184 83498 32595 71807 10254 20225 30136 40141 83520 333 58045;
0213834980999992011051800004-17733-039250FM-12+000399999V0201401N002610450019N0020001N1+02451+02051101581ADDAA106000021AY161061AY221061GF108991041071008001021001KA1240M+02601MA1999999101531MD1999999+0301MW1601REMSYN100AAXX  18004 83498 21595 81405 10245 20205 30153 40158 76062 84720 333 10260 29080 55/// 58030 69911;
0201834980999992011051812004-17733-039250FM-12+000399999V0201801N003610450019N0020001N1+02201+02061101871ADDAA124004191AY161061AY221061GF108991041061008001011999KA1240N+02191MA1999999101821MD1999999+0291MW1211REMSYN088AAXX  18124 83498 21595 81807 10220 20206 30182 40187 72162 8461/ 333 20219 58029 60044;
0182834980999992011051818004-17733-039250FM-12+000399999V0201801N002610450019N0020001N1+02361+02111101631ADDAA106001091AY161061AY261061GF108991041061008001051999MA1999999101581MD1999999+0221MW1211REMSYN082AAXX  18184 83498 21595 81805 10236 20211 30158 40163 72166 8465/ 333 58022 60011;
0213834980999992011051900004-17733-039250FM-12+000399999V0201801N001510450019N0020001N1+02261+02031101771ADDAA106000021AY161061AY261061GF108991031061008001011999KA1240M+02471MA1999999101721MD1999999+0191MW1211REMSYN100AAXX  19004 83498 21595 81803 10226 20203 30172 40177 72166 8361/ 333 10247 29088 55/// 58019 69921;
0173834980999992011051912004-17733-039250FM-12+000399999V0202701N001512200019N0020001N1+02231+01991101861ADDAA124001091GF104991021021008001031001KA1240N+01861MA1999999101811MD1999999+0011REMSYN082AAXX  19124 83498 22595 42703 10223 20199 30181 40186 82230 333 20186 58001 60014;
0137834980999992011051918004-17733-039250FM-12+000399999V0201401N001512200019N0020001N1+02551+01931101681ADDGF102991021011008001001001MA1999999101631MD1999999+0111REMSYN070AAXX  19184 83498 32595 21403 10255 20193 30163 40168 82100 333 58011;
0168834980999992011052000004-17733-039250FM-12+000399999V0201401N001512200019N0020001N1+02341+02001101921ADDGF103991031011008001031001KA1240M+02601MA1999999101871MD1999999+0151REMSYN088AAXX  20004 83498 32595 31403 10234 20200 30187 40192 83130 333 10260 29080 55/// 58015;
0156834980999992011052012004-17733-039250FM-12+000399999V0202301N001012200019N0020001N1+02221+01991102031ADDGF103991021011008001031001KA1240N+01831MA1999999101981MD1999999+0171REMSYN076AAXX  20124 83498 32595 32302 10222 20199 30198 40203 82130 333 20183 58017;
0137834980999992011052018004-17733-039250FM-12+000399999V0201401N002610450019N0020001N1+02521+02211101871ADDGF108991031051008001031001MA1999999101821MD1999999+0191REMSYN070AAXX  20184 83498 32595 81405 10252 20221 30182 40187 83530 333 58019;
0168834980999992011052100004-17733-039250FM-12+000399999V0201401N001510450019N0020001N1+02381+02051102091ADDGF106991021011008001031001KA1240M+02701MA1999999102041MD1999999+0171REMSYN088AAXX  21004 83498 32595 61403 10238 20205 30204 40209 82130 333 10270 29084 55/// 58017;
0156834980999992011052112004-17733-039250FM-12+000399999V0201801N002612200019N0020001N1+02211+02011102241ADDGF104991041021008001001001KA1240N+02141MA1999999102191MD1999999+0211REMSYN076AAXX  21124 83498 32595 41805 10221 20201 30219 40224 84200 333 20214 58021;
0182834980999992011052118004-17733-039250FM-12+000399999V0201801N002610450019N0020001N1+02401+02171102051ADDAA106000591AY161061AY261061GF106991031021008001031001MA1999999102001MD1999999+0181MW1211REMSYN082AAXX  21184 83498 21595 61805 10240 20217 30200 40205 72166 83230 333 58018 69961;
0213834980999992011052200004-17733-039250FM-12+000399999V0201401N002110450019N0020001N1+02311+01981102181ADDAA106000591AY161061AY221061GF107991031021008001061001KA1240M+02571MA1999999102131MD1999999+0091MW1601REMSYN100AAXX  22004 83498 21595 71404 10231 20198 30213 40218 76062 83260 333 10257 29085 55/// 58009 69941;
0201834980999992011052212004-17733-039250FM-12+000399999V0200901N004110450019N0020001N1+02561+02081102211ADDAA124004191AY161061AY261061GF107991041051008001051001KA1240N+02061MA1999999102161MD1999999-0031MW1211REMSYN088AAXX  22124 83498 21595 70908 10256 20208 30216 40221 72166 84550 333 20206 59003 60044;
0137834980999992011052218004-17733-039250FM-12+000399999V0200901N003110450019N0020001N1+02701+02281102001ADDGF106991031051008001051011MA1999999101951MD1999999-0051REMSYN070AAXX  22184 83498 32595 60906 10270 20228 30195 40200 83551 333 59005;
0168834980999992011052300004-17733-039250FM-12+000399999V0200901N001012200019N0020001N1+02381+01931102151ADDGF102991021011008001001001KA1240M+02701MA1999999102101MD1999999-0031REMSYN088AAXX  23004 83498 32595 20902 10238 20193 30210 40215 82100 333 10270 29076 55/// 59003;
0156834980999992011052312004-17733-039250FM-12+000399999V0201801N003112200019N0020001N1+02441+02151102071ADDGF104991041021008001001001KA1240N+01841MA1999999102021MD1999999-0141REMSYN076AAXX  23124 83498 32595 41806 10244 20215 30202 40207 84200 333 20184 59014;
0137834980999992011052318004-17733-039250FM-12+000399999V0201401N001012200019N0020001N1+02511+02171101801ADDGF104991021021008001031001MA1999999101751MD1999999-0201REMSYN070AAXX  23184 83498 32595 41402 10251 20217 30175 40180 82230 333 59020;
0178834980999992011052400004-17733-039250FM-12+000399999V0209999C000012200019N0020001N1+02271+01971101981ADDGA1001+999999999GF100991001001999999001001KA1240M+02641MA1999999101931MD1999999-0171REMSYN082AAXX  24004 83498 32995 00000 10227 20197 30193 40198 333 10264 29086 55/// 59017;
0156834980999992011052412004-17733-039250FM-12+000399999V0200901N001510450019N0020001N1+02381+02241102061ADDGF106991021011008001051011KA1240N+01921MA1999999102011MD1999999-0011REMSYN076AAXX  24124 83498 32595 60903 10238 20224 30201 40206 82151 333 20192 59001;
0137834980999992011052418004-17733-039250FM-12+000399999V0201401N002612200019N0020001N1+02581+02291101811ADDGF105991041021008001001011MA1999999101761MD1999999+0011REMSYN070AAXX  24184 83498 32595 51405 10258 20229 30176 40181 84201 333 58001;
0178834980999992011052500004-17733-039250FM-12+000399999V0209999C000012200019N0020001N1+02041+01971101991ADDGA1001+999999999GF100991001001999999001001KA1240M+02711MA1999999101941MD1999999+0011REMSYN082AAXX  25004 83498 32995 00000 10204 20197 30194 40199 333 10271 29091 55/// 58001;
0156834980999992011052512004-17733-039250FM-12+000399999V0202701N001512200019N0020001N1+02231+02051102091ADDGF101991011011008001001001KA1240N+01831MA1999999102041MD1999999+0031REMSYN076AAXX  25124 83498 32595 12703 10223 20205 30204 40209 81100 333 20183 58003;
0137834980999992011052518004-17733-039250FM-12+000399999V0201801N005112200019N0020001N1+02521+01981101901ADDGF103991031011008001001001MA1999999101851MD1999999+0091REMSYN070AAXX  25184 83498 32595 31810 10252 20198 30185 40190 83100 333 58009;
0178834980999992011052600004-17733-039250FM-12+000399999V0201801N001012200019N0020001N1+02161+01901102021ADDGA1001+999999999GF100991001001999999001001KA1240M+02651MA1999999101971MD1999999+0031REMSYN082AAXX  26004 83498 32995 01802 10216 20190 30197 40202 333 10265 29084 55/// 58003;
0156834980999992011052612004-17733-039250FM-12+000399999V0201401N001510450019N0020001N1+02401+02111102131ADDGF106991021011008001051001KA1240N+01921MA1999999102081MD1999999-0041REMSYN076AAXX  26124 83498 32595 61403 10240 20211 30208 40213 82150 333 20192 59004;
0137834980999992011052618004-17733-039250FM-12+000399999V0201801N001510450019N0020001N1+02501+02211101701ADDGF106991041021008001031001MA1999999101651MD1999999-0201REMSYN070AAXX  26184 83498 32595 61803 10250 20221 30165 40170 84230 333 59020;
0178834980999992011052700004-17733-039250FM-12+000399999V0209999C000012200019N0020001N1+02101+02051101861ADDGA1001+999999999GF100991001001999999001001KA1240M+02621MA1999999101811MD1999999-0161REMSYN082AAXX  27004 83498 32995 00000 10210 20205 30181 40186 333 10262 29090 55/// 59016;
0156834980999992011052712004-17733-039250FM-12+000399999V0202701N001512200019N0020001N1+02221+02121101881ADDGF101991011011008001001001KA1240N+01751MA1999999101831MD1999999-0251REMSYN076AAXX  27124 83498 32595 12703 10222 20212 30183 40188 81100 333 20175 59025;
0137834980999992011052718004-17733-039250FM-12+000399999V0200901N001512200019N0020001N1+02631+02231101551ADDGF102991021011008001031001MA1999999101501MD1999999-0151REMSYN070AAXX  27184 83498 32595 20903 10263 20223 30150 40155 82130 333 59015;
0178834980999992011052800004-17733-039250FM-12+000399999V0200901N001012200019N0020001N1+02321+02131101691ADDGA1001+999999999GF100991001001999999001001KA1240M+02721MA1999999101641MD1999999-0171REMSYN082AAXX  28004 83498 32995 00902 10232 20213 30164 40169 333 10272 29088 55/// 59017;
0201834980999992011052812004-17733-039250FM-12+000399999V0202701N001010075019N0020001N1+02101+02051101911ADDAA124006191AY161061AY221061GF108991061071008001021999KA1240N+01781MA1999999101861MD1999999+0031MW1631REMSYN088AAXX  28124 83498 21595 82702 10210 20205 30186 40191 76362 8672/ 333 20178 58003 60064;
0182834980999992011052818004-17733-039250FM-12+000399999V0201801N003110450019N0020001N1+02461+02171101591ADDAA106008991AY161061AY261061GF106991031051008001051011MA1999999101541MD1999999+0041MW1211REMSYN082AAXX  28184 83498 21595 61806 10246 20217 30154 40159 72166 83551 333 58004 60091;
0168834980999992011052900004-17733-039250FM-12+000399999V0201801N001012200019N0020001N1+02321+02151101741ADDGF102991021011008001001001KA1240M+02501MA1999999101691MD1999999+0051REMSYN088AAXX  29004 83498 32595 21802 10232 20215 30169 40174 82100 333 10250 29090 55/// 58005;
0173834980999992011052912004-17733-039250FM-12+000399999V0202301N001512200019N0020001N1+02251+02121101941ADDAA124008991GF101991011011008001031001KA1240N+01871MA1999999101891MD1999999+0031REMSYN082AAXX  29124 83498 22595 12303 10225 20212 30189 40194 81130 333 20187 58003 60094;
0137834980999992011052918004-17733-039250FM-12+000399999V0201801N001012200019N0200001N1+02541+02151101611ADDGF103991031021008001001051MA1999999101561MD1999999+0001REMSYN070AAXX  29184 83498 32598 31802 10254 20215 30156 40161 83205 333 58000;
0178834980999992011053000004-17733-039250FM-12+000399999V0200901N001512200019N0020001N1+02161+02041101841ADDGA1001+999999999GF100991001001999999001001KA1240M+02641MA1999999101791MD1999999+0101REMSYN082AAXX  30004 83498 32995 00903 10216 20204 30179 40184 333 10264 29090 55/// 58010;
0156834980999992011053012004-17733-039250FM-12+000399999V0201801N001010450019N0020001N1+02241+02161102051ADDGF105991021011008001051001KA1240N+01921MA1999999102001MD1999999+0111REMSYN076AAXX  30124 83498 32595 51802 10224 20216 30200 40205 82150 333 20192 58011;
0137834980999992011053018004-17733-039250FM-12+000399999V0201801N002112200019N0020001N1+02461+02151101871ADDGF103991031011008001001001MA1999999101821MD1999999+0261REMSYN070AAXX  30184 83498 32595 31804 10246 20215 30182 40187 83100 333 58026;
0168834980999992011053100004-17733-039250FM-12+000399999V0201401N000512200019N0020001N1+02241+02071101951ADDGF102991021011008001001001KA1240M+02581MA1999999101901MD1999999+0111REMSYN088AAXX  31004 83498 32595 21401 10224 20207 30190 40195 82100 333 10258 29090 55/// 58011;
0156834980999992011053112004-17733-039250FM-12+000399999V0202701N001512200019N0020001N1+02231+02011102101ADDGF102991021021008001031001KA1240N+01891MA1999999102051MD1999999+0051REMSYN076AAXX  31124 83498 32595 22703 10223 20201 30205 40210 82230 333 20189 58005;
0168834980999992011060100004-17733-039250FM-12+000399999V0209999C000010450019N0020001N1+02081+02001101881ADDGF106991031051008001031001KA1240M+02621MA1999999101831MD1999999-0071REMSYN088AAXX  01004 83498 32595 60000 10208 20200 30183 40188 83530 333 10262 29090 55/// 59007;
0156834980999992011060112004-17733-039250FM-12+000399999V0202301N000512200019N0020001N1+02201+02151101861ADDGF104991021011008001001011KA1240N+01871MA1999999101811MD1999999-0241REMSYN076AAXX  01124 83498 32595 42301 10220 20215 30181 40186 82101 333 20187 59024;
0137834980999992011060118004-17733-039250FM-12+000399999V0200501N001511050019N0020001N1+02581+02311101501ADDGF106991041011008001001021MA1999999101451MD1999999-0241REMSYN070AAXX  01184 83498 32595 60503 10258 20231 30145 40150 84102 333 59024;
0168834980999992011060200004-17733-039250FM-12+000399999V0200901N000510450019N0020001N1+02241+02051101681ADDGF106991031011008001031001KA1240M+02691MA1999999101631MD1999999-0201REMSYN088AAXX  02004 83498 32595 60901 10224 20205 30163 40168 83130 333 10269 29090 55/// 59020;
0156834980999992011060212004-17733-039250FM-12+000399999V0209999C000012200019N0020001N1+02331+02131101811ADDGF104991041051008001011001KA1240N+01991MA1999999101761MD1999999-0051REMSYN076AAXX  02124 83498 32595 40000 10233 20213 30176 40181 84510 333 20199 59005;
0137834980999992011060218004-17733-039250FM-12+000399999V0201401N002112200019N0020001N1+02691+02281101611ADDGF103991031011008001031011MA1999999101561MD1999999+0111REMSYN070AAXX  02184 83498 32595 31404 10269 20228 30156 40161 83131 333 58011;
0178834980999992011060300004-17733-039250FM-12+000399999V0209999C000012200019N0020001N1+02181+02081101751ADDGA1001+999999999GF100991001001999999001001KA1240M+02841MA1999999101701MD1999999+0071REMSYN082AAXX  03004 83498 32995 00000 10218 20208 30170 40175 333 10284 29089 55/// 58007;
0156834980999992011060312004-17733-039250FM-12+000399999V0202301N000512200019N0020001N1+02341+02181101851ADDGF103991021011008001031001KA1240N+02061MA1999999101801MD1999999+0041REMSYN076AAXX  03124 83498 32595 32301 10234 20218 30180 40185 82130 333 20206 58004;
0137834980999992011060318004-17733-039250FM-12+000399999V0201401N001510450019N0020001N1+02701+02281101531ADDGF108991031011008001041011MA1999999101481MD1999999-0081REMSYN070AAXX  03184 83498 32595 81403 10270 20228 30148 40153 83141 333 59008;
0168834980999992011060400004-17733-039250FM-12+000399999V0200501N000510450019N0020001N1+02341+02261101751ADDGF108991031011008001041011KA1240M+02741MA1999999101701MD1999999+0001REMSYN088AAXX  04004 83498 32595 80501 10234 20226 30170 40175 83141 333 10274 29090 55/// 58000;
0156834980999992011060412004-17733-039250FM-12+000399999V0203201N003112200019N0020001N1+02581+02311101571ADDGF101991011011008001001001KA1240N+02251MA1999999101521MD1999999-0281REMSYN076AAXX  04124 83498 32595 13206 10258 20231 30152 40157 81100 333 20225 59028;
0137834980999992011060418004-17733-039250FM-12+000399999V0200501N004112200019N0020001N1+02851+02421101211ADDGF101991011011008001001011MA1999999101161MD1999999-0321REMSYN070AAXX  04184 83498 32595 10508 10285 20242 30116 40121 81101 333 59032;
0180834980999992011060500004-17733-039250FM-12+000399999V0201401N001010450019N0020001N1+02491+02361101471ADDGF107991041061008001021001KA1240M+03111MA1999999101421MD1999999-0281MW1131REMSYN094AAXX  05004 83498 31595 71402 10249 20236 30142 40147 713// 84620 333 10311 29088 55/// 59028;
0201834980999992011060512004-17733-039250FM-12+000399999V0201801N004610450019N0020001N1+02341+01871101981ADDAA124002091AY161061AY221061GF108991041061008001021999KA1240N+02161MA1999999101931MD1999999+0411MW1211REMSYN088AAXX  05124 83498 21595 81809 10234 20187 30193 40198 72162 8462/ 333 20216 58041 60024;
0137834980999992011060518004-17733-039250FM-12+000399999V0201801N006210450019N0020001N1+02301+01851101781ADDGF108991031051008001011999MA1999999101731MD1999999+0571REMSYN070AAXX  05184 83498 32595 81812 10230 20185 30173 40178 8351/ 333 58057;
0213834980999992011060600004-17733-039250FM-12+000399999V0201801N004110450019N0020001N1+02281+01901102011ADDAA106000021AY161061AY261061GF106991031051008001011001KA1240M+02501MA1999999101961MD1999999+0541MW1211REMSYN100AAXX  06004 83498 21595 61808 10228 20190 30196 40201 72166 83510 333 10250 29077 55/// 58054 69921;
0201834980999992011060612004-17733-039250FM-12+000399999V0201801N002110450019N0020001N1+02051+01851102311ADDAA124002091AY161061AY261061GF105991031021008001031001KA1240N+01911MA1999999102261MD1999999+0331MW1211REMSYN088AAXX  06124 83498 21595 51804 10205 20185 30226 40231 72166 83230 333 20191 58033 60024;
0137834980999992011060618004-17733-039250FM-12+000399999V0201401N002112200019N0020001N1+02401+01911101991ADDGF102991021011008001001001MA1999999101941MD1999999+0211REMSYN070AAXX  06184 83498 32595 21404 10240 20191 30194 40199 82100 333 58021;
0178834980999992011060700004-17733-039250FM-12+000399999V0200901N001012200019N0020001N1+01981+01781102121ADDGA1001+999999999GF100991001001999999001001KA1240M+02431MA1999999102071MD1999999+0111REMSYN082AAXX  07004 83498 32995 00902 10198 20178 30207 40212 333 10243 29085 55/// 58011;
0156834980999992011060712004-17733-039250FM-12+000399999V0202301N000512200019N0020001N1+02121+01891102211ADDGF102991021011008001001001KA1240N+01631MA1999999102161MD1999999-0101REMSYN076AAXX  07124 83498 32595 22301 10212 20189 30216 40221 82100 333 20163 59010;
0137834980999992011060718004-17733-039250FM-12+000399999V0200901N002612200019N0020001N1+02601+01871101821ADDGF102991011011008001001011MA1999999101771MD1999999-0171REMSYN070AAXX  07184 83498 32595 20905 10260 20187 30177 40182 81101 333 59017;
0168834980999992011060800004-17733-039250FM-12+000399999V0200901N000512200019N0020001N1+01881+01711101851ADDGF101991011011008001001001KA1240M+02651MA1999999101801MD1999999-0271REMSYN088AAXX  08004 83498 32595 10901 10188 20171 30180 40185 81100 333 10265 29083 55/// 59027;
0156834980999992011060812004-17733-039250FM-12+000399999V0203601N004612200019N0020001N1+02341+02031101791ADDGF102991021011008001001011KA1240N+01741MA1999999101741MD1999999-0421REMSYN076AAXX  08124 83498 32595 23609 10234 20203 30174 40179 82101 333 20174 59042;
0137834980999992011060818004-17733-039250FM-12+000399999V0200501N005112200019N0020001N1+02701+02131101371ADDGF101991011011008001001011MA1999999101321MD1999999-0451REMSYN070AAXX  08184 83498 32595 10510 10270 20213 30132 40137 81101 333 59045;
0156834980999992011060912004-17733-039250FM-12+000399999V0203601N003110450019N0020001N1+02561+02231101871ADDGF105991041021008001031001KA1240N+02001MA1999999101821MD1999999+0081REMSYN076AAXX  09124 83498 32595 53606 10256 20223 30182 40187 84230 333 20200 58008;
0137834980999992011060918004-17733-039250FM-12+000399999V0203601N004112200019N0020001N1+02741+02281101591ADDGF102991021011008001001001MA1999999101541MD1999999+0221REMSYN070AAXX  09184 83498 32595 23608 10274 20228 30154 40159 82100 333 58022;
0168834980999992011061000004-17733-039250FM-12+000399999V0203601N003111050019N0020001N1+02361+02191101681ADDGF105991021011008001001021KA1240M+02791MA1999999101631MD1999999+0081REMSYN088AAXX  10004 83498 32595 53606 10236 20219 30163 40168 82102 333 10279 29084 55/// 58008;
0156834980999992011061012004-17733-039250FM-12+000399999V0202701N001512200019N0020001N1+02421+02171101941ADDGF101991011011008001001001KA1240N+02041MA1999999101891MD1999999+0071REMSYN076AAXX  10124 83498 32595 12703 10242 20217 30189 40194 81100 333 20204 58007;
0137834980999992011061018004-17733-039250FM-12+000399999V0203601N002612200019N0020001N1+02801+02181101531ADDGF101991011011008001001001MA1999999101481MD1999999-0061REMSYN070AAXX  10184 83498 32595 13605 10280 20218 30148 40153 81100 333 59006;
0178834980999992011061100004-17733-039250FM-12+000399999V0203601N001512200019N0020001N1+02351+02221101711ADDGA1001+999999999GF100991001001999999001001KA1240M+02911MA1999999101661MD1999999+0031REMSYN082AAXX  11004 83498 32995 03603 10235 20222 30166 40171 333 10291 29086 55/// 58003;
0201834980999992011061112004-17733-039250FM-12+000399999V0201401N001010450019N0020001N1+02361+02261102051ADDAA124000391AY161061AY221061GF108991041061008001021999KA1240N+02091MA1999999102001MD1999999+0111MW1611REMSYN088AAXX  11124 83498 21595 81402 10236 20226 30200 40205 76162 8462/ 333 20209 58011 69934;
0182834980999992011061118004-17733-039250FM-12+000399999V0201801N003610450019N0020001N1+02321+02131101931ADDAA106000591AY161061AY261061GF108991031071008001021999MA1999999101881MD1999999+0401MW1211REMSYN082AAXX  11184 83498 21595 81807 10232 20213 30188 40193 72166 8372/ 333 58040 69961;
0168834980999992011061200004-17733-039250FM-12+000399999V0201801N004110075019N0020001N1+02341+02001102131ADDGF108991051061008001011999KA1240M+02421MA1999999102081MD1999999+0421REMSYN088AAXX  12004 83498 32595 81808 10234 20200 30208 40213 8561/ 333 10242 29089 55/// 58042;
0201834980999992011061212004-17733-039250FM-12+000399999V0201401N004110450019N0020001N1+02391+01871102141ADDAA124000891AY161061AY221061GF108991041061008001021001KA1240N+02281MA1999999102091MD1999999+0091MW1611REMSYN088AAXX  12124 83498 21595 81408 10239 20187 30209 40214 76162 84620 333 20228 58009 69984;
0137834980999992011061218004-17733-039250FM-12+000399999V0201401N005110450019N0020001N1+02471+01811102071ADDGF107991041061008001031001MA1999999102021MD1999999+0141REMSYN070AAXX  12184 83498 32595 71410 10247 20181 30202 40207 84630 333 58014;
0168834980999992011061300004-17733-039250FM-12+000399999V0201801N001512200019N0020001N1+02241+01731102281ADDGF102991021011008001031001KA1240M+02561MA1999999102231MD1999999-0051REMSYN088AAXX  13004 83498 32595 21803 10224 20173 30223 40228 82130 333 10256 29071 55/// 59005;
0156834980999992011061312004-17733-039250FM-12+000399999V0201801N001510450019N0020001N1+02201+02031102311ADDGF105991041021008001031001KA1240N+01781MA1999999102261MD1999999+0171REMSYN076AAXX  13124 83498 32595 51803 10220 20203 30226 40231 84230 333 20178 58017;
0137834980999992011061318004-17733-039250FM-12+000399999V0201801N002112200019N0020001N1+02501+02191101971ADDGF104991021011008001031001MA1999999101921MD1999999+0101REMSYN070AAXX  13184 83498 32595 41804 10250 20219 30192 40197 82130 333 58010;
0168834980999992011061400004-17733-039250FM-12+000399999V0201801N000512200019N0020001N1+02141+01781102141ADDGF104991041011008001001001KA1240M+02571MA1999999102091MD1999999-0141REMSYN088AAXX  14004 83498 32595 41801 10214 20178 30209 40214 84100 333 10257 29083 55/// 59014;
0173834980999992011061412004-17733-039250FM-12+000399999V0202301N003112200019N0020001N1+02131+01951102111ADDAA124000591GF102991021011008001001001KA1240N+01871MA1999999102061MD1999999-0201REMSYN082AAXX  14124 83498 22595 22306 10213 20195 30206 40211 82100 333 20187 59020 69964;
0137834980999992011061418004-17733-039250FM-12+000399999V0201401N004612200019N0020001N1+02431+01991101971ADDGF102991021021008001011001MA1999999101921MD1999999+0001REMSYN070AAXX  14184 83498 32595 21409 10243 20199 30192 40197 82210 333 58000;
0168834980999992011061500004-17733-039250FM-12+000399999V0201801N002112200019N0020001N1+02261+01901102201ADDGF101991011011008001001001KA1240M+02521MA1999999102151MD1999999+0061REMSYN088AAXX  15004 83498 32595 11804 10226 20190 30215 40220 81100 333 10252 29082 55/// 58006;
0201834980999992011061512004-17733-039250FM-12+000399999V0201801N002610450019N0020001N1+02121+01951102211ADDAA124000891AY161061AY221061GF108991041061008001011999KA1240N+01831MA1999999102161MD1999999+0101MW1211REMSYN088AAXX  15124 83498 21595 81805 10212 20195 30216 40221 72162 8461/ 333 20183 58010 69984;
0137834980999992011061518004-17733-039250FM-12+000399999V0201801N004110075019N0020001N1+02341+02091101991ADDGF108991051061008001011999MA1999999101941MD1999999+0021REMSYN070AAXX  15184 83498 32595 81808 10234 20209 30194 40199 8561/ 333 58002;
0213834980999992011061600004-17733-039250FM-12+000399999V0201801N005110450019N0020001N1+02141+02021102151ADDAA106001091AY161061AY221061GF108991041071008001021999KA1240M+02451MA1999999102101MD1999999+0051MW1611REMSYN100AAXX  16004 83498 21595 81810 10214 20202 30210 40215 76162 8472/ 333 10245 29091 55/// 58005 60011;
0201834980999992011061612004-17733-039250FM-12+000399999V0201401N003112200019N0020001N1+02381+01681102211ADDAA124003091AY161061AY261061GF101991011011008001001001KA1240N+01941MA1999999102161MD1999999+0001MW1211REMSYN088AAXX  16124 83498 21595 11406 10238 20168 30216 40221 72166 81100 333 20194 58000 60034;
0137834980999992011061618004-17733-039250FM-12+000399999V0201401N005112200019N0020001N1+02421+01991101921ADDGF104991021011008001031001MA1999999101871MD1999999-0071REMSYN070AAXX  16184 83498 32595 41410 10242 20199 30187 40192 82130 333 59007;
0168834980999992011061700004-17733-039250FM-12+000399999V0201801N002110450019N0020001N1+02341+01851102091ADDGF108991041071008001021999KA1240M+02481MA1999999102041MD1999999-0061REMSYN088AAXX  17004 83498 32595 81804 10234 20185 30204 40209 8472/ 333 10248 29073 55/// 59006;
0201834980999992011061712004-17733-039250FM-12+000399999V0202301N002110075019N0020001N1+02041+01961102091ADDAA124004191AY161061AY221061GF108991081071008001999999KA1240N+01921MA1999999102041MD1999999-0121MW1611REMSYN088AAXX  17124 83498 21595 82304 10204 20196 30204 40209 76162 887// 333 20192 59012 60044;
0182834980999992011061718004-17733-039250FM-12+000399999V0201801N002610075019N0020001N1+02241+02161101851ADDAA106000591AY161061AY261061GF108991051071008001021999MA1999999101801MD1999999-0071MW1611REMSYN082AAXX  17184 83498 21595 81805 10224 20216 30180 40185 76166 8572/ 333 59007 69961;
0213834980999992011061800004-17733-039250FM-12+000399999V0201401N000510450019N0020001N1+02201+02131101991ADDAA106001091AY161061AY261061GF108991041071008001021999KA1240M+02351MA1999999101941MD1999999-0101MW1211REMSYN100AAXX  18004 83498 21595 81401 10220 20213 30194 40199 72166 8472/ 333 10235 29095 55/// 59010 60011;
0173834980999992011061812004-17733-039250FM-12+000399999V0201801N002112200019N0020001N1+02311+02141101941ADDAA124002091GF102991021011008001001001KA1240N+02061MA1999999101891MD1999999-0151REMSYN082AAXX  18124 83498 22595 21804 10231 20214 30189 40194 82100 333 20206 59015 60024;
0137834980999992011061818004-17733-039250FM-12+000399999V0200901N002110450019N0020001N1+02441+02031101711ADDGF106991031051008001011001MA1999999101661MD1999999-0141REMSYN070AAXX  18184 83498 32595 60904 10244 20203 30166 40171 83510 333 59014;
0168834980999992011061900004-17733-039250FM-12+000399999V0209999C000012200019N0020001N1+02261+02161101771ADDGF102991021011008001001001KA1240M+02791MA1999999101721MD1999999-0221REMSYN088AAXX  19004 83498 32595 20000 10226 20216 30172 40177 82100 333 10279 29090 55/// 59022;
0156834980999992011061912004-17733-039250FM-12+000399999V0201801N001010450019N0020001N1+02241+02171101851ADDGF107991041051008001031001KA1240N+02051MA1999999101801MD1999999-0091REMSYN076AAXX  19124 83498 32595 71802 10224 20217 30180 40185 84530 333 20205 59009;
0137834980999992011061918004-17733-039250FM-12+000399999V0200901N002110450019N0020001N1+02601+02291101581ADDGF106991031021008001031001MA1999999101531MD1999999-0131REMSYN070AAXX  19184 83498 32595 60904 10260 20229 30153 40158 83230 333 59013;
0168834980999992011062000004-17733-039250FM-12+000399999V0200901N001012200019N0020001N1+02281+02201101771ADDGF102991021011008001001001KA1240M+02701MA1999999101721MD1999999+0001REMSYN088AAXX  20004 83498 32595 20902 10228 20220 30172 40177 82100 333 10270 29092 55/// 58000;
0156834980999992011062012004-17733-039250FM-12+000399999V0201801N001510450019N0020001N1+02211+02111101961ADDGF107991041051008001041001KA1240N+01921MA1999999101911MD1999999-0111REMSYN076AAXX  20124 83498 32595 71803 10221 20211 30191 40196 84540 333 20192 59011;
0137834980999992011062018004-17733-039250FM-12+000399999V0201401N001512200019N0020001N1+02561+02151101731ADDGF102991021021008001001011MA1999999101681MD1999999-0151REMSYN070AAXX  20184 83498 32595 21403 10256 20215 30168 40173 82201 333 59015;
0178834980999992011062100004-17733-039250FM-12+000399999V0200901N001012200019N0020001N1+02181+02061101841ADDGA1001+999999999GF100991001001999999001001KA1240M+02611MA1999999101791MD1999999+0071REMSYN082AAXX  21004 83498 32995 00902 10218 20206 30179 40184 333 10261 29091 55/// 58007;
0156834980999992011062112004-17733-039250FM-12+000399999V0202301N000510450019N0020001N1+02121+02071101961ADDGF105991021011008001051001KA1240N+01761MA1999999101911MD1999999+0001REMSYN076AAXX  21124 83498 32595 52301 10212 20207 30191 40196 82150 333 20176 58000;
0137834980999992011062118004-17733-039250FM-12+000399999V0200501N001512200019N0020001N1+02681+02181101671ADDGF102991021011008001001001MA1999999101621MD1999999-0061REMSYN070AAXX  21184 83498 32595 20503 10268 20218 30162 40167 82100 333 59006;
0178834980999992011062200004-17733-039250FM-12+000399999V0209999C000012200019N0020001N1+02001+01931101911ADDGA1001+999999999GF100991001001999999001001KA1240M+02771MA1999999101861MD1999999-0071REMSYN082AAXX  22004 83498 32995 00000 10200 20193 30186 40191 333 10277 29090 55/// 59007;
0156834980999992011062212004-17733-039250FM-12+000399999V0202701N001512200019N0020001N1+02251+02221102071ADDGF102991021011008001001001KA1240N+01781MA1999999102031MD1999999+0111REMSYN076AAXX  22124 83498 32595 22703 10225 20222 30203 40207 82100 333 20178 58011;
0137834980999992011062218004-17733-039250FM-12+000399999V0200901N001012200019N0020001N1+02661+02221101781ADDGF102991021011008001001001MA1999999101731MD1999999+0111REMSYN070AAXX  22184 83498 32595 20902 10266 20222 30173 40178 82100 333 58011;
0156834980999992011062312004-17733-039250FM-12+000399999V0202301N001010450019N0020001N1+02181+02111102031ADDGF108991041051008001031001KA1240N+01901MA1999999101981MD1999999-0041REMSYN076AAXX  23124 83498 32595 82302 10218 20211 30198 40203 84530 333 20190 59004;
0137834980999992011062318004-17733-039250FM-12+000399999V0201801N002110450019N0020001N1+02521+02311101861ADDGF105991031011008001031001MA1999999101811MD1999999+0081REMSYN070AAXX  23184 83498 32595 51804 10252 20231 30181 40186 83130 333 58008;
0201834980999992011062412004-17733-039250FM-12+000399999V0202701N001010450019N0020001N1+02201+02121101861ADDAA124002091AY161061AY221061GF108991041071008001021001KA1240N+02141MA1999999101811MD1999999-0171MW1611REMSYN088AAXX  24124 83498 21595 82702 10220 20212 30181 40186 76162 84720 333 20214 59017 60024;
0182834980999992011062418004-17733-039250FM-12+000399999V0201401N001012200019N0020001N1+02441+02131101641ADDAA106002091AY161061AY261061GF103991031021008001001001MA1999999101591MD1999999-0221MW1211REMSYN082AAXX  24184 83498 21595 31402 10244 20213 30159 40164 72166 83200 333 59022 60021;
0201834980999992011062512004-17733-039250FM-12+000399999V0202301N001510450019N0020001N1+02121+02071101971ADDAA124007191AY121061AY211061GF107991041051008001011001KA1240N+02021MA1999999101921MD1999999+0111MW1031REMSYN088AAXX  25124 83498 21595 72303 10212 20207 30192 40197 70321 84510 333 20202 58011 60074;
0137834980999992011062518004-17733-039250FM-12+000399999V0201401N002612200019N0020001N1+02521+02151101671ADDGF103991011011008001041001MA1999999101621MD1999999+0031REMSYN070AAXX  25184 83498 32595 31405 10252 20215 30162 40167 81140 333 58003;
0201834980999992011062612004-17733-039250FM-12+000399999V0203201N001010450019N0020001N1+02241+02161101911ADDAA124003091AY161061AY261061GF108991041051008001011999KA1240N+02041MA1999999101861MD1999999-0061MW1211REMSYN088AAXX  26124 83498 21595 83202 10224 20216 30186 40191 72166 8451/ 333 20204 59006 60034;
0182834980999992011062618004-17733-039250FM-12+000399999V0200901N001510450019N0020001N1+02481+02191101591ADDAA106004191AY161061AY261061GF108991031051008001011999MA1999999101541MD1999999+0081MW1211REMSYN082AAXX  26184 83498 21595 80903 10248 20219 30154 40159 72166 8351/ 333 58008 60041;
0173834980999992011062712004-17733-039250FM-12+000399999V0203201N002112200019N0100001N1+02321+02181101551ADDAA124004191GF101991011011008001001001KA1240N+01981MA1999999101501MD1999999-0361REMSYN082AAXX  27124 83498 22597 13204 10232 20218 30150 40155 81100 333 20198 59036 60044;
0137834980999992011062718004-17733-039250FM-12+000399999V0200501N001512200019N0020001N1+02711+02171101341ADDGF101991011011008001001011MA1999999101291MD1999999-0251REMSYN070AAXX  27184 83498 32595 10503 10271 20217 30129 40134 81101 333 59025;
0156834980999992011062812004-17733-039250FM-12+000399999V0203601N001512200019N0020001N1+02461+02301101861ADDGF104991041021008001001001KA1240N+02011MA1999999101811MD1999999+0311REMSYN076AAXX  28124 83498 32595 43603 10246 20230 30181 40186 84200 333 20201 58031;
0137834980999992011062818004-17733-039250FM-12+000399999V0201801N003110450019N0020001N1+02451+02191101751ADDGF107991041051008001041001MA1999999101701MD1999999+0411REMSYN070AAXX  28184 83498 32595 71806 10245 20219 30170 40175 84540 333 58041;
0168834980999992011062900004-17733-039250FM-12+000399999V0201801N003612200019N0020001N1+02371+02191101961ADDGF103991031051008001001001KA1240M+02701MA1999999101911MD1999999+0381REMSYN088AAXX  29004 83498 32595 31807 10237 20219 30191 40196 83500 333 10270 29089 55/// 58038;
0201834980999992011062912004-17733-039250FM-12+000399999V0201801N003110450019N0020001N1+02421+02231102121ADDAA124003091AY161061AY221061GF108991041061008001011999KA1240N+02021MA1999999102071MD1999999+0261MW1211REMSYN088AAXX  29124 83498 21595 81806 10242 20223 30207 40212 72162 8461/ 333 20202 58026 60034;
0182834980999992011062918004-17733-039250FM-12+000399999V0201801N003610450019N0020001N1+02481+02191101981ADDAA106002091AY161061AY261061GF108991031061008001011999MA1999999101931MD1999999+0231MW1211REMSYN082AAXX  29184 83498 21595 81807 10248 20219 30193 40198 72166 8361/ 333 58023 60021;
0213834980999992011063000004-17733-039250FM-12+000399999V0201401N001510450019N0020001N1+02381+02211102031ADDAA106000591AY161061AY261061GF105991031051008001011001KA1240M+02991MA1999999101981MD1999999+0071MW1211REMSYN100AAXX  30004 83498 21595 51403 10238 20221 30198 40203 72166 83510 333 10299 29088 55/// 58007 69941;
0173834980999992011063012004-17733-039250FM-12+000399999V0201401N001510450019N0020001N1+02511+02051102121ADDAA124003091GF105991031021008001041001KA1240N+02281MA1999999102071MD1999999+0001REMSYN082AAXX  30124 83498 22595 51403 10251 20205 30207 40212 83240 333 20228 58000 60034;
0137834980999992011063018004-17733-039250FM-12+000399999V0201401N002612200019N0020001N1+02531+02111101871ADDGF103991031011008001001001MA1999999101821MD1999999-0111REMSYN070AAXX  30184 83498 32595 31405 10253 20211 30182 40187 83100 333 59011;
0168834980999992011070100004-17733-039250FM-12+000399999V0201801N001010450019N0020001N1+02111+01951102031ADDGF105991031051008001011001KA1240M+02601MA1999999101981MD1999999+0001REMSYN088AAXX  01004 83498 32595 51802 10211 20195 30198 40203 83510 333 10260 29084 55/// 58000;
0201834980999992011070112004-17733-039250FM-12+000399999V0201801N002112200019N0020001N1+02221+01971102081ADDAA124000021AY161061AY261061GF101991011011008001001001KA1240N+01921MA1999999102031MD1999999-0041MW1211REMSYN088AAXX  01124 83498 21595 11804 10222 20197 30203 40208 72166 81100 333 20192 59004 69924;
0137834980999992011070118004-17733-039250FM-12+000399999V0201401N002612200019N0020001N1+02501+02071101781ADDGF101991011011008001001001MA1999999101731MD1999999-0091REMSYN070AAXX  01184 83498 32595 11405 10250 20207 30173 40178 81100 333 59009;
0178834980999992011070200004-17733-039250FM-12+000399999V0200901N001512200019N0020001N1+02241+02011101921ADDGA1001+999999999GF100991001001999999001001KA1240M+02911MA1999999101871MD1999999-0051REMSYN082AAXX  02004 83498 32995 00903 10224 20201 30187 40192 333 10291 29085 55/// 59005;
0156834980999992011070212004-17733-039250FM-12+000399999V0202301N001012200019N0020001N1+02201+02031102081ADDGF102991021011008001001001KA1240N+01931MA1999999102031MD1999999+0101REMSYN076AAXX  02124 83498 32595 22302 10220 20203 30203 40208 82100 333 20193 58010;
0182834980999992011070218004-17733-039250FM-12+000399999V0200901N002110450019N0020001N1+02521+02171101791ADDAA106001091AY161061AY221061GF108991031051008001011999MA1999999101741MD1999999+0011MW1211REMSYN082AAXX  02184 83498 21595 80904 10252 20217 30174 40179 72162 8351/ 333 58001 60011;
0173834980999992011070312004-17733-039250FM-12+000399999V0202701N001012200019N0020001N1+02241+02101101911ADDAA124001091GF101991011011008001001001KA1240N+01831MA1999999101861MD1999999-0171REMSYN082AAXX  03124 83498 22595 12702 10224 20210 30186 40191 81100 333 20183 59017 60014;
0137834980999992011070318004-17733-039250FM-12+000399999V0200501N002611050019N0020001N1+02701+02081101561ADDGF105991011011008001001091MA1999999101511MD1999999-0231REMSYN070AAXX  03184 83498 32595 50505 10270 20208 30151 40156 81109 333 59023;
0156834980999992011070412004-17733-039250FM-12+000399999V0203601N003112200019N0020001N1+02461+02151101731ADDGF103991011011008001001011KA1240N+01851MA1999999101681MD1999999-0181REMSYN076AAXX  04124 83498 32595 33606 10246 20215 30168 40173 81101 333 20185 59018;
0137834980999992011070418004-17733-039250FM-12+000399999V0200501N002112200019N0020001N1+02751+02211101501ADDGF104991041021008001001001MA1999999101451MD1999999-0061REMSYN070AAXX  04184 83498 32595 40504 10275 20221 30145 40150 84200 333 59006;
0168834980999992011070500004-17733-039250FM-12+000399999V0201801N001510450019N0020001N1+02341+02091101801ADDGF106991041051008001041001KA1240M+02851MA1999999101751MD1999999+0141REMSYN088AAXX  05004 83498 32595 61803 10234 20209 30175 40180 84540 333 10285 29082 55/// 58014;
0201834980999992011070512004-17733-039250FM-12+000399999V0202301N001510450019N0020001N1+02061+01981102031ADDAA124001091AY161061AY221061GF108991031051008001011999KA1240N+01821MA1999999101981MD1999999+0301MW1211REMSYN088AAXX  05124 83498 21595 82303 10206 20198 30198 40203 72162 8351/ 333 20182 58030 60014;
0137834980999992011070518004-17733-039250FM-12+000399999V0201401N001010075019N0020001N1+02441+02151101781ADDGF107991051021008001011001MA1999999101731MD1999999+0281REMSYN070AAXX  05184 83498 32595 71402 10244 20215 30173 40178 85210 333 58028;
0168834980999992011070600004-17733-039250FM-12+000399999V0200901N000512200019N0020001N1+02261+02181101891ADDGF101991011011008001001001KA1240M+02541MA1999999101841MD1999999+0091REMSYN088AAXX  06004 83498 32595 10901 10226 20218 30184 40189 81100 333 10254 29092 55/// 58009;
0156834980999992011070612004-17733-039250FM-12+000399999V0202701N001512200019N0020001N1+02311+02131101871ADDGF101991011001008001001051KA1240N+01921MA1999999101821MD1999999-0161REMSYN076AAXX  06124 83498 32595 12703 10231 20213 30182 40187 81005 333 20192 59016;
0137834980999992011070618004-17733-039250FM-12+000399999V0200901N001010450019N0020001N1+02781+02251101511ADDGF106991021011008001021001MA1999999101461MD1999999-0271REMSYN070AAXX  06184 83498 32595 60902 10278 20225 30146 40151 82120 333 59027;
0178834980999992011070700004-17733-039250FM-12+000399999V0203601N001012200019N0020001N1+02241+02141101631ADDGA1001+999999999GF100991001001999999001001KA1240M+03211MA1999999101581MD1999999-0261REMSYN082AAXX  07004 83498 32995 03602 10224 20214 30158 40163 333 10321 29088 55/// 59026;
0156834980999992011070712004-17733-039250FM-12+000399999V0203601N003610450019N0020001N1+02461+02091101731ADDGF105991011011008001011001KA1240N+01961MA1999999101681MD1999999-0141REMSYN076AAXX  07124 83498 32595 53607 10246 20209 30168 40173 81110 333 20196 59014;
0137834980999992011070718004-17733-039250FM-12+000399999V0201401N002610450019N0020001N1+02541+02211101401ADDGF106991031011008001011001MA1999999101351MD1999999-0111REMSYN070AAXX  07184 83498 32595 61405 10254 20221 30135 40140 83110 333 59011;
0168834980999992011070800004-17733-039250FM-12+000399999V0201401N001510450019N0020001N1+02381+02191101711ADDGF106991041051008001011001KA1240M+02811MA1999999101661MD1999999+0081REMSYN088AAXX  08004 83498 32595 61403 10238 20219 30166 40171 84510 333 10281 29085 55/// 58008;
0201834980999992011070812004-17733-039250FM-12+000399999V0201801N001510450019N0020001N1+02141+02091101901ADDAA124018091AY161061AY221061GF108991041071008001021999KA1240N+01721MA1999999101851MD1999999+0171MW1621REMSYN088AAXX  08124 83498 21595 81803 10214 20209 30185 40190 76262 8472/ 333 20172 58017 60184;
0182834980999992011070818004-17733-039250FM-12+000399999V0201801N002110450019N0020001N1+02161+02021101791ADDAA106001091AY161061AY261061GF108991041071008001021999MA1999999101741MD1999999+0391MW1211REMSYN082AAXX  08184 83498 21595 81804 10216 20202 30174 40179 72166 8472/ 333 58039 60011;
0213834980999992011070900004-17733-039250FM-12+000399999V0201801N003610450019N0020001N1+02221+01961102121ADDAA106000591AY161061AY261061GF108991031071008001021999KA1240M+02411MA1999999102071MD1999999+0411MW1211REMSYN100AAXX  09004 83498 21595 81807 10222 20196 30207 40212 72166 8372/ 333 10241 29090 55/// 58041 69951;
0201834980999992011070912004-17733-039250FM-12+000399999V0201401N002110450019N0020001N1+02311+01721102341ADDAA124002091AY161061AY261061GF107991031061008001011001KA1240N+02161MA1999999102291MD1999999+0441MW1211REMSYN088AAXX  09124 83498 21595 71404 10231 20172 30229 40234 72166 83610 333 20216 58044 60024;
0137834980999992011070918004-17733-039250FM-12+000399999V0201401N001512200019N0020001N1+02321+01651102201ADDGF102991021011008001031001MA1999999102151MD1999999+0411REMSYN070AAXX  09184 83498 32595 21403 10232 20165 30215 40220 82130 333 58041;
0178834980999992011071000004-17733-039250FM-12+000399999V0200901N001512200019N0020001N1+02081+01621102371ADDGA1001+999999999GF100991001001999999001001KA1240M+02491MA1999999102321MD1999999+0251REMSYN082AAXX  10004 83498 32995 00903 10208 20162 30232 40237 333 10249 29072 55/// 58025;
0156834980999992011071012004-17733-039250FM-12+000399999V0201801N000510450019N0020001N1+02001+01801102511ADDGF107991041051008001011001KA1240N+01671MA1999999102461MD1999999+0171REMSYN076AAXX  10124 83498 32595 71801 10200 20180 30246 40251 84510 333 20167 58017;
0137834980999992011071018004-17733-039250FM-12+000399999V0200901N003112200019N0020001N1+02461+01921102181ADDGF102991021011008001001001MA1999999102131MD1999999-0021REMSYN070AAXX  10184 83498 32595 20906 10246 20192 30213 40218 82100 333 59002;
0168834980999992011071100004-17733-039250FM-12+000399999V0201401N001010450019N0020001N1+02231+01961102341ADDGF106991041051008001041001KA1240M+02511MA1999999102291MD1999999-0031REMSYN088AAXX  11004 83498 32595 61402 10223 20196 30229 40234 84540 333 10251 29082 55/// 59003;
0201834980999992011071112004-17733-039250FM-12+000399999V0200501N000510450019N0020001N1+02221+02051102251ADDAA124002091AY161061AY221061GF108991031051008001011999KA1240N+01921MA1999999102201MD1999999-0261MW1211REMSYN088AAXX  11124 83498 21595 80501 10222 20205 30220 40225 72162 8351/ 333 20192 59026 60024;
0137834980999992011071118004-17733-039250FM-12+000399999V0200901N002110450019N0020001N1+02541+01951101961ADDGF106991031011008001051001MA1999999101911MD1999999-0221REMSYN070AAXX  11184 83498 32595 60904 10254 20195 30191 40196 83150 333 59022;
0178834980999992011071200004-17733-039250FM-12+000399999V0209999C000012200019N0020001N1+01921+01801102101ADDGA1001+999999999GF100991001001999999001001KA1240M+02651MA1999999102051MD1999999-0241REMSYN082AAXX  12004 83498 32995 00000 10192 20180 30205 40210 333 10265 29086 55/// 59024;
0156834980999992011071212004-17733-039250FM-12+000399999V0209999C000012200019N0020001N1+02181+01991102211ADDGF102991021011008001031001KA1240N+01801MA1999999102161MD1999999-0041REMSYN076AAXX  12124 83498 32595 20000 10218 20199 30216 40221 82130 333 20180 59004;
0137834980999992011071218004-17733-039250FM-12+000399999V0200901N003112200019N0020001N1+02551+01881101911ADDGF101991011011008001001001MA1999999101861MD1999999-0051REMSYN070AAXX  12184 83498 32595 10906 10255 20188 30186 40191 81100 333 59005;
0178834980999992011071300004-17733-039250FM-12+000399999V0200901N001512200019N0020001N1+02141+01761102091ADDGA1001+999999999GF100991001001999999001001KA1240M+02641MA1999999102041MD1999999-0011REMSYN082AAXX  13004 83498 32995 00903 10214 20176 30204 40209 333 10264 29078 55/// 59001;
0156834980999992011071312004-17733-039250FM-12+000399999V0202301N001510450019N0020001N1+01961+01861102161ADDGF106991041051008001011001KA1240N+01721MA1999999102111MD1999999-0051REMSYN076AAXX  13124 83498 32595 62303 10196 20186 30211 40216 84510 333 20172 59005;
0137834980999992011071318004-17733-039250FM-12+000399999V0201401N002110450019N0020001N1+02481+02031101741ADDGF105991031021008001041001MA1999999101691MD1999999-0171REMSYN070AAXX  13184 83498 32595 51404 10248 20203 30169 40174 83240 333 59017;
0168834980999992011071400004-17733-039250FM-12+000399999V0209999C000012200019N0020001N1+01881+01811101881ADDGF101991011011008001001001KA1240M+02551MA1999999101831MD1999999-0211REMSYN088AAXX  14004 83498 32595 10000 10188 20181 30183 40188 81100 333 10255 29090 55/// 59021;
0156834980999992011071412004-17733-039250FM-12+000399999V0202701N001512200019N0020001N1+02061+01991101991ADDGF103991021011008001041001KA1240N+01701MA1999999101941MD1999999-0171REMSYN076AAXX  14124 83498 32595 32703 10206 20199 30194 40199 82140 333 20170 59017;
0137834980999992011071418004-17733-039250FM-12+000399999V0203601N002112200019N0020001N1+02621+01931101651ADDGF102991021011008001001001MA1999999101601MD1999999-0091REMSYN070AAXX  14184 83498 32595 23604 10262 20193 30160 40165 82100 333 59009;
0168834980999992011071500004-17733-039250FM-12+000399999V0200501N002110450019N0020001N1+02121+01971101871ADDGF105991021011008001041001KA1240M+02721MA1999999101821MD1999999-0011REMSYN088AAXX  15004 83498 32595 50504 10212 20197 30182 40187 82140 333 10272 29086 55/// 59001;
0156834980999992011071512004-17733-039250FM-12+000399999V0202701N001512200019N0020001N1+02221+01991101991ADDGF102991021021008001001011KA1240N+01841MA1999999101941MD1999999+0001REMSYN076AAXX  15124 83498 32595 22703 10222 20199 30194 40199 82201 333 20184 58000;
0156834980999992011071518004-17733-039250FM-12+000399999V0200901N002119999999N0020001N1+02521+02151101781ADDGF106991999021008001001001MA1999999101731MD1999999+0131REMSYN070AAXX  15184 83498 32595 60904 10252 20215 30173 40178 83200 333 58013;EQDQ01+000032SCOTLC
0168834980999992011071600004-17733-039250FM-12+000399999V0209999C000012200019N0020001N1+02051+01971102001ADDGF101991011011008001001061KA1240M+02691MA1999999101951MD1999999+0131REMSYN088AAXX  16004 83498 32595 10000 10205 20197 30195 40200 81106 333 10269 29090 55/// 58013;
0156834980999992011071612004-17733-039250FM-12+000399999V0202301N000510450019N0020001N1+02221+02081102111ADDGF105991021051008001041001KA1240N+01901MA1999999102061MD1999999+0121REMSYN076AAXX  16124 83498 32595 52301 10222 20208 30206 40211 82540 333 20190 58012;
0182834980999992011071618004-17733-039250FM-12+000399999V0200901N002610450019N0020001N1+02531+02071102001ADDAA106002091AY121061AY211061GF106991041051008001041001MA1999999101951MD1999999+0221MW1031REMSYN082AAXX  16184 83498 21595 60905 10253 20207 30195 40200 70321 84540 333 58022 60021;
0168834980999992011071700004-17733-039250FM-12+000399999V0200901N000512200019N0020001N1+02181+01871102121ADDGF102991021011008001001001KA1240M+02551MA1999999102071MD1999999+0121REMSYN088AAXX  17004 83498 32595 20901 10218 20187 30207 40212 82100 333 10255 29086 55/// 58012;
0179834980999992011071712004-17733-039250FM-12+000399999V0202301N001012200019N0020001N1+02181+02031102201ADDAA124002091GF102991021011008001001001KA1240N+01821MA1999999102151MD1999999+0091REMSYN088AAXX  17124 83498 22595 22302 10218 20203 30215 40220 82100 333 20182 58009 60024 10022;
0137834980999992011071718004-17733-039250FM-12+000399999V0200901N001510450019N0020001N1+02541+02091101951ADDGF107991021011008001041021MA1999999101901MD1999999-0051REMSYN070AAXX  17184 83498 32595 70903 10254 20209 30190 40195 82142 333 59005;
0178834980999992011071800004-17733-039250FM-12+000399999V0209999C000012200019N0020001N1+02081+02001101911ADDGA1001+999999999GF100991001001999999001001KA1240M+02551MA1999999101861MD1999999-0211REMSYN082AAXX  18004 83498 32995 00000 10208 20200 30186 40191 333 10255 29089 55/// 59021;
0201834980999992011071812004-17733-039250FM-12+000399999V0202701N002110450019N0020001N1+02151+02071102031ADDAA124004191AY161061AY221061GF108991041071008001021001KA1240N+01861MA1999999101981MD1999999-0171MW1211REMSYN088AAXX  18124 83498 21595 82704 10215 20207 30198 40203 72162 84720 333 20186 59017 60044;
0182834980999992011071818004-17733-039250FM-12+000399999V0200901N002110450019N0020001N1+02451+01901101791ADDAA106000591AY161061AY261061GF108991041061008001021001MA1999999101741MD1999999-0161MW1211REMSYN082AAXX  18184 83498 21595 80904 10245 20190 30174 40179 72166 84620 333 59016 69951;
0168834980999992011071900004-17733-039250FM-12+000399999V0209999C000010450019N0020001N1+02161+02041101961ADDGF108991041071008001021999KA1240M+02471MA1999999101911MD1999999+0051REMSYN088AAXX  19004 83498 32595 80000 10216 20204 30191 40196 8472/ 333 10247 29089 55/// 58005;
0173834980999992011071912004-17733-039250FM-12+000399999V0201801N000510450019N0020001N1+02361+02051102121ADDAA124000591GF105991031041008001041001KA1240N+01921MA1999999102071MD1999999+0091REMSYN082AAXX  19124 83498 22595 51801 10236 20205 30207 40212 83440 333 20192 58009 69954;
0137834980999992011071918004-17733-039250FM-12+000399999V0200501N003112200019N0020001N1+02531+01891101921ADDGF103991031011008001001001MA1999999101871MD1999999+0131REMSYN070AAXX  19184 83498 32595 30506 10253 20189 30187 40192 83100 333 58013;
0178834980999992011072000004-17733-039250FM-12+000399999V0200901N000512200019N0020001N1+01901+01781102111ADDGA1001+999999999GF100991001001999999001001KA1240M+02731MA1999999102061MD1999999+0151REMSYN082AAXX  20004 83498 32995 00901 10190 20178 30206 40211 333 10273 29084 55/// 58015;
0156834980999992011072012004-17733-039250FM-12+000399999V0200901N001510450019N0020001N1+02161+02021102261ADDGF107991031011008001051001KA1240N+01721MA1999999102211MD1999999+0141REMSYN076AAXX  20124 83498 32595 70903 10216 20202 30221 40226 83150 333 20172 58014;
0137834980999992011072018004-17733-039250FM-12+000399999V0200901N003110450019N0020001N1+02601+01871102031ADDGF105991021011008001041001MA1999999101981MD1999999+0111REMSYN070AAXX  20184 83498 32595 50906 10260 20187 30198 40203 82140 333 58011;
0168834980999992011072100004-17733-039250FM-12+000399999V0200901N001512200019N0020001N1+02161+01821102181ADDGF103991031011008001001001KA1240M+02671MA1999999102131MD1999999+0071REMSYN088AAXX  21004 83498 32595 30903 10216 20182 30213 40218 83100 333 10267 29080 55/// 58007;
0156834980999992011072112004-17733-039250FM-12+000399999V0200901N002612200019N0010001N1+02201+01881102281ADDGF105991021021008001001011KA1240N+01661MA1999999102231MD1999999+0021REMSYN076AAXX  21124 83498 32594 50905 10220 20188 30223 40228 82201 333 20166 58002;
0137834980999992011072118004-17733-039250FM-12+000399999V0201401N002610450019N0020001N1+02561+01971101911ADDGF105991021021008001031001MA1999999101861MD1999999-0121REMSYN070AAXX  21184 83498 32595 51405 10256 20197 30186 40191 82230 333 59012;
0184834980999992011072200004-17733-039250FM-12+000399999V0200901N001010012019N0020001N1+02321+02021102161ADDGA1091+999999999GF109991091999999999999999KA1240M+02591MA1999999102111MD1999999-0021REMSYN088AAXX  22004 83498 32/95 90902 10232 20202 30211 40216 8//// 333 10259 29080 55/// 59002;
0156834980999992011072212004-17733-039250FM-12+000399999V0202301N001012200019N0020001N1+02321+02051102231ADDGF104991021051008001041001KA1240N+01971MA1999999102181MD1999999-0051REMSYN076AAXX  22124 83498 32595 42302 10232 20205 30218 40223 82540 333 20197 59005;
0182834980999992011072218004-17733-039250FM-12+000399999V0200901N003112200019N0020001N1+02601+02031101981ADDAA106000891AY121061AY211061GF103991031021008001001001MA1999999101931MD1999999+0071MW1031REMSYN082AAXX  22184 83498 21595 30906 10260 20203 30193 40198 70321 83200 333 58007 69971;
0178834980999992011072300004-17733-039250FM-12+000399999V0200901N001012200019N0020001N1+01981+01911102161ADDGA1001+999999999GF100991001001999999001001KA1240M+02611MA1999999102111MD1999999+0001REMSYN082AAXX  23004 83498 32995 00902 10198 20191 30211 40216 333 10261 29087 55/// 58000;
0173834980999992011072312004-17733-039250FM-12+000399999V0202701N001012200019N0020001N1+02361+02011102391ADDAA124000891GF103991031011008001001001KA1240N+01771MA1999999102341MD1999999+0161REMSYN082AAXX  23124 83498 22595 32702 10236 20201 30234 40239 83100 333 20177 58016 69974;
0137834980999992011072318004-17733-039250FM-12+000399999V0200901N003112200019N0020001N1+02581+01941102221ADDGF104991021011008001001011MA1999999102171MD1999999+0241REMSYN070AAXX  23184 83498 32595 40906 10258 20194 30217 40222 82101 333 58024;
0168834980999992011072400004-17733-039250FM-12+000399999V0201401N002112200019N0020001N1+02381+02011102481ADDGF104991041021008001001001KA1240M+02671MA1999999102431MD1999999+0321REMSYN088AAXX  24004 83498 32595 41404 10238 20201 30243 40248 84200 333 10267 29077 55/// 58032;
0201834980999992011072412004-17733-039250FM-12+000399999V0200901N003110450019N0020001N1+02401+02111102611ADDAA124000591AY161061AY221061GF108991041061008001021001KA1240N+02301MA1999999102561MD1999999+0221MW1601REMSYN088AAXX  24124 83498 21595 80906 10240 20211 30256 40261 76062 84620 333 20230 58022 69954;
0182834980999992011072418004-17733-039250FM-12+000399999V0200901N003112200019N0020001N1+02501+02051102391ADDAA106000021AY161061AY261061GF103991031021008001001011MA1999999102341MD1999999+0171MW1211REMSYN082AAXX  24184 83498 21595 30906 10250 20205 30234 40239 72166 83201 333 58017 69921;
0213834980999992011072500004-17733-039250FM-12+000399999V0200901N000510450019N0020001N1+02121+02001102451ADDAA106000591AY161061AY221061GF107991031051008001021001KA1240M+02641MA1999999102401MD1999999-0031MW1211REMSYN100AAXX  25004 83498 21595 70901 10212 20200 30240 40245 72162 83520 333 10264 29087 55/// 59003 69961;
0201834980999992011072512004-17733-039250FM-12+000399999V0200901N005710450019N0020001N1+02531+02051102501ADDAA124007991AY121061AY211061GF106991041051008001041001KA1240N+02021MA1999999102451MD1999999-0111MW1031REMSYN088AAXX  25124 83498 21595 60911 10253 20205 30245 40250 70321 84540 333 20202 59011 60084;
0182834980999992011072518004-17733-039250FM-12+000399999V0201401N003110450019N0020001N1+02441+02131102281ADDAA106001091AY161061AY261061GF106991041051008001041001MA1999999102231MD1999999-0121MW1211REMSYN082AAXX  25184 83498 21595 61406 10244 20213 30223 40228 72166 84540 333 59012 60011;
0213834980999992011072600004-17733-039250FM-12+000399999V0200901N003110450019N0020001N1+02181+02101102361ADDAA106004191AY161061AY261061GF108991031071008001021999KA1240M+02551MA1999999102311MD1999999-0091MW1211REMSYN100AAXX  26004 83498 21595 80906 10218 20210 30231 40236 72166 8372/ 333 10255 29087 55/// 59009 60041;
0201834980999992011072612004-17733-039250FM-12+000399999V0200901N004110075019N0020001N1+02441+01971102481ADDAA124008991AY161061AY261061GF105991051011008001001001KA1240N+02121MA1999999102431MD1999999-0021MW1211REMSYN088AAXX  26124 83498 21595 50908 10244 20197 30243 40248 72166 85100 333 20212 59002 60094;
0137834980999992011072618004-17733-039250FM-12+000399999V0200901N003610450019N0020001N1+02541+02001102181ADDGF106991031011008001041001MA1999999102131MD1999999-0101REMSYN070AAXX  26184 83498 32595 60907 10254 20200 30213 40218 83140 333 59010;
0178834980999992011072700004-17733-039250FM-12+000399999V0209999C000012200019N0020001N1+02161+01861102281ADDGA1001+999999999GF100991001001999999001001KA1240M+02641MA1999999102231MD1999999-0081REMSYN082AAXX  27004 83498 32995 00000 10216 20186 30223 40228 333 10264 29078 55/// 59008;
0156834980999992011072712004-17733-039250FM-12+000399999V0200901N004112200019N0020001N1+02471+01831102241ADDGF102991021011008001001001KA1240N+01781MA1999999102191MD1999999-0241REMSYN076AAXX  27124 83498 32595 20908 10247 20183 30219 40224 82100 333 20178 59024;
0137834980999992011072718004-17733-039250FM-12+000399999V0200901N002110450019N0020001N1+02501+01701101981ADDGF105991031021008001041001MA1999999101931MD1999999-0201REMSYN070AAXX  27184 83498 32595 50904 10250 20170 30193 40198 83240 333 59020;
0178834980999992011072800004-17733-039250FM-12+000399999V0200901N002612200019N0020001N1+02221+01761102121ADDGA1001+999999999GF100991001001999999001001KA1240M+02611MA1999999102071MD1999999-0161REMSYN082AAXX  28004 83498 32995 00905 10222 20176 30207 40212 333 10261 29070 55/// 59016;
0201834980999992011072812004-17733-039250FM-12+000399999V0201801N000512200019N0020001N1+02221+01881101971ADDAA124000021AY161061AY261061GF103991031021008001001091KA1240N+01681MA1999999101921MD1999999-0271MW1211REMSYN088AAXX  28124 83498 21595 31801 10222 20188 30192 40197 72166 83209 333 20168 59027 69924;
0137834980999992011072818004-17733-039250FM-12+000399999V0200901N002612200019N0020001N1+02551+01831101741ADDGF102991021011008001001001MA1999999101691MD1999999-0241REMSYN070AAXX  28184 83498 32595 20905 10255 20183 30169 40174 82100 333 59024;
0178834980999992011072900004-17733-039250FM-12+000399999V0209999C000012200019N0020001N1+01891+01661101841ADDGA1001+999999999GF100991001001999999001001KA1240M+02651MA1999999101791MD1999999-0281REMSYN082AAXX  29004 83498 32995 00000 10189 20166 30179 40184 333 10265 29080 55/// 59028;
0156834980999992011072912004-17733-039250FM-12+000399999V0200501N002110450019N0020001N1+02281+01961101941ADDGF107991031051008001031001KA1240N+01771MA1999999101891MD1999999-0031REMSYN076AAXX  29124 83498 32595 70504 10228 20196 30189 40194 83530 333 20177 59003;
0137834980999992011072918004-17733-039250FM-12+000399999V0200901N001510450019N0020001N1+02561+01951101591ADDGF108991041051008001031001MA1999999101541MD1999999-0151REMSYN070AAXX  29184 83498 32595 80903 10256 20195 30154 40159 84530 333 59015;
0178834980999992011073000004-17733-039250FM-12+000399999V0209999C000012200019N0020001N1+02241+02071101681ADDGA1001+999999999GF100991001001999999001001KA1240M+02571MA1999999101631MD1999999-0161REMSYN082AAXX  30004 83498 32995 00000 10224 20207 30163 40168 333 10257 29083 55/// 59016;
0156834980999992011073012004-17733-039250FM-12+000399999V0202701N002112200019N0020001N1+02271+01961101871ADDGF101991011011008001001001KA1240N+01701MA1999999101821MD1999999-0071REMSYN076AAXX  30124 83498 32595 12704 10227 20196 30182 40187 81100 333 20170 59007;
0137834980999992011073018004-17733-039250FM-12+000399999V0203601N001510450019N0020001N1+02671+02001101561ADDGF106991031041008001031001MA1999999101511MD1999999-0031REMSYN070AAXX  30184 83498 32595 63603 10267 20200 30151 40156 83430 333 59003;
0178834980999992011073100004-17733-039250FM-12+000399999V0203601N001010012019N0020001N1+02291+02071101781ADDGA1091+999999999GF109991091999999999999999KA1240M+02771MA1999999101731MD1999999+0101REMSYN082AAXX  31004 83498 32/95 93602 10229 20207 30173 40178 333 10277 29082 55/// 58010;
0156834980999992011073112004-17733-039250FM-12+000399999V0203601N002610450019N0020001N1+02541+02171101871ADDGF106991041021008001041001KA1240N+02021MA1999999101821MD1999999+0001REMSYN076AAXX  31124 83498 32595 63605 10254 20217 30182 40187 84240 333 20202 58000;
0137834980999992011073118004-17733-039250FM-12+000399999V0200501N005112200019N0020001N1+02671+02051101581ADDGF104991011011008001001011MA1999999101531MD1999999+0021REMSYN070AAXX  31184 83498 32595 40510 10267 20205 30153 40158 81101 333 58002;
0178834980999992011080100004-17733-039250FM-12+000399999V0200501N002112200019N0020001N1+02221+01961101731ADDGA1001+999999999GF100991001001999999001001KA1240M+02791MA1999999101681MD1999999-0051REMSYN082AAXX  01004 83498 32995 00504 10222 20196 30168 40173 333 10279 29080 55/// 59005;
0156834980999992011080112004-17733-039250FM-12+000399999V0203601N002111050019N0020001N1+02441+02011101701ADDGF106991021011008001001021KA1240N+01881MA1999999101651MD1999999-0171REMSYN076AAXX  01124 83498 32595 63604 10244 20201 30165 40170 82102 333 20188 59017;
0137834980999992011080118004-17733-039250FM-12+000399999V0200501N001511050019N0020001N1+02581+02121101401ADDGF108991041041008001001091MA1999999101351MD1999999+0181REMSYN070AAXX  01184 83498 32595 80503 10258 20212 30135 40140 84409 333 58018;
0168834980999992011080200004-17733-039250FM-12+000399999V0200501N001512200019N0020001N1+02241+02101101421ADDGF102991021011008001001001KA1240M+02701MA1999999101371MD1999999-0311REMSYN088AAXX  02004 83498 32595 20503 10224 20210 30137 40142 82100 333 10270 29084 55/// 59031;
0156834980999992011080212004-17733-039250FM-12+000399999V0203601N004112200019N0020001N1+02501+02131101521ADDGF104991011011008001001011KA1240N+01951MA1999999101471MD1999999-0181REMSYN076AAXX  02124 83498 32595 43608 10250 20213 30147 40152 81101 333 20195 59018;
0156834980999992011080218004-17733-039250FM-12+000399999V0203601N004112200019N0020001N1+02671+02091101101ADDGF103991001001999999001011MA1999999101051MD1999999-0301REMSYN070AAXX  02184 83498 32595 33608 10267 20209 30105 40110 80001 333 59030;EQDQ01+008002SCOLCB
0178834980999992011080300004-17733-039250FM-12+000399999V0203601N004112200019N0020001N1+02361+02171101331ADDGA1001+999999999GF100991001001999999001001KA1240M+02801MA1999999101281MD1999999-0091REMSYN082AAXX  03004 83498 32995 03608 10236 20217 30128 40133 333 10280 29084 55/// 59009;
0156834980999992011080312004-17733-039250FM-12+000399999V0203601N004111050019N0020001N1+02541+02211101561ADDGF105991021011008001001091KA1240N+02161MA1999999101511MD1999999+0041REMSYN076AAXX  03124 83498 32595 53608 10254 20221 30151 40156 82109 333 20216 58004;
0137834980999992011080318004-17733-039250FM-12+000399999V0203601N006712200019N0020001N1+02761+02381101201ADDGF103991011011008001001091MA1999999101151MD1999999+0101REMSYN070AAXX  03184 83498 32595 33613 10276 20238 30115 40120 81109 333 58010;
0168834980999992011080400004-17733-039250FM-12+000399999V0203601N005712200019N0020001N1+02421+02281101451ADDGF104991021011008001001091KA1240M+02881MA1999999101401MD1999999+0121REMSYN088AAXX  04004 83498 32595 43611 10242 20228 30140 40145 82109 333 10288 29086 55/// 58012;
0156834980999992011080412004-17733-039250FM-12+000399999V0203201N001512200019N0020001N1+02551+02131101831ADDGF104991041021008001001001KA1240N+02221MA1999999101781MD1999999+0271REMSYN076AAXX  04124 83498 32595 43203 10255 20213 30178 40183 84200 333 20222 58027;
0137834980999992011080418004-17733-039250FM-12+000399999V0200901N002110450019N0020001N1+02771+02161101651ADDGF106991041081008001051001MA1999999101601MD1999999+0451REMSYN070AAXX  04184 83498 32595 60904 10277 20216 30160 40165 84850 333 58045;
0168834980999992011080500004-17733-039250FM-12+000399999V0201801N004110075019N0020001N1+02361+02131102011ADDGF108991051061008001021999KA1240M+02931MA1999999101961MD1999999+0561REMSYN088AAXX  05004 83498 32595 81808 10236 20213 30196 40201 8562/ 333 10293 29080 55/// 58056;
0201834980999992011080512004-17733-039250FM-12+000399999V0201801N005710450019N0020001N1+02321+02071102381ADDAA124002091AY161061AY221061GF108991041061008001021999KA1240N+02221MA1999999102331MD1999999+0551MW1211REMSYN088AAXX  05124 83498 21595 81811 10232 20207 30233 40238 72162 8462/ 333 20222 58055 60024;
0137834980999992011080518004-17733-039250FM-12+000399999V0201801N005110450019N0020001N1+02401+02051102251ADDGF108991041051008001011999MA1999999102201MD1999999+0601REMSYN070AAXX  05184 83498 32595 81810 10240 20205 30220 40225 8451/ 333 58060;
0168834980999992011080600004-17733-039250FM-12+000399999V0201801N003110450019N0020001N1+02301+02031102451ADDGF108991041051008001011999KA1240M+02471MA1999999102401MD1999999+0441REMSYN088AAXX  06004 83498 32595 81806 10230 20203 30240 40245 8451/ 333 10247 29084 55/// 58044;
0201834980999992011080612004-17733-039250FM-12+000399999V0202301N001510075019N0020001N1+02101+02001102501ADDAA124000591AY121061AY211061GF108991051051008001021999KA1240N+02021MA1999999102451MD1999999+0121MW1031REMSYN088AAXX  06124 83498 21595 82303 10210 20200 30245 40250 70321 8552/ 333 20202 58012 69944;
0137834980999992011080618004-17733-039250FM-12+000399999V0200901N001010075019N0020001N1+02461+02071102181ADDGF108991051051008001021999MA1999999102131MD1999999-0071REMSYN070AAXX  06184 83498 32595 80902 10246 20207 30213 40218 8552/ 333 59007;
0213834980999992011080700004-17733-039250FM-12+000399999V0209999C000010450019N0020001N1+02181+02131102311ADDAA106002091AY161061AY261061GF108991031071008001021999KA1240M+02491MA1999999102261MD1999999-0141MW1211REMSYN100AAXX  07004 83498 21595 80000 10218 20213 30226 40231 72166 8372/ 333 10249 29092 55/// 59014 60021;
0201834980999992011080712004-17733-039250FM-12+000399999V0200901N001010075019N0020001N1+02461+02231102351ADDAA124002091AY161061AY261061GF106991051051008001011001KA1240N+02101MA1999999102301MD1999999-0151MW1211REMSYN088AAXX  07124 83498 21595 60902 10246 20223 30230 40235 72166 85510 333 20210 59015 60024;
0137834980999992011080718004-17733-039250FM-12+000399999V0200901N002610450019N0020001N1+02581+02271102151ADDGF107991041021008001041001MA1999999102101MD1999999-0031REMSYN070AAXX  07184 83498 32595 70905 10258 20227 30210 40215 84240 333 59003;
0178834980999992011080800004-17733-039250FM-12+000399999V0209999C000012200019N0020001N1+02161+02091102201ADDGA1001+999999999GF100991001001999999001001KA1240M+02691MA1999999102151MD1999999-0111REMSYN082AAXX  08004 83498 32995 00000 10216 20209 30215 40220 333 10269 29090 55/// 59011;
0156834980999992011080812004-17733-039250FM-12+000399999V0200501N001010450019N0020001N1+02411+02171102111ADDGF105991041021008001041001KA1240N+02021MA1999999102061MD1999999-0241REMSYN076AAXX  08124 83498 32595 50502 10241 20217 30206 40211 84240 333 20202 59024;
0137834980999992011080818004-17733-039250FM-12+000399999V0200501N003112200019N0020001N1+02691+01971101851ADDGF102991021011008001001001MA1999999101801MD1999999-0301REMSYN070AAXX  08184 83498 32595 20506 10269 20197 30180 40185 82100 333 59030;
0178834980999992011080900004-17733-039250FM-12+000399999V0200501N000512200019N0020001N1+02061+01941102051ADDGA1001+999999999GF100991001001999999001001KA1240M+02741MA1999999102001MD1999999-0151REMSYN082AAXX  09004 83498 32995 00501 10206 20194 30200 40205 333 10274 29084 55/// 59015;
0156834980999992011080912004-17733-039250FM-12+000399999V0203601N002112200019N0020001N1+02361+02071102011ADDGF102991021011008001001001KA1240N+01821MA1999999101961MD1999999-0101REMSYN076AAXX  09124 83498 32595 23604 10236 20207 30196 40201 82100 333 20182 59010;
0137834980999992011080918004-17733-039250FM-12+000399999V0200501N003612200019N0020001N1+02701+02031101601ADDGF102991011011008001001091MA1999999101551MD1999999-0251REMSYN070AAXX  09184 83498 32595 20507 10270 20203 30155 40160 81109 333 59025;
0168834980999992011081000004-17733-039250FM-12+000399999V0200501N001512200019N0020001N1+02181+02041101761ADDGF101991011011008001001001KA1240M+02801MA1999999101711MD1999999-0291REMSYN088AAXX  10004 83498 32595 10503 10218 20204 30171 40176 81100 333 10280 29084 55/// 59029;
0156834980999992011081012004-17733-039250FM-12+000399999V0203601N005712200019N0020001N1+02461+02011101681ADDGF102991021011008001001001KA1240N+01941MA1999999101631MD1999999-0331REMSYN076AAXX  10124 83498 32595 23611 10246 20201 30163 40168 82100 333 20194 59033;
0137834980999992011081018004-17733-039250FM-12+000399999V0203601N004112200019N0020001N1+02741+02051101371ADDGF101991011011008001001001MA1999999101321MD1999999-0231REMSYN070AAXX  10184 83498 32595 13608 10274 20205 30132 40137 81100 333 59023;
0168834980999992011081100004-17733-039250FM-12+000399999V0209999C000012200019N0020001N1+02141+02021101791ADDGF104991041021008001001001KA1240M+02911MA1999999101741MD1999999-0031REMSYN088AAXX  11004 83498 32595 40000 10214 20202 30174 40179 84200 333 10291 29082 55/// 59003;
0182834980999992011081118004-17733-039250FM-12+000399999V0201401N005110450019N0020001N1+02461+02091101831ADDAA106003091AY161061AY261061GF108991031061008001011999MA1999999101781MD1999999+0461MW1211REMSYN082AAXX  11184 83498 21595 81410 10246 20209 30178 40183 72166 8361/ 333 58046 60031;
0168834980999992011081200004-17733-039250FM-12+000399999V0201401N002110450019N0020001N1+02341+01951102111ADDGF106991031051008001051001KA1240M+02541MA1999999102061MD1999999+0321REMSYN088AAXX  12004 83498 32595 61404 10234 20195 30206 40211 83550 333 10254 29082 55/// 58032;
0173834980999992011081212004-17733-039250FM-12+000399999V0202301N001510075019N0020001N1+02221+01781102141ADDAA124003091GF108991051051008001021999KA1240N+02091MA1999999102091MD1999999+0151REMSYN082AAXX  12124 83498 22595 82303 10222 20178 30209 40214 8552/ 333 20209 58015 60034;
0182834980999992011081218004-17733-039250FM-12+000399999V0200901N002610450019N0020001N1+02361+01711101911ADDAA106000391AY121061AY211061GF107991041051008001011001MA1999999101861MD1999999+0081MW1031REMSYN082AAXX  12184 83498 21595 70905 10236 20171 30186 40191 70321 84510 333 58008 69931;
0178834980999992011081300004-17733-039250FM-12+000399999V0209999C000012200019N0020001N1+01881+01621102071ADDGA1001+999999999GF100991001001999999001001KA1240M+02461MA1999999102021MD1999999-0041REMSYN082AAXX  13004 83498 32995 00000 10188 20162 30202 40207 333 10246 29078 55/// 59004;
0173834980999992011081312004-17733-039250FM-12+000399999V0202701N001012200019N0020001N1+02061+01821102151ADDAA124000391GF102991021011008001001001KA1240N+01561MA1999999102101MD1999999+0011REMSYN082AAXX  13124 83498 22595 22702 10206 20182 30210 40215 82100 333 20156 58001 69934;
0137834980999992011081318004-17733-039250FM-12+000399999V0200901N003112200019N0020001N1+02481+01781101721ADDGF103991031011008001001001MA1999999101671MD1999999-0191REMSYN070AAXX  13184 83498 32595 30906 10248 20178 30167 40172 83100 333 59019;
0168834980999992011081400004-17733-039250FM-12+000399999V0200901N000512200019N0020001N1+01841+01641101891ADDGF101991011011008001001001KA1240M+02561MA1999999101841MD1999999-0181REMSYN088AAXX  14004 83498 32595 10901 10184 20164 30184 40189 81100 333 10256 29082 55/// 59018;
0156834980999992011081412004-17733-039250FM-12+000399999V0200901N001512200019N0020001N1+02201+01821101931ADDGF101991011011008001001001KA1240N+01451MA1999999101881MD1999999-0221REMSYN076AAXX  14124 83498 32595 10903 10220 20182 30188 40193 81100 333 20145 59022;
0137834980999992011081418004-17733-039250FM-12+000399999V0200501N002612200019N0020001N1+02651+01751101641ADDGF101991011011008001001001MA1999999101591MD1999999-0081REMSYN070AAXX  14184 83498 32595 10505 10265 20175 30159 40164 81100 333 59008;
0178834980999992011081500004-17733-039250FM-12+000399999V0209999C000012200019N0020001N1+01861+01781101801ADDGA1001+999999999GF100991001001999999001001KA1240M+02751MA1999999101751MD1999999-0091REMSYN082AAXX  15004 83498 32995 00000 10186 20178 30175 40180 333 10275 29082 55/// 59009;
0156834980999992011081512004-17733-039250FM-12+000399999V0200901N002111050019N0020001N1+02301+01871102201ADDGF106991031011008001001021KA1240N+01711MA1999999102151MD1999999+0271REMSYN076AAXX  15124 83498 32595 60904 10230 20187 30215 40220 83102 333 20171 58027;
0137834980999992011081518004-17733-039250FM-12+000399999V0200901N002610450019N0020001N1+02601+01991101981ADDGF107991021011008001041021MA1999999101931MD1999999+0341REMSYN070AAXX  15184 83498 32595 70905 10260 20199 30193 40198 82142 333 58034;
0168834980999992011081600004-17733-039250FM-12+000399999V0200901N001012200019N0020001N1+02281+01981102131ADDGF103991031011008001001001KA1240M+02691MA1999999102081MD1999999+0331REMSYN088AAXX  16004 83498 32595 30902 10228 20198 30208 40213 83100 333 10269 29078 55/// 58033;
0156834980999992011081612004-17733-039250FM-12+000399999V0200901N003112200019N0020001N1+02511+01701102421ADDGF104991041021008001001001KA1240N+01721MA1999999102371MD1999999+0221REMSYN076AAXX  16124 83498 32595 40906 10251 20170 30237 40242 84200 333 20172 58022;
0137834980999992011081618004-17733-039250FM-12+000399999V0200901N003112200019N0020001N1+02671+01621102081ADDGF102991021011008001001001MA1999999102031MD1999999+0101REMSYN070AAXX  16184 83498 32595 20906 10267 20162 30203 40208 82100 333 58010;
0168834980999992011081700004-17733-039250FM-12+000399999V0200501N000512200019N0020001N1+01981+01681102161ADDGF102991021011008001001001KA1240M+02741MA1999999102111MD1999999+0031REMSYN088AAXX  17004 83498 32595 20501 10198 20168 30211 40216 82100 333 10274 29070 55/// 58003;
0156834980999992011081712004-17733-039250FM-12+000399999V0202301N000510450019N0020001N1+02281+01921102221ADDGF105991021011008001081001KA1240N+01751MA1999999102171MD1999999-0201REMSYN076AAXX  17124 83498 32595 52301 10228 20192 30217 40222 82180 333 20175 59020;
0137834980999992011081718004-17733-039250FM-12+000399999V0200501N001512200019N0020001N1+02701+01861101841ADDGF103991021011008001001011MA1999999101791MD1999999-0241REMSYN070AAXX  17184 83498 32595 30503 10270 20186 30179 40184 82101 333 59024;
0168834980999992011081800004-17733-039250FM-12+000399999V0200901N000512200019N0020001N1+01901+01751101931ADDGF101991011011008001001001KA1240M+02641MA1999999101881MD1999999-0231REMSYN088AAXX  18004 83498 32595 10901 10190 20175 30188 40193 81100 333 10264 29080 55/// 59023;
0156834980999992011081812004-17733-039250FM-12+000399999V0202301N001012200019N0020001N1+02261+01881101891ADDGF102991011011008001001011KA1240N+01471MA1999999101841MD1999999-0331REMSYN076AAXX  18124 83498 32595 22302 10226 20188 30184 40189 81101 333 20147 59033;
0137834980999992011081818004-17733-039250FM-12+000399999V0200501N004112200019N0020001N1+02661+01821101581ADDGF102991011011008001001011MA1999999101531MD1999999-0261REMSYN070AAXX  18184 83498 32595 20508 10266 20182 30153 40158 81101 333 59026;
0178834980999992011081900004-17733-039250FM-12+000399999V0200501N001512200019N0020001N1+02181+01881101771ADDGA1001+999999999GF100991001001999999001001KA1240M+02811MA1999999101721MD1999999-0161REMSYN082AAXX  19004 83498 32995 00503 10218 20188 30172 40177 333 10281 29076 55/// 59016;
0201834980999992011081912004-17733-039250FM-12+000399999V0203601N002610450019N0020001N1+02381+02151101861ADDAA124001091AY161061AY221061GF107991041021008001041001KA1240N+01941MA1999999101811MD1999999-0031MW1211REMSYN088AAXX  19124 83498 21595 73605 10238 20215 30181 40186 72162 84240 333 20194 59003 60014;
0137834980999992011081918004-17733-039250FM-12+000399999V0200501N004112200019N0020001N1+02681+02061101481ADDGF103991021011008001001011MA1999999101431MD1999999-0101REMSYN070AAXX  19184 83498 32595 30508 10268 20206 30143 40148 82101 333 59010;
0168834980999992011082000004-17733-039250FM-12+000399999V0200501N001012200019N0020001N1+02261+02031101761ADDGF101991011011008001001001KA1240M+02831MA1999999101711MD1999999-0011REMSYN088AAXX  20004 83498 32595 10502 10226 20203 30171 40176 81100 333 10283 29082 55/// 59001;
0156834980999992011082012004-17733-039250FM-12+000399999V0203201N001510450019N0020001N1+02421+02111101831ADDGF106991041051008001041001KA1240N+02041MA1999999101781MD1999999-0031REMSYN076AAXX  20124 83498 32595 63203 10242 20211 30178 40183 84540 333 20204 59003;
0137834980999992011082018004-17733-039250FM-12+000399999V0200501N003110450019N0020001N1+02651+01981101551ADDGF105991031061008001011001MA1999999101501MD1999999+0071REMSYN070AAXX  20184 83498 32595 50506 10265 20198 30150 40155 83610 333 58007;
0168834980999992011082100004-17733-039250FM-12+000399999V0200501N002112200019N0020001N1+02301+02071101721ADDGF102991021011008001001001KA1240M+02871MA1999999101671MD1999999-0041REMSYN088AAXX  21004 83498 32595 20504 10230 20207 30167 40172 82100 333 10287 29082 55/// 59004;
0156834980999992011082112004-17733-039250FM-12+000399999V0201801N001510450019N0020001N1+02361+02111102031ADDGF106991031011008001041001KA1240N+01941MA1999999101981MD1999999+0201REMSYN076AAXX  21124 83498 32595 61803 10236 20211 30198 40203 83140 333 20194 58020;
0137834980999992011082118004-17733-039250FM-12+000399999V0200901N002110450019N0020001N1+02701+02221101871ADDGF108991021011008001051011MA1999999101821MD1999999+0321REMSYN070AAXX  21184 83498 32595 80904 10270 20222 30182 40187 82151 333 58032;
0213834980999992011082200004-17733-039250FM-12+000399999V0202301N001510450019N0020001N1+02121+02041102141ADDAA106005191AY161061AY221061GF108991041061008001021999KA1240M+02881MA1999999102091MD1999999+0421MW1621REMSYN100AAXX  22004 83498 21595 82303 10212 20204 30209 40214 76262 8462/ 333 10288 29088 55/// 58042 60051;
0201834980999992011082212004-17733-039250FM-12+000399999V0200901N002610450019N0020001N1+02441+01971102291ADDAA124008991AY121061AY211061GF107991041051008001011001KA1240N+02091MA1999999102241MD1999999+0261MW1031REMSYN088AAXX  22124 83498 21595 70905 10244 20197 30224 40229 70321 84510 333 20209 58026 60094;
0137834980999992011082218004-17733-039250FM-12+000399999V0200901N002612200019N0020001N1+02611+01921102031ADDGF103991031011008001001001MA1999999101981MD1999999+0161REMSYN070AAXX  22184 83498 32595 30905 10261 20192 30198 40203 83100 333 58016;
0168834980999992011082300004-17733-039250FM-12+000399999V0201801N001012200019N0020001N1+02271+02091102181ADDGF104991041051008001001001KA1240M+02681MA1999999102131MD1999999+0041REMSYN088AAXX  23004 83498 32595 41802 10227 20209 30213 40218 84500 333 10268 29080 55/// 58004;
0156834980999992011082312004-17733-039250FM-12+000399999V0202301N001510450019N0020001N1+02201+02031102301ADDGF106991031011008001051001KA1240N+01931MA1999999102251MD1999999+0011REMSYN076AAXX  23124 83498 32595 62303 10220 20203 30225 40230 83150 333 20193 58001;
0137834980999992011082318004-17733-039250FM-12+000399999V0200901N003112200019N0020001N1+02681+02061101991ADDGF104991021011008001041001MA1999999101941MD1999999-0041REMSYN070AAXX  23184 83498 32595 40906 10268 20206 30194 40199 82140 333 59004;
0178834980999992011082400004-17733-039250FM-12+000399999V0209999C000012200019N0020001N1+02141+01991102231ADDGA1001+999999999GF100991001001999999001001KA1240M+02701MA1999999102181MD1999999+0051REMSYN082AAXX  24004 83498 32995 00000 10214 20199 30218 40223 333 10270 29090 55/// 58005;
0156834980999992011082412004-17733-039250FM-12+000399999V0209999C000012200019N0020001N1+02301+02011102311ADDGF103991031021008001001001KA1240N+01921MA1999999102261MD1999999+0011REMSYN076AAXX  24124 83498 32595 30000 10230 20201 30226 40231 83200 333 20192 58001;
0137834980999992011082418004-17733-039250FM-12+000399999V0200501N004112200019N0020001N1+02711+01911101961ADDGF102991021011008001001001MA1999999101911MD1999999-0031REMSYN070AAXX  24184 83498 32595 20508 10271 20191 30191 40196 82100 333 59003;
0178834980999992011082500004-17733-039250FM-12+000399999V0200501N000512200019N0020001N1+02161+01951102211ADDGA1001+999999999GF100991001001999999001001KA1240M+02771MA1999999102161MD1999999-0021REMSYN082AAXX  25004 83498 32595 00501 10216 20195 30216 40221 333 10277 29080 55/// 59002;
0156834980999992011082512004-17733-039250FM-12+000399999V0200901N003110075019N0020001N1+02561+01991102391ADDGF105991051021008001001001KA1240N+02061MA1999999102341MD1999999+0081REMSYN076AAXX  25124 83498 32595 50906 10256 20199 30234 40239 85200 333 20206 58008;
0137834980999992011082518004-17733-039250FM-12+000399999V0200901N003111050019N0020001N1+02721+01931102261ADDGF105991021011008001001021MA1999999102211MD1999999+0301REMSYN070AAXX  25184 83498 32595 50906 10272 20193 30221 40226 82102 333 58030;
0168834980999992011082600004-17733-039250FM-12+000399999V0200901N001512200019N0020001N1+02361+02111102331ADDGF102991021011008001001001KA1240M+02741MA1999999102281MD1999999+0121REMSYN088AAXX  26004 83498 32595 20903 10236 20211 30228 40233 82100 333 10274 29076 55/// 58012;
0156834980999992011082612004-17733-039250FM-12+000399999V0203601N001512200019N0020001N1+02481+01961102291ADDGF104991031011008001001011KA1240N+01941MA1999999102241MD1999999-0101REMSYN076AAXX  26124 83498 32595 43603 10248 20196 30224 40229 83101 333 20194 59010;
0137834980999992011082618004-17733-039250FM-12+000399999V0200501N002612200019N0020001N1+02751+01921101941ADDGF101991011011008001001001MA1999999101891MD1999999-0221REMSYN070AAXX  26184 83498 32595 10505 10275 20192 30189 40194 81100 333 59022;
0178834980999992011082700004-17733-039250FM-12+000399999V0200501N000512200019N0020001N1+02121+01951102171ADDGA1001+999999999GF100991001001999999001001KA1240M+02851MA1999999102121MD1999999-0161REMSYN082AAXX  27004 83498 32995 00501 10212 20195 30212 40217 333 10285 29078 55/// 59016;
0156834980999992011082712004-17733-039250FM-12+000399999V0201801N001011050019N0020001N1+02361+02111102311ADDGF106991031011008001001021KA1240N+01901MA1999999102261MD1999999+0021REMSYN076AAXX  27124 83498 32595 61802 10236 20211 30226 40231 83102 333 20190 58002;
0137834980999992011082718004-17733-039250FM-12+000399999V0200901N002110075019N0020001N1+02661+02071101981ADDGF105991051021008001001001MA1999999101931MD1999999+0041REMSYN070AAXX  27184 83498 32595 50904 10266 20207 30193 40198 85200 333 58004;
0168834980999992011082800004-17733-039250FM-12+000399999V0200901N001012200019N0020001N1+02281+02111102251ADDGF102991021011008001001001KA1240M+02751MA1999999102201MD1999999+0081REMSYN088AAXX  28004 83498 32595 20902 10228 20211 30220 40225 82100 333 10275 29084 55/// 58008;
0156834980999992011082812004-17733-039250FM-12+000399999V0202301N001012200019N0020001N1+02401+02051102401ADDGF103991031011008001001001KA1240N+01921MA1999999102351MD1999999+0091REMSYN076AAXX  28124 83498 32595 32302 10240 20205 30235 40240 83100 333 20192 58009;
0137834980999992011082818004-17733-039250FM-12+000399999V0200901N003112200019N0020001N1+02671+02041102021ADDGF102991021011008001001001MA1999999101971MD1999999+0041REMSYN070AAXX  28184 83498 32595 20906 10267 20204 30197 40202 82100 333 58004;
0178834980999992011082900004-17733-039250FM-12+000399999V0209999C000012200019N0020001N1+02081+01961102131ADDGA1001+999999999GF100991001001999999001001KA1240M+02731MA1999999102081MD1999999-0121REMSYN082AAXX  29004 83498 32995 00000 10208 20196 30208 40213 333 10273 29084 55/// 59012;
0156834980999992011082912004-17733-039250FM-12+000399999V0200501N002610450019N0020001N1+02341+02071102171ADDGF106991041051008001041001KA1240N+01821MA1999999102121MD1999999-0231REMSYN076AAXX  29124 83498 32595 60505 10234 20207 30212 40217 84540 333 20182 59023;
0156834980999992011082918004-17733-039250FM-12+000399999V0203601N003612200019N0020001N1+02721+01951101831ADDGF103991999011008001001001MA1999999101781MD1999999-0191REMSYN070AAXX  29184 83498 32595 33607 10272 20195 30178 40183 82100 333 59019;EQDQ01+000022SCOTLC
0187834980999992011083000004-17733-039250FM-12+000399999V0200501N001512200019N0020001N1+02241+01981102001ADDGF102991999011008001001001KA1240M+02801MA1999999101951MD1999999-0131REMSYN088AAXX  30004 83498 32595 20503 10224 20198 30195 40200 81100 333 10280 29080 55/// 59013;EQDQ01+000012SCOTLC
0156834980999992011083012004-17733-039250FM-12+000399999V0203601N001512200019N0020001N1+02591+02081102101ADDGF104991041021008001001001KA1240N+01851MA1999999102051MD1999999-0071REMSYN076AAXX  30124 83498 32595 43603 10259 20208 30205 40210 84200 333 20185 59007;
0137834980999992011083018004-17733-039250FM-12+000399999V0203601N004112200019N0020001N1+02661+01851101751ADDGF104991041041008001001001MA1999999101701MD1999999-0081REMSYN070AAXX  30184 83498 32595 43608 10266 20185 30170 40175 84400 333 59008;
0168834980999992011083100004-17733-039250FM-12+000399999V0200501N001512200019N0020001N1+02321+02031101951ADDGF101991011011008001001001KA1240M+02821MA1999999101901MD1999999-0051REMSYN088AAXX  31004 83498 32595 10503 10232 20203 30190 40195 81100 333 10282 29076 55/// 59005;
0156834980999992011083112004-17733-039250FM-12+000399999V0203601N003610450019N0020001N1+02541+02171102061ADDGF106991031051008001011001KA1240N+02021MA1999999102011MD1999999-0041REMSYN076AAXX  31124 83498 32595 63607 10254 20217 30201 40206 83510 333 20202 59004;
0137834980999992011083118004-17733-039250FM-12+000399999V0200501N004612200019N0020001N1+02761+02121101751ADDGF103991031011008001001001MA1999999101701MD1999999+0001REMSYN070AAXX  31184 83498 32595 30509 10276 20212 30170 40175 83100 333 58000;
0168834980999992011090100004-17733-039250FM-12+000399999V0200501N000512200019N0020001N1+02241+02191102061ADDGF102991021011008001001001KA1240M+02871MA1999999102011MD1999999+0111REMSYN088AAXX  01004 83498 32595 20501 10224 20219 30201 40206 82100 333 10287 29085 55/// 58011;
0156834980999992011090112004-17733-039250FM-12+000399999V0201801N001010450019N0020001N1+02441+02111102211ADDGF107991031061008001021001KA1240N+01941MA1999999102161MD1999999+0151REMSYN076AAXX  01124 83498 32595 71802 10244 20211 30216 40221 83620 333 20194 58015;
0182834980999992011090118004-17733-039250FM-12+000399999V0201801N005710450019N0020001N1+02161+01931102091ADDAA106014091AY161061AY261061GF108991041071008001021999MA1999999102041MD1999999+0341MW1611REMSYN082AAXX  01184 83498 21595 81811 10216 20193 30204 40209 76166 8472/ 333 58034 60141;
0213834980999992011090200004-17733-039250FM-12+000399999V0201401N005710450019N0020001N1+02291+01771102271ADDAA106002091AY161061AY261061GF108991041071008001021999KA1240M+02451MA1999999102221MD1999999+0211MW1211REMSYN100AAXX  02004 83498 21595 81411 10229 20177 30222 40227 72166 8472/ 333 10245 29079 55/// 58021 60021;
0201834980999992011090212004-17733-039250FM-12+000399999V0201801N005710075019N0020001N1+02281+01961102371ADDAA124018091AY121061AY211061GF107991051051008001011001KA1240N+02051MA1999999102321MD1999999+0161MW1031REMSYN088AAXX  02124 83498 21595 71811 10228 20196 30232 40237 70321 85510 333 20205 58016 60184;
0137834980999992011090218004-17733-039250FM-12+000399999V0201801N005710075019N0020001N1+02221+01841102211ADDGF108991051051008001021999MA1999999102161MD1999999+0121REMSYN070AAXX  02184 83498 32595 81811 10222 20184 30216 40221 8552/ 333 58012;
0168834980999992011090300004-17733-039250FM-12+000399999V0201801N003610075019N0020001N1+02201+01691102421ADDGF108991051061008001021999KA1240M+02371MA1999999102371MD1999999+0151REMSYN088AAXX  03004 83498 32595 81807 10220 20169 30237 40242 8562/ 333 10237 29077 55/// 58015;
0156834980999992011090312004-17733-039250FM-12+000399999V0201801N006710450019N0020001N1+02241+01571102531ADDGF108991041051008001011999KA1240N+01931MA1999999102481MD1999999+0161REMSYN076AAXX  03124 83498 32595 81813 10224 20157 30248 40253 8451/ 333 20193 58016;
0137834980999992011090318004-17733-039250FM-12+000399999V0201801N003610075019N0020001N1+02121+01701102311ADDGF108991051051008001011999MA1999999102261MD1999999+0051REMSYN070AAXX  03184 83498 32595 81807 10212 20170 30226 40231 8551/ 333 58005;
0168834980999992011090400004-17733-039250FM-12+000399999V0201801N007210450019N0020001N1+02041+01741102431ADDGF108991041061008001021999KA1240M+02371MA1999999102381MD1999999+0011REMSYN088AAXX  04004 83498 32595 81814 10204 20174 30238 40243 8462/ 333 10237 29077 55/// 58001;
0156834980999992011090412004-17733-039250FM-12+000399999V0202301N001510450019N0020001N1+01861+01581102521ADDGF108991041051008001021999KA1240N+01621MA1999999102471MD1999999-0011REMSYN076AAXX  04124 83498 32595 82303 10186 20158 30247 40252 8452/ 333 20162 59001;
0137834980999992011090418004-17733-039250FM-12+000399999V0201401N002610450019N0020001N1+02361+01561102171ADDGF106991041051008001011001MA1999999102121MD1999999-0141REMSYN070AAXX  04184 83498 32595 61405 10236 20156 30212 40217 84510 333 59014;
0168834980999992011090500004-17733-039250FM-12+000399999V0201401N001010075019N0020001N1+02191+01741102351ADDGF108991051061008001021999KA1240M+02421MA1999999102301MD1999999-0081REMSYN088AAXX  05004 83498 32595 81402 10219 20174 30230 40235 8562/ 333 10242 29068 55/// 59008;
0156834980999992011090512004-17733-039250FM-12+000399999V0201801N003110450019N0020001N1+02081+01561102381ADDGF106991031051008001031001KA1240N+01571MA1999999102331MD1999999-0141REMSYN076AAXX  05124 83498 32595 61806 10208 20156 30233 40238 83530 333 20157 59014;
0137834980999992011090518004-17733-039250FM-12+000399999V0200901N003612200019N0020001N1+02491+01571101951ADDGF101991011011008001001001MA1999999101901MD1999999-0221REMSYN070AAXX  05184 83498 32595 10907 10249 20157 30190 40195 81100 333 59022;
0178834980999992011090600004-17733-039250FM-12+000399999V0200901N001012200019N0020001N1+01841+01431102091ADDGA1001+999999999GF100991001001999999001001KA1240M+02531MA1999999102041MD1999999-0261REMSYN082AAXX  06004 83498 32995 00902 10184 20143 30204 40209 333 10253 29071 55/// 59026;
0156834980999992011090612004-17733-039250FM-12+000399999V0200501N002612200019N0020001N1+02401+01801102131ADDGF104991041021008001001001KA1240N+01911MA1999999102081MD1999999-0251REMSYN076AAXX  06124 83498 32595 40505 10240 20180 30208 40213 84200 333 20191 59025;
0137834980999992011090618004-17733-039250FM-12+000399999V0200501N003612200019N0020001N1+02641+01691101881ADDGF102991021011008001001001MA1999999101831MD1999999-0071REMSYN070AAXX  06184 83498 32595 20507 10264 20169 30183 40188 82100 333 59007;
0168834980999992011090700004-17733-039250FM-12+000399999V0200501N001512200019N0020001N1+02021+01801102031ADDGF101991011011008001001001KA1240M+02721MA1999999101981MD1999999-0061REMSYN088AAXX  07004 83498 32595 10503 10202 20180 30198 40203 81100 333 10272 29075 55/// 59006;
0156834980999992011090712004-17733-039250FM-12+000399999V0200501N003110450019N0020001N1+02451+01861102051ADDGF105991021031008001021001KA1240N+01671MA1999999102001MD1999999-0081REMSYN076AAXX  07124 83498 32595 50506 10245 20186 30200 40205 82320 333 20167 59008;
0137834980999992011090718004-17733-039250FM-12+000399999V0200501N005712200019N0020001N1+02571+01851101891ADDGF104991021021008001011001MA1999999101841MD1999999+0011REMSYN070AAXX  07184 83498 32595 40511 10257 20185 30184 40189 82210 333 58001;
0168834980999992011090800004-17733-039250FM-12+000399999V0200901N001512200019N0020001N1+02181+01991102141ADDGF104991021011008001031001KA1240M+02761MA1999999102091MD1999999+0111REMSYN088AAXX  08004 83498 32595 40903 10218 20199 30209 40214 82130 333 10276 29079 55/// 58011;
0156834980999992011090812004-17733-039250FM-12+000399999V0203601N001010450019N0020001N1+02361+02011102071ADDGF106991041051008001041001KA1240N+02041MA1999999102021MD1999999+0021REMSYN076AAXX  08124 83498 32595 63602 10236 20201 30202 40207 84540 333 20204 58002;
0137834980999992011090818004-17733-039250FM-12+000399999V0200501N005712200019N0020001N1+02771+01831101691ADDGF103991031011008001001001MA1999999101641MD1999999-0201REMSYN070AAXX  08184 83498 32595 30511 10277 20183 30164 40169 83100 333 59020;
0187834980999992011090900004-17733-039250FM-12+000399999V0200501N002112200019N0020001N1+02271+01861101891ADDGF103991001001999999001091KA1240M+02791MA1999999101841MD1999999-0251REMSYN088AAXX  09004 83498 32595 30504 10227 20186 30184 40189 80009 333 10279 29073 55/// 59025;EQDQ01+008002SCOLCB
0156834980999992011090912004-17733-039250FM-12+000399999V0203601N004110075019N0020001N1+02481+02051101891ADDGF105991051021008001001001KA1240N+01851MA1999999101841MD1999999-0181REMSYN076AAXX  09124 83498 32595 53608 10248 20205 30184 40189 85200 333 20185 59018;
0137834980999992011090918004-17733-039250FM-12+000399999V0200501N005110450019N0020001N1+02801+01921101511ADDGF106991021011008001031011MA1999999101461MD1999999+0181REMSYN070AAXX  09184 83498 32595 60510 10280 20192 30146 40151 82131 333 58018;
0168834980999992011091000004-17733-039250FM-12+000399999V0200501N002112200019N0020001N1+02261+02051101631ADDGF102991021011008001001001KA1240M+02781MA1999999101581MD1999999-0261REMSYN088AAXX  10004 83498 32595 20504 10226 20205 30158 40163 82100 333 10278 29078 55/// 59026;
0156834980999992011091012004-17733-039250FM-12+000399999V0203601N005112200019N0020001N1+02631+01831101901ADDGF101991011011008001001061KA1240N+01861MA1999999101851MD1999999+0011REMSYN076AAXX  10124 83498 32595 13610 10263 20183 30185 40190 81106 333 20186 58001;
0156834980999992011091018004-17733-039250FM-12+000399999V0200501N004612200019N0020001N1+02801+01901101591ADDGF102991001001999999001091MA1999999101541MD1999999+0081REMSYN070AAXX  10184 83498 32595 20509 10280 20190 30154 40159 80009 333 58008;EQDQ01+008002SCOLCB
0178834980999992011091100004-17733-039250FM-12+000399999V0200501N001012200019N0020001N1+02351+02031101981ADDGA1001+999999999GF100991001001999999001001KA1240M+02881MA1999999101931MD1999999+0351REMSYN082AAXX  11004 83498 32995 00502 10235 20203 30193 40198 333 10288 29072 55/// 58035;
0156834980999992011091112004-17733-039250FM-12+000399999V0203601N003112200019N0020001N1+02531+01981102091ADDGF104991041021008001001001KA1240N+02071MA1999999102041MD1999999+0191REMSYN076AAXX  11124 83498 32595 43606 10253 20198 30204 40209 84200 333 20207 58019;
0156834980999992011091118004-17733-039250FM-12+000399999V0200501N005712200019N0020001N1+02711+02131101721ADDGF102991001001999999001091MA1999999101671MD1999999+0131REMSYN070AAXX  11184 83498 32595 20511 10271 20213 30167 40172 80009 333 58013;EQDQ01+008002SCOLCB
0168834980999992011091200004-17733-039250FM-12+000399999V0200501N003112200019N0020001N1+02401+02111102051ADDGF104991041021008001001001KA1240M+02891MA1999999102001MD1999999+0071REMSYN088AAXX  12004 83498 32595 40506 10240 20211 30200 40205 84200 333 10289 29078 55/// 58007;
0156834980999992011091212004-17733-039250FM-12+000399999V0200501N004110075019N0020001N1+02581+01971102191ADDGF105991051021008001001001KA1240N+01931MA1999999102141MD1999999+0101REMSYN076AAXX  12124 83498 32595 50508 10258 20197 30214 40219 85200 333 20193 58010;
0137834980999992011091218004-17733-039250FM-12+000399999V0200901N003612200019N0020001N1+02681+01991101981ADDGF102991021011008001001001MA1999999101931MD1999999+0261REMSYN070AAXX  12184 83498 32595 20907 10268 20199 30193 40198 82100 333 58026;
0178834980999992011091300004-17733-039250FM-12+000399999V0209999C000012200019N0020001N1+02201+01991102201ADDGA1001+999999999GF100991001001999999001001KA1240M+02811MA1999999102151MD1999999+0151REMSYN082AAXX  13004 83498 32995 00000 10220 20199 30215 40220 333 10281 29073 55/// 58015;
0201834980999992011091312004-17733-039250FM-12+000399999V0201801N001512200019N0020001N1+02291+02051102261ADDAA124001091AY161061AY261061GF103991031021008001001001KA1240N+01921MA1999999102211MD1999999+0071MW1211REMSYN088AAXX  13124 83498 21595 31803 10229 20205 30221 40226 72166 83200 333 20192 58007 60014;
0137834980999992011091318004-17733-039250FM-12+000399999V0200901N004112200019N0020001N1+02631+01831101881ADDGF101991011011008001001001MA1999999101831MD1999999-0101REMSYN070AAXX  13184 83498 32595 10908 10263 20183 30183 40188 81100 333 59010;
0178834980999992011091400004-17733-039250FM-12+000399999V0200901N001012200019N0020001N1+02081+01821102041ADDGA1001+999999999GF100991001001999999001001KA1240M+02711MA1999999101991MD1999999-0161REMSYN082AAXX  14004 83498 32595 00902 10208 20182 30199 40204 333 10271 29080 55/// 59016;
0156834980999992011091412004-17733-039250FM-12+000399999V0201801N001010450019N0020001N1+02361+02051102221ADDGF107991041051008001041001KA1240N+01821MA1999999102171MD1999999-0041REMSYN076AAXX  14124 83498 32595 71802 10236 20205 30217 40222 84540 333 20182 59004;
0137834980999992011091418004-17733-039250FM-12+000399999V0200901N003611050019N0020001N1+02631+01911102061ADDGF106991041021008001001021MA1999999102011MD1999999+0181REMSYN070AAXX  14184 83498 32595 60907 10263 20191 30201 40206 84202 333 58018;
0168834980999992011091500004-17733-039250FM-12+000399999V0200901N001512200019N0020001N1+02261+01981102251ADDGF102991021011008001001001KA1240M+02801MA1999999102201MD1999999+0211REMSYN088AAXX  15004 83498 32595 20903 10226 20198 30220 40225 82100 333 10280 29079 55/// 58021;
0201834980999992011091512004-17733-039250FM-12+000399999V0201401N001510450019N0020001N1+02481+02171102401ADDAA124000591AY161061AY221061GF106991041021008001031001KA1240N+02071MA1999999102351MD1999999+0181MW1601REMSYN088AAXX  15124 83498 21595 61403 10248 20217 30235 40240 76062 84230 333 20207 58018 69944;
0182834980999992011091518004-17733-039250FM-12+000399999V0200901N002610450019N0020001N1+02361+01801102251ADDAA106007191AY161061AY261061GF108991041061008001011999MA1999999102201MD1999999+0191MW1611REMSYN082AAXX  15184 83498 21595 80905 10236 20180 30220 40225 76166 8461/ 333 58019 60071;
0213834980999992011091600004-17733-039250FM-12+000399999V0200901N003110450019N0020001N1+02381+02091102411ADDAA106000021AY161061AY261061GF105991021051008001031001KA1240M+02701MA1999999102361MD1999999+0161MW1211REMSYN100AAXX  16004 83498 21595 50906 10238 20209 30236 40241 72166 82530 333 10270 29085 55/// 58016 69921;
0173834980999992011091612004-17733-039250FM-12+000399999V0201401N004110450019N0020001N1+02421+01741102541ADDAA124007191GF105991021021008001011001KA1240N+02311MA1999999102491MD1999999+0161REMSYN082AAXX  16124 83498 22595 51408 10242 20174 30249 40254 82210 333 20231 58016 60074;
0137834980999992011091618004-17733-039250FM-12+000399999V0201401N004112200019N0020001N1+02391+01531102321ADDGF103991031021008001011001MA1999999102271MD1999999+0071REMSYN070AAXX  16184 83498 32595 31408 10239 20153 30227 40232 83210 333 58007;
0178834980999992011091700004-17733-039250FM-12+000399999V0200901N003612200019N0020001N1+02251+01531102541ADDGA1001+999999999GF100991001001999999001001KA1240M+02551MA1999999102491MD1999999+0131REMSYN082AAXX  17004 83498 32995 00907 10225 20153 30249 40254 333 10255 29064 55/// 58013;
0156834980999992011091712004-17733-039250FM-12+000399999V0200901N005110450019N0020001N1+02361+01661102581ADDGF107991041051008001011001KA1240N+02371MA1999999102531MD1999999+0041REMSYN076AAXX  17124 83498 32595 70910 10236 20166 30253 40258 84510 333 20237 58004;
0137834980999992011091718004-17733-039250FM-12+000399999V0200901N004112200019N0020001N1+02441+01741102321ADDGF104991021051008001041001MA1999999102271MD1999999+0001REMSYN070AAXX  17184 83498 32595 40908 10244 20174 30227 40232 82540 333 58000;
0168834980999992011091800004-17733-039250FM-12+000399999V0201801N002610075019N0020001N1+02121+01701102481ADDGF108991051061008001021999KA1240M+02511MA1999999102431MD1999999-0061REMSYN088AAXX  18004 83498 32595 81805 10212 20170 30243 40248 8562/ 333 10251 29071 55/// 59006;
0156834980999992011091812004-17733-039250FM-12+000399999V0201401N003610450019N0020001N1+02181+01801102581ADDGF108991041051008001011999KA1240N+02001MA1999999102531MD1999999+0001REMSYN076AAXX  18124 83498 32595 81407 10218 20180 30253 40258 8451/ 333 20200 58000;
0182834980999992011091818004-17733-039250FM-12+000399999V0200901N004110450019N0020001N1+02401+01801102301ADDAA106002091AY161061AY221061GF108991031051008001011999MA1999999102251MD1999999-0021MW1211REMSYN082AAXX  18184 83498 21595 80908 10240 20180 30225 40230 72162 8351/ 333 59002 60021;
0168834980999992011091900004-17733-039250FM-12+000399999V0200901N004110450019N0020001N1+02181+01821102491ADDGF106991031051008001011001KA1240M+02951MA1999999102441MD1999999+0011REMSYN088AAXX  19004 83498 32595 60908 10218 20182 30244 40249 83510 333 10295 29077 55/// 58001;
0201834980999992011091912004-17733-039250FM-12+000399999V0200901N003110450019N0020001N1+02281+01351102511ADDAA124003091AY161061AY261061GF106991031051008001021001KA1240N+01941MA1999999102461MD1999999-0071MW1611REMSYN088AAXX  19124 83498 21595 60906 10228 20135 30246 40251 76166 83520 333 20194 59007 60034;
0137834980999992011091918004-17733-039250FM-12+000399999V0200901N003110450019N0020001N1+02351+01381102221ADDGF106991031041008001011001MA1999999102171MD1999999+0211REMSYN070AAXX  19184 83498 32595 60906 10235 20138 30217 40222 83410 333 58021;
0168834980999992011092000004-17733-039250FM-12+000399999V0200901N001512200019N0020001N1+02121+01461102321ADDGF101991011011008001001001KA1240M+02501MA1999999102271MD1999999-0171REMSYN088AAXX  20004 83498 32595 10903 10212 20146 30227 40232 81100 333 10250 29062 55/// 59017;
0156834980999992011092012004-17733-039250FM-12+000399999V0200901N003112200019N0020001N1+02331+01531102271ADDGF103991031021008001001001KA1240N+01921MA1999999102221MD1999999-0241REMSYN076AAXX  20124 83498 32595 30906 10233 20153 30222 40227 83200 333 20192 59024;
0137834980999992011092018004-17733-039250FM-12+000399999V0200901N003612200019N0020001N1+02441+01661101971ADDGF103991031011008001001001MA1999999101921MD1999999-0251REMSYN070AAXX  20184 83498 32595 30907 10244 20166 30192 40197 83100 333 59025;
0178834980999992011092100004-17733-039250FM-12+000399999V0209999C000012200019N0020001N1+01961+01631102171ADDGA1001+999999999GF100991001001999999001001KA1240M+02471MA1999999102121MD1999999-0151REMSYN082AAXX  21004 83498 32995 00000 10196 20163 30212 40217 333 10247 29071 55/// 59015;
0201834980999992011092112004-17733-039250FM-12+000399999V0203601N001010075019N0020001N1+02201+01881102001ADDAA124001091AY161061AY221061GF105991051021008001001001KA1240N+01801MA1999999102201MD1999999-0221MW1211REMSYN088AAXX  21124 83498 21595 53602 10220 20188 30220 40200 72162 85200 333 20180 59022 60014;
0137834980999992011092118004-17733-039250FM-12+000399999V0200501N004112200019N0020001N1+02541+02001101641ADDGF103991031011008001001001MA1999999101591MD1999999-0331REMSYN070AAXX  21184 83498 32595 30508 10254 20200 30159 40164 83100 333 59033;
0168834980999992011092200004-17733-039250FM-12+000399999V0200501N001512200019N0020001N1+02181+01951101911ADDGF102991021011008001001001KA1240M+02611MA1999999101861MD1999999-0261REMSYN088AAXX  22004 83498 32595 20503 10218 20195 30186 40191 82100 333 10261 29082 55/// 59026;
0137834980999992011092218004-17733-039250FM-12+000399999V0200901N003112200019N0020001N1+02741+01841101751ADDGF101991011011008001001001MA1999999101701MD1999999+0111REMSYN070AAXX  22184 83498 32595 10906 10274 20184 30170 40175 81100 333 58011;
0178834980999992011092300004-17733-039250FM-12+000399999V0200901N001512200019N0020001N1+02041+01891102031ADDGA1001+999999999GF100991001001999999001001KA1240M+02831MA1999999101981MD1999999+0121REMSYN082AAXX  23004 83498 32995 00903 10204 20189 30198 40203 333 10283 29081 55/// 58012;
0156834980999992011092312004-17733-039250FM-12+000399999V0200901N003112200019N0020001N1+02591+01581102201ADDGF103991031011008001001001KA1240N+01821MA1999999102151MD1999999+0111REMSYN076AAXX  23124 83498 32595 30906 10259 20158 30215 40220 83100 333 20182 58011;
0137834980999992011092318004-17733-039250FM-12+000399999V0200901N003112200019N0020001N1+02631+01671101731ADDGF104991021011008001001011MA1999999101681MD1999999-0021REMSYN070AAXX  23184 83498 32595 40906 10263 20167 30168 40173 82101 333 59002;
0178834980999992011092400004-17733-039250FM-12+000399999V0200501N001512200019N0020001N1+01991+01661101931ADDGA1001+999999999GF100991001001999999001001KA1240M+02691MA1999999101881MD1999999-0101REMSYN082AAXX  24004 83498 32995 00503 10199 20166 30188 40193 333 10269 29073 55/// 59010;
0156834980999992011092412004-17733-039250FM-12+000399999V0203601N003110075019N0020001N1+02481+01961101831ADDGF105991051021008001001001KA1240N+02171MA1999999101781MD1999999-0371REMSYN076AAXX  24124 83498 32595 53606 10248 20196 30178 40183 85200 333 20217 59037;
0137834980999992011092418004-17733-039250FM-12+000399999V0203601N006712200019N0020001N1+02741+02121101411ADDGF104991021011008001001011MA1999999101361MD1999999-0371REMSYN070AAXX  24184 83498 32595 43613 10274 20212 30136 40141 82101 333 59037;
0168834980999992011092500004-17733-039250FM-12+000399999V0203601N003612200019N0020001N1+02401+02171101761ADDGF102991021011008001001001KA1240M+02871MA1999999101711MD1999999-0171REMSYN088AAXX  25004 83498 32595 23607 10240 20217 30171 40176 82100 333 10287 29076 55/// 59017;
0201834980999992011092512004-17733-039250FM-12+000399999V0201801N005110450019N0020001N1+02491+02051102231ADDAA124000591AY161061AY261061GF107991031051008001021001KA1240N+02311MA1999999102181MD1999999+0401MW1601REMSYN088AAXX  25124 83498 21595 71810 10249 20205 30218 40223 76066 83520 333 20231 58040 69964;
0137834980999992011092518004-17733-039250FM-12+000399999V0201401N005110450019N0020001N1+02341+01871102131ADDGF108991041061008001031001MA1999999102081MD1999999+0771REMSYN070AAXX  25184 83498 32595 81410 10234 20187 30208 40213 84630 333 58077;
0213834980999992011092600004-17733-039250FM-12+000399999V0201401N003110450019N0020001N1+02301+01791102331ADDAA106000391AY161061AY261061GF108991041071008001021999KA1240M+02491MA1999999102281MD1999999+0571MW1601REMSYN100AAXX  26004 83498 21595 81406 10230 20179 30228 40233 76066 8472/ 333 10249 29075 55/// 58057 69931;
0201834980999992011092612004-17733-039250FM-12+000399999V0201801N005110075019N0020001N1+02261+01771102571ADDAA124000591AY121061AY211061GF108991051051008001021999KA1240N+02141MA1999999102521MD1999999+0341MW1031REMSYN088AAXX  26124 83498 21595 81810 10226 20177 30252 40257 70321 8552/ 333 20214 58034 69964;
0137834980999992011092618004-17733-039250FM-12+000399999V0201801N003612200019N0020001N1+02401+01601102291ADDGF102991021011008001001001MA1999999102241MD1999999+0161REMSYN070AAXX  26184 83498 32595 21807 10240 20160 30224 40229 82100 333 58016;
0168834980999992011092700004-17733-039250FM-12+000399999V0201401N001510075019N0020001N1+02181+01801102471ADDGF108991051051008001021999KA1240M+02431MA1999999102421MD1999999+0141REMSYN088AAXX  27004 83498 32595 81403 10218 20180 30242 40247 8552/ 333 10243 29073 55/// 58014;
0156834980999992011092712004-17733-039250FM-12+000399999V0202701N002110450019N0020001N1+02161+01931102331ADDGF108991041051008001011999KA1240N+01901MA1999999102281MD1999999-0241REMSYN076AAXX  27124 83498 32595 82704 10216 20193 30228 40233 8451/ 333 20190 59024;
0137834980999992011092718004-17733-039250FM-12+000399999V0200901N003610075019N0020001N1+02441+02091102061ADDGF105991051021008001001001MA1999999102011MD1999999-0231REMSYN070AAXX  27184 83498 32595 50907 10244 20209 30201 40206 85200 333 59023;
0168834980999992011092800004-17733-039250FM-12+000399999V0200901N001510450019N0020001N1+02281+02011102271ADDGF108991041061008001021999KA1240M+02561MA1999999102221MD1999999-0201REMSYN088AAXX  28004 83498 32595 80903 10228 20201 30222 40227 8462/ 333 10256 29084 55/// 59020;
0201834980999992011092812004-17733-039250FM-12+000399999V0201801N000510450019N0020001N1+02331+02111102161ADDAA124000591AY161061AY221061GF107991031061008001021001KA1240N+02201MA1999999102111MD1999999-0171MW1601REMSYN088AAXX  28124 83498 21595 71801 10233 20211 30211 40216 76062 83620 333 20220 59017 69964;
0137834980999992011092818004-17733-039250FM-12+000399999V0200901N003110450019N0020001N1+02591+02121101821ADDGF106991031041008001031001MA1999999101771MD1999999-0241REMSYN070AAXX  28184 83498 32595 60906 10259 20212 30177 40182 83430 333 59024;
0168834980999992011092900004-17733-039250FM-12+000399999V0209999C000012200019N0020001N1+02251+02051102041ADDGF101991011011008001001001KA1240M+02631MA1999999101991MD1999999-0231REMSYN088AAXX  29004 83498 32595 10000 10225 20205 30199 40204 81100 333 10263 29086 55/// 59023;
0156834980999992011092912004-17733-039250FM-12+000399999V0200901N004610450019N0020001N1+02651+02071102141ADDGF105991031021008001021001KA1240N+02021MA1999999102091MD1999999-0021REMSYN076AAXX  29124 83498 32595 50909 10265 20207 30209 40214 83220 333 20202 59002;
0137834980999992011092918004-17733-039250FM-12+000399999V0200501N004112200019N0020001N1+02631+02031101841ADDGF105991031021008001001011MA1999999101791MD1999999+0021REMSYN070AAXX  29184 83498 32595 50508 10263 20203 30179 40184 83201 333 58002;
0178834980999992011093000004-17733-039250FM-12+000399999V0200901N001512200019N0020001N1+02281+02011102071ADDGA1001+999999999GF100991001001999999001001KA1240M+02761MA1999999102021MD1999999+0031REMSYN082AAXX  30004 83498 32995 00903 10228 20201 30202 40207 333 10276 29078 55/// 58003;
0156834980999992011093012004-17733-039250FM-12+000399999V0200901N002110450019N0020001N1+02561+02081102091ADDGF108991021011008001051999KA1240N+02101MA1999999102041MD1999999-0051REMSYN076AAXX  30124 83498 32595 80904 10256 20208 30204 40209 8215/ 333 20210 59005;
0137834980999992011093018004-17733-039250FM-12+000399999V0200501N003110450019N0020001N1+02681+02091101631ADDGF105991031011008001041001MA1999999101581MD1999999-0211REMSYN070AAXX  30184 83498 32595 50506 10268 20209 30158 40163 83140 333 59021;
0168834980999992011100100004-17733-039250FM-12+000399999V0200501N001012200019N0020001N1+02281+02111101771ADDGF102991021011008001001001KA1240M+02781MA1999999101721MD1999999-0301REMSYN088AAXX  01004 83498 32595 20502 10228 20211 30172 40177 82100 333 10278 29082 55/// 59030;
0156834980999992011100112004-17733-039250FM-12+000399999V0203601N005712200019N0020001N1+02611+01821101841ADDGF102991021021008001011001KA1240N+01871MA1999999101791MD1999999-0251REMSYN076AAXX  01124 83498 32595 23611 10261 20182 30179 40184 82210 333 20187 59025;
0137834980999992011100118004-17733-039250FM-12+000399999V0200501N005712200019N0020001N1+02691+01641101551ADDGF104991021051008001001011MA1999999101501MD1999999-0081REMSYN070AAXX  01184 83498 32595 40511 10269 20164 30150 40155 82501 333 59008;
0168834980999992011100200004-17733-039250FM-12+000399999V0200501N001012200019N0020001N1+02281+01941101711ADDGF101991011011008001001001KA1240M+02841MA1999999101661MD1999999-0061REMSYN088AAXX  02004 83498 32595 10502 10228 20194 30166 40171 81100 333 10284 29070 55/// 59006;
0156834980999992011100212004-17733-039250FM-12+000399999V0203601N005110450019N0020001N1+02631+02121101671ADDGF106991041051008001041001KA1240N+02161MA1999999101621MD1999999-0171REMSYN076AAXX  02124 83498 32595 63610 10263 20212 30162 40167 84540 333 20216 59017;
0137834980999992011100218004-17733-039250FM-12+000399999V0203601N005712200019N0020001N1+02731+02001101281ADDGF103991031011008001001001MA1999999101231MD1999999-0271REMSYN070AAXX  02184 83498 32595 33611 10273 20200 30123 40128 83100 333 59027;
0168834980999992011100300004-17733-039250FM-12+000399999V0200501N004112200019N0020001N1+02401+02111101451ADDGF102991021011008001001001KA1240M+02891MA1999999101401MD1999999-0261REMSYN088AAXX  03004 83498 32595 20508 10240 20211 30140 40145 82100 333 10289 29077 55/// 59026;
0156834980999992011100312004-17733-039250FM-12+000399999V0203601N006710075019N0020001N1+02581+02211101601ADDGF106991061021008001001001KA1240N+02201MA1999999101551MD1999999-0071REMSYN076AAXX  03124 83498 32595 63613 10258 20221 30155 40160 86200 333 20220 59007;
0137834980999992011100318004-17733-039250FM-12+000399999V0200501N004610450019N0020001N1+02761+02301101341ADDGF106991021011008001041011MA1999999101291MD1999999+0061REMSYN070AAXX  03184 83498 32595 60509 10276 20230 30129 40134 82141 333 58006;
0168834980999992011100400004-17733-039250FM-12+000399999V0203601N003110450019N0020001N1+02481+02321101651ADDGF108991031011008001051011KA1240M+02821MA1999999101601MD1999999+0201REMSYN088AAXX  04004 83498 32595 83606 10248 20232 30160 40165 83151 333 10282 29084 55/// 58020;
0220834980999992011100412004-17733-039250FM-12+000399999V0202701N001010450019N0020001N1+02371+02281101951ADDAA124005191AY161061AY221061GF108991041061008001021999KA1240N+99999MA1999999101901MD1999999+0351MW1601REMSYN088AAXX  04124 83498 21595 82702 10237 20228 30190 40195 76062 8462/ 333 20245 58035 60054;EQDQ01 +02452ATMN  
0182834980999992011100418004-17733-039250FM-12+000399999V0201801N001510450019N0020001N1+02251+02191101891ADDAA106007991AY161061AY221061GF108991041061008001021999MA1999999101841MD1999999+0151MW1211REMSYN082AAXX  04184 83498 21595 81803 10225 20219 30184 40189 72162 8462/ 333 58015 60081;
0213834980999992011100500004-17733-039250FM-12+000399999V0209999C000010450019N0020001N1+02231+02171102141ADDAA106002091AY161061AY261061GF108991041071008001021999KA1240M+02551MA1999999102091MD1999999+0491MW1211REMSYN100AAXX  05004 83498 21595 80000 10223 20217 30209 40214 72166 8472/ 333 10255 29/// 55097 58049 60021;
0201834980999992011100512004-17733-039250FM-12+000399999V0200901N002110450019N0020001N1+02551+02231102131ADDAA124016091AY121061AY211061GF107991041051008001011001KA1240N+02201MA1999999102081MD1999999+0181MW1031REMSYN088AAXX  05124 83498 21595 70904 10255 20223 30208 40213 70321 84510 333 20220 58018 60164;
0137834980999992011100518004-17733-039250FM-12+000399999V0200901N004110450019N0020001N1+02541+02071101881ADDGF106991021021008001031001MA1999999101831MD1999999-0011REMSYN070AAXX  05184 83498 32595 60908 10254 20207 30183 40188 82230 333 59001;
0168834980999992011100600004-17733-039250FM-12+000399999V0200901N001510075019N0020001N1+02381+02131102031ADDGF108991051051008001051021KA1240M+02751MA1999999101981MD1999999-0111REMSYN088AAXX  06004 83498 32595 80903 10238 20213 30198 40203 85552 333 10275 29081 55/// 59011;
0156834980999992011100612004-17733-039250FM-12+000399999V0200901N002110075019N0020001N1+02581+02211102061ADDGF105991051021008001001001KA1240N+02001MA1999999102011MD1999999-0071REMSYN076AAXX  06124 83498 32595 50904 10258 20221 30201 40206 85200 333 20200 59007;
0137834980999992011100618004-17733-039250FM-12+000399999V0200901N003110450019N0020001N1+02661+02201101831ADDGF106991031011008001041001MA1999999101781MD1999999-0051REMSYN070AAXX  06184 83498 32595 60906 10266 20220 30178 40183 83140 333 59005;
0168834980999992011100700004-17733-039250FM-12+000399999V0200901N001510450019N0020001N1+02381+02211102001ADDGF106991021011008001051001KA1240M+02801MA1999999101951MD1999999-0031REMSYN088AAXX  07004 83498 32595 60903 10238 20221 30195 40200 82150 333 10280 29084 55/// 59003;
0201834980999992011100712004-17733-039250FM-12+000399999V0200901N004610450019N0020001N1+02611+02081102051ADDAA124000391AY121061AY211061GF106991031021008001031001KA1240N+02201MA1999999102001MD1999999-0011MW1031REMSYN088AAXX  07124 83498 21595 60909 10261 20208 30200 40205 70321 83230 333 20220 59001 69934;
0137834980999992011100718004-17733-039250FM-12+000399999V0200901N002612200019N0020001N1+02681+02091101841ADDGF104991021011008001031001MA1999999101791MD1999999+0011REMSYN070AAXX  07184 83498 32595 40905 10268 20209 30179 40184 82130 333 58001;
0168834980999992011100800004-17733-039250FM-12+000399999V0200901N003112200019N0020001N1+02371+02091101931ADDGF102991021011008001031001KA1240M+02841MA1999999101881MD1999999-0071REMSYN088AAXX  08004 83498 32595 20906 10237 20209 30188 40193 82130 333 10284 29/// 55079 59007;
0156834980999992011100812004-17733-039250FM-12+000399999V0200901N004610450019N0020001N1+02591+02011102001ADDGF105991031021008001021001KA1240N+02331MA1999999101951MD1999999-0051REMSYN076AAXX  08124 83498 32595 50909 10259 20201 30195 40200 83220 333 20233 59005;
0137834980999992011100818004-17733-039250FM-12+000399999V0200901N003112200019N0020001N1+02651+02031101671ADDGF103991031011008001001001MA1999999101621MD1999999-0171REMSYN070AAXX  08184 83498 32595 30906 10265 20203 30162 40167 83100 333 59017;
0156834980999992011100912004-17733-039250FM-12+000399999V0200501N003610075019N0020001N1+02581+02101101781ADDGF106991061021008001001001KA1240N+02101MA1999999101731MD1999999-0221REMSYN076AAXX  09124 83498 32595 60507 10258 20210 30173 40178 86200 333 20210 59022;
0137834980999992011100918004-17733-039250FM-12+000399999V0200501N003112200019N0020001N1+02761+02041101341ADDGF103991031011008001001001MA1999999101291MD1999999-0331REMSYN070AAXX  09184 83498 32595 30506 10276 20204 30129 40134 83100 333 59033;
0201834980999992011101012004-17733-039250FM-12+000399999V0200501N001510450019N0020001N1+02391+02171101591ADDAA124007191AY121061AY211061GF107991031061008001021001KA1240N+02131MA1999999101541MD1999999-0191MW1031REMSYN088AAXX  10124 83498 21595 70503 10239 20217 30154 40159 70321 83620 333 20213 59019 60074;
0137834980999992011101018004-17733-039250FM-12+000399999V0200501N004110450019N0020001N1+02701+01971101251ADDGF105991031041008001021001MA1999999101201MD1999999-0091REMSYN070AAXX  10184 83498 32595 50508 10270 20197 30120 40125 83420 333 59009;
0168834980999992011101100004-17733-039250FM-12+000399999V0200501N001012200019N0020001N1+02441+02151101521ADDGF102991021021008001001001KA1240M+02871MA1999999101471MD1999999-0111REMSYN088AAXX  11004 83498 32595 20502 10244 20215 30147 40152 82200 333 10287 29084 55/// 59011;
0156834980999992011101112004-17733-039250FM-12+000399999V0200501N003610450019N0020001N1+02761+02211101561ADDGF106991041021008001021001KA1240N+02361MA1999999101511MD1999999-0031REMSYN076AAXX  11124 83498 32595 60507 10276 20221 30151 40156 84220 333 20236 59003;
0137834980999992011101118004-17733-039250FM-12+000399999V0200501N003110450019N0020001N1+02611+02191101291ADDGF107991041051008001011001MA1999999101241MD1999999+0041REMSYN070AAXX  11184 83498 32595 70506 10261 20219 30124 40129 84510 333 58004;
0168834980999992011101200004-17733-039250FM-12+000399999V0200501N002612200019N0020001N1+02481+02191101511ADDGF104991041001008001031001KA1240M+02891MA1999999101461MD1999999-0011REMSYN088AAXX  12004 83498 32595 40505 10248 20219 30146 40151 84030 333 10289 29079 55/// 59001;
0156834980999992011101212004-17733-039250FM-12+000399999V0200501N004112200019N0020001N1+02661+02311101681ADDGF106991021011008001001011KA1240N+02341MA1999999101631MD1999999+0121REMSYN076AAXX  12124 83498 32595 60508 10266 20231 30163 40168 82101 333 20234 58012;
0137834980999992011101218004-17733-039250FM-12+000399999V0200501N005110450019N0020001N1+02721+02301101421ADDGF107991031081008001041001MA1999999101371MD1999999+0181REMSYN070AAXX  12184 83498 32595 70510 10272 20230 30137 40142 83840 333 58018;
0168834980999992011101300004-17733-039250FM-12+000399999V0200501N003610450019N0020001N1+02481+02231101531ADDGF107991041051008001041001KA1240M+02811MA1999999101481MD1999999+0021REMSYN088AAXX  13004 83498 32595 70507 10248 20223 30148 40153 84540 333 10281 29083 55/// 58002;
0156834980999992011101312004-17733-039250FM-12+000399999V0200901N005112200019N0020001N1+02711+02081101671ADDGF104991021021008001031001KA1240N+02331MA1999999101621MD1999999-0011REMSYN076AAXX  13124 83498 32595 40910 10271 20208 30162 40167 82230 333 20233 59001;
0137834980999992011101318004-17733-039250FM-12+000399999V0200501N004612200019N0020001N1+02741+02001101331ADDGF102991021021008001001011MA1999999101281MD1999999-0091REMSYN070AAXX  13184 83498 32595 20509 10274 20200 30128 40133 82201 333 59009;
0168834980999992011101400004-17733-039250FM-12+000399999V0200901N000512200019N0020001N1+02411+02091101511ADDGF102991021021008001031001KA1240M+02891MA1999999101461MD1999999-0021REMSYN088AAXX  14004 83498 32595 20901 10241 20209 30146 40151 82230 333 10289 29075 55/// 59002;
0156834980999992011101412004-17733-039250FM-12+000399999V0203601N003110450019N0020001N1+02631+02101101461ADDGF107991041051008001051001KA1240N+02311MA1999999101411MD1999999-0211REMSYN076AAXX  14124 83498 32595 73606 10263 20210 30141 40146 84550 333 20231 59021;
0137834980999992011101418004-17733-039250FM-12+000399999V0200501N005110450019N0020001N1+02731+02051101131ADDGF105991011011008001031001MA1999999101081MD1999999-0201REMSYN070AAXX  14184 83498 32595 50510 10273 20205 30108 40113 81130 333 59020;
0168834980999992011101500004-17733-039250FM-12+000399999V0200501N003110075019N0020001N1+02481+02151101331ADDGF107991051051008001051001KA1240M+02871MA1999999101281MD1999999-0181REMSYN088AAXX  15004 83498 32595 70506 10248 20215 30128 40133 85550 333 10287 29076 55/// 59018;
0156834980999992011101512004-17733-039250FM-12+000399999V0203601N004610450019N0020001N1+02601+02271101351ADDGF107991031011008001051001KA1240N+02351MA1999999101301MD1999999-0111REMSYN076AAXX  15124 83498 32595 73609 10260 20227 30130 40135 83150 333 20235 59011;
0137834980999992011101518004-17733-039250FM-12+000399999V0203601N006710450019N0020001N1+02761+02281100901ADDGF106991021011008001051001MA1999999100851MD1999999-0231REMSYN070AAXX  15184 83498 32595 63613 10276 20228 30085 40090 82150 333 59023;
0168834980999992011101600004-17733-039250FM-12+000399999V0203601N005712200019N0020001N1+02521+02331101061ADDGF103991031011008001001001KA1240M+02951MA1999999101011MD1999999-0271REMSYN088AAXX  16004 83498 32595 33611 10252 20233 30101 40106 83100 333 10295 29084 55/// 59027;
0156834980999992011101612004-17733-039250FM-12+000399999V0200501N005110450019N0200001N1+02751+02171101151ADDGF107991031061008001031001KA1240N+02391MA1999999101101MD1999999-0201REMSYN076AAXX  16124 83498 32598 70510 10275 20217 30110 40115 83630 333 20239 59020;
0182834980999992011101618004-17733-039250FM-12+000399999V0200501N004110450019N0020001N1+02591+02331100961ADDAA106000021AY161061AY261061GF107991031061008001021001MA1999999100911MD1999999+0141MW1601REMSYN082AAXX  16184 83498 21595 70508 10259 20233 30091 40096 76066 83620 333 58014 69921;
0173834980999992011101712004-17733-039250FM-12+000399999V0203601N004110075019N0020001N1+02671+02291101081ADDAA124000021GF108991051051008001021999KA1240N+02481MA1999999101031MD1999999-0071REMSYN082AAXX  17124 83498 22595 83608 10267 20229 30103 40108 8552/ 333 20248 59007 69924;
0182834980999992011101718004-17733-039250FM-12+000399999V0203601N005110450019N0020001N1+02851+02331100661ADDAA106004191AY121061AY211061GF106991021051008001041001MA1999999100611MD1999999-0301MW1031REMSYN082AAXX  17184 83498 21595 63610 10285 20233 30061 40066 70321 82540 333 59030 60041;
0201834980999992011101812004-17733-039250FM-12+000399999V0201801N004110450019N0020001N1+02421+02281101251ADDAA124017091AY161061AY261061GF108991041071008001021999KA1240N+02221MA1999999101201MD1999999+0171MW1211REMSYN088AAXX  18124 83498 21595 81808 10242 20228 30120 40125 72166 8472/ 333 20222 58017 60174;
0182834980999992011101818004-17733-039250FM-12+000399999V0201801N006710075019N0020001N1+02381+02171101221ADDAA106001091AY161061AY261061GF108991051071008001021999MA1999999101171MD1999999+0561MW1611REMSYN082AAXX  18184 83498 21595 81813 10238 20217 30117 40122 76166 8572/ 333 58056 60011;
0122834980999992011101900004-17733-039250FM-12+000399999V0201801N007219999999N0020001N1+02341+02001999999ADDGF106991999999008001999999REMSYN084AAXX  19004 83498 32595 61814 10234 20200 10271 29086 30155 40160 55/// 58066 83510;
0201834980999992011101912004-17733-039250FM-12+000399999V0201401N004610450019N0020001N1+02401+01751101871ADDAA124003091AY161061AY261061GF107991031061008001021001KA1240N+02191MA1999999101821MD1999999-0181MW1211REMSYN088AAXX  19124 83498 21595 71409 10240 20175 30182 40187 72166 83620 333 20219 59018 60034;
0182834980999992011101918004-17733-039250FM-12+000399999V0201401N004610450019N0020001N1+02421+01821101781ADDAA106000021AY121061AY211061GF108991041061008001021999MA1999999101731MD1999999+0561MW1031REMSYN082AAXX  19184 83498 21595 81409 10242 20182 30173 40178 70321 8462/ 333 58056 69911;
0133834980999992011102000004-17733-039250FM-12+000399999V0201401N005119999999N0020001N1+02301+01791999999ADDGF108991999999008001999999REMSYN095AAXX  20004 83498 21595 81410 10230 20179 10246 29071 30201 40206 55/// 58046 76266 8462/ 9971;
0173834980999992011102012004-17733-039250FM-12+000399999V0201801N003110075019N0020001N1+02321+01601101981ADDAA124000891GF108991051051008001021999KA1240N+02101MA1999999101931MD1999999+0091REMSYN082AAXX  20124 83498 22595 81806 10232 20160 30193 40198 8552/ 333 20210 58009 69984;
0137834980999992011102018004-17733-039250FM-12+000399999V0201801N004110450019N0020001N1+02391+01801101791ADDGF107991041051008001011001MA1999999101741MD1999999+0011REMSYN070AAXX  20184 83498 32595 71808 10239 20180 30174 40179 84510 333 58001;
0134834980999992011102100004-17733-039250FM-12+000399999V0201801N004119999999N0020001N1+02271+01711999999ADDGF108991999999008001999999REMSYN096AAXX  21004 83498 21595 81808 10227 20171 10218 29069 30189 40194 55/// 59012 69921 70021 8562/;
0156834980999992011102112004-17733-039250FM-12+000399999V0201801N003610450019N0020001N1+02381+01891101961ADDGF108991041051008001011999KA1240N+02061MA1999999101911MD1999999-0021REMSYN076AAXX  21124 83498 32595 81807 10238 20189 30191 40196 8451/ 333 20206 59002;
0137834980999992011102118004-17733-039250FM-12+000399999V0201801N003610450019N0020001N1+02381+01891101961ADDGF108991041051008001011999MA1999999101911MD1999999-0021REMSYN070AAXX  21184 83498 32595 81807 10238 20189 30191 40196 8451/ 333 59002;
0122834980999992011102200004-17733-039250FM-12+000399999V0201801N002619999999N0020001N1+02241+01991999999ADDGF108991999999008001999999REMSYN084AAXX  22004 83498 32595 81805 10224 20199 10251 29080 30201 40206 55/// 58012 8451/;
0201834980999992011102212004-17733-039250FM-12+000399999V0200901N003110450019N0020001N1+02191+02111102091ADDAA124010991AY161061AY211061GF108991041071008001021999KA1240N+02121MA1999999102041MD1999999+0131MW1601REMSYN088AAXX  22124 83498 21595 80906 10219 20211 30204 40209 76061 8472/ 333 20212 58013 60114;
0182834980999992011102218004-17733-039250FM-12+000399999V0200901N004610450019N0020001N1+02231+02141101891ADDAA106006191AY161061AY221061GF108991041071008001021999MA1999999101841MD1999999+0041MW1211REMSYN082AAXX  22184 83498 21595 80909 10223 20214 30184 40189 72162 8472/ 333 58004 60061;
0134834980999992011102300004-17733-039250FM-12+000399999V0200901N002619999999N0020001N1+02271+02071999999ADDGF108991999999008001999999REMSYN096AAXX  23004 83498 21595 80905 10227 20207 10240 29093 30212 40257 55/// 58011 60011 76066 8472/;
0201834980999992011102312004-17733-039250FM-12+000399999V0200901N004110450019N0020001N1+02401+02151102271ADDAA124007191AY161061AY261061GF108991021071008001021999KA1240N+02181MA1999999102221MD1999999+0181MW1601REMSYN088AAXX  23124 83498 21595 80908 10240 20215 30222 40227 76066 8272/ 333 20218 58018 60074;
0137834980999992011102318004-17733-039250FM-12+000399999V0201401N003110450019N0020001N1+02441+02191101961ADDGF108991041061008001021999MA1999999101911MD1999999+0071REMSYN070AAXX  23184 83498 32595 81406 10244 20219 30191 40196 8462/ 333 58007;
0134834980999992011102400004-17733-039250FM-12+000399999V0200901N001519999999N0020001N1+02181+02101999999ADDGF108991999999008001999999REMSYN096AAXX  24004 83498 21595 80903 10218 20210 10261 29090 30218 40223 55/// 58066 60021 76166 8372/;
0201834980999992011102412004-17733-039250FM-12+000399999V0201801N003610450019N0020001N1+02241+02161102151ADDAA124019191AY161061AY261061GF108991041071008001021999KA1240N+02101MA1999999102101MD1999999-0121MW1211REMSYN088AAXX  24124 83498 21595 81807 10224 20216 30210 40215 72166 8472/ 333 20210 59012 60194;
0182834980999992011102418004-17733-039250FM-12+000399999V0201801N003110075019N0020001N1+02301+02141101691ADDAA106005191AY161061AY261061GF108991061071008001021999MA1999999101641MD1999999-0271MW1621REMSYN082AAXX  24184 83498 21595 81806 10230 20214 30164 40169 76266 8672/ 333 59027 60051;
0201834980999992011102512004-17733-039250FM-12+000399999V0200901N001010450019N0020001N1+02391+02131101901ADDAA124007991AY161061AY261061GF108991041061008001021999KA1240N+02121MA1999999101851MD1999999-0251MW1211REMSYN088AAXX  25124 83498 21595 80902 10239 20213 30185 40190 72166 8462/ 333 20212 59025 60084;
0137834980999992011102518004-17733-039250FM-12+000399999V0200901N003110075019N0020001N1+02511+02151101571ADDGF108991051061008001021999MA1999999101521MD1999999-0121REMSYN070AAXX  25184 83498 32595 80906 10251 20215 30152 40157 8562/ 333 59012;
0213834980999992011102600004-17733-039250FM-12+000399999V0200901N001010450019N0020001N1+02251+02011101671ADDAA106000591AY161061AY261061GF108991041071008001021999KA1240M+02591MA1999999101621MD1999999-0191MW1611REMSYN100AAXX  26004 83498 21595 80902 10225 20201 30162 40167 76166 8472/ 333 10259 29086 55/// 59019 69961;
0201834980999992011102612004-17733-039250FM-12+000399999V0200501N002610450019N0020001N1+02601+02211101651ADDAA124025991AY161061AY261061GF108991041061008001021001KA1240N+02141MA1999999101601MD1999999-0251MW1211REMSYN088AAXX  26124 83498 21595 80505 10260 20221 30160 40165 72166 84620 333 20214 59025 60264;
0137834980999992011102618004-17733-039250FM-12+000399999V0200501N004110450019N0020001N1+02631+02231101361ADDGF107991041051008001041001MA1999999101311MD1999999-0211REMSYN070AAXX  26184 83498 32595 70508 10263 20223 30131 40136 84540 333 59021;
0178834980999992011102700004-17733-039250FM-12+000399999V0200501N001512200019N0020001N1+02451+02281101641ADDGA1001+999999999GF100991001001999999001001KA1240M+02791MA1999999101591MD1999999-0031REMSYN082AAXX  27004 83498 32995 00503 10245 20228 30159 40164 333 10279 29085 55/// 59003;
0156834980999992011102712004-17733-039250FM-12+000399999V0203601N005110450019N0020001N1+02661+02391101631ADDGF108991041051008001011999KA1240N+02331MA1999999101581MD1999999-0021REMSYN076AAXX  27124 83498 32595 83610 10266 20239 30158 40163 8451/ 333 20233 59002;
0137834980999992011102718004-17733-039250FM-12+000399999V0203601N003110450019N0020001N1+02741+02211101431ADDGF106991031021008001031001MA1999999101381MD1999999+0071REMSYN070AAXX  27184 83498 32595 63606 10274 20221 30138 40143 83230 333 58007;
0168834980999992011102800004-17733-039250FM-12+000399999V0203601N002112200019N0020001N1+02481+02341101591ADDGF103991031011008001001001KA1240M+02851MA1999999101541MD1999999-0051REMSYN088AAXX  28004 83498 32595 33604 10248 20234 30154 40159 83100 333 10285 29086 55/// 59005;
0220834980999992011102812004-17733-039250FM-12+000399999V0203601N004110450019N0020001N1+02711+02241101581ADDAA124000091AY121061AY211061GF106991031041008001021001KA1240N+02371MA1999999101531MD1999999-0051MW1031REMSYN088AAXX  28124 83498 21595 63608 10271 20224 30153 40158 70321 83420 333 20237 59005 69914;EQDQ01  00002PRCP24
0137834980999992011102818004-17733-039250FM-12+000399999V0203601N004612200019N0020001N1+02781+02321101261ADDGF103991031011008001001001MA1999999101211MD1999999-0171REMSYN070AAXX  28184 83498 32595 33609 10278 20232 30121 40126 83100 333 59017;
0168834980999992011102900004-17733-039250FM-12+000399999V0200501N003112200019N0020001N1+02481+02211101441ADDGF101991011011008001001001KA1240M+02931MA1999999101391MD1999999-0251REMSYN088AAXX  29004 83498 32595 10506 10248 20221 30139 40144 81100 333 10293 29081 55/// 59025;
0156834980999992011102912004-17733-039250FM-12+000399999V0203601N001510075019N0020001N1+02631+02211101531ADDGF108991051051008001021999KA1240N+02361MA1999999101481MD1999999-0051REMSYN076AAXX  29124 83498 32595 83603 10263 20221 30148 40153 8552/ 333 20236 59005;
0137834980999992011102918004-17733-039250FM-12+000399999V0203601N003112200019N0020001N1+02831+02151101101ADDGF101991011011008001001001MA1999999101051MD1999999-0161REMSYN070AAXX  29184 83498 32595 13606 10283 20215 30105 40110 81100 333 59016;
0213834980999992011103000004-17733-039250FM-12+000399999V0203601N001512200019N0020001N1+02461+02251101321ADDGA1001+999999999GF100991001001999999001001KA1240M+02951MA1999999999999MD1999999-0121REMSYN082AAXX  30004 83498 32995 03603 10246 20225 39127 40132 333 10295 29080 55/// 59012;EQDQ01+091273APOSP Q02 091273APOSP 
0156834980999992011103012004-17733-039250FM-12+000399999V0203601N004110450019N0020001N1+02641+02331101331ADDGF107991031051008001041001KA1240N+02301MA1999999101281MD1999999-0201REMSYN076AAXX  30124 83498 32595 73608 10264 20233 30128 40133 83540 333 20230 59020;
0137834980999992011103018004-17733-039250FM-12+000399999V0203601N004112200019N0020001N1+02821+02441101031ADDGF104991021011008001001011MA1999999100981MD1999999-0071REMSYN070AAXX  30184 83498 32595 43608 10282 20244 30098 40103 82101 333 59007;
0126834980999992011103100004-17733-039250FM-12+000399999V0203601N003612200019N0020001N1+02521+02361999999ADDGF104991999999008001999999REMSYN088AAXX  31004 83498 32595 43607 10252 20236 10298 30112 40117 84100 333 29086 55/// 59015;
0201834980999992011103112004-17733-039250FM-12+000399999V0202701N001010450019N0020001N1+02541+02381101351ADDAA124004191AY121061AY211061GF107991031061008001021081KA1240N+02431MA1999999101301MD1999999+0021MW1031REMSYN088AAXX  31124 83498 21595 72702 10254 20238 30130 40135 70321 83628 333 20243 58002 60044;
0182834980999992011103118004-17733-039250FM-12+000399999V0201801N005710450019N0020001N1+02321+02201101241ADDAA106039191AY161061AY261061GF108991041071008001021999MA1999999101191MD1999999+0211MW1631REMSYN082AAXX  31184 83498 21595 81811 10232 20220 30119 40124 76366 8472/ 333 58021 60391;
0201834980999992011110112004-17733-039250FM-12+000399999V0201801N005110450019N0020001N1+02091+01931101801ADDAA124048091AY161061AY261061GF108991041071008001021999KA1240N+02061MA1999999101751MD1999999+0321MW1211REMSYN088AAXX  01124 83498 21595 81810 10209 20193 30175 40180 72166 8472/ 333 20206 58032 60484;
0182834980999992011110118004-17733-039250FM-12+000399999V0201801N003110450019N0020001N1+02061+01961101711ADDAA106003091AY161061AY261061GF108991041071008001021999MA1999999101661MD1999999+0471MW1611REMSYN082AAXX  01184 83498 21595 81806 10206 20196 30166 40171 76166 8472/ 333 58047 60031;
0213834980999992011110200004-17733-039250FM-12+000399999V0201801N003110450019N0020001N1+01941+01871101981ADDAA106005191AY161061AY261061GF108991031071008001021999KA1240M+02311MA1999999101931MD1999999+0501MW1211REMSYN100AAXX  02004 83498 21595 81806 10194 20187 30193 40198 72166 8372/ 333 10231 29094 55/// 58050 60051;
0201834980999992011110212004-17733-039250FM-12+000399999V0200901N002610450019N0020001N1+02121+01891101951ADDAA124016091AY161061AY261061GF108991041071008001021999KA1240N+01801MA1999999101901MD1999999+0151MW1211REMSYN088AAXX  02124 83498 21595 80905 10212 20189 30190 40195 72166 8472/ 333 20180 58015 60164;
0182834980999992011110218004-17733-039250FM-12+000399999V0201801N003610075019N0020001N1+02141+01931101941ADDAA106000591AY161061AY261061GF108991051071008001021999MA1999999101891MD1999999+0231MW1211REMSYN082AAXX  02184 83498 21595 81807 10214 20193 30189 40194 72166 8572/ 333 58023 69951;
0220834980999992011110312004-17733-039250FM-12+000399999V0200901N002610450019N0020001N1+02051+01741102241ADDAA124002091AY161061AY221061GF108991041071008001021999KA1240N+99999MA1999999102191MD1999999+0291MW1211REMSYN088AAXX  03124 83498 21595 80905 10205 20174 30219 40224 72162 8472/ 333 20285 58029 60024;EQDQ01 +02852ATMN  
0137834980999992011110318004-17733-039250FM-12+000399999V0201401N004110450019N0020001N1+02331+01651102011ADDGF108991041061008001021001MA1999999101961MD1999999+0131REMSYN070AAXX  03184 83498 32595 81408 10233 20165 30196 40201 84620 333 58013;
0156834980999992011110412004-17733-039250FM-12+000399999V0202301N001510450019N0020001N1+02141+01931102281ADDGF107991041051008001011001KA1240N+01941MA1999999102231MD1999999+0041REMSYN076AAXX  04124 83498 32595 72303 10214 20193 30223 40228 84510 333 20194 58004;
0137834980999992011110418004-17733-039250FM-12+000399999V0201801N001510450019N0020001N1+02481+01901101941ADDGF106991021021008001041001MA1999999101891MD1999999-0071REMSYN070AAXX  04184 83498 32595 61803 10248 20190 30189 40194 82240 333 59007;
0168834980999992011110500004-17733-039250FM-12+000399999V0200101N000512200019N0020001N1+02221+01861102151ADDGF104991041051008001001001KA1240M+02491MA1999999102101MD1999999-0051REMSYN088AAXX  05004 83498 32595 40101 10222 20186 30210 40215 84500 333 10249 29079 55/// 59005;
0156834980999992011110512004-17733-039250FM-12+000399999V0200901N002110450019N0020001N1+02381+01871102111ADDGF108991041051008001011999KA1240N+02021MA1999999102061MD1999999-0171REMSYN076AAXX  05124 83498 32595 80904 10238 20187 30206 40211 8451/ 333 20202 59017;
0137834980999992011110518004-17733-039250FM-12+000399999V0200901N001511050019N0020001N1+02481+01831101791ADDGF108991031051008001001021MA1999999101741MD1999999-0151REMSYN070AAXX  05184 83498 32595 80903 10248 20183 30174 40179 83502 333 59015;
0156834980999992011110612004-17733-039250FM-12+000399999V0200901N001012200019N0020001N1+02421+01511101991ADDGF102991021011008001031001KA1240N+01751MA1999999101941MD1999999-0121REMSYN076AAXX  06124 83498 32595 20902 10242 20151 30194 40199 82130 333 20175 59012;
0137834980999992011110618004-17733-039250FM-12+000399999V0200901N003112200019N0020001N1+02451+01691101651ADDGF102991021011008001031091MA1999999101601MD1999999-0141REMSYN070AAXX  06184 83498 32595 20906 10245 20169 30160 40165 82139 333 59014;
0156834980999992011110712004-17733-039250FM-12+000399999V0200901N001510450019N0020001N1+02371+01931101771ADDGF107991041051008001011001KA1240N+02261MA1999999101721MD1999999-0221REMSYN076AAXX  07124 83498 32595 70903 10237 20193 30172 40177 84510 333 20226 59022;
0137834980999992011110718004-17733-039250FM-12+000399999V0200901N002610450019N0020001N1+02591+01971101471ADDGF106991021021008001041001MA1999999101421MD1999999-0181REMSYN070AAXX  07184 83498 32595 60905 10259 20197 30142 40147 82240 333 59018;
0168834980999992011110800004-17733-039250FM-12+000399999V0209999C000019999999N0020001N1+02221+01801101731ADDGF107991071001008001011001KA1240M+02671MA1999999101681MD1999999-0071REMSYN088AAXX  08004 83498 32595 70000 10222 20180 30168 40173 87010 333 10267 29075 55/// 59007;
0156834980999992011110812004-17733-039250FM-12+000399999V0202301N000510450019N0020001N1+02241+02101101731ADDGF108991041061008001011999KA1240N+02021MA1999999101681MD1999999-0041REMSYN076AAXX  08124 83498 32595 82301 10224 20210 30168 40173 8461/ 333 20202 59004;
0182834980999992011110818004-17733-039250FM-12+000399999V0200501N000510450019N0020001N1+02281+02161101501ADDAA106002091AY161061AY221061GF108991031061008001021999MA1999999101451MD1999999+0031MW1601REMSYN082AAXX  08184 83498 21595 80501 10228 20216 30145 40150 76062 8362/ 333 58003 60021;
0201834980999992011110912004-17733-039250FM-12+000399999V0201401N002610450019N0020001N1+02051+01781101781ADDAA124017091AY161061AY261061GF108991041061008001021001KA1240N+01801MA1999999101731MD1999999+0051MW1211REMSYN088AAXX  09124 83498 21595 81405 10205 20178 30173 40178 72166 84620 333 20180 58005 60174;
0182834980999992011110918004-17733-039250FM-12+000399999V0200901N001010450019N0020001N1+02271+01111101631ADDAA106000891AY161061AY221061GF108991041061008001021999MA1999999101581MD1999999+0131MW1601REMSYN082AAXX  09184 83498 21595 80902 10227 20111 30158 40163 76062 8462/ 333 58013 69981;
0213834980999992011111000004-17733-039250FM-12+000399999V0201801N000510450019N0020001N1+02091+02031101821ADDAA106002091AY161061AY261061GF108991041071008001021999KA1240M+02281MA1999999101771MD1999999+0011MW1211REMSYN100AAXX  10004 83498 21595 81801 10209 20203 30177 40182 72166 8472/ 333 10228 29095 55/// 58001 60021;
0207834980999992011111012004-17733-039250FM-12+000399999V0203601N001510450019N0020001N1+02261+01191101791ADDAA124007091AY161061AY261061GF108991031071008001021999KA1240N+02081MA1999999101741MD1999999+0011MW1601REMSYN094AAXX  10124 83498 21595 83603 10226 20119 30174 40179 76066 8372/ 333 20208 58001 60074 10066;
0137834980999992011111018004-17733-039250FM-12+000399999V0200901N003112200019N0020001N1+02621+02251101511ADDGF104991021021008001031011MA1999999101461MD1999999-0221REMSYN070AAXX  10184 83498 32595 40906 10262 20225 30146 40151 82231 333 59022;
0168834980999992011111100004-17733-039250FM-12+000399999V0209999C000010450019N0020001N1+02241+02171101721ADDGF106991021041008001031001KA1240M+02751MA1999999101671MD1999999-0101REMSYN088AAXX  11004 83498 32595 60000 10224 20217 30167 40172 82430 333 10275 29092 55/// 59010;
0156834980999992011111112004-17733-039250FM-12+000399999V0201801N001510075019N0020001N1+02561+02291101661ADDGF105991051021008001001001KA1240N+02161MA1999999101611MD1999999-0131REMSYN076AAXX  11124 83498 32595 51803 10256 20229 30161 40166 85200 333 20216 59013;
0137834980999992011111118004-17733-039250FM-12+000399999V0200901N003610450019N0020001N1+02741+02401101511ADDGF106991041021008001041001MA1999999101461MD1999999+0101REMSYN070AAXX  11184 83498 32595 60907 10274 20240 30146 40151 84240 333 58010;
0156834980999992011111212004-17733-039250FM-12+000399999V0200901N001510450019N0020001N1+02701+02241101751ADDGF106991031041008001021001KA1240N+02251MA1999999101701MD1999999+0091REMSYN076AAXX  12124 83498 32595 60903 10270 20224 30170 40175 83420 333 20225 58009;
0137834980999992011111218004-17733-039250FM-12+000399999V0200901N003112200019N0020001N1+02801+02221101391ADDGF101991011011008001001001MA1999999101341MD1999999-0121REMSYN070AAXX  12184 83498 32595 10906 10280 20222 30134 40139 81100 333 59012;
0156834980999992011111312004-17733-039250FM-12+000399999V0203201N001510450019N0020001N1+02711+02221101661ADDGF106991031051008001041001KA1240N+02201MA1999999101611MD1999999-0091REMSYN076AAXX  13124 83498 32595 63203 10271 20222 30161 40166 83540 333 20220 59009;
0137834980999992011111318004-17733-039250FM-12+000399999V0200501N004112200019N0020001N1+02721+02241101401ADDGF104991041021008001001001MA1999999101351MD1999999+0011REMSYN070AAXX  13184 83498 32595 40508 10272 20224 30135 40140 84200 333 58001;
0201834980999992011111412004-17733-039250FM-12+000399999V0203601N004110450019N0020001N1+02721+02301101661ADDAA124000891AY161061AY221061GF105991031021008001031001KA1240N+02221MA1999999101611MD1999999+0001MW1211REMSYN088AAXX  14124 83498 21595 53608 10272 20230 30161 40166 72162 83230 333 20222 58000 69974;
0137834980999992011111418004-17733-039250FM-12+000399999V0203601N004611050019N0020001N1+02781+02321101321ADDGF106991031021008001001021MA1999999101271MD1999999-0081REMSYN070AAXX  14184 83498 32595 63609 10278 20232 30127 40132 83202 333 59008;
0156834980999992011111512004-17733-039250FM-12+000399999V0200501N005110450019N0020001N1+02721+02241101371ADDGF106991031051008001021001KA1240N+02471MA1999999101321MD1999999-0311REMSYN076AAXX  15124 83498 32595 60510 10272 20224 30132 40137 83520 333 20247 59031;
0137834980999992011111518004-17733-039250FM-12+000399999V0200501N005110450019N0020001N1+02741+02281101031ADDGF105991021041008001021001MA1999999100981MD1999999-0291REMSYN070AAXX  15184 83498 32595 50510 10274 20228 30098 40103 82420 333 59029;
0201834980999992011111612004-17733-039250FM-12+000399999V0203601N004110450019N0020001N1+02811+02381101161ADDAA124000591AY121061AY211061GF106991041021008001041001KA1240N+02361MA1999999101111MD1999999-0211MW1031REMSYN088AAXX  16124 83498 21595 63608 10281 20238 30111 40116 70321 84240 333 20236 59021 69954;
0137834980999992011111618004-17733-039250FM-12+000399999V0203601N005119999999N0020001N1+02751+02381100751ADDGF106991061001008001071001MA1999999100701MD1999999-0281REMSYN070AAXX  16184 83498 32595 63610 10275 20238 30070 40075 86070 333 59028;
0201834980999992011111712004-17733-039250FM-12+000399999V0201801N001510450019N0020001N1+02381+02261101381ADDAA124055991AY161061AY261061GF108991041071008001021999KA1240N+02221MA1999999101331MD1999999+0221MW1211REMSYN088AAXX  17124 83498 21595 81803 10238 20226 30133 40138 72166 8472/ 333 20222 58022 60564;
0182834980999992011111718004-17733-039250FM-12+000399999V0201801N001510450019N0020001N1+02341+02201101271ADDAA106001091AY161061AY221061GF108991041071008001021999MA1999999101221MD1999999+0521MW1601REMSYN082AAXX  17184 83498 21595 81803 10234 20220 30122 40127 76062 8472/ 333 58052 60011;
0193834980999992011111800004-17733-039250FM-12+000399999V0201801N001510450019N0020001N1+02311+02181101501ADDAA106000591AY161061AY221061GF108991031071008001021999KA1240M+02611MA1999999101451MW1211REMSYN094AAXX  18004 83498 21595 81803 10231 20218 30145 40150 72162 8372/ 333 10261 29093 55/// 69941;
0201834980999992011111812004-17733-039250FM-12+000399999V0201401N003110075019N0020001N1+02441+02191101621ADDAA124007191AY121061AY211061GF108991051051008001021999KA1240N+02221MA1999999101571MD1999999+0241MW1031REMSYN088AAXX  18124 83498 21595 81406 10244 20219 30157 40162 70321 8552/ 333 20222 58024 60074;
0137834980999992011111818004-17733-039250FM-12+000399999V0201401N003110075019N0020001N1+02531+02291101481ADDGF108991051051008001021999MA1999999101431MD1999999+0211REMSYN070AAXX  18184 83498 32595 81406 10253 20229 30143 40148 8552/ 333 58021;
0179834980999992011111900004-17733-039250FM-12+000399999V0202501N048822200019N0020001N1+02361+02071101721ADDGF103991011041008001001051KA1240M+02561MA1999999101671REMSYN094AAXX  19004 83498 32595 32595 10236 20207 30167 40172 81405 8562/ 333 10256 29085 55/// 58022;EQDQ01+004883WOSPD 
0220834980999992011111912004-17733-039250FM-12+000399999V0201801N001510450019N0020001N1+02321+02001101791ADDAA124000091AY121061AY211061GF108991041061008001021999KA1240N+02181MA1999999101741MD1999999+0171MW1031REMSYN088AAXX  19124 83498 21595 81803 10232 20200 30174 40179 70321 8462/ 333 20218 58017 69924;EQDQ01  00002PRCP24
0137834980999992011111918004-17733-039250FM-12+000399999V0201401N004110450019N0020001N1+02461+02111101531ADDGF108991041051008001021001MA1999999101481MD1999999+0041REMSYN070AAXX  19184 83498 32595 81408 10246 20211 30148 40153 84520 333 58004;
0201834980999992011112012004-17733-039250FM-12+000399999V0200901N003110450019N0020001N1+02501+02051101711ADDAA124023991AY161061AY261061GF107991041051008001011001KA1240N+02141MA1999999101661MD1999999-0081MW1601REMSYN088AAXX  20124 83498 21595 70906 10250 20205 30166 40171 76066 84510 333 20214 59008 60244;
0137834980999992011112018004-17733-039250FM-12+000399999V0201401N001510075019N0020001N1+02321+02181101491ADDGF108991051061008001021999MA1999999101441MD1999999-0041REMSYN070AAXX  20184 83498 32595 81403 10232 20218 30144 40149 8562/ 333 59004;
0213834980999992011112100004-17733-039250FM-12+000399999V0200901N001012200019N0020001N1+02241+02071101741ADDAA106002091AY121061AY211061GF103991031051008001001001KA1240M+02631MA1999999101691MD1999999+0001MW1031REMSYN100AAXX  21004 83498 21595 30902 10224 20207 30169 40174 70321 83500 333 10263 29087 55/// 58000 60021;
0137834980999992011112118004-17733-039250FM-12+000399999V0200901N003112200019N0020001N1+02711+02301101491ADDGF104991021021008001011001MA1999999101441MD1999999+0001REMSYN070AAXX  21184 83498 32595 40906 10271 20230 30144 40149 82210 333 58000;
0153834980999992011112200004-17733-039250FM-12+000399999V0200901N002110075019N0020001N1+02381+02281101721ADDGF108991051061008001021999KA1240M+02761MA1999999101671REMSYN087AAXX  22004 83498 32595 80904 10238 20228 30167 40172 8562/ 333 10276 29087 55// 59002;
0187834980999992011112212004-17733-039250FM-12+000399999V0200501N004610450019N0020001N1+02651+02331101701ADDAA124000591AY121061AY211061GF106991041051008001041001KA1240N+02291MA1999999101651MW1031REMSYN088AAXX  22124 83498 21595 60509 10265 20233 30165 40170 70321 84540 333 20229 5//// 69964;
0137834980999992011112218004-17733-039250FM-12+000399999V0203601N005110450019N0020001N1+02811+02201101261ADDGF106991021031008001021001MA1999999101211MD1999999-0231REMSYN070AAXX  22184 83498 32595 63610 10281 20220 30121 40126 82320 333 59023;
0126834980999992011112300004-17733-039250FM-12+000399999V0200501N003612200019N0020001N1+02501+02311999999ADDGF102991999999008001999999REMSYN088AAXX  23004 83498 32595 20507 10250 20231 21000 30142 40147 333 10285 29083 55/// 59025;
0201834980999992011112312004-17733-039250FM-12+000399999V0203601N006710450019N0020001N1+02761+02321101461ADDAA124000891AY161061AY221061GF106991021011008001051011KA1240N+02431MA1999999101411MD1999999-0241MW1211REMSYN088AAXX  23124 83498 21595 63613 10276 20232 30141 40146 72162 82151 333 20243 59024 69984;
0137834980999992011112318004-17733-039250FM-12+000399999V0203601N007211050019N0020001N1+02841+02421101201ADDGF108991041051008001001021MA1999999101151MD1999999-0061REMSYN070AAXX  23184 83498 32595 83614 10284 20242 30115 40120 84502 333 59006;
0201834980999992011112412004-17733-039250FM-12+000399999V0200501N001010450019N0020001N1+02501+02401101581ADDAA124000891AY161061AY221061GF108991041061008001021999KA1240N+02501MA1999999101531MD1999999-0121MW1211REMSYN088AAXX  24124 83498 21595 80502 10250 20240 30153 40158 72162 8462/ 333 20250 59012 69984;
0182834980999992011112418004-17733-039250FM-12+000399999V0203601N004110450019N0020001N1+02571+02351101271ADDAA106008991AY161061AY261061GF107991031051008001011001MA1999999101221MD1999999+0071MW1611REMSYN082AAXX  24184 83498 21595 73608 10257 20235 30122 40127 76166 83510 333 58007 60091;
0173834980999992011112512004-17733-039250FM-12+000399999V0200501N003110075019N0020001N1+02571+02401101571ADDAA124008991GF108991051051008001021999KA1240N+02331MA1999999101521MD1999999-0011REMSYN082AAXX  25124 83498 22595 80506 10257 20240 30152 40157 8552/ 333 20233 59001 60094;
0182834980999992011112518004-17733-039250FM-12+000399999V0200501N003110450019N0020001N1+02651+02441101311ADDAA106000591AY121061AY211061GF108991041061008001021999MA1999999101261MD1999999-0061MW1031REMSYN082AAXX  25184 83498 21595 80506 10265 20244 30126 40131 70321 8462/ 333 59006 69941;
0202834980999992011112600004-17733-039250FM-12+000399999V0209999C000010450019N0020001N1+02321+02271101551ADDAY161061AY261061GF106991041061008001011001KA1240M+02591MA1999999101501MD1999999+0061MW1211REMSYN100AAXX  26004 83498 21595 60000 10232 20227 30150 40155 72166 84610 333 10259 29093 55/// 58006 66091;
0173834980999992011112612004-17733-039250FM-12+000399999V0200501N001010450019N0020001N1+02581+02371101641ADDAA124008991GF108991041061008001011999KA1240N+02241MA1999999101591MD1999999+0071REMSYN082AAXX  26124 83498 22595 80502 10258 20237 30159 40164 8461/ 333 20224 58007 60094;
0182834980999992011112618004-17733-039250FM-12+000399999V0200501N004110450019N0020001N1+02781+02401101431ADDAA106007191AY161061AY221061GF106991041021008001051001MA1999999101381MD1999999+0121MW1211REMSYN082AAXX  26184 83498 21595 60508 10278 20240 30138 40143 72162 84250 333 58012 60071;
0201834980999992011112712004-17733-039250FM-12+000399999V0200901N001510450019N0020001N1+02581+02311101591ADDAA124014091AY161061AY261061GF106991031051008001021001KA1240N+02261MA1999999101541MD1999999-0051MW1211REMSYN088AAXX  27124 83498 21595 60903 10258 20231 30154 40159 72166 83520 333 20226 59005 60144;
0182834980999992011112718004-17733-039250FM-12+000399999V0200501N003110450019N0020001N1+02661+02391101341ADDAA106000021AY121061AY211061GF106991031051008001021001MA1999999101291MD1999999-0091MW1031REMSYN082AAXX  27184 83498 21595 60506 10266 20239 30129 40134 70321 83520 333 59009 69921;
0201834980999992011112812004-17733-039250FM-12+000399999V0200501N003110450019N0020001N1+02621+02391101601ADDAA124003091AY121061AY211061GF107991041051008001011001KA1240N+02341MA1999999101551MD1999999+0011MW1031REMSYN088AAXX  28124 83498 21595 70506 10262 20239 30155 40160 70321 84510 333 20234 58001 60034;
0137834980999992011112818004-17733-039250FM-12+000399999V0200501N005110450019N0020001N1+02631+02331101391ADDGF106991031021008001041001MA1999999101341MD1999999+0051REMSYN070AAXX  28184 83498 32595 60510 10263 20233 30134 40139 83240 333 58005;
0122834980999992011112900004-17733-039250FM-12+000399999V0200501N002612200019N0020001N1+02451+02411999999ADDGF102991999999008001999999REMSYN084AAXX  29004 83498 32595 20505 10245 20241 10279 29092 30155 40160 55/44 58004 82100;
0201834980999992011112912004-17733-039250FM-12+000399999V0200501N002110450019N0020001N1+02301+02231101631ADDAA124007191AY161061AY221061GF108991041061008001021999KA1240N+02221MA1999999101581MD1999999+0031MW1621REMSYN088AAXX  29124 83498 21595 80504 10230 20223 30158 40163 76262 8462/ 333 20222 58003 60074;
0182834980999992011112918004-17733-039250FM-12+000399999V0200501N003610450019N0020001N1+02641+02311101351ADDAA106000021AY161061AY261061GF108991031051008001031021MA1999999101301MD1999999-0041MW1211REMSYN082AAXX  29184 83498 21595 80507 10264 20231 30130 40135 72166 83532 333 59004 69921;
0201834980999992011113012004-17733-039250FM-12+000399999V0203601N001510450019N0020001N1+02401+02301101511ADDAA124016091AY161061AY221061GF108991041061008001021999KA1240N+02251MA1999999101461MD1999999-0121MW1611REMSYN088AAXX  30124 83498 21595 83603 10240 20230 30146 40151 76162 8462/ 333 20225 59012 60164;
0182834980999992011113018004-17733-039250FM-12+000399999V0203601N005112200019N0020001N1+02781+02301101161ADDAA106000591AY161061AY261061GF102991021011008001031011MA1999999101111MD1999999-0191MW1211REMSYN082AAXX  30184 83498 21595 23610 10278 20230 30111 40116 72166 82131 333 59019 69941;
0168834980999992011120100004-17733-039250FM-12+000399999V0203601N001512200019N0020001N1+02491+02301101391ADDGF102991021011008001031001KA1240M+02821MA1999999101341MD1999999-0051REMSYN088AAXX  01004 83498 32595 23603 10249 20230 30134 40139 82130 333 10282 29088 55/// 59005;
0173834980999992011120112004-17733-039250FM-12+000399999V0203601N004610450019N0020001N1+02731+02481101481ADDAA124000591GF106991041051008001041001KA1240N+02331MA1999999101431MD1999999-0031REMSYN082AAXX  01124 83498 22595 63609 10273 20248 30143 40148 84540 333 20233 59003 69944;
0137834980999992011120118004-17733-039250FM-12+000399999V0203601N004110450019N0020001N1+02731+02481101221ADDGF107991041051008001071001MA1999999101171MD1999999-0061REMSYN070AAXX  01184 83498 32595 73608 10273 20248 30117 40122 84570 333 59006;
0168834980999992011120200004-17733-039250FM-12+000399999V0203601N003112200019N0020001N1+02551+02471101341ADDGF104991041051008001001001KA1240M+02971MA1999999101291MD1999999-0051REMSYN088AAXX  02004 83498 32595 43606 10255 20247 30129 40134 84500 333 10297 29091 55/// 59005;
0156834980999992011120212004-17733-039250FM-12+000399999V0203601N004110450019N0020001N1+02721+02451101251ADDGF108991041051008001011999KA1240N+02401MA1999999101201MD1999999-0231REMSYN076AAXX  02124 83498 32595 83608 10272 20245 30120 40125 8451/ 333 20240 59023;
0137834980999992011120218004-17733-039250FM-12+000399999V0203601N007210450019N0020001N1+02841+02521101001ADDGF108991031051008001011999MA1999999100951MD1999999-0221REMSYN070AAXX  02184 83498 32595 83614 10284 20252 30095 40100 8351/ 333 59022;
0213834980999992011120300004-17733-039250FM-12+000399999V0203601N001510450019N0020001N1+02591+02491101201ADDAA106002091AY191061AY221061GF108991041071008001021999KA1240M+02961MA1999999101151MD1999999-0141MW1611REMSYN100AAXX  03004 83498 21595 83603 10259 20249 30115 40120 76192 8472/ 333 10296 29090 55/// 59014 60021;
0201834980999992011120312004-17733-039250FM-12+000399999V0201801N001510450019N0020001N1+02401+02311101431ADDAA124021191AY161061AY261061GF108991041071008001021999KA1240N+02351MA1999999101381MD1999999+0181MW1611REMSYN088AAXX  03124 83498 21595 81803 10240 20231 30138 40143 76166 8472/ 333 20235 58018 60214;
0182834980999992011120318004-17733-039250FM-12+000399999V0201801N004110450019N0020001N1+02301+02221101281ADDAA106010991AY161061AY261061GF108991041071008001021999MA1999999101231MD1999999+0281MW1611REMSYN082AAXX  03184 83498 21595 81808 10230 20222 30123 40128 76166 8472/ 333 58028 60111;
0232834980999992011120400004-17733-039250FM-12+000399999V0201801N002610450019N0020001N1+02321+02251101471ADDAA106062091AY161061AY261061GF108991031071008001021999KA1240M+02751MA1999999999999MD1999999+0271MW1601REMSYN100AAXX  04004 83498 21595 81805 10232 20225 39142 40147 76066 8372/ 333 10275 29095 55/// 58027 60621;EQDQ01 091423APOSP 
0201834980999992011120412004-17733-039250FM-12+000399999V0201801N002110450019N0020001N1+02391+02281101561ADDAA124017091AY161061AY221061GF108991031071008001021999KA1240N+02261MA1999999101511MD1999999+0131MW1211REMSYN088AAXX  04124 83498 21595 81804 10239 20228 30151 40156 72162 8372/ 333 20226 58013 60174;
0182834980999992011120418004-17733-039250FM-12+000399999V0201801N001510450019N0020001N1+02391+02331101391ADDAA106005191AY161061AY221061GF108991041071008001021999MA1999999101341MD1999999+0111MW1601REMSYN082AAXX  04184 83498 21595 81803 10239 20233 30134 40139 76062 8472/ 333 58011 60051;
0173834980999992011120512004-17733-039250FM-12+000399999V0201801N000510450019N0020001N1+02601+02311101661ADDAA124025991GF106991021011008001051021KA1240N+02251MA1999999101611MD1999999+0101REMSYN082AAXX  05124 83498 22595 61801 10260 20231 30161 40166 82152 333 20225 58010 60264;
0137834980999992011120518004-17733-039250FM-12+000399999V0201401N001511050019N0020001N1+02781+02441101391ADDGF106991031051008001001021MA1999999101341MD1999999+0001REMSYN070AAXX  05184 83498 32595 61403 10278 20244 30134 40139 83502 333 58000;
0168834980999992011120600004-17733-039250FM-12+000399999V0200901N000512200019N0020001N1+02441+02341101501ADDGF102991021011008001001001KA1240M+02881MA1999999101451MD1999999-0091REMSYN088AAXX  06004 83498 32595 20901 10244 20234 30145 40150 82100 333 10288 29088 55/// 59009;
0156834980999992011120612004-17733-039250FM-12+000399999V0200901N003110450019N0020001N1+02791+02341101631ADDGF105991021021008001011001KA1240N+02331MA1999999101581MD1999999-0031REMSYN076AAXX  06124 83498 32595 50906 10279 20234 30158 40163 82210 333 20233 59003;
0137834980999992011120618004-17733-039250FM-12+000399999V0200501N002612200019N0020001N1+02831+02221101331ADDGF102991021011008001001001MA1999999101281MD1999999-0061REMSYN070AAXX  06184 83498 32595 20505 10283 20222 30128 40133 82100 333 59006;
0168834980999992011120700004-17733-039250FM-12+000399999V0209999C000012200019N0020001N1+02461+02251101491ADDGF103991031021008001001001KA1240M+02931MA1999999101441MD1999999-0011REMSYN088AAXX  07004 83498 32595 30000 10246 20225 30144 40149 83200 333 10293 29081 55/// 59001;
0156834980999992011120712004-17733-039250FM-12+000399999V0200701N001510450019N0020001N1+02711+02331101571ADDGF106991041021008001041001KA1240N+02291MA1999999101521MD1999999-0061REMSYN076AAXX  07124 83498 32595 60703 10271 20233 30152 40157 84240 333 20229 59006;
0137834980999992011120718004-17733-039250FM-12+000399999V0200901N003112200019N0020001N1+02791+02421101361ADDGF104991021011008001001011MA1999999101311MD1999999+0031REMSYN070AAXX  07184 83498 32595 40906 10279 20242 30131 40136 82101 333 58003;
0168834980999992011120800004-17733-039250FM-12+000399999V0200901N001512200019N0020001N1+02481+02271101511ADDGF103991011011008001001041KA1240M+02901MA1999999101461MD1999999+0021REMSYN088AAXX  08004 83498 32595 30903 10248 20227 30146 40151 81104 333 10290 29084 55/// 58002;
0201834980999992011120812004-17733-039250FM-12+000399999V0203601N002610450019N0020001N1+02521+02331101591ADDAA124007191AY161061AY261061GF107991031061008001021001KA1240N+02331MA1999999101541MD1999999+0021MW1601REMSYN088AAXX  08124 83498 21595 73605 10252 20233 30154 40159 76066 83620 333 20233 58002 60074;
0182834980999992011120818004-17733-039250FM-12+000399999V0200501N006712200019N0020001N1+02841+02421101271ADDAA106003091AY161061AY261061GF103991031021008001001001MA1999999101221MD1999999-0091MW1211REMSYN082AAXX  08184 83498 21595 30513 10284 20242 30122 40127 72166 83200 333 59009 60031;
0162834980999992011120900004-17733-039250FM-12+000399999V0200901N000512200019N0020001N1+02481+02271101401ADDGF101991011011008001001001KA1240M+02891MA1999999101351MD1999999-0111REMSYN082AAXX  09004 83498 32595 10901 10248 20227 30135 40140 81100 333 10289 55/// 59011;
0173834980999992011120912004-17733-039250FM-12+000399999V0203601N001512200019N0020001N1+02791+02421101391ADDAA124003091GF106991041021008001001011KA1240N+02331MA1999999101341MD1999999-0201REMSYN082AAXX  09124 83498 22595 63603 10279 20242 30134 40139 84201 333 20233 59020 60034;
0137834980999992011120918004-17733-039250FM-12+000399999V0200501N004612200019N0020001N1+02871+02521101011ADDGF102991011011008001001011MA1999999100961MD1999999-0261REMSYN070AAXX  09184 83498 32595 20509 10287 20252 30096 40101 81101 333 59026;
0168834980999992011121000004-17733-039250FM-12+000399999V0200501N004119999999N0020001N1+02541+02351101081ADDGF106991061001008001071001KA1240M+02981MA1999999101031MD1999999-0321REMSYN088AAXX  10004 83498 32595 60508 10254 20235 30103 40108 86070 333 10298 29085 55/// 59032;
0156834980999992011121012004-17733-039250FM-12+000399999V0200501N004612200019N0020001N1+02831+02601101031ADDGF102991021011008001001011KA1240N+02441MA1999999100981MD1999999-0361REMSYN076AAXX  10124 83498 32595 20509 10283 20260 30098 40103 82101 333 20244 59036;
0137834980999992011121018004-17733-039250FM-12+000399999V0200501N005112200019N0020001N1+02891+02501100681ADDGF102991021011008001031011MA1999999100631MD1999999-0331REMSYN070AAXX  10184 83498 32595 20510 10289 20250 30063 40068 82131 333 59033;
0213834980999992011121100004-17733-039250FM-12+000399999V0203601N002110450019N0020001N1+02321+02241101041ADDAA106017091AY191061AY261061GF108991031071008001021999KA1240M+02991MA1999999100901MD1999999-0041MW1611REMSYN100AAXX  11004 83498 21595 83604 10232 20224 30090 40104 76196 8372/ 333 10299 29092 55/// 59004 60171;
0201834980999992011121112004-17733-039250FM-12+000399999V0202301N001510075019N0020001N1+02421+02281101211ADDAA124027991AY121061AY211061GF108991051051008001021999KA1240N+02191MA1999999101161MD1999999+0181MW1031REMSYN088AAXX  11124 83498 21595 82303 10242 20228 30116 40121 70321 8552/ 333 20219 58018 60284;
0182834980999992011121118004-17733-039250FM-12+000399999V0200901N001510450019N0020001N1+02371+02331101131ADDAA106004191AY161061AY261061GF108991041071008001021999MA1999999101081MD1999999+0451MW1601REMSYN082AAXX  11184 83498 21595 80903 10237 20233 30108 40113 76066 8472/ 333 58045 60041;
0213834980999992011121200004-17733-039250FM-12+000399999V0200901N000510075019N0020001N1+02291+02211101351ADDAA106013091AY161061AY261061GF108991051061008001021999KA1240M+02531MA1999999101301MD1999999+0311MW1211REMSYN100AAXX  12004 83498 21595 80901 10229 20221 30130 40135 72166 8562/ 333 10253 29095 55/// 58031 60131;
0201834980999992011121212004-17733-039250FM-12+000399999V0201401N001510075019N0020001N1+02331+02251101381ADDAA124024991AY161061AY221061GF108991051061008001021999KA1240N+02271MA1999999101331MD1999999+0231MW1211REMSYN088AAXX  12124 83498 21595 81403 10233 20225 30133 40138 72162 8562/ 333 20227 58023 60254;
0137834980999992011121218004-17733-039250FM-12+000399999V0200501N001510075019N0020001N1+02511+02381101201ADDGF108991051061008001021999MA1999999101151MD1999999+0071REMSYN070AAXX  12184 83498 32595 80503 10251 20238 30115 40120 8562/ 333 58007;
0180834980999992011121300004-17733-039250FM-12+000399999V0203601N001510450019N0020001N1+02381+02361101361ADDGF106991031051008001011001KA1240M+02581MA1999999101311MD1999999+0051MW1131REMSYN094AAXX  13004 83498 31595 63603 10238 20236 30131 40136 713// 83510 333 10258 29095 55/// 58005;
0201834980999992011121312004-17733-039250FM-12+000399999V0200501N001510450019N0020001N1+02551+02351101431ADDAA124020191AY161061AY261061GF108991041051008001021999KA1240N+02291MA1999999101381MD1999999+0051MW1211REMSYN088AAXX  13124 83498 21595 80503 10255 20235 30138 40143 72166 8452/ 333 20229 58005 60204;
0137834980999992011121318004-17733-039250FM-12+000399999V0200501N003610450019N0020001N1+02551+02271101301ADDGF106991031011008001031001MA1999999101251MD1999999+0101REMSYN070AAXX  13184 83498 32595 60507 10255 20227 30125 40130 83130 333 58010;
0168834980999992011121400004-17733-039250FM-12+000399999V0200501N001512200019N0020001N1+02481+02341101381ADDGF103991031061008001001001KA1240M+02911MA1999999101331MD1999999+0021REMSYN088AAXX  14004 83498 32595 30503 10248 20234 30133 40138 83600 333 10291 29092 55/// 58002;
0156834980999992011121412004-17733-039250FM-12+000399999V0203601N003110450019N0020001N1+02711+02411101471ADDGF107991031051008001021001KA1240N+02301MA1999999101421MD1999999+0041REMSYN076AAXX  14124 83498 32595 73606 10271 20241 30142 40147 83520 333 20230 58004;
0137834980999992011121418004-17733-039250FM-12+000399999V0203601N005110450019N0020001N1+02791+02251101251ADDGF105991021041008001091001MA1999999101201MD1999999-0131REMSYN070AAXX  14184 83498 32595 53610 10279 20225 30120 40125 82490 333 59013;
0168834980999992011121500004-17733-039250FM-12+000399999V0200501N001012200019N0020001N1+02491+02271101431ADDGF101991011011008001001001KA1240M+02901MA1999999101381MD1999999+0051REMSYN088AAXX  15004 83498 32595 10502 10249 20227 30138 40143 81100 333 10290 29083 55/// 58005;
0156834980999992011121512004-17733-039250FM-12+000399999V0200501N003110450019N0020001N1+02741+02301101471ADDGF106991031041008001021001KA1240N+02301MA1999999101421MD1999999+0001REMSYN076AAXX  15124 83498 32595 60506 10274 20230 30142 40147 83420 333 20230 58000;
0137834980999992011121518004-17733-039250FM-12+000399999V0200501N003610450019N0020001N1+02781+02311101191ADDGF106991031041008001011001MA1999999101141MD1999999-0061REMSYN070AAXX  15184 83498 32595 60507 10278 20231 30114 40119 83410 333 59006;
0168834980999992011121600004-17733-039250FM-12+000399999V0200501N003112200019N0020001N1+02511+02341101351ADDGF101991011011008001001001KA1240M+02871MA1999999101281MD1999999-0101REMSYN088AAXX  16004 83498 32595 10506 10251 20234 30128 40135 81100 333 10287 29084 55/// 59010;
0156834980999992011121612004-17733-039250FM-12+000399999V0203601N004110450019N0020001N1+02681+02411101391ADDGF108991041051008001031999KA1240N+02331MA1999999101341MD1999999-0081REMSYN076AAXX  16124 83498 32595 83608 10268 20241 30134 40139 8453/ 333 20233 59008;
0137834980999992011121618004-17733-039250FM-12+000399999V0203601N004610450019N0020001N1+02821+02521101201ADDGF106991021021008001051001MA1999999101151MD1999999+0011REMSYN070AAXX  16184 83498 32595 63609 10282 20252 30115 40120 82250 333 58001;
0156834980999992011121712004-17733-039250FM-12+000399999V0200501N002610450019N0020001N1+02801+02291101621ADDGF106991031051008001021011KA1240N+02451MA1999999101571MD1999999+0231REMSYN076AAXX  17124 83498 32595 60505 10280 20229 30157 40162 83521 333 20245 58023;
0137834980999992011121718004-17733-039250FM-12+000399999V0200501N004610450019N0020001N1+02741+02281101401ADDGF106991031051008001011001MA1999999101351MD1999999+0201REMSYN070AAXX  17184 83498 32595 60509 10274 20228 30135 40140 83510 333 58020;
0168834980999992011121800004-17733-039250FM-12+000399999V0203601N002112200019N0020001N1+02531+99999101481ADDGF102991021011008001001001KA1240M+02941MA1999999101431MD1999999+0041REMSYN088AAXX  18004 83498 32595 23604 10253 20285 30143 40148 82100 333 10294 29084 55/// 58004;
0156834980999992011121812004-17733-039250FM-12+000399999V0203601N004110450019N0020001N1+02801+02311101571ADDGF106991031021008001031001KA1240N+02331MA1999999101521MD1999999-0051REMSYN076AAXX  18124 83498 32595 63608 10280 20231 30152 40157 83230 333 20233 59005;
0137834980999992011121818004-17733-039250FM-12+000399999V0203601N003110450019N0020001N1+02821+02291101361ADDGF108991041021008001031021MA1999999101311MD1999999-0041REMSYN070AAXX  18184 83498 32595 83606 10282 20229 30131 40136 84232 333 59004;
0201834980999992011121912004-17733-039250FM-12+000399999V0200501N003110450019N0020001N1+02791+02321101591ADDAA124000891AY121061AY211061GF105991021021008001011001KA1240N+02381MA1999999101541MD1999999+0021MW1031REMSYN088AAXX  19124 83498 21595 50506 10279 20232 30154 40159 70321 82210 333 20238 58002 69984;
0137834980999992011121918004-17733-039250FM-12+000399999V0200501N004610450019N0020001N1+02831+02241101351ADDGF107991031061008001011001MA1999999101301MD1999999-0011REMSYN070AAXX  19184 83498 32595 70509 10283 20224 30130 40135 83610 333 59001;
0196834980999992011122000004-17733-039250FM-12+000399999V0200501N001012200019N0020001N1+02501+02381101531ADDGA1001+999999999GF100991001001999999001001IA1029IA2999+05209KA1240M+02911MA1999999101481MD1999999+0011REMSYN082AAXX  20004 83498 32995 00502 10250 20238 30148 40153 333 10291 39052 55/// 58001;
0156834980999992011122012004-17733-039250FM-12+000399999V0203601N004110450019N0020001N1+02741+02381101701ADDGF106991021011008001031011KA1240N+02381MA1999999101651MD1999999+0111REMSYN076AAXX  20124 83498 32595 63608 10274 20238 30165 40170 82131 333 20238 58011;
0137834980999992011122018004-17733-039250FM-12+000399999V0203601N003610450019N0020001N1+02801+02381101391ADDGF108991021021008001011011MA1999999101341MD1999999+0341REMSYN070AAXX  20184 83498 32595 83607 10280 20238 30134 40139 82211 333 58034;
0203834980999992011122100004-17733-039250FM-12+000399999V0203601N001510450019N0020001N1+02421+02351101511ADDGF106991031051008001011001KA1240M+02981MA1999999999999MD1999999-0021REMSYN088AAXX  21004 83498 32595 63603 10242 20235 38146 40151 83510 333 10298 29088 55/// 59002;EQDQ01+081463APOSP Q02 081463APOSP 
0156834980999992011122112004-17733-039250FM-12+000399999V0203601N003611050019N0020001N1+02831+02201101531ADDGF105991021041008001031011KA1240N+02371MA1999999101481MD1999999-0211REMSYN076AAXX  21124 83498 32595 53607 10283 20220 30148 40153 82431 333 20237 59021;
0137834980999992011122118004-17733-039250FM-12+000399999V0200901N003110450019N0020001N1+02791+02161101261ADDGF107991031051008001031001MA1999999101211MD1999999-0131REMSYN070AAXX  21184 83498 32595 70906 10279 20216 30121 40126 83530 333 59013;
0203834980999992011122200004-17733-039250FM-12+000399999V0200901N001519999999N0020001N1+02491+02361101481ADDGF105991051001008001011001KA1240M+02911MA1999999999999MD1999999-0131REMSYN088AAXX  22004 83498 32595 50903 10249 20236 38143 40148 85010 333 10291 29081 55/// 59013;EQDQ01+081433APOSP Q02 081433APOSP 
0156834980999992011122212004-17733-039250FM-12+000399999V0203601N003610450019N0020001N1+02661+02391101461ADDGF108991021011008001051011KA1240N+02331MA1999999101411MD1999999-0071REMSYN076AAXX  22124 83498 32595 83607 10266 20239 30141 40146 82151 333 20233 59007;
0137834980999992011122218004-17733-039250FM-12+000399999V0203601N003110450019N0020001N1+02781+02401101381ADDGF108991031051008001051999MA1999999101331MD1999999+0121REMSYN070AAXX  22184 83498 32595 83606 10278 20240 30133 40138 8355/ 333 58012;
0168834980999992011122300004-17733-039250FM-12+000399999V0200501N001510450019N0020001N1+02421+02261101551ADDGF105991021011008001031001KA1240M+02881MA1999999101501MD1999999+0071REMSYN088AAXX  23004 83498 32595 50503 10242 20226 30150 40155 82130 333 10288 29087 55/// 58007;
0156834980999992011122312004-17733-039250FM-12+000399999V0203601N001510450019N0020001N1+02711+02281101711ADDGF106991031021008001031001KA1240N+02271MA1999999101661MD1999999+0251REMSYN076AAXX  23124 83498 32595 63603 10271 20228 30166 40171 83230 333 20227 58025;
0137834980999992011122318004-17733-039250FM-12+000399999V0203601N001510450019N0020001N1+02651+02331101511ADDGF106991031041008001011001MA1999999101461MD1999999+0131REMSYN070AAXX  23184 83498 32595 63603 10265 20233 30146 40151 83410 333 58013;
0178834980999992011122400004-17733-039250FM-12+000399999V0209999C000012200019N0020001N1+02421+02231101701ADDGA1001+999999999GF100991001001999999001001KA1240M+02891MA1999999101681MD1999999-0151REMSYN082AAXX  24004 83498 32995 00000 10242 20223 30168 40170 333 10289 29085 55/// 59015;
0156834980999992011122412004-17733-039250FM-12+000399999V0200501N003110450019N0020001N1+02761+02341101811ADDGF106991021021008001051011KA1240N+02181MA1999999101761MD1999999+0101REMSYN076AAXX  24124 83498 32595 60506 10276 20234 30176 40181 82251 333 20218 58010;
0137834980999992011122418004-17733-039250FM-12+000399999V0200501N003612200019N0020001N1+02881+02371101561ADDGF102991021011008001001001MA1999999101511MD1999999+0051REMSYN070AAXX  24184 83498 32595 20507 10288 20237 30151 40156 82100 333 58005;
0175834980999992011122512004-17733-039250FM-12+000399999V0200901N000519999999N0020001N1+02771+02341101741ADDGF105991999021008001001001KA1240N+02171MA1999999101691MD1999999-0131REMSYN076AAXX  25124 83498 32595 50901 10277 20234 30169 40174 83200 333 20217 59013;EQDQ01+000032SCOTLC
0137834980999992011122518004-17733-039250FM-12+000399999V0200901N003612200019N0020001N1+02901+02271101501ADDGF102991021011008001051001MA1999999101451MD1999999-0061REMSYN070AAXX  25184 83498 32595 20907 10290 20227 30145 40150 82150 333 59006;
0184834980999992011122600004-17733-039250FM-12+000399999V0200901N000512200019N0020001N1+02381+02181101661ADDGA1001+999999999GF100991001001999999001001IA1029KA1240M+02961MA1999999101611MD1999999+0031REMSYN082AAXX  26004 83498 32995 00901 10238 20218 30161 40166 333 10296 39084 55/// 58003;
0156834980999992011122612004-17733-039250FM-12+000399999V0203601N001010450019N0020001N1+02661+02311101621ADDGF106991031021008001051001KA1240N+02141MA1999999101571MD1999999-0121REMSYN076AAXX  26124 83498 32595 63602 10266 20231 30157 40162 83250 333 20214 59012;
0137834980999992011122618004-17733-039250FM-12+000399999V0200901N002612200019N0020001N1+02901+02501101511ADDGF105991041011008001001011MA1999999101461MD1999999+0011REMSYN070AAXX  26184 83498 32595 50905 10290 20250 30146 40151 84101 333 58001;
0168834980999992011122700004-17733-039250FM-12+000399999V0200501N000512200019N0020001N1+02481+02341101771ADDGF102991021011008001001001KA1240M+03031MA1999999101721MD1999999+0111REMSYN088AAXX  27004 83498 32595 20501 10248 20234 30172 40177 82100 333 10303 29086 55/// 58011;
0156834980999992011122712004-17733-039250FM-12+000399999V0203601N003110450019N0020001N1+02841+02241101811ADDGF105991021021008001011001KA1240N+02191MA1999999101761MD1999999+0191REMSYN076AAXX  27124 83498 32595 53606 10284 20224 30176 40181 82210 333 20219 58019;
0137834980999992011122718004-17733-039250FM-12+000399999V0200501N002112200019N0020001N1+02941+02361101571ADDGF102991011011008001001011MA1999999101521MD1999999+0141REMSYN070AAXX  27184 83498 32595 20504 10294 20236 30152 40157 81101 333 58014;
0178834980999992011122800004-17733-039250FM-12+000399999V0200501N000512200019N0020001N1+02501+02341101641ADDGA1001+999999999GF100991001001999999001001KA1240M+02991MA1999999101591MD1999999-0131REMSYN082AAXX  28004 83498 32995 00501 10250 20234 30159 40164 333 10299 29081 55/// 59013;
0156834980999992011122812004-17733-039250FM-12+000399999V0203601N004110450019N0020001N1+02721+02371101711ADDGF108991041021008001031011KA1240N+02321MA1999999101661MD1999999-0101REMSYN076AAXX  28124 83498 32595 83608 10272 20237 30166 40171 84231 333 20232 59010;
0137834980999992011122818004-17733-039250FM-12+000399999V0203601N006712200019N0020001N1+02861+02371101301ADDGF104991021011008001001011MA1999999101251MD1999999-0271REMSYN070AAXX  28184 83498 32595 43613 10286 20237 30125 40130 82101 333 59027;
0168834980999992011122900004-17733-039250FM-12+000399999V0203601N003612200019N0020001N1+02541+02401101391ADDGF103991031011008001001001KA1240M+03031MA1999999101341MD1999999-0251REMSYN088AAXX  29004 83498 32595 33607 10254 20240 30134 40139 83100 333 10303 29085 55/// 59025;
0156834980999992011122912004-17733-039250FM-12+000399999V0200501N006210450019N0020001N1+02881+02301101331ADDGF106991031041008001011001KA1240N+02461MA1999999101281MD1999999-0381REMSYN076AAXX  29124 83498 32595 60512 10288 20230 30128 40133 83410 333 20246 59038;
0165834980999992011122918004-17733-039250FM-12+000399999V0203601N002110450019N0020001N1+02631+02351101331ADDAY191061AY261061GF108991041061008001021999MA1999999101281MD1999999+0031MW1601REMSYN076AAXX  29184 83498 31595 83604 10263 20235 30128 40133 76096 8462/ 333 58003;
0213834980999992011123000004-17733-039250FM-12+000399999V0202701N001510450019N0020001N1+02501+02451101581ADDAA106001091AY191061AY261061GF108991031071008001021999KA1240M+02981MA1999999101531MD1999999+0191MW1601REMSYN100AAXX  30004 83498 21595 82703 10250 20245 30153 40158 76096 8372/ 333 10298 29088 55/// 58019 60011;
0201834980999992011123012004-17733-039250FM-12+000399999V0203601N000510450019N0020001N1+02421+02191101501ADDAA124014091AY161061AY261061GF108991031051008001011999KA1240N+02101MA1999999101451MD1999999+0171MW1211REMSYN088AAXX  30124 83498 21595 83601 10242 20219 30145 40150 72166 8351/ 333 20210 58017 60144;
0137834980999992011123018004-17733-039250FM-12+000399999V0200501N002610450019N0020001N1+02961+02281101271ADDGF105991021011008001031001MA1999999101221MD1999999-0061REMSYN070AAXX  30184 83498 32595 50505 10296 20228 30122 40127 82130 333 59006;
0168834980999992011123100004-17733-039250FM-12+000399999V0200501N001510450019N0020001N1+02461+02321101451ADDGF108991041051008001011999KA1240M+03061MA1999999101401MD1999999-0131REMSYN088AAXX  31004 83498 32595 80503 10246 20232 30140 40145 8451/ 333 10306 29084 55/// 59013;
0156834980999992011123112004-17733-039250FM-12+000399999V0203601N001010450019N0020001N1+02681+02371101481ADDGF107991031061008001031001KA1240N+02431MA1999999101431MD1999999-0021REMSYN076AAXX  31124 83498 32595 73602 10268 20237 30143 40148 83630 333 20243 59002;
0182834980999992011123118004-17733-039250FM-12+000399999V0200501N005110450019N0020001N1+02921+02471101141ADDAA106000391AY121061AY211061GF106991031041008001021001MA1999999101091MD1999999-0131MW1031REMSYN082AAXX  31184 83498 21595 60510 10292 20247 30109 40114 70321 83420 333 59013 69931;
