0168821980999992008010100004-01717-045400FM-12+004499999V0200501N001510450019N0002001N1+02621+02351100971ADDGF106991041041004501011001KA1240M+03041MA1999999100461MD1999999-0011REMSYN088AAXX  01004 82198 32492 60503 10262 20235 30046 40097 84410 333 10304 29082 55032 59001;
0201821980999992008010112004-01717-045400FM-12+004499999V0200901N003110450019N0005001N1+02851+02361101081ADDAA124002091AY101061AY221061GF106991031051004501061041KA1240N+02191MA1999999100571MD1999999-0041MW1281REMSYN088AAXX  01124 82198 21493 60906 10285 20236 30057 40108 72802 83564 333 20219 59004 60024;
0165821980999992008010118004-01717-045400FM-12+004499999V0200701N004610450019N0005001N1+02841+02121100851ADDAY161061AY221061GF108991041031004501061001MA1999999100341MD1999999-0021MW1041REMSYN076AAXX  01184 82198 31493 80709 10284 20212 30034 40085 70462 84360 333 59002;
0168821980999992008010200004-01717-045400FM-12+004499999V0200501N002612200019N0002001N1+02631+02311101111ADDGF104991041021004501001001KA1240M+03111MA1999999100601MD1999999+0141REMSYN088AAXX  02004 82198 32492 40505 10263 20231 30060 40111 84200 333 10311 29077 55038 58014;
0156821980999992008010212004-01717-045400FM-12+004499999V0200501N004610450019N0005001N1+02841+02381101171ADDGF107991041051004501061041KA1240N+02271MA1999999100661MD1999999+0091REMSYN076AAXX  02124 82198 32493 70509 10284 20238 30066 40117 84564 333 20227 58009;
0165821980999992008010218004-01717-045400FM-12+004499999V0200501N003610450019N0005001N1+02941+02331100891ADDAY121061AY221061GF107991041051004501031041MA1999999100381MD1999999+0041MW1041REMSYN076AAXX  02184 82198 31493 70507 10294 20233 30038 40089 70422 84534 333 58004;
0168821980999992008010300004-01717-045400FM-12+004499999V0200501N002612200019N0002001N1+02591+02371101071ADDGF103991021021004501061001KA1240M+03101MA1999999100561MD1999999-0041REMSYN088AAXX  03004 82198 32492 30505 10259 20237 30056 40107 82260 333 10310 29080 55032 59004;
0156821980999992008010312004-01717-045400FM-12+004499999V0200501N003610450019N0010001N1+02851+02291101261ADDGF105991031021004501061001KA1240N+02261MA1999999100751MD1999999+0091REMSYN076AAXX  03124 82198 32494 50507 10285 20229 30075 40126 83260 333 20226 58009;
0182821980999992008010318004-01717-045400FM-12+004499999V0200501N005710450019N0005001N1+02961+02311101001ADDAA106001091AY161061AY221061GF106991031021004501061011MA1999999100491MD1999999+0111MW1041REMSYN082AAXX  03184 82198 21493 60511 10296 20231 30049 40100 70462 83261 333 58011 60011;
0178821980999992008010400004-01717-045400FM-12+004499999V0200501N002112200019N0002001N1+02611+02351101241ADDGA1001+999999999GF100991001001999999001001KA1240M+03101MA1999999100731MD1999999+0171REMSYN082AAXX  04004 82198 32992 00504 10261 20235 30073 40124 333 10310 29078 55078 58017;
0201821980999992008010412004-01717-045400FM-12+004499999V0200901N003110450019N0005001N1+02921+02361101371ADDAA124001091AY101061AY221061GF106991031051004501061041KA1240N+02311MA1999999100851MD1999999+0101MW1281REMSYN088AAXX  04124 82198 21493 60906 10292 20236 30085 40137 72802 83564 333 20231 58010 60014;
0165821980999992008010418004-01717-045400FM-12+004499999V0203601N003110450019N0005001N1+02731+02241101091ADDAY161061AY221061GF107991041031004501041061MA1999999100581MD1999999+0081MW1151REMSYN076AAXX  04184 82198 31493 73606 10273 20224 30058 40109 71562 84346 333 58008;
0178821980999992008010500004-01717-045400FM-12+004499999V0200901N002612200019N0002001N1+02551+02421101301ADDGA1001+999999999GF100991001001999999001001KA1240M+03151MA1999999100791MD1999999+0061REMSYN082AAXX  05004 82198 32992 00905 10255 20242 30079 40130 333 10315 29082 55029 58006;
0184821980999992008010512004-01717-045400FM-12+004499999V0200701N005112200019N0010001N1+02971+02371101291ADDAY101061AY221061GF104991041021004501001001KA1240N+02221MA1999999100781MD1999999+0071MW1041REMSYN082AAXX  05124 82198 31494 40710 10297 20237 30078 40129 70402 84200 333 20222 58007;
0165821980999992008010518004-01717-045400FM-12+004499999V0200701N006210042019N0010001N1+03211+02211100981ADDAY121061AY221061GF105991051021004501001001MA1999999100471MD1999999-0111MW1041REMSYN076AAXX  05184 82198 31494 50712 10321 20221 30047 40098 70422 85200 333 59011;
0178821980999992008010600004-01717-045400FM-12+004499999V0200901N003112200019N0002001N1+02641+02391101171ADDGA1001+999999999GF100991001001999999001001KA1240M+03321MA1999999100661MD1999999-0131REMSYN082AAXX  06004 82198 32992 00906 10264 20239 30066 40117 333 10332 29074 55104 59013;
0184821980999992008010612004-01717-045400FM-12+004499999V0200501N002110450019N0010001N1+02871+02291101251ADDAY101061AY221061GF106991041021004501061001KA1240N+02261MA1999999100741MD1999999-0041MW1041REMSYN082AAXX  06124 82198 31494 60504 10287 20229 30074 40125 70402 84260 333 20226 59004;
0165821980999992008010618004-01717-045400FM-12+004499999V0200501N007710450019N0005001N1+02781+02251100981ADDAY121061AY221061GF107991041031004501061001MA1999999100471MD1999999+0001MW1151REMSYN076AAXX  06184 82198 31493 70515 10278 20225 30047 40098 71522 84360 333 58000;
0178821980999992008010700004-01717-045400FM-12+004499999V0200501N004612200019N0002001N1+02591+02211101141ADDGA1001+999999999GF100991001001999999001001KA1240M+03071MA1999999100631MD1999999-0031REMSYN082AAXX  07004 82198 32992 00509 10259 20221 30063 40114 333 10307 29076 55086 59003;
0184821980999992008010712004-01717-045400FM-12+004499999V0200701N002610450019N0005001N1+02901+02481101211ADDAY101061AY221061GF106991031021004501031011KA1240N+02431MA1999999100701MD1999999-0041MW1041REMSYN082AAXX  07124 82198 31493 60705 10290 20248 30070 40121 70402 83231 333 20243 59004;
0178821980999992008010800004-01717-045400FM-12+004499999V0200901N002112200019N0002001N1+02671+02311101051ADDGA1001+999999999GF100991001001999999001001KA1240M+03151MA1999999100541MD1999999-0091REMSYN082AAXX  08004 82198 32992 00904 10267 20231 30054 40105 333 10315 29076 55067 59009;
0184821980999992008010812004-01717-045400FM-12+004499999V0200901N002110042019N0010001N1+02761+02441101131ADDAY121061AY221061GF107991051051004501031001KA1240N+02311MA1999999100621MD1999999-0081MW1041REMSYN082AAXX  08124 82198 31494 70904 10276 20244 30062 40113 70422 85530 333 20231 59008;
0182821980999992008010818004-01717-045400FM-12+004499999V0200501N004110450019N0010001N1+02781+02401100821ADDAA106011991AY161061AY221061GF107991041051004501021001MA1999999100311MD1999999-0071MW1161REMSYN082AAXX  08184 82198 21494 70508 10278 20240 30031 40082 71662 84520 333 59007 60121;
0168821980999992008010900004-01717-045400FM-12+004499999V0203601N001512200019N0002001N1+02541+02451100881ADDGF103991031001012501061001KA1240M+02971MA1999999100371MD1999999-0171REMSYN088AAXX  09004 82198 32692 33603 10254 20245 30037 40088 83060 333 10297 29088 55005 59017;
0173821980999992008010912004-01717-045400FM-12+004499999V0200501N003110450019N0010001N1+02841+02401100891ADDAA124011991GF106991041021004501041001KA1240N+02261MA1999999100381MD1999999-0241REMSYN082AAXX  09124 82198 22494 60506 10284 20240 30038 40089 84240 333 20226 59024 60124;
0165821980999992008010918004-01717-045400FM-12+004499999V0200501N005110450019N0010001N1+03141+02241100581ADDAY121061AY221061GF105991031021004501061011MA1999999100071MD1999999-0241MW1041REMSYN076AAXX  09184 82198 31494 50510 10314 20224 30007 40058 70422 83261 333 59024;
0178821980999992008011000004-01717-045400FM-12+004499999V0200501N002612200019N0002001N1+02621+02351100831ADDGA1001+999999999GF100991001001999999001001KA1240M+03211MA1999999100321MD1999999-0051REMSYN082AAXX  10004 82198 32992 00505 10262 20235 30032 40083 333 10321 29076 55094 59005;
0156821980999992008011012004-01717-045400FM-12+004499999V0200501N003110450019N0010001N1+02871+02391100971ADDGF106991041021004501041001KA1240N+02071MA1999999100461MD1999999+0081REMSYN076AAXX  10124 82198 32494 60506 10287 20239 30046 40097 84240 333 20207 58008;
0137821980999992008011018004-01717-045400FM-12+004499999V0200501N005710450019N0010001N1+03021+02211100751ADDGF105991031021004501061001MA1999999100241MD1999999+0171REMSYN070AAXX  10184 82198 32494 50511 10302 20221 30024 40075 83260 333 58017;
0178821980999992008011100004-01717-045400FM-12+004499999V0200501N002612200019N0002001N1+02611+02251100871ADDGA1001+999999999GF100991001001999999001001KA1240M+03141MA1999999100361MD1999999+0041REMSYN082AAXX  11004 82198 32992 00505 10261 20225 30036 40087 333 10314 29075 55059 58004;
0156821980999992008011112004-01717-045400FM-12+004499999V0200701N003110042019N0010001N1+02871+02371101051ADDGF106991061021004501001001KA1240N+02261MA1999999100541MD1999999+0081REMSYN076AAXX  11124 82198 32494 60706 10287 20237 30054 40105 86200 333 20226 58008;
0137821980999992008011118004-01717-045400FM-12+004499999V0200501N004612200019N0010001N1+03101+02341100751ADDGF104991031021004501061001MA1999999100241MD1999999+0081REMSYN070AAXX  11184 82198 32494 40509 10310 20234 30024 40075 83260 333 58008;
0178821980999992008011200004-01717-045400FM-12+004499999V0200501N003112200019N0002001N1+02651+02371100981ADDGA1001+999999999GF100991001001999999001001KA1240M+03271MA1999999100471MD1999999+0111REMSYN082AAXX  12004 82198 32992 00506 10265 20237 30047 40098 333 10327 29076 55101 58011;
0156821980999992008011212004-01717-045400FM-12+004499999V0200501N003110450019N0010001N1+02891+02391101041ADDGF106991041021004501061001KA1240N+02321MA1999999100531MD1999999-0011REMSYN076AAXX  12124 82198 32494 60506 10289 20239 30053 40104 84260 333 20232 59001;
0137821980999992008011218004-01717-045400FM-12+004499999V0200501N005110042019N0010001N1+03141+02271100731ADDGF105991051021004501001001MA1999999100221MD1999999-0021REMSYN070AAXX  12184 82198 32494 50510 10314 20227 30022 40073 85200 333 59002;
0178821980999992008011300004-01717-045400FM-12+004499999V0200501N003112200019N0002001N1+02661+02411100881ADDGA1001+999999999GF100991001001999999001001KA1240M+03201MA1999999100371MD1999999-0101REMSYN082AAXX  13004 82198 32992 00506 10266 20241 30037 40088 333 10320 29077 55082 59010;
0156821980999992008011312004-01717-045400FM-12+004499999V0200701N003610042019N0010001N1+02861+02371100951ADDGF107991051031004501041001KA1240N+02361MA1999999100441MD1999999+0091REMSYN076AAXX  13124 82198 32494 70707 10286 20237 30044 40095 85340 333 20236 58009;
0182821980999992008011318004-01717-045400FM-12+004499999V0200501N001010042019N0010001N1+02781+02521100681ADDAA106001091AY161061AY221061GF107991051051004501041001MA1999999100171MD1999999-0051MW1211REMSYN082AAXX  13184 82198 21494 70502 10278 20252 30017 40068 72162 85540 333 59005 60011;
0168821980999992008011400004-01717-045400FM-12+004499999V0200701N003612200019N0002001N1+02641+02351100791ADDGF103991031051004501001001KA1240M+03101MA1999999100281MD1999999-0091REMSYN088AAXX  14004 82198 32492 30707 10264 20235 30028 40079 83500 333 10310 29082 55048 59009;
0173821980999992008011412004-01717-045400FM-12+004499999V0200501N005110042019N0010001N1+02791+02341100981ADDAA124001091GF107991051051004501061001KA1240N+02271MA1999999100471MD1999999+0031REMSYN082AAXX  14124 82198 22494 70510 10279 20234 30047 40098 85560 333 20227 58003 60014;
0165821980999992008011418004-01717-045400FM-12+004499999V0200501N005710042019N0010001N1+02961+02281100671ADDAY121061AY221061GF107991061051004501041001MA1999999100161MD1999999-0011MW1041REMSYN076AAXX  14184 82198 31494 70511 10296 20228 30016 40067 70422 86540 333 59001;
0168821980999992008011500004-01717-045400FM-12+004499999V0200501N002110450019N0002001N1+02661+02371100891ADDGF107991041041004501061001KA1240M+03181MA1999999100381MD1999999+0101REMSYN088AAXX  15004 82198 32492 70504 10266 20237 30038 40089 84460 333 10318 29078 55059 58010;
0201821980999992008011512004-01717-045400FM-12+004499999V0200901N003610042019N0005001N1+02601+02351100971ADDAA124000591AY161061AY221061GF107991061071004501011001KA1240N+02261MA1999999100461MD1999999-0011MW1501REMSYN088AAXX  15124 82198 21493 70907 10260 20235 30046 40097 75062 86710 333 20226 59001 69944;
0182821980999992008011518004-01717-045400FM-12+004499999V0200501N002110042019N0002001N1+02661+02371100751ADDAA106000591AY161061AY221061GF108991061031004501011001MA1999999100241MD1999999+0081MW1171REMSYN082AAXX  15184 82198 21492 80504 10266 20237 30024 40075 71762 86310 333 58008 69961;
0201821980999992008011612004-01717-045400FM-12+004499999V0202001N002110450019N0010001N1+02621+02391100901ADDAA124000591AY101061AY221061GF105991031051004501031041KA1240N+02111MA1999999100391MD1999999-0071MW1281REMSYN088AAXX  16124 82198 21494 52004 10262 20239 30039 40090 72802 83534 333 20211 59007 69964;
0182821980999992008011618004-01717-045400FM-12+004499999V0200901N005710450019N0005001N1+02691+02231100651ADDAA106000591AY121061AY221061GF108991041031004501011041MA1999999100141MD1999999-0101MW1631REMSYN082AAXX  16184 82198 21493 80911 10269 20223 30014 40065 76322 84314 333 59010 69961;
0213821980999992008011700004-01717-045400FM-12+004499999V0200701N003610042019N0002001N1+02591+02371100951ADDAA106000891AY161061AY221061GF108991051021004501011041KA1240M+03131MA1999999100441MD1999999-0011MW1021REMSYN100AAXX  17004 82198 21492 80707 10259 20237 30044 40095 70262 85214 333 10313 29085 55018 59001 69981;
0201821980999992008011712004-01717-045400FM-12+004499999V0201101N001010042019N0005001N1+02701+02391101021ADDAA124002091AY161061AY221061GF108991051051004501031001KA1240N+02251MA1999999100511MD1999999+0121MW1281REMSYN088AAXX  17124 82198 21493 81102 10270 20239 30051 40102 72862 85530 333 20225 58012 60024;
0182821980999992008011718004-01717-045400FM-12+004499999V0200501N004110042019N0005001N1+02381+02261100881ADDAA106006191AY161061AY221061GF108991061031004501021001MA1999999100371MD1999999+0231MW1621REMSYN082AAXX  17184 82198 21493 80508 10238 20226 30037 40088 76262 86320 333 58023 60061;
0213821980999992008011800004-01717-045400FM-12+004499999V0200901N003110042019N0002001N1+02471+02241101111ADDAA106009991AY161061AY221061GF108991051071004501021001KA1240M+03251MA1999999100601MD1999999+0161MW1021REMSYN100AAXX  18004 82198 21492 80906 10247 20224 30060 40111 70262 85720 333 10325 29090 55028 58016 60101;
0201821980999992008011812004-01717-045400FM-12+004499999V0200501N004110450019N0005001N1+02431+02331101281ADDAA124018091AY161061AY221061GF108991041071004501021001KA1240N+02111MA1999999100771MD1999999+0261MW1631REMSYN088AAXX  18124 82198 21493 80508 10243 20233 30077 40128 76362 84720 333 20211 58026 60184;
0137821980999992008011818004-01717-045400FM-12+004499999V0200501N004610450019N0010001N1+02741+02241101021ADDGF107991041071004501061001MA1999999100511MD1999999+0141REMSYN070AAXX  18184 82198 32494 70509 10274 20224 30051 40102 84760 333 58014;
0168821980999992008011900004-01717-045400FM-12+004499999V0200501N001010042019N0002001N1+02551+02331101211ADDGF108991051051004501011001KA1240M+02791MA1999999100701MD1999999+0101REMSYN088AAXX  19004 82198 32492 80502 10255 20233 30070 40121 85510 333 10279 29086 55002 58010;
0201821980999992008011912004-01717-045400FM-12+004499999V0202701N001010450019N0005001N1+02611+02421101161ADDAA124007191AY161061AY241061GF106991031051004501061011KA1240N+02101MA1999999100651MD1999999-0121MW1281REMSYN088AAXX  19124 82198 21493 62702 10261 20242 30065 40116 72864 83561 333 20210 59012 60074;
0165821980999992008011918004-01717-045400FM-12+004499999V0200901N005110450019N0005001N1+02931+02301100941ADDAY121061AY221061GF106991041051004501011011MA1999999100331MD1999999-0221MW1041REMSYN076AAXX  19184 82198 31493 60910 10293 20230 30033 40094 70422 84511 333 59022;
0168821980999992008012000004-01717-045400FM-12+004499999V0200501N003110450019N0002001N1+02631+02391101111ADDGF108991041021004501011001KA1240M+03181MA1999999100601MD1999999-0101REMSYN088AAXX  20004 82198 32492 80506 10263 20239 30060 40111 84210 333 10318 29084 55057 59010;
0184821980999992008012012004-01717-045400FM-12+004499999V0201101N002610450019N0005001N1+02641+02481101111ADDAY101061AY221061GF108991041071004501011001KA1240N+02191MA1999999100601MD1999999-0051MW1281REMSYN082AAXX  20124 82198 31493 81105 10264 20248 30060 40111 72802 84710 333 20219 59005;
0182821980999992008012018004-01717-045400FM-12+004499999V0203601N002610042019N0005001N1+02551+02461100981ADDAA106014091AY191061AY261061GF108991051071004501021001MA1999999100471MD1999999+0141MW1631REMSYN082AAXX  20184 82198 21493 83605 10255 20246 30047 40098 76396 85720 333 58014 60141;
0213821980999992008012100004-01717-045400FM-12+004499999V0202701N000510450019N0002001N1+02481+02411101081ADDAA106003091AY161061AY221061GF108991041051004501021001KA1240M+02941MA1999999100571MD1999999-0031MW1021REMSYN100AAXX  21004 82198 21492 82701 10248 20241 30057 40108 70262 84520 333 10294 29094 55009 59003 60031;
0201821980999992008012112004-01717-045400FM-12+004499999V0202701N000510042019N0010001N1+02621+02411101221ADDAA124017091AY161061AY221061GF108991061051004501011001KA1240N+02031MA1999999100711MD1999999+0111MW1021REMSYN088AAXX  21124 82198 21494 82701 10262 20241 30071 40122 70262 86510 333 20203 58011 60174;
0137821980999992008012118004-01717-045400FM-12+004499999V0200501N005110042019N0010001N1+02891+02271100881ADDGF108991051051004501011001MA1999999100371MD1999999-0101REMSYN070AAXX  21184 82198 32494 80510 10289 20227 30037 40088 85510 333 59010;
0213821980999992008012200004-01717-045400FM-12+004499999V0200501N001510450019N0002001N1+02601+02421101121ADDAA106002091AY191061AY221061GF108991041071004501021001KA1240M+03031MA1999999100611MD1999999+0041MW1631REMSYN100AAXX  22004 82198 21492 80503 10260 20242 30061 40112 76392 84720 333 10303 29085 55010 58004 60021;
0201821980999992008012212004-01717-045400FM-12+004499999V0200501N002110450019N0010001N1+02621+02411101121ADDAA124002091AY151061AY221061GF107991041031004501041001KA1240N+02231MA1999999100611MD1999999-0101MW1281REMSYN088AAXX  22124 82198 21494 70504 10262 20241 30061 40112 72852 84340 333 20223 59010 60024;
0182821980999992008012218004-01717-045400FM-12+004499999V0200501N001510042019N0010001N1+02741+02501100931ADDAA106000891AY151061AY221061GF108991061051004501041999MA1999999100421MD1999999+0051MW1021REMSYN082AAXX  22184 82198 21494 80503 10274 20250 30042 40093 70252 8654/ 333 58005 69981;
0201821980999992008012312004-01717-045400FM-12+004499999V0200701N000510042019N0010001N1+02331+02221101151ADDAA124018091AY161061AY221061GF108991051051004501021999KA1240N+02041MA1999999100641MD1999999+0031MW1211REMSYN088AAXX  23124 82198 21494 80701 10233 20222 30064 40115 72162 8552/ 333 20204 58003 60184;
0182821980999992008012318004-01717-045400FM-12+004499999V0200501N003110450019N0010001N1+02761+02421100891ADDAA106000591AY151061AY221061GF107991041051004501071001MA1999999100381MD1999999-0041MW1151REMSYN082AAXX  23184 82198 21494 70506 10276 20242 30038 40089 71552 84570 333 59004 69961;
0168821980999992008012400004-01717-045400FM-12+004499999V0200501N003110450019N0002001N1+02591+02421100951ADDGF107991041041004501061001KA1240M+02831MA1999999100441MD1999999-0031REMSYN088AAXX  24004 82198 32492 70506 10259 20242 30044 40095 84460 333 10283 29090 55000 59003;
0201821980999992008012412004-01717-045400FM-12+004499999V0200701N002610450019N0010001N1+02811+02461100991ADDAA124006191AY161061AY221061GF106991041021004501061001KA1240N+02101MA1999999100481MD1999999-0161MW1281REMSYN088AAXX  24124 82198 21494 60705 10281 20246 30048 40099 72862 84260 333 20210 59016 60064;
0137821980999992008012418004-01717-045400FM-12+004499999V0200501N005110450019N0010001N1+02861+02461100761ADDGF106991041031004501061001MA1999999100251MD1999999-0131REMSYN070AAXX  24184 82198 32494 60510 10286 20246 30025 40076 84360 333 59013;
0232821980999992008012500004-01717-045400FM-12+004499999V0200501N003610042019N0002001N1+02681+02461100941ADDAA106000091AY151061AY221061GF107991051051004501071001KA1240M+03181MA1999999100431MD1999999-0011MW1021REMSYN100AAXX  25004 82198 21492 70507 10268 20246 30043 40094 70252 85570 333 10318 29084 55057 59001 69921;EQDQ01  00002PRCP06
0192821980999992008012512004-01717-045400FM-12+004499999V0200701N003610042019N0010001N1+02821+02461101021ADDAA124000091GF106991051021004501041001KA1240N+02281MA1999999100511MD1999999+0031REMSYN082AAXX  25124 82198 22494 60707 10282 20246 30051 40102 85240 333 20228 58003 69924;EQDQ01  00002PRCP24
0165821980999992008012518004-01717-045400FM-12+004499999V0200501N005111050019N0010001N1+02961+02421100771ADDAY121061AY221061GF105991021021004501061021MA1999999100261MD1999999+0011MW1041REMSYN076AAXX  25184 82198 31494 50510 10296 20242 30026 40077 70422 82262 333 58001;
0168821980999992008012600004-01717-045400FM-12+004499999V0200701N003112200019N0002001N1+02681+02391100971ADDGF103991021021004501061001KA1240M+03141MA1999999100461MD1999999+0031REMSYN088AAXX  26004 82198 32492 30706 10268 20239 30046 40097 82260 333 10314 29080 55095 58003;
0184821980999992008012612004-01717-045400FM-12+004499999V0200501N002610450019N0010001N1+02781+02381101101ADDAY121061AY201061GF107991041031004501031001KA1240N+02301MA1999999100591MD1999999+0081MW1041REMSYN082AAXX  26124 82198 31494 70505 10278 20238 30059 40110 70420 84330 333 20230 58008;
0137821980999992008012618004-01717-045400FM-12+004499999V0200501N005110450019N0010001N1+03001+02441100791ADDGF106991031021004501041021MA1999999100281MD1999999+0021REMSYN070AAXX  26184 82198 32494 60510 10300 20244 30028 40079 83242 333 58002;
0213821980999992008012700004-01717-045400FM-12+004499999V0200701N003110450019N0002001N1+02621+02371101031ADDAA106002091AY151061AY221061GF106991041051004501021001KA1240M+03131MA1999999100521MD1999999+0061MW1631REMSYN100AAXX  27004 82198 21492 60706 10262 20237 30052 40103 76352 84520 333 10313 29081 55069 58006 60021;
0182821980999992008012718004-01717-045400FM-12+004499999V0200501N003610042019N0005001N1+02501+02321100871ADDAA106013091AY161061AY251061GF108991051021004501999999MA1999999100361MD1999999+0081MW1621REMSYN082AAXX  27184 82198 21493 80507 10250 20232 30036 40087 76265 852// 333 58008 60131;
0168821980999992008012800004-01717-045400FM-12+004499999V0209999C000010450019N0002001N1+02521+02401101031ADDGF107991041051004501071001KA1240M+02711MA1999999100521MD1999999-0071REMSYN088AAXX  28004 82198 32492 70000 10252 20240 30052 40103 84570 333 10271 29093 55000 59007;
0201821980999992008012812004-01717-045400FM-12+004499999V0202301N001510450019N0010001N1+02591+02351101061ADDAA124030091AY161061AY221061GF107991041091004501011001KA1240N+02091MA1999999100551MD1999999-0111MW1021REMSYN088AAXX  28124 82198 21494 72303 10259 20235 30055 40106 70262 84910 333 20209 59011 60304;
0182821980999992008012818004-01717-045400FM-12+004499999V0200701N002110042019N0010001N1+02541+02401100791ADDAA106005191AY161061AY251061GF107991051051004501071001MA1999999100281MD1999999-0081MW1621REMSYN082AAXX  28184 82198 21494 70704 10254 20240 30028 40079 76265 85570 333 59008 60051;
0168821980999992008012900004-01717-045400FM-12+004499999V0200901N001512200019N0002001N1+02521+02381100901ADDGF104991031031004501071001KA1240M+02781MA1999999100391MD1999999-0131REMSYN088AAXX  29004 82198 32492 40903 10252 20238 30039 40090 83370 333 10278 29091 55000 59013;
0201821980999992008012912004-01717-045400FM-12+004499999V0200701N002110450019N0010001N1+02761+02561100951ADDAA124005191AY141061AY221061GF106991031021004501061061KA1240N+02091MA1999999100441MD1999999-0111MW1281REMSYN088AAXX  29124 82198 21494 60704 10276 20256 30044 40095 72842 83266 333 20209 59011 60054;
0182821980999992008012918004-01717-045400FM-12+004499999V0203601N004611050019N0010001N1+02991+02421100641ADDAA106002091AY161061AY221061GF105991021021004501041061MA1999999100131MD1999999-0151MW1011REMSYN082AAXX  29184 82198 21494 53609 10299 20242 30013 40064 70162 82246 333 59015 60021;
0178821980999992008013000004-01717-045400FM-12+004499999V0200501N002612200019N0002001N1+02611+02401100851ADDGA1001+999999999GF100991001001999999001001KA1240M+03101MA1999999100341MD1999999-0051REMSYN082AAXX  30004 82198 32992 00505 10261 20240 30034 40085 333 10310 29084 55054 59005;
0201821980999992008013012004-01717-045400FM-12+004499999V0203601N002110450019N0010001N1+02971+02531100861ADDAA124003091AY151061AY241061GF106991031051004501061041KA1240N+02191MA1999999100351MD1999999-0091MW1281REMSYN088AAXX  30124 82198 21494 63604 10297 20253 30035 40086 72854 83564 333 20219 59009 60034;
0182821980999992008013018004-01717-045400FM-12+004499999V0203601N005110042019N0010001N1+02861+02421100531ADDAA106000591AY161061AY221061GF108991051071004501011001MA1999999100021MD1999999-0111MW1031REMSYN082AAXX  30184 82198 21494 83610 10286 20242 30002 40053 70362 85710 333 59011 69941;
0168821980999992008013100004-01717-045400FM-12+004499999V0200501N002610042019N0002001N1+02651+02401100761ADDGF108991061021004501061001KA1240M+02981MA1999999100251MD1999999-0091REMSYN088AAXX  31004 82198 32492 80505 10265 20240 30025 40076 86260 333 10298 29083 55018 59009;
0201821980999992008013112004-01717-045400FM-12+004499999V0200701N001512200019N0010001N1+02901+02341100761ADDAA124000591AY141061AY221061GF105991031021004501001061KA1240N+02231MA1999999100251MD1999999-0101MW1281REMSYN088AAXX  31124 82198 21494 50703 10290 20234 30025 40076 72842 83206 333 20223 59010 69944;
0165821980999992008013118004-01717-045400FM-12+004499999V0200501N003610042019N0010001N1+02941+02281100521ADDAY121061AY221061GF108991051051004501011061MA1999999100011MD1999999-0081MW1281REMSYN076AAXX  31184 82198 31494 80507 10294 20228 30001 40052 72822 85516 333 59008;
0168821980999992008020100004-01717-045400FM-12+004499999V0200501N002110075019N0002001N1+02631+02371100841ADDGF108991061071008001061001KA1240M+03251MA1999999100331MD1999999+0081REMSYN088AAXX  01004 82198 32592 80504 10263 20237 30033 40084 86760 333 10325 29078 55067 58008;
0182821980999992008020118004-01717-045400FM-12+004499999V0200701N000510042019N0005001N1+02471+02241100931ADDAA106003091AY161061AY221061GF108991061031004501021001MA1999999100421MD1999999+0411MW1631REMSYN082AAXX  01184 82198 21493 80701 10247 20224 30042 40093 76362 86320 333 58041 60031;
0213821980999992008020200004-01717-045400FM-12+004499999V0200501N003110042019N0002001N1+02371+02281101061ADDAA106004191AY161061AY221061GF108991061071004501021001KA1240M+02711MA1999999100551MD1999999+0221MW1021REMSYN100AAXX  02004 82198 21492 80506 10237 20228 30055 40106 70262 86720 333 10271 29093 55000 58022 60041;
0201821980999992008020212004-01717-045400FM-12+004499999V0200501N001510450019N0010001N1+02621+02391101151ADDAA124006191AY101061AY221061GF107991041051004501031061KA1240N+01971MA1999999100641MD1999999+0101MW1281REMSYN088AAXX  02124 82198 21494 70503 10262 20239 30064 40115 72802 84536 333 20197 58010 60064;
0213821980999992008020300004-01717-045400FM-12+004499999V0203601N002112200019N0002001N1+02511+02311101181ADDAA106001091AY161061AY211061GF103991031011004501001001KA1240M+02961MA1999999100671MD1999999+0121MW1011REMSYN100AAXX  03004 82198 21492 33604 10251 20231 30067 40118 70161 83100 333 10296 29090 55011 58012 60011;
0201821980999992008020312004-01717-045400FM-12+004499999V0200901N001012200019N0010001N1+02741+02361101291ADDAA124041991AY161061AY211061GF106991031021004501001041KA1240N+02451MA1999999100781MD1999999+0141MW1031REMSYN088AAXX  03124 82198 21494 60902 10274 20236 30078 40129 70361 83204 333 20245 58014 60424;
0165821980999992008020318004-01717-045400FM-12+004499999V0200501N002610450019N0005001N1+03101+02411100921ADDAY121061AY221061GF106991031021004501041061MA1999999100411MD1999999-0021MW1041REMSYN076AAXX  03184 82198 31493 60505 10310 20241 30041 40092 70422 83246 333 59002;
0168821980999992008020400004-01717-045400FM-12+004499999V0200501N002612200019N0002001N1+02661+02391101191ADDGF103991011011004501061001KA1240M+03181MA1999999100681MD1999999+0011REMSYN088AAXX  04004 82198 32492 30505 10266 20239 30068 40119 81160 333 10318 29079 55088 58001;
0137821980999992008020418004-01717-045400FM-12+004499999V0200501N003610450019N0010001N1+03071+02321100881ADDGF106991031021004501061041MA1999999100371MD1999999-0041REMSYN070AAXX  04184 82198 32494 60507 10307 20232 30037 40088 83264 333 59004;
0156821980999992008020512004-01717-045400FM-12+004499999V0200501N004610450019N0010001N1+02821+02381101241ADDGF106991041021004501061001KA1240N+02241MA1999999100731MD1999999+0091REMSYN076AAXX  05124 82198 32494 60509 10282 20238 30073 40124 84260 333 20224 58009;
0137821980999992008020518004-01717-045400FM-12+004499999V0200501N005110450019N0010001N1+02841+02351100881ADDGF106991041021004501041001MA1999999100371MD1999999+0001REMSYN070AAXX  05184 82198 32494 60510 10284 20235 30037 40088 84240 333 58000;
0168821980999992008020600004-01717-045400FM-12+004499999V0200901N002110042019N0002001N1+02651+02391101141ADDGF107991051051004501041001KA1240M+03021MA1999999100631MD1999999+0051REMSYN088AAXX  06004 82198 32492 70904 10265 20239 30063 40114 85540 333 10302 29081 55065 58005;
0156821980999992008020612004-01717-045400FM-12+004499999V0200501N004610450019N0010001N1+02851+02441101261ADDGF105991041021004501061001KA1240N+02261MA1999999100751MD1999999+0021REMSYN076AAXX  06124 82198 32494 50509 10285 20244 30075 40126 84260 333 20226 58002;
0137821980999992008020618004-01717-045400FM-12+004499999V0200501N005110450019N0010001N1+03061+02351100991ADDGF105991041021004501061001MA1999999100481MD1999999+0111REMSYN070AAXX  06184 82198 32494 50510 10306 20235 30048 40099 84260 333 58011;
0168821980999992008020700004-01717-045400FM-12+004499999V0200501N003112200019N0002001N1+02661+02391101171ADDGF103991031001012501061001KA1240M+03201MA1999999100661MD1999999+0031REMSYN088AAXX  07004 82198 32692 30506 10266 20239 30066 40117 83060 333 10320 29079 55094 58003;
0184821980999992008020712004-01717-045400FM-12+004499999V0200501N003110450019N0010001N1+02911+02411101281ADDAY121061AY211061GF105991041021004501061001KA1240N+02251MA1999999100771MD1999999+0021MW1041REMSYN082AAXX  07124 82198 31494 50506 10291 20241 30077 40128 70421 84260 333 20225 58002;
0137821980999992008020718004-01717-045400FM-12+004499999V0200501N004612200019N0010001N1+03141+02401101031ADDGF104991041021004501001001MA1999999100521MD1999999+0041REMSYN070AAXX  07184 82198 32494 40509 10314 20240 30052 40103 84200 333 58004;
0168821980999992008020800004-01717-045400FM-12+004499999V0200701N002612200019N0002001N1+02671+02391101221ADDGF103991031001012501061001KA1240M+03261MA1999999100711MD1999999+0051REMSYN088AAXX  08004 82198 32692 30705 10267 20239 30071 40122 83060 333 10326 29077 55104 58005;
0184821980999992008020812004-01717-045400FM-12+004499999V0200901N004110042019N0010001N1+02891+02371101251ADDAY121061AY221061GF106991051021004501041001KA1240N+02231MA1999999100741MD1999999-0031MW1041REMSYN082AAXX  08124 82198 31494 60908 10289 20237 30074 40125 70422 85240 333 20223 59003;
0165821980999992008020818004-01717-045400FM-12+004499999V0200501N006210450019N0010001N1+03141+02241100971ADDAY121061AY221061GF105991031021004501061011MA1999999100461MD1999999-0061MW1041REMSYN076AAXX  08184 82198 31494 50512 10314 20224 30046 40097 70422 83261 333 59006;
0168821980999992008020900004-01717-045400FM-12+004499999V0200701N002112200019N0002001N1+02661+02371101051ADDGF102991021021004501001001KA1240M+03281MA1999999100541MD1999999-0171REMSYN088AAXX  09004 82198 32492 20704 10266 20237 30054 40105 82200 333 10328 29075 55104 59017;
0184821980999992008020912004-01717-045400FM-12+004499999V0200501N005110042019N0002001N1+02901+02341101071ADDAY121061AY211061GF106991051021004501061001KA1240N+02281MA1999999100561MD1999999-0181MW1041REMSYN082AAXX  09124 82198 31492 60510 10290 20234 30056 40107 70421 85260 333 20228 59018;
0165821980999992008020918004-01717-045400FM-12+004499999V0200901N004612200019N0010001N1+03171+02281100801ADDAY121061AY221061GF104991041021004501001001MA1999999100291MD1999999-0171MW1041REMSYN076AAXX  09184 82198 31494 40909 10317 20228 30029 40080 70422 84200 333 59017;
0184821980999992008021012004-01717-045400FM-12+004499999V0200801N004612200019N0010001N1+02841+02401101041ADDAY121061AY221061GF104991041021004501001001KA1240N+02361MA1999999100531MD1999999-0031MW1041REMSYN082AAXX  10124 82198 31494 40809 10284 20240 30053 40104 70422 84200 333 20236 59003;
0165821980999992008021018004-01717-045400FM-12+004499999V0200501N005110450019N0010001N1+03081+02421100771ADDAY121061AY221061GF105991041021004501041001MA1999999100261MD1999999-0031MW1041REMSYN076AAXX  10184 82198 31494 50510 10308 20242 30026 40077 70422 84240 333 59003;
0168821980999992008021100004-01717-045400FM-12+004499999V0200501N004610450019N0002001N1+02721+02411100981ADDGF106991031051004501061001KA1240M+03191MA1999999100471MD1999999+0041REMSYN088AAXX  11004 82198 32492 60509 10272 20241 30047 40098 83560 333 10319 29078 55089 58004;
0156821980999992008021112004-01717-045400FM-12+004499999V0200501N003110450019N0010001N1+02861+02441101081ADDGF106991031021004501031011KA1240N+02311MA1999999100571MD1999999+0041REMSYN076AAXX  11124 82198 32494 60506 10286 20244 30057 40108 83231 333 20231 58004;
0201821980999992008021118004-01717-045400FM-12+004499999V0200901N003110042019N0010001N1+02811+02361100821ADDAA106000091AY151061AY291061GF108991051031004501011999MA1999999100311MD1999999+0051MW1021REMSYN082AAXX  11184 82198 21494 80906 10281 20236 30031 40082 70259 8531/ 333 58005 69921;EQDQ01  00002PRCP06
0168821980999992008021200004-01717-045400FM-12+004499999V0200501N002110450019N0002001N1+02651+02371100981ADDGF107991041071004501011001KA1240M+03081MA1999999100471MD1999999+0001REMSYN088AAXX  12004 82198 32492 70504 10265 20237 30047 40098 84710 333 10308 29081 55032 58000;
0201821980999992008021212004-01717-045400FM-12+004499999V0201101N001010450019N0005001N1+02471+02281101091ADDAA124005191AY161061AY221061GF107991041051004501011041KA1240N+02211MA1999999100581MD1999999+0011MW1211REMSYN088AAXX  12124 82198 21493 71102 10247 20228 30058 40109 72162 84514 333 20221 58001 60054;
0137821980999992008021218004-01717-045400FM-12+004499999V0200501N005710450019N0010001N1+03111+02311100791ADDGF106991041021004501061001MA1999999100281MD1999999-0031REMSYN070AAXX  12184 82198 32494 60511 10311 20231 30028 40079 84260 333 59003;
0213821980999992008021300004-01717-045400FM-12+004499999V0200701N002610450019N0002001N1+02621+02411101011ADDAA106008991AY161061AY221061GF106991041071004501061001KA1240M+03171MA1999999100501MD1999999+0031MW1131REMSYN100AAXX  13004 82198 21492 60705 10262 20241 30050 40101 71362 84760 333 10317 29083 55043 58003 60091;
0201821980999992008021312004-01717-045400FM-12+004499999V0200701N003110450019N0005001N1+02731+02371100971ADDAA124010991AY161061AY221061GF107991041051004501031001KA1240N+02201MA1999999100461MD1999999-0121MW1281REMSYN088AAXX  13124 82198 21493 70706 10273 20237 30046 40097 72862 84530 333 20220 59012 60114;
0137821980999992008021318004-01717-045400FM-12+004499999V0203601N005110450019N0010001N1+02991+02341100811ADDGF106991031021004501011091MA1999999100301MD1999999+0021REMSYN070AAXX  13184 82198 32494 63610 10299 20234 30030 40081 83219 333 58002;
0168821980999992008021400004-01717-045400FM-12+004499999V0200501N002610450019N0002001N1+02641+02411100971ADDGF107991041011004501011001KA1240M+03231MA1999999100461MD1999999-0041REMSYN088AAXX  14004 82198 32492 70505 10264 20241 30046 40097 84110 333 10323 29081 55028 59004;
0184821980999992008021412004-01717-045400FM-12+004499999V0200501N001510450019N0005001N1+02811+02401101101ADDAY141061AY221061GF106991031051004501061011KA1240N+02211MA1999999100591MD1999999+0131MW1281REMSYN082AAXX  14124 82198 31493 60503 10281 20240 30059 40110 72842 83561 333 20221 58013;
0182821980999992008021418004-01717-045400FM-12+004499999V0200501N003610450019N0005001N1+02891+02351100821ADDAA106000891AY161061AY221061GF106991041071004501061011MA1999999100311MD1999999+0011MW1151REMSYN082AAXX  14184 82198 21493 60507 10289 20235 30031 40082 71562 84761 333 58001 69981;
0168821980999992008021500004-01717-045400FM-12+004499999V0200501N002610450019N0002001N1+02651+02371101041ADDGF106991041071004501011001KA1240M+03071MA1999999100531MD1999999+0071REMSYN088AAXX  15004 82198 32492 60505 10265 20237 30053 40104 84710 333 10307 29082 55037 58007;
0201821980999992008021512004-01717-045400FM-12+004499999V0203201N002610450019N0005001N1+02391+02331101131ADDAA124017091AY191061AY261061GF108991041071004501021999KA1240N+02171MA1999999100621MD1999999+0091MW1631REMSYN088AAXX  15124 82198 21493 83205 10239 20233 30062 40113 76396 8472/ 333 20217 58009 60174;
0182821980999992008021518004-01717-045400FM-12+004499999V0209999C000010450019N0005001N1+02351+02261100851ADDAA106025991AY161061AY261061GF107991031071004501021011MA1999999100341MD1999999+0031MW1631REMSYN082AAXX  15184 82198 21493 70000 10235 20226 30034 40085 76366 83721 333 58003 60261;
0168821980999992008021600004-01717-045400FM-12+004499999V0201401N002110450019N0002001N1+02331+02221101041ADDGF108991041051012501011999KA1240M+02731MA1999999100531MD1999999+0001REMSYN088AAXX  16004 82198 32692 81404 10233 20222 30053 40104 8451/ 333 10273 29094 55000 58000;
0201821980999992008021612004-01717-045400FM-12+004499999V0209999C000010450019N0010001N1+02441+02321101041ADDAA124025991AY151061AY221061GF108991041031004501011999KA1240N+02031MA1999999100531MD1999999-0091MW1281REMSYN088AAXX  16124 82198 21494 80000 10244 20232 30053 40104 72852 8431/ 333 20203 59009 60264;
0137821980999992008021618004-01717-045400FM-12+004499999V0200501N002110450019N0010001N1+03041+02281100751ADDGF106991031021004501041041MA1999999100241MD1999999-0101REMSYN070AAXX  16184 82198 32494 60504 10304 20228 30024 40075 83244 333 59010;
0213821980999992008021700004-01717-045400FM-12+004499999V0200901N002610075019N0002001N1+02581+02381101011ADDAA106000591AY161061AY221061GF108991051051008001021999KA1240M+03141MA1999999100501MD1999999-0031MW1031REMSYN100AAXX  17004 82198 21592 80905 10258 20238 30050 40101 70362 8552/ 333 10314 29084 55021 59003 69941;
0201821980999992008021712004-01717-045400FM-12+004499999V0201801N002610450019N0010001N1+02641+02291101081ADDAA124000591AY151061AY221061GF106991031021004501031041KA1240N+01971MA1999999100571MD1999999+0031MW1011REMSYN088AAXX  17124 82198 21494 61805 10264 20229 30057 40108 70152 83234 333 20197 58003 69964;
0182821980999992008021718004-01717-045400FM-12+004499999V0200701N002610450019N0010001N1+02841+02331100921ADDAA106002091AY161061AY221061GF108991041071004501011001MA1999999100411MD1999999+0171MW1031REMSYN082AAXX  17184 82198 21494 80705 10284 20233 30041 40092 70362 84710 333 58017 60021;
0168821980999992008021800004-01717-045400FM-12+004499999V0200701N001510450019N0002001N1+02581+02371101161ADDGF108991041051008001011999KA1240M+03081MA1999999100651MD1999999+0151REMSYN088AAXX  18004 82198 32592 80703 10258 20237 30065 40116 8451/ 333 10308 29083 55038 58015;
0201821980999992008021812004-01717-045400FM-12+004499999V0200901N002610450019N0005001N1+02301+02201101221ADDAA124011991AY161061AY221061GF108991041051004501011999KA1240N+02051MA1999999100711MD1999999+0141MW1021REMSYN088AAXX  18124 82198 21493 80905 10230 20220 30071 40122 70262 8451/ 333 20205 58014 60124;
0201821980999992008021818004-01717-045400FM-12+004499999V0200901N002610450019N0010001N1+02801+02381101011ADDAA106000091AY151061AY221061GF108991041071004501061041MA1999999100501MD1999999+0091MW1021REMSYN082AAXX  18184 82198 21494 80905 10280 20238 30050 40101 70252 84764 333 58009 69921;EQDQ01  00002PRCP06
0232821980999992008021900004-01717-045400FM-12+004499999V0200901N002610075019N0002001N1+02571+02461101151ADDAA106000091AY151061AY221061GF107991051071008001011001KA1240M+02861MA1999999100641MD1999999-0011MW1021REMSYN100AAXX  19004 82198 21592 70905 10257 20246 30064 40115 70252 85710 333 10286 29089 55000 59001 69921;EQDQ01  00002PRCP06
0173821980999992008021912004-01717-045400FM-12+004499999V0200501N003610042019N0010001N1+02881+02441101251ADDAA124000591GF106991051021004501041001KA1240N+02131MA1999999100741MD1999999+0031REMSYN082AAXX  19124 82198 22494 60507 10288 20244 30074 40125 85240 333 20213 58003 69944;
0137821980999992008021918004-01717-045400FM-12+004499999V0200701N003610450019N0010001N1+03011+02291100871ADDGF105991031021004501041011MA1999999100361MD1999999-0141REMSYN070AAXX  19184 82198 32494 50707 10301 20229 30036 40087 83241 333 59014;
0168821980999992008022000004-01717-045400FM-12+004499999V0200901N002110450019N0002001N1+02641+02411101061ADDGF106991031021004501061001KA1240M+03181MA1999999100551MD1999999-0091REMSYN088AAXX  20004 82198 32492 60904 10264 20241 30055 40106 83260 333 10318 29079 55074 59009;
0201821980999992008022012004-01717-045400FM-12+004499999V0200501N003110450019N0010001N1+02821+02401101131ADDAA124000891AY151061AY221061GF106991031031004501041011KA1240N+02171MA1999999100621MD1999999-0121MW1031REMSYN088AAXX  20124 82198 21494 60506 10282 20240 30062 40113 70352 83341 333 20217 59012 69974;
0182821980999992008022018004-01717-045400FM-12+004499999V0200701N003610042019N0010001N1+02781+02361100851ADDAA106000391AY151061AY221061GF108991051051004501041999MA1999999100341MD1999999-0021MW1151REMSYN082AAXX  20184 82198 21494 80707 10278 20236 30034 40085 71552 8554/ 333 59002 69931;
0213821980999992008022100004-01717-045400FM-12+004499999V0200901N001010042019N0002001N1+02541+02441101091ADDAA106001091AY161061AY221061GF108991051051004501021999KA1240M+03011MA1999999100581MD1999999+0031MW1151REMSYN100AAXX  21004 82198 21492 80902 10254 20244 30058 40109 71562 8552/ 333 10301 29086 55042 58003 60011;
0201821980999992008022212004-01717-045400FM-12+004499999V0200701N000510042019N0010001N1+02511+02381101321ADDAA124005191AY161061AY221061GF107991051041004501041001KA1240N+02061MA1999999100811MD1999999+0081MW1021REMSYN088AAXX  22124 82198 21494 70701 10251 20238 30081 40132 70262 85440 333 20206 58008 60054;
0137821980999992008022218004-01717-045400FM-12+004499999V0200701N002110450019N0010001N1+02901+02371101031ADDGF106991041031004501061001MA1999999100521MD1999999-0011REMSYN070AAXX  22184 82198 32494 60704 10290 20237 30052 40103 84360 333 59001;
0213821980999992008022300004-01717-045400FM-12+004499999V0200501N001510042019N0002001N1+02611+02391101261ADDAA106000891AY151061AY221061GF106991051061004501041001KA1240M+03081MA1999999100751MD1999999-0031MW1021REMSYN100AAXX  23004 82198 21492 60503 10261 20239 30075 40126 70252 85640 333 10308 29086 55028 59003 69971;
0173821980999992008022312004-01717-045400FM-12+004499999V0200501N002612200019N0010001N1+02881+02371101391ADDAA124000891GF105991041021004501001011KA1240N+02231MA1999999100881MD1999999+0071REMSYN082AAXX  23124 82198 22494 50505 10288 20237 30088 40139 84201 333 20223 58007 69974;
0182821980999992008022318004-01717-045400FM-12+004499999V0200501N004110450019N0010001N1+03011+02371101021ADDAA106000591AY151061AY221061GF105991031021004501041011MA1999999100511MD1999999-0011MW1021REMSYN082AAXX  23184 82198 21494 50508 10301 20237 30051 40102 70252 83241 333 59001 69941;
0168821980999992008022400004-01717-045400FM-12+004499999V0200501N003612200019N0002001N1+02671+02391101231ADDGF104991021011004501061001KA1240M+03121MA1999999100721MD1999999-0031REMSYN088AAXX  24004 82198 32492 40507 10267 20239 30072 40123 82160 333 10312 29078 55082 59003;
0173821980999992008022412004-01717-045400FM-12+004499999V0200501N004612200019N0010001N1+02891+02371101311ADDAA124000591GF104991041021004501001001KA1240N+02281MA1999999100801MD1999999-0081REMSYN082AAXX  24124 82198 22494 40509 10289 20237 30080 40131 84200 333 20228 59008 69944;
0137821980999992008022418004-01717-045400FM-12+004499999V0200501N005112200019N0010001N1+03061+02381101021ADDGF104991041021004501001001MA1999999100511MD1999999+0001REMSYN070AAXX  24184 82198 32494 40510 10306 20238 30051 40102 84200 333 58000;
0168821980999992008022500004-01717-045400FM-12+004499999V0200501N003112200019N0002001N1+02661+02391101111ADDGF103991031021004501001001KA1240M+03161MA1999999100601MD1999999-0121REMSYN088AAXX  25004 82198 32492 30506 10266 20239 30060 40111 83200 333 10316 29078 55108 59012;
0156821980999992008022512004-01717-045400FM-12+004499999V0200501N004612200019N0010001N1+02941+02491101231ADDGF104991041021004501001001KA1240N+02181MA1999999100721MD1999999-0081REMSYN076AAXX  25124 82198 32494 40509 10294 20249 30072 40123 84200 333 20218 59008;
0137821980999992008022518004-01717-045400FM-12+004499999V0200501N004612200019N0010001N1+03061+02351100951ADDGF103991021021004501061001MA1999999100441MD1999999-0071REMSYN070AAXX  25184 82198 32494 30509 10306 20235 30044 40095 82260 333 59007;
0232821980999992008022600004-01717-045400FM-12+004499999V0200701N002612200019N0002001N1+02641+02411101031ADDAA106000091AY151061AY221061GF103991031011004501001001KA1240M+03221MA1999999100521MD1999999-0081MW1011REMSYN100AAXX  26004 82198 21492 30705 10264 20241 30052 40103 70152 83100 333 10322 29079 55099 59008 69911;EQDQ01  00002PRCP06
0192821980999992008022612004-01717-045400FM-12+004499999V0200501N004110450019N0010001N1+02971+02421101101ADDAA124000091GF106991041021004501031001KA1240N+02351MA1999999100591MD1999999-0131REMSYN082AAXX  26124 82198 22494 60508 10297 20242 30059 40110 84230 333 20235 59013 69914;EQDQ01  00002PRCP24
0182821980999992008022618004-01717-045400FM-12+004499999V0200501N003110042019N0005001N1+02601+02351100961ADDAA106000891AY191061AY251061GF108991051071004501021001MA1999999100451MD1999999+0011MW1201REMSYN082AAXX  26184 82198 21493 80506 10260 20235 30045 40096 72095 85720 333 58001 69971;
0168821980999992008022700004-01717-045400FM-12+004499999V0200501N001510042019N0005001N1+02621+02411101151ADDGF105991051021004501001001KA1240M+03151MA1999999100641MD1999999+0121REMSYN088AAXX  27004 82198 32493 50503 10262 20241 30064 40115 85200 333 10315 29083 55057 58012;
0182821980999992008022718004-01717-045400FM-12+004499999V0200501N005710042019N0005001N1+03081+02351100841ADDAA106000591AY161061AY221061GF105991051021004501001001MA1999999100331MD1999999-0121MW1041REMSYN082AAXX  27184 82198 21493 50511 10308 20235 30033 40084 70462 85200 333 59012 69941;
0196821980999992008022800004-01717-045400FM-12+004499999V0200701N002110450019N0002001N1+02691+02291101121ADDAY121061AY221061GF106991031021004501061001KA1240M+03271MA1999999100611MD1999999-0031MW1131REMSYN094AAXX  28004 82198 31492 60704 10269 20229 30061 40112 71322 83260 333 10327 29077 55081 59003;
0201821980999992008022812004-01717-045400FM-12+004499999V0203601N003112200019N0005001N1+02901+02411101141ADDAA124000591AY141061AY221061GF106991031021004501001011KA1240N+02291MA1999999100631MD1999999-0051MW1281REMSYN088AAXX  28124 82198 21493 63606 10290 20241 30063 40114 72842 83201 333 20229 59005 69944;
0165821980999992008022818004-01717-045400FM-12+004499999V0200501N005110450019N0005001N1+02861+02441100791ADDAY141061AY221061GF107991041051004501011061MA1999999100281MD1999999-0051MW1151REMSYN076AAXX  28184 82198 31493 70510 10286 20244 30028 40079 71542 84516 333 59005;
0168821980999992008022900004-01717-045400FM-12+004499999V0200501N004612200019N0002001N1+02751+02381101021ADDGF103991021011004501061001KA1240M+03111MA1999999100511MD1999999-0101REMSYN088AAXX  29004 82198 32492 30509 10275 20238 30051 40102 82160 333 10311 29077 55061 59010;
0201821980999992008022912004-01717-045400FM-12+004499999V0202301N001010075019N0005001N1+02321+02151101241ADDAA124039991AY191061AY261061GF108991071041008001021999KA1240N+02001MA1999999100731MD1999999+0101MW1631REMSYN088AAXX  29124 82198 21593 82302 10232 20215 30073 40124 76396 8742/ 333 20200 58010 60404;
0182821980999992008022918004-01717-045400FM-12+004499999V0200901N005110450019N0010001N1+02841+02241100811ADDAA106000591AY151061AY221061GF105991031011004501041061MA1999999100301MD1999999+0101MW1011REMSYN082AAXX  29184 82198 21494 50910 10284 20224 30030 40081 70152 83146 333 58010 69951;
0168821980999992008030100004-01717-045400FM-12+004499999V0200501N006210450019N0002001N1+02451+02111101021ADDGF105991031011004501061001KA1240M+02951MA1999999100511MD1999999+0001REMSYN088AAXX  01004 82198 32492 50512 10245 20211 30051 40102 83160 333 10295 29082 55051 58000;
0201821980999992008030112004-01717-045400FM-12+004499999V0200701N000510450019N0010001N1+02471+02191101101ADDAA124005191AY161061AY221061GF108991041051004501011001KA1240N+01971MA1999999100591MD1999999-0141MW1031REMSYN088AAXX  01124 82198 21494 80701 10247 20219 30059 40110 70362 84510 333 20197 59014 60054;
0165821980999992008030118004-01717-045400FM-12+004499999V0200501N005110042019N0005001N1+02851+02291100741ADDAY151061AY221061GF108991051031004501011011MA1999999100231MD1999999-0071MW1151REMSYN076AAXX  01184 82198 31493 80510 10285 20229 30023 40074 71552 85311 333 59007;
0213821980999992008030200004-01717-045400FM-12+004499999V0200901N002610042019N0002001N1+02441+02371100921ADDAA106014091AY161061AY221061GF108991051021004501061001KA1240M+03201MA1999999100411MD1999999-0101MW1021REMSYN100AAXX  02004 82198 21492 80905 10244 20237 30041 40092 70262 85260 333 10320 29088 55037 59010 60141;
0201821980999992008030212004-01717-045400FM-12+004499999V0202001N002110042019N0005001N1+02361+02251101081ADDAA124031091AY161061AY221061GF108991061071004501021999KA1240N+02091MA1999999100571MD1999999-0021MW1631REMSYN088AAXX  02124 82198 21493 82004 10236 20225 30057 40108 76362 8672/ 333 20209 59002 60314;
0182821980999992008030218004-01717-045400FM-12+004499999V0200901N003610075019N0005001N1+02431+02331100881ADDAA106006191AY191061AY261061GF108991051031008001021999MA1999999100371MD1999999+0141MW1211REMSYN082AAXX  02184 82198 21593 80907 10243 20233 30037 40088 72196 8532/ 333 58014 60061;
0213821980999992008030300004-01717-045400FM-12+004499999V0202901N001010075019N0002001N1+02381+02311101041ADDAA106001091AY161061AY221061GF108991061071008001021999KA1240M+02511MA1999999100531MD1999999+0121MW1021REMSYN100AAXX  03004 82198 21592 82902 10238 20231 30053 40104 70262 8672/ 333 10251 29096 55000 58012 60011;
0201821980999992008030312004-01717-045400FM-12+004499999V0202701N001510450019N0010001N1+02571+02441101171ADDAA124007991AY161061AY221061GF108991041051008001011011KA1240N+01961MA1999999100661MD1999999+0091MW1021REMSYN088AAXX  03124 82198 21594 82703 10257 20244 30066 40117 70262 84511 333 20196 58009 60084;
0137821980999992008030318004-01717-045400FM-12+004499999V0200501N003110450019N0010001N1+02931+02321100851ADDGF108991041071004501011001MA1999999100341MD1999999-0031REMSYN070AAXX  03184 82198 32494 80506 10293 20232 30034 40085 84710 333 59003;
0196821980999992008030400004-01717-045400FM-12+004499999V0200701N002110450019N0002001N1+02591+02371101121ADDAY121061AY211061GF105991041021004501061001KA1240M+03321MA1999999100611MD1999999+0081MW1131REMSYN094AAXX  04004 82198 31492 50704 10259 20237 30061 40112 71321 84260 333 10332 29084 55023 58008;
0156821980999992008030412004-01717-045400FM-12+004499999V0201801N001510450019N0010001N1+02801+02481101141ADDGF105991031021004501061001KA1240N+02071MA1999999100631MD1999999-0031REMSYN076AAXX  04124 82198 32494 51803 10280 20248 30063 40114 83260 333 20207 59003;
0182821980999992008030418004-01717-045400FM-12+004499999V0200501N003110042019N0010001N1+02461+02321100891ADDAA106002091AY191061AY251061GF108991051071004501021999MA1999999100381MD1999999+0041MW1291REMSYN082AAXX  04184 82198 21494 80506 10246 20232 30038 40089 72995 8572/ 333 58004 60021;
0213821980999992008030500004-01717-045400FM-12+004499999V0203201N001012200019N0002001N1+02501+02411101071ADDAA106001091AY161061AY221061GF104991021031004501061001KA1240M+03281MA1999999100561MD1999999-0051MW1021REMSYN100AAXX  05004 82198 21492 43202 10250 20241 30056 40107 70262 82360 333 10328 29091 55040 59005 60011;
0173821980999992008030512004-01717-045400FM-12+004499999V0200901N001010450019N0010001N1+02831+02521101151ADDAA124003091GF107991041021004501041001KA1240N+02161MA1999999100641MD1999999+0011REMSYN082AAXX  05124 82198 22494 70902 10283 20252 30064 40115 84240 333 20216 58001 60034;
0213821980999992008030600004-01717-045400FM-12+004499999V0200501N002110450019N0002001N1+02281+02031101021ADDAA106021191AY161061AY221061GF108991041071004501041999KA1240M+03131MA1999999100511MD1999999-0051MW1021REMSYN100AAXX  06004 82198 21492 80504 10228 20203 30051 40102 70262 8474/ 333 10313 29086 55037 59005 60211;
0173821980999992008030612004-01717-045400FM-12+004499999V0200201N000510042019N0010001N1+02691+02371101001ADDAA124023191GF107991051021004501061001KA1240N+01961MA1999999100491MD1999999+0111REMSYN082AAXX  06124 82198 22494 70201 10269 20237 30049 40100 85260 333 20196 58011 60234;
0213821980999992008030700004-01717-045400FM-12+004499999V0202701N002110450019N0002001N1+02301+02221100971ADDAA106007991AY191061AY261061GF106991041051004501041001KA1240M+03081MA1999999100461MD1999999-0051MW1201REMSYN100AAXX  07004 82198 21492 62704 10230 20222 30046 40097 72096 84540 333 10308 29091 55049 59005 60081;
0173821980999992008030712004-01717-045400FM-12+004499999V0203201N001010450019N0010001N1+02641+02481101171ADDAA124013091GF106991041011004501061011KA1240N+01961MA1999999100661MD1999999+0171REMSYN082AAXX  07124 82198 22494 63202 10264 20248 30066 40117 84161 333 20196 58017 60134;
0137821980999992008030718004-01717-045400FM-12+004499999V0200501N004110450019N0010001N1+03001+02241100841ADDGF106991031021004501061001MA1999999100331MD1999999+0151REMSYN070AAXX  07184 82198 32494 60508 10300 20224 30033 40084 83260 333 58015;
0213821980999992008030800004-01717-045400FM-12+004499999V0202301N000510042019N0002001N1+02501+02361101151ADDAA106004191AY121061AY221061GF107991051071004501021001KA1240M+03131MA1999999100641MD1999999+0181MW1211REMSYN100AAXX  08004 82198 21492 72301 10250 20236 30064 40115 72122 85720 333 10313 29085 55060 58018 60041;
0201821980999992008030812004-01717-045400FM-12+004499999V0202701N001010450019N0010001N1+02581+02331101271ADDAA124007191AY161061AY221061GF106991041021004501061001KA1240N+01931MA1999999100761MD1999999-0101MW1021REMSYN088AAXX  08124 82198 21494 62702 10258 20233 30076 40127 70262 84260 333 20193 59010 60074;
0182821980999992008030818004-01717-045400FM-12+004499999V0202701N001010042019N0010001N1+02741+02401100971ADDAA106009991AY161061AY221061GF108991051031004501011999MA1999999100461MD1999999+0131MW1021REMSYN082AAXX  08184 82198 21494 82702 10274 20240 30046 40097 70262 8531/ 333 58013 60101;
0168821980999992008030900004-01717-045400FM-12+004499999V0203601N001510042019N0002001N1+02521+02341101151ADDGF107991051071004501041001KA1240M+02961MA1999999100641MD1999999+0001REMSYN088AAXX  09004 82198 32492 73603 10252 20234 30064 40115 85740 333 10296 29087 55028 58000;
0182821980999992008030918004-01717-045400FM-12+004499999V0200501N004610042019N0010001N1+02401+02281101061ADDAA106011991AY161061AY251061GF108991061071004501021999MA1999999100551MD1999999+0091MW1621REMSYN082AAXX  09184 82198 21494 80509 10240 20228 30055 40106 76265 8672/ 333 58009 60121;
0213821980999992008031000004-01717-045400FM-12+004499999V0202301N001010450019N0002001N1+02351+02241101011ADDAA106005191AY161061AY221061GF105991031031004501041001KA1240M+03081MA1999999100501MD1999999-0131MW1021REMSYN100AAXX  10004 82198 21492 52302 10235 20224 30050 40101 70262 83340 333 10308 29094 55029 59013 60051;
0173821980999992008031012004-01717-045400FM-12+004499999V0201401N002110450019N0010001N1+02751+02401101191ADDAA124016091GF105991031021004501061011KA1240N+01971MA1999999100681MD1999999-0081REMSYN082AAXX  10124 82198 22494 51404 10275 20240 30068 40119 83261 333 20197 59008 60164;
0137821980999992008031018004-01717-045400FM-12+004499999V0200501N003610450019N0002001N1+02991+02281100801ADDGF105991031021004501061001MA1999999100291MD1999999-0261REMSYN070AAXX  10184 82198 32492 50507 10299 20228 30029 40080 83260 333 59026;
0168821980999992008031100004-01717-045400FM-12+004499999V0200501N002610450019N0001001N1+02601+02311100991ADDGF106991031021004501061001KA1240M+03141MA1999999100481MD1999999-0031REMSYN088AAXX  11004 82198 32491 60505 10260 20231 30048 40099 83260 333 10314 29079 55085 59003;
0203821980999992008031112004-01717-045400FM-12+004499999V0200901N002112200019N0010001N1+02971+02461101051ADDAY101061AY221061GF104991999021004501061011KA1240N+02151MA1999999100541MD1999999-0141MW1041REMSYN082AAXX  11124 82198 31494 40904 10297 20246 30054 40105 70402 86261 333 20215 59014;EQDQ01+000062SCOTLC
0182821980999992008031118004-01717-045400FM-12+004499999V0200501N005710450019N0010001N1+02891+02341100801ADDAA106000891AY191061AY261061GF106991031071004501061011MA1999999100291MD1999999+0001MW1151REMSYN082AAXX  11184 82198 21494 60511 10289 20234 30029 40080 71596 83761 333 58000 69981;
0213821980999992008031200004-01717-045400FM-12+004499999V0200501N002110450019N0002001N1+02561+02361100981ADDAA106002091AY161061AY221061GF105991031021004501061001KA1240M+03221MA1999999100471MD1999999-0011MW1011REMSYN100AAXX  12004 82198 21492 50504 10256 20236 30047 40098 70162 83260 333 10322 29082 55092 59001 60021;
0173821980999992008031212004-01717-045400FM-12+004499999V0200501N003110450019N0010001N1+02991+02511101181ADDAA124003091GF106991031021004501061011KA1240N+02171MA1999999100671MD1999999+0131REMSYN082AAXX  12124 82198 22494 60506 10299 20251 30067 40118 83261 333 20217 58013 60034;
0182821980999992008031218004-01717-045400FM-12+004499999V0200501N005710450019N0005001N1+02911+02341100901ADDAA106005191AY191061AY261061GF106991031051004501061061MA1999999100391MD1999999+0101MW1171REMSYN082AAXX  12184 82198 21493 60511 10291 20234 30039 40090 71796 83566 333 58010 60051;
0196821980999992008031300004-01717-045400FM-12+004499999V0203201N001510450019N0002001N1+02591+02271101201ADDAY121061AY221061GF106991031071004501061011KA1240M+03111MA1999999100691MD1999999+0221MW1131REMSYN094AAXX  13004 82198 31492 63203 10259 20227 30069 40120 71322 83761 333 10311 29078 55071 58022;
0173821980999992008031312004-01717-045400FM-12+004499999V0202001N002110450019N0010001N1+02411+02211101271ADDAA124025991GF107991031051004501011001KA1240N+02401MA1999999100761MD1999999+0091REMSYN082AAXX  13124 82198 22494 72004 10241 20221 30076 40127 83510 333 20240 58009 60264;
0182821980999992008031318004-01717-045400FM-12+004499999V0203201N001010450019N0005001N1+02661+02431100941ADDAA106003091AY191061AY261061GF107991031051004501011041MA1999999100431MD1999999+0041MW1281REMSYN082AAXX  13184 82198 21493 73202 10266 20243 30043 40094 72896 83514 333 58004 60031;
0201821980999992008031412004-01717-045400FM-12+004499999V0203201N002610075019N0005001N1+02221+02141101241ADDAA124069191AY191061AY261061GF108991061051008001021999KA1240N+01941MA1999999100731MD1999999-0031MW1631REMSYN088AAXX  14124 82198 21593 83205 10222 20214 30073 40124 76396 8652/ 333 20194 59003 60694;
0182821980999992008031418004-01717-045400FM-12+004499999V0203601N001510075019N0010001N1+02511+02321100951ADDAA106006191AY161061AY221061GF108991051051008001011001MA1999999100441MD1999999+0011MW1021REMSYN082AAXX  14184 82198 21594 83603 10251 20232 30044 40095 70262 85510 333 58001 60061;
0168821980999992008031500004-01717-045400FM-12+004499999V0201801N002610450019N0002001N1+02401+02311101141ADDGF107991041071004501061001KA1240M+02561MA1999999100621MD1999999+0051REMSYN088AAXX  15004 82198 32492 71805 10240 20231 30062 40114 84760 333 10256 29094 55000 58005;
0201821980999992008031512004-01717-045400FM-12+004499999V0202301N001010450019N0010001N1+02651+02311101211ADDAA124006191AY141061AY221061GF107991031051004501011061KA1240N+02191MA1999999100701MD1999999-0031MW1281REMSYN088AAXX  15124 82198 21494 72302 10265 20231 30070 40121 72842 83516 333 20219 59003 60064;
0165821980999992008031518004-01717-045400FM-12+004499999V0203601N004610042019N0005001N1+02801+02341100921ADDAY121061AY221061GF108991051071004501011001MA1999999100411MD1999999-0031MW1151REMSYN076AAXX  15184 82198 31493 83609 10280 20234 30041 40092 71522 85710 333 59003;
0232821980999992008031600004-01717-045400FM-12+004499999V0202001N002110075019N0002001N1+02491+02261101231ADDAA106000091AY151061AY221061GF108991061071008001011999KA1240M+03131MA1999999100721MD1999999+0101MW1021REMSYN100AAXX  16004 82198 21592 82004 10249 20226 30072 40123 70252 8671/ 333 10313 29086 55037 58010 69921;EQDQ01  00002PRCP06
0201821980999992008031612004-01717-045400FM-12+004499999V0203501N001510075019N0005001N1+02381+02291101361ADDAA124026991AY191061AY261061GF108991061051008001021999KA1240N+02091MA1999999100841MD1999999+0141MW1631REMSYN088AAXX  16124 82198 21593 83503 10238 20229 30084 40136 76396 8652/ 333 20209 58014 60274;
0182821980999992008031618004-01717-045400FM-12+004499999V0203601N002110450019N0010001N1+02881+02371101041ADDAA106000021AY151061AY221061GF107991031071004501041041MA1999999100521MD1999999+0111MW1041REMSYN082AAXX  16184 82198 21494 73604 10288 20237 30052 40104 70452 83744 333 58011 69921;
0168821980999992008031700004-01717-045400FM-12+004499999V0202901N001010450019N0002001N1+02551+02371101231ADDGF107991031021004501061001KA1240M+02931MA1999999100721MD1999999+0001REMSYN088AAXX  17004 82198 32492 72902 10255 20237 30072 40123 83260 333 10293 29086 55008 58000;
0201821980999992008031712004-01717-045400FM-12+004499999V0203201N002610075019N0005001N1+02591+02481101321ADDAA124004191AY161061AY221061GF108991061031008001011001KA1240N+02051MA1999999100801MD1999999-0041MW1031REMSYN088AAXX  17124 82198 21593 83205 10259 20248 30080 40132 70362 86310 333 20205 59004 60044;
0182821980999992008031718004-01717-045400FM-12+004499999V0203601N002110042019N0005001N1+02741+02321100951ADDAA106005191AY191061AY261061GF108991051031004501041001MA1999999100441MD1999999-0081MW1171REMSYN082AAXX  17184 82198 21493 83604 10274 20232 30044 40095 71796 85340 333 59008 60051;
0196821980999992008031800004-01717-045400FM-12+004499999V0200501N002610450019N0002001N1+02481+02341101141ADDAY121061AY221061GF107991031021004501061041KA1240M+02871MA1999999100631MD1999999-0091MW1131REMSYN094AAXX  18004 82198 31492 70505 10248 20234 30063 40114 71322 83264 333 10287 29089 55009 59009;
0201821980999992008031812004-01717-045400FM-12+004499999V0200501N002110450019N0010001N1+02671+02411101341ADDAA124007191AY161061AY221061GF106991031021004501041001KA1240N+02041MA1999999100831MD1999999+0031MW1021REMSYN088AAXX  18124 82198 21494 60504 10267 20241 30083 40134 70262 83240 333 20204 58003 60074;
0137821980999992008031818004-01717-045400FM-12+004499999V0200201N003110450019N0010001N1+02941+02361100871ADDGF106991031021004501061001MA1999999100361MD1999999-0081REMSYN070AAXX  18184 82198 32494 60206 10294 20236 30036 40087 83260 333 59008;
0168821980999992008031900004-01717-045400FM-12+004499999V0203201N002612200019N0002001N1+02361+02261101171ADDGF104991021021004501041001KA1240M+03011MA1999999100671MD1999999+0041REMSYN088AAXX  19004 82198 32492 43205 10236 20226 30067 40117 82240 333 10301 29086 55043 58004;
0201821980999992008031912004-01717-045400FM-12+004499999V0202701N001010042019N0010001N1+02421+02331101271ADDAA124025991AY161061AY221061GF108991051071004501021999KA1240N+01981MA1999999100761MD1999999-0071MW1201REMSYN088AAXX  19124 82198 21494 82702 10242 20233 30076 40127 72062 8572/ 333 20198 59007 60264;
0182821980999992008031918004-01717-045400FM-12+004499999V0203601N002110042019N0010001N1+02441+02271100941ADDAA106002091AY161061AY251061GF107991051071004501041001MA1999999100431MD1999999+0071MW1021REMSYN082AAXX  19184 82198 21494 73604 10244 20227 30043 40094 70265 85740 333 58007 60021;
0168821980999992008032000004-01717-045400FM-12+004499999V0200201N001510450019N0010001N1+02401+02301101181ADDGF106991031021004501031001KA1240M+02681MA1999999100671MD1999999+0001REMSYN088AAXX  20004 82198 32494 60203 10240 20230 30067 40118 83230 333 10268 29093 55000 58000;
0173821980999992008032012004-01717-045400FM-12+004499999V0201801N001012200019N0010001N1+02701+02411101241ADDAA124002091GF104991031021004501041001KA1240N+01931MA1999999100731MD1999999-0031REMSYN082AAXX  20124 82198 22494 41802 10270 20241 30073 40124 83240 333 20193 59003 60024;
0137821980999992008032018004-01717-045400FM-12+004499999V0200501N004110450019N0010001N1+03061+02331100811ADDGF105991031021004501061001MA1999999100301MD1999999-0131REMSYN070AAXX  20184 82198 32494 50508 10306 20233 30030 40081 83260 333 59013;
0168821980999992008032100004-01717-045400FM-12+004499999V0203601N002611050019N0002001N1+02581+02371101091ADDGF105991021011004501041021KA1240M+03321MA1999999100581MD1999999-0091REMSYN088AAXX  21004 82198 32492 53605 10258 20237 30058 40109 82142 333 10332 29081 55074 59009;
0201821980999992008032112004-01717-045400FM-12+004499999V0202701N002110450019N0010001N1+02701+02181101221ADDAA124026991AY161061AY251061GF107991031041004501011001KA1240N+01931MA1999999100711MD1999999-0021MW1211REMSYN088AAXX  21124 82198 21494 72704 10270 20218 30071 40122 72165 83410 333 20193 59002 60274;
0137821980999992008032118004-01717-045400FM-12+004499999V0202301N001510450019N0010001N1+02661+02331100811ADDGF106991041031004501041001MA1999999100301MD1999999+0001REMSYN070AAXX  21184 82198 32494 62303 10266 20233 30030 40081 84340 333 58000;
0168821980999992008032200004-01717-045400FM-12+004499999V0203601N002112200019N0002001N1+02491+02321101021ADDGF103991021021004501061001KA1240M+03091MA1999999100511MD1999999-0071REMSYN088AAXX  22004 82198 32492 33604 10249 20232 30051 40102 82260 333 10309 29089 55032 59007;
0201821980999992008032212004-01717-045400FM-12+004499999V0200201N002110450019N0010001N1+02501+02401101161ADDAA124004191AY161061AY221061GF106991021011004501061001KA1240N+01951MA1999999100651MD1999999-0061MW1601REMSYN088AAXX  22124 82198 21494 60204 10250 20240 30065 40116 76062 82160 333 20195 59006 60044;
0182821980999992008032218004-01717-045400FM-12+004499999V0200901N001010450019N0010001N1+02681+02431100751ADDAA106000591AY121061AY221061GF106991031051004501041001MA1999999100241MD1999999-0061MW1511REMSYN082AAXX  22184 82198 21494 60902 10268 20243 30024 40075 75122 83540 333 59006 69941;
0168821980999992008032300004-01717-045400FM-12+004499999V0200701N001510450019N0002001N1+02541+02401101041ADDGF106991031021004501061021KA1240M+03311MA1999999100531MD1999999+0021REMSYN088AAXX  23004 82198 32492 60703 10254 20240 30053 40104 83262 333 10331 29091 55040 58002;
0173821980999992008032312004-01717-045400FM-12+004499999V0203201N001010450019N0010001N1+02661+02461101171ADDAA124000591GF107991041021004501041021KA1240N+02041MA1999999100661MD1999999+0011REMSYN082AAXX  23124 82198 22494 73202 10266 20246 30066 40117 84242 333 20204 58001 69944;
0137821980999992008032318004-01717-045400FM-12+004499999V0200501N002110042019N0010001N1+02751+02361100851ADDGF107991051041004501061001MA1999999100341MD1999999+0101REMSYN070AAXX  23184 82198 32494 70504 10275 20236 30034 40085 85460 333 58010;
0213821980999992008032400004-01717-045400FM-12+004499999V0200501N001010450019N0002001N1+02441+02341101131ADDAA106000591AY151061AY221061GF107991041051004501061001KA1240M+03181MA1999999100621MD1999999+0091MW1021REMSYN100AAXX  24004 82198 21492 70502 10244 20234 30062 40113 70252 84560 333 10318 29089 55035 58009 69961;
0201821980999992008032412004-01717-045400FM-12+004499999V0203601N001010450019N0010001N1+02561+02401101241ADDAA124003091AY161061AY221061GF107991041031004501061001KA1240N+02171MA1999999100731MD1999999-0071MW1021REMSYN088AAXX  24124 82198 21494 73602 10256 20240 30073 40124 70262 84360 333 20217 59007 60034;
0137821980999992008032418004-01717-045400FM-12+004499999V0200501N004110450019N0010001N1+02901+02271100851ADDGF106991031021004501041001MA1999999100341MD1999999+0001REMSYN070AAXX  24184 82198 32494 60508 10290 20227 30034 40085 83240 333 58000;
0168821980999992008032500004-01717-045400FM-12+004499999V0203601N001510450019N0002001N1+02661+02351101151ADDGF106991031021004501061001KA1240M+03171MA1999999100641MD1999999+0021REMSYN088AAXX  25004 82198 32492 63603 10266 20235 30064 40115 83260 333 10317 29083 55056 58002;
0201821980999992008032512004-01717-045400FM-12+004499999V0201101N002110450019N0005001N1+02581+02421101321ADDAA124001091AY161061AY221061GF107991041031004501041041KA1240N+02071MA1999999100811MD1999999+0081MW1031REMSYN088AAXX  25124 82198 21493 71104 10258 20242 30081 40132 70362 84344 333 20207 58008 60014;
0182821980999992008032518004-01717-045400FM-12+004499999V0203501N004610450019N0005001N1+02631+02401101041ADDAA106005191AY161061AY221061GF107991031031004501021041MA1999999100531MD1999999+0191MW1021REMSYN082AAXX  25184 82198 21493 73509 10263 20240 30053 40104 70262 83324 333 58019 60051;
0213821980999992008032600004-01717-045400FM-12+004499999V0203501N002610075019N0002001N1+02481+02341101251ADDAA106002091AY161061AY221061GF108991061071008001021999KA1240M+02981MA1999999100741MD1999999+0101MW1031REMSYN100AAXX  26004 82198 21592 83505 10248 20234 30074 40125 70362 8672/ 333 10298 29091 55012 58010 60021;
0201821980999992008032612004-01717-045400FM-12+004499999V0203601N001010450019N0005001N1+02651+02401101181ADDAA124016091AY161061AY241061GF108991041031004501061001KA1240N+02101MA1999999100671MD1999999-0141MW1031REMSYN088AAXX  26124 82198 21493 83602 10265 20240 30067 40118 70364 84360 333 20210 59014 60164;
0165821980999992008032618004-01717-045400FM-12+004499999V0203601N004110450019N0005001N1+02721+02371100861ADDAY121061AY221061GF108991041031004501021999MA1999999100351MD1999999-0181MW1151REMSYN076AAXX  26184 82198 31493 83608 10272 20237 30035 40086 71522 8432/ 333 59018;
0213821980999992008032700004-01717-045400FM-12+004499999V0200501N001510075019N0002001N1+02441+02391101081ADDAA106061091AY161061AY221061GF108991081001008001021999KA1240M+03171MA1999999100571MD1999999-0171MW1651REMSYN100AAXX  27004 82198 21592 80503 10244 20239 30057 40108 76562 8802/ 333 10317 29091 55034 59017 60611;
0201821980999992008032712004-01717-045400FM-12+004499999V0203201N001010450019N0005001N1+02391+02211101111ADDAA124217991AY161061AY241061GF108991031071008001011999KA1240N+02071MA1999999100601MD1999999-0071MW1531REMSYN088AAXX  27124 82198 21593 83202 10239 20221 30060 40111 75364 8371/ 333 20207 59007 62184;
0137821980999992008032718004-01717-045400FM-12+004499999V0200501N002610450019N0005001N1+02721+02431100751ADDGF108991041071004501011001MA1999999100241MD1999999-0111REMSYN070AAXX  27184 82198 32493 80505 10272 20243 30024 40075 84710 333 59011;
0168821980999992008032800004-01717-045400FM-12+004499999V0203201N002612200019N0002001N1+02431+02281100921ADDGF103991031021004501001001KA1240M+02761MA1999999100411MD1999999-0161REMSYN088AAXX  28004 82198 32492 33205 10243 20228 30041 40092 83200 333 10276 29090 55000 59016;
0201821980999992008032812004-01717-045400FM-12+004499999V0200501N002610450019N0005001N1+02411+02311101031ADDAA124003091AY161061AY241061GF108991041031004501061001KA1240N+02131MA1999999100521MD1999999-0081MW1021REMSYN088AAXX  28124 82198 21493 80505 10241 20231 30052 40103 70264 84360 333 20213 59008 60034;
0137821980999992008032818004-01717-045400FM-12+004499999V0200501N005110450019N0010001N1+02951+02391100761ADDGF106991031031004501061061MA1999999100251MD1999999+0011REMSYN070AAXX  28184 82198 32494 60510 10295 20239 30025 40076 83366 333 58001;
0213821980999992008032900004-01717-045400FM-12+004499999V0200701N002110450019N0002001N1+02551+02481100961ADDAA106003091AY161061AY221061GF105991031021004501061001KA1240M+03071MA1999999100451MD1999999+0041MW1011REMSYN100AAXX  29004 82198 21492 50704 10255 20248 30045 40096 70162 83260 333 10307 29088 55039 58004 60031;
0201821980999992008032912004-01717-045400FM-12+004499999V0203201N002610042019N0005001N1+02591+02461100981ADDAA124003091AY161061AY241061GF108991061071004501021001KA1240N+02151MA1999999100471MD1999999-0051MW1601REMSYN088AAXX  29124 82198 21493 83205 10259 20246 30047 40098 76064 86720 333 20215 59005 60034;
0182821980999992008032918004-01717-045400FM-12+004499999V0200501N001010450019N0005001N1+02501+02401100811ADDAA106019191AY161061AY221061GF108991031071004501021999MA1999999100301MD1999999+0051MW1631REMSYN082AAXX  29184 82198 21493 80502 10250 20240 30030 40081 76362 8372/ 333 58005 60191;
0168821980999992008033000004-01717-045400FM-12+004499999V0200901N000510450019N0002001N1+02391+02331100991ADDGF106991041071004501061001KA1240M+02641MA1999999100481MD1999999+0031REMSYN088AAXX  30004 82198 32492 60901 10239 20233 30048 40099 84760 333 10264 29094 55000 58003;
0201821980999992008033012004-01717-045400FM-12+004499999V0203201N001010450019N0010001N1+02721+02451101011ADDAA124023991AY161061AY241061GF106991031071004501041061KA1240N+02061MA1999999100491MD1999999+0021MW1021REMSYN088AAXX  30124 82198 21494 63202 10272 20245 30049 40101 70264 83746 333 20206 58002 60244;
0182821980999992008033018004-01717-045400FM-12+004499999V0202701N001510150019N0002001N1+02371+02301100801ADDAA106050091AY191061AY261061GF108991081001017501021999MA1999999100291MD1999999-0011MW1631REMSYN082AAXX  30184 82198 21792 82703 10237 20230 30029 40080 76396 8802/ 333 59001 60501;
0213821980999992008033100004-01717-045400FM-12+004499999V0202701N001510042019N0002001N1+02381+02231100961ADDAA106041991AY161061AY221061GF108991061071004501061999KA1240M+03051MA1999999100451MD1999999-0031MW1021REMSYN100AAXX  31004 82198 21492 82703 10238 20223 30045 40096 70262 8676/ 333 10305 29093 55027 59003 60421;
0201821980999992008033112004-01717-045400FM-12+004499999V0203201N002110042019N0005001N1+02671+02481101011ADDAA124103991AY161061AY241061GF107991051051004501061001KA1240N+02071MA1999999100501MD1999999+0011MW1021REMSYN088AAXX  31124 82198 21493 73204 10267 20248 30050 40101 70264 85560 333 20207 58001 61044;
0182821980999992008033118004-01717-045400FM-12+004499999V0202701N002610042019N0005001N1+02581+02441100691ADDAA106016091AY161061AY261061GF108991081001004501021999MA1999999100181MD1999999-0111MW1631REMSYN082AAXX  31184 82198 21493 82705 10258 20244 30018 40069 76366 8802/ 333 59011 60161;
0213821980999992008040100004-01717-045400FM-12+004499999V0203201N003610042019N0002001N1+02421+02331100971ADDAA106015091AY161061AY261061GF108991061071004501021999KA1240M+02761MA1999999100461MD1999999+0011MW1611REMSYN100AAXX  01004 82198 21492 83207 10242 20233 30046 40097 76166 8672/ 333 10276 29094 55008 58001 60151;
0201821980999992008040112004-01717-045400FM-12+004499999V0202301N000510042019N0010001N1+02501+02411101081ADDAA124057991AY161061AY251061GF108991051011004501021999KA1240N+02061MA1999999100571MD1999999+0071MW1021REMSYN088AAXX  01124 82198 21494 82301 10250 20241 30057 40108 70265 8512/ 333 20206 58007 60584;
0137821980999992008040118004-01717-045400FM-12+004499999V0200501N000510450019N0010001N1+02761+02461100681ADDGF108991041031004501021999MA1999999100171MD1999999-0011REMSYN070AAXX  01184 82198 32494 80501 10276 20246 30017 40068 8432/ 333 59001;
0213821980999992008040200004-01717-045400FM-12+004499999V0203201N003110042019N0002001N1+02341+02271101031ADDAA106007191AY161061AY221061GF108991051051004501021999KA1240M+02941MA1999999100521MD1999999+0061MW1621REMSYN100AAXX  02004 82198 21492 83206 10234 20227 30052 40103 76262 8552/ 333 10294 29093 55000 58006 60071;
0201821980999992008040212004-01717-045400FM-12+004499999V0202901N000510042019N0010001N1+02371+02281101081ADDAA124034091AY161061AY221061GF108991051051004501071999KA1240N+01961MA1999999100571MD1999999+0001MW1531REMSYN088AAXX  02124 82198 21494 82901 10237 20228 30057 40108 75362 8557/ 333 20196 58000 60344;
0182821980999992008040218004-01717-045400FM-12+004499999V0203601N002110450019N0010001N1+02751+02261100711ADDAA106000591AY151061AY221061GF108991041011004501021001MA1999999100201MD1999999+0031MW1021REMSYN082AAXX  02184 82198 21494 83604 10275 20226 30020 40071 70252 84120 333 58003 69951;
0168821980999992008040300004-01717-045400FM-12+004499999V0203601N002610042019N0002001N1+02421+02281100971ADDGF107991051051004501041001KA1240M+02831MA1999999100461MD1999999-0061REMSYN088AAXX  03004 82198 32492 73605 10242 20228 30046 40097 85540 333 10283 29088 55007 59006;
0201821980999992008040312004-01717-045400FM-12+004499999V0201801N001510450019N0010001N1+02621+02441101151ADDAA124004191AY161061AY221061GF108991041031004501041999KA1240N+02081MA1999999100641MD1999999+0071MW1021REMSYN088AAXX  03124 82198 21494 81803 10262 20244 30064 40115 70262 8434/ 333 20208 58007 60044;
0137821980999992008040318004-01717-045400FM-12+004499999V0200201N001510450019N0010001N1+03051+02411100721ADDGF106991041021004501061001MA1999999100211MD1999999+0011REMSYN070AAXX  03184 82198 32494 60203 10305 20241 30021 40072 84260 333 58001;
0168821980999992008040400004-01717-045400FM-12+004499999V0203201N001010042019N0002001N1+02621+02421100941ADDGF107991051051004501021001KA1240M+03141MA1999999100431MD1999999-0031REMSYN088AAXX  04004 82198 32492 73202 10262 20242 30043 40094 85520 333 10314 29084 55024 59003;
0201821980999992008040412004-01717-045400FM-12+004499999V0203201N002110042019N0010001N1+02471+02411101071ADDAA124000891AY151061AY221061GF108991061051004501041999KA1240N+02101MA1999999100561MD1999999-0081MW1021REMSYN088AAXX  04124 82198 21494 83204 10247 20241 30056 40107 70252 8654/ 333 20210 59008 69974;
0182821980999992008040418004-01717-045400FM-12+004499999V0203601N001010042019N0010001N1+02511+02381100851ADDAA106013091AY191061AY261061GF108991061071004501021999MA1999999100341MD1999999+0131MW1631REMSYN082AAXX  04184 82198 21494 83602 10251 20238 30034 40085 76396 8672/ 333 58013 60131;
0201821980999992008040512004-01717-045400FM-12+004499999V0202701N001010450019N0010001N1+02581+02421101171ADDAA124019191AY151061AY221061GF107991031031004501061001KA1240N+02041MA1999999100661MD1999999+0101MW1021REMSYN088AAXX  05124 82198 21494 72702 10258 20242 30066 40117 70252 83360 333 20204 58010 60194;
0182821980999992008040518004-01717-045400FM-12+004499999V0203601N001510042019N0005001N1+02431+02281100881ADDAA106020191AY191061AY261061GF108991051051004501021999MA1999999100371MD1999999+0031MW1631REMSYN082AAXX  05184 82198 21493 83603 10243 20228 30037 40088 76396 8552/ 333 58003 60201;
0213821980999992008040600004-01717-045400FM-12+004499999V0203601N000510042019N0002001N1+02461+02391101081ADDAA106000891AY151061AY221061GF108991051051004501041999KA1240M+02981MA1999999100571MD1999999-0071MW1021REMSYN100AAXX  06004 82198 21492 83601 10246 20239 30057 40108 70252 8554/ 333 10298 29091 55017 59007 69971;
0201821980999992008040612004-01717-045400FM-12+004499999V0201801N003110042019N0005001N1+02271+02211101291ADDAA124039991AY161061AY221061GF108991061051004501021999KA1240N+01981MA1999999100781MD1999999+0121MW1631REMSYN088AAXX  06124 82198 21493 81806 10227 20221 30078 40129 76362 8652/ 333 20198 58012 60404;
0168821980999992008040700004-01717-045400FM-12+004499999V0202301N001510042019N0002001N1+02361+02291101011ADDGF108991051051004501041999KA1240M+02561MA1999999100501MD1999999-0071REMSYN088AAXX  07004 82198 32492 82303 10236 20229 30050 40101 8554/ 333 10256 29094 55000 59007;
0173821980999992008040712004-01717-045400FM-12+004499999V0203201N003110450019N0010001N1+02661+02391101171ADDAA124009991GF107991031021004501061001KA1240N+01951MA1999999100661MD1999999-0121REMSYN082AAXX  07124 82198 22494 73206 10266 20239 30066 40117 83260 333 20195 59012 60104;
0201821980999992008040718004-01717-045400FM-12+004499999V0203601N001510450019N0010001N1+02781+02321100711ADDAA106000091AY151061AY221061GF106991041021004501051021MA1999999100201MD1999999-0171MW1151REMSYN082AAXX  07184 82198 21494 63603 10278 20232 30020 40071 71552 84252 333 59017 69921;EQDQ01  00002PRCP06
0213821980999992008040800004-01717-045400FM-12+004499999V0202701N001510042019N0002001N1+02351+02241101061ADDAA106010991AY191061AY261061GF108991051051004501071999KA1240M+03201MA1999999100551MD1999999+0051MW1211REMSYN100AAXX  08004 82198 21492 82703 10235 20224 30055 40106 72196 8557/ 333 10320 29087 55051 58005 60111;
0201821980999992008040812004-01717-045400FM-12+004499999V0202501N001010450019N0005001N1+02461+02371101131ADDAA124013091AY161061AY221061GF108991041071004501011011KA1240N+02011MA1999999100621MD1999999-0041MW1021REMSYN088AAXX  08124 82198 21493 82502 10246 20237 30062 40113 70262 84711 333 20201 59004 60134;
0137821980999992008040818004-01717-045400FM-12+004499999V0200901N000510450019N0010001N1+03021+02361100811ADDGF106991031071004501041061MA1999999100301MD1999999+0101REMSYN070AAXX  08184 82198 32494 60901 10302 20236 30030 40081 83746 333 58010;
0168821980999992008040900004-01717-045400FM-12+004499999V0203201N002112200019N0002001N1+02511+02321101011ADDGF102991021011004501001001KA1240M+03111MA1999999100501MD1999999-0051REMSYN088AAXX  09004 82198 32492 23204 10251 20232 30050 40101 82100 333 10311 29087 55017 59005;
0201821980999992008040912004-01717-045400FM-12+004499999V0200501N000510450019N0005001N1+02551+02501101191ADDAA124004191AY161061AY221061GF107991041071004501021001KA1240N+02101MA1999999100681MD1999999+0061MW1501REMSYN088AAXX  09124 82198 21493 70501 10255 20250 30068 40119 75062 84720 333 20210 58006 60044;
0182821980999992008040918004-01717-045400FM-12+004499999V0200901N001010450019N0010001N1+02731+02411100831ADDAA106008991AY191061AY221061GF106991031021004501041061MA1999999100321MD1999999+0021MW1211REMSYN082AAXX  09184 82198 21494 60902 10273 20241 30032 40083 72192 83246 333 58002 60091;
0213821980999992008041000004-01717-045400FM-12+004499999V0200701N001012200019N0002001N1+02531+02431101001ADDAA106002091AY161061AY221061GF103991021021004501061001KA1240M+03001MA1999999100491MD1999999-0011MW1011REMSYN100AAXX  10004 82198 21492 30702 10253 20243 30049 40100 70162 82260 333 10300 29092 55029 59001 60021;
0201821980999992008041012004-01717-045400FM-12+004499999V0200901N002610450019N0010001N1+02851+02311100911ADDAA124010991AY151061AY241061GF105991031021004501041061KA1240N+02001MA1999999100401MD1999999-0081MW1031REMSYN088AAXX  10124 82198 21494 50905 10285 20231 30040 40091 70354 83246 333 20200 59008 60114;
0201821980999992008041018004-01717-045400FM-12+004499999V0201801N003110450019N0005001N1+02721+02371100661ADDAA106000091AY191061AY251061GF107991031031004501061041MA1999999100151MD1999999-0171MW1171REMSYN082AAXX  10184 82198 21493 71806 10272 20237 30015 40066 71795 83364 333 59017 69921;EQDQ01  00002PRCP06
0196821980999992008041100004-01717-045400FM-12+004499999V0200901N002112200019N0002001N1+02561+02331100821ADDAY121061AY211061GF103991021021004501031001KA1240M+03151MA1999999100311MD1999999-0181MW1131REMSYN094AAXX  11004 82198 31492 30904 10256 20233 30031 40082 71321 82230 333 10315 29082 55046 59018;
0201821980999992008041112004-01717-045400FM-12+004499999V0200901N001010450019N0005001N1+02571+02461100961ADDAA124003091AY161061AY221061GF108991031031004501061001KA1240N+02061MA1999999100451MD1999999+0051MW1631REMSYN088AAXX  11124 82198 21493 80902 10257 20246 30045 40096 76362 83360 333 20206 58005 60034;
0137821980999992008041118004-01717-045400FM-12+004499999V0203601N003610450019N0010001N1+02771+02381100641ADDGF106991031051004501061041MA1999999100131MD1999999-0021REMSYN070AAXX  11184 82198 32494 63607 10277 20238 30013 40064 83564 333 59002;
0168821980999992008041200004-01717-045400FM-12+004499999V0202701N001011050019N0002001N1+02501+02381100901ADDGF105991021021004501061011KA1240M+02921MA1999999100391MD1999999+0081REMSYN088AAXX  12004 82198 32492 52702 10250 20238 30039 40090 82261 333 10292 29089 55011 58008;
0201821980999992008041212004-01717-045400FM-12+004499999V0203601N001010450019N0010001N1+02661+02451100951ADDAA124004191AY161061AY221061GF106991031011004501041061KA1240N+02051MA1999999100441MD1999999-0011MW1031REMSYN088AAXX  12124 82198 21494 63602 10266 20245 30044 40095 70362 83146 333 20205 59001 60044;
0137821980999992008041218004-01717-045400FM-12+004499999V0203601N003610450019N0010001N1+02781+02321100741ADDGF106991031051004501061041MA1999999100231MD1999999+0101REMSYN070AAXX  12184 82198 32494 63607 10278 20232 30023 40074 83564 333 58010;
0168821980999992008041300004-01717-045400FM-12+004499999V0201101N001010450019N0002001N1+02491+02241101021ADDGF106991031021004501011001KA1240M+03011MA1999999100511MD1999999+0121REMSYN088AAXX  13004 82198 32492 61102 10249 20224 30051 40102 83210 333 10301 29086 55040 58012;
0156821980999992008041312004-01717-045400FM-12+004499999V0200901N001510450019N0005001N1+02561+02421101151ADDGF108991041031004501021999KA1240N+02071MA1999999100641MD1999999+0201REMSYN076AAXX  13124 82198 32493 80903 10256 20242 30064 40115 8432/ 333 20207 58020;
0182821980999992008041318004-01717-045400FM-12+004499999V0203601N001010450019N0010001N1+02821+02311100841ADDAA106001091AY161061AY221061GF105991031021004501061041MA1999999100331MD1999999+0101MW1011REMSYN082AAXX  13184 82198 21494 53602 10282 20231 30033 40084 70162 83264 333 58010 60011;
0173821980999992008041412004-01717-045400FM-12+004499999V0200701N002112200019N0010001N1+02701+02411101131ADDAA124001091GF104991021011004501041091KA1240N+02051MA1999999100621MD1999999-0021REMSYN082AAXX  14124 82198 22494 40704 10270 20241 30062 40113 82149 333 20205 59002 60014;
0182821980999992008041418004-01717-045400FM-12+004499999V0203601N005112200019N0010001N1+02881+02351100771ADDAA106006191AY191061AY261061GF104991031021004501041061MA1999999100261MD1999999-0071MW1021REMSYN082AAXX  14184 82198 21494 43610 10288 20235 30026 40077 70296 83246 333 59007 60061;
0168821980999992008041500004-01717-045400FM-12+004499999V0200701N002110450019N0002001N1+02561+02351101021ADDGF106991031011004501031061KA1240M+03181MA1999999100511MD1999999+0021REMSYN088AAXX  15004 82198 32492 60704 10256 20235 30051 40102 83136 333 10318 29083 55088 58002;
0173821980999992008041512004-01717-045400FM-12+004499999V0201101N001510450019N0010001N1+02741+02471101171ADDAA124006191GF107991041031004501041001KA1240N+02071MA1999999100661MD1999999+0041REMSYN082AAXX  15124 82198 22494 71103 10274 20247 30066 40117 84340 333 20207 58004 60064;
0182821980999992008041518004-01717-045400FM-12+004499999V0200901N001510042019N0010001N1+02681+02391100841ADDAA106000591AY151061AY221061GF107991051031004501061001MA1999999100331MD1999999+0071MW1021REMSYN082AAXX  15184 82198 21494 70903 10268 20239 30033 40084 70252 85360 333 58007 69941;
0168821980999992008041600004-01717-045400FM-12+004499999V0202701N000510450019N0002001N1+02461+02321101031ADDGF106991031021004501061001KA1240M+02791MA1999999100521MD1999999+0011REMSYN088AAXX  16004 82198 32492 62701 10246 20232 30052 40103 83260 333 10279 29088 55011 58001;
0173821980999992008041612004-01717-045400FM-12+004499999V0200901N001510450019N0010001N1+02841+02401101161ADDAA124000591GF105991031021004501061011KA1240N+01951MA1999999100651MD1999999-0011REMSYN082AAXX  16124 82198 22494 50903 10284 20240 30065 40116 83261 333 20195 59001 69944;
0182821980999992008041618004-01717-045400FM-12+004499999V0203601N001510042019N0010001N1+02561+02361100851ADDAA106033091AY161061AY221061GF107991051031004501011001MA1999999100341MD1999999+0011MW1211REMSYN082AAXX  16184 82198 21494 73603 10256 20236 30034 40085 72162 85310 333 58001 60331;
0168821980999992008041700004-01717-045400FM-12+004499999V0200701N002110450019N0002001N1+02561+02441101071ADDGF106991031031004501041021KA1240M+03261MA1999999100561MD1999999+0041REMSYN088AAXX  17004 82198 32492 60704 10256 20244 30056 40107 83342 333 10326 29088 55059 58004;
0201821980999992008041712004-01717-045400FM-12+004499999V0200901N005110042019N0010001N1+02421+02251101241ADDAA124034091AY141061AY221061GF108991051051004501071999KA1240N+02061MA1999999100731MD1999999+0081MW1611REMSYN088AAXX  17124 82198 21494 80910 10242 20225 30073 40124 76142 8557/ 333 20206 58008 60344;
0182821980999992008041718004-01717-045400FM-12+004499999V0200201N002110450019N0010001N1+02751+02381100871ADDAA106002091AY121061AY221061GF107991041051004501021001MA1999999100361MD1999999+0021MW1631REMSYN082AAXX  17184 82198 21494 70204 10275 20238 30036 40087 76322 84520 333 58002 60021;
0213821980999992008041800004-01717-045400FM-12+004499999V0200501N002610042019N0002001N1+02481+02341101221ADDAA106005191AY161061AY221061GF107991051051004501041001KA1240M+03031MA1999999100711MD1999999+0151MW1021REMSYN100AAXX  18004 82198 21492 70505 10248 20234 30071 40122 70262 85540 333 10303 29088 55015 58015 60051;
0201821980999992008041812004-01717-045400FM-12+004499999V0202301N002110042019N0010001N1+02721+02411101241ADDAA124009991AY161061AY221061GF107991061071004501061001KA1240N+02061MA1999999100731MD1999999+0001MW1021REMSYN088AAXX  18124 82198 21494 72304 10272 20241 30073 40124 70262 86760 333 20206 58000 60104;
0182821980999992008041818004-01717-045400FM-12+004499999V0200901N002610042019N0010001N1+02571+02331100851ADDAA106007991AY161061AY221061GF107991051071004501061001MA1999999100341MD1999999-0021MW1021REMSYN082AAXX  18184 82198 21494 70905 10257 20233 30034 40085 70262 85760 333 59002 60081;
0168821980999992008041900004-01717-045400FM-12+004499999V0200501N001510450019N0002001N1+02461+02341101071ADDGF106991031011004501041021KA1240M+02881MA1999999100561MD1999999-0151REMSYN088AAXX  19004 82198 32492 60503 10246 20234 30056 40107 83142 333 10288 29089 55009 59015;
0173821980999992008041912004-01717-045400FM-12+004499999V0200901N002110450019N0010001N1+02871+02461101101ADDAA124007991GF105991031011004501061001KA1240N+02051MA1999999100591MD1999999-0141REMSYN082AAXX  19124 82198 22494 50904 10287 20246 30059 40110 83160 333 20205 59014 60084;
0182821980999992008041918004-01717-045400FM-12+004499999V0200901N000510042019N0005001N1+02421+02301100811ADDAA106043991AY161061AY221061GF108991051071004501041999MA1999999100301MD1999999-0041MW1631REMSYN082AAXX  19184 82198 21493 80901 10242 20230 30030 40081 76362 8574/ 333 59004 60441;
0213821980999992008042000004-01717-045400FM-12+004499999V0202301N002110450019N0002001N1+02341+02241101081ADDAA106007191AY161061AY221061GF107991031051004501041001KA1240M+03111MA1999999100571MD1999999+0011MW1611REMSYN100AAXX  20004 82198 21492 72304 10234 20224 30057 40108 76162 83540 333 10311 29090 55050 58001 60071;
0173821980999992008042012004-01717-045400FM-12+004499999V0200901N000510042019N0010001N1+02421+02351101181ADDAA124051191GF107991051091004501041001KA1240N+01991MA1999999100671MD1999999+0081REMSYN082AAXX  20124 82198 22494 70901 10242 20235 30067 40118 85940 333 20199 58008 60514;
0182821980999992008042018004-01717-045400FM-12+004499999V0202301N001510450019N0010001N1+02641+02481100841ADDAA106005191AY161061AY221061GF107991041031004501041001MA1999999100331MD1999999+0031MW1021REMSYN082AAXX  20184 82198 21494 72303 10264 20248 30033 40084 70262 84340 333 58003 60051;
0168821980999992008042100004-01717-045400FM-12+004499999V0209999C000010450019N0002001N1+02481+02411101061ADDGF107991041011004501061001KA1240M+03061MA1999999100551MD1999999-0021REMSYN088AAXX  21004 82198 32492 70000 10248 20241 30055 40106 84160 333 10306 29095 55025 59002;
0173821980999992008042112004-01717-045400FM-12+004499999V0200501N002610450019N0010001N1+02961+02381101121ADDAA124005191GF105991041021004501061001KA1240N+02161MA1999999100611MD1999999-0061REMSYN082AAXX  21124 82198 22494 50505 10296 20238 30061 40112 84260 333 20216 59006 60054;
0182821980999992008042118004-01717-045400FM-12+004499999V0200701N002110042019N0010001N1+02681+02501100851ADDAA106031091AY191061AY261061GF107991051031004501041001MA1999999100341MD1999999+0011MW1151REMSYN082AAXX  21184 82198 21494 70704 10268 20250 30034 40085 71596 85340 333 58001 60311;
0213821980999992008042200004-01717-045400FM-12+004499999V0200501N000510450019N0002001N1+02381+02311101091ADDAA106011991AY161061AY221061GF107991041051004501041001KA1240M+03101MA1999999100581MD1999999+0031MW1211REMSYN100AAXX  22004 82198 21492 70501 10238 20231 30058 40109 72162 84540 333 10310 29088 55035 58003 60121;
0201821980999992008042212004-01717-045400FM-12+004499999V0201401N002610450019N0005001N1+02571+02421101131ADDAA124048091AY161061AY221061GF106991031071004501041061KA1240N+02031MA1999999100621MD1999999+0011MW1211REMSYN088AAXX  22124 82198 21493 61405 10257 20242 30062 40113 72162 83746 333 20203 58001 60484;
0182821980999992008042218004-01717-045400FM-12+004499999V0200501N002610450019N0005001N1+03061+02381100831ADDAA106000591AY161061AY221061GF106991031071004501041041MA1999999100321MD1999999-0021MW1021REMSYN082AAXX  22184 82198 21493 60505 10306 20238 30032 40083 70262 83744 333 59002 69961;
0168821980999992008042300004-01717-045400FM-12+004499999V0200901N002110450019N0002001N1+02561+02401101071ADDGF106991031021004501011041KA1240M+02971MA1999999100561MD1999999-0021REMSYN088AAXX  23004 82198 32492 60904 10256 20240 30056 40107 83214 333 10297 29085 55040 59002;
0201821980999992008042312004-01717-045400FM-12+004499999V0201101N001510450019N0010001N1+02631+02391101141ADDAA124001091AY161061AY221061GF107991041021004501041061KA1240N+02141MA1999999100631MD1999999+0011MW1031REMSYN088AAXX  23124 82198 21494 71103 10263 20239 30063 40114 70362 84246 333 20214 58001 60014;
0182821980999992008042318004-01717-045400FM-12+004499999V0202501N003110042019N0005001N1+02561+02431100831ADDAA106019191AY191061AY221061GF108991061031004501061001MA1999999100321MD1999999+0001MW1521REMSYN082AAXX  23184 82198 21493 82506 10256 20243 30032 40083 75292 86360 333 58000 60191;
0168821980999992008042400004-01717-045400FM-12+004499999V0200901N002112200019N0002001N1+02511+02381100981ADDGF104991021051004501011061KA1240M+03061MA1999999100471MD1999999-0091REMSYN088AAXX  24004 82198 32492 40904 10251 20238 30047 40098 82516 333 10306 29092 55022 59009;
0201821980999992008042412004-01717-045400FM-12+004499999V0203201N000510450019N0005001N1+02511+02451101001ADDAA124019191AY141061AY221061GF107991041071004501021011KA1240N+02111MA1999999100491MD1999999-0141MW1281REMSYN088AAXX  24124 82198 21493 73201 10251 20245 30049 40100 72842 84721 333 20211 59014 60194;
0198821980999992008042418004-01717-045400FM-12+004499999V0200501N005110003019N0005001N1+03011+02321100691ADDAA106011991AY161061AY221061GA1091+999999999GF109991091999999999999999MA1999999100181MD1999999-0141MW1021REMSYN082AAXX  24184 82198 21493 90510 10301 20232 30018 40069 70262 84761 333 59014 60121;
0168821980999992008042500004-01717-045400FM-12+004499999V0202501N001012200019N0002001N1+02591+02401100941ADDGF103991031021004501001001KA1240M+03111MA1999999100431MD1999999-0041REMSYN088AAXX  25004 82198 32492 32502 10259 20240 30043 40094 83200 333 10311 29086 55055 59004;
0201821980999992008042512004-01717-045400FM-12+004499999V0200901N002110450019N0010001N1+02871+02441101011ADDAA124011991AY141061AY221061GF106991031021004501061041KA1240N+02071MA1999999100501MD1999999+0011MW1031REMSYN088AAXX  25124 82198 21494 60904 10287 20244 30050 40101 70342 83264 333 20207 58001 60124;
0182821980999992008042518004-01717-045400FM-12+004499999V0203601N001510450019N0005001N1+02591+02461100721ADDAA106010991AY161061AY221061GF107991041071004501021011MA1999999100211MD1999999+0031MW1631REMSYN082AAXX  25184 82198 21493 73603 10259 20246 30021 40072 76362 84721 333 58003 60111;
0213821980999992008042600004-01717-045400FM-12+004499999V0200501N002110450019N0002001N1+02551+02421101011ADDAA106002091AY161061AY221061GF105991031021004501061001KA1240M+03181MA1999999100501MD1999999+0071MW1131REMSYN100AAXX  26004 82198 21492 50504 10255 20242 30050 40101 71362 83260 333 10318 29088 55042 58007 60021;
0173821980999992008042612004-01717-045400FM-12+004499999V0203601N001010450019N0005001N1+02751+02461101031ADDAA124013091GF107991041051004501031041KA1240N+02141MA1999999100521MD1999999+0021REMSYN082AAXX  26124 82198 22493 73602 10275 20246 30052 40103 84534 333 20214 58002 60134;
0182821980999992008042618004-01717-045400FM-12+004499999V0200701N001510450019N0010001N1+02791+02401100721ADDAA106021191AY191061AY261061GF106991031021004501041061MA1999999100211MD1999999+0001MW1021REMSYN082AAXX  26184 82198 21494 60703 10279 20240 30021 40072 70296 83246 333 58000 60211;
0168821980999992008042700004-01717-045400FM-12+004499999V0200901N002112200019N0002001N1+02571+02441100901ADDGF103991021021004501061001KA1240M+03211MA1999999100391MD1999999-0111REMSYN088AAXX  27004 82198 32492 30904 10257 20244 30039 40090 82260 333 10321 29086 55053 59011;
0173821980999992008042712004-01717-045400FM-12+004499999V0201101N001512200019N0005001N1+02811+02501100991ADDAA124021191GF106991041021004501001041KA1240N+02211MA1999999100481MD1999999-0041REMSYN082AAXX  27124 82198 22493 61103 10281 20250 30048 40099 84204 333 20221 59004 60214;
0182821980999992008042718004-01717-045400FM-12+004499999V0202701N004110450019N0005001N1+02961+02491100691ADDAA106007191AY191061AY261061GF107991041071004501021041MA1999999100181MD1999999-0031MW1171REMSYN082AAXX  27184 82198 21493 72708 10296 20249 30018 40069 71796 84724 333 59003 60071;
0213821980999992008042800004-01717-045400FM-12+004499999V0200701N002112200019N0002001N1+02591+02441100871ADDAA106001091AY161061AY221061GF103991031021004501001001KA1240M+03121MA1999999100361MD1999999-0031MW1011REMSYN100AAXX  28004 82198 21492 30704 10259 20244 30036 40087 70162 83200 333 10312 29086 55050 59003 60011;
0201821980999992008042812004-01717-045400FM-12+004499999V0200701N002112200019N0005001N1+02881+02621100981ADDAA124007991AY141061AY221061GF106991041021004501001011KA1240N+02311MA1999999100471MD1999999-0011MW1031REMSYN088AAXX  28124 82198 21493 60704 10288 20262 30047 40098 70342 84201 333 20231 59001 60084;
0182821980999992008042818004-01717-045400FM-12+004499999V0200501N002110450019N0005001N1+02781+02521100671ADDAA106027991AY191061AY261061GF106991031071004501041041MA1999999100161MD1999999-0021MW1021REMSYN082AAXX  28184 82198 21493 60504 10278 20252 30016 40067 70296 83744 333 59002 60281;
0196821980999992008042900004-01717-045400FM-12+004499999V0200501N001512200019N0002001N1+02621+02441100971ADDAY111061AY211061GF103991021021004501061001KA1240M+03051MA1999999100461MD1999999+0101MW1131REMSYN094AAXX  29004 82198 31492 30503 10262 20244 30046 40097 71311 82260 333 10305 29088 55037 58010;
0173821980999992008042912004-01717-045400FM-12+004499999V0200501N000510450019N0010001N1+02691+02521101051ADDAA124027991GF105991031021004501061001KA1240N+02121MA1999999100541MD1999999+0071REMSYN082AAXX  29124 82198 22494 50501 10269 20252 30054 40105 83260 333 20212 58007 60284;
0182821980999992008042918004-01717-045400FM-12+004499999V0202301N001010450019N0010001N1+02831+02521100691ADDAA106000391AY151061AY221061GF107991041031004501041001MA1999999100181MD1999999+0021MW1021REMSYN082AAXX  29184 82198 21494 72302 10283 20252 30018 40069 70252 84340 333 58002 69931;
0168821980999992008043000004-01717-045400FM-12+004499999V0201801N001510042019N0002001N1+02581+02491101011ADDGF108991051051004501071999KA1240M+03151MA1999999100501MD1999999+0041REMSYN088AAXX  30004 82198 32492 81803 10258 20249 30050 40101 8557/ 333 10315 29091 55022 58004;
0201821980999992008043012004-01717-045400FM-12+004499999V0203601N002610042019N0005001N1+02541+02381101151ADDAA124001091AY161061AY221061GF107991051051004501071001KA1240N+02151MA1999999100641MD1999999+0101MW1021REMSYN088AAXX  30124 82198 21493 73605 10254 20238 30064 40115 70262 85570 333 20215 58010 60014;
0137821980999992008043018004-01717-045400FM-12+004499999V0202301N000510450019N0010001N1+03031+02461100691ADDGF105991031021004501061001MA1999999100181MD1999999+0001REMSYN070AAXX  30184 82198 32494 52301 10303 20246 30018 40069 83260 333 58000;
0232821980999992008050100004-01717-045400FM-12+004499999V0203601N000510450019N0002001N1+02541+02441100981ADDAA106000091AY151061AY221061GF107991041051004501041001KA1240M+03071MA1999999100471MD1999999-0031MW1021REMSYN100AAXX  01004 82198 21492 73601 10254 20244 30047 40098 70252 84540 333 10307 29088 55009 59003 69921;EQDQ01  00002PRCP06
0192821980999992008050112004-01717-045400FM-12+004499999V0200501N001510450019N0010001N1+02821+02501100961ADDAA124000091GF105991031021004501061001KA1240N+02161MA1999999100451MD1999999-0191REMSYN082AAXX  01124 82198 22494 50503 10282 20250 30045 40096 83260 333 20216 59019 69924;EQDQ01  00002PRCP24
0137821980999992008050118004-01717-045400FM-12+004499999V0203601N002110042019N0010001N1+02621+02481100671ADDGF108991051051004501071999MA1999999100161MD1999999-0021REMSYN070AAXX  01184 82198 32494 83604 10262 20248 30016 40067 8557/ 333 59002;
0137821980999992008050218004-01717-045400FM-12+004499999V0200501N000510450019N0010001N1+02991+02531100601ADDGF107991041051004501071001MA1999999100091MD1999999-0091REMSYN070AAXX  02184 82198 32494 70501 10299 20253 30009 40060 84570 333 59009;
0213821980999992008050300004-01717-045400FM-12+004499999V0200901N002612200019N0002001N1+02621+02421100971ADDAA106002091AY161061AY221061GF103991031001008001061001KA1240M+03121MA1999999100461MD1999999+0041MW1011REMSYN100AAXX  03004 82198 21592 30905 10262 20242 30046 40097 70162 83060 333 10312 29084 55042 58004 60021;
0173821980999992008050312004-01717-045400FM-12+004499999V0200901N002610042019N0010001N1+02561+02441101151ADDAA124002091GF108991051071004501021999KA1240N+02201MA1999999100641MD1999999+0111REMSYN082AAXX  03124 82198 22494 80905 10256 20244 30064 40115 8572/ 333 20220 58011 60024;
0182821980999992008050318004-01717-045400FM-12+004499999V0203601N001510042019N0010001N1+02401+02301100881ADDAA106020191AY161061AY221061GF108991051061004501021999MA1999999100371MD1999999+0281MW1631REMSYN082AAXX  03184 82198 21494 83603 10240 20230 30037 40088 76362 8562/ 333 58028 60201;
0213821980999992008050400004-01717-045400FM-12+004499999V0201401N002110450019N0002001N1+02401+02351101121ADDAA106000391AY151061AY221061GF105991031071004501041001KA1240M+02721MA1999999100611MD1999999+0151MW1011REMSYN100AAXX  04004 82198 21492 51404 10240 20235 30061 40112 70152 83740 333 10272 29095 55000 58015 69931;
0201821980999992008050512004-01717-045400FM-12+004499999V0200701N001510042019N0010001N1+02501+02251101381ADDAA124005191AY161061AY251061GF107991051071004501041001KA1240N+02001MA1999999100871MD1999999+0151MW1021REMSYN088AAXX  05124 82198 21494 70703 10250 20225 30087 40138 70265 85740 333 20200 58015 60054;
0137821980999992008050518004-01717-045400FM-12+004499999V0200501N001510450019N0010001N1+02881+02351100921ADDGF107991041021004501061001MA1999999100411MD1999999-0051REMSYN070AAXX  05184 82198 32494 70503 10288 20235 30041 40092 84260 333 59005;
0196821980999992008050600004-01717-045400FM-12+004499999V0200501N002110450019N0002001N1+02581+02361101151ADDAY121061AY211061GF105991031011004501061001KA1240M+02981MA1999999100641MD1999999-0131MW1131REMSYN094AAXX  06004 82198 31492 50504 10258 20236 30064 40115 71321 83160 333 10298 29085 55011 59013;
0184821980999992008050612004-01717-045400FM-12+004499999V0200701N003110450019N0010001N1+02851+02441101261ADDAY141061AY221061GF105991031021004501061041KA1240N+02161MA1999999100751MD1999999-0121MW1021REMSYN082AAXX  06124 82198 31494 50706 10285 20244 30075 40126 70242 83264 333 20216 59012;
0182821980999992008050618004-01717-045400FM-12+004499999V0203601N001010450019N0005001N1+02571+02461100921ADDAA106035191AY191061AY261061GF108991041071004501021001MA1999999100411MD1999999+0001MW1031REMSYN082AAXX  06184 82198 21493 83602 10257 20246 30041 40092 70396 84720 333 58000 60351;
0168821980999992008050700004-01717-045400FM-12+004499999V0202301N001012200019N0002001N1+02501+02411101111ADDGF103991021021004501061001KA1240M+03131MA1999999100601MD1999999-0041REMSYN088AAXX  07004 82198 32492 32302 10250 20241 30060 40111 82260 333 10313 29090 55030 59004;
0201821980999992008050712004-01717-045400FM-12+004499999V0200501N002110450019N0010001N1+02791+02561101181ADDAA124035191AY141061AY221061GF106991031021004501061011KA1240N+02051MA1999999100671MD1999999-0081MW1031REMSYN088AAXX  07124 82198 21494 60504 10279 20256 30067 40118 70342 83261 333 20205 59008 60354;
0182821980999992008050718004-01717-045400FM-12+004499999V0200501N004111050019N0010001N1+03071+02241100851ADDAA106000891AY161061AY221061GF105991021011004501011011MA1999999100341MD1999999-0071MW1011REMSYN082AAXX  07184 82198 21494 50508 10307 20224 30034 40085 70162 82111 333 59007 69981;
0178821980999992008050800004-01717-045400FM-12+004499999V0200501N001012200019N0002001N1+02651+02351101081ADDGA1001+999999999GF100991001001999999001001KA1240M+03141MA1999999100571MD1999999-0031REMSYN082AAXX  08004 82198 32992 00502 10265 20235 30057 40108 333 10314 29081 55084 59003;
0173821980999992008050812004-01717-045400FM-12+004499999V0203601N002110450019N0005001N1+02821+02481101081ADDAA124000891GF106991031021004501061001KA1240N+02101MA1999999100571MD1999999+0101REMSYN082AAXX  08124 82198 22493 63604 10282 20248 30057 40108 83260 333 20210 58010 69984;
0182821980999992008050818004-01717-045400FM-12+004499999V0200501N002610450019N0005001N1+02711+02431100801ADDAA106015091AY191061AY261061GF107991041071004501011011MA1999999100291MD1999999-0051MW1021REMSYN082AAXX  08184 82198 21493 70505 10271 20243 30029 40080 70296 84711 333 59005 60151;
0168821980999992008050900004-01717-045400FM-12+004499999V0203601N001512200019N0002001N1+02591+02371101001ADDGF103991031021004501001001KA1240M+02991MA1999999100491MD1999999-0081REMSYN088AAXX  09004 82198 32492 33603 10259 20237 30049 40100 83200 333 10299 29085 55034 59008;
0201821980999992008050912004-01717-045400FM-12+004499999V0203601N003110042019N0005001N1+02411+02331101101ADDAA124025991AY141061AY221061GF108991061071004501021999KA1240N+02131MA1999999100591MD1999999+0021MW1631REMSYN088AAXX  09124 82198 21493 83606 10241 20233 30059 40110 76342 8672/ 333 20213 58002 60264;
0182821980999992008050918004-01717-045400FM-12+004499999V0203601N002110042019N0005001N1+02461+02401100841ADDAA106002091AY191061AY261061GF108991061071004501061999MA1999999100331MD1999999+0041MW1021REMSYN082AAXX  09184 82198 21493 83604 10246 20240 30033 40084 70296 8676/ 333 58004 60021;
0168821980999992008051000004-01717-045400FM-12+004499999V0203201N001510450019N0002001N1+02391+02351101121ADDGF106991041011004501061001KA1240M+02621MA1999999100611MD1999999+0121REMSYN088AAXX  10004 82198 32492 63203 10239 20235 30061 40112 84160 333 10262 29096 55000 58012;
0201821980999992008051012004-01717-045400FM-12+004499999V0202701N001010450019N0005001N1+02521+02421101201ADDAA124002091AY141061AY221061GF106991031051004501031091KA1240N+02001MA1999999100691MD1999999+0101MW1021REMSYN088AAXX  10124 82198 21493 62702 10252 20242 30069 40120 70242 83539 333 20200 58010 60024;
0182821980999992008051018004-01717-045400FM-12+004499999V0200501N002110450019N0005001N1+02511+02341100901ADDAA106005191AY191061AY261061GF107991041071004501061001MA1999999100391MD1999999+0061MW1031REMSYN082AAXX  10184 82198 21493 70504 10251 20234 30039 40090 70396 84760 333 58006 60051;
0168821980999992008051100004-01717-045400FM-12+004499999V0200501N000510450019N0002001N1+02521+02401101071ADDGF106991031021004501011011KA1240M+03221MA1999999100561MD1999999-0051REMSYN088AAXX  11004 82198 32492 60501 10252 20240 30056 40107 83211 333 10322 29093 55041 59005;
0201821980999992008051112004-01717-045400FM-12+004499999V0202701N002110450019N0010001N1+02771+02441101291ADDAA124005191AY141061AY221061GF106991031021004501061041KA1240N+02031MA1999999100781MD1999999+0091MW1021REMSYN088AAXX  11124 82198 21494 62704 10277 20244 30078 40129 70242 83264 333 20203 58009 60054;
0137821980999992008051118004-01717-045400FM-12+004499999V0201101N001510450019N0010001N1+02761+02481100911ADDGF106991031021004501011041MA1999999100401MD1999999+0011REMSYN070AAXX  11184 82198 32494 61103 10276 20248 30040 40091 83214 333 58001;
0196821980999992008051200004-01717-045400FM-12+004499999V0202701N001010450019N0002001N1+02481+02411101161ADDAY121061AY221061GF106991031021004501011041KA1240M+03181MA1999999100651MD1999999+0091MW1131REMSYN094AAXX  12004 82198 31492 62702 10248 20241 30065 40116 71322 83214 333 10318 29089 55056 58009;
0201821980999992008051212004-01717-045400FM-12+004499999V0201401N000510450019N0005001N1+02361+02191101421ADDAA124034091AY141061AY261061GF108991041071004501021011KA1240N+02061MA1999999100901MD1999999+0121MW1631REMSYN088AAXX  12124 82198 21493 81401 10236 20219 30090 40142 76346 84721 333 20206 58012 60344;
0137821980999992008051218004-01717-045400FM-12+004499999V0201801N000510042019N0010001N1+02721+02391101021ADDGF107991051011004501031011MA1999999100511MD1999999+0111REMSYN070AAXX  12184 82198 32494 71801 10272 20239 30051 40102 85131 333 58011;
0213821980999992008051300004-01717-045400FM-12+004499999V0201801N001510450019N0002001N1+02521+02361101291ADDAA106000591AY161061AY221061GF107991041011004501061001KA1240M+02801MA1999999100781MD1999999+0131MW1021REMSYN100AAXX  13004 82198 21492 71803 10252 20236 30078 40129 70262 84160 333 10280 29010 55088 58013 69951;
0201821980999992008051312004-01717-045400FM-12+004499999V0201401N001510450019N0010001N1+02691+02371101311ADDAA124001091AY151061AY221061GF106991021031004501041021KA1240N+02031MA1999999100801MD1999999-0101MW1021REMSYN088AAXX  13124 82198 21494 61403 10269 20237 30080 40131 70252 82342 333 20203 59010 60014;
0182821980999992008051318004-01717-045400FM-12+004499999V0203601N001010042019N0010001N1+02461+02371101061ADDAA106005191AY161061AY221061GF108991051071004501021999MA1999999100551MD1999999+0041MW1631REMSYN082AAXX  13184 82198 21494 83602 10246 20237 30055 40106 76362 8572/ 333 58004 60051;
0213821980999992008051400004-01717-045400FM-12+004499999V0200501N000510450019N0002001N1+02481+02411101271ADDAA106000591AY151061AY221061GF107991031031004501041001KA1240M+02821MA1999999100761MD1999999-0021MW1021REMSYN100AAXX  14004 82198 21492 70501 10248 20241 30076 40127 70252 83340 333 10282 29092 55016 59002 69961;
0173821980999992008051412004-01717-045400FM-12+004499999V0201801N000510450019N0010001N1+02441+02351101351ADDAA124006191GF108991041071004501011999KA1240N+02061MA1999999100841MD1999999+0041REMSYN082AAXX  14124 82198 22494 81801 10244 20235 30084 40135 8471/ 333 20206 58004 60064;
0182821980999992008051418004-01717-045400FM-12+004499999V0202301N004110042019N0010001N1+02751+02421100981ADDAA106005191AY121061AY221061GF108991051051004501021999MA1999999100471MD1999999-0081MW1631REMSYN082AAXX  14184 82198 21494 82308 10275 20242 30047 40098 76322 8552/ 333 59008 60051;
0213821980999992008051500004-01717-045400FM-12+004499999V0202301N000510450019N0002001N1+02501+02401101211ADDAA106000591AY151061AY221061GF106991041031004501061001KA1240M+03171MA1999999100701MD1999999-0061MW1131REMSYN100AAXX  15004 82198 21492 62301 10250 20240 30070 40121 71352 84360 333 10317 29091 55034 59006 69941;
0201821980999992008051512004-01717-045400FM-12+004499999V0203601N002110042019N0010001N1+02481+02411101381ADDAA124023991AY191061AY261061GF108991051041004501041999KA1240N+02071MA1999999100871MD1999999-0031MW1521REMSYN088AAXX  15124 82198 21494 83604 10248 20241 30087 40138 75296 8544/ 333 20207 59003 60244;
0182821980999992008051518004-01717-045400FM-12+004499999V0200501N000510450019N0010001N1+02541+02401101071ADDAA106009991AY161061AY221061GF108991031091004501041999MA1999999100561MD1999999+0091MW1021REMSYN082AAXX  15184 82198 21494 80501 10254 20240 30056 40107 70262 8394/ 333 58009 60101;
0168821980999992008051600004-01717-045400FM-12+004499999V0209999C000010450019N0002001N1+02421+02331101321ADDGF106991031011004501041021KA1240M+02591MA1999999100811MD1999999+0111REMSYN088AAXX  16004 82198 32492 60000 10242 20233 30081 40132 83142 333 10259 29094 55000 58011;
0173821980999992008051612004-01717-045400FM-12+004499999V0201401N001510450019N0010001N1+02771+02461101341ADDAA124009991GF106991021011004501061021KA1240N+02001MA1999999100831MD1999999-0041REMSYN082AAXX  16124 82198 22494 61403 10277 20246 30083 40134 82162 333 20200 59004 60104;
0182821980999992008051618004-01717-045400FM-12+004499999V0203601N001511050019N0010001N1+02781+02481100991ADDAA106006191AY151061AY221061GF105991021021004501061031MA1999999100481MD1999999-0081MW1211REMSYN082AAXX  16184 82198 21494 53603 10278 20248 30048 40099 72152 82263 333 59008 60061;
0168821980999992008051700004-01717-045400FM-12+004499999V0200501N002112200019N0002001N1+02631+02461101261ADDGF104991041001008001061001KA1240M+03141MA1999999100751MD1999999-0061REMSYN088AAXX  17004 82198 32592 40504 10263 20246 30075 40126 84060 333 10314 29087 55070 59006;
0173821980999992008051712004-01717-045400FM-12+004499999V0200901N002110450019N0010001N1+02901+02481101271ADDAA124006191GF105991031011004501041001KA1240N+02191MA1999999100761MD1999999-0071REMSYN082AAXX  17124 82198 22494 50904 10290 20248 30076 40127 83140 333 20219 59007 60064;
0137821980999992008051718004-01717-045400FM-12+004499999V0200501N003110450019N0010001N1+03111+02411100941ADDGF105991031021004501041011MA1999999100431MD1999999-0051REMSYN070AAXX  17184 82198 32494 50506 10311 20241 30043 40094 83241 333 59005;
0213821980999992008051800004-01717-045400FM-12+004499999V0200501N001510450019N0002001N1+02541+02361101251ADDAA106017091AY161061AY221061GF107991041031004501031001KA1240M+03251MA1999999100741MD1999999-0011MW1021REMSYN100AAXX  18004 82198 21492 70503 10254 20236 30074 40125 70262 84330 333 10325 29082 55070 59001 60171;
0173821980999992008051812004-01717-045400FM-12+004499999V0200901N003610450019N0010001N1+02561+02441101331ADDAA124017091GF107991031031004501041021KA1240N+02161MA1999999100821MD1999999+0061REMSYN082AAXX  18124 82198 22494 70907 10256 20244 30082 40133 83342 333 20216 58006 60174;
0182821980999992008051818004-01717-045400FM-12+004499999V0200901N003110450019N0010001N1+02761+02401100951ADDAA106004191AY161061AY221061GF107991041031004501041011MA1999999100441MD1999999+0011MW1211REMSYN082AAXX  18184 82198 21494 70906 10276 20240 30044 40095 72162 84341 333 58001 60041;
0196821980999992008051900004-01717-045400FM-12+004499999V0200901N002610450019N0002001N1+02601+02421101181ADDAY121061AY221061GF107991021021004501031001KA1240M+03001MA1999999100671MD1999999-0071MW1131REMSYN094AAXX  19004 82198 31492 70905 10260 20242 30067 40118 71322 82230 333 10300 29088 55032 59007;
0173821980999992008051912004-01717-045400FM-12+004499999V0200901N003610450019N0010001N1+02911+02521101221ADDAA124004191GF106991041021004501041011KA1240N+02201MA1999999100711MD1999999-0111REMSYN082AAXX  19124 82198 22494 60907 10291 20252 30071 40122 84241 333 20220 59011 60044;
0182821980999992008051918004-01717-045400FM-12+004499999V0200901N002110450019N0010001N1+03051+02301100851ADDAA106002091AY161061AY221061GF106991041021004501061001MA1999999100341MD1999999-0101MW1021REMSYN082AAXX  19184 82198 21494 60904 10305 20230 30034 40085 70262 84260 333 59010 60021;
0168821980999992008052000004-01717-045400FM-12+004499999V0200501N002110450019N0002001N1+02641+02331101161ADDGF105991031011004501041001KA1240M+03181MA1999999100651MD1999999-0021REMSYN088AAXX  20004 82198 32492 50504 10264 20233 30065 40116 83140 333 10318 29078 55077 59002;
0168821980999992008052100004-01717-045400FM-12+004499999V0200701N002110450019N0002001N1+02651+02391101081ADDGF106991031011004501031011KA1240M+03261MA1999999100571MD1999999-0081REMSYN088AAXX  21004 82198 32492 60704 10265 20239 30057 40108 83131 333 10326 29082 55050 59008;
0201821980999992008052112004-01717-045400FM-12+004499999V0200501N002610450019N0005001N1+02851+02421101121ADDAA124006191AY191061AY261061GF106991031051004501061041KA1240N+01991MA1999999100611MD1999999-0031MW1021REMSYN088AAXX  21124 82198 21493 60505 10285 20242 30061 40112 70296 83564 333 20199 59003 60064;
0182821980999992008052118004-01717-045400FM-12+004499999V0202001N000510450019N0005001N1+02551+02481101111ADDAA106027991AY161061AY221061GF107991041051004501011001MA1999999100491MD1999999+0161MW1031REMSYN082AAXX  21184 82198 21493 72001 10255 20248 30049 40111 70362 84510 333 58016 60281;
0168821980999992008052200004-01717-045400FM-12+004499999V0202501N002610450019N0002001N1+02381+02251101121ADDGF107991041051004501011001KA1240M+02971MA1999999100611MD1999999+0041REMSYN088AAXX  22004 82198 32492 72505 10238 20225 30061 40112 84510 333 10297 29092 55010 58004;
0201821980999992008052212004-01717-045400FM-12+004499999V0201801N001512200019N0005001N1+02671+02391101161ADDAA124027991AY141061AY221061GF104991021021004501041061KA1240N+02031MA1999999100651MD1999999+0041MW1011REMSYN088AAXX  22124 82198 21493 41803 10267 20239 30065 40116 70142 82246 333 20203 58004 60284;
0137821980999992008052218004-01717-045400FM-12+004499999V0200501N003610450019N0005001N1+02561+02251100941ADDGF108991041051004501061001MA1999999100431MD1999999-0061REMSYN070AAXX  22184 82198 32493 80507 10256 20225 30043 40094 84560 333 59006;
0232821980999992008052300004-01717-045400FM-12+004499999V0209999C000010450019N0002001N1+02461+02321101111ADDAA106000091AY151061AY221061GF106991031071004501061001KA1240M+03291MA1999999100601MD1999999-0011MW1131REMSYN100AAXX  23004 82198 21492 60000 10246 20232 30060 40111 71352 83760 333 10329 29089 55045 59001 69921;EQDQ01  00002PRCP06
0201821980999992008052312004-01717-045400FM-12+004499999V0200501N002110042019N0010001N1+02631+02371101071ADDAA124002091AY191061AY261061GF107991051051004501011061KA1240N+01971MA1999999100561MD1999999-0091MW1031REMSYN088AAXX  23124 82198 21494 70504 10263 20237 30056 40107 70396 85516 333 20197 59009 60024;
0182821980999992008052318004-01717-045400FM-12+004499999V0203601N002110450019N0005001N1+02531+02251100891ADDAA106008991AY191061AY261061GF107991031031004501041061MA1999999100381MD1999999-0051MW1631REMSYN082AAXX  23184 82198 21493 73604 10253 20225 30038 40089 76396 83346 333 59005 60091;
0196821980999992008052400004-01717-045400FM-12+004499999V0201401N001010450019N0002001N1+02541+02381101141ADDAY121061AY221061GF106991041071004501061001KA1240M+03061MA1999999100631MD1999999+0031MW1131REMSYN094AAXX  24004 82198 31492 61402 10254 20238 30063 40114 71322 84760 333 10306 29089 55014 58003;
0201821980999992008052412004-01717-045400FM-12+004499999V0200501N001012200019N0010001N1+02801+02441101201ADDAA124008991AY141061AY221061GF104991021021004501001061KA1240N+01991MA1999999100691MD1999999+0131MW1011REMSYN088AAXX  24124 82198 21494 40502 10280 20244 30069 40120 70142 82206 333 20199 58013 60094;
0201821980999992008052418004-01717-045400FM-12+004499999V0200501N003610450019N0010001N1+02951+02531100891ADDAA106000091AY191061AY251061GF106991041071004501061011MA1999999100381MD1999999+0001MW1031REMSYN082AAXX  24184 82198 21494 60507 10295 20253 30038 40089 70395 84761 333 58000 69921;EQDQ01  00002PRCP06
0213821980999992008052500004-01717-045400FM-12+004499999V0201401N002112200019N0002001N1+02401+02301101111ADDAA106042991AY191061AY261061GF103991021021004501061001KA1240M+03101MA1999999100601MD1999999-0031MW1011REMSYN100AAXX  25004 82198 21492 31404 10240 20230 30060 40111 70196 82260 333 10310 29086 55059 59003 60431;
0201821980999992008052512004-01717-045400FM-12+004499999V0201401N002110450019N0005001N1+02671+02371101161ADDAA124042991AY141061AY251061GF107991041031004501041061KA1240N+02041MA1999999100651MD1999999-0041MW1031REMSYN088AAXX  25124 82198 21493 71404 10267 20237 30065 40116 70345 84346 333 20204 59004 60434;
0182821980999992008052518004-01717-045400FM-12+004499999V0200501N003110450019N0010001N1+02871+02291100841ADDAA106001091AY161061AY221061GF107991041071004501041061MA1999999100331MD1999999-0051MW1021REMSYN082AAXX  25184 82198 21494 70506 10287 20229 30033 40084 70262 84746 333 59005 60011;
0168821980999992008052600004-01717-045400FM-12+004499999V0201101N001512200019N0002001N1+02561+02361101031ADDGF102991021021004501021001KA1240M+03001MA1999999100521MD1999999-0081REMSYN088AAXX  26004 82198 32492 21103 10256 20236 30052 40103 82220 333 10300 29085 55042 59008;
0201821980999992008052612004-01717-045400FM-12+004499999V0201801N001010450019N0005001N1+02821+02601101161ADDAA124001091AY191061AY221061GF107991041071004501061011KA1240N+02001MA1999999100651MD1999999+0001MW1031REMSYN088AAXX  26124 82198 21493 71802 10282 20260 30065 40116 70392 84761 333 20200 58000 60014;
0182821980999992008052618004-01717-045400FM-12+004499999V0203601N002110042019N0005001N1+02511+02361100941ADDAA106023991AY191061AY261061GF108991061071004501061041MA1999999100431MD1999999+0101MW1031REMSYN082AAXX  26184 82198 21493 83604 10251 20236 30043 40094 70396 86764 333 58010 60241;
0196821980999992008052700004-01717-045400FM-12+004499999V0200701N002112200019N0002001N1+02511+02361101101ADDAY121061AY211061GF103991031021004501001001KA1240M+03001MA1999999100591MD1999999+0071MW1131REMSYN094AAXX  27004 82198 31492 30704 10251 20236 30059 40110 71321 83200 333 10300 29091 55037 58007;
0173821980999992008052712004-01717-045400FM-12+004499999V0200501N001510042019N0010001N1+02941+02491101141ADDAA124023991GF106991051021004501001011KA1240N+02161MA1999999100631MD1999999-0021REMSYN082AAXX  27124 82198 22494 60503 10294 20249 30063 40114 85201 333 20216 59002 60244;
0201821980999992008052718004-01717-045400FM-12+004499999V0200501N005710450019N0010001N1+03041+02451100871ADDAA106000091AY151061AY221061GF105991041021004501041001MA1999999100361MD1999999-0071MW1021REMSYN082AAXX  27184 82198 21494 50511 10304 20245 30036 40087 70252 84240 333 59007 69921;EQDQ01  00002PRCP06
0168821980999992008052800004-01717-045400FM-12+004499999V0200501N002112200019N0002001N1+02601+02401101041ADDGF102991021001012501061001KA1240M+03171MA1999999100531MD1999999-0061REMSYN088AAXX  28004 82198 32692 20504 10260 20240 30053 40104 82060 333 10317 29082 55094 59006;
0192821980999992008052812004-01717-045400FM-12+004499999V0201401N002110042019N0010001N1+02861+02441101171ADDAA124000091GF107991051021004501061001KA1240N+02191MA1999999100661MD1999999+0031REMSYN082AAXX  28124 82198 22494 71404 10286 20244 30066 40117 85260 333 20219 58003 69924;EQDQ01  00002PRCP24
0182821980999992008052818004-01717-045400FM-12+004499999V0200901N002110042019N0005001N1+02601+02311100841ADDAA106005191AY161061AY221061GF108991051051004501071999MA1999999100331MD1999999-0031MW1631REMSYN082AAXX  28184 82198 21493 80904 10260 20231 30033 40084 76362 8557/ 333 59003 60051;
0213821980999992008052900004-01717-045400FM-12+004499999V0200901N002110450019N0002001N1+02541+02441101071ADDAA106041991AY161061AY221061GF107991041051004501041001KA1240M+03061MA1999999100561MD1999999+0031MW1131REMSYN100AAXX  29004 82198 21492 70904 10254 20244 30056 40107 71362 84540 333 10306 29088 55027 58003 60421;
0201821980999992008052912004-01717-045400FM-12+004499999V0201801N003110042019N0010001N1+02411+02331101111ADDAA124050091AY161061AY221061GF108991051051004501021999KA1240N+02041MA1999999100601MD1999999-0061MW1021REMSYN088AAXX  29124 82198 21494 81806 10241 20233 30060 40111 70262 8552/ 333 20204 59006 60504;
0182821980999992008052918004-01717-045400FM-12+004499999V0200701N001010450019N0010001N1+02711+02351100841ADDAA106005191AY161061AY221061GF107991031031004501041001MA1999999100331MD1999999+0001MW1211REMSYN082AAXX  29184 82198 21494 70702 10271 20235 30033 40084 72162 83340 333 58000 60051;
0196821980999992008053000004-01717-045400FM-12+004499999V0200501N001512200019N0002001N1+02551+02361101151ADDAY121061AY211061GF104991021011004501041001KA1240M+03001MA1999999100641MD1999999+0081MW1131REMSYN094AAXX  30004 82198 31492 40503 10255 20236 30064 40115 71321 82140 333 10300 29089 55010 58008;
0201821980999992008053012004-01717-045400FM-12+004499999V0203601N000510450019N0005001N1+02521+02431101281ADDAA124006191AY191061AY221061GF108991031071004501021999KA1240N+02091MA1999999100771MD1999999+0171MW1631REMSYN088AAXX  30124 82198 21493 83601 10252 20243 30077 40128 76392 8372/ 333 20209 58017 60064;
0182821980999992008053018004-01717-045400FM-12+004499999V0203601N001510450019N0010001N1+03041+02451100991ADDAA106017091AY161061AY221061GF106991041021004501061001MA1999999100481MD1999999+0151MW1021REMSYN082AAXX  30184 82198 21494 63603 10304 20245 30048 40099 70262 84260 333 58015 60171;
0173821980999992008053112004-01717-045400FM-12+004499999V0202301N003112200019N0010001N1+02741+02301101281ADDAA124017091GF104991041001012501061001KA1240N+02061MA1999999100771MD1999999+0001REMSYN082AAXX  31124 82198 22694 42306 10274 20230 30077 40128 84060 333 20206 58000 60174;
0182821980999992008053118004-01717-045400FM-12+004499999V0200501N005110042019N0010001N1+02641+02411100871ADDAA106002091AY121061AY221061GF107991051051004501021001MA1999999100361MD1999999-0081MW1291REMSYN082AAXX  31184 82198 21494 70510 10264 20241 30036 40087 72922 85520 333 59008 60021;
0213821980999992008060100004-01717-045400FM-12+004499999V0209999C000012200019N0002001N1+02441+02321101221ADDAA106019191AY161061AY221061GF104991021031004501041001KA1240M+03251MA1999999100711MD1999999+0031MW1131REMSYN100AAXX  01004 82198 21492 40000 10244 20232 30071 40122 71362 82340 333 10325 29086 55063 58003 60191;
0201821980999992008060112004-01717-045400FM-12+004499999V0202701N001510450019N0010001N1+02441+02341101311ADDAA124038191AY161061AY221061GF107991021041004501071001KA1240N+02041MA1999999100801MD1999999+0031MW1021REMSYN088AAXX  01124 82198 21494 72703 10244 20234 30080 40131 70262 82470 333 20204 58003 60384;
0182821980999992008060118004-01717-045400FM-12+004499999V0203601N000510450019N0010001N1+02381+02221101071ADDAA106037191AY191061AY261061GF108991041031004501071999MA1999999100561MD1999999+0201MW1291REMSYN082AAXX  01184 82198 21494 83601 10238 20222 30056 40107 72996 8437/ 333 58020 60371;
0196821980999992008060200004-01717-045400FM-12+004499999V0202301N002110450019N0002001N1+02341+02241101341ADDAY121061AY221061GF108991031051004501041999KA1240M+03121MA1999999100831MD1999999+0121MW1131REMSYN094AAXX  02004 82198 31492 82304 10234 20224 30083 40134 71322 8354/ 333 10312 29093 55017 58012;
0201821980999992008060212004-01717-045400FM-12+004499999V0200501N001510450019N0010001N1+02671+02281101361ADDAA124062091AY161061AY221061GF105991021021004501061001KA1240N+01951MA1999999100851MD1999999+0051MW1021REMSYN088AAXX  02124 82198 21494 50503 10267 20228 30085 40136 70262 82260 333 20195 58005 60624;
0182821980999992008060218004-01717-045400FM-12+004499999V0200201N002110042019N0010001N1+02371+02241101071ADDAA106000891AY121061AY221061GF108991051051004501011999MA1999999100561MD1999999+0001MW1531REMSYN082AAXX  02184 82198 21494 80204 10237 20224 30056 40107 75322 8551/ 333 58000 69971;
0168821980999992008060300004-01717-045400FM-12+004499999V0202301N001010042019N0002001N1+02341+02221101341ADDGF107991051071004501041001KA1240M+03061MA1999999100831MD1999999+0001REMSYN088AAXX  03004 82198 32492 72302 10234 20222 30083 40134 85740 333 10306 29089 55031 58000;
0173821980999992008060312004-01717-045400FM-12+004499999V0209999C000010450019N0010001N1+02521+02361101411ADDAA124000891GF106991041051004501061011KA1240N+01951MA1999999100891MD1999999+0041REMSYN082AAXX  03124 82198 22494 60000 10252 20236 30089 40141 84561 333 20195 58004 69974;
0137821980999992008060318004-01717-045400FM-12+004499999V0200701N004110450019N0005001N1+02781+02271101111ADDGF107991041071004501061011MA1999999100601MD1999999+0041REMSYN070AAXX  03184 82198 32493 70708 10278 20227 30060 40111 84761 333 58004;
0201821980999992008060412004-01717-045400FM-12+004499999V0203601N001012200019N0005001N1+02771+02441101281ADDAA124013091AY141061AY221061GF105991021021004501031091KA1240N+02051MA1999999100771MD1999999-0121MW1041REMSYN088AAXX  04124 82198 21493 53602 10277 20244 30077 40128 70442 82239 333 20205 59012 60134;
0137821980999992008060418004-01717-045400FM-12+004499999V0200901N003610450019N0010001N1+02621+02271101031ADDGF106991031021004501061011MA1999999100521MD1999999+0081REMSYN070AAXX  04184 82198 32494 60907 10262 20227 30052 40103 83261 333 58008;
0156821980999992008060512004-01717-045400FM-12+004499999V0200901N002112200019N0010001N1+02771+02271101331ADDGF103991011021004501041061KA1240N+01961MA1999999100821MD1999999+0051REMSYN076AAXX  05124 82198 32494 30904 10277 20227 30082 40133 81246 333 20196 58005;
0182821980999992008060518004-01717-045400FM-12+004499999V0200501N002110450019N0005001N1+02661+02411101131ADDAA106013091AY191061AY261061GF107991041071004501041061MA1999999100621MD1999999+0101MW1171REMSYN082AAXX  05184 82198 21493 70504 10266 20241 30062 40113 71796 84746 333 58010 60131;
0196821980999992008060600004-01717-045400FM-12+004499999V0200901N002612200019N0002001N1+02601+02351101261ADDAY111061AY211061GF102991021021004501001001KA1240M+03091MA1999999100751MD1999999-0011MW1131REMSYN094AAXX  06004 82198 31492 20905 10260 20235 30075 40126 71311 82200 333 10309 29083 55040 59001;
0201821980999992008060612004-01717-045400FM-12+004499999V0201101N002610450019N0005001N1+02431+02231101341ADDAA124014091AY151061AY221061GF107991031051004501061011KA1240N+02031MA1999999100821MD1999999+0001MW1031REMSYN088AAXX  06124 82198 21493 71105 10243 20223 30082 40134 70352 83561 333 20203 58000 60144;
0182821980999992008060618004-01717-045400FM-12+004499999V0202501N001010450019N0005001N1+02521+02341101091ADDAA106008991AY191061AY261061GF107991041031004501061001MA1999999100581MD1999999-0041MW1021REMSYN082AAXX  06184 82198 21493 72502 10252 20234 30058 40109 70296 84360 333 59004 60091;
0201821980999992008060712004-01717-045400FM-12+004499999V0201101N002110450019N0005001N1+02381+02231101251ADDAA124020191AY161061AY221061GF107991031071004501061041KA1240N+01961MA1999999100741MD1999999-0081MW1031REMSYN088AAXX  07124 82198 21493 71104 10238 20223 30074 40125 70362 83764 333 20196 59008 60204;
0137821980999992008060718004-01717-045400FM-12+004499999V0200901N001510450019N0010001N1+02831+02361100961ADDGF106991031021004501041061MA1999999100451MD1999999-0131REMSYN070AAXX  07184 82198 32494 60903 10283 20236 30045 40096 83246 333 59013;
0213821980999992008060800004-01717-045400FM-12+004499999V0200901N001012200019N0002001N1+02441+02341101151ADDAA106013091AY161061AY221061GF103991021021004501061001KA1240M+02911MA1999999100641MD1999999-0121MW1011REMSYN100AAXX  08004 82198 21492 30902 10244 20234 30064 40115 70162 82260 333 10291 29090 55009 59012 60131;
0173821980999992008060812004-01717-045400FM-12+004499999V0201401N001510042019N0010001N1+02811+02481101181ADDAA124013091GF106991061021004501001001KA1240N+01921MA1999999100671MD1999999-0071REMSYN082AAXX  08124 82198 22494 61403 10281 20248 30067 40118 86200 333 20192 59007 60134;
0137821980999992008060818004-01717-045400FM-12+004499999V0201401N002610450019N0010001N1+03101+02261101351ADDGF106991031021004501041061MA1999999100831MD1999999+0381REMSYN070AAXX  08184 82198 32494 61405 10310 20226 30083 40135 83246 333 58038;
0213821980999992008060900004-01717-045400FM-12+004499999V0203601N001010450019N0002001N1+02461+02271101081ADDAA106004191AY191061AY261061GF106991041031004501061001KA1240M+03191MA1999999100571MD1999999-0071MW1031REMSYN100AAXX  09004 82198 21492 63602 10246 20227 30057 40108 70396 84360 333 10319 29080 55082 59007 60041;
0201821980999992008060912004-01717-045400FM-12+004499999V0200901N001010450019N0005001N1+02691+02401101211ADDAA124023191AY191061AY261061GF107991041051004501031001KA1240N+01981MA1999999100701MD1999999+0031MW1031REMSYN088AAXX  09124 82198 21493 70902 10269 20240 30070 40121 70396 84530 333 20198 58003 60234;
0137821980999992008060918004-01717-045400FM-12+004499999V0201401N002110450019N0005001N1+02941+02241100961ADDGF107991041071004501061011MA1999999100451MD1999999-0381REMSYN070AAXX  09184 82198 32493 71404 10294 20224 30045 40096 84761 333 59038;
0196821980999992008061000004-01717-045400FM-12+004499999V0200901N001510450019N0002001N1+02581+02311101261ADDAY111061AY221061GF106991031071004501061001KA1240M+03111MA1999999100751MD1999999+0181MW1131REMSYN094AAXX  10004 82198 31492 60903 10258 20231 30075 40126 71312 83760 333 10311 29083 55028 58018;
0156821980999992008061012004-01717-045400FM-12+004499999V0201801N003110450019N0010001N1+02491+02251101281ADDGF107991031021004501031001KA1240N+02061MA1999999100771MD1999999+0071REMSYN076AAXX  10124 82198 32494 71806 10249 20225 30077 40128 83230 333 20206 58007;
0137821980999992008061018004-01717-045400FM-12+004499999V0200901N001510450019N0010001N1+02801+02311101041ADDGF107991031031004501061001MA1999999100531MD1999999+0081REMSYN070AAXX  10184 82198 32494 70903 10280 20231 30053 40104 83360 333 58008;
0232821980999992008061100004-01717-045400FM-12+004499999V0201601N000510450019N0002001N1+02561+02441101241ADDAA106000091AY151061AY221061GF107991041051004501061001KA1240M+02971MA1999999100731MD1999999-0021MW1021REMSYN100AAXX  11004 82198 21492 71601 10256 20244 30073 40124 70252 84560 333 10297 29087 55018 59002 69921;EQDQ01  00002PRCP06
0201821980999992008061112004-01717-045400FM-12+004499999V0200901N001510450019N0010001N1+02761+02461101221ADDAA124000891AY151061AY221061GF105991021011004501031001KA1240N+02161MA1999999100711MD1999999-0061MW1021REMSYN088AAXX  11124 82198 21494 50903 10276 20246 30071 40122 70252 82130 333 20216 59006 69984;
0137821980999992008061118004-01717-045400FM-12+004499999V0200501N005110450019N0010001N1+03041+02201100941ADDGF105991031021004501031001MA1999999100431MD1999999-0101REMSYN070AAXX  11184 82198 32494 50510 10304 20220 30043 40094 83230 333 59010;
0168821980999992008061200004-01717-045400FM-12+004499999V0200501N001510450019N0002001N1+02661+02411101221ADDGF107991021011004501061001KA1240M+03251MA1999999100711MD1999999-0021REMSYN088AAXX  12004 82198 32492 70503 10266 20241 30071 40122 82160 333 10325 29079 55066 59002;
0156821980999992008061212004-01717-045400FM-12+004499999V0200701N002110450019N0010001N1+02951+02491101291ADDGF107991031021004501031001KA1240N+02251MA1999999100781MD1999999+0061REMSYN076AAXX  12124 82198 32494 70704 10295 20249 30078 40129 83230 333 20225 58006;
0182821980999992008061218004-01717-045400FM-12+004499999V0200501N002110450019N0010001N1+02551+02311101051ADDAA106015091AY191061AY261061GF106991031031004501041001MA1999999100541MD1999999+0111MW1021REMSYN082AAXX  12184 82198 21494 60504 10255 20231 30054 40105 70296 83340 333 58011 60151;
0168821980999992008061300004-01717-045400FM-12+004499999V0200501N001510042019N0002001N1+02411+02301101321ADDGF108991051051004501041999KA1240M+03161MA1999999100811MD1999999+0101REMSYN088AAXX  13004 82198 32492 80503 10241 20230 30081 40132 8554/ 333 10316 29088 55042 58010;
0201821980999992008061312004-01717-045400FM-12+004499999V0200701N001510450019N0010001N1+02521+02381101351ADDAA124019191AY161061AY221061GF106991031031004501061001KA1240N+02061MA1999999100841MD1999999+0061MW1021REMSYN088AAXX  13124 82198 21494 60703 10252 20238 30084 40135 70262 83360 333 20206 58006 60194;
0137821980999992008061318004-01717-045400FM-12+004499999V0200501N003110450019N0010001N1+02931+02391100971ADDGF107991031051004501061001MA1999999100461MD1999999-0081REMSYN070AAXX  13184 82198 32494 70506 10293 20239 30046 40097 83560 333 59008;
0168821980999992008061400004-01717-045400FM-12+004499999V0200901N001512200019N0002001N1+02661+02371101221ADDGF104991021011004501061001KA1240M+03281MA1999999100711MD1999999-0101REMSYN088AAXX  14004 82198 32492 40903 10266 20237 30071 40122 82160 333 10328 29083 55051 59010;
0156821980999992008061412004-01717-045400FM-12+004499999V0202701N001510450019N0010001N1+02741+02431101211ADDGF105991031021004501061001KA1240N+01961MA1999999100701MD1999999-0141REMSYN076AAXX  14124 82198 32494 52703 10274 20243 30070 40121 83260 333 20196 59014;
0137821980999992008061418004-01717-045400FM-12+004499999V0200901N003610450019N0010001N1+03021+02481100891ADDGF106991041031004501061001MA1999999100381MD1999999-0081REMSYN070AAXX  14184 82198 32494 60907 10302 20248 30038 40089 84360 333 59008;
0168821980999992008061500004-01717-045400FM-12+004499999V0200501N001510450019N0002001N1+02551+02381101151ADDGF107991021011004501031001KA1240M+03241MA1999999100641MD1999999-0071REMSYN088AAXX  15004 82198 32492 70503 10255 20238 30064 40115 82130 333 10324 29084 55076 59007;
0156821980999992008061512004-01717-045400FM-12+004499999V0200901N003610450019N0010001N1+02871+02411101191ADDGF105991031021004501031001KA1240N+02221MA1999999100681MD1999999-0021REMSYN076AAXX  15124 82198 32494 50907 10287 20241 30068 40119 83230 333 20222 59002;
0182821980999992008061518004-01717-045400FM-12+004499999V0201401N002110450019N0010001N1+02691+02391101031ADDAA106001091AY161061AY221061GF107991041031004501041001MA1999999100521MD1999999+0141MW1021REMSYN082AAXX  15184 82198 21494 71404 10269 20239 30052 40103 70262 84340 333 58014 60011;
0173821980999992008061612004-01717-045400FM-12+004499999V0201401N001510450019N0010001N1+02761+02541101361ADDAA124004191GF107991041011004501061001KA1240N+02101MA1999999100851MD1999999+0171REMSYN082AAXX  16124 82198 22494 71403 10276 20254 30085 40136 84160 333 20210 58017 60044;
0182821980999992008061618004-01717-045400FM-12+004499999V0203601N002110450019N0010001N1+02571+02401101051ADDAA106000021AY191061AY221061GF106991031051004501061001MA1999999100541MD1999999+0021MW1531REMSYN082AAXX  16184 82198 21494 63604 10257 20240 30054 40105 75392 83560 333 58002 69921;
0213821980999992008061700004-01717-045400FM-12+004499999V0202301N001012200019N0002001N1+02411+02261101241ADDAA106024991AY161061AY221061GF104991021011004501031001KA1240M+03171MA1999999100731MD1999999-0041MW1131REMSYN100AAXX  17004 82198 21492 42302 10241 20226 30073 40124 71362 82130 333 10317 29091 55037 59004 60251;
0201821980999992008061712004-01717-045400FM-12+004499999V0201401N002112200019N0010001N1+02781+02331101251ADDAA124025991AY141061AY201061GF103991011021004501041061KA1240N+02061MA1999999100741MD1999999-0111MW1281REMSYN088AAXX  17124 82198 21494 31404 10278 20233 30074 40125 72840 81246 333 20206 59011 60264;
0182821980999992008061718004-01717-045400FM-12+004499999V0200501N004610450019N0005001N1+02661+02461100991ADDAA106003091AY161061AY221061GF107991041071004501011001MA1999999100481MD1999999-0061MW1031REMSYN082AAXX  17184 82198 21493 70509 10266 20246 30048 40099 70362 84710 333 59006 60031;
0196821980999992008061800004-01717-045400FM-12+004499999V0202901N001010450019N0002001N1+02491+02261101121ADDAY121061AY221061GF107991041071004501061001KA1240M+03051MA1999999100611MD1999999-0121MW1131REMSYN094AAXX  18004 82198 31492 72902 10249 20226 30061 40112 71322 84760 333 10305 29088 55035 59012;
0173821980999992008061812004-01717-045400FM-12+004499999V0201401N002610450019N0005001N1+02831+02501101121ADDAA124003091GF107991041071004501061011KA1240N+02101MA1999999100611MD1999999-0131REMSYN082AAXX  18124 82198 22493 71405 10283 20250 30061 40112 84761 333 20210 59013 60034;
0182821980999992008061818004-01717-045400FM-12+004499999V0202301N004110450019N0005001N1+02501+02341101251ADDAA106020191AY191061AY261061GF108991041031004501061001MA1999999100741MD1999999-0011MW1621REMSYN082AAXX  18184 82198 21493 82308 10250 20234 30074 40125 76296 84360 333 59001 60201;
0213821980999992008061900004-01717-045400FM-12+004499999V0202701N001010450019N0002001N1+02411+02331101111ADDAA106002091AY161061AY221061GF107991041021004501011061KA1240M+02881MA1999999100601MD1999999-0011MW1131REMSYN100AAXX  19004 82198 21492 72702 10241 20233 30060 40111 71362 84216 333 10288 29092 55004 59001 60021;
0173821980999992008061912004-01717-045400FM-12+004499999V0201401N002110450019N0010001N1+02741+02451101191ADDAA124033091GF106991041021004501061001KA1240N+01991MA1999999100681MD1999999+0071REMSYN082AAXX  19124 82198 22494 61404 10274 20245 30068 40119 84260 333 20199 58007 60334;
0137821980999992008061918004-01717-045400FM-12+004499999V0200901N004610450019N0010001N1+03081+02241100911ADDGF105991031021004501011061MA1999999100401MD1999999-0071REMSYN070AAXX  19184 82198 32494 50909 10308 20224 30040 40091 83216 333 59007;
0168821980999992008062000004-01717-045400FM-12+004499999V0200501N001512200019N0002001N1+02571+02371101111ADDGF104991011011004501031011KA1240M+03151MA1999999100601MD1999999+0001REMSYN088AAXX  20004 82198 32492 40503 10257 20237 30060 40111 81131 333 10315 29080 55093 58000;
0184821980999992008062012004-01717-045400FM-12+004499999V0201401N002111050019N0010001N1+02801+02421101091ADDAY141061AY221061GF105991021011004501031011KA1240N+01991MA1999999100581MD1999999-0101MW1031REMSYN082AAXX  20124 82198 31494 51404 10280 20242 30058 40109 70342 82131 333 20199 59010;
0137821980999992008062018004-01717-045400FM-12+004499999V0201401N004610450019N0010001N1+03211+02181100851ADDGF105991031021004501041011MA1999999100341MD1999999-0061REMSYN070AAXX  20184 82198 32494 51409 10321 20218 30034 40085 83241 333 59006;
0168821980999992008062100004-01717-045400FM-12+004499999V0203201N002610042019N0002001N1+02631+02371101101ADDGF107991051011004501031001KA1240M+03251MA1999999100591MD1999999-0011REMSYN088AAXX  21004 82198 32492 73205 10263 20237 30059 40110 85130 333 10325 29072 55078 59001;
0184821980999992008062112004-01717-045400FM-12+004499999V0203201N001012200019N0005001N1+02711+02351101201ADDAY141061AY221061GF104991011021004501041061KA1240N+01991MA1999999100691MD1999999+0111MW1041REMSYN082AAXX  21124 82198 31493 43202 10271 20235 30069 40120 70442 81246 333 20199 58011;
0137821980999992008062118004-01717-045400FM-12+004499999V0201801N004610450019N0010001N1+03091+01941100871ADDGF106991031021004501041061MA1999999100361MD1999999+0021REMSYN070AAXX  21184 82198 32494 61809 10309 20194 30036 40087 83246 333 58002;
0196821980999992008062200004-01717-045400FM-12+004499999V0200501N002112200019N0005001N1+02561+02361101081ADDAY121061AY221061GF103991021021004501001041KA1240M+03271MA1999999100571MD1999999-0021MW1131REMSYN094AAXX  22004 82198 31493 30504 10256 20236 30057 40108 71322 82204 333 10327 29078 55086 59002;
0184821980999992008062212004-01717-045400FM-12+004499999V0200701N002610450019N0005001N1+02661+02351101201ADDAY121061AY221061GF106991031021004501031061KA1240N+02071MA1999999100691MD1999999+0001MW1041REMSYN082AAXX  22124 82198 31493 60705 10266 20235 30069 40120 70422 83236 333 20207 58000;
0182821980999992008062218004-01717-045400FM-12+004499999V0203201N002610450019N0005001N1+02501+02311101011ADDAA106016091AY161061AY221061GF107991041071004501061001MA1999999100501MD1999999+0201MW1621REMSYN082AAXX  22184 82198 21493 73205 10250 20231 30050 40101 76262 84760 333 58020 60161;
0178821980999992008062300004-01717-045400FM-12+004499999V0200901N002612200019N0002001N1+02471+02191101151ADDGA1001+999999999GF100991001001999999001001KA1240M+03181MA1999999100641MD1999999+0071REMSYN082AAXX  23004 82198 32992 00905 10247 20219 30064 40115 333 10318 29087 55041 58007;
0201821980999992008062312004-01717-045400FM-12+004499999V0200701N002612200019N0005001N1+02791+02441101281ADDAA124016091AY111061AY221061GF105991031011004501001061KA1240N+02031MA1999999100771MD1999999+0081MW1041REMSYN088AAXX  23124 82198 21493 50705 10279 20244 30077 40128 70412 83106 333 20203 58008 60164;
0137821980999992008062318004-01717-045400FM-12+004499999V0200901N002612200019N0010001N1+03141+02301101051ADDGF105991031011004501001041MA1999999100541MD1999999+0041REMSYN070AAXX  23184 82198 32494 50905 10314 20230 30054 40105 83104 333 58004;
0196821980999992008062400004-01717-045400FM-12+004499999V0200901N002112200019N0002001N1+02511+02271101321ADDAY111061AY221061GF103991031021004501001001KA1240M+03161MA1999999100801MD1999999+0161MW1131REMSYN094AAXX  24004 82198 31492 30904 10251 20227 30080 40132 71312 83200 333 10316 29078 55098 58016;
0156821980999992008062412004-01717-045400FM-12+004499999V0200901N002110450019N0010001N1+02731+02431101361ADDGF105991021011004501031001KA1240N+01981MA1999999100841MD1999999+0071REMSYN076AAXX  24124 82198 32494 50904 10273 20243 30084 40136 82130 333 20198 58007;
0182821980999992008062418004-01717-045400FM-12+004499999V0201401N001510042019N0005001N1+02441+02231101141ADDAA106014091AY161061AY221061GF108991051051004501021999MA1999999100621MD1999999+0081MW1621REMSYN082AAXX  24184 82198 21493 81403 10244 20223 30062 40114 76262 8552/ 333 58008 60141;
0213821980999992008062500004-01717-045400FM-12+004499999V0200501N002110450019N0002001N1+02341+02271101351ADDAA106029091AY161061AY221061GF108991041051004501071999KA1240M+03181MA1999999100831MD1999999+0031MW1211REMSYN100AAXX  25004 82198 21492 80504 10234 20227 30083 40135 72162 8457/ 333 10318 29091 55033 58003 60291;
0201821980999992008062512004-01717-045400FM-12+004499999V0200901N002610042019N0010001N1+02531+02361101401ADDAA124064091AY161061AY221061GF107991051011004501061001KA1240N+01941MA1999999100881MD1999999+0041MW1021REMSYN088AAXX  25124 82198 21494 70905 10253 20236 30088 40140 70262 85160 333 20194 58004 60644;
0182821980999992008062518004-01717-045400FM-12+004499999V0200501N004110450019N0010001N1+02641+02391101141ADDAA106006191AY161061AY221061GF107991031051004501021001MA1999999100621MD1999999+0001MW1631REMSYN082AAXX  25184 82198 21494 70508 10264 20239 30062 40114 76362 83520 333 58000 60061;
0213821980999992008062600004-01717-045400FM-12+004499999V0200501N001512200019N0002001N1+02471+02341101231ADDAA106001091AY161061AY221061GF102991021001012501061001KA1240M+03061MA1999999100711MD1999999-0121MW1011REMSYN100AAXX  26004 82198 21692 20503 10247 20234 30071 40123 70162 82060 333 10306 29090 55023 59012 60011;
0173821980999992008062612004-01717-045400FM-12+004499999V0200501N002612200019N0010001N1+02841+02461101201ADDAA124007191GF103991031011004501001001KA1240N+01961MA1999999100681MD1999999-0201REMSYN082AAXX  26124 82198 22494 30505 10284 20246 30068 40120 83100 333 20196 59020 60074;
0182821980999992008062618004-01717-045400FM-12+004499999V0203201N000510450019N0010001N1+02631+02391101051ADDAA106021191AY191061AY261061GF107991031031004501041001MA1999999100531MD1999999-0091MW1021REMSYN082AAXX  26184 82198 21494 73201 10263 20239 30053 40105 70296 83340 333 59009 60211;
0173821980999992008062712004-01717-045400FM-12+004499999V0200501N002610450019N0010001N1+02871+02501101361ADDAA124021191GF106991031011004501061001KA1240N+02001MA1999999100841MD1999999+0161REMSYN082AAXX  27124 82198 22494 60505 10287 20250 30084 40136 83160 333 20200 58016 60214;
0182821980999992008062718004-01717-045400FM-12+004499999V0200701N004610042019N0005001N1+02561+02361101181ADDAA106008991AY191061AY261061GF108991051051004501021999MA1999999100661MD1999999+0131MW1631REMSYN082AAXX  27184 82198 21493 80709 10256 20236 30066 40118 76396 8552/ 333 58013 60091;
0213821980999992008062800004-01717-045400FM-12+004499999V0209999C000012200019N0002001N1+02421+02351101411ADDAA106014091AY191061AY261061GF104991021011004501041001KA1240M+03171MA1999999100891MD1999999+0151MW1011REMSYN100AAXX  28004 82198 21492 40000 10242 20235 30089 40141 70196 82140 333 10317 29090 55067 58015 60141;
0173821980999992008062812004-01717-045400FM-12+004499999V0201401N002110042019N0010001N1+02811+02481101451ADDAA124023191GF105991051011004501001001KA1240N+02091MA1999999100931MD1999999+0091REMSYN082AAXX  28124 82198 22494 51404 10281 20248 30093 40145 85100 333 20209 58009 60234;
0165821980999992008062818004-01717-045400FM-12+004499999V0200501N002110450019N0010001N1+02911+02121101281ADDAY121061AY211061GF107991041091004501011001MA1999999100761MD1999999+0101MW1151REMSYN076AAXX  28184 82198 31494 70504 10291 20212 30076 40128 71521 84910 333 58010;
0196821980999992008062900004-01717-045400FM-12+004499999V0200501N001012200019N0002001N1+02481+02361101471ADDAY121061AY211061GF102991021001012501061001KA1240M+03201MA1999999100951MD1999999+0061MW1131REMSYN094AAXX  29004 82198 31692 20502 10248 20236 30095 40147 71321 82060 333 10320 29083 55065 58006;
0156821980999992008062912004-01717-045400FM-12+004499999V0200901N002112200019N0010001N1+02841+02381101491ADDGF104991021031004501041001KA1240N+02061MA1999999100971MD1999999+0041REMSYN076AAXX  29124 82198 32494 40904 10284 20238 30097 40149 82340 333 20206 58004;
0137821980999992008062918004-01717-045400FM-12+004499999V0200501N001510450019N0010001N1+02781+02341101251ADDGF106991041021004501041001MA1999999100731MD1999999-0031REMSYN070AAXX  29184 82198 32494 60503 10278 20234 30073 40125 84240 333 59003;
0178821980999992008063000004-01717-045400FM-12+004499999V0200501N002112200019N0002001N1+02541+02381101431ADDGA1001+999999999GF100991001001999999001001KA1240M+03071MA1999999100911MD1999999-0041REMSYN082AAXX  30004 82198 32992 00504 10254 20238 30091 40143 333 10307 29084 55057 59004;
0156821980999992008063012004-01717-045400FM-12+004499999V0201601N001010450019N0010001N1+02851+02481101431ADDGF106991041021004501061001KA1240N+02001MA1999999100911MD1999999-0061REMSYN076AAXX  30124 82198 32494 61602 10285 20248 30091 40143 84260 333 20200 59006;
0137821980999992008063018004-01717-045400FM-12+004499999V0201801N002110042019N0010001N1+03121+02171101071ADDGF106991051021004501061001MA1999999100551MD1999999-0111REMSYN070AAXX  30184 82198 32494 61804 10312 20217 30055 40107 85260 333 59011;
0223821980999992008070100004-01717-045400FM-12+004499999V0209999C000012200019N0002001N1+02471+02281101351ADDAA106018091AY161061AY221061GA1001+999999999GF100991001001999999001001KA1240M+03181MA1999999100831MD1999999-0081MW1011REMSYN094AAXX  01004 82198 21992 00000 10247 20228 30083 40135 70162 333 10318 29079 55059 59008 60181;
0201821980999992008070112004-01717-045400FM-12+004499999V0200901N001512200019N0010001N1+02821+02461101341ADDAA124018091AY141061AY221061GF103991011011004501031011KA1240N+02011MA1999999100821MD1999999-0091MW1031REMSYN088AAXX  01124 82198 21494 30903 10282 20246 30082 40134 70342 81131 333 20201 59009 60184;
0182821980999992008070118004-01717-045400FM-12+004499999V0203601N001512200019N0010001N1+03011+02391101101ADDAA106001091AY191061AY221061GF104991021021004501001041MA1999999100591MD1999999+0041MW1151REMSYN082AAXX  01184 82198 21494 43603 10301 20239 30059 40110 71592 82204 333 58004 60011;
0196821980999992008070200004-01717-045400FM-12+004499999V0200901N003112200019N0002001N1+02621+02411101381ADDAY111061AY221061GF102991011021004501061001KA1240M+03161MA1999999100871MD1999999+0041MW1131REMSYN094AAXX  02004 82198 31492 20906 10262 20241 30087 40138 71312 81260 333 10316 29084 55080 58004;
0201821980999992008070212004-01717-045400FM-12+004499999V0201401N002612200019N0010001N1+02501+02401101481ADDAA124018091AY191061AY261061GF104991021011004501031011KA1240N+01971MA1999999100961MD1999999+0141MW1031REMSYN088AAXX  02124 82198 21494 41405 10250 20240 30096 40148 70396 82131 333 20197 58014 60184;
0137821980999992008070218004-01717-045400FM-12+004499999V0200901N004612200019N0010001N1+02991+02141101111ADDGF104991031021004501001061MA1999999100601MD1999999+0011REMSYN070AAXX  02184 82198 32494 40909 10299 20214 30060 40111 83206 333 58001;
0168821980999992008070300004-01717-045400FM-12+004499999V0200901N002612200019N0002001N1+02591+02331101381ADDGF102991021021004501001001KA1240M+03061MA1999999100871MD1999999+0001REMSYN088AAXX  03004 82198 32492 20905 10259 20233 30087 40138 82200 333 10306 29081 55074 58000;
0156821980999992008070312004-01717-045400FM-12+004499999V0200901N003112200019N0010001N1+02891+02401101371ADDGF104991021021004501011001KA1240N+01931MA1999999100861MD1999999-0101REMSYN076AAXX  03124 82198 32494 40906 10289 20240 30086 40137 82210 333 20193 59010;
0137821980999992008070318004-01717-045400FM-12+004499999V0201401N002110042019N0010001N1+03141+02241101081ADDGF105991051021004501001001MA1999999100571MD1999999-0031REMSYN070AAXX  03184 82198 32494 51404 10314 20224 30057 40108 85200 333 59003;
0213821980999992008070400004-01717-045400FM-12+004499999V0200701N001512200019N0002001N1+02591+02371101301ADDAA106001091AY161061AY221061GF102991011021004501061001KA1240M+03221MA1999999100791MD1999999-0081MW1131REMSYN100AAXX  04004 82198 21492 20703 10259 20237 30079 40130 71362 81260 333 10322 29078 55083 59008 60011;
0173821980999992008070412004-01717-045400FM-12+004499999V0200501N002112200019N0010001N1+02841+02381101341ADDAA124001091GF104991021011004501061011KA1240N+02001MA1999999100831MD1999999-0031REMSYN082AAXX  04124 82198 22494 40504 10284 20238 30083 40134 82161 333 20200 59003 60014;
0165821980999992008070418004-01717-045400FM-12+004499999V0201401N007210042019N0010001N1+02601+02231101151ADDAY121061AY221061GF107991051051004501071001MA1999999100631MD1999999+0061MW1151REMSYN076AAXX  04184 82198 31494 71414 10260 20223 30063 40115 71522 85570 333 58006;
0184821980999992008070512004-01717-045400FM-12+004499999V0200901N002612200019N0010001N1+02861+02441101311ADDAY141061AY221061GF104991011011004501031011KA1240N+01961MA1999999100801MD1999999-0031MW1031REMSYN082AAXX  05124 82198 31494 40905 10286 20244 30080 40131 70342 81131 333 20196 59003;
0165821980999992008070518004-01717-045400FM-12+004499999V0200901N001510450019N0010001N1+03021+02311101091ADDAY191061AY221061GF106991031021004501031041MA1999999100571MD1999999-0061MW1021REMSYN076AAXX  05184 82198 31494 60903 10302 20231 30057 40109 70292 83234 333 59006;
0178821980999992008070600004-01717-045400FM-12+004499999V0200901N002612200019N0002001N1+02631+02371101251ADDGA1001+999999999GF100991001001999999001001KA1240M+03241MA1999999100741MD1999999+0021REMSYN082AAXX  06004 82198 32992 00905 10263 20237 30074 40125 333 10324 29080 55080 58002;
0156821980999992008070612004-01717-045400FM-12+004499999V0200901N002110042019N0010001N1+02811+02311101361ADDGF105991051021004501001001KA1240N+02091MA1999999100841MD1999999+0041REMSYN076AAXX  06124 82198 32494 50904 10281 20231 30084 40136 85200 333 20209 58004;
0201821980999992008070712004-01717-045400FM-12+004499999V0201401N002612200019N0010001N1+02801+02561101371ADDAA124006191AY161061AY221061GF103991021021004501001061KA1240N+02101MA1999999100851MD1999999+0011MW1021REMSYN088AAXX  07124 82198 21494 31405 10280 20256 30085 40137 70262 82206 333 20210 58001 60064;
0137821980999992008070718004-01717-045400FM-12+004499999V0200901N005112200019N0010001N1+03031+02111101141ADDGF103991021021004501001041MA1999999100621MD1999999+0001REMSYN070AAXX  07184 82198 32494 30910 10303 20211 30062 40114 82204 333 58000;
0168821980999992008070800004-01717-045400FM-12+004499999V0200901N002610450019N0002001N1+02601+02311101351ADDGF106991041021004501031001KA1240M+03061MA1999999100841MD1999999-0021REMSYN088AAXX  08004 82198 32492 60905 10260 20231 30084 40135 84230 333 10306 29078 55086 59002;
0156821980999992008070812004-01717-045400FM-12+004499999V0200901N003612200019N0010001N1+02841+02331101341ADDGF104991031011004501061001KA1240N+02041MA1999999100831MD1999999-0021REMSYN076AAXX  08124 82198 32494 40907 10284 20233 30083 40134 83160 333 20204 59002;
0201821980999992008070818004-01717-045400FM-12+004499999V0202301N001010042019N0010001N1+02811+02461101071ADDAA106000091AY151061AY221061GF106991061021004501001001MA1999999100551MD1999999-0071MW1021REMSYN082AAXX  08184 82198 21494 62302 10281 20246 30055 40107 70252 86200 333 59007 69921;EQDQ01  00002PRCP06
0213821980999992008070900004-01717-045400FM-12+004499999V0200501N002112200019N0002001N1+02481+02451101291ADDAA106000391AY151061AY221061GF103991031001012501041001KA1240M+03081MA1999999100781MD1999999-0061MW1011REMSYN100AAXX  09004 82198 21692 30504 10248 20245 30078 40129 70152 83040 333 10308 29083 55067 59006 69931;
0173821980999992008070912004-01717-045400FM-12+004499999V0201401N002612200019N0010001N1+02621+02291101291ADDAA124000591GF103991031011004501001001KA1240N+02101MA1999999100771MD1999999-0061REMSYN082AAXX  09124 82198 22494 31405 10262 20229 30077 40129 83100 333 20210 59006 69954;
0137821980999992008070918004-01717-045400FM-12+004499999V0201401N003612200019N0010001N1+03071+02131101021ADDGF104991041021004501001001MA1999999100511MD1999999-0041REMSYN070AAXX  09184 82198 32494 41407 10307 20213 30051 40102 84200 333 59004;
0168821980999992008071000004-01717-045400FM-12+004499999V0200501N002112200019N0002001N1+02581+02291101261ADDGF102991021001012501061001KA1240M+03131MA1999999100731MD1999999-0051REMSYN088AAXX  10004 82198 32692 20504 10258 20229 30073 40126 82060 333 10313 29077 55089 59005;
0201821980999992008071012004-01717-045400FM-12+004499999V0200901N002112200019N0010001N1+02701+02301101351ADDAA124000391AY111061AY211061GF104991031021004501061001KA1240N+02131MA1999999100841MD1999999+0071MW1201REMSYN088AAXX  10124 82198 21494 40904 10270 20230 30084 40135 72011 83260 333 20213 58007 69934;
0137821980999992008071018004-01717-045400FM-12+004499999V0200901N005110042019N0010001N1+03081+02041101151ADDGF105991051021004501001001MA1999999100641MD1999999+0131REMSYN070AAXX  10184 82198 32494 50910 10308 20204 30064 40115 85200 333 58013;
0168821980999992008071100004-01717-045400FM-12+004499999V0200501N001512200019N0002001N1+02571+02291101381ADDGF103991021011004501041001KA1240M+03131MA1999999100861MD1999999+0131REMSYN088AAXX  11004 82198 32492 30503 10257 20229 30086 40138 82140 333 10313 29075 55079 58013;
0156821980999992008071112004-01717-045400FM-12+004499999V0201401N002612200019N0010001N1+02901+02371101381ADDGF104991041011004501001001KA1240N+02101MA1999999100871MD1999999+0031REMSYN076AAXX  11124 82198 32494 41405 10290 20237 30087 40138 84100 333 20210 58003;
0137821980999992008071118004-01717-045400FM-12+004499999V0201401N003612200019N0010001N1+03191+02071101111ADDGF105991041021004501001011MA1999999100601MD1999999-0041REMSYN070AAXX  11184 82198 32494 51407 10319 20207 30060 40111 84201 333 59004;
0223821980999992008071200004-01717-045400FM-12+004499999V0200501N002112200019N0002001N1+02601+02351101401ADDAA106000021AY111061AY201061GA1001+999999999GF100991001001999999001001KA1240M+03241MA1999999100891MD1999999+0031MW1201REMSYN094AAXX  12004 82198 21992 00504 10260 20235 30089 40140 72010 333 10324 29074 55097 58003 69911;
0173821980999992008071212004-01717-045400FM-12+004499999V0200901N002112200019N0010001N1+02871+02461101401ADDAA124000021GF103991031011004501001001KA1240N+02091MA1999999100881MD1999999+0011REMSYN082AAXX  12124 82198 22494 30904 10287 20246 30088 40140 83100 333 20209 58001 69914;
0182821980999992008071218004-01717-045400FM-12+004499999V0200701N003110042019N0010001N1+02461+02411101081ADDAA106003091AY161061AY221061GF108991051051004501021999MA1999999100561MD1999999-0041MW1291REMSYN082AAXX  12184 82198 21494 80706 10246 20241 30056 40108 72962 8552/ 333 59004 60031;
0168821980999992008071300004-01717-045400FM-12+004499999V0200901N002112200019N0002001N1+02491+02361101321ADDGF102991021001012501041001KA1240M+03271MA1999999100801MD1999999-0091REMSYN088AAXX  13004 82198 32692 20904 10249 20236 30080 40132 82040 333 10327 29090 55067 59009;
0173821980999992008071312004-01717-045400FM-12+004499999V0203601N001012200019N0010001N1+02841+02291101251ADDAA124003091GF102991011031004501061001KA1240N+02041MA1999999100731MD1999999-0151REMSYN082AAXX  13124 82198 22494 23602 10284 20229 30073 40125 81360 333 20204 59015 60034;
0137821980999992008071318004-01717-045400FM-12+004499999V0200901N002110042019N0010001N1+02741+02401101031ADDGF107991051021004501061001MA1999999100521MD1999999-0041REMSYN070AAXX  13184 82198 32494 70904 10274 20240 30052 40103 85260 333 59004;
0168821980999992008071400004-01717-045400FM-12+004499999V0200501N002112200019N0002001N1+02561+02361101191ADDGF104991041001012501041001KA1240M+03171MA1999999100671MD1999999-0131REMSYN088AAXX  14004 82198 32692 40504 10256 20236 30067 40119 84040 333 10317 29083 55067 59013;
0156821980999992008071412004-01717-045400FM-12+004499999V0200501N001511050019N0010001N1+02821+02481101281ADDGF105991021021004501061011KA1240N+02001MA1999999100771MD1999999+0041REMSYN076AAXX  14124 82198 32494 50503 10282 20248 30077 40128 82261 333 20200 58004;
0137821980999992008071418004-01717-045400FM-12+004499999V0200901N003110450019N0010001N1+02661+02331101131ADDGF108991031031004501071001MA1999999100611MD1999999+0091REMSYN070AAXX  14184 82198 32494 80906 10266 20233 30061 40113 83370 333 58009;
0168821980999992008071500004-01717-045400FM-12+004499999V0200901N002112200019N0002001N1+02501+02341101281ADDGF104991021011004501041001KA1240M+03121MA1999999100761MD1999999+0091REMSYN088AAXX  15004 82198 32492 40904 10250 20234 30076 40128 82140 333 10312 29086 55049 58009;
0156821980999992008071512004-01717-045400FM-12+004499999V0200901N001510450019N0010001N1+02841+02381101371ADDGF105991031021004501061011KA1240N+02001MA1999999100851MD1999999+0081REMSYN076AAXX  15124 82198 32494 50903 10284 20238 30085 40137 83261 333 20200 58008;
0137821980999992008071518004-01717-045400FM-12+004499999V0200201N004610450019N0010001N1+02701+02371101141ADDGF106991041021004501041001MA1999999100621MD1999999+0011REMSYN070AAXX  15184 82198 32494 60209 10270 20237 30062 40114 84240 333 58001;
0168821980999992008071600004-01717-045400FM-12+004499999V0202301N001012200019N0002001N1+02421+02211101401ADDGF102991021001012501041001KA1240M+03141MA1999999100881MD1999999+0071REMSYN088AAXX  16004 82198 32692 22302 10242 20221 30088 40140 82040 333 10314 29084 55060 58007;
0156821980999992008071612004-01717-045400FM-12+004499999V0200901N001511050019N0010001N1+02741+02191101351ADDGF105991021021004501041021KA1240N+02101MA1999999100831MD1999999-0021REMSYN076AAXX  16124 82198 32494 50903 10274 20219 30083 40135 82242 333 20210 59002;
0182821980999992008071618004-01717-045400FM-12+004499999V0201801N002110450019N0010001N1+02471+02361101201ADDAA106020191AY191061AY261061GF107991031031004501041001MA1999999100681MD1999999+0061MW1021REMSYN082AAXX  16184 82198 21494 71804 10247 20236 30068 40120 70296 83340 333 58006 60201;
0213821980999992008071700004-01717-045400FM-12+004499999V0200901N001012200019N0002001N1+02311+02231101551ADDAA106006191AY191061AY261061GF103991011031004501061001KA1240M+03121MA1999999100831MD1999999+0001MW1131REMSYN100AAXX  17004 82198 21492 30902 10231 20223 30083 40155 71396 81360 333 10312 29089 55038 58000 60061;
0173821980999992008071712004-01717-045400FM-12+004499999V0200901N003110450019N0010001N1+02761+02341101291ADDAA124025991GF105991031021004501041001KA1240N+01991MA1999999100771MD1999999-0061REMSYN082AAXX  17124 82198 22494 50906 10276 20234 30077 40129 83240 333 20199 59006 60264;
0182821980999992008071718004-01717-045400FM-12+004499999V0202301N003110450019N0010001N1+02741+02341101081ADDAA106007991AY161061AY221061GF106991041031004501071001MA1999999100561MD1999999-0121MW1021REMSYN082AAXX  17184 82198 21494 62306 10274 20234 30056 40108 70262 84370 333 59012 60081;
0196821980999992008071800004-01717-045400FM-12+004499999V0200901N001510450019N0002001N1+02541+02291101281ADDAY121061AY221061GF105991021021004501031001KA1240M+02971MA1999999100761MD1999999-0071MW1131REMSYN094AAXX  18004 82198 31492 50903 10254 20229 30076 40128 71322 82230 333 10297 29082 55047 59007;
0201821980999992008071812004-01717-045400FM-12+004499999V0201801N003110450019N0010001N1+02321+02201101391ADDAA124020191AY191061AY261061GF108991031051004501041999KA1240N+01971MA1999999100871MD1999999+0101MW1021REMSYN088AAXX  18124 82198 21494 81806 10232 20220 30087 40139 70296 8354/ 333 20197 58010 60204;
0182821980999992008071818004-01717-045400FM-12+004499999V0200501N002110450019N0010001N1+02371+02311101171ADDAA106016091AY191061AY261061GF107991021031004501071001MA1999999100651MD1999999+0091MW1021REMSYN082AAXX  18184 82198 21494 70504 10237 20231 30065 40117 70296 82370 333 58009 60161;
0168821980999992008071900004-01717-045400FM-12+004499999V0202301N001010450019N0002001N1+02381+02291101341ADDGF106991031041004501071001KA1240M+03001MA1999999100821MD1999999+0061REMSYN088AAXX  19004 82198 32492 62302 10238 20229 30082 40134 83470 333 10300 29095 55016 58006;
0173821980999992008071912004-01717-045400FM-12+004499999V0200901N002112200019N0010001N1+02771+02441101431ADDAA124016091GF103991021011004501041001KA1240N+02011MA1999999100911MD1999999+0041REMSYN082AAXX  19124 82198 22494 30904 10277 20244 30091 40143 82140 333 20201 58004 60164;
0182821980999992008071918004-01717-045400FM-12+004499999V0200901N003610042019N0010001N1+02421+02251101191ADDAA106006191AY191061AY261061GF107991051051004501071001MA1999999100671MD1999999+0021MW1211REMSYN082AAXX  19184 82198 21494 70907 10242 20225 30067 40119 72196 85570 333 58002 60061;
0196821980999992008072000004-01717-045400FM-12+004499999V0200901N002112200019N0002001N1+02441+02341101341ADDAY101061AY211061GF102991021001012501061001KA1240M+03181MA1999999100821MD1999999+0011MW1131REMSYN094AAXX  20004 82198 31692 20904 10244 20234 30082 40134 71301 82060 333 10318 29090 55051 58001;
0173821980999992008072012004-01717-045400FM-12+004499999V0200901N003610042019N0010001N1+02821+02401101381ADDAA124006191GF106991061021004501001001KA1240N+02061MA1999999100861MD1999999-0011REMSYN082AAXX  20124 82198 22494 60907 10282 20240 30086 40138 86200 333 20206 59001 60064;
0182821980999992008072018004-01717-045400FM-12+004499999V0202301N001510042019N0010001N1+02861+02461101161ADDAA106004191AY161061AY221061GF105991051021004501001001MA1999999100641MD1999999-0031MW1021REMSYN082AAXX  20184 82198 21494 52303 10286 20246 30064 40116 70262 85200 333 59003 60041;
0178821980999992008072100004-01717-045400FM-12+004499999V0200501N002612200019N0002001N1+02541+02311101281ADDGA1001+999999999GF100991001001999999001001KA1240M+03111MA1999999100761MD1999999-0071REMSYN082AAXX  21004 82198 32992 00505 10254 20231 30076 40128 333 10311 29083 55082 59007;
0173821980999992008072112004-01717-045400FM-12+004499999V0200501N002610042019N0010001N1+02761+02421101311ADDAA124004191GF107991051021004501061001KA1240N+02111MA1999999100791MD1999999-0071REMSYN082AAXX  21124 82198 22494 70505 10276 20242 30079 40131 85260 333 20211 59007 60044;
0182821980999992008072118004-01717-045400FM-12+004499999V0202301N002610042019N0010001N1+02501+02321101101ADDAA106011991AY191061AY261061GF107991051051004501041001MA1999999100581MD1999999-0061MW1151REMSYN082AAXX  21184 82198 21494 72305 10250 20232 30058 40110 71596 85540 333 59006 60121;
0213821980999992008072200004-01717-045400FM-12+004499999V0200501N002112200019N0002001N1+02441+02351101261ADDAA106001091AY161061AY211061GF102991021001012501061001KA1240M+03201MA1999999100741MD1999999-0021MW1011REMSYN100AAXX  22004 82198 21692 20504 10244 20235 30074 40126 70161 82060 333 10320 29090 55060 59002 60011;
0173821980999992008072212004-01717-045400FM-12+004499999V0200901N003110042019N0010001N1+02751+02361101361ADDAA124013091GF106991061021004501001001KA1240N+02111MA1999999100841MD1999999+0051REMSYN082AAXX  22124 82198 22494 60906 10275 20236 30084 40136 86200 333 20211 58005 60134;
0182821980999992008072218004-01717-045400FM-12+004499999V0201801N001510042019N0010001N1+02831+02501101101ADDAA106002091AY121061AY221061GF106991051021004501041001MA1999999100581MD1999999+0001MW1211REMSYN082AAXX  22184 82198 21494 61803 10283 20250 30058 40110 72122 85240 333 58000 60021;
0178821980999992008072300004-01717-045400FM-12+004499999V0200501N002112200019N0002001N1+02541+02311101301ADDGA1001+999999999GF100991001001999999001001KA1240M+03091MA1999999100781MD1999999+0041REMSYN082AAXX  23004 82198 32992 00504 10254 20231 30078 40130 333 10309 29084 55076 58004;
0173821980999992008072312004-01717-045400FM-12+004499999V0200501N003610450019N0010001N1+02781+02401101301ADDAA124002091GF105991021021004501061001KA1240N+02141MA1999999100781MD1999999-0061REMSYN082AAXX  23124 82198 22494 50507 10278 20240 30078 40130 82260 333 20214 59006 60024;
0137821980999992008072318004-01717-045400FM-12+004499999V0202701N000510450019N0010001N1+02731+02341101101ADDGF105991031021004501061011MA1999999100581MD1999999+0001REMSYN070AAXX  23184 82198 32494 52701 10273 20234 30058 40110 83261 333 58000;
0156821980999992008072412004-01717-045400FM-12+004499999V0200901N003112200019N0010001N1+02851+02381101251ADDGF102991021011004501001001KA1240N+02131MA1999999100731MD1999999-0051REMSYN076AAXX  24124 82198 32494 20906 10285 20238 30073 40125 82100 333 20213 59005;
0182821980999992008072418004-01717-045400FM-12+004499999V0202301N006710042019N0005001N1+02411+02331101031ADDAA106005191AY121061AY211061GF108991051051004501021001MA1999999100511MD1999999-0071MW1951REMSYN082AAXX  24184 82198 21493 82313 10241 20233 30051 40103 79521 85520 333 59007 60051;
0223821980999992008072500004-01717-045400FM-12+004499999V0200501N002112200019N0002001N1+02561+02381101251ADDAA106002091AY161061AY221061GA1001+999999999GF100991001001999999001001KA1240M+03301MA1999999100731MD1999999+0071MW1011REMSYN094AAXX  25004 82198 21992 00504 10256 20238 30073 40125 70162 333 10330 29088 55074 58007 60021;
0173821980999992008072512004-01717-045400FM-12+004499999V0200501N002611050019N0010001N1+02901+02431101371ADDAA124007191GF105991021011004501061011KA1240N+02211MA1999999100851MD1999999+0121REMSYN082AAXX  25124 82198 22494 50505 10290 20243 30085 40137 82161 333 20221 58012 60074;
0137821980999992008072518004-01717-045400FM-12+004499999V0200901N003610450019N0010001N1+03141+02401101061ADDGF106991041021004501041001MA1999999100551MD1999999+0041REMSYN070AAXX  25184 82198 32494 60907 10314 20240 30055 40106 84240 333 58004;
0242821980999992008072600004-01717-045400FM-12+004499999V0200501N001512200019N0002001N1+02581+02371101241ADDAA106000091AY151061AY211061GA1001+999999999GF100991001001999999001001KA1240M+03251MA1999999100731MD1999999+0001MW1011REMSYN094AAXX  26004 82198 21992 00503 10258 20237 30073 40124 70151 333 10325 29079 55084 58000 69911;EQDQ01  00002PRCP06
0192821980999992008072612004-01717-045400FM-12+004499999V0200901N005110450019N0010001N1+02891+02441101351ADDAA124000091GF105991031021004501061011KA1240N+02161MA1999999100841MD1999999-0011REMSYN082AAXX  26124 82198 22494 50910 10289 20244 30084 40135 83261 333 20216 59001 69914;EQDQ01  00002PRCP24
0137821980999992008072618004-01717-045400FM-12+004499999V0200901N003612200019N0010001N1+02981+02301101051ADDGF104991041021004501001001MA1999999100541MD1999999-0011REMSYN070AAXX  26184 82198 32494 40907 10298 20230 30054 40105 84200 333 59001;
0178821980999992008072700004-01717-045400FM-12+004499999V0200901N002112200019N0002001N1+02541+02311101211ADDGA1001+999999999GF100991001001999999001001KA1240M+03181MA1999999100701MD1999999-0031REMSYN082AAXX  27004 82198 32992 00904 10254 20231 30070 40121 333 10318 29080 55082 59003;
0156821980999992008072712004-01717-045400FM-12+004499999V0200901N005110042019N0010001N1+02841+02381101361ADDGF106991061021004501001001KA1240N+02131MA1999999100841MD1999999+0001REMSYN076AAXX  27124 82198 32494 60910 10284 20238 30084 40136 86200 333 20213 58000;
0137821980999992008072718004-01717-045400FM-12+004499999V0200901N006212200019N0010001N1+03011+02271101091ADDGF104991041021004501001001MA1999999100581MD1999999+0041REMSYN070AAXX  27184 82198 32494 40912 10301 20227 30058 40109 84200 333 58004;
0178821980999992008072800004-01717-045400FM-12+004499999V0200501N002112200019N0002001N1+02541+02331101361ADDGA1001+999999999GF100991001001999999001001KA1240M+03161MA1999999100851MD1999999+0151REMSYN082AAXX  28004 82198 32992 00504 10254 20233 30085 40136 333 10316 29080 55102 58015;
0156821980999992008072812004-01717-045400FM-12+004499999V0200901N004610450019N0010001N1+02821+02401101371ADDGF106991041021004501061001KA1240N+02141MA1999999100861MD1999999+0021REMSYN076AAXX  28124 82198 32494 60909 10282 20240 30086 40137 84260 333 20214 58002;
0182821980999992008072818004-01717-045400FM-12+004499999V0200901N005110042019N0010001N1+02841+02351101141ADDAA106013091AY161061AY221061GF107991051021004501041001MA1999999100621MD1999999+0041MW1021REMSYN082AAXX  28184 82198 21494 70910 10284 20235 30062 40114 70262 85240 333 58004 60131;
0168821980999992008072900004-01717-045400FM-12+004499999V0200701N001510450019N0002001N1+02451+02281101331ADDGF105991031021004501061001KA1240M+02921MA1999999100811MD1999999-0041REMSYN088AAXX  29004 82198 32492 50703 10245 20228 30081 40133 83260 333 10292 29083 55043 59004;
0173821980999992008072912004-01717-045400FM-12+004499999V0200901N005110042019N0010001N1+02841+02381101361ADDAA124013091GF107991071021004501001001KA1240N+02081MA1999999100841MD1999999-0021REMSYN082AAXX  29124 82198 22494 70910 10284 20238 30084 40136 87200 333 20208 59002 60134;
0137821980999992008072918004-01717-045400FM-12+004499999V0201401N001010042019N0010001N1+03061+02151101001ADDGF105991051021004501001001MA1999999100491MD1999999-0131REMSYN070AAXX  29184 82198 32494 51402 10306 20215 30049 40100 85200 333 59013;
0168821980999992008073000004-01717-045400FM-12+004499999V0200501N002112200019N0002001N1+02601+02351101241ADDGF104991021011004501061001KA1240M+03181MA1999999100721MD1999999-0091REMSYN088AAXX  30004 82198 32492 40504 10260 20235 30072 40124 82160 333 10318 29077 55100 59009;
0156821980999992008073012004-01717-045400FM-12+004499999V0200901N003612200019N0010001N1+02871+02321101271ADDGF103991021011004501061001KA1240N+02101MA1999999100761MD1999999-0081REMSYN076AAXX  30124 82198 32494 30907 10287 20232 30076 40127 82160 333 20210 59008;
0137821980999992008073018004-01717-045400FM-12+004499999V0200901N003610042019N0010001N1+03161+02321100951ADDGF105991051021004501001001MA1999999100441MD1999999-0051REMSYN070AAXX  30184 82198 32494 50907 10316 20232 30044 40095 85200 333 59005;
0168821980999992008073100004-01717-045400FM-12+004499999V0200901N002612200019N0002001N1+02591+02311101111ADDGF103991031001012501061001KA1240M+03261MA1999999100601MD1999999-0121REMSYN088AAXX  31004 82198 32692 30905 10259 20231 30060 40111 83060 333 10326 29076 55098 59012;
0156821980999992008073112004-01717-045400FM-12+004499999V0200901N002612200019N0010001N1+02931+02411101141ADDGF102991011011004501041001KA1240N+02091MA1999999100631MD1999999-0131REMSYN076AAXX  31124 82198 32494 20905 10293 20241 30063 40114 81140 333 20209 59013;
0137821980999992008073118004-01717-045400FM-12+004499999V0200501N004610042019N0010001N1+03021+02441100881ADDGF105991051021004501001001MA1999999100371MD1999999-0071REMSYN070AAXX  31184 82198 32494 50509 10302 20244 30037 40088 85200 333 59007;
0242821980999992008080100004-01717-045400FM-12+004499999V0200501N003112200019N0002001N1+02601+02391101191ADDAA106000091AY151061AY221061GA1001+999999999GF100991001001999999001001KA1240M+03251MA1999999100681MD1999999+0081MW1011REMSYN094AAXX  01004 82198 21992 00506 10260 20239 30068 40119 70152 333 10325 29080 55095 58008 69921;EQDQ01  00002PRCP06
0192821980999992008080112004-01717-045400FM-12+004499999V0200901N005110042019N0010001N1+02851+02351101191ADDAA124000091GF105991051021004501001001KA1240N+02221MA1999999100681MD1999999+0051REMSYN082AAXX  01124 82198 22494 50910 10285 20235 30068 40119 85200 333 20222 58005 69924;EQDQ01  00002PRCP24
0137821980999992008080118004-01717-045400FM-12+004499999V0200901N003610042019N0010001N1+03101+02361100861ADDGF105991051021004501001001MA1999999100351MD1999999-0021REMSYN070AAXX  01184 82198 32494 50907 10310 20236 30035 40086 85200 333 59002;
0178821980999992008080200004-01717-045400FM-12+004499999V0200501N002612200019N0002001N1+02571+02311101201ADDGA1001+999999999GF100991001001999999001001KA1240M+03201MA1999999100691MD1999999+0011REMSYN082AAXX  02004 82198 32992 00505 10257 20231 30069 40120 333 10320 29078 55100 58001;
0156821980999992008080212004-01717-045400FM-12+004499999V0200901N003110042019N0010001N1+02841+02421101231ADDGF105991051021004501001001KA1240N+02101MA1999999100721MD1999999+0041REMSYN076AAXX  02124 82198 32494 50906 10284 20242 30072 40123 85200 333 20210 58004;
0137821980999992008080218004-01717-045400FM-12+004499999V0200501N003612200019N0010001N1+03221+02231100941ADDGF104991041021004501001001MA1999999100431MD1999999+0081REMSYN070AAXX  02184 82198 32494 40507 10322 20223 30043 40094 84200 333 58008;
0178821980999992008080300004-01717-045400FM-12+004499999V0200501N002612200019N0002001N1+02541+02361101181ADDGA1001+999999999GF100991001001999999001001KA1240M+03271MA1999999100671MD1999999-0021REMSYN082AAXX  03004 82198 32992 00505 10254 20236 30067 40118 333 10327 29080 55103 59002;
0156821980999992008080312004-01717-045400FM-12+004499999V0200901N003110042019N0010001N1+02781+02321101251ADDGF106991061021004501001001KA1240N+02131MA1999999100731MD1999999+0011REMSYN076AAXX  03124 82198 32494 60906 10278 20232 30073 40125 86200 333 20213 58001;
0137821980999992008080318004-01717-045400FM-12+004499999V0200501N004612200019N0010001N1+03151+02371100971ADDGF104991041021004501001001MA1999999100461MD1999999+0031REMSYN070AAXX  03184 82198 32494 40509 10315 20237 30046 40097 84200 333 58003;
0178821980999992008080400004-01717-045400FM-12+004499999V0200501N003112200019N0002001N1+02541+02311101141ADDGA1001+999999999GF100991001001999999001001KA1240M+03241MA1999999100621MD1999999-0051REMSYN082AAXX  04004 82198 32992 00506 10254 20231 30062 40114 333 10324 29078 55095 59005;
0156821980999992008080412004-01717-045400FM-12+004499999V0200901N003110042019N0010001N1+02801+02461101241ADDGF106991061021004501001001KA1240N+02071MA1999999100731MD1999999+0001REMSYN076AAXX  04124 82198 32494 60906 10280 20246 30073 40124 86200 333 20207 58000;
0137821980999992008080418004-01717-045400FM-12+004499999V0200501N003610450019N0010001N1+03041+02231101021ADDGF106991041021004501061001MA1999999100511MD1999999+0051REMSYN070AAXX  04184 82198 32494 60507 10304 20223 30051 40102 84260 333 58005;
0178821980999992008080500004-01717-045400FM-12+004499999V0200901N003112200019N0002001N1+02501+02251101141ADDGA1001+999999999GF100991001001999999001001KA1240M+03171MA1999999100631MD1999999+0011REMSYN082AAXX  05004 82198 32992 00906 10250 20225 30063 40114 333 10317 29079 55095 58001;
0156821980999992008080512004-01717-045400FM-12+004499999V0200901N003112200019N0010001N1+02881+02281101181ADDGF104991041011004501001001KA1240N+02151MA1999999100671MD1999999-0061REMSYN076AAXX  05124 82198 32494 40906 10288 20228 30067 40118 84100 333 20215 59006;
0182821980999992008080518004-01717-045400FM-12+004499999V0200501N004610450019N0010001N1+03021+02411100961ADDAA106000391AY121061AY211061GF105991041021004501061001MA1999999100451MD1999999-0061MW1201REMSYN082AAXX  05184 82198 21494 50509 10302 20241 30045 40096 72021 84260 333 59006 69931;
0206821980999992008080600004-01717-045400FM-12+004499999V0200501N002112200019N0002001N1+02571+02311101151ADDAY111061AY201061GA1001+999999999GF100991001001999999001001KA1240M+03191MA1999999100641MD1999999+0011MW1131REMSYN088AAXX  06004 82198 31992 00504 10257 20231 30064 40115 71310 333 10319 29078 55090 58001;
0173821980999992008080612004-01717-045400FM-12+004499999V0200501N004110042019N0010001N1+02871+02441101181ADDAA124000391GF108991061051004501041999KA1240N+02191MA1999999100671MD1999999+0001REMSYN082AAXX  06124 82198 22494 80508 10287 20244 30067 40118 8654/ 333 20219 58000 69934;
0182821980999992008080618004-01717-045400FM-12+004499999V0200901N003610450019N0010001N1+02951+02331100881ADDAA106008991AY161061AY221061GF106991041021004501061001MA1999999100371MD1999999-0081MW1021REMSYN082AAXX  06184 82198 21494 60907 10295 20233 30037 40088 70262 84260 333 59008 60091;
0178821980999992008080700004-01717-045400FM-12+004499999V0200501N003612200019N0002001N1+02541+02311101071ADDGA1001+999999999GF100991001001999999001001KA1240M+03181MA1999999100561MD1999999-0081REMSYN082AAXX  07004 82198 32992 00507 10254 20231 30056 40107 333 10318 29080 55073 59008;
0173821980999992008080712004-01717-045400FM-12+004499999V0200901N003112200019N0010001N1+02881+02371101181ADDAA124008991GF104991021021004501001041KA1240N+02101MA1999999100671MD1999999+0001REMSYN082AAXX  07124 82198 22494 40906 10288 20237 30067 40118 82204 333 20210 58000 60094;
0137821980999992008080718004-01717-045400FM-12+004499999V0200501N003610042019N0010001N1+03231+02321100941ADDGF105991051021004501001001MA1999999100431MD1999999+0061REMSYN070AAXX  07184 82198 32494 50507 10323 20232 30043 40094 85200 333 58006;
0156821980999992008080812004-01717-045400FM-12+004499999V0200901N003610042019N0010001N1+02811+02341101291ADDGF107991051021004501061001KA1240N+02131MA1999999100771MD1999999+0101REMSYN076AAXX  08124 82198 32494 70907 10281 20234 30077 40129 85260 333 20213 58010;
0182821980999992008080818004-01717-045400FM-12+004499999V0203201N002110450019N0010001N1+02601+02461100991ADDAA106002091AY121061AY221061GF106991041051004501041001MA1999999100481MD1999999+0051MW1211REMSYN082AAXX  08184 82198 21494 63204 10260 20246 30048 40099 72122 84540 333 58005 60021;
0213821980999992008080900004-01717-045400FM-12+004499999V0200501N002112200019N0002001N1+02521+02311101191ADDAA106003091AY161061AY211061GF102991021001012501061001KA1240M+03221MA1999999100681MD1999999+0011MW1131REMSYN100AAXX  09004 82198 21692 20504 10252 20231 30068 40119 71361 82060 333 10322 29086 55067 58001 60031;
0173821980999992008080912004-01717-045400FM-12+004499999V0200501N004612200019N0010001N1+02821+02311101371ADDAA124006191GF103991031011004501001001KA1240N+02101MA1999999100861MD1999999+0091REMSYN082AAXX  09124 82198 22494 30509 10282 20231 30086 40137 83100 333 20210 58009 60064;
0137821980999992008080918004-01717-045400FM-12+004499999V0200501N004612200019N0010001N1+03021+02341101061ADDGF103991031021004501001001MA1999999100551MD1999999+0071REMSYN070AAXX  09184 82198 32494 30509 10302 20234 30055 40106 83200 333 58007;
0168821980999992008081000004-01717-045400FM-12+004499999V0200501N002112200019N0002001N1+02521+02251101261ADDGF103991031001012501041001KA1240M+03201MA1999999100751MD1999999+0071REMSYN088AAXX  10004 82198 32692 30504 10252 20225 30075 40126 83040 333 10320 29078 55106 58007;
0156821980999992008081012004-01717-045400FM-12+004499999V0200501N003110042019N0010001N1+02851+02401101221ADDGF105991051021004501001001KA1240N+02121MA1999999100711MD1999999-0151REMSYN076AAXX  10124 82198 32494 50506 10285 20240 30071 40122 85200 333 20212 59015;
0137821980999992008081018004-01717-045400FM-12+004499999V0200501N004112200019N0010001N1+03101+02411100971ADDGF103991031021004501001001MA1999999100461MD1999999-0091REMSYN070AAXX  10184 82198 32494 30508 10310 20241 30046 40097 83200 333 59009;
0178821980999992008081100004-01717-045400FM-12+004499999V0200501N002612200019N0002001N1+02581+02371101121ADDGA1001+999999999GF100991001001999999001001KA1240M+03331MA1999999100611MD1999999-0141REMSYN082AAXX  11004 82198 32992 00505 10258 20237 30061 40112 333 10333 29080 55096 59014;
0156821980999992008081112004-01717-045400FM-12+004499999V0200501N002610042019N0010001N1+02881+02501101261ADDGF106991061021004501001001KA1240N+02101MA1999999100751MD1999999+0041REMSYN076AAXX  11124 82198 32494 60505 10288 20250 30075 40126 86200 333 20210 58004;
0137821980999992008081118004-01717-045400FM-12+004499999V0200501N004612200019N0010001N1+03171+02391100881ADDGF105991041021004501001011MA1999999100371MD1999999-0091REMSYN070AAXX  11184 82198 32494 50509 10317 20239 30037 40088 84201 333 59009;
0178821980999992008081200004-01717-045400FM-12+004499999V0200501N002612200019N0002001N1+02561+02291101081ADDGA1001+999999999GF100991001001999999001001KA1240M+03281MA1999999100571MD1999999+0041REMSYN082AAXX  12004 82198 32992 00505 10256 20229 30057 40108 333 10328 29078 55102 58004;
0156821980999992008081212004-01717-045400FM-12+004499999V0200501N003612200019N0010001N1+02941+02431101271ADDGF104991041021004501001001KA1240N+02101MA1999999100751MD1999999+0001REMSYN076AAXX  12124 82198 32494 40507 10294 20243 30075 40127 84200 333 20210 58000;
0137821980999992008081218004-01717-045400FM-12+004499999V0200501N004612200019N0010001N1+03151+02371100921ADDGF104991041021004501001001MA1999999100411MD1999999+0041REMSYN070AAXX  12184 82198 32494 40509 10315 20237 30041 40092 84200 333 58004;
0168821980999992008081300004-01717-045400FM-12+004499999V0200501N002612200019N0002001N1+02581+02331101221ADDGF102991021001012501041001KA1240M+03301MA1999999100711MD1999999+0141REMSYN088AAXX  13004 82198 32692 20505 10258 20233 30071 40122 82040 333 10330 29077 55104 58014;
0156821980999992008081312004-01717-045400FM-12+004499999V0200901N005110042019N0010001N1+02901+02431101291ADDGF106991061021004501001001KA1240N+02111MA1999999100781MD1999999+0031REMSYN076AAXX  13124 82198 32494 60910 10290 20243 30078 40129 86200 333 20211 58003;
0182821980999992008081318004-01717-045400FM-12+004499999V0200501N002110450019N0005001N1+02591+02401101001ADDAA106008991AY161061AY221061GF107991031051004501021001MA1999999100481MD1999999+0071MW1631REMSYN082AAXX  13184 82198 21493 70504 10259 20240 30048 40100 76362 83520 333 58007 60091;
0213821980999992008081400004-01717-045400FM-12+004499999V0202701N001512200019N0002001N1+02341+02241101351ADDAA106023991AY191061AY261061GF102991021001012501041001KA1240M+03241MA1999999100831MD1999999+0121MW1011REMSYN100AAXX  14004 82198 21692 22703 10234 20224 30083 40135 70196 82040 333 10324 29088 55068 58012 60241;
0173821980999992008081412004-01717-045400FM-12+004499999V0200901N005712200019N0010001N1+02711+02231101331ADDAA124033091GF103991011011004501031091KA1240N+02281MA1999999100811MD1999999+0031REMSYN082AAXX  14124 82198 22494 30911 10271 20223 30081 40133 81139 333 20228 58003 60334;
0137821980999992008081418004-01717-045400FM-12+004499999V0200901N003611050019N0010001N1+03111+02311101051ADDGF105991021021004501061011MA1999999100541MD1999999+0061REMSYN070AAXX  14184 82198 32494 50907 10311 20231 30054 40105 82261 333 58006;
0168821980999992008081500004-01717-045400FM-12+004499999V0200901N004112200019N0002001N1+02621+02331101281ADDGF102991021011004501001001KA1240M+03191MA1999999100761MD1999999-0071REMSYN088AAXX  15004 82198 32492 20908 10262 20233 30076 40128 82100 333 10319 29078 55090 59007;
0156821980999992008081512004-01717-045400FM-12+004499999V0200901N003112200019N0010001N1+02901+02371101281ADDGF101991011001004501001011KA1240N+02151MA1999999100771MD1999999-0041REMSYN076AAXX  15124 82198 32494 10906 10290 20237 30077 40128 81001 333 20215 59004;
0137821980999992008081518004-01717-045400FM-12+004499999V0200901N004610042019N0010001N1+03241+02281101011ADDGF105991051021004501001001MA1999999100501MD1999999-0041REMSYN070AAXX  15184 82198 32494 50909 10324 20228 30050 40101 85200 333 59004;
0178821980999992008081600004-01717-045400FM-12+004499999V0200901N003612200019N0002001N1+02581+02351101281ADDGA1001+999999999GF100991001001999999001001KA1240M+03311MA1999999100771MD1999999+0011REMSYN082AAXX  16004 82198 32992 00907 10258 20235 30077 40128 333 10331 29076 55106 58001;
0156821980999992008081612004-01717-045400FM-12+004499999V0200701N003612200019N0010001N1+02891+02271101281ADDGF104991041021004501001001KA1240N+02121MA1999999100771MD1999999+0001REMSYN076AAXX  16124 82198 32494 40707 10289 20227 30077 40128 84200 333 20212 58000;
0211821980999992008081618004-01717-045400FM-12+004499999V0200901N004611050019N0005001N1+03171+02511100911ADDAA106000091AY151061AY221061GF105991021021004501061011MA1999999100401MD1999999-0101REMSYN082AAXX  16184 82198 21493 50909 10317 20251 30040 40091 72452 82261 333 59010 69911;EQDQ01+000242PRSWM1Q02  00002PRCP06
0178821980999992008081700004-01717-045400FM-12+004499999V0200501N002612200019N0002001N1+02591+02421101131ADDGA1001+999999999GF100991001001999999001001KA1240M+03301MA1999999100621MD1999999-0151REMSYN082AAXX  17004 82198 32992 00505 10259 20242 30062 40113 333 10330 29080 55102 59015;
0156821980999992008081712004-01717-045400FM-12+004499999V0200501N003110042019N0010001N1+02891+02271101121ADDGF106991061021004501001001KA1240N+02151MA1999999100611MD1999999+0161REMSYN076AAXX  17124 82198 32494 60506 10289 20227 30061 40112 86200 333 20215 58016;
0165821980999992008081718004-01717-045400FM-12+004499999V0200501N004110450019N0010001N1+02751+02311100971ADDAY121061AY221061GF107991041071004501061001MA1999999100451MD1999999+0051MW1141REMSYN076AAXX  17184 82198 31494 70508 10275 20231 30045 40097 71422 84760 333 58005;
0168821980999992008081800004-01717-045400FM-12+004499999V0200701N002610450019N0002001N1+02631+02311101161ADDGF106991031011004501031061KA1240M+03281MA1999999100651MD1999999+0031REMSYN088AAXX  18004 82198 32492 60705 10263 20231 30065 40116 83136 333 10328 29079 55067 58003;
0156821980999992008081812004-01717-045400FM-12+004499999V0200901N003610042019N0005001N1+02921+02581101161ADDGF106991061021004501001001KA1240N+02311MA1999999100651MD1999999+0041REMSYN076AAXX  18124 82198 32493 60907 10292 20258 30065 40116 86200 333 20231 58004;
0182821980999992008081818004-01717-045400FM-12+004499999V0200501N001510450019N0005001N1+02921+02361100901ADDAA106003091AY161061AY221061GF107991041071004501061021MA1999999100381MD1999999-0071MW1171REMSYN082AAXX  18184 82198 21493 70503 10292 20236 30038 40090 71762 84762 333 59007 60031;
0168821980999992008081900004-01717-045400FM-12+004499999V0200701N001512200019N0002001N1+02471+02331101141ADDGF103991011011004501031001KA1240M+03251MA1999999100621MD1999999-0031REMSYN088AAXX  19004 82198 32492 30703 10247 20233 30062 40114 81130 333 10325 29086 55068 59003;
0173821980999992008081912004-01717-045400FM-12+004499999V0202301N004110042019N0010001N1+02841+02391101201ADDAA124002091GF105991051021004501001001KA1240N+02201MA1999999100681MD1999999+0031REMSYN082AAXX  19124 82198 22494 52308 10284 20239 30068 40120 85200 333 20220 58003 60024;
0137821980999992008081918004-01717-045400FM-12+004499999V0200901N004610450019N0010001N1+02931+02271100901ADDGF105991031021004501061001MA1999999100381MD1999999+0001REMSYN070AAXX  19184 82198 32494 50909 10293 20227 30038 40090 83260 333 58000;
0168821980999992008082000004-01717-045400FM-12+004499999V0200501N002112200019N0002001N1+02601+02351101061ADDGF104991041001012501061001KA1240M+03271MA1999999100551MD1999999-0071REMSYN088AAXX  20004 82198 32692 40504 10260 20235 30055 40106 84060 333 10327 29079 55078 59007;
0156821980999992008082012004-01717-045400FM-12+004499999V0200501N003110042019N0010001N1+02871+02371101091ADDGF105991051021004501001001KA1240N+02101MA1999999100581MD1999999-0101REMSYN076AAXX  20124 82198 32494 50506 10287 20237 30058 40109 85200 333 20210 59010;
0137821980999992008082018004-01717-045400FM-12+004499999V0200901N003612200019N0010001N1+03041+02261100851ADDGF104991041021004501001001MA1999999100331MD1999999-0051REMSYN070AAXX  20184 82198 32494 40907 10304 20226 30033 40085 84200 333 59005;
0168821980999992008082100004-01717-045400FM-12+004499999V0200901N002112200019N0002001N1+02581+02351101091ADDGF103991031001012501061001KA1240M+03241MA1999999100581MD1999999+0031REMSYN088AAXX  21004 82198 32692 30904 10258 20235 30058 40109 83060 333 10324 29078 55087 58003;
0156821980999992008082112004-01717-045400FM-12+004499999V0200501N005112200019N0010001N1+02911+02371101071ADDGF102991021011004501001001KA1240N+02101MA1999999100561MD1999999-0021REMSYN076AAXX  21124 82198 32494 20510 10291 20237 30056 40107 82100 333 20210 59002;
0182821980999992008082118004-01717-045400FM-12+004499999V0200701N002110450019N0010001N1+03141+02481100791ADDAA106000021AY121061AY211061GF105991031021004501041011MA1999999100281MD1999999-0051MW1201REMSYN082AAXX  21184 82198 21494 50704 10314 20248 30028 40079 72021 83241 333 59005 69921;
0168821980999992008082200004-01717-045400FM-12+004499999V0200501N002112200019N0002001N1+02621+02421101071ADDGF102991021031004501001001KA1240M+03411MA1999999100561MD1999999-0021REMSYN088AAXX  22004 82198 32492 20504 10262 20242 30056 40107 82300 333 10341 29080 55090 59002;
0173821980999992008082212004-01717-045400FM-12+004499999V0200701N002110450019N0010001N1+02761+02461101181ADDAA124000021GF108991031011004501031999KA1240N+02161MA1999999100661MD1999999+0101REMSYN082AAXX  22124 82198 22494 80704 10276 20246 30066 40118 8313/ 333 20216 58010 69924;
0137821980999992008082218004-01717-045400FM-12+004499999V0200901N003610042019N0010001N1+03161+02371100881ADDGF105991051021004501001001MA1999999100371MD1999999+0091REMSYN070AAXX  22184 82198 32494 50907 10316 20237 30037 40088 85200 333 58009;
0178821980999992008082300004-01717-045400FM-12+004499999V0200501N003112200019N0002001N1+02591+02351101181ADDGA1001+999999999GF100991001001999999001001KA1240M+03341MA1999999100661MD1999999+0101REMSYN082AAXX  23004 82198 32992 00506 10259 20235 30066 40118 333 10334 29080 55054 58010;
0156821980999992008082312004-01717-045400FM-12+004499999V0200901N005710042019N0010001N1+02891+02371101191ADDGF106991061021004501001001KA1240N+02241MA1999999100681MD1999999+0021REMSYN076AAXX  23124 82198 32494 60911 10289 20237 30068 40119 86200 333 20224 58002;
0137821980999992008082318004-01717-045400FM-12+004499999V0200501N007210042019N0010001N1+03141+02321100971ADDGF105991051021004501001001MA1999999100461MD1999999+0091REMSYN070AAXX  23184 82198 32494 50514 10314 20232 30046 40097 85200 333 58009;
0206821980999992008082400004-01717-045400FM-12+004499999V0200901N003612200019N0002001N1+02581+02331101161ADDAY121061AY201061GA1001+999999999GF100991001001999999001001KA1240M+03241MA1999999100651MD1999999-0011MW1131REMSYN088AAXX  24004 82198 31992 00907 10258 20233 30065 40116 71320 333 10324 29077 55100 59001;
0156821980999992008082412004-01717-045400FM-12+004499999V0200901N005110450019N0010001N1+02821+02331101201ADDGF106991041021004501061001KA1240N+02161MA1999999100681MD1999999+0001REMSYN076AAXX  24124 82198 32494 60910 10282 20233 30068 40120 84260 333 20216 58000;
0137821980999992008082418004-01717-045400FM-12+004499999V0200701N005110042019N0010001N1+03051+02331100961ADDGF105991051021004501001001MA1999999100451MD1999999-0011REMSYN070AAXX  24184 82198 32494 50710 10305 20233 30045 40096 85200 333 59001;
0178821980999992008082500004-01717-045400FM-12+004499999V0200501N003112200019N0002001N1+02561+02291101141ADDGA1001+999999999GF100991001001999999001001KA1240M+03161MA1999999100621MD1999999-0031REMSYN082AAXX  25004 82198 32992 00506 10256 20229 30062 40114 333 10316 29078 55080 59003;
0156821980999992008082512004-01717-045400FM-12+004499999V0200901N004610042019N0010001N1+02861+02441101311ADDGF106991061021004501001001KA1240N+02171MA1999999100801MD1999999+0121REMSYN076AAXX  25124 82198 32494 60909 10286 20244 30080 40131 86200 333 20217 58012;
0137821980999992008082518004-01717-045400FM-12+004499999V0200901N004612200019N0010001N1+03221+02371100981ADDGF104991041021004501001001MA1999999100471MD1999999+0021REMSYN070AAXX  25184 82198 32494 40909 10322 20237 30047 40098 84200 333 58002;
0178821980999992008082600004-01717-045400FM-12+004499999V0200701N002612200019N0002001N1+02581+02371101121ADDGA1001+999999999GF100991001001999999001001KA1240M+03351MA1999999100611MD1999999-0011REMSYN082AAXX  26004 82198 32992 00705 10258 20237 30061 40112 333 10335 29079 55098 59001;
0156821980999992008082612004-01717-045400FM-12+004499999V0200701N003110042019N0010001N1+02891+02291101221ADDGF106991061021004501001001KA1240N+02211MA1999999100711MD1999999-0091REMSYN076AAXX  26124 82198 32494 60706 10289 20229 30071 40122 86200 333 20221 59009;
0137821980999992008082618004-01717-045400FM-12+004499999V0200501N003612200019N0010001N1+03161+02311100931ADDGF104991041021004501001001MA1999999100421MD1999999-0051REMSYN070AAXX  26184 82198 32494 40507 10316 20231 30042 40093 84200 333 59005;
0156821980999992008082712004-01717-045400FM-12+004499999V0200501N003110450019N0010001N1+02881+02351101161ADDGF106991041021004501061001KA1240N+02191MA1999999100651MD1999999-0061REMSYN076AAXX  27124 82198 32494 60506 10288 20235 30065 40116 84260 333 20219 59006;
0137821980999992008082718004-01717-045400FM-12+004499999V0200501N004610042019N0010001N1+03251+02271100841ADDGF106991061021004501001001MA1999999100331MD1999999-0091REMSYN070AAXX  27184 82198 32494 60509 10325 20227 30033 40084 86200 333 59009;
0178821980999992008082800004-01717-045400FM-12+004499999V0200501N003112200019N0002001N1+02601+02331101001ADDGA1001+999999999GF100991001001999999001001KA1240M+03411MA1999999100511MD1999999-0071REMSYN082AAXX  28004 82198 32992 00506 10260 20233 30051 40100 333 10341 29075 55086 59007;
0156821980999992008082812004-01717-045400FM-12+004499999V0200701N004610042019N0010001N1+02911+02301101101ADDGF105991051021004501001001KA1240N+02231MA1999999100591MD1999999-0061REMSYN076AAXX  28124 82198 32494 50709 10291 20230 30059 40110 85200 333 20223 59006;
0137821980999992008082818004-01717-045400FM-12+004499999V0200501N006210450019N0010001N1+03151+02351100841ADDGF105991031021004501011041MA1999999100331MD1999999+0001REMSYN070AAXX  28184 82198 32494 50512 10315 20235 30033 40084 83214 333 58000;
0178821980999992008082900004-01717-045400FM-12+004499999V0200701N002112200019N0002001N1+02551+02441101101ADDGA1001+999999999GF100991001001999999001001KA1240M+03351MA1999999100591MD1999999+0081REMSYN082AAXX  29004 82198 32992 00704 10255 20244 30059 40110 333 10335 29078 55077 58008;
0156821980999992008082912004-01717-045400FM-12+004499999V0200901N004610450019N0010001N1+02951+02441101171ADDGF106991041021004501061001KA1240N+02141MA1999999100661MD1999999+0071REMSYN076AAXX  29124 82198 32494 60909 10295 20244 30066 40117 84260 333 20214 58007;
0137821980999992008082918004-01717-045400FM-12+004499999V0200901N007210042019N0010001N1+03131+02231100891ADDGF105991051021004501001001MA1999999100381MD1999999+0051REMSYN070AAXX  29184 82198 32494 50914 10313 20223 30038 40089 85200 333 58005;
0178821980999992008083000004-01717-045400FM-12+004499999V0200501N002112200019N0002001N1+02581+02271101041ADDGA1001+999999999GF100991001001999999001001KA1240M+03291MA1999999100531MD1999999-0061REMSYN082AAXX  30004 82198 32992 00504 10258 20227 30053 40104 333 10329 29074 55100 59006;
0156821980999992008083012004-01717-045400FM-12+004499999V0200501N005710450019N0005001N1+02931+02201101071ADDGF106991041021004501061001KA1240N+02151MA1999999100561MD1999999-0101REMSYN076AAXX  30124 82198 32493 60511 10293 20220 30056 40107 84260 333 20215 59010;
0137821980999992008083018004-01717-045400FM-12+004499999V0200901N005710450019N0005001N1+03091+02171100861ADDGF106991041021004501061001MA1999999100341MD1999999-0041REMSYN070AAXX  30184 82198 32493 60911 10309 20217 30034 40086 84260 333 59004;
0178821980999992008083100004-01717-045400FM-12+004499999V0200901N003112200019N0002001N1+02551+02271101021ADDGA1001+999999999GF100991001001999999001001KA1240M+03241MA1999999100511MD1999999-0021REMSYN082AAXX  31004 82198 32992 00906 10255 20227 30051 40102 333 10324 29073 55082 59002;
0156821980999992008083112004-01717-045400FM-12+004499999V0200701N004610450019N0010001N1+02831+02251101141ADDGF107991041051004501061001KA1240N+02191MA1999999100621MD1999999+0061REMSYN076AAXX  31124 82198 32494 70709 10283 20225 30062 40114 84560 333 20219 58006;
0137821980999992008083118004-01717-045400FM-12+004499999V0200901N006710450019N0010001N1+03051+02241100851ADDGF106991041021004501061001MA1999999100341MD1999999+0001REMSYN070AAXX  31184 82198 32494 60913 10305 20224 30034 40085 84260 333 58000;
0178821980999992008090100004-01717-045400FM-12+004499999V0200501N003112200019N0002001N1+02591+02291101051ADDGA1001+999999999GF100991001001999999001001KA1240M+03201MA1999999100541MD1999999+0031REMSYN082AAXX  01004 82198 32992 00506 10259 20229 30054 40105 333 10320 29076 55065 58003;
0156821980999992008090112004-01717-045400FM-12+004499999V0200501N005112200019N0010001N1+02921+02521101111ADDGF104991041021004501001001KA1240N+02181MA1999999100601MD1999999-0021REMSYN076AAXX  01124 82198 32494 40510 10292 20252 30060 40111 84200 333 20218 59002;
0201821980999992008090118004-01717-045400FM-12+004499999V0200901N004610450019N0005001N1+03091+02221100921ADDAA106000091AY151061AY221061GF107991041051004501061001MA1999999100411MD1999999+0071MW1041REMSYN082AAXX  01184 82198 21493 70909 10309 20222 30041 40092 70452 84560 333 58007 69921;EQDQ01  00002PRCP06
0178821980999992008090200004-01717-045400FM-12+004499999V0200501N003612200019N0002001N1+02551+02351101001ADDGA1001+999999999GF100991001001999999001001KA1240M+03171MA1999999100511MD1999999-0031REMSYN082AAXX  02004 82198 32992 00507 10255 20235 30051 40100 333 10317 29078 55080 59003;
0156821980999992008090212004-01717-045400FM-12+004499999V0200901N005710042019N0010001N1+02941+02361101101ADDGF106991061021004501001001KA1240N+02161MA1999999100591MD1999999-0011REMSYN076AAXX  02124 82198 32494 60911 10294 20236 30059 40110 86200 333 20216 59001;
0137821980999992008090218004-01717-045400FM-12+004499999V0200901N004612200019N0010001N1+03161+02231100761ADDGF104991041021004501001001MA1999999100251MD1999999-0161REMSYN070AAXX  02184 82198 32494 40909 10316 20223 30025 40076 84200 333 59016;
0178821980999992008090300004-01717-045400FM-12+004499999V0200501N003112200019N0002001N1+02581+02291100961ADDGA1001+999999999GF100991001001999999001001KA1240M+03291MA1999999100451MD1999999-0061REMSYN082AAXX  03004 82198 32992 00506 10258 20229 30045 40096 333 10329 29074 55099 59006;
0156821980999992008090312004-01717-045400FM-12+004499999V0200501N006210042019N0010001N1+02891+02351101161ADDGF106991061021004501001001KA1240N+02181MA1999999100651MD1999999+0061REMSYN076AAXX  03124 82198 32494 60512 10289 20235 30065 40116 86200 333 20218 58006;
0137821980999992008090318004-01717-045400FM-12+004499999V0200501N006712200019N0010001N1+03051+02201100921ADDGF104991031021004501001011MA1999999100411MD1999999+0161REMSYN070AAXX  03184 82198 32494 40513 10305 20220 30041 40092 83201 333 58016;
0178821980999992008090400004-01717-045400FM-12+004499999V0200501N003612200019N0002001N1+02581+02331101041ADDGA1001+999999999GF100991001001999999001001KA1240M+03301MA1999999100531MD1999999+0081REMSYN082AAXX  04004 82198 32992 00507 10258 20233 30053 40104 333 10330 29076 55104 58008;
0156821980999992008090412004-01717-045400FM-12+004499999V0200901N003610450019N0010001N1+03021+02291101181ADDGF105991041011004501061001KA1240N+02241MA1999999100671MD1999999+0021REMSYN076AAXX  04124 82198 32494 50907 10302 20229 30067 40118 84160 333 20224 58002;
0137821980999992008090418004-01717-045400FM-12+004499999V0200501N005110042019N0010001N1+03191+02331100901ADDGF105991051021004501001001MA1999999100391MD1999999-0021REMSYN070AAXX  04184 82198 32494 50510 10319 20233 30039 40090 85200 333 59002;
0178821980999992008090500004-01717-045400FM-12+004499999V0200501N002112200019N0002001N1+02611+02331101121ADDGA1001+999999999GF100991001001999999001001KA1240M+03311MA1999999100611MD1999999+0081REMSYN082AAXX  05004 82198 32992 00504 10261 20233 30061 40112 333 10331 29074 55093 58008;
0156821980999992008090512004-01717-045400FM-12+004499999V0200901N005710042019N0010001N1+03001+02291101141ADDGF105991051011004501001001KA1240N+02161MA1999999100631MD1999999-0041REMSYN076AAXX  05124 82198 32494 50911 10300 20229 30063 40114 85100 333 20216 59004;
0137821980999992008090518004-01717-045400FM-12+004499999V0200501N005110450019N0010001N1+03221+02141100931ADDGF106991041021004501041001MA1999999100421MD1999999+0031REMSYN070AAXX  05184 82198 32494 60510 10322 20214 30042 40093 84240 333 58003;
0168821980999992008090600004-01717-045400FM-12+004499999V0200501N002110450019N0002001N1+02651+02331101191ADDGF106991031021004501061001KA1240M+03371MA1999999100681MD1999999+0071REMSYN088AAXX  06004 82198 32492 60504 10265 20233 30068 40119 83260 333 10337 29071 55082 58007;
0156821980999992008090612004-01717-045400FM-12+004499999V0200501N006711050019N0010001N1+02961+02181101291ADDGF105991021011004501061021KA1240N+02161MA1999999100781MD1999999+0151REMSYN076AAXX  06124 82198 32494 50513 10296 20218 30078 40129 82162 333 20216 58015;
0137821980999992008090618004-01717-045400FM-12+004499999V0200501N005112200019N0010001N1+03221+02291101001ADDGF103991031011004501001001MA1999999100491MD1999999+0071REMSYN070AAXX  06184 82198 32494 30510 10322 20229 30049 40100 83100 333 58007;
0168821980999992008090700004-01717-045400FM-12+004499999V0200501N002112200019N0002001N1+02581+02331101211ADDGF102991021011004501001001KA1240M+03291MA1999999100701MD1999999+0021REMSYN088AAXX  07004 82198 32492 20504 10258 20233 30070 40121 82100 333 10329 29073 55103 58002;
0156821980999992008090712004-01717-045400FM-12+004499999V0200901N004610042019N0010001N1+02901+02341101371ADDGF106991061021004501001001KA1240N+02171MA1999999100861MD1999999+0081REMSYN076AAXX  07124 82198 32494 60909 10290 20234 30086 40137 86200 333 20217 58008;
0137821980999992008090718004-01717-045400FM-12+004499999V0200901N006710042019N0010001N1+03151+02301101091ADDGF106991061021004501001001MA1999999100581MD1999999+0091REMSYN070AAXX  07184 82198 32494 60913 10315 20230 30058 40109 86200 333 58009;
0178821980999992008090800004-01717-045400FM-12+004499999V0200501N003112200019N0002001N1+02601+02351101251ADDGA1001+999999999GF100991001001999999001001KA1240M+03271MA1999999100741MD1999999+0041REMSYN082AAXX  08004 82198 32992 00506 10260 20235 30074 40125 333 10327 29076 55100 58004;
0156821980999992008090812004-01717-045400FM-12+004499999V0200901N003110042019N0010001N1+02901+02431101411ADDGF106991061021004501001001KA1240N+02201MA1999999100901MD1999999+0041REMSYN076AAXX  08124 82198 32494 60906 10290 20243 30090 40141 86200 333 20220 58004;
0182821980999992008090818004-01717-045400FM-12+004499999V0200501N003610450019N0010001N1+02951+02471101081ADDAA106000891AY151061AY221061GF107991041091004501041001MA1999999100571MD1999999-0011MW1201REMSYN082AAXX  08184 82198 21494 70507 10295 20247 30057 40108 72052 84940 333 59001 69981;
0213821980999992008090900004-01717-045400FM-12+004499999V0200501N002112200019N0002001N1+02551+02381101321ADDAA106000021AY151061AY221061GF104991021011004501011001KA1240M+03171MA1999999100811MD1999999+0071MW1011REMSYN100AAXX  09004 82198 21492 40504 10255 20238 30081 40132 70152 82110 333 10317 29083 55070 58007 69921;
0201821980999992008090912004-01717-045400FM-12+004499999V0200901N003610450019N0005001N1+02891+02271101371ADDAA124001091AY111061AY221061GF107991041051004501061001KA1240N+02121MA1999999100861MD1999999-0041MW1281REMSYN088AAXX  09124 82198 21493 70907 10289 20227 30086 40137 72812 84560 333 20212 59004 60014;
0165821980999992008090918004-01717-045400FM-12+004499999V0200701N006210450019N0005001N1+02951+02171101061ADDAY161061AY221061GF107991041011004501011041MA1999999100541MD1999999-0031MW1041REMSYN076AAXX  09184 82198 31493 70712 10295 20217 30054 40106 70462 84114 333 59003;
0168821980999992008091000004-01717-045400FM-12+004499999V0200501N002610042019N0002001N1+02591+02351101311ADDGF106991051021004501011001KA1240M+03251MA1999999100801MD1999999-0011REMSYN088AAXX  10004 82198 32492 60505 10259 20235 30080 40131 85210 333 10325 29076 55065 59001;
0156821980999992008091012004-01717-045400FM-12+004499999V0200901N005110042019N0005001N1+02871+02251101431ADDGF107991071051004501001001KA1240N+02121MA1999999100921MD1999999+0061REMSYN076AAXX  10124 82198 32493 70910 10287 20225 30092 40143 87500 333 20212 58006;
0165821980999992008091018004-01717-045400FM-12+004499999V0200901N003610042019N0005001N1+03291+02351100971ADDAY121061AY221061GF105991051021004501001001MA1999999100461MD1999999-0081MW1041REMSYN076AAXX  10184 82198 31493 50907 10329 20235 30046 40097 70422 85200 333 59008;
0178821980999992008091100004-01717-045400FM-12+004499999V0200701N003112200019N0002001N1+02611+02271101191ADDGA1001+999999999GF100991001001999999001001KA1240M+03381MA1999999100681MD1999999-0121REMSYN082AAXX  11004 82198 32992 00706 10261 20227 30068 40119 333 10338 29074 55099 59012;
0156821980999992008091112004-01717-045400FM-12+004499999V0200901N005110450019N0005001N1+02951+02391101391ADDGF107991041051004501061001KA1240N+02161MA1999999100881MD1999999-0041REMSYN076AAXX  11124 82198 32493 70910 10295 20239 30088 40139 84560 333 20216 59004;
0165821980999992008091118004-01717-045400FM-12+004499999V0200901N004610450019N0005001N1+03121+02281101061ADDAY121061AY221061GF106991031021004501011061MA1999999100551MD1999999+0091MW1041REMSYN076AAXX  11184 82198 31493 60909 10312 20228 30055 40106 70422 83216 333 58009;
0196821980999992008091200004-01717-045400FM-12+004499999V0200501N002111050019N0002001N1+02611+02271101171ADDAY111061AY221061GF107991041001017501011041KA1240M+03281MA1999999100661MD1999999-0021MW1131REMSYN094AAXX  12004 82198 31792 70504 10261 20227 30066 40117 71312 84014 333 10328 29074 55067 59002;
0156821980999992008091212004-01717-045400FM-12+004499999V0200901N005110450019N0010001N1+02951+02371101311ADDGF107991041051017501061001KA1240N+02221MA1999999100801MD1999999-0081REMSYN076AAXX  12124 82198 32794 70910 10295 20237 30080 40131 84560 333 20222 59008;
0137821980999992008091218004-01717-045400FM-12+004499999V0200901N006710042019N0010001N1+03161+02201101021ADDGF105991051021004501001001MA1999999100511MD1999999-0041REMSYN070AAXX  12184 82198 32494 50913 10316 20220 30051 40102 85200 333 59004;
0184821980999992008091312004-01717-045400FM-12+004499999V0200901N004112200019N0005001N1+02911+02321101321ADDAY111061AY221061GF106991031011004501001011KA1240N+02181MA1999999100811MD1999999+0011MW1041REMSYN082AAXX  13124 82198 31493 60908 10291 20232 30081 40132 70412 83101 333 20218 58001;
0165821980999992008091318004-01717-045400FM-12+004499999V0200901N004612200019N0005001N1+03271+02061101021ADDAY121061AY221061GF104991031021004501001011MA1999999100511MD1999999+0001MW1041REMSYN076AAXX  13184 82198 31493 40909 10327 20206 30051 40102 70422 83201 333 58000;
0178821980999992008091400004-01717-045400FM-12+004499999V0200501N003112200019N0002001N1+02621+02311101161ADDGA1001+999999999GF100991001001999999001001KA1240M+03401MA1999999100651MD1999999+0001REMSYN082AAXX  14004 82198 32992 00506 10262 20231 30065 40116 333 10340 29072 55094 58000;
0184821980999992008091412004-01717-045400FM-12+004499999V0200901N004612200019N0005001N1+02891+02251101311ADDAY111061AY221061GF104991041011004501001001KA1240N+02161MA1999999100801MD1999999-0011MW1041REMSYN082AAXX  14124 82198 31493 40909 10289 20225 30080 40131 70412 84100 333 20216 59001;
0165821980999992008091418004-01717-045400FM-12+004499999V0200501N004612200019N0005001N1+03271+02031100971ADDAY111061AY221061GF103991031021004501001001MA1999999100461MD1999999-0051MW1041REMSYN076AAXX  14184 82198 31493 30509 10327 20203 30046 40097 70412 83200 333 59005;
0156821980999992008091512004-01717-045400FM-12+004499999V0200501N003610450019N0005001N1+02951+02571101311ADDGF106991041051004501061001KA1240N+02151MA1999999100801MD1999999+0001REMSYN076AAXX  15124 82198 32493 60507 10295 20257 30080 40131 84560 333 20215 58000;
0165821980999992008091518004-01717-045400FM-12+004499999V0200901N004612200019N0005001N1+03231+02091101091ADDAY121061AY211061GF103991031021004501001001MA1999999100581MD1999999+0121MW1041REMSYN076AAXX  15184 82198 31493 30909 10323 20209 30058 40109 70421 83200 333 58012;
0168821980999992008091600004-01717-045400FM-12+004499999V0200501N002112200019N0002001N1+02611+02311101221ADDGF101991011011004501001001KA1240M+03361MA1999999100711MD1999999+0021REMSYN088AAXX  16004 82198 32492 10504 10261 20231 30071 40122 81100 333 10336 29074 55102 58002;
0156821980999992008091612004-01717-045400FM-12+004499999V0200501N005710042019N0010001N1+02961+02231101361ADDGF105991051021004501001001KA1240N+02221MA1999999100851MD1999999+0051REMSYN076AAXX  16124 82198 32494 50511 10296 20223 30085 40136 85200 333 20222 58005;
0137821980999992008091618004-01717-045400FM-12+004499999V0200901N004612200019N0010001N1+03131+02141101051ADDGF104991041021004501001001MA1999999100541MD1999999-0041REMSYN070AAXX  16184 82198 32494 40909 10313 20214 30054 40105 84200 333 59004;
0178821980999992008091700004-01717-045400FM-12+004499999V0200501N003112200019N0002001N1+02621+02271101221ADDGA1001+999999999GF100991001001999999001001KA1240M+03321MA1999999100711MD1999999+0001REMSYN082AAXX  17004 82198 32992 00506 10262 20227 30071 40122 333 10332 29071 55101 58000;
0156821980999992008091712004-01717-045400FM-12+004499999V0200901N005710042019N0010001N1+02961+02311101251ADDGF106991061021004501001001KA1240N+02201MA1999999100741MD1999999-0111REMSYN076AAXX  17124 82198 32494 60911 10296 20231 30074 40125 86200 333 20220 59011;
0165821980999992008091718004-01717-045400FM-12+004499999V0200701N004612200019N0010001N1+03161+02171100951ADDAY121061AY211061GF104991031011004501041001MA1999999100441MD1999999-0101MW1041REMSYN076AAXX  17184 82198 31494 40709 10316 20217 30044 40095 70421 83140 333 59010;
0168821980999992008091800004-01717-045400FM-12+004499999V0200701N002610450019N0002001N1+02621+02331101141ADDGF105991021011004501061001KA1240M+03281MA1999999100631MD1999999-0081REMSYN088AAXX  18004 82198 32492 50705 10262 20233 30063 40114 82160 333 10328 29073 55088 59008;
0156821980999992008091812004-01717-045400FM-12+004499999V0200701N005712200019N0010001N1+03021+02241101171ADDGF104991041011004501001001KA1240N+02181MA1999999100661MD1999999-0081REMSYN076AAXX  18124 82198 32494 40711 10302 20224 30066 40117 84100 333 20218 59008;
0165821980999992008091818004-01717-045400FM-12+004499999V0200701N005112200019N0010001N1+03191+02221100881ADDAY111061AY211061GF104991041021004501001001MA1999999100371MD1999999-0071MW1041REMSYN076AAXX  18184 82198 31494 40710 10319 20222 30037 40088 70411 84200 333 59007;
0168821980999992008091900004-01717-045400FM-12+004499999V0200701N003112200019N0002001N1+02661+02391101071ADDGF102991021011004501001001KA1240M+03331MA1999999100561MD1999999-0071REMSYN088AAXX  19004 82198 32492 20706 10266 20239 30056 40107 82100 333 10333 29072 55101 59007;
0184821980999992008091912004-01717-045400FM-12+004499999V0200701N005110450019N0010001N1+02921+02391101321ADDAY121061AY211061GF107991041021004501061001KA1240N+02261MA1999999100811MD1999999+0151MW1041REMSYN082AAXX  19124 82198 31494 70710 10292 20239 30081 40132 70421 84260 333 20226 58015;
0173821980999992008092012004-01717-045400FM-12+004499999V0200701N004610042019N0010001N1+02931+02241101341ADDAA124001091GF105991051021004501001001KA1240N+02231MA1999999100831MD1999999+0021REMSYN082AAXX  20124 82198 22494 50709 10293 20224 30083 40134 85200 333 20223 58002 60014;
0137821980999992008092018004-01717-045400FM-12+004499999V0200501N004612200019N0010001N1+03261+02241101041ADDGF103991031021004501001001MA1999999100531MD1999999+0081REMSYN070AAXX  20184 82198 32494 30509 10326 20224 30053 40104 83200 333 58008;
0178821980999992008092100004-01717-045400FM-12+004499999V0200501N002112200019N0002001N1+02601+02311101281ADDGA1001+999999999GF100991001001999999001001KA1240M+03371MA1999999100771MD1999999+0011REMSYN082AAXX  21004 82198 32992 00504 10260 20231 30077 40128 333 10337 29072 55105 58001;
0156821980999992008092112004-01717-045400FM-12+004499999V0200501N003610450019N0010001N1+02861+02371101391ADDGF106991041021004501061001KA1240N+02181MA1999999100881MD1999999+0051REMSYN076AAXX  21124 82198 32494 60507 10286 20237 30088 40139 84260 333 20218 58005;
0137821980999992008092118004-01717-045400FM-12+004499999V0200501N004612200019N0010001N1+03171+02221100991ADDGF103991031021004501001001MA1999999100481MD1999999-0051REMSYN070AAXX  21184 82198 32494 30509 10317 20222 30048 40099 83200 333 59005;
0178821980999992008092200004-01717-045400FM-12+004499999V0200501N002112200019N0002001N1+02601+02311101211ADDGA1001+999999999GF100991001001999999001001KA1240M+03341MA1999999100701MD1999999-0071REMSYN082AAXX  22004 82198 32992 00504 10260 20231 30070 40121 333 10334 29075 55097 59007;
0184821980999992008092212004-01717-045400FM-12+004499999V0200501N003110042019N0010001N1+02811+02381101291ADDAY121061AY211061GF107991051051004501061001KA1240N+02081MA1999999100781MD1999999-0101MW1041REMSYN082AAXX  22124 82198 31494 70506 10281 20238 30078 40129 70421 85560 333 20208 59010;
0165821980999992008092218004-01717-045400FM-12+004499999V0200501N003112200019N0010001N1+03271+02341100921ADDAY121061AY211061GF103991031021004501001001MA1999999100411MD1999999-0071MW1041REMSYN076AAXX  22184 82198 31494 30506 10327 20234 30041 40092 70421 83200 333 59007;
0178821980999992008092300004-01717-045400FM-12+004499999V0200501N002112200019N0002001N1+02621+02311101171ADDGA1001+999999999GF100991001001999999001001KA1240M+03351MA1999999100661MD1999999-0041REMSYN082AAXX  23004 82198 32992 00504 10262 20231 30066 40117 333 10335 29076 55055 59004;
0184821980999992008092312004-01717-045400FM-12+004499999V0200501N003610450019N0005001N1+02841+02331101221ADDAY121061AY211061GF107991041051004501061001KA1240N+02111MA1999999100711MD1999999-0071MW1041REMSYN082AAXX  23124 82198 31493 70507 10284 20233 30071 40122 70421 84560 333 20211 59007;
0165821980999992008092318004-01717-045400FM-12+004499999V0200501N004610450019N0005001N1+02971+02341100891ADDAY121061AY221061GF106991031021004501061001MA1999999100381MD1999999-0031MW1041REMSYN076AAXX  23184 82198 31493 60509 10297 20234 30038 40089 70422 83260 333 59003;
0168821980999992008092400004-01717-045400FM-12+004499999V0200701N003112200019N0002001N1+02591+02291101061ADDGF102991011011004501001011KA1240M+03201MA1999999100551MD1999999-0111REMSYN088AAXX  24004 82198 32492 20706 10259 20229 30055 40106 81101 333 10320 29077 55051 59011;
0184821980999992008092418004-01717-045400FM-12+004499999V0200701N004619999999N0005001N1+03171+02061100911ADDAY121061AY221061GF105991999021004501001001MA1999999100401MD1999999+0021MW1041REMSYN076AAXX  24184 82198 31493 50709 10317 20206 30040 40091 70422 84200 333 58002;EQDQ01+000042SCOTLC
0178821980999992008092500004-01717-045400FM-12+004499999V0200701N002612200019N0002001N1+02561+02211101161ADDGA1001+999999999GF100991001001999999001001KA1240M+03211MA1999999100651MD1999999+0101REMSYN082AAXX  25004 82198 32992 00705 10256 20221 30065 40116 333 10321 29070 55096 58010;
0156821980999992008092512004-01717-045400FM-12+004499999V0200901N004610042019N0010001N1+03001+02291101291ADDGF105991051021004501001001KA1240N+02241MA1999999100781MD1999999+0101REMSYN076AAXX  25124 82198 32494 50909 10300 20229 30078 40129 85200 333 20224 58010;
0165821980999992008092518004-01717-045400FM-12+004499999V0200701N002612200019N0005001N1+03121+02171101051ADDAY121061AY221061GF105991031021004501001011MA1999999100541MD1999999+0141MW1041REMSYN076AAXX  25184 82198 31493 50705 10312 20217 30054 40105 70422 83201 333 58014;
0156821980999992008092612004-01717-045400FM-12+004499999V0209999C000010450019N0010001N1+02821+02381101331ADDGF107991041051004501031001KA1240N+02141MA1999999100821MD1999999+0041REMSYN076AAXX  26124 82198 32494 70000 10282 20238 30082 40133 84530 333 20214 58004;
0165821980999992008092618004-01717-045400FM-12+004499999V0200701N004110450019N0005001N1+03141+02101100951ADDAY121061AY221061GF106991031021004501061001MA1999999100441MD1999999-0101MW1041REMSYN076AAXX  26184 82198 31493 60708 10314 20210 30044 40095 70422 83260 333 59010;
0178821980999992008092700004-01717-045400FM-12+004499999V0200701N002612200019N0002001N1+02611+02291101071ADDGA1001+999999999GF100991001001999999001001KA1240M+03331MA1999999100561MD1999999-0161REMSYN082AAXX  27004 82198 32992 00705 10261 20229 30056 40107 333 10333 29074 55056 59016;
0156821980999992008092712004-01717-045400FM-12+004499999V0200701N004612200019N0010001N1+02951+02321101141ADDGF104991041021004501001001KA1240N+02181MA1999999100631MD1999999-0191REMSYN076AAXX  27124 82198 32494 40709 10295 20232 30063 40114 84200 333 20218 59019;
0137821980999992008092718004-01717-045400FM-12+004499999V0200501N006712200019N0010001N1+03221+01991100831ADDGF102991021011004501001001MA1999999100321MD1999999-0121REMSYN070AAXX  27184 82198 32494 20513 10322 20199 30032 40083 82100 333 59012;
0156821980999992008092812004-01717-045400FM-12+004499999V0200701N002110042019N0010001N1+02941+02261101211ADDGF105991051011004501001001KA1240N+02161MA1999999100701MD1999999+0071REMSYN076AAXX  28124 82198 32494 50704 10294 20226 30070 40121 85100 333 20216 58007;
0184821980999992008092818004-01717-045400FM-12+004499999V0200701N004610042019N0005001N1+03211+02301100981ADDAY121061AY221061GF106991999021004501001001MA1999999100471MD1999999+0151MW1041REMSYN076AAXX  28184 82198 31493 60709 10321 20230 30047 40098 70422 85200 333 58015;EQDQ01+000052SCOTLC
0175821980999992008092912004-01717-045400FM-12+004499999V0200501N003119999999N0010001N1+02851+02521101281ADDGF106991999021004501001001KA1240N+02211MA1999999100771MD1999999+0071REMSYN076AAXX  29124 82198 32494 60506 10285 20252 30077 40128 84200 333 20221 58007;EQDQ01+000042SCOTLC
0137821980999992008092918004-01717-045400FM-12+004499999V0200501N004612200019N0010001N1+03131+02181101061ADDGF104991041021004501001001MA1999999100551MD1999999+0081REMSYN070AAXX  29184 82198 32494 40509 10313 20218 30055 40106 84200 333 58008;
0178821980999992008093000004-01717-045400FM-12+004499999V0200701N002612200019N0002001N1+02611+02271101251ADDGA1001+999999999GF100991001001999999001001KA1240M+03351MA1999999100741MD1999999+0181REMSYN082AAXX  30004 82198 32992 00705 10261 20227 30074 40125 333 10335 29077 55100 58018;
0156821980999992008093012004-01717-045400FM-12+004499999V0200901N003110042019N0010001N1+02961+02301101321ADDGF106991061021004501001001KA1240N+02201MA1999999100811MD1999999+0041REMSYN076AAXX  30124 82198 32494 60906 10296 20230 30081 40132 86200 333 20220 58004;
0137821980999992008093018004-01717-045400FM-12+004499999V0200901N003612200019N0010001N1+03281+02261101011ADDGF104991041011004501001001MA1999999100501MD1999999-0051REMSYN070AAXX  30184 82198 32494 40907 10328 20226 30050 40101 84100 333 59005;
0178821980999992008100100004-01717-045400FM-12+004499999V0200701N002612200019N0002001N1+02641+02271101191ADDGA1001+999999999GF100991001001999999001001KA1240M+03471MA1999999100681MD1999999-0061REMSYN082AAXX  01004 82198 32992 00705 10264 20227 30068 40119 333 10347 29071 55099 59006;
0156821980999992008100112004-01717-045400FM-12+004499999V0200701N005710042019N0010001N1+02921+02341101131ADDGF105991051021004501001001KA1240N+02231MA1999999100621MD1999999-0191REMSYN076AAXX  01124 82198 32494 50711 10292 20234 30062 40113 85200 333 20223 59019;
0137821980999992008100118004-01717-045400FM-12+004499999V0200901N005110042019N0010001N1+03101+02361100841ADDGF106991061021004501001001MA1999999100331MD1999999-0171REMSYN070AAXX  01184 82198 32494 60910 10310 20236 30033 40084 86200 333 59017;
0178821980999992008100200004-01717-045400FM-12+004499999V0200701N003112200019N0002001N1+02671+02391100921ADDGA1001+999999999GF100991001001999999001001KA1240M+03301MA1999999100411MD1999999-0251REMSYN082AAXX  02004 82198 32992 00706 10267 20239 30041 40092 333 10330 29076 55090 59025;
0156821980999992008100212004-01717-045400FM-12+004499999V0200701N004610042019N0010001N1+02921+02391101081ADDGF106991061021004501001001KA1240N+02221MA1999999100571MD1999999-0051REMSYN076AAXX  02124 82198 32494 60709 10292 20239 30057 40108 86200 333 20222 59005;
0137821980999992008100218004-01717-045400FM-12+004499999V0200901N007212200019N0010001N1+03191+01801100871ADDGF102991021021004501001001MA1999999100361MD1999999+0031REMSYN070AAXX  02184 82198 32494 20914 10319 20180 30036 40087 82200 333 58003;
0178821980999992008100300004-01717-045400FM-12+004499999V0200701N002612200019N0002001N1+02601+02421100971ADDGA1001+999999999GF100991001001999999001001KA1240M+03291MA1999999100461MD1999999+0051REMSYN082AAXX  03004 82198 32992 00705 10260 20242 30046 40097 333 10329 29075 55100 58005;
0156821980999992008100312004-01717-045400FM-12+004499999V0200701N003610042019N0010001N1+02971+02371101071ADDGF105991051021004501001001KA1240N+02151MA1999999100561MD1999999-0011REMSYN076AAXX  03124 82198 32494 50707 10297 20237 30056 40107 85200 333 20215 59001;
0137821980999992008100318004-01717-045400FM-12+004499999V0200701N004112200019N0010001N1+03291+02151100781ADDGF102991021011004501001001MA1999999100271MD1999999-0091REMSYN070AAXX  03184 82198 32494 20708 10329 20215 30027 40078 82100 333 59009;
0178821980999992008100400004-01717-045400FM-12+004499999V0200701N002612200019N0002001N1+02631+02371100901ADDGA1001+999999999GF100991001001999999001001KA1240M+03421MA1999999100391MD1999999-0071REMSYN082AAXX  04004 82198 32992 00705 10263 20237 30039 40090 333 10342 29074 55107 59007;
0156821980999992008100412004-01717-045400FM-12+004499999V0200701N005112200019N0010001N1+02981+02351101091ADDGF104991041021004501001001KA1240N+02471MA1999999100581MD1999999+0021REMSYN076AAXX  04124 82198 32494 40710 10298 20235 30058 40109 84200 333 20247 58002;
0182821980999992008100418004-01717-045400FM-12+004499999V0200501N002610450019N0010001N1+03051+02421100741ADDAA106001091AY121061AY221061GF106991031021004501061001MA1999999100231MD1999999-0041MW1211REMSYN082AAXX  04184 82198 21494 60505 10305 20242 30023 40074 72122 83260 333 59004 60011;
0196821980999992008100500004-01717-045400FM-12+004499999V0200501N004612200019N0002001N1+02691+02271101011ADDAY121061AY221061GF104991031021004501061001KA1240M+03361MA1999999100501MD1999999+0191MW1131REMSYN094AAXX  05004 82198 31492 40509 10269 20227 30050 40101 71322 83260 333 10336 29076 55071 58019;
0201821980999992008100512004-01717-045400FM-12+004499999V0200901N004110450019N0005001N1+02881+02351101151ADDAA124001091AY121061AY221061GF107991041021004501061001KA1240N+01981MA1999999100641MD1999999-0061MW1041REMSYN088AAXX  05124 82198 21493 70908 10288 20235 30064 40115 70422 84260 333 20198 59006 60014;
0137821980999992008100518004-01717-045400FM-12+004499999V0200701N004110042019N0010001N1+03211+02211100901ADDGF106991061021004501001001MA1999999100391MD1999999+0161REMSYN070AAXX  05184 82198 32494 60708 10321 20221 30039 40090 86200 333 58016;
0168821980999992008100600004-01717-045400FM-12+004499999V0200901N003112200019N0002001N1+02651+02311101101ADDGF102991021011004501001001KA1240M+03281MA1999999100591MD1999999+0091REMSYN088AAXX  06004 82198 32492 20906 10265 20231 30059 40110 82100 333 10328 29074 55082 58009;
0156821980999992008100612004-01717-045400FM-12+004499999V0200901N003610042019N0010001N1+03021+02311101181ADDGF105991051011004501001001KA1240N+02171MA1999999100671MD1999999+0031REMSYN076AAXX  06124 82198 32494 50907 10302 20231 30067 40118 85100 333 20217 58003;
0137821980999992008100618004-01717-045400FM-12+004499999V0200901N004610042019N0010001N1+03201+02181100911ADDGF105991051021004501001001MA1999999100401MD1999999+0011REMSYN070AAXX  06184 82198 32494 50909 10320 20218 30040 40091 85200 333 58001;
0156821980999992008100712004-01717-045400FM-12+004499999V0200901N004612200019N0010001N1+03001+02391101271ADDGF103991031011004501001001KA1240N+02201MA1999999100761MD1999999+0091REMSYN076AAXX  07124 82198 32494 30909 10300 20239 30076 40127 83100 333 20220 58009;
0137821980999992008100718004-01717-045400FM-12+004499999V0200901N005712200019N0010001N1+03291+02151100971ADDGF103991031021004501001001MA1999999100461MD1999999+0061REMSYN070AAXX  07184 82198 32494 30911 10329 20215 30046 40097 83200 333 58006;
0178821980999992008100800004-01717-045400FM-12+004499999V0200701N003112200019N0002001N1+02651+02271101131ADDGA1001+999999999GF100991001001999999001001KA1240M+03361MA1999999100621MD1999999+0051REMSYN082AAXX  08004 82198 32992 00706 10265 20227 30062 40113 333 10336 29072 55104 58005;
0156821980999992008100812004-01717-045400FM-12+004499999V0200901N005110450019N0010001N1+02921+02221101281ADDGF107991041021004501061001KA1240N+02231MA1999999100771MD1999999+0011REMSYN076AAXX  08124 82198 32494 70910 10292 20222 30077 40128 84260 333 20223 58001;
0165821980999992008100818004-01717-045400FM-12+004499999V0200901N006210042019N0005001N1+03191+02211100951ADDAY121061AY221061GF105991051021004501001001MA1999999100441MD1999999-0021MW1041REMSYN076AAXX  08184 82198 31493 50912 10319 20221 30044 40095 70422 85200 333 59002;
0156821980999992008100912004-01717-045400FM-12+004499999V0200701N004110042019N0010001N1+02931+02251101181ADDGF105991051021004501001001KA1240N+02201MA1999999100671MD1999999-0101REMSYN076AAXX  09124 82198 32494 50708 10293 20225 30067 40118 85200 333 20220 59010;
0137821980999992008100918004-01717-045400FM-12+004499999V0200901N005112200019N0010001N1+03241+02221100891ADDGF104991041021004501001001MA1999999100381MD1999999-0061REMSYN070AAXX  09184 82198 32494 40910 10324 20222 30038 40089 84200 333 59006;
0178821980999992008101000004-01717-045400FM-12+004499999V0201101N002112200019N0002001N1+02601+02271101101ADDGA1001+999999999GF100991001001999999001001KA1240M+03351MA1999999100591MD1999999-0071REMSYN082AAXX  10004 82198 32992 01104 10260 20227 30059 40110 333 10335 29072 55104 59007;
0156821980999992008101012004-01717-045400FM-12+004499999V0200901N003112200019N0010001N1+02961+02331101101ADDGF104991041011004501001001KA1240N+02131MA1999999100591MD1999999-0081REMSYN076AAXX  10124 82198 32494 40906 10296 20233 30059 40110 84100 333 20213 59008;
0137821980999992008101018004-01717-045400FM-12+004499999V0200501N005112200019N0010001N1+03111+02341100741ADDGF104991041021004501001001MA1999999100231MD1999999-0151REMSYN070AAXX  10184 82198 32494 40510 10311 20234 30023 40074 84200 333 59015;
0168821980999992008101100004-01717-045400FM-12+004499999V0200501N002110450019N0010001N1+02681+02351100961ADDGF105991031021004501011001KA1240M+03251MA1999999100451MD1999999-0141REMSYN088AAXX  11004 82198 32494 50504 10268 20235 30045 40096 83210 333 10325 29074 55090 59014;
0156821980999992008101112004-01717-045400FM-12+004499999V0200901N003610450019N0010001N1+02871+02311101071ADDGF107991041051004501061001KA1240N+02291MA1999999100561MD1999999-0031REMSYN076AAXX  11124 82198 32494 70907 10287 20231 30056 40107 84560 333 20229 59003;
0165821980999992008101118004-01717-045400FM-12+004499999V0200701N004110042019N0010001N1+03211+02241100701ADDAY121061AY221061GF106991061021004501001001MA1999999100191MD1999999-0041MW1041REMSYN076AAXX  11184 82198 31494 60708 10321 20224 30019 40070 70422 86200 333 59004;
0168821980999992008101200004-01717-045400FM-12+004499999V0200701N003612200019N0002001N1+02631+02311100961ADDGF102991021011004501001001KA1240M+03311MA1999999100451MD1999999+0001REMSYN088AAXX  12004 82198 32492 20707 10263 20231 30045 40096 82100 333 10331 29075 55079 58000;
0156821980999992008101212004-01717-045400FM-12+004499999V0200901N007212200019N0010001N1+03001+02221101071ADDGF104991041021004501001001KA1240N+02221MA1999999100561MD1999999+0001REMSYN076AAXX  12124 82198 32494 40914 10300 20222 30056 40107 84200 333 20222 58000;
0137821980999992008101218004-01717-045400FM-12+004499999V0201101N006212200019N0010001N1+03191+01931100841ADDGF102991021011004501001001MA1999999100331MD1999999+0141REMSYN070AAXX  12184 82198 32494 21112 10319 20193 30033 40084 82100 333 58014;
0178821980999992008101300004-01717-045400FM-12+004499999V0200701N003112200019N0002001N1+02671+02191101041ADDGA1001+999999999GF100991001001999999001001KA1240M+03271MA1999999100531MD1999999+0081REMSYN082AAXX  13004 82198 32992 00706 10267 20219 30053 40104 333 10327 29066 55101 58008;
0156821980999992008101312004-01717-045400FM-12+004499999V0200901N004612200019N0010001N1+03011+02191101091ADDGF105991031011004501001011KA1240N+02201MA1999999100581MD1999999+0021REMSYN076AAXX  13124 82198 32494 50909 10301 20219 30058 40109 83101 333 20220 58002;
0137821980999992008101318004-01717-045400FM-12+004499999V0201101N005112200019N0010001N1+03341+02151100711ADDGF103991031011004501001001MA1999999100201MD1999999-0131REMSYN070AAXX  13184 82198 32494 31110 10334 20215 30020 40071 83100 333 59013;
0156821980999992008101412004-01717-045400FM-12+004499999V0200901N006710450019N0010001N1+03011+02291100951ADDGF106991041021004501031001KA1240N+02211MA1999999100441MD1999999-0141REMSYN076AAXX  14124 82198 32494 60913 10301 20229 30044 40095 84230 333 20221 59014;
0137821980999992008101418004-01717-045400FM-12+004499999V0200901N006212200019N0010001N1+03191+02211100731ADDGF103991031011004501001001MA1999999100221MD1999999+0021REMSYN070AAXX  14184 82198 32494 30912 10319 20221 30022 40073 83100 333 58002;
0168821980999992008101500004-01717-045400FM-12+004499999V0200501N002619999999N0002001N1+02661+02331100941ADDGF107991041001004501011011KA1240M+03341MA1999999100431MD1999999+0031REMSYN088AAXX  15004 82198 32492 70505 10266 20233 30043 40094 84011 333 10334 29072 55087 58003;
0184821980999992008101512004-01717-045400FM-12+004499999V0200701N008212200019N0005001N1+02981+02231101161ADDAY111061AY221061GF106991031021004501001011KA1240N+02231MA1999999100651MD1999999+0211MW1041REMSYN082AAXX  15124 82198 31493 60716 10298 20223 30065 40116 70412 83201 333 20223 58021;
0165821980999992008101518004-01717-045400FM-12+004499999V0200701N005110042019N0010001N1+03191+02121100951ADDAY121061AY221061GF105991051021004501001001MA1999999100441MD1999999+0221MW1041REMSYN076AAXX  15184 82198 31494 50710 10319 20212 30044 40095 70422 85200 333 58022;
0178821980999992008101600004-01717-045400FM-12+004499999V0200501N002612200019N0002001N1+02641+02251101181ADDGA1001+999999999GF100991001001999999001001KA1240M+03311MA1999999100671MD1999999+0241REMSYN082AAXX  16004 82198 32992 00505 10264 20225 30067 40118 333 10331 29069 55101 58024;
0184821980999992008101612004-01717-045400FM-12+004499999V0200501N005110450019N0005001N1+02911+02251101311ADDAY111061AY221061GF106991031021004501061001KA1240N+02231MA1999999100801MD1999999+0151MW1041REMSYN082AAXX  16124 82198 31493 60510 10291 20225 30080 40131 70412 83260 333 20223 58015;
0165821980999992008101618004-01717-045400FM-12+004499999V0200701N004612200019N0010001N1+03221+02231101141ADDAY121061AY221061GF105991031021004501001041MA1999999100631MD1999999+0191MW1041REMSYN076AAXX  16184 82198 31494 50709 10322 20223 30063 40114 70422 83204 333 58019;
0178821980999992008101700004-01717-045400FM-12+004499999V0200501N002612200019N0002001N1+02631+02311101271ADDGA1001+999999999GF100991001001999999001001KA1240M+03301MA1999999100761MD1999999+0091REMSYN082AAXX  17004 82198 32992 00505 10263 20231 30076 40127 333 10330 29073 55090 58009;
0175821980999992008101712004-01717-045400FM-12+004499999V0200501N003619999999N0010001N1+03021+02391101251ADDGF105991999011004501001001KA1240N+02231MA1999999100741MD1999999-0061REMSYN076AAXX  17124 82198 32494 50507 10302 20239 30074 40125 84100 333 20223 59006;EQDQ01+000042SCOTLC
0137821980999992008101718004-01717-045400FM-12+004499999V0200501N004110042019N0010001N1+03121+02221101021ADDGF106991051021004501001011MA1999999100511MD1999999-0121REMSYN070AAXX  17184 82198 32494 60508 10312 20222 30051 40102 85201 333 59012;
0168821980999992008101800004-01717-045400FM-12+004499999V0200701N004112200019N0002001N1+02651+02191101201ADDGF101991011001022501001011KA1240M+03341MA1999999100691MD1999999-0071REMSYN088AAXX  18004 82198 32892 10708 10265 20219 30069 40120 81001 333 10334 29071 55103 59007;
0156821980999992008101812004-01717-045400FM-12+004499999V0200701N004110450019N0010001N1+02931+02251101261ADDGF106991031021004501061011KA1240N+02231MA1999999100751MD1999999+0011REMSYN076AAXX  18124 82198 32494 60708 10293 20225 30075 40126 83261 333 20223 58001;
0137821980999992008101818004-01717-045400FM-12+004499999V0200501N004610042019N0010001N1+03211+02091101041ADDGF105991051021004501001001MA1999999100531MD1999999+0021REMSYN070AAXX  18184 82198 32494 50509 10321 20209 30053 40104 85200 333 58002;
0168821980999992008101900004-01717-045400FM-12+004499999V0200701N002612200019N0002001N1+02641+02311101131ADDGF102991021021004501001001KA1240M+03241MA1999999100621MD1999999-0071REMSYN088AAXX  19004 82198 32492 20705 10264 20231 30062 40113 82200 333 10324 29071 55099 59007;
0156821980999992008101912004-01717-045400FM-12+004499999V0200901N003110450019N0010001N1+02971+02321101351ADDGF106991031021004501061041KA1240N+02201MA1999999100841MD1999999+0091REMSYN076AAXX  19124 82198 32494 60906 10297 20232 30084 40135 83264 333 20220 58009;
0165821980999992008101918004-01717-045400FM-12+004499999V0200701N003610450019N0010001N1+03181+02091101091ADDAY121061AY221061GF106991031021004501011061MA1999999100581MD1999999+0051MW1041REMSYN076AAXX  19184 82198 31494 60707 10318 20209 30058 40109 70422 83216 333 58005;
0178821980999992008102000004-01717-045400FM-12+004499999V0200701N002112200019N0002001N1+02601+02271101211ADDGA1001+999999999GF100991001001999999001001KA1240M+03381MA1999999100701MD1999999+0081REMSYN082AAXX  20004 82198 32992 00704 10260 20227 30070 40121 333 10338 29072 55065 58008;
0156821980999992008102012004-01717-045400FM-12+004499999V0200901N004110042019N0010001N1+02991+02291101361ADDGF105991051021004501001001KA1240N+02191MA1999999100851MD1999999+0011REMSYN076AAXX  20124 82198 32494 50908 10299 20229 30085 40136 85200 333 20219 58001;
0137821980999992008102018004-01717-045400FM-12+004499999V0200901N004610042019N0010001N1+03301+02241101111ADDGF105991051021004501001001MA1999999100601MD1999999+0021REMSYN070AAXX  20184 82198 32494 50909 10330 20224 30060 40111 85200 333 58002;
0178821980999992008102100004-01717-045400FM-12+004499999V0200701N002112200019N0002001N1+02611+02251101201ADDGA1001+999999999GF100991001001999999001001KA1240M+03391MA1999999100691MD1999999-0011REMSYN082AAXX  21004 82198 32992 00704 10261 20225 30069 40120 333 10339 29070 55102 59001;
0156821980999992008102112004-01717-045400FM-12+004499999V0200901N005710450019N0010001N1+03001+02391101281ADDGF107991041051004501061001KA1240N+02171MA1999999100771MD1999999-0071REMSYN076AAXX  21124 82198 32494 70911 10300 20239 30077 40128 84560 333 20217 59007;
0165821980999992008102118004-01717-045400FM-12+004499999V0200901N005710042019N0010001N1+03091+02001100981ADDAY121061AY221061GF106991061021004501001001MA1999999100471MD1999999-0131MW1041REMSYN076AAXX  21184 82198 31494 60911 10309 20200 30047 40098 70422 86200 333 59013;
0184821980999992008102212004-01717-045400FM-12+004499999V0201101N005710042019N0010001N1+02971+02271101211ADDAY121061AY211061GF105991051021004501001001KA1240N+02171MA1999999100701MD1999999-0071MW1041REMSYN082AAXX  22124 82198 31494 51111 10297 20227 30070 40121 70421 85200 333 20217 59007;
0165821980999992008102218004-01717-045400FM-12+004499999V0200901N005712200019N0010001N1+03251+01991100831ADDAY121061AY211061GF103991021021004501001011MA1999999100321MD1999999-0151MW1041REMSYN076AAXX  22184 82198 31494 30911 10325 20199 30032 40083 70421 82201 333 59015;
0178821980999992008102300004-01717-045400FM-12+004499999V0200701N003112200019N0002001N1+02651+02141101071ADDGA1001+999999999GF100991001001999999001001KA1240M+03321MA1999999100561MD1999999-0041REMSYN082AAXX  23004 82198 32992 00706 10265 20214 30056 40107 333 10332 29066 55107 59004;
0184821980999992008102312004-01717-045400FM-12+004499999V0201101N006210450019N0005001N1+02981+02101101181ADDAY111061AY221061GF107991041051004501061001KA1240N+02191MA1999999100671MD1999999-0031MW1041REMSYN082AAXX  23124 82198 31493 71112 10298 20210 30067 40118 70412 84560 333 20219 59003;
0165821980999992008102318004-01717-045400FM-12+004499999V0200901N005710042019N0005001N1+03121+02171100931ADDAY121061AY221061GF106991061021004501001001MA1999999100421MD1999999+0101MW1041REMSYN076AAXX  23184 82198 31493 60911 10312 20217 30042 40093 70422 86200 333 58010;
0178821980999992008102400004-01717-045400FM-12+004499999V0200501N003612200019N0002001N1+02651+02251101141ADDGA1001+999999999GF100991001001999999001001KA1240M+03281MA1999999100631MD1999999+0071REMSYN082AAXX  24004 82198 32992 00507 10265 20225 30063 40114 333 10328 29070 55106 58007;
0184821980999992008102412004-01717-045400FM-12+004499999V0200901N006210450019N0005001N1+02921+02171101271ADDAY111061AY221061GF107991041051004501061001KA1240N+02221MA1999999100761MD1999999+0091MW1041REMSYN082AAXX  24124 82198 31493 70912 10292 20217 30076 40127 70412 84560 333 20222 58009;
0165821980999992008102418004-01717-045400FM-12+004499999V0200901N007712200019N0005001N1+03111+01901101051ADDAY111061AY221061GF103991031021004501001001MA1999999100541MD1999999+0121MW1041REMSYN076AAXX  24184 82198 31493 30915 10311 20190 30054 40105 70412 83200 333 58012;
0168821980999992008102500004-01717-045400FM-12+004499999V0200701N003112200019N0002001N1+02601+02191101241ADDGF101991011011004501001001KA1240M+03321MA1999999100731MD1999999+0101REMSYN088AAXX  25004 82198 32492 10706 10260 20219 30073 40124 81100 333 10332 29067 55104 58010;
0184821980999992008102512004-01717-045400FM-12+004499999V0200901N007212200019N0005001N1+03011+02141101271ADDAY111061AY221061GF104991041021004501001001KA1240N+02161MA1999999100761MD1999999+0001MW1041REMSYN082AAXX  25124 82198 31493 40914 10301 20214 30076 40127 70412 84200 333 20216 58000;
0165821980999992008102518004-01717-045400FM-12+004499999V0200901N006212200019N0005001N1+03191+02121100981ADDAY121061AY211061GF102991021021004501001001MA1999999100471MD1999999-0071MW1041REMSYN076AAXX  25184 82198 31493 20912 10319 20212 30047 40098 70421 82200 333 59007;
0178821980999992008102600004-01717-045400FM-12+004499999V0200701N003112200019N0002001N1+02601+02291101141ADDGA1001+999999999GF100991001001999999001001KA1240M+03371MA1999999100631MD1999999-0101REMSYN082AAXX  26004 82198 32992 00706 10260 20229 30063 40114 333 10337 29070 55109 59010;
0184821980999992008102612004-01717-045400FM-12+004499999V0200901N006212200019N0005001N1+02981+02351101231ADDAY121061AY211061GF104991041021004501001001KA1240N+02131MA1999999100721MD1999999-0041MW1041REMSYN082AAXX  26124 82198 31493 40912 10298 20235 30072 40123 70421 84200 333 20213 59004;
0165821980999992008102618004-01717-045400FM-12+004499999V0200901N004112200019N0010001N1+03311+02241100921ADDAY111061AY221061GF102991021021004501001001MA1999999100411MD1999999-0061MW1041REMSYN076AAXX  26184 82198 31494 20908 10331 20224 30041 40092 70412 82200 333 59006;
0178821980999992008102700004-01717-045400FM-12+004499999V0200701N004112200019N0002001N1+02661+02411101151ADDGA1001+999999999GF100991001001999999001001KA1240M+03451MA1999999100641MD1999999+0011REMSYN082AAXX  27004 82198 32992 00708 10266 20241 30064 40115 333 10345 29074 55108 58001;
0184821980999992008102712004-01717-045400FM-12+004499999V0200701N004610450019N0005001N1+02941+02331101271ADDAY121061AY211061GF107991041051004501061001KA1240N+02281MA1999999100761MD1999999+0041MW1041REMSYN082AAXX  27124 82198 31493 70709 10294 20233 30076 40127 70421 84560 333 20228 58004;
0165821980999992008102718004-01717-045400FM-12+004499999V0200501N004612200019N0010001N1+03131+02261101011ADDAY121061AY211061GF103991031021004501001001MA1999999100501MD1999999+0091MW1041REMSYN076AAXX  27184 82198 31494 30509 10313 20226 30050 40101 70421 83200 333 58009;
0196821980999992008102800004-01717-045400FM-12+004499999V0200501N005112200019N0002001N1+02671+02101101211ADDAY111061AY201061GF102991011021004501061001KA1240M+03251MA1999999100701MD1999999+0061MW1131REMSYN094AAXX  28004 82198 31492 20510 10267 20210 30070 40121 71310 81260 333 10325 29070 55070 58006;
0184821980999992008102812004-01717-045400FM-12+004499999V0200501N005110450019N0005001N1+02911+02321101181ADDAY101061AY221061GF106991041051004501061001KA1240N+02241MA1999999100671MD1999999-0091MW1041REMSYN082AAXX  28124 82198 31493 60510 10291 20232 30067 40118 70402 84560 333 20224 59009;
0165821980999992008102818004-01717-045400FM-12+004499999V0200501N005112200019N0010001N1+03201+02351100921ADDAY111061AY221061GF104991021021004501001011MA1999999100411MD1999999-0091MW1041REMSYN076AAXX  28184 82198 31494 40510 10320 20235 30041 40092 70412 82201 333 59009;
0178821980999992008102900004-01717-045400FM-12+004499999V0200501N003612200019N0002001N1+02631+02291101081ADDGA1001+999999999GF100991001001999999001001KA1240M+03391MA1999999100571MD1999999-0131REMSYN082AAXX  29004 82198 32992 00507 10263 20229 30057 40108 333 10339 29074 55105 59013;
0156821980999992008102912004-01717-045400FM-12+004499999V0200501N003610450019N0010001N1+02961+02451101201ADDGF105991031021004501061001KA1240N+02241MA1999999100691MD1999999+0021REMSYN076AAXX  29124 82198 32494 50507 10296 20245 30069 40120 83260 333 20224 58002;
0178821980999992008103000004-01717-045400FM-12+004499999V0200701N002112200019N0002001N1+02611+02251101041ADDGA1001+999999999GF100991001001999999001001KA1240M+03241MA1999999100531MD1999999-0041REMSYN082AAXX  30004 82198 32992 00704 10261 20225 30053 40104 333 10324 29074 55102 59004;
0137821980999992008103018004-01717-045400FM-12+004499999V0200901N004612200019N0010001N1+03241+02101100921ADDGF103991031021004501001001MA1999999100411MD1999999+0051REMSYN070AAXX  30184 82198 32494 30909 10324 20210 30041 40092 83200 333 58005;
0178821980999992008103100004-01717-045400FM-12+004499999V0200701N003112200019N0002001N1+02621+02311101091ADDGA1001+999999999GF100991001001999999001001KA1240M+03361MA1999999100581MD1999999+0051REMSYN082AAXX  31004 82198 32992 00706 10262 20231 30058 40109 333 10336 29068 55108 58005;
0156821980999992008103112004-01717-045400FM-12+004499999V0200701N003610042019N0010001N1+02961+02471101191ADDGF107991071021004501001001KA1240N+02211MA1999999100681MD1999999+0021REMSYN076AAXX  31124 82198 32494 70707 10296 20247 30068 40119 87200 333 20221 58002;
0137821980999992008103118004-01717-045400FM-12+004499999V0200901N005112200019N0010001N1+03211+02151100871ADDGF103991031021004501001001MA1999999100361MD1999999-0051REMSYN070AAXX  31184 82198 32494 30910 10321 20215 30036 40087 83200 333 59005;
0178821980999992008110100004-01717-045400FM-12+004499999V0200701N005112200019N0002001N1+02671+02331101061ADDGA1001+999999999GF100991001001999999001001KA1240M+03401MA1999999100551MD1999999-0031REMSYN082AAXX  01004 82198 32992 00710 10267 20233 30055 40106 333 10340 29073 55097 59003;
0156821980999992008110112004-01717-045400FM-12+004499999V0200901N005710042019N0010001N1+02981+02231101171ADDGF107991051021004501061001KA1240N+02281MA1999999100661MD1999999-0021REMSYN076AAXX  01124 82198 32494 70911 10298 20223 30066 40117 85260 333 20228 59002;
0137821980999992008110118004-01717-045400FM-12+004499999V0200901N005110450019N0010001N1+03061+02191100961ADDGF105991041021004501061001MA1999999100451MD1999999-0091REMSYN070AAXX  01184 82198 32494 50910 10306 20219 30045 40096 84260 333 59009;
0178821980999992008110200004-01717-045400FM-12+004499999V0200701N002612200019N0002001N1+02601+02271101131ADDGA1001+999999999GF100991001001999999001001KA1240M+03221MA1999999100621MD1999999+0071REMSYN082AAXX  02004 82198 32992 00705 10260 20227 30062 40113 333 10322 29072 55058 58007;
0156821980999992008110212004-01717-045400FM-12+004499999V0200701N005110042019N0010001N1+02981+02231101281ADDGF105991051021004501001001KA1240N+02161MA1999999100771MD1999999+0111REMSYN076AAXX  02124 82198 32494 50710 10298 20223 30077 40128 85200 333 20216 58011;
0137821980999992008110218004-01717-045400FM-12+004499999V0200901N004612200019N0010001N1+03241+02061100991ADDGF104991031021004501061001MA1999999100481MD1999999+0031REMSYN070AAXX  02184 82198 32494 40909 10324 20206 30048 40099 83260 333 58003;
0178821980999992008110300004-01717-045400FM-12+004499999V0200701N002612200019N0002001N1+02641+02371101221ADDGA1001+999999999GF100991001001999999001001KA1240M+03371MA1999999100711MD1999999+0091REMSYN082AAXX  03004 82198 32992 00705 10264 20237 30071 40122 333 10337 29071 55111 58009;
0156821980999992008110312004-01717-045400FM-12+004499999V0200901N005110042019N0010001N1+03081+02421101291ADDGF105991051021004501001001KA1240N+02241MA1999999100781MD1999999+0011REMSYN076AAXX  03124 82198 32494 50910 10308 20242 30078 40129 85200 333 20224 58001;
0137821980999992008110318004-01717-045400FM-12+004499999V0200701N005710450019N0010001N1+03221+02371101071ADDGF106991041021004501061001MA1999999100561MD1999999+0081REMSYN070AAXX  03184 82198 32494 60711 10322 20237 30056 40107 84260 333 58008;
0168821980999992008110400004-01717-045400FM-12+004499999V0200701N003612200019N0002001N1+02701+02411101171ADDGF103991031021004501001001KA1240M+03381MA1999999100661MD1999999-0051REMSYN088AAXX  04004 82198 32492 30707 10270 20241 30066 40117 83200 333 10338 29074 55097 59005;
0156821980999992008110412004-01717-045400FM-12+004499999V0200501N004612200019N0010001N1+02971+02371101171ADDGF103991021021004501001041KA1240N+02261MA1999999100661MD1999999-0121REMSYN076AAXX  04124 82198 32494 30509 10297 20237 30066 40117 82204 333 20226 59012;
0165821980999992008110418004-01717-045400FM-12+004499999V0200501N005712200019N0010001N1+03051+02271100921ADDAY121061AY221061GF104991031021004501001011MA1999999100411MD1999999-0151MW1161REMSYN076AAXX  04184 82198 31494 40511 10305 20227 30041 40092 71622 83201 333 59015;
0168821980999992008110500004-01717-045400FM-12+004499999V0200501N003610450019N0002001N1+02681+02351101101ADDGF105991031011004501011001KA1240M+03211MA1999999100591MD1999999-0071REMSYN088AAXX  05004 82198 32492 50507 10268 20235 30059 40110 83110 333 10321 29074 55096 59007;
0156821980999992008110512004-01717-045400FM-12+004499999V0200901N003110450019N0010001N1+02951+02371101141ADDGF106991031021004501061011KA1240N+02251MA1999999100631MD1999999-0031REMSYN076AAXX  05124 82198 32494 60906 10295 20237 30063 40114 83261 333 20225 59003;
0165821980999992008110518004-01717-045400FM-12+004499999V0200901N004612200019N0010001N1+03111+02261100871ADDAY121061AY221061GF104991041021004501001001MA1999999100361MD1999999-0051MW1041REMSYN076AAXX  05184 82198 31494 40909 10311 20226 30036 40087 70422 84200 333 59005;
0168821980999992008110600004-01717-045400FM-12+004499999V0200901N002112200019N0002001N1+02651+02271101051ADDGF103991011011004501011041KA1240M+03301MA1999999100541MD1999999-0051REMSYN088AAXX  06004 82198 32492 30904 10265 20227 30054 40105 81114 333 10330 29074 55088 59005;
0184821980999992008110612004-01717-045400FM-12+004499999V0200501N002610450019N0005001N1+02971+02421101171ADDAY111061AY221061GF107991041021004501061061KA1240N+02241MA1999999100661MD1999999+0031MW1041REMSYN082AAXX  06124 82198 31493 70505 10297 20242 30066 40117 70412 84266 333 20224 58003;
0184821980999992008110712004-01717-045400FM-12+004499999V0200701N002610450019N0005001N1+02951+02461101181ADDAY111061AY221061GF107991041051004501031001KA1240N+02281MA1999999100671MD1999999+0011MW1041REMSYN082AAXX  07124 82198 31493 70705 10295 20246 30067 40118 70412 84530 333 20228 58001;
0165821980999992008110718004-01717-045400FM-12+004499999V0200501N003112200019N0010001N1+03121+02301100801ADDAY151061AY221061GF104991021021004501061041MA1999999100291MD1999999-0051MW1041REMSYN076AAXX  07184 82198 31494 40506 10312 20230 30029 40080 70452 82264 333 59005;
0168821980999992008110800004-01717-045400FM-12+004499999V0200701N002612200019N0002001N1+02651+02351101041ADDGF102991021011004501001001KA1240M+03311MA1999999100531MD1999999+0051REMSYN088AAXX  08004 82198 32492 20705 10265 20235 30053 40104 82100 333 10331 29077 55071 58005;
0184821980999992008110812004-01717-045400FM-12+004499999V0200701N002612200019N0005001N1+03001+02371101071ADDAY111061AY221061GF104991031021004501001011KA1240N+02171MA1999999100561MD1999999-0111MW1041REMSYN082AAXX  08124 82198 31493 40705 10300 20237 30056 40107 70412 83201 333 20217 59011;
0165821980999992008110818004-01717-045400FM-12+004499999V0200501N003610450019N0010001N1+03091+02111100751ADDAY121061AY221061GF105991031021004501041061MA1999999100241MD1999999-0051MW1041REMSYN076AAXX  08184 82198 31494 50507 10309 20211 30024 40075 70422 83246 333 59005;
0168821980999992008110900004-01717-045400FM-12+004499999V0200501N002612200019N0002001N1+02681+02391101051ADDGF101991011011004501001001KA1240M+03381MA1999999100541MD1999999+0011REMSYN088AAXX  09004 82198 32492 10505 10268 20239 30054 40105 81100 333 10338 29074 55108 58001;
0184821980999992008110912004-01717-045400FM-12+004499999V0200501N004610450019N0005001N1+02911+02271101241ADDAY111061AY221061GF106991041051004501061001KA1240N+02291MA1999999100731MD1999999+0171MW1041REMSYN082AAXX  09124 82198 31493 60509 10291 20227 30073 40124 70412 84560 333 20229 58017;
0165821980999992008110918004-01717-045400FM-12+004499999V0200501N004612200019N0010001N1+03111+02231100851ADDAY121061AY221061GF104991031021004501041011MA1999999100341MD1999999+0101MW1041REMSYN076AAXX  09184 82198 31494 40509 10311 20223 30034 40085 70422 83241 333 58010;
0168821980999992008111000004-01717-045400FM-12+004499999V0200701N002610450019N0002001N1+02691+02291100101ADDGF106991031011004501011041KA1240M+03221MA1999999100551MD1999999+0011REMSYN088AAXX  10004 82198 32492 60705 10269 20229 30055 40010 83114 333 10322 29074 55090 58001;
0156821980999992008111012004-01717-045400FM-12+004499999V0200901N004110042019N0010001N1+02871+02341101181ADDGF105991051021004501001001KA1240N+02471MA1999999100671MD1999999-0061REMSYN076AAXX  10124 82198 32494 50908 10287 20234 30067 40118 85200 333 20247 59006;
0165821980999992008111018004-01717-045400FM-12+004499999V0200501N005110450019N0010001N1+03201+02331100871ADDAY121061AY221061GF105991031021004501061061MA1999999100361MD1999999+0021MW1041REMSYN076AAXX  10184 82198 31494 50510 10320 20233 30036 40087 70422 83266 333 58002;
0168821980999992008111100004-01717-045400FM-12+004499999V0200901N002612200019N0002001N1+02681+02351101171ADDGF102991011001004501011041KA1240M+03351MA1999999100661MD1999999+0111REMSYN088AAXX  11004 82198 32492 20905 10268 20235 30066 40117 81014 333 10335 29075 55110 58011;
0156821980999992008111112004-01717-045400FM-12+004499999V0200901N003110450019N0010001N1+03081+02351101151ADDGF105991041021004501041001KA1240N+02241MA1999999100641MD1999999-0031REMSYN076AAXX  11124 82198 32494 50906 10308 20235 30064 40115 84240 333 20224 59003;
0137821980999992008111118004-01717-045400FM-12+004499999V0200201N005712200019N0010001N1+03101+02361100751ADDGF103991031011004501001001MA1999999100241MD1999999-0091REMSYN070AAXX  11184 82198 32494 30211 10310 20236 30024 40075 83100 333 59009;
0178821980999992008111200004-01717-045400FM-12+004499999V0200701N003112200019N0002001N1+02691+02371100881ADDGA1001+999999999GF100991001001999999001001KA1240M+03391MA1999999100381MD1999999-0191REMSYN082AAXX  12004 82198 32992 00706 10269 20237 30038 40088 333 10339 29074 55111 59019;
0156821980999992008111212004-01717-045400FM-12+004499999V0200701N005110042019N0010001N1+02851+02291101021ADDGF106991051021004501061001KA1240N+02251MA1999999100511MD1999999-0131REMSYN076AAXX  12124 82198 32494 60710 10285 20229 30051 40102 85260 333 20225 59013;
0165821980999992008111218004-01717-045400FM-12+004499999V0200701N004110450019N0010001N1+03071+02291100671ADDAY121061AY221061GF106991041021004501061001MA1999999100161MD1999999-0111MW1041REMSYN076AAXX  12184 82198 31494 60708 10307 20229 30016 40067 70422 84260 333 59011;
0168821980999992008111300004-01717-045400FM-12+004499999V0200701N003112200019N0002001N1+02701+02371100771ADDGF102991021011004501001001KA1240M+03221MA1999999100261MD1999999-0111REMSYN088AAXX  13004 82198 32492 20706 10270 20237 30026 40077 82100 333 10322 29075 55072 59011;
0220821980999992008111312004-01717-045400FM-12+004499999V0200701N004110450019N0010001N1+02981+02231100971ADDAA124000091AY151061AY211061GF105991041021004501061001KA1240N+02221MA1999999100461MD1999999-0051MW1031REMSYN088AAXX  13124 82198 21494 50708 10298 20223 30046 40097 70351 84260 333 20222 59005 69924;EQDQ01  00002PRCP24
0165821980999992008111318004-01717-045400FM-12+004499999V0200901N005110450019N0010001N1+03131+02301100591ADDAY121061AY221061GF105991041021004501061001MA1999999100081MD1999999-0081MW1041REMSYN076AAXX  13184 82198 31494 50910 10313 20230 30008 40059 70422 84260 333 59008;
0168821980999992008111400004-01717-045400FM-12+004499999V0200701N003112200019N0002001N1+02681+02331100851ADDGF103991011021004501061011KA1240M+03301MA1999999100341MD1999999+0081REMSYN088AAXX  14004 82198 32492 30706 10268 20233 30034 40085 81261 333 10330 29072 55094 58008;
0156821980999992008111412004-01717-045400FM-12+004499999V0200901N004612200019N0010001N1+02941+02261100971ADDGF106991041021004501001011KA1240N+02191MA1999999100461MD1999999+0001REMSYN076AAXX  14124 82198 32494 60909 10294 20226 30046 40097 84201 333 20219 58000;
0165821980999992008111418004-01717-045400FM-12+004499999V0200701N004610042019N0010001N1+03181+02161100531ADDAY121061AY221061GF105991051021004501001001MA1999999100021MD1999999-0061MW1041REMSYN076AAXX  14184 82198 31494 50709 10318 20216 30002 40053 70422 85200 333 59006;
0178821980999992008111500004-01717-045400FM-12+004499999V0200701N003112200019N0002001N1+02701+02301100691ADDGA1001+999999999GF100991001001999999001001KA1240M+03341MA1999999100181MD1999999-0161REMSYN082AAXX  15004 82198 32992 00706 10270 20230 30018 40069 333 10334 29070 55100 59016;
0184821980999992008111512004-01717-045400FM-12+004499999V0200901N005110450019N0010001N1+02961+02331100891ADDAY121061AY211061GF107991041021004501071001KA1240N+02281MA1999999100381MD1999999-0081MW1041REMSYN082AAXX  15124 82198 31494 70910 10296 20233 30038 40089 70421 84270 333 20228 59008;
0165821980999992008111518004-01717-045400FM-12+004499999V0200901N006210042019N0010001N1+03161+02231100581ADDAY121061AY221061GF106991061021004501001001MA1999999100071MD1999999+0051MW1041REMSYN076AAXX  15184 82198 31494 60912 10316 20223 30007 40058 70422 86200 333 58005;
0178821980999992008111600004-01717-045400FM-12+004499999V0200701N003112200019N0002001N1+02661+02291100671ADDGA1001+999999999GF100991001001999999001001KA1240M+03311MA1999999100161MD1999999-0021REMSYN082AAXX  16004 82198 32992 00706 10266 20229 30016 40067 333 10331 29072 55069 59002;
0156821980999992008111612004-01717-045400FM-12+004499999V0200701N004610042019N0010001N1+02911+02251100951ADDGF106991051021004501061001KA1240N+02261MA1999999100441MD1999999+0061REMSYN076AAXX  16124 82198 32494 60709 10291 20225 30044 40095 85260 333 20226 58006;
0137821980999992008111618004-01717-045400FM-12+004499999V0200501N004110450019N0010001N1+03081+02211100741ADDGF105991041021004501041001MA1999999100231MD1999999+0161REMSYN070AAXX  16184 82198 32494 50508 10308 20221 30023 40074 84240 333 58016;
0178821980999992008111700004-01717-045400FM-12+004499999V0200701N004612200019N0002001N1+02681+02221100851ADDGA1001+999999999GF100991001001999999001001KA1240M+03181MA1999999100341MD1999999+0181REMSYN082AAXX  17004 82198 32992 00709 10268 20222 30034 40085 333 10318 29070 55101 58018;
0156821980999992008111712004-01717-045400FM-12+004499999V0200701N003110450019N0010001N1+02901+02271101031ADDGF106991041021004501041001KA1240N+02211MA1999999100521MD1999999+0081REMSYN076AAXX  17124 82198 32494 60706 10290 20227 30052 40103 84240 333 20221 58008;
0165821980999992008111718004-01717-045400FM-12+004499999V0200501N004610450019N0010001N1+03081+02291100741ADDAY121061AY221061GF106991041021004501041001MA1999999100231MD1999999+0001MW1041REMSYN076AAXX  17184 82198 31494 60509 10308 20229 30023 40074 70422 84240 333 58000;
0178821980999992008111800004-01717-045400FM-12+004499999V0200701N002612200019N0002001N1+02621+02271100951ADDGA1001+999999999GF100991001001999999001001KA1240M+03231MA1999999100441MD1999999+0101REMSYN082AAXX  18004 82198 32992 00705 10262 20227 30044 40095 333 10323 29074 55090 58010;
0184821980999992008111812004-01717-045400FM-12+004499999V0200701N003612200019N0005001N1+02961+02281101011ADDAY111061AY221061GF105991031021004501001011KA1240N+02071MA1999999100501MD1999999-0021MW1041REMSYN082AAXX  18124 82198 31493 50707 10296 20228 30050 40101 70412 83201 333 20207 59002;
0137821980999992008111818004-01717-045400FM-12+004499999V0200501N004610450019N0010001N1+03171+02331100691ADDGF105991031021004501061011MA1999999100181MD1999999-0051REMSYN070AAXX  18184 82198 32494 50509 10317 20233 30018 40069 83261 333 59005;
0156821980999992008111912004-01717-045400FM-12+004499999V0200901N002610450019N0010001N1+03001+02391101171ADDGF106991031021004501061011KA1240N+02231MA1999999100561MD1999999+0061REMSYN076AAXX  19124 82198 32494 60905 10300 20239 30056 40117 83261 333 20223 58006;
0137821980999992008111918004-01717-045400FM-12+004499999V0200901N004612200019N0010001N1+03201+02331100661ADDGF106991031021004501001041MA1999999100151MD1999999-0031REMSYN070AAXX  19184 82198 32494 60909 10320 20233 30015 40066 83204 333 59003;
0168821980999992008112000004-01717-045400FM-12+004499999V0200701N004112200019N0002001N1+02671+02251100821ADDGF101991011011004501001001KA1240M+03371MA1999999100311MD1999999-0101REMSYN088AAXX  20004 82198 32492 10708 10267 20225 30031 40082 81100 333 10337 29073 55068 59010;
0156821980999992008112012004-01717-045400FM-12+004499999V0200501N006712200019N0010001N1+03051+02141101031ADDGF106991031021004501001061KA1240N+02251MA1999999100521MD1999999-0041REMSYN076AAXX  20124 82198 32494 60513 10305 20214 30052 40103 83206 333 20225 59004;
0137821980999992008112018004-01717-045400FM-12+004499999V0200501N005112200019N0010001N1+03081+02241100771ADDGF105991031021004501001041MA1999999100261MD1999999+0111REMSYN070AAXX  20184 82198 32494 50510 10308 20224 30026 40077 83204 333 58011;
0178821980999992008112100004-01717-045400FM-12+004499999V0200901N002612200019N0002001N1+02651+02231101041ADDGA1001+999999999GF100991001001999999001001KA1240M+03361MA1999999100531MD1999999+0221REMSYN082AAXX  21004 82198 32992 00905 10265 20223 30053 40104 333 10336 29070 55012 58022;
0156821980999992008112112004-01717-045400FM-12+004499999V0200901N004110450019N0010001N1+02831+02361101141ADDGF106991041021004501061001KA1240N+02241MA1999999100631MD1999999+0111REMSYN076AAXX  21124 82198 32494 60908 10283 20236 30063 40114 84260 333 20224 58011;
0165821980999992008112118004-01717-045400FM-12+004499999V0200901N006712200019N0010001N1+03301+02091100901ADDAY121061AY221061GF105991031021004501001011MA1999999100391MD1999999+0131MW1041REMSYN076AAXX  21184 82198 31494 50913 10330 20209 30039 40090 70422 83201 333 58013;
0156821980999992008112212004-01717-045400FM-12+004499999V0200501N005712200019N0010001N1+03031+02191101181ADDGF104991031021004501001011KA1240N+02211MA1999999100671MD1999999+0041REMSYN076AAXX  22124 82198 32494 40511 10303 20219 30067 40118 83201 333 20221 58004;
0137821980999992008112218004-01717-045400FM-12+004499999V0200901N005112200019N0010001N1+03301+02121100821ADDGF103991021021004501001011MA1999999100311MD1999999-0081REMSYN070AAXX  22184 82198 32494 30910 10330 20212 30031 40082 82201 333 59008;
0178821980999992008112300004-01717-045400FM-12+004499999V0200701N002612200019N0002001N1+02671+02251100951ADDGA1001+999999999GF100991001001999999001001KA1240M+03401MA1999999100441MD1999999-0181REMSYN082AAXX  23004 82198 32992 00705 10267 20225 30044 40095 333 10340 29068 55110 59018;
0156821980999992008112312004-01717-045400FM-12+004499999V0200901N006710042019N0010001N1+03071+02191101071ADDGF105991051021004501001001KA1240N+02241MA1999999100561MD1999999-0111REMSYN076AAXX  23124 82198 32494 50913 10307 20219 30056 40107 85200 333 20224 59011;
0137821980999992008112318004-01717-045400FM-12+004499999V0200701N005110042019N0010001N1+03151+02301100751ADDGF105991051021004501001001MA1999999100241MD1999999-0071REMSYN070AAXX  23184 82198 32494 50710 10315 20230 30024 40075 85200 333 59007;
0178821980999992008112400004-01717-045400FM-12+004499999V0200701N002612200019N0002001N1+02671+02251100931ADDGA1001+999999999GF100991001001999999001001KA1240M+03251MA1999999100421MD1999999-0021REMSYN082AAXX  24004 82198 32992 00705 10267 20225 30042 40093 333 10325 29071 55085 59002;
0184821980999992008112412004-01717-045400FM-12+004499999V0200701N006710450019N0005001N1+02871+02181101071ADDAY111061AY221061GF107991041051004501061001KA1240N+02261MA1999999100561MD1999999+0001MW1041REMSYN082AAXX  24124 82198 31493 70713 10287 20218 30056 40107 70412 84560 333 20226 58000;
0165821980999992008112418004-01717-045400FM-12+004499999V0200701N003610450019N0010001N1+02951+02221100811ADDAY121061AY221061GF107991041071004501061061MA1999999100301MD1999999+0061MW1041REMSYN076AAXX  24184 82198 31494 70707 10295 20222 30030 40081 70422 84766 333 58006;
0178821980999992008112500004-01717-045400FM-12+004499999V0200701N004612200019N0002001N1+02671+02231100951ADDGA1001+999999999GF100991001001999999001001KA1240M+03271MA1999999100441MD1999999+0021REMSYN082AAXX  25004 82198 32992 00709 10267 20223 30044 40095 333 10327 29073 55028 58002;
0156821980999992008112512004-01717-045400FM-12+004499999V0200701N003110042019N0010001N1+03021+02261101091ADDGF106991051021004501001011KA1240N+02271MA1999999100581MD1999999+0021REMSYN076AAXX  25124 82198 32494 60706 10302 20226 30058 40109 85201 333 20227 58002;
0137821980999992008112518004-01717-045400FM-12+004499999V0200901N004110450019N0010001N1+03241+02281100801ADDGF105991031021004501041011MA1999999100291MD1999999-0011REMSYN070AAXX  25184 82198 32494 50908 10324 20228 30029 40080 83241 333 59001;
0178821980999992008112600004-01717-045400FM-12+004499999V0200701N002612200019N0002001N1+02661+02351100971ADDGA1001+999999999GF100991001001999999001001KA1240M+03401MA1999999100461MD1999999+0021REMSYN082AAXX  26004 82198 32992 00705 10266 20235 30046 40097 333 10340 29072 55105 58002;
0156821980999992008112612004-01717-045400FM-12+004499999V0200901N005110042019N0010001N1+02971+02281101021ADDGF105991051021004501001001KA1240N+02221MA1999999100511MD1999999-0071REMSYN076AAXX  26124 82198 32494 50910 10297 20228 30051 40102 85200 333 20222 59007;
0137821980999992008112618004-01717-045400FM-12+004499999V0200901N004612200019N0010001N1+03221+02261100771ADDGF104991041021004501001001MA1999999100261MD1999999-0031REMSYN070AAXX  26184 82198 32494 40909 10322 20226 30026 40077 84200 333 59003;
0178821980999992008112700004-01717-045400FM-12+004499999V0200701N002112200019N0002001N1+02671+02331100941ADDGA1001+999999999GF100991001001999999001001KA1240M+03411MA1999999100431MD1999999-0031REMSYN082AAXX  27004 82198 32992 00704 10267 20233 30043 40094 333 10341 29071 55108 59003;
0156821980999992008112712004-01717-045400FM-12+004499999V0200901N003610042019N0010001N1+02981+02301101101ADDGF107991051021004501061001KA1240N+02201MA1999999100591MD1999999+0081REMSYN076AAXX  27124 82198 32494 70907 10298 20230 30059 40110 85260 333 20220 58008;
0165821980999992008112718004-01717-045400FM-12+004499999V0200901N005110450019N0010001N1+03141+02271100891ADDAY121061AY221061GF107991041021004501061001MA1999999100381MD1999999+0121MW1041REMSYN076AAXX  27184 82198 31494 70910 10314 20227 30038 40089 70422 84260 333 58012;
0168821980999992008112800004-01717-045400FM-12+004499999V0200701N003112200019N0002001N1+02661+02331101051ADDGF103991031001012501061001KA1240M+03301MA1999999100541MD1999999+0111REMSYN088AAXX  28004 82198 32692 30706 10266 20233 30054 40105 83060 333 10330 29073 55065 58011;
0156821980999992008112812004-01717-045400FM-12+004499999V0200701N003610450019N0010001N1+02901+02301101091ADDGF105991031021004501041011KA1240N+02251MA1999999100581MD1999999-0011REMSYN076AAXX  28124 82198 32494 50707 10290 20230 30058 40109 83241 333 20225 59001;
0165821980999992008112818004-01717-045400FM-12+004499999V0200501N004610450019N0010001N1+03131+02221100751ADDAY121061AY221061GF106991031021004501061011MA1999999100241MD1999999-0141MW1041REMSYN076AAXX  28184 82198 31494 60509 10313 20222 30024 40075 70422 83261 333 59014;
0178821980999992008112900004-01717-045400FM-12+004499999V0200701N001512200019N0002001N1+02661+02371100751ADDGA1001+999999999GF100991001001999999001001KA1240M+03231MA1999999100241MD1999999+0061REMSYN082AAXX  29004 82198 32992 00703 10266 20237 30024 40075 333 10323 29074 55066 58006;
0156821980999992008112912004-01717-045400FM-12+004499999V0200501N005110450019N0010001N1+02921+02341101141ADDGF106991041021004501041001KA1240N+02161MA1999999100631MD1999999+0051REMSYN076AAXX  29124 82198 32494 60510 10292 20234 30063 40114 84240 333 20216 58005;
0165821980999992008112918004-01717-045400FM-12+004499999V0200501N005112200019N0010001N1+03121+02301100851ADDAY121061AY221061GF104991021011004501041021MA1999999100341MD1999999+0101MW1041REMSYN076AAXX  29184 82198 31494 40510 10312 20230 30034 40085 70422 82142 333 58010;
0178821980999992008113000004-01717-045400FM-12+004499999V0200901N002612200019N0002001N1+02661+02411100981ADDGA1001+999999999GF100991001001999999001001KA1240M+03221MA1999999100471MD1999999-0011REMSYN082AAXX  30004 82198 32992 00905 10266 20241 30047 40098 333 10322 29076 55093 59001;
0156821980999992008113012004-01717-045400FM-12+004499999V0200701N005112200019N0010001N1+02981+02371101231ADDGF104991031021004501061001KA1240N+02281MA1999999100721MD1999999+0091REMSYN076AAXX  30124 82198 32494 40710 10298 20237 30072 40123 83260 333 20228 58009;
0137821980999992008113018004-01717-045400FM-12+004499999V0200501N005112200019N0010001N1+03131+02251100951ADDGF103991031021004501001001MA1999999100441MD1999999+0101REMSYN070AAXX  30184 82198 32494 30510 10313 20225 30044 40095 83200 333 58010;
0178821980999992008120100004-01717-045400FM-12+004499999V0200701N002612200019N0002001N1+02701+02411101071ADDGA1001+999999999GF100991001001999999001001KA1240M+03281MA1999999100561MD1999999+0091REMSYN082AAXX  01004 82198 32992 00705 10270 20241 30056 40107 333 10328 29074 55108 58009;
0156821980999992008120112004-01717-045400FM-12+004499999V0200701N003110450019N0010001N1+02921+02171101231ADDGF105991041021004501041001KA1240N+02241MA1999999100721MD1999999+0001REMSYN076AAXX  01124 82198 32494 50706 10292 20217 30072 40123 84240 333 20224 58000;
0165821980999992008120118004-01717-045400FM-12+004499999V0200501N006712200019N0010001N1+03091+02321100951ADDAY121061AY221061GF104991031021004501001011MA1999999100441MD1999999+0001MW1041REMSYN076AAXX  01184 82198 31494 40513 10309 20232 30044 40095 70422 83201 333 58000;
0178821980999992008120200004-01717-045400FM-12+004499999V0200701N004612200019N0002001N1+02721+02371101061ADDGA1001+999999999GF100991001001999999001001KA1240M+03271MA1999999100551MD1999999-0011REMSYN082AAXX  02004 82198 32992 00709 10272 20237 30055 40106 333 10327 29072 55099 59001;
0184821980999992008120212004-01717-045400FM-12+004499999V0200701N004110450019N0005001N1+02951+02371101171ADDAY111061AY221061GF107991031051004501061041KA1240N+02231MA1999999100661MD1999999-0061MW1041REMSYN082AAXX  02124 82198 31493 70708 10295 20237 30066 40117 70412 83564 333 20223 59006;
0165821980999992008120218004-01717-045400FM-12+004499999V0200701N005712200019N0005001N1+03111+02311100771ADDAY121061AY221061GF106991031021004501001061MA1999999100261MD1999999-0181MW1041REMSYN076AAXX  02184 82198 31493 60711 10311 20231 30026 40077 70422 83206 333 59018;
0168821980999992008120300004-01717-045400FM-12+004499999V0200501N002612200019N0002001N1+02701+02371101031ADDGF103991021021004501011001KA1240M+03231MA1999999100521MD1999999-0031REMSYN088AAXX  03004 82198 32492 30505 10270 20237 30052 40103 82210 333 10323 29074 55060 59003;
0184821980999992008120312004-01717-045400FM-12+004499999V0200901N002110450019N0005001N1+02781+02361101171ADDAY111061AY221061GF108991041031004501061001KA1240N+02331MA1999999100661MD1999999+0001MW1041REMSYN082AAXX  03124 82198 31493 80904 10278 20236 30066 40117 70412 84360 333 20233 58000;
0165821980999992008120318004-01717-045400FM-12+004499999V0200901N005110450019N0005001N1+02961+02261100851ADDAY121061AY221061GF107991041051004501031011MA1999999100341MD1999999+0081MW1041REMSYN076AAXX  03184 82198 31493 70910 10296 20226 30034 40085 70422 84531 333 58008;
0168821980999992008120400004-01717-045400FM-12+004499999V0200701N002112200019N0002001N1+02641+02291101061ADDGF101991011001017501031001KA1240M+03091MA1999999100551MD1999999+0031REMSYN088AAXX  04004 82198 32792 10704 10264 20229 30055 40106 81030 333 10309 29076 55009 58003;
0184821980999992008120412004-01717-045400FM-12+004499999V0200701N005710450019N0010001N1+03061+02261101101ADDAY111061AY221061GF105991031021004501031011KA1240N+02151MA1999999100591MD1999999-0071MW1041REMSYN082AAXX  04124 82198 31494 50711 10306 20226 30059 40110 70412 83231 333 20215 59007;
0165821980999992008120418004-01717-045400FM-12+004499999V0200701N004612200019N0010001N1+03311+02021100811ADDAY121061AY221061GF104991041021004501001001MA1999999100301MD1999999-0041MW1041REMSYN076AAXX  04184 82198 31494 40709 10331 20202 30030 40081 70422 84200 333 59004;
0178821980999992008120500004-01717-045400FM-12+004499999V0200901N002612200019N0002001N1+02651+02231101001ADDGA1001+999999999GF100991001001999999001001KA1240M+03411MA1999999100491MD1999999-0061REMSYN082AAXX  05004 82198 32992 00905 10265 20223 30049 40100 333 10341 29067 55109 59006;
0156821980999992008120512004-01717-045400FM-12+004499999V0200501N003110042019N0010001N1+02951+02371101191ADDGF105991051021004501001001KA1240N+02151MA1999999100681MD1999999+0091REMSYN076AAXX  05124 82198 32494 50506 10295 20237 30068 40119 85200 333 20215 58009;
0137821980999992008120518004-01717-045400FM-12+004499999V0203601N006212200019N0010001N1+03151+02181100901ADDGF102991021021004501001001MA1999999100391MD1999999+0091REMSYN070AAXX  05184 82198 32494 23612 10315 20218 30039 40090 82200 333 58009;
0178821980999992008120600004-01717-045400FM-12+004499999V0200501N002612200019N0002001N1+02661+02371101101ADDGA1001+999999999GF100991001001999999001001KA1240M+03341MA1999999100591MD1999999+0101REMSYN082AAXX  06004 82198 32992 00505 10266 20237 30059 40110 333 10334 29072 55111 58010;
0184821980999992008120612004-01717-045400FM-12+004499999V0200501N003612200019N0010001N1+02961+02351101221ADDAY111061AY221061GF105991031021004501001011KA1240N+02271MA1999999100711MD1999999+0031MW1041REMSYN082AAXX  06124 82198 31494 50507 10296 20235 30071 40122 70412 83201 333 20227 58003;
0165821980999992008120618004-01717-045400FM-12+004499999V0200501N004612200019N0010001N1+03101+02261100931ADDAY121061AY221061GF106991041021004501001011MA1999999100421MD1999999+0031MW1041REMSYN076AAXX  06184 82198 31494 60509 10310 20226 30042 40093 70422 84201 333 58003;
0178821980999992008120700004-01717-045400FM-12+004499999V0200701N003612200019N0002001N1+02701+02351101181ADDGA1001+999999999GF100991001001999999001001KA1240M+03261MA1999999100671MD1999999+0081REMSYN082AAXX  07004 82198 32992 00707 10270 20235 30067 40118 333 10326 29073 55074 58008;
0156821980999992008120712004-01717-045400FM-12+004499999V0200701N003612200019N0010001N1+03201+02341101161ADDGF104991031021004501001011KA1240N+02231MA1999999100651MD1999999-0061REMSYN076AAXX  07124 82198 32494 40707 10320 20234 30065 40116 83201 333 20223 59006;
0165821980999992008120718004-01717-045400FM-12+004499999V0200501N004610042019N0010001N1+03061+02251101001ADDAY121061AY221061GF105991051021004501001001MA1999999100491MD1999999+0071MW1041REMSYN076AAXX  07184 82198 31494 50509 10306 20225 30049 40100 70422 85200 333 58007;
0178821980999992008120800004-01717-045400FM-12+004499999V0200501N002612200019N0002001N1+02641+02311101111ADDGA1001+999999999GF100991001001999999001001KA1240M+03381MA1999999100601MD1999999-0071REMSYN082AAXX  08004 82198 32992 00505 10264 20231 30060 40111 333 10338 29073 55099 59007;
0156821980999992008120812004-01717-045400FM-12+004499999V0200701N002610042019N0010001N1+03021+02501101301ADDGF105991051021004501001001KA1240N+02211MA1999999100791MD1999999+0141REMSYN076AAXX  08124 82198 32494 50705 10302 20250 30079 40130 85200 333 20221 58014;
0165821980999992008120818004-01717-045400FM-12+004499999V0200501N003610042019N0010001N1+03141+02161100941ADDAY121061AY221061GF105991051021004501001001MA1999999100431MD1999999-0061MW1041REMSYN076AAXX  08184 82198 31494 50507 10314 20216 30043 40094 70422 85200 333 59006;
0178821980999992008120900004-01717-045400FM-12+004499999V0200701N003112200019N0002001N1+02661+02331101131ADDGA1001+999999999GF100991001001999999001001KA1240M+03241MA1999999100621MD1999999+0021REMSYN082AAXX  09004 82198 32992 00706 10266 20233 30062 40113 333 10324 29074 55092 58002;
0156821980999992008120912004-01717-045400FM-12+004499999V0200501N003112200019N0010001N1+02991+02351101271ADDGF105991041021004501001011KA1240N+02271MA1999999100761MD1999999-0031REMSYN076AAXX  09124 82198 32494 50506 10299 20235 30076 40127 84201 333 20227 59003;
0165821980999992008120918004-01717-045400FM-12+004499999V0200501N004612200019N0010001N1+03101+02291100921ADDAY121061AY221061GF104991031011004501001011MA1999999100411MD1999999-0021MW1041REMSYN076AAXX  09184 82198 31494 40509 10310 20229 30041 40092 70422 83101 333 59002;
0168821980999992008121000004-01717-045400FM-12+004499999V0200501N002610450019N0002001N1+02701+02301101101ADDGF105991021011004501041001KA1240M+03281MA1999999100591MD1999999-0031REMSYN088AAXX  10004 82198 32492 50505 10270 20230 30059 40110 82140 333 10328 29072 55084 59003;
0156821980999992008121012004-01717-045400FM-12+004499999V0200501N003612200019N0010001N1+02901+02371101081ADDGF106991041021004501001011KA1240N+02301MA1999999100571MD1999999-0191REMSYN076AAXX  10124 82198 32494 60507 10290 20237 30057 40108 84201 333 20230 59019;
0165821980999992008121018004-01717-045400FM-12+004499999V0200501N005710450019N0010001N1+03101+02231100721ADDAY121061AY221061GF105991031021004501041011MA1999999100211MD1999999-0201MW1041REMSYN076AAXX  10184 82198 31494 50511 10310 20223 30021 40072 70422 83241 333 59020;
0168821980999992008121100004-01717-045400FM-12+004499999V0200701N002112200019N0002001N1+02701+02391100951ADDGF104991041021004501001001KA1240M+03271MA1999999100441MD1999999-0151REMSYN088AAXX  11004 82198 32492 40704 10270 20239 30044 40095 84200 333 10327 29075 55071 59015;
0156821980999992008121112004-01717-045400FM-12+004499999V0200901N003610450019N0010001N1+02961+02381101071ADDGF107991041031004501011001KA1240N+02241MA1999999100561MD1999999-0011REMSYN076AAXX  11124 82198 32494 70907 10296 20238 30056 40107 84310 333 20224 59001;
0165821980999992008121118004-01717-045400FM-12+004499999V0200501N004610450019N0010001N1+03151+02291100741ADDAY121061AY221061GF105991031021004501041001MA1999999100231MD1999999+0021MW1041REMSYN076AAXX  11184 82198 31494 50509 10315 20229 30023 40074 70422 83240 333 58002;
0168821980999992008121200004-01717-045400FM-12+004499999V0200701N002110450019N0002001N1+02681+02411101361ADDGF105991021011004501041001KA1240M+03341MA1999999100851MD1999999-0091REMSYN088AAXX  12004 82198 32492 50704 10268 20241 30085 40136 82140 333 10334 29075 55074 59009;
0156821980999992008121212004-01717-045400FM-12+004499999V0200701N003110450019N0010001N1+02961+02381101061ADDGF106991031021004501041001KA1240N+02211MA1999999100551MD1999999-0011REMSYN076AAXX  12124 82198 32494 60706 10296 20238 30055 40106 83240 333 20221 59001;
0201821980999992008121218004-01717-045400FM-12+004499999V0200701N005110450019N0010001N1+03061+02171100811ADDAA106000091AY151061AY221061GF106991041021004501041021MA1999999100301MD1999999+0071MW1041REMSYN082AAXX  12184 82198 21494 60710 10306 20217 30030 40081 70452 84242 333 58007 69921;EQDQ01  00002PRCP06
0168821980999992008121300004-01717-045400FM-12+004499999V0200701N002610450019N0002001N1+02681+02281100921ADDGF106991031011004501041001KA1240M+03281MA1999999100411MD1999999+0061REMSYN088AAXX  13004 82198 32492 60705 10268 20228 30041 40092 83140 333 10328 29072 55042 58006;
0192821980999992008121312004-01717-045400FM-12+004499999V0200901N005110450019N0010001N1+03041+02311101071ADDAA124000091GF105991031011004501041011KA1240N+02181MA1999999100561MD1999999+0011REMSYN082AAXX  13124 82198 22494 50910 10304 20231 30056 40107 83141 333 20218 58001 69924;EQDQ01  00002PRCP24
0137821980999992008121318004-01717-045400FM-12+004499999V0200701N005112200019N0010001N1+03291+02101100791ADDGF104991031021004501001011MA1999999100281MD1999999-0021REMSYN070AAXX  13184 82198 32494 40710 10329 20210 30028 40079 83201 333 59002;
0178821980999992008121400004-01717-045400FM-12+004499999V0200701N002112200019N0002001N1+02701+02371100941ADDGA1001+999999999GF100991001001999999001001KA1240M+03401MA1999999100431MD1999999+0021REMSYN082AAXX  14004 82198 32992 00704 10270 20237 30043 40094 333 10340 29070 55103 58002;
0156821980999992008121412004-01717-045400FM-12+004499999V0200701N004610450019N0010001N1+02991+02331101131ADDGF106991041021004501061021KA1240N+02211MA1999999100621MD1999999+0061REMSYN076AAXX  14124 82198 32494 60709 10299 20233 30062 40113 84262 333 20221 58006;
0137821980999992008121418004-01717-045400FM-12+004499999V0200701N005112200019N0010001N1+03201+02181100771ADDGF106991041021004501001011MA1999999100261MD1999999-0021REMSYN070AAXX  14184 82198 32494 60710 10320 20218 30026 40077 84201 333 59002;
0168821980999992008121500004-01717-045400FM-12+004499999V0200501N005112200019N0002001N1+02721+02371100931ADDGF103991031001004501061001KA1240M+03381MA1999999100421MD1999999-0011REMSYN088AAXX  15004 82198 32492 30510 10272 20237 30042 40093 83060 333 10338 29071 55085 59001;
0156821980999992008121512004-01717-045400FM-12+004499999V0200501N004610450019N0010001N1+02881+02301101011ADDGF106991041021004501061011KA1240N+02221MA1999999100501MD1999999-0121REMSYN076AAXX  15124 82198 32494 60509 10288 20230 30050 40101 84261 333 20222 59012;
0165821980999992008121518004-01717-045400FM-12+004499999V0200501N004610450019N0010001N1+02981+02251100771ADDAY121061AY221061GF107991041021004501091001MA1999999100261MD1999999+0001MW1041REMSYN076AAXX  15184 82198 31494 70509 10298 20225 30026 40077 70422 84290 333 58000;
0184821980999992008121612004-01717-045400FM-12+004499999V0200501N003110450019N0005001N1+02821+02331100961ADDAY111061AY221061GF106991031021004501041061KA1240N+02221MA1999999100451MD1999999-0051MW1041REMSYN082AAXX  16124 82198 31493 60506 10282 20233 30045 40096 70412 83246 333 20222 59005;
0165821980999992008121618004-01717-045400FM-12+004499999V0200501N005110450019N0005001N1+03141+02271100631ADDAY121061AY221061GF106991031021004501011041MA1999999100121MD1999999-0141MW1041REMSYN076AAXX  16184 82198 31493 60510 10314 20227 30012 40063 70422 83214 333 59014;
0168821980999992008121700004-01717-045400FM-12+004499999V0200501N003112200019N0002001N1+02661+02371100811ADDGF101991011001017501011001KA1240M+03361MA1999999100301MD1999999-0081REMSYN088AAXX  17004 82198 32792 10506 10266 20237 30030 40081 81010 333 10336 29076 55071 59008;
0156821980999992008121712004-01717-045400FM-12+004499999V0200901N003112200019N0010001N1+03021+02361100971ADDGF104991031021004501001011KA1240N+02221MA1999999100461MD1999999+0011REMSYN076AAXX  17124 82198 32494 40906 10302 20236 30046 40097 83201 333 20222 58001;
0165821980999992008121718004-01717-045400FM-12+004499999V0203601N003612200019N0010001N1+03261+02181100651ADDAY121061AY221061GF104991041021004501001001MA1999999100141MD1999999+0021MW1041REMSYN076AAXX  17184 82198 31494 43607 10326 20218 30014 40065 70422 84200 333 58002;
0178821980999992008121800004-01717-045400FM-12+004499999V0200501N002612200019N0002001N1+02671+02311100861ADDGA1001+999999999GF100991001001999999001001KA1240M+03361MA1999999100351MD1999999+0051REMSYN082AAXX  18004 82198 32992 00505 10267 20231 30035 40086 333 10336 29072 55105 58005;
0156821980999992008121812004-01717-045400FM-12+004499999V0200901N004112200019N0010001N1+03001+02391100981ADDGF103991031021004501001001KA1240N+02231MA1999999100471MD1999999+0011REMSYN076AAXX  18124 82198 32494 30908 10300 20239 30047 40098 83200 333 20223 58001;
0165821980999992008121818004-01717-045400FM-12+004499999V0200901N004112200019N0010001N1+03281+02371100621ADDAY111061AY201061GF103991031021004501001001MA1999999100111MD1999999-0031MW1041REMSYN076AAXX  18184 82198 31494 30908 10328 20237 30011 40062 70410 83200 333 59003;
0196821980999992008121900004-01717-045400FM-12+004499999V0200501N003112200019N0002001N1+02711+02371100781ADDAY111061AY201061GF103991031001017501061001KA1240M+03381MA1999999100271MD1999999-0081MW1131REMSYN094AAXX  19004 82198 31792 30506 10271 20237 30027 40078 71310 83060 333 10338 29073 55092 59008;
0184821980999992008121912004-01717-045400FM-12+004499999V0200501N002610450019N0010001N1+03021+02361100821ADDAY101061AY221061GF106991041021004501061001KA1240N+02241MA1999999100311MD1999999-0161MW1041REMSYN082AAXX  19124 82198 31494 60505 10302 20236 30031 40082 70402 84260 333 20224 59016;
0165821980999992008121918004-01717-045400FM-12+004499999V0203601N003612200019N0010001N1+03141+02321100591ADDAY111061AY221061GF104991041021004501001001MA1999999100081MD1999999-0031MW1041REMSYN076AAXX  19184 82198 31494 43607 10314 20232 30008 40059 70412 84200 333 59003;
0196821980999992008122000004-01717-045400FM-12+004499999V0200501N003612200019N0002001N1+02731+02371100771ADDAY111061AY201061GF102991011011004501061001KA1240M+03241MA1999999100261MD1999999-0011MW1131REMSYN094AAXX  20004 82198 31492 20507 10273 20237 30026 40077 71310 81160 333 10324 29074 55070 59001;
0165821980999992008122118004-01717-045400FM-12+004499999V0200501N002112200019N0005001N1+03161+02341100731ADDAY121061AY221061GF105991031021004501001011MA1999999100221MD1999999-0041MW1041REMSYN076AAXX  21184 82198 31493 50504 10316 20234 30022 40073 70422 83201 333 59004;
0196821980999992008122200004-01717-045400FM-12+004499999V0200701N002112200019N0002001N1+02681+02351101071ADDAY111061AY221061GF103991011021004501061001KA1240M+03261MA1999999100561MD1999999+0191MW1131REMSYN094AAXX  22004 82198 31492 30704 10268 20235 30056 40107 71312 81260 333 10326 29076 55077 58019;
0156821980999992008122212004-01717-045400FM-12+004499999V0200501N005110042019N0010001N1+02931+02431101111ADDGF106991061021004501001001KA1240N+02231MA1999999100601MD1999999+0081REMSYN076AAXX  22124 82198 32494 60510 10293 20243 30060 40111 86200 333 20223 58008;
0165821980999992008122218004-01717-045400FM-12+004499999V0200901N006210450019N0010001N1+03021+02041100841ADDAY121061AY221061GF106991031021004501041061MA1999999100331MD1999999+0111MW1041REMSYN076AAXX  22184 82198 31494 60912 10302 20204 30033 40084 70422 83246 333 58011;
0178821980999992008122300004-01717-045400FM-12+004499999V0200701N002112200019N0002001N1+02661+02331101001ADDGA1001+999999999GF100991001001999999001001KA1240M+03351MA1999999100491MD1999999-0071REMSYN082AAXX  23004 82198 32992 00704 10266 20233 30049 40100 333 10335 29074 55091 59007;
0156821980999992008122312004-01717-045400FM-12+004499999V0200901N004110042019N0010001N1+03061+02351101221ADDGF105991051021004501001001KA1240N+02181MA1999999100711MD1999999+0111REMSYN076AAXX  23124 82198 32494 50908 10306 20235 30071 40122 85200 333 20218 58011;
0165821980999992008122318004-01717-045400FM-12+004499999V0200501N005712200019N0010001N1+03101+02201100851ADDAY121061AY221061GF105991041021004501001011MA1999999100341MD1999999+0011MW1041REMSYN076AAXX  23184 82198 31494 50511 10310 20220 30034 40085 70422 84201 333 58001;
0178821980999992008122400004-01717-045400FM-12+004499999V0200501N002112200019N0002001N1+02661+02351101031ADDGA1001+999999999GF100991001001999999001001KA1240M+03371MA1999999100521MD1999999+0031REMSYN082AAXX  24004 82198 32992 00504 10266 20235 30052 40103 333 10337 29073 55112 58003;
0156821980999992008122412004-01717-045400FM-12+004499999V0200701N002110450019N0010001N1+02901+02431101101ADDGF106991031021004501041001KA1240N+02211MA1999999100591MD1999999-0121REMSYN076AAXX  24124 82198 32494 60704 10290 20243 30059 40110 83240 333 20221 59012;
0182821980999992008122418004-01717-045400FM-12+004499999V0200901N004110450019N0010001N1+03221+02141100671ADDAA106002091AY161061AY221061GF105991031021004501041011MA1999999100161MD1999999-0181MW1021REMSYN082AAXX  24184 82198 21494 50908 10322 20214 30016 40067 70262 83241 333 59018 60021;
0178821980999992008122500004-01717-045400FM-12+004499999V0200701N002112200019N0002001N1+02701+02371100811ADDGA1001+999999999GF100991001001999999001001KA1240M+03321MA1999999100301MD1999999-0221REMSYN082AAXX  25004 82198 32992 00704 10270 20237 30030 40081 333 10332 29073 55049 59022;
0173821980999992008122512004-01717-045400FM-12+004499999V0200701N003110450019N0010001N1+02931+02341100961ADDAA124002091GF105991031011004501061001KA1240N+02191MA1999999100451MD1999999-0141REMSYN082AAXX  25124 82198 22494 50706 10293 20234 30045 40096 83160 333 20219 59014 60024;
0137821980999992008122518004-01717-045400FM-12+004499999V0200501N005112200019N0010001N1+03061+02331100591ADDGF104991021021004501061001MA1999999100081MD1999999-0081REMSYN070AAXX  25184 82198 32494 40510 10306 20233 30008 40059 82260 333 59008;
0168821980999992008122600004-01717-045400FM-12+004499999V0200701N003612200019N0010001N1+02721+02411100801ADDGF104991021011004501061001KA1240M+03331MA1999999100291MD1999999-0011REMSYN088AAXX  26004 82198 32494 40707 10272 20241 30029 40080 82160 333 10333 29076 55077 59001;
0184821980999992008122612004-01717-045400FM-12+004499999V0202501N002110042019N0010001N1+02621+02441101051ADDAY121061AY221061GF108991051031004501041999KA1240N+02181MA1999999100541MD1999999+0091MW1041REMSYN082AAXX  26124 82198 31494 82504 10262 20244 30054 40105 70422 8534/ 333 20218 58009;
0201821980999992008122618004-01717-045400FM-12+004499999V0200701N002110450019N0010001N1+02841+02421100731ADDAA106000091AY191061AY251061GF108991031071004501021999MA1999999100221MD1999999+0141MW1021REMSYN082AAXX  26184 82198 21494 80704 10284 20242 30022 40073 70295 8372/ 333 58014 69911;EQDQ01  00002PRCP06
0168821980999992008122700004-01717-045400FM-12+004499999V0200501N001512200019N0010001N1+02621+02411100831ADDGF103991021011004501061001KA1240M+02951MA1999999100321MD1999999+0031REMSYN088AAXX  27004 82198 32494 30503 10262 20241 30032 40083 82160 333 10295 29086 55000 58003;
0192821980999992008122712004-01717-045400FM-12+004499999V0200701N003610450019N0010001N1+02871+02411101051ADDAA124000091GF107991041021004501031001KA1240N+02091MA1999999100541MD1999999+0001REMSYN082AAXX  27124 82198 22494 70707 10287 20241 30054 40105 84230 333 20209 58000 69914;EQDQ01  00002PRCP24
0165821980999992008122718004-01717-045400FM-12+004499999V0200501N005712200019N0010001N1+03131+02331100701ADDAY121061AY221061GF104991041021004501001001MA1999999100191MD1999999-0031MW1041REMSYN076AAXX  27184 82198 31494 40511 10313 20233 30019 40070 70422 84200 333 59003;
0168821980999992008122800004-01717-045400FM-12+004499999V0200501N002610450019N0010001N1+02701+02391100851ADDGF105991031011004501031001KA1240M+03281MA1999999100341MD1999999+0021REMSYN088AAXX  28004 82198 32494 50505 10270 20239 30034 40085 83130 333 10328 29076 55074 58002;
0156821980999992008122812004-01717-045400FM-12+004499999V0200701N002610450019N0010001N1+03011+02421100991ADDGF106991041021004501061001KA1240N+02261MA1999999100481MD1999999-0061REMSYN076AAXX  28124 82198 32494 60705 10301 20242 30048 40099 84260 333 20226 59006;
0165821980999992008122818004-01717-045400FM-12+004499999V0200901N004610042019N0010001N1+03341+02311100641ADDAY121061AY221061GF105991051021004501001001MA1999999100131MD1999999-0061MW1041REMSYN076AAXX  28184 82198 31494 50909 10334 20231 30013 40064 70422 85200 333 59006;
0178821980999992008122900004-01717-045400FM-12+004499999V0200701N003112200019N0002001N1+02741+02431100771ADDGA1001+999999999GF100991001001999999001001KA1240M+03431MA1999999100261MD1999999-0081REMSYN082AAXX  29004 82198 32992 00706 10274 20243 30026 40077 333 10343 29073 55104 59008;
0184821980999992008122912004-01717-045400FM-12+004499999V0200501N002610042019N0010001N1+02991+02551101031ADDAY121061AY211061GF107991051051004501011001KA1240N+02131MA1999999100521MD1999999+0041MW1041REMSYN082AAXX  29124 82198 31494 70505 10299 20255 30052 40103 70421 85510 333 20213 58004;
0165821980999992008122918004-01717-045400FM-12+004499999V0200501N006210450019N0010001N1+03121+02431100671ADDAY121061AY221061GF105991031021004501061001MA1999999100161MD1999999+0031MW1041REMSYN076AAXX  29184 82198 31494 50512 10312 20243 30016 40067 70422 83260 333 58003;
0168821980999992008123000004-01717-045400FM-12+004499999V0200501N003110450019N0010001N1+02771+02461100951ADDGF106991041051004501041001KA1240M+03391MA1999999100441MD1999999+0181REMSYN088AAXX  30004 82198 32494 60506 10277 20246 30044 40095 84540 333 10339 29078 55062 58018;
0184821980999992008123012004-01717-045400FM-12+004499999V0200701N004110450019N0010001N1+03011+02341101011ADDAY111061AY221061GF106991041021004501061011KA1240N+02311MA1999999100501MD1999999-0021MW1041REMSYN082AAXX  30124 82198 31494 60708 10301 20234 30050 40101 70412 84261 333 20231 59002;
0165821980999992008123018004-01717-045400FM-12+004499999V0200701N004610450019N0005001N1+03051+02171100781ADDAY121061AY221061GF107991041051004501061001MA1999999100271MD1999999+0111MW1041REMSYN076AAXX  30184 82198 31493 70709 10305 20217 30027 40078 70422 84560 333 58011;
0184821980999992008123112004-01717-045400FM-12+004499999V0200901N004610450019N0005001N1+02871+02251101041ADDAY111061AY221061GF106991031021004501061001KA1240N+02251MA1999999100531MD1999999+0031MW1041REMSYN082AAXX  31124 82198 31493 60909 10287 20225 30053 40104 70412 83260 333 20225 58003;
0165821980999992008123118004-01717-045400FM-12+004499999V0200701N004610450019N0005001N1+03171+02241100851ADDAY121061AY221061GF108991041051004501011001MA1999999100341MD1999999+0071MW1041REMSYN076AAXX  31184 82198 31493 80709 10317 20224 30034 40085 70422 84510 333 58007;
