0213823920999992008010100004-03700-040350FM-12+008399999V0200501N005712200019N0040001N1+02521+02231100821ADDAA106001091AY161061AY261061GF102991021001004501031001KA1240M+03601MA1999999099801MD1999999-0131MW1021REMSYN100AAXX  01004 82392 21496 20511 10252 20223 39980 40082 70266 82030 333 10360 29066 55064 59013 60011;
0201823920999992008010112004-03700-040350FM-12+008399999V0200501N002112200019N0500001N1+02881+02251101071ADDAA124002091AY161061AY261061GF104991041041004501001001KA1240N+02321MA1999999100051MD1999999+0041MW1021REMSYN088AAXX  01124 82392 21499 40504 10288 20225 30005 40107 70266 84400 333 20232 58004 60024;
0137823920999992008010118004-03700-040350FM-12+008399999V0203601N004110042019N0500001N1+03321+02071100721ADDGF105991051021004501001001MA1999999099701MD1999999+0101REMSYN070AAXX  01184 82392 32499 53608 10332 20207 39970 40072 85200 333 58010;
0178823920999992008010200004-03700-040350FM-12+008399999V0200501N003612200019N0040001N1+02601+02231101041ADDGA1001+999999999GF100991001001999999001001KA1240M+03501MA1999999100021MD1999999+0221REMSYN082AAXX  02004 82392 32996 00507 10260 20223 30002 40104 333 10350 29069 55073 58022;
0156823920999992008010212004-03700-040350FM-12+008399999V0200501N001012200019N0500001N1+02741+02101101171ADDGF104991031021004501001011KA1240N+02281MA1999999100151MD1999999+0101REMSYN076AAXX  02124 82392 32499 40502 10274 20210 30015 40117 83201 333 20228 58010;
0137823920999992008010218004-03700-040350FM-12+008399999V0203601N002112200019N0500001N1+03461+01981100691ADDGF104991041021004501001001MA1999999099681MD1999999-0021REMSYN070AAXX  02184 82392 32499 43604 10346 20198 39968 40069 84200 333 59002;
0223823920999992008010300004-03700-040350FM-12+008399999V0200501N003112200019N0040001N1+02621+02251101111ADDAA106002091AY161061AY221061GA1001+999999999GF100991001001999999001001KA1240M+03561MA1999999100091MD1999999+0071MW1021REMSYN094AAXX  03004 82392 21996 00506 10262 20225 30009 40111 70262 333 10356 29068 55068 58007 60021;
0173823920999992008010312004-03700-040350FM-12+008399999V0203201N000510450019N0500001N1+02711+02281101241ADDAA124002091GF107991041061004501031011KA1240N+02261MA1999999100221MD1999999+0071REMSYN082AAXX  03124 82392 22499 73201 10271 20228 30022 40124 84631 333 20226 58007 60024;
0182823920999992008010318004-03700-040350FM-12+008399999V0200501N000510042019N0500001N1+03261+01951100841ADDAA106001091AY161061AY261061GF107991051061004501031011MA1999999099821MD1999999+0141MW1021REMSYN082AAXX  03184 82392 21499 70501 10326 20195 39982 40084 70266 85631 333 58014 60011;
0168823920999992008010400004-03700-040350FM-12+008399999V0203601N001010450019N0040001N1+02701+02331101201ADDGF107991041061004501011001KA1240M+03361MA1999999100181MD1999999+0091REMSYN088AAXX  04004 82392 32496 73602 10270 20233 30018 40120 84610 333 10336 29071 55023 58009;
0182823920999992008010418004-03700-040350FM-12+008399999V0203601N001510450019N0500001N1+02891+02221100991ADDAA106002091AY161061AY261061GF106991031061004501011011MA1999999099971MD1999999+0151MW1021REMSYN082AAXX  04184 82392 21499 63603 10289 20222 39997 40099 70266 83611 333 58015 60021;
0223823920999992008010500004-03700-040350FM-12+008399999V0200501N001012200019N0040001N1+02501+02471101251ADDAA106008991AY161061AY261061GA1001+999999999GF100991001001999999001001KA1240M+02981MA1999999100231MD1999999+0051MW1021REMSYN094AAXX  05004 82392 21996 00502 10250 20247 30023 40125 70266 333 10298 29085 55016 58005 60091;
0173823920999992008010512004-03700-040350FM-12+008399999V0200901N001512200019N0500001N1+02761+02161101301ADDAA124010991GF104991021021004501031001KA1240N+02301MA1999999100281MD1999999-0071REMSYN082AAXX  05124 82392 22499 40903 10276 20216 30028 40130 82230 333 20230 59007 60114;
0137823920999992008010518004-03700-040350FM-12+008399999V0200901N001012200019N0500001N1+03501+01681100841ADDGF103991031011004501001001MA1999999099831MD1999999-0141REMSYN070AAXX  05184 82392 32499 30902 10350 20168 39983 40084 83100 333 59014;
0178823920999992008010600004-03700-040350FM-12+008399999V0200501N003112200019N0040001N1+02681+01841101101ADDGA1001+999999999GF100991001001999999001001KA1240M+03561MA1999999100081MD1999999-0151REMSYN082AAXX  06004 82392 32996 00506 10268 20184 30008 40110 333 10356 29056 55108 59015;
0156823920999992008010612004-03700-040350FM-12+008399999V0201401N001010042019N0500001N1+02761+02091101271ADDGF106991061021004501001001KA1240N+02081MA1999999100251MD1999999-0031REMSYN076AAXX  06124 82392 32499 61402 10276 20209 30025 40127 86200 333 20208 59003;
0178823920999992008010700004-03700-040350FM-12+008399999V0203601N001512200019N0040001N1+02671+02061101061ADDGA1001+999999999GF100991001001999999001001KA1240M+03541MA1999999100041MD1999999-0041REMSYN082AAXX  07004 82392 32996 03603 10267 20206 30004 40106 333 10354 29060 55097 59004;
0182823920999992008010718004-03700-040350FM-12+008399999V0201801N001010450019N0500001N1+02521+02491100971ADDAA106002091AY161061AY221061GF108991031061004501021999MA1999999099941MD1999999+0181MW1211REMSYN082AAXX  07184 82392 21499 81802 10252 20249 39994 40097 72162 8362/ 333 58018 60021;
0213823920999992008010800004-03700-040350FM-12+008399999V0200501N000510450019N0040001N1+02441+02271101021ADDAA106002091AY161061AY261061GF108991041041004501021999KA1240M+03331MA1999999100001MD1999999-0041MW1021REMSYN100AAXX  08004 82392 21496 80501 10244 20227 30000 40102 70266 8442/ 333 10333 29087 55041 59004 60021;
0173823920999992008010812004-03700-040350FM-12+008399999V0200901N000510450019N0500001N1+02701+02221101061ADDAA124004191GF105991031021004501031001KA1240N+02401MA1999999100041MD1999999-0101REMSYN082AAXX  08124 82392 22499 50901 10270 20222 30004 40106 83230 333 20240 59010 60044;
0178823920999992008010900004-03700-040350FM-12+008399999V0203601N001012200019N0040001N1+02641+02181100821ADDGA1001+999999999GF100991001001999999001001KA1240M+03461MA1999999099501MD1999999-0201REMSYN082AAXX  09004 82392 32996 03602 10264 20218 39950 40082 333 10346 29068 55061 59020;
0137823920999992008010918004-03700-040350FM-12+008399999V0200501N002112200019N0500001N1+03641+01651100401ADDGF103991031021004501001001MA1999999099401MD1999999-0131REMSYN070AAXX  09184 82392 32499 30504 10364 20165 39940 40040 83200 333 59013;
0156823920999992008011012004-03700-040350FM-12+008399999V0200901N000510450019N0500001N1+02791+01951100981ADDGF106991041041004501031001KA1240N+02071MA1999999099961MD1999999+0081REMSYN076AAXX  10124 82392 32499 60901 10279 20195 39996 40098 84430 333 20207 58008;
0137823920999992008011018004-03700-040350FM-12+008399999V0200501N000512200019N0500001N1+03501+01681100451ADDGF104991041021004501001001MA1999999099451MD1999999+0051REMSYN070AAXX  10184 82392 32499 40501 10350 20168 39945 40045 84200 333 58005;
0178823920999992008011100004-03700-040350FM-12+008399999V0200501N004612200019N0040001N1+02621+02411100861ADDGA1001+999999999GF100991001001999999001001KA1240M+03661MA1999999099841MD1999999+0151REMSYN082AAXX  11004 82392 32996 00509 10262 20241 39984 40086 333 10366 29068 55092 58015;
0156823920999992008011112004-03700-040350FM-12+008399999V0201801N000510450019N0500001N1+02721+02241101041ADDGF107991041011004501031001KA1240N+02201MA1999999100721MD1999999+0061REMSYN076AAXX  11124 82392 32499 71801 10272 20224 30072 40104 84130 333 20220 58006;
0156823920999992008011118004-03700-040350FM-12+008399999V0203601N002110042019N0500001N1+03331+01981100621ADDGF106991051061004501031001MA1999999099612MD1999999+0161REMSYN070AAXX  11184 82392 32499 63604 10333 20198 39961 40062 85630 333 58016;EQDQ01+099613APOSP 
0168823920999992008011200004-03700-040350FM-12+008399999V0200501N003612200019N0040001N1+02681+02311100971ADDGF103991031021004501001001KA1240M+03561MA1999999099951MD1999999+0111REMSYN088AAXX  12004 82392 32496 30507 10268 20231 39995 40097 83200 333 10356 29070 55074 58011;
0137823920999992008011218004-03700-040350FM-12+008399999V0203201N000510450019N0500001N1+03391+01961100631ADDGF105991041041004501011001MA1999999099631MD1999999+0021REMSYN070AAXX  12184 82392 32499 53201 10339 20196 39963 40063 84410 333 58002;
0178823920999992008011300004-03700-040350FM-12+008399999V0203601N001512200019N0040001N1+02681+02221100891ADDGA1001+999999999GF100991001001999999001001KA1240M+03541MA1999999099871MD1999999-0081REMSYN082AAXX  13004 82392 32996 03603 10268 20222 39987 40089 333 10354 29066 55062 59008;
0201823920999992008011312004-03700-040350FM-12+008399999V0200501N000510450019N0500001N1+02741+02141100971ADDAA124001091AY121061AY221061GF106991041041004501031001KA1240N+02501MA1999999099951MD1999999+0091MW1611REMSYN088AAXX  13124 82392 21499 60501 10274 20214 39995 40097 76122 84430 333 20250 58009 60014;
0182823920999992008011318004-03700-040350FM-12+008399999V0203601N003110450019N0500001N1+02641+02501100641ADDAA106009991AY161061AY221061GF106991031051004501031001MA1999999099631MD1999999+0001MW1021REMSYN082AAXX  13184 82392 21499 63606 10264 20250 39963 40064 70262 83530 333 58000 60101;
0192823920999992008011412004-03700-040350FM-12+008399999V0200501N002119999999N0500001N1+02661+02291100971ADDAA124009991GF108991999051004501001001KA1240N+02381MA1999999099951MD1999999+0001REMSYN082AAXX  14124 82392 22499 80504 10266 20229 39995 40097 84500 333 20238 58000 60104;EQDQ01+000042SCOTLC
0156823920999992008011418004-03700-040350FM-12+008399999V0203601N004119999999N0500001N1+03001+02291100611ADDGF107991999021004501001001MA1999999099601MD1999999-0031REMSYN070AAXX  14184 82392 32499 73608 10300 20229 39960 40061 84200 333 59003;EQDQ01+000042SCOTLC
0168823920999992008011500004-03700-040350FM-12+008399999V0203601N001010450019N0040001N1+02561+02211100891ADDGF108991041041004501011999KA1240M+03331MA1999999099871MD1999999+0011REMSYN088AAXX  15004 82392 32496 83602 10256 20221 39987 40089 8441/ 333 10333 29077 55048 58001;
0201823920999992008011512004-03700-040350FM-12+008399999V0209999C000010450019N0200001N1+02501+02471100931ADDAA124004191AY121061AY221061GF108991041061004501021999KA1240N+02401MA1999999099901MD1999999-0051MW1611REMSYN088AAXX  15124 82392 21498 80000 10250 20247 39990 40093 76122 8462/ 333 20240 59005 60044;
0173823920999992008011612004-03700-040350FM-12+008399999V0201801N000510450019N0040001N1+02561+02291100931ADDAA124003091GF106991031041004501031001KA1240N+02121MA1999999099901MD1999999+0001REMSYN082AAXX  16124 82392 22496 61801 10256 20229 39990 40093 83430 333 20212 58000 60034;
0137823920999992008011618004-03700-040350FM-12+008399999V0203601N003110450019N0500001N1+02961+02051100581ADDGF106991031021004501061011MA1999999099571MD1999999-0061REMSYN070AAXX  16184 82392 32499 63606 10296 20205 39957 40058 83261 333 59006;
0213823920999992008011700004-03700-040350FM-12+008399999V0200501N000519999999N0040001N1+02291+02251100971ADDAA106003091AY161061AY261061GF105991051001004501031001KA1240M+03401MA1999999099941MD1999999+0081MW1021REMSYN100AAXX  17004 82392 21496 50501 10229 20225 39994 40097 70266 85030 333 10340 29084 55044 58008 60031;
0173823920999992008011712004-03700-040350FM-12+008399999V0201801N000510450019N0500001N1+02441+02321101051ADDAA124003091GF106991041041004501011001KA1240N+02271MA1999999100021MD1999999+0121REMSYN082AAXX  17124 82392 22499 61801 10244 20232 30002 40105 84410 333 20227 58012 60034;
0137823920999992008011718004-03700-040350FM-12+008399999V0203601N001010042019N0010001N1+02661+02351100761ADDGF108991061061004501011999MA1999999099731MD1999999+0161REMSYN070AAXX  17184 82392 32494 83602 10266 20235 39973 40076 8661/ 333 58016;
0187823920999992008011800004-03700-040350FM-12+008399999V0203601N001510042019N0040001N1+02461+02431100991ADDGF108991999041004501001001KA1240M+03201MA1999999099971MD1999999+0031REMSYN088AAXX  18004 82392 32496 83603 10246 20243 39997 40099 87400 333 10320 29089 55045 58003;EQDQ01+000072SCOTLC
0156823920999992008011812004-03700-040350FM-12+008399999V0203601N001010042019N0500001N1+02641+02371101181ADDGF108991061071004501011999KA1240N+02331MA1999999100161MD1999999+0141REMSYN076AAXX  18124 82392 32499 83602 10264 20237 30016 40118 8671/ 333 20233 58014;
0137823920999992008011818004-03700-040350FM-12+008399999V0203601N002110450019N0500001N1+03011+02341100781ADDGF106991041061004501031001MA1999999099761MD1999999+0031REMSYN070AAXX  18184 82392 32499 63604 10301 20234 39976 40078 84630 333 58003;
0168823920999992008011900004-03700-040350FM-12+008399999V0200501N001012200019N0040001N1+02601+02421101031ADDGF102991021001004501031001KA1240M+03201MA1999999100011MD1999999+0041REMSYN088AAXX  19004 82392 32496 20502 10260 20242 30001 40103 82030 333 10320 29083 55026 58004;
0156823920999992008011912004-03700-040350FM-12+008399999V0200501N001010450019N0500001N1+02641+02371101131ADDGF107991031071004501011001KA1240N+02321MA1999999100111MD1999999-0051REMSYN076AAXX  19124 82392 32499 70502 10264 20237 30011 40113 83710 333 20232 59005;
0156823920999992008012012004-03700-040350FM-12+008399999V0201401N004110042019N0500001N1+02711+02321101131ADDGF107991061061004501031001KA1240N+02391MA1999999100111MD1999999+0001REMSYN076AAXX  20124 82392 32499 71408 10271 20232 30011 40113 86630 333 20239 58000;
0137823920999992008012018004-03700-040350FM-12+008399999V0203601N001010450019N0500001N1+02771+02361100801ADDGF107991041061004501011001MA1999999099781MD1999999+0051REMSYN070AAXX  20184 82392 32499 73602 10277 20236 39978 40080 84610 333 58005;
0181823920999992008012100004-03700-040350FM-12+008399999V0200501N000519999999N0040001N1+02571+02331101031ADDGF107991999021004501001001KA1240M+02811MA1999999100011MD1999999-0061REMSYN082AAXX  21004 82392 32496 70501 10257 20233 30001 40103 83200 333 10281 55005 59006;EQDQ01+000032SCOTLC
0156823920999992008012112004-03700-040350FM-12+008399999V0200501N003110450019N0500001N1+02701+02281101161ADDGF107991031051004501011001KA1240N+02381MA1999999100141MD1999999+0031REMSYN076AAXX  21124 82392 32499 70506 10270 20228 30014 40116 83510 333 20238 58003;
0137823920999992008012118004-03700-040350FM-12+008399999V0200501N001010450019N0500001N1+02641+02271100861ADDGF108991041031004501011999MA1999999099841MD1999999+0061REMSYN070AAXX  21184 82392 32499 80502 10264 20227 39984 40086 8431/ 333 58006;
0213823920999992008012200004-03700-040350FM-12+008399999V0202701N000510450019N0040001N1+02211+02171101111ADDAA106018091AY191061AY291061GF108991021061004501021999KA1240M+03131MA1999999100081MD1999999+0071MW1021REMSYN100AAXX  22004 82392 21496 82701 10221 20217 30008 40111 70299 8262/ 333 10313 29088 55019 58007 60181;
0173823920999992008012212004-03700-040350FM-12+008399999V0209999C000010450019N0500001N1+02521+02451101171ADDAA124018091GF108991031061004501011001KA1240N+02201MA1999999100141MD1999999+0001REMSYN082AAXX  22124 82392 22499 80000 10252 20245 30014 40117 83610 333 20220 58000 60184;
0182823920999992008012218004-03700-040350FM-12+008399999V0201401N000510042019N0200001N1+02141+02071100951ADDAA106025991AY101061AY221061GF108991061061004501999999MA1999999099911MD1999999+0071MW1031REMSYN082AAXX  22184 82392 21498 81401 10214 20207 39991 40095 70302 866// 333 58007 60261;
0196823920999992008012300004-03700-040350FM-12+008399999V0209999C000010042019N0040001N1+02261+02211101001ADDAY191061AY291061GF108991061031004501999999KA1240M+03041MA1999999099971MD1999999-0111MW1021REMSYN094AAXX  23004 82392 31496 80000 10226 20221 39997 40100 70299 863// 333 10304 29097 55029 59011;
0213823920999992008012400004-03700-040350FM-12+008399999V0200901N000510450019N0040001N1+02411+02351101061ADDAA106004191AY161061AY261061GF107991031061004501031001KA1240M+03091MA1999999100031MD1999999+0061MW1021REMSYN100AAXX  24004 82392 21496 70901 10241 20235 30003 40106 70266 83630 333 10309 29088 55042 58006 60041;
0173823920999992008012412004-03700-040350FM-12+008399999V0203601N000510042019N0500001N1+02671+02431101051ADDAA124005191GF107991051061004501031001KA1240N+02271MA1999999100021MD1999999+0001REMSYN082AAXX  24124 82392 22499 73601 10267 20243 30002 40105 85630 333 20227 58000 60054;
0173823920999992008012512004-03700-040350FM-12+008399999V0200501N001010450019N0500001N1+02741+02361100981ADDAA124007191GF106991031021004501031001KA1240N+02371MA1999999099961MD1999999-0061REMSYN082AAXX  25124 82392 22499 60502 10274 20236 39996 40098 83230 333 20237 59006 60074;
0137823920999992008012518004-03700-040350FM-12+008399999V0209999C000010450019N0500001N1+03291+02021100751ADDGF105991021021004501031001MA1999999099741MD1999999+0011REMSYN070AAXX  25184 82392 32499 50000 10329 20202 39974 40075 82230 333 58001;
0156823920999992008012612004-03700-040350FM-12+008399999V0200501N000510450019N0500001N1+02791+02341101031ADDGF105991041021004501031001KA1240N+02351MA1999999100011MD1999999+0051REMSYN076AAXX  26124 82392 32499 50501 10279 20234 30001 40103 84230 333 20235 58005;
0137823920999992008012618004-03700-040350FM-12+008399999V0203601N000510450019N0500001N1+03261+02271100611ADDGF105991031021004501011001MA1999999099601MD1999999-0141REMSYN070AAXX  26184 82392 32499 53601 10326 20227 39960 40061 83210 333 59014;
0168823920999992008012700004-03700-040350FM-12+008399999V0203601N001510450019N0040001N1+02681+02351100961ADDGF107991031021004501011001KA1240M+03401MA1999999099941MD1999999+0061REMSYN088AAXX  27004 82392 32496 73603 10268 20235 39994 40096 83210 333 10340 29074 55097 58006;
0156823920999992008012712004-03700-040350FM-12+008399999V0209999C000010450019N0500001N1+02681+02351101081ADDGF106991031021004501031001KA1240N+02381MA1999999100061MD1999999+0051REMSYN076AAXX  27124 82392 32499 60500 10268 20235 30006 40108 83230 333 20238 58005;
0201823920999992008012718004-03700-040350FM-12+008399999V0209999C000010450019N0500001N1+03061+02281100681ADDAA106000091AY151061AY221061GF106991031021004501041001MA1999999099611MD1999999+0011MW1021REMSYN082AAXX  27184 82392 21499 63600 10306 20228 39961 40068 70252 83240 333 58001 69921;EQDQ01  00002PRCP06
0168823920999992008012800004-03700-040350FM-12+008399999V0200501N004112200019N0040001N1+02661+02391101001ADDGF103991031021004501001001KA1240M+03301MA1999999099981MD1999999+0041REMSYN088AAXX  28004 82392 32496 30508 10266 20239 39998 40100 83200 333 10330 29079 55069 58004;
0213823920999992008012900004-03700-040350FM-12+008399999V0200501N001510450019N0040001N1+02531+02401100751ADDAA106002091AY161061AY261061GF105991031021004501011001KA1240M+03331MA1999999099761MD1999999-0251MW1021REMSYN100AAXX  29004 82392 21496 50503 10253 20240 39976 40075 70266 83210 333 10333 29081 55053 59025 60021;
0173823920999992008012912004-03700-040350FM-12+008399999V0201801N000510450019N0500001N1+02741+02341100981ADDAA124002091GF105991031021004501031001KA1240N+02321MA1999999099961MD1999999-0081REMSYN082AAXX  29124 82392 22499 51801 10274 20234 39996 40098 83230 333 20232 59008 60024;
0178823920999992008013000004-03700-040350FM-12+008399999V0200501N000512200019N0040001N1+02541+02381100691ADDGA1001+999999999GF100991001001999999001001KA1240M+03231MA1999999099671MD1999999-0061REMSYN082AAXX  30004 82392 32996 00501 10254 20238 39967 40069 333 10323 29084 55075 59006;
0173823920999992008013012004-03700-040350FM-12+008399999V0202301N000510450019N0500001N1+02781+02401100831ADDAA124001091GF106991031041004501031001KA1240N+02461MA1999999099811MD1999999-0151REMSYN082AAXX  30124 82392 22499 62301 10278 20240 39981 40083 83430 333 20246 59015 60014;
0137823920999992008013018004-03700-040350FM-12+008399999V0203601N001010450019N0500001N1+03261+02381100321ADDGF105991031021004501031001MA1999999099311MD1999999-0241REMSYN070AAXX  30184 82392 32499 53602 10326 20238 39931 40032 83230 333 59024;
0213823920999992008013100004-03700-040350FM-12+008399999V0203601N001010450019N0040001N1+02661+02371100711ADDAA106009991AY161061AY261061GF108991031061004501061999KA1240M+03321MA1999999099691MD1999999+0021MW1021REMSYN100AAXX  31004 82392 21496 83602 10266 20237 39969 40071 70266 8366/ 333 10332 29077 55075 58002 60101;
0201823920999992008013112004-03700-040350FM-12+008399999V0201801N000510450019N0500001N1+02671+02411100741ADDAA124017091AY161061AY261061GF106991031041004501011011KA1240N+02261MA1999999099721MD1999999-0091MW1021REMSYN088AAXX  31124 82392 21499 61801 10267 20241 39972 40074 70266 83411 333 20226 59009 60174;
0182823920999992008013118004-03700-040350FM-12+008399999V0203601N001510075019N0500001N1+02611+02461100461ADDAA106002091AY151061AY251061GF108991051061008001021999MA1999999099441MD1999999+0131MW1291REMSYN082AAXX  31184 82392 21599 83603 10261 20246 39944 40046 72955 8562/ 333 58013 60021;
0213823920999992008020100004-03700-040350FM-12+008399999V0209999C000010450019N0040001N1+02401+02311100801ADDAA106007191AY161061AY261061GF106991041071004501031001KA1240M+03061MA1999999099771MD1999999+0081MW1021REMSYN100AAXX  01004 82392 21496 60000 10240 20231 39977 40080 70266 84730 333 10306 29092 55040 58008 60071;
0201823920999992008020112004-03700-040350FM-12+008399999V0202301N001010450019N0200001N1+02401+02351100981ADDAA124008991AY161061AY261061GF108991041071004501021999KA1240N+02291MA1999999099951MD1999999+0231MW1201REMSYN088AAXX  01124 82392 21498 82302 10240 20235 39995 40098 72066 8472/ 333 20229 58023 60094;
0182823920999992008020118004-03700-040350FM-12+008399999V0201801N000510042019N0100001N1+02211+02101100841ADDAA106008991AY101061AY221061GF108991051071004501021999MA1999999099811MD1999999+0371MW1611REMSYN082AAXX  01184 82392 21497 81801 10221 20210 39981 40084 76102 8572/ 333 58037 60091;
0168823920999992008020200004-03700-040350FM-12+008399999V0200501N000510450019N0040001N1+02361+02331100931ADDGF106991031041004501041001KA1240M+02841MA1999999099901MD1999999+0131REMSYN088AAXX  02004 82392 32496 60501 10236 20233 39990 40093 83440 333 10284 29096 55004 58013;
0173823920999992008020212004-03700-040350FM-12+008399999V0200901N002112200019N0500001N1+02461+02411101131ADDAA124008991GF104991041021004501001001KA1240N+02101MA1999999100101MD1999999+0051REMSYN082AAXX  02124 82392 22499 40904 10246 20241 30010 40113 84200 333 20210 58005 60094;
0156823920999992008020218004-03700-040350FM-12+008399999V0203601N000512200019N0500001N1+03261+01951100801ADDGF104991999021004501001001MA1999999099711MD1999999-0021REMSYN070AAXX  02184 82392 32499 43601 10326 20195 39971 40080 83200 333 59002;EQDQ01+000032SCOTLC
0178823920999992008020300004-03700-040350FM-12+008399999V0200501N001012200019N0040001N1+02621+02441101051ADDGA1001+999999999GF100991001001999999001001KA1240M+03361MA1999999100021MD1999999+0121REMSYN082AAXX  03004 82392 32996 00502 10262 20244 30002 40105 333 10336 29081 55096 58012;
0137823920999992008020318004-03700-040350FM-12+008399999V0202301N000511050019N0500001N1+03211+02261100871ADDGF105991021041004501011011MA1999999099851MD1999999+0061REMSYN070AAXX  03184 82392 32499 52301 10321 20226 39985 40087 82411 333 58006;
0223823920999992008020400004-03700-040350FM-12+008399999V0200501N001012200019N0040001N1+02441+02271101111ADDAA106026991AY191061AY291061GA1001+999999999GF100991001001999999001001KA1240M+03261MA1999999100091MD1999999+0071MW1021REMSYN094AAXX  04004 82392 21996 00502 10244 20227 30009 40111 70299 333 10326 29080 55087 58007 60271;
0173823920999992008020412004-03700-040350FM-12+008399999V0201801N002112200019N0500001N1+02681+02311101121ADDAA124027991GF104991041021004501001001KA1240N+02301MA1999999100101MD1999999-0211REMSYN082AAXX  04124 82392 22499 41804 10268 20231 30010 40112 84200 333 20230 59021 60284;
0137823920999992008020418004-03700-040350FM-12+008399999V0200901N002112200019N0500001N1+03261+02051100771ADDGF103991031021004501001001MA1999999099751MD1999999-0101REMSYN070AAXX  04184 82392 32499 30904 10326 20205 39975 40077 83200 333 59010;
0178823920999992008020500004-03700-040350FM-12+008399999V0203601N001012200019N0040001N1+02611+02211101071ADDGA1001+999999999GF100991001001999999001001KA1240M+03301MA1999999100051MD1999999-0041REMSYN082AAXX  05004 82392 32996 03602 10261 20221 30005 40107 333 10330 29071 55109 59004;
0156823920999992008020512004-03700-040350FM-12+008399999V0200901N003112200019N0500001N1+02841+02311101251ADDGF104991041021004501001001KA1240N+02221MA1999999100231MD1999999+0131REMSYN076AAXX  05124 82392 32499 40906 10284 20231 30023 40125 84200 333 20222 58013;
0137823920999992008020518004-03700-040350FM-12+008399999V0209999C000012200019N0500001N1+03261+02021100891ADDGF104991041021004501001001MA1999999099871MD1999999+0121REMSYN070AAXX  05184 82392 32499 40000 10326 20202 39987 40089 84200 333 58012;
0178823920999992008020600004-03700-040350FM-12+008399999V0200501N004612200019N0040001N1+02601+02391101121ADDGA1001+999999999GF100991001001999999001001KA1240M+03321MA1999999100101MD1999999+0051REMSYN082AAXX  06004 82392 32996 00509 10260 20239 30010 40112 333 10332 29074 55102 58005;
0156823920999992008020612004-03700-040350FM-12+008399999V0202301N000512200019N0500001N1+02741+02261101271ADDGF104991041021004501001001KA1240N+02211MA1999999100251MD1999999+0021REMSYN076AAXX  06124 82392 32499 42301 10274 20226 30025 40127 84200 333 20221 58002;
0137823920999992008020618004-03700-040350FM-12+008399999V0200901N000510042019N0500001N1+03301+01981100941ADDGF105991051021004501001001MA1999999099921MD1999999+0051REMSYN070AAXX  06184 82392 32499 50901 10330 20198 39992 40094 85200 333 58005;
0168823920999992008020700004-03700-040350FM-12+008399999V0200501N000512200019N0040001N1+02611+02161101191ADDGF101991011011004501001001KA1240M+03401MA1999999100171MD1999999+0071REMSYN088AAXX  07004 82392 32496 10501 10261 20216 30017 40119 81100 333 10340 29068 55101 58007;
0156823920999992008020712004-03700-040350FM-12+008399999V0201401N000510450019N0500001N1+02771+02341101361ADDGF106991041021004501031001KA1240N+02191MA1999999100341MD1999999+0091REMSYN076AAXX  07124 82392 32499 61401 10277 20234 30034 40136 84230 333 20219 58009;
0178823920999992008020800004-03700-040350FM-12+008399999V0200501N004612200019N0040001N1+02601+02161101181ADDGA1001+999999999GF100991001001999999001001KA1240M+03401MA1999999100161MD1999999-0011REMSYN082AAXX  08004 82392 32996 00509 10260 20216 30016 40118 333 10340 29068 55086 59001;
0156823920999992008020812004-03700-040350FM-12+008399999V0200901N001010450019N0500001N1+02741+02261101321ADDGF105991031041004501031001KA1240N+02291MA1999999100301MD1999999-0041REMSYN076AAXX  08124 82392 32499 50902 10274 20226 30030 40132 83430 333 20229 59004;
0223823920999992008020900004-03700-040350FM-12+008399999V0200501N002112200019N0040001N1+02661+02221101031ADDAA106000591AY151061AY221061GA1001+999999999GF100991001001999999001001KA1240M+03441MA1999999100011MD1999999-0151MW1021REMSYN094AAXX  09004 82392 21996 00504 10266 20222 30001 40103 70252 333 10344 29068 55094 59015 69961;
0173823920999992008020912004-03700-040350FM-12+008399999V0200901N000510450019N0500001N1+02761+02341101121ADDAA124000591GF106991041061004501031001KA1240N+02291MA1999999100101MD1999999-0201REMSYN082AAXX  09124 82392 22499 60901 10276 20234 30010 40112 84630 333 20229 59020 69964;
0137823920999992008020918004-03700-040350FM-12+008399999V0203601N000510450019N0500001N1+03331+02091100671ADDGF106991041061004501031001MA1999999099661MD1999999-0171REMSYN070AAXX  09184 82392 32499 63601 10333 20209 39966 40067 84630 333 59017;
0173823920999992008021012004-03700-040350FM-12+008399999V0200901N000512200019N0500001N1+02781+02361101071ADDAA124002091GF104991041021004501001001KA1240N+02231MA1999999100051MD1999999-0051REMSYN082AAXX  10124 82392 22499 40901 10278 20236 30005 40107 84200 333 20223 59005 60024;
0137823920999992008021018004-03700-040350FM-12+008399999V0203601N005110042019N0500001N1+02881+02301100771ADDGF107991051021004501031001MA1999999099751MD1999999+0091REMSYN070AAXX  10184 82392 32499 73610 10288 20230 39975 40077 85230 333 58009;
0178823920999992008021100004-03700-040350FM-12+008399999V0200501N002112200019N0040001N1+02621+02251100981ADDGA1001+999999999GF100991001001999999001001KA1240M+03421MA1999999099961MD1999999+0011REMSYN082AAXX  11004 82392 32996 00504 10262 20225 39996 40098 333 10342 29077 55090 58001;
0156823920999992008021112004-03700-040350FM-12+008399999V0200501N000512200019N0500001N1+02701+02221101101ADDGF104991041021004501001001KA1240N+02311MA1999999100081MD1999999+0031REMSYN076AAXX  11124 82392 32499 40501 10270 20222 30008 40110 84200 333 20231 58003;
0156823920999992008021118004-03700-040350FM-12+008399999V0200501N001019999999N0500001N1+03261+02111100721ADDGF106991999021004501001001MA1999999099701MD1999999-0051REMSYN070AAXX  11184 82392 32499 60502 10326 20211 39970 40072 84200 333 59005;EQDQ01+000042SCOTLC
0168823920999992008021200004-03700-040350FM-12+008399999V0203601N001510450019N0040001N1+02571+02331101011ADDGF108991031021004501021001KA1240M+03361MA1999999099991MD1999999+0031REMSYN088AAXX  12004 82392 32496 83603 10257 20233 39999 40101 83220 333 10336 29075 55068 58003;
0156823920999992008021212004-03700-040350FM-12+008399999V0201801N001010450019N0500001N1+02621+02411101051ADDGF106991031041004501031001KA1240N+02211MA1999999100031MD1999999-0051REMSYN076AAXX  12124 82392 32499 61802 10262 20241 30003 40105 83430 333 20221 59005;
0182823920999992008021218004-03700-040350FM-12+008399999V0203601N001510042019N0500001N1+02531+02171100811ADDAA106003091AY161061AY261061GF107991051061004501031001MA1999999099781MD1999999+0081MW1021REMSYN082AAXX  12184 82392 21499 73603 10253 20217 39978 40081 70266 85630 333 58008 60031;
0168823920999992008021300004-03700-040350FM-12+008399999V0203601N001510450019N0040001N1+02561+02351100961ADDGF106991031061004501011001KA1240M+03321MA1999999099941MD1999999-0051REMSYN088AAXX  13004 82392 32496 63603 10256 20235 39994 40096 83610 333 10332 29086 55044 59005;
0173823920999992008021312004-03700-040350FM-12+008399999V0200501N002110450019N0500001N1+02741+02261101001ADDAA124003091GF106991041041004501031001KA1240N+02281MA1999999099981MD1999999-0051REMSYN082AAXX  13124 82392 22499 60504 10274 20226 39998 40100 84430 333 20228 59005 60034;
0137823920999992008021318004-03700-040350FM-12+008399999V0200901N002110450019N0500001N1+03441+01841100621ADDGF106991041021004501031001MA1999999099621MD1999999-0161REMSYN070AAXX  13184 82392 32499 60904 10344 20184 39962 40062 84230 333 59016;
0168823920999992008021400004-03700-040350FM-12+008399999V0203601N001012200019N0040001N1+02661+02111100921ADDGF102991021001008001031001KA1240M+03491MA1999999099901MD1999999-0041REMSYN088AAXX  14004 82392 32596 23602 10266 20211 39990 40092 82030 333 10349 29065 55081 59004;
0156823920999992008021412004-03700-040350FM-12+008399999V0200901N001010042019N0500001N1+02831+02231101071ADDGF106991061041004501001001KA1240N+02171MA1999999100051MD1999999+0071REMSYN076AAXX  14124 82392 32499 60902 10283 20223 30005 40107 86400 333 20217 58007;
0137823920999992008021418004-03700-040350FM-12+008399999V0203601N001010450019N0500001N1+03241+02001100671ADDGF106991041041004501031001MA1999999099651MD1999999+0031REMSYN070AAXX  14184 82392 32499 63602 10324 20200 39965 40067 84430 333 58003;
0213823920999992008021500004-03700-040350FM-12+008399999V0203601N002112200019N0040001N1+02661+02181100931ADDAA106002091AY161061AY221061GF102991021001004501031001KA1240M+03451MA1999999099911MD1999999+0011MW1021REMSYN100AAXX  15004 82392 21496 23604 10266 20218 39991 40093 70262 82030 333 10345 29067 55089 58001 60021;
0182823920999992008021518004-03700-040350FM-12+008399999V0202701N001010042019N0500001N1+02501+02271100741ADDAA106013091AY101061AY221061GF108991061061004501021999MA1999999099711MD1999999+0061MW1211REMSYN082AAXX  15184 82392 21499 82702 10250 20227 39971 40074 72102 8662/ 333 58006 60131;
0201823920999992008021612004-03700-040350FM-12+008399999V0200901N000510450019N0500001N1+02741+02521101011ADDAA124015091AY161061AY261061GF106991031071004501011001KA1240N+02251MA1999999099991MD1999999-0011MW1031REMSYN088AAXX  16124 82392 21499 60901 10274 20252 39999 40101 70366 83710 333 20225 59001 60154;
0182823920999992008021618004-03700-040350FM-12+008399999V0209999C000010450019N0500001N1+02421+02321100661ADDAA106022191AY161061AY261061GF108991041071004501011999MA1999999099641MD1999999-0071MW1021REMSYN082AAXX  16184 82392 21499 80000 10242 20232 39964 40066 70266 8471/ 333 59007 60221;
0213823920999992008021700004-03700-040350FM-12+008399999V0209999C000010450019N0040001N1+02321+02291100951ADDAA106007991AY161061AY261061GF108991031071004501021999KA1240M+03101MA1999999099921MD1999999-0041MW1021REMSYN100AAXX  17004 82392 21496 80000 10232 20229 39992 40095 70266 8372/ 333 10310 29094 55049 59004 60081;
0173823920999992008021712004-03700-040350FM-12+008399999V0201801N000510450019N0500001N1+02621+02411101141ADDAA124030091GF107991041041004501031001KA1240N+02191MA1999999100111MD1999999+0121REMSYN082AAXX  17124 82392 22499 71801 10262 20241 30011 40114 84430 333 20219 58012 60304;
0137823920999992008021718004-03700-040350FM-12+008399999V0200901N001510450019N0500001N1+03261+02051100701ADDGF106991041041004501031001MA1999999099681MD1999999+0041REMSYN070AAXX  17184 82392 32499 60903 10326 20205 39968 40070 84430 333 58004;
0168823920999992008021800004-03700-040350FM-12+008399999V0203601N000510450019N0040001N1+02611+02181101021ADDGF105991021011004501011001KA1240M+03381MA1999999100001MD1999999+0081REMSYN088AAXX  18004 82392 32496 53601 10261 20218 30000 40102 82110 333 10338 29073 55054 58008;
0156823920999992008021812004-03700-040350FM-12+008399999V0200901N001010450019N0500001N1+02801+02201101181ADDGF106991031041004501031001KA1240N+02351MA1999999100161MD1999999+0051REMSYN076AAXX  18124 82392 32499 60902 10280 20220 30016 40118 83430 333 20235 58005;
0137823920999992008021818004-03700-040350FM-12+008399999V0200501N001010450019N0500001N1+03301+02151100791ADDGF106991041021004501031001MA1999999099781MD1999999+0101REMSYN070AAXX  18184 82392 32499 60502 10330 20215 39978 40079 84230 333 58010;
0213823920999992008021900004-03700-040350FM-12+008399999V0203601N000510450019N0040001N1+02611+02141101101ADDAA106001091AY161061AY261061GF108991031051004501011999KA1240M+03431MA1999999100081MD1999999+0081MW1031REMSYN100AAXX  19004 82392 21496 83601 10261 20214 30008 40110 70366 8351/ 333 10343 29068 55081 58008 60011;
0173823920999992008021912004-03700-040350FM-12+008399999V0203201N000510450019N0500001N1+02681+02411101221ADDAA124001091GF107991041051004501031001KA1240N+02201MA1999999100201MD1999999+0041REMSYN082AAXX  19124 82392 22499 73201 10268 20241 30020 40122 84530 333 20220 58004 60014;
0182823920999992008021918004-03700-040350FM-12+008399999V0203201N000510450019N0500001N1+02831+02351100791ADDAA106001091AY161061AY261061GF107991041051004501021001MA1999999099771MD1999999-0011MW1021REMSYN082AAXX  19184 82392 21499 73201 10283 20235 39977 40079 70266 84520 333 59001 60011;
0168823920999992008022000004-03700-040350FM-12+008399999V0203601N000510450019N0040001N1+02531+02331101061ADDGF108991031051004501011999KA1240M+03261MA1999999100041MD1999999-0041REMSYN088AAXX  20004 82392 32496 83601 10253 20233 30004 40106 8351/ 333 10326 29084 55041 59004;
0173823920999992008022012004-03700-040350FM-12+008399999V0200901N000510450019N0500001N1+02681+02411101071ADDAA124001091GF106991031051004501021001KA1240N+02281MA1999999100051MD1999999-0151REMSYN082AAXX  20124 82392 22499 60901 10268 20241 30005 40107 83520 333 20228 59015 60014;
0201823920999992008022018004-03700-040350FM-12+008399999V0202301N001010450019N0500001N1+02701+02371100691ADDAA106000091AY161061AY221061GF107991041041004501031001MA1999999099661MD1999999-0111MW1021REMSYN082AAXX  20184 82392 21499 72302 10270 20237 39966 40069 70262 84430 333 59011 69921;EQDQ01  00002PRCP06
0213823920999992008022100004-03700-040350FM-12+008399999V0209999C000010450019N0040001N1+02491+02361101071ADDAA106007191AY161061AY261061GF107991031041004501011001KA1240M+03221MA1999999100051MD1999999+0011MW1021REMSYN100AAXX  21004 82392 21496 70000 10249 20236 30005 40107 70266 83410 333 10322 29088 55060 58001 60071;
0201823920999992008022212004-03700-040350FM-12+008399999V0200901N000510450019N0500001N1+02521+02491101381ADDAA124017091AY161061AY261061GF107991031061004501011001KA1240N+02381MA1999999100351MD1999999+0201MW1211REMSYN088AAXX  22124 82392 21499 70901 10252 20249 30035 40138 72166 83610 333 20238 58020 60174;
0182823920999992008022218004-03700-040350FM-12+008399999V0200501N000510042019N0200001N1+02571+02441101011ADDAA106000891AY101061AY221061GF108991051051004501021999MA1999999099981MD1999999+0201MW1551REMSYN082AAXX  22184 82392 21498 80501 10257 20244 39998 40101 75502 8552/ 333 58020 69971;
0168823920999992008022300004-03700-040350FM-12+008399999V0209999C000010450019N0040001N1+02441+02391101281ADDGF108991031061004501011999KA1240M+03081MA1999999100251MD1999999+0101REMSYN088AAXX  23004 82392 32496 80000 10244 20239 30025 40128 8361/ 333 10308 29096 55035 58010;
0173823920999992008022312004-03700-040350FM-12+008399999V0200901N000510450019N0500001N1+02711+02391101431ADDAA124000891GF106991041051004501031001KA1240N+02231MA1999999100411MD1999999+0061REMSYN082AAXX  23124 82392 22499 60901 10271 20239 30041 40143 84530 333 20223 58006 69974;
0137823920999992008022318004-03700-040350FM-12+008399999V0203201N000512200019N0500001N1+03291+02121100931ADDGF103991031021004501001001MA1999999099911MD1999999-0071REMSYN070AAXX  23184 82392 32499 33201 10329 20212 39991 40093 83200 333 59007;
0168823920999992008022400004-03700-040350FM-12+008399999V0202301N001012200019N0040001N1+02581+02271101231ADDGF102991021021008001001001KA1240M+03361MA1999999100211MD1999999-0041REMSYN088AAXX  24004 82392 32596 22302 10258 20227 30021 40123 82200 333 10336 29075 55095 59004;
0156823920999992008022412004-03700-040350FM-12+008399999V0200501N000510042019N0500001N1+02701+02131101321ADDGF105991051021004501001001KA1240N+02401MA1999999100301MD1999999-0111REMSYN076AAXX  24124 82392 32499 50501 10270 20213 30030 40132 85200 333 20240 59011;
0178823920999992008022500004-03700-040350FM-12+008399999V0200501N001012200019N0040001N1+02541+02191101131ADDGA1001+999999999GF100991001001999999001001KA1240M+03301MA1999999100111MD1999999+0101REMSYN082AAXX  25004 82392 32996 00502 10254 20219 30011 40113 333 10330 29071 55100 58010;
0156823920999992008022512004-03700-040350FM-12+008399999V0200901N001012200019N0500001N1+02701+02131101221ADDGF102991021021004501001001KA1240N+02291MA1999999100201MD1999999-0101REMSYN076AAXX  25124 82392 32499 20902 10270 20213 30020 40122 82200 333 20229 59010;
0137823920999992008022518004-03700-040350FM-12+008399999V0200901N002110042019N0500001N1+03001+02141100891ADDGF108991051021004501031001MA1999999099871MD1999999-0101REMSYN070AAXX  25184 82392 32499 80904 10300 20214 39987 40089 85230 333 59010;
0168823920999992008022600004-03700-040350FM-12+008399999V0203601N001012200019N0040001N1+02561+02271101001ADDGF102991021021004501001001KA1240M+03321MA1999999099981MD1999999-0131REMSYN088AAXX  26004 82392 32496 23602 10256 20227 39998 40100 82200 333 10332 29075 55071 59013;
0156823920999992008022612004-03700-040350FM-12+008399999V0200501N001012200019N0500001N1+02641+02371101021ADDGF104991041021004501001001KA1240N+02201MA1999999100001MD1999999-0201REMSYN076AAXX  26124 82392 32499 40502 10264 20237 30000 40102 84200 333 20220 59020;
0137823920999992008022618004-03700-040350FM-12+008399999V0203601N001010042019N0500001N1+03011+02211100771ADDGF107991051061004501031011MA1999999099751MD1999999-0121REMSYN070AAXX  26184 82392 32499 73602 10301 20221 39975 40077 85631 333 59012;
0213823920999992008022700004-03700-040350FM-12+008399999V0200901N000510450019N0040001N1+02441+02371101041ADDAA106006191AY161061AY261061GF105991031061004501011001KA1240M+03201MA1999999100011MD1999999+0031MW1021REMSYN100AAXX  27004 82392 21496 50901 10244 20237 30001 40104 70266 83610 333 10320 29085 55062 58003 60061;
0156823920999992008022718004-03700-040350FM-12+008399999V0202701N001019999999N0500001N1+03221+02231100751ADDGF105991999021004501001001MA1999999099731MD1999999-0021REMSYN070AAXX  27184 82392 32499 52702 10322 20223 39973 40075 84200 333 59002;EQDQ01+000042SCOTLC
0168823920999992008022800004-03700-040350FM-12+008399999V0203601N000510450019N0040001N1+02651+02201101031ADDGF108991031021004501021999KA1240M+03341MA1999999100011MD1999999+0001REMSYN088AAXX  28004 82392 32496 83601 10265 20220 30001 40103 8322/ 333 10334 29074 55056 58000;
0156823920999992008022812004-03700-040350FM-12+008399999V0200501N000510450019N0500001N1+02811+02401101161ADDGF106991031041004501031001KA1240N+02451MA1999999100141MD1999999+0041REMSYN076AAXX  28124 82392 32499 60501 10281 20240 30014 40116 83430 333 20245 58004;
0182823920999992008022818004-03700-040350FM-12+008399999V0203601N001010450019N0500001N1+03191+02331100611ADDAA106007991AY101061AY221061GF106991041061004501031001MA1999999099601MD1999999-0131MW1611REMSYN082AAXX  28184 82392 21499 63602 10319 20233 39960 40061 76102 84630 333 59013 60081;
0168823920999992008022900004-03700-040350FM-12+008399999V0200501N001012200019N0040001N1+02601+02391101001ADDGF102991021001008001031001KA1240M+03331MA1999999099981MD1999999-0031REMSYN088AAXX  29004 82392 32596 20502 10260 20239 39998 40100 82030 333 10333 29078 55069 59003;
0173823920999992008022912004-03700-040350FM-12+008399999V0200501N001010450019N0500001N1+02821+02401101071ADDAA124000891GF105991021021004501031001KA1240N+02401MA1999999100051MD1999999-0091REMSYN082AAXX  29124 82392 22499 50502 10282 20240 30005 40107 82230 333 20240 59009 69984;
0182823920999992008022918004-03700-040350FM-12+008399999V0203601N001010042019N0500001N1+02411+02251100841ADDAA106002091AY161061AY261061GF108991051051004501011999MA1999999099811MD1999999+0211MW1021REMSYN082AAXX  29184 82392 21499 83602 10241 20225 39981 40084 70266 8551/ 333 58021 60021;
0168823920999992008030100004-03700-040350FM-12+008399999V0200501N000510450019N0040001N1+02401+02371101021ADDGF106991031041004501031001KA1240M+03121MA1999999100001MD1999999+0021REMSYN088AAXX  01004 82392 32496 60501 10240 20237 30000 40102 83430 333 10312 29091 55031 58002;
0173823920999992008030112004-03700-040350FM-12+008399999V0200901N002612200019N0500001N1+02681+02351100981ADDAA124002091GF104991041041004501001001KA1240N+02251MA1999999099951MD1999999-0101REMSYN082AAXX  01124 82392 22499 40905 10268 20235 39995 40098 84400 333 20225 59010 60024;
0182823920999992008030118004-03700-040350FM-12+008399999V0209999C000010450019N0500001N1+02461+02321100681ADDAA106006191AY161061AY221061GF107991041031004501031001MA1999999099651MD1999999-0161MW1021REMSYN082AAXX  01184 82392 21499 70000 10246 20232 39965 40068 70262 84330 333 59016 60061;
0213823920999992008030200004-03700-040350FM-12+008399999V0209999C000010450019N0040001N1+02321+02291100931ADDAA106013091AY161061AY261061GF105991031041004501031001KA1240M+03021MA1999999099901MD1999999-0101MW1031REMSYN100AAXX  02004 82392 21496 50000 10232 20229 39990 40093 70366 83430 333 10302 29092 55042 59010 60131;
0173823920999992008030212004-03700-040350FM-12+008399999V0201801N000510042019N0500001N1+02461+02391100991ADDAA124018091GF107991051051004501011001KA1240N+02171MA1999999099961MD1999999+0011REMSYN082AAXX  02124 82392 22499 71801 10246 20239 39996 40099 85510 333 20217 58001 60184;
0137823920999992008030218004-03700-040350FM-12+008399999V0200901N001010450019N0500001N1+03261+02151100531ADDGF106991031021004501011001MA1999999099521MD1999999-0131REMSYN070AAXX  02184 82392 32499 60902 10326 20215 39952 40053 83210 333 59013;
0168823920999992008030300004-03700-040350FM-12+008399999V0203601N000512200019N0040001N1+02581+02211100851ADDGF103991031021004501001001KA1240M+03291MA1999999099821MD1999999-0181REMSYN088AAXX  03004 82392 32496 33601 10258 20221 39982 40085 83200 333 10329 29077 55038 59018;
0156823920999992008030312004-03700-040350FM-12+008399999V0200901N002110450019N0500001N1+02801+02201101061ADDGF106991031021004501031001KA1240N+02301MA1999999100041MD1999999+0081REMSYN076AAXX  03124 82392 32499 60904 10280 20220 30004 40106 83230 333 20230 58008;
0182823920999992008030318004-03700-040350FM-12+008399999V0203601N001010042019N0500001N1+02361+02331100931ADDAA106018091AY161061AY261061GF108991051061004501031999MA1999999099901MD1999999+0381MW1511REMSYN082AAXX  03184 82392 21499 83602 10236 20233 39990 40093 75166 8563/ 333 58038 60181;
0137823920999992008030418004-03700-040350FM-12+008399999V0203601N000510450019N0500001N1+02961+02451101201ADDGF106991041061004501021001MA1999999100181MD1999999+0281REMSYN070AAXX  04184 82392 32499 63601 10296 20245 30018 40120 84620 333 58028;
0201823920999992008030512004-03700-040350FM-12+008399999V0209999C000010450019N0200001N1+02301+02271101091ADDAA124023991AY161061AY261061GF108991041071004501021999KA1240N+02101MA1999999100051MD1999999+0001MW1211REMSYN088AAXX  05124 82392 21498 80000 10230 20227 30005 40109 72166 8472/ 333 20210 58000 60244;
0182823920999992008030518004-03700-040350FM-12+008399999V0202301N001010042019N0500001N1+02821+02381100771ADDAA106007991AY161061AY221061GF107991051061004501021001MA1999999099741MD1999999-0441MW1021REMSYN082AAXX  05184 82392 21499 72302 10282 20238 39974 40077 70262 85620 333 59044 60081;
0213823920999992008030600004-03700-040350FM-12+008399999V0200901N000510450019N0040001N1+02361+02331100961ADDAA106010991AY161061AY261061GF106991041051004501011001KA1240M+02871MA1999999099931MD1999999-0081MW1021REMSYN100AAXX  06004 82392 21496 60901 10236 20233 39993 40096 70266 84510 333 10287 29093 55004 59008 60111;
0173823920999992008030612004-03700-040350FM-12+008399999V0209999C000010450019N0500001N1+02501+02401100951ADDAA124019191GF106991041051004501031001KA1240N+02191MA1999999099921MD1999999-0131REMSYN082AAXX  06124 82392 22499 60000 10250 20240 39992 40095 84530 333 20219 59013 60194;
0168823920999992008030700004-03700-040350FM-12+008399999V0203601N000512200019N0040001N1+02541+02471100871ADDGF104991021011004501031001KA1240M+03261MA1999999099841MD1999999-0091REMSYN088AAXX  07004 82392 32496 43601 10254 20247 39984 40087 82130 333 10326 29086 55084 59009;
0201823920999992008030712004-03700-040350FM-12+008399999V0203601N000510450019N0500001N1+02681+02451101131ADDAA124007191AY161061AY221061GF105991031021004501031001KA1240N+02261MA1999999100111MD1999999+0191MW1021REMSYN088AAXX  07124 82392 21499 53601 10268 20245 30011 40113 70262 83230 333 20226 58019 60074;
0182823920999992008030718004-03700-040350FM-12+008399999V0209999C000010450019N0500001N1+02401+02301100901ADDAA106009991AY161061AY261061GF107991041051004501021001MA1999999099871MD1999999+0321MW1021REMSYN082AAXX  07184 82392 21499 70000 10240 20230 39987 40090 70266 84520 333 58032 60101;
0173823920999992008030812004-03700-040350FM-12+008399999V0202301N000510450019N0500001N1+02561+02311101241ADDAA124009991GF107991041051004501021001KA1240N+02191MA1999999100211MD1999999+0101REMSYN082AAXX  08124 82392 22499 72301 10256 20231 30021 40124 84520 333 20219 58010 60104;
0168823920999992008030900004-03700-040350FM-12+008399999V0200501N002112200019N0040001N1+02301+02251101251ADDGF102991021001008001031001KA1240M+02701MA1999999100221MD1999999+0151REMSYN088AAXX  09004 82392 32596 20504 10230 20225 30022 40125 82030 333 10270 29092 55003 58015;
0182823920999992008030918004-03700-040350FM-12+008399999V0209999C000010042019N0500001N1+02801+02251100871ADDAA106000591AY161061AY221061GF107991051021004501031001MA1999999099841MD1999999-0101MW1021REMSYN082AAXX  09184 82392 21499 70000 10280 20225 39984 40087 70262 85230 333 59010 69941;
0168823920999992008031000004-03700-040350FM-12+008399999V0200501N002110450019N0040001N1+02401+02281101171ADDGF106991041061004501031001KA1240M+02961MA1999999100141MD1999999-0081REMSYN088AAXX  10004 82392 32496 60504 10240 20228 30014 40117 84630 333 10296 29087 55038 59008;
0173823920999992008031012004-03700-040350FM-12+008399999V0201801N001012200019N0500001N1+02541+02471101131ADDAA124000591GF104991041021004501001001KA1240N+02201MA1999999100101MD1999999-0201REMSYN082AAXX  10124 82392 22499 41802 10254 20247 30010 40113 84200 333 20220 59020 69944;
0137823920999992008031018004-03700-040350FM-12+008399999V0200901N000512200019N0500001N1+03181+02131100751ADDGF103991031021004501001001MA1999999099731MD1999999-0111REMSYN070AAXX  10184 82392 32499 30901 10318 20213 39973 40075 83200 333 59011;
0178823920999992008031100004-03700-040350FM-12+008399999V0203601N000512200019N0040001N1+02481+02301101001ADDGA1001+999999999GF100991001001999999001001KA1240M+03241MA1999999099971MD1999999-0171REMSYN082AAXX  11004 82392 32996 03601 10248 20230 39997 40100 333 10324 29083 55089 59017;
0137823920999992008031118004-03700-040350FM-12+008399999V0201401N001010450019N0500001N1+03001+02241100721ADDGF106991041061004501031001MA1999999099701MD1999999-0031REMSYN070AAXX  11184 82392 32499 61402 10300 20224 39970 40072 84630 333 59003;
0168823920999992008031200004-03700-040350FM-12+008399999V0209999C000012200019N0040001N1+02441+02281100971ADDGF101991011001008001011001KA1240M+03241MA1999999099951MD1999999-0021REMSYN088AAXX  12004 82392 32596 10000 10244 20228 39995 40097 81010 333 10324 29081 55096 59002;
0156823920999992008031212004-03700-040350FM-12+008399999V0200501N000510450019N0500001N1+02501+02431101181ADDGF108991031061004501021999KA1240N+02301MA1999999100151MD1999999-0061REMSYN076AAXX  12124 82392 32499 80501 10250 20243 30015 40118 8362/ 333 20230 59006;
0213823920999992008031300004-03700-040350FM-12+008399999V0209999C000012200019N0040001N1+02331+02311101171ADDAA106002091AY161061AY261061GF102991021001008001011001KA1240M+02581MA1999999100141MD1999999+0191MW1021REMSYN100AAXX  13004 82392 21596 20000 10233 20231 30014 40117 70266 82010 333 10258 29096 55002 58019 60021;
0173823920999992008031312004-03700-040350FM-12+008399999V0201801N000512200019N0500001N1+02631+02371101261ADDAA124004191GF103991031021004501001001KA1240N+02161MA1999999100231MD1999999+0081REMSYN082AAXX  13124 82392 22499 31801 10263 20237 30023 40126 83200 333 20216 58008 60044;
0137823920999992008031318004-03700-040350FM-12+008399999V0200501N000510450019N0500001N1+03111+02251100771ADDGF105991031061004501021001MA1999999099741MD1999999-0211REMSYN070AAXX  13184 82392 32499 50501 10311 20225 39974 40077 83620 333 59021;
0168823920999992008031400004-03700-040350FM-12+008399999V0203601N001012200019N0040001N1+02541+02471101081ADDGF104991041021004501001001KA1240M+03191MA1999999100061MD1999999-0081REMSYN088AAXX  14004 82392 32496 43602 10254 20247 30006 40108 84200 333 10319 29084 55099 59008;
0156823920999992008031412004-03700-040350FM-12+008399999V0201801N000512200019N0500001N1+02681+02331101071ADDGF104991041021004501001001KA1240N+02001MA1999999100051MD1999999-0181REMSYN076AAXX  14124 82392 32499 41801 10268 20233 30005 40107 84200 333 20200 59018;
0182823920999992008031418004-03700-040350FM-12+008399999V0203601N000510450019N0500001N1+02391+02351100791ADDAA106007991AY101061AY221061GF107991041061004501011001MA1999999099761MD1999999+0021MW1211REMSYN082AAXX  14184 82392 21499 73601 10239 20235 39976 40079 72102 84610 333 58002 60081;
0168823920999992008031500004-03700-040350FM-12+008399999V0201401N000510450019N0040001N1+02341+02271101161ADDGF106991041041004501031001KA1240M+03211MA1999999100131MD1999999+0071REMSYN088AAXX  15004 82392 32496 61401 10234 20227 30013 40116 84430 333 10321 29092 55064 58007;
0173823920999992008031512004-03700-040350FM-12+008399999V0201801N001010450019N0500001N1+02501+02361101221ADDAA124007991GF108991031061004501021999KA1240N+02211MA1999999100191MD1999999+0141REMSYN082AAXX  15124 82392 22499 81802 10250 20236 30019 40122 8362/ 333 20221 58014 60084;
0137823920999992008031518004-03700-040350FM-12+008399999V0201801N000510450019N0500001N1+02901+02341100821ADDGF106991031021004501031001MA1999999099801MD1999999+0041REMSYN070AAXX  15184 82392 32499 61801 10290 20234 39980 40082 83230 333 58004;
0213823920999992008031600004-03700-040350FM-12+008399999V0201801N002110450019N0040001N1+02201+02151101291ADDAA106010991AY161061AY221061GF108991031071004501021999KA1240M+03061MA1999999100261MD1999999+0131MW1021REMSYN100AAXX  16004 82392 21496 81804 10220 20215 30026 40129 70262 8372/ 333 10306 29055 55014 58013 60111;
0173823920999992008031612004-03700-040350FM-12+008399999V0201801N000510042019N0500001N1+02411+02321101301ADDAA124010991GF107991051051004501011001KA1240N+02131MA1999999100271MD1999999+0081REMSYN082AAXX  16124 82392 22499 71801 10241 20232 30027 40130 85510 333 20213 58008 60114;
0137823920999992008031618004-03700-040350FM-12+008399999V0203601N000510450019N0500001N1+03031+02231100871ADDGF106991031021004501021011MA1999999099851MD1999999+0051REMSYN070AAXX  16184 82392 32499 63601 10303 20223 39985 40087 83221 333 58005;
0213823920999992008031700004-03700-040350FM-12+008399999V0201401N000510450019N0040001N1+02171+02131101221ADDAA106000591AY151061AY251061GF108991041051004501011999KA1240M+03061MA1999999100191MD1999999-0071MW1021REMSYN100AAXX  17004 82392 21496 81401 10217 20213 30019 40122 70255 8451/ 333 10306 29088 55057 59007 69951;
0173823920999992008031712004-03700-040350FM-12+008399999V0201801N001010450019N0500001N1+02401+02371101171ADDAA124000591GF106991011041004501011001KA1240N+02101MA1999999100141MD1999999-0131REMSYN082AAXX  17124 82392 22499 61802 10240 20237 30014 40117 81410 333 20210 59013 69954;
0137823920999992008031718004-03700-040350FM-12+008399999V0203601N000510450019N0500001N1+03141+02271100741ADDGF106991031021004501031001MA1999999099721MD1999999-0131REMSYN070AAXX  17184 82392 32499 63601 10314 20227 39972 40074 83230 333 59013;
0168823920999992008031800004-03700-040350FM-12+008399999V0200501N000510450019N0040001N1+02311+02201101211ADDGF108991021021004501011999KA1240M+03191MA1999999100181MD1999999-0011REMSYN088AAXX  18004 82392 32496 80501 10231 20220 30018 40121 8221/ 333 10319 29086 55053 59001;
0156823920999992008031812004-03700-040350FM-12+008399999V0202301N000512200019N0500001N1+02581+02231101271ADDGF103991031011004501001001KA1240N+02151MA1999999100241MD1999999+0101REMSYN076AAXX  18124 82392 32499 32301 10258 20223 30024 40127 83100 333 20215 58010;
0182823920999992008031818004-03700-040350FM-12+008399999V0203601N001010042019N0500001N1+03211+02141100891ADDAA106000391AY101061AY221061GF106991051051004501031001MA1999999099871MD1999999+0151MW1531REMSYN082AAXX  18184 82392 21499 63602 10321 20214 39987 40089 75302 85530 333 58015 69931;
0168823920999992008031900004-03700-040350FM-12+008399999V0203601N000512200019N0040001N1+02361+02291101101ADDGF104991011011004501011001KA1240M+03121MA1999999100071MD1999999-0111REMSYN088AAXX  19004 82392 32496 43601 10236 20229 30007 40110 81110 333 10312 29083 55096 59011;
0173823920999992008031912004-03700-040350FM-12+008399999V0201801N000512200019N0500001N1+02681+02261101171ADDAA124000391GF103991031011004501001001KA1240N+02161MA1999999100141MD1999999-0101REMSYN082AAXX  19124 82392 22499 31801 10268 20226 30014 40117 83100 333 20216 59010 69934;
0137823920999992008031918004-03700-040350FM-12+008399999V0209999C000010450019N0500001N1+03181+02161100721ADDGF105991041041004501031001MA1999999099701MD1999999-0171REMSYN070AAXX  19184 82392 32499 50000 10318 20216 39970 40072 84430 333 59017;
0213823920999992008032000004-03700-040350FM-12+008399999V0200901N000510042019N0040001N1+02301+02251101161ADDAA106010991AY161061AY261061GF108991061051004501021999KA1240M+03261MA1999999100131MD1999999+0061MW1021REMSYN100AAXX  20004 82392 21496 80901 10230 20225 30013 40116 70266 8652/ 333 10326 29082 55103 58006 60111;
0201823920999992008032012004-03700-040350FM-12+008399999V0201801N000510042019N0500001N1+02431+02341101221ADDAA124020191AY161061AY261061GF108991061051004501031999KA1240N+02211MA1999999100191MD1999999+0051MW1021REMSYN088AAXX  20124 82392 21499 81801 10243 20234 30019 40122 70266 8653/ 333 20221 58005 60204;
0137823920999992008032018004-03700-040350FM-12+008399999V0202301N001510450019N0500001N1+02931+02381100771ADDGF107991041061004501031021MA1999999099751MD1999999+0051REMSYN070AAXX  20184 82392 32499 72303 10293 20238 39975 40077 84632 333 58005;
0168823920999992008032100004-03700-040350FM-12+008399999V0201801N001019999999N0040001N1+02441+02371101091ADDGF108991041071999999021999KA1240M+03201MA1999999100061MD1999999-0071REMSYN088AAXX  21004 82392 32996 81802 10244 20237 30006 40109 8472/ 333 10320 29090 55055 59007;
0201823920999992008032112004-03700-040350FM-12+008399999V0201401N001010450019N0500001N1+02421+02281101131ADDAA124005191AY161061AY261061GF105991031041004501041001KA1240N+02181MA1999999100101MD1999999-0091MW1021REMSYN088AAXX  21124 82392 21499 51402 10242 20228 30010 40113 70266 83440 333 20218 59009 60054;
0137823920999992008032118004-03700-040350FM-12+008399999V0200501N001010450019N0500001N1+02861+02461100761ADDGF106991041061004501011011MA1999999099731MD1999999-0021REMSYN070AAXX  21184 82392 32499 60502 10286 20246 39973 40076 84611 333 59002;
0168823920999992008032200004-03700-040350FM-12+008399999V0200501N002110450019N0040001N1+02401+02371101031ADDGF106991031061004501011001KA1240M+03041MA1999999100001MD1999999-0061REMSYN088AAXX  22004 82392 32496 60504 10240 20237 30000 40103 83610 333 10304 29092 55058 59006;
0156823920999992008032212004-03700-040350FM-12+008399999V0209999C000010042019N0500001N1+02611+02411101181ADDGF107991051041004501031001KA1240N+02171MA1999999100151MD1999999+0051REMSYN076AAXX  22124 82392 32499 70000 10261 20241 30015 40118 85430 333 20217 58005;
0137823920999992008032218004-03700-040350FM-12+008399999V0200901N000510450019N0500001N1+03031+02431100701ADDGF106991031041004501021001MA1999999099681MD1999999-0051REMSYN070AAXX  22184 82392 32499 60901 10303 20243 39968 40070 83420 333 59005;
0213823920999992008032300004-03700-040350FM-12+008399999V0200501N000510075019N0040001N1+02391+02341101071ADDAA106001091AY161061AY261061GF108991061061008001011999KA1240M+03081MA1999999100051MD1999999+0051MW1211REMSYN100AAXX  23004 82392 21596 80501 10239 20234 30005 40107 72166 8661/ 333 10308 29087 55080 58005 60011;
0182823920999992008032318004-03700-040350FM-12+008399999V0201801N001010450019N0500001N1+02741+02451100691ADDAA106000021AY101061AY221061GF107991041021004501031001MA1999999099671MD1999999-0011MW1501REMSYN082AAXX  23184 82392 21499 71802 10274 20245 39967 40069 75002 84230 333 59001 69921;
0201823920999992008032412004-03700-040350FM-12+008399999V0202301N001010450019N0500001N1+02441+02411101231ADDAA124031091AY161061AY261061GF108991041071004501021999KA1240N+02281MA1999999100201MD1999999+0181MW1031REMSYN088AAXX  24124 82392 21499 82302 10244 20241 30020 40123 70366 8472/ 333 20228 58018 60314;
0137823920999992008032418004-03700-040350FM-12+008399999V0209999C000010450019N0500001N1+02901+02341100891ADDGF107991041021004501031001MA1999999099871MD1999999+0201REMSYN070AAXX  24184 82392 32499 70000 10290 20234 39987 40089 84230 333 58020;
0168823920999992008032500004-03700-040350FM-12+008399999V0200901N001010450019N0500001N1+02411+02371101211ADDGF107991041041004501031001KA1240M+02941MA1999999100181MD1999999+0071REMSYN088AAXX  25004 82392 32499 70902 10241 20237 30018 40121 84430 333 10294 29091 55008 58007;
0156823920999992008032512004-03700-040350FM-12+008399999V0200901N000510450019N0500001N1+02661+02411101291ADDGF105991031021004501031001KA1240N+02301MA1999999100261MD1999999+0061REMSYN076AAXX  25124 82392 32499 50901 10266 20241 30026 40129 83230 333 20230 58006;
0137823920999992008032518004-03700-040350FM-12+008399999V0200501N001010450019N0500001N1+03031+02431100811ADDGF105991031041004501011021MA1999999099791MD1999999-0081REMSYN070AAXX  25184 82392 32499 50502 10303 20243 39979 40081 83412 333 59008;
0168823920999992008032600004-03700-040350FM-12+008399999V0203601N001010450019N0040001N1+02511+02361101151ADDGF107991031041004501021001KA1240M+03161MA1999999100131MD1999999-0051REMSYN088AAXX  26004 82392 32496 73602 10251 20236 30013 40115 83420 333 10316 29085 55071 59005;
0201823920999992008032612004-03700-040350FM-12+008399999V0200501N000510450019N0200001N1+02301+02271101191ADDAA124013091AY121061AY261061GF105991041061004501021999KA1240N+02251MA1999999100161MD1999999-0101MW1611REMSYN088AAXX  26124 82392 21498 50501 10230 20227 30016 40119 76126 8462/ 333 20225 59010 60134;
0182823920999992008032618004-03700-040350FM-12+008399999V0203601N001010450019N0500001N1+02821+02381100771ADDAA106002091AY161061AY221061GF106991031041004501031001MA1999999099741MD1999999-0051MW1021REMSYN082AAXX  26184 82392 21499 63602 10282 20238 39974 40077 70262 83430 333 59005 60021;
0213823920999992008032700004-03700-040350FM-12+008399999V0209999C000010042019N0040001N1+02311+02291101111ADDAA106040991AY161061AY261061GF108991081061004501999999KA1240M+02901MA1999999100081MD1999999-0051MW1951REMSYN100AAXX  27004 82392 21496 80000 10231 20229 30008 40111 79566 886// 333 10290 29093 55026 59005 60411;
0201823920999992008032712004-03700-040350FM-12+008399999V0201801N000510450019N0500001N1+02491+02341101021ADDAA124053191AY161061AY261061GF106991031041004501031001KA1240N+02191MA1999999099991MD1999999-0171MW1021REMSYN088AAXX  27124 82392 21499 61801 10249 20234 39999 40102 70266 83430 333 20219 59017 60534;
0137823920999992008032718004-03700-040350FM-12+008399999V0209999C000010450019N0500001N1+03031+02281100511ADDGF106991041061004501031001MA1999999099501MD1999999-0271REMSYN070AAXX  27184 82392 32499 60500 10303 20228 39950 40051 84630 333 59027;
0213823920999992008032800004-03700-040350FM-12+008399999V0200501N001010450019N0040001N1+02341+02311100991ADDAA106017091AY161061AY261061GF108991041061004501021999KA1240M+03141MA1999999099961MD1999999-0121MW1511REMSYN100AAXX  28004 82392 21496 80502 10234 20231 39996 40099 75166 8462/ 333 10314 29088 55062 59012 60171;
0201823920999992008032812004-03700-040350FM-12+008399999V0202301N000510450019N0500001N1+02521+02491100991ADDAA124017091AY161061AY251061GF108991041061004501021999KA1240N+02301MA1999999099961MD1999999-0031MW1021REMSYN088AAXX  28124 82392 21499 82301 10252 20249 39996 40099 70265 8462/ 333 20230 59003 60174;
0137823920999992008032818004-03700-040350FM-12+008399999V0203601N000510450019N0500001N1+02571+02381100701ADDGF108991041061004501021999MA1999999099671MD1999999+0171REMSYN070AAXX  28184 82392 32499 83601 10257 20238 39967 40070 8462/ 333 58017;
0232823920999992008032900004-03700-040350FM-12+008399999V0209999C000010450019N0040001N1+02401+02341100971ADDAA106000091AY161061AY221061GF108991031061004501021999KA1240M+03031MA1999999099941MD1999999-0021MW1021REMSYN100AAXX  29004 82392 21496 80000 10240 20234 39994 40097 70262 8362/ 333 10303 29094 55017 59002 69911;EQDQ01  00002PRCP06
0192823920999992008032912004-03700-040350FM-12+008399999V0201801N000510450019N0500001N1+02601+02421100991ADDAA124000091GF107991041051004501031001KA1240N+02321MA1999999099961MD1999999+0001REMSYN082AAXX  29124 82392 22499 71801 10260 20242 39996 40099 84530 333 20232 58000 69914;EQDQ01  00002PRCP24
0137823920999992008032918004-03700-040350FM-12+008399999V0200901N001010450019N0500001N1+03001+02371100521ADDGF107991041021004501031001MA1999999099511MD1999999-0161REMSYN070AAXX  29184 82392 32499 70902 10300 20237 39951 40052 84230 333 59016;
0213823920999992008033000004-03700-040350FM-12+008399999V0200501N001010450019N0040001N1+02421+02391100981ADDAA106003091AY161061AY261061GF108991041061004501021999KA1240M+03181MA1999999099951MD1999999+0011MW1611REMSYN100AAXX  30004 82392 21496 80502 10242 20239 39995 40098 76166 8462/ 333 10318 29089 55050 58001 60031;
0201823920999992008033012004-03700-040350FM-12+008399999V0209999C000010042019N0500001N1+02591+02391101031ADDAA124010991AY161061AY261061GF107991051041004501031001KA1240N+02331MA1999999100001MD1999999+0041MW1021REMSYN088AAXX  30124 82392 21499 71800 10259 20239 30000 40103 70266 85430 333 20233 58004 60114;
0137823920999992008033018004-03700-040350FM-12+008399999V0200501N000510450019N0500001N1+03061+02381100501ADDGF106991031091004501011001MA1999999099491MD1999999-0021REMSYN070AAXX  30184 82392 32499 60501 10306 20238 39949 40050 83910 333 59002;
0173823920999992008033112004-03700-040350FM-12+008399999V0202301N001510450019N0500001N1+02601+02421100961ADDAA124032091GF108991041071004501011999KA1240N+02321MA1999999099931MD1999999-0071REMSYN082AAXX  31124 82392 22499 82303 10260 20242 39993 40096 8471/ 333 20232 59007 60324;
0213823920999992008040100004-03700-040350FM-12+008399999V0203601N001010042019N0040001N1+02231+02211101031ADDAA106005191AY161061AY261061GF108991081061004501999999KA1240M+02941MA1999999100001MD1999999+0081MW1511REMSYN100AAXX  01004 82392 21496 83602 10223 20221 30000 40103 75166 886// 333 10294 29096 55032 58008 60051;
0201823920999992008040112004-03700-040350FM-12+008399999V0201801N000510450019N0500001N1+02421+02391100971ADDAA124021191AY161061AY261061GF107991041051004501031001KA1240N+02191MA1999999099941MD1999999+0011MW1031REMSYN088AAXX  01124 82392 21499 71801 10242 20239 39994 40097 70366 84530 333 20219 58001 60214;
0137823920999992008040118004-03700-040350FM-12+008399999V0209999C000010450019N0500001N1+02991+02241100551ADDGF106991031021004501031011MA1999999099541MD1999999-0061REMSYN070AAXX  01184 82392 32499 60000 10299 20224 39954 40055 83231 333 59006;
0213823920999992008040200004-03700-040350FM-12+008399999V0209999C000010042019N0040001N1+02431+02411101031ADDAA106003091AY151061AY251061GF108991051051004501021999KA1240M+03041MA1999999100001MD1999999+0001MW1511REMSYN100AAXX  02004 82392 21496 80500 10243 20241 30000 40103 75155 8552/ 333 10304 29090 55059 58000 60031;
0201823920999992008040212004-03700-040350FM-12+008399999V0202301N001010450019N0500001N1+02561+02401101031ADDAA124003091AY161061AY251061GF107991041041004501031001KA1240N+02301MA1999999100001MD1999999+0061MW1031REMSYN088AAXX  02124 82392 21499 72302 10256 20240 30000 40103 70365 84430 333 20230 58006 60034;
0201823920999992008040218004-03700-040350FM-12+008399999V0202301N001510450019N0500001N1+02921+02291100511ADDAA106000091AY151061AY221061GF106991031021004501031001MA1999999099501MD1999999-0041MW1021REMSYN082AAXX  02184 82392 21499 62303 10292 20229 39950 40051 70252 83230 333 59004 69921;EQDQ01  00002PRCP06
0213823920999992008040300004-03700-040350FM-12+008399999V0201801N001019999999N0040001N1+02331+02311100981ADDAA106035191AY161061AY261061GF108991031051004501999999KA1240M+02961MA1999999099951MD1999999-0051MW1021REMSYN100AAXX  03004 82392 21496 81802 10233 20231 39995 40098 70266 835// 333 10296 29089 55054 59005 60351;
0201823920999992008040312004-03700-040350FM-12+008399999V0201801N000510042019N0500001N1+02551+02401101131ADDAA124035191AY151061AY251061GF107991051041004501011001KA1240N+02081MA1999999100101MD1999999+0101MW1021REMSYN088AAXX  03124 82392 21499 71801 10255 20240 30010 40113 70255 85410 333 20208 58010 60354;
0137823920999992008040318004-03700-040350FM-12+008399999V0201801N000510450019N0500001N1+02891+02341100641ADDGF106991041051004501011001MA1999999099611MD1999999+0111REMSYN070AAXX  03184 82392 32499 61801 10289 20234 39961 40064 84510 333 58011;
0213823920999992008040400004-03700-040350FM-12+008399999V0209999C000012200019N0040001N1+02481+02431100931ADDAA106001091AY161061AY221061GF102991021001004501031001KA1240M+03141MA1999999099901MD1999999-0051MW1031REMSYN100AAXX  04004 82392 21496 20000 10248 20243 39990 40093 70362 82030 333 10314 29089 55043 59005 60011;
0173823920999992008040412004-03700-040350FM-12+008399999V0200901N000512200019N0500001N1+02681+02311101051ADDAA124001091GF102991021011004501001001KA1240N+02241MA1999999100031MD1999999-0071REMSYN082AAXX  04124 82392 22499 20901 10268 20231 30003 40105 82100 333 20224 59007 60014;
0213823920999992008040500004-03700-040350FM-12+008399999V0200501N002110450019N0040001N1+02421+02391100961ADDAA106003091AY121061AY221061GF108991041061004501021999KA1240M+03281MA1999999099941MD1999999+0041MW1611REMSYN100AAXX  05004 82392 21496 80504 10242 20239 39994 40096 76122 8462/ 333 10328 29081 55083 58004 60031;
0201823920999992008040512004-03700-040350FM-12+008399999V0209999C000012200019N0500001N1+02601+02391101031ADDAA124015091AY161061AY261061GF106991031021004501001011KA1240N+02231MA1999999100001MD1999999-0031MW1021REMSYN088AAXX  05124 82392 21499 60000 10260 20239 30000 40103 70266 83201 333 20223 59003 60154;
0137823920999992008040518004-03700-040350FM-12+008399999V0201801N000510042019N0500001N1+02961+02381100701ADDGF107991051061004501011001MA1999999099681MD1999999+0061REMSYN070AAXX  05184 82392 32499 71801 10296 20238 39968 40070 85610 333 58006;
0213823920999992008040600004-03700-040350FM-12+008399999V0209999C000010042019N0040001N1+02281+02251101161ADDAA106074991AY161061AY261061GF108991061061004501011999KA1240M+03001MA1999999100131MD1999999+0191MW1211REMSYN100AAXX  06004 82392 21496 80000 10228 20225 30013 40116 72166 8661/ 333 10300 29089 55045 58019 60751;
0213823920999992008040700004-03700-040350FM-12+008399999V0200501N000510450019N0040001N1+02481+02391100991ADDAA106000891AY161061AY221061GF106991031051004501031001KA1240M+03181MA1999999099961MD1999999-0171MW1031REMSYN100AAXX  07004 82392 21496 60501 10248 20239 39996 40099 70362 83530 333 10318 29086 55068 59017 69971;
0201823920999992008040712004-03700-040350FM-12+008399999V0201801N001010450019N0500001N1+02601+02401101051ADDAA124007991AY161061AY261061GF106991041041004501031001KA1240N+02281MA1999999100021MD1999999-0061MW1021REMSYN088AAXX  07124 82392 21499 61802 10260 20240 30002 40105 70266 84430 333 20228 59006 60084;
0182823920999992008040718004-03700-040350FM-12+008399999V0200501N002110450019N0500001N1+02401+02331100781ADDAA106021191AY161061AY261061GF108991041061004501021999MA1999999099751MD1999999+0151MW1031REMSYN082AAXX  07184 82392 21499 80504 10240 20233 39975 40078 70366 8462/ 333 58015 60211;
0213823920999992008040800004-03700-040350FM-12+008399999V0209999C000012200019N0040001N1+02351+02331101011ADDAA106000591AY151061AY251061GF103991031021004501001001KA1240M+03021MA1999999099981MD1999999+0021MW1021REMSYN100AAXX  08004 82392 21496 30000 10235 20233 39998 40101 70255 83200 333 10302 29095 55038 58002 69961;
0173823920999992008040812004-03700-040350FM-12+008399999V0202301N001010450019N0500001N1+02541+02471101191ADDAA124022191GF107991041051004501011001KA1240N+02341MA1999999100161MD1999999+0141REMSYN082AAXX  08124 82392 22499 72302 10254 20247 30016 40119 84510 333 20234 58014 60224;
0213823920999992008040900004-03700-040350FM-12+008399999V0209999C000010450019N0040001N1+02331+02291101141ADDAA106001091AY151061AY251061GF108991041051004501021999KA1240M+02701MA1999999100111MD1999999+0131MW1021REMSYN100AAXX  09004 82392 21496 80000 10233 20229 30011 40114 70255 8452/ 333 10270 29096 55007 58013 60011;
0173823920999992008040912004-03700-040350FM-12+008399999V0202301N000510450019N0500001N1+02541+02401101181ADDAA124025991GF106991031041004501031001KA1240N+02181MA1999999100151MD1999999-0011REMSYN082AAXX  09124 82392 22499 62301 10254 20240 30015 40118 83430 333 20218 59001 60264;
0137823920999992008040918004-03700-040350FM-12+008399999V0200501N001010450019N0500001N1+03001+02291100741ADDGF106991041051004501031001MA1999999099721MD1999999-0291REMSYN070AAXX  09184 82392 32499 60502 10300 20229 39972 40074 84530 333 59029;
0213823920999992008041000004-03700-040350FM-12+008399999V0202301N000512200019N0040001N1+02381+02351101041ADDAA106002091AY161061AY261061GF102991021021004501001001KA1240M+03101MA1999999100011MD1999999-0101MW1021REMSYN100AAXX  10004 82392 21496 22301 10238 20235 30001 40104 70266 82200 333 10310 29089 55074 59010 60021;
0173823920999992008041012004-03700-040350FM-12+008399999V0209999C000010450019N0500001N1+02671+02391100991ADDAA124002091GF106991031021004501031001KA1240N+02131MA1999999099961MD1999999-0191REMSYN082AAXX  10124 82392 22499 60000 10267 20239 39996 40099 83230 333 20213 59019 60024;
0137823920999992008041018004-03700-040350FM-12+008399999V0200901N000510450019N0500001N1+02981+02301100551ADDGF106991031021004501031001MA1999999099551MD1999999-0171REMSYN070AAXX  10184 82392 32499 60901 10298 20230 39955 40055 83230 333 59017;
0168823920999992008041100004-03700-040350FM-12+008399999V0202301N000510450019N0040001N1+02441+02371100781ADDGF106991041041004501031001KA1240M+03121MA1999999099761MD1999999-0251REMSYN088AAXX  11004 82392 32496 62301 10244 20237 39976 40078 84430 333 10312 29086 55077 59025;
0201823920999992008041112004-03700-040350FM-12+008399999V0201401N001012200019N0500001N1+02541+02451100811ADDAA124000591AY161061AY221061GF104991041021004501001001KA1240N+02251MA1999999099781MD1999999-0181MW1021REMSYN088AAXX  11124 82392 21499 41402 10254 20245 39978 40081 70262 84200 333 20225 59018 69964;
0173823920999992008041212004-03700-040350FM-12+008399999V0202301N001010450019N0500001N1+02421+02391100981ADDAA124015091GF108991041071004501021999KA1240N+02231MA1999999099951MD1999999+0171REMSYN082AAXX  12124 82392 22499 82302 10242 20239 39995 40098 8472/ 333 20223 58017 60154;
0182823920999992008041218004-03700-040350FM-12+008399999V0203601N002112200019N0500001N1+02801+02251100561ADDAA106001091AY161061AY221061GF104991021011004501031001MA1999999099551MD1999999-0031MW1021REMSYN082AAXX  12184 82392 21499 43604 10280 20225 39955 40056 70262 82130 333 59003 60011;
0168823920999992008041300004-03700-040350FM-12+008399999V0203601N000512200019N0040001N1+02441+02371100931ADDGF104991021011004501031001KA1240M+02901MA1999999099901MD1999999+0101REMSYN088AAXX  13004 82392 32496 43601 10244 20237 39990 40093 82130 333 10290 29090 55037 58010;
0173823920999992008041312004-03700-040350FM-12+008399999V0209999C000010450019N0500001N1+02691+02391101101ADDAA124001091GF106991031021004501031001KA1240N+02291MA1999999100081MD1999999+0131REMSYN082AAXX  13124 82392 22499 60000 10269 20239 30008 40110 83230 333 20229 58013 60014;
0137823920999992008041318004-03700-040350FM-12+008399999V0203601N001010042019N0500001N1+02541+02401100711ADDGF108991061051004501011999MA1999999099681MD1999999+0131REMSYN070AAXX  13184 82392 32499 83602 10254 20240 39968 40071 8651/ 333 58013;
0156823920999992008041412004-03700-040350FM-12+008399999V0202301N000510450019N0010001N1+02541+02401101171ADDGF106991031041004501031001KA1240N+02281MA1999999100141MD1999999+0061REMSYN076AAXX  14124 82392 32494 62301 10254 20240 30014 40117 83430 333 20228 58006;
0137823920999992008041418004-03700-040350FM-12+008399999V0200501N002610450019N0500001N1+02961+02281100591ADDGF105991041021004501031001MA1999999099581MD1999999-0101REMSYN070AAXX  14184 82392 32499 50505 10296 20228 39958 40059 84230 333 59010;
0168823920999992008041500004-03700-040350FM-12+008399999V0200901N000510450019N0040001N1+02431+02351101061ADDGF106991031021004501031001KA1240M+03061MA1999999100031MD1999999-0031REMSYN088AAXX  15004 82392 32496 60901 10243 20235 30003 40106 83230 333 10306 29087 55058 59003;
0156823920999992008041512004-03700-040350FM-12+008399999V0200901N002110450019N0500001N1+02601+02331101131ADDGF105991041021004501031001KA1240N+02301MA1999999100101MD1999999-0041REMSYN076AAXX  15124 82392 32499 50904 10260 20233 30010 40113 84230 333 20230 59004;
0213823920999992008041600004-03700-040350FM-12+008399999V0200501N000510450019N0040001N1+02461+02341101081ADDAA106005191AY161061AY261061GF107991021021004501031071KA1240M+03041MA1999999100051MD1999999+0021MW1021REMSYN100AAXX  16004 82392 21496 70501 10246 20234 30005 40108 70266 82237 333 10304 29091 55043 58002 60051;
0173823920999992008041612004-03700-040350FM-12+008399999V0202301N001012200019N0500001N1+02581+02421101131ADDAA124017091GF104991041021004501001001KA1240N+02211MA1999999100101MD1999999+0001REMSYN082AAXX  16124 82392 22499 42302 10258 20242 30010 40113 84200 333 20221 58000 60174;
0137823920999992008041618004-03700-040350FM-12+008399999V0201801N001012200019N0500001N1+03101+01941100761ADDGF102991021001004501031001MA1999999099741MD1999999-0011REMSYN070AAXX  16184 82392 32499 21802 10310 20194 39974 40076 82030 333 59001;
0156823920999992008041712004-03700-040350FM-12+008399999V0201801N001010042019N0500001N1+02791+02421101181ADDGF107991051041004501031001KA1240N+02271MA1999999100161MD1999999+0061REMSYN076AAXX  17124 82392 32499 71802 10279 20242 30016 40118 85430 333 20227 58006;
0137823920999992008041718004-03700-040350FM-12+008399999V0200901N000510450019N0500001N1+03121+02431100801ADDGF106991031041004501031001MA1999999099781MD1999999+0041REMSYN070AAXX  17184 82392 32499 60901 10312 20243 39978 40080 83430 333 58004;
0213823920999992008041800004-03700-040350FM-12+008399999V0200501N001510450019N0040001N1+02541+02471101121ADDAA106002091AY161061AY221061GF105991021021004501031001KA1240M+03181MA1999999100101MD1999999+0021MW1031REMSYN100AAXX  18004 82392 21496 50503 10254 20247 30010 40112 70362 82230 333 10318 29085 55091 58002 60021;
0173823920999992008041812004-03700-040350FM-12+008399999V0200501N001010450019N0500001N1+02581+02371101161ADDAA124002091GF106991031021004501031001KA1240N+02311MA1999999100141MD1999999-0021REMSYN082AAXX  18124 82392 22499 60502 10258 20237 30014 40116 83230 333 20231 59002 60024;
0182823920999992008041818004-03700-040350FM-12+008399999V0202301N000510042019N0500001N1+02831+02521100771ADDAA106000591AY161061AY261061GF108991061051004501011999MA1999999099751MD1999999-0031MW1021REMSYN082AAXX  18184 82392 21499 82301 10283 20252 39975 40077 70266 8651/ 333 59003 69961;
0168823920999992008041900004-03700-040350FM-12+008399999V0200501N001010450019N0040001N1+02481+02361101031ADDGF107991041051004501011001KA1240M+02951MA1999999100001MD1999999-0101REMSYN088AAXX  19004 82392 32496 70502 10248 20236 30000 40103 84510 333 10295 29089 55021 59010;
0173823920999992008041912004-03700-040350FM-12+008399999V0200501N000512200019N0500001N1+02771+02361101131ADDAA124000591GF106991031021004501001011KA1240N+02191MA1999999100111MD1999999-0031REMSYN082AAXX  19124 82392 22499 60501 10277 20236 30011 40113 83201 333 20219 59003 69964;
0182823920999992008041918004-03700-040350FM-12+008399999V0200901N001010042019N0500001N1+02491+02251100741ADDAA106002091AY161061AY261061GF107991051051004501011001MA1999999099721MD1999999-0031MW1611REMSYN082AAXX  19184 82392 21499 70902 10249 20225 39972 40074 76166 85510 333 59003 60021;
0213823920999992008042000004-03700-040350FM-12+008399999V0209999C000010450019N0040001N1+02401+02301101051ADDAA106000391AY151061AY251061GF106991031021004501011001KA1240M+03141MA1999999100021MD1999999+0021MW1021REMSYN100AAXX  20004 82392 21496 60000 10240 20230 30002 40105 70255 83210 333 10314 29088 55071 58002 69931;
0173823920999992008042012004-03700-040350FM-12+008399999V0200501N001012200019N0500001N1+02741+02361101121ADDAA124002091GF104991041021004501001001KA1240N+02301MA1999999100101MD1999999-0011REMSYN082AAXX  20124 82392 22499 40502 10274 20236 30010 40112 84200 333 20230 59001 60024;
0182823920999992008042018004-03700-040350FM-12+008399999V0202301N001010450019N0500001N1+02941+02311100741ADDAA106001091AY161061AY221061GF106991041051004501031001MA1999999099721MD1999999+0001MW1031REMSYN082AAXX  20184 82392 21499 62302 10294 20231 39972 40074 70362 84530 333 58000 60011;
0168823920999992008042100004-03700-040350FM-12+008399999V0201801N001012200019N0040001N1+02421+02351101041ADDGF104991021011004501031001KA1240M+03001MA1999999100021MD1999999+0001REMSYN088AAXX  21004 82392 32496 41802 10242 20235 30002 40104 82130 333 10300 29085 55073 58000;
0173823920999992008042112004-03700-040350FM-12+008399999V0202301N000510450019N0500001N1+02721+02451101121ADDAA124001091GF106991031021004501031001KA1240N+02231MA1999999100101MD1999999+0001REMSYN082AAXX  21124 82392 22499 62301 10272 20245 30010 40112 83230 333 20223 58000 60014;
0182823920999992008042118004-03700-040350FM-12+008399999V0203201N000510450019N0500001N1+02601+02461100731ADDAA106002091AY151061AY261061GF108991031071004501011999MA1999999099701MD1999999-0021MW1021REMSYN082AAXX  21184 82392 21499 83201 10260 20246 39970 40073 70256 8371/ 333 59002 60021;
0168823920999992008042200004-03700-040350FM-12+008399999V0203601N000510450019N0040001N1+02441+02341101061ADDGF106991021021004501031001KA1240M+03101MA1999999100041MD1999999+0021REMSYN088AAXX  22004 82392 32496 63601 10244 20234 30004 40106 82230 333 10310 29091 55055 58002;
0173823920999992008042212004-03700-040350FM-12+008399999V0201801N001010450019N0500001N1+02681+02411101021ADDAA124002091GF105991031021004501031001KA1240N+02301MA1999999100001MD1999999-0101REMSYN082AAXX  22124 82392 22499 51802 10268 20241 30000 40102 83230 333 20230 59010 60024;
0213823920999992008042300004-03700-040350FM-12+008399999V0200501N000510450019N0040001N1+02441+02391101011ADDAA106000891AY151061AY251061GF108991041061004501011999KA1240M+03061MA1999999099991MD1999999-0051MW1201REMSYN100AAXX  23004 82392 21496 80501 10244 20239 39999 40101 72055 8461/ 333 10306 29091 55058 59005 69971;
0173823920999992008042312004-03700-040350FM-12+008399999V0200501N000510450019N0500001N1+02681+02411101071ADDAA124008991GF108991031071004501021999KA1240N+02321MA1999999100051MD1999999+0021REMSYN082AAXX  23124 82392 22499 80501 10268 20241 30005 40107 8372/ 333 20232 58002 60094;
0182823920999992008042318004-03700-040350FM-12+008399999V0200501N002110450019N0500001N1+02761+02321100701ADDAA106002091AY161061AY221061GF106991041041004501031001MA1999999099681MD1999999+0031MW1021REMSYN082AAXX  23184 82392 21499 60504 10276 20232 39968 40070 70262 84430 333 58003 60021;
0213823920999992008042400004-03700-040350FM-12+008399999V0200901N000510042019N0040001N1+02371+02331101061ADDAA106007991AY161061AY261061GF108991051061004501011999KA1240M+03101MA1999999100031MD1999999+0041MW1021REMSYN100AAXX  24004 82392 21496 80901 10237 20233 30003 40106 70266 8561/ 333 10310 29089 55023 58004 60081;
0173823920999992008042412004-03700-040350FM-12+008399999V0209999C000010042019N0500001N1+02571+02381101061ADDAA124009991GF108991061061004501011999KA1240N+02261MA1999999100031MD1999999-0021REMSYN082AAXX  24124 82392 22499 81800 10257 20238 30003 40106 8661/ 333 20226 59002 60104;
0182823920999992008042418004-03700-040350FM-12+008399999V0201801N000510042019N0500001N1+02741+02481100711ADDAA106003091AY161061AY261061GF106991051071004501031001MA1999999099681MD1999999+0001MW1021REMSYN082AAXX  24184 82392 21499 61801 10274 20248 39968 40071 70266 85730 333 58000 60031;
0213823920999992008042500004-03700-040350FM-12+008399999V0201801N000510450019N0040001N1+02401+02311100971ADDAA106002091AY161061AY261061GF106991031041004501031001KA1240M+03001MA1999999099941MD1999999-0091MW1031REMSYN100AAXX  25004 82392 21496 61801 10240 20231 39994 40097 70366 83430 333 10300 29091 55028 59009 60021;
0137823920999992008042518004-03700-040350FM-12+008399999V0209999C000010450019N0500001N1+03101+02391100601ADDGF106991041061004501031011MA1999999099591MD1999999-0091REMSYN070AAXX  25184 82392 32499 60000 10310 20239 39959 40060 84631 333 59009;
0213823920999992008042600004-03700-040350FM-12+008399999V0201801N000510450019N0040001N1+02461+02361100941ADDAA106000891AY151061AY251061GF106991031051004501031001KA1240M+03181MA1999999099921MD1999999-0021MW1021REMSYN100AAXX  26004 82392 21496 61801 10246 20236 39992 40094 70255 83530 333 10318 29086 55079 59002 69971;
0173823920999992008042612004-03700-040350FM-12+008399999V0201801N000510450019N0500001N1+02721+02391100971ADDAA124000891GF105991031041004501031001KA1240N+02301MA1999999099951MD1999999-0031REMSYN082AAXX  26124 82392 22499 51801 10272 20239 39995 40097 83430 333 20230 59003 69974;
0137823920999992008042618004-03700-040350FM-12+008399999V0200501N001010450019N0500001N1+03141+02271100521ADDGF105991031021004501031001MA1999999099511MD1999999-0081REMSYN070AAXX  26184 82392 32499 50502 10314 20227 39951 40052 83230 333 59008;
0168823920999992008042700004-03700-040350FM-12+008399999V0200501N002112200019N0040001N1+02541+02401100901ADDGF104991041021004501001001KA1240M+03201MA1999999099881MD1999999+0001REMSYN088AAXX  27004 82392 32496 40504 10254 20240 39988 40090 84200 333 10320 29082 55099 58000;
0201823920999992008042712004-03700-040350FM-12+008399999V0209999C000012200019N0500001N1+02711+02351101021ADDAA124000591AY161061AY261061GF105991031021004501001011KA1240N+02381MA1999999100001MD1999999+0051MW1021REMSYN088AAXX  27124 82392 21499 50000 10271 20235 30000 40102 70266 83201 333 20238 58005 69944;
0137823920999992008042718004-03700-040350FM-12+008399999V0200901N000512200019N0500001N1+03041+02331100641ADDGF105991021021004501001011MA1999999099631MD1999999+0121REMSYN070AAXX  27184 82392 32499 50901 10304 20233 39963 40064 82201 333 58012;
0178823920999992008042800004-03700-040350FM-12+008399999V0200501N000512200019N0040001N1+02501+02431100901ADDGA1001+999999999GF100991001001999999001001KA1240M+03101MA1999999099881MD1999999+0001REMSYN082AAXX  28004 82392 32996 00501 10250 20243 39988 40090 333 10310 29085 55073 58000;
0156823920999992008042812004-03700-040350FM-12+008399999V0200901N000512200019N0500001N1+02801+02461100921ADDGF104991021041004501031001KA1240N+02261MA1999999099901MD1999999-0101REMSYN076AAXX  28124 82392 32499 40901 10280 20246 39990 40092 82430 333 20226 59010;
0182823920999992008042818004-03700-040350FM-12+008399999V0203201N001512200019N0500001N1+02921+02451100531ADDAA106002091AY121061AY261061GF104991031041004501031001MA1999999099521MD1999999-0111MW1021REMSYN082AAXX  28184 82392 21499 43203 10292 20245 39952 40053 70226 83430 333 59011 60021;
0213823920999992008042900004-03700-040350FM-12+008399999V0201801N000510450019N0040001N1+02431+02411100931ADDAA106023191AY161061AY261061GF107991031041004501021001KA1240M+03201MA1999999099991MD1999999+0031MW1021REMSYN100AAXX  29004 82392 21496 71801 10243 20241 39999 40093 70266 83420 333 10320 29089 55092 58003 60231;
0173823920999992008042912004-03700-040350FM-12+008399999V0200901N000510450019N0500001N1+02601+02331100991ADDAA124024991GF107991041051004501031001KA1240N+02261MA1999999099961MD1999999+0061REMSYN082AAXX  29124 82392 22499 70901 10260 20233 39996 40099 84530 333 20226 58006 60254;
0137823920999992008042918004-03700-040350FM-12+008399999V0200901N001010450019N0500001N1+02931+02401100571ADDGF106991031051004501031011MA1999999099561MD1999999+0041REMSYN070AAXX  29184 82392 32499 60902 10293 20240 39956 40057 83531 333 58004;
0187823920999992008043000004-03700-040350FM-12+008399999V0209999C000010450019N0040001N1+03531+02451100951ADDGF108991041041004501021999KA1240M+99999MA1999999099931MD1999999+0021REMSYN088AAXX  30004 82392 32496 80000 10353 20245 39993 40095 8442/ 333 10300 29087 55017 58002;EQDQ01 +03002ATMX  
0201823920999992008043012004-03700-040350FM-12+008399999V0202301N001010450019N0500001N1+02621+02461100981ADDAA124000891AY151061AY221061GF107991041051004501031001KA1240N+02401MA1999999099961MD1999999+0001MW1021REMSYN088AAXX  30124 82392 21499 72302 10262 20246 39996 40098 70252 84530 333 20240 58000 69984;
0137823920999992008043018004-03700-040350FM-12+008399999V0202701N001010450019N0500001N1+02961+02281100511ADDGF105991031021004501031001MA1999999099501MD1999999-0061REMSYN070AAXX  30184 82392 32499 52702 10296 20228 39950 40051 83230 333 59006;
0213823920999992008050100004-03700-040350FM-12+008399999V0209999C000010450019N0040001N1+02371+02351100931ADDAA106021191AY161061AY261061GF108991031051004501021999KA1240M+03061MA1999999099901MD1999999-0031MW1021REMSYN100AAXX  01004 82392 21496 80900 10237 20235 39990 40093 70266 8352/ 333 10306 29089 55041 59003 60211;
0173823920999992008050112004-03700-040350FM-12+008399999V0209999C000010450019N0500001N1+02731+02401101001ADDAA124021191GF106991031021004501011001KA1240N+02241MA1999999099981MD1999999+0021REMSYN082AAXX  01124 82392 22499 60000 10273 20240 39998 40100 83210 333 20224 58002 60214;
0137823920999992008050118004-03700-040350FM-12+008399999V0201801N001510450019N0500001N1+02611+02141100631ADDGF106991041061004501031001MA1999999099611MD1999999+0111REMSYN070AAXX  01184 82392 32499 61803 10261 20214 39961 40063 84630 333 58011;
0156823920999992008050212004-03700-040350FM-12+008399999V0200501N000512200019N0500001N1+02641+02331100981ADDGF103991031021004501001001KA1240N+02211MA1999999099951MD1999999-0031REMSYN076AAXX  02124 82392 32499 30501 10264 20233 39995 40098 83200 333 20221 59003;
0137823920999992008050218004-03700-040350FM-12+008399999V0209999C000012200019N0500001N1+03131+02321100611ADDGF104991041021004501001001MA1999999099601MD1999999-0011REMSYN070AAXX  02184 82392 32499 40900 10313 20232 39960 40061 84200 333 59001;
0178823920999992008050300004-03700-040350FM-12+008399999V0200501N000512200019N0040001N1+02441+02151100851ADDGA1001+999999999GF100991001001999999001001KA1240M+03201MA1999999099821MD1999999-0041REMSYN082AAXX  03004 82392 32996 00501 10244 20215 39982 40085 333 10320 29078 55095 59004;
0201823920999992008050312004-03700-040350FM-12+008399999V0203601N000510042019N0500001N1+02461+02431101201ADDAA124019191AY161061AY261061GF108991051051004501021999KA1240N+02331MA1999999100171MD1999999+0221MW1211REMSYN088AAXX  03124 82392 21499 83601 10246 20243 30017 40120 72166 8552/ 333 20233 58022 60194;
0168823920999992008050400004-03700-040350FM-12+008399999V0209999C000012200019N0040001N1+02471+02391101021ADDGF103991011021004501031001KA1240M+03001MA1999999099991MD1999999+0171REMSYN088AAXX  04004 82392 32496 30000 10247 20239 39999 40102 81230 333 10300 29088 55047 58017;
0156823920999992008050412004-03700-040350FM-12+008399999V0202301N000512200019N0500001N1+02741+02321101101ADDGF102991021011004501001001KA1240N+02251MA1999999100081MD1999999-0091REMSYN076AAXX  04124 82392 32499 22301 10274 20232 30008 40110 82100 333 20225 59009;
0137823920999992008050418004-03700-040350FM-12+008399999V0200501N001012200019N0500001N1+03101+02121100741ADDGF103991031021004501001001MA1999999099721MD1999999-0021REMSYN070AAXX  04184 82392 32499 30502 10310 20212 39972 40074 83200 333 59002;
0201823920999992008050512004-03700-040350FM-12+008399999V0202301N001010450019N0500001N1+02481+02361101191ADDAA124032091AY161061AY261061GF106991041041004501031001KA1240N+02211MA1999999100161MD1999999+0081MW1031REMSYN088AAXX  05124 82392 21499 62302 10248 20236 30016 40119 70366 84430 333 20221 58008 60324;
0182823920999992008050518004-03700-040350FM-12+008399999V0200501N000510450019N0200001N1+02341+02271100951ADDAA106018091AY161061AY261061GF108991041061004501021999MA1999999099921MD1999999+0201MW1601REMSYN082AAXX  05184 82392 21498 80501 10234 20227 39992 40095 76066 8462/ 333 58020 60181;
0213823920999992008050600004-03700-040350FM-12+008399999V0209999C000010450019N0040001N1+02321+02271101241ADDAA106004191AY161061AY261061GF105991021021004501021001KA1240M+03121MA1999999100211MD1999999+0051MW1021REMSYN100AAXX  06004 82392 21496 50000 10232 20227 30021 40124 70266 82220 333 10312 29096 55045 58005 60041;
0173823920999992008050612004-03700-040350FM-12+008399999V0203201N000510450019N0500001N1+02601+02331101251ADDAA124022191GF105991031041004501031001KA1240N+02211MA1999999100221MD1999999+0061REMSYN082AAXX  06124 82392 22499 53201 10260 20233 30022 40125 83430 333 20221 58006 60224;
0137823920999992008050618004-03700-040350FM-12+008399999V0200901N000511050019N0500001N1+02961+02381100811ADDGF106991021021004501001021MA1999999099791MD1999999-0131REMSYN070AAXX  06184 82392 32499 60901 10296 20238 39979 40081 82202 333 59013;
0168823920999992008050700004-03700-040350FM-12+008399999V0200501N001012200019N0040001N1+02441+02391101041ADDGF102991011021004501001021KA1240M+03041MA1999999100011MD1999999-0201REMSYN088AAXX  07004 82392 32496 20502 10244 20239 30001 40104 81202 333 10304 29088 55056 59020;
0156823920999992008050712004-03700-040350FM-12+008399999V0202301N001012200019N0500001N1+02521+02421101131ADDGF104991041021004501001001KA1240N+02281MA1999999100101MD1999999-0121REMSYN076AAXX  07124 82392 32499 42302 10252 20242 30010 40113 84200 333 20228 59012;
0137823920999992008050718004-03700-040350FM-12+008399999V0200501N000512200019N0500001N1+03161+01961100721ADDGF103991031021004501001001MA1999999099701MD1999999-0091REMSYN070AAXX  07184 82392 32499 30501 10316 20196 39970 40072 83200 333 59009;
0168823920999992008050800004-03700-040350FM-12+008399999V0200501N002110450019N0040001N1+02601+02441101051ADDGF108991031061004501021999KA1240M+03191MA1999999100031MD1999999+0021REMSYN088AAXX  08004 82392 32496 80504 10260 20244 30003 40105 8362/ 333 10319 29081 55083 58002;
0201823920999992008050812004-03700-040350FM-12+008399999V0209999C000011050019N0500001N1+02711+02281101141ADDAA124021191AY161061AY261061GF105991021031004501031011KA1240N+02171MA1999999100121MD1999999+0021MW1021REMSYN088AAXX  08124 82392 21499 50000 10271 20228 30012 40114 70266 82331 333 20217 58002 60214;
0156823920999992008050818004-03700-040350FM-12+008399999V0203201N000519999999N0500001N1+03161+02471100691ADDGF106991999041004501001001MA1999999099671MD1999999-0031REMSYN070AAXX  08184 82392 32499 63201 10316 20247 39967 40069 82400 333 59003;EQDQ01+000022SCOTLC
0213823920999992008050900004-03700-040350FM-12+008399999V0200501N000512200019N0040001N1+02361+02261100971ADDAA106015091AY161061AY261061GF104991041041004501001001KA1240M+03201MA1999999099941MD1999999-0091MW1021REMSYN100AAXX  09004 82392 21496 40501 10236 20226 39994 40097 70266 84400 333 10320 29083 55073 59009 60151;
0213823920999992008051000004-03700-040350FM-12+008399999V0209999C000010450019N0040001N1+02381+02311101031ADDAA106000391AY161061AY261061GF106991041051004501031001KA1240M+02981MA1999999100001MD1999999+0061MW1021REMSYN100AAXX  10004 82392 21496 60000 10238 20231 30000 40103 70266 84530 333 10298 29094 55032 58006 69931;
0173823920999992008051012004-03700-040350FM-12+008399999V0202301N000510042019N0500001N1+02601+02251101171ADDAA124010991GF106991051041004501031001KA1240N+02261MA1999999100141MD1999999+0121REMSYN082AAXX  10124 82392 22499 62301 10260 20225 30014 40117 85430 333 20226 58012 60114;
0137823920999992008051018004-03700-040350FM-12+008399999V0200901N000510450019N0500001N1+02901+02251100771ADDGF106991041021004501031001MA1999999099751MD1999999-0071REMSYN070AAXX  10184 82392 32499 60901 10290 20225 39975 40077 84230 333 59007;
0232823920999992008051100004-03700-040350FM-12+008399999V0200501N000510450019N0040001N1+02381+02291101071ADDAA106000091AY121061AY251061GF106991031041004501031001KA1240M+03061MA1999999100041MD1999999-0041MW1031REMSYN100AAXX  11004 82392 21496 60501 10238 20229 30004 40107 70325 83430 333 10306 29085 55035 59004 69921;EQDQ01  00002PRCP06
0192823920999992008051112004-03700-040350FM-12+008399999V0201801N000512200019N0500001N1+02611+02371101271ADDAA124000091GF104991041021004501001001KA1240N+02231MA1999999100241MD1999999+0101REMSYN082AAXX  11124 82392 22499 41801 10261 20237 30024 40127 84200 333 20223 58010 69924;EQDQ01  00002PRCP24
0182823920999992008051118004-03700-040350FM-12+008399999V0201801N000510450019N0500001N1+02531+02441100951ADDAA106003091AY161061AY261061GF107991041061004501021001MA1999999099921MD1999999+0171MW1201REMSYN082AAXX  11184 82392 21499 71801 10253 20244 39992 40095 72066 84620 333 58017 60031;
0168823920999992008051200004-03700-040350FM-12+008399999V0209999C000010450019N0040001N1+02391+02351101141ADDGF105991021021004501011001KA1240M+03031MA1999999100111MD1999999+0071REMSYN088AAXX  12004 82392 32496 51800 10239 20235 30011 40114 82210 333 10303 29094 55042 58007;
0173823920999992008051212004-03700-040350FM-12+008399999V0201801N002612200019N0500001N1+02641+02231101251ADDAA124003091GF103991021011004501031001KA1240N+02221MA1999999100221MD1999999-0021REMSYN082AAXX  12124 82392 22499 31805 10264 20223 30022 40125 82130 333 20222 59002 60034;
0137823920999992008051218004-03700-040350FM-12+008399999V0201801N000510042019N0500001N1+02981+02061100981ADDGF107991051041004501031001MA1999999099961MD1999999+0041REMSYN070AAXX  12184 82392 32499 71801 10298 20206 39996 40098 85430 333 58004;
0168823920999992008051300004-03700-040350FM-12+008399999V0209999C000011050019N0040001N1+02491+02411101241ADDGF108991021011004501001071KA1240M+03061MA1999999100221MD1999999+0111REMSYN088AAXX  13004 82392 32496 80000 10249 20241 30022 40124 82107 333 10306 29082 55066 58011;
0201823920999992008051312004-03700-040350FM-12+008399999V0202301N002110042019N0500001N1+02461+02051101311ADDAA124002091AY161061AY221061GF107991051051004501031001KA1240N+02231MA1999999100281MD1999999+0061MW1021REMSYN088AAXX  13124 82392 21499 72304 10246 20205 30028 40131 70262 85530 333 20223 58006 60024;
0168823920999992008051400004-03700-040350FM-12+008399999V0209999C000010450019N0040001N1+02371+02281101291ADDGF107991031021004501031001KA1240M+02781MA1999999100261MD1999999+0041REMSYN088AAXX  14004 82392 32496 70000 10237 20228 30026 40129 83230 333 10278 29086 55007 58004;
0156823920999992008051412004-03700-040350FM-12+008399999V0201801N002110450019N0500001N1+02621+02271101231ADDGF106991031041004501031001KA1240N+02281MA1999999100201MD1999999-0081REMSYN076AAXX  14124 82392 32499 61804 10262 20227 30020 40123 83430 333 20228 59008;
0137823920999992008051418004-03700-040350FM-12+008399999V0201801N001010450019N0500001N1+02881+02031100941ADDGF107991041051004501031001MA1999999099921MD1999999-0131REMSYN070AAXX  14184 82392 32499 71802 10288 20203 39992 40094 84530 333 59013;
0168823920999992008051500004-03700-040350FM-12+008399999V0209999C000010450019N0040001N1+02511+02331101221ADDGF106991031051004501011001KA1240M+02971MA1999999100191MD1999999-0071REMSYN088AAXX  15004 82392 32496 60000 10251 20233 30019 40122 83510 333 10297 29083 55034 59007;
0220823920999992008051512004-03700-040350FM-12+008399999V0209999C000010042019N0500001N1+02531+02291101401ADDAA124000091AY151061AY251061GF107991051061004501031001KA1240N+02311MA1999999100371MD1999999+0171MW1021REMSYN088AAXX  15124 82392 21499 70000 10253 20229 30037 40140 70255 85630 333 20231 58017 69924;EQDQ01  00002PRCP24
0137823920999992008051518004-03700-040350FM-12+008399999V0201801N000510450019N0500001N1+02941+02111101091ADDGF106991031021004501031011MA1999999100071MD1999999+0151REMSYN070AAXX  15184 82392 32499 61801 10294 20211 30007 40109 83231 333 58015;
0156823920999992008051612004-03700-040350FM-12+008399999V0201801N001012200019N0500001N1+02641+02181101301ADDGF103991031011004501001001KA1240N+02141MA1999999100271MD1999999-0101REMSYN076AAXX  16124 82392 32499 31802 10264 20218 30027 40130 83100 333 20214 59010;
0137823920999992008051618004-03700-040350FM-12+008399999V0209999C000011050019N0500001N1+02971+02331100951ADDGF105991021021004501031011MA1999999099911MD1999999-0141REMSYN070AAXX  16184 82392 32499 50900 10297 20233 39991 40095 82231 333 59014;
0213823920999992008051700004-03700-040350FM-12+008399999V0200501N001010450019N0040001N1+02481+02411101321ADDAA106000021AY121061AY251061GF106991041061004501011001KA1240M+03101MA1999999100301MD1999999+0051MW1201REMSYN100AAXX  17004 82392 21496 60502 10248 20241 30030 40132 72025 84610 333 10310 29084 55098 58005 69921;
0173823920999992008051712004-03700-040350FM-12+008399999V0209999C000010042019N0500001N1+02511+02431101331ADDAA124000021GF107991051061004501031001KA1240N+02191MA1999999100301MD1999999+0031REMSYN082AAXX  17124 82392 22499 72300 10251 20243 30030 40133 85630 333 20219 58003 69924;
0137823920999992008051718004-03700-040350FM-12+008399999V0202701N000510450019N0500001N1+02801+02421100951ADDGF106991041061004501031011MA1999999099921MD1999999-0011REMSYN070AAXX  17184 82392 32499 62701 10280 20242 39992 40095 84631 333 59001;
0201823920999992008051812004-03700-040350FM-12+008399999V0201801N001010450019N0020001N1+02441+02371101451ADDAA124015091AY161061AY261061GF106991041051004501031001KA1240N+02281MA1999999100421MD1999999+0121MW1021REMSYN088AAXX  18124 82392 21495 61802 10244 20237 30042 40145 70266 84530 333 20228 58012 60154;
0137823920999992008051818004-03700-040350FM-12+008399999V0201401N001012200019N0500001N1+02921+02061100981ADDGF104991031041004501031001MA1999999099961MD1999999+0041REMSYN070AAXX  18184 82392 32499 41402 10292 20206 39996 40098 83430 333 58004;
0156823920999992008051912004-03700-040350FM-12+008399999V0201401N002112200019N0500001N1+02701+02131101251ADDGF102991021011004501001001KA1240N+02121MA1999999100231MD1999999-0191REMSYN076AAXX  19124 82392 32499 21404 10270 20213 30023 40125 82100 333 20212 59019;
0137823920999992008051918004-03700-040350FM-12+008399999V0200901N001512200019N0500001N1+03081+01851100871ADDGF103991031021004501001001MA1999999099851MD1999999-0111REMSYN070AAXX  19184 82392 32499 30903 10308 20185 39985 40087 83200 333 59011;
0137823920999992008052018004-03700-040350FM-12+008399999V0209999C000012200019N0500001N1+03061+02111100821ADDGF103991021011004501001011MA1999999099801MD1999999-0051REMSYN070AAXX  20184 82392 32499 30000 10306 20211 39980 40082 82101 333 59005;
0168823920999992008052100004-03700-040350FM-12+008399999V0200901N000510450019N0040001N1+02491+02341101061ADDGF105991021011008001031001KA1240M+03141MA1999999100031MD1999999-0091REMSYN088AAXX  21004 82392 32596 50901 10249 20234 30003 40106 82130 333 10314 29080 55108 59009;
0137823920999992008052118004-03700-040350FM-12+008399999V0200501N004110042019N0500001N1+02641+02461100931ADDGF108991051071004501021001MA1999999099901MD1999999+0101REMSYN070AAXX  21184 82392 32499 80508 10264 20246 39990 40093 85720 333 58010;
0213823920999992008052200004-03700-040350FM-12+008399999V0209999C000010450019N0040001N1+02261+02211101091ADDAA106000591AY161061AY261061GF107991041061004501011001KA1240M+03061MA1999999100061MD1999999+0031MW1021REMSYN100AAXX  22004 82392 21496 70900 10226 20221 30006 40109 70266 84610 333 10306 29091 55056 58003 69941;
0137823920999992008052218004-03700-040350FM-12+008399999V0209999C000012200019N0500001N1+02911+02321100861ADDGF102991011061004501001011MA1999999099831MD1999999-0071REMSYN070AAXX  22184 82392 32499 21400 10291 20232 39983 40086 81601 333 59007;
0168823920999992008052300004-03700-040350FM-12+008399999V0200501N002110450019N0040001N1+02501+02431101131ADDGF106991031021004501031001KA1240M+03141MA1999999100101MD1999999+0041REMSYN088AAXX  23004 82392 32496 60504 10250 20243 30010 40113 83230 333 10314 29089 55079 58004;
0156823920999992008052312004-03700-040350FM-12+008399999V0202301N000512200019N0500001N1+02581+02231101171ADDGF104991021011004501031001KA1240N+02231MA1999999100141MD1999999-0071REMSYN076AAXX  23124 82392 32499 42301 10258 20223 30014 40117 82130 333 20223 59007;
0137823920999992008052318004-03700-040350FM-12+008399999V0202701N000512200019N0500001N1+02961+02381100831ADDGF106991031021004501001011MA1999999099811MD1999999-0021REMSYN070AAXX  23184 82392 32499 62701 10296 20238 39981 40083 83201 333 59002;
0168823920999992008052400004-03700-040350FM-12+008399999V0203601N001512200019N0040001N1+02441+02341101111ADDGF101991011001008001031001KA1240M+03091MA1999999100081MD1999999-0021REMSYN088AAXX  24004 82392 32596 13603 10244 20234 30008 40111 81030 333 10309 29085 55065 59002;
0156823920999992008052412004-03700-040350FM-12+008399999V0201801N002612200019N0500001N1+02621+02231101211ADDGF103991021011004501011001KA1240N+02121MA1999999100181MD1999999+0041REMSYN076AAXX  24124 82392 32499 31805 10262 20223 30018 40121 82110 333 20212 58004;
0137823920999992008052418004-03700-040350FM-12+008399999V0209999C000010450019N0500001N1+03121+01891100871ADDGF106991041021004501031001MA1999999099851MD1999999+0041REMSYN070AAXX  24184 82392 32499 60000 10312 20189 39985 40087 84230 333 58004;
0156823920999992008052512004-03700-040350FM-12+008399999V0200901N001010450019N0500001N1+02731+02381101151ADDGF106991031041004501031011KA1240N+02191MA1999999100131MD1999999-0051REMSYN076AAXX  25124 82392 32499 60902 10273 20238 30013 40115 83431 333 20219 59005;
0157823920999992008052518004-03700-040350FM-12+008399999V0200501N001012200019N0500001N1+03031+02411999999ADDGF103991011021004501031011MD1999999-0121REMSYN070AAXX  25184 82392 32499 30502 10303 20241 39913 40015 81231 333 59012;EQDQ01+099133APOSP Q02+100153APOSLP
0213823920999992008052600004-03700-040350FM-12+008399999V0202301N001012200019N0040001N1+02271+02231100991ADDAA106007191AY161061AY261061GF102991021061004501001001KA1240M+03081MA1999999099961MD1999999-0081MW1021REMSYN100AAXX  26004 82392 21496 22302 10227 20223 39996 40099 70266 82600 333 10308 29086 55081 59008 60071;
0173823920999992008052612004-03700-040350FM-12+008399999V0202301N000512200019N0500001N1+02541+02441101161ADDAA124007191GF104991041021004501001001KA1240N+02041MA1999999100131MD1999999+0001REMSYN082AAXX  26124 82392 22499 42301 10254 20244 30013 40116 84200 333 20204 58000 60074;
0137823920999992008052618004-03700-040350FM-12+008399999V0201801N001012200019N0500001N1+03141+01911100871ADDGF104991021021004501031001MA1999999099851MD1999999+0121REMSYN070AAXX  26184 82392 32499 41802 10314 20191 39985 40087 82230 333 58012;
0168823920999992008052700004-03700-040350FM-12+008399999V0203601N000512200019N0040001N1+02531+02401101041ADDGF104991021021004501031001KA1240M+03191MA1999999100011MD1999999+0051REMSYN088AAXX  27004 82392 32496 43601 10253 20240 30001 40104 82230 333 10319 29082 55103 58005;
0156823920999992008052718004-03700-040350FM-12+008399999V0209999C000019999999N0500001N1+03091+01771100781ADDGF106991999011004501001001MA1999999099761MD1999999-0091REMSYN070AAXX  27184 82392 32499 60000 10309 20177 39976 40078 84100 333 59009;EQDQ01+000042SCOTLC
0173823920999992008052812004-03700-040350FM-12+008399999V0201801N002110450019N0500001N1+02601+02251101191ADDAA124032091GF107991041051004501011001KA1240N+02201MA1999999100161MD1999999-0041REMSYN082AAXX  28124 82392 22499 71804 10260 20225 30016 40119 84510 333 20220 59004 60324;
0137823920999992008052818004-03700-040350FM-12+008399999V0200501N002610450019N0500001N1+02961+01191100801ADDGF105991031021004501031001MA1999999099781MD1999999+0021REMSYN070AAXX  28184 82392 32499 50505 10296 20119 39978 40080 83230 333 58002;
0156823920999992008052912004-03700-040350FM-12+008399999V0201401N000510450019N0500001N1+02641+02231101121ADDGF106991011011004501031001KA1240N+02241MA1999999100091MD1999999-0071REMSYN076AAXX  29124 82392 32499 61401 10264 20223 30009 40112 81130 333 20224 59007;
0137823920999992008052918004-03700-040350FM-12+008399999V0200901N001012200019N0500001N1+03011+02101100781ADDGF106991031021004501001011MA1999999099761MD1999999-0021REMSYN070AAXX  29184 82392 32499 60902 10301 20210 39976 40078 83201 333 59002;
0168823920999992008053000004-03700-040350FM-12+008399999V0201401N002112200019N0040001N1+02601+02191101161ADDGF102991021001004501031001KA1240M+03061MA1999999100141MD1999999+0101REMSYN088AAXX  30004 82392 32496 21404 10260 20219 30014 40116 82030 333 10306 29073 55077 58010;
0156823920999992008053012004-03700-040350FM-12+008399999V0201801N001510450019N0500001N1+02641+02331101281ADDGF106991041021004501031001KA1240N+02201MA1999999100261MD1999999+0171REMSYN076AAXX  30124 82392 32499 61803 10264 20233 30026 40128 84230 333 20220 58017;
0137823920999992008053018004-03700-040350FM-12+008399999V0200901N000510450019N0500001N1+03081+02441100841ADDGF106991041061004501031001MA1999999099821MD1999999+0061REMSYN070AAXX  30184 82392 32499 60901 10308 20244 39982 40084 84630 333 58006;
0168823920999992008053100004-03700-040350FM-12+008399999V0200501N000512200019N0040001N1+02501+02411101191ADDGF104991041021004501001001KA1240M+03121MA1999999100171MD1999999+0031REMSYN088AAXX  31004 82392 32496 40501 10250 20241 30017 40119 84200 333 10312 29086 55058 58003;
0201823920999992008053112004-03700-040350FM-12+008399999V0201801N001010450019N0500001N1+02731+02321101311ADDAA124000591AY161061AY261061GF105991031021004501031011KA1240N+02311MA1999999100291MD1999999+0031MW1021REMSYN088AAXX  31124 82392 21499 51802 10273 20232 30029 40131 70266 83231 333 20231 58003 69964;
0137823920999992008053118004-03700-040350FM-12+008399999V0200501N000510450019N0500001N1+02891+02461100931ADDGF106991031061004501011011MA1999999099911MD1999999+0091REMSYN070AAXX  31184 82392 32499 60501 10289 20246 39991 40093 83611 333 58009;
0168823920999992008060100004-03700-040350FM-12+008399999V0201401N000512200019N0040001N1+02471+02291101251ADDGF102991011021004501011001KA1240M+03121MA1999999100231MD1999999+0061REMSYN088AAXX  01004 82392 32496 21401 10247 20229 30023 40125 81210 333 10312 29083 55078 58006;
0156823920999992008060112004-03700-040350FM-12+008399999V0201801N000512200019N0500001N1+02661+02111101341ADDGF102991011011004501001011KA1240N+02201MA1999999100321MD1999999+0031REMSYN076AAXX  01124 82392 32499 21801 10266 20211 30032 40134 81101 333 20220 58003;
0156823920999992008060212004-03700-040350FM-12+008399999V0201801N001012200019N0500001N1+02441+02131101381ADDGF104991041021004501001001KA1240N+02081MA1999999100351MD1999999+0031REMSYN076AAXX  02124 82392 32499 41802 10244 20213 30035 40138 84200 333 20208 58003;
0137823920999992008060218004-03700-040350FM-12+008399999V0200901N002112200019N0500001N1+02941+01621100971ADDGF104991021021004501031001MA1999999099941MD1999999-0061REMSYN070AAXX  02184 82392 32499 40904 10294 20162 39994 40097 82230 333 59006;
0168823920999992008060300004-03700-040350FM-12+008399999V0209999C000010042019N0040001N1+02471+02291101231ADDGF108991051041004501021999KA1240M+03061MA1999999100201MD1999999-0101REMSYN088AAXX  03004 82392 32496 80000 10247 20229 30020 40123 8542/ 333 10306 29077 55059 59010;
0156823920999992008060312004-03700-040350FM-12+008399999V0201801N002110450019N0500001N1+02701+02111101441ADDGF106991041021004501031001KA1240N+02201MA1999999100421MD1999999+0071REMSYN076AAXX  03124 82392 32499 61804 10270 20211 30042 40144 84230 333 20220 58007;
0168823920999992008060400004-03700-040350FM-12+008399999V0200501N000512200019N0040001N1+02391+02261101281ADDGF102991021001008001031001KA1240M+03141MA1999999100261MD1999999+0061REMSYN088AAXX  04004 82392 32596 20501 10239 20226 30026 40128 82030 333 10314 29080 55059 58006;
0156823920999992008060412004-03700-040350FM-12+008399999V0201401N001010450019N0500001N1+02401+02331101371ADDGF106991031041004501031001KA1240N+02061MA1999999100351MD1999999-0071REMSYN076AAXX  04124 82392 32499 61402 10240 20233 30035 40137 83430 333 20206 59007;
0137823920999992008060418004-03700-040350FM-12+008399999V0200501N000510450019N0500001N1+03061+01871101001ADDGF105991031021004501031001MA1999999099981MD1999999-0021REMSYN070AAXX  04184 82392 32499 50501 10306 20187 39998 40100 83230 333 59002;
0213823920999992008060500004-03700-040350FM-12+008399999V0200901N000510042019N0040001N1+02501+02381101351ADDAA106000021AY101061AY231061GF107991051061004501031001KA1240M+03061MA1999999100321MD1999999+0061MW1511REMSYN100AAXX  05004 82392 21496 70901 10250 20238 30032 40135 75103 85630 333 10306 29083 55078 58006 69911;
0173823920999992008060512004-03700-040350FM-12+008399999V0209999C000010042019N0500001N1+02471+02381101471ADDAA124000021GF107991051061004501031001KA1240N+02161MA1999999100441MD1999999+0091REMSYN082AAXX  05124 82392 22499 71800 10247 20238 30044 40147 85630 333 20216 58009 69914;
0137823920999992008060518004-03700-040350FM-12+008399999V0200901N001010450019N0500001N1+02961+02261101021ADDGF106991021021004501041011MA1999999100001MD1999999+0021REMSYN070AAXX  05184 82392 32499 60902 10296 20226 30000 40102 82241 333 58002;
0156823920999992008060612004-03700-040350FM-12+008399999V0201401N000510450019N0500001N1+02421+02261101381ADDGF108991041051004501011001KA1240N+02151MA1999999100351MD1999999-0091REMSYN076AAXX  06124 82392 32499 81401 10242 20226 30035 40138 84510 333 20215 59009;
0137823920999992008060618004-03700-040350FM-12+008399999V0202301N000510450019N0500001N1+03031+02361100991ADDGF106991031061004501011001MA1999999099971MD1999999-0031REMSYN070AAXX  06184 82392 32499 62301 10303 20236 39997 40099 83610 333 59003;
0156823920999992008060712004-03700-040350FM-12+008399999V0201801N000512200019N0500001N1+02641+02271101331ADDGF104991041021004501001001KA1240N+02171MA1999999100301MD1999999-0051REMSYN076AAXX  07124 82392 32499 41801 10264 20227 30030 40133 84200 333 20217 59005;
0137823920999992008060718004-03700-040350FM-12+008399999V0200501N000510450019N0500001N1+02861+02391100991ADDGF106991031021004501031001MA1999999099971MD1999999+0001REMSYN070AAXX  07184 82392 32499 60501 10286 20239 39997 40099 83230 333 59000;
0178823920999992008060800004-03700-040350FM-12+008399999V0201801N001012200019N0040001N1+02381+02291101221ADDGA1001+999999999GF100991001001999999001001KA1240M+03001MA1999999100191MD1999999-0031REMSYN082AAXX  08004 82392 32996 01802 10238 20229 30019 40122 333 10300 29086 55047 59003;
0156823920999992008060812004-03700-040350FM-12+008399999V0201401N000510450019N0500001N1+02561+02171101201ADDGF105991031021004501031001KA1240N+02091MA1999999100171MD1999999-0131REMSYN076AAXX  08124 82392 32499 51401 10256 20217 30017 40120 83230 333 20209 59013;
0137823920999992008060818004-03700-040350FM-12+008399999V0200901N001010450019N0500001N1+02821+02241100981ADDGF108991041061004501021999MA1999999099951MD1999999-0021REMSYN070AAXX  08184 82392 32499 80902 10282 20224 39995 40098 8462/ 333 59002;
0168823920999992008060900004-03700-040350FM-12+008399999V0209999C000010450019N0040001N1+02341+02221101261ADDGF108991041061004501021999KA1240M+03061MA1999999100231MD1999999+0041REMSYN088AAXX  09004 82392 32496 80500 10234 20222 30023 40126 8462/ 333 10306 29084 55050 58004;
0201823920999992008060912004-03700-040350FM-12+008399999V0201801N001012200019N0500001N1+02461+02151101191ADDAA124002091AY161061AY221061GF103991031021004501001001KA1240N+02061MA1999999100161MD1999999-0011MW1021REMSYN088AAXX  09124 82392 21499 31802 10246 20215 30016 40119 70262 83200 333 20206 59001 60024;
0201823920999992008060918004-03700-040350FM-12+008399999V0201801N001010042019N0500001N1+02921+02191101011ADDAA106000091AY151061AY221061GF107991051021004501031011MA1999999099981MD1999999+0031MW1021REMSYN082AAXX  09184 82392 21499 71802 10292 20219 39998 40101 70252 85231 333 58003 69901;EQDQ01  00002PRCP06
0168823920999992008061000004-03700-040350FM-12+008399999V0209999C000010450019N0040001N1+02471+02381101211ADDGF106991031021004501031001KA1240M+02981MA1999999100181MD1999999-0051REMSYN088AAXX  10004 82392 32496 60900 10247 20238 30018 40121 83230 333 10298 29084 55051 59005;
0192823920999992008061012004-03700-040350FM-12+008399999V0201801N001510450019N0500001N1+02601+02191101251ADDAA124000091GF106991031021004501031001KA1240N+02231MA1999999100221MD1999999+0061REMSYN082AAXX  10124 82392 22499 61803 10260 20219 30022 40125 83230 333 20223 58006 69914;EQDQ01  00002PRCP24
0137823920999992008061018004-03700-040350FM-12+008399999V0200901N000510450019N0500001N1+02911+02291100961ADDGF106991021021004501031001MA1999999099941MD1999999-0041REMSYN070AAXX  10184 82392 32499 60901 10291 20229 39994 40096 82230 333 59004;
0168823920999992008061100004-03700-040350FM-12+008399999V0209999C000010450019N0040001N1+02441+02111101231ADDGF105991011011004501031001KA1240M+03041MA1999999100201MD1999999+0021REMSYN088AAXX  11004 82392 32496 50000 10244 20211 30020 40123 81130 333 10304 29078 55024 58002;
0156823920999992008061112004-03700-040350FM-12+008399999V0203601N000510450019N0500001N1+02561+02291101261ADDGF106991041021004501031001KA1240N+02191MA1999999100231MD1999999+0011REMSYN076AAXX  11124 82392 32499 63601 10256 20229 30023 40126 84230 333 20219 58001;
0137823920999992008061118004-03700-040350FM-12+008399999V0200901N002110450019N0500001N1+03121+02111100971ADDGF106991041041004501031001MA1999999099951MD1999999+0011REMSYN070AAXX  11184 82392 32499 60904 10312 20211 39995 40097 84430 333 58001;
0168823920999992008061200004-03700-040350FM-12+008399999V0209999C000010450019N0040001N1+02531+02231101191ADDGF108991031061004501031999KA1240M+03181MA1999999100171MD1999999-0031REMSYN088AAXX  12004 82392 32496 80000 10253 20223 30017 40119 8363/ 333 10318 29077 55065 59003;
0156823920999992008061212004-03700-040350FM-12+008399999V0201401N000512200019N0500001N1+02791+02221101301ADDGF103991011011004501031001KA1240N+02271MA1999999100281MD1999999+0051REMSYN076AAXX  12124 82392 32499 31401 10279 20222 30028 40130 81130 333 20227 58005;
0137823920999992008061218004-03700-040350FM-12+008399999V0209999C000010450019N0500001N1+03141+02131100921ADDGF106991021021004501031001MA1999999099901MD1999999-0051REMSYN070AAXX  12184 82392 32499 60000 10314 20213 39990 40092 82230 333 59005;
0168823920999992008061300004-03700-040350FM-12+008399999V0209999C000010450019N0040001N1+02521+02381101221ADDGF105991041041004501031001KA1240M+03181MA1999999100201MD1999999+0031REMSYN088AAXX  13004 82392 32496 50000 10252 20238 30020 40122 84430 333 10318 29078 55071 58003;
0156823920999992008061312004-03700-040350FM-12+008399999V0202301N001010450019N0500001N1+02601+02461101301ADDGF107991031051004501011001KA1240N+02311MA1999999100281MD1999999+0001REMSYN076AAXX  13124 82392 32499 72302 10260 20246 30028 40130 83510 333 20231 58000;
0137823920999992008061318004-03700-040350FM-12+008399999V0209999C000010450019N0500001N1+03031+02201100891ADDGF106991021051004501031011MA1999999099871MD1999999-0031REMSYN070AAXX  13184 82392 32499 62700 10303 20220 39987 40089 82531 333 59003;
0168823920999992008061400004-03700-040350FM-12+008399999V0200501N002612200019N0040001N1+02421+02351101191ADDGF104991021011004501031001KA1240M+03181MA1999999100161MD1999999-0041REMSYN088AAXX  14004 82392 32496 40505 10242 20235 30016 40119 82130 333 10318 29086 55044 59004;
0156823920999992008061412004-03700-040350FM-12+008399999V0201801N000512200019N0500001N1+02511+02361101201ADDGF104991041021004501001001KA1240N+02171MA1999999100171MD1999999-0111REMSYN076AAXX  14124 82392 32499 41801 10251 20236 30017 40120 84200 333 20217 59011;
0168823920999992008061500004-03700-040350FM-12+008399999V0200501N000512200019N0040001N1+02391+02301101141ADDGF102991021001004501031001KA1240M+03261MA1999999100111MD1999999-0051REMSYN088AAXX  15004 82392 32496 20501 10239 20230 30011 40114 82030 333 10326 29083 55072 59005;
0156823920999992008061512004-03700-040350FM-12+008399999V0200901N001010450019N0500001N1+02541+02331101371ADDGF106991041041004501031001KA1240N+02121MA1999999100341MD1999999+0171REMSYN076AAXX  15124 82392 32499 60902 10254 20233 30034 40137 84430 333 20212 58017;
0137823920999992008061518004-03700-040350FM-12+008399999V0200501N000510450019N0500001N1+03001+02141101001ADDGF105991041021004501031001MA1999999099981MD1999999+0181REMSYN070AAXX  15184 82392 32499 50501 10300 20214 39998 40100 84230 333 58018;
0168823920999992008061600004-03700-040350FM-12+008399999V0203601N000512200019N0040001N1+02401+02261101331ADDGF102991021011004501031001KA1240M+03141MA1999999100301MD1999999+0191REMSYN088AAXX  16004 82392 32496 23601 10240 20226 30030 40133 82130 333 10314 29083 55034 58019;
0175823920999992008061612004-03700-040350FM-12+008399999V0202301N001012200019N0500001N1+02641+02231101431ADDGF104991999021004501001001KA1240N+02041MA1999999100401MD1999999+0061REMSYN076AAXX  16124 82392 32499 42302 10264 20223 30040 40143 82200 333 20204 58006;EQDQ01+000022SCOTLC
0137823920999992008061618004-03700-040350FM-12+008399999V0202701N001012200019N0500001N1+03101+02091101061ADDGF104991041021004501001001MA1999999100041MD1999999+0061REMSYN070AAXX  16184 82392 32499 42702 10310 20209 30004 40106 84200 333 58006;
0168823920999992008061700004-03700-040350FM-12+008399999V0203601N000512200019N0500001N1+02541+02381101221ADDGF104991011021004501031001KA1240M+03221MA1999999100201MD1999999-0101REMSYN088AAXX  17004 82392 32499 43601 10254 20238 30020 40122 81230 333 10322 29079 55080 59010;
0156823920999992008061712004-03700-040350FM-12+008399999V0202301N002112200019N0500001N1+02701+02131101321ADDGF103991031021004501001001KA1240N+02081MA1999999100301MD1999999-0101REMSYN076AAXX  17124 82392 32499 32304 10270 20213 30030 40132 83200 333 20208 59010;
0137823920999992008061718004-03700-040350FM-12+008399999V0209999C000010450019N0500001N1+03071+02191100891ADDGF106991031061004501031001MA1999999099871MD1999999-0171REMSYN070AAXX  17184 82392 32499 60900 10307 20219 39987 40089 83630 333 59017;
0168823920999992008061800004-03700-040350FM-12+008399999V0203601N000512200019N0040001N1+02471+02341101131ADDGF102991011021004501031001KA1240M+03221MA1999999100101MD1999999-0101REMSYN088AAXX  18004 82392 32496 23601 10247 20234 30010 40113 81230 333 10322 29078 55088 59010;
0201823920999992008061812004-03700-040350FM-12+008399999V0200901N002610450019N0500001N1+02601+02191101311ADDAA124000391AY161061AY221061GF107991031041004501031001KA1240N+02301MA1999999100281MD1999999-0021MW1021REMSYN088AAXX  18124 82392 21499 70905 10260 20219 30028 40131 70262 83430 333 20230 59002 69934;
0137823920999992008061818004-03700-040350FM-12+008399999V0200901N001010450019N0500001N1+03081+02191100981ADDGF105991031021004501031001MA1999999099961MD1999999+0141REMSYN070AAXX  18184 82392 32499 50902 10308 20219 39996 40098 83230 333 58014;
0168823920999992008061900004-03700-040350FM-12+008399999V0200901N000512200019N0040001N1+02401+02091101111ADDGF101991011001008001031001KA1240M+03131MA1999999100081MD1999999-0021REMSYN088AAXX  19004 82392 32596 10901 10240 20209 30008 40111 81030 333 10313 29076 55056 59002;
0156823920999992008061912004-03700-040350FM-12+008399999V0201401N000512200019N0500001N1+02731+02241101211ADDGF102991011011004501011001KA1240N+02061MA1999999100191MD1999999-0091REMSYN076AAXX  19124 82392 32499 21401 10273 20224 30019 40121 81110 333 20206 59009;
0137823920999992008061918004-03700-040350FM-12+008399999V0201401N000510450019N0500001N1+03161+02021100861ADDGF106991031021004501031001MA1999999099841MD1999999-0121REMSYN070AAXX  19184 82392 32499 61401 10316 20202 39984 40086 83230 333 59012;
0168823920999992008062000004-03700-040350FM-12+008399999V0201401N001012200019N0040001N1+02621+02051101041ADDGF102991021001008001031001KA1240M+03191MA1999999100021MD1999999-0061REMSYN088AAXX  20004 82392 32596 21402 10262 20205 30002 40104 82030 333 10319 29037 55077 59006;
0156823920999992008062012004-03700-040350FM-12+008399999V0201401N002112200019N0500001N1+02641+01981101221ADDGF101991011011004501001001KA1240N+02041MA1999999100201MD1999999+0011REMSYN076AAXX  20124 82392 32499 11404 10264 20198 30020 40122 81100 333 20204 58001;
0137823920999992008062018004-03700-040350FM-12+008399999V0201401N001512200019N0500001N1+03211+01911100911ADDGF104991041021004501001001MA1999999099891MD1999999+0051REMSYN070AAXX  20184 82392 32499 41403 10321 20191 39989 40091 84200 333 58005;
0178823920999992008062100004-03700-040350FM-12+008399999V0200501N000512200019N0040001N1+02481+01901101071ADDGA1001+999999999GF100991001001999999001001KA1240M+03261MA1999999100051MD1999999+0031REMSYN082AAXX  21004 82392 32996 00501 10248 20190 30005 40107 333 10326 29063 55105 58003;
0156823920999992008062112004-03700-040350FM-12+008399999V0201401N001512200019N0500001N1+02641+01901101301ADDGF101991011011004501001001KA1240N+01921MA1999999100281MD1999999+0081REMSYN076AAXX  21124 82392 32499 11403 10264 20190 30028 40130 81100 333 20192 58008;
0137823920999992008062118004-03700-040350FM-12+008399999V0200901N001010450019N0500001N1+03181+01771100891ADDGF105991031021004501031001MA1999999099871MD1999999-0021REMSYN070AAXX  21184 82392 32499 50902 10318 20177 39987 40089 83230 333 59002;
0168823920999992008062200004-03700-040350FM-12+008399999V0209999C000012200019N0040001N1+02281+01831101141ADDGF102991021001999999031001KA1240M+03221MA1999999100111MD1999999+0061REMSYN088AAXX  22004 82392 32996 20000 10228 20183 30011 40114 82030 333 10322 29065 55094 58006;
0156823920999992008062212004-03700-040350FM-12+008399999V0201801N000512200019N0500001N1+02371+01841101231ADDGF102991011011004501001011KA1240N+01641MA1999999100201MD1999999-0281REMSYN076AAXX  22124 82392 32499 21801 10237 20184 30020 40123 81101 333 20164 59028;
0137823920999992008062218004-03700-040350FM-12+008399999V0201801N000512200019N0500001N1+03341+01491100891ADDGF101991011011004501001001MA1999999099861MD1999999-0011REMSYN070AAXX  22184 82392 32499 11801 10334 20149 39986 40089 81100 333 59001;
0178823920999992008062300004-03700-040350FM-12+008399999V0203601N001512200019N0040001N1+02501+02211101161ADDGA1001+999999999GF100991001001999999001001KA1240M+03391MA1999999100131MD1999999+0021REMSYN082AAXX  23004 82392 32996 03603 10250 20221 30013 40116 333 10339 29068 55104 58002;
0156823920999992008062312004-03700-040350FM-12+008399999V0201401N001012200019N0500001N1+02661+02091101371ADDGF101991011011008001001001KA1240N+02051MA1999999100351MD1999999+0151REMSYN076AAXX  23124 82392 32599 11402 10266 20209 30035 40137 81100 333 20205 58015;
0137823920999992008062318004-03700-040350FM-12+008399999V0200501N000510450019N0500001N1+03081+02241100981ADDGF106991031021004501031001MA1999999099961MD1999999+0101REMSYN070AAXX  23184 82392 32499 60501 10308 20224 39996 40098 83230 333 58010;
0178823920999992008062400004-03700-040350FM-12+008399999V0203601N001012200019N0040001N1+02551+02291101301ADDGA1001+999999999GF100991001001999999001001KA1240M+03171MA1999999100281MD1999999+0151REMSYN082AAXX  24004 82392 32996 03602 10255 20229 30028 40130 333 10317 29076 55062 58015;
0156823920999992008062412004-03700-040350FM-12+008399999V0201401N001010450019N0500001N1+02701+02131101441ADDGF106991031041004501031001KA1240N+02021MA1999999100421MD1999999+0071REMSYN076AAXX  24124 82392 32499 61402 10270 20213 30042 40144 83430 333 20202 58007;
0137823920999992008062418004-03700-040350FM-12+008399999V0209999C000010450019N0500001N1+03161+02051100971ADDGF106991031021004501031001MA1999999099951MD1999999-0011REMSYN070AAXX  24184 82392 32499 60000 10316 20205 39995 40097 83230 333 59001;
0168823920999992008062500004-03700-040350FM-12+008399999V0203601N000510450019N0040001N1+02661+02181101211ADDGF106991041021004501031001KA1240M+03321MA1999999100191MD1999999-0091REMSYN088AAXX  25004 82392 32496 63601 10266 20218 30019 40121 84230 333 10332 29068 55082 59009;
0156823920999992008062512004-03700-040350FM-12+008399999V0201401N003112200019N0500001N1+02761+02041101371ADDGF102991021011004501001001KA1240N+02141MA1999999100351MD1999999-0071REMSYN076AAXX  25124 82392 32499 21406 10276 20204 30035 40137 82100 333 20214 59007;
0137823920999992008062518004-03700-040350FM-12+008399999V0200901N000512200019N0500001N1+03221+01881100931ADDGF104991041021004501001001MA1999999099911MD1999999-0041REMSYN070AAXX  25184 82392 32499 40901 10322 20188 39991 40093 84200 333 59004;
0178823920999992008062600004-03700-040350FM-12+008399999V0203601N000512200019N0040001N1+02531+02231101151ADDGA1001+999999999GF100991001001999999001001KA1240M+03371MA1999999100131MD1999999-0061REMSYN082AAXX  26004 82392 32996 03601 10253 20223 30013 40115 333 10337 29069 55103 59006;
0156823920999992008062612004-03700-040350FM-12+008399999V0201401N001512200019N0500001N1+02711+02051101261ADDGF102991011011004501031001KA1240N+01941MA1999999100241MD1999999-0111REMSYN076AAXX  26124 82392 32499 21403 10271 20205 30024 40126 81130 333 20194 59011;
0137823920999992008062618004-03700-040350FM-12+008399999V0209999C000012200019N0500001N1+03341+02021100881ADDGF104991031021004501011001MA1999999099861MD1999999-0051REMSYN070AAXX  26184 82392 32499 40000 10334 20202 39986 40088 83210 333 59005;
0178823920999992008062700004-03700-040350FM-12+008399999V0203601N001012200019N0040001N1+02601+02011101221ADDGA1001+999999999GF100991001001999999001001KA1240M+03411MA1999999100201MD1999999+0071REMSYN082AAXX  27004 82392 32996 03602 10260 20201 30020 40122 333 10341 29063 55086 58007;
0156823920999992008062712004-03700-040350FM-12+008399999V0201401N000510450019N0500001N1+02521+02051101441ADDGF106991031021004501031001KA1240N+01941MA1999999100421MD1999999+0181REMSYN076AAXX  27124 82392 32499 61401 10252 20205 30042 40144 83230 333 20194 58018;
0137823920999992008062718004-03700-040350FM-12+008399999V0209999C000010450019N0500001N1+03331+01801101111ADDGF107991031041004501031001MA1999999100091MD1999999+0231REMSYN070AAXX  27184 82392 32499 70000 10333 20180 30009 40111 83430 333 58023;
0168823920999992008062800004-03700-040350FM-12+008399999V0209999C000012200019N0040001N1+02641+02071101391ADDGF102991021001008001031001KA1240M+03381MA1999999100371MD1999999+0171REMSYN088AAXX  28004 82392 32596 20000 10264 20207 30037 40139 82030 333 10338 29064 55029 58017;
0156823920999992008062812004-03700-040350FM-12+008399999V0201801N000510450019N0500001N1+02631+01851101581ADDGF107991011011004501031001KA1240N+02201MA1999999100551MD1999999+0131REMSYN076AAXX  28124 82392 32499 71801 10263 20185 30055 40158 81130 333 20220 58013;
0137823920999992008062818004-03700-040350FM-12+008399999V0200901N000510042019N0500001N1+03001+01911101241ADDGF108991051061004501011001MA1999999100221MD1999999+0131REMSYN070AAXX  28184 82392 32499 80901 10300 20191 30022 40124 85610 333 58013;
0178823920999992008062900004-03700-040350FM-12+008399999V0200901N000512200019N0040001N1+02371+01971101501ADDGA1001+999999999GF100991001001999999001001KA1240M+03041MA1999999100461MD1999999+0091REMSYN082AAXX  29004 82392 32996 00901 10237 20197 30046 40150 333 10304 29068 55007 58009;
0156823920999992008062912004-03700-040350FM-12+008399999V0201401N001010450019N0500001N1+02521+02091101601ADDGF106991031041004501031001KA1240N+02041MA1999999100561MD1999999+0011REMSYN076AAXX  29124 82392 32499 61402 10252 20209 30056 40160 83430 333 20204 58001;
0137823920999992008062918004-03700-040350FM-12+008399999V0201801N001010450019N0500001N1+03081+01951101221ADDGF107991041021004501031001MA1999999100201MD1999999-0021REMSYN070AAXX  29184 82392 32499 71802 10308 20195 30020 40122 84230 333 59002;
0178823920999992008063000004-03700-040350FM-12+008399999V0201401N001012200019N0040001N1+02501+01911101431ADDGA1001+999999999GF100991001001999999001001KA1240M+03131MA1999999100401MD1999999-0061REMSYN082AAXX  30004 82392 32996 01402 10250 20191 30040 40143 333 10313 29020 55067 59006;
0156823920999992008063012004-03700-040350FM-12+008399999V0201401N001512200019N0500001N1+02701+02081101491ADDGF101991011011004501001001KA1240N+02041MA1999999100461MD1999999-0101REMSYN076AAXX  30124 82392 32499 11403 10270 20208 30046 40149 81100 333 20204 59010;
0137823920999992008063018004-03700-040350FM-12+008399999V0201801N001010450019N0500001N1+03321+01741101141ADDGF106991031021004501031001MA1999999100121MD1999999-0081REMSYN070AAXX  30184 82392 32499 61802 10332 20174 30012 40114 83230 333 59008;
0168823920999992008070100004-03700-040350FM-12+008399999V0203601N001012200019N0040001N1+02671+02111101351ADDGF104991041021004501001001KA1240M+03401MA1999999100331MD1999999-0071REMSYN088AAXX  01004 82392 32496 43602 10267 20211 30033 40135 84200 333 10340 29063 55101 59007;
0175823920999992008070112004-03700-040350FM-12+008399999V0201401N000519999999N0500001N1+02741+02021101481ADDGF106991999021004501001001KA1240N+02281MA1999999100461MD1999999+0001REMSYN076AAXX  01124 82392 32499 61401 10274 20202 30046 40148 84200 333 20228 58000;EQDQ01+000042SCOTLC
0201823920999992008070212004-03700-040350FM-12+008399999V0201401N002610450019N0500001N1+02481+02361101581ADDAA124003091AY161061AY261061GF106991041041004501031001KA1240N+02241MA1999999100541MD1999999+0081MW1021REMSYN088AAXX  02124 82392 21499 61405 10248 20236 30054 40158 70266 84430 333 20224 58008 60034;
0168823920999992008070300004-03700-040350FM-12+008399999V0201401N000510450019N0040001N1+02591+01971101391ADDGF105991031021004501011001KA1240M+03211MA1999999100361MD1999999-0031REMSYN088AAXX  03004 82392 32496 51401 10259 20197 30036 40139 83210 333 10321 29077 55039 59003;
0156823920999992008070312004-03700-040350FM-12+008399999V0201801N001012200019N0500001N1+02691+01911101411ADDGF101991011011004501001001KA1240N+02041MA1999999100391MD1999999-0151REMSYN076AAXX  03124 82392 32499 11802 10269 20191 30039 40141 81100 333 20204 59015;
0156823920999992008070412004-03700-040350FM-12+008399999V0201401N001012200019N0500001N1+02761+01941101361ADDGF101991011001008001031001KA1240N+02041MA1999999100341MD1999999-0051REMSYN076AAXX  04124 82392 32599 11402 10276 20194 30034 40136 81030 333 20204 59005;
0168823920999992008070500004-03700-040350FM-12+008399999V0203601N000512200019N0040001N1+02591+02211101221ADDGF102991011011004501031001KA1240M+03461MA1999999100201MD1999999-0041REMSYN088AAXX  05004 82392 32496 23601 10259 20221 30020 40122 81130 333 10346 29073 55093 59004;
0156823920999992008070512004-03700-040350FM-12+008399999V0201401N001010450019N0500001N1+02731+02171101221ADDGF106991021011004501031001KA1240N+02081MA1999999100201MD1999999+0041REMSYN076AAXX  05124 82392 32499 61402 10273 20217 30020 40122 82130 333 20208 58004;
0168823920999992008070600004-03700-040350FM-12+008399999V0203601N001512200019N0040001N1+02631+02141101241ADDGF103991031001008001031001KA1240M+03441MA1999999100221MD1999999+0021REMSYN088AAXX  06004 82392 32596 33603 10263 20214 30022 40124 83030 333 10344 29073 55059 58002;
0156823920999992008070612004-03700-040350FM-12+008399999V0201801N001010042019N0500001N1+02661+02091101431ADDGF106991061021004501001001KA1240N+02101MA1999999100411MD1999999+0031REMSYN076AAXX  06124 82392 32499 61802 10266 20209 30041 40143 86200 333 20210 58003;
0168823920999992008070700004-03700-040350FM-12+008399999V0200901N001510450019N0040001N1+02671+02061101411ADDGF106991021021004501031001KA1240M+03341MA1999999100391MD1999999+0171REMSYN088AAXX  07004 82392 32496 60903 10267 20206 30039 40141 82230 333 10334 29070 55083 58017;
0156823920999992008070712004-03700-040350FM-12+008399999V0201401N001010450019N0500001N1+02781+01961101501ADDGF106991041021004501031001KA1240N+02131MA1999999100471MD1999999+0061REMSYN076AAXX  07124 82392 32499 61402 10278 20196 30047 40150 84230 333 20213 58006;
0168823920999992008070800004-03700-040350FM-12+008399999V0209999C000012200019N0040001N1+02531+01931101361ADDGF104991011011004501031001KA1240M+03311MA1999999100341MD1999999-0051REMSYN088AAXX  08004 82392 32496 40900 10253 20193 30034 40136 81130 333 10331 29066 55094 59005;
0156823920999992008070812004-03700-040350FM-12+008399999V0201801N002110450019N0500001N1+02521+01891101511ADDGF107991031021004501031001KA1240N+02191MA1999999100471MD1999999+0001REMSYN076AAXX  08124 82392 32499 71804 10252 20189 30047 40151 83230 333 20219 58000;
0168823920999992008070900004-03700-040350FM-12+008399999V0201401N000519999999N0040001N1+02511+01741101361ADDGF105991051001008001031001KA1240M+03301MA1999999100331MD1999999-0011REMSYN088AAXX  09004 82392 32596 51401 10251 20174 30033 40136 85030 333 10330 29064 55074 59001;
0156823920999992008070912004-03700-040350FM-12+008399999V0201801N001519999999N0500001N1+02651+01771101401ADDGF105991051001008001031001KA1240N+01941MA1999999100381MD1999999-0091REMSYN076AAXX  09124 82392 32599 51803 10265 20177 30038 40140 85030 333 20194 59009;
0168823920999992008071000004-03700-040350FM-12+008399999V0201401N000512200019N0040001N1+02591+01841101291ADDGF101991011001008001031071KA1240M+03191MA1999999100271MD1999999-0061REMSYN088AAXX  10004 82392 32596 11401 10259 20184 30027 40129 81037 333 10319 29061 55052 59006;
0220823920999992008071012004-03700-040350FM-12+008399999V0200901N000510450019N0500001N1+02831+01821101481ADDAA124000091AY151061AY251061GF106991021021004501031001KA1240N+02301MA1999999100451MD1999999+0071MW1021REMSYN088AAXX  10124 82392 21499 60901 10283 20182 30045 40148 70255 82230 333 20230 58007 69914;EQDQ01  00002PRCP24
0178823920999992008071100004-03700-040350FM-12+008399999V0201401N000512200019N0040001N1+02601+01651101401ADDGA1001+999999999GF100991001001999999001001KA1240M+03401MA1999999100381MD1999999+0111REMSYN082AAXX  11004 82392 32996 01401 10260 20165 30038 40140 333 10340 29055 55095 58011;
0156823920999992008071112004-03700-040350FM-12+008399999V0201401N000510450019N0500001N1+02531+02091101521ADDGF107991021021004501031001KA1240N+01921MA1999999100491MD1999999+0051REMSYN076AAXX  11124 82392 32499 71401 10253 20209 30049 40152 82230 333 20192 58005;
0178823920999992008071200004-03700-040350FM-12+008399999V0200501N000512200019N0040001N1+02471+01831101341ADDGA1001+999999999GF100991001001999999001001KA1240M+03441MA1999999100311MD1999999-0071REMSYN082AAXX  12004 82392 32996 00501 10247 20183 30031 40134 333 10344 29070 55075 59007;
0156823920999992008071212004-03700-040350FM-12+008399999V0209999C000012200019N0500001N1+02751+01831101441ADDGF101991011001004501031001KA1240N+01941MA1999999100421MD1999999-0071REMSYN076AAXX  12124 82392 32499 11800 10275 20183 30042 40144 81030 333 20194 59007;
0168823920999992008071300004-03700-040350FM-12+008399999V0200501N000510450019N0040001N1+02531+01881101251ADDGF105991011021004501031001KA1240M+03481MA1999999100231MD1999999-0081REMSYN088AAXX  13004 82392 32496 50501 10253 20188 30023 40125 81230 333 10348 29064 55080 59008;
0156823920999992008071312004-03700-040350FM-12+008399999V0201801N003112200019N0500001N1+02731+01841101271ADDGF103991011011004501031001KA1240N+02041MA1999999100251MD1999999-0171REMSYN076AAXX  13124 82392 32499 31806 10273 20184 30025 40127 81130 333 20204 59017;
0168823920999992008071400004-03700-040350FM-12+008399999V0209999C000012200019N0040001N1+02531+01881101181ADDGF103991031001008001031001KA1240M+03471MA1999999100151MD1999999-0081REMSYN088AAXX  14004 82392 32596 30500 10253 20188 30015 40118 83030 333 10347 29064 55089 59008;
0156823920999992008071412004-03700-040350FM-12+008399999V0201801N000512200019N0500001N1+02751+01621101361ADDGF103991031001008001031001KA1240N+01991MA1999999100341MD1999999+0091REMSYN076AAXX  14124 82392 32599 31801 10275 20162 30034 40136 83030 333 20199 58009;
0168823920999992008071500004-03700-040350FM-12+008399999V0200501N000512200019N0040001N1+02531+01881101271ADDGF102991021001008001031001KA1240M+03461MA1999999100251MD1999999+0101REMSYN088AAXX  15004 82392 32596 20501 10253 20188 30025 40127 82030 333 10346 29061 55051 58010;
0156823920999992008071512004-03700-040350FM-12+008399999V0201401N000512200019N0500001N1+02791+01661101341ADDGF102991021001008001031001KA1240N+02191MA1999999100321MD1999999-0021REMSYN076AAXX  15124 82392 32599 21401 10279 20166 30032 40134 82030 333 20219 59002;
0168823920999992008071600004-03700-040350FM-12+008399999V0203601N000512200019N0040001N1+02591+01711101391ADDGF103991031001008001031001KA1240M+03441MA1999999100371MD1999999+0121REMSYN088AAXX  16004 82392 32596 33601 10259 20171 30037 40139 83030 333 10344 29055 55090 58012;
0156823920999992008071612004-03700-040350FM-12+008399999V0201401N000512200019N0500001N1+02771+01961101481ADDGF103991021021004501031001KA1240N+02061MA1999999100451MD1999999+0131REMSYN076AAXX  16124 82392 32499 31401 10277 20196 30045 40148 82230 333 20206 58013;
0156823920999992008071712004-03700-040350FM-12+008399999V0201401N000510042019N0500001N1+02711+01901101241ADDGF105991051021004501001001KA1240N+02161MA1999999100221MD1999999-0231REMSYN076AAXX  17124 82392 32499 51401 10271 20190 30022 40124 85200 333 20216 59023;
0201823920999992008071812004-03700-040350FM-12+008399999V0200901N001010450019N0500001N1+02771+02161101411ADDAA124000591AY161061AY261061GF105991031021004501031001KA1240N+02071MA1999999100391MD1999999+0171MW1021REMSYN088AAXX  18124 82392 21499 50902 10277 20216 30039 40141 70266 83230 333 20207 58017 69954;
0162823920999992008071900004-03700-040350FM-12+008399999V0200501N000510450019N0040001N1+02591+02101101401ADDGF107991021041004501011001KA1240M+03201MA1999999100381MD1999999+0071REMSYN082AAXX  19004 82392 32496 70501 10259 20210 30038 40140 82410 333 10320 55050 58007;
0201823920999992008071912004-03700-040350FM-12+008399999V0201801N000510450019N0500001N1+02671+02061101511ADDAA124000391AY161061AY261061GF106991041021004501031001KA1240N+00031MA1999999100481MD1999999+0091MW1021REMSYN088AAXX  19124 82392 21499 61801 10267 20206 30048 40151 70266 84230 333 20003 58009 69934;
0168823920999992008072000004-03700-040350FM-12+008399999V0203601N000512200019N0040001N1+02541+02151101291ADDGF101991011001008001031001KA1240M+03471MA1999999100271MD1999999-0111REMSYN088AAXX  20004 82392 32596 13601 10254 20215 30027 40129 81030 333 10347 29076 55088 59011;
0156823920999992008072012004-03700-040350FM-12+008399999V0200901N001012200019N0500001N1+02781+02251101461ADDGF103991031021004501001001KA1240N+01981MA1999999100441MD1999999-0041REMSYN076AAXX  20124 82392 32499 30902 10278 20225 30044 40146 83200 333 20198 59004;
0168823920999992008072100004-03700-040350FM-12+008399999V0203601N005112200019N0040001N1+02571+02011101331ADDGF102991021001008001011001KA1240M+03501MA1999999100311MD1999999+0041REMSYN088AAXX  21004 82392 32596 23610 10257 20201 30031 40133 82010 333 10350 29072 55095 58004;
0156823920999992008072112004-03700-040350FM-12+008399999V0201401N001012200019N0500001N1+02781+02061101411ADDGF102991011011004501001011KA1240N+02021MA1999999100391MD1999999-0051REMSYN076AAXX  21124 82392 32499 21402 10278 20206 30039 40141 81101 333 20202 59005;
0168823920999992008072200004-03700-040350FM-12+008399999V0203601N000512200019N0040001N1+02691+02031101321ADDGF104991011011004501031001KA1240M+03461MA1999999100301MD1999999-0011REMSYN088AAXX  22004 82392 32496 43601 10269 20203 30030 40132 81130 333 10346 29066 55081 59001;
0156823920999992008072212004-03700-040350FM-12+008399999V0201801N001010042019N0500001N1+02741+02211101451ADDGF106991061041004501001001KA1240N+02061MA1999999100431MD1999999+0041REMSYN076AAXX  22124 82392 32499 61802 10274 20221 30043 40145 86400 333 20206 58004;
0168823920999992008072300004-03700-040350FM-12+008399999V0209999C000012200019N0040001N1+02671+02021101291ADDGF102991021001008001011001KA1240M+03241MA1999999100271MD1999999-0031REMSYN088AAXX  23004 82392 32596 21400 10267 20202 30027 40129 82010 333 10324 29069 55059 59003;
0156823920999992008072312004-03700-040350FM-12+008399999V0200901N000512200019N0500001N1+02811+02051101371ADDGF102991011011004501001011KA1240N+02171MA1999999100351MD1999999-0081REMSYN076AAXX  23124 82392 32499 20901 10281 20205 30035 40137 81101 333 20217 59008;
0178823920999992008072400004-03700-040350FM-12+008399999V0203601N000512200019N0040001N1+02651+02041101161ADDGA1001+999999999GF100991001001999999001001KA1240M+03601MA1999999100141MD1999999-0131REMSYN082AAXX  24004 82392 32996 03601 10265 20204 30014 40116 333 10360 29067 55100 59013;
0166823920999992008072412004-03700-040350FM-12+008399999V0201801N001012200019N0500001N1+02771+01961101321ADDGA1001+999999999GF100991001001999999001001KA1240N+01961MA1999999100301MD1999999-0051REMSYN070AAXX  24124 82392 32999 01802 10277 20196 30030 40132 333 20196 59005;
0168823920999992008072500004-03700-040350FM-12+008399999V0203601N000510450019N0040001N1+02771+02161101191ADDGF105991011011004501031001KA1240M+03671MA1999999100171MD1999999+0031REMSYN088AAXX  25004 82392 32496 53601 10277 20216 30017 40119 81130 333 10367 29066 55100 58003;
0156823920999992008072512004-03700-040350FM-12+008399999V0200901N001010450019N0500001N1+02791+02341101431ADDGF106991031021004501031001KA1240N+02451MA1999999100411MD1999999+0111REMSYN076AAXX  25124 82392 32499 60902 10279 20234 30041 40143 83230 333 20245 58011;
0178823920999992008072600004-03700-040350FM-12+008399999V0203601N001512200019N0040001N1+02641+02051101251ADDGA1001+999999999GF100991001001999999001001KA1240M+03591MA1999999100231MD1999999+0061REMSYN082AAXX  26004 82392 32996 03603 10264 20205 30023 40125 333 10359 29072 55083 58006;
0156823920999992008072612004-03700-040350FM-12+008399999V0201401N001010450019N0500001N1+02791+02251101481ADDGF106991041041004501031001KA1240N+02231MA1999999100451MD1999999+0041REMSYN076AAXX  26124 82392 32499 61402 10279 20225 30045 40148 84430 333 20223 58004;
0178823920999992008072700004-03700-040350FM-12+008399999V0203601N001012200019N0040001N1+02611+02211101251ADDGA1001+999999999GF100991001001999999001001KA1240M+03561MA1999999100231MD1999999+0041REMSYN082AAXX  27004 82392 32996 03602 10261 20221 30023 40125 333 10356 29075 55087 58004;
0156823920999992008072712004-03700-040350FM-12+008399999V0201401N001010042019N0500001N1+02731+02211101501ADDGF107991051041004501031001KA1240N+02151MA1999999100471MD1999999+0021REMSYN076AAXX  27124 82392 32499 71402 10273 20221 30047 40150 85430 333 20215 58002;
0168823920999992008072800004-03700-040350FM-12+008399999V0209999C000010450019N0040001N1+02541+02311101481ADDGF108991041051004501021999KA1240M+03241MA1999999100451MD1999999+0181REMSYN088AAXX  28004 82392 32496 83600 10254 20231 30045 40148 8452/ 333 10324 29082 55050 58018;
0156823920999992008072812004-03700-040350FM-12+008399999V0201401N002110450019N0500001N1+02781+02011101521ADDGF106991041061004501031001KA1240N+02171MA1999999100491MD1999999+0021REMSYN076AAXX  28124 82392 32499 61404 10278 20201 30049 40152 84630 333 20217 58002;
0168823920999992008072900004-03700-040350FM-12+008399999V0209999C000010450019N0040001N1+02671+01941101331ADDGF106991021021004501031001KA1240M+03141MA1999999100311MD1999999-0141REMSYN088AAXX  29004 82392 32496 60000 10267 20194 30031 40133 82230 333 10314 29064 55022 59014;
0156823920999992008072912004-03700-040350FM-12+008399999V0209999C000012200019N0500001N1+02761+01941101441ADDGF101991011011004501001001KA1240N+01861MA1999999100421MD1999999-0071REMSYN076AAXX  29124 82392 32499 12300 10276 20194 30042 40144 81100 333 20186 59007;
0168823920999992008073000004-03700-040350FM-12+008399999V0203601N000510450019N0040001N1+02711+02191101211ADDGF105991021021004501031001KA1240M+03441MA1999999100191MD1999999-0121REMSYN088AAXX  30004 82392 32496 53601 10271 20219 30019 40121 82230 333 10344 29069 55058 59012;
0156823920999992008073012004-03700-040350FM-12+008399999V0201401N001010450019N0500001N1+02891+02321101311ADDGF106991031041004501031001KA1240N+02361MA1999999100291MD1999999-0131REMSYN076AAXX  30124 82392 32499 61402 10289 20232 30029 40131 83430 333 20236 59013;
0168823920999992008073100004-03700-040350FM-12+008399999V0209999C000010450019N0040001N1+02531+02041101111ADDGF106991031041004501031001KA1240M+03041MA1999999100091MD1999999-0101REMSYN088AAXX  31004 82392 32496 60500 10253 20204 30009 40111 83430 333 10304 29073 55008 59010;
0173823920999992008073112004-03700-040350FM-12+008399999V0201401N000512200019N0500001N1+02861+02111101231ADDAA124001091GF103991031021004501001001KA1240N+02221MA1999999100211MD1999999-0081REMSYN082AAXX  31124 82392 22499 31401 10286 20211 30021 40123 83200 333 20222 59008 60014;
0123823920999992008073118004-03700-040350FM-12+008399999V0201401N001012200019N0500001N1+03451+02091100861ADDGF104991031021004501011001MA1999999099841REMSYN070AAXX  31184 82392 32499 41402 10345 20209 39984 40086 83210 333 5////;
0168823920999992008080100004-03700-040350FM-12+008399999V0203601N000512200019N0040001N1+02631+02141101151ADDGF101991011011004501001001KA1240M+03521MA1999999100131MD1999999+0041REMSYN088AAXX  01004 82392 32496 13601 10263 20214 30013 40115 81100 333 10352 29064 55105 58004;
0156823920999992008080112004-03700-040350FM-12+008399999V0201801N000512200019N0500001N1+02731+01921101331ADDGF103991031011004501001001KA1240N+02131MA1999999100311MD1999999+0101REMSYN076AAXX  01124 82392 32499 31801 10273 20192 30031 40133 83100 333 20213 58010;
0137823920999992008080118004-03700-040350FM-12+008399999V0200901N000512200019N0500001N1+03531+01411100771ADDGF104991041021004501001001MA1999999099761MD1999999-0081REMSYN070AAXX  01184 82392 32499 40901 10353 20141 39976 40077 84200 333 59008;
0168823920999992008080200004-03700-040350FM-12+008399999V0203601N001012200019N0040001N1+02581+01871101161ADDGF101991011001008001011001KA1240M+03601MA1999999100141MD1999999+0011REMSYN088AAXX  02004 82392 32596 13602 10258 20187 30014 40116 81010 333 10360 29055 55106 58001;
0156823920999992008080212004-03700-040350FM-12+008399999V0200901N000512200019N0500001N1+02771+01931101321ADDGF101991011011004501001001KA1240N+01811MA1999999100301MD1999999-0011REMSYN076AAXX  02124 82392 32499 10901 10277 20193 30030 40132 81100 333 20181 59001;
0137823920999992008080218004-03700-040350FM-12+008399999V0200901N001510450019N0500001N1+03511+01551100781ADDGF105991041021004501031001MA1999999099761MD1999999+0001REMSYN070AAXX  02184 82392 32499 50903 10351 20155 39976 40078 84230 333 58000;
0168823920999992008080300004-03700-040350FM-12+008399999V0200501N002112200019N0040001N1+02631+02141101201ADDGF102991021001008001031001KA1240M+03601MA1999999100181MD1999999+0041REMSYN088AAXX  03004 82392 32596 20504 10263 20214 30018 40120 82030 333 10360 29060 55103 58004;
0156823920999992008080312004-03700-040350FM-12+008399999V0201401N002612200019N0500001N1+02721+01931101401ADDGF102991021011004501001001KA1240N+02141MA1999999100381MD1999999+0081REMSYN076AAXX  03124 82392 32499 21405 10272 20193 30038 40140 82100 333 20214 58008;
0137823920999992008080318004-03700-040350FM-12+008399999V0200501N001010450019N0500001N1+03441+01841100911ADDGF105991031021004501031001MA1999999099891MD1999999+0131REMSYN070AAXX  03184 82392 32499 50502 10344 20184 39989 40091 83230 333 58013;
0178823920999992008080400004-03700-040350FM-12+008399999V0200501N005712200019N0040001N1+02561+02061101221ADDGA1001+999999999GF100991001001999999001001KA1240M+03541MA1999999100201MD1999999+0021REMSYN082AAXX  04004 82392 32996 00511 10256 20206 30020 40122 333 10354 29062 55096 58002;
0156823920999992008080412004-03700-040350FM-12+008399999V0200901N004112200019N0500001N1+02721+02101101371ADDGF103991031021004501001001KA1240N+02041MA1999999100351MD1999999-0031REMSYN076AAXX  04124 82392 32499 30908 10272 20210 30035 40137 83200 333 20204 59003;
0137823920999992008080418004-03700-040350FM-12+008399999V0201801N000512200019N0500001N1+03461+01781100851ADDGF104991031021004501031001MA1999999099831MD1999999-0061REMSYN070AAXX  04184 82392 32499 41801 10346 20178 39983 40085 83230 333 59006;
0178823920999992008080500004-03700-040350FM-12+008399999V0203601N001012200019N0040001N1+02611+01861101091ADDGA1001+999999999GF100991001001999999001001KA1240M+03641MA1999999100071MD1999999-0131REMSYN082AAXX  05004 82392 32996 03602 10261 20186 30007 40109 333 10364 29058 55103 59013;
0156823920999992008080512004-03700-040350FM-12+008399999V0200501N002110450019N0500001N1+02721+02151101371ADDGF107991041041004501031001KA1240N+02011MA1999999100351MD1999999+0001REMSYN076AAXX  05124 82392 32499 70504 10272 20215 30035 40137 84430 333 20201 58000;
0137823920999992008080518004-03700-040350FM-12+008399999V0201401N001010042019N0500001N1+03371+01871100841ADDGF105991051021004501001001MA1999999099821MD1999999-0011REMSYN070AAXX  05184 82392 32499 51402 10337 20187 39982 40084 85200 333 59001;
0168823920999992008080600004-03700-040350FM-12+008399999V0200501N002112200019N0040001N1+02611+02121101091ADDGF104991021021004501031001KA1240M+03501MA1999999100071MD1999999+0001REMSYN088AAXX  06004 82392 32496 40504 10261 20212 30007 40109 82230 333 10350 29065 55094 58000;
0156823920999992008080612004-03700-040350FM-12+008399999V0200501N004112200019N0500001N1+02761+01771101281ADDGF103991031021004501001001KA1240N+02061MA1999999100261MD1999999-0091REMSYN076AAXX  06124 82392 32499 30508 10276 20177 30026 40128 83200 333 20206 59009;
0137823920999992008080618004-03700-040350FM-12+008399999V0200901N001012200019N0500001N1+03361+01811100871ADDGF101991011011004501001001MA1999999099851MD1999999+0031REMSYN070AAXX  06184 82392 32499 10902 10336 20181 39985 40087 81100 333 58003;
0168823920999992008080700004-03700-040350FM-12+008399999V0209999C000012200019N0040001N1+02591+01741101071ADDGF101991011001008001031001KA1240M+03481MA1999999100051MD1999999-0021REMSYN088AAXX  07004 82392 32596 13600 10259 20174 30005 40107 81030 333 10348 29053 55101 59002;
0156823920999992008080712004-03700-040350FM-12+008399999V0200901N001010450019N0500001N1+02801+02001101221ADDGF106991041041004501031001KA1240N+02131MA1999999100201MD1999999-0061REMSYN076AAXX  07124 82392 32499 60902 10280 20200 30020 40122 84430 333 20213 59006;
0137823920999992008080718004-03700-040350FM-12+008399999V0200901N001010042019N0500001N1+03311+01821100831ADDGF105991051021004501001001MA1999999099811MD1999999-0041REMSYN070AAXX  07184 82392 32499 50902 10331 20182 39981 40083 85200 333 59004;
0156823920999992008080812004-03700-040350FM-12+008399999V0200901N002610450019N0500001N1+02701+01991101301ADDGF106991031021004501031001KA1240N+02081MA1999999100281MD1999999+0081REMSYN076AAXX  08124 82392 32499 60905 10270 20199 30028 40130 83230 333 20208 58008;
0137823920999992008080818004-03700-040350FM-12+008399999V0202301N001010450019N0500001N1+03231+01961100921ADDGF107991031021004501031001MA1999999099901MD1999999+0091REMSYN070AAXX  08184 82392 32499 72302 10323 20196 39990 40092 83230 333 58009;
0213823920999992008080900004-03700-040350FM-12+008399999V0203201N001010450019N0040001N1+02341+02321101311ADDAA106016091AY121061AY261061GF107991031071004501011001KA1240M+03301MA1999999100281MD1999999+0061MW1031REMSYN100AAXX  09004 82392 21496 73202 10234 20232 30028 40131 70326 83710 333 10330 29078 55065 58006 60161;
0201823920999992008080912004-03700-040350FM-12+008399999V0203601N002110450019N0200001N1+02321+02291101541ADDAA124020191AY161061AY261061GF108991031061004501021999KA1240N+02241MA1999999100501MD1999999+0221MW1021REMSYN088AAXX  09124 82392 21498 83604 10232 20229 30050 40154 70266 8362/ 333 20224 58022 60204;
0182823920999992008080918004-03700-040350FM-12+008399999V0200501N002610450019N0500001N1+02901+01901101151ADDAA106000591AY161061AY221061GF107991031051004501011001MA1999999100131MD1999999+0231MW1031REMSYN082AAXX  09184 82392 21499 70505 10290 20190 30013 40115 70362 83510 333 58023 69961;
0213823920999992008081000004-03700-040350FM-12+008399999V0203601N004112200019N0040001N1+02381+02331101281ADDAA106004191AY161061AY261061GF102991021001004501031001KA1240M+03191MA1999999100251MD1999999-0031MW1021REMSYN100AAXX  10004 82392 21496 23608 10238 20233 30025 40128 70266 82030 333 10319 29087 55028 59003 60041;
0192823920999992008081012004-03700-040350FM-12+008399999V0201801N000519999999N0500001N1+02671+02161101391ADDAA124005191GF106991999021004501001001KA1240N+02071MA1999999100361MD1999999-0141REMSYN082AAXX  10124 82392 22499 61801 10267 20216 30036 40139 87200 333 20207 59014 60054;EQDQ01+000072SCOTLC
0137823920999992008081018004-03700-040350FM-12+008399999V0200501N001012200019N0500001N1+03271+01701100831ADDGF102991021011004501001001MA1999999099811MD1999999-0321REMSYN070AAXX  10184 82392 32499 20502 10327 20170 39981 40083 82100 333 59032;
0168823920999992008081100004-03700-040350FM-12+008399999V0203601N001012200019N0040001N1+02571+02011101121ADDGF101991011001008001031001KA1240M+03471MA1999999100101MD1999999-0151REMSYN088AAXX  11004 82392 32596 13602 10257 20201 30010 40112 81030 333 10347 29064 55106 59015;
0156823920999992008081112004-03700-040350FM-12+008399999V0201401N001010450019N0500001N1+02681+01891101401ADDGF106991041041004501031001KA1240N+02041MA1999999100381MD1999999+0021REMSYN076AAXX  11124 82392 32499 61402 10268 20189 30038 40140 84430 333 20204 58002;
0137823920999992008081118004-03700-040350FM-12+008399999V0201401N002112200019N0500001N1+03381+01571100921ADDGF102991011011004501001011MA1999999099901MD1999999+0091REMSYN070AAXX  11184 82392 32499 21404 10338 20157 39990 40092 81101 333 58009;
0168823920999992008081200004-03700-040350FM-12+008399999V0200501N000512200019N0040001N1+02601+02101101131ADDGF102991011011004501011001KA1240M+03461MA1999999100111MD1999999+0011REMSYN088AAXX  12004 82392 32496 20501 10260 20210 30011 40113 81110 333 10346 29061 55089 58001;
0156823920999992008081212004-03700-040350FM-12+008399999V0201401N002612200019N0500001N1+02881+02031101361ADDGF104991041021004501001001KA1240N+02341MA1999999100341MD1999999-0041REMSYN076AAXX  12124 82392 32499 41405 10288 20203 30034 40136 84200 333 20234 59004;
0137823920999992008081218004-03700-040350FM-12+008399999V0200901N000510450019N0500001N1+03261+01721100871ADDGF106991031021004501031001MA1999999099851MD1999999-0051REMSYN070AAXX  12184 82392 32499 60901 10326 20172 39985 40087 83230 333 59005;
0168823920999992008081300004-03700-040350FM-12+008399999V0203601N001012200019N0040001N1+02611+02141101231ADDGF101991011001008001031001KA1240M+03421MA1999999100211MD1999999+0101REMSYN088AAXX  13004 82392 32596 13602 10261 20214 30021 40123 81030 333 10342 29061 55093 58010;
0156823920999992008081312004-03700-040350FM-12+008399999V0201401N004112200019N0500001N1+02841+01881101421ADDGF104991031021004501031001KA1240N+02121MA1999999100401MD1999999+0061REMSYN076AAXX  13124 82392 32499 41408 10284 20188 30040 40142 83230 333 20212 58006;
0137823920999992008081318004-03700-040350FM-12+008399999V0201801N002112200019N0500001N1+03481+01621100961ADDGF102991021021004501001001MA1999999099941MD1999999+0091REMSYN070AAXX  13184 82392 32499 21804 10348 20162 39994 40096 82200 333 58009;
0168823920999992008081400004-03700-040350FM-12+008399999V0203601N000512200019N0040001N1+02801+01561101231ADDGF102991021001008001031001KA1240M+03501MA1999999100211MD1999999+0001REMSYN088AAXX  14004 82392 32596 23601 10280 20156 30021 40123 82030 333 10350 29046 55096 58000;
0156823920999992008081412004-03700-040350FM-12+008399999V0201801N000512200019N0500001N1+02781+01911101501ADDGF103991031011004501001001KA1240N+02061MA1999999100461MD1999999+0061REMSYN076AAXX  14124 82392 32499 31801 10278 20191 30046 40150 83100 333 20206 58006;
0137823920999992008081418004-03700-040350FM-12+008399999V0209999C000012200019N0500001N1+03461+01641101021ADDGF104991021011004501011001MA1999999100001MD1999999+0061REMSYN070AAXX  14184 82392 32499 40000 10346 20164 30000 40102 82110 333 58006;
0178823920999992008081500004-03700-040350FM-12+008399999V0203601N002112200019N0040001N1+02681+01971101361ADDGA1001+999999999GF100991001001999999001001KA1240M+03501MA1999999100341MD1999999+0131REMSYN082AAXX  15004 82392 32996 03604 10268 20197 30034 40136 333 10350 29056 55102 58013;
0156823920999992008081512004-03700-040350FM-12+008399999V0200901N001012200019N0500001N1+02741+01951101481ADDGF101991011011004501001001KA1240N+01941MA1999999100451MD1999999-0011REMSYN076AAXX  15124 82392 32499 10902 10274 20195 30045 40148 81100 333 20194 59001;
0137823920999992008081518004-03700-040350FM-12+008399999V0201801N000512200019N0500001N1+03591+01621999999ADDGF103991021011004501011001MA1999999099901MD1999999-0101REMSYN070AAXX  15184 82392 32499 31801 10359 20162 39990 40992 82110 333 59010;
0178823920999992008081600004-03700-040350FM-12+008399999V0203601N004612200019N0040001N1+02621+01981101271ADDGA1001+999999999GF100991001001999999001001KA1240M+03671MA1999999100251MD1999999-0091REMSYN082AAXX  16004 82392 32996 03609 10262 20198 30025 40127 333 10367 29057 55104 59009;
0156823920999992008081612004-03700-040350FM-12+008399999V0201801N001010042019N0500001N1+02831+01931101371ADDGF105991051021004501001001KA1240N+02171MA1999999100351MD1999999-0101REMSYN076AAXX  16124 82392 32499 51802 10283 20193 30035 40137 85200 333 20217 59010;
0137823920999992008081618004-03700-040350FM-12+008399999V0201801N001012200019N0500001N1+03581+01791100741ADDGF104991041021004501001001MA1999999099731MD1999999-0171REMSYN070AAXX  16184 82392 32499 41802 10358 20179 39973 40074 84200 333 59017;
0168823920999992008081700004-03700-040350FM-12+008399999V0203601N002112200019N0500001N1+02591+02031101061ADDGF102991011011004501031001KA1240M+03631MA1999999100041MD1999999-0211REMSYN088AAXX  17004 82392 32499 23604 10259 20203 30004 40106 81130 333 10363 29059 55105 59021;
0156823920999992008081712004-03700-040350FM-12+008399999V0202301N003610042019N0500001N1+02601+01921101261ADDGF105991051021004501001001KA1240N+02121MA1999999100241MD1999999-0111REMSYN076AAXX  17124 82392 32499 52307 10260 20192 30024 40126 85200 333 20212 59011;
0137823920999992008081718004-03700-040350FM-12+008399999V0200901N001512200019N0500001N1+03441+01211100861ADDGF103991031021004501001001MA1999999099841MD1999999+0111REMSYN070AAXX  17184 82392 32499 30903 10344 20121 39984 40086 83200 333 58011;
0178823920999992008081800004-03700-040350FM-12+008399999V0200501N001012200019N0040001N1+02801+01661101071ADDGA1001+999999999GF100991001001999999001001KA1240M+03521MA1999999100051MD1999999+0011REMSYN082AAXX  18004 82392 32996 00502 10280 20166 30005 40107 333 10352 29048 55088 58001;
0156823920999992008081812004-03700-040350FM-12+008399999V0201401N004612200019N0500001N1+02841+01931101271ADDGF101991011011004501001001KA1240N+02201MA1999999100251MD1999999+0011REMSYN076AAXX  18124 82392 32499 11409 10284 20193 30025 40127 81100 333 20220 58001;
0137823920999992008081818004-03700-040350FM-12+008399999V0201401N003112200019N0500001N1+03541+01711100781ADDGF104991031021004501031001MA1999999099771MD1999999-0071REMSYN070AAXX  18184 82392 32499 41406 10354 20171 39977 40078 83230 333 59007;
0168823920999992008081900004-03700-040350FM-12+008399999V0203601N001012200019N0040001N1+02591+01991100981ADDGF102991021001008001031001KA1240M+03631MA1999999099961MD1999999-0091REMSYN088AAXX  19004 82392 32596 23602 10259 20199 39996 40098 82030 333 10363 29058 55105 59009;
0156823920999992008081912004-03700-040350FM-12+008399999V0201401N003112200019N0500001N1+02801+01921101351ADDGF102991021011004501001001KA1240N+02041MA1999999100331MD1999999+0081REMSYN076AAXX  19124 82392 32499 21406 10280 20192 30033 40135 82100 333 20204 58008;
0137823920999992008081918004-03700-040350FM-12+008399999V0201801N000510042019N0500001N1+03331+01451100781ADDGF105991051021004501001001MA1999999099761MD1999999-0011REMSYN070AAXX  19184 82392 32499 51801 10333 20145 39976 40078 85200 333 59001;
0168823920999992008082000004-03700-040350FM-12+008399999V0203601N001512200019N0040001N1+02571+01971101011ADDGF101991011001008001031001KA1240M+03501MA1999999099991MD1999999+0031REMSYN088AAXX  20004 82392 32596 13603 10257 20197 39999 40101 81030 333 10350 29057 55094 58003;
0156823920999992008082012004-03700-040350FM-12+008399999V0201401N001012200019N0500001N1+02781+01931101241ADDGF103991021011004501001011KA1240N+02001MA1999999100221MD1999999-0111REMSYN076AAXX  20124 82392 32499 31402 10278 20193 30022 40124 82101 333 20200 59011;
0137823920999992008082018004-03700-040350FM-12+008399999V0200901N003110450019N0500001N1+03361+01361100821ADDGF106991031021004501031001MA1999999099801MD1999999+0041REMSYN070AAXX  20184 82392 32499 60906 10336 20136 39980 40082 83230 333 58004;
0178823920999992008082100004-03700-040350FM-12+008399999V0203601N005112200019N0040001N1+02761+01971101001ADDGA1001+999999999GF100991001001999999001001KA1240M+03521MA1999999099981MD1999999-0011REMSYN082AAXX  21004 82392 32996 03610 10276 20197 39998 40100 333 10352 29054 55088 59001;
0156823920999992008082112004-03700-040350FM-12+008399999V0200901N000510450019N0500001N1+02921+01921101151ADDGF106991031011004501031001KA1240N+02371MA1999999100131MD1999999-0091REMSYN076AAXX  21124 82392 32499 60901 10292 20192 30013 40115 83130 333 20237 59009;
0178823920999992008082200004-03700-040350FM-12+008399999V0203601N005112200019N0040001N1+02641+02051101081ADDGA1001+999999999GF100991001001999999001001KA1240M+03721MA1999999100061MD1999999+0081REMSYN082AAXX  22004 82392 32996 03610 10264 20205 30006 40108 333 10372 29065 55084 58008;
0156823920999992008082212004-03700-040350FM-12+008399999V0200901N002110450019N0500001N1+02901+02041101221ADDGF106991031021004501031001KA1240N+02141MA1999999100201MD1999999+0071REMSYN076AAXX  22124 82392 32499 60904 10290 20204 30020 40122 83230 333 20214 58007;
0178823920999992008082300004-03700-040350FM-12+008399999V0200501N002612200019N0040001N1+02741+02121101171ADDGA1001+999999999GF100991001001999999001001KA1240M+03581MA1999999100151MD1999999+0091REMSYN082AAXX  23004 82392 32996 00505 10274 20212 30015 40117 333 10358 29066 55066 58009;
0156823920999992008082312004-03700-040350FM-12+008399999V0201401N001010042019N0500001N1+02881+02031101321ADDGF105991051021004501001001KA1240N+02101MA1999999100301MD1999999+0101REMSYN076AAXX  23124 82392 32499 51402 10288 20203 30030 40132 85200 333 20210 58010;
0178823920999992008082400004-03700-040350FM-12+008399999V0203601N002112200019N0040001N1+02601+02011101221ADDGA1001+999999999GF100991001001999999001001KA1240M+03681MA1999999100201MD1999999+0051REMSYN082AAXX  24004 82392 32996 03604 10260 20201 30020 40122 333 10368 29067 55102 58005;
0156823920999992008082412004-03700-040350FM-12+008399999V0201801N002112200019N0500001N1+02701+02061101341ADDGF104991021021004501031001KA1240N+02081MA1999999100321MD1999999+0021REMSYN076AAXX  24124 82392 32499 41804 10270 20206 30032 40134 82230 333 20208 58002;
0178823920999992008082500004-03700-040350FM-12+008399999V0200501N003112200019N0040001N1+02661+02071101061ADDGA1001+999999999GF100991001001999999001001KA1240M+03741MA1999999100041MD1999999-0161REMSYN082AAXX  25004 82392 32996 00506 10266 20207 30004 40106 333 10374 29052 55098 59016;
0156823920999992008082512004-03700-040350FM-12+008399999V0201801N001512200019N0500001N1+02841+02121101321ADDGF102991021011004501001001KA1240N+02121MA1999999100301MD1999999-0021REMSYN076AAXX  25124 82392 32499 21803 10284 20212 30030 40132 82100 333 20212 59002;
0178823920999992008082600004-03700-040350FM-12+008399999V0200501N002612200019N0040001N1+02821+02201101101ADDGA1001+999999999GF100991001001999999001001KA1240M+03581MA1999999100081MD1999999+0081REMSYN082AAXX  26004 82392 32996 00505 10282 20220 30008 40110 333 10358 29068 55110 58008;
0156823920999992008082612004-03700-040350FM-12+008399999V0202301N000512200019N0500001N1+02821+01971101281ADDGF102991021011004501001001KA1240N+01901MA1999999100261MD1999999-0041REMSYN076AAXX  26124 82392 32499 22301 10282 20197 30026 40128 82100 333 20190 59004;
0178823920999992008082700004-03700-040350FM-12+008399999V0200501N004112200019N0040001N1+02741+02101101071ADDGA1001+999999999GF100991001001999999001001KA1240M+03741MA1999999100051MD1999999-0031REMSYN082AAXX  27004 82392 32496 00508 10274 20210 30005 40107 333 10374 29065 55107 59003;
0156823920999992008082712004-03700-040350FM-12+008399999V0201801N003110450019N0500001N1+02781+01911101271ADDGF106991041041004501031001KA1240N+02401MA1999999100251MD1999999-0011REMSYN076AAXX  27124 82392 32499 61806 10278 20191 30025 40127 84430 333 20240 59001;
0178823920999992008082800004-03700-040350FM-12+008399999V0200501N004612200019N0040001N1+02581+02011101021ADDGA1001+999999999GF100991001001999999001001KA1240M+03461MA1999999100001MD1999999-0051REMSYN082AAXX  28004 82392 32996 00509 10258 20201 30000 40102 333 10346 29067 55047 59005;
0156823920999992008082812004-03700-040350FM-12+008399999V0200901N001012200019N0500001N1+02861+01871101221ADDGF101991011011004501001001KA1240N+02141MA1999999100201MD1999999-0051REMSYN076AAXX  28124 82392 32499 10902 10286 20187 30020 40122 81100 333 20214 59005;
0178823920999992008082900004-03700-040350FM-12+008399999V0200501N005112200019N0040001N1+02641+02051101071ADDGA1001+999999999GF100991001001999999001001KA1240M+03681MA1999999100051MD1999999+0051REMSYN082AAXX  29004 82392 32996 00510 10264 20205 30005 40107 333 10368 29065 55092 58005;
0156823920999992008082912004-03700-040350FM-12+008399999V0200901N004612200019N0500001N1+02981+01831101271ADDGF102991021011004501001001KA1240N+02181MA1999999100251MD1999999+0051REMSYN076AAXX  29124 82392 32499 20909 10298 20183 30025 40127 82100 333 20218 58005;
0178823920999992008083000004-03700-040350FM-12+008399999V0200501N003112200019N0040001N1+02661+02021101071ADDGA1001+999999999GF100991001001999999001001KA1240M+03661MA1999999100051MD1999999+0001REMSYN082AAXX  30004 82392 32996 00506 10266 20202 30005 40107 333 10366 29062 55088 58000;
0156823920999992008083012004-03700-040350FM-12+008399999V0201401N002112200019N0500001N1+02761+01891101221ADDGF103991031021004501001001KA1240N+02201MA1999999100201MD1999999-0051REMSYN076AAXX  30124 82392 32499 31404 10276 20189 30020 40122 83200 333 20220 59005;
0178823920999992008083100004-03700-040350FM-12+008399999V0200501N001512200019N0040001N1+02621+02141100991ADDGA1001+999999999GF100991001001999999001001KA1240M+03621MA1999999099971MD1999999-0081REMSYN082AAXX  31004 82392 32996 00503 10262 20214 39997 40099 333 10362 29070 55094 59008;
0156823920999992008083112004-03700-040350FM-12+008399999V0201401N001012200019N0500001N1+02801+02001101221ADDGF103991031021004501001001KA1240N+02141MA1999999100201MD1999999+0001REMSYN076AAXX  31124 82392 32499 31402 10280 20200 30020 40122 83200 333 20214 58000;
0178823920999992008090100004-03700-040350FM-12+008399999V0200501N004612200019N0040001N1+02641+02031100921ADDGA1001+999999999GF100991001001999999001001KA1240M+03601MA1999999099901MD1999999-0071REMSYN082AAXX  01004 82392 32996 00509 10264 20203 39990 40092 333 10360 29067 55096 59007;
0156823920999992008090112004-03700-040350FM-12+008399999V0200901N001510450019N0500001N1+02701+02131101301ADDGF107991041041004501031001KA1240N+02151MA1999999100281MD1999999+0081REMSYN076AAXX  01124 82392 32499 70903 10270 20213 30028 40130 84430 333 20215 58008;
0178823920999992008090200004-03700-040350FM-12+008399999V0200501N005112200019N0040001N1+02641+02121101001ADDGA1001+999999999GF100991001001999999001001KA1240M+03501MA1999999099981MD1999999+0081REMSYN082AAXX  02004 82392 32996 00510 10264 20212 39998 40100 333 10350 29073 55080 58008;
0156823920999992008090212004-03700-040350FM-12+008399999V0201401N001012200019N0500001N1+02841+02121101221ADDGF103991031021004501001001KA1240N+02221MA1999999100201MD1999999-0081REMSYN076AAXX  02124 82392 32499 31402 10284 20212 30020 40122 83200 333 20222 59008;
0163823920999992008090300004-03700-040350FM-12+008399999V0200501N005112200019N0040001N1+02581+02121101021ADDGA1001+999999999GF100991001001999999001001KA1240M+03581MD1999999+0021REMSYN082AAXX  03004 82392 32996 00510 10258 20212 3//// 40102 333 10358 29072 55109 58002;
0156823920999992008090312004-03700-040350FM-12+008399999V0200901N001510450019N0500001N1+02761+02141101241ADDGF106991041021004501031001KA1240N+02001MA1999999100221MD1999999+0021REMSYN076AAXX  03124 82392 32499 60903 10276 20214 30022 40124 84230 333 20200 58002;
0178823920999992008090400004-03700-040350FM-12+008399999V0200501N004112200019N0040001N1+02781+02161101021ADDGA1001+999999999GF100991001001999999001001KA1240M+03521MA1999999100001MD1999999+0001REMSYN082AAXX  04004 82392 32996 00508 10278 20216 30000 40102 333 10352 29069 55088 58000;
0156823920999992008090412004-03700-040350FM-12+008399999V0200901N004612200019N0500001N1+02961+01811101241ADDGF103991031021004501001001KA1240N+02121MA1999999100221MD1999999+0001REMSYN076AAXX  04124 82392 32499 30909 10296 20181 30022 40124 83200 333 20212 58000;
0178823920999992008090500004-03700-040350FM-12+008399999V0200501N002112200019N0040001N1+02761+02041101101ADDGA1001+999999999GF100991001001999999001001KA1240M+03721MA1999999100081MD1999999+0081REMSYN082AAXX  05004 82392 32996 00504 10276 20204 30008 40110 333 10372 29060 55105 58008;
0156823920999992008090512004-03700-040350FM-12+008399999V0201401N002110450019N0500001N1+02861+01871101321ADDGF105991041021004501031001KA1240N+02221MA1999999100301MD1999999+0081REMSYN076AAXX  05124 82392 32499 51404 10286 20187 30030 40132 84230 333 20222 58008;
0178823920999992008090600004-03700-040350FM-12+008399999V0200501N004612200019N0040001N1+02701+02111101141ADDGA1001+999999999GF100991001001999999001001KA1240M+03581MA1999999100121MD1999999+0041REMSYN082AAXX  06004 82392 32996 00509 10270 20211 30012 40114 333 10358 29065 55103 58004;
0156823920999992008090612004-03700-040350FM-12+008399999V0200901N003112200019N0500001N1+02841+01991101401ADDGF102991021011004501001001KA1240N+02081MA1999999100381MD1999999+0081REMSYN076AAXX  06124 82392 32499 20906 10284 20199 30038 40140 82100 333 20208 58008;
0178823920999992008090700004-03700-040350FM-12+008399999V0200501N004112200019N0040001N1+02701+02111101221ADDGA1001+999999999GF100991001001999999001001KA1240M+03621MA1999999100201MD1999999+0081REMSYN082AAXX  07004 82392 32996 00508 10270 20211 30020 40122 333 10362 29067 55108 58008;
0156823920999992008090712004-03700-040350FM-12+008399999V0200901N002112200019N0500001N1+02901+02041101481ADDGF102991021011004501001001KA1240N+02321MA1999999100751MD1999999+0071REMSYN076AAXX  07124 82392 32499 20904 10290 20204 30075 40148 82100 333 20232 58007;
0178823920999992008090800004-03700-040350FM-12+008399999V0200501N004612200019N0040001N1+02681+02201101201ADDGA1001+999999999GF100991001001999999001001KA1240M+03681MA1999999100181MD1999999-0021REMSYN082AAXX  08004 82392 32996 00509 10268 20220 30018 40120 333 10368 29070 55101 59002;
0156823920999992008090812004-03700-040350FM-12+008399999V0201401N004112200019N0500001N1+02941+01791101421ADDGF101991011011004501001001KA1240N+02261MA1999999100401MD1999999-0021REMSYN076AAXX  08124 82392 32499 11408 10294 20179 30040 40142 81100 333 20226 59002;
0178823920999992008090900004-03700-040350FM-12+008399999V0200501N002612200019N0040001N1+02621+02211101341ADDGA1001+999999999GF100991001001999999001001KA1240M+03561MA1999999100321MD1999999+0141REMSYN082AAXX  09004 82392 32996 00505 10262 20221 30032 40134 333 10356 29069 55098 58014;
0156823920999992008090912004-03700-040350FM-12+008399999V0201401N002110450019N0500001N1+02921+01891101481ADDGF105991031021004501031001KA1240N+02201MA1999999100451MD1999999+0051REMSYN076AAXX  09124 82392 32499 51404 10292 20189 30045 40148 83230 333 20220 58005;
0178823920999992008091000004-03700-040350FM-12+008399999V0200501N002112200019N0040001N1+02721+02121101271ADDGA1001+999999999GF100991001001999999001001KA1240M+03641MA1999999100251MD1999999-0071REMSYN082AAXX  10004 82392 32996 00504 10272 20212 30025 40127 333 10364 29065 55102 59007;
0156823920999992008091012004-03700-040350FM-12+008399999V0200901N001012200019N0500001N1+02901+02041101481ADDGF101991011011004501001001KA1240N+02201MA1999999100451MD1999999+0001REMSYN076AAXX  10124 82392 32499 10902 10290 20204 30045 40148 81100 333 20220 58000;
0178823920999992008091100004-03700-040350FM-12+008399999V0200501N002112200019N0040001N1+02721+02081101181ADDGA1001+999999999GF100991001001999999001001KA1240M+03761MA1999999100161MD1999999-0091REMSYN082AAXX  11004 82392 32996 00504 10272 20208 30016 40118 333 10376 29065 55105 59009;
0156823920999992008091112004-03700-040350FM-12+008399999V0200901N005112200019N0500001N1+03081+01921101411ADDGF102991021011004501001001KA1240N+02381MA1999999100401MD1999999-0051REMSYN076AAXX  11124 82392 32499 20910 10308 20192 30040 40141 82100 333 20238 59005;
0178823920999992008091200004-03700-040350FM-12+008399999V0200501N005712200019N0040001N1+02821+02021101211ADDGA1001+999999999GF100991001001999999001001KA1240M+03681MA1999999100201MD1999999+0041REMSYN082AAXX  12004 82392 32996 00511 10282 20202 30020 40121 333 10368 29055 55106 58004;
0156823920999992008091212004-03700-040350FM-12+008399999V0201401N004112200019N0500001N1+02981+01761101331ADDGF101991011011004501001001KA1240N+02221MA1999999100321MD1999999-0081REMSYN076AAXX  12124 82392 32499 11408 10298 20176 30032 40133 81100 333 20222 59008;
0178823920999992008091300004-03700-040350FM-12+008399999V0200501N004612200019N0040001N1+02761+01771101181ADDGA1001+999999999GF100991001001999999001001KA1240M+03701MA1999999100171MD1999999-0031REMSYN082AAXX  13004 82392 32996 00509 10276 20177 30017 40118 333 10370 29053 55105 59003;
0156823920999992008091312004-03700-040350FM-12+008399999V0200901N004112200019N0500001N1+02941+01791101381ADDGF101991011011004501001001KA1240N+02151MA1999999100371MD1999999+0051REMSYN076AAXX  13124 82392 32499 10908 10294 20179 30037 40138 81100 333 20215 58005;
0178823920999992008091400004-03700-040350FM-12+008399999V0200501N005712200019N0040001N1+02781+01981101141ADDGA1001+999999999GF100991001001999999001001KA1240M+03651MA1999999100131MD1999999-0041REMSYN082AAXX  14004 82392 32996 00511 10278 20198 30013 40114 333 10365 29058 55097 59004;
0156823920999992008091412004-03700-040350FM-12+008399999V0200901N004612200019N0500001N1+02961+01961101311ADDGF101991011011004501001001KA1240N+02061MA1999999100301MD1999999-0071REMSYN076AAXX  14124 82392 32499 10909 10296 20196 30030 40131 81100 333 20206 59007;
0178823920999992008091500004-03700-040350FM-12+008399999V0200501N004112200019N0040001N1+02661+02021101221ADDGA1001+999999999GF100991001001999999001001KA1240M+03721MA1999999100201MD1999999+0071REMSYN082AAXX  15004 82392 32996 00508 10266 20202 30020 40122 333 10372 29064 55105 58007;
0156823920999992008091512004-03700-040350FM-12+008399999V0200901N004612200019N0500001N1+03001+01641101421ADDGF102991011011004501001011KA1240N+02121MA1999999100401MD1999999+0101REMSYN076AAXX  15124 82392 32499 20909 10300 20164 30040 40142 81101 333 20212 58010;
0178823920999992008091600004-03700-040350FM-12+008399999V0200501N003112200019N0040001N1+02761+01621101211ADDGA1001+999999999GF100991001001999999001001KA1240M+03701MA1999999100201MD1999999+0001REMSYN082AAXX  16004 82392 32996 00506 10276 20162 30020 40121 333 10370 29048 55105 58000;
0156823920999992008091612004-03700-040350FM-12+008399999V0201401N001512200019N0500001N1+02941+01911101451ADDGF101991011011004501001001KA1240N+02221MA1999999100441MD1999999+0041REMSYN076AAXX  16124 82392 32499 11403 10294 20191 30044 40145 81100 333 20222 58004;
0178823920999992008091700004-03700-040350FM-12+008399999V0200501N002112200019N0040001N1+02661+02071101201ADDGA1001+999999999GF100991001001999999001001KA1240M+03701MA1999999100181MD1999999-0021REMSYN082AAXX  17004 82392 32996 00504 10266 20207 30018 40120 333 10370 29065 55107 59002;
0156823920999992008091712004-03700-040350FM-12+008399999V0200901N002612200019N0500001N1+03081+01751101361ADDGF101991011011004501001001KA1240N+02201MA1999999100351MD1999999-0091REMSYN076AAXX  17124 82392 32499 10905 10308 20175 30035 40136 81100 333 20220 59009;
0178823920999992008091800004-03700-040350FM-12+008399999V0200501N002612200019N0040001N1+02741+01891101081ADDGA1001+999999999GF100991001001999999001001KA1240M+03681MA1999999100071MD1999999-0111REMSYN082AAXX  18004 82392 32996 00505 10274 20189 30007 40108 333 10368 29055 55106 59011;
0156823920999992008091812004-03700-040350FM-12+008399999V0200901N002112200019N0500001N1+02901+02041101271ADDGF103991031021004501001001KA1240N+02191MA1999999100251MD1999999-0101REMSYN076AAXX  18124 82392 32499 30904 10290 20204 30025 40127 83200 333 20219 59010;
0178823920999992008091900004-03700-040350FM-12+008399999V0200501N004612200019N0040001N1+02761+02041101091ADDGA1001+999999999GF100991001001999999001001KA1240M+03781MA1999999100071MD1999999+0001REMSYN082AAXX  19004 82392 32996 00509 10276 20204 30007 40109 333 10378 29063 55106 58000;
0156823920999992008091912004-03700-040350FM-12+008399999V0200901N005712200019N0500001N1+03061+02051101311ADDGF103991031021004501001001KA1240N+02341MA1999999100301MD1999999+0051REMSYN076AAXX  19124 82392 32499 30911 10306 20205 30030 40131 83200 333 20234 58005;
0178823920999992008092000004-03700-040350FM-12+008399999V0200501N001512200019N0040001N1+02801+01951101211ADDGA1001+999999999GF100991001001999999001001KA1240M+03661MA1999999100201MD1999999+0131REMSYN082AAXX  20004 82392 32996 00503 10280 20195 30020 40121 333 10366 29058 55105 58013;
0175823920999992008092012004-03700-040350FM-12+008399999V0200901N001019999999N0500001N1+03001+01841101411ADDGF105991999021004501001001KA1240N+02301MA1999999100401MD1999999+0101REMSYN076AAXX  20124 82392 32499 50902 10300 20184 30040 40141 83200 333 20230 58010;EQDQ01+000032SCOTLC
0178823920999992008092100004-03700-040350FM-12+008399999V0200501N003112200019N0040001N1+02721+02201101241ADDGA1001+999999999GF100991001001999999001001KA1240M+03701MA1999999100231MD1999999+0031REMSYN082AAXX  21004 82392 32996 00506 10272 20220 30023 40124 333 10370 29060 55105 58003;
0156823920999992008092112004-03700-040350FM-12+008399999V0200901N002612200019N0500001N1+02981+01761101411ADDGF102991021011004501001011KA1240N+02101MA1999999100401MD1999999+0031REMSYN076AAXX  21124 82392 32499 20905 10298 20176 30040 40141 82101 333 20210 58003;
0178823920999992008092200004-03700-040350FM-12+008399999V0200501N004612200019N0040001N1+02821+01941101111ADDGA1001+999999999GF100991001001999999001001KA1240M+03801MA1999999100101MD1999999-0131REMSYN082AAXX  22004 82392 32996 00509 10282 20194 30010 40111 333 10380 29055 55100 59013;
0156823920999992008092212004-03700-040350FM-12+008399999V0200901N003612200019N0500001N1+02961+01611101361ADDGF102991021011004501001001KA1240N+02131MA1999999100351MD1999999-0051REMSYN076AAXX  22124 82392 32499 20907 10296 20161 30035 40136 82100 333 20213 59005;
0178823920999992008092300004-03700-040350FM-12+008399999V0200501N003112200019N0040001N1+02601+01961101101ADDGA1001+999999999GF100991001001999999001001KA1240M+03781MA1999999100081MD1999999-0021REMSYN082AAXX  23004 82392 32996 00506 10260 20196 30008 40110 333 10378 29060 55100 59002;
0156823920999992008092312004-03700-040350FM-12+008399999V0200901N004612200019N0500001N1+02821+01831101261ADDGF104991041021004501001001KA1240N+02121MA1999999100241MD1999999-0111REMSYN076AAXX  23124 82392 32499 40909 10282 20183 30024 40126 84200 333 20212 59011;
0178823920999992008092400004-03700-040350FM-12+008399999V0200501N005712200019N0040001N1+02601+02011101041ADDGA1001+999999999GF100991001001999999001001KA1240M+03761MA1999999100021MD1999999-0061REMSYN082AAXX  24004 82392 32996 00511 10260 20201 30002 40104 333 10376 29065 55106 59006;
0156823920999992008092412004-03700-040350FM-12+008399999V0200901N002112200019N0500001N1+02861+02011101271ADDGF102991021011004501001001KA1240N+02251MA1999999100251MD1999999+0011REMSYN076AAXX  24124 82392 32499 20904 10286 20201 30025 40127 82100 333 20225 58001;
0178823920999992008092500004-03700-040350FM-12+008399999V0200501N004612200019N0040001N1+02641+01981101121ADDGA1001+999999999GF100991001001999999001001KA1240M+03741MA1999999100101MD1999999+0081REMSYN082AAXX  25004 82392 32996 00509 10264 20198 30010 40112 333 10374 29065 55096 58008;
0156823920999992008092512004-03700-040350FM-12+008399999V0200901N005112200019N0500001N1+03001+01841101391ADDGF102991021011004501001001KA1240N+02141MA1999999100371MD1999999+0121REMSYN076AAXX  25124 82392 32499 20910 10300 20184 30037 40139 82100 333 20214 58012;
0178823920999992008092600004-03700-040350FM-12+008399999V0200501N005112200019N0040001N1+02721+02101101211ADDGA1001+999999999GF100991001001999999001001KA1240M+03681MA1999999100201MD1999999+0101REMSYN082AAXX  26004 82392 32996 00510 10272 20210 30020 40121 333 10368 29063 55089 58010;
0156823920999992008092612004-03700-040350FM-12+008399999V0200901N004612200019N0500001N1+02981+01731101391ADDGF103991031021004501001001KA1240N+02181MA1999999100381MD1999999+0011REMSYN076AAXX  26124 82392 32499 30909 10298 20173 30038 40139 83200 333 20218 58001;
0178823920999992008092700004-03700-040350FM-12+008399999V0200501N005712200019N0040001N1+02721+02121101011ADDGA1001+999999999GF100991001001999999001001KA1240M+03781MA1999999100001MD1999999-0201REMSYN082AAXX  27004 82392 32996 00511 10272 20212 30000 40101 333 10378 29062 55102 59020;
0156823920999992008092712004-03700-040350FM-12+008399999V0200901N003112200019N0500001N1+02901+02041101261ADDGF101991011011004501001001KA1240N+02161MA1999999100241MD1999999-0141REMSYN076AAXX  27124 82392 32499 10906 10290 20204 30024 40126 81100 333 20216 59014;
0156823920999992008092812004-03700-040350FM-12+008399999V0201401N001012200019N0500001N1+02821+02101101321ADDGF103991031021004501001001KA1240N+02021MA1999999100301MD1999999+0061REMSYN076AAXX  28124 82392 32499 31402 10282 20210 30030 40132 83200 333 20202 58006;
0156823920999992008092912004-03700-040350FM-12+008399999V0201401N002610450019N0500001N1+02961+01961101271ADDGF106991031021004501031001KA1240N+02221MA1999999100251MD1999999-0051REMSYN076AAXX  29124 82392 32499 61405 10296 20196 30025 40127 83230 333 20222 59005;
0178823920999992008093000004-03700-040350FM-12+008399999V0200501N005112200019N0040001N1+02701+02151101251ADDGA1001+999999999GF100991001001999999001001KA1240M+03661MA1999999100231MD1999999+0051REMSYN082AAXX  30004 82392 32996 00510 10270 20215 30023 40125 333 10366 29086 55066 58005;
0156823920999992008093012004-03700-040350FM-12+008399999V0200901N004112200019N0500001N1+03081+02011101391ADDGF104991041021004501001001KA1240N+02301MA1999999100381MD1999999+0131REMSYN076AAXX  30124 82392 32499 40908 10308 20201 30038 40139 84200 333 20230 58013;
0178823920999992008100100004-03700-040350FM-12+008399999V0200501N004112200019N0040001N1+02761+02141101071ADDGA1001+999999999GF100991001001999999001001KA1240M+03741MA1999999100061MD1999999-0161REMSYN082AAXX  01004 82392 32996 00508 10276 20214 30006 40107 333 10374 29064 55096 59016;
0156823920999992008100112004-03700-040350FM-12+008399999V0201401N002110450019N0500001N1+02841+02041101221ADDGF108991041051004501021999KA1240N+02361MA1999999100201MD1999999-0181REMSYN076AAXX  01124 82392 32499 81404 10284 20204 30020 40122 8452/ 333 20236 59018;
0178823920999992008100200004-03700-040350FM-12+008399999V0200501N003112200019N0040001N1+02721+02081100961ADDGA1001+999999999GF100991001001999999001001KA1240M+03741MA1999999099741MD1999999-0121REMSYN082AAXX  02004 82392 32996 00506 10272 20208 39974 40096 333 10374 29066 55056 59012;
0156823920999992008100212004-03700-040350FM-12+008399999V0201401N002112200019N0500001N1+03021+01801101211ADDGF104991041021004501001001KA1240N+02301MA1999999100201MD1999999+0001REMSYN076AAXX  02124 82392 32499 41404 10302 20180 30020 40121 84200 333 20230 58000;
0178823920999992008100300004-03700-040350FM-12+008399999V0200501N002112200019N0040001N1+02721+02121101061ADDGA1001+999999999GF100991001001999999001001KA1240M+03641MA1999999100051MD1999999+0111REMSYN082AAXX  03004 82392 32996 00504 10272 20212 30005 40106 333 10364 29090 55063 58011;
0156823920999992008100312004-03700-040350FM-12+008399999V0201401N001512200019N0500001N1+03101+01771101131ADDGF102991021011004501001001KA1240N+02201MA1999999100121MD1999999-0081REMSYN076AAXX  03124 82392 32499 21403 10310 20177 30012 40113 82100 333 20220 59008;
0178823920999992008100400004-03700-040350FM-12+008399999V0200501N005112200019N0040001N1+02761+02071100911ADDGA1001+999999999GF100991001001999999001001KA1240M+03721MA1999999099901MD1999999-0151REMSYN082AAXX  04004 82392 32996 00510 10276 20207 39990 40091 333 10372 29059 55106 59015;
0156823920999992008100412004-03700-040350FM-12+008399999V0200901N003112200019N0500001N1+03061+01831101111ADDGF104991031021004501031001KA1240N+02241MA1999999100101MD1999999-0021REMSYN076AAXX  04124 82392 32499 40906 10306 20183 30010 40111 83230 333 20224 59002;
0178823920999992008100500004-03700-040350FM-12+008399999V0200501N004612200019N0040001N1+02741+02191101041ADDGA1001+999999999GF100991001001999999001001KA1240M+03761MA1999999100031MD1999999+0131REMSYN082AAXX  05004 82392 32996 00509 10274 20219 30003 40104 333 10376 29064 55092 58013;
0156823920999992008100512004-03700-040350FM-12+008399999V0201401N001012200019N0500001N1+03021+01691101161ADDGF102991021011004501001001KA1240N+02241MA1999999100151MD1999999+0051REMSYN076AAXX  05124 82392 32499 21402 10302 20169 30015 40116 82100 333 20224 58005;
0178823920999992008100600004-03700-040350FM-12+008399999V0200501N003112200019N0040001N1+02821+01831101061ADDGA1001+999999999GF100991001001999999001001KA1240M+03681MA1999999100051MD1999999+0021REMSYN082AAXX  06004 82392 32996 00506 10282 20183 30005 40106 333 10368 29052 55072 58002;
0156823920999992008100612004-03700-040350FM-12+008399999V0200901N003110450019N0500001N1+02881+01971101281ADDGF106991041021004501031001KA1240N+02221MA1999999100271MD1999999+0121REMSYN076AAXX  06124 82392 32499 60906 10288 20197 30027 40128 84230 333 20222 58012;
0123823920999992008100618004-03700-040350FM-12+008399999V0200501N004612200019N0500001N1+03641+01551100721ADDGF103991031021004501001001MA1999999099711REMSYN070AAXX  06184 82392 32499 30509 10364 20155 39971 40072 83200 333 5////;
0178823920999992008100700004-03700-040350FM-12+008399999V0200501N001012200019N0040001N1+02651+01821101181ADDGA1001+999999999GF100991001001999999001001KA1240M+03731MA1999999100161MD1999999+0111REMSYN082AAXX  07004 82392 32996 00502 10265 20182 30016 40118 333 10373 29052 55098 58011;
0156823920999992008100712004-03700-040350FM-12+008399999V0200901N001510450019N0500001N1+02761+01861101501ADDGF107991041041004501031001KA1240N+02201MA1999999100471MD1999999+0201REMSYN076AAXX  07124 82392 32499 70903 10276 20186 30047 40150 84430 333 20220 58020;
0156823920999992008100718004-03700-040350FM-12+008399999V0201401N001012200019N0500001N1+03641+01191999999ADDGF101991011011004501001001MA1999999099761MD1999999+0051REMSYN070AAXX  07184 82392 32499 11402 10364 20119 39976 49977 81100 333 58005;EQDQ01+099773APOSLP
0178823920999992008100800004-03700-040350FM-12+008399999V0203601N002612200019N0040001N1+02681+01811101161ADDGA1001+999999999GF100991001001999999001001KA1240M+03761MA1999999100141MD1999999-0021REMSYN082AAXX  08004 82392 32996 03605 10268 20181 30014 40116 333 10376 29050 55092 59002;
0156823920999992008100812004-03700-040350FM-12+008399999V0200501N004612200019N0500001N1+03111+01891101371ADDGF104991041021004501001001KA1240N+02211MA1999999100361MD1999999-0111REMSYN076AAXX  08124 82392 32499 40509 10311 20189 30036 40137 84200 333 20221 59011;
0137823920999992008100818004-03700-040350FM-12+008399999V0200901N002112200019N0500001N1+03621+01481100741ADDGF102991021011004501001001MA1999999099731MD1999999-0031REMSYN070AAXX  08184 82392 32499 20904 10362 20148 39973 40074 82100 333 59003;
0178823920999992008100900004-03700-040350FM-12+008399999V0203601N001012200019N0040001N1+02641+01931101141ADDGA1001+999999999GF100991001001999999001001KA1240M+03711MA1999999100121MD1999999-0021REMSYN082AAXX  09004 82392 32996 03602 10264 20193 30012 40114 333 10371 29052 55103 59002;
0156823920999992008100912004-03700-040350FM-12+008399999V0201801N000510450019N0500001N1+02801+02081101391ADDGF106991041041004501031001KA1240N+02191MA1999999100371MD1999999-0011REMSYN076AAXX  09124 82392 32499 61801 10280 20208 30037 40139 84430 333 20219 59001;
0137823920999992008100918004-03700-040350FM-12+008399999V0200901N001010042019N0500001N1+03621+01641100731ADDGF105991051021004501001001MA1999999099721MD1999999-0011REMSYN070AAXX  09184 82392 32499 50902 10362 20164 39972 40073 85200 333 59001;
0178823920999992008101000004-03700-040350FM-12+008399999V0203601N004112200019N0040001N1+02701+01991101021ADDGA1001+999999999GF100991001001999999001001KA1240M+03701MA1999999100001MD1999999-0121REMSYN082AAXX  10004 82392 32996 03608 10270 20199 30000 40102 333 10370 29056 55081 59012;
0156823920999992008101012004-03700-040350FM-12+008399999V0201401N002112200019N0500001N1+02941+01911101351ADDGF104991041021004501001001KA1240N+02181MA1999999100131MD1999999-0241REMSYN076AAXX  10124 82392 32499 41404 10294 20191 30013 40135 84200 333 20218 59024;
0137823920999992008101018004-03700-040350FM-12+008399999V0201401N000512200019N0500001N1+03601+01711100611ADDGF104991041021004501001001MA1999999099611MD1999999-0111REMSYN070AAXX  10184 82392 32499 41401 10360 20171 39961 40061 84200 333 59011;
0178823920999992008101100004-03700-040350FM-12+008399999V0200501N005112200019N0040001N1+02661+02071100891ADDGA1001+999999999GF100991001001999999001001KA1240M+03821MA1999999099871MD1999999+0131REMSYN082AAXX  11004 82392 32996 00510 10266 20207 39987 40089 333 10382 29056 55109 58013;
0156823920999992008101112004-03700-040350FM-12+008399999V0201401N001510042019N0500001N1+03081+01921101061ADDGF105991051021004501001001KA1240N+02231MA1999999100051MD1999999-0081REMSYN076AAXX  11124 82392 32499 51403 10308 20192 30005 40106 85200 333 20223 59008;
0172823920999992008101118004-03700-040350FM-12+008399999V0200501N002612200019N0500001N1+03761+01561999999ADDGF103991999021004501001001MA1999999099481MD1999999-0131REMSYN070AAXX  11184 82392 32499 30505 10376 20156 39948 40004 82200 333 59013;EQDQ01+000022SCOTLCQ02+100043APOSLP
0178823920999992008101200004-03700-040350FM-12+008399999V0203601N001512200019N0040001N1+02721+01931100921ADDGA1001+999999999GF100991001001999999001001KA1240M+03831MA1999999099911MD1999999+0041REMSYN082AAXX  12004 82392 32996 03603 10272 20193 39991 40092 333 10383 29050 55110 58004;
0156823920999992008101212004-03700-040350FM-12+008399999V0200901N005112200019N0500001N1+03041+01881101211ADDGF101991011011004501001001KA1240N+02281MA1999999100201MD1999999+0151REMSYN076AAXX  12124 82392 32499 10910 10304 20188 30020 40121 81100 333 20228 58015;
0137823920999992008101218004-03700-040350FM-12+008399999V0201401N003112200019N0500001N1+03611+01421100671ADDGF101991011011004501001001MA1999999099661MD1999999+0181REMSYN070AAXX  12184 82392 32499 11406 10361 20142 39966 40067 81100 333 58018;
0178823920999992008101300004-03700-040350FM-12+008399999V0200501N005112200019N0040001N1+02781+01981101011ADDGA1001+999999999GF100991001001999999001001KA1240M+03681MA1999999100001MD1999999+0071REMSYN082AAXX  13004 82392 32996 00510 10278 20198 30000 40101 333 10368 29050 55107 58007;
0156823920999992008101312004-03700-040350FM-12+008399999V0200901N002612200019N0500001N1+03021+02021101211ADDGF104991041021004501001001KA1240N+02321MA1999999100201MD1999999+0001REMSYN076AAXX  13124 82392 32499 40905 10302 20202 30020 40121 84200 333 20232 58000;
0137823920999992008101318004-03700-040350FM-12+008399999V0200901N004610450019N0500001N1+03541+01521100661ADDGF107991041051004501031001MA1999999099651MD1999999-0011REMSYN070AAXX  13184 82392 32499 70909 10354 20152 39965 40066 84530 333 59001;
0178823920999992008101400004-03700-040350FM-12+008399999V0200501N003112200019N0040001N1+02741+02121100931ADDGA1001+999999999GF100991001001999999001001KA1240M+03761MA1999999099921MD1999999-0081REMSYN082AAXX  14004 82392 32996 00506 10274 20212 39992 40093 333 10376 29056 55089 59008;
0156823920999992008101412004-03700-040350FM-12+008399999V0201401N004112200019N0500001N1+03101+01871100971ADDGF103991031021004501001001KA1240N+02341MA1999999099961MD1999999-0241REMSYN076AAXX  14124 82392 32499 31408 10310 20187 39996 40097 83200 333 20234 59024;
0137823920999992008101418004-03700-040350FM-12+008399999V0200901N003112200019N0500001N1+03731+01401100561ADDGF104991041021004501001001MA1999999099561MD1999999-0091REMSYN070AAXX  14184 82392 32499 40906 10373 20140 39956 40056 84200 333 59009;
0178823920999992008101500004-03700-040350FM-12+008399999V0203601N002112200019N0040001N1+02701+02081100931ADDGA1001+999999999GF100991001001999999001001KA1240M+03811MA1999999099921MD1999999+0001REMSYN082AAXX  15004 82392 32996 03604 10270 20208 39992 40093 333 10381 29053 55106 58000;
0156823920999992008101512004-03700-040350FM-12+008399999V0201401N002112200019N0500001N1+03041+01711101201ADDGF103991031021004501001001KA1240N+02281MA1999999100191MD1999999+0231REMSYN076AAXX  15124 82392 32499 31404 10304 20171 30019 40120 83200 333 20228 58023;
0137823920999992008101518004-03700-040350FM-12+008399999V0200501N003112200019N0500001N1+03661+01571100711ADDGF101991011011004501001001MA1999999099701MD1999999+0141REMSYN070AAXX  15184 82392 32499 10506 10366 20157 39970 40071 81100 333 58014;
0178823920999992008101600004-03700-040350FM-12+008399999V0200501N001012200019N0040001N1+02701+02011101121ADDGA1001+999999999GF100991001001999999001001KA1240M+03741MA1999999100111MD1999999+0191REMSYN082AAXX  16004 82392 32996 00502 10270 20201 30011 40112 333 10374 29052 55107 58019;
0156823920999992008101612004-03700-040350FM-12+008399999V0200901N001012200019N0500001N1+03011+01801101401ADDGF102991021011004501001001KA1240N+02171MA1999999100391MD1999999+0201REMSYN076AAXX  16124 82392 32499 20902 10301 20180 30039 40140 82100 333 20217 58020;
0137823920999992008101618004-03700-040350FM-12+008399999V0200501N001012200019N0500001N1+03711+01561100891ADDGF104991041011004501001001MA1999999099881MD1999999+0181REMSYN070AAXX  16184 82392 32499 40502 10371 20156 39988 40089 84100 333 58018;
0178823920999992008101700004-03700-040350FM-12+008399999V0200501N003112200019N0040001N1+02701+02061101171ADDGA1001+999999999GF100991001001999999001001KA1240M+03761MA1999999100161MD1999999+0051REMSYN082AAXX  17004 82392 32996 00506 10270 20206 30016 40117 333 10376 29053 55102 58005;
0175823920999992008101712004-03700-040350FM-12+008399999V0200901N003119999999N0500001N1+02961+01961101221ADDGF106991999021004501001001KA1240N+02151MA1999999100201MD1999999-0191REMSYN076AAXX  17124 82392 32499 60906 10296 20196 30020 40122 84200 333 20215 59019;EQDQ01+000042SCOTLC
0137823920999992008101718004-03700-040350FM-12+008399999V0203601N001010450019N0500001N1+03601+01721100791ADDGF105991041021004501011001MA1999999099781MD1999999-0101REMSYN070AAXX  17184 82392 32499 53602 10360 20172 39978 40079 84210 333 59010;
0178823920999992008101800004-03700-040350FM-12+008399999V0200501N003112200019N0040001N1+02661+02071101161ADDGA1001+999999999GF100991001001999999001001KA1240M+03741MA1999999100141MD1999999-0021REMSYN082AAXX  18004 82392 32996 00506 10266 20207 30014 40116 333 10374 29057 55099 59002;
0156823920999992008101812004-03700-040350FM-12+008399999V0200901N002110450019N0500001N1+02901+02041101271ADDGF106991041021004501031001KA1240N+02301MA1999999100251MD1999999+0051REMSYN076AAXX  18124 82392 32499 60904 10290 20204 30025 40127 84230 333 20230 58005;
0137823920999992008101818004-03700-040350FM-12+008399999V0200501N001012200019N0500001N1+03711+01371100851ADDGF103991031021004501001001MA1999999099841MD1999999+0061REMSYN070AAXX  18184 82392 32499 30502 10371 20137 39984 40085 83200 333 58006;
0178823920999992008101900004-03700-040350FM-12+008399999V0200501N004612200019N0040001N1+02681+02061101081ADDGA1001+999999999GF100991001001999999001001KA1240M+03761MA1999999100061MD1999999-0081REMSYN082AAXX  19004 82392 32996 00509 10268 20206 30006 40108 333 10376 29056 55091 59008;
0156823920999992008101912004-03700-040350FM-12+008399999V0201401N002610042019N0500001N1+03061+01901101391ADDGF106991061021004501001001KA1240N+02271MA1999999100381MD1999999+0131REMSYN076AAXX  19124 82392 32499 61405 10306 20190 30038 40139 86200 333 20227 58013;
0137823920999992008101918004-03700-040350FM-12+008399999V0200901N003110450019N0500001N1+03691+01491100851ADDGF105991031011004501011001MA1999999099841MD1999999+0001REMSYN070AAXX  19184 82392 32499 50906 10369 20149 39984 40085 83110 333 58000;
0178823920999992008102000004-03700-040350FM-12+008399999V0203601N002112200019N0040001N1+02671+01861101151ADDGA1001+999999999GF100991001001999999001001KA1240M+03811MA1999999100141MD1999999+0081REMSYN082AAXX  20004 82392 32996 03604 10267 20186 30014 40115 333 10381 29050 55099 58008;
0156823920999992008102012004-03700-040350FM-12+008399999V0200901N004112200019N0500001N1+02881+02031101391ADDGF104991041021004501001001KA1240N+02211MA1999999100371MD1999999-0011REMSYN076AAXX  20124 82392 32499 40908 10288 20203 30037 40139 84200 333 20221 59001;
0137823920999992008102018004-03700-040350FM-12+008399999V0200501N001512200019N0500001N1+03641+01601100911ADDGF104991021011004501031001MA1999999099921MD1999999+0081REMSYN070AAXX  20184 82392 32499 40503 10364 20160 39992 40091 82130 333 58008;
0178823920999992008102100004-03700-040350FM-12+008399999V0203601N001512200019N0040001N1+02661+02091101241ADDGA1001+999999999GF100991001001999999001001KA1240M+03731MA1999999100221MD1999999+0081REMSYN082AAXX  21004 82392 32996 03603 10266 20209 30022 40124 333 10373 29058 55101 58008;
0156823920999992008102112004-03700-040350FM-12+008399999V0200901N003112200019N0500001N1+03021+01861101321ADDGF102991021011004501001001KA1240N+02361MA1999999100301MD1999999-0071REMSYN076AAXX  21124 82392 32499 20906 10302 20186 30030 40132 82100 333 20236 59007;
0137823920999992008102118004-03700-040350FM-12+008399999V0200901N002112200019N0500001N1+03621+01531100791ADDGF104991041011004501001001MA1999999099781MD1999999-0141REMSYN070AAXX  21184 82392 32499 40904 10362 20153 39978 40079 84100 333 59014;
0178823920999992008102200004-03700-040350FM-12+008399999V0203601N003112200019N0040001N1+02741+01951101111ADDGA1001+999999999GF100991001001999999001001KA1240M+02701MA1999999100101MD1999999-0121REMSYN082AAXX  22004 82392 32996 03606 10274 20195 30010 40111 333 10270 29051 55102 59012;
0156823920999992008102212004-03700-040350FM-12+008399999V0200901N004612200019N0500001N1+03041+01851101231ADDGF101991011011004501001001KA1240N+02301MA1999999100221MD1999999-0081REMSYN076AAXX  22124 82392 32499 10909 10304 20185 30022 40123 81100 333 20230 59008;
0137823920999992008102218004-03700-040350FM-12+008399999V0200501N005112200019N0500001N1+03701+01371100621ADDGF102991021011004501001001MA1999999099621MD1999999-0161REMSYN070AAXX  22184 82392 32499 20510 10370 20137 39962 40062 82100 333 59016;
0178823920999992008102300004-03700-040350FM-12+008399999V0203601N003112200019N0040001N1+02791+01921101051ADDGA1001+999999999GF100991001001999999001001KA1240M+03761MA1999999100041MD1999999-0061REMSYN082AAXX  23004 82392 32996 03606 10279 20192 30004 40105 333 10376 29048 55107 59006;
0156823920999992008102312004-03700-040350FM-12+008399999V0200901N002112200019N0500001N1+03031+01601101271ADDGF102991021001004501011001KA1240N+02281MA1999999100261MD1999999+0041REMSYN076AAXX  23124 82392 32499 20904 10303 20160 30026 40127 82010 333 20228 58004;
0137823920999992008102318004-03700-040350FM-12+008399999V0200901N003612200019N0500001N1+03611+01261100721ADDGF102991021011008001001001MA1999999099711MD1999999+0091REMSYN070AAXX  23184 82392 32599 20907 10361 20126 39971 40072 82100 333 58009;
0178823920999992008102400004-03700-040350FM-12+008399999V0200501N004112200019N0040001N1+02741+02121101111ADDGA1001+999999999GF100991001001999999001001KA1240M+03761MA1999999100101MD1999999+0061REMSYN082AAXX  24004 82392 32996 00508 10274 20212 30010 40111 333 10376 29051 55110 58006;
0156823920999992008102412004-03700-040350FM-12+008399999V0200501N002112200019N0500001N1+03001+01841101341ADDGF102991021011004501001001KA1240N+02181MA1999999100331MD1999999+0071REMSYN076AAXX  24124 82392 32499 20504 10300 20184 30033 40134 82100 333 20218 58007;
0137823920999992008102418004-03700-040350FM-12+008399999V0200901N001512200019N0500001N1+03591+01571100811ADDGF103991021011004501001011MA1999999099801MD1999999+0091REMSYN070AAXX  24184 82392 32499 30903 10359 20157 39980 40081 82101 333 58009;
0178823920999992008102500004-03700-040350FM-12+008399999V0200501N004612200019N0040001N1+02721+02121101161ADDGA1001+999999999GF100991001001999999001001KA1240M+03681MA1999999100151MD1999999+0051REMSYN082AAXX  25004 82392 32996 00509 10272 20212 30015 40116 333 10368 29055 55106 58005;
0156823920999992008102512004-03700-040350FM-12+008399999V0200901N001510042019N0500001N1+03091+01771101321ADDGF105991051021004501001001KA1240N+02211MA1999999100311MD1999999-0021REMSYN076AAXX  25124 82392 32499 50903 10309 20177 30031 40132 85200 333 20221 59002;
0137823920999992008102518004-03700-040350FM-12+008399999V0200901N002112200019N0500001N1+03601+01461100681ADDGF103991031021004501001001MA1999999099671MD1999999-0131REMSYN070AAXX  25184 82392 32499 30904 10360 20146 39967 40068 83200 333 59013;
0178823920999992008102600004-03700-040350FM-12+008399999V0203601N004112200019N0040001N1+02641+02091101151ADDGA1001+999999999GF100991001001999999001001KA1240M+03741MA1999999100141MD1999999-0011REMSYN082AAXX  26004 82392 32996 03608 10264 20209 30014 40115 333 10374 29054 55111 59001;
0156823920999992008102612004-03700-040350FM-12+008399999V0200501N004612200019N0500001N1+03061+01731101231ADDGF101991011011004501001001KA1240N+02261MA1999999100221MD1999999-0091REMSYN076AAXX  26124 82392 32499 10509 10306 20173 30022 40123 81100 333 20226 59009;
0137823920999992008102618004-03700-040350FM-12+008399999V0200901N003112200019N0500001N1+03781+01371100681ADDGF101991011011004501001001MA1999999099671MD1999999+0001REMSYN070AAXX  26184 82392 32499 10906 10378 20137 39967 40068 81100 333 58000;
0178823920999992008102700004-03700-040350FM-12+008399999V0200501N005112200019N0040001N1+02681+02091101061ADDGA1001+999999999GF100991001001999999001001KA1240M+03841MA1999999100051MD1999999-0091REMSYN082AAXX  27004 82392 32996 00510 10268 20209 30005 40106 333 10384 29052 55110 59009;
0156823920999992008102712004-03700-040350FM-12+008399999V0200501N001512200019N0500001N1+03061+01731101271ADDGF101991011011004501001001KA1240N+02231MA1999999100261MD1999999+0041REMSYN076AAXX  27124 82392 32499 10503 10306 20173 30026 40127 81100 333 20223 58004;
0137823920999992008102718004-03700-040350FM-12+008399999V0201401N001012200019N0500001N1+03821+01131100701ADDGF101991011011004501001001MA1999999099691MD1999999+0021REMSYN070AAXX  27184 82392 32499 11402 10382 20113 39969 40070 81100 333 58002;
0178823920999992008102800004-03700-040350FM-12+008399999V0203601N003112200019N0040001N1+02661+01971101071ADDGA1001+999999999GF100991001001999999001001KA1240M+03901MA1999999100061MD1999999+0011REMSYN082AAXX  28004 82392 32996 03606 10266 20197 30006 40107 333 10390 29049 55111 58001;
0156823920999992008102812004-03700-040350FM-12+008399999V0200501N004612200019N0500001N1+03041+01881101211ADDGF103991031021004501001001KA1240N+02321MA1999999100201MD1999999-0061REMSYN076AAXX  28124 82392 32499 30509 10304 20188 30020 40121 83200 333 20232 59006;
0137823920999992008102818004-03700-040350FM-12+008399999V0200901N000512200019N0500001N1+03631+01651100681ADDGF104991041021004501001001MA1999999099671MD1999999-0021REMSYN070AAXX  28184 82392 32499 40901 10363 20165 39967 40068 84200 333 59002;
0178823920999992008102900004-03700-040350FM-12+008399999V0200501N004112200019N0040001N1+02621+02011101061ADDGA1001+999999999GF100991001001999999001001KA1240M+03781MA1999999100041MD1999999-0021REMSYN082AAXX  29004 82392 32996 00508 10262 20201 30004 40106 333 10378 29055 55091 59002;
0156823920999992008102912004-03700-040350FM-12+008399999V0200901N005112200019N0500001N1+03021+01761101141ADDGF104991041021004501001001KA1240N+02221MA1999999100121MD1999999-0081REMSYN076AAXX  29124 82392 32499 40910 10302 20176 30012 40114 84200 333 20222 59008;
0178823920999992008103000004-03700-040350FM-12+008399999V0203601N004612200019N0040001N1+02621+01981101001ADDGA1001+999999999GF100991001001999999001001KA1240M+03821MA1999999099981MD1999999-0061REMSYN082AAXX  30004 82392 32996 03609 10262 20198 39998 40100 333 10382 29053 55107 59006;
0156823920999992008103012004-03700-040350FM-12+008399999V0200901N001010042019N0500001N1+03031+01971101251ADDGF105991051021004501001001KA1240N+02241MA1999999100231MD1999999+0111REMSYN076AAXX  30124 82392 32499 50902 10303 20197 30023 40125 85200 333 20224 58011;
0137823920999992008103018004-03700-040350FM-12+008399999V0200901N001012200019N0500001N1+03741+01521100731ADDGF104991031011004501011001MA1999999099721MD1999999+0131REMSYN070AAXX  30184 82392 32499 40902 10374 20152 39972 40073 83110 333 58013;
0178823920999992008103100004-03700-040350FM-12+008399999V0200501N004112200019N0040001N1+02801+01951101051ADDGA1001+999999999GF100991001001999999001001KA1240M+03781MA1999999100041MD1999999+0061REMSYN082AAXX  31004 82392 32996 00508 10280 20195 30004 40105 333 10378 29050 55108 58006;
0156823920999992008103112004-03700-040350FM-12+008399999V0200901N002612200019N0500001N1+03061+01831101211ADDGF104991021021004501031001KA1240N+02351MA1999999100201MD1999999-0031REMSYN076AAXX  31124 82392 32499 40905 10306 20183 30020 40121 82230 333 20235 59003;
0137823920999992008103118004-03700-040350FM-12+008399999V0200901N000512200019N0500001N1+03671+01531100571ADDGF104991041021004501001001MA1999999099571MD1999999-0151REMSYN070AAXX  31184 82392 32499 40901 10367 20153 39957 40057 84200 333 59015;
0178823920999992008110100004-03700-040350FM-12+008399999V0200501N005112200019N0040001N1+02661+02071100991ADDGA1001+999999999GF100991001001999999001001KA1240M+03821MA1999999099981MD1999999-0061REMSYN082AAXX  01004 82392 32996 00510 10266 20207 39998 40099 333 10382 29054 55109 59006;
0156823920999992008110112004-03700-040350FM-12+008399999V0200501N004612200019N0500001N1+03041+01711101171ADDGF103991031021004501001001KA1240N+02281MA1999999100161MD1999999-0041REMSYN076AAXX  01124 82392 32499 30509 10304 20171 30016 40117 83200 333 20228 59004;
0137823920999992008110118004-03700-040350FM-12+008399999V0200901N004112200019N0500001N1+03641+01501100711ADDGF102991021011004501001001MA1999999099701MD1999999+0131REMSYN070AAXX  01184 82392 32499 20908 10364 20150 39970 40071 82100 333 58013;
0178823920999992008110200004-03700-040350FM-12+008399999V0203601N005112200019N0040001N1+02781+01881101051ADDGA1001+999999999GF100991001001999999001001KA1240M+03721MA1999999100041MD1999999+0061REMSYN082AAXX  02004 82392 32996 03610 10278 20188 30004 40105 333 10372 29047 55094 58006;
0156823920999992008110212004-03700-040350FM-12+008399999V0200901N002112200019N0500001N1+03031+01941101281ADDGF103991031011004501001001KA1240N+02181MA1999999100271MD1999999+0111REMSYN076AAXX  02124 82392 32499 30904 10303 20194 30027 40128 83100 333 20218 58011;
0137823920999992008110218004-03700-040350FM-12+008399999V0200901N002112200019N0500001N1+03691+01601100731ADDGF104991041021004501001001MA1999999099721MD1999999+0021REMSYN070AAXX  02184 82392 32499 40904 10369 20160 39972 40073 84200 333 58002;
0178823920999992008110300004-03700-040350FM-12+008399999V0203601N001512200019N0040001N1+02761+02041101141ADDGA1001+999999999GF100991001001999999001001KA1240M+03781MA1999999100131MD1999999+0091REMSYN082AAXX  03004 82392 32496 03603 10276 20204 30013 40114 333 10378 29053 55109 58009;
0156823920999992008110312004-03700-040350FM-12+008399999V0200901N002110450019N0500001N1+03041+02031101221ADDGF106991031041004501031001KA1240N+02341MA1999999100271MD1999999+0001REMSYN076AAXX  03124 82392 32499 60904 10304 20203 30027 40122 83430 333 20234 58000;
0137823920999992008110318004-03700-040350FM-12+008399999V0200501N004110450019N0500001N1+03501+01721100831ADDGF106991041021004501031001MA1999999099821MD1999999+0101REMSYN070AAXX  03184 82392 32499 60508 10350 20172 39982 40083 84230 333 58010;
0168823920999992008110400004-03700-040350FM-12+008399999V0203601N001012200019N0040001N1+02741+02071101101ADDGF102991011011004501001071KA1240M+03711MA1999999100091MD1999999-0041REMSYN088AAXX  04004 82392 32496 23602 10274 20207 30009 40110 81107 333 10371 29056 55079 59004;
0156823920999992008110412004-03700-040350FM-12+008399999V0200501N002610450019N0500001N1+02941+02081101171ADDGF105991031021004501031001KA1240N+02321MA1999999100151MD1999999-0121REMSYN076AAXX  04124 82392 32499 50505 10294 20208 30015 40117 83230 333 20232 59012;
0137823920999992008110418004-03700-040350FM-12+008399999V0200501N001512200019N0500001N1+03681+01641100671ADDGF103991031011004501001001MA1999999099661MD1999999-0161REMSYN070AAXX  04184 82392 32499 30503 10368 20164 39966 40067 83100 333 59016;
0168823920999992008110500004-03700-040350FM-12+008399999V0203601N003612200019N0040001N1+02661+02021101071ADDGF103991011011004501001071KA1240M+03741MA1999999100051MD1999999-0041REMSYN088AAXX  05004 82392 32496 33607 10266 20202 30005 40107 81107 333 10374 29059 55105 59004;
0156823920999992008110512004-03700-040350FM-12+008399999V0200901N003112200019N0500001N1+02941+02081101181ADDGF104991041021004501001001KA1240N+02221MA1999999100161MD1999999+0011REMSYN076AAXX  05124 82392 32499 40906 10294 20208 30016 40118 84200 333 20222 58001;
0137823920999992008110518004-03700-040350FM-12+008399999V0200501N002612200019N0500001N1+03741+01691100601ADDGF102991021011004501001001MA1999999099641MD1999999-0061REMSYN070AAXX  05184 82392 32499 20505 10374 20169 39964 40060 82100 333 59006;
0168823920999992008110600004-03700-040350FM-12+008399999V0203601N003612200019N0040001N1+02671+02161100991ADDGF101991011001008001011001KA1240M+03841MA1999999099971MD1999999-0081REMSYN088AAXX  06004 82392 32596 13607 10267 20216 39997 40099 81010 333 10384 29059 55100 59008;
0156823920999992008110612004-03700-040350FM-12+008399999V0200901N003110450019N0500001N1+02981+01921101161ADDGF106991021021004501011011KA1240N+02271MA1999999100141MD1999999-0021REMSYN076AAXX  06124 82392 32499 60906 10298 20192 30014 40116 82211 333 20227 59002;
0137823920999992008110618004-03700-040350FM-12+008399999V0200901N002610450019N0500001N1+03381+01661100691ADDGF106991011011004501011011MA1999999099671MD1999999+0071REMSYN070AAXX  06184 82392 32499 60905 10338 20166 39967 40069 81111 333 58007;
0156823920999992008110712004-03700-040350FM-12+008399999V0200901N002112200019N0500001N1+02981+01831101141ADDGF102991021011004501001001KA1240N+02121MA1999999100121MD1999999-0021REMSYN076AAXX  07124 82392 32499 20904 10298 20183 30012 40114 82100 333 20212 59002;
0156823920999992008110718004-03700-040350FM-12+008399999V0201401N000512200019N0500001N1+03761+01481100491ADDGF103991999011004501001001MA1999999099491MD1999999-0181REMSYN070AAXX  07184 82392 32499 31401 10376 20148 39949 40049 82100 333 59018;EQDQ01+000022SCOTLC
0168823920999992008110800004-03700-040350FM-12+008399999V0200501N002112200019N0040001N1+02761+02121100861ADDGF102991021001008001031001KA1240M+03841MA1999999099851MD1999999-0071REMSYN088AAXX  08004 82392 32596 20504 10276 20212 39985 40086 82030 333 10384 29053 55110 59007;
0156823920999992008110812004-03700-040350FM-12+008399999V0200901N000510042019N0500001N1+02931+02081101061ADDGF105991051021004501001001KA1240N+02291MA1999999100051MD1999999-0071REMSYN076AAXX  08124 82392 32499 50901 10293 20208 30005 40106 85200 333 20229 59007;
0137823920999992008110818004-03700-040350FM-12+008399999V0200501N002110450019N0500001N1+03631+01851100521ADDGF106991021021004501011011MA1999999099521MD1999999+0031REMSYN070AAXX  08184 82392 32499 60504 10363 20185 39952 40052 82211 333 58003;
0213823920999992008110900004-03700-040350FM-12+008399999V0203601N001512200019N0040001N1+02491+02251100971ADDAA106009991AY161061AY261061GF104991041001008001031001KA1240M+03721MA1999999099951MD1999999+0101MW1021REMSYN100AAXX  09004 82392 21596 43603 10249 20225 39995 40097 70266 84030 333 10372 29067 55092 58010 60101;
0173823920999992008110912004-03700-040350FM-12+008399999V0200901N001010450019N0500001N1+02821+02101101221ADDAA124009991GF106991041021004501031001KA1240N+02201MA1999999100201MD1999999+0151REMSYN082AAXX  09124 82392 22499 60902 10282 20210 30020 40122 84230 333 20220 58015 60104;
0137823920999992008110918004-03700-040350FM-12+008399999V0200501N002112200019N0500001N1+03501+01721100751ADDGF104991041021004501001001MA1999999099741MD1999999+0221REMSYN070AAXX  09184 82392 32499 40504 10350 20172 39974 40075 84200 333 58022;
0178823920999992008111000004-03700-040350FM-12+008399999V0200501N004612200019N0040001N1+02641+02091101021ADDGA1001+999999999GF100991001001999999001001KA1240M+03621MA1999999100001MD1999999+0051REMSYN082AAXX  10004 82392 32996 00509 10264 20209 30000 40102 333 10362 29061 55096 58005;
0156823920999992008111012004-03700-040350FM-12+008399999V0200501N001012200019N0500001N1+02881+02031101181ADDGF102991021021004501001001KA1240N+02201MA1999999100161MD1999999-0041REMSYN076AAXX  10124 82392 32499 20502 10288 20203 30016 40118 82200 333 20220 59004;
0137823920999992008111018004-03700-040350FM-12+008399999V0200501N001012200019N0500001N1+03681+01641100621ADDGF104991031021004501001011MA1999999099621MD1999999-0141REMSYN070AAXX  10184 82392 32499 40502 10368 20164 39962 40062 83201 333 59014;
0168823920999992008111100004-03700-040350FM-12+008399999V0203601N002612200019N0040001N1+02721+01981101031ADDGF101991011001008001011001KA1240M+03741MA1999999100011MD1999999+0011REMSYN088AAXX  11004 82392 32596 13605 10272 20198 30001 40103 81010 333 10374 29055 55101 58001;
0156823920999992008111112004-03700-040350FM-12+008399999V0200901N001010450019N0500001N1+02801+01951101071ADDGF107991041041004501031001KA1240N+02211MA1999999100051MD1999999-0111REMSYN076AAXX  11124 82392 32499 70902 10280 20195 30005 40107 84430 333 20221 59011;
0137823920999992008111118004-03700-040350FM-12+008399999V0201401N000512200019N0500001N1+03531+01761100561ADDGF103991031021004501001001MA1999999099561MD1999999-0061REMSYN070AAXX  11184 82392 32499 31401 10353 20176 39956 40056 83200 333 59006;
0178823920999992008111200004-03700-040350FM-12+008399999V0203601N003112200019N0040001N1+02641+02031100881ADDGA1001+999999999GF100991001001999999001001KA1240M+03661MA1999999099861MD1999999-0151REMSYN082AAXX  12004 82392 32996 03606 10264 20203 39986 40088 333 10366 29058 55080 59015;
0156823920999992008111212004-03700-040350FM-12+008399999V0200901N004610450019N0500001N1+02901+02041100991ADDGF106991031021004501031001KA1240N+02361MA1999999099971MD1999999-0091REMSYN076AAXX  12124 82392 32499 60909 10290 20204 39997 40099 83230 333 20236 59009;
0137823920999992008111218004-03700-040350FM-12+008399999V0200901N002110450019N0500001N1+03501+01941100501ADDGF106991041021004501031001MA1999999099501MD1999999-0061REMSYN070AAXX  12184 82392 32499 60904 10350 20194 39950 40050 84230 333 59006;
0168823920999992008111300004-03700-040350FM-12+008399999V0203601N002112200019N0040001N1+02671+02061100761ADDGF101991011001008001011001KA1240M+03661MA1999999099741MD1999999-0121REMSYN088AAXX  13004 82392 32596 13604 10267 20206 39974 40076 81010 333 10366 29060 55082 59012;
0156823920999992008111312004-03700-040350FM-12+008399999V0200501N003110450019N0500001N1+03041+02121100951ADDGF106991041041004501031001KA1240N+02391MA1999999099941MD1999999-0021REMSYN076AAXX  13124 82392 32499 60506 10304 20212 39994 40095 84430 333 20239 59002;
0137823920999992008111318004-03700-040350FM-12+008399999V0200901N001512200019N0500001N1+03561+01951100421ADDGF104991041021008001001001MA1999999099421MD1999999-0081REMSYN070AAXX  13184 82392 32599 40903 10356 20195 39942 40042 84200 333 59008;
0178823920999992008111400004-03700-040350FM-12+008399999V0200501N004112200019N0040001N1+02701+02061100801ADDGA1001+999999999GF100991001001999999001001KA1240M+03661MA1999999099791MD1999999+0051REMSYN082AAXX  14004 82392 32996 00508 10270 20206 39979 40080 333 10366 29058 55100 58005;
0156823920999992008111412004-03700-040350FM-12+008399999V0200901N004612200019N0500001N1+02941+02031100961ADDGF104991041021004501001001KA1240N+02181MA1999999099941MD1999999+0001REMSYN076AAXX  14124 82392 32499 40909 10294 20203 39994 40096 84200 333 20218 58000;
0137823920999992008111418004-03700-040350FM-12+008399999V0200901N002112200019N0500001N1+03491+01861100371ADDGF104991041021004501001001MA1999999099361MD1999999-0061REMSYN070AAXX  14184 82392 32499 40904 10349 20186 39936 40037 84200 333 59006;
0178823920999992008111500004-03700-040350FM-12+008399999V0200501N003112200019N0040001N1+02741+01891100671ADDGA1001+999999999GF100991001001999999001001KA1240M+03641MA1999999099651MD1999999-0141REMSYN082AAXX  15004 82392 32996 00506 10274 20189 39965 40067 333 10364 29054 55085 59014;
0156823920999992008111512004-03700-040350FM-12+008399999V0200501N004610450019N0500001N1+02921+01921100921ADDGF106991041021004501031001KA1240N+02301MA1999999099901MD1999999-0041REMSYN076AAXX  15124 82392 32499 60509 10292 20192 39990 40092 84230 333 20230 59004;
0137823920999992008111518004-03700-040350FM-12+008399999V0200501N005112200019N0500001N1+03541+01521100401ADDGF103991031021004501001001MA1999999099401MD1999999+0041REMSYN070AAXX  15184 82392 32499 30510 10354 20152 39940 40040 83200 333 58004;
0178823920999992008111600004-03700-040350FM-12+008399999V0200501N005712200019N0040001N1+02681+02061100741ADDGA1001+999999999GF100991001001999999001001KA1240M+03661MA1999999099721MD1999999+0071REMSYN082AAXX  16004 82392 32996 00511 10268 20206 39972 40074 333 10366 29056 55088 58007;
0156823920999992008111612004-03700-040350FM-12+008399999V0200901N000510042019N0500001N1+02961+02021100961ADDGF106991061021004501001001KA1240N+02211MA1999999099941MD1999999+0041REMSYN076AAXX  16124 82392 32499 60901 10296 20202 39994 40096 86200 333 20221 58004;
0137823920999992008111618004-03700-040350FM-12+008399999V0200501N002612200019N0500001N1+03661+01621100451ADDGF104991041021004501001001MA1999999099451MD1999999+0051REMSYN070AAXX  16184 82392 32499 40505 10366 20162 39945 40045 84200 333 58005;
0178823920999992008111700004-03700-040350FM-12+008399999V0200501N003112200019N0040001N1+02661+01901100781ADDGA1001+999999999GF100991001001999999001001KA1240M+03761MA1999999099761MD1999999+0041REMSYN082AAXX  17004 82392 32996 00506 10266 20190 39976 40078 333 10376 29053 55102 58004;
0156823920999992008111712004-03700-040350FM-12+008399999V0203601N002110450019N0500001N1+02781+01931101021ADDGF107991041021004501031001KA1240N+02161MA1999999100001MD1999999+0061REMSYN076AAXX  17124 82392 32499 73604 10278 20193 30000 40102 84230 333 20216 58006;
0137823920999992008111718004-03700-040350FM-12+008399999V0201401N001512200019N0500001N1+03641+01601100521ADDGF103991031021004501001001MA1999999099521MD1999999+0071REMSYN070AAXX  17184 82392 32499 31403 10364 20160 39952 40052 83200 333 58007;
0178823920999992008111800004-03700-040350FM-12+008399999V0203601N002112200019N0040001N1+02701+02031100851ADDGA1001+999999999GF100991001001999999001001KA1240M+03721MA1999999099831MD1999999+0071REMSYN082AAXX  18004 82392 32996 03604 10270 20203 39983 40085 333 10372 29056 55087 58007;
0156823920999992008111812004-03700-040350FM-12+008399999V0200901N004610450019N0500001N1+02901+02041101021ADDGF106991041021004501031001KA1240N+02141MA1999999100001MD1999999+0001REMSYN076AAXX  18124 82392 32499 60909 10290 20204 30000 40102 84230 333 20214 58000;
0141823920999992008111818004-03700-040350FM-12+008399999V0200901N003610450019N0500001N1+03541+01761100491ADDGF106991031021004501011001MD1999999-0041REMSYN070AAXX  18184 82392 32499 60907 10354 20176 30094 40049 83210 333 59004;EQDQ01+100943APOSP 
0178823920999992008111900004-03700-040350FM-12+008399999V0203601N002112200019N0040001N1+02731+01841100861ADDGA1001+999999999GF100991001001999999001001KA1240M+03641MA1999999099841MD1999999+0011REMSYN082AAXX  19004 82392 32996 03604 10273 20184 39984 40086 333 10364 29053 55074 58001;
0156823920999992008111912004-03700-040350FM-12+008399999V0200901N004110450019N0500001N1+02901+02041101071ADDGF107991031041004501031001KA1240N+02211MA1999999100051MD1999999+0051REMSYN076AAXX  19124 82392 32499 70908 10290 20204 30005 40107 83430 333 20221 58005;
0137823920999992008111918004-03700-040350FM-12+008399999V0201401N002112200019N0500001N1+03621+01481100501ADDGF103991031011004501001001MA1999999099501MD1999999+0021REMSYN070AAXX  19184 82392 32499 31404 10362 20148 39950 40050 83100 333 58002;
0178823920999992008112000004-03700-040350FM-12+008399999V0200501N003112200019N0040001N1+02631+02071100881ADDGA1001+999999999GF100991001001999999001001KA1240M+03701MA1999999099861MD1999999+0021REMSYN082AAXX  20004 82392 32996 00506 10263 20207 39986 40088 333 10370 29058 55089 58002;
0156823920999992008112012004-03700-040350FM-12+008399999V0203601N001510042019N0500001N1+02891+02021101071ADDGF105991051021004501001001KA1240N+02201MA1999999100051MD1999999+0001REMSYN076AAXX  20124 82392 32499 53603 10289 20202 30005 40107 85200 333 20220 58000;
0137823920999992008112018004-03700-040350FM-12+008399999V0203601N003112200019N0500001N1+03611+01741100531ADDGF102991021011004501001001MA1999999099531MD1999999+0031REMSYN070AAXX  20184 82392 32499 23606 10361 20174 39953 40053 82100 333 58003;
0178823920999992008112100004-03700-040350FM-12+008399999V0200501N002112200019N0040001N1+02661+02161101021ADDGA1001+999999999GF100991001001999999001001KA1240M+03741MA1999999100001MD1999999+0141REMSYN082AAXX  21004 82392 32996 00504 10266 20216 30000 40102 333 10374 29060 55111 58014;
0156823920999992008112112004-03700-040350FM-12+008399999V0201401N001512200019N0500001N1+02941+02081101181ADDGF103991031021004501001001KA1240N+02081MA1999999100161MD1999999+0111REMSYN076AAXX  21124 82392 32499 31403 10294 20208 30016 40118 83200 333 20208 58011;
0137823920999992008112118004-03700-040350FM-12+008399999V0200901N002112200019N0500001N1+03611+01551100671ADDGF103991021011004501001011MA1999999099661MD1999999+0131REMSYN070AAXX  21184 82392 32499 30904 10361 20155 39966 40067 82101 333 58013;
0178823920999992008112200004-03700-040350FM-12+008399999V0200501N004612200019N0040001N1+02761+02251101111ADDGA1001+999999999GF100991001001999999001001KA1240M+03721MA1999999100101MD1999999+0101REMSYN082AAXX  22004 82392 32996 00509 10276 20225 30010 40111 333 10372 29059 55105 58010;
0156823920999992008112212004-03700-040350FM-12+008399999V0200501N003112200019N0500001N1+03041+02181101211ADDGF103991031021004501001001KA1240N+02181MA1999999100201MD1999999+0041REMSYN076AAXX  22124 82392 32499 30506 10304 20218 30020 40121 83200 333 20218 58004;
0137823920999992008112218004-03700-040350FM-12+008399999V0201401N002112200019N0500001N1+03661+01401100641ADDGF104991031021004501031001MA1999999099641MD1999999-0021REMSYN070AAXX  22184 82392 32499 41404 10366 20140 39964 40064 83230 333 59002;
0178823920999992008112300004-03700-040350FM-12+008399999V0200501N003112200019N0040001N1+02781+02181100881ADDGA1001+999999999GF100991001001999999001001KA1240M+03771MA1999999099871MD1999999-0231REMSYN082AAXX  23004 82392 32996 00506 10278 20218 39987 40088 333 10377 29056 55111 59023;
0156823920999992008112312004-03700-040350FM-12+008399999V0200901N004610450019N0500001N1+02901+02171101121ADDGF106991031021004501031001KA1240N+02231MA1999999100121MD1999999-0101REMSYN076AAXX  23124 82392 32499 60909 10290 20217 30012 40112 83230 333 20223 59010;
0137823920999992008112318004-03700-040350FM-12+008399999V0200501N004112200019N0500001N1+03641+01851100541ADDGF103991031021004501001001MA1999999099541MD1999999-0101REMSYN070AAXX  23184 82392 32499 30508 10364 20185 39954 40054 83200 333 59010;
0178823920999992008112400004-03700-040350FM-12+008399999V0200501N005112200019N0040001N1+02781+02131100891ADDGA1001+999999999GF100991001001999999001001KA1240M+03681MA1999999099871MD1999999+0001REMSYN082AAXX  24004 82392 32996 00510 10278 20213 39987 40089 333 10368 29059 55106 58000;
0156823920999992008112412004-03700-040350FM-12+008399999V0200501N004110450019N0500001N1+03081+02131101061ADDGF105991031021004501031001KA1240N+02301MA1999999100051MD1999999-0051REMSYN076AAXX  24124 82392 32499 50508 10308 20213 30005 40106 83230 333 20230 59005;
0137823920999992008112418004-03700-040350FM-12+008399999V0200501N005112200019N0500001N1+03661+01621100531ADDGF104991041021004501001001MA1999999099531MD1999999-0011REMSYN070AAXX  24184 82392 32499 40510 10366 20162 39953 40053 84200 333 59001;
0178823920999992008112500004-03700-040350FM-12+008399999V0203601N001512200019N0040001N1+02731+01891100981ADDGA1001+999999999GF100991001001999999001001KA1240M+02761MA1999999099971MD1999999+0101REMSYN082AAXX  25004 82392 32996 03603 10273 20189 39997 40098 333 10276 29052 55109 58010;
0156823920999992008112512004-03700-040350FM-12+008399999V0200901N005112200019N0500001N1+03081+02071101061ADDGF104991041021004501001001KA1240N+02261MA1999999100051MD1999999+0001REMSYN076AAXX  25124 82392 32499 40910 10308 20207 30005 40106 84200 333 20226 58000;
0137823920999992008112518004-03700-040350FM-12+008399999V0203601N002110042019N0500001N1+03691+01851100571ADDGF105991051021004501001001MA1999999099571MD1999999+0041REMSYN070AAXX  25184 82392 32499 53604 10369 20185 39957 40057 85200 333 58004;
0178823920999992008112600004-03700-040350FM-12+008399999V0203601N002612200019N0040001N1+02731+02071100991ADDGA1001+999999999GF100991001001999999001001KA1240M+03781MA1999999099981MD1999999+0011REMSYN082AAXX  26004 82392 32996 03605 10273 20207 39998 40099 333 10378 29056 55104 58001;
0156823920999992008112612004-03700-040350FM-12+008399999V0200901N002110450019N0500001N1+03021+01921101061ADDGF105991041021004501031001KA1240N+02261MA1999999100051MD1999999+0001REMSYN076AAXX  26124 82392 32499 50904 10302 20192 30005 40106 84230 333 20226 58000;
0137823920999992008112618004-03700-040350FM-12+008399999V0200901N004612200019N0500001N1+03641+01751100561ADDGF102991021011004501001001MA1999999099561MD1999999-0011REMSYN070AAXX  26184 82392 32499 20909 10364 20175 39956 40056 82100 333 59001;
0178823920999992008112700004-03700-040350FM-12+008399999V0203601N002112200019N0040001N1+02731+02051100901ADDGA1001+999999999GF100991001001999999001001KA1240M+03731MA1999999099891MD1999999-0091REMSYN082AAXX  27004 82392 32996 03604 10273 20205 39989 40090 333 10373 29054 55106 59009;
0156823920999992008112712004-03700-040350FM-12+008399999V0201401N004610450019N0500001N1+03011+01961101131ADDGF105991041021004501011001KA1240N+02291MA1999999100121MD1999999+0071REMSYN076AAXX  27124 82392 32499 51409 10301 20196 30012 40113 84210 333 20229 58007;
0137823920999992008112718004-03700-040350FM-12+008399999V0200901N001510450019N0500001N1+03581+01391100661ADDGF106991021011004501011001MA1999999099651MD1999999+0091REMSYN070AAXX  27184 82392 32499 60903 10358 20139 39965 40066 82110 333 58009;
0178823920999992008112800004-03700-040350FM-12+008399999V0200501N003112200019N0040001N1+02741+02101100931ADDGA1001+999999999GF100991001001999999001001KA1240M+03681MA1999999099921MD1999999+0031REMSYN082AAXX  28004 82392 32996 00506 10274 20210 39992 40093 333 10368 29054 55079 58003;
0156823920999992008112812004-03700-040350FM-12+008399999V0201401N001010450019N0500001N1+02821+02021101071ADDGF106991041041004501031001KA1240N+02261MA1999999100051MD1999999-0071REMSYN076AAXX  28124 82392 32499 61402 10282 20202 30005 40107 84430 333 20226 59007;
0137823920999992008112818004-03700-040350FM-12+008399999V0203601N001510450019N0500001N1+03491+01771100531ADDGF106991021011004501011001MA1999999099531MD1999999-0121REMSYN070AAXX  28184 82392 32499 63603 10349 20177 39953 40053 82110 333 59012;
0178823920999992008112900004-03700-040350FM-12+008399999V0200501N005112200019N0040001N1+02761+02071100901ADDGA1001+999999999GF100991001001999999001001KA1240M+03621MA1999999099881MD1999999-0041REMSYN082AAXX  29004 82392 32996 00510 10276 20207 39988 40090 333 10362 29058 55054 59004;
0156823920999992008112912004-03700-040350FM-12+008399999V0201401N000510042019N0500001N1+02911+02091101121ADDGF106991061021004501001001KA1240N+02271MA1999999100101MD1999999+0051REMSYN076AAXX  29124 82392 32499 61401 10291 20209 30010 40112 86200 333 20227 58005;
0137823920999992008112918004-03700-040350FM-12+008399999V0203601N001010042019N0500001N1+02711+01621100591ADDGF105991051021004501001001MA1999999099591MD1999999+0061REMSYN070AAXX  29184 82392 32499 53602 10271 20162 39959 40059 85200 333 58006;
0178823920999992008113000004-03700-040350FM-12+008399999V0203601N001512200019N0040001N1+02741+02121101011ADDGA1001+999999999GF100991001001999999001001KA1240M+03801MA1999999099991MD1999999+0111REMSYN082AAXX  30004 82392 32996 03603 10274 20212 39999 40101 333 10380 29057 55090 58011;
0156823920999992008113012004-03700-040350FM-12+008399999V0203601N000510450019N0500001N1+02871+02161101191ADDGF107991031021004501031001KA1240N+02391MA1999999100171MD1999999+0071REMSYN076AAXX  30124 82392 32499 73601 10287 20216 30017 40119 83230 333 20239 58007;
0137823920999992008113018004-03700-040350FM-12+008399999V0203601N001510042019N0500001N1+03671+01641100631ADDGF106991051021004501001011MA1999999099631MD1999999+0041REMSYN070AAXX  30184 82392 32499 63603 10367 20164 39963 40063 85201 333 58004;
0168823920999992008120100004-03700-040350FM-12+008399999V0203601N001512200019N0040001N1+02741+02171101041ADDGF102991021001008001031001KA1240M+03741MA1999999100021MD1999999+0031REMSYN088AAXX  01004 82392 32596 23603 10274 20217 30002 40104 82030 333 10374 29060 55067 58003;
0156823920999992008120112004-03700-040350FM-12+008399999V0200901N002110450019N0500001N1+02901+02041101171ADDGF108991031041004501031001KA1240N+02381MA1999999100151MD1999999-0021REMSYN076AAXX  01124 82392 32499 80904 10290 20204 30015 40117 83430 333 20238 59002;
0168823920999992008120200004-03700-040350FM-12+008399999V0203601N002112200019N0040001N1+02741+02101101091ADDGF102991021001008001011001KA1240M+03761MA1999999100071MD1999999+0051REMSYN088AAXX  02004 82392 32596 23604 10274 20210 30007 40109 82010 333 10376 29065 55090 58005;
0156823920999992008120212004-03700-040350FM-12+008399999V0200901N002110042019N0500001N1+02841+01991101171ADDGF107991051021004501031001KA1240N+02341MA1999999100151MD1999999+0001REMSYN076AAXX  02124 82392 32499 70904 10284 20199 30015 40117 85230 333 20234 58000;
0168823920999992008120300004-03700-040350FM-12+008399999V0203601N004112200019N0040001N1+02681+02161100931ADDGF101991011001008001011001KA1240M+03741MA1999999099911MD1999999-0161REMSYN088AAXX  03004 82392 32596 13608 10268 20216 39991 40093 81010 333 10374 29069 55074 59016;
0156823920999992008120312004-03700-040350FM-12+008399999V0200501N004610450019N0500001N1+02941+02001101161ADDGF105991031021004501031001KA1240N+02381MA1999999100141MD1999999-0011REMSYN076AAXX  03124 82392 32499 50509 10294 20200 30014 40116 83230 333 20238 59001;
0178823920999992008120400004-03700-040350FM-12+008399999V0203601N001512200019N0040001N1+02731+01941100951ADDGA1001+999999999GF100991001001999999001001KA1240M+03481MA1999999099931MD1999999+0021REMSYN082AAXX  04004 82392 32996 03603 10273 20194 39993 40095 333 10348 29061 55038 58002;
0156823920999992008120412004-03700-040350FM-12+008399999V0203601N001512200019N0500001N1+02961+01871101121ADDGF104991041021004501001001KA1240N+02301MA1999999100111MD1999999-0041REMSYN076AAXX  04124 82392 32499 43603 10296 20187 30011 40112 84200 333 20230 59004;
0178823920999992008120500004-03700-040350FM-12+008399999V0203601N004612200019N0040001N1+02781+02091100941ADDGA1001+999999999GF100991001001999999001001KA1240M+03661MA1999999099931MD1999999+0001REMSYN082AAXX  05004 82392 32996 03609 10278 20209 39993 40094 333 10366 29061 55100 58000;
0156823920999992008120512004-03700-040350FM-12+008399999V0200901N002112200019N0500001N1+02961+01871101111ADDGF101991011011004501001001KA1240N+02201MA1999999100101MD1999999+0001REMSYN076AAXX  05124 82392 32499 10904 10296 20187 30010 40111 81100 333 20220 58000;
0168823920999992008120600004-03700-040350FM-12+008399999V0200501N004112200019N0040001N1+02861+02111100961ADDGF102991021001008001031001KA1240M+03221MA1999999099951MD1999999+0021REMSYN088AAXX  06004 82392 32596 20508 10286 20211 39995 40096 82030 333 10322 29060 55109 58002;
0156823920999992008120612004-03700-040350FM-12+008399999V0200501N001512200019N0500001N1+02981+01891101211ADDGF104991041021004501001001KA1240N+02361MA1999999100201MD1999999+0101REMSYN076AAXX  06124 82392 32499 40503 10298 20189 30020 40121 84200 333 20236 58010;
0178823920999992008120700004-03700-040350FM-12+008399999V0200501N005112200019N0040001N1+02701+02111101171ADDGA1001+999999999GF100991001001999999001001KA1240M+03601MA1999999100151MD1999999+0201REMSYN082AAXX  07004 82392 32996 00510 10270 20211 30015 40117 333 10360 29064 55079 58020;
0156823920999992008120712004-03700-040350FM-12+008399999V0200901N001010450019N0500001N1+02861+02141101271ADDGF105991021021004501031001KA1240N+02201MA1999999100251MD1999999+0051REMSYN076AAXX  07124 82392 32499 50902 10286 20214 30025 40127 82230 333 20220 58005;
0178823920999992008120800004-03700-040350FM-12+008399999V0200501N004612200019N0040001N1+02721+02171101021ADDGA1001+999999999GF100991001001999999001001KA1240M+03761MA1999999100001MD1999999-0151REMSYN082AAXX  08004 82392 32996 00509 10272 20217 30000 40102 333 10376 29070 55096 59015;
0156823920999992008120812004-03700-040350FM-12+008399999V0200901N004112200019N0500001N1+03121+02111101261ADDGF103991031021004501001001KA1240N+02401MA1999999100251MD1999999+0001REMSYN076AAXX  08124 82392 32499 30908 10312 20211 30025 40126 83200 333 20240 58000;
0156823920999992008120818004-03700-040350FM-12+008399999V0200901N004112200019N0500001N1+03121+02111101261ADDGF103991031021004501001001KA1240N+02401MA1999999100251MD1999999+0001REMSYN076AAXX  08184 82392 32499 30908 10312 20211 30025 40126 83200 333 20240 58000;
0168823920999992008120900004-03700-040350FM-12+008399999V0200501N004112200019N0040001N1+02741+02261101061ADDGF104991041041004501001001KA1240M+03751MA1999999100051MD1999999+0051REMSYN088AAXX  09004 82392 32496 40508 10274 20226 30005 40106 84400 333 10375 29068 55104 58005;
0156823920999992008120912004-03700-040350FM-12+008399999V0200501N001010450019N0500001N1+02821+02101101321ADDGF106991031041004501031001KA1240N+02301MA1999999100301MD1999999+0051REMSYN076AAXX  09124 82392 32499 60502 10282 20210 30030 40132 83430 333 20230 58005;
0178823920999992008121000004-03700-040350FM-12+008399999V0200501N005112200019N0040001N1+02681+02311101101ADDGA1001+999999999GF100991001001999999001001KA1240M+03701MA1999999100081MD1999999+0031REMSYN082AAXX  10004 82392 32996 00510 10268 20231 30008 40110 333 10370 29075 55090 58003;
0156823920999992008121012004-03700-040350FM-12+008399999V0200901N001012200019N0500001N1+02901+02041101101ADDGF102991021011004501001001KA1240N+02401MA1999999100081MD1999999-0201REMSYN076AAXX  10124 82392 32499 20902 10290 20204 30008 40110 82100 333 20240 59020;
0168823920999992008121100004-03700-040350FM-12+008399999V0200501N004112200019N0040001N1+02701+02331100921ADDGF104991041021004501001001KA1240M+03721MA1999999099901MD1999999-0181REMSYN088AAXX  11004 82392 32496 40508 10270 20233 39990 40092 84200 333 10372 29073 55084 59018;
0156823920999992008121112004-03700-040350FM-12+008399999V0200901N003110042019N0500001N1+02961+02211101071ADDGF106991051021004501031001KA1240N+02401MA1999999100051MD1999999-0031REMSYN076AAXX  11124 82392 32499 60906 10296 20221 30005 40107 85230 333 20240 59003;
0178823920999992008121200004-03700-040350FM-12+008399999V0200501N003112200019N0040001N1+02701+02281100851ADDGA1001+999999999GF100991001001999999001001KA1240M+03681MA1999999099831MD1999999-0071REMSYN082AAXX  12004 82392 32996 00506 10270 20228 39983 40085 333 10368 29073 55091 59007;
0156823920999992008121212004-03700-040350FM-12+008399999V0200901N005710450019N0500001N1+02921+02141101121ADDGF106991041041004501031001KA1240N+02381MA1999999100101MD1999999+0051REMSYN076AAXX  12124 82392 32499 60911 10292 20214 30010 40112 84430 333 20238 58005;
0178823920999992008121300004-03700-040350FM-12+008399999V0200501N004112200019N0040001N1+02721+02261100941ADDGA1001+999999999GF100991001001999999001001KA1240M+03721MA1999999099921MD1999999+0091REMSYN082AAXX  13004 82392 32996 00508 10272 20226 39992 40094 333 10372 29072 55063 58009;
0156823920999992008121312004-03700-040350FM-12+008399999V0200901N003110450019N0500001N1+02861+02141101121ADDGF105991041041004501031001KA1240N+02221MA1999999100101MD1999999+0001REMSYN076AAXX  13124 82392 32499 50906 10286 20214 30010 40112 84430 333 20222 58000;
0178823920999992008121400004-03700-040350FM-12+008399999V0200501N005112200019N0040001N1+02741+02321100971ADDGA1001+999999999GF100991001001999999001001KA1240M+03781MA1999999099951MD1999999-0151REMSYN082AAXX  14004 82392 32996 00510 10274 20232 39995 40097 333 10378 29074 55105 59015;
0156823920999992008121412004-03700-040350FM-12+008399999V0200501N002110042019N0500001N1+02841+02191101091ADDGF107991051051004501031001KA1240N+02301MA1999999100071MD1999999-0031REMSYN076AAXX  14124 82392 32499 70504 10284 20219 30007 40109 85530 333 20230 59003;
0178823920999992008121500004-03700-040350FM-12+008399999V0200501N004112200019N0040001N1+02761+02211100871ADDGA1001+999999999GF100991001001999999001001KA1240M+03761MA1999999099851MD1999999-0101REMSYN082AAXX  15004 82392 32996 00508 10276 20221 39985 40087 333 10376 29071 55085 59010;
0156823920999992008121512004-03700-040350FM-12+008399999V0200901N002112200019N0500001N1+03001+02001100921ADDGF102991021021004501001001KA1240N+02321MA1999999099911MD1999999-0161REMSYN076AAXX  15124 82392 32499 20904 10300 20200 39991 40092 82200 333 20232 59016;
0178823920999992008121600004-03700-040350FM-12+008399999V0200501N005112200019N0040001N1+02681+02201100771ADDGA1001+999999999GF100991001001999999001001KA1240M+03781MA1999999099751MD1999999-0101REMSYN082AAXX  16004 82392 32996 00510 10268 20220 39975 40077 333 10378 29068 55105 59010;
0156823920999992008121612004-03700-040350FM-12+008399999V0200901N001010450019N0500001N1+03021+01921100941ADDGF105991031021004501031001KA1240N+02311MA1999999099931MD1999999+0021REMSYN076AAXX  16124 82392 32499 50902 10302 20192 39993 40094 83230 333 20231 58002;
0178823920999992008121700004-03700-040350FM-12+008399999V0200501N005112200019N0040001N1+02721+02171100791ADDGA1001+999999999GF100991001001999999001001KA1240M+03661MA1999999099781MD1999999+0031REMSYN082AAXX  17004 82392 32996 00510 10272 20217 39978 40079 333 10366 29065 55093 58003;
0156823920999992008121712004-03700-040350FM-12+008399999V0200901N004610450019N0500001N1+02881+02061100931ADDGF105991041021004501031001KA1240N+02211MA1999999099911MD1999999-0021REMSYN076AAXX  17124 82392 32499 50909 10288 20206 39991 40093 84230 333 20221 59002;
0178823920999992008121800004-03700-040350FM-12+008399999V0200501N005112200019N0040001N1+02761+02161100841ADDGA1001+999999999GF100991001001999999001001KA1240M+03641MA1999999099821MD1999999+0041REMSYN082AAXX  18004 82392 32996 00510 10276 20216 39982 40084 333 10364 29067 55088 58004;
0156823920999992008121812004-03700-040350FM-12+008399999V0200501N004610450019N0500001N1+03001+02001100951ADDGF106991041041004501031001KA1240N+02301MA1999999099941MD1999999+0031REMSYN076AAXX  18124 82392 32499 60509 10300 20200 39994 40095 84430 333 20230 58003;
0178823920999992008121900004-03700-040350FM-12+008399999V0200501N005112200019N0040001N1+02801+02151100711ADDGA1001+999999999GF100991001001999999001001KA1240M+03741MA1999999099701MD1999999-0121REMSYN082AAXX  19004 82392 32996 00510 10280 20215 39970 40071 333 10374 29064 55099 59012;
0156823920999992008121912004-03700-040350FM-12+008399999V0200901N003112200019N0500001N1+02901+02041100851ADDGF104991041021004501001001KA1240N+02281MA1999999099841MD1999999-0101REMSYN076AAXX  19124 82392 32499 40906 10290 20204 39984 40085 84200 333 20228 59010;
0178823920999992008122000004-03700-040350FM-12+008399999V0200501N003112200019N0040001N1+02781+02131100621ADDGA1001+999999999GF100991001001999999001001KA1240M+03641MA1999999099611MD1999999-0091REMSYN082AAXX  20004 82392 32996 00506 10278 20213 39961 40062 333 10364 29065 55067 59009;
0156823920999992008122012004-03700-040350FM-12+008399999V0200901N001010042019N0500001N1+02881+02031100921ADDGF106991051041004501031001KA1240N+02361MA1999999099901MD1999999+0061REMSYN076AAXX  20124 82392 32499 60902 10288 20203 39990 40092 85430 333 20236 58006;
0173823920999992008122112004-03700-040350FM-12+008399999V0200901N002610042019N0500001N1+02901+02041101021ADDAA124000391GF106991051041004501031001KA1240N+02281MA1999999100001MD1999999+0101REMSYN082AAXX  21124 82392 22499 60905 10290 20204 30000 40102 85430 333 20228 58010 69934;
0178823920999992008122200004-03700-040350FM-12+008399999V0203601N004612200019N0040001N1+02781+02061100971ADDGA1001+999999999GF100991001001999999001001KA1240M+03601MA1999999099951MD1999999+0081REMSYN082AAXX  22004 82392 32996 03609 10278 20206 39995 40097 333 10360 29074 55063 58008;
0156823920999992008122212004-03700-040350FM-12+008399999V0200501N001010450019N0500001N1+02861+02091101161ADDGF107991041051004501031001KA1240N+02421MA1999999100141MD1999999+0141REMSYN076AAXX  22124 82392 32499 70502 10286 20209 30014 40116 84530 333 20242 58014;
0178823920999992008122300004-03700-040350FM-12+008399999V0200501N003112200019N0040001N1+02701+02221100991ADDGA1001+999999999GF100991001001999999001001KA1240M+03681MA1999999099971MD1999999+0021REMSYN082AAXX  23004 82392 32996 00506 10270 20222 39997 40099 333 10368 29071 55075 58002;
0156823920999992008122312004-03700-040350FM-12+008399999V0200501N002112200019N0500001N1+02981+01981101161ADDGF103991031021004501001001KA1240N+02201MA1999999100141MD1999999+0001REMSYN076AAXX  23124 82392 32499 30504 10298 20198 30014 40116 83200 333 20220 58000;
0178823920999992008122400004-03700-040350FM-12+008399999V0200501N004612200019N0040001N1+02741+02141100931ADDGA1001+999999999GF100991001001999999001001KA1240M+03721MA1999999099921MD1999999-0051REMSYN082AAXX  24004 82392 32996 00509 10274 20214 39992 40093 333 10372 29065 55109 59005;
0156823920999992008122412004-03700-040350FM-12+008399999V0200901N001010042019N0500001N1+02841+02121101121ADDGF107991051051004501031001KA1240N+02321MA1999999100101MD1999999-0041REMSYN076AAXX  24124 82392 32499 70902 10284 20212 30010 40112 85530 333 20232 59004;
0178823920999992008122500004-03700-040350FM-12+008399999V0200501N004612200019N0040001N1+02821+02101100751ADDGA1001+999999999GF100991001001999999001001KA1240M+03641MA1999999099731MD1999999-0191REMSYN082AAXX  25004 82392 32996 00509 10282 20210 39973 40075 333 10364 29065 55090 59019;
0156823920999992008122512004-03700-040350FM-12+008399999V0200901N002110450019N0500001N1+02901+02171100891ADDGF105991031021004501051001KA1240N+02121MA1999999099881MD1999999-0221REMSYN076AAXX  25124 82392 32499 50904 10290 20217 39988 40089 83250 333 20212 59022;
0178823920999992008122600004-03700-040350FM-12+008399999V0200501N004112200019N0040001N1+02761+02211100791ADDGA1001+999999999GF100991001001999999001001KA1240M+03741MA1999999099771MD1999999+0041REMSYN082AAXX  26004 82392 32996 00508 10276 20221 39977 40079 333 10374 29070 55088 58004;
0156823920999992008122612004-03700-040350FM-12+008399999V0200901N003110450019N0500001N1+02901+02041100941ADDGF106991041041004501031001KA1240N+02401MA1999999099921MD1999999+0041REMSYN076AAXX  26124 82392 32499 60906 10290 20204 39992 40094 84430 333 20240 58004;
0178823920999992008122700004-03700-040350FM-12+008399999V0200501N001512200019N0040001N1+02721+02241100791ADDGA1001+999999999GF100991001001999999001001KA1240M+03461MA1999999099771MD1999999+0001REMSYN082AAXX  27004 82392 32996 00503 10272 20224 39977 40079 333 10346 29070 55010 58000;
0156823920999992008122712004-03700-040350FM-12+008399999V0201801N001012200019N0500001N1+02841+02121101061ADDGF103991021011004501031001KA1240N+02111MA1999999100041MD1999999+0121REMSYN076AAXX  27124 82392 32499 31802 10284 20212 30004 40106 82130 333 20211 58012;
0178823920999992008122800004-03700-040350FM-12+008399999V0200501N005112200019N0040001N1+02801+02201100781ADDGA1001+999999999GF100991001001999999001001KA1240M+03721MA1999999099761MD1999999-0011REMSYN082AAXX  28004 82392 32996 00510 10280 20220 39976 40078 333 10372 29068 55077 59001;
0156823920999992008122812004-03700-040350FM-12+008399999V0200901N002110042019N0500001N1+02941+02081100981ADDGF105991051021004501001001KA1240N+02281MA1999999099971MD1999999-0071REMSYN076AAXX  28124 82392 32499 50904 10294 20208 39997 40098 85200 333 20228 59007;
0178823920999992008122900004-03700-040350FM-12+008399999V0200501N003112200019N0040001N1+02841+02121100711ADDGA1001+999999999GF100991001001999999001001KA1240M+03801MA1999999099701MD1999999-0061REMSYN082AAXX  29004 82392 32996 00506 10284 20212 39970 40071 333 10380 29063 55093 59006;
0156823920999992008122912004-03700-040350FM-12+008399999V0200501N001012200019N0500001N1+02801+02131101061ADDGF104991041021004501001001KA1240N+02231MA1999999100041MD1999999+0071REMSYN076AAXX  29124 82392 32499 40502 10280 20213 30004 40106 84200 333 20223 58007;
0178823920999992008123000004-03700-040350FM-12+008399999V0200501N004112200019N0040001N1+02801+02201100781ADDGA1001+999999999GF100991001001999999001001KA1240M+03721MA1999999099761MD1999999+0061REMSYN082AAXX  30004 82392 32996 00508 10280 20220 39976 40078 333 10372 29069 55085 58006;
0201823920999992008123012004-03700-040350FM-12+008399999V0200901N002612200019N0500001N1+02901+02151101031ADDAA124000591AY151061AY221061GF104991041021004501001001KA1240N+02531MA1999999100021MD1999999-0021MW1021REMSYN088AAXX  30124 82392 21499 40905 10290 20215 30002 40103 70252 84200 333 20253 59002 69944;
0178823920999992008123100004-03700-040350FM-12+008399999V0200501N004612200019N0040001N1+02721+02121100881ADDGA1001+999999999GF100991001001999999001001KA1240M+03741MA1999999099861MD1999999+0101REMSYN082AAXX  31004 82392 32996 00509 10272 20212 39986 40088 333 10374 29068 55079 58010;
0156823920999992008123112004-03700-040350FM-12+008399999V0200901N002110450019N0500001N1+02901+02041101081ADDGF106991031041004501031001KA1240N+02301MA1999999100061MD1999999+0041REMSYN076AAXX  31124 82392 32499 60904 10290 20204 30006 40108 83430 333 20230 58004;
0123823920999992008123118004-03700-040350FM-12+008399999V0200901N003110450019N0500001N1+03521+01791100671ADDGF106991041041004501031001MA1999999099661REMSYN070AAXX  31184 82392 32499 60906 10352 20179 39966 40067 84430 333 5////;
