0178825710999992008080600004-05500-045267FM-12+015399999V0200901N000512200019N0100001N1+02901+02301101071ADDGA1001+999999999GF100991001001999999001001KA1240M+03441MA1999999099241MD1999999+0071REMSYN082AAXX  06004 82571 32997 00901 10290 20230 39924 40107 333 10344 29068 55/// 58007;
0156825710999992008092812004-05500-045267FM-12+015399999V0200501N002610042019N0100001N1+02691+02171101281ADDGF106991061021004501001001KA1240N+02271MA1999999099551MD1999999+0041REMSYN076AAXX  28124 82571 32497 60505 10269 20217 39955 40128 86200 333 20227 58004;
0137825710999992008092818004-05500-045267FM-12+015399999V0202701N001512200019N0100001N1+03591+01941100751ADDGF103991031021004501001001MA1999999099051MD1999999+0061REMSYN070AAXX  28184 82571 32497 32703 10359 20194 39905 40075 83200 333 58006;
