0178827650999992008080600004-07333-047467FM-12+019399999V0200501N000512200019N0200001N1+02741+02301101331ADDGA1001+999999999GF100991001001999999001001KA1240M+03631MA1999999098951MD1999999+0051REMSYN082AAXX  06004 82765 32998 00501 10274 20230 39895 40133 333 10363 29066 55086 58005;
0184827650999992008092812004-07333-047467FM-12+019399999V0201401N000512200019N0100001N1+02921+02191101571ADDAY101061AY201061GF104991021021008001041001KA1240N+02491MA1999999099211MD1999999+0051MW1041REMSYN082AAXX  28124 82765 31597 41401 10292 20219 39921 40157 70400 82240 333 20249 58005;
0165827650999992008092818004-07333-047467FM-12+019399999V0201401N001510450019N0100001N1+03621+02001101001ADDAY101061AY201061GF106991031021008001041001MA1999999098651MD1999999+0051MW1041REMSYN076AAXX  28184 82765 31597 61403 10362 20200 39865 40100 70400 83240 333 58005;
