0178833390999992008010100004-14050-042617FM-12+088299999V02099999999992200019N0020001N1+02231+01571100951ADDGA1001+999999999GF100991001001999999001001KA1240M+02831MA1999999091351MD1999999+0081REMSYN082AAXX  01004 83339 32995 014// 10223 20157 39135 40095 333 10283 29061 55/// 58008;
0156833390999992008010112004-14050-042617FM-12+088299999V02099999999992200019N0100001N1+02131+01721101211ADDGF104991021011004501001011KA1240N+01741MA1999999091611MD1999999-0061REMSYN076AAXX  01124 83339 32497 414// 10213 20172 39161 40121 82101 333 20174 59006;
0137833390999992008010118004-14050-042617FM-12+088299999V02099999999992200019N0100001N1+02651+01471100881ADDGF105991011011004501001041MA1999999091361MD1999999+0011REMSYN070AAXX  01184 83339 32497 514// 10265 20147 39136 40088 81104 333 58001;
0178833390999992008010200004-14050-042617FM-12+088299999V0209999C000012200019N0020001N1+02071+01541101051ADDGA1001+999999999GF100991001001999999001001KA1240M+02741MA1999999091431MD1999999+0081REMSYN082AAXX  02004 83339 32995 00000 10207 20154 39143 40105 333 10274 29067 55/// 58008;
0156833390999992008010212004-14050-042617FM-12+088299999V02099999999990450019N0100001N1+01991+01721101331ADDGF106991041021004501021001KA1240N+01781MA1999999091661MD1999999+0051REMSYN076AAXX  02124 83339 32497 609// 10199 20172 39166 40133 84220 333 20178 58005;
0137833390999992008010218004-14050-042617FM-12+088299999V02099999999992200019N0100001N1+02651+01651100931ADDGF105991041021004501001011MA1999999091401MD1999999+0041REMSYN070AAXX  02184 83339 32497 514// 10265 20165 39140 40093 84201 333 58004;
0178833390999992008010300004-14050-042617FM-12+088299999V02099999999992200019N0020001N1+02301+01581101191ADDGA1001+999999999GF100991001001999999001001KA1240M+02741MA1999999091571MD1999999+0141REMSYN082AAXX  03004 83339 32995 009// 10230 20158 39157 40119 333 10274 29067 55/// 58014;
0156833390999992008010312004-14050-042617FM-12+088299999V02099999999992200019N0100001N1+02151+01541101461ADDGF103991031021004501001001KA1240N+01701MA1999999091841MD1999999+0181REMSYN076AAXX  03124 83339 32497 309// 10215 20154 39184 40146 83200 333 20170 58018;
0137833390999992008010318004-14050-042617FM-12+088299999V02099999999992200019N0100001N1+02601+01411101311ADDGF105991021011004501001041MA1999999091631MD1999999+0231REMSYN070AAXX  03184 83339 32497 505// 10260 20141 39163 40131 82104 333 58023;
0178833390999992008010400004-14050-042617FM-12+088299999V02099999999992200019N0020001N1+02131+01331101351ADDGA1001+999999999GF100991001001999999001001KA1240M+02661MA1999999091721MD1999999+0151REMSYN082AAXX  04004 83339 32995 009// 10213 20133 39172 40135 333 10266 29059 55/// 58015;
0156833390999992008010418004-14050-042617FM-12+088299999V02099999999992200019N0100001N1+02731+01221101161ADDGF102991001001999999001011MA1999999091611MD1999999-0021REMSYN070AAXX  04184 83339 32897 214// 10273 20122 39161 40116 80001 333 59002;EQDQ01+022502SCOLCB
0178833390999992008010500004-14050-042617FM-12+088299999V02099999999992200019N0020001N1+02261+01231101281ADDGA1001+999999999GF100991001001999999001001KA1240M+02781MA1999999091671MD1999999-0051REMSYN082AAXX  05004 83339 32995 014// 10226 20123 39167 40128 333 10278 29051 55/// 59005;
0156833390999992008010512004-14050-042617FM-12+088299999V02099999999990042019N0100001N1+02101+01781101501ADDGF106991061021004501001001KA1240N+01661MA1999999091871MD1999999-0041REMSYN076AAXX  05124 83339 32497 609// 10210 20178 39187 40150 86200 333 20166 59004;
0175833390999992008010612004-14050-042617FM-12+088299999V02099999999992200019N0100001N1+02401+01891101151ADDGF102991001001999999001011KA1240N+01801MA1999999091641MD1999999-0231REMSYN076AAXX  06124 83339 32897 209// 10240 20189 39164 40115 80001 333 20180 59023;EQDQ01+022502SCOLCB
0137833390999992008010618004-14050-042617FM-12+088299999V02099999999992200019N0100001N1+03231+01161100571ADDGF105991021011004501001011MA1999999091211MD1999999-0211REMSYN070AAXX  06184 83339 32497 523// 10323 20116 39121 40057 82101 333 59021;
0156833390999992008010712004-14050-042617FM-12+088299999V02099999999990042019N0100001N1+02631+01761100871ADDGF106991051021004501021001KA1240N+02181MA1999999091461MD1999999-0181REMSYN076AAXX  07124 83339 32497 623// 10263 20176 39146 40087 85220 333 20218 59018;
0182833390999992008010718004-14050-042617FM-12+088299999V02099999999990042019N0100001N1+02571+02061100531ADDAA106001091AY161061AY261061GF106991051021004501031001MA1999999091091MD1999999-0121MW1171REMSYN082AAXX  07184 83339 21497 636// 10257 20206 39109 40053 71766 85230 333 59012 60011;
0168833390999992008010800004-14050-042617FM-12+088299999V0209999C000012200019N0020001N1+02271+01821100771ADDGF104991041021004501001001KA1240M+03201MA1999999091311MD1999999-0081REMSYN088AAXX  08004 83339 32495 40000 10227 20182 39131 40077 84200 333 10320 29071 55/// 59008;
0201833390999992008010812004-14050-042617FM-12+088299999V02099999999990042019N0040001N1+01931+01841101171ADDAA124010991AY161061AY261061GF108991081051004501999999KA1240N+01921MA1999999091541MD1999999+0081MW1101REMSYN088AAXX  08124 83339 21496 805// 10193 20184 39154 40117 71066 885// 333 20192 58008 60114;
0165833390999992008010818004-14050-042617FM-12+088299999V02099999999990042019N0100001N1+02431+01911100811ADDAY101061AY201061GF106991051021004501021001MA1999999091271MD1999999+0181MW1171REMSYN076AAXX  08184 83339 31497 636// 10243 20191 39127 40081 71700 85220 333 58018;
0196833390999992008010900004-14050-042617FM-12+088299999V02099999999992200019N0020001N1+02261+02011100941ADDAY101061AY201061GF104991041021004501001001KA1240M+02541MA1999999091331MD1999999+0021MW1101REMSYN094AAXX  09004 83339 31495 418// 10226 20201 39133 40094 71000 84200 333 10254 29085 55/// 58002;
0201833390999992008010912004-14050-042617FM-12+088299999V02099999999990042019N0040001N1+02111+02001100971ADDAA124007991AY161061AY261061GF108991081051004501999999KA1240N+01901MA1999999091391MD1999999-0151MW1101REMSYN088AAXX  09124 83339 21496 809// 10211 20200 39139 40097 71066 885// 333 20190 59015 60084;
0137833390999992008010918004-14050-042617FM-12+088299999V02099999999990042019N0100001N1+02651+02031100571ADDGF106991051021004501021001MA1999999091091MD1999999-0181REMSYN070AAXX  09184 83339 32497 636// 10265 20203 39109 40057 85220 333 59018;
0213833390999992008011000004-14050-042617FM-12+088299999V0209999C000010042019N0020001N1+02111+01931100891ADDAA106015091AY191061AY261061GF108991081051004501999999KA1240M+02641MA1999999091281MD1999999-0051MW1101REMSYN100AAXX  10004 83339 21495 80000 10211 20193 39128 40089 71096 885// 333 10264 29086 55/// 59005 60151;
0201833390999992008011012004-14050-042617FM-12+088299999V02099999999990042019N0100001N1+02231+01821100921ADDAA124015091AY161061AY261061GF106991051021004501031001KA1240N+01981MA1999999091331MD1999999-0061MW1021REMSYN088AAXX  10124 83339 21497 605// 10223 20182 39133 40092 70266 85230 333 20198 59006 60154;
0168833390999992008011100004-14050-042617FM-12+088299999V02099999999990042019N0020001N1+02351+01551100861ADDGF106991051021004501021001KA1240M+02661MA1999999091341MD1999999+0061REMSYN088AAXX  11004 83339 32495 614// 10235 20155 39134 40086 85220 333 10266 29064 55/// 58006;
0156833390999992008011112004-14050-042617FM-12+088299999V02099999999992200019N0100001N1+02191+01631101021ADDGF102991021011004501001001KA1240N+01831MA1999999091461MD1999999+0131REMSYN076AAXX  11124 83339 32497 209// 10219 20163 39146 40102 82100 333 20183 58013;
0137833390999992008011118004-14050-042617FM-12+088299999V02099999999992200019N0100001N1+02711+01471100791ADDGF102991011021004501001021MA1999999091311MD1999999+0181REMSYN070AAXX  11184 83339 32497 218// 10271 20147 39131 40079 81202 333 58018;
0178833390999992008011200004-14050-042617FM-12+088299999V02099999999992200019N0020001N1+02291+01331101021ADDGA1001+999999999GF100991001001999999001001KA1240M+02801MA1999999091381MD1999999+0041REMSYN082AAXX  12004 83339 32995 023// 10229 20133 39138 40102 333 10280 29057 55/// 58004;
0156833390999992008011212004-14050-042617FM-12+088299999V02099999999990042019N0100001N1+02111+01701101171ADDGF105991051021004501001001KA1240N+01761MA1999999091571MD1999999+0111REMSYN076AAXX  12124 83339 32497 514// 10211 20170 39157 40117 85200 333 20176 58011;
0137833390999992008011218004-14050-042617FM-12+088299999V02099999999992200019N0100001N1+02651+01751100831ADDGF103991031021004501001001MA1999999091331MD1999999+0021REMSYN070AAXX  12184 83339 32497 323// 10265 20175 39133 40083 83200 333 58002;
0156833390999992008011312004-14050-042617FM-12+088299999V02099999999992200019N0100001N1+02091+01661101131ADDGF103991021021004501001021KA1240N+01741MA1999999091521MD1999999-0051REMSYN076AAXX  13124 83339 32497 314// 10209 20166 39152 40113 82202 333 20174 59005;
0137833390999992008011318004-14050-042617FM-12+088299999V02099999999992200019N0100001N1+02611+01601100821ADDGF102991021021004501001001MA1999999091301MD1999999+0031REMSYN070AAXX  13184 83339 32497 209// 10261 20160 39130 40082 82200 333 58003;
0137833390999992008011518004-14050-042617FM-12+088299999V02099999999992200019N0100001N1+02731+01511100681ADDGF105991021011004501001011MA1999999091191MD1999999-0091REMSYN070AAXX  15184 83339 32497 509// 10273 20151 39119 40068 82101 333 59009;
0156833390999992008011612004-14050-042617FM-12+088299999V02099999999990042019N0100001N1+02031+01641101121ADDGF106991061021004501001001KA1240N+01761MA1999999091511MD1999999+0021REMSYN076AAXX  16124 83339 32497 614// 10203 20164 39151 40112 86200 333 20176 58002;
0137833390999992008011618004-14050-042617FM-12+088299999V02099999999990450019N0100001N1+02441+01711100831ADDGF106991021011004501031001MA1999999091291MD1999999+0101REMSYN070AAXX  16184 83339 32497 614// 10244 20171 39129 40083 82130 333 58010;
0178833390999992008011700004-14050-042617FM-12+088299999V02099999999992200019N0020001N1+02251+01711101021ADDGA1001+999999999GF100991001001999999001001KA1240M+02581MA1999999091421MD1999999+0121REMSYN082AAXX  17004 83339 32995 014// 10225 20171 39142 40102 333 10258 29071 55/// 58012;
0156833390999992008011712004-14050-042617FM-12+088299999V02099999999992200019N0100001N1+02291+01831101171ADDGF104991041021004501001001KA1240N+01901MA1999999091601MD1999999+0091REMSYN076AAXX  17124 83339 32497 414// 10229 20183 39160 40117 84200 333 20190 58009;
0137833390999992008011718004-14050-042617FM-12+088299999V02099999999990042019N0100001N1+02711+01801100751ADDGF106991051021004501031001MA1999999091271MD1999999-0021REMSYN070AAXX  17184 83339 32497 605// 10271 20180 39127 40075 85230 333 59002;
0168833390999992008011800004-14050-042617FM-12+088299999V02099999999990042019N0020001N1+02281+01901101061ADDGF106991061021004501001001KA1240M+02861MA1999999091521MD1999999+0101REMSYN088AAXX  18004 83339 32495 614// 10228 20190 39152 40106 86200 333 10286 29073 55/// 58010;
0156833390999992008011812004-14050-042617FM-12+088299999V02099999999990450019N0100001N1+02351+01981101231ADDGF106991031011004501031001KA1240N+01971MA1999999091671MD1999999+0071REMSYN076AAXX  18124 83339 32497 614// 10235 20198 39167 40123 83130 333 20197 58007;
0137833390999992008011818004-14050-042617FM-12+088299999V02099999999992200019N0100001N1+02921+01741100741ADDGF105991031021004501001011MA1999999091311MD1999999+0041REMSYN070AAXX  18184 83339 32497 518// 10292 20174 39131 40074 83201 333 58004;
0168833390999992008011900004-14050-042617FM-12+088299999V02099999999992200019N0020001N1+02311+01501101021ADDGF104991021021004501021001KA1240M+03001MA1999999091501MD1999999-0021REMSYN088AAXX  19004 83339 32495 418// 10231 20150 39150 40102 82220 333 10300 29062 55/// 59002;
0184833390999992008011912004-14050-042617FM-12+088299999V02099999999990042019N0020001N1+02131+01931101271ADDAY121061AY221061GF108991051051004501021999KA1240N+01851MA1999999091671MD1999999+0001MW1401REMSYN082AAXX  19124 83339 31495 809// 10213 20193 39167 40127 74022 8552/ 333 20185 58000;
0137833390999992008011918004-14050-042617FM-12+088299999V02099999999992200019N0100001N1+03011+01621100591ADDGF102991021021004501001001MA1999999091191MD1999999-0121REMSYN070AAXX  19184 83339 32497 205// 10301 20162 39119 40059 82200 333 59012;
0182833390999992008012018004-14050-042617FM-12+088299999V02099999999990042019N0100001N1+02751+01971100621ADDAA106001091AY161061AY221061GF105991051021004501001001MA1999999091441MD1999999-0011MW1021REMSYN082AAXX  20184 83339 21497 523// 10275 20197 39144 40062 70262 85200 333 59001 60011;
0201833390999992008012112004-14050-042617FM-12+088299999V0209999C000010042019N0100001N1+02551+01911100931ADDAA124001091AY161061AY261061GF106991051021004501021001KA1240N+02141MA1999999091501MD1999999-0031MW1021REMSYN088AAXX  21124 83339 21497 60000 10255 20191 39150 40093 70266 85220 333 20214 59003 60014;
0137833390999992008012118004-14050-042617FM-12+088299999V02099999999990042019N0100001N1+02851+01931100581ADDGF107991061021004501021001MA1999999091201MD1999999+0001REMSYN070AAXX  21184 83339 32497 732// 10285 20193 39120 40058 86220 333 58000;
0168833390999992008012200004-14050-042617FM-12+088299999V02099999999990042019N0020001N1+02491+01781100761ADDGF107991061021004501021999KA1240M+02901MA1999999091331MD1999999+0041REMSYN088AAXX  22004 83339 32495 718// 10249 20178 39133 40076 8622/ 333 10290 29064 55/// 58004;
0201833390999992008012212004-14050-042617FM-12+088299999V02099999999990042019N0040001N1+01951+01551101201ADDAA124010991AY191061AY261061GF107991061021004501031999KA1240N+01831MA1999999091601MD1999999+0101MW1021REMSYN088AAXX  22124 83339 21496 732// 10195 20155 39160 40120 70296 8623/ 333 20183 58010 60114;
0137833390999992008012218004-14050-042617FM-12+088299999V02099999999991050019N0100001N1+02551+01811100791ADDGF105991041021004501001021MA1999999091291MD1999999+0091REMSYN070AAXX  22184 83339 32497 509// 10255 20181 39129 40079 84202 333 58009;
0168833390999992008012300004-14050-042617FM-12+088299999V02099999999992200019N0020001N1+02311+01901100991ADDGF103991031021004501001001KA1240M+02661MA1999999091391MD1999999+0061REMSYN088AAXX  23004 83339 32495 318// 10231 20190 39139 40099 83200 333 10266 29074 55/// 58006;
0184833390999992008012312004-14050-042617FM-12+088299999V02099999999990042019N0100001N1+02171+01901101131ADDAY101061AY201061GF106991061021004501001001KA1240N+01961MA1999999091561MD1999999-0041MW1101REMSYN082AAXX  23124 83339 31497 614// 10217 20190 39156 40113 71000 86200 333 20196 59004;
0168833390999992008012400004-14050-042617FM-12+088299999V02099999999992200019N0020001N1+02351+01781100981ADDGF102991021011004501001001KA1240M+02701MA1999999091431MD1999999+0041REMSYN088AAXX  24004 83339 32495 223// 10235 20178 39143 40098 82100 333 10270 29072 55/// 58004;
0184833390999992008012412004-14050-042617FM-12+088299999V02099999999990042019N0100001N1+02071+01841101171ADDAY101061AY201061GF106991061021004501001001KA1240N+02001MA1999999091571MD1999999+0011MW1101REMSYN082AAXX  24124 83339 31497 627// 10207 20184 39157 40117 71000 86200 333 20200 58001;
0137833390999992008012418004-14050-042617FM-12+088299999V02099999999992200019N0100001N1+02571+01831100901ADDGF104991041021004501001001MA1999999091391MD1999999+0021REMSYN070AAXX  24184 83339 32497 414// 10257 20183 39139 40090 84200 333 58002;
0168833390999992008012500004-14050-042617FM-12+088299999V02099999999992200019N0020001N1+02291+01771100931ADDGF102991021011004501001001KA1240M+02721MA1999999091351MD1999999-0081REMSYN088AAXX  25004 83339 32495 218// 10229 20177 39135 40093 82100 333 10272 29074 55/// 59008;
0156833390999992008012512004-14050-042617FM-12+088299999V02099999999992200019N0100001N1+02231+01671101101ADDGF104991041021004501001001KA1240N+01931MA1999999091541MD1999999-0031REMSYN076AAXX  25124 83339 32497 409// 10223 20167 39154 40110 84200 333 20193 59003;
0137833390999992008012518004-14050-042617FM-12+088299999V02099999999992200019N0100001N1+02571+01701100871ADDGF103991021021004501001021MA1999999091361MD1999999-0031REMSYN070AAXX  25184 83339 32497 323// 10257 20170 39136 40087 82202 333 59003;
0178833390999992008012600004-14050-042617FM-12+088299999V02099999999992200019N0020001N1+02261+01751100941ADDGA1001+999999999GF100991001001999999001001KA1240M+02681MA1999999091391MD1999999+0041REMSYN082AAXX  26004 83339 32995 018// 10226 20175 39139 40094 333 10268 29069 55/// 58004;
0184833390999992008012612004-14050-042617FM-12+088299999V02099999999990042019N0100001N1+01991+01701101121ADDAY101061AY201061GF106991051021004501021001KA1240N+01881MA1999999091491MD1999999-0051MW1101REMSYN082AAXX  26124 83339 31497 627// 10199 20170 39149 40112 71000 85220 333 20188 59005;
0137833390999992008012618004-14050-042617FM-12+088299999V02099999999990042019N0100001N1+02531+01741100771ADDGF106991051021004501031001MA1999999091251MD1999999-0111REMSYN070AAXX  26184 83339 32497 605// 10253 20174 39125 40077 85230 333 59011;
0156833390999992008012712004-14050-042617FM-12+088299999V02099999999990450019N0100001N1+02211+01721101061ADDGF105991041021004501021001KA1240N+01861MA1999999091501MD1999999-0011REMSYN076AAXX  27124 83339 32497 509// 10221 20172 39150 40106 84220 333 20186 59001;
0137833390999992008012718004-14050-042617FM-12+088299999V02099999999992200019N0100001N1+02651+01581100881ADDGF104991031021004501021001MA1999999091301MD1999999+0051REMSYN070AAXX  27184 83339 32497 423// 10265 20158 39130 40088 83220 333 58005;
0156833390999992008012812004-14050-042617FM-12+088299999V02099999999992200019N0100001N1+02211+01721101101ADDGF103991031021004501001001KA1240N+01901MA1999999091541MD1999999+0041REMSYN076AAXX  28124 83339 32497 309// 10221 20172 39154 40110 83200 333 20190 58004;
0178833390999992008013000004-14050-042617FM-12+088299999V0209999C000012200019N0020001N1+02311+01581100611ADDGA1001+999999999GF100991001001999999001001KA1240M+02861MA1999999091091MD1999999-0221REMSYN082AAXX  30004 83339 32995 00000 10231 20158 39109 40061 333 10286 29064 55/// 59022;
0156833390999992008013012004-14050-042617FM-12+088299999V02099999999990042019N0100001N1+02131+01721100761ADDGF106991061021004501001001KA1240N+01941MA1999999091201MD1999999-0201REMSYN076AAXX  30124 83339 32497 609// 10213 20172 39120 40076 86200 333 20194 59020;
0137833390999992008013018004-14050-042617FM-12+088299999V02099999999990042019N0100001N1+02531+01931100371ADDGF107991061021004501021999MA1999999090891MD1999999-0241REMSYN070AAXX  30184 83339 32497 7//// 10253 20193 39089 40037 8622/ 333 59024;
0213833390999992008013100004-14050-042617FM-12+088299999V02099999999990042019N0020001N1+02191+01921100531ADDAA106000591AY161061AY261061GF108991081051004501999999KA1240M+02601MA1999999090971MD1999999-0121MW1101REMSYN100AAXX  31004 83339 21495 805// 10219 20192 39097 40053 71066 885// 333 10260 29080 55/// 59012 69941;
0201833390999992008013112004-14050-042617FM-12+088299999V02099999999990042019N0040001N1+02071+01871100541ADDAA124035191AY191061AY261061GF107991061021004501031999KA1240N+01861MA1999999090981MD1999999-0221MW1101REMSYN088AAXX  31124 83339 21496 736// 10207 20187 39098 40054 71096 8623/ 333 20186 59022 60354;
0137833390999992008013118004-14050-042617FM-12+088299999V02099999999990042019N0100001N1+02631+01861100441ADDGF106991051021004501021001MA1999999090771MD1999999-0121REMSYN070AAXX  31184 83339 32497 627// 10263 20186 39077 40044 85220 333 59012;
0213833390999992008020100004-14050-042617FM-12+088299999V02099999999990042019N0020001N1+02051+01971100591ADDAA106016091AY161061AY211061GF108991081051004501999999KA1240M+02721MA1999999090991MD1999999+0021MW1101REMSYN100AAXX  01004 83339 21495 836// 10205 20197 39099 40059 71061 885// 333 10272 29086 55/// 58002 60161;
0201833390999992008020112004-14050-042617FM-12+088299999V0203201N000510042019N0040001N1+02191+01921100731ADDAA124016091AY161061AY261061GF108991081051004501999999KA1240N+02001MA1999999091141MD1999999+0171MW1101REMSYN088AAXX  01124 83339 21496 83201 10219 20192 39114 40073 71066 885// 333 20200 58017 60164;
0137833390999992008020318004-14050-042617FM-12+088299999V0203201N003112200019N0100001N1+02851+01881100691ADDGF104991041021004501001001MA1999999091261MD1999999+0191REMSYN070AAXX  03184 83339 32497 43206 10285 20188 39126 40069 84200 333 58019;
0184833390999992008020412004-14050-042617FM-12+088299999V0201401N003112200019N0100001N1+02391+02031101071ADDAY101061AY201061GF104991041021004501001001KA1240N+02081MA1999999091531MD1999999-0021MW1101REMSYN082AAXX  04124 83339 31497 41406 10239 20203 39153 40107 71000 84200 333 20208 59002;
0156833390999992008020512004-14050-042617FM-12+088299999V0201401N003112200019N0100001N1+02331+01911101141ADDGF102991021021004501001001KA1240N+01901MA1999999091591MD1999999+0091REMSYN076AAXX  05124 83339 32497 21406 10233 20191 39159 40114 82200 333 20190 58009;
0137833390999992008020518004-14050-042617FM-12+088299999V0201401N004612200019N0100001N1+02911+01521100691ADDGF103991031021004501001001MA1999999091261MD1999999+0061REMSYN070AAXX  05184 83339 32497 31409 10291 20152 39126 40069 83200 333 58006;
0184833390999992008020612004-14050-042617FM-12+088299999V0201401N003112200019N0100001N1+02151+01801101251ADDAY101061AY201061GF104991041021004501001001KA1240N+01861MA1999999091691MD1999999+0101MW1101REMSYN082AAXX  06124 83339 31497 41406 10215 20180 39169 40125 71000 84200 333 20186 58010;
0137833390999992008020618004-14050-042617FM-12+088299999V0201401N004612200019N0100001N1+02811+01501100841ADDGF102991021021004501001001MA1999999091401MD1999999+0141REMSYN070AAXX  06184 83339 32497 21409 10281 20150 39140 40084 82200 333 58014;
0156833390999992008020712004-14050-042617FM-12+088299999V0201401N002612200019N0100001N1+02251+01711101271ADDGF103991031021004501001001KA1240N+01861MA1999999091681MD1999999-0011REMSYN076AAXX  07124 83339 32497 31405 10225 20171 39168 40127 83200 333 20186 59001;
0178833390999992008020800004-14050-042617FM-12+088299999V0201801N002112200019N0020001N1+02231+01481101091ADDGA1001+999999999GF100991001001999999001001KA1240M+02761MA1999999091531MD1999999+0051REMSYN082AAXX  08004 83339 32995 01804 10223 20148 39153 40109 333 10276 29061 55110 58005;
0156833390999992008020812004-14050-042617FM-12+088299999V0201401N003110042019N0100001N1+02191+01801101271ADDGF105991051021004501001001KA1240N+01821MA1999999091661MD1999999-0021REMSYN076AAXX  08124 83339 32497 51406 10219 20180 39166 40127 85200 333 20182 59002;
0137833390999992008020818004-14050-042617FM-12+088299999V0200901N004612200019N0100001N1+02791+01551100841ADDGF102991021021004501001001MA1999999091351MD1999999-0151REMSYN070AAXX  08184 83339 32497 20909 10279 20155 39135 40084 82200 333 59015;
0178833390999992008020900004-14050-042617FM-12+088299999V0202301N000512200019N0020001N1+02291+01331100911ADDGA1001+999999999GF100991001001999999001001KA1240M+02681MA1999999091361MD1999999-0171REMSYN082AAXX  09004 83339 32995 02301 10229 20133 39136 40091 333 10268 29059 55110 59017;
0184833390999992008020912004-14050-042617FM-12+088299999V0201801N004610042019N0100001N1+02151+01821101091ADDAY101061AY201061GF105991051021004501001001KA1240N+01741MA1999999091501MD1999999-0161MW1101REMSYN082AAXX  09124 83339 31497 51809 10215 20182 39150 40109 71000 85200 333 20174 59016;
0137833390999992008020918004-14050-042617FM-12+088299999V0201801N003112200019N0100001N1+02811+01751100741ADDGF102991021021004501001001MA1999999091261MD1999999-0091REMSYN070AAXX  09184 83339 32497 21806 10281 20175 39126 40074 82200 333 59009;
0156833390999992008021012004-14050-042617FM-12+088299999V0201401N004112200019N0100001N1+02271+01861101011ADDGF104991041021004501001001KA1240N+01931MA1999999091491MD1999999-0011REMSYN076AAXX  10124 83339 32497 41408 10227 20186 39149 40101 84200 333 20193 59001;
0137833390999992008021018004-14050-042617FM-12+088299999V0201401N006712200019N0100001N1+02831+01801100651ADDGF102991021021004501001001MA1999999091231MD1999999-0031REMSYN070AAXX  10184 83339 32497 21413 10283 20180 39123 40065 82200 333 59003;
0156833390999992008021112004-14050-042617FM-12+088299999V0201401N003112200019N0100001N1+02251+01731101021ADDGF102991021021004501001001KA1240N+01841MA1999999091481MD1999999-0011REMSYN076AAXX  11124 83339 32497 21406 10225 20173 39148 40102 82200 333 20184 59001;
0156833390999992008021118004-14050-042617FM-12+088299999V0200901N003112200019N0100001N1+02791+01731100691ADDGF102991999021008001001001MA1999999091231MD1999999+0001REMSYN070AAXX  11184 83339 32597 20906 10279 20173 39123 40069 83200 333 58000;EQDQ01+000032SCOTLC
0213833390999992008021200004-14050-042617FM-12+088299999V0201801N002612200019N0020001N1+02311+01321100791ADDGA1001+999999999GF100991001001999999001001KA1240M+02881MA1999999999999MD1999999+0021REMSYN082AAXX  12004 83339 32995 01805 10231 20132 30127 40079 333 10288 29058 55114 58002;EQDQ01+101273APOSP Q02 101273APOSP 
0156833390999992008021212004-14050-042617FM-12+088299999V0201401N004612200019N0100001N1+02151+01701101041ADDGF104991041021004501001001KA1240N+01801MA1999999091481MD1999999+0001REMSYN076AAXX  12124 83339 32497 41409 10215 20170 39148 40104 84200 333 20180 58000;
0137833390999992008021218004-14050-042617FM-12+088299999V0201401N004112200019N0100001N1+02791+01581100681ADDGF102991021021004501001001MA1999999091211MD1999999-0021REMSYN070AAXX  12184 83339 32497 21408 10279 20158 39121 40068 82200 333 59002;
0178833390999992008021300004-14050-042617FM-12+088299999V0201801N002112200019N0020001N1+02291+02121100781ADDGA1001+999999999GF100991001001999999001001KA1240M+02841MA1999999091221MD1999999-0051REMSYN082AAXX  13004 83339 32995 01804 10229 20212 39122 40078 333 10284 29061 55113 59005;
0137833390999992008021318004-14050-042617FM-12+088299999V0201401N006211050019N0100001N1+02891+01731100631ADDGF105991041021004501001021MA1999999091211MD1999999+0001REMSYN070AAXX  13184 83339 32497 51412 10289 20173 39121 40063 84202 333 58000;
0168833390999992008021400004-14050-042617FM-12+088299999V0201801N004612200019N0020001N1+02391+01661100851ADDGF102991021021004501001001KA1240M+02941MA1999999091311MD1999999+0091REMSYN088AAXX  14004 83339 32495 21809 10239 20166 39131 40085 82200 333 10294 29065 55007 58009;
0156833390999992008021412004-14050-042617FM-12+088299999V0201401N005110042019N0100001N1+02171+01721101041ADDGF106991061021004501001001KA1240N+01881MA1999999091501MD1999999+0001REMSYN076AAXX  14124 83339 32497 61410 10217 20172 39150 40104 86200 333 20188 58000;
0137833390999992008021418004-14050-042617FM-12+088299999V0200901N006212200019N0100001N1+02751+01441100691ADDGF102991021021004501001001MA1999999091241MD1999999+0031REMSYN070AAXX  14184 83339 32497 20912 10275 20144 39124 40069 82200 333 58003;
0178833390999992008021500004-14050-042617FM-12+088299999V0200901N005112200019N0020001N1+02331+01701100851ADDGA1001+999999999GF100991001001999999001001KA1240M+02861MA1999999091311MD1999999+0001REMSYN082AAXX  15004 83339 32995 00910 10233 20170 39131 40085 333 10286 29065 55114 58000;
0137833390999992008021518004-14050-042617FM-12+088299999V0201401N005112200019N0100001N1+02771+01431100601ADDGF102991021021004501001001MA1999999091141MD1999999-0101REMSYN070AAXX  15184 83339 32497 21410 10277 20143 39114 40060 82200 333 59010;
0168833390999992008021600004-14050-042617FM-12+088299999V0201401N006710042019N0020001N1+02251+01641100741ADDGF105991051021004501001001KA1240M+02841MA1999999091211MD1999999-0101REMSYN088AAXX  16004 83339 32495 51413 10225 20164 39121 40074 85200 333 10284 29063 55115 59010;
0156833390999992008021612004-14050-042617FM-12+088299999V0201401N005710042019N0100001N1+02071+01661101001ADDGF106991061021004501001001KA1240N+01781MA1999999091401MD1999999-0041REMSYN076AAXX  16124 83339 32497 61411 10207 20166 39140 40100 86200 333 20178 59004;
0137833390999992008021618004-14050-042617FM-12+088299999V0201801N005112200019N0100001N1+02791+01551100581ADDGF103991031021004501001001MA1999999091121MD1999999-0021REMSYN070AAXX  16184 83339 32497 31810 10279 20155 39112 40058 83200 333 59002;
0168833390999992008021700004-14050-042617FM-12+088299999V0201801N006712200019N0020001N1+02111+01641100901ADDGF102991021021004501001001KA1240M+02881MA1999999091291MD1999999+0081REMSYN088AAXX  17004 83339 32495 21813 10211 20164 39129 40090 82200 333 10288 29069 55008 58008;
0156833390999992008021712004-14050-042617FM-12+088299999V0201401N005110042019N0100001N1+02091+01681101131ADDGF106991061021004501001001KA1240N+01831MA1999999091501MD1999999+0101REMSYN076AAXX  17124 83339 32497 61410 10209 20168 39150 40113 86200 333 20183 58010;
0137833390999992008021718004-14050-042617FM-12+088299999V0201401N004612200019N0100001N1+02651+01721100891ADDGF103991021021004501001041MA1999999091361MD1999999+0241REMSYN070AAXX  17184 83339 32497 31409 10265 20172 39136 40089 82204 333 58024;
0168833390999992008021800004-14050-042617FM-12+088299999V0201401N004612200019N0020001N1+02231+01821101061ADDGF102991021021004501001001KA1240M+02741MA1999999091451MD1999999+0161REMSYN088AAXX  18004 83339 32495 21409 10223 20182 39145 40106 82200 333 10274 29073 55074 58016;
0156833390999992008021812004-14050-042617FM-12+088299999V0201401N003110042019N0100001N1+02151+01701101201ADDGF106991061021004501001001KA1240N+01931MA1999999091601MD1999999+0101REMSYN076AAXX  18124 83339 32497 61406 10215 20170 39160 40120 86200 333 20193 58010;
0137833390999992008021818004-14050-042617FM-12+088299999V0201801N005710042019N0100001N1+02791+01821100801ADDGF106991051021004501021001MA1999999091341MD1999999-0021REMSYN070AAXX  18184 83339 32497 61811 10279 20182 39134 40080 85220 333 59002;
0168833390999992008021900004-14050-042617FM-12+088299999V0209999C000010450019N0020001N1+02471+01701101131ADDGF106991041021004501021001KA1240M+02931MA1999999091581MD1999999+0131REMSYN088AAXX  19004 83339 32495 60000 10247 20170 39158 40113 84220 333 10293 29064 55066 58013;
0156833390999992008021912004-14050-042617FM-12+088299999V0201801N003110042019N0100001N1+02211+01881101381ADDGF105991051021004501001001KA1240N+02061MA1999999091831MD1999999+0231REMSYN076AAXX  19124 83339 32497 51806 10221 20188 39183 40138 85200 333 20206 58023;
0137833390999992008021918004-14050-042617FM-12+088299999V0201401N005110450019N0100001N1+02991+01751100861ADDGF105991041021004501031001MA1999999091451MD1999999+0111REMSYN070AAXX  19184 83339 32497 51410 10299 20175 39145 40086 84230 333 58011;
0168833390999992008022000004-14050-042617FM-12+088299999V0201401N006210042019N0020001N1+02371+01871101041ADDGF108991051021004501021999KA1240M+03071MA1999999091501MD1999999-0081REMSYN088AAXX  20004 83339 32495 81412 10237 20187 39150 40104 8522/ 333 10307 29068 55073 59008;
0156833390999992008022012004-14050-042617FM-12+088299999V0201401N003110042019N0100001N1+02231+01981101121ADDGF108991061021004501021999KA1240N+02101MA1999999091571MD1999999-0281REMSYN076AAXX  20124 83339 32497 81406 10223 20198 39157 40112 8622/ 333 20210 59028;
0137833390999992008022018004-14050-042617FM-12+088299999V0201401N003110042019N0100001N1+02751+01831100751ADDGF106991051021004501031001MA1999999091321MD1999999-0131REMSYN070AAXX  20184 83339 32497 61406 10275 20183 39132 40075 85230 333 59013;
0168833390999992008022100004-14050-042617FM-12+088299999V0201401N001510042019N0020001N1+02381+01751100861ADDGF106991051021004501031001KA1240M+02901MA1999999091341MD1999999-0161REMSYN088AAXX  21004 83339 32495 61403 10238 20175 39134 40086 85230 333 10290 29069 55023 59016;
0201833390999992008022212004-14050-042617FM-12+088299999V0200901N002612200019N0100001N1+02521+01891101311ADDAA124000591AY161061AY221061GF102991021011004501001001KA1240N+01921MA1999999091781MD1999999+0181MW1021REMSYN088AAXX  22124 83339 21497 20905 10252 20189 39178 40131 70262 82100 333 20192 58018 69944;
0137833390999992008022218004-14050-042617FM-12+088299999V0201401N002112200019N0100001N1+03161+01511100771ADDGF104991031021004501001011MA1999999091391MD1999999+0061REMSYN070AAXX  22184 83339 32497 41404 10316 20151 39139 40077 83201 333 58006;
0196833390999992008022300004-14050-042617FM-12+088299999V0202301N001511050019N0100001N1+02571+01661101021ADDAY121061AY221061GF105991021021004501031011KA1240M+03281MA1999999091581MD1999999+0031MW1131REMSYN094AAXX  23004 83339 31497 52303 10257 20166 39158 40102 71322 82231 333 10328 29055 55104 58003;
0175833390999992008022312004-14050-042617FM-12+088299999V0200901N004112200019N0100001N1+02651+01951101251ADDGF102991001001999999001011KA1240N+02021MA1999999091811MD1999999+0031REMSYN076AAXX  23124 83339 32497 20908 10265 20195 39181 40125 80001 333 20202 58003;EQDQ01+004502SCOLCB
0137833390999992008022318004-14050-042617FM-12+088299999V0209999C000012200019N0100001N1+03191+01281100761ADDGF103991031021004501001001MA1999999091421MD1999999+0031REMSYN070AAXX  23184 83339 32497 30000 10319 20128 39142 40076 83200 333 58003;
0187833390999992008022400004-14050-042617FM-12+088299999V0202301N001012200019N0020001N1+02671+01451100921ADDGF102991001001999999001041KA1240M+03351MA1999999091531MD1999999-0051REMSYN088AAXX  24004 83339 32895 22302 10267 20145 39153 40092 80004 333 10335 29049 55098 59005;EQDQ01+022502SCOLCB
0175833390999992008022412004-14050-042617FM-12+088299999V0200501N001512200019N0100001N1+02611+01931101131ADDGF102991001001999999001011KA1240N+02041MA1999999091721MD1999999-0091REMSYN076AAXX  24124 83339 32897 20503 10261 20193 39172 40113 80001 333 20204 59009;EQDQ01+022502SCOLCB
0187833390999992008022500004-14050-042617FM-12+088299999V0209999C000012200019N0020001N1+02691+01441100711ADDGF102991021011004501001001KA1240M+99999MA1999999091341MD1999999-0191REMSYN088AAXX  25004 83339 32495 20000 10269 20144 39134 40071 82100 333 10237 29048 55100 59019;EQDQ01 +02372ATMX  
0156833390999992008022512004-14050-042617FM-12+088299999V0200501N002612200019N0100001N1+02631+01641100251ADDGF104991031021004501031001KA1240N+02151MA1999999091461MD1999999-0261REMSYN076AAXX  25124 83339 32497 40505 10263 20164 39146 40025 83230 333 20215 59026;
0137833390999992008022518004-14050-042617FM-12+088299999V0203201N003112200019N0100001N1+03211+01591100341ADDGF103991031021004501001001MA1999999091061MD1999999-0171REMSYN070AAXX  25184 83339 32497 33206 10321 20159 39106 40034 83200 333 59017;
0156833390999992008022612004-14050-042617FM-12+088299999V0202701N001510042019N0100001N1+02431+01771100891ADDGF106991051021004501021001KA1240N+02121MA1999999091381MD1999999-0081REMSYN076AAXX  26124 83339 32497 62703 10243 20177 39138 40089 85220 333 20212 59008;
0137833390999992008022618004-14050-042617FM-12+088299999V0203601N004110042019N0100001N1+02671+01971100581ADDGF106991061021004501001001MA1999999091141MD1999999+0081REMSYN070AAXX  26184 83339 32497 63608 10267 20197 39114 40058 86200 333 58008;
0213833390999992008022700004-14050-042617FM-12+088299999V0203201N006210042019N0020001N1+01991+01881101011ADDAA106022191AY191061AY261061GF108991081051004501999999KA1240M+02861MA1999999091431MD1999999+0221MW1101REMSYN100AAXX  27004 83339 21495 83212 10199 20188 39143 40101 71096 885// 333 10286 29080 55042 58022 60221;
0201833390999992008022712004-14050-042617FM-12+088299999V0202301N004610042019N0100001N1+02211+01971101001ADDAA124023191AY161061AY261061GF106991051021004501021001KA1240N+01931MA1999999091381MD1999999+0001MW1101REMSYN088AAXX  27124 83339 21497 62309 10221 20197 39138 40100 71066 85220 333 20193 58000 60234;
0215833390999992008022800004-14050-042617FM-12+088299999V0209999C000019999999N0020001N1+02331+01871100791ADDAY101061AY201061GF105991999021004501001001KA1240M+02901MA1999999091251MD1999999-0181MW1131REMSYN094AAXX  28004 83339 31495 50000 10233 20187 39125 40079 71300 84200 333 10290 29075 55069 59018;EQDQ01+000042SCOTLC
0201833390999992008022812004-14050-042617FM-12+088299999V0201801N003110042019N0040001N1+02011+01951101021ADDAA124023191AY191061AY261061GF108991081051004501999999KA1240N+01921MA1999999091421MD1999999+0041MW1101REMSYN088AAXX  28124 83339 21496 81806 10201 20195 39142 40102 71096 885// 333 20192 58004 60234;
0182833390999992008022818004-14050-042617FM-12+088299999V0202701N000510042019N0040001N1+02151+01951100691ADDAA106014091AY161061AY261061GF107991061021004501021999MA1999999091121MD1999999+0041MW1101REMSYN082AAXX  28184 83339 21496 72701 10215 20195 39112 40069 71066 8622/ 333 58004 60141;
0176833390999992008022900004-14050-042617FM-12+088299999V0209999C000012200019N0020001N1+02131+01931100861ADDAY101061AY201061GF102991021021004501001001KA1240M+02501MA1999999091241MW1131REMSYN088AAXX  29004 83339 31495 20000 10213 20193 39124 40086 71300 82200 333 10250 29091 55011;
0201833390999992008022912004-14050-042617FM-12+088299999V0200901N000510042019N0040001N1+02131+02001101001ADDAA124014091AY161061AY261061GF106991051021004501031001KA1240N+01961MA1999999091401MD1999999-0021MW1101REMSYN088AAXX  29124 83339 21496 60901 10213 20200 39140 40100 71066 85230 333 20196 59002 60144;
0182833390999992008022918004-14050-042617FM-12+088299999V02099999999990042019N0040001N1+02211+02011100691ADDAA106023191AY161061AY261061GF106991051021004501021001MA1999999091101MD1999999-0021MW1101REMSYN082AAXX  29184 83339 21496 6//// 10221 20201 39110 40069 71066 85220 333 59002 60231;
0196833390999992008030100004-14050-042617FM-12+088299999V02099999999992200019N0020001N1+02131+01931100821ADDAY101061AY201061GF104991041021004501001001KA1240M+02381MA1999999091241MD1999999+0001MW1101REMSYN094AAXX  01004 83339 31495 4//// 10213 20193 39124 40082 71000 84200 333 10238 29090 55007 58000;
0201833390999992008030112004-14050-042617FM-12+088299999V02099999999990042019N0040001N1+02171+01821100961ADDAA124023191AY161061AY261061GF106991051021004501021001KA1240N+01961MA1999999091361MD1999999-0041MW1101REMSYN088AAXX  01124 83339 21496 6//// 10217 20182 39136 40096 71066 85220 333 20196 59004 60234;
0165833390999992008030118004-14050-042617FM-12+088299999V0202701N004110042019N0040001N1+02371+02011100561ADDAY101061AY201061GF107991061021004501031001MA1999999091031MD1999999-0071MW1101REMSYN076AAXX  01184 83339 31496 72708 10237 20201 39103 40056 71000 86230 333 59007;
0196833390999992008030200004-14050-042617FM-12+088299999V0202701N001512200019N0020001N1+02151+01931100881ADDAY101061AY201061GF103991031021004501001001KA1240M+02481MA1999999091291MD1999999+0051MW1101REMSYN094AAXX  02004 83339 31495 32703 10215 20193 39129 40088 71000 83200 333 10248 29084 55013 58005;
0156833390999992008030212004-14050-042617FM-12+088299999V0203601N002110042019N0100001N1+02261+01881100991ADDGF106991051021004501031001KA1240N+01971MA1999999091411MD1999999+0051REMSYN076AAXX  02124 83339 32497 63604 10226 20188 39141 40099 85230 333 20197 58005;
0182833390999992008030218004-14050-042617FM-12+088299999V0201701N000510042019N0040001N1+02251+01981100651ADDAA106000591AY161061AY261061GF106991061021004501001001MA1999999091081MD1999999+0051MW1101REMSYN082AAXX  02184 83339 21496 61701 10225 20198 39108 40065 71066 86200 333 58005 69961;
0196833390999992008030300004-14050-042617FM-12+088299999V0202701N001012200019N0020001N1+02171+01901100881ADDAY101061AY201061GF103991031021004501001001KA1240M+02641MA1999999091311MD1999999+0021MW1131REMSYN094AAXX  03004 83339 31495 32702 10217 20190 39131 40088 71300 83200 333 10264 29084 55018 58002;
0201833390999992008030312004-14050-042617FM-12+088299999V0202701N001510450019N0100001N1+02311+01981101151ADDAA124006191AY161061AY221061GF106991021011004501031011KA1240N+02041MA1999999091581MD1999999+0171MW1021REMSYN088AAXX  03124 83339 21497 62703 10231 20198 39158 40115 70262 82131 333 20204 58017 60064;
0137833390999992008030318004-14050-042617FM-12+088299999V0202701N002610450019N0100001N1+02601+02011100791ADDGF106991031021004501031041MA1999999091291MD1999999+0211REMSYN070AAXX  03184 83339 32497 62705 10260 20201 39129 40079 83234 333 58021;
0168833390999992008030400004-14050-042617FM-12+088299999V0209999C000012200019N0020001N1+02231+01481101091ADDGF104991041021004501001001KA1240M+02801MA1999999091531MD1999999+0221REMSYN088AAXX  04004 83339 32495 40000 10223 20148 39153 40109 84200 333 10280 29069 55034 58022;
0156833390999992008030412004-14050-042617FM-12+088299999V0209999C000012200019N0100001N1+02461+01881101101ADDGF103991011011004501001011KA1240N+02031MA1999999091591MD1999999+0011REMSYN076AAXX  04124 83339 32497 30000 10246 20188 39159 40110 81101 333 20203 58001;
0137833390999992008030418004-14050-042617FM-12+088299999V0202701N003612200019N0100001N1+02641+02031100751ADDGF103991021021004501001011MA1999999091271MD1999999-0021REMSYN070AAXX  04184 83339 32497 32707 10264 20203 39127 40075 82201 333 59002;
0168833390999992008030500004-14050-042617FM-12+088299999V0202301N002612200019N0020001N1+02261+01961101011ADDGF102991021021004501001001KA1240M+02821MA1999999091491MD1999999-0041REMSYN088AAXX  05004 83339 32495 22305 10226 20196 39149 40101 82200 333 10282 29076 55066 59004;
0156833390999992008030512004-14050-042617FM-12+088299999V0209999C000011050019N0100001N1+02401+01911101001ADDGF105991011011004501031011KA1240N+01981MA1999999091481MD1999999-0111REMSYN076AAXX  05124 83339 32497 50000 10240 20191 39148 40100 81131 333 20198 59011;
0182833390999992008030518004-14050-042617FM-12+088299999V0202301N002110450019N0100001N1+02201+01921100761ADDAA106008991AY191061AY261061GF106991041021004501031001MA1999999091181MD1999999-0091MW1021REMSYN082AAXX  05184 83339 21497 62304 10220 20192 39118 40076 70296 84230 333 59009 60091;
0196833390999992008030600004-14050-042617FM-12+088299999V0202701N000512200019N0020001N1+02291+01811100791ADDAY101061AY201061GF103991031021004501001001KA1240M+02961MA1999999091291MD1999999-0201MW1131REMSYN094AAXX  06004 83339 31495 32701 10229 20181 39129 40079 71300 83200 333 10296 29077 55066 59020;
0201833390999992008030612004-14050-042617FM-12+088299999V0202701N000510042019N0100001N1+02121+01911101041ADDAA124031091AY191061AY261061GF106991061021004501001001KA1240N+01951MA1999999091451MD1999999-0031MW1101REMSYN088AAXX  06124 83339 21497 62701 10212 20191 39145 40104 71096 86200 333 20195 59003 60314;
0165833390999992008030618004-14050-042617FM-12+088299999V0202301N003610450019N0100001N1+02791+01881100551ADDAY101061AY201061GF105991041021004501021001MA1999999091111MD1999999-0071MW1171REMSYN076AAXX  06184 83339 31497 52307 10279 20188 39111 40055 71700 84220 333 59007;
0213833390999992008030700004-14050-042617FM-12+088299999V0209999C000012200019N0020001N1+02111+02051100971ADDAA106003091AY161061AY221061GF104991041021004501001001KA1240M+02861MA1999999091351MD1999999+0061MW1131REMSYN100AAXX  07004 83339 21495 40000 10211 20205 39135 40097 71362 84200 333 10286 29085 55036 58006 60031;
0201833390999992008030712004-14050-042617FM-12+088299999V0201401N002610042019N0100001N1+02251+02031101161ADDAA124003091AY161061AY221061GF106991061021004501001001KA1240N+01901MA1999999091561MD1999999+0111MW1021REMSYN088AAXX  07124 83339 21497 61405 10225 20203 39156 40116 70262 86200 333 20190 58011 60034;
0137833390999992008030718004-14050-042617FM-12+088299999V0201401N002612200019N0100001N1+02801+01871100781ADDGF105991041021004501001011MA1999999091301MD1999999+0191REMSYN070AAXX  07184 83339 32497 51405 10280 20187 39130 40078 84201 333 58019;
0168833390999992008030800004-14050-042617FM-12+088299999V0201401N001512200019N0020001N1+02271+01751101061ADDGF102991021021004501001001KA1240M+02861MA1999999091501MD1999999+0151REMSYN088AAXX  08004 83339 32495 21403 10227 20175 39150 40106 82200 333 10286 29072 55093 58015;
0156833390999992008030812004-14050-042617FM-12+088299999V0201401N002110450019N0100001N1+02151+01951101331ADDGF106991041021004501031001KA1240N+01961MA1999999091721MD1999999+0161REMSYN076AAXX  08124 83339 32497 61404 10215 20195 39172 40133 84230 333 20196 58016;
0137833390999992008030818004-14050-042617FM-12+088299999V0201401N004112200019N0100001N1+02721+01821100881ADDGF104991041021004501001001MA1999999091391MD1999999+0091REMSYN070AAXX  08184 83339 32497 41408 10272 20182 39139 40088 84200 333 58009;
0213833390999992008030900004-14050-042617FM-12+088299999V0201401N003112200019N0020001N1+02171+02011101251ADDAA106006191AY161061AY221061GF103991031021004501001001KA1240M+02841MA1999999091631MD1999999+0131MW1021REMSYN100AAXX  09004 83339 21495 31406 10217 20201 39163 40125 70262 83200 333 10284 29082 55061 58013 60061;
0201833390999992008030912004-14050-042617FM-12+088299999V0201401N001510042019N0100001N1+02151+02011101421ADDAA124006191AY161061AY221061GF108991061021004501021999KA1240N+01981MA1999999091781MD1999999+0061MW1021REMSYN088AAXX  09124 83339 21497 81403 10215 20201 39178 40142 70262 8622/ 333 20198 58006 60064;
0137833390999992008030918004-14050-042617FM-12+088299999V0201401N003112200019N0100001N1+02651+01771100941ADDGF104991041021004501001001MA1999999091431MD1999999+0041REMSYN070AAXX  09184 83339 32497 41406 10265 20177 39143 40094 84200 333 58004;
0178833390999992008031000004-14050-042617FM-12+088299999V0201801N002612200019N0020001N1+02151+01381101141ADDGA1001+999999999GF100991001001999999001001KA1240M+02711MA1999999091531MD1999999-0101REMSYN082AAXX  10004 83339 32995 01805 10215 20138 39153 40114 333 10271 29068 55080 59010;
0156833390999992008031012004-14050-042617FM-12+088299999V0200901N001512200019N0100001N1+02161+01761101241ADDGF104991031021004501001021KA1240N+01701MA1999999091621MD1999999-0161REMSYN076AAXX  10124 83339 32497 40903 10216 20176 39162 40124 83202 333 20170 59016;
0137833390999992008031118004-14050-042617FM-12+088299999V0201401N004612200019N0100001N1+02731+01591100801ADDGF102991021021004501001001MA1999999091301MD1999999-0021REMSYN070AAXX  11184 83339 32497 21409 10273 20159 39130 40080 82200 333 59002;
0178833390999992008031200004-14050-042617FM-12+088299999V0201401N000512200019N0020001N1+02211+01651101041ADDGA1001+999999999GF100991001001999999001001KA1240M+02801MA1999999091451MD1999999+0001REMSYN082AAXX  12004 83339 32995 01401 10221 20165 39145 40104 333 10280 29067 55109 58000;
0156833390999992008031212004-14050-042617FM-12+088299999V0201401N002112200019N0100001N1+02311+01831101241ADDGF102991021021004501001001KA1240N+01761MA1999999091651MD1999999+0061REMSYN076AAXX  12124 83339 32497 21404 10231 20183 39165 40124 82200 333 20176 58006;
0137833390999992008031218004-14050-042617FM-12+088299999V0200901N003612200019N0100001N1+02711+01801100901ADDGF104991031021004501021001MA1999999091391MD1999999+0091REMSYN070AAXX  12184 83339 32497 40907 10271 20180 39139 40090 83220 333 58009;
0178833390999992008031300004-14050-042617FM-12+088299999V0201801N003612200019N0020001N1+02271+01641101001ADDGA1001+999999999GF100991001001999999001001KA1240M+02851MA1999999091461MD1999999+0011REMSYN082AAXX  13004 83339 32995 01807 10227 20164 39146 40100 333 10285 29067 55108 58001;
0156833390999992008031312004-14050-042617FM-12+088299999V0201401N002610042019N0100001N1+02261+01881101171ADDGF106991051021004501021001KA1240N+01801MA1999999091601MD1999999-0051REMSYN076AAXX  13124 83339 32497 61405 10226 20188 39160 40117 85220 333 20180 59005;
0182833390999992008031318004-14050-042617FM-12+088299999V0203601N001512200019N0100001N1+02351+01911100861ADDAA106007991AY191061AY261061GF104991041021004501001001MA1999999091291MD1999999-0101MW1021REMSYN082AAXX  13184 83339 21497 43603 10235 20191 39129 40086 70296 84200 333 59010 60081;
0168833390999992008031400004-14050-042617FM-12+088299999V0201801N001512200019N0020001N1+02321+01831100921ADDGF102991021021004501001001KA1240M+02821MA1999999091391MD1999999-0071REMSYN088AAXX  14004 83339 32495 21803 10232 20183 39139 40092 82200 333 10282 29076 55081 59007;
0201833390999992008031412004-14050-042617FM-12+088299999V0203601N002112200019N0100001N1+02341+01911101031ADDAA124007991AY161061AY261061GF103991031021004501001001KA1240N+02001MA1999999091511MD1999999-0091MW1021REMSYN088AAXX  14124 83339 21497 33604 10234 20191 39151 40103 70266 83200 333 20200 59009 60084;
0137833390999992008031418004-14050-042617FM-12+088299999V0203601N002110042019N0100001N1+02911+01931100561ADDGF105991051021004501001001MA1999999091161MD1999999-0131REMSYN070AAXX  14184 83339 32497 53604 10291 20193 39116 40056 85200 333 59013;
0168833390999992008031500004-14050-042617FM-12+088299999V0203601N000510042019N0020001N1+02291+01901100891ADDGF106991061021004501001001KA1240M+03041MA1999999091361MD1999999-0031REMSYN088AAXX  15004 83339 32495 63601 10229 20190 39136 40089 86200 333 10304 29073 55087 59003;
0184833390999992008031512004-14050-042617FM-12+088299999V02099999999990042019N0040001N1+02351+02001101051ADDAY101061AY201061GF108991081051004501999999KA1240N+02051MA1999999091511MD1999999+0001MW1101REMSYN082AAXX  15124 83339 31496 814// 10235 20200 39151 40105 71000 885// 333 20205 58000;
0137833390999992008031518004-14050-042617FM-12+088299999V0201401N003610042019N0100001N1+02611+01961100761ADDGF107991061021004501021001MA1999999091281MD1999999+0121REMSYN070AAXX  15184 83339 32497 71407 10261 20196 39128 40076 86220 333 58012;
0168833390999992008031600004-14050-042617FM-12+088299999V0209999C000010042019N0020001N1+02291+01881101081ADDGF105991051021004501001001KA1240M+02801MA1999999091541MD1999999+0181REMSYN088AAXX  16004 83339 32495 50000 10229 20188 39154 40108 85200 333 10280 29076 55051 58018;
0156833390999992008031612004-14050-042617FM-12+088299999V0201401N003610042019N0100001N1+02211+01781101291ADDGF106991061021004501001001KA1240N+01831MA1999999091701MD1999999+0191REMSYN076AAXX  16124 83339 32497 61407 10221 20178 39170 40129 86200 333 20183 58019;
0137833390999992008031618004-14050-042617FM-12+088299999V0201401N001512200019N0100001N1+02651+01801101001ADDGF103991031021004501001001MA1999999091481MD1999999+0201REMSYN070AAXX  16184 83339 32497 31403 10265 20180 39148 40100 83200 333 58020;
0213833390999992008031700004-14050-042617FM-12+088299999V0201401N005110042019N0020001N1+02071+01961101281ADDAA106001091AY161061AY261061GF107991061021004501021999KA1240M+02801MA1999999091651MD1999999+0111MW1101REMSYN100AAXX  17004 83339 21495 71410 10207 20196 39165 40128 71066 8622/ 333 10280 29081 55097 58011 60011;
0201833390999992008031712004-14050-042617FM-12+088299999V0201401N006210450019N0020001N1+01961+01881101461ADDAA124011991AY161061AY241061GF106991041021004501021001KA1240N+01881MA1999999091751MD1999999+0051MW1401REMSYN088AAXX  17124 83339 21495 61412 10196 20188 39175 40146 74064 84220 333 20188 58005 60124;
0165833390999992008031718004-14050-042617FM-12+088299999V0201401N005112200019N0100001N1+02551+01731100981ADDAY141061AY221061GF103991031021004501001001MA1999999091431MD1999999-0051MW1021REMSYN076AAXX  17184 83339 31497 31410 10255 20173 39143 40098 70242 83200 333 59005;
0168833390999992008031800004-14050-042617FM-12+088299999V0201401N002612200019N0020001N1+01871+01781101311ADDGF102991021011004501001001KA1240M+02641MA1999999091601MD1999999-0051REMSYN088AAXX  18004 83339 32495 21405 10187 20178 39160 40131 82100 333 10264 29083 55068 59005;
0156833390999992008031812004-14050-042617FM-12+088299999V0201401N005110042019N0100001N1+01981+01761101551ADDGF106991061021004501001001KA1240N+01801MA1999999091801MD1999999+0051REMSYN076AAXX  18124 83339 32497 61410 10198 20176 39180 40155 86200 333 20180 58005;
0178833390999992008031900004-14050-042617FM-12+088299999V0200901N001512200019N0020001N1+02151+01721101201ADDGA1001+999999999GF100991001001999999001001KA1240M+02581MA1999999091581MD1999999-0021REMSYN082AAXX  19004 83339 32995 00903 10215 20172 39158 40120 333 10258 29074 55090 59002;
0156833390999992008031912004-14050-042617FM-12+088299999V0202301N005710042019N0100001N1+02111+01801101361ADDGF106991061021004501001001KA1240N+01851MA1999999091731MD1999999-0071REMSYN076AAXX  19124 83339 32497 62311 10211 20180 39173 40136 86200 333 20185 59007;
0137833390999992008031918004-14050-042617FM-12+088299999V0201401N003112200019N0100001N1+02611+01651100971ADDGF104991021021004501001011MA1999999091441MD1999999-0061REMSYN070AAXX  19184 83339 32497 41406 10261 20165 39144 40097 82201 333 59006;
0232833390999992008032000004-14050-042617FM-12+088299999V0201401N003110042019N0020001N1+02171+01971101321ADDAA106000091AY161061AY221061GF106991061021004501001001KA1240M+02661MA1999999091691MD1999999+0111MW1021REMSYN100AAXX  20004 83339 21495 61406 10217 20197 39169 40132 70262 86200 333 10266 29080 55087 58011 69921;EQDQ01  00002PRCP06
0220833390999992008032012004-14050-042617FM-12+088299999V0201401N004110042019N0100001N1+01991+01781101461ADDAA124000091AY161061AY221061GF106991061021004501001001KA1240N+01821MA1999999091801MD1999999+0071MW1021REMSYN088AAXX  20124 83339 21497 61408 10199 20178 39180 40146 70262 86200 333 20182 58007 69924;EQDQ01  00002PRCP24
0137833390999992008032018004-14050-042617FM-12+088299999V0201401N003610042019N0100001N1+02501+01821101051ADDGF106991051021004501001011MA1999999091491MD1999999+0051REMSYN070AAXX  20184 83339 32497 61407 10250 20182 39149 40105 85201 333 58005;
0213833390999992008032100004-14050-042617FM-12+088299999V0201401N004110042019N0020001N1+02031+01941101381ADDAA106000591AY161061AY221061GF108991051021004501021999KA1240M+02621MA1999999091681MD1999999-0011MW1401REMSYN100AAXX  21004 83339 21495 81408 10203 20194 39168 40138 74062 8522/ 333 10262 29085 55047 59001 69941;
0201833390999992008032112004-14050-042617FM-12+088299999V0201401N003110042019N0020001N1+01971+01811101431ADDAA124000591AY161061AY241061GF108991061021004501021999KA1240N+01841MA1999999091731MD1999999-0071MW1401REMSYN088AAXX  21124 83339 21495 81406 10197 20181 39173 40143 74064 8622/ 333 20184 59007 69944;
0165833390999992008032118004-14050-042617FM-12+088299999V0201401N006212200019N0100001N1+02571+01741100921ADDAY141061AY221061GF104991041021004501001001MA1999999091371MD1999999-0121MW1021REMSYN076AAXX  21184 83339 31497 41412 10257 20174 39137 40092 70242 84200 333 59012;
0187833390999992008032200004-14050-042617FM-12+088299999V0201401N005112200019N0020001N1+02191+01821101221ADDGF103991999021004501001001KA1240M+02621MA1999999091561MD1999999-0121REMSYN088AAXX  22004 83339 32495 31410 10219 20182 39156 40122 82200 333 10262 29077 55081 59012;EQDQ01+000022SCOTLC
0156833390999992008032212004-14050-042617FM-12+088299999V0201401N004110042019N0100001N1+02091+01821101351ADDGF106991061021004501001001KA1240N+01881MA1999999091721MD1999999-0011REMSYN076AAXX  22124 83339 32497 61408 10209 20182 39172 40135 86200 333 20188 59001;
0137833390999992008032218004-14050-042617FM-12+088299999V0201401N004112200019N0100001N1+02651+01821100901ADDGF103991031021004501001001MA1999999091391MD1999999+0021REMSYN070AAXX  22184 83339 32497 31408 10265 20182 39139 40090 83200 333 58002;
0168833390999992008032300004-14050-042617FM-12+088299999V0201401N003610042019N0020001N1+02231+01721101121ADDGF106991061021004501001001KA1240M+02711MA1999999091531MD1999999-0031REMSYN088AAXX  23004 83339 32495 61407 10223 20172 39153 40112 86200 333 10271 29077 55083 59003;
0156833390999992008032312004-14050-042617FM-12+088299999V0201401N003110042019N0100001N1+02251+01861101261ADDGF105991051021004501001001KA1240N+01941MA1999999091671MD1999999-0051REMSYN076AAXX  23124 83339 32497 51406 10225 20186 39167 40126 85200 333 20194 59005;
0137833390999992008032318004-14050-042617FM-12+088299999V0201401N003612200019N0100001N1+02761+01831100781ADDGF102991021021004501001001MA1999999091301MD1999999-0091REMSYN070AAXX  23184 83339 32497 21407 10276 20183 39130 40078 82200 333 59009;
0156833390999992008032412004-14050-042617FM-12+088299999V0201401N001511050019N0100001N1+02171+01781101351ADDGF105991041021004501001021KA1240N+01831MA1999999091741MD1999999+0071REMSYN076AAXX  24124 83339 32497 51403 10217 20178 39174 40135 84202 333 20183 58007;
0137833390999992008032418004-14050-042617FM-12+088299999V0200901N001510042019N0100001N1+02711+01511100911ADDGF106991051021004501031001MA1999999091401MD1999999+0101REMSYN070AAXX  24184 83339 32497 60903 10271 20151 39140 40091 85230 333 58010;
0168833390999992008032500004-14050-042617FM-12+088299999V0201401N001012200019N0020001N1+02211+01581101191ADDGF103991031021004501001001KA1240M+02821MA1999999091591MD1999999+0121REMSYN088AAXX  25004 83339 32495 31402 10221 20158 39159 40119 83200 333 10282 29066 55069 58012;
0184833390999992008032512004-14050-042617FM-12+088299999V0200501N004110042019N0040001N1+02111+01841101391ADDAY101061AY201061GF106991061021004501001001KA1240N+01921MA1999999091751MD1999999+0011MW1101REMSYN082AAXX  25124 83339 31496 60508 10211 20184 39175 40139 71000 86200 333 20192 58001;
0137833390999992008032518004-14050-042617FM-12+088299999V02099999999991050019N0100001N1+02651+01801100951ADDGF105991041021004501001021MA1999999091441MD1999999+0041REMSYN070AAXX  25184 83339 32497 5//// 10265 20180 39144 40095 84202 333 58004;
0184833390999992008032612004-14050-042617FM-12+088299999V0201401N004110042019N0040001N1+02011+01801101261ADDAY101061AY201061GF107991061021004501021999KA1240N+01901MA1999999091641MD1999999-0111MW1101REMSYN082AAXX  26124 83339 31496 71408 10201 20180 39164 40126 71000 8622/ 333 20190 59011;
0137833390999992008032618004-14050-042617FM-12+088299999V0201401N003610042019N0100001N1+02371+01801100991ADDGF106991051021004501031001MA1999999091411MD1999999-0031REMSYN070AAXX  26184 83339 32497 61407 10237 20180 39141 40099 85230 333 59003;
0187833390999992008032700004-14050-042617FM-12+088299999V0200901N003112200019N0020001N1+02091+01681101131ADDGF104991999011004501001001KA1240M+02461MA1999999091481MD1999999-0051REMSYN088AAXX  27004 83339 32495 40906 10209 20168 39148 40113 82100 333 10246 29079 55003 59005;EQDQ01+000022SCOTLC
0184833390999992008032712004-14050-042617FM-12+088299999V0201401N003110042019N0040001N1+02041+01781101171ADDAY101061AY201061GF106991051021004501021001KA1240N+01921MA1999999091521MD1999999-0121MW1101REMSYN082AAXX  27124 83339 31496 61406 10204 20178 39152 40117 71000 85220 333 20192 59012;
0137833390999992008032718004-14050-042617FM-12+088299999V0201401N002612200019N0100001N1+02721+01681100621ADDGF102991021021004501001001MA1999999091141MD1999999-0271REMSYN070AAXX  27184 83339 32497 21405 10272 20168 39114 40062 82200 333 59027;
0196833390999992008032800004-14050-042617FM-12+088299999V0201801N001012200019N0020001N1+02251+01731100921ADDAY101061AY201061GF102991021021004501001001KA1240M+02831MA1999999091331MD1999999-0151MW1131REMSYN094AAXX  28004 83339 31495 21802 10225 20173 39133 40092 71300 82200 333 10283 29071 55054 59015;
0201833390999992008032812004-14050-042617FM-12+088299999V0200501N003110042019N0040001N1+02111+01961101091ADDAA124003091AY161061AY261061GF108991081051004501999999KA1240N+01981MA1999999091501MD1999999-0021MW1101REMSYN088AAXX  28124 83339 21496 80506 10211 20196 39150 40109 71066 885// 333 20198 59002 60034;
0182833390999992008032818004-14050-042617FM-12+088299999V0202301N001010042019N0040001N1+01931+01751100931ADDAA106022191AY191061AY261061GF108991081051004501999999MA1999999091281MD1999999+0141MW1601REMSYN082AAXX  28184 83339 21496 82302 10193 20175 39128 40093 76096 885// 333 58014 60221;
0164833390999992008032912004-14050-042617FM-12+088299999V0203601N001510042019N0100001N1+02091+01861101171ADDAY161061AY261061GF106991051021004501031001KA1999N+01881MA1999999091501MW1101REMSYN076AAXX  29124 83339 21497 63603 10209 20186 39150 40117 71066 85230 333 20188;
0137833390999992008032918004-14050-042617FM-12+088299999V0200501N005110042019N0100001N1+02251+01861100821ADDGF106991061021004501001001MA1999999091221MD1999999-0061REMSYN070AAXX  29184 83339 32497 60510 10225 20186 39122 40082 86200 333 59006;
0196833390999992008033000004-14050-042617FM-12+088299999V0201801N002112200019N0020001N1+02151+01741101021ADDAY101061AY201061GF104991041021004501001001KA1240M+02841MA1999999091401MD1999999+0041MW1131REMSYN094AAXX  30004 83339 31495 41804 10215 20174 39140 40102 71300 84200 333 10284 29080 55071 58004;
0220833390999992008033012004-14050-042617FM-12+088299999V0200501N001510042019N0040001N1+02071+01991101131ADDAA124000091AY161061AY261061GF108991081051004501999999KA1240N+01841MA1999999091501MD1999999+0001MW1101REMSYN088AAXX  30124 83339 21496 80503 10207 20199 39150 40113 71066 885// 333 20184 58000 69924;EQDQ01  00002PRCP24
0201833390999992008033018004-14050-042617FM-12+088299999V0202301N003112200019N0100001N1+02731+01821100651ADDAA106000091AY161061AY261061GF105991041021004501001041MA1999999091161MD1999999-0061MW1021REMSYN082AAXX  30184 83339 21497 52306 10273 20182 39116 40065 70266 84204 333 59006 69921;EQDQ01  00002PRCP06
0213833390999992008033100004-14050-042617FM-12+088299999V0200501N001510042019N0020001N1+02031+01891101071ADDAA106001091AY191061AY261061GF108991081051004501999999KA1240M+02841MA1999999091431MD1999999+0031MW1601REMSYN100AAXX  31004 83339 21495 80503 10203 20189 39143 40107 76096 885// 333 10284 29084 55065 58003 60011;
0201833390999992008033112004-14050-042617FM-12+088299999V0201401N008210042019N0020001N1+01971+01811101211ADDAA124008991AY161061AY261061GF106991061021004501001001KA1240N+01871MA1999999091541MD1999999+0041MW1401REMSYN088AAXX  31124 83339 21495 61416 10197 20181 39154 40121 74066 86200 333 20187 58004 60094;
0165833390999992008033118004-14050-042617FM-12+088299999V0201401N004112200019N0100001N1+02431+01811100681ADDAY141061AY221061GF103991031021004501001001MA1999999091141MD1999999-0021MW1021REMSYN076AAXX  31184 83339 31497 31408 10243 20181 39114 40068 70242 83200 333 59002;
0168833390999992008040100004-14050-042617FM-12+088299999V0201401N006710042019N0020001N1+02131+01821101001ADDGF105991051021004501001001KA1240M+02561MA1999999091361MD1999999-0071REMSYN088AAXX  01004 83339 32495 51413 10213 20182 39136 40100 85200 333 10256 29080 55072 59007;
0156833390999992008040112004-14050-042617FM-12+088299999V0201401N005110042019N0100001N1+01981+01701101211ADDGF106991061021004501001001KA1240N+01821MA1999999091541MD1999999+0001REMSYN076AAXX  01124 83339 32497 61410 10198 20170 39154 40121 86200 333 20182 58000;
0137833390999992008040118004-14050-042617FM-12+088299999V0201401N003612200019N0100001N1+02331+01781100801ADDGF104991031021004501001011MA1999999091221MD1999999+0081REMSYN070AAXX  01184 83339 32497 41407 10233 20178 39122 40080 83201 333 58008;
0178833390999992008040200004-14050-042617FM-12+088299999V0200901N001012200019N0020001N1+01971+01761101111ADDGA1001+999999999GF100991001001999999001001KA1240M+02491MA1999999091421MD1999999+0061REMSYN082AAXX  02004 83339 32995 00902 10197 20176 39142 40111 333 10249 29082 55058 58006;
0156833390999992008040212004-14050-042617FM-12+088299999V0201401N002110450019N0100001N1+02111+01861101191ADDGF106991041021004501031001KA1240N+01911MA1999999091541MD1999999+0001REMSYN076AAXX  02124 83339 32497 61404 10211 20186 39154 40119 84230 333 20191 58000;
0137833390999992008040218004-14050-042617FM-12+088299999V0201401N002110450019N0100001N1+02631+01751100641ADDGF105991031021004501031011MA1999999091141MD1999999-0081REMSYN070AAXX  02184 83339 32497 51404 10263 20175 39114 40064 83231 333 59008;
0168833390999992008040300004-14050-042617FM-12+088299999V0209999C000010450019N0020001N1+02211+01881101011ADDGF105991041021004501031001KA1240M+02671MA1999999091341MD1999999-0081REMSYN088AAXX  03004 83339 32495 50000 10221 20188 39134 40101 84230 333 10267 29076 55054 59008;
0156833390999992008040312004-14050-042617FM-12+088299999V0201401N003112200019N0100001N1+02251+01941101091ADDGF103991031021004501001001KA1240N+01971MA1999999091531MD1999999-0011REMSYN076AAXX  03124 83339 32497 31406 10225 20194 39153 40109 83200 333 20197 59001;
0137833390999992008040318004-14050-042617FM-12+088299999V0201401N001512200019N0100001N1+02751+01771100521ADDGF103991031021004501001001MA1999999091061MD1999999-0081REMSYN070AAXX  03184 83339 32497 31403 10275 20177 39106 40052 83200 333 59008;
0168833390999992008040400004-14050-042617FM-12+088299999V0209999C000010042019N0020001N1+02271+01881100801ADDGF105991051021004501001001KA1240M+02811MA1999999091261MD1999999-0081REMSYN088AAXX  04004 83339 32495 50000 10227 20188 39126 40080 85200 333 10281 29073 55072 59008;
0156833390999992008040412004-14050-042617FM-12+088299999V0203601N002610042019N0100001N1+02331+01931100971ADDGF106991061021004501001001KA1240N+02061MA1999999091441MD1999999-0091REMSYN076AAXX  04124 83339 32497 63605 10233 20193 39144 40097 86200 333 20206 59009;
0137833390999992008040418004-14050-042617FM-12+088299999V0200901N002110042019N0100001N1+02651+02091100631ADDGF106991061021004501001001MA1999999091111MD1999999+0051REMSYN070AAXX  04184 83339 32497 60904 10265 20209 39111 40063 86200 333 58005;
0178833390999992008040500004-14050-042617FM-12+088299999V0209999C000012200019N0020001N1+02191+02011100881ADDGA1001+999999999GF100991001001999999001001KA1240M+02701MA1999999091341MD1999999+0081REMSYN082AAXX  05004 83339 32995 00000 10219 20201 39134 40088 333 10270 29082 55021 58008;
0156833390999992008040512004-14050-042617FM-12+088299999V0200501N001512200019N0100001N1+02331+01951101011ADDGF105991041021004501001011KA1240N+02061MA1999999091451MD1999999+0011REMSYN076AAXX  05124 83339 32497 50503 10233 20195 39145 40101 84201 333 20206 58001;
0137833390999992008040518004-14050-042617FM-12+088299999V0209999C000010042019N0100001N1+02571+02011100561ADDGF106991051021004501001011MA1999999091081MD1999999-0031REMSYN070AAXX  05184 83339 32497 60000 10257 20201 39108 40056 85201 333 59003;
0213833390999992008040600004-14050-042617FM-12+088299999V0209999C000010042019N0020001N1+02171+02031100901ADDAA106001091AY161061AY221061GF108991051021004501021999KA1240M+02721MA1999999091351MD1999999+0011MW1131REMSYN100AAXX  06004 83339 21495 80000 10217 20203 39135 40090 71362 8522/ 333 10272 29083 55032 58001 60011;
0168833390999992008040700004-14050-042617FM-12+088299999V0209999C000012200019N0020001N1+02161+01991101041ADDGF103991031021004501001001KA1240M+02641MA1999999091401MD1999999+0051REMSYN088AAXX  07004 83339 32495 30000 10216 20199 39140 40104 83200 333 10264 29088 55051 58005;
0201833390999992008040712004-14050-042617FM-12+088299999V0201401N004110042019N0100001N1+02211+01991101201ADDAA124000591AY161061AY261061GF106991061021004501001001KA1240N+01921MA1999999091601MD1999999-0031MW1101REMSYN088AAXX  07124 83339 21497 61408 10221 20199 39160 40120 71066 86200 333 20192 59003 69944;
0137833390999992008040718004-14050-042617FM-12+088299999V0201401N004612200019N0100001N1+02651+02031100721ADDGF104991041021004501001001MA1999999091231MD1999999+0041REMSYN070AAXX  07184 83339 32497 41409 10265 20203 39123 40072 84200 333 58004;
0168833390999992008040800004-14050-042617FM-12+088299999V0200901N004612200019N0020001N1+02211+01821101001ADDGF102991021021004501001001KA1240M+02761MA1999999091421MD1999999+0021REMSYN088AAXX  08004 83339 32495 20909 10221 20182 39142 40100 82200 333 10276 29079 55071 58002;
0156833390999992008040812004-14050-042617FM-12+088299999V0201401N004610042019N0100001N1+02211+01761101291ADDGF105991051021004501001001KA1240N+01941MA1999999091681MD1999999+0081REMSYN076AAXX  08124 83339 32497 51409 10221 20176 39168 40129 85200 333 20194 58008;
0137833390999992008040818004-14050-042617FM-12+088299999V0201401N004612200019N0100001N1+02651+01881100941ADDGF103991031021004501001001MA1999999091431MD1999999+0201REMSYN070AAXX  08184 83339 32497 31409 10265 20188 39143 40094 83200 333 58020;
0168833390999992008040900004-14050-042617FM-12+088299999V0201401N001512200019N0020001N1+02271+01781101101ADDGF102991021021004501001001KA1240M+02701MA1999999091541MD1999999+0121REMSYN088AAXX  09004 83339 32495 21403 10227 20178 39154 40110 82200 333 10270 29073 55088 58012;
0156833390999992008040912004-14050-042617FM-12+088299999V0201401N004610042019N0100001N1+02231+01841101291ADDGF105991051021004501001001KA1240N+01981MA1999999091701MD1999999+0021REMSYN076AAXX  09124 83339 32497 51409 10223 20184 39170 40129 85200 333 20198 58002;
0137833390999992008040918004-14050-042617FM-12+088299999V0201801N005112200019N0100001N1+02631+01861100981ADDGF102991021021004501001001MA1999999091461MD1999999+0031REMSYN070AAXX  09184 83339 32497 21810 10263 20186 39146 40098 82200 333 58003;
0178833390999992008041000004-14050-042617FM-12+088299999V0202701N000512200019N0020001N1+02171+01741101081ADDGA1001+999999999GF100991001001999999001001KA1240M+02721MA1999999091491MD1999999-0051REMSYN082AAXX  10004 83339 32995 02701 10217 20174 39149 40108 333 10272 29074 55107 59005;
0156833390999992008041012004-14050-042617FM-12+088299999V0201401N004610042019N0100001N1+02111+01641101141ADDGF106991061021004501001001KA1240N+02001MA1999999091531MD1999999-0171REMSYN076AAXX  10124 83339 32497 61409 10211 20164 39153 40114 86200 333 20200 59017;
0137833390999992008041018004-14050-042617FM-12+088299999V0201401N004112200019N0100001N1+02651+01631100761ADDGF102991021021004501001001MA1999999091261MD1999999-0201REMSYN070AAXX  10184 83339 32497 21408 10265 20163 39126 40076 82200 333 59020;
0178833390999992008041100004-14050-042617FM-12+088299999V0201801N001512200019N0020001N1+02291+01611100821ADDGA1001+999999999GF100991001001999999001001KA1240M+02941MA1999999091251MD1999999-0241REMSYN082AAXX  11004 83339 32995 01803 10229 20161 39125 40082 333 10294 29065 55093 59024;
0156833390999992008041112004-14050-042617FM-12+088299999V0201401N005712200019N0100001N1+02131+01701101011ADDGF104991041021004501001001KA1240N+01801MA1999999091431MD1999999-0101REMSYN076AAXX  11124 83339 32497 41411 10213 20170 39143 40101 84200 333 20180 59010;
0137833390999992008041118004-14050-042617FM-12+088299999V0200901N003112200019N0100001N1+02711+01541100601ADDGF103991021021004501021001MA1999999091121MD1999999-0141REMSYN070AAXX  11184 83339 32497 30906 10271 20154 39112 40060 82220 333 59014;
0168833390999992008041200004-14050-042617FM-12+088299999V0201801N001512200019N0020001N1+02231+01651100771ADDGF102991021011004501001001KA1240M+02781MA1999999091211MD1999999-0041REMSYN088AAXX  12004 83339 32495 21803 10223 20165 39121 40077 82100 333 10278 29066 55105 59004;
0156833390999992008041212004-14050-042617FM-12+088299999V0200501N001512200019N0100001N1+02391+01971100891ADDGF102991021011004501001001KA1240N+01841MA1999999091361MD1999999-0071REMSYN076AAXX  12124 83339 32497 20503 10239 20197 39136 40089 82100 333 20184 59007;
0137833390999992008041218004-14050-042617FM-12+088299999V0202301N001512200019N0100001N1+02891+01701100461ADDGF104991031021004501001021MA1999999091031MD1999999-0091REMSYN070AAXX  12184 83339 32497 42303 10289 20170 39103 40046 83202 333 59009;
0168833390999992008041300004-14050-042617FM-12+088299999V0209999C000012200019N0020001N1+02251+01771100811ADDGF102991021021004501001001KA1240M+03001MA1999999091291MD1999999+0081REMSYN088AAXX  13004 83339 32495 20000 10225 20177 39129 40081 82200 333 10300 29068 55090 58008;
0156833390999992008041312004-14050-042617FM-12+088299999V0201401N001512200019N0100001N1+02471+01941100991ADDGF103991021021004501031001KA1240N+02041MA1999999091471MD1999999+0111REMSYN076AAXX  13124 83339 32497 31403 10247 20194 39147 40099 82230 333 20204 58011;
0137833390999992008041318004-14050-042617FM-12+088299999V0202701N003110450019N0100001N1+02591+01941100591ADDGF105991041021004501021001MA1999999091111MD1999999+0081REMSYN070AAXX  13184 83339 32497 52706 10259 20194 39111 40059 84220 333 58008;
0168833390999992008041400004-14050-042617FM-12+088299999V0201801N001012200019N0020001N1+02351+01551100771ADDGF102991021021004501001001KA1240M+02961MA1999999091291MD1999999+0001REMSYN088AAXX  14004 83339 32495 21802 10235 20155 39129 40077 82200 333 10296 29066 55055 58000;
0156833390999992008041412004-14050-042617FM-12+088299999V0200501N001012200019N0100001N1+02471+01961101131ADDGF102991011011004501001011KA1240N+01901MA1999999091621MD1999999+0151REMSYN076AAXX  14124 83339 32497 20502 10247 20196 39162 40113 81101 333 20190 58015;
0137833390999992008041418004-14050-042617FM-12+088299999V0202301N001510042019N0100001N1+02661+01951100621ADDGF105991051021004501001001MA1999999091151MD1999999+0041REMSYN070AAXX  14184 83339 32497 52303 10266 20195 39115 40062 85200 333 58004;
0178833390999992008041500004-14050-042617FM-12+088299999V0209999C000012200019N0020001N1+02351+01931100891ADDGA1001+999999999GF100991001001999999001001KA1240M+02961MA1999999091401MD1999999+0111REMSYN082AAXX  15004 83339 32995 00000 10235 20193 39140 40089 333 10296 29073 55085 58011;
0201833390999992008041512004-14050-042617FM-12+088299999V0201401N001512200019N0100001N1+02331+01931101151ADDAA124000391AY161061AY291061GF102991021021004501001001KA1240N+02061MA1999999091621MD1999999+0001MW1021REMSYN088AAXX  15124 83339 21497 21403 10233 20193 39162 40115 70269 82200 333 20206 58000 69934;
0137833390999992008041518004-14050-042617FM-12+088299999V0201401N003612200019N0100001N1+02771+01931100631ADDGF102991021021004501001001MA1999999091181MD1999999+0031REMSYN070AAXX  15184 83339 32497 21407 10277 20193 39118 40063 82200 333 58003;
0178833390999992008041600004-14050-042617FM-12+088299999V0202301N001512200019N0020001N1+02331+01811100921ADDGA1001+999999999GF100991001001999999001001KA1240M+02881MA1999999091411MD1999999+0011REMSYN082AAXX  16004 83339 32995 02303 10233 20181 39141 40092 333 10288 29071 55083 58001;
0156833390999992008041612004-14050-042617FM-12+088299999V0201401N003110042019N0100001N1+02111+01911101381ADDGF108991051021004501021999KA1240N+01971MA1999999091761MD1999999+0141REMSYN076AAXX  16124 83339 32497 81406 10211 20191 39176 40138 8522/ 333 20197 58014;
0137833390999992008041618004-14050-042617FM-12+088299999V0201401N002612200019N0100001N1+02741+01701100991ADDGF102991011011004501001011MA1999999091511MD1999999+0331REMSYN070AAXX  16184 83339 32497 21405 10274 20170 39151 40099 81101 333 58033;
0156833390999992008041712004-14050-042617FM-12+088299999V0201401N007210450019N0100001N1+02051+01741101561ADDGF108991041021004501021999KA1240N+01881MA1999999091891MD1999999+0131REMSYN076AAXX  17124 83339 32497 81414 10205 20174 39189 40156 8422/ 333 20188 58013;
0137833390999992008041718004-14050-042617FM-12+088299999V0201401N003110042019N0100001N1+02551+01831101161ADDGF106991061021004501001001MA1999999091611MD1999999+0101REMSYN070AAXX  17184 83339 32497 61406 10255 20183 39161 40116 86200 333 58010;
0168833390999992008041800004-14050-042617FM-12+088299999V0209999C000012200019N0100001N1+02091+01801101331ADDGF102991021011004501001001KA1240M+02621MA1999999091661MD1999999-0081REMSYN088AAXX  18004 83339 32497 20000 10209 20180 39166 40133 82100 333 10262 29078 55041 59008;
0156833390999992008041812004-14050-042617FM-12+088299999V0201401N003610042019N0100001N1+02081+01841101451ADDGF106991061021004501001001KA1240N+01901MA1999999091791MD1999999-0101REMSYN076AAXX  18124 83339 32497 61407 10208 20184 39179 40145 86200 333 20190 59010;
0137833390999992008041818004-14050-042617FM-12+088299999V0200901N002612200019N0100001N1+02731+01541100911ADDGF102991021021004501001001MA1999999091401MD1999999-0211REMSYN070AAXX  18184 83339 32497 20905 10273 20154 39140 40091 82200 333 59021;
0178833390999992008041900004-14050-042617FM-12+088299999V0209999C000012200019N0020001N1+02231+01691101191ADDGA1001+999999999GF100991001001999999001001KA1240M+02761MA1999999091571MD1999999-0091REMSYN082AAXX  19004 83339 32995 00000 10223 20169 39157 40119 333 10276 29069 55067 59009;
0166833390999992008041912004-14050-042617FM-12+088299999V0201401N005112200019N0100001N1+02231+01691101291ADDGA1001+999999999GF100991001001999999001001KA1240N+01831MA1999999091701MD1999999-0091REMSYN070AAXX  19124 83339 32997 01410 10223 20169 39170 40129 333 20183 59009;
0137833390999992008041918004-14050-042617FM-12+088299999V0201401N003112200019N0100001N1+02631+01511100821ADDGF102991021021004501001001MA1999999091321MD1999999-0081REMSYN070AAXX  19184 83339 32497 21406 10263 20151 39132 40082 82200 333 59008;
0156833390999992008042012004-14050-042617FM-12+088299999V0201401N003112200019N0100001N1+02191+01761101301ADDGF102991021011004501001001KA1240N+01811MA1999999091711MD1999999+0011REMSYN076AAXX  20124 83339 32497 21406 10219 20176 39171 40130 82100 333 20181 58001;
0137833390999992008042018004-14050-042617FM-12+088299999V0201401N003112200019N0100001N1+02691+01781100891ADDGF102991021011004501001001MA1999999091381MD1999999+0061REMSYN070AAXX  20184 83339 32497 21406 10269 20178 39138 40089 82100 333 58006;
0168833390999992008042100004-14050-042617FM-12+088299999V0201401N002612200019N0100001N1+02231+01801101191ADDGF103991011011004501031001KA1240M+02741MA1999999091591MD1999999-0071REMSYN088AAXX  21004 83339 32497 31405 10223 20180 39159 40119 81130 333 10274 29071 55110 59007;
0156833390999992008042112004-14050-042617FM-12+088299999V0201401N006212200019N0100001N1+02171+01781101331ADDGF103991031021004501001001KA1240N+01881MA1999999091721MD1999999+0011REMSYN076AAXX  21124 83339 32497 31412 10217 20178 39172 40133 83200 333 20188 58001;
0137833390999992008042118004-14050-042617FM-12+088299999V0201401N004612200019N0100001N1+02621+01671100931ADDGF103991021021004501001021MA1999999091421MD1999999+0041REMSYN070AAXX  21184 83339 32497 31409 10262 20167 39142 40093 82202 333 58004;
0178833390999992008042200004-14050-042617FM-12+088299999V0201401N001512200019N0020001N1+02151+01461101101ADDGA1001+999999999GF100991001001999999001001KA1240M+02731MA1999999091491MD1999999-0101REMSYN082AAXX  22004 83339 32995 01403 10215 20146 39149 40110 333 10273 29066 55102 59010;
0156833390999992008042212004-14050-042617FM-12+088299999V0201401N004612200019N0100001N1+02131+01641101291ADDGF102991021021004501001001KA1240N+01721MA1999999091661MD1999999-0061REMSYN076AAXX  22124 83339 32497 21409 10213 20164 39166 40129 82200 333 20172 59006;
0137833390999992008042218004-14050-042617FM-12+088299999V0201401N003612200019N0100001N1+02711+01411100821ADDGF102991011021004501021001MA1999999091301MD1999999-0121REMSYN070AAXX  22184 83339 32497 21407 10271 20141 39130 40082 81220 333 59012;
0178833390999992008042300004-14050-042617FM-12+088299999V0201801N000512200019N0020001N1+02131+01721100981ADDGA1001+999999999GF100991001001999999001001KA1240M+02801MA1999999091381MD1999999-0111REMSYN082AAXX  23004 83339 32995 01801 10213 20172 39138 40098 333 10280 29069 55109 59011;
0184833390999992008042312004-14050-042617FM-12+088299999V0201401N004610042019N0100001N1+01991+01701101261ADDAY101061AY201061GF106991051021004501021001KA1240N+01641MA1999999091601MD1999999-0061MW1101REMSYN082AAXX  23124 83339 31497 61409 10199 20170 39160 40126 71000 85220 333 20164 59006;
0137833390999992008042318004-14050-042617FM-12+088299999V0200501N002612200019N0100001N1+02871+01441100681ADDGF102991011021004501001021MA1999999091191MD1999999-0111REMSYN070AAXX  23184 83339 32497 20505 10287 20144 39119 40068 81202 333 59011;
0187833390999992008042400004-14050-042617FM-12+088299999V0209999C000012200019N0020001N1+02291+01441100911ADDGF104991999021004501001001KA1240M+02981MA1999999091321MD1999999-0061REMSYN088AAXX  24004 83339 32495 40000 10229 20144 39132 40091 83200 333 10298 29061 55089 59006;EQDQ01+000032SCOTLC
0156833390999992008042412004-14050-042617FM-12+088299999V0203201N003112200019N0100001N1+02551+01781100881ADDGF102991011021004501031001KA1240N+01961MA1999999091391MD1999999-0211REMSYN076AAXX  24124 83339 32497 23206 10255 20178 39139 40088 81230 333 20196 59021;
0137833390999992008042418004-14050-042617FM-12+088299999V0202301N001510042019N0100001N1+03011+01711100511ADDGF106991051021004501031001MA1999999091121MD1999999-0071REMSYN070AAXX  24184 83339 32497 62303 10301 20171 39112 40051 85230 333 59007;
0196833390999992008042500004-14050-042617FM-12+088299999V0209999C000012200019N0020001N1+02351+01601100751ADDAY101061AY201061GF103991031021999999001001KA1240M+02901MA1999999091291MD1999999-0031MW1131REMSYN094AAXX  25004 83339 31995 30000 10235 20160 39129 40075 71300 83200 333 10290 29059 55101 59003;
0156833390999992008042512004-14050-042617FM-12+088299999V0200501N000510042019N0100001N1+02251+01861101011ADDGF106991051021004501021001KA1240N+02001MA1999999091471MD1999999+0081REMSYN076AAXX  25124 83339 32497 60501 10225 20186 39147 40101 85220 333 20200 58008;
0182833390999992008042518004-14050-042617FM-12+088299999V0202701N000510042019N0100001N1+02571+02061100591ADDAA106001091AY161061AY261061GF106991051021004501001021MA1999999091111MD1999999-0011MW1021REMSYN082AAXX  25184 83339 21497 62701 10257 20206 39111 40059 70266 85202 333 59001 60011;
0168833390999992008042600004-14050-042617FM-12+088299999V0202701N000510042019N0020001N1+02321+01701100771ADDGF107991061021004501021999KA1240M+02801MA1999999091251MD1999999-0041REMSYN088AAXX  26004 83339 32495 72701 10232 20170 39125 40077 8622/ 333 10280 29072 55034 59004;
0201833390999992008042612004-14050-042617FM-12+088299999V0200901N000510042019N0040001N1+02031+01921101071ADDAA124004191AY191061AY261061GF108991081051004501999999KA1240N+01971MA1999999091461MD1999999-0011MW1601REMSYN088AAXX  26124 83339 21496 80901 10203 20192 39146 40107 76096 885// 333 20197 59001 60044;
0182833390999992008042618004-14050-042617FM-12+088299999V0202301N001510042019N0100001N1+02751+01971100531ADDAA106000591AY161061AY261061GF105991051021004501001001MA1999999091091MD1999999-0021MW1021REMSYN082AAXX  26184 83339 21497 52303 10275 20197 39109 40053 70266 85200 333 59002 69941;
0196833390999992008042700004-14050-042617FM-12+088299999V0202701N001510042019N0020001N1+02091+01821101001ADDAY101061AY201061GF106991061021004501001001KA1240M+02831MA1999999091361MD1999999+0111MW1101REMSYN094AAXX  27004 83339 31495 62703 10209 20182 39136 40100 71000 86200 333 10283 29082 55033 58011;
0201833390999992008042712004-14050-042617FM-12+088299999V0200901N000510042019N0040001N1+02211+02051101131ADDAA124001091AY161061AY261061GF107991051021004501021999KA1240N+01961MA1999999091521MD1999999+0061MW1101REMSYN088AAXX  27124 83339 21496 70901 10221 20205 39152 40113 71066 8522/ 333 20196 58006 60014;
0182833390999992008042718004-14050-042617FM-12+088299999V0201401N003112200019N0100001N1+02451+01921100741ADDAA106007191AY161061AY261061GF104991031021004501031001MA1999999091211MD1999999+0121MW1021REMSYN082AAXX  27184 83339 21497 41406 10245 20192 39121 40074 70266 83230 333 58012 60071;
0196833390999992008042800004-14050-042617FM-12+088299999V0201801N001512200019N0020001N1+02091+01871100931ADDAY101061AY201061GF102991021021004501001001KA1240M+02521MA1999999091341MD1999999-0021MW1101REMSYN094AAXX  28004 83339 31495 21803 10209 20187 39134 40093 71000 82200 333 10252 29085 55039 59002;
0201833390999992008042812004-14050-042617FM-12+088299999V02099999999992200019N0100001N1+02171+01951101221ADDAA124007191AY161061AY221061GF103991031021004501001001KA1240N+01981MA1999999091591MD1999999+0071MW1021REMSYN088AAXX  28124 83339 21497 314// 10217 20195 39159 40122 70262 83200 333 20198 58007 60074;
0137833390999992008042818004-14050-042617FM-12+088299999V02099999999992200019N0100001N1+02731+01571100731ADDGF102991021011004501001001MA1999999091251MD1999999+0041REMSYN070AAXX  28184 83339 32497 214// 10273 20157 39125 40073 82100 333 58004;
0178833390999992008042900004-14050-042617FM-12+088299999V0209999C000012200019N0020001N1+02231+01671100941ADDGA1001+999999999GF100991001001999999001001KA1240M+02791MA1999999091361MD1999999+0021REMSYN082AAXX  29004 83339 32995 00000 10223 20167 39136 40094 333 10279 29069 55091 58002;
0156833390999992008042912004-14050-042617FM-12+088299999V02099999999990042019N0100001N1+02161+01921101251ADDGF108991051021004501021999KA1240N+01941MA1999999091651MD1999999+0061REMSYN076AAXX  29124 83339 32497 814// 10216 20192 39165 40125 8522/ 333 20194 58006;
0137833390999992008042918004-14050-042617FM-12+088299999V02099999999992200019N0100001N1+02701+01781100681ADDGF103991031021004501001001MA1999999091291MD1999999+0041REMSYN070AAXX  29184 83339 32497 314// 10270 20178 39129 40068 83200 333 58004;
0178833390999992008043000004-14050-042617FM-12+088299999V0209999C000012200019N0020001N1+02231+01691100891ADDGA1001+999999999GF100991001001999999001001KA1240M+02801MA1999999091321MD1999999-0041REMSYN082AAXX  30004 83339 32995 00000 10223 20169 39132 40089 333 10280 29071 55084 59004;
0156833390999992008043012004-14050-042617FM-12+088299999V0201401N003112200019N0100001N1+02281+01811101191ADDGF104991011011004501001041KA1240N+01781MA1999999091621MD1999999-0031REMSYN076AAXX  30124 83339 32497 41406 10228 20181 39162 40119 81104 333 20178 59003;
0137833390999992008043018004-14050-042617FM-12+088299999V0200901N004112200019N0100001N1+02791+01691100661ADDGF102991021011004501001001MA1999999091191MD1999999-0101REMSYN070AAXX  30184 83339 32497 20908 10279 20169 39119 40066 82100 333 59010;
0178833390999992008050100004-14050-042617FM-12+088299999V0202301N001512200019N0020001N1+02251+01641100871ADDGA1001+999999999GF100991001001999999001001KA1240M+02841MA1999999091331MD1999999+0011REMSYN082AAXX  01004 83339 32995 02303 10225 20164 39133 40087 333 10284 29066 55104 58001;
0156833390999992008050112004-14050-042617FM-12+088299999V0201401N005712200019N0100001N1+02051+01821101311ADDGF102991021021004501001001KA1240N+01761MA1999999091681MD1999999+0061REMSYN076AAXX  01124 83339 32497 21411 10205 20182 39168 40131 82200 333 20176 58006;
0156833390999992008050118004-14050-042617FM-12+088299999V0201401N005112200019N0100001N1+02631+01481100851ADDGF103991999011004501001001MA1999999091331MD1999999+0141REMSYN070AAXX  01184 83339 32497 31410 10263 20148 39133 40085 82100 333 58014;EQDQ01+000022SCOTLC
0168833390999992008050200004-14050-042617FM-12+088299999V0201401N005112200019N0020001N1+02301+01481101101ADDGF103991031021004501001001KA1240M+02721MA1999999091491MD1999999+0161REMSYN088AAXX  02004 83339 32495 31410 10230 20148 39149 40110 83200 333 10272 29064 55104 58016;
0156833390999992008050212004-14050-042617FM-12+088299999V0201401N005110042019N0100001N1+01891+01701101321ADDGF106991061021004501001001KA1240N+01761MA1999999091671MD1999999-0011REMSYN076AAXX  02124 83339 32497 61410 10189 20170 39167 40132 86200 333 20176 59001;
0137833390999992008050218004-14050-042617FM-12+088299999V0200901N003110042019N0100001N1+02411+01671100931ADDGF106991061021004501001001MA1999999091351MD1999999+0021REMSYN070AAXX  02184 83339 32497 60906 10241 20167 39135 40093 86200 333 58002;
0168833390999992008050300004-14050-042617FM-12+088299999V0201401N001010450019N0020001N1+02111+01721101281ADDGF108991031021004501021999KA1240M+02481MA1999999091601MD1999999+0111REMSYN088AAXX  03004 83339 32495 81402 10211 20172 39160 40128 8322/ 333 10248 29077 55019 58011;
0156833390999992008050312004-14050-042617FM-12+088299999V0201401N003610450019N0100001N1+01971+01791101441ADDGF108991041021004501021999KA1240N+01841MA1999999091761MD1999999+0091REMSYN076AAXX  03124 83339 32497 81407 10197 20179 39176 40144 8422/ 333 20184 58009;
0137833390999992008050318004-14050-042617FM-12+088299999V0201401N003110450019N0100001N1+02491+01891100921ADDGF106991011011004501031011MA1999999091371MD1999999+0021REMSYN070AAXX  03184 83339 32497 61406 10249 20189 39137 40092 81131 333 58002;
0168833390999992008050400004-14050-042617FM-12+088299999V02099999999990042019N0020001N1+02211+01801101191ADDGF108991051021004501021999KA1240M+02581MA1999999091551MD1999999-0051REMSYN088AAXX  04004 83339 32495 814// 10221 20180 39155 40119 8522/ 333 10258 29078 55029 59005;
0156833390999992008050412004-14050-042617FM-12+088299999V0201401N002612200019N0100001N1+02411+01911101271ADDGF102991021011004501001001KA1240N+01801MA1999999091951MD1999999-0051REMSYN076AAXX  04124 83339 32497 21405 10241 20191 39195 40127 82100 333 20180 59005;
0137833390999992008050418004-14050-042617FM-12+088299999V0201401N004112200019N0100001N1+02851+01751100891ADDGF102991021021004501001001MA1999999091421MD1999999+0051REMSYN070AAXX  04184 83339 32497 21408 10285 20175 39142 40089 82200 333 58005;
0156833390999992008050512004-14050-042617FM-12+088299999V0201401N002112200019N0100001N1+02251+01831101321ADDGF102991021021004501001001KA1240N+01721MA1999999091731MD1999999+0021REMSYN076AAXX  05124 83339 32497 21404 10225 20183 39173 40132 82200 333 20172 58002;
0137833390999992008050518004-14050-042617FM-12+088299999V0200501N003112200019N0100001N1+02911+01241100831ADDGF102991011021004501001021MA1999999091361MD1999999-0061REMSYN070AAXX  05184 83339 32497 20506 10291 20124 39136 40083 81202 333 59006;
0178833390999992008050600004-14050-042617FM-12+088299999V0201801N001012200019N0020001N1+02411+01171100991ADDGA1001+999999999GF100991001001999999001001KA1240M+03021MA1999999091471MD1999999-0121REMSYN082AAXX  06004 83339 32995 01802 10241 20117 39147 40099 333 10302 29050 55106 59012;
0156833390999992008050612004-14050-042617FM-12+088299999V0203601N002612200019N0100001N1+02471+01441101021ADDGF102991011021004501021001KA1240N+01761MA1999999091541MD1999999-0191REMSYN076AAXX  06124 83339 32497 23605 10247 20144 39154 40102 81220 333 20176 59019;
0137833390999992008050618004-14050-042617FM-12+088299999V0202701N003112200019N0100001N1+02971+01711100621ADDGF103991031021004501001001MA1999999091201MD1999999-0161REMSYN070AAXX  06184 83339 32497 32706 10297 20171 39120 40062 83200 333 59016;
0178833390999992008050700004-14050-042617FM-12+088299999V0202701N001512200019N0020001N1+02531+01611100811ADDGA1001+999999999GF100991001001999999001001KA1240M+03061MA1999999091371MD1999999-0101REMSYN082AAXX  07004 83339 32995 02703 10253 20161 39137 40081 333 10306 29054 55097 59010;
0166833390999992008050712004-14050-042617FM-12+088299999V0201401N003112200019N0100001N1+02471+01581101021ADDGA1001+999999999GF100991001001999999001001KA1240N+02041MA1999999091551MD1999999+0011REMSYN070AAXX  07124 83339 32997 01406 10247 20158 39155 40102 333 20204 58001;
0137833390999992008050718004-14050-042617FM-12+088299999V0201801N001510042019N0100001N1+02871+01581100661ADDGF105991051021004501001001MA1999999091251MD1999999+0051REMSYN070AAXX  07184 83339 32497 51803 10287 20158 39125 40066 85200 333 58005;
0168833390999992008050800004-14050-042617FM-12+088299999V0201801N004112200019N0020001N1+02291+01511100881ADDGF102991021021004501001001KA1240M+03021MA1999999091391MD1999999+0021REMSYN088AAXX  08004 83339 32495 21808 10229 20151 39139 40088 82200 333 10302 29057 55095 58002;
0184833390999992008050812004-14050-042617FM-12+088299999V0201401N004110042019N0040001N1+02191+01841101171ADDAY101061AY201061GF106991061021004501001001KA1240N+01961MA1999999091601MD1999999+0051MW1101REMSYN082AAXX  08124 83339 31496 61408 10219 20184 39160 40117 71000 86200 333 20196 58005;
0137833390999992008050818004-14050-042617FM-12+088299999V0200501N000512200019N0100001N1+02721+01461100711ADDGF103991031021004501001001MA1999999091241MD1999999-0011REMSYN070AAXX  08184 83339 32497 30501 10272 20146 39124 40071 83200 333 59001;
0168833390999992008050900004-14050-042617FM-12+088299999V0201801N002112200019N0020001N1+02331+01601100871ADDGF104991041021004501001001KA1240M+02881MA1999999091331MD1999999-0061REMSYN088AAXX  09004 83339 32495 41804 10233 20160 39133 40087 84200 333 10288 29064 55072 59006;
0137833390999992008050918004-14050-042617FM-12+088299999V0201401N003112200019N0100001N1+02631+01531100701ADDGF104991041021004501001001MA1999999091291MD1999999+0051REMSYN070AAXX  09184 83339 32497 41406 10263 20153 39129 40070 84200 333 58005;
0184833390999992008051012004-14050-042617FM-12+088299999V0201401N003110042019N0040001N1+01911+01641101361ADDAY101061AY201061GF107991061021004501021999KA1240N+01781MA1999999091691MD1999999+0151MW1101REMSYN082AAXX  10124 83339 31496 71406 10191 20164 39169 40136 71000 8622/ 333 20178 58015;
0137833390999992008051018004-14050-042617FM-12+088299999V0201401N004610042019N0100001N1+02491+01431101081ADDGF106991051021004501031001MA1999999091491MD1999999+0201REMSYN070AAXX  10184 83339 32497 61409 10249 20143 39149 40108 85230 333 58020;
0168833390999992008051100004-14050-042617FM-12+088299999V0201401N004612200019N0020001N1+02151+01311101261ADDGF104991041021004501001001KA1240M+02621MA1999999091601MD1999999+0111REMSYN088AAXX  11004 83339 32495 41409 10215 20131 39160 40126 84200 333 10262 29064 55056 58011;
0156833390999992008051112004-14050-042617FM-12+088299999V0201401N007210042019N0100001N1+01931+01401101561ADDGF106991051021004501021001KA1240N+01721MA1999999091871MD1999999+0181REMSYN076AAXX  11124 83339 32497 61414 10193 20140 39187 40156 85220 333 20172 58018;
0137833390999992008051118004-14050-042617FM-12+088299999V0201401N003112200019N0100001N1+02491+01241101161ADDGF104991031021004501001041MA1999999091561MD1999999+0071REMSYN070AAXX  11184 83339 32497 41406 10249 20124 39156 40116 83204 333 58007;
0168833390999992008051200004-14050-042617FM-12+088299999V0201801N005710042019N0020001N1+02091+01301101391ADDGF105991051021004501001001KA1240M+02561MA1999999091691MD1999999+0091REMSYN088AAXX  12004 83339 32495 51811 10209 20130 39169 40139 85200 333 10256 29060 55077 58009;
0156833390999992008051212004-14050-042617FM-12+088299999V0201401N006712200019N0100001N1+01851+01491101831ADDGF104991041021004501001001KA1240N+01661MA1999999092071MD1999999+0201REMSYN076AAXX  12124 83339 32497 41413 10185 20149 39207 40183 84200 333 20166 58020;
0137833390999992008051218004-14050-042617FM-12+088299999V0201401N005112200019N0100001N1+02491+01321101301ADDGF102991011011004501001011MA1999999091691MD1999999+0131REMSYN070AAXX  12184 83339 32497 21410 10249 20132 39169 40130 81101 333 58013;
0168833390999992008051300004-14050-042617FM-12+088299999V0201401N006712200019N0020001N1+02071+01351101611ADDGF102991021011004501001001KA1240M+02541MA1999999091871MD1999999+0181REMSYN088AAXX  13004 83339 32495 21413 10207 20135 39187 40161 82100 333 10254 29063 55103 58018;
0156833390999992008051312004-14050-042617FM-12+088299999V0201401N005110042019N0100001N1+01831+01391101841ADDGF105991051021004501001001KA1240N+01601MA1999999092081MD1999999+0011REMSYN076AAXX  13124 83339 32497 51410 10183 20139 39208 40184 85200 333 20160 58001;
0137833390999992008051318004-14050-042617FM-12+088299999V0200901N003110042019N0100001N1+02351+01431101351ADDGF105991051021004501001001MA1999999091701MD1999999+0011REMSYN070AAXX  13184 83339 32497 50906 10235 20143 39170 40135 85200 333 58001;
0178833390999992008051400004-14050-042617FM-12+088299999V0200901N001512200019N0020001N1+01911+01381101671ADDGA1001+999999999GF100991001001999999001001KA1240M+02421MA1999999091891MD1999999+0021REMSYN082AAXX  14004 83339 32995 00903 10191 20138 39189 40167 333 10242 29068 55087 58002;
0156833390999992008051412004-14050-042617FM-12+088299999V0201401N004110042019N0100001N1+01831+01471101821ADDGF106991061021004501001001KA1240N+01521MA1999999092031MD1999999-0051REMSYN076AAXX  14124 83339 32497 61408 10183 20147 39203 40182 86200 333 20152 59005;
0137833390999992008051418004-14050-042617FM-12+088299999V0201401N001512200019N0100001N1+02501+01421101241ADDGF102991021011004501001001MA1999999091601MD1999999-0101REMSYN070AAXX  14184 83339 32497 21403 10250 20142 39160 40124 82100 333 59010;
0178833390999992008051500004-14050-042617FM-12+088299999V0201401N001012200019N0020001N1+02001+01321101541ADDGA1001+999999999GF100991001001999999001001KA1240M+02581MA1999999091791MD1999999-0101REMSYN082AAXX  15004 83339 32995 01402 10200 20132 39179 40154 333 10258 29065 55082 59010;
0156833390999992008051512004-14050-042617FM-12+088299999V0201401N003110042019N0100001N1+01901+01601101781ADDGF106991061021004501001001KA1240N+01741MA1999999092031MD1999999+0001REMSYN076AAXX  15124 83339 32497 61406 10190 20160 39203 40178 86200 333 20174 58000;
0137833390999992008051518004-14050-042617FM-12+088299999V0201401N003112200019N0100001N1+02571+01521101231ADDGF103991031011004501001001MA1999999091631MD1999999+0031REMSYN070AAXX  15184 83339 32497 31406 10257 20152 39163 40123 83100 333 58003;
0178833390999992008051600004-14050-042617FM-12+088299999V0201401N005112200019N0020001N1+02131+01591101591ADDGA1001+999999999GF100991001001999999001001KA1240M+02621MA1999999091871MD1999999+0081REMSYN082AAXX  16004 83339 32995 01410 10213 20159 39187 40159 333 10262 29069 55064 58008;
0156833390999992008051612004-14050-042617FM-12+088299999V0201401N002610450019N0100001N1+02031+01801101691ADDGF106991041021004501021001KA1240N+01821MA1999999092011MD1999999-0021REMSYN076AAXX  16124 83339 32497 61405 10203 20180 39201 40169 84220 333 20182 59002;
0137833390999992008051618004-14050-042617FM-12+088299999V0201401N003112200019N0100001N1+02671+01611101121ADDGF104991021021004501001011MA1999999091571MD1999999-0061REMSYN070AAXX  16184 83339 32497 41406 10267 20161 39157 40112 82201 333 59006;
0187833390999992008051700004-14050-042617FM-12+088299999V0201401N001512200019N0020001N1+02151+01541101491ADDGF102991001001999999001011KA1240M+02761MA1999999091831MD1999999-0041REMSYN088AAXX  17004 83339 32895 21403 10215 20154 39183 40149 80001 333 10276 29068 55065 59004;EQDQ01+022502SCOLCB
0156833390999992008051712004-14050-042617FM-12+088299999V0201801N005710042019N0100001N1+02031+01741101741ADDGF106991061021004501001001KA1240N+01811MA1999999092051MD1999999+0041REMSYN076AAXX  17124 83339 32497 61811 10203 20174 39205 40174 86200 333 20181 58004;
0137833390999992008051718004-14050-042617FM-12+088299999V0201801N005712200019N0100001N1+02611+01531101261ADDGF105991021011004501001011MA1999999091701MD1999999+0131REMSYN070AAXX  17184 83339 32497 51811 10261 20153 39170 40126 82101 333 58013;
0187833390999992008051800004-14050-042617FM-12+088299999V0201401N005112200019N0020001N1+02151+01571101541ADDGF102991001001999999001011KA1240M+02701MA1999999091871MD1999999+0041REMSYN088AAXX  18004 83339 32895 21410 10215 20157 39187 40154 80001 333 10270 29068 55066 58004;EQDQ01+022502SCOLCB
0156833390999992008051812004-14050-042617FM-12+088299999V0201401N005712200019N0100001N1+01931+01511101791ADDGF105991031021004501001011KA1240N+01741MA1999999092071MD1999999+0021REMSYN076AAXX  18124 83339 32497 51411 10193 20151 39207 40179 83201 333 20174 58002;
0137833390999992008051818004-14050-042617FM-12+088299999V0200901N004612200019N0100001N1+02341+01471101341ADDGF105991031011004501001011MA1999999091711MD1999999+0011REMSYN070AAXX  18184 83339 32497 50909 10234 20147 39171 40134 83101 333 58001;
0168833390999992008051900004-14050-042617FM-12+088299999V0201401N002112200019N0020001N1+01951+01501101611ADDGF103991011011004501031011KA1240M+02421MA1999999091871MD1999999+0001REMSYN088AAXX  19004 83339 32495 31404 10195 20150 39187 40161 81131 333 10242 29071 55038 58000;
0156833390999992008051912004-14050-042617FM-12+088299999V0201401N004112200019N0100001N1+01971+01461101701ADDGF103991021021004501001041KA1240N+01501MA1999999091951MD1999999-0121REMSYN076AAXX  19124 83339 32497 31408 10197 20146 39195 40170 82204 333 20150 59012;
0137833390999992008051918004-14050-042617FM-12+088299999V0201401N002110450019N0100001N1+02591+01301101211ADDGF105991041021004501021001MA1999999091591MD1999999-0121REMSYN070AAXX  19184 83339 32497 51404 10259 20130 39159 40121 84220 333 59012;
0168833390999992008052000004-14050-042617FM-12+088299999V0200901N000510042019N0020001N1+02011+01321101381ADDGF106991051021004501031001KA1240M+02721MA1999999091681MD1999999-0191REMSYN088AAXX  20004 83339 32495 60901 10201 20132 39168 40138 85230 333 10272 29062 55088 59019;
0137833390999992008052018004-14050-042617FM-12+088299999V0202301N004112200019N0100001N1+02571+01141101071ADDGF104991031021004501021001MA1999999091461MD1999999-0131REMSYN070AAXX  20184 83339 32497 42308 10257 20114 39146 40107 83220 333 59013;
0168833390999992008052100004-14050-042617FM-12+088299999V0201801N003110042019N0020001N1+02171+01101101301ADDGF106991051021004501031001KA1240M+02751MA1999999091621MD1999999-0061REMSYN088AAXX  21004 83339 32495 61806 10217 20110 39162 40130 85230 333 10275 29056 55091 59006;
0137833390999992008052118004-14050-042617FM-12+088299999V0200901N002110042019N0100001N1+02491+01211101001ADDGF106991051021004501021001MA1999999091401MD1999999-0061REMSYN070AAXX  21184 83339 32497 60904 10249 20121 39140 40100 85220 333 59006;
0168833390999992008052200004-14050-042617FM-12+088299999V0201801N001512200019N0020001N1+01991+01101101361ADDGF102991021021004501001001KA1240M+02601MA1999999091631MD1999999+0011REMSYN088AAXX  22004 83339 32495 21803 10199 20110 39163 40136 82200 333 10260 29059 55064 58001;
0137833390999992008052218004-14050-042617FM-12+088299999V0200901N001512200019N0100001N1+02671+00991101051ADDGF104991031021004501001021MA1999999091461MD1999999+0061REMSYN070AAXX  22184 83339 32497 40903 10267 20099 39146 40105 83202 333 58006;
0168833390999992008052300004-14050-042617FM-12+088299999V0209999C000010042019N0020001N1+02091+01141101261ADDGF105991051021004501001001KA1240M+02771MA1999999091621MD1999999-0011REMSYN088AAXX  23004 83339 32495 50900 10209 20114 39162 40126 85200 333 10277 29052 55094 59001;
0156833390999992008052312004-14050-042617FM-12+088299999V0201401N003112200019N0100001N1+02131+01531101341ADDGF102991011011004501031001KA1240N+01661MA1999999091691MD1999999-0071REMSYN076AAXX  23124 83339 32497 21406 10213 20153 39169 40134 81130 333 20166 59007;
0137833390999992008052318004-14050-042617FM-12+088299999V0200501N004612200019N0100001N1+02721+01241100921ADDGF103991021021004501001021MA1999999091391MD1999999-0071REMSYN070AAXX  23184 83339 32497 30509 10272 20124 39139 40092 82202 333 59007;
0168833390999992008052400004-14050-042617FM-12+088299999V0201801N002612200019N0020001N1+02171+01221101151ADDGF102991021011004501001001KA1240M+02841MA1999999091541MD1999999-0081REMSYN088AAXX  24004 83339 32495 21805 10217 20122 39154 40115 82100 333 10284 29055 55098 59008;
0156833390999992008052412004-14050-042617FM-12+088299999V0200901N001512200019N0100001N1+02131+01481101361ADDGF104991031021004501021001KA1240N+01631MA1999999091731MD1999999+0041REMSYN076AAXX  24124 83339 32497 40903 10213 20148 39173 40136 83220 333 20163 58004;
0137833390999992008052418004-14050-042617FM-12+088299999V0200501N002110450019N0100001N1+02771+01321100891ADDGF105991041021004501021001MA1999999091381MD1999999-0011REMSYN070AAXX  24184 83339 32497 50504 10277 20132 39138 40089 84220 333 59001;
0156833390999992008052512004-14050-042617FM-12+088299999V0200501N003110042019N0100001N1+02031+01581101141ADDGF106991051021004501021001KA1240N+01641MA1999999091531MD1999999-0201REMSYN076AAXX  25124 83339 32497 60506 10203 20158 39153 40114 85220 333 20164 59020;
0137833390999992008052518004-14050-042617FM-12+088299999V0200901N003110042019N0100001N1+02771+01351100781ADDGF105991051021004501001001MA1999999091281MD1999999-0101REMSYN070AAXX  25184 83339 32497 50906 10277 20135 39128 40078 85200 333 59010;
0168833390999992008052600004-14050-042617FM-12+088299999V0200901N002612200019N0020001N1+02311+01381101071ADDGF102991021021004501001001KA1240M+03001MA1999999091461MD1999999-0051REMSYN088AAXX  26004 83339 32495 20905 10231 20138 39146 40107 82200 333 10300 29058 55053 59005;
0156833390999992008052612004-14050-042617FM-12+088299999V0200901N002111050019N0100001N1+02291+01631101291ADDGF105991011011004501031011KA1240N+01761MA1999999091731MD1999999+0201REMSYN076AAXX  26124 83339 32497 50904 10229 20163 39173 40129 81131 333 20176 58020;
0137833390999992008052618004-14050-042617FM-12+088299999V0201801N001012200019N0100001N1+02871+01461100891ADDGF105991031021004501001041MA1999999091421MD1999999+0141REMSYN070AAXX  26184 83339 32497 51802 10287 20146 39142 40089 83204 333 58014;
0178833390999992008052700004-14050-042617FM-12+088299999V0201801N001012200019N0020001N1+02231+01401101201ADDGA1001+999999999GF100991001001999999001001KA1240M+02901MA1999999091631MD1999999+0171REMSYN082AAXX  27004 83339 32995 01802 10223 20140 39163 40120 333 10290 29057 55055 58017;
0160833390999992008052712004-14050-042617FM-12+088299999V0200901N003112200019N0100001N1+02201+01741101351ADDGF102991011011004501001011KA1240N+01761MD1999999+0011REMSYN076AAXX  27124 83339 32497 20906 10220 20174 33917 40135 81101 333 20176 58001;EQDQ01+039171APOSP 
0137833390999992008052718004-14050-042617FM-12+088299999V0200901N005112200019N0100001N1+02721+01461100971ADDGF102991011011004501001011MA1999999091451MD1999999+0031REMSYN070AAXX  27184 83339 32497 20910 10272 20146 39145 40097 81101 333 58003;
0178833390999992008052800004-14050-042617FM-12+088299999V0201401N005112200019N0020001N1+02311+01371101241ADDGA1001+999999999GF100991001001999999001001KA1240M+02781MA1999999091651MD1999999+0021REMSYN082AAXX  28004 83339 32995 01410 10231 20137 39165 40124 333 10278 29058 55095 58002;
0156833390999992008052812004-14050-042617FM-12+088299999V0201401N006212200019N0100001N1+02011+01581101461ADDGF102991021011004501001001KA1240N+01741MA1999999091821MD1999999+0081REMSYN076AAXX  28124 83339 32497 21412 10201 20158 39182 40146 82100 333 20174 58008;
0137833390999992008052818004-14050-042617FM-12+088299999V0201401N003612200019N0100001N1+02571+01521101041ADDGF102991021011004501001001MA1999999091501MD1999999+0051REMSYN070AAXX  28184 83339 32497 21407 10257 20152 39150 40104 82100 333 58005;
0178833390999992008052900004-14050-042617FM-12+088299999V0200501N001012200019N0020001N1+02101+01421101361ADDGA1001+999999999GF100991001001999999001001KA1240M+02621MA1999999091691MD1999999+0041REMSYN082AAXX  29004 83339 32995 00502 10210 20142 39169 40136 333 10262 29065 55105 58004;
0166833390999992008052912004-14050-042617FM-12+088299999V0201401N005112200019N0100001N1+01971+01481101471ADDGA1001+999999999GF100991001001999999001001KA1240N+01641MA1999999091791MD1999999-0031REMSYN070AAXX  29124 83339 32997 01410 10197 20148 39179 40147 333 20164 59003;
0137833390999992008052918004-14050-042617FM-12+088299999V0200901N005112200019N0100001N1+02631+01451101101ADDGF102991021011004501001001MA1999999091541MD1999999+0041REMSYN070AAXX  29184 83339 32497 20910 10263 20145 39154 40110 82100 333 58004;
0178833390999992008053000004-14050-042617FM-12+088299999V0201401N003112200019N0020001N1+02151+01471101431ADDGA1001+999999999GF100991001001999999001001KA1240M+02681MA1999999091751MD1999999+0061REMSYN082AAXX  30004 83339 32995 01406 10215 20147 39175 40143 333 10268 29063 55106 58006;
0156833390999992008053012004-14050-042617FM-12+088299999V0201401N002612200019N0100001N1+02131+01721101681ADDGF102991021011004501001001KA1240N+01611MA1999999092021MD1999999+0231REMSYN076AAXX  30124 83339 32497 21405 10213 20172 39202 40168 82100 333 20161 58023;
0137833390999992008053018004-14050-042617FM-12+088299999V0201401N003112200019N0100001N1+02671+01421101151ADDGF102991021011004501001001MA1999999091601MD1999999+0061REMSYN070AAXX  30184 83339 32497 21406 10267 20142 39160 40115 82100 333 58006;
0178833390999992008053100004-14050-042617FM-12+088299999V0209999C000012200019N0020001N1+02131+01481101461ADDGA1001+999999999GF100991001001999999001001KA1240M+02791MA1999999091821MD1999999+0071REMSYN082AAXX  31004 83339 32995 00000 10213 20148 39182 40146 333 10279 29064 55096 58007;
0156833390999992008053112004-14050-042617FM-12+088299999V0201401N005112200019N0100001N1+02051+01601101771ADDGF102991021011004501001001KA1240N+01761MA1999999092081MD1999999+0061REMSYN076AAXX  31124 83339 32497 21410 10205 20160 39208 40177 82100 333 20176 58006;
0147833390999992008053118004-14050-042617FM-12+088299999V0200901N006712200019N0100001N1+02651+01071101301ADDGA1001+999999999GF100991001001999999001001MA1999999091741MD1999999+0141REMSYN064AAXX  31184 83339 32497 00913 10265 20107 39174 40130 333 58014;
0178833390999992008060100004-14050-042617FM-12+088299999V0201401N005112200019N0020001N1+02201+01171101611ADDGA1001+999999999GF100991001001999999001001KA1240M+02681MA1999999091941MD1999999+0121REMSYN082AAXX  01004 83339 32995 01410 10220 20117 39194 40161 333 10268 29054 55100 58012;
0156833390999992008060112004-14050-042617FM-12+088299999V0201401N007710042019N0100001N1+01881+01531101771ADDGF106991061021004501001001KA1240N+01641MA1999999092051MD1999999-0031REMSYN076AAXX  01124 83339 32497 61415 10188 20153 39205 40177 86200 333 20164 59003;
0137833390999992008060118004-14050-042617FM-12+088299999V0200901N003112200019N0100001N1+02331+01441101411ADDGF104991041021004501001001MA1999999091771MD1999999+0031REMSYN070AAXX  01184 83339 32497 40906 10233 20144 39177 40141 84200 333 58003;
0178833390999992008060200004-14050-042617FM-12+088299999V0201401N003612200019N0020001N1+01831+01561101801ADDGA1001+999999999GF100991001001999999001001KA1240M+02421MA1999999092011MD1999999+0071REMSYN082AAXX  02004 83339 32995 01407 10183 20156 39201 40180 333 10242 29076 55032 58007;
0156833390999992008060212004-14050-042617FM-12+088299999V0201401N006710042019N0100001N1+01851+01431101801ADDGF106991061021004501001001KA1240N+01661MA1999999092011MD1999999-0041REMSYN076AAXX  02124 83339 32497 61413 10185 20143 39201 40180 86200 333 20166 59004;
0137833390999992008060218004-14050-042617FM-12+088299999V0201401N005110042019N0100001N1+02331+01371101291ADDGF106991061021004501001001MA1999999091631MD1999999-0141REMSYN070AAXX  02184 83339 32497 61410 10233 20137 39163 40129 86200 333 59014;
0168833390999992008060300004-14050-042617FM-12+088299999V0201801N007212200019N0020001N1+01951+01511101561ADDGF103991031021004501001001KA1240M+02381MA1999999091811MD1999999-0201REMSYN088AAXX  03004 83339 32495 31814 10195 20151 39181 40156 83200 333 10238 29071 55033 59020;
0201833390999992008060312004-14050-042617FM-12+088299999V0200501N006210042019N0040001N1+01771+01651101721ADDAA124008991AY161061AY261061GF108991081051004501999999KA1240N+01631MA1999999091961MD1999999-0051MW1101REMSYN088AAXX  03124 83339 21496 80512 10177 20165 39196 40172 71066 885// 333 20163 59005 60094;
0137833390999992008060318004-14050-042617FM-12+088299999V0200901N004112200019N0100001N1+02171+01611101381ADDGF104991031021004501021001MA1999999091681MD1999999+0051REMSYN070AAXX  03184 83339 32497 40908 10217 20161 39168 40138 83220 333 58005;
0196833390999992008060400004-14050-042617FM-12+088299999V0201401N006712200019N0020001N1+01891+01641101551ADDAY101061AY201061GF102991021021004501001001KA1240M+02301MA1999999091781MD1999999-0031MW1101REMSYN094AAXX  04004 83339 31495 21413 10189 20164 39178 40155 71000 82200 333 10230 29084 55043 59003;
0184833390999992008060412004-14050-042617FM-12+088299999V0200501N004110042019N0040001N1+01731+01611101781ADDAY101061AY201061GF108991081051004501999999KA1240N+01681MA1999999091961MD1999999+0001MW1101REMSYN082AAXX  04124 83339 31496 80508 10173 20161 39196 40178 71000 885// 333 20168 58000;
0137833390999992008060418004-14050-042617FM-12+088299999V0200501N003112200019N0100001N1+02351+01471101321ADDGF102991021021004501001001MA1999999091651MD1999999-0031REMSYN070AAXX  04184 83339 32497 20506 10235 20147 39165 40132 82200 333 59003;
0168833390999992008060500004-14050-042617FM-12+088299999V0200501N003612200019N0020001N1+01961+01481101661ADDGF102991021021004501001001KA1240M+02421MA1999999091881MD1999999+0101REMSYN088AAXX  05004 83339 32495 20507 10196 20148 39188 40166 82200 333 10242 29075 55070 58010;
0184833390999992008060512004-14050-042617FM-12+088299999V0200501N005112200019N0100001N1+01951+01611101721ADDAY101061AY201061GF104991041021004501001001KA1240N+01661MA1999999091971MD1999999+0011MW1101REMSYN082AAXX  05124 83339 31497 40510 10195 20161 39197 40172 71000 84200 333 20166 58001;
0137833390999992008060518004-14050-042617FM-12+088299999V0200501N004612200019N0100001N1+02491+01461101361ADDGF102991011021004501001021MA1999999091731MD1999999+0081REMSYN070AAXX  05184 83339 32497 20509 10249 20146 39173 40136 81202 333 58008;
0178833390999992008060600004-14050-042617FM-12+088299999V0201801N004112200019N0020001N1+02091+01421101581ADDGA1001+999999999GF100991001001999999001001KA1240M+02561MA1999999091861MD1999999-0021REMSYN082AAXX  06004 83339 32995 01808 10209 20142 39186 40158 333 10256 29066 55106 59002;
0184833390999992008060612004-14050-042617FM-12+088299999V0200501N004612200019N0100001N1+01891+01601101811ADDAY101061AY201061GF104991041021004501001001KA1240N+01681MA1999999092071MD1999999+0101MW1101REMSYN082AAXX  06124 83339 31497 40509 10189 20160 39207 40181 71000 84200 333 20168 58010;
0137833390999992008060618004-14050-042617FM-12+088299999V0200501N004110042019N0100001N1+02491+01431101331ADDGF106991061021004501001001MA1999999091721MD1999999-0011REMSYN070AAXX  06184 83339 32497 60508 10249 20143 39172 40133 86200 333 59001;
0168833390999992008060700004-14050-042617FM-12+088299999V0201401N002612200019N0020001N1+02091+01601101621ADDGF103991031021004501001001KA1240M+02681MA1999999091901MD1999999+0041REMSYN088AAXX  07004 83339 32495 31405 10209 20160 39190 40162 83200 333 10268 29074 55062 58004;
0192833390999992008060712004-14050-042617FM-12+088299999V0209999C000012200019N0040001N1+02501+02321101991ADDAA124001091GF103991011021008001041001KA1240N+01891MA1999999999999MD1999999-0051REMSYN082AAXX  07124 83339 22596 30000 10250 20232 30193 40199 81240 333 20189 59005 60014;EQDQ01 101933APOSP 
0156833390999992008060718004-14050-042617FM-12+088299999V0200901N006212200019N0100001N1+02521+01341101321ADDGF102991021011004501001001MA1999999091712MD1999999-0011REMSYN070AAXX  07184 83339 32497 20912 10252 20134 39171 40132 82100 333 59001;EQDQ01+091713APOSP 
0156833390999992008060812004-14050-042617FM-12+088299999V0201401N004112200019N0100001N1+01991+01621101691ADDGF103991031021004501001001KA1240N+01731MA1999999091991MD1999999-0031REMSYN076AAXX  08124 83339 32497 31408 10199 20162 39199 40169 83200 333 20173 59003;
0137833390999992008060818004-14050-042617FM-12+088299999V0201401N003610042019N0100001N1+02371+01561101431ADDGF105991051021004501001001MA1999999091791MD1999999+0081REMSYN070AAXX  08184 83339 32497 51407 10237 20156 39179 40143 85200 333 58008;
0178833390999992008060900004-14050-042617FM-12+088299999V0201401N005112200019N0020001N1+02011+01681101581ADDGA1001+999999999GF100991001001999999001001KA1240M+02441MA1999999091861MD1999999+0061REMSYN082AAXX  09004 83339 32995 01410 10201 20168 39186 40158 333 10244 29075 55053 58006;
0156833390999992008060912004-14050-042617FM-12+088299999V0201401N007210042019N0100001N1+01971+01611101681ADDGF106991061021004501001001KA1240N+01741MA1999999091951MD1999999-0041REMSYN076AAXX  09124 83339 32497 61414 10197 20161 39195 40168 86200 333 20174 59004;
0137833390999992008060918004-14050-042617FM-12+088299999V0201401N006712200019N0100001N1+02551+01141101321ADDGF102991011011004501001011MA1999999091711MD1999999-0081REMSYN070AAXX  09184 83339 32497 21413 10255 20114 39171 40132 81101 333 59008;
0178833390999992008061000004-14050-042617FM-12+088299999V0209999C000012200019N0020001N1+02011+01141101641ADDGA1001+999999999GF100991001001999999001001KA1240M+02621MA1999999091921MD1999999+0061REMSYN082AAXX  10004 83339 32995 00000 10201 20114 39192 40164 333 10262 29059 55088 58006;
0156833390999992008061012004-14050-042617FM-12+088299999V0201401N001512200019N0100001N1+01851+01551101731ADDGF104991031021004501001011KA1240N+01401MA1999999091981MD1999999+0031REMSYN076AAXX  10124 83339 32497 41403 10185 20155 39198 40173 83201 333 20140 58003;
0137833390999992008061018004-14050-042617FM-12+088299999V0200901N004111050019N0100001N1+02371+01011101321ADDGF105991011011004501021011MA1999999091651MD1999999-0061REMSYN070AAXX  10184 83339 32497 50908 10237 20101 39165 40132 81121 333 59006;
0168833390999992008061100004-14050-042617FM-12+088299999V0200901N001012200019N0020001N1+01931+01071101561ADDGF102991011011004501001011KA1240M+02411MA1999999091811MD1999999-0111REMSYN088AAXX  11004 83339 32495 20902 10193 20107 39181 40156 81101 333 10241 29060 55048 59011;
0175833390999992008061112004-14050-042617FM-12+088299999V0200901N004112200019N0100001N1+01911+01491101701ADDGF102991001001999999001011KA1240N+01391MA1999999091941MD1999999-0041REMSYN076AAXX  11124 83339 32897 20908 10191 20149 39194 40170 80001 333 20139 59004;EQDQ01+022502SCOLCB
0156833390999992008061118004-14050-042617FM-12+088299999V0201401N004112200019N0100001N1+02601+00801101211ADDGF102991001001999999001011MA1999999091591MD1999999-0061REMSYN070AAXX  11184 83339 32897 21408 10260 20080 39159 40121 80001 333 59006;EQDQ01+022502SCOLCB
0178833390999992008061200004-14050-042617FM-12+088299999V0201401N001012200019N0020001N1+02051+00581101521ADDGA1001+999999999GF100991001001999999001001KA1240M+02621MA1999999091811MD1999999+0001REMSYN082AAXX  12004 83339 32995 01402 10205 20058 39181 40152 333 10262 29046 55104 58000;
0156833390999992008061212004-14050-042617FM-12+088299999V0201401N005710450019N0100001N1+01761+01521101851ADDGF106991021021004501021001KA1240N+01661MA1999999092071MD1999999+0131REMSYN076AAXX  12124 83339 32497 61411 10176 20152 39207 40185 82220 333 20166 58013;
0137833390999992008061218004-14050-042617FM-12+088299999V0200901N005110042019N0100001N1+02361+01561101391ADDGF106991061021004501001001MA1999999091741MD1999999+0151REMSYN070AAXX  12184 83339 32497 60910 10236 20156 39174 40139 86200 333 58015;
0168833390999992008061300004-14050-042617FM-12+088299999V0201401N006710042019N0020001N1+02051+01621101621ADDGF106991061021004501001001KA1240M+02471MA1999999091861MD1999999+0051REMSYN088AAXX  13004 83339 32495 61413 10205 20162 39186 40162 86200 333 10247 29075 55025 58005;
0201833390999992008061312004-14050-042617FM-12+088299999V0201401N006212200019N0100001N1+01801+01581101801ADDAA124002091AY161061AY221061GF104991041021004501001001KA1240N+01651MA1999999092031MD1999999-0041MW1021REMSYN088AAXX  13124 83339 21497 41412 10180 20158 39203 40180 70262 84200 333 20165 59004 60024;
0147833390999992008061318004-14050-042617FM-12+088299999V0201401N002612200019N0100001N1+02441+00961101311ADDGA1001+999999999GF100991001001999999001001MA1999999091681MD1999999-0061REMSYN064AAXX  13184 83339 32997 01405 10244 20096 39168 40131 333 59006;
0178833390999992008061400004-14050-042617FM-12+088299999V0201801N001012200019N0020001N1+02031+00961101471ADDGA1001+999999999GF100991001001999999001001KA1240M+02521MA1999999091731MD1999999-0131REMSYN082AAXX  14004 83339 32995 01802 10203 20096 39173 40147 333 10252 29057 55081 59013;
0201833390999992008061412004-14050-042617FM-12+088299999V0201401N003110042019N0020001N1+01631+01611101661ADDAA124001091AY161061AY241061GF108991051051004501021999KA1240N+01541MA1999999091881MD1999999-0151MW1401REMSYN088AAXX  14124 83339 21495 81406 10163 20161 39188 40166 74064 8552/ 333 20154 59015 60014;
0201833390999992008061418004-14050-042617FM-12+088299999V0200901N003610042019N0100001N1+02261+01571101241ADDAA106000091AY161061AY241061GF106991061021004501001001MA1999999091561MD1999999-0121MW1021REMSYN082AAXX  14184 83339 21497 60907 10226 20157 39156 40124 70264 86200 333 59012 69921;EQDQ01  00002PRCP06
0178833390999992008061500004-14050-042617FM-12+088299999V0201401N007712200019N0020001N1+01941+01361101501ADDGA1001+999999999GF100991001001999999001001KA1240M+02381MA1999999091721MD1999999-0011REMSYN082AAXX  15004 83339 32995 01415 10194 20136 39172 40150 333 10238 29075 55028 59001;
0230833390999992008061512004-14050-042617FM-12+088299999V0200901N003112200019N0020001N1+01901+01511101681ADDAA124000091AY161061AY221061GA1001+999999999GF100991001001999999001001KA1240N+01521MA1999999091921MD1999999+0041MW1021REMSYN082AAXX  15124 83339 21995 00906 10190 20151 39192 40168 70262 333 20152 58004 69924;EQDQ01  00002PRCP24
0147833390999992008061518004-14050-042617FM-12+088299999V0200501N002112200019N0100001N1+02561+00771101251ADDGA1001+999999999GF100991001001999999001001MA1999999091631MD1999999+0071REMSYN064AAXX  15184 83339 32497 00504 10256 20077 39163 40125 333 58007;
0178833390999992008061600004-14050-042617FM-12+088299999V0202301N001012200019N0020001N1+01991+01121101571ADDGA1001+999999999GF100991001001999999001001KA1240M+02621MA1999999091841MD1999999+0121REMSYN082AAXX  16004 83339 32995 02302 10199 20112 39184 40157 333 10262 29056 55105 58012;
0166833390999992008061612004-14050-042617FM-12+088299999V0200501N001012200019N0100001N1+01981+01231101731ADDGA1001+999999999GF100991001001999999001001KA1240N+01531MA1999999092001MD1999999+0081REMSYN070AAXX  16124 83339 32997 00502 10198 20123 39200 40173 333 20153 58008;
0147833390999992008061618004-14050-042617FM-12+088299999V0201401N001512200019N0100001N1+02691+00981101211ADDGA1001+999999999GF100991001001999999001001MA1999999091611MD1999999-0021REMSYN064AAXX  16184 83339 32997 01403 10269 20098 39161 40121 333 59002;
0178833390999992008061700004-14050-042617FM-12+088299999V0202301N001012200019N0020001N1+02171+01031101421ADDGA1001+999999999GF100991001001999999001001KA1240M+02761MA1999999091761MD1999999-0081REMSYN082AAXX  17004 83339 32995 02302 10217 20103 39176 40142 333 10276 29048 55108 59008;
0156833390999992008061712004-14050-042617FM-12+088299999V0200901N004112200019N0100001N1+01941+01401101771ADDGF104991041021004501001001KA1240N+01621MA1999999092051MD1999999+0051REMSYN076AAXX  17124 83339 32497 40908 10194 20140 39205 40177 84200 333 20162 58005;
0137833390999992008061718004-14050-042617FM-12+088299999V0201401N006712200019N0100001N1+02451+01381101311ADDGF103991031011004501001001MA1999999091701MD1999999+0091REMSYN070AAXX  17184 83339 32497 31413 10245 20138 39170 40131 83100 333 58009;
0168833390999992008061800004-14050-042617FM-12+088299999V0201401N005112200019N0020001N1+01971+01521101561ADDGF102991021041004501001001KA1240M+02501MA1999999091831MD1999999+0071REMSYN088AAXX  18004 83339 32495 21410 10197 20152 39183 40156 82400 333 10250 29068 55102 58007;
0201833390999992008061812004-14050-042617FM-12+088299999V0201401N006210042019N0020001N1+01731+01631101781ADDAA124000591AY161061AY241061GF105991051021004501001001KA1240N+01601MA1999999091991MD1999999-0061MW1401REMSYN088AAXX  18124 83339 21495 51412 10173 20163 39199 40178 74064 85200 333 20160 59006 69944;
0165833390999992008061818004-14050-042617FM-12+088299999V0201401N005110042019N0100001N1+02211+01511101361ADDAY141061AY221061GF106991061021004501001001MA1999999091661MD1999999-0041MW1021REMSYN076AAXX  18184 83339 31497 61410 10221 20151 39166 40136 70242 86200 333 59004;
0168833390999992008061900004-14050-042617FM-12+088299999V0201401N004110042019N0020001N1+01811+01601101651ADDGF105991051021004501001001KA1240M+02261MA1999999091831MD1999999+0001REMSYN088AAXX  19004 83339 32495 51408 10181 20160 39183 40165 85200 333 10226 29083 55036 58000;
0201833390999992008061912004-14050-042617FM-12+088299999V0201401N003110450019N0100001N1+01751+01521101781ADDAA124000591AY161061AY241061GF106991041021004501021999KA1240N+01561MA1999999091961MD1999999-0031MW1021REMSYN088AAXX  19124 83339 21497 61406 10175 20152 39196 40178 70264 8422/ 333 20156 59003 69944;
0137833390999992008061918004-14050-042617FM-12+088299999V0200901N004612200019N0100001N1+02351+01321101301ADDGF104991041011004501001001MA1999999091621MD1999999-0041REMSYN070AAXX  19184 83339 32497 40909 10235 20132 39162 40130 84100 333 59004;
0178833390999992008062000004-14050-042617FM-12+088299999V0201401N002112200019N0020001N1+01931+01311101561ADDGA1001+999999999GF100991001001999999001001KA1240M+02421MA1999999091791MD1999999-0041REMSYN082AAXX  20004 83339 32995 01404 10193 20131 39179 40156 333 10242 29068 55072 59004;
0156833390999992008062012004-14050-042617FM-12+088299999V0201401N002110450019N0100001N1+01751+01501101721ADDGF108991041021004501021999KA1240N+01401MA1999999091941MD1999999-0021REMSYN076AAXX  20124 83339 32497 81404 10175 20150 39194 40172 8422/ 333 20140 59002;
0137833390999992008062018004-14050-042617FM-12+088299999V0201401N003112200019N0100001N1+02401+01231101231ADDGF102991021011004501001001MA1999999091571MD1999999-0051REMSYN070AAXX  20184 83339 32497 21406 10240 20123 39157 40123 82100 333 59005;
0178833390999992008062100004-14050-042617FM-12+088299999V0201801N001012200019N0020001N1+02031+01381101451ADDGA1001+999999999GF100991001001999999001001KA1240M+02541MA1999999091711MD1999999-0081REMSYN082AAXX  21004 83339 32995 01802 10203 20138 39171 40145 333 10254 29061 55068 59008;
0156833390999992008062112004-14050-042617FM-12+088299999V0201401N003110042019N0100001N1+01711+01521101651ADDGF108991051021004501021999KA1240N+01441MA1999999091871MD1999999-0071REMSYN076AAXX  21124 83339 32497 81406 10171 20152 39187 40165 8522/ 333 20144 59007;
0137833390999992008062118004-14050-042617FM-12+088299999V0200901N002612200019N0100001N1+02491+01221101101ADDGF102991021011004501001001MA1999999091471MD1999999-0101REMSYN070AAXX  21184 83339 32497 20905 10249 20122 39147 40110 82100 333 59010;
0178833390999992008062200004-14050-042617FM-12+088299999V0201401N003112200019N0020001N1+02051+01451101391ADDGA1001+999999999GF100991001001999999001001KA1240M+02561MA1999999091651MD1999999-0061REMSYN082AAXX  22004 83339 32995 01406 10205 20145 39165 40139 333 10256 29067 55072 59006;
0156833390999992008062212004-14050-042617FM-12+088299999V0201401N001512200019N0100001N1+01771+01561101511ADDGF104991041021004501001001KA1240N+01541MA1999999091761MD1999999-0111REMSYN076AAXX  22124 83339 32497 41403 10177 20156 39176 40151 84200 333 20154 59011;
0156833390999992008062218004-14050-042617FM-12+088299999V0200501N002112200019N0100001N1+02651+01111101101ADDGF102991001001999999001011MA1999999091511MD1999999+0041REMSYN070AAXX  22184 83339 32897 20504 10265 20111 39151 40110 80001 333 58004;EQDQ01+022502SCOLCB
0178833390999992008062300004-14050-042617FM-12+088299999V0202301N000512200019N0020001N1+02081+00841101451ADDGA1001+999999999GF100991001001999999001001KA1240M+02681MA1999999091711MD1999999+0061REMSYN082AAXX  23004 83339 32995 02301 10208 20084 39171 40145 333 10268 29054 55084 58006;
0166833390999992008062312004-14050-042617FM-12+088299999V0201401N004112200019N0020001N1+01961+01501101651ADDGA1001+999999999GF100991001001999999001001KA1240N+01381MA1999999091931MD1999999+0171REMSYN070AAXX  23124 83339 32995 01408 10196 20150 39193 40165 333 20138 58017;
0137833390999992008062318004-14050-042617FM-12+088299999V0201401N005110042019N0100001N1+02531+01391101351ADDGF106991061021004501001001MA1999999091721MD1999999+0211REMSYN070AAXX  23184 83339 32497 61410 10253 20139 39172 40135 86200 333 58021;
0178833390999992008062400004-14050-042617FM-12+088299999V0201401N007212200019N0020001N1+02231+01261101561ADDGA1001+999999999GF100991001001999999001001KA1240M+02601MA1999999091891MD1999999+0181REMSYN082AAXX  24004 83339 32995 01414 10223 20126 39189 40156 333 10260 29058 55089 58018;
0156833390999992008062412004-14050-042617FM-12+088299999V0201401N004612200019N0100001N1+01911+01511101821ADDGF104991041021004501001001KA1240N+01761MA1999999092101MD1999999+0171REMSYN076AAXX  24124 83339 32497 41409 10191 20151 39210 40182 84200 333 20176 58017;
0137833390999992008062418004-14050-042617FM-12+088299999V0201401N005112200019N0100001N1+02451+01321101421ADDGF102991021011004501001001MA1999999091821MD1999999+0101REMSYN070AAXX  24184 83339 32497 21410 10245 20132 39182 40142 82100 333 58010;
0178833390999992008062500004-14050-042617FM-12+088299999V0201401N006212200019N0020001N1+02131+01411101651ADDGA1001+999999999GF100991001001999999001001KA1240M+02501MA1999999091931MD1999999+0041REMSYN082AAXX  25004 83339 32995 01412 10213 20141 39193 40165 333 10250 29063 55087 58004;
0156833390999992008062512004-14050-042617FM-12+088299999V0201401N005110042019N0100001N1+01751+01581101831ADDGF106991061021004501001001KA1240N+01641MA1999999092071MD1999999-0031REMSYN076AAXX  25124 83339 32497 61410 10175 20158 39207 40183 86200 333 20164 59003;
0137833390999992008062518004-14050-042617FM-12+088299999V0201401N004112200019N0100001N1+02301+01431101381ADDGF102991021021004501001001MA1999999091731MD1999999-0091REMSYN070AAXX  25184 83339 32497 21408 10230 20143 39173 40138 82200 333 59009;
0178833390999992008062600004-14050-042617FM-12+088299999V0201401N004612200019N0020001N1+01991+01461101601ADDGA1001+999999999GF100991001001999999001001KA1240M+02481MA1999999091831MD1999999-0101REMSYN082AAXX  26004 83339 32995 01409 10199 20146 39183 40160 333 10248 29072 55071 59010;
0156833390999992008062612004-14050-042617FM-12+088299999V0201401N004112200019N0100001N1+01881+01491101781ADDGF104991041021004501001001KA1240N+01571MA1999999092031MD1999999-0041REMSYN076AAXX  26124 83339 32497 41408 10188 20149 39203 40178 84200 333 20157 59004;
0137833390999992008062618004-14050-042617FM-12+088299999V0201401N003110042019N0100001N1+02271+01381101471ADDGF106991061021004501001001MA1999999091761MD1999999+0031REMSYN070AAXX  26184 83339 32497 61406 10227 20138 39176 40147 86200 333 58003;
0168833390999992008062700004-14050-042617FM-12+088299999V0201401N004610450019N0020001N1+02031+01311101711ADDGF108991041021004501021999KA1240M+02341MA1999999091961MD1999999+0131REMSYN088AAXX  27004 83339 32495 81409 10203 20131 39196 40171 8422/ 333 10234 29065 55045 58013;
0156833390999992008062712004-14050-042617FM-12+088299999V0201401N008212200019N0100001N1+01831+01311101871ADDGF102991021021004501001001KA1240N+01581MA1999999092111MD1999999+0081REMSYN076AAXX  27124 83339 32497 21416 10183 20131 39211 40187 82200 333 20158 58008;
0137833390999992008062718004-14050-042617FM-12+088299999V0201401N005112200019N0100001N1+02261+01371101591ADDGF104991041021004501001001MA1999999091901MD1999999+0141REMSYN070AAXX  27184 83339 32497 41410 10226 20137 39190 40159 84200 333 58014;
0168833390999992008062800004-14050-042617FM-12+088299999V0201401N005110450019N0020001N1+01811+01431102081ADDGF108991041021004501021999KA1240M+02361MA1999999092241MD1999999+0281REMSYN088AAXX  28004 83339 32495 81410 10181 20143 39224 40208 8422/ 333 10236 29071 55086 58028;
0156833390999992008062812004-14050-042617FM-12+088299999V0201401N005710042019N0100001N1+01731+01431102231ADDGF106991061021004501001001KA1240N+01531MA1999999092351MD1999999+0241REMSYN076AAXX  28124 83339 32497 61411 10173 20143 39235 40223 86200 333 20153 58024;
0137833390999992008062818004-14050-042617FM-12+088299999V0201401N003112200019N0100001N1+02441+01301101651ADDGF104991041021004501001001MA1999999091951MD1999999+0051REMSYN070AAXX  28184 83339 32497 41406 10244 20130 39195 40165 84200 333 58005;
0178833390999992008062900004-14050-042617FM-12+088299999V0201801N009312200019N0020001N1+01991+01461101941ADDGA1001+999999999GF100991001001999999001001KA1240M+02481MA1999999092141MD1999999-0101REMSYN082AAXX  29004 83339 32995 01818 10199 20146 39214 40194 333 10248 29068 55068 59010;
0156833390999992008062912004-14050-042617FM-12+088299999V0201401N004110042019N0100001N1+01551+01441102151ADDGF106991061021004501001001KA1240N+01501MA1999999092281MD1999999-0071REMSYN076AAXX  29124 83339 32497 61408 10155 20144 39228 40215 86200 333 20150 59007;
0137833390999992008062918004-14050-042617FM-12+088299999V0201401N005112200019N0100001N1+02291+01141101721ADDGF102991021021004501001001MA1999999091891MD1999999-0061REMSYN070AAXX  29184 83339 32497 21410 10229 20114 39189 40172 82200 333 59006;
0178833390999992008063000004-14050-042617FM-12+088299999V0202301N001512200019N0020001N1+01851+01121101961ADDGA1001+999999999GF100991001001999999001001KA1240M+02411MA1999999092091MD1999999-0051REMSYN082AAXX  30004 83339 32995 02303 10185 20112 39209 40196 333 10241 29066 55061 59005;
0156833390999992008063012004-14050-042617FM-12+088299999V0201401N005110042019N0100001N1+01731+01371102001ADDGF108991051021004501021999KA1240N+01531MA1999999092161MD1999999-0121REMSYN076AAXX  30124 83339 32497 81410 10173 20137 39216 40200 8522/ 333 20153 59012;
0137833390999992008063018004-14050-042617FM-12+088299999V0201401N006210042019N0100001N1+02371+01201101511ADDGF105991051021004501001001MA1999999091831MD1999999-0061REMSYN070AAXX  30184 83339 32497 51412 10237 20120 39183 40151 85200 333 59006;
0178833390999992008070100004-14050-042617FM-12+088299999V0201401N003612200019N0020001N1+01951+01531101821ADDGA1001+999999999GF100991001001999999001001KA1240M+02501MA1999999092031MD1999999-0061REMSYN082AAXX  01004 83339 32995 01407 10195 20153 39203 40182 333 10250 29070 55056 59006;
0201833390999992008070112004-14050-042617FM-12+088299999V0201401N005110042019N0020001N1+01691+01621102041ADDAA124003091AY161061AY221061GF106991061021004501001001KA1240N+01621MA1999999092201MD1999999+0041MW1401REMSYN088AAXX  01124 83339 21495 61410 10169 20162 39220 40204 74062 86200 333 20162 58004 60034;
0165833390999992008070118004-14050-042617FM-12+088299999V0201401N005112200019N0100001N1+02351+01461101551ADDAY141061AY221061GF102991021011004501001001MA1999999091861MD1999999+0031MW1021REMSYN076AAXX  01184 83339 31497 21410 10235 20146 39186 40155 70242 82100 333 58003;
0178833390999992008070200004-14050-042617FM-12+088299999V0201401N003612200019N0020001N1+02051+01521101861ADDGA1001+999999999GF100991001001999999001001KA1240M+02421MA1999999092061MD1999999+0031REMSYN082AAXX  02004 83339 32995 01407 10205 20152 39206 40186 333 10242 29074 55064 58003;
0156833390999992008070212004-14050-042617FM-12+088299999V0201401N003610450019N0100001N1+01711+01501102021ADDGF108991041021004501021999KA1240N+01621MA1999999092231MD1999999+0031REMSYN076AAXX  02124 83339 32497 81407 10171 20150 39223 40202 8422/ 333 20162 58003;
0147833390999992008070218004-14050-042617FM-12+088299999V0200901N005112200019N0100001N1+02371+01211101551ADDGA1001+999999999GF100991001001999999001001MA1999999091881MD1999999+0021REMSYN064AAXX  02184 83339 32997 00910 10237 20121 39188 40155 333 58002;
0178833390999992008070300004-14050-042617FM-12+088299999V0201401N002112200019N0020001N1+01891+01361101891ADDGA1001+999999999GF100991001001999999001001KA1240M+02411MA1999999092061MD1999999+0001REMSYN082AAXX  03004 83339 32995 01404 10189 20136 39206 40189 333 10241 29069 55078 58000;
0156833390999992008070312004-14050-042617FM-12+088299999V0201401N005110042019N0100001N1+01741+01471101971ADDGF106991061021004501001001KA1240N+01561MA1999999092141MD1999999-0091REMSYN076AAXX  03124 83339 32497 61410 10174 20147 39214 40197 86200 333 20156 59009;
0137833390999992008070318004-14050-042617FM-12+088299999V0200901N005712200019N0100001N1+02331+01181101411ADDGF102991021011004501001001MA1999999091741MD1999999-0141REMSYN070AAXX  03184 83339 32497 20911 10233 20118 39174 40141 82100 333 59014;
0178833390999992008070400004-14050-042617FM-12+088299999V0201401N003112200019N0020001N1+01921+01421101711ADDGA1001+999999999GF100991001001999999001001KA1240M+02421MA1999999091931MD1999999-0131REMSYN082AAXX  04004 83339 32995 01406 10192 20142 39193 40171 333 10242 29070 55057 59013;
0156833390999992008070412004-14050-042617FM-12+088299999V0201401N003110042019N0100001N1+01811+01491101771ADDGF105991051021004501001001KA1240N+01621MA1999999091981MD1999999-0161REMSYN076AAXX  04124 83339 32497 51406 10181 20149 39198 40177 85200 333 20162 59016;
0137833390999992008070418004-14050-042617FM-12+088299999V0200901N003112200019N0100001N1+02591+01141101171ADDGF102991021021004501001001MA1999999091571MD1999999-0171REMSYN070AAXX  04184 83339 32497 20906 10259 20114 39157 40117 82200 333 59017;
0178833390999992008070500004-14050-042617FM-12+088299999V0201401N001012200019N0020001N1+02061+01261101501ADDGA1001+999999999GF100991001001999999001001KA1240M+02631MA1999999091771MD1999999-0161REMSYN082AAXX  05004 83339 32995 01402 10206 20126 39177 40150 333 10263 29060 55074 59016;
0156833390999992008070512004-14050-042617FM-12+088299999V0201401N003110042019N0100001N1+01791+01581101811ADDGF106991061021004501001001KA1240N+01541MA1999999092041MD1999999+0061REMSYN076AAXX  05124 83339 32497 61406 10179 20158 39204 40181 86200 333 20154 58006;
0156833390999992008070518004-14050-042617FM-12+088299999V0200901N004112200019N0100001N1+02491+01291101411ADDGF102991999021004501011001MA1999999091771MD1999999+0201REMSYN070AAXX  05184 83339 32497 20908 10249 20129 39177 40141 88210 333 58020;EQDQ01+000082SCOTLC
0178833390999992008070600004-14050-042617FM-12+088299999V0201401N005112200019N0020001N1+02051+01331101741ADDGA1001+999999999GF100991001001999999001001KA1240M+02541MA1999999091971MD1999999+0201REMSYN082AAXX  06004 83339 32995 01410 10205 20133 39197 40174 333 10254 29065 55088 58020;
0156833390999992008070612004-14050-042617FM-12+088299999V0201401N005710042019N0100001N1+01711+01471101991ADDGF108991051021004501021999KA1240N+01601MA1999999092201MD1999999+0161REMSYN076AAXX  06124 83339 32497 81411 10171 20147 39220 40199 8522/ 333 20160 58016;
0137833390999992008070618004-14050-042617FM-12+088299999V0200901N005712200019N0100001N1+02431+01271101551ADDGF102991021011004501001001MA1999999091901MD1999999+0131REMSYN070AAXX  06184 83339 32497 20911 10243 20127 39190 40155 82100 333 58013;
0178833390999992008070700004-14050-042617FM-12+088299999V0201401N005712200019N0020001N1+01961+01261101881ADDGA1001+999999999GF100991001001999999001001KA1240M+02481MA1999999092081MD1999999+0111REMSYN082AAXX  07004 83339 32995 01411 10196 20126 39208 40188 333 10248 29065 55065 58011;
0184833390999992008070712004-14050-042617FM-12+088299999V0201401N004610042019N0040001N1+01531+01321102131ADDAY101061AY201061GF108991081051004501999999KA1240N+01501MA1999999092261MD1999999+0061MW1101REMSYN082AAXX  07124 83339 31496 81409 10153 20132 39226 40213 71000 885// 333 20150 58006;
0137833390999992008070718004-14050-042617FM-12+088299999V0201401N004612200019N0100001N1+02051+01191101701ADDGF102991021021004501001001MA1999999091941MD1999999+0041REMSYN070AAXX  07184 83339 32497 21409 10205 20119 39194 40170 82200 333 58004;
0178833390999992008070800004-14050-042617FM-12+088299999V0201401N004112200019N0020001N1+01711+01111101961ADDGA1001+999999999GF100991001001999999001001KA1240M+02081MA1999999092051MD1999999-0031REMSYN082AAXX  08004 83339 32995 01408 10171 20111 39205 40196 333 10208 29070 55056 59003;
0156833390999992008070812004-14050-042617FM-12+088299999V0201401N006710042019N0100001N1+01511+01121102051ADDGF106991061021004501001001KA1240N+01361MA1999999092141MD1999999-0121REMSYN076AAXX  08124 83339 32497 61413 10151 20112 39214 40205 86200 333 20136 59012;
0137833390999992008070818004-14050-042617FM-12+088299999V0200501N002112200019N0100001N1+02211+00891101581ADDGF102991021011004501001001MA1999999091811MD1999999-0131REMSYN070AAXX  08184 83339 32497 20504 10221 20089 39181 40158 82100 333 59013;
0178833390999992008070900004-14050-042617FM-12+088299999V0201801N001012200019N0020001N1+01791+00891101751ADDGA1001+999999999GF100991001001999999001001KA1240M+02301MA1999999091881MD1999999-0171REMSYN082AAXX  09004 83339 32995 01802 10179 20089 39188 40175 333 10230 29058 55092 59017;
0166833390999992008070912004-14050-042617FM-12+088299999V0201401N004612200019N0100001N1+01591+01011101881ADDGA1001+999999999GF100991001001999999001001KA1240N+01341MA1999999092021MD1999999-0121REMSYN070AAXX  09124 83339 32997 01409 10159 20101 39202 40188 333 20134 59012;
0147833390999992008070918004-14050-042617FM-12+088299999V0201401N003112200019N0100001N1+02271+00871101541ADDGA1001+999999999GF100991001001999999001001MA1999999091791MD1999999-0021REMSYN064AAXX  09184 83339 32997 01406 10227 20087 39179 40154 333 59002;
0178833390999992008071000004-14050-042617FM-12+088299999V0201401N003112200019N0020001N1+01911+01001101801ADDGA1001+999999999GF100991001001999999001001KA1240M+02381MA1999999091961MD1999999+0081REMSYN082AAXX  10004 83339 32995 01406 10191 20100 39196 40180 333 10238 29056 55107 58008;
0156833390999992008071012004-14050-042617FM-12+088299999V0201401N005110042019N0100001N1+01631+01261101971ADDGF105991051021004501001001KA1240N+01441MA1999999092121MD1999999+0101REMSYN076AAXX  10124 83339 32497 51410 10163 20126 39212 40197 85200 333 20144 58010;
0137833390999992008071018004-14050-042617FM-12+088299999V0201401N004110042019N0100001N1+02291+01331101651ADDGF106991061021004501001001MA1999999091931MD1999999+0141REMSYN070AAXX  10184 83339 32497 61408 10229 20133 39193 40165 86200 333 58014;
0213833390999992008071100004-14050-042617FM-12+088299999V0201401N005110042019N0020001N1+01691+01601102051ADDAA106000021AY161061AY261061GF108991081051004501999999KA1240M+02431MA1999999092151MD1999999+0191MW1501REMSYN100AAXX  11004 83339 21495 81410 10169 20160 39215 40205 75066 885// 333 10243 29081 55071 58019 69921;
0201833390999992008071112004-14050-042617FM-12+088299999V0201401N004610042019N0040001N1+01591+01501102191ADDAA124000021AY161061AY261061GF108991081051004501999999KA1240N+01461MA1999999092281MD1999999+0161MW1061REMSYN088AAXX  11124 83339 21496 81409 10159 20150 39228 40219 70666 885// 333 20146 58016 69924;
0137833390999992008071118004-14050-042617FM-12+088299999V0201401N006210042019N0100001N1+02151+01231101851ADDGF106991061021004501001001MA1999999092051MD1999999+0121REMSYN070AAXX  11184 83339 32497 61412 10215 20123 39205 40185 86200 333 58012;
0168833390999992008071200004-14050-042617FM-12+088299999V0201401N006212200019N0020001N1+01851+01151102041ADDGF104991041021004501001001KA1240M+02301MA1999999092161MD1999999+0011REMSYN088AAXX  12004 83339 32495 41412 10185 20115 39216 40204 84200 333 10230 29057 55031 58001;
0156833390999992008071212004-14050-042617FM-12+088299999V0201401N007712200019N0100001N1+01651+01131102071ADDGF103991031021004501001001KA1240N+01401MA1999999092211MD1999999-0071REMSYN076AAXX  12124 83339 32497 31415 10165 20113 39221 40207 83200 333 20140 59007;
0137833390999992008071218004-14050-042617FM-12+088299999V0201401N006212200019N0100001N1+02251+01051101571ADDGF102991021011004501001001MA1999999091841MD1999999-0211REMSYN070AAXX  12184 83339 32497 21412 10225 20105 39184 40157 82100 333 59021;
0178833390999992008071300004-14050-042617FM-12+088299999V0201401N002612200019N0020001N1+01851+00951101801ADDGA1001+999999999GF100991001001999999001001KA1240M+02331MA1999999091961MD1999999-0201REMSYN082AAXX  13004 83339 32995 01405 10185 20095 39196 40180 333 10233 29058 55096 59020;
0156833390999992008071312004-14050-042617FM-12+088299999V0201401N008212200019N0100001N1+01541+00971101901ADDGF102991021021004501001001KA1240N+01361MA1999999092041MD1999999-0171REMSYN076AAXX  13124 83339 32497 21416 10154 20097 39204 40190 82200 333 20136 59017;
0147833390999992008071318004-14050-042617FM-12+088299999V0201401N005112200019N0100001N1+02351+00581101431ADDGA1001+999999999GF100991001001999999001001MA1999999091711MD1999999+0131REMSYN064AAXX  13184 83339 32997 01410 10235 20058 39171 40143 333 58013;
0178833390999992008071400004-14050-042617FM-12+088299999V0201401N006212200019N0020001N1+01791+00941101751ADDGA1001+999999999GF100991001001999999001001KA1240M+02421MA1999999091881MD1999999-0081REMSYN082AAXX  14004 83339 32995 01412 10179 20094 39188 40175 333 10242 29054 55106 59008;
0156833390999992008071412004-14050-042617FM-12+088299999V0201401N005710450019N0100001N1+01511+01231101981ADDGF108991031021004501021999KA1240N+01361MA1999999092111MD1999999+0071REMSYN076AAXX  14124 83339 32497 81411 10151 20123 39211 40198 8322/ 333 20136 58007;
0137833390999992008071418004-14050-042617FM-12+088299999V0201401N005110450019N0100001N1+02131+01311101631ADDGF105991041021004501031001MA1999999091851MD1999999+0141REMSYN070AAXX  14184 83339 32497 51410 10213 20131 39185 40163 84230 333 58014;
0168833390999992008071500004-14050-042617FM-12+088299999V0201401N005710042019N0020001N1+01851+01351101931ADDGF106991061021004501001001KA1240M+02221MA1999999092061MD1999999+0181REMSYN088AAXX  15004 83339 32495 61411 10185 20135 39206 40193 86200 333 10222 29072 55118 58018;
0156833390999992008071512004-14050-042617FM-12+088299999V0201401N008210042019N0100001N1+01631+01221102041ADDGF106991061021004501001001KA1240N+01361MA1999999092181MD1999999+0071REMSYN076AAXX  15124 83339 32497 61416 10163 20122 39218 40204 86200 333 20136 58007;
0156833390999992008071518004-14050-042617FM-12+088299999V02099999999992200019N0100001N1+02291+00981101711ADDGF104991999011004501001001MA1999999091961MD1999999+0111REMSYN070AAXX  15184 83339 32497 414// 10229 20098 39196 40171 85100 333 58011;EQDQ01+000052SCOTLC
0168833390999992008071600004-14050-042617FM-12+088299999V02099999999992200019N0020001N1+01811+01241102071ADDGF104991041011004501001001KA1240M+02361MA1999999092191MD1999999+0131REMSYN088AAXX  16004 83339 32495 414// 10181 20124 39219 40207 84100 333 10236 29064 55083 58013;
0156833390999992008071612004-14050-042617FM-12+088299999V02099999999992200019N0100001N1+01681+01311102071ADDGF104991041021004501001001KA1240N+01371MA1999999092211MD1999999+0031REMSYN076AAXX  16124 83339 32497 409// 10168 20131 39221 40207 84200 333 20137 58003;
0137833390999992008071618004-14050-042617FM-12+088299999V02099999999990042019N0100001N1+02341+01051101681ADDGF105991051021004501001001MA1999999091941MD1999999-0021REMSYN070AAXX  16184 83339 32497 509// 10234 20105 39194 40168 85200 333 59002;
0168833390999992008071700004-14050-042617FM-12+088299999V02099999999990042019N0020001N1+01841+01431101961ADDGF106991061021004501001001KA1240M+02371MA1999999092111MD1999999-0081REMSYN088AAXX  17004 83339 32495 614// 10184 20143 39211 40196 86200 333 10237 29069 55087 59008;
0156833390999992008071712004-14050-042617FM-12+088299999V02099999999992200019N0100001N1+01631+01091101981ADDGF102991021011004501001001KA1240N+01261MA1999999092131MD1999999-0081REMSYN076AAXX  17124 83339 32497 209// 10163 20109 39213 40198 82100 333 20126 59008;
0147833390999992008071718004-14050-042617FM-12+088299999V02099999999992200019N0100001N1+02371+01011101431ADDGA1001+999999999GF100991001001999999001001MA1999999091711MD1999999-0231REMSYN064AAXX  17184 83339 32997 009// 10237 20101 39171 40143 333 59023;
0178833390999992008071800004-14050-042617FM-12+088299999V02099999999992200019N0020001N1+01971+01211101701ADDGA1001+999999999GF100991001001999999001001KA1240M+02401MA1999999091901MD1999999-0211REMSYN082AAXX  18004 83339 32995 014// 10197 20121 39190 40170 333 10240 29059 55107 59021;
0166833390999992008071812004-14050-042617FM-12+088299999V02099999999992200019N0100001N1+01841+01311101871ADDGA1001+999999999GF100991001001999999001001KA1240N+01261MA1999999092091MD1999999-0041REMSYN070AAXX  18124 83339 32497 014// 10184 20131 39209 40187 333 20126 59004;
0137833390999992008071818004-14050-042617FM-12+088299999V02099999999992200019N0100001N1+02731+01101101271ADDGF102991021011004501001001MA1999999091661MD1999999-0051REMSYN070AAXX  18184 83339 32497 223// 10273 20110 39166 40127 82100 333 59005;
0178833390999992008071900004-14050-042617FM-12+088299999V02099999999992200019N0020001N1+02171+00871101551ADDGA1001+999999999GF100991001001999999001001KA1240M+02801MA1999999091841MD1999999-0061REMSYN082AAXX  19004 83339 32995 023// 10217 20087 39184 40155 333 10280 29048 55102 59006;
0156833390999992008071912004-14050-042617FM-12+088299999V02099999999990042019N0100001N1+01661+01481101891ADDGF106991061021004501001001KA1240N+01501MA1999999092111MD1999999+0021REMSYN076AAXX  19124 83339 32497 614// 10166 20148 39211 40189 86200 333 20150 58002;
0137833390999992008071918004-14050-042617FM-12+088299999V02099999999992200019N0100001N1+02651+01111101361ADDGF102991021011004501001001MA1999999091761MD1999999+0101REMSYN070AAXX  19184 83339 32497 214// 10265 20111 39176 40136 82100 333 58010;
0178833390999992008072000004-14050-042617FM-12+088299999V02099999999992200019N0020001N1+02091+01021101661ADDGA1001+999999999GF100991001001999999001001KA1240M+02741MA1999999091901MD1999999+0061REMSYN082AAXX  20004 83339 32995 009// 10209 20102 39190 40166 333 10274 29057 55081 58006;
0156833390999992008072012004-14050-042617FM-12+088299999V02099999999990042019N0100001N1+01531+01431101891ADDGF106991061021004501001001KA1240N+01491MA1999999092061MD1999999-0051REMSYN076AAXX  20124 83339 32497 614// 10153 20143 39206 40189 86200 333 20149 59005;
0147833390999992008072018004-14050-042617FM-12+088299999V02099999999992200019N0100001N1+02451+01011101421ADDGA1001+999999999GF100991001001999999001001MA1999999091761MD1999999+0001REMSYN064AAXX  20184 83339 32997 009// 10245 20101 39176 40142 333 58000;
0178833390999992008072100004-14050-042617FM-12+088299999V02099999999992200019N0020001N1+01911+00851101781ADDGA1001+999999999GF100991001001999999001001KA1240M+02511MA1999999091961MD1999999+0061REMSYN082AAXX  21004 83339 32995 014// 10191 20085 39196 40178 333 10251 29056 55086 58006;
0166833390999992008072112004-14050-042617FM-12+088299999V02099999999992200019N0100001N1+01651+01001101931ADDGA1001+999999999GF100991001001999999001001KA1240N+01321MA1999999092101MD1999999+0041REMSYN070AAXX  21124 83339 32997 014// 10165 20100 39210 40193 333 20132 58004;
0137833390999992008072118004-14050-042617FM-12+088299999V02099999999992200019N0100001N1+02371+01031101591ADDGF102991021021004501001001MA1999999091801MD1999999+0041REMSYN070AAXX  21184 83339 32497 214// 10237 20103 39180 40159 82200 333 58004;
0178833390999992008072200004-14050-042617FM-12+088299999V02099999999992200019N0020001N1+01931+01051101731ADDGA1001+999999999GF100991001001999999001001KA1240M+02461MA1999999091931MD1999999-0031REMSYN082AAXX  22004 83339 32995 009// 10193 20105 39193 40173 333 10246 29056 55108 59003;
0166833390999992008072212004-14050-042617FM-12+088299999V02099999999992200019N0100001N1+01751+01211101971ADDGA1001+999999999GF100991001001999999001001KA1240N+01361MA1999999092161MD1999999+0061REMSYN070AAXX  22124 83339 32997 005// 10175 20121 39216 40197 333 20136 58006;
0137833390999992008072218004-14050-042617FM-12+088299999V02099999999992200019N0100001N1+02491+01031101511ADDGF102991021021004501001001MA1999999091831MD1999999+0031REMSYN070AAXX  22184 83339 32497 209// 10249 20103 39183 40151 82200 333 58003;
0178833390999992008072300004-14050-042617FM-12+088299999V02099999999992200019N0020001N1+02011+01201101701ADDGA1001+999999999GF100991001001999999001001KA1240M+02601MA1999999091941MD1999999+0011REMSYN082AAXX  23004 83339 32995 018// 10201 20120 39194 40170 333 10260 29058 55106 58001;
0184833390999992008072312004-14050-042617FM-12+088299999V0201401N003610042019N0100001N1+01711+01371101861ADDAY101061AY201061GF106991061021004501001001KA1240N+01501MA1999999092061MD1999999-0101MW1101REMSYN082AAXX  23124 83339 31497 61407 10171 20137 39206 40186 71000 86200 333 20150 59010;
0137833390999992008072318004-14050-042617FM-12+088299999V0201401N002112200019N0100001N1+02511+00891101351ADDGF102991021021004501001001MA1999999091721MD1999999-0111REMSYN070AAXX  23184 83339 32497 21404 10251 20089 39172 40135 82200 333 59011;
0178833390999992008072400004-14050-042617FM-12+088299999V0201801N003112200019N0020001N1+01951+00991101611ADDGA1001+999999999GF100991001001999999001001KA1240M+02621MA1999999091841MD1999999-0101REMSYN082AAXX  24004 83339 32995 01806 10195 20099 39184 40161 333 10262 29056 55089 59010;
0184833390999992008072412004-14050-042617FM-12+088299999V0200901N002112200019N0100001N1+01751+01431101691ADDAY101061AY201061GF104991041021004501001001KA1240N+01301MA1999999091911MD1999999-0151MW1101REMSYN082AAXX  24124 83339 31497 40904 10175 20143 39191 40169 71000 84200 333 20130 59015;
0147833390999992008072418004-14050-042617FM-12+088299999V0200501N003112200019N0100001N1+02611+00941101311ADDGA1001+999999999GF100991001001999999001001MA1999999091661MD1999999-0061REMSYN064AAXX  24184 83339 32997 00506 10261 20094 39166 40131 333 59006;
0178833390999992008072500004-14050-042617FM-12+088299999V0201801N001512200019N0020001N1+02051+00811101551ADDGA1001+999999999GF100991001001999999001001KA1240M+02661MA1999999091801MD1999999-0041REMSYN082AAXX  25004 83339 32995 01803 10205 20081 39180 40155 333 10266 29052 55090 59004;
0166833390999992008072512004-14050-042617FM-12+088299999V0201401N003112200019N0100001N1+01921+01221101691ADDGA1001+999999999GF100991001001999999001001KA1240N+01381MA1999999091961MD1999999+0051REMSYN070AAXX  25124 83339 32997 01406 10192 20122 39196 40169 333 20138 58005;
0147833390999992008072518004-14050-042617FM-12+088299999V0201401N004612200019N0100001N1+02671+00501101241ADDGA1001+999999999GF100991001001999999001001MA1999999091641MD1999999-0021REMSYN064AAXX  25184 83339 32997 01409 10267 20050 39164 40124 333 59002;
0178833390999992008072600004-14050-042617FM-12+088299999V0201801N004112200019N0020001N1+02051+00571101521ADDGA1001+999999999GF100991001001999999001001KA1240M+02741MA1999999091811MD1999999+0011REMSYN082AAXX  26004 83339 32995 01808 10205 20057 39181 40152 333 10274 29041 55109 58001;
0166833390999992008072612004-14050-042617FM-12+088299999V0200501N004612200019N0100001N1+01951+01141101691ADDGA1001+999999999GF100991001001999999001001KA1240N+01341MA1999999091961MD1999999+0001REMSYN070AAXX  26124 83339 32997 00509 10195 20114 39196 40169 333 20134 58000;
0147833390999992008072618004-14050-042617FM-12+088299999V0200901N005712200019N0100001N1+02691+00621101351ADDGA1001+999999999GF100991001001999999001001MA1999999091741MD1999999+0101REMSYN064AAXX  26184 83339 32997 00911 10269 20062 39174 40135 333 58010;
0178833390999992008072700004-14050-042617FM-12+088299999V0201401N005112200019N0020001N1+02111+00931101631ADDGA1001+999999999GF100991001001999999001001KA1240M+02731MA1999999091941MD1999999+0131REMSYN082AAXX  27004 83339 32995 01410 10211 20093 39194 40163 333 10273 29045 55108 58013;
0156833390999992008072712004-14050-042617FM-12+088299999V0201401N008210042019N0100001N1+01751+01211101931ADDGF105991051021004501001001KA1240N+01521MA1999999092161MD1999999+0201REMSYN076AAXX  27124 83339 32497 51416 10175 20121 39216 40193 85200 333 20152 58020;
0137833390999992008072718004-14050-042617FM-12+088299999V0201401N006712200019N0100001N1+02331+01061101631ADDGF102991021021004501001001MA1999999091941MD1999999+0201REMSYN070AAXX  27184 83339 32497 21413 10233 20106 39194 40163 82200 333 58020;
0168833390999992008072800004-14050-042617FM-12+088299999V0200501N005112200019N0020001N1+01931+01361101851ADDGF102991021021004501001001KA1240M+02441MA1999999092051MD1999999-0111REMSYN088AAXX  28004 83339 32495 20510 10193 20136 39205 40185 82200 333 10244 29064 55095 59011;
0201833390999992008072812004-14050-042617FM-12+088299999V0201401N001010042019N0020001N1+01551+01431102231ADDAA124002091AY161061AY221061GF108991051021004501021999KA1240N+01501MA1999999092351MD1999999+0191MW1401REMSYN088AAXX  28124 83339 21495 81402 10155 20143 39235 40223 74062 8522/ 333 20150 58019 60024;
0165833390999992008072818004-14050-042617FM-12+088299999V0201401N004612200019N0100001N1+02191+01231101671ADDAY141061AY221061GF102991021011004501001001MA1999999091931MD1999999-0011MW1021REMSYN076AAXX  28184 83339 31497 21409 10219 20123 39193 40167 70242 82100 333 59001;
0168833390999992008072900004-14050-042617FM-12+088299999V0209999C000012200019N0020001N1+01881+01191101921ADDGF102991021011004501001001KA1240M+02361MA1999999092051MD1999999+0001REMSYN088AAXX  29004 83339 32495 20000 10188 20119 39205 40192 82100 333 10236 29069 55057 58000;
0156833390999992008072912004-14050-042617FM-12+088299999V0201401N004110042019N0100001N1+01521+01231102111ADDGF106991061021004501001001KA1240N+01391MA1999999092231MD1999999-0121REMSYN076AAXX  29124 83339 32497 61408 10152 20123 39223 40211 86200 333 20139 59012;
0137833390999992008072918004-14050-042617FM-12+088299999V0200501N004112200019N0100001N1+02371+00811101521ADDGF102991021021004501001001MA1999999091811MD1999999-0121REMSYN070AAXX  29184 83339 32497 20508 10237 20081 39181 40152 82200 333 59012;
0178833390999992008073000004-14050-042617FM-12+088299999V0209999C000012200019N0020001N1+01931+00991101731ADDGA1001+999999999GF100991001001999999001001KA1240M+02471MA1999999091901MD1999999-0151REMSYN082AAXX  30004 83339 32995 00000 10193 20099 39190 40173 333 10247 29057 55081 59015;
0156833390999992008073012004-14050-042617FM-12+088299999V0201401N006710042019N0100001N1+01841+01311101761ADDGF106991061021004501001001KA1240N+01501MA1999999091991MD1999999-0241REMSYN076AAXX  30124 83339 32497 61413 10184 20131 39199 40176 86200 333 20150 59024;
0137833390999992008073018004-14050-042617FM-12+088299999V0200901N003112200019N0100001N1+02451+01221101231ADDGF103991031011004501001001MA1999999091591MD1999999-0221REMSYN070AAXX  30184 83339 32497 30906 10245 20122 39159 40123 83100 333 59022;
0178833390999992008073100004-14050-042617FM-12+088299999V0201401N005112200019N0020001N1+02061+01121101461ADDGA1001+999999999GF100991001001999999001001KA1240M+02501MA1999999091741MD1999999-0161REMSYN082AAXX  31004 83339 32995 01410 10206 20112 39174 40146 333 10250 29057 55094 59016;
0166833390999992008073112004-14050-042617FM-12+088299999V0201401N004112200019N0100001N1+01881+01301101731ADDGA1001+999999999GF100991001001999999001001KA1240N+01541MA1999999091981MD1999999-0011REMSYN070AAXX  31124 83339 32997 01408 10188 20130 39198 40173 333 20154 59001;
0147833390999992008073118004-14050-042617FM-12+088299999V0201401N002112200019N0100001N1+02601+00891101221ADDGA1001+999999999GF100991001001999999001001MA1999999091621MD1999999+0031REMSYN064AAXX  31184 83339 32997 01404 10260 20089 39162 40122 333 58003;
0178833390999992008080100004-14050-042617FM-12+088299999V0201401N004112200019N0020001N1+02131+00901101501ADDGA1001+999999999GF100991001001999999001001KA1240M+02691MA1999999091791MD1999999+0051REMSYN082AAXX  01004 83339 32995 01408 10213 20090 39179 40150 333 10269 29048 55107 58005;
0156833390999992008080112004-14050-042617FM-12+088299999V0201401N003612200019N0100001N1+01881+01341101691ADDGF102991021011004501001001KA1240N+01561MA1999999091961MD1999999-0021REMSYN076AAXX  01124 83339 32497 21407 10188 20134 39196 40169 82100 333 20156 59002;
0137833390999992008080118004-14050-042617FM-12+088299999V0200901N004110042019N0100001N1+02431+01031101191ADDGF105991051021004501001001MA1999999091571MD1999999-0051REMSYN070AAXX  01184 83339 32497 50908 10243 20103 39157 40119 85200 333 59005;
0178833390999992008080200004-14050-042617FM-12+088299999V0201401N001512200019N0020001N1+01991+01121101501ADDGA1001+999999999GF100991001001999999001001KA1240M+02521MA1999999091771MD1999999-0021REMSYN082AAXX  02004 83339 32995 01403 10199 20112 39177 40150 333 10252 29057 55084 59002;
0166833390999992008080212004-14050-042617FM-12+088299999V0201401N002612200019N0100001N1+01951+01241101631ADDGA1001+999999999GF100991001001999999001001KA1240N+01371MA1999999091891MD1999999-0071REMSYN070AAXX  02124 83339 32997 01405 10195 20124 39189 40163 333 20137 59007;
0147833390999992008080218004-14050-042617FM-12+088299999V0200501N001512200019N0100001N1+02811+00801100961ADDGA1001+999999999GF100991001001999999001001MA1999999091411MD1999999-0161REMSYN064AAXX  02184 83339 32997 00503 10281 20080 39141 40096 333 59016;
0178833390999992008080300004-14050-042617FM-12+088299999V0201401N003112200019N0020001N1+02171+01211101291ADDGA1001+999999999GF100991001001999999001001KA1240M+02881MA1999999091631MD1999999-0141REMSYN082AAXX  03004 83339 32995 01406 10217 20121 39163 40129 333 10288 29050 55107 59014;
0166833390999992008080312004-14050-042617FM-12+088299999V0200501N001012200019N0100001N1+02081+01471101441ADDGA1001+999999999GF100991001001999999001001KA1240N+01461MA1999999091781MD1999999-0111REMSYN070AAXX  03124 83339 32997 00502 10208 20147 39178 40144 333 20146 59011;
0137833390999992008080318004-14050-042617FM-12+088299999V0202701N003112200019N0100001N1+03041+00631100791ADDGF102991021011004501001001MA1999999091331MD1999999-0081REMSYN070AAXX  03184 83339 32497 22706 10304 20063 39133 40079 82100 333 59008;
0178833390999992008080400004-14050-042617FM-12+088299999V0202301N003112200019N0020001N1+02571+00691101101ADDGA1001+999999999GF100991001001999999001001KA1240M+03091MA1999999091551MD1999999-0081REMSYN082AAXX  04004 83339 32995 02306 10257 20069 39155 40110 333 10309 29038 55104 59008;
0166833390999992008080412004-14050-042617FM-12+088299999V0200901N001512200019N0100001N1+02371+01131101161ADDGA1001+999999999GF100991001001999999001001KA1240N+01761MA1999999091661MD1999999-0121REMSYN070AAXX  04124 83339 32997 00903 10237 20113 39166 40116 333 20176 59012;
0137833390999992008080418004-14050-042617FM-12+088299999V0201401N003112200019N0100001N1+03111+00611100711ADDGF102991011021004501001041MA1999999091341MD1999999+0011REMSYN070AAXX  04184 83339 32497 21406 10311 20061 39134 40071 81204 333 58001;
0178833390999992008080500004-14050-042617FM-12+088299999V0201401N001512200019N0020001N1+02511+00851101001ADDGA1001+999999999GF100991001001999999001001KA1240M+03231MA1999999091521MD1999999-0031REMSYN082AAXX  05004 83339 32995 01403 10251 20085 39152 40100 333 10323 29034 55105 59003;
0156833390999992008080512004-14050-042617FM-12+088299999V0201401N008212200019N0100001N1+02071+01601101481ADDGF103991031021004501001001KA1240N+01701MA1999999091901MD1999999+0241REMSYN076AAXX  05124 83339 32497 31416 10207 20160 39190 40148 83200 333 20170 58024;
0137833390999992008080518004-14050-042617FM-12+088299999V0201401N006212200019N0100001N1+02751+01301101091ADDGF102991021021004501001001MA1999999091581MD1999999+0241REMSYN070AAXX  05184 83339 32497 21412 10275 20130 39158 40109 82200 333 58024;
0168833390999992008080600004-14050-042617FM-12+088299999V0201401N003112200019N0020001N1+02311+01231101321ADDGF102991021021004501001001KA1240M+02841MA1999999091711MD1999999+0191REMSYN088AAXX  06004 83339 32495 21406 10231 20123 39171 40132 82200 333 10284 29054 55103 58019;
0156833390999992008080612004-14050-042617FM-12+088299999V0200901N004610042019N0100001N1+01811+01351101581ADDGF106991061021004501001001KA1240N+01601MA1999999091891MD1999999-0011REMSYN076AAXX  06124 83339 32497 60909 10181 20135 39189 40158 86200 333 20160 59001;
0137833390999992008080618004-14050-042617FM-12+088299999V0201401N006212200019N0100001N1+02531+01141101161ADDGF102991021021004501001001MA1999999091591MD1999999+0011REMSYN070AAXX  06184 83339 32497 21412 10253 20114 39159 40116 82200 333 58001;
0178833390999992008080700004-14050-042617FM-12+088299999V0201401N005712200019N0020001N1+02071+01121101481ADDGA1001+999999999GF100991001001999999001001KA1240M+02621MA1999999091751MD1999999+0041REMSYN082AAXX  07004 83339 32995 01411 10207 20112 39175 40148 333 10262 29057 55081 58004;
0184833390999992008080712004-14050-042617FM-12+088299999V0201401N004610042019N0040001N1+01611+01271101721ADDAY101061AY201061GF108991081051004501999999KA1240N+01441MA1999999091941MD1999999+0051MW1101REMSYN082AAXX  07124 83339 31496 81409 10161 20127 39194 40172 71000 885// 333 20144 58005;
0137833390999992008080718004-14050-042617FM-12+088299999V0201401N003612200019N0100001N1+02351+01331101281ADDGF104991041021004501001001MA1999999091621MD1999999+0031REMSYN070AAXX  07184 83339 32497 41407 10235 20133 39162 40128 84200 333 58003;
0184833390999992008080812004-14050-042617FM-12+088299999V0201401N001010042019N0040001N1+01751+01521101671ADDAY101061AY201061GF107991061021004501021999KA1240N+01581MA1999999091911MD1999999-0031MW1101REMSYN082AAXX  08124 83339 31496 71402 10175 20152 39191 40167 71000 8622/ 333 20158 59003;
0137833390999992008080818004-14050-042617FM-12+088299999V0201401N004612200019N0100001N1+02671+01111101081ADDGF102991011021004501021001MA1999999091521MD1999999-0101REMSYN070AAXX  08184 83339 32497 21409 10267 20111 39152 40108 81220 333 59010;
0178833390999992008080900004-14050-042617FM-12+088299999V0201401N004612200019N0020001N1+02151+01111101421ADDGA1001+999999999GF100991001001999999001001KA1240M+02741MA1999999091701MD1999999-0041REMSYN082AAXX  09004 83339 32995 01409 10215 20111 39170 40142 333 10274 29057 55071 59004;
0184833390999992008080912004-14050-042617FM-12+088299999V0201401N005110042019N0100001N1+01811+01491101691ADDAY101061AY201061GF106991061021004501001001KA1240N+01501MA1999999091961MD1999999+0051MW1101REMSYN082AAXX  09124 83339 31497 61410 10181 20149 39196 40169 71000 86200 333 20150 58005;
0147833390999992008080918004-14050-042617FM-12+088299999V0201401N003612200019N0100001N1+02591+00921101291ADDGA1001+999999999GF100991001001999999001001MA1999999091681MD1999999+0161REMSYN064AAXX  09184 83339 32997 01407 10259 20092 39168 40129 333 58016;
0178833390999992008081000004-14050-042617FM-12+088299999V0201801N001512200019N0020001N1+02191+00831101551ADDGA1001+999999999GF100991001001999999001001KA1240M+02671MA1999999091841MD1999999+0141REMSYN082AAXX  10004 83339 32995 01803 10219 20083 39184 40155 333 10267 29050 55093 58014;
0166833390999992008081012004-14050-042617FM-12+088299999V0201401N006212200019N0100001N1+01891+01281101651ADDGA1001+999999999GF100991001001999999001001KA1240N+01481MA1999999091951MD1999999-0011REMSYN070AAXX  10124 83339 32997 01412 10189 20128 39195 40165 333 20148 59001;
0147833390999992008081018004-14050-042617FM-12+088299999V0200501N006212200019N0100001N1+02671+00901101161ADDGA1001+999999999GF100991001001999999001001MA1999999091591MD1999999-0091REMSYN064AAXX  10184 83339 32997 00512 10267 20090 39159 40116 333 59009;
0178833390999992008081100004-14050-042617FM-12+088299999V0200901N000512200019N0020001N1+02071+00861101441ADDGA1001+999999999GF100991001001999999001001KA1240M+02761MA1999999091741MD1999999-0101REMSYN082AAXX  11004 83339 32995 00901 10207 20086 39174 40144 333 10276 29048 55108 59010;
0156833390999992008081112004-14050-042617FM-12+088299999V0201401N007212200019N0100001N1+01931+01191101771ADDGF102991021011004501001001KA1240N+01481MA1999999092041MD1999999+0091REMSYN076AAXX  11124 83339 32497 21414 10193 20119 39204 40177 82100 333 20148 58009;
0147833390999992008081118004-14050-042617FM-12+088299999V0200901N005112200019N0020001N1+02541+00881101221ADDGA1001+999999999GF100991001001999999001001MA1999999091601MD1999999+0011REMSYN064AAXX  11184 83339 32995 00910 10254 20088 39160 40122 333 58001;
0178833390999992008081200004-14050-042617FM-12+088299999V0201401N003612200019N0020001N1+02081+00941101491ADDGA1001+999999999GF100991001001999999001001KA1240M+02601MA1999999091781MD1999999+0041REMSYN082AAXX  12004 83339 32995 01407 10208 20094 39178 40149 333 10260 29048 55107 58004;
0156833390999992008081212004-14050-042617FM-12+088299999V0201401N005110042019N0100001N1+01861+01321101811ADDGF106991061021004501001001KA1240N+01561MA1999999092051MD1999999+0011REMSYN076AAXX  12124 83339 32497 61410 10186 20132 39205 40181 86200 333 20156 58001;
0137833390999992008081218004-14050-042617FM-12+088299999V0201401N005112200019N0100001N1+02551+01101101211ADDGF105991011011004501001011MA1999999091611MD1999999+0011REMSYN070AAXX  12184 83339 32497 51410 10255 20110 39161 40121 81101 333 58001;
0187833390999992008081300004-14050-042617FM-12+088299999V0201401N002612200019N0020001N1+02051+01101101731ADDGF102991001001999999001011KA1240M+02591MA1999999091981MD1999999+0201REMSYN088AAXX  13004 83339 32895 21405 10205 20110 39198 40173 80001 333 10259 29055 55082 58020;EQDQ01+022502SCOLCB
0156833390999992008081312004-14050-042617FM-12+088299999V0200901N003612200019N0100001N1+01911+01321101911ADDGF105991021011004501001011KA1240N+01541MA1999999092161MD1999999+0111REMSYN076AAXX  13124 83339 32497 50907 10191 20132 39216 40191 82101 333 20154 58011;
0137833390999992008081318004-14050-042617FM-12+088299999V0200901N004112200019N0100001N1+02471+01141101351ADDGF102991011011004501001011MA1999999091721MD1999999+0111REMSYN070AAXX  13184 83339 32497 20908 10247 20114 39172 40135 81101 333 58011;
0178833390999992008081400004-14050-042617FM-12+088299999V0201401N005112200019N0020001N1+01991+01041101651ADDGA1001+999999999GF100991001001999999001001KA1240M+02561MA1999999091911MD1999999-0071REMSYN082AAXX  14004 83339 32995 01410 10199 20104 39191 40165 333 10256 29055 55099 59007;
0156833390999992008081412004-14050-042617FM-12+088299999V0201401N005110042019N0100001N1+01721+01351102011ADDGF106991061021004501001001KA1240N+01481MA1999999092201MD1999999+0041REMSYN076AAXX  14124 83339 32497 61410 10172 20135 39220 40201 86200 333 20148 58004;
0137833390999992008081418004-14050-042617FM-12+088299999V0201401N005112200019N0100001N1+02431+01171101531ADDGF102991021011004501001001MA1999999091961MD1999999+0141REMSYN070AAXX  14184 83339 32497 21410 10243 20117 39196 40153 82100 333 58014;
0178833390999992008081500004-14050-042617FM-12+088299999V0201401N001012200019N0020001N1+02031+01021101831ADDGA1001+999999999GF100991001001999999001001KA1240M+02481MA1999999092041MD1999999+0131REMSYN082AAXX  15004 83339 32995 01402 10203 20102 39204 40183 333 10248 29057 55093 58013;
0156833390999992008081512004-14050-042617FM-12+088299999V0201401N007710042019N0100001N1+01691+01251102111ADDGF105991051021004501001001KA1240N+01501MA1999999092281MD1999999+0081REMSYN076AAXX  15124 83339 32497 51415 10169 20125 39228 40211 85200 333 20150 58008;
0147833390999992008081518004-14050-042617FM-12+088299999V0201401N007712200019N0100001N1+02561+00771101361ADDGA1001+999999999GF100991001001999999001001MA1999999091731MD1999999-0131REMSYN064AAXX  15184 83339 32497 01415 10256 20077 39173 40136 333 59013;
0178833390999992008081600004-14050-042617FM-12+088299999V0201401N005112200019N0020001N1+02091+01241101631ADDGA1001+999999999GF100991001001999999001001KA1240M+02641MA1999999091871MD1999999-0171REMSYN082AAXX  16004 83339 32995 01410 10209 20124 39187 40163 333 10264 29056 55090 59017;
0156833390999992008081612004-14050-042617FM-12+088299999V0201401N005712200019N0100001N1+01921+01471101831ADDGF104991041021004501001001KA1240N+01671MA1999999092071MD1999999-0211REMSYN076AAXX  16124 83339 32497 41411 10192 20147 39207 40183 84200 333 20167 59021;
0137833390999992008081618004-14050-042617FM-12+088299999V0201401N004112200019N0100001N1+02571+01281101271ADDGF103991031021004501001001MA1999999091681MD1999999-0051REMSYN070AAXX  16184 83339 32497 31408 10257 20128 39168 40127 83200 333 59005;
0178833390999992008081700004-14050-042617FM-12+088299999V0201801N006212200019N0020001N1+01991+01321101561ADDGA1001+999999999GF100991001001999999001001KA1240M+02621MA1999999091831MD1999999-0041REMSYN082AAXX  17004 83339 32995 01812 10199 20132 39183 40156 333 10262 29062 55085 59004;
0156833390999992008081712004-14050-042617FM-12+088299999V0201401N005712200019N0100001N1+01871+01361101811ADDGF104991041021004501001001KA1240N+01541MA1999999092051MD1999999-0021REMSYN076AAXX  17124 83339 32497 41411 10187 20136 39205 40181 84200 333 20154 59002;
0141833390999992008081718004-14050-042617FM-12+088299999V0201401N005712200019N0100001N1+02571+00921101331ADDGF102991021011004501001001MD1999999+0021REMSYN070AAXX  17184 83339 32497 21411 10257 20092 30170 40133 82100 333 58002;EQDQ01+101703APOSP 
0178833390999992008081800004-14050-042617FM-12+088299999V0201801N003612200019N0020001N1+02031+00711101591ADDGA1001+999999999GF100991001001999999001001KA1240M+02621MA1999999091851MD1999999+0021REMSYN082AAXX  18004 83339 32995 01807 10203 20071 39185 40159 333 10262 29048 55099 58002;
0156833390999992008081812004-14050-042617FM-12+088299999V0201401N003110042019N0100001N1+01751+01351101841ADDGF106991061021004501001001KA1240N+01541MA1999999092061MD1999999+0011REMSYN076AAXX  18124 83339 32497 61406 10175 20135 39206 40184 86200 333 20154 58001;
0137833390999992008081818004-14050-042617FM-12+088299999V0201401N004612200019N0100001N1+02511+00761101371ADDGF102991021011004501001001MA1999999091741MD1999999+0041REMSYN070AAXX  18184 83339 32497 21409 10251 20076 39174 40137 82100 333 58004;
0178833390999992008081900004-14050-042617FM-12+088299999V0202301N004112200019N0020001N1+01891+01191101651ADDGA1001+999999999GF100991001001999999001001KA1240M+02541MA1999999091851MD1999999+0001REMSYN082AAXX  19004 83339 32995 02308 10189 20119 39185 40165 333 10254 29060 55082 58000;
0184833390999992008081912004-14050-042617FM-12+088299999V0201801N005110042019N0040001N1+01491+01431101821ADDAY101061AY201061GF108991081051004501999999KA1240N+01421MA1999999091961MD1999999-0101MW1501REMSYN082AAXX  19124 83339 31496 81810 10149 20143 39196 40182 75000 885// 333 20142 59010;
0165833390999992008081918004-14050-042617FM-12+088299999V0200501N004610042019N0100001N1+02451+01241101331ADDAY101061AY251061GF105991051021004501001001MA1999999091661MD1999999-0081MW1021REMSYN076AAXX  19184 83339 31497 50509 10245 20124 39166 40133 70205 85200 333 59008;
0196833390999992008082000004-14050-042617FM-12+088299999V0200901N005110042019N0020001N1+01691+01531101781ADDAY101061AY201061GF108991081051004501999999KA1240M+02481MA1999999091891MD1999999+0041MW1501REMSYN094AAXX  20004 83339 31495 80910 10169 20153 39189 40178 75000 885// 333 10248 29082 55037 58004;
0201833390999992008082012004-14050-042617FM-12+088299999V0202301N005110042019N0100001N1+01731+01231101711ADDAA124001091AY161061AY261061GF106991061021004501001001KA1240N+01421MA1999999091861MD1999999-0101MW1021REMSYN088AAXX  20124 83339 21497 62310 10173 20123 39186 40171 70266 86200 333 20142 59010 60014;
0137833390999992008082018004-14050-042617FM-12+088299999V0200501N006212200019N0100001N1+02491+00991101301ADDGF104991041021004501001001MA1999999091621MD1999999-0041REMSYN070AAXX  20184 83339 32497 40512 10249 20099 39162 40130 84200 333 59004;
0168833390999992008082100004-14050-042617FM-12+088299999V0200901N003112200019N0020001N1+02071+01041101541ADDGF102991021021004501001001KA1240M+02551MA1999999091791MD1999999-0101REMSYN088AAXX  21004 83339 32495 20906 10207 20104 39179 40154 82200 333 10255 29054 55076 59010;
0201833390999992008082112004-14050-042617FM-12+088299999V0200501N006710042019N0100001N1+01731+01271101701ADDAA124000591AY161061AY261061GF106991061021004501001001KA1240N+01541MA1999999091941MD1999999+0081MW1021REMSYN088AAXX  21124 83339 21497 60513 10173 20127 39194 40170 70266 86200 333 20154 58008 69964;
0137833390999992008082118004-14050-042617FM-12+088299999V0200501N005112200019N0100001N1+02451+01171101251ADDGF103991031021004501001001MA1999999091611MD1999999-0011REMSYN070AAXX  21184 83339 32497 30510 10245 20117 39161 40125 83200 333 59001;
0168833390999992008082200004-14050-042617FM-12+088299999V0200501N004612200019N0020001N1+02031+01241101501ADDGF102991021021004501001001KA1240M+02521MA1999999091751MD1999999-0041REMSYN088AAXX  22004 83339 32495 20509 10203 20124 39175 40150 82200 333 10252 29060 55076 59004;
0156833390999992008082212004-14050-042617FM-12+088299999V0200501N005112200019N0100001N1+01871+01241101621ADDGF103991021021004501031001KA1240N+01481MA1999999091881MD1999999-0061REMSYN076AAXX  22124 83339 32497 30510 10187 20124 39188 40162 82230 333 20148 59006;
0137833390999992008082218004-14050-042617FM-12+088299999V0200501N003110042019N0100001N1+02671+00941101201ADDGF105991051021004501001001MA1999999091601MD1999999-0011REMSYN070AAXX  22184 83339 32497 50506 10267 20094 39160 40120 85200 333 59001;
0168833390999992008082300004-14050-042617FM-12+088299999V0200901N004612200019N0020001N1+02211+01051101361ADDGF102991021021004501001001KA1240M+02801MA1999999091691MD1999999-0061REMSYN088AAXX  23004 83339 32495 20909 10221 20105 39169 40136 82200 333 10280 29050 55094 59006;
0156833390999992008082312004-14050-042617FM-12+088299999V0200501N005110042019N0100001N1+01851+01431101651ADDGF106991061021004501001001KA1240N+01631MA1999999091951MD1999999+0071REMSYN076AAXX  23124 83339 32497 60510 10185 20143 39195 40165 86200 333 20163 58007;
0137833390999992008082318004-14050-042617FM-12+088299999V0200501N004112200019N0100001N1+02651+01131101181ADDGF103991031021004501001001MA1999999091631MD1999999+0031REMSYN070AAXX  23184 83339 32497 30508 10265 20113 39163 40118 83200 333 58003;
0168833390999992008082400004-14050-042617FM-12+088299999V0200901N007212200019N0020001N1+02151+01171101551ADDGF102991021021004501001001KA1240M+02701MA1999999091841MD1999999+0141REMSYN088AAXX  24004 83339 32495 20914 10215 20117 39184 40155 82200 333 10270 29056 55088 58014;
0156833390999992008082412004-14050-042617FM-12+088299999V0200501N007210042019N0100001N1+01851+01151101651ADDGF105991051021004501001001KA1240N+01561MA1999999091931MD1999999-0021REMSYN076AAXX  24124 83339 32497 50514 10185 20115 39193 40165 85200 333 20156 59002;
0137833390999992008082418004-14050-042617FM-12+088299999V0200501N006712200019N0100001N1+02531+01141101311ADDGF102991021021004501001001MA1999999091701MD1999999+0071REMSYN070AAXX  24184 83339 32497 20513 10253 20114 39170 40131 82200 333 58007;
0178833390999992008082500004-14050-042617FM-12+088299999V0200901N004112200019N0020001N1+02131+00981101551ADDGA1001+999999999GF100991001001999999001001KA1240M+02571MA1999999091841MD1999999+0001REMSYN082AAXX  25004 83339 32995 00908 10213 20098 39184 40155 333 10257 29050 55094 58000;
0156833390999992008082512004-14050-042617FM-12+088299999V0200901N005110042019N0100001N1+01731+01291101831ADDGF105991051021004501001001KA1240N+01561MA1999999092071MD1999999+0141REMSYN076AAXX  25124 83339 32497 50910 10173 20129 39207 40183 85200 333 20156 58014;
0137833390999992008082518004-14050-042617FM-12+088299999V0200501N006712200019N0100001N1+02351+01201101371ADDGF102991021021004501001001MA1999999091721MD1999999+0021REMSYN070AAXX  25184 83339 32497 20513 10235 20120 39172 40137 82200 333 58002;
0178833390999992008082600004-14050-042617FM-12+088299999V0201401N004112200019N0020001N1+02031+01261101621ADDGA1001+999999999GF100991001001999999001001KA1240M+02481MA1999999091861MD1999999+0021REMSYN082AAXX  26004 83339 32995 01408 10203 20126 39186 40162 333 10248 29061 55073 58002;
0156833390999992008082612004-14050-042617FM-12+088299999V0201401N005112200019N0100001N1+02121+01341101631ADDGF102991021011004501001001KA1240N+01611MA1999999091951MD1999999-0121REMSYN076AAXX  26124 83339 32497 21410 10212 20134 39195 40163 82100 333 20161 59012;
0137833390999992008082618004-14050-042617FM-12+088299999V0201401N004112200019N0100001N1+02571+01191101121ADDGF104991041021004501001001MA1999999091531MD1999999-0191REMSYN070AAXX  26184 83339 32497 41408 10257 20119 39153 40112 84200 333 59019;
0178833390999992008082700004-14050-042617FM-12+088299999V0201401N002612200019N0020001N1+02121+01041101371ADDGA1001+999999999GF100991001001999999001001KA1240M+02641MA1999999091721MD1999999-0141REMSYN082AAXX  27004 83339 32995 01405 10212 20104 39172 40137 333 10264 29051 55097 59014;
0166833390999992008082712004-14050-042617FM-12+088299999V0201401N002612200019N0100001N1+02231+01401101471ADDGA1001+999999999GF100991001001999999001001KA1240N+01581MA1999999091831MD1999999-0121REMSYN070AAXX  27124 83339 32997 01405 10223 20140 39183 40147 333 20158 59012;
0137833390999992008082718004-14050-042617FM-12+088299999V0200501N002612200019N0100001N1+02661+00811100921ADDGF102991021011004501001001MA1999999091371MD1999999-0161REMSYN070AAXX  27184 83339 32497 20505 10266 20081 39137 40092 82100 333 59016;
0178833390999992008082800004-14050-042617FM-12+088299999V0202301N001512200019N0020001N1+02191+00701101151ADDGA1001+999999999GF100991001001999999001001KA1240M+02741MA1999999091551MD1999999-0171REMSYN082AAXX  28004 83339 32995 02303 10219 20070 39155 40115 333 10274 29042 55108 59017;
0166833390999992008082812004-14050-042617FM-12+088299999V0201401N003612200019N0020001N1+02091+01111101431ADDGA1001+999999999GF100991001001999999001001KA1240N+01621MA1999999091791MD1999999-0041REMSYN070AAXX  28124 83339 32995 01407 10209 20111 39179 40143 333 20162 59004;
0147833390999992008082818004-14050-042617FM-12+088299999V0200901N003112200019N0100001N1+02851+00881100851ADDGA1001+999999999GF100991001001999999001001MA1999999091361MD1999999-0011REMSYN064AAXX  28184 83339 32997 00906 10285 20088 39136 40085 333 59001;
0178833390999992008082900004-14050-042617FM-12+088299999V0202301N002112200019N0020001N1+02191+00701101211ADDGA1001+999999999GF100991001001999999001001KA1240M+02901MA1999999091591MD1999999+0041REMSYN082AAXX  29004 83339 32995 02304 10219 20070 39159 40121 333 10290 29040 55108 58004;
0175833390999992008082912004-14050-042617FM-12+088299999V0201801N003112200019N0100001N1+02071+01451101501ADDGF103991001001999999001011KA1240N+01581MA1999999091851MD1999999+0061REMSYN076AAXX  29124 83339 32897 31806 10207 20145 39185 40150 80001 333 20158 58006;EQDQ01+022502SCOLCB
0137833390999992008082918004-14050-042617FM-12+088299999V0201401N002612200019N0100001N1+02851+00831100891ADDGF105991011011004501001011MA1999999091381MD1999999+0021REMSYN070AAXX  29184 83339 32497 51405 10285 20083 39138 40089 81101 333 58002;
0178833390999992008083000004-14050-042617FM-12+088299999V0201401N002612200019N0020001N1+02411+00781101081ADDGA1001+999999999GF100991001001999999001001KA1240M+02941MA1999999091521MD1999999-0071REMSYN082AAXX  30004 83339 32995 01405 10241 20078 39152 40108 333 10294 29041 55086 59007;
0191833390999992008083012004-14050-042617FM-12+088299999V0201401N003112200019N0100001N1+02151+01431101221ADDGF102991001001999999001011KA1240N+01621MA1999999999999MD1999999-0191REMSYN076AAXX  30124 83339 32897 21406 10215 20143 30166 40122 80001 333 20162 59019;EQDQ01+022502SCOLCBQ02 101663APOSP 
0156833390999992008083018004-14050-042617FM-12+088299999V0201801N004112200019N0100001N1+02931+00791100711ADDGF104991031021004501001011MA1999999091282MD1999999-0101REMSYN070AAXX  30184 83339 32497 41808 10293 20079 39128 40071 83201 333 59010;EQDQ01+091283APOSP 
0178833390999992008083100004-14050-042617FM-12+088299999V0201401N008212200019N0020001N1+02411+00741101061ADDGA1001+999999999GF100991001001999999001001KA1240M+03021MA1999999091781MD1999999+0021REMSYN082AAXX  31004 83339 32995 01416 10241 20074 39178 40106 333 10302 29039 55100 58002;
0166833390999992008083112004-14050-042617FM-12+088299999V0201801N008212200019N0100001N1+01951+01091101461ADDGA1001+999999999GF100991001001999999001001KA1240N+01661MA1999999091841MD1999999+0181REMSYN070AAXX  31124 83339 32997 01816 10195 20109 39184 40146 333 20166 58018;
0147833390999992008083118004-14050-042617FM-12+088299999V0201401N005112200019N0100001N1+02691+01071100941ADDGA1001+999999999GF100991001001999999001001MA1999999091431MD1999999+0151REMSYN064AAXX  31184 83339 32997 01410 10269 20107 39143 40094 333 58015;
0178833390999992008090100004-14050-042617FM-12+088299999V0201401N005112200019N0020001N1+02221+01191101361ADDGA1001+999999999GF100991001001999999001001KA1240M+02761MA1999999091711MD1999999+0171REMSYN082AAXX  01004 83339 32995 01410 10222 20119 39171 40136 333 10276 29049 55107 58017;
0156833390999992008090112004-14050-042617FM-12+088299999V0201401N011810042019N0100001N1+01891+01161101551ADDGF106991061021004501001001KA1240N+01721MA1999999091861MD1999999+0021REMSYN076AAXX  01124 83339 32497 61423 10189 20116 39186 40155 86200 333 20172 58002;
0137833390999992008090118004-14050-042617FM-12+088299999V0201401N006210042019N0100001N1+02451+01141101121ADDGF106991051021004501021001MA1999999091531MD1999999+0101REMSYN070AAXX  01184 83339 32497 61412 10245 20114 39153 40112 85220 333 58010;
0168833390999992008090200004-14050-042617FM-12+088299999V0201401N006212200019N0020001N1+02131+01101101461ADDGF102991021021004501001001KA1240M+02561MA1999999091751MD1999999+0041REMSYN088AAXX  02004 83339 32495 21412 10213 20110 39175 40146 82200 333 10256 29053 55075 58004;
0156833390999992008090212004-14050-042617FM-12+088299999V0201401N005112200019N0100001N1+01851+01331101571ADDGF104991041021004501001001KA1240N+01531MA1999999091851MD1999999-0011REMSYN076AAXX  02124 83339 32497 41410 10185 20133 39185 40157 84200 333 20153 59001;
0137833390999992008090218004-14050-042617FM-12+088299999V0200501N003112200019N0100001N1+02591+01161101071ADDGF103991021021004501021001MA1999999091481MD1999999-0051REMSYN070AAXX  02184 83339 32497 30506 10259 20116 39148 40107 82220 333 59005;
0178833390999992008090300004-14050-042617FM-12+088299999V0201401N005112200019N0020001N1+02091+01401101401ADDGA1001+999999999GF100991001001999999001001KA1240M+02601MA1999999091681MD1999999-0071REMSYN082AAXX  03004 83339 32995 01410 10209 20140 39168 40140 333 10260 29061 55100 59007;
0156833390999992008090312004-14050-042617FM-12+088299999V0201401N005110042019N0100001N1+01871+01451101551ADDGF106991061021004501001001KA1240N+01681MA1999999091841MD1999999-0011REMSYN076AAXX  03124 83339 32497 61410 10187 20145 39184 40155 86200 333 20168 59001;
0137833390999992008090318004-14050-042617FM-12+088299999V0201401N003112200019N0100001N1+02631+01151101041ADDGF103991031021004501001001MA1999999091481MD1999999+0001REMSYN070AAXX  03184 83339 32497 31406 10263 20115 39148 40104 83200 333 58000;
0178833390999992008090400004-14050-042617FM-12+088299999V0201401N003112200019N0020001N1+02191+01261101271ADDGA1001+999999999GF100991001001999999001001KA1240M+02761MA1999999091611MD1999999-0071REMSYN082AAXX  04004 83339 32995 01406 10219 20126 39161 40127 333 10276 29057 55087 59007;
0156833390999992008090412004-14050-042617FM-12+088299999V0200901N003112200019N0100001N1+01991+01461101431ADDGF102991021021004501001001KA1240N+01561MA1999999091771MD1999999-0071REMSYN076AAXX  04124 83339 32497 20906 10199 20146 39177 40143 82200 333 20156 59007;
0137833390999992008090418004-14050-042617FM-12+088299999V0201401N002112200019N0100001N1+02871+00881100981ADDGF102991021011004501001001MA1999999091461MD1999999-0021REMSYN070AAXX  04184 83339 32497 21404 10287 20088 39146 40098 82100 333 59002;
0178833390999992008090500004-14050-042617FM-12+088299999V0201801N003112200019N0020001N1+02331+00851101221ADDGA1001+999999999GF100991001001999999001001KA1240M+02971MA1999999091601MD1999999-0011REMSYN082AAXX  05004 83339 32995 01806 10233 20085 39160 40122 333 10297 29045 55102 59001;
0156833390999992008090512004-14050-042617FM-12+088299999V0201401N004612200019N0100001N1+01971+01531101361ADDGF103991031021004501001001KA1240N+01601MA1999999091731MD1999999-0041REMSYN076AAXX  05124 83339 32497 31409 10197 20153 39173 40136 83200 333 20160 59004;
0147833390999992008090518004-14050-042617FM-12+088299999V0201401N003612200019N0100001N1+02871+00981100891ADDGA1001+999999999GF100991001001999999001001MA1999999091401MD1999999-0061REMSYN064AAXX  05184 83339 32997 01407 10287 20098 39140 40089 333 59006;
0178833390999992008090600004-14050-042617FM-12+088299999V0201401N005112200019N0020001N1+02371+00921101181ADDGA1001+999999999GF100991001001999999001001KA1240M+02901MA1999999091561MD1999999-0041REMSYN082AAXX  06004 83339 32995 01410 10237 20092 39156 40118 333 10290 29047 55089 59004;
0166833390999992008090612004-14050-042617FM-12+088299999V0201401N003112200019N0100001N1+02091+01281101441ADDGA1001+999999999GF100991001001999999001001KA1240N+01501MA1999999091841MD1999999+0111REMSYN070AAXX  06124 83339 32997 01406 10209 20128 39184 40144 333 20150 58011;
0147833390999992008090618004-14050-042617FM-12+088299999V0203201N001512200019N0100001N1+03111+00541100971ADDGA1001+999999999GF100991001001999999001001MA1999999091511MD1999999+0111REMSYN064AAXX  06184 83339 32997 03203 10311 20054 39151 40097 333 58011;
0166833390999992008090712004-14050-042617FM-12+088299999V0201401N003612200019N0100001N1+02131+01461101581ADDGA1001+999999999GF100991001001999999001001KA1240N+01681MA1999999091991MD1999999+0151REMSYN070AAXX  07124 83339 32997 01407 10213 20146 39199 40158 333 20168 58015;
0147833390999992008090718004-14050-042617FM-12+088299999V0200501N003112200019N0100001N1+03091+00601100971ADDGA1001+999999999GF100991001001999999001001MA1999999091551MD1999999+0041REMSYN064AAXX  07184 83339 32997 00506 10309 20060 39155 40097 333 58004;
0178833390999992008090800004-14050-042617FM-12+088299999V0201401N005112200019N0020001N1+02611+01021101281ADDGA1001+999999999GF100991001001999999001001KA1240M+03181MA1999999091741MD1999999+0051REMSYN082AAXX  08004 83339 32995 01410 10261 20102 39174 40128 333 10318 29040 55107 58005;
0166833390999992008090812004-14050-042617FM-12+088299999V0201401N004612200019N0100001N1+02121+01461101651ADDGA1001+999999999GF100991001001999999001001KA1240N+01671MA1999999092071MD1999999+0081REMSYN070AAXX  08124 83339 32997 01409 10212 20146 39207 40165 333 20167 58008;
0147833390999992008090818004-14050-042617FM-12+088299999V0201401N006212200019N0100001N1+02971+00881101061ADDGA1001+999999999GF100991001001999999001001MA1999999091621MD1999999+0071REMSYN064AAXX  08184 83339 32997 01412 10297 20088 39162 40106 333 58007;
0178833390999992008090900004-14050-042617FM-12+088299999V0201401N005112200019N0020001N1+02391+01231101501ADDGA1001+999999999GF100991001001999999001001KA1240M+03041MA1999999091891MD1999999+0151REMSYN082AAXX  09004 83339 32995 01410 10239 20123 39189 40150 333 10304 29047 55102 58015;
0156833390999992008090912004-14050-042617FM-12+088299999V0201401N006710042019N0100001N1+02031+01361101731ADDGF106991061021004501001001KA1240N+01681MA1999999092081MD1999999+0011REMSYN076AAXX  09124 83339 32497 61413 10203 20136 39208 40173 86200 333 20168 58001;
0147833390999992008090918004-14050-042617FM-12+088299999V0200901N005112200019N0100001N1+02691+01111101241ADDGA1001+999999999GF100991001001999999001001MA1999999091701MD1999999+0081REMSYN064AAXX  09184 83339 32997 00910 10269 20111 39170 40124 333 58008;
0178833390999992008091000004-14050-042617FM-12+088299999V0201401N008212200019N0020001N1+02231+01211101611ADDGA1001+999999999GF100991001001999999001001KA1240M+02741MA1999999091951MD1999999+0061REMSYN082AAXX  10004 83339 32995 01416 10223 20121 39195 40161 333 10274 29052 55104 58006;
0166833390999992008091012004-14050-042617FM-12+088299999V0201401N007712200019N0100001N1+02011+01111101851ADDGA1001+999999999GF100991001001999999001001KA1240N+01541MA1999999092151MD1999999+0071REMSYN070AAXX  10124 83339 32997 01415 10201 20111 39215 40185 333 20154 58007;
0147833390999992008091018004-14050-042617FM-12+088299999V0200901N006712200019N0100001N1+02671+01011101341ADDGA1001+999999999GF100991001001999999001001MA1999999091771MD1999999+0071REMSYN064AAXX  10184 83339 32997 00913 10267 20101 39177 40134 333 58007;
0166833390999992008091112004-14050-042617FM-12+088299999V0201401N007212200019N0100001N1+02011+01341101821ADDGA1001+999999999GF100991001001999999001001KA1240N+01541MA1999999092131MD1999999-0021REMSYN070AAXX  11124 83339 32997 01414 10201 20134 39213 40182 333 20154 59002;
0147833390999992008091118004-14050-042617FM-12+088299999V0200901N007712200019N0100001N1+02651+01191101281ADDGA1001+999999999GF100991001001999999001001MA1999999091691MD1999999-0081REMSYN064AAXX  11184 83339 32997 00915 10265 20119 39169 40128 333 59008;
0178833390999992008091200004-14050-042617FM-12+088299999V0201401N004112200019N0020001N1+02231+01151101601ADDGA1001+999999999GF100991001001999999001001KA1240M+02701MA1999999091931MD1999999-0041REMSYN082AAXX  12004 83339 32995 01408 10223 20115 39193 40160 333 10270 29051 55102 59004;
0156833390999992008091212004-14050-042617FM-12+088299999V0200901N003612200019N0100001N1+02091+01441101741ADDGF102991021011004501001001KA1240N+01541MA1999999092071MD1999999-0061REMSYN076AAXX  12124 83339 32497 20907 10209 20144 39207 40174 82100 333 20154 59006;
0147833390999992008091218004-14050-042617FM-12+088299999V0201401N003612200019N0100001N1+02761+01031101141ADDGA1001+999999999GF100991001001999999001001MA1999999091611MD1999999-0081REMSYN064AAXX  12184 83339 32997 01407 10276 20103 39161 40114 333 59008;
0178833390999992008091300004-14050-042617FM-12+088299999V0201401N004112200019N0020001N1+02391+01131101351ADDGA1001+999999999GF100991001001999999001001KA1240M+02841MA1999999091751MD1999999-0181REMSYN082AAXX  13004 83339 32995 01408 10239 20113 39175 40135 333 10284 29048 55101 59018;
0166833390999992008091312004-14050-042617FM-12+088299999V0200901N003112200019N0100001N1+02171+01491101561ADDGA1001+999999999GF100991001001999999001001KA1240N+01531MA1999999091971MD1999999-0101REMSYN070AAXX  13124 83339 32997 00906 10217 20149 39197 40156 333 20153 59010;
0137833390999992008091318004-14050-042617FM-12+088299999V0200901N003112200019N0100001N1+03101+00751100841ADDGF102991021011004501001001MA1999999091421MD1999999-0191REMSYN070AAXX  13184 83339 32497 20906 10310 20075 39142 40084 82100 333 59019;
0156833390999992008091412004-14050-042617FM-12+088299999V0201401N002612200019N0100001N1+02231+01481101481ADDGF102991021011004501001001KA1240N+01651MA1999999091921MD1999999-0051REMSYN076AAXX  14124 83339 32497 21405 10223 20148 39192 40148 82100 333 20165 59005;
0156833390999992008091418004-14050-042617FM-12+088299999V0201401N003612200019N0100001N1+03101+00611100871ADDGF103991001001999999001041MA1999999091461MD1999999+0041REMSYN070AAXX  14184 83339 32897 31407 10310 20061 39146 40087 80004 333 58004;EQDQ01+022502SCOLCB
0156833390999992008091512004-14050-042617FM-12+088299999V0200901N003112200019N0100001N1+02231+01481101431ADDGF104991031021004501021001KA1240N+01701MA1999999091901MD1999999-0021REMSYN076AAXX  15124 83339 32497 40906 10223 20148 39190 40143 83220 333 20170 59002;
0137833390999992008091518004-14050-042617FM-12+088299999V0200901N007710042019N0100001N1+03051+00821100941ADDGF106991051021004501021001MA1999999091531MD1999999+0071REMSYN070AAXX  15184 83339 32497 60915 10305 20082 39153 40094 85220 333 58007;
0168833390999992008091600004-14050-042617FM-12+088299999V0200901N002612200019N0020001N1+02371+01321101431ADDGF102991021011004501001001KA1240M+03101MA1999999091851MD1999999+0171REMSYN088AAXX  16004 83339 32495 20905 10237 20132 39185 40143 82100 333 10310 29048 55091 58017;
0156833390999992008091612004-14050-042617FM-12+088299999V0200501N003112200019N0100001N1+02051+01451101551ADDGF102991011021004501001021KA1240N+01681MA1999999091921MD1999999+0021REMSYN076AAXX  16124 83339 32497 20506 10205 20145 39192 40155 81202 333 20168 58002;
0137833390999992008091618004-14050-042617FM-12+088299999V0200501N002112200019N0100001N1+03091+00731100971ADDGF102991021011004501001001MA1999999091541MD1999999+0011REMSYN070AAXX  16184 83339 32497 20504 10309 20073 39154 40097 82100 333 58001;
0178833390999992008091700004-14050-042617FM-12+088299999V0201401N003612200019N0020001N1+02511+01081101291ADDGA1001+999999999GF100991001001999999001001KA1240M+03161MA1999999091731MD1999999-0121REMSYN082AAXX  17004 83339 32995 01407 10251 20108 39173 40129 333 10316 29044 55104 59012;
0156833390999992008091712004-14050-042617FM-12+088299999V0201401N005112200019N0100001N1+02031+01521101421ADDGF103991031021004501001001KA1240N+01681MA1999999091821MD1999999-0101REMSYN076AAXX  17124 83339 32497 31410 10203 20152 39182 40142 83200 333 20168 59010;
0137833390999992008091718004-14050-042617FM-12+088299999V0200501N003112200019N0100001N1+02951+00901100971ADDGF102991021011004501001001MA1999999091511MD1999999-0031REMSYN070AAXX  17184 83339 32497 20506 10295 20090 39151 40097 82100 333 59003;
0178833390999992008091800004-14050-042617FM-12+088299999V0201401N003612200019N0020001N1+02471+01151101201ADDGA1001+999999999GF100991001001999999001001KA1240M+03001MA1999999091631MD1999999-0101REMSYN082AAXX  18004 83339 32995 01407 10247 20115 39163 40120 333 10300 29047 55091 59010;
0156833390999992008091812004-14050-042617FM-12+088299999V0200501N004610042019N0100001N1+01931+01511101441ADDGF106991061021004501001001KA1240N+01731MA1999999091821MD1999999+0001REMSYN076AAXX  18124 83339 32497 60509 10193 20151 39182 40144 86200 333 20173 58000;
0147833390999992008091818004-14050-042617FM-12+088299999V0200501N001512200019N0100001N1+02871+01251100821ADDGA1001+999999999GF100991001001999999001001MA1999999091401MD1999999-0111REMSYN064AAXX  18184 83339 32997 00503 10287 20125 39140 40082 333 59011;
0168833390999992008091900004-14050-042617FM-12+088299999V0201401N002612200019N0020001N1+02351+01241101261ADDGF102991021021004501001001KA1240M+02961MA1999999091641MD1999999+0011REMSYN088AAXX  19004 83339 32495 21405 10235 20124 39164 40126 82200 333 10296 29054 55078 58001;
0156833390999992008091912004-14050-042617FM-12+088299999V0202301N008210042019N0100001N1+02051+01521101561ADDGF106991061021004501001001KA1240N+01861MA1999999091931MD1999999+0111REMSYN076AAXX  19124 83339 32497 62316 10205 20152 39193 40156 86200 333 20186 58011;
0137833390999992008091918004-14050-042617FM-12+088299999V0201401N006212200019N0100001N1+02651+00971101171ADDGF104991031021004501031001MA1999999091641MD1999999+0241REMSYN070AAXX  19184 83339 32497 41412 10265 20097 39164 40117 83230 333 58024;
0168833390999992008092000004-14050-042617FM-12+088299999V0201401N006710042019N0020001N1+02091+01451101581ADDGF106991061021004501001001KA1240M+02721MA1999999091891MD1999999+0251REMSYN088AAXX  20004 83339 32495 61413 10209 20145 39189 40158 86200 333 10272 29060 55071 58025;
0201833390999992008092012004-14050-042617FM-12+088299999V0201801N006210042019N0100001N1+01771+01491101811ADDAA124000591AY161061AY261061GF106991051021004501021001KA1240N+01461MA1999999092051MD1999999+0121MW1101REMSYN088AAXX  20124 83339 21497 61812 10177 20149 39205 40181 71066 85220 333 20146 58012 69944;
0137833390999992008092018004-14050-042617FM-12+088299999V0200501N007212200019N0100001N1+02471+01411101321ADDGF103991031021004501001001MA1999999091671MD1999999+0031REMSYN070AAXX  20184 83339 32497 30514 10247 20141 39167 40132 83200 333 58003;
0156833390999992008092112004-14050-042617FM-12+088299999V0200501N004610042019N0100001N1+02011+01541101621ADDGF106991061021004501001001KA1240N+01641MA1999999091931MD1999999-0121REMSYN076AAXX  21124 83339 32497 60509 10201 20154 39193 40162 86200 333 20164 59012;
0137833390999992008092118004-14050-042617FM-12+088299999V0201401N003612200019N0100001N1+02891+01271101021ADDGF103991031021004501001001MA1999999091501MD1999999-0171REMSYN070AAXX  21184 83339 32497 31407 10289 20127 39150 40102 83200 333 59017;
0166833390999992008092212004-14050-042617FM-12+088299999V0200501N001512200019N0100001N1+02271+01611101351ADDGA1001+999999999GF100991001001999999001001KA1240N+01641MA1999999091801MD1999999-0131REMSYN070AAXX  22124 83339 32997 00503 10227 20161 39180 40135 333 20164 59013;
0137833390999992008092218004-14050-042617FM-12+088299999V0200501N002110042019N0100001N1+02951+01501100771ADDGF106991061021004501001001MA1999999091341MD1999999-0161REMSYN070AAXX  22184 83339 32497 60504 10295 20150 39134 40077 86200 333 59016;
0178833390999992008092300004-14050-042617FM-12+088299999V0209999C000012200019N0020001N1+02471+01491100841ADDGA1001+999999999GF100991001001999999001001KA1240M+03021MA1999999091511MD1999999-0141REMSYN082AAXX  23004 83339 32995 00000 10247 20149 39151 40084 333 10302 29054 55068 59014;
0166833390999992008092312004-14050-042617FM-12+088299999V0200501N001512200019N0100001N1+02651+01531100961ADDGA1001+999999999GF100991001001999999001001KA1240N+01721MA1999999091531MD1999999-0271REMSYN070AAXX  23124 83339 32997 00503 10265 20153 39153 40096 333 20172 59027;
0137833390999992008092318004-14050-042617FM-12+088299999V0200501N001510042019N0100001N1+03091+01421100481ADDGF106991061021004501001001MA1999999091111MD1999999-0231REMSYN070AAXX  23184 83339 32497 60503 10309 20142 39111 40048 86200 333 59023;
0213833390999992008092400004-14050-042617FM-12+088299999V0200501N001012200019N0020001N1+02131+01881100921ADDAA106001091AY191061AY261061GF104991041021004501001001KA1240M+03161MA1999999091431MD1999999-0081MW1021REMSYN100AAXX  24004 83339 21495 40502 10213 20188 39143 40092 70296 84200 333 10316 29064 55061 59008 60011;
0201833390999992008092412004-14050-042617FM-12+088299999V0201401N001510042019N0020001N1+01921+01841101511ADDAA124016091AY191061AY261061GF108991051021004501021999KA1240N+01601MA1999999091831MD1999999+0301MW1401REMSYN088AAXX  24124 83339 21495 81403 10192 20184 39183 40151 74096 8522/ 333 20160 58030 60164;
0165833390999992008092418004-14050-042617FM-12+088299999V0200901N003611050019N0100001N1+02431+01761101011ADDAY141061AY221061GF105991011011004501031011MA1999999091411MD1999999+0301MW1021REMSYN076AAXX  24184 83339 31497 50907 10243 20176 39141 40101 70242 81131 333 58030;
0168833390999992008092500004-14050-042617FM-12+088299999V0201401N002112200019N0020001N1+02131+01721101411ADDGF102991011011004501031001KA1240M+02491MA1999999091711MD1999999+0281REMSYN088AAXX  25004 83339 32495 21404 10213 20172 39171 40141 81130 333 10249 29079 55131 58028;
0201833390999992008092512004-14050-042617FM-12+088299999V0201401N006710450019N0020001N1+01801+01741101781ADDAA124000591AY161061AY241061GF108991041051004501021999KA1240N+01781MA1999999092031MD1999999+0201MW1501REMSYN088AAXX  25124 83339 21495 81413 10180 20174 39203 40178 75064 8452/ 333 20178 58020 69964;
0182833390999992008092518004-14050-042617FM-12+088299999V0201401N005112200019N0100001N1+02361+01691101341ADDAA106000021AY151061AY241061GF105991041021004501001011MA1999999091711MD1999999+0301MW1021REMSYN082AAXX  25184 83339 21497 51410 10236 20169 39171 40134 70254 84201 333 58030 69921;
0168833390999992008092600004-14050-042617FM-12+088299999V0201401N005712200019N0020001N1+01991+01621101641ADDGF102991021011004501001001KA1240M+02471MA1999999091881MD1999999+0171REMSYN088AAXX  26004 83339 32495 21411 10199 20162 39188 40164 82100 333 10247 29080 55027 58017;
0201833390999992008092612004-14050-042617FM-12+088299999V0201401N004110042019N0100001N1+01861+01531101841ADDAA124000021AY151061AY211061GF106991061021004501001001KA1240N+01741MA1999999092081MD1999999+0051MW1021REMSYN088AAXX  26124 83339 21497 61408 10186 20153 39208 40184 70251 86200 333 20174 58005 69924;
0137833390999992008092618004-14050-042617FM-12+088299999V0201401N005112200019N0100001N1+02611+01431101051ADDGF103991031021004501001001MA1999999091491MD1999999-0221REMSYN070AAXX  26184 83339 32497 31410 10261 20143 39149 40105 83200 333 59022;
0178833390999992008092700004-14050-042617FM-12+088299999V0201401N004612200019N0020001N1+02091+01531101321ADDGA1001+999999999GF100991001001999999001001KA1240M+02661MA1999999091641MD1999999-0241REMSYN082AAXX  27004 83339 32995 01409 10209 20153 39164 40132 333 10266 29067 55068 59024;
0201833390999992008092712004-14050-042617FM-12+088299999V0201401N002110042019N0020001N1+01751+01711101671ADDAA124010991AY161061AY241061GF108991051051004501021999KA1240N+01721MA1999999091911MD1999999-0171MW1401REMSYN088AAXX  27124 83339 21495 81404 10175 20171 39191 40167 74064 8552/ 333 20172 59017 60114;
0182833390999992008092718004-14050-042617FM-12+088299999V0201401N003110042019N0100001N1+01851+01761101311ADDAA106010991AY161061AY241061GF108991061021004501021999MA1999999091581MD1999999+0091MW1401REMSYN082AAXX  27184 83339 21497 81406 10185 20176 39158 40131 74064 8622/ 333 58009 60111;
0201833390999992008092812004-14050-042617FM-12+088299999V0201401N001510450019N0100001N1+01951+01771101551ADDAA124011991AY161061AY241061GF106991041021004501031001KA1240N+01651MA1999999091801MD1999999-0111MW1021REMSYN088AAXX  28124 83339 21497 61403 10195 20177 39180 40155 70264 84230 333 20165 59011 60124;
0137833390999992008092818004-14050-042617FM-12+088299999V0201401N001512200019N0100001N1+02691+01801100961ADDGF103991021021004501001011MA1999999091381MD1999999-0201REMSYN070AAXX  28184 83339 32497 31403 10269 20180 39138 40096 82201 333 59020;
0156833390999992008092912004-14050-042617FM-12+088299999V0200501N003612200019N0100001N1+02331+01811101371ADDGF102991021021004501001001KA1240N+01761MA1999999091821MD1999999+0021REMSYN076AAXX  29124 83339 32497 20507 10233 20181 39182 40137 82200 333 20176 58002;
0137833390999992008092918004-14050-042617FM-12+088299999V0200501N004612200019N0100001N1+03111+01371100861ADDGF104991041021004501001001MA1999999091451MD1999999+0071REMSYN070AAXX  29184 83339 32497 40509 10311 20137 39145 40086 84200 333 58007;
0168833390999992008093000004-14050-042617FM-12+088299999V0201401N004112200019N0020001N1+02391+01581101241ADDGF102991021021004501001001KA1240M+03171MA1999999091701MD1999999+0151REMSYN088AAXX  30004 83339 32495 21408 10239 20158 39170 40124 82200 333 10317 29058 55107 58015;
0156833390999992008093012004-14050-042617FM-12+088299999V0201401N004612200019N0100001N1+02251+01691101511ADDGF104991041021004501001001KA1240N+01921MA1999999091931MD1999999+0111REMSYN076AAXX  30124 83339 32497 41409 10225 20169 39193 40151 84200 333 20192 58011;
0137833390999992008093018004-14050-042617FM-12+088299999V0200501N003612200019N0100001N1+02871+01551101021ADDGF102991021021004501001001MA1999999091541MD1999999+0091REMSYN070AAXX  30184 83339 32497 20507 10287 20155 39154 40102 82200 333 58009;
0178833390999992008100100004-14050-042617FM-12+088299999V0201401N005112200019N0020001N1+02371+01561101291ADDGA1001+999999999GF100991001001999999001001KA1240M+02941MA1999999091731MD1999999+0031REMSYN082AAXX  01004 83339 32995 01410 10237 20156 39173 40129 333 10294 29060 55101 58003;
0184833390999992008100112004-14050-042617FM-12+088299999V0201401N004610042019N0040001N1+01951+01741101421ADDAY101061AY201061GF108991081051004501999999KA1240N+01681MA1999999091781MD1999999-0151MW1101REMSYN082AAXX  01124 83339 31496 81409 10195 20174 39178 40142 71000 885// 333 20168 59015;
0147833390999992008100118004-14050-042617FM-12+088299999V0200501N003612200019N0100001N1+03071+00771100741ADDGA1001+999999999GF100991001001999999001001MA1999999091331MD1999999-0211REMSYN064AAXX  01184 83339 32997 00507 10307 20077 39133 40074 333 59021;
0178833390999992008100200004-14050-042617FM-12+088299999V0201401N004612200019N0020001N1+02571+01101100951ADDGA1001+999999999GF100991001001999999001001KA1240M+03151MA1999999091401MD1999999-0331REMSYN082AAXX  02004 83339 32995 01409 10257 20110 39140 40095 333 10315 29048 55086 59033;
0166833390999992008100212004-14050-042617FM-12+088299999V0201401N002612200019N0100001N1+02291+01641101091ADDGA1001+999999999GF100991001001999999001001KA1240N+01761MA1999999091601MD1999999-0181REMSYN070AAXX  02124 83339 32997 01405 10229 20164 39160 40109 333 20176 59018;
0137833390999992008100218004-14050-042617FM-12+088299999V0201801N003112200019N0100001N1+03211+00761100541ADDGF102991021021004501001001MA1999999091201MD1999999-0131REMSYN070AAXX  02184 83339 32497 21806 10321 20076 39120 40054 82200 333 59013;
0178833390999992008100300004-14050-042617FM-12+088299999V0201401N004612200019N0020001N1+02651+01051100921ADDGA1001+999999999GF100991001001999999001001KA1240M+03201MA1999999091451MD1999999+0051REMSYN082AAXX  03004 83339 32995 01409 10265 20105 39145 40092 333 10320 29042 55107 58005;
0166833390999992008100312004-14050-042617FM-12+088299999V0200501N001512200019N0100001N1+02351+01601101101ADDGA1001+999999999GF100991001001999999001001KA1240N+01831MA1999999091631MD1999999+0031REMSYN070AAXX  03124 83339 32997 00503 10235 20160 39163 40110 333 20183 58003;
0137833390999992008100318004-14050-042617FM-12+088299999V0200901N004112200019N0100001N1+03191+01051100681ADDGF102991021021004501001001MA1999999091331MD1999999+0131REMSYN070AAXX  03184 83339 32497 20908 10319 20105 39133 40068 82200 333 58013;
0178833390999992008100400004-14050-042617FM-12+088299999V0201401N004612200019N0020001N1+02591+01361101021ADDGA1001+999999999GF100991001001999999001001KA1240M+03101MA1999999091541MD1999999+0091REMSYN082AAXX  04004 83339 32995 01409 10259 20136 39154 40102 333 10310 29046 55107 58009;
0156833390999992008100412004-14050-042617FM-12+088299999V0200501N005112200019N0100001N1+02231+01621101261ADDGF103991031021004501001001KA1240N+01781MA1999999091741MD1999999+0111REMSYN076AAXX  04124 83339 32497 30510 10223 20162 39174 40126 83200 333 20178 58011;
0156833390999992008100512004-14050-042617FM-12+088299999V0200901N007212200019N0100001N1+02241+01571101241ADDGF102991021021004501001001KA1240N+01821MA1999999091701MD1999999-0041REMSYN076AAXX  05124 83339 32497 20914 10224 20157 39170 40124 82200 333 20182 59004;
0137833390999992008100518004-14050-042617FM-12+088299999V0201401N004112200019N0100001N1+03051+01231100781ADDGF102991021021004501001001MA1999999091381MD1999999+0031REMSYN070AAXX  05184 83339 32497 21408 10305 20123 39138 40078 82200 333 58003;
0166833390999992008100612004-14050-042617FM-12+088299999V0200901N005112200019N0100001N1+02371+01581101321ADDGA1001+999999999GF100991001001999999001001KA1240N+01701MA1999999091811MD1999999+0111REMSYN070AAXX  06124 83339 32997 00910 10237 20158 39181 40132 333 20170 58011;
0137833390999992008100618004-14050-042617FM-12+088299999V0200901N004612200019N0100001N1+03251+00521100801ADDGF102991011011004501001011MA1999999091441MD1999999+0061REMSYN070AAXX  06184 83339 32497 20909 10325 20052 39144 40080 81101 333 58006;
0178833390999992008100700004-14050-042617FM-12+088299999V0201401N001512200019N0020001N1+02551+00811101241ADDGA1001+999999999GF100991001001999999001001KA1240M+03331MA1999999091741MD1999999+0181REMSYN082AAXX  07004 83339 32995 01403 10255 20081 39174 40124 333 10333 29037 55109 58018;
0156833390999992008100712004-14050-042617FM-12+088299999V0200901N006712200019N0100001N1+02231+01321101631ADDGF103991011011004501001011KA1240N+01791MA1999999092071MD1999999+0261REMSYN076AAXX  07124 83339 32497 30913 10223 20132 39207 40163 81101 333 20179 58026;
0137833390999992008100718004-14050-042617FM-12+088299999V0200901N007212200019N0100001N1+02871+01141101151ADDGF104991011011004501001011MA1999999091671MD1999999+0231REMSYN070AAXX  07184 83339 32497 40914 10287 20114 39167 40115 81101 333 58023;
0178833390999992008100800004-14050-042617FM-12+088299999V0201401N003112200019N0020001N1+02331+01301101451ADDGA1001+999999999GF100991001001999999001001KA1240M+02921MA1999999091871MD1999999+0131REMSYN082AAXX  08004 83339 32995 01406 10233 20130 39187 40145 333 10292 29049 55097 58013;
0156833390999992008100812004-14050-042617FM-12+088299999V0201401N006210042019N0100001N1+02131+01431101631ADDGF105991051021004501001001KA1240N+01651MA1999999092011MD1999999-0061REMSYN076AAXX  08124 83339 32497 51412 10213 20143 39201 40163 85200 333 20165 59006;
0137833390999992008100818004-14050-042617FM-12+088299999V0201401N006712200019N0100001N1+02661+01301101131ADDGF103991031011004501001001MA1999999091601MD1999999-0071REMSYN070AAXX  08184 83339 32497 31413 10266 20130 39160 40113 83100 333 59007;
0168833390999992008100900004-14050-042617FM-12+088299999V0201401N003612200019N0020001N1+02251+01501101511ADDGF103991021021004501031001KA1240M+02801MA1999999091881MD1999999+0011REMSYN088AAXX  09004 83339 32495 31407 10225 20150 39188 40151 82230 333 10280 29058 55100 58001;
0156833390999992008100912004-14050-042617FM-12+088299999V0201801N006712200019N0100001N1+02111+01341101711ADDGF102991021011004501001001KA1240N+01661MA1999999092061MD1999999+0051REMSYN076AAXX  09124 83339 32497 21813 10211 20134 39206 40171 82100 333 20166 58005;
0137833390999992008100918004-14050-042617FM-12+088299999V0201401N005110042019N0100001N1+02711+01081101111ADDGF105991051021004501001001MA1999999091581MD1999999-0021REMSYN070AAXX  09184 83339 32497 51410 10271 20108 39158 40111 85200 333 59002;
0178833390999992008101000004-14050-042617FM-12+088299999V0201401N005112200019N0020001N1+02291+01461101421ADDGA1001+999999999GF100991001001999999001001KA1240M+02811MA1999999091801MD1999999-0081REMSYN082AAXX  10004 83339 32995 01410 10229 20146 39180 40142 333 10281 29054 55100 59008;
0156833390999992008101012004-14050-042617FM-12+088299999V0201401N008210042019N0100001N1+01831+01451101731ADDGF108991051051004501021999KA1240N+01581MA1999999092031MD1999999-0031REMSYN076AAXX  10124 83339 32497 81416 10183 20145 39203 40173 8552/ 333 20158 59003;
0137833390999992008101018004-14050-042617FM-12+088299999V0201401N005712200019N0100001N1+02451+01441101191ADDGF102991021011004501001001MA1999999091591MD1999999+0011REMSYN070AAXX  10184 83339 32497 21411 10245 20144 39159 40119 82100 333 58001;
0168833390999992008101100004-14050-042617FM-12+088299999V0201401N006710450019N0020001N1+01971+01571101581ADDGF108991041021004501021999KA1240M+02501MA1999999091831MD1999999+0031REMSYN088AAXX  11004 83339 32495 81413 10197 20157 39183 40158 8422/ 333 10250 29072 55077 58003;
0201833390999992008101112004-14050-042617FM-12+088299999V0201401N005710042019N0020001N1+01711+01641101691ADDAA124005191AY161061AY241061GF108991051021004501021999KA1240N+01611MA1999999091911MD1999999-0121MW1501REMSYN088AAXX  11124 83339 21495 81411 10171 20164 39191 40169 75064 8522/ 333 20161 59012 60054;
0182833390999992008101118004-14050-042617FM-12+088299999V0201401N007712200019N0100001N1+02401+01601101211ADDAA106000021AY151061AY221061GF103991031011004501001001MA1999999091571MD1999999-0021MW1021REMSYN082AAXX  11184 83339 21497 31415 10240 20160 39157 40121 70252 83100 333 59002 69901;
0168833390999992008101200004-14050-042617FM-12+088299999V0201801N007710042019N0020001N1+01931+01681101601ADDGF106991051021004501031001KA1240M+02441MA1999999091831MD1999999+0001REMSYN088AAXX  12004 83339 32495 61815 10193 20168 39183 40160 85230 333 10244 29079 55048 58000;
0156833390999992008101212004-14050-042617FM-12+088299999V0200901N006210042019N0100001N1+01951+01531101721ADDGF106991061021004501001001KA1240N+01681MA1999999091971MD1999999+0061REMSYN076AAXX  12124 83339 32497 60912 10195 20153 39197 40172 86200 333 20168 58006;
0137833390999992008101218004-14050-042617FM-12+088299999V0201401N005112200019N0100001N1+02651+01301101161ADDGF102991011011004501001011MA1999999091591MD1999999+0021REMSYN070AAXX  12184 83339 32497 21410 10265 20130 39159 40116 81101 333 58002;
0178833390999992008101300004-14050-042617FM-12+088299999V0201401N003612200019N0020001N1+02291+01171101521ADDGA1001+999999999GF100991001001999999001001KA1240M+02721MA1999999091851MD1999999+0021REMSYN082AAXX  13004 83339 32995 01407 10229 20117 39185 40152 333 10272 29054 55072 58002;
0156833390999992008101312004-14050-042617FM-12+088299999V0200501N006712200019N0100001N1+02151+01381101561ADDGF102991021021004501001001KA1240N+01601MA1999999091931MD1999999-0041REMSYN076AAXX  13124 83339 32497 20513 10215 20138 39193 40156 82200 333 20160 59004;
0147833390999992008101318004-14050-042617FM-12+088299999V0200501N006712200019N0100001N1+02831+01041101001ADDGA1001+999999999GF100991001001999999001001MA1999999091501MD1999999-0091REMSYN064AAXX  13184 83339 32997 00513 10283 20104 39150 40100 333 59009;
0178833390999992008101400004-14050-042617FM-12+088299999V0201801N006212200019N0020001N1+02311+01261101291ADDGA1001+999999999GF100991001001999999001001KA1240M+02801MA1999999091701MD1999999-0151REMSYN082AAXX  14004 83339 32995 01812 10231 20126 39170 40129 333 10280 29050 55108 59015;
0156833390999992008101412004-14050-042617FM-12+088299999V0200501N006712200019N0100001N1+02191+01491101441ADDGF103991031021004501001001KA1240N+01701MA1999999091841MD1999999-0091REMSYN076AAXX  14124 83339 32497 30513 10219 20149 39184 40144 83200 333 20170 59009;
0137833390999992008101418004-14050-042617FM-12+088299999V0200501N006212200019N0100001N1+02911+01021100891ADDGF102991021011004501001001MA1999999091421MD1999999-0081REMSYN070AAXX  14184 83339 32497 20512 10291 20102 39142 40089 82100 333 59008;
0178833390999992008101500004-14050-042617FM-12+088299999V0201401N001512200019N0020001N1+02371+01201101181ADDGA1001+999999999GF100991001001999999001001KA1240M+02981MA1999999091631MD1999999-0071REMSYN082AAXX  15004 83339 32995 01403 10237 20120 39163 40118 333 10298 29048 55111 59007;
0166833390999992008101512004-14050-042617FM-12+088299999V0200901N006212200019N0100001N1+02221+01481101411ADDGA1001+999999999GF100991001001999999001001KA1240N+01621MA1999999091841MD1999999+0001REMSYN070AAXX  15124 83339 32997 00912 10222 20148 39184 40141 333 20162 58000;
0137833390999992008101518004-14050-042617FM-12+088299999V0201801N004612200019N0100001N1+02991+00821100961ADDGF102991021021004501001001MA1999999091481MD1999999+0061REMSYN070AAXX  15184 83339 32497 21809 10299 20082 39148 40096 82200 333 58006;
0178833390999992008101600004-14050-042617FM-12+088299999V0201401N008212200019N0020001N1+02531+01101101221ADDGA1001+999999999GF100991001001999999001001KA1240M+03091MA1999999091681MD1999999+0051REMSYN082AAXX  16004 83339 32995 01416 10253 20110 39168 40122 333 10309 29043 55108 58005;
0156833390999992008101612004-14050-042617FM-12+088299999V0200501N003112200019N0100001N1+02411+01581101371ADDGF102991011021004501031001KA1240N+01701MA1999999091851MD1999999+0011REMSYN076AAXX  16124 83339 32497 20506 10241 20158 39185 40137 81230 333 20170 58001;
0137833390999992008101618004-14050-042617FM-12+088299999V0201401N000512200019N0100001N1+03251+00801100791ADDGF102991021021004501001001MA1999999091431MD1999999-0051REMSYN070AAXX  16184 83339 32497 21401 10325 20080 39143 40079 82200 333 59005;
0178833390999992008101700004-14050-042617FM-12+088299999V0200901N002612200019N0020001N1+02631+00301101021ADDGA1001+999999999GF100991001001999999001001KA1240M+03311MA1999999091551MD1999999-0131REMSYN082AAXX  17004 83339 32995 00905 10263 20030 39155 40102 333 10331 29034 55114 59013;
0156833390999992008101712004-14050-042617FM-12+088299999V0200901N000512200019N0100001N1+02451+01511101151ADDGF103991021021004501001041KA1240N+01761MA1999999091701MD1999999-0151REMSYN076AAXX  17124 83339 32497 30901 10245 20151 39170 40115 82204 333 20176 59015;
0137833390999992008101718004-14050-042617FM-12+088299999V0200501N005112200019N0100001N1+03271+01001100641ADDGF104991031021004501001041MA1999999091311MD1999999-0121REMSYN070AAXX  17184 83339 32497 40510 10327 20100 39131 40064 83204 333 59012;
0168833390999992008101800004-14050-042617FM-12+088299999V0201801N004112200019N0020001N1+02711+00691100841ADDGF102991021021004501001001KA1240M+03331MA1999999091441MD1999999-0111REMSYN088AAXX  18004 83339 32495 21808 10271 20069 39144 40084 82200 333 10333 29034 55106 59011;
0166833390999992008101812004-14050-042617FM-12+088299999V0201401N005712200019N0100001N1+02251+01531101101ADDGA1001+999999999GF100991001001999999001001KA1240N+01801MA1999999091631MD1999999-0071REMSYN070AAXX  18124 83339 32997 01411 10225 20153 39163 40110 333 20180 59007;
0137833390999992008101818004-14050-042617FM-12+088299999V0201401N003112200019N0100001N1+03231+00841100541ADDGF102991011021004501021001MA1999999091231MD1999999-0081REMSYN070AAXX  18184 83339 32497 21406 10323 20084 39123 40054 81220 333 59008;
0178833390999992008101900004-14050-042617FM-12+088299999V0201801N003612200019N0020001N1+02671+01031100881ADDGA1001+999999999GF100991001001999999001001KA1240M+03281MA1999999091411MD1999999-0031REMSYN082AAXX  19004 83339 32995 01807 10267 20103 39141 40088 333 10328 29040 55113 59003;
0156833390999992008101912004-14050-042617FM-12+088299999V0200501N000512200019N0100001N1+02591+01521101141ADDGF102991021011004501001001KA1240N+01861MA1999999091731MD1999999+0101REMSYN076AAXX  19124 83339 32497 20501 10259 20152 39173 40114 82100 333 20186 58010;
0137833390999992008101918004-14050-042617FM-12+088299999V0201401N002110042019N0100001N1+03131+01161100721ADDGF106991061021004501001001MA1999999091361MD1999999+0131REMSYN070AAXX  19184 83339 32497 61404 10313 20116 39136 40072 86200 333 58013;
0168833390999992008102000004-14050-042617FM-12+088299999V0201801N001512200019N0020001N1+02571+01311100981ADDGF103991031021004501001001KA1240M+03231MA1999999091561MD1999999+0151REMSYN088AAXX  20004 83339 32495 31803 10257 20131 39156 40098 83200 333 10323 29044 55072 58015;
0156833390999992008102012004-14050-042617FM-12+088299999V0201401N003612200019N0100001N1+02461+01661101481ADDGF102991021011004501001001KA1240N+01981MA1999999091981MD1999999+0251REMSYN076AAXX  20124 83339 32497 21407 10246 20166 39198 40148 82100 333 20198 58025;
0137833390999992008102018004-14050-042617FM-12+088299999V0201401N004612200019N0100001N1+02931+00851101091ADDGF102991021011004501001001MA1999999091661MD1999999+0301REMSYN070AAXX  20184 83339 32497 21409 10293 20085 39166 40109 82100 333 58030;
0178833390999992008102100004-14050-042617FM-12+088299999V0201401N003612200019N0020001N1+02431+00921101321ADDGA1001+999999999GF100991001001999999001001KA1240M+03021MA1999999091811MD1999999+0251REMSYN082AAXX  21004 83339 32995 01407 10243 20092 39181 40132 333 10302 29041 55113 58025;
0156833390999992008102112004-14050-042617FM-12+088299999V0201401N006712200019N0100001N1+02231+01371101531ADDGF104991041021004501001001KA1240N+01771MA1999999091961MD1999999-0021REMSYN076AAXX  21124 83339 32497 41413 10223 20137 39196 40153 84200 333 20177 59002;
0137833390999992008102118004-14050-042617FM-12+088299999V0200501N005112200019N0100001N1+02791+01111101051ADDGF104991031011004501001011MA1999999091561MD1999999-0101REMSYN070AAXX  21184 83339 32497 40510 10279 20111 39156 40105 83101 333 59010;
0178833390999992008102200004-14050-042617FM-12+088299999V0201401N005112200019N0020001N1+02341+01441101391ADDGA1001+999999999GF100991001001999999001001KA1240M+02881MA1999999091821MD1999999+0011REMSYN082AAXX  22004 83339 32995 01410 10234 20144 39182 40139 333 10288 29052 55103 58001;
0156833390999992008102212004-14050-042617FM-12+088299999V0201401N007210042019N0100001N1+02231+01501101481ADDGF106991061021004501001001KA1240N+01771MA1999999091901MD1999999-0061REMSYN076AAXX  22124 83339 32497 61414 10223 20150 39190 40148 86200 333 20177 59006;
0137833390999992008102218004-14050-042617FM-12+088299999V0201401N004612200019N0100001N1+02871+01351101001ADDGF103991021011004501001011MA1999999091521MD1999999-0041REMSYN070AAXX  22184 83339 32497 31409 10287 20135 39152 40100 82101 333 59004;
0178833390999992008102300004-14050-042617FM-12+088299999V0201401N003112200019N0020001N1+02451+01251101261ADDGA1001+999999999GF100991001001999999001001KA1240M+02971MA1999999091721MD1999999-0101REMSYN082AAXX  23004 83339 32995 01406 10245 20125 39172 40126 333 10297 29049 55104 59010;
0156833390999992008102312004-14050-042617FM-12+088299999V0201401N006712200019N0100001N1+02291+01321101461ADDGF102991011011004501001011KA1240N+01721MA1999999091901MD1999999+0001REMSYN076AAXX  23124 83339 32497 21413 10229 20132 39190 40146 81101 333 20172 58000;
0137833390999992008102318004-14050-042617FM-12+088299999V0200901N005712200019N0100001N1+02851+01031100911ADDGF102991021011004501001001MA1999999091441MD1999999-0081REMSYN070AAXX  23184 83339 32497 20911 10285 20103 39144 40091 82100 333 59008;
0178833390999992008102400004-14050-042617FM-12+088299999V0201401N005112200019N0020001N1+02451+01051101231ADDGA1001+999999999GF100991001001999999001001KA1240M+02921MA1999999091691MD1999999-0031REMSYN082AAXX  24004 83339 32995 01410 10245 20105 39169 40123 333 10292 29042 55115 59003;
0156833390999992008102412004-14050-042617FM-12+088299999V0201401N008212200019N0100001N1+02321+01341101561ADDGF102991021011004501001001KA1240N+01741MA1999999092011MD1999999+0111REMSYN076AAXX  24124 83339 32497 21416 10232 20134 39201 40156 82100 333 20174 58011;
0137833390999992008102418004-14050-042617FM-12+088299999V0200901N005112200019N0100001N1+02961+00971100971ADDGF102991021011004501001001MA1999999091541MD1999999+0101REMSYN070AAXX  24184 83339 32497 20910 10296 20097 39154 40097 82100 333 58010;
0178833390999992008102500004-14050-042617FM-12+088299999V0201401N003112200019N0020001N1+02411+01151101281ADDGA1001+999999999GF100991001001999999001001KA1240M+03021MA1999999091741MD1999999+0051REMSYN082AAXX  25004 83339 32995 01406 10241 20115 39174 40128 333 10302 29043 55102 58005;
0166833390999992008102512004-14050-042617FM-12+088299999V0201401N005112200019N0100001N1+02191+01441101581ADDGA1001+999999999GF100991001001999999001001KA1240N+01721MA1999999091991MD1999999-0021REMSYN070AAXX  25124 83339 32997 01410 10219 20144 39199 40158 333 20172 59002;
0147833390999992008102518004-14050-042617FM-12+088299999V0201401N005112200019N0100001N1+02951+00751100921ADDGA1001+999999999GF100991001001999999001001MA1999999091461MD1999999-0081REMSYN064AAXX  25184 83339 32997 01410 10295 20075 39146 40092 333 59008;
0178833390999992008102600004-14050-042617FM-12+088299999V0201801N004612200019N0020001N1+02461+00901101301ADDGA1001+999999999GF100991001001999999001001KA1240M+03011MA1999999091661MD1999999-0081REMSYN082AAXX  26004 83339 32995 01809 10246 20090 39166 40130 333 10301 29040 55115 59008;
0166833390999992008102612004-14050-042617FM-12+088299999V0201401N003112200019N0100001N1+02491+01501101311ADDGA1001+999999999GF100991001001999999001001KA1240N+01851MA1999999091821MD1999999-0171REMSYN070AAXX  26124 83339 32997 01406 10249 20150 39182 40131 333 20185 59017;
0137833390999992008102618004-14050-042617FM-12+088299999V0201801N003112200019N0100001N1+03071+01021100761ADDGF102991021011004501001001MA1999999091361MD1999999-0101REMSYN070AAXX  26184 83339 32497 21806 10307 20102 39136 40076 82100 333 59010;
0178833390999992008102700004-14050-042617FM-12+088299999V0201401N003112200019N0020001N1+02581+00921101051ADDGA1001+999999999GF100991001001999999001001KA1240M+03181MA1999999091611MD1999999-0051REMSYN082AAXX  27004 83339 32995 01406 10258 20092 39161 40105 333 10318 29038 55115 59005;
0156833390999992008102712004-14050-042617FM-12+088299999V0201401N003112200019N0100001N1+02511+01561101161ADDGF102991021011004501001001KA1240N+01831MA1999999091711MD1999999-0111REMSYN076AAXX  27124 83339 32497 21406 10251 20156 39171 40116 82100 333 20183 59011;
0137833390999992008102718004-14050-042617FM-12+088299999V0201401N004612200019N0100001N1+03271+01001100581ADDGF103991031021004501001001MA1999999091251MD1999999-0111REMSYN070AAXX  27184 83339 32497 31409 10327 20100 39125 40058 83200 333 59011;
0178833390999992008102800004-14050-042617FM-12+088299999V0201801N001512200019N0020001N1+02771+00991100761ADDGA1001+999999999GF100991001001999999001001KA1240M+03391MA1999999091381MD1999999-0231REMSYN082AAXX  28004 83339 32995 01803 10277 20099 39138 40076 333 10339 29037 55112 59023;
0185833390999992008102812004-14050-042617FM-12+088299999V0200501N005112200019N0100001N1+02771+01561100871ADDGA1001+999999999GF100991001001999999001001KA1240N+01931MA1999999999999MD1999999-0191REMSYN070AAXX  28124 83339 32997 00510 10277 20156 30152 40087 333 20193 59019;EQDQ01 101523APOSP 
0156833390999992008102818004-14050-042617FM-12+088299999V0201401N003112200019N0100001N1+03461+00841100381ADDGF103991031021004501001001MA1999999091142MD1999999-0111REMSYN070AAXX  28184 83339 32497 31406 10346 20084 39114 40038 83200 333 59011;EQDQ01+091143APOSP 
0178833390999992008102900004-14050-042617FM-12+088299999V0201401N004612200019N0020001N1+02811+01031100671ADDGA1001+999999999GF100991001001999999001001KA1240M+03501MA1999999091361MD1999999-0021REMSYN082AAXX  29004 83339 32995 01409 10281 20103 39136 40067 333 10350 29034 55110 59002;
0156833390999992008102912004-14050-042617FM-12+088299999V0201401N008710450019N0100001N1+02291+01461101021ADDGF105991041021004501021001KA1240N+01871MA1999999091581MD1999999+0061REMSYN076AAXX  29124 83339 32497 51417 10229 20146 39158 40102 84220 333 20187 58006;
0168833390999992008103000004-14050-042617FM-12+088299999V0201401N004612200019N0020001N1+02491+01301100891ADDGF102991021021004501001001KA1240M+03201MA1999999091401MD1999999+0041REMSYN088AAXX  30004 83339 32495 21409 10249 20130 39140 40089 82200 333 10320 29046 55100 58004;
0137833390999992008103018004-14050-042617FM-12+088299999V0201401N002612200019N0100001N1+03251+00991100661ADDGF104991031021004501021001MA1999999091311MD1999999+0111REMSYN070AAXX  30184 83339 32497 41405 10325 20099 39131 40066 83220 333 58011;
0168833390999992008103100004-14050-042617FM-12+088299999V0201801N004112200019N0020001N1+02731+00911100891ADDGF102991021011004501001001KA1240M+03371MA1999999091461MD1999999+0061REMSYN088AAXX  31004 83339 32495 21808 10273 20091 39146 40089 82100 333 10337 29037 55113 58006;
0156833390999992008103112004-14050-042617FM-12+088299999V0200501N005112200019N0100001N1+02551+01601101001ADDGF102991021011004501001001KA1240N+01921MA1999999091601MD1999999-0171REMSYN076AAXX  31124 83339 32497 20510 10255 20160 39160 40100 82100 333 20192 59017;
0137833390999992008103118004-14050-042617FM-12+088299999V0200501N004612200019N0100001N1+03351+01071100491ADDGF102991011021004501021001MA1999999091221MD1999999-0091REMSYN070AAXX  31184 83339 32497 20509 10335 20107 39122 40049 81220 333 59009;
0178833390999992008110100004-14050-042617FM-12+088299999V0200901N001512200019N0020001N1+02711+01231100771ADDGA1001+999999999GF100991001001999999001001KA1240M+03411MA1999999091391MD1999999-0071REMSYN082AAXX  01004 83339 32995 00903 10271 20123 39139 40077 333 10341 29040 55115 59007;
0156833390999992008110112004-14050-042617FM-12+088299999V0200501N008212200019N0100001N1+02391+01501101121ADDGF102991021011004501001001KA1240N+01861MA1999999091671MD1999999+0071REMSYN076AAXX  01124 83339 32497 20516 10239 20150 39167 40112 82100 333 20186 58007;
0137833390999992008110118004-14050-042617FM-12+088299999V0200501N006712200019N0100001N1+03151+01021100651ADDGF102991021011004501001001MA1999999091301MD1999999+0021REMSYN070AAXX  01184 83339 32497 20513 10315 20102 39130 40065 82100 333 58002;
0178833390999992008110200004-14050-042617FM-12+088299999V0200901N006712200019N0020001N1+02571+01101100981ADDGA1001+999999999GF100991001001999999001001KA1240M+03201MA1999999091521MD1999999+0131REMSYN082AAXX  02004 83339 32995 00913 10257 20110 39152 40098 333 10320 29041 55102 58013;
0156833390999992008110212004-14050-042617FM-12+088299999V0200501N006712200019N0100001N1+02331+01311101411ADDGF102991011021004501021001KA1240N+01741MA1999999091891MD1999999+0221REMSYN076AAXX  02124 83339 32497 20513 10233 20131 39189 40141 81220 333 20174 58022;
0147833390999992008110218004-14050-042617FM-12+088299999V0200501N004612200019N0100001N1+03011+00781100861ADDGA1001+999999999GF100991001001999999001001MA1999999091451MD1999999+0151REMSYN064AAXX  02184 83339 32997 00509 10301 20078 39145 40086 333 58015;
0178833390999992008110300004-14050-042617FM-12+088299999V0201401N004612200019N0020001N1+02551+01011101151ADDGA1001+999999999GF100991001001999999001001KA1240M+02961MA1999999091651MD1999999+0131REMSYN082AAXX  03004 83339 32995 01409 10255 20101 39165 40115 333 10296 29038 55117 58013;
0166833390999992008110312004-14050-042617FM-12+088299999V0201401N003112200019N0100001N1+02561+01471101271ADDGA1001+999999999GF100991001001999999001001KA1240N+01781MA1999999091811MD1999999-0081REMSYN070AAXX  03124 83339 32997 01406 10256 20147 39181 40127 333 20178 59008;
0147833390999992008110318004-14050-042617FM-12+088299999V0200501N002612200019N0100001N1+03371+00451100661ADDGA1001+999999999GF100991001001999999001001MA1999999091331MD1999999-0121REMSYN064AAXX  03184 83339 32997 00505 10337 20045 39133 40066 333 59012;
0178833390999992008110400004-14050-042617FM-12+088299999V0201401N003112200019N0020001N1+02791+00931100891ADDGA1001+999999999GF100991001001999999001001KA1240M+03491MA1999999091521MD1999999-0131REMSYN082AAXX  04004 83339 32995 01406 10279 20093 39152 40089 333 10349 29032 55114 59013;
0166833390999992008110412004-14050-042617FM-12+088299999V0201401N002612200019N0100001N1+02831+01501100931ADDGA1001+999999999GF100991001001999999001001KA1240N+01991MA1999999091601MD1999999-0211REMSYN070AAXX  04124 83339 32997 01405 10283 20150 39160 40093 333 20199 59021;
0137833390999992008110418004-14050-042617FM-12+088299999V0201401N002612200019N0100001N1+03501+00941100391ADDGF104991041021004501001001MA1999999091161MD1999999-0171REMSYN070AAXX  04184 83339 32497 41405 10350 20094 39116 40039 84200 333 59017;
0178833390999992008110500004-14050-042617FM-12+088299999V0201401N001512200019N0020001N1+02831+00761100621ADDGA1001+999999999GF100991001001999999001001KA1240M+03631MA1999999091341MD1999999-0181REMSYN082AAXX  05004 83339 32995 01403 10283 20076 39134 40062 333 10363 29030 55111 59018;
0166833390999992008110512004-14050-042617FM-12+088299999V0200901N002112200019N0100001N1+02871+01221100871ADDGA1001+999999999GF100991001001999999001001KA1240N+02131MA1999999091561MD1999999-0041REMSYN070AAXX  05124 83339 32997 00904 10287 20122 39156 40087 333 20213 59004;
0137833390999992008110518004-14050-042617FM-12+088299999V0200901N004612200019N0100001N1+03491+00791100241ADDGF104991041021004501001001MA1999999091051MD1999999-0111REMSYN070AAXX  05184 83339 32497 40909 10349 20079 39105 40024 84200 333 59011;
0168833390999992008110600004-14050-042617FM-12+088299999V0200901N002112200019N0020001N1+02781+00961100681ADDGF102991021021004501001001KA1240M+03611MA1999999091391MD1999999+0051REMSYN088AAXX  06004 83339 32495 20904 10278 20096 39139 40068 82200 333 10361 29030 55108 58005;
0166833390999992008110612004-14050-042617FM-12+088299999V0200901N001512200019N0100001N1+02671+01391100931ADDGA1001+999999999GF100991001001999999001001KA1240N+02121MA1999999091571MD1999999+0011REMSYN070AAXX  06124 83339 32997 00903 10267 20139 39157 40093 333 20212 58001;
0137833390999992008110618004-14050-042617FM-12+088299999V0200501N002612200019N0100001N1+03541+01381100221ADDGF102991021011004501001001MA1999999091031MD1999999-0021REMSYN070AAXX  06184 83339 32497 20505 10354 20138 39103 40022 82100 333 59002;
0178833390999992008110700004-14050-042617FM-12+088299999V0201401N004112200019N0020001N1+02851+00981100531ADDGA1001+999999999GF100991001001999999001001KA1240M+03611MA1999999091221MD1999999-0171REMSYN082AAXX  07004 83339 32995 01408 10285 20098 39122 40053 333 10361 29030 55109 59017;
0166833390999992008110712004-14050-042617FM-12+088299999V0203601N003112200019N0100001N1+02781+01301100781ADDGA1001+999999999GF100991001001999999001001KA1240N+02071MA1999999091461MD1999999-0111REMSYN070AAXX  07124 83339 32997 03606 10278 20130 39146 40078 333 20207 59011;
0137833390999992008110718004-14050-042617FM-12+088299999V0200901N001510042019N0100001N1+03431+00891100201ADDGF106991061021004501001001MA1999999090991MD1999999-0041REMSYN070AAXX  07184 83339 32497 60903 10343 20089 39099 40020 86200 333 59004;
0168833390999992008110800004-14050-042617FM-12+088299999V0201401N002112200019N0020001N1+02891+01281100501ADDGF103991031021004501001001KA1240M+03531MA1999999091231MD1999999+0011REMSYN088AAXX  08004 83339 32495 31404 10289 20128 39123 40050 83200 333 10353 29034 55079 58001;
0156833390999992008110812004-14050-042617FM-12+088299999V0201401N001012200019N0100001N1+02671+01671100831ADDGF102991021011004501001001KA1240N+02241MA1999999091511MD1999999+0051REMSYN076AAXX  08124 83339 32497 21402 10267 20167 39151 40083 82100 333 20224 58005;
0137833390999992008110818004-14050-042617FM-12+088299999V0202301N003110042019N0100001N1+03181+01441100341ADDGF106991061021004501001001MA1999999091101MD1999999+0111REMSYN070AAXX  08184 83339 32497 62306 10318 20144 39110 40034 86200 333 58011;
0168833390999992008110900004-14050-042617FM-12+088299999V0201801N005110042019N0020001N1+02541+01631100821ADDGF106991061021004501001001KA1240M+03271MA1999999091421MD1999999+0191REMSYN088AAXX  09004 83339 32495 61810 10254 20163 39142 40082 86200 333 10327 29051 55056 58019;
0156833390999992008110912004-14050-042617FM-12+088299999V0201401N002612200019N0100001N1+02541+01781100901ADDGF104991011011004501031011KA1240N+02301MA1999999091471MD1999999-0041REMSYN076AAXX  09124 83339 32497 41405 10254 20178 39147 40090 81131 333 20230 59004;
0182833390999992008110918004-14050-042617FM-12+088299999V0203201N002110450019N0100001N1+02291+01961100691ADDAA106016091AY191061AY261061GF108991041021004501021999MA1999999091201MD1999999+0101MW1021REMSYN082AAXX  09184 83339 21497 83204 10229 20196 39120 40069 70296 8422/ 333 58010 60161;
0213833390999992008111000004-14050-042617FM-12+088299999V0202301N001010042019N0020001N1+02291+01961100821ADDAA106008991AY161061AY221061GF108991051021004501021999KA1240M+03221MA1999999091341MD1999999-0081MW1021REMSYN100AAXX  10004 83339 21495 82302 10229 20196 39134 40082 70262 8522/ 333 10322 29077 55026 59008 60091;
0201833390999992008111012004-14050-042617FM-12+088299999V0200901N001010042019N0100001N1+02371+01891101061ADDAA124024991AY161061AY261061GF106991051021004501031001KA1240N+02001MA1999999091541MD1999999+0071MW1021REMSYN088AAXX  10124 83339 21497 60902 10237 20189 39154 40106 70266 85230 333 20200 58007 60254;
0137833390999992008111018004-14050-042617FM-12+088299999V0202301N002110042019N0100001N1+02791+01641100671ADDGF106991061021004501001001MA1999999091221MD1999999+0021REMSYN070AAXX  10184 83339 32497 62304 10279 20164 39122 40067 86200 333 58002;
0168833390999992008111100004-14050-042617FM-12+088299999V0202301N001510042019N0020001N1+02511+01561100831ADDGF106991061021004501001001KA1240M+02921MA1999999091361MD1999999+0021REMSYN088AAXX  11004 83339 32495 62303 10251 20156 39136 40083 86200 333 10292 29059 55032 58002;
0201833390999992008111112004-14050-042617FM-12+088299999V0201401N002110042019N0040001N1+02151+01861101011ADDAA124000591AY161061AY261061GF107991061021004501021999KA1240N+02081MA1999999091491MD1999999-0051MW1101REMSYN088AAXX  11124 83339 21496 71404 10215 20186 39149 40101 71066 8622/ 333 20208 59005 69964;
0137833390999992008111118004-14050-042617FM-12+088299999V0201401N003110042019N0100001N1+02781+01851100491ADDGF106991051021004501021001MA1999999091101MD1999999-0121REMSYN070AAXX  11184 83339 32497 61406 10278 20185 39110 40049 85220 333 59012;
0213833390999992008111200004-14050-042617FM-12+088299999V0201401N005710042019N0020001N1+01991+01911101031ADDAA106009991AY191061AY261061GF108991081051004501999999KA1240M+02851MA1999999091391MD1999999+0031MW1101REMSYN100AAXX  12004 83339 21495 81411 10199 20191 39139 40103 71096 885// 333 10285 29083 55024 58003 60101;
0201833390999992008111212004-14050-042617FM-12+088299999V0201401N002110042019N0040001N1+02131+01951101041ADDAA124010991AY161061AY261061GF108991081051004501999999KA1240N+01931MA1999999091401MD1999999-0091MW1101REMSYN088AAXX  12124 83339 21496 81404 10213 20195 39140 40104 71066 885// 333 20193 59009 60114;
0182833390999992008111218004-14050-042617FM-12+088299999V0202701N001510042019N0040001N1+02211+01941100661ADDAA106003091AY191061AY261061GF106991051021004501031001MA1999999091071MD1999999-0031MW1171REMSYN082AAXX  12184 83339 21496 62703 10221 20194 39107 40066 71796 85230 333 59003 60031;
0213833390999992008111300004-14050-042617FM-12+088299999V0202301N000510042019N0020001N1+02171+01971100811ADDAA106000891AY161061AY261061GF106991051021004501021001KA1240M+02681MA1999999091231MD1999999-0161MW1101REMSYN100AAXX  13004 83339 21495 62301 10217 20197 39123 40081 71066 85220 333 10268 29088 55022 59016 69981;
0207833390999992008111312004-14050-042617FM-12+088299999V0201401N002610042019N0040001N1+01971+01771100971ADDAA124004091AY161061AY261061GF108991081051004501999999KA1240N+01921MA1999999091341MD1999999-0061MW1101REMSYN094AAXX  13124 83339 21496 81405 10197 20177 39134 40097 71066 885// 333 20192 59006 60044 10036;
0137833390999992008111318004-14050-042617FM-12+088299999V0201401N003110042019N0040001N1+02331+01811100641ADDGF107991061021004501021999MA1999999091101MD1999999+0031REMSYN070AAXX  13184 83339 32496 71406 10233 20181 39110 40064 8622/ 333 58003;
0213833390999992008111400004-14050-042617FM-12+088299999V0202701N001510042019N0020001N1+02051+01911101001ADDAA106005191AY161061AY261061GF108991081051004501999999KA1240M+02381MA1999999091341MD1999999+0111MW1601REMSYN100AAXX  14004 83339 21495 82703 10205 20191 39134 40100 76066 885// 333 10238 29086 55000 58011 60051;
0201833390999992008111412004-14050-042617FM-12+088299999V0200901N003110042019N0100001N1+02131+01931101051ADDAA124006191AY161061AY261061GF106991051021004501021001KA1240N+01961MA1999999091431MD1999999+0091MW1101REMSYN088AAXX  14124 83339 21497 60906 10213 20193 39143 40105 71066 85220 333 20196 58009 60064;
0137833390999992008111418004-14050-042617FM-12+088299999V0201401N003110042019N0100001N1+02811+01661100571ADDGF106991061021004501001001MA1999999091111MD1999999+0011REMSYN070AAXX  14184 83339 32497 61406 10281 20166 39111 40057 86200 333 58001;
0168833390999992008111500004-14050-042617FM-12+088299999V0209999C000012200019N0020001N1+02391+01751100741ADDGF104991031021004501021001KA1240M+02901MA1999999091211MD1999999-0131REMSYN088AAXX  15004 83339 32495 40000 10239 20175 39121 40074 83220 333 10290 29069 55044 59013;
0184833390999992008111512004-14050-042617FM-12+088299999V0201401N003110042019N0100001N1+02131+01801100881ADDAY101061AY201061GF106991051021004501031001KA1240N+01921MA1999999091341MD1999999-0091MW1101REMSYN082AAXX  15124 83339 31497 61406 10213 20180 39134 40088 71000 85230 333 20192 59009;
0137833390999992008111518004-14050-042617FM-12+088299999V0200501N001012200019N0100001N1+02891+01601100401ADDGF103991031021004501001001MA1999999091001MD1999999-0111REMSYN070AAXX  15184 83339 32497 30502 10289 20160 39100 40040 83200 333 59011;
0168833390999992008111600004-14050-042617FM-12+088299999V0201801N004110042019N0020001N1+02651+01631100531ADDGF105991051021004501001001KA1240M+03911MA1999999091071MD1999999-0141REMSYN088AAXX  16004 83339 32495 51808 10265 20163 39107 40053 85200 333 10391 29059 55067 59014;
0156833390999992008111612004-14050-042617FM-12+088299999V0200501N003110042019N0100001N1+02531+01731100681ADDGF106991051021004501001021KA1240N+02201MA1999999091291MD1999999-0051REMSYN076AAXX  16124 83339 32497 60506 10253 20173 39129 40068 85202 333 20220 59005;
0137833390999992008111618004-14050-042617FM-12+088299999V0202301N002110042019N0100001N1+03001+02001100411ADDGF106991051021004501021001MA1999999091081MD1999999+0081REMSYN070AAXX  16184 83339 32497 62304 10300 20200 39108 40041 85220 333 58008;
0168833390999992008111700004-14050-042617FM-12+088299999V0201801N001512200019N0020001N1+02491+01541100631ADDGF104991041021004501001001KA1240M+03101MA1999999091211MD1999999+0141REMSYN088AAXX  17004 83339 32495 41803 10249 20154 39121 40063 84200 333 10310 29057 55027 58014;
0156833390999992008111712004-14050-042617FM-12+088299999V0201401N005112200019N0100001N1+02491+01721100871ADDGF104991011011004501031001KA1240N+02141MA1999999091431MD1999999+0141REMSYN076AAXX  17124 83339 32497 41410 10249 20172 39143 40087 81130 333 20214 58014;
0137833390999992008111718004-14050-042617FM-12+088299999V0200901N003612200019N0100001N1+03091+01141100391ADDGF102991021011004501001001MA1999999091061MD1999999-0021REMSYN070AAXX  17184 83339 32497 20907 10309 20114 39106 40039 82100 333 59002;
0168833390999992008111800004-14050-042617FM-12+088299999V0201401N004110042019N0020001N1+02731+01301100681ADDGF106991061021004501001001KA1240M+03161MA1999999091291MD1999999+0081REMSYN088AAXX  18004 83339 32495 61408 10273 20130 39129 40068 86200 333 10316 29044 55090 58008;
0156833390999992008111812004-14050-042617FM-12+088299999V0201401N003110450019N0100001N1+02251+01571101001ADDGF106991021011004501031001KA1240N+02041MA1999999091541MD1999999+0111REMSYN076AAXX  18124 83339 32497 61406 10225 20157 39154 40100 82130 333 20204 58011;
0137833390999992008111818004-14050-042617FM-12+088299999V0201801N003111050019N0100001N1+02731+01511100591ADDGF106991021011004501031041MA1999999091191MD1999999+0131REMSYN070AAXX  18184 83339 32497 61806 10273 20151 39119 40059 82134 333 58013;
0168833390999992008111900004-14050-042617FM-12+088299999V0201401N001512200019N0020001N1+02441+01561100881ADDGF104991021011004501031001KA1240M+02801MA1999999091371MD1999999+0081REMSYN088AAXX  19004 83339 32495 41403 10244 20156 39137 40088 82130 333 10280 29057 55010 58008;
0156833390999992008111912004-14050-042617FM-12+088299999V0201401N002112200019N0100001N1+02491+01321100841ADDGF102991011011004501031001KA1240N+02101MA1999999091371MD1999999-0071REMSYN076AAXX  19124 83339 32497 21404 10249 20132 39137 40084 81130 333 20210 59007;
0137833390999992008111918004-14050-042617FM-12+088299999V0203601N002610450019N0100001N1+02931+01791100361ADDGF106991041021004501031001MA1999999090991MD1999999-0201REMSYN070AAXX  19184 83339 32497 63605 10293 20179 39099 40036 84230 333 59020;
0213833390999992008112000004-14050-042617FM-12+088299999V0201401N004110042019N0020001N1+02011+01921100881ADDAA106002091AY161061AY221061GF108991051021004501021999KA1240M+03001MA1999999091341MD1999999-0031MW1021REMSYN100AAXX  20004 83339 21495 81408 10201 20192 39134 40088 70262 8522/ 333 10300 29076 55040 59003 60021;
0201833390999992008112012004-14050-042617FM-12+088299999V0200901N003110450019N0020001N1+02001+01931101241ADDAA124023991AY161061AY221061GF108991041021004501021999KA1240N+01961MA1999999091561MD1999999+0211MW1021REMSYN088AAXX  20124 83339 21495 80906 10200 20193 39156 40124 70262 8422/ 333 20196 58021 60244;
0182833390999992008112018004-14050-042617FM-12+088299999V0201401N005110042019N0020001N1+02071+01981100931ADDAA106000891AY141061AY221061GF108991061021004501021999MA1999999091301MD1999999+0311MW1601REMSYN082AAXX  20184 83339 21495 81410 10207 20198 39130 40093 76042 8622/ 333 58031 69981;
0213833390999992008112100004-14050-042617FM-12+088299999V0201401N005110042019N0020001N1+01931+01891101221ADDAA106009991AY161061AY261061GF108991051021004501021999KA1240M+02361MA1999999091521MD1999999+0181MW1601REMSYN100AAXX  21004 83339 21495 81410 10193 20189 39152 40122 76066 8522/ 333 10236 29096 55002 58018 60101;
0201833390999992008112112004-14050-042617FM-12+088299999V0201401N004610042019N0040001N1+01831+01741101481ADDAA124027991AY161061AY211061GF108991081051004501999999KA1240N+01801MA1999999091741MD1999999+0181MW1601REMSYN088AAXX  21124 83339 21496 81409 10183 20174 39174 40148 76061 885// 333 20180 58018 60284;
0182833390999992008112118004-14050-042617FM-12+088299999V0201401N003110042019N0020001N1+01871+01831101381ADDAA106009991AY161061AY261061GF108991051051004501021999MA1999999091631MD1999999+0331MW1401REMSYN082AAXX  21184 83339 21495 81406 10187 20183 39163 40138 74066 8552/ 333 58033 60101;
0213833390999992008112200004-14050-042617FM-12+088299999V0201401N006210042019N0020001N1+01851+01811101531ADDAA106002091AY161061AY241061GF108991061051004501021999KA1240M+01981MA1999999091761MD1999999+0241MW1401REMSYN100AAXX  22004 83339 21495 81412 10185 20181 39176 40153 74064 8652/ 333 10198 29096 55000 58024 60021;
0201833390999992008112212004-14050-042617FM-12+088299999V0201401N003110042019N0020001N1+01791+01721101661ADDAA124015091AY161061AY241061GF108991051021004501021999KA1240N+01701MA1999999091861MD1999999+0121MW1401REMSYN088AAXX  22124 83339 21495 81406 10179 20172 39186 40166 74064 8522/ 333 20170 58012 60154;
0201833390999992008112218004-14050-042617FM-12+088299999V0201401N004110042019N0020001N1+01951+01831101341ADDAA106000091AY161061AY241061GF108991061021004501021999MA1999999091591MD1999999-0041MW1401REMSYN082AAXX  22184 83339 21495 81408 10195 20183 39159 40134 74064 8622/ 333 59004 69921;EQDQ01  00002PRCP06
0213833390999992008112300004-14050-042617FM-12+088299999V0201801N005710042019N0020001N1+01891+01821101451ADDAA106001091AY161061AY241061GF108991051021004501021999KA1240M+01991MA1999999091691MD1999999-0071MW1601REMSYN100AAXX  23004 83339 21495 81811 10189 20182 39169 40145 76064 8522/ 333 10199 29094 55000 59007 60011;
0201833390999992008112312004-14050-042617FM-12+088299999V0201401N004110042019N0020001N1+01711+01671101591ADDAA124008991AY161061AY241061GF108991061051004501021999KA1240N+01711MA1999999091801MD1999999-0061MW1401REMSYN088AAXX  23124 83339 21495 81408 10171 20167 39180 40159 74064 8652/ 333 20171 59006 60094;
0182833390999992008112318004-14050-042617FM-12+088299999V0200901N003110042019N0020001N1+01731+01591101351ADDAA106004191AY161061AY241061GF108991051021004501021999MA1999999091561MD1999999-0031MW1601REMSYN082AAXX  23184 83339 21495 80906 10173 20159 39156 40135 76064 8522/ 333 59003 60041;
0213833390999992008112400004-14050-042617FM-12+088299999V0201401N001510042019N0020001N1+01751+01711101381ADDAA106002091AY161061AY241061GF108991051021004501021999KA1240M+01921MA1999999091591MD1999999-0101MW1401REMSYN100AAXX  24004 83339 21495 81403 10175 20171 39159 40138 74064 8522/ 333 10192 29096 55000 59010 60021;
0201833390999992008112412004-14050-042617FM-12+088299999V0201401N004610042019N0100001N1+01951+01701101381ADDAA124006191AY161061AY261061GF106991051021004501031001KA1240N+01621MA1999999091631MD1999999-0171MW1101REMSYN088AAXX  24124 83339 21497 61409 10195 20170 39163 40138 71066 85230 333 20162 59017 60064;
0137833390999992008112418004-14050-042617FM-12+088299999V0201401N004610042019N0040001N1+02371+01641100921ADDGF107991061021004501021999MA1999999091271MD1999999-0291REMSYN070AAXX  24184 83339 32496 71409 10237 20164 39127 40092 8622/ 333 59029;
0196833390999992008112500004-14050-042617FM-12+088299999V0202701N000510042019N0020001N1+01971+01721101131ADDAY101061AY201061GF106991061021004501001001KA1240M+02461MA1999999091441MD1999999-0151MW1101REMSYN094AAXX  25004 83339 31495 62701 10197 20172 39144 40113 71000 86200 333 10246 29080 55028 59015;
0201833390999992008112512004-14050-042617FM-12+088299999V0201401N002610042019N0040001N1+01991+01721101351ADDAA124000591AY161061AY261061GF108991081051004501999999KA1240N+01801MA1999999091651MD1999999+0021MW1101REMSYN088AAXX  25124 83339 21496 81405 10199 20172 39165 40135 71066 885// 333 20180 58002 69964;
0182833390999992008112518004-14050-042617FM-12+088299999V0201401N001510042019N0100001N1+02311+01901101021ADDAA106001091AY161061AY261061GF106991061021004501001001MA1999999091401MD1999999+0131MW1021REMSYN082AAXX  25184 83339 21497 61403 10231 20190 39140 40102 70266 86200 333 58013 60011;
0196833390999992008112600004-14050-042617FM-12+088299999V0200901N001010042019N0020001N1+02091+01891101151ADDAY101061AY201061GF107991061021004501021999KA1240M+02381MA1999999091491MD1999999+0051MW1101REMSYN094AAXX  26004 83339 31495 70902 10209 20189 39149 40115 71000 8622/ 333 10238 29085 55003 58005;
0201833390999992008112612004-14050-042617FM-12+088299999V0201401N004610042019N0040001N1+01951+01871101291ADDAA124001091AY161061AY261061GF108991081051004501999999KA1240N+01861MA1999999091611MD1999999-0041MW1101REMSYN088AAXX  26124 83339 21496 81409 10195 20187 39161 40129 71066 885// 333 20186 59004 60014;
0137833390999992008112618004-14050-042617FM-12+088299999V0201401N004610042019N0100001N1+02621+01811100751ADDGF106991051021004501031001MA1999999091241MD1999999-0161REMSYN070AAXX  26184 83339 32497 61409 10262 20181 39124 40075 85230 333 59016;
0213833390999992008112700004-14050-042617FM-12+088299999V0200901N001510042019N0020001N1+02111+01961101151ADDAA106004191AY191061AY261061GF108991081051004501999999KA1240M+02781MA1999999091501MD1999999+0011MW1101REMSYN100AAXX  27004 83339 21495 80903 10211 20196 39150 40115 71096 885// 333 10278 29085 55040 58001 60041;
0201833390999992008112712004-14050-042617FM-12+088299999V0201401N004110042019N0040001N1+01831+01701101371ADDAA124008991AY161061AY261061GF108991081051004501999999KA1240N+01731MA1999999091651MD1999999+0041MW1401REMSYN088AAXX  27124 83339 21496 81408 10183 20170 39165 40137 74066 885// 333 20173 58004 60094;
0182833390999992008112718004-14050-042617FM-12+088299999V0200901N001510042019N0040001N1+01971+01771101151ADDAA106000891AY161061AY261061GF108991081051004501999999MA1999999091451MD1999999+0211MW1101REMSYN082AAXX  27184 83339 21496 80903 10197 20177 39145 40115 71066 885// 333 58021 69981;
0196833390999992008112800004-14050-042617FM-12+088299999V0209999C000010042019N0020001N1+01951+01811101231ADDAY101061AY201061GF106991051021004501021001KA1240M+02181MA1999999091511MD1999999+0011MW1101REMSYN094AAXX  28004 83339 31495 60000 10195 20181 39151 40123 71000 85220 333 10218 29092 55000 58001;
0201833390999992008112812004-14050-042617FM-12+088299999V0201401N001510042019N0040001N1+01951+01871101271ADDAA124003091AY161061AY261061GF108991081051004501999999KA1240N+01831MA1999999091561MD1999999-0091MW1601REMSYN088AAXX  28124 83339 21496 81403 10195 20187 39156 40127 76066 885// 333 20183 59009 60034;
0182833390999992008112818004-14050-042617FM-12+088299999V0201401N002610042019N0040001N1+02151+01911100921ADDAA106000021AY161061AY261061GF108991081051004501999999MA1999999091271MD1999999-0181MW1101REMSYN082AAXX  28184 83339 21496 81405 10215 20191 39127 40092 71066 885// 333 59018 69921;
0213833390999992008112900004-14050-042617FM-12+088299999V0209999C000010042019N0020001N1+02011+01831101091ADDAA106000591AY161061AY261061GF108991081051004501999999KA1240M+02201MA1999999091431MD1999999-0081MW1101REMSYN100AAXX  29004 83339 21495 80000 10201 20183 39143 40109 71066 885// 333 10220 29091 55000 59008 69941;
0201833390999992008112912004-14050-042617FM-12+088299999V0200901N001510042019N0040001N1+01911+01821101151ADDAA124013091AY161061AY261061GF108991081051004501999999KA1240N+01841MA1999999091451MD1999999-0111MW1601REMSYN088AAXX  29124 83339 21496 80903 10191 20182 39145 40115 76066 885// 333 20184 59011 60134;
0182833390999992008112918004-14050-042617FM-12+088299999V0202701N004110042019N0040001N1+02011+01831100991ADDAA106015091AY161061AY261061GF108991081051004501999999MA1999999091321MD1999999+0051MW1611REMSYN082AAXX  29184 83339 21496 82708 10201 20183 39132 40099 76166 885// 333 58005 60151;
0213833390999992008113000004-14050-042617FM-12+088299999V0209999C000010042019N0020001N1+01871+00811101151ADDAA106001091AY161061AY211061GF108991081051004501999999KA1240M+02121MA1999999091441MD1999999+0011MW1101REMSYN100AAXX  30004 83339 21495 80000 10187 20081 39144 40115 71061 885// 333 10212 29095 55000 58001 69991;
0201833390999992008113012004-14050-042617FM-12+088299999V0201401N001510042019N0040001N1+01951+01841101201ADDAA124020191AY161061AY261061GF108991081051004501999999KA1240N+01861MA1999999091501MD1999999+0051MW1401REMSYN088AAXX  30124 83339 21496 81403 10195 20184 39150 40120 74066 885// 333 20186 58005 60204;
0165833390999992008113018004-14050-042617FM-12+088299999V0202701N003610042019N0040001N1+02251+01921100841ADDAY101061AY241061GF107991061021004501021999MA1999999091221MD1999999-0101MW1101REMSYN076AAXX  30184 83339 31496 72707 10225 20192 39122 40084 71004 8622/ 333 59010;
0196833390999992008120100004-14050-042617FM-12+088299999V0209999C000010042019N0020001N1+02091+01891101031ADDAY101061AY201061GF106991051021004501021001KA1240M+02521MA1999999091371MD1999999-0071MW1101REMSYN094AAXX  01004 83339 31495 60000 10209 20189 39137 40103 71000 85220 333 10252 29088 55009 59007;
0156833390999992008120112004-14050-042617FM-12+088299999V0203201N003110042019N0100001N1+02451+01721101111ADDGF106991051021004501031001KA1240N+01981MA1999999091511MD1999999+0011REMSYN076AAXX  01124 83339 32497 63206 10245 20172 39151 40111 85230 333 20198 58001;
0137833390999992008120118004-14050-042617FM-12+088299999V0203201N004112200019N0100001N1+02871+01291100571ADDGF105991041021004501001011MA1999999091111MD1999999-0111REMSYN070AAXX  01184 83339 32497 53208 10287 20129 39111 40057 84201 333 59011;
0168833390999992008120200004-14050-042617FM-12+088299999V0202301N001010042019N0020001N1+02251+01501100931ADDGF106991061021004501001001KA1240M+02941MA1999999091421MD1999999+0051REMSYN088AAXX  02004 83339 32495 62302 10225 20150 39142 40093 86200 333 10294 29064 55099 58005;
0201833390999992008120212004-14050-042617FM-12+088299999V0209999C000010042019N0100001N1+02231+02031101081ADDAA124018091AY161061AY221061GF108991061021004501021999KA1240N+01951MA1999999091521MD1999999+0011MW1021REMSYN088AAXX  02124 83339 21497 80000 10223 20203 39152 40108 70262 8622/ 333 20195 58001 60184;
0182833390999992008120218004-14050-042617FM-12+088299999V0202701N004610042019N0020001N1+01981+01861100671ADDAA106006191AY161061AY221061GF108991061021004501021999MA1999999091101MD1999999-0011MW1601REMSYN082AAXX  02184 83339 21495 82709 10198 20186 39110 40067 76062 8622/ 333 59001 60061;
0213833390999992008120300004-14050-042617FM-12+088299999V0209999C000012200019N0020001N1+02011+01891100771ADDAA106000021AY161061AY221061GF104991041021004501001001KA1240M+02581MA1999999091171MD1999999-0251MW1401REMSYN100AAXX  03004 83339 21495 40000 10201 20189 39117 40077 74062 84200 333 10258 29091 55010 59025 69921;
0201833390999992008120312004-14050-042617FM-12+088299999V0202701N006710042019N0100001N1+02331+01781100691ADDAA124014091AY161061AY241061GF106991061021004501001001KA1240N+01941MA1999999091121MD1999999-0401MW1021REMSYN088AAXX  03124 83339 21497 62713 10233 20178 39112 40069 70264 86200 333 20194 59040 60144;
0137833390999992008120318004-14050-042617FM-12+088299999V0203201N005712200019N0100001N1+02571+01821100341ADDGF106991041021004501001011MA1999999090861MD1999999-0241REMSYN070AAXX  03184 83339 32497 63211 10257 20182 39086 40034 84201 333 59024;
0213833390999992008120400004-14050-042617FM-12+088299999V0203201N003110042019N0020001N1+02071+01951100731ADDAA106003091AY161061AY221061GF108991051021004501021999KA1240M+02631MA1999999091171MD1999999+0001MW1501REMSYN100AAXX  04004 83339 21495 83206 10207 20195 39117 40073 75062 8522/ 333 10263 29080 55034 58000 60031;
0201833390999992008120412004-14050-042617FM-12+088299999V0203201N005110042019N0100001N1+02061+01911101001ADDAA124003091AY161061AY221061GF108991061021004501021999KA1240N+02031MA1999999091361MD1999999+0241MW1021REMSYN088AAXX  04124 83339 21497 83210 10206 20191 39136 40100 70262 8622/ 333 20203 58024 60034;
0201833390999992008120418004-14050-042617FM-12+088299999V0202701N005110042019N0100001N1+02651+01971100571ADDAA106000091AY161061AY221061GF106991061021004501001001MA1999999091091MD1999999+0231MW1021REMSYN082AAXX  04184 83339 21497 62710 10265 20197 39109 40057 70262 86200 333 58023 69921;EQDQ01  00002PRCP06
0213833390999992008120500004-14050-042617FM-12+088299999V0202701N003110042019N0020001N1+02011+01921101161ADDAA106003091AY161061AY221061GF108991051051004501021999KA1240M+02681MA1999999091511MD1999999+0341MW1501REMSYN100AAXX  05004 83339 21495 82706 10201 20192 39151 40116 75062 8552/ 333 10268 29086 55021 58034 60031;
0201833390999992008120512004-14050-042617FM-12+088299999V0203201N004110450019N0100001N1+02391+01931101271ADDAA124009991AY161061AY261061GF106991041021004501031001KA1240N+01961MA1999999091661MD1999999+0301MW1021REMSYN088AAXX  05124 83339 21497 63208 10239 20193 39166 40127 70266 84230 333 20196 58030 60104;
0137833390999992008120518004-14050-042617FM-12+088299999V0202701N001512200019N0100001N1+02771+01981100861ADDGF105991041021004501001011MA1999999091371MD1999999+0281REMSYN070AAXX  05184 83339 32497 52703 10277 20198 39137 40086 84201 333 58028;
0168833390999992008120600004-14050-042617FM-12+088299999V0201401N007710450019N0020001N1+02131+01971101191ADDGF105991041021004501031001KA1240M+02881MA1999999091621MD1999999+0111REMSYN088AAXX  06004 83339 32495 51415 10213 20197 39162 40119 84230 333 10288 29079 55065 58011;
0201833390999992008120612004-14050-042617FM-12+088299999V0201401N003110042019N0020001N1+01911+01871101511ADDAA124001091AY161061AY241061GF108991051021004501021999KA1240N+01861MA1999999091801MD1999999+0141MW1401REMSYN088AAXX  06124 83339 21495 81406 10191 20187 39180 40151 74064 8522/ 333 20186 58014 60014;
0165833390999992008120618004-14050-042617FM-12+088299999V0201401N005112200019N0100001N1+02471+01941101071ADDAY141061AY221061GF104991041021004501001001MA1999999091511MD1999999+0141MW1021REMSYN076AAXX  06184 83339 31497 41410 10247 20194 39151 40107 70242 84200 333 58014;
0168833390999992008120700004-14050-042617FM-12+088299999V0201401N005710042019N0020001N1+02221+01941101401ADDGF105991051021004501001001KA1240M+02521MA1999999091731MD1999999+0111REMSYN088AAXX  07004 83339 32495 51411 10222 20194 39173 40140 85200 333 10252 29084 55050 58011;
0201833390999992008120712004-14050-042617FM-12+088299999V0201401N005710450019N0020001N1+01921+01891101621ADDAA124002091AY161061AY241061GF108991041021004501021999KA1240N+01881MA1999999091931MD1999999+0131MW1401REMSYN088AAXX  07124 83339 21495 81411 10192 20189 39193 40162 74064 8422/ 333 20188 58013 60024;
0201833390999992008120718004-14050-042617FM-12+088299999V0201401N005110042019N0100001N1+02461+01941101171ADDAA106000091AY161061AY241061GF105991051021004501001001MA1999999091601MD1999999+0091MW1021REMSYN082AAXX  07184 83339 21497 51410 10246 20194 39160 40117 70264 85200 333 58009 69901;EQDQ01  00002PRCP06
0168833390999992008120800004-14050-042617FM-12+088299999V0201401N005110042019N0020001N1+02111+01951101521ADDGF106991061021004501001001KA1240M+02501MA1999999091811MD1999999+0081REMSYN088AAXX  08004 83339 32495 61410 10211 20195 39181 40152 86200 333 10250 29088 55031 58008;
0156833390999992008120812004-14050-042617FM-12+088299999V0200901N005110042019N0100001N1+02231+01781101561ADDGF106991061021004501001001KA1240N+01901MA1999999091911MD1999999-0021REMSYN076AAXX  08124 83339 32497 60910 10223 20178 39191 40156 86200 333 20190 59002;
0137833390999992008120818004-14050-042617FM-12+088299999V0201401N006212200019N0100001N1+02531+01741101181ADDGF104991031021004501021001MA1999999091611MD1999999+0011REMSYN070AAXX  08184 83339 32497 41412 10253 20174 39161 40118 83220 333 58001;
0168833390999992008120900004-14050-042617FM-12+088299999V0201401N009810042019N0020001N1+02091+01641101431ADDGF105991051021004501001001KA1240M+02661MA1999999091791MD1999999-0021REMSYN088AAXX  09004 83339 32495 51419 10209 20164 39179 40143 85200 333 10266 29073 55096 59002;
0156833390999992008120912004-14050-042617FM-12+088299999V0201401N004612200019N0100001N1+02191+01671101441ADDGF103991021021004501001021KA1240N+01781MA1999999091801MD1999999-0111REMSYN076AAXX  09124 83339 32497 31409 10219 20167 39180 40144 82202 333 20178 59011;
0137833390999992008120918004-14050-042617FM-12+088299999V0201401N005110450019N0100001N1+02631+01731100991ADDGF105991041021004501021001MA1999999091461MD1999999-0151REMSYN070AAXX  09184 83339 32497 51410 10263 20173 39146 40099 84220 333 59015;
0168833390999992008121000004-14050-042617FM-12+088299999V0201401N006212200019N0020001N1+02171+01781101111ADDGF102991021021004501001001KA1240M+02741MA1999999091521MD1999999-0271REMSYN088AAXX  10004 83339 32495 21412 10217 20178 39152 40111 82200 333 10274 29072 55108 59027;
0184833390999992008121012004-14050-042617FM-12+088299999V0201401N004610042019N0040001N1+02131+01801101231ADDAY101061AY201061GF106991051021004501021001KA1240N+01881MA1999999091611MD1999999-0191MW1101REMSYN082AAXX  10124 83339 31496 61409 10213 20180 39161 40123 71000 85220 333 20188 59019;
0137833390999992008121018004-14050-042617FM-12+088299999V0201401N004112200019N0100001N1+02621+01701100701ADDGF102991021021004501001001MA1999999091211MD1999999-0251REMSYN070AAXX  10184 83339 32497 21408 10262 20170 39121 40070 82200 333 59025;
0168833390999992008121100004-14050-042617FM-12+088299999V0201401N003112200019N0020001N1+02191+01701100931ADDGF102991021021004501001001KA1240M+02701MA1999999091341MD1999999-0181REMSYN088AAXX  11004 83339 32495 21406 10219 20170 39134 40093 82200 333 10270 29072 55074 59018;
0184833390999992008121112004-14050-042617FM-12+088299999V0201401N002610042019N0100001N1+02171+01881101101ADDAY101061AY201061GF106991061021004501001001KA1240N+01741MA1999999091511MD1999999-0101MW1101REMSYN082AAXX  11124 83339 31497 61405 10217 20188 39151 40110 71000 86200 333 20174 59010;
0137833390999992008121118004-14050-042617FM-12+088299999V0201401N004112200019N0100001N1+02731+01741100691ADDGF103991031021004501001001MA1999999091201MD1999999-0011REMSYN070AAXX  11184 83339 32497 31408 10273 20174 39120 40069 83200 333 59001;
0168833390999992008121200004-14050-042617FM-12+088299999V0200901N001512200019N0020001N1+02251+01731100901ADDGF104991031021004501031001KA1240M+02821MA1999999091331MD1999999-0011REMSYN088AAXX  12004 83339 32495 40903 10225 20173 39133 40090 83230 333 10282 29071 55075 59001;
0156833390999992008121212004-14050-042617FM-12+088299999V0200901N001510042019N0100001N1+02191+01671101131ADDGF106991061021004501001001KA1240N+01901MA1999999091541MD1999999+0031REMSYN076AAXX  12124 83339 32497 60903 10219 20167 39154 40113 86200 333 20190 58003;
0182833390999992008121218004-14050-042617FM-12+088299999V0202701N006210042019N0040001N1+02251+02051100851ADDAA106002091AY161061AY261061GF108991081051004501999999MA1999999091261MD1999999+0061MW1601REMSYN082AAXX  12184 83339 21496 82712 10225 20205 39126 40085 76066 885// 333 58006 60021;
0213833390999992008121300004-14050-042617FM-12+088299999V0201401N003112200019N0020001N1+02271+01621100851ADDAA106001091AY161061AY261061GF102991011021004501001021KA1240M+02971MA1999999091311MD1999999-0021MW1021REMSYN100AAXX  13004 83339 21495 21406 10227 20162 39131 40085 70266 81202 333 10297 29074 55061 59002 60011;
0201833390999992008121312004-14050-042617FM-12+088299999V0200501N002612200019N0100001N1+02371+01951101031ADDAA124003091AY161061AY261061GF104991031021004501021001KA1240N+01901MA1999999091491MD1999999-0051MW1021REMSYN088AAXX  13124 83339 21497 40505 10237 20195 39149 40103 70266 83220 333 20190 59005 60034;
0182833390999992008121318004-14050-042617FM-12+088299999V0203601N001510042019N0040001N1+02391+01971100741ADDAA106018091AY191061AY261061GF107991061021004501021999MA1999999091211MD1999999-0051MW1171REMSYN082AAXX  13184 83339 21496 73603 10239 20197 39121 40074 71796 8622/ 333 59005 60181;
0196833390999992008121400004-14050-042617FM-12+088299999V0201401N001510042019N0020001N1+02251+01921100951ADDAY191061AY201061GF105991051021004501001001KA1240M+02941MA1999999091421MD1999999+0111MW1101REMSYN094AAXX  14004 83339 31495 51403 10225 20192 39142 40095 71090 85200 333 10294 29080 55047 58011;
0201833390999992008121412004-14050-042617FM-12+088299999V0201401N002610042019N0040001N1+02171+01901101201ADDAA124018091AY161061AY261061GF106991051021004501031001KA1240N+01951MA1999999091601MD1999999+0111MW1101REMSYN088AAXX  14124 83339 21496 61405 10217 20190 39160 40120 71066 85230 333 20195 58011 60184;
0182833390999992008121418004-14050-042617FM-12+088299999V0200901N001510042019N0040001N1+02151+02041100911ADDAA106011991AY191061AY261061GF108991081051004501999999MA1999999091301MD1999999+0091MW1101REMSYN082AAXX  14184 83339 21496 80903 10215 20204 39130 40091 71096 885// 333 58009 60121;
0168833390999992008121500004-14050-042617FM-12+088299999V0201401N001010042019N0020001N1+02231+01781100941ADDGF106991061021004501001001KA1240M+02641MA1999999091361MD1999999-0061REMSYN088AAXX  15004 83339 32495 61402 10223 20178 39136 40094 86200 333 10264 29083 55013 59006;
0201833390999992008121512004-14050-042617FM-12+088299999V0200901N002612200019N0100001N1+02371+01791100881ADDAA124011991AY161061AY221061GF105991031011004501001011KA1240N+01911MA1999999091351MD1999999-0251MW1021REMSYN088AAXX  15124 83339 21497 50905 10237 20179 39135 40088 70262 83101 333 20191 59025 60124;
0137833390999992008121518004-14050-042617FM-12+088299999V0200901N003110042019N0100001N1+02731+01811100441ADDGF106991061021004501001001MA1999999090991MD1999999-0311REMSYN070AAXX  15184 83339 32497 60906 10273 20181 39099 40044 86200 333 59031;
0168833390999992008121600004-14050-042617FM-12+088299999V0201401N003610042019N0100001N1+02311+01791100651ADDGF106991061021004501001001KA1240M+02861MA1999999091161MD1999999-0201REMSYN088AAXX  16004 83339 32497 61407 10231 20179 39116 40065 86200 333 10286 29070 55064 59020;
0201833390999992008121612004-14050-042617FM-12+088299999V0200501N001510042019N0100001N1+02171+01991100841ADDAA124000591AY161061AY221061GF108991051021004501021999KA1240N+01971MA1999999091301MD1999999-0051MW1021REMSYN088AAXX  16124 83339 21497 80503 10217 20199 39130 40084 70262 8522/ 333 20197 59005 69944;
0182833390999992008121618004-14050-042617FM-12+088299999V0209999C000010042019N0100001N1+02191+01961100711ADDAA106026991AY161061AY221061GF108991061021004501021999MA1999999091141MD1999999+0151MW1021REMSYN082AAXX  16184 83339 21497 80000 10219 20196 39114 40071 70262 8622/ 333 58015 60271;
0213833390999992008121700004-14050-042617FM-12+088299999V0203201N001510450019N0020001N1+01971+01881100991ADDAA106001091AY161061AY221061GF108991041021004501021999KA1240M+02451MA1999999091351MD1999999+0191MW1401REMSYN100AAXX  17004 83339 21495 83203 10197 20188 39135 40099 74062 8422/ 333 10245 29092 55000 58019 60011;
0201833390999992008121712004-14050-042617FM-12+088299999V0201401N002110042019N0100001N1+02291+02011101021ADDAA124027991AY161061AY241061GF106991061021004501001001KA1240N+01871MA1999999091421MD1999999+0121MW1021REMSYN088AAXX  17124 83339 21497 61404 10229 20201 39142 40102 70264 86200 333 20187 58012 60284;
0137833390999992008121718004-14050-042617FM-12+088299999V0200901N001510042019N0100001N1+02651+02141100681ADDGF106991061021004501001001MA1999999091171MD1999999+0031REMSYN070AAXX  17184 83339 32497 60903 10265 20214 39117 40068 86200 333 58003;
0168833390999992008121800004-14050-042617FM-12+088299999V0209999C000012200019N0020001N1+02131+01931100991ADDGF103991031021004501001001KA1240M+02801MA1999999091411MD1999999+0061REMSYN088AAXX  18004 83339 32495 30000 10213 20193 39141 40099 83200 333 10280 29083 55056 58006;
0156833390999992008121812004-14050-042617FM-12+088299999V0200901N002610042019N0100001N1+02151+01971101191ADDGF108991051021004501021999KA1240N+01961MA1999999091571MD1999999+0151REMSYN076AAXX  18124 83339 32497 80905 10215 20197 39157 40119 8522/ 333 20196 58015;
0137833390999992008121818004-14050-042617FM-12+088299999V0201401N006212200019N0100001N1+02651+01851100731ADDGF103991031021004501001001MA1999999091241MD1999999+0071REMSYN070AAXX  18184 83339 32497 31412 10265 20185 39124 40073 83200 333 58007;
0178833390999992008121900004-14050-042617FM-12+088299999V0201401N003112200019N0020001N1+02251+01821100911ADDGA1001+999999999GF100991001001999999001001KA1240M+02731MA1999999091341MD1999999-0071REMSYN082AAXX  19004 83339 32995 01406 10225 20182 39134 40091 333 10273 29076 55051 59007;
0156833390999992008121912004-14050-042617FM-12+088299999V0201401N007212200019N0100001N1+02271+01661101061ADDGF103991031021004501001001KA1240N+01881MA1999999091501MD1999999-0071REMSYN076AAXX  19124 83339 32497 31414 10227 20166 39150 40106 83200 333 20188 59007;
0147833390999992008121918004-14050-042617FM-12+088299999V0201401N003112200019N0100001N1+02661+01401100821ADDGA1001+999999999GF100991001001999999001001MA1999999091201MD1999999-0041REMSYN064AAXX  19184 83339 32997 01406 10266 20140 39120 40082 333 59004;
0178833390999992008122000004-14050-042617FM-12+088299999V0202301N001512200019N0020001N1+02171+01541100871ADDGA1001+999999999GF100991001001999999001001KA1240M+02721MA1999999091301MD1999999-0041REMSYN082AAXX  20004 83339 32995 02303 10217 20154 39130 40087 333 10272 29062 55105 59004;
0156833390999992008122012004-14050-042617FM-12+088299999V0201401N005110042019N0100001N1+02231+01731101021ADDGF105991051021004501001001KA1240N+01901MA1999999091441MD1999999-0061REMSYN076AAXX  20124 83339 32497 51410 10223 20173 39144 40102 85200 333 20190 59006;
0137833390999992008122018004-14050-042617FM-12+088299999V0201401N003112200019N0100001N1+02661+01561100641ADDGF102991011021004501001011MA1999999091151MD1999999-0051REMSYN070AAXX  20184 83339 32497 21406 10266 20156 39115 40064 81201 333 59005;
0178833390999992008122100004-14050-042617FM-12+088299999V0201401N002112200019N0020001N1+02191+01721100801ADDGA1001+999999999GF100991001001999999001001KA1240M+02741MA1999999091241MD1999999-0061REMSYN082AAXX  21004 83339 32995 01404 10219 20172 39124 40080 333 10274 29068 55081 59006;
0156833390999992008122112004-14050-042617FM-12+088299999V0201401N001510042019N0100001N1+02201+01841101121ADDGF105991051021004501001001KA1240N+01841MA1999999091531MD1999999+0091REMSYN076AAXX  21124 83339 32497 51403 10220 20184 39153 40112 85200 333 20184 58009;
0137833390999992008122118004-14050-042617FM-12+088299999V0201401N002610042019N0100001N1+02551+01831100741ADDGF106991061021004501001001MA1999999091231MD1999999+0081REMSYN070AAXX  21184 83339 32497 61405 10255 20183 39123 40074 86200 333 58008;
0168833390999992008122200004-14050-042617FM-12+088299999V0201401N002112200019N0020001N1+02211+01801100981ADDGF103991031021004501001001KA1240M+02741MA1999999091401MD1999999+0161REMSYN088AAXX  22004 83339 32495 31404 10221 20180 39140 40098 83200 333 10274 29075 55022 58016;
0220833390999992008122212004-14050-042617FM-12+088299999V0201401N003110042019N0040001N1+02131+01881101181ADDAA124000091AY161061AY261061GF107991061021004501021999KA1240N+01921MA1999999091561MD1999999+0031MW1101REMSYN088AAXX  22124 83339 21496 71406 10213 20188 39156 40118 71066 8622/ 333 20192 58003 69924;EQDQ01  00002PRCP24
0182833390999992008122218004-14050-042617FM-12+088299999V0203201N003110042019N0040001N1+02011+01931100971ADDAA106023991AY191061AY261061GF108991081051004501999999MA1999999091341MD1999999+0111MW1101REMSYN082AAXX  22184 83339 21496 83206 10201 20193 39134 40097 71096 885// 333 58011 60241;
0213833390999992008122300004-14050-042617FM-12+088299999V0209999C000010042019N0020001N1+02071+01841101141ADDAA106002091AY161061AY261061GF108991081051004501999999KA1240M+02661MA1999999091511MD1999999+0111MW1101REMSYN100AAXX  23004 83339 21495 80000 10207 20184 39151 40114 71066 885// 333 10266 29089 55012 58011 60021;
0201833390999992008122312004-14050-042617FM-12+088299999V0201401N000510042019N0040001N1+02071+01891101301ADDAA124025991AY161061AY261061GF108991081051004501999999KA1240N+01901MA1999999091641MD1999999+0081MW1101REMSYN088AAXX  23124 83339 21496 81401 10207 20189 39164 40130 71066 885// 333 20190 58008 60264;
0182833390999992008122318004-14050-042617FM-12+088299999V0200901N001510042019N0040001N1+02131+01911101011ADDAA106005191AY161061AY261061GF107991061021004501031999MA1999999091371MD1999999+0031MW1101REMSYN082AAXX  23184 83339 21496 70903 10213 20191 39137 40101 71066 8623/ 333 58003 60051;
0196833390999992008122400004-14050-042617FM-12+088299999V0201801N000510042019N0020001N1+02051+01851101151ADDAY101061AY201061GF108991081051004501999999KA1240M+02551MA1999999091501MD1999999-0011MW1101REMSYN094AAXX  24004 83339 31495 81801 10205 20185 39150 40115 71000 885// 333 10255 29089 55006 59001;
0201833390999992008122412004-14050-042617FM-12+088299999V0209999C000010042019N0040001N1+02031+01891101191ADDAA124006191AY161061AY261061GF108991081051004501999999KA1240N+01931MA1999999091541MD1999999-0101MW1601REMSYN088AAXX  24124 83339 21496 80000 10203 20189 39154 40119 76066 885// 333 20193 59010 60064;
0182833390999992008122418004-14050-042617FM-12+088299999V0202701N001510042019N0040001N1+02331+01811100801ADDAA106001091AY161061AY261061GF107991061021004501021999MA1999999091221MD1999999-0151MW1021REMSYN082AAXX  24184 83339 21496 72703 10233 20181 39122 40080 70266 8622/ 333 59015 60011;
0196833390999992008122500004-14050-042617FM-12+088299999V0209999C000010042019N0020001N1+02131+01891100941ADDAY101061AY201061GF106991061021004501001001KA1240M+02441MA1999999091331MD1999999-0171MW1101REMSYN094AAXX  25004 83339 31495 60000 10213 20189 39133 40094 71000 86200 333 10244 29085 55013 59017;
0220833390999992008122512004-14050-042617FM-12+088299999V0203201N001519999999N0100001N1+02231+01901100951ADDAA124001091AY161061AY261061GF106991999021004501001001KA1240N+01861MA1999999091371MD1999999-0171MW1101REMSYN088AAXX  25124 83339 21497 63203 10223 20190 39137 40095 71066 82200 333 20186 59017 60014;EQDQ01+000022SCOTLC
0182833390999992008122518004-14050-042617FM-12+088299999V0203201N002110042019N0100001N1+02431+01911100591ADDAA106002091AY161061AY261061GF106991051021004501031001MA1999999091051MD1999999-0171MW1021REMSYN082AAXX  25184 83339 21497 63204 10243 20191 39105 40059 70266 85230 333 59017 60021;
0213833390999992008122600004-14050-042617FM-12+088299999V0202301N000510042019N0020001N1+01961+01891100901ADDAA106007191AY161061AY211061GF108991081051004501999999KA1240M+02721MA1999999091291MD1999999-0041MW1101REMSYN100AAXX  26004 83339 21495 82301 10196 20189 39129 40090 71061 885// 333 10272 29087 55025 59004 60071;
0201833390999992008122612004-14050-042617FM-12+088299999V0200501N002112200019N0100001N1+02391+01971100821ADDAA124009991AY161061AY261061GF103991031021004501001001KA1240N+01921MA1999999091241MD1999999-0131MW1021REMSYN088AAXX  26124 83339 21497 30504 10239 20197 39124 40082 70266 83200 333 20192 59013 60104;
0182833390999992008122618004-14050-042617FM-12+088299999V0201801N001510042019N0100001N1+02151+01991100631ADDAA106007991AY191061AY261061GF106991051021004501021001MA1999999091031MD1999999-0021MW1101REMSYN082AAXX  26184 83339 21497 61803 10215 20199 39103 40063 71096 85220 333 59002 60081;
0196833390999992008122700004-14050-042617FM-12+088299999V0209999C000010042019N0040001N1+02111+02031100741ADDAY101061AY201061GF108991081051004501999999KA1240M+02681MA1999999091211MD1999999-0081MW1401REMSYN094AAXX  27004 83339 31496 80000 10211 20203 39121 40074 74000 885// 333 10268 29090 55044 59008;
0201833390999992008122712004-14050-042617FM-12+088299999V0203601N000510042019N0100001N1+02311+02071100991ADDAA124007991AY161061AY261061GF106991051021004501021001KA1240N+01971MA1999999091411MD1999999+0171MW1101REMSYN088AAXX  27124 83339 21497 63601 10231 20207 39141 40099 71066 85220 333 20197 58017 60084;
0137833390999992008122718004-14050-042617FM-12+088299999V0201401N004110042019N0100001N1+02531+02071100631ADDGF106991051021004501021001MA1999999091131MD1999999+0101REMSYN070AAXX  27184 83339 32497 61408 10253 20207 39113 40063 85220 333 58010;
0196833390999992008122800004-14050-042617FM-12+088299999V0200901N001512200019N0020001N1+02171+01971100881ADDAY101061AY201061GF102991021021004501001001KA1240M+02741MA1999999091341MD1999999+0131MW1101REMSYN094AAXX  28004 83339 31495 20903 10217 20197 39134 40088 71000 82200 333 10274 29085 55021 58013;
0184833390999992008122812004-14050-042617FM-12+088299999V0201401N003110042019N0100001N1+02191+01921101091ADDAY101061AY201061GF106991061021004501001001KA1240N+01881MA1999999091501MD1999999+0091MW1101REMSYN082AAXX  28124 83339 31497 61406 10219 20192 39150 40109 71000 86200 333 20188 58009;
0137833390999992008122818004-14050-042617FM-12+088299999V0201401N008210042019N0100001N1+02531+01891100761ADDGF106991051021004501021001MA1999999091231MD1999999+0101REMSYN070AAXX  28184 83339 32497 61416 10253 20189 39123 40076 85220 333 58010;
0168833390999992008122900004-14050-042617FM-12+088299999V0201801N004112200019N0020001N1+02131+01701101011ADDGF104991041021004501001001KA1240M+02661MA1999999091411MD1999999+0071REMSYN088AAXX  29004 83339 32495 41808 10213 20170 39141 40101 84200 333 10266 29077 55023 58007;
0156833390999992008122912004-14050-042617FM-12+088299999V0201401N003112200019N0100001N1+02191+01861101201ADDGF103991011011004501031011KA1240N+01911MA1999999091581MD1999999+0081REMSYN076AAXX  29124 83339 32497 31406 10219 20186 39158 40120 81131 333 20191 58008;
0137833390999992008122918004-14050-042617FM-12+088299999V0201401N002612200019N0100001N1+02671+01781100871ADDGF105991021021004501001041MA1999999091361MD1999999+0161REMSYN070AAXX  29184 83339 32497 51405 10267 20178 39136 40087 82204 333 58016;
0178833390999992008123000004-14050-042617FM-12+088299999V0201401N004112200019N0020001N1+02201+01491101051ADDGA1001+999999999GF100991001001999999001001KA1240M+02751MA1999999091461MD1999999+0051REMSYN082AAXX  30004 83339 32995 01408 10220 20149 39146 40105 333 10275 29068 55079 58005;
0156833390999992008123012004-14050-042617FM-12+088299999V0200901N006712200019N0100001N1+02281+01831101091ADDGF102991021011004501001001KA1240N+01821MA1999999091531MD1999999-0051REMSYN076AAXX  30124 83339 32497 20913 10228 20183 39153 40109 82100 333 20182 59005;
0137833390999992008123018004-14050-042617FM-12+088299999V0201401N004112200019N0100001N1+02731+01571100801ADDGF103991031021004501001001MA1999999091301MD1999999-0061REMSYN070AAXX  30184 83339 32497 31408 10273 20157 39130 40080 83200 333 59006;
0178833390999992008123100004-14050-042617FM-12+088299999V0201401N003612200019N0020001N1+02291+01631100921ADDGA1001+999999999GF100991001001999999001001KA1240M+02791MA1999999091391MD1999999-0071REMSYN082AAXX  31004 83339 32995 01407 10229 20163 39139 40092 333 10279 29064 55102 59007;
0156833390999992008123112004-14050-042617FM-12+088299999V0201401N003112200019N0100001N1+02231+01901101261ADDGF104991041021004501001001KA1240N+01791MA1999999091671MD1999999+0141REMSYN076AAXX  31124 83339 32497 41406 10223 20190 39167 40126 84200 333 20179 58014;
0137833390999992008123118004-14050-042617FM-12+088299999V0201801N002112200019N0100001N1+02851+01651100751ADDGF102991021021004501001001MA1999999091291MD1999999-0011REMSYN070AAXX  31184 83339 32497 21804 10285 20165 39129 40075 82200 333 59001;
