0072833440999992008010100004-14950-040883FM-15+0914SBQV V0201501N00461220001CN0099001N1+02001+01701999999ADDMA1101691999999REMMET045METAR SBQV 010000Z 15009KT CAVOK 20/17 Q1017;
0143833440999992008010111004-14950-040883FM-15+0914SBQV V0201201N004110900019N0112651N1+02101+01701999999ADDGA1021+006001999GA2071+090001999GF107991999999999999999999MA1101801999999REMMET058METAR SBQV 011100Z 12008KT 9999 FEW020 BKN300 21/17 Q1018;
0143833440999992008010112004-14950-040883FM-15+0914SBQV V0201201N003610900019N0112651N1+02201+01701999999ADDGA1021+007501999GA2071+090001999GF107991999999999999999999MA1101901999999REMMET058METAR SBQV 011200Z 12007KT 9999 FEW025 BKN300 22/17 Q1019;
0143833440999992008010113004-14950-040883FM-15+0914SBQV V0201301N003612200019N0112651N1+02401+01601999999ADDGA1041+009001999GA2041+090001999GF104991999999999999999999MA1101901999999REMMET058METAR SBQV 011300Z 13007KT 9999 SCT030 SCT300 24/16 Q1019;
0143833440999992008010114004-14950-040883FM-15+0914SBQV V0201301N004112200019N0112651N1+02601+01401999999ADDGA1041+010501999GA2041+090001999GF104991999999999999999999MA1101901999999REMMET058METAR SBQV 011400Z 13008KT 9999 SCT035 SCT300 26/14 Q1019;
0120833440999992008010115004-14950-040883FM-15+0914SBQV V0209999C000012200019N0112651N1+02601+01401999999ADDGA1021+010501999GF102991999999999999999999MA1101801999999REMMET051METAR SBQV 011500Z 00000KT 9999 FEW035 26/14 Q1018;
0120833440999992008010116004-14950-040883FM-15+0914SBQV V0202001N003112200019N0112651N1+02701+01701999999ADDGA1041+010501999GF104991999999999999999999MA1101801999999REMMET051METAR SBQV 011600Z 20006KT 9999 SCT035 27/17 Q1018;
0143833440999992008010117004-14950-040883FM-15+0914SBQV V0201801N002612200019N0112651N1+02701+01701999999ADDGA1041+010501999GA2041+090001999GF104991999999999999999999MA1101691999999REMMET058METAR SBQV 011700Z 18005KT 9999 SCT035 SCT300 27/17 Q1017;
0143833440999992008010118004-14950-040883FM-15+0914SBQV V0201701N004612200019N0112651N1+02801+01701999999ADDGA1021+010501999GA2041+090001999GF104991999999999999999999MA1101591999999REMMET058METAR SBQV 011800Z 17009KT 9999 FEW035 SCT300 28/17 Q1016;
0143833440999992008010119004-14950-040883FM-15+0914SBQV V0201701N004612200019N0112651N1+02701+01701999999ADDGA1021+009001999GA2041+090001999GF104991999999999999999999MA1101591999999REMMET058METAR SBQV 011900Z 17009KT 9999 FEW030 SCT300 27/17 Q1016;
0143833440999992008010120004-14950-040883FM-15+0914SBQV V0201701N005712200019N0112651N1+02601+01701999999ADDGA1021+007501999GA2041+090001999GF104991999999999999999999MA1101591999999REMMET058METAR SBQV 012000Z 17011KT 9999 FEW025 SCT300 26/17 Q1016;
0143833440999992008010121004-14950-040883FM-15+0914SBQV V0201601N004110900019N0112651N1+02401+01701999999ADDGA1021+006001999GA2071+090001999GF107991999999999999999999MA1101591999999REMMET058METAR SBQV 012100Z 16008KT 9999 FEW020 BKN300 24/17 Q1016;
0072833440999992008010122004-14950-040883FM-15+0914SBQV V0201501N00361220001CN0099001N1+02201+01701999999ADDMA1101691999999REMMET045METAR SBQV 012200Z 15007KT CAVOK 22/17 Q1017;
0143833440999992008010211004-14950-040883FM-15+0914SBQV V0201101N004110900019N0112651N1+02201+01701999999ADDGA1021+006001999GA2071+090001999GF107991999999999999999999MA1101901999999REMMET058METAR SBQV 021100Z 11008KT 9999 FEW020 BKN300 22/17 Q1019;
0143833440999992008010212004-14950-040883FM-15+0914SBQV V0201201N005710075019N0112651N1+02301+01701999999ADDGA1071+007501999GA2071+090001999GF107991999999999999999999MA1102001999999REMMET058METAR SBQV 021200Z 12011KT 9999 BKN025 BKN300 23/17 Q1020;
0143833440999992008010213004-14950-040883FM-15+0914SBQV V0201201N005110075019N0112651N1+02401+01701999999ADDGA1071+007501999GA2071+090001999GF107991999999999999999999MA1101901999999REMMET058METAR SBQV 021300Z 12010KT 9999 BKN025 BKN300 24/17 Q1019;
0143833440999992008010214004-14950-040883FM-15+0914SBQV V0201101N004610090019N0112651N1+02601+01701999999ADDGA1071+009001999GA2071+090001999GF107991999999999999999999MA1101901999999REMMET058METAR SBQV 021400Z 11009KT 9999 BKN030 BKN300 26/17 Q1019;
0143833440999992008010215004-14950-040883FM-15+0914SBQV V0201001N004110090019N0112651N1+02601+01601999999ADDGA1071+009001999GA2071+090001999GF107991999999999999999999MA1101801999999REMMET058METAR SBQV 021500Z 10008KT 9999 BKN030 BKN300 26/16 Q1018;
0143833440999992008010216004-14950-040883FM-15+0914SBQV V0201301N004610090019N0112651N1+02601+01701999999ADDGA1071+009001999GA2071+090001999GF107991999999999999999999MA1101801999999REMMET058METAR SBQV 021600Z 13009KT 9999 BKN030 BKN300 26/17 Q1018;
0136833440999992008010217004-14950-040883FM-15+0914SBQV V0201701N00511220001CN0112651N1+02601+01801999999ADDGA1071+009001999GA2041+090001999MA1101801999999REMMET058METAR SBQV 021700Z 17010KT 9999 BKN030 SCT300 26/18 Q1018;EQDQ01+000042SCOTCV
0136833440999992008010218004-14950-040883FM-15+0914SBQV V0201401N00621220001CN0112651N1+02601+01901999999ADDGA1071+007501999GA2041+090001999MA1101691999999REMMET058METAR SBQV 021800Z 14012KT 9999 BKN025 SCT300 26/19 Q1017;EQDQ01+000042SCOTCV
0143833440999992008010219004-14950-040883FM-15+0914SBQV V0201401N005712200019N0112651N1+02501+01701999999ADDGA1041+006001999GA2041+090001999GF104991999999999999999999MA1101691999999REMMET058METAR SBQV 021900Z 14011KT 9999 SCT020 SCT300 25/17 Q1017;
0120833440999992008010220004-14950-040883FM-15+0914SBQV V0201401N005112200019N0112651N1+02501+01701999999ADDGA1021+006001999GF102991999999999999999999MA1101691999999REMMET051METAR SBQV 022000Z 14010KT 9999 FEW020 25/17 Q1017;
0120833440999992008010221004-14950-040883FM-15+0914SBQV V0201501N004112200019N0112651N1+02301+01801999999ADDGA1021+004801999GF102991999999999999999999MA1101801999999REMMET051METAR SBQV 022100Z 15008KT 9999 FEW016 23/18 Q1018;
0120833440999992008010222004-14950-040883FM-15+0914SBQV V0201601N004112200019N0112651N1+02101+01801999999ADDGA1021+004501999GF102991999999999999999999MA1101801999999REMMET051METAR SBQV 022200Z 16008KT 9999 FEW015 21/18 Q1018;
0120833440999992008010311004-14950-040883FM-15+0914SBQV V0201501N006712200019N0112651N1+02101+01601999999ADDGA1021+004501999GF102991999999999999999999MA1102201999999REMMET051METAR SBQV 031100Z 15013KT 9999 FEW015 21/16 Q1022;
0143833440999992008010312004-14950-040883FM-15+0914SBQV V0201401N006712200019N0112651N1+02401+01501999999ADDGA1041+004801999GA2041+090001999GF104991999999999999999999MA1102201999999REMMET058METAR SBQV 031200Z 14013KT 9999 SCT016 SCT300 24/15 Q1022;
0143833440999992008010313004-14950-040883FM-15+0914SBQV V0201601N007212200019N0112651N1+02401+01401999999ADDGA1041+004801999GA2041+090001999GF104991999999999999999999MA1102201999999REMMET058METAR SBQV 031300Z 16014KT 9999 SCT016 SCT300 24/14 Q1022;
0120833440999992008010314004-14950-040883FM-15+0914SBQV V0201401N006712200019N0112651N1+02601+01601999999ADDGA1021+007501999GF102991999999999999999999MA1102201999999REMMET051METAR SBQV 031400Z 14013KT 9999 FEW025 26/16 Q1022;
0143833440999992008010315004-14950-040883FM-15+0914SBQV V0201101N004112200019N0112651N1+02601+01501999999ADDGA1021+007501999GA2041+090001999GF104991999999999999999999MA1102101999999REMMET058METAR SBQV 031500Z 11008KT 9999 FEW025 SCT300 26/15 Q1021;
0143833440999992008010316004-14950-040883FM-15+0914SBQV V0201601N004112200019N0112651N1+02701+01601999999ADDGA1041+009001999GA2041+090001999GF104991999999999999999999MA1102101999999REMMET058METAR SBQV 031600Z 16008KT 9999 SCT030 SCT300 27/16 Q1021;
0143833440999992008010317004-14950-040883FM-15+0914SBQV V0201201N003612200019N0112651N1+02701+01601999999ADDGA1041+009001999GA2041+090001999GF104991999999999999999999MA1102001999999REMMET058METAR SBQV 031700Z 12007KT 9999 SCT030 SCT300 27/16 Q1020;
0143833440999992008010318004-14950-040883FM-15+0914SBQV V0201501N004610900019N0112651N1+02601+01401999999ADDGA1041+009001999GA2071+090001999GF107991999999999999999999MA1101901999999REMMET058METAR SBQV 031800Z 15009KT 9999 SCT030 BKN300 26/14 Q1019;
0143833440999992008010319004-14950-040883FM-15+0914SBQV V0201401N005110900019N0112651N1+02601+01401999999ADDGA1021+009001999GA2071+090001999GF107991999999999999999999MA1101901999999REMMET058METAR SBQV 031900Z 14010KT 9999 FEW030 BKN300 26/14 Q1019;
0143833440999992008010320004-14950-040883FM-15+0914SBQV V0201301N005110900019N0112651N1+02501+01401999999ADDGA1021+007501999GA2071+090001999GF107991999999999999999999MA1101901999999REMMET058METAR SBQV 032000Z 13010KT 9999 FEW025 BKN300 25/14 Q1019;
0143833440999992008010321004-14950-040883FM-15+0914SBQV V0201401N004610900019N0112651N1+02401+01401999999ADDGA1021+006001999GA2071+090001999GF107991999999999999999999MA1101901999999REMMET058METAR SBQV 032100Z 14009KT 9999 FEW020 BKN300 24/14 Q1019;
0072833440999992008010322004-14950-040883FM-15+0914SBQV V0201401N00361220001CN0099001N1+02301+01501999999ADDMA1102001999999REMMET045METAR SBQV 032200Z 14007KT CAVOK 23/15 Q1020;
0072833440999992008010411004-14950-040883FM-15+0914SBQV V0201401N00051220001CN0099001N1+02101+01501999999ADDMA1102201999999REMMET045METAR SBQV 041100Z 14001KT CAVOK 21/15 Q1022;
0120833440999992008010412004-14950-040883FM-15+0914SBQV V0200401N002112200019N0112651N1+02301+01401999999ADDGA1021+007501999GF102991999999999999999999MA1102301999999REMMET051METAR SBQV 041200Z 04004KT 9999 FEW025 23/14 Q1023;
0120833440999992008010413004-14950-040883FM-15+0914SBQV V0201201N005712200019N0112651N1+02501+01201999999ADDGA1021+009001999GF102991999999999999999999MA1102201999999REMMET051METAR SBQV 041300Z 12011KT 9999 FEW030 25/12 Q1022;
0120833440999992008010414004-14950-040883FM-15+0914SBQV V0203601N001512200019N0112651N1+02701+01201999999ADDGA1021+010501999GF102991999999999999999999MA1102201999999REMMET051METAR SBQV 041400Z 36003KT 9999 FEW035 27/12 Q1022;
0120833440999992008010415004-14950-040883FM-15+0914SBQV V0200901N005112200019N0112651N1+02801+01301999999ADDGA1021+010501999GF102991999999999999999999MA1102101999999REMMET051METAR SBQV 041500Z 09010KT 9999 FEW035 28/13 Q1021;
0143833440999992008010416004-14950-040883FM-15+0914SBQV V0200101N002112200019N0112651N1+02801+01101999999ADDGA1021+010501999GA2041+090001999GF104991999999999999999999MA1102101999999REMMET058METAR SBQV 041600Z 01004KT 9999 FEW035 SCT300 28/11 Q1021;
0143833440999992008010417004-14950-040883FM-15+0914SBQV V0201401N004612200019N0112651N1+02801+01501999999ADDGA1021+010501999GA2041+090001999GF104991999999999999999999MA1102001999999REMMET058METAR SBQV 041700Z 14009KT 9999 FEW035 SCT300 28/15 Q1020;
0143833440999992008010418004-14950-040883FM-15+0914SBQV V0201401N002612200019N0112651N1+02801+01701999999ADDGA1021+010501999GA2041+090001999GF104991999999999999999999MA1101901999999REMMET058METAR SBQV 041800Z 14005KT 9999 FEW035 SCT300 28/17 Q1019;
0143833440999992008010419004-14950-040883FM-15+0914SBQV V0200401N003112200019N0112651N1+02801+01401999999ADDGA1021+010501999GA2041+090001999GF104991999999999999999999MA1101901999999REMMET058METAR SBQV 041900Z 04006KT 9999 FEW035 SCT300 28/14 Q1019;
0143833440999992008010420004-14950-040883FM-15+0914SBQV V0200901N004612200019N0112651N1+02601+01601999999ADDGA1021+009001999GA2041+090001999GF104991999999999999999999MA1101901999999REMMET058METAR SBQV 042000Z 09009KT 9999 FEW030 SCT300 26/16 Q1019;
0120833440999992008010421004-14950-040883FM-15+0914SBQV V0201401N004612200019N0112651N1+02501+01601999999ADDGA1041+007501999GF104991999999999999999999MA1101901999999REMMET051METAR SBQV 042100Z 14009KT 9999 SCT025 25/16 Q1019;
0072833440999992008010422004-14950-040883FM-15+0914SBQV V0201301N00461220001CN0099001N1+02301+01701999999ADDMA1102001999999REMMET045METAR SBQV 042200Z 13009KT CAVOK 23/17 Q1020;
0120833440999992008010511004-14950-040883FM-15+0914SBQV V0200701N003610045019N0112651N1+02001+01701999999ADDGA1071+004501999GF107991999999999999999999MA1102101999999REMMET051METAR SBQV 051100Z 07007KT 9999 BKN015 20/17 Q1021;
0120833440999992008010512004-14950-040883FM-15+0914SBQV V0200601N003110048019N0112651N1+02301+01801999999ADDGA1071+004801999GF107991999999999999999999MA1102201999999REMMET051METAR SBQV 051200Z 06006KT 9999 BKN016 23/18 Q1022;
0120833440999992008010513004-14950-040883FM-15+0914SBQV V0200401N002112200019N0112651N1+02401+01701999999ADDGA1041+005401999GF104991999999999999999999MA1102201999999REMMET051METAR SBQV 051300Z 04004KT 9999 SCT018 24/17 Q1022;
0120833440999992008010514004-14950-040883FM-15+0914SBQV V0200301N002612200019N0112651N1+02701+01801999999ADDGA1041+006001999GF104991999999999999999999MA1102101999999REMMET051METAR SBQV 051400Z 03005KT 9999 SCT020 27/18 Q1021;
0120833440999992008010515004-14950-040883FM-15+0914SBQV V0200401N003112200019N0112651N1+02701+01701999999ADDGA1041+007501999GF104991999999999999999999MA1102001999999REMMET051METAR SBQV 051500Z 04006KT 9999 SCT025 27/17 Q1020;
0120833440999992008010516004-14950-040883FM-15+0914SBQV V0200401N002612200019N0112651N1+02701+01501999999ADDGA1041+007501999GF104991999999999999999999MA1101901999999REMMET051METAR SBQV 051600Z 04005KT 9999 SCT025 27/15 Q1019;
0120833440999992008010517004-14950-040883FM-15+0914SBQV V0203601N001512200019N0112651N1+02901+01501999999ADDGA1041+009001999GF104991999999999999999999MA1101801999999REMMET051METAR SBQV 051700Z 36003KT 9999 SCT030 29/15 Q1018;
0120833440999992008010518004-14950-040883FM-15+0914SBQV V0203501N001512200019N0112651N1+03001+01201999999ADDGA1041+009001999GF104991999999999999999999MA1101691999999REMMET051METAR SBQV 051800Z 35003KT 9999 SCT030 30/12 Q1017;
0120833440999992008010519004-14950-040883FM-15+0914SBQV V0202401N001012200019N0112651N1+02901+01001999999ADDGA1041+009001999GF104991999999999999999999MA1101691999999REMMET051METAR SBQV 051900Z 24002KT 9999 SCT030 29/10 Q1017;
0120833440999992008010520004-14950-040883FM-15+0914SBQV V0203601N001512200019N0112651N1+02901+01401999999ADDGA1021+009001999GF102991999999999999999999MA1101691999999REMMET051METAR SBQV 052000Z 36003KT 9999 FEW030 29/14 Q1017;
0120833440999992008010521004-14950-040883FM-15+0914SBQV V0203001N001012200019N0112651N1+02701+01401999999ADDGA1021+007501999GF102991999999999999999999MA1101691999999REMMET051METAR SBQV 052100Z 30002KT 9999 FEW025 27/14 Q1017;
0072833440999992008010522004-14950-040883FM-15+0914SBQV V0201501N00311220001CN0099001N1+02401+01901999999ADDMA1101691999999REMMET045METAR SBQV 052200Z 15006KT CAVOK 24/19 Q1017;
0120833440999992008010611004-14950-040883FM-15+0914SBQV V0200501N006212200019N0112651N1+02201+01901999999ADDGA1021+004801999GF102991999999999999999999MA1101901999999REMMET051METAR SBQV 061100Z 05012KT 9999 FEW016 22/19 Q1019;
0143833440999992008010612004-14950-040883FM-15+0914SBQV V0200401N006712200019N0112651N1+02301+01901999999ADDGA1021+005401999GA2041+090001999GF104991999999999999999999MA1101901999999REMMET058METAR SBQV 061200Z 04013KT 9999 FEW018 SCT300 23/19 Q1019;
0143833440999992008010613004-14950-040883FM-15+0914SBQV V0200401N005110900019N0112651N1+02401+01901999999ADDGA1021+005401999GA2071+090001999GF107991999999999999999999MA1101901999999REMMET058METAR SBQV 061300Z 04010KT 9999 FEW018 BKN300 24/19 Q1019;
0143833440999992008010614004-14950-040883FM-15+0914SBQV V0200201N004110900019N0112651N1+02601+02001999999ADDGA1021+006001999GA2071+090001999GF107991999999999999999999MA1101901999999REMMET058METAR SBQV 061400Z 02008KT 9999 FEW020 BKN300 26/20 Q1019;
0143833440999992008010615004-14950-040883FM-15+0914SBQV V0200101N003610900019N0112651N1+02701+01901999999ADDGA1021+007501999GA2071+090001999GF107991999999999999999999MA1101801999999REMMET058METAR SBQV 061500Z 01007KT 9999 FEW025 BKN300 27/19 Q1018;
0143833440999992008010616004-14950-040883FM-15+0914SBQV V0200101N003110900019N0112651N1+02901+01901999999ADDGA1021+007501999GA2071+090001999GF107991999999999999999999MA1101691999999REMMET058METAR SBQV 061600Z 01006KT 9999 FEW025 BKN300 29/19 Q1017;
0143833440999992008010617004-14950-040883FM-15+0914SBQV V0200101N002112200019N0112651N1+02901+01701999999ADDGA1021+007501999GA2041+090001999GF104991999999999999999999MA1101591999999REMMET058METAR SBQV 061700Z 01004KT 9999 FEW025 SCT300 29/17 Q1016;
0143833440999992008010618004-14950-040883FM-15+0914SBQV V0203301N001510900019N0112651N1+03001+01501999999ADDGA1021+009001999GA2071+090001999GF107991999999999999999999MA1101491999999REMMET058METAR SBQV 061800Z 33003KT 9999 FEW030 BKN300 30/15 Q1015;
0143833440999992008010619004-14950-040883FM-15+0914SBQV V0200101N003110900019N0112651N1+02901+01601999999ADDGA1021+009001999GA2071+090001999GF107991999999999999999999MA1101491999999REMMET058METAR SBQV 061900Z 01006KT 9999 FEW030 BKN300 29/16 Q1015;
0143833440999992008010620004-14950-040883FM-15+0914SBQV V0209999C000010900019N0112651N1+02801+01601999999ADDGA1021+009001999GA2071+090001999GF107991999999999999999999MA1101391999999REMMET058METAR SBQV 062000Z 00000KT 9999 FEW030 BKN300 28/16 Q1014;
0143833440999992008010621004-14950-040883FM-15+0914SBQV V0200101N000510900019N0112651N1+02801+01701999999ADDGA1021+009001999GA2071+090001999GF107991999999999999999999MA1101491999999REMMET058METAR SBQV 062100Z 01001KT 9999 FEW030 BKN300 28/17 Q1015;
0072833440999992008010622004-14950-040883FM-15+0914SBQV V0209999C00001220001CN0099001N1+02501+01701999999ADDMA1101491999999REMMET045METAR SBQV 062200Z 00000KT CAVOK 25/17 Q1015;
0072833440999992008010623004-14950-040883FM-15+0914SBQV V0209999C00001220001CN0099001N1+02201+01801999999ADDMA1101591999999REMMET045METAR SBQV 062300Z 00000KT CAVOK 22/18 Q1016;
0072833440999992008010700004-14950-040883FM-15+0914SBQV V0209999C00001220001CN0099001N1+02301+01901999999ADDMA1101691999999REMMET045METAR SBQV 070000Z 00000KT CAVOK 23/19 Q1017;
0072833440999992008010711004-14950-040883FM-15+0914SBQV V0200401N00931220001CN0099001N1+02301+01801999999ADDMA1101691999999REMMET045METAR SBQV 071100Z 04018KT CAVOK 23/18 Q1017;
0072833440999992008010712004-14950-040883FM-15+0914SBQV V0200201N00771220001CN0099001N1+02601+01501999999ADDMA1101691999999REMMET045METAR SBQV 071200Z 02015KT CAVOK 26/15 Q1017;
0072833440999992008010713004-14950-040883FM-15+0914SBQV V0200201N00511220001CN0099001N1+02701+01701999999ADDMA1101801999999REMMET045METAR SBQV 071300Z 02010KT CAVOK 27/17 Q1018;
0072833440999992008010714004-14950-040883FM-15+0914SBQV V0200101N00411220001CN0099001N1+02901+01601999999ADDMA1101691999999REMMET045METAR SBQV 071400Z 01008KT CAVOK 29/16 Q1017;
0120833440999992008010715004-14950-040883FM-15+0914SBQV V0200301N002612200019N0112651N1+03001+01701999999ADDGA1021+012001999GF102991999999999999999999MA1101691999999REMMET051METAR SBQV 071500Z 03005KT 9999 FEW040 30/17 Q1017;
0120833440999992008010716004-14950-040883FM-15+0914SBQV V0200401N003112200019N0112651N1+03101+01701999999ADDGA1021+012001999GF102991999999999999999999MA1101591999999REMMET051METAR SBQV 071600Z 04006KT 9999 FEW040 31/17 Q1016;
0120833440999992008010717004-14950-040883FM-15+0914SBQV V0203401N001012200019N0112651N1+03201+01601999999ADDGA1021+012001999GF102991999999999999999999MA1101491999999REMMET051METAR SBQV 071700Z 34002KT 9999 FEW040 32/16 Q1015;
0123833440999992008010718004-14950-040883FM-15+0914SBQV V0200501N001512200019N0112651N1+03101+01701999999ADDGA1021+010501021GF102991999999999999999999MA1101391999999REMMET054METAR SBQV 071800Z 05003KT 9999 FEW035TCU 31/17 Q1014;
0143833440999992008010719004-14950-040883FM-15+0914SBQV V0200501N003610900019N0112651N1+03001+01701999999ADDGA1041+012001999GA2071+090001999GF107991999999999999999999MA1101291999999REMMET058METAR SBQV 071900Z 05007KT 9999 SCT040 BKN300 30/17 Q1013;
0143833440999992008010720004-14950-040883FM-15+0914SBQV V0200501N003610900019N0112651N1+03001+01701999999ADDGA1021+010501999GA2071+090001999GF107991999999999999999999MA1101291999999REMMET058METAR SBQV 072000Z 05007KT 9999 FEW035 BKN300 30/17 Q1013;
0169833440999992008010721004-14950-040883FM-15+0914SBQV V0200101N00211009001CN0112651N1+02901+01701999999ADDGA1021+007501021GA2041+009001999GA3071+090001999GF107991999999999999999999MA1101391999999REMMET068METAR SBQV 072100Z 01004KT 9999 FEW025TCU SCT030 BKN300 29/17 Q1014;
0097833440999992008010721274-14950-040883FM-16+0914SBQV V02099999999992200019N0112651N1+02801+01701999999ADDMA1101401999999REMMET070METAR SBQV 072127Z SPECI I 9999 TS FEW025CB SCT030 BKN090 28/17 Q1014;
0182833440999992008010723004-14950-040883FM-15+0914SBQV V0201101N00411007501CN0112651N1+02501+02001999999ADDGA1021+006001091GA2041+007501999GA3071+027001999GF107991999999999999999999MA1101591999999MW1171REMMET075METAR SBQV 072300Z 11008KT 9999 TS FEW020CB SCT025 BKN090 25/20 Q1016 RETS;
0154833440999992008010800004-14950-040883FM-15+0914SBQV V0201501N003610270019N0112651N1+02401+02101999999ADDGA1021+006001091GA2071+027001999GF107991999999999999999999MA1101691999999MW1171REMMET063METAR SBQV 080000Z 15007KT 9999 TS FEW020CB BKN090 24/21 Q1017;
0072833440999992008010811004-14950-040883FM-15+0914SBQV V0200601N00361220001CN0099001N1+02001+01901999999ADDMA1101801999999REMMET045METAR SBQV 081100Z 06007KT CAVOK 20/19 Q1018;
0143833440999992008010812004-14950-040883FM-15+0914SBQV V0200401N003110270019N0112651N1+02201+02101999999ADDGA1021+003901999GA2071+027001999GF107991999999999999999999MA1101801999999REMMET058METAR SBQV 081200Z 04006KT 9999 FEW013 BKN090 22/21 Q1018;
0143833440999992008010813004-14950-040883FM-15+0914SBQV V0203601N001510045019N0112651N1+02201+02001999999ADDGA1071+004501999GA2081+027001999GF108991999999999999999999MA1101801999999REMMET058METAR SBQV 081300Z 36003KT 9999 BKN015 OVC090 22/20 Q1018;
0143833440999992008010814004-14950-040883FM-15+0914SBQV V0200201N002610240019N0112651N1+02201+02001999999ADDGA1041+004801999GA2081+024001999GF108991999999999999999999MA1101801999999REMMET058METAR SBQV 081400Z 02005KT 9999 SCT016 OVC080 22/20 Q1018;
0143833440999992008010815004-14950-040883FM-15+0914SBQV V0203501N001510270019N0112651N1+02301+02001999999ADDGA1021+005401999GA2071+027001999GF107991999999999999999999MA1101691999999REMMET058METAR SBQV 081500Z 35003KT 9999 FEW018 BKN090 23/20 Q1017;
0143833440999992008010816004-14950-040883FM-15+0914SBQV V0209999C000010270019N0112651N1+02601+02101999999ADDGA1041+007501999GA2071+027001999GF107991999999999999999999MA1101691999999REMMET058METAR SBQV 081600Z 00000KT 9999 SCT025 BKN090 26/21 Q1017;
0143833440999992008010817004-14950-040883FM-15+0914SBQV V0200101N001010270019N0112651N1+02701+02101999999ADDGA1041+007501999GA2071+027001999GF107991999999999999999999MA1101591999999REMMET058METAR SBQV 081700Z 01002KT 9999 SCT025 BKN090 27/21 Q1016;
0192833440999992008010818004-14950-040883FM-15+0914SBQV V0201401N00101006001CN0112651N1+02301+02201999999ADDGA1021+003601999GA2021+005401021GA3041+006001999GA4071+027001999GF107991999999999999999999MA1101491999999REMMET075METAR SBQV 081800Z 14002KT 9999 FEW012 FEW018TCU SCT020 BKN090 23/22 Q1015;
0177833440999992008010819004-14950-040883FM-15+0914SBQV V0203101N00051006001CN0112651N1+02501+02201999999ADDGA1021+005401091GA2041+006001999GA3071+027001999GF107991999999999999999999MA1101491999999MW1171REMMET070METAR SBQV 081900Z 31001KT 9999 TS FEW018CB SCT020 BKN090 25/22 Q1015;
0177833440999992008010820004-14950-040883FM-15+0914SBQV V0201801N00101005401CN0112651N1+02201+02101999999ADDGA1021+004801091GA2041+005401999GA3071+027001999GF107991999999999999999999MA1101491999999MW1171REMMET070METAR SBQV 082000Z 18002KT 9999 TS FEW016CB SCT018 BKN090 22/21 Q1015;
0148833440999992008010821004-14950-040883FM-15+0914SBQV V0209999C000010240019N0112651N1+02201+02101999999ADDGA1021+004801999GA2071+024001999GF107991999999999999999999MA1101491999999REMMET063METAR SBQV 082100Z 00000KT 9999 FEW016 BKN080 22/21 Q1015 RETS;
0154833440999992008010822004-14950-040883FM-15+0914SBQV V0209999C000012200019N0112651N1+02101+02101999999ADDGA1021+004501091GA2041+021001999GF104991999999999999999999MA1101591999999MW1171REMMET063METAR SBQV 082200Z 00000KT 9999 TS FEW015CB SCT070 21/21 Q1016;
0143833440999992008010911004-14950-040883FM-15+0914SBQV V0200701N005110240019N0112651N1+02201+02001999999ADDGA1021+004501999GA2071+024001999GF107991999999999999999999MA1101591999999REMMET058METAR SBQV 091100Z 07010KT 9999 FEW015 BKN080 22/20 Q1016;
0143833440999992008010912004-14950-040883FM-15+0914SBQV V0200601N006210240019N0112651N1+02301+02001999999ADDGA1021+006001999GA2071+024001999GF107991999999999999999999MA1101691999999REMMET058METAR SBQV 091200Z 06012KT 9999 FEW020 BKN080 23/20 Q1017;
0143833440999992008010913004-14950-040883FM-15+0914SBQV V0200401N005710270019N0112651N1+02501+02001999999ADDGA1021+007501999GA2071+027001999GF107991999999999999999999MA1101691999999REMMET058METAR SBQV 091300Z 04011KT 9999 FEW025 BKN090 25/20 Q1017;
0143833440999992008010914004-14950-040883FM-15+0914SBQV V0200501N005710270019N0112651N1+02701+02001999999ADDGA1021+007501999GA2071+027001999GF107991999999999999999999MA1101591999999REMMET058METAR SBQV 091400Z 05011KT 9999 FEW025 BKN090 27/20 Q1016;
0143833440999992008010915004-14950-040883FM-15+0914SBQV V0200601N005110270019N0112651N1+02701+02001999999ADDGA1021+007501999GA2071+027001999GF107991999999999999999999MA1101591999999REMMET058METAR SBQV 091500Z 06010KT 9999 FEW025 BKN090 27/20 Q1016;
0143833440999992008010916004-14950-040883FM-15+0914SBQV V0200501N003610270019N0112651N1+02701+02001999999ADDGA1021+007501999GA2071+027001999GF107991999999999999999999MA1101591999999REMMET058METAR SBQV 091600Z 05007KT 9999 FEW025 BKN090 27/20 Q1016;
0143833440999992008010917004-14950-040883FM-15+0914SBQV V0200301N003610270019N0112651N1+02801+01901999999ADDGA1041+007501999GA2071+027001999GF107991999999999999999999MA1101391999999REMMET058METAR SBQV 091700Z 03007KT 9999 SCT025 BKN090 28/19 Q1014;
0143833440999992008010918004-14950-040883FM-15+0914SBQV V0200301N003610900019N0112651N1+02801+01901999999ADDGA1021+007501999GA2071+090001999GF107991999999999999999999MA1101291999999REMMET058METAR SBQV 091800Z 03007KT 9999 FEW025 BKN300 28/19 Q1013;
0143833440999992008010919004-14950-040883FM-15+0914SBQV V0200601N004610900019N0112651N1+02801+01801999999ADDGA1041+007501999GA2071+090001999GF107991999999999999999999MA1101191999999REMMET058METAR SBQV 091900Z 06009KT 9999 SCT025 BKN300 28/18 Q1012;
0143833440999992008010920004-14950-040883FM-15+0914SBQV V0200501N003110900019N0112651N1+02701+01801999999ADDGA1021+007501999GA2071+090001999GF107991999999999999999999MA1101191999999REMMET058METAR SBQV 092000Z 05006KT 9999 FEW025 BKN300 27/18 Q1012;
0143833440999992008010921004-14950-040883FM-15+0914SBQV V0200701N003610900019N0112651N1+02601+01801999999ADDGA1021+005401999GA2071+090001999GF107991999999999999999999MA1101291999999REMMET058METAR SBQV 092100Z 07007KT 9999 FEW018 BKN300 26/18 Q1013;
0143833440999992008010922004-14950-040883FM-15+0914SBQV V0201001N003110900019N0112651N1+02401+01801999999ADDGA1021+004501999GA2071+090001999GF107991999999999999999999MA1101391999999REMMET058METAR SBQV 092200Z 10006KT 9999 FEW015 BKN300 24/18 Q1014;
0120833440999992008011011004-14950-040883FM-15+0914SBQV V0200801N004612200019N0112651N1+02201+01701999999ADDGA1041+004501999GF104991999999999999999999MA1101691999999REMMET051METAR SBQV 101100Z 08009KT 9999 SCT015 22/17 Q1017;
0120833440999992008011012004-14950-040883FM-15+0914SBQV V0200901N004612200019N0112651N1+02301+01701999999ADDGA1041+005401999GF104991999999999999999999MA1101691999999REMMET051METAR SBQV 101200Z 09009KT 9999 SCT018 23/17 Q1017;
0120833440999992008011013004-14950-040883FM-15+0914SBQV V0200801N004112200019N0112651N1+02401+01701999999ADDGA1041+006001999GF104991999999999999999999MA1101691999999REMMET051METAR SBQV 101300Z 08008KT 9999 SCT020 24/17 Q1017;
0120833440999992008011014004-14950-040883FM-15+0914SBQV V0200701N004112200019N0112651N1+02601+01701999999ADDGA1041+006001999GF104991999999999999999999MA1101691999999REMMET051METAR SBQV 101400Z 07008KT 9999 SCT020 26/17 Q1017;
0120833440999992008011015004-14950-040883FM-15+0914SBQV V0200901N004112200019N0112651N1+02601+01601999999ADDGA1041+006001999GF104991999999999999999999MA1101691999999REMMET051METAR SBQV 101500Z 09008KT 9999 SCT020 26/16 Q1017;
0120833440999992008011016004-14950-040883FM-15+0914SBQV V0200901N004112200019N0112651N1+02701+01601999999ADDGA1041+007501999GF104991999999999999999999MA1101591999999REMMET051METAR SBQV 101600Z 09008KT 9999 SCT025 27/16 Q1016;
0143833440999992008011017004-14950-040883FM-15+0914SBQV V0200901N003112200019N0112651N1+02801+01601999999ADDGA1041+009001999GA2041+090001999GF104991999999999999999999MA1101491999999REMMET058METAR SBQV 101700Z 09006KT 9999 SCT030 SCT300 28/16 Q1015;
0143833440999992008011018004-14950-040883FM-15+0914SBQV V0201101N002612200019N0112651N1+02601+01601999999ADDGA1041+009001999GA2041+090001999GF104991999999999999999999MA1101391999999REMMET058METAR SBQV 101800Z 11005KT 9999 SCT030 SCT300 26/16 Q1014;
0143833440999992008011019004-14950-040883FM-15+0914SBQV V0201301N005110900019N0112651N1+02601+01501999999ADDGA1021+007501999GA2071+090001999GF107991999999999999999999MA1101391999999REMMET058METAR SBQV 101900Z 13010KT 9999 FEW025 BKN300 26/15 Q1014;
0143833440999992008011020004-14950-040883FM-15+0914SBQV V0201601N005112200019N0112651N1+02501+01501999999ADDGA1021+007501999GA2041+090001999GF104991999999999999999999MA1101391999999REMMET058METAR SBQV 102000Z 16010KT 9999 FEW025 SCT300 25/15 Q1014;
0120833440999992008011021004-14950-040883FM-15+0914SBQV V0201601N005712200019N0112651N1+02401+01501999999ADDGA1021+006001999GF102991999999999999999999MA1101491999999REMMET051METAR SBQV 102100Z 16011KT 9999 FEW020 24/15 Q1015;
0120833440999992008011022004-14950-040883FM-15+0914SBQV V0201501N003112200019N0112651N1+02301+01601999999ADDGA1021+004801999GF102991999999999999999999MA1101591999999REMMET051METAR SBQV 102200Z 15006KT 9999 FEW016 23/16 Q1016;
0143833440999992008011111004-14950-040883FM-15+0914SBQV V0201001N005712200019N0112651N1+02101+01701999999ADDGA1021+002101999GA2041+004501999GF104991999999999999999999MA1101801999999REMMET058METAR SBQV 111100Z 10011KT 9999 FEW007 SCT015 21/17 Q1018;
0143833440999992008011112004-14950-040883FM-15+0914SBQV V0201001N004612200019N0112651N1+02301+01801999999ADDGA1021+003901999GA2041+004801999GF104991999999999999999999MA1101801999999REMMET058METAR SBQV 111200Z 10009KT 9999 FEW013 SCT016 23/18 Q1018;
0143833440999992008011113004-14950-040883FM-15+0914SBQV V0200701N004112200019N0112651N1+02401+01701999999ADDGA1041+005401999GA2041+090001999GF104991999999999999999999MA1101801999999REMMET058METAR SBQV 111300Z 07008KT 9999 SCT018 SCT300 24/17 Q1018;
0143833440999992008011114004-14950-040883FM-15+0914SBQV V0200901N002612200019N0112651N1+02401+01601999999ADDGA1041+005401999GA2041+090001999GF104991999999999999999999MA1101801999999REMMET058METAR SBQV 111400Z 09005KT 9999 SCT018 SCT300 24/16 Q1018;
0120833440999992008011115004-14950-040883FM-15+0914SBQV V0200901N003612200019N0112651N1+02701+01601999999ADDGA1041+007501999GF104991999999999999999999MA1101801999999REMMET051METAR SBQV 111500Z 09007KT 9999 SCT025 27/16 Q1018;
0120833440999992008011116004-14950-040883FM-15+0914SBQV V0201001N002610075019N0112651N1+02701+01501999999ADDGA1071+007501999GF107991999999999999999999MA1101691999999REMMET051METAR SBQV 111600Z 10005KT 9999 BKN025 27/15 Q1017;
0120833440999992008011117004-14950-040883FM-15+0914SBQV V0201601N004112200019N0112651N1+02601+01501999999ADDGA1041+007501999GF104991999999999999999999MA1101691999999REMMET051METAR SBQV 111700Z 16008KT 9999 SCT025 26/15 Q1017;
0120833440999992008011118004-14950-040883FM-15+0914SBQV V0201401N001512200019N0112651N1+02701+01601999999ADDGA1041+007501999GF104991999999999999999999MA1101591999999REMMET051METAR SBQV 111800Z 14003KT 9999 SCT025 27/16 Q1016;
0120833440999992008011119004-14950-040883FM-15+0914SBQV V0201401N003112200019N0112651N1+02701+01501999999ADDGA1021+007501999GF102991999999999999999999MA1101491999999REMMET051METAR SBQV 111900Z 14006KT 9999 FEW025 27/15 Q1015;
0120833440999992008011120004-14950-040883FM-15+0914SBQV V0201501N005712200019N0112651N1+02701+01701999999ADDGA1021+007501999GF102991999999999999999999MA1101491999999REMMET051METAR SBQV 112000Z 15011KT 9999 FEW025 27/17 Q1015;
0120833440999992008011121004-14950-040883FM-15+0914SBQV V0201601N005712200019N0112651N1+02501+01701999999ADDGA1021+007501999GF102991999999999999999999MA1101491999999REMMET051METAR SBQV 112100Z 16011KT 9999 FEW025 25/17 Q1015;
0120833440999992008011122004-14950-040883FM-15+0914SBQV V0201401N002612200019N0112651N1+02301+01801999999ADDGA1021+006001999GF102991999999999999999999MA1101591999999REMMET051METAR SBQV 112200Z 14005KT 9999 FEW020 23/18 Q1016;
0120833440999992008011211004-14950-040883FM-15+0914SBQV V0200801N003110060019N0112651N1+02101+01701999999ADDGA1071+006001999GF107991999999999999999999MA1101901999999REMMET051METAR SBQV 121100Z 08006KT 9999 BKN020 21/17 Q1019;
0120833440999992008011212004-14950-040883FM-15+0914SBQV V0200801N003610075019N0112651N1+02301+01701999999ADDGA1071+007501999GF107991999999999999999999MA1101901999999REMMET051METAR SBQV 121200Z 08007KT 9999 BKN025 23/17 Q1019;
0120833440999992008011213004-14950-040883FM-15+0914SBQV V0200701N004612200019N0112651N1+02401+01701999999ADDGA1041+007501999GF104991999999999999999999MA1101901999999REMMET051METAR SBQV 121300Z 07009KT 9999 SCT025 24/17 Q1019;
0120833440999992008011214004-14950-040883FM-15+0914SBQV V0200901N003610075019N0112651N1+02601+01701999999ADDGA1071+007501999GF107991999999999999999999MA1101901999999REMMET051METAR SBQV 121400Z 09007KT 9999 BKN025 26/17 Q1019;
0120833440999992008011215004-14950-040883FM-15+0914SBQV V0200701N003612200019N0112651N1+02701+01701999999ADDGA1041+009001999GF104991999999999999999999MA1101801999999REMMET051METAR SBQV 121500Z 07007KT 9999 SCT030 27/17 Q1018;
0120833440999992008011216004-14950-040883FM-15+0914SBQV V0201201N005112200019N0112651N1+02701+01701999999ADDGA1041+009001999GF104991999999999999999999MA1101801999999REMMET051METAR SBQV 121600Z 12010KT 9999 SCT030 27/17 Q1018;
0120833440999992008011217004-14950-040883FM-15+0914SBQV V0201501N001012200019N0112651N1+02601+01401999999ADDGA1041+009001999GF104991999999999999999999MA1101691999999REMMET051METAR SBQV 121700Z 15002KT 9999 SCT030 26/14 Q1017;
0120833440999992008011218004-14950-040883FM-15+0914SBQV V0201901N004110090019N0112651N1+02801+01701999999ADDGA1071+009001999GF107991999999999999999999MA1101591999999REMMET051METAR SBQV 121800Z 19008KT 9999 BKN030 28/17 Q1016;
0120833440999992008011219004-14950-040883FM-15+0914SBQV V0201701N004110075019N0112651N1+02601+01601999999ADDGA1071+007501999GF107991999999999999999999MA1101591999999REMMET051METAR SBQV 121900Z 17008KT 9999 BKN025 26/16 Q1016;
0120833440999992008011220004-14950-040883FM-15+0914SBQV V0201801N003612200019N0112651N1+02701+01701999999ADDGA1041+006001999GF104991999999999999999999MA1101591999999REMMET051METAR SBQV 122000Z 18007KT 9999 SCT020 27/17 Q1016;
0120833440999992008011221004-14950-040883FM-15+0914SBQV V0201901N003612200019N0112651N1+02401+01701999999ADDGA1041+004801999GF104991999999999999999999MA1101591999999REMMET051METAR SBQV 122100Z 19007KT 9999 SCT016 24/17 Q1016;
0120833440999992008011222004-14950-040883FM-15+0914SBQV V0201601N003112200019N0112651N1+02301+01701999999ADDGA1021+004501999GF102991999999999999999999MA1101591999999REMMET051METAR SBQV 122200Z 16006KT 9999 FEW015 23/17 Q1016;
0120833440999992008011311004-14950-040883FM-15+0914SBQV V0201501N004612200019N0112651N1+02201+01601999999ADDGA1041+003901999GF104991999999999999999999MA1101901999999REMMET051METAR SBQV 131100Z 15009KT 9999 SCT013 22/16 Q1019;
0120833440999992008011312004-14950-040883FM-15+0914SBQV V0201501N004112200019N0112651N1+02301+01601999999ADDGA1021+004501999GF102991999999999999999999MA1101901999999REMMET051METAR SBQV 131200Z 15008KT 9999 FEW015 23/16 Q1019;
0120833440999992008011313004-14950-040883FM-15+0914SBQV V0201601N004112200019N0112651N1+02501+01601999999ADDGA1041+004801999GF104991999999999999999999MA1101901999999REMMET051METAR SBQV 131300Z 16008KT 9999 SCT016 25/16 Q1019;
0120833440999992008011314004-14950-040883FM-15+0914SBQV V0201701N004112200019N0112651N1+02501+01401999999ADDGA1041+006001999GF104991999999999999999999MA1101901999999REMMET051METAR SBQV 131400Z 17008KT 9999 SCT020 25/14 Q1019;
0120833440999992008011315004-14950-040883FM-15+0914SBQV V0201801N004612200019N0112651N1+02501+01401999999ADDGA1041+007501999GF104991999999999999999999MA1101801999999REMMET051METAR SBQV 131500Z 18009KT 9999 SCT025 25/14 Q1018;
0120833440999992008011316004-14950-040883FM-15+0914SBQV V0201401N003612200019N0112651N1+02601+01301999999ADDGA1041+009001999GF104991999999999999999999MA1101691999999REMMET051METAR SBQV 131600Z 14007KT 9999 SCT030 26/13 Q1017;
0120833440999992008011317004-14950-040883FM-15+0914SBQV V0201801N004612200019N0112651N1+02701+01601999999ADDGA1041+009001999GF104991999999999999999999MA1101691999999REMMET051METAR SBQV 131700Z 18009KT 9999 SCT030 27/16 Q1017;
0120833440999992008011318004-14950-040883FM-15+0914SBQV V0201701N004612200019N0112651N1+02601+01401999999ADDGA1041+009001999GF104991999999999999999999MA1101591999999REMMET051METAR SBQV 131800Z 17009KT 9999 SCT030 26/14 Q1016;
0120833440999992008011319004-14950-040883FM-15+0914SBQV V0201701N006712200019N0112651N1+02601+01401999999ADDGA1021+009001999GF102991999999999999999999MA1101591999999REMMET051METAR SBQV 131900Z 17013KT 9999 FEW030 26/14 Q1016;
0120833440999992008011320004-14950-040883FM-15+0914SBQV V0201501N005112200019N0112651N1+02601+01501999999ADDGA1021+009001999GF102991999999999999999999MA1101591999999REMMET051METAR SBQV 132000Z 15010KT 9999 FEW030 26/15 Q1016;
0120833440999992008011321004-14950-040883FM-15+0914SBQV V0201701N007712200019N0112651N1+02301+01701999999ADDGA1021+007501999GF102991999999999999999999MA1101591999999REMMET051METAR SBQV 132100Z 17015KT 9999 FEW025 23/17 Q1016;
0120833440999992008011322004-14950-040883FM-15+0914SBQV V0201401N004612200019N0112651N1+02201+01801999999ADDGA1021+006001999GF102991999999999999999999MA1101591999999REMMET051METAR SBQV 132200Z 14009KT 9999 FEW020 22/18 Q1016;
0143833440999992008011411004-14950-040883FM-15+0914SBQV V0201501N006712200019N0112651N1+02101+01801999999ADDGA1041+006001999GA2041+090001999GF104991999999999999999999MA1101901999999REMMET058METAR SBQV 141100Z 15013KT 9999 SCT020 SCT300 21/18 Q1019;
0143833440999992008011412004-14950-040883FM-15+0914SBQV V0201601N006212200019N0112651N1+02301+01701999999ADDGA1041+006001999GA2041+090001999GF104991999999999999999999MA1101901999999REMMET058METAR SBQV 141200Z 16012KT 9999 SCT020 SCT300 23/17 Q1019;
0136833440999992008011413004-14950-040883FM-15+0914SBQV V0201301N00461220001CN0112651N1+02301+01701999999ADDGA1071+007501999GA2041+090001999MA1101901999999REMMET058METAR SBQV 141300Z 13009KT 9999 BKN025 SCT300 23/17 Q1019;EQDQ01+000042SCOTCV
0136833440999992008011414004-14950-040883FM-15+0914SBQV V0201401N00721220001CN0112651N1+02401+01701999999ADDGA1071+007501999GA2041+090001999MA1101901999999REMMET058METAR SBQV 141400Z 14014KT 9999 BKN025 SCT300 24/17 Q1019;EQDQ01+000042SCOTCV
0136833440999992008011415004-14950-040883FM-15+0914SBQV V0201401N00511220001CN0112651N1+02301+01801999999ADDGA1071+007501999GA2041+027001999MA1101801999999REMMET058METAR SBQV 141500Z 14010KT 9999 BKN025 SCT090 23/18 Q1018;EQDQ01+000042SCOTCV
0136833440999992008011416004-14950-040883FM-15+0914SBQV V0201701N00771220001CN0112651N1+02401+01801999999ADDGA1071+007501999GA2041+027001999MA1101801999999REMMET058METAR SBQV 141600Z 17015KT 9999 BKN025 SCT090 24/18 Q1018;EQDQ01+000042SCOTCV
0120833440999992008011417004-14950-040883FM-15+0914SBQV V0201501N004610090019N0112651N1+02501+01801999999ADDGA1071+009001999GF107991999999999999999999MA1101691999999REMMET051METAR SBQV 141700Z 15009KT 9999 BKN030 25/18 Q1017;
0143833440999992008011418004-14950-040883FM-15+0914SBQV V0201501N006712200019N0112651N1+02601+01701999999ADDGA1021+009001999GA2041+027001999GF104991999999999999999999MA1101591999999REMMET058METAR SBQV 141800Z 15013KT 9999 FEW030 SCT090 26/17 Q1016;
0143833440999992008011419004-14950-040883FM-15+0914SBQV V0201601N006712200019N0112651N1+02501+01401999999ADDGA1021+009001999GA2041+027001999GF104991999999999999999999MA1101591999999REMMET058METAR SBQV 141900Z 16013KT 9999 FEW030 SCT090 25/14 Q1016;
0143833440999992008011420004-14950-040883FM-15+0914SBQV V0201501N006712200019N0112651N1+02501+01701999999ADDGA1021+007501999GA2041+024001999GF104991999999999999999999MA1101591999999REMMET058METAR SBQV 142000Z 15013KT 9999 FEW025 SCT080 25/17 Q1016;
0143833440999992008011421004-14950-040883FM-15+0914SBQV V0201601N005112200019N0112651N1+02201+01701999999ADDGA1021+006001999GA2041+021001999GF104991999999999999999999MA1101591999999REMMET058METAR SBQV 142100Z 16010KT 9999 FEW020 SCT070 22/17 Q1016;
0072833440999992008011422004-14950-040883FM-15+0914SBQV V0201401N00461220001CN0099001N1+02101+01701999999ADDMA1101591999999REMMET045METAR SBQV 142200Z 14009KT CAVOK 21/17 Q1016;
0143833440999992008011511004-14950-040883FM-15+0914SBQV V0201201N002612200019N0112651N1+02101+01701999999ADDGA1021+003901999GA2041+021001999GF104991999999999999999999MA1101801999999REMMET058METAR SBQV 151100Z 12005KT 9999 FEW013 SCT070 21/17 Q1018;
0136833440999992008011512004-14950-040883FM-15+0914SBQV V0201201N00361220001CN0112651N1+02101+01701999999ADDGA1071+004801999GA2041+021001999MA1101801999999REMMET058METAR SBQV 151200Z 12007KT 9999 BKN016 SCT070 21/17 Q1018;EQDQ01+000042SCOTCV
0120833440999992008011514004-14950-040883FM-15+0914SBQV V0201001N003110048019N0112651N1+02401+01701999999ADDGA1071+004801999GF107991999999999999999999MA1101801999999REMMET051METAR SBQV 151400Z 10006KT 9999 BKN016 24/17 Q1018;
0120833440999992008011515004-14950-040883FM-15+0914SBQV V0201201N004110045019N0112651N1+02101+01901999999ADDGA1071+004501999GF107991999999999999999999MA1101801999999REMMET051METAR SBQV 151500Z 12008KT 9999 BKN015 21/19 Q1018;
0120833440999992008011516004-14950-040883FM-15+0914SBQV V0201001N004610048019N0112651N1+02501+01901999999ADDGA1071+004801999GF107991999999999999999999MA1101691999999REMMET051METAR SBQV 151600Z 10009KT 9999 BKN016 25/19 Q1017;
0120833440999992008011517004-14950-040883FM-15+0914SBQV V0201701N003110048019N0112651N1+02401+01901999999ADDGA1071+004801999GF107991999999999999999999MA1101591999999REMMET051METAR SBQV 151700Z 17006KT 9999 BKN016 24/19 Q1016;
0120833440999992008011518004-14950-040883FM-15+0914SBQV V0201901N004110060019N0112651N1+02501+02001999999ADDGA1071+006001999GF107991999999999999999999MA1101591999999REMMET051METAR SBQV 151800Z 19008KT 9999 BKN020 25/20 Q1016;
0120833440999992008011519004-14950-040883FM-15+0914SBQV V0201701N005112200019N0112651N1+02601+01701999999ADDGA1041+006001999GF104991999999999999999999MA1101491999999REMMET051METAR SBQV 151900Z 17010KT 9999 SCT020 26/17 Q1015;
0120833440999992008011520004-14950-040883FM-15+0914SBQV V0201801N007212200019N0112651N1+02301+01901999999ADDGA1041+004801999GF104991999999999999999999MA1101491999999REMMET051METAR SBQV 152000Z 18014KT 9999 SCT016 23/19 Q1015;
0120833440999992008011521004-14950-040883FM-15+0914SBQV V0201701N006212200019N0112651N1+02101+01901999999ADDGA1041+004501999GF104991999999999999999999MA1101591999999REMMET051METAR SBQV 152100Z 17012KT 9999 SCT015 21/19 Q1016;
0120833440999992008011522004-14950-040883FM-15+0914SBQV V0201601N005112200019N0112651N1+02001+01901999999ADDGA1041+003901999GF104991999999999999999999MA1101591999999REMMET051METAR SBQV 152200Z 16010KT 9999 SCT013 20/19 Q1016;
0120833440999992008011611004-14950-040883FM-15+0914SBQV V0201201N005112200019N0112651N1+02001+01701999999ADDGA1041+003901999GF104991999999999999999999MA1101801999999REMMET051METAR SBQV 161100Z 12010KT 9999 SCT013 20/17 Q1018;
0120833440999992008011612004-14950-040883FM-15+0914SBQV V0201401N005710045019N0112651N1+02301+01701999999ADDGA1071+004501999GF107991999999999999999999MA1101801999999REMMET051METAR SBQV 161200Z 14011KT 9999 BKN015 23/17 Q1018;
0120833440999992008011613004-14950-040883FM-15+0914SBQV V0201401N004110045019N0112651N1+02401+01801999999ADDGA1071+004501999GF107991999999999999999999MA1101801999999REMMET051METAR SBQV 161300Z 14008KT 9999 BKN015 24/18 Q1018;
0120833440999992008011614004-14950-040883FM-15+0914SBQV V0201501N004110048019N0112651N1+02501+01801999999ADDGA1071+004801999GF107991999999999999999999MA1101691999999REMMET051METAR SBQV 161400Z 15008KT 9999 BKN016 25/18 Q1017;
0120833440999992008011615004-14950-040883FM-15+0914SBQV V0201701N004110048019N0112651N1+02501+01801999999ADDGA1071+004801999GF107991999999999999999999MA1101691999999REMMET051METAR SBQV 161500Z 17008KT 9999 BKN016 25/18 Q1017;
0120833440999992008011616004-14950-040883FM-15+0914SBQV V0201301N004610060019N0112651N1+02501+01701999999ADDGA1071+006001999GF107991999999999999999999MA1101691999999REMMET051METAR SBQV 161600Z 13009KT 9999 BKN020 25/17 Q1017;
0120833440999992008011617004-14950-040883FM-15+0914SBQV V0201001N004110060019N0112651N1+02501+01701999999ADDGA1071+006001999GF107991999999999999999999MA1101591999999REMMET051METAR SBQV 161700Z 10008KT 9999 BKN020 25/17 Q1016;
0143833440999992008011618004-14950-040883FM-15+0914SBQV V0201401N005110270019N0112651N1+02501+01801999999ADDGA1041+006001999GA2071+027001999GF107991999999999999999999MA1101491999999REMMET058METAR SBQV 161800Z 14010KT 9999 SCT020 BKN090 25/18 Q1015;
0143833440999992008011619004-14950-040883FM-15+0914SBQV V0201301N005710270019N0112651N1+02501+01801999999ADDGA1021+006001999GA2071+027001999GF107991999999999999999999MA1101491999999REMMET058METAR SBQV 161900Z 13011KT 9999 FEW020 BKN090 25/18 Q1015;
0143833440999992008011620004-14950-040883FM-15+0914SBQV V0201401N005710270019N0112651N1+02501+01901999999ADDGA1021+006001999GA2071+027001999GF107991999999999999999999MA1101491999999REMMET058METAR SBQV 162000Z 14011KT 9999 FEW020 BKN090 25/19 Q1015;
0143833440999992008011621004-14950-040883FM-15+0914SBQV V0201001N004110270019N0112651N1+02401+01801999999ADDGA1021+006001999GA2071+027001999GF107991999999999999999999MA1101491999999REMMET058METAR SBQV 162100Z 10008KT 9999 FEW020 BKN090 24/18 Q1015;
0072833440999992008011622004-14950-040883FM-15+0914SBQV V0201301N00361220001CN0099001N1+02201+01801999999ADDMA1101591999999REMMET045METAR SBQV 162200Z 13007KT CAVOK 22/18 Q1016;
0166833440999992008011711004-14950-040883FM-15+0914SBQV V0201401N00261004501CN0112651N1+02101+02001999999ADDGA1041+001801999GA2041+004501999GA3071+024001999GF107991999999999999999999MA1101801999999REMMET065METAR SBQV 171100Z 14005KT 9999 SCT006 SCT015 BKN080 21/20 Q1018;
0166833440999992008011712004-14950-040883FM-15+0914SBQV V0200701N00151004501CN0112651N1+02201+02001999999ADDGA1041+002701999GA2041+004501999GA3071+024001999GF107991999999999999999999MA1101901999999REMMET065METAR SBQV 171200Z 07003KT 9999 SCT009 SCT015 BKN080 22/20 Q1019;
0143833440999992008011713004-14950-040883FM-15+0914SBQV V0209999C000010240019N0112651N1+02401+02101999999ADDGA1021+006001999GA2071+024001999GF107991999999999999999999MA1101901999999REMMET058METAR SBQV 171300Z 00000KT 9999 FEW020 BKN080 24/21 Q1019;
0143833440999992008011714004-14950-040883FM-15+0914SBQV V0209999C000010075019N0112651N1+02501+02101999999ADDGA1071+007501999GA2081+027001999GF108991999999999999999999MA1101801999999REMMET058METAR SBQV 171400Z 00000KT 9999 BKN025 OVC090 25/21 Q1018;
0143833440999992008011715004-14950-040883FM-15+0914SBQV V0209999C000010075019N0112651N1+02501+02101999999ADDGA1071+007501999GA2071+027001999GF107991999999999999999999MA1101801999999REMMET058METAR SBQV 171500Z 00000KT 9999 BKN025 BKN090 25/21 Q1018;
0143833440999992008011716004-14950-040883FM-15+0914SBQV V0203101N000510075019N0112651N1+02601+02001999999ADDGA1071+007501999GA2071+027001999GF107991999999999999999999MA1101691999999REMMET058METAR SBQV 171600Z 31001KT 9999 BKN025 BKN090 26/20 Q1017;
0216833440999992008011718004-14950-040883FM-15+0914SBQV V0202001N003610045019N0112651N1+02101+02001999999ADDGA1041+002401999GA2071+004501999GA3021+004801091GA4071+021001999GF107991999999999999999999MA1101591999999MW1801MW2951REMMET087METAR SBQV 171800Z 20007KT 9999 3000SE -TSRA SCT008 BKN015 FEW016CB BKN070 21/20 Q1016;
0181833440999992008011719004-14950-040883FM-15+0914SBQV V0201401N00461004501CN0112651N1+02001+02001999999ADDGA1041+002401999GA2041+004501999GA3071+021001999GF107991999999999999999999MA1101591999999MW1611REMMET074METAR SBQV 171900Z 14009KT 9999 -RA SCT008 SCT015 BKN070 20/20 Q1016 RETS;
0143833440999992008011720004-14950-040883FM-15+0914SBQV V0201301N005712200019N0112651N1+02101+02001999999ADDGA1021+002401999GA2041+021001999GF104991999999999999999999MA1101591999999REMMET058METAR SBQV 172000Z 13011KT 9999 FEW008 SCT070 21/20 Q1016;
0143833440999992008011721004-14950-040883FM-15+0914SBQV V0201701N005712200019N0112651N1+02001+01901999999ADDGA1021+002401999GA2041+021001999GF104991999999999999999999MA1101591999999REMMET058METAR SBQV 172100Z 17011KT 9999 FEW008 SCT070 20/19 Q1016;
0136833440999992008011722004-14950-040883FM-15+0914SBQV V0201801N00461220001CN0112651N1+01901+01901999999ADDGA1071+001501999GA2041+021001999MA1101691999999REMMET058METAR SBQV 172200Z 18009KT 9999 BKN005 SCT070 19/19 Q1017;EQDQ01+000042SCOTCV
0120833440999992008011811004-14950-040883FM-15+0914SBQV V0201001N003610021019N0112651N1+02101+02001999999ADDGA1071+002101999GF107991999999999999999999MA1102001999999REMMET051METAR SBQV 181100Z 10007KT 9999 BKN007 21/20 Q1020;
0143833440999992008011812004-14950-040883FM-15+0914SBQV V0200901N003112200019N0112651N1+02101+02001999999ADDGA1041+003001999GA2041+021001999GF104991999999999999999999MA1102001999999REMMET058METAR SBQV 181200Z 09006KT 9999 SCT010 SCT070 21/20 Q1020;
0143833440999992008011813004-14950-040883FM-15+0914SBQV V0201001N003612200019N0112651N1+02401+02001999999ADDGA1041+003901999GA2041+021001999GF104991999999999999999999MA1102001999999REMMET058METAR SBQV 181300Z 10007KT 9999 SCT013 SCT070 24/20 Q1020;
0143833440999992008011814004-14950-040883FM-15+0914SBQV V0200801N003112200019N0112651N1+02501+02101999999ADDGA1041+004801999GA2041+021001999GF104991999999999999999999MA1102001999999REMMET058METAR SBQV 181400Z 08006KT 9999 SCT016 SCT070 25/21 Q1020;
0143833440999992008011815004-14950-040883FM-15+0914SBQV V0200501N002612200019N0112651N1+02701+02001999999ADDGA1041+006001999GA2041+024001999GF104991999999999999999999MA1101901999999REMMET058METAR SBQV 181500Z 05005KT 9999 SCT020 SCT080 27/20 Q1019;
0143833440999992008011816004-14950-040883FM-15+0914SBQV V0200701N003110240019N0112651N1+02601+02001999999ADDGA1041+006001999GA2071+024001999GF107991999999999999999999MA1101801999999REMMET058METAR SBQV 181600Z 07006KT 9999 SCT020 BKN080 26/20 Q1018;
0120833440999992008011817004-14950-040883FM-15+0914SBQV V0200301N004612200019N0112651N1+02801+02101999999ADDGA1041+006001999GF104991999999999999999999MA1101691999999REMMET051METAR SBQV 181700Z 03009KT 9999 SCT020 28/21 Q1017;
0120833440999992008011818004-14950-040883FM-15+0914SBQV V0200201N001512200019N0112651N1+02901+02001999999ADDGA1041+007501999GF104991999999999999999999MA1101591999999REMMET051METAR SBQV 181800Z 02003KT 9999 SCT025 29/20 Q1016;
0139833440999992008011819004-14950-040883FM-15+0914SBQV V0201601N002612200019N0112651N1+02701+02201999999ADDGA1041+007501999GA2021+009001021MA1101591999999REMMET061METAR SBQV 181900Z 16005KT 9999 SCT025 FEW030TCU 27/22 Q1016;EQDQ01+000022SCOTCV
0139833440999992008011820004-14950-040883FM-15+0914SBQV V0200401N002112200019N0112651N1+02501+02201999999ADDGA1041+006001999GA2021+007501021MA1101591999999REMMET061METAR SBQV 182000Z 04004KT 9999 SCT020 FEW025TCU 25/22 Q1016;EQDQ01+000022SCOTCV
0143833440999992008011822004-14950-040883FM-15+0914SBQV V0201301N004112200019N0112651N1+02301+02101999999ADDGA1021+006001999GA2041+024001999GF104991999999999999999999MA1101691999999REMMET058METAR SBQV 182200Z 13008KT 9999 FEW020 SCT080 23/21 Q1017;
0143833440999992008011911004-14950-040883FM-15+0914SBQV V0201101N002610300019N0112651N1+02401+02001999999ADDGA1021+007501999GA2071+030001999GF107991999999999999999999MA1101901999999REMMET058METAR SBQV 191100Z 11005KT 9999 FEW025 BKN100 24/20 Q1019;
0143833440999992008011912004-14950-040883FM-15+0914SBQV V0200101N003110300019N0112651N1+02401+02001999999ADDGA1021+007501999GA2071+030001999GF107991999999999999999999MA1101901999999REMMET058METAR SBQV 191200Z 01006KT 9999 FEW025 BKN100 24/20 Q1019;
0143833440999992008011913004-14950-040883FM-15+0914SBQV V0200101N002612200019N0112651N1+02501+02001999999ADDGA1041+009001999GA2041+030001999GF104991999999999999999999MA1101901999999REMMET058METAR SBQV 191300Z 01005KT 9999 SCT030 SCT100 25/20 Q1019;
0120833440999992008011914004-14950-040883FM-15+0914SBQV V0209999C000010090019N0112651N1+02601+02001999999ADDGA1071+009001999GF107991999999999999999999MA1101801999999REMMET051METAR SBQV 191400Z 00000KT 9999 BKN030 26/20 Q1018;
0120833440999992008011915004-14950-040883FM-15+0914SBQV V0203101N002610090019N0112651N1+02701+02001999999ADDGA1071+009001999GF107991999999999999999999MA1101801999999REMMET051METAR SBQV 191500Z 31005KT 9999 BKN030 27/20 Q1018;
0120833440999992008011916004-14950-040883FM-15+0914SBQV V0202001N001012200019N0112651N1+02801+02101999999ADDGA1041+009001999GF104991999999999999999999MA1101691999999REMMET051METAR SBQV 191600Z 20002KT 9999 SCT030 28/21 Q1017;
0120833440999992008011917004-14950-040883FM-15+0914SBQV V0209999C000010090019N0112651N1+02901+02101999999ADDGA1071+009001999GF107991999999999999999999MA1101591999999REMMET051METAR SBQV 191700Z 00000KT 9999 BKN030 29/21 Q1016;
0120833440999992008011918004-14950-040883FM-15+0914SBQV V0201801N002610090019N0112651N1+02801+02101999999ADDGA1071+009001999GF107991999999999999999999MA1101491999999REMMET051METAR SBQV 191800Z 18005KT 9999 BKN030 28/21 Q1015;
0120833440999992008011919004-14950-040883FM-15+0914SBQV V0201501N003612200019N0112651N1+02701+02101999999ADDGA1041+007501999GA2021+009001021MA1101391999999REMMET061METAR SBQV 191900Z 15007KT 9999 SCT025 FEW030TCU 27/21 Q1014;
0120833440999992008011920004-14950-040883FM-15+0914SBQV V0201401N003612200019N0112651N1+02501+02201999999ADDGA1041+007501999GF104991999999999999999999MA1101391999999REMMET051METAR SBQV 192000Z 14007KT 9999 SCT025 25/22 Q1014;
0120833440999992008011921004-14950-040883FM-15+0914SBQV V0201401N003112200019N0112651N1+02501+02101999999ADDGA1021+006001999GF102991999999999999999999MA1101391999999REMMET051METAR SBQV 192100Z 14006KT 9999 FEW020 25/21 Q1014;
0120833440999992008011922004-14950-040883FM-15+0914SBQV V0201401N003112200019N0112651N1+02401+02101999999ADDGA1021+004501999GF102991999999999999999999MA1101491999999REMMET051METAR SBQV 192200Z 14006KT 9999 FEW015 24/21 Q1015;
0120833440999992008012011004-14950-040883FM-15+0914SBQV V0200401N002112200019N0112651N1+02301+02101999999ADDGA1021+004501999GF102991999999999999999999MA1101801999999REMMET051METAR SBQV 201100Z 04004KT 9999 FEW015 23/21 Q1018;
0120833440999992008012012004-14950-040883FM-15+0914SBQV V0200401N001012200019N0112651N1+02501+02101999999ADDGA1041+004501999GF104991999999999999999999MA1101801999999REMMET051METAR SBQV 201200Z 04002KT 9999 SCT015 25/21 Q1018;
0143833440999992008012013004-14950-040883FM-15+0914SBQV V0203401N000512200019N0112651N1+02701+02201999999ADDGA1041+004801999GA2041+090001999GF104991999999999999999999MA1101691999999REMMET058METAR SBQV 201300Z 34001KT 9999 SCT016 SCT300 27/22 Q1017;
0143833440999992008012014004-14950-040883FM-15+0914SBQV V0203501N002112200019N0112651N1+02801+02201999999ADDGA1041+004801999GA2041+090001999GF104991999999999999999999MA1101691999999REMMET058METAR SBQV 201400Z 35004KT 9999 SCT016 SCT300 28/22 Q1017;
0143833440999992008012015004-14950-040883FM-15+0914SBQV V0203501N001012200019N0112651N1+02901+02301999999ADDGA1041+006001999GA2041+090001999GF104991999999999999999999MA1101691999999REMMET058METAR SBQV 201500Z 35002KT 9999 SCT020 SCT300 29/23 Q1017;
0143833440999992008012016004-14950-040883FM-15+0914SBQV V0202901N001512200019N0112651N1+03001+02101999999ADDGA1041+007501999GA2041+090001999GF104991999999999999999999MA1101591999999REMMET058METAR SBQV 201600Z 29003KT 9999 SCT025 SCT300 30/21 Q1016;
0143833440999992008012017004-14950-040883FM-15+0914SBQV V0202901N002112200019N0112651N1+03101+02101999999ADDGA1041+009001999GA2041+090001999GF104991999999999999999999MA1101491999999REMMET058METAR SBQV 201700Z 29004KT 9999 SCT030 SCT300 31/21 Q1015;
0120833440999992008012018004-14950-040883FM-15+0914SBQV V0202601N002112200019N0112651N1+03101+02101999999ADDGA1041+009001999GF104991999999999999999999MA1101391999999REMMET051METAR SBQV 201800Z 26004KT 9999 SCT030 31/21 Q1014;
0120833440999992008012019004-14950-040883FM-15+0914SBQV V0201201N003112200019N0112651N1+03101+02201999999ADDGA1041+009001999GF104991999999999999999999MA1101291999999REMMET051METAR SBQV 201900Z 12006KT 9999 SCT030 31/22 Q1013;
0143833440999992008012020004-14950-040883FM-15+0914SBQV V0201001N003612200019N0112651N1+02801+02201999999ADDGA1021+007501999GA2041+024001999GF104991999999999999999999MA1101291999999REMMET058METAR SBQV 202000Z 10007KT 9999 FEW025 SCT080 28/22 Q1013;
0148833440999992008012021004-14950-040883FM-15+0914SBQV V0201201N004112200019N0112651N1+02601+02101999999ADDGA1021+006001999GA2041+090001999GF104991999999999999999999MA1101291999999REMMET063METAR SBQV 202100Z 12008KT 9999 FEW020 SCT300 26/21 Q1013 RETS;
0120833440999992008012022004-14950-040883FM-15+0914SBQV V0201301N003612200019N0112651N1+02601+02201999999ADDGA1021+005401999GF102991999999999999999999MA1101391999999REMMET051METAR SBQV 202200Z 13007KT 9999 FEW018 26/22 Q1014;
0143833440999992008012111004-14950-040883FM-15+0914SBQV V0200101N003610900019N0112651N1+02501+02101999999ADDGA1021+004801999GA2071+090001999GF107991999999999999999999MA1101691999999REMMET058METAR SBQV 211100Z 01007KT 9999 FEW016 BKN300 25/21 Q1017;
0143833440999992008012112004-14950-040883FM-15+0914SBQV V0203501N003612200019N0112651N1+02701+02201999999ADDGA1021+005401999GA2041+090001999GF104991999999999999999999MA1101691999999REMMET058METAR SBQV 211200Z 35007KT 9999 FEW018 SCT300 27/22 Q1017;
0120833440999992008012113004-14950-040883FM-15+0914SBQV V0203501N003112200019N0112651N1+02801+02101999999ADDGA1021+006001999GF102991999999999999999999MA1101691999999REMMET051METAR SBQV 211300Z 35006KT 9999 FEW020 28/21 Q1017;
0143833440999992008012114004-14950-040883FM-15+0914SBQV V0203601N002612200019N0112651N1+02901+02101999999ADDGA1021+006001999GA2041+090001999GF104991999999999999999999MA1101691999999REMMET058METAR SBQV 211400Z 36005KT 9999 FEW020 SCT300 29/21 Q1017;
0143833440999992008012116004-14950-040883FM-15+0914SBQV V0203101N002610900019N0112651N1+03001+02001999999ADDGA1041+007501999GA2071+090001999GF107991999999999999999999MA1101491999999REMMET058METAR SBQV 211600Z 31005KT 9999 SCT025 BKN300 30/20 Q1015;
0143833440999992008012117004-14950-040883FM-15+0914SBQV V0203201N003610900019N0112651N1+03201+02001999999ADDGA1021+007501999GA2071+090001999GF107991999999999999999999MA1101391999999REMMET058METAR SBQV 211700Z 32007KT 9999 FEW025 BKN300 32/20 Q1014;
0143833440999992008012118004-14950-040883FM-15+0914SBQV V0203501N002112200019N0112651N1+02901+02001999999ADDGA1041+007501999GA2041+027001999GF104991999999999999999999MA1101391999999REMMET058METAR SBQV 211800Z 35004KT 9999 SCT025 SCT090 29/20 Q1014;
0143833440999992008012119004-14950-040883FM-15+0914SBQV V0201601N004112200019N0112651N1+02501+02001999999ADDGA1041+007501999GA2041+027001999GF104991999999999999999999MA1101391999999REMMET058METAR SBQV 211900Z 16008KT 9999 SCT025 SCT090 25/20 Q1014;
0143833440999992008012120004-14950-040883FM-15+0914SBQV V0201501N002112200019N0112651N1+02501+01901999999ADDGA1041+006001999GA2041+027001999GF104991999999999999999999MA1101391999999REMMET058METAR SBQV 212000Z 15004KT 9999 SCT020 SCT090 25/19 Q1014;
0143833440999992008012121004-14950-040883FM-15+0914SBQV V0201601N002112200019N0112651N1+02401+01901999999ADDGA1041+004801999GA2041+024001999GF104991999999999999999999MA1101391999999REMMET058METAR SBQV 212100Z 16004KT 9999 SCT016 SCT080 24/19 Q1014;
0143833440999992008012122004-14950-040883FM-15+0914SBQV V0201601N002112200019N0112651N1+02301+01801999999ADDGA1041+004501999GA2041+021001999GF104991999999999999999999MA1101591999999REMMET058METAR SBQV 212200Z 16004KT 9999 SCT015 SCT070 23/18 Q1016;
0091833440999992008012210154-14950-040883FM-16+0914SBQV V0200901N003112200019N0112651N1+02201+02101999999ADDMA1101801999999REMMET064METAR SBQV 221015Z SPECI 09006KT 9999 SCT013 OVC070 22/21 Q1018;
0143833440999992008012211004-14950-040883FM-15+0914SBQV V0200701N003110045019N0112651N1+02301+02101999999ADDGA1071+004501999GA2071+021001999GF107991999999999999999999MA1101901999999REMMET058METAR SBQV 221100Z 07006KT 9999 BKN015 BKN070 23/21 Q1019;
0143833440999992008012212004-14950-040883FM-15+0914SBQV V0200401N002110045019N0112651N1+02301+02101999999ADDGA1071+004501999GA2071+021001999GF107991999999999999999999MA1101901999999REMMET058METAR SBQV 221200Z 04004KT 9999 BKN015 BKN070 23/21 Q1019;
0143833440999992008012213004-14950-040883FM-15+0914SBQV V0200101N002110240019N0112651N1+02401+02101999999ADDGA1041+004501999GA2071+024001999GF107991999999999999999999MA1102001999999REMMET058METAR SBQV 221300Z 01004KT 9999 SCT015 BKN080 24/21 Q1020;
0120833440999992008012214004-14950-040883FM-15+0914SBQV V0203101N006212200019N0112651N1+02301+02001999999ADDGA1041+004501999GF104991999999999999999999MA1102001999999REMMET051METAR SBQV 221400Z 31012KT 9999 SCT015 23/20 Q1020;
0120833440999992008012215004-14950-040883FM-15+0914SBQV V0203101N003112200019N0112651N1+02501+02101999999ADDGA1041+006001999GF104991999999999999999999MA1101901999999REMMET051METAR SBQV 221500Z 31006KT 9999 SCT020 25/21 Q1019;
0136833440999992008012216004-14950-040883FM-15+0914SBQV V0202701N00261220001CN0112651N1+02601+02101999999ADDGA1071+006001999GA2041+090001999MA1101801999999REMMET058METAR SBQV 221600Z 27005KT 9999 BKN020 SCT300 26/21 Q1018;EQDQ01+000042SCOTCV
0129833440999992008012217004-14950-040883FM-15+0914SBQV V0203401N004610048019N0080001N1+02701+02201999999ADDGA1071+004801999GF107991999999999999999999MA1101691999999MW1631REMMET054METAR SBQV 221700Z 34009KT 8000 RA BKN016 27/22 Q1017;
0184833440999992008012218004-14950-040883FM-15+0914SBQV V0201801N001512200019N0050001N1+02201+02101999999ADDGA1021+003001999GA2041+004501999GA3021+004801091MA1101691999999MW1801MW2951REMMET078METAR SBQV 221800Z 18003KT 5000 -TSRA FEW010 SCT015 FEW016CB 22/21 Q1017 RERA;EQDQ01+000022SCOTCV
0148833440999992008012219004-14950-040883FM-15+0914SBQV V0201501N003612200019N0112651N1+02101+02001999999ADDGA1041+004501999GA2041+021001999GF104991999999999999999999MA1101591999999REMMET063METAR SBQV 221900Z 15007KT 9999 SCT015 SCT070 21/20 Q1016 RETS;
0143833440999992008012220004-14950-040883FM-15+0914SBQV V0201801N003110210019N0112651N1+02201+02101999999ADDGA1041+004501999GA2071+021001999GF107991999999999999999999MA1101591999999REMMET058METAR SBQV 222000Z 18006KT 9999 SCT015 BKN070 22/21 Q1016;
0143833440999992008012221004-14950-040883FM-15+0914SBQV V0201801N004110210019N0112651N1+02101+02101999999ADDGA1041+002401999GA2071+021001999GF107991999999999999999999MA1101591999999REMMET058METAR SBQV 222100Z 18008KT 9999 SCT008 BKN070 21/21 Q1016;
0143833440999992008012222004-14950-040883FM-15+0914SBQV V0201601N003612200019N0112651N1+02101+02101999999ADDGA1021+002101999GA2041+021001999GF104991999999999999999999MA1101691999999REMMET058METAR SBQV 222200Z 16007KT 9999 FEW007 SCT070 21/21 Q1017;
0120833440999992008012311004-14950-040883FM-15+0914SBQV V0201601N003110030019N0112651N1+02101+02001999999ADDGA1071+003001999GF107991999999999999999999MA1101901999999REMMET051METAR SBQV 231100Z 16006KT 9999 BKN010 21/20 Q1019;
0136833440999992008012312004-14950-040883FM-15+0914SBQV V0201801N00211220001CN0112651N1+02201+02101999999ADDGA1071+003901999GA2041+021001999MA1101901999999REMMET058METAR SBQV 231200Z 18004KT 9999 BKN013 SCT070 22/21 Q1019;EQDQ01+000042SCOTCV
0143833440999992008012313004-14950-040883FM-15+0914SBQV V0201501N002610039019N0112651N1+02201+02101999999ADDGA1071+003901999GA2071+021001999GF107991999999999999999999MA1101901999999REMMET058METAR SBQV 231300Z 15005KT 9999 BKN013 BKN070 22/21 Q1019;
0143833440999992008012314004-14950-040883FM-15+0914SBQV V0201501N002110033019N0112651N1+02201+02101999999ADDGA1071+003301999GA2071+021001999GF107991999999999999999999MA1101901999999REMMET058METAR SBQV 231400Z 15004KT 9999 BKN011 BKN070 22/21 Q1019;
0136833440999992008012315004-14950-040883FM-15+0914SBQV V0201901N00461220001CN0112651N1+02501+02101999999ADDGA1071+004501999GA2041+024001999MA1101901999999REMMET058METAR SBQV 231500Z 19009KT 9999 BKN015 SCT080 25/21 Q1019;EQDQ01+000042SCOTCV
0143833440999992008012316004-14950-040883FM-15+0914SBQV V0201801N004112200019N0112651N1+02601+02001999999ADDGA1041+004801999GA2041+024001999GF104991999999999999999999MA1101801999999REMMET058METAR SBQV 231600Z 18008KT 9999 SCT016 SCT080 26/20 Q1018;
0136833440999992008012317004-14950-040883FM-15+0914SBQV V0201801N00411220001CN0112651N1+02701+02101999999ADDGA1071+006001999GA2041+027001999MA1101691999999REMMET058METAR SBQV 231700Z 18008KT 9999 BKN020 SCT090 27/21 Q1017;EQDQ01+000042SCOTCV
0143833440999992008012318004-14950-040883FM-15+0914SBQV V0201701N004110900019N0112651N1+02701+02101999999ADDGA1041+007501999GA2071+090001999GF107991999999999999999999MA1101591999999REMMET058METAR SBQV 231800Z 17008KT 9999 SCT025 BKN300 27/21 Q1016;
0143833440999992008012319004-14950-040883FM-15+0914SBQV V0201601N004610900019N0112651N1+02701+02001999999ADDGA1041+009001999GA2071+090001999GF107991999999999999999999MA1101591999999REMMET058METAR SBQV 231900Z 16009KT 9999 SCT030 BKN300 27/20 Q1016;
0143833440999992008012320004-14950-040883FM-15+0914SBQV V0201501N004610900019N0112651N1+02601+02001999999ADDGA1021+007501999GA2071+090001999GF107991999999999999999999MA1101591999999REMMET058METAR SBQV 232000Z 15009KT 9999 FEW025 BKN300 26/20 Q1016;
0143833440999992008012321004-14950-040883FM-15+0914SBQV V0201601N007210900019N0112651N1+02401+02001999999ADDGA1021+006001999GA2071+090001999GF107991999999999999999999MA1101591999999REMMET058METAR SBQV 232100Z 16014KT 9999 FEW020 BKN300 24/20 Q1016;
0143833440999992008012322004-14950-040883FM-15+0914SBQV V0201501N005712200019N0112651N1+02301+02101999999ADDGA1021+003901999GA2041+090001999GF104991999999999999999999MA1101691999999REMMET058METAR SBQV 232200Z 15011KT 9999 FEW013 SCT300 23/21 Q1017;
0143833440999992008012411004-14950-040883FM-15+0914SBQV V0201501N004610210019N0112651N1+02201+01901999999ADDGA1021+004501999GA2071+021001999GF107991999999999999999999MA1101901999999REMMET058METAR SBQV 241100Z 15009KT 9999 FEW015 BKN070 22/19 Q1019;
0143833440999992008012412004-14950-040883FM-15+0914SBQV V0201501N004610210019N0112651N1+02301+01901999999ADDGA1041+004801999GA2071+021001999GF107991999999999999999999MA1101901999999REMMET058METAR SBQV 241200Z 15009KT 9999 SCT016 BKN070 23/19 Q1019;
0136833440999992008012413004-14950-040883FM-15+0914SBQV V0201701N00511220001CN0112651N1+02401+01901999999ADDGA1071+005401999GA2041+021001999MA1101901999999REMMET058METAR SBQV 241300Z 17010KT 9999 BKN018 SCT070 24/19 Q1019;EQDQ01+000042SCOTCV
0120833440999992008012414004-14950-040883FM-15+0914SBQV V0201601N004610054019N0112651N1+02401+02001999999ADDGA1071+005401999GF107991999999999999999999MA1101901999999REMMET051METAR SBQV 241400Z 16009KT 9999 BKN018 24/20 Q1019;
0120833440999992008012415004-14950-040883FM-15+0914SBQV V0201401N004110060019N0112651N1+02501+02001999999ADDGA1071+006001999GF107991999999999999999999MA1101901999999REMMET051METAR SBQV 241500Z 14008KT 9999 BKN020 25/20 Q1019;
0143833440999992008012416004-14950-040883FM-15+0914SBQV V0201701N004610210019N0112651N1+02501+02101999999ADDGA1041+006001999GA2071+021001999GF107991999999999999999999MA1101801999999REMMET058METAR SBQV 241600Z 17009KT 9999 SCT020 BKN070 25/21 Q1018;
0120833440999992008012417004-14950-040883FM-15+0914SBQV V0201601N004612200019N0112651N1+02601+02001999999ADDGA1041+006001999GF104991999999999999999999MA1101691999999REMMET051METAR SBQV 241700Z 16009KT 9999 SCT020 26/20 Q1017;
0120833440999992008012418004-14950-040883FM-15+0914SBQV V0201601N005110060019N0112651N1+02501+02101999999ADDGA1071+006001999GF107991999999999999999999MA1101691999999REMMET051METAR SBQV 241800Z 16010KT 9999 BKN020 25/21 Q1017;
0143833440999992008012419004-14950-040883FM-15+0914SBQV V0201401N005710240019N0112651N1+02501+01801999999ADDGA1021+006001999GA2071+024001999GF107991999999999999999999MA1101691999999REMMET058METAR SBQV 241900Z 14011KT 9999 FEW020 BKN080 25/18 Q1017;
0143833440999992008012420004-14950-040883FM-15+0914SBQV V0201601N003612200019N0112651N1+02401+02001999999ADDGA1021+005401999GA2041+024001999GF104991999999999999999999MA1101591999999REMMET058METAR SBQV 242000Z 16007KT 9999 FEW018 SCT080 24/20 Q1016;
0143833440999992008012421004-14950-040883FM-15+0914SBQV V0201401N004610900019N0112651N1+02401+01901999999ADDGA1021+005401999GA2071+090001999GF107991999999999999999999MA1101591999999REMMET058METAR SBQV 242100Z 14009KT 9999 FEW018 BKN300 24/19 Q1016;
0143833440999992008012422004-14950-040883FM-15+0914SBQV V0201401N003612200019N0112651N1+02201+02101999999ADDGA1021+004801999GA2041+090001999GF104991999999999999999999MA1101591999999REMMET058METAR SBQV 242200Z 14007KT 9999 FEW016 SCT300 22/21 Q1016;
0120833440999992008012511004-14950-040883FM-15+0914SBQV V0201101N003610048019N0112651N1+02101+01901999999ADDGA1071+004801999GF107991999999999999999999MA1101901999999REMMET051METAR SBQV 251100Z 11007KT 9999 BKN016 21/19 Q1019;
0143833440999992008012512004-14950-040883FM-15+0914SBQV V0201701N001510240019N0112651N1+02301+01901999999ADDGA1021+005401999GA2071+024001999GF107991999999999999999999MA1101901999999REMMET058METAR SBQV 251200Z 17003KT 9999 FEW018 BKN080 23/19 Q1019;
0120833440999992008012513004-14950-040883FM-15+0914SBQV V0201501N004110054019N0112651N1+02401+01801999999ADDGA1071+005401999GF107991999999999999999999MA1101901999999REMMET051METAR SBQV 251300Z 15008KT 9999 BKN018 24/18 Q1019;
0120833440999992008012514004-14950-040883FM-15+0914SBQV V0201501N004610060019N0112651N1+02501+01901999999ADDGA1071+006001999GF107991999999999999999999MA1101801999999REMMET051METAR SBQV 251400Z 15009KT 9999 BKN020 25/19 Q1018;
0120833440999992008012515004-14950-040883FM-15+0914SBQV V0201601N003110060019N0112651N1+02501+01901999999ADDGA1071+006001999GF107991999999999999999999MA1101801999999REMMET051METAR SBQV 251500Z 16006KT 9999 BKN020 25/19 Q1018;
0120833440999992008012516004-14950-040883FM-15+0914SBQV V0201801N003610075019N0112651N1+02601+02001999999ADDGA1071+007501999GF107991999999999999999999MA1101801999999REMMET051METAR SBQV 251600Z 18007KT 9999 BKN025 26/20 Q1018;
0120833440999992008012517004-14950-040883FM-15+0914SBQV V0201601N004110075019N0112651N1+02601+01901999999ADDGA1071+007501999GF107991999999999999999999MA1101691999999REMMET051METAR SBQV 251700Z 16008KT 9999 BKN025 26/19 Q1017;
0120833440999992008012518004-14950-040883FM-15+0914SBQV V0201801N003610075019N0112651N1+02601+01901999999ADDGA1071+007501999GF107991999999999999999999MA1101591999999REMMET051METAR SBQV 251800Z 18007KT 9999 BKN025 26/19 Q1016;
0120833440999992008012519004-14950-040883FM-15+0914SBQV V0201901N004110060019N0112651N1+02501+01901999999ADDGA1071+006001999GF107991999999999999999999MA1101591999999REMMET051METAR SBQV 251900Z 19008KT 9999 BKN020 25/19 Q1016;
0120833440999992008012520004-14950-040883FM-15+0914SBQV V0201801N005110048019N0112651N1+02401+01901999999ADDGA1071+004801999GF107991999999999999999999MA1101591999999REMMET051METAR SBQV 252000Z 18010KT 9999 BKN016 24/19 Q1016;
0120833440999992008012521004-14950-040883FM-15+0914SBQV V0201701N004112200019N0112651N1+02301+01901999999ADDGA1041+004501999GF104991999999999999999999MA1101591999999REMMET051METAR SBQV 252100Z 17008KT 9999 SCT015 23/19 Q1016;
0143833440999992008012522004-14950-040883FM-15+0914SBQV V0201501N003612200019N0112651N1+02201+01901999999ADDGA1021+003901999GA2041+021001999GF104991999999999999999999MA1101591999999REMMET058METAR SBQV 252200Z 15007KT 9999 FEW013 SCT070 22/19 Q1016;
0091833440999992008012610154-14950-040883FM-16+0914SBQV V0201201N003612200019N0112651N1+02001+01801999999ADDMA1101701999999REMMET064METAR SBQV 261015Z SPECI 12007KT 9999 FEW015 BKN300 20/18 Q1017;
0143833440999992008012611004-14950-040883FM-15+0914SBQV V0201401N002610900019N0112651N1+02101+01801999999ADDGA1021+004501999GA2071+090001999GF107991999999999999999999MA1101801999999REMMET058METAR SBQV 261100Z 14005KT 9999 FEW015 BKN300 21/18 Q1018;
0143833440999992008012612004-14950-040883FM-15+0914SBQV V0201401N002610900019N0112651N1+02301+01901999999ADDGA1021+004801999GA2071+090001999GF107991999999999999999999MA1101801999999REMMET058METAR SBQV 261200Z 14005KT 9999 FEW016 BKN300 23/19 Q1018;
0143833440999992008012613004-14950-040883FM-15+0914SBQV V0201301N004110900019N0112651N1+02501+01801999999ADDGA1021+005401999GA2071+090001999GF107991999999999999999999MA1101801999999REMMET058METAR SBQV 261300Z 13008KT 9999 FEW018 BKN300 25/18 Q1018;
0143833440999992008012614004-14950-040883FM-15+0914SBQV V0201501N004610900019N0112651N1+02601+01901999999ADDGA1041+006001999GA2071+090001999GF107991999999999999999999MA1101801999999REMMET058METAR SBQV 261400Z 15009KT 9999 SCT020 BKN300 26/19 Q1018;
0143833440999992008012615004-14950-040883FM-15+0914SBQV V0201701N003610060019N0112651N1+02601+01901999999ADDGA1071+006001999GA2071+090001999GF107991999999999999999999MA1101691999999REMMET058METAR SBQV 261500Z 17007KT 9999 BKN020 BKN300 26/19 Q1017;
0143833440999992008012616004-14950-040883FM-15+0914SBQV V0201501N004610075019N0112651N1+02601+01901999999ADDGA1071+007501999GA2071+090001999GF107991999999999999999999MA1101691999999REMMET058METAR SBQV 261600Z 15009KT 9999 BKN025 BKN300 26/19 Q1017;
0143833440999992008012617004-14950-040883FM-15+0914SBQV V0201801N004610240019N0112651N1+02501+01901999999ADDGA1021+006001999GA2071+024001999GF107991999999999999999999MA1101691999999REMMET058METAR SBQV 261700Z 18009KT 9999 FEW020 BKN080 25/19 Q1017;
0143833440999992008012618004-14950-040883FM-15+0914SBQV V0201601N004110900019N0112651N1+02501+01901999999ADDGA1021+006001999GA2071+090001999GF107991999999999999999999MA1101591999999REMMET058METAR SBQV 261800Z 16008KT 9999 FEW020 BKN300 25/19 Q1016;
0143833440999992008012619004-14950-040883FM-15+0914SBQV V0201501N004110900019N0112651N1+02501+01901999999ADDGA1021+006001999GA2071+090001999GF107991999999999999999999MA1101591999999REMMET058METAR SBQV 261900Z 15008KT 9999 FEW020 BKN300 25/19 Q1016;
0143833440999992008012620004-14950-040883FM-15+0914SBQV V0201501N004610900019N0112651N1+02401+01901999999ADDGA1021+005401999GA2071+090001999GF107991999999999999999999MA1101491999999REMMET058METAR SBQV 262000Z 15009KT 9999 FEW018 BKN300 24/19 Q1015;
0143833440999992008012621004-14950-040883FM-15+0914SBQV V0201601N004110900019N0112651N1+02301+01901999999ADDGA1021+004801999GA2071+090001999GF107991999999999999999999MA1101491999999REMMET058METAR SBQV 262100Z 16008KT 9999 FEW016 BKN300 23/19 Q1015;
0143833440999992008012622004-14950-040883FM-15+0914SBQV V0201501N003610900019N0112651N1+02201+01901999999ADDGA1021+004501999GA2071+090001999GF107991999999999999999999MA1101591999999REMMET058METAR SBQV 262200Z 15007KT 9999 FEW015 BKN300 22/19 Q1016;
0143833440999992008012711004-14950-040883FM-15+0914SBQV V0201501N003110900019N0112651N1+02101+01801999999ADDGA1021+004501999GA2071+090001999GF107991999999999999999999MA1101801999999REMMET058METAR SBQV 271100Z 15006KT 9999 FEW015 BKN300 21/18 Q1018;
0143833440999992008012712004-14950-040883FM-15+0914SBQV V0201501N003110900019N0112651N1+02301+01901999999ADDGA1021+004801999GA2071+090001999GF107991999999999999999999MA1101801999999REMMET058METAR SBQV 271200Z 15006KT 9999 FEW016 BKN300 23/19 Q1018;
0143833440999992008012713004-14950-040883FM-15+0914SBQV V0201301N003610900019N0112651N1+02401+01901999999ADDGA1041+005401999GA2071+090001999GF107991999999999999999999MA1101801999999REMMET058METAR SBQV 271300Z 13007KT 9999 SCT018 BKN300 24/19 Q1018;
0143833440999992008012714004-14950-040883FM-15+0914SBQV V0201401N004110900019N0112651N1+02501+01901999999ADDGA1021+006001999GA2071+090001999GF107991999999999999999999MA1101801999999REMMET058METAR SBQV 271400Z 14008KT 9999 FEW020 BKN300 25/19 Q1018;
0136833440999992008012715004-14950-040883FM-15+0914SBQV V0201501N00411220001CN0112651N1+02501+01901999999ADDGA1071+006001999GA2041+090001999MA1101801999999REMMET058METAR SBQV 271500Z 15008KT 9999 BKN020 SCT300 25/19 Q1018;EQDQ01+000042SCOTCV
0136833440999992008012716004-14950-040883FM-15+0914SBQV V0201401N00511220001CN0112651N1+02601+02001999999ADDGA1071+006001999GA2041+090001999MA1101801999999REMMET058METAR SBQV 271600Z 14010KT 9999 BKN020 SCT300 26/20 Q1018;EQDQ01+000042SCOTCV
0136833440999992008012717004-14950-040883FM-15+0914SBQV V0201801N00411220001CN0112651N1+02601+02001999999ADDGA1071+006001999GA2041+090001999MA1101691999999REMMET058METAR SBQV 271700Z 18008KT 9999 BKN020 SCT300 26/20 Q1017;EQDQ01+000042SCOTCV
0143833440999992008012718004-14950-040883FM-15+0914SBQV V0201801N005712200019N0112651N1+02501+02001999999ADDGA1041+006001999GA2041+090001999GF104991999999999999999999MA1101691999999REMMET058METAR SBQV 271800Z 18011KT 9999 SCT020 SCT300 25/20 Q1017;
0143833440999992008012719004-14950-040883FM-15+0914SBQV V0201801N005712200019N0112651N1+02601+02001999999ADDGA1041+006001999GA2041+090001999GF104991999999999999999999MA1101591999999REMMET058METAR SBQV 271900Z 18011KT 9999 SCT020 SCT300 26/20 Q1016;
0143833440999992008012720004-14950-040883FM-15+0914SBQV V0201901N005710900019N0112651N1+02401+01901999999ADDGA1021+004801999GA2071+090001999GF107991999999999999999999MA1101591999999REMMET058METAR SBQV 272000Z 19011KT 9999 FEW016 BKN300 24/19 Q1016;
0143833440999992008012721004-14950-040883FM-15+0914SBQV V0201801N005110900019N0112651N1+02301+02001999999ADDGA1021+004501999GA2071+090001999GF107991999999999999999999MA1101591999999REMMET058METAR SBQV 272100Z 18010KT 9999 FEW015 BKN300 23/20 Q1016;
0143833440999992008012722004-14950-040883FM-15+0914SBQV V0201801N004612200019N0112651N1+02101+01901999999ADDGA1021+003901999GA2041+090001999GF104991999999999999999999MA1101691999999REMMET058METAR SBQV 272200Z 18009KT 9999 FEW013 SCT300 21/19 Q1017;
0120833440999992008012811004-14950-040883FM-15+0914SBQV V0201401N004610045019N0112651N1+02101+01801999999ADDGA1071+004501999GF107991999999999999999999MA1101801999999REMMET051METAR SBQV 281100Z 14009KT 9999 BKN015 21/18 Q1018;
0120833440999992008012812004-14950-040883FM-15+0914SBQV V0201701N003610045019N0112651N1+02201+01801999999ADDGA1071+004501999GF107991999999999999999999MA1101901999999REMMET051METAR SBQV 281200Z 17007KT 9999 BKN015 22/18 Q1019;
0120833440999992008012813004-14950-040883FM-15+0914SBQV V0201501N004610045019N0112651N1+02301+01801999999ADDGA1071+004501999GF107991999999999999999999MA1101901999999REMMET051METAR SBQV 281300Z 15009KT 9999 BKN015 23/18 Q1019;
0120833440999992008012814004-14950-040883FM-15+0914SBQV V0201501N003110048019N0112651N1+02501+01901999999ADDGA1071+004801999GF107991999999999999999999MA1101901999999REMMET051METAR SBQV 281400Z 15006KT 9999 BKN016 25/19 Q1019;
0120833440999992008012815004-14950-040883FM-15+0914SBQV V0201501N003610048019N0112651N1+02601+01901999999ADDGA1071+004801999GF107991999999999999999999MA1101801999999REMMET051METAR SBQV 281500Z 15007KT 9999 BKN016 26/19 Q1018;
0143833440999992008012816004-14950-040883FM-15+0914SBQV V0201401N002612200019N0112651N1+02701+01901999999ADDGA1041+006001999GA2041+090001999GF104991999999999999999999MA1101691999999REMMET058METAR SBQV 281600Z 14005KT 9999 SCT020 SCT300 27/19 Q1017;
0143833440999992008012817004-14950-040883FM-15+0914SBQV V0201601N003612200019N0112651N1+02701+01901999999ADDGA1041+006001999GA2041+090001999GF104991999999999999999999MA1101591999999REMMET058METAR SBQV 281700Z 16007KT 9999 SCT020 SCT300 27/19 Q1016;
0143833440999992008012818004-14950-040883FM-15+0914SBQV V0201701N003610900019N0112651N1+02701+01801999999ADDGA1041+007501999GA2071+090001999GF107991999999999999999999MA1101591999999REMMET058METAR SBQV 281800Z 17007KT 9999 SCT025 BKN300 27/18 Q1016;
0143833440999992008012820004-14950-040883FM-15+0914SBQV V0201401N004610900019N0112651N1+02601+01701999999ADDGA1021+007501999GA2071+090001999GF107991999999999999999999MA1101491999999REMMET058METAR SBQV 282000Z 14009KT 9999 FEW025 BKN300 26/17 Q1015;
0143833440999992008012821004-14950-040883FM-15+0914SBQV V0201601N004610900019N0112651N1+02401+01901999999ADDGA1021+006001999GA2071+090001999GF107991999999999999999999MA1101491999999REMMET058METAR SBQV 282100Z 16009KT 9999 FEW020 BKN300 24/19 Q1015;
0072833440999992008012822004-14950-040883FM-15+0914SBQV V0201401N00361220001CN0099001N1+02301+01901999999ADDMA1101591999999REMMET045METAR SBQV 282200Z 14007KT CAVOK 23/19 Q1016;
0072833440999992008012823004-14950-040883FM-15+0914SBQV V0201701N00361220001CN0099001N1+02101+01901999999ADDMA1101691999999REMMET045METAR SBQV 282300Z 17007KT CAVOK 21/19 Q1017;
0120833440999992008012900004-14950-040883FM-15+0914SBQV V0201701N003112200019N0112651N1+02101+02001999999ADDGA1021+003001999GF102991999999999999999999MA1101691999999REMMET051METAR SBQV 290000Z 17006KT 9999 FEW010 21/20 Q1017;
0120833440999992008012901004-14950-040883FM-15+0914SBQV V0201601N003612200019N0112651N1+02001+02001999999ADDGA1041+002401999GF104991999999999999999999MA1101801999999REMMET051METAR SBQV 290100Z 16007KT 9999 SCT008 20/20 Q1018;
0120833440999992008012911004-14950-040883FM-15+0914SBQV V0201301N004610045019N0112651N1+02201+01901999999ADDGA1071+004501999GF107991999999999999999999MA1101691999999REMMET051METAR SBQV 291100Z 13009KT 9999 BKN015 22/19 Q1017;
0120833440999992008012912004-14950-040883FM-15+0914SBQV V0201101N003610048019N0112651N1+02301+01901999999ADDGA1071+004801999GF107991999999999999999999MA1101691999999REMMET051METAR SBQV 291200Z 11007KT 9999 BKN016 23/19 Q1017;
0120833440999992008012913004-14950-040883FM-15+0914SBQV V0201101N003110054019N0112651N1+02501+01901999999ADDGA1071+005401999GF107991999999999999999999MA1101691999999REMMET051METAR SBQV 291300Z 11006KT 9999 BKN018 25/19 Q1017;
0136833440999992008012914004-14950-040883FM-15+0914SBQV V0201201N00361220001CN0112651N1+02601+01901999999ADDGA1071+006001999GA2041+090001999MA1101691999999REMMET058METAR SBQV 291400Z 12007KT 9999 BKN020 SCT300 26/19 Q1017;EQDQ01+000042SCOTCV
0143833440999992008012915004-14950-040883FM-15+0914SBQV V0201401N003612200019N0112651N1+02701+01901999999ADDGA1041+007501999GA2041+090001999GF104991999999999999999999MA1101591999999REMMET058METAR SBQV 291500Z 14007KT 9999 SCT025 SCT300 27/19 Q1016;
0143833440999992008012916004-14950-040883FM-15+0914SBQV V0201001N003112200019N0112651N1+02701+01801999999ADDGA1041+007501999GA2041+090001999GF104991999999999999999999MA1101491999999REMMET058METAR SBQV 291600Z 10006KT 9999 SCT025 SCT300 27/18 Q1015;
0120833440999992008012917004-14950-040883FM-15+0914SBQV V0200901N003610075019N0112651N1+02701+01701999999ADDGA1071+007501999GF107991999999999999999999MA1101491999999REMMET051METAR SBQV 291700Z 09007KT 9999 BKN025 27/17 Q1015;
0120833440999992008012918004-14950-040883FM-15+0914SBQV V0201601N003110075019N0112651N1+02701+01801999999ADDGA1071+007501999GF107991999999999999999999MA1101391999999REMMET051METAR SBQV 291800Z 16006KT 9999 BKN025 27/18 Q1014;
0143833440999992008012919004-14950-040883FM-15+0914SBQV V0201501N003610900019N0112651N1+02601+01901999999ADDGA1021+007501999GA2071+090001999GF107991999999999999999999MA1101291999999REMMET058METAR SBQV 291900Z 15007KT 9999 FEW025 BKN300 26/19 Q1013;
0143833440999992008012920004-14950-040883FM-15+0914SBQV V0201201N004110900019N0112651N1+02601+01801999999ADDGA1021+006001999GA2071+090001999GF107991999999999999999999MA1101291999999REMMET058METAR SBQV 292000Z 12008KT 9999 FEW020 BKN300 26/18 Q1013;
0143833440999992008012921004-14950-040883FM-15+0914SBQV V0201501N003610900019N0112651N1+02501+01901999999ADDGA1021+006001999GA2071+090001999GF107991999999999999999999MA1101291999999REMMET058METAR SBQV 292100Z 15007KT 9999 FEW020 BKN300 25/19 Q1013;
0143833440999992008012922004-14950-040883FM-15+0914SBQV V0201401N003110900019N0112651N1+02301+02001999999ADDGA1021+004801999GA2071+090001999GF107991999999999999999999MA1101391999999REMMET058METAR SBQV 292200Z 14006KT 9999 FEW016 BKN300 23/20 Q1014;
0072833440999992008013011004-14950-040883FM-15+0914SBQV V0200301N00151220001CN0099001N1+02201+01601999999ADDMA1101391999999REMMET045METAR SBQV 301100Z 03003KT CAVOK 22/16 Q1014;
0072833440999992008013012004-14950-040883FM-15+0914SBQV V0200301N00211220001CN0099001N1+02401+01601999999ADDMA1101491999999REMMET045METAR SBQV 301200Z 03004KT CAVOK 24/16 Q1015;
0143833440999992008013013004-14950-040883FM-15+0914SBQV V0200601N003610900019N0112651N1+02501+01701999999ADDGA1021+006001999GA2071+090001999GF107991999999999999999999MA1101491999999REMMET058METAR SBQV 301300Z 06007KT 9999 FEW020 BKN300 25/17 Q1015;
0143833440999992008013014004-14950-040883FM-15+0914SBQV V0200401N003110900019N0112651N1+02501+01801999999ADDGA1021+006001999GA2071+090001999GF107991999999999999999999MA1101391999999REMMET058METAR SBQV 301400Z 04006KT 9999 FEW020 BKN300 25/18 Q1014;
0143833440999992008013015004-14950-040883FM-15+0914SBQV V0200101N002110900019N0112651N1+02601+01801999999ADDGA1021+006001999GA2071+090001999GF107991999999999999999999MA1101391999999REMMET058METAR SBQV 301500Z 01004KT 9999 FEW020 BKN300 26/18 Q1014;
0143833440999992008013016004-14950-040883FM-15+0914SBQV V0203201N002110900019N0112651N1+02701+01701999999ADDGA1021+007501999GA2071+090001999GF107991999999999999999999MA1101291999999REMMET058METAR SBQV 301600Z 32004KT 9999 FEW025 BKN300 27/17 Q1013;
0143833440999992008013017004-14950-040883FM-15+0914SBQV V0203401N001012200019N0112651N1+02601+01801999999ADDGA1021+007501999GA2041+027001999GF104991999999999999999999MA1101291999999REMMET058METAR SBQV 301700Z 34002KT 9999 FEW025 SCT090 26/18 Q1013;
0143833440999992008013018004-14950-040883FM-15+0914SBQV V0209999C000010270019N0112651N1+02601+01701999999ADDGA1021+007501999GA2071+027001999GF107991999999999999999999MA1101191999999REMMET058METAR SBQV 301800Z 00000KT 9999 FEW025 BKN090 26/17 Q1012;
0143833440999992008013019004-14950-040883FM-15+0914SBQV V0202901N001510240019N0112651N1+02701+01701999999ADDGA1021+006001999GA2071+024001999GF107991999999999999999999MA1101081999999REMMET058METAR SBQV 301900Z 29003KT 9999 FEW020 BKN080 27/17 Q1011;
0143833440999992008013020004-14950-040883FM-15+0914SBQV V0202901N001010240019N0112651N1+02501+01701999999ADDGA1021+004801999GA2071+024001999GF107991999999999999999999MA1101021999999REMMET058METAR SBQV 302000Z 29002KT 9999 FEW016 BKN080 25/17 Q1010;
0143833440999992008013021004-14950-040883FM-15+0914SBQV V0209999C000012200019N0112651N1+02501+01701999999ADDGA1021+004501999GA2041+024001999GF104991999999999999999999MA1101081999999REMMET058METAR SBQV 302100Z 00000KT 9999 FEW015 SCT080 25/17 Q1011;
0143833440999992008013022004-14950-040883FM-15+0914SBQV V0201801N000512200019N0112651N1+02201+01801999999ADDGA1021+003901999GA2041+021001999GF104991999999999999999999MA1101081999999REMMET058METAR SBQV 302200Z 18001KT 9999 FEW013 SCT070 22/18 Q1011;
0095833440999992008013110154-14950-040883FM-16+0914SBQV V0203501N001512200019N0112651N1+02001+02001999999ADDMA1101301999999REMMET068METAR SBQV 311015Z SPECI 35003KT 9999 -RA SCT005 BKN009 20/20 Q1013;
0153833440999992008013111004-14950-040883FM-15+0914SBQV V0203401N001510210019N0112651N1+02001+02001999999ADDGA1041+003001999GA2081+021001999GF108991999999999999999999MA1101291999999MW1611REMMET062METAR SBQV 311100Z 34003KT 9999 -RA SCT010 OVC070 20/20 Q1013;
0143833440999992008013112004-14950-040883FM-15+0914SBQV V0203401N001512200019N0112651N1+02301+02101999999ADDGA1021+004501999GA2041+021001999GF104991999999999999999999MA1101291999999REMMET058METAR SBQV 311200Z 34003KT 9999 FEW015 SCT070 23/21 Q1013;
0143833440999992008013113004-14950-040883FM-15+0914SBQV V0203601N003112200019N0112651N1+02501+02101999999ADDGA1041+004501999GA2041+090001999GF104991999999999999999999MA1101291999999REMMET058METAR SBQV 311300Z 36006KT 9999 SCT015 SCT300 25/21 Q1013;
0143833440999992008013114004-14950-040883FM-15+0914SBQV V0203601N002610240019N0112651N1+02501+02001999999ADDGA1041+004801999GA2071+024001999GF107991999999999999999999MA1101291999999REMMET058METAR SBQV 311400Z 36005KT 9999 SCT016 BKN080 25/20 Q1013;
0143833440999992008013115004-14950-040883FM-15+0914SBQV V0200201N004110054019N0112651N1+02401+02101999999ADDGA1071+005401999GA2071+024001999GF107991999999999999999999MA1101191999999REMMET058METAR SBQV 311500Z 02008KT 9999 BKN018 BKN080 24/21 Q1012;
0143833440999992008013116004-14950-040883FM-15+0914SBQV V0200301N003610054019N0112651N1+02501+02101999999ADDGA1071+005401999GA2071+024001999GF107991999999999999999999MA1101191999999REMMET058METAR SBQV 311600Z 03007KT 9999 BKN018 BKN080 25/21 Q1012;
0143833440999992008013117004-14950-040883FM-15+0914SBQV V0200101N004112200019N0112651N1+02601+02101999999ADDGA1021+006001999GA2041+024001999GF104991999999999999999999MA1101081999999REMMET058METAR SBQV 311700Z 01008KT 9999 FEW020 SCT080 26/21 Q1011;
0143833440999992008013118004-14950-040883FM-15+0914SBQV V0200101N003112200019N0112651N1+02601+02101999999ADDGA1041+006001999GA2041+090001999GF104991999999999999999999MA1101021999999REMMET058METAR SBQV 311800Z 01006KT 9999 SCT020 SCT300 26/21 Q1010;
0143833440999992008013119004-14950-040883FM-15+0914SBQV V0200101N003112200019N0112651N1+02701+02001999999ADDGA1021+006001999GA2041+090001999GF104991999999999999999999MA1100911999999REMMET058METAR SBQV 311900Z 01006KT 9999 FEW020 SCT300 27/20 Q1009;
0143833440999992008013120004-14950-040883FM-15+0914SBQV V0200201N002612200019N0112651N1+02601+02001999999ADDGA1021+006001999GA2041+024001999GF104991999999999999999999MA1100911999999REMMET058METAR SBQV 312000Z 02005KT 9999 FEW020 SCT080 26/20 Q1009;
0166833440999992008013121004-14950-040883FM-15+0914SBQV V0200401N00261024001CN0112651N1+02501+02001999999ADDGA1021+005401999GA2041+024001999GA3071+090001999GF107991999999999999999999MA1101021999999REMMET065METAR SBQV 312100Z 04005KT 9999 FEW018 SCT080 BKN300 25/20 Q1010;
0166833440999992008013122004-14950-040883FM-15+0914SBQV V0200201N00311024001CN0112651N1+02401+02101999999ADDGA1021+004801999GA2041+024001999GA3071+090001999GF107991999999999999999999MA1101081999999REMMET065METAR SBQV 312200Z 02006KT 9999 FEW016 SCT080 BKN300 24/21 Q1011;
0166833440999992008020111004-14950-040883FM-15+0914SBQV V0203601N00261003901CN0112651N1+02201+02101999999ADDGA1021+001801999GA2041+003901999GA3071+024001999GF107991999999999999999999MA1101391999999REMMET065METAR SBQV 011100Z 36005KT 9999 FEW006 SCT013 BKN080 22/21 Q1014;
0143833440999992008020112004-14950-040883FM-15+0914SBQV V0203401N003110240019N0112651N1+02301+02101999999ADDGA1041+004501999GA2071+024001999GF107991999999999999999999MA1101391999999REMMET058METAR SBQV 011200Z 34006KT 9999 SCT015 BKN080 23/21 Q1014;
0153833440999992008020114004-14950-040883FM-15+0914SBQV V0203601N003610240019N0112651N1+02301+02201999999ADDGA1021+004501999GA2071+024001999GF107991999999999999999999MA1101391999999MW1611REMMET062METAR SBQV 011400Z 36007KT 9999 -RA FEW015 BKN080 23/22 Q1014;
0143833440999992008020115004-14950-040883FM-15+0914SBQV V0203401N004110240019N0112651N1+02501+02201999999ADDGA1041+005401999GA2071+024001999GF107991999999999999999999MA1101291999999REMMET058METAR SBQV 011500Z 34008KT 9999 SCT018 BKN080 25/22 Q1013;
0143833440999992008020116004-14950-040883FM-15+0914SBQV V0203601N002610054019N0112651N1+02501+02201999999ADDGA1071+005401999GA2071+024001999GF107991999999999999999999MA1101291999999REMMET058METAR SBQV 011600Z 36005KT 9999 BKN018 BKN080 25/22 Q1013;
0166833440999992008020117004-14950-040883FM-15+0914SBQV V0200201N003610048019N0112651N1+02601+02201999999ADDGA1021+003301999GA2071+004801999GA3071+021001999GF107991999999999999999999MA1101191999999REMMET065METAR SBQV 011700Z 02007KT 9999 FEW011 BKN016 BKN070 26/22 Q1012;
0176833440999992008020118004-14950-040883FM-15+0914SBQV V0200101N003610018019N0112651N1+02201+02101999999ADDGA1071+001801999GA2041+004501999GA3071+021001999GF107991999999999999999999MA1101191999999MW1611REMMET069METAR SBQV 011800Z 01007KT 9999 -RA BKN006 SCT015 BKN070 22/21 Q1012;
0153833440999992008020119004-14950-040883FM-15+0914SBQV V0200401N002610210019N0112651N1+02001+02001999999ADDGA1041+001501999GA2081+021001999GF108991999999999999999999MA1101291999999MW1611REMMET062METAR SBQV 011900Z 04005KT 9999 -RA SCT005 OVC070 20/20 Q1013;
0153833440999992008020120004-14950-040883FM-15+0914SBQV V0200701N003110210019N0112651N1+02001+02001999999ADDGA1041+001501999GA2081+021001999GF108991999999999999999999MA1101191999999MW1611REMMET062METAR SBQV 012000Z 07006KT 9999 -RA SCT005 OVC070 20/20 Q1012;
0143833440999992008020121004-14950-040883FM-15+0914SBQV V0200701N003610210019N0112651N1+02101+02101999999ADDGA1041+001501999GA2071+021001999GF107991999999999999999999MA1101291999999REMMET058METAR SBQV 012100Z 07007KT 9999 SCT005 BKN070 21/21 Q1013;
0153833440999992008020122004-14950-040883FM-15+0914SBQV V0200901N003610210019N0112651N1+02101+02101999999ADDGA1041+001501999GA2071+021001999GF107991999999999999999999MA1101391999999MW1611REMMET062METAR SBQV 012200Z 09007KT 9999 -RA SCT005 BKN070 21/21 Q1014;
0120833440999992008020211004-14950-040883FM-15+0914SBQV V0200501N002610018019N0112651N1+02201+02101999999ADDGA1071+001801999GF107991999999999999999999MA1101691999999REMMET051METAR SBQV 021100Z 05005KT 9999 BKN006 22/21 Q1017;
0120833440999992008020212004-14950-040883FM-15+0914SBQV V0200501N002612200019N0112651N1+02401+02101999999ADDGA1041+003901999GF104991999999999999999999MA1101691999999REMMET051METAR SBQV 021200Z 05005KT 9999 SCT013 24/21 Q1017;
0120833440999992008020213004-14950-040883FM-15+0914SBQV V0200401N002610045019N0112651N1+02401+02101999999ADDGA1071+004501999GF107991999999999999999999MA1101691999999REMMET051METAR SBQV 021300Z 04005KT 9999 BKN015 24/21 Q1017;
0120833440999992008020214004-14950-040883FM-15+0914SBQV V0200401N003610048019N0112651N1+02601+02101999999ADDGA1071+004801999GF107991999999999999999999MA1101691999999REMMET051METAR SBQV 021400Z 04007KT 9999 BKN016 26/21 Q1017;
0120833440999992008020215004-14950-040883FM-15+0914SBQV V0200201N002110048019N0112651N1+02501+02201999999ADDGA1071+004801999GF107991999999999999999999MA1101691999999REMMET051METAR SBQV 021500Z 02004KT 9999 BKN016 25/22 Q1017;
0120833440999992008020216004-14950-040883FM-15+0914SBQV V0200401N004110048019N0112651N1+02601+02001999999ADDGA1071+004801999GF107991999999999999999999MA1101591999999REMMET051METAR SBQV 021600Z 04008KT 9999 BKN016 26/20 Q1016;
0120833440999992008020217004-14950-040883FM-15+0914SBQV V0200201N003612200019N0112651N1+02801+02101999999ADDGA1041+006001999GF104991999999999999999999MA1101491999999REMMET051METAR SBQV 021700Z 02007KT 9999 SCT020 28/21 Q1015;
0120833440999992008020218004-14950-040883FM-15+0914SBQV V0200101N003612200019N0112651N1+02901+02001999999ADDGA1041+007501999GF104991999999999999999999MA1101391999999REMMET051METAR SBQV 021800Z 01007KT 9999 SCT025 29/20 Q1014;
0120833440999992008020219004-14950-040883FM-15+0914SBQV V0200201N003612200019N0112651N1+02801+02001999999ADDGA1041+007501999GF104991999999999999999999MA1101291999999REMMET051METAR SBQV 021900Z 02007KT 9999 SCT025 28/20 Q1013;
0143833440999992008020220004-14950-040883FM-15+0914SBQV V0200601N003112200019N0112651N1+02801+02001999999ADDGA1021+007501999GA2041+090001999GF104991999999999999999999MA1101391999999REMMET058METAR SBQV 022000Z 06006KT 9999 FEW025 SCT300 28/20 Q1014;
0143833440999992008020221004-14950-040883FM-15+0914SBQV V0200401N003112200019N0112651N1+02701+02001999999ADDGA1021+004501999GA2041+090001999GF104991999999999999999999MA1101391999999REMMET058METAR SBQV 022100Z 04006KT 9999 FEW015 SCT300 27/20 Q1014;
0120833440999992008020222004-14950-040883FM-15+0914SBQV V0200701N003110045019N0112651N1+02501+02101999999ADDGA1071+004501999GF107991999999999999999999MA1101491999999REMMET051METAR SBQV 022200Z 07006KT 9999 BKN015 25/21 Q1015;
0143833440999992008020311004-14950-040883FM-15+0914SBQV V0200601N004610900019N0112651N1+02301+02001999999ADDGA1021+003901999GA2071+090001999GF107991999999999999999999MA1101901999999REMMET058METAR SBQV 031100Z 06009KT 9999 FEW013 BKN300 23/20 Q1019;
0143833440999992008020312004-14950-040883FM-15+0914SBQV V0200501N005110900019N0112651N1+02401+01801999999ADDGA1021+004801999GA2071+090001999GF107991999999999999999999MA1101901999999REMMET058METAR SBQV 031200Z 05010KT 9999 FEW016 BKN300 24/18 Q1019;
0143833440999992008020313004-14950-040883FM-15+0914SBQV V0200501N004610900019N0112651N1+02501+01901999999ADDGA1021+004801999GA2071+090001999GF107991999999999999999999MA1101901999999REMMET058METAR SBQV 031300Z 05009KT 9999 FEW016 BKN300 25/19 Q1019;
0143833440999992008020314004-14950-040883FM-15+0914SBQV V0200201N003612200019N0112651N1+02701+01901999999ADDGA1021+005401999GA2041+090001999GF104991999999999999999999MA1101901999999REMMET058METAR SBQV 031400Z 02007KT 9999 FEW018 SCT300 27/19 Q1019;
0120833440999992008020315004-14950-040883FM-15+0914SBQV V0200301N003610075019N0112651N1+02701+02001999999ADDGA1071+007501999GF107991999999999999999999MA1101801999999REMMET051METAR SBQV 031500Z 03007KT 9999 BKN025 27/20 Q1018;
0120833440999992008020316004-14950-040883FM-15+0914SBQV V0200401N004110075019N0112651N1+02701+02201999999ADDGA1071+007501999GF107991999999999999999999MA1101801999999REMMET051METAR SBQV 031600Z 04008KT 9999 BKN025 27/22 Q1018;
0120833440999992008020317004-14950-040883FM-15+0914SBQV V0200101N003110075019N0112651N1+02901+02201999999ADDGA1071+007501999GF107991999999999999999999MA1101691999999REMMET051METAR SBQV 031700Z 01006KT 9999 BKN025 29/22 Q1017;
0120833440999992008020318004-14950-040883FM-15+0914SBQV V0200201N003612200019N0112651N1+02801+02001999999ADDGA1041+007501999GF104991999999999999999999MA1101591999999REMMET051METAR SBQV 031800Z 02007KT 9999 SCT025 28/20 Q1016;
0120833440999992008020319004-14950-040883FM-15+0914SBQV V0200101N003112200019N0112651N1+02901+02001999999ADDGA1021+007501999GF102991999999999999999999MA1101591999999REMMET051METAR SBQV 031900Z 01006KT 9999 FEW025 29/20 Q1016;
0120833440999992008020320004-14950-040883FM-15+0914SBQV V0200101N002612200019N0112651N1+02801+01901999999ADDGA1021+007501999GF102991999999999999999999MA1101591999999REMMET051METAR SBQV 032000Z 01005KT 9999 FEW025 28/19 Q1016;
0120833440999992008020321004-14950-040883FM-15+0914SBQV V0200201N003112200019N0112651N1+02701+01901999999ADDGA1021+006001999GF102991999999999999999999MA1101591999999REMMET051METAR SBQV 032100Z 02006KT 9999 FEW020 27/19 Q1016;
0120833440999992008020322004-14950-040883FM-15+0914SBQV V0209999C000012200019N0112651N1+02301+02001999999ADDGA1021+006001999GF102991999999999999999999MA1101691999999REMMET051METAR SBQV 032200Z 00000KT 9999 FEW020 23/20 Q1017;
0120833440999992008020411004-14950-040883FM-15+0914SBQV V0200401N001010039019N0112651N1+02101+02001999999ADDGA1071+003901999GF107991999999999999999999MA1101901999999REMMET051METAR SBQV 041100Z 04002KT 9999 BKN013 21/20 Q1019;
0120833440999992008020412004-14950-040883FM-15+0914SBQV V0200201N001510045019N0112651N1+02201+02001999999ADDGA1071+004501999GF107991999999999999999999MA1102001999999REMMET051METAR SBQV 041200Z 02003KT 9999 BKN015 22/20 Q1020;
0120833440999992008020413004-14950-040883FM-15+0914SBQV V0200401N003112200019N0112651N1+02601+02101999999ADDGA1041+006001999GF104991999999999999999999MA1102001999999REMMET051METAR SBQV 041300Z 04006KT 9999 SCT020 26/21 Q1020;
0120833440999992008020414004-14950-040883FM-15+0914SBQV V0200401N002612200019N0112651N1+02701+02001999999ADDGA1021+007501999GF102991999999999999999999MA1101901999999REMMET051METAR SBQV 041400Z 04005KT 9999 FEW025 27/20 Q1019;
0120833440999992008020415004-14950-040883FM-15+0914SBQV V0200201N002612200019N0112651N1+02801+01901999999ADDGA1021+007501999GF102991999999999999999999MA1101901999999REMMET051METAR SBQV 041500Z 02005KT 9999 FEW025 28/19 Q1019;
0120833440999992008020416004-14950-040883FM-15+0914SBQV V0200301N002112200019N0112651N1+02901+01901999999ADDGA1021+009001999GF102991999999999999999999MA1101801999999REMMET051METAR SBQV 041600Z 03004KT 9999 FEW030 29/19 Q1018;
0120833440999992008020417004-14950-040883FM-15+0914SBQV V0200701N002112200019N0112651N1+02901+01801999999ADDGA1041+009001999GF104991999999999999999999MA1101691999999REMMET051METAR SBQV 041700Z 07004KT 9999 SCT030 29/18 Q1017;
0120833440999992008020418004-14950-040883FM-15+0914SBQV V0200501N002112200019N0112651N1+03001+01801999999ADDGA1041+009001999GF104991999999999999999999MA1101591999999REMMET051METAR SBQV 041800Z 05004KT 9999 SCT030 30/18 Q1016;
0120833440999992008020419004-14950-040883FM-15+0914SBQV V0200101N002112200019N0112651N1+03001+01701999999ADDGA1041+009001999GF104991999999999999999999MA1101591999999REMMET051METAR SBQV 041900Z 01004KT 9999 SCT030 30/17 Q1016;
0120833440999992008020420004-14950-040883FM-15+0914SBQV V0200301N001012200019N0112651N1+02901+01701999999ADDGA1021+007501999GF102991999999999999999999MA1101591999999REMMET051METAR SBQV 042000Z 03002KT 9999 FEW025 29/17 Q1016;
0120833440999992008020421004-14950-040883FM-15+0914SBQV V0201801N002112200019N0112651N1+02801+02101999999ADDGA1021+006001999GF102991999999999999999999MA1101591999999REMMET051METAR SBQV 042100Z 18004KT 9999 FEW020 28/21 Q1016;
0120833440999992008020422004-14950-040883FM-15+0914SBQV V0201801N003112200019N0112651N1+02501+02101999999ADDGA1041+004801999GF104991999999999999999999MA1101691999999REMMET051METAR SBQV 042200Z 18006KT 9999 SCT016 25/21 Q1017;
0120833440999992008020511004-14950-040883FM-15+0914SBQV V0201701N002112200019N0112651N1+02501+01201999999ADDGA1021+004501999GF102991999999999999999999MA1102001999999REMMET051METAR SBQV 051100Z 17004KT 9999 FEW015 25/12 Q1020;
0120833440999992008020512004-14950-040883FM-15+0914SBQV V0201601N001512200019N0112651N1+02501+01501999999ADDGA1021+004801999GF102991999999999999999999MA1102001999999REMMET051METAR SBQV 051200Z 16003KT 9999 FEW016 25/15 Q1020;
0120833440999992008020513004-14950-040883FM-15+0914SBQV V0201501N002112200019N0112651N1+02701+01601999999ADDGA1021+004801999GF102991999999999999999999MA1102001999999REMMET051METAR SBQV 051300Z 15004KT 9999 FEW016 27/16 Q1020;
0143833440999992008020514004-14950-040883FM-15+0914SBQV V0201001N002612200019N0112651N1+02901+01501999999ADDGA1021+005401999GA2041+090001999GF104991999999999999999999MA1102001999999REMMET058METAR SBQV 051400Z 10005KT 9999 FEW018 SCT300 29/15 Q1020;
0143833440999992008020515004-14950-040883FM-15+0914SBQV V0201201N003612200019N0112651N1+03001+01501999999ADDGA1021+006001999GA2041+090001999GF104991999999999999999999MA1101901999999REMMET058METAR SBQV 051500Z 12007KT 9999 FEW020 SCT300 30/15 Q1019;
0120833440999992008020516004-14950-040883FM-15+0914SBQV V0201101N004112200019N0112651N1+03001+01801999999ADDGA1021+007501999GF102991999999999999999999MA1101801999999REMMET051METAR SBQV 051600Z 11008KT 9999 FEW025 30/18 Q1018;
0120833440999992008020517004-14950-040883FM-15+0914SBQV V0201101N003612200019N0112651N1+02901+01701999999ADDGA1021+007501999GF102991999999999999999999MA1101691999999REMMET051METAR SBQV 051700Z 11007KT 9999 FEW025 29/17 Q1017;
0120833440999992008020518004-14950-040883FM-15+0914SBQV V0201301N004112200019N0112651N1+02801+01701999999ADDGA1021+007501999GF102991999999999999999999MA1101691999999REMMET051METAR SBQV 051800Z 13008KT 9999 FEW025 28/17 Q1017;
0120833440999992008020519004-14950-040883FM-15+0914SBQV V0201301N004112200019N0112651N1+02801+01601999999ADDGA1021+007501999GF102991999999999999999999MA1101691999999REMMET051METAR SBQV 051900Z 13008KT 9999 FEW025 28/16 Q1017;
0120833440999992008020613004-14950-040883FM-15+0914SBQV V0201001N003112200019N0112651N1+02701+01601999999ADDGA1021+006001999GF102991999999999999999999MA1102101999999REMMET051METAR SBQV 061300Z 10006KT 9999 FEW020 27/16 Q1021;
0120833440999992008020614004-14950-040883FM-15+0914SBQV V0201001N002612200019N0112651N1+02701+01601999999ADDGA1021+006001999GF102991999999999999999999MA1102101999999REMMET051METAR SBQV 061400Z 10005KT 9999 FEW020 27/16 Q1021;
0120833440999992008020615004-14950-040883FM-15+0914SBQV V0201301N003112200019N0112651N1+02901+01601999999ADDGA1041+007501999GF104991999999999999999999MA1102001999999REMMET051METAR SBQV 061500Z 13006KT 9999 SCT025 29/16 Q1020;
0120833440999992008020616004-14950-040883FM-15+0914SBQV V0201301N003112200019N0112651N1+02901+01501999999ADDGA1041+007501999GF104991999999999999999999MA1102001999999REMMET051METAR SBQV 061600Z 13006KT 9999 SCT025 29/15 Q1020;
0120833440999992008020617004-14950-040883FM-15+0914SBQV V0201701N003612200019N0112651N1+02901+01601999999ADDGA1041+007501999GF104991999999999999999999MA1101901999999REMMET051METAR SBQV 061700Z 17007KT 9999 SCT025 29/16 Q1019;
0120833440999992008020618004-14950-040883FM-15+0914SBQV V0201601N005112200019N0112651N1+03001+01501999999ADDGA1041+007501999GF104991999999999999999999MA1101801999999REMMET051METAR SBQV 061800Z 16010KT 9999 SCT025 30/15 Q1018;
0120833440999992008020619004-14950-040883FM-15+0914SBQV V0201701N004112200019N0112651N1+02901+01601999999ADDGA1041+006001999GF104991999999999999999999MA1101801999999REMMET051METAR SBQV 061900Z 17008KT 9999 SCT020 29/16 Q1018;
0120833440999992008020620004-14950-040883FM-15+0914SBQV V0201701N005712200019N0112651N1+02801+01801999999ADDGA1041+004801999GF104991999999999999999999MA1101691999999REMMET051METAR SBQV 062000Z 17011KT 9999 SCT016 28/18 Q1017;
0120833440999992008020621004-14950-040883FM-15+0914SBQV V0201701N004112200019N0112651N1+02501+01901999999ADDGA1041+004501999GF104991999999999999999999MA1101801999999REMMET051METAR SBQV 062100Z 17008KT 9999 SCT015 25/19 Q1018;
0120833440999992008020622004-14950-040883FM-15+0914SBQV V0201601N003612200019N0112651N1+02401+01901999999ADDGA1041+003901999GF104991999999999999999999MA1101801999999REMMET051METAR SBQV 062200Z 16007KT 9999 SCT013 24/19 Q1018;
0084833440999992008020710154-14950-040883FM-16+0914SBQV V0201601N003112200019N0112651N1+02101+01801999999ADDMA1102101999999REMMET057METAR SBQV 071015Z SPECI 16006KT 9999 FEW013 21/18 Q1021;
0120833440999992008020711004-14950-040883FM-15+0914SBQV V0201501N004612200019N0112651N1+02201+01701999999ADDGA1021+004501999GF102991999999999999999999MA1102201999999REMMET051METAR SBQV 071100Z 15009KT 9999 FEW015 22/17 Q1022;
0120833440999992008020712004-14950-040883FM-15+0914SBQV V0201101N004612200019N0112651N1+02401+01801999999ADDGA1041+004801999GF104991999999999999999999MA1102201999999REMMET051METAR SBQV 071200Z 11009KT 9999 SCT016 24/18 Q1022;
0120833440999992008020713004-14950-040883FM-15+0914SBQV V0201301N004112200019N0112651N1+02501+01801999999ADDGA1041+004801999GF104991999999999999999999MA1102201999999REMMET051METAR SBQV 071300Z 13008KT 9999 SCT016 25/18 Q1022;
0120833440999992008020716004-14950-040883FM-15+0914SBQV V0201901N003610060019N0112651N1+02601+01701999999ADDGA1071+006001999GF107991999999999999999999MA1102101999999REMMET051METAR SBQV 071600Z 19007KT 9999 BKN020 26/17 Q1021;
0120833440999992008020718004-14950-040883FM-15+0914SBQV V0201501N005112200019N0112651N1+02701+01801999999ADDGA1041+009001999GF104991999999999999999999MA1101901999999REMMET051METAR SBQV 071800Z 15010KT 9999 SCT030 27/18 Q1019;
0120833440999992008020719004-14950-040883FM-15+0914SBQV V0201501N004612200019N0112651N1+02701+01701999999ADDGA1041+009001999GF104991999999999999999999MA1101901999999REMMET051METAR SBQV 071900Z 15009KT 9999 SCT030 27/17 Q1019;
0120833440999992008020721004-14950-040883FM-15+0914SBQV V0201601N004612200019N0112651N1+02501+01701999999ADDGA1021+006001999GF102991999999999999999999MA1101901999999REMMET051METAR SBQV 072100Z 16009KT 9999 FEW020 25/17 Q1019;
0120833440999992008020722004-14950-040883FM-15+0914SBQV V0201601N002612200019N0112651N1+02301+01801999999ADDGA1021+004801999GF102991999999999999999999MA1101901999999REMMET051METAR SBQV 072200Z 16005KT 9999 FEW016 23/18 Q1019;
0120833440999992008020813004-14950-040883FM-15+0914SBQV V0201301N002112200019N0112651N1+02601+01701999999ADDGA1021+005401999GF102991999999999999999999MA1102101999999REMMET051METAR SBQV 081300Z 13004KT 9999 FEW018 26/17 Q1021;
0120833440999992008020815004-14950-040883FM-15+0914SBQV V0203501N001512200019N0112651N1+02901+01501999999ADDGA1021+007501999GF102991999999999999999999MA1101901999999REMMET051METAR SBQV 081500Z 35003KT 9999 FEW025 29/15 Q1019;
0120833440999992008020818004-14950-040883FM-15+0914SBQV V0202201N001512200019N0112651N1+02801+01601999999ADDGA1041+007501999GF104991999999999999999999MA1101691999999REMMET051METAR SBQV 081800Z 22003KT 9999 SCT025 28/16 Q1017;
0120833440999992008020820004-14950-040883FM-15+0914SBQV V0201601N004112200019N0112651N1+02601+01801999999ADDGA1021+007501999GF102991999999999999999999MA1101691999999REMMET051METAR SBQV 082000Z 16008KT 9999 FEW025 26/18 Q1017;
0120833440999992008020822004-14950-040883FM-15+0914SBQV V0201401N003112200019N0112651N1+02401+01901999999ADDGA1021+005401999GF102991999999999999999999MA1101691999999REMMET051METAR SBQV 082200Z 14006KT 9999 FEW018 24/19 Q1017;
0120833440999992008020911004-14950-040883FM-15+0914SBQV V0200901N003110045019N0112651N1+02101+01901999999ADDGA1071+004501999GF107991999999999999999999MA1101901999999REMMET051METAR SBQV 091100Z 09006KT 9999 BKN015 21/19 Q1019;
0120833440999992008020917004-14950-040883FM-15+0914SBQV V0201301N001010075019N0112651N1+02901+01701999999ADDGA1071+007501999GF107991999999999999999999MA1101691999999REMMET051METAR SBQV 091700Z 13002KT 9999 BKN025 29/17 Q1017;
0120833440999992008020918004-14950-040883FM-15+0914SBQV V0201501N003110090019N0112651N1+02901+01701999999ADDGA1071+009001999GF107991999999999999999999MA1101591999999REMMET051METAR SBQV 091800Z 15006KT 9999 BKN030 29/17 Q1016;
0120833440999992008021012004-14950-040883FM-15+0914SBQV V0201001N003112200019N0112651N1+02501+01701999999ADDGA1041+005401999GF104991999999999999999999MA1101901999999REMMET051METAR SBQV 101200Z 10006KT 9999 SCT018 25/17 Q1019;
0120833440999992008021015004-14950-040883FM-15+0914SBQV V0200901N002610075019N0112651N1+02701+01701999999ADDGA1071+007501999GF107991999999999999999999MA1101801999999REMMET051METAR SBQV 101500Z 09005KT 9999 BKN025 27/17 Q1018;
0120833440999992008021018004-14950-040883FM-15+0914SBQV V0201901N004110075019N0112651N1+02801+01701999999ADDGA1071+007501999GF107991999999999999999999MA1101591999999REMMET051METAR SBQV 101800Z 19008KT 9999 BKN025 28/17 Q1016;
0078833440999992008021110154-14950-040883FM-16+0914SBQV V0200701N001512200019N0099001N1+02001+01701999999ADDMA1101901999999REMMET051METAR SBQV 111015Z SPECI 07003KT CAVOK 20/17 Q1019;
0073833440999992008021111004-14950-040883FM-15+0914SBQV V0200801N003612200019N9999999N1+02201+01701999999ADDMA1101901999999REMMET046METAR SBQV 111100Z 08007KT FEW015 22/17 Q1019;
0120833440999992008021113004-14950-040883FM-15+0914SBQV V0201401N003112200019N0112651N1+02501+01601999999ADDGA1041+006001999GF104991999999999999999999MA1101901999999REMMET051METAR SBQV 111300Z 14006KT 9999 SCT020 25/16 Q1019;
0120833440999992008021115004-14950-040883FM-15+0914SBQV V0201601N004112200019N0112651N1+02701+01501999999ADDGA1041+006001999GF104991999999999999999999MA1101801999999REMMET051METAR SBQV 111500Z 16008KT 9999 SCT020 27/15 Q1018;
0120833440999992008021117004-14950-040883FM-15+0914SBQV V0201701N004612200019N0112651N1+02901+01301999999ADDGA1041+007501999GF104991999999999999999999MA1101691999999REMMET051METAR SBQV 111700Z 17009KT 9999 SCT025 29/13 Q1017;
0120833440999992008021118004-14950-040883FM-15+0914SBQV V0201401N005112200019N0112651N1+02801+01501999999ADDGA1021+007501999GF102991999999999999999999MA1101591999999REMMET051METAR SBQV 111800Z 14010KT 9999 FEW025 28/15 Q1016;
0120833440999992008021119004-14950-040883FM-15+0914SBQV V0201601N003612200019N0112651N1+02801+01501999999ADDGA1021+007501999GF102991999999999999999999MA1101591999999REMMET051METAR SBQV 111900Z 16007KT 9999 FEW025 28/15 Q1016;
0120833440999992008021211004-14950-040883FM-15+0914SBQV V0201301N004612200019N0112651N1+02101+01801999999ADDGA1041+004501999GF104991999999999999999999MA1101901999999REMMET051METAR SBQV 121100Z 13009KT 9999 SCT015 21/18 Q1019;
0120833440999992008021311004-14950-040883FM-15+0914SBQV V0201301N004110048019N0112651N1+02301+01901999999ADDGA1071+004801999GF107991999999999999999999MA1101901999999REMMET051METAR SBQV 131100Z 13008KT 9999 BKN016 23/19 Q1019;
0120833440999992008021312004-14950-040883FM-15+0914SBQV V0201201N003610075019N0112651N1+02601+02001999999ADDGA1071+007501999GF107991999999999999999999MA1101901999999REMMET051METAR SBQV 131200Z 12007KT 9999 BKN025 26/20 Q1019;
0120833440999992008021314004-14950-040883FM-15+0914SBQV V0201301N004610090019N0112651N1+02801+01901999999ADDGA1071+009001999GF107991999999999999999999MA1101901999999REMMET051METAR SBQV 131400Z 13009KT 9999 BKN030 28/19 Q1019;
0120833440999992008021315004-14950-040883FM-15+0914SBQV V0201301N003610090019N0112651N1+02801+01801999999ADDGA1071+009001999GF107991999999999999999999MA1101901999999REMMET051METAR SBQV 131500Z 13007KT 9999 BKN030 28/18 Q1019;
0120833440999992008021316004-14950-040883FM-15+0914SBQV V0201601N003610090019N0112651N1+02701+02001999999ADDGA1071+009001999GF107991999999999999999999MA1101801999999REMMET051METAR SBQV 131600Z 16007KT 9999 BKN030 27/20 Q1018;
0120833440999992008021318004-14950-040883FM-15+0914SBQV V0201301N005110090019N0112651N1+02701+01801999999ADDGA1071+009001999GF107991999999999999999999MA1101691999999REMMET051METAR SBQV 131800Z 13010KT 9999 BKN030 27/18 Q1017;
0143833440999992008021319004-14950-040883FM-15+0914SBQV V0201501N004612200019N0112651N1+02701+01901999999ADDGA1041+007501999GA2041+009001999GF104991999999999999999999MA1101591999999REMMET058METAR SBQV 131900Z 15009KT 9999 SCT025 SCT030 27/19 Q1016;
0120833440999992008021515004-14950-040883FM-15+0914SBQV V0201601N004610060019N0112651N1+02701+01701999999ADDGA1071+006001999GF107991999999999999999999MA1101801999999REMMET051METAR SBQV 151500Z 16009KT 9999 BKN020 27/17 Q1018;
0120833440999992008021517004-14950-040883FM-15+0914SBQV V0201601N004612200019N0112651N1+02701+01801999999ADDGA1041+006001999GF104991999999999999999999MA1101691999999REMMET051METAR SBQV 151700Z 16009KT 9999 SCT020 27/18 Q1017;
0120833440999992008021518004-14950-040883FM-15+0914SBQV V0201701N006212200019N0112651N1+02801+01801999999ADDGA1041+006001999GF104991999999999999999999MA1101591999999REMMET051METAR SBQV 151800Z 17012KT 9999 SCT020 28/18 Q1016;
0143833440999992008021618004-14950-040883FM-15+0914SBQV V0201701N005112200019N0112651N1+02501+01801999999ADDGA1041+006001999GA2041+027001999GF104991999999999999999999MA1101591999999REMMET058METAR SBQV 161800Z 17010KT 9999 SCT020 SCT090 25/18 Q1016;
0120833440999992008021912004-14950-040883FM-15+0914SBQV V0201201N001010030019N0112651N1+02101+02001999999ADDGA1081+003001999GF108991999999999999999999MA1102101999999REMMET051METAR SBQV 191200Z 12002KT 9999 OVC010 21/20 Q1021;
0136833440999992008021914004-14950-040883FM-15+0914SBQV V0200701N00101220001CN0112651N1+02601+02101999999ADDGA1071+005401999GA2041+027001999MA1102101999999REMMET058METAR SBQV 191400Z 07002KT 9999 BKN018 SCT090 26/21 Q1021;EQDQ01+000042SCOTCV
0143833440999992008021915004-14950-040883FM-15+0914SBQV V0203501N001510060019N0112651N1+02601+02101999999ADDGA1071+006001999GA2071+027001999GF107991999999999999999999MA1102001999999REMMET058METAR SBQV 191500Z 35003KT 9999 BKN020 BKN090 26/21 Q1020;
0143833440999992008021916004-14950-040883FM-15+0914SBQV V0203201N002110060019N0112651N1+02601+02201999999ADDGA1071+006001999GA2071+027001999GF107991999999999999999999MA1101901999999REMMET058METAR SBQV 191600Z 32004KT 9999 BKN020 BKN090 26/22 Q1019;
0143833440999992008021917004-14950-040883FM-15+0914SBQV V0203201N001010060019N0112651N1+02601+02101999999ADDGA1071+006001999GA2071+027001999GF107991999999999999999999MA1101801999999REMMET058METAR SBQV 191700Z 32002KT 9999 BKN020 BKN090 26/21 Q1018;
0143833440999992008021919004-14950-040883FM-15+0914SBQV V0201801N001012200019N0112651N1+02601+01901999999ADDGA1041+004801999GA2041+024001999GF104991999999999999999999MA1101691999999REMMET058METAR SBQV 191900Z 18002KT 9999 SCT016 SCT080 26/19 Q1017;
0143833440999992008021920004-14950-040883FM-15+0914SBQV V0201801N003112200019N0112651N1+02601+02101999999ADDGA1041+004801999GA2041+024001999GF104991999999999999999999MA1101691999999REMMET058METAR SBQV 192000Z 18006KT 9999 SCT016 SCT080 26/21 Q1017;
0143833440999992008021921004-14950-040883FM-15+0914SBQV V0201501N003112200019N0112651N1+02501+02001999999ADDGA1041+004501999GA2041+021001999GF104991999999999999999999MA1101691999999REMMET058METAR SBQV 192100Z 15006KT 9999 SCT015 SCT070 25/20 Q1017;
0143833440999992008021922004-14950-040883FM-15+0914SBQV V0201601N001512200019N0112651N1+02301+02101999999ADDGA1021+003901999GA2041+021001999GF104991999999999999999999MA1101691999999REMMET058METAR SBQV 192200Z 16003KT 9999 FEW013 SCT070 23/21 Q1017;
0143833440999992008021923004-14950-040883FM-15+0914SBQV V0201401N001510210019N0112651N1+02301+02101999999ADDGA1021+003901999GA2071+021001999GF107991999999999999999999MA1101801999999REMMET058METAR SBQV 192300Z 14003KT 9999 FEW013 BKN070 23/21 Q1018;
0143833440999992008022000004-14950-040883FM-15+0914SBQV V0209999C000012200019N0112651N1+02201+02101999999ADDGA1021+003901999GA2041+021001999GF104991999999999999999999MA1101801999999REMMET058METAR SBQV 200000Z 00000KT 9999 FEW013 SCT070 22/21 Q1018;
0143833440999992008022006004-14950-040883FM-15+0914SBQV V0201101N002612200019N0112651N1+02101+02101999999ADDGA1021+001501999GA2041+024001999GF104991999999999999999999MA1101691999999REMMET058METAR SBQV 200600Z 11005KT 9999 FEW005 SCT080 21/21 Q1017;
0143833440999992008022011004-14950-040883FM-15+0914SBQV V0201401N003610210019N0112651N1+02301+02001999999ADDGA1041+003301999GA2071+021001999GF107991999999999999999999MA1101801999999REMMET058METAR SBQV 201100Z 14007KT 9999 SCT011 BKN070 23/20 Q1018;
0143833440999992008022012004-14950-040883FM-15+0914SBQV V0201401N003110045019N0112651N1+02401+02001999999ADDGA1071+004501999GA2071+021001999GF107991999999999999999999MA1101901999999REMMET058METAR SBQV 201200Z 14006KT 9999 BKN015 BKN070 24/20 Q1019;
0143833440999992008022013004-14950-040883FM-15+0914SBQV V0201301N003110054019N0112651N1+02701+02001999999ADDGA1071+005401999GA2071+024001999GF107991999999999999999999MA1101801999999REMMET058METAR SBQV 201300Z 13006KT 9999 BKN018 BKN080 27/20 Q1018;
0143833440999992008022014004-14950-040883FM-15+0914SBQV V0201101N002610054019N0112651N1+02701+02101999999ADDGA1071+005401999GA2071+024001999GF107991999999999999999999MA1101801999999REMMET058METAR SBQV 201400Z 11005KT 9999 BKN018 BKN080 27/21 Q1018;
0143833440999992008022015004-14950-040883FM-15+0914SBQV V0201301N002612200019N0112651N1+02901+02001999999ADDGA1041+006001999GA2041+027001999GF104991999999999999999999MA1101801999999REMMET058METAR SBQV 201500Z 13005KT 9999 SCT020 SCT090 29/20 Q1018;
0136833440999992008022016004-14950-040883FM-15+0914SBQV V0201701N00311220001CN0112651N1+02801+01901999999ADDGA1071+006001999GA2041+027001999MA1101691999999REMMET058METAR SBQV 201600Z 17006KT 9999 BKN020 SCT090 28/19 Q1017;EQDQ01+000042SCOTCV
0174833440999992008022021004-14950-040883FM-15+0914SBQV V0201401N003110240019N0112651N1+02401+02101999999ADDGA1021+004801999GA2021+006001021GA3071+024001999GF107991999999999999999999MA1101491999999REMMET073METAR SBQV 202100Z 14006KT 9999 FEW016 FEW020TCU BKN080 24/21 Q1015 RETS;
0143833440999992008022022004-14950-040883FM-15+0914SBQV V0201401N003110240019N0112651N1+02301+02101999999ADDGA1021+004801999GA2071+024001999GF107991999999999999999999MA1101491999999REMMET058METAR SBQV 202200Z 14006KT 9999 FEW016 BKN080 23/21 Q1015;
0143833440999992008022713004-14950-040883FM-15+0914SBQV V0202801N003110045019N0112651N1+02301+02101999999ADDGA1071+004501999GA2071+024001999GF107991999999999999999999MA1101591999999REMMET058METAR SBQV 271300Z 28006KT 9999 BKN015 BKN080 23/21 Q1016;
0169833440999992008022715004-14950-040883FM-15+0914SBQV V0202501N002612200019N0112651N1+02601+02101999999ADDGA1041+006001999GA2021+007501021GA3041+090001999GF104991999999999999999999MA1101591999999REMMET068METAR SBQV 271500Z 25005KT 9999 SCT020 FEW025TCU SCT300 26/21 Q1016;
0169833440999992008022716004-14950-040883FM-15+0914SBQV V0202501N002112200019N0112651N1+02701+02101999999ADDGA1041+007501999GA2021+009001021GA3041+090001999GF104991999999999999999999MA1101491999999REMMET068METAR SBQV 271600Z 25004KT 9999 SCT025 FEW030TCU SCT300 27/21 Q1015;
0169833440999992008022717004-14950-040883FM-15+0914SBQV V0201901N003612200019N0112651N1+02701+02101999999ADDGA1041+007501999GA2021+009001021GA3041+090001999GF104991999999999999999999MA1101291999999REMMET068METAR SBQV 271700Z 19007KT 9999 SCT025 FEW030TCU SCT300 27/21 Q1013;
0117833440999992008022719004-14950-040883FM-15+0914SBQV V0202201N00261220001CN0112651N1+02701+02001999999ADDGA1071+007501999GA2041+090001999MA1101191999999REMMET058METAR SBQV 271900Z 22005KT 9999 BKN025 SCT300 27/20 Q1012;
0154833440999992008022721004-14950-040883FM-15+0914SBQV V0201701N002110060019N0112651N1+02401+02101999999ADDGA1021+005401091GA2071+006001999GF107991999999999999999999MA1101291999999MW1171REMMET063METAR SBQV 272100Z 17004KT 9999 TS FEW018CB BKN020 24/21 Q1013;
0143833440999992008022812004-14950-040883FM-15+0914SBQV V0201501N005112200019N0112651N1+02301+02001999999ADDGA1041+006001999GA2041+027001999GF104991999999999999999999MA1101591999999REMMET058METAR SBQV 281200Z 15010KT 9999 SCT020 SCT090 23/20 Q1016;
0143833440999992008022813004-14950-040883FM-15+0914SBQV V0201601N003112200019N0112651N1+02401+02001999999ADDGA1041+006001999GA2041+090001999GF104991999999999999999999MA1101691999999REMMET058METAR SBQV 281300Z 16006KT 9999 SCT020 SCT300 24/20 Q1017;
0136833440999992008022814004-14950-040883FM-15+0914SBQV V0201701N00311220001CN0112651N1+02501+02001999999ADDGA1071+007501999GA2041+090001999MA1101691999999REMMET058METAR SBQV 281400Z 17006KT 9999 BKN025 SCT300 25/20 Q1017;EQDQ01+000042SCOTCV
0120833440999992008022816004-14950-040883FM-15+0914SBQV V0209999C000010075019N0112651N1+02601+02001999999ADDGA1071+007501999GF107991999999999999999999MA1101491999999REMMET051METAR SBQV 281600Z 00000KT 9999 BKN025 26/20 Q1015;
0169833440999992008022820004-14950-040883FM-15+0914SBQV V0201801N003612200019N0112651N1+02601+02001999999ADDGA1021+007501999GA2021+009001021GA3041+024001999GF104991999999999999999999MA1101291999999REMMET068METAR SBQV 282000Z 18007KT 9999 FEW025 FEW030TCU SCT080 26/20 Q1013;
0143833440999992008022821004-14950-040883FM-15+0914SBQV V0201801N004610900019N0112651N1+02401+02001999999ADDGA1021+006001999GA2071+090001999GF107991999999999999999999MA1101291999999REMMET058METAR SBQV 282100Z 18009KT 9999 FEW020 BKN300 24/20 Q1013;
0143833440999992008022822004-14950-040883FM-15+0914SBQV V0201501N003610900019N0112651N1+02301+02001999999ADDGA1021+005401999GA2071+090001999GF107991999999999999999999MA1101391999999REMMET058METAR SBQV 282200Z 15007KT 9999 FEW018 BKN300 23/20 Q1014;
0091833440999992008022910154-14950-040883FM-16+0914SBQV V0201301N004112200019N0112651N1+02001+02001999999ADDMA1101701999999REMMET064METAR SBQV 291015Z SPECI 13008KT 9999 BKN013 OVC070 20/20 Q1017;
0176833440999992008022911004-14950-040883FM-15+0914SBQV V0201201N002610039019N0090001N1+02101+02001999999ADDGA1021+001801999GA2071+003901999GA3081+021001999GF108991999999999999999999MA1101691999999MW1511REMMET069METAR SBQV 291100Z 12005KT 9000 -DZ FEW006 BKN013 OVC070 21/20 Q1017;
0193833440999992008022912004-14950-040883FM-15+0914SBQV V0201301N000510039019N0010001N1+02101+02001999999ADDGA1041+001501999GA2071+003901999GA3081+021001999GF108991999999999999999999MA1101801999999MW1101MW2511MW3611REMMET074METAR SBQV 291200Z 13001KT 1000 -RADZ BR SCT005 BKN013 OVC070 21/20 Q1018;
0136833440999992008022912384-14950-040883FM-16+0914SBQV V0201001N002619999999N9999999N1+02001+02001999999ADDKA1999M+99999MA1101801999999REMMET077METAR SBQV 291238Z SPECI 10005KT 8000 -RADZ FEW006 SCT013 BKN070 20/20 Q1018;EQDQ01 +00052ATMX  
0143833440999992008022914004-14950-040883FM-15+0914SBQV V0201801N001010240019N0112651N1+02301+02101999999ADDGA1041+004501999GA2071+024001999GF107991999999999999999999MA1101691999999REMMET058METAR SBQV 291400Z 18002KT 9999 SCT015 BKN080 23/21 Q1017;
0143833440999992008022915004-14950-040883FM-15+0914SBQV V0203101N000510270019N0112651N1+02501+02001999999ADDGA1041+006001999GA2071+027001999GF107991999999999999999999MA1101591999999REMMET058METAR SBQV 291500Z 31001KT 9999 SCT020 BKN090 25/20 Q1016;
0136833440999992008022916004-14950-040883FM-15+0914SBQV V0203601N00211220001CN0112651N1+02501+02101999999ADDGA1071+006001999GA2041+027001999MA1101491999999REMMET058METAR SBQV 291600Z 36004KT 9999 BKN020 SCT090 25/21 Q1015;EQDQ01+000042SCOTCV
0136833440999992008022917004-14950-040883FM-15+0914SBQV V0203401N00151220001CN0112651N1+02701+02101999999ADDGA1071+006001999GA2041+027001999MA1101391999999REMMET058METAR SBQV 291700Z 34003KT 9999 BKN020 SCT090 27/21 Q1014;EQDQ01+000042SCOTCV
0143833440999992008022918004-14950-040883FM-15+0914SBQV V0203301N003610060019N0112651N1+02701+02201999999ADDGA1071+006001999GA2071+027001999GF107991999999999999999999MA1101291999999REMMET058METAR SBQV 291800Z 33007KT 9999 BKN020 BKN090 27/22 Q1013;
0169833440999992008022919004-14950-040883FM-15+0914SBQV V0203601N001012200019N0112651N1+02601+02101999999ADDGA1041+006001999GA2021+007501021GA3041+027001999GF104991999999999999999999MA1101291999999REMMET068METAR SBQV 291900Z 36002KT 9999 SCT020 FEW025TCU SCT090 26/21 Q1013;
0143833440999992008022920004-14950-040883FM-15+0914SBQV V0203301N002112200019N0112651N1+02501+02001999999ADDGA1041+005401999GA2041+024001999GF104991999999999999999999MA1101291999999REMMET058METAR SBQV 292000Z 33004KT 9999 SCT018 SCT080 25/20 Q1013;
0166833440999992008022921004-14950-040883FM-15+0914SBQV V0201501N00261004501CN0112651N1+02301+02101999999ADDGA1021+003901999GA2041+004501999GA3071+090001999GF107991999999999999999999MA1101291999999REMMET065METAR SBQV 292100Z 15005KT 9999 FEW013 SCT015 BKN300 23/21 Q1013;
0120833440999992008022923004-14950-040883FM-15+0914SBQV V0201401N002112200019N0112651N1+02201+02101999999ADDGA1021+003601999GF102991999999999999999999MA1101491999999REMMET051METAR SBQV 292300Z 14004KT 9999 FEW012 22/21 Q1015;
0091833440999992008030110154-14950-040883FM-16+0914SBQV V0200101N002612200019N0112651N1+02101+02101999999ADDMA1101601999999REMMET064METAR SBQV 011015Z SPECI 01005KT 9999 BKN004 OVC070 21/21 Q1016;
0176833440999992008030111004-14950-040883FM-15+0914SBQV V0200301N003110030019N0112651N1+02101+02101999999ADDGA1041+001201999GA2071+003001999GA3081+021001999GF108991999999999999999999MA1101591999999MW1611REMMET069METAR SBQV 011100Z 03006KT 9999 -RA SCT004 BKN010 OVC070 21/21 Q1016;
0166833440999992008030112004-14950-040883FM-15+0914SBQV V0200101N00361003901CN0112651N1+02301+02101999999ADDGA1021+002101999GA2041+003901999GA3071+021001999GF107991999999999999999999MA1101591999999REMMET065METAR SBQV 011200Z 01007KT 9999 FEW007 SCT013 BKN070 23/21 Q1016;
0143833440999992008030113004-14950-040883FM-15+0914SBQV V0203601N003110240019N0112651N1+02401+02001999999ADDGA1021+004501999GA2071+024001999GF107991999999999999999999MA1101591999999REMMET058METAR SBQV 011300Z 36006KT 9999 FEW015 BKN080 24/20 Q1016;
0166833440999992008030114004-14950-040883FM-15+0914SBQV V0203401N00361024001CN0112651N1+02801+02101999999ADDGA1021+005401999GA2041+024001999GA3071+090001999GF107991999999999999999999MA1101491999999REMMET065METAR SBQV 011400Z 34007KT 9999 FEW018 SCT080 BKN300 28/21 Q1015;
0143833440999992008030115004-14950-040883FM-15+0914SBQV V0203601N003610900019N0112651N1+02601+02001999999ADDGA1021+006001999GA2071+090001999GF107991999999999999999999MA1101491999999REMMET058METAR SBQV 011500Z 36007KT 9999 FEW020 BKN300 26/20 Q1015;
0166833440999992008030116004-14950-040883FM-15+0914SBQV V0200101N00411024001CN0112651N1+02601+02001999999ADDGA1041+006001999GA2041+024001999GA3071+090001999GF107991999999999999999999MA1101391999999REMMET065METAR SBQV 011600Z 01008KT 9999 SCT020 SCT080 BKN300 26/20 Q1014;
0143833440999992008030117004-14950-040883FM-15+0914SBQV V0200201N004110240019N0112651N1+02601+02001999999ADDGA1021+006001999GA2071+024001999GF107991999999999999999999MA1101291999999REMMET058METAR SBQV 011700Z 02008KT 9999 FEW020 BKN080 26/20 Q1013;
0143833440999992008030118004-14950-040883FM-15+0914SBQV V0200201N004110240019N0112651N1+02601+02101999999ADDGA1041+006001999GA2071+024001999GF107991999999999999999999MA1101191999999REMMET058METAR SBQV 011800Z 02008KT 9999 SCT020 BKN080 26/21 Q1012;
0143833440999992008030119004-14950-040883FM-15+0914SBQV V0200201N003610240019N0112651N1+02201+02101999999ADDGA1041+004501999GA2081+024001999GF108991999999999999999999MA1101191999999REMMET058METAR SBQV 011900Z 02007KT 9999 SCT015 OVC080 22/21 Q1012;
0143833440999992008030120004-14950-040883FM-15+0914SBQV V0200101N001510270019N0112651N1+02301+02101999999ADDGA1021+005401999GA2081+027001999GF108991999999999999999999MA1101191999999REMMET058METAR SBQV 012000Z 01003KT 9999 FEW018 OVC090 23/21 Q1012;
0143833440999992008030121004-14950-040883FM-15+0914SBQV V0203201N001510270019N0112651N1+02301+02101999999ADDGA1021+005401999GA2081+027001999GF108991999999999999999999MA1101291999999REMMET058METAR SBQV 012100Z 32003KT 9999 FEW018 OVC090 23/21 Q1013;
0143833440999992008030122004-14950-040883FM-15+0914SBQV V0209999C000010240019N0112651N1+02201+02101999999ADDGA1021+004501999GA2081+024001999GF108991999999999999999999MA1101391999999REMMET058METAR SBQV 012200Z 00000KT 9999 FEW015 OVC080 22/21 Q1014;
0153833440999992008030123004-14950-040883FM-15+0914SBQV V0209999C000010210019N0112651N1+02201+02101999999ADDGA1041+003901999GA2081+021001999GF108991999999999999999999MA1101391999999MW1611REMMET062METAR SBQV 012300Z 00000KT 9999 -RA SCT013 OVC070 22/21 Q1014;
0209833440999992008030200004-14950-040883FM-15+0914SBQV V0203201N002610033019N0020001N1+02101+02101999999ADDGA1041+001501999GA2071+003301999GA3021+006001091GA4081+021001999GF108991999999999999999999MA1101591999999MW1801MW2951REMMET080METAR SBQV 020000Z 32005KT 2000 -TSRA SCT005 BKN011 FEW020CB OVC070 21/21 Q1016;
0166833440999992008030211004-14950-040883FM-15+0914SBQV V0200301N004610039019N0112651N1+02101+02001999999ADDGA1021+001501999GA2071+003901999GA3071+021001999GF107991999999999999999999MA1101591999999REMMET065METAR SBQV 021100Z 03009KT 9999 FEW005 BKN013 BKN070 21/20 Q1016;
0166833440999992008030212004-14950-040883FM-15+0914SBQV V0200301N00411004501CN0112651N1+02201+02001999999ADDGA1021+002101999GA2041+004501999GA3071+024001999GF107991999999999999999999MA1101691999999REMMET065METAR SBQV 021200Z 03008KT 9999 FEW007 SCT015 BKN080 22/20 Q1017;
0143833440999992008030213004-14950-040883FM-15+0914SBQV V0200201N004112200019N0112651N1+02301+02001999999ADDGA1041+004801999GA2041+024001999GF104991999999999999999999MA1101691999999REMMET058METAR SBQV 021300Z 02008KT 9999 SCT016 SCT080 23/20 Q1017;
0120833440999992008030214004-14950-040883FM-15+0914SBQV V0200201N004612200019N0112651N1+02401+02001999999ADDGA1041+005401999GF104991999999999999999999MA1101691999999REMMET051METAR SBQV 021400Z 02009KT 9999 SCT018 24/20 Q1017;
0120833440999992008030215004-14950-040883FM-15+0914SBQV V0200201N005110060019N0112651N1+02601+02001999999ADDGA1071+006001999GF107991999999999999999999MA1101591999999REMMET051METAR SBQV 021500Z 02010KT 9999 BKN020 26/20 Q1016;
0120833440999992008030216004-14950-040883FM-15+0914SBQV V0200301N004610060019N0112651N1+02601+02001999999ADDGA1071+006001999GF107991999999999999999999MA1101491999999REMMET051METAR SBQV 021600Z 03009KT 9999 BKN020 26/20 Q1015;
0120833440999992008030217004-14950-040883FM-15+0914SBQV V0200301N004110060019N0112651N1+02601+02101999999ADDGA1071+006001999GF107991999999999999999999MA1101391999999REMMET051METAR SBQV 021700Z 03008KT 9999 BKN020 26/21 Q1014;
0139833440999992008030218004-14950-040883FM-15+0914SBQV V0200301N003612200019N0112651N1+02701+02101999999ADDGA1041+006001999GA2021+007501021MA1101291999999REMMET061METAR SBQV 021800Z 03007KT 9999 SCT020 FEW025TCU 27/21 Q1013;EQDQ01+000022SCOTCV
0143833440999992008030219004-14950-040883FM-15+0914SBQV V0200201N003612200019N0112651N1+02701+02201999999ADDGA1041+006001999GA2041+090001999GF104991999999999999999999MA1101291999999REMMET058METAR SBQV 021900Z 02007KT 9999 SCT020 SCT300 27/22 Q1013;
0120833440999992008030220004-14950-040883FM-15+0914SBQV V0200301N004112200019N0112651N1+02601+02101999999ADDGA1021+006001999GF102991999999999999999999MA1101291999999REMMET051METAR SBQV 022000Z 03008KT 9999 FEW020 26/21 Q1013;
0072833440999992008030222004-14950-040883FM-15+0914SBQV V0202701N00101220001CN0099001N1+02201+02201999999ADDMA1101491999999REMMET045METAR SBQV 022200Z 27002KT CAVOK 22/22 Q1015;
0078833440999992008030310154-14950-040883FM-16+0914SBQV V0200201N004112200019N0099001N1+02101+01901999999ADDMA1101701999999REMMET051METAR SBQV 031015Z SPECI 02008KT CAVOK 21/19 Q1017;
0072833440999992008030311004-14950-040883FM-15+0914SBQV V0200201N00511220001CN0099001N1+02301+02001999999ADDMA1101801999999REMMET045METAR SBQV 031100Z 02010KT CAVOK 23/20 Q1018;
0143833440999992008030312004-14950-040883FM-15+0914SBQV V0200101N006712200019N0112651N1+02401+02101999999ADDGA1021+006001999GA2041+090001999GF104991999999999999999999MA1101801999999REMMET058METAR SBQV 031200Z 01013KT 9999 FEW020 SCT300 24/21 Q1018;
0143833440999992008030313004-14950-040883FM-15+0914SBQV V0200101N004612200019N0112651N1+02601+02101999999ADDGA1021+009001999GA2041+090001999GF104991999999999999999999MA1101801999999REMMET058METAR SBQV 031300Z 01009KT 9999 FEW030 SCT300 26/21 Q1018;
0143833440999992008030314004-14950-040883FM-15+0914SBQV V0200101N004112200019N0112651N1+02701+02101999999ADDGA1021+009001999GA2041+090001999GF104991999999999999999999MA1101691999999REMMET058METAR SBQV 031400Z 01008KT 9999 FEW030 SCT300 27/21 Q1017;
0120833440999992008030315004-14950-040883FM-15+0914SBQV V0200101N002612200019N0112651N1+02801+02201999999ADDGA1021+010501999GF102991999999999999999999MA1101691999999REMMET051METAR SBQV 031500Z 01005KT 9999 FEW035 28/22 Q1017;
0120833440999992008030316004-14950-040883FM-15+0914SBQV V0200101N003112200019N0112651N1+02901+02101999999ADDGA1041+010501999GF104991999999999999999999MA1101591999999REMMET051METAR SBQV 031600Z 01006KT 9999 SCT035 29/21 Q1016;
0120833440999992008030317004-14950-040883FM-15+0914SBQV V0203301N002612200019N0112651N1+02901+02101999999ADDGA1041+010501999GF104991999999999999999999MA1101491999999REMMET051METAR SBQV 031700Z 33005KT 9999 SCT035 29/21 Q1015;
0143833440999992008030318004-14950-040883FM-15+0914SBQV V0203101N001512200019N0112651N1+02901+02001999999ADDGA1041+010501999GA2041+090001999GF104991999999999999999999MA1101391999999REMMET058METAR SBQV 031800Z 31003KT 9999 SCT035 SCT300 29/20 Q1014;
0143833440999992008030319004-14950-040883FM-15+0914SBQV V0203601N001512200019N0112651N1+02801+01901999999ADDGA1021+009001999GA2041+027001999GF104991999999999999999999MA1101391999999REMMET058METAR SBQV 031900Z 36003KT 9999 FEW030 SCT090 28/19 Q1014;
0143833440999992008030320004-14950-040883FM-15+0914SBQV V0203601N000512200019N0112651N1+02801+02001999999ADDGA1021+007501999GA2041+027001999GF104991999999999999999999MA1101491999999REMMET058METAR SBQV 032000Z 36001KT 9999 FEW025 SCT090 28/20 Q1015;
0166833440999992008030321004-14950-040883FM-15+0914SBQV V0202501N00261024001CN0112651N1+02501+02101999999ADDGA1021+006001999GA2041+024001999GA3071+090001999GF107991999999999999999999MA1101591999999REMMET065METAR SBQV 032100Z 25005KT 9999 FEW020 SCT080 BKN300 25/21 Q1016;
0072833440999992008030411004-14950-040883FM-15+0914SBQV V0203201N00211220001CN0099001N1+02301+02101999999ADDMA1101801999999REMMET045METAR SBQV 041100Z 32004KT CAVOK 23/21 Q1018;
0143833440999992008030412004-14950-040883FM-15+0914SBQV V0203301N002610270019N0112651N1+02601+02101999999ADDGA1021+009001999GA2071+027001999GF107991999999999999999999MA1101801999999REMMET058METAR SBQV 041200Z 33005KT 9999 FEW030 BKN090 26/21 Q1018;
0143833440999992008030413004-14950-040883FM-15+0914SBQV V0203401N002612200019N0112651N1+02701+02101999999ADDGA1021+009001999GA2041+027001999GF104991999999999999999999MA1101801999999REMMET058METAR SBQV 041300Z 34005KT 9999 FEW030 SCT090 27/21 Q1018;
0143833440999992008030414004-14950-040883FM-15+0914SBQV V0203401N003112200019N0112651N1+02801+02101999999ADDGA1021+010501999GA2041+090001999GF104991999999999999999999MA1101801999999REMMET058METAR SBQV 041400Z 34006KT 9999 FEW035 SCT300 28/21 Q1018;
0143833440999992008030415004-14950-040883FM-15+0914SBQV V0203401N003110900019N0112651N1+02801+02201999999ADDGA1021+010501999GA2071+090001999GF107991999999999999999999MA1101691999999REMMET058METAR SBQV 041500Z 34006KT 9999 FEW035 BKN300 28/22 Q1017;
0143833440999992008030416004-14950-040883FM-15+0914SBQV V0203201N003110900019N0112651N1+02901+02101999999ADDGA1041+010501999GA2071+090001999GF107991999999999999999999MA1101591999999REMMET058METAR SBQV 041600Z 32006KT 9999 SCT035 BKN300 29/21 Q1016;
0143833440999992008030417004-14950-040883FM-15+0914SBQV V0203401N002610900019N0112651N1+03001+02101999999ADDGA1021+010501999GA2071+090001999GF107991999999999999999999MA1101491999999REMMET058METAR SBQV 041700Z 34005KT 9999 FEW035 BKN300 30/21 Q1015;
0143833440999992008030418004-14950-040883FM-15+0914SBQV V0203201N003610900019N0112651N1+03001+02101999999ADDGA1021+010501999GA2071+090001999GF107991999999999999999999MA1101491999999REMMET058METAR SBQV 041800Z 32007KT 9999 FEW035 BKN300 30/21 Q1015;
0166833440999992008030419004-14950-040883FM-15+0914SBQV V0203001N00311027001CN0112651N1+02901+02001999999ADDGA1021+009001999GA2041+027001999GA3071+090001999GF107991999999999999999999MA1101391999999REMMET065METAR SBQV 041900Z 30006KT 9999 FEW030 SCT090 BKN300 29/20 Q1014;
0143833440999992008030420004-14950-040883FM-15+0914SBQV V0203001N000512200019N0112651N1+02801+02101999999ADDGA1021+007501999GA2041+027001999GF104991999999999999999999MA1101391999999REMMET058METAR SBQV 042000Z 30001KT 9999 FEW025 SCT090 28/21 Q1014;
0143833440999992008030421004-14950-040883FM-15+0914SBQV V0200201N002110240019N0112651N1+02601+02201999999ADDGA1021+006001999GA2071+024001999GF107991999999999999999999MA1101491999999REMMET058METAR SBQV 042100Z 02004KT 9999 FEW020 BKN080 26/22 Q1015;
0072833440999992008030422004-14950-040883FM-15+0914SBQV V0209999C00001220001CN0099001N1+02501+02201999999ADDMA1101591999999REMMET045METAR SBQV 042200Z 00000KT CAVOK 25/22 Q1016;
0072833440999992008030423004-14950-040883FM-15+0914SBQV V0209999C00001220001CN0099001N1+02301+02201999999ADDMA1101591999999REMMET045METAR SBQV 042300Z 00000KT CAVOK 23/22 Q1016;
0072833440999992008030511004-14950-040883FM-15+0914SBQV V0203601N00151220001CN0099001N1+02401+02101999999ADDMA1101691999999REMMET045METAR SBQV 051100Z 36003KT CAVOK 24/21 Q1017;
0143833440999992008030512004-14950-040883FM-15+0914SBQV V0203401N002610270019N0112651N1+02501+02201999999ADDGA1021+006001999GA2071+027001999GF107991999999999999999999MA1101691999999REMMET058METAR SBQV 051200Z 34005KT 9999 FEW020 BKN090 25/22 Q1017;
0120833440999992008030513004-14950-040883FM-15+0914SBQV V0203401N000512200019N0112651N1+02701+02201999999ADDGA1021+006001999GF102991999999999999999999MA1101691999999REMMET051METAR SBQV 051300Z 34001KT 9999 FEW020 27/22 Q1017;
0120833440999992008030514004-14950-040883FM-15+0914SBQV V0203401N001012200019N0112651N1+02801+02101999999ADDGA1021+007501999GF102991999999999999999999MA1101591999999REMMET051METAR SBQV 051400Z 34002KT 9999 FEW025 28/21 Q1016;
0120833440999992008030515004-14950-040883FM-15+0914SBQV V0203101N001512200019N0112651N1+02901+02201999999ADDGA1041+007501999GF104991999999999999999999MA1101491999999REMMET051METAR SBQV 051500Z 31003KT 9999 SCT025 29/22 Q1015;
0170833440999992008030516004-14950-040883FM-15+0914SBQV V0203601N002612200019N0112651N1+03001+02301999999ADDGA1021+007501091GA2041+009001999GF104991999999999999999999MA1101391999999MW1801MW2951REMMET073METAR SBQV 051600Z 36005KT 9999 3000SW -TSRA FEW025CB SCT030 30/23 Q1014;
0167833440999992008030517004-14950-040883FM-15+0914SBQV V0200901N00311220001CN0112651N1+02601+02101999999ADDGA1071+006001999GA2021+007501021GA3041+021001999MA1101291999999REMMET073METAR SBQV 051700Z 09006KT 9999 BKN020 FEW025TCU SCT070 26/21 Q1013 RETS;EQDQ01+000042SCOTCV
0169833440999992008030518004-14950-040883FM-15+0914SBQV V0200801N003112200019N0112651N1+02601+02101999999ADDGA1041+006001999GA2021+007501021GA3041+021001999GF104991999999999999999999MA1101291999999REMMET068METAR SBQV 051800Z 08006KT 9999 SCT020 FEW025TCU SCT070 26/21 Q1013;
0186833440999992008030519004-14950-040883FM-15+0914SBQV V0200801N003612200019N0112651N1+02301+02101999999ADDGA1041+005401999GA2021+007501091GA3041+021001999GF104991999999999999999999MA1101291999999MW1801MW2951REMMET073METAR SBQV 051900Z 08007KT 9999 -TSRA SCT018 FEW025CB SCT070 23/21 Q1013;
0148833440999992008030520004-14950-040883FM-15+0914SBQV V0209999C000010210019N0112651N1+02301+02101999999ADDGA1021+004801999GA2071+021001999GF107991999999999999999999MA1101291999999REMMET063METAR SBQV 052000Z 00000KT 9999 FEW016 BKN070 23/21 Q1013 RETS;
0143833440999992008030521004-14950-040883FM-15+0914SBQV V0209999C000010210019N0112651N1+02301+02201999999ADDGA1021+004501999GA2071+021001999GF107991999999999999999999MA1101291999999REMMET058METAR SBQV 052100Z 00000KT 9999 FEW015 BKN070 23/22 Q1013;
0072833440999992008030522004-14950-040883FM-15+0914SBQV V0209999C00001220001CN0099001N1+02201+02201999999ADDMA1101391999999REMMET045METAR SBQV 052200Z 00000KT CAVOK 22/22 Q1014;
0078833440999992008030610154-14950-040883FM-16+0914SBQV V0209999C000012200019N0099001N1+02101+02001999999ADDMA1101501999999REMMET051METAR SBQV 061015Z SPECI 00000KT CAVOK 21/20 Q1015;
0072833440999992008030611004-14950-040883FM-15+0914SBQV V0200301N00051220001CN0099001N1+02201+01801999999ADDMA1101591999999REMMET045METAR SBQV 061100Z 03001KT CAVOK 22/18 Q1016;
0072833440999992008030612004-14950-040883FM-15+0914SBQV V0200101N00211220001CN0099001N1+02401+02101999999ADDMA1101691999999REMMET045METAR SBQV 061200Z 01004KT CAVOK 24/21 Q1017;
0143833440999992008030613004-14950-040883FM-15+0914SBQV V0200101N002110210019N0112651N1+02501+02201999999ADDGA1021+004801999GA2071+021001999GF107991999999999999999999MA1101691999999REMMET058METAR SBQV 061300Z 01004KT 9999 FEW016 BKN070 25/22 Q1017;
0143833440999992008030615004-14950-040883FM-15+0914SBQV V0200201N003112200019N0112651N1+02701+02001999999ADDGA1041+006001999GA2041+024001999GF104991999999999999999999MA1101591999999REMMET058METAR SBQV 061500Z 02006KT 9999 SCT020 SCT080 27/20 Q1016;
0143833440999992008030616004-14950-040883FM-15+0914SBQV V0200101N002612200019N0112651N1+02701+02101999999ADDGA1041+006001999GA2041+027001999GF104991999999999999999999MA1101491999999REMMET058METAR SBQV 061600Z 01005KT 9999 SCT020 SCT090 27/21 Q1015;
0120833440999992008030617004-14950-040883FM-15+0914SBQV V0200101N002612200019N0112651N1+02801+02001999999ADDGA1041+006001999GF104991999999999999999999MA1101391999999REMMET051METAR SBQV 061700Z 01005KT 9999 SCT020 28/20 Q1014;
0169833440999992008030618004-14950-040883FM-15+0914SBQV V0200401N002112200019N0112651N1+02701+01901999999ADDGA1021+006001999GA2021+007501021GA3041+090001999GF104991999999999999999999MA1101291999999REMMET068METAR SBQV 061800Z 04004KT 9999 FEW020 FEW025TCU SCT300 27/19 Q1013;
0169833440999992008030619004-14950-040883FM-15+0914SBQV V0200401N002110900019N0112651N1+02801+01701999999ADDGA1021+006001999GA2021+007501021GA3071+090001999GF107991999999999999999999MA1101291999999REMMET068METAR SBQV 061900Z 04004KT 9999 FEW020 FEW025TCU BKN300 28/17 Q1013;
0169833440999992008030620004-14950-040883FM-15+0914SBQV V0209999C000012200019N0112651N1+02701+01801999999ADDGA1021+006001999GA2021+007501021GA3041+027001999GF104991999999999999999999MA1101291999999REMMET068METAR SBQV 062000Z 00000KT 9999 FEW020 FEW025TCU SCT090 27/18 Q1013;
0169833440999992008030621004-14950-040883FM-15+0914SBQV V0200501N001010270019N0112651N1+02501+01801999999ADDGA1021+006001999GA2021+007501021GA3071+027001999GF107991999999999999999999MA1101391999999REMMET068METAR SBQV 062100Z 05002KT 9999 FEW020 FEW025TCU BKN090 25/18 Q1014;
0177833440999992008030622004-14950-040883FM-15+0914SBQV V0209999C000010270019N0112651N1+02301+02201999999ADDGA1021+004801999GA2021+006001091GA3071+027001999GF107991999999999999999999MA1101491999999MW1171REMMET070METAR SBQV 062200Z 00000KT 9999 TS FEW016 FEW020CB BKN090 23/22 Q1015;
0143833440999992008030711004-14950-040883FM-15+0914SBQV V0200901N000510900019N0112651N1+02201+02001999999ADDGA1021+003301999GA2071+090001999GF107991999999999999999999MA1101801999999REMMET058METAR SBQV 071100Z 09001KT 9999 FEW011 BKN300 22/20 Q1018;
0143833440999992008030712004-14950-040883FM-15+0914SBQV V0200901N002610900019N0112651N1+02401+02001999999ADDGA1021+004501999GA2071+090001999GF107991999999999999999999MA1101801999999REMMET058METAR SBQV 071200Z 09005KT 9999 FEW015 BKN300 24/20 Q1018;
0143833440999992008030713004-14950-040883FM-15+0914SBQV V0201101N001012200019N0112651N1+02601+02201999999ADDGA1021+006001999GA2041+090001999GF104991999999999999999999MA1101801999999REMMET058METAR SBQV 071300Z 11002KT 9999 FEW020 SCT300 26/22 Q1018;
0120833440999992008030714004-14950-040883FM-15+0914SBQV V0200401N003112200019N0112651N1+02701+01901999999ADDGA1041+006001999GF104991999999999999999999MA1101801999999REMMET051METAR SBQV 071400Z 04006KT 9999 SCT020 27/19 Q1018;
0120833440999992008030715004-14950-040883FM-15+0914SBQV V0200201N003110075019N0112651N1+02801+01901999999ADDGA1071+007501999GF107991999999999999999999MA1101801999999REMMET051METAR SBQV 071500Z 02006KT 9999 BKN025 28/19 Q1018;
0120833440999992008030716004-14950-040883FM-15+0914SBQV V0200401N002612200019N0112651N1+02801+01901999999ADDGA1041+007501999GF104991999999999999999999MA1101691999999REMMET051METAR SBQV 071600Z 04005KT 9999 SCT025 28/19 Q1017;
0120833440999992008030717004-14950-040883FM-15+0914SBQV V0200701N003612200019N0112651N1+02801+01901999999ADDGA1041+007501999GF104991999999999999999999MA1101591999999REMMET051METAR SBQV 071700Z 07007KT 9999 SCT025 28/19 Q1016;
0120833440999992008030718004-14950-040883FM-15+0914SBQV V0200701N002110075019N0112651N1+02801+01901999999ADDGA1071+007501999GF107991999999999999999999MA1101591999999REMMET051METAR SBQV 071800Z 07004KT 9999 BKN025 28/19 Q1016;
0179833440999992008030719004-14950-040883FM-15+0914SBQV V0209999C000012200019N0112651N1+02501+02101999999ADDGA1041+004801999GA2021+006001021GA3041+024001999GF104991999999999999999999MA1101491999999MW1611REMMET072METAR SBQV 071900Z 00000KT 9999 -RA SCT016 FEW020TCU SCT080 25/21 Q1015;
0136833440999992008030720004-14950-040883FM-15+0914SBQV V0209999C00001220001CN0112651N1+02401+02201999999ADDGA1071+006001999GA2041+024001999MA1101491999999REMMET058METAR SBQV 072000Z 00000KT 9999 BKN020 SCT080 24/22 Q1015;EQDQ01+000042SCOTCV
0143833440999992008030721004-14950-040883FM-15+0914SBQV V0209999C000010240019N0112651N1+02301+02201999999ADDGA1041+004801999GA2071+024001999GF107991999999999999999999MA1101491999999REMMET058METAR SBQV 072100Z 00000KT 9999 SCT016 BKN080 23/22 Q1015;
0143833440999992008030722004-14950-040883FM-15+0914SBQV V0209999C000012200019N0112651N1+02301+02201999999ADDGA1021+004801999GA2041+024001999GF104991999999999999999999MA1101591999999REMMET058METAR SBQV 072200Z 00000KT 9999 FEW016 SCT080 23/22 Q1016;
0143833440999992008030811004-14950-040883FM-15+0914SBQV V0201401N002610240019N0112651N1+02201+02001999999ADDGA1041+004801999GA2071+024001999GF107991999999999999999999MA1102001999999REMMET058METAR SBQV 081100Z 14005KT 9999 SCT016 BKN080 22/20 Q1020;
0169833440999992008030812004-14950-040883FM-15+0914SBQV V0201401N00211007501CN0112651N1+02401+02001999999ADDGA1041+006001999GA2021+007501021GA3071+024001999GF107991999999999999999999MA1102001999999REMMET068METAR SBQV 081200Z 14004KT 9999 SCT020 FEW025TCU BKN080 24/20 Q1020;
0143833440999992008030813004-14950-040883FM-15+0914SBQV V0200901N002610270019N0112651N1+02501+02001999999ADDGA1021+007501999GA2071+027001999GF107991999999999999999999MA1102001999999REMMET058METAR SBQV 081300Z 09005KT 9999 FEW025 BKN090 25/20 Q1020;
0143833440999992008030814004-14950-040883FM-15+0914SBQV V0201601N001512200019N0112651N1+02601+02001999999ADDGA1021+007501999GA2041+027001999GF104991999999999999999999MA1102001999999REMMET058METAR SBQV 081400Z 16003KT 9999 FEW025 SCT090 26/20 Q1020;
0143833440999992008030815004-14950-040883FM-15+0914SBQV V0203401N000510270019N0112651N1+02701+01901999999ADDGA1041+007501999GA2071+027001999GF107991999999999999999999MA1101901999999REMMET058METAR SBQV 081500Z 34001KT 9999 SCT025 BKN090 27/19 Q1019;
0180833440999992008030816004-14950-040883FM-15+0914SBQV V0201401N00511004801CN0010001N1+02301+02001999999ADDGA1041+004501999GA2021+004801021GA3071+024001999GF107991999999999999999999MA1101901999999MW1811REMMET073METAR SBQV 081600Z 14010KT 1000 SHRA SCT015 FEW016TCU BKN080 23/20 Q1019;
0177833440999992008030817004-14950-040883FM-15+0914SBQV V0201101N00261004801CN0112651N1+02301+02101999999ADDGA1041+004501999GA2021+004801091GA3071+024001999GF107991999999999999999999MA1101801999999MW1171REMMET070METAR SBQV 081700Z 11005KT 9999 TS SCT015 FEW016CB BKN080 23/21 Q1018;
0174833440999992008030818004-14950-040883FM-15+0914SBQV V0201201N00151004801CN0112651N1+02201+02001999999ADDGA1041+004501999GA2021+004801021GA3071+024001999GF107991999999999999999999MA1101801999999REMMET073METAR SBQV 081800Z 12003KT 9999 SCT015 FEW016TCU BKN080 22/20 Q1018 RETS;
0169833440999992008030819004-14950-040883FM-15+0914SBQV V0201401N003110240019N0112651N1+02401+02001999999ADDGA1021+004801999GA2021+005401021GA3071+024001999GF107991999999999999999999MA1101691999999REMMET068METAR SBQV 081900Z 14006KT 9999 FEW016 FEW018TCU BKN080 24/20 Q1017;
0143833440999992008030820004-14950-040883FM-15+0914SBQV V0201501N004110210019N0112651N1+02301+02101999999ADDGA1021+004801999GA2071+021001999GF107991999999999999999999MA1101691999999REMMET058METAR SBQV 082000Z 15008KT 9999 FEW016 BKN070 23/21 Q1017;
0143833440999992008030822004-14950-040883FM-15+0914SBQV V0201501N003612200019N0112651N1+02101+02001999999ADDGA1021+003901999GA2041+090001999GF104991999999999999999999MA1101801999999REMMET058METAR SBQV 082200Z 15007KT 9999 FEW013 SCT300 21/20 Q1018;
0072833440999992008030823004-14950-040883FM-15+0914SBQV V0201401N00261220001CN0099001N1+02001+02001999999ADDMA1101801999999REMMET045METAR SBQV 082300Z 14005KT CAVOK 20/20 Q1018;
0072833440999992008030900004-14950-040883FM-15+0914SBQV V0201301N00261220001CN0099001N1+02001+01901999999ADDMA1101901999999REMMET045METAR SBQV 090000Z 13005KT CAVOK 20/19 Q1019;
0110833440999992008030910154-14950-040883FM-16+0914SBQV V0201101N004119999999N0099001N1+02101+01801999999ADDKA1999M+99999MA1101901999999REMMET051METAR SBQV 091015Z SPECI 11008KT CAVOK 21/18 Q1019;EQDQ01 -00082ATMX  
0120833440999992008030911004-14950-040883FM-15+0914SBQV V0201001N005112200019N0112651N1+02201+01901999999ADDGA1021+006001999GF102991999999999999999999MA1102001999999REMMET051METAR SBQV 091100Z 10010KT 9999 FEW020 22/19 Q1020;
0120833440999992008030912004-14950-040883FM-15+0914SBQV V0201001N004612200019N0112651N1+02401+01801999999ADDGA1021+009001999GF102991999999999999999999MA1102101999999REMMET051METAR SBQV 091200Z 10009KT 9999 FEW030 24/18 Q1021;
0120833440999992008030913004-14950-040883FM-15+0914SBQV V0200501N004112200019N0112651N1+02501+01801999999ADDGA1021+009001999GF102991999999999999999999MA1102101999999REMMET051METAR SBQV 091300Z 05008KT 9999 FEW030 25/18 Q1021;
0120833440999992008030914004-14950-040883FM-15+0914SBQV V0201101N003112200019N0112651N1+02701+01501999999ADDGA1021+010501999GF102991999999999999999999MA1102001999999REMMET051METAR SBQV 091400Z 11006KT 9999 FEW035 27/15 Q1020;
0120833440999992008030915004-14950-040883FM-15+0914SBQV V0200801N002612200019N0112651N1+02701+01701999999ADDGA1021+010501999GF102991999999999999999999MA1101901999999REMMET051METAR SBQV 091500Z 08005KT 9999 FEW035 27/17 Q1019;
0120833440999992008030917004-14950-040883FM-15+0914SBQV V0201001N001512200019N0112651N1+02701+01601999999ADDGA1041+010501999GF104991999999999999999999MA1101691999999REMMET051METAR SBQV 091700Z 10003KT 9999 SCT035 27/16 Q1017;
0120833440999992008030918004-14950-040883FM-15+0914SBQV V0201101N001512200019N0112651N1+02801+01801999999ADDGA1041+010501999GF104991999999999999999999MA1101691999999REMMET051METAR SBQV 091800Z 11003KT 9999 SCT035 28/18 Q1017;
0120833440999992008030919004-14950-040883FM-15+0914SBQV V0201701N003612200019N0112651N1+02701+01801999999ADDGA1041+010501999GF104991999999999999999999MA1101591999999REMMET051METAR SBQV 091900Z 17007KT 9999 SCT035 27/18 Q1016;
0120833440999992008030920004-14950-040883FM-15+0914SBQV V0201601N004612200019N0112651N1+02601+01801999999ADDGA1021+009001999GF102991999999999999999999MA1101591999999REMMET051METAR SBQV 092000Z 16009KT 9999 FEW030 26/18 Q1016;
0143833440999992008030921004-14950-040883FM-15+0914SBQV V0201501N003612200019N0112651N1+02301+01701999999ADDGA1021+006001999GA2041+090001999GF104991999999999999999999MA1101591999999REMMET058METAR SBQV 092100Z 15007KT 9999 FEW020 SCT300 23/17 Q1016;
0143833440999992008030922004-14950-040883FM-15+0914SBQV V0201401N003112200019N0112651N1+02201+01701999999ADDGA1021+005401999GA2041+090001999GF104991999999999999999999MA1101691999999REMMET058METAR SBQV 092200Z 14006KT 9999 FEW018 SCT300 22/17 Q1017;
0143833440999992008031011004-14950-040883FM-15+0914SBQV V0200501N002610900019N0112651N1+02101+01901999999ADDGA1021+003901999GA2071+090001999GF107991999999999999999999MA1101901999999REMMET058METAR SBQV 101100Z 05005KT 9999 FEW013 BKN300 21/19 Q1019;
0143833440999992008031012004-14950-040883FM-15+0914SBQV V0200201N002112200019N0112651N1+02301+02001999999ADDGA1021+004501999GA2041+090001999GF104991999999999999999999MA1101901999999REMMET058METAR SBQV 101200Z 02004KT 9999 FEW015 SCT300 23/20 Q1019;
0120833440999992008031013004-14950-040883FM-15+0914SBQV V0200201N002612200019N0112651N1+02501+02001999999ADDGA1041+006001999GF104991999999999999999999MA1101901999999REMMET051METAR SBQV 101300Z 02005KT 9999 SCT020 25/20 Q1019;
0120833440999992008031014004-14950-040883FM-15+0914SBQV V0200301N002610075019N0112651N1+02601+01901999999ADDGA1071+007501999GF107991999999999999999999MA1101901999999REMMET051METAR SBQV 101400Z 03005KT 9999 BKN025 26/19 Q1019;
0120833440999992008031017004-14950-040883FM-15+0914SBQV V0200601N004112200019N0112651N1+02801+01601999999ADDGA1041+009001999GF104991999999999999999999MA1101691999999REMMET051METAR SBQV 101700Z 06008KT 9999 SCT030 28/16 Q1017;
0120833440999992008031018004-14950-040883FM-15+0914SBQV V0200401N003612200019N0112651N1+02601+01501999999ADDGA1041+009001999GF104991999999999999999999MA1101591999999REMMET051METAR SBQV 101800Z 04007KT 9999 SCT030 26/15 Q1016;
0120833440999992008031019004-14950-040883FM-15+0914SBQV V0200501N003112200019N0112651N1+02601+01401999999ADDGA1021+007501999GF102991999999999999999999MA1101591999999REMMET051METAR SBQV 101900Z 05006KT 9999 FEW025 26/14 Q1016;
0120833440999992008031020004-14950-040883FM-15+0914SBQV V0200501N002112200019N0112651N1+02601+01401999999ADDGA1021+006001999GF102991999999999999999999MA1101591999999REMMET051METAR SBQV 102000Z 05004KT 9999 FEW020 26/14 Q1016;
0072833440999992008031022004-14950-040883FM-15+0914SBQV V0201501N00261220001CN0099001N1+02201+01701999999ADDMA1101691999999REMMET045METAR SBQV 102200Z 15005KT CAVOK 22/17 Q1017;
0072833440999992008031111004-14950-040883FM-15+0914SBQV V0201201N00461220001CN0099001N1+02201+01801999999ADDMA1101901999999REMMET045METAR SBQV 111100Z 12009KT CAVOK 22/18 Q1019;
0120833440999992008031112004-14950-040883FM-15+0914SBQV V0201201N004112200019N0112651N1+02501+01801999999ADDGA1021+004801999GF102991999999999999999999MA1101901999999REMMET051METAR SBQV 111200Z 12008KT 9999 FEW016 25/18 Q1019;
0120833440999992008031113004-14950-040883FM-15+0914SBQV V0201001N004112200019N0112651N1+02601+01801999999ADDGA1021+005401999GF102991999999999999999999MA1101901999999REMMET051METAR SBQV 111300Z 10008KT 9999 FEW018 26/18 Q1019;
0120833440999992008031114004-14950-040883FM-15+0914SBQV V0200801N003110075019N0112651N1+02701+01701999999ADDGA1071+007501999GF107991999999999999999999MA1101901999999REMMET051METAR SBQV 111400Z 08006KT 9999 BKN025 27/17 Q1019;
0120833440999992008031115004-14950-040883FM-15+0914SBQV V0200901N003110075019N0112651N1+02701+01701999999ADDGA1071+007501999GF107991999999999999999999MA1101801999999REMMET051METAR SBQV 111500Z 09006KT 9999 BKN025 27/17 Q1018;
0120833440999992008031116004-14950-040883FM-15+0914SBQV V0200801N002610075019N0112651N1+02701+01701999999ADDGA1071+007501999GF107991999999999999999999MA1101691999999REMMET051METAR SBQV 111600Z 08005KT 9999 BKN025 27/17 Q1017;
0120833440999992008031117004-14950-040883FM-15+0914SBQV V0200901N002110075019N0112651N1+02701+01701999999ADDGA1071+007501999GF107991999999999999999999MA1101691999999REMMET051METAR SBQV 111700Z 09004KT 9999 BKN025 27/17 Q1017;
0120833440999992008031118004-14950-040883FM-15+0914SBQV V0201401N003110075019N0112651N1+02701+01701999999ADDGA1071+007501999GF107991999999999999999999MA1101591999999REMMET051METAR SBQV 111800Z 14006KT 9999 BKN025 27/17 Q1016;
0139833440999992008031119004-14950-040883FM-15+0914SBQV V0201101N00511220001CN0112651N1+02701+01801999999ADDGA1071+007501999GA2021+009001021MA1101591999999REMMET061METAR SBQV 111900Z 11010KT 9999 BKN025 FEW030TCU 27/18 Q1016;EQDQ01+000022SCOTCV
0120833440999992008031120004-14950-040883FM-15+0914SBQV V0201001N003112200019N0112651N1+02601+01801999999ADDGA1041+007501999GF104991999999999999999999MA1101491999999REMMET051METAR SBQV 112000Z 10006KT 9999 SCT025 26/18 Q1015;
0120833440999992008031121004-14950-040883FM-15+0914SBQV V0201501N002612200019N0112651N1+02501+01801999999ADDGA1021+006001999GF102991999999999999999999MA1101491999999REMMET051METAR SBQV 112100Z 15005KT 9999 FEW020 25/18 Q1015;
0072833440999992008031122004-14950-040883FM-15+0914SBQV V0201501N00311220001CN0099001N1+02201+01801999999ADDMA1101591999999REMMET045METAR SBQV 112200Z 15006KT CAVOK 22/18 Q1016;
0090833440999992008031210154-14950-040883FM-16+0914SBQV V02099999999992200019N0112651N1+02101+02001999999ADDMA1101901999999REMMET063METAR SBQV 121015Z SPECI 1006KT 9999 FEW005 BKN013 21/20 Q1019;
0120833440999992008031211004-14950-040883FM-15+0914SBQV V0201001N003612200019N0112651N1+02201+02001999999ADDGA1041+004501999GF104991999999999999999999MA1101901999999REMMET051METAR SBQV 121100Z 10007KT 9999 SCT015 22/20 Q1019;
0120833440999992008031212004-14950-040883FM-15+0914SBQV V0200901N004110054019N0112651N1+02401+02001999999ADDGA1071+005401999GF107991999999999999999999MA1102001999999REMMET051METAR SBQV 121200Z 09008KT 9999 BKN018 24/20 Q1020;
0120833440999992008031214004-14950-040883FM-15+0914SBQV V0200501N002610075019N0112651N1+02701+02001999999ADDGA1071+007501999GF107991999999999999999999MA1101901999999REMMET051METAR SBQV 121400Z 05005KT 9999 BKN025 27/20 Q1019;
0120833440999992008031215004-14950-040883FM-15+0914SBQV V0200901N001510075019N0112651N1+02801+02001999999ADDGA1071+007501999GF107991999999999999999999MA1101901999999REMMET051METAR SBQV 121500Z 09003KT 9999 BKN025 28/20 Q1019;
0120833440999992008031216004-14950-040883FM-15+0914SBQV V0201301N004110075019N0112651N1+02701+01801999999ADDGA1071+007501999GF107991999999999999999999MA1101801999999REMMET051METAR SBQV 121600Z 13008KT 9999 BKN025 27/18 Q1018;
0120833440999992008031217004-14950-040883FM-15+0914SBQV V0201701N004110075019N0112651N1+02701+01901999999ADDGA1071+007501999GF107991999999999999999999MA1101801999999REMMET051METAR SBQV 121700Z 17008KT 9999 BKN025 27/19 Q1018;
0120833440999992008031218004-14950-040883FM-15+0914SBQV V0201301N003110075019N0112651N1+02601+01901999999ADDGA1071+007501999GF107991999999999999999999MA1101691999999REMMET051METAR SBQV 121800Z 13006KT 9999 BKN025 26/19 Q1017;
0120833440999992008031219004-14950-040883FM-15+0914SBQV V0201401N003610075019N0112651N1+02601+01801999999ADDGA1071+007501999GF107991999999999999999999MA1101691999999REMMET051METAR SBQV 121900Z 14007KT 9999 BKN025 26/18 Q1017;
0120833440999992008031220004-14950-040883FM-15+0914SBQV V0201601N003612200019N0112651N1+02501+01901999999ADDGA1041+006001999GF104991999999999999999999MA1101591999999REMMET051METAR SBQV 122000Z 16007KT 9999 SCT020 25/19 Q1016;
0072833440999992008031302004-14950-040883FM-15+0914SBQV V0201201N00411220001CN0099001N1+02101+01901999999ADDMA1101901999999REMMET045METAR SBQV 130200Z 12008KT CAVOK 21/19 Q1019;
0120833440999992008031311004-14950-040883FM-15+0914SBQV V0200701N001010033019N0112651N1+02001+01901999999ADDGA1081+003301999GF108991999999999999999999MA1101901999999REMMET051METAR SBQV 131100Z 07002KT 9999 OVC011 20/19 Q1019;
0120833440999992008031312004-14950-040883FM-15+0914SBQV V0200501N002110045019N0112651N1+02101+01901999999ADDGA1071+004501999GF107991999999999999999999MA1102001999999REMMET051METAR SBQV 131200Z 05004KT 9999 BKN015 21/19 Q1020;
0120833440999992008031316004-14950-040883FM-15+0914SBQV V0203601N001510075019N0112651N1+02701+02001999999ADDGA1071+007501999GF107991999999999999999999MA1101801999999REMMET051METAR SBQV 131600Z 36003KT 9999 BKN025 27/20 Q1018;
0120833440999992008031318004-14950-040883FM-15+0914SBQV V0203301N002612200019N0112651N1+02901+01901999999ADDGA1021+010501999GF102991999999999999999999MA1101491999999REMMET051METAR SBQV 131800Z 33005KT 9999 FEW035 29/19 Q1015;
0120833440999992008031319004-14950-040883FM-15+0914SBQV V0203301N000512200019N0112651N1+02901+01801999999ADDGA1021+010501999GF102991999999999999999999MA1101491999999REMMET051METAR SBQV 131900Z 33001KT 9999 FEW035 29/18 Q1015;
0120833440999992008031320004-14950-040883FM-15+0914SBQV V0200201N001012200019N0112651N1+02801+01801999999ADDGA1021+010501999GF102991999999999999999999MA1101391999999REMMET051METAR SBQV 132000Z 02002KT 9999 FEW035 28/18 Q1014;
0120833440999992008031321004-14950-040883FM-15+0914SBQV V0203201N000512200019N0112651N1+02501+01901999999ADDGA1021+007501999GF102991999999999999999999MA1101491999999REMMET051METAR SBQV 132100Z 32001KT 9999 FEW025 25/19 Q1015;
0072833440999992008031322004-14950-040883FM-15+0914SBQV V0209999C00001220001CN0099001N1+02401+02001999999ADDMA1101491999999REMMET045METAR SBQV 132200Z 00000KT CAVOK 24/20 Q1015;
0072833440999992008031323004-14950-040883FM-15+0914SBQV V0209999C00001220001CN0099001N1+02201+02001999999ADDMA1101491999999REMMET045METAR SBQV 132300Z 00000KT CAVOK 22/20 Q1015;
0078833440999992008031400304-14950-040883FM-15+0914SBQV V0209999C000012200019N0099001N1+02101+01901999999ADDMA1101701999999REMMET051METAR SBQV 140030Z SPECI 00000KT CAVOK 21/19 Q1017;
0072833440999992008031402004-14950-040883FM-15+0914SBQV V0201301N00101220001CN0099001N1+02101+01901999999ADDMA1101691999999REMMET045METAR SBQV 140200Z 13002KT CAVOK 21/19 Q1017;
0078833440999992008031410154-14950-040883FM-16+0914SBQV V0200401N003612200019N0099001N1+02201+01901999999ADDMA1101601999999REMMET051METAR SBQV 141015Z SPECI 04007KT CAVOK 22/19 Q1016;
0072833440999992008031411004-14950-040883FM-15+0914SBQV V0200301N00571220001CN0099001N1+02301+02001999999ADDMA1101691999999REMMET045METAR SBQV 141100Z 03011KT CAVOK 23/20 Q1017;
0120833440999992008031412004-14950-040883FM-15+0914SBQV V0200201N003612200019N0112651N1+02501+02101999999ADDGA1021+010501999GF102991999999999999999999MA1101691999999REMMET051METAR SBQV 141200Z 02007KT 9999 FEW035 25/21 Q1017;
0120833440999992008031414004-14950-040883FM-15+0914SBQV V0200201N003112200019N0112651N1+02701+02101999999ADDGA1021+012001999GF102991999999999999999999MA1101691999999REMMET051METAR SBQV 141400Z 02006KT 9999 FEW040 27/21 Q1017;
0120833440999992008031415004-14950-040883FM-15+0914SBQV V0200101N002112200019N0112651N1+02801+02101999999ADDGA1041+012001999GF104991999999999999999999MA1101591999999REMMET051METAR SBQV 141500Z 01004KT 9999 SCT040 28/21 Q1016;
0120833440999992008031416004-14950-040883FM-15+0914SBQV V0203101N002612200019N0112651N1+02801+02001999999ADDGA1041+012001999GF104991999999999999999999MA1101591999999REMMET051METAR SBQV 141600Z 31005KT 9999 SCT040 28/20 Q1016;
0120833440999992008031417004-14950-040883FM-15+0914SBQV V0202701N001512200019N0112651N1+02801+02001999999ADDGA1041+012001999GF104991999999999999999999MA1101491999999REMMET051METAR SBQV 141700Z 27003KT 9999 SCT040 28/20 Q1015;
0120833440999992008031418004-14950-040883FM-15+0914SBQV V0203001N002612200019N0112651N1+02901+01901999999ADDGA1041+012001999GF104991999999999999999999MA1101391999999REMMET051METAR SBQV 141800Z 30005KT 9999 SCT040 29/19 Q1014;
0120833440999992008031419004-14950-040883FM-15+0914SBQV V0202801N000512200019N0112651N1+03001+01801999999ADDGA1021+012001999GF102991999999999999999999MA1101391999999REMMET051METAR SBQV 141900Z 28001KT 9999 FEW040 30/18 Q1014;
0120833440999992008031420004-14950-040883FM-15+0914SBQV V0202501N001012200019N0112651N1+02901+01701999999ADDGA1021+010501999GF102991999999999999999999MA1101391999999REMMET051METAR SBQV 142000Z 25002KT 9999 FEW035 29/17 Q1014;
0143833440999992008031421004-14950-040883FM-15+0914SBQV V0209999C000012200019N0112651N1+02501+01801999999ADDGA1021+007501999GA2041+090001999GF104991999999999999999999MA1101391999999REMMET058METAR SBQV 142100Z 00000KT 9999 FEW025 SCT300 25/18 Q1014;
0072833440999992008031422004-14950-040883FM-15+0914SBQV V0201301N00361220001CN0099001N1+02501+02001999999ADDMA1101391999999REMMET045METAR SBQV 142200Z 13007KT CAVOK 25/20 Q1014;
0072833440999992008031423004-14950-040883FM-15+0914SBQV V0201301N00261220001CN0099001N1+02501+02001999999ADDMA1101491999999REMMET045METAR SBQV 142300Z 13005KT CAVOK 25/20 Q1015;
0084833440999992008031510154-14950-040883FM-16+0914SBQV V0201501N003612200019N0112651N1+02101+02001999999ADDMA1101801999999REMMET057METAR SBQV 151015Z SPECI 15007KT 9999 FEW018 21/20 Q1018;
0120833440999992008031511004-14950-040883FM-15+0914SBQV V0201201N005112200019N0112651N1+02301+02001999999ADDGA1041+006001999GF104991999999999999999999MA1101801999999REMMET051METAR SBQV 151100Z 12010KT 9999 SCT020 23/20 Q1018;
0120833440999992008031512004-14950-040883FM-15+0914SBQV V0200901N005712200019N0112651N1+02501+02001999999ADDGA1021+007501999GF102991999999999999999999MA1101801999999REMMET051METAR SBQV 151200Z 09011KT 9999 FEW025 25/20 Q1018;
0120833440999992008031513004-14950-040883FM-15+0914SBQV V0201101N003612200019N0112651N1+02701+02001999999ADDGA1021+007501999GF102991999999999999999999MA1101901999999REMMET051METAR SBQV 151300Z 11007KT 9999 FEW025 27/20 Q1019;
0120833440999992008031514004-14950-040883FM-15+0914SBQV V0201401N003612200019N0112651N1+02801+01901999999ADDGA1041+009001999GF104991999999999999999999MA1101801999999REMMET051METAR SBQV 151400Z 14007KT 9999 SCT030 28/19 Q1018;
0120833440999992008031515004-14950-040883FM-15+0914SBQV V0201301N002610090019N0112651N1+02801+02001999999ADDGA1071+009001999GF107991999999999999999999MA1101801999999REMMET051METAR SBQV 151500Z 13005KT 9999 BKN030 28/20 Q1018;
0120833440999992008031516004-14950-040883FM-15+0914SBQV V0201501N004110090019N0112651N1+02801+02001999999ADDGA1071+009001999GF107991999999999999999999MA1101691999999REMMET051METAR SBQV 151600Z 15008KT 9999 BKN030 28/20 Q1017;
0120833440999992008031517004-14950-040883FM-15+0914SBQV V0201301N004610090019N0112651N1+02901+02101999999ADDGA1071+009001999GF107991999999999999999999MA1101591999999REMMET051METAR SBQV 151700Z 13009KT 9999 BKN030 29/21 Q1016;
0120833440999992008031518004-14950-040883FM-15+0914SBQV V0201401N005112200019N0112651N1+02901+01901999999ADDGA1041+009001999GF104991999999999999999999MA1101591999999REMMET051METAR SBQV 151800Z 14010KT 9999 SCT030 29/19 Q1016;
0120833440999992008031519004-14950-040883FM-15+0914SBQV V0201701N005112200019N0112651N1+02801+01801999999ADDGA1041+009001999GF104991999999999999999999MA1101591999999REMMET051METAR SBQV 151900Z 17010KT 9999 SCT030 28/18 Q1016;
0120833440999992008031520004-14950-040883FM-15+0914SBQV V0201801N004612200019N0112651N1+02601+01901999999ADDGA1021+007501999GF102991999999999999999999MA1101591999999REMMET051METAR SBQV 152000Z 18009KT 9999 FEW025 26/19 Q1016;
0120833440999992008031521004-14950-040883FM-15+0914SBQV V0201601N002612200019N0112651N1+02401+01901999999ADDGA1021+006001999GF102991999999999999999999MA1101691999999REMMET051METAR SBQV 152100Z 16005KT 9999 FEW020 24/19 Q1017;
0120833440999992008031609004-14950-040883FM-15+0914SBQV V0201601N001010021019N0112651N1+01901+01901999999ADDGA1071+002101999GF107991999999999999999999MA1101901999999REMMET051METAR SBQV 160900Z 16002KT 9999 BKN007 19/19 Q1019;
0143833440999992008031610004-14950-040883FM-15+0914SBQV V0201501N002612200019N0112651N1+02001+02001999999ADDGA1041+002701999GA2041+003001999GF104991999999999999999999MA1102001999999REMMET058METAR SBQV 161000Z 15005KT 9999 SCT009 SCT010 20/20 Q1020;
0143833440999992008031611004-14950-040883FM-15+0914SBQV V0201501N004110900019N0112651N1+02301+02001999999ADDGA1041+004501999GA2071+090001999GF107991999999999999999999MA1102001999999REMMET058METAR SBQV 161100Z 15008KT 9999 SCT015 BKN300 23/20 Q1020;
0143833440999992008031612004-14950-040883FM-15+0914SBQV V0201501N004110900019N0112651N1+02401+02001999999ADDGA1041+005401999GA2071+090001999GF107991999999999999999999MA1102101999999REMMET058METAR SBQV 161200Z 15008KT 9999 SCT018 BKN300 24/20 Q1021;
0143833440999992008031613004-14950-040883FM-15+0914SBQV V0201701N004612200019N0112651N1+02601+02101999999ADDGA1041+006001999GA2041+090001999GF104991999999999999999999MA1102001999999REMMET058METAR SBQV 161300Z 17009KT 9999 SCT020 SCT300 26/21 Q1020;
0120833440999992008031614004-14950-040883FM-15+0914SBQV V0201601N004612200019N0112651N1+02601+02101999999ADDGA1041+007501999GF104991999999999999999999MA1102001999999REMMET051METAR SBQV 161400Z 16009KT 9999 SCT025 26/21 Q1020;
0117833440999992008031615004-14950-040883FM-15+0914SBQV V0201501N00411220001CN0112651N1+02701+02101999999ADDGA1071+009001999GA2041+090001999MA1102001999999REMMET058METAR SBQV 161500Z 15008KT 9999 BKN030 SCT300 27/21 Q1020;
0143833440999992008031616004-14950-040883FM-15+0914SBQV V0201601N006710300019N0112651N1+02601+02101999999ADDGA1041+009001999GA2071+030001999GF107991999999999999999999MA1101901999999REMMET058METAR SBQV 161600Z 16013KT 9999 SCT030 BKN100 26/21 Q1019;
0143833440999992008031617004-14950-040883FM-15+0914SBQV V0201701N005710300019N0112651N1+02601+02101999999ADDGA1021+009001999GA2071+030001999GF107991999999999999999999MA1101801999999REMMET058METAR SBQV 161700Z 17011KT 9999 FEW030 BKN100 26/21 Q1018;
0143833440999992008031618004-14950-040883FM-15+0914SBQV V0201501N006710270019N0112651N1+02401+02101999999ADDGA1021+006001999GA2071+027001999GF107991999999999999999999MA1101801999999REMMET058METAR SBQV 161800Z 15013KT 9999 FEW020 BKN090 24/21 Q1018;
0143833440999992008031619004-14950-040883FM-15+0914SBQV V0201401N007210300019N0112651N1+02201+02101999999ADDGA1021+006001999GA2071+030001999GF107991999999999999999999MA1101801999999REMMET058METAR SBQV 161900Z 14014KT 9999 FEW020 BKN100 22/21 Q1018;
0143833440999992008031620004-14950-040883FM-15+0914SBQV V0201401N004610300019N0112651N1+02201+02001999999ADDGA1021+007501999GA2071+030001999GF107991999999999999999999MA1101801999999REMMET058METAR SBQV 162000Z 14009KT 9999 FEW025 BKN100 22/20 Q1018;
0143833440999992008031621004-14950-040883FM-15+0914SBQV V0201201N004610270019N0112651N1+02101+02001999999ADDGA1021+002401999GA2071+027001999GF107991999999999999999999MA1101901999999REMMET058METAR SBQV 162100Z 12009KT 9999 FEW008 BKN090 21/20 Q1019;
0143833440999992008031622004-14950-040883FM-15+0914SBQV V0201301N004610270019N0112651N1+02101+02001999999ADDGA1041+002101999GA2071+027001999GF107991999999999999999999MA1101901999999REMMET058METAR SBQV 162200Z 13009KT 9999 SCT007 BKN090 21/20 Q1019;
0084833440999992008031710154-14950-040883FM-16+0914SBQV V0201301N004112200019N0112651N1+02001+01901999999ADDMA1102001999999REMMET057METAR SBQV 171015Z SPECI 13008KT 9999 FEW013 20/19 Q1020;
0120833440999992008031711004-14950-040883FM-15+0914SBQV V0201401N004612200019N0112651N1+02201+01901999999ADDGA1041+004501999GF104991999999999999999999MA1102001999999REMMET051METAR SBQV 171100Z 14009KT 9999 SCT015 22/19 Q1020;
0120833440999992008031712004-14950-040883FM-15+0914SBQV V0201501N004610045019N0112651N1+02201+01901999999ADDGA1071+004501999GF107991999999999999999999MA1102101999999REMMET051METAR SBQV 171200Z 15009KT 9999 BKN015 22/19 Q1021;
0120833440999992008031713004-14950-040883FM-15+0914SBQV V0201401N004610054019N0112651N1+02401+01901999999ADDGA1071+005401999GF107991999999999999999999MA1102001999999REMMET051METAR SBQV 171300Z 14009KT 9999 BKN018 24/19 Q1020;
0120833440999992008031714004-14950-040883FM-15+0914SBQV V0201501N004610060019N0112651N1+02401+01801999999ADDGA1071+006001999GF107991999999999999999999MA1102001999999REMMET051METAR SBQV 171400Z 15009KT 9999 BKN020 24/18 Q1020;
0120833440999992008031715004-14950-040883FM-15+0914SBQV V0201401N005110075019N0112651N1+02701+02001999999ADDGA1071+007501999GF107991999999999999999999MA1102001999999REMMET051METAR SBQV 171500Z 14010KT 9999 BKN025 27/20 Q1020;
0120833440999992008031716004-14950-040883FM-15+0914SBQV V0201501N004112200019N0112651N1+02701+01801999999ADDGA1041+007501999GF104991999999999999999999MA1101901999999REMMET051METAR SBQV 171600Z 15008KT 9999 SCT025 27/18 Q1019;
0143833440999992008031717004-14950-040883FM-15+0914SBQV V0201601N006710060019N0112651N1+02201+02001999999ADDGA1041+004801999GA2071+006001999GF107991999999999999999999MA1101801999999REMMET058METAR SBQV 171700Z 16013KT 9999 SCT016 BKN020 22/20 Q1018;
0176833440999992008031718004-14950-040883FM-15+0914SBQV V0201201N00511004801CN0080001N1+02101+02001999999ADDGA1041+003301999GA2041+004801999GA3071+021001999GF107991999999999999999999MA1101801999999MW1611REMMET069METAR SBQV 171800Z 12010KT 8000 -RA SCT011 SCT016 BKN070 21/20 Q1018;
0143833440999992008031719004-14950-040883FM-15+0914SBQV V0201001N003610210019N0112651N1+02001+01801999999ADDGA1041+003301999GA2071+021001999GF107991999999999999999999MA1101801999999REMMET058METAR SBQV 171900Z 10007KT 9999 SCT011 BKN070 20/18 Q1018;
0143833440999992008031720004-14950-040883FM-15+0914SBQV V0201101N004110210019N0112651N1+02101+01801999999ADDGA1021+003301999GA2071+021001999GF107991999999999999999999MA1101801999999REMMET058METAR SBQV 172000Z 11008KT 9999 FEW011 BKN070 21/18 Q1018;
0143833440999992008031721004-14950-040883FM-15+0914SBQV V0201801N003110210019N0112651N1+02001+01801999999ADDGA1021+003001999GA2071+021001999GF107991999999999999999999MA1101801999999REMMET058METAR SBQV 172100Z 18006KT 9999 FEW010 BKN070 20/18 Q1018;
0143833440999992008031722004-14950-040883FM-15+0914SBQV V0201601N003612200019N0112651N1+02001+01801999999ADDGA1021+003001999GA2041+021001999GF104991999999999999999999MA1101801999999REMMET058METAR SBQV 172200Z 16007KT 9999 FEW010 SCT070 20/18 Q1018;
0072833440999992008031723004-14950-040883FM-15+0914SBQV V0201601N00361220001CN0099001N1+01901+01801999999ADDMA1101801999999REMMET045METAR SBQV 172300Z 16007KT CAVOK 19/18 Q1018;
0120833440999992008031811004-14950-040883FM-15+0914SBQV V0201601N004612200019N0112651N1+02101+01901999999ADDGA1041+004501999GF104991999999999999999999MA1102001999999REMMET051METAR SBQV 181100Z 16009KT 9999 SCT015 21/19 Q1020;
0120833440999992008031812004-14950-040883FM-15+0914SBQV V0201701N004110045019N0112651N1+02201+01901999999ADDGA1071+004501999GF107991999999999999999999MA1102101999999REMMET051METAR SBQV 181200Z 17008KT 9999 BKN015 22/19 Q1021;
0120833440999992008031813004-14950-040883FM-15+0914SBQV V0201501N005112200019N0112651N1+02401+01801999999ADDGA1041+004801999GF104991999999999999999999MA1102101999999REMMET051METAR SBQV 181300Z 15010KT 9999 SCT016 24/18 Q1021;
0120833440999992008031815004-14950-040883FM-15+0914SBQV V0201701N004610060019N0112651N1+02601+01701999999ADDGA1071+006001999GF107991999999999999999999MA1102001999999REMMET051METAR SBQV 181500Z 17009KT 9999 BKN020 26/17 Q1020;
0120833440999992008031816004-14950-040883FM-15+0914SBQV V0201401N005110075019N0112651N1+02701+01701999999ADDGA1071+007501999GF107991999999999999999999MA1101901999999REMMET051METAR SBQV 181600Z 14010KT 9999 BKN025 27/17 Q1019;
0120833440999992008031817004-14950-040883FM-15+0914SBQV V0201401N004110090019N0112651N1+02701+01801999999ADDGA1071+009001999GF107991999999999999999999MA1101801999999REMMET051METAR SBQV 181700Z 14008KT 9999 BKN030 27/18 Q1018;
0120833440999992008031818004-14950-040883FM-15+0914SBQV V0201701N004110090019N0112651N1+02701+01801999999ADDGA1071+009001999GF107991999999999999999999MA1101691999999REMMET051METAR SBQV 181800Z 17008KT 9999 BKN030 27/18 Q1017;
0120833440999992008031819004-14950-040883FM-15+0914SBQV V0201601N005112200019N0112651N1+02601+01801999999ADDGA1021+009001999GF102991999999999999999999MA1101691999999REMMET051METAR SBQV 181900Z 16010KT 9999 FEW030 26/18 Q1017;
0120833440999992008031820004-14950-040883FM-15+0914SBQV V0201701N005712200019N0112651N1+02501+01801999999ADDGA1021+009001999GF102991999999999999999999MA1101691999999REMMET051METAR SBQV 182000Z 17011KT 9999 FEW030 25/18 Q1017;
0120833440999992008031821004-14950-040883FM-15+0914SBQV V0201501N007212200019N0112651N1+02301+02001999999ADDGA1021+007501999GF102991999999999999999999MA1101801999999REMMET051METAR SBQV 182100Z 15014KT 9999 FEW025 23/20 Q1018;
0120833440999992008031822004-14950-040883FM-15+0914SBQV V0201601N005712200019N0112651N1+02101+01901999999ADDGA1021+006001999GF102991999999999999999999MA1101801999999REMMET051METAR SBQV 182200Z 16011KT 9999 FEW020 21/19 Q1018;
0091833440999992008031910404-14950-040883FM-16+0914SBQV V0201401N004612200019N0112651N1+02001+02001999999ADDMA1102001999999REMMET064METAR SBQV 191040Z SPECI 14009KT 9999 SCT008 SCT015 20/20 Q1020;
0143833440999992008031912004-14950-040883FM-15+0914SBQV V0201501N005110045019N0112651N1+02201+02001999999ADDGA1041+002701999GA2071+004501999GF107991999999999999999999MA1102001999999REMMET058METAR SBQV 191200Z 15010KT 9999 SCT009 BKN015 22/20 Q1020;
0143833440999992008031913004-14950-040883FM-15+0914SBQV V0201401N005110048019N0112651N1+02301+02001999999ADDGA1041+004501999GA2071+004801999GF107991999999999999999999MA1102001999999REMMET058METAR SBQV 191300Z 14010KT 9999 SCT015 BKN016 23/20 Q1020;
0143833440999992008031914004-14950-040883FM-15+0914SBQV V0201401N004610045019N0112651N1+02301+02001999999ADDGA1071+004501999GA2071+004801999GF107991999999999999999999MA1102001999999REMMET058METAR SBQV 191400Z 14009KT 9999 BKN015 BKN016 23/20 Q1020;
0120833440999992008031915004-14950-040883FM-15+0914SBQV V0201001N005110060019N0112651N1+02601+02001999999ADDGA1071+006001999GF107991999999999999999999MA1102001999999REMMET051METAR SBQV 191500Z 10010KT 9999 BKN020 26/20 Q1020;
0120833440999992008031916004-14950-040883FM-15+0914SBQV V0201601N004110060019N0112651N1+02501+02101999999ADDGA1071+006001999GF107991999999999999999999MA1101901999999REMMET051METAR SBQV 191600Z 16008KT 9999 BKN020 25/21 Q1019;
0120833440999992008031917004-14950-040883FM-15+0914SBQV V0201701N004110075019N0112651N1+02601+02001999999ADDGA1071+007501999GF107991999999999999999999MA1101801999999REMMET051METAR SBQV 191700Z 17008KT 9999 BKN025 26/20 Q1018;
0169833440999992008031919004-14950-040883FM-15+0914SBQV V0201601N005112200019N0112651N1+02501+02001999999ADDGA1041+006001999GA2021+007501021GA3041+090001999GF104991999999999999999999MA1101691999999REMMET068METAR SBQV 191900Z 16010KT 9999 SCT020 FEW025TCU SCT300 25/20 Q1017;
0139833440999992008031920004-14950-040883FM-15+0914SBQV V0201601N005112200019N0112651N1+02401+01901999999ADDGA1041+005401999GA2021+006001021MA1101691999999REMMET061METAR SBQV 192000Z 16010KT 9999 SCT018 FEW020TCU 24/19 Q1017;EQDQ01+000022SCOTCV
0102833440999992008031920414-14950-040883FM-16+0914SBQV V02099999999992200019N0112651N1+99999+99999999999ADDMA1101801999999REMMET075METAR SBQV 192041Z SPECI 16013KT 9999 4000NW -DZ SCT007 BKN013 20/20 Q1018;
0143833440999992008031922004-14950-040883FM-15+0914SBQV V0201501N004612200019N0112651N1+01901+01801999999ADDGA1021+001801999GA2041+024001999GF104991999999999999999999MA1101901999999REMMET058METAR SBQV 192200Z 15009KT 9999 FEW006 SCT080 19/18 Q1019;
0072833440999992008031923004-14950-040883FM-15+0914SBQV V0201501N00311220001CN0099001N1+01901+01901999999ADDMA1101901999999REMMET045METAR SBQV 192300Z 15006KT CAVOK 19/19 Q1019;
0084833440999992008032010154-14950-040883FM-16+0914SBQV V0201501N005112200019N0112651N1+01901+01901999999ADDMA1102001999999REMMET057METAR SBQV 201015Z SPECI 15010KT 9999 BKN010 19/19 Q1020;
0120833440999992008032011004-14950-040883FM-15+0914SBQV V0201601N005110039019N0112651N1+02101+01901999999ADDGA1071+003901999GF107991999999999999999999MA1102001999999REMMET051METAR SBQV 201100Z 16010KT 9999 BKN013 21/19 Q1020;
0176833440999992008032012004-14950-040883FM-15+0914SBQV V0201601N005710030019N0080001N1+02001+02001999999ADDGA1041+001801999GA2071+003001999GA3081+021001999GF108991999999999999999999MA1102101999999MW1511REMMET069METAR SBQV 201200Z 16011KT 8000 -DZ SCT006 BKN010 OVC070 20/20 Q1021;
0154833440999992008032013004-14950-040883FM-15+0914SBQV V0201601N00511220001CN0112651N1+02101+02001999999ADDGA1071+003901999GA2041+021001999MA1102101999999MW1161REMMET070METAR SBQV 201300Z 16010KT 9999 8000SW VCSH BKN013 SCT070 21/20 Q1021;EQDQ01+000042SCOTCV
0120833440999992008032014004-14950-040883FM-15+0914SBQV V0201501N004112200019N0112651N1+02301+02101999999ADDGA1041+004801999GF104991999999999999999999MA1102101999999REMMET051METAR SBQV 201400Z 15008KT 9999 SCT016 23/21 Q1021;
0120833440999992008032015004-14950-040883FM-15+0914SBQV V0202101N004612200019N0112651N1+02401+02101999999ADDGA1041+004801999GF104991999999999999999999MA1102001999999REMMET051METAR SBQV 201500Z 21009KT 9999 SCT016 24/21 Q1020;
0120833440999992008032016004-14950-040883FM-15+0914SBQV V0201801N004612200019N0112651N1+02301+02101999999ADDGA1041+004501999GF104991999999999999999999MA1101901999999REMMET051METAR SBQV 201600Z 18009KT 9999 SCT015 23/21 Q1019;
0120833440999992008032017004-14950-040883FM-15+0914SBQV V0201801N004612200019N0112651N1+02301+02101999999ADDGA1041+004801999GF104991999999999999999999MA1101801999999REMMET051METAR SBQV 201700Z 18009KT 9999 SCT016 23/21 Q1018;
0120833440999992008032018004-14950-040883FM-15+0914SBQV V0201601N004610048019N0112651N1+02501+02001999999ADDGA1071+004801999GF107991999999999999999999MA1101801999999REMMET051METAR SBQV 201800Z 16009KT 9999 BKN016 25/20 Q1018;
0120833440999992008032019004-14950-040883FM-15+0914SBQV V0201401N003112200019N0112651N1+02201+01901999999ADDGA1041+004501999GF104991999999999999999999MA1101801999999REMMET051METAR SBQV 201900Z 14006KT 9999 SCT015 22/19 Q1018;
0143833440999992008032020004-14950-040883FM-15+0914SBQV V0201601N004112200019N0112651N1+02201+02101999999ADDGA1021+003901999GA2041+004501999GF104991999999999999999999MA1101801999999REMMET058METAR SBQV 202000Z 16008KT 9999 FEW013 SCT015 22/21 Q1018;
0143833440999992008032021304-14950-040883FM-15+0914SBQV V0201601N003112200019N0112651N1+02001+02001999999ADDGA1021+002101999GA2041+003601999GF104991999999999999999999MA1101801999999REMMET058METAR SBQV 202130Z 16006KT 9999 FEW007 SCT012 20/20 Q1018;
0120833440999992008032023004-14950-040883FM-15+0914SBQV V0201601N003610018019N0112651N1+02001+02001999999ADDGA1071+001801999GF107991999999999999999999MA1101901999999REMMET051METAR SBQV 202300Z 16007KT 9999 BKN006 20/20 Q1019;
0120833440999992008032100004-14950-040883FM-15+0914SBQV V0201401N003610021019N0112651N1+02001+02001999999ADDGA1071+002101999GF107991999999999999999999MA1102001999999REMMET051METAR SBQV 210000Z 14007KT 9999 BKN007 20/20 Q1020;
0091833440999992008032110154-14950-040883FM-16+0914SBQV V0201501N003612200019N0112651N1+01901+01901999999ADDMA1102001999999REMMET064METAR SBQV 211015Z SPECI 15007KT 9999 FEW007 BKN012 19/19 Q1020;
0092833440999992008032110364-14950-040883FM-16+0914SBQV V0201301N004112200019N0112651N1+02001+02001999999ADDMA1102001999999REMMET065METAR SBQV 211036Z 1SPECI 13008KT 9999 FEW007 SCT012 20/20 Q1020;
0143833440999992008032112004-14950-040883FM-15+0914SBQV V0201501N004610900019N0112651N1+02201+01901999999ADDGA1041+004501999GA2071+090001999GF107991999999999999999999MA1102001999999REMMET058METAR SBQV 211200Z 15009KT 9999 SCT015 BKN300 22/19 Q1020;
0136833440999992008032113004-14950-040883FM-15+0914SBQV V0201601N00511220001CN0112651N1+02301+01901999999ADDGA1071+004801999GA2041+090001999MA1102001999999REMMET058METAR SBQV 211300Z 16010KT 9999 BKN016 SCT300 23/19 Q1020;EQDQ01+000042SCOTCV
0120833440999992008032114004-14950-040883FM-15+0914SBQV V0201401N004610048019N0112651N1+02401+01901999999ADDGA1071+004801999GF107991999999999999999999MA1102001999999REMMET051METAR SBQV 211400Z 14009KT 9999 BKN016 24/19 Q1020;
0120833440999992008032115004-14950-040883FM-15+0914SBQV V0201701N003610048019N0112651N1+02301+02001999999ADDGA1071+004801999GF107991999999999999999999MA1101901999999REMMET051METAR SBQV 211500Z 17007KT 9999 BKN016 23/20 Q1019;
0120833440999992008032116004-14950-040883FM-15+0914SBQV V0201201N006710060019N0112651N1+02501+01901999999ADDGA1071+006001999GF107991999999999999999999MA1101801999999REMMET051METAR SBQV 211600Z 12013KT 9999 BKN020 25/19 Q1018;
0143833440999992008032117004-14950-040883FM-15+0914SBQV V0201401N004612200019N0112651N1+02501+02101999999ADDGA1021+003901999GA2041+004801999GF104991999999999999999999MA1101691999999REMMET058METAR SBQV 211700Z 14009KT 9999 FEW013 SCT016 25/21 Q1017;
0120833440999992008032118004-14950-040883FM-15+0914SBQV V0201301N004112200019N0112651N1+02501+01901999999ADDGA1041+004801999GF104991999999999999999999MA1101691999999REMMET051METAR SBQV 211800Z 13008KT 9999 SCT016 25/19 Q1017;
0120833440999992008032119004-14950-040883FM-15+0914SBQV V0201801N004112200019N0112651N1+02501+02101999999ADDGA1041+004801999GF104991999999999999999999MA1101591999999REMMET051METAR SBQV 211900Z 18008KT 9999 SCT016 25/21 Q1016;
0143833440999992008032120004-14950-040883FM-15+0914SBQV V0201701N006212200019N0112651N1+02001+02001999999ADDGA1021+001501999GA2041+021001999GF104991999999999999999999MA1101691999999REMMET058METAR SBQV 212000Z 17012KT 9999 FEW005 SCT070 20/20 Q1017;
0143833440999992008032121004-14950-040883FM-15+0914SBQV V0201601N003112200019N0112651N1+02001+02001999999ADDGA1021+002101999GA2041+004501999GF104991999999999999999999MA1101691999999REMMET058METAR SBQV 212100Z 16006KT 9999 FEW007 SCT015 20/20 Q1017;
0120833440999992008032122004-14950-040883FM-15+0914SBQV V0201701N002612200019N0112651N1+02001+02001999999ADDGA1041+001801999GF104991999999999999999999MA1101691999999REMMET051METAR SBQV 212200Z 17005KT 9999 SCT006 20/20 Q1017;
0084833440999992008032210154-14950-040883FM-16+0914SBQV V0201601N002612200019N0112651N1+01901+01901999999ADDMA1101901999999REMMET057METAR SBQV 221015Z SPECI 16005KT 9999 BKN010 19/19 Q1019;
0120833440999992008032211004-14950-040883FM-15+0914SBQV V0201701N003110030019N0112651N1+02001+02001999999ADDGA1071+003001999GF107991999999999999999999MA1102001999999REMMET051METAR SBQV 221100Z 17006KT 9999 BKN010 20/20 Q1020;
0120833440999992008032212004-14950-040883FM-15+0914SBQV V0201701N004110033019N0112651N1+02101+02001999999ADDGA1071+003301999GF107991999999999999999999MA1102001999999REMMET051METAR SBQV 221200Z 17008KT 9999 BKN011 21/20 Q1020;
0120833440999992008032213004-14950-040883FM-15+0914SBQV V0201601N004610045019N0112651N1+02301+02001999999ADDGA1071+004501999GF107991999999999999999999MA1102001999999REMMET051METAR SBQV 221300Z 16009KT 9999 BKN015 23/20 Q1020;
0120833440999992008032214004-14950-040883FM-15+0914SBQV V0201701N003610045019N0112651N1+02401+02001999999ADDGA1071+004501999GF107991999999999999999999MA1102001999999REMMET051METAR SBQV 221400Z 17007KT 9999 BKN015 24/20 Q1020;
0130833440999992008032215004-14950-040883FM-15+0914SBQV V0201701N004110045019N0080001N1+02301+02101999999ADDGA1071+004501999GF107991999999999999999999MA1101901999999MW1511REMMET055METAR SBQV 221500Z 17008KT 8000 -DZ BKN015 23/21 Q1019;
0130833440999992008032216004-14950-040883FM-15+0914SBQV V0201701N004110045019N0112651N1+02201+02101999999ADDGA1071+004501999GF107991999999999999999999MA1101901999999MW1611REMMET055METAR SBQV 221600Z 17008KT 9999 -RA BKN015 22/21 Q1019;
0120833440999992008032217004-14950-040883FM-15+0914SBQV V0202101N003612200019N0112651N1+02601+02201999999ADDGA1021+006001999GF102991999999999999999999MA1101691999999REMMET051METAR SBQV 221700Z 21007KT 9999 FEW020 26/22 Q1017;
0120833440999992008032218004-14950-040883FM-15+0914SBQV V0201801N004112200019N0112651N1+02601+02101999999ADDGA1021+006001999GF102991999999999999999999MA1101591999999REMMET051METAR SBQV 221800Z 18008KT 9999 FEW020 26/21 Q1016;
0146833440999992008032219004-14950-040883FM-15+0914SBQV V0201601N006212200019N0112651N1+02501+02101999999ADDGA1021+006001999GA2021+007501021GF102991999999999999999999MA1101691999999REMMET061METAR SBQV 221900Z 16012KT 9999 FEW020 FEW025TCU 25/21 Q1017;
0146833440999992008032220004-14950-040883FM-15+0914SBQV V0201501N004612200019N0112651N1+02301+02101999999ADDGA1021+006001999GA2021+007501021GF102991999999999999999999MA1101691999999REMMET061METAR SBQV 222000Z 15009KT 9999 FEW020 FEW025TCU 23/21 Q1017;
0162833440999992008032221004-14950-040883FM-15+0914SBQV V0201301N00461220001CN0112651N1+02201+02101999999ADDGA1021+002101999GA2071+004501999GA3021+006001021MA1101691999999REMMET068METAR SBQV 222100Z 13009KT 9999 FEW007 BKN015 FEW020TCU 22/21 Q1017;EQDQ01+000022SCOTCV
0120833440999992008032222004-14950-040883FM-15+0914SBQV V0201401N003612200019N0112651N1+02101+02001999999ADDGA1021+001801999GF102991999999999999999999MA1101691999999REMMET051METAR SBQV 222200Z 14007KT 9999 FEW006 21/20 Q1017;
0143833440999992008032311004-14950-040883FM-15+0914SBQV V0201701N003610210019N0112651N1+02101+01901999999ADDGA1041+003301999GA2071+021001999GF107991999999999999999999MA1101901999999REMMET058METAR SBQV 231100Z 17007KT 9999 SCT011 BKN070 21/19 Q1019;
0143833440999992008032312004-14950-040883FM-15+0914SBQV V0201701N004110210019N0112651N1+02301+01901999999ADDGA1041+003901999GA2071+021001999GF107991999999999999999999MA1101901999999REMMET058METAR SBQV 231200Z 17008KT 9999 SCT013 BKN070 23/19 Q1019;
0136833440999992008032316004-14950-040883FM-15+0914SBQV V0201601N00311220001CN0112651N1+02601+02001999999ADDGA1071+007501999GA2041+027001999MA1101691999999REMMET058METAR SBQV 231600Z 16006KT 9999 BKN025 SCT090 26/20 Q1017;EQDQ01+000042SCOTCV
0136833440999992008032317004-14950-040883FM-15+0914SBQV V0201501N00311220001CN0112651N1+02701+02001999999ADDGA1071+009001999GA2041+024001999MA1101591999999REMMET058METAR SBQV 231700Z 15006KT 9999 BKN030 SCT080 27/20 Q1016;EQDQ01+000042SCOTCV
0120833440999992008032318004-14950-040883FM-15+0914SBQV V0201601N003112200019N0112651N1+02601+01901999999ADDGA1041+009001999GF104991999999999999999999MA1101591999999REMMET051METAR SBQV 231800Z 16006KT 9999 SCT030 26/19 Q1016;
0120833440999992008032319004-14950-040883FM-15+0914SBQV V0201701N004112200019N0112651N1+02601+01901999999ADDGA1041+009001999GF104991999999999999999999MA1101591999999REMMET051METAR SBQV 231900Z 17008KT 9999 SCT030 26/19 Q1016;
0120833440999992008032320004-14950-040883FM-15+0914SBQV V0201701N004612200019N0112651N1+02501+01801999999ADDGA1021+007501999GF102991999999999999999999MA1101491999999REMMET051METAR SBQV 232000Z 17009KT 9999 FEW025 25/18 Q1015;
0143833440999992008032321004-14950-040883FM-15+0914SBQV V0201601N004112200019N0112651N1+02201+01801999999ADDGA1021+005401999GA2041+090001999GF104991999999999999999999MA1101591999999REMMET058METAR SBQV 232100Z 16008KT 9999 FEW018 SCT300 22/18 Q1016;
0072833440999992008032322004-14950-040883FM-15+0914SBQV V0201501N00261220001CN0099001N1+02001+01801999999ADDMA1101591999999REMMET045METAR SBQV 232200Z 15005KT CAVOK 20/18 Q1016;
0084833440999992008032410154-14950-040883FM-16+0914SBQV V0201401N003112200019N0112651N1+01901+01801999999ADDMA1101901999999REMMET057METAR SBQV 241015Z SPECI 14006KT 9999 SCT006 19/18 Q1019;
0143833440999992008032411004-14950-040883FM-15+0914SBQV V0201301N004110900019N0112651N1+02101+02001999999ADDGA1021+006001999GA2071+090001999GF107991999999999999999999MA1101901999999REMMET058METAR SBQV 241100Z 13008KT 9999 FEW020 BKN300 21/20 Q1019;
0143833440999992008032412004-14950-040883FM-15+0914SBQV V0201501N002610900019N0112651N1+02301+01901999999ADDGA1041+007501999GA2071+090001999GF107991999999999999999999MA1102001999999REMMET058METAR SBQV 241200Z 15005KT 9999 SCT025 BKN300 23/19 Q1020;
0136833440999992008032413004-14950-040883FM-15+0914SBQV V0201001N00411220001CN0112651N1+02301+01901999999ADDGA1071+007501999GA2041+090001999MA1102001999999REMMET058METAR SBQV 241300Z 10008KT 9999 BKN025 SCT300 23/19 Q1020;EQDQ01+000042SCOTCV
0120833440999992008032414004-14950-040883FM-15+0914SBQV V0201401N004110075019N0112651N1+02301+02001999999ADDGA1071+007501999GF107991999999999999999999MA1102001999999REMMET051METAR SBQV 241400Z 14008KT 9999 BKN025 23/20 Q1020;
0143833440999992008032415004-14950-040883FM-15+0914SBQV V0201401N002112200019N0112651N1+02401+01901999999ADDGA1041+007501999GA2041+027001999GF104991999999999999999999MA1101901999999REMMET058METAR SBQV 241500Z 14004KT 9999 SCT025 SCT090 24/19 Q1019;
0143833440999992008032416004-14950-040883FM-15+0914SBQV V0201601N001510075019N0112651N1+02601+01901999999ADDGA1071+007501999GA2071+027001999GF107991999999999999999999MA1101801999999REMMET058METAR SBQV 241600Z 16003KT 9999 BKN025 BKN090 26/19 Q1018;
0143833440999992008032417004-14950-040883FM-15+0914SBQV V0201601N003112200019N0112651N1+02601+01801999999ADDGA1041+009001999GA2041+027001999GF104991999999999999999999MA1101691999999REMMET058METAR SBQV 241700Z 16006KT 9999 SCT030 SCT090 26/18 Q1017;
0117833440999992008032418004-14950-040883FM-15+0914SBQV V0201501N00211220001CN0112651N1+02601+01901999999ADDGA1071+009001999GA2041+090001999MA1101691999999REMMET058METAR SBQV 241800Z 15004KT 9999 BKN030 SCT300 26/19 Q1017;
0143833440999992008032419004-14950-040883FM-15+0914SBQV V0201701N004112200019N0112651N1+02601+01901999999ADDGA1021+009001999GA2041+090001999GF104991999999999999999999MA1101591999999REMMET058METAR SBQV 241900Z 17008KT 9999 FEW030 SCT300 26/19 Q1016;
0120833440999992008032420004-14950-040883FM-15+0914SBQV V0201701N004612200019N0112651N1+02501+01901999999ADDGA1021+007501999GF102991999999999999999999MA1101591999999REMMET051METAR SBQV 242000Z 17009KT 9999 FEW025 25/19 Q1016;
0120833440999992008032421004-14950-040883FM-15+0914SBQV V0201701N004112200019N0112651N1+02301+01901999999ADDGA1021+006001999GF102991999999999999999999MA1101591999999REMMET051METAR SBQV 242100Z 17008KT 9999 FEW020 23/19 Q1016;
0120833440999992008032422004-14950-040883FM-15+0914SBQV V0201501N002612200019N0112651N1+02101+01901999999ADDGA1021+004801999GF102991999999999999999999MA1101801999999REMMET051METAR SBQV 242200Z 15005KT 9999 FEW016 21/19 Q1018;
0072833440999992008032423004-14950-040883FM-15+0914SBQV V0209999C00001220001CN0099001N1+02001+01901999999ADDMA1101801999999REMMET045METAR SBQV 242300Z 00000KT CAVOK 20/19 Q1018;
0116833440999992008032510154-14950-040883FM-16+0914SBQV V0201101N002619999999N0112651N1+02001+01901999999ADDKA1999M+99999MA1101901999999REMMET057METAR SBQV 251015Z SPECI 11005KT 9999 SCT013 20/19 Q1019;EQDQ01 -00052ATMX  
0143833440999992008032511004-14950-040883FM-15+0914SBQV V0201201N002610900019N0112651N1+02201+01901999999ADDGA1021+004501999GA2071+090001999GF107991999999999999999999MA1102001999999REMMET058METAR SBQV 251100Z 12005KT 9999 FEW015 BKN300 22/19 Q1020;
0143833440999992008032512004-14950-040883FM-15+0914SBQV V0201501N003610045019N0112651N1+02401+02001999999ADDGA1071+004501999GA2071+090001999GF107991999999999999999999MA1102001999999REMMET058METAR SBQV 251200Z 15007KT 9999 BKN015 BKN300 24/20 Q1020;
0143833440999992008032513004-14950-040883FM-15+0914SBQV V0201401N003110045019N0112651N1+02501+02001999999ADDGA1071+004501999GA2071+090001999GF107991999999999999999999MA1102001999999REMMET058METAR SBQV 251300Z 14006KT 9999 BKN015 BKN300 25/20 Q1020;
0136833440999992008032514004-14950-040883FM-15+0914SBQV V0203001N00211220001CN0112651N1+02501+02001999999ADDGA1071+006001999GA2041+024001999MA1102001999999REMMET058METAR SBQV 251400Z 30004KT 9999 BKN020 SCT080 25/20 Q1020;EQDQ01+000042SCOTCV
0136833440999992008032515004-14950-040883FM-15+0914SBQV V0203001N00151220001CN0112651N1+02601+02001999999ADDGA1071+006001999GA2041+024001999MA1101901999999REMMET058METAR SBQV 251500Z 30003KT 9999 BKN020 SCT080 26/20 Q1019;EQDQ01+000042SCOTCV
0120833440999992008032516004-14950-040883FM-15+0914SBQV V0201701N004110060019N0112651N1+02601+02001999999ADDGA1071+006001999GF107991999999999999999999MA1101801999999REMMET051METAR SBQV 251600Z 17008KT 9999 BKN020 26/20 Q1018;
0120833440999992008032517004-14950-040883FM-15+0914SBQV V0201701N002610060019N0112651N1+02601+01901999999ADDGA1071+006001999GF107991999999999999999999MA1101691999999REMMET051METAR SBQV 251700Z 17005KT 9999 BKN020 26/19 Q1017;
0120833440999992008032518004-14950-040883FM-15+0914SBQV V0201901N002610060019N0112651N1+02601+01901999999ADDGA1071+006001999GF107991999999999999999999MA1101691999999REMMET051METAR SBQV 251800Z 19005KT 9999 BKN020 26/19 Q1017;
0120833440999992008032519004-14950-040883FM-15+0914SBQV V0201901N003112200019N0112651N1+02601+01901999999ADDGA1041+006001999GF104991999999999999999999MA1101591999999REMMET051METAR SBQV 251900Z 19006KT 9999 SCT020 26/19 Q1016;
0143833440999992008032520004-14950-040883FM-15+0914SBQV V0201801N004612200019N0112651N1+02501+01901999999ADDGA1041+004801999GA2041+024001999GF104991999999999999999999MA1101591999999REMMET058METAR SBQV 252000Z 18009KT 9999 SCT016 SCT080 25/19 Q1016;
0143833440999992008032521004-14950-040883FM-15+0914SBQV V0201601N003610240019N0112651N1+02301+01901999999ADDGA1021+004801999GA2071+024001999GF107991999999999999999999MA1101691999999REMMET058METAR SBQV 252100Z 16007KT 9999 FEW016 BKN080 23/19 Q1017;
0143833440999992008032522004-14950-040883FM-15+0914SBQV V0201601N002610210019N0112651N1+02201+01901999999ADDGA1021+004501999GA2071+021001999GF107991999999999999999999MA1101801999999REMMET058METAR SBQV 252200Z 16005KT 9999 FEW015 BKN070 22/19 Q1018;
0143833440999992008032523004-14950-040883FM-15+0914SBQV V0201601N003110210019N0112651N1+02201+01901999999ADDGA1021+003901999GA2071+021001999GF107991999999999999999999MA1101801999999REMMET058METAR SBQV 252300Z 16006KT 9999 FEW013 BKN070 22/19 Q1018;
0166833440999992008032611004-14950-040883FM-15+0914SBQV V0201201N00361004501CN0112651N1+02001+01901999999ADDGA1021+003601999GA2041+004501999GA3071+021001999GF107991999999999999999999MA1101901999999REMMET065METAR SBQV 261100Z 12007KT 9999 FEW012 SCT015 BKN070 20/19 Q1019;
0143833440999992008032612004-14950-040883FM-15+0914SBQV V0201301N004610210019N0112651N1+02201+01901999999ADDGA1041+004501999GA2071+021001999GF107991999999999999999999MA1101901999999REMMET058METAR SBQV 261200Z 13009KT 9999 SCT015 BKN070 22/19 Q1019;
0143833440999992008032613004-14950-040883FM-15+0914SBQV V0201401N004610240019N0112651N1+02401+01901999999ADDGA1041+004801999GA2071+024001999GF107991999999999999999999MA1101901999999REMMET058METAR SBQV 261300Z 14009KT 9999 SCT016 BKN080 24/19 Q1019;
0143833440999992008032614004-14950-040883FM-15+0914SBQV V0201501N003610240019N0112651N1+02601+02001999999ADDGA1041+005401999GA2071+024001999GF107991999999999999999999MA1101901999999REMMET058METAR SBQV 261400Z 15007KT 9999 SCT018 BKN080 26/20 Q1019;
0143833440999992008032615004-14950-040883FM-15+0914SBQV V0201801N003610240019N0112651N1+02601+01901999999ADDGA1041+006001999GA2071+024001999GF107991999999999999999999MA1101801999999REMMET058METAR SBQV 261500Z 18007KT 9999 SCT020 BKN080 26/19 Q1018;
0143833440999992008032616004-14950-040883FM-15+0914SBQV V0201801N004110240019N0112651N1+02501+02001999999ADDGA1041+006001999GA2071+024001999GF107991999999999999999999MA1101691999999REMMET058METAR SBQV 261600Z 18008KT 9999 SCT020 BKN080 25/20 Q1017;
0143833440999992008032617004-14950-040883FM-15+0914SBQV V0201801N003610270019N0112651N1+02601+02001999999ADDGA1041+007501999GA2071+027001999GF107991999999999999999999MA1101591999999REMMET058METAR SBQV 261700Z 18007KT 9999 SCT025 BKN090 26/20 Q1016;
0143833440999992008032618004-14950-040883FM-15+0914SBQV V0201701N003610270019N0112651N1+02501+02001999999ADDGA1041+007501999GA2071+027001999GF107991999999999999999999MA1101591999999REMMET058METAR SBQV 261800Z 17007KT 9999 SCT025 BKN090 25/20 Q1016;
0169833440999992008032619004-14950-040883FM-15+0914SBQV V0201601N004110270019N0112651N1+02401+02001999999ADDGA1021+007501999GA2021+009001021GA3071+027001999GF107991999999999999999999MA1101591999999REMMET068METAR SBQV 261900Z 16008KT 9999 FEW025 FEW030TCU BKN090 24/20 Q1016;
0143833440999992008032620004-14950-040883FM-15+0914SBQV V0201601N003610270019N0112651N1+02301+02001999999ADDGA1021+006001999GA2071+027001999GF107991999999999999999999MA1101591999999REMMET058METAR SBQV 262000Z 16007KT 9999 FEW020 BKN090 23/20 Q1016;
0143833440999992008032621004-14950-040883FM-15+0914SBQV V0201501N004110270019N0112651N1+02201+02001999999ADDGA1021+006001999GA2081+027001999GF108991999999999999999999MA1101591999999REMMET058METAR SBQV 262100Z 15008KT 9999 FEW020 OVC090 22/20 Q1016;
0072833440999992008032622004-14950-040883FM-15+0914SBQV V0201501N00311220001CN0099001N1+02101+02001999999ADDMA1101691999999REMMET045METAR SBQV 262200Z 15006KT CAVOK 21/20 Q1017;
0072833440999992008032623004-14950-040883FM-15+0914SBQV V0201401N00361220001CN0099001N1+02101+01901999999ADDMA1101691999999REMMET045METAR SBQV 262300Z 14007KT CAVOK 21/19 Q1017;
0072833440999992008032700004-14950-040883FM-15+0914SBQV V0201301N00461220001CN0099001N1+02101+02001999999ADDMA1101801999999REMMET045METAR SBQV 270000Z 13009KT CAVOK 21/20 Q1018;
0120833440999992008032701004-14950-040883FM-15+0914SBQV V0201301N005112200019N0112651N1+02001+02001999999ADDGA1021+002101999GF102991999999999999999999MA1101801999999REMMET051METAR SBQV 270100Z 13010KT 9999 FEW007 20/20 Q1018;
0120833440999992008032702004-14950-040883FM-15+0914SBQV V0201301N004112200019N0112651N1+02001+01901999999ADDGA1021+004801999GF102991999999999999999999MA1101801999999REMMET051METAR SBQV 270200Z 13008KT 9999 FEW016 20/19 Q1018;
0143833440999992008032711004-14950-040883FM-15+0914SBQV V0201201N005110240019N0112651N1+02301+01901999999ADDGA1021+004801999GA2071+024001999GF107991999999999999999999MA1101691999999REMMET058METAR SBQV 271100Z 12010KT 9999 FEW016 BKN080 23/19 Q1017;
0143833440999992008032712004-14950-040883FM-15+0914SBQV V0201101N004610240019N0112651N1+02301+01901999999ADDGA1021+004801999GA2071+024001999GF107991999999999999999999MA1101801999999REMMET058METAR SBQV 271200Z 11009KT 9999 FEW016 BKN080 23/19 Q1018;
0136833440999992008032713004-14950-040883FM-15+0914SBQV V0201001N00311220001CN0112651N1+02401+01901999999ADDGA1071+005401999GA2041+024001999MA1101801999999REMMET058METAR SBQV 271300Z 10006KT 9999 BKN018 SCT080 24/19 Q1018;EQDQ01+000042SCOTCV
0136833440999992008032714004-14950-040883FM-15+0914SBQV V0200601N00261220001CN0112651N1+02601+01901999999ADDGA1071+006001999GA2041+027001999MA1101691999999REMMET058METAR SBQV 271400Z 06005KT 9999 BKN020 SCT090 26/19 Q1017;EQDQ01+000042SCOTCV
0120833440999992008032715004-14950-040883FM-15+0914SBQV V0200701N003110060019N0112651N1+02601+01901999999ADDGA1071+006001999GF107991999999999999999999MA1101591999999REMMET051METAR SBQV 271500Z 07006KT 9999 BKN020 26/19 Q1016;
0120833440999992008032716004-14950-040883FM-15+0914SBQV V0201301N001510060019N0112651N1+02801+01901999999ADDGA1071+006001999GF107991999999999999999999MA1101491999999REMMET051METAR SBQV 271600Z 13003KT 9999 BKN020 28/19 Q1015;
0120833440999992008032717004-14950-040883FM-15+0914SBQV V0202201N001510060019N0112651N1+02701+01901999999ADDGA1071+006001999GF107991999999999999999999MA1101391999999REMMET051METAR SBQV 271700Z 22003KT 9999 BKN020 27/19 Q1014;
0120833440999992008032718004-14950-040883FM-15+0914SBQV V0201901N003110060019N0112651N1+02601+02001999999ADDGA1071+006001999GF107991999999999999999999MA1101291999999REMMET051METAR SBQV 271800Z 19006KT 9999 BKN020 26/20 Q1013;
0120833440999992008032719004-14950-040883FM-15+0914SBQV V0202001N005110060019N0112651N1+02601+02001999999ADDGA1071+006001999GF107991999999999999999999MA1101291999999REMMET051METAR SBQV 271900Z 20010KT 9999 BKN020 26/20 Q1013;
0120833440999992008032720004-14950-040883FM-15+0914SBQV V0201701N004110048019N0112651N1+02401+02001999999ADDGA1071+004801999GF107991999999999999999999MA1101291999999REMMET051METAR SBQV 272000Z 17008KT 9999 BKN016 24/20 Q1013;
0143833440999992008032721004-14950-040883FM-15+0914SBQV V0201601N002612200019N0112651N1+02201+02001999999ADDGA1041+004501999GA2041+021001999GF104991999999999999999999MA1101391999999REMMET058METAR SBQV 272100Z 16005KT 9999 SCT015 SCT070 22/20 Q1014;
0143833440999992008032722004-14950-040883FM-15+0914SBQV V0201601N003112200019N0112651N1+02201+01901999999ADDGA1041+003901999GA2041+021001999GF104991999999999999999999MA1101391999999REMMET058METAR SBQV 272200Z 16006KT 9999 SCT013 SCT070 22/19 Q1014;
0143833440999992008032723004-14950-040883FM-15+0914SBQV V0201501N003112200019N0112651N1+02101+01801999999ADDGA1021+003301999GA2041+021001999GF104991999999999999999999MA1101491999999REMMET058METAR SBQV 272300Z 15006KT 9999 FEW011 SCT070 21/18 Q1015;
0091833440999992008032810444-14950-040883FM-16+0914SBQV V0201201N002112200019N0112651N1+02101+02001999999ADDMA1101701999999REMMET064METAR SBQV 281044Z SPECI 12004KT 9999 FEW013 BKN070 21/20 Q1017;
0143833440999992008032812004-14950-040883FM-15+0914SBQV V0200701N001010210019N0112651N1+02401+01901999999ADDGA1021+004801999GA2071+021001999GF107991999999999999999999MA1101801999999REMMET058METAR SBQV 281200Z 07002KT 9999 FEW016 BKN070 24/19 Q1018;
0143833440999992008032813004-14950-040883FM-15+0914SBQV V0209999C000010054019N0112651N1+02501+02001999999ADDGA1071+005401999GA2071+021001999GF107991999999999999999999MA1101691999999REMMET058METAR SBQV 281300Z 00000KT 9999 BKN018 BKN070 25/20 Q1017;
0143833440999992008032814004-14950-040883FM-15+0914SBQV V0202501N001010210019N0112651N1+02201+02101999999ADDGA1041+004801999GA2081+021001999GF108991999999999999999999MA1101691999999REMMET058METAR SBQV 281400Z 25002KT 9999 SCT016 OVC070 22/21 Q1017;
0143833440999992008032815004-14950-040883FM-15+0914SBQV V0202101N000510210019N0112651N1+02401+02101999999ADDGA1041+005401999GA2071+021001999GF107991999999999999999999MA1101591999999REMMET058METAR SBQV 281500Z 21001KT 9999 SCT018 BKN070 24/21 Q1016;
0143833440999992008032816004-14950-040883FM-15+0914SBQV V0202001N001510060019N0112651N1+02501+02101999999ADDGA1071+006001999GA2071+024001999GF107991999999999999999999MA1101491999999REMMET058METAR SBQV 281600Z 20003KT 9999 BKN020 BKN080 25/21 Q1015;
0116833440999992008032817454-14950-040883FM-15+0914SBQV V0202201N002612200019N0112651N1+02001+02001999999ADDMA1101501999999REMMET089METAR SBQV 281745Z SPECI 22005KT 9999 4000SE -RA FEW005 SCT007 OVC080 20/20 Q1015 RESHRA;
0143833440999992008032819004-14950-040883FM-15+0914SBQV V0201501N001510240019N0112651N1+02001+02001999999ADDGA1021+002101999GA2071+024001999GF107991999999999999999999MA1101491999999REMMET058METAR SBQV 281900Z 15003KT 9999 FEW007 BKN080 20/20 Q1015;
0143833440999992008032820004-14950-040883FM-15+0914SBQV V0201501N002110240019N0112651N1+02101+02001999999ADDGA1021+004501999GA2071+024001999GF107991999999999999999999MA1101491999999REMMET058METAR SBQV 282000Z 15004KT 9999 FEW015 BKN080 21/20 Q1015;
0143833440999992008032821004-14950-040883FM-15+0914SBQV V0209999C000010210019N0112651N1+02101+02001999999ADDGA1021+003901999GA2071+021001999GF107991999999999999999999MA1101491999999REMMET058METAR SBQV 282100Z 00000KT 9999 FEW013 BKN070 21/20 Q1015;
0143833440999992008032822004-14950-040883FM-15+0914SBQV V0201401N002610210019N0112651N1+02001+02001999999ADDGA1021+003301999GA2071+021001999GF107991999999999999999999MA1101491999999REMMET058METAR SBQV 282200Z 14005KT 9999 FEW011 BKN070 20/20 Q1015;
0143833440999992008032823004-14950-040883FM-15+0914SBQV V0201501N002612200019N0112651N1+02001+02001999999ADDGA1021+003001999GA2041+021001999GF104991999999999999999999MA1101591999999REMMET058METAR SBQV 282300Z 15005KT 9999 FEW010 SCT070 20/20 Q1016;
0143833440999992008032911004-14950-040883FM-15+0914SBQV V0209999C000010240019N0112651N1+02101+01901999999ADDGA1021+001801999GA2071+024001999GF107991999999999999999999MA1101691999999REMMET058METAR SBQV 291100Z 00000KT 9999 FEW006 BKN080 21/19 Q1017;
0143833440999992008032912004-14950-040883FM-15+0914SBQV V0200101N001510240019N0112651N1+02201+02001999999ADDGA1021+006001999GA2071+024001999GF107991999999999999999999MA1101691999999REMMET058METAR SBQV 291200Z 01003KT 9999 FEW020 BKN080 22/20 Q1017;
0166833440999992008032915004-14950-040883FM-15+0914SBQV V0200101N00151030001CN0112651N1+02801+02001999999ADDGA1021+009001999GA2041+030001999GA3071+090001999GF107991999999999999999999MA1101591999999REMMET065METAR SBQV 291500Z 01003KT 9999 FEW030 SCT100 BKN300 28/20 Q1016;
0143833440999992008032916004-14950-040883FM-15+0914SBQV V0203501N002110900019N0112651N1+02701+02101999999ADDGA1021+009001999GA2071+090001999GF107991999999999999999999MA1101491999999REMMET058METAR SBQV 291600Z 35004KT 9999 FEW030 BKN300 27/21 Q1015;
0143833440999992008032917004-14950-040883FM-15+0914SBQV V0200101N002610900019N0112651N1+02801+02101999999ADDGA1041+010501999GA2071+090001999GF107991999999999999999999MA1101391999999REMMET058METAR SBQV 291700Z 01005KT 9999 SCT035 BKN300 28/21 Q1014;
0136833440999992008032918004-14950-040883FM-15+0914SBQV V0203401N00211220001CN0112651N1+02801+02001999999ADDGA1071+010501999GA2041+090001999MA1101291999999REMMET058METAR SBQV 291800Z 34004KT 9999 BKN035 SCT300 28/20 Q1013;EQDQ01+000042SCOTCV
0136833440999992008032919004-14950-040883FM-15+0914SBQV V0201501N004110075019N0112651N1+02501+02101999999ADDGA1071+007501999GF107991999999999999999999MA1101391999999MW1611REMMET061METAR SBQV 291900Z 15008KT 9999 7000S -RA BKN025 25/21 Q1014;
0143833440999992008032920004-14950-040883FM-15+0914SBQV V0201501N003112200019N0112651N1+02401+02101999999ADDGA1041+006001999GA2041+024001999GF104991999999999999999999MA1101391999999REMMET058METAR SBQV 292000Z 15006KT 9999 SCT020 SCT080 24/21 Q1014;
0136833440999992008032921004-14950-040883FM-15+0914SBQV V0201501N00101220001CN0112651N1+02201+02101999999ADDGA1071+006001999GA2041+024001999MA1101491999999REMMET058METAR SBQV 292100Z 15002KT 9999 BKN020 SCT080 22/21 Q1015;EQDQ01+000042SCOTCV
0120833440999992008032922004-14950-040883FM-15+0914SBQV V0201401N003112200019N0112651N1+02101+02101999999ADDGA1041+006001999GF104991999999999999999999MA1101491999999REMMET051METAR SBQV 292200Z 14006KT 9999 SCT020 21/21 Q1015;
0091833440999992008033010154-14950-040883FM-16+0914SBQV V0200701N001512200019N0112651N1+02101+01901999999ADDMA1101601999999REMMET064METAR SBQV 301015Z SPECI 07003KT 9999 FEW011 BKN070 21/19 Q1016;
0143833440999992008033011004-14950-040883FM-15+0914SBQV V0200201N001010210019N0112651N1+02201+01901999999ADDGA1021+003901999GA2071+021001999GF107991999999999999999999MA1101691999999REMMET058METAR SBQV 301100Z 02002KT 9999 FEW013 BKN070 22/19 Q1017;
0143833440999992008033012004-14950-040883FM-15+0914SBQV V0200401N002110240019N0112651N1+02401+02001999999ADDGA1021+004501999GA2071+024001999GF107991999999999999999999MA1101691999999REMMET058METAR SBQV 301200Z 04004KT 9999 FEW015 BKN080 24/20 Q1017;
0143833440999992008033013004-14950-040883FM-15+0914SBQV V0203501N001512200019N0112651N1+02601+02001999999ADDGA1041+004801999GA2041+024001999GF104991999999999999999999MA1101691999999REMMET058METAR SBQV 301300Z 35003KT 9999 SCT016 SCT080 26/20 Q1017;
0120833440999992008033014004-14950-040883FM-15+0914SBQV V0203401N002612200019N0112651N1+02701+02101999999ADDGA1041+005401999GF104991999999999999999999MA1101591999999REMMET051METAR SBQV 301400Z 34005KT 9999 SCT018 27/21 Q1016;
0120833440999992008033015004-14950-040883FM-15+0914SBQV V0202901N002110060019N0112651N1+02601+02001999999ADDGA1071+006001999GF107991999999999999999999MA1101591999999REMMET051METAR SBQV 301500Z 29004KT 9999 BKN020 26/20 Q1016;
0120833440999992008033017004-14950-040883FM-15+0914SBQV V0209999C000012200019N0112651N1+02501+02101999999ADDGA1041+007501999GF104991999999999999999999MA1101391999999REMMET051METAR SBQV 301700Z 00000KT 9999 SCT025 25/21 Q1014;
0139833440999992008033018004-14950-040883FM-15+0914SBQV V0201701N00311220001CN0112651N1+02701+02001999999ADDGA1071+006001999GA2021+007501021MA1101291999999REMMET061METAR SBQV 301800Z 17006KT 9999 BKN020 FEW025TCU 27/20 Q1013;EQDQ01+000022SCOTCV
0170833440999992008033019004-14950-040883FM-15+0914SBQV V0202101N00621220001CN0112651N1+02301+02001999999ADDGA1021+003601999GA2071+006001999GA3021+007501091MA1101391999999MW1171REMMET070METAR SBQV 301900Z 21012KT 9999 TS FEW012 BKN020 FEW025CB 23/20 Q1014;EQDQ01+000022SCOTCV
0096833440999992008033019444-14950-040883FM-16+0914SBQV V0201701N003612200019N0112651N1+02201+02101999999ADDMA1101401999999REMMET069METAR SBQV 301944Z SPECI 17007KT 9999 FEW012 BKN020 22/21 Q1014 RETS;
0143833440999992008033021004-14950-040883FM-15+0914SBQV V0201801N002110900019N0112651N1+02101+02101999999ADDGA1021+003301999GA2071+090001999GF107991999999999999999999MA1101491999999REMMET058METAR SBQV 302100Z 18004KT 9999 FEW011 BKN300 21/21 Q1015;
0072833440999992008033022004-14950-040883FM-15+0914SBQV V0201601N00361220001CN0099001N1+02101+02101999999ADDMA1101491999999REMMET045METAR SBQV 302200Z 16007KT CAVOK 21/21 Q1015;
0143833440999992008033111004-14950-040883FM-15+0914SBQV V0201701N006710039019N0112651N1+02001+01901999999ADDGA1071+003901999GA2071+021001999GF107991999999999999999999MA1101801999999REMMET058METAR SBQV 311100Z 17013KT 9999 BKN013 BKN070 20/19 Q1018;
0143833440999992008033112004-14950-040883FM-15+0914SBQV V0201601N005710045019N0112651N1+02001+01901999999ADDGA1071+004501999GA2071+024001999GF107991999999999999999999MA1101801999999REMMET058METAR SBQV 311200Z 16011KT 9999 BKN015 BKN080 20/19 Q1018;
0120833440999992008033113004-14950-040883FM-15+0914SBQV V0201701N005710048019N0112651N1+02201+01901999999ADDGA1071+004801999GF107991999999999999999999MA1101801999999REMMET051METAR SBQV 311300Z 17011KT 9999 BKN016 22/19 Q1018;
0136833440999992008033114004-14950-040883FM-15+0914SBQV V0201601N00621220001CN0112651N1+02301+01901999999ADDGA1071+005401999GA2041+024001999MA1101801999999REMMET058METAR SBQV 311400Z 16012KT 9999 BKN018 SCT080 23/19 Q1018;EQDQ01+000042SCOTCV
0120833440999992008033115004-14950-040883FM-15+0914SBQV V0201601N005710054019N0112651N1+02301+01901999999ADDGA1071+005401999GF107991999999999999999999MA1101691999999REMMET051METAR SBQV 311500Z 16011KT 9999 BKN018 23/19 Q1017;
0120833440999992008033116004-14950-040883FM-15+0914SBQV V0201701N005112200019N0112651N1+02501+02001999999ADDGA1041+006001999GF104991999999999999999999MA1101591999999REMMET051METAR SBQV 311600Z 17010KT 9999 SCT020 25/20 Q1016;
0143833440999992008033117004-14950-040883FM-15+0914SBQV V0201801N005712200019N0112651N1+02501+01801999999ADDGA1021+006001999GA2041+027001999GF104991999999999999999999MA1101491999999REMMET058METAR SBQV 311700Z 18011KT 9999 FEW020 SCT090 25/18 Q1015;
0143833440999992008033118004-14950-040883FM-15+0914SBQV V0201601N005712200019N0112651N1+02301+02001999999ADDGA1041+006001999GA2041+027001999GF104991999999999999999999MA1101391999999REMMET058METAR SBQV 311800Z 16011KT 9999 SCT020 SCT090 23/20 Q1014;
0120833440999992008033120004-14950-040883FM-15+0914SBQV V0201601N005112200019N0112651N1+02301+02001999999ADDGA1021+005401999GF102991999999999999999999MA1101391999999REMMET051METAR SBQV 312000Z 16010KT 9999 FEW018 23/20 Q1014;
0120833440999992008033121004-14950-040883FM-15+0914SBQV V0201601N005112200019N0112651N1+02101+02001999999ADDGA1021+003901999GF102991999999999999999999MA1101391999999REMMET051METAR SBQV 312100Z 16010KT 9999 FEW013 21/20 Q1014;
0120833440999992008033122004-14950-040883FM-15+0914SBQV V0201601N007210018019N0112651N1+02001+01901999999ADDGA1071+001801999GF107991999999999999999999MA1101491999999REMMET051METAR SBQV 312200Z 16014KT 9999 BKN006 20/19 Q1015;
0120833440999992008033123004-14950-040883FM-15+0914SBQV V0201601N006710018019N0112651N1+02001+01901999999ADDGA1071+001801999GF107991999999999999999999MA1101591999999REMMET051METAR SBQV 312300Z 16013KT 9999 BKN006 20/19 Q1016;
0120833440999992008040111004-14950-040883FM-15+0914SBQV V0201601N005110033019N0112651N1+01901+01801999999ADDGA1071+003301999GF107991999999999999999999MA1101691999999REMMET051METAR SBQV 011100Z 16010KT 9999 BKN011 19/18 Q1017;
0120833440999992008040112004-14950-040883FM-15+0914SBQV V0201601N006710039019N0112651N1+02101+01801999999ADDGA1071+003901999GF107991999999999999999999MA1101801999999REMMET051METAR SBQV 011200Z 16013KT 9999 BKN013 21/18 Q1018;
0090833440999992008040112464-14950-040883FM-16+0914SBQV V0201501N007212200019N0112651N1+02201+01801999999ADDMA1101801999999REMMET063METAR SBQV 011246Z SPECI 15014KT 9999 BKN15 SCT070 22/18 Q1018;
0136833440999992008040114004-14950-040883FM-15+0914SBQV V0201601N00621220001CN0112651N1+02201+01901999999ADDGA1071+004501999GA2041+021001999MA1101691999999REMMET058METAR SBQV 011400Z 16012KT 9999 BKN015 SCT070 22/19 Q1017;EQDQ01+000042SCOTCV
0136833440999992008040115004-14950-040883FM-15+0914SBQV V0201601N00461220001CN0112651N1+02201+01901999999ADDGA1071+004501999GA2041+021001999MA1101691999999REMMET058METAR SBQV 011500Z 16009KT 9999 BKN015 SCT070 22/19 Q1017;EQDQ01+000042SCOTCV
0136833440999992008040116004-14950-040883FM-15+0914SBQV V0201601N00311220001CN0112651N1+02201+01901999999ADDGA1071+004501999GA2041+021001999MA1101591999999REMMET058METAR SBQV 011600Z 16006KT 9999 BKN015 SCT070 22/19 Q1016;EQDQ01+000042SCOTCV
0136833440999992008040117004-14950-040883FM-15+0914SBQV V0201601N00361220001CN0112651N1+02301+02001999999ADDGA1071+004801999GA2041+021001999MA1101491999999REMMET058METAR SBQV 011700Z 16007KT 9999 BKN016 SCT070 23/20 Q1015;EQDQ01+000042SCOTCV
0136833440999992008040118004-14950-040883FM-15+0914SBQV V0201801N00461220001CN0112651N1+02301+01901999999ADDGA1071+004801999GA2041+021001999MA1101491999999REMMET058METAR SBQV 011800Z 18009KT 9999 BKN016 SCT070 23/19 Q1015;EQDQ01+000042SCOTCV
0120833440999992008040119004-14950-040883FM-15+0914SBQV V0201701N004612200019N0112651N1+02301+01901999999ADDGA1041+004801999GF104991999999999999999999MA1101391999999REMMET051METAR SBQV 011900Z 17009KT 9999 SCT016 23/19 Q1014;
0143833440999992008040121004-14950-040883FM-15+0914SBQV V0201601N003112200019N0112651N1+02001+01901999999ADDGA1021+003901999GA2041+021001999GF104991999999999999999999MA1101491999999REMMET058METAR SBQV 012100Z 16006KT 9999 FEW013 SCT070 20/19 Q1015;
0120833440999992008040122004-14950-040883FM-15+0914SBQV V0201601N003112200019N0112651N1+02001+01901999999ADDGA1021+003001999GF102991999999999999999999MA1101491999999REMMET051METAR SBQV 012200Z 16006KT 9999 FEW010 20/19 Q1015;
0120833440999992008040123004-14950-040883FM-15+0914SBQV V0201601N004112200019N0112651N1+02101+01901999999ADDGA1041+002401999GF104991999999999999999999MA1101591999999REMMET051METAR SBQV 012300Z 16008KT 9999 SCT008 21/19 Q1016;
0143833440999992008040211004-14950-040883FM-15+0914SBQV V0201601N004612200019N0112651N1+02101+01801999999ADDGA1041+003301999GA2041+021001999GF104991999999999999999999MA1101691999999REMMET058METAR SBQV 021100Z 16009KT 9999 SCT011 SCT070 21/18 Q1017;
0143833440999992008040212004-14950-040883FM-15+0914SBQV V0201701N004112200019N0112651N1+02301+01901999999ADDGA1041+003901999GA2041+024001999GF104991999999999999999999MA1101801999999REMMET058METAR SBQV 021200Z 17008KT 9999 SCT013 SCT080 23/19 Q1018;
0143833440999992008040213004-14950-040883FM-15+0914SBQV V0201901N004612200019N0112651N1+02401+02001999999ADDGA1041+004501999GA2041+024001999GF104991999999999999999999MA1101801999999REMMET058METAR SBQV 021300Z 19009KT 9999 SCT015 SCT080 24/20 Q1018;
0120833440999992008040214004-14950-040883FM-15+0914SBQV V0201901N004612200019N0112651N1+02501+02001999999ADDGA1041+005401999GF104991999999999999999999MA1101691999999REMMET051METAR SBQV 021400Z 19009KT 9999 SCT018 25/20 Q1017;
0120833440999992008040215004-14950-040883FM-15+0914SBQV V0201801N003610060019N0112651N1+02501+02001999999ADDGA1071+006001999GF107991999999999999999999MA1101591999999REMMET051METAR SBQV 021500Z 18007KT 9999 BKN020 25/20 Q1016;
0120833440999992008040216004-14950-040883FM-15+0914SBQV V0201501N005110060019N0112651N1+02601+02001999999ADDGA1071+006001999GF107991999999999999999999MA1101491999999REMMET051METAR SBQV 021600Z 15010KT 9999 BKN020 26/20 Q1015;
0120833440999992008040217004-14950-040883FM-15+0914SBQV V0201501N004612200019N0112651N1+02601+02001999999ADDGA1041+006001999GF104991999999999999999999MA1101391999999REMMET051METAR SBQV 021700Z 15009KT 9999 SCT020 26/20 Q1014;
0120833440999992008040218004-14950-040883FM-15+0914SBQV V0201601N005710060019N0112651N1+02501+01901999999ADDGA1071+006001999GF107991999999999999999999MA1101391999999REMMET051METAR SBQV 021800Z 16011KT 9999 BKN020 25/19 Q1014;
0120833440999992008040219004-14950-040883FM-15+0914SBQV V0201501N005112200019N0112651N1+02501+01901999999ADDGA1041+007501999GF104991999999999999999999MA1101391999999REMMET051METAR SBQV 021900Z 15010KT 9999 SCT025 25/19 Q1014;
0120833440999992008040220004-14950-040883FM-15+0914SBQV V0201601N005112200019N0112651N1+02401+01901999999ADDGA1021+006001999GF102991999999999999999999MA1101391999999REMMET051METAR SBQV 022000Z 16010KT 9999 FEW020 24/19 Q1014;
0120833440999992008040221004-14950-040883FM-15+0914SBQV V0201601N003612200019N0112651N1+02201+02001999999ADDGA1021+006001999GF102991999999999999999999MA1101391999999REMMET051METAR SBQV 022100Z 16007KT 9999 FEW020 22/20 Q1014;
0120833440999992008040222004-14950-040883FM-15+0914SBQV V0201401N003112200019N0112651N1+02101+02001999999ADDGA1021+003901999GF102991999999999999999999MA1101491999999REMMET051METAR SBQV 022200Z 14006KT 9999 FEW013 21/20 Q1015;
0072833440999992008040223004-14950-040883FM-15+0914SBQV V0201301N00261220001CN0099001N1+02001+01901999999ADDMA1101491999999REMMET045METAR SBQV 022300Z 13005KT CAVOK 20/19 Q1015;
0120833440999992008040311004-14950-040883FM-15+0914SBQV V0201001N002112200019N0112651N1+02301+01801999999ADDGA1021+004801999GF102991999999999999999999MA1101691999999REMMET051METAR SBQV 031100Z 10004KT 9999 FEW016 23/18 Q1017;
0120833440999992008040313004-14950-040883FM-15+0914SBQV V0201301N002112200019N0112651N1+02601+02001999999ADDGA1041+007501999GF104991999999999999999999MA1101691999999REMMET051METAR SBQV 031300Z 13004KT 9999 SCT025 26/20 Q1017;
0120833440999992008040314004-14950-040883FM-15+0914SBQV V0200901N002110075019N0112651N1+02601+01801999999ADDGA1071+007501999GF107991999999999999999999MA1101691999999REMMET051METAR SBQV 031400Z 09004KT 9999 BKN025 26/18 Q1017;
0120833440999992008040315004-14950-040883FM-15+0914SBQV V0200901N000510075019N0112651N1+02601+01901999999ADDGA1071+007501999GF107991999999999999999999MA1101591999999REMMET051METAR SBQV 031500Z 09001KT 9999 BKN025 26/19 Q1016;
0120833440999992008040316004-14950-040883FM-15+0914SBQV V0200101N002610075019N0112651N1+02701+01801999999ADDGA1071+007501999GF107991999999999999999999MA1101491999999REMMET051METAR SBQV 031600Z 01005KT 9999 BKN025 27/18 Q1015;
0120833440999992008040317004-14950-040883FM-15+0914SBQV V0201201N000510075019N0112651N1+02601+01801999999ADDGA1071+007501999GF107991999999999999999999MA1101391999999REMMET051METAR SBQV 031700Z 12001KT 9999 BKN025 26/18 Q1014;
0120833440999992008040318004-14950-040883FM-15+0914SBQV V0201601N001510075019N0112651N1+02701+01901999999ADDGA1071+007501999GF107991999999999999999999MA1101291999999REMMET051METAR SBQV 031800Z 16003KT 9999 BKN025 27/19 Q1013;
0120833440999992008040319004-14950-040883FM-15+0914SBQV V0201501N004110075019N0112651N1+02601+02001999999ADDGA1071+007501999GF107991999999999999999999MA1101291999999REMMET051METAR SBQV 031900Z 15008KT 9999 BKN025 26/20 Q1013;
0120833440999992008040320004-14950-040883FM-15+0914SBQV V0201501N003612200019N0112651N1+02501+02001999999ADDGA1021+007501999GF102991999999999999999999MA1101291999999REMMET051METAR SBQV 032000Z 15007KT 9999 FEW025 25/20 Q1013;
0120833440999992008040321004-14950-040883FM-15+0914SBQV V0201501N003112200019N0112651N1+02301+02001999999ADDGA1021+006001999GF102991999999999999999999MA1101291999999REMMET051METAR SBQV 032100Z 15006KT 9999 FEW020 23/20 Q1013;
0072833440999992008040322004-14950-040883FM-15+0914SBQV V0201301N00261220001CN0099001N1+02201+02001999999ADDMA1101391999999REMMET045METAR SBQV 032200Z 13005KT CAVOK 22/20 Q1014;
0072833440999992008040323004-14950-040883FM-15+0914SBQV V0201301N00211220001CN0099001N1+02101+02001999999ADDMA1101491999999REMMET045METAR SBQV 032300Z 13004KT CAVOK 21/20 Q1015;
0084833440999992008040410154-14950-040883FM-16+0914SBQV V0200501N002612200019N0112651N1+02001+01901999999ADDMA1101601999999REMMET057METAR SBQV 041015Z SPECI 05005KT 9999 SCT008 20/19 Q1016;
0120833440999992008040411004-14950-040883FM-15+0914SBQV V0200701N004612200019N0112651N1+02201+01901999999ADDGA1041+003901999GF104991999999999999999999MA1101691999999REMMET051METAR SBQV 041100Z 07009KT 9999 SCT013 22/19 Q1017;
0143833440999992008040412004-14950-040883FM-15+0914SBQV V0200701N003612200019N0112651N1+02401+01801999999ADDGA1021+004501999GA2041+024001999GF104991999999999999999999MA1101691999999REMMET058METAR SBQV 041200Z 07007KT 9999 FEW015 SCT080 24/18 Q1017;
0143833440999992008040413004-14950-040883FM-15+0914SBQV V0200501N002610240019N0112651N1+02401+01801999999ADDGA1021+004501999GA2071+024001999GF107991999999999999999999MA1101691999999REMMET058METAR SBQV 041300Z 05005KT 9999 FEW015 BKN080 24/18 Q1017;
0143833440999992008040414004-14950-040883FM-15+0914SBQV V0200401N003110240019N0112651N1+02501+01901999999ADDGA1021+004801999GA2071+024001999GF107991999999999999999999MA1101691999999REMMET058METAR SBQV 041400Z 04006KT 9999 FEW016 BKN080 25/19 Q1017;
0143833440999992008040415004-14950-040883FM-15+0914SBQV V0200601N002612200019N0112651N1+02601+02001999999ADDGA1041+005401999GA2041+024001999GF104991999999999999999999MA1101591999999REMMET058METAR SBQV 041500Z 06005KT 9999 SCT018 SCT080 26/20 Q1016;
0143833440999992008040416004-14950-040883FM-15+0914SBQV V0200201N002112200019N0112651N1+02501+01901999999ADDGA1041+005401999GA2041+024001999GF104991999999999999999999MA1101491999999REMMET058METAR SBQV 041600Z 02004KT 9999 SCT018 SCT080 25/19 Q1015;
0143833440999992008040417004-14950-040883FM-15+0914SBQV V0200301N002110270019N0112651N1+02701+01901999999ADDGA1041+007501999GA2071+027001999GF107991999999999999999999MA1101391999999REMMET058METAR SBQV 041700Z 03004KT 9999 SCT025 BKN090 27/19 Q1014;
0143833440999992008040418004-14950-040883FM-15+0914SBQV V0203401N001512200019N0112651N1+02801+01901999999ADDGA1041+009001999GA2041+090001999GF104991999999999999999999MA1101391999999REMMET058METAR SBQV 041800Z 34003KT 9999 SCT030 SCT300 28/19 Q1014;
0143833440999992008040419004-14950-040883FM-15+0914SBQV V0203201N001512200019N0112651N1+02801+01901999999ADDGA1021+009001999GA2041+090001999GF104991999999999999999999MA1101391999999REMMET058METAR SBQV 041900Z 32003KT 9999 FEW030 SCT300 28/19 Q1014;
0143833440999992008040420004-14950-040883FM-15+0914SBQV V0202701N000512200019N0112651N1+02801+01901999999ADDGA1021+009001999GA2041+090001999GF104991999999999999999999MA1101291999999REMMET058METAR SBQV 042000Z 27001KT 9999 FEW030 SCT300 28/19 Q1013;
0143833440999992008040421004-14950-040883FM-15+0914SBQV V0201501N002112200019N0112651N1+02401+02001999999ADDGA1021+006001999GA2041+090001999GF104991999999999999999999MA1101391999999REMMET058METAR SBQV 042100Z 15004KT 9999 FEW020 SCT300 24/20 Q1014;
0143833440999992008040422004-14950-040883FM-15+0914SBQV V0201301N002112200019N0112651N1+02301+02001999999ADDGA1021+005401999GA2041+090001999GF104991999999999999999999MA1101491999999REMMET058METAR SBQV 042200Z 13004KT 9999 FEW018 SCT300 23/20 Q1015;
0072833440999992008040423004-14950-040883FM-15+0914SBQV V0201101N00361220001CN0099001N1+02301+02001999999ADDMA1101491999999REMMET045METAR SBQV 042300Z 11007KT CAVOK 23/20 Q1015;
0091833440999992008040510154-14950-040883FM-16+0914SBQV V02099999999992200019N0112651N1+99999+99999999999ADDMA1101601999999REMMET064METAR SBQV 051015Z SPECI 08009KT 9999 FEW011 BKN300 21/20 Q1016;
0143833440999992008040511004-14950-040883FM-15+0914SBQV V0200701N005110900019N0112651N1+02201+02001999999ADDGA1021+003901999GA2071+090001999GF107991999999999999999999MA1101591999999REMMET058METAR SBQV 051100Z 07010KT 9999 FEW013 BKN300 22/20 Q1016;
0143833440999992008040512004-14950-040883FM-15+0914SBQV V0200401N004110900019N0112651N1+02301+02001999999ADDGA1021+004501999GA2071+090001999GF107991999999999999999999MA1101691999999REMMET058METAR SBQV 051200Z 04008KT 9999 FEW015 BKN300 23/20 Q1017;
0143833440999992008040513004-14950-040883FM-15+0914SBQV V0200401N003610900019N0112651N1+02401+02001999999ADDGA1021+005401999GA2071+090001999GF107991999999999999999999MA1101691999999REMMET058METAR SBQV 051300Z 04007KT 9999 FEW018 BKN300 24/20 Q1017;
0143833440999992008040514004-14950-040883FM-15+0914SBQV V0200201N003112200019N0112651N1+02501+02101999999ADDGA1041+006001999GA2041+090001999GF104991999999999999999999MA1101691999999REMMET058METAR SBQV 051400Z 02006KT 9999 SCT020 SCT300 25/21 Q1017;
0117833440999992008040515004-14950-040883FM-15+0914SBQV V0200401N00411220001CN0112651N1+02701+02001999999ADDGA1071+006001999GA2041+090001999MA1101591999999REMMET058METAR SBQV 051500Z 04008KT 9999 BKN020 SCT300 27/20 Q1016;
0120833440999992008040516004-14950-040883FM-15+0914SBQV V0200701N003110060019N0112651N1+02901+01901999999ADDGA1071+006001999GF107991999999999999999999MA1101491999999REMMET051METAR SBQV 051600Z 07006KT 9999 BKN020 29/19 Q1015;
0120833440999992008040517004-14950-040883FM-15+0914SBQV V0200401N003110060019N0112651N1+02901+01901999999ADDGA1071+006001999GF107991999999999999999999MA1101391999999REMMET051METAR SBQV 051700Z 04006KT 9999 BKN020 29/19 Q1014;
0143833440999992008040518004-14950-040883FM-15+0914SBQV V0200701N002612200019N0112651N1+02901+01901999999ADDGA1041+007501999GA2041+090001999GF104991999999999999999999MA1101291999999REMMET058METAR SBQV 051800Z 07005KT 9999 SCT025 SCT300 29/19 Q1013;
0143833440999992008040519004-14950-040883FM-15+0914SBQV V0201401N003612200019N0112651N1+02901+01901999999ADDGA1041+007501999GA2041+090001999GF104991999999999999999999MA1101291999999REMMET058METAR SBQV 051900Z 14007KT 9999 SCT025 SCT300 29/19 Q1013;
0143833440999992008040520004-14950-040883FM-15+0914SBQV V0201001N003112200019N0112651N1+02601+01901999999ADDGA1021+006001999GA2041+090001999GF104991999999999999999999MA1101291999999REMMET058METAR SBQV 052000Z 10006KT 9999 FEW020 SCT300 26/19 Q1013;
0072833440999992008040522004-14950-040883FM-15+0914SBQV V0201301N00311220001CN0099001N1+02301+02001999999ADDMA1101391999999REMMET045METAR SBQV 052200Z 13006KT CAVOK 23/20 Q1014;
0143833440999992008040616004-14950-040883FM-15+0914SBQV V0203601N002110900019N0112651N1+02801+01901999999ADDGA1021+007501999GA2071+090001999GF107991999999999999999999MA1101591999999REMMET058METAR SBQV 061600Z 36004KT 9999 FEW025 BKN300 28/19 Q1016;
0143833440999992008040617004-14950-040883FM-15+0914SBQV V0200201N001510900019N0112651N1+02901+01901999999ADDGA1041+007501999GA2071+090001999GF107991999999999999999999MA1101491999999REMMET058METAR SBQV 061700Z 02003KT 9999 SCT025 BKN300 29/19 Q1015;
0143833440999992008040618004-14950-040883FM-15+0914SBQV V0201701N002110900019N0112651N1+02801+02001999999ADDGA1041+007501999GA2071+090001999GF107991999999999999999999MA1101391999999REMMET058METAR SBQV 061800Z 17004KT 9999 SCT025 BKN300 28/20 Q1014;
0143833440999992008040619004-14950-040883FM-15+0914SBQV V0201901N004610900019N0112651N1+02601+02201999999ADDGA1041+006001999GA2071+090001999GF107991999999999999999999MA1101391999999REMMET058METAR SBQV 061900Z 19009KT 9999 SCT020 BKN300 26/22 Q1014;
0143833440999992008040620004-14950-040883FM-15+0914SBQV V0201701N005110900019N0112651N1+02501+02101999999ADDGA1041+005401999GA2071+090001999GF107991999999999999999999MA1101491999999REMMET058METAR SBQV 062000Z 17010KT 9999 SCT018 BKN300 25/21 Q1015;
0143833440999992008040621004-14950-040883FM-15+0914SBQV V0201601N005710900019N0112651N1+02401+02101999999ADDGA1021+004801999GA2071+090001999GF107991999999999999999999MA1101491999999REMMET058METAR SBQV 062100Z 16011KT 9999 FEW016 BKN300 24/21 Q1015;
0143833440999992008040622004-14950-040883FM-15+0914SBQV V0201601N005110900019N0112651N1+02201+02001999999ADDGA1021+004501999GA2071+090001999GF107991999999999999999999MA1101591999999REMMET058METAR SBQV 062200Z 16010KT 9999 FEW015 BKN300 22/20 Q1016;
0120833440999992008040711004-14950-040883FM-15+0914SBQV V0201801N002612200019N0112651N1+02301+02001999999ADDGA1041+003901999GF104991999999999999999999MA1101901999999REMMET051METAR SBQV 071100Z 18005KT 9999 SCT013 23/20 Q1019;
0120833440999992008040712004-14950-040883FM-15+0914SBQV V0201301N004112200019N0112651N1+02501+01901999999ADDGA1041+004501999GF104991999999999999999999MA1101901999999REMMET051METAR SBQV 071200Z 13008KT 9999 SCT015 25/19 Q1019;
0120833440999992008040713004-14950-040883FM-15+0914SBQV V0201401N004610048019N0112651N1+02501+01901999999ADDGA1071+004801999GF107991999999999999999999MA1101901999999REMMET051METAR SBQV 071300Z 14009KT 9999 BKN016 25/19 Q1019;
0120833440999992008040714004-14950-040883FM-15+0914SBQV V0201201N004110048019N0112651N1+02601+01801999999ADDGA1071+004801999GF107991999999999999999999MA1101901999999REMMET051METAR SBQV 071400Z 12008KT 9999 BKN016 26/18 Q1019;
0120833440999992008040715004-14950-040883FM-15+0914SBQV V0201001N004610054019N0112651N1+02401+02001999999ADDGA1071+005401999GF107991999999999999999999MA1101801999999REMMET051METAR SBQV 071500Z 10009KT 9999 BKN018 24/20 Q1018;
0120833440999992008040716004-14950-040883FM-15+0914SBQV V0201401N004110060019N0112651N1+02701+01901999999ADDGA1071+006001999GF107991999999999999999999MA1101691999999REMMET051METAR SBQV 071600Z 14008KT 9999 BKN020 27/19 Q1017;
0120833440999992008040717004-14950-040883FM-15+0914SBQV V0200701N004610075019N0112651N1+02801+02001999999ADDGA1071+007501999GF107991999999999999999999MA1101591999999REMMET051METAR SBQV 071700Z 07009KT 9999 BKN025 28/20 Q1016;
0120833440999992008040718004-14950-040883FM-15+0914SBQV V0200801N004110075019N0112651N1+02601+01901999999ADDGA1071+007501999GF107991999999999999999999MA1101591999999REMMET051METAR SBQV 071800Z 08008KT 9999 BKN025 26/19 Q1016;
0120833440999992008040719004-14950-040883FM-15+0914SBQV V0200901N002110075019N0112651N1+02601+02001999999ADDGA1071+007501999GF107991999999999999999999MA1101491999999REMMET051METAR SBQV 071900Z 09004KT 9999 BKN025 26/20 Q1015;
0120833440999992008040720004-14950-040883FM-15+0914SBQV V0201401N003110060019N0112651N1+02501+01901999999ADDGA1071+006001999GF107991999999999999999999MA1101491999999REMMET051METAR SBQV 072000Z 14006KT 9999 BKN020 25/19 Q1015;
0120833440999992008040721004-14950-040883FM-15+0914SBQV V0201601N003112200019N0112651N1+02401+02001999999ADDGA1021+005401999GF102991999999999999999999MA1101491999999REMMET051METAR SBQV 072100Z 16006KT 9999 FEW018 24/20 Q1015;
0072833440999992008040722004-14950-040883FM-15+0914SBQV V0201001N00361220001CN0099001N1+02301+02001999999ADDMA1101591999999REMMET045METAR SBQV 072200Z 10007KT CAVOK 23/20 Q1016;
0120833440999992008040811004-14950-040883FM-15+0914SBQV V0201001N002610039019N0112651N1+02101+02001999999ADDGA1071+003901999GF107991999999999999999999MA1102001999999REMMET051METAR SBQV 081100Z 10005KT 9999 BKN013 21/20 Q1020;
0091833440999992008040811174-14950-040883FM-16+0914SBQV V0201201N002612200019N0112651N1+02201+02001999999ADDMA1102001999999REMMET064METAR SBQV 081117Z SPECI 12005KT 9999 SCT013 BKN015 22/20 Q1020;
0120833440999992008040813004-14950-040883FM-15+0914SBQV V0200901N003610054019N0112651N1+02601+02101999999ADDGA1071+005401999GF107991999999999999999999MA1102001999999REMMET051METAR SBQV 081300Z 09007KT 9999 BKN018 26/21 Q1020;
0120833440999992008040814004-14950-040883FM-15+0914SBQV V0201101N004110060019N0112651N1+02801+02101999999ADDGA1071+006001999GF107991999999999999999999MA1102001999999REMMET051METAR SBQV 081400Z 11008KT 9999 BKN020 28/21 Q1020;
0120833440999992008040815004-14950-040883FM-15+0914SBQV V0201201N004610075019N0112651N1+02801+01901999999ADDGA1071+007501999GF107991999999999999999999MA1101901999999REMMET051METAR SBQV 081500Z 12009KT 9999 BKN025 28/19 Q1019;
0120833440999992008040816004-14950-040883FM-15+0914SBQV V0201701N003610075019N0112651N1+02701+02001999999ADDGA1071+007501999GF107991999999999999999999MA1101901999999REMMET051METAR SBQV 081600Z 17007KT 9999 BKN025 27/20 Q1019;
0120833440999992008040817004-14950-040883FM-15+0914SBQV V0201101N003610075019N0112651N1+02801+02001999999ADDGA1071+007501999GF107991999999999999999999MA1101801999999REMMET051METAR SBQV 081700Z 11007KT 9999 BKN025 28/20 Q1018;
0120833440999992008040818004-14950-040883FM-15+0914SBQV V0201401N004112200019N0112651N1+02701+01901999999ADDGA1021+007501999GF102991999999999999999999MA1101691999999REMMET051METAR SBQV 081800Z 14008KT 9999 FEW025 27/19 Q1017;
0120833440999992008040819004-14950-040883FM-15+0914SBQV V0201401N005712200019N0112651N1+02701+02001999999ADDGA1021+007501999GF102991999999999999999999MA1101691999999REMMET051METAR SBQV 081900Z 14011KT 9999 FEW025 27/20 Q1017;
0120833440999992008040820004-14950-040883FM-15+0914SBQV V0201501N003112200019N0112651N1+02501+02001999999ADDGA1021+006001999GF102991999999999999999999MA1101691999999REMMET051METAR SBQV 082000Z 15006KT 9999 FEW020 25/20 Q1017;
0120833440999992008040821004-14950-040883FM-15+0914SBQV V0201601N003612200019N0112651N1+02401+01901999999ADDGA1021+005401999GF102991999999999999999999MA1101691999999REMMET051METAR SBQV 082100Z 16007KT 9999 FEW018 24/19 Q1017;
0120833440999992008040822004-14950-040883FM-15+0914SBQV V0201401N003612200019N0112651N1+02201+01901999999ADDGA1021+004501999GF102991999999999999999999MA1101691999999REMMET051METAR SBQV 082200Z 14007KT 9999 FEW015 22/19 Q1017;
0072833440999992008040823004-14950-040883FM-15+0914SBQV V0201301N00411220001CN0099001N1+02201+02101999999ADDMA1101801999999REMMET045METAR SBQV 082300Z 13008KT CAVOK 22/21 Q1018;
0116833440999992008040910154-14950-040883FM-16+0914SBQV V0201001N004619999999N0112651N1+02201+01901999999ADDKA1999M+99999MA1102001999999REMMET057METAR SBQV 091015Z SPECI 10009KT 9999 FEW015 22/19 Q1020;EQDQ01 +00092ATMX  
0120833440999992008040911004-14950-040883FM-15+0914SBQV V0201101N003612200019N0112651N1+02401+01901999999ADDGA1021+005401999GF102991999999999999999999MA1102001999999REMMET051METAR SBQV 091100Z 11007KT 9999 FEW018 24/19 Q1020;
0120833440999992008040912004-14950-040883FM-15+0914SBQV V0201101N003612200019N0112651N1+02601+02001999999ADDGA1021+006001999GF102991999999999999999999MA1102001999999REMMET051METAR SBQV 091200Z 11007KT 9999 FEW020 26/20 Q1020;
0120833440999992008040913004-14950-040883FM-15+0914SBQV V0201401N001512200019N0112651N1+02701+01901999999ADDGA1021+007501999GF102991999999999999999999MA1102001999999REMMET051METAR SBQV 091300Z 14003KT 9999 FEW025 27/19 Q1020;
0120833440999992008040914004-14950-040883FM-15+0914SBQV V0201301N003612200019N0112651N1+02801+02001999999ADDGA1041+007501999GF104991999999999999999999MA1102001999999REMMET051METAR SBQV 091400Z 13007KT 9999 SCT025 28/20 Q1020;
0120833440999992008040915004-14950-040883FM-15+0914SBQV V0201401N004612200019N0112651N1+02901+01901999999ADDGA1041+009001999GF104991999999999999999999MA1101901999999REMMET051METAR SBQV 091500Z 14009KT 9999 SCT030 29/19 Q1019;
0120833440999992008040916004-14950-040883FM-15+0914SBQV V0201701N003610090019N0112651N1+02701+01901999999ADDGA1071+009001999GF107991999999999999999999MA1101801999999REMMET051METAR SBQV 091600Z 17007KT 9999 BKN030 27/19 Q1018;
0120833440999992008040917004-14950-040883FM-15+0914SBQV V0201501N004612200019N0112651N1+02801+01801999999ADDGA1041+010501999GF104991999999999999999999MA1101691999999REMMET051METAR SBQV 091700Z 15009KT 9999 SCT035 28/18 Q1017;
0120833440999992008040918004-14950-040883FM-15+0914SBQV V0201701N005112200019N0112651N1+02701+01801999999ADDGA1041+009001999GF104991999999999999999999MA1101691999999REMMET051METAR SBQV 091800Z 17010KT 9999 SCT030 27/18 Q1017;
0120833440999992008040919004-14950-040883FM-15+0914SBQV V0201801N004612200019N0112651N1+02801+01801999999ADDGA1041+007501999GF104991999999999999999999MA1101691999999REMMET051METAR SBQV 091900Z 18009KT 9999 SCT025 28/18 Q1017;
0120833440999992008040920004-14950-040883FM-15+0914SBQV V0201601N004612200019N0112651N1+02701+01701999999ADDGA1021+006001999GF102991999999999999999999MA1101691999999REMMET051METAR SBQV 092000Z 16009KT 9999 FEW020 27/17 Q1017;
0120833440999992008040921004-14950-040883FM-15+0914SBQV V0201801N003112200019N0112651N1+02401+01901999999ADDGA1021+004801999GF102991999999999999999999MA1101691999999REMMET051METAR SBQV 092100Z 18006KT 9999 FEW016 24/19 Q1017;
0120833440999992008040922004-14950-040883FM-15+0914SBQV V0201601N003112200019N0112651N1+02301+01901999999ADDGA1021+004501999GF102991999999999999999999MA1101691999999REMMET051METAR SBQV 092200Z 16006KT 9999 FEW015 23/19 Q1017;
0120833440999992008040923004-14950-040883FM-15+0914SBQV V0201701N002112200019N0112651N1+02201+02001999999ADDGA1021+003901999GF102991999999999999999999MA1101801999999REMMET051METAR SBQV 092300Z 17004KT 9999 FEW013 22/20 Q1018;
0084833440999992008041010154-14950-040883FM-16+0914SBQV V0201401N004612200019N0112651N1+02101+01901999999ADDMA1101801999999REMMET057METAR SBQV 101015Z SPECI 14009KT 9999 FEW012 21/19 Q1018;
0120833440999992008041011004-14950-040883FM-15+0914SBQV V0201301N003612200019N0112651N1+02201+02001999999ADDGA1041+004201999GF104991999999999999999999MA1101801999999REMMET051METAR SBQV 101100Z 13007KT 9999 SCT014 22/20 Q1018;
0120833440999992008041012004-14950-040883FM-15+0914SBQV V0201501N003112200019N0112651N1+02301+02001999999ADDGA1041+004501999GF104991999999999999999999MA1101801999999REMMET051METAR SBQV 101200Z 15006KT 9999 SCT015 23/20 Q1018;
0120833440999992008041013004-14950-040883FM-15+0914SBQV V0201801N003612200019N0112651N1+02501+01901999999ADDGA1041+004801999GF104991999999999999999999MA1101801999999REMMET051METAR SBQV 101300Z 18007KT 9999 SCT016 25/19 Q1018;
0120833440999992008041014004-14950-040883FM-15+0914SBQV V0201601N004110054019N0112651N1+02601+01901999999ADDGA1071+005401999GF107991999999999999999999MA1101801999999REMMET051METAR SBQV 101400Z 16008KT 9999 BKN018 26/19 Q1018;
0120833440999992008041015004-14950-040883FM-15+0914SBQV V0201601N004112200019N0112651N1+02701+01801999999ADDGA1041+006001999GF104991999999999999999999MA1101691999999REMMET051METAR SBQV 101500Z 16008KT 9999 SCT020 27/18 Q1017;
0120833440999992008041016004-14950-040883FM-15+0914SBQV V0201701N004112200019N0112651N1+02801+01901999999ADDGA1041+006001999GF104991999999999999999999MA1101691999999REMMET051METAR SBQV 101600Z 17008KT 9999 SCT020 28/19 Q1017;
0120833440999992008041017004-14950-040883FM-15+0914SBQV V0201901N003112200019N0112651N1+02701+01801999999ADDGA1041+006001999GF104991999999999999999999MA1101591999999REMMET051METAR SBQV 101700Z 19006KT 9999 SCT020 27/18 Q1016;
0120833440999992008041018004-14950-040883FM-15+0914SBQV V0201801N003612200019N0112651N1+02801+01801999999ADDGA1041+006001999GF104991999999999999999999MA1101491999999REMMET051METAR SBQV 101800Z 18007KT 9999 SCT020 28/18 Q1015;
0120833440999992008041019004-14950-040883FM-15+0914SBQV V0201701N003612200019N0112651N1+02701+01801999999ADDGA1021+006001999GF102991999999999999999999MA1101491999999REMMET051METAR SBQV 101900Z 17007KT 9999 FEW020 27/18 Q1015;
0120833440999992008041020004-14950-040883FM-15+0914SBQV V0201601N003612200019N0112651N1+02601+01801999999ADDGA1021+006001999GF102991999999999999999999MA1101491999999REMMET051METAR SBQV 102000Z 16007KT 9999 FEW020 26/18 Q1015;
0143833440999992008041021004-14950-040883FM-15+0914SBQV V0201701N003112200019N0112651N1+02401+01801999999ADDGA1021+004801999GA2041+090001999GF104991999999999999999999MA1101491999999REMMET058METAR SBQV 102100Z 17006KT 9999 FEW016 SCT300 24/18 Q1015;
0072833440999992008041022004-14950-040883FM-15+0914SBQV V0201601N00311220001CN0099001N1+02201+01801999999ADDMA1101491999999REMMET045METAR SBQV 102200Z 16006KT CAVOK 22/18 Q1015;
0072833440999992008041023004-14950-040883FM-15+0914SBQV V0201401N00101220001CN0099001N1+02101+01801999999ADDMA1101491999999REMMET045METAR SBQV 102300Z 14002KT CAVOK 21/18 Q1015;
0120833440999992008041102004-14950-040883FM-15+0914SBQV V0201301N004112200019N0112651N1+02001+02001999999ADDGA1021+003001999GF102991999999999999999999MA1101591999999REMMET051METAR SBQV 110200Z 13008KT 9999 FEW010 20/20 Q1016;
0120833440999992008041103004-14950-040883FM-15+0914SBQV V0201301N004112200019N0112651N1+02001+02001999999ADDGA1041+001501999GF104991999999999999999999MA1101591999999REMMET051METAR SBQV 110300Z 13008KT 9999 SCT005 20/20 Q1016;
0120833440999992008041105004-14950-040883FM-15+0914SBQV V0201301N004112200019N0112651N1+02001+02001999999ADDGA1041+001801999GF104991999999999999999999MA1101491999999REMMET051METAR SBQV 110500Z 13008KT 9999 SCT006 20/20 Q1015;
0120833440999992008041111004-14950-040883FM-15+0914SBQV V0201601N002112200019N0112651N1+02201+01901999999ADDGA1021+006001999GF102991999999999999999999MA1101591999999REMMET051METAR SBQV 111100Z 16004KT 9999 FEW020 22/19 Q1016;
0143833440999992008041112004-14950-040883FM-15+0914SBQV V0201401N003112200019N0112651N1+02501+02001999999ADDGA1021+007501999GA2041+090001999GF104991999999999999999999MA1101691999999REMMET058METAR SBQV 111200Z 14006KT 9999 FEW025 SCT300 25/20 Q1017;
0143833440999992008041113004-14950-040883FM-15+0914SBQV V0201401N002612200019N0112651N1+02601+02001999999ADDGA1041+007501999GA2041+090001999GF104991999999999999999999MA1101691999999REMMET058METAR SBQV 111300Z 14005KT 9999 SCT025 SCT300 26/20 Q1017;
0143833440999992008041114004-14950-040883FM-15+0914SBQV V0201601N001512200019N0112651N1+02801+01901999999ADDGA1041+009001999GA2041+090001999GF104991999999999999999999MA1101591999999REMMET058METAR SBQV 111400Z 16003KT 9999 SCT030 SCT300 28/19 Q1016;
0143833440999992008041115004-14950-040883FM-15+0914SBQV V0201901N002612200019N0112651N1+02701+01901999999ADDGA1041+009001999GA2041+090001999GF104991999999999999999999MA1101491999999REMMET058METAR SBQV 111500Z 19005KT 9999 SCT030 SCT300 27/19 Q1015;
0120833440999992008041116004-14950-040883FM-15+0914SBQV V0201801N001512200019N0112651N1+02901+01801999999ADDGA1021+010501999GF102991999999999999999999MA1101391999999REMMET051METAR SBQV 111600Z 18003KT 9999 FEW035 29/18 Q1014;
0143833440999992008041117004-14950-040883FM-15+0914SBQV V0201801N002612200019N0112651N1+02801+01901999999ADDGA1041+010501999GA2041+090001999GF104991999999999999999999MA1101291999999REMMET058METAR SBQV 111700Z 18005KT 9999 SCT035 SCT300 28/19 Q1013;
0143833440999992008041118004-14950-040883FM-15+0914SBQV V0201601N002612200019N0112651N1+01902+01801999999ADDGA1041+010501999GA2041+090001999GF104991999999999999999999MA1101291999999REMMET058METAR SBQV 111800Z 16005KT 9999 SCT035 SCT300 19/18 Q1013;
0120833440999992008041120004-14950-040883FM-15+0914SBQV V0201801N003612200019N0112651N1+02601+01901999999ADDGA1041+006001999GF104991999999999999999999MA1101291999999REMMET051METAR SBQV 112000Z 18007KT 9999 SCT020 26/19 Q1013;
0120833440999992008041121004-14950-040883FM-15+0914SBQV V0201801N003112200019N0112651N1+02401+01801999999ADDGA1021+004801999GF102991999999999999999999MA1101291999999REMMET051METAR SBQV 112100Z 18006KT 9999 FEW016 24/18 Q1013;
0120833440999992008041122004-14950-040883FM-15+0914SBQV V0201601N002612200019N0112651N1+02301+01901999999ADDGA1021+004501999GF102991999999999999999999MA1101391999999REMMET051METAR SBQV 112200Z 16005KT 9999 FEW015 23/19 Q1014;
0084833440999992008041210154-14950-040883FM-16+0914SBQV V0200801N001012200019N0112651N1+02001+02001999999ADDMA1101601999999REMMET057METAR SBQV 121015Z SPECI 08002KT 9999 SCT005 20/20 Q1016;
0120833440999992008041211004-14950-040883FM-15+0914SBQV V0203601N001512200019N0112651N1+02301+02101999999ADDGA1041+003001999GF104991999999999999999999MA1101591999999REMMET051METAR SBQV 121100Z 36003KT 9999 SCT010 23/21 Q1016;
0120833440999992008041212004-14950-040883FM-15+0914SBQV V0209999C000012200019N0112651N1+02501+02001999999ADDGA1041+004501999GF104991999999999999999999MA1101591999999REMMET051METAR SBQV 121200Z 00000KT 9999 SCT015 25/20 Q1016;
0120833440999992008041213004-14950-040883FM-15+0914SBQV V0203001N001512200019N0112651N1+02601+02001999999ADDGA1041+004801999GF104991999999999999999999MA1101591999999REMMET051METAR SBQV 121300Z 30003KT 9999 SCT016 26/20 Q1016;
0120833440999992008041214004-14950-040883FM-15+0914SBQV V0203101N001010054019N0112651N1+02801+02001999999ADDGA1071+005401999GF107991999999999999999999MA1101591999999REMMET051METAR SBQV 121400Z 31002KT 9999 BKN018 28/20 Q1016;
0120833440999992008041215004-14950-040883FM-15+0914SBQV V0202801N001010060019N0112651N1+03001+01901999999ADDGA1071+006001999GF107991999999999999999999MA1101491999999REMMET051METAR SBQV 121500Z 28002KT 9999 BKN020 30/19 Q1015;
0120833440999992008041216004-14950-040883FM-15+0914SBQV V0201801N002610060019N0112651N1+02801+01801999999ADDGA1071+006001999GF107991999999999999999999MA1101391999999REMMET051METAR SBQV 121600Z 18005KT 9999 BKN020 28/18 Q1014;
0120833440999992008041217004-14950-040883FM-15+0914SBQV V0202301N001010060019N0112651N1+02801+01701999999ADDGA1071+006001999GF107991999999999999999999MA1101291999999REMMET051METAR SBQV 121700Z 23002KT 9999 BKN020 28/17 Q1013;
0146833440999992008041218004-14950-040883FM-15+0914SBQV V0201801N001512200019N0112651N1+03001+01801999999ADDGA1021+007501999GA2021+009001021GF102991999999999999999999MA1101191999999REMMET061METAR SBQV 121800Z 18003KT 9999 FEW025 FEW030TCU 30/18 Q1012;
0120833440999992008041219004-14950-040883FM-15+0914SBQV V0200901N004612200019N0112651N1+02701+01901999999ADDGA1041+007501999GA2021+009001021MA1101291999999REMMET061METAR SBQV 121900Z 09009KT 9999 SCT025 FEW030TCU 27/19 Q1013;
0146833440999992008041220004-14950-040883FM-15+0914SBQV V0200801N005112200019N0112651N1+02501+01901999999ADDGA1021+007501999GA2021+009001021GF102991999999999999999999MA1101291999999REMMET061METAR SBQV 122000Z 08010KT 9999 FEW025 FEW030TCU 25/19 Q1013;
0143833440999992008041221004-14950-040883FM-15+0914SBQV V0201001N002612200019N0112651N1+02501+01901999999ADDGA1021+006001999GA2041+027001999GF104991999999999999999999MA1101291999999REMMET058METAR SBQV 122100Z 10005KT 9999 FEW020 SCT090 25/19 Q1013;
0072833440999992008041222004-14950-040883FM-15+0914SBQV V0201001N00311220001CN0099001N1+02401+02001999999ADDMA1101391999999REMMET045METAR SBQV 122200Z 10006KT CAVOK 24/20 Q1014;
0084833440999992008041310154-14950-040883FM-16+0914SBQV V0209999C000012200019N9999999N1+02101+02001999999ADDMA1101701999999REMMET057METAR SBQV 131015Z SPECI 00000KT 8000 FEW020 21/20 Q1017;
0072833440999992008041311004-14950-040883FM-15+0914SBQV V0209999C00001220001CN0099001N1+02501+02001999999ADDMA1101691999999REMMET045METAR SBQV 131100Z 00000KT CAVOK 25/20 Q1017;
0120833440999992008041312004-14950-040883FM-15+0914SBQV V0200201N001512200019N0112651N1+02601+02001999999ADDGA1021+009001999GF102991999999999999999999MA1101801999999REMMET051METAR SBQV 131200Z 02003KT 9999 FEW030 26/20 Q1018;
0120833440999992008041313004-14950-040883FM-15+0914SBQV V0201001N001512200019N0112651N1+02701+02101999999ADDGA1021+009001999GF102991999999999999999999MA1101801999999REMMET051METAR SBQV 131300Z 10003KT 9999 FEW030 27/21 Q1018;
0120833440999992008041314004-14950-040883FM-15+0914SBQV V0209999C000012200019N0112651N1+02801+02001999999ADDGA1041+010501999GF104991999999999999999999MA1101691999999REMMET051METAR SBQV 131400Z 00000KT 9999 SCT035 28/20 Q1017;
0120833440999992008041315004-14950-040883FM-15+0914SBQV V0201101N001510105019N0112651N1+02901+01801999999ADDGA1071+010501999GF107991999999999999999999MA1101491999999REMMET051METAR SBQV 131500Z 11003KT 9999 BKN035 29/18 Q1015;
0120833440999992008041316004-14950-040883FM-15+0914SBQV V0201601N002612200019N0112651N1+03001+01901999999ADDGA1041+010501999GF104991999999999999999999MA1101491999999REMMET051METAR SBQV 131600Z 16005KT 9999 SCT035 30/19 Q1015;
0120833440999992008041317004-14950-040883FM-15+0914SBQV V0201601N003112200019N0112651N1+02901+01801999999ADDGA1021+010501999GF102991999999999999999999MA1101291999999REMMET051METAR SBQV 131700Z 16006KT 9999 FEW035 29/18 Q1013;
0120833440999992008041318004-14950-040883FM-15+0914SBQV V0201501N004112200019N0112651N1+03001+01901999999ADDGA1041+010501999GF104991999999999999999999MA1101291999999REMMET051METAR SBQV 131800Z 15008KT 9999 SCT035 30/19 Q1013;
0120833440999992008041319004-14950-040883FM-15+0914SBQV V0201701N004112200019N0112651N1+02901+01901999999ADDGA1021+009001999GF102991999999999999999999MA1101291999999REMMET051METAR SBQV 131900Z 17008KT 9999 FEW030 29/19 Q1013;
0120833440999992008041320004-14950-040883FM-15+0914SBQV V0201701N003112200019N0112651N1+02601+02001999999ADDGA1021+007501999GF102991999999999999999999MA1101291999999REMMET051METAR SBQV 132000Z 17006KT 9999 FEW025 26/20 Q1013;
0120833440999992008041321004-14950-040883FM-15+0914SBQV V0201401N003612200019N0112651N1+02501+02001999999ADDGA1021+006001999GF102991999999999999999999MA1101391999999REMMET051METAR SBQV 132100Z 14007KT 9999 FEW020 25/20 Q1014;
0072833440999992008041322004-14950-040883FM-15+0914SBQV V0201201N00411220001CN0099001N1+02301+01901999999ADDMA1101391999999REMMET045METAR SBQV 132200Z 12008KT CAVOK 23/19 Q1014;
0143833440999992008041411004-14950-040883FM-15+0914SBQV V0203501N001512200019N0112651N1+02301+01901999999ADDGA1021+004801999GA2041+090001999GF104991999999999999999999MA1101801999999REMMET058METAR SBQV 141100Z 35003KT 9999 FEW016 SCT300 23/19 Q1018;
0143833440999992008041412004-14950-040883FM-15+0914SBQV V0203601N002112200019N0112651N1+02501+01901999999ADDGA1021+006001999GA2041+090001999GF104991999999999999999999MA1101801999999REMMET058METAR SBQV 141200Z 36004KT 9999 FEW020 SCT300 25/19 Q1018;
0120833440999992008041413004-14950-040883FM-15+0914SBQV V0200101N001512200019N0112651N1+02701+01901999999ADDGA1021+007501999GF102991999999999999999999MA1101801999999REMMET051METAR SBQV 141300Z 01003KT 9999 FEW025 27/19 Q1018;
0120833440999992008041414004-14950-040883FM-15+0914SBQV V0203401N001012200019N0112651N1+02701+01801999999ADDGA1021+007501999GF102991999999999999999999MA1101801999999REMMET051METAR SBQV 141400Z 34002KT 9999 FEW025 27/18 Q1018;
0120833440999992008041415004-14950-040883FM-15+0914SBQV V0203501N001512200019N0112651N1+02901+01901999999ADDGA1041+009001999GF104991999999999999999999MA1101591999999REMMET051METAR SBQV 141500Z 35003KT 9999 SCT030 29/19 Q1016;
0120833440999992008041416004-14950-040883FM-15+0914SBQV V0202301N000512200019N0112651N1+02901+01801999999ADDGA1041+009001999GF104991999999999999999999MA1101591999999REMMET051METAR SBQV 141600Z 23001KT 9999 SCT030 29/18 Q1016;
0120833440999992008041417004-14950-040883FM-15+0914SBQV V0203101N003612200019N0112651N1+03001+01801999999ADDGA1041+009001999GF104991999999999999999999MA1101391999999REMMET051METAR SBQV 141700Z 31007KT 9999 SCT030 30/18 Q1014;
0120833440999992008041418004-14950-040883FM-15+0914SBQV V0202801N001512200019N0112651N1+03001+01701999999ADDGA1041+009001999GF104991999999999999999999MA1101291999999REMMET051METAR SBQV 141800Z 28003KT 9999 SCT030 30/17 Q1013;
0120833440999992008041419004-14950-040883FM-15+0914SBQV V0209999C000012200019N0112651N1+03001+01701999999ADDGA1021+009001999GF102991999999999999999999MA1101291999999REMMET051METAR SBQV 141900Z 00000KT 9999 FEW030 30/17 Q1013;
0120833440999992008041420004-14950-040883FM-15+0914SBQV V0201201N004112200019N0112651N1+02801+01801999999ADDGA1021+007501999GF102991999999999999999999MA1101291999999REMMET051METAR SBQV 142000Z 12008KT 9999 FEW025 28/18 Q1013;
0120833440999992008041421004-14950-040883FM-15+0914SBQV V0201301N003612200019N0112651N1+02601+01901999999ADDGA1021+006001999GF102991999999999999999999MA1101391999999REMMET051METAR SBQV 142100Z 13007KT 9999 FEW020 26/19 Q1014;
0072833440999992008041422004-14950-040883FM-15+0914SBQV V0201201N00311220001CN0099001N1+02501+01901999999ADDMA1101391999999REMMET045METAR SBQV 142200Z 12006KT CAVOK 25/19 Q1014;
0072833440999992008041423004-14950-040883FM-15+0914SBQV V0201101N00361220001CN0099001N1+02401+02001999999ADDMA1101491999999REMMET045METAR SBQV 142300Z 11007KT CAVOK 24/20 Q1015;
0120833440999992008041511004-14950-040883FM-15+0914SBQV V0200201N001012200019N0112651N1+02401+02001999999ADDGA1021+005401999GF102991999999999999999999MA1101801999999REMMET051METAR SBQV 151100Z 02002KT 9999 FEW018 24/20 Q1018;
0120833440999992008041512004-14950-040883FM-15+0914SBQV V0200201N001512200019N0112651N1+02601+02101999999ADDGA1021+007501999GF102991999999999999999999MA1101901999999REMMET051METAR SBQV 151200Z 02003KT 9999 FEW025 26/21 Q1019;
0120833440999992008041513004-14950-040883FM-15+0914SBQV V0200101N002110075019N0112651N1+02601+02001999999ADDGA1071+007501999GF107991999999999999999999MA1101801999999REMMET051METAR SBQV 151300Z 01004KT 9999 BKN025 26/20 Q1018;
0120833440999992008041514004-14950-040883FM-15+0914SBQV V0200401N002110075019N0112651N1+02801+02101999999ADDGA1071+007501999GF107991999999999999999999MA1101691999999REMMET051METAR SBQV 151400Z 04004KT 9999 BKN025 28/21 Q1017;
0120833440999992008041515004-14950-040883FM-15+0914SBQV V0200601N002110075019N0112651N1+02801+01901999999ADDGA1071+007501999GF107991999999999999999999MA1101591999999REMMET051METAR SBQV 151500Z 06004KT 9999 BKN025 28/19 Q1016;
0120833440999992008041516004-14950-040883FM-15+0914SBQV V0202001N001010090019N0112651N1+03001+01901999999ADDGA1071+009001999GF107991999999999999999999MA1101591999999REMMET051METAR SBQV 151600Z 20002KT 9999 BKN030 30/19 Q1016;
0139833440999992008041517004-14950-040883FM-15+0914SBQV V0201601N003612200019N0112651N1+02801+01801999999ADDGA1041+009001999GA2021+010501021MA1101491999999REMMET061METAR SBQV 151700Z 16007KT 9999 SCT030 FEW035TCU 28/18 Q1015;EQDQ01+000022SCOTCV
0139833440999992008041518004-14950-040883FM-15+0914SBQV V0201601N00311220001CN0112651N1+02801+01701999999ADDGA1071+009001999GA2021+010501021MA1101391999999REMMET061METAR SBQV 151800Z 16006KT 9999 BKN030 FEW035TCU 28/17 Q1014;EQDQ01+000022SCOTCV
0120833440999992008041519004-14950-040883FM-15+0914SBQV V0201701N005112200019N0112651N1+02801+01901999999ADDGA1041+007501999GF104991999999999999999999MA1101391999999REMMET051METAR SBQV 151900Z 17010KT 9999 SCT025 28/19 Q1014;
0120833440999992008041520004-14950-040883FM-15+0914SBQV V0201601N005112200019N0112651N1+02601+01901999999ADDGA1021+006001999GF102991999999999999999999MA1101491999999REMMET051METAR SBQV 152000Z 16010KT 9999 FEW020 26/19 Q1015;
0120833440999992008041521004-14950-040883FM-15+0914SBQV V0201501N003612200019N0112651N1+02501+01901999999ADDGA1021+004801999GF102991999999999999999999MA1101491999999REMMET051METAR SBQV 152100Z 15007KT 9999 FEW016 25/19 Q1015;
0120833440999992008041522004-14950-040883FM-15+0914SBQV V0201201N003112200019N0112651N1+02401+01901999999ADDGA1021+004501999GF102991999999999999999999MA1101591999999REMMET051METAR SBQV 152200Z 12006KT 9999 FEW015 24/19 Q1016;
0120833440999992008041523004-14950-040883FM-15+0914SBQV V0201401N004612200019N0112651N1+02401+02001999999ADDGA1021+003901999GF102991999999999999999999MA1101591999999REMMET051METAR SBQV 152300Z 14009KT 9999 FEW013 24/20 Q1016;
0091833440999992008041610154-14950-040883FM-16+0914SBQV V0201201N003612200019N0112651N1+02001+02001999999ADDMA1102001999999REMMET064METAR SBQV 161015Z SPECI 12007KT 9999 SCT015 SCT300 20/20 Q1020;
0120833440999992008041611004-14950-040883FM-15+0914SBQV V0201401N002610048019N0112651N1+02201+01901999999ADDGA1071+004801999GF107991999999999999999999MA1102001999999REMMET051METAR SBQV 161100Z 14005KT 9999 BKN016 22/19 Q1020;
0120833440999992008041612004-14950-040883FM-15+0914SBQV V0201401N004110054019N0112651N1+02301+02001999999ADDGA1071+005401999GF107991999999999999999999MA1102101999999REMMET051METAR SBQV 161200Z 14008KT 9999 BKN018 23/20 Q1021;
0120833440999992008041613004-14950-040883FM-15+0914SBQV V0201401N004110060019N0112651N1+02501+02001999999ADDGA1071+006001999GF107991999999999999999999MA1102101999999REMMET051METAR SBQV 161300Z 14008KT 9999 BKN020 25/20 Q1021;
0120833440999992008041614004-14950-040883FM-15+0914SBQV V0201401N003610060019N0112651N1+02601+02001999999ADDGA1071+006001999GF107991999999999999999999MA1102001999999REMMET051METAR SBQV 161400Z 14007KT 9999 BKN020 26/20 Q1020;
0120833440999992008041615004-14950-040883FM-15+0914SBQV V0201501N004612200019N0112651N1+02801+02001999999ADDGA1041+007501999GF104991999999999999999999MA1102001999999REMMET051METAR SBQV 161500Z 15009KT 9999 SCT025 28/20 Q1020;
0120833440999992008041616004-14950-040883FM-15+0914SBQV V0201801N004112200019N0112651N1+02701+02001999999ADDGA1041+007501999GF104991999999999999999999MA1101901999999REMMET051METAR SBQV 161600Z 18008KT 9999 SCT025 27/20 Q1019;
0120833440999992008041617004-14950-040883FM-15+0914SBQV V0201801N004112200019N0112651N1+02801+01901999999ADDGA1041+007501999GF104991999999999999999999MA1101801999999REMMET051METAR SBQV 161700Z 18008KT 9999 SCT025 28/19 Q1018;
0120833440999992008041618004-14950-040883FM-15+0914SBQV V0201601N004612200019N0112651N1+02801+01901999999ADDGA1041+007501999GF104991999999999999999999MA1101801999999REMMET051METAR SBQV 161800Z 16009KT 9999 SCT025 28/19 Q1018;
0139833440999992008041619004-14950-040883FM-15+0914SBQV V0201501N005112200019N0112651N1+02701+01701999999ADDGA1041+007501999GA2021+009001021MA1101801999999REMMET061METAR SBQV 161900Z 15010KT 9999 SCT025 FEW030TCU 27/17 Q1018;EQDQ01+000022SCOTCV
0169833440999992008041620004-14950-040883FM-15+0914SBQV V0201501N006712200019N0112651N1+02401+02001999999ADDGA1021+007501999GA2021+009001021GA3041+090001999GF104991999999999999999999MA1101801999999REMMET068METAR SBQV 162000Z 15013KT 9999 FEW025 FEW030TCU SCT300 24/20 Q1018;
0146833440999992008041621004-14950-040883FM-15+0914SBQV V0201401N004612200019N0112651N1+02201+01901999999ADDGA1021+004801999GA2021+006001021GF102991999999999999999999MA1101901999999REMMET061METAR SBQV 162100Z 14009KT 9999 FEW016 FEW020TCU 22/19 Q1019;
0072833440999992008041622004-14950-040883FM-15+0914SBQV V0201401N00361220001CN0099001N1+02201+02001999999ADDMA1101901999999REMMET045METAR SBQV 162200Z 14007KT CAVOK 22/20 Q1019;
0120833440999992008041623004-14950-040883FM-15+0914SBQV V0201401N004612200019N0112651N1+02101+02001999999ADDGA1021+002101999GF102991999999999999999999MA1102001999999REMMET051METAR SBQV 162300Z 14009KT 9999 FEW007 21/20 Q1020;
0120833440999992008041711004-14950-040883FM-15+0914SBQV V0201901N004112200019N0112651N1+02101+02001999999ADDGA1041+003001999GF104991999999999999999999MA1102101999999REMMET051METAR SBQV 171100Z 19008KT 9999 SCT010 21/20 Q1021;
0120833440999992008041712004-14950-040883FM-15+0914SBQV V0201801N004612200019N0112651N1+02201+02001999999ADDGA1041+003901999GF104991999999999999999999MA1102201999999REMMET051METAR SBQV 171200Z 18009KT 9999 SCT013 22/20 Q1022;
0120833440999992008041713004-14950-040883FM-15+0914SBQV V0201701N005110045019N0112651N1+02401+02001999999ADDGA1071+004501999GF107991999999999999999999MA1102201999999REMMET051METAR SBQV 171300Z 17010KT 9999 BKN015 24/20 Q1022;
0120833440999992008041714004-14950-040883FM-15+0914SBQV V0201701N006710045019N0112651N1+02401+01901999999ADDGA1071+004501999GF107991999999999999999999MA1102201999999REMMET051METAR SBQV 171400Z 17013KT 9999 BKN015 24/19 Q1022;
0120833440999992008041715004-14950-040883FM-15+0914SBQV V0201501N005712200019N0112651N1+02801+01801999999ADDGA1041+005401999GF104991999999999999999999MA1102101999999REMMET051METAR SBQV 171500Z 15011KT 9999 SCT018 28/18 Q1021;
0146833440999992008041716004-14950-040883FM-15+0914SBQV V0201501N005712200019N0112651N1+02801+01701999999ADDGA1021+006001999GA2021+007501021GF102991999999999999999999MA1102001999999REMMET061METAR SBQV 171600Z 15011KT 9999 FEW020 FEW025TCU 28/17 Q1020;
0120833440999992008041717004-14950-040883FM-15+0914SBQV V0201501N004112200019N0112651N1+02801+01701999999ADDGA1041+006001999GF104991999999999999999999MA1101901999999REMMET051METAR SBQV 171700Z 15008KT 9999 SCT020 28/17 Q1019;
0120833440999992008041718004-14950-040883FM-15+0914SBQV V0201501N004112200019N0112651N1+02801+01801999999ADDGA1041+006001999GF104991999999999999999999MA1101801999999REMMET051METAR SBQV 171800Z 15008KT 9999 SCT020 28/18 Q1018;
0120833440999992008041719004-14950-040883FM-15+0914SBQV V0201501N004112200019N0112651N1+02701+01801999999ADDGA1041+006001999GF104991999999999999999999MA1101801999999REMMET051METAR SBQV 171900Z 15008KT 9999 SCT020 27/18 Q1018;
0120833440999992008041720004-14950-040883FM-15+0914SBQV V0201501N006212200019N0112651N1+02501+01901999999ADDGA1041+006001999GF104991999999999999999999MA1101801999999REMMET051METAR SBQV 172000Z 15012KT 9999 SCT020 25/19 Q1018;
0120833440999992008041721004-14950-040883FM-15+0914SBQV V0201401N004612200019N0112651N1+02201+01901999999ADDGA1041+004501999GF104991999999999999999999MA1101901999999REMMET051METAR SBQV 172100Z 14009KT 9999 SCT015 22/19 Q1019;
0120833440999992008041722004-14950-040883FM-15+0914SBQV V0201501N004112200019N0112651N1+02101+02001999999ADDGA1041+003901999GF104991999999999999999999MA1101901999999REMMET051METAR SBQV 172200Z 15008KT 9999 SCT013 21/20 Q1019;
0072833440999992008041723004-14950-040883FM-15+0914SBQV V0201401N00411220001CN0099001N1+02101+02001999999ADDMA1102001999999REMMET045METAR SBQV 172300Z 14008KT CAVOK 21/20 Q1020;
0120833440999992008041800004-14950-040883FM-15+0914SBQV V0201501N003610030019N0112651N1+02001+02001999999ADDGA1071+003001999GF107991999999999999999999MA1102001999999REMMET051METAR SBQV 180000Z 15007KT 9999 BKN010 20/20 Q1020;
0120833440999992008041801004-14950-040883FM-15+0914SBQV V0201401N005110021019N0112651N1+02101+02001999999ADDGA1071+002101999GF107991999999999999999999MA1102001999999REMMET051METAR SBQV 180100Z 14010KT 9999 BKN007 21/20 Q1020;
0120833440999992008041811004-14950-040883FM-15+0914SBQV V0201501N004610045019N0112651N1+02101+01901999999ADDGA1071+004501999GF107991999999999999999999MA1102001999999REMMET051METAR SBQV 181100Z 15009KT 9999 BKN015 21/19 Q1020;
0120833440999992008041812004-14950-040883FM-15+0914SBQV V0201501N004110060019N0112651N1+02301+02001999999ADDGA1071+006001999GF107991999999999999999999MA1102101999999REMMET051METAR SBQV 181200Z 15008KT 9999 BKN020 23/20 Q1021;
0120833440999992008041813004-14950-040883FM-15+0914SBQV V0201401N004610075019N0112651N1+02501+01801999999ADDGA1071+007501999GF107991999999999999999999MA1102101999999REMMET051METAR SBQV 181300Z 14009KT 9999 BKN025 25/18 Q1021;
0120833440999992008041814004-14950-040883FM-15+0914SBQV V0201501N004612200019N0112651N1+02701+01801999999ADDGA1041+009001999GF104991999999999999999999MA1102001999999REMMET051METAR SBQV 181400Z 15009KT 9999 SCT030 27/18 Q1020;
0131833440999992008041815004-14950-040883FM-15+0914SBQV V0201301N005112200019N0112651N1+02801+01701999999ADDGA1041+009001999GF104991999999999999999999MA1101901999999OC101541REMMET054METAR SBQV 181500Z 13010G30KT 9999 SCT030 28/17 Q1019;
0120833440999992008041817004-14950-040883FM-15+0914SBQV V0201401N004112200019N0112651N1+02801+01601999999ADDGA1041+010501999GF104991999999999999999999MA1101691999999REMMET051METAR SBQV 181700Z 14008KT 9999 SCT035 28/16 Q1017;
0120833440999992008041818004-14950-040883FM-15+0914SBQV V0201501N003612200019N0112651N1+02801+01601999999ADDGA1021+010501999GF102991999999999999999999MA1101691999999REMMET051METAR SBQV 181800Z 15007KT 9999 FEW035 28/16 Q1017;
0120833440999992008041819004-14950-040883FM-15+0914SBQV V0201601N004112200019N0112651N1+02701+01501999999ADDGA1021+009001999GF102991999999999999999999MA1101691999999REMMET051METAR SBQV 181900Z 16008KT 9999 FEW030 27/15 Q1017;
0120833440999992008041820004-14950-040883FM-15+0914SBQV V0201701N004112200019N0112651N1+02601+01501999999ADDGA1021+007501999GF102991999999999999999999MA1101691999999REMMET051METAR SBQV 182000Z 17008KT 9999 FEW025 26/15 Q1017;
0120833440999992008041821004-14950-040883FM-15+0914SBQV V0201501N003612200019N0112651N1+02401+01801999999ADDGA1021+006001999GF102991999999999999999999MA1101691999999REMMET051METAR SBQV 182100Z 15007KT 9999 FEW020 24/18 Q1017;
0120833440999992008041822004-14950-040883FM-15+0914SBQV V0201401N003112200019N0112651N1+02301+01801999999ADDGA1021+005401999GF102991999999999999999999MA1101801999999REMMET051METAR SBQV 182200Z 14006KT 9999 FEW018 23/18 Q1018;
0120833440999992008041823004-14950-040883FM-15+0914SBQV V0201401N002112200019N0112651N1+02201+01801999999ADDGA1021+004801999GF102991999999999999999999MA1101801999999REMMET051METAR SBQV 182300Z 14004KT 9999 FEW016 22/18 Q1018;
0120833440999992008041911004-14950-040883FM-15+0914SBQV V0201601N002112200019N0112651N1+02201+01901999999ADDGA1021+003301999GF102991999999999999999999MA1102001999999REMMET051METAR SBQV 191100Z 16004KT 9999 FEW011 22/19 Q1020;
0120833440999992008041912004-14950-040883FM-15+0914SBQV V0201701N002612200019N0112651N1+02401+01901999999ADDGA1041+004501999GF104991999999999999999999MA1102001999999REMMET051METAR SBQV 191200Z 17005KT 9999 SCT015 24/19 Q1020;
0120833440999992008041913004-14950-040883FM-15+0914SBQV V0201701N003612200019N0112651N1+02601+01701999999ADDGA1041+004801999GF104991999999999999999999MA1102001999999REMMET051METAR SBQV 191300Z 17007KT 9999 SCT016 26/17 Q1020;
0120833440999992008041914004-14950-040883FM-15+0914SBQV V0201801N004112200019N0112651N1+02701+01601999999ADDGA1041+005401999GF104991999999999999999999MA1101901999999REMMET051METAR SBQV 191400Z 18008KT 9999 SCT018 27/16 Q1019;
0120833440999992008041915004-14950-040883FM-15+0914SBQV V0201801N004612200019N0112651N1+02801+01601999999ADDGA1041+006001999GF104991999999999999999999MA1101801999999REMMET051METAR SBQV 191500Z 18009KT 9999 SCT020 28/16 Q1018;
0120833440999992008041916004-14950-040883FM-15+0914SBQV V0201701N004612200019N0112651N1+02701+01601999999ADDGA1041+006001999GF104991999999999999999999MA1101691999999REMMET051METAR SBQV 191600Z 17009KT 9999 SCT020 27/16 Q1017;
0120833440999992008041917004-14950-040883FM-15+0914SBQV V0201401N004112200019N0112651N1+02801+01501999999ADDGA1041+007501999GF104991999999999999999999MA1101591999999REMMET051METAR SBQV 191700Z 14008KT 9999 SCT025 28/15 Q1016;
0120833440999992008041918004-14950-040883FM-15+0914SBQV V0201501N004612200019N0112651N1+02801+01501999999ADDGA1041+007501999GF104991999999999999999999MA1101591999999REMMET051METAR SBQV 191800Z 15009KT 9999 SCT025 28/15 Q1016;
0120833440999992008041919004-14950-040883FM-15+0914SBQV V0201501N004612200019N0112651N1+02701+01601999999ADDGA1041+007501999GF104991999999999999999999MA1101591999999REMMET051METAR SBQV 191900Z 15009KT 9999 SCT025 27/16 Q1016;
0120833440999992008041920004-14950-040883FM-15+0914SBQV V0201501N003612200019N0112651N1+02601+01501999999ADDGA1021+006001999GF102991999999999999999999MA1101591999999REMMET051METAR SBQV 192000Z 15007KT 9999 FEW020 26/15 Q1016;
0120833440999992008041921004-14950-040883FM-15+0914SBQV V0201501N003112200019N0112651N1+02401+01601999999ADDGA1021+005401999GF102991999999999999999999MA1101691999999REMMET051METAR SBQV 192100Z 15006KT 9999 FEW018 24/16 Q1017;
0120833440999992008041922004-14950-040883FM-15+0914SBQV V0201401N002112200019N0112651N1+02201+01701999999ADDGA1021+004801999GF102991999999999999999999MA1101691999999REMMET051METAR SBQV 192200Z 14004KT 9999 FEW016 22/17 Q1017;
0120833440999992008042001004-14950-040883FM-15+0914SBQV V0201301N003112200019N0112651N1+02001+01901999999ADDGA1021+004801999GF102991999999999999999999MA1101901999999REMMET051METAR SBQV 200100Z 13006KT 9999 FEW016 20/19 Q1019;
0072833440999992008042002004-14950-040883FM-15+0914SBQV V0201301N00411220001CN0099001N1+01901+01901999999ADDMA1101901999999REMMET045METAR SBQV 200200Z 13008KT CAVOK 19/19 Q1019;
0129833440999992008042005424-14950-040883FM-15+0914SBQV V0201401N002612200019N0008001N1+01701+01701999999ADDGA1021+003901999GF102991999999999999999999MA1101801999999MW1441REMMET054METAR SBQV 200542Z 14005KT 0800 FG FEW013 17/17 Q1018;
0129833440999992008042007004-14950-040883FM-15+0914SBQV V0201501N002112200019N0008001N1+01701+01701999999ADDGA1041+003301999GF104991999999999999999999MA1101801999999MW1441REMMET054METAR SBQV 200700Z 15004KT 0800 FG SCT011 17/17 Q1018;
0084833440999992008042010324-14950-040883FM-16+0914SBQV V0201501N004112200019N0112651N1+01901+01901999999ADDMA1102001999999REMMET057METAR SBQV 201032Z SPECI 15008KT 9999 SCT008 19/19 Q1020;
0120833440999992008042012004-14950-040883FM-15+0914SBQV V0201501N004112200019N0112651N1+02401+01901999999ADDGA1041+004501999GF104991999999999999999999MA1102001999999REMMET051METAR SBQV 201200Z 15008KT 9999 SCT015 24/19 Q1020;
0120833440999992008042013004-14950-040883FM-15+0914SBQV V0201501N005112200019N0112651N1+02601+01901999999ADDGA1041+004801999GF104991999999999999999999MA1102001999999REMMET051METAR SBQV 201300Z 15010KT 9999 SCT016 26/19 Q1020;
0120833440999992008042014004-14950-040883FM-15+0914SBQV V0201701N004110054019N0112651N1+02501+01801999999ADDGA1071+005401999GF107991999999999999999999MA1101901999999REMMET051METAR SBQV 201400Z 17008KT 9999 BKN018 25/18 Q1019;
0120833440999992008042015004-14950-040883FM-15+0914SBQV V0209999C000010060019N0112651N1+02601+01801999999ADDGA1071+006001999GF107991999999999999999999MA1101901999999REMMET051METAR SBQV 201500Z 00000KT 9999 BKN020 26/18 Q1019;
0120833440999992008042016004-14950-040883FM-15+0914SBQV V0201401N003610060019N0112651N1+02701+01901999999ADDGA1071+006001999GF107991999999999999999999MA1101801999999REMMET051METAR SBQV 201600Z 14007KT 9999 BKN020 27/19 Q1018;
0120833440999992008042017004-14950-040883FM-15+0914SBQV V0201401N004610060019N0112651N1+02601+01901999999ADDGA1071+006001999GF107991999999999999999999MA1101691999999REMMET051METAR SBQV 201700Z 14009KT 9999 BKN020 26/19 Q1017;
0120833440999992008042018004-14950-040883FM-15+0914SBQV V0201401N004112200019N0112651N1+02601+01801999999ADDGA1041+006001999GF104991999999999999999999MA1101691999999REMMET051METAR SBQV 201800Z 14008KT 9999 SCT020 26/18 Q1017;
0120833440999992008042019004-14950-040883FM-15+0914SBQV V0201501N005112200019N0112651N1+02601+01901999999ADDGA1041+006001999GF104991999999999999999999MA1101591999999REMMET051METAR SBQV 201900Z 15010KT 9999 SCT020 26/19 Q1016;
0120833440999992008042021004-14950-040883FM-15+0914SBQV V0201101N004612200019N0112651N1+02301+02001999999ADDGA1021+004801999GF102991999999999999999999MA1101691999999REMMET051METAR SBQV 202100Z 11009KT 9999 FEW016 23/20 Q1017;
0120833440999992008042022004-14950-040883FM-15+0914SBQV V0201101N003612200019N0112651N1+02201+02001999999ADDGA1021+004501999GF102991999999999999999999MA1101801999999REMMET051METAR SBQV 202200Z 11007KT 9999 FEW015 22/20 Q1018;
0120833440999992008042111004-14950-040883FM-15+0914SBQV V0201001N004112200019N0112651N1+02301+01801999999ADDGA1021+005401999GF102991999999999999999999MA1102001999999REMMET051METAR SBQV 211100Z 10008KT 9999 FEW018 23/18 Q1020;
0120833440999992008042112004-14950-040883FM-15+0914SBQV V0201101N005112200019N0112651N1+02501+01601999999ADDGA1021+006001999GF102991999999999999999999MA1102101999999REMMET051METAR SBQV 211200Z 11010KT 9999 FEW020 25/16 Q1021;
0120833440999992008042113004-14950-040883FM-15+0914SBQV V0201201N004612200019N0112651N1+02601+01501999999ADDGA1021+006001999GF102991999999999999999999MA1102101999999REMMET051METAR SBQV 211300Z 12009KT 9999 FEW020 26/15 Q1021;
0120833440999992008042114004-14950-040883FM-15+0914SBQV V0201201N004612200019N0112651N1+02701+01701999999ADDGA1041+007501999GF104991999999999999999999MA1102001999999REMMET051METAR SBQV 211400Z 12009KT 9999 SCT025 27/17 Q1020;
0120833440999992008042116004-14950-040883FM-15+0914SBQV V0201101N003612200019N0112651N1+02801+01701999999ADDGA1041+007501999GF104991999999999999999999MA1101801999999REMMET051METAR SBQV 211600Z 11007KT 9999 SCT025 28/17 Q1018;
0120833440999992008042117004-14950-040883FM-15+0914SBQV V0201601N004612200019N0112651N1+02801+01601999999ADDGA1041+007501999GF104991999999999999999999MA1101691999999REMMET051METAR SBQV 211700Z 16009KT 9999 SCT025 28/16 Q1017;
0120833440999992008042118004-14950-040883FM-15+0914SBQV V0201501N004112200019N0112651N1+02801+01601999999ADDGA1041+007501999GF104991999999999999999999MA1101691999999REMMET051METAR SBQV 211800Z 15008KT 9999 SCT025 28/16 Q1017;
0120833440999992008042119004-14950-040883FM-15+0914SBQV V0201701N004112200019N0112651N1+02701+01501999999ADDGA1021+006001999GF102991999999999999999999MA1101691999999REMMET051METAR SBQV 211900Z 17008KT 9999 FEW020 27/15 Q1017;
0120833440999992008042120004-14950-040883FM-15+0914SBQV V0201601N005112200019N0112651N1+02501+01301999999ADDGA1021+005401999GF102991999999999999999999MA1101801999999REMMET051METAR SBQV 212000Z 16010KT 9999 FEW018 25/13 Q1018;
0120833440999992008042121004-14950-040883FM-15+0914SBQV V0201601N003112200019N0112651N1+02301+01501999999ADDGA1021+004801999GF102991999999999999999999MA1101801999999REMMET051METAR SBQV 212100Z 16006KT 9999 FEW016 23/15 Q1018;
0120833440999992008042122004-14950-040883FM-15+0914SBQV V0201601N003112200019N0112651N1+02201+01501999999ADDGA1021+004501999GF102991999999999999999999MA1101801999999REMMET051METAR SBQV 212200Z 16006KT 9999 FEW015 22/15 Q1018;
0120833440999992008042211004-14950-040883FM-15+0914SBQV V0201501N004112200019N0112651N1+02101+01901999999ADDGA1021+003301999GF102991999999999999999999MA1102001999999REMMET051METAR SBQV 221100Z 15008KT 9999 FEW011 21/19 Q1020;
0120833440999992008042212004-14950-040883FM-15+0914SBQV V0201401N004112200019N0112651N1+02401+01801999999ADDGA1021+004501999GF102991999999999999999999MA1102001999999REMMET051METAR SBQV 221200Z 14008KT 9999 FEW015 24/18 Q1020;
0120833440999992008042213004-14950-040883FM-15+0914SBQV V0201501N002612200019N0112651N1+02601+01801999999ADDGA1041+004801999GF104991999999999999999999MA1102001999999REMMET051METAR SBQV 221300Z 15005KT 9999 SCT016 26/18 Q1020;
0120833440999992008042214004-14950-040883FM-15+0914SBQV V0201601N003612200019N0112651N1+02701+01801999999ADDGA1041+005401999GF104991999999999999999999MA1101901999999REMMET051METAR SBQV 221400Z 16007KT 9999 SCT018 27/18 Q1019;
0120833440999992008042215004-14950-040883FM-15+0914SBQV V0201801N003610060019N0112651N1+02701+01801999999ADDGA1071+006001999GF107991999999999999999999MA1101801999999REMMET051METAR SBQV 221500Z 18007KT 9999 BKN020 27/18 Q1018;
0120833440999992008042216004-14950-040883FM-15+0914SBQV V0201501N003110075019N0112651N1+02801+01701999999ADDGA1071+007501999GF107991999999999999999999MA1101691999999REMMET051METAR SBQV 221600Z 15006KT 9999 BKN025 28/17 Q1017;
0120833440999992008042217004-14950-040883FM-15+0914SBQV V0201501N004112200019N0112651N1+02701+01701999999ADDGA1041+007501999GF104991999999999999999999MA1101591999999REMMET051METAR SBQV 221700Z 15008KT 9999 SCT025 27/17 Q1016;
0120833440999992008042218004-14950-040883FM-15+0914SBQV V0201701N004112200019N0112651N1+02801+01701999999ADDGA1041+007501999GF104991999999999999999999MA1101591999999REMMET051METAR SBQV 221800Z 17008KT 9999 SCT025 28/17 Q1016;
0120833440999992008042219004-14950-040883FM-15+0914SBQV V0201501N004612200019N0112651N1+02701+01701999999ADDGA1021+007501999GF102991999999999999999999MA1101591999999REMMET051METAR SBQV 221900Z 15009KT 9999 FEW025 27/17 Q1016;
0120833440999992008042220004-14950-040883FM-15+0914SBQV V0201601N005112200019N0112651N1+02601+01701999999ADDGA1021+007501999GF102991999999999999999999MA1101591999999REMMET051METAR SBQV 222000Z 16010KT 9999 FEW025 26/17 Q1016;
0120833440999992008042221004-14950-040883FM-15+0914SBQV V0201401N003112200019N0112651N1+02301+01701999999ADDGA1021+006001999GF102991999999999999999999MA1101591999999REMMET051METAR SBQV 222100Z 14006KT 9999 FEW020 23/17 Q1016;
0072833440999992008042222004-14950-040883FM-15+0914SBQV V0201401N00311220001CN0099001N1+02201+01801999999ADDMA1101691999999REMMET045METAR SBQV 222200Z 14006KT CAVOK 22/18 Q1017;
0072833440999992008042223004-14950-040883FM-15+0914SBQV V0201301N00311220001CN0099001N1+02201+01801999999ADDMA1101691999999REMMET045METAR SBQV 222300Z 13006KT CAVOK 22/18 Q1017;
0078833440999992008042310154-14950-040883FM-16+0914SBQV V0209999C000012200019N0099001N1+02001+01901999999ADDMA1101801999999REMMET051METAR SBQV 231015Z SPECI 00000KT CAVOK 20/19 Q1018;
0072833440999992008042311004-14950-040883FM-15+0914SBQV V0209999C00001220001CN0099001N1+02201+01701999999ADDMA1101901999999REMMET045METAR SBQV 231100Z 00000KT CAVOK 22/17 Q1019;
0143833440999992008042312004-14950-040883FM-15+0914SBQV V0200101N001510900019N0112651N1+02401+01901999999ADDGA1021+009001999GA2071+090001999GF107991999999999999999999MA1101901999999REMMET058METAR SBQV 231200Z 01003KT 9999 FEW030 BKN300 24/19 Q1019;
0143833440999992008042313004-14950-040883FM-15+0914SBQV V0200101N001510900019N0112651N1+02601+01901999999ADDGA1021+009001999GA2071+090001999GF107991999999999999999999MA1101901999999REMMET058METAR SBQV 231300Z 01003KT 9999 FEW030 BKN300 26/19 Q1019;
0143833440999992008042314004-14950-040883FM-15+0914SBQV V0209999C000010900019N0112651N1+02601+01901999999ADDGA1021+009001999GA2071+090001999GF107991999999999999999999MA1101801999999REMMET058METAR SBQV 231400Z 00000KT 9999 FEW030 BKN300 26/19 Q1018;
0143833440999992008042315004-14950-040883FM-15+0914SBQV V0209999C000010900019N0112651N1+02701+01801999999ADDGA1021+009001999GA2071+090001999GF107991999999999999999999MA1101691999999REMMET058METAR SBQV 231500Z 00000KT 9999 FEW030 BKN300 27/18 Q1017;
0143833440999992008042316004-14950-040883FM-15+0914SBQV V0203601N002110900019N0112651N1+02901+01801999999ADDGA1041+009001999GA2071+090001999GF107991999999999999999999MA1101591999999REMMET058METAR SBQV 231600Z 36004KT 9999 SCT030 BKN300 29/18 Q1016;
0143833440999992008042317004-14950-040883FM-15+0914SBQV V0203401N002110900019N0112651N1+03001+01801999999ADDGA1041+010501999GA2071+090001999GF107991999999999999999999MA1101491999999REMMET058METAR SBQV 231700Z 34004KT 9999 SCT035 BKN300 30/18 Q1015;
0120833440999992008042318004-14950-040883FM-15+0914SBQV V0203601N002610105019N0112651N1+03001+01801999999ADDGA1071+010501999GF107991999999999999999999MA1101391999999REMMET051METAR SBQV 231800Z 36005KT 9999 BKN035 30/18 Q1014;
0120833440999992008042319004-14950-040883FM-15+0914SBQV V0203501N002612200019N0112651N1+02901+01801999999ADDGA1041+009001999GF104991999999999999999999MA1101391999999REMMET051METAR SBQV 231900Z 35005KT 9999 SCT030 29/18 Q1014;
0120833440999992008042320004-14950-040883FM-15+0914SBQV V0200401N002612200019N0112651N1+02701+01801999999ADDGA1041+009001999GF104991999999999999999999MA1101391999999REMMET051METAR SBQV 232000Z 04005KT 9999 SCT030 27/18 Q1014;
0120833440999992008042321004-14950-040883FM-15+0914SBQV V0200601N001512200019N0112651N1+02501+01901999999ADDGA1021+007501999GF102991999999999999999999MA1101491999999REMMET051METAR SBQV 232100Z 06003KT 9999 FEW025 25/19 Q1015;
0120833440999992008042322004-14950-040883FM-15+0914SBQV V0201301N002612200019N0112651N1+02501+02001999999ADDGA1021+006001999GF102991999999999999999999MA1101491999999REMMET051METAR SBQV 232200Z 13005KT 9999 FEW020 25/20 Q1015;
0072833440999992008042323004-14950-040883FM-15+0914SBQV V0201001N00261220001CN0099001N1+02401+02001999999ADDMA1101591999999REMMET045METAR SBQV 232300Z 10005KT CAVOK 24/20 Q1016;
0120833440999992008042411004-14950-040883FM-15+0914SBQV V0200201N004112200019N0112651N1+02301+02101999999ADDGA1021+004801999GF102991999999999999999999MA1101691999999REMMET051METAR SBQV 241100Z 02008KT 9999 FEW016 23/21 Q1017;
0120833440999992008042413004-14950-040883FM-15+0914SBQV V0203601N003112200019N0112651N1+02801+02101999999ADDGA1021+007501999GF102991999999999999999999MA1101691999999REMMET051METAR SBQV 241300Z 36006KT 9999 FEW025 28/21 Q1017;
0120833440999992008042414004-14950-040883FM-15+0914SBQV V0203501N003112200019N0112651N1+02901+02001999999ADDGA1041+007501999GF104991999999999999999999MA1101691999999REMMET051METAR SBQV 241400Z 35006KT 9999 SCT025 29/20 Q1017;
0120833440999992008042415004-14950-040883FM-15+0914SBQV V0203501N002612200019N0112651N1+03001+01801999999ADDGA1041+009001999GF104991999999999999999999MA1101591999999REMMET051METAR SBQV 241500Z 35005KT 9999 SCT030 30/18 Q1016;
0120833440999992008042416004-14950-040883FM-15+0914SBQV V0203601N002112200019N0112651N1+03001+01601999999ADDGA1021+010501999GF102991999999999999999999MA1101491999999REMMET051METAR SBQV 241600Z 36004KT 9999 FEW035 30/16 Q1015;
0120833440999992008042417004-14950-040883FM-15+0914SBQV V0203101N000512200019N0112651N1+03101+01601999999ADDGA1021+010501999GF102991999999999999999999MA1101391999999REMMET051METAR SBQV 241700Z 31001KT 9999 FEW035 31/16 Q1014;
0120833440999992008042418004-14950-040883FM-15+0914SBQV V0200401N001012200019N0112651N1+03101+01401999999ADDGA1041+010501999GF104991999999999999999999MA1101291999999REMMET051METAR SBQV 241800Z 04002KT 9999 SCT035 31/14 Q1013;
0143833440999992008042419004-14950-040883FM-15+0914SBQV V0203601N001012200019N0112651N1+03101+01601999999ADDGA1041+010501999GA2041+090001999GF104991999999999999999999MA1101291999999REMMET058METAR SBQV 241900Z 36002KT 9999 SCT035 SCT300 31/16 Q1013;
0143833440999992008042420004-14950-040883FM-15+0914SBQV V0200201N002112200019N0112651N1+02901+01701999999ADDGA1021+009001999GA2041+090001999GF104991999999999999999999MA1101391999999REMMET058METAR SBQV 242000Z 02004KT 9999 FEW030 SCT300 29/17 Q1014;
0120833440999992008042421004-14950-040883FM-15+0914SBQV V0202501N003112200019N0112651N1+02701+01901999999ADDGA1021+006001999GF102991999999999999999999MA1101491999999REMMET051METAR SBQV 242100Z 25006KT 9999 FEW020 27/19 Q1015;
0120833440999992008042422004-14950-040883FM-15+0914SBQV V0201901N003112200019N0112651N1+02501+02001999999ADDGA1041+004801999GF104991999999999999999999MA1101491999999REMMET051METAR SBQV 242200Z 19006KT 9999 SCT016 25/20 Q1015;
0120833440999992008042423004-14950-040883FM-15+0914SBQV V0201601N002112200019N0112651N1+02401+02001999999ADDGA1041+003001999GF104991999999999999999999MA1101591999999REMMET051METAR SBQV 242300Z 16004KT 9999 SCT010 24/20 Q1016;
0098833440999992008042510154-14950-040883FM-16+0914SBQV V0200501N003612200019N0112651N1+02201+02001999999ADDMA1101601999999REMMET071METAR SBQV 251015Z SPECI 05007KT 9999 FEW015 SCT070 BKN300 22/20 Q1016;
0072833440999992008042511004-14950-040883FM-15+0914SBQV V0200301N00311220001CN0099001N1+02401+02001999999ADDMA1101691999999REMMET045METAR SBQV 251100Z 03006KT CAVOK 24/20 Q1017;
0072833440999992008042512004-14950-040883FM-15+0914SBQV V0200201N00261220001CN0099001N1+02401+02001999999ADDMA1101801999999REMMET045METAR SBQV 251200Z 02005KT CAVOK 24/20 Q1018;
0072833440999992008042513004-14950-040883FM-15+0914SBQV V0203501N00261220001CN0099001N1+02401+02001999999ADDMA1101801999999REMMET045METAR SBQV 251300Z 35005KT CAVOK 24/20 Q1018;
0166833440999992008042514004-14950-040883FM-15+0914SBQV V0202701N00151024001CN0112651N1+02401+02101999999ADDGA1021+005401999GA2041+024001999GA3071+090001999GF107991999999999999999999MA1101691999999REMMET065METAR SBQV 251400Z 27003KT 9999 FEW018 SCT080 BKN300 24/21 Q1017;
0143833440999992008042515004-14950-040883FM-15+0914SBQV V0200301N002612200019N0112651N1+02601+02101999999ADDGA1021+006001999GA2041+024001999GF104991999999999999999999MA1101591999999REMMET058METAR SBQV 251500Z 03005KT 9999 FEW020 SCT080 26/21 Q1016;
0143833440999992008042517004-14950-040883FM-15+0914SBQV V0200101N002112200019N0112651N1+02901+01901999999ADDGA1041+006001999GA2041+027001999GF104991999999999999999999MA1101391999999REMMET058METAR SBQV 251700Z 01004KT 9999 SCT020 SCT090 29/19 Q1014;
0169833440999992008042519004-14950-040883FM-15+0914SBQV V0202101N002612200019N0112651N1+02801+02001999999ADDGA1041+006001999GA2021+007501021GA3041+027001999GF104991999999999999999999MA1101291999999REMMET068METAR SBQV 251900Z 21005KT 9999 SCT020 FEW025TCU SCT090 28/20 Q1013;
0162833440999992008042520004-14950-040883FM-15+0914SBQV V0201201N004612200019N0112651N1+02501+02101999999ADDGA1021+004801999GA2041+006001999GA3021+007501021MA1101391999999REMMET068METAR SBQV 252000Z 12009KT 9999 FEW016 SCT020 FEW025TCU 25/21 Q1014;EQDQ01+000022SCOTCV
0135833440999992008042520354-14950-040883FM-16+0914SBQV V0201001N005119999999N0112651N1+02401+02001999999ADDKA1999M+99999MA1101401999999REMMET076METAR SBQV 252035Z SPECI 10010KT 9999 TS FEW016 FEW018CB SCT020 24/20 Q1014;EQDQ01 +00102ATMX  
0108833440999992008042521404-14950-040883FM-16+0914SBQV V0200301N002612200019N0112651N1+02201+01701999999ADDMA1101501999999REMMET081METAR SBQV 252140Z SPECI 03005KT 9999 TS SCT016 FEW018CB SCT090 22/17 Q1015 RETS;
0072833440999992008042523004-14950-040883FM-15+0914SBQV V0209999C00001220001CN0099001N1+02101+01801999999ADDMA1101491999999REMMET045METAR SBQV 252300Z 00000KT CAVOK 21/18 Q1015;
0110833440999992008042602154-14950-040883FM-16+0914SBQV V0201001N002619999999N0099001N1+02201+02001999999ADDKA1999M+99999MA1101601999999REMMET051METAR SBQV 260215Z SPECI 10005KT CAVOK 22/20 Q1016;EQDQ01 +00052ATMX  
0072833440999992008042603004-14950-040883FM-15+0914SBQV V0201201N00151220001CN0099001N1+02101+02001999999ADDMA1101591999999REMMET045METAR SBQV 260300Z 12003KT CAVOK 21/20 Q1016;
0072833440999992008042604004-14950-040883FM-15+0914SBQV V0201601N00101220001CN0099001N1+02201+02001999999ADDMA1101591999999REMMET045METAR SBQV 260400Z 16002KT CAVOK 22/20 Q1016;
0143833440999992008042611004-14950-040883FM-15+0914SBQV V0200801N003110210019N0112651N1+02201+02001999999ADDGA1021+004801999GA2071+021001999GF107991999999999999999999MA1101691999999REMMET058METAR SBQV 261100Z 08006KT 9999 FEW016 BKN070 22/20 Q1017;
0120833440999992008042612004-14950-040883FM-15+0914SBQV V0200601N004112200019N0112651N1+02401+02101999999ADDGA1021+005401999GF102991999999999999999999MA1101691999999REMMET051METAR SBQV 261200Z 06008KT 9999 FEW018 24/21 Q1017;
0120833440999992008042613004-14950-040883FM-15+0914SBQV V0200401N004612200019N0112651N1+02601+02001999999ADDGA1041+006001999GF104991999999999999999999MA1101691999999REMMET051METAR SBQV 261300Z 04009KT 9999 SCT020 26/20 Q1017;
0120833440999992008042614004-14950-040883FM-15+0914SBQV V0200401N003110060019N0112651N1+02601+02001999999ADDGA1071+006001999GF107991999999999999999999MA1101691999999REMMET051METAR SBQV 261400Z 04006KT 9999 BKN020 26/20 Q1017;
0120833440999992008042615004-14950-040883FM-15+0914SBQV V0200101N003612200019N0112651N1+02801+02101999999ADDGA1041+007501999GF104991999999999999999999MA1101591999999REMMET051METAR SBQV 261500Z 01007KT 9999 SCT025 28/21 Q1016;
0120833440999992008042616004-14950-040883FM-15+0914SBQV V0200201N002612200019N0112651N1+02901+02001999999ADDGA1041+007501999GF104991999999999999999999MA1101491999999REMMET051METAR SBQV 261600Z 02005KT 9999 SCT025 29/20 Q1015;
0120833440999992008042617004-14950-040883FM-15+0914SBQV V0200101N002112200019N0112651N1+03001+01801999999ADDGA1041+007501999GF104991999999999999999999MA1101391999999REMMET051METAR SBQV 261700Z 01004KT 9999 SCT025 30/18 Q1014;
0139833440999992008042618004-14950-040883FM-15+0914SBQV V0200301N002112200019N0112651N1+03001+01901999999ADDGA1041+007501999GA2021+009001021MA1101291999999REMMET061METAR SBQV 261800Z 03004KT 9999 SCT025 FEW030TCU 30/19 Q1013;EQDQ01+000022SCOTCV
0156833440999992008042619004-14950-040883FM-15+0914SBQV V0201401N004112200019N0060001N1+02301+02201999999ADDGA1021+006001021GA2041+007501999GF104991999999999999999999MA1101391999999MW1611REMMET065METAR SBQV 261900Z 14008KT 6000 -RA FEW020TCU SCT025 23/22 Q1014;
0120833440999992008042620004-14950-040883FM-15+0914SBQV V0201201N003612200019N0112651N1+02401+02101999999ADDGA1041+004801999GF104991999999999999999999MA1101391999999REMMET051METAR SBQV 262000Z 12007KT 9999 SCT016 24/21 Q1014;
0096833440999992008042620484-14950-040883FM-16+0914SBQV V0201501N001512200019N0112651N1+02301+02201999999ADDMA1101501999999REMMET069METAR SBQV 262048Z SPECI 15003KT 9999 TS SCT015 FEW016CB 23/22 Q1015;
0143833440999992008042622004-14950-040883FM-15+0914SBQV V0209999C000012200019N0112651N1+02301+02201999999ADDGA1041+003901999GA2041+021001999GF104991999999999999999999MA1101591999999REMMET058METAR SBQV 262200Z 00000KT 9999 SCT013 SCT070 23/22 Q1016;
0091833440999992008042710154-14950-040883FM-16+0914SBQV V0201401N000512200019N0112651N1+02001+01901999999ADDMA1101801999999REMMET064METAR SBQV 271015Z SPECI 14001KT 9999 SCT010 BKN070 20/19 Q1018;
0143833440999992008042711004-14950-040883FM-15+0914SBQV V0201901N002112200019N0112651N1+02101+01901999999ADDGA1041+003901999GA2041+021001999GF104991999999999999999999MA1101801999999REMMET058METAR SBQV 271100Z 19004KT 9999 SCT013 SCT070 21/19 Q1018;
0143833440999992008042712004-14950-040883FM-15+0914SBQV V0201201N000510240019N0112651N1+02301+02001999999ADDGA1021+004501999GA2071+024001999GF107991999999999999999999MA1101801999999REMMET058METAR SBQV 271200Z 12001KT 9999 FEW015 BKN080 23/20 Q1018;
0143833440999992008042713004-14950-040883FM-15+0914SBQV V0200601N001510240019N0112651N1+02501+01901999999ADDGA1041+004801999GA2071+024001999GF107991999999999999999999MA1101901999999REMMET058METAR SBQV 271300Z 06003KT 9999 SCT016 BKN080 25/19 Q1019;
0143833440999992008042714004-14950-040883FM-15+0914SBQV V0203501N000510240019N0112651N1+02501+01901999999ADDGA1041+004801999GA2071+024001999GF107991999999999999999999MA1101801999999REMMET058METAR SBQV 271400Z 35001KT 9999 SCT016 BKN080 25/19 Q1018;
0143833440999992008042715004-14950-040883FM-15+0914SBQV V0202801N001510240019N0112651N1+02501+02001999999ADDGA1041+005401999GA2071+024001999GF107991999999999999999999MA1101691999999REMMET058METAR SBQV 271500Z 28003KT 9999 SCT018 BKN080 25/20 Q1017;
0143833440999992008042716004-14950-040883FM-15+0914SBQV V0203001N001010240019N0112651N1+02501+02001999999ADDGA1041+005401999GA2071+024001999GF107991999999999999999999MA1101691999999REMMET058METAR SBQV 271600Z 30002KT 9999 SCT018 BKN080 25/20 Q1017;
0143833440999992008042717004-14950-040883FM-15+0914SBQV V0203001N002110240019N0112651N1+02401+02101999999ADDGA1021+004801999GA2071+024001999GF107991999999999999999999MA1101591999999REMMET058METAR SBQV 271700Z 30004KT 9999 FEW016 BKN080 24/21 Q1016;
0143833440999992008042718004-14950-040883FM-15+0914SBQV V0209999C000010240019N0112651N1+02401+02101999999ADDGA1021+004801999GA2071+024001999GF107991999999999999999999MA1101491999999REMMET058METAR SBQV 271800Z 00000KT 9999 FEW016 BKN080 24/21 Q1015;
0143833440999992008042719004-14950-040883FM-15+0914SBQV V0201401N001510270019N0112651N1+02501+02101999999ADDGA1021+006001999GA2071+027001999GF107991999999999999999999MA1101491999999REMMET058METAR SBQV 271900Z 14003KT 9999 FEW020 BKN090 25/21 Q1015;
0143833440999992008042720004-14950-040883FM-15+0914SBQV V0201801N002110270019N0112651N1+02401+02101999999ADDGA1021+006001999GA2071+027001999GF107991999999999999999999MA1101591999999REMMET058METAR SBQV 272000Z 18004KT 9999 FEW020 BKN090 24/21 Q1016;
0072833440999992008042721004-14950-040883FM-15+0914SBQV V0209999C00001220001CN0099001N1+02301+02101999999ADDMA1101591999999REMMET045METAR SBQV 272100Z 00000KT CAVOK 23/21 Q1016;
0072833440999992008042722004-14950-040883FM-15+0914SBQV V0201501N00151220001CN0099001N1+02201+02101999999ADDMA1101591999999REMMET045METAR SBQV 272200Z 15003KT CAVOK 22/21 Q1016;
0120833440999992008042811004-14950-040883FM-15+0914SBQV V0201301N004112200019N0112651N1+02201+01901999999ADDGA1021+006001999GF102991999999999999999999MA1101801999999REMMET051METAR SBQV 281100Z 13008KT 9999 FEW020 22/19 Q1018;
0120833440999992008042812004-14950-040883FM-15+0914SBQV V0201401N004112200019N0112651N1+02501+01901999999ADDGA1021+009001999GF102991999999999999999999MA1101801999999REMMET051METAR SBQV 281200Z 14008KT 9999 FEW030 25/19 Q1018;
0120833440999992008042813004-14950-040883FM-15+0914SBQV V0201101N002112200019N0112651N1+02601+01801999999ADDGA1021+009001999GF102991999999999999999999MA1101901999999REMMET051METAR SBQV 281300Z 11004KT 9999 FEW030 26/18 Q1019;
0120833440999992008042814004-14950-040883FM-15+0914SBQV V0201601N003112200019N0112651N1+02801+01701999999ADDGA1021+010501999GF102991999999999999999999MA1101801999999REMMET051METAR SBQV 281400Z 16006KT 9999 FEW035 28/17 Q1018;
0120833440999992008042815004-14950-040883FM-15+0914SBQV V0201401N003612200019N0112651N1+02901+01701999999ADDGA1021+010501999GF102991999999999999999999MA1101691999999REMMET051METAR SBQV 281500Z 14007KT 9999 FEW035 29/17 Q1017;
0120833440999992008042817004-14950-040883FM-15+0914SBQV V0201501N003612200019N0112651N1+02901+01601999999ADDGA1041+010501999GF104991999999999999999999MA1101491999999REMMET051METAR SBQV 281700Z 15007KT 9999 SCT035 29/16 Q1015;
0120833440999992008042818004-14950-040883FM-15+0914SBQV V0201601N002612200019N0112651N1+03001+01601999999ADDGA1021+010501999GF102991999999999999999999MA1101391999999REMMET051METAR SBQV 281800Z 16005KT 9999 FEW035 30/16 Q1014;
0120833440999992008042819004-14950-040883FM-15+0914SBQV V0201501N003612200019N0112651N1+02701+01701999999ADDGA1041+009001999GF104991999999999999999999MA1101391999999REMMET051METAR SBQV 281900Z 15007KT 9999 SCT030 27/17 Q1014;
0120833440999992008042820004-14950-040883FM-15+0914SBQV V0201601N005710075019N0112651N1+02501+02001999999ADDGA1071+007501999GF107991999999999999999999MA1101491999999REMMET051METAR SBQV 282000Z 16011KT 9999 BKN025 25/20 Q1015;
0120833440999992008042821004-14950-040883FM-15+0914SBQV V0201301N003610060019N0112651N1+02401+02001999999ADDGA1071+006001999GF107991999999999999999999MA1101491999999REMMET051METAR SBQV 282100Z 13007KT 9999 BKN020 24/20 Q1015;
0143833440999992008042822004-14950-040883FM-15+0914SBQV V0201101N004612200019N0112651N1+02301+02001999999ADDGA1021+005401999GA2041+024001999GF104991999999999999999999MA1101591999999REMMET058METAR SBQV 282200Z 11009KT 9999 FEW018 SCT080 23/20 Q1016;
0072833440999992008042823004-14950-040883FM-15+0914SBQV V0201001N00361220001CN0099001N1+02201+02001999999ADDMA1101591999999REMMET045METAR SBQV 282300Z 10007KT CAVOK 22/20 Q1016;
0072833440999992008042911004-14950-040883FM-15+0914SBQV V0201101N00311220001CN0099001N1+02301+01901999999ADDMA1101801999999REMMET045METAR SBQV 291100Z 11006KT CAVOK 23/19 Q1018;
0120833440999992008042912004-14950-040883FM-15+0914SBQV V0201201N002112200019N0112651N1+02501+01801999999ADDGA1021+006001999GF102991999999999999999999MA1101901999999REMMET051METAR SBQV 291200Z 12004KT 9999 FEW020 25/18 Q1019;
0120833440999992008042913004-14950-040883FM-15+0914SBQV V0201201N003112200019N0112651N1+02601+01501999999ADDGA1021+007501999GF102991999999999999999999MA1101901999999REMMET051METAR SBQV 291300Z 12006KT 9999 FEW025 26/15 Q1019;
0120833440999992008042914004-14950-040883FM-15+0914SBQV V0201401N003112200019N0112651N1+02701+01501999999ADDGA1021+007501999GF102991999999999999999999MA1101801999999REMMET051METAR SBQV 291400Z 14006KT 9999 FEW025 27/15 Q1018;
0120833440999992008042915004-14950-040883FM-15+0914SBQV V0201301N003112200019N0112651N1+02801+01401999999ADDGA1021+007501999GF102991999999999999999999MA1101691999999REMMET051METAR SBQV 291500Z 13006KT 9999 FEW025 28/14 Q1017;
0120833440999992008042916004-14950-040883FM-15+0914SBQV V0201301N002612200019N0112651N1+02901+01501999999ADDGA1041+007501999GF104991999999999999999999MA1101691999999REMMET051METAR SBQV 291600Z 13005KT 9999 SCT025 29/15 Q1017;
0120833440999992008042917004-14950-040883FM-15+0914SBQV V0202001N003612200019N0112651N1+02801+01601999999ADDGA1041+007501999GF104991999999999999999999MA1101591999999REMMET051METAR SBQV 291700Z 20007KT 9999 SCT025 28/16 Q1016;
0120833440999992008042918004-14950-040883FM-15+0914SBQV V0201601N003112200019N0112651N1+02901+01501999999ADDGA1041+007501999GF104991999999999999999999MA1101491999999REMMET051METAR SBQV 291800Z 16006KT 9999 SCT025 29/15 Q1015;
0120833440999992008042919004-14950-040883FM-15+0914SBQV V0201701N003612200019N0112651N1+02801+01501999999ADDGA1021+007501999GF102991999999999999999999MA1101491999999REMMET051METAR SBQV 291900Z 17007KT 9999 FEW025 28/15 Q1015;
0120833440999992008042920004-14950-040883FM-15+0914SBQV V0201501N003612200019N0112651N1+02601+01701999999ADDGA1021+007501999GF102991999999999999999999MA1101491999999REMMET051METAR SBQV 292000Z 15007KT 9999 FEW025 26/17 Q1015;
0072833440999992008042921004-14950-040883FM-15+0914SBQV V0201201N00311220001CN0099001N1+02401+01601999999ADDMA1101491999999REMMET045METAR SBQV 292100Z 12006KT CAVOK 24/16 Q1015;
0072833440999992008042922004-14950-040883FM-15+0914SBQV V0201201N00261220001CN0099001N1+02301+01701999999ADDMA1101591999999REMMET045METAR SBQV 292200Z 12005KT CAVOK 23/17 Q1016;
0072833440999992008042923004-14950-040883FM-15+0914SBQV V0201101N00311220001CN0099001N1+02301+01701999999ADDMA1101591999999REMMET045METAR SBQV 292300Z 11006KT CAVOK 23/17 Q1016;
0072833440999992008043000004-14950-040883FM-15+0914SBQV V0201001N00361220001CN0099001N1+02201+01801999999ADDMA1101591999999REMMET045METAR SBQV 300000Z 10007KT CAVOK 22/18 Q1016;
0120833440999992008043011004-14950-040883FM-15+0914SBQV V0209999C000012200019N0112651N1+01801+01801999999ADDGA1021+003601999GF102991999999999999999999MA1101901999999REMMET051METAR SBQV 301100Z 00000KT 9999 FEW012 18/18 Q1019;
0072833440999992008043012004-14950-040883FM-15+0914SBQV V0201001N00211220001CN0099001N1+02401+01601999999ADDMA1101901999999REMMET045METAR SBQV 301200Z 10004KT CAVOK 24/16 Q1019;
0072833440999992008043013004-14950-040883FM-15+0914SBQV V0201401N00261220001CN0099001N1+02601+01601999999ADDMA1101901999999REMMET045METAR SBQV 301300Z 14005KT CAVOK 26/16 Q1019;
0072833440999992008043014004-14950-040883FM-15+0914SBQV V0201101N00261220001CN0099001N1+02701+01601999999ADDMA1101801999999REMMET045METAR SBQV 301400Z 11005KT CAVOK 27/16 Q1018;
0072833440999992008043015004-14950-040883FM-15+0914SBQV V0201901N00261220001CN0099001N1+02801+01501999999ADDMA1101691999999REMMET045METAR SBQV 301500Z 19005KT CAVOK 28/15 Q1017;
0072833440999992008043016004-14950-040883FM-15+0914SBQV V0201501N00261220001CN0099001N1+02801+01301999999ADDMA1101591999999REMMET045METAR SBQV 301600Z 15005KT CAVOK 28/13 Q1016;
0120833440999992008043017004-14950-040883FM-15+0914SBQV V0201901N002612200019N0112651N1+02901+01301999999ADDGA1021+010501999GF102991999999999999999999MA1101491999999REMMET051METAR SBQV 301700Z 19005KT 9999 FEW035 29/13 Q1015;
0120833440999992008043018004-14950-040883FM-15+0914SBQV V0201601N002612200019N0112651N1+02901+01501999999ADDGA1021+010501999GF102991999999999999999999MA1101391999999REMMET051METAR SBQV 301800Z 16005KT 9999 FEW035 29/15 Q1014;
0120833440999992008043019004-14950-040883FM-15+0914SBQV V0202001N003112200019N0112651N1+02801+01401999999ADDGA1021+010501999GF102991999999999999999999MA1101391999999REMMET051METAR SBQV 301900Z 20006KT 9999 FEW035 28/14 Q1014;
0072833440999992008043020004-14950-040883FM-15+0914SBQV V0201901N00311220001CN0099001N1+02601+01501999999ADDMA1101391999999REMMET045METAR SBQV 302000Z 19006KT CAVOK 26/15 Q1014;
0120833440999992008043021004-14950-040883FM-15+0914SBQV V0201801N003112200019N0112651N1+02401+01501999999ADDGA1021+005401999GF102991999999999999999999MA1101491999999REMMET051METAR SBQV 302100Z 18006KT 9999 FEW018 24/15 Q1015;
0120833440999992008043022004-14950-040883FM-15+0914SBQV V0201601N003112200019N0112651N1+02301+01601999999ADDGA1021+004801999GF102991999999999999999999MA1101491999999REMMET051METAR SBQV 302200Z 16006KT 9999 FEW016 23/16 Q1015;
0120833440999992008043023004-14950-040883FM-15+0914SBQV V0201501N002612200019N0112651N1+02201+01701999999ADDGA1021+004501999GF102991999999999999999999MA1101591999999REMMET051METAR SBQV 302300Z 15005KT 9999 FEW015 22/17 Q1016;
0120833440999992008050111004-14950-040883FM-15+0914SBQV V0201401N004610048019N0112651N1+02201+01901999999ADDGA1071+004801999GF107991999999999999999999MA1101901999999REMMET051METAR SBQV 011100Z 14009KT 9999 BKN016 22/19 Q1019;
0120833440999992008050112004-14950-040883FM-15+0914SBQV V0201601N005712200019N0112651N1+02201+01701999999ADDGA1041+005401999GF104991999999999999999999MA1102001999999REMMET051METAR SBQV 011200Z 16011KT 9999 SCT018 22/17 Q1020;
0120833440999992008050113004-14950-040883FM-15+0914SBQV V0201501N005712200019N0112651N1+02401+01701999999ADDGA1041+006001999GF104991999999999999999999MA1102001999999REMMET051METAR SBQV 011300Z 15011KT 9999 SCT020 24/17 Q1020;
0120833440999992008050114004-14950-040883FM-15+0914SBQV V0201401N006210060019N0112651N1+02601+01701999999ADDGA1071+006001999GF107991999999999999999999MA1101901999999REMMET051METAR SBQV 011400Z 14012KT 9999 BKN020 26/17 Q1019;
0120833440999992008050115004-14950-040883FM-15+0914SBQV V0201601N005712200019N0112651N1+02501+01701999999ADDGA1041+006001999GF104991999999999999999999MA1101801999999REMMET051METAR SBQV 011500Z 16011KT 9999 SCT020 25/17 Q1018;
0120833440999992008050116004-14950-040883FM-15+0914SBQV V0201301N005112200019N0112651N1+02801+01701999999ADDGA1041+007501999GF104991999999999999999999MA1101691999999REMMET051METAR SBQV 011600Z 13010KT 9999 SCT025 28/17 Q1017;
0120833440999992008050117004-14950-040883FM-15+0914SBQV V0201701N004112200019N0112651N1+02701+01701999999ADDGA1041+007501999GF104991999999999999999999MA1101591999999REMMET051METAR SBQV 011700Z 17008KT 9999 SCT025 27/17 Q1016;
0120833440999992008050118004-14950-040883FM-15+0914SBQV V0201501N008212200019N0112651N1+02701+01801999999ADDGA1021+007501999GF102991999999999999999999MA1101591999999REMMET051METAR SBQV 011800Z 15016KT 9999 FEW025 27/18 Q1016;
0120833440999992008050119004-14950-040883FM-15+0914SBQV V0201601N004112200019N0112651N1+02701+01701999999ADDGA1021+007501999GF102991999999999999999999MA1101591999999REMMET051METAR SBQV 011900Z 16008KT 9999 FEW025 27/17 Q1016;
0120833440999992008050121004-14950-040883FM-15+0914SBQV V0201501N005712200019N0112651N1+02301+01901999999ADDGA1041+006001999GF104991999999999999999999MA1101691999999REMMET051METAR SBQV 012100Z 15011KT 9999 SCT020 23/19 Q1017;
0072833440999992008050122004-14950-040883FM-15+0914SBQV V0201301N00411220001CN0099001N1+02101+01901999999ADDMA1101691999999REMMET045METAR SBQV 012200Z 13008KT CAVOK 21/19 Q1017;
0120833440999992008050211004-14950-040883FM-15+0914SBQV V0201901N004610021019N0112651N1+01901+01801999999ADDGA1071+002101999GF107991999999999999999999MA1101901999999REMMET051METAR SBQV 021100Z 19009KT 9999 BKN007 19/18 Q1019;
0120833440999992008050212004-14950-040883FM-15+0914SBQV V0201801N006710027019N0112651N1+02001+01801999999ADDGA1071+002701999GF107991999999999999999999MA1102001999999REMMET051METAR SBQV 021200Z 18013KT 9999 BKN009 20/18 Q1020;
0120833440999992008050213004-14950-040883FM-15+0914SBQV V0201801N006710036019N0112651N1+02201+01801999999ADDGA1071+003601999GF107991999999999999999999MA1101901999999REMMET051METAR SBQV 021300Z 18013KT 9999 BKN012 22/18 Q1019;
0120833440999992008050214004-14950-040883FM-15+0914SBQV V0201801N005110045019N0112651N1+02401+01801999999ADDGA1071+004501999GF107991999999999999999999MA1101901999999REMMET051METAR SBQV 021400Z 18010KT 9999 BKN015 24/18 Q1019;
0120833440999992008050215004-14950-040883FM-15+0914SBQV V0201801N005110048019N0112651N1+02401+01701999999ADDGA1071+004801999GF107991999999999999999999MA1101801999999REMMET051METAR SBQV 021500Z 18010KT 9999 BKN016 24/17 Q1018;
0136833440999992008050216004-14950-040883FM-15+0914SBQV V0201701N00511220001CN0112651N1+02401+01801999999ADDGA1071+006001999GA2041+024001999MA1101691999999REMMET058METAR SBQV 021600Z 17010KT 9999 BKN020 SCT080 24/18 Q1017;EQDQ01+000042SCOTCV
0136833440999992008050217004-14950-040883FM-15+0914SBQV V0201601N00461220001CN0112651N1+02401+01801999999ADDGA1071+006001999GA2041+024001999MA1101591999999REMMET058METAR SBQV 021700Z 16009KT 9999 BKN020 SCT080 24/18 Q1016;EQDQ01+000042SCOTCV
0143833440999992008050218004-14950-040883FM-15+0914SBQV V0201601N003610240019N0112651N1+02401+01701999999ADDGA1041+006001999GA2071+024001999GF107991999999999999999999MA1101591999999REMMET058METAR SBQV 021800Z 16007KT 9999 SCT020 BKN080 24/17 Q1016;
0143833440999992008050219004-14950-040883FM-15+0914SBQV V0201601N003110240019N0112651N1+02301+01801999999ADDGA1041+006001999GA2071+024001999GF107991999999999999999999MA1101591999999REMMET058METAR SBQV 021900Z 16006KT 9999 SCT020 BKN080 23/18 Q1016;
0136833440999992008050220004-14950-040883FM-15+0914SBQV V0201601N00411220001CN0112651N1+02201+01801999999ADDGA1071+004801999GA2041+021001999MA1101691999999REMMET058METAR SBQV 022000Z 16008KT 9999 BKN016 SCT070 22/18 Q1017;EQDQ01+000042SCOTCV
0143833440999992008050221004-14950-040883FM-15+0914SBQV V0201401N003112200019N0112651N1+02101+01801999999ADDGA1041+003901999GA2041+021001999GF104991999999999999999999MA1101691999999REMMET058METAR SBQV 022100Z 14006KT 9999 SCT013 SCT070 21/18 Q1017;
0072833440999992008050222004-14950-040883FM-15+0914SBQV V0201501N00311220001CN0099001N1+02101+01901999999ADDMA1101691999999REMMET045METAR SBQV 022200Z 15006KT CAVOK 21/19 Q1017;
0143833440999992008050223004-14950-040883FM-15+0914SBQV V0201501N003610210019N0112651N1+02001+01901999999ADDGA1021+003601999GA2071+021001999GF107991999999999999999999MA1101801999999REMMET058METAR SBQV 022300Z 15007KT 9999 FEW012 BKN070 20/19 Q1018;
0088833440999992008050310154-14950-040883FM-16+0914SBQV V0201701N002612200019N9999999N1+01901+01901999999ADDMA1101901999999REMMET061METAR SBQV 031015Z SPECI 17005KT 9000 -DZ BKN006 19/19 Q1019;
0136833440999992008050311004-14950-040883FM-15+0914SBQV V0201701N00311220001CN0112651N1+02001+02001999999ADDGA1071+002701999GA2041+024001999MA1101901999999REMMET058METAR SBQV 031100Z 17006KT 9999 BKN009 SCT080 20/20 Q1019;EQDQ01+000042SCOTCV
0091833440999992008050311354-14950-040883FM-16+0914SBQV V0201401N002612200019N0112651N1+02101+01901999999ADDMA1102001999999REMMET064METAR SBQV 031135Z SPECI 14005KT 9999 FEW009 BKN080 21/19 Q1020;
0143833440999992008050313004-14950-040883FM-15+0914SBQV V0201601N003110240019N0112651N1+02301+01901999999ADDGA1021+006001999GA2071+024001999GF107991999999999999999999MA1102001999999REMMET058METAR SBQV 031300Z 16006KT 9999 FEW020 BKN080 23/19 Q1020;
0120833440999992008050315004-14950-040883FM-15+0914SBQV V0201301N003110075019N0112651N1+02701+01801999999ADDGA1071+007501999GF107991999999999999999999MA1101801999999REMMET051METAR SBQV 031500Z 13006KT 9999 BKN025 27/18 Q1018;
0120833440999992008050317004-14950-040883FM-15+0914SBQV V0200701N002610090019N0112651N1+02701+01801999999ADDGA1071+009001999GF107991999999999999999999MA1101591999999REMMET051METAR SBQV 031700Z 07005KT 9999 BKN030 27/18 Q1016;
0120833440999992008050318004-14950-040883FM-15+0914SBQV V0201101N002112200019N0112651N1+02801+01801999999ADDGA1041+009001999GF104991999999999999999999MA1101591999999REMMET051METAR SBQV 031800Z 11004KT 9999 SCT030 28/18 Q1016;
0120833440999992008050319004-14950-040883FM-15+0914SBQV V0201401N004112200019N0112651N1+02601+01801999999ADDGA1021+007501999GF102991999999999999999999MA1101591999999REMMET051METAR SBQV 031900Z 14008KT 9999 FEW025 26/18 Q1016;
0120833440999992008050320004-14950-040883FM-15+0914SBQV V0201101N002612200019N0112651N1+02501+01801999999ADDGA1021+006001999GF102991999999999999999999MA1101591999999REMMET051METAR SBQV 032000Z 11005KT 9999 FEW020 25/18 Q1016;
0072833440999992008050321004-14950-040883FM-15+0914SBQV V0200901N00311220001CN0099001N1+02401+01901999999ADDMA1101591999999REMMET045METAR SBQV 032100Z 09006KT CAVOK 24/19 Q1016;
0072833440999992008050322004-14950-040883FM-15+0914SBQV V0201001N00261220001CN0099001N1+02301+01901999999ADDMA1101691999999REMMET045METAR SBQV 032200Z 10005KT CAVOK 23/19 Q1017;
0072833440999992008050411004-14950-040883FM-15+0914SBQV V0209999C00001220001CN0099001N1+02301+02001999999ADDMA1101901999999REMMET045METAR SBQV 041100Z 00000KT CAVOK 23/20 Q1019;
0120833440999992008050412004-14950-040883FM-15+0914SBQV V0201201N001012200019N0112651N1+02501+01901999999ADDGA1021+003901999GF102991999999999999999999MA1102001999999REMMET051METAR SBQV 041200Z 12002KT 9999 FEW013 25/19 Q1020;
0120833440999992008050413004-14950-040883FM-15+0914SBQV V0201901N002612200019N0112651N1+02601+01901999999ADDGA1041+004501999GF104991999999999999999999MA1102001999999REMMET051METAR SBQV 041300Z 19005KT 9999 SCT015 26/19 Q1020;
0120833440999992008050414004-14950-040883FM-15+0914SBQV V0202001N002110048019N0112651N1+02701+01901999999ADDGA1071+004801999GF107991999999999999999999MA1101901999999REMMET051METAR SBQV 041400Z 20004KT 9999 BKN016 27/19 Q1019;
0120833440999992008050415004-14950-040883FM-15+0914SBQV V0201901N002612200019N0112651N1+02801+01801999999ADDGA1041+006001999GF104991999999999999999999MA1101901999999REMMET051METAR SBQV 041500Z 19005KT 9999 SCT020 28/18 Q1019;
0120833440999992008050416004-14950-040883FM-15+0914SBQV V0201701N003112200019N0112651N1+02901+01801999999ADDGA1041+006001999GF104991999999999999999999MA1101801999999REMMET051METAR SBQV 041600Z 17006KT 9999 SCT020 29/18 Q1018;
0120833440999992008050417004-14950-040883FM-15+0914SBQV V0201501N003612200019N0112651N1+02901+01801999999ADDGA1041+006001999GF104991999999999999999999MA1101691999999REMMET051METAR SBQV 041700Z 15007KT 9999 SCT020 29/18 Q1017;
0120833440999992008050418004-14950-040883FM-15+0914SBQV V0201601N005112200019N0112651N1+02901+01901999999ADDGA1021+006001999GF102991999999999999999999MA1101691999999REMMET051METAR SBQV 041800Z 16010KT 9999 FEW020 29/19 Q1017;
0120833440999992008050419004-14950-040883FM-15+0914SBQV V0201601N004612200019N0112651N1+02801+01701999999ADDGA1021+006001999GF102991999999999999999999MA1101691999999REMMET051METAR SBQV 041900Z 16009KT 9999 FEW020 28/17 Q1017;
0120833440999992008050420004-14950-040883FM-15+0914SBQV V0201401N004612200019N0112651N1+02601+01801999999ADDGA1021+005401999GF102991999999999999999999MA1101691999999REMMET051METAR SBQV 042000Z 14009KT 9999 FEW018 26/18 Q1017;
0120833440999992008050421004-14950-040883FM-15+0914SBQV V0201401N003612200019N0112651N1+02401+01801999999ADDGA1021+004801999GF102991999999999999999999MA1101801999999REMMET051METAR SBQV 042100Z 14007KT 9999 FEW016 24/18 Q1018;
0072833440999992008050422004-14950-040883FM-15+0914SBQV V0201201N00361220001CN0099001N1+02401+01901999999ADDMA1101801999999REMMET045METAR SBQV 042200Z 12007KT CAVOK 24/19 Q1018;
0072833440999992008050511004-14950-040883FM-15+0914SBQV V0200501N00101220001CN0099001N1+02301+01601999999ADDMA1102001999999REMMET045METAR SBQV 051100Z 05002KT CAVOK 23/16 Q1020;
0072833440999992008050512004-14950-040883FM-15+0914SBQV V0201001N00261220001CN0099001N1+02501+01601999999ADDMA1102001999999REMMET045METAR SBQV 051200Z 10005KT CAVOK 25/16 Q1020;
0072833440999992008050513004-14950-040883FM-15+0914SBQV V0201001N00151220001CN0099001N1+02601+01601999999ADDMA1102001999999REMMET045METAR SBQV 051300Z 10003KT CAVOK 26/16 Q1020;
0120833440999992008050514004-14950-040883FM-15+0914SBQV V0203101N001012200019N0112651N1+02701+01601999999ADDGA1021+006001999GF102991999999999999999999MA1101901999999REMMET051METAR SBQV 051400Z 31002KT 9999 FEW020 27/16 Q1019;
0120833440999992008050515004-14950-040883FM-15+0914SBQV V0201901N001512200019N0112651N1+02901+01601999999ADDGA1021+009001999GF102991999999999999999999MA1101801999999REMMET051METAR SBQV 051500Z 19003KT 9999 FEW030 29/16 Q1018;
0120833440999992008050516004-14950-040883FM-15+0914SBQV V0201201N002112200019N0112651N1+03001+01501999999ADDGA1021+009001999GF102991999999999999999999MA1101691999999REMMET051METAR SBQV 051600Z 12004KT 9999 FEW030 30/15 Q1017;
0120833440999992008050517004-14950-040883FM-15+0914SBQV V0201301N001512200019N0112651N1+03001+01301999999ADDGA1041+009001999GF104991999999999999999999MA1101591999999REMMET051METAR SBQV 051700Z 13003KT 9999 SCT030 30/13 Q1016;
0120833440999992008050518004-14950-040883FM-15+0914SBQV V0201301N003112200019N0112651N1+03001+01401999999ADDGA1021+009001999GF102991999999999999999999MA1101591999999REMMET051METAR SBQV 051800Z 13006KT 9999 FEW030 30/14 Q1016;
0120833440999992008050519004-14950-040883FM-15+0914SBQV V0201401N003112200019N0112651N1+02901+01401999999ADDGA1021+009001999GF102991999999999999999999MA1101591999999REMMET051METAR SBQV 051900Z 14006KT 9999 FEW030 29/14 Q1016;
0120833440999992008050520004-14950-040883FM-15+0914SBQV V0201701N003112200019N0112651N1+02601+01601999999ADDGA1021+007501999GF102991999999999999999999MA1101591999999REMMET051METAR SBQV 052000Z 17006KT 9999 FEW025 26/16 Q1016;
0120833440999992008050521004-14950-040883FM-15+0914SBQV V0201401N002612200019N0112651N1+02401+01601999999ADDGA1021+006001999GF102991999999999999999999MA1101591999999REMMET051METAR SBQV 052100Z 14005KT 9999 FEW020 24/16 Q1016;
0120833440999992008050522004-14950-040883FM-15+0914SBQV V0201101N003112200019N0112651N1+02401+01601999999ADDGA1021+005401999GF102991999999999999999999MA1101691999999REMMET051METAR SBQV 052200Z 11006KT 9999 FEW018 24/16 Q1017;
0072833440999992008050523004-14950-040883FM-15+0914SBQV V0201201N00311220001CN0099001N1+02301+01601999999ADDMA1101691999999REMMET045METAR SBQV 052300Z 12006KT CAVOK 23/16 Q1017;
0072833440999992008050611004-14950-040883FM-15+0914SBQV V0200101N00411220001CN0099001N1+02301+01901999999ADDMA1101801999999REMMET045METAR SBQV 061100Z 01008KT CAVOK 23/19 Q1018;
0072833440999992008050612004-14950-040883FM-15+0914SBQV V0200201N00571220001CN0099001N1+02401+01901999999ADDMA1101801999999REMMET045METAR SBQV 061200Z 02011KT CAVOK 24/19 Q1018;
0072833440999992008050613004-14950-040883FM-15+0914SBQV V0200201N00411220001CN0099001N1+02701+01901999999ADDMA1101801999999REMMET045METAR SBQV 061300Z 02008KT CAVOK 27/19 Q1018;
0143833440999992008050614004-14950-040883FM-15+0914SBQV V0203401N003612200019N0112651N1+02801+01701999999ADDGA1021+009001999GA2041+090001999GF104991999999999999999999MA1101801999999REMMET058METAR SBQV 061400Z 34007KT 9999 FEW030 SCT300 28/17 Q1018;
0143833440999992008050615004-14950-040883FM-15+0914SBQV V0203201N003110900019N0112651N1+03001+01701999999ADDGA1021+010501999GA2071+090001999GF107991999999999999999999MA1101691999999REMMET058METAR SBQV 061500Z 32006KT 9999 FEW035 BKN300 30/17 Q1017;
0143833440999992008050616004-14950-040883FM-15+0914SBQV V0202901N003110900019N0112651N1+03101+01601999999ADDGA1021+012001999GA2071+090001999GF107991999999999999999999MA1101591999999REMMET058METAR SBQV 061600Z 29006KT 9999 FEW040 BKN300 31/16 Q1016;
0143833440999992008050617004-14950-040883FM-15+0914SBQV V0202701N003610900019N0112651N1+03001+01601999999ADDGA1021+012001999GA2071+090001999GF107991999999999999999999MA1101491999999REMMET058METAR SBQV 061700Z 27007KT 9999 FEW040 BKN300 30/16 Q1015;
0143833440999992008050618004-14950-040883FM-15+0914SBQV V0203101N002612200019N0112651N1+03001+01601999999ADDGA1041+012001999GA2041+090001999GF104991999999999999999999MA1101391999999REMMET058METAR SBQV 061800Z 31005KT 9999 SCT040 SCT300 30/16 Q1014;
0143833440999992008050619004-14950-040883FM-15+0914SBQV V0203401N002112200019N0112651N1+03001+01601999999ADDGA1041+012001999GA2041+090001999GF104991999999999999999999MA1101391999999REMMET058METAR SBQV 061900Z 34004KT 9999 SCT040 SCT300 30/16 Q1014;
0143833440999992008050620004-14950-040883FM-15+0914SBQV V0203401N002612200019N0112651N1+02801+01601999999ADDGA1021+010501999GA2041+090001999GF104991999999999999999999MA1101491999999REMMET058METAR SBQV 062000Z 34005KT 9999 FEW035 SCT300 28/16 Q1015;
0120833440999992008050621004-14950-040883FM-15+0914SBQV V0209999C000012200019N0112651N1+02501+01801999999ADDGA1021+007501999GF102991999999999999999999MA1101491999999REMMET051METAR SBQV 062100Z 00000KT 9999 FEW025 25/18 Q1015;
0120833440999992008050622004-14950-040883FM-15+0914SBQV V0209999C000012200019N0112651N1+02401+01701999999ADDGA1021+004801999GF102991999999999999999999MA1101491999999REMMET051METAR SBQV 062200Z 00000KT 9999 FEW016 24/17 Q1015;
0120833440999992008050623004-14950-040883FM-15+0914SBQV V0209999C000012200019N0112651N1+02101+01801999999ADDGA1021+004501999GF102991999999999999999999MA1101591999999REMMET051METAR SBQV 062300Z 00000KT 9999 FEW015 21/18 Q1016;
0120833440999992008050711004-14950-040883FM-15+0914SBQV V0201701N004612200019N0112651N1+02301+02101999999ADDGA1041+003001999GF104991999999999999999999MA1101901999999REMMET051METAR SBQV 071100Z 17009KT 9999 SCT010 23/21 Q1019;
0120833440999992008050712004-14950-040883FM-15+0914SBQV V0201701N004612200019N0112651N1+02601+02001999999ADDGA1041+004501999GF104991999999999999999999MA1101901999999REMMET051METAR SBQV 071200Z 17009KT 9999 SCT015 26/20 Q1019;
0120833440999992008050713004-14950-040883FM-15+0914SBQV V0201901N003612200019N0112651N1+02601+02001999999ADDGA1041+004801999GF104991999999999999999999MA1101901999999REMMET051METAR SBQV 071300Z 19007KT 9999 SCT016 26/20 Q1019;
0120833440999992008050714004-14950-040883FM-15+0914SBQV V0202001N002610054019N0112651N1+02601+01901999999ADDGA1071+005401999GF107991999999999999999999MA1101901999999REMMET051METAR SBQV 071400Z 20005KT 9999 BKN018 26/19 Q1019;
0120833440999992008050715004-14950-040883FM-15+0914SBQV V0201801N002612200019N0112651N1+02801+01901999999ADDGA1041+006001999GF104991999999999999999999MA1101801999999REMMET051METAR SBQV 071500Z 18005KT 9999 SCT020 28/19 Q1018;
0120833440999992008050716004-14950-040883FM-15+0914SBQV V0201601N002112200019N0112651N1+02701+01901999999ADDGA1041+006001999GF104991999999999999999999MA1101691999999REMMET051METAR SBQV 071600Z 16004KT 9999 SCT020 27/19 Q1017;
0120833440999992008050717004-14950-040883FM-15+0914SBQV V0201801N002112200019N0112651N1+02901+01801999999ADDGA1041+007501999GF104991999999999999999999MA1101591999999REMMET051METAR SBQV 071700Z 18004KT 9999 SCT025 29/18 Q1016;
0120833440999992008050718004-14950-040883FM-15+0914SBQV V0201601N001010075019N0112651N1+02801+01701999999ADDGA1071+007501999GF107991999999999999999999MA1101491999999REMMET051METAR SBQV 071800Z 16002KT 9999 BKN025 28/17 Q1015;
0120833440999992008050719004-14950-040883FM-15+0914SBQV V0201501N003612200019N0112651N1+02701+01901999999ADDGA1041+007501999GF104991999999999999999999MA1101491999999REMMET051METAR SBQV 071900Z 15007KT 9999 SCT025 27/19 Q1015;
0120833440999992008050720004-14950-040883FM-15+0914SBQV V0201701N004112200019N0112651N1+02601+01901999999ADDGA1021+007501999GF102991999999999999999999MA1101591999999REMMET051METAR SBQV 072000Z 17008KT 9999 FEW025 26/19 Q1016;
0120833440999992008050721004-14950-040883FM-15+0914SBQV V0201601N004112200019N0112651N1+02401+01901999999ADDGA1021+006001999GF102991999999999999999999MA1101591999999REMMET051METAR SBQV 072100Z 16008KT 9999 FEW020 24/19 Q1016;
0072833440999992008050722004-14950-040883FM-15+0914SBQV V0201501N00361220001CN0099001N1+02301+01901999999ADDMA1101591999999REMMET045METAR SBQV 072200Z 15007KT CAVOK 23/19 Q1016;
0072833440999992008050723004-14950-040883FM-15+0914SBQV V0201401N00361220001CN0099001N1+02201+01901999999ADDMA1101691999999REMMET045METAR SBQV 072300Z 14007KT CAVOK 22/19 Q1017;
0120833440999992008050800004-14950-040883FM-15+0914SBQV V0201501N004112200019N0112651N1+02101+02001999999ADDGA1021+002401999GF102991999999999999999999MA1101801999999REMMET051METAR SBQV 080000Z 15008KT 9999 FEW008 21/20 Q1018;
0084833440999992008050810154-14950-040883FM-16+0914SBQV V0201401N005112200019N0112651N1+01901+01801999999ADDMA1101901999999REMMET057METAR SBQV 081015Z SPECI 14010KT 9999 SCT006 19/18 Q1019;
0143833440999992008050811004-14950-040883FM-15+0914SBQV V0201401N004612200019N0112651N1+01901+01901999999ADDGA1041+001801999GA2041+004501999GF104991999999999999999999MA1101901999999REMMET058METAR SBQV 081100Z 14009KT 9999 SCT006 SCT015 19/19 Q1019;
0143833440999992008050812004-14950-040883FM-15+0914SBQV V0201601N004112200019N0112651N1+02001+01801999999ADDGA1041+002401999GA2041+004501999GF104991999999999999999999MA1102001999999REMMET058METAR SBQV 081200Z 16008KT 9999 SCT008 SCT015 20/18 Q1020;
0120833440999992008050813004-14950-040883FM-15+0914SBQV V0201401N004112200019N0112651N1+02401+01801999999ADDGA1041+006001999GF104991999999999999999999MA1102001999999REMMET051METAR SBQV 081300Z 14008KT 9999 SCT020 24/18 Q1020;
0120833440999992008050814004-14950-040883FM-15+0914SBQV V0201601N004110060019N0112651N1+02501+01801999999ADDGA1071+006001999GF107991999999999999999999MA1101901999999REMMET051METAR SBQV 081400Z 16008KT 9999 BKN020 25/18 Q1019;
0120833440999992008050815004-14950-040883FM-15+0914SBQV V0201701N002612200019N0112651N1+02601+01701999999ADDGA1021+007501999GF102991999999999999999999MA1101901999999REMMET051METAR SBQV 081500Z 17005KT 9999 FEW025 26/17 Q1019;
0120833440999992008050816004-14950-040883FM-15+0914SBQV V0201501N001512200019N0112651N1+02501+01601999999ADDGA1041+007501999GF104991999999999999999999MA1101691999999REMMET051METAR SBQV 081600Z 15003KT 9999 SCT025 25/16 Q1017;
0120833440999992008050817004-14950-040883FM-15+0914SBQV V0202701N001012200019N0112651N1+02701+01601999999ADDGA1041+007501999GF104991999999999999999999MA1101591999999REMMET051METAR SBQV 081700Z 27002KT 9999 SCT025 27/16 Q1016;
0120833440999992008050818004-14950-040883FM-15+0914SBQV V0201401N001512200019N0112651N1+02701+01501999999ADDGA1041+007501999GF104991999999999999999999MA1101591999999REMMET051METAR SBQV 081800Z 14003KT 9999 SCT025 27/15 Q1016;
0120833440999992008050819004-14950-040883FM-15+0914SBQV V0201701N003112200019N0112651N1+02601+01601999999ADDGA1021+007501999GF102991999999999999999999MA1101591999999REMMET051METAR SBQV 081900Z 17006KT 9999 FEW025 26/16 Q1016;
0120833440999992008050820004-14950-040883FM-15+0914SBQV V0201401N004612200019N0112651N1+02401+01701999999ADDGA1021+006001999GF102991999999999999999999MA1101591999999REMMET051METAR SBQV 082000Z 14009KT 9999 FEW020 24/17 Q1016;
0120833440999992008050821004-14950-040883FM-15+0914SBQV V0201401N003612200019N0112651N1+02301+01701999999ADDGA1021+005401999GF102991999999999999999999MA1101591999999REMMET051METAR SBQV 082100Z 14007KT 9999 FEW018 23/17 Q1016;
0072833440999992008050822004-14950-040883FM-15+0914SBQV V0201401N00361220001CN0099001N1+02101+01701999999ADDMA1101591999999REMMET045METAR SBQV 082200Z 14007KT CAVOK 21/17 Q1016;
0072833440999992008050823004-14950-040883FM-15+0914SBQV V0201401N00361220001CN0099001N1+02101+01701999999ADDMA1101691999999REMMET045METAR SBQV 082300Z 14007KT CAVOK 21/17 Q1017;
0084833440999992008050910154-14950-040883FM-16+0914SBQV V0201301N003112200019N0112651N1+01901+01701999999ADDMA1101901999999REMMET057METAR SBQV 091015Z SPECI 13006KT 9999 SCT015 19/17 Q1019;
0120833440999992008050911004-14950-040883FM-15+0914SBQV V0201501N003612200019N0112651N1+02001+01701999999ADDGA1041+004801999GF104991999999999999999999MA1101901999999REMMET051METAR SBQV 091100Z 15007KT 9999 SCT016 20/17 Q1019;
0120833440999992008050912004-14950-040883FM-15+0914SBQV V0201801N003110048019N0112651N1+02101+01801999999ADDGA1071+004801999GF107991999999999999999999MA1102001999999REMMET051METAR SBQV 091200Z 18006KT 9999 BKN016 21/18 Q1020;
0120833440999992008050913004-14950-040883FM-15+0914SBQV V0201701N003110054019N0112651N1+02201+01801999999ADDGA1071+005401999GF107991999999999999999999MA1102001999999REMMET051METAR SBQV 091300Z 17006KT 9999 BKN018 22/18 Q1020;
0120833440999992008050914004-14950-040883FM-15+0914SBQV V0201401N003110054019N0112651N1+02401+01801999999ADDGA1071+005401999GF107991999999999999999999MA1101901999999REMMET051METAR SBQV 091400Z 14006KT 9999 BKN018 24/18 Q1019;
0143833440999992008050915004-14950-040883FM-15+0914SBQV V0201901N002112200019N0112651N1+02401+01701999999ADDGA1021+006001999GA2041+090001999GF104991999999999999999999MA1101801999999REMMET058METAR SBQV 091500Z 19004KT 9999 FEW020 SCT300 24/17 Q1018;
0143833440999992008050916004-14950-040883FM-15+0914SBQV V0202101N002612200019N0112651N1+02601+01701999999ADDGA1041+007501999GA2041+090001999GF104991999999999999999999MA1101691999999REMMET058METAR SBQV 091600Z 21005KT 9999 SCT025 SCT300 26/17 Q1017;
0143833440999992008050917004-14950-040883FM-15+0914SBQV V0202401N001012200019N0112651N1+02601+01501999999ADDGA1041+007501999GA2041+090001999GF104991999999999999999999MA1101591999999REMMET058METAR SBQV 091700Z 24002KT 9999 SCT025 SCT300 26/15 Q1016;
0143833440999992008050918004-14950-040883FM-15+0914SBQV V0203201N001012200019N0112651N1+02601+01601999999ADDGA1041+007501999GA2041+090001999GF104991999999999999999999MA1101591999999REMMET058METAR SBQV 091800Z 32002KT 9999 SCT025 SCT300 26/16 Q1016;
0120833440999992008050919004-14950-040883FM-15+0914SBQV V0201701N002112200019N0112651N1+02601+01501999999ADDGA1021+007501999GF102991999999999999999999MA1101591999999REMMET051METAR SBQV 091900Z 17004KT 9999 FEW025 26/15 Q1016;
0120833440999992008050920004-14950-040883FM-15+0914SBQV V0201401N003612200019N0112651N1+02401+01501999999ADDGA1021+006001999GF102991999999999999999999MA1101691999999REMMET051METAR SBQV 092000Z 14007KT 9999 FEW020 24/15 Q1017;
0120833440999992008050921004-14950-040883FM-15+0914SBQV V0201201N003112200019N0112651N1+02201+01601999999ADDGA1021+005401999GF102991999999999999999999MA1101691999999REMMET051METAR SBQV 092100Z 12006KT 9999 FEW018 22/16 Q1017;
0072833440999992008050922004-14950-040883FM-15+0914SBQV V0201101N00261220001CN0099001N1+02101+01601999999ADDMA1101691999999REMMET045METAR SBQV 092200Z 11005KT CAVOK 21/16 Q1017;
0072833440999992008050923004-14950-040883FM-15+0914SBQV V0201201N00261220001CN0099001N1+02001+01601999999ADDMA1101801999999REMMET045METAR SBQV 092300Z 12005KT CAVOK 20/16 Q1018;
0143833440999992008051011004-14950-040883FM-15+0914SBQV V0201101N003612200019N0112651N1+01901+01601999999ADDGA1021+004501999GA2041+090001999GF104991999999999999999999MA1102001999999REMMET058METAR SBQV 101100Z 11007KT 9999 FEW015 SCT300 19/16 Q1020;
0143833440999992008051012004-14950-040883FM-15+0914SBQV V0201201N005712200019N0112651N1+02101+01601999999ADDGA1021+005401999GA2041+090001999GF104991999999999999999999MA1102101999999REMMET058METAR SBQV 101200Z 12011KT 9999 FEW018 SCT300 21/16 Q1021;
0143833440999992008051013004-14950-040883FM-15+0914SBQV V0201201N005110900019N0112651N1+02301+01601999999ADDGA1021+006001999GA2071+090001999GF107991999999999999999999MA1102101999999REMMET058METAR SBQV 101300Z 12010KT 9999 FEW020 BKN300 23/16 Q1021;
0143833440999992008051014004-14950-040883FM-15+0914SBQV V0201301N005710900019N0112651N1+02401+01601999999ADDGA1021+006001999GA2071+090001999GF107991999999999999999999MA1102101999999REMMET058METAR SBQV 101400Z 13011KT 9999 FEW020 BKN300 24/16 Q1021;
0143833440999992008051015004-14950-040883FM-15+0914SBQV V0201401N005110900019N0112651N1+02501+01501999999ADDGA1021+007501999GA2071+090001999GF107991999999999999999999MA1102001999999REMMET058METAR SBQV 101500Z 14010KT 9999 FEW025 BKN300 25/15 Q1020;
0143833440999992008051016004-14950-040883FM-15+0914SBQV V0201301N004612200019N0112651N1+02501+01501999999ADDGA1041+007501999GA2041+090001999GF104991999999999999999999MA1102001999999REMMET058METAR SBQV 101600Z 13009KT 9999 SCT025 SCT300 25/15 Q1020;
0143833440999992008051017004-14950-040883FM-15+0914SBQV V0201301N004612200019N0112651N1+02401+01401999999ADDGA1041+007501999GA2041+090001999GF104991999999999999999999MA1101901999999REMMET058METAR SBQV 101700Z 13009KT 9999 SCT025 SCT300 24/14 Q1019;
0143833440999992008051018004-14950-040883FM-15+0914SBQV V0201201N004612200019N0112651N1+02501+01401999999ADDGA1041+007501999GA2041+090001999GF104991999999999999999999MA1101901999999REMMET058METAR SBQV 101800Z 12009KT 9999 SCT025 SCT300 25/14 Q1019;
0143833440999992008051019004-14950-040883FM-15+0914SBQV V0201301N005112200019N0112651N1+02401+01401999999ADDGA1021+006001999GA2041+024001999GF104991999999999999999999MA1101901999999REMMET058METAR SBQV 101900Z 13010KT 9999 FEW020 SCT080 24/14 Q1019;
0072833440999992008051020004-14950-040883FM-15+0914SBQV V0201201N00411220001CN0099001N1+02301+01401999999ADDMA1101901999999REMMET045METAR SBQV 102000Z 12008KT CAVOK 23/14 Q1019;
0072833440999992008051021004-14950-040883FM-15+0914SBQV V0201001N00311220001CN0099001N1+02201+01401999999ADDMA1101901999999REMMET045METAR SBQV 102100Z 10006KT CAVOK 22/14 Q1019;
0072833440999992008051022004-14950-040883FM-15+0914SBQV V0201101N00361220001CN0099001N1+02001+01501999999ADDMA1102001999999REMMET045METAR SBQV 102200Z 11007KT CAVOK 20/15 Q1020;
0123833440999992008051110154-14950-040883FM-16+0914SBQV V0201101N005719999999N0112651N1+01701+01501999999ADDKA1999M+99999MA1102201999999REMMET064METAR SBQV 111015Z SPECI 11011KT 9999 SCT013 BKN070 17/15 Q1022;EQDQ01 -00112ATMX  
0143833440999992008051111004-14950-040883FM-15+0914SBQV V0201201N005710210019N0112651N1+01801+01501999999ADDGA1021+004501999GA2071+021001999GF107991999999999999999999MA1102201999999REMMET058METAR SBQV 111100Z 12011KT 9999 FEW015 BKN070 18/15 Q1022;
0143833440999992008051112004-14950-040883FM-15+0914SBQV V0201101N006710240019N0112651N1+01901+01601999999ADDGA1021+004801999GA2071+024001999GF107991999999999999999999MA1102301999999REMMET058METAR SBQV 111200Z 11013KT 9999 FEW016 BKN080 19/16 Q1023;
0143833440999992008051113004-14950-040883FM-15+0914SBQV V0201101N006710240019N0112651N1+02101+01501999999ADDGA1021+005401999GA2071+024001999GF107991999999999999999999MA1102301999999REMMET058METAR SBQV 111300Z 11013KT 9999 FEW018 BKN080 21/15 Q1023;
0143833440999992008051114004-14950-040883FM-15+0914SBQV V0201401N006212200019N0112651N1+02201+01501999999ADDGA1021+006001999GA2041+090001999GF104991999999999999999999MA1102301999999REMMET058METAR SBQV 111400Z 14012KT 9999 FEW020 SCT300 22/15 Q1023;
0143833440999992008051115004-14950-040883FM-15+0914SBQV V0201301N005112200019N0112651N1+02401+01501999999ADDGA1021+006001999GA2041+090001999GF104991999999999999999999MA1102201999999REMMET058METAR SBQV 111500Z 13010KT 9999 FEW020 SCT300 24/15 Q1022;
0143833440999992008051116004-14950-040883FM-15+0914SBQV V0201201N004612200019N0112651N1+02501+01501999999ADDGA1021+006001999GA2041+090001999GF104991999999999999999999MA1102101999999REMMET058METAR SBQV 111600Z 12009KT 9999 FEW020 SCT300 25/15 Q1021;
0143833440999992008051117004-14950-040883FM-15+0914SBQV V0201501N005712200019N0112651N1+02501+01501999999ADDGA1021+006001999GA2041+090001999GF104991999999999999999999MA1102001999999REMMET058METAR SBQV 111700Z 15011KT 9999 FEW020 SCT300 25/15 Q1020;
0143833440999992008051118004-14950-040883FM-15+0914SBQV V0201601N005712200019N0112651N1+02501+01401999999ADDGA1021+006001999GA2041+090001999GF104991999999999999999999MA1102001999999REMMET058METAR SBQV 111800Z 16011KT 9999 FEW020 SCT300 25/14 Q1020;
0143833440999992008051119004-14950-040883FM-15+0914SBQV V0201601N004612200019N0112651N1+02301+01401999999ADDGA1021+005401999GA2041+090001999GF104991999999999999999999MA1102001999999REMMET058METAR SBQV 111900Z 16009KT 9999 FEW018 SCT300 23/14 Q1020;
0143833440999992008051120004-14950-040883FM-15+0914SBQV V0201301N004612200019N0112651N1+02201+01401999999ADDGA1021+004801999GA2041+090001999GF104991999999999999999999MA1102001999999REMMET058METAR SBQV 112000Z 13009KT 9999 FEW016 SCT300 22/14 Q1020;
0143833440999992008051121004-14950-040883FM-15+0914SBQV V0201401N003612200019N0112651N1+02001+01501999999ADDGA1021+004501999GA2041+090001999GF104991999999999999999999MA1102101999999REMMET058METAR SBQV 112100Z 14007KT 9999 FEW015 SCT300 20/15 Q1021;
0120833440999992008051122004-14950-040883FM-15+0914SBQV V0201601N003612200019N0112651N1+01901+01501999999ADDGA1021+003901999GF102991999999999999999999MA1102101999999REMMET051METAR SBQV 112200Z 16007KT 9999 FEW013 19/15 Q1021;
0120833440999992008051211004-14950-040883FM-15+0914SBQV V0201501N005712200019N0112651N1+01701+01401999999ADDGA1041+003901999GF104991999999999999999999MA1102401999999REMMET051METAR SBQV 121100Z 15011KT 9999 SCT013 17/14 Q1024;
0120833440999992008051212004-14950-040883FM-15+0914SBQV V0201501N005712200019N0112651N1+01901+01501999999ADDGA1021+004501999GF102991999999999999999999MA1102401999999REMMET051METAR SBQV 121200Z 15011KT 9999 FEW015 19/15 Q1024;
0120833440999992008051213004-14950-040883FM-15+0914SBQV V0201501N006212200019N0112651N1+02101+01501999999ADDGA1041+004801999GF104991999999999999999999MA1102401999999REMMET051METAR SBQV 121300Z 15012KT 9999 SCT016 21/15 Q1024;
0120833440999992008051214004-14950-040883FM-15+0914SBQV V0201301N006712200019N0112651N1+02201+01501999999ADDGA1041+005401999GF104991999999999999999999MA1102301999999REMMET051METAR SBQV 121400Z 13013KT 9999 SCT018 22/15 Q1023;
0120833440999992008051215004-14950-040883FM-15+0914SBQV V0201601N006212200019N0112651N1+02301+01401999999ADDGA1021+006001999GF102991999999999999999999MA1102201999999REMMET051METAR SBQV 121500Z 16012KT 9999 FEW020 23/14 Q1022;
0120833440999992008051216004-14950-040883FM-15+0914SBQV V0201101N004612200019N0112651N1+02401+01401999999ADDGA1021+007501999GF102991999999999999999999MA1102101999999REMMET051METAR SBQV 121600Z 11009KT 9999 FEW025 24/14 Q1021;
0120833440999992008051217004-14950-040883FM-15+0914SBQV V0201301N005112200019N0112651N1+02301+01401999999ADDGA1041+007501999GF104991999999999999999999MA1102101999999REMMET051METAR SBQV 121700Z 13010KT 9999 SCT025 23/14 Q1021;
0120833440999992008051218004-14950-040883FM-15+0914SBQV V0201101N005110075019N0112651N1+02301+01401999999ADDGA1071+007501999GF107991999999999999999999MA1102101999999REMMET051METAR SBQV 121800Z 11010KT 9999 BKN025 23/14 Q1021;
0143833440999992008051219004-14950-040883FM-15+0914SBQV V0201201N005112200019N0112651N1+02201+01401999999ADDGA1021+007501999GA2041+030001999GF104991999999999999999999MA1102101999999REMMET058METAR SBQV 121900Z 12010KT 9999 FEW025 SCT100 22/14 Q1021;
0143833440999992008051220004-14950-040883FM-15+0914SBQV V0201201N006212200019N0112651N1+02001+01401999999ADDGA1021+006001999GA2041+030001999GF104991999999999999999999MA1102101999999REMMET058METAR SBQV 122000Z 12012KT 9999 FEW020 SCT100 20/14 Q1021;
0143833440999992008051221004-14950-040883FM-15+0914SBQV V0201201N004610900019N0112651N1+01901+01401999999ADDGA1021+004801999GA2071+090001999GF107991999999999999999999MA1102101999999REMMET058METAR SBQV 122100Z 12009KT 9999 FEW016 BKN300 19/14 Q1021;
0072833440999992008051222004-14950-040883FM-15+0914SBQV V0201201N00411220001CN0099001N1+01801+01401999999ADDMA1102201999999REMMET045METAR SBQV 122200Z 12008KT CAVOK 18/14 Q1022;
0072833440999992008051223004-14950-040883FM-15+0914SBQV V0201201N00361220001CN0099001N1+01801+01401999999ADDMA1102201999999REMMET045METAR SBQV 122300Z 12007KT CAVOK 18/14 Q1022;
0143833440999992008051311004-14950-040883FM-15+0914SBQV V0201301N006212200019N0112651N1+01701+01501999999ADDGA1021+002701999GA2041+004501999GF104991999999999999999999MA1102301999999REMMET058METAR SBQV 131100Z 13012KT 9999 FEW009 SCT015 17/15 Q1023;
0120833440999992008051312004-14950-040883FM-15+0914SBQV V0201201N006712200019N0112651N1+02001+01401999999ADDGA1021+007501999GF102991999999999999999999MA1102401999999REMMET051METAR SBQV 131200Z 12013KT 9999 FEW025 20/14 Q1024;
0120833440999992008051313004-14950-040883FM-15+0914SBQV V0201301N005712200019N0112651N1+02201+01401999999ADDGA1021+007501999GF102991999999999999999999MA1102401999999REMMET051METAR SBQV 131300Z 13011KT 9999 FEW025 22/14 Q1024;
0143833440999992008051314004-14950-040883FM-15+0914SBQV V0201301N005712200019N0112651N1+02301+01301999999ADDGA1021+009001999GA2041+030001999GF104991999999999999999999MA1102301999999REMMET058METAR SBQV 131400Z 13011KT 9999 FEW030 SCT100 23/13 Q1023;
0143833440999992008051315004-14950-040883FM-15+0914SBQV V0201401N004612200019N0112651N1+02401+01401999999ADDGA1021+009001999GA2041+030001999GF104991999999999999999999MA1102201999999REMMET058METAR SBQV 131500Z 14009KT 9999 FEW030 SCT100 24/14 Q1022;
0120833440999992008051316004-14950-040883FM-15+0914SBQV V0201401N004110090019N0112651N1+02401+01401999999ADDGA1071+009001999GF107991999999999999999999MA1102101999999REMMET051METAR SBQV 131600Z 14008KT 9999 BKN030 24/14 Q1021;
0120833440999992008051317004-14950-040883FM-15+0914SBQV V0201101N004110075019N0112651N1+02301+01401999999ADDGA1071+007501999GF107991999999999999999999MA1102101999999REMMET051METAR SBQV 131700Z 11008KT 9999 BKN025 23/14 Q1021;
0120833440999992008051318004-14950-040883FM-15+0914SBQV V0201001N004110075019N0112651N1+02201+01301999999ADDGA1071+007501999GF107991999999999999999999MA1102001999999REMMET051METAR SBQV 131800Z 10008KT 9999 BKN025 22/13 Q1020;
0120833440999992008051319004-14950-040883FM-15+0914SBQV V0201001N004110060019N0112651N1+02201+01301999999ADDGA1071+006001999GF107991999999999999999999MA1102101999999REMMET051METAR SBQV 131900Z 10008KT 9999 BKN020 22/13 Q1021;
0120833440999992008051320004-14950-040883FM-15+0914SBQV V0201001N004110060019N0112651N1+02101+01301999999ADDGA1071+006001999GF107991999999999999999999MA1102101999999REMMET051METAR SBQV 132000Z 10008KT 9999 BKN020 21/13 Q1021;
0143833440999992008051321004-14950-040883FM-15+0914SBQV V0201101N003610048019N0112651N1+02101+01301999999ADDGA1041+003601999GA2071+004801999GF107991999999999999999999MA1102101999999REMMET058METAR SBQV 132100Z 11007KT 9999 SCT012 BKN016 21/13 Q1021;
0120833440999992008051322004-14950-040883FM-15+0914SBQV V0201301N004112200019N0112651N1+02001+01401999999ADDGA1041+003601999GF104991999999999999999999MA1102201999999REMMET051METAR SBQV 132200Z 13008KT 9999 SCT012 20/14 Q1022;
0120833440999992008051323004-14950-040883FM-15+0914SBQV V0201301N004612200019N0112651N1+02001+01301999999ADDGA1041+003601999GF104991999999999999999999MA1102201999999REMMET051METAR SBQV 132300Z 13009KT 9999 SCT012 20/13 Q1022;
0143833440999992008051411004-14950-040883FM-15+0914SBQV V0201201N003110900019N0112651N1+01801+01601999999ADDGA1021+002101999GA2071+090001999GF107991999999999999999999MA1102201999999REMMET058METAR SBQV 141100Z 12006KT 9999 FEW007 BKN300 18/16 Q1022;
0143833440999992008051412004-14950-040883FM-15+0914SBQV V0201301N002610900019N0112651N1+02001+01601999999ADDGA1021+003601999GA2071+090001999GF107991999999999999999999MA1102301999999REMMET058METAR SBQV 141200Z 13005KT 9999 FEW012 BKN300 20/16 Q1023;
0120833440999992008051413004-14950-040883FM-15+0914SBQV V0201301N002612200019N0112651N1+02101+01501999999ADDGA1021+004501999GF102991999999999999999999MA1102301999999REMMET051METAR SBQV 141300Z 13005KT 9999 FEW015 21/15 Q1023;
0120833440999992008051414004-14950-040883FM-15+0914SBQV V0201301N002612200019N0112651N1+02401+01501999999ADDGA1021+004801999GF102991999999999999999999MA1102201999999REMMET051METAR SBQV 141400Z 13005KT 9999 FEW016 24/15 Q1022;
0120833440999992008051415004-14950-040883FM-15+0914SBQV V0201401N002612200019N0112651N1+02601+01501999999ADDGA1041+005401999GF104991999999999999999999MA1102101999999REMMET051METAR SBQV 141500Z 14005KT 9999 SCT018 26/15 Q1021;
0120833440999992008051416004-14950-040883FM-15+0914SBQV V0201401N003110060019N0112651N1+02501+01501999999ADDGA1071+006001999GF107991999999999999999999MA1102001999999REMMET051METAR SBQV 141600Z 14006KT 9999 BKN020 25/15 Q1020;
0120833440999992008051417004-14950-040883FM-15+0914SBQV V0201201N003110060019N0112651N1+02501+01501999999ADDGA1071+006001999GF107991999999999999999999MA1101901999999REMMET051METAR SBQV 141700Z 12006KT 9999 BKN020 25/15 Q1019;
0120833440999992008051418004-14950-040883FM-15+0914SBQV V0201201N004610060019N0112651N1+02501+01501999999ADDGA1071+006001999GF107991999999999999999999MA1101901999999REMMET051METAR SBQV 141800Z 12009KT 9999 BKN020 25/15 Q1019;
0143833440999992008051419004-14950-040883FM-15+0914SBQV V0200901N004610270019N0112651N1+02401+01601999999ADDGA1021+006001999GA2071+027001999GF107991999999999999999999MA1101901999999REMMET058METAR SBQV 141900Z 09009KT 9999 FEW020 BKN090 24/16 Q1019;
0072833440999992008051420004-14950-040883FM-15+0914SBQV V0201101N00411220001CN0099001N1+02301+01601999999ADDMA1101901999999REMMET045METAR SBQV 142000Z 11008KT CAVOK 23/16 Q1019;
0120833440999992008051421004-14950-040883FM-15+0914SBQV V0201101N003612200019N0112651N1+02101+01601999999ADDGA1021+004801999GF102991999999999999999999MA1102001999999REMMET051METAR SBQV 142100Z 11007KT 9999 FEW016 21/16 Q1020;
0120833440999992008051422004-14950-040883FM-15+0914SBQV V0201101N003612200019N0112651N1+02001+01601999999ADDGA1021+004501999GF102991999999999999999999MA1102101999999REMMET051METAR SBQV 142200Z 11007KT 9999 FEW015 20/16 Q1021;
0072833440999992008051423004-14950-040883FM-15+0914SBQV V0201001N00361220001CN0099001N1+01901+01601999999ADDMA1102101999999REMMET045METAR SBQV 142300Z 10007KT CAVOK 19/16 Q1021;
0095833440999992008051510154-14950-040883FM-16+0914SBQV V0201201N004112200019N9999999N1+01801+01801999999ADDMA1102201999999REMMET068METAR SBQV 151015Z SPECI 12008KT 3000 -DZ BKN005 OVC070 18/18 Q1022;
0166833440999992008051511004-14950-040883FM-15+0914SBQV V0201401N004110015019N0112651N1+01901+01801999999ADDGA1071+001501999GA2041+003001999GA3071+021001999GF107991999999999999999999MA1102201999999REMMET065METAR SBQV 151100Z 14008KT 9999 BKN005 SCT010 BKN070 19/18 Q1022;
0143833440999992008051512004-14950-040883FM-15+0914SBQV V0201101N004610036019N0112651N1+02101+01801999999ADDGA1071+003601999GA2071+021001999GF107991999999999999999999MA1102301999999REMMET058METAR SBQV 151200Z 11009KT 9999 BKN012 BKN070 21/18 Q1023;
0143833440999992008051513004-14950-040883FM-15+0914SBQV V0201101N004112200019N0112651N1+02201+01801999999ADDGA1021+003901999GA2041+004501999GF104991999999999999999999MA1102301999999REMMET058METAR SBQV 151300Z 11008KT 9999 FEW013 SCT015 22/18 Q1023;
0136833440999992008051514004-14950-040883FM-15+0914SBQV V0201001N00361220001CN0112651N1+02301+01801999999ADDGA1071+004801999GA2041+024001999MA1102301999999REMMET058METAR SBQV 151400Z 10007KT 9999 BKN016 SCT080 23/18 Q1023;EQDQ01+000042SCOTCV
0136833440999992008051515004-14950-040883FM-15+0914SBQV V0200901N00311220001CN0112651N1+02401+01801999999ADDGA1071+005401999GA2041+024001999MA1102201999999REMMET058METAR SBQV 151500Z 09006KT 9999 BKN018 SCT080 24/18 Q1022;EQDQ01+000042SCOTCV
0153833440999992008051517004-14950-040883FM-15+0914SBQV V0201201N002110045019N0090001N1+02101+01901999999ADDGA1021+003901999GA2071+004501999GF107991999999999999999999MA1102001999999MW1611REMMET062METAR SBQV 151700Z 12004KT 9000 -RA FEW013 BKN015 21/19 Q1020;
0143833440999992008051518004-14950-040883FM-15+0914SBQV V0201301N002612200019N0112651N1+02201+01901999999ADDGA1021+004501999GA2041+021001999GF104991999999999999999999MA1102001999999REMMET058METAR SBQV 151800Z 13005KT 9999 FEW015 SCT070 22/19 Q1020;
0143833440999992008051519004-14950-040883FM-15+0914SBQV V0201401N004112200019N0112651N1+02101+01901999999ADDGA1021+004801999GA2041+021001999GF104991999999999999999999MA1102001999999REMMET058METAR SBQV 151900Z 14008KT 9999 FEW016 SCT070 21/19 Q1020;
0143833440999992008051520004-14950-040883FM-15+0914SBQV V0201301N003612200019N0112651N1+02101+01901999999ADDGA1021+004801999GA2041+021001999GF104991999999999999999999MA1102001999999REMMET058METAR SBQV 152000Z 13007KT 9999 FEW016 SCT070 21/19 Q1020;
0143833440999992008051521004-14950-040883FM-15+0914SBQV V0201301N004110210019N0112651N1+02001+01901999999ADDGA1041+002101999GA2071+021001999GF107991999999999999999999MA1102101999999REMMET058METAR SBQV 152100Z 13008KT 9999 SCT007 BKN070 20/19 Q1021;
0120833440999992008051522004-14950-040883FM-15+0914SBQV V0201401N003612200019N0112651N1+01901+01901999999ADDGA1041+001501999GF104991999999999999999999MA1102201999999REMMET051METAR SBQV 152200Z 14007KT 9999 SCT005 19/19 Q1022;
0120833440999992008051523004-14950-040883FM-15+0914SBQV V0201201N003112200019N0112651N1+01901+01901999999ADDGA1041+001501999GF104991999999999999999999MA1102201999999REMMET051METAR SBQV 152300Z 12006KT 9999 SCT005 19/19 Q1022;
0143833440999992008051611004-14950-040883FM-15+0914SBQV V0200901N003612200019N0112651N1+02001+01801999999ADDGA1021+003901999GA2041+004501999GF104991999999999999999999MA1102301999999REMMET058METAR SBQV 161100Z 09007KT 9999 FEW013 SCT015 20/18 Q1023;
0120833440999992008051612004-14950-040883FM-15+0914SBQV V0201201N003110048019N0112651N1+02101+01801999999ADDGA1071+004801999GF107991999999999999999999MA1102301999999REMMET051METAR SBQV 161200Z 12006KT 9999 BKN016 21/18 Q1023;
0120833440999992008051613004-14950-040883FM-15+0914SBQV V0201101N003110054019N0112651N1+02301+01801999999ADDGA1071+005401999GF107991999999999999999999MA1102301999999REMMET051METAR SBQV 161300Z 11006KT 9999 BKN018 23/18 Q1023;
0120833440999992008051614004-14950-040883FM-15+0914SBQV V0201201N002610054019N0112651N1+02301+01801999999ADDGA1071+005401999GF107991999999999999999999MA1102201999999REMMET051METAR SBQV 161400Z 12005KT 9999 BKN018 23/18 Q1022;
0120833440999992008051615004-14950-040883FM-15+0914SBQV V0201101N003110060019N0112651N1+02401+01801999999ADDGA1071+006001999GF107991999999999999999999MA1102101999999REMMET051METAR SBQV 161500Z 11006KT 9999 BKN020 24/18 Q1021;
0120833440999992008051616004-14950-040883FM-15+0914SBQV V0201601N001510060019N0112651N1+02501+01701999999ADDGA1071+006001999GF107991999999999999999999MA1102001999999REMMET051METAR SBQV 161600Z 16003KT 9999 BKN020 25/17 Q1020;
0120833440999992008051617004-14950-040883FM-15+0914SBQV V0201301N002110060019N0112651N1+02501+01701999999ADDGA1071+006001999GF107991999999999999999999MA1101901999999REMMET051METAR SBQV 161700Z 13004KT 9999 BKN020 25/17 Q1019;
0143833440999992008051618004-14950-040883FM-15+0914SBQV V0201201N003612200019N0112651N1+02501+01701999999ADDGA1041+006001999GA2041+090001999GF104991999999999999999999MA1101901999999REMMET058METAR SBQV 161800Z 12007KT 9999 SCT020 SCT300 25/17 Q1019;
0143833440999992008051619004-14950-040883FM-15+0914SBQV V0201201N004610900019N0112651N1+02501+01701999999ADDGA1021+006001999GA2071+090001999GF107991999999999999999999MA1101901999999REMMET058METAR SBQV 161900Z 12009KT 9999 FEW020 BKN300 25/17 Q1019;
0143833440999992008051620004-14950-040883FM-15+0914SBQV V0201401N003110900019N0112651N1+02301+01701999999ADDGA1021+006001999GA2071+090001999GF107991999999999999999999MA1102001999999REMMET058METAR SBQV 162000Z 14006KT 9999 FEW020 BKN300 23/17 Q1020;
0143833440999992008051621004-14950-040883FM-15+0914SBQV V0201201N002610900019N0112651N1+02101+01701999999ADDGA1021+004801999GA2071+090001999GF107991999999999999999999MA1102001999999REMMET058METAR SBQV 162100Z 12005KT 9999 FEW016 BKN300 21/17 Q1020;
0072833440999992008051622004-14950-040883FM-15+0914SBQV V0200901N00261220001CN0099001N1+02001+01601999999ADDMA1102101999999REMMET045METAR SBQV 162200Z 09005KT CAVOK 20/16 Q1021;
0143833440999992008051623004-14950-040883FM-15+0914SBQV V0201001N002612200019N0112651N1+02001+01701999999ADDGA1021+004801999GA2041+090001999GF104991999999999999999999MA1102101999999REMMET058METAR SBQV 162300Z 10005KT 9999 FEW016 SCT300 20/17 Q1021;
0091833440999992008051710154-14950-040883FM-16+0914SBQV V0201301N004112200019N0112651N1+01901+01801999999ADDMA1102301999999REMMET064METAR SBQV 171015Z SPECI 13008KT 9999 SCT011 SCT070 19/18 Q1023;
0143833440999992008051711004-14950-040883FM-15+0914SBQV V0201501N003612200019N0112651N1+01901+01801999999ADDGA1041+003901999GA2041+021001999GF104991999999999999999999MA1102301999999REMMET058METAR SBQV 171100Z 15007KT 9999 SCT013 SCT070 19/18 Q1023;
0143833440999992008051712004-14950-040883FM-15+0914SBQV V0201501N003612200019N0112651N1+02301+01901999999ADDGA1041+004501999GA2041+021001999GF104991999999999999999999MA1102401999999REMMET058METAR SBQV 171200Z 15007KT 9999 SCT015 SCT070 23/19 Q1024;
0120833440999992008051713004-14950-040883FM-15+0914SBQV V0201501N004112200019N0112651N1+02301+01601999999ADDGA1041+004801999GF104991999999999999999999MA1102401999999REMMET051METAR SBQV 171300Z 15008KT 9999 SCT016 23/16 Q1024;
0120833440999992008051714004-14950-040883FM-15+0914SBQV V0201501N004112200019N0112651N1+02601+01701999999ADDGA1041+005401999GF104991999999999999999999MA1102301999999REMMET051METAR SBQV 171400Z 15008KT 9999 SCT018 26/17 Q1023;
0143833440999992008051715004-14950-040883FM-15+0914SBQV V0201401N005112200019N0112651N1+02501+01801999999ADDGA1041+005401999GA2041+090001999GF104991999999999999999999MA1102301999999REMMET058METAR SBQV 171500Z 14010KT 9999 SCT018 SCT300 25/18 Q1023;
0143833440999992008051716004-14950-040883FM-15+0914SBQV V0201301N005110900019N0112651N1+02601+01801999999ADDGA1041+006001999GA2071+090001999GF107991999999999999999999MA1102201999999REMMET058METAR SBQV 171600Z 13010KT 9999 SCT020 BKN300 26/18 Q1022;
0143833440999992008051717004-14950-040883FM-15+0914SBQV V0201401N004112200019N0112651N1+02501+01801999999ADDGA1041+006001999GA2041+090001999GF104991999999999999999999MA1102101999999REMMET058METAR SBQV 171700Z 14008KT 9999 SCT020 SCT300 25/18 Q1021;
0143833440999992008051718004-14950-040883FM-15+0914SBQV V0201201N006210240019N0112651N1+02401+01801999999ADDGA1041+006001999GA2071+024001999GF107991999999999999999999MA1102101999999REMMET058METAR SBQV 171800Z 12012KT 9999 SCT020 BKN080 24/18 Q1021;
0143833440999992008051719004-14950-040883FM-15+0914SBQV V0201201N005710240019N0112651N1+02301+01701999999ADDGA1021+006001999GA2071+024001999GF107991999999999999999999MA1102101999999REMMET058METAR SBQV 171900Z 12011KT 9999 FEW020 BKN080 23/17 Q1021;
0117833440999992008051720004-14950-040883FM-15+0914SBQV V0201101N00511220001CN0112651N1+02201+01601999999ADDGA1071+006001999GA2041+021001999MA1102101999999REMMET058METAR SBQV 172000Z 11010KT 9999 BKN020 SCT070 22/16 Q1021;
0120833440999992008051721004-14950-040883FM-15+0914SBQV V0201101N004110060019N0112651N1+02101+01601999999ADDGA1071+006001999GF107991999999999999999999MA1102201999999REMMET051METAR SBQV 172100Z 11008KT 9999 BKN020 21/16 Q1022;
0143833440999992008051722004-14950-040883FM-15+0914SBQV V0201001N004112200019N0112651N1+02101+01701999999ADDGA1041+004801999GA2041+021001999GF104991999999999999999999MA1102201999999REMMET058METAR SBQV 172200Z 10008KT 9999 SCT016 SCT070 21/17 Q1022;
0091833440999992008051810154-14950-040883FM-16+0914SBQV V0201201N005112200019N0112651N1+01801+01701999999ADDMA1102301999999REMMET064METAR SBQV 181015Z SPECI 12010KT 9999 BKN010 BKN013 18/17 Q1023;
0143833440999992008051811004-14950-040883FM-15+0914SBQV V0201301N006210045019N0112651N1+01901+01701999999ADDGA1021+003301999GA2071+004501999GF107991999999999999999999MA1102401999999REMMET058METAR SBQV 181100Z 13012KT 9999 FEW011 BKN015 19/17 Q1024;
0143833440999992008051812004-14950-040883FM-15+0914SBQV V0201201N005710240019N0112651N1+02001+01601999999ADDGA1021+004501999GA2071+024001999GF107991999999999999999999MA1102401999999REMMET058METAR SBQV 181200Z 12011KT 9999 FEW015 BKN080 20/16 Q1024;
0143833440999992008051813004-14950-040883FM-15+0914SBQV V0201101N005710240019N0112651N1+02201+01601999999ADDGA1041+006001999GA2071+024001999GF107991999999999999999999MA1102401999999REMMET058METAR SBQV 181300Z 11011KT 9999 SCT020 BKN080 22/16 Q1024;
0143833440999992008051814004-14950-040883FM-15+0914SBQV V0201201N006212200019N0112651N1+02201+01601999999ADDGA1041+006001999GA2041+024001999GF104991999999999999999999MA1102301999999REMMET058METAR SBQV 181400Z 12012KT 9999 SCT020 SCT080 22/16 Q1023;
0120833440999992008051815004-14950-040883FM-15+0914SBQV V0201201N004610060019N0112651N1+02301+01601999999ADDGA1071+006001999GF107991999999999999999999MA1102201999999REMMET051METAR SBQV 181500Z 12009KT 9999 BKN020 23/16 Q1022;
0143833440999992008051816004-14950-040883FM-15+0914SBQV V0201201N006210240019N0112651N1+02201+01601999999ADDGA1021+006001999GA2071+024001999GF107991999999999999999999MA1102201999999REMMET058METAR SBQV 181600Z 12012KT 9999 FEW020 BKN080 22/16 Q1022;
0143833440999992008051817004-14950-040883FM-15+0914SBQV V0201301N004610240019N0112651N1+02201+01601999999ADDGA1021+006001999GA2071+024001999GF107991999999999999999999MA1102101999999REMMET058METAR SBQV 181700Z 13009KT 9999 FEW020 BKN080 22/16 Q1021;
0143833440999992008051818004-14950-040883FM-15+0914SBQV V0201201N004610240019N0112651N1+02201+01601999999ADDGA1021+006001999GA2071+024001999GF107991999999999999999999MA1102101999999REMMET058METAR SBQV 181800Z 12009KT 9999 FEW020 BKN080 22/16 Q1021;
0143833440999992008051819004-14950-040883FM-15+0914SBQV V0201201N004612200019N0112651N1+02101+01601999999ADDGA1021+006001999GA2041+024001999GF104991999999999999999999MA1102101999999REMMET058METAR SBQV 181900Z 12009KT 9999 FEW020 SCT080 21/16 Q1021;
0072833440999992008051820004-14950-040883FM-15+0914SBQV V0201201N00411220001CN0099001N1+02001+01601999999ADDMA1102101999999REMMET045METAR SBQV 182000Z 12008KT CAVOK 20/16 Q1021;
0072833440999992008051821004-14950-040883FM-15+0914SBQV V0201201N00311220001CN0099001N1+01901+01601999999ADDMA1102101999999REMMET045METAR SBQV 182100Z 12006KT CAVOK 19/16 Q1021;
0072833440999992008051822004-14950-040883FM-15+0914SBQV V0201201N00311220001CN0099001N1+01901+01601999999ADDMA1102101999999REMMET045METAR SBQV 182200Z 12006KT CAVOK 19/16 Q1021;
0120833440999992008051911004-14950-040883FM-15+0914SBQV V0201201N004610045019N0112651N1+01801+01601999999ADDGA1071+004501999GF107991999999999999999999MA1102201999999REMMET051METAR SBQV 191100Z 12009KT 9999 BKN015 18/16 Q1022;
0143833440999992008051912004-14950-040883FM-15+0914SBQV V0201101N004612200019N0112651N1+02001+01601999999ADDGA1021+004801999GA2041+090001999GF104991999999999999999999MA1102301999999REMMET058METAR SBQV 191200Z 11009KT 9999 FEW016 SCT300 20/16 Q1023;
0143833440999992008051913004-14950-040883FM-15+0914SBQV V0201301N005112200019N0112651N1+02201+01501999999ADDGA1021+005401999GA2041+090001999GF104991999999999999999999MA1102301999999REMMET058METAR SBQV 191300Z 13010KT 9999 FEW018 SCT300 22/15 Q1023;
0120833440999992008051914004-14950-040883FM-15+0914SBQV V0201501N003612200019N0112651N1+02401+01501999999ADDGA1021+006001999GF102991999999999999999999MA1102201999999REMMET051METAR SBQV 191400Z 15007KT 9999 FEW020 24/15 Q1022;
0120833440999992008051915004-14950-040883FM-15+0914SBQV V0202401N001012200019N0112651N1+02501+01501999999ADDGA1041+006001999GF104991999999999999999999MA1102101999999REMMET051METAR SBQV 191500Z 24002KT 9999 SCT020 25/15 Q1021;
0120833440999992008051916004-14950-040883FM-15+0914SBQV V0201601N001012200019N0112651N1+02401+01501999999ADDGA1041+006001999GF104991999999999999999999MA1102001999999REMMET051METAR SBQV 191600Z 16002KT 9999 SCT020 24/15 Q1020;
0120833440999992008051917004-14950-040883FM-15+0914SBQV V0201801N002112200019N0112651N1+02501+01401999999ADDGA1041+006001999GF104991999999999999999999MA1101901999999REMMET051METAR SBQV 191700Z 18004KT 9999 SCT020 25/14 Q1019;
0143833440999992008051918004-14950-040883FM-15+0914SBQV V0201501N003610900019N0112651N1+02601+01501999999ADDGA1021+007501999GA2071+090001999GF107991999999999999999999MA1101901999999REMMET058METAR SBQV 191800Z 15007KT 9999 FEW025 BKN300 26/15 Q1019;
0143833440999992008051919004-14950-040883FM-15+0914SBQV V0201601N002610900019N0112651N1+02501+01501999999ADDGA1021+007501999GA2071+090001999GF107991999999999999999999MA1101901999999REMMET058METAR SBQV 191900Z 16005KT 9999 FEW025 BKN300 25/15 Q1019;
0072833440999992008051920004-14950-040883FM-15+0914SBQV V0201301N00411220001CN0099001N1+02301+01501999999ADDMA1101901999999REMMET045METAR SBQV 192000Z 13008KT CAVOK 23/15 Q1019;
0072833440999992008051921004-14950-040883FM-15+0914SBQV V0201101N00311220001CN0099001N1+02101+01501999999ADDMA1101901999999REMMET045METAR SBQV 192100Z 11006KT CAVOK 21/15 Q1019;
0072833440999992008051922004-14950-040883FM-15+0914SBQV V0201001N00151220001CN0099001N1+02001+01501999999ADDMA1102001999999REMMET045METAR SBQV 192200Z 10003KT CAVOK 20/15 Q1020;
0072833440999992008051923004-14950-040883FM-15+0914SBQV V0201001N00151220001CN0099001N1+01901+01501999999ADDMA1102001999999REMMET045METAR SBQV 192300Z 10003KT CAVOK 19/15 Q1020;
0084833440999992008052010154-14950-040883FM-16+0914SBQV V0201301N004112200019N0112651N1+01801+01601999999ADDMA1102101999999REMMET057METAR SBQV 201015Z SPECI 13008KT 9999 BKN011 18/16 Q1021;
0120833440999992008052011004-14950-040883FM-15+0914SBQV V0201201N005112200019N0112651N1+02001+01601999999ADDGA1041+003601999GF104991999999999999999999MA1102101999999REMMET051METAR SBQV 201100Z 12010KT 9999 SCT012 20/16 Q1021;
0120833440999992008052012004-14950-040883FM-15+0914SBQV V0201401N005112200019N0112651N1+02101+01501999999ADDGA1021+004801999GF102991999999999999999999MA1102201999999REMMET051METAR SBQV 201200Z 14010KT 9999 FEW016 21/15 Q1022;
0120833440999992008052013004-14950-040883FM-15+0914SBQV V0201201N006212200019N0112651N1+02301+01301999999ADDGA1021+005401999GF102991999999999999999999MA1102201999999REMMET051METAR SBQV 201300Z 12012KT 9999 FEW018 23/13 Q1022;
0120833440999992008052014004-14950-040883FM-15+0914SBQV V0201401N005712200019N0112651N1+02401+01401999999ADDGA1021+006001999GF102991999999999999999999MA1102101999999REMMET051METAR SBQV 201400Z 14011KT 9999 FEW020 24/14 Q1021;
0120833440999992008052015004-14950-040883FM-15+0914SBQV V0201301N005712200019N0112651N1+02501+01401999999ADDGA1021+007501999GF102991999999999999999999MA1102001999999REMMET051METAR SBQV 201500Z 13011KT 9999 FEW025 25/14 Q1020;
0120833440999992008052016004-14950-040883FM-15+0914SBQV V0201201N005112200019N0112651N1+02601+01301999999ADDGA1021+007501999GF102991999999999999999999MA1101901999999REMMET051METAR SBQV 201600Z 12010KT 9999 FEW025 26/13 Q1019;
0120833440999992008052017004-14950-040883FM-15+0914SBQV V0201201N003612200019N0112651N1+02601+01401999999ADDGA1021+007501999GF102991999999999999999999MA1101801999999REMMET051METAR SBQV 201700Z 12007KT 9999 FEW025 26/14 Q1018;
0120833440999992008052018004-14950-040883FM-15+0914SBQV V0201101N004612200019N0112651N1+02601+01301999999ADDGA1021+007501999GF102991999999999999999999MA1101801999999REMMET051METAR SBQV 201800Z 11009KT 9999 FEW025 26/13 Q1018;
0120833440999992008052019004-14950-040883FM-15+0914SBQV V0201201N005112200019N0112651N1+02501+01301999999ADDGA1021+007501999GF102991999999999999999999MA1101801999999REMMET051METAR SBQV 201900Z 12010KT 9999 FEW025 25/13 Q1018;
0120833440999992008052020004-14950-040883FM-15+0914SBQV V0201201N004612200019N0112651N1+02301+01401999999ADDGA1021+006001999GF102991999999999999999999MA1101801999999REMMET051METAR SBQV 202000Z 12009KT 9999 FEW020 23/14 Q1018;
0120833440999992008052021004-14950-040883FM-15+0914SBQV V0201101N002612200019N0112651N1+02001+01401999999ADDGA1021+004801999GF102991999999999999999999MA1101901999999REMMET051METAR SBQV 202100Z 11005KT 9999 FEW016 20/14 Q1019;
0072833440999992008052023004-14950-040883FM-15+0914SBQV V0201201N00261220001CN0099001N1+01801+01401999999ADDMA1102001999999REMMET045METAR SBQV 202300Z 12005KT CAVOK 18/14 Q1020;
0072833440999992008052111004-14950-040883FM-15+0914SBQV V0201201N00411220001CN0099001N1+01701+01601999999ADDMA1102001999999REMMET045METAR SBQV 211100Z 12008KT CAVOK 17/16 Q1020;
0072833440999992008052112004-14950-040883FM-15+0914SBQV V0201301N00511220001CN0099001N1+02001+01501999999ADDMA1102001999999REMMET045METAR SBQV 211200Z 13010KT CAVOK 20/15 Q1020;
0143833440999992008052113004-14950-040883FM-15+0914SBQV V0201301N004112200019N0112651N1+02201+01401999999ADDGA1021+004501999GA2041+090001999GF104991999999999999999999MA1102001999999REMMET058METAR SBQV 211300Z 13008KT 9999 FEW015 SCT300 22/14 Q1020;
0120833440999992008052114004-14950-040883FM-15+0914SBQV V0201201N002612200019N0112651N1+02301+01301999999ADDGA1021+005401999GF102991999999999999999999MA1102001999999REMMET051METAR SBQV 211400Z 12005KT 9999 FEW018 23/13 Q1020;
0120833440999992008052115004-14950-040883FM-15+0914SBQV V0201401N003112200019N0112651N1+02501+01301999999ADDGA1021+006001999GF102991999999999999999999MA1101901999999REMMET051METAR SBQV 211500Z 14006KT 9999 FEW020 25/13 Q1019;
0143833440999992008052116004-14950-040883FM-15+0914SBQV V0202001N001512200019N0112651N1+02501+01201999999ADDGA1021+006001999GA2041+090001999GF104991999999999999999999MA1101801999999REMMET058METAR SBQV 211600Z 20003KT 9999 FEW020 SCT300 25/12 Q1018;
0143833440999992008052117004-14950-040883FM-15+0914SBQV V0201201N002110900019N0112651N1+02601+01201999999ADDGA1021+006001999GA2071+090001999GF107991999999999999999999MA1101691999999REMMET058METAR SBQV 211700Z 12004KT 9999 FEW020 BKN300 26/12 Q1017;
0072833440999992008052118004-14950-040883FM-15+0914SBQV V0201301N00361220001CN0099001N1+02601+01101999999ADDMA1101691999999REMMET045METAR SBQV 211800Z 13007KT CAVOK 26/11 Q1017;
0072833440999992008052119004-14950-040883FM-15+0914SBQV V0201401N00461220001CN0099001N1+02501+01201999999ADDMA1101691999999REMMET045METAR SBQV 211900Z 14009KT CAVOK 25/12 Q1017;
0072833440999992008052120004-14950-040883FM-15+0914SBQV V0201301N00461220001CN0099001N1+02201+01201999999ADDMA1101801999999REMMET045METAR SBQV 212000Z 13009KT CAVOK 22/12 Q1018;
0072833440999992008052121004-14950-040883FM-15+0914SBQV V0201201N00261220001CN0099001N1+02001+01301999999ADDMA1101801999999REMMET045METAR SBQV 212100Z 12005KT CAVOK 20/13 Q1018;
0072833440999992008052122004-14950-040883FM-15+0914SBQV V0200801N00361220001CN0099001N1+02001+01501999999ADDMA1101801999999REMMET045METAR SBQV 212200Z 08007KT CAVOK 20/15 Q1018;
0072833440999992008052123004-14950-040883FM-15+0914SBQV V0200801N00311220001CN0099001N1+02001+01501999999ADDMA1101901999999REMMET045METAR SBQV 212300Z 08006KT CAVOK 20/15 Q1019;
0145833440999992008052211004-14950-040883FM-15+0914SBQV V0201201N00151220001CN0050001N1+01601+01601999999ADDGA1071+001801999GA2041+021001999MA1102101999999MW1101REMMET061METAR SBQV 221100Z 12003KT 5000 BR BKN006 SCT070 16/16 Q1021;EQDQ01+000042SCOTCV
0120833440999992008052212004-14950-040883FM-15+0914SBQV V0201501N002610030019N0112651N1+01801+01801999999ADDGA1071+003001999GF107991999999999999999999MA1102101999999REMMET051METAR SBQV 221200Z 15005KT 9999 BKN010 18/18 Q1021;
0143833440999992008052213004-14950-040883FM-15+0914SBQV V0201401N002612200019N0112651N1+02301+01701999999ADDGA1021+004501999GA2041+090001999GF104991999999999999999999MA1102101999999REMMET058METAR SBQV 221300Z 14005KT 9999 FEW015 SCT300 23/17 Q1021;
0143833440999992008052214004-14950-040883FM-15+0914SBQV V0201701N001512200019N0112651N1+02501+01201999999ADDGA1021+004801999GA2041+090001999GF104991999999999999999999MA1102001999999REMMET058METAR SBQV 221400Z 17003KT 9999 FEW016 SCT300 25/12 Q1020;
0143833440999992008052215004-14950-040883FM-15+0914SBQV V0201501N002112200019N0112651N1+02601+01401999999ADDGA1021+005401999GA2041+090001999GF104991999999999999999999MA1102001999999REMMET058METAR SBQV 221500Z 15004KT 9999 FEW018 SCT300 26/14 Q1020;
0143833440999992008052216004-14950-040883FM-15+0914SBQV V0201401N002110900019N0112651N1+02801+01301999999ADDGA1021+007501999GA2071+090001999GF107991999999999999999999MA1101901999999REMMET058METAR SBQV 221600Z 14004KT 9999 FEW025 BKN300 28/13 Q1019;
0143833440999992008052217004-14950-040883FM-15+0914SBQV V0201101N002110900019N0112651N1+02701+01301999999ADDGA1021+009001999GA2071+090001999GF107991999999999999999999MA1101801999999REMMET058METAR SBQV 221700Z 11004KT 9999 FEW030 BKN300 27/13 Q1018;
0143833440999992008052218004-14950-040883FM-15+0914SBQV V0201201N003610900019N0112651N1+02701+01301999999ADDGA1021+007501999GA2071+090001999GF107991999999999999999999MA1101801999999REMMET058METAR SBQV 221800Z 12007KT 9999 FEW025 BKN300 27/13 Q1018;
0072833440999992008052220004-14950-040883FM-15+0914SBQV V0201201N00411220001CN0099001N1+02401+01301999999ADDMA1101801999999REMMET045METAR SBQV 222000Z 12008KT CAVOK 24/13 Q1018;
0072833440999992008052221004-14950-040883FM-15+0914SBQV V0201001N00361220001CN0099001N1+02201+01301999999ADDMA1101901999999REMMET045METAR SBQV 222100Z 10007KT CAVOK 22/13 Q1019;
0072833440999992008052222004-14950-040883FM-15+0914SBQV V0200901N00261220001CN0099001N1+02101+01301999999ADDMA1101901999999REMMET045METAR SBQV 222200Z 09005KT CAVOK 21/13 Q1019;
0072833440999992008052311004-14950-040883FM-15+0914SBQV V0201201N00211220001CN0099001N1+02101+01601999999ADDMA1102001999999REMMET045METAR SBQV 231100Z 12004KT CAVOK 21/16 Q1020;
0072833440999992008052312004-14950-040883FM-15+0914SBQV V0200901N00361220001CN0099001N1+02301+01601999999ADDMA1102001999999REMMET045METAR SBQV 231200Z 09007KT CAVOK 23/16 Q1020;
0072833440999992008052313004-14950-040883FM-15+0914SBQV V0201201N00311220001CN0099001N1+02401+01501999999ADDMA1102001999999REMMET045METAR SBQV 231300Z 12006KT CAVOK 24/15 Q1020;
0120833440999992008052314004-14950-040883FM-15+0914SBQV V0201301N002112200019N0112651N1+02601+01501999999ADDGA1021+010501999GF102991999999999999999999MA1102001999999REMMET051METAR SBQV 231400Z 13004KT 9999 FEW035 26/15 Q1020;
0120833440999992008052315004-14950-040883FM-15+0914SBQV V0201001N002612200019N0112651N1+02601+01501999999ADDGA1021+010501999GF102991999999999999999999MA1101901999999REMMET051METAR SBQV 231500Z 10005KT 9999 FEW035 26/15 Q1019;
0120833440999992008052321004-14950-040883FM-15+0914SBQV V0201101N002612200019N0112651N1+02201+01401999999ADDGA1021+005401999GF102991999999999999999999MA1101801999999REMMET051METAR SBQV 232100Z 11005KT 9999 FEW018 22/14 Q1018;
0072833440999992008052323004-14950-040883FM-15+0914SBQV V0200901N00311220001CN0099001N1+02101+01401999999ADDMA1101901999999REMMET045METAR SBQV 232300Z 09006KT CAVOK 21/14 Q1019;
0120833440999992008052400004-14950-040883FM-15+0914SBQV V0201001N003112200019N0112651N1+02101+01401999999ADDGA1021+004801999GF102991999999999999999999MA1101901999999REMMET051METAR SBQV 240000Z 10006KT 9999 FEW016 21/14 Q1019;
0120833440999992008052401004-14950-040883FM-15+0914SBQV V0200901N002612200019N0112651N1+01901+01501999999ADDGA1021+004501999GF102991999999999999999999MA1101901999999REMMET051METAR SBQV 240100Z 09005KT 9999 FEW015 19/15 Q1019;
0087833440999992008052410154-14950-040883FM-16+0914SBQV V0201301N002112200019N9999999N1+01601+01601999999ADDMA1102001999999REMMET060METAR SBQV 241015Z SPECI 13004KT 0200 FG OVC005 16/16 Q1020;
0087833440999992008052410354-14950-040883FM-16+0914SBQV V0201301N002112200019N9999999N1+01701+01701999999ADDMA1102001999999REMMET060METAR SBQV 241035Z SPECI 13004KT 1500 BR OVC006 17/17 Q1020;
0143833440999992008052412004-14950-040883FM-15+0914SBQV V0201301N002612200019N0112651N1+02101+01801999999ADDGA1021+003301999GA2041+090001999GF104991999999999999999999MA1102101999999REMMET058METAR SBQV 241200Z 13005KT 9999 FEW011 SCT300 21/18 Q1021;
0143833440999992008052414004-14950-040883FM-15+0914SBQV V0203601N001512200019N0112651N1+02601+01601999999ADDGA1041+004801999GA2041+090001999GF104991999999999999999999MA1102001999999REMMET058METAR SBQV 241400Z 36003KT 9999 SCT016 SCT300 26/16 Q1020;
0143833440999992008052415004-14950-040883FM-15+0914SBQV V0203101N001512200019N0112651N1+02701+01501999999ADDGA1041+005401999GA2041+090001999GF104991999999999999999999MA1101901999999REMMET058METAR SBQV 241500Z 31003KT 9999 SCT018 SCT300 27/15 Q1019;
0143833440999992008052416004-14950-040883FM-15+0914SBQV V0200301N001012200019N0112651N1+02801+01501999999ADDGA1041+007501999GA2041+090001999GF104991999999999999999999MA1101801999999REMMET058METAR SBQV 241600Z 03002KT 9999 SCT025 SCT300 28/15 Q1018;
0143833440999992008052417004-14950-040883FM-15+0914SBQV V0202301N002612200019N0112651N1+02701+01501999999ADDGA1041+007501999GA2041+090001999GF104991999999999999999999MA1101691999999REMMET058METAR SBQV 241700Z 23005KT 9999 SCT025 SCT300 27/15 Q1017;
0143833440999992008052418004-14950-040883FM-15+0914SBQV V0201001N002110900019N0112651N1+02701+01601999999ADDGA1041+007501999GA2071+090001999GF107991999999999999999999MA1101691999999REMMET058METAR SBQV 241800Z 10004KT 9999 SCT025 BKN300 27/16 Q1017;
0143833440999992008052419004-14950-040883FM-15+0914SBQV V0201201N003110900019N0112651N1+02601+01601999999ADDGA1041+007501999GA2071+090001999GF107991999999999999999999MA1101691999999REMMET058METAR SBQV 241900Z 12006KT 9999 SCT025 BKN300 26/16 Q1017;
0143833440999992008052420004-14950-040883FM-15+0914SBQV V0201001N003610900019N0112651N1+02501+01701999999ADDGA1041+006001999GA2071+090001999GF107991999999999999999999MA1101691999999REMMET058METAR SBQV 242000Z 10007KT 9999 SCT020 BKN300 25/17 Q1017;
0143833440999992008052421004-14950-040883FM-15+0914SBQV V0201001N003112200019N0112651N1+02301+01701999999ADDGA1021+004801999GA2041+090001999GF104991999999999999999999MA1101801999999REMMET058METAR SBQV 242100Z 10006KT 9999 FEW016 SCT300 23/17 Q1018;
0143833440999992008052422004-14950-040883FM-15+0914SBQV V0201101N003112200019N0112651N1+02201+01601999999ADDGA1021+004501999GA2041+090001999GF104991999999999999999999MA1101801999999REMMET058METAR SBQV 242200Z 11006KT 9999 FEW015 SCT300 22/16 Q1018;
0078833440999992008052510154-14950-040883FM-16+0914SBQV V0209999C000012200019N0099001N1+01801+01601999999ADDMA1101801999999REMMET051METAR SBQV 251015Z SPECI 00000KT CAVOK 18/16 Q1018;
0072833440999992008052511004-14950-040883FM-15+0914SBQV V0200601N00051220001CN0099001N1+02201+01501999999ADDMA1101801999999REMMET045METAR SBQV 251100Z 06001KT CAVOK 22/15 Q1018;
0072833440999992008052512004-14950-040883FM-15+0914SBQV V0200301N00151220001CN0099001N1+02401+01501999999ADDMA1101901999999REMMET045METAR SBQV 251200Z 03003KT CAVOK 24/15 Q1019;
0072833440999992008052513004-14950-040883FM-15+0914SBQV V0200401N00261220001CN0099001N1+02501+01501999999ADDMA1101901999999REMMET045METAR SBQV 251300Z 04005KT CAVOK 25/15 Q1019;
0054833440999992008052514004-14950-040883FM-15+0914SBQV V0200401N00151220001CN0099001N1+02601+01401999999REMMET045METAR SBQV 251400Z 04003KT CAVOK 26/14 Q0018;
0072833440999992008052515004-14950-040883FM-15+0914SBQV V0200701N00211220001CN0099001N1+02701+01401999999ADDMA1101691999999REMMET045METAR SBQV 251500Z 07004KT CAVOK 27/14 Q1017;
0143833440999992008052516004-14950-040883FM-15+0914SBQV V0200601N002612200019N0112651N1+02801+01301999999ADDGA1021+006001999GA2041+090001999GF104991999999999999999999MA1101691999999REMMET058METAR SBQV 251600Z 06005KT 9999 FEW020 SCT300 28/13 Q1017;
0143833440999992008052517004-14950-040883FM-15+0914SBQV V0203601N003110900019N0112651N1+02801+01401999999ADDGA1021+007501999GA2071+090001999GF107991999999999999999999MA1101591999999REMMET058METAR SBQV 251700Z 36006KT 9999 FEW025 BKN300 28/14 Q1016;
0143833440999992008052518004-14950-040883FM-15+0914SBQV V0201101N001010900019N0112651N1+02801+01301999999ADDGA1021+007501999GA2071+090001999GF107991999999999999999999MA1101591999999REMMET058METAR SBQV 251800Z 11002KT 9999 FEW025 BKN300 28/13 Q1016;
0143833440999992008052519004-14950-040883FM-15+0914SBQV V0201301N005710900019N0112651N1+02701+01501999999ADDGA1021+007501999GA2071+090001999GF107991999999999999999999MA1101591999999REMMET058METAR SBQV 251900Z 13011KT 9999 FEW025 BKN300 27/15 Q1016;
0143833440999992008052520004-14950-040883FM-15+0914SBQV V0201101N004610900019N0112651N1+02501+01601999999ADDGA1021+006001999GA2071+090001999GF107991999999999999999999MA1101591999999REMMET058METAR SBQV 252000Z 11009KT 9999 FEW020 BKN300 25/16 Q1016;
0143833440999992008052521004-14950-040883FM-15+0914SBQV V0200901N004110900019N0112651N1+02301+01601999999ADDGA1021+004801999GA2071+090001999GF107991999999999999999999MA1101691999999REMMET058METAR SBQV 252100Z 09008KT 9999 FEW016 BKN300 23/16 Q1017;
0072833440999992008052522004-14950-040883FM-15+0914SBQV V0200801N00461220001CN0099001N1+02201+01601999999ADDMA1101801999999REMMET045METAR SBQV 252200Z 08009KT CAVOK 22/16 Q1018;
0072833440999992008052523004-14950-040883FM-15+0914SBQV V0200801N00361220001CN0099001N1+02201+01601999999ADDMA1101801999999REMMET045METAR SBQV 252300Z 08007KT CAVOK 22/16 Q1018;
0072833440999992008052600004-14950-040883FM-15+0914SBQV V0200701N00361220001CN0099001N1+02101+01601999999ADDMA1101801999999REMMET045METAR SBQV 260000Z 07007KT CAVOK 21/16 Q1018;
0072833440999992008052601004-14950-040883FM-15+0914SBQV V0200601N00461220001CN0099001N1+02101+01701999999ADDMA1101801999999REMMET045METAR SBQV 260100Z 06009KT CAVOK 21/17 Q1018;
0072833440999992008052611004-14950-040883FM-15+0914SBQV V0209999C00001220001CN0099001N1+02101+01701999999ADDMA1101901999999REMMET045METAR SBQV 261100Z 00000KT CAVOK 21/17 Q1019;
0072833440999992008052612004-14950-040883FM-15+0914SBQV V0200201N00261220001CN0099001N1+02301+01801999999ADDMA1102001999999REMMET045METAR SBQV 261200Z 02005KT CAVOK 23/18 Q1020;
0072833440999992008052613004-14950-040883FM-15+0914SBQV V0203401N00051220001CN0099001N1+02401+01701999999ADDMA1102001999999REMMET045METAR SBQV 261300Z 34001KT CAVOK 24/17 Q1020;
0143833440999992008052614004-14950-040883FM-15+0914SBQV V0209999C000012200019N0112651N1+02601+01701999999ADDGA1021+006001999GA2041+090001999GF104991999999999999999999MA1102001999999REMMET058METAR SBQV 261400Z 00000KT 9999 FEW020 SCT300 26/17 Q1020;
0143833440999992008052615004-14950-040883FM-15+0914SBQV V0200101N001510900019N0112651N1+02801+01601999999ADDGA1021+007501999GA2071+090001999GF107991999999999999999999MA1101901999999REMMET058METAR SBQV 261500Z 01003KT 9999 FEW025 BKN300 28/16 Q1019;
0143833440999992008052616004-14950-040883FM-15+0914SBQV V0209999C000010900019N0112651N1+02801+01601999999ADDGA1041+007501999GA2071+090001999GF107991999999999999999999MA1101801999999REMMET058METAR SBQV 261600Z 00000KT 9999 SCT025 BKN300 28/16 Q1018;
0143833440999992008052617004-14950-040883FM-15+0914SBQV V0201201N003610900019N0112651N1+02801+01601999999ADDGA1041+007501999GA2071+090001999GF107991999999999999999999MA1101691999999REMMET058METAR SBQV 261700Z 12007KT 9999 SCT025 BKN300 28/16 Q1017;
0154833440999992008052618004-14950-040883FM-15+0914SBQV V0201201N005110900019N0112651N1+02701+01801999999ADDGA1041+007501999GA2071+090001999GF107991999999999999999999MA1101691999999OC101131REMMET061METAR SBQV 261800Z 12010G22KT 9999 SCT025 BKN300 27/18 Q1017;
0143833440999992008052619004-14950-040883FM-15+0914SBQV V0201201N004610900019N0112651N1+02501+01801999999ADDGA1041+007501999GA2071+090001999GF107991999999999999999999MA1101691999999REMMET058METAR SBQV 261900Z 12009KT 9999 SCT025 BKN300 25/18 Q1017;
0143833440999992008052620004-14950-040883FM-15+0914SBQV V0201201N004112200019N0112651N1+02401+01801999999ADDGA1021+005401999GA2041+090001999GF104991999999999999999999MA1101801999999REMMET058METAR SBQV 262000Z 12008KT 9999 FEW018 SCT300 24/18 Q1018;
0120833440999992008052621004-14950-040883FM-15+0914SBQV V0201301N003612200019N0112651N1+02301+01801999999ADDGA1041+004501999GF104991999999999999999999MA1101801999999REMMET051METAR SBQV 262100Z 13007KT 9999 SCT015 23/18 Q1018;
0120833440999992008052622004-14950-040883FM-15+0914SBQV V0201401N002112200019N0112651N1+02301+01801999999ADDGA1041+003301999GF104991999999999999999999MA1101901999999REMMET051METAR SBQV 262200Z 14004KT 9999 SCT011 23/18 Q1019;
0120833440999992008052623004-14950-040883FM-15+0914SBQV V0201101N003112200019N0112651N1+02201+01901999999ADDGA1041+003301999GF104991999999999999999999MA1101901999999REMMET051METAR SBQV 262300Z 11006KT 9999 SCT011 22/19 Q1019;
0136833440999992008052711004-14950-040883FM-15+0914SBQV V0201201N00361220001CN0112651N1+02101+01901999999ADDGA1071+004501999GA2041+021001999MA1102001999999REMMET058METAR SBQV 271100Z 12007KT 9999 BKN015 SCT070 21/19 Q1020;EQDQ01+000042SCOTCV
0120833440999992008052712004-14950-040883FM-15+0914SBQV V0201401N004112200019N0112651N1+02401+01901999999ADDGA1041+004801999GF104991999999999999999999MA1102001999999REMMET051METAR SBQV 271200Z 14008KT 9999 SCT016 24/19 Q1020;
0120833440999992008052713004-14950-040883FM-15+0914SBQV V0201201N005712200019N0112651N1+02501+01701999999ADDGA1041+005401999GF104991999999999999999999MA1102101999999REMMET051METAR SBQV 271300Z 12011KT 9999 SCT018 25/17 Q1021;
0143833440999992008052714004-14950-040883FM-15+0914SBQV V0201501N005112200019N0112651N1+02501+01701999999ADDGA1041+006001999GA2041+090001999GF104991999999999999999999MA1102001999999REMMET058METAR SBQV 271400Z 15010KT 9999 SCT020 SCT300 25/17 Q1020;
0143833440999992008052715004-14950-040883FM-15+0914SBQV V0201501N005112200019N0112651N1+02601+01601999999ADDGA1041+006001999GA2041+090001999GF104991999999999999999999MA1102001999999REMMET058METAR SBQV 271500Z 15010KT 9999 SCT020 SCT300 26/16 Q1020;
0143833440999992008052716004-14950-040883FM-15+0914SBQV V0201201N005710900019N0112651N1+02701+01501999999ADDGA1021+006001999GA2071+090001999GF107991999999999999999999MA1101901999999REMMET058METAR SBQV 271600Z 12011KT 9999 FEW020 BKN300 27/15 Q1019;
0143833440999992008052717004-14950-040883FM-15+0914SBQV V0201301N006210900019N0112651N1+02701+01501999999ADDGA1021+006001999GA2071+090001999GF107991999999999999999999MA1101801999999REMMET058METAR SBQV 271700Z 13012KT 9999 FEW020 BKN300 27/15 Q1018;
0143833440999992008052718004-14950-040883FM-15+0914SBQV V0201201N005710900019N0112651N1+02601+01501999999ADDGA1021+006001999GA2071+090001999GF107991999999999999999999MA1101801999999REMMET058METAR SBQV 271800Z 12011KT 9999 FEW020 BKN300 26/15 Q1018;
0143833440999992008052719004-14950-040883FM-15+0914SBQV V0201101N005712200019N0112651N1+02501+01501999999ADDGA1021+006001999GA2041+090001999GF104991999999999999999999MA1101801999999REMMET058METAR SBQV 271900Z 11011KT 9999 FEW020 SCT300 25/15 Q1018;
0120833440999992008052720004-14950-040883FM-15+0914SBQV V0201101N005112200019N0112651N1+02401+01401999999ADDGA1021+005401999GF102991999999999999999999MA1101901999999REMMET051METAR SBQV 272000Z 11010KT 9999 FEW018 24/14 Q1019;
0072833440999992008052721004-14950-040883FM-15+0914SBQV V0201201N00311220001CN0099001N1+02201+01501999999ADDMA1101901999999REMMET045METAR SBQV 272100Z 12006KT CAVOK 22/15 Q1019;
0072833440999992008052722004-14950-040883FM-15+0914SBQV V0201101N00261220001CN0099001N1+02101+01501999999ADDMA1102001999999REMMET045METAR SBQV 272200Z 11005KT CAVOK 21/15 Q1020;
0072833440999992008052723004-14950-040883FM-15+0914SBQV V0201101N00261220001CN0099001N1+02001+01501999999ADDMA1102001999999REMMET045METAR SBQV 272300Z 11005KT CAVOK 20/15 Q1020;
0120833440999992008052811004-14950-040883FM-15+0914SBQV V0201101N003112200019N0112651N1+01801+01801999999ADDGA1041+002701999GF104991999999999999999999MA1102101999999REMMET051METAR SBQV 281100Z 11006KT 9999 SCT009 18/18 Q1021;
0143833440999992008052812004-14950-040883FM-15+0914SBQV V0201301N004112200019N0112651N1+02001+01801999999ADDGA1041+002701999GA2041+004501999GF104991999999999999999999MA1102101999999REMMET058METAR SBQV 281200Z 13008KT 9999 SCT009 SCT015 20/18 Q1021;
0143833440999992008052813004-14950-040883FM-15+0914SBQV V0201201N004110045019N0112651N1+02101+01801999999ADDGA1041+002701999GA2071+004501999GF107991999999999999999999MA1102201999999REMMET058METAR SBQV 281300Z 12008KT 9999 SCT009 BKN015 21/18 Q1022;
0143833440999992008052814004-14950-040883FM-15+0914SBQV V0201401N005110060019N0112651N1+02201+01801999999ADDGA1041+004801999GA2071+006001999GF107991999999999999999999MA1102101999999REMMET058METAR SBQV 281400Z 14010KT 9999 SCT016 BKN020 22/18 Q1021;
0120833440999992008052815004-14950-040883FM-15+0914SBQV V0201101N004610060019N0112651N1+02301+01701999999ADDGA1071+006001999GF107991999999999999999999MA1102001999999REMMET051METAR SBQV 281500Z 11009KT 9999 BKN020 23/17 Q1020;
0120833440999992008052816004-14950-040883FM-15+0914SBQV V0201301N005110060019N0112651N1+02501+01701999999ADDGA1071+006001999GF107991999999999999999999MA1101901999999REMMET051METAR SBQV 281600Z 13010KT 9999 BKN020 25/17 Q1019;
0120833440999992008052817004-14950-040883FM-15+0914SBQV V0201301N004110060019N0112651N1+02501+01601999999ADDGA1071+006001999GF107991999999999999999999MA1101901999999REMMET051METAR SBQV 281700Z 13008KT 9999 BKN020 25/16 Q1019;
0120833440999992008052818004-14950-040883FM-15+0914SBQV V0201001N005112200019N0112651N1+02501+01601999999ADDGA1041+006001999GF104991999999999999999999MA1101801999999REMMET051METAR SBQV 281800Z 10010KT 9999 SCT020 25/16 Q1018;
0120833440999992008052819004-14950-040883FM-15+0914SBQV V0201201N003612200019N0112651N1+02501+01601999999ADDGA1021+006001999GF102991999999999999999999MA1101801999999REMMET051METAR SBQV 281900Z 12007KT 9999 FEW020 25/16 Q1018;
0120833440999992008052820004-14950-040883FM-15+0914SBQV V0201101N003112200019N0112651N1+02301+01701999999ADDGA1021+005401999GF102991999999999999999999MA1101901999999REMMET051METAR SBQV 282000Z 11006KT 9999 FEW018 23/17 Q1019;
0120833440999992008052821004-14950-040883FM-15+0914SBQV V0201201N002612200019N0112651N1+02101+01701999999ADDGA1021+004501999GF102991999999999999999999MA1101901999999REMMET051METAR SBQV 282100Z 12005KT 9999 FEW015 21/17 Q1019;
0072833440999992008052822004-14950-040883FM-15+0914SBQV V0201101N00211220001CN0099001N1+02001+01701999999ADDMA1101901999999REMMET045METAR SBQV 282200Z 11004KT CAVOK 20/17 Q1019;
0072833440999992008052823004-14950-040883FM-15+0914SBQV V0201001N00311220001CN0099001N1+02101+01701999999ADDMA1102001999999REMMET045METAR SBQV 282300Z 10006KT CAVOK 21/17 Q1020;
0116833440999992008052910334-14950-040883FM-16+0914SBQV V0201101N002619999999N0112651N1+01901+01801999999ADDKA1999M+99999MA1102001999999REMMET057METAR SBQV 291033Z SPECI 11005KT 9999 BKN015 19/18 Q1020;EQDQ01 -00052ATMX  
0120833440999992008052912004-14950-040883FM-15+0914SBQV V0200901N003610048019N0112651N1+02101+01801999999ADDGA1071+004801999GF107991999999999999999999MA1102101999999REMMET051METAR SBQV 291200Z 09007KT 9999 BKN016 21/18 Q1021;
0120833440999992008052913004-14950-040883FM-15+0914SBQV V0201101N003610048019N0112651N1+02201+01801999999ADDGA1071+004801999GF107991999999999999999999MA1102101999999REMMET051METAR SBQV 291300Z 11007KT 9999 BKN016 22/18 Q1021;
0120833440999992008052914004-14950-040883FM-15+0914SBQV V0200901N004110054019N0112651N1+02401+01701999999ADDGA1071+005401999GF107991999999999999999999MA1102101999999REMMET051METAR SBQV 291400Z 09008KT 9999 BKN018 24/17 Q1021;
0143833440999992008052915004-14950-040883FM-15+0914SBQV V0200801N004112200019N0112651N1+02501+01701999999ADDGA1041+006001999GA2041+024001999GF104991999999999999999999MA1102001999999REMMET058METAR SBQV 291500Z 08008KT 9999 SCT020 SCT080 25/17 Q1020;
0143833440999992008052916004-14950-040883FM-15+0914SBQV V0200601N003612200019N0112651N1+02401+01701999999ADDGA1041+006001999GA2041+024001999GF104991999999999999999999MA1102001999999REMMET058METAR SBQV 291600Z 06007KT 9999 SCT020 SCT080 24/17 Q1020;
0143833440999992008052917004-14950-040883FM-15+0914SBQV V0201001N003112200019N0112651N1+02501+01701999999ADDGA1041+006001999GA2041+024001999GF104991999999999999999999MA1101901999999REMMET058METAR SBQV 291700Z 10006KT 9999 SCT020 SCT080 25/17 Q1019;
0143833440999992008052918004-14950-040883FM-15+0914SBQV V0201101N004112200019N0112651N1+02401+01301999999ADDGA1041+006001999GA2041+024001999GF104991999999999999999999MA1101901999999REMMET058METAR SBQV 291800Z 11008KT 9999 SCT020 SCT080 24/13 Q1019;
0120833440999992008052919004-14950-040883FM-15+0914SBQV V0201401N003112200019N0112651N1+02301+01801999999ADDGA1021+005401999GF102991999999999999999999MA1101901999999REMMET051METAR SBQV 291900Z 14006KT 9999 FEW018 23/18 Q1019;
0120833440999992008052920004-14950-040883FM-15+0914SBQV V0209999C000012200019N0112651N1+02201+01801999999ADDGA1021+004801999GF102991999999999999999999MA1101901999999REMMET051METAR SBQV 292000Z 00000KT 9999 FEW016 22/18 Q1019;
0120833440999992008052921004-14950-040883FM-15+0914SBQV V0201501N001012200019N0112651N1+02001+01701999999ADDGA1021+003901999GF102991999999999999999999MA1101901999999REMMET051METAR SBQV 292100Z 15002KT 9999 FEW013 20/17 Q1019;
0120833440999992008052922004-14950-040883FM-15+0914SBQV V0201401N001012200019N0112651N1+01901+01701999999ADDGA1021+003301999GF102991999999999999999999MA1102001999999REMMET051METAR SBQV 292200Z 14002KT 9999 FEW011 19/17 Q1020;
0120833440999992008052923004-14950-040883FM-15+0914SBQV V0201501N000512200019N0112651N1+01901+01701999999ADDGA1021+003001999GF102991999999999999999999MA1102001999999REMMET051METAR SBQV 292300Z 15001KT 9999 FEW010 19/17 Q1020;
0081833440999992008053010154-14950-040883FM-16+0914SBQV V0201201N002112200019N9999999N1+01701+01701999999ADDMA1102201999999REMMET054METAR SBQV 301015Z SPECI 12004KT 9000 SKC 17/17 Q1022;
0072833440999992008053011004-14950-040883FM-15+0914SBQV V0201101N00261220001CN0099001N1+01901+01901999999ADDMA1102201999999REMMET045METAR SBQV 301100Z 11005KT CAVOK 19/19 Q1022;
0072833440999992008053012004-14950-040883FM-15+0914SBQV V0201101N00411220001CN0099001N1+02301+01701999999ADDMA1102301999999REMMET045METAR SBQV 301200Z 11008KT CAVOK 23/17 Q1023;
0120833440999992008053013004-14950-040883FM-15+0914SBQV V0201101N003112200019N0112651N1+02501+01501999999ADDGA1021+010501999GF102991999999999999999999MA1102301999999REMMET051METAR SBQV 301300Z 11006KT 9999 FEW035 25/15 Q1023;
0120833440999992008053014004-14950-040883FM-15+0914SBQV V0201101N004112200019N0112651N1+02701+01501999999ADDGA1041+010501999GF104991999999999999999999MA1102301999999REMMET051METAR SBQV 301400Z 11008KT 9999 SCT035 27/15 Q1023;
0120833440999992008053015004-14950-040883FM-15+0914SBQV V0201001N004112200019N0112651N1+02601+01601999999ADDGA1041+010501999GF104991999999999999999999MA1102101999999REMMET051METAR SBQV 301500Z 10008KT 9999 SCT035 26/16 Q1021;
0120833440999992008053016004-14950-040883FM-15+0914SBQV V0201001N004112200019N0112651N1+02801+01501999999ADDGA1041+010501999GF104991999999999999999999MA1102001999999REMMET051METAR SBQV 301600Z 10008KT 9999 SCT035 28/15 Q1020;
0120833440999992008053017004-14950-040883FM-15+0914SBQV V0201301N003612200019N0112651N1+02701+01501999999ADDGA1041+010501999GF104991999999999999999999MA1102001999999REMMET051METAR SBQV 301700Z 13007KT 9999 SCT035 27/15 Q1020;
0120833440999992008053018004-14950-040883FM-15+0914SBQV V0201301N004612200019N0112651N1+02701+01401999999ADDGA1041+010501999GF104991999999999999999999MA1101901999999REMMET051METAR SBQV 301800Z 13009KT 9999 SCT035 27/14 Q1019;
0120833440999992008053019004-14950-040883FM-15+0914SBQV V0200801N003112200019N0112651N1+02701+01401999999ADDGA1021+010501999GF102991999999999999999999MA1101901999999REMMET051METAR SBQV 301900Z 08006KT 9999 FEW035 27/14 Q1019;
0120833440999992008053020004-14950-040883FM-15+0914SBQV V0201101N002612200019N0112651N1+02501+01501999999ADDGA1021+009001999GF102991999999999999999999MA1101901999999REMMET051METAR SBQV 302000Z 11005KT 9999 FEW030 25/15 Q1019;
0120833440999992008053021004-14950-040883FM-15+0914SBQV V0201001N002612200019N0112651N1+02301+01601999999ADDGA1021+006001999GF102991999999999999999999MA1102001999999REMMET051METAR SBQV 302100Z 10005KT 9999 FEW020 23/16 Q1020;
0072833440999992008053022004-14950-040883FM-15+0914SBQV V0209999C00001220001CN0099001N1+02001+01501999999ADDMA1102001999999REMMET045METAR SBQV 302200Z 00000KT CAVOK 20/15 Q1020;
0072833440999992008053023004-14950-040883FM-15+0914SBQV V0200901N00461220001CN0099001N1+02101+01801999999ADDMA1102101999999REMMET045METAR SBQV 302300Z 09009KT CAVOK 21/18 Q1021;
0120833440999992008053111004-14950-040883FM-15+0914SBQV V0201101N005110048019N0112651N1+02001+01701999999ADDGA1071+004801999GF107991999999999999999999MA1102301999999REMMET051METAR SBQV 311100Z 11010KT 9999 BKN016 20/17 Q1023;
0120833440999992008053112004-14950-040883FM-15+0914SBQV V0201201N005112200019N0112651N1+02201+01601999999ADDGA1021+005401999GF102991999999999999999999MA1102401999999REMMET051METAR SBQV 311200Z 12010KT 9999 FEW018 22/16 Q1024;
0120833440999992008053113004-14950-040883FM-15+0914SBQV V0201001N005712200019N0112651N1+02401+01601999999ADDGA1021+006001999GF102991999999999999999999MA1102401999999REMMET051METAR SBQV 311300Z 10011KT 9999 FEW020 24/16 Q1024;
0120833440999992008053114004-14950-040883FM-15+0914SBQV V0201001N006212200019N0112651N1+02501+01501999999ADDGA1021+006001999GF102991999999999999999999MA1102401999999REMMET051METAR SBQV 311400Z 10012KT 9999 FEW020 25/15 Q1024;
0120833440999992008053115004-14950-040883FM-15+0914SBQV V0201201N006212200019N0112651N1+02601+01501999999ADDGA1041+006001999GF104991999999999999999999MA1102301999999REMMET051METAR SBQV 311500Z 12012KT 9999 SCT020 26/15 Q1023;
0120833440999992008053116004-14950-040883FM-15+0914SBQV V0201001N005712200019N0112651N1+02601+01401999999ADDGA1021+006001999GF102991999999999999999999MA1102201999999REMMET051METAR SBQV 311600Z 10011KT 9999 FEW020 26/14 Q1022;
0120833440999992008053117004-14950-040883FM-15+0914SBQV V0201201N005712200019N0112651N1+02701+01301999999ADDGA1021+007501999GF102991999999999999999999MA1102201999999REMMET051METAR SBQV 311700Z 12011KT 9999 FEW025 27/13 Q1022;
0120833440999992008053118004-14950-040883FM-15+0914SBQV V0201101N005112200019N0112651N1+02701+01301999999ADDGA1041+007501999GF104991999999999999999999MA1102101999999REMMET051METAR SBQV 311800Z 11010KT 9999 SCT025 27/13 Q1021;
0120833440999992008053119004-14950-040883FM-15+0914SBQV V0201401N006712200019N0112651N1+02501+01201999999ADDGA1041+006001999GF104991999999999999999999MA1102101999999REMMET051METAR SBQV 311900Z 14013KT 9999 SCT020 25/12 Q1021;
0120833440999992008053120004-14950-040883FM-15+0914SBQV V0201301N004112200019N0112651N1+02401+01301999999ADDGA1021+004801999GF102991999999999999999999MA1102101999999REMMET051METAR SBQV 312000Z 13008KT 9999 FEW016 24/13 Q1021;
0120833440999992008053121004-14950-040883FM-15+0914SBQV V0201401N003612200019N0112651N1+02201+01301999999ADDGA1021+004501999GF102991999999999999999999MA1102201999999REMMET051METAR SBQV 312100Z 14007KT 9999 FEW015 22/13 Q1022;
0120833440999992008053122004-14950-040883FM-15+0914SBQV V0201401N004612200019N0112651N1+02101+01601999999ADDGA1041+003301999GF104991999999999999999999MA1102201999999REMMET051METAR SBQV 312200Z 14009KT 9999 SCT011 21/16 Q1022;
0120833440999992008060111004-14950-040883FM-15+0914SBQV V0201501N004110024019N0112651N1+01801+01701999999ADDGA1071+002401999GF107991999999999999999999MA1102301999999REMMET051METAR SBQV 011100Z 15008KT 9999 BKN008 18/17 Q1023;
0136833440999992008060112004-14950-040883FM-15+0914SBQV V0201501N00511220001CN0112651N1+01801+01701999999ADDGA1071+002401999GA2041+021001999MA1102401999999REMMET058METAR SBQV 011200Z 15010KT 9999 BKN008 SCT070 18/17 Q1024;EQDQ01+000042SCOTCV
0120833440999992008060113004-14950-040883FM-15+0914SBQV V0201301N005110036019N0112651N1+02001+01701999999ADDGA1071+003601999GF107991999999999999999999MA1102401999999REMMET051METAR SBQV 011300Z 13010KT 9999 BKN012 20/17 Q1024;
0143833440999992008060115004-14950-040883FM-15+0914SBQV V0201401N005112200019N0112651N1+02201+01701999999ADDGA1041+004501999GA2041+024001999GF104991999999999999999999MA1102301999999REMMET058METAR SBQV 011500Z 14010KT 9999 SCT015 SCT080 22/17 Q1023;
0143833440999992008060116004-14950-040883FM-15+0914SBQV V0201201N004610240019N0112651N1+02201+01701999999ADDGA1041+006001999GA2071+024001999GF107991999999999999999999MA1102201999999REMMET058METAR SBQV 011600Z 12009KT 9999 SCT020 BKN080 22/17 Q1022;
0143833440999992008060117004-14950-040883FM-15+0914SBQV V0201101N004612200019N0112651N1+02201+01701999999ADDGA1041+006001999GA2041+024001999GF104991999999999999999999MA1102201999999REMMET058METAR SBQV 011700Z 11009KT 9999 SCT020 SCT080 22/17 Q1022;
0143833440999992008060118004-14950-040883FM-15+0914SBQV V0201401N005112200019N0112651N1+02201+01701999999ADDGA1041+006001999GA2041+024001999GF104991999999999999999999MA1102101999999REMMET058METAR SBQV 011800Z 14010KT 9999 SCT020 SCT080 22/17 Q1021;
0143833440999992008060119004-14950-040883FM-15+0914SBQV V0201301N004112200019N0112651N1+02101+01701999999ADDGA1021+006001999GA2041+024001999GF104991999999999999999999MA1102101999999REMMET058METAR SBQV 011900Z 13008KT 9999 FEW020 SCT080 21/17 Q1021;
0143833440999992008060120004-14950-040883FM-15+0914SBQV V0201301N003112200019N0112651N1+02001+01701999999ADDGA1021+005401999GA2041+024001999GF104991999999999999999999MA1102101999999REMMET058METAR SBQV 012000Z 13006KT 9999 FEW018 SCT080 20/17 Q1021;
0120833440999992008060121004-14950-040883FM-15+0914SBQV V0201601N002112200019N0112651N1+01801+01701999999ADDGA1021+003901999GF102991999999999999999999MA1102201999999REMMET051METAR SBQV 012100Z 16004KT 9999 FEW013 18/17 Q1022;
0120833440999992008060122004-14950-040883FM-15+0914SBQV V0201501N003112200019N0112651N1+01801+01701999999ADDGA1041+003901999GF104991999999999999999999MA1102201999999REMMET051METAR SBQV 012200Z 15006KT 9999 SCT013 18/17 Q1022;
0120833440999992008060208004-14950-040883FM-15+0914SBQV V0201001N001510018019N0112651N1+01601+01601999999ADDGA1071+001801999GF107991999999999999999999MA1102201999999REMMET051METAR SBQV 020800Z 10003KT 9999 BKN006 16/16 Q1022;
0120833440999992008060209004-14950-040883FM-15+0914SBQV V0201201N002110015019N0112651N1+01601+01601999999ADDGA1071+001501999GF107991999999999999999999MA1102201999999REMMET051METAR SBQV 020900Z 12004KT 9999 BKN005 16/16 Q1022;
0120833440999992008060210004-14950-040883FM-15+0914SBQV V0201301N001510012019N0090001N1+01701+01701999999ADDGA1071+001201999GF107991999999999999999999MA1102301999999REMMET051METAR SBQV 021000Z 13003KT 9000 BKN004 17/17 Q1023;
0120833440999992008060211004-14950-040883FM-15+0914SBQV V0201301N003110021019N0112651N1+01701+01701999999ADDGA1071+002101999GF107991999999999999999999MA1102301999999REMMET051METAR SBQV 021100Z 13006KT 9999 BKN007 17/17 Q1023;
0160833440999992008060212004-14950-040883FM-15+0914SBQV V0201201N004110210019N0060001N1+01701+01701999999ADDGA1041+001801999GA2071+021001999GF107991999999999999999999MA1102401999999MW1511REMMET069METAR SBQV 021200Z 12008KT 6000 2500NW -DZ SCT006 BKN070 17/17 Q1024;
0143833440999992008060213004-14950-040883FM-15+0914SBQV V0201301N003612200019N0112651N1+02001+01801999999ADDGA1041+004501999GA2041+024001999GF104991999999999999999999MA1102401999999REMMET058METAR SBQV 021300Z 13007KT 9999 SCT015 SCT080 20/18 Q1024;
0120833440999992008060214004-14950-040883FM-15+0914SBQV V0201201N004610060019N0112651N1+02201+01601999999ADDGA1071+006001999GF107991999999999999999999MA1102301999999REMMET051METAR SBQV 021400Z 12009KT 9999 BKN020 22/16 Q1023;
0120833440999992008060215004-14950-040883FM-15+0914SBQV V0201401N005110060019N0112651N1+02301+01601999999ADDGA1071+006001999GF107991999999999999999999MA1102201999999REMMET051METAR SBQV 021500Z 14010KT 9999 BKN020 23/16 Q1022;
0120833440999992008060216004-14950-040883FM-15+0914SBQV V0201401N006210060019N0112651N1+02201+01601999999ADDGA1071+006001999GF107991999999999999999999MA1102101999999REMMET051METAR SBQV 021600Z 14012KT 9999 BKN020 22/16 Q1021;
0120833440999992008060217004-14950-040883FM-15+0914SBQV V0201501N004610060019N0112651N1+02101+01701999999ADDGA1071+006001999GF107991999999999999999999MA1102001999999REMMET051METAR SBQV 021700Z 15009KT 9999 BKN020 21/17 Q1020;
0120833440999992008060218004-14950-040883FM-15+0914SBQV V0201401N004110060019N0112651N1+02101+01701999999ADDGA1071+006001999GF107991999999999999999999MA1102001999999REMMET051METAR SBQV 021800Z 14008KT 9999 BKN020 21/17 Q1020;
0143833440999992008060219004-14950-040883FM-15+0914SBQV V0201101N004610240019N0112651N1+02101+01701999999ADDGA1041+005401999GA2071+024001999GF107991999999999999999999MA1102001999999REMMET058METAR SBQV 021900Z 11009KT 9999 SCT018 BKN080 21/17 Q1020;
0143833440999992008060220004-14950-040883FM-15+0914SBQV V0201201N005712200019N0112651N1+02001+01701999999ADDGA1021+003901999GA2041+004801999GF104991999999999999999999MA1102001999999REMMET058METAR SBQV 022000Z 12011KT 9999 FEW013 SCT016 20/17 Q1020;
0102833440999992008060220274-14950-040883FM-16+0914SBQV V0201301N003612200019N9999999N1+01801+01801999999ADDMA1102101999999REMMET075METAR SBQV 022027Z SPECI 13007KT 4000 1500SE -DZ BKN010 SCT070 18/18 Q1021;
0161833440999992008060222004-14950-040883FM-15+0914SBQV V0201301N004110009019N0015001N1+01801+01801999999ADDGA1071+000901999GA2081+021001999GF108991999999999999999999MA1102101999999MW1511MW2611REMMET064METAR SBQV 022200Z 13008KT 1500 -RADZ BKN003 OVC070 18/18 Q1021;
0138833440999992008060223004-14950-040883FM-15+0914SBQV V0201401N004610009019N0020001N1+01801+01801999999ADDGA1071+000901999GA2081+021001999GF108991999999999999999999MW1511REMMET062METAR SBQV 022300Z 14009KT 2000 -DZ BKN003 OVC070 18/18 Q0002;
0099833440999992008060310154-14950-040883FM-16+0914SBQV V02099999999992200019N9999999N1+01801+01801999999ADDMA1102201999999REMMET072METAR SBQV 031015Z SPECI 4004KT 1000 -RADZ BR BKN003 OVC070 18/18 Q1022;
0162833440999992008060311004-14950-040883FM-15+0914SBQV V0201301N003110009019N0010001N1+01801+01801999999ADDGA1071+000901999GA2081+021001999GF108991999999999999999999MA1102301999999MW1101MW2511REMMET065METAR SBQV 031100Z 13006KT 1000 -DZ BR BKN003 OVC070 18/18 Q1023;
0169833440999992008060312004-14950-040883FM-15+0914SBQV V0201401N003610009019N0040001N1+01901+01901999999ADDGA1071+000901999GA2081+021001999GF108991999999999999999999MA1102301999999MW1101MW2511REMMET072METAR SBQV 031200Z 14007KT 4000 1500SE -DZ BR BKN003 OVC070 19/19 Q1023;
0192833440999992008060313004-14950-040883FM-15+0914SBQV V0201501N004110024019N0030001N1+01901+01901999999ADDGA1041+001801999GA2071+002401999GA3081+021001999GF108991999999999999999999MA1102301999999MW1101MW2511REMMET079METAR SBQV 031300Z 15008KT 3000 1000SE -DZ BR SCT006 BKN008 OVC070 19/19 Q1023;
0166833440999992008060314004-14950-040883FM-15+0914SBQV V0201401N004610027019N0112651N1+02001+02001999999ADDGA1021+001801999GA2071+002701999GA3071+021001999GF107991999999999999999999MA1102201999999REMMET065METAR SBQV 031400Z 14009KT 9999 FEW006 BKN009 BKN070 20/20 Q1022;
0143833440999992008060315004-14950-040883FM-15+0914SBQV V0201601N005110030019N0112651N1+02101+01901999999ADDGA1071+003001999GA2071+021001999GF107991999999999999999999MA1102101999999REMMET058METAR SBQV 031500Z 16010KT 9999 BKN010 BKN070 21/19 Q1021;
0166833440999992008060316004-14950-040883FM-15+0914SBQV V0201501N005710024019N0112651N1+02101+01901999999ADDGA1021+001801999GA2071+002401999GA3071+021001999GF107991999999999999999999MA1102101999999REMMET065METAR SBQV 031600Z 15011KT 9999 FEW006 BKN008 BKN070 21/19 Q1021;
0143833440999992008060320004-14950-040883FM-15+0914SBQV V0201201N004610210019N0112651N1+01901+01901999999ADDGA1021+001801999GA2071+021001999GF107991999999999999999999MA1102001999999REMMET058METAR SBQV 032000Z 12009KT 9999 FEW006 BKN070 19/19 Q1020;
0136833440999992008060321004-14950-040883FM-15+0914SBQV V0201301N00511220001CN0112651N1+01801+01801999999ADDGA1071+001801999GA2041+021001999MA1102101999999REMMET058METAR SBQV 032100Z 13010KT 9999 BKN006 SCT070 18/18 Q1021;EQDQ01+000042SCOTCV
0136833440999992008060322004-14950-040883FM-15+0914SBQV V0201201N00411220001CN0112651N1+01801+01801999999ADDGA1071+001501999GA2041+021001999MA1102101999999REMMET058METAR SBQV 032200Z 12008KT 9999 BKN005 SCT070 18/18 Q1021;EQDQ01+000042SCOTCV
0120833440999992008060323004-14950-040883FM-15+0914SBQV V0201201N005110012019N0112651N1+01801+01801999999ADDGA1071+001201999GF107991999999999999999999MA1102201999999REMMET051METAR SBQV 032300Z 12010KT 9999 BKN004 18/18 Q1022;
0143833440999992008060411004-14950-040883FM-15+0914SBQV V0201301N004110012019N0112651N1+01701+01701999999ADDGA1071+001201999GA2071+021001999GF107991999999999999999999MA1102301999999REMMET058METAR SBQV 041100Z 13008KT 9999 BKN004 BKN070 17/17 Q1023;
0143833440999992008060412004-14950-040883FM-15+0914SBQV V0201401N003610018019N0112651N1+01801+01801999999ADDGA1041+001501999GA2071+001801999GF107991999999999999999999MA1102301999999REMMET058METAR SBQV 041200Z 14007KT 9999 SCT005 BKN006 18/18 Q1023;
0166833440999992008060414004-14950-040883FM-15+0914SBQV V0201401N00311003001CN0112651N1+01801+01801999999ADDGA1021+001801999GA2041+003001999GA3081+021001999GF108991999999999999999999MA1102301999999REMMET065METAR SBQV 041400Z 14006KT 9999 FEW006 SCT010 OVC070 18/18 Q1023;
0166833440999992008060415004-14950-040883FM-15+0914SBQV V0201301N003610030019N0070001N1+01901+01801999999ADDGA1021+001501999GA2071+003001999GA3081+021001999GF108991999999999999999999MA1102301999999REMMET065METAR SBQV 041500Z 13007KT 7000 FEW005 BKN010 OVC070 19/18 Q1023;
0166833440999992008060416004-14950-040883FM-15+0914SBQV V0201401N003110033019N0112651N1+02001+01801999999ADDGA1021+002101999GA2071+003301999GA3071+024001999GF107991999999999999999999MA1102201999999REMMET065METAR SBQV 041600Z 14006KT 9999 FEW007 BKN011 BKN080 20/18 Q1022;
0143833440999992008060417004-14950-040883FM-15+0914SBQV V0201401N003610033019N0112651N1+02001+01801999999ADDGA1071+003301999GA2071+024001999GF107991999999999999999999MA1102101999999REMMET058METAR SBQV 041700Z 14007KT 9999 BKN011 BKN080 20/18 Q1021;
0143833440999992008060418004-14950-040883FM-15+0914SBQV V0201801N004110240019N0112651N1+01901+01801999999ADDGA1041+003301999GA2071+024001999GF107991999999999999999999MA1102101999999REMMET058METAR SBQV 041800Z 18008KT 9999 SCT011 BKN080 19/18 Q1021;
0153833440999992008060419004-14950-040883FM-15+0914SBQV V0201501N003610024019N0070001N1+01901+01701999999ADDGA1071+002401999GA2071+021001999GF107991999999999999999999MA1102101999999MW1511REMMET062METAR SBQV 041900Z 15007KT 7000 -DZ BKN008 BKN070 19/17 Q1021;
0136833440999992008060420004-14950-040883FM-15+0914SBQV V0201501N00311220001CN0112651N1+01801+01801999999ADDGA1071+001801999GA2041+021001999MA1102101999999REMMET058METAR SBQV 042000Z 15006KT 9999 BKN006 SCT070 18/18 Q1021;EQDQ01+000042SCOTCV
0120833440999992008060421004-14950-040883FM-15+0914SBQV V0209999C000012200019N0112651N1+01701+01701999999ADDGA1021+002101999GF102991999999999999999999MA1102101999999REMMET051METAR SBQV 042100Z 00000KT 9999 FEW007 17/17 Q1021;
0120833440999992008060422004-14950-040883FM-15+0914SBQV V0201401N002612200019N0112651N1+01701+01701999999ADDGA1021+001801999GF102991999999999999999999MA1102201999999REMMET051METAR SBQV 042200Z 14005KT 9999 FEW006 17/17 Q1022;
0120833440999992008060423004-14950-040883FM-15+0914SBQV V0201001N002112200019N0112651N1+01701+01701999999ADDGA1021+001501999GF102991999999999999999999MA1102201999999REMMET051METAR SBQV 042300Z 10004KT 9999 FEW005 17/17 Q1022;
0091833440999992008060510154-14950-040883FM-16+0914SBQV V0201201N003612200019N0112651N1+01701+01701999999ADDMA1102201999999REMMET064METAR SBQV 051015Z SPECI 12007KT 9999 BKN003 BKN006 17/17 Q1022;
0143833440999992008060511004-14950-040883FM-15+0914SBQV V0201101N003110012019N0112651N1+01801+01801999999ADDGA1071+001201999GA2071+001801999GF107991999999999999999999MA1102301999999REMMET058METAR SBQV 051100Z 11006KT 9999 BKN004 BKN006 18/18 Q1023;
0091833440999992008060511334-14950-040883FM-16+0914SBQV V0201201N003112200019N0112651N1+01801+01801999999ADDMA1102301999999REMMET064METAR SBQV 051133Z SPECI 12006KT 9999 FEW004 BKN006 18/18 Q1023;
0143833440999992008060513004-14950-040883FM-15+0914SBQV V0201201N002610030019N0112651N1+02001+01701999999ADDGA1071+003001999GA2081+021001999GF108991999999999999999999MA1102401999999REMMET058METAR SBQV 051300Z 12005KT 9999 BKN010 OVC070 20/17 Q1024;
0116833440999992008060513414-14950-040883FM-16+0914SBQV V0201101N001519999999N0112651N1+02201+01901999999ADDKA1999M+99999MA1102401999999REMMET057METAR SBQV 051341Z SPECI 11003KT 9999 SCT015 22/19 Q1024;EQDQ01 -00032ATMX  
0120833440999992008060515004-14950-040883FM-15+0914SBQV V0201401N004612200019N0112651N1+02501+01801999999ADDGA1041+006001999GF104991999999999999999999MA1102301999999REMMET051METAR SBQV 051500Z 14009KT 9999 SCT020 25/18 Q1023;
0120833440999992008060516004-14950-040883FM-15+0914SBQV V0201301N004112200019N0112651N1+02501+01701999999ADDGA1041+006001999GF104991999999999999999999MA1102201999999REMMET051METAR SBQV 051600Z 13008KT 9999 SCT020 25/17 Q1022;
0120833440999992008060517004-14950-040883FM-15+0914SBQV V0201501N004612200019N0112651N1+02501+01701999999ADDGA1041+006001999GF104991999999999999999999MA1102201999999REMMET051METAR SBQV 051700Z 15009KT 9999 SCT020 25/17 Q1022;
0120833440999992008060518004-14950-040883FM-15+0914SBQV V0201201N004612200019N0112651N1+02501+01601999999ADDGA1021+006001999GF102991999999999999999999MA1102101999999REMMET051METAR SBQV 051800Z 12009KT 9999 FEW020 25/16 Q1021;
0120833440999992008060519004-14950-040883FM-15+0914SBQV V0201201N004612200019N0112651N1+02501+01601999999ADDGA1021+006001999GF102991999999999999999999MA1102101999999REMMET051METAR SBQV 051900Z 12009KT 9999 FEW020 25/16 Q1021;
0120833440999992008060520004-14950-040883FM-15+0914SBQV V0201301N005112200019N0112651N1+02301+01601999999ADDGA1021+006001999GF102991999999999999999999MA1102101999999REMMET051METAR SBQV 052000Z 13010KT 9999 FEW020 23/16 Q1021;
0120833440999992008060521004-14950-040883FM-15+0914SBQV V0201101N003112200019N0112651N1+02001+01701999999ADDGA1021+004801999GF102991999999999999999999MA1102101999999REMMET051METAR SBQV 052100Z 11006KT 9999 FEW016 20/17 Q1021;
0072833440999992008060522004-14950-040883FM-15+0914SBQV V0201101N00261220001CN0099001N1+01901+01701999999ADDMA1102201999999REMMET045METAR SBQV 052200Z 11005KT CAVOK 19/17 Q1022;
0072833440999992008060523004-14950-040883FM-15+0914SBQV V0201001N00261220001CN0099001N1+01901+01601999999ADDMA1102201999999REMMET045METAR SBQV 052300Z 10005KT CAVOK 19/16 Q1022;
0120833440999992008060611004-14950-040883FM-15+0914SBQV V0201201N004112200019N0112651N1+01801+01801999999ADDGA1041+003001999GF104991999999999999999999MA1102401999999REMMET051METAR SBQV 061100Z 12008KT 9999 SCT010 18/18 Q1024;
0143833440999992008060612004-14950-040883FM-15+0914SBQV V0201301N005112200019N0112651N1+02001+01801999999ADDGA1041+003601999GA2041+021001999GF104991999999999999999999MA1102401999999REMMET058METAR SBQV 061200Z 13010KT 9999 SCT012 SCT070 20/18 Q1024;
0120833440999992008060613004-14950-040883FM-15+0914SBQV V0201201N005712200019N0112651N1+02301+01701999999ADDGA1041+004501999GF104991999999999999999999MA1102401999999REMMET051METAR SBQV 061300Z 12011KT 9999 SCT015 23/17 Q1024;
0136833440999992008060614004-14950-040883FM-15+0914SBQV V0201201N00511220001CN0112651N1+02401+01701999999ADDGA1071+004501999GA2041+024001999MA1102401999999REMMET058METAR SBQV 061400Z 12010KT 9999 BKN015 SCT080 24/17 Q1024;EQDQ01+000042SCOTCV
0143833440999992008060615004-14950-040883FM-15+0914SBQV V0201301N004612200019N0112651N1+02401+01601999999ADDGA1041+004801999GA2041+024001999GF104991999999999999999999MA1102301999999REMMET058METAR SBQV 061500Z 13009KT 9999 SCT016 SCT080 24/16 Q1023;
0143833440999992008060616004-14950-040883FM-15+0914SBQV V0200901N005110240019N0112651N1+02501+01701999999ADDGA1041+006001999GA2071+024001999GF107991999999999999999999MA1102201999999REMMET058METAR SBQV 061600Z 09010KT 9999 SCT020 BKN080 25/17 Q1022;
0143833440999992008060617004-14950-040883FM-15+0914SBQV V0201101N004610060019N0112651N1+02401+01601999999ADDGA1071+006001999GA2071+024001999GF107991999999999999999999MA1102201999999REMMET058METAR SBQV 061700Z 11009KT 9999 BKN020 BKN080 24/16 Q1022;
0143833440999992008060618004-14950-040883FM-15+0914SBQV V0201101N005110060019N0112651N1+02301+01701999999ADDGA1071+006001999GA2071+024001999GF107991999999999999999999MA1102201999999REMMET058METAR SBQV 061800Z 11010KT 9999 BKN020 BKN080 23/17 Q1022;
0143833440999992008060619004-14950-040883FM-15+0914SBQV V0200901N004110240019N0112651N1+02301+01701999999ADDGA1021+006001999GA2071+024001999GF107991999999999999999999MA1102201999999REMMET058METAR SBQV 061900Z 09008KT 9999 FEW020 BKN080 23/17 Q1022;
0136833440999992008060620004-14950-040883FM-15+0914SBQV V0200801N00311220001CN0112651N1+02301+01701999999ADDGA1071+006001999GA2041+024001999MA1102201999999REMMET058METAR SBQV 062000Z 08006KT 9999 BKN020 SCT080 23/17 Q1022;EQDQ01+000042SCOTCV
0136833440999992008060621004-14950-040883FM-15+0914SBQV V0200901N00361220001CN0112651N1+02101+01801999999ADDGA1071+004801999GA2041+024001999MA1102201999999REMMET058METAR SBQV 062100Z 09007KT 9999 BKN016 SCT080 21/18 Q1022;EQDQ01+000042SCOTCV
0120833440999992008060622004-14950-040883FM-15+0914SBQV V0200901N003612200019N0112651N1+02001+01801999999ADDGA1021+004801999GF102991999999999999999999MA1102301999999REMMET051METAR SBQV 062200Z 09007KT 9999 FEW016 20/18 Q1023;
0120833440999992008060623004-14950-040883FM-15+0914SBQV V0200801N004112200019N0112651N1+01901+01801999999ADDGA1041+002401999GF104991999999999999999999MA1102301999999REMMET051METAR SBQV 062300Z 08008KT 9999 SCT008 19/18 Q1023;
0129833440999992008060700004-14950-040883FM-15+0914SBQV V0200801N004112200019N0050001N1+01901+01801999999ADDGA1041+001801999GF104991999999999999999999MA1102301999999MW1101REMMET054METAR SBQV 070000Z 08008KT 5000 BR SCT006 19/18 Q1023;
0123833440999992008060710154-14950-040883FM-16+0914SBQV V0201101N003119999999N0112651N1+01801+01801999999ADDKA1999M+99999MA1102301999999REMMET064METAR SBQV 071015Z SPECI 11006KT 9999 SCT008 SCT015 18/18 Q1023;EQDQ01 -00062ATMX  
0143833440999992008060711004-14950-040883FM-15+0914SBQV V0201201N004612200019N0112651N1+01901+01801999999ADDGA1041+002401999GA2041+004501999GF104991999999999999999999MA1102301999999REMMET058METAR SBQV 071100Z 12009KT 9999 SCT008 SCT015 19/18 Q1023;
0120833440999992008060712004-14950-040883FM-15+0914SBQV V0201101N005710045019N0112651N1+02001+01701999999ADDGA1071+004501999GF107991999999999999999999MA1102401999999REMMET051METAR SBQV 071200Z 11011KT 9999 BKN015 20/17 Q1024;
0120833440999992008060713004-14950-040883FM-15+0914SBQV V0201001N004612200019N0112651N1+02201+01601999999ADDGA1021+006001999GF102991999999999999999999MA1102401999999REMMET051METAR SBQV 071300Z 10009KT 9999 FEW020 22/16 Q1024;
0120833440999992008060714004-14950-040883FM-15+0914SBQV V0201101N005112200019N0112651N1+02301+01601999999ADDGA1041+006001999GF104991999999999999999999MA1102301999999REMMET051METAR SBQV 071400Z 11010KT 9999 SCT020 23/16 Q1023;
0120833440999992008060715004-14950-040883FM-15+0914SBQV V0201001N005112200019N0112651N1+02401+01501999999ADDGA1041+007501999GF104991999999999999999999MA1102301999999REMMET051METAR SBQV 071500Z 10010KT 9999 SCT025 24/15 Q1023;
0120833440999992008060716004-14950-040883FM-15+0914SBQV V0200901N006210075019N0112651N1+02601+01501999999ADDGA1071+007501999GF107991999999999999999999MA1102201999999REMMET051METAR SBQV 071600Z 09012KT 9999 BKN025 26/15 Q1022;
0120833440999992008060717004-14950-040883FM-15+0914SBQV V0201001N006210075019N0112651N1+02501+01501999999ADDGA1071+007501999GF107991999999999999999999MA1102101999999REMMET051METAR SBQV 071700Z 10012KT 9999 BKN025 25/15 Q1021;
0120833440999992008060718004-14950-040883FM-15+0914SBQV V0201001N006210075019N0112651N1+02501+01401999999ADDGA1071+007501999GF107991999999999999999999MA1102101999999REMMET051METAR SBQV 071800Z 10012KT 9999 BKN025 25/14 Q1021;
0120833440999992008060719004-14950-040883FM-15+0914SBQV V0201001N004612200019N0112651N1+02401+01501999999ADDGA1041+007501999GF104991999999999999999999MA1102101999999REMMET051METAR SBQV 071900Z 10009KT 9999 SCT025 24/15 Q1021;
0120833440999992008060720004-14950-040883FM-15+0914SBQV V0201201N005112200019N0112651N1+02301+01601999999ADDGA1041+006001999GF104991999999999999999999MA1102101999999REMMET051METAR SBQV 072000Z 12010KT 9999 SCT020 23/16 Q1021;
0120833440999992008060721004-14950-040883FM-15+0914SBQV V0201001N002612200019N0112651N1+02101+01701999999ADDGA1041+005401999GF104991999999999999999999MA1102101999999REMMET051METAR SBQV 072100Z 10005KT 9999 SCT018 21/17 Q1021;
0120833440999992008060722004-14950-040883FM-15+0914SBQV V0201001N003612200019N0112651N1+02001+01701999999ADDGA1021+004501999GF102991999999999999999999MA1102101999999REMMET051METAR SBQV 072200Z 10007KT 9999 FEW015 20/17 Q1021;
0143833440999992008060811004-14950-040883FM-15+0914SBQV V0201301N005712200019N0112651N1+02001+01801999999ADDGA1021+003901999GA2041+021001999GF104991999999999999999999MA1102301999999REMMET058METAR SBQV 081100Z 13011KT 9999 FEW013 SCT070 20/18 Q1023;
0143833440999992008060812004-14950-040883FM-15+0914SBQV V0201501N006212200019N0112651N1+02101+01801999999ADDGA1041+003901999GA2041+021001999GF104991999999999999999999MA1102301999999REMMET058METAR SBQV 081200Z 15012KT 9999 SCT013 SCT070 21/18 Q1023;
0143833440999992008060813004-14950-040883FM-15+0914SBQV V0201501N006212200019N0112651N1+02101+01801999999ADDGA1041+003901999GA2041+021001999GF104991999999999999999999MA1102401999999REMMET058METAR SBQV 081300Z 15012KT 9999 SCT013 SCT070 21/18 Q1024;
0120833440999992008060814004-14950-040883FM-15+0914SBQV V0201501N007212200019N0112651N1+02201+01701999999ADDGA1041+004501999GF104991999999999999999999MA1102301999999REMMET051METAR SBQV 081400Z 15014KT 9999 SCT015 22/17 Q1023;
0120833440999992008060815004-14950-040883FM-15+0914SBQV V0201501N007210048019N0112651N1+02401+01701999999ADDGA1071+004801999GF107991999999999999999999MA1102301999999REMMET051METAR SBQV 081500Z 15014KT 9999 BKN016 24/17 Q1023;
0120833440999992008060816004-14950-040883FM-15+0914SBQV V0201201N007210060019N0112651N1+02501+01701999999ADDGA1071+006001999GF107991999999999999999999MA1102201999999REMMET051METAR SBQV 081600Z 12014KT 9999 BKN020 25/17 Q1022;
0120833440999992008060817004-14950-040883FM-15+0914SBQV V0201201N005110060019N0112651N1+02401+01701999999ADDGA1071+006001999GF107991999999999999999999MA1102101999999REMMET051METAR SBQV 081700Z 12010KT 9999 BKN020 24/17 Q1021;
0143833440999992008060818004-14950-040883FM-15+0914SBQV V0201201N007212200019N0112651N1+02501+01701999999ADDGA1041+006001999GA2041+024001999GF104991999999999999999999MA1102101999999REMMET058METAR SBQV 081800Z 12014KT 9999 SCT020 SCT080 25/17 Q1021;
0143833440999992008060819004-14950-040883FM-15+0914SBQV V0201101N005712200019N0112651N1+02401+01601999999ADDGA1041+005401999GA2041+024001999GF104991999999999999999999MA1102101999999REMMET058METAR SBQV 081900Z 11011KT 9999 SCT018 SCT080 24/16 Q1021;
0143833440999992008060820004-14950-040883FM-15+0914SBQV V0201001N005710210019N0112651N1+02301+01701999999ADDGA1021+004801999GA2071+021001999GF107991999999999999999999MA1102101999999REMMET058METAR SBQV 082000Z 10011KT 9999 FEW016 BKN070 23/17 Q1021;
0143833440999992008060821004-14950-040883FM-15+0914SBQV V0201101N003110210019N0112651N1+02101+01701999999ADDGA1021+004501999GA2071+021001999GF107991999999999999999999MA1102101999999REMMET058METAR SBQV 082100Z 11006KT 9999 FEW015 BKN070 21/17 Q1021;
0143833440999992008060822004-14950-040883FM-15+0914SBQV V0200801N004612200019N0112651N1+02001+01801999999ADDGA1021+003901999GA2041+021001999GF104991999999999999999999MA1102101999999REMMET058METAR SBQV 082200Z 08009KT 9999 FEW013 SCT070 20/18 Q1021;
0120833440999992008060911004-14950-040883FM-15+0914SBQV V0201101N006212200019N0112651N1+02001+01801999999ADDGA1021+004501999GF102991999999999999999999MA1102301999999REMMET051METAR SBQV 091100Z 11012KT 9999 FEW015 20/18 Q1023;
0120833440999992008060912004-14950-040883FM-15+0914SBQV V0200901N006712200019N0112651N1+02101+01701999999ADDGA1021+004801999GF102991999999999999999999MA1102301999999REMMET051METAR SBQV 091200Z 09013KT 9999 FEW016 21/17 Q1023;
0120833440999992008060913004-14950-040883FM-15+0914SBQV V0201001N007712200019N0112651N1+02201+01501999999ADDGA1021+005401999GF102991999999999999999999MA1102301999999REMMET051METAR SBQV 091300Z 10015KT 9999 FEW018 22/15 Q1023;
0120833440999992008060914004-14950-040883FM-15+0914SBQV V0201101N006212200019N0112651N1+02401+01401999999ADDGA1021+007501999GF102991999999999999999999MA1102301999999REMMET051METAR SBQV 091400Z 11012KT 9999 FEW025 24/14 Q1023;
0120833440999992008060915004-14950-040883FM-15+0914SBQV V0200901N006212200019N0112651N1+02501+01401999999ADDGA1021+007501999GF102991999999999999999999MA1102201999999REMMET051METAR SBQV 091500Z 09012KT 9999 FEW025 25/14 Q1022;
0120833440999992008060917004-14950-040883FM-15+0914SBQV V0201101N005712200019N0112651N1+02601+01401999999ADDGA1021+007501999GF102991999999999999999999MA1102101999999REMMET051METAR SBQV 091700Z 11011KT 9999 FEW025 26/14 Q1021;
0120833440999992008060918004-14950-040883FM-15+0914SBQV V0201101N005712200019N0112651N1+02401+01401999999ADDGA1021+007501999GF102991999999999999999999MA1102101999999REMMET051METAR SBQV 091800Z 11011KT 9999 FEW025 24/14 Q1021;
0120833440999992008060919004-14950-040883FM-15+0914SBQV V0201101N005712200019N0112651N1+02401+01401999999ADDGA1021+007501999GF102991999999999999999999MA1102101999999REMMET051METAR SBQV 091900Z 11011KT 9999 FEW025 24/14 Q1021;
0120833440999992008060920004-14950-040883FM-15+0914SBQV V0201301N005112200019N0112651N1+02201+01401999999ADDGA1021+006001999GF102991999999999999999999MA1102101999999REMMET051METAR SBQV 092000Z 13010KT 9999 FEW020 22/14 Q1021;
0120833440999992008060921004-14950-040883FM-15+0914SBQV V0201301N002612200019N0112651N1+02001+01501999999ADDGA1021+004501999GF102991999999999999999999MA1102101999999REMMET051METAR SBQV 092100Z 13005KT 9999 FEW015 20/15 Q1021;
0072833440999992008060922004-14950-040883FM-15+0914SBQV V0201101N00311220001CN0099001N1+02001+01501999999ADDMA1102201999999REMMET045METAR SBQV 092200Z 11006KT CAVOK 20/15 Q1022;
0072833440999992008060923004-14950-040883FM-15+0914SBQV V0201001N00361220001CN0099001N1+02001+01601999999ADDMA1102201999999REMMET045METAR SBQV 092300Z 10007KT CAVOK 20/16 Q1022;
0119833440999992008061010154-14950-040883FM-16+0914SBQV V0201101N002619999999N9999999N1+01601+01601999999ADDKA1999M+99999MA1102201999999REMMET060METAR SBQV 101015Z SPECI 11005KT 0100 FG BKN003 16/16 Q1022;EQDQ01 -00052ATMX  
0143833440999992008061011004-14950-040883FM-15+0914SBQV V0201001N003610030019N0112651N1+01701+01701999999ADDGA1021+001501999GA2071+003001999GF107991999999999999999999MA1102201999999REMMET058METAR SBQV 101100Z 10007KT 9999 FEW005 BKN010 17/17 Q1022;
0120833440999992008061012004-14950-040883FM-15+0914SBQV V0201101N003112200019N0112651N1+02001+01701999999ADDGA1021+004501999GF102991999999999999999999MA1102301999999REMMET051METAR SBQV 101200Z 11006KT 9999 FEW015 20/17 Q1023;
0120833440999992008061013004-14950-040883FM-15+0914SBQV V0201001N004112200019N0112651N1+02301+01401999999ADDGA1021+005401999GF102991999999999999999999MA1102301999999REMMET051METAR SBQV 101300Z 10008KT 9999 FEW018 23/14 Q1023;
0120833440999992008061014004-14950-040883FM-15+0914SBQV V0200901N004612200019N0112651N1+02401+01401999999ADDGA1021+006001999GF102991999999999999999999MA1102301999999REMMET051METAR SBQV 101400Z 09009KT 9999 FEW020 24/14 Q1023;
0120833440999992008061015004-14950-040883FM-15+0914SBQV V0201001N005112200019N0112651N1+02401+01201999999ADDGA1021+006001999GF102991999999999999999999MA1102201999999REMMET051METAR SBQV 101500Z 10010KT 9999 FEW020 24/12 Q1022;
0120833440999992008061016004-14950-040883FM-15+0914SBQV V0201101N005112200019N0112651N1+02501+01301999999ADDGA1041+006001999GF104991999999999999999999MA1102101999999REMMET051METAR SBQV 101600Z 11010KT 9999 SCT020 25/13 Q1021;
0120833440999992008061017004-14950-040883FM-15+0914SBQV V0201101N004112200019N0112651N1+02401+01201999999ADDGA1041+006001999GF104991999999999999999999MA1102001999999REMMET051METAR SBQV 101700Z 11008KT 9999 SCT020 24/12 Q1020;
0120833440999992008061018004-14950-040883FM-15+0914SBQV V0200901N004612200019N0112651N1+02401+01401999999ADDGA1021+006001999GF102991999999999999999999MA1102001999999REMMET051METAR SBQV 101800Z 09009KT 9999 FEW020 24/14 Q1020;
0120833440999992008061019004-14950-040883FM-15+0914SBQV V0201001N004112200019N0112651N1+02301+01501999999ADDGA1021+006001999GF102991999999999999999999MA1101901999999REMMET051METAR SBQV 101900Z 10008KT 9999 FEW020 23/15 Q1019;
0143833440999992008061020004-14950-040883FM-15+0914SBQV V0200801N003110270019N0112651N1+02101+01501999999ADDGA1021+006001999GA2071+027001999GF107991999999999999999999MA1102001999999REMMET058METAR SBQV 102000Z 08006KT 9999 FEW020 BKN090 21/15 Q1020;
0072833440999992008061021004-14950-040883FM-15+0914SBQV V0200801N00361220001CN0099001N1+02001+01601999999ADDMA1102001999999REMMET045METAR SBQV 102100Z 08007KT CAVOK 20/16 Q1020;
0072833440999992008061022004-14950-040883FM-15+0914SBQV V0200801N00261220001CN0099001N1+01901+01601999999ADDMA1102001999999REMMET045METAR SBQV 102200Z 08005KT CAVOK 19/16 Q1020;
0072833440999992008061023004-14950-040883FM-15+0914SBQV V0200701N00261220001CN0099001N1+01901+01601999999ADDMA1102101999999REMMET045METAR SBQV 102300Z 07005KT CAVOK 19/16 Q1021;
0072833440999992008061100004-14950-040883FM-15+0914SBQV V0200601N00261220001CN0099001N1+01801+01601999999ADDMA1102101999999REMMET045METAR SBQV 110000Z 06005KT CAVOK 18/16 Q1021;
0084833440999992008061110154-14950-040883FM-16+0914SBQV V0201301N003112200019N0112651N1+01601+01501999999ADDMA1102101999999REMMET057METAR SBQV 111015Z SPECI 13006KT 9999 FEW005 16/15 Q1021;
0072833440999992008061111004-14950-040883FM-15+0914SBQV V0201201N00261220001CN0099001N1+01701+01601999999ADDMA1102201999999REMMET045METAR SBQV 111100Z 12005KT CAVOK 17/16 Q1022;
0120833440999992008061112004-14950-040883FM-15+0914SBQV V0201301N004112200019N0112651N1+02001+01501999999ADDGA1021+004501999GF102991999999999999999999MA1102201999999REMMET051METAR SBQV 111200Z 13008KT 9999 FEW015 20/15 Q1022;
0072833440999992008061113004-14950-040883FM-15+0914SBQV V0201301N00461220001CN0099001N1+02301+01301999999ADDMA1102201999999REMMET045METAR SBQV 111300Z 13009KT CAVOK 23/13 Q1022;
0072833440999992008061114004-14950-040883FM-15+0914SBQV V0201101N00411220001CN0099001N1+02501+01001999999ADDMA1102201999999REMMET045METAR SBQV 111400Z 11008KT CAVOK 25/10 Q1022;
0072833440999992008061115004-14950-040883FM-15+0914SBQV V0201201N00461220001CN0099001N1+02601+00901999999ADDMA1102101999999REMMET045METAR SBQV 111500Z 12009KT CAVOK 26/09 Q1021;
0072833440999992008061116004-14950-040883FM-15+0914SBQV V0201101N00311220001CN0099001N1+02601+00901999999ADDMA1102001999999REMMET045METAR SBQV 111600Z 11006KT CAVOK 26/09 Q1020;
0072833440999992008061117004-14950-040883FM-15+0914SBQV V0201001N00311220001CN0099001N1+02601+00801999999ADDMA1101901999999REMMET045METAR SBQV 111700Z 10006KT CAVOK 26/08 Q1019;
0072833440999992008061118004-14950-040883FM-15+0914SBQV V0201001N00361220001CN0099001N1+02901+00701999999ADDMA1101901999999REMMET045METAR SBQV 111800Z 10007KT CAVOK 29/07 Q1019;
0072833440999992008061119004-14950-040883FM-15+0914SBQV V0201401N00461220001CN0099001N1+02501+01401999999ADDMA1101901999999REMMET045METAR SBQV 111900Z 14009KT CAVOK 25/14 Q1019;
0072833440999992008061120004-14950-040883FM-15+0914SBQV V0201301N00571220001CN0099001N1+02301+01501999999ADDMA1102001999999REMMET045METAR SBQV 112000Z 13011KT CAVOK 23/15 Q1020;
0072833440999992008061121004-14950-040883FM-15+0914SBQV V0201101N00411220001CN0099001N1+02001+01601999999ADDMA1102001999999REMMET045METAR SBQV 112100Z 11008KT CAVOK 20/16 Q1020;
0137833440999992008061211004-14950-040883FM-15+0914SBQV V0201301N005110021019N0112651N1+01801+01601999999ADDGA1071+002101999GF107991999999999999999999MA1102301999999MW1511REMMET062METAR SBQV 121100Z 13010KT 9999 3500SE -DZ BKN007 18/16 Q1023;
0120833440999992008061212004-14950-040883FM-15+0914SBQV V0201301N005710021019N0112651N1+01901+01701999999ADDGA1081+002101999GF108991999999999999999999MA1102401999999REMMET051METAR SBQV 121200Z 13011KT 9999 OVC007 19/17 Q1024;
0120833440999992008061213004-14950-040883FM-15+0914SBQV V0201201N006210021019N0112651N1+02001+01801999999ADDGA1071+002101999GF107991999999999999999999MA1102401999999REMMET051METAR SBQV 121300Z 12012KT 9999 BKN007 20/18 Q1024;
0120833440999992008061214004-14950-040883FM-15+0914SBQV V0201401N005110021019N0112651N1+02001+01801999999ADDGA1081+002101999GF108991999999999999999999MA1102301999999REMMET051METAR SBQV 121400Z 14010KT 9999 OVC007 20/18 Q1023;
0137833440999992008061215004-14950-040883FM-15+0914SBQV V0201301N005110021019N0112651N1+02101+01801999999ADDGA1071+002101999GF107991999999999999999999MA1102301999999MW1511REMMET062METAR SBQV 121500Z 13010KT 9999 2000SE -DZ BKN007 21/18 Q1023;
0143833440999992008061216004-14950-040883FM-15+0914SBQV V0201301N005112200019N0112651N1+02201+01801999999ADDGA1041+002101999GA2041+002701999GF104991999999999999999999MA1102201999999REMMET058METAR SBQV 121600Z 13010KT 9999 SCT007 SCT009 22/18 Q1022;
0143833440999992008061217004-14950-040883FM-15+0914SBQV V0201401N006712200019N0112651N1+02301+01701999999ADDGA1041+002701999GA2041+004501999GF104991999999999999999999MA1102101999999REMMET058METAR SBQV 121700Z 14013KT 9999 SCT009 SCT015 23/17 Q1021;
0143833440999992008061218004-14950-040883FM-15+0914SBQV V0201301N005712200019N0112651N1+02301+01801999999ADDGA1041+002701999GA2041+004501999GF104991999999999999999999MA1102101999999REMMET058METAR SBQV 121800Z 13011KT 9999 SCT009 SCT015 23/18 Q1021;
0143833440999992008061219004-14950-040883FM-15+0914SBQV V0201201N005112200019N0112651N1+01901+01901999999ADDGA1021+001501999GA2041+002401999GF104991999999999999999999MA1102101999999REMMET058METAR SBQV 121900Z 12010KT 9999 FEW005 SCT008 19/19 Q1021;
0160833440999992008061220004-14950-040883FM-15+0914SBQV V0201101N004610024019N0112651N1+01901+01901999999ADDGA1021+001501999GA2071+002401999GF107991999999999999999999MA1102101999999MW1511REMMET069METAR SBQV 122000Z 11009KT 9999 7000SE -DZ FEW005 BKN008 19/19 Q1021;
0139833440999992008061221004-14950-040883FM-15+0914SBQV V0201201N004110015019N0012001N1+01801+01801999999ADDGA1071+001501999GF107991999999999999999999MA1102101999999MW1101MW2511REMMET058METAR SBQV 122100Z 12008KT 1200 -DZ BR BKN005 18/18 Q1021;
0143833440999992008061221474-14950-040883FM-15+0914SBQV V0201301N004610021019N0112651N1+01801+01801999999ADDGA1021+001501999GA2071+002101999GF107991999999999999999999MA1102201999999REMMET058METAR SBQV 122147Z 13009KT 9999 FEW005 BKN007 18/18 Q1022;
0136833440999992008061222264-14950-040883FM-15+0914SBQV V0201301N00511220001CN0015001N1+01801+01801999999ADDGA1071+001201999GA2041+001801999MA1102201999999MW1101MW2511REMMET065METAR SBQV 122226Z 13010KT 1500 -DZ BR BKN004 SCT006 18/18 Q1022;
0143833440999992008061223004-14950-040883FM-15+0914SBQV V0201201N005110018019N0112651N1+01801+01801999999ADDGA1021+001201999GA2071+001801999GF107991999999999999999999MA1102201999999REMMET058METAR SBQV 122300Z 12010KT 9999 FEW004 BKN006 18/18 Q1022;
0120833440999992008061311004-14950-040883FM-15+0914SBQV V0201101N004112200019N0112651N1+01701+01601999999ADDGA1021+001801999GF102991999999999999999999MA1102301999999REMMET051METAR SBQV 131100Z 11008KT 9999 FEW006 17/16 Q1023;
0120833440999992008061312004-14950-040883FM-15+0914SBQV V0201201N005112200019N0112651N1+01901+01601999999ADDGA1021+003901999GF102991999999999999999999MA1102301999999REMMET051METAR SBQV 131200Z 12010KT 9999 FEW013 19/16 Q1023;
0120833440999992008061313004-14950-040883FM-15+0914SBQV V0201301N004112200019N0112651N1+02201+01401999999ADDGA1021+004801999GF102991999999999999999999MA1102301999999REMMET051METAR SBQV 131300Z 13008KT 9999 FEW016 22/14 Q1023;
0120833440999992008061314004-14950-040883FM-15+0914SBQV V0201201N004612200019N0112651N1+02201+01301999999ADDGA1021+004801999GF102991999999999999999999MA1102201999999REMMET051METAR SBQV 131400Z 12009KT 9999 FEW016 22/13 Q1022;
0120833440999992008061315004-14950-040883FM-15+0914SBQV V0201401N003612200019N0112651N1+02401+01401999999ADDGA1021+004801999GF102991999999999999999999MA1102101999999REMMET051METAR SBQV 131500Z 14007KT 9999 FEW016 24/14 Q1021;
0120833440999992008061316004-14950-040883FM-15+0914SBQV V0201301N003612200019N0112651N1+02401+01301999999ADDGA1021+005401999GF102991999999999999999999MA1102101999999REMMET051METAR SBQV 131600Z 13007KT 9999 FEW018 24/13 Q1021;
0143833440999992008061317004-14950-040883FM-15+0914SBQV V0201301N004110210019N0112651N1+02301+01401999999ADDGA1021+005401999GA2071+021001999GF107991999999999999999999MA1102001999999REMMET058METAR SBQV 131700Z 13008KT 9999 FEW018 BKN070 23/14 Q1020;
0143833440999992008061318004-14950-040883FM-15+0914SBQV V0201301N003112200019N0112651N1+02501+01401999999ADDGA1021+006001999GA2041+024001999GF104991999999999999999999MA1101901999999REMMET058METAR SBQV 131800Z 13006KT 9999 FEW020 SCT080 25/14 Q1019;
0143833440999992008061319004-14950-040883FM-15+0914SBQV V0201501N004612200019N0112651N1+02301+01401999999ADDGA1021+005401999GA2041+024001999GF104991999999999999999999MA1102001999999REMMET058METAR SBQV 131900Z 15009KT 9999 FEW018 SCT080 23/14 Q1020;
0072833440999992008061320004-14950-040883FM-15+0914SBQV V0201601N00411220001CN0099001N1+02101+01501999999ADDMA1102001999999REMMET045METAR SBQV 132000Z 16008KT CAVOK 21/15 Q1020;
0072833440999992008061321004-14950-040883FM-15+0914SBQV V0201301N00361220001CN0099001N1+02001+01601999999ADDMA1102001999999REMMET045METAR SBQV 132100Z 13007KT CAVOK 20/16 Q1020;
0072833440999992008061322004-14950-040883FM-15+0914SBQV V0201201N00361220001CN0099001N1+01901+01601999999ADDMA1102101999999REMMET045METAR SBQV 132200Z 12007KT CAVOK 19/16 Q1021;
0072833440999992008061323004-14950-040883FM-15+0914SBQV V0201201N00411220001CN0099001N1+01801+01601999999ADDMA1102101999999REMMET045METAR SBQV 132300Z 12008KT CAVOK 18/16 Q1021;
0072833440999992008061400004-14950-040883FM-15+0914SBQV V0201201N00361220001CN0099001N1+01801+01601999999ADDMA1102101999999REMMET045METAR SBQV 140000Z 12007KT CAVOK 18/16 Q1021;
0072833440999992008061401004-14950-040883FM-15+0914SBQV V0201301N00361220001CN0099001N1+01701+01601999999ADDMA1102101999999REMMET045METAR SBQV 140100Z 13007KT CAVOK 17/16 Q1021;
0120833440999992008061402004-14950-040883FM-15+0914SBQV V0201301N003112200019N0112651N1+01701+01601999999ADDGA1021+002101999GF102991999999999999999999MA1102101999999REMMET051METAR SBQV 140200Z 13006KT 9999 FEW007 17/16 Q1021;
0120833440999992008061403004-14950-040883FM-15+0914SBQV V0201201N002112200019N0112651N1+01701+01701999999ADDGA1041+001801999GF104991999999999999999999MA1102001999999REMMET051METAR SBQV 140300Z 12004KT 9999 SCT006 17/17 Q1020;
0116833440999992008061410154-14950-040883FM-16+0914SBQV V0201001N003619999999N0112651N1+01701+01701999999ADDKA1999M+99999MA1102101999999REMMET057METAR SBQV 141015Z SPECI 10007KT 9999 BKN007 17/17 Q1021;EQDQ01 +00072ATMX  
0120833440999992008061411004-14950-040883FM-15+0914SBQV V0201101N004112200019N0112651N1+01801+01701999999ADDGA1041+002101999GF104991999999999999999999MA1102101999999REMMET051METAR SBQV 141100Z 11008KT 9999 SCT007 18/17 Q1021;
0120833440999992008061412004-14950-040883FM-15+0914SBQV V0201101N005710045019N0112651N1+02001+01701999999ADDGA1071+004501999GF107991999999999999999999MA1102101999999REMMET051METAR SBQV 141200Z 11011KT 9999 BKN015 20/17 Q1021;
0120833440999992008061413004-14950-040883FM-15+0914SBQV V0201101N004612200019N0112651N1+02001+01701999999ADDGA1041+004501999GF104991999999999999999999MA1102101999999REMMET051METAR SBQV 141300Z 11009KT 9999 SCT015 20/17 Q1021;
0120833440999992008061414004-14950-040883FM-15+0914SBQV V0201301N005712200019N0112651N1+02301+01601999999ADDGA1041+004801999GF104991999999999999999999MA1102101999999REMMET051METAR SBQV 141400Z 13011KT 9999 SCT016 23/16 Q1021;
0143833440999992008061415004-14950-040883FM-15+0914SBQV V0201401N005110060019N0112651N1+02201+01701999999ADDGA1041+004801999GA2071+006001999GF107991999999999999999999MA1102001999999REMMET058METAR SBQV 141500Z 14010KT 9999 SCT016 BKN020 22/17 Q1020;
0143833440999992008061416004-14950-040883FM-15+0914SBQV V0201301N004612200019N0112651N1+02301+01601999999ADDGA1021+004801999GA2041+006001999GF104991999999999999999999MA1102001999999REMMET058METAR SBQV 141600Z 13009KT 9999 FEW016 SCT020 23/16 Q1020;
0120833440999992008061417004-14950-040883FM-15+0914SBQV V0201601N003612200019N0112651N1+02301+01601999999ADDGA1041+006001999GF104991999999999999999999MA1101901999999REMMET051METAR SBQV 141700Z 16007KT 9999 SCT020 23/16 Q1019;
0120833440999992008061418004-14950-040883FM-15+0914SBQV V0201201N004612200019N0112651N1+02401+01401999999ADDGA1041+006001999GF104991999999999999999999MA1101801999999REMMET051METAR SBQV 141800Z 12009KT 9999 SCT020 24/14 Q1018;
0120833440999992008061419004-14950-040883FM-15+0914SBQV V0201001N005112200019N0112651N1+02301+01401999999ADDGA1041+006001999GF104991999999999999999999MA1101801999999REMMET051METAR SBQV 141900Z 10010KT 9999 SCT020 23/14 Q1018;
0120833440999992008061420004-14950-040883FM-15+0914SBQV V0201101N003612200019N0112651N1+02101+01501999999ADDGA1021+005401999GF102991999999999999999999MA1101901999999REMMET051METAR SBQV 142000Z 11007KT 9999 FEW018 21/15 Q1019;
0120833440999992008061421004-14950-040883FM-15+0914SBQV V0201101N002112200019N0112651N1+01901+01501999999ADDGA1021+004501999GF102991999999999999999999MA1101901999999REMMET051METAR SBQV 142100Z 11004KT 9999 FEW015 19/15 Q1019;
0072833440999992008061422004-14950-040883FM-15+0914SBQV V0201001N00311220001CN0099001N1+01801+01501999999ADDMA1102001999999REMMET045METAR SBQV 142200Z 10006KT CAVOK 18/15 Q1020;
0072833440999992008061423004-14950-040883FM-15+0914SBQV V0200701N00211220001CN0099001N1+01701+01501999999ADDMA1102001999999REMMET045METAR SBQV 142300Z 07004KT CAVOK 17/15 Q1020;
0078833440999992008061510154-14950-040883FM-16+0914SBQV V0209999C000012200019N0099001N1+01601+01501999999ADDMA1102101999999REMMET051METAR SBQV 151015Z SPECI 00000KT CAVOK 16/15 Q1021;
0072833440999992008061511004-14950-040883FM-15+0914SBQV V0201201N00151220001CN0099001N1+01801+01401999999ADDMA1102201999999REMMET045METAR SBQV 151100Z 12003KT CAVOK 18/14 Q1022;
0120833440999992008061512004-14950-040883FM-15+0914SBQV V0200601N003112200019N0112651N1+02101+01101999999ADDGA1021+004801999GF102991999999999999999999MA1102201999999REMMET051METAR SBQV 151200Z 06006KT 9999 FEW016 21/11 Q1022;
0120833440999992008061513004-14950-040883FM-15+0914SBQV V0209999C000012200019N0112651N1+02201+00901999999ADDGA1021+005401999GF102991999999999999999999MA1102201999999REMMET051METAR SBQV 151300Z 00000KT 9999 FEW018 22/09 Q1022;
0120833440999992008061514004-14950-040883FM-15+0914SBQV V0203201N002612200019N0112651N1+02401+01001999999ADDGA1021+006001999GF102991999999999999999999MA1102201999999REMMET051METAR SBQV 151400Z 32005KT 9999 FEW020 24/10 Q1022;
0120833440999992008061515004-14950-040883FM-15+0914SBQV V0202501N001512200019N0112651N1+02501+01101999999ADDGA1021+006001999GF102991999999999999999999MA1102101999999REMMET051METAR SBQV 151500Z 25003KT 9999 FEW020 25/11 Q1021;
0120833440999992008061516004-14950-040883FM-15+0914SBQV V0200101N003112200019N0112651N1+02501+01001999999ADDGA1021+006001999GF102991999999999999999999MA1102001999999REMMET051METAR SBQV 151600Z 01006KT 9999 FEW020 25/10 Q1020;
0120833440999992008061517004-14950-040883FM-15+0914SBQV V0203201N000512200019N0112651N1+02601+01001999999ADDGA1021+007501999GF102991999999999999999999MA1102001999999REMMET051METAR SBQV 151700Z 32001KT 9999 FEW025 26/10 Q1020;
0120833440999992008061518004-14950-040883FM-15+0914SBQV V0202301N000512200019N0112651N1+02601+01001999999ADDGA1021+007501999GF102991999999999999999999MA1101901999999REMMET051METAR SBQV 151800Z 23001KT 9999 FEW025 26/10 Q1019;
0120833440999992008061519004-14950-040883FM-15+0914SBQV V0200201N000512200019N0112651N1+02601+01001999999ADDGA1021+007501999GF102991999999999999999999MA1101901999999REMMET051METAR SBQV 151900Z 02001KT 9999 FEW025 26/10 Q1019;
0120833440999992008061520004-14950-040883FM-15+0914SBQV V0201501N003112200019N0112651N1+02301+01401999999ADDGA1021+006001999GF102991999999999999999999MA1102001999999REMMET051METAR SBQV 152000Z 15006KT 9999 FEW020 23/14 Q1020;
0120833440999992008061521004-14950-040883FM-15+0914SBQV V0201501N002612200019N0112651N1+02001+01401999999ADDGA1021+004801999GF102991999999999999999999MA1102001999999REMMET051METAR SBQV 152100Z 15005KT 9999 FEW016 20/14 Q1020;
0072833440999992008061522004-14950-040883FM-15+0914SBQV V0209999C00001220001CN0099001N1+02001+01301999999ADDMA1102101999999REMMET045METAR SBQV 152200Z 00000KT CAVOK 20/13 Q1021;
0078833440999992008061610154-14950-040883FM-16+0914SBQV V0209999C000012200019N0099001N1+01801+01301999999ADDMA1102201999999REMMET051METAR SBQV 161015Z SPECI 00000KT CAVOK 18/13 Q1022;
0072833440999992008061611004-14950-040883FM-15+0914SBQV V0209999C00001220001CN0099001N1+02201+01301999999ADDMA1102201999999REMMET045METAR SBQV 161100Z 00000KT CAVOK 22/13 Q1022;
0072833440999992008061612004-14950-040883FM-15+0914SBQV V0200501N00051220001CN0099001N1+02301+01001999999ADDMA1102301999999REMMET045METAR SBQV 161200Z 05001KT CAVOK 23/10 Q1023;
0072833440999992008061613004-14950-040883FM-15+0914SBQV V0201801N00311220001CN0099001N1+02401+01001999999ADDMA1102301999999REMMET045METAR SBQV 161300Z 18006KT CAVOK 24/10 Q1023;
0120833440999992008061614004-14950-040883FM-15+0914SBQV V0202201N003112200019N0112651N1+02501+01101999999ADDGA1021+006001999GF102991999999999999999999MA1102201999999REMMET051METAR SBQV 161400Z 22006KT 9999 FEW020 25/11 Q1022;
0120833440999992008061615004-14950-040883FM-15+0914SBQV V0201901N001512200019N0112651N1+02601+01201999999ADDGA1021+007501999GF102991999999999999999999MA1102101999999REMMET051METAR SBQV 161500Z 19003KT 9999 FEW025 26/12 Q1021;
0072833440999992008061616004-14950-040883FM-15+0914SBQV V0201801N00151220001CN0099001N1+02701+01001999999ADDMA1102001999999REMMET045METAR SBQV 161600Z 18003KT CAVOK 27/10 Q1020;
0072833440999992008061617004-14950-040883FM-15+0914SBQV V0201901N00311220001CN0099001N1+02701+01001999999ADDMA1101901999999REMMET045METAR SBQV 161700Z 19006KT CAVOK 27/10 Q1019;
0072833440999992008061618004-14950-040883FM-15+0914SBQV V0201401N00261220001CN0099001N1+02701+01201999999ADDMA1101901999999REMMET045METAR SBQV 161800Z 14005KT CAVOK 27/12 Q1019;
0072833440999992008061619004-14950-040883FM-15+0914SBQV V0201101N00311220001CN0099001N1+02601+01101999999ADDMA1101901999999REMMET045METAR SBQV 161900Z 11006KT CAVOK 26/11 Q1019;
0072833440999992008061620004-14950-040883FM-15+0914SBQV V0201201N00411220001CN0099001N1+02401+01201999999ADDMA1101901999999REMMET045METAR SBQV 162000Z 12008KT CAVOK 24/12 Q1019;
0072833440999992008061621004-14950-040883FM-15+0914SBQV V0201101N00411220001CN0099001N1+02101+01201999999ADDMA1102001999999REMMET045METAR SBQV 162100Z 11008KT CAVOK 21/12 Q1020;
0072833440999992008061622004-14950-040883FM-15+0914SBQV V0201001N00311220001CN0099001N1+02001+01201999999ADDMA1102001999999REMMET045METAR SBQV 162200Z 10006KT CAVOK 20/12 Q1020;
0072833440999992008061623004-14950-040883FM-15+0914SBQV V0201101N00311220001CN0099001N1+01801+01201999999ADDMA1102101999999REMMET045METAR SBQV 162300Z 11006KT CAVOK 18/12 Q1021;
0084833440999992008061710154-14950-040883FM-16+0914SBQV V0201301N004112200019N0112651N1+01701+01701999999ADDMA1102201999999REMMET057METAR SBQV 171015Z SPECI 13008KT 9999 OVC006 17/17 Q1022;
0120833440999992008061711004-14950-040883FM-15+0914SBQV V0201301N004110018019N0112651N1+01701+01701999999ADDGA1081+001801999GF108991999999999999999999MA1102301999999REMMET051METAR SBQV 171100Z 13008KT 9999 OVC006 17/17 Q1023;
0120833440999992008061712004-14950-040883FM-15+0914SBQV V0201301N004610024019N0112651N1+01801+01701999999ADDGA1081+002401999GF108991999999999999999999MA1102401999999REMMET051METAR SBQV 171200Z 13009KT 9999 OVC008 18/17 Q1024;
0120833440999992008061713004-14950-040883FM-15+0914SBQV V0201301N006710027019N0112651N1+01901+01601999999ADDGA1081+002701999GF108991999999999999999999MA1102401999999REMMET051METAR SBQV 171300Z 13013KT 9999 OVC009 19/16 Q1024;
0120833440999992008061714004-14950-040883FM-15+0914SBQV V0201301N006210033019N0112651N1+01901+01601999999ADDGA1071+003301999GF107991999999999999999999MA1102301999999REMMET051METAR SBQV 171400Z 13012KT 9999 BKN011 19/16 Q1023;
0153833440999992008061715004-14950-040883FM-15+0914SBQV V0201301N005110030019N0030001N1+01801+01701999999ADDGA1041+001801999GA2071+003001999GF107991999999999999999999MA1102301999999MW1511REMMET062METAR SBQV 171500Z 13010KT 3000 -DZ SCT006 BKN010 18/17 Q1023;
0183833440999992008061716004-14950-040883FM-15+0914SBQV V0201301N005110030019N0112651N1+01901+01701999999ADDGA1021+001801999GA2071+003001999GA3071+021001999GF107991999999999999999999MA1102201999999MW1511REMMET076METAR SBQV 171600Z 13010KT 9999 6000SE -DZ FEW006 BKN010 BKN070 19/17 Q1022;
0143833440999992008061718004-14950-040883FM-15+0914SBQV V0201401N005110033019N0112651N1+02001+01701999999ADDGA1071+003301999GA2081+021001999GF108991999999999999999999MA1102101999999REMMET058METAR SBQV 171800Z 14010KT 9999 BKN011 OVC070 20/17 Q1021;
0143833440999992008061719004-14950-040883FM-15+0914SBQV V0201201N004610036019N0112651N1+01901+01701999999ADDGA1071+003601999GA2081+021001999GF108991999999999999999999MA1102001999999REMMET058METAR SBQV 171900Z 12009KT 9999 BKN012 OVC070 19/17 Q1020;
0162833440999992008061720004-14950-040883FM-15+0914SBQV V0201301N005110030019N0030001N1+01801+01701999999ADDGA1071+003001999GA2081+021001999GF108991999999999999999999MA1102101999999MW1101MW2511REMMET065METAR SBQV 172000Z 13010KT 3000 -DZ BR BKN010 OVC070 18/17 Q1021;
0091833440999992008061721494-14950-040883FM-16+0914SBQV V0201401N004112200019N0112651N1+01701+01701999999ADDMA1102101999999REMMET064METAR SBQV 172149Z SPECI 14008KT 9999 SCT004 BKN006 17/17 Q1021;
0136833440999992008061723004-14950-040883FM-15+0914SBQV V0201301N00511220001CN0112651N1+01701+01701999999ADDGA1071+001201999GA2041+001501999MA1102201999999REMMET058METAR SBQV 172300Z 13010KT 9999 BKN004 SCT005 17/17 Q1022;EQDQ01+000042SCOTCV
0143833440999992008061811004-14950-040883FM-15+0914SBQV V0201201N006210012019N0112651N1+01601+01601999999ADDGA1071+001201999GA2081+021001999GF108991999999999999999999MA1102201999999REMMET058METAR SBQV 181100Z 12012KT 9999 BKN004 OVC070 16/16 Q1022;
0091833440999992008061811414-14950-040883FM-16+0914SBQV V0201301N005712200019N0112651N1+01701+01701999999ADDMA1102301999999REMMET064METAR SBQV 181141Z SPECI 13011KT 9999 BKN005 OVC070 17/17 Q1023;
0102833440999992008061812364-14950-040883FM-16+0914SBQV V0201301N005712200019N9999999N1+01701+01701999999ADDMA1102301999999REMMET075METAR SBQV 181236Z SPECI 13011KT 3000 -DZ BKN004 SCT005 OVC070 17/17 Q1023;
0166833440999992008061813304-14950-040883FM-15+0914SBQV V0201301N005110015019N0070001N1+01701+01701999999ADDGA1041+001201999GA2071+001501999GA3081+021001999GF108991999999999999999999MA1102301999999REMMET065METAR SBQV 181330Z 13010KT 7000 SCT004 BKN005 OVC070 17/17 Q1023;
0176833440999992008061815004-14950-040883FM-15+0914SBQV V0201301N005110021019N0070001N1+01701+01701999999ADDGA1041+001201999GA2071+002101999GA3081+021001999GF108991999999999999999999MA1102201999999MW1611REMMET069METAR SBQV 181500Z 13010KT 7000 -RA SCT004 BKN007 OVC070 17/17 Q1022;
0143833440999992008061816004-14950-040883FM-15+0914SBQV V0201401N004610036019N0112651N1+01801+01701999999ADDGA1071+003601999GA2081+021001999GF108991999999999999999999MA1102101999999REMMET058METAR SBQV 181600Z 14009KT 9999 BKN012 OVC070 18/17 Q1021;
0176833440999992008061817004-14950-040883FM-15+0914SBQV V0201501N004610021019N0050001N1+01701+01701999999ADDGA1041+001501999GA2071+002101999GA3081+021001999GF108991999999999999999999MA1102001999999MW1511REMMET069METAR SBQV 181700Z 15009KT 5000 -DZ SCT005 BKN007 OVC070 17/17 Q1020;
0143833440999992008061818004-14950-040883FM-15+0914SBQV V0201301N004110024019N0112651N1+01801+01701999999ADDGA1071+002401999GA2071+021001999GF107991999999999999999999MA1102001999999REMMET058METAR SBQV 181800Z 13008KT 9999 BKN008 BKN070 18/17 Q1020;
0143833440999992008061819004-14950-040883FM-15+0914SBQV V0201201N004110027019N0112651N1+01801+01701999999ADDGA1071+002701999GA2081+021001999GF108991999999999999999999MA1102001999999REMMET058METAR SBQV 181900Z 12008KT 9999 BKN009 OVC070 18/17 Q1020;
0102833440999992008061819354-14950-040883FM-16+0914SBQV V0201201N005112200019N9999999N1+01701+01701999999ADDMA1102001999999REMMET075METAR SBQV 181935Z SPECI 12010KT 1200 -DZ SCT005 BKN008 OVC070 17/17 Q1020;
0143833440999992008061821004-14950-040883FM-15+0914SBQV V0201401N003110021019N0112651N1+01701+01701999999ADDGA1071+002101999GA2071+021001999GF107991999999999999999999MA1102001999999REMMET058METAR SBQV 182100Z 14006KT 9999 BKN007 BKN070 17/17 Q1020;
0175833440999992008061822004-14950-040883FM-15+0914SBQV V0201301N003110018019N0050001N1+01701+01701999999ADDGA1041+001501999GA2071+001801999GA3081+021001999GF108991999999999999999999MA1102101999999MW1101REMMET068METAR SBQV 182200Z 13006KT 5000 BR SCT005 BKN006 OVC070 17/17 Q1021;
0152833440999992008061823004-14950-040883FM-15+0914SBQV V0201301N003610012019N0030001N1+01701+01701999999ADDGA1071+001201999GA2081+021001999GF108991999999999999999999MA1102101999999MW1101REMMET061METAR SBQV 182300Z 13007KT 3000 BR BKN004 OVC070 17/17 Q1021;
0130833440999992008061910154-14950-040883FM-16+0914SBQV V0201101N001519999999N9999999N1+01601+01601999999ADDKA1999M+99999MA1102101999999REMMET071METAR SBQV 191015Z SPECI 11003KT 9000 SCT005 BKN006 OVC070 16/16 Q1021;EQDQ01 -00032ATMX  
0091833440999992008061910364-14950-040883FM-16+0914SBQV V0201201N002612200019N0112651N1+01601+01601999999ADDMA1102201999999REMMET064METAR SBQV 191036Z SPECI 12005KT 9999 SCT007 BKN070 16/16 Q1022;
0136833440999992008061912004-14950-040883FM-15+0914SBQV V0201101N00361220001CN0112651N1+01801+01701999999ADDGA1071+003301999GA2041+024001999MA1102201999999REMMET058METAR SBQV 191200Z 11007KT 9999 BKN011 SCT080 18/17 Q1022;EQDQ01+000042SCOTCV
0120833440999992008061913004-14950-040883FM-15+0914SBQV V0201101N005110039019N0112651N1+01901+01701999999ADDGA1071+003901999GF107991999999999999999999MA1102301999999REMMET051METAR SBQV 191300Z 11010KT 9999 BKN013 19/17 Q1023;
0143833440999992008061914004-14950-040883FM-15+0914SBQV V0201101N004610240019N0112651N1+01901+01701999999ADDGA1041+004501999GA2071+024001999GF107991999999999999999999MA1102301999999REMMET058METAR SBQV 191400Z 11009KT 9999 SCT015 BKN080 19/17 Q1023;
0143833440999992008061915004-14950-040883FM-15+0914SBQV V0201001N003612200019N0112651N1+02101+01601999999ADDGA1041+004501999GA2041+024001999GF104991999999999999999999MA1102201999999REMMET058METAR SBQV 191500Z 10007KT 9999 SCT015 SCT080 21/16 Q1022;
0143833440999992008061916004-14950-040883FM-15+0914SBQV V0201401N004110240019N0112651N1+02201+01701999999ADDGA1041+004501999GA2071+024001999GF107991999999999999999999MA1102101999999REMMET058METAR SBQV 191600Z 14008KT 9999 SCT015 BKN080 22/17 Q1021;
0143833440999992008061917004-14950-040883FM-15+0914SBQV V0201501N004612200019N0112651N1+02201+01701999999ADDGA1041+004801999GA2041+024001999GF104991999999999999999999MA1102001999999REMMET058METAR SBQV 191700Z 15009KT 9999 SCT016 SCT080 22/17 Q1020;
0143833440999992008061918004-14950-040883FM-15+0914SBQV V0201501N005112200019N0112651N1+02201+01701999999ADDGA1041+004801999GA2041+024001999GF104991999999999999999999MA1102001999999REMMET058METAR SBQV 191800Z 15010KT 9999 SCT016 SCT080 22/17 Q1020;
0143833440999992008061919004-14950-040883FM-15+0914SBQV V0201101N005112200019N0112651N1+02201+01601999999ADDGA1041+004801999GA2041+024001999GF104991999999999999999999MA1102001999999REMMET058METAR SBQV 191900Z 11010KT 9999 SCT016 SCT080 22/16 Q1020;
0143833440999992008061920004-14950-040883FM-15+0914SBQV V0201101N004110210019N0112651N1+02001+01701999999ADDGA1021+004501999GA2071+021001999GF107991999999999999999999MA1102001999999REMMET058METAR SBQV 192000Z 11008KT 9999 FEW015 BKN070 20/17 Q1020;
0143833440999992008061921004-14950-040883FM-15+0914SBQV V0201001N004112200019N0112651N1+01901+01701999999ADDGA1021+004501999GA2041+021001999GF104991999999999999999999MA1102001999999REMMET058METAR SBQV 192100Z 10008KT 9999 FEW015 SCT070 19/17 Q1020;
0143833440999992008061922004-14950-040883FM-15+0914SBQV V0201001N003112200019N0112651N1+01701+01601999999ADDGA1021+003601999GA2041+090001999GF104991999999999999999999MA1102101999999REMMET058METAR SBQV 192200Z 10006KT 9999 FEW012 SCT300 17/16 Q1021;
0072833440999992008061923004-14950-040883FM-15+0914SBQV V0200901N00261220001CN0099001N1+01701+01601999999ADDMA1102101999999REMMET045METAR SBQV 192300Z 09005KT CAVOK 17/16 Q1021;
0123833440999992008062010154-14950-040883FM-16+0914SBQV V0201001N003119999999N0112651N1+01701+01701999999ADDKA1999M+99999MA1102101999999REMMET064METAR SBQV 201015Z SPECI 10006KT 9999 SCT006 BKN070 17/17 Q1021;EQDQ01 +00062ATMX  
0120833440999992008062011004-14950-040883FM-15+0914SBQV V0201001N003610027019N0112651N1+01801+01701999999ADDGA1071+002701999GF107991999999999999999999MA1102201999999REMMET051METAR SBQV 201100Z 10007KT 9999 BKN009 18/17 Q1022;
0120833440999992008062012004-14950-040883FM-15+0914SBQV V0201001N004112200019N0112651N1+01901+01601999999ADDGA1041+003301999GF104991999999999999999999MA1102201999999REMMET051METAR SBQV 201200Z 10008KT 9999 SCT011 19/16 Q1022;
0120833440999992008062013004-14950-040883FM-15+0914SBQV V0201101N003610045019N0112651N1+02001+01601999999ADDGA1071+004501999GF107991999999999999999999MA1102201999999REMMET051METAR SBQV 201300Z 11007KT 9999 BKN015 20/16 Q1022;
0120833440999992008062014004-14950-040883FM-15+0914SBQV V0201001N003110048019N0112651N1+02101+01601999999ADDGA1071+004801999GF107991999999999999999999MA1102201999999REMMET051METAR SBQV 201400Z 10006KT 9999 BKN016 21/16 Q1022;
0143833440999992008062015004-14950-040883FM-15+0914SBQV V0201101N003110240019N0112651N1+02201+01601999999ADDGA1021+005401999GA2071+024001999GF107991999999999999999999MA1102101999999REMMET058METAR SBQV 201500Z 11006KT 9999 FEW018 BKN080 22/16 Q1021;
0136833440999992008062016004-14950-040883FM-15+0914SBQV V0201001N00311220001CN0112651N1+02301+01601999999ADDGA1071+006001999GA2041+024001999MA1102001999999REMMET058METAR SBQV 201600Z 10006KT 9999 BKN020 SCT080 23/16 Q1020;EQDQ01+000042SCOTCV
0120833440999992008062017004-14950-040883FM-15+0914SBQV V0201001N003610060019N0112651N1+02401+01601999999ADDGA1071+006001999GF107991999999999999999999MA1101901999999REMMET051METAR SBQV 201700Z 10007KT 9999 BKN020 24/16 Q1019;
0120833440999992008062018004-14950-040883FM-15+0914SBQV V0201501N004612200019N0112651N1+02301+01701999999ADDGA1041+006001999GF104991999999999999999999MA1101901999999REMMET051METAR SBQV 201800Z 15009KT 9999 SCT020 23/17 Q1019;
0120833440999992008062019004-14950-040883FM-15+0914SBQV V0201601N004612200019N0112651N1+02201+01701999999ADDGA1021+006001999GF102991999999999999999999MA1101901999999REMMET051METAR SBQV 201900Z 16009KT 9999 FEW020 22/17 Q1019;
0120833440999992008062020004-14950-040883FM-15+0914SBQV V0201401N005112200019N0112651N1+02001+01701999999ADDGA1021+004801999GF102991999999999999999999MA1101901999999REMMET051METAR SBQV 202000Z 14010KT 9999 FEW016 20/17 Q1019;
0120833440999992008062021004-14950-040883FM-15+0914SBQV V0201401N004112200019N0112651N1+01801+01701999999ADDGA1021+004501999GF102991999999999999999999MA1101901999999REMMET051METAR SBQV 202100Z 14008KT 9999 FEW015 18/17 Q1019;
0120833440999992008062022004-14950-040883FM-15+0914SBQV V0201301N003112200019N0112651N1+01701+01701999999ADDGA1041+002101999GF104991999999999999999999MA1102001999999REMMET051METAR SBQV 202200Z 13006KT 9999 SCT007 17/17 Q1020;
0120833440999992008062023004-14950-040883FM-15+0914SBQV V0201201N003612200019N0112651N1+01701+01701999999ADDGA1041+001801999GF104991999999999999999999MA1102001999999REMMET051METAR SBQV 202300Z 12007KT 9999 SCT006 17/17 Q1020;
0072833440999992008062111004-14950-040883FM-15+0914SBQV V0201601N00151220001CN0099001N1+01801+01401999999ADDMA1102101999999REMMET045METAR SBQV 211100Z 16003KT CAVOK 18/14 Q1021;
0072833440999992008062112004-14950-040883FM-15+0914SBQV V0200101N00101220001CN0099001N1+02101+01401999999ADDMA1102101999999REMMET045METAR SBQV 211200Z 01002KT CAVOK 21/14 Q1021;
0120833440999992008062113004-14950-040883FM-15+0914SBQV V0201001N001512200019N0112651N1+02301+01401999999ADDGA1021+004801999GF102991999999999999999999MA1102101999999REMMET051METAR SBQV 211300Z 10003KT 9999 FEW016 23/14 Q1021;
0120833440999992008062114004-14950-040883FM-15+0914SBQV V0200501N002112200019N0112651N1+02401+01301999999ADDGA1041+005401999GF104991999999999999999999MA1102001999999REMMET051METAR SBQV 211400Z 05004KT 9999 SCT018 24/13 Q1020;
0120833440999992008062116004-14950-040883FM-15+0914SBQV V0203601N001510060019N0112651N1+02601+01401999999ADDGA1071+006001999GF107991999999999999999999MA1101801999999REMMET051METAR SBQV 211600Z 36003KT 9999 BKN020 26/14 Q1018;
0120833440999992008062117004-14950-040883FM-15+0914SBQV V0201001N003110060019N0112651N1+02401+01601999999ADDGA1071+006001999GF107991999999999999999999MA1101801999999REMMET051METAR SBQV 211700Z 10006KT 9999 BKN020 24/16 Q1018;
0120833440999992008062118004-14950-040883FM-15+0914SBQV V0201201N003610060019N0112651N1+02401+01701999999ADDGA1071+006001999GF107991999999999999999999MA1101691999999REMMET051METAR SBQV 211800Z 12007KT 9999 BKN020 24/17 Q1017;
0120833440999992008062119004-14950-040883FM-15+0914SBQV V0201101N003110060019N0112651N1+02301+01701999999ADDGA1071+006001999GF107991999999999999999999MA1101801999999REMMET051METAR SBQV 211900Z 11006KT 9999 BKN020 23/17 Q1018;
0120833440999992008062120004-14950-040883FM-15+0914SBQV V0201101N003610048019N0112651N1+02201+01701999999ADDGA1071+004801999GF107991999999999999999999MA1101801999999REMMET051METAR SBQV 212000Z 11007KT 9999 BKN016 22/17 Q1018;
0120833440999992008062121004-14950-040883FM-15+0914SBQV V0200801N004110048019N0112651N1+02101+01701999999ADDGA1071+004801999GF107991999999999999999999MA1101801999999REMMET051METAR SBQV 212100Z 08008KT 9999 BKN016 21/17 Q1018;
0120833440999992008062122004-14950-040883FM-15+0914SBQV V0200601N004612200019N0112651N1+01901+01801999999ADDGA1021+004801999GF102991999999999999999999MA1101901999999REMMET051METAR SBQV 212200Z 06009KT 9999 FEW016 19/18 Q1019;
0072833440999992008062211004-14950-040883FM-15+0914SBQV V0200501N00361220001CN0099001N1+02001+01201999999ADDMA1102001999999REMMET045METAR SBQV 221100Z 05007KT CAVOK 20/12 Q1020;
0072833440999992008062212004-14950-040883FM-15+0914SBQV V0200701N00311220001CN0099001N1+02201+01301999999ADDMA1102001999999REMMET045METAR SBQV 221200Z 07006KT CAVOK 22/13 Q1020;
0143833440999992008062213004-14950-040883FM-15+0914SBQV V0200801N001512200019N0112651N1+02401+01401999999ADDGA1021+009001999GA2041+090001999GF104991999999999999999999MA1102001999999REMMET058METAR SBQV 221300Z 08003KT 9999 FEW030 SCT300 24/14 Q1020;
0143833440999992008062214004-14950-040883FM-15+0914SBQV V0201201N002610900019N0112651N1+02401+01301999999ADDGA1021+009001999GA2071+090001999GF107991999999999999999999MA1102001999999REMMET058METAR SBQV 221400Z 12005KT 9999 FEW030 BKN300 24/13 Q1020;
0072833440999992008062215004-14950-040883FM-15+0914SBQV V0201101N00361220001CN0099001N1+02601+01201999999ADDMA1101901999999REMMET045METAR SBQV 221500Z 11007KT CAVOK 26/12 Q1019;
0072833440999992008062216004-14950-040883FM-15+0914SBQV V0200801N00361220001CN0099001N1+02701+01101999999ADDMA1101801999999REMMET045METAR SBQV 221600Z 08007KT CAVOK 27/11 Q1018;
0120833440999992008062217004-14950-040883FM-15+0914SBQV V0200901N003612200019N0112651N1+02801+01101999999ADDGA1021+009001999GF102991999999999999999999MA1101801999999REMMET051METAR SBQV 221700Z 09007KT 9999 FEW030 28/11 Q1018;
0120833440999992008062218004-14950-040883FM-15+0914SBQV V0200801N002612200019N0112651N1+02701+01101999999ADDGA1021+009001999GF102991999999999999999999MA1101801999999REMMET051METAR SBQV 221800Z 08005KT 9999 FEW030 27/11 Q1018;
0072833440999992008062219004-14950-040883FM-15+0914SBQV V0201301N00511220001CN0099001N1+02501+01401999999ADDMA1101801999999REMMET045METAR SBQV 221900Z 13010KT CAVOK 25/14 Q1018;
0072833440999992008062220004-14950-040883FM-15+0914SBQV V0201201N00571220001CN0099001N1+02301+01401999999ADDMA1101801999999REMMET045METAR SBQV 222000Z 12011KT CAVOK 23/14 Q1018;
0072833440999992008062221004-14950-040883FM-15+0914SBQV V0201001N00311220001CN0099001N1+02101+01301999999ADDMA1101901999999REMMET045METAR SBQV 222100Z 10006KT CAVOK 21/13 Q1019;
0072833440999992008062222004-14950-040883FM-15+0914SBQV V0201101N00311220001CN0099001N1+01901+01301999999ADDMA1101901999999REMMET045METAR SBQV 222200Z 11006KT CAVOK 19/13 Q1019;
0120833440999992008062311004-14950-040883FM-15+0914SBQV V0201001N004112200019N0112651N1+01801+01701999999ADDGA1021+003001999GF102991999999999999999999MA1102201999999REMMET051METAR SBQV 231100Z 10008KT 9999 FEW010 18/17 Q1022;
0120833440999992008062312004-14950-040883FM-15+0914SBQV V0201301N004612200019N0112651N1+02001+01601999999ADDGA1021+004501999GF102991999999999999999999MA1102301999999REMMET051METAR SBQV 231200Z 13009KT 9999 FEW015 20/16 Q1023;
0120833440999992008062313004-14950-040883FM-15+0914SBQV V0201201N005712200019N0112651N1+02301+01601999999ADDGA1021+005401999GF102991999999999999999999MA1102301999999REMMET051METAR SBQV 231300Z 12011KT 9999 FEW018 23/16 Q1023;
0120833440999992008062314004-14950-040883FM-15+0914SBQV V0201201N005112200019N0112651N1+02401+01501999999ADDGA1021+005401999GF102991999999999999999999MA1102301999999REMMET051METAR SBQV 231400Z 12010KT 9999 FEW018 24/15 Q1023;
0120833440999992008062315004-14950-040883FM-15+0914SBQV V0201301N005712200019N0112651N1+02401+01401999999ADDGA1021+006001999GF102991999999999999999999MA1102201999999REMMET051METAR SBQV 231500Z 13011KT 9999 FEW020 24/14 Q1022;
0120833440999992008062316004-14950-040883FM-15+0914SBQV V0201301N005112200019N0112651N1+02401+01401999999ADDGA1021+006001999GF102991999999999999999999MA1102201999999REMMET051METAR SBQV 231600Z 13010KT 9999 FEW020 24/14 Q1022;
0120833440999992008062317004-14950-040883FM-15+0914SBQV V0201501N004612200019N0112651N1+02401+01301999999ADDGA1041+006001999GF104991999999999999999999MA1102101999999REMMET051METAR SBQV 231700Z 15009KT 9999 SCT020 24/13 Q1021;
0120833440999992008062318004-14950-040883FM-15+0914SBQV V0201501N004112200019N0112651N1+02401+01401999999ADDGA1041+006001999GF104991999999999999999999MA1102101999999REMMET051METAR SBQV 231800Z 15008KT 9999 SCT020 24/14 Q1021;
0143833440999992008062319004-14950-040883FM-15+0914SBQV V0201501N005712200019N0112651N1+02301+01501999999ADDGA1041+005401999GA2041+024001999GF104991999999999999999999MA1102101999999REMMET058METAR SBQV 231900Z 15011KT 9999 SCT018 SCT080 23/15 Q1021;
0143833440999992008062320004-14950-040883FM-15+0914SBQV V0201501N005710210019N0112651N1+02201+01501999999ADDGA1021+004801999GA2071+021001999GF107991999999999999999999MA1102101999999REMMET058METAR SBQV 232000Z 15011KT 9999 FEW016 BKN070 22/15 Q1021;
0143833440999992008062321004-14950-040883FM-15+0914SBQV V0201401N004110210019N0112651N1+02101+01501999999ADDGA1021+004501999GA2071+021001999GF107991999999999999999999MA1102101999999REMMET058METAR SBQV 232100Z 14008KT 9999 FEW015 BKN070 21/15 Q1021;
0143833440999992008062322004-14950-040883FM-15+0914SBQV V0201301N003612200019N0112651N1+02101+01501999999ADDGA1021+003301999GA2041+021001999GF104991999999999999999999MA1102201999999REMMET058METAR SBQV 232200Z 13007KT 9999 FEW011 SCT070 21/15 Q1022;
0143833440999992008062411004-14950-040883FM-15+0914SBQV V0201401N007210210019N0112651N1+01801+01601999999ADDGA1041+003901999GA2071+021001999GF107991999999999999999999MA1102401999999REMMET058METAR SBQV 241100Z 14014KT 9999 SCT013 BKN070 18/16 Q1024;
0127833440999992008062412004-14950-040883FM-15+0914SBQV V0201501N007710210019N0112651N1+01901+01601999999ADDGA1041+004501999GA2071+021001999GF107991999999999999999999REMMET057METAR SBQV 241200Z 15015KT 9999 SCT015 BKN070 19/16 Q102;
0143833440999992008062413004-14950-040883FM-15+0914SBQV V0201401N007212200019N0112651N1+02201+01601999999ADDGA1041+004801999GA2041+024001999GF104991999999999999999999MA1102401999999REMMET058METAR SBQV 241300Z 14014KT 9999 SCT016 SCT080 22/16 Q1024;
0120833440999992008062414004-14950-040883FM-15+0914SBQV V0201501N006712200019N0112651N1+02201+01601999999ADDGA1041+005401999GF104991999999999999999999MA1102401999999REMMET051METAR SBQV 241400Z 15013KT 9999 SCT018 22/16 Q1024;
0120833440999992008062415004-14950-040883FM-15+0914SBQV V0201301N006212200019N0112651N1+02401+01601999999ADDGA1041+006001999GF104991999999999999999999MA1102301999999REMMET051METAR SBQV 241500Z 13012KT 9999 SCT020 24/16 Q1023;
0120833440999992008062416004-14950-040883FM-15+0914SBQV V0201201N006210060019N0112651N1+02401+01601999999ADDGA1071+006001999GF107991999999999999999999MA1102301999999REMMET051METAR SBQV 241600Z 12012KT 9999 BKN020 24/16 Q1023;
0120833440999992008062418004-14950-040883FM-15+0914SBQV V0201301N005112200019N0112651N1+02301+01501999999ADDGA1021+006001999GF102991999999999999999999MA1102201999999REMMET051METAR SBQV 241800Z 13010KT 9999 FEW020 23/15 Q1022;
0120833440999992008062419004-14950-040883FM-15+0914SBQV V0201201N004112200019N0112651N1+02401+01601999999ADDGA1021+006001999GF102991999999999999999999MA1102201999999REMMET051METAR SBQV 241900Z 12008KT 9999 FEW020 24/16 Q1022;
0120833440999992008062420004-14950-040883FM-15+0914SBQV V0201201N005112200019N0112651N1+02201+01501999999ADDGA1021+005401999GF102991999999999999999999MA1102201999999REMMET051METAR SBQV 242000Z 12010KT 9999 FEW018 22/15 Q1022;
0120833440999992008062421004-14950-040883FM-15+0914SBQV V0201301N004612200019N0112651N1+02001+01601999999ADDGA1021+004801999GF102991999999999999999999MA1102201999999REMMET051METAR SBQV 242100Z 13009KT 9999 FEW016 20/16 Q1022;
0143833440999992008062422004-14950-040883FM-15+0914SBQV V0201201N005112200019N0112651N1+01801+01701999999ADDGA1021+004501999GA2041+024001999GF104991999999999999999999MA1102201999999REMMET058METAR SBQV 242200Z 12010KT 9999 FEW015 SCT080 18/17 Q1022;
0152833440999992008062511004-14950-040883FM-15+0914SBQV V0201201N005110015019N0050001N1+01701+01701999999ADDGA1071+001501999GA2081+002101999GF108991999999999999999999MA1102301999999MW1101REMMET061METAR SBQV 251100Z 12010KT 5000 BR BKN005 OVC007 17/17 Q1023;
0143833440999992008062512004-14950-040883FM-15+0914SBQV V0201201N005110021019N0112651N1+01801+01801999999ADDGA1021+001501999GA2071+002101999GF107991999999999999999999MA1102401999999REMMET058METAR SBQV 251200Z 12010KT 9999 FEW005 BKN007 18/18 Q1024;
0143833440999992008062513004-14950-040883FM-15+0914SBQV V0201101N004110030019N0112651N1+01901+01801999999ADDGA1021+001801999GA2071+003001999GF107991999999999999999999MA1102301999999REMMET058METAR SBQV 251300Z 11008KT 9999 FEW006 BKN010 19/18 Q1023;
0120833440999992008062514004-14950-040883FM-15+0914SBQV V0201001N004610039019N0112651N1+02001+01601999999ADDGA1071+003901999GF107991999999999999999999MA1102301999999REMMET051METAR SBQV 251400Z 10009KT 9999 BKN013 20/16 Q1023;
0120833440999992008062516004-14950-040883FM-15+0914SBQV V0201201N004610039019N0112651N1+02101+01701999999ADDGA1071+003901999GF107991999999999999999999MA1102201999999REMMET051METAR SBQV 251600Z 12009KT 9999 BKN013 21/17 Q1022;
0136833440999992008062517004-14950-040883FM-15+0914SBQV V0201001N00361220001CN0112651N1+02201+01701999999ADDGA1071+003901999GA2041+004501999MA1102101999999REMMET058METAR SBQV 251700Z 10007KT 9999 BKN013 SCT015 22/17 Q1021;EQDQ01+000042SCOTCV
0143833440999992008062519004-14950-040883FM-15+0914SBQV V0201601N004612200019N0112651N1+02201+01801999999ADDGA1021+003601999GA2041+004801999GF104991999999999999999999MA1102101999999REMMET058METAR SBQV 251900Z 16009KT 9999 FEW012 SCT016 22/18 Q1021;
0143833440999992008062520004-14950-040883FM-15+0914SBQV V0201401N005112200019N0112651N1+02001+01701999999ADDGA1021+003301999GA2041+004501999GF104991999999999999999999MA1102101999999REMMET058METAR SBQV 252000Z 14010KT 9999 FEW011 SCT015 20/17 Q1021;
0120833440999992008062521004-14950-040883FM-15+0914SBQV V0201401N005112200019N0112651N1+01801+01701999999ADDGA1021+003001999GF102991999999999999999999MA1102101999999REMMET051METAR SBQV 252100Z 14010KT 9999 FEW010 18/17 Q1021;
0120833440999992008062522004-14950-040883FM-15+0914SBQV V0201301N004112200019N0112651N1+01701+01701999999ADDGA1041+002401999GF104991999999999999999999MA1102101999999REMMET051METAR SBQV 252200Z 13008KT 9999 SCT008 17/17 Q1021;
0120833440999992008062523004-14950-040883FM-15+0914SBQV V0201301N003112200019N0112651N1+01701+01701999999ADDGA1041+002101999GF104991999999999999999999MA1102201999999REMMET051METAR SBQV 252300Z 13006KT 9999 SCT007 17/17 Q1022;
0143833440999992008062611004-14950-040883FM-15+0914SBQV V0201401N004610018019N0070001N1+01701+01601999999ADDGA1041+001201999GA2071+001801999GF107991999999999999999999MA1102301999999REMMET058METAR SBQV 261100Z 14009KT 7000 SCT004 BKN006 17/16 Q1023;
0143833440999992008062612004-14950-040883FM-15+0914SBQV V0201401N006210021019N0112651N1+01701+01601999999ADDGA1041+001501999GA2071+002101999GF107991999999999999999999MA1102401999999REMMET058METAR SBQV 261200Z 14012KT 9999 SCT005 BKN007 17/16 Q1024;
0143833440999992008062613004-14950-040883FM-15+0914SBQV V0201401N006210027019N0112651N1+01801+01601999999ADDGA1041+001501999GA2071+002701999GF107991999999999999999999MA1102401999999REMMET058METAR SBQV 261300Z 14012KT 9999 SCT005 BKN009 18/16 Q1024;
0143833440999992008062614004-14950-040883FM-15+0914SBQV V0201401N007212200019N0112651N1+02001+01601999999ADDGA1041+003001999GA2041+004501999GF104991999999999999999999MA1102401999999REMMET058METAR SBQV 261400Z 14014KT 9999 SCT010 SCT015 20/16 Q1024;
0143833440999992008062615004-14950-040883FM-15+0914SBQV V0201201N007712200019N0112651N1+02201+01601999999ADDGA1021+003001999GA2041+004801999GF104991999999999999999999MA1102301999999REMMET058METAR SBQV 261500Z 12015KT 9999 FEW010 SCT016 22/16 Q1023;
0136833440999992008062616004-14950-040883FM-15+0914SBQV V0201401N00671220001CN0112651N1+02301+01501999999ADDGA1071+006001999GA2041+024001999MA1102201999999REMMET058METAR SBQV 261600Z 14013KT 9999 BKN020 SCT080 23/15 Q1022;EQDQ01+000042SCOTCV
0136833440999992008062617004-14950-040883FM-15+0914SBQV V0201501N00621220001CN0112651N1+02201+01501999999ADDGA1071+006001999GA2041+024001999MA1102101999999REMMET058METAR SBQV 261700Z 15012KT 9999 BKN020 SCT080 22/15 Q1021;EQDQ01+000042SCOTCV
0143833440999992008062618004-14950-040883FM-15+0914SBQV V0201601N006712200019N0112651N1+02201+01401999999ADDGA1041+006001999GA2041+024001999GF104991999999999999999999MA1102101999999REMMET058METAR SBQV 261800Z 16013KT 9999 SCT020 SCT080 22/14 Q1021;
0143833440999992008062619004-14950-040883FM-15+0914SBQV V0201501N006710240019N0112651N1+02101+01501999999ADDGA1041+005401999GA2071+024001999GF107991999999999999999999MA1102101999999REMMET058METAR SBQV 261900Z 15013KT 9999 SCT018 BKN080 21/15 Q1021;
0143833440999992008062620004-14950-040883FM-15+0914SBQV V0201501N005710210019N0112651N1+02001+01501999999ADDGA1041+004801999GA2071+021001999GF107991999999999999999999MA1102201999999REMMET058METAR SBQV 262000Z 15011KT 9999 SCT016 BKN070 20/15 Q1022;
0143833440999992008062621004-14950-040883FM-15+0914SBQV V0201501N006210210019N0112651N1+01901+01501999999ADDGA1021+004501999GA2071+021001999GF107991999999999999999999MA1102201999999REMMET058METAR SBQV 262100Z 15012KT 9999 FEW015 BKN070 19/15 Q1022;
0143833440999992008062622004-14950-040883FM-15+0914SBQV V0201601N006712200019N0112651N1+01701+01601999999ADDGA1041+002401999GA2041+021001999GF104991999999999999999999MA1102201999999REMMET058METAR SBQV 262200Z 16013KT 9999 SCT008 SCT070 17/16 Q1022;
0143833440999992008062623004-14950-040883FM-15+0914SBQV V0201501N006712200019N0112651N1+01701+01601999999ADDGA1041+001801999GA2041+021001999GF104991999999999999999999MA1102301999999REMMET058METAR SBQV 262300Z 15013KT 9999 SCT006 SCT070 17/16 Q1023;
0129833440999992008062711004-14950-040883FM-15+0914SBQV V0201301N005710018019N0009001N1+01601+01601999999ADDGA1081+001801999GF108991999999999999999999MA1102511999999MW1531REMMET054METAR SBQV 271100Z 13011KT 0900 DZ OVC006 16/16 Q1025;
0125833440999992008062712004-14950-040883FM-15+0914SBQV V0201301N007210018019N0112651N1+01601+01601999999ADDGA1071+001801999GF107991999999999999999999MA1102511999999REMMET056METAR SBQV 271200Z 13014KT 9999 BKN006 16/16 Q1025 REDZ;
0143833440999992008062713004-14950-040883FM-15+0914SBQV V0201301N006210024019N0112651N1+01701+01701999999ADDGA1071+002401999GA2071+003001999GF107991999999999999999999MA1102511999999REMMET058METAR SBQV 271300Z 13012KT 9999 BKN008 BKN010 17/17 Q1025;
0120833440999992008062714004-14950-040883FM-15+0914SBQV V0201201N007210033019N0112651N1+01901+01701999999ADDGA1071+003301999GF107991999999999999999999MA1102511999999REMMET051METAR SBQV 271400Z 12014KT 9999 BKN011 19/17 Q1025;
0120833440999992008062715004-14950-040883FM-15+0914SBQV V0201301N006210033019N0112651N1+01801+01601999999ADDGA1071+003301999GF107991999999999999999999MA1102401999999REMMET051METAR SBQV 271500Z 13012KT 9999 BKN011 18/16 Q1024;
0143833440999992008062716004-14950-040883FM-15+0914SBQV V0201201N006212200019N0112651N1+02001+01601999999ADDGA1041+003301999GA2041+004501999GF104991999999999999999999MA1102401999999REMMET058METAR SBQV 271600Z 12012KT 9999 SCT011 SCT015 20/16 Q1024;
0143833440999992008062717004-14950-040883FM-15+0914SBQV V0201401N005112200019N0112651N1+02001+01601999999ADDGA1021+001801999GA2041+003301999GF104991999999999999999999MA1102301999999REMMET058METAR SBQV 271700Z 14010KT 9999 FEW006 SCT011 20/16 Q1023;
0136833440999992008062718004-14950-040883FM-15+0914SBQV V0201301N00571220001CN0112651N1+02101+01601999999ADDGA1071+003301999GA2041+021001999MA1102301999999REMMET058METAR SBQV 271800Z 13011KT 9999 BKN011 SCT070 21/16 Q1023;EQDQ01+000042SCOTCV
0143833440999992008062719004-14950-040883FM-15+0914SBQV V0201401N005110210019N0112651N1+01901+01601999999ADDGA1041+004501999GA2071+021001999GF107991999999999999999999MA1102401999999REMMET058METAR SBQV 271900Z 14010KT 9999 SCT015 BKN070 19/16 Q1024;
0143833440999992008062720004-14950-040883FM-15+0914SBQV V0201301N004610210019N0112651N1+01801+01501999999ADDGA1021+004501999GA2071+021001999GF107991999999999999999999MA1102401999999REMMET058METAR SBQV 272000Z 13009KT 9999 FEW015 BKN070 18/15 Q1024;
0160833440999992008062721004-14950-040883FM-15+0914SBQV V0201301N005110210019N0112651N1+01701+01601999999ADDGA1041+001801999GA2071+021001999GF107991999999999999999999MA1102511999999MW1511REMMET069METAR SBQV 272100Z 13010KT 9999 3000SE -DZ SCT006 BKN070 17/16 Q1025;
0143833440999992008062722004-14950-040883FM-15+0914SBQV V0201301N006710018019N0060001N1+01601+01601999999ADDGA1071+001801999GA2071+021001999GF107991999999999999999999MA1102511999999REMMET058METAR SBQV 272200Z 13013KT 6000 BKN006 BKN070 16/16 Q1025;
0091833440999992008062722434-14950-040883FM-16+0914SBQV V0201201N007712200019N9999999N1+01601+01501999999ADDMA1102601999999REMMET064METAR SBQV 272243Z SPECI 12015KT 8000 BKN004 BKN070 16/15 Q1026;
0136833440999992008062723004-14950-040883FM-15+0914SBQV V0201201N00721220001CN0112651N1+01501+01501999999ADDGA1071+001201999GA2041+021001999MA1102611999999REMMET058METAR SBQV 272300Z 12014KT 9999 BKN004 SCT070 15/15 Q1026;EQDQ01+000042SCOTCV
0153833440999992008062811004-14950-040883FM-15+0914SBQV V0201301N005710021019N0090001N1+01701+01601999999ADDGA1021+001501999GA2081+002101999GF108991999999999999999999MA1102611999999MW1511REMMET062METAR SBQV 281100Z 13011KT 9000 -DZ FEW005 OVC007 17/16 Q1026;
0143833440999992008062812004-14950-040883FM-15+0914SBQV V0201201N006210024019N0112651N1+01801+01601999999ADDGA1021+001501999GA2071+002401999GF107991999999999999999999MA1102611999999REMMET058METAR SBQV 281200Z 12012KT 9999 FEW005 BKN008 18/16 Q1026;
0143833440999992008062813004-14950-040883FM-15+0914SBQV V0201201N005710027019N0112651N1+01901+01601999999ADDGA1071+002701999GA2071+021001999GF107991999999999999999999MA1102711999999REMMET058METAR SBQV 281300Z 12011KT 9999 BKN009 BKN070 19/16 Q1027;
0120833440999992008062814004-14950-040883FM-15+0914SBQV V0201301N006710030019N0112651N1+02001+01601999999ADDGA1071+003001999GF107991999999999999999999MA1102611999999REMMET051METAR SBQV 281400Z 13013KT 9999 BKN010 20/16 Q1026;
0120833440999992008062815004-14950-040883FM-15+0914SBQV V0201401N006712200019N0112651N1+02001+01701999999ADDGA1041+003901999GF104991999999999999999999MA1102511999999REMMET051METAR SBQV 281500Z 14013KT 9999 SCT013 20/17 Q1025;
0120833440999992008062816004-14950-040883FM-15+0914SBQV V0201501N004612200019N0112651N1+02101+01701999999ADDGA1041+004501999GF104991999999999999999999MA1102401999999REMMET051METAR SBQV 281600Z 15009KT 9999 SCT015 21/17 Q1024;
0120833440999992008062817004-14950-040883FM-15+0914SBQV V0201401N004610045019N0112651N1+02101+01601999999ADDGA1071+004501999GF107991999999999999999999MA1102401999999REMMET051METAR SBQV 281700Z 14009KT 9999 BKN015 21/16 Q1024;
0143833440999992008062818004-14950-040883FM-15+0914SBQV V0201301N005110045019N0112651N1+02101+01601999999ADDGA1021+003601999GA2071+004501999GF107991999999999999999999MA1102401999999REMMET058METAR SBQV 281800Z 13010KT 9999 FEW012 BKN015 21/16 Q1024;
0088833440999992008062820394-14950-040883FM-16+0914SBQV V02099999999992200019N9999999N1+01701+01701999999ADDMA1102401999999REMMET061METAR SBQV 282039Z 12012Z 4000 -RA SCT006 BKN010 17/17 Q1024;
0120833440999992008062821364-14950-040883FM-15+0914SBQV V0201201N005710015019N0112651N1+01601+01601999999ADDGA1071+001501999GF107991999999999999999999MA1102511999999REMMET051METAR SBQV 282136Z 12011KT 9999 BKN005 16/16 Q1025;
0120833440999992008062822004-14950-040883FM-15+0914SBQV V0201201N005110012019N0112651N1+01601+01601999999ADDGA1071+001201999GF107991999999999999999999MA1102511999999REMMET051METAR SBQV 282200Z 12010KT 9999 BKN004 16/16 Q1025;
0120833440999992008062903004-14950-040883FM-15+0914SBQV V0201201N004610015019N0112651N1+01501+01501999999ADDGA1071+001501999GF107991999999999999999999MA1102611999999REMMET051METAR SBQV 290300Z 12009KT 9999 BKN005 15/15 Q1026;
0129833440999992008062904004-14950-040883FM-15+0914SBQV V0201301N004110015019N0030001N1+01501+01501999999ADDGA1071+001501999GF107991999999999999999999MA1102511999999MW1101REMMET054METAR SBQV 290400Z 13008KT 3000 BR BKN005 15/15 Q1025;
0120833440999992008062911004-14950-040883FM-15+0914SBQV V0201301N006210033019N0112651N1+01601+01501999999ADDGA1071+003301999GF107991999999999999999999MA1102511999999REMMET051METAR SBQV 291100Z 13012KT 9999 BKN011 16/15 Q1025;
0120833440999992008062912004-14950-040883FM-15+0914SBQV V0201401N006210039019N0112651N1+01901+01601999999ADDGA1071+003901999GF107991999999999999999999MA1102611999999REMMET051METAR SBQV 291200Z 14012KT 9999 BKN013 19/16 Q1026;
0120833440999992008062913004-14950-040883FM-15+0914SBQV V0201501N006710045019N0112651N1+02001+01501999999ADDGA1071+004501999GF107991999999999999999999MA1102611999999REMMET051METAR SBQV 291300Z 15013KT 9999 BKN015 20/15 Q1026;
0143833440999992008062914004-14950-040883FM-15+0914SBQV V0201501N006712200019N0112651N1+02101+01401999999ADDGA1041+004801999GA2041+024001999GF104991999999999999999999MA1102611999999REMMET058METAR SBQV 291400Z 15013KT 9999 SCT016 SCT080 21/14 Q1026;
0120833440999992008062915004-14950-040883FM-15+0914SBQV V0201401N006712200019N0112651N1+02201+01301999999ADDGA1041+005401999GF104991999999999999999999MA1102511999999REMMET051METAR SBQV 291500Z 14013KT 9999 SCT018 22/13 Q1025;
0120833440999992008062916004-14950-040883FM-15+0914SBQV V0201401N005112200019N0112651N1+02301+01401999999ADDGA1021+006001999GF102991999999999999999999MA1102401999999REMMET051METAR SBQV 291600Z 14010KT 9999 FEW020 23/14 Q1024;
0120833440999992008062917004-14950-040883FM-15+0914SBQV V0201401N005112200019N0112651N1+02301+01301999999ADDGA1021+006001999GF102991999999999999999999MA1102301999999REMMET051METAR SBQV 291700Z 14010KT 9999 FEW020 23/13 Q1023;
0143833440999992008062918004-14950-040883FM-15+0914SBQV V0201201N004612200019N0112651N1+02301+01401999999ADDGA1021+006001999GA2041+021001999GF104991999999999999999999MA1102201999999REMMET058METAR SBQV 291800Z 12009KT 9999 FEW020 SCT070 23/14 Q1022;
0143833440999992008062919004-14950-040883FM-15+0914SBQV V0201201N005112200019N0112651N1+02201+01401999999ADDGA1021+004501999GA2041+021001999GF104991999999999999999999MA1102201999999REMMET058METAR SBQV 291900Z 12010KT 9999 FEW015 SCT070 22/14 Q1022;
0143833440999992008062920004-14950-040883FM-15+0914SBQV V0201101N006210210019N0112651N1+02001+01301999999ADDGA1021+003901999GA2071+021001999GF107991999999999999999999MA1102301999999REMMET058METAR SBQV 292000Z 11012KT 9999 FEW013 BKN070 20/13 Q1023;
0143833440999992008062921004-14950-040883FM-15+0914SBQV V0201101N005110210019N0112651N1+01901+01301999999ADDGA1021+003601999GA2071+021001999GF107991999999999999999999MA1102301999999REMMET058METAR SBQV 292100Z 11010KT 9999 FEW012 BKN070 19/13 Q1023;
0072833440999992008062922004-14950-040883FM-15+0914SBQV V0201101N00571220001CN0099001N1+01801+01501999999ADDMA1102401999999REMMET045METAR SBQV 292200Z 11011KT CAVOK 18/15 Q1024;
0120833440999992008063011004-14950-040883FM-15+0914SBQV V0201201N006210033019N0112651N1+01701+01501999999ADDGA1071+003301999GF107991999999999999999999MA1102401999999REMMET051METAR SBQV 301100Z 12012KT 9999 BKN011 17/15 Q1024;
0143833440999992008063012004-14950-040883FM-15+0914SBQV V0201401N004112200019N0112651N1+01901+01601999999ADDGA1021+004501999GA2041+024001999GF104991999999999999999999MA1102511999999REMMET058METAR SBQV 301200Z 14008KT 9999 FEW015 SCT080 19/16 Q1025;
0143833440999992008063013004-14950-040883FM-15+0914SBQV V0201101N004110240019N0112651N1+02101+01501999999ADDGA1021+004801999GA2071+024001999GF107991999999999999999999MA1102511999999REMMET058METAR SBQV 301300Z 11008KT 9999 FEW016 BKN080 21/15 Q1025;
0143833440999992008063014004-14950-040883FM-15+0914SBQV V0201301N004112200019N0112651N1+02201+01601999999ADDGA1021+005401999GA2041+024001999GF104991999999999999999999MA1102401999999REMMET058METAR SBQV 301400Z 13008KT 9999 FEW018 SCT080 22/16 Q1024;
0143833440999992008063015004-14950-040883FM-15+0914SBQV V0201201N003612200019N0112651N1+02201+01601999999ADDGA1041+005401999GA2041+024001999GF104991999999999999999999MA1102301999999REMMET058METAR SBQV 301500Z 12007KT 9999 SCT018 SCT080 22/16 Q1023;
0143833440999992008063016004-14950-040883FM-15+0914SBQV V0201601N004112200019N0112651N1+02201+01701999999ADDGA1041+005401999GA2041+024001999GF104991999999999999999999MA1102201999999REMMET058METAR SBQV 301600Z 16008KT 9999 SCT018 SCT080 22/17 Q1022;
0143833440999992008063017004-14950-040883FM-15+0914SBQV V0201601N004612200019N0112651N1+02001+01801999999ADDGA1041+003901999GA2041+021001999GF104991999999999999999999MA1102201999999REMMET058METAR SBQV 301700Z 16009KT 9999 SCT013 SCT070 20/18 Q1022;
0166833440999992008063018004-14950-040883FM-15+0914SBQV V0201501N004110030019N0112651N1+02001+01801999999ADDGA1021+001801999GA2071+003001999GA3071+021001999GF107991999999999999999999MA1102101999999REMMET065METAR SBQV 301800Z 15008KT 9999 FEW006 BKN010 BKN070 20/18 Q1021;
0153833440999992008063019004-14950-040883FM-15+0914SBQV V0201401N003610018019N0020001N1+01901+01901999999ADDGA1071+001801999GA2081+021001999GF108991999999999999999999MA1102201999999MW1511REMMET062METAR SBQV 301900Z 14007KT 2000 -DZ BKN006 OVC070 19/19 Q1022;
0143833440999992008063020004-14950-040883FM-15+0914SBQV V0201101N003610018019N0112651N1+01801+01801999999ADDGA1071+001801999GA2071+021001999GF107991999999999999999999MA1102201999999REMMET058METAR SBQV 302000Z 11007KT 9999 BKN006 BKN070 18/18 Q1022;
0153833440999992008063021004-14950-040883FM-15+0914SBQV V0201301N003110015019N0050001N1+01801+01801999999ADDGA1071+001501999GA2071+021001999GF107991999999999999999999MA1102201999999MW1511REMMET062METAR SBQV 302100Z 13006KT 5000 -DZ BKN005 BKN070 18/18 Q1022;
0152833440999992008063022004-14950-040883FM-15+0914SBQV V0201301N003610012019N0020001N1+01801+01801999999ADDGA1071+001201999GA2081+021001999GF108991999999999999999999MA1102301999999MW1101REMMET061METAR SBQV 302200Z 13007KT 2000 BR BKN004 OVC070 18/18 Q1023;
0152833440999992008063023004-14950-040883FM-15+0914SBQV V0201201N004110015019N0040001N1+01801+01801999999ADDGA1071+001501999GA2081+021001999GF108991999999999999999999MA1102301999999MW1101REMMET061METAR SBQV 302300Z 12008KT 4000 BR BKN005 OVC070 18/18 Q1023;
0143833440999992008063023424-14950-040883FM-15+0914SBQV V0201001N003110018019N0112651N1+01801+01801999999ADDGA1071+001801999GA2071+021001999GF107991999999999999999999MA1102401999999REMMET058METAR SBQV 302342Z 10006KT 9999 BKN006 BKN070 18/18 Q1024;
0160833440999992008070100004-14950-040883FM-15+0914SBQV V0201001N003110018019N0112651N1+01701+01701999999ADDGA1071+001801999GA2071+021001999GF107991999999999999999999MA1102401999999MW1511REMMET069METAR SBQV 010000Z 10006KT 9999 3000SE -DZ BKN006 BKN070 17/17 Q1024;
0120833440999992008070111004-14950-040883FM-15+0914SBQV V0201101N004110027019N0112651N1+01801+01701999999ADDGA1071+002701999GF107991999999999999999999MA1102401999999REMMET051METAR SBQV 011100Z 11008KT 9999 BKN009 18/17 Q1024;
0120833440999992008070112004-14950-040883FM-15+0914SBQV V0201101N005110033019N0112651N1+01901+01701999999ADDGA1071+003301999GF107991999999999999999999MA1102511999999REMMET051METAR SBQV 011200Z 11010KT 9999 BKN011 19/17 Q1025;
0120833440999992008070113004-14950-040883FM-15+0914SBQV V0201201N004610036019N0112651N1+02101+01701999999ADDGA1071+003601999GF107991999999999999999999MA1102511999999REMMET051METAR SBQV 011300Z 12009KT 9999 BKN012 21/17 Q1025;
0120833440999992008070114004-14950-040883FM-15+0914SBQV V0201001N004110039019N0112651N1+02201+01801999999ADDGA1071+003901999GF107991999999999999999999MA1102511999999REMMET051METAR SBQV 011400Z 10008KT 9999 BKN013 22/18 Q1025;
0120833440999992008070115004-14950-040883FM-15+0914SBQV V0201401N004610045019N0112651N1+02301+01601999999ADDGA1071+004501999GF107991999999999999999999MA1102401999999REMMET051METAR SBQV 011500Z 14009KT 9999 BKN015 23/16 Q1024;
0120833440999992008070116004-14950-040883FM-15+0914SBQV V0201301N004612200019N0112651N1+02501+01701999999ADDGA1041+006001999GF104991999999999999999999MA1102301999999REMMET051METAR SBQV 011600Z 13009KT 9999 SCT020 25/17 Q1023;
0120833440999992008070117004-14950-040883FM-15+0914SBQV V0201301N006212200019N0112651N1+02401+01801999999ADDGA1041+006001999GF104991999999999999999999MA1102301999999REMMET051METAR SBQV 011700Z 13012KT 9999 SCT020 24/18 Q1023;
0120833440999992008070118004-14950-040883FM-15+0914SBQV V0201101N005712200019N0112651N1+02401+01701999999ADDGA1041+006001999GF104991999999999999999999MA1102201999999REMMET051METAR SBQV 011800Z 11011KT 9999 SCT020 24/17 Q1022;
0143833440999992008070119004-14950-040883FM-15+0914SBQV V0201201N005710900019N0112651N1+02301+01701999999ADDGA1041+006001999GA2071+090001999GF107991999999999999999999MA1102201999999REMMET058METAR SBQV 011900Z 12011KT 9999 SCT020 BKN300 23/17 Q1022;
0143833440999992008070120004-14950-040883FM-15+0914SBQV V0201201N006710900019N0112651N1+02001+01701999999ADDGA1021+005401999GA2071+090001999GF107991999999999999999999MA1102301999999REMMET058METAR SBQV 012000Z 12013KT 9999 FEW018 BKN300 20/17 Q1023;
0143833440999992008070121004-14950-040883FM-15+0914SBQV V0201001N004610210019N0112651N1+01901+01701999999ADDGA1041+002701999GA2071+021001999GF107991999999999999999999MA1102301999999REMMET058METAR SBQV 012100Z 10009KT 9999 SCT009 BKN070 19/17 Q1023;
0143833440999992008070122004-14950-040883FM-15+0914SBQV V0201101N004610210019N0112651N1+01801+01701999999ADDGA1041+002701999GA2071+021001999GF107991999999999999999999MA1102401999999REMMET058METAR SBQV 012200Z 11009KT 9999 SCT009 BKN070 18/17 Q1024;
0143833440999992008070123004-14950-040883FM-15+0914SBQV V0201001N004112200019N0112651N1+01801+01701999999ADDGA1021+002701999GA2041+021001999GF104991999999999999999999MA1102401999999REMMET058METAR SBQV 012300Z 10008KT 9999 FEW009 SCT070 18/17 Q1024;
0143833440999992008070211004-14950-040883FM-15+0914SBQV V0201001N005112200019N0112651N1+01801+01501999999ADDGA1041+002701999GA2041+090001999GF104991999999999999999999MA1102511999999REMMET058METAR SBQV 021100Z 10010KT 9999 SCT009 SCT300 18/15 Q1025;
0143833440999992008070212004-14950-040883FM-15+0914SBQV V0201001N005710900019N0112651N1+02001+01501999999ADDGA1041+004501999GA2071+090001999GF107991999999999999999999MA1102611999999REMMET058METAR SBQV 021200Z 10011KT 9999 SCT015 BKN300 20/15 Q1026;
0166833440999992008070213004-14950-040883FM-15+0914SBQV V0201001N00621006001CN0112651N1+02001+01501999999ADDGA1021+004501999GA2041+006001999GA3071+090001999GF107991999999999999999999MA1102611999999REMMET065METAR SBQV 021300Z 10012KT 9999 FEW015 SCT020 BKN300 20/15 Q1026;
0136833440999992008070214004-14950-040883FM-15+0914SBQV V0201101N00621220001CN0112651N1+02201+01501999999ADDGA1071+006001999GA2041+090001999MA1102511999999REMMET058METAR SBQV 021400Z 11012KT 9999 BKN020 SCT300 22/15 Q1025;EQDQ01+000042SCOTCV
0120833440999992008070215004-14950-040883FM-15+0914SBQV V0201001N005710060019N0112651N1+02201+01501999999ADDGA1071+006001999GF107991999999999999999999MA1102511999999REMMET051METAR SBQV 021500Z 10011KT 9999 BKN020 22/15 Q1025;
0120833440999992008070216004-14950-040883FM-15+0914SBQV V0201001N005110060019N0112651N1+02301+01601999999ADDGA1071+006001999GF107991999999999999999999MA1102401999999REMMET051METAR SBQV 021600Z 10010KT 9999 BKN020 23/16 Q1024;
0120833440999992008070217004-14950-040883FM-15+0914SBQV V0201001N005110060019N0112651N1+02201+01501999999ADDGA1071+006001999GF107991999999999999999999MA1102301999999REMMET051METAR SBQV 021700Z 10010KT 9999 BKN020 22/15 Q1023;
0120833440999992008070218004-14950-040883FM-15+0914SBQV V0201001N005712200019N0112651N1+02201+01501999999ADDGA1041+006001999GF104991999999999999999999MA1102301999999REMMET051METAR SBQV 021800Z 10011KT 9999 SCT020 22/15 Q1023;
0120833440999992008070219004-14950-040883FM-15+0914SBQV V0201201N005712200019N0112651N1+02201+01301999999ADDGA1021+006001999GF102991999999999999999999MA1102301999999REMMET051METAR SBQV 021900Z 12011KT 9999 FEW020 22/13 Q1023;
0120833440999992008070220004-14950-040883FM-15+0914SBQV V0201101N004612200019N0112651N1+02101+01401999999ADDGA1021+005401999GF102991999999999999999999MA1102301999999REMMET051METAR SBQV 022000Z 11009KT 9999 FEW018 21/14 Q1023;
0120833440999992008070221004-14950-040883FM-15+0914SBQV V0201301N004112200019N0112651N1+01901+01601999999ADDGA1021+004801999GF102991999999999999999999MA1102301999999REMMET051METAR SBQV 022100Z 13008KT 9999 FEW016 19/16 Q1023;
0120833440999992008070222004-14950-040883FM-15+0914SBQV V0201201N002612200019N0112651N1+01701+01501999999ADDGA1021+004501999GF102991999999999999999999MA1102301999999REMMET051METAR SBQV 022200Z 12005KT 9999 FEW015 17/15 Q1023;
0091833440999992008070310154-14950-040883FM-16+0914SBQV V0201301N003612200019N9999999N1+01601+01601999999ADDMA1102301999999REMMET064METAR SBQV 031015Z SPECI 13007KT 9000 SCT005 BKN006 16/16 Q1023;
0160833440999992008070311004-14950-040883FM-15+0914SBQV V0201101N004110018019N0080001N1+01701+01701999999ADDGA1021+001501999GA2081+001801999GF108991999999999999999999MA1102401999999MW1511REMMET069METAR SBQV 031100Z 11008KT 8000 3000SE -DZ FEW005 OVC006 17/17 Q1024;
0153833440999992008070312004-14950-040883FM-15+0914SBQV V0201201N00511220001CN0112651N1+01801+01701999999ADDGA1071+002101999GA2041+021001999MA1102401999999MW1611REMMET069METAR SBQV 031200Z 12010KT 9999 7000SE -RA BKN007 SCT070 18/17 Q1024;EQDQ01+000042SCOTCV
0120833440999992008070313004-14950-040883FM-15+0914SBQV V0201101N004610024019N0112651N1+01901+01801999999ADDGA1071+002401999GF107991999999999999999999MA1102401999999REMMET051METAR SBQV 031300Z 11009KT 9999 BKN008 19/18 Q1024;
0120833440999992008070314004-14950-040883FM-15+0914SBQV V0201101N005110030019N0112651N1+02001+01701999999ADDGA1071+003001999GF107991999999999999999999MA1102401999999REMMET051METAR SBQV 031400Z 11010KT 9999 BKN010 20/17 Q1024;
0120833440999992008070315004-14950-040883FM-15+0914SBQV V0201101N005110045019N0112651N1+02201+01601999999ADDGA1071+004501999GF107991999999999999999999MA1102301999999REMMET051METAR SBQV 031500Z 11010KT 9999 BKN015 22/16 Q1023;
0136833440999992008070316004-14950-040883FM-15+0914SBQV V0201401N00511220001CN0112651N1+02201+01601999999ADDGA1071+004501999GA2041+090001999MA1102201999999REMMET058METAR SBQV 031600Z 14010KT 9999 BKN015 SCT300 22/16 Q1022;EQDQ01+000042SCOTCV
0143833440999992008070317004-14950-040883FM-15+0914SBQV V0201301N003612200019N0112651N1+02301+01501999999ADDGA1041+004801999GA2041+090001999GF104991999999999999999999MA1102101999999REMMET058METAR SBQV 031700Z 13007KT 9999 SCT016 SCT300 23/15 Q1021;
0143833440999992008070318004-14950-040883FM-15+0914SBQV V0201601N006212200019N0112651N1+02201+01701999999ADDGA1041+005401999GA2041+090001999GF104991999999999999999999MA1102101999999REMMET058METAR SBQV 031800Z 16012KT 9999 SCT018 SCT300 22/17 Q1021;
0120833440999992008070319004-14950-040883FM-15+0914SBQV V0201601N005712200019N0112651N1+02201+01701999999ADDGA1041+005401999GF104991999999999999999999MA1102101999999REMMET051METAR SBQV 031900Z 16011KT 9999 SCT018 22/17 Q1021;
0104833440999992008070320004-14950-040883FM-15+0914SBQV V0201401N005712200019N0112651N1+02001+01701999999ADDGA1041+004801999GF104991999999999999999999REMMET050METAR SBQV 032000Z 14011KT 9999 SCT016 20/17 Q102;
0120833440999992008070321004-14950-040883FM-15+0914SBQV V0201301N004112200019N0112651N1+01801+01601999999ADDGA1041+003901999GF104991999999999999999999MA1102201999999REMMET051METAR SBQV 032100Z 13008KT 9999 SCT013 18/16 Q1022;
0120833440999992008070322004-14950-040883FM-15+0914SBQV V0201301N003612200019N0112651N1+01801+01701999999ADDGA1041+003001999GF104991999999999999999999MA1102201999999REMMET051METAR SBQV 032200Z 13007KT 9999 SCT010 18/17 Q1022;
0120833440999992008070323004-14950-040883FM-15+0914SBQV V0201401N005112200019N0112651N1+01701+01601999999ADDGA1041+002101999GF104991999999999999999999MA1102201999999REMMET051METAR SBQV 032300Z 14010KT 9999 SCT007 17/16 Q1022;
0072833440999992008070411004-14950-040883FM-15+0914SBQV V0209999C00001220001CN0099001N1+01701+01601999999ADDMA1102201999999REMMET045METAR SBQV 041100Z 00000KT CAVOK 17/16 Q1022;
0072833440999992008070412004-14950-040883FM-15+0914SBQV V0200701N00261220001CN0099001N1+02001+01501999999ADDMA1102201999999REMMET045METAR SBQV 041200Z 07005KT CAVOK 20/15 Q1022;
0143833440999992008070413004-14950-040883FM-15+0914SBQV V0200801N002610900019N0112651N1+02301+01501999999ADDGA1021+004501999GA2071+090001999GF107991999999999999999999MA1102201999999REMMET058METAR SBQV 041300Z 08005KT 9999 FEW015 BKN300 23/15 Q1022;
0143833440999992008070414004-14950-040883FM-15+0914SBQV V0201001N002110900019N0112651N1+02301+01401999999ADDGA1041+004801999GA2071+090001999GF107991999999999999999999MA1102201999999REMMET058METAR SBQV 041400Z 10004KT 9999 SCT016 BKN300 23/14 Q1022;
0120833440999992008070415004-14950-040883FM-15+0914SBQV V0201101N001512200019N0112651N1+02301+01401999999ADDGA1041+005401999GF104991999999999999999999MA1102101999999REMMET051METAR SBQV 041500Z 11003KT 9999 SCT018 23/14 Q1021;
0120833440999992008070416004-14950-040883FM-15+0914SBQV V0201201N003612200019N0112651N1+02501+01501999999ADDGA1041+006001999GF104991999999999999999999MA1102001999999REMMET051METAR SBQV 041600Z 12007KT 9999 SCT020 25/15 Q1020;
0120833440999992008070417004-14950-040883FM-15+0914SBQV V0201201N004110054019N0112651N1+02401+01501999999ADDGA1071+005401999GF107991999999999999999999MA1101901999999REMMET051METAR SBQV 041700Z 12008KT 9999 BKN018 24/15 Q1019;
0143833440999992008070418004-14950-040883FM-15+0914SBQV V0201401N003612200019N0112651N1+02301+01501999999ADDGA1041+005401999GA2041+090001999GF104991999999999999999999MA1101901999999REMMET058METAR SBQV 041800Z 14007KT 9999 SCT018 SCT300 23/15 Q1019;
0143833440999992008070419004-14950-040883FM-15+0914SBQV V0201001N004112200019N0112651N1+02401+01601999999ADDGA1021+006001999GA2041+030001999GF104991999999999999999999MA1101901999999REMMET058METAR SBQV 041900Z 10008KT 9999 FEW020 SCT100 24/16 Q1019;
0143833440999992008070420004-14950-040883FM-15+0914SBQV V0200901N004112200019N0112651N1+02201+01601999999ADDGA1041+006001999GA2041+090001999GF104991999999999999999999MA1102001999999REMMET058METAR SBQV 042000Z 09008KT 9999 SCT020 SCT300 22/16 Q1020;
0143833440999992008070421004-14950-040883FM-15+0914SBQV V0200901N003612200019N0112651N1+02001+01601999999ADDGA1021+005401999GA2041+090001999GF104991999999999999999999MA1102001999999REMMET058METAR SBQV 042100Z 09007KT 9999 FEW018 SCT300 20/16 Q1020;
0143833440999992008070422004-14950-040883FM-15+0914SBQV V0201001N003112200019N0112651N1+02001+01701999999ADDGA1021+004801999GA2041+024001999GF104991999999999999999999MA1102001999999REMMET058METAR SBQV 042200Z 10006KT 9999 FEW016 SCT080 20/17 Q1020;
0072833440999992008070423004-14950-040883FM-15+0914SBQV V0200801N00311220001CN0099001N1+01901+01701999999ADDMA1102101999999REMMET045METAR SBQV 042300Z 08006KT CAVOK 19/17 Q1021;
0143833440999992008070511004-14950-040883FM-15+0914SBQV V0201101N004110021019N0112651N1+01601+01601999999ADDGA1021+001501999GA2071+002101999GF107991999999999999999999MA1102301999999REMMET058METAR SBQV 051100Z 11008KT 9999 FEW005 BKN007 16/16 Q1023;
0120833440999992008070512004-14950-040883FM-15+0914SBQV V0201101N003610024019N0112651N1+01801+01701999999ADDGA1071+002401999GF107991999999999999999999MA1102401999999REMMET051METAR SBQV 051200Z 11007KT 9999 BKN008 18/17 Q1024;
0143833440999992008070513004-14950-040883FM-15+0914SBQV V0201001N004112200019N0112651N1+02101+01601999999ADDGA1021+004501999GA2041+090001999GF104991999999999999999999MA1102401999999REMMET058METAR SBQV 051300Z 10008KT 9999 FEW015 SCT300 21/16 Q1024;
0143833440999992008070514004-14950-040883FM-15+0914SBQV V0201101N005110900019N0112651N1+02201+01501999999ADDGA1041+006001999GA2071+090001999GF107991999999999999999999MA1102401999999REMMET058METAR SBQV 051400Z 11010KT 9999 SCT020 BKN300 22/15 Q1024;
0143833440999992008070515004-14950-040883FM-15+0914SBQV V0201101N005110900019N0112651N1+02301+01501999999ADDGA1041+006001999GA2071+090001999GF107991999999999999999999MA1102301999999REMMET058METAR SBQV 051500Z 11010KT 9999 SCT020 BKN300 23/15 Q1023;
0143833440999992008070516004-14950-040883FM-15+0914SBQV V0201001N005110900019N0112651N1+02301+01501999999ADDGA1041+006001999GA2071+090001999GF107991999999999999999999MA1102301999999REMMET058METAR SBQV 051600Z 10010KT 9999 SCT020 BKN300 23/15 Q1023;
0143833440999992008070517004-14950-040883FM-15+0914SBQV V0201201N005712200019N0112651N1+02301+01401999999ADDGA1041+006001999GA2041+090001999GF104991999999999999999999MA1102201999999REMMET058METAR SBQV 051700Z 12011KT 9999 SCT020 SCT300 23/14 Q1022;
0143833440999992008070518004-14950-040883FM-15+0914SBQV V0201401N006212200019N0112651N1+02301+01301999999ADDGA1041+006001999GA2041+090001999GF104991999999999999999999MA1102201999999REMMET058METAR SBQV 051800Z 14012KT 9999 SCT020 SCT300 23/13 Q1022;
0143833440999992008070519004-14950-040883FM-15+0914SBQV V0201401N006212200019N0112651N1+02201+01401999999ADDGA1021+006001999GA2041+090001999GF104991999999999999999999MA1102101999999REMMET058METAR SBQV 051900Z 14012KT 9999 FEW020 SCT300 22/14 Q1021;
0143833440999992008070520004-14950-040883FM-15+0914SBQV V0201401N005112200019N0112651N1+02101+01501999999ADDGA1021+005401999GA2041+090001999GF104991999999999999999999MA1102201999999REMMET058METAR SBQV 052000Z 14010KT 9999 FEW018 SCT300 21/15 Q1022;
0143833440999992008070521004-14950-040883FM-15+0914SBQV V0201301N004112200019N0112651N1+01901+01601999999ADDGA1021+004801999GA2041+090001999GF104991999999999999999999MA1102201999999REMMET058METAR SBQV 052100Z 13008KT 9999 FEW016 SCT300 19/16 Q1022;
0072833440999992008070522004-14950-040883FM-15+0914SBQV V0201301N00511220001CN0099001N1+01801+01601999999ADDMA1102301999999REMMET045METAR SBQV 052200Z 13010KT CAVOK 18/16 Q1023;
0120833440999992008070611004-14950-040883FM-15+0914SBQV V0201401N005712200019N0112651N1+01701+01501999999ADDGA1041+003601999GF104991999999999999999999MA1102511999999REMMET051METAR SBQV 061100Z 14011KT 9999 SCT012 17/15 Q1025;
0120833440999992008070612004-14950-040883FM-15+0914SBQV V0201401N007210045019N0112651N1+01801+01401999999ADDGA1071+004501999GF107991999999999999999999MA1102611999999REMMET051METAR SBQV 061200Z 14014KT 9999 BKN015 18/14 Q1026;
0120833440999992008070613004-14950-040883FM-15+0914SBQV V0201501N006712200019N0112651N1+01901+01401999999ADDGA1041+004801999GF104991999999999999999999MA1102611999999REMMET051METAR SBQV 061300Z 15013KT 9999 SCT016 19/14 Q1026;
0120833440999992008070614004-14950-040883FM-15+0914SBQV V0201501N006712200019N0112651N1+02101+01401999999ADDGA1041+005401999GF104991999999999999999999MA1102511999999REMMET051METAR SBQV 061400Z 15013KT 9999 SCT018 21/14 Q1025;
0120833440999992008070615004-14950-040883FM-15+0914SBQV V0201501N006712200019N0112651N1+02201+01301999999ADDGA1041+006001999GF104991999999999999999999MA1102511999999REMMET051METAR SBQV 061500Z 15013KT 9999 SCT020 22/13 Q1025;
0120833440999992008070616004-14950-040883FM-15+0914SBQV V0201301N006712200019N0112651N1+02201+01401999999ADDGA1041+007501999GF104991999999999999999999MA1102401999999REMMET051METAR SBQV 061600Z 13013KT 9999 SCT025 22/14 Q1024;
0120833440999992008070617004-14950-040883FM-15+0914SBQV V0201301N005710075019N0112651N1+02201+01401999999ADDGA1071+007501999GF107991999999999999999999MA1102301999999REMMET051METAR SBQV 061700Z 13011KT 9999 BKN025 22/14 Q1023;
0120833440999992008070618004-14950-040883FM-15+0914SBQV V0201101N005110075019N0112651N1+02101+01401999999ADDGA1071+007501999GF107991999999999999999999MA1102301999999REMMET051METAR SBQV 061800Z 11010KT 9999 BKN025 21/14 Q1023;
0117833440999992008070619004-14950-040883FM-15+0914SBQV V0201201N00571220001CN0112651N1+02101+01401999999ADDGA1071+007501999GA2041+030001999MA1102301999999REMMET058METAR SBQV 061900Z 12011KT 9999 BKN025 SCT100 21/14 Q1023;
0143833440999992008070620004-14950-040883FM-15+0914SBQV V0201201N006210270019N0112651N1+01901+01401999999ADDGA1041+006001999GA2071+027001999GF107991999999999999999999MA1102301999999REMMET058METAR SBQV 062000Z 12012KT 9999 SCT020 BKN090 19/14 Q1023;
0143833440999992008070621004-14950-040883FM-15+0914SBQV V0201201N005110270019N0112651N1+01901+01501999999ADDGA1021+006001999GA2071+027001999GF107991999999999999999999MA1102401999999REMMET058METAR SBQV 062100Z 12010KT 9999 FEW020 BKN090 19/15 Q1024;
0072833440999992008070622004-14950-040883FM-15+0914SBQV V0201201N00511220001CN0099001N1+01901+01401999999ADDMA1102401999999REMMET045METAR SBQV 062200Z 12010KT CAVOK 19/14 Q1024;
0143833440999992008070711004-14950-040883FM-15+0914SBQV V0201301N004610024019N0112651N1+01501+01401999999ADDGA1041+001801999GA2071+002401999GF107991999999999999999999MA1102511999999REMMET058METAR SBQV 071100Z 13009KT 9999 SCT006 BKN008 15/14 Q1025;
0120833440999992008070712004-14950-040883FM-15+0914SBQV V0201201N006712200019N0112651N1+01801+01401999999ADDGA1041+003901999GF104991999999999999999999MA1102611999999REMMET051METAR SBQV 071200Z 12013KT 9999 SCT013 18/14 Q1026;
0120833440999992008070713004-14950-040883FM-15+0914SBQV V0201401N006710048019N0112651N1+01801+01301999999ADDGA1071+004801999GF107991999999999999999999MA1102611999999REMMET051METAR SBQV 071300Z 14013KT 9999 BKN016 18/13 Q1026;
0120833440999992008070714004-14950-040883FM-15+0914SBQV V0201301N006710048019N0112651N1+01801+01301999999ADDGA1071+004801999GF107991999999999999999999MA1102611999999REMMET051METAR SBQV 071400Z 13013KT 9999 BKN016 18/13 Q1026;
0120833440999992008070715004-14950-040883FM-15+0914SBQV V0201301N006210060019N0112651N1+01901+01301999999ADDGA1071+006001999GF107991999999999999999999MA1102511999999REMMET051METAR SBQV 071500Z 13012KT 9999 BKN020 19/13 Q1025;
0120833440999992008070716004-14950-040883FM-15+0914SBQV V0201301N004610060019N0112651N1+01901+01401999999ADDGA1071+006001999GF107991999999999999999999MA1102511999999REMMET051METAR SBQV 071600Z 13009KT 9999 BKN020 19/14 Q1025;
0120833440999992008070717004-14950-040883FM-15+0914SBQV V0201301N003610060019N0112651N1+01901+01301999999ADDGA1071+006001999GF107991999999999999999999MA1102401999999REMMET051METAR SBQV 071700Z 13007KT 9999 BKN020 19/13 Q1024;
0120833440999992008070718004-14950-040883FM-15+0914SBQV V0201401N003610060019N0112651N1+01901+01301999999ADDGA1071+006001999GF107991999999999999999999MA1102301999999REMMET051METAR SBQV 071800Z 14007KT 9999 BKN020 19/13 Q1023;
0120833440999992008070719004-14950-040883FM-15+0914SBQV V0201201N004110060019N0112651N1+01901+01301999999ADDGA1071+006001999GF107991999999999999999999MA1102301999999REMMET051METAR SBQV 071900Z 12008KT 9999 BKN020 19/13 Q1023;
0120833440999992008070720004-14950-040883FM-15+0914SBQV V0201201N004610054019N0112651N1+01801+01301999999ADDGA1071+005401999GF107991999999999999999999MA1102301999999REMMET051METAR SBQV 072000Z 12009KT 9999 BKN018 18/13 Q1023;
0120833440999992008070721004-14950-040883FM-15+0914SBQV V0201201N003112200019N0112651N1+01601+01301999999ADDGA1021+004501999GF102991999999999999999999MA1102301999999REMMET051METAR SBQV 072100Z 12006KT 9999 FEW015 16/13 Q1023;
0072833440999992008070723004-14950-040883FM-15+0914SBQV V0209999C00001220001CN0099001N1+01301+01201999999ADDMA1102401999999REMMET045METAR SBQV 072300Z 00000KT CAVOK 13/12 Q1024;
0120833440999992008070811004-14950-040883FM-15+0914SBQV V0201201N005712200019N0112651N1+01401+01201999999ADDGA1021+002101999GF102991999999999999999999MA1102401999999REMMET051METAR SBQV 081100Z 12011KT 9999 FEW007 14/12 Q1024;
0120833440999992008070812004-14950-040883FM-15+0914SBQV V0201401N007212200019N0112651N1+01701+01001999999ADDGA1021+003001999GF102991999999999999999999MA1102511999999REMMET051METAR SBQV 081200Z 14014KT 9999 FEW010 17/10 Q1025;
0120833440999992008070813004-14950-040883FM-15+0914SBQV V0201101N005112200019N0112651N1+01901+00901999999ADDGA1021+004501999GF102991999999999999999999MA1102511999999REMMET051METAR SBQV 081300Z 11010KT 9999 FEW015 19/09 Q1025;
0072833440999992008070814004-14950-040883FM-15+0914SBQV V0201401N00361220001CN0099001N1+01901+01001999999ADDMA1102511999999REMMET045METAR SBQV 081400Z 14007KT CAVOK 19/10 Q1025;
0120833440999992008070815004-14950-040883FM-15+0914SBQV V0201201N003612200019N0112651N1+02001+00701999999ADDGA1021+004501999GF102991999999999999999999MA1102401999999REMMET051METAR SBQV 081500Z 12007KT 9999 FEW015 20/07 Q1024;
0120833440999992008070816004-14950-040883FM-15+0914SBQV V0200901N002612200019N0112651N1+02101+00701999999ADDGA1021+005401999GF102991999999999999999999MA1102301999999REMMET051METAR SBQV 081600Z 09005KT 9999 FEW018 21/07 Q1023;
0120833440999992008070817004-14950-040883FM-15+0914SBQV V0201601N002612200019N0112651N1+02201+00801999999ADDGA1021+006001999GF102991999999999999999999MA1102201999999REMMET051METAR SBQV 081700Z 16005KT 9999 FEW020 22/08 Q1022;
0120833440999992008070818004-14950-040883FM-15+0914SBQV V0201401N002112200019N0112651N1+02101+01001999999ADDGA1021+006001999GF102991999999999999999999MA1102101999999REMMET051METAR SBQV 081800Z 14004KT 9999 FEW020 21/10 Q1021;
0120833440999992008070819004-14950-040883FM-15+0914SBQV V0201501N003612200019N0112651N1+02101+00901999999ADDGA1021+006001999GF102991999999999999999999MA1102101999999REMMET051METAR SBQV 081900Z 15007KT 9999 FEW020 21/09 Q1021;
0072833440999992008070821004-14950-040883FM-15+0914SBQV V0201201N00361220001CN0099001N1+01701+00901999999ADDMA1102201999999REMMET045METAR SBQV 082100Z 12007KT CAVOK 17/09 Q1022;
0072833440999992008070822004-14950-040883FM-15+0914SBQV V0201301N00311220001CN0099001N1+01501+00901999999ADDMA1102201999999REMMET045METAR SBQV 082200Z 13006KT CAVOK 15/09 Q1022;
0072833440999992008070823004-14950-040883FM-15+0914SBQV V0201201N00261220001CN0099001N1+01501+01001999999ADDMA1102301999999REMMET045METAR SBQV 082300Z 12005KT CAVOK 15/10 Q1023;
0143833440999992008070911004-14950-040883FM-15+0914SBQV V0201201N005110018019N0112651N1+01501+01401999999ADDGA1071+001801999GA2081+021001999GF108991999999999999999999MA1102301999999REMMET058METAR SBQV 091100Z 12010KT 9999 BKN006 OVC070 15/14 Q1023;
0166833440999992008070912004-14950-040883FM-15+0914SBQV V0201201N005710033019N0112651N1+01701+01401999999ADDGA1021+001801999GA2071+003301999GA3071+021001999GF107991999999999999999999MA1102401999999REMMET065METAR SBQV 091200Z 12011KT 9999 FEW006 BKN011 BKN070 17/14 Q1024;
0143833440999992008070913004-14950-040883FM-15+0914SBQV V0201201N005712200019N0112651N1+01901+01401999999ADDGA1041+003301999GA2041+004501999GF104991999999999999999999MA1102401999999REMMET058METAR SBQV 091300Z 12011KT 9999 SCT011 SCT015 19/14 Q1024;
0120833440999992008070914004-14950-040883FM-15+0914SBQV V0201201N005710045019N0112651N1+02001+01401999999ADDGA1071+004501999GF107991999999999999999999MA1102401999999REMMET051METAR SBQV 091400Z 12011KT 9999 BKN015 20/14 Q1024;
0120833440999992008070915004-14950-040883FM-15+0914SBQV V0201001N005710048019N0112651N1+02201+01301999999ADDGA1071+004801999GF107991999999999999999999MA1102301999999REMMET051METAR SBQV 091500Z 10011KT 9999 BKN016 22/13 Q1023;
0143833440999992008070916004-14950-040883FM-15+0914SBQV V0201001N005112200019N0112651N1+02301+01301999999ADDGA1041+006001999GA2041+090001999GF104991999999999999999999MA1102201999999REMMET058METAR SBQV 091600Z 10010KT 9999 SCT020 SCT300 23/13 Q1022;
0143833440999992008070917004-14950-040883FM-15+0914SBQV V0201001N005112200019N0112651N1+02301+01201999999ADDGA1041+006001999GA2041+090001999GF104991999999999999999999MA1102201999999REMMET058METAR SBQV 091700Z 10010KT 9999 SCT020 SCT300 23/12 Q1022;
0120833440999992008070918004-14950-040883FM-15+0914SBQV V0201301N004612200019N0112651N1+02301+01301999999ADDGA1021+006001999GF102991999999999999999999MA1102101999999REMMET051METAR SBQV 091800Z 13009KT 9999 FEW020 23/13 Q1021;
0120833440999992008070919004-14950-040883FM-15+0914SBQV V0201201N005112200019N0112651N1+02201+01201999999ADDGA1021+006001999GF102991999999999999999999MA1102201999999REMMET051METAR SBQV 091900Z 12010KT 9999 FEW020 22/12 Q1022;
0120833440999992008070920004-14950-040883FM-15+0914SBQV V0201101N004112200019N0112651N1+02001+01101999999ADDGA1021+005401999GF102991999999999999999999MA1102201999999REMMET051METAR SBQV 092000Z 11008KT 9999 FEW018 20/11 Q1022;
0120833440999992008070921004-14950-040883FM-15+0914SBQV V0201301N003112200019N0112651N1+01701+01201999999ADDGA1021+004501999GF102991999999999999999999MA1102201999999REMMET051METAR SBQV 092100Z 13006KT 9999 FEW015 17/12 Q1022;
0072833440999992008070922004-14950-040883FM-15+0914SBQV V0201101N00051220001CN0099001N1+01501+01201999999ADDMA1102301999999REMMET045METAR SBQV 092200Z 11001KT CAVOK 15/12 Q1023;
0072833440999992008070923004-14950-040883FM-15+0914SBQV V0201001N00361220001CN0099001N1+01701+01501999999ADDMA1102301999999REMMET045METAR SBQV 092300Z 10007KT CAVOK 17/15 Q1023;
0120833440999992008071011004-14950-040883FM-15+0914SBQV V0201301N004110030019N0112651N1+01701+01601999999ADDGA1071+003001999GF107991999999999999999999MA1102401999999REMMET051METAR SBQV 101100Z 13008KT 9999 BKN010 17/16 Q1024;
0098833440999992008071011294-14950-040883FM-16+0914SBQV V0201301N004612200019N9999999N1+01601+01601999999ADDMA1102501999999REMMET071METAR SBQV 101129Z SPECI 13009KT 1600 -DZ BR BKN004 OVC006 16/16 Q1025;
0120833440999992008071013004-14950-040883FM-15+0914SBQV V0201301N005710021019N0090001N1+01701+01601999999ADDGA1071+002101999GF107991999999999999999999MA1102511999999REMMET051METAR SBQV 101300Z 13011KT 9000 BKN007 17/16 Q1025;
0120833440999992008071014004-14950-040883FM-15+0914SBQV V0201301N005110033019N0112651N1+01901+01701999999ADDGA1071+003301999GF107991999999999999999999MA1102511999999REMMET051METAR SBQV 101400Z 13010KT 9999 BKN011 19/17 Q1025;
0153833440999992008071015004-14950-040883FM-15+0914SBQV V0201401N00571220001CN0112651N1+02001+01701999999ADDGA1071+003901999GA2041+024001999MA1102511999999MW1511REMMET069METAR SBQV 101500Z 14011KT 9999 7000SE -DZ BKN013 SCT080 20/17 Q1025;EQDQ01+000042SCOTCV
0153833440999992008071016004-14950-040883FM-15+0914SBQV V0201601N006210030019N0070001N1+01901+01701999999ADDGA1071+003001999GA2071+021001999GF107991999999999999999999MA1102401999999MW1511REMMET062METAR SBQV 101600Z 16012KT 7000 -DZ BKN010 BKN070 19/17 Q1024;
0166833440999992008071017004-14950-040883FM-15+0914SBQV V0201501N005710021019N0112651N1+01801+01801999999ADDGA1021+001501999GA2071+002101999GA3071+021001999GF107991999999999999999999MA1102401999999REMMET065METAR SBQV 101700Z 15011KT 9999 FEW005 BKN007 BKN070 18/18 Q1024;
0166833440999992008071018004-14950-040883FM-15+0914SBQV V0201501N005110024019N0112651N1+01901+01701999999ADDGA1021+001801999GA2071+002401999GA3071+021001999GF107991999999999999999999MA1102301999999REMMET065METAR SBQV 101800Z 15010KT 9999 FEW006 BKN008 BKN070 19/17 Q1023;
0153833440999992008071019004-14950-040883FM-15+0914SBQV V0201501N005110021019N0020001N1+01801+01701999999ADDGA1041+001501999GA2071+002101999GF107991999999999999999999MA1102301999999MW1511REMMET062METAR SBQV 101900Z 15010KT 2000 -DZ SCT005 BKN007 18/17 Q1023;
0143833440999992008071020004-14950-040883FM-15+0914SBQV V0201201N004610024019N0112651N1+01701+01701999999ADDGA1041+001801999GA2071+002401999GF107991999999999999999999MA1102401999999REMMET058METAR SBQV 102000Z 12009KT 9999 SCT006 BKN008 17/17 Q1024;
0130833440999992008071021004-14950-040883FM-15+0914SBQV V0201401N005110015019N0020001N1+01701+01701999999ADDGA1081+001501999GF108991999999999999999999MA1102401999999MW1511REMMET055METAR SBQV 102100Z 14010KT 2000 -DZ OVC005 17/17 Q1024;
0120833440999992008071022004-14950-040883FM-15+0914SBQV V0201201N003610018019N0112651N1+01601+01601999999ADDGA1071+001801999GF107991999999999999999999MA1102401999999REMMET051METAR SBQV 102200Z 12007KT 9999 BKN006 16/16 Q1024;
0120833440999992008071023004-14950-040883FM-15+0914SBQV V0201301N003110018019N0112651N1+01601+01601999999ADDGA1071+001801999GF107991999999999999999999MA1102511999999REMMET051METAR SBQV 102300Z 13006KT 9999 BKN006 16/16 Q1025;
0130833440999992008071111004-14950-040883FM-15+0914SBQV V0201601N007210012019N0040001N1+01601+01601999999ADDGA1081+001201999GF108991999999999999999999MA1102611999999MW1511REMMET055METAR SBQV 111100Z 16014KT 4000 -DZ OVC004 16/16 Q1026;
0153833440999992008071112004-14950-040883FM-15+0914SBQV V0201401N007710018019N0050001N1+01701+01701999999ADDGA1021+001201999GA2071+001801999GF107991999999999999999999MA1102711999999MW1511REMMET062METAR SBQV 111200Z 14015KT 5000 -DZ FEW004 BKN006 17/17 Q1027;
0143833440999992008071113004-14950-040883FM-15+0914SBQV V0201501N006710024019N0112651N1+01701+01701999999ADDGA1021+001801999GA2071+002401999GF107991999999999999999999MA1102711999999REMMET058METAR SBQV 111300Z 15013KT 9999 FEW006 BKN008 17/17 Q1027;
0176833440999992008071114004-14950-040883FM-15+0914SBQV V0201501N005110018019N0060001N1+01801+01701999999ADDGA1041+001201999GA2071+001801999GA3071+021001999GF107991999999999999999999MA1102711999999MW1511REMMET069METAR SBQV 111400Z 15010KT 6000 -DZ SCT004 BKN006 BKN070 18/17 Q1027;
0166833440999992008071115004-14950-040883FM-15+0914SBQV V0201501N007710030019N0112651N1+01801+01701999999ADDGA1021+001501999GA2071+003001999GA3071+021001999GF107991999999999999999999MA1102611999999REMMET065METAR SBQV 111500Z 15015KT 9999 FEW005 BKN010 BKN070 18/17 Q1026;
0143833440999992008071116004-14950-040883FM-15+0914SBQV V0201201N006710240019N0112651N1+02001+01701999999ADDGA1021+003901999GA2071+024001999GF107991999999999999999999MA1102511999999REMMET058METAR SBQV 111600Z 12013KT 9999 FEW013 BKN080 20/17 Q1025;
0143833440999992008071117004-14950-040883FM-15+0914SBQV V0201301N005710240019N0112651N1+02101+01601999999ADDGA1021+006001999GA2071+024001999GF107991999999999999999999MA1102511999999REMMET058METAR SBQV 111700Z 13011KT 9999 FEW020 BKN080 21/16 Q1025;
0143833440999992008071118004-14950-040883FM-15+0914SBQV V0201201N006212200019N0112651N1+02201+01501999999ADDGA1021+006001999GA2041+024001999GF104991999999999999999999MA1102401999999REMMET058METAR SBQV 111800Z 12012KT 9999 FEW020 SCT080 22/15 Q1024;
0143833440999992008071119004-14950-040883FM-15+0914SBQV V0201401N006212200019N0112651N1+02101+01601999999ADDGA1021+006001999GA2041+024001999GF104991999999999999999999MA1102401999999REMMET058METAR SBQV 111900Z 14012KT 9999 FEW020 SCT080 21/16 Q1024;
0120833440999992008071120004-14950-040883FM-15+0914SBQV V0201301N005112200019N0112651N1+02001+01501999999ADDGA1021+006001999GF102991999999999999999999MA1102511999999REMMET051METAR SBQV 112000Z 13010KT 9999 FEW020 20/15 Q1025;
0143833440999992008071122004-14950-040883FM-15+0914SBQV V0201201N004612200019N0112651N1+01701+01601999999ADDGA1021+001801999GA2041+003001999GF104991999999999999999999MA1102511999999REMMET058METAR SBQV 112200Z 12009KT 9999 FEW006 SCT010 17/16 Q1025;
0120833440999992008071123004-14950-040883FM-15+0914SBQV V0201301N004112200019N0112651N1+01701+01601999999ADDGA1041+001801999GF104991999999999999999999MA1102611999999REMMET051METAR SBQV 112300Z 13008KT 9999 SCT006 17/16 Q1026;
0143833440999992008071211004-14950-040883FM-15+0914SBQV V0201301N005710027019N0112651N1+01601+01401999999ADDGA1071+002701999GA2071+003301999GF107991999999999999999999MA1102611999999REMMET058METAR SBQV 121100Z 13011KT 9999 BKN009 BKN011 16/14 Q1026;
0120833440999992008071212004-14950-040883FM-15+0914SBQV V0201301N007212200019N0112651N1+01801+01401999999ADDGA1041+003901999GF104991999999999999999999MA1102611999999REMMET051METAR SBQV 121200Z 13014KT 9999 SCT013 18/14 Q1026;
0120833440999992008071213004-14950-040883FM-15+0914SBQV V0201301N007210060019N0112651N1+02001+01401999999ADDGA1071+006001999GF107991999999999999999999MA1102611999999REMMET051METAR SBQV 121300Z 13014KT 9999 BKN020 20/14 Q1026;
0120833440999992008071214004-14950-040883FM-15+0914SBQV V0201401N007710060019N0112651N1+02101+01301999999ADDGA1071+006001999GF107991999999999999999999MA1102611999999REMMET051METAR SBQV 121400Z 14015KT 9999 BKN020 21/13 Q1026;
0120833440999992008071215004-14950-040883FM-15+0914SBQV V0201301N008210060019N0112651N1+02201+01201999999ADDGA1071+006001999GF107991999999999999999999MA1102511999999REMMET051METAR SBQV 121500Z 13016KT 9999 BKN020 22/12 Q1025;
0120833440999992008071216004-14950-040883FM-15+0914SBQV V0201401N005710060019N0112651N1+02101+01301999999ADDGA1071+006001999GF107991999999999999999999MA1102401999999REMMET051METAR SBQV 121600Z 14011KT 9999 BKN020 21/13 Q1024;
0120833440999992008071217004-14950-040883FM-15+0914SBQV V0201401N006212200019N0112651N1+02201+01201999999ADDGA1041+006001999GF104991999999999999999999MA1102301999999REMMET051METAR SBQV 121700Z 14012KT 9999 SCT020 22/12 Q1023;
0120833440999992008071218004-14950-040883FM-15+0914SBQV V0201501N005112200019N0112651N1+02101+01101999999ADDGA1021+006001999GF102991999999999999999999MA1102301999999REMMET051METAR SBQV 121800Z 15010KT 9999 FEW020 21/11 Q1023;
0120833440999992008071219004-14950-040883FM-15+0914SBQV V0201401N004612200019N0112651N1+02201+01201999999ADDGA1021+006001999GF102991999999999999999999MA1102201999999REMMET051METAR SBQV 121900Z 14009KT 9999 FEW020 22/12 Q1022;
0120833440999992008071220004-14950-040883FM-15+0914SBQV V0201301N005112200019N0112651N1+02001+01301999999ADDGA1021+005401999GF102991999999999999999999MA1102301999999REMMET051METAR SBQV 122000Z 13010KT 9999 FEW018 20/13 Q1023;
0120833440999992008071221004-14950-040883FM-15+0914SBQV V0201301N004112200019N0112651N1+01701+01201999999ADDGA1021+004801999GF102991999999999999999999MA1102301999999REMMET051METAR SBQV 122100Z 13008KT 9999 FEW016 17/12 Q1023;
0072833440999992008071222004-14950-040883FM-15+0914SBQV V0201201N00311220001CN0099001N1+01501+01201999999ADDMA1102301999999REMMET045METAR SBQV 122200Z 12006KT CAVOK 15/12 Q1023;
0120833440999992008071311004-14950-040883FM-15+0914SBQV V0201501N004112200019N0112651N1+01401+01301999999ADDGA1021+004501999GF102991999999999999999999MA1102401999999REMMET051METAR SBQV 131100Z 15008KT 9999 FEW015 14/13 Q1024;
0120833440999992008071312004-14950-040883FM-15+0914SBQV V0201401N007712200019N0112651N1+01701+01201999999ADDGA1021+005401999GF102991999999999999999999MA1102401999999REMMET051METAR SBQV 131200Z 14015KT 9999 FEW018 17/12 Q1024;
0120833440999992008071313004-14950-040883FM-15+0914SBQV V0201301N008212200019N0112651N1+01901+01201999999ADDGA1021+006001999GF102991999999999999999999MA1102401999999REMMET051METAR SBQV 131300Z 13016KT 9999 FEW020 19/12 Q1024;
0120833440999992008071314004-14950-040883FM-15+0914SBQV V0201301N007712200019N0112651N1+02101+01201999999ADDGA1021+006001999GF102991999999999999999999MA1102401999999REMMET051METAR SBQV 131400Z 13015KT 9999 FEW020 21/12 Q1024;
0120833440999992008071315004-14950-040883FM-15+0914SBQV V0201601N007212200019N0112651N1+02201+01201999999ADDGA1041+006001999GF104991999999999999999999MA1102301999999REMMET051METAR SBQV 131500Z 16014KT 9999 SCT020 22/12 Q1023;
0120833440999992008071316004-14950-040883FM-15+0914SBQV V0201601N006712200019N0112651N1+02201+01201999999ADDGA1041+006001999GF104991999999999999999999MA1102201999999REMMET051METAR SBQV 131600Z 16013KT 9999 SCT020 22/12 Q1022;
0120833440999992008071317004-14950-040883FM-15+0914SBQV V0201501N008212200019N0112651N1+02201+01101999999ADDGA1041+006001999GF104991999999999999999999MA1102201999999REMMET051METAR SBQV 131700Z 15016KT 9999 SCT020 22/11 Q1022;
0120833440999992008071318004-14950-040883FM-15+0914SBQV V0201601N008712200019N0112651N1+02201+01201999999ADDGA1041+006001999GF104991999999999999999999MA1102101999999REMMET051METAR SBQV 131800Z 16017KT 9999 SCT020 22/12 Q1021;
0120833440999992008071319004-14950-040883FM-15+0914SBQV V0201301N006212200019N0112651N1+02101+01201999999ADDGA1041+006001999GF104991999999999999999999MA1102101999999REMMET051METAR SBQV 131900Z 13012KT 9999 SCT020 21/12 Q1021;
0120833440999992008071320004-14950-040883FM-15+0914SBQV V0201401N005712200019N0112651N1+01901+01201999999ADDGA1021+006001999GF102991999999999999999999MA1102101999999REMMET051METAR SBQV 132000Z 14011KT 9999 FEW020 19/12 Q1021;
0120833440999992008071321004-14950-040883FM-15+0914SBQV V0201401N004612200019N0112651N1+01801+01301999999ADDGA1021+004501999GF102991999999999999999999MA1102201999999REMMET051METAR SBQV 132100Z 14009KT 9999 FEW015 18/13 Q1022;
0120833440999992008071322004-14950-040883FM-15+0914SBQV V0201501N004112200019N0112651N1+01701+01301999999ADDGA1041+003601999GF104991999999999999999999MA1102201999999REMMET051METAR SBQV 132200Z 15008KT 9999 SCT012 17/13 Q1022;
0095833440999992008071410154-14950-040883FM-16+0914SBQV V0201401N004612200019N0112651N1+01501+01501999999ADDMA1102201999999REMMET068METAR SBQV 141015Z SPECI 14009KT 9999 -DZ BKN004 OVC070 15/15 Q1022;
0158833440999992008071411004-14950-040883FM-15+0914SBQV V0201301N005110012019N0020001N1+01501+01501999999ADDGA1071+001201999GA2081+021001999GF108991999999999999999999MA1102301999999MW1511REMMET067METAR SBQV 141100Z 13010KT 2000 -DZ BKN004 OVC070 15/15 Q1023 REDZ;
0153833440999992008071412004-14950-040883FM-15+0914SBQV V0201201N006710012019N0020001N1+01601+01601999999ADDGA1071+001201999GA2081+021001999GF108991999999999999999999MA1102401999999MW1511REMMET062METAR SBQV 141200Z 12013KT 2000 -DZ BKN004 OVC070 16/16 Q1024;
0101833440999992008071412374-14950-040883FM-16+0914SBQV V0201301N006712200019N9999999N1+01601+01601999999ADDMA1102401999999REMMET074METAR SBQV 141237Z SPECI 13013KT 5000 BR BKN004 SCT006 OVC070 16/16 Q1024;
0183833440999992008071414004-14950-040883FM-15+0914SBQV V0201401N004610018019N0112651N1+01801+01701999999ADDGA1041+001201999GA2071+001801999GA3071+021001999GF107991999999999999999999MA1102401999999MW1611REMMET076METAR SBQV 141400Z 14009KT 9999 5000SE -RA SCT004 BKN006 BKN070 18/17 Q1024;
0143833440999992008071415004-14950-040883FM-15+0914SBQV V0201301N007212200019N0112651N1+01901+01601999999ADDGA1041+002101999GA2041+004501999GF104991999999999999999999MA1102301999999REMMET058METAR SBQV 141500Z 13014KT 9999 SCT007 SCT015 19/16 Q1023;
0136833440999992008071416004-14950-040883FM-15+0914SBQV V0201201N00621220001CN0112651N1+02001+01601999999ADDGA1071+004501999GA2041+021001999MA1102201999999REMMET058METAR SBQV 141600Z 12012KT 9999 BKN015 SCT070 20/16 Q1022;EQDQ01+000042SCOTCV
0120833440999992008071418004-14950-040883FM-15+0914SBQV V0201301N004610045019N0112651N1+01901+01701999999ADDGA1071+004501999GF107991999999999999999999MA1102201999999REMMET051METAR SBQV 141800Z 13009KT 9999 BKN015 19/17 Q1022;
0120833440999992008071419004-14950-040883FM-15+0914SBQV V0201301N005712200019N0112651N1+02001+01601999999ADDGA1021+004501999GF102991999999999999999999MA1102201999999REMMET051METAR SBQV 141900Z 13011KT 9999 FEW015 20/16 Q1022;
0143833440999992008071420004-14950-040883FM-15+0914SBQV V0201401N005712200019N0112651N1+01901+01601999999ADDGA1041+003001999GA2041+004501999GF104991999999999999999999MA1102201999999REMMET058METAR SBQV 142000Z 14011KT 9999 SCT010 SCT015 19/16 Q1022;
0152833440999992008071421004-14950-040883FM-15+0914SBQV V0201301N004612200019N0030001N1+01701+01701999999ADDGA1041+001501999GA2041+003001999GF104991999999999999999999MA1102301999999MW1101REMMET061METAR SBQV 142100Z 13009KT 3000 BR SCT005 SCT010 17/17 Q1023;
0120833440999992008071422004-14950-040883FM-15+0914SBQV V0201201N003110018019N0112651N1+01601+01601999999ADDGA1071+001801999GF107991999999999999999999MA1102301999999REMMET051METAR SBQV 142200Z 12006KT 9999 BKN006 16/16 Q1023;
0120833440999992008071423004-14950-040883FM-15+0914SBQV V0201501N002610015019N0112651N1+01601+01601999999ADDGA1071+001501999GF107991999999999999999999MA1102401999999REMMET051METAR SBQV 142300Z 15005KT 9999 BKN005 16/16 Q1024;
0120833440999992008071511004-14950-040883FM-15+0914SBQV V0201301N006710039019N0112651N1+01601+01501999999ADDGA1071+003901999GF107991999999999999999999MA1102511999999REMMET051METAR SBQV 151100Z 13013KT 9999 BKN013 16/15 Q1025;
0120833440999992008071512004-14950-040883FM-15+0914SBQV V0201201N006210039019N0112651N1+01601+01501999999ADDGA1071+003901999GF107991999999999999999999MA1102611999999REMMET051METAR SBQV 151200Z 12012KT 9999 BKN013 16/15 Q1026;
0120833440999992008071513004-14950-040883FM-15+0914SBQV V0201201N007710048019N0112651N1+01801+01401999999ADDGA1071+004801999GF107991999999999999999999MA1102611999999REMMET051METAR SBQV 151300Z 12015KT 9999 BKN016 18/14 Q1026;
0143833440999992008071514004-14950-040883FM-15+0914SBQV V0201101N006712200019N0112651N1+01901+01401999999ADDGA1041+003901999GA2041+021001999GF104991999999999999999999MA1102611999999REMMET058METAR SBQV 151400Z 11013KT 9999 SCT013 SCT070 19/14 Q1026;
0120833440999992008071515004-14950-040883FM-15+0914SBQV V0201401N006212200019N0112651N1+01801+01701999999ADDGA1041+004801999GF104991999999999999999999MA1102611999999REMMET051METAR SBQV 151500Z 14012KT 9999 SCT016 18/17 Q1026;
0120833440999992008071516004-14950-040883FM-15+0914SBQV V0201301N006710048019N0112651N1+02101+01501999999ADDGA1071+004801999GF107991999999999999999999MA1102511999999REMMET051METAR SBQV 151600Z 13013KT 9999 BKN016 21/15 Q1025;
0143833440999992008071517004-14950-040883FM-15+0914SBQV V0201301N005710048019N0112651N1+01901+01601999999ADDGA1021+004501999GA2071+004801999GF107991999999999999999999MA1102401999999REMMET058METAR SBQV 151700Z 13011KT 9999 FEW015 BKN016 19/16 Q1024;
0143833440999992008071518004-14950-040883FM-15+0914SBQV V0201301N004612200019N0112651N1+02001+01501999999ADDGA1041+003001999GA2041+004501999GF104991999999999999999999MA1102401999999REMMET058METAR SBQV 151800Z 13009KT 9999 SCT010 SCT015 20/15 Q1024;
0143833440999992008071519004-14950-040883FM-15+0914SBQV V0201601N005112200019N0112651N1+01701+01601999999ADDGA1041+003001999GA2041+021001999GF104991999999999999999999MA1102401999999REMMET058METAR SBQV 151900Z 16010KT 9999 SCT010 SCT070 17/16 Q1024;
0176833440999992008071520004-14950-040883FM-15+0914SBQV V0201501N00411002701CN0050001N1+01701+01601999999ADDGA1021+001801999GA2041+002701999GA3071+021001999GF107991999999999999999999MA1102401999999MW1511REMMET069METAR SBQV 152000Z 15008KT 5000 -DZ FEW006 SCT009 BKN070 17/16 Q1024;
0143833440999992008071521004-14950-040883FM-15+0914SBQV V0201201N004110024019N0112651N1+01501+01501999999ADDGA1021+001501999GA2071+002401999GF107991999999999999999999MA1102511999999REMMET058METAR SBQV 152100Z 12008KT 9999 FEW005 BKN008 15/15 Q1025;
0143833440999992008071522004-14950-040883FM-15+0914SBQV V0201201N002612200019N0112651N1+01501+01501999999ADDGA1041+002101999GA2041+021001999GF104991999999999999999999MA1102511999999REMMET058METAR SBQV 152200Z 12005KT 9999 SCT007 SCT070 15/15 Q1025;
0120833440999992008071523004-14950-040883FM-15+0914SBQV V0201301N003112200019N0112651N1+01501+01401999999ADDGA1041+002101999GF104991999999999999999999MA1102511999999REMMET051METAR SBQV 152300Z 13006KT 9999 SCT007 15/14 Q1025;
0143833440999992008071611004-14950-040883FM-15+0914SBQV V0201301N004110024019N0112651N1+01601+01601999999ADDGA1041+001801999GA2071+002401999GF107991999999999999999999MA1102511999999REMMET058METAR SBQV 161100Z 13008KT 9999 SCT006 BKN008 16/16 Q1025;
0143833440999992008071612004-14950-040883FM-15+0914SBQV V0201501N006210030019N0112651N1+01601+01601999999ADDGA1021+001801999GA2071+003001999GF107991999999999999999999MA1102611999999REMMET058METAR SBQV 161200Z 15012KT 9999 FEW006 BKN010 16/16 Q1026;
0153833440999992008071613004-14950-040883FM-15+0914SBQV V0201601N005710024019N0050001N1+01701+01601999999ADDGA1041+001801999GA2071+002401999GF107991999999999999999999MA1102611999999MW1511REMMET062METAR SBQV 161300Z 16011KT 5000 -DZ SCT006 BKN008 17/16 Q1026;
0153833440999992008071614004-14950-040883FM-15+0914SBQV V0201501N007210027019N0080001N1+01801+01601999999ADDGA1021+001801999GA2071+002701999GF107991999999999999999999MA1102611999999MW1511REMMET062METAR SBQV 161400Z 15014KT 8000 -DZ FEW006 BKN009 18/16 Q1026;
0120833440999992008071615004-14950-040883FM-15+0914SBQV V0201301N006210033019N0112651N1+01801+01601999999ADDGA1071+003301999GF107991999999999999999999MA1102611999999REMMET051METAR SBQV 161500Z 13012KT 9999 BKN011 18/16 Q1026;
0143833440999992008071616004-14950-040883FM-15+0914SBQV V0201201N005112200019N0112651N1+02001+01601999999ADDGA1041+003901999GA2041+004801999GF104991999999999999999999MA1102511999999REMMET058METAR SBQV 161600Z 12010KT 9999 SCT013 SCT016 20/16 Q1025;
0120833440999992008071617004-14950-040883FM-15+0914SBQV V0201301N005712200019N0112651N1+02101+01601999999ADDGA1041+006001999GF104991999999999999999999MA1102401999999REMMET051METAR SBQV 161700Z 13011KT 9999 SCT020 21/16 Q1024;
0120833440999992008071618004-14950-040883FM-15+0914SBQV V0201301N006212200019N0112651N1+02001+01601999999ADDGA1041+006001999GF104991999999999999999999MA1102401999999REMMET051METAR SBQV 161800Z 13012KT 9999 SCT020 20/16 Q1024;
0143833440999992008071619004-14950-040883FM-15+0914SBQV V0201301N007712200019N0112651N1+01701+01601999999ADDGA1021+001501999GA2041+004801999GF104991999999999999999999MA1102401999999REMMET058METAR SBQV 161900Z 13015KT 9999 FEW005 SCT016 17/16 Q1024;
0143833440999992008071620004-14950-040883FM-15+0914SBQV V0201101N006212200019N0112651N1+01701+01501999999ADDGA1021+001501999GA2041+004501999GF104991999999999999999999MA1102401999999REMMET058METAR SBQV 162000Z 11012KT 9999 FEW005 SCT015 17/15 Q1024;
0120833440999992008071621004-14950-040883FM-15+0914SBQV V0201001N003112200019N0112651N1+01601+01501999999ADDGA1021+004501999GF102991999999999999999999MA1102401999999REMMET051METAR SBQV 162100Z 10006KT 9999 FEW015 16/15 Q1024;
0120833440999992008071622004-14950-040883FM-15+0914SBQV V0201001N003112200019N0112651N1+01501+01501999999ADDGA1021+004501999GF102991999999999999999999MA1102401999999REMMET051METAR SBQV 162200Z 10006KT 9999 FEW015 15/15 Q1024;
0120833440999992008071623004-14950-040883FM-15+0914SBQV V0201101N004612200019N0112651N1+01501+01501999999ADDGA1021+004501999GF102991999999999999999999MA1102401999999REMMET051METAR SBQV 162300Z 11009KT 9999 FEW015 15/15 Q1024;
0120833440999992008071706004-14950-040883FM-15+0914SBQV V0209999C000012200019N0112651N1+01101+01101999999ADDGA1041+001801999GF104991999999999999999999MA1102301999999REMMET051METAR SBQV 170600Z 00000KT 9999 SCT006 11/11 Q1023;
0120833440999992008071707004-14950-040883FM-15+0914SBQV V0209999C000012200019N0112651N1+01001+01001999999ADDGA1041+001501999GF104991999999999999999999MA1102301999999REMMET051METAR SBQV 170700Z 00000KT 9999 SCT005 10/10 Q1023;
0120833440999992008071711004-14950-040883FM-15+0914SBQV V0201201N003112200019N0090001N1+01401+01401999999ADDGA1021+001801999GF102991999999999999999999MA1102401999999REMMET051METAR SBQV 171100Z 12006KT 9000 FEW006 14/14 Q1024;
0120833440999992008071712004-14950-040883FM-15+0914SBQV V0201301N004612200019N0112651N1+01601+01301999999ADDGA1021+004801999GF102991999999999999999999MA1102511999999REMMET051METAR SBQV 171200Z 13009KT 9999 FEW016 16/13 Q1025;
0120833440999992008071713004-14950-040883FM-15+0914SBQV V0201201N003612200019N0112651N1+01901+01301999999ADDGA1021+007501999GF102991999999999999999999MA1102511999999REMMET051METAR SBQV 171300Z 12007KT 9999 FEW025 19/13 Q1025;
0120833440999992008071714004-14950-040883FM-15+0914SBQV V0200901N003112200019N0112651N1+02101+01301999999ADDGA1021+007501999GF102991999999999999999999MA1102401999999REMMET051METAR SBQV 171400Z 09006KT 9999 FEW025 21/13 Q1024;
0120833440999992008071715004-14950-040883FM-15+0914SBQV V0200401N004112200019N0112651N1+02201+01201999999ADDGA1041+009001999GF104991999999999999999999MA1102401999999REMMET051METAR SBQV 171500Z 04008KT 9999 SCT030 22/12 Q1024;
0120833440999992008071716004-14950-040883FM-15+0914SBQV V0200801N003110090019N0112651N1+02301+01101999999ADDGA1071+009001999GF107991999999999999999999MA1102201999999REMMET051METAR SBQV 171600Z 08006KT 9999 BKN030 23/11 Q1022;
0120833440999992008071717004-14950-040883FM-15+0914SBQV V0201101N004112200019N0112651N1+02301+01201999999ADDGA1041+009001999GF104991999999999999999999MA1102101999999REMMET051METAR SBQV 171700Z 11008KT 9999 SCT030 23/12 Q1021;
0120833440999992008071718004-14950-040883FM-15+0914SBQV V0201001N005112200019N0112651N1+02301+01201999999ADDGA1041+009001999GF104991999999999999999999MA1102001999999REMMET051METAR SBQV 171800Z 10010KT 9999 SCT030 23/12 Q1020;
0120833440999992008071719004-14950-040883FM-15+0914SBQV V0201101N005712200019N0112651N1+02201+01301999999ADDGA1021+007501999GF102991999999999999999999MA1102001999999REMMET051METAR SBQV 171900Z 11011KT 9999 FEW025 22/13 Q1020;
0120833440999992008071720004-14950-040883FM-15+0914SBQV V0201001N004612200019N0112651N1+02101+01301999999ADDGA1021+007501999GF102991999999999999999999MA1102001999999REMMET051METAR SBQV 172000Z 10009KT 9999 FEW025 21/13 Q1020;
0120833440999992008071721004-14950-040883FM-15+0914SBQV V0201101N004112200019N0112651N1+01801+01401999999ADDGA1021+005401999GF102991999999999999999999MA1102101999999REMMET051METAR SBQV 172100Z 11008KT 9999 FEW018 18/14 Q1021;
0120833440999992008071722004-14950-040883FM-15+0914SBQV V0200901N006212200019N0112651N1+01701+01401999999ADDGA1021+004801999GF102991999999999999999999MA1102101999999REMMET051METAR SBQV 172200Z 09012KT 9999 FEW016 17/14 Q1021;
0072833440999992008071723004-14950-040883FM-15+0914SBQV V0201101N00411220001CN0099001N1+01601+01401999999ADDMA1102201999999REMMET045METAR SBQV 172300Z 11008KT CAVOK 16/14 Q1022;
0120833440999992008071811004-14950-040883FM-15+0914SBQV V0201101N002612200019N0112651N1+01601+01501999999ADDGA1021+003301999GF102991999999999999999999MA1102301999999REMMET051METAR SBQV 181100Z 11005KT 9999 FEW011 16/15 Q1023;
0072833440999992008071812004-14950-040883FM-15+0914SBQV V0201201N00311220001CN0099001N1+01901+01501999999ADDMA1102401999999REMMET045METAR SBQV 181200Z 12006KT CAVOK 19/15 Q1024;
0120833440999992008071813004-14950-040883FM-15+0914SBQV V0200601N002112200019N0112651N1+02201+01301999999ADDGA1021+005401999GF102991999999999999999999MA1102401999999REMMET051METAR SBQV 181300Z 06004KT 9999 FEW018 22/13 Q1024;
0120833440999992008071814004-14950-040883FM-15+0914SBQV V0202801N001512200019N0112651N1+02301+01201999999ADDGA1021+006001999GF102991999999999999999999MA1102301999999REMMET051METAR SBQV 181400Z 28003KT 9999 FEW020 23/12 Q1023;
0120833440999992008071815004-14950-040883FM-15+0914SBQV V0202701N001512200019N0112651N1+02601+01001999999ADDGA1021+009001999GF102991999999999999999999MA1102201999999REMMET051METAR SBQV 181500Z 27003KT 9999 FEW030 26/10 Q1022;
0120833440999992008071816004-14950-040883FM-15+0914SBQV V0202701N002612200019N0112651N1+02601+01001999999ADDGA1021+009001999GF102991999999999999999999MA1102101999999REMMET051METAR SBQV 181600Z 27005KT 9999 FEW030 26/10 Q1021;
0120833440999992008071817004-14950-040883FM-15+0914SBQV V0202901N002612200019N0112651N1+02701+01001999999ADDGA1021+009001999GF102991999999999999999999MA1102001999999REMMET051METAR SBQV 181700Z 29005KT 9999 FEW030 27/10 Q1020;
0120833440999992008071819004-14950-040883FM-15+0914SBQV V0202101N001512200019N0112651N1+02601+00901999999ADDGA1021+007501999GF102991999999999999999999MA1101901999999REMMET051METAR SBQV 181900Z 21003KT 9999 FEW025 26/09 Q1019;
0072833440999992008071821004-14950-040883FM-15+0914SBQV V0201001N00361220001CN0099001N1+02101+01601999999ADDMA1102001999999REMMET045METAR SBQV 182100Z 10007KT CAVOK 21/16 Q1020;
0072833440999992008071822004-14950-040883FM-15+0914SBQV V0200901N00311220001CN0099001N1+01901+01601999999ADDMA1102101999999REMMET045METAR SBQV 182200Z 09006KT CAVOK 19/16 Q1021;
0072833440999992008071823004-14950-040883FM-15+0914SBQV V0201001N00311220001CN0099001N1+01801+01501999999ADDMA1102101999999REMMET045METAR SBQV 182300Z 10006KT CAVOK 18/15 Q1021;
0128833440999992008071911004-14950-040883FM-15+0914SBQV V0201201N002610003019N0007001N1+01601+01601999999ADDGA1091+000301999GF109991999999000251999999MA1102401999999MW1451REMMET053METAR SBQV 191100Z 12005KT 0700 FG VV001 16/16 Q1024;
0120833440999992008071912004-14950-040883FM-15+0914SBQV V0201101N001512200019N0080001N1+01901+01701999999ADDGA1021+004501999GF102991999999999999999999MA1102401999999REMMET051METAR SBQV 191200Z 11003KT 8000 FEW015 19/17 Q1024;
0120833440999992008071913004-14950-040883FM-15+0914SBQV V0201301N001512200019N0112651N1+02201+01701999999ADDGA1021+007501999GF102991999999999999999999MA1102401999999REMMET051METAR SBQV 191300Z 13003KT 9999 FEW025 22/17 Q1024;
0120833440999992008071914004-14950-040883FM-15+0914SBQV V0201601N001012200019N0112651N1+02301+01501999999ADDGA1021+007501999GF102991999999999999999999MA1102401999999REMMET051METAR SBQV 191400Z 16002KT 9999 FEW025 23/15 Q1024;
0120833440999992008071915004-14950-040883FM-15+0914SBQV V0201701N002112200019N0112651N1+02501+01201999999ADDGA1021+009001999GF102991999999999999999999MA1102301999999REMMET051METAR SBQV 191500Z 17004KT 9999 FEW030 25/12 Q1023;
0120833440999992008071917004-14950-040883FM-15+0914SBQV V0201501N003612200019N0112651N1+02601+01201999999ADDGA1021+009001999GF102991999999999999999999MA1102101999999REMMET051METAR SBQV 191700Z 15007KT 9999 FEW030 26/12 Q1021;
0120833440999992008071918004-14950-040883FM-15+0914SBQV V0201301N004612200019N0112651N1+02501+01301999999ADDGA1021+009001999GF102991999999999999999999MA1102101999999REMMET051METAR SBQV 191800Z 13009KT 9999 FEW030 25/13 Q1021;
0120833440999992008071919004-14950-040883FM-15+0914SBQV V0201301N005712200019N0112651N1+02401+01001999999ADDGA1021+009001999GF102991999999999999999999MA1102101999999REMMET051METAR SBQV 191900Z 13011KT 9999 FEW030 24/10 Q1021;
0120833440999992008071920004-14950-040883FM-15+0914SBQV V0201201N004612200019N0112651N1+02201+01101999999ADDGA1021+007501999GF102991999999999999999999MA1102101999999REMMET051METAR SBQV 192000Z 12009KT 9999 FEW025 22/11 Q1021;
0120833440999992008071921004-14950-040883FM-15+0914SBQV V0201201N003612200019N0112651N1+02001+01301999999ADDGA1021+006001999GF102991999999999999999999MA1102101999999REMMET051METAR SBQV 192100Z 12007KT 9999 FEW020 20/13 Q1021;
0072833440999992008071922004-14950-040883FM-15+0914SBQV V0201001N00211220001CN0099001N1+01801+01201999999ADDMA1102201999999REMMET045METAR SBQV 192200Z 10004KT CAVOK 18/12 Q1022;
0072833440999992008072000004-14950-040883FM-15+0914SBQV V0201001N00311220001CN0099001N1+01701+01201999999ADDMA1102201999999REMMET045METAR SBQV 200000Z 10006KT CAVOK 17/12 Q1022;
0072833440999992008072001004-14950-040883FM-15+0914SBQV V0200901N00411220001CN0099001N1+01701+01601999999ADDMA1102301999999REMMET045METAR SBQV 200100Z 09008KT CAVOK 17/16 Q1023;
0072833440999992008072002004-14950-040883FM-15+0914SBQV V0200901N00411220001CN0099001N1+01701+01601999999ADDMA1102301999999REMMET045METAR SBQV 200200Z 09008KT CAVOK 17/16 Q1023;
0116833440999992008072010154-14950-040883FM-16+0914SBQV V0201001N002119999999N0112651N1+01501+01401999999ADDKA1999M+99999MA1102301999999REMMET057METAR SBQV 201015Z SPECI 10004KT 9999 FEW013 15/14 Q1023;EQDQ01 +00042ATMX  
0120833440999992008072011004-14950-040883FM-15+0914SBQV V0201001N003612200019N0112651N1+01701+01401999999ADDGA1021+004501999GF102991999999999999999999MA1102401999999REMMET051METAR SBQV 201100Z 10007KT 9999 FEW015 17/14 Q1024;
0120833440999992008072012004-14950-040883FM-15+0914SBQV V0200901N004610048019N0112651N1+01901+01301999999ADDGA1071+004801999GF107991999999999999999999MA1102511999999REMMET051METAR SBQV 201200Z 09009KT 9999 BKN016 19/13 Q1025;
0120833440999992008072013004-14950-040883FM-15+0914SBQV V0200901N005112200019N0112651N1+02001+01201999999ADDGA1041+005401999GF104991999999999999999999MA1102511999999REMMET051METAR SBQV 201300Z 09010KT 9999 SCT018 20/12 Q1025;
0120833440999992008072014004-14950-040883FM-15+0914SBQV V0201101N004612200019N0112651N1+02101+01201999999ADDGA1041+006001999GF104991999999999999999999MA1102511999999REMMET051METAR SBQV 201400Z 11009KT 9999 SCT020 21/12 Q1025;
0120833440999992008072015004-14950-040883FM-15+0914SBQV V0201101N005112200019N0112651N1+02201+01201999999ADDGA1021+006001999GF102991999999999999999999MA1102401999999REMMET051METAR SBQV 201500Z 11010KT 9999 FEW020 22/12 Q1024;
0120833440999992008072016004-14950-040883FM-15+0914SBQV V0200901N004112200019N0112651N1+02301+01101999999ADDGA1021+007501999GF102991999999999999999999MA1102301999999REMMET051METAR SBQV 201600Z 09008KT 9999 FEW025 23/11 Q1023;
0120833440999992008072017004-14950-040883FM-15+0914SBQV V0201101N004612200019N0112651N1+02401+01201999999ADDGA1021+007501999GF102991999999999999999999MA1102201999999REMMET051METAR SBQV 201700Z 11009KT 9999 FEW025 24/12 Q1022;
0120833440999992008072019004-14950-040883FM-15+0914SBQV V0201201N004612200019N0112651N1+02201+01101999999ADDGA1021+006001999GF102991999999999999999999MA1102201999999REMMET051METAR SBQV 201900Z 12009KT 9999 FEW020 22/11 Q1022;
0072833440999992008072020004-14950-040883FM-15+0914SBQV V0201301N00621220001CN0099001N1+02001+01101999999ADDMA1102201999999REMMET045METAR SBQV 202000Z 13012KT CAVOK 20/11 Q1022;
0072833440999992008072021004-14950-040883FM-15+0914SBQV V0201101N00311220001CN0099001N1+01801+01101999999ADDMA1102201999999REMMET045METAR SBQV 202100Z 11006KT CAVOK 18/11 Q1022;
0072833440999992008072022004-14950-040883FM-15+0914SBQV V0201101N00311220001CN0099001N1+01801+01101999999ADDMA1102301999999REMMET045METAR SBQV 202200Z 11006KT CAVOK 18/11 Q1023;
0072833440999992008072111004-14950-040883FM-15+0914SBQV V0201201N00411220001CN0099001N1+01701+01201999999ADDMA1102401999999REMMET045METAR SBQV 211100Z 12008KT CAVOK 17/12 Q1024;
0072833440999992008072112004-14950-040883FM-15+0914SBQV V0201201N00461220001CN0099001N1+01901+01101999999ADDMA1102511999999REMMET045METAR SBQV 211200Z 12009KT CAVOK 19/11 Q1025;
0072833440999992008072113004-14950-040883FM-15+0914SBQV V0201301N00361220001CN0099001N1+02101+01101999999ADDMA1102511999999REMMET045METAR SBQV 211300Z 13007KT CAVOK 21/11 Q1025;
0120833440999992008072114004-14950-040883FM-15+0914SBQV V0201301N004112200019N0112651N1+02201+01001999999ADDGA1021+005401999GF102991999999999999999999MA1102511999999REMMET051METAR SBQV 211400Z 13008KT 9999 FEW018 22/10 Q1025;
0120833440999992008072115004-14950-040883FM-15+0914SBQV V0201401N002612200019N0112651N1+02301+01001999999ADDGA1041+006001999GF104991999999999999999999MA1102401999999REMMET051METAR SBQV 211500Z 14005KT 9999 SCT020 23/10 Q1024;
0120833440999992008072116004-14950-040883FM-15+0914SBQV V0200901N003612200019N0112651N1+02401+01101999999ADDGA1041+006001999GF104991999999999999999999MA1102301999999REMMET051METAR SBQV 211600Z 09007KT 9999 SCT020 24/11 Q1023;
0120833440999992008072117004-14950-040883FM-15+0914SBQV V0201101N004112200019N0112651N1+02401+01201999999ADDGA1041+007501999GF104991999999999999999999MA1102201999999REMMET051METAR SBQV 211700Z 11008KT 9999 SCT025 24/12 Q1022;
0120833440999992008072118004-14950-040883FM-15+0914SBQV V0201301N005712200019N0112651N1+02301+01201999999ADDGA1021+006001999GF102991999999999999999999MA1102201999999REMMET051METAR SBQV 211800Z 13011KT 9999 FEW020 23/12 Q1022;
0120833440999992008072119004-14950-040883FM-15+0914SBQV V0201201N005712200019N0112651N1+02301+01101999999ADDGA1021+006001999GF102991999999999999999999MA1102201999999REMMET051METAR SBQV 211900Z 12011KT 9999 FEW020 23/11 Q1022;
0072833440999992008072123004-14950-040883FM-15+0914SBQV V0201001N00311220001CN0099001N1+01601+01001999999ADDMA1102301999999REMMET045METAR SBQV 212300Z 10006KT CAVOK 16/10 Q1023;
0120833440999992008072211004-14950-040883FM-15+0914SBQV V0200901N003112200019N0112651N1+01601+01501999999ADDGA1021+002401999GF102991999999999999999999MA1102401999999REMMET051METAR SBQV 221100Z 09006KT 9999 FEW008 16/15 Q1024;
0120833440999992008072212004-14950-040883FM-15+0914SBQV V0200901N005112200019N0112651N1+02001+01401999999ADDGA1021+007501999GF102991999999999999999999MA1102511999999REMMET051METAR SBQV 221200Z 09010KT 9999 FEW025 20/14 Q1025;
0120833440999992008072213004-14950-040883FM-15+0914SBQV V0200801N004612200019N0112651N1+02201+01201999999ADDGA1021+009001999GF102991999999999999999999MA1102511999999REMMET051METAR SBQV 221300Z 08009KT 9999 FEW030 22/12 Q1025;
0120833440999992008072214004-14950-040883FM-15+0914SBQV V0200801N004110105019N0112651N1+02401+01201999999ADDGA1071+010501999GF107991999999999999999999MA1102511999999REMMET051METAR SBQV 221400Z 08008KT 9999 BKN035 24/12 Q1025;
0120833440999992008072215004-14950-040883FM-15+0914SBQV V0200801N003110105019N0112651N1+02401+01201999999ADDGA1071+010501999GF107991999999999999999999MA1102401999999REMMET051METAR SBQV 221500Z 08006KT 9999 BKN035 24/12 Q1024;
0120833440999992008072216004-14950-040883FM-15+0914SBQV V0200501N003612200019N0112651N1+02501+01201999999ADDGA1041+010501999GF104991999999999999999999MA1102301999999REMMET051METAR SBQV 221600Z 05007KT 9999 SCT035 25/12 Q1023;
0120833440999992008072217004-14950-040883FM-15+0914SBQV V0201101N005112200019N0112651N1+02401+01201999999ADDGA1041+010501999GF104991999999999999999999MA1102201999999REMMET051METAR SBQV 221700Z 11010KT 9999 SCT035 24/12 Q1022;
0120833440999992008072218004-14950-040883FM-15+0914SBQV V0200801N004612200019N0112651N1+02401+01301999999ADDGA1041+010501999GF104991999999999999999999MA1102201999999REMMET051METAR SBQV 221800Z 08009KT 9999 SCT035 24/13 Q1022;
0120833440999992008072219004-14950-040883FM-15+0914SBQV V0200901N005112200019N0112651N1+02301+01401999999ADDGA1041+009001999GF104991999999999999999999MA1102201999999REMMET051METAR SBQV 221900Z 09010KT 9999 SCT030 23/14 Q1022;
0120833440999992008072220004-14950-040883FM-15+0914SBQV V0200901N005712200019N0112651N1+02101+01501999999ADDGA1021+007501999GF102991999999999999999999MA1102201999999REMMET051METAR SBQV 222000Z 09011KT 9999 FEW025 21/15 Q1022;
0120833440999992008072221004-14950-040883FM-15+0914SBQV V0200901N003612200019N0112651N1+01901+01501999999ADDGA1021+006001999GF102991999999999999999999MA1102201999999REMMET051METAR SBQV 222100Z 09007KT 9999 FEW020 19/15 Q1022;
0072833440999992008072222004-14950-040883FM-15+0914SBQV V0200801N00361220001CN0099001N1+01801+01501999999ADDMA1102201999999REMMET045METAR SBQV 222200Z 08007KT CAVOK 18/15 Q1022;
0072833440999992008072223004-14950-040883FM-15+0914SBQV V0200801N00461220001CN0099001N1+01701+01601999999ADDMA1102301999999REMMET045METAR SBQV 222300Z 08009KT CAVOK 17/16 Q1023;
0120833440999992008072311004-14950-040883FM-15+0914SBQV V0200501N003110030019N0112651N1+01701+01501999999ADDGA1071+003001999GF107991999999999999999999MA1102401999999REMMET051METAR SBQV 231100Z 05006KT 9999 BKN010 17/15 Q1024;
0120833440999992008072312004-14950-040883FM-15+0914SBQV V0200901N002610033019N0112651N1+01701+01501999999ADDGA1071+003301999GF107991999999999999999999MA1102401999999REMMET051METAR SBQV 231200Z 09005KT 9999 BKN011 17/15 Q1024;
0120833440999992008072313004-14950-040883FM-15+0914SBQV V0201001N002610045019N0112651N1+01901+01501999999ADDGA1071+004501999GF107991999999999999999999MA1102401999999REMMET051METAR SBQV 231300Z 10005KT 9999 BKN015 19/15 Q1024;
0120833440999992008072314004-14950-040883FM-15+0914SBQV V0201001N002610048019N0112651N1+02101+01501999999ADDGA1071+004801999GF107991999999999999999999MA1102401999999REMMET051METAR SBQV 231400Z 10005KT 9999 BKN016 21/15 Q1024;
0120833440999992008072316004-14950-040883FM-15+0914SBQV V0201601N002110060019N0112651N1+02401+01201999999ADDGA1071+006001999GF107991999999999999999999MA1102201999999REMMET051METAR SBQV 231600Z 16004KT 9999 BKN020 24/12 Q1022;
0120833440999992008072317004-14950-040883FM-15+0914SBQV V0201601N002110060019N0112651N1+02501+01101999999ADDGA1071+006001999GF107991999999999999999999MA1102101999999REMMET051METAR SBQV 231700Z 16004KT 9999 BKN020 25/11 Q1021;
0120833440999992008072318004-14950-040883FM-15+0914SBQV V0201001N003612200019N0112651N1+02501+01301999999ADDGA1041+006001999GF104991999999999999999999MA1102001999999REMMET051METAR SBQV 231800Z 10007KT 9999 SCT020 25/13 Q1020;
0120833440999992008072319004-14950-040883FM-15+0914SBQV V0201201N004612200019N0112651N1+02401+01401999999ADDGA1041+006001999GF104991999999999999999999MA1102001999999REMMET051METAR SBQV 231900Z 12009KT 9999 SCT020 24/14 Q1020;
0120833440999992008072320004-14950-040883FM-15+0914SBQV V0201201N004612200019N0112651N1+02201+01201999999ADDGA1021+005401999GF102991999999999999999999MA1102001999999REMMET051METAR SBQV 232000Z 12009KT 9999 FEW018 22/12 Q1020;
0120833440999992008072321004-14950-040883FM-15+0914SBQV V0201101N002612200019N0112651N1+02001+01301999999ADDGA1021+004801999GF102991999999999999999999MA1102101999999REMMET051METAR SBQV 232100Z 11005KT 9999 FEW016 20/13 Q1021;
0072833440999992008072323004-14950-040883FM-15+0914SBQV V0201001N00051220001CN0099001N1+01501+01301999999ADDMA1102101999999REMMET045METAR SBQV 232300Z 10001KT CAVOK 15/13 Q1021;
0120833440999992008072411004-14950-040883FM-15+0914SBQV V0209999C000012200019N0112651N1+01701+01601999999ADDGA1021+001801999GF102991999999999999999999MA1102201999999REMMET051METAR SBQV 241100Z 00000KT 9999 FEW006 17/16 Q1022;
0120833440999992008072412004-14950-040883FM-15+0914SBQV V0200101N001012200019N0112651N1+02001+01401999999ADDGA1021+003901999GF102991999999999999999999MA1102201999999REMMET051METAR SBQV 241200Z 01002KT 9999 FEW013 20/14 Q1022;
0120833440999992008072413004-14950-040883FM-15+0914SBQV V0201301N001512200019N0112651N1+02201+01301999999ADDGA1041+004801999GF104991999999999999999999MA1102201999999REMMET051METAR SBQV 241300Z 13003KT 9999 SCT016 22/13 Q1022;
0120833440999992008072414004-14950-040883FM-15+0914SBQV V0200501N001012200019N0112651N1+02301+01101999999ADDGA1021+006001999GF102991999999999999999999MA1102201999999REMMET051METAR SBQV 241400Z 05002KT 9999 FEW020 23/11 Q1022;
0120833440999992008072415004-14950-040883FM-15+0914SBQV V0202101N001512200019N0112651N1+02401+01201999999ADDGA1021+007501999GF102991999999999999999999MA1102101999999REMMET051METAR SBQV 241500Z 21003KT 9999 FEW025 24/12 Q1021;
0120833440999992008072416004-14950-040883FM-15+0914SBQV V0201501N002112200019N0112651N1+02501+01001999999ADDGA1021+007501999GF102991999999999999999999MA1102001999999REMMET051METAR SBQV 241600Z 15004KT 9999 FEW025 25/10 Q1020;
0120833440999992008072417004-14950-040883FM-15+0914SBQV V0201101N003112200019N0112651N1+02601+01201999999ADDGA1021+009001999GF102991999999999999999999MA1102001999999REMMET051METAR SBQV 241700Z 11006KT 9999 FEW030 26/12 Q1020;
0120833440999992008072418004-14950-040883FM-15+0914SBQV V0201201N004112200019N0112651N1+02601+01201999999ADDGA1021+009001999GF102991999999999999999999MA1102001999999REMMET051METAR SBQV 241800Z 12008KT 9999 FEW030 26/12 Q1020;
0072833440999992008072419004-14950-040883FM-15+0914SBQV V0201301N00511220001CN0099001N1+02501+01201999999ADDMA1102001999999REMMET045METAR SBQV 241900Z 13010KT CAVOK 25/12 Q1020;
0072833440999992008072420004-14950-040883FM-15+0914SBQV V0201301N00621220001CN0099001N1+02301+01101999999ADDMA1102001999999REMMET045METAR SBQV 242000Z 13012KT CAVOK 23/11 Q1020;
0072833440999992008072421004-14950-040883FM-15+0914SBQV V0201101N00311220001CN0099001N1+02001+01201999999ADDMA1102001999999REMMET045METAR SBQV 242100Z 11006KT CAVOK 20/12 Q1020;
0072833440999992008072422004-14950-040883FM-15+0914SBQV V0201001N00261220001CN0099001N1+01901+01201999999ADDMA1102101999999REMMET045METAR SBQV 242200Z 10005KT CAVOK 19/12 Q1021;
0072833440999992008072423004-14950-040883FM-15+0914SBQV V0200901N00261220001CN0099001N1+01801+01201999999ADDMA1102101999999REMMET045METAR SBQV 242300Z 09005KT CAVOK 18/12 Q1021;
0125833440999992008072511004-14950-040883FM-15+0914SBQV V0201001N003612200019N0112651N1+01501+01501999999ADDGA1021+003901999GF102991999999999999999999MA1102201999999REMMET056METAR SBQV 251100Z 10007KT 9999 FEW013 15/15 Q1022 REFG;
0120833440999992008072512004-14950-040883FM-15+0914SBQV V0200901N003112200019N0112651N1+01901+01401999999ADDGA1021+004801999GF102991999999999999999999MA1102301999999REMMET051METAR SBQV 251200Z 09006KT 9999 FEW016 19/14 Q1023;
0120833440999992008072513004-14950-040883FM-15+0914SBQV V0201201N002612200019N0112651N1+02001+01401999999ADDGA1021+005401999GF102991999999999999999999MA1102301999999REMMET051METAR SBQV 251300Z 12005KT 9999 FEW018 20/14 Q1023;
0120833440999992008072514004-14950-040883FM-15+0914SBQV V0201101N003112200019N0112651N1+02301+01301999999ADDGA1021+006001999GF102991999999999999999999MA1102201999999REMMET051METAR SBQV 251400Z 11006KT 9999 FEW020 23/13 Q1022;
0072833440999992008072515004-14950-040883FM-15+0914SBQV V0200701N00211220001CN0099001N1+02501+01001999999ADDMA1102101999999REMMET045METAR SBQV 251500Z 07004KT CAVOK 25/10 Q1021;
0072833440999992008072516004-14950-040883FM-15+0914SBQV V0200601N00151220001CN0099001N1+02601+00601999999ADDMA1102001999999REMMET045METAR SBQV 251600Z 06003KT CAVOK 26/06 Q1020;
0072833440999992008072517004-14950-040883FM-15+0914SBQV V0200901N00311220001CN0099001N1+02701+00701999999ADDMA1101901999999REMMET045METAR SBQV 251700Z 09006KT CAVOK 27/07 Q1019;
0072833440999992008072518004-14950-040883FM-15+0914SBQV V0201101N00361220001CN0099001N1+02701+00801999999ADDMA1101901999999REMMET045METAR SBQV 251800Z 11007KT CAVOK 27/08 Q1019;
0072833440999992008072519004-14950-040883FM-15+0914SBQV V0201501N00461220001CN0099001N1+02601+01201999999ADDMA1101901999999REMMET045METAR SBQV 251900Z 15009KT CAVOK 26/12 Q1019;
0072833440999992008072520004-14950-040883FM-15+0914SBQV V0201501N00621220001CN0099001N1+02301+01301999999ADDMA1102001999999REMMET045METAR SBQV 252000Z 15012KT CAVOK 23/13 Q1020;
0072833440999992008072521004-14950-040883FM-15+0914SBQV V0201301N00361220001CN0099001N1+02001+01301999999ADDMA1102001999999REMMET045METAR SBQV 252100Z 13007KT CAVOK 20/13 Q1020;
0072833440999992008072522004-14950-040883FM-15+0914SBQV V0201201N00261220001CN0099001N1+01901+01301999999ADDMA1102101999999REMMET045METAR SBQV 252200Z 12005KT CAVOK 19/13 Q1021;
0072833440999992008072523004-14950-040883FM-15+0914SBQV V0201201N00261220001CN0099001N1+01801+01301999999ADDMA1102101999999REMMET045METAR SBQV 252300Z 12005KT CAVOK 18/13 Q1021;
0078833440999992008072610154-14950-040883FM-16+0914SBQV V0209999C000012200019N0099001N1+01501+01501999999ADDMA1102201999999REMMET051METAR SBQV 261015Z SPECI 00000KT CAVOK 15/15 Q1022;
0072833440999992008072611004-14950-040883FM-15+0914SBQV V0209999C00001220001CN0099001N1+01901+01501999999ADDMA1102301999999REMMET045METAR SBQV 261100Z 00000KT CAVOK 19/15 Q1023;
0072833440999992008072612004-14950-040883FM-15+0914SBQV V0201101N00261220001CN0099001N1+02201+01401999999ADDMA1102301999999REMMET045METAR SBQV 261200Z 11005KT CAVOK 22/14 Q1023;
0072833440999992008072613004-14950-040883FM-15+0914SBQV V0201501N00411220001CN0099001N1+02501+00901999999ADDMA1102401999999REMMET045METAR SBQV 261300Z 15008KT CAVOK 25/09 Q1024;
0072833440999992008072614004-14950-040883FM-15+0914SBQV V0201501N00511220001CN0099001N1+02701+00801999999ADDMA1102301999999REMMET045METAR SBQV 261400Z 15010KT CAVOK 27/08 Q1023;
0072833440999992008072615004-14950-040883FM-15+0914SBQV V0201401N00621220001CN0099001N1+02701+00601999999ADDMA1102301999999REMMET045METAR SBQV 261500Z 14012KT CAVOK 27/06 Q1023;
0120833440999992008072616004-14950-040883FM-15+0914SBQV V0201301N007712200019N0112651N1+02701+00601999999ADDGA1021+006001999GF102991999999999999999999MA1102201999999REMMET051METAR SBQV 261600Z 13015KT 9999 FEW020 27/06 Q1022;
0120833440999992008072617004-14950-040883FM-15+0914SBQV V0201001N007212200019N0112651N1+02601+00901999999ADDGA1021+006001999GF102991999999999999999999MA1102201999999REMMET051METAR SBQV 261700Z 10014KT 9999 FEW020 26/09 Q1022;
0120833440999992008072618004-14950-040883FM-15+0914SBQV V0201101N007712200019N0112651N1+02501+01101999999ADDGA1021+006001999GF102991999999999999999999MA1102201999999REMMET051METAR SBQV 261800Z 11015KT 9999 FEW020 25/11 Q1022;
0120833440999992008072619004-14950-040883FM-15+0914SBQV V0201101N007212200019N0112651N1+02401+01201999999ADDGA1021+005401999GF102991999999999999999999MA1102201999999REMMET051METAR SBQV 261900Z 11014KT 9999 FEW018 24/12 Q1022;
0120833440999992008072620004-14950-040883FM-15+0914SBQV V0201101N007212200019N0112651N1+02201+01301999999ADDGA1021+004801999GF102991999999999999999999MA1102201999999REMMET051METAR SBQV 262000Z 11014KT 9999 FEW016 22/13 Q1022;
0072833440999992008072621004-14950-040883FM-15+0914SBQV V0201201N00571220001CN0099001N1+02001+01401999999ADDMA1102301999999REMMET045METAR SBQV 262100Z 12011KT CAVOK 20/14 Q1023;
0072833440999992008072622004-14950-040883FM-15+0914SBQV V0201201N00621220001CN0099001N1+01901+01401999999ADDMA1102301999999REMMET045METAR SBQV 262200Z 12012KT CAVOK 19/14 Q1023;
0143833440999992008072711004-14950-040883FM-15+0914SBQV V0201201N005110021019N0112651N1+01601+01601999999ADDGA1021+001201999GA2071+002101999GF107991999999999999999999MA1102511999999REMMET058METAR SBQV 271100Z 12010KT 9999 FEW004 BKN007 16/16 Q1025;
0143833440999992008072712004-14950-040883FM-15+0914SBQV V0201201N006210021019N0070001N1+01701+01601999999ADDGA1021+001201999GA2071+002101999GF107991999999999999999999MA1102611999999REMMET058METAR SBQV 271200Z 12012KT 7000 FEW004 BKN007 17/16 Q1026;
0143833440999992008072713004-14950-040883FM-15+0914SBQV V0201301N006210021019N0060001N1+01801+01701999999ADDGA1021+001201999GA2071+002101999GF107991999999999999999999MA1102611999999REMMET058METAR SBQV 271300Z 13012KT 6000 FEW004 BKN007 18/17 Q1026;
0143833440999992008072714004-14950-040883FM-15+0914SBQV V0201101N006210045019N0112651N1+02001+01701999999ADDGA1041+002701999GA2071+004501999GF107991999999999999999999MA1102611999999REMMET058METAR SBQV 271400Z 11012KT 9999 SCT009 BKN015 20/17 Q1026;
0143833440999992008072716004-14950-040883FM-15+0914SBQV V0201101N006210045019N0112651N1+02101+01701999999ADDGA1041+002701999GA2071+004501999GF107991999999999999999999MA1102511999999REMMET058METAR SBQV 271600Z 11012KT 9999 SCT009 BKN015 21/17 Q1025;
0143833440999992008072717004-14950-040883FM-15+0914SBQV V0201101N006210048019N0112651N1+02101+01601999999ADDGA1021+003001999GA2071+004801999GF107991999999999999999999MA1102401999999REMMET058METAR SBQV 271700Z 11012KT 9999 FEW010 BKN016 21/16 Q1024;
0143833440999992008072718004-14950-040883FM-15+0914SBQV V0201401N005110048019N0112651N1+02101+01701999999ADDGA1021+003001999GA2071+004801999GF107991999999999999999999MA1102301999999REMMET058METAR SBQV 271800Z 14010KT 9999 FEW010 BKN016 21/17 Q1023;
0143833440999992008072719004-14950-040883FM-15+0914SBQV V0201301N005712200019N0112651N1+02001+01701999999ADDGA1041+002701999GA2041+004501999GF104991999999999999999999MA1102401999999REMMET058METAR SBQV 271900Z 13011KT 9999 SCT009 SCT015 20/17 Q1024;
0153833440999992008072720004-14950-040883FM-15+0914SBQV V0201301N005710027019N0020001N1+01701+01701999999ADDGA1041+001801999GA2071+002701999GF107991999999999999999999MA1102401999999MW1511REMMET062METAR SBQV 272000Z 13011KT 2000 -DZ SCT006 BKN009 17/17 Q1024;
0143833440999992008072721004-14950-040883FM-15+0914SBQV V0201201N004610018019N0112651N1+01701+01701999999ADDGA1071+001801999GA2071+002701999GF107991999999999999999999MA1102401999999REMMET058METAR SBQV 272100Z 12009KT 9999 BKN006 BKN009 17/17 Q1024;
0120833440999992008072722004-14950-040883FM-15+0914SBQV V0201201N004110018019N0112651N1+01701+01701999999ADDGA1071+001801999GF107991999999999999999999MA1102511999999REMMET051METAR SBQV 272200Z 12008KT 9999 BKN006 17/17 Q1025;
0136833440999992008072811004-14950-040883FM-15+0914SBQV V0201301N00621220001CN0112651N1+01501+01401999999ADDGA1071+002701999GA2041+004501999MA1102611999999REMMET058METAR SBQV 281100Z 13012KT 9999 BKN009 SCT015 15/14 Q1026;EQDQ01+000042SCOTCV
0120833440999992008072812004-14950-040883FM-15+0914SBQV V0201301N007210033019N0112651N1+01601+01401999999ADDGA1071+003301999GF107991999999999999999999MA1102711999999REMMET051METAR SBQV 281200Z 13014KT 9999 BKN011 16/14 Q1027;
0120833440999992008072813004-14950-040883FM-15+0914SBQV V0201301N006710033019N0112651N1+01601+01401999999ADDGA1071+003301999GF107991999999999999999999MA1102711999999REMMET051METAR SBQV 281300Z 13013KT 9999 BKN011 16/14 Q1027;
0143833440999992008072814004-14950-040883FM-15+0914SBQV V0201301N006710045019N0112651N1+01901+01401999999ADDGA1041+003901999GA2071+004501999GF107991999999999999999999MA1102711999999REMMET058METAR SBQV 281400Z 13013KT 9999 SCT013 BKN015 19/14 Q1027;
0120833440999992008072815004-14950-040883FM-15+0914SBQV V0201301N007212200019N0112651N1+02101+01401999999ADDGA1021+005401999GF102991999999999999999999MA1102611999999REMMET051METAR SBQV 281500Z 13014KT 9999 FEW018 21/14 Q1026;
0120833440999992008072816004-14950-040883FM-15+0914SBQV V0201401N006212200019N0112651N1+02301+01401999999ADDGA1021+006001999GF102991999999999999999999MA1102401999999REMMET051METAR SBQV 281600Z 14012KT 9999 FEW020 23/14 Q1024;
0120833440999992008072817004-14950-040883FM-15+0914SBQV V0201601N005712200019N0112651N1+02301+01401999999ADDGA1041+006001999GF104991999999999999999999MA1102301999999REMMET051METAR SBQV 281700Z 16011KT 9999 SCT020 23/14 Q1023;
0120833440999992008072818004-14950-040883FM-15+0914SBQV V0201301N005712200019N0112651N1+02301+01401999999ADDGA1021+006001999GF102991999999999999999999MA1102301999999REMMET051METAR SBQV 281800Z 13011KT 9999 FEW020 23/14 Q1023;
0120833440999992008072819004-14950-040883FM-15+0914SBQV V0201201N006212200019N0112651N1+02101+01201999999ADDGA1021+006001999GF102991999999999999999999MA1102301999999REMMET051METAR SBQV 281900Z 12012KT 9999 FEW020 21/12 Q1023;
0120833440999992008072820004-14950-040883FM-15+0914SBQV V0201201N005112200019N0112651N1+02001+01201999999ADDGA1021+006001999GF102991999999999999999999MA1102301999999REMMET051METAR SBQV 282000Z 12010KT 9999 FEW020 20/12 Q1023;
0120833440999992008072821004-14950-040883FM-15+0914SBQV V0201101N003612200019N0112651N1+01801+01201999999ADDGA1021+004801999GF102991999999999999999999MA1102301999999REMMET051METAR SBQV 282100Z 11007KT 9999 FEW016 18/12 Q1023;
0072833440999992008072822004-14950-040883FM-15+0914SBQV V0201101N00411220001CN0099001N1+01701+01201999999ADDMA1102401999999REMMET045METAR SBQV 282200Z 11008KT CAVOK 17/12 Q1024;
0072833440999992008072823004-14950-040883FM-15+0914SBQV V0201001N00311220001CN0099001N1+01601+01201999999ADDMA1102401999999REMMET045METAR SBQV 282300Z 10006KT CAVOK 16/12 Q1024;
0120833440999992008072911004-14950-040883FM-15+0914SBQV V0201001N005112200019N0112651N1+01601+01301999999ADDGA1021+004501999GF102991999999999999999999MA1102511999999REMMET051METAR SBQV 291100Z 10010KT 9999 FEW015 16/13 Q1025;
0120833440999992008072912004-14950-040883FM-15+0914SBQV V0201001N005712200019N0112651N1+01901+01201999999ADDGA1021+009001999GF102991999999999999999999MA1102511999999REMMET051METAR SBQV 291200Z 10011KT 9999 FEW030 19/12 Q1025;
0120833440999992008072913004-14950-040883FM-15+0914SBQV V0201001N005712200019N0112651N1+02001+01201999999ADDGA1021+009001999GF102991999999999999999999MA1102511999999REMMET051METAR SBQV 291300Z 10011KT 9999 FEW030 20/12 Q1025;
0120833440999992008072914004-14950-040883FM-15+0914SBQV V0201301N004112200019N0112651N1+02201+01201999999ADDGA1021+010501999GF102991999999999999999999MA1102401999999REMMET051METAR SBQV 291400Z 13008KT 9999 FEW035 22/12 Q1024;
0143833440999992008072915004-14950-040883FM-15+0914SBQV V0200901N004110300019N0112651N1+02301+01201999999ADDGA1021+010501999GA2071+030001999GF107991999999999999999999MA1102301999999REMMET058METAR SBQV 291500Z 09008KT 9999 FEW035 BKN100 23/12 Q1023;
0143833440999992008072916004-14950-040883FM-15+0914SBQV V0200701N003610300019N0112651N1+02401+01201999999ADDGA1041+010501999GA2071+030001999GF107991999999999999999999MA1102201999999REMMET058METAR SBQV 291600Z 07007KT 9999 SCT035 BKN100 24/12 Q1022;
0143833440999992008072917004-14950-040883FM-15+0914SBQV V0200701N005110300019N0112651N1+02401+01201999999ADDGA1021+010501999GA2071+030001999GF107991999999999999999999MA1102201999999REMMET058METAR SBQV 291700Z 07010KT 9999 FEW035 BKN100 24/12 Q1022;
0143833440999992008072918004-14950-040883FM-15+0914SBQV V0201201N005112200019N0112651N1+02401+01301999999ADDGA1041+010501999GA2041+030001999GF104991999999999999999999MA1102101999999REMMET058METAR SBQV 291800Z 12010KT 9999 SCT035 SCT100 24/13 Q1021;
0120833440999992008072919004-14950-040883FM-15+0914SBQV V0201101N005112200019N0112651N1+02201+01301999999ADDGA1041+007501999GF104991999999999999999999MA1102101999999REMMET051METAR SBQV 291900Z 11010KT 9999 SCT025 22/13 Q1021;
0120833440999992008072920004-14950-040883FM-15+0914SBQV V0201401N006212200019N0112651N1+02101+01401999999ADDGA1021+006001999GF102991999999999999999999MA1102101999999REMMET051METAR SBQV 292000Z 14012KT 9999 FEW020 21/14 Q1021;
0120833440999992008072921004-14950-040883FM-15+0914SBQV V0201301N004112200019N0112651N1+01901+01301999999ADDGA1021+004801999GF102991999999999999999999MA1102201999999REMMET051METAR SBQV 292100Z 13008KT 9999 FEW016 19/13 Q1022;
0120833440999992008072922004-14950-040883FM-15+0914SBQV V0201201N003112200019N0112651N1+01701+01401999999ADDGA1021+004501999GF102991999999999999999999MA1102201999999REMMET051METAR SBQV 292200Z 12006KT 9999 FEW015 17/14 Q1022;
0120833440999992008072923004-14950-040883FM-15+0914SBQV V0201301N002612200019N0112651N1+01701+01401999999ADDGA1021+003901999GF102991999999999999999999MA1102201999999REMMET051METAR SBQV 292300Z 13005KT 9999 FEW013 17/14 Q1022;
0120833440999992008073011004-14950-040883FM-15+0914SBQV V0200901N003610027019N0112651N1+01601+01501999999ADDGA1071+002701999GF107991999999999999999999MA1102301999999REMMET051METAR SBQV 301100Z 09007KT 9999 BKN009 16/15 Q1023;
0143833440999992008073012004-14950-040883FM-15+0914SBQV V0200901N004110045019N0112651N1+01801+01501999999ADDGA1041+003901999GA2071+004501999GF107991999999999999999999MA1102301999999REMMET058METAR SBQV 301200Z 09008KT 9999 SCT013 BKN015 18/15 Q1023;
0143833440999992008073013004-14950-040883FM-15+0914SBQV V0201001N004610045019N0112651N1+01901+01601999999ADDGA1041+003901999GA2071+004501999GF107991999999999999999999MA1102301999999REMMET058METAR SBQV 301300Z 10009KT 9999 SCT013 BKN015 19/16 Q1023;
0143833440999992008073014004-14950-040883FM-15+0914SBQV V0200801N005110048019N0112651N1+02101+01501999999ADDGA1021+003901999GA2071+004801999GF107991999999999999999999MA1102301999999REMMET058METAR SBQV 301400Z 08010KT 9999 FEW013 BKN016 21/15 Q1023;
0120833440999992008073015004-14950-040883FM-15+0914SBQV V0200801N005110048019N0112651N1+02201+01601999999ADDGA1071+004801999GF107991999999999999999999MA1102301999999REMMET051METAR SBQV 301500Z 08010KT 9999 BKN016 22/16 Q1023;
0120833440999992008073016004-14950-040883FM-15+0914SBQV V0200701N003612200019N0112651N1+02201+01401999999ADDGA1041+005401999GF104991999999999999999999MA1102101999999REMMET051METAR SBQV 301600Z 07007KT 9999 SCT018 22/14 Q1021;
0120833440999992008073017004-14950-040883FM-15+0914SBQV V0201001N004612200019N0112651N1+02401+01201999999ADDGA1041+006001999GF104991999999999999999999MA1102001999999REMMET051METAR SBQV 301700Z 10009KT 9999 SCT020 24/12 Q1020;
0120833440999992008073018004-14950-040883FM-15+0914SBQV V0201301N003612200019N0112651N1+02501+01201999999ADDGA1041+006001999GF104991999999999999999999MA1102001999999REMMET051METAR SBQV 301800Z 13007KT 9999 SCT020 25/12 Q1020;
0120833440999992008073019004-14950-040883FM-15+0914SBQV V0200801N004112200019N0112651N1+02301+01101999999ADDGA1041+006001999GF104991999999999999999999MA1101901999999REMMET051METAR SBQV 301900Z 08008KT 9999 SCT020 23/11 Q1019;
0120833440999992008073020004-14950-040883FM-15+0914SBQV V0200801N004612200019N0112651N1+02201+00901999999ADDGA1021+006001999GF102991999999999999999999MA1101901999999REMMET051METAR SBQV 302000Z 08009KT 9999 FEW020 22/09 Q1019;
0120833440999992008073021004-14950-040883FM-15+0914SBQV V0200901N002612200019N0112651N1+01901+00801999999ADDGA1021+004801999GF102991999999999999999999MA1102001999999REMMET051METAR SBQV 302100Z 09005KT 9999 FEW016 19/08 Q1020;
0072833440999992008073022004-14950-040883FM-15+0914SBQV V0201001N00361220001CN0099001N1+01801+01301999999ADDMA1102001999999REMMET045METAR SBQV 302200Z 10007KT CAVOK 18/13 Q1020;
0072833440999992008073023004-14950-040883FM-15+0914SBQV V0200701N00261220001CN0099001N1+01801+01401999999ADDMA1102101999999REMMET045METAR SBQV 302300Z 07005KT CAVOK 18/14 Q1021;
0143833440999992008073111004-14950-040883FM-15+0914SBQV V0201201N003612200019N0112651N1+01801+01501999999ADDGA1021+004501999GA2041+090001999GF104991999999999999999999MA1102201999999REMMET058METAR SBQV 311100Z 12007KT 9999 FEW015 SCT300 18/15 Q1022;
0120833440999992008073112004-14950-040883FM-15+0914SBQV V0201101N004612200019N0112651N1+02101+01501999999ADDGA1021+004801999GF102991999999999999999999MA1102301999999REMMET051METAR SBQV 311200Z 11009KT 9999 FEW016 21/15 Q1023;
0120833440999992008073113004-14950-040883FM-15+0914SBQV V0201101N004612200019N0112651N1+02301+01201999999ADDGA1021+005401999GF102991999999999999999999MA1102301999999REMMET051METAR SBQV 311300Z 11009KT 9999 FEW018 23/12 Q1023;
0120833440999992008073114004-14950-040883FM-15+0914SBQV V0201001N004112200019N0112651N1+02501+01201999999ADDGA1041+006001999GF104991999999999999999999MA1102301999999REMMET051METAR SBQV 311400Z 10008KT 9999 SCT020 25/12 Q1023;
0120833440999992008073115004-14950-040883FM-15+0914SBQV V0201401N005112200019N0112651N1+02401+01301999999ADDGA1041+006001999GF104991999999999999999999MA1102201999999REMMET051METAR SBQV 311500Z 14010KT 9999 SCT020 24/13 Q1022;
0120833440999992008073116004-14950-040883FM-15+0914SBQV V0201001N004112200019N0112651N1+02401+01201999999ADDGA1041+007501999GF104991999999999999999999MA1102101999999REMMET051METAR SBQV 311600Z 10008KT 9999 SCT025 24/12 Q1021;
0120833440999992008073117004-14950-040883FM-15+0914SBQV V0200801N005712200019N0112651N1+02601+01401999999ADDGA1041+007501999GF104991999999999999999999MA1102001999999REMMET051METAR SBQV 311700Z 08011KT 9999 SCT025 26/14 Q1020;
0120833440999992008073118004-14950-040883FM-15+0914SBQV V0201001N005712200019N0112651N1+02501+01301999999ADDGA1021+007501999GF102991999999999999999999MA1102001999999REMMET051METAR SBQV 311800Z 10011KT 9999 FEW025 25/13 Q1020;
0120833440999992008073119004-14950-040883FM-15+0914SBQV V0201101N005712200019N0112651N1+02401+01301999999ADDGA1021+007501999GF102991999999999999999999MA1101901999999REMMET051METAR SBQV 311900Z 11011KT 9999 FEW025 24/13 Q1019;
0120833440999992008073120004-14950-040883FM-15+0914SBQV V0200901N005712200019N0112651N1+02201+01301999999ADDGA1021+007501999GF102991999999999999999999MA1102001999999REMMET051METAR SBQV 312000Z 09011KT 9999 FEW025 22/13 Q1020;
0072833440999992008073121004-14950-040883FM-15+0914SBQV V0201001N00361220001CN0099001N1+02001+01401999999ADDMA1102001999999REMMET045METAR SBQV 312100Z 10007KT CAVOK 20/14 Q1020;
0072833440999992008073122004-14950-040883FM-15+0914SBQV V0200901N00461220001CN0099001N1+01801+01501999999ADDMA1102101999999REMMET045METAR SBQV 312200Z 09009KT CAVOK 18/15 Q1021;
0072833440999992008073123004-14950-040883FM-15+0914SBQV V0200901N00411220001CN0099001N1+01801+01501999999ADDMA1102201999999REMMET045METAR SBQV 312300Z 09008KT CAVOK 18/15 Q1022;
0072833440999992008080100004-14950-040883FM-15+0914SBQV V0200801N00461220001CN0099001N1+01701+01501999999ADDMA1102201999999REMMET045METAR SBQV 010000Z 08009KT CAVOK 17/15 Q1022;
0072833440999992008080101004-14950-040883FM-15+0914SBQV V0201001N00461220001CN0099001N1+01601+01501999999ADDMA1102201999999REMMET045METAR SBQV 010100Z 10009KT CAVOK 16/15 Q1022;
0072833440999992008080102004-14950-040883FM-15+0914SBQV V0200901N00411220001CN0099001N1+01601+01501999999ADDMA1102201999999REMMET045METAR SBQV 010200Z 09008KT CAVOK 16/15 Q1022;
0072833440999992008080103004-14950-040883FM-15+0914SBQV V0200801N00411220001CN0099001N1+01701+01501999999ADDMA1102201999999REMMET045METAR SBQV 010300Z 08008KT CAVOK 17/15 Q1022;
0120833440999992008080111004-14950-040883FM-15+0914SBQV V0201001N004612200019N0112651N1+01801+01501999999ADDGA1041+003601999GF104991999999999999999999MA1102201999999REMMET051METAR SBQV 011100Z 10009KT 9999 SCT012 18/15 Q1022;
0120833440999992008080112004-14950-040883FM-15+0914SBQV V0200801N005710045019N0112651N1+01901+01501999999ADDGA1071+004501999GF107991999999999999999999MA1102301999999REMMET051METAR SBQV 011200Z 08011KT 9999 BKN015 19/15 Q1023;
0120833440999992008080113004-14950-040883FM-15+0914SBQV V0201201N005712200019N0112651N1+02201+01401999999ADDGA1021+006001999GF102991999999999999999999MA1102301999999REMMET051METAR SBQV 011300Z 12011KT 9999 FEW020 22/14 Q1023;
0120833440999992008080114004-14950-040883FM-15+0914SBQV V0201101N005112200019N0112651N1+02301+01301999999ADDGA1021+009001999GF102991999999999999999999MA1102201999999REMMET051METAR SBQV 011400Z 11010KT 9999 FEW030 23/13 Q1022;
0120833440999992008080115004-14950-040883FM-15+0914SBQV V0201001N004112200019N0112651N1+02401+01001999999ADDGA1041+009001999GF104991999999999999999999MA1102101999999REMMET051METAR SBQV 011500Z 10008KT 9999 SCT030 24/10 Q1021;
0143833440999992008080117004-14950-040883FM-15+0914SBQV V0201301N003612200019N0112651N1+02401+01001999999ADDGA1041+009001999GA2041+090001999GF104991999999999999999999MA1102001999999REMMET058METAR SBQV 011700Z 13007KT 9999 SCT030 SCT300 24/10 Q1020;
0143833440999992008080118004-14950-040883FM-15+0914SBQV V0201001N003612200019N0112651N1+02401+00901999999ADDGA1021+009001999GA2041+090001999GF104991999999999999999999MA1101901999999REMMET058METAR SBQV 011800Z 10007KT 9999 FEW030 SCT300 24/09 Q1019;
0143833440999992008080119004-14950-040883FM-15+0914SBQV V0201101N004612200019N0112651N1+02401+00901999999ADDGA1021+009001999GA2041+090001999GF104991999999999999999999MA1101901999999REMMET058METAR SBQV 011900Z 11009KT 9999 FEW030 SCT300 24/09 Q1019;
0143833440999992008080120004-14950-040883FM-15+0914SBQV V0201001N004612200019N0112651N1+02201+01001999999ADDGA1021+007501999GA2041+090001999GF104991999999999999999999MA1101901999999REMMET058METAR SBQV 012000Z 10009KT 9999 FEW025 SCT300 22/10 Q1019;
0143833440999992008080121004-14950-040883FM-15+0914SBQV V0201001N004112200019N0112651N1+02001+01101999999ADDGA1021+006001999GA2041+090001999GF104991999999999999999999MA1102001999999REMMET058METAR SBQV 012100Z 10008KT 9999 FEW020 SCT300 20/11 Q1020;
0072833440999992008080122004-14950-040883FM-15+0914SBQV V0201001N00311220001CN0099001N1+01901+01001999999ADDMA1102001999999REMMET045METAR SBQV 012200Z 10006KT CAVOK 19/10 Q1020;
0072833440999992008080123004-14950-040883FM-15+0914SBQV V0201001N00361220001CN0099001N1+01901+01001999999ADDMA1102101999999REMMET045METAR SBQV 012300Z 10007KT CAVOK 19/10 Q1021;
0091833440999992008080210154-14950-040883FM-16+0914SBQV V0201201N003612200019N0112651N1+01601+01401999999ADDMA1102101999999REMMET064METAR SBQV 021015Z SPECI 12007KT 9999 FEW013 SCT070 16/14 Q1021;
0143833440999992008080211004-14950-040883FM-15+0914SBQV V0201301N003612200019N0112651N1+01801+01401999999ADDGA1021+004501999GA2041+021001999GF104991999999999999999999MA1102101999999REMMET058METAR SBQV 021100Z 13007KT 9999 FEW015 SCT070 18/14 Q1021;
0143833440999992008080212004-14950-040883FM-15+0914SBQV V0201301N003612200019N0112651N1+02101+01501999999ADDGA1021+004801999GA2041+024001999GF104991999999999999999999MA1102201999999REMMET058METAR SBQV 021200Z 13007KT 9999 FEW016 SCT080 21/15 Q1022;
0143833440999992008080213004-14950-040883FM-15+0914SBQV V0200801N004112200019N0112651N1+02201+01501999999ADDGA1041+005401999GA2041+024001999GF104991999999999999999999MA1102101999999REMMET058METAR SBQV 021300Z 08008KT 9999 SCT018 SCT080 22/15 Q1021;
0143833440999992008080214004-14950-040883FM-15+0914SBQV V0200201N002612200019N0112651N1+02301+01501999999ADDGA1041+005401999GA2041+024001999GF104991999999999999999999MA1102101999999REMMET058METAR SBQV 021400Z 02005KT 9999 SCT018 SCT080 23/15 Q1021;
0143833440999992008080215004-14950-040883FM-15+0914SBQV V0200501N003112200019N0112651N1+02401+01501999999ADDGA1041+006001999GA2041+027001999GF104991999999999999999999MA1102001999999REMMET058METAR SBQV 021500Z 05006KT 9999 SCT020 SCT090 24/15 Q1020;
0120833440999992008080216004-14950-040883FM-15+0914SBQV V0200301N004110075019N0112651N1+02601+01401999999ADDGA1071+007501999GF107991999999999999999999MA1101901999999REMMET051METAR SBQV 021600Z 03008KT 9999 BKN025 26/14 Q1019;
0120833440999992008080217004-14950-040883FM-15+0914SBQV V0203501N002612200019N0112651N1+02501+01301999999ADDGA1041+007501999GF104991999999999999999999MA1101801999999REMMET051METAR SBQV 021700Z 35005KT 9999 SCT025 25/13 Q1018;
0120833440999992008080218004-14950-040883FM-15+0914SBQV V0200201N002112200019N0112651N1+02501+01401999999ADDGA1041+007501999GF104991999999999999999999MA1101691999999REMMET051METAR SBQV 021800Z 02004KT 9999 SCT025 25/14 Q1017;
0120833440999992008080220004-14950-040883FM-15+0914SBQV V0200101N002112200019N0112651N1+02401+01301999999ADDGA1041+007501999GF104991999999999999999999MA1101691999999REMMET051METAR SBQV 022000Z 01004KT 9999 SCT025 24/13 Q1017;
0120833440999992008080221004-14950-040883FM-15+0914SBQV V0201001N003612200019N0112651N1+02201+01601999999ADDGA1041+006001999GF104991999999999999999999MA1101801999999REMMET051METAR SBQV 022100Z 10007KT 9999 SCT020 22/16 Q1018;
0120833440999992008080222004-14950-040883FM-15+0914SBQV V0201001N003612200019N0112651N1+02001+01601999999ADDGA1021+004801999GF102991999999999999999999MA1101801999999REMMET051METAR SBQV 022200Z 10007KT 9999 FEW016 20/16 Q1018;
0120833440999992008080311004-14950-040883FM-15+0914SBQV V0200401N002112200019N0112651N1+01901+01701999999ADDGA1021+003001999GF102991999999999999999999MA1102001999999REMMET051METAR SBQV 031100Z 04004KT 9999 FEW010 19/17 Q1020;
0072833440999992008080312004-14950-040883FM-15+0914SBQV V0200101N00571220001CN0099001N1+02201+01601999999ADDMA1102001999999REMMET045METAR SBQV 031200Z 01011KT CAVOK 22/16 Q1020;
0072833440999992008080313004-14950-040883FM-15+0914SBQV V0200101N00461220001CN0099001N1+02501+01601999999ADDMA1102001999999REMMET045METAR SBQV 031300Z 01009KT CAVOK 25/16 Q1020;
0120833440999992008080314004-14950-040883FM-15+0914SBQV V0203301N002112200019N0112651N1+02701+01401999999ADDGA1021+012001999GF102991999999999999999999MA1102001999999REMMET051METAR SBQV 031400Z 33004KT 9999 FEW040 27/14 Q1020;
0120833440999992008080315004-14950-040883FM-15+0914SBQV V0200101N002612200019N0112651N1+02801+01401999999ADDGA1021+012001999GF102991999999999999999999MA1101901999999REMMET051METAR SBQV 031500Z 01005KT 9999 FEW040 28/14 Q1019;
0120833440999992008080316004-14950-040883FM-15+0914SBQV V0202601N001512200019N0112651N1+02801+01201999999ADDGA1041+012001999GF104991999999999999999999MA1101801999999REMMET051METAR SBQV 031600Z 26003KT 9999 SCT040 28/12 Q1018;
0120833440999992008080317004-14950-040883FM-15+0914SBQV V0203101N001512200019N0112651N1+02901+01201999999ADDGA1021+012001999GF102991999999999999999999MA1101691999999REMMET051METAR SBQV 031700Z 31003KT 9999 FEW040 29/12 Q1017;
0120833440999992008080318004-14950-040883FM-15+0914SBQV V0202701N002112200019N0112651N1+02901+01001999999ADDGA1021+012001999GF102991999999999999999999MA1101591999999REMMET051METAR SBQV 031800Z 27004KT 9999 FEW040 29/10 Q1016;
0120833440999992008080319004-14950-040883FM-15+0914SBQV V0203101N003612200019N0112651N1+02901+00901999999ADDGA1021+012001999GF102991999999999999999999MA1101591999999REMMET051METAR SBQV 031900Z 31007KT 9999 FEW040 29/09 Q1016;
0120833440999992008080320004-14950-040883FM-15+0914SBQV V0202801N002112200019N0112651N1+02801+01001999999ADDGA1021+010501999GF102991999999999999999999MA1101591999999REMMET051METAR SBQV 032000Z 28004KT 9999 FEW035 28/10 Q1016;
0120833440999992008080321004-14950-040883FM-15+0914SBQV V0209999C000012200019N0112651N1+02501+01201999999ADDGA1021+009001999GF102991999999999999999999MA1101591999999REMMET051METAR SBQV 032100Z 00000KT 9999 FEW030 25/12 Q1016;
0120833440999992008080322004-14950-040883FM-15+0914SBQV V0203401N000512200019N0112651N1+02301+01301999999ADDGA1021+007501999GF102991999999999999999999MA1101691999999REMMET051METAR SBQV 032200Z 34001KT 9999 FEW025 23/13 Q1017;
0120833440999992008080411004-14950-040883FM-15+0914SBQV V0200101N004612200019N0112651N1+02001+01801999999ADDGA1021+004501999GF102991999999999999999999MA1101901999999REMMET051METAR SBQV 041100Z 01009KT 9999 FEW015 20/18 Q1019;
0072833440999992008080412004-14950-040883FM-15+0914SBQV V0200401N00051220001CN0099001N1+02301+01801999999ADDMA1102001999999REMMET045METAR SBQV 041200Z 04001KT CAVOK 23/18 Q1020;
0072833440999992008080413004-14950-040883FM-15+0914SBQV V0203401N00151220001CN0099001N1+02601+01701999999ADDMA1102001999999REMMET045METAR SBQV 041300Z 34003KT CAVOK 26/17 Q1020;
0072833440999992008080414004-14950-040883FM-15+0914SBQV V0200601N00051220001CN0099001N1+02701+01401999999ADDMA1101901999999REMMET045METAR SBQV 041400Z 06001KT CAVOK 27/14 Q1019;
0120833440999992008080418004-14950-040883FM-15+0914SBQV V0201401N005112200019N0112651N1+03101+01101999999ADDGA1041+012001999GF104991999999999999999999MA1101591999999REMMET051METAR SBQV 041800Z 14010KT 9999 SCT040 31/11 Q1016;
0120833440999992008080419004-14950-040883FM-15+0914SBQV V0201501N005712200019N0112651N1+03001+01301999999ADDGA1021+012001999GF102991999999999999999999MA1101691999999REMMET051METAR SBQV 041900Z 15011KT 9999 FEW040 30/13 Q1017;
0120833440999992008080421004-14950-040883FM-15+0914SBQV V0201201N004112200019N0112651N1+02501+01201999999ADDGA1021+005401999GF102991999999999999999999MA1101691999999REMMET051METAR SBQV 042100Z 12008KT 9999 FEW018 25/12 Q1017;
0120833440999992008080422004-14950-040883FM-15+0914SBQV V0201101N003612200019N0112651N1+02401+01501999999ADDGA1021+004501999GF102991999999999999999999MA1101801999999REMMET051METAR SBQV 042200Z 11007KT 9999 FEW015 24/15 Q1018;
0120833440999992008080423004-14950-040883FM-15+0914SBQV V0201101N005712200019N0112651N1+02301+01701999999ADDGA1021+003901999GF102991999999999999999999MA1101901999999REMMET051METAR SBQV 042300Z 11011KT 9999 FEW013 23/17 Q1019;
0143833440999992008080511004-14950-040883FM-15+0914SBQV V0201101N003610210019N0112651N1+02001+01801999999ADDGA1041+003901999GA2071+021001999GF107991999999999999999999MA1102201999999REMMET058METAR SBQV 051100Z 11007KT 9999 SCT013 BKN070 20/18 Q1022;
0136833440999992008080512004-14950-040883FM-15+0914SBQV V0201001N00411220001CN0112651N1+02101+01801999999ADDGA1071+004501999GA2041+021001999MA1102301999999REMMET058METAR SBQV 051200Z 10008KT 9999 BKN015 SCT070 21/18 Q1023;EQDQ01+000042SCOTCV
0136833440999992008080513004-14950-040883FM-15+0914SBQV V0201101N00461220001CN0112651N1+02401+01801999999ADDGA1071+004801999GA2041+024001999MA1102301999999REMMET058METAR SBQV 051300Z 11009KT 9999 BKN016 SCT080 24/18 Q1023;EQDQ01+000042SCOTCV
0120833440999992008080514004-14950-040883FM-15+0914SBQV V0200801N005110054019N0112651N1+02501+01601999999ADDGA1071+005401999GF107991999999999999999999MA1102301999999REMMET051METAR SBQV 051400Z 08010KT 9999 BKN018 25/16 Q1023;
0120833440999992008080515004-14950-040883FM-15+0914SBQV V0201301N004110060019N0112651N1+02601+01601999999ADDGA1071+006001999GF107991999999999999999999MA1102201999999REMMET051METAR SBQV 051500Z 13008KT 9999 BKN020 26/16 Q1022;
0120833440999992008080516004-14950-040883FM-15+0914SBQV V0200901N004110075019N0112651N1+02701+01601999999ADDGA1071+007501999GF107991999999999999999999MA1102201999999REMMET051METAR SBQV 051600Z 09008KT 9999 BKN025 27/16 Q1022;
0120833440999992008080517004-14950-040883FM-15+0914SBQV V0201201N006212200019N0112651N1+02701+01601999999ADDGA1041+007501999GF104991999999999999999999MA1102001999999REMMET051METAR SBQV 051700Z 12012KT 9999 SCT025 27/16 Q1020;
0120833440999992008080518004-14950-040883FM-15+0914SBQV V0201101N005112200019N0112651N1+02701+01501999999ADDGA1041+007501999GF104991999999999999999999MA1102001999999REMMET051METAR SBQV 051800Z 11010KT 9999 SCT025 27/15 Q1020;
0120833440999992008080519004-14950-040883FM-15+0914SBQV V0201101N004612200019N0112651N1+02601+01501999999ADDGA1041+007501999GF104991999999999999999999MA1102001999999REMMET051METAR SBQV 051900Z 11009KT 9999 SCT025 26/15 Q1020;
0120833440999992008080520004-14950-040883FM-15+0914SBQV V0201001N006212200019N0112651N1+02501+01501999999ADDGA1021+018001999GF102991999999999999999999MA1102001999999REMMET051METAR SBQV 052000Z 10012KT 9999 FEW060 25/15 Q1020;
0120833440999992008080521004-14950-040883FM-15+0914SBQV V0201001N004612200019N0112651N1+02301+01601999999ADDGA1021+005401999GF102991999999999999999999MA1102001999999REMMET051METAR SBQV 052100Z 10009KT 9999 FEW018 23/16 Q1020;
0120833440999992008080522004-14950-040883FM-15+0914SBQV V0200901N004112200019N0112651N1+02201+01701999999ADDGA1021+004501999GF102991999999999999999999MA1102101999999REMMET051METAR SBQV 052200Z 09008KT 9999 FEW015 22/17 Q1021;
0072833440999992008080523004-14950-040883FM-15+0914SBQV V0200801N00511220001CN0099001N1+02001+01701999999ADDMA1102101999999REMMET045METAR SBQV 052300Z 08010KT CAVOK 20/17 Q1021;
0143833440999992008080611004-14950-040883FM-15+0914SBQV V0201101N004112200019N0112651N1+01801+01601999999ADDGA1021+003001999GA2041+004501999GF104991999999999999999999MA1102201999999REMMET058METAR SBQV 061100Z 11008KT 9999 FEW010 SCT015 18/16 Q1022;
0120833440999992008080612004-14950-040883FM-15+0914SBQV V0201101N006210048019N0112651N1+02001+01401999999ADDGA1071+004801999GF107991999999999999999999MA1102301999999REMMET051METAR SBQV 061200Z 11012KT 9999 BKN016 20/14 Q1023;
0120833440999992008080613004-14950-040883FM-15+0914SBQV V0201201N007210060019N0112651N1+02201+01401999999ADDGA1071+006001999GF107991999999999999999999MA1102301999999REMMET051METAR SBQV 061300Z 12014KT 9999 BKN020 22/14 Q1023;
0120833440999992008080614004-14950-040883FM-15+0914SBQV V0200901N006712200019N0112651N1+02401+01201999999ADDGA1041+007501999GF104991999999999999999999MA1102201999999REMMET051METAR SBQV 061400Z 09013KT 9999 SCT025 24/12 Q1022;
0120833440999992008080615004-14950-040883FM-15+0914SBQV V0201001N006712200019N0112651N1+02401+01401999999ADDGA1041+007501999GF104991999999999999999999MA1102201999999REMMET051METAR SBQV 061500Z 10013KT 9999 SCT025 24/14 Q1022;
0120833440999992008080617004-14950-040883FM-15+0914SBQV V0201001N006712200019N0112651N1+02501+01301999999ADDGA1041+009001999GF104991999999999999999999MA1102001999999REMMET051METAR SBQV 061700Z 10013KT 9999 SCT030 25/13 Q1020;
0120833440999992008080618004-14950-040883FM-15+0914SBQV V0201201N006712200019N0112651N1+02501+01301999999ADDGA1021+009001999GF102991999999999999999999MA1101901999999REMMET051METAR SBQV 061800Z 12013KT 9999 FEW030 25/13 Q1019;
0120833440999992008080619004-14950-040883FM-15+0914SBQV V0201101N006712200019N0112651N1+02301+01301999999ADDGA1021+007501999GF102991999999999999999999MA1102001999999REMMET051METAR SBQV 061900Z 11013KT 9999 FEW025 23/13 Q1020;
0120833440999992008080620004-14950-040883FM-15+0914SBQV V0201001N005712200019N0112651N1+02301+01301999999ADDGA1021+007501999GF102991999999999999999999MA1102001999999REMMET051METAR SBQV 062000Z 10011KT 9999 FEW025 23/13 Q1020;
0120833440999992008080621004-14950-040883FM-15+0914SBQV V0201001N004612200019N0112651N1+02101+01401999999ADDGA1021+007501999GF102991999999999999999999MA1102001999999REMMET051METAR SBQV 062100Z 10009KT 9999 FEW025 21/14 Q1020;
0072833440999992008080622004-14950-040883FM-15+0914SBQV V0200801N00461220001CN0099001N1+02001+01301999999ADDMA1102101999999REMMET045METAR SBQV 062200Z 08009KT CAVOK 20/13 Q1021;
0072833440999992008080623004-14950-040883FM-15+0914SBQV V0200901N00461220001CN0099001N1+01901+01301999999ADDMA1102101999999REMMET045METAR SBQV 062300Z 09009KT CAVOK 19/13 Q1021;
0143833440999992008080711004-14950-040883FM-15+0914SBQV V0201301N004110021019N0112651N1+01701+01701999999ADDGA1071+002101999GA2071+003301999GF107991999999999999999999MA1102201999999REMMET058METAR SBQV 071100Z 13008KT 9999 BKN007 BKN011 17/17 Q1022;
0120833440999992008080712004-14950-040883FM-15+0914SBQV V0201101N004610039019N0112651N1+01901+01601999999ADDGA1071+003901999GF107991999999999999999999MA1102301999999REMMET051METAR SBQV 071200Z 11009KT 9999 BKN013 19/16 Q1023;
0120833440999992008080713004-14950-040883FM-15+0914SBQV V0201001N005110045019N0112651N1+02101+01601999999ADDGA1071+004501999GF107991999999999999999999MA1102301999999REMMET051METAR SBQV 071300Z 10010KT 9999 BKN015 21/16 Q1023;
0120833440999992008080714004-14950-040883FM-15+0914SBQV V0201101N004610054019N0112651N1+02301+01601999999ADDGA1071+005401999GF107991999999999999999999MA1102201999999REMMET051METAR SBQV 071400Z 11009KT 9999 BKN018 23/16 Q1022;
0120833440999992008080715004-14950-040883FM-15+0914SBQV V0201301N004610054019N0112651N1+02301+01601999999ADDGA1071+005401999GF107991999999999999999999MA1102201999999REMMET051METAR SBQV 071500Z 13009KT 9999 BKN018 23/16 Q1022;
0120833440999992008080716004-14950-040883FM-15+0914SBQV V0200801N005110060019N0112651N1+02301+01601999999ADDGA1071+006001999GF107991999999999999999999MA1102101999999REMMET051METAR SBQV 071600Z 08010KT 9999 BKN020 23/16 Q1021;
0120833440999992008080717004-14950-040883FM-15+0914SBQV V0201101N004110060019N0112651N1+02401+01601999999ADDGA1071+006001999GF107991999999999999999999MA1102001999999REMMET051METAR SBQV 071700Z 11008KT 9999 BKN020 24/16 Q1020;
0120833440999992008080718004-14950-040883FM-15+0914SBQV V0201301N004110060019N0112651N1+02401+01601999999ADDGA1071+006001999GF107991999999999999999999MA1101901999999REMMET051METAR SBQV 071800Z 13008KT 9999 BKN020 24/16 Q1019;
0120833440999992008080719004-14950-040883FM-15+0914SBQV V0201401N005710054019N0112651N1+02201+01701999999ADDGA1071+005401999GF107991999999999999999999MA1102001999999REMMET051METAR SBQV 071900Z 14011KT 9999 BKN018 22/17 Q1020;
0120833440999992008080720004-14950-040883FM-15+0914SBQV V0201301N005712200019N0112651N1+02101+01701999999ADDGA1041+004801999GF104991999999999999999999MA1102001999999REMMET051METAR SBQV 072000Z 13011KT 9999 SCT016 21/17 Q1020;
0143833440999992008080811004-14950-040883FM-15+0914SBQV V0201001N003610900019N0112651N1+01901+01501999999ADDGA1021+006001999GA2071+090001999GF107991999999999999999999MA1102201999999REMMET058METAR SBQV 081100Z 10007KT 9999 FEW020 BKN300 19/15 Q1022;
0143833440999992008080812004-14950-040883FM-15+0914SBQV V0200901N004110900019N0112651N1+02001+01601999999ADDGA1021+009001999GA2071+090001999GF107991999999999999999999MA1102201999999REMMET058METAR SBQV 081200Z 09008KT 9999 FEW030 BKN300 20/16 Q1022;
0143833440999992008080813004-14950-040883FM-15+0914SBQV V0201001N003610900019N0112651N1+02301+01501999999ADDGA1021+010501999GA2071+090001999GF107991999999999999999999MA1102201999999REMMET058METAR SBQV 081300Z 10007KT 9999 FEW035 BKN300 23/15 Q1022;
0143833440999992008080814004-14950-040883FM-15+0914SBQV V0200401N002110120019N0112651N1+02501+01401999999ADDGA1071+012001999GA2071+090001999GF107991999999999999999999MA1102201999999REMMET058METAR SBQV 081400Z 04004KT 9999 BKN040 BKN300 25/14 Q1022;
0136833440999992008080815004-14950-040883FM-15+0914SBQV V0201101N00261220001CN0112651N1+02501+01301999999ADDGA1071+012001999GA2041+090001999MA1102101999999REMMET058METAR SBQV 081500Z 11005KT 9999 BKN040 SCT300 25/13 Q1021;EQDQ01+000042SCOTCV
0143833440999992008080816004-14950-040883FM-15+0914SBQV V0201301N002612200019N0112651N1+02501+01401999999ADDGA1041+012001999GA2041+090001999GF104991999999999999999999MA1102001999999REMMET058METAR SBQV 081600Z 13005KT 9999 SCT040 SCT300 25/14 Q1020;
0143833440999992008080817004-14950-040883FM-15+0914SBQV V0201801N002612200019N0112651N1+02701+01401999999ADDGA1041+012001999GA2041+090001999GF104991999999999999999999MA1101901999999REMMET058METAR SBQV 081700Z 18005KT 9999 SCT040 SCT300 27/14 Q1019;
0143833440999992008080818004-14950-040883FM-15+0914SBQV V0201101N003610900019N0112651N1+02601+01401999999ADDGA1021+012001999GA2071+090001999GF107991999999999999999999MA1101801999999REMMET058METAR SBQV 081800Z 11007KT 9999 FEW040 BKN300 26/14 Q1018;
0143833440999992008080819004-14950-040883FM-15+0914SBQV V0201101N003610900019N0112651N1+02601+01401999999ADDGA1021+012001999GA2071+090001999GF107991999999999999999999MA1101801999999REMMET058METAR SBQV 081900Z 11007KT 9999 FEW040 BKN300 26/14 Q1018;
0143833440999992008080820004-14950-040883FM-15+0914SBQV V0201301N005110900019N0112651N1+02401+01401999999ADDGA1021+010501999GA2071+090001999GF107991999999999999999999MA1101901999999REMMET058METAR SBQV 082000Z 13010KT 9999 FEW035 BKN300 24/14 Q1019;
0072833440999992008080821004-14950-040883FM-15+0914SBQV V0201101N00411220001CN0099001N1+02201+01401999999ADDMA1101901999999REMMET045METAR SBQV 082100Z 11008KT CAVOK 22/14 Q1019;
0072833440999992008080822004-14950-040883FM-15+0914SBQV V0201001N00261220001CN0099001N1+02001+01401999999ADDMA1101901999999REMMET045METAR SBQV 082200Z 10005KT CAVOK 20/14 Q1019;
0072833440999992008080823004-14950-040883FM-15+0914SBQV V0200601N00101220001CN0099001N1+01901+01401999999ADDMA1102001999999REMMET045METAR SBQV 082300Z 06002KT CAVOK 19/14 Q1020;
0120833440999992008080911004-14950-040883FM-15+0914SBQV V0201001N004110060019N0112651N1+01901+01501999999ADDGA1071+006001999GF107991999999999999999999MA1102301999999REMMET051METAR SBQV 091100Z 10008KT 9999 BKN020 19/15 Q1023;
0120833440999992008080912004-14950-040883FM-15+0914SBQV V0200901N005112200019N0112651N1+02001+01401999999ADDGA1041+006001999GF104991999999999999999999MA1102401999999REMMET051METAR SBQV 091200Z 09010KT 9999 SCT020 20/14 Q1024;
0120833440999992008080913004-14950-040883FM-15+0914SBQV V0201101N005112200019N0112651N1+02201+01201999999ADDGA1021+006001999GF102991999999999999999999MA1102401999999REMMET051METAR SBQV 091300Z 11010KT 9999 FEW020 22/12 Q1024;
0120833440999992008080914004-14950-040883FM-15+0914SBQV V0201201N004612200019N0112651N1+02301+01201999999ADDGA1021+006001999GF102991999999999999999999MA1102301999999REMMET051METAR SBQV 091400Z 12009KT 9999 FEW020 23/12 Q1023;
0072833440999992008080915004-14950-040883FM-15+0914SBQV V0200901N00361220001CN0099001N1+02501+01101999999ADDMA1102301999999REMMET045METAR SBQV 091500Z 09007KT CAVOK 25/11 Q1023;
0072833440999992008080916004-14950-040883FM-15+0914SBQV V0201101N00461220001CN0099001N1+02601+01101999999ADDMA1102201999999REMMET045METAR SBQV 091600Z 11009KT CAVOK 26/11 Q1022;
0072833440999992008080917004-14950-040883FM-15+0914SBQV V0201101N00411220001CN0099001N1+02701+01001999999ADDMA1102101999999REMMET045METAR SBQV 091700Z 11008KT CAVOK 27/10 Q1021;
0072833440999992008080918004-14950-040883FM-15+0914SBQV V0201201N00461220001CN0099001N1+02601+01101999999ADDMA1102001999999REMMET045METAR SBQV 091800Z 12009KT CAVOK 26/11 Q1020;
0072833440999992008080919004-14950-040883FM-15+0914SBQV V0201101N00411220001CN0099001N1+02501+01201999999ADDMA1102101999999REMMET045METAR SBQV 091900Z 11008KT CAVOK 25/12 Q1021;
0072833440999992008080920004-14950-040883FM-15+0914SBQV V0200901N00461220001CN0099001N1+02401+01201999999ADDMA1102101999999REMMET045METAR SBQV 092000Z 09009KT CAVOK 24/12 Q1021;
0072833440999992008080921004-14950-040883FM-15+0914SBQV V0201101N00411220001CN0099001N1+02201+01301999999ADDMA1102101999999REMMET045METAR SBQV 092100Z 11008KT CAVOK 22/13 Q1021;
0072833440999992008080922004-14950-040883FM-15+0914SBQV V0201001N00411220001CN0099001N1+02101+01401999999ADDMA1102201999999REMMET045METAR SBQV 092200Z 10008KT CAVOK 21/14 Q1022;
0072833440999992008081000004-14950-040883FM-15+0914SBQV V0200701N00461220001CN0099001N1+01901+01501999999ADDMA1102301999999REMMET045METAR SBQV 100000Z 07009KT CAVOK 19/15 Q1023;
0072833440999992008081001004-14950-040883FM-15+0914SBQV V0200601N00411220001CN0099001N1+01801+01601999999ADDMA1102301999999REMMET045METAR SBQV 100100Z 06008KT CAVOK 18/16 Q1023;
0072833440999992008081004004-14950-040883FM-15+0914SBQV V0200501N00361220001CN0099001N1+01701+01501999999ADDMA1102201999999REMMET045METAR SBQV 100400Z 05007KT CAVOK 17/15 Q1022;
0143833440999992008081011004-14950-040883FM-15+0914SBQV V0201101N003612200019N0112651N1+01701+01501999999ADDGA1021+003301999GA2041+021001999GF104991999999999999999999MA1102301999999REMMET058METAR SBQV 101100Z 11007KT 9999 FEW011 SCT070 17/15 Q1023;
0120833440999992008081012004-14950-040883FM-15+0914SBQV V0201001N005112200019N0112651N1+02001+01301999999ADDGA1041+004501999GF104991999999999999999999MA1102401999999REMMET051METAR SBQV 101200Z 10010KT 9999 SCT015 20/13 Q1024;
0120833440999992008081013004-14950-040883FM-15+0914SBQV V0201101N005112200019N0112651N1+02101+01201999999ADDGA1041+004801999GF104991999999999999999999MA1102401999999REMMET051METAR SBQV 101300Z 11010KT 9999 SCT016 21/12 Q1024;
0120833440999992008081014004-14950-040883FM-15+0914SBQV V0200701N003612200019N0112651N1+02301+01301999999ADDGA1021+005401999GF102991999999999999999999MA1102301999999REMMET051METAR SBQV 101400Z 07007KT 9999 FEW018 23/13 Q1023;
0120833440999992008081015004-14950-040883FM-15+0914SBQV V0200901N002112200019N0112651N1+02401+01201999999ADDGA1021+006001999GF102991999999999999999999MA1102201999999REMMET051METAR SBQV 101500Z 09004KT 9999 FEW020 24/12 Q1022;
0120833440999992008081016004-14950-040883FM-15+0914SBQV V0201201N003112200019N0112651N1+02601+01201999999ADDGA1021+007501999GF102991999999999999999999MA1102101999999REMMET051METAR SBQV 101600Z 12006KT 9999 FEW025 26/12 Q1021;
0120833440999992008081017004-14950-040883FM-15+0914SBQV V0200601N002612200019N0112651N1+02601+01201999999ADDGA1021+007501999GF102991999999999999999999MA1102001999999REMMET051METAR SBQV 101700Z 06005KT 9999 FEW025 26/12 Q1020;
0120833440999992008081018004-14950-040883FM-15+0914SBQV V0201201N003112200019N0112651N1+02601+01201999999ADDGA1021+007501999GF102991999999999999999999MA1101901999999REMMET051METAR SBQV 101800Z 12006KT 9999 FEW025 26/12 Q1019;
0143833440999992008081019004-14950-040883FM-15+0914SBQV V0201101N004112200019N0112651N1+02501+01301999999ADDGA1021+007501999GA2041+090001999GF104991999999999999999999MA1102001999999REMMET058METAR SBQV 101900Z 11008KT 9999 FEW025 SCT300 25/13 Q1020;
0143833440999992008081020004-14950-040883FM-15+0914SBQV V0201101N005712200019N0112651N1+02401+01301999999ADDGA1021+006001999GA2041+090001999GF104991999999999999999999MA1102001999999REMMET058METAR SBQV 102000Z 11011KT 9999 FEW020 SCT300 24/13 Q1020;
0143833440999992008081021004-14950-040883FM-15+0914SBQV V0201001N003612200019N0112651N1+02101+01401999999ADDGA1021+003901999GA2041+090001999GF104991999999999999999999MA1102001999999REMMET058METAR SBQV 102100Z 10007KT 9999 FEW013 SCT300 21/14 Q1020;
0072833440999992008081022004-14950-040883FM-15+0914SBQV V0201001N00461220001CN0099001N1+02001+01301999999ADDMA1102101999999REMMET045METAR SBQV 102200Z 10009KT CAVOK 20/13 Q1021;
0120833440999992008081111004-14950-040883FM-15+0914SBQV V0201201N005710021019N0112651N1+01701+01501999999ADDGA1071+002101999GF107991999999999999999999MA1102301999999REMMET051METAR SBQV 111100Z 12011KT 9999 BKN007 17/15 Q1023;
0084833440999992008081111304-14950-040883FM-15+0914SBQV V0201201N005712200019N0112651N1+01901+01401999999ADDMA1102401999999REMMET057METAR SBQV 111130Z SPECI 12011KT 9999 SCT010 19/14 Q1024;
0120833440999992008081113004-14950-040883FM-15+0914SBQV V0201201N007210045019N0112651N1+02101+01301999999ADDGA1071+004501999GF107991999999999999999999MA1102401999999REMMET051METAR SBQV 111300Z 12014KT 9999 BKN015 21/13 Q1024;
0120833440999992008081114004-14950-040883FM-15+0914SBQV V0201001N007212200019N0112651N1+02301+01301999999ADDGA1041+006001999GF104991999999999999999999MA1102401999999REMMET051METAR SBQV 111400Z 10014KT 9999 SCT020 23/13 Q1024;
0120833440999992008081115004-14950-040883FM-15+0914SBQV V0201101N006710060019N0112651N1+02301+01301999999ADDGA1071+006001999GF107991999999999999999999MA1102301999999REMMET051METAR SBQV 111500Z 11013KT 9999 BKN020 23/13 Q1023;
0120833440999992008081116004-14950-040883FM-15+0914SBQV V0201101N006712200019N0112651N1+02501+01201999999ADDGA1041+007501999GF104991999999999999999999MA1102201999999REMMET051METAR SBQV 111600Z 11013KT 9999 SCT025 25/12 Q1022;
0120833440999992008081117004-14950-040883FM-15+0914SBQV V0201101N005112200019N0112651N1+02501+01101999999ADDGA1041+007501999GF104991999999999999999999MA1102101999999REMMET051METAR SBQV 111700Z 11010KT 9999 SCT025 25/11 Q1021;
0120833440999992008081118004-14950-040883FM-15+0914SBQV V0201101N005712200019N0112651N1+02501+01101999999ADDGA1021+007501999GF102991999999999999999999MA1102001999999REMMET051METAR SBQV 111800Z 11011KT 9999 FEW025 25/11 Q1020;
0120833440999992008081119004-14950-040883FM-15+0914SBQV V0201001N005112200019N0112651N1+02401+01101999999ADDGA1021+007501999GF102991999999999999999999MA1102001999999REMMET051METAR SBQV 111900Z 10010KT 9999 FEW025 24/11 Q1020;
0120833440999992008081120004-14950-040883FM-15+0914SBQV V0201101N005712200019N0112651N1+02301+01101999999ADDGA1021+006001999GF102991999999999999999999MA1102001999999REMMET051METAR SBQV 112000Z 11011KT 9999 FEW020 23/11 Q1020;
0120833440999992008081121004-14950-040883FM-15+0914SBQV V0201001N004612200019N0112651N1+02101+01001999999ADDGA1021+005401999GF102991999999999999999999MA1102001999999REMMET051METAR SBQV 112100Z 10009KT 9999 FEW018 21/10 Q1020;
0072833440999992008081122004-14950-040883FM-15+0914SBQV V0200901N00261220001CN0099001N1+02001+01101999999ADDMA1102101999999REMMET045METAR SBQV 112200Z 09005KT CAVOK 20/11 Q1021;
0072833440999992008081123004-14950-040883FM-15+0914SBQV V0200801N00411220001CN0099001N1+01901+01401999999ADDMA1102101999999REMMET045METAR SBQV 112300Z 08008KT CAVOK 19/14 Q1021;
0120833440999992008081211004-14950-040883FM-15+0914SBQV V0201301N003110033019N0112651N1+01701+01601999999ADDGA1071+003301999GF107991999999999999999999MA1102301999999REMMET051METAR SBQV 121100Z 13006KT 9999 BKN011 17/16 Q1023;
0143833440999992008081212004-14950-040883FM-15+0914SBQV V0201001N005710045019N0112651N1+01901+01501999999ADDGA1021+003901999GA2071+004501999GF107991999999999999999999MA1102401999999REMMET058METAR SBQV 121200Z 10011KT 9999 FEW013 BKN015 19/15 Q1024;
0120833440999992008081213004-14950-040883FM-15+0914SBQV V0201201N005110054019N0112651N1+02101+01501999999ADDGA1071+005401999GF107991999999999999999999MA1102401999999REMMET051METAR SBQV 121300Z 12010KT 9999 BKN018 21/15 Q1024;
0143833440999992008081214004-14950-040883FM-15+0914SBQV V0201201N005110054019N0112651N1+02101+01501999999ADDGA1071+005401999GA2071+021001999GF107991999999999999999999MA1102301999999REMMET058METAR SBQV 121400Z 12010KT 9999 BKN018 BKN070 21/15 Q1023;
0136833440999992008081215004-14950-040883FM-15+0914SBQV V0201101N00361220001CN0112651N1+02201+01401999999ADDGA1071+006001999GA2041+021001999MA1102301999999REMMET058METAR SBQV 121500Z 11007KT 9999 BKN020 SCT070 22/14 Q1023;EQDQ01+000042SCOTCV
0120833440999992008081216004-14950-040883FM-15+0914SBQV V0201401N004610060019N0112651N1+02201+01301999999ADDGA1071+006001999GF107991999999999999999999MA1102201999999REMMET051METAR SBQV 121600Z 14009KT 9999 BKN020 22/13 Q1022;
0120833440999992008081217004-14950-040883FM-15+0914SBQV V0201101N004110060019N0112651N1+02401+01401999999ADDGA1071+006001999GF107991999999999999999999MA1102101999999REMMET051METAR SBQV 121700Z 11008KT 9999 BKN020 24/14 Q1021;
0143833440999992008081218004-14950-040883FM-15+0914SBQV V0201101N005112200019N0112651N1+02401+01101999999ADDGA1041+006001999GA2041+090001999GF104991999999999999999999MA1102001999999REMMET058METAR SBQV 121800Z 11010KT 9999 SCT020 SCT300 24/11 Q1020;
0143833440999992008081220004-14950-040883FM-15+0914SBQV V0201101N004610900019N0112651N1+02201+01101999999ADDGA1021+006001999GA2071+090001999GF107991999999999999999999MA1102101999999REMMET058METAR SBQV 122000Z 11009KT 9999 FEW020 BKN300 22/11 Q1021;
0143833440999992008081221004-14950-040883FM-15+0914SBQV V0201001N002110900019N0112651N1+02001+01201999999ADDGA1021+004801999GA2071+090001999GF107991999999999999999999MA1102101999999REMMET058METAR SBQV 122100Z 10004KT 9999 FEW016 BKN300 20/12 Q1021;
0072833440999992008081222004-14950-040883FM-15+0914SBQV V0200901N00101220001CN0099001N1+01801+01201999999ADDMA1102201999999REMMET045METAR SBQV 122200Z 09002KT CAVOK 18/12 Q1022;
0143833440999992008081223004-14950-040883FM-15+0914SBQV V0201101N002612200019N0112651N1+01801+01201999999ADDGA1021+004501999GA2041+090001999GF104991999999999999999999MA1102301999999REMMET058METAR SBQV 122300Z 11005KT 9999 FEW015 SCT300 18/12 Q1023;
0120833440999992008081300004-14950-040883FM-15+0914SBQV V0201001N003612200019N0112651N1+01801+01601999999ADDGA1021+004501999GF102991999999999999999999MA1102301999999REMMET051METAR SBQV 130000Z 10007KT 9999 FEW015 18/16 Q1023;
0120833440999992008081301004-14950-040883FM-15+0914SBQV V0201101N003612200019N0112651N1+01701+01601999999ADDGA1021+004501999GF102991999999999999999999MA1102301999999REMMET051METAR SBQV 130100Z 11007KT 9999 FEW015 17/16 Q1023;
0120833440999992008081302004-14950-040883FM-15+0914SBQV V0201101N002612200019N0112651N1+01701+01601999999ADDGA1041+003601999GF104991999999999999999999MA1102401999999REMMET051METAR SBQV 130200Z 11005KT 9999 SCT012 17/16 Q1024;
0143833440999992008081303004-14950-040883FM-15+0914SBQV V0201301N003612200019N0112651N1+01701+01501999999ADDGA1041+003601999GA2041+021001999GF104991999999999999999999MA1102301999999REMMET058METAR SBQV 130300Z 13007KT 9999 SCT012 SCT070 17/15 Q1023;
0120833440999992008081305004-14950-040883FM-15+0914SBQV V0201501N003112200019N0112651N1+01601+01601999999ADDGA1041+002401999GF104991999999999999999999MA1102201999999REMMET051METAR SBQV 130500Z 15006KT 9999 SCT008 16/16 Q1022;
0166833440999992008081311004-14950-040883FM-15+0914SBQV V0201301N00361003001CN0112651N1+01801+01601999999ADDGA1041+001501999GA2041+003001999GA3071+021001999GF107991999999999999999999MA1102401999999REMMET065METAR SBQV 131100Z 13007KT 9999 SCT005 SCT010 BKN070 18/16 Q1024;
0143833440999992008081312004-14950-040883FM-15+0914SBQV V0201201N004612200019N0112651N1+01801+01501999999ADDGA1021+003601999GA2041+004501999GF104991999999999999999999MA1102401999999REMMET058METAR SBQV 131200Z 12009KT 9999 FEW012 SCT015 18/15 Q1024;
0143833440999992008081313004-14950-040883FM-15+0914SBQV V0201101N004110900019N0112651N1+02101+01501999999ADDGA1041+005401999GA2071+090001999GF107991999999999999999999MA1102401999999REMMET058METAR SBQV 131300Z 11008KT 9999 SCT018 BKN300 21/15 Q1024;
0136833440999992008081314004-14950-040883FM-15+0914SBQV V0200901N00571220001CN0112651N1+02301+01301999999ADDGA1071+006001999GA2041+090001999MA1102401999999REMMET058METAR SBQV 131400Z 09011KT 9999 BKN020 SCT300 23/13 Q1024;EQDQ01+000042SCOTCV
0120833440999992008081315004-14950-040883FM-15+0914SBQV V0201001N005710060019N0112651N1+02301+01401999999ADDGA1071+006001999GF107991999999999999999999MA1102301999999REMMET051METAR SBQV 131500Z 10011KT 9999 BKN020 23/14 Q1023;
0120833440999992008081316004-14950-040883FM-15+0914SBQV V0201201N005110075019N0112651N1+02401+01301999999ADDGA1071+007501999GF107991999999999999999999MA1102301999999REMMET051METAR SBQV 131600Z 12010KT 9999 BKN025 24/13 Q1023;
0120833440999992008081317004-14950-040883FM-15+0914SBQV V0201101N005710075019N0112651N1+02401+01201999999ADDGA1071+007501999GF107991999999999999999999MA1102201999999REMMET051METAR SBQV 131700Z 11011KT 9999 BKN025 24/12 Q1022;
0120833440999992008081318004-14950-040883FM-15+0914SBQV V0201201N005110075019N0112651N1+02501+01201999999ADDGA1071+007501999GF107991999999999999999999MA1102101999999REMMET051METAR SBQV 131800Z 12010KT 9999 BKN025 25/12 Q1021;
0120833440999992008081319004-14950-040883FM-15+0914SBQV V0201201N005112200019N0112651N1+02401+01301999999ADDGA1041+007501999GF104991999999999999999999MA1102101999999REMMET051METAR SBQV 131900Z 12010KT 9999 SCT025 24/13 Q1021;
0120833440999992008081320004-14950-040883FM-15+0914SBQV V0201301N005712200019N0112651N1+02201+01201999999ADDGA1041+006001999GF104991999999999999999999MA1102101999999REMMET051METAR SBQV 132000Z 13011KT 9999 SCT020 22/12 Q1021;
0120833440999992008081321004-14950-040883FM-15+0914SBQV V0201301N003612200019N0112651N1+02101+01201999999ADDGA1041+005401999GF104991999999999999999999MA1102201999999REMMET051METAR SBQV 132100Z 13007KT 9999 SCT018 21/12 Q1022;
0120833440999992008081322004-14950-040883FM-15+0914SBQV V0201301N003112200019N0112651N1+01901+01301999999ADDGA1041+004801999GF104991999999999999999999MA1102201999999REMMET051METAR SBQV 132200Z 13006KT 9999 SCT016 19/13 Q1022;
0120833440999992008081323004-14950-040883FM-15+0914SBQV V0201201N003612200019N0112651N1+01901+01501999999ADDGA1021+004501999GF102991999999999999999999MA1102201999999REMMET051METAR SBQV 132300Z 12007KT 9999 FEW015 19/15 Q1022;
0120833440999992008081411004-14950-040883FM-15+0914SBQV V0201101N006210027019N0112651N1+01801+01701999999ADDGA1071+002701999GF107991999999999999999999MA1102511999999REMMET051METAR SBQV 141100Z 11012KT 9999 BKN009 18/17 Q1025;
0143833440999992008081412004-14950-040883FM-15+0914SBQV V0201101N006710045019N0112651N1+01901+01501999999ADDGA1041+003901999GA2071+004501999GF107991999999999999999999MA1102511999999REMMET058METAR SBQV 141200Z 11013KT 9999 SCT013 BKN015 19/15 Q1025;
0120833440999992008081413004-14950-040883FM-15+0914SBQV V0201001N006712200019N0112651N1+02201+01301999999ADDGA1041+005401999GF104991999999999999999999MA1102611999999REMMET051METAR SBQV 141300Z 10013KT 9999 SCT018 22/13 Q1026;
0120833440999992008081414004-14950-040883FM-15+0914SBQV V0201001N005710060019N0112651N1+02201+01301999999ADDGA1071+006001999GF107991999999999999999999MA1102511999999REMMET051METAR SBQV 141400Z 10011KT 9999 BKN020 22/13 Q1025;
0120833440999992008081415004-14950-040883FM-15+0914SBQV V0201301N006210060019N0112651N1+02301+01301999999ADDGA1071+006001999GF107991999999999999999999MA1102401999999REMMET051METAR SBQV 141500Z 13012KT 9999 BKN020 23/13 Q1024;
0120833440999992008081416004-14950-040883FM-15+0914SBQV V0201401N006710060019N0112651N1+02501+01201999999ADDGA1071+006001999GF107991999999999999999999MA1102301999999REMMET051METAR SBQV 141600Z 14013KT 9999 BKN020 25/12 Q1023;
0120833440999992008081417004-14950-040883FM-15+0914SBQV V0201301N005110060019N0112651N1+02401+01201999999ADDGA1071+006001999GF107991999999999999999999MA1102301999999REMMET051METAR SBQV 141700Z 13010KT 9999 BKN020 24/12 Q1023;
0120833440999992008081418004-14950-040883FM-15+0914SBQV V0201201N006212200019N0112651N1+02601+01301999999ADDGA1041+007501999GF104991999999999999999999MA1102201999999REMMET051METAR SBQV 141800Z 12012KT 9999 SCT025 26/13 Q1022;
0120833440999992008081419004-14950-040883FM-15+0914SBQV V0201201N006212200019N0112651N1+02401+01401999999ADDGA1021+007501999GF102991999999999999999999MA1102201999999REMMET051METAR SBQV 141900Z 12012KT 9999 FEW025 24/14 Q1022;
0120833440999992008081420004-14950-040883FM-15+0914SBQV V0200901N005110075019N0112651N1+02201+01501999999ADDGA1071+007501999GF107991999999999999999999MA1102201999999REMMET051METAR SBQV 142000Z 09010KT 9999 BKN025 22/15 Q1022;
0120833440999992008081421004-14950-040883FM-15+0914SBQV V0201001N004112200019N0112651N1+02001+01601999999ADDGA1041+006001999GF104991999999999999999999MA1102301999999REMMET051METAR SBQV 142100Z 10008KT 9999 SCT020 20/16 Q1023;
0072833440999992008081422004-14950-040883FM-15+0914SBQV V0200701N00411220001CN0099001N1+01901+01601999999ADDMA1102301999999REMMET045METAR SBQV 142200Z 07008KT CAVOK 19/16 Q1023;
0072833440999992008081423004-14950-040883FM-15+0914SBQV V0201001N00411220001CN0099001N1+01801+01601999999ADDMA1102401999999REMMET045METAR SBQV 142300Z 10008KT CAVOK 18/16 Q1024;
0084833440999992008081503304-14950-040883FM-15+0914SBQV V0201201N004612200019N0112651N1+01601+01501999999ADDMA1102401999999REMMET057METAR SBQV 150330Z SPECI 12009KT 9999 SCT011 16/15 Q1024;
0120833440999992008081504004-14950-040883FM-15+0914SBQV V0201101N003612200019N0112651N1+01501+01501999999ADDGA1041+003001999GF104991999999999999999999MA1102401999999REMMET051METAR SBQV 150400Z 11007KT 9999 SCT010 15/15 Q1024;
0120833440999992008081505004-14950-040883FM-15+0914SBQV V0201101N003610030019N0112651N1+01501+01501999999ADDGA1071+003001999GF107991999999999999999999MA1102301999999REMMET051METAR SBQV 150500Z 11007KT 9999 BKN010 15/15 Q1023;
0120833440999992008081511004-14950-040883FM-15+0914SBQV V0201201N005712200019N0112651N1+01701+01501999999ADDGA1041+003601999GF104991999999999999999999MA1102511999999REMMET051METAR SBQV 151100Z 12011KT 9999 SCT012 17/15 Q1025;
0120833440999992008081512004-14950-040883FM-15+0914SBQV V0201201N006212200019N0112651N1+02001+01401999999ADDGA1041+004501999GF104991999999999999999999MA1102611999999REMMET051METAR SBQV 151200Z 12012KT 9999 SCT015 20/14 Q1026;
0120833440999992008081513004-14950-040883FM-15+0914SBQV V0201101N005112200019N0112651N1+02201+01301999999ADDGA1041+004801999GF104991999999999999999999MA1102611999999REMMET051METAR SBQV 151300Z 11010KT 9999 SCT016 22/13 Q1026;
0120833440999992008081514004-14950-040883FM-15+0914SBQV V0201101N005710054019N0112651N1+02401+01301999999ADDGA1071+005401999GF107991999999999999999999MA1102511999999REMMET051METAR SBQV 151400Z 11011KT 9999 BKN018 24/13 Q1025;
0120833440999992008081515004-14950-040883FM-15+0914SBQV V0201001N005710060019N0112651N1+02401+01401999999ADDGA1071+006001999GF107991999999999999999999MA1102401999999REMMET051METAR SBQV 151500Z 10011KT 9999 BKN020 24/14 Q1024;
0120833440999992008081516004-14950-040883FM-15+0914SBQV V0200901N005710060019N0112651N1+02401+01401999999ADDGA1071+006001999GF107991999999999999999999MA1102301999999REMMET051METAR SBQV 151600Z 09011KT 9999 BKN020 24/14 Q1023;
0120833440999992008081517004-14950-040883FM-15+0914SBQV V0200901N005110060019N0112651N1+02401+01501999999ADDGA1071+006001999GF107991999999999999999999MA1102201999999REMMET051METAR SBQV 151700Z 09010KT 9999 BKN020 24/15 Q1022;
0120833440999992008081518004-14950-040883FM-15+0914SBQV V0200901N005110060019N0112651N1+02301+01501999999ADDGA1071+006001999GF107991999999999999999999MA1102101999999REMMET051METAR SBQV 151800Z 09010KT 9999 BKN020 23/15 Q1021;
0120833440999992008081519004-14950-040883FM-15+0914SBQV V0201101N005110060019N0112651N1+02201+01501999999ADDGA1071+006001999GF107991999999999999999999MA1102201999999REMMET051METAR SBQV 151900Z 11010KT 9999 BKN020 22/15 Q1022;
0120833440999992008081520004-14950-040883FM-15+0914SBQV V0201201N004610054019N0112651N1+02101+01601999999ADDGA1071+005401999GF107991999999999999999999MA1102201999999REMMET051METAR SBQV 152000Z 12009KT 9999 BKN018 21/16 Q1022;
0120833440999992008081521004-14950-040883FM-15+0914SBQV V0201201N004610045019N0112651N1+01901+01601999999ADDGA1071+004501999GF107991999999999999999999MA1102201999999REMMET051METAR SBQV 152100Z 12009KT 9999 BKN015 19/16 Q1022;
0120833440999992008081522004-14950-040883FM-15+0914SBQV V0201101N004112200019N0112651N1+01901+01701999999ADDGA1041+003601999GF104991999999999999999999MA1102201999999REMMET051METAR SBQV 152200Z 11008KT 9999 SCT012 19/17 Q1022;
0143833440999992008081523004-14950-040883FM-15+0914SBQV V0201101N004112200019N0112651N1+01801+01701999999ADDGA1041+001801999GA2041+003001999GF104991999999999999999999MA1102201999999REMMET058METAR SBQV 152300Z 11008KT 9999 SCT006 SCT010 18/17 Q1022;
0143833440999992008081611004-14950-040883FM-15+0914SBQV V0201201N005712200019N0112651N1+01801+01601999999ADDGA1041+002701999GA2041+004501999GF104991999999999999999999MA1102401999999REMMET058METAR SBQV 161100Z 12011KT 9999 SCT009 SCT015 18/16 Q1024;
0143833440999992008081612004-14950-040883FM-15+0914SBQV V0201201N005712200019N0112651N1+01901+01701999999ADDGA1041+003001999GA2041+004501999GF104991999999999999999999MA1102401999999REMMET058METAR SBQV 161200Z 12011KT 9999 SCT010 SCT015 19/17 Q1024;
0143833440999992008081613004-14950-040883FM-15+0914SBQV V0201301N006210045019N0112651N1+01901+01701999999ADDGA1041+003001999GA2071+004501999GF107991999999999999999999MA1102511999999REMMET058METAR SBQV 161300Z 13012KT 9999 SCT010 BKN015 19/17 Q1025;
0143833440999992008081614004-14950-040883FM-15+0914SBQV V0201201N006710045019N0112651N1+02101+01601999999ADDGA1041+003001999GA2071+004501999GF107991999999999999999999MA1102401999999REMMET058METAR SBQV 161400Z 12013KT 9999 SCT010 BKN015 21/16 Q1024;
0095833440999992008081614324-14950-040883FM-16+0914SBQV V0201201N005712200019N9999999N1+01801+01801999999ADDMA1102401999999REMMET068METAR SBQV 161432Z SPECI 12011KT 4000 -RA SCT010 BKN015 18/18 Q1024;
0120833440999992008081616004-14950-040883FM-15+0914SBQV V0201001N006710060019N0112651N1+02301+01401999999ADDGA1071+006001999GF107991999999999999999999MA1102201999999REMMET051METAR SBQV 161600Z 10013KT 9999 BKN020 23/14 Q1022;
0120833440999992008081617004-14950-040883FM-15+0914SBQV V0201301N006210060019N0112651N1+02301+01501999999ADDGA1071+006001999GF107991999999999999999999MA1102201999999REMMET051METAR SBQV 161700Z 13012KT 9999 BKN020 23/15 Q1022;
0120833440999992008081618004-14950-040883FM-15+0914SBQV V0200901N004612200019N0112651N1+02101+01501999999ADDGA1041+006001999GF104991999999999999999999MA1102101999999REMMET051METAR SBQV 161800Z 09009KT 9999 SCT020 21/15 Q1021;
0120833440999992008081619004-14950-040883FM-15+0914SBQV V0201301N005712200019N0112651N1+02301+01401999999ADDGA1021+006001999GF102991999999999999999999MA1102101999999REMMET051METAR SBQV 161900Z 13011KT 9999 FEW020 23/14 Q1021;
0120833440999992008081620004-14950-040883FM-15+0914SBQV V0201101N005712200019N0112651N1+02201+01301999999ADDGA1021+006001999GF102991999999999999999999MA1102101999999REMMET051METAR SBQV 162000Z 11011KT 9999 FEW020 22/13 Q1021;
0120833440999992008081621004-14950-040883FM-15+0914SBQV V0201001N004112200019N0112651N1+02001+01501999999ADDGA1021+004801999GF102991999999999999999999MA1102101999999REMMET051METAR SBQV 162100Z 10008KT 9999 FEW016 20/15 Q1021;
0072833440999992008081622004-14950-040883FM-15+0914SBQV V0201001N00311220001CN0099001N1+01901+01501999999ADDMA1102201999999REMMET045METAR SBQV 162200Z 10006KT CAVOK 19/15 Q1022;
0143833440999992008081711004-14950-040883FM-15+0914SBQV V0200901N005712200019N0112651N1+01701+01501999999ADDGA1021+001501999GA2041+003001999GF104991999999999999999999MA1102301999999REMMET058METAR SBQV 171100Z 09011KT 9999 FEW005 SCT010 17/15 Q1023;
0120833440999992008081712004-14950-040883FM-15+0914SBQV V0200801N006212200019N0112651N1+02001+01201999999ADDGA1021+005401999GF102991999999999999999999MA1102401999999REMMET051METAR SBQV 171200Z 08012KT 9999 FEW018 20/12 Q1024;
0120833440999992008081713004-14950-040883FM-15+0914SBQV V0200901N007212200019N0112651N1+02201+01101999999ADDGA1021+006001999GF102991999999999999999999MA1102301999999REMMET051METAR SBQV 171300Z 09014KT 9999 FEW020 22/11 Q1023;
0120833440999992008081714004-14950-040883FM-15+0914SBQV V0200801N006712200019N0112651N1+02401+01001999999ADDGA1021+007501999GF102991999999999999999999MA1102301999999REMMET051METAR SBQV 171400Z 08013KT 9999 FEW025 24/10 Q1023;
0120833440999992008081715004-14950-040883FM-15+0914SBQV V0201001N005712200019N0112651N1+02501+00901999999ADDGA1041+007501999GF104991999999999999999999MA1102301999999REMMET051METAR SBQV 171500Z 10011KT 9999 SCT025 25/09 Q1023;
0120833440999992008081716004-14950-040883FM-15+0914SBQV V0201101N004112200019N0112651N1+02501+01001999999ADDGA1041+007501999GF104991999999999999999999MA1102201999999REMMET051METAR SBQV 171600Z 11008KT 9999 SCT025 25/10 Q1022;
0120833440999992008081717004-14950-040883FM-15+0914SBQV V0201501N006212200019N0112651N1+02501+01201999999ADDGA1041+007501999GF104991999999999999999999MA1102101999999REMMET051METAR SBQV 171700Z 15012KT 9999 SCT025 25/12 Q1021;
0120833440999992008081718004-14950-040883FM-15+0914SBQV V0201401N005712200019N0112651N1+02401+01201999999ADDGA1041+007501999GF104991999999999999999999MA1102101999999REMMET051METAR SBQV 171800Z 14011KT 9999 SCT025 24/12 Q1021;
0120833440999992008081719004-14950-040883FM-15+0914SBQV V0201401N005712200019N0112651N1+02401+01101999999ADDGA1041+007501999GF104991999999999999999999MA1102101999999REMMET051METAR SBQV 171900Z 14011KT 9999 SCT025 24/11 Q1021;
0120833440999992008081720004-14950-040883FM-15+0914SBQV V0201501N006212200019N0112651N1+02201+01401999999ADDGA1041+006001999GF104991999999999999999999MA1102101999999REMMET051METAR SBQV 172000Z 15012KT 9999 SCT020 22/14 Q1021;
0120833440999992008081721004-14950-040883FM-15+0914SBQV V0201401N006212200019N0112651N1+01901+01501999999ADDGA1021+004801999GF102991999999999999999999MA1102101999999REMMET051METAR SBQV 172100Z 14012KT 9999 FEW016 19/15 Q1021;
0120833440999992008081722004-14950-040883FM-15+0914SBQV V0201301N003112200019N0112651N1+01801+01601999999ADDGA1021+004501999GF102991999999999999999999MA1102101999999REMMET051METAR SBQV 172200Z 13006KT 9999 FEW015 18/16 Q1021;
0120833440999992008081811004-14950-040883FM-15+0914SBQV V0201301N004112200019N0112651N1+01701+01401999999ADDGA1021+003001999GF102991999999999999999999MA1102301999999REMMET051METAR SBQV 181100Z 13008KT 9999 FEW010 17/14 Q1023;
0143833440999992008081812004-14950-040883FM-15+0914SBQV V0201401N005112200019N0112651N1+01901+01301999999ADDGA1041+004501999GA2041+024001999GF104991999999999999999999MA1102401999999REMMET058METAR SBQV 181200Z 14010KT 9999 SCT015 SCT080 19/13 Q1024;
0120833440999992008081813004-14950-040883FM-15+0914SBQV V0201001N005710060019N0112651N1+02001+01201999999ADDGA1071+006001999GF107991999999999999999999MA1102401999999REMMET051METAR SBQV 181300Z 10011KT 9999 BKN020 20/12 Q1024;
0120833440999992008081814004-14950-040883FM-15+0914SBQV V0201101N004610060019N0112651N1+02001+01301999999ADDGA1071+006001999GF107991999999999999999999MA1102401999999REMMET051METAR SBQV 181400Z 11009KT 9999 BKN020 20/13 Q1024;
0120833440999992008081815004-14950-040883FM-15+0914SBQV V0201501N004610060019N0112651N1+01901+01501999999ADDGA1071+006001999GF107991999999999999999999MA1102401999999REMMET051METAR SBQV 181500Z 15009KT 9999 BKN020 19/15 Q1024;
0120833440999992008081816004-14950-040883FM-15+0914SBQV V0201501N005710060019N0112651N1+02101+01401999999ADDGA1071+006001999GF107991999999999999999999MA1102301999999REMMET051METAR SBQV 181600Z 15011KT 9999 BKN020 21/14 Q1023;
0120833440999992008081817004-14950-040883FM-15+0914SBQV V0201301N005110060019N0112651N1+02301+01301999999ADDGA1071+006001999GF107991999999999999999999MA1102201999999REMMET051METAR SBQV 181700Z 13010KT 9999 BKN020 23/13 Q1022;
0143833440999992008081818004-14950-040883FM-15+0914SBQV V0201501N005110060019N0112651N1+01901+01601999999ADDGA1021+003901999GA2071+006001999GF107991999999999999999999MA1102201999999REMMET058METAR SBQV 181800Z 15010KT 9999 FEW013 BKN020 19/16 Q1022;
0136833440999992008081819004-14950-040883FM-15+0914SBQV V0201201N00411220001CN0112651N1+02001+01501999999ADDGA1071+006001999GA2041+024001999MA1102201999999REMMET058METAR SBQV 181900Z 12008KT 9999 BKN020 SCT080 20/15 Q1022;EQDQ01+000042SCOTCV
0120833440999992008081820004-14950-040883FM-15+0914SBQV V0201401N004612200019N0112651N1+01901+01501999999ADDGA1041+006001999GF104991999999999999999999MA1102201999999REMMET051METAR SBQV 182000Z 14009KT 9999 SCT020 19/15 Q1022;
0120833440999992008081821004-14950-040883FM-15+0914SBQV V0201201N004612200019N0112651N1+01801+01501999999ADDGA1021+004801999GF102991999999999999999999MA1102201999999REMMET051METAR SBQV 182100Z 12009KT 9999 FEW016 18/15 Q1022;
0072833440999992008081823004-14950-040883FM-15+0914SBQV V0201101N00311220001CN0099001N1+01601+01401999999ADDMA1102301999999REMMET045METAR SBQV 182300Z 11006KT CAVOK 16/14 Q1023;
0160833440999992008081911004-14950-040883FM-15+0914SBQV V0201101N005110021019N0112651N1+01601+01601999999ADDGA1021+001501999GA2081+002101999GF108991999999999999999999MA1102201999999MW1511REMMET069METAR SBQV 191100Z 11010KT 9999 6000SW -DZ FEW005 OVC007 16/16 Q1022;
0120833440999992008081912004-14950-040883FM-15+0914SBQV V0201101N005110027019N0112651N1+01801+01701999999ADDGA1071+002701999GF107991999999999999999999MA1102301999999REMMET051METAR SBQV 191200Z 11010KT 9999 BKN009 18/17 Q1023;
0120833440999992008081913004-14950-040883FM-15+0914SBQV V0201201N005710030019N0112651N1+01901+01801999999ADDGA1071+003001999GF107991999999999999999999MA1102301999999REMMET051METAR SBQV 191300Z 12011KT 9999 BKN010 19/18 Q1023;
0166833440999992008081914004-14950-040883FM-15+0914SBQV V0201301N00571004801CN0112651N1+01801+01801999999ADDGA1041+003001999GA2041+004801999GA3071+021001999GF107991999999999999999999MA1102301999999REMMET065METAR SBQV 191400Z 13011KT 9999 SCT010 SCT016 BKN070 18/18 Q1023;
0143833440999992008081915004-14950-040883FM-15+0914SBQV V0201401N005712200019N0112651N1+02101+01901999999ADDGA1021+003301999GA2041+004801999GF104991999999999999999999MA1102201999999REMMET058METAR SBQV 191500Z 14011KT 9999 FEW011 SCT016 21/19 Q1022;
0143833440999992008081916004-14950-040883FM-15+0914SBQV V0201101N006212200019N0112651N1+02301+01701999999ADDGA1021+003301999GA2041+004801999GF104991999999999999999999MA1102201999999REMMET058METAR SBQV 191600Z 11012KT 9999 FEW011 SCT016 23/17 Q1022;
0143833440999992008081917004-14950-040883FM-15+0914SBQV V0201301N005712200019N0112651N1+02101+01601999999ADDGA1041+003001999GA2041+004501999GF104991999999999999999999MA1102101999999REMMET058METAR SBQV 191700Z 13011KT 9999 SCT010 SCT015 21/16 Q1021;
0153833440999992008081918004-14950-040883FM-15+0914SBQV V0201501N004612200019N0070001N1+01901+01801999999ADDGA1021+001801999GA2041+003001999GF104991999999999999999999MA1102101999999MW1511REMMET062METAR SBQV 191800Z 15009KT 7000 -DZ FEW006 SCT010 19/18 Q1021;
0095833440999992008081918484-14950-040883FM-16+0914SBQV V0201601N005112200019N9999999N1+01801+01801999999ADDMA1102101999999REMMET068METAR SBQV 191848Z SPECI 16010KT 6000 -DZ FEW006 BKN009 18/18 Q1021;
0143833440999992008081920004-14950-040883FM-15+0914SBQV V0201101N004610210019N0112651N1+01701+01701999999ADDGA1041+002401999GA2071+021001999GF107991999999999999999999MA1102101999999REMMET058METAR SBQV 192000Z 11009KT 9999 SCT008 BKN070 17/17 Q1021;
0143833440999992008081921004-14950-040883FM-15+0914SBQV V0201101N004612200019N0112651N1+01701+01601999999ADDGA1021+002401999GA2041+021001999GF104991999999999999999999MA1102101999999REMMET058METAR SBQV 192100Z 11009KT 9999 FEW008 SCT070 17/16 Q1021;
0072833440999992008081922004-14950-040883FM-15+0914SBQV V0201201N00361220001CN0099001N1+01601+01601999999ADDMA1102201999999REMMET045METAR SBQV 192200Z 12007KT CAVOK 16/16 Q1022;
0072833440999992008081923004-14950-040883FM-15+0914SBQV V0201201N00311220001CN0099001N1+01601+01501999999ADDMA1102201999999REMMET045METAR SBQV 192300Z 12006KT CAVOK 16/15 Q1022;
0143833440999992008082011004-14950-040883FM-15+0914SBQV V0201301N004610033019N0112651N1+01601+01601999999ADDGA1021+002101999GA2071+003301999GF107991999999999999999999MA1102201999999REMMET058METAR SBQV 201100Z 13009KT 9999 FEW007 BKN011 16/16 Q1022;
0120833440999992008082012004-14950-040883FM-15+0914SBQV V0201201N006212200019N0112651N1+01801+01501999999ADDGA1041+003601999GF104991999999999999999999MA1102301999999REMMET051METAR SBQV 201200Z 12012KT 9999 SCT012 18/15 Q1023;
0120833440999992008082013004-14950-040883FM-15+0914SBQV V0201301N006212200019N0112651N1+01901+01501999999ADDGA1041+003901999GF104991999999999999999999MA1102301999999REMMET051METAR SBQV 201300Z 13012KT 9999 SCT013 19/15 Q1023;
0120833440999992008082014004-14950-040883FM-15+0914SBQV V0201401N007712200019N0112651N1+02101+01501999999ADDGA1041+004501999GF104991999999999999999999MA1102201999999REMMET051METAR SBQV 201400Z 14015KT 9999 SCT015 21/15 Q1022;
0120833440999992008082015004-14950-040883FM-15+0914SBQV V0201301N006712200019N0112651N1+02201+01201999999ADDGA1041+005401999GF104991999999999999999999MA1102201999999REMMET051METAR SBQV 201500Z 13013KT 9999 SCT018 22/12 Q1022;
0120833440999992008082016004-14950-040883FM-15+0914SBQV V0201301N006212200019N0112651N1+02401+01101999999ADDGA1041+007501999GF104991999999999999999999MA1102101999999REMMET051METAR SBQV 201600Z 13012KT 9999 SCT025 24/11 Q1021;
0120833440999992008082017004-14950-040883FM-15+0914SBQV V0201101N005112200019N0112651N1+02501+01001999999ADDGA1041+007501999GF104991999999999999999999MA1102001999999REMMET051METAR SBQV 201700Z 11010KT 9999 SCT025 25/10 Q1020;
0120833440999992008082018004-14950-040883FM-15+0914SBQV V0201001N005112200019N0112651N1+02401+01001999999ADDGA1041+007501999GF104991999999999999999999MA1102001999999REMMET051METAR SBQV 201800Z 10010KT 9999 SCT025 24/10 Q1020;
0120833440999992008082019004-14950-040883FM-15+0914SBQV V0201301N005712200019N0112651N1+02301+01001999999ADDGA1021+007501999GF102991999999999999999999MA1102001999999REMMET051METAR SBQV 201900Z 13011KT 9999 FEW025 23/10 Q1020;
0120833440999992008082020004-14950-040883FM-15+0914SBQV V0201101N005112200019N0112651N1+02201+01001999999ADDGA1021+007501999GF102991999999999999999999MA1102001999999REMMET051METAR SBQV 202000Z 11010KT 9999 FEW025 22/10 Q1020;
0120833440999992008082021004-14950-040883FM-15+0914SBQV V0201001N003112200019N0112651N1+02001+01001999999ADDGA1021+006001999GF102991999999999999999999MA1102001999999REMMET051METAR SBQV 202100Z 10006KT 9999 FEW020 20/10 Q1020;
0072833440999992008082022004-14950-040883FM-15+0914SBQV V0201201N00311220001CN0099001N1+01801+01201999999ADDMA1102101999999REMMET045METAR SBQV 202200Z 12006KT CAVOK 18/12 Q1021;
0072833440999992008082023004-14950-040883FM-15+0914SBQV V0201001N00311220001CN0099001N1+01701+01301999999ADDMA1102101999999REMMET045METAR SBQV 202300Z 10006KT CAVOK 17/13 Q1021;
0143833440999992008082111004-14950-040883FM-15+0914SBQV V0201201N006210240019N0112651N1+01701+01501999999ADDGA1021+002401999GA2071+024001999GF107991999999999999999999MA1102201999999REMMET058METAR SBQV 211100Z 12012KT 9999 FEW008 BKN080 17/15 Q1022;
0120833440999992008082112004-14950-040883FM-15+0914SBQV V0201301N006210048019N0112651N1+01901+01401999999ADDGA1071+004801999GF107991999999999999999999MA1102301999999REMMET051METAR SBQV 211200Z 13012KT 9999 BKN016 19/14 Q1023;
0120833440999992008082113004-14950-040883FM-15+0914SBQV V0201101N006212200019N0112651N1+02201+01301999999ADDGA1021+007501999GF102991999999999999999999MA1102301999999REMMET051METAR SBQV 211300Z 11012KT 9999 FEW025 22/13 Q1023;
0143833440999992008082115004-14950-040883FM-15+0914SBQV V0201101N005110270019N0112651N1+02201+01301999999ADDGA1041+007501999GA2071+027001999GF107991999999999999999999MA1102201999999REMMET058METAR SBQV 211500Z 11010KT 9999 SCT025 BKN090 22/13 Q1022;
0120833440999992008082116004-14950-040883FM-15+0914SBQV V0201301N004110075019N0112651N1+02201+01301999999ADDGA1071+007501999GF107991999999999999999999MA1102101999999REMMET051METAR SBQV 211600Z 13008KT 9999 BKN025 22/13 Q1021;
0120833440999992008082117004-14950-040883FM-15+0914SBQV V0201201N005710075019N0112651N1+02201+01401999999ADDGA1071+007501999GF107991999999999999999999MA1102001999999REMMET051METAR SBQV 211700Z 12011KT 9999 BKN025 22/14 Q1020;
0120833440999992008082118004-14950-040883FM-15+0914SBQV V0201201N007210075019N0112651N1+02401+01301999999ADDGA1071+007501999GF107991999999999999999999MA1102001999999REMMET051METAR SBQV 211800Z 12014KT 9999 BKN025 24/13 Q1020;
0120833440999992008082119004-14950-040883FM-15+0914SBQV V0201101N005710075019N0112651N1+02301+01301999999ADDGA1071+007501999GF107991999999999999999999MA1101901999999REMMET051METAR SBQV 211900Z 11011KT 9999 BKN025 23/13 Q1019;
0143833440999992008082121004-14950-040883FM-15+0914SBQV V0201101N004612200019N0112651N1+01901+01401999999ADDGA1021+004801999GA2041+021001999GF104991999999999999999999MA1102001999999REMMET058METAR SBQV 212100Z 11009KT 9999 FEW016 SCT070 19/14 Q1020;
0072833440999992008082122004-14950-040883FM-15+0914SBQV V0201001N00361220001CN0099001N1+01801+01501999999ADDMA1102001999999REMMET045METAR SBQV 212200Z 10007KT CAVOK 18/15 Q1020;
0084833440999992008082210154-14950-040883FM-16+0914SBQV V0200801N004112200019N0112651N1+01501+01401999999ADDMA1102201999999REMMET057METAR SBQV 221015Z SPECI 08008KT 9999 BKN006 15/14 Q1022;
0091833440999992008082210334-14950-040883FM-16+0914SBQV V0200701N004112200019N0112651N1+01601+01501999999ADDMA1102201999999REMMET064METAR SBQV 221033Z SPECI 07008KT 9999 FEW006 SCT010 16/15 Q1022;
0120833440999992008082212004-14950-040883FM-15+0914SBQV V0200901N004112200019N0112651N1+02001+01401999999ADDGA1021+004501999GF102991999999999999999999MA1102201999999REMMET051METAR SBQV 221200Z 09008KT 9999 FEW015 20/14 Q1022;
0120833440999992008082213004-14950-040883FM-15+0914SBQV V0201001N003112200019N0112651N1+02201+01301999999ADDGA1021+005401999GF102991999999999999999999MA1102301999999REMMET051METAR SBQV 221300Z 10006KT 9999 FEW018 22/13 Q1023;
0120833440999992008082214004-14950-040883FM-15+0914SBQV V0201401N003612200019N0112651N1+02401+01201999999ADDGA1041+006001999GF104991999999999999999999MA1102201999999REMMET051METAR SBQV 221400Z 14007KT 9999 SCT020 24/12 Q1022;
0120833440999992008082215004-14950-040883FM-15+0914SBQV V0201401N003610075019N0112651N1+02401+01301999999ADDGA1071+007501999GF107991999999999999999999MA1102101999999REMMET051METAR SBQV 221500Z 14007KT 9999 BKN025 24/13 Q1021;
0120833440999992008082216004-14950-040883FM-15+0914SBQV V0201301N004610075019N0112651N1+02501+01301999999ADDGA1071+007501999GF107991999999999999999999MA1102101999999REMMET051METAR SBQV 221600Z 13009KT 9999 BKN025 25/13 Q1021;
0120833440999992008082217004-14950-040883FM-15+0914SBQV V0201601N003610075019N0112651N1+02401+01301999999ADDGA1071+007501999GF107991999999999999999999MA1102001999999REMMET051METAR SBQV 221700Z 16007KT 9999 BKN025 24/13 Q1020;
0120833440999992008082218004-14950-040883FM-15+0914SBQV V0201201N003610075019N0112651N1+02501+01301999999ADDGA1071+007501999GF107991999999999999999999MA1101901999999REMMET051METAR SBQV 221800Z 12007KT 9999 BKN025 25/13 Q1019;
0120833440999992008082219004-14950-040883FM-15+0914SBQV V0201601N004112200019N0112651N1+02401+01301999999ADDGA1041+006001999GF104991999999999999999999MA1101901999999REMMET051METAR SBQV 221900Z 16008KT 9999 SCT020 24/13 Q1019;
0120833440999992008082220004-14950-040883FM-15+0914SBQV V0201301N004612200019N0112651N1+02301+01301999999ADDGA1041+005401999GF104991999999999999999999MA1101901999999REMMET051METAR SBQV 222000Z 13009KT 9999 SCT018 23/13 Q1019;
0120833440999992008082221004-14950-040883FM-15+0914SBQV V0201201N004112200019N0112651N1+02101+01401999999ADDGA1021+004801999GF102991999999999999999999MA1101901999999REMMET051METAR SBQV 222100Z 12008KT 9999 FEW016 21/14 Q1019;
0120833440999992008082222004-14950-040883FM-15+0914SBQV V0201201N003612200019N0112651N1+02001+01401999999ADDGA1021+004501999GF102991999999999999999999MA1102001999999REMMET051METAR SBQV 222200Z 12007KT 9999 FEW015 20/14 Q1020;
0084833440999992008082310154-14950-040883FM-16+0914SBQV V0201301N002612200019N0112651N1+01701+01601999999ADDMA1102301999999REMMET057METAR SBQV 231015Z SPECI 13005KT 9999 FEW010 17/16 Q1023;
0120833440999992008082311004-14950-040883FM-15+0914SBQV V0201401N003612200019N0112651N1+02001+01601999999ADDGA1041+003901999GF104991999999999999999999MA1102301999999REMMET051METAR SBQV 231100Z 14007KT 9999 SCT013 20/16 Q1023;
0120833440999992008082312004-14950-040883FM-15+0914SBQV V0201501N005112200019N0112651N1+02101+01501999999ADDGA1041+004501999GF104991999999999999999999MA1102401999999REMMET051METAR SBQV 231200Z 15010KT 9999 SCT015 21/15 Q1024;
0120833440999992008082313004-14950-040883FM-15+0914SBQV V0201301N004612200019N0112651N1+02301+01501999999ADDGA1041+004801999GF104991999999999999999999MA1102401999999REMMET051METAR SBQV 231300Z 13009KT 9999 SCT016 23/15 Q1024;
0120833440999992008082314004-14950-040883FM-15+0914SBQV V0201401N005710054019N0112651N1+02301+01401999999ADDGA1071+005401999GF107991999999999999999999MA1102301999999REMMET051METAR SBQV 231400Z 14011KT 9999 BKN018 23/14 Q1023;
0120833440999992008082315004-14950-040883FM-15+0914SBQV V0201501N006212200019N0112651N1+02501+01401999999ADDGA1041+006001999GF104991999999999999999999MA1102301999999REMMET051METAR SBQV 231500Z 15012KT 9999 SCT020 25/14 Q1023;
0120833440999992008082316004-14950-040883FM-15+0914SBQV V0201201N005712200019N0112651N1+02601+01401999999ADDGA1041+007501999GF104991999999999999999999MA1102201999999REMMET051METAR SBQV 231600Z 12011KT 9999 SCT025 26/14 Q1022;
0143833440999992008082317004-14950-040883FM-15+0914SBQV V0201201N006712200019N0112651N1+02501+01301999999ADDGA1041+007501999GA2041+027001999GF104991999999999999999999MA1102101999999REMMET058METAR SBQV 231700Z 12013KT 9999 SCT025 SCT090 25/13 Q1021;
0143833440999992008082318004-14950-040883FM-15+0914SBQV V0201401N006710270019N0112651N1+02401+01301999999ADDGA1041+007501999GA2071+027001999GF107991999999999999999999MA1102001999999REMMET058METAR SBQV 231800Z 14013KT 9999 SCT025 BKN090 24/13 Q1020;
0143833440999992008082319004-14950-040883FM-15+0914SBQV V0201301N007710270019N0112651N1+02301+01201999999ADDGA1021+007501999GA2071+027001999GF107991999999999999999999MA1102001999999REMMET058METAR SBQV 231900Z 13015KT 9999 FEW025 BKN090 23/12 Q1020;
0143833440999992008082320004-14950-040883FM-15+0914SBQV V0201101N005710240019N0112651N1+02301+01101999999ADDGA1021+006001999GA2071+024001999GF107991999999999999999999MA1102101999999REMMET058METAR SBQV 232000Z 11011KT 9999 FEW020 BKN080 23/11 Q1021;
0072833440999992008082321004-14950-040883FM-15+0914SBQV V0201201N00571220001CN0099001N1+02201+01101999999ADDMA1102101999999REMMET045METAR SBQV 232100Z 12011KT CAVOK 22/11 Q1021;
0072833440999992008082322004-14950-040883FM-15+0914SBQV V0201201N00671220001CN0099001N1+02001+01301999999ADDMA1102201999999REMMET045METAR SBQV 232200Z 12013KT CAVOK 20/13 Q1022;
0072833440999992008082401004-14950-040883FM-15+0914SBQV V0201101N00571220001CN0099001N1+01701+01401999999ADDMA1102301999999REMMET045METAR SBQV 240100Z 11011KT CAVOK 17/14 Q1023;
0120833440999992008082405004-14950-040883FM-15+0914SBQV V0201201N006712200019N0112651N1+01601+01401999999ADDGA1041+002701999GF104991999999999999999999MA1102201999999REMMET051METAR SBQV 240500Z 12013KT 9999 SCT009 16/14 Q1022;
0120833440999992008082406004-14950-040883FM-15+0914SBQV V0201201N005112200019N0112651N1+01501+01401999999ADDGA1021+002701999GF102991999999999999999999MA1102201999999REMMET051METAR SBQV 240600Z 12010KT 9999 FEW009 15/14 Q1022;
0120833440999992008082407004-14950-040883FM-15+0914SBQV V0201101N005112200019N0112651N1+01501+01401999999ADDGA1021+002701999GF102991999999999999999999MA1102201999999REMMET051METAR SBQV 240700Z 11010KT 9999 FEW009 15/14 Q1022;
0143833440999992008082411004-14950-040883FM-15+0914SBQV V0201301N005712200019N0112651N1+01701+01501999999ADDGA1041+003301999GA2041+021001999GF104991999999999999999999MA1102401999999REMMET058METAR SBQV 241100Z 13011KT 9999 SCT011 SCT070 17/15 Q1024;
0143833440999992008082412004-14950-040883FM-15+0914SBQV V0201401N006712200019N0112651N1+02001+01501999999ADDGA1041+003901999GA2041+021001999GF104991999999999999999999MA1102401999999REMMET058METAR SBQV 241200Z 14013KT 9999 SCT013 SCT070 20/15 Q1024;
0120833440999992008082413004-14950-040883FM-15+0914SBQV V0201301N007212200019N0112651N1+02201+01301999999ADDGA1041+004501999GF104991999999999999999999MA1102401999999REMMET051METAR SBQV 241300Z 13014KT 9999 SCT015 22/13 Q1024;
0120833440999992008082414004-14950-040883FM-15+0914SBQV V0201201N006712200019N0112651N1+02301+01201999999ADDGA1041+004801999GF104991999999999999999999MA1102401999999REMMET051METAR SBQV 241400Z 12013KT 9999 SCT016 23/12 Q1024;
0120833440999992008082415004-14950-040883FM-15+0914SBQV V0201401N007712200019N0112651N1+02301+01201999999ADDGA1041+005401999GF104991999999999999999999MA1102301999999REMMET051METAR SBQV 241500Z 14015KT 9999 SCT018 23/12 Q1023;
0120833440999992008082416004-14950-040883FM-15+0914SBQV V0201301N007210060019N0112651N1+02401+01301999999ADDGA1071+006001999GF107991999999999999999999MA1102201999999REMMET051METAR SBQV 241600Z 13014KT 9999 BKN020 24/13 Q1022;
0120833440999992008082417004-14950-040883FM-15+0914SBQV V0201101N006212200019N0112651N1+02401+01201999999ADDGA1041+006001999GF104991999999999999999999MA1102101999999REMMET051METAR SBQV 241700Z 11012KT 9999 SCT020 24/12 Q1021;
0120833440999992008082418004-14950-040883FM-15+0914SBQV V0201301N006212200019N0112651N1+02501+01101999999ADDGA1041+006001999GF104991999999999999999999MA1102101999999REMMET051METAR SBQV 241800Z 13012KT 9999 SCT020 25/11 Q1021;
0120833440999992008082419004-14950-040883FM-15+0914SBQV V0200901N006212200019N0112651N1+02301+01201999999ADDGA1021+006001999GF102991999999999999999999MA1102101999999REMMET051METAR SBQV 241900Z 09012KT 9999 FEW020 23/12 Q1021;
0120833440999992008082420004-14950-040883FM-15+0914SBQV V0201001N005712200019N0112651N1+02301+01101999999ADDGA1021+006001999GF102991999999999999999999MA1102101999999REMMET051METAR SBQV 242000Z 10011KT 9999 FEW020 23/11 Q1021;
0120833440999992008082421004-14950-040883FM-15+0914SBQV V0201101N003612200019N0112651N1+02101+01001999999ADDGA1021+004801999GF102991999999999999999999MA1102101999999REMMET051METAR SBQV 242100Z 11007KT 9999 FEW016 21/10 Q1021;
0120833440999992008082422004-14950-040883FM-15+0914SBQV V0200901N003612200019N0112651N1+02001+01101999999ADDGA1021+004801999GF102991999999999999999999MA1102201999999REMMET051METAR SBQV 242200Z 09007KT 9999 FEW016 20/11 Q1022;
0120833440999992008082423004-14950-040883FM-15+0914SBQV V0201201N004612200019N0112651N1+01801+01601999999ADDGA1021+002701999GF102991999999999999999999MA1102201999999REMMET051METAR SBQV 242300Z 12009KT 9999 FEW009 18/16 Q1022;
0120833440999992008082500004-14950-040883FM-15+0914SBQV V0201101N007712200019N0112651N1+01701+01601999999ADDGA1041+002401999GF104991999999999999999999MA1102301999999REMMET051METAR SBQV 250000Z 11015KT 9999 SCT008 17/16 Q1023;
0120833440999992008082501004-14950-040883FM-15+0914SBQV V0201201N007712200019N0112651N1+01601+01601999999ADDGA1041+001501999GF104991999999999999999999MA1102301999999REMMET051METAR SBQV 250100Z 12015KT 9999 SCT005 16/16 Q1023;
0130833440999992008082506004-14950-040883FM-15+0914SBQV V0201401N006210012019N0112651N1+01501+01501999999ADDGA1071+001201999GF107991999999999999999999MA1102201999999MW1511REMMET055METAR SBQV 250600Z 14012KT 9999 -DZ BKN004 15/15 Q1022;
0166833440999992008082511004-14950-040883FM-15+0914SBQV V0201401N00571002401CN0112651N1+01501+01501999999ADDGA1021+001801999GA2041+002401999GA3081+021001999GF108991999999999999999999MA1102401999999REMMET065METAR SBQV 251100Z 14011KT 9999 FEW006 SCT008 OVC070 15/15 Q1024;
0143833440999992008082512004-14950-040883FM-15+0914SBQV V0201401N005710030019N0112651N1+01601+01501999999ADDGA1071+003001999GA2071+021001999GF107991999999999999999999MA1102401999999REMMET058METAR SBQV 251200Z 14011KT 9999 BKN010 BKN070 16/15 Q1024;
0120833440999992008082513004-14950-040883FM-15+0914SBQV V0201501N004610039019N0112651N1+01801+01501999999ADDGA1071+003901999GF107991999999999999999999MA1102401999999REMMET051METAR SBQV 251300Z 15009KT 9999 BKN013 18/15 Q1024;
0120833440999992008082514004-14950-040883FM-15+0914SBQV V0201501N003610045019N0112651N1+01801+01501999999ADDGA1071+004501999GF107991999999999999999999MA1102401999999REMMET051METAR SBQV 251400Z 15007KT 9999 BKN015 18/15 Q1024;
0120833440999992008082515004-14950-040883FM-15+0914SBQV V0201101N004610048019N0112651N1+02001+01601999999ADDGA1071+004801999GF107991999999999999999999MA1102301999999REMMET051METAR SBQV 251500Z 11009KT 9999 BKN016 20/16 Q1023;
0120833440999992008082516004-14950-040883FM-15+0914SBQV V0201101N005710048019N0112651N1+02001+01501999999ADDGA1071+004801999GF107991999999999999999999MA1102201999999REMMET051METAR SBQV 251600Z 11011KT 9999 BKN016 20/15 Q1022;
0120833440999992008082517004-14950-040883FM-15+0914SBQV V0201001N004110048019N0112651N1+02101+01501999999ADDGA1071+004801999GF107991999999999999999999MA1102101999999REMMET051METAR SBQV 251700Z 10008KT 9999 BKN016 21/15 Q1021;
0136833440999992008082518004-14950-040883FM-15+0914SBQV V0201201N00411220001CN0112651N1+02201+01501999999ADDGA1071+006001999GA2041+024001999MA1102101999999REMMET058METAR SBQV 251800Z 12008KT 9999 BKN020 SCT080 22/15 Q1021;EQDQ01+000042SCOTCV
0143833440999992008082519004-14950-040883FM-15+0914SBQV V0201101N004610240019N0112651N1+02201+01501999999ADDGA1041+006001999GA2071+024001999GF107991999999999999999999MA1102101999999REMMET058METAR SBQV 251900Z 11009KT 9999 SCT020 BKN080 22/15 Q1021;
0143833440999992008082520004-14950-040883FM-15+0914SBQV V0201201N004110210019N0112651N1+02001+01601999999ADDGA1021+005401999GA2071+021001999GF107991999999999999999999MA1102101999999REMMET058METAR SBQV 252000Z 12008KT 9999 FEW018 BKN070 20/16 Q1021;
0072833440999992008082521004-14950-040883FM-15+0914SBQV V0201301N00411220001CN0099001N1+01801+01601999999ADDMA1102101999999REMMET045METAR SBQV 252100Z 13008KT CAVOK 18/16 Q1021;
0072833440999992008082522004-14950-040883FM-15+0914SBQV V0201101N00311220001CN0099001N1+01701+01601999999ADDMA1102201999999REMMET045METAR SBQV 252200Z 11006KT CAVOK 17/16 Q1022;
0143833440999992008082611004-14950-040883FM-15+0914SBQV V0201301N003610045019N0112651N1+01801+01601999999ADDGA1071+004501999GA2071+021001999GF107991999999999999999999MA1102201999999REMMET058METAR SBQV 261100Z 13007KT 9999 BKN015 BKN070 18/16 Q1022;
0143833440999992008082612004-14950-040883FM-15+0914SBQV V0201401N003110045019N0112651N1+01901+01601999999ADDGA1071+004501999GA2071+021001999GF107991999999999999999999MA1102301999999REMMET058METAR SBQV 261200Z 14006KT 9999 BKN015 BKN070 19/16 Q1023;
0136833440999992008082613004-14950-040883FM-15+0914SBQV V0200901N00361220001CN0112651N1+02101+01501999999ADDGA1071+006001999GA2041+024001999MA1102301999999REMMET058METAR SBQV 261300Z 09007KT 9999 BKN020 SCT080 21/15 Q1023;EQDQ01+000042SCOTCV
0120833440999992008082614004-14950-040883FM-15+0914SBQV V0201401N004110060019N0112651N1+02201+01601999999ADDGA1071+006001999GF107991999999999999999999MA1102201999999REMMET051METAR SBQV 261400Z 14008KT 9999 BKN020 22/16 Q1022;
0120833440999992008082615004-14950-040883FM-15+0914SBQV V0201301N004112200019N0112651N1+02201+01501999999ADDGA1041+006001999GF104991999999999999999999MA1102201999999REMMET051METAR SBQV 261500Z 13008KT 9999 SCT020 22/15 Q1022;
0120833440999992008082616004-14950-040883FM-15+0914SBQV V0201101N004112200019N0112651N1+02401+01401999999ADDGA1021+007501999GF102991999999999999999999MA1102101999999REMMET051METAR SBQV 261600Z 11008KT 9999 FEW025 24/14 Q1021;
0120833440999992008082617004-14950-040883FM-15+0914SBQV V0201301N005112200019N0112651N1+02501+01501999999ADDGA1041+007501999GF104991999999999999999999MA1101901999999REMMET051METAR SBQV 261700Z 13010KT 9999 SCT025 25/15 Q1019;
0120833440999992008082618004-14950-040883FM-15+0914SBQV V0201301N005112200019N0112651N1+02401+01401999999ADDGA1041+007501999GF104991999999999999999999MA1101901999999REMMET051METAR SBQV 261800Z 13010KT 9999 SCT025 24/14 Q1019;
0120833440999992008082619004-14950-040883FM-15+0914SBQV V0201201N005112200019N0112651N1+02401+01401999999ADDGA1021+007501999GF102991999999999999999999MA1101901999999REMMET051METAR SBQV 261900Z 12010KT 9999 FEW025 24/14 Q1019;
0120833440999992008082620004-14950-040883FM-15+0914SBQV V0201301N005112200019N0112651N1+02301+01301999999ADDGA1021+006001999GF102991999999999999999999MA1101901999999REMMET051METAR SBQV 262000Z 13010KT 9999 FEW020 23/13 Q1019;
0120833440999992008082621004-14950-040883FM-15+0914SBQV V0201101N003612200019N0112651N1+02001+01301999999ADDGA1021+004801999GF102991999999999999999999MA1101901999999REMMET051METAR SBQV 262100Z 11007KT 9999 FEW016 20/13 Q1019;
0072833440999992008082622004-14950-040883FM-15+0914SBQV V0201201N00261220001CN0099001N1+01901+01301999999ADDMA1101901999999REMMET045METAR SBQV 262200Z 12005KT CAVOK 19/13 Q1019;
0143833440999992008082711004-14950-040883FM-15+0914SBQV V0200601N001012200019N0112651N1+01601+01501999999ADDGA1021+001501999GA2041+002101999GF104991999999999999999999MA1102101999999REMMET058METAR SBQV 271100Z 06002KT 9999 FEW005 SCT007 16/15 Q1021;
0072833440999992008082712004-14950-040883FM-15+0914SBQV V0200701N00151220001CN0099001N1+01901+01401999999ADDMA1102101999999REMMET045METAR SBQV 271200Z 07003KT CAVOK 19/14 Q1021;
0072833440999992008082713004-14950-040883FM-15+0914SBQV V0201201N00151220001CN0099001N1+02201+01201999999ADDMA1102101999999REMMET045METAR SBQV 271300Z 12003KT CAVOK 22/12 Q1021;
0120833440999992008082714004-14950-040883FM-15+0914SBQV V0201201N002612200019N0112651N1+02501+00701999999ADDGA1021+007501999GF102991999999999999999999MA1102101999999REMMET051METAR SBQV 271400Z 12005KT 9999 FEW025 25/07 Q1021;
0120833440999992008082715004-14950-040883FM-15+0914SBQV V0200601N001512200019N0112651N1+02601+00601999999ADDGA1021+009001999GF102991999999999999999999MA1101901999999REMMET051METAR SBQV 271500Z 06003KT 9999 FEW030 26/06 Q1019;
0120833440999992008082716004-14950-040883FM-15+0914SBQV V0201601N004112200019N0112651N1+02601+00601999999ADDGA1021+009001999GF102991999999999999999999MA1101801999999REMMET051METAR SBQV 271600Z 16008KT 9999 FEW030 26/06 Q1018;
0120833440999992008082717004-14950-040883FM-15+0914SBQV V0201501N005112200019N0112651N1+02601+00801999999ADDGA1021+009001999GF102991999999999999999999MA1101691999999REMMET051METAR SBQV 271700Z 15010KT 9999 FEW030 26/08 Q1017;
0120833440999992008082718004-14950-040883FM-15+0914SBQV V0201701N004612200019N0112651N1+02601+00801999999ADDGA1021+009001999GF102991999999999999999999MA1101691999999REMMET051METAR SBQV 271800Z 17009KT 9999 FEW030 26/08 Q1017;
0120833440999992008082720004-14950-040883FM-15+0914SBQV V0201301N005712200019N0112651N1+02401+00901999999ADDGA1021+006001999GF102991999999999999999999MA1101691999999REMMET051METAR SBQV 272000Z 13011KT 9999 FEW020 24/09 Q1017;
0120833440999992008082721004-14950-040883FM-15+0914SBQV V0201301N003612200019N0112651N1+02201+01001999999ADDGA1021+004801999GF102991999999999999999999MA1101691999999REMMET051METAR SBQV 272100Z 13007KT 9999 FEW016 22/10 Q1017;
0120833440999992008082722004-14950-040883FM-15+0914SBQV V0201101N003112200019N0112651N1+02001+01001999999ADDGA1021+004501999GF102991999999999999999999MA1101801999999REMMET051METAR SBQV 272200Z 11006KT 9999 FEW015 20/10 Q1018;
0120833440999992008082811004-14950-040883FM-15+0914SBQV V0201101N004612200019N0112651N1+01801+01501999999ADDGA1021+004801999GF102991999999999999999999MA1102001999999REMMET051METAR SBQV 281100Z 11009KT 9999 FEW016 18/15 Q1020;
0072833440999992008082812004-14950-040883FM-15+0914SBQV V0201001N00461220001CN0099001N1+02101+01301999999ADDMA1102101999999REMMET045METAR SBQV 281200Z 10009KT CAVOK 21/13 Q1021;
0072833440999992008082813004-14950-040883FM-15+0914SBQV V0201101N00461220001CN0099001N1+02401+01001999999ADDMA1102101999999REMMET045METAR SBQV 281300Z 11009KT CAVOK 24/10 Q1021;
0072833440999992008082814004-14950-040883FM-15+0914SBQV V0201201N00411220001CN0099001N1+02501+00901999999ADDMA1102101999999REMMET045METAR SBQV 281400Z 12008KT CAVOK 25/09 Q1021;
0120833440999992008082815004-14950-040883FM-15+0914SBQV V0201201N002612200019N0112651N1+02701+00901999999ADDGA1021+012001999GF102991999999999999999999MA1101901999999REMMET051METAR SBQV 281500Z 12005KT 9999 FEW040 27/09 Q1019;
0120833440999992008082816004-14950-040883FM-15+0914SBQV V0201701N004112200019N0112651N1+02701+00901999999ADDGA1041+012001999GF104991999999999999999999MA1101801999999REMMET051METAR SBQV 281600Z 17008KT 9999 SCT040 27/09 Q1018;
0120833440999992008082817004-14950-040883FM-15+0914SBQV V0201401N004112200019N0112651N1+02601+01101999999ADDGA1041+012001999GF104991999999999999999999MA1101691999999REMMET051METAR SBQV 281700Z 14008KT 9999 SCT040 26/11 Q1017;
0120833440999992008082818004-14950-040883FM-15+0914SBQV V0201301N004612200019N0112651N1+02701+01201999999ADDGA1041+012001999GF104991999999999999999999MA1101691999999REMMET051METAR SBQV 281800Z 13009KT 9999 SCT040 27/12 Q1017;
0120833440999992008082819004-14950-040883FM-15+0914SBQV V0201401N005712200019N0112651N1+02601+01101999999ADDGA1021+010501999GF102991999999999999999999MA1101691999999REMMET051METAR SBQV 281900Z 14011KT 9999 FEW035 26/11 Q1017;
0120833440999992008082820004-14950-040883FM-15+0914SBQV V0201301N005712200019N0112651N1+02401+01101999999ADDGA1021+009001999GF102991999999999999999999MA1101801999999REMMET051METAR SBQV 282000Z 13011KT 9999 FEW030 24/11 Q1018;
0120833440999992008082821004-14950-040883FM-15+0914SBQV V0201201N004612200019N0112651N1+02201+01001999999ADDGA1021+007501999GF102991999999999999999999MA1101801999999REMMET051METAR SBQV 282100Z 12009KT 9999 FEW025 22/10 Q1018;
0072833440999992008082822004-14950-040883FM-15+0914SBQV V0201001N00361220001CN0099001N1+02101+01101999999ADDMA1101801999999REMMET045METAR SBQV 282200Z 10007KT CAVOK 21/11 Q1018;
0072833440999992008082911004-14950-040883FM-15+0914SBQV V0200701N00261220001CN0099001N1+02101+01001999999ADDMA1102101999999REMMET045METAR SBQV 291100Z 07005KT CAVOK 21/10 Q1021;
0072833440999992008082912004-14950-040883FM-15+0914SBQV V0200301N00411220001CN0099001N1+02301+01101999999ADDMA1102101999999REMMET045METAR SBQV 291200Z 03008KT CAVOK 23/11 Q1021;
0072833440999992008082913004-14950-040883FM-15+0914SBQV V0200701N00211220001CN0099001N1+02501+00901999999ADDMA1102101999999REMMET045METAR SBQV 291300Z 07004KT CAVOK 25/09 Q1021;
0072833440999992008082914004-14950-040883FM-15+0914SBQV V0209999C00001220001CN0099001N1+02701+00901999999ADDMA1102001999999REMMET045METAR SBQV 291400Z 00000KT CAVOK 27/09 Q1020;
0143833440999992008082915004-14950-040883FM-15+0914SBQV V0202601N001510900019N0112651N1+02801+00801999999ADDGA1021+012001999GA2071+090001999GF107991999999999999999999MA1101901999999REMMET058METAR SBQV 291500Z 26003KT 9999 FEW040 BKN300 28/08 Q1019;
0143833440999992008082916004-14950-040883FM-15+0914SBQV V0201101N003610900019N0112651N1+02901+00801999999ADDGA1021+012001999GA2071+090001999GF107991999999999999999999MA1101801999999REMMET058METAR SBQV 291600Z 11007KT 9999 FEW040 BKN300 29/08 Q1018;
0143833440999992008082917004-14950-040883FM-15+0914SBQV V0201501N005110900019N0112651N1+02801+00801999999ADDGA1021+012001999GA2071+090001999GF107991999999999999999999MA1101691999999REMMET058METAR SBQV 291700Z 15010KT 9999 FEW040 BKN300 28/08 Q1017;
0143833440999992008082918004-14950-040883FM-15+0914SBQV V0201401N006210900019N0112651N1+02801+01001999999ADDGA1021+012001999GA2071+090001999GF107991999999999999999999MA1101691999999REMMET058METAR SBQV 291800Z 14012KT 9999 FEW040 BKN300 28/10 Q1017;
0143833440999992008082919004-14950-040883FM-15+0914SBQV V0201301N006210900019N0112651N1+02601+01101999999ADDGA1021+009001999GA2071+090001999GF107991999999999999999999MA1101691999999REMMET058METAR SBQV 291900Z 13012KT 9999 FEW030 BKN300 26/11 Q1017;
0143833440999992008082920004-14950-040883FM-15+0914SBQV V0201401N006210900019N0112651N1+02501+01201999999ADDGA1021+007501999GA2071+090001999GF107991999999999999999999MA1101691999999REMMET058METAR SBQV 292000Z 14012KT 9999 FEW025 BKN300 25/12 Q1017;
0143833440999992008082921004-14950-040883FM-15+0914SBQV V0201301N003612200019N0112651N1+02301+01201999999ADDGA1021+004801999GA2041+090001999GF104991999999999999999999MA1101691999999REMMET058METAR SBQV 292100Z 13007KT 9999 FEW016 SCT300 23/12 Q1017;
0143833440999992008082922004-14950-040883FM-15+0914SBQV V0201201N002612200019N0112651N1+02101+01201999999ADDGA1021+004501999GA2041+090001999GF104991999999999999999999MA1101801999999REMMET058METAR SBQV 292200Z 12005KT 9999 FEW015 SCT300 21/12 Q1018;
0072833440999992008083011004-14950-040883FM-15+0914SBQV V0200501N00311220001CN0099001N1+02201+01001999999ADDMA1101901999999REMMET045METAR SBQV 301100Z 05006KT CAVOK 22/10 Q1019;
0072833440999992008083012004-14950-040883FM-15+0914SBQV V0200701N00261220001CN0099001N1+02401+01001999999ADDMA1102001999999REMMET045METAR SBQV 301200Z 07005KT CAVOK 24/10 Q1020;
0072833440999992008083013004-14950-040883FM-15+0914SBQV V0201301N00361220001CN0099001N1+02601+00801999999ADDMA1102001999999REMMET045METAR SBQV 301300Z 13007KT CAVOK 26/08 Q1020;
0072833440999992008083014004-14950-040883FM-15+0914SBQV V0201401N00461220001CN0099001N1+02701+00701999999ADDMA1101901999999REMMET045METAR SBQV 301400Z 14009KT CAVOK 27/07 Q1019;
0072833440999992008083017004-14950-040883FM-15+0914SBQV V0201401N00621220001CN0099001N1+02701+00801999999ADDMA1101691999999REMMET045METAR SBQV 301700Z 14012KT CAVOK 27/08 Q1017;
0143833440999992008083018004-14950-040883FM-15+0914SBQV V0201301N005110900019N0112651N1+02701+00901999999ADDGA1021+012001999GA2071+090001999GF107991999999999999999999MA1101591999999REMMET058METAR SBQV 301800Z 13010KT 9999 FEW040 BKN300 27/09 Q1016;
0143833440999992008083019004-14950-040883FM-15+0914SBQV V0201201N005712200019N0112651N1+02601+01001999999ADDGA1021+012001999GA2041+090001999GF104991999999999999999999MA1101591999999REMMET058METAR SBQV 301900Z 12011KT 9999 FEW040 SCT300 26/10 Q1016;
0143833440999992008083020004-14950-040883FM-15+0914SBQV V0201201N005112200019N0112651N1+02401+01001999999ADDGA1021+010501999GA2041+090001999GF104991999999999999999999MA1101691999999REMMET058METAR SBQV 302000Z 12010KT 9999 FEW035 SCT300 24/10 Q1017;
0072833440999992008083021004-14950-040883FM-15+0914SBQV V0201101N00571220001CN0099001N1+02301+01101999999ADDMA1101691999999REMMET045METAR SBQV 302100Z 11011KT CAVOK 23/11 Q1017;
0072833440999992008083022004-14950-040883FM-15+0914SBQV V0201101N00461220001CN0099001N1+02101+01201999999ADDMA1101801999999REMMET045METAR SBQV 302200Z 11009KT CAVOK 21/12 Q1018;
0084833440999992008083110154-14950-040883FM-16+0914SBQV V0201201N004112200019N9999999N1+01601+01501999999ADDMA1102101999999REMMET057METAR SBQV 311015Z SPECI 12008KT 7000 SCT006 16/15 Q1021;
0072833440999992008083111004-14950-040883FM-15+0914SBQV V0201201N00571220001CN0099001N1+01901+01401999999ADDMA1102101999999REMMET045METAR SBQV 311100Z 12011KT CAVOK 19/14 Q1021;
0072833440999992008083112004-14950-040883FM-15+0914SBQV V0201101N00621220001CN0099001N1+02201+01301999999ADDMA1102201999999REMMET045METAR SBQV 311200Z 11012KT CAVOK 22/13 Q1022;
0120833440999992008083113004-14950-040883FM-15+0914SBQV V0201001N006212200019N0112651N1+02301+01201999999ADDGA1021+010501999GF102991999999999999999999MA1102201999999REMMET051METAR SBQV 311300Z 10012KT 9999 FEW035 23/12 Q1022;
0120833440999992008083114004-14950-040883FM-15+0914SBQV V0201201N004612200019N0112651N1+02401+01301999999ADDGA1021+010501999GF102991999999999999999999MA1102101999999REMMET051METAR SBQV 311400Z 12009KT 9999 FEW035 24/13 Q1021;
0120833440999992008083115004-14950-040883FM-15+0914SBQV V0201201N005712200019N0112651N1+02401+01301999999ADDGA1041+010501999GF104991999999999999999999MA1102101999999REMMET051METAR SBQV 311500Z 12011KT 9999 SCT035 24/13 Q1021;
0120833440999992008083116004-14950-040883FM-15+0914SBQV V0201201N005112200019N0112651N1+02401+01301999999ADDGA1041+010501999GF104991999999999999999999MA1102001999999REMMET051METAR SBQV 311600Z 12010KT 9999 SCT035 24/13 Q1020;
0120833440999992008083117004-14950-040883FM-15+0914SBQV V0201201N005112200019N0112651N1+02401+01401999999ADDGA1041+010501999GF104991999999999999999999MA1101901999999REMMET051METAR SBQV 311700Z 12010KT 9999 SCT035 24/14 Q1019;
0120833440999992008083118004-14950-040883FM-15+0914SBQV V0201201N006712200019N0112651N1+02401+01401999999ADDGA1041+010501999GF104991999999999999999999MA1101801999999REMMET051METAR SBQV 311800Z 12013KT 9999 SCT035 24/14 Q1018;
0120833440999992008083119004-14950-040883FM-15+0914SBQV V0201101N004612200019N0112651N1+02401+01401999999ADDGA1021+010501999GF102991999999999999999999MA1101801999999REMMET051METAR SBQV 311900Z 11009KT 9999 FEW035 24/14 Q1018;
0120833440999992008083120004-14950-040883FM-15+0914SBQV V0201401N006212200019N0112651N1+02301+01401999999ADDGA1021+009001999GF102991999999999999999999MA1101901999999REMMET051METAR SBQV 312000Z 14012KT 9999 FEW030 23/14 Q1019;
0072833440999992008083121004-14950-040883FM-15+0914SBQV V0201201N00411220001CN0099001N1+02201+01401999999ADDMA1101901999999REMMET045METAR SBQV 312100Z 12008KT CAVOK 22/14 Q1019;
0072833440999992008083122004-14950-040883FM-15+0914SBQV V0201201N00361220001CN0099001N1+02001+01401999999ADDMA1101901999999REMMET045METAR SBQV 312200Z 12007KT CAVOK 20/14 Q1019;
0120833440999992008090111004-14950-040883FM-15+0914SBQV V0201501N007710033019N0112651N1+01801+01501999999ADDGA1071+003301999GF107991999999999999999999MA1102201999999REMMET051METAR SBQV 011100Z 15015KT 9999 BKN011 18/15 Q1022;
0120833440999992008090113004-14950-040883FM-15+0914SBQV V0201301N008210045019N0112651N1+02101+01401999999ADDGA1071+004501999GF107991999999999999999999MA1102301999999REMMET051METAR SBQV 011300Z 13016KT 9999 BKN015 21/14 Q1023;
0120833440999992008090114004-14950-040883FM-15+0914SBQV V0201401N007710045019N0112651N1+02101+01501999999ADDGA1071+004501999GF107991999999999999999999MA1102301999999REMMET051METAR SBQV 011400Z 14015KT 9999 BKN015 21/15 Q1023;
0143833440999992008090115004-14950-040883FM-15+0914SBQV V0201201N006710054019N0112651N1+02201+01401999999ADDGA1041+004501999GA2071+005401999GF107991999999999999999999MA1102201999999REMMET058METAR SBQV 011500Z 12013KT 9999 SCT015 BKN018 22/14 Q1022;
0120833440999992008090116004-14950-040883FM-15+0914SBQV V0201201N006710060019N0112651N1+02301+01301999999ADDGA1071+006001999GF107991999999999999999999MA1102201999999REMMET051METAR SBQV 011600Z 12013KT 9999 BKN020 23/13 Q1022;
0120833440999992008090117004-14950-040883FM-15+0914SBQV V0201201N005710060019N0112651N1+02401+01301999999ADDGA1071+006001999GF107991999999999999999999MA1102001999999REMMET051METAR SBQV 011700Z 12011KT 9999 BKN020 24/13 Q1020;
0120833440999992008090118004-14950-040883FM-15+0914SBQV V0201201N006212200019N0112651N1+02401+01301999999ADDGA1041+006001999GF104991999999999999999999MA1102001999999REMMET051METAR SBQV 011800Z 12012KT 9999 SCT020 24/13 Q1020;
0120833440999992008090119004-14950-040883FM-15+0914SBQV V0201001N006212200019N0112651N1+02301+01201999999ADDGA1021+006001999GF102991999999999999999999MA1102001999999REMMET051METAR SBQV 011900Z 10012KT 9999 FEW020 23/12 Q1020;
0120833440999992008090120004-14950-040883FM-15+0914SBQV V0201101N005712200019N0112651N1+02301+01301999999ADDGA1021+006001999GF102991999999999999999999MA1102001999999REMMET051METAR SBQV 012000Z 11011KT 9999 FEW020 23/13 Q1020;
0143833440999992008090121004-14950-040883FM-15+0914SBQV V0201201N004612200019N0112651N1+02101+01401999999ADDGA1021+005401999GA2041+090001999GF104991999999999999999999MA1102001999999REMMET058METAR SBQV 012100Z 12009KT 9999 FEW018 SCT300 21/14 Q1020;
0072833440999992008090122004-14950-040883FM-15+0914SBQV V0201101N00311220001CN0099001N1+01901+01501999999ADDMA1102001999999REMMET045METAR SBQV 012200Z 11006KT CAVOK 19/15 Q1020;
0072833440999992008090123004-14950-040883FM-15+0914SBQV V0201101N00311220001CN0099001N1+01801+01501999999ADDMA1102101999999REMMET045METAR SBQV 012300Z 11006KT CAVOK 18/15 Q1021;
0120833440999992008090200004-14950-040883FM-15+0914SBQV V0201201N004112200019N0112651N1+01801+01601999999ADDGA1021+002701999GF102991999999999999999999MA1102101999999REMMET051METAR SBQV 020000Z 12008KT 9999 FEW009 18/16 Q1021;
0091833440999992008090210154-14950-040883FM-16+0914SBQV V0201201N005712200019N0112651N1+01601+01401999999ADDMA1102201999999REMMET064METAR SBQV 021015Z SPECI 12011KT 9999 SCT008 BKN080 16/14 Q1022;
0143833440999992008090212004-14950-040883FM-15+0914SBQV V0201101N007210900019N0112651N1+01901+01401999999ADDGA1021+004501999GA2071+090001999GF107991999999999999999999MA1102201999999REMMET058METAR SBQV 021200Z 11014KT 9999 FEW015 BKN300 19/14 Q1022;
0143833440999992008090213004-14950-040883FM-15+0914SBQV V0201101N006710900019N0112651N1+02101+01401999999ADDGA1021+004501999GA2071+090001999GF107991999999999999999999MA1102301999999REMMET058METAR SBQV 021300Z 11013KT 9999 FEW015 BKN300 21/14 Q1023;
0143833440999992008090214004-14950-040883FM-15+0914SBQV V0201001N005110900019N0112651N1+02201+01401999999ADDGA1021+004801999GA2071+090001999GF107991999999999999999999MA1102201999999REMMET058METAR SBQV 021400Z 10010KT 9999 FEW016 BKN300 22/14 Q1022;
0143833440999992008090215004-14950-040883FM-15+0914SBQV V0201101N005710054019N0112651N1+02101+01401999999ADDGA1071+005401999GA2071+090001999GF107991999999999999999999MA1102201999999REMMET058METAR SBQV 021500Z 11011KT 9999 BKN018 BKN300 21/14 Q1022;
0143833440999992008090216004-14950-040883FM-15+0914SBQV V0201001N004610900019N0112651N1+02201+01401999999ADDGA1041+006001999GA2071+090001999GF107991999999999999999999MA1102101999999REMMET058METAR SBQV 021600Z 10009KT 9999 SCT020 BKN300 22/14 Q1021;
0143833440999992008090217004-14950-040883FM-15+0914SBQV V0201101N005710900019N0112651N1+02301+01501999999ADDGA1021+006001999GA2071+090001999GF107991999999999999999999MA1102001999999REMMET058METAR SBQV 021700Z 11011KT 9999 FEW020 BKN300 23/15 Q1020;
0143833440999992008090218004-14950-040883FM-15+0914SBQV V0201101N005710900019N0112651N1+02301+01501999999ADDGA1021+006001999GA2071+090001999GF107991999999999999999999MA1101901999999REMMET058METAR SBQV 021800Z 11011KT 9999 FEW020 BKN300 23/15 Q1019;
0143833440999992008090219004-14950-040883FM-15+0914SBQV V0201101N006710900019N0112651N1+02201+01501999999ADDGA1021+006001999GA2071+090001999GF107991999999999999999999MA1101901999999REMMET058METAR SBQV 021900Z 11013KT 9999 FEW020 BKN300 22/15 Q1019;
0143833440999992008090220004-14950-040883FM-15+0914SBQV V0201001N005110900019N0112651N1+02101+01501999999ADDGA1021+006001999GA2071+090001999GF107991999999999999999999MA1101901999999REMMET058METAR SBQV 022000Z 10010KT 9999 FEW020 BKN300 21/15 Q1019;
0143833440999992008090221004-14950-040883FM-15+0914SBQV V0201001N004610048019N0112651N1+02001+01501999999ADDGA1071+004801999GA2071+090001999GF107991999999999999999999MA1101901999999REMMET058METAR SBQV 022100Z 10009KT 9999 BKN016 BKN300 20/15 Q1019;
0143833440999992008090222004-14950-040883FM-15+0914SBQV V0201001N004610048019N0112651N1+02001+01601999999ADDGA1071+004801999GA2071+090001999GF107991999999999999999999MA1102001999999REMMET058METAR SBQV 022200Z 10009KT 9999 BKN016 BKN300 20/16 Q1020;
0116833440999992008090310154-14950-040883FM-16+0914SBQV V0201001N003619999999N0112651N1+01701+01601999999ADDKA1999M+99999MA1102101999999REMMET057METAR SBQV 031015Z SPECI 10007KT 9999 SCT006 17/16 Q1021;EQDQ01 +00072ATMX  
0143833440999992008090311004-14950-040883FM-15+0914SBQV V0201101N004610045019N0112651N1+01901+01601999999ADDGA1041+002701999GA2071+004501999GF107991999999999999999999MA1102201999999REMMET058METAR SBQV 031100Z 11009KT 9999 SCT009 BKN015 19/16 Q1022;
0120833440999992008090312004-14950-040883FM-15+0914SBQV V0200901N004110045019N0112651N1+02101+01601999999ADDGA1071+004501999GF107991999999999999999999MA1102201999999REMMET051METAR SBQV 031200Z 09008KT 9999 BKN015 21/16 Q1022;
0120833440999992008090313004-14950-040883FM-15+0914SBQV V0201001N004110060019N0112651N1+02301+01501999999ADDGA1071+006001999GF107991999999999999999999MA1102201999999REMMET051METAR SBQV 031300Z 10008KT 9999 BKN020 23/15 Q1022;
0120833440999992008090314004-14950-040883FM-15+0914SBQV V0200701N003610060019N0112651N1+02501+01401999999ADDGA1071+006001999GF107991999999999999999999MA1102101999999REMMET051METAR SBQV 031400Z 07007KT 9999 BKN020 25/14 Q1021;
0120833440999992008090315004-14950-040883FM-15+0914SBQV V0201001N005110060019N0112651N1+02501+01501999999ADDGA1071+006001999GF107991999999999999999999MA1102101999999REMMET051METAR SBQV 031500Z 10010KT 9999 BKN020 25/15 Q1021;
0120833440999992008090316004-14950-040883FM-15+0914SBQV V0201001N003610075019N0112651N1+02701+01301999999ADDGA1071+007501999GF107991999999999999999999MA1102001999999REMMET051METAR SBQV 031600Z 10007KT 9999 BKN025 27/13 Q1020;
0120833440999992008090317004-14950-040883FM-15+0914SBQV V0201501N004610075019N0112651N1+02701+01301999999ADDGA1071+007501999GF107991999999999999999999MA1101901999999REMMET051METAR SBQV 031700Z 15009KT 9999 BKN025 27/13 Q1019;
0120833440999992008090318004-14950-040883FM-15+0914SBQV V0201001N005112200019N0112651N1+02701+01201999999ADDGA1041+007501999GF104991999999999999999999MA1101801999999REMMET051METAR SBQV 031800Z 10010KT 9999 SCT025 27/12 Q1018;
0120833440999992008090319004-14950-040883FM-15+0914SBQV V0201201N005712200019N0112651N1+02701+01201999999ADDGA1041+006001999GF104991999999999999999999MA1101901999999REMMET051METAR SBQV 031900Z 12011KT 9999 SCT020 27/12 Q1019;
0120833440999992008090320004-14950-040883FM-15+0914SBQV V0201201N005712200019N0112651N1+02501+01301999999ADDGA1021+005401999GF102991999999999999999999MA1101901999999REMMET051METAR SBQV 032000Z 12011KT 9999 FEW018 25/13 Q1019;
0120833440999992008090321004-14950-040883FM-15+0914SBQV V0201401N004612200019N0112651N1+02301+01301999999ADDGA1021+004801999GF102991999999999999999999MA1101901999999REMMET051METAR SBQV 032100Z 14009KT 9999 FEW016 23/13 Q1019;
0120833440999992008090322004-14950-040883FM-15+0914SBQV V0201101N005112200019N0112651N1+02201+01501999999ADDGA1021+004501999GF102991999999999999999999MA1101901999999REMMET051METAR SBQV 032200Z 11010KT 9999 FEW015 22/15 Q1019;
0072833440999992008090411004-14950-040883FM-15+0914SBQV V0200801N00311220001CN0099001N1+02001+01301999999ADDMA1102101999999REMMET045METAR SBQV 041100Z 08006KT CAVOK 20/13 Q1021;
0120833440999992008090412004-14950-040883FM-15+0914SBQV V0200901N003612200019N0112651N1+02301+01201999999ADDGA1021+005401999GF102991999999999999999999MA1102201999999REMMET051METAR SBQV 041200Z 09007KT 9999 FEW018 23/12 Q1022;
0120833440999992008090413004-14950-040883FM-15+0914SBQV V0201001N002112200019N0112651N1+02401+01201999999ADDGA1021+006001999GF102991999999999999999999MA1102201999999REMMET051METAR SBQV 041300Z 10004KT 9999 FEW020 24/12 Q1022;
0120833440999992008090414004-14950-040883FM-15+0914SBQV V0201001N001512200019N0112651N1+02501+01001999999ADDGA1021+007501999GF102991999999999999999999MA1102101999999REMMET051METAR SBQV 041400Z 10003KT 9999 FEW025 25/10 Q1021;
0120833440999992008090415004-14950-040883FM-15+0914SBQV V0201901N002112200019N0112651N1+02701+00901999999ADDGA1021+007501999GF102991999999999999999999MA1102001999999REMMET051METAR SBQV 041500Z 19004KT 9999 FEW025 27/09 Q1020;
0120833440999992008090416004-14950-040883FM-15+0914SBQV V0201301N002612200019N0112651N1+02801+00901999999ADDGA1021+007501999GF102991999999999999999999MA1101901999999REMMET051METAR SBQV 041600Z 13005KT 9999 FEW025 28/09 Q1019;
0120833440999992008090417004-14950-040883FM-15+0914SBQV V0201101N002612200019N0112651N1+02801+01001999999ADDGA1021+009001999GF102991999999999999999999MA1101801999999REMMET051METAR SBQV 041700Z 11005KT 9999 FEW030 28/10 Q1018;
0072833440999992008090418004-14950-040883FM-15+0914SBQV V0200901N00361220001CN0099001N1+02801+01301999999ADDMA1101801999999REMMET045METAR SBQV 041800Z 09007KT CAVOK 28/13 Q1018;
0072833440999992008090419004-14950-040883FM-15+0914SBQV V0201201N00511220001CN0099001N1+02801+01301999999ADDMA1101801999999REMMET045METAR SBQV 041900Z 12010KT CAVOK 28/13 Q1018;
0072833440999992008090420004-14950-040883FM-15+0914SBQV V0201201N00621220001CN0099001N1+02601+01301999999ADDMA1101801999999REMMET045METAR SBQV 042000Z 12012KT CAVOK 26/13 Q1018;
0072833440999992008090421004-14950-040883FM-15+0914SBQV V0201101N00461220001CN0099001N1+02401+01201999999ADDMA1101901999999REMMET045METAR SBQV 042100Z 11009KT CAVOK 24/12 Q1019;
0072833440999992008090422004-14950-040883FM-15+0914SBQV V0200901N00411220001CN0099001N1+02301+01301999999ADDMA1101901999999REMMET045METAR SBQV 042200Z 09008KT CAVOK 23/13 Q1019;
0143833440999992008090511004-14950-040883FM-15+0914SBQV V0200901N003612200019N0112651N1+01801+01601999999ADDGA1041+001801999GA2041+002101999GF104991999999999999999999MA1102101999999REMMET058METAR SBQV 051100Z 09007KT 9999 SCT006 SCT007 18/16 Q1021;
0143833440999992008090512004-14950-040883FM-15+0914SBQV V0200701N002610045019N0112651N1+02001+01501999999ADDGA1021+002701999GA2071+004501999GF107991999999999999999999MA1102101999999REMMET058METAR SBQV 051200Z 07005KT 9999 FEW009 BKN015 20/15 Q1021;
0120833440999992008090513004-14950-040883FM-15+0914SBQV V0201301N001512200019N0112651N1+02201+01401999999ADDGA1041+006001999GF104991999999999999999999MA1102101999999REMMET051METAR SBQV 051300Z 13003KT 9999 SCT020 22/14 Q1021;
0120833440999992008090514004-14950-040883FM-15+0914SBQV V0201301N003112200019N0112651N1+02401+01301999999ADDGA1041+007501999GF104991999999999999999999MA1102101999999REMMET051METAR SBQV 051400Z 13006KT 9999 SCT025 24/13 Q1021;
0120833440999992008090515004-14950-040883FM-15+0914SBQV V0200901N003112200019N0112651N1+02601+01201999999ADDGA1021+009001999GF102991999999999999999999MA1102001999999REMMET051METAR SBQV 051500Z 09006KT 9999 FEW030 26/12 Q1020;
0081833440999992008090517004-14950-040883FM-15+0914SBQV V0201101N00411220001CN0099001N1+02801+01101999999ADDMA1101801999999REMMET054METAR SBQV 051700Z 11008KT CAVOK 28/11 Q1018 WS RWY15;
0072833440999992008090518004-14950-040883FM-15+0914SBQV V0201001N00411220001CN0099001N1+02801+01101999999ADDMA1101801999999REMMET045METAR SBQV 051800Z 10008KT CAVOK 28/11 Q1018;
0072833440999992008090519004-14950-040883FM-15+0914SBQV V0200901N00461220001CN0099001N1+02701+01101999999ADDMA1101801999999REMMET045METAR SBQV 051900Z 09009KT CAVOK 27/11 Q1018;
0072833440999992008090520004-14950-040883FM-15+0914SBQV V0201001N00511220001CN0099001N1+02601+01101999999ADDMA1101801999999REMMET045METAR SBQV 052000Z 10010KT CAVOK 26/11 Q1018;
0072833440999992008090521004-14950-040883FM-15+0914SBQV V0200901N00511220001CN0099001N1+02301+01101999999ADDMA1101901999999REMMET045METAR SBQV 052100Z 09010KT CAVOK 23/11 Q1019;
0072833440999992008090522004-14950-040883FM-15+0914SBQV V0200801N00461220001CN0099001N1+02201+01201999999ADDMA1101901999999REMMET045METAR SBQV 052200Z 08009KT CAVOK 22/12 Q1019;
0078833440999992008090610154-14950-040883FM-16+0914SBQV V0200301N001512200019N0099001N1+01801+01101999999ADDMA1102201999999REMMET051METAR SBQV 061015Z SPECI 03003KT CAVOK 18/11 Q1022;
0072833440999992008090611004-14950-040883FM-15+0914SBQV V0200301N00211220001CN0099001N1+02001+01001999999ADDMA1102201999999REMMET045METAR SBQV 061100Z 03004KT CAVOK 20/10 Q1022;
0072833440999992008090612004-14950-040883FM-15+0914SBQV V0200701N00311220001CN0099001N1+02301+00701999999ADDMA1102301999999REMMET045METAR SBQV 061200Z 07006KT CAVOK 23/07 Q1023;
0072833440999992008090613004-14950-040883FM-15+0914SBQV V0200501N00311220001CN0099001N1+02501+00601999999ADDMA1102301999999REMMET045METAR SBQV 061300Z 05006KT CAVOK 25/06 Q1023;
0072833440999992008090614004-14950-040883FM-15+0914SBQV V0200501N00261220001CN0099001N1+02801+00501999999ADDMA1102201999999REMMET045METAR SBQV 061400Z 05005KT CAVOK 28/05 Q1022;
0072833440999992008090615004-14950-040883FM-15+0914SBQV V0203501N00211220001CN0099001N1+02901+00401999999ADDMA1102101999999REMMET045METAR SBQV 061500Z 35004KT CAVOK 29/04 Q1021;
0072833440999992008090616004-14950-040883FM-15+0914SBQV V0203101N00261220001CN0099001N1+03101+00301999999ADDMA1102001999999REMMET045METAR SBQV 061600Z 31005KT CAVOK 31/03 Q1020;
0072833440999992008090617004-14950-040883FM-15+0914SBQV V0200201N00361220001CN0099001N1+03101+00201999999ADDMA1102001999999REMMET045METAR SBQV 061700Z 02007KT CAVOK 31/02 Q1020;
0072833440999992008090618004-14950-040883FM-15+0914SBQV V0200401N00411220001CN0099001N1+03101+00201999999ADDMA1101901999999REMMET045METAR SBQV 061800Z 04008KT CAVOK 31/02 Q1019;
0072833440999992008090619004-14950-040883FM-15+0914SBQV V0203601N00311220001CN0099001N1+03101+00101999999ADDMA1101901999999REMMET045METAR SBQV 061900Z 36006KT CAVOK 31/01 Q1019;
0072833440999992008090620004-14950-040883FM-15+0914SBQV V0201301N00411220001CN0099001N1+02801+01201999999ADDMA1101901999999REMMET045METAR SBQV 062000Z 13008KT CAVOK 28/12 Q1019;
0072833440999992008090621004-14950-040883FM-15+0914SBQV V0201201N00411220001CN0099001N1+02501+01401999999ADDMA1101901999999REMMET045METAR SBQV 062100Z 12008KT CAVOK 25/14 Q1019;
0072833440999992008090622004-14950-040883FM-15+0914SBQV V0201101N00361220001CN0099001N1+02301+01301999999ADDMA1102001999999REMMET045METAR SBQV 062200Z 11007KT CAVOK 23/13 Q1020;
0072833440999992008090711004-14950-040883FM-15+0914SBQV V0200401N00311220001CN0099001N1+02001+01601999999ADDMA1102401999999REMMET045METAR SBQV 071100Z 04006KT CAVOK 20/16 Q1024;
0072833440999992008090712004-14950-040883FM-15+0914SBQV V0200401N00411220001CN0099001N1+02301+01501999999ADDMA1102401999999REMMET045METAR SBQV 071200Z 04008KT CAVOK 23/15 Q1024;
0072833440999992008090713004-14950-040883FM-15+0914SBQV V0200201N00311220001CN0099001N1+02601+01401999999ADDMA1102401999999REMMET045METAR SBQV 071300Z 02006KT CAVOK 26/14 Q1024;
0072833440999992008090714004-14950-040883FM-15+0914SBQV V0200401N00211220001CN0099001N1+02701+01401999999ADDMA1102301999999REMMET045METAR SBQV 071400Z 04004KT CAVOK 27/14 Q1023;
0072833440999992008090715004-14950-040883FM-15+0914SBQV V0200501N00361220001CN0099001N1+02901+01201999999ADDMA1102201999999REMMET045METAR SBQV 071500Z 05007KT CAVOK 29/12 Q1022;
0072833440999992008090716004-14950-040883FM-15+0914SBQV V0200801N00261220001CN0099001N1+03001+01201999999ADDMA1102101999999REMMET045METAR SBQV 071600Z 08005KT CAVOK 30/12 Q1021;
0072833440999992008090717004-14950-040883FM-15+0914SBQV V0200501N00311220001CN0099001N1+03201+01101999999ADDMA1102001999999REMMET045METAR SBQV 071700Z 05006KT CAVOK 32/11 Q1020;
0120833440999992008090718004-14950-040883FM-15+0914SBQV V0200501N001512200019N0112651N1+03101+00701999999ADDGA1021+012001999GF102991999999999999999999MA1101901999999REMMET051METAR SBQV 071800Z 05003KT 9999 FEW040 31/07 Q1019;
0120833440999992008090719004-14950-040883FM-15+0914SBQV V0200701N003612200019N0112651N1+03101+01501999999ADDGA1021+010501999GF102991999999999999999999MA1101901999999REMMET051METAR SBQV 071900Z 07007KT 9999 FEW035 31/15 Q1019;
0072833440999992008090720004-14950-040883FM-15+0914SBQV V0200801N00621220001CN0099001N1+02801+01601999999ADDMA1102001999999REMMET045METAR SBQV 072000Z 08012KT CAVOK 28/16 Q1020;
0072833440999992008090721004-14950-040883FM-15+0914SBQV V0200901N00511220001CN0099001N1+02501+01501999999ADDMA1102101999999REMMET045METAR SBQV 072100Z 09010KT CAVOK 25/15 Q1021;
0072833440999992008090722004-14950-040883FM-15+0914SBQV V0200701N00511220001CN0099001N1+02401+01501999999ADDMA1102101999999REMMET045METAR SBQV 072200Z 07010KT CAVOK 24/15 Q1021;
0120833440999992008090811004-14950-040883FM-15+0914SBQV V0200501N004612200019N0112651N1+02101+01501999999ADDGA1021+006001999GF102991999999999999999999MA1102401999999REMMET051METAR SBQV 081100Z 05009KT 9999 FEW020 21/15 Q1024;
0120833440999992008090812004-14950-040883FM-15+0914SBQV V0200701N004612200019N0112651N1+02301+01401999999ADDGA1021+009001999GF102991999999999999999999MA1102401999999REMMET051METAR SBQV 081200Z 07009KT 9999 FEW030 23/14 Q1024;
0120833440999992008090813004-14950-040883FM-15+0914SBQV V0200501N003112200019N0112651N1+02501+01401999999ADDGA1021+010501999GF102991999999999999999999MA1102401999999REMMET051METAR SBQV 081300Z 05006KT 9999 FEW035 25/14 Q1024;
0072833440999992008090814004-14950-040883FM-15+0914SBQV V0200701N00311220001CN0099001N1+02601+01401999999ADDMA1102301999999REMMET045METAR SBQV 081400Z 07006KT CAVOK 26/14 Q1023;
0072833440999992008090815004-14950-040883FM-15+0914SBQV V0201201N00411220001CN0099001N1+02801+01301999999ADDMA1102201999999REMMET045METAR SBQV 081500Z 12008KT CAVOK 28/13 Q1022;
0072833440999992008090816004-14950-040883FM-15+0914SBQV V0200901N00311220001CN0099001N1+02901+01301999999ADDMA1102101999999REMMET045METAR SBQV 081600Z 09006KT CAVOK 29/13 Q1021;
0072833440999992008090817004-14950-040883FM-15+0914SBQV V0201301N00511220001CN0099001N1+02801+01401999999ADDMA1102101999999REMMET045METAR SBQV 081700Z 13010KT CAVOK 28/14 Q1021;
0072833440999992008090818004-14950-040883FM-15+0914SBQV V0201301N00511220001CN0099001N1+02801+01401999999ADDMA1102001999999REMMET045METAR SBQV 081800Z 13010KT CAVOK 28/14 Q1020;
0120833440999992008090819004-14950-040883FM-15+0914SBQV V0201301N005712200019N0112651N1+02701+01401999999ADDGA1021+010501999GF102991999999999999999999MA1102101999999REMMET051METAR SBQV 081900Z 13011KT 9999 FEW035 27/14 Q1021;
0120833440999992008090820004-14950-040883FM-15+0914SBQV V0201301N006712200019N0112651N1+02501+01501999999ADDGA1021+009001999GF102991999999999999999999MA1102101999999REMMET051METAR SBQV 082000Z 13013KT 9999 FEW030 25/15 Q1021;
0072833440999992008090821004-14950-040883FM-15+0914SBQV V0201301N00511220001CN0099001N1+02301+01501999999ADDMA1102101999999REMMET045METAR SBQV 082100Z 13010KT CAVOK 23/15 Q1021;
0072833440999992008090822004-14950-040883FM-15+0914SBQV V0201301N00461220001CN0099001N1+02201+01501999999ADDMA1102201999999REMMET045METAR SBQV 082200Z 13009KT CAVOK 22/15 Q1022;
0084833440999992008090910154-14950-040883FM-16+0914SBQV V0201301N003612200019N0112651N1+01801+01601999999ADDMA1102401999999REMMET057METAR SBQV 091015Z SPECI 13007KT 9999 SCT012 18/16 Q1024;
0120833440999992008090911004-14950-040883FM-15+0914SBQV V0201301N005112200019N0112651N1+01901+01501999999ADDGA1041+004501999GF104991999999999999999999MA1102511999999REMMET051METAR SBQV 091100Z 13010KT 9999 SCT015 19/15 Q1025;
0120833440999992008090912004-14950-040883FM-15+0914SBQV V0201101N005110048019N0112651N1+02201+01401999999ADDGA1071+004801999GF107991999999999999999999MA1102511999999REMMET051METAR SBQV 091200Z 11010KT 9999 BKN016 22/14 Q1025;
0120833440999992008090913004-14950-040883FM-15+0914SBQV V0201301N005710054019N0112651N1+02501+01301999999ADDGA1071+005401999GF107991999999999999999999MA1102511999999REMMET051METAR SBQV 091300Z 13011KT 9999 BKN018 25/13 Q1025;
0120833440999992008090914004-14950-040883FM-15+0914SBQV V0201301N005710054019N0112651N1+02401+01301999999ADDGA1071+005401999GF107991999999999999999999MA1102401999999REMMET051METAR SBQV 091400Z 13011KT 9999 BKN018 24/13 Q1024;
0120833440999992008090915004-14950-040883FM-15+0914SBQV V0201201N005710060019N0112651N1+02501+01301999999ADDGA1071+006001999GF107991999999999999999999MA1102301999999REMMET051METAR SBQV 091500Z 12011KT 9999 BKN020 25/13 Q1023;
0120833440999992008090916004-14950-040883FM-15+0914SBQV V0201101N006210060019N0112651N1+02401+01501999999ADDGA1071+006001999GF107991999999999999999999MA1102301999999REMMET051METAR SBQV 091600Z 11012KT 9999 BKN020 24/15 Q1023;
0120833440999992008090917004-14950-040883FM-15+0914SBQV V0201101N006212200019N0112651N1+02601+01301999999ADDGA1021+007501999GF102991999999999999999999MA1102201999999REMMET051METAR SBQV 091700Z 11012KT 9999 FEW025 26/13 Q1022;
0120833440999992008090918004-14950-040883FM-15+0914SBQV V0201101N005712200019N0112651N1+02601+01301999999ADDGA1021+007501999GF102991999999999999999999MA1102101999999REMMET051METAR SBQV 091800Z 11011KT 9999 FEW025 26/13 Q1021;
0072833440999992008090919004-14950-040883FM-15+0914SBQV V0201101N00671220001CN0099001N1+02501+01301999999ADDMA1102101999999REMMET045METAR SBQV 091900Z 11013KT CAVOK 25/13 Q1021;
0072833440999992008090920004-14950-040883FM-15+0914SBQV V0201101N00571220001CN0099001N1+02401+01201999999ADDMA1102201999999REMMET045METAR SBQV 092000Z 11011KT CAVOK 24/12 Q1022;
0072833440999992008090921004-14950-040883FM-15+0914SBQV V0201301N00461220001CN0099001N1+02201+01201999999ADDMA1102201999999REMMET045METAR SBQV 092100Z 13009KT CAVOK 22/12 Q1022;
0072833440999992008090922004-14950-040883FM-15+0914SBQV V0201101N00361220001CN0099001N1+02101+01201999999ADDMA1102201999999REMMET045METAR SBQV 092200Z 11007KT CAVOK 21/12 Q1022;
0072833440999992008090923004-14950-040883FM-15+0914SBQV V0201001N00361220001CN0099001N1+02001+01301999999ADDMA1102301999999REMMET045METAR SBQV 092300Z 10007KT CAVOK 20/13 Q1023;
0120833440999992008091002004-14950-040883FM-15+0914SBQV V0201101N000512200019N0112651N1+01701+01401999999ADDGA1041+002701999GF104991999999999999999999MA1102511999999REMMET051METAR SBQV 100200Z 11001KT 9999 SCT009 17/14 Q1025;
0120833440999992008091003004-14950-040883FM-15+0914SBQV V0201201N003110027019N0112651N1+01701+01401999999ADDGA1071+002701999GF107991999999999999999999MA1102511999999REMMET051METAR SBQV 100300Z 12006KT 9999 BKN009 17/14 Q1025;
0143833440999992008091011004-14950-040883FM-15+0914SBQV V0200901N004612200019N0112651N1+01901+01301999999ADDGA1021+003001999GA2041+004801999GF104991999999999999999999MA1102611999999REMMET058METAR SBQV 101100Z 09009KT 9999 FEW010 SCT016 19/13 Q1026;
0143833440999992008091012004-14950-040883FM-15+0914SBQV V0201001N005712200019N0112651N1+02001+01201999999ADDGA1021+003001999GA2041+005401999GF104991999999999999999999MA1102611999999REMMET058METAR SBQV 101200Z 10011KT 9999 FEW010 SCT018 20/12 Q1026;
0120833440999992008091013004-14950-040883FM-15+0914SBQV V0200901N005110060019N0112651N1+02101+01301999999ADDGA1071+006001999GF107991999999999999999999MA1102611999999REMMET051METAR SBQV 101300Z 09010KT 9999 BKN020 21/13 Q1026;
0120833440999992008091014004-14950-040883FM-15+0914SBQV V0200701N005110060019N0112651N1+02201+01301999999ADDGA1071+006001999GF107991999999999999999999MA1102511999999REMMET051METAR SBQV 101400Z 07010KT 9999 BKN020 22/13 Q1025;
0120833440999992008091015004-14950-040883FM-15+0914SBQV V0201001N005710060019N0112651N1+02301+01401999999ADDGA1071+006001999GF107991999999999999999999MA1102511999999REMMET051METAR SBQV 101500Z 10011KT 9999 BKN020 23/14 Q1025;
0120833440999992008091016004-14950-040883FM-15+0914SBQV V0201001N006210060019N0112651N1+02101+01601999999ADDGA1071+006001999GF107991999999999999999999MA1102401999999REMMET051METAR SBQV 101600Z 10012KT 9999 BKN020 21/16 Q1024;
0120833440999992008091017004-14950-040883FM-15+0914SBQV V0201201N006210075019N0112651N1+02301+01301999999ADDGA1071+007501999GF107991999999999999999999MA1102301999999REMMET051METAR SBQV 101700Z 12012KT 9999 BKN025 23/13 Q1023;
0120833440999992008091018004-14950-040883FM-15+0914SBQV V0201001N005112200019N0112651N1+02401+01401999999ADDGA1041+007501999GF104991999999999999999999MA1102201999999REMMET051METAR SBQV 101800Z 10010KT 9999 SCT025 24/14 Q1022;
0120833440999992008091019004-14950-040883FM-15+0914SBQV V0201301N006712200019N0112651N1+02301+01301999999ADDGA1041+007501999GF104991999999999999999999MA1102201999999REMMET051METAR SBQV 101900Z 13013KT 9999 SCT025 23/13 Q1022;
0120833440999992008091020004-14950-040883FM-15+0914SBQV V0201101N004612200019N0112651N1+02301+01201999999ADDGA1021+007501999GF102991999999999999999999MA1102301999999REMMET051METAR SBQV 102000Z 11009KT 9999 FEW025 23/12 Q1023;
0120833440999992008091021004-14950-040883FM-15+0914SBQV V0201101N004112200019N0112651N1+02101+01301999999ADDGA1021+006001999GF102991999999999999999999MA1102301999999REMMET051METAR SBQV 102100Z 11008KT 9999 FEW020 21/13 Q1023;
0120833440999992008091022004-14950-040883FM-15+0914SBQV V0201101N002612200019N0112651N1+02001+01301999999ADDGA1021+005401999GF102991999999999999999999MA1102301999999REMMET051METAR SBQV 102200Z 11005KT 9999 FEW018 20/13 Q1023;
0120833440999992008091023004-14950-040883FM-15+0914SBQV V0201101N001012200019N0112651N1+02001+01401999999ADDGA1021+004801999GF102991999999999999999999MA1102301999999REMMET051METAR SBQV 102300Z 11002KT 9999 FEW016 20/14 Q1023;
0143833440999992008091111004-14950-040883FM-15+0914SBQV V0201001N004610048019N0112651N1+01801+01501999999ADDGA1041+004501999GA2071+004801999GF107991999999999999999999MA1102511999999REMMET058METAR SBQV 111100Z 10009KT 9999 SCT015 BKN016 18/15 Q1025;
0120833440999992008091112004-14950-040883FM-15+0914SBQV V0200901N005110054019N0112651N1+02101+01401999999ADDGA1071+005401999GF107991999999999999999999MA1102611999999REMMET051METAR SBQV 111200Z 09010KT 9999 BKN018 21/14 Q1026;
0120833440999992008091113004-14950-040883FM-15+0914SBQV V0201001N006212200019N0112651N1+02201+01301999999ADDGA1041+006001999GF104991999999999999999999MA1102611999999REMMET051METAR SBQV 111300Z 10012KT 9999 SCT020 22/13 Q1026;
0120833440999992008091115004-14950-040883FM-15+0914SBQV V0200901N005112200019N0112651N1+02501+01301999999ADDGA1021+007501999GF102991999999999999999999MA1102401999999REMMET051METAR SBQV 111500Z 09010KT 9999 FEW025 25/13 Q1024;
0120833440999992008091116004-14950-040883FM-15+0914SBQV V0201101N005712200019N0112651N1+02601+01301999999ADDGA1021+009001999GF102991999999999999999999MA1102301999999REMMET051METAR SBQV 111600Z 11011KT 9999 FEW030 26/13 Q1023;
0120833440999992008091117004-14950-040883FM-15+0914SBQV V0201001N003612200019N0112651N1+02601+01301999999ADDGA1021+009001999GF102991999999999999999999MA1102201999999REMMET051METAR SBQV 111700Z 10007KT 9999 FEW030 26/13 Q1022;
0120833440999992008091118004-14950-040883FM-15+0914SBQV V0201401N005112200019N0112651N1+02701+01201999999ADDGA1021+009001999GF102991999999999999999999MA1102101999999REMMET051METAR SBQV 111800Z 14010KT 9999 FEW030 27/12 Q1021;
0072833440999992008091119004-14950-040883FM-15+0914SBQV V0201301N00571220001CN0099001N1+02501+01301999999ADDMA1102101999999REMMET045METAR SBQV 111900Z 13011KT CAVOK 25/13 Q1021;
0072833440999992008091120004-14950-040883FM-15+0914SBQV V0201301N00461220001CN0099001N1+02401+01201999999ADDMA1102101999999REMMET045METAR SBQV 112000Z 13009KT CAVOK 24/12 Q1021;
0072833440999992008091121004-14950-040883FM-15+0914SBQV V0201101N00411220001CN0099001N1+02301+01201999999ADDMA1102201999999REMMET045METAR SBQV 112100Z 11008KT CAVOK 23/12 Q1022;
0072833440999992008091122004-14950-040883FM-15+0914SBQV V0201401N00311220001CN0099001N1+02101+01201999999ADDMA1102201999999REMMET045METAR SBQV 112200Z 14006KT CAVOK 21/12 Q1022;
0072833440999992008091123004-14950-040883FM-15+0914SBQV V0201301N00311220001CN0099001N1+02001+01301999999ADDMA1102301999999REMMET045METAR SBQV 112300Z 13006KT CAVOK 20/13 Q1023;
0084833440999992008091210154-14950-040883FM-16+0914SBQV V0200901N003612200019N0112651N1+01601+01501999999ADDMA1102301999999REMMET057METAR SBQV 121015Z SPECI 09007KT 9999 SCT007 16/15 Q1023;
0120833440999992008091211004-14950-040883FM-15+0914SBQV V0200801N004612200019N0112651N1+01801+01501999999ADDGA1041+002701999GF104991999999999999999999MA1102401999999REMMET051METAR SBQV 121100Z 08009KT 9999 SCT009 18/15 Q1024;
0120833440999992008091212004-14950-040883FM-15+0914SBQV V0200801N003612200019N0112651N1+02001+01501999999ADDGA1021+003001999GF102991999999999999999999MA1102401999999REMMET051METAR SBQV 121200Z 08007KT 9999 FEW010 20/15 Q1024;
0120833440999992008091213004-14950-040883FM-15+0914SBQV V0200601N003112200019N0112651N1+02201+01401999999ADDGA1041+006001999GF104991999999999999999999MA1102401999999REMMET051METAR SBQV 121300Z 06006KT 9999 SCT020 22/14 Q1024;
0120833440999992008091214004-14950-040883FM-15+0914SBQV V0200801N003112200019N0112651N1+02401+01301999999ADDGA1021+006001999GF102991999999999999999999MA1102301999999REMMET051METAR SBQV 121400Z 08006KT 9999 FEW020 24/13 Q1023;
0120833440999992008091215004-14950-040883FM-15+0914SBQV V0200701N002112200019N0112651N1+02501+01301999999ADDGA1021+007501999GF102991999999999999999999MA1102201999999REMMET051METAR SBQV 121500Z 07004KT 9999 FEW025 25/13 Q1022;
0120833440999992008091216004-14950-040883FM-15+0914SBQV V0200701N002612200019N0112651N1+02701+01301999999ADDGA1021+009001999GF102991999999999999999999MA1102101999999REMMET051METAR SBQV 121600Z 07005KT 9999 FEW030 27/13 Q1021;
0072833440999992008091217004-14950-040883FM-15+0914SBQV V0201101N00211220001CN0099001N1+02801+01201999999ADDMA1102001999999REMMET045METAR SBQV 121700Z 11004KT CAVOK 28/12 Q1020;
0072833440999992008091218004-14950-040883FM-15+0914SBQV V0201501N00211220001CN0099001N1+02801+01301999999ADDMA1101901999999REMMET045METAR SBQV 121800Z 15004KT CAVOK 28/13 Q1019;
0072833440999992008091219004-14950-040883FM-15+0914SBQV V0200701N00361220001CN0099001N1+02801+01401999999ADDMA1101901999999REMMET045METAR SBQV 121900Z 07007KT CAVOK 28/14 Q1019;
0072833440999992008091220004-14950-040883FM-15+0914SBQV V0201101N00571220001CN0099001N1+02501+01401999999ADDMA1102001999999REMMET045METAR SBQV 122000Z 11011KT CAVOK 25/14 Q1020;
0120833440999992008091221004-14950-040883FM-15+0914SBQV V0201001N004112200019N0070001N1+02301+01401999999ADDGF100991999999999999999999MA1102001999999REMMET048METAR SBQV 122100Z 10008KT 7000 SKC 23/14 Q1020;EQDQ01    003SCCGA1
0072833440999992008091222004-14950-040883FM-15+0914SBQV V0200901N00311220001CN0099001N1+02201+01401999999ADDMA1102001999999REMMET045METAR SBQV 122200Z 09006KT CAVOK 22/14 Q1020;
0072833440999992008091223004-14950-040883FM-15+0914SBQV V0200701N00411220001CN0099001N1+02101+01401999999ADDMA1102101999999REMMET045METAR SBQV 122300Z 07008KT CAVOK 21/14 Q1021;
0120833440999992008091311004-14950-040883FM-15+0914SBQV V0209999C000012200019N0112651N1+02001+01501999999ADDGA1021+004501999GF102991999999999999999999MA1102201999999REMMET051METAR SBQV 131100Z 00000KT 9999 FEW015 20/15 Q1022;
0120833440999992008091312004-14950-040883FM-15+0914SBQV V0200101N002112200019N0112651N1+02101+01501999999ADDGA1021+004801999GF102991999999999999999999MA1102301999999REMMET051METAR SBQV 131200Z 01004KT 9999 FEW016 21/15 Q1023;
0120833440999992008091313004-14950-040883FM-15+0914SBQV V0209999C000012200019N0112651N1+02401+01501999999ADDGA1021+007501999GF102991999999999999999999MA1102301999999REMMET051METAR SBQV 131300Z 00000KT 9999 FEW025 24/15 Q1023;
0120833440999992008091314004-14950-040883FM-15+0914SBQV V0200801N002612200019N0112651N1+02601+01501999999ADDGA1021+009001999GF102991999999999999999999MA1102201999999REMMET051METAR SBQV 131400Z 08005KT 9999 FEW030 26/15 Q1022;
0120833440999992008091315004-14950-040883FM-15+0914SBQV V0200501N002112200019N0112651N1+02701+01401999999ADDGA1021+010501999GF102991999999999999999999MA1102101999999REMMET051METAR SBQV 131500Z 05004KT 9999 FEW035 27/14 Q1021;
0120833440999992008091316004-14950-040883FM-15+0914SBQV V0209999C000012200019N0112651N1+02901+01301999999ADDGA1021+010501999GF102991999999999999999999MA1102001999999REMMET051METAR SBQV 131600Z 00000KT 9999 FEW035 29/13 Q1020;
0120833440999992008091317004-14950-040883FM-15+0914SBQV V0200501N003112200019N0112651N1+03001+01101999999ADDGA1021+010501999GF102991999999999999999999MA1101801999999REMMET051METAR SBQV 131700Z 05006KT 9999 FEW035 30/11 Q1018;
0120833440999992008091318004-14950-040883FM-15+0914SBQV V0200801N001012200019N0112651N1+03001+01001999999ADDGA1021+010501999GF102991999999999999999999MA1101801999999REMMET051METAR SBQV 131800Z 08002KT 9999 FEW035 30/10 Q1018;
0120833440999992008091319004-14950-040883FM-15+0914SBQV V0201501N006212200019N0112651N1+02901+01501999999ADDGA1021+009001999GF102991999999999999999999MA1101801999999REMMET051METAR SBQV 131900Z 15012KT 9999 FEW030 29/15 Q1018;
0120833440999992008091320004-14950-040883FM-15+0914SBQV V0201301N005712200019N0112651N1+02701+01501999999ADDGA1021+007501999GF102991999999999999999999MA1101801999999REMMET051METAR SBQV 132000Z 13011KT 9999 FEW025 27/15 Q1018;
0072833440999992008091321004-14950-040883FM-15+0914SBQV V0201101N00511220001CN0099001N1+02501+01401999999ADDMA1101901999999REMMET045METAR SBQV 132100Z 11010KT CAVOK 25/14 Q1019;
0072833440999992008091322004-14950-040883FM-15+0914SBQV V0200901N00511220001CN0099001N1+02301+01501999999ADDMA1101901999999REMMET045METAR SBQV 132200Z 09010KT CAVOK 23/15 Q1019;
0078833440999992008091410154-14950-040883FM-16+0914SBQV V0200301N004112200019N0099001N1+02001+01401999999ADDMA1102101999999REMMET051METAR SBQV 141015Z SPECI 03008KT CAVOK 20/14 Q1021;
0072833440999992008091411004-14950-040883FM-15+0914SBQV V0200301N00511220001CN0099001N1+02101+01501999999ADDMA1102201999999REMMET045METAR SBQV 141100Z 03010KT CAVOK 21/15 Q1022;
0072833440999992008091412004-14950-040883FM-15+0914SBQV V0200401N00261220001CN0099001N1+02301+01501999999ADDMA1102301999999REMMET045METAR SBQV 141200Z 04005KT CAVOK 23/15 Q1023;
0072833440999992008091413004-14950-040883FM-15+0914SBQV V0200301N00361220001CN0099001N1+02501+01401999999ADDMA1102301999999REMMET045METAR SBQV 141300Z 03007KT CAVOK 25/14 Q1023;
0072833440999992008091414004-14950-040883FM-15+0914SBQV V0200701N00261220001CN0099001N1+02701+01401999999ADDMA1102201999999REMMET045METAR SBQV 141400Z 07005KT CAVOK 27/14 Q1022;
0072833440999992008091415004-14950-040883FM-15+0914SBQV V0200801N00261220001CN0099001N1+02801+01301999999ADDMA1102001999999REMMET045METAR SBQV 141500Z 08005KT CAVOK 28/13 Q1020;
0080833440999992008091416004-14950-040883FM-15+0914SBQV V0200601N002612200019N0099001N1+02901+01201999999ADDMA1101901999999REMMET053METAR SBQV 141600Z 141600Z 06005KT CAVOK 29/12 Q1019;
0143833440999992008091418004-14950-040883FM-15+0914SBQV V0200501N003610900019N0112651N1+03001+01101999999ADDGA1021+009001999GA2071+090001999GF107991999999999999999999MA1101801999999REMMET058METAR SBQV 141800Z 05007KT 9999 FEW030 BKN300 30/11 Q1018;
0072833440999992008091419004-14950-040883FM-15+0914SBQV V0200501N00361220001CN0099001N1+03001+01201999999ADDMA1101801999999REMMET045METAR SBQV 141900Z 05007KT CAVOK 30/12 Q1018;
0083833440999992008091420004-14950-040883FM-15+0914SBQV V0200901N00571220001CN0099001N1+02701+01601999999ADDMA1101801999999OC101291REMMET048METAR SBQV 142000Z 09011G25KT CAVOK 27/16 Q1018;
0072833440999992008091421004-14950-040883FM-15+0914SBQV V0200901N00511220001CN0099001N1+02501+01501999999ADDMA1101901999999REMMET045METAR SBQV 142100Z 09010KT CAVOK 25/15 Q1019;
0072833440999992008091422004-14950-040883FM-15+0914SBQV V0200901N00411220001CN0099001N1+02301+01601999999ADDMA1101901999999REMMET045METAR SBQV 142200Z 09008KT CAVOK 23/16 Q1019;
0084833440999992008091510154-14950-040883FM-16+0914SBQV V0200701N002112200019N9999999N1+01801+01701999999ADDMA1102201999999REMMET057METAR SBQV 151015Z SPECI 07004KT 7000 OVC005 18/17 Q1022;
0120833440999992008091511004-14950-040883FM-15+0914SBQV V0200701N002610018019N0090001N1+01901+01701999999ADDGA1081+001801999GF108991999999999999999999MA1102301999999REMMET051METAR SBQV 151100Z 07005KT 9000 OVC006 19/17 Q1023;
0143833440999992008091512004-14950-040883FM-15+0914SBQV V0200801N004110045019N0112651N1+02001+01701999999ADDGA1041+002701999GA2071+004501999GF107991999999999999999999MA1102401999999REMMET058METAR SBQV 151200Z 08008KT 9999 SCT009 BKN015 20/17 Q1024;
0136833440999992008091513004-14950-040883FM-15+0914SBQV V0200801N00411220001CN0112651N1+02101+01701999999ADDGA1071+006001999GA2041+027001999MA1102401999999REMMET058METAR SBQV 151300Z 08008KT 9999 BKN020 SCT090 21/17 Q1024;EQDQ01+000042SCOTCV
0143833440999992008091514004-14950-040883FM-15+0914SBQV V0200901N003610900019N0112651N1+02501+01601999999ADDGA1021+007501999GA2071+090001999GF107991999999999999999999MA1102301999999REMMET058METAR SBQV 151400Z 09007KT 9999 FEW025 BKN300 25/16 Q1023;
0120833440999992008091515004-14950-040883FM-15+0914SBQV V0200801N004612200019N0090001N1+02701+01501999999ADDGF100991999999999999999999MA1102201999999REMMET048METAR SBQV 151500Z 08009KT 9000 NSC 27/15 Q1022;EQDQ01    003SCCGA1
0072833440999992008091516004-14950-040883FM-15+0914SBQV V0201201N00511220001CN0099001N1+02801+01401999999ADDMA1102101999999REMMET045METAR SBQV 151600Z 12010KT CAVOK 28/14 Q1021;
0072833440999992008091517004-14950-040883FM-15+0914SBQV V0200901N00461220001CN0099001N1+02701+01401999999ADDMA1102001999999REMMET045METAR SBQV 151700Z 09009KT CAVOK 27/14 Q1020;
0072833440999992008091518004-14950-040883FM-15+0914SBQV V0201101N00571220001CN0099001N1+02701+01501999999ADDMA1102001999999REMMET045METAR SBQV 151800Z 11011KT CAVOK 27/15 Q1020;
0072833440999992008091519004-14950-040883FM-15+0914SBQV V0200901N00511220001CN0099001N1+02601+01501999999ADDMA1102001999999REMMET045METAR SBQV 151900Z 09010KT CAVOK 26/15 Q1020;
0072833440999992008091520004-14950-040883FM-15+0914SBQV V0201001N00571220001CN0099001N1+02401+01501999999ADDMA1102001999999REMMET045METAR SBQV 152000Z 10011KT CAVOK 24/15 Q1020;
0072833440999992008091521004-14950-040883FM-15+0914SBQV V0200901N00461220001CN0099001N1+02301+01301999999ADDMA1102101999999REMMET045METAR SBQV 152100Z 09009KT CAVOK 23/13 Q1021;
0072833440999992008091522004-14950-040883FM-15+0914SBQV V0200701N00511220001CN0099001N1+02201+01601999999ADDMA1102101999999REMMET045METAR SBQV 152200Z 07010KT CAVOK 22/16 Q1021;
0072833440999992008091523004-14950-040883FM-15+0914SBQV V0200501N00461220001CN0099001N1+02101+01601999999ADDMA1102201999999REMMET045METAR SBQV 152300Z 05009KT CAVOK 21/16 Q1022;
0143833440999992008091611004-14950-040883FM-15+0914SBQV V0200801N004612200019N0112651N1+02101+01501999999ADDGA1021+004501999GA2041+090001999GF104991999999999999999999MA1102301999999REMMET058METAR SBQV 161100Z 08009KT 9999 FEW015 SCT300 21/15 Q1023;
0072833440999992008091612004-14950-040883FM-15+0914SBQV V0200501N00461220001CN0099001N1+02301+01401999999ADDMA1102301999999REMMET045METAR SBQV 161200Z 05009KT CAVOK 23/14 Q1023;
0072833440999992008091614004-14950-040883FM-15+0914SBQV V0200401N00261220001CN0099001N1+02601+01401999999ADDMA1102301999999REMMET045METAR SBQV 161400Z 04005KT CAVOK 26/14 Q1023;
0072833440999992008091615004-14950-040883FM-15+0914SBQV V0200501N00411220001CN0099001N1+02801+01301999999ADDMA1102201999999REMMET045METAR SBQV 161500Z 05008KT CAVOK 28/13 Q1022;
0072833440999992008091616004-14950-040883FM-15+0914SBQV V0200901N00261220001CN0099001N1+02901+01301999999ADDMA1102101999999REMMET045METAR SBQV 161600Z 09005KT CAVOK 29/13 Q1021;
0072833440999992008091617004-14950-040883FM-15+0914SBQV V0201301N00361220001CN0099001N1+03001+01401999999ADDMA1102001999999REMMET045METAR SBQV 161700Z 13007KT CAVOK 30/14 Q1020;
0072833440999992008091618004-14950-040883FM-15+0914SBQV V0201001N00311220001CN0099001N1+02901+01401999999ADDMA1101901999999REMMET045METAR SBQV 161800Z 10006KT CAVOK 29/14 Q1019;
0072833440999992008091619004-14950-040883FM-15+0914SBQV V0200701N00411220001CN0099001N1+02901+01401999999ADDMA1101901999999REMMET045METAR SBQV 161900Z 07008KT CAVOK 29/14 Q1019;
0072833440999992008091620004-14950-040883FM-15+0914SBQV V0201101N00621220001CN0099001N1+02601+01501999999ADDMA1102001999999REMMET045METAR SBQV 162000Z 11012KT CAVOK 26/15 Q1020;
0072833440999992008091621004-14950-040883FM-15+0914SBQV V0200901N00411220001CN0099001N1+02401+01501999999ADDMA1102001999999REMMET045METAR SBQV 162100Z 09008KT CAVOK 24/15 Q1020;
0072833440999992008091622004-14950-040883FM-15+0914SBQV V0200601N00571220001CN0099001N1+02301+01601999999ADDMA1102001999999REMMET045METAR SBQV 162200Z 06011KT CAVOK 23/16 Q1020;
0072833440999992008091623004-14950-040883FM-15+0914SBQV V0200501N00511220001CN0099001N1+02101+01501999999ADDMA1102101999999REMMET045METAR SBQV 162300Z 05010KT CAVOK 21/15 Q1021;
0143833440999992008091711004-14950-040883FM-15+0914SBQV V0200801N004110210019N0112651N1+02001+01601999999ADDGA1041+003001999GA2071+021001999GF107991999999999999999999MA1102201999999REMMET058METAR SBQV 171100Z 08008KT 9999 SCT010 BKN070 20/16 Q1022;
0143833440999992008091712004-14950-040883FM-15+0914SBQV V0200801N005712200019N0112651N1+02101+01501999999ADDGA1041+003601999GA2041+021001999GF104991999999999999999999MA1102301999999REMMET058METAR SBQV 171200Z 08011KT 9999 SCT012 SCT070 21/15 Q1023;
0120833440999992008091713004-14950-040883FM-15+0914SBQV V0200601N003112200019N0112651N1+02301+01501999999ADDGA1021+004801999GF102991999999999999999999MA1102201999999REMMET051METAR SBQV 171300Z 06006KT 9999 FEW016 23/15 Q1022;
0120833440999992008091714004-14950-040883FM-15+0914SBQV V0200601N004612200019N0112651N1+02501+01401999999ADDGA1021+006001999GF102991999999999999999999MA1102201999999REMMET051METAR SBQV 171400Z 06009KT 9999 FEW020 25/14 Q1022;
0120833440999992008091715004-14950-040883FM-15+0914SBQV V0200701N004112200019N0112651N1+02701+01401999999ADDGA1021+007501999GF102991999999999999999999MA1102101999999REMMET051METAR SBQV 171500Z 07008KT 9999 FEW025 27/14 Q1021;
0143833440999992008091716004-14950-040883FM-15+0914SBQV V0200601N004110900019N0112651N1+02801+01301999999ADDGA1021+010501999GA2071+090001999GF107991999999999999999999MA1101901999999REMMET058METAR SBQV 171600Z 06008KT 9999 FEW035 BKN300 28/13 Q1019;
0143833440999992008091717004-14950-040883FM-15+0914SBQV V0201001N003110900019N0090001N1+02801+01401999999ADDGA1021+010501999GA2071+090001999GF107991999999999999999999MA1101801999999REMMET058METAR SBQV 171700Z 10006KT 9000 FEW035 BKN300 28/14 Q1018;
0143833440999992008091718004-14950-040883FM-15+0914SBQV V0201201N004610900019N0112651N1+02901+01401999999ADDGA1021+010501999GA2071+090001999GF107991999999999999999999MA1101801999999REMMET058METAR SBQV 171800Z 12009KT 9999 FEW035 BKN300 29/14 Q1018;
0072833440999992008091719004-14950-040883FM-15+0914SBQV V0201001N00511220001CN0099001N1+02801+01401999999ADDMA1101801999999REMMET045METAR SBQV 171900Z 10010KT CAVOK 28/14 Q1018;
0072833440999992008091720004-14950-040883FM-15+0914SBQV V0201101N00511220001CN0099001N1+02501+01501999999ADDMA1101801999999REMMET045METAR SBQV 172000Z 11010KT CAVOK 25/15 Q1018;
0072833440999992008091721004-14950-040883FM-15+0914SBQV V0201201N00621220001CN0099001N1+02301+01501999999ADDMA1101901999999REMMET045METAR SBQV 172100Z 12012KT CAVOK 23/15 Q1019;
0072833440999992008091722004-14950-040883FM-15+0914SBQV V0201001N00571220001CN0099001N1+02201+01501999999ADDMA1101901999999REMMET045METAR SBQV 172200Z 10011KT CAVOK 22/15 Q1019;
0072833440999992008091723004-14950-040883FM-15+0914SBQV V0201101N00411220001CN0099001N1+02201+01501999999ADDMA1102001999999REMMET045METAR SBQV 172300Z 11008KT CAVOK 22/15 Q1020;
0072833440999992008091800004-14950-040883FM-15+0914SBQV V0201101N00511220001CN0099001N1+02101+01501999999ADDMA1102001999999REMMET045METAR SBQV 180000Z 11010KT CAVOK 21/15 Q1020;
0123833440999992008091810154-14950-040883FM-16+0914SBQV V0201001N005119999999N0112651N1+01801+01601999999ADDKA1999M+99999MA1102101999999REMMET064METAR SBQV 181015Z SPECI 10010KT 9999 SCT015 BKN300 18/16 Q1021;EQDQ01 +00102ATMX  
0143833440999992008091812004-14950-040883FM-15+0914SBQV V0200801N004610900019N0112651N1+02001+01501999999ADDGA1041+005401999GA2071+090001999GF107991999999999999999999MA1102201999999REMMET058METAR SBQV 181200Z 08009KT 9999 SCT018 BKN300 20/15 Q1022;
0143833440999992008091813004-14950-040883FM-15+0914SBQV V0200701N003610900019N0112651N1+02301+01501999999ADDGA1041+006001999GA2071+090001999GF107991999999999999999999MA1102101999999REMMET058METAR SBQV 181300Z 07007KT 9999 SCT020 BKN300 23/15 Q1021;
0143833440999992008091814004-14950-040883FM-15+0914SBQV V0200501N003110060019N0112651N1+02501+01501999999ADDGA1071+006001999GA2081+090001999GF108991999999999999999999MA1102101999999REMMET058METAR SBQV 181400Z 05006KT 9999 BKN020 OVC300 25/15 Q1021;
0143833440999992008091815004-14950-040883FM-15+0914SBQV V0200601N002610900019N0112651N1+02501+01501999999ADDGA1041+006001999GA2081+090001999GF108991999999999999999999MA1102001999999REMMET058METAR SBQV 181500Z 06005KT 9999 SCT020 OVC300 25/15 Q1020;
0143833440999992008091816004-14950-040883FM-15+0914SBQV V0201501N002110900019N0112651N1+02601+01501999999ADDGA1041+006001999GA2071+090001999GF107991999999999999999999MA1101901999999REMMET058METAR SBQV 181600Z 15004KT 9999 SCT020 BKN300 26/15 Q1019;
0143833440999992008091817004-14950-040883FM-15+0914SBQV V0201501N002610900019N0112651N1+02701+01501999999ADDGA1041+006001999GA2071+090001999GF107991999999999999999999MA1101801999999REMMET058METAR SBQV 181700Z 15005KT 9999 SCT020 BKN300 27/15 Q1018;
0143833440999992008091818004-14950-040883FM-15+0914SBQV V0201401N005110900019N0090001N1+02701+01501999999ADDGA1021+007501999GA2071+090001999GF107991999999999999999999MA1101691999999REMMET058METAR SBQV 181800Z 14010KT 9000 FEW025 BKN300 27/15 Q1017;
0072833440999992008091819004-14950-040883FM-15+0914SBQV V0201401N00571220001CN0099001N1+02601+01501999999ADDMA1101691999999REMMET045METAR SBQV 181900Z 14011KT CAVOK 26/15 Q1017;
0072833440999992008091821004-14950-040883FM-15+0914SBQV V0201201N00511220001CN0099001N1+02301+01501999999ADDMA1101801999999REMMET045METAR SBQV 182100Z 12010KT CAVOK 23/15 Q1018;
0072833440999992008091822004-14950-040883FM-15+0914SBQV V0201101N00571220001CN0099001N1+02201+01501999999ADDMA1101901999999REMMET045METAR SBQV 182200Z 11011KT CAVOK 22/15 Q1019;
0072833440999992008091823004-14950-040883FM-15+0914SBQV V0201101N00511220001CN0099001N1+02101+01601999999ADDMA1102001999999REMMET045METAR SBQV 182300Z 11010KT CAVOK 21/16 Q1020;
0130833440999992008091911004-14950-040883FM-15+0914SBQV V0201501N007210021019N0060001N1+01801+01701999999ADDGA1071+002101999GF107991999999999999999999MA1102301999999MW1511REMMET055METAR SBQV 191100Z 15014KT 6000 -DZ BKN007 18/17 Q1023;
0130833440999992008091912004-14950-040883FM-15+0914SBQV V0201501N008210024019N0080001N1+01901+01701999999ADDGA1071+002401999GF107991999999999999999999MA1102401999999MW1511REMMET055METAR SBQV 191200Z 15016KT 8000 -DZ BKN008 19/17 Q1024;
0120833440999992008091913004-14950-040883FM-15+0914SBQV V0201401N008210033019N0112651N1+02001+01701999999ADDGA1071+003301999GF107991999999999999999999MA1102401999999REMMET051METAR SBQV 191300Z 14016KT 9999 BKN011 20/17 Q1024;
0120833440999992008091914004-14950-040883FM-15+0914SBQV V0201401N007210039019N0112651N1+02201+01701999999ADDGA1071+003901999GF107991999999999999999999MA1102301999999REMMET051METAR SBQV 191400Z 14014KT 9999 BKN013 22/17 Q1023;
0120833440999992008091915004-14950-040883FM-15+0914SBQV V0201401N007710045019N0112651N1+02201+01701999999ADDGA1071+004501999GF107991999999999999999999MA1102301999999REMMET051METAR SBQV 191500Z 14015KT 9999 BKN015 22/17 Q1023;
0143833440999992008091916004-14950-040883FM-15+0914SBQV V0201201N007210045019N0112651N1+02101+01601999999ADDGA1071+004501999GA2071+004801999GF107991999999999999999999MA1102201999999REMMET058METAR SBQV 191600Z 12014KT 9999 BKN015 BKN016 21/16 Q1022;
0143833440999992008091917004-14950-040883FM-15+0914SBQV V0201101N006710048019N0112651N1+02201+01601999999ADDGA1041+004501999GA2071+004801999GF107991999999999999999999MA1102101999999REMMET058METAR SBQV 191700Z 11013KT 9999 SCT015 BKN016 22/16 Q1021;
0143833440999992008091918004-14950-040883FM-15+0914SBQV V0201301N005710048019N0112651N1+02101+01701999999ADDGA1041+004501999GA2071+004801999GF107991999999999999999999MA1102101999999REMMET058METAR SBQV 191800Z 13011KT 9999 SCT015 BKN016 21/17 Q1021;
0166833440999992008091919004-14950-040883FM-15+0914SBQV V0201201N00621004501CN0112651N1+02001+01701999999ADDGA1021+001801999GA2041+004501999GA3071+004801999GF107991999999999999999999MA1102101999999REMMET065METAR SBQV 191900Z 12012KT 9999 FEW006 SCT015 BKN016 20/17 Q1021;
0166833440999992008091920004-14950-040883FM-15+0914SBQV V0201201N00621003601CN0112651N1+01901+01701999999ADDGA1041+001801999GA2041+003601999GA3071+004501999GF107991999999999999999999MA1102201999999REMMET065METAR SBQV 192000Z 12012KT 9999 SCT006 SCT012 BKN015 19/17 Q1022;
0143833440999992008091921004-14950-040883FM-15+0914SBQV V0201201N005112200019N0112651N1+01801+01701999999ADDGA1041+001501999GA2041+003601999GF104991999999999999999999MA1102201999999REMMET058METAR SBQV 192100Z 12010KT 9999 SCT005 SCT012 18/17 Q1022;
0120833440999992008091922004-14950-040883FM-15+0914SBQV V0201301N005710015019N0112651N1+01801+01701999999ADDGA1071+001501999GF107991999999999999999999MA1102301999999REMMET051METAR SBQV 192200Z 13011KT 9999 BKN005 18/17 Q1023;
0120833440999992008091923004-14950-040883FM-15+0914SBQV V0201301N006210015019N0112651N1+01701+01701999999ADDGA1071+001501999GF107991999999999999999999MA1102301999999REMMET051METAR SBQV 192300Z 13012KT 9999 BKN005 17/17 Q1023;
0120833440999992008092011004-14950-040883FM-15+0914SBQV V0201101N006710015019N0060001N1+01601+01601999999ADDGA1081+001501999GF108991999999999999999999MA1102401999999REMMET051METAR SBQV 201100Z 11013KT 6000 OVC005 16/16 Q1024;
0120833440999992008092012004-14950-040883FM-15+0914SBQV V0201201N005710018019N0080001N1+01701+01601999999ADDGA1081+001801999GF108991999999999999999999MA1102401999999REMMET051METAR SBQV 201200Z 12011KT 8000 OVC006 17/16 Q1024;
0143833440999992008092013004-14950-040883FM-15+0914SBQV V0201101N004110021019N0090001N1+01801+01601999999ADDGA1071+002101999GA2071+003001999GF107991999999999999999999MA1102401999999REMMET058METAR SBQV 201300Z 11008KT 9000 BKN007 BKN010 18/16 Q1024;
0143833440999992008092014004-14950-040883FM-15+0914SBQV V0201001N004610024019N0112651N1+01801+01601999999ADDGA1071+002401999GA2071+003001999GF107991999999999999999999MA1102401999999REMMET058METAR SBQV 201400Z 10009KT 9999 BKN008 BKN010 18/16 Q1024;
0143833440999992008092015004-14950-040883FM-15+0914SBQV V0201201N004610033019N0112651N1+02001+01601999999ADDGA1071+003301999GA2071+004501999GF107991999999999999999999MA1102301999999REMMET058METAR SBQV 201500Z 12009KT 9999 BKN011 BKN015 20/16 Q1023;
0143833440999992008092016004-14950-040883FM-15+0914SBQV V0200901N004610048019N0112651N1+02001+01601999999ADDGA1071+004801999GA2071+024001999GF107991999999999999999999MA1102201999999REMMET058METAR SBQV 201600Z 09009KT 9999 BKN016 BKN080 20/16 Q1022;
0143833440999992008092017004-14950-040883FM-15+0914SBQV V0200801N004110048019N0112651N1+02001+01601999999ADDGA1071+004801999GA2071+024001999GF107991999999999999999999MA1102101999999REMMET058METAR SBQV 201700Z 08008KT 9999 BKN016 BKN080 20/16 Q1021;
0143833440999992008092018004-14950-040883FM-15+0914SBQV V0201301N005110048019N0112651N1+02001+01701999999ADDGA1071+004801999GA2081+024001999GF108991999999999999999999MA1102101999999REMMET058METAR SBQV 201800Z 13010KT 9999 BKN016 OVC080 20/17 Q1021;
0143833440999992008092019004-14950-040883FM-15+0914SBQV V0201101N005110240019N0112651N1+02001+01601999999ADDGA1041+004801999GA2081+024001999GF108991999999999999999999MA1102101999999REMMET058METAR SBQV 201900Z 11010KT 9999 SCT016 OVC080 20/16 Q1021;
0143833440999992008092020004-14950-040883FM-15+0914SBQV V0201201N004110210019N0112651N1+02001+01601999999ADDGA1021+004501999GA2071+021001999GF107991999999999999999999MA1102101999999REMMET058METAR SBQV 202000Z 12008KT 9999 FEW015 BKN070 20/16 Q1021;
0072833440999992008092021004-14950-040883FM-15+0914SBQV V0201101N00411220001CN0099001N1+01901+01601999999ADDMA1102201999999REMMET045METAR SBQV 202100Z 11008KT CAVOK 19/16 Q1022;
0072833440999992008092022004-14950-040883FM-15+0914SBQV V0201001N00361220001CN0099001N1+01901+01601999999ADDMA1102201999999REMMET045METAR SBQV 202200Z 10007KT CAVOK 19/16 Q1022;
0116833440999992008092110154-14950-040883FM-16+0914SBQV V0201101N006219999999N0112651N1+01701+01601999999ADDKA1999M+99999MA1102301999999REMMET057METAR SBQV 211015Z SPECI 11012KT 9999 SCT010 17/16 Q1023;EQDQ01 -00122ATMX  
0120833440999992008092111004-14950-040883FM-15+0914SBQV V0201101N003612200019N0112651N1+01901+01601999999ADDGA1041+003301999GF104991999999999999999999MA1102301999999REMMET051METAR SBQV 211100Z 11007KT 9999 SCT011 19/16 Q1023;
0120833440999992008092112004-14950-040883FM-15+0914SBQV V0200901N003110045019N0112651N1+01901+01601999999ADDGA1071+004501999GF107991999999999999999999MA1102401999999REMMET051METAR SBQV 211200Z 09006KT 9999 BKN015 19/16 Q1024;
0120833440999992008092113004-14950-040883FM-15+0914SBQV V0200901N003110048019N0112651N1+02101+01501999999ADDGA1071+004801999GF107991999999999999999999MA1102301999999REMMET051METAR SBQV 211300Z 09006KT 9999 BKN016 21/15 Q1023;
0120833440999992008092114004-14950-040883FM-15+0914SBQV V0201001N003110054019N0112651N1+02201+01501999999ADDGA1071+005401999GF107991999999999999999999MA1102201999999REMMET051METAR SBQV 211400Z 10006KT 9999 BKN018 22/15 Q1022;
0120833440999992008092115004-14950-040883FM-15+0914SBQV V0200701N003610060019N0112651N1+02501+01501999999ADDGA1071+006001999GF107991999999999999999999MA1102101999999REMMET051METAR SBQV 211500Z 07007KT 9999 BKN020 25/15 Q1021;
0120833440999992008092116004-14950-040883FM-15+0914SBQV V0200201N003110075019N0112651N1+02601+01301999999ADDGA1071+007501999GF107991999999999999999999MA1102001999999REMMET051METAR SBQV 211600Z 02006KT 9999 BKN025 26/13 Q1020;
0120833440999992008092117004-14950-040883FM-15+0914SBQV V0203401N001510090019N0112651N1+02701+01401999999ADDGA1071+009001999GF107991999999999999999999MA1101901999999REMMET051METAR SBQV 211700Z 34003KT 9999 BKN030 27/14 Q1019;
0120833440999992008092118004-14950-040883FM-15+0914SBQV V0200201N002610090019N0112651N1+02701+01301999999ADDGA1071+009001999GF107991999999999999999999MA1101801999999REMMET051METAR SBQV 211800Z 02005KT 9999 BKN030 27/13 Q1018;
0120833440999992008092119004-14950-040883FM-15+0914SBQV V0200101N003112200019N0112651N1+02801+01301999999ADDGA1041+009001999GF104991999999999999999999MA1101801999999REMMET051METAR SBQV 211900Z 01006KT 9999 SCT030 28/13 Q1018;
0120833440999992008092120004-14950-040883FM-15+0914SBQV V0200401N003112200019N0112651N1+02701+01301999999ADDGA1021+009001999GF102991999999999999999999MA1101801999999REMMET051METAR SBQV 212000Z 04006KT 9999 FEW030 27/13 Q1018;
0120833440999992008092121004-14950-040883FM-15+0914SBQV V0201101N006212200019N0112651N1+02301+01601999999ADDGA1021+006001999GF102991999999999999999999MA1101901999999REMMET051METAR SBQV 212100Z 11012KT 9999 FEW020 23/16 Q1019;
0120833440999992008092122004-14950-040883FM-15+0914SBQV V0201001N003612200019N0112651N1+02101+01701999999ADDGA1021+005401999GF102991999999999999999999MA1101901999999REMMET051METAR SBQV 212200Z 10007KT 9999 FEW018 21/17 Q1019;
0120833440999992008092211004-14950-040883FM-15+0914SBQV V0200101N005712200019N0112651N1+02101+01601999999ADDGA1021+004801999GF102991999999999999999999MA1102101999999REMMET051METAR SBQV 221100Z 01011KT 9999 FEW016 21/16 Q1021;
0120833440999992008092212004-14950-040883FM-15+0914SBQV V0200201N004112200019N0112651N1+02301+01701999999ADDGA1021+009001999GF102991999999999999999999MA1102101999999REMMET051METAR SBQV 221200Z 02008KT 9999 FEW030 23/17 Q1021;
0072833440999992008092213004-14950-040883FM-15+0914SBQV V0200401N00411220001CN0099001N1+02501+01601999999ADDMA1102101999999REMMET045METAR SBQV 221300Z 04008KT CAVOK 25/16 Q1021;
0072833440999992008092214004-14950-040883FM-15+0914SBQV V0200101N00511220001CN0099001N1+02601+01601999999ADDMA1102001999999REMMET045METAR SBQV 221400Z 01010KT CAVOK 26/16 Q1020;
0120833440999992008092215004-14950-040883FM-15+0914SBQV V0203401N002112200019N0112651N1+02801+01501999999ADDGA1021+012001999GF102991999999999999999999MA1101901999999REMMET051METAR SBQV 221500Z 34004KT 9999 FEW040 28/15 Q1019;
0120833440999992008092216004-14950-040883FM-15+0914SBQV V0203401N002112200019N0112651N1+02901+01501999999ADDGA1021+012001999GF102991999999999999999999MA1101801999999REMMET051METAR SBQV 221600Z 34004KT 9999 FEW040 29/15 Q1018;
0120833440999992008092217004-14950-040883FM-15+0914SBQV V0203601N001512200019N0112651N1+02901+01501999999ADDGA1021+012001999GF102991999999999999999999MA1101691999999REMMET051METAR SBQV 221700Z 36003KT 9999 FEW040 29/15 Q1017;
0120833440999992008092218004-14950-040883FM-15+0914SBQV V0203401N002610120019N0112651N1+03001+01501999999ADDGA1071+012001999GF107991999999999999999999MA1101591999999REMMET051METAR SBQV 221800Z 34005KT 9999 BKN040 30/15 Q1016;
0120833440999992008092219004-14950-040883FM-15+0914SBQV V0203501N002612200019N0112651N1+03101+01501999999ADDGA1041+012001999GF104991999999999999999999MA1101591999999REMMET051METAR SBQV 221900Z 35005KT 9999 SCT040 31/15 Q1016;
0120833440999992008092220004-14950-040883FM-15+0914SBQV V0200101N002612200019N0112651N1+02901+01501999999ADDGA1041+010501999GF104991999999999999999999MA1101591999999REMMET051METAR SBQV 222000Z 01005KT 9999 SCT035 29/15 Q1016;
0143833440999992008092221004-14950-040883FM-15+0914SBQV V0209999C000012200019N0112651N1+02701+01501999999ADDGA1021+007501999GA2041+024001999GF104991999999999999999999MA1101591999999REMMET058METAR SBQV 222100Z 00000KT 9999 FEW025 SCT080 27/15 Q1016;
0072833440999992008092222004-14950-040883FM-15+0914SBQV V0200601N00311220001CN0099001N1+02501+01701999999ADDMA1101691999999REMMET045METAR SBQV 222200Z 06006KT CAVOK 25/17 Q1017;
0072833440999992008092223004-14950-040883FM-15+0914SBQV V0201001N00101220001CN0099001N1+02401+01601999999ADDMA1101691999999REMMET045METAR SBQV 222300Z 10002KT CAVOK 24/16 Q1017;
0120833440999992008092311004-14950-040883FM-15+0914SBQV V0200101N007712200019N0112651N1+02201+01801999999ADDGA1021+005401999GF102991999999999999999999MA1101801999999REMMET051METAR SBQV 231100Z 01015KT 9999 FEW018 22/18 Q1018;
0072833440999992008092312004-14950-040883FM-15+0914SBQV V0200401N00311220001CN0099001N1+02401+01801999999ADDMA1101801999999REMMET045METAR SBQV 231200Z 04006KT CAVOK 24/18 Q1018;
0072833440999992008092313004-14950-040883FM-15+0914SBQV V0203401N00211220001CN0099001N1+02701+01701999999ADDMA1101801999999REMMET045METAR SBQV 231300Z 34004KT CAVOK 27/17 Q1018;
0120833440999992008092314004-14950-040883FM-15+0914SBQV V0203201N003112200019N0112651N1+02801+01701999999ADDGA1021+009001999GF102991999999999999999999MA1101801999999REMMET051METAR SBQV 231400Z 32006KT 9999 FEW030 28/17 Q1018;
0143833440999992008092315004-14950-040883FM-15+0914SBQV V0203601N003612200019N0112651N1+03001+01601999999ADDGA1021+012001999GA2041+030001999GF104991999999999999999999MA1101691999999REMMET058METAR SBQV 231500Z 36007KT 9999 FEW040 SCT100 30/16 Q1017;
0143833440999992008092316004-14950-040883FM-15+0914SBQV V0203301N003112200019N0112651N1+03101+01601999999ADDGA1021+012001999GA2041+030001999GF104991999999999999999999MA1101491999999REMMET058METAR SBQV 231600Z 33006KT 9999 FEW040 SCT100 31/16 Q1015;
0146833440999992008092317004-14950-040883FM-15+0914SBQV V0200101N002112200019N0112651N1+03101+01501999999ADDGA1021+010501021GA2041+012001999GF104991999999999999999999MA1101391999999REMMET061METAR SBQV 231700Z 01004KT 9999 FEW035TCU SCT040 31/15 Q1014;
0146833440999992008092318004-14950-040883FM-15+0914SBQV V0200201N003112200019N0112651N1+03201+01501999999ADDGA1021+010501021GA2041+012001999GF104991999999999999999999MA1101291999999REMMET061METAR SBQV 231800Z 02006KT 9999 FEW035TCU SCT040 32/15 Q1013;
0146833440999992008092319004-14950-040883FM-15+0914SBQV V0201401N003612200019N0112651N1+03001+01801999999ADDGA1021+010501021GA2041+012001999GF104991999999999999999999MA1101291999999REMMET061METAR SBQV 231900Z 14007KT 9999 FEW035TCU SCT040 30/18 Q1013;
0156833440999992008092320004-14950-040883FM-15+0914SBQV V0202201N003612200019N0112651N1+02601+01601999999ADDGA1021+007501021GA2041+009001999GF104991999999999999999999MA1101491999999MW1611REMMET065METAR SBQV 232000Z 22007KT 9999 -RA FEW025TCU SCT030 26/16 Q1015;
0193833440999992008092321004-14950-040883FM-15+0914SBQV V0201001N004112200019N0080001N1+02201+02001999999ADDGA1041+002401999GA2021+004801091GA3041+021001999GF104991999999999999999999MA1101491999999MW1801MW2951REMMET080METAR SBQV 232100Z 10008KT 8000 -TSRA SCT008 FEW016CB SCT070 22/20 Q1015 RETSRA;
0184833440999992008092322004-14950-040883FM-15+0914SBQV V0201301N003612200019N0112651N1+02101+02001999999ADDGA1041+002401999GA2021+004501091GA3041+021001999GF104991999999999999999999MA1101591999999MW1171REMMET077METAR SBQV 232200Z 13007KT 9999 VCTS SCT008 FEW015CB SCT070 21/20 Q1016 RETS;
0143833440999992008092323004-14950-040883FM-15+0914SBQV V0200801N003612200019N0112651N1+02201+01801999999ADDGA1041+002101999GA2041+021001999GF104991999999999999999999MA1101691999999REMMET058METAR SBQV 232300Z 08007KT 9999 SCT007 SCT070 22/18 Q1017;
0123833440999992008092410154-14950-040883FM-16+0914SBQV V0201101N003619999999N0112651N1+02001+01901999999ADDKA1999M+99999MA1101901999999REMMET064METAR SBQV 241015Z SPECI 11007KT 9999 FEW011 BKN070 20/19 Q1019;EQDQ01 -00072ATMX  
0143833440999992008092411004-14950-040883FM-15+0914SBQV V0201101N003610210019N0112651N1+02101+01901999999ADDGA1021+003901999GA2071+021001999GF107991999999999999999999MA1102001999999REMMET058METAR SBQV 241100Z 11007KT 9999 FEW013 BKN070 21/19 Q1020;
0143833440999992008092412004-14950-040883FM-15+0914SBQV V0201401N003110210019N0112651N1+02201+02001999999ADDGA1041+004501999GA2071+021001999GF107991999999999999999999MA1102101999999REMMET058METAR SBQV 241200Z 14006KT 9999 SCT015 BKN070 22/20 Q1021;
0143833440999992008092413004-14950-040883FM-15+0914SBQV V0201501N002110048019N0112651N1+02301+01901999999ADDGA1071+004801999GA2071+024001999GF107991999999999999999999MA1102101999999REMMET058METAR SBQV 241300Z 15004KT 9999 BKN016 BKN080 23/19 Q1021;
0143833440999992008092414004-14950-040883FM-15+0914SBQV V0201401N002110054019N0112651N1+02401+01901999999ADDGA1071+005401999GA2071+024001999GF107991999999999999999999MA1102001999999REMMET058METAR SBQV 241400Z 14004KT 9999 BKN018 BKN080 24/19 Q1020;
0143833440999992008092415004-14950-040883FM-15+0914SBQV V0201501N002110054019N0112651N1+02401+02001999999ADDGA1071+005401999GA2071+024001999GF107991999999999999999999MA1102001999999REMMET058METAR SBQV 241500Z 15004KT 9999 BKN018 BKN080 24/20 Q1020;
0143833440999992008092416004-14950-040883FM-15+0914SBQV V0201201N002610054019N0112651N1+02301+02001999999ADDGA1071+005401999GA2071+024001999GF107991999999999999999999MA1101901999999REMMET058METAR SBQV 241600Z 12005KT 9999 BKN018 BKN080 23/20 Q1019;
0143833440999992008092417004-14950-040883FM-15+0914SBQV V0201301N003610054019N0112651N1+02401+02001999999ADDGA1071+005401999GA2071+024001999GF107991999999999999999999MA1101801999999REMMET058METAR SBQV 241700Z 13007KT 9999 BKN018 BKN080 24/20 Q1018;
0169833440999992008092418004-14950-040883FM-15+0914SBQV V0201201N005110048019N0112651N1+02301+02001999999ADDGA1071+004801999GA2021+006001021GA3071+024001999GF107991999999999999999999MA1101801999999REMMET068METAR SBQV 241800Z 12010KT 9999 BKN016 FEW020TCU BKN080 23/20 Q1018;
0169833440999992008092419004-14950-040883FM-15+0914SBQV V0201101N005110048019N0112651N1+02301+02001999999ADDGA1071+004801999GA2021+006001021GA3071+024001999GF107991999999999999999999MA1101801999999REMMET068METAR SBQV 241900Z 11010KT 9999 BKN016 FEW020TCU BKN080 23/20 Q1018;
0169833440999992008092420004-14950-040883FM-15+0914SBQV V0201201N00571006001CN0112651N1+02201+01901999999ADDGA1041+004801999GA2021+006001021GA3071+024001999GF107991999999999999999999MA1101901999999REMMET068METAR SBQV 242000Z 12011KT 9999 SCT016 FEW020TCU BKN080 22/19 Q1019;
0143833440999992008092421004-14950-040883FM-15+0914SBQV V0201101N005110240019N0112651N1+02101+02001999999ADDGA1041+002101999GA2071+024001999GF107991999999999999999999MA1101901999999REMMET058METAR SBQV 242100Z 11010KT 9999 SCT007 BKN080 21/20 Q1019;
0123833440999992008092421334-14950-040883FM-16+0914SBQV V0201001N004619999999N0112651N1+02101+01901999999ADDKA1999M+99999MA1102001999999REMMET064METAR SBQV 242133Z SPECI 10009KT 9999 BKN006 SCT080 21/19 Q1020;EQDQ01 +00092ATMX  
0120833440999992008092423004-14950-040883FM-15+0914SBQV V0201201N005710015019N0112651N1+02001+01901999999ADDGA1081+001501999GF108991999999999999999999MA1102101999999REMMET051METAR SBQV 242300Z 12011KT 9999 OVC005 20/19 Q1021;
0129833440999992008092511004-14950-040883FM-15+0914SBQV V0201201N008210015019N0050001N1+01701+01701999999ADDGA1081+001501999GF108991999999999999999999MA1102301999999MW1101REMMET054METAR SBQV 251100Z 12016KT 5000 BR OVC005 17/17 Q1023;
0129833440999992008092512004-14950-040883FM-15+0914SBQV V0201301N007210012019N0009001N1+01701+01701999999ADDGA1081+001201999GF108991999999999999999999MA1102401999999MW1441REMMET054METAR SBQV 251200Z 13014KT 0900 FG OVC004 17/17 Q1024;
0129833440999992008092513004-14950-040883FM-15+0914SBQV V0201201N007210012019N0020001N1+01701+01701999999ADDGA1081+001201999GF108991999999999999999999MA1102401999999MW1101REMMET054METAR SBQV 251300Z 12014KT 2000 BR OVC004 17/17 Q1024;
0129833440999992008092514004-14950-040883FM-15+0914SBQV V0201201N007210015019N0030001N1+01801+01701999999ADDGA1081+001501999GF108991999999999999999999MA1102301999999MW1101REMMET054METAR SBQV 251400Z 12014KT 3000 BR OVC005 18/17 Q1023;
0143833440999992008092515004-14950-040883FM-15+0914SBQV V0201201N006710018019N0112651N1+01901+01701999999ADDGA1071+001801999GA2071+003001999GF107991999999999999999999MA1102201999999REMMET058METAR SBQV 251500Z 12013KT 9999 BKN006 BKN010 19/17 Q1022;
0160833440999992008092516004-14950-040883FM-15+0914SBQV V0201301N005710021019N0112651N1+01901+01801999999ADDGA1071+002101999GA2081+003001999GF108991999999999999999999MA1102201999999MW1511REMMET069METAR SBQV 251600Z 13011KT 9999 4000SE -DZ BKN007 OVC010 19/18 Q1022;
0166833440999992008092517004-14950-040883FM-15+0914SBQV V0201201N00621003301CN0112651N1+01901+01701999999ADDGA1021+001801999GA2041+003301999GA3071+021001999GF107991999999999999999999MA1102101999999REMMET065METAR SBQV 251700Z 12012KT 9999 FEW006 SCT011 BKN070 19/17 Q1021;
0143833440999992008092518004-14950-040883FM-15+0914SBQV V0201101N004110210019N0112651N1+02101+01701999999ADDGA1041+003301999GA2071+021001999GF107991999999999999999999MA1102101999999REMMET058METAR SBQV 251800Z 11008KT 9999 SCT011 BKN070 21/17 Q1021;
0143833440999992008092519004-14950-040883FM-15+0914SBQV V0201201N005112200019N0112651N1+02101+01701999999ADDGA1021+002701999GA2041+004501999GF104991999999999999999999MA1102101999999REMMET058METAR SBQV 251900Z 12010KT 9999 FEW009 SCT015 21/17 Q1021;
0166833440999992008092520004-14950-040883FM-15+0914SBQV V0201301N00571004501CN0112651N1+02001+01701999999ADDGA1021+002701999GA2041+004501999GA3071+021001999GF107991999999999999999999MA1102101999999REMMET065METAR SBQV 252000Z 13011KT 9999 FEW009 SCT015 BKN070 20/17 Q1021;
0143833440999992008092522004-14950-040883FM-15+0914SBQV V0201101N003610210019N0112651N1+01901+01701999999ADDGA1041+003001999GA2071+021001999GF107991999999999999999999MA1102201999999REMMET058METAR SBQV 252200Z 11007KT 9999 SCT010 BKN070 19/17 Q1022;
0072833440999992008092523004-14950-040883FM-15+0914SBQV V0201001N00461220001CN0099001N1+01901+01701999999ADDMA1102201999999REMMET045METAR SBQV 252300Z 10009KT CAVOK 19/17 Q1022;
0120833440999992008092602004-14950-040883FM-15+0914SBQV V0201301N005710021019N0112651N1+01801+01701999999ADDGA1071+002101999GF107991999999999999999999MA1102201999999REMMET051METAR SBQV 260200Z 13011KT 9999 BKN007 18/17 Q1022;
0120833440999992008092603004-14950-040883FM-15+0914SBQV V0201301N006710018019N0112651N1+01701+01601999999ADDGA1071+001801999GF107991999999999999999999MA1102201999999REMMET051METAR SBQV 260300Z 13013KT 9999 BKN006 17/16 Q1022;
0166833440999992008092610154-14950-040883FM-15+0914SBQV V0201101N003610030019N0112651N1+01701+01601999999ADDGA1021+001801999GA2071+003001999GA3071+021001999GF107991999999999999999999MA1102301999999REMMET065METAR SBQV 261015Z 11007KT 9999 FEW006 BKN010 BKN070 17/16 Q1023;
0143833440999992008092612004-14950-040883FM-15+0914SBQV V0201101N005710045019N0112651N1+01901+01601999999ADDGA1071+004501999GA2071+024001999GF107991999999999999999999MA1102401999999REMMET058METAR SBQV 261200Z 11011KT 9999 BKN015 BKN080 19/16 Q1024;
0136833440999992008092613004-14950-040883FM-15+0914SBQV V0201201N00571220001CN0112651N1+02001+01601999999ADDGA1071+004801999GA2041+024001999MA1102401999999REMMET058METAR SBQV 261300Z 12011KT 9999 BKN016 SCT080 20/16 Q1024;EQDQ01+000042SCOTCV
0143833440999992008092614004-14950-040883FM-15+0914SBQV V0201001N004110054019N0112651N1+02101+01601999999ADDGA1071+005401999GA2071+024001999GF107991999999999999999999MA1102301999999REMMET058METAR SBQV 261400Z 10008KT 9999 BKN018 BKN080 21/16 Q1023;
0143833440999992008092615004-14950-040883FM-15+0914SBQV V0201301N004110054019N0112651N1+02101+01601999999ADDGA1071+005401999GA2071+024001999GF107991999999999999999999MA1102201999999REMMET058METAR SBQV 261500Z 13008KT 9999 BKN018 BKN080 21/16 Q1022;
0143833440999992008092616004-14950-040883FM-15+0914SBQV V0201501N004610060019N0112651N1+02101+01701999999ADDGA1071+006001999GA2071+027001999GF107991999999999999999999MA1102101999999REMMET058METAR SBQV 261600Z 15009KT 9999 BKN020 BKN090 21/17 Q1021;
0143833440999992008092617004-14950-040883FM-15+0914SBQV V0201301N004610060019N0112651N1+02201+01601999999ADDGA1071+006001999GA2071+027001999GF107991999999999999999999MA1102001999999REMMET058METAR SBQV 261700Z 13009KT 9999 BKN020 BKN090 22/16 Q1020;
0143833440999992008092618004-14950-040883FM-15+0914SBQV V0201301N006212200019N0112651N1+02201+01701999999ADDGA1041+006001999GA2041+027001999GF104991999999999999999999MA1101901999999REMMET058METAR SBQV 261800Z 13012KT 9999 SCT020 SCT090 22/17 Q1019;
0166833440999992008092619004-14950-040883FM-15+0914SBQV V0201001N00621006001CN0112651N1+02101+01701999999ADDGA1021+003601999GA2041+006001999GA3071+024001999GF107991999999999999999999MA1101901999999REMMET065METAR SBQV 261900Z 10012KT 9999 FEW012 SCT020 BKN080 21/17 Q1019;
0166833440999992008092620004-14950-040883FM-15+0914SBQV V0201001N005712200019N0112651N1+02001+01701999999ADDGA1021+003301999GA2041+005401999GA3041+024001999GF104991999999999999999999MA1101901999999REMMET065METAR SBQV 262000Z 10011KT 9999 FEW011 SCT018 SCT080 20/17 Q1019;
0143833440999992008092622004-14950-040883FM-15+0914SBQV V0201001N004112200019N0112651N1+01901+01701999999ADDGA1021+003301999GA2041+004501999GF104991999999999999999999MA1102001999999REMMET058METAR SBQV 262200Z 10008KT 9999 FEW011 SCT015 19/17 Q1020;
0120833440999992008092623004-14950-040883FM-15+0914SBQV V0200901N005112200019N0112651N1+01901+01701999999ADDGA1021+004501999GF102991999999999999999999MA1102001999999REMMET051METAR SBQV 262300Z 09010KT 9999 FEW015 19/17 Q1020;
0120833440999992008092700004-14950-040883FM-15+0914SBQV V0200801N005112200019N0112651N1+01801+01701999999ADDGA1021+001801999GF102991999999999999999999MA1102001999999REMMET051METAR SBQV 270000Z 08010KT 9999 FEW006 18/17 Q1020;
0120833440999992008092702004-14950-040883FM-15+0914SBQV V0200701N004612200019N0112651N1+01801+01701999999ADDGA1041+001801999GF104991999999999999999999MA1102101999999REMMET051METAR SBQV 270200Z 07009KT 9999 SCT006 18/17 Q1021;
0120833440999992008092703004-14950-040883FM-15+0914SBQV V0200801N005110018019N0112651N1+01801+01701999999ADDGA1071+001801999GF107991999999999999999999MA1101901999999REMMET051METAR SBQV 270300Z 08010KT 9999 BKN006 18/17 Q1019;
0143833440999992008092711004-14950-040883FM-15+0914SBQV V0200701N002610210019N0112651N1+01801+01701999999ADDGA1021+001801999GA2081+021001999GF108991999999999999999999MA1102101999999REMMET058METAR SBQV 271100Z 07005KT 9999 FEW006 OVC070 18/17 Q1021;
0176833440999992008092712004-14950-040883FM-15+0914SBQV V0200701N00051003301CN0080001N1+01801+01701999999ADDGA1041+001501999GA2041+003301999GA3081+021001999GF108991999999999999999999MA1102201999999MW1611REMMET069METAR SBQV 271200Z 07001KT 8000 -RA SCT005 SCT011 OVC070 18/17 Q1022;
0176833440999992008092713004-14950-040883FM-15+0914SBQV V0200801N00311003301CN0080001N1+01801+01801999999ADDGA1041+001501999GA2041+003301999GA3081+021001999GF108991999999999999999999MA1102201999999MW1611REMMET069METAR SBQV 271300Z 08006KT 8000 -RA SCT005 SCT011 OVC070 18/18 Q1022;
0176833440999992008092714004-14950-040883FM-15+0914SBQV V0200601N00101003301CN0060001N1+01801+01801999999ADDGA1041+001501999GA2041+003301999GA3081+021001999GF108991999999999999999999MA1102201999999MW1611REMMET069METAR SBQV 271400Z 06002KT 6000 -RA SCT005 SCT011 OVC070 18/18 Q1022;
0102833440999992008092714394-14950-040883FM-16+0914SBQV V0200301N002112200019N9999999N1+01801+01801999999ADDMA1102201999999REMMET075METAR SBQV 271439Z SPECI 03004KT 7000 -RA SCT005 BKN009 OVC070 18/18 Q1022;
0166833440999992008092716004-14950-040883FM-15+0914SBQV V0201001N00051003001CN0112651N1+01901+01801999999ADDGA1021+001501999GA2041+003001999GA3081+021001999GF108991999999999999999999MA1102001999999REMMET065METAR SBQV 271600Z 10001KT 9999 FEW005 SCT010 OVC070 19/18 Q1020;
0143833440999992008092717004-14950-040883FM-15+0914SBQV V0200201N001010210019N0112651N1+01901+01801999999ADDGA1041+003001999GA2081+021001999GF108991999999999999999999MA1101901999999REMMET058METAR SBQV 271700Z 02002KT 9999 SCT010 OVC070 19/18 Q1019;
0153833440999992008092718004-14950-040883FM-15+0914SBQV V0200101N001510210019N0112651N1+01901+01901999999ADDGA1021+003001999GA2081+021001999GF108991999999999999999999MA1101801999999MW1611REMMET062METAR SBQV 271800Z 01003KT 9999 -RA FEW010 OVC070 19/19 Q1018;
0143833440999992008092720004-14950-040883FM-15+0914SBQV V0209999C000010210019N0112651N1+02001+01801999999ADDGA1021+003001999GA2081+021001999GF108991999999999999999999MA1101801999999REMMET058METAR SBQV 272000Z 00000KT 9999 FEW010 OVC070 20/18 Q1018;
0153833440999992008092721004-14950-040883FM-15+0914SBQV V0200801N001510210019N0112651N1+02001+01901999999ADDGA1021+001801999GA2071+021001999GF107991999999999999999999MA1101801999999MW1611REMMET062METAR SBQV 272100Z 08003KT 9999 -RA FEW006 BKN070 20/19 Q1018;
0143833440999992008092722004-14950-040883FM-15+0914SBQV V0209999C000010210019N0112651N1+01901+01901999999ADDGA1041+001501999GA2071+021001999GF107991999999999999999999MA1101901999999REMMET058METAR SBQV 272200Z 00000KT 9999 SCT005 BKN070 19/19 Q1019;
0143833440999992008092811004-14950-040883FM-15+0914SBQV V0200401N002610240019N0112651N1+02001+01701999999ADDGA1021+002701999GA2071+024001999GF107991999999999999999999MA1102001999999REMMET058METAR SBQV 281100Z 04005KT 9999 FEW009 BKN080 20/17 Q1020;
0269833440999992008092812004-14950-040883SY-MT+0914SBQV V0203601N00411024001CN0200001N1+02071+01781101581ADDAA124007991GA1021+003001999GA2071+024001999GF107991071071004501001001KA1240N+01221MA1102101091901MD1999999-0061REMSYN082AAXX  28124 83344 22498 73608 10207 20178 39190 40158 87700 333 20122 59006 60084;MET058METAR SBQV 281200Z 03008KT 9999 FEW010 BKN080 21/18 Q1021;
0143833440999992008092813004-14950-040883FM-15+0914SBQV V0200201N003610045019N0112651N1+02201+01801999999ADDGA1071+004501999GA2071+024001999GF107991999999999999999999MA1102101999999REMMET058METAR SBQV 281300Z 02007KT 9999 BKN015 BKN080 22/18 Q1021;
0136833440999992008092814004-14950-040883FM-15+0914SBQV V0200101N00461220001CN0112651N1+02201+01801999999ADDGA1071+004801999GA2041+024001999MA1102101999999REMMET058METAR SBQV 281400Z 01009KT 9999 BKN016 SCT080 22/18 Q1021;EQDQ01+000042SCOTCV
0136833440999992008092815004-14950-040883FM-15+0914SBQV V0200101N00311220001CN0112651N1+02401+01801999999ADDGA1071+006001999GA2041+027001999MA1101901999999REMMET058METAR SBQV 281500Z 01006KT 9999 BKN020 SCT090 24/18 Q1019;EQDQ01+000042SCOTCV
0120833440999992008092816004-14950-040883FM-15+0914SBQV V0200101N004112200019N0112651N1+02601+01701999999ADDGA1041+007501999GF104991999999999999999999MA1101801999999REMMET051METAR SBQV 281600Z 01008KT 9999 SCT025 26/17 Q1018;
0137833440999992008092818004-14950-040883FM-12+0914SBQV V0203601N001010450019N0200001N1+02731+02101999999ADDGF106991041011004501091001MA1999999091521MD1999999-0151REMSYN070AAXX  28184 83344 32498 63602 10273 20210 39152 4//// 84190 333 59015;
0143833440999992008092819004-14950-040883FM-15+0914SBQV V0200801N001012200019N0112651N1+02701+01701999999ADDGA1041+007501999GA2041+027001999GF104991999999999999999999MA1101591999999REMMET058METAR SBQV 281900Z 08002KT 9999 SCT025 SCT090 27/17 Q1016;
0120833440999992008092820004-14950-040883FM-15+0914SBQV V0209999C000012200019N0112651N1+02701+01701999999ADDGA1021+006001999GF102991999999999999999999MA1101591999999REMMET051METAR SBQV 282000Z 00000KT 9999 FEW020 27/17 Q1016;
0120833440999992008092821004-14950-040883FM-15+0914SBQV V0201001N003112200019N0112651N1+02401+01901999999ADDGA1021+004801999GF102991999999999999999999MA1101691999999REMMET051METAR SBQV 282100Z 10006KT 9999 FEW016 24/19 Q1017;
0120833440999992008092822004-14950-040883FM-15+0914SBQV V0201001N003612200019N0112651N1+02301+01901999999ADDGA1021+004501999GF102991999999999999999999MA1101801999999REMMET051METAR SBQV 282200Z 10007KT 9999 FEW015 23/19 Q1018;
0072833440999992008092900004-14950-040883FM-15+0914SBQV V0200901N00361220001CN0099001N1+02101+01901999999ADDMA1101901999999REMMET045METAR SBQV 290000Z 09007KT CAVOK 21/19 Q1019;
0116833440999992008092910154-14950-040883FM-16+0914SBQV V0201101N001019999999N0112651N1+02101+01901999999ADDKA1999M+99999MA1102101999999REMMET057METAR SBQV 291015Z SPECI 11002KT 9999 FEW010 21/19 Q1021;EQDQ01 -00022ATMX  
0120833440999992008092911004-14950-040883FM-15+0914SBQV V0201201N002612200019N0112651N1+02301+01901999999ADDGA1021+003301999GF102991999999999999999999MA1102101999999REMMET051METAR SBQV 291100Z 12005KT 9999 FEW011 23/19 Q1021;
0120833440999992008092912004-14950-040883FM-15+0914SBQV V0201101N001012200019N0112651N1+02401+01901999999ADDGA1041+004501999GF104991999999999999999999MA1102101999999REMMET051METAR SBQV 291200Z 11002KT 9999 SCT015 24/19 Q1021;
0120833440999992008092913004-14950-040883FM-15+0914SBQV V0200901N003110048019N0112651N1+02701+01801999999ADDGA1071+004801999GF107991999999999999999999MA1102101999999REMMET051METAR SBQV 291300Z 09006KT 9999 BKN016 27/18 Q1021;
0120833440999992008092914004-14950-040883FM-15+0914SBQV V0200501N002110060019N0112651N1+02801+01901999999ADDGA1071+006001999GF107991999999999999999999MA1102101999999REMMET051METAR SBQV 291400Z 05004KT 9999 BKN020 28/19 Q1021;
0120833440999992008092915004-14950-040883FM-15+0914SBQV V0201101N004110060019N0112651N1+02801+01801999999ADDGA1071+006001999GF107991999999999999999999MA1102001999999REMMET051METAR SBQV 291500Z 11008KT 9999 BKN020 28/18 Q1020;
0120833440999992008092916004-14950-040883FM-15+0914SBQV V0201201N005110075019N0112651N1+02901+01901999999ADDGA1071+007501999GF107991999999999999999999MA1101901999999REMMET051METAR SBQV 291600Z 12010KT 9999 BKN025 29/19 Q1019;
0120833440999992008092917004-14950-040883FM-15+0914SBQV V0201301N005112200019N0112651N1+02801+02001999999ADDGA1041+007501999GF104991999999999999999999MA1101801999999REMMET051METAR SBQV 291700Z 13010KT 9999 SCT025 28/20 Q1018;
0120833440999992008092918004-14950-040883FM-15+0914SBQV V0201301N006210075019N0112651N1+02801+01901999999ADDGA1071+007501999GF107991999999999999999999MA1101801999999REMMET051METAR SBQV 291800Z 13012KT 9999 BKN025 28/19 Q1018;
0139833440999992008092919004-14950-040883FM-15+0914SBQV V0201001N005112200019N0112651N1+02701+01901999999ADDGA1041+007501999GA2021+009001021MA1101801999999REMMET061METAR SBQV 291900Z 10010KT 9999 SCT025 FEW030TCU 27/19 Q1018;EQDQ01+000022SCOTCV
0146833440999992008092920004-14950-040883FM-15+0914SBQV V0201001N005712200019N0112651N1+02601+01901999999ADDGA1021+007501999GA2021+009001021GF102991999999999999999999MA1101801999999REMMET061METAR SBQV 292000Z 10011KT 9999 FEW025 FEW030TCU 26/19 Q1018;
0120833440999992008092921004-14950-040883FM-15+0914SBQV V0201001N004612200019N0112651N1+02501+01801999999ADDGA1021+006001999GF102991999999999999999999MA1101901999999REMMET051METAR SBQV 292100Z 10009KT 9999 FEW020 25/18 Q1019;
0072833440999992008092922004-14950-040883FM-15+0914SBQV V0201001N00411220001CN0099001N1+02401+01801999999ADDMA1102001999999REMMET045METAR SBQV 292200Z 10008KT CAVOK 24/18 Q1020;
0120833440999992008092923004-14950-040883FM-15+0914SBQV V0201201N007212200019N0112651N1+02201+02001999999ADDGA1041+002101999GF104991999999999999999999MA1102001999999REMMET051METAR SBQV 292300Z 12014KT 9999 SCT007 22/20 Q1020;
0143833440999992008093011004-14950-040883FM-15+0914SBQV V0201101N003610240019N0112651N1+02001+01801999999ADDGA1021+002101999GA2071+024001999GF107991999999999999999999MA1102401999999REMMET058METAR SBQV 301100Z 11007KT 9999 FEW007 BKN080 20/18 Q1024;
0143833440999992008093012004-14950-040883FM-15+0914SBQV V0200801N004110060019N0112651N1+02201+01801999999ADDGA1071+006001999GA2071+027001999GF107991999999999999999999MA1102401999999REMMET058METAR SBQV 301200Z 08008KT 9999 BKN020 BKN090 22/18 Q1024;
0143833440999992008093013004-14950-040883FM-15+0914SBQV V0200701N004110060019N0112651N1+02301+01701999999ADDGA1071+006001999GA2071+027001999GF107991999999999999999999MA1102401999999REMMET058METAR SBQV 301300Z 07008KT 9999 BKN020 BKN090 23/17 Q1024;
0136833440999992008093014004-14950-040883FM-15+0914SBQV V0201301N00361220001CN0112651N1+02201+01901999999ADDGA1071+006001999GA2041+027001999MA1102401999999REMMET058METAR SBQV 301400Z 13007KT 9999 BKN020 SCT090 22/19 Q1024;EQDQ01+000042SCOTCV
0136833440999992008093015004-14950-040883FM-15+0914SBQV V0201201N00311220001CN0112651N1+02201+01901999999ADDGA1071+006001999GA2041+027001999MA1102301999999REMMET058METAR SBQV 301500Z 12006KT 9999 BKN020 SCT090 22/19 Q1023;EQDQ01+000042SCOTCV
0136833440999992008093016004-14950-040883FM-15+0914SBQV V0201301N00411220001CN0112651N1+02301+01901999999ADDGA1071+007501999GA2041+027001999MA1102201999999REMMET058METAR SBQV 301600Z 13008KT 9999 BKN025 SCT090 23/19 Q1022;EQDQ01+000042SCOTCV
0136833440999992008093017004-14950-040883FM-15+0914SBQV V0201101N00311220001CN0112651N1+02501+01801999999ADDGA1071+007501999GA2041+027001999MA1102101999999REMMET058METAR SBQV 301700Z 11006KT 9999 BKN025 SCT090 25/18 Q1021;EQDQ01+000042SCOTCV
0120833440999992008093018004-14950-040883FM-15+0914SBQV V0200701N004610075019N0112651N1+02501+01801999999ADDGA1071+007501999GF107991999999999999999999MA1102001999999REMMET051METAR SBQV 301800Z 07009KT 9999 BKN025 25/18 Q1020;
0120833440999992008093019004-14950-040883FM-15+0914SBQV V0200501N004112200019N0112651N1+02601+01801999999ADDGA1041+007501999GF104991999999999999999999MA1101901999999REMMET051METAR SBQV 301900Z 05008KT 9999 SCT025 26/18 Q1019;
0120833440999992008093020004-14950-040883FM-15+0914SBQV V0200701N004112200019N0112651N1+02501+01801999999ADDGA1021+006001999GF102991999999999999999999MA1101901999999REMMET051METAR SBQV 302000Z 07008KT 9999 FEW020 25/18 Q1019;
0120833440999992008093021004-14950-040883FM-15+0914SBQV V0200801N004112200019N0112651N1+02301+01901999999ADDGA1021+005401999GF102991999999999999999999MA1102001999999REMMET051METAR SBQV 302100Z 08008KT 9999 FEW018 23/19 Q1020;
0072833440999992008093022004-14950-040883FM-15+0914SBQV V0201001N00411220001CN0099001N1+02201+01901999999ADDMA1102001999999REMMET045METAR SBQV 302200Z 10008KT CAVOK 22/19 Q1020;
0072833440999992008093023004-14950-040883FM-15+0914SBQV V0201001N00311220001CN0099001N1+02001+01801999999ADDMA1102101999999REMMET045METAR SBQV 302300Z 10006KT CAVOK 20/18 Q1021;
0143833440999992008100111004-14950-040883FM-15+0914SBQV V0200701N004112200019N0112651N1+02101+01701999999ADDGA1041+003901999GA2041+004501999GF104991999999999999999999MA1102101999999REMMET058METAR SBQV 011100Z 07008KT 9999 SCT013 SCT015 21/17 Q1021;
0120833440999992008100112004-14950-040883FM-15+0914SBQV V0200301N003612200019N0112651N1+02201+01701999999ADDGA1041+004801999GF104991999999999999999999MA1102201999999REMMET051METAR SBQV 011200Z 03007KT 9999 SCT016 22/17 Q1022;
0072833440999992008100113004-14950-040883FM-15+0914SBQV V0200601N00411220001CN0099001N1+02501+01601999999ADDMA1102101999999REMMET045METAR SBQV 011300Z 06008KT CAVOK 25/16 Q1021;
0072833440999992008100114004-14950-040883FM-15+0914SBQV V0200401N00311220001CN0099001N1+02701+01501999999ADDMA1102001999999REMMET045METAR SBQV 011400Z 04006KT CAVOK 27/15 Q1020;
0120833440999992008100115004-14950-040883FM-15+0914SBQV V0200701N002612200019N0112651N1+02901+01301999999ADDGA1021+009001999GF102991999999999999999999MA1101901999999REMMET051METAR SBQV 011500Z 07005KT 9999 FEW030 29/13 Q1019;
0120833440999992008100116004-14950-040883FM-15+0914SBQV V0200401N004112200019N0112651N1+03001+01401999999ADDGA1021+010501999GF102991999999999999999999MA1101801999999REMMET051METAR SBQV 011600Z 04008KT 9999 FEW035 30/14 Q1018;
0120833440999992008100117004-14950-040883FM-15+0914SBQV V0201001N004112200019N0112651N1+03101+01201999999ADDGA1021+010501999GF102991999999999999999999MA1101691999999REMMET051METAR SBQV 011700Z 10008KT 9999 FEW035 31/12 Q1017;
0120833440999992008100118004-14950-040883FM-15+0914SBQV V0201401N005112200019N0112651N1+03001+01501999999ADDGA1021+010501999GF102991999999999999999999MA1101591999999REMMET051METAR SBQV 011800Z 14010KT 9999 FEW035 30/15 Q1016;
0120833440999992008100119004-14950-040883FM-15+0914SBQV V0201201N005712200019N0112651N1+02901+01401999999ADDGA1021+010501999GF102991999999999999999999MA1101591999999REMMET051METAR SBQV 011900Z 12011KT 9999 FEW035 29/14 Q1016;
0072833440999992008100120004-14950-040883FM-15+0914SBQV V0201101N00511220001CN0099001N1+02701+01501999999ADDMA1101691999999REMMET045METAR SBQV 012000Z 11010KT CAVOK 27/15 Q1017;
0072833440999992008100121004-14950-040883FM-15+0914SBQV V0201101N00461220001CN0099001N1+02601+01601999999ADDMA1101691999999REMMET045METAR SBQV 012100Z 11009KT CAVOK 26/16 Q1017;
0072833440999992008100122004-14950-040883FM-15+0914SBQV V0201101N00461220001CN0099001N1+02501+01601999999ADDMA1101691999999REMMET045METAR SBQV 012200Z 11009KT CAVOK 25/16 Q1017;
0072833440999992008100123004-14950-040883FM-15+0914SBQV V0200901N00571220001CN0099001N1+02301+01701999999ADDMA1101691999999REMMET045METAR SBQV 012300Z 09011KT CAVOK 23/17 Q1017;
0072833440999992008100200004-14950-040883FM-15+0914SBQV V0200901N00621220001CN0099001N1+02201+01901999999ADDMA1101801999999REMMET045METAR SBQV 020000Z 09012KT CAVOK 22/19 Q1018;
0072833440999992008100203004-14950-040883FM-15+0914SBQV V0200401N00771220001CN0099001N1+01901+01701999999ADDMA1101801999999REMMET045METAR SBQV 020300Z 04015KT CAVOK 19/17 Q1018;
0120833440999992008100211004-14950-040883FM-15+0914SBQV V0200301N004112200019N0112651N1+02101+01701999999ADDGA1021+006001999GF102991999999999999999999MA1101901999999REMMET051METAR SBQV 021100Z 03008KT 9999 FEW020 21/17 Q1019;
0120833440999992008100212004-14950-040883FM-15+0914SBQV V0200401N004612200019N0112651N1+02501+01601999999ADDGA1021+009001999GF102991999999999999999999MA1102001999999REMMET051METAR SBQV 021200Z 04009KT 9999 FEW030 25/16 Q1020;
0120833440999992008100213004-14950-040883FM-15+0914SBQV V0200401N004612200019N0112651N1+02601+01501999999ADDGA1021+010501999GF102991999999999999999999MA1102001999999REMMET051METAR SBQV 021300Z 04009KT 9999 FEW035 26/15 Q1020;
0120833440999992008100214004-14950-040883FM-15+0914SBQV V0200701N004112200019N0112651N1+02801+01401999999ADDGA1021+012001999GF102991999999999999999999MA1101901999999REMMET051METAR SBQV 021400Z 07008KT 9999 FEW040 28/14 Q1019;
0072833440999992008100215004-14950-040883FM-15+0914SBQV V0200301N00311220001CN0099001N1+02901+01301999999ADDMA1101801999999REMMET045METAR SBQV 021500Z 03006KT CAVOK 29/13 Q1018;
0120833440999992008100216004-14950-040883FM-15+0914SBQV V0200101N003612200019N0112651N1+03001+01401999999ADDGA1021+012001999GF102991999999999999999999MA1101691999999REMMET051METAR SBQV 021600Z 01007KT 9999 FEW040 30/14 Q1017;
0120833440999992008100217004-14950-040883FM-15+0914SBQV V0200701N004112200019N0112651N1+03101+01301999999ADDGA1021+012001999GF102991999999999999999999MA1101591999999REMMET051METAR SBQV 021700Z 07008KT 9999 FEW040 31/13 Q1016;
0120833440999992008100218004-14950-040883FM-15+0914SBQV V0200301N004112200019N0112651N1+03101+01201999999ADDGA1021+012001999GF102991999999999999999999MA1101491999999REMMET051METAR SBQV 021800Z 03008KT 9999 FEW040 31/12 Q1015;
0120833440999992008100219004-14950-040883FM-15+0914SBQV V0200601N005712200019N0112651N1+03001+01601999999ADDGA1021+012001999GF102991999999999999999999MA1101491999999REMMET051METAR SBQV 021900Z 06011KT 9999 FEW040 30/16 Q1015;
0120833440999992008100220004-14950-040883FM-15+0914SBQV V0200901N006712200019N0112651N1+02801+01601999999ADDGA1021+012001999GF102991999999999999999999MA1101491999999REMMET051METAR SBQV 022000Z 09013KT 9999 FEW040 28/16 Q1015;
0072833440999992008100221004-14950-040883FM-15+0914SBQV V0201101N00511220001CN0099001N1+02501+01601999999ADDMA1101591999999REMMET045METAR SBQV 022100Z 11010KT CAVOK 25/16 Q1016;
0072833440999992008100222004-14950-040883FM-15+0914SBQV V0200801N00621220001CN0099001N1+02401+01601999999ADDMA1101691999999REMMET045METAR SBQV 022200Z 08012KT CAVOK 24/16 Q1017;
0072833440999992008100223004-14950-040883FM-15+0914SBQV V0200801N00511220001CN0099001N1+02301+01701999999ADDMA1101801999999REMMET045METAR SBQV 022300Z 08010KT CAVOK 23/17 Q1018;
0072833440999992008100302004-14950-040883FM-15+0914SBQV V0200801N00411220001CN0099001N1+02001+01801999999ADDMA1101901999999REMMET045METAR SBQV 030200Z 08008KT CAVOK 20/18 Q1019;
0072833440999992008100303004-14950-040883FM-15+0914SBQV V0200401N00721220001CN0099001N1+01901+01701999999ADDMA1101801999999REMMET045METAR SBQV 030300Z 04014KT CAVOK 19/17 Q1018;
0084833440999992008100310154-14950-040883FM-16+0914SBQV V0200501N004612200019N0112651N1+02001+01701999999ADDMA1101901999999REMMET057METAR SBQV 031015Z SPECI 05009KT 9999 SCT015 20/17 Q1019;
0120833440999992008100311004-14950-040883FM-15+0914SBQV V0200501N005712200019N0112651N1+02201+01701999999ADDGA1041+005401999GF104991999999999999999999MA1102001999999REMMET051METAR SBQV 031100Z 05011KT 9999 SCT018 22/17 Q1020;
0120833440999992008100312004-14950-040883FM-15+0914SBQV V0200301N005112200019N0112651N1+02401+01601999999ADDGA1021+006001999GF102991999999999999999999MA1102001999999REMMET051METAR SBQV 031200Z 03010KT 9999 FEW020 24/16 Q1020;
0120833440999992008100313004-14950-040883FM-15+0914SBQV V0200601N004112200019N0112651N1+02601+01601999999ADDGA1021+007501999GF102991999999999999999999MA1102001999999REMMET051METAR SBQV 031300Z 06008KT 9999 FEW025 26/16 Q1020;
0120833440999992008100314004-14950-040883FM-15+0914SBQV V0200401N005112200019N0112651N1+02801+01601999999ADDGA1021+009001999GF102991999999999999999999MA1102001999999REMMET051METAR SBQV 031400Z 04010KT 9999 FEW030 28/16 Q1020;
0072833440999992008100315004-14950-040883FM-15+0914SBQV V0200501N00461220001CN0099001N1+02901+01401999999ADDMA1101901999999REMMET045METAR SBQV 031500Z 05009KT CAVOK 29/14 Q1019;
0072833440999992008100316004-14950-040883FM-15+0914SBQV V0200801N00461220001CN0099001N1+03101+01401999999ADDMA1101801999999REMMET045METAR SBQV 031600Z 08009KT CAVOK 31/14 Q1018;
0072833440999992008100317004-14950-040883FM-15+0914SBQV V0200901N00411220001CN0099001N1+03101+01501999999ADDMA1101691999999REMMET045METAR SBQV 031700Z 09008KT CAVOK 31/15 Q1017;
0072833440999992008100318004-14950-040883FM-15+0914SBQV V0200801N00461220001CN0099001N1+03101+01501999999ADDMA1101691999999REMMET045METAR SBQV 031800Z 08009KT CAVOK 31/15 Q1017;
0072833440999992008100319004-14950-040883FM-15+0914SBQV V0200801N00411220001CN0099001N1+02901+01501999999ADDMA1101691999999REMMET045METAR SBQV 031900Z 08008KT CAVOK 29/15 Q1017;
0083833440999992008100320004-14950-040883FM-15+0914SBQV V0201101N00571220001CN0099001N1+02801+01601999999ADDMA1101691999999OC101291REMMET048METAR SBQV 032000Z 11011G25KT CAVOK 28/16 Q1017;
0072833440999992008100321004-14950-040883FM-15+0914SBQV V0200901N00511220001CN0099001N1+02501+01701999999ADDMA1101801999999REMMET045METAR SBQV 032100Z 09010KT CAVOK 25/17 Q1018;
0072833440999992008100322004-14950-040883FM-15+0914SBQV V0200801N00411220001CN0099001N1+02401+01701999999ADDMA1101801999999REMMET045METAR SBQV 032200Z 08008KT CAVOK 24/17 Q1018;
0072833440999992008100323004-14950-040883FM-15+0914SBQV V0200701N00511220001CN0099001N1+02301+01701999999ADDMA1101801999999REMMET045METAR SBQV 032300Z 07010KT CAVOK 23/17 Q1018;
0084833440999992008100410154-14950-040883FM-16+0914SBQV V0200801N004112200019N0112651N1+02101+01601999999ADDMA1102101999999REMMET057METAR SBQV 041015Z SPECI 08008KT 9999 SCT013 21/16 Q1021;
0120833440999992008100411004-14950-040883FM-15+0914SBQV V0200801N006210045019N0112651N1+02201+01601999999ADDGA1071+004501999GF107991999999999999999999MA1102201999999REMMET051METAR SBQV 041100Z 08012KT 9999 BKN015 22/16 Q1022;
0120833440999992008100412004-14950-040883FM-15+0914SBQV V0200901N005112200019N0112651N1+02401+01501999999ADDGA1041+004801999GF104991999999999999999999MA1102201999999REMMET051METAR SBQV 041200Z 09010KT 9999 SCT016 24/15 Q1022;
0120833440999992008100413004-14950-040883FM-15+0914SBQV V0200701N004112200019N0112651N1+02501+01501999999ADDGA1041+005401999GF104991999999999999999999MA1102201999999REMMET051METAR SBQV 041300Z 07008KT 9999 SCT018 25/15 Q1022;
0131833440999992008100417004-14950-040883FM-15+0914SBQV V0200801N005112200019N0112651N1+02901+01501999999ADDGA1021+009001999GF102991999999999999999999MA1101801999999OC101181REMMET054METAR SBQV 041700Z 08010G23KT 9999 FEW030 29/15 Q1018;
0072833440999992008100421004-14950-040883FM-15+0914SBQV V0201001N00411220001CN0099001N1+02501+01501999999ADDMA1101801999999REMMET045METAR SBQV 042100Z 10008KT CAVOK 25/15 Q1018;
0072833440999992008100422004-14950-040883FM-15+0914SBQV V0201001N00411220001CN0099001N1+02401+01501999999ADDMA1101801999999REMMET045METAR SBQV 042200Z 10008KT CAVOK 24/15 Q1018;
0143833440999992008100511004-14950-040883FM-15+0914SBQV V0200401N004110900019N0112651N1+02101+01601999999ADDGA1041+004801999GA2071+090001999GF107991999999999999999999MA1102101999999REMMET058METAR SBQV 051100Z 04008KT 9999 SCT016 BKN300 21/16 Q1021;
0143833440999992008100512004-14950-040883FM-15+0914SBQV V0200401N005112200019N0112651N1+02301+01601999999ADDGA1041+006001999GA2041+090001999GF104991999999999999999999MA1102101999999REMMET058METAR SBQV 051200Z 04010KT 9999 SCT020 SCT300 23/16 Q1021;
0143833440999992008100513004-14950-040883FM-15+0914SBQV V0200701N005112200019N0112651N1+02501+01501999999ADDGA1021+007501999GA2041+090001999GF104991999999999999999999MA1102101999999REMMET058METAR SBQV 051300Z 07010KT 9999 FEW025 SCT300 25/15 Q1021;
0143833440999992008100514004-14950-040883FM-15+0914SBQV V0200301N004612200019N0112651N1+02601+01501999999ADDGA1021+007501999GA2041+090001999GF104991999999999999999999MA1102101999999REMMET058METAR SBQV 051400Z 03009KT 9999 FEW025 SCT300 26/15 Q1021;
0072833440999992008100515004-14950-040883FM-15+0914SBQV V0200501N00511220001CN0099001N1+02801+01401999999ADDMA1102001999999REMMET045METAR SBQV 051500Z 05010KT CAVOK 28/14 Q1020;
0072833440999992008100516004-14950-040883FM-15+0914SBQV V0200201N00411220001CN0099001N1+02801+01401999999ADDMA1101901999999REMMET045METAR SBQV 051600Z 02008KT CAVOK 28/14 Q1019;
0072833440999992008100517004-14950-040883FM-15+0914SBQV V0200501N00411220001CN0099001N1+03001+01301999999ADDMA1101801999999REMMET045METAR SBQV 051700Z 05008KT CAVOK 30/13 Q1018;
0072833440999992008100518004-14950-040883FM-15+0914SBQV V0200601N00361220001CN0099001N1+03001+01401999999ADDMA1101691999999REMMET045METAR SBQV 051800Z 06007KT CAVOK 30/14 Q1017;
0072833440999992008100519004-14950-040883FM-15+0914SBQV V0200501N00311220001CN0099001N1+03001+01301999999ADDMA1101691999999REMMET045METAR SBQV 051900Z 05006KT CAVOK 30/13 Q1017;
0072833440999992008100520004-14950-040883FM-15+0914SBQV V0200501N00411220001CN0099001N1+02901+01301999999ADDMA1101691999999REMMET045METAR SBQV 052000Z 05008KT CAVOK 29/13 Q1017;
0072833440999992008100521004-14950-040883FM-15+0914SBQV V0200701N00411220001CN0099001N1+02701+01401999999ADDMA1101801999999REMMET045METAR SBQV 052100Z 07008KT CAVOK 27/14 Q1018;
0072833440999992008100522004-14950-040883FM-15+0914SBQV V0200701N00361220001CN0099001N1+02501+01601999999ADDMA1101801999999REMMET045METAR SBQV 052200Z 07007KT CAVOK 25/16 Q1018;
0084833440999992008100610154-14950-040883FM-16+0914SBQV V0200301N003612200019N0112651N1+02001+01701999999ADDMA1102101999999REMMET057METAR SBQV 061015Z SPECI 03007KT 9999 FEW013 20/17 Q1021;
0120833440999992008100611004-14950-040883FM-15+0914SBQV V0200101N004112200019N0112651N1+02001+01801999999ADDGA1021+003901999GF102991999999999999999999MA1102101999999REMMET051METAR SBQV 061100Z 01008KT 9999 FEW013 20/18 Q1021;
0120833440999992008100612004-14950-040883FM-15+0914SBQV V0209999C000012200019N0112651N1+02301+01701999999ADDGA1021+005401999GF102991999999999999999999MA1102201999999REMMET051METAR SBQV 061200Z 00000KT 9999 FEW018 23/17 Q1022;
0072833440999992008100613004-14950-040883FM-15+0914SBQV V0200701N00151220001CN0099001N1+02601+01601999999ADDMA1102201999999REMMET045METAR SBQV 061300Z 07003KT CAVOK 26/16 Q1022;
0072833440999992008100614004-14950-040883FM-15+0914SBQV V0200301N00211220001CN0099001N1+02901+01401999999ADDMA1102101999999REMMET045METAR SBQV 061400Z 03004KT CAVOK 29/14 Q1021;
0072833440999992008100615004-14950-040883FM-15+0914SBQV V0200101N00261220001CN0099001N1+03101+01201999999ADDMA1102001999999REMMET045METAR SBQV 061500Z 01005KT CAVOK 31/12 Q1020;
0120833440999992008100616004-14950-040883FM-15+0914SBQV V0200801N004112200019N0112651N1+03201+01001999999ADDGA1021+007501999GF102991999999999999999999MA1101901999999REMMET051METAR SBQV 061600Z 08008KT 9999 FEW025 32/10 Q1019;
0120833440999992008100617004-14950-040883FM-15+0914SBQV V0201301N004612200019N0112651N1+03201+01401999999ADDGA1021+007501999GF102991999999999999999999MA1101801999999REMMET051METAR SBQV 061700Z 13009KT 9999 FEW025 32/14 Q1018;
0120833440999992008100618004-14950-040883FM-15+0914SBQV V0201001N007212200019N0112651N1+03201+01101999999ADDGA1021+010501999GF102991999999999999999999MA1101801999999REMMET051METAR SBQV 061800Z 10014KT 9999 FEW035 32/11 Q1018;
0072833440999992008100619004-14950-040883FM-15+0914SBQV V0201101N00721220001CN0099001N1+03001+01201999999ADDMA1101801999999REMMET045METAR SBQV 061900Z 11014KT CAVOK 30/12 Q1018;
0072833440999992008100620004-14950-040883FM-15+0914SBQV V0201001N00621220001CN0099001N1+02801+01401999999ADDMA1101901999999REMMET045METAR SBQV 062000Z 10012KT CAVOK 28/14 Q1019;
0072833440999992008100621004-14950-040883FM-15+0914SBQV V0200901N00511220001CN0099001N1+02601+01501999999ADDMA1101901999999REMMET045METAR SBQV 062100Z 09010KT CAVOK 26/15 Q1019;
0072833440999992008100622004-14950-040883FM-15+0914SBQV V0201101N00361220001CN0099001N1+02501+01501999999ADDMA1102001999999REMMET045METAR SBQV 062200Z 11007KT CAVOK 25/15 Q1020;
0072833440999992008100623004-14950-040883FM-15+0914SBQV V0200901N00411220001CN0099001N1+02301+01801999999ADDMA1102101999999REMMET045METAR SBQV 062300Z 09008KT CAVOK 23/18 Q1021;
0120833440999992008100700004-14950-040883FM-15+0914SBQV V0201001N005112200019N0112651N1+02101+01901999999ADDGA1021+004501999GF102991999999999999999999MA1102101999999REMMET051METAR SBQV 070000Z 10010KT 9999 FEW015 21/19 Q1021;
0091833440999992008100710154-14950-040883FM-16+0914SBQV V0201201N006212200019N0112651N1+01901+01601999999ADDMA1102401999999REMMET064METAR SBQV 071015Z SPECI 12012KT 9999 FEW009 SCT015 19/16 Q1024;
0120833440999992008100711004-14950-040883FM-15+0914SBQV V0201101N006712200019N0112651N1+02201+01401999999ADDGA1041+004501999GF104991999999999999999999MA1102511999999REMMET051METAR SBQV 071100Z 11013KT 9999 SCT015 22/14 Q1025;
0120833440999992008100712004-14950-040883FM-15+0914SBQV V0201201N007212200019N0112651N1+02201+01501999999ADDGA1041+004801999GF104991999999999999999999MA1102511999999REMMET051METAR SBQV 071200Z 12014KT 9999 SCT016 22/15 Q1025;
0120833440999992008100713004-14950-040883FM-15+0914SBQV V0200901N007212200019N0112651N1+02501+01301999999ADDGA1041+006001999GF104991999999999999999999MA1102511999999REMMET051METAR SBQV 071300Z 09014KT 9999 SCT020 25/13 Q1025;
0154833440999992008100714004-14950-040883FM-15+0914SBQV V0201101N005112200019N0112651N1+02501+01301999999ADDGA1041+007501999GA2041+090001999GF104991999999999999999999MA1102401999999OC101081REMMET061METAR SBQV 071400Z 11010G21KT 9999 SCT025 SCT300 25/13 Q1024;
0136833440999992008100715004-14950-040883FM-15+0914SBQV V0201201N00571220001CN0112651N1+02601+01401999999ADDGA1071+007501999GA2041+090001999MA1102301999999REMMET058METAR SBQV 071500Z 12011KT 9999 BKN025 SCT300 26/14 Q1023;EQDQ01+000042SCOTCV
0143833440999992008100716004-14950-040883FM-15+0914SBQV V0201301N006712200019N0112651N1+02701+01301999999ADDGA1041+009001999GA2041+090001999GF104991999999999999999999MA1102201999999REMMET058METAR SBQV 071600Z 13013KT 9999 SCT030 SCT300 27/13 Q1022;
0143833440999992008100717004-14950-040883FM-15+0914SBQV V0201101N006212200019N0112651N1+02801+01301999999ADDGA1041+009001999GA2041+090001999GF104991999999999999999999MA1102201999999REMMET058METAR SBQV 071700Z 11012KT 9999 SCT030 SCT300 28/13 Q1022;
0154833440999992008100718004-14950-040883FM-15+0914SBQV V0201101N007212200019N0112651N1+02801+01301999999ADDGA1021+009001999GA2041+090001999GF104991999999999999999999MA1102101999999OC102011REMMET061METAR SBQV 071800Z 11014G39KT 9999 FEW030 SCT300 28/13 Q1021;
0120833440999992008100719004-14950-040883FM-15+0914SBQV V0201101N006212200019N0112651N1+02701+01301999999ADDGA1021+009001999GF102991999999999999999999MA1102101999999REMMET051METAR SBQV 071900Z 11012KT 9999 FEW030 27/13 Q1021;
0120833440999992008100720004-14950-040883FM-15+0914SBQV V0201101N006212200019N0112651N1+02601+01401999999ADDGA1021+009001999GF102991999999999999999999MA1102101999999REMMET051METAR SBQV 072000Z 11012KT 9999 FEW030 26/14 Q1021;
0120833440999992008100721004-14950-040883FM-15+0914SBQV V0201201N004612200019N0112651N1+02401+01401999999ADDGA1021+007501999GF102991999999999999999999MA1102201999999REMMET051METAR SBQV 072100Z 12009KT 9999 FEW025 24/14 Q1022;
0072833440999992008100722004-14950-040883FM-15+0914SBQV V0200801N00511220001CN0099001N1+02301+01701999999ADDMA1102201999999REMMET045METAR SBQV 072200Z 08010KT CAVOK 23/17 Q1022;
0120833440999992008100723004-14950-040883FM-15+0914SBQV V0200901N005112200019N0112651N1+02101+01801999999ADDGA1021+005401999GF102991999999999999999999MA1102301999999REMMET051METAR SBQV 072300Z 09010KT 9999 FEW018 21/18 Q1023;
0084833440999992008100810154-14950-040883FM-16+0914SBQV V0201201N006712200019N0112651N1+01901+01701999999ADDMA1102301999999REMMET057METAR SBQV 081015Z SPECI 12013KT 9999 SCT015 19/17 Q1023;
0120833440999992008100811004-14950-040883FM-15+0914SBQV V0201401N007212200019N0112651N1+02001+01501999999ADDGA1041+004501999GF104991999999999999999999MA1102301999999REMMET051METAR SBQV 081100Z 14014KT 9999 SCT015 20/15 Q1023;
0120833440999992008100812004-14950-040883FM-15+0914SBQV V0201301N008212200019N0112651N1+02201+01501999999ADDGA1041+005401999GF104991999999999999999999MA1102301999999REMMET051METAR SBQV 081200Z 13016KT 9999 SCT018 22/15 Q1023;
0120833440999992008100813004-14950-040883FM-15+0914SBQV V0201401N006712200019N0112651N1+02301+01501999999ADDGA1041+005401999GF104991999999999999999999MA1102301999999REMMET051METAR SBQV 081300Z 14013KT 9999 SCT018 23/15 Q1023;
0120833440999992008100814004-14950-040883FM-15+0914SBQV V0201301N007712200019N0112651N1+02501+01501999999ADDGA1041+006001999GF104991999999999999999999MA1102301999999REMMET051METAR SBQV 081400Z 13015KT 9999 SCT020 25/15 Q1023;
0120833440999992008100815004-14950-040883FM-15+0914SBQV V0201201N007212200019N0112651N1+02501+01501999999ADDGA1021+006001999GF102991999999999999999999MA1102201999999REMMET051METAR SBQV 081500Z 12014KT 9999 FEW020 25/15 Q1022;
0120833440999992008100816004-14950-040883FM-15+0914SBQV V0201401N005712200019N0112651N1+02501+01501999999ADDGA1041+006001999GF104991999999999999999999MA1102101999999REMMET051METAR SBQV 081600Z 14011KT 9999 SCT020 25/15 Q1021;
0120833440999992008100817004-14950-040883FM-15+0914SBQV V0201501N006710060019N0112651N1+02501+01501999999ADDGA1071+006001999GF107991999999999999999999MA1102001999999REMMET051METAR SBQV 081700Z 15013KT 9999 BKN020 25/15 Q1020;
0120833440999992008100818004-14950-040883FM-15+0914SBQV V0201201N005710060019N0112651N1+02501+01401999999ADDGA1071+006001999GF107991999999999999999999MA1102001999999REMMET051METAR SBQV 081800Z 12011KT 9999 BKN020 25/14 Q1020;
0120833440999992008100819004-14950-040883FM-15+0914SBQV V0201201N007710060019N0112651N1+02501+01401999999ADDGA1071+006001999GF107991999999999999999999MA1102001999999REMMET051METAR SBQV 081900Z 12015KT 9999 BKN020 25/14 Q1020;
0120833440999992008100820004-14950-040883FM-15+0914SBQV V0201301N007710060019N0112651N1+02301+01401999999ADDGA1071+006001999GF107991999999999999999999MA1102001999999REMMET051METAR SBQV 082000Z 13015KT 9999 BKN020 23/14 Q1020;
0120833440999992008100821004-14950-040883FM-15+0914SBQV V0201301N006710045019N0112651N1+02101+01601999999ADDGA1071+004501999GF107991999999999999999999MA1102101999999REMMET051METAR SBQV 082100Z 13013KT 9999 BKN015 21/16 Q1021;
0120833440999992008100822004-14950-040883FM-15+0914SBQV V0201101N005712200019N0112651N1+02001+01701999999ADDGA1021+002701999GF102991999999999999999999MA1102201999999REMMET051METAR SBQV 082200Z 11011KT 9999 FEW009 20/17 Q1022;
0120833440999992008100823004-14950-040883FM-15+0914SBQV V0201101N005112200019N0112651N1+01901+01601999999ADDGA1021+004501999GF102991999999999999999999MA1102201999999REMMET051METAR SBQV 082300Z 11010KT 9999 FEW015 19/16 Q1022;
0084833440999992008100910154-14950-040883FM-16+0914SBQV V0201501N006212200019N0112651N1+01901+01601999999ADDMA1102301999999REMMET057METAR SBQV 091015Z SPECI 15012KT 9999 BKN015 19/16 Q1023;
0120833440999992008100911004-14950-040883FM-15+0914SBQV V0201501N007212200019N0112651N1+02001+01601999999ADDGA1041+004501999GF104991999999999999999999MA1102401999999REMMET051METAR SBQV 091100Z 15014KT 9999 SCT015 20/16 Q1024;
0130833440999992008100912004-14950-040883FM-15+0914SBQV V0201401N006710045019N0080001N1+01901+01601999999ADDGA1071+004501999GF107991999999999999999999MA1102401999999MW1511REMMET055METAR SBQV 091200Z 14013KT 8000 -DZ BKN015 19/16 Q1024;
0120833440999992008100913004-14950-040883FM-15+0914SBQV V0201501N006710048019N0112651N1+02201+01601999999ADDGA1071+004801999GF107991999999999999999999MA1102401999999REMMET051METAR SBQV 091300Z 15013KT 9999 BKN016 22/16 Q1024;
0153833440999992008100914004-14950-040883FM-15+0914SBQV V0201501N007210045019N0080001N1+02201+01701999999ADDGA1021+003601999GA2071+004501999GF107991999999999999999999MA1102401999999MW1511REMMET062METAR SBQV 091400Z 15014KT 8000 -DZ FEW012 BKN015 22/17 Q1024;
0120833440999992008100915004-14950-040883FM-15+0914SBQV V0201501N007210048019N0112651N1+02401+01601999999ADDGA1071+004801999GF107991999999999999999999MA1102201999999REMMET051METAR SBQV 091500Z 15014KT 9999 BKN016 24/16 Q1022;
0120833440999992008100916004-14950-040883FM-15+0914SBQV V0201201N006710060019N0112651N1+02501+01501999999ADDGA1071+006001999GF107991999999999999999999MA1102101999999REMMET051METAR SBQV 091600Z 12013KT 9999 BKN020 25/15 Q1021;
0120833440999992008100917004-14950-040883FM-15+0914SBQV V0201301N006210060019N0112651N1+02501+01401999999ADDGA1071+006001999GF107991999999999999999999MA1102001999999REMMET051METAR SBQV 091700Z 13012KT 9999 BKN020 25/14 Q1020;
0154833440999992008100918004-14950-040883FM-15+0914SBQV V0201301N005712200019N0112651N1+02601+01501999999ADDGA1041+007501999GA2041+024001999GF104991999999999999999999MA1101901999999OC101441REMMET061METAR SBQV 091800Z 13011G28KT 9999 SCT025 SCT080 26/15 Q1019;
0143833440999992008100919004-14950-040883FM-15+0914SBQV V0201301N006712200019N0112651N1+02601+01401999999ADDGA1041+007501999GA2041+024001999GF104991999999999999999999MA1101901999999REMMET058METAR SBQV 091900Z 13013KT 9999 SCT025 SCT080 26/14 Q1019;
0143833440999992008100920004-14950-040883FM-15+0914SBQV V0201301N006712200019N0112651N1+02501+01501999999ADDGA1021+006001999GA2041+021001999GF104991999999999999999999MA1102001999999REMMET058METAR SBQV 092000Z 13013KT 9999 FEW020 SCT070 25/15 Q1020;
0143833440999992008100921004-14950-040883FM-15+0914SBQV V0201201N007712200019N0112651N1+02301+01601999999ADDGA1021+005401999GA2041+021001999GF104991999999999999999999MA1102001999999REMMET058METAR SBQV 092100Z 12015KT 9999 FEW018 SCT070 23/16 Q1020;
0072833440999992008100922004-14950-040883FM-15+0914SBQV V0201201N00621220001CN0099001N1+02101+01601999999ADDMA1102101999999REMMET045METAR SBQV 092200Z 12012KT CAVOK 21/16 Q1021;
0072833440999992008100923004-14950-040883FM-15+0914SBQV V0201201N00461220001CN0099001N1+02101+01601999999ADDMA1102201999999REMMET045METAR SBQV 092300Z 12009KT CAVOK 21/16 Q1022;
0139833440999992008101011004-14950-040883FM-15+0914SBQV V0201401N003610015019N0030001N1+01701+01701999999ADDGA1081+001501999GF108991999999999999999999MA1102301999999MW1101MW2511REMMET058METAR SBQV 101100Z 14007KT 3000 -DZ BR OVC005 17/17 Q1023;
0143833440999992008101012004-14950-040883FM-15+0914SBQV V0201301N006710018019N0070001N1+01801+01701999999ADDGA1071+001801999GA2071+003001999GF107991999999999999999999MA1102401999999REMMET058METAR SBQV 101200Z 13013KT 7000 BKN006 BKN010 18/17 Q1024;
0152833440999992008101013004-14950-040883FM-15+0914SBQV V0201301N006210018019N0050001N1+01901+01701999999ADDGA1071+001801999GA2071+003001999GF107991999999999999999999MA1102301999999MW1101REMMET061METAR SBQV 101300Z 13012KT 5000 BR BKN006 BKN010 19/17 Q1023;
0153833440999992008101014004-14950-040883FM-15+0914SBQV V0201401N005710018019N0030001N1+01801+01701999999ADDGA1071+001801999GA2071+003001999GF107991999999999999999999MA1102301999999MW1511REMMET062METAR SBQV 101400Z 14011KT 3000 -DZ BKN006 BKN010 18/17 Q1023;
0143833440999992008101015004-14950-040883FM-15+0914SBQV V0201301N005110033019N0112651N1+02001+01701999999ADDGA1041+002401999GA2071+003301999GF107991999999999999999999MA1102201999999REMMET058METAR SBQV 101500Z 13010KT 9999 SCT008 BKN011 20/17 Q1022;
0183833440999992008101016004-14950-040883FM-15+0914SBQV V0201201N006210039019N0112651N1+02101+01701999999ADDGA1021+002401999GA2071+003901999GA3071+004501999GF107991999999999999999999MA1102101999999MW1511REMMET076METAR SBQV 101600Z 12012KT 9999 4000SW -DZ FEW008 BKN013 BKN015 21/17 Q1021;
0136833440999992008101017004-14950-040883FM-15+0914SBQV V0201401N00721220001CN0112651N1+02001+01701999999ADDGA1071+004501999GA2041+004801999MA1102001999999REMMET058METAR SBQV 101700Z 14014KT 9999 BKN015 SCT016 20/17 Q1020;EQDQ01+000042SCOTCV
0136833440999992008101018004-14950-040883FM-15+0914SBQV V0201301N00671220001CN0112651N1+01901+01901999999ADDGA1071+003001999GA2041+004501999MA1102001999999REMMET058METAR SBQV 101800Z 13013KT 9999 BKN010 SCT015 19/19 Q1020;EQDQ01+000042SCOTCV
0143833440999992008101019004-14950-040883FM-15+0914SBQV V0201301N006210021019N0112651N1+01901+01801999999ADDGA1041+001801999GA2071+002101999GF107991999999999999999999MA1102001999999REMMET058METAR SBQV 101900Z 13012KT 9999 SCT006 BKN007 19/18 Q1020;
0143833440999992008101020004-14950-040883FM-15+0914SBQV V0201301N005710018019N0112651N1+01901+01801999999ADDGA1041+001501999GA2071+001801999GF107991999999999999999999MA1102001999999REMMET058METAR SBQV 102000Z 13011KT 9999 SCT005 BKN006 19/18 Q1020;
0168833440999992008101021004-14950-040883FM-15+0914SBQV V0201401N005710015019N0020001N1+01801+01801999999ADDGA1071+001501999GA2081+001801999GF108991999999999999999999MA1102101999999MW1101MW2531REMMET071METAR SBQV 102100Z 14011KT 2000 1000SE DZ BR BKN005 OVC006 18/18 Q1021;
0144833440999992008101022004-14950-040883FM-15+0914SBQV V0201001N007210015019N0040001N1+01801+01801999999ADDGA1081+001501999GF108991999999999999999999MA1102101999999MW1101MW2511REMMET063METAR SBQV 102200Z 10014KT 4000 -DZ BR OVC005 18/18 Q1021 REDZ;
0139833440999992008101023004-14950-040883FM-15+0914SBQV V0201301N006210015019N0040001N1+01701+01701999999ADDGA1081+001501999GF108991999999999999999999MA1102101999999MW1101MW2511REMMET058METAR SBQV 102300Z 13012KT 4000 -DZ BR OVC005 17/17 Q1021;
0095833440999992008101110154-14950-040883FM-16+0914SBQV V0201201N006212200019N9999999N1+01701+01701999999ADDMA1102101999999REMMET068METAR SBQV 111015Z SPECI 12012KT 2000 -DZ BKN005 OVC007 17/17 Q1021;
0153833440999992008101111004-14950-040883FM-15+0914SBQV V0201301N007210015019N0020001N1+01701+01701999999ADDGA1071+001501999GA2081+002101999GF108991999999999999999999MA1102201999999MW1511REMMET062METAR SBQV 111100Z 13014KT 2000 -DZ BKN005 OVC007 17/17 Q1022;
0160833440999992008101112004-14950-040883FM-15+0914SBQV V0201201N006710018019N0112651N1+01801+01801999999ADDGA1071+001801999GA2081+002401999GF108991999999999999999999MA1102301999999MW1511REMMET069METAR SBQV 111200Z 12013KT 9999 6000SE -DZ BKN006 OVC008 18/18 Q1023;
0143833440999992008101114004-14950-040883FM-15+0914SBQV V0201301N006210027019N0112651N1+01901+01801999999ADDGA1071+002701999GA2071+021001999GF107991999999999999999999MA1102301999999REMMET058METAR SBQV 111400Z 13012KT 9999 BKN009 BKN070 19/18 Q1023;
0166833440999992008101116004-14950-040883FM-15+0914SBQV V0201401N006710030019N0112651N1+02001+01801999999ADDGA1021+001801999GA2071+003001999GA3071+021001999GF107991999999999999999999MA1102101999999REMMET065METAR SBQV 111600Z 14013KT 9999 FEW006 BKN010 BKN070 20/18 Q1021;
0166833440999992008101117004-14950-040883FM-15+0914SBQV V0201701N007210030019N0112651N1+02001+01801999999ADDGA1021+001801999GA2071+003001999GA3071+021001999GF107991999999999999999999MA1102001999999REMMET065METAR SBQV 111700Z 17014KT 9999 FEW006 BKN010 BKN070 20/18 Q1020;
0166833440999992008101118004-14950-040883FM-15+0914SBQV V0201501N005710030019N0112651N1+02001+01901999999ADDGA1021+001801999GA2071+003001999GA3071+021001999GF107991999999999999999999MA1102001999999REMMET065METAR SBQV 111800Z 15011KT 9999 FEW006 BKN010 BKN070 20/19 Q1020;
0176833440999992008101119004-14950-040883FM-15+0914SBQV V0201401N005710030019N0060001N1+01901+01901999999ADDGA1021+001801999GA2071+003001999GA3071+021001999GF107991999999999999999999MA1102001999999MW1511REMMET069METAR SBQV 111900Z 14011KT 6000 -DZ FEW006 BKN010 BKN070 19/19 Q1020;
0176833440999992008101120004-14950-040883FM-15+0914SBQV V0201401N005110018019N0080001N1+01901+01901999999ADDGA1071+001801999GA2071+002401999GA3071+021001999GF107991999999999999999999MA1102001999999MW1511REMMET069METAR SBQV 112000Z 14010KT 8000 -DZ BKN006 BKN008 BKN070 19/19 Q1020;
0143833440999992008101121004-14950-040883FM-15+0914SBQV V0201301N004610021019N0112651N1+01901+01801999999ADDGA1021+001501999GA2071+002101999GF107991999999999999999999MA1102101999999REMMET058METAR SBQV 112100Z 13009KT 9999 FEW005 BKN007 19/18 Q1021;
0143833440999992008101122004-14950-040883FM-15+0914SBQV V0201301N003110021019N0112651N1+01801+01801999999ADDGA1041+001501999GA2071+002101999GF107991999999999999999999MA1102101999999REMMET058METAR SBQV 112200Z 13006KT 9999 SCT005 BKN007 18/18 Q1021;
0091833440999992008101210154-14950-040883FM-16+0914SBQV V0201201N004112200019N9999999N1+01801+01801999999ADDMA1102201999999REMMET064METAR SBQV 121015Z SPECI 12008KT 2000 -DZ BR OVC004 18/18 Q1022;
0120833440999992008101211004-14950-040883FM-15+0914SBQV V0201001N004610018019N0112651N1+01801+01801999999ADDGA1081+001801999GF108991999999999999999999MA1102301999999REMMET051METAR SBQV 121100Z 10009KT 9999 OVC006 18/18 Q1023;
0120833440999992008101212004-14950-040883FM-15+0914SBQV V0200801N005710039019N0112651N1+02101+01801999999ADDGA1071+003901999GF107991999999999999999999MA1102301999999REMMET051METAR SBQV 121200Z 08011KT 9999 BKN013 21/18 Q1023;
0143833440999992008101213004-14950-040883FM-15+0914SBQV V0200801N005710048019N0112651N1+02201+01801999999ADDGA1041+004501999GA2071+004801999GF107991999999999999999999MA1102301999999REMMET058METAR SBQV 121300Z 08011KT 9999 SCT015 BKN016 22/18 Q1023;
0120833440999992008101214004-14950-040883FM-15+0914SBQV V0200901N005110060019N0112651N1+02301+01701999999ADDGA1071+006001999GF107991999999999999999999MA1102301999999REMMET051METAR SBQV 121400Z 09010KT 9999 BKN020 23/17 Q1023;
0120833440999992008101215004-14950-040883FM-15+0914SBQV V0200901N006210060019N0112651N1+02501+01701999999ADDGA1071+006001999GF107991999999999999999999MA1102201999999REMMET051METAR SBQV 121500Z 09012KT 9999 BKN020 25/17 Q1022;
0120833440999992008101216004-14950-040883FM-15+0914SBQV V0201101N006212200019N0112651N1+02501+01601999999ADDGA1041+006001999GF104991999999999999999999MA1102101999999REMMET051METAR SBQV 121600Z 11012KT 9999 SCT020 25/16 Q1021;
0120833440999992008101217004-14950-040883FM-15+0914SBQV V0200901N005712200019N0112651N1+02601+01501999999ADDGA1041+006001999GF104991999999999999999999MA1102001999999REMMET051METAR SBQV 121700Z 09011KT 9999 SCT020 26/15 Q1020;
0120833440999992008101218004-14950-040883FM-15+0914SBQV V0201001N005712200019N0112651N1+02601+01501999999ADDGA1041+007501999GF104991999999999999999999MA1102001999999REMMET051METAR SBQV 121800Z 10011KT 9999 SCT025 26/15 Q1020;
0120833440999992008101219004-14950-040883FM-15+0914SBQV V0201101N006212200019N0112651N1+02501+01401999999ADDGA1021+007501999GF102991999999999999999999MA1102001999999REMMET051METAR SBQV 121900Z 11012KT 9999 FEW025 25/14 Q1020;
0143833440999992008101220004-14950-040883FM-15+0914SBQV V0201001N006212200019N0112651N1+02401+01501999999ADDGA1021+006001999GA2041+090001999GF104991999999999999999999MA1102001999999REMMET058METAR SBQV 122000Z 10012KT 9999 FEW020 SCT300 24/15 Q1020;
0143833440999992008101221004-14950-040883FM-15+0914SBQV V0201001N003612200019N0112651N1+02201+01501999999ADDGA1021+005401999GA2041+090001999GF104991999999999999999999MA1102101999999REMMET058METAR SBQV 122100Z 10007KT 9999 FEW018 SCT300 22/15 Q1021;
0072833440999992008101222004-14950-040883FM-15+0914SBQV V0201001N00411220001CN0099001N1+02101+01601999999ADDMA1102101999999REMMET045METAR SBQV 122200Z 10008KT CAVOK 21/16 Q1021;
0120833440999992008101311004-14950-040883FM-15+0914SBQV V0201101N004110054019N0112651N1+02001+01701999999ADDGA1071+005401999GF107991999999999999999999MA1102401999999REMMET051METAR SBQV 131100Z 11008KT 9999 BKN018 20/17 Q1024;
0120833440999992008101312004-14950-040883FM-15+0914SBQV V0201001N004612200019N0112651N1+02201+01501999999ADDGA1041+005401999GF104991999999999999999999MA1102401999999REMMET051METAR SBQV 131200Z 10009KT 9999 SCT018 22/15 Q1024;
0120833440999992008101313004-14950-040883FM-15+0914SBQV V0201201N005712200019N0112651N1+02301+01501999999ADDGA1041+006001999GF104991999999999999999999MA1102401999999REMMET051METAR SBQV 131300Z 12011KT 9999 SCT020 23/15 Q1024;
0120833440999992008101314004-14950-040883FM-15+0914SBQV V0201001N006212200019N0112651N1+02401+01401999999ADDGA1021+006001999GF102991999999999999999999MA1102401999999REMMET051METAR SBQV 131400Z 10012KT 9999 FEW020 24/14 Q1024;
0120833440999992008101315004-14950-040883FM-15+0914SBQV V0201001N005112200019N0112651N1+02501+01501999999ADDGA1021+007501999GF102991999999999999999999MA1102201999999REMMET051METAR SBQV 131500Z 10010KT 9999 FEW025 25/15 Q1022;
0120833440999992008101316004-14950-040883FM-15+0914SBQV V0201101N006212200019N0112651N1+02601+01401999999ADDGA1021+009001999GF102991999999999999999999MA1102101999999REMMET051METAR SBQV 131600Z 11012KT 9999 FEW030 26/14 Q1021;
0120833440999992008101317004-14950-040883FM-15+0914SBQV V0201101N005712200019N0112651N1+02601+01401999999ADDGA1021+009001999GF102991999999999999999999MA1102001999999REMMET051METAR SBQV 131700Z 11011KT 9999 FEW030 26/14 Q1020;
0120833440999992008101318004-14950-040883FM-15+0914SBQV V0201501N006712200019N0112651N1+02601+01501999999ADDGA1021+009001999GF102991999999999999999999MA1102001999999REMMET051METAR SBQV 131800Z 15013KT 9999 FEW030 26/15 Q1020;
0120833440999992008101319004-14950-040883FM-15+0914SBQV V0201301N005712200019N0112651N1+02601+01401999999ADDGA1021+009001999GF102991999999999999999999MA1101901999999REMMET051METAR SBQV 131900Z 13011KT 9999 FEW030 26/14 Q1019;
0120833440999992008101320004-14950-040883FM-15+0914SBQV V0201201N006212200019N0112651N1+02501+01401999999ADDGA1021+007501999GF102991999999999999999999MA1101901999999REMMET051METAR SBQV 132000Z 12012KT 9999 FEW025 25/14 Q1019;
0072833440999992008101321004-14950-040883FM-15+0914SBQV V0201301N00411220001CN0099001N1+02301+01501999999ADDMA1102001999999REMMET045METAR SBQV 132100Z 13008KT CAVOK 23/15 Q1020;
0072833440999992008101322004-14950-040883FM-15+0914SBQV V0201301N00311220001CN0099001N1+02201+01501999999ADDMA1102001999999REMMET045METAR SBQV 132200Z 13006KT CAVOK 22/15 Q1020;
0072833440999992008101323004-14950-040883FM-15+0914SBQV V0201301N00361220001CN0099001N1+02101+01501999999ADDMA1102101999999REMMET045METAR SBQV 132300Z 13007KT CAVOK 21/15 Q1021;
0120833440999992008101411004-14950-040883FM-15+0914SBQV V0201101N005112200019N0112651N1+02001+01601999999ADDGA1041+003901999GF104991999999999999999999MA1102201999999REMMET051METAR SBQV 141100Z 11010KT 9999 SCT013 20/16 Q1022;
0120833440999992008101412004-14950-040883FM-15+0914SBQV V0201301N006212200019N0112651N1+02201+01501999999ADDGA1041+004801999GF104991999999999999999999MA1102201999999REMMET051METAR SBQV 141200Z 13012KT 9999 SCT016 22/15 Q1022;
0120833440999992008101413004-14950-040883FM-15+0914SBQV V0201201N006212200019N0112651N1+02401+01401999999ADDGA1041+005401999GF104991999999999999999999MA1102201999999REMMET051METAR SBQV 141300Z 12012KT 9999 SCT018 24/14 Q1022;
0120833440999992008101414004-14950-040883FM-15+0914SBQV V0201401N006712200019N0112651N1+02501+01501999999ADDGA1041+006001999GF104991999999999999999999MA1102201999999REMMET051METAR SBQV 141400Z 14013KT 9999 SCT020 25/15 Q1022;
0120833440999992008101415004-14950-040883FM-15+0914SBQV V0201101N005712200019N0112651N1+02601+01401999999ADDGA1021+007501999GF102991999999999999999999MA1102101999999REMMET051METAR SBQV 141500Z 11011KT 9999 FEW025 26/14 Q1021;
0120833440999992008101416004-14950-040883FM-15+0914SBQV V0201001N005112200019N0112651N1+02601+01401999999ADDGA1021+009001999GF102991999999999999999999MA1101901999999REMMET051METAR SBQV 141600Z 10010KT 9999 FEW030 26/14 Q1019;
0120833440999992008101417004-14950-040883FM-15+0914SBQV V0201301N004612200019N0112651N1+02701+01401999999ADDGA1021+010501999GF102991999999999999999999MA1101801999999REMMET051METAR SBQV 141700Z 13009KT 9999 FEW035 27/14 Q1018;
0120833440999992008101418004-14950-040883FM-15+0914SBQV V0201001N006212200019N0112651N1+02701+01401999999ADDGA1021+010501999GF102991999999999999999999MA1101801999999REMMET051METAR SBQV 141800Z 10012KT 9999 FEW035 27/14 Q1018;
0120833440999992008101419004-14950-040883FM-15+0914SBQV V0201101N005112200019N0112651N1+02601+01401999999ADDGA1021+010501999GF102991999999999999999999MA1101801999999REMMET051METAR SBQV 141900Z 11010KT 9999 FEW035 26/14 Q1018;
0072833440999992008101420004-14950-040883FM-15+0914SBQV V0201001N00461220001CN0099001N1+02501+01401999999ADDMA1101801999999REMMET045METAR SBQV 142000Z 10009KT CAVOK 25/14 Q1018;
0072833440999992008101421004-14950-040883FM-15+0914SBQV V0201001N00461220001CN0099001N1+02401+01401999999ADDMA1101901999999REMMET045METAR SBQV 142100Z 10009KT CAVOK 24/14 Q1019;
0072833440999992008101422004-14950-040883FM-15+0914SBQV V0201001N00261220001CN0099001N1+02301+01401999999ADDMA1101901999999REMMET045METAR SBQV 142200Z 10005KT CAVOK 23/14 Q1019;
0072833440999992008101423004-14950-040883FM-15+0914SBQV V0201101N00311220001CN0099001N1+02101+01501999999ADDMA1102001999999REMMET045METAR SBQV 142300Z 11006KT CAVOK 21/15 Q1020;
0120833440999992008101511004-14950-040883FM-15+0914SBQV V0200901N004612200019N0112651N1+02101+01401999999ADDGA1021+004801999GF102991999999999999999999MA1102201999999REMMET051METAR SBQV 151100Z 09009KT 9999 FEW016 21/14 Q1022;
0120833440999992008101512004-14950-040883FM-15+0914SBQV V0200901N004612200019N0112651N1+02301+01401999999ADDGA1021+005401999GF102991999999999999999999MA1102301999999REMMET051METAR SBQV 151200Z 09009KT 9999 FEW018 23/14 Q1023;
0120833440999992008101513004-14950-040883FM-15+0914SBQV V0200701N004112200019N0112651N1+02501+01201999999ADDGA1021+006001999GF102991999999999999999999MA1102201999999REMMET051METAR SBQV 151300Z 07008KT 9999 FEW020 25/12 Q1022;
0120833440999992008101514004-14950-040883FM-15+0914SBQV V0200701N002612200019N0112651N1+02601+01301999999ADDGA1021+007501999GF102991999999999999999999MA1102201999999REMMET051METAR SBQV 151400Z 07005KT 9999 FEW025 26/13 Q1022;
0120833440999992008101515004-14950-040883FM-15+0914SBQV V0200501N003612200019N0112651N1+02701+01201999999ADDGA1021+007501999GF102991999999999999999999MA1102101999999REMMET051METAR SBQV 151500Z 05007KT 9999 FEW025 27/12 Q1021;
0120833440999992008101516004-14950-040883FM-15+0914SBQV V0200801N004112200019N0112651N1+02901+01301999999ADDGA1021+009001999GF102991999999999999999999MA1102001999999REMMET051METAR SBQV 151600Z 08008KT 9999 FEW030 29/13 Q1020;
0120833440999992008101517004-14950-040883FM-15+0914SBQV V0200601N004612200019N0112651N1+02901+01401999999ADDGA1021+009001999GF102991999999999999999999MA1101901999999REMMET051METAR SBQV 151700Z 06009KT 9999 FEW030 29/14 Q1019;
0120833440999992008101518004-14950-040883FM-15+0914SBQV V0200901N004612200019N0112651N1+02901+01401999999ADDGA1021+009001999GF102991999999999999999999MA1101801999999REMMET051METAR SBQV 151800Z 09009KT 9999 FEW030 29/14 Q1018;
0120833440999992008101519004-14950-040883FM-15+0914SBQV V0201001N005712200019N0112651N1+02801+01401999999ADDGA1021+009001999GF102991999999999999999999MA1101801999999REMMET051METAR SBQV 151900Z 10011KT 9999 FEW030 28/14 Q1018;
0072833440999992008101520004-14950-040883FM-15+0914SBQV V0200901N00511220001CN0099001N1+02701+01501999999ADDMA1101901999999REMMET045METAR SBQV 152000Z 09010KT CAVOK 27/15 Q1019;
0072833440999992008101521004-14950-040883FM-15+0914SBQV V0201101N00511220001CN0099001N1+02501+01501999999ADDMA1101901999999REMMET045METAR SBQV 152100Z 11010KT CAVOK 25/15 Q1019;
0072833440999992008101522004-14950-040883FM-15+0914SBQV V0200801N00461220001CN0099001N1+02401+01501999999ADDMA1102001999999REMMET045METAR SBQV 152200Z 08009KT CAVOK 24/15 Q1020;
0072833440999992008101523004-14950-040883FM-15+0914SBQV V0200601N00411220001CN0099001N1+02301+01501999999ADDMA1102001999999REMMET045METAR SBQV 152300Z 06008KT CAVOK 23/15 Q1020;
0072833440999992008101604004-14950-040883FM-15+0914SBQV V0200601N00461220001CN0099001N1+01901+01701999999ADDMA1102001999999REMMET045METAR SBQV 160400Z 06009KT CAVOK 19/17 Q1020;
0072833440999992008101611004-14950-040883FM-15+0914SBQV V0200501N00101220001CN0099001N1+02101+01701999999ADDMA1102201999999REMMET045METAR SBQV 161100Z 05002KT CAVOK 21/17 Q1022;
0072833440999992008101612004-14950-040883FM-15+0914SBQV V0200201N00151220001CN0099001N1+02401+01601999999ADDMA1102201999999REMMET045METAR SBQV 161200Z 02003KT CAVOK 24/16 Q1022;
0072833440999992008101613004-14950-040883FM-15+0914SBQV V0200401N00211220001CN0099001N1+02701+01501999999ADDMA1102201999999REMMET045METAR SBQV 161300Z 04004KT CAVOK 27/15 Q1022;
0072833440999992008101614004-14950-040883FM-15+0914SBQV V0200101N00151220001CN0099001N1+02801+01301999999ADDMA1102101999999REMMET045METAR SBQV 161400Z 01003KT CAVOK 28/13 Q1021;
0120833440999992008101615004-14950-040883FM-15+0914SBQV V0202501N001012200019N0112651N1+03001+01301999999ADDGA1021+012001999GF102991999999999999999999MA1102001999999REMMET051METAR SBQV 161500Z 25002KT 9999 FEW040 30/13 Q1020;
0120833440999992008101616004-14950-040883FM-15+0914SBQV V0201001N002612200019N0112651N1+03101+01101999999ADDGA1021+012001999GF102991999999999999999999MA1101901999999REMMET051METAR SBQV 161600Z 10005KT 9999 FEW040 31/11 Q1019;
0143833440999992008101617004-14950-040883FM-15+0914SBQV V0201601N004112200019N0112651N1+03101+01301999999ADDGA1021+012001999GA2041+090001999GF104991999999999999999999MA1101801999999REMMET058METAR SBQV 161700Z 16008KT 9999 FEW040 SCT300 31/13 Q1018;
0143833440999992008101618004-14950-040883FM-15+0914SBQV V0201201N006212200019N0112651N1+03101+01601999999ADDGA1021+012001999GA2041+090001999GF104991999999999999999999MA1101801999999REMMET058METAR SBQV 161800Z 12012KT 9999 FEW040 SCT300 31/16 Q1018;
0120833440999992008101619004-14950-040883FM-15+0914SBQV V0201401N006212200019N0112651N1+03001+01401999999ADDGA1021+012001999GF102991999999999999999999MA1101691999999REMMET051METAR SBQV 161900Z 14012KT 9999 FEW040 30/14 Q1017;
0143833440999992008101620004-14950-040883FM-15+0914SBQV V0201201N006212200019N0112651N1+02901+01401999999ADDGA1021+009001999GA2041+090001999GF104991999999999999999999MA1101801999999REMMET058METAR SBQV 162000Z 12012KT 9999 FEW030 SCT300 29/14 Q1018;
0072833440999992008101621004-14950-040883FM-15+0914SBQV V0200701N00511220001CN0099001N1+02701+01401999999ADDMA1101801999999REMMET045METAR SBQV 162100Z 07010KT CAVOK 27/14 Q1018;
0072833440999992008101622004-14950-040883FM-15+0914SBQV V0200601N00461220001CN0099001N1+02501+01401999999ADDMA1101801999999REMMET045METAR SBQV 162200Z 06009KT CAVOK 25/14 Q1018;
0072833440999992008101623004-14950-040883FM-15+0914SBQV V0200601N00511220001CN0099001N1+02501+01501999999ADDMA1101901999999REMMET045METAR SBQV 162300Z 06010KT CAVOK 25/15 Q1019;
0072833440999992008101711004-14950-040883FM-15+0914SBQV V0203601N00151220001CN0099001N1+02301+01801999999ADDMA1102101999999REMMET045METAR SBQV 171100Z 36003KT CAVOK 23/18 Q1021;
0072833440999992008101712004-14950-040883FM-15+0914SBQV V0200601N00261220001CN0099001N1+02401+01501999999ADDMA1102101999999REMMET045METAR SBQV 171200Z 06005KT CAVOK 24/15 Q1021;
0072833440999992008101713004-14950-040883FM-15+0914SBQV V0201301N00261220001CN0099001N1+02701+01401999999ADDMA1102101999999REMMET045METAR SBQV 171300Z 13005KT CAVOK 27/14 Q1021;
0072833440999992008101714004-14950-040883FM-15+0914SBQV V0201201N00261220001CN0099001N1+03001+01201999999ADDMA1102001999999REMMET045METAR SBQV 171400Z 12005KT CAVOK 30/12 Q1020;
0143833440999992008101715004-14950-040883FM-15+0914SBQV V0201601N002112200019N0112651N1+03101+01201999999ADDGA1021+009001999GA2041+090001999GF104991999999999999999999MA1101901999999REMMET058METAR SBQV 171500Z 16004KT 9999 FEW030 SCT300 31/12 Q1019;
0143833440999992008101716004-14950-040883FM-15+0914SBQV V0201501N005112200019N0112651N1+03101+01201999999ADDGA1021+010501999GA2041+090001999GF104991999999999999999999MA1101801999999REMMET058METAR SBQV 171600Z 15010KT 9999 FEW035 SCT300 31/12 Q1018;
0143833440999992008101717004-14950-040883FM-15+0914SBQV V0201301N005110900019N0112651N1+03101+01201999999ADDGA1021+010501999GA2071+090001999GF107991999999999999999999MA1101691999999REMMET058METAR SBQV 171700Z 13010KT 9999 FEW035 BKN300 31/12 Q1017;
0143833440999992008101718004-14950-040883FM-15+0914SBQV V0201201N005710900019N0112651N1+03101+00901999999ADDGA1021+010501999GA2071+090001999GF107991999999999999999999MA1101691999999REMMET058METAR SBQV 171800Z 12011KT 9999 FEW035 BKN300 31/09 Q1017;
0143833440999992008101719004-14950-040883FM-15+0914SBQV V0201201N005110900019N0112651N1+02901+01101999999ADDGA1021+009001999GA2071+090001999GF107991999999999999999999MA1101691999999REMMET058METAR SBQV 171900Z 12010KT 9999 FEW030 BKN300 29/11 Q1017;
0072833440999992008101720004-14950-040883FM-15+0914SBQV V0201201N00511220001CN0099001N1+02801+01201999999ADDMA1101691999999REMMET045METAR SBQV 172000Z 12010KT CAVOK 28/12 Q1017;
0072833440999992008101721004-14950-040883FM-15+0914SBQV V0201201N00411220001CN0099001N1+02601+01301999999ADDMA1101691999999REMMET045METAR SBQV 172100Z 12008KT CAVOK 26/13 Q1017;
0072833440999992008101722004-14950-040883FM-15+0914SBQV V0201201N00311220001CN0099001N1+02401+01301999999ADDMA1101801999999REMMET045METAR SBQV 172200Z 12006KT CAVOK 24/13 Q1018;
0072833440999992008101723004-14950-040883FM-15+0914SBQV V0201301N00361220001CN0099001N1+02401+01401999999ADDMA1101801999999REMMET045METAR SBQV 172300Z 13007KT CAVOK 24/14 Q1018;
0084833440999992008101810154-14950-040883FM-16+0914SBQV V0200501N004612200019N0112651N1+01901+01401999999ADDMA1102101999999REMMET057METAR SBQV 181015Z SPECI 05009KT 9999 BKN016 19/14 Q1021;
0120833440999992008101811004-14950-040883FM-15+0914SBQV V0200801N005112200019N0112651N1+02101+01401999999ADDGA1021+005401999GF102991999999999999999999MA1102101999999REMMET051METAR SBQV 181100Z 08010KT 9999 FEW018 21/14 Q1021;
0120833440999992008101812004-14950-040883FM-15+0914SBQV V0200701N004112200019N0112651N1+02301+01401999999ADDGA1021+006001999GF102991999999999999999999MA1102101999999REMMET051METAR SBQV 181200Z 07008KT 9999 FEW020 23/14 Q1021;
0120833440999992008101813004-14950-040883FM-15+0914SBQV V0200401N004112200019N0112651N1+02501+01301999999ADDGA1021+006001999GF102991999999999999999999MA1102001999999REMMET051METAR SBQV 181300Z 04008KT 9999 FEW020 25/13 Q1020;
0072833440999992008101814004-14950-040883FM-15+0914SBQV V0200501N00511220001CN0099001N1+02701+01301999999ADDMA1102001999999REMMET045METAR SBQV 181400Z 05010KT CAVOK 27/13 Q1020;
0072833440999992008101815004-14950-040883FM-15+0914SBQV V0200401N00411220001CN0099001N1+02901+01301999999ADDMA1101901999999REMMET045METAR SBQV 181500Z 04008KT CAVOK 29/13 Q1019;
0143833440999992008101816004-14950-040883FM-15+0914SBQV V0209999C000012200019N0112651N1+03001+01001999999ADDGA1021+009001999GA2041+090001999GF104991999999999999999999MA1101801999999REMMET058METAR SBQV 181600Z 00000KT 9999 FEW030 SCT300 30/10 Q1018;
0072833440999992008101817004-14950-040883FM-15+0914SBQV V0200901N00261220001CN0099001N1+03101+00801999999ADDMA1101691999999REMMET045METAR SBQV 181700Z 09005KT CAVOK 31/08 Q1017;
0072833440999992008101818004-14950-040883FM-15+0914SBQV V0200801N00361220001CN0099001N1+03101+00801999999ADDMA1101591999999REMMET045METAR SBQV 181800Z 08007KT CAVOK 31/08 Q1016;
0072833440999992008101819004-14950-040883FM-15+0914SBQV V0200501N00411220001CN0099001N1+03101+00901999999ADDMA1101591999999REMMET045METAR SBQV 181900Z 05008KT CAVOK 31/09 Q1016;
0072833440999992008101820004-14950-040883FM-15+0914SBQV V0200901N00671220001CN0099001N1+02801+01401999999ADDMA1101591999999REMMET045METAR SBQV 182000Z 09013KT CAVOK 28/14 Q1016;
0072833440999992008101821004-14950-040883FM-15+0914SBQV V0200801N00571220001CN0099001N1+02601+01501999999ADDMA1101591999999REMMET045METAR SBQV 182100Z 08011KT CAVOK 26/15 Q1016;
0072833440999992008101822004-14950-040883FM-15+0914SBQV V0200801N00511220001CN0099001N1+02501+01501999999ADDMA1101691999999REMMET045METAR SBQV 182200Z 08010KT CAVOK 25/15 Q1017;
0120833440999992008101911004-14950-040883FM-15+0914SBQV V0200101N006212200019N0112651N1+02201+01801999999ADDGA1041+004801999GF104991999999999999999999MA1102101999999REMMET051METAR SBQV 191100Z 01012KT 9999 SCT016 22/18 Q1021;
0120833440999992008101912004-14950-040883FM-15+0914SBQV V0200401N003612200019N0112651N1+02301+01801999999ADDGA1021+007501999GF102991999999999999999999MA1102101999999REMMET051METAR SBQV 191200Z 04007KT 9999 FEW025 23/18 Q1021;
0072833440999992008101913004-14950-040883FM-15+0914SBQV V0200301N00361220001CN0099001N1+02601+01601999999ADDMA1102101999999REMMET045METAR SBQV 191300Z 03007KT CAVOK 26/16 Q1021;
0120833440999992008101914004-14950-040883FM-15+0914SBQV V0200401N003112200019N0112651N1+02901+01601999999ADDGA1021+012001999GF102991999999999999999999MA1102101999999REMMET051METAR SBQV 191400Z 04006KT 9999 FEW040 29/16 Q1021;
0120833440999992008101915004-14950-040883FM-15+0914SBQV V0200201N003612200019N0112651N1+03001+01501999999ADDGA1021+012001999GF102991999999999999999999MA1102001999999REMMET051METAR SBQV 191500Z 02007KT 9999 FEW040 30/15 Q1020;
0120833440999992008101916004-14950-040883FM-15+0914SBQV V0200701N003612200019N0112651N1+03101+01101999999ADDGA1021+012001999GF102991999999999999999999MA1101901999999REMMET051METAR SBQV 191600Z 07007KT 9999 FEW040 31/11 Q1019;
0120833440999992008101917004-14950-040883FM-15+0914SBQV V0200301N005112200019N0112651N1+03101+00901999999ADDGA1021+012001999GF102991999999999999999999MA1101801999999REMMET051METAR SBQV 191700Z 03010KT 9999 FEW040 31/09 Q1018;
0120833440999992008101918004-14950-040883FM-15+0914SBQV V0200701N005712200019N0112651N1+03101+00901999999ADDGA1021+012001999GF102991999999999999999999MA1101801999999REMMET051METAR SBQV 191800Z 07011KT 9999 FEW040 31/09 Q1018;
0120833440999992008101919004-14950-040883FM-15+0914SBQV V0200601N004112200019N0112651N1+03101+01201999999ADDGA1021+010501999GF102991999999999999999999MA1101691999999REMMET051METAR SBQV 191900Z 06008KT 9999 FEW035 31/12 Q1017;
0120833440999992008101920004-14950-040883FM-15+0914SBQV V0200901N006212200019N0112651N1+02901+01301999999ADDGA1021+009001999GF102991999999999999999999MA1101801999999REMMET051METAR SBQV 192000Z 09012KT 9999 FEW030 29/13 Q1018;
0072833440999992008101921004-14950-040883FM-15+0914SBQV V0200901N00461220001CN0099001N1+02701+01301999999ADDMA1101801999999REMMET045METAR SBQV 192100Z 09009KT CAVOK 27/13 Q1018;
0072833440999992008101922004-14950-040883FM-15+0914SBQV V0200701N00511220001CN0099001N1+02501+01401999999ADDMA1101901999999REMMET045METAR SBQV 192200Z 07010KT CAVOK 25/14 Q1019;
0084833440999992008102010154-14950-040883FM-16+0914SBQV V0200801N006212200019N9999999N1+02001+01601999999ADDMA1102301999999REMMET057METAR SBQV 201015Z SPECI 08012KT 8000 BKN015 20/16 Q1023;
0120833440999992008102011004-14950-040883FM-15+0914SBQV V0200701N005110048019N0112651N1+02101+01601999999ADDGA1071+004801999GF107991999999999999999999MA1102401999999REMMET051METAR SBQV 201100Z 07010KT 9999 BKN016 21/16 Q1024;
0120833440999992008102012004-14950-040883FM-15+0914SBQV V0200901N005710075019N0112651N1+02401+01501999999ADDGA1071+007501999GF107991999999999999999999MA1102401999999REMMET051METAR SBQV 201200Z 09011KT 9999 BKN025 24/15 Q1024;
0120833440999992008102013004-14950-040883FM-15+0914SBQV V0200601N004610075019N0112651N1+02501+01501999999ADDGA1071+007501999GF107991999999999999999999MA1102401999999REMMET051METAR SBQV 201300Z 06009KT 9999 BKN025 25/15 Q1024;
0120833440999992008102014004-14950-040883FM-15+0914SBQV V0201001N005112200019N0112651N1+02601+01501999999ADDGA1041+009001999GF104991999999999999999999MA1102401999999REMMET051METAR SBQV 201400Z 10010KT 9999 SCT030 26/15 Q1024;
0120833440999992008102015004-14950-040883FM-15+0914SBQV V0200901N006212200019N0112651N1+02801+01401999999ADDGA1041+010501999GF104991999999999999999999MA1102301999999REMMET051METAR SBQV 201500Z 09012KT 9999 SCT035 28/14 Q1023;
0120833440999992008102016004-14950-040883FM-15+0914SBQV V0200801N004612200019N0112651N1+02801+01201999999ADDGA1021+010501999GF102991999999999999999999MA1102201999999REMMET051METAR SBQV 201600Z 08009KT 9999 FEW035 28/12 Q1022;
0120833440999992008102017004-14950-040883FM-15+0914SBQV V0201201N005112200019N0112651N1+02901+01101999999ADDGA1021+010501999GF102991999999999999999999MA1102101999999REMMET051METAR SBQV 201700Z 12010KT 9999 FEW035 29/11 Q1021;
0120833440999992008102018004-14950-040883FM-15+0914SBQV V0200901N005712200019N0112651N1+02901+01201999999ADDGA1021+010501999GF102991999999999999999999MA1102101999999REMMET051METAR SBQV 201800Z 09011KT 9999 FEW035 29/12 Q1021;
0120833440999992008102019004-14950-040883FM-15+0914SBQV V0201001N004612200019N0112651N1+02901+01201999999ADDGA1021+009001999GF102991999999999999999999MA1102001999999REMMET051METAR SBQV 201900Z 10009KT 9999 FEW030 29/12 Q1020;
0120833440999992008102020004-14950-040883FM-15+0914SBQV V0200901N005112200019N0112651N1+02701+01301999999ADDGA1021+009001999GF102991999999999999999999MA1102101999999REMMET051METAR SBQV 202000Z 09010KT 9999 FEW030 27/13 Q1021;
0072833440999992008102021004-14950-040883FM-15+0914SBQV V0201001N00511220001CN0099001N1+02501+01301999999ADDMA1102101999999REMMET045METAR SBQV 202100Z 10010KT CAVOK 25/13 Q1021;
0072833440999992008102022004-14950-040883FM-15+0914SBQV V0201101N00411220001CN0099001N1+02401+01401999999ADDMA1102101999999REMMET045METAR SBQV 202200Z 11008KT CAVOK 24/14 Q1021;
0120833440999992008102111004-14950-040883FM-15+0914SBQV V0201001N006210048019N0112651N1+02101+01601999999ADDGA1071+004801999GF107991999999999999999999MA1102401999999REMMET051METAR SBQV 211100Z 10012KT 9999 BKN016 21/16 Q1024;
0120833440999992008102112004-14950-040883FM-15+0914SBQV V0200901N007212200019N0112651N1+02401+01601999999ADDGA1041+005401999GF104991999999999999999999MA1102401999999REMMET051METAR SBQV 211200Z 09014KT 9999 SCT018 24/16 Q1024;
0120833440999992008102113004-14950-040883FM-15+0914SBQV V0201101N007212200019N0112651N1+02501+01401999999ADDGA1041+006001999GF104991999999999999999999MA1102301999999REMMET051METAR SBQV 211300Z 11014KT 9999 SCT020 25/14 Q1023;
0120833440999992008102114004-14950-040883FM-15+0914SBQV V0200901N006710060019N0112651N1+02401+01301999999ADDGA1071+006001999GF107991999999999999999999MA1102301999999REMMET051METAR SBQV 211400Z 09013KT 9999 BKN020 24/13 Q1023;
0120833440999992008102115004-14950-040883FM-15+0914SBQV V0200901N005110060019N0112651N1+02501+01301999999ADDGA1071+006001999GF107991999999999999999999MA1102201999999REMMET051METAR SBQV 211500Z 09010KT 9999 BKN020 25/13 Q1022;
0120833440999992008102116004-14950-040883FM-15+0914SBQV V0200901N006210060019N0112651N1+02501+01401999999ADDGA1071+006001999GF107991999999999999999999MA1102101999999REMMET051METAR SBQV 211600Z 09012KT 9999 BKN020 25/14 Q1021;
0120833440999992008102117004-14950-040883FM-15+0914SBQV V0200901N005710075019N0112651N1+02801+01401999999ADDGA1071+007501999GF107991999999999999999999MA1102001999999REMMET051METAR SBQV 211700Z 09011KT 9999 BKN025 28/14 Q1020;
0143833440999992008102118004-14950-040883FM-15+0914SBQV V0200901N006212200019N0112651N1+02701+01501999999ADDGA1021+006001999GA2041+024001999GF104991999999999999999999MA1102001999999REMMET058METAR SBQV 211800Z 09012KT 9999 FEW020 SCT080 27/15 Q1020;
0143833440999992008102119004-14950-040883FM-15+0914SBQV V0201101N006712200019N0112651N1+02601+01401999999ADDGA1021+006001999GA2041+024001999GF104991999999999999999999MA1102001999999REMMET058METAR SBQV 211900Z 11013KT 9999 FEW020 SCT080 26/14 Q1020;
0143833440999992008102120004-14950-040883FM-15+0914SBQV V0201101N007212200019N0112651N1+02501+01601999999ADDGA1021+006001999GA2041+024001999GF104991999999999999999999MA1102001999999REMMET058METAR SBQV 212000Z 11014KT 9999 FEW020 SCT080 25/16 Q1020;
0120833440999992008102121004-14950-040883FM-15+0914SBQV V0201101N005112200019N0112651N1+02301+01601999999ADDGA1021+005401999GF102991999999999999999999MA1102101999999REMMET051METAR SBQV 212100Z 11010KT 9999 FEW018 23/16 Q1021;
0072833440999992008102122004-14950-040883FM-15+0914SBQV V0201001N00511220001CN0099001N1+02201+01701999999ADDMA1102101999999REMMET045METAR SBQV 212200Z 10010KT CAVOK 22/17 Q1021;
0091833440999992008102210154-14950-040883FM-16+0914SBQV V0200901N005712200019N0112651N1+02001+01701999999ADDMA1102301999999REMMET064METAR SBQV 221015Z SPECI 09011KT 9999 SCT010 SCT015 20/17 Q1023;
0143833440999992008102211004-14950-040883FM-15+0914SBQV V0200901N005712200019N0112651N1+02101+01701999999ADDGA1021+003301999GA2041+004501999GF104991999999999999999999MA1102301999999REMMET058METAR SBQV 221100Z 09011KT 9999 FEW011 SCT015 21/17 Q1023;
0143833440999992008102212004-14950-040883FM-15+0914SBQV V0200901N005112200019N0112651N1+02301+01701999999ADDGA1041+004801999GA2041+090001999GF104991999999999999999999MA1102301999999REMMET058METAR SBQV 221200Z 09010KT 9999 SCT016 SCT300 23/17 Q1023;
0143833440999992008102213004-14950-040883FM-15+0914SBQV V0200901N005710048019N0112651N1+02401+01601999999ADDGA1021+003601999GA2071+004801999GF107991999999999999999999MA1102301999999REMMET058METAR SBQV 221300Z 09011KT 9999 FEW012 BKN016 24/16 Q1023;
0117833440999992008102214004-14950-040883FM-15+0914SBQV V0200701N00461220001CN0112651N1+02501+01401999999ADDGA1071+005401999GA2041+090001999MA1102201999999REMMET058METAR SBQV 221400Z 07009KT 9999 BKN018 SCT300 25/14 Q1022;
0136833440999992008102215004-14950-040883FM-15+0914SBQV V0200901N00511220001CN0112651N1+02501+01401999999ADDGA1071+006001999GA2041+090001999MA1102201999999REMMET058METAR SBQV 221500Z 09010KT 9999 BKN020 SCT300 25/14 Q1022;EQDQ01+000042SCOTCV
0136833440999992008102216004-14950-040883FM-15+0914SBQV V0201001N00511220001CN0112651N1+02601+01501999999ADDGA1071+006001999GA2041+090001999MA1102101999999REMMET058METAR SBQV 221600Z 10010KT 9999 BKN020 SCT300 26/15 Q1021;EQDQ01+000042SCOTCV
0136833440999992008102217004-14950-040883FM-15+0914SBQV V0201101N00571220001CN0112651N1+02701+01401999999ADDGA1071+006001999GA2041+090001999MA1102001999999REMMET058METAR SBQV 221700Z 11011KT 9999 BKN020 SCT300 27/14 Q1020;EQDQ01+000042SCOTCV
0136833440999992008102218004-14950-040883FM-15+0914SBQV V0201001N00671220001CN0112651N1+02701+01501999999ADDGA1071+006001999GA2041+090001999MA1101901999999REMMET058METAR SBQV 221800Z 10013KT 9999 BKN020 SCT300 27/15 Q1019;EQDQ01+000042SCOTCV
0143833440999992008102219004-14950-040883FM-15+0914SBQV V0201201N006212200019N0112651N1+02701+01501999999ADDGA1041+006001999GA2041+030001999GF104991999999999999999999MA1101901999999REMMET058METAR SBQV 221900Z 12012KT 9999 SCT020 SCT100 27/15 Q1019;
0143833440999992008102220004-14950-040883FM-15+0914SBQV V0201001N006210900019N0112651N1+02501+01401999999ADDGA1021+005401999GA2071+090001999GF107991999999999999999999MA1101901999999REMMET058METAR SBQV 222000Z 10012KT 9999 FEW018 BKN300 25/14 Q1019;
0143833440999992008102221004-14950-040883FM-15+0914SBQV V0201001N004610900019N0112651N1+02401+01501999999ADDGA1021+004801999GA2071+090001999GF107991999999999999999999MA1102001999999REMMET058METAR SBQV 222100Z 10009KT 9999 FEW016 BKN300 24/15 Q1020;
0072833440999992008102222004-14950-040883FM-15+0914SBQV V0200901N00411220001CN0099001N1+02301+01501999999ADDMA1102101999999REMMET045METAR SBQV 222200Z 09008KT CAVOK 23/15 Q1021;
0072833440999992008102301004-14950-040883FM-15+0914SBQV V0201001N00461220001CN0099001N1+01901+01701999999ADDMA1102201999999REMMET045METAR SBQV 230100Z 10009KT CAVOK 19/17 Q1022;
0072833440999992008102302004-14950-040883FM-15+0914SBQV V0200801N00411220001CN0099001N1+01901+01701999999ADDMA1102201999999REMMET045METAR SBQV 230200Z 08008KT CAVOK 19/17 Q1022;
0120833440999992008102307004-14950-040883FM-15+0914SBQV V0200801N004112200019N0112651N1+01701+01601999999ADDGA1021+001501999GF102991999999999999999999MA1102001999999REMMET051METAR SBQV 230700Z 08008KT 9999 FEW005 17/16 Q1020;
0120833440999992008102308004-14950-040883FM-15+0914SBQV V0200901N003612200019N0112651N1+01701+01601999999ADDGA1021+001501999GF102991999999999999999999MA1102101999999REMMET051METAR SBQV 230800Z 09007KT 9999 FEW005 17/16 Q1021;
0120833440999992008102311004-14950-040883FM-15+0914SBQV V0200901N005710054019N0112651N1+02101+01501999999ADDGA1071+005401999GF107991999999999999999999MA1102301999999REMMET051METAR SBQV 231100Z 09011KT 9999 BKN018 21/15 Q1023;
0120833440999992008102312004-14950-040883FM-15+0914SBQV V0201001N006212200019N0112651N1+02401+01401999999ADDGA1041+006001999GF104991999999999999999999MA1102301999999REMMET051METAR SBQV 231200Z 10012KT 9999 SCT020 24/14 Q1023;
0120833440999992008102313004-14950-040883FM-15+0914SBQV V0200901N006712200019N0112651N1+02501+01301999999ADDGA1021+007501999GF102991999999999999999999MA1102301999999REMMET051METAR SBQV 231300Z 09013KT 9999 FEW025 25/13 Q1023;
0120833440999992008102314004-14950-040883FM-15+0914SBQV V0201001N006212200019N0112651N1+02701+01301999999ADDGA1041+007501999GF104991999999999999999999MA1102201999999REMMET051METAR SBQV 231400Z 10012KT 9999 SCT025 27/13 Q1022;
0120833440999992008102315004-14950-040883FM-15+0914SBQV V0200901N006212200019N0112651N1+02701+01301999999ADDGA1041+007501999GF104991999999999999999999MA1102101999999REMMET051METAR SBQV 231500Z 09012KT 9999 SCT025 27/13 Q1021;
0120833440999992008102316004-14950-040883FM-15+0914SBQV V0200901N006212200019N0112651N1+02701+01401999999ADDGA1041+007501999GF104991999999999999999999MA1102001999999REMMET051METAR SBQV 231600Z 09012KT 9999 SCT025 27/14 Q1020;
0120833440999992008102317004-14950-040883FM-15+0914SBQV V0200701N004612200019N0112651N1+02801+01201999999ADDGA1021+009001999GF102991999999999999999999MA1101901999999REMMET051METAR SBQV 231700Z 07009KT 9999 FEW030 28/12 Q1019;
0120833440999992008102318004-14950-040883FM-15+0914SBQV V0200801N006212200019N0112651N1+02801+01301999999ADDGA1021+009001999GF102991999999999999999999MA1101901999999REMMET051METAR SBQV 231800Z 08012KT 9999 FEW030 28/13 Q1019;
0120833440999992008102319004-14950-040883FM-15+0914SBQV V0200901N005112200019N0112651N1+02801+01101999999ADDGA1021+009001999GF102991999999999999999999MA1101801999999REMMET051METAR SBQV 231900Z 09010KT 9999 FEW030 28/11 Q1018;
0120833440999992008102320004-14950-040883FM-15+0914SBQV V0201001N006212200019N0112651N1+02701+01201999999ADDGA1021+009001999GF102991999999999999999999MA1101901999999REMMET051METAR SBQV 232000Z 10012KT 9999 FEW030 27/12 Q1019;
0072833440999992008102321004-14950-040883FM-15+0914SBQV V0200901N00571220001CN0099001N1+02501+01301999999ADDMA1101901999999REMMET045METAR SBQV 232100Z 09011KT CAVOK 25/13 Q1019;
0072833440999992008102322004-14950-040883FM-15+0914SBQV V0200801N00571220001CN0099001N1+02301+01401999999ADDMA1102001999999REMMET045METAR SBQV 232200Z 08011KT CAVOK 23/14 Q1020;
0120833440999992008102411004-14950-040883FM-15+0914SBQV V0200801N004112200019N0112651N1+02201+01501999999ADDGA1021+006001999GF102991999999999999999999MA1102401999999REMMET051METAR SBQV 241100Z 08008KT 9999 FEW020 22/15 Q1024;
0120833440999992008102412004-14950-040883FM-15+0914SBQV V0200801N005112200019N0112651N1+02401+01401999999ADDGA1021+009001999GF102991999999999999999999MA1102401999999REMMET051METAR SBQV 241200Z 08010KT 9999 FEW030 24/14 Q1024;
0120833440999992008102413004-14950-040883FM-15+0914SBQV V0200601N004610090019N0112651N1+02501+01301999999ADDGA1071+009001999GF107991999999999999999999MA1102401999999REMMET051METAR SBQV 241300Z 06009KT 9999 BKN030 25/13 Q1024;
0120833440999992008102414004-14950-040883FM-15+0914SBQV V0201001N004112200019N0112651N1+02701+01401999999ADDGA1041+010501999GF104991999999999999999999MA1102301999999REMMET051METAR SBQV 241400Z 10008KT 9999 SCT035 27/14 Q1023;
0120833440999992008102415004-14950-040883FM-15+0914SBQV V0201001N005712200019N0112651N1+02701+01301999999ADDGA1041+010501999GF104991999999999999999999MA1102201999999REMMET051METAR SBQV 241500Z 10011KT 9999 SCT035 27/13 Q1022;
0120833440999992008102416004-14950-040883FM-15+0914SBQV V0200801N004610120019N0112651N1+02901+01301999999ADDGA1071+012001999GF107991999999999999999999MA1102101999999REMMET051METAR SBQV 241600Z 08009KT 9999 BKN040 29/13 Q1021;
0143833440999992008102417004-14950-040883FM-15+0914SBQV V0200601N004612200019N0112651N1+02701+01301999999ADDGA1041+010501999GA2041+021001999GF104991999999999999999999MA1102001999999REMMET058METAR SBQV 241700Z 06009KT 9999 SCT035 SCT070 27/13 Q1020;
0143833440999992008102418004-14950-040883FM-15+0914SBQV V0200801N002612200019N0112651N1+02801+01301999999ADDGA1021+012001999GA2041+027001999GF104991999999999999999999MA1101901999999REMMET058METAR SBQV 241800Z 08005KT 9999 FEW040 SCT090 28/13 Q1019;
0072833440999992008102420004-14950-040883FM-15+0914SBQV V0200901N00771220001CN0099001N1+02501+01601999999ADDMA1101901999999REMMET045METAR SBQV 242000Z 09015KT CAVOK 25/16 Q1019;
0072833440999992008102421004-14950-040883FM-15+0914SBQV V0200601N00571220001CN0099001N1+02301+01601999999ADDMA1102001999999REMMET045METAR SBQV 242100Z 06011KT CAVOK 23/16 Q1020;
0072833440999992008102422004-14950-040883FM-15+0914SBQV V0200801N00461220001CN0099001N1+02201+01701999999ADDMA1102001999999REMMET045METAR SBQV 242200Z 08009KT CAVOK 22/17 Q1020;
0120833440999992008102511004-14950-040883FM-15+0914SBQV V0200401N004112200019N0112651N1+02201+01401999999ADDGA1021+004801999GF102991999999999999999999MA1102301999999REMMET051METAR SBQV 251100Z 04008KT 9999 FEW016 22/14 Q1023;
0120833440999992008102512004-14950-040883FM-15+0914SBQV V0200501N003612200019N0112651N1+02401+01301999999ADDGA1021+005401999GF102991999999999999999999MA1102301999999REMMET051METAR SBQV 251200Z 05007KT 9999 FEW018 24/13 Q1023;
0120833440999992008102513004-14950-040883FM-15+0914SBQV V0200501N004112200019N0112651N1+02501+01301999999ADDGA1021+006001999GF102991999999999999999999MA1102301999999REMMET051METAR SBQV 251300Z 05008KT 9999 FEW020 25/13 Q1023;
0120833440999992008102514004-14950-040883FM-15+0914SBQV V0200501N004112200019N0112651N1+02701+01201999999ADDGA1021+007501999GF102991999999999999999999MA1102201999999REMMET051METAR SBQV 251400Z 05008KT 9999 FEW025 27/12 Q1022;
0120833440999992008102515004-14950-040883FM-15+0914SBQV V0200801N002612200019N0112651N1+02801+01101999999ADDGA1041+007501999GF104991999999999999999999MA1102101999999REMMET051METAR SBQV 251500Z 08005KT 9999 SCT025 28/11 Q1021;
0120833440999992008102517004-14950-040883FM-15+0914SBQV V0200701N003612200019N0112651N1+03001+01101999999ADDGA1041+007501999GF104991999999999999999999MA1101901999999REMMET051METAR SBQV 251700Z 07007KT 9999 SCT025 30/11 Q1019;
0120833440999992008102518004-14950-040883FM-15+0914SBQV V0200701N005112200019N0112651N1+03001+01101999999ADDGA1021+007501999GF102991999999999999999999MA1101801999999REMMET051METAR SBQV 251800Z 07010KT 9999 FEW025 30/11 Q1018;
0120833440999992008102519004-14950-040883FM-15+0914SBQV V0200801N004612200019N0112651N1+02801+01101999999ADDGA1021+007501999GF102991999999999999999999MA1101801999999REMMET051METAR SBQV 251900Z 08009KT 9999 FEW025 28/11 Q1018;
0131833440999992008102520004-14950-040883FM-15+0914SBQV V0200901N005112200019N0112651N1+02701+01001999999ADDGA1021+007501999GF102991999999999999999999MA1101801999999OC101081REMMET054METAR SBQV 252000Z 09010G21KT 9999 FEW025 27/10 Q1018;
0120833440999992008102521004-14950-040883FM-15+0914SBQV V0200801N003612200019N0112651N1+02601+01001999999ADDGA1021+006001999GF102991999999999999999999MA1101801999999REMMET051METAR SBQV 252100Z 08007KT 9999 FEW020 26/10 Q1018;
0072833440999992008102522004-14950-040883FM-15+0914SBQV V0200901N00411220001CN0099001N1+02401+01201999999ADDMA1101901999999REMMET045METAR SBQV 252200Z 09008KT CAVOK 24/12 Q1019;
0084833440999992008102610154-14950-040883FM-16+0914SBQV V0200301N006212200019N0112651N1+02001+01601999999ADDMA1102101999999REMMET057METAR SBQV 261015Z SPECI 03012KT 9999 FEW016 20/16 Q1021;
0072833440999992008102611004-14950-040883FM-15+0914SBQV V0200201N00571220001CN0099001N1+02301+01601999999ADDMA1102101999999REMMET045METAR SBQV 261100Z 02011KT CAVOK 23/16 Q1021;
0120833440999992008102612004-14950-040883FM-15+0914SBQV V0200301N004112200019N0112651N1+02401+01501999999ADDGA1021+005401999GF102991999999999999999999MA1102101999999REMMET051METAR SBQV 261200Z 03008KT 9999 FEW018 24/15 Q1021;
0120833440999992008102613004-14950-040883FM-15+0914SBQV V0200701N003612200019N0112651N1+02701+01301999999ADDGA1021+007501999GF102991999999999999999999MA1102101999999REMMET051METAR SBQV 261300Z 07007KT 9999 FEW025 27/13 Q1021;
0120833440999992008102614004-14950-040883FM-15+0914SBQV V0200501N002112200019N0112651N1+02801+01301999999ADDGA1021+007501999GF102991999999999999999999MA1102001999999REMMET051METAR SBQV 261400Z 05004KT 9999 FEW025 28/13 Q1020;
0120833440999992008102615004-14950-040883FM-15+0914SBQV V0200501N002612200019N0112651N1+02901+01101999999ADDGA1021+009001999GF102991999999999999999999MA1101901999999REMMET051METAR SBQV 261500Z 05005KT 9999 FEW030 29/11 Q1019;
0120833440999992008102617004-14950-040883FM-15+0914SBQV V0201701N004112200019N0112651N1+03001+01201999999ADDGA1041+009001999GF104991999999999999999999MA1101691999999REMMET051METAR SBQV 261700Z 17008KT 9999 SCT030 30/12 Q1017;
0120833440999992008102618004-14950-040883FM-15+0914SBQV V0201001N005112200019N0112651N1+03001+01201999999ADDGA1041+009001999GF104991999999999999999999MA1101591999999REMMET051METAR SBQV 261800Z 10010KT 9999 SCT030 30/12 Q1016;
0120833440999992008102619004-14950-040883FM-15+0914SBQV V0201501N004612200019N0112651N1+02901+01201999999ADDGA1041+007501999GF104991999999999999999999MA1101691999999REMMET051METAR SBQV 261900Z 15009KT 9999 SCT025 29/12 Q1017;
0120833440999992008102620004-14950-040883FM-15+0914SBQV V0201201N005112200019N0112651N1+02801+01101999999ADDGA1021+006001999GF102991999999999999999999MA1101691999999REMMET051METAR SBQV 262000Z 12010KT 9999 FEW020 28/11 Q1017;
0120833440999992008102621004-14950-040883FM-15+0914SBQV V0201201N004112200019N0112651N1+02601+01101999999ADDGA1021+004801999GF102991999999999999999999MA1101801999999REMMET051METAR SBQV 262100Z 12008KT 9999 FEW016 26/11 Q1018;
0072833440999992008102622004-14950-040883FM-15+0914SBQV V0201201N00411220001CN0099001N1+02501+01101999999ADDMA1101801999999REMMET045METAR SBQV 262200Z 12008KT CAVOK 25/11 Q1018;
0084833440999992008102710154-14950-040883FM-16+0914SBQV V0209999C000012200019N0112651N1+02001+01601999999ADDMA1102001999999REMMET057METAR SBQV 271015Z SPECI 00000KT 9999 FEW015 20/16 Q1020;
0072833440999992008102711004-14950-040883FM-15+0914SBQV V0200201N00101220001CN0099001N1+02301+01501999999ADDMA1102001999999REMMET045METAR SBQV 271100Z 02002KT CAVOK 23/15 Q1020;
0072833440999992008102712004-14950-040883FM-15+0914SBQV V0200501N00311220001CN0099001N1+02501+01201999999ADDMA1102001999999REMMET045METAR SBQV 271200Z 05006KT CAVOK 25/12 Q1020;
0072833440999992008102713004-14950-040883FM-15+0914SBQV V0200301N00211220001CN0099001N1+02701+01301999999ADDMA1102001999999REMMET045METAR SBQV 271300Z 03004KT CAVOK 27/13 Q1020;
0072833440999992008102714004-14950-040883FM-15+0914SBQV V0203101N00101220001CN0099001N1+02801+01301999999ADDMA1101901999999REMMET045METAR SBQV 271400Z 31002KT CAVOK 28/13 Q1019;
0072833440999992008102715004-14950-040883FM-15+0914SBQV V0201701N00311220001CN0099001N1+03001+01301999999ADDMA1101801999999REMMET045METAR SBQV 271500Z 17006KT CAVOK 30/13 Q1018;
0120833440999992008102716004-14950-040883FM-15+0914SBQV V0201401N002112200019N0112651N1+03201+01201999999ADDGA1021+012001999GF102991999999999999999999MA1101691999999REMMET051METAR SBQV 271600Z 14004KT 9999 FEW040 32/12 Q1017;
0120833440999992008102717004-14950-040883FM-15+0914SBQV V0201001N004612200019N0112651N1+03201+01201999999ADDGA1021+012001999GF102991999999999999999999MA1101591999999REMMET051METAR SBQV 271700Z 10009KT 9999 FEW040 32/12 Q1016;
0120833440999992008102718004-14950-040883FM-15+0914SBQV V0201501N004612200019N0112651N1+03201+01301999999ADDGA1021+012001999GF102991999999999999999999MA1101491999999REMMET051METAR SBQV 271800Z 15009KT 9999 FEW040 32/13 Q1015;
0120833440999992008102719004-14950-040883FM-15+0914SBQV V0201401N005712200019N0112651N1+03101+01301999999ADDGA1021+010501999GF102991999999999999999999MA1101491999999REMMET051METAR SBQV 271900Z 14011KT 9999 FEW035 31/13 Q1015;
0120833440999992008102720004-14950-040883FM-15+0914SBQV V0201201N006212200019N0112651N1+03001+01301999999ADDGA1021+010501999GF102991999999999999999999MA1101491999999REMMET051METAR SBQV 272000Z 12012KT 9999 FEW035 30/13 Q1015;
0120833440999992008102721004-14950-040883FM-15+0914SBQV V0201101N004612200019N0112651N1+02801+01301999999ADDGA1021+007501999GF102991999999999999999999MA1101591999999REMMET051METAR SBQV 272100Z 11009KT 9999 FEW025 28/13 Q1016;
0072833440999992008102722004-14950-040883FM-15+0914SBQV V0200901N00361220001CN0099001N1+02601+01401999999ADDMA1101591999999REMMET045METAR SBQV 272200Z 09007KT CAVOK 26/14 Q1016;
0072833440999992008102723004-14950-040883FM-15+0914SBQV V0200901N00411220001CN0099001N1+02501+01401999999ADDMA1101691999999REMMET045METAR SBQV 272300Z 09008KT CAVOK 25/14 Q1017;
0072833440999992008102811004-14950-040883FM-15+0914SBQV V0200401N00101220001CN0099001N1+02501+01701999999ADDMA1101801999999REMMET045METAR SBQV 281100Z 04002KT CAVOK 25/17 Q1018;
0072833440999992008102812004-14950-040883FM-15+0914SBQV V0203201N00051220001CN0099001N1+02701+01601999999ADDMA1101801999999REMMET045METAR SBQV 281200Z 32001KT CAVOK 27/16 Q1018;
0072833440999992008102813004-14950-040883FM-15+0914SBQV V0200801N00261220001CN0099001N1+02901+01201999999ADDMA1101801999999REMMET045METAR SBQV 281300Z 08005KT CAVOK 29/12 Q1018;
0072833440999992008102814004-14950-040883FM-15+0914SBQV V0201501N00461220001CN0099001N1+03201+01001999999ADDMA1101801999999REMMET045METAR SBQV 281400Z 15009KT CAVOK 32/10 Q1018;
0072833440999992008102815004-14950-040883FM-15+0914SBQV V0201301N00621220001CN0099001N1+03201+00601999999ADDMA1101691999999REMMET045METAR SBQV 281500Z 13012KT CAVOK 32/06 Q1017;
0072833440999992008102816004-14950-040883FM-15+0914SBQV V0201201N00621220001CN0099001N1+03301+00901999999ADDMA1101591999999REMMET045METAR SBQV 281600Z 12012KT CAVOK 33/09 Q1016;
0072833440999992008102817004-14950-040883FM-15+0914SBQV V0201201N00571220001CN0099001N1+03301+00801999999ADDMA1101491999999REMMET045METAR SBQV 281700Z 12011KT CAVOK 33/08 Q1015;
0072833440999992008102818004-14950-040883FM-15+0914SBQV V0201201N00511220001CN0099001N1+03301+01001999999ADDMA1101491999999REMMET045METAR SBQV 281800Z 12010KT CAVOK 33/10 Q1015;
0072833440999992008102819004-14950-040883FM-15+0914SBQV V0201101N00621220001CN0099001N1+03201+00901999999ADDMA1101491999999REMMET045METAR SBQV 281900Z 11012KT CAVOK 32/09 Q1015;
0072833440999992008102820004-14950-040883FM-15+0914SBQV V0201201N00621220001CN0099001N1+03001+01101999999ADDMA1101491999999REMMET045METAR SBQV 282000Z 12012KT CAVOK 30/11 Q1015;
0072833440999992008102821004-14950-040883FM-15+0914SBQV V0201101N00511220001CN0099001N1+02801+01101999999ADDMA1101591999999REMMET045METAR SBQV 282100Z 11010KT CAVOK 28/11 Q1016;
0072833440999992008102822004-14950-040883FM-15+0914SBQV V0201001N00361220001CN0099001N1+02701+01201999999ADDMA1101591999999REMMET045METAR SBQV 282200Z 10007KT CAVOK 27/12 Q1016;
0091833440999992008102910154-14950-040883FM-16+0914SBQV V0200801N005112200019N0112651N1+02001+01501999999ADDMA1102001999999REMMET064METAR SBQV 291015Z SPECI 08010KT 9999 FEW015 BKN300 20/15 Q1020;
0143833440999992008102911004-14950-040883FM-15+0914SBQV V0200401N004110900019N0112651N1+02101+01501999999ADDGA1021+004801999GA2071+090001999GF107991999999999999999999MA1102001999999REMMET058METAR SBQV 291100Z 04008KT 9999 FEW016 BKN300 21/15 Q1020;
0143833440999992008102912004-14950-040883FM-15+0914SBQV V0200601N003612200019N0112651N1+02401+01401999999ADDGA1021+006001999GA2041+090001999GF104991999999999999999999MA1102001999999REMMET058METAR SBQV 291200Z 06007KT 9999 FEW020 SCT300 24/14 Q1020;
0120833440999992008102913004-14950-040883FM-15+0914SBQV V0200901N005112200019N0112651N1+02601+01501999999ADDGA1021+006001999GF102991999999999999999999MA1102001999999REMMET051METAR SBQV 291300Z 09010KT 9999 FEW020 26/15 Q1020;
0120833440999992008102914004-14950-040883FM-15+0914SBQV V0200601N005112200019N0112651N1+02701+01401999999ADDGA1021+006001999GF102991999999999999999999MA1101901999999REMMET051METAR SBQV 291400Z 06010KT 9999 FEW020 27/14 Q1019;
0120833440999992008102915004-14950-040883FM-15+0914SBQV V0201001N005112200019N0112651N1+02801+01401999999ADDGA1021+007501999GF102991999999999999999999MA1101801999999REMMET051METAR SBQV 291500Z 10010KT 9999 FEW025 28/14 Q1018;
0143833440999992008102916004-14950-040883FM-15+0914SBQV V0201001N005112200019N0112651N1+02901+01401999999ADDGA1021+007501999GA2041+090001999GF104991999999999999999999MA1101691999999REMMET058METAR SBQV 291600Z 10010KT 9999 FEW025 SCT300 29/14 Q1017;
0143833440999992008102917004-14950-040883FM-15+0914SBQV V0201001N004112200019N0112651N1+03001+01401999999ADDGA1021+009001999GA2041+090001999GF104991999999999999999999MA1101591999999REMMET058METAR SBQV 291700Z 10008KT 9999 FEW030 SCT300 30/14 Q1016;
0143833440999992008102918004-14950-040883FM-15+0914SBQV V0201001N004110900019N0112651N1+02901+01501999999ADDGA1021+009001999GA2071+090001999GF107991999999999999999999MA1101591999999REMMET058METAR SBQV 291800Z 10008KT 9999 FEW030 BKN300 29/15 Q1016;
0072833440999992008102919004-14950-040883FM-15+0914SBQV V0201001N00571220001CN0099001N1+02901+01501999999ADDMA1101491999999REMMET045METAR SBQV 291900Z 10011KT CAVOK 29/15 Q1015;
0072833440999992008102920004-14950-040883FM-15+0914SBQV V0200701N00511220001CN0099001N1+02701+01401999999ADDMA1101491999999REMMET045METAR SBQV 292000Z 07010KT CAVOK 27/14 Q1015;
0072833440999992008102921004-14950-040883FM-15+0914SBQV V0200801N00461220001CN0099001N1+02501+01501999999ADDMA1101591999999REMMET045METAR SBQV 292100Z 08009KT CAVOK 25/15 Q1016;
0072833440999992008102922004-14950-040883FM-15+0914SBQV V0200601N00411220001CN0099001N1+02401+01501999999ADDMA1101691999999REMMET045METAR SBQV 292200Z 06008KT CAVOK 24/15 Q1017;
0091833440999992008103010154-14950-040883FM-16+0914SBQV V0200301N005112200019N0112651N1+02001+01701999999ADDMA1102001999999REMMET064METAR SBQV 301015Z SPECI 03010KT 9999 FEW020 BKN300 20/17 Q1020;
0143833440999992008103011004-14950-040883FM-15+0914SBQV V0200101N005710900019N0112651N1+02301+01701999999ADDGA1021+007501999GA2071+090001999GF107991999999999999999999MA1102101999999REMMET058METAR SBQV 301100Z 01011KT 9999 FEW025 BKN300 23/17 Q1021;
0143833440999992008103012004-14950-040883FM-15+0914SBQV V0200101N005112200019N0112651N1+02501+01601999999ADDGA1021+009001999GA2041+090001999GF104991999999999999999999MA1102101999999REMMET058METAR SBQV 301200Z 01010KT 9999 FEW030 SCT300 25/16 Q1021;
0143833440999992008103013004-14950-040883FM-15+0914SBQV V0200101N004110900019N0112651N1+02601+01501999999ADDGA1021+009001999GA2071+090001999GF107991999999999999999999MA1102001999999REMMET058METAR SBQV 301300Z 01008KT 9999 FEW030 BKN300 26/15 Q1020;
0143833440999992008103014004-14950-040883FM-15+0914SBQV V0200101N003110900019N0112651N1+02801+01401999999ADDGA1021+010501999GA2071+090001999GF107991999999999999999999MA1102001999999REMMET058METAR SBQV 301400Z 01006KT 9999 FEW035 BKN300 28/14 Q1020;
0143833440999992008103015004-14950-040883FM-15+0914SBQV V0200901N003110900019N0112651N1+03001+01301999999ADDGA1021+012001999GA2071+090001999GF107991999999999999999999MA1101901999999REMMET058METAR SBQV 301500Z 09006KT 9999 FEW040 BKN300 30/13 Q1019;
0143833440999992008103016004-14950-040883FM-15+0914SBQV V0200501N003110900019N0112651N1+03101+01401999999ADDGA1021+012001999GA2071+090001999GF107991999999999999999999MA1101801999999REMMET058METAR SBQV 301600Z 05006KT 9999 FEW040 BKN300 31/14 Q1018;
0143833440999992008103017004-14950-040883FM-15+0914SBQV V0200601N003110900019N0112651N1+03101+01301999999ADDGA1021+012001999GA2071+090001999GF107991999999999999999999MA1101691999999REMMET058METAR SBQV 301700Z 06006KT 9999 FEW040 BKN300 31/13 Q1017;
0143833440999992008103018004-14950-040883FM-15+0914SBQV V0200901N002110900019N0112651N1+03101+01101999999ADDGA1021+012001999GA2071+090001999GF107991999999999999999999MA1101591999999REMMET058METAR SBQV 301800Z 09004KT 9999 FEW040 BKN300 31/11 Q1016;
0143833440999992008103019004-14950-040883FM-15+0914SBQV V0201101N002110900019N0112651N1+03101+01201999999ADDGA1021+012001999GA2071+090001999GF107991999999999999999999MA1101591999999REMMET058METAR SBQV 301900Z 11004KT 9999 FEW040 BKN300 31/12 Q1016;
0072833440999992008103020004-14950-040883FM-15+0914SBQV V0200401N00261220001CN0099001N1+03101+01201999999ADDMA1101591999999REMMET045METAR SBQV 302000Z 04005KT CAVOK 31/12 Q1016;
0072833440999992008103021004-14950-040883FM-15+0914SBQV V0200701N00311220001CN0099001N1+02901+01201999999ADDMA1101691999999REMMET045METAR SBQV 302100Z 07006KT CAVOK 29/12 Q1017;
0072833440999992008103022004-14950-040883FM-15+0914SBQV V0201001N00411220001CN0099001N1+02601+01501999999ADDMA1101691999999REMMET045METAR SBQV 302200Z 10008KT CAVOK 26/15 Q1017;
0072833440999992008103111004-14950-040883FM-15+0914SBQV V0200201N00411220001CN0099001N1+02401+01801999999ADDMA1101901999999REMMET045METAR SBQV 311100Z 02008KT CAVOK 24/18 Q1019;
0072833440999992008103112004-14950-040883FM-15+0914SBQV V0200901N00151220001CN0099001N1+02701+01601999999ADDMA1102001999999REMMET045METAR SBQV 311200Z 09003KT CAVOK 27/16 Q1020;
0072833440999992008103113004-14950-040883FM-15+0914SBQV V0200501N00151220001CN0099001N1+02801+01601999999ADDMA1101901999999REMMET045METAR SBQV 311300Z 05003KT CAVOK 28/16 Q1019;
0120833440999992008103114004-14950-040883FM-15+0914SBQV V0200501N003112200019N0112651N1+03001+01601999999ADDGA1021+009001999GF102991999999999999999999MA1101801999999REMMET051METAR SBQV 311400Z 05006KT 9999 FEW030 30/16 Q1018;
0120833440999992008103115004-14950-040883FM-15+0914SBQV V0201101N003612200019N0112651N1+03201+01501999999ADDGA1021+010501999GF102991999999999999999999MA1101801999999REMMET051METAR SBQV 311500Z 11007KT 9999 FEW035 32/15 Q1018;
0120833440999992008103116004-14950-040883FM-15+0914SBQV V0201001N005112200019N0112651N1+03301+01401999999ADDGA1021+012001999GF102991999999999999999999MA1101691999999REMMET051METAR SBQV 311600Z 10010KT 9999 FEW040 33/14 Q1017;
0120833440999992008103117004-14950-040883FM-15+0914SBQV V0201001N005112200019N0112651N1+03301+01501999999ADDGA1021+012001999GF102991999999999999999999MA1101591999999REMMET051METAR SBQV 311700Z 10010KT 9999 FEW040 33/15 Q1016;
0120833440999992008103118004-14950-040883FM-15+0914SBQV V0201001N005112200019N0112651N1+03201+01601999999ADDGA1021+010501999GF102991999999999999999999MA1101591999999REMMET051METAR SBQV 311800Z 10010KT 9999 FEW035 32/16 Q1016;
0120833440999992008103119004-14950-040883FM-15+0914SBQV V0200901N004612200019N0112651N1+03101+01601999999ADDGA1021+009001999GF102991999999999999999999MA1101491999999REMMET051METAR SBQV 311900Z 09009KT 9999 FEW030 31/16 Q1015;
0120833440999992008103120004-14950-040883FM-15+0914SBQV V0200901N005112200019N0112651N1+03001+01601999999ADDGA1021+007501999GF102991999999999999999999MA1101491999999REMMET051METAR SBQV 312000Z 09010KT 9999 FEW025 30/16 Q1015;
0072833440999992008103121004-14950-040883FM-15+0914SBQV V0200801N00461220001CN0099001N1+02801+01701999999ADDMA1101591999999REMMET045METAR SBQV 312100Z 08009KT CAVOK 28/17 Q1016;
0072833440999992008103122004-14950-040883FM-15+0914SBQV V0200801N00461220001CN0099001N1+02701+01701999999ADDMA1101591999999REMMET045METAR SBQV 312200Z 08009KT CAVOK 27/17 Q1016;
0120833440999992008110106004-14950-040883FM-15+0914SBQV V0201001N003610027019N0112651N1+01901+01801999999ADDGA1071+002701999GF107991999999999999999999MA1101801999999REMMET051METAR SBQV 010600Z 10007KT 9999 BKN009 19/18 Q1018;
0084833440999992008110110154-14950-040883FM-16+0914SBQV V0200801N005112200019N0112651N1+02101+01601999999ADDMA1102101999999REMMET057METAR SBQV 011015Z SPECI 08010KT 9999 SCT012 21/16 Q1021;
0143833440999992008110111004-14950-040883FM-15+0914SBQV V0200801N005112200019N0112651N1+02301+01601999999ADDGA1021+003901999GA2041+004801999GF104991999999999999999999MA1102101999999REMMET058METAR SBQV 011100Z 08010KT 9999 FEW013 SCT016 23/16 Q1021;
0120833440999992008110112004-14950-040883FM-15+0914SBQV V0200701N005112200019N0112651N1+02501+01501999999ADDGA1021+007501999GF102991999999999999999999MA1102101999999REMMET051METAR SBQV 011200Z 07010KT 9999 FEW025 25/15 Q1021;
0120833440999992008110113004-14950-040883FM-15+0914SBQV V0200901N005712200019N0112651N1+02701+01401999999ADDGA1021+009001999GF102991999999999999999999MA1102101999999REMMET051METAR SBQV 011300Z 09011KT 9999 FEW030 27/14 Q1021;
0120833440999992008110114004-14950-040883FM-15+0914SBQV V0201001N004112200019N0112651N1+02801+01401999999ADDGA1021+010501999GF102991999999999999999999MA1102001999999REMMET051METAR SBQV 011400Z 10008KT 9999 FEW035 28/14 Q1020;
0120833440999992008110116004-14950-040883FM-15+0914SBQV V0201001N004612200019N0112651N1+03001+01301999999ADDGA1021+012001999GF102991999999999999999999MA1101901999999REMMET051METAR SBQV 011600Z 10009KT 9999 FEW040 30/13 Q1019;
0120833440999992008110117004-14950-040883FM-15+0914SBQV V0201001N004612200019N0112651N1+03001+01301999999ADDGA1021+012001999GF102991999999999999999999MA1101801999999REMMET051METAR SBQV 011700Z 10009KT 9999 FEW040 30/13 Q1018;
0120833440999992008110118004-14950-040883FM-15+0914SBQV V0200901N005112200019N0112651N1+03001+01401999999ADDGA1021+012001999GF102991999999999999999999MA1101691999999REMMET051METAR SBQV 011800Z 09010KT 9999 FEW040 30/14 Q1017;
0120833440999992008110119004-14950-040883FM-15+0914SBQV V0200801N006212200019N0112651N1+02901+01301999999ADDGA1021+010501999GF102991999999999999999999MA1101691999999REMMET051METAR SBQV 011900Z 08012KT 9999 FEW035 29/13 Q1017;
0120833440999992008110120004-14950-040883FM-15+0914SBQV V0200801N006212200019N0112651N1+02801+01401999999ADDGA1021+010501999GF102991999999999999999999MA1101691999999REMMET051METAR SBQV 012000Z 08012KT 9999 FEW035 28/14 Q1017;
0072833440999992008110121004-14950-040883FM-15+0914SBQV V0200901N00621220001CN0099001N1+02601+01401999999ADDMA1101801999999REMMET045METAR SBQV 012100Z 09012KT CAVOK 26/14 Q1018;
0072833440999992008110122004-14950-040883FM-15+0914SBQV V0200901N00621220001CN0099001N1+02501+01501999999ADDMA1101901999999REMMET045METAR SBQV 012200Z 09012KT CAVOK 25/15 Q1019;
0084833440999992008110210154-14950-040883FM-16+0914SBQV V0200801N005112200019N0112651N1+02101+01601999999ADDMA1102301999999REMMET057METAR SBQV 021015Z SPECI 08010KT 9999 FEW018 21/16 Q1023;
0120833440999992008110211004-14950-040883FM-15+0914SBQV V0200801N006712200019N0112651N1+02301+01501999999ADDGA1021+006001999GF102991999999999999999999MA1102301999999REMMET051METAR SBQV 021100Z 08013KT 9999 FEW020 23/15 Q1023;
0120833440999992008110212004-14950-040883FM-15+0914SBQV V0200701N006212200019N0112651N1+02501+01401999999ADDGA1021+007501999GF102991999999999999999999MA1102301999999REMMET051METAR SBQV 021200Z 07012KT 9999 FEW025 25/14 Q1023;
0120833440999992008110213004-14950-040883FM-15+0914SBQV V0200701N005712200019N0112651N1+02701+01301999999ADDGA1021+007501999GF102991999999999999999999MA1102301999999REMMET051METAR SBQV 021300Z 07011KT 9999 FEW025 27/13 Q1023;
0120833440999992008110214004-14950-040883FM-15+0914SBQV V0200901N006212200019N0112651N1+02801+01301999999ADDGA1021+009001999GF102991999999999999999999MA1102201999999REMMET051METAR SBQV 021400Z 09012KT 9999 FEW030 28/13 Q1022;
0120833440999992008110215004-14950-040883FM-15+0914SBQV V0200801N005112200019N0112651N1+02901+01301999999ADDGA1021+009001999GF102991999999999999999999MA1102101999999REMMET051METAR SBQV 021500Z 08010KT 9999 FEW030 29/13 Q1021;
0120833440999992008110216004-14950-040883FM-15+0914SBQV V0200901N004112200019N0112651N1+03001+01201999999ADDGA1021+010501999GF102991999999999999999999MA1102001999999REMMET051METAR SBQV 021600Z 09008KT 9999 FEW035 30/12 Q1020;
0120833440999992008110217004-14950-040883FM-15+0914SBQV V0201001N004612200019N0112651N1+03001+01001999999ADDGA1021+010501999GF102991999999999999999999MA1101901999999REMMET051METAR SBQV 021700Z 10009KT 9999 FEW035 30/10 Q1019;
0072833440999992008110218004-14950-040883FM-15+0914SBQV V0200901N00311220001CN0099001N1+03101+01001999999ADDMA1101801999999REMMET045METAR SBQV 021800Z 09006KT CAVOK 31/10 Q1018;
0072833440999992008110219004-14950-040883FM-15+0914SBQV V0201101N00411220001CN0099001N1+03001+01001999999ADDMA1101801999999REMMET045METAR SBQV 021900Z 11008KT CAVOK 30/10 Q1018;
0072833440999992008110220004-14950-040883FM-15+0914SBQV V0201101N00571220001CN0099001N1+02901+01101999999ADDMA1101801999999REMMET045METAR SBQV 022000Z 11011KT CAVOK 29/11 Q1018;
0072833440999992008110221004-14950-040883FM-15+0914SBQV V0201001N00461220001CN0099001N1+02701+01101999999ADDMA1101901999999REMMET045METAR SBQV 022100Z 10009KT CAVOK 27/11 Q1019;
0072833440999992008110222004-14950-040883FM-15+0914SBQV V0200901N00411220001CN0099001N1+02501+01101999999ADDMA1101901999999REMMET045METAR SBQV 022200Z 09008KT CAVOK 25/11 Q1019;
0072833440999992008110311004-14950-040883FM-15+0914SBQV V0200201N00361220001CN0099001N1+02401+01501999999ADDMA1102201999999REMMET045METAR SBQV 031100Z 02007KT CAVOK 24/15 Q1022;
0072833440999992008110312004-14950-040883FM-15+0914SBQV V0200101N00511220001CN0099001N1+02601+01501999999ADDMA1102201999999REMMET045METAR SBQV 031200Z 01010KT CAVOK 26/15 Q1022;
0072833440999992008110313004-14950-040883FM-15+0914SBQV V0200401N00511220001CN0099001N1+02901+01201999999ADDMA1102101999999REMMET045METAR SBQV 031300Z 04010KT CAVOK 29/12 Q1021;
0072833440999992008110314004-14950-040883FM-15+0914SBQV V0200301N00461220001CN0099001N1+03101+01101999999ADDMA1102101999999REMMET045METAR SBQV 031400Z 03009KT CAVOK 31/11 Q1021;
0120833440999992008110315004-14950-040883FM-15+0914SBQV V0200301N006212200019N0112651N1+03201+01101999999ADDGA1021+006001999GF102991999999999999999999MA1102001999999REMMET051METAR SBQV 031500Z 03012KT 9999 FEW020 32/11 Q1020;
0120833440999992008110316004-14950-040883FM-15+0914SBQV V0200101N005112200019N0112651N1+03301+00801999999ADDGA1021+009001999GF102991999999999999999999MA1101801999999REMMET051METAR SBQV 031600Z 01010KT 9999 FEW030 33/08 Q1018;
0120833440999992008110317004-14950-040883FM-15+0914SBQV V0200101N005712200019N0112651N1+03301+00801999999ADDGA1021+009001999GF102991999999999999999999MA1101801999999REMMET051METAR SBQV 031700Z 01011KT 9999 FEW030 33/08 Q1018;
0120833440999992008110318004-14950-040883FM-15+0914SBQV V0200601N003112200019N0112651N1+03401+00901999999ADDGA1021+009001999GF102991999999999999999999MA1101691999999REMMET051METAR SBQV 031800Z 06006KT 9999 FEW030 34/09 Q1017;
0120833440999992008110319004-14950-040883FM-15+0914SBQV V0200201N003612200019N0112651N1+03301+00901999999ADDGA1021+009001999GF102991999999999999999999MA1101591999999REMMET051METAR SBQV 031900Z 02007KT 9999 FEW030 33/09 Q1016;
0120833440999992008110320004-14950-040883FM-15+0914SBQV V0200301N004112200019N0112651N1+03201+00901999999ADDGA1021+009001999GF102991999999999999999999MA1101691999999REMMET051METAR SBQV 032000Z 03008KT 9999 FEW030 32/09 Q1017;
0120833440999992008110321004-14950-040883FM-15+0914SBQV V0200501N004112200019N0112651N1+03001+01101999999ADDGA1021+007501999GF102991999999999999999999MA1101691999999REMMET051METAR SBQV 032100Z 05008KT 9999 FEW025 30/11 Q1017;
0072833440999992008110322004-14950-040883FM-15+0914SBQV V0200601N00511220001CN0099001N1+02701+01301999999ADDMA1101801999999REMMET045METAR SBQV 032200Z 06010KT CAVOK 27/13 Q1018;
0072833440999992008110411004-14950-040883FM-15+0914SBQV V0200201N00621220001CN0099001N1+02701+01501999999ADDMA1101901999999REMMET045METAR SBQV 041100Z 02012KT CAVOK 27/15 Q1019;
0072833440999992008110412004-14950-040883FM-15+0914SBQV V0200101N00411220001CN0099001N1+03001+01301999999ADDMA1101901999999REMMET045METAR SBQV 041200Z 01008KT CAVOK 30/13 Q1019;
0072833440999992008110413004-14950-040883FM-15+0914SBQV V0200201N00461220001CN0099001N1+03201+00901999999ADDMA1101901999999REMMET045METAR SBQV 041300Z 02009KT CAVOK 32/09 Q1019;
0120833440999992008110414004-14950-040883FM-15+0914SBQV V0200101N004112200019N0112651N1+03301+00901999999ADDGA1021+012001999GF102991999999999999999999MA1101801999999REMMET051METAR SBQV 041400Z 01008KT 9999 FEW040 33/09 Q1018;
0120833440999992008110415004-14950-040883FM-15+0914SBQV V0200301N002112200019N0112651N1+03401+00701999999ADDGA1021+012001999GF102991999999999999999999MA1101691999999REMMET051METAR SBQV 041500Z 03004KT 9999 FEW040 34/07 Q1017;
0135833440999992008110416004-14950-040883FM-15+0914SBQV V0200401N004112200019N0112651N1+03401+00501999999ADDGA1021+012001999GF102991999999999999999999MA1101591999999MW1041REMMET060METAR SBQV 041600Z 04008KT 9999 2000S FU FEW040 34/05 Q1016;
0120833440999992008110417004-14950-040883FM-15+0914SBQV V0200401N003612200019N0112651N1+03401+00801999999ADDGA1021+012001999GF102991999999999999999999MA1101491999999REMMET051METAR SBQV 041700Z 04007KT 9999 FEW040 34/08 Q1015;
0120833440999992008110418004-14950-040883FM-15+0914SBQV V0200901N006212200019N0112651N1+03501+00901999999ADDGA1021+012001999GF102991999999999999999999MA1101491999999REMMET051METAR SBQV 041800Z 09012KT 9999 FEW040 35/09 Q1015;
0120833440999992008110419004-14950-040883FM-15+0914SBQV V0200701N004612200019N0112651N1+03401+00701999999ADDGA1021+012001999GF102991999999999999999999MA1101391999999REMMET051METAR SBQV 041900Z 07009KT 9999 FEW040 34/07 Q1014;
0120833440999992008110420004-14950-040883FM-15+0914SBQV V0200801N006712200019N0112651N1+03201+00701999999ADDGA1021+012001999GF102991999999999999999999MA1101491999999REMMET051METAR SBQV 042000Z 08013KT 9999 FEW040 32/07 Q1015;
0120833440999992008110421004-14950-040883FM-15+0914SBQV V0200801N005712200019N0060001N1+03001+00801999999ADDGA1021+010501999GF102991999999999999999999MA1101591999999REMMET051METAR SBQV 042100Z 08011KT 6000 FEW035 30/08 Q1016;
0120833440999992008110422004-14950-040883FM-15+0914SBQV V0200601N005712200019N0060001N1+02801+01101999999ADDGA1021+010501999GF102991999999999999999999MA1101591999999REMMET051METAR SBQV 042200Z 06011KT 6000 FEW035 28/11 Q1016;
0072833440999992008110511004-14950-040883FM-15+0914SBQV V0200201N00821220001CN0099001N1+02601+01301999999ADDMA1101901999999REMMET045METAR SBQV 051100Z 02016KT CAVOK 26/13 Q1019;
0072833440999992008110512004-14950-040883FM-15+0914SBQV V0200301N00511220001CN0099001N1+02901+01301999999ADDMA1101901999999REMMET045METAR SBQV 051200Z 03010KT CAVOK 29/13 Q1019;
0072833440999992008110513004-14950-040883FM-15+0914SBQV V0200401N00721220001CN0099001N1+03001+01201999999ADDMA1101901999999REMMET045METAR SBQV 051300Z 04014KT CAVOK 30/12 Q1019;
0072833440999992008110514004-14950-040883FM-15+0914SBQV V0200401N00721220001CN0099001N1+03201+01101999999ADDMA1101801999999REMMET045METAR SBQV 051400Z 04014KT CAVOK 32/11 Q1018;
0083833440999992008110515004-14950-040883FM-15+0914SBQV V0200501N00571220001CN0099001N1+03301+01001999999ADDMA1101691999999OC101131REMMET048METAR SBQV 051500Z 05011G22KT CAVOK 33/10 Q1017;
0120833440999992008110516004-14950-040883FM-15+0914SBQV V0200601N006212200019N0112651N1+03301+00901999999ADDGA1021+012001999GF102991999999999999999999MA1101591999999REMMET051METAR SBQV 051600Z 06012KT 9999 FEW040 33/09 Q1016;
0131833440999992008110517004-14950-040883FM-15+0914SBQV V0200501N005712200019N0112651N1+03301+01001999999ADDGA1021+012001999GF102991999999999999999999MA1101491999999OC101391REMMET054METAR SBQV 051700Z 05011G27KT 9999 FEW040 33/10 Q1015;
0120833440999992008110518004-14950-040883FM-15+0914SBQV V0200601N005112200019N0112651N1+03401+01001999999ADDGA1021+012001999GF102991999999999999999999MA1101491999999REMMET051METAR SBQV 051800Z 06010KT 9999 FEW040 34/10 Q1015;
0120833440999992008110519004-14950-040883FM-15+0914SBQV V0200501N005112200019N0112651N1+03201+01201999999ADDGA1021+010501999GF102991999999999999999999MA1101491999999REMMET051METAR SBQV 051900Z 05010KT 9999 FEW035 32/12 Q1015;
0072833440999992008110520004-14950-040883FM-15+0914SBQV V0200601N00621220001CN0099001N1+03101+01301999999ADDMA1101491999999REMMET045METAR SBQV 052000Z 06012KT CAVOK 31/13 Q1015;
0072833440999992008110521004-14950-040883FM-15+0914SBQV V0200601N00671220001CN0099001N1+02901+01401999999ADDMA1101591999999REMMET045METAR SBQV 052100Z 06013KT CAVOK 29/14 Q1016;
0072833440999992008110522004-14950-040883FM-15+0914SBQV V0200601N00671220001CN0099001N1+02601+01701999999ADDMA1101591999999REMMET045METAR SBQV 052200Z 06013KT CAVOK 26/17 Q1016;
0072833440999992008110601004-14950-040883FM-15+0914SBQV V0200401N00771220001CN0099001N1+02301+01701999999ADDMA1101801999999REMMET045METAR SBQV 060100Z 04015KT CAVOK 23/17 Q1018;
0072833440999992008110611004-14950-040883FM-15+0914SBQV V0200201N00821220001CN0099001N1+02401+01401999999ADDMA1101901999999REMMET045METAR SBQV 061100Z 02016KT CAVOK 24/14 Q1019;
0083833440999992008110612004-14950-040883FM-15+0914SBQV V0200401N00571220001CN0099001N1+02601+01201999999ADDMA1101901999999OC101231REMMET048METAR SBQV 061200Z 04011G24KT CAVOK 26/12 Q1019;
0072833440999992008110613004-14950-040883FM-15+0914SBQV V0200401N00671220001CN0099001N1+02901+01301999999ADDMA1101801999999REMMET045METAR SBQV 061300Z 04013KT CAVOK 29/13 Q1018;
0072833440999992008110614004-14950-040883FM-15+0914SBQV V0200201N00571220001CN0099001N1+03101+01001999999ADDMA1101801999999REMMET045METAR SBQV 061400Z 02011KT CAVOK 31/10 Q1018;
0072833440999992008110615004-14950-040883FM-15+0914SBQV V0200401N00511220001CN0099001N1+03201+01101999999ADDMA1101691999999REMMET045METAR SBQV 061500Z 04010KT CAVOK 32/11 Q1017;
0072833440999992008110616004-14950-040883FM-15+0914SBQV V0203601N00411220001CN0099001N1+03201+01001999999ADDMA1101491999999REMMET045METAR SBQV 061600Z 36008KT CAVOK 32/10 Q1015;
0072833440999992008110617004-14950-040883FM-15+0914SBQV V0200401N00461220001CN0099001N1+03401+01101999999ADDMA1101491999999REMMET045METAR SBQV 061700Z 04009KT CAVOK 34/11 Q1015;
0072833440999992008110618004-14950-040883FM-15+0914SBQV V0200301N00361220001CN0099001N1+03301+00901999999ADDMA1101391999999REMMET045METAR SBQV 061800Z 03007KT CAVOK 33/09 Q1014;
0072833440999992008110619004-14950-040883FM-15+0914SBQV V0200601N00461220001CN0099001N1+03401+00901999999ADDMA1101291999999REMMET045METAR SBQV 061900Z 06009KT CAVOK 34/09 Q1013;
0143833440999992008110620004-14950-040883FM-15+0914SBQV V0200401N005112200019N0112651N1+03201+01001999999ADDGA1021+012001999GA2041+090001999GF104991999999999999999999MA1101391999999REMMET058METAR SBQV 062000Z 04010KT 9999 FEW040 SCT300 32/10 Q1014;
0072833440999992008110621004-14950-040883FM-15+0914SBQV V0200701N00571220001CN0099001N1+02901+01401999999ADDMA1101391999999REMMET045METAR SBQV 062100Z 07011KT CAVOK 29/14 Q1014;
0072833440999992008110622004-14950-040883FM-15+0914SBQV V0200601N00621220001CN0099001N1+02701+01601999999ADDMA1101391999999REMMET045METAR SBQV 062200Z 06012KT CAVOK 27/16 Q1014;
0072833440999992008110711004-14950-040883FM-15+0914SBQV V0200101N00871220001CN0099001N1+02401+01301999999ADDMA1101691999999REMMET045METAR SBQV 071100Z 01017KT CAVOK 24/13 Q1017;
0072833440999992008110713004-14950-040883FM-15+0914SBQV V0200101N00721220001CN0099001N1+02801+01301999999ADDMA1101691999999REMMET045METAR SBQV 071300Z 01014KT CAVOK 28/13 Q1017;
0072833440999992008110714004-14950-040883FM-15+0914SBQV V0203401N00571220001CN0099001N1+02801+01301999999ADDMA1101691999999REMMET045METAR SBQV 071400Z 34011KT CAVOK 28/13 Q1017;
0143833440999992008110716004-14950-040883FM-15+0914SBQV V0200201N004110900019N0112651N1+03201+01101999999ADDGA1021+012001999GA2071+090001999GF107991999999999999999999MA1101491999999REMMET058METAR SBQV 071600Z 02008KT 9999 FEW040 BKN300 32/11 Q1015;
0143833440999992008110717004-14950-040883FM-15+0914SBQV V0200101N002110900019N0112651N1+03301+01101999999ADDGA1021+012001999GA2071+090001999GF107991999999999999999999MA1101391999999REMMET058METAR SBQV 071700Z 01004KT 9999 FEW040 BKN300 33/11 Q1014;
0120833440999992008110719004-14950-040883FM-15+0914SBQV V0200301N002612200019N0112651N1+03301+01101999999ADDGA1021+012001999GF102991999999999999999999MA1101291999999REMMET051METAR SBQV 071900Z 03005KT 9999 FEW040 33/11 Q1013;
0072833440999992008110720004-14950-040883FM-15+0914SBQV V0201201N00051220001CN0099001N1+03201+01101999999ADDMA1101291999999REMMET045METAR SBQV 072000Z 12001KT CAVOK 32/11 Q1013;
0072833440999992008110721004-14950-040883FM-15+0914SBQV V0200801N00511220001CN0099001N1+02901+01501999999ADDMA1101291999999REMMET045METAR SBQV 072100Z 08010KT CAVOK 29/15 Q1013;
0072833440999992008110722004-14950-040883FM-15+0914SBQV V0200901N00461220001CN0099001N1+02801+01401999999ADDMA1101391999999REMMET045METAR SBQV 072200Z 09009KT CAVOK 28/14 Q1014;
0072833440999992008110802004-14950-040883FM-15+0914SBQV V0201001N00411220001CN0099001N1+02301+01801999999ADDMA1101591999999REMMET045METAR SBQV 080200Z 10008KT CAVOK 23/18 Q1016;
0072833440999992008110803004-14950-040883FM-15+0914SBQV V0201001N00411220001CN0099001N1+02201+01901999999ADDMA1101491999999REMMET045METAR SBQV 080300Z 10008KT CAVOK 22/19 Q1015;
0120833440999992008110811004-14950-040883FM-15+0914SBQV V0200101N002612200019N0112651N1+02501+01701999999ADDGA1021+005401999GF102991999999999999999999MA1101691999999REMMET051METAR SBQV 081100Z 01005KT 9999 FEW018 25/17 Q1017;
0143833440999992008110812004-14950-040883FM-15+0914SBQV V0200401N004112200019N0112651N1+02701+01501999999ADDGA1021+006001999GA2041+090001999GF104991999999999999999999MA1101801999999REMMET058METAR SBQV 081200Z 04008KT 9999 FEW020 SCT300 27/15 Q1018;
0120833440999992008110813004-14950-040883FM-15+0914SBQV V0200201N002112200019N0112651N1+02901+01301999999ADDGA1021+007501999GF102991999999999999999999MA1101691999999REMMET051METAR SBQV 081300Z 02004KT 9999 FEW025 29/13 Q1017;
0072833440999992008110814004-14950-040883FM-15+0914SBQV V0203201N00261220001CN0099001N1+03001+01401999999ADDMA1101691999999REMMET045METAR SBQV 081400Z 32005KT CAVOK 30/14 Q1017;
0120833440999992008110815004-14950-040883FM-15+0914SBQV V0203101N003112200019N0112651N1+03101+01301999999ADDGA1021+009001999GF102991999999999999999999MA1101591999999REMMET051METAR SBQV 081500Z 31006KT 9999 FEW030 31/13 Q1016;
0120833440999992008110816004-14950-040883FM-15+0914SBQV V0203301N003112200019N0112651N1+03201+01401999999ADDGA1021+012001999GF102991999999999999999999MA1101491999999REMMET051METAR SBQV 081600Z 33006KT 9999 FEW040 32/14 Q1015;
0120833440999992008110817004-14950-040883FM-15+0914SBQV V0200401N001012200019N0112651N1+03101+01301999999ADDGA1021+012001999GF102991999999999999999999MA1101391999999REMMET051METAR SBQV 081700Z 04002KT 9999 FEW040 31/13 Q1014;
0123833440999992008110818004-14950-040883FM-15+0914SBQV V0201001N001512200019N0112651N1+03101+01401999999ADDGA1021+010501021GF102991999999999999999999MA1101391999999REMMET054METAR SBQV 081800Z 10003KT 9999 FEW035TCU 31/14 Q1014;
0120833440999992008110820004-14950-040883FM-15+0914SBQV V0200801N005712200019N0112651N1+03001+01501999999ADDGA1021+010501999GF102991999999999999999999MA1101391999999REMMET051METAR SBQV 082000Z 08011KT 9999 FEW035 30/15 Q1014;
0146833440999992008110821004-14950-040883FM-15+0914SBQV V0201001N004612200019N0112651N1+02801+01501999999ADDGA1021+007501999GA2021+009001021GF102991999999999999999999MA1101391999999REMMET061METAR SBQV 082100Z 10009KT 9999 FEW025 FEW030TCU 28/15 Q1014;
0072833440999992008110822004-14950-040883FM-15+0914SBQV V0201101N00361220001CN0099001N1+02701+01501999999ADDMA1101491999999REMMET045METAR SBQV 082200Z 11007KT CAVOK 27/15 Q1015;
0072833440999992008110911004-14950-040883FM-15+0914SBQV V0200201N00311220001CN0099001N1+02201+01901999999ADDMA1101801999999REMMET045METAR SBQV 091100Z 02006KT CAVOK 22/19 Q1018;
0072833440999992008110912004-14950-040883FM-15+0914SBQV V0200201N00361220001CN0099001N1+02501+01701999999ADDMA1101691999999REMMET045METAR SBQV 091200Z 02007KT CAVOK 25/17 Q1017;
0072833440999992008110913004-14950-040883FM-15+0914SBQV V0200201N00361220001CN0099001N1+02801+01201999999ADDMA1101691999999REMMET045METAR SBQV 091300Z 02007KT CAVOK 28/12 Q1017;
0072833440999992008110914004-14950-040883FM-15+0914SBQV V0200401N00361220001CN0099001N1+02901+01201999999ADDMA1101691999999REMMET045METAR SBQV 091400Z 04007KT CAVOK 29/12 Q1017;
0072833440999992008110915004-14950-040883FM-15+0914SBQV V0200401N00261220001CN0099001N1+03001+01201999999ADDMA1101591999999REMMET045METAR SBQV 091500Z 04005KT CAVOK 30/12 Q1016;
0120833440999992008110916004-14950-040883FM-15+0914SBQV V0200201N003612200019N0112651N1+03101+01201999999ADDGA1021+012001999GF102991999999999999999999MA1101491999999REMMET051METAR SBQV 091600Z 02007KT 9999 FEW040 31/12 Q1015;
0143833440999992008110917004-14950-040883FM-15+0914SBQV V0203501N003612200019N0112651N1+03101+01301999999ADDGA1021+012001999GA2041+030001999GF104991999999999999999999MA1101391999999REMMET058METAR SBQV 091700Z 35007KT 9999 FEW040 SCT100 31/13 Q1014;
0143833440999992008110918004-14950-040883FM-15+0914SBQV V0203401N004112200019N0112651N1+03201+01301999999ADDGA1021+012001999GA2041+030001999GF104991999999999999999999MA1101391999999REMMET058METAR SBQV 091800Z 34008KT 9999 FEW040 SCT100 32/13 Q1014;
0143833440999992008110919004-14950-040883FM-15+0914SBQV V0200301N005112200019N0112651N1+03101+01301999999ADDGA1021+012001999GA2041+090001999GF104991999999999999999999MA1101291999999REMMET058METAR SBQV 091900Z 03010KT 9999 FEW040 SCT300 31/13 Q1013;
0072833440999992008110920004-14950-040883FM-15+0914SBQV V0200501N00511220001CN0099001N1+02901+01401999999ADDMA1101391999999REMMET045METAR SBQV 092000Z 05010KT CAVOK 29/14 Q1014;
0072833440999992008110921004-14950-040883FM-15+0914SBQV V0200501N00411220001CN0099001N1+02801+01401999999ADDMA1101491999999REMMET045METAR SBQV 092100Z 05008KT CAVOK 28/14 Q1015;
0072833440999992008110922004-14950-040883FM-15+0914SBQV V0200601N00411220001CN0099001N1+02701+01401999999ADDMA1101491999999REMMET045METAR SBQV 092200Z 06008KT CAVOK 27/14 Q1015;
0072833440999992008111011004-14950-040883FM-15+0914SBQV V0200101N00511220001CN0099001N1+02301+01501999999ADDMA1101801999999REMMET045METAR SBQV 101100Z 01010KT CAVOK 23/15 Q1018;
0072833440999992008111012004-14950-040883FM-15+0914SBQV V0200201N00461220001CN0099001N1+02501+01301999999ADDMA1101801999999REMMET045METAR SBQV 101200Z 02009KT CAVOK 25/13 Q1018;
0072833440999992008111013004-14950-040883FM-15+0914SBQV V0200301N00621220001CN0099001N1+02701+01301999999ADDMA1101801999999REMMET045METAR SBQV 101300Z 03012KT CAVOK 27/13 Q1018;
0143833440999992008111014004-14950-040883FM-15+0914SBQV V0203501N003112200019N0112651N1+02801+01401999999ADDGA1021+006001999GA2041+027001999GF104991999999999999999999MA1101801999999REMMET058METAR SBQV 101400Z 35006KT 9999 FEW020 SCT090 28/14 Q1018;
0143833440999992008111015004-14950-040883FM-15+0914SBQV V0203401N004110270019N0112651N1+02801+01301999999ADDGA1021+007501999GA2071+027001999GF107991999999999999999999MA1101801999999REMMET058METAR SBQV 101500Z 34008KT 9999 FEW025 BKN090 28/13 Q1018;
0143833440999992008111016004-14950-040883FM-15+0914SBQV V0203401N002610270019N0112651N1+02901+01301999999ADDGA1021+007501999GA2071+027001999GF107991999999999999999999MA1101691999999REMMET058METAR SBQV 101600Z 34005KT 9999 FEW025 BKN090 29/13 Q1017;
0143833440999992008111017004-14950-040883FM-15+0914SBQV V0203401N002610270019N0112651N1+02901+01301999999ADDGA1021+009001999GA2071+027001999GF107991999999999999999999MA1101591999999REMMET058METAR SBQV 101700Z 34005KT 9999 FEW030 BKN090 29/13 Q1016;
0143833440999992008111018004-14950-040883FM-15+0914SBQV V0200101N003612200019N0112651N1+03001+01401999999ADDGA1021+009001999GA2041+027001999GF104991999999999999999999MA1101491999999REMMET058METAR SBQV 101800Z 01007KT 9999 FEW030 SCT090 30/14 Q1015;
0143833440999992008111019004-14950-040883FM-15+0914SBQV V0203501N002112200019N0112651N1+03001+01401999999ADDGA1021+009001999GA2041+090001999GF104991999999999999999999MA1101391999999REMMET058METAR SBQV 101900Z 35004KT 9999 FEW030 SCT300 30/14 Q1014;
0120833440999992008111020004-14950-040883FM-15+0914SBQV V0203601N001512200019N0112651N1+02901+01401999999ADDGA1021+009001999GF102991999999999999999999MA1101391999999REMMET051METAR SBQV 102000Z 36003KT 9999 FEW030 29/14 Q1014;
0072833440999992008111021004-14950-040883FM-15+0914SBQV V0200401N00101220001CN0099001N1+02801+01301999999ADDMA1101491999999REMMET045METAR SBQV 102100Z 04002KT CAVOK 28/13 Q1015;
0072833440999992008111022004-14950-040883FM-15+0914SBQV V0209999C00001220001CN0099001N1+02801+01301999999ADDMA1101491999999REMMET045METAR SBQV 102200Z 00000KT CAVOK 28/13 Q1015;
0143833440999992008111111004-14950-040883FM-15+0914SBQV V0203401N002610210019N0112651N1+02401+01801999999ADDGA1041+004501999GA2071+021001999GF107991999999999999999999MA1101801999999REMMET058METAR SBQV 111100Z 34005KT 9999 SCT015 BKN070 24/18 Q1018;
0143833440999992008111112004-14950-040883FM-15+0914SBQV V0203401N003112200019N0112651N1+02401+01801999999ADDGA1041+005401999GA2041+024001999GF104991999999999999999999MA1101801999999REMMET058METAR SBQV 111200Z 34006KT 9999 SCT018 SCT080 24/18 Q1018;
0136833440999992008111113004-14950-040883FM-15+0914SBQV V0203501N00311220001CN0112651N1+02501+01801999999ADDGA1071+005401999GA2041+024001999MA1101801999999REMMET058METAR SBQV 111300Z 35006KT 9999 BKN018 SCT080 25/18 Q1018;EQDQ01+000042SCOTCV
0143833440999992008111114004-14950-040883FM-15+0914SBQV V0203101N001010240019N0112651N1+02501+01701999999ADDGA1041+005401999GA2071+024001999GF107991999999999999999999MA1101691999999REMMET058METAR SBQV 111400Z 31002KT 9999 SCT018 BKN080 25/17 Q1017;
0143833440999992008111115004-14950-040883FM-15+0914SBQV V0202001N002610240019N0112651N1+02401+01901999999ADDGA1041+005401999GA2071+024001999GF107991999999999999999999MA1101691999999REMMET058METAR SBQV 111500Z 20005KT 9999 SCT018 BKN080 24/19 Q1017;
0166833440999992008111116004-14950-040883FM-15+0914SBQV V0201701N00211005401CN0112651N1+02501+01901999999ADDGA1021+004801999GA2041+005401999GA3081+024001999GF108991999999999999999999MA1101591999999REMMET065METAR SBQV 111600Z 17004KT 9999 FEW016 SCT018 OVC080 25/19 Q1016;
0143833440999992008111117004-14950-040883FM-15+0914SBQV V0201201N003110240019N0112651N1+02401+01901999999ADDGA1021+004801999GA2081+024001999GF108991999999999999999999MA1101491999999REMMET058METAR SBQV 111700Z 12006KT 9999 FEW016 OVC080 24/19 Q1015;
0143833440999992008111118004-14950-040883FM-15+0914SBQV V0201301N003610240019N0112651N1+02501+01901999999ADDGA1021+006001999GA2071+024001999GF107991999999999999999999MA1101391999999REMMET058METAR SBQV 111800Z 13007KT 9999 FEW020 BKN080 25/19 Q1014;
0143833440999992008111119004-14950-040883FM-15+0914SBQV V0201401N004110240019N0112651N1+02501+01901999999ADDGA1021+006001999GA2071+024001999GF107991999999999999999999MA1101391999999REMMET058METAR SBQV 111900Z 14008KT 9999 FEW020 BKN080 25/19 Q1014;
0072833440999992008111120004-14950-040883FM-15+0914SBQV V0201201N00461220001CN0099001N1+02501+02001999999ADDMA1101391999999REMMET045METAR SBQV 112000Z 12009KT CAVOK 25/20 Q1014;
0143833440999992008111121004-14950-040883FM-15+0914SBQV V0201301N003610240019N0112651N1+02301+01901999999ADDGA1021+004801999GA2071+024001999GF107991999999999999999999MA1101491999999REMMET058METAR SBQV 112100Z 13007KT 9999 FEW016 BKN080 23/19 Q1015;
0072833440999992008111122004-14950-040883FM-15+0914SBQV V0201401N00311220001CN0099001N1+02201+01901999999ADDMA1101491999999REMMET045METAR SBQV 112200Z 14006KT CAVOK 22/19 Q1015;
0143833440999992008111200004-14950-040883FM-15+0914SBQV V0201001N003612200019N0112651N1+02201+01901999999ADDGA1021+003901999GA2041+021001999GF104991999999999999999999MA1101691999999REMMET058METAR SBQV 120000Z 10007KT 9999 FEW013 SCT070 22/19 Q1017;
0143833440999992008111201004-14950-040883FM-15+0914SBQV V0201301N003112200019N0112651N1+02101+02001999999ADDGA1021+002701999GA2041+003001999GF104991999999999999999999MA1101691999999REMMET058METAR SBQV 120100Z 13006KT 9999 FEW009 SCT010 21/20 Q1017;
0143833440999992008111202004-14950-040883FM-15+0914SBQV V0201001N003112200019N0112651N1+02101+02001999999ADDGA1041+003001999GA2041+021001999GF104991999999999999999999MA1101591999999REMMET058METAR SBQV 120200Z 10006KT 9999 SCT010 SCT070 21/20 Q1016;
0143833440999992008111203004-14950-040883FM-15+0914SBQV V0201001N003610210019N0112651N1+02101+02001999999ADDGA1021+003001999GA2071+021001999GF107991999999999999999999MA1101491999999REMMET058METAR SBQV 120300Z 10007KT 9999 FEW010 BKN070 21/20 Q1015;
0143833440999992008111211004-14950-040883FM-15+0914SBQV V0200401N005112200019N0112651N1+02401+01801999999ADDGA1021+004501999GA2041+027001999GF104991999999999999999999MA1101591999999REMMET058METAR SBQV 121100Z 04010KT 9999 FEW015 SCT090 24/18 Q1016;
0120833440999992008111212004-14950-040883FM-15+0914SBQV V0200301N003610054019N0112651N1+02401+01801999999ADDGA1071+005401999GF107991999999999999999999MA1101691999999REMMET051METAR SBQV 121200Z 03007KT 9999 BKN018 24/18 Q1017;
0120833440999992008111213004-14950-040883FM-15+0914SBQV V0200301N003610060019N0112651N1+02501+01801999999ADDGA1071+006001999GF107991999999999999999999MA1101691999999REMMET051METAR SBQV 121300Z 03007KT 9999 BKN020 25/18 Q1017;
0120833440999992008111214004-14950-040883FM-15+0914SBQV V0200401N004610060019N0112651N1+02701+01801999999ADDGA1071+006001999GF107991999999999999999999MA1101591999999REMMET051METAR SBQV 121400Z 04009KT 9999 BKN020 27/18 Q1016;
0120833440999992008111215004-14950-040883FM-15+0914SBQV V0200501N003610060019N0112651N1+02801+01801999999ADDGA1071+006001999GF107991999999999999999999MA1101491999999REMMET051METAR SBQV 121500Z 05007KT 9999 BKN020 28/18 Q1015;
0120833440999992008111216004-14950-040883FM-15+0914SBQV V0200601N004110060019N0112651N1+02801+01701999999ADDGA1071+006001999GF107991999999999999999999MA1101391999999REMMET051METAR SBQV 121600Z 06008KT 9999 BKN020 28/17 Q1014;
0120833440999992008111217004-14950-040883FM-15+0914SBQV V0200401N005110060019N0112651N1+02801+01701999999ADDGA1071+006001999GF107991999999999999999999MA1101291999999REMMET051METAR SBQV 121700Z 04010KT 9999 BKN020 28/17 Q1013;
0139833440999992008111218004-14950-040883FM-15+0914SBQV V0200501N005712200019N0112651N1+02801+01801999999ADDGA1041+006001999GA2021+007501021MA1101191999999REMMET061METAR SBQV 121800Z 05011KT 9999 SCT020 FEW025TCU 28/18 Q1012;EQDQ01+000022SCOTCV
0139833440999992008111219004-14950-040883FM-15+0914SBQV V0200601N005112200019N0112651N1+02701+01801999999ADDGA1041+006001999GA2021+007501021MA1101191999999REMMET061METAR SBQV 121900Z 06010KT 9999 SCT020 FEW025TCU 27/18 Q1012;EQDQ01+000022SCOTCV
0169833440999992008111220004-14950-040883FM-15+0914SBQV V0200701N005112200019N0112651N1+02601+01801999999ADDGA1021+006001999GA2021+006001021GA3041+027001999GF104991999999999999999999MA1101191999999REMMET068METAR SBQV 122000Z 07010KT 9999 FEW020 FEW020TCU SCT090 26/18 Q1012;
0072833440999992008111221004-14950-040883FM-15+0914SBQV V0200701N00571220001CN0099001N1+02401+01901999999ADDMA1101291999999REMMET045METAR SBQV 122100Z 07011KT CAVOK 24/19 Q1013;
0143833440999992008111222004-14950-040883FM-15+0914SBQV V0200801N005110240019N0112651N1+02301+01901999999ADDGA1021+004801999GA2081+024001999GF108991999999999999999999MA1101391999999REMMET058METAR SBQV 122200Z 08010KT 9999 FEW016 OVC080 23/19 Q1014;
0143833440999992008111311004-14950-040883FM-15+0914SBQV V0200701N005110045019N0112651N1+02201+01701999999ADDGA1071+004501999GA2071+024001999GF107991999999999999999999MA1101591999999REMMET058METAR SBQV 131100Z 07010KT 9999 BKN015 BKN080 22/17 Q1016;
0143833440999992008111312004-14950-040883FM-15+0914SBQV V0200401N005110270019N0112651N1+02401+01601999999ADDGA1041+004801999GA2071+027001999GF107991999999999999999999MA1101691999999REMMET058METAR SBQV 131200Z 04010KT 9999 SCT016 BKN090 24/16 Q1017;
0154833440999992008111313004-14950-040883FM-15+0914SBQV V0200301N005710270019N0112651N1+02601+01601999999ADDGA1021+005401999GA2071+027001999GF107991999999999999999999MA1101591999999OC101231REMMET061METAR SBQV 131300Z 03011G24KT 9999 FEW018 BKN090 26/16 Q1016;
0166833440999992008111314004-14950-040883FM-15+0914SBQV V0200301N004110270019N0112651N1+02601+01501999999ADDGA1021+005401999GA2071+027001999GA3071+090001999GF107991999999999999999999MA1101591999999REMMET065METAR SBQV 131400Z 03008KT 9999 FEW018 BKN090 BKN300 26/15 Q1016;
0166833440999992008111315004-14950-040883FM-15+0914SBQV V0200701N004110270019N0112651N1+02701+01501999999ADDGA1021+006001999GA2071+027001999GA3071+090001999GF107991999999999999999999MA1101491999999REMMET065METAR SBQV 131500Z 07008KT 9999 FEW020 BKN090 BKN300 27/15 Q1015;
0143833440999992008111316004-14950-040883FM-15+0914SBQV V0200501N004112200019N0112651N1+02901+01501999999ADDGA1041+009001999GA2041+030001999GF104991999999999999999999MA1101391999999REMMET058METAR SBQV 131600Z 05008KT 9999 SCT030 SCT100 29/15 Q1014;
0136833440999992008111317004-14950-040883FM-15+0914SBQV V0200201N00361220001CN0112651N1+02801+01501999999ADDGA1071+009001999GA2041+030001999MA1101291999999REMMET058METAR SBQV 131700Z 02007KT 9999 BKN030 SCT100 28/15 Q1013;EQDQ01+000042SCOTCV
0143833440999992008111318004-14950-040883FM-15+0914SBQV V0200501N004112200019N0112651N1+02801+01501999999ADDGA1041+009001999GA2041+030001999GF104991999999999999999999MA1101291999999REMMET058METAR SBQV 131800Z 05008KT 9999 SCT030 SCT100 28/15 Q1013;
0143833440999992008111319004-14950-040883FM-15+0914SBQV V0200401N003610270019N0112651N1+02701+01501999999ADDGA1041+007501999GA2071+027001999GF107991999999999999999999MA1101291999999REMMET058METAR SBQV 131900Z 04007KT 9999 SCT025 BKN090 27/15 Q1013;
0143833440999992008111320004-14950-040883FM-15+0914SBQV V0200901N004610270019N0112651N1+02601+01701999999ADDGA1041+007501999GA2071+027001999GF107991999999999999999999MA1101291999999REMMET058METAR SBQV 132000Z 09009KT 9999 SCT025 BKN090 26/17 Q1013;
0143833440999992008111321004-14950-040883FM-15+0914SBQV V0201001N004610240019N0112651N1+02501+01601999999ADDGA1021+006001999GA2071+024001999GF107991999999999999999999MA1101391999999REMMET058METAR SBQV 132100Z 10009KT 9999 FEW020 BKN080 25/16 Q1014;
0072833440999992008111322004-14950-040883FM-15+0914SBQV V0201001N00411220001CN0099001N1+02501+01601999999ADDMA1101391999999REMMET045METAR SBQV 132200Z 10008KT CAVOK 25/16 Q1014;
0086833440999992008111411004-14950-040883FM-15+0914SBQV V0200301N003112200019N0112651N1+02201+01901999999ADDMA1101801999999REMMET059METAR SBQV 141100Z 03006KT 99999 BKN015 SCT080 22/19 Q1018;
0143833440999992008111412004-14950-040883FM-15+0914SBQV V0200301N003110060019N0112651N1+02301+01801999999ADDGA1041+004801999GA2071+006001999GF107991999999999999999999MA1101691999999REMMET058METAR SBQV 141200Z 03006KT 9999 SCT016 BKN020 23/18 Q1017;
0120833440999992008111413004-14950-040883FM-15+0914SBQV V0200101N004610075019N0112651N1+02401+01801999999ADDGA1071+007501999GF107991999999999999999999MA1101691999999REMMET051METAR SBQV 141300Z 01009KT 9999 BKN025 24/18 Q1017;
0120833440999992008111414004-14950-040883FM-15+0914SBQV V0200401N004610090019N0112651N1+02701+01801999999ADDGA1071+009001999GF107991999999999999999999MA1101591999999REMMET051METAR SBQV 141400Z 04009KT 9999 BKN030 27/18 Q1016;
0120833440999992008111415004-14950-040883FM-15+0914SBQV V0200101N003610090019N0112651N1+02701+01701999999ADDGA1071+009001999GF107991999999999999999999MA1101591999999REMMET051METAR SBQV 141500Z 01007KT 9999 BKN030 27/17 Q1016;
0120833440999992008111416004-14950-040883FM-15+0914SBQV V0200301N003110090019N0112651N1+02701+01701999999ADDGA1071+009001999GF107991999999999999999999MA1101491999999REMMET051METAR SBQV 141600Z 03006KT 9999 BKN030 27/17 Q1015;
0120833440999992008111417004-14950-040883FM-15+0914SBQV V0200101N003610090019N0112651N1+02801+01601999999ADDGA1071+009001999GF107991999999999999999999MA1101391999999REMMET051METAR SBQV 141700Z 01007KT 9999 BKN030 28/16 Q1014;
0120833440999992008111418004-14950-040883FM-15+0914SBQV V0200201N003110090019N0112651N1+03001+01601999999ADDGA1071+009001999GF107991999999999999999999MA1101291999999REMMET051METAR SBQV 141800Z 02006KT 9999 BKN030 30/16 Q1013;
0120833440999992008111419004-14950-040883FM-15+0914SBQV V0200801N003612200019N0112651N1+03001+01601999999ADDGA1041+009001999GF104991999999999999999999MA1101291999999REMMET051METAR SBQV 141900Z 08007KT 9999 SCT030 30/16 Q1013;
0120833440999992008111420004-14950-040883FM-15+0914SBQV V0200601N004112200019N0112651N1+02901+01701999999ADDGA1041+009001999GF104991999999999999999999MA1101291999999REMMET051METAR SBQV 142000Z 06008KT 9999 SCT030 29/17 Q1013;
0120833440999992008111421004-14950-040883FM-15+0914SBQV V0200801N004612200019N0112651N1+02601+01801999999ADDGA1021+007501999GF102991999999999999999999MA1101291999999REMMET051METAR SBQV 142100Z 08009KT 9999 FEW025 26/18 Q1013;
0072833440999992008111422004-14950-040883FM-15+0914SBQV V0200801N00511220001CN0099001N1+02401+01901999999ADDMA1101391999999REMMET045METAR SBQV 142200Z 08010KT CAVOK 24/19 Q1014;
0143833440999992008111511004-14950-040883FM-15+0914SBQV V0200201N008212200019N0112651N1+02301+01601999999ADDGA1021+004801999GA2041+090001999GF104991999999999999999999MA1101491999999REMMET058METAR SBQV 151100Z 02016KT 9999 FEW016 SCT300 23/16 Q1015;
0120833440999992008111512004-14950-040883FM-15+0914SBQV V0200101N005112200019N0112651N1+02501+01601999999ADDGA1021+005401999GF102991999999999999999999MA1101591999999REMMET051METAR SBQV 151200Z 01010KT 9999 FEW018 25/16 Q1016;
0131833440999992008111513004-14950-040883FM-15+0914SBQV V0200101N004112200019N0112651N1+02701+01501999999ADDGA1021+006001999GF102991999999999999999999MA1101591999999OC101131REMMET054METAR SBQV 151300Z 01008G22KT 9999 FEW020 27/15 Q1016;
0120833440999992008111514004-14950-040883FM-15+0914SBQV V0200101N004112200019N0112651N1+02901+01501999999ADDGA1021+006001999GF102991999999999999999999MA1101491999999REMMET051METAR SBQV 151400Z 01008KT 9999 FEW020 29/15 Q1015;
0120833440999992008111515004-14950-040883FM-15+0914SBQV V0200301N003112200019N0112651N1+03001+01501999999ADDGA1021+007501999GF102991999999999999999999MA1101391999999REMMET051METAR SBQV 151500Z 03006KT 9999 FEW025 30/15 Q1014;
0120833440999992008111516004-14950-040883FM-15+0914SBQV V0200801N002112200019N0112651N1+03001+01501999999ADDGA1021+007501999GF102991999999999999999999MA1101291999999REMMET051METAR SBQV 151600Z 08004KT 9999 FEW025 30/15 Q1013;
0120833440999992008111517004-14950-040883FM-15+0914SBQV V0200201N003610075019N0112651N1+03001+01401999999ADDGA1071+007501999GF107991999999999999999999MA1101291999999REMMET051METAR SBQV 151700Z 02007KT 9999 BKN025 30/14 Q1013;
0120833440999992008111518004-14950-040883FM-15+0914SBQV V0200601N005110075019N0112651N1+03101+01401999999ADDGA1071+007501999GF107991999999999999999999MA1101191999999REMMET051METAR SBQV 151800Z 06010KT 9999 BKN025 31/14 Q1012;
0120833440999992008111519004-14950-040883FM-15+0914SBQV V0200601N001510075019N0112651N1+03101+01401999999ADDGA1071+007501999GF107991999999999999999999MA1101081999999REMMET051METAR SBQV 151900Z 06003KT 9999 BKN025 31/14 Q1011;
0120833440999992008111520004-14950-040883FM-15+0914SBQV V0209999C000012200019N0112651N1+03001+01401999999ADDGA1041+007501999GF104991999999999999999999MA1101081999999REMMET051METAR SBQV 152000Z 00000KT 9999 SCT025 30/14 Q1011;
0120833440999992008111521004-14950-040883FM-15+0914SBQV V0201001N004112200019N0112651N1+02801+01601999999ADDGA1021+007501999GF102991999999999999999999MA1101191999999REMMET051METAR SBQV 152100Z 10008KT 9999 FEW025 28/16 Q1012;
0072833440999992008111522004-14950-040883FM-15+0914SBQV V0200801N00461220001CN0099001N1+02701+01501999999ADDMA1101191999999REMMET045METAR SBQV 152200Z 08009KT CAVOK 27/15 Q1012;
0072833440999992008111611004-14950-040883FM-15+0914SBQV V0200201N00311220001CN0099001N1+02401+01701999999ADDMA1101591999999REMMET045METAR SBQV 161100Z 02006KT CAVOK 24/17 Q1016;
0120833440999992008111612004-14950-040883FM-15+0914SBQV V0200301N003612200019N0112651N1+02601+01701999999ADDGA1021+006001999GF102991999999999999999999MA1101591999999REMMET051METAR SBQV 161200Z 03007KT 9999 FEW020 26/17 Q1016;
0143833440999992008111613004-14950-040883FM-15+0914SBQV V0200301N003612200019N0112651N1+02801+01601999999ADDGA1021+006001999GA2041+024001999GF104991999999999999999999MA1101591999999REMMET058METAR SBQV 161300Z 03007KT 9999 FEW020 SCT080 28/16 Q1016;
0120833440999992008111614004-14950-040883FM-15+0914SBQV V0200701N003112200019N0112651N1+03001+01501999999ADDGA1021+007501999GF102991999999999999999999MA1101491999999REMMET051METAR SBQV 161400Z 07006KT 9999 FEW025 30/15 Q1015;
0120833440999992008111615004-14950-040883FM-15+0914SBQV V0200401N001012200019N0112651N1+03001+01501999999ADDGA1041+007501999GF104991999999999999999999MA1101491999999REMMET051METAR SBQV 161500Z 04002KT 9999 SCT025 30/15 Q1015;
0120833440999992008111616004-14950-040883FM-15+0914SBQV V0200801N001010075019N0112651N1+03001+01501999999ADDGA1071+007501999GF107991999999999999999999MA1101291999999REMMET051METAR SBQV 161600Z 08002KT 9999 BKN025 30/15 Q1013;
0120833440999992008111617004-14950-040883FM-15+0914SBQV V0201101N002112200019N0112651N1+03001+01501999999ADDGA1041+007501999GF104991999999999999999999MA1101291999999REMMET051METAR SBQV 161700Z 11004KT 9999 SCT025 30/15 Q1013;
0136833440999992008111618004-14950-040883FM-15+0914SBQV V0201201N00411220001CN0112651N1+03001+01701999999ADDGA1071+007501999GA2041+027001999MA1101291999999REMMET058METAR SBQV 161800Z 12008KT 9999 BKN025 SCT090 30/17 Q1013;EQDQ01+000042SCOTCV
0143833440999992008111619004-14950-040883FM-15+0914SBQV V0201201N005112200019N0112651N1+02901+01701999999ADDGA1041+007501999GA2041+027001999GF104991999999999999999999MA1101291999999REMMET058METAR SBQV 161900Z 12010KT 9999 SCT025 SCT090 29/17 Q1013;
0143833440999992008111620004-14950-040883FM-15+0914SBQV V0201301N005112200019N0112651N1+02801+01701999999ADDGA1021+007501999GA2041+024001999GF104991999999999999999999MA1101291999999REMMET058METAR SBQV 162000Z 13010KT 9999 FEW025 SCT080 28/17 Q1013;
0072833440999992008111621004-14950-040883FM-15+0914SBQV V0201101N00361220001CN0099001N1+02701+01601999999ADDMA1101291999999REMMET045METAR SBQV 162100Z 11007KT CAVOK 27/16 Q1013;
0072833440999992008111622004-14950-040883FM-15+0914SBQV V0200901N00461220001CN0099001N1+02601+01601999999ADDMA1101391999999REMMET045METAR SBQV 162200Z 09009KT CAVOK 26/16 Q1014;
0143833440999992008111711004-14950-040883FM-15+0914SBQV V0200701N003112200019N0112651N1+02201+01701999999ADDGA1041+005401999GA2041+024001999GF104991999999999999999999MA1101801999999REMMET058METAR SBQV 171100Z 07006KT 9999 SCT018 SCT080 22/17 Q1018;
0120833440999992008111712004-14950-040883FM-15+0914SBQV V0200901N004612200019N0112651N1+02401+01601999999ADDGA1021+006001999GF102991999999999999999999MA1101801999999REMMET051METAR SBQV 171200Z 09009KT 9999 FEW020 24/16 Q1018;
0120833440999992008111713004-14950-040883FM-15+0914SBQV V0200701N004112200019N0112651N1+02601+01501999999ADDGA1021+006001999GF102991999999999999999999MA1101691999999REMMET051METAR SBQV 171300Z 07008KT 9999 FEW020 26/15 Q1017;
0143833440999992008111714004-14950-040883FM-15+0914SBQV V0200501N003612200019N0112651N1+02801+01501999999ADDGA1021+007501999GA2041+027001999GF104991999999999999999999MA1101691999999REMMET058METAR SBQV 171400Z 05007KT 9999 FEW025 SCT090 28/15 Q1017;
0120833440999992008111715004-14950-040883FM-15+0914SBQV V0200401N004112200019N0112651N1+02901+01501999999ADDGA1041+007501999GF104991999999999999999999MA1101691999999REMMET051METAR SBQV 171500Z 04008KT 9999 SCT025 29/15 Q1017;
0120833440999992008111716004-14950-040883FM-15+0914SBQV V0201001N004110075019N0112651N1+02801+01601999999ADDGA1071+007501999GF107991999999999999999999MA1101591999999REMMET051METAR SBQV 171600Z 10008KT 9999 BKN025 28/16 Q1016;
0120833440999992008111717004-14950-040883FM-15+0914SBQV V0200901N004110075019N0112651N1+02901+01601999999ADDGA1071+007501999GF107991999999999999999999MA1101491999999REMMET051METAR SBQV 171700Z 09008KT 9999 BKN025 29/16 Q1015;
0143833440999992008111718004-14950-040883FM-15+0914SBQV V0200801N004612200019N0112651N1+02801+01601999999ADDGA1041+007501999GA2041+027001999GF104991999999999999999999MA1101391999999REMMET058METAR SBQV 171800Z 08009KT 9999 SCT025 SCT090 28/16 Q1014;
0143833440999992008111719004-14950-040883FM-15+0914SBQV V0201101N004610270019N0112651N1+02701+01501999999ADDGA1041+006001999GA2071+027001999GF107991999999999999999999MA1101391999999REMMET058METAR SBQV 171900Z 11009KT 9999 SCT020 BKN090 27/15 Q1014;
0143833440999992008111720004-14950-040883FM-15+0914SBQV V0201201N005110240019N0112651N1+02701+01501999999ADDGA1021+004801999GA2071+024001999GF107991999999999999999999MA1101391999999REMMET058METAR SBQV 172000Z 12010KT 9999 FEW016 BKN080 27/15 Q1014;
0143833440999992008111721004-14950-040883FM-15+0914SBQV V0201001N005710240019N0112651N1+02501+01601999999ADDGA1021+004501999GA2071+024001999GF107991999999999999999999MA1101491999999REMMET058METAR SBQV 172100Z 10011KT 9999 FEW015 BKN080 25/16 Q1015;
0072833440999992008111722004-14950-040883FM-15+0914SBQV V0200801N00511220001CN0099001N1+02401+01701999999ADDMA1101591999999REMMET045METAR SBQV 172200Z 08010KT CAVOK 24/17 Q1016;
0120833440999992008111811004-14950-040883FM-15+0914SBQV V0200801N003110045019N0112651N1+02301+01801999999ADDGA1071+004501999GF107991999999999999999999MA1101801999999REMMET051METAR SBQV 181100Z 08006KT 9999 BKN015 23/18 Q1018;
0120833440999992008111812004-14950-040883FM-15+0914SBQV V0201001N001510045019N0112651N1+02301+01801999999ADDGA1071+004501999GF107991999999999999999999MA1101801999999REMMET051METAR SBQV 181200Z 10003KT 9999 BKN015 23/18 Q1018;
0120833440999992008111813004-14950-040883FM-15+0914SBQV V0200301N000510048019N0112651N1+02301+01701999999ADDGA1071+004801999GF107991999999999999999999MA1101801999999REMMET051METAR SBQV 181300Z 03001KT 9999 BKN016 23/17 Q1018;
0120833440999992008111814004-14950-040883FM-15+0914SBQV V0200401N002610054019N0112651N1+02401+01801999999ADDGA1071+005401999GF107991999999999999999999MA1101801999999REMMET051METAR SBQV 181400Z 04005KT 9999 BKN018 24/18 Q1018;
0120833440999992008111815004-14950-040883FM-15+0914SBQV V0201001N002610060019N0112651N1+02601+01701999999ADDGA1071+006001999GF107991999999999999999999MA1101691999999REMMET051METAR SBQV 181500Z 10005KT 9999 BKN020 26/17 Q1017;
0120833440999992008111816004-14950-040883FM-15+0914SBQV V0201201N003110060019N0112651N1+02701+01701999999ADDGA1071+006001999GF107991999999999999999999MA1101591999999REMMET051METAR SBQV 181600Z 12006KT 9999 BKN020 27/17 Q1016;
0120833440999992008111817004-14950-040883FM-15+0914SBQV V0201001N004610060019N0112651N1+02701+01901999999ADDGA1071+006001999GF107991999999999999999999MA1101491999999REMMET051METAR SBQV 181700Z 10009KT 9999 BKN020 27/19 Q1015;
0136833440999992008111818004-14950-040883FM-15+0914SBQV V0200801N00361220001CN0112651N1+02601+01801999999ADDGA1071+006001999GA2041+027001999MA1101491999999REMMET058METAR SBQV 181800Z 08007KT 9999 BKN020 SCT090 26/18 Q1015;EQDQ01+000042SCOTCV
0143833440999992008111819004-14950-040883FM-15+0914SBQV V0201201N004110270019N0112651N1+02601+01801999999ADDGA1041+006001999GA2071+027001999GF107991999999999999999999MA1101491999999REMMET058METAR SBQV 181900Z 12008KT 9999 SCT020 BKN090 26/18 Q1015;
0143833440999992008111820004-14950-040883FM-15+0914SBQV V0201001N004110270019N0112651N1+02501+01801999999ADDGA1021+006001999GA2071+027001999GF107991999999999999999999MA1101491999999REMMET058METAR SBQV 182000Z 10008KT 9999 FEW020 BKN090 25/18 Q1015;
0143833440999992008111821004-14950-040883FM-15+0914SBQV V0200901N003610240019N0112651N1+02401+01801999999ADDGA1021+004801999GA2071+024001999GF107991999999999999999999MA1101491999999REMMET058METAR SBQV 182100Z 09007KT 9999 FEW016 BKN080 24/18 Q1015;
0143833440999992008111822004-14950-040883FM-15+0914SBQV V0201001N003110240019N0112651N1+02301+01701999999ADDGA1021+004801999GA2071+024001999GF107991999999999999999999MA1101591999999REMMET058METAR SBQV 182200Z 10006KT 9999 FEW016 BKN080 23/17 Q1016;
0072833440999992008111823004-14950-040883FM-15+0914SBQV V0200801N00411220001CN0099001N1+02301+01801999999ADDMA1101591999999REMMET045METAR SBQV 182300Z 08008KT CAVOK 23/18 Q1016;
0143833440999992008111900004-14950-040883FM-15+0914SBQV V0200901N004112200019N0112651N1+02301+01801999999ADDGA1021+004801999GA2041+024001999GF104991999999999999999999MA1101691999999REMMET058METAR SBQV 190000Z 09008KT 9999 FEW016 SCT080 23/18 Q1017;
0072833440999992008111911004-14950-040883FM-15+0914SBQV V0200101N00051220001CN0099001N1+02301+01701999999ADDMA1101591999999REMMET045METAR SBQV 191100Z 01001KT CAVOK 23/17 Q1016;
0120833440999992008111912004-14950-040883FM-15+0914SBQV V0201401N000512200019N0112651N1+02501+01701999999ADDGA1021+004501999GF102991999999999999999999MA1101591999999REMMET051METAR SBQV 191200Z 14001KT 9999 FEW015 25/17 Q1016;
0143833440999992008111913004-14950-040883FM-15+0914SBQV V0200901N003110900019N0112651N1+02701+01701999999ADDGA1021+005401999GA2071+090001999GF107991999999999999999999MA1101591999999REMMET058METAR SBQV 191300Z 09006KT 9999 FEW018 BKN300 27/17 Q1016;
0120833440999992008111914004-14950-040883FM-15+0914SBQV V0201201N001012200019N0112651N1+02801+01701999999ADDGA1021+007501999GF102991999999999999999999MA1101491999999REMMET051METAR SBQV 191400Z 12002KT 9999 FEW025 28/17 Q1015;
0120833440999992008111915004-14950-040883FM-15+0914SBQV V0201601N003110075019N0112651N1+02801+01601999999ADDGA1071+007501999GF107991999999999999999999MA1101491999999REMMET051METAR SBQV 191500Z 16006KT 9999 BKN025 28/16 Q1015;
0120833440999992008111916004-14950-040883FM-15+0914SBQV V0201301N005110075019N0112651N1+02901+01701999999ADDGA1071+007501999GF107991999999999999999999MA1101391999999REMMET051METAR SBQV 191600Z 13010KT 9999 BKN025 29/17 Q1014;
0143833440999992008111917004-14950-040883FM-15+0914SBQV V0201001N005712200019N0112651N1+02701+01801999999ADDGA1041+007501999GA2041+027001999GF104991999999999999999999MA1101291999999REMMET058METAR SBQV 191700Z 10011KT 9999 SCT025 SCT090 27/18 Q1013;
0143833440999992008111918004-14950-040883FM-15+0914SBQV V0201201N006712200019N0112651N1+02801+01801999999ADDGA1041+007501999GA2041+027001999GF104991999999999999999999MA1101291999999REMMET058METAR SBQV 191800Z 12013KT 9999 SCT025 SCT090 28/18 Q1013;
0143833440999992008111919004-14950-040883FM-15+0914SBQV V0201101N006710270019N0112651N1+02701+01801999999ADDGA1021+007501999GA2071+027001999GF107991999999999999999999MA1101291999999REMMET058METAR SBQV 191900Z 11013KT 9999 FEW025 BKN090 27/18 Q1013;
0143833440999992008111920004-14950-040883FM-15+0914SBQV V0201101N007710240019N0112651N1+02501+01801999999ADDGA1021+006001999GA2081+024001999GF108991999999999999999999MA1101291999999REMMET058METAR SBQV 192000Z 11015KT 9999 FEW020 OVC080 25/18 Q1013;
0072833440999992008111921004-14950-040883FM-15+0914SBQV V0201201N00671220001CN0099001N1+02401+01901999999ADDMA1101391999999REMMET045METAR SBQV 192100Z 12013KT CAVOK 24/19 Q1014;
0153833440999992008111922004-14950-040883FM-15+0914SBQV V0201001N004610240019N0060001N1+02301+02001999999ADDGA1021+004801999GA2081+024001999GF108991999999999999999999MA1101491999999MW1611REMMET062METAR SBQV 192200Z 10009KT 6000 -RA FEW016 OVC080 23/20 Q1015;
0162833440999992008112011004-14950-040883FM-15+0914SBQV V0200901N003610018019N0020001N1+02001+02001999999ADDGA1071+001801999GA2081+021001999GF108991999999999999999999MA1101801999999MW1101MW2611REMMET065METAR SBQV 201100Z 09007KT 2000 -RA BR BKN006 OVC070 20/20 Q1018;
0183833440999992008112012004-14950-040883FM-15+0914SBQV V0201201N003610018019N0112651N1+02001+02001999999ADDGA1021+001501999GA2071+001801999GA3081+021001999GF108991999999999999999999MA1101801999999MW1611REMMET076METAR SBQV 201200Z 12007KT 9999 4000SW -RA FEW005 BKN006 OVC070 20/20 Q1018;
0143833440999992008112013004-14950-040883FM-15+0914SBQV V0201201N004110021019N0112651N1+02001+02001999999ADDGA1071+002101999GA2081+021001999GF108991999999999999999999MA1101801999999REMMET058METAR SBQV 201300Z 12008KT 9999 BKN007 OVC070 20/20 Q1018;
0143833440999992008112015004-14950-040883FM-15+0914SBQV V0201201N005110033019N0112651N1+02201+02001999999ADDGA1071+003301999GA2071+021001999GF107991999999999999999999MA1101691999999REMMET058METAR SBQV 201500Z 12010KT 9999 BKN011 BKN070 22/20 Q1017;
0160833440999992008112016004-14950-040883FM-15+0914SBQV V0201301N005110033019N0112651N1+02101+02101999999ADDGA1071+003301999GA2071+021001999GF107991999999999999999999MA1101691999999MW1611REMMET069METAR SBQV 201600Z 13010KT 9999 6000SE -RA BKN011 BKN070 21/21 Q1017;
0143833440999992008112017004-14950-040883FM-15+0914SBQV V0201201N006710030019N0112651N1+02101+01901999999ADDGA1071+003001999GA2071+021001999GF107991999999999999999999MA1101591999999REMMET058METAR SBQV 201700Z 12013KT 9999 BKN010 BKN070 21/19 Q1016;
0153833440999992008112018004-14950-040883FM-15+0914SBQV V0201201N005710027019N0070001N1+02101+02001999999ADDGA1071+002701999GA2071+021001999GF107991999999999999999999MA1101591999999MW1611REMMET062METAR SBQV 201800Z 12011KT 7000 -RA BKN009 BKN070 21/20 Q1016;
0153833440999992008112019004-14950-040883FM-15+0914SBQV V0201301N005110024019N0080001N1+02001+02001999999ADDGA1071+002401999GA2071+021001999GF107991999999999999999999MA1101591999999MW1611REMMET062METAR SBQV 201900Z 13010KT 8000 -RA BKN008 BKN070 20/20 Q1016;
0143833440999992008112020004-14950-040883FM-15+0914SBQV V0201201N004610015019N0112651N1+02001+02001999999ADDGA1071+001501999GA2081+021001999GF108991999999999999999999MA1101591999999REMMET058METAR SBQV 202000Z 12009KT 9999 BKN005 OVC070 20/20 Q1016;
0153833440999992008112021004-14950-040883FM-15+0914SBQV V0201201N004610018019N0080001N1+02001+02001999999ADDGA1071+001801999GA2081+021001999GF108991999999999999999999MA1101691999999MW1611REMMET062METAR SBQV 202100Z 12009KT 8000 -RA BKN006 OVC070 20/20 Q1017;
0153833440999992008112022004-14950-040883FM-15+0914SBQV V0201101N005110015019N0112651N1+01901+01901999999ADDGA1071+001501999GA2071+021001999GF107991999999999999999999MA1101691999999MW1611REMMET062METAR SBQV 202200Z 11010KT 9999 -RA BKN005 BKN070 19/19 Q1017;
0139833440999992008112111004-14950-040883FM-15+0914SBQV V0201301N005710012019N0040001N1+01801+01801999999ADDGA1081+001201999GF108991999999999999999999MA1102001999999MW1101MW2511REMMET058METAR SBQV 211100Z 13011KT 4000 -DZ BR OVC004 18/18 Q1020;
0153833440999992008112112004-14950-040883FM-15+0914SBQV V0201201N006710015019N0060001N1+01801+01801999999ADDGA1071+001501999GA2081+021001999GF108991999999999999999999MA1102101999999MW1511REMMET062METAR SBQV 211200Z 12013KT 6000 -DZ BKN005 OVC070 18/18 Q1021;
0153833440999992008112113004-14950-040883FM-15+0914SBQV V0201301N004610018019N0060001N1+01901+01901999999ADDGA1071+001801999GA2081+021001999GF108991999999999999999999MA1102101999999MW1511REMMET062METAR SBQV 211300Z 13009KT 6000 -DZ BKN006 OVC070 19/19 Q1021;
0104833440999992008112114004-14950-040883FM-15+0914SBQV V0201301N005112200019N0013011N1+01901+01901999999ADDMA1102001999999REMMET077METAR SBQV 211400Z 13010KT 13010KT 7000 -RA BKN006 SCT007 OVC070 19/19 Q1020;
0138833440999992008112115004-14950-040883FM-15+0914SBQV V0201301N006210021019N0080001N1+01901+01901999999ADDGA1071+002101999GA2081+021001999GF108991999999999999999999MW1611REMMET062METAR SBQV 211500Z 13012KT 8000 -RA BKN007 OVC070 19/19 Q0120;
0182833440999992008112116004-14950-040883FM-15+0914SBQV V0201301N005110018019N0112651N1+01901+01901999999ADDGA1041+001501999GA2071+001801999GA3081+021001999GF108991999999999999999999MA1102001999999MW1611REMMET075METAR SBQV 211600Z 13010KT 9999 3000S -RA SCT005 BKN006 OVC070 19/19 Q1020;
0153833440999992008112117004-14950-040883FM-15+0914SBQV V0201301N005710015019N0080001N1+01901+01901999999ADDGA1071+001501999GA2081+021001999GF108991999999999999999999MA1101901999999MW1611REMMET062METAR SBQV 211700Z 13011KT 8000 -RA BKN005 OVC070 19/19 Q1019;
0153833440999992008112118004-14950-040883FM-15+0914SBQV V0201301N005710018019N0112651N1+02001+02001999999ADDGA1071+001801999GA2081+021001999GF108991999999999999999999MA1101901999999MW1611REMMET062METAR SBQV 211800Z 13011KT 9999 -RA BKN006 OVC070 20/20 Q1019;
0159833440999992008112119004-14950-040883FM-15+0914SBQV V0201301N005110018019N0112651N1+01901+01901999999ADDGA1071+001801999GA2081+021001999GF108991999999999999999999MA1101901999999MW1611REMMET068METAR SBQV 211900Z 13010KT 9999 2000S -RA BKN006 OVC070 19/19 Q1019;
0143833440999992008112120004-14950-040883FM-15+0914SBQV V0201301N005710018019N0112651N1+01901+01901999999ADDGA1071+001801999GA2081+021001999GF108991999999999999999999MA1101901999999REMMET058METAR SBQV 212000Z 13011KT 9999 BKN006 OVC070 19/19 Q1019;
0161833440999992008112121004-14950-040883FM-15+0914SBQV V0201301N004610015019N0020001N1+01901+01901999999ADDGA1071+001501999GA2081+021001999GF108991999999999999999999MA1102001999999MW1511MW2611REMMET064METAR SBQV 212100Z 13009KT 2000 -RADZ BKN005 OVC070 19/19 Q1020;
0143833440999992008112122004-14950-040883FM-15+0914SBQV V0201201N004110015019N0112651N1+01801+01801999999ADDGA1071+001501999GA2081+021001999GF108991999999999999999999MA1102001999999REMMET058METAR SBQV 212200Z 12008KT 9999 BKN005 OVC070 18/18 Q1020;
0166833440999992008112211004-14950-040883FM-15+0914SBQV V0201201N003610018019N0112651N1+01901+01901999999ADDGA1021+001501999GA2071+001801999GA3081+021001999GF108991999999999999999999MA1102101999999REMMET065METAR SBQV 221100Z 12007KT 9999 FEW005 BKN006 OVC070 19/19 Q1021;
0143833440999992008112212004-14950-040883FM-15+0914SBQV V0201201N004610024019N0112651N1+02001+02001999999ADDGA1071+002401999GA2081+021001999GF108991999999999999999999MA1102101999999REMMET058METAR SBQV 221200Z 12009KT 9999 BKN008 OVC070 20/20 Q1021;
0143833440999992008112213004-14950-040883FM-15+0914SBQV V0201101N004110030019N0112651N1+02001+02001999999ADDGA1071+003001999GA2081+021001999GF108991999999999999999999MA1102101999999REMMET058METAR SBQV 221300Z 11008KT 9999 BKN010 OVC070 20/20 Q1021;
0143833440999992008112214004-14950-040883FM-15+0914SBQV V0201201N003610033019N0112651N1+02101+02001999999ADDGA1071+003301999GA2081+021001999GF108991999999999999999999MA1102101999999REMMET058METAR SBQV 221400Z 12007KT 9999 BKN011 OVC070 21/20 Q1021;
0143833440999992008112215004-14950-040883FM-15+0914SBQV V0201101N003610039019N0112651N1+02201+02001999999ADDGA1071+003901999GA2081+021001999GF108991999999999999999999MA1102001999999REMMET058METAR SBQV 221500Z 11007KT 9999 BKN013 OVC070 22/20 Q1020;
0153833440999992008112216004-14950-040883FM-15+0914SBQV V0201401N003110030019N0112651N1+02101+02001999999ADDGA1071+003001999GA2081+021001999GF108991999999999999999999MA1101901999999MW1611REMMET062METAR SBQV 221600Z 14006KT 9999 -RA BKN010 OVC070 21/20 Q1019;
0166833440999992008112217004-14950-040883FM-15+0914SBQV V0201501N004110027019N0112651N1+02101+02101999999ADDGA1021+001501999GA2071+002701999GA3081+021001999GF108991999999999999999999MA1101901999999REMMET065METAR SBQV 221700Z 15008KT 9999 FEW005 BKN009 OVC070 21/21 Q1019;
0153833440999992008112218004-14950-040883FM-15+0914SBQV V0201401N004110015019N0040001N1+02001+02001999999ADDGA1071+001501999GA2081+021001999GF108991999999999999999999MA1101801999999MW1611REMMET062METAR SBQV 221800Z 14008KT 4000 -RA BKN005 OVC070 20/20 Q1018;
0153833440999992008112219004-14950-040883FM-15+0914SBQV V0201401N003110015019N0040001N1+02001+02001999999ADDGA1071+001501999GA2081+021001999GF108991999999999999999999MA1101801999999MW1611REMMET062METAR SBQV 221900Z 14006KT 4000 -RA BKN005 OVC070 20/20 Q1018;
0153833440999992008112220004-14950-040883FM-15+0914SBQV V0201401N003610015019N0050001N1+02001+02001999999ADDGA1071+001501999GA2081+021001999GF108991999999999999999999MA1101801999999MW1611REMMET062METAR SBQV 222000Z 14007KT 5000 -RA BKN005 OVC070 20/20 Q1018;
0153833440999992008112221004-14950-040883FM-15+0914SBQV V0201201N003610015019N0112651N1+01901+01901999999ADDGA1071+001501999GA2081+021001999GF108991999999999999999999MA1101901999999MW1611REMMET062METAR SBQV 222100Z 12007KT 9999 -RA BKN005 OVC070 19/19 Q1019;
0153833440999992008112222004-14950-040883FM-15+0914SBQV V0201301N004110015019N0112651N1+01901+01901999999ADDGA1071+001501999GA2081+021001999GF108991999999999999999999MA1101901999999MW1611REMMET062METAR SBQV 222200Z 13008KT 9999 -RA BKN005 OVC070 19/19 Q1019;
0143833440999992008112311004-14950-040883FM-15+0914SBQV V0200601N003110210019N0112651N1+01901+01701999999ADDGA1021+003001999GA2081+021001999GF108991999999999999999999MA1102001999999REMMET058METAR SBQV 231100Z 06006KT 9999 FEW010 OVC070 19/17 Q1020;
0143833440999992008112312004-14950-040883FM-15+0914SBQV V0200801N003610210019N0112651N1+02001+01801999999ADDGA1041+003301999GA2081+021001999GF108991999999999999999999MA1102001999999REMMET058METAR SBQV 231200Z 08007KT 9999 SCT011 OVC070 20/18 Q1020;
0153833440999992008112313004-14950-040883FM-15+0914SBQV V0200701N002110210019N0112651N1+02001+01801999999ADDGA1041+003301999GA2081+021001999GF108991999999999999999999MA1102001999999MW1611REMMET062METAR SBQV 231300Z 07004KT 9999 -RA SCT011 OVC070 20/18 Q1020;
0143833440999992008112314004-14950-040883FM-15+0914SBQV V0201301N002110210019N0112651N1+02001+01901999999ADDGA1041+003001999GA2081+021001999GF108991999999999999999999MA1102001999999REMMET058METAR SBQV 231400Z 13004KT 9999 SCT010 OVC070 20/19 Q1020;
0143833440999992008112315004-14950-040883FM-15+0914SBQV V0201301N003610210019N0112651N1+02101+02001999999ADDGA1041+003301999GA2081+021001999GF108991999999999999999999MA1101901999999REMMET058METAR SBQV 231500Z 13007KT 9999 SCT011 OVC070 21/20 Q1019;
0153833440999992008112316004-14950-040883FM-15+0914SBQV V0201301N003610033019N0112651N1+02101+02001999999ADDGA1071+003301999GA2081+021001999GF108991999999999999999999MA1101801999999MW1611REMMET062METAR SBQV 231600Z 13007KT 9999 -RA BKN011 OVC070 21/20 Q1018;
0143833440999992008112317004-14950-040883FM-15+0914SBQV V0203601N001510033019N0112651N1+02101+02001999999ADDGA1071+003301999GA2071+021001999GF107991999999999999999999MA1101691999999REMMET058METAR SBQV 231700Z 36003KT 9999 BKN011 BKN070 21/20 Q1017;
0143833440999992008112318004-14950-040883FM-15+0914SBQV V0209999C000010030019N0112651N1+02001+01901999999ADDGA1071+003001999GA2071+021001999GF107991999999999999999999MA1101691999999REMMET058METAR SBQV 231800Z 00000KT 9999 BKN010 BKN070 20/19 Q1017;
0160833440999992008112319004-14950-040883FM-15+0914SBQV V0201101N002110210019N0060001N1+02001+01901999999ADDGA1041+002701999GA2081+021001999GF108991999999999999999999MA1101691999999MW1611REMMET069METAR SBQV 231900Z 11004KT 6000 2500SE -RA SCT009 OVC070 20/19 Q1017;
0153833440999992008112320004-14950-040883FM-15+0914SBQV V0201001N003610210019N0112651N1+01901+01901999999ADDGA1041+002701999GA2081+021001999GF108991999999999999999999MA1101801999999MW1611REMMET062METAR SBQV 232000Z 10007KT 9999 -RA SCT009 OVC070 19/19 Q1018;
0153833440999992008112321004-14950-040883FM-15+0914SBQV V0200901N003110210019N0112651N1+01901+01901999999ADDGA1021+002401999GA2081+021001999GF108991999999999999999999MA1101801999999MW1611REMMET062METAR SBQV 232100Z 09006KT 9999 -RA FEW008 OVC070 19/19 Q1018;
0153833440999992008112322004-14950-040883FM-15+0914SBQV V0200801N004110210019N0112651N1+01801+01801999999ADDGA1021+002101999GA2081+021001999GF108991999999999999999999MA1101901999999MW1611REMMET062METAR SBQV 232200Z 08008KT 9999 -RA FEW007 OVC070 18/18 Q1019;
0143833440999992008112411004-14950-040883FM-15+0914SBQV V0200901N004110210019N0112651N1+02001+01801999999ADDGA1041+002101999GA2071+021001999GF107991999999999999999999MA1101901999999REMMET058METAR SBQV 241100Z 09008KT 9999 SCT007 BKN070 20/18 Q1019;
0143833440999992008112412004-14950-040883FM-15+0914SBQV V0201001N003610045019N0112651N1+02201+01901999999ADDGA1071+004501999GA2071+024001999GF107991999999999999999999MA1102001999999REMMET058METAR SBQV 241200Z 10007KT 9999 BKN015 BKN080 22/19 Q1020;
0143833440999992008112413004-14950-040883FM-15+0914SBQV V0200901N004610240019N0112651N1+02301+01901999999ADDGA1041+004801999GA2071+024001999GF107991999999999999999999MA1101901999999REMMET058METAR SBQV 241300Z 09009KT 9999 SCT016 BKN080 23/19 Q1019;
0143833440999992008112414004-14950-040883FM-15+0914SBQV V0200901N003612200019N0112651N1+02501+01801999999ADDGA1021+004801999GA2041+006001999GF104991999999999999999999MA1101901999999REMMET058METAR SBQV 241400Z 09007KT 9999 FEW016 SCT020 25/18 Q1019;
0166833440999992008112415004-14950-040883FM-15+0914SBQV V0200501N00621004801CN0112651N1+02101+01801999999ADDGA1021+004501999GA2041+004801999GA3071+021001999GF107991999999999999999999MA1101801999999REMMET065METAR SBQV 241500Z 05012KT 9999 FEW015 SCT016 BKN070 21/18 Q1018;
0143833440999992008112416004-14950-040883FM-15+0914SBQV V0200901N003610240019N0112651N1+02401+01801999999ADDGA1041+005401999GA2071+024001999GF107991999999999999999999MA1101691999999REMMET058METAR SBQV 241600Z 09007KT 9999 SCT018 BKN080 24/18 Q1017;
0143833440999992008112417004-14950-040883FM-15+0914SBQV V0201201N004110240019N0112651N1+02301+01901999999ADDGA1041+005401999GA2071+024001999GF107991999999999999999999MA1101591999999REMMET058METAR SBQV 241700Z 12008KT 9999 SCT018 BKN080 23/19 Q1016;
0143833440999992008112418004-14950-040883FM-15+0914SBQV V0201001N004110240019N0112651N1+02401+01801999999ADDGA1021+005401999GA2071+024001999GF107991999999999999999999MA1101491999999REMMET058METAR SBQV 241800Z 10008KT 9999 FEW018 BKN080 24/18 Q1015;
0169833440999992008112419004-14950-040883FM-15+0914SBQV V0200601N00511006001CN0112651N1+02201+01901999999ADDGA1041+004501999GA2021+006001021GA3071+021001999GF107991999999999999999999MA1101591999999REMMET068METAR SBQV 241900Z 06010KT 9999 SCT015 FEW020TCU BKN070 22/19 Q1016;
0169833440999992008112420004-14950-040883FM-15+0914SBQV V0200301N00151005401CN0112651N1+02101+01801999999ADDGA1041+004801999GA2021+005401021GA3071+021001999GF107991999999999999999999MA1101591999999REMMET068METAR SBQV 242000Z 03003KT 9999 SCT016 FEW018TCU BKN070 21/18 Q1016;
0153833440999992008112421004-14950-040883FM-15+0914SBQV V0209999C000010210019N0112651N1+02001+01901999999ADDGA1041+003601999GA2071+021001999GF107991999999999999999999MA1101691999999MW1611REMMET062METAR SBQV 242100Z 00000KT 9999 -RA SCT012 BKN070 20/19 Q1017;
0153833440999992008112422004-14950-040883FM-15+0914SBQV V0209999C000010021019N0112651N1+02001+02001999999ADDGA1071+002101999GA2081+021001999GF108991999999999999999999MA1101691999999MW1611REMMET062METAR SBQV 242200Z 00000KT 9999 -RA BKN007 OVC070 20/20 Q1017;
0166833440999992008112511004-14950-040883FM-15+0914SBQV V0200801N002110033019N0112651N1+02001+01901999999ADDGA1041+001801999GA2071+003301999GA3071+021001999GF107991999999999999999999MA1101901999999REMMET065METAR SBQV 251100Z 08004KT 9999 SCT006 BKN011 BKN070 20/19 Q1019;
0143833440999992008112512004-14950-040883FM-15+0914SBQV V0200301N002110210019N0112651N1+02001+01901999999ADDGA1041+003301999GA2081+021001999GF108991999999999999999999MA1102001999999REMMET058METAR SBQV 251200Z 03004KT 9999 SCT011 OVC070 20/19 Q1020;
0183833440999992008112513004-14950-040883FM-15+0914SBQV V0200201N00311004801CN0112651N1+02101+01901999999ADDGA1021+004501999GA2041+004801999GA3071+024001999GF107991999999999999999999MA1102001999999MW1611REMMET076METAR SBQV 251300Z 02006KT 9999 6000SE -RA FEW015 SCT016 BKN080 21/19 Q1020;
0153833440999992008112514004-14950-040883FM-15+0914SBQV V0200101N003610240019N0112651N1+02201+01901999999ADDGA1041+004501999GA2071+024001999GF107991999999999999999999MA1102001999999MW1611REMMET062METAR SBQV 251400Z 01007KT 9999 -RA SCT015 BKN080 22/19 Q1020;
0143833440999992008112515004-14950-040883FM-15+0914SBQV V0200201N002110054019N0112651N1+02301+02001999999ADDGA1071+005401999GA2071+024001999GF107991999999999999999999MA1101901999999REMMET058METAR SBQV 251500Z 02004KT 9999 BKN018 BKN080 23/20 Q1019;
0143833440999992008112516004-14950-040883FM-15+0914SBQV V0200101N004110240019N0112651N1+02301+01901999999ADDGA1041+005401999GA2071+024001999GF107991999999999999999999MA1101801999999REMMET058METAR SBQV 251600Z 01008KT 9999 SCT018 BKN080 23/19 Q1018;
0143833440999992008112517004-14950-040883FM-15+0914SBQV V0203401N002610240019N0112651N1+02401+02001999999ADDGA1041+005401999GA2071+024001999GF107991999999999999999999MA1101691999999REMMET058METAR SBQV 251700Z 34005KT 9999 SCT018 BKN080 24/20 Q1017;
0143833440999992008112518004-14950-040883FM-15+0914SBQV V0200101N004112200019N0112651N1+02401+02001999999ADDGA1041+006001999GA2041+024001999GF104991999999999999999999MA1101591999999REMMET058METAR SBQV 251800Z 01008KT 9999 SCT020 SCT080 24/20 Q1016;
0143833440999992008112519004-14950-040883FM-15+0914SBQV V0203301N002112200019N0112651N1+02401+01901999999ADDGA1041+004801999GA2041+024001999GF104991999999999999999999MA1101591999999REMMET058METAR SBQV 251900Z 33004KT 9999 SCT016 SCT080 24/19 Q1016;
0143833440999992008112520004-14950-040883FM-15+0914SBQV V0203101N002112200019N0112651N1+02401+01901999999ADDGA1041+004801999GA2041+024001999GF104991999999999999999999MA1101691999999REMMET058METAR SBQV 252000Z 31004KT 9999 SCT016 SCT080 24/19 Q1017;
0143833440999992008112521004-14950-040883FM-15+0914SBQV V0200301N003612200019N0112651N1+02101+01901999999ADDGA1041+004501999GA2041+021001999GF104991999999999999999999MA1101691999999REMMET058METAR SBQV 252100Z 03007KT 9999 SCT015 SCT070 21/19 Q1017;
0143833440999992008112522004-14950-040883FM-15+0914SBQV V0200901N003112200019N0112651N1+02101+01901999999ADDGA1041+003301999GA2041+021001999GF104991999999999999999999MA1101801999999REMMET058METAR SBQV 252200Z 09006KT 9999 SCT011 SCT070 21/19 Q1018;
0136833440999992008112611004-14950-040883FM-15+0914SBQV V0200601N00361220001CN0112651N1+02201+01901999999ADDGA1071+004801999GA2041+024001999MA1101901999999REMMET058METAR SBQV 261100Z 06007KT 9999 BKN016 SCT080 22/19 Q1019;EQDQ01+000042SCOTCV
0120833440999992008112612004-14950-040883FM-15+0914SBQV V0200601N004610060019N0112651N1+02401+02001999999ADDGA1071+006001999GF107991999999999999999999MA1102001999999REMMET051METAR SBQV 261200Z 06009KT 9999 BKN020 24/20 Q1020;
0120833440999992008112613004-14950-040883FM-15+0914SBQV V0200301N004110060019N0112651N1+02501+01901999999ADDGA1071+006001999GF107991999999999999999999MA1102001999999REMMET051METAR SBQV 261300Z 03008KT 9999 BKN020 25/19 Q1020;
0120833440999992008112614004-14950-040883FM-15+0914SBQV V0200501N003610075019N0112651N1+02601+02001999999ADDGA1071+007501999GF107991999999999999999999MA1101901999999REMMET051METAR SBQV 261400Z 05007KT 9999 BKN025 26/20 Q1019;
0120833440999992008112615004-14950-040883FM-15+0914SBQV V0200501N004110075019N0112651N1+02601+01901999999ADDGA1071+007501999GF107991999999999999999999MA1101801999999REMMET051METAR SBQV 261500Z 05008KT 9999 BKN025 26/19 Q1018;
0130833440999992008112616004-14950-040883FM-15+0914SBQV V0200301N003610075019N0112651N1+02601+01901999999ADDGA1071+007501999GF107991999999999999999999MA1101691999999MW1611REMMET055METAR SBQV 261600Z 03007KT 9999 -RA BKN025 26/19 Q1017;
0120833440999992008112617004-14950-040883FM-15+0914SBQV V0201601N003610060019N0112651N1+02401+02101999999ADDGA1071+006001999GF107991999999999999999999MA1101691999999REMMET051METAR SBQV 261700Z 16007KT 9999 BKN020 24/21 Q1017;
0155833440999992008112618004-14950-040883FM-15+0914SBQV V0200201N00511220001CN0015001N1+02201+02101999999ADDGA1071+004501999GA2041+024001999MA1101591999999MW1101MW2611REMMET065METAR SBQV 261800Z 02010KT 1500 -RA BR BKN015 SCT080 22/21 Q1016;EQDQ01+000042SCOTCV
0165833440999992008112619004-14950-040883FM-15+0914SBQV V0200901N004110039019N0112651N1+02101+02101999999ADDGA1071+003901999GA2071+021001999GF107991999999999999999999MA1101591999999MW1611REMMET074METAR SBQV 261900Z 09008KT 9999 3000NW -RA BKN013 BKN070 21/21 Q1016 RERA;
0143833440999992008112620004-14950-040883FM-15+0914SBQV V0200901N003110045019N0112651N1+02201+02001999999ADDGA1071+004501999GA2071+021001999GF107991999999999999999999MA1101691999999REMMET058METAR SBQV 262000Z 09006KT 9999 BKN015 BKN070 22/20 Q1017;
0160833440999992008112621004-14950-040883FM-15+0914SBQV V0201101N003610045019N0050001N1+02101+02001999999ADDGA1071+004501999GA2081+021001999GF108991999999999999999999MA1101691999999MW1611REMMET069METAR SBQV 262100Z 11007KT 5000 1500SE -RA BKN015 OVC070 21/20 Q1017;
0160833440999992008112622004-14950-040883FM-15+0914SBQV V0201101N004110039019N0080001N1+02001+02001999999ADDGA1071+003901999GA2081+021001999GF108991999999999999999999MA1101801999999MW1611REMMET069METAR SBQV 262200Z 11008KT 8000 3000SE -RA BKN013 OVC070 20/20 Q1018;
0143833440999992008112711004-14950-040883FM-15+0914SBQV V0200801N004110210019N0112651N1+02001+01901999999ADDGA1021+003901999GA2071+021001999GF107991999999999999999999MA1102001999999REMMET058METAR SBQV 271100Z 08008KT 9999 FEW013 BKN070 20/19 Q1020;
0143833440999992008112712004-14950-040883FM-15+0914SBQV V0200601N004610045019N0112651N1+02101+02001999999ADDGA1071+004501999GA2081+021001999GF108991999999999999999999MA1102001999999REMMET058METAR SBQV 271200Z 06009KT 9999 BKN015 OVC070 21/20 Q1020;
0143833440999992008112713004-14950-040883FM-15+0914SBQV V0200501N003610048019N0112651N1+02301+02001999999ADDGA1071+004801999GA2071+024001999GF107991999999999999999999MA1102001999999REMMET058METAR SBQV 271300Z 05007KT 9999 BKN016 BKN080 23/20 Q1020;
0143833440999992008112714004-14950-040883FM-15+0914SBQV V0200601N002610054019N0112651N1+02401+02001999999ADDGA1071+005401999GA2071+024001999GF107991999999999999999999MA1102001999999REMMET058METAR SBQV 271400Z 06005KT 9999 BKN018 BKN080 24/20 Q1020;
0166833440999992008112715004-14950-040883FM-15+0914SBQV V0200901N00311004801CN0112651N1+02201+02001999999ADDGA1021+004501999GA2041+004801999GA3071+024001999GF107991999999999999999999MA1101901999999REMMET065METAR SBQV 271500Z 09006KT 9999 FEW015 SCT016 BKN080 22/20 Q1019;
0176833440999992008112716004-14950-040883FM-15+0914SBQV V0200201N00311004501CN0070001N1+02101+02101999999ADDGA1041+003301999GA2041+004501999GA3071+021001999GF107991999999999999999999MA1101901999999MW1611REMMET069METAR SBQV 271600Z 02006KT 7000 -RA SCT011 SCT015 BKN070 21/21 Q1019;
0166833440999992008112717004-14950-040883FM-15+0914SBQV V0201901N00211004501CN0112651N1+02201+02101999999ADDGA1041+003301999GA2041+004501999GA3081+021001999GF108991999999999999999999MA1101801999999REMMET065METAR SBQV 271700Z 19004KT 9999 SCT011 SCT015 OVC070 22/21 Q1018;
0153833440999992008112718004-14950-040883FM-15+0914SBQV V0202001N002110018019N0112651N1+02101+02101999999ADDGA1071+001801999GA2081+021001999GF108991999999999999999999MA1101691999999MW1611REMMET062METAR SBQV 271800Z 20004KT 9999 -RA BKN006 OVC070 21/21 Q1017;
0166833440999992008112719004-14950-040883FM-15+0914SBQV V0209999C00001004501CN0112651N1+02101+02101999999ADDGA1041+001801999GA2041+004501999GA3081+021001999GF108991999999999999999999MA1101691999999REMMET065METAR SBQV 271900Z 00000KT 9999 SCT006 SCT015 OVC070 21/21 Q1017;
0143833440999992008112720004-14950-040883FM-15+0914SBQV V0200901N002110210019N0112651N1+02101+02001999999ADDGA1021+001801999GA2081+021001999GF108991999999999999999999MA1101691999999REMMET058METAR SBQV 272000Z 09004KT 9999 FEW006 OVC070 21/20 Q1017;
0143833440999992008112721004-14950-040883FM-15+0914SBQV V0201001N002110210019N0112651N1+02101+02001999999ADDGA1021+004501999GA2081+021001999GF108991999999999999999999MA1101691999999REMMET058METAR SBQV 272100Z 10004KT 9999 FEW015 OVC070 21/20 Q1017;
0072833440999992008112722004-14950-040883FM-15+0914SBQV V0200801N00051220001CN0099001N1+02001+02001999999ADDMA1101691999999REMMET045METAR SBQV 272200Z 08001KT CAVOK 20/20 Q1017;
0143833440999992008112811004-14950-040883FM-15+0914SBQV V0200301N001510210019N0112651N1+02101+01901999999ADDGA1041+002401999GA2081+021001999GF108991999999999999999999MA1101801999999REMMET058METAR SBQV 281100Z 03003KT 9999 SCT008 OVC070 21/19 Q1018;
0143833440999992008112812004-14950-040883FM-15+0914SBQV V0209999C000010210019N0112651N1+02301+02001999999ADDGA1041+003301999GA2081+021001999GF108991999999999999999999MA1101901999999REMMET058METAR SBQV 281200Z 00000KT 9999 SCT011 OVC070 23/20 Q1019;
0143833440999992008112813004-14950-040883FM-15+0914SBQV V0201801N000510210019N0112651N1+02301+02001999999ADDGA1041+003901999GA2071+021001999GF107991999999999999999999MA1101801999999REMMET058METAR SBQV 281300Z 18001KT 9999 SCT013 BKN070 23/20 Q1018;
0176833440999992008112814004-14950-040883FM-15+0914SBQV V0203301N00101003601CN0070001N1+02101+02001999999ADDGA1021+002101999GA2041+003601999GA3071+021001999GF107991999999999999999999MA1101801999999MW1511REMMET069METAR SBQV 281400Z 33002KT 7000 -DZ FEW007 SCT012 BKN070 21/20 Q1018;
0143833440999992008112815004-14950-040883FM-15+0914SBQV V0202501N003610210019N0112651N1+02201+02101999999ADDGA1041+003001999GA2071+021001999GF107991999999999999999999MA1101691999999REMMET058METAR SBQV 281500Z 25007KT 9999 SCT010 BKN070 22/21 Q1017;
0166833440999992008112816004-14950-040883FM-15+0914SBQV V0202101N00211003001CN0112651N1+02201+02101999999ADDGA1021+001501999GA2041+003001999GA3081+021001999GF108991999999999999999999MA1101691999999REMMET065METAR SBQV 281600Z 21004KT 9999 FEW005 SCT010 OVC070 22/21 Q1017;
0143833440999992008112817004-14950-040883FM-15+0914SBQV V0201701N003610210019N0112651N1+02101+02001999999ADDGA1021+001801999GA2081+021001999GF108991999999999999999999MA1101591999999REMMET058METAR SBQV 281700Z 17007KT 9999 FEW006 OVC070 21/20 Q1016;
0143833440999992008112818004-14950-040883FM-15+0914SBQV V0201401N002610210019N0112651N1+02201+02001999999ADDGA1021+004501999GA2071+021001999GF107991999999999999999999MA1101491999999REMMET058METAR SBQV 281800Z 14005KT 9999 FEW015 BKN070 22/20 Q1015;
0143833440999992008112819004-14950-040883FM-15+0914SBQV V0201201N003110210019N0112651N1+02201+02001999999ADDGA1021+004501999GA2071+021001999GF107991999999999999999999MA1101491999999REMMET058METAR SBQV 281900Z 12006KT 9999 FEW015 BKN070 22/20 Q1015;
0143833440999992008112820004-14950-040883FM-15+0914SBQV V0201001N003610210019N0112651N1+02201+02001999999ADDGA1021+004501999GA2071+021001999GF107991999999999999999999MA1101491999999REMMET058METAR SBQV 282000Z 10007KT 9999 FEW015 BKN070 22/20 Q1015;
0143833440999992008112821004-14950-040883FM-15+0914SBQV V0201101N002610210019N0112651N1+02201+02001999999ADDGA1021+003901999GA2071+021001999GF107991999999999999999999MA1101491999999REMMET058METAR SBQV 282100Z 11005KT 9999 FEW013 BKN070 22/20 Q1015;
0143833440999992008112822004-14950-040883FM-15+0914SBQV V0200901N002610210019N0112651N1+02101+02001999999ADDGA1021+003901999GA2071+021001999GF107991999999999999999999MA1101591999999REMMET058METAR SBQV 282200Z 09005KT 9999 FEW013 BKN070 21/20 Q1016;
0161833440999992008112911004-14950-040883FM-15+0914SBQV V0200101N002110012019N0020001N1+01901+01901999999ADDGA1071+001201999GA2081+021001999GF108991999999999999999999MA1101691999999MW1511MW2611REMMET064METAR SBQV 291100Z 01004KT 2000 -RADZ BKN004 OVC070 19/19 Q1017;
0152833440999992008112912004-14950-040883FM-15+0914SBQV V0209999C000010030019N0040001N1+01901+01901999999ADDGA1071+003001999GA2081+021001999GF108991999999999999999999MA1101801999999MW1631REMMET061METAR SBQV 291200Z 00000KT 4000 RA BKN010 OVC070 19/19 Q1018;
0188833440999992008112913004-14950-040883FM-15+0914SBQV V0209999C000010027019N0112651N1+01901+01901999999ADDGA1021+001501999GA2071+002701999GA3081+021001999GF108991999999999999999999MA1101801999999MW1611REMMET081METAR SBQV 291300Z 00000KT 9999 6000SW -RA FEW005 BKN009 OVC070 19/19 Q1018 RERA;
0183833440999992008112914004-14950-040883FM-15+0914SBQV V0209999C000010027019N0015001N1+02001+02001999999ADDGA1021+001501999GA2071+002701999GA3081+021001999GF108991999999999999999999MA1101691999999MW1531MW2631REMMET070METAR SBQV 291400Z 00000KT 1500 RADZ FEW005 BKN009 OVC070 20/20 Q1017;
0171833440999992008112915004-14950-040883FM-15+0914SBQV V0200101N003110030019N0112651N1+02101+02101999999ADDGA1021+001201999GA2071+003001999GA3081+021001999GF108991999999999999999999MA1101691999999REMMET070METAR SBQV 291500Z 01006KT 9999 FEW004 BKN010 OVC070 21/21 Q1017 RERA;
0143833440999992008112916004-14950-040883FM-15+0914SBQV V0203601N003110033019N0112651N1+02101+02001999999ADDGA1071+003301999GA2071+024001999GF107991999999999999999999MA1101591999999REMMET058METAR SBQV 291600Z 36006KT 9999 BKN011 BKN080 21/20 Q1016;
0143833440999992008112917004-14950-040883FM-15+0914SBQV V0203601N002610240019N0112651N1+02201+02001999999ADDGA1041+003301999GA2071+024001999GF107991999999999999999999MA1101591999999REMMET058METAR SBQV 291700Z 36005KT 9999 SCT011 BKN080 22/20 Q1016;
0175833440999992008112918004-14950-040883FM-15+0914SBQV V0203501N003110027019N0040001N1+02001+02001999999ADDGA1021+001801999GA2071+002701999GA3081+024001999GF108991999999999999999999MA1101591999999MW1631REMMET068METAR SBQV 291800Z 35006KT 4000 RA FEW006 BKN009 OVC080 20/20 Q1016;
0176833440999992008112919004-14950-040883FM-15+0914SBQV V0203501N00311002701CN0112651N1+02001+01901999999ADDGA1021+001801999GA2041+002701999GA3081+024001999GF108991999999999999999999MA1101591999999MW1611REMMET069METAR SBQV 291900Z 35006KT 9999 -RA FEW006 SCT009 OVC080 20/19 Q1016;
0176833440999992008112920004-14950-040883FM-15+0914SBQV V0203501N00361002401CN0060001N1+02001+01901999999ADDGA1021+001501999GA2041+002401999GA3081+021001999GF108991999999999999999999MA1101591999999MW1611REMMET069METAR SBQV 292000Z 35007KT 6000 -RA FEW005 SCT008 OVC070 20/19 Q1016;
0153833440999992008112921004-14950-040883FM-15+0914SBQV V0203101N004610024019N0050001N1+01901+01901999999ADDGA1071+002401999GA2081+021001999GF108991999999999999999999MA1101691999999MW1611REMMET062METAR SBQV 292100Z 31009KT 5000 -RA BKN008 OVC070 19/19 Q1017;
0143833440999992008112922004-14950-040883FM-15+0914SBQV V0203501N001010024019N0112651N1+01901+01901999999ADDGA1071+002401999GA2081+021001999GF108991999999999999999999MA1101691999999REMMET058METAR SBQV 292200Z 35002KT 9999 BKN008 OVC070 19/19 Q1017;
0143833440999992008113011004-14950-040883FM-15+0914SBQV V0200301N002110015019N0112651N1+02001+02001999999ADDGA1071+001501999GA2081+021001999GF108991999999999999999999MA1101801999999REMMET058METAR SBQV 301100Z 03004KT 9999 BKN005 OVC070 20/20 Q1018;
0143833440999992008113012004-14950-040883FM-15+0914SBQV V0200201N002610210019N0112651N1+02101+02001999999ADDGA1041+002101999GA2081+021001999GF108991999999999999999999MA1101801999999REMMET058METAR SBQV 301200Z 02005KT 9999 SCT007 OVC070 21/20 Q1018;
0166833440999992008113013004-14950-040883FM-15+0914SBQV V0200101N00311003001CN0112651N1+02201+02001999999ADDGA1021+002101999GA2041+003001999GA3081+021001999GF108991999999999999999999MA1101801999999REMMET065METAR SBQV 301300Z 01006KT 9999 FEW007 SCT010 OVC070 22/20 Q1018;
0176833440999992008113014004-14950-040883FM-15+0914SBQV V0203201N00211003001CN0112651N1+02201+02001999999ADDGA1021+002101999GA2041+003001999GA3081+021001999GF108991999999999999999999MA1101801999999MW1611REMMET069METAR SBQV 301400Z 32004KT 9999 -RA FEW007 SCT010 OVC070 22/20 Q1018;
0143833440999992008113015004-14950-040883FM-15+0914SBQV V0203301N002110240019N0112651N1+02301+02001999999ADDGA1041+003601999GA2071+024001999GF107991999999999999999999MA1101691999999REMMET058METAR SBQV 301500Z 33004KT 9999 SCT012 BKN080 23/20 Q1017;
0166833440999992008113016004-14950-040883FM-15+0914SBQV V0203201N00211004801CN0112651N1+02301+02001999999ADDGA1021+003901999GA2041+004801999GA3071+024001999GF107991999999999999999999MA1101591999999REMMET065METAR SBQV 301600Z 32004KT 9999 FEW013 SCT016 BKN080 23/20 Q1016;
0166833440999992008113017004-14950-040883FM-15+0914SBQV V0203101N00211005401CN0112651N1+02501+02001999999ADDGA1021+004501999GA2041+005401999GA3071+024001999GF107991999999999999999999MA1101491999999REMMET065METAR SBQV 301700Z 31004KT 9999 FEW015 SCT018 BKN080 25/20 Q1015;
0143833440999992008113018004-14950-040883FM-15+0914SBQV V0203001N003110054019N0112651N1+02401+01901999999ADDGA1071+005401999GA2071+024001999GF107991999999999999999999MA1101491999999REMMET058METAR SBQV 301800Z 30006KT 9999 BKN018 BKN080 24/19 Q1015;
0143833440999992008113019004-14950-040883FM-15+0914SBQV V0203001N002610048019N0112651N1+02401+02001999999ADDGA1071+004801999GA2071+021001999GF107991999999999999999999MA1101391999999REMMET058METAR SBQV 301900Z 30005KT 9999 BKN016 BKN070 24/20 Q1014;
0143833440999992008113020004-14950-040883FM-15+0914SBQV V0202601N001510210019N0112651N1+02301+02001999999ADDGA1041+004501999GA2071+021001999GF107991999999999999999999MA1101391999999REMMET058METAR SBQV 302000Z 26003KT 9999 SCT015 BKN070 23/20 Q1014;
0143833440999992008113021004-14950-040883FM-15+0914SBQV V0209999C000010210019N0112651N1+02301+02001999999ADDGA1021+003901999GA2071+021001999GF107991999999999999999999MA1101391999999REMMET058METAR SBQV 302100Z 00000KT 9999 FEW013 BKN070 23/20 Q1014;
0072833440999992008113022004-14950-040883FM-15+0914SBQV V0209999C00001220001CN0099001N1+02201+02101999999ADDMA1101491999999REMMET045METAR SBQV 302200Z 00000KT CAVOK 22/21 Q1015;
0143833440999992008120111004-14950-040883FM-15+0914SBQV V0203201N002610210019N0112651N1+02301+02101999999ADDGA1041+003001999GA2071+021001999GF107991999999999999999999MA1101691999999REMMET058METAR SBQV 011100Z 32005KT 9999 SCT010 BKN070 23/21 Q1017;
0143833440999992008120112004-14950-040883FM-15+0914SBQV V0203101N004112200019N0112651N1+02501+02101999999ADDGA1041+003901999GA2041+024001999GF104991999999999999999999MA1101691999999REMMET058METAR SBQV 011200Z 31008KT 9999 SCT013 SCT080 25/21 Q1017;
0143833440999992008120113004-14950-040883FM-15+0914SBQV V0203001N005712200019N0112651N1+02501+02101999999ADDGA1041+004501999GA2041+024001999GF104991999999999999999999MA1101691999999REMMET058METAR SBQV 011300Z 30011KT 9999 SCT015 SCT080 25/21 Q1017;
0143833440999992008120114004-14950-040883FM-15+0914SBQV V0202901N004610045019N0112651N1+02301+02201999999ADDGA1071+004501999GA2071+021001999GF107991999999999999999999MA1101691999999REMMET058METAR SBQV 011400Z 29009KT 9999 BKN015 BKN070 23/22 Q1017;
0143833440999992008120115004-14950-040883FM-15+0914SBQV V0203101N003612200019N0112651N1+02601+02201999999ADDGA1041+004501999GA2041+006001999GF104991999999999999999999MA1101591999999REMMET058METAR SBQV 011500Z 31007KT 9999 SCT015 SCT020 26/22 Q1016;
0143833440999992008120116004-14950-040883FM-15+0914SBQV V0203401N000512200019N0112651N1+02501+02301999999ADDGA1021+003901999GA2041+005401999GF104991999999999999999999MA1101491999999REMMET058METAR SBQV 011600Z 34001KT 9999 FEW013 SCT018 25/23 Q1015;
0200833440999992008120117004-14950-040883FM-15+0914SBQV V0203201N00101005401CN0112651N1+02601+02301999999ADDGA1021+003901999GA2021+004501091GA3041+005401999GA4071+024001999GF107991999999999999999999MA1101391999999MW1171REMMET077METAR SBQV 011700Z 32002KT 9999 TS FEW013 FEW015CB SCT018 BKN080 26/23 Q1014;
0148833440999992008120118004-14950-040883FM-15+0914SBQV V0203501N001012200019N0112651N1+02201+02201999999ADDGA1021+004801999GA2041+024001999GF104991999999999999999999MA1101391999999REMMET063METAR SBQV 011800Z 35002KT 9999 FEW016 SCT080 22/22 Q1014 RETS;
0143833440999992008120119004-14950-040883FM-15+0914SBQV V0203201N001510240019N0112651N1+02401+02101999999ADDGA1021+006001999GA2071+024001999GF107991999999999999999999MA1101291999999REMMET058METAR SBQV 011900Z 32003KT 9999 FEW020 BKN080 24/21 Q1013;
0186833440999992008120121004-14950-040883FM-15+0914SBQV V0201501N00671004501CN0009001N1+02201+02101999999ADDGA1041+001801999GA2021+004501091GA3071+024001999GF107991999999999999999999MA1101491999999MW1821MW2971REMMET073METAR SBQV 012100Z 15013KT 0900 +TSRA SCT006 FEW015CB BKN080 22/21 Q1015;
0150833440999992008120122004-14950-040883FM-15+0914SBQV V0201001N003610210019N0112651N1+02001+02001999999ADDGA1021+001501999GA2071+021001999GF107991999999999999999999MA1101491999999REMMET065METAR SBQV 012200Z 10007KT 9999 FEW005 BKN070 20/20 Q1015 RETSRA;
0143833440999992008120211004-14950-040883FM-15+0914SBQV V0202901N004110210019N0112651N1+02001+01901999999ADDGA1021+004501999GA2081+021001999GF108991999999999999999999MA1101691999999REMMET058METAR SBQV 021100Z 29008KT 9999 FEW015 OVC070 20/19 Q1017;
0143833440999992008120212004-14950-040883FM-15+0914SBQV V0203001N005710210019N0112651N1+02201+02001999999ADDGA1021+001801999GA2071+021001999GF107991999999999999999999MA1101691999999REMMET058METAR SBQV 021200Z 30011KT 9999 FEW006 BKN070 22/20 Q1017;
0136833440999992008120213004-14950-040883FM-15+0914SBQV V0202901N00621004801CN0112651N1+02401+02101999999ADDGA1071+004801999GA2041+024001999MA1101591999999REMMET058METAR SBQV 021300Z 29012KT 9999 BKN016 SCT080 24/21 Q1016;EQDQ01+000042SCOTCV
0143833440999992008120214004-14950-040883FM-15+0914SBQV V0202801N005712200019N0112651N1+02401+02101999999ADDGA1041+004801999GA2041+024001999GF104991999999999999999999MA1101591999999REMMET058METAR SBQV 021400Z 28011KT 9999 SCT016 SCT080 24/21 Q1016;
0120833440999992008120215004-14950-040883FM-15+0914SBQV V0202801N004612200019N0112651N1+02501+02101999999ADDGA1021+005401999GF102991999999999999999999MA1101491999999REMMET051METAR SBQV 021500Z 28009KT 9999 FEW018 25/21 Q1015;
0143833440999992008120216004-14950-040883FM-15+0914SBQV V0202801N004610240019N0112651N1+02501+02101999999ADDGA1021+005401999GA2071+024001999GF107991999999999999999999MA1101291999999REMMET058METAR SBQV 021600Z 28009KT 9999 FEW018 BKN080 25/21 Q1013;
0120833440999992008120217004-14950-040883FM-15+0914SBQV V0202801N004112200019N0112651N1+02501+02101999999ADDGA1021+005401999GF102991999999999999999999MA1101291999999REMMET051METAR SBQV 021700Z 28008KT 9999 FEW018 25/21 Q1013;
0143833440999992008120218004-14950-040883FM-15+0914SBQV V0202701N004610900019N0112651N1+02601+02101999999ADDGA1041+006001999GA2071+090001999GF107991999999999999999999MA1101191999999REMMET058METAR SBQV 021800Z 27009KT 9999 SCT020 BKN300 26/21 Q1012;
0143833440999992008120219004-14950-040883FM-15+0914SBQV V0202801N003612200019N0112651N1+02501+02101999999ADDGA1021+006001999GA2041+090001999GF104991999999999999999999MA1101191999999REMMET058METAR SBQV 021900Z 28007KT 9999 FEW020 SCT300 25/21 Q1012;
0143833440999992008120220004-14950-040883FM-15+0914SBQV V0203201N002112200019N0112651N1+02501+02201999999ADDGA1041+004801999GA2041+090001999GF104991999999999999999999MA1101081999999REMMET058METAR SBQV 022000Z 32004KT 9999 SCT016 SCT300 25/22 Q1011;
0143833440999992008120221004-14950-040883FM-15+0914SBQV V0203101N002112200019N0112651N1+02201+02101999999ADDGA1021+004501999GA2041+024001999GF104991999999999999999999MA1101191999999REMMET058METAR SBQV 022100Z 31004KT 9999 FEW015 SCT080 22/21 Q1012;
0154833440999992008120311004-14950-040883FM-15+0914SBQV V0203101N005710024019N0112651N1+02201+02101999999ADDGA1071+002401999GA2071+021001999GF107991999999999999999999MA1101291999999OC101081REMMET061METAR SBQV 031100Z 31011G21KT 9999 BKN008 BKN070 22/21 Q1013;
0143833440999992008120312004-14950-040883FM-15+0914SBQV V0203101N007710210019N0112651N1+02301+02001999999ADDGA1041+003601999GA2071+021001999GF107991999999999999999999MA1101291999999REMMET058METAR SBQV 031200Z 31015KT 9999 SCT012 BKN070 23/20 Q1013;
0154833440999992008120313004-14950-040883FM-15+0914SBQV V0203001N005110045019N0112651N1+02301+02101999999ADDGA1071+004501999GA2071+021001999GF107991999999999999999999MA1101291999999OC101181REMMET061METAR SBQV 031300Z 30010G23KT 9999 BKN015 BKN070 23/21 Q1013;
0147833440999992008120314004-14950-040883FM-15+0914SBQV V0203101N00621004801CN0112651N1+02401+02101999999ADDGA1071+004801999GA2041+024001999MA1101291999999OC101131REMMET061METAR SBQV 031400Z 31012G22KT 9999 BKN016 SCT080 24/21 Q1013;EQDQ01+000042SCOTCV
0136833440999992008120315004-14950-040883FM-15+0914SBQV V0203001N00771005401CN0112651N1+02501+02001999999ADDGA1071+005401999GA2041+024001999MA1101191999999REMMET058METAR SBQV 031500Z 30015KT 9999 BKN018 SCT080 25/20 Q1012;EQDQ01+000042SCOTCV
0136833440999992008120316004-14950-040883FM-15+0914SBQV V0203001N00571006001CN0112651N1+02601+02001999999ADDGA1071+006001999GA2041+024001999MA1101081999999REMMET058METAR SBQV 031600Z 30011KT 9999 BKN020 SCT080 26/20 Q1011;EQDQ01+000042SCOTCV
0136833440999992008120317004-14950-040883FM-15+0914SBQV V0203101N00511006001CN0112651N1+02701+02001999999ADDGA1071+006001999GA2041+024001999MA1101021999999REMMET058METAR SBQV 031700Z 31010KT 9999 BKN020 SCT080 27/20 Q1010;EQDQ01+000042SCOTCV
0169833440999992008120318004-14950-040883FM-15+0914SBQV V0203001N006712200019N0112651N1+02701+02001999999ADDGA1041+006001999GA2021+007501021GA3041+024001999GF104991999999999999999999MA1101021999999REMMET068METAR SBQV 031800Z 30013KT 9999 SCT020 FEW025TCU SCT080 27/20 Q1010;
0143833440999992008120319004-14950-040883FM-15+0914SBQV V0202901N007210240019N0112651N1+02501+02001999999ADDGA1021+006001999GA2071+024001999GF107991999999999999999999MA1101021999999REMMET058METAR SBQV 031900Z 29014KT 9999 FEW020 BKN080 25/20 Q1010;
0169833440999992008120320004-14950-040883FM-15+0914SBQV V0203001N004110240019N0112651N1+02401+02101999999ADDGA1021+006001999GA2021+007501021GA3071+024001999GF107991999999999999999999MA1101021999999REMMET068METAR SBQV 032000Z 30008KT 9999 FEW020 FEW025TCU BKN080 24/21 Q1010;
0143833440999992008120321004-14950-040883FM-15+0914SBQV V0203001N003610240019N0112651N1+02401+02101999999ADDGA1021+004801999GA2081+024001999GF108991999999999999999999MA1101021999999REMMET058METAR SBQV 032100Z 30007KT 9999 FEW016 OVC080 24/21 Q1010;
0143833440999992008120322004-14950-040883FM-15+0914SBQV V0203401N003610240019N0112651N1+02401+01901999999ADDGA1021+004801999GA2081+024001999GF108991999999999999999999MA1101191999999REMMET058METAR SBQV 032200Z 34007KT 9999 FEW016 OVC080 24/19 Q1012;
0143833440999992008120411004-14950-040883FM-15+0914SBQV V0203201N004610240019N0112651N1+02301+02101999999ADDGA1041+004801999GA2071+024001999GF107991999999999999999999MA1101491999999REMMET058METAR SBQV 041100Z 32009KT 9999 SCT016 BKN080 23/21 Q1015;
0166833440999992008120412004-14950-040883FM-15+0914SBQV V0203001N00461006001CN0112651N1+02301+02001999999ADDGA1041+004801999GA2041+006001999GA3071+024001999GF107991999999999999999999MA1101491999999REMMET065METAR SBQV 041200Z 30009KT 9999 SCT016 SCT020 BKN080 23/20 Q1015;
0166833440999992008120413004-14950-040883FM-15+0914SBQV V0202801N00511006001CN0112651N1+02301+02101999999ADDGA1021+004801999GA2041+006001999GA3071+024001999GF107991999999999999999999MA1101591999999REMMET065METAR SBQV 041300Z 28010KT 9999 FEW016 SCT020 BKN080 23/21 Q1016;
0143833440999992008120414004-14950-040883FM-15+0914SBQV V0203001N006710270019N0112651N1+02401+02101999999ADDGA1021+007501999GA2071+027001999GF107991999999999999999999MA1101491999999REMMET058METAR SBQV 041400Z 30013KT 9999 FEW025 BKN090 24/21 Q1015;
0143833440999992008120415004-14950-040883FM-15+0914SBQV V0202901N005110270019N0112651N1+02501+02101999999ADDGA1041+007501999GA2071+027001999GF107991999999999999999999MA1101491999999REMMET058METAR SBQV 041500Z 29010KT 9999 SCT025 BKN090 25/21 Q1015;
0143833440999992008120416004-14950-040883FM-15+0914SBQV V0202901N006710270019N0112651N1+02601+02101999999ADDGA1041+007501999GA2071+027001999GF107991999999999999999999MA1101391999999REMMET058METAR SBQV 041600Z 29013KT 9999 SCT025 BKN090 26/21 Q1014;
0143833440999992008120417004-14950-040883FM-15+0914SBQV V0203201N004110270019N0112651N1+02501+02001999999ADDGA1041+007501999GA2071+027001999GF107991999999999999999999MA1101291999999REMMET058METAR SBQV 041700Z 32008KT 9999 SCT025 BKN090 25/20 Q1013;
0143833440999992008120418004-14950-040883FM-15+0914SBQV V0203201N003110270019N0112651N1+02601+02101999999ADDGA1021+007501999GA2071+027001999GF107991999999999999999999MA1101291999999REMMET058METAR SBQV 041800Z 32006KT 9999 FEW025 BKN090 26/21 Q1013;
0143833440999992008120419004-14950-040883FM-15+0914SBQV V0203301N002612200019N0112651N1+02601+02001999999ADDGA1021+007501999GA2041+027001999GF104991999999999999999999MA1101291999999REMMET058METAR SBQV 041900Z 33005KT 9999 FEW025 SCT090 26/20 Q1013;
0120833440999992008120420004-14950-040883FM-15+0914SBQV V0203101N002612200019N0112651N1+02701+02001999999ADDGA1021+007501999GF102991999999999999999999MA1101291999999REMMET051METAR SBQV 042000Z 31005KT 9999 FEW025 27/20 Q1013;
0154833440999992008120421004-14950-040883FM-15+0914SBQV V0203201N000512200019N0112651N1+02601+02101999999ADDGA1021+007501999GA2021+009001091GF102991999999999999999999MA1101391999999MW1171REMMET063METAR SBQV 042100Z 32001KT 9999 TS FEW025 FEW030CB 26/21 Q1014;
0156833440999992008120422004-14950-040883FM-15+0914SBQV V0203201N00411004501CN0112651N1+02401+02101999999ADDGA1071+004501999GA2021+006001091MA1101491999999MW1801MW2951REMMET066METAR SBQV 042200Z 32008KT 9999 -TSRA BKN015 FEW020CB 24/21 Q1015;EQDQ01+000022SCOTCV
0143833440999992008120511004-14950-040883FM-15+0914SBQV V0201101N003110012019N0112651N1+02001+02001999999ADDGA1071+001201999GA2071+021001999GF107991999999999999999999MA1101901999999REMMET058METAR SBQV 051100Z 11006KT 9999 BKN004 BKN070 20/20 Q1019;
0166833440999992008120512004-14950-040883FM-15+0914SBQV V0201501N002110033019N0112651N1+02201+02101999999ADDGA1021+002401999GA2071+003301999GA3071+021001999GF107991999999999999999999MA1101901999999REMMET065METAR SBQV 051200Z 15004KT 9999 FEW008 BKN011 BKN070 22/21 Q1019;
0143833440999992008120513004-14950-040883FM-15+0914SBQV V0201501N000510210019N0112651N1+02301+02101999999ADDGA1041+003301999GA2071+021001999GF107991999999999999999999MA1101901999999REMMET058METAR SBQV 051300Z 15001KT 9999 SCT011 BKN070 23/21 Q1019;
0166833440999992008120514004-14950-040883FM-15+0914SBQV V0209999C00001004501CN0112651N1+02401+02101999999ADDGA1041+003301999GA2041+004501999GA3071+024001999GF107991999999999999999999MA1101901999999REMMET065METAR SBQV 051400Z 00000KT 9999 SCT011 SCT015 BKN080 24/21 Q1019;
0143833440999992008120515004-14950-040883FM-15+0914SBQV V0200801N003110210019N0112651N1+02301+02201999999ADDGA1041+003001999GA2071+021001999GF107991999999999999999999MA1101901999999REMMET058METAR SBQV 051500Z 08006KT 9999 SCT010 BKN070 23/22 Q1019;
0176833440999992008120516004-14950-040883FM-15+0914SBQV V0200801N00411004501CN0070001N1+02401+02201999999ADDGA1021+003001999GA2041+004501999GA3071+024001999GF107991999999999999999999MA1101801999999MW1611REMMET069METAR SBQV 051600Z 08008KT 7000 -RA FEW010 SCT015 BKN080 24/22 Q1018;
0143833440999992008120518004-14950-040883FM-15+0914SBQV V0201201N005110033019N0112651N1+02201+02101999999ADDGA1071+003301999GA2071+021001999GF107991999999999999999999MA1101691999999REMMET058METAR SBQV 051800Z 12010KT 9999 BKN011 BKN070 22/21 Q1017;
0143833440999992008120519004-14950-040883FM-15+0914SBQV V0201101N005110030019N0112651N1+02201+02101999999ADDGA1071+003001999GA2071+021001999GF107991999999999999999999MA1101691999999REMMET058METAR SBQV 051900Z 11010KT 9999 BKN010 BKN070 22/21 Q1017;
0136833440999992008120520004-14950-040883FM-15+0914SBQV V0201001N00511003001CN0112651N1+02201+02101999999ADDGA1071+003001999GA2041+021001999MA1101691999999REMMET058METAR SBQV 052000Z 10010KT 9999 BKN010 SCT070 22/21 Q1017;EQDQ01+000042SCOTCV
0136833440999992008120521004-14950-040883FM-15+0914SBQV V0201201N00461002701CN0112651N1+02101+02101999999ADDGA1071+002701999GA2041+021001999MA1101801999999REMMET058METAR SBQV 052100Z 12009KT 9999 BKN009 SCT070 21/21 Q1018;EQDQ01+000042SCOTCV
0170833440999992008120522004-14950-040883FM-15+0914SBQV V0201101N00461002401CN0080001N1+02101+02101999999ADDGA1021+001801999GA2071+002401999GA3021+005401091MA1101901999999MW1171REMMET070METAR SBQV 052200Z 11009KT 8000 TS FEW006 BKN008 FEW018CB 21/21 Q1019;EQDQ01+000022SCOTCV
0143833440999992008120611004-14950-040883FM-15+0914SBQV V0201201N004610018019N0112651N1+01901+01901999999ADDGA1071+001801999GA2081+002401999GF108991999999999999999999MA1102101999999REMMET058METAR SBQV 061100Z 12009KT 9999 BKN006 OVC008 19/19 Q1021;
0120833440999992008120612004-14950-040883FM-15+0914SBQV V0201201N005110027019N0112651N1+02001+01901999999ADDGA1081+002701999GF108991999999999999999999MA1102101999999REMMET051METAR SBQV 061200Z 12010KT 9999 OVC009 20/19 Q1021;
0143833440999992008120613004-14950-040883FM-15+0914SBQV V0201201N004610030019N0112651N1+02101+02001999999ADDGA1071+003001999GA2081+021001999GF108991999999999999999999MA1102101999999REMMET058METAR SBQV 061300Z 12009KT 9999 BKN010 OVC070 21/20 Q1021;
0143833440999992008120614004-14950-040883FM-15+0914SBQV V0201101N004110033019N0112651N1+02201+02001999999ADDGA1071+003301999GA2071+021001999GF107991999999999999999999MA1102101999999REMMET058METAR SBQV 061400Z 11008KT 9999 BKN011 BKN070 22/20 Q1021;
0143833440999992008120615004-14950-040883FM-15+0914SBQV V0201301N004112200019N0112651N1+02301+02101999999ADDGA1041+003901999GA2041+004501999GF104991999999999999999999MA1102001999999REMMET058METAR SBQV 061500Z 13008KT 9999 SCT013 SCT015 23/21 Q1020;
0143833440999992008120616004-14950-040883FM-15+0914SBQV V0201101N004612200019N0112651N1+02401+02101999999ADDGA1021+004501999GA2041+004801999GF104991999999999999999999MA1101901999999REMMET058METAR SBQV 061600Z 11009KT 9999 FEW015 SCT016 24/21 Q1019;
0143833440999992008120617004-14950-040883FM-15+0914SBQV V0201201N004612200019N0112651N1+02401+02101999999ADDGA1021+004501999GA2041+004801999GF104991999999999999999999MA1101901999999REMMET058METAR SBQV 061700Z 12009KT 9999 FEW015 SCT016 24/21 Q1019;
0143833440999992008120618004-14950-040883FM-15+0914SBQV V0201301N005712200019N0112651N1+02501+02101999999ADDGA1041+004801999GA2041+024001999GF104991999999999999999999MA1101801999999REMMET058METAR SBQV 061800Z 13011KT 9999 SCT016 SCT080 25/21 Q1018;
0143833440999992008120619004-14950-040883FM-15+0914SBQV V0201301N006712200019N0112651N1+02301+02101999999ADDGA1041+004801999GA2041+024001999GF104991999999999999999999MA1101801999999REMMET058METAR SBQV 061900Z 13013KT 9999 SCT016 SCT080 23/21 Q1018;
0143833440999992008120620004-14950-040883FM-15+0914SBQV V0201201N005710240019N0112651N1+02201+02101999999ADDGA1021+002401999GA2071+024001999GF107991999999999999999999MA1101901999999REMMET058METAR SBQV 062000Z 12011KT 9999 FEW008 BKN080 22/21 Q1019;
0153833440999992008120621004-14950-040883FM-15+0914SBQV V0201201N005710210019N0050001N1+02101+02101999999ADDGA1041+002101999GA2071+021001999GF107991999999999999999999MA1101901999999MW1511REMMET062METAR SBQV 062100Z 12011KT 5000 -DZ SCT007 BKN070 21/21 Q1019;
0143833440999992008120622004-14950-040883FM-15+0914SBQV V0201201N006710018019N0112651N1+02001+02001999999ADDGA1071+001801999GA2071+021001999GF107991999999999999999999MA1102001999999REMMET058METAR SBQV 062200Z 12013KT 9999 BKN006 BKN070 20/20 Q1020;
0170833440999992008120711004-14950-040883FM-15+0914SBQV V0201201N003610012019N0015001N1+01901+01901999999ADDGA1071+001201999GA2081+001801999GF108991999999999999999999MA1102201999999MW1101MW2511MW3611REMMET067METAR SBQV 071100Z 12007KT 1500 -RADZ BR BKN004 OVC006 19/19 Q1022;
0143833440999992008120712004-14950-040883FM-15+0914SBQV V0201201N003610021019N0112651N1+02001+02001999999ADDGA1041+001501999GA2071+002101999GF107991999999999999999999MA1102201999999REMMET058METAR SBQV 071200Z 12007KT 9999 SCT005 BKN007 20/20 Q1022;
0161833440999992008120713004-14950-040883FM-15+0914SBQV V0201201N003610024019N0050001N1+02101+02101999999ADDGA1041+001801999GA2081+002401999GF108991999999999999999999MA1102201999999MW1511MW2611REMMET064METAR SBQV 071300Z 12007KT 5000 -RADZ SCT006 OVC008 21/21 Q1022;
0143833440999992008120714004-14950-040883FM-15+0914SBQV V0201201N004610030019N0112651N1+02201+02001999999ADDGA1071+003001999GA2071+021001999GF107991999999999999999999MA1102201999999REMMET058METAR SBQV 071400Z 12009KT 9999 BKN010 BKN070 22/20 Q1022;
0166833440999992008120715004-14950-040883FM-15+0914SBQV V0201201N00411004801CN0112651N1+02301+02101999999ADDGA1041+003901999GA2041+004801999GA3071+021001999GF107991999999999999999999MA1102101999999REMMET065METAR SBQV 071500Z 12008KT 9999 SCT013 SCT016 BKN070 23/21 Q1021;
0136833440999992008120716004-14950-040883FM-15+0914SBQV V0201401N00411004801CN0112651N1+02401+02201999999ADDGA1071+004801999GA2041+024001999MA1102101999999REMMET058METAR SBQV 071600Z 14008KT 9999 BKN016 SCT080 24/22 Q1021;EQDQ01+000042SCOTCV
0143833440999992008120717004-14950-040883FM-15+0914SBQV V0201401N005712200019N0112651N1+02401+02101999999ADDGA1021+003001999GA2041+004801999GF104991999999999999999999MA1102001999999REMMET058METAR SBQV 071700Z 14011KT 9999 FEW010 SCT016 24/21 Q1020;
0146833440999992008120718004-14950-040883FM-15+0914SBQV V0201301N00461001801CN0050001N1+02201+02101999999ADDGA1071+001801999GA2041+021001999MA1101901999999MW1511REMMET062METAR SBQV 071800Z 13009KT 5000 -DZ BKN006 SCT070 22/21 Q1019;EQDQ01+000042SCOTCV
0171833440999992008120719004-14950-040883FM-15+0914SBQV V0200901N001010021019N0112651N1+02101+02101999999ADDGA1021+001501999GA2071+002101999GA3071+021001999GF107991999999999999999999MA1102001999999REMMET070METAR SBQV 071900Z 09002KT 9999 FEW005 BKN007 BKN070 21/21 Q1020 RERA;
0176833440999992008120720004-14950-040883FM-15+0914SBQV V0201401N005710021019N0070001N1+02101+02101999999ADDGA1021+001501999GA2071+002101999GA3071+021001999GF107991999999999999999999MA1102001999999MW1611REMMET069METAR SBQV 072000Z 14011KT 7000 -RA FEW005 BKN007 BKN070 21/21 Q1020;
0176833440999992008120721004-14950-040883FM-15+0914SBQV V0200801N001510021019N0080001N1+02001+02001999999ADDGA1041+001501999GA2071+002101999GA3081+021001999GF108991999999999999999999MA1102101999999MW1611REMMET069METAR SBQV 072100Z 08003KT 8000 -RA SCT005 BKN007 OVC070 20/20 Q1021;
0176833440999992008120722004-14950-040883FM-15+0914SBQV V0201301N00311002101CN0112651N1+01901+01901999999ADDGA1041+001501999GA2041+002101999GA3081+021001999GF108991999999999999999999MA1102101999999MW1611REMMET069METAR SBQV 072200Z 13006KT 9999 -RA SCT005 SCT007 OVC070 19/19 Q1021;
0129833440999992008120811004-14950-040883FM-15+0914SBQV V0201301N006210015019N0010001N1+01801+01801999999ADDGA1081+001501999GF108991999999999999999999MA1102201999999MW1101REMMET054METAR SBQV 081100Z 13012KT 1000 BR OVC005 18/18 Q1022;
0130833440999992008120812004-14950-040883FM-15+0914SBQV V0201301N004110015019N0020001N1+01901+01901999999ADDGA1081+001501999GF108991999999999999999999MA1102301999999MW1511REMMET055METAR SBQV 081200Z 13008KT 2000 -DZ OVC005 19/19 Q1023;
0130833440999992008120813004-14950-040883FM-15+0914SBQV V0201301N005710015019N0020001N1+01901+01901999999ADDGA1081+001501999GF108991999999999999999999MA1102301999999MW1511REMMET055METAR SBQV 081300Z 13011KT 2000 -DZ OVC005 19/19 Q1023;
0152833440999992008120814004-14950-040883FM-15+0914SBQV V0201301N004110015019N0030001N1+01901+01901999999ADDGA1071+001501999GA2071+003001999GF107991999999999999999999MA1102301999999MW1101REMMET061METAR SBQV 081400Z 13008KT 3000 BR BKN005 BKN010 19/19 Q1023;
0143833440999992008120815004-14950-040883FM-15+0914SBQV V0201401N004610015019N0112651N1+01901+01901999999ADDGA1071+001501999GA2071+003001999GF107991999999999999999999MA1102201999999REMMET058METAR SBQV 081500Z 14009KT 9999 BKN005 BKN010 19/19 Q1022;
0143833440999992008120816004-14950-040883FM-15+0914SBQV V0201401N005110018019N0112651N1+02001+01901999999ADDGA1071+001801999GA2071+003301999GF107991999999999999999999MA1102101999999REMMET058METAR SBQV 081600Z 14010KT 9999 BKN006 BKN011 20/19 Q1021;
0136833440999992008120822004-14950-040883FM-15+0914SBQV V0201301N00571001201CN0112651N1+01901+01901999999ADDGA1071+001201999GA2041+002401999MA1102101999999REMMET058METAR SBQV 082200Z 13011KT 9999 BKN004 SCT008 19/19 Q1021;EQDQ01+000042SCOTCV
0143833440999992008120911004-14950-040883FM-15+0914SBQV V0201001N004610210019N0112651N1+02001+01801999999ADDGA1021+004501999GA2071+021001999GF107991999999999999999999MA1102101999999REMMET058METAR SBQV 091100Z 10009KT 9999 FEW015 BKN070 20/18 Q1021;
0143833440999992008120912004-14950-040883FM-15+0914SBQV V0201001N004110240019N0112651N1+02201+01801999999ADDGA1021+006001999GA2071+024001999GF107991999999999999999999MA1102101999999REMMET058METAR SBQV 091200Z 10008KT 9999 FEW020 BKN080 22/18 Q1021;
0136833440999992008120913004-14950-040883FM-15+0914SBQV V0201301N00361006001CN0112651N1+02201+01901999999ADDGA1071+006001999GA2041+024001999MA1102201999999REMMET058METAR SBQV 091300Z 13007KT 9999 BKN020 SCT080 22/19 Q1022;EQDQ01+000042SCOTCV
0120833440999992008120914004-14950-040883FM-15+0914SBQV V0201301N003610060019N0112651N1+02201+01801999999ADDGA1071+006001999GF107991999999999999999999MA1102101999999REMMET051METAR SBQV 091400Z 13007KT 9999 BKN020 22/18 Q1021;
0120833440999992008120915004-14950-040883FM-15+0914SBQV V0201201N004110060019N0112651N1+02301+01901999999ADDGA1071+006001999GF107991999999999999999999MA1102001999999REMMET051METAR SBQV 091500Z 12008KT 9999 BKN020 23/19 Q1020;
0120833440999992008120916004-14950-040883FM-15+0914SBQV V0201201N003610060019N0112651N1+02301+01801999999ADDGA1071+006001999GF107991999999999999999999MA1102001999999REMMET051METAR SBQV 091600Z 12007KT 9999 BKN020 23/18 Q1020;
0120833440999992008120917004-14950-040883FM-15+0914SBQV V0201101N003110060019N0112651N1+02301+01901999999ADDGA1071+006001999GF107991999999999999999999MA1101901999999REMMET051METAR SBQV 091700Z 11006KT 9999 BKN020 23/19 Q1019;
0136833440999992008120918004-14950-040883FM-15+0914SBQV V0201201N00511006001CN0112651N1+02301+01901999999ADDGA1071+006001999GA2041+024001999MA1101801999999REMMET058METAR SBQV 091800Z 12010KT 9999 BKN020 SCT080 23/19 Q1018;EQDQ01+000042SCOTCV
0143833440999992008120919004-14950-040883FM-15+0914SBQV V0201201N004612200019N0112651N1+02301+01901999999ADDGA1041+006001999GA2041+024001999GF104991999999999999999999MA1101801999999REMMET058METAR SBQV 091900Z 12009KT 9999 SCT020 SCT080 23/19 Q1018;
0143833440999992008120920004-14950-040883FM-15+0914SBQV V0201201N005110210019N0112651N1+02201+01901999999ADDGA1041+006001999GA2071+021001999GF107991999999999999999999MA1101801999999REMMET058METAR SBQV 092000Z 12010KT 9999 SCT020 BKN070 22/19 Q1018;
0143833440999992008120921004-14950-040883FM-15+0914SBQV V0201201N005710210019N0112651N1+02201+01901999999ADDGA1021+005401999GA2071+021001999GF107991999999999999999999MA1101901999999REMMET058METAR SBQV 092100Z 12011KT 9999 FEW018 BKN070 22/19 Q1019;
0072833440999992008120922004-14950-040883FM-15+0914SBQV V0201101N00311999999CY0099001N1+02101+01901999999ADDMA1101901999999REMMET045METAR SBQV 092200Z 11006KT CAVOK 21/19 Q1019;
0143833440999992008121011004-14950-040883FM-15+0914SBQV V0201001N004610045019N0112651N1+02101+01901999999ADDGA1021+003901999GA2071+004501999GF107991999999999999999999MA1101901999999REMMET058METAR SBQV 101100Z 10009KT 9999 FEW013 BKN015 21/19 Q1019;
0143833440999992008121012004-14950-040883FM-15+0914SBQV V0200901N004610045019N0112651N1+02101+01801999999ADDGA1041+003901999GA2071+004501999GF107991999999999999999999MA1101901999999REMMET058METAR SBQV 101200Z 09009KT 9999 SCT013 BKN015 21/18 Q1019;
0143833440999992008121013004-14950-040883FM-15+0914SBQV V0201001N004110045019N0112651N1+02201+01901999999ADDGA1041+003901999GA2071+004501999GF107991999999999999999999MA1101901999999REMMET058METAR SBQV 101300Z 10008KT 9999 SCT013 BKN015 22/19 Q1019;
0120833440999992008121014004-14950-040883FM-15+0914SBQV V0200901N003110048019N0112651N1+02401+01901999999ADDGA1071+004801999GF107991999999999999999999MA1101901999999REMMET051METAR SBQV 101400Z 09006KT 9999 BKN016 24/19 Q1019;
0120833440999992008121015004-14950-040883FM-15+0914SBQV V0200401N002610060019N0112651N1+02501+01801999999ADDGA1071+006001999GF107991999999999999999999MA1101801999999REMMET051METAR SBQV 101500Z 04005KT 9999 BKN020 25/18 Q1018;
0120833440999992008121016004-14950-040883FM-15+0914SBQV V0200601N003610060019N0112651N1+02701+01801999999ADDGA1071+006001999GF107991999999999999999999MA1101691999999REMMET051METAR SBQV 101600Z 06007KT 9999 BKN020 27/18 Q1017;
0120833440999992008121017004-14950-040883FM-15+0914SBQV V0200801N003610060019N0112651N1+02701+01701999999ADDGA1071+006001999GF107991999999999999999999MA1101591999999REMMET051METAR SBQV 101700Z 08007KT 9999 BKN020 27/17 Q1016;
0120833440999992008121018004-14950-040883FM-15+0914SBQV V0201001N003610060019N0112651N1+02801+01701999999ADDGA1071+006001999GF107991999999999999999999MA1101491999999REMMET051METAR SBQV 101800Z 10007KT 9999 BKN020 28/17 Q1015;
0120833440999992008121019004-14950-040883FM-15+0914SBQV V0200801N004112200019N0112651N1+02701+01801999999ADDGA1041+005401999GF104991999999999999999999MA1101391999999REMMET051METAR SBQV 101900Z 08008KT 9999 SCT018 27/18 Q1014;
0120833440999992008121020004-14950-040883FM-15+0914SBQV V0201101N004612200019N0112651N1+02501+01901999999ADDGA1041+004801999GF104991999999999999999999MA1101391999999REMMET051METAR SBQV 102000Z 11009KT 9999 SCT016 25/19 Q1014;
0120833440999992008121021004-14950-040883FM-15+0914SBQV V0201001N004112200019N0112651N1+02501+01801999999ADDGA1041+004501999GF104991999999999999999999MA1101391999999REMMET051METAR SBQV 102100Z 10008KT 9999 SCT015 25/18 Q1014;
0120833440999992008121022004-14950-040883FM-15+0914SBQV V0201001N002612200019N0112651N1+02301+01901999999ADDGA1021+004501999GF102991999999999999999999MA1101491999999REMMET051METAR SBQV 102200Z 10005KT 9999 FEW015 23/19 Q1015;
0120833440999992008121111004-14950-040883FM-15+0914SBQV V0200701N004112200019N0112651N1+02001+01801999999ADDGA1041+003301999GF104991999999999999999999MA1101801999999REMMET051METAR SBQV 111100Z 07008KT 9999 SCT011 20/18 Q1018;
0120833440999992008121112004-14950-040883FM-15+0914SBQV V0200401N004612200019N0112651N1+02301+01901999999ADDGA1021+004501999GF102991999999999999999999MA1101801999999REMMET051METAR SBQV 111200Z 04009KT 9999 FEW015 23/19 Q1018;
0120833440999992008121113004-14950-040883FM-15+0914SBQV V0200501N003610054019N0112651N1+02501+01801999999ADDGA1071+005401999GF107991999999999999999999MA1101801999999REMMET051METAR SBQV 111300Z 05007KT 9999 BKN018 25/18 Q1018;
0120833440999992008121114004-14950-040883FM-15+0914SBQV V0200101N003110060019N0112651N1+02601+01901999999ADDGA1071+006001999GF107991999999999999999999MA1101801999999REMMET051METAR SBQV 111400Z 01006KT 9999 BKN020 26/19 Q1018;
0120833440999992008121115004-14950-040883FM-15+0914SBQV V0200301N004610060019N0112651N1+02601+01801999999ADDGA1071+006001999GF107991999999999999999999MA1101691999999REMMET051METAR SBQV 111500Z 03009KT 9999 BKN020 26/18 Q1017;
0120833440999992008121116004-14950-040883FM-15+0914SBQV V0203601N003110060019N0112651N1+02601+01701999999ADDGA1071+006001999GF107991999999999999999999MA1101591999999REMMET051METAR SBQV 111600Z 36006KT 9999 BKN020 26/17 Q1016;
0120833440999992008121117004-14950-040883FM-15+0914SBQV V0203401N002612200019N0112651N1+02801+01701999999ADDGA1041+006001999GF104991999999999999999999MA1101491999999REMMET051METAR SBQV 111700Z 34005KT 9999 SCT020 28/17 Q1015;
0120833440999992008121118004-14950-040883FM-15+0914SBQV V0203501N002612200019N0112651N1+02801+01701999999ADDGA1041+006001999GF104991999999999999999999MA1101391999999REMMET051METAR SBQV 111800Z 35005KT 9999 SCT020 28/17 Q1014;
0139833440999992008121119004-14950-040883FM-15+0914SBQV V0202301N001012200019N0112651N1+02701+01901999999ADDGA1041+006001999GA2021+007501021MA1101391999999REMMET061METAR SBQV 111900Z 23002KT 9999 SCT020 FEW025TCU 27/19 Q1014;EQDQ01+000022SCOTCV
0139833440999992008121120004-14950-040883FM-15+0914SBQV V0200901N004612200019N0112651N1+02601+01901999999ADDGA1041+006001999GA2021+007501021MA1101391999999REMMET061METAR SBQV 112000Z 09009KT 9999 SCT020 FEW025TCU 26/19 Q1014;EQDQ01+000022SCOTCV
0139833440999992008121121004-14950-040883FM-15+0914SBQV V0202101N00051006001CN0112651N1+02401+02001999999ADDGA1071+006001999GA2021+007501021MA1101391999999REMMET061METAR SBQV 112100Z 21001KT 9999 BKN020 FEW025TCU 24/20 Q1014;EQDQ01+000022SCOTCV
0179833440999992008121122004-14950-040883FM-15+0914SBQV V0200401N004112200019N0112651N1+02301+02001999999ADDGA1041+004501999GA2021+006001021GA3041+024001999GF104991999999999999999999MA1101491999999MW1611REMMET072METAR SBQV 112200Z 04008KT 9999 -RA SCT015 FEW020TCU SCT080 23/20 Q1015;
0143833440999992008121123004-14950-040883FM-15+0914SBQV V0200901N002110240019N0112651N1+02201+02001999999ADDGA1041+004801999GA2071+024001999GF107991999999999999999999MA1101591999999REMMET058METAR SBQV 112300Z 09004KT 9999 SCT016 BKN080 22/20 Q1016;
0143833440999992008121200004-14950-040883FM-15+0914SBQV V0200601N004112200019N0112651N1+02101+02001999999ADDGA1041+004801999GA2041+024001999GF104991999999999999999999MA1101691999999REMMET058METAR SBQV 120000Z 06008KT 9999 SCT016 SCT080 21/20 Q1017;
0120833440999992008121211004-14950-040883FM-15+0914SBQV V0200101N003612200019N0112651N1+02301+01901999999ADDGA1041+004801999GF104991999999999999999999MA1101801999999REMMET051METAR SBQV 121100Z 01007KT 9999 SCT016 23/19 Q1018;
0120833440999992008121212004-14950-040883FM-15+0914SBQV V0200101N004110060019N0112651N1+02601+02001999999ADDGA1071+006001999GF107991999999999999999999MA1101801999999REMMET051METAR SBQV 121200Z 01008KT 9999 BKN020 26/20 Q1018;
0120833440999992008121213004-14950-040883FM-15+0914SBQV V0200501N004610060019N0112651N1+02601+01901999999ADDGA1071+006001999GF107991999999999999999999MA1101801999999REMMET051METAR SBQV 121300Z 05009KT 9999 BKN020 26/19 Q1018;
0120833440999992008121214004-14950-040883FM-15+0914SBQV V0200101N004110060019N0112651N1+02601+01901999999ADDGA1071+006001999GF107991999999999999999999MA1101801999999REMMET051METAR SBQV 121400Z 01008KT 9999 BKN020 26/19 Q1018;
0120833440999992008121215004-14950-040883FM-15+0914SBQV V0200101N002610060019N0112651N1+02601+01801999999ADDGA1071+006001999GF107991999999999999999999MA1101801999999REMMET051METAR SBQV 121500Z 01005KT 9999 BKN020 26/18 Q1018;
0120833440999992008121216004-14950-040883FM-15+0914SBQV V0200301N003112200019N0112651N1+02701+01901999999ADDGA1041+007501999GF104991999999999999999999MA1101691999999REMMET051METAR SBQV 121600Z 03006KT 9999 SCT025 27/19 Q1017;
0146833440999992008121217004-14950-040883FM-15+0914SBQV V0200101N002610090019N0112651N1+02901+01901999999ADDGA1021+007501021GA2071+009001999GF107991999999999999999999MA1101591999999REMMET061METAR SBQV 121700Z 01005KT 9999 FEW025TCU BKN030 29/19 Q1016;
0146833440999992008121218004-14950-040883FM-15+0914SBQV V0200201N004112200019N0112651N1+02901+02001999999ADDGA1021+007501021GA2041+009001999GF104991999999999999999999MA1101491999999REMMET061METAR SBQV 121800Z 02008KT 9999 FEW025TCU SCT030 29/20 Q1015;
0146833440999992008121219004-14950-040883FM-15+0914SBQV V0200101N002612200019N0112651N1+02901+01801999999ADDGA1021+007501021GA2041+009001999GF104991999999999999999999MA1101391999999REMMET061METAR SBQV 121900Z 01005KT 9999 FEW025TCU SCT030 29/18 Q1014;
0146833440999992008121220004-14950-040883FM-15+0914SBQV V0201301N004612200019N0112651N1+02601+02001999999ADDGA1021+006001021GA2041+007501999GF104991999999999999999999MA1101391999999REMMET061METAR SBQV 122000Z 13009KT 9999 FEW020TCU SCT025 26/20 Q1014;
0120833440999992008121221004-14950-040883FM-15+0914SBQV V0200301N003612200019N0112651N1+02601+01901999999ADDGA1041+005401999GF104991999999999999999999MA1101491999999REMMET051METAR SBQV 122100Z 03007KT 9999 SCT018 26/19 Q1015;
0120833440999992008121222004-14950-040883FM-15+0914SBQV V0200601N002612200019N0112651N1+02501+02001999999ADDGA1021+004801999GF102991999999999999999999MA1101491999999REMMET051METAR SBQV 122200Z 06005KT 9999 FEW016 25/20 Q1015;
0143833440999992008121311004-14950-040883FM-15+0914SBQV V0200401N003612200019N0112651N1+02201+01901999999ADDGA1041+004501999GA2041+021001999GF104991999999999999999999MA1101801999999REMMET058METAR SBQV 131100Z 04007KT 9999 SCT015 SCT070 22/19 Q1018;
0120833440999992008121312004-14950-040883FM-15+0914SBQV V0200101N003610045019N0112651N1+02201+01801999999ADDGA1071+004501999GF107991999999999999999999MA1101801999999REMMET051METAR SBQV 131200Z 01007KT 9999 BKN015 22/18 Q1018;
0120833440999992008121313004-14950-040883FM-15+0914SBQV V0200201N003110048019N0112651N1+02201+01901999999ADDGA1081+004801999GF108991999999999999999999MA1101901999999REMMET051METAR SBQV 131300Z 02006KT 9999 OVC016 22/19 Q1019;
0120833440999992008121314004-14950-040883FM-15+0914SBQV V0203501N001510054019N0112651N1+02301+01901999999ADDGA1071+005401999GF107991999999999999999999MA1101801999999REMMET051METAR SBQV 131400Z 35003KT 9999 BKN018 23/19 Q1018;
0120833440999992008121315004-14950-040883FM-15+0914SBQV V0200101N001510060019N0112651N1+02501+01901999999ADDGA1071+006001999GF107991999999999999999999MA1101691999999REMMET051METAR SBQV 131500Z 01003KT 9999 BKN020 25/19 Q1017;
0143833440999992008121316004-14950-040883FM-15+0914SBQV V0200401N003110900019N0112651N1+02501+01901999999ADDGA1041+007501999GA2071+090001999GF107991999999999999999999MA1101691999999REMMET058METAR SBQV 131600Z 04006KT 9999 SCT025 BKN300 25/19 Q1017;
0143833440999992008121317004-14950-040883FM-15+0914SBQV V0200601N002610900019N0112651N1+02701+01901999999ADDGA1021+009001999GA2071+090001999GF107991999999999999999999MA1101491999999REMMET058METAR SBQV 131700Z 06005KT 9999 FEW030 BKN300 27/19 Q1015;
0166833440999992008121318004-14950-040883FM-15+0914SBQV V0200401N00361030001CN0112651N1+02601+01901999999ADDGA1021+009001999GA2041+030001999GA3071+090001999GF107991999999999999999999MA1101491999999REMMET065METAR SBQV 131800Z 04007KT 9999 FEW030 SCT100 BKN300 26/19 Q1015;
0143833440999992008121319004-14950-040883FM-15+0914SBQV V0200501N003110900019N0112651N1+02601+01901999999ADDGA1021+009001999GA2071+090001999GF107991999999999999999999MA1101391999999REMMET058METAR SBQV 131900Z 05006KT 9999 FEW030 BKN300 26/19 Q1014;
0143833440999992008121320004-14950-040883FM-15+0914SBQV V0200601N002610900019N0112651N1+02601+01801999999ADDGA1021+009001999GA2071+090001999GF107991999999999999999999MA1101491999999REMMET058METAR SBQV 132000Z 06005KT 9999 FEW030 BKN300 26/18 Q1015;
0143833440999992008121321004-14950-040883FM-15+0914SBQV V0200101N002610900019N0112651N1+02501+01901999999ADDGA1021+006001999GA2071+090001999GF107991999999999999999999MA1101591999999REMMET058METAR SBQV 132100Z 01005KT 9999 FEW020 BKN300 25/19 Q1016;
0072833440999992008121322004-14950-040883FM-15+0914SBQV V0200701N00261999999CY0099001N1+02401+02001999999ADDMA1101591999999REMMET045METAR SBQV 132200Z 07005KT CAVOK 24/20 Q1016;
0166833440999992008121411004-14950-040883FM-15+0914SBQV V0200701N00311004501CN0112651N1+02201+02001999999ADDGA1021+002701999GA2041+004501999GA3071+024001999GF107991999999999999999999MA1101901999999REMMET065METAR SBQV 141100Z 07006KT 9999 FEW009 SCT015 BKN080 22/20 Q1019;
0143833440999992008121412004-14950-040883FM-15+0914SBQV V0200601N000510240019N0112651N1+02301+02001999999ADDGA1041+004801999GA2071+024001999GF107991999999999999999999MA1101901999999REMMET058METAR SBQV 141200Z 06001KT 9999 SCT016 BKN080 23/20 Q1019;
0093833440999992008121413004-14950-040883FM-15+0914SBQV V0200601N002612200019N0112651N1+02401+02001999999ADDMA1101901999999REMMET066METAR SBQV 141300Z 141300Z 06005KT 9999 BKN020 SCT080 24/20 Q1019;
0136833440999992008121414004-14950-040883FM-15+0914SBQV V0200101N00211006001CN0112651N1+02501+02001999999ADDGA1071+006001999GA2041+024001999MA1101901999999REMMET058METAR SBQV 141400Z 01004KT 9999 BKN020 SCT080 25/20 Q1019;EQDQ01+000042SCOTCV
0143833440999992008121415004-14950-040883FM-15+0914SBQV V0200601N000510060019N0112651N1+02601+01901999999ADDGA1071+006001999GA2071+024001999GF107991999999999999999999MA1101801999999REMMET058METAR SBQV 141500Z 06001KT 9999 BKN020 BKN080 26/19 Q1018;
0143833440999992008121416004-14950-040883FM-15+0914SBQV V0202701N001010240019N0112651N1+02501+02201999999ADDGA1041+006001999GA2071+024001999GF107991999999999999999999MA1101691999999REMMET058METAR SBQV 141600Z 27002KT 9999 SCT020 BKN080 25/22 Q1017;
0143833440999992008121417004-14950-040883FM-15+0914SBQV V0209999C000010240019N0112651N1+02701+02001999999ADDGA1041+007501999GA2071+024001999GF107991999999999999999999MA1101591999999REMMET058METAR SBQV 141700Z 00000KT 9999 SCT025 BKN080 27/20 Q1016;
0143833440999992008121418004-14950-040883FM-15+0914SBQV V0201001N003610240019N0112651N1+02701+01901999999ADDGA1041+007501999GA2071+024001999GF107991999999999999999999MA1101491999999REMMET058METAR SBQV 141800Z 10007KT 9999 SCT025 BKN080 27/19 Q1015;
0143833440999992008121419004-14950-040883FM-15+0914SBQV V0200901N003110240019N0112651N1+02701+01901999999ADDGA1041+007501999GA2071+024001999GF107991999999999999999999MA1101491999999REMMET058METAR SBQV 141900Z 09006KT 9999 SCT025 BKN080 27/19 Q1015;
0143833440999992008121420004-14950-040883FM-15+0914SBQV V0201001N004110240019N0112651N1+02601+02001999999ADDGA1021+006001999GA2071+024001999GF107991999999999999999999MA1101491999999REMMET058METAR SBQV 142000Z 10008KT 9999 FEW020 BKN080 26/20 Q1015;
0143833440999992008121421004-14950-040883FM-15+0914SBQV V0201001N004112200019N0112651N1+02501+02001999999ADDGA1021+005401999GA2041+021001999GF104991999999999999999999MA1101491999999REMMET058METAR SBQV 142100Z 10008KT 9999 FEW018 SCT070 25/20 Q1015;
0072833440999992008121422004-14950-040883FM-15+0914SBQV V0200901N00311999999CY0099001N1+02301+02001999999ADDMA1101591999999REMMET045METAR SBQV 142200Z 09006KT CAVOK 23/20 Q1016;
0120833440999992008121511004-14950-040883FM-15+0914SBQV V0200401N003112200019N0112651N1+02301+01901999999ADDGA1021+005401999GF102991999999999999999999MA1101691999999REMMET051METAR SBQV 151100Z 04006KT 9999 FEW018 23/19 Q1017;
0120833440999992008121513004-14950-040883FM-15+0914SBQV V0203601N003110060019N0112651N1+02501+01901999999ADDGA1071+006001999GF107991999999999999999999MA1101591999999REMMET051METAR SBQV 151300Z 36006KT 9999 BKN020 25/19 Q1016;
0120833440999992008121514004-14950-040883FM-15+0914SBQV V0200201N003112200019N0112651N1+02501+01901999999ADDGA1041+006001999GF104991999999999999999999MA1101591999999REMMET051METAR SBQV 151400Z 02006KT 9999 SCT020 25/19 Q1016;
0120833440999992008121515004-14950-040883FM-15+0914SBQV V0200601N003112200019N0112651N1+02701+01901999999ADDGA1041+006001999GF104991999999999999999999MA1101491999999REMMET051METAR SBQV 151500Z 06006KT 9999 SCT020 27/19 Q1015;
0143833440999992008121516004-14950-040883FM-15+0914SBQV V0200401N003112200019N0112651N1+02701+01801999999ADDGA1041+006001999GA2041+027001999GF104991999999999999999999MA1101391999999REMMET058METAR SBQV 151600Z 04006KT 9999 SCT020 SCT090 27/18 Q1014;
0143833440999992008121517004-14950-040883FM-15+0914SBQV V0200301N003110270019N0112651N1+02701+01801999999ADDGA1041+006001999GA2071+027001999GF107991999999999999999999MA1101291999999REMMET058METAR SBQV 151700Z 03006KT 9999 SCT020 BKN090 27/18 Q1013;
0143833440999992008121518004-14950-040883FM-15+0914SBQV V0200301N003610270019N0112651N1+02701+01801999999ADDGA1041+007501999GA2071+027001999GF107991999999999999999999MA1101191999999REMMET058METAR SBQV 151800Z 03007KT 9999 SCT025 BKN090 27/18 Q1012;
0143833440999992008121519004-14950-040883FM-15+0914SBQV V0200401N003610270019N0112651N1+02801+01801999999ADDGA1021+007501999GA2071+027001999GF107991999999999999999999MA1101191999999REMMET058METAR SBQV 151900Z 04007KT 9999 FEW025 BKN090 28/18 Q1012;
0143833440999992008121520004-14950-040883FM-15+0914SBQV V0200301N003610270019N0112651N1+02601+01801999999ADDGA1021+007501999GA2071+027001999GF107991999999999999999999MA1101191999999REMMET058METAR SBQV 152000Z 03007KT 9999 FEW025 BKN090 26/18 Q1012;
0143833440999992008121521004-14950-040883FM-15+0914SBQV V0200401N004110240019N0112651N1+02501+01801999999ADDGA1021+006001999GA2071+024001999GF107991999999999999999999MA1101291999999REMMET058METAR SBQV 152100Z 04008KT 9999 FEW020 BKN080 25/18 Q1013;
0072833440999992008121522004-14950-040883FM-15+0914SBQV V0200501N00311999999CY0099001N1+02401+01801999999ADDMA1101291999999REMMET045METAR SBQV 152200Z 05006KT CAVOK 24/18 Q1013;
0143833440999992008121611004-14950-040883FM-15+0914SBQV V0200101N004110900019N0112651N1+02101+01801999999ADDGA1041+003901999GA2071+090001999GF107991999999999999999999MA1101491999999REMMET058METAR SBQV 161100Z 01008KT 9999 SCT013 BKN300 21/18 Q1015;
0120833440999992008121612004-14950-040883FM-15+0914SBQV V0200101N003612200019N0112651N1+02301+01801999999ADDGA1041+004501999GF104991999999999999999999MA1101491999999REMMET051METAR SBQV 161200Z 01007KT 9999 SCT015 23/18 Q1015;
0136833440999992008121613004-14950-040883FM-15+0914SBQV V0203401N00411004801CN0112651N1+02301+01801999999ADDGA1071+004801999GA2041+021001999MA1101591999999REMMET058METAR SBQV 161300Z 34008KT 9999 BKN016 SCT070 23/18 Q1016;EQDQ01+000042SCOTCV
0143833440999992008121614004-14950-040883FM-15+0914SBQV V0203501N004110240019N0112651N1+02401+01801999999ADDGA1041+005401999GA2071+024001999GF107991999999999999999999MA1101491999999REMMET058METAR SBQV 161400Z 35008KT 9999 SCT018 BKN080 24/18 Q1015;
0143833440999992008121615004-14950-040883FM-15+0914SBQV V0200101N005110240019N0112651N1+02401+01901999999ADDGA1041+006001999GA2071+024001999GF107991999999999999999999MA1101491999999REMMET058METAR SBQV 161500Z 01010KT 9999 SCT020 BKN080 24/19 Q1015;
0143833440999992008121616004-14950-040883FM-15+0914SBQV V0200101N004110240019N0112651N1+02501+01901999999ADDGA1041+006001999GA2071+024001999GF107991999999999999999999MA1101491999999REMMET058METAR SBQV 161600Z 01008KT 9999 SCT020 BKN080 25/19 Q1015;
0143833440999992008121617004-14950-040883FM-15+0914SBQV V0200101N003110060019N0112651N1+02501+01901999999ADDGA1071+006001999GA2071+027001999GF107991999999999999999999MA1101391999999REMMET058METAR SBQV 161700Z 01006KT 9999 BKN020 BKN090 25/19 Q1014;
0143833440999992008121618004-14950-040883FM-15+0914SBQV V0200101N004610270019N0112651N1+02501+01901999999ADDGA1021+006001999GA2071+027001999GF107991999999999999999999MA1101291999999REMMET058METAR SBQV 161800Z 01009KT 9999 FEW020 BKN090 25/19 Q1013;
0143833440999992008121619004-14950-040883FM-15+0914SBQV V0200201N004110270019N0112651N1+02501+01801999999ADDGA1021+006001999GA2071+027001999GF107991999999999999999999MA1101291999999REMMET058METAR SBQV 161900Z 02008KT 9999 FEW020 BKN090 25/18 Q1013;
0143833440999992008121620004-14950-040883FM-15+0914SBQV V0200101N003610270019N0112651N1+02501+01901999999ADDGA1021+006001999GA2071+027001999GF107991999999999999999999MA1101291999999REMMET058METAR SBQV 162000Z 01007KT 9999 FEW020 BKN090 25/19 Q1013;
0143833440999992008121621004-14950-040883FM-15+0914SBQV V0200101N001510240019N0112651N1+02301+01901999999ADDGA1021+005401999GA2071+024001999GF107991999999999999999999MA1101291999999REMMET058METAR SBQV 162100Z 01003KT 9999 FEW018 BKN080 23/19 Q1013;
0143833440999992008121622004-14950-040883FM-15+0914SBQV V0203601N001010240019N0112651N1+02201+01901999999ADDGA1021+004801999GA2071+024001999GF107991999999999999999999MA1101391999999REMMET058METAR SBQV 162200Z 36002KT 9999 FEW016 BKN080 22/19 Q1014;
0120833440999992008121711004-14950-040883FM-15+0914SBQV V0200501N006212200019N0112651N1+02301+02001999999ADDGA1021+005401999GF102991999999999999999999MA1101591999999REMMET051METAR SBQV 171100Z 05012KT 9999 FEW018 23/20 Q1016;
0120833440999992008121712004-14950-040883FM-15+0914SBQV V0200301N005710054019N0112651N1+02301+01901999999ADDGA1071+005401999GF107991999999999999999999MA1101691999999REMMET051METAR SBQV 171200Z 03011KT 9999 BKN018 23/19 Q1017;
0120833440999992008121713004-14950-040883FM-15+0914SBQV V0200201N004610060019N0112651N1+02501+02001999999ADDGA1071+006001999GF107991999999999999999999MA1101691999999REMMET051METAR SBQV 171300Z 02009KT 9999 BKN020 25/20 Q1017;
0120833440999992008121714004-14950-040883FM-15+0914SBQV V0200101N004610060019N0112651N1+02501+02001999999ADDGA1071+006001999GF107991999999999999999999MA1101691999999REMMET051METAR SBQV 171400Z 01009KT 9999 BKN020 25/20 Q1017;
0072833440999992008121722004-14950-040883FM-15+0914SBQV V0200701N00261999999CY0099001N1+02401+02001999999ADDMA1101591999999REMMET045METAR SBQV 172200Z 07005KT CAVOK 24/20 Q1016;
0120833440999992008121803004-14950-040883FM-15+0914SBQV V0200501N002612200019N0112651N1+02001+02001999999ADDGA1021+003001999GF102991999999999999999999MA1101691999999REMMET051METAR SBQV 180300Z 05005KT 9999 FEW010 20/20 Q1017;
0120833440999992008121804004-14950-040883FM-15+0914SBQV V0200601N004112200019N0112651N1+02001+02001999999ADDGA1021+003001999GF102991999999999999999999MA1101591999999REMMET051METAR SBQV 180400Z 06008KT 9999 FEW010 20/20 Q1016;
0120833440999992008121805004-14950-040883FM-15+0914SBQV V0200901N003612200019N0112651N1+02001+02001999999ADDGA1041+003001999GF104991999999999999999999MA1101591999999REMMET051METAR SBQV 180500Z 09007KT 9999 SCT010 20/20 Q1016;
0120833440999992008121806004-14950-040883FM-15+0914SBQV V0200801N002612200019N0112651N1+02001+01901999999ADDGA1021+003001999GF102991999999999999999999MA1101591999999REMMET051METAR SBQV 180600Z 08005KT 9999 FEW010 20/19 Q1016;
0120833440999992008121807004-14950-040883FM-15+0914SBQV V0200601N004112200019N0112651N1+01901+01901999999ADDGA1021+003001999GF102991999999999999999999MA1101591999999REMMET051METAR SBQV 180700Z 06008KT 9999 FEW010 19/19 Q1016;
0143833440999992008121808004-14950-040883FM-15+0914SBQV V0200601N003612200019N0112651N1+01901+01801999999ADDGA1021+001501999GA2041+002701999GF104991999999999999999999MA1101591999999REMMET058METAR SBQV 180800Z 06007KT 9999 FEW005 SCT009 19/18 Q1016;
0120833440999992008121809004-14950-040883FM-15+0914SBQV V0200801N003112200019N0112651N1+02001+01901999999ADDGA1041+003001999GF104991999999999999999999MA1101691999999REMMET051METAR SBQV 180900Z 08006KT 9999 SCT010 20/19 Q1017;
0143833440999992008121811004-14950-040883FM-15+0914SBQV V0200601N003112200019N0112651N1+02301+01901999999ADDGA1041+004501999GA2041+021001999GF104991999999999999999999MA1101801999999REMMET058METAR SBQV 181100Z 06006KT 9999 SCT015 SCT070 23/19 Q1018;
0120833440999992008121812004-14950-040883FM-15+0914SBQV V0200601N004612200019N0112651N1+02401+01801999999ADDGA1041+004801999GF104991999999999999999999MA1101801999999REMMET051METAR SBQV 181200Z 06009KT 9999 SCT016 24/18 Q1018;
0120833440999992008121813004-14950-040883FM-15+0914SBQV V0200901N004110054019N0112651N1+02601+01801999999ADDGA1071+005401999GF107991999999999999999999MA1101901999999REMMET051METAR SBQV 181300Z 09008KT 9999 BKN018 26/18 Q1019;
0120833440999992008121814004-14950-040883FM-15+0914SBQV V0200601N004110060019N0112651N1+02501+01901999999ADDGA1071+006001999GF107991999999999999999999MA1101801999999REMMET051METAR SBQV 181400Z 06008KT 9999 BKN020 25/19 Q1018;
0120833440999992008121815004-14950-040883FM-15+0914SBQV V0200601N003610060019N0112651N1+02601+01801999999ADDGA1071+006001999GF107991999999999999999999MA1101691999999REMMET051METAR SBQV 181500Z 06007KT 9999 BKN020 26/18 Q1017;
0120833440999992008121816004-14950-040883FM-15+0914SBQV V0201001N004110075019N0112651N1+02701+01801999999ADDGA1071+007501999GF107991999999999999999999MA1101691999999REMMET051METAR SBQV 181600Z 10008KT 9999 BKN025 27/18 Q1017;
0120833440999992008121817004-14950-040883FM-15+0914SBQV V0200801N002110075019N0112651N1+02701+01801999999ADDGA1071+007501999GF107991999999999999999999MA1101591999999REMMET051METAR SBQV 181700Z 08004KT 9999 BKN025 27/18 Q1016;
0120833440999992008121818004-14950-040883FM-15+0914SBQV V0201101N005110075019N0112651N1+02701+01901999999ADDGA1071+007501999GF107991999999999999999999MA1101491999999REMMET051METAR SBQV 181800Z 11010KT 9999 BKN025 27/19 Q1015;
0120833440999992008121819004-14950-040883FM-15+0914SBQV V0201101N004112200019N0112651N1+02701+01801999999ADDGA1041+007501999GF104991999999999999999999MA1101491999999REMMET051METAR SBQV 181900Z 11008KT 9999 SCT025 27/18 Q1015;
0120833440999992008121820004-14950-040883FM-15+0914SBQV V0201101N004612200019N0112651N1+02701+01701999999ADDGA1041+007501999GF104991999999999999999999MA1101491999999REMMET051METAR SBQV 182000Z 11009KT 9999 SCT025 27/17 Q1015;
0120833440999992008121821004-14950-040883FM-15+0914SBQV V0201101N003612200019N0112651N1+02501+01801999999ADDGA1021+006001999GF102991999999999999999999MA1101491999999REMMET051METAR SBQV 182100Z 11007KT 9999 FEW020 25/18 Q1015;
0120833440999992008121822004-14950-040883FM-15+0914SBQV V0201001N004112200019N0112651N1+02401+02001999999ADDGA1021+006001999GF102991999999999999999999MA1101591999999REMMET051METAR SBQV 182200Z 10008KT 9999 FEW020 24/20 Q1016;
0120833440999992008121911004-14950-040883FM-15+0914SBQV V0201101N004612200019N0112651N1+02201+01701999999ADDGA1041+004801999GF104991999999999999999999MA1101801999999REMMET051METAR SBQV 191100Z 11009KT 9999 SCT016 22/17 Q1018;
0120833440999992008121912004-14950-040883FM-15+0914SBQV V0201401N001512200019N0112651N1+02301+01701999999ADDGA1041+005401999GF104991999999999999999999MA1101801999999REMMET051METAR SBQV 191200Z 14003KT 9999 SCT018 23/17 Q1018;
0120833440999992008121913004-14950-040883FM-15+0914SBQV V0201101N004112200019N0112651N1+02501+01401999999ADDGA1041+006001999GF104991999999999999999999MA1101801999999REMMET051METAR SBQV 191300Z 11008KT 9999 SCT020 25/14 Q1018;
0120833440999992008121914004-14950-040883FM-15+0914SBQV V0201101N004112200019N0112651N1+02601+01401999999ADDGA1041+006001999GF104991999999999999999999MA1101691999999REMMET051METAR SBQV 191400Z 11008KT 9999 SCT020 26/14 Q1017;
0120833440999992008121915004-14950-040883FM-15+0914SBQV V0201001N003110060019N0112651N1+02601+01501999999ADDGA1071+006001999GF107991999999999999999999MA1101591999999REMMET051METAR SBQV 191500Z 10006KT 9999 BKN020 26/15 Q1016;
0120833440999992008121916004-14950-040883FM-15+0914SBQV V0201301N004110060019N0112651N1+02601+01601999999ADDGA1071+006001999GF107991999999999999999999MA1101491999999REMMET051METAR SBQV 191600Z 13008KT 9999 BKN020 26/16 Q1015;
0120833440999992008121917004-14950-040883FM-15+0914SBQV V0201401N004610075019N0112651N1+02701+01601999999ADDGA1071+007501999GF107991999999999999999999MA1101491999999REMMET051METAR SBQV 191700Z 14009KT 9999 BKN025 27/16 Q1015;
0120833440999992008121918004-14950-040883FM-15+0914SBQV V0201301N005112200019N0112651N1+02601+01701999999ADDGA1021+007501999GF102991999999999999999999MA1101491999999REMMET051METAR SBQV 191800Z 13010KT 9999 FEW025 26/17 Q1015;
0120833440999992008121919004-14950-040883FM-15+0914SBQV V0201401N004612200019N0112651N1+02601+01601999999ADDGA1021+007501999GF102991999999999999999999MA1101391999999REMMET051METAR SBQV 191900Z 14009KT 9999 FEW025 26/16 Q1014;
0120833440999992008121920004-14950-040883FM-15+0914SBQV V0201401N004612200019N0112651N1+02501+01701999999ADDGA1021+006001999GF102991999999999999999999MA1101391999999REMMET051METAR SBQV 192000Z 14009KT 9999 FEW020 25/17 Q1014;
0120833440999992008121921004-14950-040883FM-15+0914SBQV V0201301N005112200019N0112651N1+02401+01801999999ADDGA1021+005401999GF102991999999999999999999MA1101391999999REMMET051METAR SBQV 192100Z 13010KT 9999 FEW018 24/18 Q1014;
0120833440999992008121922004-14950-040883FM-15+0914SBQV V0201301N005112200019N0112651N1+02201+01901999999ADDGA1021+004801999GF102991999999999999999999MA1101391999999REMMET051METAR SBQV 192200Z 13010KT 9999 FEW016 22/19 Q1014;
0120833440999992008122011004-14950-040883FM-15+0914SBQV V0201101N003110039019N0112651N1+02101+01801999999ADDGA1071+003901999GF107991999999999999999999MA1101691999999REMMET051METAR SBQV 201100Z 11006KT 9999 BKN013 21/18 Q1017;
0120833440999992008122012004-14950-040883FM-15+0914SBQV V0200701N002610045019N0112651N1+02301+01801999999ADDGA1071+004501999GF107991999999999999999999MA1101691999999REMMET051METAR SBQV 201200Z 07005KT 9999 BKN015 23/18 Q1017;
0120833440999992008122013004-14950-040883FM-15+0914SBQV V0201101N003110048019N0112651N1+02401+01801999999ADDGA1071+004801999GF107991999999999999999999MA1101591999999REMMET051METAR SBQV 201300Z 11006KT 9999 BKN016 24/18 Q1016;
0160833440999992008122014004-14950-040883FM-15+0914SBQV V0201301N003110048019N0112651N1+02401+01901999999ADDGA1041+004501999GA2071+004801999GF107991999999999999999999MA1101591999999MW1611REMMET069METAR SBQV 201400Z 13006KT 9999 3000SW -RA SCT015 BKN016 24/19 Q1016;
0136833440999992008122015004-14950-040883FM-15+0914SBQV V0201701N00051004801CN0112651N1+02301+01901999999ADDGA1071+004801999GA2041+024001999MA1101591999999REMMET058METAR SBQV 201500Z 17001KT 9999 BKN016 SCT080 23/19 Q1016;EQDQ01+000042SCOTCV
0143833440999992008122016004-14950-040883FM-15+0914SBQV V0200201N002610240019N0112651N1+02401+01901999999ADDGA1041+005401999GA2071+024001999GF107991999999999999999999MA1101491999999REMMET058METAR SBQV 201600Z 02005KT 9999 SCT018 BKN080 24/19 Q1015;
0143833440999992008122017004-14950-040883FM-15+0914SBQV V0202801N001510210019N0112651N1+02301+01901999999ADDGA1041+004801999GA2071+021001999GF107991999999999999999999MA1101491999999REMMET058METAR SBQV 201700Z 28003KT 9999 SCT016 BKN070 23/19 Q1015;
0143833440999992008122018004-14950-040883FM-15+0914SBQV V0202701N001510240019N0112651N1+02301+02001999999ADDGA1041+005401999GA2071+024001999GF107991999999999999999999MA1101391999999REMMET058METAR SBQV 201800Z 27003KT 9999 SCT018 BKN080 23/20 Q1014;
0143833440999992008122019004-14950-040883FM-15+0914SBQV V0209999C000010240019N0112651N1+02401+01901999999ADDGA1041+005401999GA2071+024001999GF107991999999999999999999MA1101391999999REMMET058METAR SBQV 201900Z 00000KT 9999 SCT018 BKN080 24/19 Q1014;
0143833440999992008122020004-14950-040883FM-15+0914SBQV V0201601N002612200019N0112651N1+02401+01901999999ADDGA1041+004801999GA2041+021001999GF104991999999999999999999MA1101391999999REMMET058METAR SBQV 202000Z 16005KT 9999 SCT016 SCT070 24/19 Q1014;
0143833440999992008122021004-14950-040883FM-15+0914SBQV V0201101N003112200019N0112651N1+02301+01901999999ADDGA1021+004501999GA2041+021001999GF104991999999999999999999MA1101391999999REMMET058METAR SBQV 202100Z 11006KT 9999 FEW015 SCT070 23/19 Q1014;
0120833440999992008122022004-14950-040883FM-15+0914SBQV V0201001N001512200019N0112651N1+02201+01901999999ADDGA1021+004501999GF102991999999999999999999MA1101391999999REMMET051METAR SBQV 202200Z 10003KT 9999 FEW015 22/19 Q1014;
0143833440999992008122111004-14950-040883FM-15+0914SBQV V0200501N003110240019N0112651N1+02101+01801999999ADDGA1021+004501999GA2071+024001999GF107991999999999999999999MA1101801999999REMMET058METAR SBQV 211100Z 05006KT 9999 FEW015 BKN080 21/18 Q1018;
0120833440999992008122112004-14950-040883FM-15+0914SBQV V0200401N003612200019N0112651N1+02301+01701999999ADDGA1021+007501999GF102991999999999999999999MA1101801999999REMMET051METAR SBQV 211200Z 04007KT 9999 FEW025 23/17 Q1018;
0120833440999992008122113004-14950-040883FM-15+0914SBQV V0200401N002112200019N0112651N1+02501+01701999999ADDGA1041+007501999GF104991999999999999999999MA1101801999999REMMET051METAR SBQV 211300Z 04004KT 9999 SCT025 25/17 Q1018;
0120833440999992008122114004-14950-040883FM-15+0914SBQV V0200501N002110075019N0112651N1+02501+01701999999ADDGA1071+007501999GF107991999999999999999999MA1101801999999REMMET051METAR SBQV 211400Z 05004KT 9999 BKN025 25/17 Q1018;
0120833440999992008122115004-14950-040883FM-15+0914SBQV V0200701N001010075019N0112651N1+02601+01801999999ADDGA1071+007501999GF107991999999999999999999MA1101691999999REMMET051METAR SBQV 211500Z 07002KT 9999 BKN025 26/18 Q1017;
0130833440999992008122116004-14950-040883FM-15+0914SBQV V0201501N002110075019N0112651N1+02501+01801999999ADDGA1071+007501999GF107991999999999999999999MA1101591999999MW1611REMMET055METAR SBQV 211600Z 15004KT 9999 -RA BKN025 25/18 Q1016;
0160833440999992008122117004-14950-040883FM-15+0914SBQV V0201201N004110240019N0112651N1+02401+02101999999ADDGA1041+006001999GA2071+024001999GF107991999999999999999999MA1101591999999MW1611REMMET069METAR SBQV 211700Z 12008KT 9999 7000SE -RA SCT020 BKN080 24/21 Q1016;
0143833440999992008122118004-14950-040883FM-15+0914SBQV V0201301N003110240019N0112651N1+02501+02001999999ADDGA1041+006001999GA2071+024001999GF107991999999999999999999MA1101591999999REMMET058METAR SBQV 211800Z 13006KT 9999 SCT020 BKN080 25/20 Q1016;
0143833440999992008122119004-14950-040883FM-15+0914SBQV V0201101N004610240019N0112651N1+02501+02001999999ADDGA1041+006001999GA2071+024001999GF107991999999999999999999MA1101491999999REMMET058METAR SBQV 211900Z 11009KT 9999 SCT020 BKN080 25/20 Q1015;
0143833440999992008122120004-14950-040883FM-15+0914SBQV V0201101N004110240019N0112651N1+02401+02001999999ADDGA1021+006001999GA2071+024001999GF107991999999999999999999MA1101491999999REMMET058METAR SBQV 212000Z 11008KT 9999 FEW020 BKN080 24/20 Q1015;
0143833440999992008122121004-14950-040883FM-15+0914SBQV V0201101N003110240019N0112651N1+02301+02001999999ADDGA1021+005401999GA2071+024001999GF107991999999999999999999MA1101491999999REMMET058METAR SBQV 212100Z 11006KT 9999 FEW018 BKN080 23/20 Q1015;
0143833440999992008122122004-14950-040883FM-15+0914SBQV V0200901N005110240019N0112651N1+02201+01901999999ADDGA1021+004801999GA2071+024001999GF107991999999999999999999MA1101591999999REMMET058METAR SBQV 212200Z 09010KT 9999 FEW016 BKN080 22/19 Q1016;
0120833440999992008122211004-14950-040883FM-15+0914SBQV V0201101N004110045019N0112651N1+02101+01901999999ADDGA1071+004501999GF107991999999999999999999MA1101801999999REMMET051METAR SBQV 221100Z 11008KT 9999 BKN015 21/19 Q1018;
0143833440999992008122212004-14950-040883FM-15+0914SBQV V0200701N003610048019N0112651N1+02201+01901999999ADDGA1071+004801999GA2071+021001999GF107991999999999999999999MA1101901999999REMMET058METAR SBQV 221200Z 07007KT 9999 BKN016 BKN070 22/19 Q1019;
0136833440999992008122213004-14950-040883FM-15+0914SBQV V0201101N00361005401CN0112651N1+02401+01901999999ADDGA1071+005401999GA2041+024001999MA1101901999999REMMET058METAR SBQV 221300Z 11007KT 9999 BKN018 SCT080 24/19 Q1019;EQDQ01+000042SCOTCV
0120833440999992008122214004-14950-040883FM-15+0914SBQV V0201101N003610060019N0112651N1+02501+01901999999ADDGA1071+006001999GF107991999999999999999999MA1101901999999REMMET051METAR SBQV 221400Z 11007KT 9999 BKN020 25/19 Q1019;
0120833440999992008122215004-14950-040883FM-15+0914SBQV V0201001N002612200019N0112651N1+02701+01801999999ADDGA1041+007501999GF104991999999999999999999MA1101801999999REMMET051METAR SBQV 221500Z 10005KT 9999 SCT025 27/18 Q1018;
0120833440999992008122216004-14950-040883FM-15+0914SBQV V0201301N003110075019N0112651N1+02601+01901999999ADDGA1071+007501999GF107991999999999999999999MA1101691999999REMMET051METAR SBQV 221600Z 13006KT 9999 BKN025 26/19 Q1017;
0120833440999992008122217004-14950-040883FM-15+0914SBQV V0201201N003610075019N0112651N1+02601+01901999999ADDGA1071+007501999GF107991999999999999999999MA1101591999999REMMET051METAR SBQV 221700Z 12007KT 9999 BKN025 26/19 Q1016;
0120833440999992008122218004-14950-040883FM-15+0914SBQV V0201001N003110075019N0112651N1+02601+01901999999ADDGA1071+007501999GF107991999999999999999999MA1101491999999REMMET051METAR SBQV 221800Z 10006KT 9999 BKN025 26/19 Q1015;
0139833440999992008122219004-14950-040883FM-15+0914SBQV V0201601N00151006001CN0112651N1+02301+01901999999ADDGA1071+006001999GA2021+007501021MA1101591999999REMMET061METAR SBQV 221900Z 16003KT 9999 BKN020 FEW025TCU 23/19 Q1016;EQDQ01+000022SCOTCV
0143833440999992008122220004-14950-040883FM-15+0914SBQV V0200801N006212200019N0112651N1+02301+02001999999ADDGA1041+006001999GA2041+027001999GF104991999999999999999999MA1101591999999REMMET058METAR SBQV 222000Z 08012KT 9999 SCT020 SCT090 23/20 Q1016;
0143833440999992008122221004-14950-040883FM-15+0914SBQV V0200701N005710240019N0112651N1+02201+01901999999ADDGA1041+004801999GA2071+024001999GF107991999999999999999999MA1101691999999REMMET058METAR SBQV 222100Z 07011KT 9999 SCT016 BKN080 22/19 Q1017;
0143833440999992008122222004-14950-040883FM-15+0914SBQV V0200801N004612200019N0112651N1+02101+01901999999ADDGA1041+004501999GA2041+021001999GF104991999999999999999999MA1101691999999REMMET058METAR SBQV 222200Z 08009KT 9999 SCT015 SCT070 21/19 Q1017;
0143833440999992008122311004-14950-040883FM-15+0914SBQV V0200801N003110210019N0112651N1+02201+01901999999ADDGA1041+003901999GA2071+021001999GF107991999999999999999999MA1102001999999REMMET058METAR SBQV 231100Z 08006KT 9999 SCT013 BKN070 22/19 Q1020;
0143833440999992008122312004-14950-040883FM-15+0914SBQV V0200901N003110210019N0112651N1+02301+01901999999ADDGA1041+004501999GA2071+021001999GF107991999999999999999999MA1102001999999REMMET058METAR SBQV 231200Z 09006KT 9999 SCT015 BKN070 23/19 Q1020;
0143833440999992008122313004-14950-040883FM-15+0914SBQV V0200701N000510045019N0112651N1+02301+01801999999ADDGA1071+004501999GA2071+021001999GF107991999999999999999999MA1102001999999REMMET058METAR SBQV 231300Z 07001KT 9999 BKN015 BKN070 23/18 Q1020;
0143833440999992008122314004-14950-040883FM-15+0914SBQV V0202201N001510045019N0112651N1+02301+02001999999ADDGA1071+004501999GA2071+021001999GF107991999999999999999999MA1101901999999REMMET058METAR SBQV 231400Z 22003KT 9999 BKN015 BKN070 23/20 Q1019;
0143833440999992008122315004-14950-040883FM-15+0914SBQV V0202801N001010045019N0112651N1+02301+02101999999ADDGA1071+004501999GA2071+021001999GF107991999999999999999999MA1101901999999REMMET058METAR SBQV 231500Z 28002KT 9999 BKN015 BKN070 23/21 Q1019;
0136833440999992008122316004-14950-040883FM-15+0914SBQV V0202201N00211004801CN0112651N1+02401+02101999999ADDGA1071+004801999GA2041+024001999MA1101801999999REMMET058METAR SBQV 231600Z 22004KT 9999 BKN016 SCT080 24/21 Q1018;EQDQ01+000042SCOTCV
0136833440999992008122317004-14950-040883FM-15+0914SBQV V0209999C00001004801CN0112651N1+02301+02201999999ADDGA1071+004801999GA2041+024001999MA1101691999999REMMET058METAR SBQV 231700Z 00000KT 9999 BKN016 SCT080 23/22 Q1017;EQDQ01+000042SCOTCV
0169833440999992008122318004-14950-040883FM-15+0914SBQV V0200801N004112200019N0112651N1+02301+02101999999ADDGA1021+006001999GA2021+007501021GA3041+024001999GF104991999999999999999999MA1101591999999REMMET068METAR SBQV 231800Z 08008KT 9999 FEW020 FEW025TCU SCT080 23/21 Q1016;
0169833440999992008122320004-14950-040883FM-15+0914SBQV V0200601N004110240019N0112651N1+02301+02101999999ADDGA1021+006001999GA2021+007501021GA3071+024001999GF107991999999999999999999MA1101591999999REMMET068METAR SBQV 232000Z 06008KT 9999 FEW020 FEW025TCU BKN080 23/21 Q1016;
0153833440999992008122321004-14950-040883FM-15+0914SBQV V0200701N005110210019N0080001N1+02101+02101999999ADDGA1021+004501999GA2081+021001999GF108991999999999999999999MA1101691999999MW1611REMMET062METAR SBQV 232100Z 07010KT 8000 -RA FEW015 OVC070 21/21 Q1017;
0153833440999992008122322004-14950-040883FM-15+0914SBQV V0200601N003610210019N0112651N1+02101+02001999999ADDGA1021+001501999GA2081+021001999GF108991999999999999999999MA1101691999999MW1611REMMET062METAR SBQV 232200Z 06007KT 9999 -RA FEW005 OVC070 21/20 Q1017;
0153833440999992008122411004-14950-040883FM-15+0914SBQV V0200301N002610210019N0112651N1+02101+02001999999ADDGA1041+001801999GA2081+021001999GF108991999999999999999999MA1101801999999MW1611REMMET062METAR SBQV 241100Z 03005KT 9999 -RA SCT006 OVC070 21/20 Q1018;
0143833440999992008122412004-14950-040883FM-15+0914SBQV V0200201N002110210019N0112651N1+02101+02101999999ADDGA1041+004501999GA2081+021001999GF108991999999999999999999MA1101801999999REMMET058METAR SBQV 241200Z 02004KT 9999 SCT015 OVC070 21/21 Q1018;
0143833440999992008122413004-14950-040883FM-15+0914SBQV V0200201N003110240019N0112651N1+02301+02001999999ADDGA1041+006001999GA2081+024001999GF108991999999999999999999MA1101801999999REMMET058METAR SBQV 241300Z 02006KT 9999 SCT020 OVC080 23/20 Q1018;
0143833440999992008122414004-14950-040883FM-15+0914SBQV V0203401N002610240019N0112651N1+02401+02101999999ADDGA1041+006001999GA2081+024001999GF108991999999999999999999MA1101801999999REMMET058METAR SBQV 241400Z 34005KT 9999 SCT020 OVC080 24/21 Q1018;
0143833440999992008122415004-14950-040883FM-15+0914SBQV V0200101N002110240019N0112651N1+02401+02101999999ADDGA1041+006001999GA2071+024001999GF107991999999999999999999MA1101691999999REMMET058METAR SBQV 241500Z 01004KT 9999 SCT020 BKN080 24/21 Q1017;
0143833440999992008122416004-14950-040883FM-15+0914SBQV V0203401N002110240019N0112651N1+02401+02201999999ADDGA1021+006001999GA2071+024001999GF107991999999999999999999MA1101491999999REMMET058METAR SBQV 241600Z 34004KT 9999 FEW020 BKN080 24/22 Q1015;
0120833440999992008122417004-14950-040883FM-15+0914SBQV V0203601N003612200019N0112651N1+02401+02101999999ADDGA1041+006001999GF104991999999999999999999MA1101491999999REMMET051METAR SBQV 241700Z 36007KT 9999 SCT020 24/21 Q1015;
0120833440999992008122418004-14950-040883FM-15+0914SBQV V0203201N002612200019N0112651N1+02601+02101999999ADDGA1041+006001999GF104991999999999999999999MA1101391999999REMMET051METAR SBQV 241800Z 32005KT 9999 SCT020 26/21 Q1014;
0139833440999992008122419004-14950-040883FM-15+0914SBQV V0203401N002112200019N0112651N1+02601+02101999999ADDGA1041+006001999GA2021+007501021MA1101391999999REMMET061METAR SBQV 241900Z 34004KT 9999 SCT020 FEW025TCU 26/21 Q1014;EQDQ01+000022SCOTCV
0146833440999992008122420004-14950-040883FM-15+0914SBQV V0203501N003112200019N0112651N1+02401+02001999999ADDGA1021+006001999GA2021+007501021GF102991999999999999999999MA1101391999999REMMET061METAR SBQV 242000Z 35006KT 9999 FEW020 FEW025TCU 24/20 Q1014;
0185833440999992008122421004-14950-040883FM-15+0914SBQV V0203501N003610210019N0050001N1+02101+02001999999ADDGA1021+004501999GA2021+006001091GA3071+021001999GF107991999999999999999999MA1101391999999MW1811MW2951REMMET072METAR SBQV 242100Z 35007KT 5000 TSRA FEW015 FEW020CB BKN070 21/20 Q1014;
0150833440999992008122422004-14950-040883FM-15+0914SBQV V0203301N001010210019N0112651N1+02101+02101999999ADDGA1041+003901999GA2071+021001999GF107991999999999999999999MA1101391999999REMMET065METAR SBQV 242200Z 33002KT 9999 SCT013 BKN070 21/21 Q1014 RETSRA;
0143833440999992008122511004-14950-040883FM-15+0914SBQV V0200101N004110210019N0112651N1+02101+02001999999ADDGA1041+003901999GA2071+021001999GF107991999999999999999999MA1101591999999REMMET058METAR SBQV 251100Z 01008KT 9999 SCT013 BKN070 21/20 Q1016;
0143833440999992008122512004-14950-040883FM-15+0914SBQV V0200101N005710210019N0112651N1+02201+02001999999ADDGA1041+004501999GA2071+021001999GF107991999999999999999999MA1101591999999REMMET058METAR SBQV 251200Z 01011KT 9999 SCT015 BKN070 22/20 Q1016;
0143833440999992008122513004-14950-040883FM-15+0914SBQV V0203601N005710240019N0112651N1+02301+02101999999ADDGA1041+004801999GA2071+024001999GF107991999999999999999999MA1101591999999REMMET058METAR SBQV 251300Z 36011KT 9999 SCT016 BKN080 23/21 Q1016;
0143833440999992008122514004-14950-040883FM-15+0914SBQV V0203501N004110240019N0112651N1+02401+02101999999ADDGA1041+005401999GA2071+024001999GF107991999999999999999999MA1101591999999REMMET058METAR SBQV 251400Z 35008KT 9999 SCT018 BKN080 24/21 Q1016;
0143833440999992008122515004-14950-040883FM-15+0914SBQV V0203601N003612200019N0112651N1+02501+02101999999ADDGA1041+006001999GA2041+024001999GF104991999999999999999999MA1101491999999REMMET058METAR SBQV 251500Z 36007KT 9999 SCT020 SCT080 25/21 Q1015;
0120833440999992008122516004-14950-040883FM-15+0914SBQV V0203501N004110060019N0112651N1+02601+02101999999ADDGA1071+006001999GF107991999999999999999999MA1101391999999REMMET051METAR SBQV 251600Z 35008KT 9999 BKN020 26/21 Q1014;
0120833440999992008122517004-14950-040883FM-15+0914SBQV V0203401N002610054019N0112651N1+02501+02201999999ADDGA1071+005401999GF107991999999999999999999MA1101291999999REMMET051METAR SBQV 251700Z 34005KT 9999 BKN018 25/22 Q1013;
0143833440999992008122518004-14950-040883FM-15+0914SBQV V0202701N005712200019N0112651N1+02201+02101999999ADDGA1021+003001999GA2041+004801999GF104991999999999999999999MA1101291999999REMMET058METAR SBQV 251800Z 27011KT 9999 FEW010 SCT016 22/21 Q1013;
0143833440999992008122521004-14950-040883FM-15+0914SBQV V0203401N001010210019N0112651N1+02201+02101999999ADDGA1021+004801999GA2071+021001999GF107991999999999999999999MA1101291999999REMMET058METAR SBQV 252100Z 34002KT 9999 FEW016 BKN070 22/21 Q1013;
0143833440999992008122522004-14950-040883FM-15+0914SBQV V0200101N002612200019N0112651N1+02201+02101999999ADDGA1021+004501999GA2041+021001999GF104991999999999999999999MA1101291999999REMMET058METAR SBQV 252200Z 01005KT 9999 FEW015 SCT070 22/21 Q1013;
0143833440999992008122611004-14950-040883FM-15+0914SBQV V0200101N004110210019N0112651N1+02201+02001999999ADDGA1021+003301999GA2071+021001999GF107991999999999999999999MA1101491999999REMMET058METAR SBQV 261100Z 01008KT 9999 FEW011 BKN070 22/20 Q1015;
0143833440999992008122612004-14950-040883FM-15+0914SBQV V0203601N004612200019N0112651N1+02201+02001999999ADDGA1041+003901999GA2041+021001999GF104991999999999999999999MA1101491999999REMMET058METAR SBQV 261200Z 36009KT 9999 SCT013 SCT070 22/20 Q1015;
0136833440999992008122613004-14950-040883FM-15+0914SBQV V0200101N00361004501CN0112651N1+02301+02001999999ADDGA1071+004501999GA2041+024001999MA1101591999999REMMET058METAR SBQV 261300Z 01007KT 9999 BKN015 SCT080 23/20 Q1016;EQDQ01+000042SCOTCV
0120833440999992008122614004-14950-040883FM-15+0914SBQV V0200101N003610048019N0112651N1+02501+02101999999ADDGA1071+004801999GF107991999999999999999999MA1101591999999REMMET051METAR SBQV 261400Z 01007KT 9999 BKN016 25/21 Q1016;
0143833440999992008122615004-14950-040883FM-15+0914SBQV V0203601N003612200019N0112651N1+02501+02101999999ADDGA1041+005401999GA2041+024001999GF104991999999999999999999MA1101491999999REMMET058METAR SBQV 261500Z 36007KT 9999 SCT018 SCT080 25/21 Q1015;
0143833440999992008122616004-14950-040883FM-15+0914SBQV V0203601N003610270019N0112651N1+02601+02001999999ADDGA1041+006001999GA2071+027001999GF107991999999999999999999MA1101491999999REMMET058METAR SBQV 261600Z 36007KT 9999 SCT020 BKN090 26/20 Q1015;
0120833440999992008122617004-14950-040883FM-15+0914SBQV V0200101N003612200019N0112651N1+02601+02101999999ADDGA1041+006001999GF104991999999999999999999MA1101391999999REMMET051METAR SBQV 261700Z 01007KT 9999 SCT020 26/21 Q1014;
0120833440999992008122618004-14950-040883FM-15+0914SBQV V0200101N004110060019N0112651N1+02601+02101999999ADDGA1071+006001999GF107991999999999999999999MA1101291999999REMMET051METAR SBQV 261800Z 01008KT 9999 BKN020 26/21 Q1013;
0143833440999992008122619004-14950-040883FM-15+0914SBQV V0200201N004112200019N0112651N1+02601+02101999999ADDGA1021+006001999GA2041+027001999GF104991999999999999999999MA1101191999999REMMET058METAR SBQV 261900Z 02008KT 9999 FEW020 SCT090 26/21 Q1012;
0143833440999992008122620004-14950-040883FM-15+0914SBQV V0200101N004110270019N0112651N1+02601+02101999999ADDGA1021+006001999GA2071+027001999GF107991999999999999999999MA1101191999999REMMET058METAR SBQV 262000Z 01008KT 9999 FEW020 BKN090 26/21 Q1012;
0143833440999992008122621004-14950-040883FM-15+0914SBQV V0200101N003110270019N0112651N1+02501+02101999999ADDGA1021+006001999GA2071+027001999GF107991999999999999999999MA1101191999999REMMET058METAR SBQV 262100Z 01006KT 9999 FEW020 BKN090 25/21 Q1012;
0143833440999992008122622004-14950-040883FM-15+0914SBQV V0200201N001010270019N0112651N1+02401+02201999999ADDGA1021+002701999GA2071+027001999GF107991999999999999999999MA1101291999999REMMET058METAR SBQV 262200Z 02002KT 9999 FEW009 BKN090 24/22 Q1013;
0143833440999992008122711004-14950-040883FM-15+0914SBQV V0200301N002610210019N0112651N1+02101+02001999999ADDGA1041+001801999GA2071+021001999GF107991999999999999999999MA1101691999999REMMET058METAR SBQV 271100Z 03005KT 9999 SCT006 BKN070 21/20 Q1017;
0143833440999992008122712004-14950-040883FM-15+0914SBQV V0200101N001510045019N0112651N1+02201+02001999999ADDGA1071+004501999GA2071+024001999GF107991999999999999999999MA1101691999999REMMET058METAR SBQV 271200Z 01003KT 9999 BKN015 BKN080 22/20 Q1017;
0136833440999992008122713004-14950-040883FM-15+0914SBQV V0200301N00311006001CN0112651N1+02201+02001999999ADDGA1071+006001999GA2041+024001999MA1101801999999REMMET058METAR SBQV 271300Z 03006KT 9999 BKN020 SCT080 22/20 Q1018;EQDQ01+000042SCOTCV
0120833440999992008122714004-14950-040883FM-15+0914SBQV V0200301N003110060019N0112651N1+02401+02101999999ADDGA1071+006001999GF107991999999999999999999MA1101801999999REMMET051METAR SBQV 271400Z 03006KT 9999 BKN020 24/21 Q1018;
0120833440999992008122715004-14950-040883FM-15+0914SBQV V0200101N003110060019N0112651N1+02501+02101999999ADDGA1071+006001999GF107991999999999999999999MA1101691999999REMMET051METAR SBQV 271500Z 01006KT 9999 BKN020 25/21 Q1017;
0120833440999992008122716004-14950-040883FM-15+0914SBQV V0200301N003110060019N0112651N1+02501+02101999999ADDGA1071+006001999GF107991999999999999999999MA1101591999999REMMET051METAR SBQV 271600Z 03006KT 9999 BKN020 25/21 Q1016;
0120833440999992008122717004-14950-040883FM-15+0914SBQV V0200301N003610060019N0112651N1+02601+02001999999ADDGA1071+006001999GF107991999999999999999999MA1101491999999REMMET051METAR SBQV 271700Z 03007KT 9999 BKN020 26/20 Q1015;
0120833440999992008122718004-14950-040883FM-15+0914SBQV V0200101N003612200019N0112651N1+02701+02001999999ADDGA1041+006001999GF104991999999999999999999MA1101491999999REMMET051METAR SBQV 271800Z 01007KT 9999 SCT020 27/20 Q1015;
0143833440999992008122719004-14950-040883FM-15+0914SBQV V0200401N004112200019N0112651N1+02601+02001999999ADDGA1041+006001999GA2041+090001999GF104991999999999999999999MA1101391999999REMMET058METAR SBQV 271900Z 04008KT 9999 SCT020 SCT300 26/20 Q1014;
0120833440999992008122720004-14950-040883FM-15+0914SBQV V0200401N004112200019N0112651N1+02601+02001999999ADDGA1021+005401999GF102991999999999999999999MA1101391999999REMMET051METAR SBQV 272000Z 04008KT 9999 FEW018 26/20 Q1014;
0120833440999992008122721004-14950-040883FM-15+0914SBQV V0200301N003612200019N0112651N1+02501+02001999999ADDGA1021+004801999GF102991999999999999999999MA1101491999999REMMET051METAR SBQV 272100Z 03007KT 9999 FEW016 25/20 Q1015;
0072833440999992008122722004-14950-040883FM-15+0914SBQV V0200501N00311999999CY0099001N1+02401+01901999999ADDMA1101491999999REMMET045METAR SBQV 272200Z 05006KT CAVOK 24/19 Q1015;
0072833440999992008122802004-14950-040883FM-15+0914SBQV V0200601N00311999999CY0099001N1+02101+02001999999ADDMA1101691999999REMMET045METAR SBQV 280200Z 06006KT CAVOK 21/20 Q1017;
0138833440999992008122806004-14950-040883FM-15+0914SBQV V0209999C000012200019N0112651N1+01901+01901999999ADDGF100991999999999999999999MA1101491999999MW1411REMMET060METAR SBQV 280600Z 00000KT 9999 4000NE BCFG NSC 19/19 Q1015;EQDQ01    003SCCGA1
0120833440999992008122811004-14950-040883FM-15+0914SBQV V0200401N003110024019N0112651N1+02001+01901999999ADDGA1081+002401999GF108991999999999999999999MA1101801999999REMMET051METAR SBQV 281100Z 04006KT 9999 OVC008 20/19 Q1018;
0120833440999992008122812004-14950-040883FM-15+0914SBQV V0200401N003610036019N0112651N1+02101+01901999999ADDGA1071+003601999GF107991999999999999999999MA1101901999999REMMET051METAR SBQV 281200Z 04007KT 9999 BKN012 21/19 Q1019;
0120833440999992008122813004-14950-040883FM-15+0914SBQV V0200501N002610048019N0112651N1+02301+01901999999ADDGA1071+004801999GF107991999999999999999999MA1101901999999REMMET051METAR SBQV 281300Z 05005KT 9999 BKN016 23/19 Q1019;
0120833440999992008122814004-14950-040883FM-15+0914SBQV V0200601N003610054019N0112651N1+02601+01901999999ADDGA1071+005401999GF107991999999999999999999MA1101801999999REMMET051METAR SBQV 281400Z 06007KT 9999 BKN018 26/19 Q1018;
0120833440999992008122815004-14950-040883FM-15+0914SBQV V0200401N003110060019N0112651N1+02601+01801999999ADDGA1071+006001999GF107991999999999999999999MA1101691999999REMMET051METAR SBQV 281500Z 04006KT 9999 BKN020 26/18 Q1017;
0120833440999992008122816004-14950-040883FM-15+0914SBQV V0200401N003110060019N0112651N1+02701+01801999999ADDGA1071+006001999GF107991999999999999999999MA1101691999999REMMET051METAR SBQV 281600Z 04006KT 9999 BKN020 27/18 Q1017;
0120833440999992008122817004-14950-040883FM-15+0914SBQV V0201001N002610060019N0112651N1+02701+02001999999ADDGA1071+006001999GF107991999999999999999999MA1101591999999REMMET051METAR SBQV 281700Z 10005KT 9999 BKN020 27/20 Q1016;
0120833440999992008122818004-14950-040883FM-15+0914SBQV V0201301N002612200019N0112651N1+02601+01901999999ADDGA1041+006001999GF104991999999999999999999MA1101491999999REMMET051METAR SBQV 281800Z 13005KT 9999 SCT020 26/19 Q1015;
0143833440999992008122819004-14950-040883FM-15+0914SBQV V0201301N004112200019N0112651N1+02601+01901999999ADDGA1041+006001999GA2041+024001999GF104991999999999999999999MA1101491999999REMMET058METAR SBQV 281900Z 13008KT 9999 SCT020 SCT080 26/19 Q1015;
0143833440999992008122820004-14950-040883FM-15+0914SBQV V0201201N005112200019N0112651N1+02601+01701999999ADDGA1021+006001999GA2041+024001999GF104991999999999999999999MA1101491999999REMMET058METAR SBQV 282000Z 12010KT 9999 FEW020 SCT080 26/17 Q1015;
0072833440999992008122821004-14950-040883FM-15+0914SBQV V0201301N00461999999CY0099001N1+02401+02001999999ADDMA1101491999999REMMET045METAR SBQV 282100Z 13009KT CAVOK 24/20 Q1015;
0072833440999992008122822004-14950-040883FM-15+0914SBQV V0201201N00311999999CY0099001N1+02201+02001999999ADDMA1101591999999REMMET045METAR SBQV 282200Z 12006KT CAVOK 22/20 Q1016;
0072833440999992008122911004-14950-040883FM-15+0914SBQV V0200401N00461999999CY0099001N1+02301+01701999999ADDMA1101801999999REMMET045METAR SBQV 291100Z 04009KT CAVOK 23/17 Q1018;
0120833440999992008122912004-14950-040883FM-15+0914SBQV V0200501N003612200019N0112651N1+02501+01701999999ADDGA1021+009001999GF102991999999999999999999MA1101901999999REMMET051METAR SBQV 291200Z 05007KT 9999 FEW030 25/17 Q1019;
0120833440999992008122913004-14950-040883FM-15+0914SBQV V0200501N003612200019N0112651N1+02601+01601999999ADDGA1021+009001999GF102991999999999999999999MA1101801999999REMMET051METAR SBQV 291300Z 05007KT 9999 FEW030 26/16 Q1018;
0120833440999992008122914004-14950-040883FM-15+0914SBQV V0200501N002610090019N0112651N1+02701+01701999999ADDGA1071+009001999GF107991999999999999999999MA1101801999999REMMET051METAR SBQV 291400Z 05005KT 9999 BKN030 27/17 Q1018;
0120833440999992008122915004-14950-040883FM-15+0914SBQV V0200901N002110090019N0112651N1+02701+01701999999ADDGA1071+009001999GF107991999999999999999999MA1101801999999REMMET051METAR SBQV 291500Z 09004KT 9999 BKN030 27/17 Q1018;
0120833440999992008122916004-14950-040883FM-15+0914SBQV V0201301N002610090019N0112651N1+02701+01901999999ADDGA1071+009001999GF107991999999999999999999MA1101691999999REMMET051METAR SBQV 291600Z 13005KT 9999 BKN030 27/19 Q1017;
0120833440999992008122917004-14950-040883FM-15+0914SBQV V0201401N001510090019N0112651N1+02701+01901999999ADDGA1071+009001999GF107991999999999999999999MA1101591999999REMMET051METAR SBQV 291700Z 14003KT 9999 BKN030 27/19 Q1016;
0120833440999992008122918004-14950-040883FM-15+0914SBQV V0201201N002110090019N0112651N1+02701+02001999999ADDGA1071+009001999GF107991999999999999999999MA1101591999999REMMET051METAR SBQV 291800Z 12004KT 9999 BKN030 27/20 Q1016;
0120833440999992008122919004-14950-040883FM-15+0914SBQV V0201001N005110075019N0112651N1+02601+01901999999ADDGA1071+007501999GF107991999999999999999999MA1101591999999REMMET051METAR SBQV 291900Z 10010KT 9999 BKN025 26/19 Q1016;
0120833440999992008122920004-14950-040883FM-15+0914SBQV V0201101N004610075019N0112651N1+02501+01801999999ADDGA1071+007501999GF107991999999999999999999MA1101591999999REMMET051METAR SBQV 292000Z 11009KT 9999 BKN025 25/18 Q1016;
0120833440999992008122921004-14950-040883FM-15+0914SBQV V0201001N003612200019N0112651N1+02401+01801999999ADDGA1021+006001999GF102991999999999999999999MA1101591999999REMMET051METAR SBQV 292100Z 10007KT 9999 FEW020 24/18 Q1016;
0120833440999992008122922004-14950-040883FM-15+0914SBQV V0201001N003112200019N0112651N1+02301+01801999999ADDGA1021+005401999GF102991999999999999999999MA1101691999999REMMET051METAR SBQV 292200Z 10006KT 9999 FEW018 23/18 Q1017;
0120833440999992008123011004-14950-040883FM-15+0914SBQV V0200501N006212200019N0112651N1+02101+01801999999ADDGA1021+004501999GF102991999999999999999999MA1101801999999REMMET051METAR SBQV 301100Z 05012KT 9999 FEW015 21/18 Q1018;
0120833440999992008123012004-14950-040883FM-15+0914SBQV V0200801N004112200019N0112651N1+02401+01901999999ADDGA1021+005401999GF102991999999999999999999MA1101801999999REMMET051METAR SBQV 301200Z 08008KT 9999 FEW018 24/19 Q1018;
0120833440999992008123013004-14950-040883FM-15+0914SBQV V0200901N003612200019N0112651N1+02501+01801999999ADDGA1041+006001999GF104991999999999999999999MA1101801999999REMMET051METAR SBQV 301300Z 09007KT 9999 SCT020 25/18 Q1018;
0120833440999992008123014004-14950-040883FM-15+0914SBQV V0201001N004110075019N0112651N1+02601+01501999999ADDGA1071+007501999GF107991999999999999999999MA1101801999999REMMET051METAR SBQV 301400Z 10008KT 9999 BKN025 26/15 Q1018;
0120833440999992008123015004-14950-040883FM-15+0914SBQV V0200701N004112200019N0112651N1+02701+01601999999ADDGA1041+007501999GF104991999999999999999999MA1101801999999REMMET051METAR SBQV 301500Z 07008KT 9999 SCT025 27/16 Q1018;
0120833440999992008123016004-14950-040883FM-15+0914SBQV V0200901N003112200019N0112651N1+02701+01701999999ADDGA1041+007501999GF104991999999999999999999MA1101691999999REMMET051METAR SBQV 301600Z 09006KT 9999 SCT025 27/17 Q1017;
0120833440999992008123017004-14950-040883FM-15+0914SBQV V0201001N004110075019N0112651N1+02701+01701999999ADDGA1071+007501999GF107991999999999999999999MA1101591999999REMMET051METAR SBQV 301700Z 10008KT 9999 BKN025 27/17 Q1016;
0120833440999992008123018004-14950-040883FM-15+0914SBQV V0200601N003612200019N0112651N1+02701+01701999999ADDGA1041+007501999GF104991999999999999999999MA1101591999999REMMET051METAR SBQV 301800Z 06007KT 9999 SCT025 27/17 Q1016;
0120833440999992008123019004-14950-040883FM-15+0914SBQV V0200901N004612200019N0112651N1+02601+01801999999ADDGA1041+006001999GF104991999999999999999999MA1101491999999REMMET051METAR SBQV 301900Z 09009KT 9999 SCT020 26/18 Q1015;
0120833440999992008123020004-14950-040883FM-15+0914SBQV V0200901N002612200019N0112651N1+02701+01801999999ADDGA1041+006001999GF104991999999999999999999MA1101491999999REMMET051METAR SBQV 302000Z 09005KT 9999 SCT020 27/18 Q1015;
0120833440999992008123021004-14950-040883FM-15+0914SBQV V0201001N004112200019N0112651N1+02501+01901999999ADDGA1021+004801999GF102991999999999999999999MA1101491999999REMMET051METAR SBQV 302100Z 10008KT 9999 FEW016 25/19 Q1015;
0120833440999992008123022004-14950-040883FM-15+0914SBQV V0200901N004612200019N0112651N1+02301+02001999999ADDGA1021+004501999GF102991999999999999999999MA1101591999999REMMET051METAR SBQV 302200Z 09009KT 9999 FEW015 23/20 Q1016;
0120833440999992008123111004-14950-040883FM-15+0914SBQV V0202901N001010048019N0112651N1+02201+01701999999ADDGA1071+004801999GF107991999999999999999999MA1101901999999REMMET051METAR SBQV 311100Z 29002KT 9999 BKN016 22/17 Q1019;
0120833440999992008123112004-14950-040883FM-15+0914SBQV V0203401N001012200019N0112651N1+02401+01901999999ADDGA1041+005401999GF104991999999999999999999MA1101901999999REMMET051METAR SBQV 311200Z 34002KT 9999 SCT018 24/19 Q1019;
0120833440999992008123113004-14950-040883FM-15+0914SBQV V0200401N003112200019N0112651N1+02501+01801999999ADDGA1041+005401999GF104991999999999999999999MA1101901999999REMMET051METAR SBQV 311300Z 04006KT 9999 SCT018 25/18 Q1019;
0120833440999992008123114004-14950-040883FM-15+0914SBQV V0200401N002612200019N0112651N1+02701+01801999999ADDGA1041+006001999GF104991999999999999999999MA1101901999999REMMET051METAR SBQV 311400Z 04005KT 9999 SCT020 27/18 Q1019;
0120833440999992008123116004-14950-040883FM-15+0914SBQV V0203201N000510060019N0112651N1+02701+01801999999ADDGA1071+006001999GF107991999999999999999999MA1101691999999REMMET051METAR SBQV 311600Z 32001KT 9999 BKN020 27/18 Q1017;
0120833440999992008123117004-14950-040883FM-15+0914SBQV V0201401N000512200019N0112651N1+02801+01701999999ADDGA1041+007501999GF104991999999999999999999MA1101591999999REMMET051METAR SBQV 311700Z 14001KT 9999 SCT025 28/17 Q1016;
0120833440999992008123118004-14950-040883FM-15+0914SBQV V0201201N002612200019N0112651N1+02701+01701999999ADDGA1041+007501999GF104991999999999999999999MA1101591999999REMMET051METAR SBQV 311800Z 12005KT 9999 SCT025 27/17 Q1016;
0120833440999992008123119004-14950-040883FM-15+0914SBQV V0201201N004612200019N0112651N1+02701+01901999999ADDGA1041+007501999GF104991999999999999999999MA1101491999999REMMET051METAR SBQV 311900Z 12009KT 9999 SCT025 27/19 Q1015;
0120833440999992008123120004-14950-040883FM-15+0914SBQV V0201301N004612200019N0112651N1+02701+01901999999ADDGA1021+007501999GF102991999999999999999999MA1101491999999REMMET051METAR SBQV 312000Z 13009KT 9999 FEW025 27/19 Q1015;
0120833440999992008123121004-14950-040883FM-15+0914SBQV V0201201N004112200019N0112651N1+02601+01901999999ADDGA1021+006001999GF102991999999999999999999MA1101491999999REMMET051METAR SBQV 312100Z 12008KT 9999 FEW020 26/19 Q1015;
0120833440999992008123122004-14950-040883FM-15+0914SBQV V0201101N004112200019N0112651N1+02401+01801999999ADDGA1021+004801999GF102991999999999999999999MA1101591999999REMMET051METAR SBQV 312200Z 11008KT 9999 FEW016 24/18 Q1016;
