0168833980999992008010100004-15667-038950FM-12+000599999V0209999C000010075019N0010001N1+02621+02141101401ADDGF105991051051008001001001KA1240M+02981MA1999999101351MD1999999-0081REMSYN088AAXX  01004 83398 32594 50000 10262 20214 30135 40140 85500 333 10298 29070 55095 59008;
0156833980999992008010112004-15667-038950FM-12+000599999V0200501N002110450019N0040001N1+02821+02071101521ADDGF105991021051008001041001KA1240N+02021MA1999999101471MD1999999-0061REMSYN076AAXX  01124 83398 32596 50504 10282 20207 30147 40152 82540 333 20202 59006;
0137833980999992008010118004-15667-038950FM-12+000599999V0200501N003111050019N0040001N1+02861+02141101371ADDGF105991021051008001041011MA1999999101321MD1999999+0041REMSYN070AAXX  01184 83398 32596 50506 10286 20214 30132 40137 82541 333 58004;
0168833980999992008010200004-15667-038950FM-12+000599999V0209999C000012200019N0010001N1+02601+02101101501ADDGF103991031011008001001001KA1240M+02981MA1999999101451MD1999999+0101REMSYN088AAXX  02004 83398 32594 30000 10260 20210 30145 40150 83100 333 10298 29069 55105 58010;
0201833980999992008010212004-15667-038950FM-12+000599999V0209999C000010450019N0040001N1+02641+02371101621ADDAA124002091AY161061AY221061GF106991041051008001021001KA1240N+02121MA1999999101571MD1999999+0101MW1021REMSYN088AAXX  02124 83398 21596 60000 10264 20237 30157 40162 70262 84520 333 20212 58010 60024;
0137833980999992008010218004-15667-038950FM-12+000599999V0200501N002110450019N0040001N1+02921+02191101451ADDGF106991031021008001041011MA1999999101401MD1999999+0081REMSYN070AAXX  02184 83398 32596 60504 10292 20219 30140 40145 83241 333 58008;
0168833980999992008010300004-15667-038950FM-12+000599999V0209999C000012200019N0010001N1+02621+02141101671ADDGF102991021011008001001001KA1240M+02981MA1999999101611MD1999999+0161REMSYN088AAXX  03004 83398 32594 20000 10262 20214 30161 40167 82100 333 10298 29075 55078 58016;
0156833980999992008010312004-15667-038950FM-12+000599999V0209999C000010450019N0040001N1+02841+02141101811ADDGF106991031051008001041011KA1240N+02061MA1999999101751MD1999999+0181REMSYN076AAXX  03124 83398 32596 60000 10284 20214 30175 40181 83541 333 20206 58018;
0137833980999992008010318004-15667-038950FM-12+000599999V0209999C000010450019N0040001N1+02821+01971101661ADDGF106991021051008001041011MA1999999101601MD1999999+0201REMSYN070AAXX  03184 83398 32596 60000 10282 20197 30160 40166 82541 333 58020;
0168833980999992008010400004-15667-038950FM-12+000599999V0209999C000012200019N0010001N1+02601+01991101781ADDGF104991041051008001001001KA1240M+02961MA1999999101721MD1999999+0111REMSYN088AAXX  04004 83398 32594 40000 10260 20199 30172 40178 84500 333 10296 29066 55094 58011;
0137833980999992008010418004-15667-038950FM-12+000599999V0200501N002110450019N0040001N1+02801+02081101721ADDGF107991041051008001021001MA1999999101661MD1999999+0061REMSYN070AAXX  04184 83398 32596 70504 10280 20208 30166 40172 84520 333 58006;
0168833980999992008010500004-15667-038950FM-12+000599999V0209999C000012200019N0010001N1+02481+02131101761ADDGF104991041051008001001001KA1240M+02881MA1999999101701MD1999999-0021REMSYN088AAXX  05004 83398 32594 40000 10248 20213 30170 40176 84500 333 10288 29079 55029 59002;
0156833980999992008010512004-15667-038950FM-12+000599999V0203601N003110450019N0040001N1+02821+02201101761ADDGF105991031051008001021001KA1240N+02081MA1999999101701MD1999999-0191REMSYN076AAXX  05124 83398 32596 53606 10282 20220 30170 40176 83520 333 20208 59019;
0156833980999992008010612004-15667-038950FM-12+000599999V0203601N004110450019N0040001N1+02881+02281101461ADDGF106991031051008001021001KA1240N+02261MA1999999101411MD1999999-0291REMSYN076AAXX  06124 83398 32596 63608 10288 20228 30141 40146 83520 333 20226 59029;
0137833980999992008010618004-15667-038950FM-12+000599999V0203601N005110450019N0040001N1+02921+02271101111ADDGF106991031021008001041011MA1999999101061MD1999999-0301REMSYN070AAXX  06184 83398 32596 63610 10292 20227 30106 40111 83241 333 59030;
0156833980999992008010712004-15667-038950FM-12+000599999V0203601N008710450019N0040001N1+02861+02191101321ADDGF106991041051008001041071KA1240N+02481MA1999999101271MD1999999-0141REMSYN076AAXX  07124 83398 32596 63617 10286 20219 30127 40132 84547 333 20248 59014;
0137833980999992008010718004-15667-038950FM-12+000599999V0203201N007212200019N0040001N1+02821+02201101031ADDGF104991021011008001041001MA1999999100981MD1999999-0081REMSYN070AAXX  07184 83398 32596 43214 10282 20220 30098 40103 82140 333 59008;
0168833980999992008010800004-15667-038950FM-12+000599999V0209999C000010450019N0010001N1+02591+02361101381ADDGF105991031021008001041001KA1240M+03001MA1999999101331MD1999999+0141REMSYN088AAXX  08004 83398 32594 50000 10259 20236 30133 40138 83240 333 10300 29078 55101 58014;
0156833980999992008010812004-15667-038950FM-12+000599999V0203201N003110450019N0040001N1+02781+02401101321ADDGF107991041051008001021001KA1240N+02301MA1999999101271MD1999999+0001REMSYN076AAXX  08124 83398 32596 73206 10278 20240 30127 40132 84520 333 20230 58000;
0137833980999992008010818004-15667-038950FM-12+000599999V0203601N006210450019N0040001N1+02911+02381101061ADDGF106991031051008001041001MA1999999101011MD1999999+0031REMSYN070AAXX  08184 83398 32596 63612 10291 20238 30101 40106 83540 333 58003;
0168833980999992008010900004-15667-038950FM-12+000599999V0203601N002610450019N0010001N1+02641+02441101231ADDGF105991031051008001041001KA1240M+03061MA1999999101181MD1999999-0151REMSYN088AAXX  09004 83398 32594 53605 10264 20244 30118 40123 83540 333 10306 29083 55079 59015;
0156833980999992008010912004-15667-038950FM-12+000599999V0203201N009310450019N0040001N1+02881+02281101251ADDGF106991031051008001041001KA1240N+02551MA1999999101201MD1999999-0071REMSYN076AAXX  09124 83398 32596 63218 10288 20228 30120 40125 83540 333 20255 59007;
0137833980999992008010918004-15667-038950FM-12+000599999V0203201N008210450019N0040001N1+02901+02301100981ADDGF105991031021008001041001MA1999999100931MD1999999-0081REMSYN070AAXX  09184 83398 32596 53216 10290 20230 30093 40098 83240 333 59008;
0168833980999992008011000004-15667-038950FM-12+000599999V0203601N002612200019N0010001N1+02561+02231101231ADDGF103991021011008001041001KA1240M+03011MA1999999101181MD1999999+0001REMSYN088AAXX  10004 83398 32594 33605 10256 20223 30118 40123 82140 333 10301 29076 55083 58000;
0156833980999992008011012004-15667-038950FM-12+000599999V0203601N007712200019N0040001N1+02841+02091101311ADDGF104991021011008001041001KA1240N+02081MA1999999101261MD1999999+0061REMSYN076AAXX  10124 83398 32596 43615 10284 20209 30126 40131 82140 333 20208 58006;
0168833980999992008011100004-15667-038950FM-12+000599999V0209999C000012200019N0010001N1+02421+02151101351ADDGF102991021011008001001001KA1240M+03021MA1999999101301MD1999999+0121REMSYN088AAXX  11004 83398 32594 20000 10242 20215 30130 40135 82100 333 10302 29073 55114 58012;
0156833980999992008011112004-15667-038950FM-12+000599999V0200501N002110450019N0040001N1+02761+02211101431ADDGF106991041051008001021001KA1240N+02061MA1999999101381MD1999999+0121REMSYN076AAXX  11124 83398 32596 60504 10276 20221 30138 40143 84520 333 20206 58012;
0137833980999992008011118004-15667-038950FM-12+000599999V0200501N004112200019N0040001N1+02911+02131101271ADDGF104991021011008001041001MA1999999101221MD1999999+0141REMSYN070AAXX  11184 83398 32596 40508 10291 20213 30122 40127 82140 333 58014;
0168833980999992008011200004-15667-038950FM-12+000599999V0209999C000010450019N0010001N1+02621+02211101421ADDGF105991031021008001041001KA1240M+03031MA1999999101371MD1999999+0071REMSYN088AAXX  12004 83398 32594 50000 10262 20221 30137 40142 83240 333 10303 29073 55105 58007;
0156833980999992008011212004-15667-038950FM-12+000599999V0200501N004610450019N0040001N1+02861+02061101551ADDGF105991031051008001041001KA1240N+02301MA1999999101501MD1999999+0121REMSYN076AAXX  12124 83398 32596 50509 10286 20206 30150 40155 83540 333 20230 58012;
0137833980999992008011218004-15667-038950FM-12+000599999V0200501N002612200019N0040001N1+02891+02041101281ADDGF102991021011008001001001MA1999999101231MD1999999+0011REMSYN070AAXX  12184 83398 32596 20505 10289 20204 30123 40128 82100 333 58001;
0156833980999992008011312004-15667-038950FM-12+000599999V0200501N002610450019N0040001N1+02821+02151101541ADDGF106991031021008001041001KA1240N+02001MA1999999101491MD1999999-0011REMSYN076AAXX  13124 83398 32596 60505 10282 20215 30149 40154 83240 333 20200 59001;
0137833980999992008011318004-15667-038950FM-12+000599999V0200501N003110450019N0010001N1+02821+02101101371ADDGF105991021021008001041001MA1999999101321MD1999999+0091REMSYN070AAXX  13184 83398 32594 50506 10282 20210 30132 40137 82240 333 58009;
0182833980999992008011518004-15667-038950FM-12+000599999V0200501N004110450019N0040001N1+02721+02101101241ADDAA106006191AY161061AY221061GF106991041051008001021001MA1999999101191MD1999999-0121MW1021REMSYN082AAXX  15184 83398 21596 60508 10272 20210 30119 40124 70262 84520 333 59012 60061;
0173833980999992008011612004-15667-038950FM-12+000599999V0200901N002110450019N0040001N1+02821+02291101441ADDAA124006191GF106991041051008001041001KA1240N+02061MA1999999101391MD1999999+0031REMSYN082AAXX  16124 83398 22596 60904 10282 20229 30139 40144 84540 333 20206 58003 60064;
0137833980999992008011618004-15667-038950FM-12+000599999V0200501N003610075019N0040001N1+02661+02411101241ADDGF108991051051008001021999MA1999999101191MD1999999+0001REMSYN070AAXX  16184 83398 32596 80507 10266 20241 30119 40124 8552/ 333 58000;
0168833980999992008011700004-15667-038950FM-12+000599999V0200501N003110075019N0010001N1+02561+02361101361ADDGF108991051051008001021999KA1240M+03001MA1999999101311MD1999999+0011REMSYN088AAXX  17004 83398 32594 80506 10256 20236 30131 40136 8552/ 333 10300 29084 55077 58001;
0220833980999992008011712004-15667-038950FM-12+000599999V0209999C000010075019N0040001N1+02401+02371101451ADDAA124032091AY191061AY201061GF108991051051008001021999KA1240N+02211MA1999999101401MD1999999+0011MW1961REMSYN088AAXX  17124 83398 21596 80000 10240 20237 30140 40145 79697 8552/ 333 20221 58001 60324;EQDQ01+000072PSTWM2
0182833980999992008011718004-15667-038950FM-12+000599999V0200501N004610075019N0040001N1+02541+02381101261ADDAA106005191AY191061AY261061GF108991051051008001021999MA1999999101211MD1999999+0021MW1921REMSYN082AAXX  17184 83398 21596 80509 10254 20238 30121 40126 79296 8552/ 333 58002 60051;
0213833980999992008011800004-15667-038950FM-12+000599999V0209999C000010075019N0010001N1+02451+02381101441ADDAA106000891AY151061AY211061GF108991051051008001021999KA1240M+02631MA1999999101391MD1999999+0081MW1021REMSYN100AAXX  18004 83398 21594 80000 10245 20238 30139 40144 70251 8552/ 333 10263 29095 55000 58008 69971;
0201833980999992008011812004-15667-038950FM-12+000599999V0209999C000010075019N0040001N1+02661+02431101531ADDAA124010991AY161061AY221061GF108991051051008001021999KA1240N+02271MA1999999101481MD1999999+0081MW1021REMSYN088AAXX  18124 83398 21596 80000 10266 20243 30148 40153 70262 8552/ 333 20227 58008 60114;
0137833980999992008011818004-15667-038950FM-12+000599999V0200501N002110450019N0040001N1+02801+02391101291ADDGF107991041051008001021001MA1999999101241MD1999999+0031REMSYN070AAXX  18184 83398 32596 70504 10280 20239 30124 40129 84520 333 58003;
0168833980999992008011900004-15667-038950FM-12+000599999V0209999C000012200019N0010001N1+02601+02311101401ADDGF104991021021008001041001KA1240M+02891MA1999999101351MD1999999-0041REMSYN088AAXX  19004 83398 32594 40000 10260 20231 30135 40140 82240 333 10289 29083 55028 59004;
0156833980999992008011912004-15667-038950FM-12+000599999V0203601N003110450019N0040001N1+02801+02271101481ADDGF107991041051008001021001KA1240N+02351MA1999999101431MD1999999-0051REMSYN076AAXX  19124 83398 32596 73606 10280 20227 30143 40148 84520 333 20235 59005;
0137833980999992008011918004-15667-038950FM-12+000599999V0203601N002612200019N0040001N1+02861+02211101111ADDGF103991021011008001041001MA1999999101061MD1999999-0181REMSYN070AAXX  19184 83398 32596 33605 10286 20221 30106 40111 82140 333 59018;
0137833980999992008012018004-15667-038950FM-12+000599999V0203201N006212200019N0040001N1+02861+02281100971ADDGF102991011011008001041001MA1999999100921MD1999999-0141REMSYN070AAXX  20184 83398 32596 23212 10286 20228 30092 40097 81140 333 59014;
0156833980999992008012112004-15667-038950FM-12+000599999V0203201N006210450019N0040001N1+02861+02331101241ADDGF106991041051008001041001KA1240N+02291MA1999999101191MD1999999-0041REMSYN076AAXX  21124 83398 32596 63212 10286 20233 30119 40124 84540 333 20229 59004;
0137833980999992008012118004-15667-038950FM-12+000599999V0203601N005112200019N0200001N1+02881+02441100941ADDGF103991021011012501041001MA1999999100891MD1999999-0031REMSYN070AAXX  21184 83398 32698 33610 10288 20244 30089 40094 82140 333 59003;
0168833980999992008012200004-15667-038950FM-12+000599999V0209999C000010450019N0010001N1+02641+02441101241ADDGF107991041051008001021001KA1240M+03021MA1999999101191MD1999999+0201REMSYN088AAXX  22004 83398 32594 70000 10264 20244 30119 40124 84520 333 10302 29082 55114 58020;
0201833980999992008012212004-15667-038950FM-12+000599999V0209999C000010075019N0040001N1+02351+02301101481ADDAA124029091AY161061AY221061GF108991051051008001021999KA1240N+02351MA1999999101431MD1999999+0241MW1621REMSYN088AAXX  22124 83398 21596 80000 10235 20230 30143 40148 76262 8552/ 333 20235 58024 60294;
0182833980999992008012218004-15667-038950FM-12+000599999V0209999C000010075019N0040001N1+02751+02371101261ADDAA106039991AY161061AY221061GF108991051051008001021999MA1999999101211MD1999999+0021MW1021REMSYN082AAXX  22184 83398 21596 80000 10275 20237 30121 40126 70262 8552/ 333 58002 60401;
0168833980999992008012300004-15667-038950FM-12+000599999V0209999C000010450019N0010001N1+02421+02351101351ADDGF105991031051008001041001KA1240M+02801MA1999999101301MD1999999+0111REMSYN088AAXX  23004 83398 32594 50000 10242 20235 30130 40135 83540 333 10280 29092 55010 58011;
0173833980999992008012312004-15667-038950FM-12+000599999V0201401N002110075019N0040001N1+02681+02371101451ADDAA124039991GF108991051051008001021999KA1240N+02291MA1999999101401MD1999999-0031REMSYN082AAXX  23124 83398 22596 81404 10268 20237 30140 40145 8552/ 333 20229 59003 60404;
0168833980999992008012400004-15667-038950FM-12+000599999V0209999C000010075019N0010001N1+02461+02321101431ADDGF108991051051008001021999KA1240M+02891MA1999999101381MD1999999+0081REMSYN088AAXX  24004 83398 32594 80000 10246 20232 30138 40143 8552/ 333 10289 29086 55052 58008;
0156833980999992008012412004-15667-038950FM-12+000599999V0209999C000010450019N0040001N1+02801+02151101541ADDGF107991041051008001021001KA1240N+02271MA1999999101491MD1999999+0091REMSYN076AAXX  24124 83398 32596 70000 10280 20215 30149 40154 84520 333 20227 58009;
0137833980999992008012418004-15667-038950FM-12+000599999V0200501N003110450019N0040001N1+02861+02031101311ADDGF107991031051008001041011MA1999999101261MD1999999+0011REMSYN070AAXX  24184 83398 32596 70506 10286 20203 30126 40131 83541 333 58001;
0168833980999992008012500004-15667-038950FM-12+000599999V0209999C000012200019N0010001N1+02581+02171101381ADDGF102991011011008001041001KA1240M+02991MA1999999101331MD1999999-0051REMSYN088AAXX  25004 83398 32594 20000 10258 20217 30133 40138 81140 333 10299 29071 55110 59005;
0156833980999992008012512004-15667-038950FM-12+000599999V0209999C000010450019N0040001N1+02781+02131101451ADDGF106991031021008001041001KA1240N+02101MA1999999101401MD1999999-0091REMSYN076AAXX  25124 83398 32596 60000 10278 20213 30140 40145 83240 333 20210 59009;
0137833980999992008012518004-15667-038950FM-12+000599999V0200901N004110450019N0040001N1+02821+02201101251ADDGF106991041051008001021001MA1999999101201MD1999999-0061REMSYN070AAXX  25184 83398 32596 60908 10282 20220 30120 40125 84520 333 59006;
0168833980999992008012600004-15667-038950FM-12+000599999V0200501N002110450019N0010001N1+02601+02101101361ADDGF106991031051008001021001KA1240M+03021MA1999999101311MD1999999-0021REMSYN088AAXX  26004 83398 32594 60504 10260 20210 30131 40136 83520 333 10302 29071 55095 59002;
0201833980999992008012612004-15667-038950FM-12+000599999V0201401N001010075019N0040001N1+02551+02301101401ADDAA124002091AY161061AY221061GF108991051051008001021999KA1240N+02181MA1999999101351MD1999999+0051MW1021REMSYN088AAXX  26124 83398 21596 81402 10255 20230 30135 40140 70262 8552/ 333 20218 58005 60024;
0137833980999992008012618004-15667-038950FM-12+000599999V0200901N002110075019N0040001N1+02741+02191101191ADDGF108991051051008001021999MA1999999101141MD1999999-0061REMSYN070AAXX  26184 83398 32596 80904 10274 20219 30114 40119 8552/ 333 59006;
0201833980999992008012712004-15667-038950FM-12+000599999V0209999C000010075019N0040001N1+02571+02321101431ADDAA124002091AY161061AY221061GF108991051051008001021999KA1240N+02271MA1999999101381MD1999999+0031MW1021REMSYN088AAXX  27124 83398 21596 80000 10257 20232 30138 40143 70262 8552/ 333 20227 58003 60024;
0137833980999992008012718004-15667-038950FM-12+000599999V0209999C000010075019N0040001N1+02741+02241101321ADDGF108991051051008001021999MA1999999101261MD1999999+0121REMSYN070AAXX  27184 83398 32596 80000 10274 20224 30126 40132 8552/ 333 58012;
0201833980999992008012812004-15667-038950FM-12+000599999V0209999C000010075019N0040001N1+02501+02381101381ADDAA124002091AY161061AY221061GF108991051051008001021999KA1240N+02251MA1999999101331MD1999999-0051MW1021REMSYN088AAXX  28124 83398 21596 80000 10250 20238 30133 40138 70262 8552/ 333 20225 59005 60024;
0168833980999992008013000004-15667-038950FM-12+000599999V0200501N004110450019N0010001N1+02601+02031101041ADDGF105991031021008001041001KA1240M+02981MA1999999100991MD1999999-0301REMSYN088AAXX  30004 83398 32594 50508 10260 20203 30099 40104 83240 333 10298 29072 55104 59030;
0156833980999992008013012004-15667-038950FM-12+000599999V0203201N005110450019N0040001N1+02841+02121101001ADDGF107991031021008001041001KA1240N+01981MA1999999100951MD1999999-0311REMSYN076AAXX  30124 83398 32596 73210 10284 20212 30095 40100 83240 333 20198 59031;
0137833980999992008013018004-15667-038950FM-12+000599999V0203601N008210450019N0040001N1+02871+02021100721ADDGF106991031021008001041001MA1999999100671MD1999999-0301REMSYN070AAXX  30184 83398 32596 63616 10287 20202 30067 40072 83240 333 59030;
0168833980999992008013100004-15667-038950FM-12+000599999V0203601N005112200019N0010001N1+02621+02101100781ADDGF104991021021008001041001KA1240M+03001MA1999999100731MD1999999-0261REMSYN088AAXX  31004 83398 32594 43610 10262 20210 30073 40078 82240 333 10300 29068 55100 59026;
0201833980999992008013112004-15667-038950FM-12+000599999V0209999C000010075019N0040001N1+02521+02311100881ADDAA124000891AY151061AY211061GF108991051051008001021999KA1240N+02431MA1999999100831MD1999999-0121MW1021REMSYN088AAXX  31124 83398 21596 80000 10252 20231 30083 40088 70251 8552/ 333 20243 59012 69984;
0137833980999992008013118004-15667-038950FM-12+000599999V0203601N004110450019N0040001N1+02791+02351100601ADDGF107991041051008001021001MA1999999100551MD1999999-0121REMSYN070AAXX  31184 83398 32596 73608 10279 20235 30055 40060 84520 333 59012;
0168833980999992008020100004-15667-038950FM-12+000599999V0203601N003610450019N0010001N1+02661+02391100771ADDGF107991041051008001021001KA1240M+02881MA1999999100721MD1999999-0011REMSYN088AAXX  01004 83398 32594 73607 10266 20239 30072 40077 84520 333 10288 29084 55031 59001;
0201833980999992008020112004-15667-038950FM-12+000599999V0203201N002110075019N0040001N1+02671+02401101021ADDAA124006191AY161061AY221061GF108991051051008001021999KA1240N+02261MA1999999100971MD1999999+0141MW1021REMSYN088AAXX  01124 83398 21596 83204 10267 20240 30097 40102 70262 8552/ 333 20226 58014 60064;
0156833980999992008020412004-15667-038950FM-12+000599999V0203201N006210450019N0040001N1+02891+02261101491ADDGF106991031021008001041001KA1240N+02381MA1999999101441MD1999999+0071REMSYN076AAXX  04124 83398 32596 63212 10289 20226 30144 40149 83240 333 20238 58007;
0156833980999992008020512004-15667-038950FM-12+000599999V0203601N004610450019N0040001N1+02861+02211101591ADDGF106991031021008001041001KA1240N+02121MA1999999101541MD1999999+0241REMSYN076AAXX  05124 83398 32596 63609 10286 20221 30154 40159 83240 333 20212 58024;
0137833980999992008020518004-15667-038950FM-12+000599999V0203601N002112200019N0040001N1+02881+02281101341ADDGF103991011011008001041001MA1999999101291MD1999999+0221REMSYN070AAXX  05184 83398 32596 33604 10288 20228 30129 40134 81140 333 58022;
0156833980999992008020612004-15667-038950FM-12+000599999V0209999C000010450019N0040001N1+02721+02411101691ADDGF106991031021008001041001KA1240N+02091MA1999999101631MD1999999+0091REMSYN076AAXX  06124 83398 32596 60000 10272 20241 30163 40169 83240 333 20209 58009;
0137833980999992008020618004-15667-038950FM-12+000599999V0200501N002112200019N0040001N1+02941+02261101441ADDGF104991021011008001041001MA1999999101391MD1999999+0101REMSYN070AAXX  06184 83398 32596 40504 10294 20226 30139 40144 82140 333 58010;
0156833980999992008020712004-15667-038950FM-12+000599999V0209999C000010450019N0040001N1+02861+01951101791ADDGF105991031011008001041001KA1240N+02111MA1999999101731MD1999999+0101REMSYN076AAXX  07124 83398 32596 50000 10286 20195 30173 40179 83140 333 20211 58010;
0168833980999992008020800004-15667-038950FM-12+000599999V0209999C000012200019N0010001N1+02621+02101101631ADDGF102991011011008001041001KA1240M+03011MA1999999101571MD1999999+0011REMSYN088AAXX  08004 83398 32594 20000 10262 20210 30157 40163 81140 333 10301 29066 55115 58001;
0156833980999992008020812004-15667-038950FM-12+000599999V0209999C000010450019N0040001N1+02661+02271101691ADDGF106991031051008001021001KA1240N+01991MA1999999101631MD1999999+0101REMSYN076AAXX  08124 83398 32596 60000 10266 20227 30163 40169 83520 333 20199 58010;
0137833980999992008020818004-15667-038950FM-12+000599999V0203601N006212200019N0040001N1+02881+02281101331ADDGF103991021011008001041001MA1999999101281MD1999999-0211REMSYN070AAXX  08184 83398 32596 33612 10288 20228 30128 40133 82140 333 59021;
0168833980999992008020900004-15667-038950FM-12+000599999V0200501N004112200019N0010001N1+02661+02291101431ADDGF102991011011008001041001KA1240M+03041MA1999999101381MD1999999-0191REMSYN088AAXX  09004 83398 32594 20508 10266 20229 30138 40143 81140 333 10304 29077 55108 59019;
0156833980999992008020912004-15667-038950FM-12+000599999V0200501N004610450019N0040001N1+02861+02301101441ADDGF106991031051008001021001KA1240N+02331MA1999999101391MD1999999-0241REMSYN076AAXX  09124 83398 32596 60509 10286 20230 30139 40144 83520 333 20233 59024;
0137833980999992008020918004-15667-038950FM-12+000599999V0200501N003112200019N0040001N1+02941+02241101261ADDGF103991021011008001041001MA1999999101211MD1999999-0071REMSYN070AAXX  09184 83398 32596 30506 10294 20224 30121 40126 82140 333 59007;
0220833980999992008021012004-15667-038950FM-12+000599999V0209999C000010450019N0040001N1+02841+02311101481ADDAA124000091AY151061AY211061GF106991031051008001021001KA1240N+02191MA1999999101431MD1999999+0041MW1021REMSYN088AAXX  10124 83398 21596 60000 10284 20231 30143 40148 70251 83520 333 20219 58004 69924;EQDQ01  00002PRCP24
0137833980999992008021018004-15667-038950FM-12+000599999V0209999C000012200019N0040001N1+02941+02191101261ADDGF102991011011008001041001MA1999999101211MD1999999+0001REMSYN070AAXX  10184 83398 32596 20000 10294 20219 30121 40126 81140 333 58000;
0156833980999992008021112004-15667-038950FM-12+000599999V0200501N002110450019N0040001N1+02881+02181101481ADDGF106991031051008001041001KA1240N+02061MA1999999101431MD1999999+0001REMSYN076AAXX  11124 83398 32596 60504 10288 20218 30143 40148 83540 333 20206 58000;
0137833980999992008021118004-15667-038950FM-12+000599999V0203601N004112200019N0040001N1+02941+02191101291ADDGF103991021011008001041001MA1999999101241MD1999999+0031REMSYN070AAXX  11184 83398 32596 33608 10294 20219 30124 40129 82140 333 58003;
0168833980999992008021200004-15667-038950FM-12+000599999V0200501N002112200019N0010001N1+02641+02091101381ADDGF102991011011008001041001KA1240M+03051MA1999999101331MD1999999-0021REMSYN088AAXX  12004 83398 32594 20504 10264 20209 30133 40138 81140 333 10305 29068 55106 59002;
0201833980999992008021212004-15667-038950FM-12+000599999V0209999C000010450019N0040001N1+02691+02381101511ADDAA124003091AY161061AY221061GF106991031051008001021001KA1240N+02181MA1999999101461MD1999999+0031MW1021REMSYN088AAXX  12124 83398 21596 60000 10269 20238 30146 40151 70262 83520 333 20218 58003 60034;
0182833980999992008021218004-15667-038950FM-12+000599999V0200501N004110450019N0040001N1+02761+02301101311ADDAA106000591AY151061AY211061GF108991041051008001021001MA1999999101261MD1999999+0021MW1021REMSYN082AAXX  12184 83398 21596 80508 10276 20230 30126 40131 70251 84520 333 58002 69941;
0168833980999992008021300004-15667-038950FM-12+000599999V0200501N002110450019N0010001N1+02661+02371101371ADDGF106991031051008001021001KA1240M+03021MA1999999101321MD1999999-0011REMSYN088AAXX  13004 83398 32594 60504 10266 20237 30132 40137 83520 333 10302 29082 55063 59001;
0182833980999992008021318004-15667-038950FM-12+000599999V0200501N003112200019N0040001N1+02921+02341101351ADDAA106001091AY161061AY221061GF104991021011008001041001MA1999999101301MD1999999+0041MW1021REMSYN082AAXX  13184 83398 21596 40506 10292 20234 30130 40135 70262 82140 333 58004 60011;
0168833980999992008021400004-15667-038950FM-12+000599999V0200501N002612200019N0010001N1+02661+02331101401ADDGF104991021021008001041001KA1240M+03021MA1999999101351MD1999999+0031REMSYN088AAXX  14004 83398 32594 40505 10266 20233 30135 40140 82240 333 10302 29076 55112 58003;
0201833980999992008021412004-15667-038950FM-12+000599999V0209999C000010075019N0040001N1+02661+02371101551ADDAA124011991AY161061AY221061GF108991051051008001021999KA1240N+02231MA1999999101501MD1999999+0061MW1021REMSYN088AAXX  14124 83398 21596 80000 10266 20237 30150 40155 70262 8552/ 333 20223 58006 60124;
0137833980999992008021418004-15667-038950FM-12+000599999V0209999C000010075019N0040001N1+02761+02241101331ADDGF108991051051008001021999MA1999999101281MD1999999-0021REMSYN070AAXX  14184 83398 32596 80000 10276 20224 30128 40133 8552/ 333 59002;
0168833980999992008021500004-15667-038950FM-12+000599999V0209999C000010450019N0010001N1+02601+02251101391ADDGF105991031021008001041001KA1240M+03031MA1999999101341MD1999999-0011REMSYN088AAXX  15004 83398 32594 50000 10260 20225 30134 40139 83240 333 10303 29081 55041 59001;
0182833980999992008021518004-15667-038950FM-12+000599999V0200501N002610450019N0040001N1+02861+02351101241ADDAA106007991AY161061AY221061GF106991031051008001041001MA1999999101191MD1999999-0091MW1021REMSYN082AAXX  15184 83398 21596 60505 10286 20235 30119 40124 70262 83540 333 59009 60081;
0213833980999992008021600004-15667-038950FM-12+000599999V0209999C000010450019N0010001N1+02341+02271101351ADDAA106003091AY161061AY221061GF106991031051008001041001KA1240M+02961MA1999999101301MD1999999-0041MW1021REMSYN100AAXX  16004 83398 21594 60000 10234 20227 30130 40135 70262 83540 333 10296 29089 55080 59004 60031;
0201833980999992008021612004-15667-038950FM-12+000599999V0209999C000010450019N0040001N1+02711+02441101421ADDAA124015091AY161061AY221061GF105991021051008001041001KA1240N+02181MA1999999101371MD1999999-0071MW1021REMSYN088AAXX  16124 83398 21596 50000 10271 20244 30137 40142 70262 82540 333 20218 59007 60154;
0137833980999992008021618004-15667-038950FM-12+000599999V0200901N005110450019N0040001N1+02911+02321101241ADDGF107991041051008001021001MA1999999101191MD1999999+0001REMSYN070AAXX  16184 83398 32596 70910 10291 20232 30119 40124 84520 333 58000;
0168833980999992008021700004-15667-038950FM-12+000599999V0209999C000012200019N0010001N1+02281+02181101381ADDGF103991021021008001041001KA1240M+03001MA1999999101331MD1999999+0031REMSYN088AAXX  17004 83398 32594 30000 10228 20218 30133 40138 82240 333 10300 29086 55102 58003;
0201833980999992008021712004-15667-038950FM-12+000599999V0209999C000010450019N0040001N1+02581+02381101551ADDAA124001091AY161061AY221061GF106991031051008001041001KA1240N+02071MA1999999101501MD1999999+0131MW1021REMSYN088AAXX  17124 83398 21596 60000 10258 20238 30150 40155 70262 83540 333 20207 58013 60014;
0137833980999992008021718004-15667-038950FM-12+000599999V0200501N004110450019N0040001N1+02921+02321101351ADDGF106991031051008001041001MA1999999101281MD1999999+0091REMSYN070AAXX  17184 83398 32596 60508 10292 20232 30128 40135 83540 333 58009;
0168833980999992008021800004-15667-038950FM-12+000599999V0200501N005110450019N0010001N1+02621+02351101571ADDGF105991031051008001041001KA1240M+03001MA1999999101521MD1999999+0191REMSYN088AAXX  18004 83398 32594 50510 10262 20235 30152 40157 83540 333 10300 29082 55081 58019;
0201833980999992008021812004-15667-038950FM-12+000599999V0209999C000010075019N0040001N1+02621+02481101611ADDAA124004191AY161061AY221061GF108991051051008001021999KA1240N+02251MA1999999101551MD1999999+0051MW1021REMSYN088AAXX  18124 83398 21596 80000 10262 20248 30155 40161 70262 8552/ 333 20225 58005 60044;
0182833980999992008021818004-15667-038950FM-12+000599999V0200501N003110450019N0040001N1+02861+02331101431ADDAA106000591AY151061AY211061GF105991021051008001041001MA1999999101381MD1999999+0101MW1021REMSYN082AAXX  18184 83398 21596 50506 10286 20233 30138 40143 70251 82540 333 58010 69951;
0168833980999992008021900004-15667-038950FM-12+000599999V0200501N002610450019N0010001N1+02661+02351101521ADDGF106991031051008001021001KA1240M+02961MA1999999101471MD1999999-0051REMSYN088AAXX  19004 83398 32594 60505 10266 20235 30147 40152 83520 333 10296 29083 55069 59005;
0173833980999992008021912004-15667-038950FM-12+000599999V0209999C000010450019N0040001N1+02761+02541101641ADDAA124000591GF107991041051008001021001KA1240N+02291MA1999999101581MD1999999+0031REMSYN082AAXX  19124 83398 22596 70000 10276 20254 30158 40164 84520 333 20229 58003 69954;
0137833980999992008021918004-15667-038950FM-12+000599999V0200501N005110075019N0040001N1+02861+02331101391ADDGF108991051051008001021999MA1999999101341MD1999999-0041REMSYN070AAXX  19184 83398 32596 80510 10286 20233 30134 40139 8552/ 333 59004;
0168833980999992008022000004-15667-038950FM-12+000599999V0209999C000010450019N0010001N1+02681+02371101451ADDGF107991041051008001021001KA1240M+03061MA1999999101401MD1999999-0071REMSYN088AAXX  20004 83398 32594 70000 10268 20237 30140 40145 84520 333 10306 29082 55065 59007;
0156833980999992008022012004-15667-038950FM-12+000599999V0203601N002112200019N0040001N1+02881+02301101461ADDGF104991021021008001041001KA1240N+02161MA1999999101411MD1999999-0171REMSYN076AAXX  20124 83398 32596 43604 10288 20230 30141 40146 82240 333 20216 59017;
0137833980999992008022018004-15667-038950FM-12+000599999V0203601N005712200019N0040001N1+02901+02201101181ADDGF104991021011008001041001MA1999999101131MD1999999-0211REMSYN070AAXX  20184 83398 32596 43611 10290 20220 30113 40118 82140 333 59021;
0168833980999992008022100004-15667-038950FM-12+000599999V0203601N005110450019N0010001N1+02661+02291101261ADDGF106991021021008001041011KA1240M+03031MA1999999101211MD1999999-0191REMSYN088AAXX  21004 83398 32594 63610 10266 20229 30121 40126 82241 333 10303 29074 55087 59019;
0156833980999992008022212004-15667-038950FM-12+000599999V0203201N006712200019N0040001N1+02961+02381101531ADDGF104991021011008001041001KA1240N+02161MA1999999101481MD1999999+0121REMSYN076AAXX  22124 83398 32596 43213 10296 20238 30148 40153 82140 333 20216 58012;
0137833980999992008022218004-15667-038950FM-12+000599999V0203201N005112200019N0040001N1+02921+02391101281ADDGF104991021011008001041001MA1999999101231MD1999999+0121REMSYN070AAXX  22184 83398 32596 43210 10292 20239 30123 40128 82140 333 58012;
0168833980999992008022300004-15667-038950FM-12+000599999V0203601N002112200019N0010001N1+02641+02331101441ADDGF104991021021008001041001KA1240M+03061MA1999999101391MD1999999+0011REMSYN088AAXX  23004 83398 32594 43604 10264 20233 30139 40144 82240 333 10306 29077 55102 58001;
0156833980999992008022312004-15667-038950FM-12+000599999V0203601N009310450019N0040001N1+02921+02361101591ADDGF105991021021008001041001KA1240N+02181MA1999999101541MD1999999+0061REMSYN076AAXX  23124 83398 32596 53618 10292 20236 30154 40159 82240 333 20218 58006;
0137833980999992008022318004-15667-038950FM-12+000599999V0203601N007212200019N0040001N1+03001+02391101271ADDGF102991011011008001041001MA1999999101221MD1999999-0011REMSYN070AAXX  23184 83398 32596 23614 10300 20239 30122 40127 81140 333 59001;
0168833980999992008022400004-15667-038950FM-12+000599999V0203601N003110450019N0010001N1+02631+02421101351ADDGF105991021021008001041001KA1240M+03101MA1999999101301MD1999999-0091REMSYN088AAXX  24004 83398 32594 53606 10263 20242 30130 40135 82240 333 10310 29079 55104 59009;
0156833980999992008022412004-15667-038950FM-12+000599999V0203201N005110450019N0040001N1+02821+02331101461ADDGF107991031051008001021001KA1240N+02261MA1999999101411MD1999999-0131REMSYN076AAXX  24124 83398 32596 73210 10282 20233 30141 40146 83520 333 20226 59013;
0168833980999992008022500004-15667-038950FM-12+000599999V0203601N005110450019N0010001N1+02661+02431101181ADDGF105991021011008001021001KA1240M+03161MA1999999101131MD1999999-0171REMSYN088AAXX  25004 83398 32594 53610 10266 20243 30113 40118 82120 333 10316 29079 55087 59017;
0156833980999992008022512004-15667-038950FM-12+000599999V0203201N009310450019N0040001N1+02921+02431101251ADDGF107991041051008001021001KA1240N+02401MA1999999101201MD1999999-0211REMSYN076AAXX  25124 83398 32596 73218 10292 20243 30120 40125 84520 333 20240 59021;
0137833980999992008022518004-15667-038950FM-12+000599999V0203201N009312200019N0040001N1+02961+02381100951ADDGF103991021011008001041001MA1999999100901MD1999999-0021REMSYN070AAXX  25184 83398 32596 33218 10296 20238 30090 40095 82140 333 59002;
0156833980999992008022612004-15667-038950FM-12+000599999V0203201N006210075019N0040001N1+02741+02431101071ADDGF108991051051008001021999KA1240N+02431MA1999999101021MD1999999-0181REMSYN076AAXX  26124 83398 32596 83212 10274 20243 30102 40107 8552/ 333 20243 59018;
0137833980999992008022618004-15667-038950FM-12+000599999V0209999C000010075019N0040001N1+02841+02461100791ADDGF108991051051008001021999MA1999999100741MD1999999-0161REMSYN070AAXX  26184 83398 32596 80000 10284 20246 30074 40079 8552/ 333 59016;
0213833980999992008022700004-15667-038950FM-12+000599999V0209999C000010075019N0010001N1+02601+02501100961ADDAA106000891AY151061AY221061GF108991051051008001021999KA1240M+02941MA1999999100911MD1999999-0091MW1521REMSYN100AAXX  27004 83398 21594 80000 10260 20250 30091 40096 75252 8552/ 333 10294 29088 55000 59009 69981;
0201833980999992008022712004-15667-038950FM-12+000599999V0201801N003110450019N0040001N1+02661+02331100961ADDAA124007991AY161061AY221061GF106991031051008001041001KA1240N+02221MA1999999100911MD1999999-0111MW1021REMSYN088AAXX  27124 83398 21596 61806 10266 20233 30091 40096 70262 83540 333 20222 59011 60084;
0182833980999992008022718004-15667-038950FM-12+000599999V0209999C000010075019N0040001N1+02481+02461100841ADDAA106022191AY161061AY221061GF108991051051008001021999MA1999999100791MD1999999-0051MW1021REMSYN082AAXX  27184 83398 21596 80000 10248 20246 30079 40084 70262 8552/ 333 59005 60221;
0213833980999992008022800004-15667-038950FM-12+000599999V0209999C000010075019N0010001N1+02481+02411101041ADDAA106002091AY161061AY221061GF108991051051008001021999KA1240M+02931MA1999999100991MD1999999+0081MW1021REMSYN100AAXX  28004 83398 21594 80000 10248 20241 30099 40104 70262 8552/ 333 10293 29093 55043 58008 60021;
0201833980999992008022812004-15667-038950FM-12+000599999V0201401N003110450019N0040001N1+02601+02511101101ADDAA124031091AY161061AY221061GF107991031051008001021001KA1240N+02231MA1999999101051MD1999999+0141MW1021REMSYN088AAXX  28124 83398 21596 71406 10260 20251 30105 40110 70262 83520 333 20223 58014 60314;
0182833980999992008022818004-15667-038950FM-12+000599999V0201401N002610450019N0040001N1+02681+02411100871ADDAA106001091AY161061AY221061GF106991031051008001021001MA1999999100821MD1999999+0031MW1021REMSYN082AAXX  28184 83398 21596 61405 10268 20241 30082 40087 70262 83520 333 58003 60011;
0168833980999992008022900004-15667-038950FM-12+000599999V0209999C000010450019N0010001N1+02441+02351101131ADDGF105991021051008001041001KA1240M+03011MA1999999101081MD1999999+0091REMSYN088AAXX  29004 83398 32594 50000 10244 20235 30108 40113 82540 333 10301 29090 55050 58009;
0173833980999992008022912004-15667-038950FM-12+000599999V0209999C000010450019N0040001N1+02661+02391101221ADDAA124001091GF106991031051008001041001KA1240N+02141MA1999999101171MD1999999+0121REMSYN082AAXX  29124 83398 22596 60000 10266 20239 30117 40122 83540 333 20214 58012 60014;
0137833980999992008022918004-15667-038950FM-12+000599999V0201401N003110450019N0040001N1+02841+02381100811ADDGF106991031051008001041001MA1999999100761MD1999999-0061REMSYN070AAXX  29184 83398 32596 61406 10284 20238 30076 40081 83540 333 59006;
0168833980999992008030100004-15667-038950FM-12+000599999V0209999C000010450019N0010001N1+02611+02411101061ADDGF107991041051008001021001KA1240M+03061MA1999999101011MD1999999-0071REMSYN088AAXX  01004 83398 32594 70000 10261 20241 30101 40106 84520 333 10306 29085 55086 59007;
0156833980999992008030112004-15667-038950FM-12+000599999V0209999C000010450019N0040001N1+02921+02341101071ADDGF106991031021008001041001KA1240N+02311MA1999999101021MD1999999-0101REMSYN076AAXX  01124 83398 32596 60000 10292 20234 30102 40107 83240 333 20231 59010;
0137833980999992008030118004-15667-038950FM-12+000599999V0203201N010810075019N0040001N1+02901+02321100751ADDGF108991051051008001021999MA1999999100701MD1999999-0061REMSYN070AAXX  01184 83398 32596 83221 10290 20232 30070 40075 8552/ 333 59006;
0168833980999992008030200004-15667-038950FM-12+000599999V0203601N009810075019N0010001N1+02701+02501101021ADDGF108991051051008001021999KA1240M+03101MA1999999100971MD1999999-0041REMSYN088AAXX  02004 83398 32594 83619 10270 20250 30097 40102 8552/ 333 10310 29080 55058 59004;
0201833980999992008030212004-15667-038950FM-12+000599999V0209999C000010075019N0040001N1+02421+02331101241ADDAA124038191AY161061AY221061GF108991051051008001021999KA1240N+02321MA1999999101191MD1999999+0171MW1021REMSYN088AAXX  02124 83398 21596 80000 10242 20233 30119 40124 70262 8552/ 333 20232 58017 60384;
0137833980999992008030218004-15667-038950FM-12+000599999V0203601N004610450019N0040001N1+02941+02331100831ADDGF105991021021008001041001MA1999999100781MD1999999+0081REMSYN070AAXX  02184 83398 32596 53609 10294 20233 30078 40083 82240 333 58008;
0168833980999992008030300004-15667-038950FM-12+000599999V0209999C000010450019N0010001N1+02601+02481101211ADDGF105991021021008001041001KA1240M+03091MA1999999101161MD1999999+0191REMSYN088AAXX  03004 83398 32594 50000 10260 20248 30116 40121 82240 333 10309 29088 55074 58019;
0156833980999992008030312004-15667-038950FM-12+000599999V0203201N003110450019N0040001N1+02871+02491101221ADDGF105991021021008001041001KA1240N+02391MA1999999101171MD1999999-0021REMSYN076AAXX  03124 83398 32596 53206 10287 20249 30117 40122 82240 333 20239 59002;
0137833980999992008030318004-15667-038950FM-12+000599999V0203601N011312200019N0040001N1+02981+02471100911ADDGF104991021011008001041001MA1999999100861MD1999999+0081REMSYN070AAXX  03184 83398 32596 43622 10298 20247 30086 40091 82140 333 58008;
0168833980999992008030400004-15667-038950FM-12+000599999V0209999C000010450019N0010001N1+02461+02281101281ADDGF107991031051008001021001KA1240M+03101MA1999999101231MD1999999+0071REMSYN088AAXX  04004 83398 32594 70000 10246 20228 30123 40128 83520 333 10310 29083 55095 58007;
0156833980999992008030412004-15667-038950FM-12+000599999V0203201N005712200019N0040001N1+02961+02281101251ADDGF103991021011008001041001KA1240N+02321MA1999999101201MD1999999+0031REMSYN076AAXX  04124 83398 32596 33211 10296 20228 30120 40125 82140 333 20232 58003;
0137833980999992008030418004-15667-038950FM-12+000599999V0203601N007212200019N0040001N1+02921+02501100901ADDGF102991011011008001041001MA1999999100851MD1999999+0011REMSYN070AAXX  04184 83398 32596 23614 10292 20250 30085 40090 81140 333 58001;
0168833980999992008030500004-15667-038950FM-12+000599999V0203601N004112200019N0010001N1+02621+02531101131ADDGF102991011011008001041001KA1240M+03151MA1999999101081MD1999999-0151REMSYN088AAXX  05004 83398 32594 23608 10262 20253 30108 40113 81140 333 10315 29084 55096 59015;
0137833980999992008030518004-15667-038950FM-12+000599999V0203601N009812200019N0040001N1+02901+02431100741ADDGF103991021011008001041001MA1999999100691MD1999999-0161REMSYN070AAXX  05184 83398 32596 33619 10290 20243 30069 40074 82140 333 59016;
0168833980999992008030600004-15667-038950FM-12+000599999V0209999C000010450019N0010001N1+02611+02491101021ADDGF106991031051008001021001KA1240M+03061MA1999999100971MD1999999-0111REMSYN088AAXX  06004 83398 32594 60000 10261 20249 30097 40102 83520 333 10306 29083 55097 59011;
0156833980999992008030612004-15667-038950FM-12+000599999V0203601N004112200019N0040001N1+02961+02311101141ADDGF104991021011008001041001KA1240N+02411MA1999999101091MD1999999-0011REMSYN076AAXX  06124 83398 32596 43608 10296 20231 30109 40114 82140 333 20241 59001;
0137833980999992008030618004-15667-038950FM-12+000599999V0203601N004112200019N0040001N1+02921+02431100861ADDGF102991011011008001041001MA1999999100811MD1999999+0121REMSYN070AAXX  06184 83398 32596 23608 10292 20243 30081 40086 81140 333 58012;
0168833980999992008030700004-15667-038950FM-12+000599999V0209999C000012200019N0010001N1+02661+02481101131ADDGF103991011011008001041001KA1240M+03101MA1999999101081MD1999999+0111REMSYN088AAXX  07004 83398 32594 30000 10266 20248 30108 40113 81140 333 10310 29081 55080 58011;
0156833980999992008030712004-15667-038950FM-12+000599999V0203601N002112200019N0200001N1+02961+02471101291ADDGF104991021021008001041001KA1240N+02331MA1999999101241MD1999999+0151REMSYN076AAXX  07124 83398 32598 43604 10296 20247 30124 40129 82240 333 20233 58015;
0137833980999992008030718004-15667-038950FM-12+000599999V0200501N003112200019N0040001N1+02981+02491101121ADDGF103991011011008001041001MA1999999101071MD1999999+0261REMSYN070AAXX  07184 83398 32596 30506 10298 20249 30107 40112 81140 333 58026;
0168833980999992008030800004-15667-038950FM-12+000599999V0200501N002112200019N0010001N1+02741+02451101361ADDGF104991021051008001041001KA1240M+03111MA1999999101311MD1999999+0231REMSYN088AAXX  08004 83398 32594 40504 10274 20245 30131 40136 82540 333 10311 29079 55085 58023;
0201833980999992008030812004-15667-038950FM-12+000599999V0209999C000010075019N0040001N1+02401+02401101581ADDAA124032091AY161061AY221061GF108991051051008001021999KA1240N+02251MA1999999101531MD1999999+0291MW1021REMSYN088AAXX  08124 83398 21596 80000 10240 20240 30153 40158 70262 8552/ 333 20225 58029 60324;
0137833980999992008030818004-15667-038950FM-12+000599999V0200501N002112200019N0040001N1+02901+02321101291ADDGF104991021051008001041001MA1999999101241MD1999999+0171REMSYN070AAXX  08184 83398 32596 40504 10290 20232 30124 40129 82540 333 58017;
0168833980999992008030900004-15667-038950FM-12+000599999V0209999C000012200019N0010001N1+02501+02401101491ADDGF103991021021008001041001KA1240M+02961MA1999999101441MD1999999+0131REMSYN088AAXX  09004 83398 32594 30000 10250 20240 30144 40149 82240 333 10296 29090 55043 58013;
0156833980999992008030912004-15667-038950FM-12+000599999V0209999C000010450019N0040001N1+02671+02421101571ADDGF105991031051008001041001KA1240N+02201MA1999999101521MD1999999-0011REMSYN076AAXX  09124 83398 32596 50000 10267 20242 30152 40157 83540 333 20220 59001;
0137833980999992008030918004-15667-038950FM-12+000599999V0200501N004112200019N0040001N1+02881+02281101241ADDGF102991011011008001041001MA1999999101191MD1999999-0051REMSYN070AAXX  09184 83398 32596 20508 10288 20228 30119 40124 81140 333 59005;
0168833980999992008031000004-15667-038950FM-12+000599999V0209999C000012200019N0010001N1+02561+02231101381ADDGF102991011011008001041001KA1240M+03041MA1999999101331MD1999999-0111REMSYN088AAXX  10004 83398 32594 20000 10256 20223 30133 40138 81140 333 10304 29080 55097 59011;
0156833980999992008031012004-15667-038950FM-12+000599999V0202301N002110450019N0040001N1+02781+02421101441ADDGF106991041021008001041011KA1240N+02041MA1999999101391MD1999999-0131REMSYN076AAXX  10124 83398 32596 62304 10278 20242 30139 40144 84241 333 20204 59013;
0137833980999992008031118004-15667-038950FM-12+000599999V0200501N003112200019N0001001N1+02961+02381101181ADDGF103991031021008001001001MA1999999101131MD1999999-0071REMSYN070AAXX  11184 83398 32591 30506 10296 20238 30113 40118 83200 333 59007;
0168833980999992008031200004-15667-038950FM-12+000599999V0209999C000012200019N0010001N1+02721+02411101351ADDGF103991031011008001001001KA1240M+03041MA1999999101301MD1999999-0021REMSYN088AAXX  12004 83398 32594 30000 10272 20241 30130 40135 83100 333 10304 29080 55092 59002;
0156833980999992008031212004-15667-038950FM-12+000599999V0200501N002112200019N0040001N1+02921+02321101481ADDGF104991041051008001001001KA1240N+02221MA1999999101431MD1999999+0051REMSYN076AAXX  12124 83398 32596 40504 10292 20232 30143 40148 84500 333 20222 58005;
0137833980999992008031218004-15667-038950FM-12+000599999V0200901N002110450019N0040001N1+03061+02351101291ADDGF105991041021008001041001MA1999999101241MD1999999+0111REMSYN070AAXX  12184 83398 32596 50904 10306 20235 30124 40129 84240 333 58011;
0168833980999992008031300004-15667-038950FM-12+000599999V0200501N002112200019N0010001N1+02761+02381101401ADDGF102991021011008001001001KA1240M+03081MA1999999101351MD1999999+0051REMSYN088AAXX  13004 83398 32594 20504 10276 20238 30135 40140 82100 333 10308 29074 55100 58005;
0175833980999992008031312004-15667-038950FM-12+000599999V0201401N001019999999N0040001N1+02861+02501101461ADDGF105991999051008001001001KA1240N+02261MA1999999101411MD1999999-0021REMSYN076AAXX  13124 83398 32596 51402 10286 20250 30141 40146 84500 333 20226 59002;EQDQ01+000042SCOTLC
0137833980999992008031318004-15667-038950FM-12+000599999V0200501N003110450019N0040001N1+03001+02371101031ADDGF105991031021008001041001MA1999999100981MD1999999-0261REMSYN070AAXX  13184 83398 32596 50506 10300 20237 30098 40103 83240 333 59026;
0168833980999992008031400004-15667-038950FM-12+000599999V0209999C000012200019N0010001N1+02741+02381101181ADDGF101991011011008001001001KA1240M+03081MA1999999101131MD1999999-0221REMSYN088AAXX  14004 83398 32594 10000 10274 20238 30113 40118 81100 333 10308 29078 55093 59022;
0156833980999992008031412004-15667-038950FM-12+000599999V0203201N001012200019N0040001N1+02841+02401101221ADDGF104991041051008001001001KA1240N+02241MA1999999101171MD1999999-0241REMSYN076AAXX  14124 83398 32596 43202 10284 20240 30117 40122 84500 333 20224 59024;
0137833980999992008031418004-15667-038950FM-12+000599999V0200501N003110450019N0040001N1+02981+02471100911ADDGF105991031021008001041001MA1999999100861MD1999999-0121REMSYN070AAXX  14184 83398 32596 50506 10298 20247 30086 40091 83240 333 59012;
0168833980999992008031500004-15667-038950FM-12+000599999V0209999C000012200019N0010001N1+02721+02411101141ADDGF103991031011008001001001KA1240M+03121MA1999999101091MD1999999-0041REMSYN088AAXX  15004 83398 32594 30000 10272 20241 30109 40114 83100 333 10312 29079 55096 59004;
0156833980999992008031512004-15667-038950FM-12+000599999V0209999C000012200019N0040001N1+02801+02421101381ADDGF104991041051008001001001KA1240N+02381MA1999999101331MD1999999-0161REMSYN076AAXX  15124 83398 32596 40000 10280 20242 30133 40138 84500 333 20238 59016;
0137833980999992008031518004-15667-038950FM-12+000599999V0200501N003110450019N0040001N1+03021+02411101151ADDGF106991031021008001041011MA1999999101101MD1999999+0241REMSYN070AAXX  15184 83398 32596 60506 10302 20241 30110 40115 83241 333 58024;
0168833980999992008031600004-15667-038950FM-12+000599999V0209999C000012200019N0010001N1+02701+02481101451ADDGF104991011011008001041001KA1240M+03121MA1999999101401MD1999999+0311REMSYN088AAXX  16004 83398 32594 40000 10270 20248 30140 40145 81140 333 10312 29082 55094 58031;
0201833980999992008031612004-15667-038950FM-12+000599999V0209999C000010450019N0040001N1+02661+02541101701ADDAA124040991AY161061AY221061GF108991041071008001021999KA1240N+02321MA1999999101641MD1999999+0311MW1521REMSYN088AAXX  16124 83398 21596 80000 10266 20254 30164 40170 75262 8472/ 333 20232 58031 60414;
0182833980999992008031618004-15667-038950FM-12+000599999V0200501N003110450019N0040001N1+03041+02481101641ADDAA106006191AY161061AY221061GF106991041051008001021001MA1999999101391MD1999999+0291MW1021REMSYN082AAXX  16184 83398 21596 60506 10304 20248 30139 40164 70262 84520 333 58029 60061;
0213833980999992008031700004-15667-038950FM-12+000599999V0209999C000010450019N0010001N1+02741+02561101631ADDAA106003091AY161061AY221061GF108991041071008001021999KA1240M+03061MA1999999101571MD1999999+0171MW1521REMSYN100AAXX  17004 83398 21594 80000 10274 20256 30157 40163 75262 8472/ 333 10306 29086 55075 58017 60031;
0201833980999992008031712004-15667-038950FM-12+000599999V0200501N002110450019N0040001N1+02901+02271101591ADDAA124017091AY161061AY221061GF106991041051008001041001KA1240N+02281MA1999999101541MD1999999-0101MW1021REMSYN088AAXX  17124 83398 21596 60504 10290 20227 30154 40159 70262 84540 333 20228 59010 60174;
0137833980999992008031718004-15667-038950FM-12+000599999V0200501N003110450019N0040001N1+02961+02351101351ADDGF106991031051008001041011MA1999999101301MD1999999-0091REMSYN070AAXX  17184 83398 32596 60506 10296 20235 30130 40135 83541 333 59009;
0213833980999992008031800004-15667-038950FM-12+000599999V0209999C000010075019N0010001N1+02381+02261101521ADDAA106002091AY161061AY221061GF105991051051008001001001KA1240M+03061MA1999999101471MD1999999-0101MW1021REMSYN100AAXX  18004 83398 21594 50000 10238 20226 30147 40152 70262 85500 333 10306 29081 55089 59010 60021;
0201833980999992008031812004-15667-038950FM-12+000599999V0201801N002110450019N0040001N1+02581+02401101671ADDAA124007191AY161061AY221061GF107991041051008001021001KA1240N+02141MA1999999101611MD1999999+0071MW1021REMSYN088AAXX  18124 83398 21596 71804 10258 20240 30161 40167 70262 84520 333 20214 58007 60074;
0137833980999992008031818004-15667-038950FM-12+000599999V0201801N002110450019N0040001N1+02841+02241101391ADDGF107991041051008001041001MA1999999101341MD1999999+0041REMSYN070AAXX  18184 83398 32596 71804 10284 20224 30134 40139 84540 333 58004;
0168833980999992008031900004-15667-038950FM-12+000599999V0209999C000010450019N0010001N1+02421+02301101521ADDGF105991021021008001041001KA1240M+03051MA1999999101471MD1999999+0001REMSYN088AAXX  19004 83398 32594 50000 10242 20230 30147 40152 82240 333 10305 29086 55069 58000;
0201833980999992008031912004-15667-038950FM-12+000599999V0201801N002110075019N0040001N1+02561+02371101561ADDAA124005191AY161061AY221061GF107991051051008001021001KA1240N+02201MA1999999101511MD1999999+0101MW1021REMSYN088AAXX  19124 83398 21596 71804 10256 20237 30151 40156 70262 85520 333 20220 58010 60054;
0182833980999992008031918004-15667-038950FM-12+000599999V0201401N002110450019N0040001N1+02841+02401101331ADDAA106001091AY161061AY221061GF106991041051008001021001MA1999999101281MD1999999-0061MW1021REMSYN082AAXX  19184 83398 21596 61404 10284 20240 30128 40133 70262 84520 333 59006 60011;
0213833980999992008032000004-15667-038950FM-12+000599999V0209999C000010450019N0010001N1+02381+02261101571ADDAA106003091AY161061AY221061GF105991031051008001021001KA1240M+02921MA1999999101521MD1999999+0051MW1021REMSYN100AAXX  20004 83398 21594 50000 10238 20226 30152 40157 70262 83520 333 10292 29088 55020 58005 60031;
0201833980999992008032012004-15667-038950FM-12+000599999V0209999C000010450019N0040001N1+02581+02371101661ADDAA124020191AY161061AY221061GF106991041051008001021001KA1240N+02201MA1999999101601MD1999999+0091MW1021REMSYN088AAXX  20124 83398 21596 60000 10258 20237 30160 40166 70262 84520 333 20220 58009 60204;
0182833980999992008032018004-15667-038950FM-12+000599999V0209999C000010450019N0040001N1+02681+02391101391ADDAA106002091AY161061AY221061GF106991031051008001021011MA1999999101341MD1999999+0061MW1021REMSYN082AAXX  20184 83398 21596 60000 10268 20239 30134 40139 70262 83521 333 58006 60021;
0168833980999992008032100004-15667-038950FM-12+000599999V0209999C000012200019N0010001N1+02521+02191101531ADDGF104991041051008001001001KA1240M+03001MA1999999101481MD1999999-0041REMSYN088AAXX  21004 83398 32594 40000 10252 20219 30148 40153 84500 333 10300 29084 55060 59004;
0201833980999992008032112004-15667-038950FM-12+000599999V0203601N001010450019N0040001N1+02481+02381101631ADDAA124017091AY161061AY221061GF108991041071008001021999KA1240N+02201MA1999999101571MD1999999-0031MW1601REMSYN088AAXX  21124 83398 21596 83602 10248 20238 30157 40163 76062 8472/ 333 20220 59003 60174;
0182833980999992008032118004-15667-038950FM-12+000599999V0200501N002110450019N0040001N1+02721+02471101281ADDAA106002091AY161061AY221061GF106991041051008001021011MA1999999101231MD1999999-0111MW1021REMSYN082AAXX  21184 83398 21596 60504 10272 20247 30123 40128 70262 84521 333 59011 60021;
0168833980999992008032200004-15667-038950FM-12+000599999V0209999C000010450019N0010001N1+02621+02271101461ADDGF105991031051008001041001KA1240M+02961MA1999999101411MD1999999-0071REMSYN088AAXX  22004 83398 32594 50000 10262 20227 30141 40146 83540 333 10296 29086 55033 59007;
0201833980999992008032212004-15667-038950FM-12+000599999V0209999C000010450019N0040001N1+02621+02441101451ADDAA124007991AY161061AY221061GF106991041051008001021001KA1240N+02221MA1999999101401MD1999999-0571MW1021REMSYN088AAXX  22124 83398 21596 60000 10262 20244 30140 40145 70262 84520 333 20222 59057 60084;
0137833980999992008032218004-15667-038950FM-12+000599999V0200501N003110450019N0040001N1+02961+02351101301ADDGF105991031021008001041001MA1999999101251MD1999999+0021REMSYN070AAXX  22184 83398 32596 50506 10296 20235 30125 40130 83240 333 58002;
0168833980999992008032300004-15667-038950FM-12+000599999V0209999C000012200019N0010001N1+02661+02291101361ADDGF103991021011008001041001KA1240M+03041MA1999999101311MD1999999-0101REMSYN088AAXX  23004 83398 32594 30000 10266 20229 30131 40136 82140 333 10304 29080 55076 59010;
0201833980999992008032312004-15667-038950FM-12+000599999V0209999C000010450019N0040001N1+02821+02461101461ADDAA124004191AY161061AY221061GF105991031051008001021001KA1240N+02181MA1999999101411MD1999999+0011MW1021REMSYN088AAXX  23124 83398 21596 50000 10282 20246 30141 40146 70262 83520 333 20218 58001 60044;
0137833980999992008032318004-15667-038950FM-12+000599999V0200501N002112200019N0040001N1+02881+02281101131ADDGF102991011011008001041001MA1999999101081MD1999999-0171REMSYN070AAXX  23184 83398 32596 20504 10288 20228 30108 40113 81140 333 59017;
0201833980999992008032412004-15667-038950FM-12+000599999V0209999C000010450019N0040001N1+02801+02481101541ADDAA124002091AY161061AY221061GF105991031051008001021001KA1240N+02061MA1999999101491MD1999999+0081MW1021REMSYN088AAXX  24124 83398 21596 50000 10280 20248 30149 40154 70262 83520 333 20206 58008 60024;
0137833980999992008032418004-15667-038950FM-12+000599999V0200501N003110450019N0040001N1+02801+02341101301ADDGF106991041051008001021001MA1999999101251MD1999999+0171REMSYN070AAXX  24184 83398 32596 60506 10280 20234 30125 40130 84520 333 58017;
0168833980999992008032500004-15667-038950FM-12+000599999V0209999C000012200019N0010001N1+02621+02441101521ADDGF103991021011008001041001KA1240M+03121MA1999999101471MD1999999+0141REMSYN088AAXX  25004 83398 32594 30000 10262 20244 30147 40152 82140 333 10312 29085 55031 58014;
0156833980999992008032512004-15667-038950FM-12+000599999V0209999C000010450019N0040001N1+02801+02481101561ADDGF106991041051008001021001KA1240N+02141MA1999999101511MD1999999+0021REMSYN076AAXX  25124 83398 32596 60000 10280 20248 30151 40156 84520 333 20214 58002;
0137833980999992008032518004-15667-038950FM-12+000599999V0200501N004110450019N0040001N1+02941+02471101261ADDGF106991031021008001041011MA1999999101211MD1999999-0041REMSYN070AAXX  25184 83398 32596 60508 10294 20247 30121 40126 83241 333 59004;
0156833980999992008032612004-15667-038950FM-12+000599999V0209999C000010450019N0040001N1+02881+02481101501ADDGF106991041051008001021001KA1240N+02101MA1999999101451MD1999999-0061REMSYN076AAXX  26124 83398 32596 60000 10288 20248 30145 40150 84520 333 20210 59006;
0137833980999992008032618004-15667-038950FM-12+000599999V0209999C000010075019N0040001N1+02801+02361101201ADDGF108991051051008001021999MA1999999101151MD1999999-0061REMSYN070AAXX  26184 83398 32596 80000 10280 20236 30115 40120 8552/ 333 59006;
0168833980999992008032700004-15667-038950FM-12+000599999V0209999C000010450019N0010001N1+02721+02261101371ADDGF106991041051008001021001KA1240M+03021MA1999999101321MD1999999-0101REMSYN088AAXX  27004 83398 32594 60000 10272 20226 30132 40137 84520 333 10302 29077 55042 59010;
0156833980999992008032712004-15667-038950FM-12+000599999V0209999C000010450019N0040001N1+02741+02451101311ADDGF106991041051008001021001KA1240N+02201MA1999999101261MD1999999-0191REMSYN076AAXX  27124 83398 32596 60000 10274 20245 30126 40131 84520 333 20220 59019;
0137833980999992008032718004-15667-038950FM-12+000599999V0200501N003110450019N0040001N1+02901+02301101001ADDGF105991031021008001041001MA1999999100951MD1999999-0201REMSYN070AAXX  27184 83398 32596 50506 10290 20230 30095 40100 83240 333 59020;
0168833980999992008032800004-15667-038950FM-12+000599999V0209999C000012200019N0010001N1+02701+02331101141ADDGF102991021011008001001001KA1240M+03061MA1999999101091MD1999999-0231REMSYN088AAXX  28004 83398 32594 20000 10270 20233 30109 40114 82100 333 10306 29079 55067 59023;
0156833980999992008032812004-15667-038950FM-12+000599999V0200501N002110450019N0040001N1+02861+02461101271ADDGF106991041051008001021001KA1240N+02141MA1999999101221MD1999999-0041REMSYN076AAXX  28124 83398 32596 60504 10286 20246 30122 40127 84520 333 20214 59004;
0137833980999992008032818004-15667-038950FM-12+000599999V0203601N003110450019N0040001N1+02801+02421101021ADDGF106991041051008001021001MA1999999100971MD1999999-0121REMSYN070AAXX  28184 83398 32596 63606 10280 20242 30097 40102 84520 333 59012;
0156833980999992008032912004-15667-038950FM-12+000599999V0202401N001010450019N0040001N1+02801+02421101231ADDGF106991041051008001021001KA1240N+02301MA1999999101181MD1999999-0041REMSYN076AAXX  29124 83398 32596 62402 10280 20242 30118 40123 84520 333 20230 59004;
0137833980999992008032918004-15667-038950FM-12+000599999V0200501N003110450019N0040001N1+02881+02411101911ADDGF106991041051008001021001MA1999999100861MD1999999-0111REMSYN070AAXX  29184 83398 32596 60506 10288 20241 30086 40191 84520 333 59011;
0187833980999992008033000004-15667-038950FM-12+000599999V0209999C000010075019N0010001N1+02621+02481101112ADDGF108991051051008001021999KA1240M+03001MA1999999101061MD1999999-0021REMSYN088AAXX  30004 83398 32594 80000 10262 20248 30106 40111 8552/ 333 10300 29085 55031 59002;EQDQ01+101113APOSLP
0156833980999992008033012004-15667-038950FM-12+000599999V0201401N002110450019N0040001N1+02861+02461101201ADDGF105991031051008001041001KA1240N+02361MA1999999101151MD1999999-0031REMSYN076AAXX  30124 83398 32596 51404 10286 20246 30115 40120 83540 333 20236 59003;
0195833980999992008033018004-15667-038950FM-12+000599999V0201401N002110450019N0040001N1+02801+02501101011ADDAA106001091AY161061AY221061GF106991041051008001021001MA1999999100961MD1999999+0101REMSYN082AAXX  30184 83398 21596 61404 10280 20250 30096 40101 77262 84520 333 58010 60011;EQDQ01+000722PRSWM1
0213833980999992008033100004-15667-038950FM-12+000599999V0209999C000010075019N0010001N1+02441+02391101221ADDAA106002091AY161061AY221061GF108991051051008001021999KA1240M+03121MA1999999101171MD1999999+0111MW1021REMSYN100AAXX  31004 83398 21594 80000 10244 20239 30117 40122 70262 8552/ 333 10312 29089 55063 58011 60021;
0201833980999992008033112004-15667-038950FM-12+000599999V0201401N003110450019N0040001N1+02501+02361101341ADDAA124015091AY161061AY221061GF106991041051008001021001KA1240N+02161MA1999999101291MD1999999+0141MW1021REMSYN088AAXX  31124 83398 21596 61406 10250 20236 30129 40134 70262 84520 333 20216 58014 60154;
0137833980999992008033118004-15667-038950FM-12+000599999V0201401N004110450019N0040001N1+02961+02331101011ADDGF106991041051008001021001MA1999999100961MD1999999+0001REMSYN070AAXX  31184 83398 32596 61408 10296 20233 30096 40101 84520 333 58000;
0168833980999992008040100004-15667-038950FM-12+000599999V0209999C000010075019N0010001N1+02361+02241101261ADDGF105991051051008001001001KA1240M+03061MA1999999101211MD1999999+0041REMSYN088AAXX  01004 83398 32594 50000 10236 20224 30121 40126 85500 333 10306 29087 55063 58004;
0156833980999992008040112004-15667-038950FM-12+000599999V0201801N003110450019N0040001N1+02581+02291101281ADDGF106991041051008001021001KA1240N+02161MA1999999101231MD1999999-0061REMSYN076AAXX  01124 83398 32596 61806 10258 20229 30123 40128 84520 333 20216 59006;
0137833980999992008040118004-15667-038950FM-12+000599999V0201801N004110450019N0040001N1+02821+02241101021ADDGF106991041051008001021001MA1999999100971MD1999999+0011REMSYN070AAXX  01184 83398 32596 61808 10282 20224 30097 40102 84520 333 58001;
0168833980999992008040200004-15667-038950FM-12+000599999V0201801N002110075019N0010001N1+02321+02201101251ADDGF105991051051008001001001KA1240M+02941MA1999999101201MD1999999+0011REMSYN088AAXX  02004 83398 32594 51804 10232 20220 30120 40125 85500 333 10294 29085 55047 58001;
0179833980999992008040212004-15667-038950FM-12+000599999V0201401N002110450019N0040001N1+02701+02411101291ADDAA124002091GF106991041051008001041001KA1240N+02101MA1999999101241MD1999999+0011REMSYN088AAXX  02124 83398 21596 61404 10270 20241 30124 40129 7//// 84540 333 20210 58001 60024;
0137833980999992008040218004-15667-038950FM-12+000599999V0201401N003110450019N0040001N1+02921+02321101001ADDGF106991031051008001041001MA1999999100951MD1999999-0021REMSYN070AAXX  02184 83398 32596 61406 10292 20232 30095 40100 83540 333 59002;
0168833980999992008040300004-15667-038950FM-12+000599999V0209999C000010450019N0010001N1+02461+02341101221ADDGF105991031051008001021001KA1240M+03101MA1999999101171MD1999999-0031REMSYN088AAXX  03004 83398 32594 50000 10246 20234 30117 40122 83520 333 10310 29085 55092 59003;
0156833980999992008040312004-15667-038950FM-12+000599999V0202301N001012200019N0040001N1+02681+02391101261ADDGF104991041051008001001001KA1240N+02101MA1999999101211MD1999999-0031REMSYN076AAXX  03124 83398 32596 42302 10268 20239 30121 40126 84500 333 20210 59003;
0137833980999992008040318004-15667-038950FM-12+000599999V0200501N003110450019N0040001N1+02901+02371100911ADDGF105991031021008001041001MA1999999100861MD1999999-0091REMSYN070AAXX  03184 83398 32596 50506 10290 20237 30086 40091 83240 333 59009;
0168833980999992008040400004-15667-038950FM-12+000599999V0209999C000012200019N0010001N1+02641+02331101201ADDGF103991031011008001001001KA1240M+03061MA1999999101151MD1999999-0021REMSYN088AAXX  04004 83398 32594 30000 10264 20233 30115 40120 83100 333 10306 29081 55088 59002;
0156833980999992008040412004-15667-038950FM-12+000599999V0209999C000010075019N0040001N1+02821+02461101211ADDGF105991051051008001001001KA1240N+02201MA1999999101161MD1999999-0051REMSYN076AAXX  04124 83398 32596 50000 10282 20246 30116 40121 85500 333 20220 59005;
0137833980999992008040418004-15667-038950FM-12+000599999V0203601N004110450019N0040001N1+02901+02411100911ADDGF106991041051008001041001MA1999999100861MD1999999+0001REMSYN070AAXX  04184 83398 32596 63608 10290 20241 30086 40091 84540 333 58000;
0168833980999992008040500004-15667-038950FM-12+000599999V0203601N002110450019N0010001N1+02681+02501101171ADDGF105991031051008001021001KA1240M+03121MA1999999101121MD1999999-0031REMSYN088AAXX  05004 83398 32594 53604 10268 20250 30112 40117 83520 333 10312 29084 55086 59003;
0173833980999992008040512004-15667-038950FM-12+000599999V0203601N003110450019N0040001N1+02901+02501101221ADDAA124004191GF106991031051008001021001KA1240N+02281MA1999999101171MD1999999+0011REMSYN082AAXX  05124 83398 22596 63606 10290 20250 30117 40122 83520 333 20228 58001 60044;
0137833980999992008040518004-15667-038950FM-12+000599999V0200501N003110450019N0040001N1+02961+02471100941ADDGF106991031021008001041011MA1999999100891MD1999999+0031REMSYN070AAXX  05184 83398 32596 60506 10296 20247 30089 40094 83241 333 58003;
0168833980999992008040600004-15667-038950FM-12+000599999V0200501N002112200019N0010001N1+02721+02521101231ADDGF103991031011008001001001KA1240M+03061MA1999999101181MD1999999+0061REMSYN088AAXX  06004 83398 32594 30504 10272 20252 30118 40123 83100 333 10306 29083 55089 58006;
0168833980999992008040700004-15667-038950FM-12+000599999V0200501N002112200019N0010001N1+02721+02471101331ADDGF103991031051008001001001KA1240M+03081MA1999999101281MD1999999+0101REMSYN088AAXX  07004 83398 32594 30504 10272 20247 30128 40133 83500 333 10308 29083 55050 58010;
0156833980999992008040712004-15667-038950FM-12+000599999V0202301N001010450019N0040001N1+02761+02541101441ADDGF106991041051008001021001KA1240N+02221MA1999999101391MD1999999+0101REMSYN076AAXX  07124 83398 32596 62302 10276 20254 30139 40144 84520 333 20222 58010;
0137833980999992008040718004-15667-038950FM-12+000599999V0203601N002110450019N0040001N1+02901+02411101141ADDGF106991041051008001021001MA1999999101091MD1999999+0041REMSYN070AAXX  07184 83398 32596 63604 10290 20241 30109 40114 84520 333 58004;
0168833980999992008040800004-15667-038950FM-12+000599999V0200501N002112200019N0010001N1+02721+02501101321ADDGF103991031011008001001001KA1240M+03081MA1999999101261MD1999999-0021REMSYN088AAXX  08004 83398 32594 30504 10272 20250 30126 40132 83100 333 10308 29085 55081 59002;
0201833980999992008040812004-15667-038950FM-12+000599999V0202301N001010450019N0040001N1+02761+02621101581ADDAA124003091AY161061AY221061GF106991041051008001021001KA1240N+02301MA1999999101531MD1999999+0141MW1021REMSYN088AAXX  08124 83398 21596 62302 10276 20262 30153 40158 70262 84520 333 20230 58014 60034;
0137833980999992008040818004-15667-038950FM-12+000599999V0203601N003110075019N0040001N1+02941+02471101301ADDGF105991051021008001001001MA1999999101251MD1999999+0161REMSYN070AAXX  08184 83398 32596 53606 10294 20247 30125 40130 85200 333 58016;
0168833980999992008040900004-15667-038950FM-12+000599999V0200501N002112200019N0010001N1+02701+02461101471ADDGF102991021011008001001001KA1240M+03071MA1999999101421MD1999999+0161REMSYN088AAXX  09004 83398 32594 20504 10270 20246 30142 40147 82100 333 10307 29086 55081 58016;
0201833980999992008040912004-15667-038950FM-12+000599999V0200501N002110450019N0040001N1+02881+02441101561ADDAA124007191AY161061AY221061GF105991031051008001021001KA1240N+02341MA1999999101511MD1999999-0021MW1021REMSYN088AAXX  09124 83398 21596 50504 10288 20244 30151 40156 70262 83520 333 20234 59002 60074;
0137833980999992008040918004-15667-038950FM-12+000599999V0200501N002110450019N0040001N1+02941+02311101281ADDGF105991031021008001041001MA1999999101231MD1999999-0021REMSYN070AAXX  09184 83398 32596 50504 10294 20231 30123 40128 83240 333 59002;
0168833980999992008041000004-15667-038950FM-12+000599999V0209999C000012200019N0010001N1+02681+02461101431ADDGF104991041051008001001001KA1240M+03041MA1999999101381MD1999999-0041REMSYN088AAXX  10004 83398 32594 40000 10268 20246 30138 40143 84500 333 10304 29081 55085 59004;
0156833980999992008041012004-15667-038950FM-12+000599999V0201401N002110450019N0040001N1+02801+02521101341ADDGF105991031051008001021001KA1240N+02141MA1999999101291MD1999999-0221REMSYN076AAXX  10124 83398 32596 51404 10280 20252 30129 40134 83520 333 20214 59022;
0137833980999992008041018004-15667-038950FM-12+000599999V0200901N003110450019N0040001N1+02981+02441101051ADDGF105991031021008001041001MA1999999101001MD1999999-0231REMSYN070AAXX  10184 83398 32596 50906 10298 20244 30100 40105 83240 333 59023;
0168833980999992008041100004-15667-038950FM-12+000599999V0200901N002112200019N0010001N1+02661+02431101131ADDGF104991041051008001001001KA1240M+03121MA1999999101081MD1999999-0301REMSYN088AAXX  11004 83398 32594 40904 10266 20243 30108 40113 84500 333 10312 29083 55087 59030;
0201833980999992008041112004-15667-038950FM-12+000599999V0202301N001010450019N0040001N1+02741+02541101181ADDAA124002091AY161061AY221061GF106991031051008001041011KA1240N+02161MA1999999101131MD1999999-0161MW1021REMSYN088AAXX  11124 83398 21596 62302 10274 20254 30113 40118 70262 83541 333 20216 59016 60024;
0137833980999992008041118004-15667-038950FM-12+000599999V0200501N003110450019N0040001N1+02921+02431100831ADDGF106991031021008001041011MA1999999100781MD1999999-0221REMSYN070AAXX  11184 83398 32596 60506 10292 20243 30078 40083 83241 333 59022;
0168833980999992008041200004-15667-038950FM-12+000599999V0200501N002112200019N0010001N1+02701+02411100971ADDGF102991021011008001001001KA1240M+03081MA1999999100921MD1999999-0161REMSYN088AAXX  12004 83398 32594 20504 10270 20241 30092 40097 82100 333 10308 29083 55078 59016;
0156833980999992008041212004-15667-038950FM-12+000599999V0209999C000010075019N0040001N1+02841+02441101101ADDGF105991051051008001001001KA1240N+02201MA1999999101051MD1999999-0081REMSYN076AAXX  12124 83398 32596 50000 10284 20244 30105 40110 85500 333 20220 59008;
0137833980999992008041218004-15667-038950FM-12+000599999V0200501N003111050019N0040001N1+03001+02321100891ADDGF105991021021008001041011MA1999999100781MD1999999+0001REMSYN070AAXX  12184 83398 32596 50506 10300 20232 30078 40089 82241 333 58000;
0168833980999992008041300004-15667-038950FM-12+000599999V0200501N002112200019N0010001N1+02681+02391101061ADDGF101991011011008001001001KA1240M+03181MA1999999101011MD1999999+0091REMSYN088AAXX  13004 83398 32594 10504 10268 20239 30101 40106 81100 333 10318 29079 55087 58009;
0156833980999992008041312004-15667-038950FM-12+000599999V0203201N001010075019N0040001N1+02841+02461101231ADDGF105991051051008001001001KA1240N+02221MA1999999101181MD1999999+0031REMSYN076AAXX  13124 83398 32596 53202 10284 20246 30118 40123 85500 333 20222 58003;
0137833980999992008041318004-15667-038950FM-12+000599999V0203601N002112200019N0040001N1+02961+02381100881ADDGF104991021011008001041001MA1999999100831MD1999999+0051REMSYN070AAXX  13184 83398 32596 43604 10296 20238 30083 40088 82140 333 58005;
0168833980999992008041400004-15667-038950FM-12+000599999V0209999C000012200019N0010001N1+02701+02501101171ADDGF101991011011008001001001KA1240M+03141MA1999999101121MD1999999+0111REMSYN088AAXX  14004 83398 32594 10000 10270 20250 30112 40117 81100 333 10314 29082 55083 58011;
0156833980999992008041412004-15667-038950FM-12+000599999V0203201N002110450019N0040001N1+02801+02521101311ADDGF106991041051008001021001KA1240N+02181MA1999999101261MD1999999+0081REMSYN076AAXX  14124 83398 32596 63204 10280 20252 30126 40131 84520 333 20218 58008;
0137833980999992008041418004-15667-038950FM-12+000599999V0200501N003110450019N0040001N1+02981+02401100891ADDGF106991031021008001041011MA1999999100841MD1999999+0011REMSYN070AAXX  14184 83398 32596 60506 10298 20240 30084 40089 83241 333 58001;
0187833980999992008041500004-15667-038950FM-12+000599999V0200501N002110450019N0010001N1+02701+02521101121ADDGF105991031051008001021001KA1240M+03141MA1999999101702MD1999999-0051REMSYN088AAXX  15004 83398 32594 50504 10270 20252 30170 40112 83520 333 10314 29084 55083 59005;EQDQ01+101703APOSP 
0156833980999992008041512004-15667-038950FM-12+000599999V0203201N001010450019N0040001N1+02901+02501101351ADDGF106991041051008001041001KA1240N+02161MA1999999101301MD1999999+0041REMSYN076AAXX  15124 83398 32596 63202 10290 20250 30130 40135 84540 333 20216 58004;
0137833980999992008041518004-15667-038950FM-12+000599999V0200501N003110450019N0040001N1+02941+02471101021ADDGF106991031021008001041011MA1999999100971MD1999999+0131REMSYN070AAXX  15184 83398 32596 60506 10294 20247 30097 40102 83241 333 58013;
0168833980999992008041600004-15667-038950FM-12+000599999V0209999C000012200019N0010001N1+02701+02451101311ADDGF102991021011008001001001KA1240M+03121MA1999999101261MD1999999+0191REMSYN088AAXX  16004 83398 32594 20000 10270 20245 30126 40131 82100 333 10312 29082 55083 58019;
0156833980999992008041612004-15667-038950FM-12+000599999V0200901N003110075019N0040001N1+02801+02541101581ADDGF106991051051008001021001KA1240N+02181MA1999999101531MD1999999+0231REMSYN076AAXX  16124 83398 32596 60906 10280 20254 30153 40158 85520 333 20218 58023;
0182833980999992008041618004-15667-038950FM-12+000599999V0200501N001010450019N0040001N1+02881+02411101421ADDAA106001091AY161061AY221061GF106991031051008001021011MA1999999101371MD1999999+0401MW1021REMSYN082AAXX  16184 83398 21596 60502 10288 20241 30137 40142 70262 83521 333 58040 60011;
0201833980999992008041712004-15667-038950FM-12+000599999V0209999C000010450019N0040001N1+02901+02371101721ADDAA124007191AY161061AY221061GF105991031051008001041001KA1240N+02331MA1999999101661MD1999999+0131MW1021REMSYN088AAXX  17124 83398 21596 50000 10290 20237 30166 40172 70262 83540 333 20233 58013 60074;
0182833980999992008041718004-15667-038950FM-12+000599999V0200901N002110450019N0040001N1+02741+02481101431ADDAA106002091AY161061AY221061GF106991041051008001021001MA1999999101381MD1999999+0011MW1021REMSYN082AAXX  17184 83398 21596 60904 10274 20248 30138 40143 70262 84520 333 58001 60021;
0168833980999992008041800004-15667-038950FM-12+000599999V0209999C000010450019N0010001N1+02441+02351101651ADDGF106991041051008001041001KA1240M+03061MA1999999101591MD1999999+0011REMSYN088AAXX  18004 83398 32594 60000 10244 20235 30159 40165 84540 333 10306 29087 55068 58001;
0201833980999992008041812004-15667-038950FM-12+000599999V0209999C000010450019N0040001N1+02801+02351101621ADDAA124003091AY161061AY221061GF105991031051008001021001KA1240N+02041MA1999999101561MD1999999-0101MW1021REMSYN088AAXX  18124 83398 21596 50000 10280 20235 30156 40162 70262 83520 333 20204 59010 60034;
0137833980999992008041818004-15667-038950FM-12+000599999V0200901N003110450019N0040001N1+02921+02411101221ADDGF105991041021008001011001MA1999999101171MD1999999-0211REMSYN070AAXX  18184 83398 32596 50906 10292 20241 30117 40122 84210 333 59021;
0168833980999992008041900004-15667-038950FM-12+000599999V0209999C000010450019N0010001N1+02461+02341101491ADDGF105991031021008001041001KA1240M+03071MA1999999101441MD1999999-0151REMSYN088AAXX  19004 83398 32594 50000 10246 20234 30144 40149 83240 333 10307 29086 55087 59015;
0156833980999992008041912004-15667-038950FM-12+000599999V0201401N002110075019N0040001N1+02741+02431101531ADDGF105991051021008001001001KA1240N+02101MA1999999101481MD1999999-0081REMSYN076AAXX  19124 83398 32596 51404 10274 20243 30148 40153 85200 333 20210 59008;
0137833980999992008041918004-15667-038950FM-12+000599999V0200901N003110450019N0040001N1+02921+02321101201ADDGF105991041021008001041001MA1999999101151MD1999999-0021REMSYN070AAXX  19184 83398 32596 50906 10292 20232 30115 40120 84240 333 59002;
0201833980999992008042012004-15667-038950FM-12+000599999V0201401N002110075019N0040001N1+02701+02451101561ADDAA124004191AY161061AY221061GF105991051051008001001001KA1240N+02061MA1999999101511MD1999999+0031MW1021REMSYN088AAXX  20124 83398 21596 51404 10270 20245 30151 40156 70262 85500 333 20206 58003 60044;
0168833980999992008042100004-15667-038950FM-12+000599999V0209999C000010450019N0010001N1+02401+02281101511ADDGF105991031051008001041001KA1240M+03001MA1999999101461MD1999999+0061REMSYN088AAXX  21004 83398 32594 50000 10240 20228 30146 40151 83540 333 10300 29086 55071 58006;
0201833980999992008042112004-15667-038950FM-12+000599999V0209999C000010450019N0040001N1+02781+02461101661ADDAA124002091AY161061AY221061GF105991041051008001041001KA1240N+02101MA1999999101611MD1999999+0101MW1021REMSYN088AAXX  21124 83398 21596 50000 10278 20246 30161 40166 70262 84540 333 20210 58010 60024;
0137833980999992008042118004-15667-038950FM-12+000599999V0200501N002112200019N0040001N1+02921+02141101301ADDGF104991041021008001001001MA1999999101251MD1999999+0071REMSYN070AAXX  21184 83398 32596 40504 10292 20214 30125 40130 84200 333 58007;
0168833980999992008042200004-15667-038950FM-12+000599999V0209999C000010450019N0010001N1+02601+02351101511ADDGF105991031051008001041001KA1240M+03041MA1999999101461MD1999999+0001REMSYN088AAXX  22004 83398 32594 50000 10260 20235 30146 40151 83540 333 10304 29080 55058 58000;
0201833980999992008042212004-15667-038950FM-12+000599999V0209999C000010450019N0040001N1+02621+02441101581ADDAA124002091AY161061AY221061GF106991041051008001021001KA1240N+02161MA1999999101531MD1999999-0081MW1021REMSYN088AAXX  22124 83398 21596 60000 10262 20244 30153 40158 70262 84520 333 20216 59008 60024;
0137833980999992008042218004-15667-038950FM-12+000599999V0200501N002110450019N0040001N1+02881+02281101211ADDGF106991031021008001041011MA1999999101161MD1999999-0091REMSYN070AAXX  22184 83398 32596 60504 10288 20228 30116 40121 83241 333 59009;
0168833980999992008042300004-15667-038950FM-12+000599999V0209999C000012200019N0010001N1+02401+02281101371ADDGF103991031011008001001001KA1240M+03041MA1999999101321MD1999999-0141REMSYN088AAXX  23004 83398 32594 30000 10240 20228 30132 40137 83100 333 10304 29087 55070 59014;
0156833980999992008042312004-15667-038950FM-12+000599999V0201801N002110450019N0040001N1+02681+02391101381ADDGF106991041021008001041001KA1240N+02101MA1999999101331MD1999999-0201REMSYN076AAXX  23124 83398 32596 61804 10268 20239 30133 40138 84240 333 20210 59020;
0137833980999992008042318004-15667-038950FM-12+000599999V0203601N004110450019N0040001N1+02801+02311100991ADDGF106991041021008001041001MA1999999100941MD1999999-0221REMSYN070AAXX  23184 83398 32596 63608 10280 20231 30094 40099 84240 333 59022;
0168833980999992008042400004-15667-038950FM-12+000599999V0200901N002110450019N0010001N1+02601+02431101121ADDGF106991041051008001021001KA1240M+03041MA1999999101071MD1999999-0251REMSYN088AAXX  24004 83398 32594 60904 10260 20243 30107 40112 84520 333 10304 29086 55064 59025;
0156833980999992008042412004-15667-038950FM-12+000599999V0203201N002110450019N0040001N1+03001+02461101231ADDGF106991031051008001021011KA1240N+02321MA1999999101181MD1999999-0151REMSYN076AAXX  24124 83398 32596 63204 10300 20246 30118 40123 83521 333 20232 59015;
0137833980999992008042418004-15667-038950FM-12+000599999V0203601N003110450019N0040001N1+02881+02501100861ADDGF106991041051008001021001MA1999999100811MD1999999-0131REMSYN070AAXX  24184 83398 32596 63606 10288 20250 30081 40086 84520 333 59013;
0168833980999992008042500004-15667-038950FM-12+000599999V0209999C000010450019N0010001N1+02641+02541101161ADDGF106991041051008001021001KA1240M+03141MA1999999101111MD1999999+0041REMSYN088AAXX  25004 83398 32594 60000 10264 20254 30111 40116 84520 333 10314 29085 55071 58004;
0156833980999992008042512004-15667-038950FM-12+000599999V0209999C000010450019N0040001N1+02861+02501101261ADDGF105991031051008001041001KA1240N+02401MA1999999101211MD1999999+0031REMSYN076AAXX  25124 83398 32596 50000 10286 20250 30121 40126 83540 333 20240 58003;
0137833980999992008042518004-15667-038950FM-12+000599999V0203601N003110450019N0040001N1+02861+02481100871ADDGF106991041051008001021001MA1999999100821MD1999999+0011REMSYN070AAXX  25184 83398 32596 63606 10286 20248 30082 40087 84520 333 58001;
0168833980999992008042600004-15667-038950FM-12+000599999V0200901N002110075019N0010001N1+02721+02561101111ADDGF105991051051008001001001KA1240M+03161MA1999999101061MD1999999-0051REMSYN088AAXX  26004 83398 32594 50904 10272 20256 30106 40111 85500 333 10316 29086 55057 59005;
0156833980999992008042612004-15667-038950FM-12+000599999V0203601N003110450019N0040001N1+02981+02461101231ADDGF105991031051008001021001KA1240N+02301MA1999999101181MD1999999-0031REMSYN076AAXX  26124 83398 32596 53606 10298 20246 30118 40123 83520 333 20230 59003;
0137833980999992008042618004-15667-038950FM-12+000599999V0203601N004110450019N0040001N1+02961+02381100961ADDGF106991021051008001041011MA1999999100911MD1999999+0091REMSYN070AAXX  26184 83398 32596 63608 10296 20238 30091 40096 82541 333 58009;
0168833980999992008042700004-15667-038950FM-12+000599999V0209999C000012200019N0010001N1+02701+02521101201ADDGF103991031011008001001001KA1240M+03121MA1999999101151MD1999999+0091REMSYN088AAXX  27004 83398 32594 30000 10270 20252 30115 40120 83100 333 10312 29081 55073 58009;
0156833980999992008042712004-15667-038950FM-12+000599999V0203601N003110450019N0040001N1+03001+02321101371ADDGF106991041051008001021001KA1240N+02261MA1999999101321MD1999999+0141REMSYN076AAXX  27124 83398 32596 63606 10300 20232 30132 40137 84520 333 20226 58014;
0137833980999992008042718004-15667-038950FM-12+000599999V0203601N002110450019N0040001N1+02901+02321100961ADDGF106991031051008001021001MA1999999100911MD1999999+0001REMSYN070AAXX  27184 83398 32596 63604 10290 20232 30091 40096 83520 333 58000;
0168833980999992008042800004-15667-038950FM-12+000599999V0209999C000010450019N0010001N1+02601+02461101311ADDGF105991031051008001021001KA1240M+03141MA1999999101261MD1999999+0111REMSYN088AAXX  28004 83398 32594 50000 10260 20246 30126 40131 83520 333 10314 29081 55060 58011;
0156833980999992008042812004-15667-038950FM-12+000599999V0209999C000010450019N0040001N1+02901+02431101431ADDGF105991031051008001021001KA1240N+02281MA1999999101381MD1999999+0061REMSYN076AAXX  28124 83398 32596 50000 10290 20243 30138 40143 83520 333 20228 58006;
0137833980999992008042818004-15667-038950FM-12+000599999V0200501N003110450019N0040001N1+02981+02331101051ADDGF105991031021008001041001MA1999999101001MD1999999+0091REMSYN070AAXX  28184 83398 32596 50506 10298 20233 30100 40105 83240 333 58009;
0168833980999992008042900004-15667-038950FM-12+000599999V0209999C000012200019N0010001N1+02681+02431101301ADDGF104991041051008001001001KA1240M+03081MA1999999101251MD1999999-0011REMSYN088AAXX  29004 83398 32594 40000 10268 20243 30125 40130 84500 333 10308 29079 55078 59001;
0156833980999992008042912004-15667-038950FM-12+000599999V0200901N002112200019N0040001N1+02881+02321101441ADDGF104991031051008001021001KA1240N+02141MA1999999101391MD1999999+0011REMSYN076AAXX  29124 83398 32596 40904 10288 20232 30139 40144 83520 333 20214 58001;
0137833980999992008042918004-15667-038950FM-12+000599999V0200501N003110450019N0040001N1+02921+02271101111ADDGF105991031021008001041001MA1999999101061MD1999999+0061REMSYN070AAXX  29184 83398 32596 50506 10292 20227 30106 40111 83240 333 58006;
0168833980999992008043000004-15667-038950FM-12+000599999V0200501N002112200019N0010001N1+02641+02411101221ADDGF102991021011008001001001KA1240M+03081MA1999999101171MD1999999-0081REMSYN088AAXX  30004 83398 32594 20504 10264 20241 30117 40122 82100 333 10308 29079 55083 59008;
0156833980999992008043012004-15667-038950FM-12+000599999V0209999C000010450019N0040001N1+02801+02421101371ADDGF105991031021008001041001KA1240N+02001MA1999999101321MD1999999-0071REMSYN076AAXX  30124 83398 32596 50000 10280 20242 30132 40137 83240 333 20200 59007;
0137833980999992008043018004-15667-038950FM-12+000599999V0200501N003119999999N0040001N1+02901+02411100941ADDGF105991031001008001041011MA1999999100891MD1999999-0171REMSYN070AAXX  30184 83398 32596 50506 10290 20241 30089 40094 83041 333 59017;
0168833980999992008050100004-15667-038950FM-12+000599999V0200501N002112200019N0010001N1+02661+02431101211ADDGF102991021011008001001001KA1240M+03121MA1999999101161MD1999999-0011REMSYN088AAXX  01004 83398 32594 20504 10266 20243 30116 40121 82100 333 10312 29082 55080 59001;
0201833980999992008050112004-15667-038950FM-12+000599999V0201401N002110450019N0040001N1+02781+02481101501ADDAA124002091AY161061AY221061GF106991041051008001021001KA1240N+02101MA1999999101451MD1999999+0131MW1021REMSYN088AAXX  01124 83398 21596 61404 10278 20248 30145 40150 70262 84520 333 20210 58013 60024;
0137833980999992008050118004-15667-038950FM-12+000599999V0200501N003110450019N0040001N1+02961+02331101221ADDGF105991031021008001041001MA1999999101171MD1999999+0281REMSYN070AAXX  01184 83398 32596 50506 10296 20233 30117 40122 83240 333 58028;
0168833980999992008050200004-15667-038950FM-12+000599999V0203601N003110075019N0010001N1+02361+02281101551ADDGF108991051051008001021999KA1240M+03081MA1999999101501MD1999999+0341REMSYN088AAXX  02004 83398 32594 83606 10236 20228 30150 40155 8552/ 333 10308 29086 55074 58034;
0201833980999992008050212004-15667-038950FM-12+000599999V0201801N003110450019N0040001N1+02581+02271101511ADDAA124007191AY161061AY221061GF106991031051008001021001KA1240N+02101MA1999999101461MD1999999+0071MW1021REMSYN088AAXX  02124 83398 21596 61806 10258 20227 30146 40151 70262 83520 333 20210 58007 60074;
0137833980999992008050218004-15667-038950FM-12+000599999V0200901N002110450019N0040001N1+02901+02221101131ADDGF105991031051008001021011MA1999999101081MD1999999-0091REMSYN070AAXX  02184 83398 32596 50904 10290 20222 30108 40113 83521 333 59009;
0168833980999992008050300004-15667-038950FM-12+000599999V0209999C000010450019N0010001N1+02301+02221101461ADDGF105991031051008001021001KA1240M+03061MA1999999101411MD1999999-0091REMSYN088AAXX  03004 83398 32594 50000 10230 20222 30141 40146 83520 333 10306 29085 55065 59009;
0156833980999992008050312004-15667-038950FM-12+000599999V0201801N002110450019N0040001N1+02461+02321101531ADDGF105991031051008001021001KA1240N+02161MA1999999101481MD1999999+0021REMSYN076AAXX  03124 83398 32596 51804 10246 20232 30148 40153 83520 333 20216 58002;
0137833980999992008050318004-15667-038950FM-12+000599999V0200901N002111050019N0040001N1+02841+02241101131ADDGF105991021021008001041011MA1999999101081MD1999999+0001REMSYN070AAXX  03184 83398 32596 50904 10284 20224 30108 40113 82241 333 58000;
0168833980999992008050400004-15667-038950FM-12+000599999V0200501N001012200019N0010001N1+02441+02301101331ADDGF101991011011008001001001KA1240M+03041MA1999999101281MD1999999-0131REMSYN088AAXX  04004 83398 32594 10502 10244 20230 30128 40133 81100 333 10304 29087 55059 59013;
0156833980999992008050412004-15667-038950FM-12+000599999V0203201N001010450019N0040001N1+02861+02391101531ADDGF105991041021008001041001KA1240N+02101MA1999999101481MD1999999+0001REMSYN076AAXX  04124 83398 32596 53202 10286 20239 30148 40153 84240 333 20210 58000;
0137833980999992008050418004-15667-038950FM-12+000599999V0203601N002110450019N0040001N1+02941+02331101271ADDGF105991031021008001041011MA1999999101251MD1999999+0141REMSYN070AAXX  04184 83398 32596 53604 10294 20233 30125 40127 83241 333 58014;
0156833980999992008050512004-15667-038950FM-12+000599999V0209999C000012200019N0040001N1+02701+02281101521ADDGF102991011011008001041001KA1240N+02101MA1999999101471MD1999999-0011REMSYN076AAXX  05124 83398 32596 20000 10270 20228 30147 40152 81140 333 20210 59001;
0137833980999992008050518004-15667-038950FM-12+000599999V0200501N005112200019N0040001N1+02881+02211101121ADDGF103991021011008001041001MA1999999101071MD1999999-0181REMSYN070AAXX  05184 83398 32596 30510 10288 20221 30107 40112 82140 333 59018;
0168833980999992008050600004-15667-038950FM-12+000599999V0209999C000012200019N0010001N1+02641+02351101361ADDGF102991011011008001041001KA1240M+03081MA1999999101311MD1999999-0131REMSYN088AAXX  06004 83398 32594 20000 10264 20235 30131 40136 81140 333 10308 29078 55075 59013;
0156833980999992008050612004-15667-038950FM-12+000599999V0203201N001012200019N0040001N1+02941+02291101251ADDGF103991021011008001041001KA1240N+02151MA1999999101201MD1999999-0271REMSYN076AAXX  06124 83398 32596 33202 10294 20229 30120 40125 82140 333 20215 59027;
0137833980999992008050618004-15667-038950FM-12+000599999V0203601N005112200019N0040001N1+02951+02271100861ADDGF103991021011008001041001MA1999999100811MD1999999-0261REMSYN070AAXX  06184 83398 32596 33610 10295 20227 30081 40086 82140 333 59026;
0168833980999992008050700004-15667-038950FM-12+000599999V0209999C000012200019N0010001N1+02661+02431101061ADDGF103991021011008001041001KA1240M+03151MA1999999101011MD1999999-0301REMSYN088AAXX  07004 83398 32594 30000 10266 20243 30101 40106 82140 333 10315 29077 55083 59030;
0201833980999992008050712004-15667-038950FM-12+000599999V0201801N003610075019N0200001N1+02691+02401101461ADDAA124000591AY151061AY211061GF108991051051008001021999KA1240N+02371MA1999999101411MD1999999+0211MW1021REMSYN088AAXX  07124 83398 21598 81807 10269 20240 30141 40146 70251 8552/ 333 20237 58021 69944;
0137833980999992008050718004-15667-038950FM-12+000599999V0201401N003110450019N0040001N1+02791+02311101181ADDGF106991041021008001041001MA1999999101131MD1999999+0321REMSYN070AAXX  07184 83398 32596 61406 10279 20231 30113 40118 84240 333 58032;
0168833980999992008050800004-15667-038950FM-12+000599999V0209999C000010450019N0010001N1+02321+02221101401ADDGF105991031051008001041001KA1240M+03031MA1999999101351MD1999999+0341REMSYN088AAXX  08004 83398 32594 50000 10232 20222 30135 40140 83540 333 10303 29087 55055 58034;
0156833980999992008050812004-15667-038950FM-12+000599999V0201401N001010075019N0040001N1+02581+02151101571ADDGF108991051051008001021001KA1240N+02141MA1999999101521MD1999999+0111REMSYN076AAXX  08124 83398 32596 81402 10258 20215 30152 40157 85520 333 20214 58011;
0137833980999992008050818004-15667-038950FM-12+000599999V0200901N003112200019N0040001N1+02761+01861101241ADDGF103991021011008001041001MA1999999101191MD1999999+0061REMSYN070AAXX  08184 83398 32596 30906 10276 20186 30119 40124 82140 333 58006;
0168833980999992008050900004-15667-038950FM-12+000599999V0209999C000012200019N0010001N1+02161+02011101411ADDGF104991021021008001041001KA1240M+02971MA1999999101361MD1999999+0011REMSYN088AAXX  09004 83398 32594 40000 10216 20201 30136 40141 82240 333 10297 29079 55053 58001;
0137833980999992008050918004-15667-038950FM-12+000599999V0200901N002112200019N0040001N1+02731+02061101211ADDGF103991021011008001041001MA1999999101161MD1999999-0031REMSYN070AAXX  09184 83398 32596 30904 10273 20206 30116 40121 82140 333 59003;
0156833980999992008051012004-15667-038950FM-12+000599999V0201801N003112200019N0040001N1+02581+02101101711ADDGF104991021021008001041001KA1240N+01801MA1999999101651MD1999999+0161REMSYN076AAXX  10124 83398 32596 41806 10258 20210 30165 40171 82240 333 20180 58016;
0137833980999992008051018004-15667-038950FM-12+000599999V0201401N002112200019N0040001N1+02761+01771101501ADDGF103991021011008001041001MA1999999101451MD1999999+0291REMSYN070AAXX  10184 83398 32596 31404 10276 20177 30145 40150 82140 333 58029;
0168833980999992008051100004-15667-038950FM-12+000599999V0209999C000012200019N0010001N1+02121+01981101761ADDGF102991011011008001041001KA1240M+02911MA1999999101701MD1999999+0241REMSYN088AAXX  11004 83398 32594 20000 10212 20198 30170 40176 81140 333 10291 29079 55082 58024;
0156833980999992008051112004-15667-038950FM-12+000599999V0201801N002110075019N0040001N1+02461+01921101911ADDGF108991051051008001021999KA1240N+01961MA1999999101851MD1999999+0201REMSYN076AAXX  11124 83398 32596 81804 10246 20192 30185 40191 8552/ 333 20196 58020;
0137833980999992008051118004-15667-038950FM-12+000599999V0201401N004110075019N0040001N1+02681+01891101651ADDGF108991051051008001021001MA1999999101591MD1999999+0141REMSYN070AAXX  11184 83398 32596 81408 10268 20189 30159 40165 85520 333 58014;
0168833980999992008051200004-15667-038950FM-12+000599999V0209999C000010450019N0010001N1+02081+01931101881ADDGF105991021021008001041001KA1240M+02911MA1999999101821MD1999999+0121REMSYN088AAXX  12004 83398 32594 50000 10208 20193 30182 40188 82240 333 10291 29079 55047 58012;
0156833980999992008051212004-15667-038950FM-12+000599999V0201801N003110450019N0040001N1+02401+01931102051ADDGF107991041051008001021001KA1240N+01971MA1999999101991MD1999999+0141REMSYN076AAXX  12124 83398 32596 71806 10240 20193 30199 40205 84520 333 20197 58014;
0137833980999992008051218004-15667-038950FM-12+000599999V0201401N009810450019N0040001N1+02561+01781101791ADDGF106991031051008001041001MA1999999101731MD1999999+0141REMSYN070AAXX  12184 83398 32596 61419 10256 20178 30173 40179 83540 333 58014;
0168833980999992008051300004-15667-038950FM-12+000599999V0201401N003110075019N0010001N1+02161+01881102011ADDGF108991051051008001021999KA1240M+02881MA1999999101951MD1999999+0131REMSYN088AAXX  13004 83398 32594 81406 10216 20188 30195 40201 8552/ 333 10288 29076 55057 58013;
0156833980999992008051312004-15667-038950FM-12+000599999V0201401N002112200019N0040001N1+02521+01911101991ADDGF102991021001008001041001KA1240N+01861MA1999999101931MD1999999-0061REMSYN076AAXX  13124 83398 32596 21404 10252 20191 30193 40199 82040 333 20186 59006;
0137833980999992008051318004-15667-038950FM-12+000599999V0201401N006212200019N0040001N1+02671+01861101711ADDGF102991011011008001041001MA1999999101651MD1999999-0131REMSYN070AAXX  13184 83398 32596 21412 10267 20186 30165 40171 81140 333 59013;
0168833980999992008051400004-15667-038950FM-12+000599999V0201401N002110075019N0010001N1+02161+01951101371ADDGF108991051051008001021999KA1240M+02911MA1999999101911MD1999999-0041REMSYN088AAXX  14004 83398 32594 81404 10216 20195 30191 40137 8552/ 333 10291 29078 55085 59004;
0156833980999992008051412004-15667-038950FM-12+000599999V0209999C000010075019N0040001N1+02291+01971101981ADDGF108991051051008001021011KA1240N+01901MA1999999101921MD1999999-0011REMSYN076AAXX  14124 83398 32596 80000 10229 20197 30192 40198 85521 333 20190 59001;
0137833980999992008051418004-15667-038950FM-12+000599999V0200901N002110075019N0040001N1+02601+02121101561ADDGF108991051051008001021999MA1999999101511MD1999999-0141REMSYN070AAXX  14184 83398 32596 80904 10260 20212 30151 40156 8552/ 333 59014;
0168833980999992008051500004-15667-038950FM-12+000599999V0200901N004110075019N0010001N1+02241+02211101831ADDGF108991051051008001021999KA1240M+02721MA1999999101771MD1999999-0141REMSYN088AAXX  15004 83398 32594 80908 10224 20221 30177 40183 8552/ 333 10272 29088 55023 59014;
0201833980999992008051512004-15667-038950FM-12+000599999V0209999C000010075019N0040001N1+02361+02261101931ADDAA124003091AY161061AY221061GF108991051051008001021999KA1240N+02051MA1999999101871MD1999999-0051MW1021REMSYN088AAXX  15124 83398 21596 80000 10236 20226 30187 40193 70262 8552/ 333 20205 59005 60034;
0137833980999992008051518004-15667-038950FM-12+000599999V0200901N002110450019N0040001N1+02721+02101101591ADDGF105991031051008001041001MA1999999101541MD1999999+0031REMSYN070AAXX  15184 83398 32596 50904 10272 20210 30154 40159 83540 333 58003;
0168833980999992008051600004-15667-038950FM-12+000599999V0209999C000012200019N0010001N1+02121+02091101811ADDGF102991011011008001041001KA1240M+02931MA1999999101751MD1999999-0021REMSYN088AAXX  16004 83398 32594 20000 10212 20209 30175 40181 81140 333 10293 29090 55045 59002;
0156833980999992008051612004-15667-038950FM-12+000599999V0209999C000010450019N0040001N1+02521+02291101871ADDGF106991021021008001041011KA1240N+01951MA1999999101811MD1999999-0061REMSYN076AAXX  16124 83398 32596 60000 10252 20229 30181 40187 82241 333 20195 59006;
0137833980999992008051618004-15667-038950FM-12+000599999V0201401N002110450019N0040001N1+02721+02261101491ADDGF106991031051008001021001MA1999999101441MD1999999-0101REMSYN070AAXX  16184 83398 32596 61404 10272 20226 30144 40149 83520 333 59010;
0168833980999992008051700004-15667-038950FM-12+000599999V0209999C000010450019N0040001N1+02441+02231101791ADDGF106991031051008001041001KA1240M+02981MA1999999101731MD1999999-0021REMSYN088AAXX  17004 83398 32596 60000 10244 20223 30173 40179 83540 333 10298 29085 55077 59002;
0201833980999992008051712004-15667-038950FM-12+000599999V0201401N003110075019N0040001N1+02521+02311101941ADDAA124001091AY161061AY221061GF108991071051008001051999KA1240N+02161MA1999999101881MD1999999+0071MW1021REMSYN088AAXX  17124 83398 21596 81406 10252 20231 30188 40194 70262 8755/ 333 20216 58007 60014;
0137833980999992008051718004-15667-038950FM-12+000599999V0201401N004110075019N0040001N1+02651+02131101741ADDGF108991051051008001021999MA1999999101681MD1999999+0241REMSYN070AAXX  17184 83398 32596 81408 10265 20213 30168 40174 8552/ 333 58024;
0168833980999992008051800004-15667-038950FM-12+000599999V0201801N001010450019N0010001N1+02141+01951101931ADDGF107991041051008001021001KA1240M+02841MA1999999101871MD1999999+0141REMSYN088AAXX  18004 83398 32594 71802 10214 20195 30187 40193 84520 333 10284 29085 55013 58014;
0156833980999992008051812004-15667-038950FM-12+000599999V0201801N002110450019N0040001N1+02581+02121102031ADDGF106991041051008001021001KA1240N+01931MA1999999101971MD1999999+0091REMSYN076AAXX  18124 83398 32596 61804 10258 20212 30197 40203 84520 333 20193 58009;
0137833980999992008051818004-15667-038950FM-12+000599999V0201401N002110075019N0040001N1+02681+01971101671ADDGF108991051051008001021001MA1999999101611MD1999999-0071REMSYN070AAXX  18184 83398 32596 81404 10268 20197 30161 40167 85520 333 59007;
0168833980999992008051900004-15667-038950FM-12+000599999V0209999C000010450019N0010001N1+02141+02021101831ADDGF107991041051008001021001KA1240M+02921MA1999999101771MD1999999-0101REMSYN088AAXX  19004 83398 32594 70000 10214 20202 30177 40183 84520 333 10292 29082 55055 59010;
0156833980999992008051912004-15667-038950FM-12+000599999V0201401N006210450019N0040001N1+02531+01991101841ADDGF105991031051008001041001KA1240N+01921MA1999999101781MD1999999-0191REMSYN076AAXX  19124 83398 32596 51412 10253 20199 30178 40184 83540 333 20192 59019;
0137833980999992008051918004-15667-038950FM-12+000599999V0201401N004112200019N0040001N1+02741+01971101491ADDGF104991011011008001041011MA1999999101441MD1999999-0171REMSYN070AAXX  19184 83398 32596 41408 10274 20197 30144 40149 81141 333 59017;
0168833980999992008052000004-15667-038950FM-12+000599999V0209999C000012200019N0010001N1+02021+01951101721ADDGF104991021011008001041001KA1240M+02951MA1999999101661MD1999999-0111REMSYN088AAXX  20004 83398 32594 40000 10202 20195 30166 40172 82140 333 10295 29083 55078 59011;
0137833980999992008052018004-15667-038950FM-12+000599999V0200901N003110450019N0040001N1+02801+01841101431ADDGF105991031011008001041001MA1999999101381MD1999999-0061REMSYN070AAXX  20184 83398 32596 50906 10280 20184 30138 40143 83140 333 59006;
0168833980999992008052100004-15667-038950FM-12+000599999V0209999C000012200019N0010001N1+02081+01981101671ADDGF103991011011008001041001KA1240M+02941MA1999999101611MD1999999-0051REMSYN088AAXX  21004 83398 32594 30000 10208 20198 30161 40167 81140 333 10294 29081 55081 59005;
0137833980999992008052118004-15667-038950FM-12+000599999V0200901N005110450019N0040001N1+02641+02071101341ADDGF105991021021008001041001MA1999999101291MD1999999-0091REMSYN070AAXX  21184 83398 32596 50910 10264 20207 30129 40134 82240 333 59009;
0168833980999992008052200004-15667-038950FM-12+000599999V0209999C000010450019N0010001N1+02041+01971101621ADDGF105991021021008001041001KA1240M+02941MA1999999101561MD1999999-0051REMSYN088AAXX  22004 83398 32594 50000 10204 20197 30156 40162 82240 333 10294 29086 55077 59005;
0137833980999992008052218004-15667-038950FM-12+000599999V0200901N002110450019N0040001N1+02621+01981101441ADDGF106991031051008001021001MA1999999101391MD1999999+0101REMSYN070AAXX  22184 83398 32596 60904 10262 20198 30139 40144 83520 333 58010;
0168833980999992008052300004-15667-038950FM-12+000599999V0209999C000010450019N0010001N1+02061+02011101621ADDGF106991031051008001021001KA1240M+02901MA1999999101561MD1999999+0001REMSYN088AAXX  23004 83398 32594 60000 10206 20201 30156 40162 83520 333 10290 29088 55079 58000;
0156833980999992008052312004-15667-038950FM-12+000599999V0209999C000012200019N0040001N1+02511+02261101671ADDGF104991011011008001041011KA1240N+01771MA1999999101611MD1999999-0041REMSYN076AAXX  23124 83398 32596 40000 10251 20226 30161 40167 81141 333 20177 59004;
0137833980999992008052318004-15667-038950FM-12+000599999V0200501N002112200019N0040001N1+02741+02101101321ADDGF104991021021008001041011MA1999999101271MD1999999-0121REMSYN070AAXX  23184 83398 32596 40504 10274 20210 30127 40132 82241 333 59012;
0168833980999992008052400004-15667-038950FM-12+000599999V0209999C000012200019N0010001N1+02101+02031101541ADDGF103991021021008001041001KA1240M+02931MA1999999101491MD1999999-0071REMSYN088AAXX  24004 83398 32594 30000 10210 20203 30149 40154 82240 333 10293 29086 55078 59007;
0156833980999992008052412004-15667-038950FM-12+000599999V0209999C000012200019N0040001N1+02441+02281101651ADDGF104991021021008001041001KA1240N+01741MA1999999101591MD1999999-0021REMSYN076AAXX  24124 83398 32596 40000 10244 20228 30159 40165 82240 333 20174 59002;
0137833980999992008052418004-15667-038950FM-12+000599999V0200501N003112200019N0040001N1+02721+02121101321ADDGF103991011011008001041001MA1999999101271MD1999999+0001REMSYN070AAXX  24184 83398 32596 30506 10272 20212 30127 40132 81140 333 58000;
0156833980999992008052512004-15667-038950FM-12+000599999V0209999C000010450019N0040001N1+02541+02211101501ADDGF106991031051008001021001KA1240N+01811MA1999999101451MD1999999-0141REMSYN076AAXX  25124 83398 32596 60000 10254 20221 30145 40150 83520 333 20181 59014;
0137833980999992008052518004-15667-038950FM-12+000599999V0200501N002110450019N0040001N1+02731+02201101221ADDGF105991021011008001041001MA1999999101171MD1999999-0101REMSYN070AAXX  25184 83398 32596 50504 10273 20220 30117 40122 82140 333 59010;
0168833980999992008052600004-15667-038950FM-12+000599999V0209999C000012200019N0010001N1+02241+02121101421ADDGF103991011011008001041001KA1240M+02931MA1999999101371MD1999999-0011REMSYN088AAXX  26004 83398 32594 30000 10224 20212 30137 40142 81140 333 10293 29085 55078 59001;
0156833980999992008052612004-15667-038950FM-12+000599999V0209999C000010450019N0040001N1+02581+02291101571ADDGF107991041051008001021001KA1240N+01961MA1999999101521MD1999999+0071REMSYN076AAXX  26124 83398 32596 70000 10258 20229 30152 40157 84520 333 20196 58007;
0137833980999992008052618004-15667-038950FM-12+000599999V0200501N002110450019N0040001N1+02741+02261101341ADDGF106991031051008001021001MA1999999101291MD1999999+0121REMSYN070AAXX  26184 83398 32596 60504 10274 20226 30129 40134 83520 333 58012;
0168833980999992008052700004-15667-038950FM-12+000599999V0209999C000010450019N0010001N1+02341+02271101551ADDGF105991031051008001041001KA1240M+02901MA1999999101501MD1999999+0131REMSYN088AAXX  27004 83398 32594 50000 10234 20227 30150 40155 83540 333 10290 29083 55029 58013;
0156833980999992008052712004-15667-038950FM-12+000599999V0209999C000012200019N0040001N1+02641+02291101661ADDGF104991021011008001041001KA1240N+01861MA1999999101601MD1999999+0081REMSYN076AAXX  27124 83398 32596 40000 10264 20229 30160 40166 82140 333 20186 58008;
0137833980999992008052718004-15667-038950FM-12+000599999V0200501N002111050019N0040001N1+02741+02141101471ADDGF105991021011008001041011MA1999999101421MD1999999+0131REMSYN070AAXX  27184 83398 32596 50504 10274 20214 30142 40147 82141 333 58013;
0168833980999992008052800004-15667-038950FM-12+000599999V0209999C000012200019N0010001N1+02151+02071101681ADDGF104991021011008001041001KA1240M+02971MA1999999101621MD1999999+0121REMSYN088AAXX  28004 83398 32594 40000 10215 20207 30162 40168 82140 333 10297 29085 55080 58012;
0156833980999992008052812004-15667-038950FM-12+000599999V0209999C000010450019N0040001N1+02531+02261101711ADDGF105991021021008001041001KA1240N+01881MA1999999101651MD1999999+0051REMSYN076AAXX  28124 83398 32596 50000 10253 20226 30165 40171 82240 333 20188 58005;
0137833980999992008052818004-15667-038950FM-12+000599999V0200501N003112200019N0040001N1+02761+02071101461ADDGF103991011011008001041001MA1999999101411MD1999999-0011REMSYN070AAXX  28184 83398 32596 30506 10276 20207 30141 40146 81140 333 59001;
0168833980999992008052900004-15667-038950FM-12+000599999V0209999C000012200019N0010001N1+02121+02051101671ADDGF103991021021008001041001KA1240M+02931MA1999999101611MD1999999+0011REMSYN088AAXX  29004 83398 32594 30000 10212 20205 30161 40167 82240 333 10293 29086 55064 58001;
0156833980999992008052912004-15667-038950FM-12+000599999V0209999C000010450019N0040001N1+02421+02251101691ADDGF107991041051008001021001KA1240N+01941MA1999999101631MD1999999-0021REMSYN076AAXX  29124 83398 32596 70000 10242 20225 30163 40169 84520 333 20194 59002;
0137833980999992008052918004-15667-038950FM-12+000599999V0200501N002112200019N0040001N1+02781+02271101461ADDGF104991021021008001041001MA1999999101411MD1999999+0001REMSYN070AAXX  29184 83398 32596 40504 10278 20227 30141 40146 82240 333 58000;
0213833980999992008053000004-15667-038950FM-12+000599999V0209999C000012200019N0010001N1+02241+02191101671ADDAA106002091AY161061AY221061GF103991021021008001041001KA1240M+02911MA1999999101611MD1999999+0001MW1021REMSYN100AAXX  30004 83398 21594 30000 10224 20219 30161 40167 70262 82240 333 10291 29089 55063 58000 60021;
0201833980999992008053012004-15667-038950FM-12+000599999V0209999C000010450019N0040001N1+02581+02371101911ADDAA124002091AY151061AY221061GF105991031021008001041001KA1240N+01931MA1999999101851MD1999999+0221MW1021REMSYN088AAXX  30124 83398 21596 50000 10258 20237 30185 40191 70252 83240 333 20193 58022 60024;
0137833980999992008053018004-15667-038950FM-12+000599999V0200501N003112200019N0040001N1+02781+02161101561ADDGF102991011011008001041001MA1999999101511MD1999999+0101REMSYN070AAXX  30184 83398 32596 20506 10278 20216 30151 40156 81140 333 58010;
0168833980999992008053100004-15667-038950FM-12+000599999V0209999C000012200019N0010001N1+02161+02111101781ADDGF102991011011008001041001KA1240M+02941MA1999999101721MD1999999+0111REMSYN088AAXX  31004 83398 32594 20000 10216 20211 30172 40178 81140 333 10294 29088 55076 58011;
0156833980999992008053112004-15667-038950FM-12+000599999V0209999C000012200019N0040001N1+02581+02291101991ADDGF103991021021008001041001KA1240N+01861MA1999999101931MD1999999+0081REMSYN076AAXX  31124 83398 32596 30000 10258 20229 30193 40199 82240 333 20186 58008;
0137833980999992008053118004-15667-038950FM-12+000599999V0201401N002110450019N0040001N1+02761+02021101791ADDGF106991031051008001021001MA1999999101731MD1999999+0221REMSYN070AAXX  31184 83398 32596 61404 10276 20202 30173 40179 83520 333 58022;
0213833980999992008060100004-15667-038950FM-12+000599999V0201401N001012200019N0010001N1+02181+02061102021ADDAA106002091AY161061AY221061GF102991011021008001041001KA1240M+02981MA1999999101961MD1999999+0241MW1021REMSYN100AAXX  01004 83398 21594 21402 10218 20206 30196 40202 70262 81240 333 10298 29083 55080 58024 60021;
0201833980999992008060112004-15667-038950FM-12+000599999V0202301N003110450019N0040001N1+02471+02061102031ADDAA124003091AY151061AY221061GF105991031051008001041001KA1240N+02001MA1999999101971MD1999999+0041MW1021REMSYN088AAXX  01124 83398 21596 52306 10247 20206 30197 40203 70252 83540 333 20200 58004 60034;
0137833980999992008060118004-15667-038950FM-12+000599999V0200901N003112200019N0040001N1+02721+01951101731ADDGF102991011021008001041001MA1999999101671MD1999999-0061REMSYN070AAXX  01184 83398 32596 20906 10272 20195 30167 40173 81240 333 59006;
0168833980999992008060200004-15667-038950FM-12+000599999V0209999C000012200019N0010001N1+02161+02081101981ADDGF104991021021008001041001KA1240M+02921MA1999999101921MD1999999-0041REMSYN088AAXX  02004 83398 32594 40000 10216 20208 30192 40198 82240 333 10292 29083 55074 59004;
0156833980999992008060212004-15667-038950FM-12+000599999V0201801N003110450019N0040001N1+02491+02061102031ADDGF106991041051008001021001KA1240N+01931MA1999999101971MD1999999+0001REMSYN076AAXX  02124 83398 32596 61806 10249 20206 30197 40203 84520 333 20193 58000;
0137833980999992008060218004-15667-038950FM-12+000599999V0201401N004112200019N0040001N1+02681+02061101581ADDGF104991021021008001041001MA1999999101531MD1999999-0141REMSYN070AAXX  02184 83398 32596 41408 10268 20206 30153 40158 82240 333 59014;
0168833980999992008060300004-15667-038950FM-12+000599999V0201801N003110075019N0010001N1+02161+02111101861ADDGF108991051051008001021999KA1240M+02901MA1999999101801MD1999999-0121REMSYN088AAXX  03004 83398 32594 81806 10216 20211 30180 40186 8552/ 333 10290 29085 55056 59012;
0201833980999992008060312004-15667-038950FM-12+000599999V0209999C000010075019N0040001N1+02441+02301101921ADDAA124011991AY161061AY221061GF108991051051008001021999KA1240N+02091MA1999999101861MD1999999-0111MW1021REMSYN088AAXX  03124 83398 21596 80000 10244 20230 30186 40192 70262 8552/ 333 20209 59011 60124;
0182833980999992008060318004-15667-038950FM-12+000599999V0200501N005110075019N0040001N1+02381+02221101681ADDAA106005191AY161061AY221061GF108991051051008001021999MA1999999101621MD1999999+0091MW1021REMSYN082AAXX  03184 83398 21596 80510 10238 20222 30162 40168 70262 8552/ 333 58009 60051;
0213833980999992008060400004-15667-038950FM-12+000599999V0201401N002110075019N0010001N1+02161+02131101901ADDAA106000591AY151061AY211061GF108991051051008001021999KA1240M+02801MA1999999101841MD1999999+0041MW1021REMSYN100AAXX  04004 83398 21594 81404 10216 20213 30184 40190 70251 8552/ 333 10280 29095 55021 58004 69951;
0201833980999992008060412004-15667-038950FM-12+000599999V0201401N002110450019N0040001N1+02321+02031101941ADDAA124010991AY161061AY221061GF106991041051008001041001KA1240N+01981MA1999999101881MD1999999+0021MW1021REMSYN088AAXX  04124 83398 21596 61404 10232 20203 30188 40194 70262 84540 333 20198 58002 60114;
0137833980999992008060418004-15667-038950FM-12+000599999V0201401N002110450019N0040001N1+02501+02191101661ADDGF107991041051008001021001MA1999999101601MD1999999-0021REMSYN070AAXX  04184 83398 32596 71404 10250 20219 30160 40166 84520 333 59002;
0168833980999992008060500004-15667-038950FM-12+000599999V0209999C000010450019N0010001N1+02241+02161101871ADDGF105991031051008001041001KA1240M+02711MA1999999101811MD1999999-0031REMSYN088AAXX  05004 83398 32594 50000 10224 20216 30181 40187 83540 333 10271 29089 55036 59003;
0156833980999992008060512004-15667-038950FM-12+000599999V0209999C000012200019N0040001N1+02481+02191101981ADDGF103991011021008001041001KA1240N+01941MA1999999101921MD1999999+0041REMSYN076AAXX  05124 83398 32596 30000 10248 20219 30192 40198 81240 333 20194 58004;
0137833980999992008060518004-15667-038950FM-12+000599999V0200901N003112200019N0040001N1+02701+02201101731ADDGF102991011011008001041001MA1999999101671MD1999999+0071REMSYN070AAXX  05184 83398 32596 20906 10270 20220 30167 40173 81140 333 58007;
0168833980999992008060600004-15667-038950FM-12+000599999V0209999C000012200019N0010001N1+02191+02111101971ADDGF102991011011008001041001KA1240M+02881MA1999999101911MD1999999+0101REMSYN088AAXX  06004 83398 32594 20000 10219 20211 30191 40197 81140 333 10288 29087 55079 58010;
0156833980999992008060612004-15667-038950FM-12+000599999V0201401N001010450019N0040001N1+02601+02271102041ADDGF107991041051008001021001KA1240N+01941MA1999999101981MD1999999+0061REMSYN076AAXX  06124 83398 32596 71402 10260 20227 30198 40204 84520 333 20194 58006;
0137833980999992008060618004-15667-038950FM-12+000599999V0209999C000012200019N0040001N1+02741+02191101771ADDGF104991021021008001041001MA1999999101711MD1999999+0041REMSYN070AAXX  06184 83398 32596 40000 10274 20219 30171 40177 82240 333 58004;
0213833980999992008060700004-15667-038950FM-12+000599999V0209999C000010450019N0010001N1+02201+02131101931ADDAA106001091AY161061AY221061GF107991041051008001021001KA1240M+02921MA1999999101871MD1999999-0041MW1021REMSYN100AAXX  07004 83398 21594 70000 10220 20213 30187 40193 70262 84520 333 10292 29086 55064 59004 60011;
0175833980999992008060712004-15667-038950FM-12+000599999V0200901N006710042019N0100001N1+01891+01701101751ADDGF106991061021004501001001KA1240N+01721MA1999999999999MD1999999-0051REMSYN076AAXX  07124 83398 32497 60913 10189 20170 39202 40175 86200 333 20172 59005;EQDQ01 092023APOSP 
0156833980999992008060718004-15667-038950FM-12+000599999V0200501N002112200019N0040001N1+02741+02241101791ADDGF104991021021008001041001MA1999999101732MD1999999+0021REMSYN070AAXX  07184 83398 32596 40504 10274 20224 30173 40179 82240 333 58002;EQDQ01+101733APOSP 
0173833980999992008060812004-15667-038950FM-12+000599999V0200901N004110450019N0040001N1+02631+02171101961ADDAA124000891GF106991031021008001041001KA1240N+01991MA1999999101901MD1999999-0031REMSYN082AAXX  08124 83398 22596 60908 10263 20217 30190 40196 83240 333 20199 59003 69984;
0137833980999992008060818004-15667-038950FM-12+000599999V0200901N004110450019N0040001N1+02741+02141101741ADDGF105991031051008001041001MA1999999101681MD1999999-0051REMSYN070AAXX  08184 83398 32596 50908 10274 20214 30168 40174 83540 333 59005;
0213833980999992008060900004-15667-038950FM-12+000599999V0209999C000010075019N0010001N1+02241+02211101841ADDAA106001091AY161061AY221061GF108991051051008001021999KA1240M+02961MA1999999101781MD1999999-0051MW1021REMSYN100AAXX  09004 83398 21594 80000 10224 20221 30178 40184 70262 8552/ 333 10296 29085 55075 59005 60011;
0201833980999992008060912004-15667-038950FM-12+000599999V0209999C000012200019N0040001N1+02781+02111101961ADDAA124002091AY151061AY211061GF102991011011008001041001KA1240N+02221MA1999999101901MD1999999+0001MW1021REMSYN088AAXX  09124 83398 21596 20000 10278 20211 30190 40196 70251 81140 333 20222 58000 60024;
0137833980999992008060918004-15667-038950FM-12+000599999V0200501N003112200019N0040001N1+02741+02141101701ADDGF104991021021008001041001MA1999999101641MD1999999-0041REMSYN070AAXX  09184 83398 32596 40506 10274 20214 30164 40170 82240 333 59004;
0168833980999992008061000004-15667-038950FM-12+000599999V0209999C000012200019N0010001N1+02181+02041101901ADDGF104991021021008001041001KA1240M+02931MA1999999101841MD1999999+0061REMSYN088AAXX  10004 83398 32594 40000 10218 20204 30184 40190 82240 333 10293 29080 55080 58006;
0156833980999992008061012004-15667-038950FM-12+000599999V0209999C000012200019N0040001N1+02521+02191101851ADDGF102991011011008001041001KA1240N+01861MA1999999101791MD1999999-0111REMSYN076AAXX  10124 83398 32596 20000 10252 20219 30179 40185 81140 333 20186 59011;
0137833980999992008061018004-15667-038950FM-12+000599999V0200501N003112200019N0040001N1+02721+02121101591ADDGF103991021011008001041001MA1999999101541MD1999999-0101REMSYN070AAXX  10184 83398 32596 30506 10272 20212 30154 40159 82140 333 59010;
0168833980999992008061100004-15667-038950FM-12+000599999V0209999C000012200019N0010001N1+02061+02011101771ADDGF104991021021008001041001KA1240M+02891MA1999999101711MD1999999-0131REMSYN088AAXX  11004 83398 32594 40000 10206 20201 30171 40177 82240 333 10289 29086 55079 59013;
0156833980999992008061112004-15667-038950FM-12+000599999V0209999C000012200019N0040001N1+02401+02131101841ADDGF102991011011008001041001KA1240N+01681MA1999999101781MD1999999-0011REMSYN076AAXX  11124 83398 32596 20000 10240 20213 30178 40184 81140 333 20168 59001;
0137833980999992008061118004-15667-038950FM-12+000599999V0200901N004112200019N0040001N1+02721+02051101561ADDGF102991011011008001041001MA1999999101511MD1999999-0031REMSYN070AAXX  11184 83398 32596 20908 10272 20205 30151 40156 81140 333 59003;
0213833980999992008061200004-15667-038950FM-12+000599999V0201401N010310075019N0010001N1+02081+02011101921ADDAA106002091AY161061AY211061GF108991051051008001021999KA1240M+02881MA1999999101861MD1999999+0151MW1611REMSYN100AAXX  12004 83398 21594 81420 10208 20201 30186 40192 76161 8552/ 333 10288 29086 55070 58015 60021;
0201833980999992008061212004-15667-038950FM-12+000599999V0209999C000010075019N0040001N1+02311+02241101991ADDAA124009991AY161061AY221061GF108991051051008001021999KA1240N+02021MA1999999101931MD1999999+0151MW1021REMSYN088AAXX  12124 83398 21596 80000 10231 20224 30193 40199 70262 8552/ 333 20202 58015 60104;
0182833980999992008061218004-15667-038950FM-12+000599999V0200501N003110450019N0040001N1+02671+02081101721ADDAA106000591AY151061AY211061GF107991041051008001021001MA1999999101661MD1999999+0151MW1021REMSYN082AAXX  12184 83398 21596 70506 10267 20208 30166 40172 70251 84520 333 58015 69941;
0168833980999992008061300004-15667-038950FM-12+000599999V0209999C000010450019N0010001N1+02051+02001101891ADDGF106991031021008001041001KA1240M+02781MA1999999101831MD1999999-0031REMSYN088AAXX  13004 83398 32594 60000 10205 20200 30183 40189 83240 333 10278 29090 55021 59003;
0201833980999992008061312004-15667-038950FM-12+000599999V0209999C000010450019N0040001N1+02221+02101101921ADDAA124000891AY151061AY211061GF107991041051008001021001KA1240N+01751MA1999999101861MD1999999+0071MW1021REMSYN088AAXX  13124 83398 21596 70000 10222 20210 30186 40192 70251 84520 333 20175 58007 69984;
0182833980999992008061318004-15667-038950FM-12+000599999V0200501N003110075019N0040001N1+02311+02171101611ADDAA106002091AY161061AY211061GF108991051051008001021999MA1999999101551MD1999999-0111MW1621REMSYN082AAXX  13184 83398 21596 80506 10231 20217 30155 40161 76261 8552/ 333 59011 60021;
0213833980999992008061400004-15667-038950FM-12+000599999V0209999C000010075019N0010001N1+02121+02101101781ADDAA106001091AY161061AY221061GF108991051051008001021999KA1240M+02551MA1999999101721MD1999999-0111MW1021REMSYN100AAXX  14004 83398 21594 80000 10212 20210 30172 40178 70262 8552/ 333 10255 29096 55002 59011 60011;
0173833980999992008061412004-15667-038950FM-12+000599999V0209999C000012200019N0040001N1+02361+02221101821ADDAA124003091GF104991021021008001041001KA1240N+01911MA1999999101761MD1999999-0101REMSYN082AAXX  14124 83398 22596 40000 10236 20222 30176 40182 82240 333 20191 59010 60034;
0137833980999992008061418004-15667-038950FM-12+000599999V0200501N005112200019N0040001N1+02641+01951101491ADDGF104991021021008001041001MA1999999101441MD1999999-0071REMSYN070AAXX  14184 83398 32596 40510 10264 20195 30144 40149 82240 333 59007;
0168833980999992008061500004-15667-038950FM-12+000599999V0209999C000012200019N0010001N1+02051+01971101741ADDGF102991011011008001041001KA1240M+02821MA1999999101681MD1999999-0041REMSYN088AAXX  15004 83398 32594 20000 10205 20197 30168 40174 81140 333 10282 29087 55052 59004;
0156833980999992008061512004-15667-038950FM-12+000599999V0209999C000010450019N0040001N1+02311+02021101801ADDGF107991031051008001021001KA1240N+01661MA1999999101741MD1999999-0021REMSYN076AAXX  15124 83398 32596 70000 10231 20202 30174 40180 83520 333 20166 59002;
0137833980999992008061518004-15667-038950FM-12+000599999V0200501N000512200019N0040001N1+02701+01721101541ADDGF102991011011008001041001MA1999999101491MD1999999+0051REMSYN070AAXX  15184 83398 32596 20501 10270 20172 30149 40154 81140 333 58005;
0168833980999992008061600004-15667-038950FM-12+000599999V0209999C000012200019N0010001N1+02051+01931101751ADDGF102991011011008001041001KA1240M+02841MA1999999101691MD1999999+0011REMSYN088AAXX  16004 83398 32594 20000 10205 20193 30169 40175 81140 333 10284 29081 55045 58001;
0156833980999992008061612004-15667-038950FM-12+000599999V0209999C000012200019N0040001N1+02461+02151101861ADDGF101991011011008001001001KA1240N+01681MA1999999101801MD1999999+0061REMSYN076AAXX  16124 83398 32596 10000 10246 20215 30180 40186 81100 333 20168 58006;
0137833980999992008061618004-15667-038950FM-12+000599999V0200501N003112200019N0040001N1+02661+02181101501ADDGF102991011011008001041001MA1999999101451MD1999999-0041REMSYN070AAXX  16184 83398 32596 20506 10266 20218 30145 40150 81140 333 59004;
0168833980999992008061700004-15667-038950FM-12+000599999V0209999C000012200019N0010001N1+02081+02051101841ADDGF101991011011008001001001KA1240M+02861MA1999999101781MD1999999+0091REMSYN088AAXX  17004 83398 32594 10000 10208 20205 30178 40184 81100 333 10286 29088 55081 58009;
0201833980999992008061712004-15667-038950FM-12+000599999V0209999C000010075019N0040001N1+02161+02131101971ADDAA124010991AY161061AY221061GF108991051051008001021999KA1240N+01961MA1999999101911MD1999999+0111MW1021REMSYN088AAXX  17124 83398 21596 80000 10216 20213 30191 40197 70262 8552/ 333 20196 58011 60114;
0182833980999992008061718004-15667-038950FM-12+000599999V0201401N008210075019N0040001N1+02171+02101101701ADDAA106026991AY161061AY221061GF108991051051008001021999MA1999999101641MD1999999+0191MW1511REMSYN082AAXX  17184 83398 21596 81416 10217 20210 30164 40170 75162 8552/ 333 58019 60271;
0213833980999992008061800004-15667-038950FM-12+000599999V0201401N003110075019N0010001N1+02141+02041101851ADDAA106018091AY161061AY221061GF108991051051008001021999KA1240M+02351MA1999999101791MD1999999+0011MW1511REMSYN100AAXX  18004 83398 21594 81406 10214 20204 30179 40185 75162 8552/ 333 10235 29095 55000 58001 60181;
0201833980999992008061812004-15667-038950FM-12+000599999V0209999C000010075019N0040001N1+02141+02041101961ADDAA124055191AY161061AY221061GF108991051051008001021999KA1240N+01981MA1999999101901MD1999999-0011MW1021REMSYN088AAXX  18124 83398 21596 80000 10214 20204 30190 40196 70262 8552/ 333 20198 59001 60554;
0137833980999992008061818004-15667-038950FM-12+000599999V0209999C000010075019N0040001N1+02211+02021101701ADDGF108991051051008001021999MA1999999101641MD1999999+0001REMSYN070AAXX  18184 83398 32596 80000 10221 20202 30164 40170 8552/ 333 58000;
0213833980999992008061900004-15667-038950FM-12+000599999V0209999C000010450019N0010001N1+02141+02041101791ADDAA106001091AY161061AY221061GF107991041051008001021001KA1240M+02531MA1999999101731MD1999999-0061MW1021REMSYN100AAXX  19004 83398 21594 70000 10214 20204 30173 40179 70262 84520 333 10253 29093 55000 59006 60011;
0201833980999992008061912004-15667-038950FM-12+000599999V0209999C000010450019N0040001N1+02301+02051101901ADDAA124003091AY161061AY221061GF107991041051008001021001KA1240N+01861MA1999999101841MD1999999-0061MW1021REMSYN088AAXX  19124 83398 21596 70000 10230 20205 30184 40190 70262 84520 333 20186 59006 60034;
0137833980999992008061918004-15667-038950FM-12+000599999V0209999C000010450019N0040001N1+02601+02121101611ADDGF106991031051008001021001MA1999999101551MD1999999-0091REMSYN070AAXX  19184 83398 32596 60000 10260 20212 30155 40161 83520 333 59009;
0168833980999992008062000004-15667-038950FM-12+000599999V0201801N002110075019N0010001N1+02101+02051101811ADDGF108991051051008001021999KA1240M+02761MA1999999101751MD1999999+0021REMSYN088AAXX  20004 83398 32594 81804 10210 20205 30175 40181 8552/ 333 10276 29089 55032 58002;
0201833980999992008062012004-15667-038950FM-12+000599999V0202301N002110075019N0040001N1+02181+02101101901ADDAA124010991AY161061AY221061GF108991051051008001021999KA1240N+02011MA1999999101841MD1999999+0001MW1021REMSYN088AAXX  20124 83398 21596 82304 10218 20210 30184 40190 70262 8552/ 333 20201 58000 60114;
0137833980999992008062018004-15667-038950FM-12+000599999V0203601N001010075019N0040001N1+02581+02191101551ADDGF108991051051008001021999MA1999999101501MD1999999-0051REMSYN070AAXX  20184 83398 32596 83602 10258 20219 30150 40155 8552/ 333 59005;
0168833980999992008062100004-15667-038950FM-12+000599999V0209999C000010450019N0010001N1+02151+02071101731ADDGF106991031051008001041001KA1240M+02651MA1999999101671MD1999999-0081REMSYN088AAXX  21004 83398 32594 60000 10215 20207 30167 40173 83540 333 10265 29091 55016 59008;
0156833980999992008062112004-15667-038950FM-12+000599999V0209999C000010450019N0040001N1+02361+02131101701ADDGF106991031051008001041001KA1240N+01741MA1999999101641MD1999999-0201REMSYN076AAXX  21124 83398 32596 60000 10236 20213 30164 40170 83540 333 20174 59020;
0137833980999992008062118004-15667-038950FM-12+000599999V0209999C000010450019N0040001N1+02641+02091101371ADDGF105991031051008001041001MA1999999101321MD1999999-0181REMSYN070AAXX  21184 83398 32596 50000 10264 20209 30132 40137 83540 333 59018;
0168833980999992008062200004-15667-038950FM-12+000599999V0209999C000012200019N0010001N1+02161+02111101581ADDGF102991011011008001041001KA1240M+02741MA1999999101531MD1999999-0141REMSYN088AAXX  22004 83398 32594 20000 10216 20211 30153 40158 81140 333 10274 29088 55025 59014;
0156833980999992008062212004-15667-038950FM-12+000599999V0209999C000012200019N0040001N1+02371+02101101661ADDGF102991011011008001041001KA1240N+01701MA1999999101601MD1999999-0041REMSYN076AAXX  22124 83398 32596 20000 10237 20210 30160 40166 81140 333 20170 59004;
0137833980999992008062218004-15667-038950FM-12+000599999V0200501N002110450019N0040001N1+02601+02211101441ADDGF105991031021008001041001MA1999999101391MD1999999+0071REMSYN070AAXX  22184 83398 32596 50504 10260 20221 30139 40144 83240 333 58007;
0156833980999992008062312004-15667-038950FM-12+000599999V0201401N001012200019N0040001N1+02441+02191101891ADDGF103991011011008001041001KA1240N+01771MA1999999101831MD1999999+0231REMSYN076AAXX  23124 83398 32596 31402 10244 20219 30183 40189 81140 333 20177 58023;
0182833980999992008062318004-15667-038950FM-12+000599999V0200901N004112200019N0040001N1+02651+02151101741ADDAA106000591AY151061AY211061GF103991021021008001041001MA1999999101681MD1999999+0291MW1011REMSYN082AAXX  23184 83398 21596 30908 10265 20215 30168 40174 70151 82240 333 58029 69941;
0168833980999992008062400004-15667-038950FM-12+000599999V0209999C000012200019N0010001N1+02061+02031101971ADDGF103991021021008001041001KA1240M+02791MA1999999101911MD1999999+0261REMSYN088AAXX  24004 83398 32594 30000 10206 20203 30191 40197 82240 333 10279 29089 55060 58026;
0201833980999992008062412004-15667-038950FM-12+000599999V0201401N002112200019N0040001N1+02361+02151102051ADDAA124000891AY151061AY211061GF102991011011008001041001KA1240N+01871MA1999999101991MD1999999+0161MW1021REMSYN088AAXX  24124 83398 21596 21404 10236 20215 30199 40205 70251 81140 333 20187 58016 69974;
0182833980999992008062418004-15667-038950FM-12+000599999V0201801N003110075019N0040001N1+02341+02181101901ADDAA106014091AY161061AY221061GF108991051051008001021999MA1999999101841MD1999999+0161MW1021REMSYN082AAXX  24184 83398 21596 81806 10234 20218 30184 40190 70262 8552/ 333 58016 60141;
0213833980999992008062500004-15667-038950FM-12+000599999V0201801N009310075019N0010001N1+02221+02031101981ADDAA106008991AY161061AY221061GF108991051051008001021999KA1240M+02761MA1999999101921MD1999999+0011MW1021REMSYN100AAXX  25004 83398 21594 81818 10222 20203 30192 40198 70262 8552/ 333 10276 29089 55029 58001 60091;
0201833980999992008062512004-15667-038950FM-12+000599999V0201401N002110075019N0040001N1+02191+02091102041ADDAA124025991AY161061AY221061GF108991051051008001021999KA1240N+01981MA1999999101981MD1999999-0011MW1021REMSYN088AAXX  25124 83398 21596 81404 10219 20209 30198 40204 70262 8552/ 333 20198 59001 60264;
0137833980999992008062518004-15667-038950FM-12+000599999V0201401N002110075019N0040001N1+02421+02091101721ADDGF108991051051008001021999MA1999999101661MD1999999-0181REMSYN070AAXX  25184 83398 32596 81404 10242 20209 30166 40172 8552/ 333 59018;
0168833980999992008062600004-15667-038950FM-12+000599999V0209999C000010450019N0010001N1+02041+02011101881ADDGF105991031021008001041001KA1240M+02661MA1999999101821MD1999999-0101REMSYN088AAXX  26004 83398 32594 50000 10204 20201 30182 40188 83240 333 10266 29093 55010 59010;
0156833980999992008062612004-15667-038950FM-12+000599999V0201801N005110075019N0040001N1+02201+01991102021ADDGF108991051051008001021999KA1240N+01891MA1999999101961MD1999999-0021REMSYN076AAXX  26124 83398 32596 81810 10220 20199 30196 40202 8552/ 333 20189 59002;
0182833980999992008062618004-15667-038950FM-12+000599999V0201401N002110075019N0040001N1+02341+02131101821ADDAA106000891AY151061AY221061GF108991051051008001021999MA1999999101761MD1999999+0101MW1021REMSYN082AAXX  26184 83398 21596 81404 10234 20213 30176 40182 70252 8552/ 333 58010 69981;
0168833980999992008062700004-15667-038950FM-12+000599999V0201401N002110450019N0010001N1+02141+02021102021ADDGF106991041051008001021001KA1240M+02541MA1999999101961MD1999999+0141REMSYN088AAXX  27004 83398 32594 61404 10214 20202 30196 40202 84520 333 10254 29090 55002 58014;
0201833980999992008062712004-15667-038950FM-12+000599999V0201401N004110450019N0040001N1+02421+01991102171ADDAA124014091AY161061AY221061GF106991031051008001021001KA1240N+01921MA1999999102111MD1999999+0151MW1021REMSYN088AAXX  27124 83398 21596 61408 10242 20199 30211 40217 70262 83520 333 20192 58015 60144;
0137833980999992008062718004-15667-038950FM-12+000599999V0201401N006210075019N0040001N1+02481+01851102031ADDGF108991051051008001021999MA1999999101971MD1999999+0211REMSYN070AAXX  27184 83398 32596 81412 10248 20185 30197 40203 8552/ 333 58021;
0168833980999992008062800004-15667-038950FM-12+000599999V0201801N007210075019N0010001N1+02121+01891102291ADDGF108991051051008001021999KA1240M+02661MA1999999102231MD1999999+0271REMSYN088AAXX  28004 83398 32594 81814 10212 20189 30223 40229 8552/ 333 10266 29080 55023 58027;
0201833980999992008062812004-15667-038950FM-12+000599999V0201401N004110450019N0040001N1+02271+02061102341ADDAA124004191AY161061AY221061GF107991041051008001021001KA1240N+01881MA1999999102281MD1999999+0171MW1021REMSYN088AAXX  28124 83398 21596 71408 10227 20206 30228 40234 70262 84520 333 20188 58017 60044;
0182833980999992008062818004-15667-038950FM-12+000599999V0201401N003110075019N0040001N1+02421+01991102081ADDAA106004191AY161061AY221061GF108991051051008001021999MA1999999102021MD1999999+0051MW1021REMSYN082AAXX  28184 83398 21596 81406 10242 20199 30202 40208 70262 8552/ 333 58005 60041;
0168833980999992008062900004-15667-038950FM-12+000599999V0209999C000010075019N0010001N1+02101+01781102291ADDGF108991051051008001021999KA1240M+02441MA1999999102231MD1999999+0001REMSYN088AAXX  29004 83398 32594 80000 10210 20178 30223 40229 8552/ 333 10244 29082 55011 58000;
0201833980999992008062912004-15667-038950FM-12+000599999V0201801N002110450019N0040001N1+02161+01971102281ADDAA124005191AY161061AY221061GF107991041051008001021001KA1240N+01861MA1999999102221MD1999999-0061MW1021REMSYN088AAXX  29124 83398 21596 71804 10216 20197 30222 40228 70262 84520 333 20186 59006 60054;
0182833980999992008062918004-15667-038950FM-12+000599999V0209999C000010450019N0040001N1+02451+02001101971ADDAA106000891AY151061AY211061GF107991041051008001021001MA1999999101911MD1999999-0111MW1021REMSYN082AAXX  29184 83398 21596 70000 10245 20200 30191 40197 70251 84520 333 59011 69971;
0168833980999992008063000004-15667-038950FM-12+000599999V0209999C000010450019N0010001N1+01981+01911102171ADDGF105991031051008001041001KA1240M+02561MA1999999102111MD1999999-0121REMSYN088AAXX  30004 83398 32594 50000 10198 20191 30211 40217 83540 333 10256 29089 55026 59012;
0201833980999992008063012004-15667-038950FM-12+000599999V0202301N001010075019N0040001N1+02161+02111102141ADDAA124013091AY161061AY221061GF108991051051008001021999KA1240N+01881MA1999999102081MD1999999-0141MW1021REMSYN088AAXX  30124 83398 21596 82302 10216 20211 30208 40214 70262 8552/ 333 20188 59014 60134;
0137833980999992008063018004-15667-038950FM-12+000599999V0200501N003110450019N0040001N1+02441+02171101841ADDGF107991041051008001021001MA1999999101781MD1999999-0121REMSYN070AAXX  30184 83398 32596 70506 10244 20217 30178 40184 84520 333 59012;
0168833980999992008070100004-15667-038950FM-12+000599999V0200501N002110450019N0010001N1+02421+02091102081ADDGF106991041051008001021001KA1240M+02661MA1999999102021MD1999999-0091REMSYN088AAXX  01004 83398 32594 60504 10242 20209 30202 40208 84520 333 10266 29087 55000 59009;
0201833980999992008070112004-15667-038950FM-12+000599999V0200501N003110450019N0040001N1+02501+01941102201ADDAA124023991AY161061AY221061GF106991041051008001021001KA1240N+02001MA1999999102141MD1999999+0061MW1021REMSYN088AAXX  01124 83398 21596 60506 10250 20194 30214 40220 70262 84520 333 20200 58006 60244;
0137833980999992008070118004-15667-038950FM-12+000599999V0200901N002110450019N0040001N1+02601+01921102001ADDGF106991041051008001021001MA1999999101941MD1999999+0161REMSYN070AAXX  01184 83398 32596 60904 10260 20192 30194 40200 84520 333 58016;
0168833980999992008070200004-15667-038950FM-12+000599999V0209999C000010450019N0010001N1+02381+01911102201ADDGF106991041051008001021001KA1240M+02741MA1999999102141MD1999999+0121REMSYN088AAXX  02004 83398 32594 60000 10238 20191 30214 40220 84520 333 10274 29072 55056 58012;
0156833980999992008070212004-15667-038950FM-12+000599999V0209999C000010075019N0040001N1+02241+02091102281ADDGF107991051051008001021001KA1240N+01861MA1999999102221MD1999999+0081REMSYN076AAXX  02124 83398 32596 70000 10224 20209 30222 40228 85520 333 20186 58008;
0137833980999992008070218004-15667-038950FM-12+000599999V0200501N003110450019N0040001N1+02541+02091102001ADDGF106991041051008001021001MA1999999101941MD1999999+0001REMSYN070AAXX  02184 83398 32596 60506 10254 20209 30194 40200 84520 333 58000;
0168833980999992008070300004-15667-038950FM-12+000599999V0209999C000010450019N0010001N1+02061+01981102151ADDGF106991041051008001021001KA1240M+02721MA1999999102091MD1999999-0051REMSYN088AAXX  03004 83398 32594 60000 10206 20198 30209 40215 84520 333 10272 29089 55039 59005;
0201833980999992008070312004-15667-038950FM-12+000599999V0201401N003110075019N0040001N1+02161+02081102171ADDAA124008991AY161061AY221061GF108991051071008001021999KA1240N+01861MA1999999102111MD1999999-0111MW1521REMSYN088AAXX  03124 83398 21596 81406 10216 20208 30211 40217 75262 8572/ 333 20186 59011 60094;
0182833980999992008070318004-15667-038950FM-12+000599999V0200501N003110450019N0040001N1+02441+02131101811ADDAA106003091AY161061AY221061GF106991041051008001021001MA1999999101751MD1999999-0191MW1021REMSYN082AAXX  03184 83398 21596 60506 10244 20213 30175 40181 70262 84520 333 59019 60031;
0213833980999992008070400004-15667-038950FM-12+000599999V0209999C000010075019N0010001N1+02021+01951102001ADDAA106005191AY161061AY221061GF108991051051008001021999KA1240M+02681MA1999999101941MD1999999-0151MW1021REMSYN100AAXX  04004 83398 21594 80000 10202 20195 30194 40200 70262 8552/ 333 10268 29093 55015 59015 60051;
0201833980999992008070412004-15667-038950FM-12+000599999V0209999C000010075019N0040001N1+02201+02011101931ADDAA124015091AY161061AY221061GF107991051051008001021001KA1240N+01821MA1999999101871MD1999999-0241MW1021REMSYN088AAXX  04124 83398 21596 70000 10220 20201 30187 40193 70262 85520 333 20182 59024 60154;
0137833980999992008070418004-15667-038950FM-12+000599999V0200501N002110450019N0040001N1+02381+02111101701ADDGF106991041051008001021001MA1999999101641MD1999999-0111REMSYN070AAXX  04184 83398 32596 60504 10238 20211 30164 40170 84520 333 59011;
0168833980999992008070500004-15667-038950FM-12+000599999V0209999C000010450019N0010001N1+02121+02021101811ADDGF105991031051008001021001KA1240M+02601MA1999999101751MD1999999-0191REMSYN088AAXX  05004 83398 32594 50000 10212 20202 30175 40181 83520 333 10260 29091 55029 59019;
0156833980999992008070512004-15667-038950FM-12+000599999V0201401N003110450019N0040001N1+02261+02111101681ADDGF106991041051008001021001KA1240N+01921MA1999999101621MD1999999-0251REMSYN076AAXX  05124 83398 32596 61406 10226 20211 30162 40168 84520 333 20192 59025;
0137833980999992008070518004-15667-038950FM-12+000599999V0201401N003110450019N0040001N1+02601+01991101881ADDGF106991041051008001021001MA1999999101821MD1999999+0181REMSYN070AAXX  05184 83398 32596 61406 10260 20199 30182 40188 84520 333 58018;
0168833980999992008070600004-15667-038950FM-12+000599999V0200901N001010450019N0010001N1+02141+01991102111ADDGF105991031051008001021001KA1240M+02741MA1999999102051MD1999999+0301REMSYN088AAXX  06004 83398 32594 50902 10214 20199 30205 40211 83520 333 10274 29086 55024 58030;
0156833980999992008070612004-15667-038950FM-12+000599999V0201501N003110450019N0040001N1+02341+02011102271ADDGF105991031021008001041001KA1240N+01841MA1999999102211MD1999999+0591REMSYN076AAXX  06124 83398 32596 51506 10234 20201 30221 40227 83240 333 20184 58059;
0137833980999992008070618004-15667-038950FM-12+000599999V0201401N004110450019N0040001N1+02541+01811102021ADDGF105991031021008001041001MA1999999101961MD1999999+0141REMSYN070AAXX  06184 83398 32596 51408 10254 20181 30196 40202 83240 333 58014;
0168833980999992008070700004-15667-038950FM-12+000599999V0209999C000012200019N0010001N1+01861+01761102241ADDGF104991041011008001001001KA1240M+02781MA1999999102181MD1999999+0131REMSYN088AAXX  07004 83398 32594 40000 10186 20176 30218 40224 84100 333 10278 29084 55063 58013;
0156833980999992008070712004-15667-038950FM-12+000599999V0201801N002112200019N0040001N1+02181+01701102271ADDGF102991011011008001041001KA1240N+01601MA1999999102211MD1999999+0001REMSYN076AAXX  07124 83398 32596 21804 10218 20170 30221 40227 81140 333 20160 58000;
0137833980999992008070718004-15667-038950FM-12+000599999V0201401N010812200019N0040001N1+02461+01351102031ADDGF103991021011008001041001MA1999999101971MD1999999+0011REMSYN070AAXX  07184 83398 32596 31421 10246 20135 30197 40203 82140 333 58001;
0168833980999992008070800004-15667-038950FM-12+000599999V0209999C000012200019N0010001N1+01741+01611102161ADDGF102991011011008001041001KA1240M+02601MA1999999102101MD1999999-0081REMSYN088AAXX  08004 83398 32594 20000 10174 20161 30210 40216 81140 333 10260 29078 55070 59008;
0156833980999992008070812004-15667-038950FM-12+000599999V0201801N003112200019N0040001N1+02041+01521102171ADDGF103991021011008001041001KA1240N+01411MA1999999102111MD1999999-0101REMSYN076AAXX  08124 83398 32596 31806 10204 20152 30211 40217 82140 333 20141 59010;
0137833980999992008070818004-15667-038950FM-12+000599999V0200901N003112200019N0040001N1+02521+01461101881ADDGF102991011011008001041001MA1999999101821MD1999999+0151REMSYN070AAXX  08184 83398 32596 20906 10252 20146 30182 40188 81140 333 58015;
0168833980999992008070900004-15667-038950FM-12+000599999V0209999C000010450019N0010001N1+01921+01701102051ADDGF107991041021008001041001KA1240M+02701MA1999999101991MD1999999-0111REMSYN088AAXX  09004 83398 32594 70000 10192 20170 30199 40205 84240 333 10270 29074 55072 59011;
0201833980999992008070912004-15667-038950FM-12+000599999V0209999C000012200019N0040001N1+02261+01961102091ADDAA124000591AY151061AY211061GF103991021051008001041001KA1240N+01621MA1999999102031MD1999999-0081MW1021REMSYN088AAXX  09124 83398 21596 30000 10226 20196 30203 40209 70251 82540 333 20162 59008 69964;
0137833980999992008070918004-15667-038950FM-12+000599999V0200901N003110450019N0040001N1+02541+02001101861ADDGF106991031051008001041001MA1999999101801MD1999999-0021REMSYN070AAXX  09184 83398 32596 60906 10254 20200 30180 40186 83540 333 59002;
0168833980999992008071000004-15667-038950FM-12+000599999V0209999C000010075019N0010001N1+02051+01881102131ADDGF108991051051008001021999KA1240M+02661MA1999999102071MD1999999+0081REMSYN088AAXX  10004 83398 32594 80000 10205 20188 30207 40213 8552/ 333 10266 29084 55076 58008;
0156833980999992008071012004-15667-038950FM-12+000599999V0209999C000010075019N0040001N1+02241+02071102201ADDGF108991051051008001021999KA1240N+01961MA1999999102141MD1999999+0111REMSYN076AAXX  10124 83398 32596 80000 10224 20207 30214 40220 8552/ 333 20196 58011;
0182833980999992008071018004-15667-038950FM-12+000599999V0209999C000010075019N0040001N1+02541+02021102001ADDAA106000891AY151061AY211061GF108991051051008001021999MA1999999101941MD1999999+0141MW1021REMSYN082AAXX  10184 83398 21596 80000 10254 20202 30194 40200 70251 8552/ 333 58014 69981;
0213833980999992008071100004-15667-038950FM-12+000599999V0209999C000010075019N0010001N1+02041+01941102251ADDAA106007991AY161061AY221061GF108991051051008001021999KA1240M+02661MA1999999102191MD1999999+0121MW1021REMSYN100AAXX  11004 83398 21594 80000 10204 20194 30219 40225 70262 8552/ 333 10266 29088 55020 58012 60081;
0201833980999992008071112004-15667-038950FM-12+000599999V0201801N002110450019N0040001N1+02381+02151102371ADDAA124008991AY151061AY211061GF105991031021008001041001KA1240N+01881MA1999999102311MD1999999+0171MW1021REMSYN088AAXX  11124 83398 21596 51804 10238 20215 30231 40237 70251 83240 333 20188 58017 60094;
0137833980999992008071118004-15667-038950FM-12+000599999V0201401N002112200019N0040001N1+02601+01941102141ADDGF103991021011008001041001MA1999999102081MD1999999+0141REMSYN070AAXX  11184 83398 32596 31404 10260 20194 30208 40214 82140 333 58014;
0168833980999992008071200004-15667-038950FM-12+000599999V0209999C000012200019N0010001N1+02041+01941102321ADDGF104991021021008001041001KA1240M+02721MA1999999102261MD1999999+0071REMSYN088AAXX  12004 83398 32594 40000 10204 20194 30226 40232 82240 333 10272 29085 55071 58007;
0156833980999992008071212004-15667-038950FM-12+000599999V0201801N003110075019N0040001N1+02101+01951102301ADDGF107991051051008001021001KA1240N+01861MA1999999102241MD1999999-0071REMSYN076AAXX  12124 83398 32596 71806 10210 20195 30224 40230 85520 333 20186 59007;
0137833980999992008071218004-15667-038950FM-12+000599999V0201801N004112200019N0040001N1+02541+01681101951ADDGF104991041021008001001001MA1999999101891MD1999999-0181REMSYN070AAXX  12184 83398 32596 41808 10254 20168 30189 40195 84200 333 59018;
0168833980999992008071300004-15667-038950FM-12+000599999V0201401N002112200019N0010001N1+01961+01811102101ADDGF104991021011008001041001KA1240M+02681MA1999999102041MD1999999-0221REMSYN088AAXX  13004 83398 32594 41404 10196 20181 30204 40210 82140 333 10268 29083 55053 59022;
0156833980999992008071312004-15667-038950FM-12+000599999V0201801N004110075019N0040001N1+02201+01991102051ADDGF105991051051008001001001KA1240N+01721MA1999999101991MD1999999-0251REMSYN076AAXX  13124 83398 32596 51808 10220 20199 30199 40205 85500 333 20172 59025;
0137833980999992008071318004-15667-038950FM-12+000599999V0201801N003110075019N0040001N1+02141+01881101881ADDGF107991051051008001021001MA1999999101821MD1999999-0071REMSYN070AAXX  13184 83398 32596 71806 10214 20188 30182 40188 85520 333 59007;
0168833980999992008071400004-15667-038950FM-12+000599999V0201801N003110075019N0010001N1+02021+01951102051ADDGF107991051051008001021001KA1240M+02661MA1999999101991MD1999999-0051REMSYN088AAXX  14004 83398 32594 71806 10202 20195 30199 40205 85520 333 10266 29091 55048 59005;
0201833980999992008071412004-15667-038950FM-12+000599999V0201801N002110075019N0040001N1+02081+01961102121ADDAA124009991AY161061AY221061GF107991051051008001021001KA1240N+01821MA1999999102061MD1999999+0071MW1021REMSYN088AAXX  14124 83398 21596 71804 10208 20196 30206 40212 70262 85520 333 20182 58007 60104;
0137833980999992008071418004-15667-038950FM-12+000599999V0200901N003112200019N0040001N1+02561+02021101871ADDGF104991041051008001001001MA1999999101811MD1999999-0011REMSYN070AAXX  14184 83398 32596 40906 10256 20202 30181 40187 84500 333 59001;
0168833980999992008071500004-15667-038950FM-12+000599999V0209999C000012200019N0010001N1+02041+01941102161ADDGF104991041051008001001001KA1240M+02661MA1999999102101MD1999999+0111REMSYN088AAXX  15004 83398 32594 40000 10204 20194 30210 40216 84500 333 10266 29088 55069 58011;
0201833980999992008071512004-15667-038950FM-12+000599999V0201801N002112200019N0040001N1+02221+02031102371ADDAA124005191AY161061AY221061GF104991041051008001001001KA1240N+01801MA1999999102311MD1999999+0251MW1021REMSYN088AAXX  15124 83398 21596 41804 10222 20203 30231 40237 70262 84500 333 20180 58025 60054;
0137833980999992008071518004-15667-038950FM-12+000599999V0200901N003110450019N0040001N1+02541+01681102141ADDGF105991031021008001041001MA1999999102081MD1999999+0271REMSYN070AAXX  15184 83398 32596 50906 10254 20168 30208 40214 83240 333 58027;
0168833980999992008071600004-15667-038950FM-12+000599999V0209999C000012200019N0010001N1+01901+01831102301ADDGF104991041051008001001001KA1240M+02681MA1999999102241MD1999999+0141REMSYN088AAXX  16004 83398 32594 40000 10190 20183 30224 40230 84500 333 10268 29085 55068 58014;
0201833980999992008071612004-15667-038950FM-12+000599999V0209999C000010450019N0040001N1+02161+02111102391ADDAA124004191AY161061AY221061GF106991041051008001021001KA1240N+01821MA1999999102331MD1999999+0021MW1021REMSYN088AAXX  16124 83398 21596 60000 10216 20211 30233 40239 70262 84520 333 20182 58002 60044;
0137833980999992008071618004-15667-038950FM-12+000599999V0201401N003110075019N0040001N1+02501+01701102161ADDGF105991051021008001001001MA1999999102101MD1999999+0021REMSYN070AAXX  16184 83398 32596 51406 10250 20170 30210 40216 85200 333 58002;
0168833980999992008071700004-15667-038950FM-12+000599999V0209999C000012200019N0010001N1+01861+01731102291ADDGF103991031051008001001001KA1240M+02621MA1999999102231MD1999999-0011REMSYN088AAXX  17004 83398 32594 30000 10186 20173 30223 40229 83500 333 10262 29086 55053 59001;
0156833980999992008071712004-15667-038950FM-12+000599999V0201801N002110075019N0040001N1+01961+01811102241ADDGF107991051051008001021001KA1240N+01521MA1999999102181MD1999999-0151REMSYN076AAXX  17124 83398 32596 71804 10196 20181 30218 40224 85520 333 20152 59015;
0137833980999992008071718004-15667-038950FM-12+000599999V0201401N005110450019N0200001N1+02521+01861101831ADDGF108991031051012501041001MA1999999101771MD1999999-0331REMSYN070AAXX  17184 83398 32698 81410 10252 20186 30177 40183 83540 333 59033;
0168833980999992008071800004-15667-038950FM-12+000599999V0209999C000010450019N0010001N1+01881+01751102091ADDGF105991021011008001041001KA1240M+02641MA1999999102031MD1999999-0201REMSYN088AAXX  18004 83398 32594 50000 10188 20175 30203 40209 82140 333 10264 29086 55041 59020;
0156833980999992008071812004-15667-038950FM-12+000599999V0201801N002112200019N0040001N1+02241+02071102081ADDGF103991031021008001001001KA1240N+01681MA1999999102021MD1999999-0161REMSYN076AAXX  18124 83398 32596 31804 10224 20207 30202 40208 83200 333 20168 59016;
0137833980999992008071818004-15667-038950FM-12+000599999V0200901N004110450019N0040001N1+02521+01981101721ADDGF105991031021008001041001MA1999999101661MD1999999-0111REMSYN070AAXX  18184 83398 32596 50908 10252 20198 30166 40172 83240 333 59011;
0168833980999992008071900004-15667-038950FM-12+000599999V0209999C000012200019N0010001N1+01961+01771101941ADDGF103991031011008001001001KA1240M+02641MA1999999101881MD1999999-0151REMSYN088AAXX  19004 83398 32594 30000 10196 20177 30188 40194 83100 333 10264 29085 55081 59015;
0156833980999992008071912004-15667-038950FM-12+000599999V0209999C000012200019N0040001N1+02341+02031102091ADDGF103991021011008001041001KA1240N+01711MA1999999102031MD1999999+0011REMSYN076AAXX  19124 83398 32596 30000 10234 20203 30203 40209 82140 333 20171 58001;
0137833980999992008071918004-15667-038950FM-12+000599999V0200501N003110450019N0040001N1+02561+02021101841ADDGF105991031021008001041001MA1999999101781MD1999999+0121REMSYN070AAXX  19184 83398 32596 50506 10256 20202 30178 40184 83240 333 58012;
0168833980999992008072000004-15667-038950FM-12+000599999V0209999C000010450019N0010001N1+02301+01811102031ADDGF106991031051008001041001KA1240M+02691MA1999999101971MD1999999+0091REMSYN088AAXX  20004 83398 32594 60000 10230 20181 30197 40203 83540 333 10269 29076 55081 58009;
0156833980999992008072012004-15667-038950FM-12+000599999V0201801N002110075019N0040001N1+02161+01881102201ADDGF108991051051008001021999KA1240N+01631MA1999999102141MD1999999+0111REMSYN076AAXX  20124 83398 32596 81804 10216 20188 30214 40220 8552/ 333 20163 58011;
0137833980999992008072018004-15667-038950FM-12+000599999V0200501N002112200019N0040001N1+02561+01501101991ADDGF102991011011008001041001MA1999999101931MD1999999+0151REMSYN070AAXX  20184 83398 32596 20504 10256 20150 30193 40199 81140 333 58015;
0168833980999992008072100004-15667-038950FM-12+000599999V0209999C000012200019N0010001N1+01821+01691102121ADDGF102991011011008001041001KA1240M+02731MA1999999102061MD1999999+0091REMSYN088AAXX  21004 83398 32594 20000 10182 20169 30206 40212 81140 333 10273 29080 55049 58009;
0156833980999992008072112004-15667-038950FM-12+000599999V0201801N002110075019N0040001N1+01941+01611102241ADDGF108991051051008001021999KA1240N+01541MA1999999102181MD1999999+0041REMSYN076AAXX  21124 83398 32596 81804 10194 20161 30218 40224 8552/ 333 20154 58004;
0137833980999992008072118004-15667-038950FM-12+000599999V0200501N003112200019N0040001N1+02621+01501101951ADDGF102991011011008001041001MA1999999101891MD1999999-0041REMSYN070AAXX  21184 83398 32596 20506 10262 20150 30189 40195 81140 333 59004;
0168833980999992008072200004-15667-038950FM-12+000599999V0209999C000010450019N0010001N1+01921+01791102121ADDGF106991031021008001041001KA1240M+02721MA1999999102061MD1999999+0001REMSYN088AAXX  22004 83398 32594 60000 10192 20179 30206 40212 83240 333 10272 29079 55046 58000;
0156833980999992008072212004-15667-038950FM-12+000599999V0209999C000010450019N0040001N1+02121+01861102211ADDGF107991041051008001021001KA1240N+01641MA1999999102151MD1999999-0031REMSYN076AAXX  22124 83398 32596 70000 10212 20186 30215 40221 84520 333 20164 59003;
0137833980999992008072218004-15667-038950FM-12+000599999V0200501N005110075019N0040001N1+02381+01951101951ADDGF108991051051008001021999MA1999999101891MD1999999+0001REMSYN070AAXX  22184 83398 32596 80510 10238 20195 30189 40195 8552/ 333 58000;
0213833980999992008072300004-15667-038950FM-12+000599999V0203601N001010075019N0010001N1+02061+02011102141ADDAA106000591AY151061AY211061GF108991051051008001021999KA1240M+02711MA1999999102081MD1999999+0021MW1021REMSYN100AAXX  23004 83398 21594 83602 10206 20201 30208 40214 70251 8552/ 333 10271 29089 55025 58002 69941;
0173833980999992008072312004-15667-038950FM-12+000599999V0209999C000012200019N0040001N1+02311+02011102071ADDAA124000591GF103991021011008001041001KA1240N+01811MA1999999102011MD1999999-0141REMSYN082AAXX  23124 83398 22596 30000 10231 20201 30201 40207 82140 333 20181 59014 69944;
0137833980999992008072318004-15667-038950FM-12+000599999V0203601N002112200019N0040001N1+02501+01941102251ADDGF102991011011008001041001MA1999999102191MD1999999+0301REMSYN070AAXX  23184 83398 32596 23604 10250 20194 30219 40225 81140 333 58030;
0168833980999992008072400004-15667-038950FM-12+000599999V0209999C000012200019N0010001N1+01981+01811101851ADDGF102991011011008001041001KA1240M+02691MA1999999101791MD1999999-0291REMSYN088AAXX  24004 83398 32594 20000 10198 20181 30179 40185 81140 333 10269 29083 55076 59029;
0156833980999992008072412004-15667-038950FM-12+000599999V0209999C000012200019N0040001N1+02341+02011101891ADDGF102991011011008001041001KA1240N+01551MA1999999101831MD1999999-0181REMSYN076AAXX  24124 83398 32596 20000 10234 20201 30183 40189 81140 333 20155 59018;
0137833980999992008072418004-15667-038950FM-12+000599999V0200501N003112200019N0040001N1+02521+01821101701ADDGF102991011011008001041001MA1999999101641MD1999999-0551REMSYN070AAXX  24184 83398 32596 20506 10252 20182 30164 40170 81140 333 59055;
0168833980999992008072500004-15667-038950FM-12+000599999V0209999C000012200019N0010001N1+02261+01691101921ADDGF102991011011008001041001KA1240M+02691MA1999999101861MD1999999+0071REMSYN088AAXX  25004 83398 32594 20000 10226 20169 30186 40192 81140 333 10269 29072 55083 58007;
0156833980999992008072512004-15667-038950FM-12+000599999V0209999C000012200019N0040001N1+02201+01841101961ADDGF101991011011008001001001KA1240N+01451MA1999999101901MD1999999+0071REMSYN076AAXX  25124 83398 32596 10000 10220 20184 30190 40196 81100 333 20145 58007;
0137833980999992008072518004-15667-038950FM-12+000599999V0200501N002112200019N0040001N1+02521+01661101671ADDGF102991011011008001041001MA1999999101611MD1999999-0031REMSYN070AAXX  25184 83398 32596 20504 10252 20166 30161 40167 81140 333 59003;
0168833980999992008072600004-15667-038950FM-12+000599999V0209999C000012200019N0010001N1+01821+01691101901ADDGF102991011011008001041001KA1240M+02651MA1999999101841MD1999999-0021REMSYN088AAXX  26004 83398 32594 20000 10182 20169 30184 40190 81140 333 10265 29081 55083 59002;
0156833980999992008072612004-15667-038950FM-12+000599999V0201801N002119999999N0040001N1+02161+01881102001ADDGF106991031001008001041011KA1240N+01381MA1999999101941MD1999999+0041REMSYN076AAXX  26124 83398 32596 61804 10216 20188 30194 40200 83041 333 20138 58004;
0137833980999992008072618004-15667-038950FM-12+000599999V0200901N002110450019N0040001N1+02641+01851101951ADDGF105991031021008001041001MA1999999101891MD1999999+0281REMSYN070AAXX  26184 83398 32596 50904 10264 20185 30189 40195 83240 333 58028;
0168833980999992008072700004-15667-038950FM-12+000599999V0209999C000012200019N0010001N1+01921+01821102191ADDGF103991031011008001001001KA1240M+02701MA1999999102131MD1999999-0291REMSYN088AAXX  27004 83398 32594 30000 10192 20182 30213 40219 83100 333 10270 29084 55081 59029;
0201833980999992008072712004-15667-038950FM-12+000599999V0201801N002110075019N0040001N1+02181+02111102331ADDAA124006191AY161061AY221061GF107991051051008001021001KA1240N+01821MA1999999102271MD1999999+0331MW1501REMSYN088AAXX  27124 83398 21596 71804 10218 20211 30227 40233 75062 85520 333 20182 58033 60064;
0182833980999992008072718004-15667-038950FM-12+000599999V0201401N003110075019N0040001N1+02461+01971102131ADDAA106002091AY161061AY221061GF107991051051008001021001MA1999999102071MD1999999+0181MW1021REMSYN082AAXX  27184 83398 21596 71406 10246 20197 30207 40213 70262 85520 333 58018 60021;
0168833980999992008072800004-15667-038950FM-12+000599999V0209999C000010075019N0010001N1+02181+01901102281ADDGF107991051051008001021001KA1240M+02581MA1999999102221MD1999999+0091REMSYN088AAXX  28004 83398 32594 70000 10218 20190 30222 40228 85520 333 10258 29085 55040 58009;
0173833980999992008072812004-15667-038950FM-12+000599999V0201801N002112200019N0040001N1+02261+01751102441ADDAA124002091GF104991031011008001041001KA1240N+01761MA1999999102381MD1999999+0111REMSYN082AAXX  28124 83398 22596 41804 10226 20175 30238 40244 83140 333 20176 58011 60024;
0137833980999992008072818004-15667-038950FM-12+000599999V0200901N002110450019N0040001N1+02501+01771102061ADDGF105991031021008001041001MA1999999102011MD1999999-0061REMSYN070AAXX  28184 83398 32596 50904 10250 20177 30201 40206 83240 333 59006;
0168833980999992008072900004-15667-038950FM-12+000599999V0209999C000012200019N0010001N1+01801+01671102261ADDGF103991031011008001001001KA1240M+02701MA1999999102201MD1999999-0021REMSYN088AAXX  29004 83398 32594 30000 10180 20167 30220 40226 83100 333 10270 29080 55081 59002;
0156833980999992008072912004-15667-038950FM-12+000599999V0209999C000010450019N0040001N1+02181+01901102361ADDGF106991041051008001021001KA1240N+01461MA1999999102301MD1999999-0081REMSYN076AAXX  29124 83398 32596 60000 10218 20190 30230 40236 84520 333 20146 59008;
0137833980999992008072918004-15667-038950FM-12+000599999V0200901N003110075019N0040001N1+02501+01941101921ADDGF107991051051008001021001MA1999999101861MD1999999-0151REMSYN070AAXX  29184 83398 32596 70906 10250 20194 30186 40192 85520 333 59015;
0168833980999992008073000004-15667-038950FM-12+000599999V0200901N001010075019N0010001N1+01941+01871102041ADDGF107991051051008001021001KA1240M+02641MA1999999101981MD1999999-0221REMSYN088AAXX  30004 83398 32594 70902 10194 20187 30198 40204 85520 333 10264 29087 55047 59022;
0201833980999992008073012004-15667-038950FM-12+000599999V0209999C000012200019N0040001N1+02381+02111102051ADDAA124004191AY161061AY221061GF104991041051008001001001KA1240N+01781MA1999999101991MD1999999-0311MW1021REMSYN088AAXX  30124 83398 21596 40000 10238 20211 30199 40205 70262 84500 333 20178 59031 60044;
0137833980999992008073018004-15667-038950FM-12+000599999V0209999C000010450019N0040001N1+02501+02111101691ADDGF105991031051008001041001MA1999999101661MD1999999-0201REMSYN070AAXX  30184 83398 32596 50000 10250 20211 30166 40169 83540 333 59020;
0213833980999992008073100004-15667-038950FM-12+000599999V0209999C000010075019N0010001N1+02121+01981101911ADDAA106003091AY161061AY221061GF107991051051008001021001KA1240M+02641MA1999999101851MD1999999-0031MW1021REMSYN100AAXX  31004 83398 21594 70000 10212 20198 30185 40191 70262 85520 333 10264 29087 55074 59003 60031;
0201833980999992008073112004-15667-038950FM-12+000599999V0209999C000010450019N0040001N1+02281+02011102021ADDAA124007991AY161061AY221061GF105991031051008001021001KA1240N+01681MA1999999101961MD1999999-0031MW1021REMSYN088AAXX  31124 83398 21596 50000 10228 20201 30196 40202 70262 83520 333 20168 59003 60084;
0137833980999992008073118004-15667-038950FM-12+000599999V0200901N003110450019N0040001N1+02521+02091101771ADDGF106991041051008001021001MA1999999101711MD1999999+0051REMSYN070AAXX  31184 83398 32596 60906 10252 20209 30171 40177 84520 333 58005;
0168833980999992008080100004-15667-038950FM-12+000599999V0200901N001010450019N0010001N1+02361+02071101981ADDGF105991031051008001021001KA1240M+02681MA1999999101921MD1999999+0071REMSYN088AAXX  01004 83398 32594 50902 10236 20207 30192 40198 83520 333 10268 29083 55079 58007;
0156833980999992008080112004-15667-038950FM-12+000599999V0200501N002110450019N0040001N1+02521+01911101991ADDGF106991031051008001021011KA1240N+01801MA1999999101931MD1999999-0031REMSYN076AAXX  01124 83398 32596 60504 10252 20191 30193 40199 83521 333 20180 59003;
0137833980999992008080118004-15667-038950FM-12+000599999V0200901N003110075019N0040001N1+02541+01811101701ADDGF107991051051008001021001MA1999999101641MD1999999-0071REMSYN070AAXX  01184 83398 32596 70906 10254 20181 30164 40170 85520 333 59007;
0168833980999992008080200004-15667-038950FM-12+000599999V0200901N004110075019N0010001N1+02341+02011102021ADDGF106991061051008001001001KA1240M+02701MA1999999101961MD1999999+0061REMSYN088AAXX  02004 83398 32594 60908 10234 20201 30196 40202 86500 333 10270 29074 55075 58006;
0201833980999992008080212004-15667-038950FM-12+000599999V0209999C000010075019N0040001N1+02261+02141101871ADDAA124006191AY161061AY221061GF108991051051008001021999KA1240N+01981MA1999999101811MD1999999-0121MW1021REMSYN088AAXX  02124 83398 21596 80000 10226 20214 30181 40187 70262 8552/ 333 20198 59012 60064;
0182833980999992008080218004-15667-038950FM-12+000599999V0203601N004110450019N0040001N1+02541+02091101441ADDAA106001091AY161061AY221061GF106991041051008001021001MA1999999101391MD1999999-0251MW1021REMSYN082AAXX  02184 83398 21596 63608 10254 20209 30139 40144 70262 84520 333 59025 60011;
0168833980999992008080300004-15667-038950FM-12+000599999V0209999C000010075019N0010001N1+02241+02141101701ADDGF107991051051008001021001KA1240M+02621MA1999999101641MD1999999-0021REMSYN088AAXX  03004 83398 32594 70000 10224 20214 30164 40170 85520 333 10262 29089 55032 59002;
0201833980999992008080312004-15667-038950FM-12+000599999V0209999C000010075019N0040001N1+02441+02231101701ADDAA124003091AY161061AY221061GF108991051051008001021999KA1240N+02021MA1999999101641MD1999999-0171MW1021REMSYN088AAXX  03124 83398 21596 80000 10244 20223 30164 40170 70262 8552/ 333 20202 59017 60034;
0137833980999992008080318004-15667-038950FM-12+000599999V0203201N008712200019N0040001N1+02581+02011101311ADDGF102991011011008001041001MA1999999101261MD1999999-0131REMSYN070AAXX  03184 83398 32596 23217 10258 20201 30126 40131 81140 333 59013;
0168833980999992008080400004-15667-038950FM-12+000599999V0209999C000012200019N0010001N1+02271+02061101471ADDGF102991011011008001041001KA1240M+02711MA1999999101421MD1999999-0221REMSYN088AAXX  04004 83398 32594 20000 10227 20206 30142 40147 81140 333 10271 29084 55067 59022;
0156833980999992008080412004-15667-038950FM-12+000599999V0203201N002112200019N0040001N1+02601+02141101521ADDGF102991011011008001041001KA1240N+01831MA1999999101471MD1999999-0171REMSYN076AAXX  04124 83398 32596 23204 10260 20214 30147 40152 81140 333 20183 59017;
0137833980999992008080418004-15667-038950FM-12+000599999V0203601N005112200019N0040001N1+02681+02131101301ADDGF101991011001008001041001MA1999999101251MD1999999-0011REMSYN070AAXX  04184 83398 32596 13610 10268 20213 30125 40130 81040 333 59001;
0168833980999992008080500004-15667-038950FM-12+000599999V0209999C000012200019N0010001N1+02391+02251101711ADDGF102991011011008001041001KA1240M+02851MA1999999101651MD1999999+0231REMSYN088AAXX  05004 83398 32594 20000 10239 20225 30165 40171 81140 333 10285 29083 55084 58023;
0156833980999992008080512004-15667-038950FM-12+000599999V0203601N004110450019N0040001N1+02621+02211101971ADDGF106991031051008001021001KA1240N+02201MA1999999101911MD1999999+0441REMSYN076AAXX  05124 83398 32596 63608 10262 20221 30191 40197 83520 333 20220 58044;
0168833980999992008080600004-15667-038950FM-12+000599999V0200501N002112200019N0010001N1+02381+01991101891ADDGF102991011011008001041001KA1240M+02751MA1999999101831MD1999999+0181REMSYN088AAXX  06004 83398 32594 20504 10238 20199 30183 40189 81140 333 10275 29077 55076 58018;
0156833980999992008080612004-15667-038950FM-12+000599999V0209999C000010075019N0040001N1+02321+02131101981ADDGF108991051051008001021999KA1240N+01831MA1999999101921MD1999999+0011REMSYN076AAXX  06124 83398 32596 80000 10232 20213 30192 40198 8552/ 333 20183 58001;
0137833980999992008080618004-15667-038950FM-12+000599999V0200501N002112200019N0040001N1+02581+01851101731ADDGF103991021011008001041001MA1999999101671MD1999999-0041REMSYN070AAXX  06184 83398 32596 30504 10258 20185 30167 40173 82140 333 59004;
0168833980999992008080700004-15667-038950FM-12+000599999V0209999C000010450019N0010001N1+02181+01971101921ADDGF107991041051008001021001KA1240M+02701MA1999999101861MD1999999+0031REMSYN088AAXX  07004 83398 32594 70000 10218 20197 30186 40192 84520 333 10270 29082 55044 58003;
0156833980999992008080712004-15667-038950FM-12+000599999V0200501N002110075019N0040001N1+02561+01801101971ADDGF108991051051008001021001KA1240N+01941MA1999999101911MD1999999-0011REMSYN076AAXX  07124 83398 32596 80504 10256 20180 30191 40197 85520 333 20194 59001;
0137833980999992008080718004-15667-038950FM-12+000599999V0200501N001012200019N0040001N1+02581+01871101671ADDGF104991021011008001041001MA1999999101611MD1999999-0061REMSYN070AAXX  07184 83398 32596 40502 10258 20187 30161 40167 82140 333 59006;
0156833980999992008080812004-15667-038950FM-12+000599999V0209999C000012200019N0040001N1+02401+02091101881ADDGF104991021021008001041001KA1240N+01681MA1999999101821MD1999999-0091REMSYN076AAXX  08124 83398 32596 40000 10240 20209 30182 40188 82240 333 20168 59009;
0137833980999992008080818004-15667-038950FM-12+000599999V0200501N004112200019N0040001N1+02581+01851101621ADDGF103991021011008001041001MA1999999101561MD1999999-0051REMSYN070AAXX  08184 83398 32596 30508 10258 20185 30156 40162 82140 333 59005;
0168833980999992008080900004-15667-038950FM-12+000599999V0209999C000012200019N0010001N1+02301+01901101841ADDGF102991011011008001041001KA1240M+02721MA1999999101781MD1999999+0031REMSYN088AAXX  09004 83398 32594 20000 10230 20190 30178 40184 81140 333 10272 29076 55081 58003;
0156833980999992008080912004-15667-038950FM-12+000599999V0209999C000010075019N0040001N1+02141+02041102061ADDGF107991051051008001021001KA1240N+01581MA1999999102001MD1999999+0181REMSYN076AAXX  09124 83398 32596 70000 10214 20204 30200 40206 85520 333 20158 58018;
0137833980999992008080918004-15667-038950FM-12+000599999V0209999C000010450019N0040001N1+02621+02031101791ADDGF106991041051008001021001MA1999999101731MD1999999+0171REMSYN070AAXX  09184 83398 32596 60000 10262 20203 30173 40179 84520 333 58017;
0168833980999992008081000004-15667-038950FM-12+000599999V0209999C000010075019N0010001N1+02381+02011102001ADDGF105991051051008001001001KA1240M+02721MA1999999101941MD1999999+0161REMSYN088AAXX  10004 83398 32594 50000 10238 20201 30194 40200 85500 333 10272 29081 55033 58016;
0156833980999992008081012004-15667-038950FM-12+000599999V0209999C000010450019N0040001N1+02421+02091102011ADDGF106991041051008001021001KA1240N+01781MA1999999101951MD1999999-0051REMSYN076AAXX  10124 83398 32596 60000 10242 20209 30195 40201 84520 333 20178 59005;
0137833980999992008081018004-15667-038950FM-12+000599999V0203601N003110450019N0040001N1+02641+01801101751ADDGF105991031021008001041001MA1999999101691MD1999999-0041REMSYN070AAXX  10184 83398 32596 53606 10264 20180 30169 40175 83240 333 59004;
0168833980999992008081100004-15667-038950FM-12+000599999V0200501N003112200019N0010001N1+02361+01931101911ADDGF103991031011008001001001KA1240M+02821MA1999999101851MD1999999-0091REMSYN088AAXX  11004 83398 32594 30506 10236 20193 30185 40191 83100 333 10282 29075 55049 59009;
0156833980999992008081112004-15667-038950FM-12+000599999V0209999C000010450019N0040001N1+02341+02131102111ADDGF106991041051008001021001KA1240N+01641MA1999999102051MD1999999+0101REMSYN076AAXX  11124 83398 32596 60000 10234 20213 30205 40211 84520 333 20164 58010;
0137833980999992008081118004-15667-038950FM-12+000599999V0200901N003110450019N0040001N1+02661+01901101741ADDGF105991031021008001041001MA1999999101681MD1999999-0011REMSYN070AAXX  11184 83398 32596 50906 10266 20190 30168 40174 83240 333 59001;
0168833980999992008081200004-15667-038950FM-12+000599999V0209999C000010450019N0010001N1+02321+01981101991ADDGF106991041051008001041001KA1240M+02791MA1999999101931MD1999999+0081REMSYN088AAXX  12004 83398 32594 60000 10232 20198 30193 40199 84540 333 10279 29077 55070 58008;
0156833980999992008081212004-15667-038950FM-12+000599999V0209999C000010450019N0040001N1+02621+02251102051ADDGF106991041021008001041001KA1240N+01801MA1999999101991MD1999999-0061REMSYN076AAXX  12124 83398 32596 60000 10262 20225 30199 40205 84240 333 20180 59006;
0137833980999992008081218004-15667-038950FM-12+000599999V0200901N003110450019N0040001N1+02581+01921101771ADDGF106991041051008001021001MA1999999101711MD1999999+0031REMSYN070AAXX  12184 83398 32596 60906 10258 20192 30171 40177 84520 333 58003;
0168833980999992008081300004-15667-038950FM-12+000599999V0209999C000010075019N0010001N1+02401+02031102081ADDGF107991051051008001021001KA1240M+02761MA1999999102021MD1999999+0091REMSYN088AAXX  13004 83398 32594 70000 10240 20203 30202 40208 85520 333 10276 29077 55083 58009;
0201833980999992008081312004-15667-038950FM-12+000599999V0200901N002110450019N0040001N1+02541+01951102131ADDAA124000891AY151061AY221061GF107991041051008001021001KA1240N+01941MA1999999102071MD1999999+0081MW1021REMSYN088AAXX  13124 83398 21596 70904 10254 20195 30207 40213 70252 84520 333 20194 58008 69974;
0137833980999992008081318004-15667-038950FM-12+000599999V0200501N003110450019N0040001N1+02601+01871101891ADDGF106991031021008001041001MA1999999101831MD1999999+0121REMSYN070AAXX  13184 83398 32596 60506 10260 20187 30183 40189 83240 333 58012;
0168833980999992008081400004-15667-038950FM-12+000599999V0209999C000012200019N0010001N1+02321+01911102061ADDGF104991021021008001041001KA1240M+02761MA1999999102001MD1999999-0021REMSYN088AAXX  14004 83398 32594 40000 10232 20191 30200 40206 82240 333 10276 29072 55072 59002;
0156833980999992008081412004-15667-038950FM-12+000599999V0200901N003110450019N0040001N1+02601+01991102251ADDGF105991031051008001021001KA1240N+01801MA1999999102191MD1999999+0021REMSYN076AAXX  14124 83398 32596 50906 10260 20199 30219 40225 83520 333 20180 58002;
0137833980999992008081418004-15667-038950FM-12+000599999V0200901N003110075019N0040001N1+02681+01941102001ADDGF105991051051008001001001MA1999999101941MD1999999+0111REMSYN070AAXX  14184 83398 32596 50906 10268 20194 30194 40200 85500 333 58011;
0168833980999992008081500004-15667-038950FM-12+000599999V0209999C000010075019N0010001N1+02361+02051102231ADDGF105991051051008001001001KA1240M+02781MA1999999102171MD1999999+0171REMSYN088AAXX  15004 83398 32594 50000 10236 20205 30217 40223 85500 333 10278 29075 55075 58017;
0201833980999992008081512004-15667-038950FM-12+000599999V0209999C000010450019N0040001N1+02341+02241101311ADDAA124002091AY161061AY221061GF105991031051008001021001KA1240N+01781MA1999999102251MD1999999+0061MW1021REMSYN088AAXX  15124 83398 21596 50000 10234 20224 30225 40131 70262 83520 333 20178 58006 60024;
0137833980999992008081518004-15667-038950FM-12+000599999V0209999C000010450019N0040001N1+02501+02091101901ADDGF106991041051008001021001MA1999999101841MD1999999-0101REMSYN070AAXX  15184 83398 32596 60000 10250 20209 30184 40190 84520 333 59010;
0213833980999992008081600004-15667-038950FM-12+000599999V0209999C000010075019N0020001N1+02341+02031102091ADDAA106001091AY161061AY221061GF105991051051008001001001KA1240M+02661MA1999999102031MD1999999-0141MW1021REMSYN100AAXX  16004 83398 21595 50000 10234 20203 30203 40209 70262 85500 333 10266 29085 55050 59014 60011;
0201833980999992008081612004-15667-038950FM-12+000599999V0200501N003110450019N0040001N1+02561+01951102131ADDAA124011991AY161061AY221061GF106991031021008001041001KA1240N+02021MA1999999102071MD1999999-0181MW1021REMSYN088AAXX  16124 83398 21596 60506 10256 20195 30207 40213 70262 83240 333 20202 59018 60124;
0182833980999992008081618004-15667-038950FM-12+000599999V0209999C000010450019N0040001N1+02421+01861101881ADDAA106000591AY151061AY221061GF107991041051008001021001MA1999999101821MD1999999-0021MW1011REMSYN082AAXX  16184 83398 21596 70000 10242 20186 30182 40188 70152 84520 333 59002 69961;
0213833980999992008081700004-15667-038950FM-12+000599999V0209999C000010075019N0010001N1+02061+02011102031ADDAA106006191AY161061AY221061GF108991051051008001021999KA1240M+02721MA1999999101971MD1999999-0061MW1021REMSYN100AAXX  17004 83398 21594 80000 10206 20201 30197 40203 70262 8552/ 333 10272 29083 55053 59006 60061;
0201833980999992008081712004-15667-038950FM-12+000599999V0209999C000010075019N0040001N1+02081+02001102181ADDAA124014091AY161061AY221061GF108991051051008001021999KA1240N+01881MA1999999102121MD1999999+0051MW1021REMSYN088AAXX  17124 83398 21596 80000 10208 20200 30212 40218 70262 8552/ 333 20188 58005 60144;
0182833980999992008081718004-15667-038950FM-12+000599999V0200501N004110450019N0040001N1+02501+01801101871ADDAA106002091AY161061AY221061GF106991031051008001021001MA1999999101811MD1999999-0011MW1021REMSYN082AAXX  17184 83398 21596 60508 10250 20180 30181 40187 70262 83520 333 59001 60021;
0168833980999992008081800004-15667-038950FM-12+000599999V0209999C000010450019N0010001N1+01941+01811102011ADDGF106991031021008001041001KA1240M+02571MA1999999101951MD1999999-0021REMSYN088AAXX  18004 83398 32594 60000 10194 20181 30195 40201 83240 333 10257 29086 55030 59002;
0201833980999992008081812004-15667-038950FM-12+000599999V0209999C000010075019N0040001N1+02061+01961102121ADDAA124003091AY161061AY221061GF108991051051008001021999KA1240N+01521MA1999999102061MD1999999-0061MW1021REMSYN088AAXX  18124 83398 21596 80000 10206 20196 30206 40212 70262 8552/ 333 20152 59006 60034;
0137833980999992008081818004-15667-038950FM-12+000599999V0200901N002110450019N0040001N1+02561+01901101901ADDGF105991031051008001021001MA1999999101841MD1999999+0031REMSYN070AAXX  18184 83398 32596 50904 10256 20190 30184 40190 83520 333 58003;
0168833980999992008081900004-15667-038950FM-12+000599999V0209999C000010075019N0010001N1+02301+02001102051ADDGF107991051051008001021001KA1240M+02701MA1999999101991MD1999999+0041REMSYN088AAXX  19004 83398 32594 70000 10230 20200 30199 40205 85520 333 10270 29082 55059 58004;
0201833980999992008081912004-15667-038950FM-12+000599999V0200901N003110450019N0040001N1+02461+01941102041ADDAA124014091AY161061AY221061GF106991041051008001021001KA1240N+01921MA1999999101981MD1999999-0081MW1021REMSYN088AAXX  19124 83398 21596 60906 10246 20194 30198 40204 70262 84520 333 20192 59008 60144;
0182833980999992008081918004-15667-038950FM-12+000599999V0200501N003110450019N0040001N1+02511+01951101841ADDAA106001091AY161061AY221061GF107991041051008001021001MA1999999101781MD1999999+0061MW1021REMSYN082AAXX  19184 83398 21596 70506 10251 20195 30178 40184 70262 84520 333 58006 60011;
0168833980999992008082000004-15667-038950FM-12+000599999V0209999C000010450019N0010001N1+02001+01901101971ADDGF107991041051008001021001KA1240M+02711MA1999999101911MD1999999-0081REMSYN088AAXX  20004 83398 32594 70000 10200 20190 30191 40197 84520 333 10271 29083 55065 59008;
0173833980999992008082012004-15667-038950FM-12+000599999V0209999C000012200019N0040001N1+02401+02051101981ADDAA124001091GF103991021011008001041001KA1240N+01781MA1999999101921MD1999999-0061REMSYN082AAXX  20124 83398 22596 30000 10240 20205 30192 40198 82140 333 20178 59006 60014;
0137833980999992008082018004-15667-038950FM-12+000599999V0200901N005112200019N0040001N1+02521+02001101791ADDGF104991021021008001041001MA1999999101731MD1999999-0051REMSYN070AAXX  20184 83398 32596 40910 10252 20200 30173 40179 82240 333 59005;
0168833980999992008082100004-15667-038950FM-12+000599999V0200901N002110450019N0010001N1+02281+01831101931ADDGF105991031051008001041001KA1240M+02661MA1999999101871MD1999999-0041REMSYN088AAXX  21004 83398 32594 50904 10228 20183 30187 40193 83540 333 10266 29076 55079 59004;
0156833980999992008082112004-15667-038950FM-12+000599999V0201401N003112200019N0040001N1+02481+01831102021ADDGF102991011011008001041001KA1240N+01781MA1999999101961MD1999999+0041REMSYN076AAXX  21124 83398 32596 21406 10248 20183 30196 40202 81140 333 20178 58004;
0137833980999992008082118004-15667-038950FM-12+000599999V0209999C000012200019N0040001N1+02541+01881101701ADDGF102991011011008001041001MA1999999101641MD1999999-0091REMSYN070AAXX  21184 83398 32596 20000 10254 20188 30164 40170 81140 333 59009;
0168833980999992008082200004-15667-038950FM-12+000599999V0209999C000012200019N0010001N1+02101+01891101891ADDGF102991011011008001041001KA1240M+02691MA1999999101831MD1999999-0041REMSYN088AAXX  22004 83398 32594 20000 10210 20189 30183 40189 81140 333 10269 29078 55082 59004;
0156833980999992008082212004-15667-038950FM-12+000599999V0209999C000010075019N0010001N1+02241+01991101961ADDGF108991051051008001021001KA1240N+01701MA1999999101901MD1999999-0061REMSYN076AAXX  22124 83398 32594 80000 10224 20199 30190 40196 85520 333 20170 59006;
0137833980999992008082218004-15667-038950FM-12+000599999V0200501N003110450019N0040001N1+02541+01861101691ADDGF105991031021008001041001MA1999999101631MD1999999-0011REMSYN070AAXX  22184 83398 32596 50506 10254 20186 30163 40169 83240 333 59001;
0168833980999992008082300004-15667-038950FM-12+000599999V0209999C000012200019N0010001N1+02361+01911101871ADDGF104991041011008001001001KA1240M+02691MA1999999101811MD1999999-0021REMSYN088AAXX  23004 83398 32594 40000 10236 20191 30181 40187 84100 333 10269 29076 55078 59002;
0156833980999992008082312004-15667-038950FM-12+000599999V0209999C000010450019N0040001N1+02441+02071102101ADDGF105991031021008001041001KA1240N+01801MA1999999102041MD1999999+0141REMSYN076AAXX  23124 83398 32596 50000 10244 20207 30204 40210 83240 333 20180 58014;
0137833980999992008082318004-15667-038950FM-12+000599999V0200901N003110450019N0040001N1+02601+01991101871ADDGF105991041051008001041001MA1999999101811MD1999999+0181REMSYN070AAXX  23184 83398 32596 50906 10260 20199 30181 40187 84540 333 58018;
0168833980999992008082400004-15667-038950FM-12+000599999V0209999C000012200019N0010001N1+02041+01911102111ADDGF103991031051008001001001KA1240M+02741MA1999999102051MD1999999+0241REMSYN088AAXX  24004 83398 32594 30000 10204 20191 30205 40211 83500 333 10274 29083 55079 58024;
0156833980999992008082412004-15667-038950FM-12+000599999V0209999C000012200019N0040001N1+02601+01991102161ADDGF104991041051008001001001KA1240N+01701MA1999999102101MD1999999+0061REMSYN076AAXX  24124 83398 32596 40000 10260 20199 30210 40216 84500 333 20170 58006;
0137833980999992008082418004-15667-038950FM-12+000599999V0200901N003110450019N0040001N1+02641+01851101871ADDGF105991031051008001041001MA1999999101811MD1999999+0001REMSYN070AAXX  24184 83398 32596 50906 10264 20185 30181 40187 83540 333 58000;
0168833980999992008082500004-15667-038950FM-12+000599999V0209999C000010075019N0010001N1+01981+01911102081ADDGF108991051051008001021999KA1240M+02741MA1999999102021MD1999999-0031REMSYN088AAXX  25004 83398 32594 80000 10198 20191 30202 40208 8552/ 333 10274 29081 55086 59003;
0201833980999992008082512004-15667-038950FM-12+000599999V0201801N002110450019N0040001N1+02121+02021102111ADDAA124010991AY161061AY221061GF107991041051008001021001KA1240N+01801MA1999999102051MD1999999-0051MW1021REMSYN088AAXX  25124 83398 21596 71804 10212 20202 30205 40211 70262 84520 333 20180 59005 60114;
0137833980999992008082518004-15667-038950FM-12+000599999V0200901N002110075019N0040001N1+02541+02021101801ADDGF107991051051008001021001MA1999999101741MD1999999-0071REMSYN070AAXX  25184 83398 32596 70904 10254 20202 30174 40180 85520 333 59007;
0168833980999992008082600004-15667-038950FM-12+000599999V0209999C000010450019N0010001N1+02021+01951102001ADDGF106991031051008001021001KA1240M+02661MA1999999101941MD1999999-0081REMSYN088AAXX  26004 83398 32594 60000 10202 20195 30194 40200 83520 333 10266 29090 55045 59008;
0201833980999992008082612004-15667-038950FM-12+000599999V0201401N002110450019N0040001N1+02341+02091101951ADDAA124001091AY161061AY221061GF105991031051008001021001KA1240N+01781MA1999999101891MD1999999-0161MW1021REMSYN088AAXX  26124 83398 21596 51404 10234 20209 30189 40195 70262 83520 333 20178 59016 60014;
0137833980999992008082618004-15667-038950FM-12+000599999V0200501N002110450019N0040001N1+02541+02131101581ADDGF105991031051008001041001MA1999999101531MD1999999-0211REMSYN070AAXX  26184 83398 32596 50504 10254 20213 30153 40158 83540 333 59021;
0168833980999992008082700004-15667-038950FM-12+000599999V0209999C000012200019N0010001N1+01981+01911101801ADDGF103991031051008001001001KA1240M+02621MA1999999101741MD1999999-0201REMSYN088AAXX  27004 83398 32594 30000 10198 20191 30174 40180 83500 333 10262 29089 55052 59020;
0156833980999992008082712004-15667-038950FM-12+000599999V0209999C000012200019N0040001N1+02401+02131101801ADDGF104991041011008001001001KA1240N+01601MA1999999101741MD1999999-0151REMSYN076AAXX  27124 83398 32596 40000 10240 20213 30174 40180 84100 333 20160 59015;
0137833980999992008082718004-15667-038950FM-12+000599999V0200501N004110450019N0040001N1+02561+02021101401ADDGF105991031021008001041001MA1999999101351MD1999999-0181REMSYN070AAXX  27184 83398 32596 50508 10256 20202 30135 40140 83240 333 59018;
0168833980999992008082800004-15667-038950FM-12+000599999V0209999C000012200019N0010001N1+01961+01911101641ADDGF103991031011008001001001KA1240M+02691MA1999999101581MD1999999-0161REMSYN088AAXX  28004 83398 32594 30000 10196 20191 30158 40164 83100 333 10269 29088 55081 59016;
0156833980999992008082812004-15667-038950FM-12+000599999V0200501N001012200019N0040001N1+02401+02131101831ADDGF104991041051008001001001KA1240N+01641MA1999999101771MD1999999+0031REMSYN076AAXX  28124 83398 32596 40502 10240 20213 30177 40183 84500 333 20164 58003;
0137833980999992008082818004-15667-038950FM-12+000599999V0200501N004112200019N0040001N1+02581+01991101471ADDGF104991021011008001041001MA1999999101421MD1999999+0071REMSYN070AAXX  28184 83398 32596 40508 10258 20199 30142 40147 82140 333 58007;
0168833980999992008082900004-15667-038950FM-12+000599999V0209999C000012200019N0010001N1+02301+01961101731ADDGF102991021011008001001001KA1240M+02721MA1999999101671MD1999999+0091REMSYN088AAXX  29004 83398 32594 20000 10230 20196 30167 40173 82100 333 10272 29079 55087 58009;
0156833980999992008082912004-15667-038950FM-12+000599999V0209999C000010450019N0040001N1+02441+02111101831ADDGF105991031021008001041001KA1240N+01641MA1999999101771MD1999999+0001REMSYN076AAXX  29124 83398 32596 50000 10244 20211 30177 40183 83240 333 20164 58000;
0137833980999992008082918004-15667-038950FM-12+000599999V0200501N003110450019N0040001N1+02621+01981101471ADDGF106991031021008001041011MA1999999101421MD1999999+0001REMSYN070AAXX  29184 83398 32596 60506 10262 20198 30142 40147 83241 333 58000;
0168833980999992008083000004-15667-038950FM-12+000599999V0209999C000012200019N0010001N1+02241+01881101571ADDGF103991021021008001041001KA1240M+02701MA1999999101521MD1999999+0101REMSYN088AAXX  30004 83398 32594 30000 10224 20188 30152 40157 82240 333 10270 29077 55083 58010;
0156833980999992008083012004-15667-038950FM-12+000599999V0209999C000012200019N0040001N1+02541+02021101671ADDGF104991021011008001041001KA1240N+01651MA1999999101611MD1999999-0161REMSYN076AAXX  30124 83398 32596 40000 10254 20202 30161 40167 82140 333 20165 59016;
0137833980999992008083018004-15667-038950FM-12+000599999V0209999C000012200019N0040001N1+02581+01801101401ADDGF102991011011008001041001MA1999999101351MD1999999-0071REMSYN070AAXX  30184 83398 32596 20000 10258 20180 30135 40140 81140 333 59007;
0203833980999992008083100004-15667-038950FM-12+000599999V0209999C000012200019N0010001N1+01961+01911101691ADDGF102991021011008001001001KA1240M+02701MA1999999999999MD1999999+0111REMSYN088AAXX  31004 83398 32594 20000 10196 20191 30613 40169 82100 333 10270 29082 55087 58011;EQDQ01+096133APOSP Q02 096133APOSP 
0156833980999992008083112004-15667-038950FM-12+000599999V0201801N003112200019N0040001N1+02421+01991101861ADDGF102991011011008001041001KA1240N+01561MA1999999101801MD1999999+0191REMSYN076AAXX  31124 83398 32596 21806 10242 20199 30180 40186 81140 333 20156 58019;
0137833980999992008083118004-15667-038950FM-12+000599999V0200501N003112200019N0040001N1+02581+01971101511ADDGF102991011011008001041001MA1999999101461MD1999999+0111REMSYN070AAXX  31184 83398 32596 20506 10258 20197 30146 40151 81140 333 58011;
0168833980999992008090100004-15667-038950FM-12+000599999V0209999C000012200019N0010001N1+02021+01801101851ADDGF102991011011008001041001KA1240M+02721MA1999999101791MD1999999+0161REMSYN088AAXX  01004 83398 32594 20000 10202 20180 30179 40185 81140 333 10272 29080 55083 58016;
0201833980999992008090112004-15667-038950FM-12+000599999V0201401N003110075019N0040001N1+02301+02001102001ADDAA124004191AY161061AY221061GF108991051051008001021999KA1240N+01781MA1999999101941MD1999999+0141MW1021REMSYN088AAXX  01124 83398 21596 81406 10230 20200 30194 40200 70262 8552/ 333 20178 58014 60044;
0137833980999992008090118004-15667-038950FM-12+000599999V0201401N009310075019N0040001N1+02521+01911101751ADDGF108991051051008001021999MA1999999101691MD1999999+0231REMSYN070AAXX  01184 83398 32596 81418 10252 20191 30169 40175 8552/ 333 58023;
0168833980999992008090200004-15667-038950FM-12+000599999V0209999C000010450019N0010001N1+02041+01911101941ADDGF105991031021008001041001KA1240M+02701MA1999999101881MD1999999+0091REMSYN088AAXX  02004 83398 32594 50000 10204 20191 30188 40194 83240 333 10270 29084 55060 58009;
0156833980999992008090212004-15667-038950FM-12+000599999V0201401N006210075019N0040001N1+02341+01911101971ADDGF108991051051008001021999KA1240N+01761MA1999999101911MD1999999-0031REMSYN076AAXX  02124 83398 32596 81412 10234 20191 30191 40197 8552/ 333 20176 59003;
0182833980999992008090218004-15667-038950FM-12+000599999V0201401N005110075019N0040001N1+02451+01891101671ADDAA106004191AY161061AY221061GF108991051051008001021001MA1999999101611MD1999999-0081MW1021REMSYN082AAXX  02184 83398 21596 81410 10245 20189 30161 40167 70262 85520 333 59008 60041;
0213833980999992008090300004-15667-038950FM-12+000599999V0209999C000010450019N0010001N1+02161+02011101871ADDAA106000591AY151061AY211061GF105991031051008001041001KA1240M+02521MA1999999101811MD1999999-0071MW1021REMSYN100AAXX  03004 83398 21594 50000 10216 20201 30181 40187 70251 83540 333 10252 29082 55007 59007 69941;
0201833980999992008090312004-15667-038950FM-12+000599999V0200501N004110450019N0040001N1+02561+02061101901ADDAA124005191AY161061AY221061GF105991031021008001041001KA1240N+01991MA1999999101841MD1999999-0071MW1021REMSYN088AAXX  03124 83398 21596 50508 10256 20206 30184 40190 70262 83240 333 20199 59007 60054;
0137833980999992008090318004-15667-038950FM-12+000599999V0200501N005110450019N0040001N1+02581+02041101661ADDGF106991031021008001041001MA1999999101601MD1999999-0011REMSYN070AAXX  03184 83398 32596 60510 10258 20204 30160 40166 83240 333 59001;
0168833980999992008090400004-15667-038950FM-12+000599999V0200501N006210450019N0010001N1+02361+01891101781ADDGF106991031021008001041001KA1240M+02721MA1999999101721MD1999999-0091REMSYN088AAXX  04004 83398 32594 60512 10236 20189 30172 40178 83240 333 10272 29074 55083 59009;
0156833980999992008090412004-15667-038950FM-12+000599999V0203201N003112200019N0040001N1+02581+01871101851ADDGF104991021011008001041001KA1240N+01791MA1999999101791MD1999999-0051REMSYN076AAXX  04124 83398 32596 43206 10258 20187 30179 40185 82140 333 20179 59005;
0137833980999992008090418004-15667-038950FM-12+000599999V0200501N003112200019N0040001N1+02631+01921101571ADDGF102991011011008001041001MA1999999101521MD1999999-0081REMSYN070AAXX  04184 83398 32596 20506 10263 20192 30152 40157 81140 333 59008;
0168833980999992008090500004-15667-038950FM-12+000599999V0203601N003112200019N0010001N1+02371+01901101721ADDGF104991021011008001041001KA1240M+02721MA1999999101661MD1999999-0061REMSYN088AAXX  05004 83398 32594 43606 10237 20190 30166 40172 82140 333 10272 29070 55089 59006;
0156833980999992008090512004-15667-038950FM-12+000599999V0200501N003110450019N0040001N1+02641+01951101851ADDGF105991031021008001041001KA1240N+01881MA1999999101791MD1999999+0001REMSYN076AAXX  05124 83398 32596 50506 10264 20195 30179 40185 83240 333 20188 58000;
0137833980999992008090518004-15667-038950FM-12+000599999V0203601N004112200019N0040001N1+02621+01811101591ADDGF102991011011008001041001MA1999999101541MD1999999+0021REMSYN070AAXX  05184 83398 32596 23608 10262 20181 30154 40159 81140 333 58002;
0168833980999992008090600004-15667-038950FM-12+000599999V0203601N005112200019N0010001N1+02341+01601101761ADDGF102991011011008001041001KA1240M+02751MA1999999101741MD1999999+0041REMSYN088AAXX  06004 83398 32594 23610 10234 20160 30174 40176 81140 333 10275 29063 55083 58004;
0156833980999992008090612004-15667-038950FM-12+000599999V0209999C000010450019N0040001N1+02501+02111102051ADDGF105991031051008001021001KA1240N+01641MA1999999101991MD1999999+0201REMSYN076AAXX  06124 83398 32596 50000 10250 20211 30199 40205 83520 333 20164 58020;
0137833980999992008090618004-15667-038950FM-12+000599999V0200501N003110450019N0040001N1+02661+01951101711ADDGF105991031021008001041001MA1999999101651MD1999999+0111REMSYN070AAXX  06184 83398 32596 50506 10266 20195 30165 40171 83240 333 58011;
0168833980999992008090700004-15667-038950FM-12+000599999V0200901N002112200019N0010001N1+02461+02071101961ADDGF104991041051008001001001KA1240M+02841MA1999999101901MD1999999+0201REMSYN088AAXX  07004 83398 32594 40904 10246 20207 30190 40196 84500 333 10284 29076 55087 58020;
0156833980999992008090712004-15667-038950FM-12+000599999V0203601N004110450019N0040001N1+02741+02191102081ADDGF106991041051008001021001KA1240N+01901MA1999999102021MD1999999+0031REMSYN076AAXX  07124 83398 32596 63608 10274 20219 30202 40208 84520 333 20190 58003;
0137833980999992008090718004-15667-038950FM-12+000599999V0203601N005110450019N0040001N1+02661+02161101761ADDGF105991041051008001041001MA1999999101701MD1999999+0051REMSYN070AAXX  07184 83398 32596 53610 10266 20216 30170 40176 84540 333 58005;
0168833980999992008090800004-15667-038950FM-12+000599999V0200901N003112200019N0010001N1+02441+02131102061ADDGF104991041051008001001001KA1240M+02801MA1999999102011MD1999999+0111REMSYN088AAXX  08004 83398 32594 40906 10244 20213 30201 40206 84500 333 10280 29078 55083 58011;
0156833980999992008090812004-15667-038950FM-12+000599999V0200501N002110450019N0040001N1+02661+02161102101ADDGF106991041051008001021001KA1240N+01961MA1999999102041MD1999999+0021REMSYN076AAXX  08124 83398 32596 60504 10266 20216 30204 40210 84520 333 20196 58002;
0137833980999992008090818004-15667-038950FM-12+000599999V0200501N003110450019N0040001N1+02701+02081101911ADDGF105991031051008001041001MA1999999101851MD1999999+0151REMSYN070AAXX  08184 83398 32596 50506 10270 20208 30185 40191 83540 333 58015;
0168833980999992008090900004-15667-038950FM-12+000599999V0200901N001012200019N0010001N1+02421+01991102091ADDGF104991041051008001001001KA1240M+02841MA1999999102031MD1999999+0021REMSYN088AAXX  09004 83398 32594 40902 10242 20199 30203 40209 84500 333 10284 29074 55058 58002;
0156833980999992008090912004-15667-038950FM-12+000599999V0200901N003110450019N0040001N1+02641+01771102231ADDGF105991031051008001041001KA1240N+01901MA1999999102171MD1999999+0131REMSYN076AAXX  09124 83398 32596 50906 10264 20177 30217 40223 83540 333 20190 58013;
0137833980999992008090918004-15667-038950FM-12+000599999V0200501N003110450019N0040001N1+02681+01941101921ADDGF105991031051008001041001MA1999999101861MD1999999+0011REMSYN070AAXX  09184 83398 32596 50506 10268 20194 30186 40192 83540 333 58001;
0168833980999992008091000004-15667-038950FM-12+000599999V0200501N002112200019N0010001N1+02381+01911102181ADDGF103991031011008001001001KA1240M+02781MA1999999102121MD1999999+0091REMSYN088AAXX  10004 83398 32594 30504 10238 20191 30212 40218 83100 333 10278 29068 55083 58009;
0156833980999992008091012004-15667-038950FM-12+000599999V0200501N002110450019N0040001N1+02601+01991102311ADDGF106991041051008001021001KA1240N+01781MA1999999102251MD1999999+0081REMSYN076AAXX  10124 83398 32596 60504 10260 20199 30225 40231 84520 333 20178 58008;
0137833980999992008091018004-15667-038950FM-12+000599999V0200501N002110450019N0040001N1+02741+01921101961ADDGF105991021051008001041001MA1999999101901MD1999999+0041REMSYN070AAXX  10184 83398 32596 50504 10274 20192 30190 40196 82540 333 58004;
0156833980999992008091112004-15667-038950FM-12+000599999V0200501N002110450019N0040001N1+02601+01941102281ADDGF105991031051008001041001KA1240N+01781MA1999999102221MD1999999+0121REMSYN076AAXX  11124 83398 32596 50504 10260 20194 30222 40228 83540 333 20178 58012;
0137833980999992008091118004-15667-038950FM-12+000599999V0209999C000010450019N0040001N1+02641+01831101901ADDGF105991031021008001041001MA1999999101841MD1999999-0061REMSYN070AAXX  11184 83398 32596 50000 10264 20183 30184 40190 83240 333 59006;
0168833980999992008091200004-15667-038950FM-12+000599999V0200501N002112200019N0010001N1+02361+02051102081ADDGF102991021011008001001001KA1240M+02801MA1999999102021MD1999999-0081REMSYN088AAXX  12004 83398 32594 20504 10236 20205 30202 40208 82100 333 10280 29074 55086 59008;
0156833980999992008091212004-15667-038950FM-12+000599999V0202301N001010075019N0040001N1+02401+02031102131ADDGF107991051051008001021001KA1240N+01621MA1999999102071MD1999999-0151REMSYN076AAXX  12124 83398 32596 72302 10240 20203 30207 40213 85520 333 20162 59015;
0137833980999992008091218004-15667-038950FM-12+000599999V0200901N002110450019N0040001N1+02701+01941101751ADDGF105991031051008001041001MA1999999101691MD1999999-0131REMSYN070AAXX  12184 83398 32596 50904 10270 20194 30169 40175 83540 333 59013;
0168833980999992008091300004-15667-038950FM-12+000599999V0209999C000012200019N0010001N1+02381+02011101851ADDGF103991031051008001001001KA1240M+02801MA1999999101791MD1999999-0231REMSYN088AAXX  13004 83398 32594 30000 10238 20201 30179 40185 83500 333 10280 29076 55035 59023;
0156833980999992008091312004-15667-038950FM-12+000599999V0209999C000010450019N0040001N1+02461+02131101951ADDGF107991041051008001021001KA1240N+01801MA1999999101891MD1999999-0181REMSYN076AAXX  13124 83398 32596 70000 10246 20213 30189 40195 84520 333 20180 59018;
0137833980999992008091318004-15667-038950FM-12+000599999V0200501N004112200019N0040001N1+02641+02091101541ADDGF101991011001008001041001MA1999999101491MD1999999-0201REMSYN070AAXX  13184 83398 32596 10508 10264 20209 30149 40154 81040 333 59020;
0201833980999992008091412004-15667-038950FM-12+000599999V0203601N007710450019N0040001N1+02531+02261101911ADDAA124001091AY161061AY221061GF106991031051008001021001KA1240N+02051MA1999999101851MD1999999-0041MW1021REMSYN088AAXX  14124 83398 21596 63615 10253 20226 30185 40191 70262 83520 333 20205 59004 60014;
0137833980999992008091418004-15667-038950FM-12+000599999V0203601N006210450019N0040001N1+02601+02141101541ADDGF105991031021008001041001MA1999999101491MD1999999+0001REMSYN070AAXX  14184 83398 32596 53612 10260 20214 30149 40154 83240 333 58000;
0156833980999992008091512004-15667-038950FM-12+000599999V0203601N006210075019N0040001N1+02601+02031102081ADDGF108991051051008001021999KA1240N+02371MA1999999102021MD1999999+0171REMSYN076AAXX  15124 83398 32596 83612 10260 20203 30202 40208 8552/ 333 20237 58017;
0137833980999992008091518004-15667-038950FM-12+000599999V0203601N003112200019N0040001N1+02681+01991101771ADDGF102991011011008001041001MA1999999101711MD1999999+0221REMSYN070AAXX  15184 83398 32596 23606 10268 20199 30171 40177 81140 333 58022;
0168833980999992008091600004-15667-038950FM-12+000599999V0203601N003110450019N0010001N1+02441+02071101931ADDGF106991031021008001041001KA1240M+02841MA1999999101871MD1999999+0161REMSYN088AAXX  16004 83398 32594 63606 10244 20207 30187 40193 83240 333 10284 29074 55055 58016;
0156833980999992008091612004-15667-038950FM-12+000599999V0200501N002110450019N0040001N1+02641+02181102001ADDGF107991041051008001021001KA1240N+01991MA1999999101941MD1999999-0081REMSYN076AAXX  16124 83398 32596 70504 10264 20218 30194 40200 84520 333 20199 59008;
0137833980999992008091618004-15667-038950FM-12+000599999V0203601N005112200019N0040001N1+02641+02071101711ADDGF103991021011008001041001MA1999999101651MD1999999-0061REMSYN070AAXX  16184 83398 32596 33610 10264 20207 30165 40171 82140 333 59006;
0168833980999992008091700004-15667-038950FM-12+000599999V0200501N002110450019N0010001N1+02441+02031101921ADDGF105991031021008001041001KA1240M+02841MA1999999101861MD1999999-0011REMSYN088AAXX  17004 83398 32594 50504 10244 20203 30186 40192 83240 333 10284 29076 55075 59001;
0156833980999992008091712004-15667-038950FM-12+000599999V0203601N003110450019N0040001N1+02641+02031101921ADDGF106991031051008001021001KA1240N+01881MA1999999101861MD1999999-0081REMSYN076AAXX  17124 83398 32596 63606 10264 20203 30186 40192 83520 333 20188 59008;
0137833980999992008091718004-15667-038950FM-12+000599999V0200501N004112200019N0040001N1+02621+01931101581ADDGF102991011011008001041001MA1999999101531MD1999999-0121REMSYN070AAXX  17184 83398 32596 20508 10262 20193 30153 40158 81140 333 59012;
0168833980999992008091800004-15667-038950FM-12+000599999V0209999C000012200019N0010001N1+02161+01951101791ADDGF102991011011008001041001KA1240M+02801MA1999999101731MD1999999-0131REMSYN088AAXX  18004 83398 32594 20000 10216 20195 30173 40179 81140 333 10280 29078 55086 59013;
0156833980999992008091812004-15667-038950FM-12+000599999V0209999C000010450019N0040001N1+02561+02041101801ADDGF105991031051008001041001KA1240N+01901MA1999999101741MD1999999-0121REMSYN076AAXX  18124 83398 32596 50000 10256 20204 30174 40180 83540 333 20190 59012;
0137833980999992008091818004-15667-038950FM-12+000599999V0200501N006210450019N0040001N1+02621+01981101481ADDGF106991031051008001021001MA1999999101431MD1999999-0101REMSYN070AAXX  18184 83398 32596 60512 10262 20198 30143 40148 83520 333 59010;
0213833980999992008091900004-15667-038950FM-12+000599999V0209999C000010075019N0010001N1+02141+02071101801ADDAA106000891AY151061AY221061GF108991051051008001021999KA1240M+02751MA1999999101741MD1999999+0011MW1021REMSYN100AAXX  19004 83398 21594 80000 10214 20207 30174 40180 70252 8552/ 333 10275 29083 55066 58001 69981;
0201833980999992008091912004-15667-038950FM-12+000599999V0201401N010310075019N0040001N1+02181+02041102101ADDAA124007191AY161061AY221061GF108991051051008001021999KA1240N+02061MA1999999102041MD1999999+0301MW1021REMSYN088AAXX  19124 83398 21596 81420 10218 20204 30204 40210 70262 8552/ 333 20206 58030 60074;
0182833980999992008091918004-15667-038950FM-12+000599999V0201401N007210075019N0040001N1+02401+01931101881ADDAA106001091AY161061AY221061GF108991051051008001021999MA1999999101821MD1999999+0391MW1021REMSYN082AAXX  19184 83398 21596 81414 10240 20193 30182 40188 70262 8552/ 333 58039 60011;
0213833980999992008092000004-15667-038950FM-12+000599999V0201801N005110075019N0010001N1+02021+01951102171ADDAA106002091AY161061AY221061GF108991051051008001021999KA1240M+02531MA1999999102111MD1999999+0371MW1021REMSYN100AAXX  20004 83398 21594 81810 10202 20195 30211 40217 70262 8552/ 333 10253 29090 55000 58037 60021;
0201833980999992008092012004-15667-038950FM-12+000599999V0201801N002110075019N0040001N1+02241+02071102191ADDAA124005191AY161061AY221061GF108991051051008001021999KA1240N+01881MA1999999102131MD1999999+0091MW1021REMSYN088AAXX  20124 83398 21596 81804 10224 20207 30213 40219 70262 8552/ 333 20188 58009 60054;
0137833980999992008092018004-15667-038950FM-12+000599999V0209999C000010075019N0040001N1+02201+02031101901ADDGF108991051051008001021999MA1999999101841MD1999999+0021REMSYN070AAXX  20184 83398 32596 80000 10220 20203 30184 40190 8552/ 333 58002;
0201833980999992008092112004-15667-038950FM-12+000599999V0200901N003110450019N0040001N1+02361+01891102111ADDAA124007991AY161061AY221061GF106991041051008001021001KA1240N+01881MA1999999102051MD1999999-0081MW1021REMSYN088AAXX  21124 83398 21596 60906 10236 20189 30205 40211 70262 84520 333 20188 59008 60084;
0137833980999992008092118004-15667-038950FM-12+000599999V0200501N003110450019N0040001N1+02541+01831101691ADDGF106991041051008001041001MA1999999101631MD1999999-0211REMSYN070AAXX  21184 83398 32596 60506 10254 20183 30163 40169 84540 333 59021;
0156833980999992008092212004-15667-038950FM-12+000599999V0203601N003110450019N0040001N1+02601+02061101781ADDGF106991041051008001021001KA1240N+02081MA1999999101721MD1999999-0331REMSYN076AAXX  22124 83398 32596 63606 10260 20206 30172 40178 84520 333 20208 59033;
0137833980999992008092218004-15667-038950FM-12+000599999V0203601N005110450019N0040001N1+02641+02091101361ADDGF105991031051008001021001MA1999999101311MD1999999-0321REMSYN070AAXX  22184 83398 32596 53610 10264 20209 30131 40136 83520 333 59032;
0168833980999992008092300004-15667-038950FM-12+000599999V0203601N005110450019N0010001N1+02441+02231101471ADDGF105991031051008001021001KA1240M+02761MA1999999101421MD1999999-0321REMSYN088AAXX  23004 83398 32594 53610 10244 20223 30142 40147 83520 333 10276 29080 55055 59032;
0156833980999992008092312004-15667-038950FM-12+000599999V0203601N005110075019N0040001N1+02681+02331101491ADDGF107991051051008001021001KA1240N+02241MA1999999101441MD1999999-0281REMSYN076AAXX  23124 83398 32596 73610 10268 20233 30144 40149 85520 333 20224 59028;
0137833980999992008092318004-15667-038950FM-12+000599999V0203601N005110450019N0040001N1+02701+02261101121ADDGF105991031051008001021001MA1999999101071MD1999999-0241REMSYN070AAXX  23184 83398 32596 53610 10270 20226 30107 40112 83520 333 59024;
0168833980999992008092400004-15667-038950FM-12+000599999V0203601N003110450019N0010001N1+02521+02251101461ADDGF106991041051008001021001KA1240M+02781MA1999999101411MD1999999-0011REMSYN088AAXX  24004 83398 32594 63606 10252 20225 30141 40146 84520 333 10278 29082 55051 59001;
0201833980999992008092412004-15667-038950FM-12+000599999V0209999C000010075019N0040001N1+02461+02341101701ADDAA124002091AY161061AY221061GF108991051051008001021999KA1240N+02301MA1999999101641MD1999999+0201MW1021REMSYN088AAXX  24124 83398 21596 80000 10246 20234 30164 40170 70262 8552/ 333 20230 58020 60024;
0182833980999992008092418004-15667-038950FM-12+000599999V0209999C000010075019N0040001N1+02261+02211101571ADDAA106002091AY161061AY221061GF108991051071008001021999MA1999999101521MD1999999+0451MW1501REMSYN082AAXX  24184 83398 21596 80000 10226 20221 30152 40157 75062 8572/ 333 58045 60021;
0213833980999992008092500004-15667-038950FM-12+000599999V0209999C000010075019N0010001N1+02181+02111101901ADDAA106001091AY161061AY221061GF108991051071008001021999KA1240M+02761MA1999999101841MD1999999+0431MW1501REMSYN100AAXX  25004 83398 21594 80000 10218 20211 30184 40190 75062 8572/ 333 10276 29096 55007 58043 60011;
0201833980999992008092512004-15667-038950FM-12+000599999V0209999C000010075019N0040001N1+02281+02231102101ADDAA124008991AY191061AY261061GF108991051051008001021999KA1240N+02061MA1999999102041MD1999999+0401MW1021REMSYN088AAXX  25124 83398 21596 80000 10228 20223 30204 40210 70296 8552/ 333 20206 58040 60094;
0182833980999992008092518004-15667-038950FM-12+000599999V0200901N002110450019N0040001N1+02561+02061101821ADDAA106002091AY161061AY221061GF106991041051008001021001MA1999999101761MD1999999+0241MW1021REMSYN082AAXX  25184 83398 21596 60904 10256 20206 30176 40182 70262 84520 333 58024 60021;
0168833980999992008092600004-15667-038950FM-12+000599999V0209999C000010450019N0040001N1+02101+01981102021ADDGF106991041051008001021001KA1240M+02681MA1999999101961MD1999999+0121REMSYN088AAXX  26004 83398 32596 60000 10210 20198 30196 40202 84520 333 10268 29089 55014 58012;
0201833980999992008092612004-15667-038950FM-12+000599999V0200901N002110075019N0040001N1+02461+02011102081ADDAA124004191AY161061AY221061GF107991051051008001021001KA1240N+01881MA1999999102021MD1999999-0021MW1021REMSYN088AAXX  26124 83398 21596 70904 10246 20201 30202 40208 70262 85520 333 20188 59002 60044;
0137833980999992008092618004-15667-038950FM-12+000599999V0200901N002110075019N0040001N1+02501+01911101681ADDGF108991051051008001021999MA1999999101621MD1999999-0141REMSYN070AAXX  26184 83398 32596 80904 10250 20191 30162 40168 8552/ 333 59014;
0168833980999992008092700004-15667-038950FM-12+000599999V0209999C000010075019N0010001N1+02201+01881101811ADDGF108991051051008001021999KA1240M+02681MA1999999101751MD1999999-0211REMSYN088AAXX  27004 83398 32594 80000 10220 20188 30175 40181 8552/ 333 10268 29078 55009 59021;
0156833980999992008092712004-15667-038950FM-12+000599999V0200501N003110450019N0040001N1+02521+01861101831ADDGF107991041051008001021001KA1240N+01911MA1999999101771MD1999999-0251REMSYN076AAXX  27124 83398 32596 70506 10252 20186 30177 40183 84520 333 20191 59025;
0137833980999992008092718004-15667-038950FM-12+000599999V0209999C000010075019N0040001N1+02401+01861101561ADDGF108991051051008001021999MA1999999101511MD1999999-0111REMSYN070AAXX  27184 83398 32596 80000 10240 20186 30151 40156 8552/ 333 59011;
0173833980999992008092812004-15667-038950FM-12+000599999V0209999C000010450019N0040001N1+02461+02171101731ADDAA124001091GF106991031051008001021001KA1240N+01961MA1999999101671MD1999999-0101REMSYN082AAXX  28124 83398 22596 60000 10246 20217 30167 40173 83520 333 20196 59010 60014;
0137833980999992008092818004-15667-038950FM-12+000599999V0203201N003110450019N0040001N1+02641+02181101341ADDGF106991031021008001041001MA1999999101291MD1999999-0221REMSYN070AAXX  28184 83398 32596 63206 10264 20218 30129 40134 83240 333 59022;
0156833980999992008092912004-15667-038950FM-12+000599999V0209999C000010450019N0040001N1+02621+02211101811ADDGF106991031021008001041001KA1240N+02081MA1999999101751MD1999999+0081REMSYN076AAXX  29124 83398 32596 60000 10262 20221 30175 40181 83240 333 20208 58008;
0137833980999992008092918004-15667-038950FM-12+000599999V0200501N004110450019N0040001N1+02721+02171101551ADDGF107991041051008001021001MA1999999101501MD1999999+0211REMSYN070AAXX  29184 83398 32596 70508 10272 20217 30150 40155 84520 333 58021;
0168833980999992008093000004-15667-038950FM-12+000599999V0201401N003110450019N0010001N1+02321+02131101901ADDGF106991041051008001021001KA1240M+02841MA1999999101841MD1999999+0341REMSYN088AAXX  30004 83398 32594 61406 10232 20213 30184 40190 84520 333 10284 29082 55078 58034;
0156833980999992008093012004-15667-038950FM-12+000599999V0201401N008210450019N0040001N1+02621+02181102091ADDGF107991041051008001021001KA1240N+02091MA1999999102031MD1999999+0281REMSYN076AAXX  30124 83398 32596 71416 10262 20218 30203 40209 84520 333 20209 58028;
0137833980999992008093018004-15667-038950FM-12+000599999V0200501N004110450019N0040001N1+02601+02081101671ADDGF107991041051008001021001MA1999999101611MD1999999+0111REMSYN070AAXX  30184 83398 32596 70508 10260 20208 30161 40167 84520 333 58011;
0168833980999992008100100004-15667-038950FM-12+000599999V0209999C000012200019N0010001N1+02441+02171101811ADDGF103991031011008001001001KA1240M+02921MA1999999101751MD1999999-0091REMSYN088AAXX  01004 83398 32594 30000 10244 20217 30175 40181 83100 333 10292 29080 55063 59009;
0156833980999992008100112004-15667-038950FM-12+000599999V0200501N005110450019N0040001N1+02671+02211101771ADDGF105991031051008001041001KA1240N+02021MA1999999101711MD1999999-0321REMSYN076AAXX  01124 83398 32596 50510 10267 20221 30171 40177 83540 333 20202 59032;
0137833980999992008100118004-15667-038950FM-12+000599999V0200501N005110450019N0040001N1+02681+02221101371ADDGF105991031021008001041001MA1999999101321MD1999999-0291REMSYN070AAXX  01184 83398 32596 50510 10268 20222 30132 40137 83240 333 59029;
0168833980999992008100200004-15667-038950FM-12+000599999V0203601N006210450019N0010001N1+02491+02241101531ADDGF105991031021008001041001KA1240M+02831MA1999999101481MD1999999-0271REMSYN088AAXX  02004 83398 32594 53612 10249 20224 30148 40153 83240 333 10283 29077 55081 59027;
0156833980999992008100212004-15667-038950FM-12+000599999V0203601N005110450019N0040001N1+02721+02191101661ADDGF105991031051008001021001KA1240N+02381MA1999999101601MD1999999-0111REMSYN076AAXX  02124 83398 32596 53610 10272 20219 30160 40166 83520 333 20238 59011;
0137833980999992008100218004-15667-038950FM-12+000599999V0200501N003110450019N0040001N1+02761+02231101341ADDGF105991031021008001041001MA1999999101291MD1999999-0031REMSYN070AAXX  02184 83398 32596 50506 10276 20223 30129 40134 83240 333 59003;
0168833980999992008100300004-15667-038950FM-12+000599999V0200501N002112200019N0010001N1+02541+02191101611ADDGF103991031011008001001001KA1240M+02941MA1999999101551MD1999999+0071REMSYN088AAXX  03004 83398 32594 30504 10254 20219 30155 40161 83100 333 10294 29077 55096 58007;
0156833980999992008100312004-15667-038950FM-12+000599999V0203601N003110450019N0040001N1+02741+02301101761ADDGF106991041051008001021001KA1240N+02321MA1999999101701MD1999999+0101REMSYN076AAXX  03124 83398 32596 63606 10274 20230 30170 40176 84520 333 20232 58010;
0168833980999992008100400004-15667-038950FM-12+000599999V0203601N003110450019N0010001N1+02581+02421101661ADDGF105991031051008001021001KA1240M+02921MA1999999101601MD1999999+0051REMSYN088AAXX  04004 83398 32594 53606 10258 20242 30160 40166 83520 333 10292 29084 55087 58005;
0156833980999992008100412004-15667-038950FM-12+000599999V0200501N003110450019N0040001N1+02741+02281101871ADDGF106991041051008001021001KA1240N+02401MA1999999101811MD1999999+0111REMSYN076AAXX  04124 83398 32596 60506 10274 20228 30181 40187 84520 333 20240 58011;
0156833980999992008100512004-15667-038950FM-12+000599999V0203601N005110450019N0040001N1+02761+02161101781ADDGF106991031051008001021001KA1240N+01981MA1999999101721MD1999999-0091REMSYN076AAXX  05124 83398 32596 63610 10276 20216 30172 40178 83520 333 20198 59009;
0137833980999992008100518004-15667-038950FM-12+000599999V0203601N006210450019N0040001N1+02761+02161101461ADDGF105991031051008001041001MA1999999101411MD1999999-0021REMSYN070AAXX  05184 83398 32596 53612 10276 20216 30141 40146 83540 333 59002;
0156833980999992008100612004-15667-038950FM-12+000599999V0203201N007210450019N0040001N1+02741+02211101811ADDGF106991031051008001041001KA1240N+02081MA1999999101751MD1999999+0031REMSYN076AAXX  06124 83398 32596 63214 10274 20221 30175 40181 83540 333 20208 58003;
0137833980999992008100618004-15667-038950FM-12+000599999V0200501N003110450019N0040001N1+02781+02181101671ADDGF105991031021008001041001MA1999999101611MD1999999+0201REMSYN070AAXX  06184 83398 32596 50506 10278 20218 30161 40167 83240 333 58020;
0168833980999992008100700004-15667-038950FM-12+000599999V0209999C000012200019N0010001N1+02521+02191101941ADDGF103991031011008001001001KA1240M+02901MA1999999101881MD1999999+0321REMSYN088AAXX  07004 83398 32594 30000 10252 20219 30188 40194 83100 333 10290 29077 55102 58032;
0156833980999992008100712004-15667-038950FM-12+000599999V0200901N003110450019N0040001N1+02681+02131102161ADDGF106991041051008001021001KA1240N+02001MA1999999102101MD1999999+0351REMSYN076AAXX  07124 83398 32596 60906 10268 20213 30210 40216 84520 333 20200 58035;
0137833980999992008100718004-15667-038950FM-12+000599999V0200901N003110450019N0040001N1+02781+02111101891ADDGF105991031051008001041001MA1999999101831MD1999999+0221REMSYN070AAXX  07184 83398 32596 50906 10278 20211 30183 40189 83540 333 58022;
0168833980999992008100800004-15667-038950FM-12+000599999V0200901N003110075019N0010001N1+02501+02111102081ADDGF105991051051008001001001KA1240M+02881MA1999999102021MD1999999+0141REMSYN088AAXX  08004 83398 32594 50906 10250 20211 30202 40208 85500 333 10288 29074 55102 58014;
0201833980999992008100812004-15667-038950FM-12+000599999V0200901N004110075019N0040001N1+02661+02071102061ADDAA124003091AY161061AY221061GF107991051051008001021001KA1240N+01961MA1999999102001MD1999999-0101MW1021REMSYN088AAXX  08124 83398 21596 70908 10266 20207 30200 40206 70262 85520 333 20196 59010 60034;
0137833980999992008100818004-15667-038950FM-12+000599999V0200901N003110450019N0040001N1+02721+01981101791ADDGF106991041051008001021001MA1999999101731MD1999999-0101REMSYN070AAXX  08184 83398 32596 60906 10272 20198 30173 40179 84520 333 59010;
0168833980999992008100900004-15667-038950FM-12+000599999V0209999C000012200019N0010001N1+02181+02101101971ADDGF104991041051008001001001KA1240M+02921MA1999999101911MD1999999-0111REMSYN088AAXX  09004 83398 32594 40000 10218 20210 30191 40197 84500 333 10292 29081 55076 59011;
0156833980999992008100912004-15667-038950FM-12+000599999V0201401N003110450019N0040001N1+02621+02051102051ADDGF107991041051008001021001KA1240N+01901MA1999999101991MD1999999-0011REMSYN076AAXX  09124 83398 32596 71406 10262 20205 30199 40205 84520 333 20190 59001;
0137833980999992008100918004-15667-038950FM-12+000599999V0201401N003112200019N0040001N1+02671+01981101721ADDGF104991021021008001041001MA1999999101661MD1999999-0071REMSYN070AAXX  09184 83398 32596 41406 10267 20198 30166 40172 82240 333 59007;
0168833980999992008101000004-15667-038950FM-12+000599999V0209999C000012200019N0010001N1+02201+02011102031ADDGF103991021011008001041001KA1240M+02861MA1999999101971MD1999999+0061REMSYN088AAXX  10004 83398 32594 30000 10220 20201 30197 40203 82140 333 10286 29079 55100 58006;
0201833980999992008101012004-15667-038950FM-12+000599999V0201401N003110075019N0040001N1+02471+02181101971ADDAA124003091AY161061AY221061GF108991051051008001021001KA1240N+02001MA1999999101911MD1999999-0081MW1021REMSYN088AAXX  10124 83398 21596 81406 10247 20218 30191 40197 70262 85520 333 20200 59008 60034;
0182833980999992008101018004-15667-038950FM-12+000599999V0201401N006210075019N0040001N1+02381+02091101741ADDAA106004191AY161061AY221061GF108991051051008001021999MA1999999101681MD1999999+0021MW1021REMSYN082AAXX  10184 83398 21596 81412 10238 20209 30168 40174 70262 8552/ 333 58002 60041;
0213833980999992008101100004-15667-038950FM-12+000599999V0201401N010310075019N0010001N1+02141+02071101941ADDAA106010991AY161061AY221061GF108991051051008001021999KA1240M+02811MA1999999101881MD1999999-0091MW1021REMSYN100AAXX  11004 83398 21594 81420 10214 20207 30188 40194 70262 8552/ 333 10281 29090 55031 59009 60111;
0201833980999992008101112004-15667-038950FM-12+000599999V0201401N003110450019N0040001N1+02561+02151101941ADDAA124033091AY161061AY221061GF106991031051008001021001KA1240N+02081MA1999999101881MD1999999-0031MW1021REMSYN088AAXX  11124 83398 21596 61406 10256 20215 30188 40194 70262 83520 333 20208 59003 60334;
0182833980999992008101118004-15667-038950FM-12+000599999V0201401N003112200019N0040001N1+02581+02041101721ADDAA106007991AY161061AY221061GF104991031051008001021001MA1999999101661MD1999999-0021MW1021REMSYN082AAXX  11184 83398 21596 41406 10258 20204 30166 40172 70262 83520 333 59002 60081;
0168833980999992008101200004-15667-038950FM-12+000599999V0209999C000010075019N0010001N1+02231+02151101971ADDGF108991051051008001021999KA1240M+02711MA1999999101911MD1999999+0031REMSYN088AAXX  12004 83398 32594 80000 10223 20215 30191 40197 8552/ 333 10271 29085 55048 58003;
0201833980999992008101212004-15667-038950FM-12+000599999V0200501N006210450019N0040001N1+02681+02041102001ADDAA124008991AY161061AY221061GF105991031021008001041001KA1240N+02091MA1999999101941MD1999999+0061MW1021REMSYN088AAXX  12124 83398 21596 50512 10268 20204 30194 40200 70262 83240 333 20209 58006 60094;
0137833980999992008101218004-15667-038950FM-12+000599999V0200501N003112200019N0040001N1+02741+01971101741ADDGF103991021011008001041001MA1999999101681MD1999999+0021REMSYN070AAXX  12184 83398 32596 30506 10274 20197 30168 40174 82140 333 58002;
0168833980999992008101300004-15667-038950FM-12+000599999V0200501N003110450019N0010001N1+02481+02051102031ADDGF107991041051008001021001KA1240M+02821MA1999999101971MD1999999+0061REMSYN088AAXX  13004 83398 32594 70506 10248 20205 30197 40203 84520 333 10282 29071 55097 58006;
0156833980999992008101312004-15667-038950FM-12+000599999V0200901N002110450019N0040001N1+02681+02061102071ADDGF106991031021008001041001KA1240N+02031MA1999999102011MD1999999+0071REMSYN076AAXX  13124 83398 32596 60904 10268 20206 30201 40207 83240 333 20203 58007;
0137833980999992008101318004-15667-038950FM-12+000599999V0200901N003110075019N0040001N1+02561+02111101741ADDGF108991051051008001021999MA1999999101681MD1999999+0001REMSYN070AAXX  13184 83398 32596 80906 10256 20211 30168 40174 8552/ 333 58000;
0213833980999992008101400004-15667-038950FM-12+000599999V0209999C000010075019N0010001N1+02261+02211101901ADDAA106002091AY161061AY221061GF108991051051008001021999KA1240M+02861MA1999999101841MD1999999-0131MW1021REMSYN100AAXX  14004 83398 21594 80000 10226 20221 30184 40190 70262 8552/ 333 10286 29085 55067 59013 60021;
0173833980999992008101412004-15667-038950FM-12+000599999V0200501N004110450019N0040001N1+02701+01991101901ADDAA124002091GF106991031021008001041001KA1240N+02221MA1999999101841MD1999999-0171REMSYN082AAXX  14124 83398 22596 60508 10270 20199 30184 40190 83240 333 20222 59017 60024;
0137833980999992008101418004-15667-038950FM-12+000599999V0200501N003112200019N0040001N1+02701+01991101571ADDGF103991021011008001041001MA1999999101521MD1999999-0161REMSYN070AAXX  14184 83398 32596 30506 10270 20199 30152 40157 82140 333 59016;
0168833980999992008101500004-15667-038950FM-12+000599999V0209999C000012200019N0010001N1+02431+01981101821ADDGF102991011011008001041001KA1240M+02831MA1999999101761MD1999999-0081REMSYN088AAXX  15004 83398 32594 20000 10243 20198 30176 40182 81140 333 10283 29070 55101 59008;
0156833980999992008101512004-15667-038950FM-12+000599999V0209999C000010075019N0040001N1+02591+02201101911ADDGF108991051051008001021999KA1240N+01891MA1999999101851MD1999999+0011REMSYN076AAXX  15124 83398 32596 80000 10259 20220 30185 40191 8552/ 333 20189 58001;
0137833980999992008101518004-15667-038950FM-12+000599999V0203601N003112200019N0040001N1+02721+01981101561ADDGF101991011011008001001001MA1999999101511MD1999999-0011REMSYN070AAXX  15184 83398 32596 13606 10272 20198 30151 40156 81100 333 59001;
0168833980999992008101600004-15667-038950FM-12+000599999V0203601N005112200019N0010001N1+02481+02051101791ADDGF104991021011008001041001KA1240M+02821MA1999999101731MD1999999-0031REMSYN088AAXX  16004 83398 32594 43610 10248 20205 30173 40179 82140 333 10282 29074 55084 59003;
0156833980999992008101612004-15667-038950FM-12+000599999V0203601N004110450019N0040001N1+02781+02211101831ADDGF105991031021008001041001KA1240N+01941MA1999999101771MD1999999-0081REMSYN076AAXX  16124 83398 32596 53608 10278 20221 30177 40183 83240 333 20194 59008;
0137833980999992008101618004-15667-038950FM-12+000599999V0203601N006212200019N0040001N1+02761+02191101501ADDGF103991021011008001041001MA1999999101451MD1999999-0061REMSYN070AAXX  16184 83398 32596 33612 10276 20219 30145 40150 82140 333 59006;
0168833980999992008101700004-15667-038950FM-12+000599999V0203601N006212200019N0010001N1+02481+02171101651ADDGF104991021021008001041001KA1240M+02881MA1999999101591MD1999999-0141REMSYN088AAXX  17004 83398 32594 43612 10248 20217 30159 40165 82240 333 10288 29077 55098 59014;
0156833980999992008101712004-15667-038950FM-12+000599999V0203601N006212200019N0040001N1+02801+02081101731ADDGF104991021021008001041001KA1240N+02061MA1999999101671MD1999999-0101REMSYN076AAXX  17124 83398 32596 43612 10280 20208 30167 40173 82240 333 20206 59010;
0137833980999992008101718004-15667-038950FM-12+000599999V0200501N005110450019N0040001N1+02711+02141101441ADDGF105991031021008001041001MA1999999101391MD1999999-0061REMSYN070AAXX  17184 83398 32596 50510 10271 20214 30139 40144 83240 333 59006;
0168833980999992008101800004-15667-038950FM-12+000599999V0200501N004110450019N0010001N1+02521+02151101621ADDGF105991031021008001041001KA1240M+02891MA1999999101561MD1999999-0031REMSYN088AAXX  18004 83398 32594 50508 10252 20215 30156 40162 83240 333 10289 29074 55083 59003;
0156833980999992008101812004-15667-038950FM-12+000599999V0200501N002110450019N0040001N1+02681+02161101741ADDGF105991031051008001041001KA1240N+01981MA1999999101681MD1999999+0011REMSYN076AAXX  18124 83398 32596 50504 10268 20216 30168 40174 83540 333 20198 58001;
0137833980999992008101818004-15667-038950FM-12+000599999V0200501N005110450019N0040001N1+02801+02081101421ADDGF105991031021008001041001MA1999999101371MD1999999-0021REMSYN070AAXX  18184 83398 32596 50510 10280 20208 30137 40142 83240 333 59002;
0168833980999992008101900004-15667-038950FM-12+000599999V0200501N003112200019N0010001N1+02541+02191101531ADDGF104991041051008001001001KA1240M+02861MA1999999101481MD1999999-0081REMSYN088AAXX  19004 83398 32594 40506 10254 20219 30148 40153 84500 333 10286 29075 55097 59008;
0156833980999992008101912004-15667-038950FM-12+000599999V0203601N003110450019N0040001N1+02761+02301101831ADDGF106991041051008001021001KA1240N+02201MA1999999101771MD1999999+0091REMSYN076AAXX  19124 83398 32596 63606 10276 20230 30177 40183 84520 333 20220 58009;
0137833980999992008101918004-15667-038950FM-12+000599999V0203601N005110450019N0040001N1+02241+02241101571ADDGF105991031021008001041001MA1999999101521MD1999999+0151REMSYN070AAXX  19184 83398 32596 53610 10224 20224 30152 40157 83240 333 58015;
0168833980999992008102000004-15667-038950FM-12+000599999V0203601N003110075019N0010001N1+02541+02291101741ADDGF105991051051008001001001KA1240M+02941MA1999999101681MD1999999+0201REMSYN088AAXX  20004 83398 32594 53606 10254 20229 30168 40174 85500 333 10294 29080 55091 58020;
0156833980999992008102012004-15667-038950FM-12+000599999V0200501N003110450019N0040001N1+02791+02191102071ADDGF105991031021008001041001KA1240N+02031MA1999999102011MD1999999+0241REMSYN076AAXX  20124 83398 32596 50506 10279 20219 30201 40207 83240 333 20203 58024;
0137833980999992008102018004-15667-038950FM-12+000599999V0200501N003112200019N0040001N1+02801+02151101821ADDGF101991011011008001001001MA1999999101761MD1999999+0241REMSYN070AAXX  20184 83398 32596 10506 10280 20215 30176 40182 81100 333 58024;
0168833980999992008102100004-15667-038950FM-12+000599999V0200501N005112200019N0010001N1+02541+02151102021ADDGF102991011011008001041001KA1240M+02921MA1999999101961MD1999999+0281REMSYN088AAXX  21004 83398 32594 20510 10254 20215 30196 40202 81140 333 10292 29074 55103 58028;
0156833980999992008102112004-15667-038950FM-12+000599999V0200501N005110450019N0040001N1+02781+02091102051ADDGF105991031051008001041001KA1240N+02141MA1999999101991MD1999999-0021REMSYN076AAXX  21124 83398 32596 50510 10278 20209 30199 40205 83540 333 20214 59002;
0137833980999992008102118004-15667-038950FM-12+000599999V0200501N003112200019N0040001N1+02761+02071101761ADDGF102991011011008001041001MA1999999101701MD1999999-0061REMSYN070AAXX  21184 83398 32596 20506 10276 20207 30170 40176 81140 333 59006;
0168833980999992008102200004-15667-038950FM-12+000599999V0200501N002112200019N0010001N1+02531+02081101981ADDGF102991011011008001041001KA1240M+02921MA1999999101921MD1999999-0041REMSYN088AAXX  22004 83398 32594 20504 10253 20208 30192 40198 81140 333 10292 29071 55105 59004;
0201833980999992008102212004-15667-038950FM-12+000599999V0200501N004110450019N0040001N1+02721+02031102001ADDAA124002091AY161061AY221061GF105991031021008001041001KA1240N+02161MA1999999101941MD1999999-0051MW1021REMSYN088AAXX  22124 83398 21596 50508 10272 20203 30194 40200 70262 83240 333 20216 59005 60024;
0137833980999992008102218004-15667-038950FM-12+000599999V0200501N004112200019N0040001N1+02761+02071101721ADDGF104991021011008001041001MA1999999101661MD1999999-0041REMSYN070AAXX  22184 83398 32596 40508 10276 20207 30166 40172 82140 333 59004;
0168833980999992008102300004-15667-038950FM-12+000599999V0200501N002110450019N0010001N1+02521+01981101911ADDGF105991031051008001041001KA1240M+02881MA1999999101851MD1999999-0071REMSYN088AAXX  23004 83398 32594 50504 10252 20198 30185 40191 83540 333 10288 29069 55095 59007;
0156833980999992008102312004-15667-038950FM-12+000599999V0200501N004112200019N0040001N1+02781+02041101981ADDGF104991021021008001041001KA1240N+02011MA1999999101921MD1999999-0021REMSYN076AAXX  23124 83398 32596 40508 10278 20204 30192 40198 82240 333 20201 59002;
0137833980999992008102318004-15667-038950FM-12+000599999V0200501N006212200019N0040001N1+02741+01971101661ADDGF102991011011008001041001MA1999999101601MD1999999-0061REMSYN070AAXX  23184 83398 32596 20512 10274 20197 30160 40166 81140 333 59006;
0168833980999992008102400004-15667-038950FM-12+000599999V0200501N003112200019N0010001N1+02521+02091101881ADDGF102991011011008001041001KA1240M+02911MA1999999101821MD1999999-0031REMSYN088AAXX  24004 83398 32594 20506 10252 20209 30182 40188 81140 333 10291 29070 55101 59003;
0156833980999992008102412004-15667-038950FM-12+000599999V0200501N004110450019N0040001N1+02821+02151102061ADDGF106991031051008001041001KA1240N+02051MA1999999102001MD1999999+0081REMSYN076AAXX  24124 83398 32596 60508 10282 20215 30200 40206 83540 333 20205 58008;
0137833980999992008102418004-15667-038950FM-12+000599999V0200501N007210450019N0040001N1+02781+02111101731ADDGF105991021011008001041001MA1999999101671MD1999999+0071REMSYN070AAXX  24184 83398 32596 50514 10278 20211 30167 40173 82140 333 58007;
0168833980999992008102500004-15667-038950FM-12+000599999V0203601N004112200019N0010001N1+02541+02151101841ADDGF104991021021008001041001KA1240M+02951MA1999999101781MD1999999-0041REMSYN088AAXX  25004 83398 32594 43608 10254 20215 30178 40184 82240 333 10295 29073 55090 59004;
0156833980999992008102512004-15667-038950FM-12+000599999V0203601N005112200019N0040001N1+02761+02091101941ADDGF104991021021008001041001KA1240N+02071MA1999999101881MD1999999-0121REMSYN076AAXX  25124 83398 32596 43610 10276 20209 30188 40194 82240 333 20207 59012;
0137833980999992008102518004-15667-038950FM-12+000599999V0203601N007212200019N0040001N1+02791+02121101511ADDGF101991011011008001001001MA1999999101461MD1999999-0211REMSYN070AAXX  25184 83398 32596 13614 10279 20212 30146 40151 81100 333 59021;
0168833980999992008102600004-15667-038950FM-12+000599999V0203601N003112200019N0010001N1+02481+02111101701ADDGF102991011011008001041001KA1240M+02931MA1999999101641MD1999999-0141REMSYN088AAXX  26004 83398 32594 23606 10248 20211 30164 40170 81140 333 10293 29073 55100 59014;
0156833980999992008102612004-15667-038950FM-12+000599999V0203601N006210450019N0040001N1+02801+02201101831ADDGF106991041051008001041001KA1240N+01951MA1999999101771MD1999999-0111REMSYN076AAXX  26124 83398 32596 63612 10280 20220 30177 40183 84540 333 20195 59011;
0137833980999992008102618004-15667-038950FM-12+000599999V0203601N005112200019N0040001N1+02781+02091101431ADDGF101991011011008001001001MA1999999101381MD1999999-0081REMSYN070AAXX  26184 83398 32596 13610 10278 20209 30138 40143 81100 333 59008;
0168833980999992008102700004-15667-038950FM-12+000599999V0203601N002112200019N0010001N1+02501+02091101741ADDGF102991011011008001041001KA1240M+02931MA1999999101681MD1999999+0041REMSYN088AAXX  27004 83398 32594 23604 10250 20209 30168 40174 81140 333 10293 29073 55094 58004;
0156833980999992008102712004-15667-038950FM-12+000599999V0203601N005110450019N0040001N1+02661+02041101681ADDGF106991031051008001041001KA1240N+01911MA1999999101621MD1999999-0151REMSYN076AAXX  27124 83398 32596 63610 10266 20204 30162 40168 83540 333 20191 59015;
0137833980999992008102718004-15667-038950FM-12+000599999V0203601N006212200019N0040001N1+02761+02021101271ADDGF101991011011008001001001MA1999999101221MD1999999-0161REMSYN070AAXX  27184 83398 32596 13612 10276 20202 30122 40127 81100 333 59016;
0168833980999992008102800004-15667-038950FM-12+000599999V0203601N008212200019N0010001N1+02461+02111101421ADDGF103991021011008001041001KA1240M+02911MA1999999101371MD1999999-0311REMSYN088AAXX  28004 83398 32594 33616 10246 20211 30137 40142 82140 333 10291 29074 55106 59031;
0156833980999992008102812004-15667-038950FM-12+000599999V0203601N005110450019N0040001N1+02821+02101101491ADDGF105991031051008001041001KA1240N+01941MA1999999101441MD1999999-0181REMSYN076AAXX  28124 83398 32596 53610 10282 20210 30144 40149 83540 333 20194 59018;
0137833980999992008102818004-15667-038950FM-12+000599999V0203601N006212200019N0040001N1+02761+01991101181ADDGF101991011011008001001001MA1999999101131MD1999999-0091REMSYN070AAXX  28184 83398 32596 13612 10276 20199 30113 40118 81100 333 59009;
0168833980999992008102900004-15667-038950FM-12+000599999V0203601N003112200019N0010001N1+02481+01981101511ADDGF101991011011008001001001KA1240M+02941MA1999999101461MD1999999+0091REMSYN088AAXX  29004 83398 32594 13606 10248 20198 30146 40151 81100 333 10294 29069 55110 58009;
0156833980999992008102912004-15667-038950FM-12+000599999V0200501N002112200019N0040001N1+02801+02001101681ADDGF102991011011008001041001KA1240N+01861MA1999999101621MD1999999+0181REMSYN076AAXX  29124 83398 32596 20504 10280 20200 30162 40168 81140 333 20186 58018;
0168833980999992008103000004-15667-038950FM-12+000599999V0203601N007212200019N0010001N1+02491+02161101421ADDGF101991011011008001001001KA1240M+02941MA1999999101371MD1999999-0091REMSYN088AAXX  30004 83398 32594 13614 10249 20216 30137 40142 81100 333 10294 29072 55104 59009;
0137833980999992008103018004-15667-038950FM-12+000599999V0203601N008212200019N0040001N1+02761+02231101311ADDGF103991021011008001041001MA1999999101261MD1999999+0031REMSYN070AAXX  30184 83398 32596 33616 10276 20223 30126 40131 82140 333 58003;
0168833980999992008103100004-15667-038950FM-12+000599999V0203601N007212200019N0010001N1+02521+02271101531ADDGF102991011011008001041001KA1240M+02961MA1999999101481MD1999999+0111REMSYN088AAXX  31004 83398 32594 23614 10252 20227 30148 40153 81140 333 10296 29078 55078 58011;
0156833980999992008103112004-15667-038950FM-12+000599999V0203601N007210450019N0040001N1+02841+02171101641ADDGF105991031051008001041001KA1240N+02161MA1999999101581MD1999999-0071REMSYN076AAXX  31124 83398 32596 53614 10284 20217 30158 40164 83540 333 20216 59007;
0137833980999992008103118004-15667-038950FM-12+000599999V0203601N008212200019N0040001N1+02781+02181101231ADDGF101991011011008001001001MA1999999101181MD1999999-0081REMSYN070AAXX  31184 83398 32596 13616 10278 20218 30118 40123 81100 333 59008;
0168833980999992008110100004-15667-038950FM-12+000599999V0203601N003112200019N0010001N1+02521+02231101481ADDGF102991011011008001041001KA1240M+02951MA1999999101431MD1999999-0051REMSYN088AAXX  01004 83398 32594 23606 10252 20223 30143 40148 81140 333 10295 29076 55104 59005;
0156833980999992008110112004-15667-038950FM-12+000599999V0200501N002112200019N0040001N1+02851+02131101741ADDGF104991021011008001041001KA1240N+02121MA1999999101681MD1999999+0101REMSYN076AAXX  01124 83398 32596 40504 10285 20213 30168 40174 82140 333 20212 58010;
0137833980999992008110118004-15667-038950FM-12+000599999V0200501N003112200019N0040001N1+02801+02111101481ADDGF103991021011008001041001MA1999999101431MD1999999+0251REMSYN070AAXX  01184 83398 32596 30506 10280 20211 30143 40148 82140 333 58025;
0168833980999992008110200004-15667-038950FM-12+000599999V0200501N001010450019N0010001N1+02561+02171101801ADDGF105991031021008001041001KA1240M+02961MA1999999101741MD1999999+0311REMSYN088AAXX  02004 83398 32594 50502 10256 20217 30174 40180 83240 333 10296 29072 55089 58031;
0156833980999992008110212004-15667-038950FM-12+000599999V0200501N002110450019N0040001N1+02781+02061101931ADDGF105991031021008001041001KA1240N+02011MA1999999101841MD1999999+0191REMSYN076AAXX  02124 83398 32596 50504 10278 20206 30184 40193 83240 333 20201 58019;
0137833980999992008110218004-15667-038950FM-12+000599999V0200501N005112200019N0040001N1+02801+01981101521ADDGF102991011011008001041001MA1999999101471MD1999999+0041REMSYN070AAXX  02184 83398 32596 20510 10280 20198 30147 40152 81140 333 58004;
0168833980999992008110300004-15667-038950FM-12+000599999V0203601N004112200019N0010001N1+02521+02091101731ADDGF102991011011008001041001KA1240M+02981MA1999999101671MD1999999-0071REMSYN088AAXX  03004 83398 32594 23608 10252 20209 30167 40173 81140 333 10298 29070 55106 59007;
0156833980999992008110312004-15667-038950FM-12+000599999V0203201N004112200019N0040001N1+02821+02151101821ADDGF104991021011008001041001KA1240N+02061MA1999999101761MD1999999-0111REMSYN076AAXX  03124 83398 32596 43208 10282 20215 30176 40182 82140 333 20206 59011;
0137833980999992008110318004-15667-038950FM-12+000599999V0203601N005112200019N0040001N1+02821+02201101381ADDGF101991011001008001041001MA1999999101331MD1999999-0141REMSYN070AAXX  03184 83398 32596 13610 10282 20220 30133 40138 81040 333 59014;
0168833980999992008110400004-15667-038950FM-12+000599999V0203601N005112200019N0010001N1+02541+02231101561ADDGF103991021021008001041001KA1240M+02961MA1999999101511MD1999999-0161REMSYN088AAXX  04004 83398 32594 33610 10254 20223 30151 40156 82240 333 10296 29075 55110 59016;
0156833980999992008110412004-15667-038950FM-12+000599999V0203601N008210450019N0040001N1+02871+02291101501ADDGF106991041051008001021001KA1240N+02481MA1999999101451MD1999999-0311REMSYN076AAXX  04124 83398 32596 63616 10287 20229 30145 40150 84520 333 20248 59031;
0137833980999992008110418004-15667-038950FM-12+000599999V0203601N007212200019N0040001N1+02841+02331101231ADDGF103991021011008001041001MA1999999101181MD1999999-0151REMSYN070AAXX  04184 83398 32596 33614 10284 20233 30118 40123 82140 333 59015;
0168833980999992008110500004-15667-038950FM-12+000599999V0203601N003112200019N0010001N1+02521+02311101371ADDGF103991021011008001041001KA1240M+03001MA1999999101321MD1999999-0191REMSYN088AAXX  05004 83398 32594 33606 10252 20231 30132 40137 82140 333 10300 29080 55098 59019;
0156833980999992008110512004-15667-038950FM-12+000599999V0203601N004110075019N0040001N1+02841+02331101591ADDGF108991051051008001021999KA1240N+02321MA1999999101541MD1999999+0091REMSYN076AAXX  05124 83398 32596 83608 10284 20233 30154 40159 8552/ 333 20232 58009;
0137833980999992008110518004-15667-038950FM-12+000599999V0203601N004112200019N0040001N1+02821+02361101231ADDGF103991021011008001041001MA1999999101181MD1999999+0001REMSYN070AAXX  05184 83398 32596 33608 10282 20236 30118 40123 82140 333 58000;
0168833980999992008110600004-15667-038950FM-12+000599999V0203201N003112200019N0010001N1+02541+02291101451ADDGF102991011011008001041001KA1240M+03031MA1999999101401MD1999999+0081REMSYN088AAXX  06004 83398 32594 23206 10254 20229 30140 40145 81140 333 10303 29080 55090 58008;
0156833980999992008110612004-15667-038950FM-12+000599999V0203601N007210450019N0040001N1+02841+02261101561ADDGF106991031051008001021001KA1240N+02401MA1999999101511MD1999999-0031REMSYN076AAXX  06124 83398 32596 63614 10284 20226 30151 40156 83520 333 20240 59003;
0137833980999992008110618004-15667-038950FM-12+000599999V0203601N007212200019N0040001N1+02821+02241101181ADDGF103991021021008001041001MA1999999101131MD1999999-0051REMSYN070AAXX  06184 83398 32596 33614 10282 20224 30113 40118 82240 333 59005;
0168833980999992008110700004-15667-038950FM-12+000599999V0203601N004112200019N0010001N1+02521+02231101291ADDGF101991011011008001001001KA1240M+03011MA1999999101241MD1999999-0161REMSYN088AAXX  07004 83398 32594 13608 10252 20223 30124 40129 81100 333 10301 29077 55108 59016;
0156833980999992008110712004-15667-038950FM-12+000599999V0203601N008210450019N0040001N1+02861+02231101341ADDGF106991031021008001041001KA1240N+02151MA1999999101291MD1999999-0221REMSYN076AAXX  07124 83398 32596 63616 10286 20223 30129 40134 83240 333 20215 59022;
0137833980999992008110718004-15667-038950FM-12+000599999V0203601N008212200019N0040001N1+02821+02271101011ADDGF101991011011008001001001MA1999999100961MD1999999-0171REMSYN070AAXX  07184 83398 32596 13616 10282 20227 30096 40101 81100 333 59017;
0168833980999992008110800004-15667-038950FM-12+000599999V0203601N004112200019N0010001N1+02521+02291101201ADDGF102991011011008001041001KA1240M+03011MA1999999101151MD1999999-0091REMSYN088AAXX  08004 83398 32594 23608 10252 20229 30115 40120 81140 333 10301 29081 55081 59009;
0156833980999992008110812004-15667-038950FM-12+000599999V0203601N005110450019N0040001N1+02811+02191101361ADDGF106991041051008001021001KA1240N+02451MA1999999101311MD1999999+0021REMSYN076AAXX  08124 83398 32596 63610 10281 20219 30131 40136 84520 333 20245 58002;
0137833980999992008110818004-15667-038950FM-12+000599999V0203601N006212200019N0040001N1+02811+02281101041ADDGF103991021011008001041001MA1999999100991MD1999999+0031REMSYN070AAXX  08184 83398 32596 33612 10281 20228 30099 40104 82140 333 58003;
0168833980999992008110900004-15667-038950FM-12+000599999V0203601N005110075019N0040001N1+02571+02321101311ADDGF108991051051008001021001KA1240M+03031MA1999999101261MD1999999+0111REMSYN088AAXX  09004 83398 32596 83610 10257 20232 30126 40131 85520 333 10303 29078 55077 58011;
0156833980999992008110912004-15667-038950FM-12+000599999V0203201N006210075019N0040001N1+02741+02241101361ADDGF108991051051008001021999KA1240N+02451MA1999999101311MD1999999+0001REMSYN076AAXX  09124 83398 32596 83212 10274 20224 30131 40136 8552/ 333 20245 58000;
0137833980999992008110918004-15667-038950FM-12+000599999V0203201N004110075019N0040001N1+02801+02271101101ADDGF108991051051008001021999MA1999999101051MD1999999+0061REMSYN070AAXX  09184 83398 32596 83208 10280 20227 30105 40110 8552/ 333 58006;
0168833980999992008111000004-15667-038950FM-12+000599999V0203601N002110450019N0010001N1+02501+02291101301ADDGF105991031021008001041001KA1240M+02981MA1999999101251MD1999999-0011REMSYN088AAXX  10004 83398 32594 53604 10250 20229 30125 40130 83240 333 10298 29081 55023 59001;
0156833980999992008111012004-15667-038950FM-12+000599999V0203601N005110450019N0040001N1+02821+02201101471ADDGF107991041051008001021001KA1240N+02181MA1999999101421MD1999999+0111REMSYN076AAXX  10124 83398 32596 73610 10282 20220 30142 40147 84520 333 20218 58011;
0137833980999992008111018004-15667-038950FM-12+000599999V0203601N006212200019N0040001N1+02831+02231101141ADDGF103991011011008001041001MA1999999101091MD1999999+0041REMSYN070AAXX  10184 83398 32596 33612 10283 20223 30109 40114 81140 333 58004;
0168833980999992008111100004-15667-038950FM-12+000599999V0203601N003112200019N0010001N1+02531+02301101311ADDGF103991011011008001041001KA1240M+03001MA1999999101261MD1999999+0011REMSYN088AAXX  11004 83398 32594 33606 10253 20230 30126 40131 81140 333 10300 29078 55074 58001;
0156833980999992008111112004-15667-038950FM-12+000599999V0203601N005110075019N0040001N1+02801+02201101361ADDGF107991051051008001021001KA1240N+02261MA1999999101311MD1999999-0111REMSYN076AAXX  11124 83398 32596 73610 10280 20220 30131 40136 85520 333 20226 59011;
0137833980999992008111118004-15667-038950FM-12+000599999V0203601N004110450019N0040001N1+02801+02271101061ADDGF106991041051008001021001MA1999999101011MD1999999-0081REMSYN070AAXX  11184 83398 32596 63608 10280 20227 30101 40106 84520 333 59008;
0168833980999992008111200004-15667-038950FM-12+000599999V0209999C000010075019N0010001N1+02541+02401101331ADDGF108991051051008001021999KA1240M+02901MA1999999101281MD1999999+0021REMSYN088AAXX  12004 83398 32594 80000 10254 20240 30128 40133 8552/ 333 10290 29082 55013 58002;
0201833980999992008111212004-15667-038950FM-12+000599999V0203601N001010075019N0040001N1+02561+02331101301ADDAA124005191AY161061AY221061GF108991051051008001021999KA1240N+02351MA1999999101251MD1999999-0061MW1021REMSYN088AAXX  12124 83398 21596 83602 10256 20233 30125 40130 70262 8552/ 333 20235 59006 60054;
0137833980999992008111218004-15667-038950FM-12+000599999V0203601N005110450019N0040001N1+02741+02191100981ADDGF107991041051008001021001MA1999999100931MD1999999-0081REMSYN070AAXX  12184 83398 32596 73610 10274 20219 30093 40098 84520 333 59008;
0168833980999992008111300004-15667-038950FM-12+000599999V0209999C000010450019N0010001N1+02461+02271101221ADDGF105991031021008001041001KA1240M+02921MA1999999101171MD1999999-0111REMSYN088AAXX  13004 83398 32594 50000 10246 20227 30117 40122 83240 333 10292 29084 55022 59011;
0175833980999992008111312004-15667-038950FM-12+000599999V0203601N005112200019N0040001N1+02841+02171101261ADDGF104991999021008001001001KA1240N+02321MA1999999101211MD1999999-0041REMSYN076AAXX  13124 83398 32596 43610 10284 20217 30121 40126 82200 333 20232 59004;EQDQ01+000022SCOTLC
0137833980999992008111318004-15667-038950FM-12+000599999V0203601N007212200019N0040001N1+02801+02181100961ADDGF102991011011008001041001MA1999999100911MD1999999-0021REMSYN070AAXX  13184 83398 32596 23614 10280 20218 30091 40096 81140 333 59002;
0168833980999992008111400004-15667-038950FM-12+000599999V0209999C000010075019N0010001N1+02541+02311101271ADDGF108991051051008001021999KA1240M+02991MA1999999101221MD1999999+0051REMSYN088AAXX  14004 83398 32594 80000 10254 20231 30122 40127 8552/ 333 10299 29077 55109 58005;
0156833980999992008111412004-15667-038950FM-12+000599999V0203201N005110075019N0040001N1+02781+02321101361ADDGF108991051051008001021999KA1240N+02461MA1999999101311MD1999999+0101REMSYN076AAXX  14124 83398 32596 83210 10278 20232 30131 40136 8552/ 333 20246 58010;
0137833980999992008111418004-15667-038950FM-12+000599999V0203601N006210450019N0040001N1+02841+02311101061ADDGF106991031051008001021001MA1999999101011MD1999999+0101REMSYN070AAXX  14184 83398 32596 63612 10284 20231 30101 40106 83520 333 58010;
0168833980999992008111500004-15667-038950FM-12+000599999V0203601N005112200019N0010001N1+02541+02251101221ADDGF103991011011008001041001KA1240M+03031MA1999999101171MD1999999-0051REMSYN088AAXX  15004 83398 32594 33610 10254 20225 30117 40122 81140 333 10303 29079 55046 59005;
0156833980999992008111512004-15667-038950FM-12+000599999V0203201N009312200019N0040001N1+02841+02261101221ADDGF104991021021008001041001KA1240N+02461MA1999999101171MD1999999-0141REMSYN076AAXX  15124 83398 32596 43218 10284 20226 30117 40122 82240 333 20246 59014;
0137833980999992008111518004-15667-038950FM-12+000599999V0203601N005110450019N0040001N1+02781+02271100871ADDGF106991031021008001041001MA1999999100821MD1999999-0191REMSYN070AAXX  15184 83398 32596 63610 10278 20227 30082 40087 83240 333 59019;
0168833980999992008111600004-15667-038950FM-12+000599999V0203601N004112200019N0010001N1+02521+02291101061ADDGF102991011011008001041001KA1240M+03031MA1999999101011MD1999999-0161REMSYN088AAXX  16004 83398 32594 23608 10252 20229 30101 40106 81140 333 10303 29080 55098 59016;
0156833980999992008111612004-15667-038950FM-12+000599999V0203601N008210450019N0040001N1+02821+02311101191ADDGF106991031051008001021001KA1240N+02441MA1999999101141MD1999999-0031REMSYN076AAXX  16124 83398 32596 63616 10282 20231 30114 40119 83520 333 20244 59003;
0137833980999992008111618004-15667-038950FM-12+000599999V0203601N004110075019N0040001N1+02801+02251101001ADDGF108991051051008001021999MA1999999100951MD1999999+0131REMSYN070AAXX  16184 83398 32596 83608 10280 20225 30095 40100 8552/ 333 58013;
0168833980999992008111700004-15667-038950FM-12+000599999V0203601N002112200019N0010001N1+02541+02311101181ADDGF102991011011008001041001KA1240M+03011MA1999999101131MD1999999+0121REMSYN088AAXX  17004 83398 32594 23604 10254 20231 30113 40118 81140 333 10301 29080 55069 58012;
0156833980999992008111712004-15667-038950FM-12+000599999V0200501N003110450019N0040001N1+02781+02181101401ADDGF106991031051008001021001KA1240N+02411MA1999999101351MD1999999+0211REMSYN076AAXX  17124 83398 32596 60506 10278 20218 30135 40140 83520 333 20241 58021;
0137833980999992008111718004-15667-038950FM-12+000599999V0200501N003112200019N0040001N1+02821+02201101141ADDGF103991021011008001041001MA1999999101091MD1999999+0141REMSYN070AAXX  17184 83398 32596 30506 10282 20220 30109 40114 82140 333 58014;
0168833980999992008111800004-15667-038950FM-12+000599999V0209999C000012200019N0010001N1+02501+02271101351ADDGF102991011011008001041001KA1240M+02981MA1999999101301MD1999999+0171REMSYN088AAXX  18004 83398 32594 20000 10250 20227 30130 40135 81140 333 10298 29078 55092 58017;
0156833980999992008111812004-15667-038950FM-12+000599999V0200501N002110450019N0040001N1+02761+02191101411ADDGF106991041051008001021001KA1240N+02101MA1999999101361MD1999999+0011REMSYN076AAXX  18124 83398 32596 60504 10276 20219 30136 40141 84520 333 20210 58001;
0137833980999992008111818004-15667-038950FM-12+000599999V0200501N003110450019N0040001N1+02741+02241101181ADDGF106991041051008001021001MA1999999101131MD1999999+0041REMSYN070AAXX  18184 83398 32596 60506 10274 20224 30113 40118 84520 333 58004;
0168833980999992008111900004-15667-038950FM-12+000599999V0209999C000010450019N0010001N1+02541+02251101321ADDGF106991041051008001021001KA1240M+02991MA1999999101271MD1999999-0031REMSYN088AAXX  19004 83398 32594 60000 10254 20225 30127 40132 84520 333 10299 29078 55006 59003;
0156833980999992008111912004-15667-038950FM-12+000599999V0203601N002110075019N0040001N1+02721+02261101281ADDGF107991051051008001021001KA1240N+02161MA1999999101231MD1999999-0131REMSYN076AAXX  19124 83398 32596 73604 10272 20226 30123 40128 85520 333 20216 59013;
0137833980999992008111918004-15667-038950FM-12+000599999V0203601N001010075019N0040001N1+02681+02431101041ADDGF108991051051008001021999MA1999999100991MD1999999-0141REMSYN070AAXX  19184 83398 32596 83602 10268 20243 30099 40104 8552/ 333 59014;
0168833980999992008112000004-15667-038950FM-12+000599999V0209999C000010075019N0010001N1+02481+02321101231ADDGF107991051051008001021001KA1240M+02861MA1999999101181MD1999999-0091REMSYN088AAXX  20004 83398 32594 70000 10248 20232 30118 40123 85520 333 10286 29086 55013 59009;
0156833980999992008112012004-15667-038950FM-12+000599999V0209999C000010075019N0040001N1+02341+02241101511ADDGF108991051051008001021999KA1240N+02241MA1999999101451MD1999999+0221REMSYN076AAXX  20124 83398 32596 80000 10234 20224 30145 40151 8552/ 333 20224 58022;
0137833980999992008112018004-15667-038950FM-12+000599999V0200901N002110075019N0040001N1+02561+02351101301ADDGF108991051051008001021999MA1999999101251MD1999999+0261REMSYN070AAXX  20184 83398 32596 80904 10256 20235 30125 40130 8552/ 333 58026;
0213833980999992008112100004-15667-038950FM-12+000599999V0209999C000010450019N0010001N1+02281+02231101521ADDAA106002091AY161061AY221061GF108991041071004501021999KA1240M+02661MA1999999101471MD1999999+0291MW1521REMSYN100AAXX  21004 83398 21494 80000 10228 20223 30147 40152 75262 8472/ 333 10266 29094 55000 58029 60021;
0201833980999992008112112004-15667-038950FM-12+000599999V0201801N003110075019N0040001N1+02241+02141101721ADDAA124034091AY161061AY221061GF108991051051008001021999KA1240N+02101MA1999999101661MD1999999+0211MW1021REMSYN088AAXX  21124 83398 21596 81806 10224 20214 30166 40172 70262 8552/ 333 20210 58021 60344;
0137833980999992008112118004-15667-038950FM-12+000599999V0201401N003110075019N0040001N1+02401+02231101581ADDGF108991051051008001021999MA1999999101531MD1999999+0081REMSYN070AAXX  21184 83398 32596 81406 10240 20223 30153 40158 8552/ 333 58008;
0213833980999992008112200004-15667-038950FM-12+000599999V0209999C000010075019N0010001N1+02181+02151101801ADDAA106003091AY161061AY221061GF108991051051008001021999KA1240M+02541MA1999999101741MD1999999+0271MW1021REMSYN100AAXX  22004 83398 21594 80000 10218 20215 30174 40180 70262 8552/ 333 10254 29095 55000 58027 60031;
0201833980999992008112212004-15667-038950FM-12+000599999V0201401N002110075019N0040001N1+02321+02291101781ADDAA124041991AY161061AY221061GF108991051071008001021999KA1240N+02081MA1999999101721MD1999999+0061MW1631REMSYN088AAXX  22124 83398 21596 81404 10232 20229 30172 40178 76362 8572/ 333 20208 58006 60424;
0182833980999992008112218004-15667-038950FM-12+000599999V0209999C000010450019N0040001N1+02441+02401101501ADDAA106003091AY161061AY221061GF108991041071008001021999MA1999999101451MD1999999-0081MW1501REMSYN082AAXX  22184 83398 21596 80000 10244 20240 30145 40150 75062 8472/ 333 59008 60031;
0232833980999992008112300004-15667-038950FM-12+000599999V0209999C000010075019N0010001N1+02141+02111101701ADDAA106003091AY161061AY221061GF108991999051008001021999KA1240M+02541MA1999999101641MD1999999-0101MW1531REMSYN100AAXX  23004 83398 21594 80000 10214 20211 30164 40170 75362 8852/ 333 10254 29098 55000 59010 60031;EQDQ01+000082SCOTLC
0201833980999992008112312004-15667-038950FM-12+000599999V0209999C000010450019N0040001N1+02281+02261101721ADDAA124016091AY161061AY221061GF108991041071008001021999KA1240N+02041MA1999999101661MD1999999-0061MW1521REMSYN088AAXX  23124 83398 21596 80000 10228 20226 30166 40172 75262 8472/ 333 20204 59006 60164;
0182833980999992008112318004-15667-038950FM-12+000599999V0209999C000010450019N0040001N1+02381+02331101431ADDAA106002091AY161061AY221061GF108991041071008001021999MA1999999101381MD1999999+0071MW1501REMSYN082AAXX  23184 83398 21596 80000 10238 20233 30138 40143 75062 8472/ 333 58007 60021;
0201833980999992008112412004-15667-038950FM-12+000599999V0209999C000010075019N0040001N1+02131+02011101631ADDAA124020191AY161061AY221061GF108991051051008001021999KA1240N+02051MA1999999101571MD1999999-0091MW1021REMSYN088AAXX  24124 83398 21596 80000 10213 20201 30157 40163 70262 8552/ 333 20205 59009 60204;
0137833980999992008112418004-15667-038950FM-12+000599999V0209999C000010450019N0040001N1+02721+02151101221ADDGF106991031051008001021001MA1999999101171MD1999999-0211REMSYN070AAXX  24184 83398 32596 60000 10272 20215 30117 40122 83520 333 59021;
0168833980999992008112500004-15667-038950FM-12+000599999V0209999C000010450019N0010001N1+02321+02221101471ADDGF106991031051008001021001KA1240M+02881MA1999999101421MD1999999-0111REMSYN088AAXX  25004 83398 32594 60000 10232 20222 30142 40147 83520 333 10288 29088 55040 59011;
0201833980999992008112512004-15667-038950FM-12+000599999V0209999C000010075019N0040001N1+02441+02351101591ADDAA124002091AY161061AY221061GF108991051051008001021999KA1240N+02141MA1999999101541MD1999999-0041MW1021REMSYN088AAXX  25124 83398 21596 80000 10244 20235 30154 40159 70262 8552/ 333 20214 59004 60024;
0137833980999992008112518004-15667-038950FM-12+000599999V0203601N003110075019N0040001N1+02521+02171101321ADDGF108991051051008001021999MA1999999101271MD1999999+0101REMSYN070AAXX  25184 83398 32596 83606 10252 20217 30127 40132 8552/ 333 58010;
0168833980999992008112600004-15667-038950FM-12+000599999V0209999C000010075019N0010001N1+02561+02151101541ADDGF108991051051008001021999KA1240M+02801MA1999999101491MD1999999+0071REMSYN088AAXX  26004 83398 32594 80000 10256 20215 30149 40154 8552/ 333 10280 29083 55015 58007;
0201833980999992008112612004-15667-038950FM-12+000599999V0203601N008210075019N0040001N1+02381+02211101671ADDAA124021191AY161061AY221061GF108991051051008001021999KA1240N+02181MA1999999101611MD1999999+0071MW1021REMSYN088AAXX  26124 83398 21596 83616 10238 20221 30161 40167 70262 8552/ 333 20218 58007 60214;
0182833980999992008112618004-15667-038950FM-12+000599999V0209999C000012200019N0040001N1+02721+02051101321ADDAA106004191AY161061AY221061GF104991021011008001041001MA1999999101271MD1999999+0001MW1011REMSYN082AAXX  26184 83398 21596 40000 10272 20205 30127 40132 70162 82140 333 58000 60041;
0168833980999992008112700004-15667-038950FM-12+000599999V0209999C000010450019N0010001N1+02381+02221101551ADDGF107991041051008001021001KA1240M+02771MA1999999101501MD1999999+0011REMSYN088AAXX  27004 83398 32594 70000 10238 20222 30150 40155 84520 333 10277 29085 55035 58001;
0201833980999992008112712004-15667-038950FM-12+000599999V0209999C000010075019N0040001N1+02591+02381101651ADDAA124020191AY161061AY221061GF108991051051008001021999KA1240N+02241MA1999999101591MD1999999-0021MW1021REMSYN088AAXX  27124 83398 21596 80000 10259 20238 30159 40165 70262 8552/ 333 20224 59002 60204;
0182833980999992008112718004-15667-038950FM-12+000599999V0203601N002110075019N0040001N1+02581+02211101331ADDAA106004191AY161061AY221061GF108991051051008001021999MA1999999101281MD1999999+0011MW1021REMSYN082AAXX  27184 83398 21596 83604 10258 20221 30128 40133 70262 8552/ 333 58001 60041;
0213833980999992008112800004-15667-038950FM-12+000599999V0203601N002110075019N0010001N1+02361+02221101471ADDAA106008991AY161061AY221061GF108991051051008001021999KA1240M+02671MA1999999101421MD1999999-0081MW1021REMSYN100AAXX  28004 83398 21594 83604 10236 20222 30142 40147 70262 8552/ 333 10267 29088 55000 59008 60091;
0201833980999992008112812004-15667-038950FM-12+000599999V0209999C000010075019N0040001N1+02381+02291101461ADDAA124015091AY161061AY221061GF108991051051008001021999KA1240N+02251MA1999999101411MD1999999-0181MW1021REMSYN088AAXX  28124 83398 21596 80000 10238 20229 30141 40146 70262 8552/ 333 20225 59018 60154;
0137833980999992008112818004-15667-038950FM-12+000599999V0200501N002110075019N0040001N1+02441+02271101131ADDGF108991051051008001021999MA1999999101081MD1999999-0201REMSYN070AAXX  28184 83398 32596 80504 10244 20227 30108 40113 8552/ 333 59020;
0213833980999992008112900004-15667-038950FM-12+000599999V0200501N002110075019N0010001N1+02421+02301101321ADDAA106001091AY151061AY211061GF108991051051008001021999KA1240M+02581MA1999999101271MD1999999-0151MW1021REMSYN100AAXX  29004 83398 21594 80504 10242 20230 30127 40132 70251 8552/ 333 10258 29093 55000 59015 69991;
0201833980999992008112912004-15667-038950FM-12+000599999V0209999C000010075019N0040001N1+02421+02321101321ADDAA124027991AY161061AY221061GF108991051051008001021999KA1240N+02181MA1999999101271MD1999999-0141MW1021REMSYN088AAXX  29124 83398 21596 80000 10242 20232 30127 40132 70262 8552/ 333 20218 59014 60284;
0182833980999992008112918004-15667-038950FM-12+000599999V0203601N002110075019N0040001N1+02521+02311101131ADDAA106000891AY151061AY211061GF108991051051008001021999MA1999999101081MD1999999+0001MW1021REMSYN082AAXX  29184 83398 21596 83604 10252 20231 30108 40113 70251 8552/ 333 58000 69971;
0213833980999992008113000004-15667-038950FM-12+000599999V0209999C000010075019N0010001N1+02401+02331101301ADDAA106000891AY151061AY211061GF108991051051008001021999KA1240M+02731MA1999999101251MD1999999-0021MW1021REMSYN100AAXX  30004 83398 21594 80000 10240 20233 30125 40130 70251 8552/ 333 10273 29094 55000 59002 69981;
0201833980999992008113012004-15667-038950FM-12+000599999V0203601N004110075019N0040001N1+02431+02401101381ADDAA124007191AY161061AY221061GF108991051051008001021999KA1240N+02271MA1999999101331MD1999999+0061MW1021REMSYN088AAXX  30124 83398 21596 83608 10243 20240 30133 40138 70262 8552/ 333 20227 58006 60074;
0182833980999992008113018004-15667-038950FM-12+000599999V0203601N002110075019N0040001N1+02471+02351101061ADDAA106002091AY161061AY221061GF108991051051008001021999MA1999999101011MD1999999-0071MW1021REMSYN082AAXX  30184 83398 21596 83604 10247 20235 30101 40106 70262 8552/ 333 59007 60021;
0168833980999992008120100004-15667-038950FM-12+000599999V0209999C000010450019N0010001N1+02481+02391101141ADDGF105991031051008001021001KA1240M+02591MA1999999101091MD1999999-0161REMSYN088AAXX  01004 83398 32594 50000 10248 20239 30109 40114 83520 333 10259 29095 55000 59016;
0173833980999992008120112004-15667-038950FM-12+000599999V0203601N002110075019N0040001N1+02681+02541101231ADDAA124002091GF107991071051008001021001KA1240N+02301MA1999999101181MD1999999-0151REMSYN082AAXX  01124 83398 22596 73604 10268 20254 30118 40123 87520 333 20230 59015 60024;
0182833980999992008120118004-15667-038950FM-12+000599999V0203601N002110075019N0040001N1+02561+02441100981ADDAA106039991AY191061AY261061GF108991051051008001021999MA1999999100931MD1999999-0081MW1021REMSYN082AAXX  01184 83398 21596 83604 10256 20244 30093 40098 70296 8552/ 333 59008 60401;
0213833980999992008120200004-15667-038950FM-12+000599999V0209999C000010075019N0010001N1+02441+02341101171ADDAA106003091AY191061AY261061GF108991051051008001021999KA1240M+02921MA1999999101121MD1999999+0031MW1021REMSYN100AAXX  02004 83398 21594 80000 10244 20234 30112 40117 70296 8552/ 333 10292 29093 55018 58003 60031;
0201833980999992008120212004-15667-038950FM-12+000599999V0203201N002110075019N0040001N1+02741+02451101161ADDAA124047091AY191061AY261061GF108991051051008001021999KA1240N+02321MA1999999101111MD1999999-0071MW1021REMSYN088AAXX  02124 83398 21596 83204 10274 20245 30111 40116 70296 8552/ 333 20232 59007 60474;
0137833980999992008120218004-15667-038950FM-12+000599999V0203601N005110075019N0040001N1+02821+02521100621ADDGF107991051051008001041001MA1999999100571MD1999999-0361REMSYN070AAXX  02184 83398 32596 73610 10282 20252 30057 40062 85540 333 59036;
0168833980999992008120300004-15667-038950FM-12+000599999V0209999C000010075019N0010001N1+02601+02401100861ADDGF108991051051008001021999KA1240M+02941MA1999999100811MD1999999-0311REMSYN088AAXX  03004 83398 32594 80000 10260 20240 30081 40086 8552/ 333 10294 29088 55047 59031;
0201833980999992008120312004-15667-038950FM-12+000599999V0203601N004110075019N0040001N1+02841+02461100701ADDAA124011991AY191061AY261061GF107991051051008001021001KA1240N+02301MA1999999100651MD1999999-0461MW1021REMSYN088AAXX  03124 83398 21596 73608 10284 20246 30065 40070 70296 85520 333 20230 59046 60124;
0137833980999992008120318004-15667-038950FM-12+000599999V0203601N005110075019N0040001N1+02781+02521100311ADDGF107991051051008001041001MA1999999100261MD1999999-0311REMSYN070AAXX  03184 83398 32596 73610 10278 20252 30026 40031 85540 333 59031;
0213833980999992008120400004-15667-038950FM-12+000599999V0203601N002110450019N0010001N1+02361+02311100931ADDAA106002091AY191061AY261061GF108991041071008001021999KA1240M+02951MA1999999100881MD1999999+0071MW1521REMSYN100AAXX  04004 83398 21594 83604 10236 20231 30088 40093 75296 8472/ 333 10295 29090 55042 58007 60021;
0201833980999992008120412004-15667-038950FM-12+000599999V0203601N003110075019N0040001N1+02841+02461101001ADDAA124006191AY191061AY261061GF107991051051008001021001KA1240N+02281MA1999999100951MD1999999+0201MW1021REMSYN088AAXX  04124 83398 21596 73606 10284 20246 30095 40100 70296 85520 333 20228 58020 60064;
0137833980999992008120418004-15667-038950FM-12+000599999V0203201N005110075019N0040001N1+02741+02381100851ADDGF108991051051008001021999MA1999999100801MD1999999+0541REMSYN070AAXX  04184 83398 32596 83210 10274 20238 30080 40085 8552/ 333 58054;
0213833980999992008120500004-15667-038950FM-12+000599999V0209999C000010075019N0010001N1+02321+02251101251ADDAA106003091AY191061AY261061GF108991051051008001021999KA1240M+02931MA1999999101201MD1999999+0321MW1021REMSYN100AAXX  05004 83398 21594 80000 10232 20225 30120 40125 70296 8552/ 333 10293 29088 55057 58032 60031;
0201833980999992008120512004-15667-038950FM-12+000599999V0201401N003110075019N0040001N1+02321+02291101541ADDAA124008991AY191061AY261061GF108991051071008001021999KA1240N+02241MA1999999101491MD1999999+0541MW1521REMSYN088AAXX  05124 83398 21596 81406 10232 20229 30149 40154 75296 8572/ 333 20224 58054 60094;
0182833980999992008120518004-15667-038950FM-12+000599999V0201401N003110075019N0040001N1+02301+02221101421ADDAA106003091AY191061AY261061GF108991051071008001021999MA1999999101371MD1999999+0571MW1501REMSYN082AAXX  05184 83398 21596 81406 10230 20222 30137 40142 75096 8572/ 333 58057 60031;
0213833980999992008120600004-15667-038950FM-12+000599999V0201401N003110075019N0010001N1+02121+02051101731ADDAA106002091AY161061AY221061GF108991051051008001021999KA1240M+03461MA1999999101671MD1999999+0471MW1021REMSYN100AAXX  06004 83398 21594 81406 10212 20205 30167 40173 70262 8552/ 333 10346 29096 55000 58047 60021;
0201833980999992008120612004-15667-038950FM-12+000599999V0201401N002110075019N0040001N1+02401+02351101731ADDAA124011991AY161061AY221061GF108991051051008001021999KA1240N+02081MA1999999101671MD1999999+0181MW1021REMSYN088AAXX  06124 83398 21596 81404 10240 20235 30167 40173 70262 8552/ 333 20208 58018 60124;
0182833980999992008120618004-15667-038950FM-12+000599999V0201401N002110075019N0040001N1+02321+02251101561ADDAA106018091AY161061AY221061GF108991051071008001021999MA1999999101511MD1999999+0141MW1611REMSYN082AAXX  06184 83398 21596 81404 10232 20225 30151 40156 76162 8572/ 333 58014 60181;
0213833980999992008120700004-15667-038950FM-12+000599999V0201401N002110075019N0010001N1+02301+02271101741ADDAA106003091AY161061AY221061GF108991051071008001021999KA1240M+02571MA1999999101681MD1999999+0011MW1531REMSYN100AAXX  07004 83398 21594 81404 10230 20227 30168 40174 75362 8572/ 333 10257 29097 55000 58001 60031;
0201833980999992008120712004-15667-038950FM-12+000599999V0203201N002110075019N0040001N1+02521+02421101841ADDAA124024991AY161061AY221061GF108991051051008001021999KA1240N+02201MA1999999101781MD1999999+0111MW1021REMSYN088AAXX  07124 83398 21596 83204 10252 20242 30178 40184 70262 8552/ 333 20220 58011 60254;
0182833980999992008120718004-15667-038950FM-12+000599999V0201401N002110075019N0040001N1+02341+02271101671ADDAA106042991AY161061AY221061GF108991051051008001021999MA1999999101691MD1999999+0101MW1021REMSYN082AAXX  07184 83398 21596 81404 10234 20227 30169 40167 70262 8552/ 333 58010 60431;
0213833980999992008120800004-15667-038950FM-12+000599999V0209999C000010075019N0010001N1+02241+02111101961ADDAA106004191AY161061AY221061GF108991051071008001021999KA1240M+02531MA1999999101851MD1999999+0171MW1601REMSYN100AAXX  08004 83398 21594 80000 10224 20211 30185 40196 76062 8572/ 333 10253 29097 55000 58017 60041;
0201833980999992008120812004-15667-038950FM-12+000599999V0201401N004110075019N0040001N1+02541+02151101871ADDAA124063091AY161061AY221061GF108991051051008001021999KA1240N+02121MA1999999101811MD1999999+0031MW1021REMSYN088AAXX  08124 83398 21596 81408 10254 20215 30181 40187 70262 8552/ 333 20212 58003 60634;
0137833980999992008120818004-15667-038950FM-12+000599999V0200901N003110450019N0040001N1+02681+02131101671ADDGF107991041051008001021001MA1999999101611MD1999999+0001REMSYN070AAXX  08184 83398 32596 70906 10268 20213 30161 40167 84520 333 58000;
0168833980999992008120900004-15667-038950FM-12+000599999V0209999C000010450019N0010001N1+02281+02231101841ADDGF106991031051008001021001KA1240M+02831MA1999999101781MD1999999-0071REMSYN088AAXX  09004 83398 32594 60000 10228 20223 30178 40184 83520 333 10283 29086 55013 59007;
0156833980999992008120912004-15667-038950FM-12+000599999V0200901N002110450019N0040001N1+02681+02201101771ADDGF106991041051008001021001KA1240N+02101MA1999999101711MD1999999-0101REMSYN076AAXX  09124 83398 32596 60904 10268 20220 30171 40177 84520 333 20210 59010;
0137833980999992008120918004-15667-038950FM-12+000599999V0201401N003110450019N0040001N1+02761+02281101421ADDGF106991031051008001041011MA1999999101371MD1999999-0241REMSYN070AAXX  09184 83398 32596 61406 10276 20228 30137 40142 83541 333 59024;
0168833980999992008121000004-15667-038950FM-12+000599999V0209999C000010450019N0010001N1+02361+02221101631ADDGF105991031051008001041001KA1240M+02921MA1999999101571MD1999999-0211REMSYN088AAXX  10004 83398 32594 50000 10236 20222 30157 40163 83540 333 10292 29084 55069 59021;
0156833980999992008121012004-15667-038950FM-12+000599999V0209999C000010450019N0040001N1+02701+02371101501ADDGF105991031051008001021001KA1240N+02161MA1999999101451MD1999999-0261REMSYN076AAXX  10124 83398 32596 50000 10270 20237 30145 40150 83520 333 20216 59026;
0137833980999992008121018004-15667-038950FM-12+000599999V0200501N003110450019N0040001N1+02841+02351101121ADDGF105991031021008001041001MA1999999101071MD1999999-0301REMSYN070AAXX  10184 83398 32596 50506 10284 20235 30107 40112 83240 333 59030;
0168833980999992008121100004-15667-038950FM-12+000599999V0203601N003110450019N0010001N1+02511+02261101281ADDGF106991031021008001041001KA1240M+02871MA1999999101231MD1999999-0341REMSYN088AAXX  11004 83398 32594 63606 10251 20226 30123 40128 83240 333 10287 29082 55107 59034;
0156833980999992008121112004-15667-038950FM-12+000599999V0203601N002110450019N0040001N1+02831+02401101381ADDGF105991031051008001041001KA1240N+02241MA1999999101331MD1999999-0121REMSYN076AAXX  11124 83398 32596 53604 10283 20240 30133 40138 83540 333 20224 59012;
0137833980999992008121118004-15667-038950FM-12+000599999V0203601N004112200019N0040001N1+02861+02281101081ADDGF103991021011008001041001MA1999999101031MD1999999-0051REMSYN070AAXX  11184 83398 32596 33608 10286 20228 30103 40108 82140 333 59005;
0168833980999992008121200004-15667-038950FM-12+000599999V0203601N004112200019N0010001N1+02581+02291101301ADDGF103991021021008001041001KA1240M+02951MA1999999101251MD1999999+0021REMSYN088AAXX  12004 83398 32594 33608 10258 20229 30125 40130 82240 333 10295 29079 55118 58002;
0156833980999992008121212004-15667-038950FM-12+000599999V0203201N004112200019N0040001N1+02901+02301101381ADDGF104991021021008001041001KA1240N+02361MA1999999101331MD1999999+0001REMSYN076AAXX  12124 83398 32596 43208 10290 20230 30133 40138 82240 333 20236 58000;
0137833980999992008121218004-15667-038950FM-12+000599999V0203601N005112200019N0040001N1+02791+02331101061ADDGF103991021011008001041001MA1999999101011MD1999999-0021REMSYN070AAXX  12184 83398 32596 33610 10279 20233 30101 40106 82140 333 59002;
0168833980999992008121300004-15667-038950FM-12+000599999V0203601N003112200019N0010001N1+02591+02381101211ADDGF102991011011008001041001KA1240M+02981MA1999999101161MD1999999-0091REMSYN088AAXX  13004 83398 32594 23606 10259 20238 30116 40121 81140 333 10298 29080 55100 59009;
0156833980999992008121312004-15667-038950FM-12+000599999V0203201N004110450019N0040001N1+02861+02281101321ADDGF106991031051008001021001KA1240N+02401MA1999999101271MD1999999-0061REMSYN076AAXX  13124 83398 32596 63208 10286 20228 30127 40132 83520 333 20240 59006;
0137833980999992008121318004-15667-038950FM-12+000599999V0203601N005110450019N0040001N1+02821+02401101041ADDGF106991031051008001021001MA1999999100991MD1999999-0021REMSYN070AAXX  13184 83398 32596 63610 10282 20240 30099 40104 83520 333 59002;
0168833980999992008121400004-15667-038950FM-12+000599999V0209999C000010450019N0010001N1+02561+02381101341ADDGF106991031051008001021001KA1240M+03021MA1999999101291MD1999999+0131REMSYN088AAXX  14004 83398 32594 60000 10256 20238 30129 40134 83520 333 10302 29082 55064 58013;
0156833980999992008121412004-15667-038950FM-12+000599999V0203601N003110075019N0040001N1+02801+02251101451ADDGF108991051051008001021999KA1240N+02421MA1999999101401MD1999999+0131REMSYN076AAXX  14124 83398 32596 83606 10280 20225 30140 40145 8552/ 333 20242 58013;
0137833980999992008121418004-15667-038950FM-12+000599999V0200501N004110075019N0040001N1+02771+02261101151ADDGF108991051051008001021999MA1999999101101MD1999999+0111REMSYN070AAXX  14184 83398 32596 80508 10277 20226 30110 40115 8552/ 333 58011;
0168833980999992008121500004-15667-038950FM-12+000599999V0209999C000010450019N0010001N1+02561+02291101291ADDGF105991031051008001041001KA1240M+02931MA1999999101241MD1999999-0051REMSYN088AAXX  15004 83398 32594 50000 10256 20229 30124 40129 83540 333 10293 29079 55001 59005;
0156833980999992008121512004-15667-038950FM-12+000599999V0203601N002110450019N0040001N1+02841+02201101241ADDGF106991041051008001021001KA1240N+02201MA1999999101191MD1999999-0211REMSYN076AAXX  15124 83398 32596 63604 10284 20220 30119 40124 84520 333 20220 59021;
0137833980999992008121518004-15667-038950FM-12+000599999V0203601N005110450019N0040001N1+02781+02321100931ADDGF106991041051008001041001MA1999999100881MD1999999-0221REMSYN070AAXX  15184 83398 32596 63610 10278 20232 30088 40093 84540 333 59022;
0168833980999992008121600004-15667-038950FM-12+000599999V0203601N002112200019N0010001N1+02541+02351101081ADDGF104991041011008001001001KA1240M+03001MA1999999101031MD1999999-0211REMSYN088AAXX  16004 83398 32594 43604 10254 20235 30103 40108 84100 333 10300 29082 55065 59021;
0156833980999992008121612004-15667-038950FM-12+000599999V0203201N004110450019N0040001N1+02821+02171101091ADDGF106991031021008001041001KA1240N+02251MA1999999101041MD1999999-0151REMSYN076AAXX  16124 83398 32596 63208 10282 20217 30104 40109 83240 333 20225 59015;
0137833980999992008121618004-15667-038950FM-12+000599999V0203201N006210450019N0040001N1+02781+02251100901ADDGF106991041051008001021001MA1999999100851MD1999999-0031REMSYN070AAXX  16184 83398 32596 63212 10278 20225 30085 40090 84520 333 59003;
0168833980999992008121700004-15667-038950FM-12+000599999V0203601N004112200019N0010001N1+02521+02311101101ADDGF104991021021008001041001KA1240M+02971MA1999999101051MD1999999+0021REMSYN088AAXX  17004 83398 32594 43608 10252 20231 30105 40110 82240 333 10297 29079 55070 58002;
0156833980999992008121712004-15667-038950FM-12+000599999V0203601N006210075019N0040001N1+02761+02301101281ADDGF108991051051008001021001KA1240N+02241MA1999999101231MD1999999+0191REMSYN076AAXX  17124 83398 32596 83612 10276 20230 30123 40128 85520 333 20224 58019;
0137833980999992008121718004-15667-038950FM-12+000599999V0203601N006210450019N0040001N1+02901+02321101091ADDGF106991031021008001041001MA1999999101041MD1999999+0191REMSYN070AAXX  17184 83398 32596 63612 10290 20232 30104 40109 83240 333 58019;
0168833980999992008121800004-15667-038950FM-12+000599999V0203601N003112200019N0010001N1+02561+02361101271ADDGF103991011011008001041001KA1240M+03021MA1999999101221MD1999999+0171REMSYN088AAXX  18004 83398 32594 33606 10256 20236 30122 40127 81140 333 10302 29081 55062 58017;
0201833980999992008121812004-15667-038950FM-12+000599999V0203601N002110075019N0040001N1+02781+02461101461ADDAA124003091AY161061AY221061GF107991051051008001021001KA1240N+02201MA1999999101411MD1999999+0181MW1021REMSYN088AAXX  18124 83398 21596 73604 10278 20246 30141 40146 70262 85520 333 20220 58018 60034;
0137833980999992008121818004-15667-038950FM-12+000599999V0200501N002110450019N0040001N1+02901+02321101221ADDGF105991031051008001041001MA1999999101171MD1999999+0131REMSYN070AAXX  18184 83398 32596 50504 10290 20232 30117 40122 83540 333 58013;
0168833980999992008121900004-15667-038950FM-12+000599999V0209999C000012200019N0010001N1+02601+02311101331ADDGF104991041011008001001001KA1240M+03001MA1999999101281MD1999999+0061REMSYN088AAXX  19004 83398 32594 40000 10260 20231 30128 40133 84100 333 10300 29081 55095 58006;
0156833980999992008121912004-15667-038950FM-12+000599999V0209999C000010075019N0040001N1+02621+02121101391ADDGF107991051051008001021001KA1240N+02101MA1999999101341MD1999999-0071REMSYN076AAXX  19124 83398 32596 70000 10262 20212 30134 40139 85520 333 20210 59007;
0137833980999992008121918004-15667-038950FM-12+000599999V0200501N003110450019N0040001N1+02941+02331101071ADDGF105991031051008001041001MA1999999101021MD1999999-0151REMSYN070AAXX  19184 83398 32596 50506 10294 20233 30102 40107 83540 333 59015;
0168833980999992008122000004-15667-038950FM-12+000599999V0209999C000012200019N0010001N1+02521+02251101211ADDGF103991031011008001001001KA1240M+02981MA1999999101161MD1999999-0121REMSYN088AAXX  20004 83398 32594 30000 10252 20225 30116 40121 83100 333 10298 29079 55070 59012;
0201833980999992008122012004-15667-038950FM-12+000599999V0209999C000010075019N0040001N1+02521+02251101341ADDAA124004191AY161061AY221061GF107991051051008001021001KA1240N+02201MA1999999101291MD1999999-0051MW1021REMSYN088AAXX  20124 83398 21596 70000 10252 20225 30129 40134 70262 85520 333 20220 59005 60044;
0137833980999992008122018004-15667-038950FM-12+000599999V0200501N003110450019N0040001N1+02821+02241101031ADDGF106991021051008001041011MA1999999100981MD1999999-0041REMSYN070AAXX  20184 83398 32596 60506 10282 20224 30098 40103 82541 333 59004;
0168833980999992008122100004-15667-038950FM-12+000599999V0200901N002112200019N0010001N1+02501+02271101171ADDGF104991041051008001001001KA1240M+02981MA1999999101121MD1999999-0041REMSYN088AAXX  21004 83398 32594 40904 10250 20227 30112 40117 84500 333 10298 29083 55078 59004;
0156833980999992008122112004-15667-038950FM-12+000599999V0200501N003110450019N0040001N1+02821+02331101411ADDGF106991041051008001041001KA1240N+02201MA1999999101361MD1999999+0071REMSYN076AAXX  21124 83398 32596 60506 10282 20233 30136 40141 84540 333 20220 58007;
0137833980999992008122118004-15667-038950FM-12+000599999V0200901N003110450019N0040001N1+02801+02271101241ADDGF106991041051008001021001MA1999999101191MD1999999+0311REMSYN070AAXX  21184 83398 32596 60906 10280 20227 30119 40124 84520 333 58031;
0168833980999992008122200004-15667-038950FM-12+000599999V0200501N002112200019N0020001N1+02641+02231101371ADDGF103991031011008001001001KA1240M+03001MA1999999101321MD1999999+0201REMSYN088AAXX  22004 83398 32595 30504 10264 20223 30132 40137 83100 333 10300 29076 55053 58020;
0156833980999992008122212004-15667-038950FM-12+000599999V0200501N002110450019N0040001N1+02861+02281101431ADDGF105991031051008001041001KA1240N+02141MA1999999101381MD1999999+0021REMSYN076AAXX  22124 83398 32596 50504 10286 20228 30138 40143 83540 333 20214 58002;
0137833980999992008122218004-15667-038950FM-12+000599999V0200501N003110450019N0040001N1+02881+02281101241ADDGF107991021051008001041011MA1999999101191MD1999999+0001REMSYN070AAXX  22184 83398 32596 70506 10288 20228 30119 40124 82541 333 58000;
0213833980999992008122300004-15667-038950FM-12+000599999V0209999C000010450019N0010001N1+02501+02411101491ADDAA106002091AY161061AY221061GF105991031051008001021001KA1240M+03021MA1999999101441MD1999999+0121MW1021REMSYN100AAXX  23004 83398 21594 50000 10250 20241 30144 40149 70262 83520 333 10302 29083 55108 58012 60021;
0201833980999992008122312004-15667-038950FM-12+000599999V0209999C000010075019N0040001N1+02741+02321101551ADDAA124003091AY161061AY221061GF108991051051008001021999KA1240N+02291MA1999999101501MD1999999+0121MW1021REMSYN088AAXX  23124 83398 21596 80000 10274 20232 30150 40155 70262 8552/ 333 20229 58012 60034;
0182833980999992008122318004-15667-038950FM-12+000599999V0200501N002110075019N0040001N1+02741+02321101241ADDAA106002091AY161061AY221061GF108991051051008001021999MA1999999101191MD1999999+0001MW1021REMSYN082AAXX  23184 83398 21596 80504 10274 20232 30119 40124 70262 8552/ 333 58000 60021;
0168833980999992008122400004-15667-038950FM-12+000599999V0209999C000010075019N0010001N1+02541+02381101341ADDGF108991051051008001021999KA1240M+02901MA1999999101291MD1999999-0151REMSYN088AAXX  24004 83398 32594 80000 10254 20238 30129 40134 8552/ 333 10290 29084 55011 59015;
0201833980999992008122412004-15667-038950FM-12+000599999V0209999C000010075019N0040001N1+02561+02361101291ADDAA124003091AY161061AY221061GF108991051051008001021999KA1240N+02351MA1999999101341MD1999999-0161MW1021REMSYN088AAXX  24124 83398 21596 80000 10256 20236 30134 40129 70262 8552/ 333 20235 59016 60034;
0182833980999992008122418004-15667-038950FM-12+000599999V0200501N001010075019N0040001N1+02481+02361101081ADDAA106007991AY161061AY221061GF108991051051008001021999MA1999999101031MD1999999-0161MW1021REMSYN082AAXX  24184 83398 21596 80502 10248 20236 30103 40108 70262 8552/ 333 59016 60081;
0168833980999992008122500004-15667-038950FM-12+000599999V0209999C000010075019N0010001N1+02501+02321101211ADDGF108991051051008001021999KA1240M+02761MA1999999101161MD1999999+0131REMSYN088AAXX  25004 83398 32594 80000 10250 20232 30116 40121 8552/ 333 10276 29090 55002 58013;
0201833980999992008122512004-15667-038950FM-12+000599999V0203201N003110075019N0040001N1+02551+02301101141ADDAA124009991AY161061AY221061GF108991051051008001021999KA1240N+02331MA1999999101091MD1999999-0251MW1021REMSYN088AAXX  25124 83398 21596 83206 10255 20230 30109 40114 70262 8552/ 333 20233 59025 60104;
0137833980999992008122518004-15667-038950FM-12+000599999V0203601N004112200019N0040001N1+02801+02361100811ADDGF104991021021008001041001MA1999999100761MD1999999-0271REMSYN070AAXX  25184 83398 32596 43608 10280 20236 30076 40081 82240 333 59027;
0168833980999992008122600004-15667-038950FM-12+000599999V0203201N003110075019N0010001N1+02501+02321101151ADDGF108991051051008001021999KA1240M+02901MA1999999101101MD1999999-0061REMSYN088AAXX  26004 83398 32594 83206 10250 20232 30110 40115 8552/ 333 10290 29086 55058 59006;
0156833980999992008122612004-15667-038950FM-12+000599999V0203601N008210450019N0040001N1+02861+02311101071ADDGF105991031051008001041001KA1240N+02461MA1999999101021MD1999999-0071REMSYN076AAXX  26124 83398 32596 53616 10286 20231 30102 40107 83540 333 20246 59007;
0137833980999992008122618004-15667-038950FM-12+000599999V0203601N011312200019N0040001N1+02841+02331100861ADDGF103991011011008001041001MA1999999100881MD1999999+0051REMSYN070AAXX  26184 83398 32596 33622 10284 20233 30088 40086 81140 333 58005;
0168833980999992008122700004-15667-038950FM-12+000599999V0203601N004112200019N0010001N1+02601+02311101041ADDGF103991021011008001041001KA1240M+03031MA1999999100991MD1999999-0111REMSYN088AAXX  27004 83398 32594 33608 10260 20231 30099 40104 82140 333 10303 29078 55097 59011;
0156833980999992008122712004-15667-038950FM-12+000599999V0203601N007210450019N0040001N1+02861+02331101291ADDGF106991031051008001041001KA1240N+02261MA1999999101241MD1999999+0221REMSYN076AAXX  27124 83398 32596 63614 10286 20233 30124 40129 83540 333 20226 58022;
0137833980999992008122718004-15667-038950FM-12+000599999V0203601N006210450019N0040001N1+02861+02371101071ADDGF106991031051008001041001MA1999999101021MD1999999+0211REMSYN070AAXX  27184 83398 32596 63612 10286 20237 30102 40107 83540 333 58021;
0168833980999992008122800004-15667-038950FM-12+000599999V0203601N002110450019N0010001N1+02561+02381101201ADDGF105991031021008001041001KA1240M+03001MA1999999101151MD1999999+0161REMSYN088AAXX  28004 83398 32594 53604 10256 20238 30115 40120 83240 333 10300 29082 55052 58016;
0156833980999992008122812004-15667-038950FM-12+000599999V0203601N005112200019N0040001N1+02861+02211101431ADDGF103991021011008001041001KA1240N+02221MA1999999101381MD1999999+0141REMSYN076AAXX  28124 83398 32596 33610 10286 20221 30138 40143 82140 333 20222 58014;
0137833980999992008122818004-15667-038950FM-12+000599999V0200501N005112200019N0040001N1+02921+02271101131ADDGF103991021011008001041001MA1999999101081MD1999999+0061REMSYN070AAXX  28184 83398 32596 30510 10292 20227 30108 40113 82140 333 58006;
0168833980999992008122900004-15667-038950FM-12+000599999V0200501N002112200019N0010001N1+02621+02311101321ADDGF103991021011008001041001KA1240M+03031MA1999999101271MD1999999+0121REMSYN088AAXX  29004 83398 32594 30504 10262 20231 30127 40132 82140 333 10303 29075 55104 58012;
0156833980999992008122912004-15667-038950FM-12+000599999V0200501N004110450019N0040001N1+02901+02221101451ADDGF105991031051008001041001KA1240N+02211MA1999999101401MD1999999+0021REMSYN076AAXX  29124 83398 32596 50508 10290 20222 30140 40145 83540 333 20221 58002;
0137833980999992008122918004-15667-038950FM-12+000599999V0200501N003112200019N0040001N1+02921+02091101221ADDGF104991021011008001041001MA1999999101171MD1999999+0091REMSYN070AAXX  29184 83398 32596 40506 10292 20209 30117 40122 82140 333 58009;
0168833980999992008123000004-15667-038950FM-12+000599999V0209999C000012200019N0010001N1+02621+02251101391ADDGF103991021011008001041001KA1240M+03031MA1999999101341MD1999999+0071REMSYN088AAXX  30004 83398 32594 30000 10262 20225 30134 40139 82140 333 10303 29072 55091 58007;
0156833980999992008123012004-15667-038950FM-12+000599999V0200501N003110075019N0040001N1+02681+02261101451ADDGF107991051051008001021001KA1240N+02301MA1999999101401MD1999999+0001REMSYN076AAXX  30124 83398 32596 70506 10268 20226 30140 40145 85520 333 20230 58000;
0137833980999992008123018004-15667-038950FM-12+000599999V0200501N003110450019N0040001N1+02841+02311101241ADDGF105991021051008001041001MA1999999101191MD1999999+0021REMSYN070AAXX  30184 83398 32596 50506 10284 20231 30119 40124 82540 333 58002;
0168833980999992008123100004-15667-038950FM-12+000599999V0209999C000012200019N0010001N1+02501+02321101341ADDGF103991031011008001001001KA1240M+03031MA1999999101291MD1999999-0051REMSYN088AAXX  31004 83398 32594 30000 10250 20232 30129 40134 83100 333 10303 29083 55062 59005;
0156833980999992008123112004-15667-038950FM-12+000599999V0203601N003110450019N0040001N1+02861+02311101491ADDGF106991031051008001041011KA1240N+02241MA1999999101441MD1999999+0041REMSYN076AAXX  31124 83398 32596 63606 10286 20231 30144 40149 83541 333 20224 58004;
0137833980999992008123118004-15667-038950FM-12+000599999V0200501N003110450019N0040001N1+02961+02131101221ADDGF106991021021008001041011MA1999999101171MD1999999-0021REMSYN070AAXX  31184 83398 32596 60506 10296 20213 30117 40122 82241 333 59002;
