0168834980999992008010100004-17733-039250FM-12+000399999V0200501N001512200019N0020001N1+02481+02111101221ADDGF102991021011008001001001KA1240M+02991MA1999999101171MD1999999-0041REMSYN088AAXX  01004 83498 32595 20503 10248 20211 30117 40122 82100 333 10299 29074 55/// 59004;
0156834980999992008010112004-17733-039250FM-12+000399999V0200501N004110075019N0020001N1+02781+02061101391ADDGF105991051021008001001001KA1240N+02021MA1999999101341MD1999999-0041REMSYN076AAXX  01124 83498 32595 50508 10278 20206 30134 40139 85200 333 20202 59004;
0137834980999992008010118004-17733-039250FM-12+000399999V0200501N004612200019N0020001N1+02861+02061101351ADDGF103991031011008001001001MA1999999101301MD1999999+0071REMSYN070AAXX  01184 83498 32595 30509 10286 20206 30130 40135 83100 333 58007;
0168834980999992008010200004-17733-039250FM-12+000399999V0200901N000512200019N0020001N1+02441+02071101401ADDGF101991011011008001001001KA1240M+02971MA1999999101351MD1999999+0181REMSYN088AAXX  02004 83498 32595 10901 10244 20207 30135 40140 81100 333 10297 29072 55/// 58018;
0156834980999992008010212004-17733-039250FM-12+000399999V0203601N002610075019N0020001N1+02601+02121101501ADDGF105991051021008001001001KA1240N+01971MA1999999101451MD1999999+0111REMSYN076AAXX  02124 83498 32595 53605 10260 20212 30145 40150 85200 333 20197 58011;
0137834980999992008010218004-17733-039250FM-12+000399999V0200501N003612200019N0020001N1+02881+02211101391ADDGF103991021011008001001011MA1999999101341MD1999999+0041REMSYN070AAXX  02184 83498 32595 30507 10288 20221 30134 40139 82101 333 58004;
0187834980999992008010300004-17733-039250FM-12+000399999V0200501N001012200019N0020001N1+02501+02131101541ADDGF102991021011008001001001KA1240M+99999MA1999999101491MD1999999+0141REMSYN088AAXX  03004 83498 32595 20502 10250 20213 30149 40154 82100 333 10217 29076 55/// 58014;EQDQ01 +02172ATMX  
0156834980999992008010312004-17733-039250FM-12+000399999V0200901N003610075019N0020001N1+02701+02221101731ADDGF105991051021008001001001KA1240N+02131MA1999999101681MD1999999+0231REMSYN076AAXX  03124 83498 32595 50907 10270 20222 30168 40173 85200 333 20213 58023;
0137834980999992008010318004-17733-039250FM-12+000399999V0200901N003612200019N0020001N1+02881+02211101591ADDGF103991031011008001001001MA1999999101541MD1999999+0201REMSYN070AAXX  03184 83498 32595 30907 10288 20221 30154 40159 83100 333 58020;
0178834980999992008010400004-17733-039250FM-12+000399999V0209999C000012200019N0020001N1+02461+02131101641ADDGA1001+999999999GF100991001001999999001001KA1240M+02951MA1999999101591MD1999999+0101REMSYN082AAXX  04004 83498 32995 00000 10246 20213 30159 40164 333 10295 29076 55/// 58010;
0137834980999992008010418004-17733-039250FM-12+000399999V0200901N003112200019N0020001N1+02941+01881101581ADDGF102991021011008001001001MA1999999101531MD1999999-0011REMSYN070AAXX  04184 83498 32595 20906 10294 20188 30153 40158 82100 333 59001;
0178834980999992008010500004-17733-039250FM-12+000399999V0200501N000512200019N0020001N1+02481+02111101561ADDGA1001+999999999GF100991001001999999001001KA1240M+02951MA1999999101511MD1999999-0081REMSYN082AAXX  05004 83498 32995 00501 10248 20211 30151 40156 333 10295 29069 55/// 59008;
0156834980999992008010512004-17733-039250FM-12+000399999V0203601N004111050019N0020001N1+02801+02271101641ADDGF106991031021008001001021KA1240N+02041MA1999999101591MD1999999-0141REMSYN076AAXX  05124 83498 32595 63608 10280 20227 30159 40164 83202 333 20204 59014;
0156834980999992008010612004-17733-039250FM-12+000399999V0203601N005111050019N0020001N1+02801+02311101231ADDGF108991031051008001001021KA1240N+02171MA1999999101181MD1999999-0411REMSYN076AAXX  06124 83498 32595 83610 10280 20231 30118 40123 83502 333 20217 59041;
0137834980999992008010618004-17733-039250FM-12+000399999V0203601N005711050019N0020001N1+02941+02261100951ADDGF105991021011008001001021MA1999999100901MD1999999-0431REMSYN070AAXX  06184 83498 32595 53611 10294 20226 30090 40095 82102 333 59043;
0156834980999992008010712004-17733-039250FM-12+000399999V0203201N003110450019N0020001N1+02701+02281101231ADDGF108991041051008001011999KA1240N+02311MA1999999101181MD1999999+0001REMSYN076AAXX  07124 83498 32595 83206 10270 20228 30118 40123 8451/ 333 20231 58000;
0137834980999992008010718004-17733-039250FM-12+000399999V0203601N003610450019N0020001N1+02901+02271101101ADDGF106991031051008001031001MA1999999101051MD1999999+0151REMSYN070AAXX  07184 83498 32595 63607 10290 20227 30105 40110 83530 333 58015;
0168834980999992008010800004-17733-039250FM-12+000399999V0203201N002110450019N0020001N1+02601+02231101311ADDGF108991041051008001011999KA1240M+03051MA1999999101261MD1999999+0281REMSYN088AAXX  08004 83498 32595 83204 10260 20223 30126 40131 8451/ 333 10305 29077 55/// 58028;
0156834980999992008010812004-17733-039250FM-12+000399999V0203601N003610450019N0020001N1+02661+02331101161ADDGF107991021021008001041021KA1240N+02081MA1999999101111MD1999999-0071REMSYN076AAXX  08124 83498 32595 73607 10266 20233 30111 40116 82242 333 20208 59007;
0137834980999992008010818004-17733-039250FM-12+000399999V0203601N004110450019N0020001N1+02941+02241100951ADDGF105991021011008001041001MA1999999100901MD1999999-0151REMSYN070AAXX  08184 83498 32595 53608 10294 20224 30090 40095 82140 333 59015;
0168834980999992008010900004-17733-039250FM-12+000399999V0203601N003110450019N0020001N1+02601+02271101071ADDGF106991031011008001041001KA1240M+02991MA1999999101021MD1999999-0241REMSYN088AAXX  09004 83498 32595 63606 10260 20227 30102 40107 83140 333 10299 29078 55/// 59024;
0156834980999992008010912004-17733-039250FM-12+000399999V0203601N005110450019N0020001N1+02681+02351101041ADDGF108991041051008001011999KA1240N+02381MA1999999100991MD1999999-0121REMSYN076AAXX  09124 83498 32595 83610 10268 20235 30099 40104 8451/ 333 20238 59012;
0137834980999992008010918004-17733-039250FM-12+000399999V0203601N005710450019N0020001N1+02881+02201100901ADDGF106991031051008001011999MA1999999100851MD1999999-0051REMSYN070AAXX  09184 83498 32595 63611 10288 20220 30085 40090 8351/ 333 59005;
0213834980999992008011000004-17733-039250FM-12+000399999V0200901N000510075019N0020001N1+02601+02271101161ADDAA106014091AY191061AY261061GF108991061071008001021999KA1240M+02941MA1999999101111MD1999999+0091MW1211REMSYN100AAXX  10004 83498 21595 80901 10260 20227 30111 40116 72196 8672/ 333 10294 29079 55/// 58009 60141;
0201834980999992008011012004-17733-039250FM-12+000399999V0203601N004112200019N0020001N1+02701+02331101171ADDAA124047091AY161061AY261061GF106991041021008001001011KA1240N+02061MA1999999101121MD1999999+0131MW1211REMSYN088AAXX  10124 83498 21595 63608 10270 20233 30112 40117 72166 84201 333 20206 58013 60474;
0178834980999992008011100004-17733-039250FM-12+000399999V0200501N001512200019N0020001N1+02441+02111101271ADDGA1001+999999999GF100991001001999999001001KA1240M+02931MA1999999101221MD1999999+0111REMSYN082AAXX  11004 83498 32995 00503 10244 20211 30122 40127 333 10293 29079 55/// 58011;
0156834980999992008011112004-17733-039250FM-12+000399999V0203601N002610450019N0020001N1+02671+02291101301ADDGF105991031051008001041001KA1240N+02091MA1999999101251MD1999999+0131REMSYN076AAXX  11124 83498 32595 53605 10267 20229 30125 40130 83540 333 20209 58013;
0137834980999992008011118004-17733-039250FM-12+000399999V0203601N001512200019N0020001N1+02891+02231101151ADDGF104991021011008001041001MA1999999101101MD1999999+0091REMSYN070AAXX  11184 83498 32595 43603 10289 20223 30110 40115 82140 333 58009;
0178834980999992008011200004-17733-039250FM-12+000399999V0203601N001512200019N0020001N1+02461+02211101291ADDGA1001+999999999GF100991001001999999001001KA1240M+03001MA1999999101241MD1999999+0021REMSYN082AAXX  12004 83498 32995 03603 10246 20221 30124 40129 333 10300 29080 55/// 58002;
0156834980999992008011212004-17733-039250FM-12+000399999V0203601N002612200019N0020001N1+02791+02061101441ADDGF104991041021008001001001KA1240N+02091MA1999999101391MD1999999+0141REMSYN076AAXX  12124 83498 32595 43605 10279 20206 30139 40144 84200 333 20209 58014;
0137834980999992008011218004-17733-039250FM-12+000399999V0200501N002612200019N0020001N1+02911+02121101191ADDGF102991021011008001001001MA1999999101141MD1999999+0041REMSYN070AAXX  12184 83498 32595 20505 10291 20212 30114 40119 82100 333 58004;
0201834980999992008011312004-17733-039250FM-12+000399999V0203601N001512200019N0020001N1+02851+02011101431ADDAA124000891AY121061AY211061GF103991031021008001001001KA1240N+02081MA1999999101381MD1999999-0011MW1031REMSYN088AAXX  13124 83498 21595 33603 10285 20201 30138 40143 70321 83200 333 20208 59001 69984;
0137834980999992008011318004-17733-039250FM-12+000399999V0200501N002612200019N0020001N1+02881+02081101271ADDGF102991021011008001001001MA1999999101221MD1999999+0081REMSYN070AAXX  13184 83498 32595 20505 10288 20208 30122 40127 82100 333 58008;
0137834980999992008011518004-17733-039250FM-12+000399999V0200501N002612200019N0020001N1+02831+02121101171ADDGF105991031011008001001041MA1999999101121MD1999999-0141REMSYN070AAXX  15184 83498 32595 50505 10283 20212 30112 40117 83104 333 59014;
0201834980999992008011612004-17733-039250FM-12+000399999V0203601N001510450019N0020001N1+02801+02131101351ADDAA124009991AY121061AY211061GF105991021011008001031001KA1240N+02091MA1999999101301MD1999999-0331MW1031REMSYN088AAXX  16124 83498 21595 53603 10280 20213 30130 40135 70321 82130 333 20209 59033 60104;
0137834980999992008011618004-17733-039250FM-12+000399999V0200501N002610450019N0020001N1+02851+02191101091ADDGF105991011011008001031001MA1999999101041MD1999999-0081REMSYN070AAXX  16184 83498 32595 50505 10285 20219 30104 40109 81130 333 59008;
0187834980999992008011700004-17733-039250FM-12+000399999V0200501N000512200019N0020001N1+02471+02251101281ADDGF103991001001999999001011KA1240M+02941MA1999999101231MD1999999-0061REMSYN088AAXX  17004 83498 32595 30501 10247 20225 30123 40128 80001 333 10294 29078 55/// 59006;EQDQ01+008002SCOLCB
0192834980999992008011712004-17733-039250FM-12+000399999V0203601N003110450019N0020001N1+02751+02381101341ADDAA124003091GF107991041051008001041001KA1240N+99999MA1999999101291MD1999999-0011REMSYN082AAXX  17124 83498 22595 73606 10275 20238 30129 40134 84540 333 20334 59001 60034;EQDQ01 +03342ATMN  
0137834980999992008011718004-17733-039250FM-12+000399999V0203601N002610450019N0020001N1+02871+02311101091ADDGF106991021011008001031001MA1999999101041MD1999999+0001REMSYN070AAXX  17184 83498 32595 63605 10287 20231 30104 40109 82130 333 58000;
0168834980999992008011800004-17733-039250FM-12+000399999V0209999C000012200019N0020001N1+02461+02251101301ADDGF104991011011008001031001KA1240M+02931MA1999999101251MD1999999+0021REMSYN088AAXX  18004 83498 32595 40000 10246 20225 30125 40130 81130 333 10293 29083 55/// 58002;
0156834980999992008011812004-17733-039250FM-12+000399999V0203601N003110450019N0020001N1+02851+02501101401ADDGF105991031051008001041001KA1240N+02051MA1999999101351MD1999999+0061REMSYN076AAXX  18124 83498 32595 53606 10285 20250 30135 40140 83540 333 20205 58006;
0137834980999992008011818004-17733-039250FM-12+000399999V0203601N005112200019N0020001N1+02911+02371101111ADDGF103991011011008001041001MA1999999101061MD1999999+0021REMSYN070AAXX  18184 83498 32595 33610 10291 20237 30106 40111 81140 333 58002;
0168834980999992008011900004-17733-039250FM-12+000399999V0203601N003112200019N0020001N1+02571+02331101231ADDGF103991031021008001001001KA1240M+03061MA1999999101181MD1999999-0071REMSYN088AAXX  19004 83498 32595 33606 10257 20233 30118 40123 83200 333 10306 29082 55/// 59007;
0156834980999992008011912004-17733-039250FM-12+000399999V0203601N002610450019N0020001N1+02841+02301101321ADDGF105991031021008001031001KA1240N+02261MA1999999101271MD1999999-0081REMSYN076AAXX  19124 83498 32595 53605 10284 20230 30127 40132 83230 333 20226 59008;
0137834980999992008011918004-17733-039250FM-12+000399999V0203601N005112200019N0020001N1+02861+02431100901ADDGF103991031011008001001001MA1999999100851MD1999999-0211REMSYN070AAXX  19184 83498 32595 33610 10286 20243 30085 40090 83100 333 59021;
0156834980999992008012018004-17733-039250FM-12+000399999V0203601N005112200019N0020001N1+02971+02331100761ADDGF103991001001999999001021MA1999999100711MD1999999-0141REMSYN070AAXX  20184 83498 32595 33610 10297 20233 30071 40076 80002 333 59014;EQDQ01+008002SCOLCB
0156834980999992008012112004-17733-039250FM-12+000399999V0203601N004110450019N0020001N1+02961+02421101051ADDGF105991021021008001041001KA1240N+02281MA1999999101001MD1999999-0061REMSYN076AAXX  21124 83498 32595 53608 10296 20242 30100 40105 82240 333 20228 59006;
0137834980999992008012118004-17733-039250FM-12+000399999V0203601N004112200019N0020001N1+02941+02471100851ADDGF103991011011008001001011MA1999999100801MD1999999+0091REMSYN070AAXX  21184 83498 32595 33608 10294 20247 30080 40085 81101 333 58009;
0168834980999992008012200004-17733-039250FM-12+000399999V0200501N000510450019N0020001N1+02591+02401101181ADDGF107991031061008001011001KA1240M+03121MA1999999101131MD1999999+0341REMSYN088AAXX  22004 83498 32595 70501 10259 20240 30113 40118 83610 333 10312 29082 55/// 58034;
0201834980999992008012212004-17733-039250FM-12+000399999V0203601N003110450019N0020001N1+02501+02381101371ADDAA124002091AY161061AY261061GF108991031071008001021999KA1240N+02311MA1999999101321MD1999999+0321MW1211REMSYN088AAXX  22124 83498 21595 83606 10250 20238 30132 40137 72166 8372/ 333 20231 58032 60024;
0182834980999992008012218004-17733-039250FM-12+000399999V0201801N001510450019N0020001N1+02631+02391101161ADDAA106000591AY121061AY211061GF108991031071008001021999MA1999999101111MD1999999+0311MW1031REMSYN082AAXX  22184 83498 21595 81803 10263 20239 30111 40116 70321 8372/ 333 58031 69941;
0168834980999992008012300004-17733-039250FM-12+000399999V0201801N001510450019N0020001N1+02511+02341101321ADDGF108991041051008001021999KA1240M+02741MA1999999101271MD1999999+0141REMSYN088AAXX  23004 83498 32595 81803 10251 20234 30127 40132 8452/ 333 10274 29091 55/// 58014;
0201834980999992008012312004-17733-039250FM-12+000399999V0201801N002610450019N0020001N1+02551+02351101371ADDAA124001091AY121061AY211061GF108991031071008001021999KA1240N+02331MA1999999101321MD1999999+0001MW1031REMSYN088AAXX  23124 83498 21595 81805 10255 20235 30132 40137 70321 8372/ 333 20233 58000 60014;
0168834980999992008012400004-17733-039250FM-12+000399999V0201801N001510450019N0020001N1+02441+02321101411ADDGF108991041051008001021999KA1240M+02711MA1999999101361MD1999999+0091REMSYN088AAXX  24004 83498 32595 81803 10244 20232 30136 40141 8452/ 333 10271 29091 55/// 58009;
0201834980999992008012412004-17733-039250FM-12+000399999V0202701N000510450019N0020001N1+02381+02331101451ADDAA124021191AY161061AY261061GF108991041071008001021999KA1240N+02271MA1999999101401MD1999999+0081MW1631REMSYN088AAXX  24124 83498 21595 82701 10238 20233 30140 40145 76366 8472/ 333 20227 58008 60214;
0182834980999992008012418004-17733-039250FM-12+000399999V0201401N001510075019N0020001N1+02511+02321101271ADDAA106014091AY161061AY261061GF108991051051008001021999MA1999999101221MD1999999+0081MW1211REMSYN082AAXX  24184 83498 21595 81403 10251 20232 30122 40127 72166 8552/ 333 58008 60141;
0213834980999992008012500004-17733-039250FM-12+000399999V0209999C000010075019N0020001N1+02401+02351101341ADDAA106007991AY161061AY261061GF108991051061008001021999KA1240M+02831MA1999999101291MD1999999-0071MW1211REMSYN100AAXX  25004 83498 21595 80000 10240 20235 30129 40134 72166 8562/ 333 10283 29095 55/// 59007 60081;
0201834980999992008012512004-17733-039250FM-12+000399999V0202301N001010075019N0020001N1+02591+02271101351ADDAA124025991AY121061AY211061GF108991051051008001021999KA1240N+02201MA1999999101301MD1999999-0101MW1031REMSYN088AAXX  25124 83498 21595 82302 10259 20227 30130 40135 70321 8552/ 333 20220 59010 60264;
0137834980999992008012518004-17733-039250FM-12+000399999V0201401N001510450019N0020001N1+02761+02321101181ADDGF107991041051008001041001MA1999999101131MD1999999-0091REMSYN070AAXX  25184 83498 32595 71403 10276 20232 30113 40118 84540 333 59009;
0168834980999992008012600004-17733-039250FM-12+000399999V0200901N001012200019N0020001N1+02511+02321101311ADDGF104991021051008001041001KA1240M+02791MA1999999101261MD1999999-0031REMSYN088AAXX  26004 83498 32595 40902 10251 20232 30126 40131 82540 333 10279 29085 55/// 59003;
0156834980999992008012612004-17733-039250FM-12+000399999V0201801N001010450019N0020001N1+02631+02411101311ADDGF107991041051008001041001KA1240N+02391MA1999999101261MD1999999-0041REMSYN076AAXX  26124 83498 32595 71802 10263 20241 30126 40131 84540 333 20239 59004;
0137834980999992008012618004-17733-039250FM-12+000399999V0201401N001510450019N0020001N1+02731+02341101091ADDGF107991041051008001051001MA1999999101041MD1999999-0091REMSYN070AAXX  26184 83498 32595 71403 10273 20234 30104 40109 84550 333 59009;
0201834980999992008012712004-17733-039250FM-12+000399999V0201801N001510450019N0020001N1+02361+02281101371ADDAA124002091AY161061AY261061GF108991041071008001021999KA1240N+02151MA1999999101321MD1999999+0061MW1611REMSYN088AAXX  27124 83498 21595 81803 10236 20228 30132 40137 76166 8472/ 333 20215 58006 60024;
0182834980999992008012718004-17733-039250FM-12+000399999V0201401N001510075019N0020001N1+02611+02311101271ADDAA106002091AY161061AY261061GF108991051051008001021999MA1999999101221MD1999999+0181MW1211REMSYN082AAXX  27184 83498 21595 81403 10261 20231 30122 40127 72166 8552/ 333 58018 60021;
0173834980999992008012812004-17733-039250FM-12+000399999V0201801N001510450019N0020001N1+02591+02331101351ADDAA124002091GF107991041051008001041001KA1240N+02221MA1999999101301MD1999999-0021REMSYN082AAXX  28124 83498 22595 71803 10259 20233 30130 40135 84540 333 20222 59002 60024;
0201834980999992008012912004-17733-039250FM-12+000399999V0201801N001010075019N0020001N1+02631+02371101181ADDAA124000891AY121061AY211061GF107991051051008001051001KA1240N+02191MA1999999101131MD1999999-0191MW1031REMSYN088AAXX  29124 83498 21595 71802 10263 20237 30113 40118 70321 85550 333 20219 59019 69984;
0178834980999992008013000004-17733-039250FM-12+000399999V0200501N001012200019N0020001N1+02511+02271100941ADDGA1001+999999999GF100991001001999999001001KA1240M+02921MA1999999100891MD1999999-0321REMSYN082AAXX  30004 83498 32995 00502 10251 20227 30089 40094 333 10292 29084 55/// 59032;
0173834980999992008013012004-17733-039250FM-12+000399999V0203601N002610450019N0020001N1+02631+02231100841ADDAA124002091GF106991041051008001031001KA1240N+02221MA1999999100791MD1999999-0341REMSYN082AAXX  30124 83498 22595 63605 10263 20223 30079 40084 84530 333 20222 59034 60024;
0137834980999992008013018004-17733-039250FM-12+000399999V0200501N004110075019N0020001N1+02731+02101100581ADDGF108991051051008001021999MA1999999100531MD1999999-0291REMSYN070AAXX  30184 83498 32595 80508 10273 20210 30053 40058 8552/ 333 59029;
0168834980999992008013100004-17733-039250FM-12+000399999V0200501N001512200019N0020001N1+02681+02291100631ADDGF103991031051008001001001KA1240M+02951MA1999999100581MD1999999-0311REMSYN088AAXX  31004 83498 32595 30503 10268 20229 30058 40063 83500 333 10295 29075 55/// 59031;
0220834980999992008013112004-17733-039250FM-12+000399999V0203601N004110450019N0020001N1+02651+02251100681ADDAA124000091AY121061AY211061GF107991021011008001011001KA1240N+02331MA1999999100001MD1999999-0161MW1031REMSYN088AAXX  31124 83498 21595 73608 10265 20225 30000 40068 70321 82110 333 20233 59016 69924;EQDQ01  00002PRCP24
0137834980999992008013118004-17733-039250FM-12+000399999V0203601N005110450019N0020001N1+02811+02291100451ADDGF107991031051008001081001MA1999999100401MD1999999-0131REMSYN070AAXX  31184 83498 32595 73610 10281 20229 30040 40045 83580 333 59013;
0168834980999992008020100004-17733-039250FM-12+000399999V0203601N003110450019N0020001N1+02571+02351100571ADDGF107991041051008001011001KA1240M+02881MA1999999100521MD1999999-0061REMSYN088AAXX  01004 83498 32595 73606 10257 20235 30052 40057 84510 333 10288 29082 55000 59006;
0201834980999992008020112004-17733-039250FM-12+000399999V0203601N001510450019N0020001N1+02531+02441100741ADDAA124016091AY161061AY261061GF107991041051008001011001KA1240N+02311MA1999999100691MD1999999+0061MW1211REMSYN088AAXX  01124 83498 21595 73603 10253 20244 30069 40074 72166 84510 333 20231 58006 60164;
0156834980999992008020412004-17733-039250FM-12+000399999V0203601N005712200019N0020001N1+02901+02341101211ADDGF102991021011008001001001KA1240N+02421MA1999999101161MD1999999+0011REMSYN076AAXX  04124 83498 32595 23611 10290 20234 30116 40121 82100 333 20242 58001;
0156834980999992008020512004-17733-039250FM-12+000399999V0203601N002112200019N0020001N1+02851+02421101461ADDGF106991031021008001001011KA1240N+02351MA1999999101411MD1999999+0251REMSYN076AAXX  05124 83498 32595 63604 10285 20242 30141 40146 83201 333 20235 58025;
0137834980999992008020518004-17733-039250FM-12+000399999V0203601N003112200019N0020001N1+02991+02281101191ADDGF102991011011008001001011MA1999999101141MD1999999+0311REMSYN070AAXX  05184 83498 32595 23606 10299 20228 30114 40119 81101 333 58031;
0156834980999992008020612004-17733-039250FM-12+000399999V0200901N000512200019N0020001N1+02751+02321101561ADDGF104991041021008001001001KA1240N+02181MA1999999101511MD1999999+0101REMSYN076AAXX  06124 83498 32595 40901 10275 20232 30151 40156 84200 333 20218 58010;
0137834980999992008020618004-17733-039250FM-12+000399999V0200901N003612200019N0020001N1+02911+02391101311ADDGF104991041011008001001001MA1999999101261MD1999999+0121REMSYN070AAXX  06184 83498 32595 40907 10291 20239 30126 40131 84100 333 58012;
0156834980999992008020712004-17733-039250FM-12+000399999V0203601N002610075019N0020001N1+02831+02271101661ADDGF105991051021008001001001KA1240N+02171MA1999999101611MD1999999+0101REMSYN076AAXX  07124 83498 32595 53605 10283 20227 30161 40166 85200 333 20217 58010;
0178834980999992008020800004-17733-039250FM-12+000399999V0200501N001012200019N0020001N1+02321+02031101501ADDGA1001+999999999GF100991001001999999001001KA1240M+03081MA1999999101451MD1999999-0041REMSYN082AAXX  08004 83498 32995 00502 10232 20203 30145 40150 333 10308 29075 55091 59004;
0156834980999992008020812004-17733-039250FM-12+000399999V0203601N001512200019N0020001N1+02711+02171101551ADDGF103991031011008001001001KA1240N+01921MA1999999101501MD1999999-0111REMSYN076AAXX  08124 83498 32595 33603 10271 20217 30150 40155 83100 333 20192 59011;
0137834980999992008020818004-17733-039250FM-12+000399999V0200501N003112200019N0020001N1+02961+02211101171ADDGF102991011011008001001011MA1999999101121MD1999999+0271REMSYN070AAXX  08184 83498 32595 20506 10296 20221 30112 40117 81101 333 58027;
0178834980999992008020900004-17733-039250FM-12+000399999V0200501N001012200019N0020001N1+02441+02031101331ADDGA1001+999999999GF100991001001999999001001KA1240M+03091MA1999999101281MD1999999-0171REMSYN082AAXX  09004 83498 32995 00502 10244 20203 30128 40133 333 10309 29076 55093 59017;
0156834980999992008020912004-17733-039250FM-12+000399999V0203601N002110075019N0020001N1+02911+02321101331ADDGF105991051021008001001001KA1240N+02081MA1999999101281MD1999999-0221REMSYN076AAXX  09124 83498 32595 53604 10291 20232 30128 40133 85200 333 20208 59022;
0137834980999992008020918004-17733-039250FM-12+000399999V0200501N003612200019N0020001N1+03011+02321101071ADDGF102991011011008001001011MA1999999101021MD1999999-0101REMSYN070AAXX  09184 83498 32595 20507 10301 20232 30102 40107 81101 333 59010;
0156834980999992008021012004-17733-039250FM-12+000399999V0203601N003112200019N0020001N1+02871+02091101311ADDGF104991041021008001001001KA1240N+02191MA1999999101261MD1999999-0021REMSYN076AAXX  10124 83498 32595 43606 10287 20209 30126 40131 84200 333 20219 59002;
0137834980999992008021018004-17733-039250FM-12+000399999V0203601N003112200019N0020001N1+03001+02111101131ADDGF103991011011008001001011MA1999999101081MD1999999+0061REMSYN070AAXX  10184 83498 32595 33606 10300 20211 30108 40113 81101 333 58006;
0156834980999992008021112004-17733-039250FM-12+000399999V0200501N002112200019N0020001N1+02841+02261101361ADDGF105991031021008001001011KA1240N+02181MA1999999101311MD1999999+0051REMSYN076AAXX  11124 83498 32595 50504 10284 20226 30131 40136 83201 333 20218 58005;
0137834980999992008021118004-17733-039250FM-12+000399999V0200501N002611050019N0020001N1+03001+02291101181ADDGF106991041021008001001021MA1999999101131MD1999999+0051REMSYN070AAXX  11184 83498 32595 60505 10300 20229 30113 40118 84202 333 58005;
0168834980999992008021200004-17733-039250FM-12+000399999V0209999C000012200019N0020001N1+02481+02131101231ADDGF102991011011999999001011KA1240M+03071MA1999999101181MD1999999-0011REMSYN088AAXX  12004 83498 32995 20000 10248 20213 30118 40123 81101 333 10307 29078 55068 59001;
0156834980999992008021212004-17733-039250FM-12+000399999V0203601N001510075019N0020001N1+02731+02281101411ADDGF107991051051008001011001KA1240N+02151MA1999999101361MD1999999+0051REMSYN076AAXX  12124 83498 32595 73603 10273 20228 30136 40141 85510 333 20215 58005;
0137834980999992008021218004-17733-039250FM-12+000399999V0200501N003612200019N0020001N1+02981+02281101181ADDGF104991011011008001001021MA1999999101131MD1999999+0001REMSYN070AAXX  12184 83498 32595 40507 10298 20228 30113 40118 81102 333 58000;
0178834980999992008021300004-17733-039250FM-12+000399999V0209999C000012200019N0020001N1+02491+02271101251ADDGA1001+999999999GF100991001001999999001001KA1240M+03151MA1999999101201MD1999999+0021REMSYN082AAXX  13004 83498 32995 00000 10249 20227 30120 40125 333 10315 29080 55066 58002;
0137834980999992008021318004-17733-039250FM-12+000399999V0200901N004111050019N0020001N1+03041+02331101201ADDGF105991021011008001001021MA1999999101251MD1999999+0121REMSYN070AAXX  13184 83498 32595 50908 10304 20233 30125 40120 82102 333 58012;
0168834980999992008021400004-17733-039250FM-12+000399999V0200501N001012200019N0020001N1+02521+02151101321ADDGF103991031011008001001001KA1240M+03151MA1999999101271MD1999999+0071REMSYN088AAXX  14004 83498 32595 30502 10252 20215 30127 40132 83100 333 10315 29075 55083 58007;
0156834980999992008021412004-17733-039250FM-12+000399999V0200901N002612200019N0020001N1+02831+02221101451ADDGF104991041021008001001001KA1240N+02121MA1999999101401MD1999999+0041REMSYN076AAXX  14124 83498 32595 40905 10283 20222 30140 40145 84200 333 20212 58004;
0137834980999992008021418004-17733-039250FM-12+000399999V0200901N002611050019N0020001N1+02941+02191101231ADDGF105991031021008001001021MA1999999101181MD1999999-0071REMSYN070AAXX  14184 83498 32595 50905 10294 20219 30118 40123 83202 333 59007;
0168834980999992008021500004-17733-039250FM-12+000399999V0200901N001012200019N0020001N1+02571+02211101341ADDGF101991011011008001001001KA1240M+03121MA1999999101291MD1999999+0021REMSYN088AAXX  15004 83498 32595 10902 10257 20221 30129 40134 81100 333 10312 29074 55084 58002;
0137834980999992008021518004-17733-039250FM-12+000399999V0201401N004110450019N0020001N1+02901+02271101191ADDGF107991031051008001031001MA1999999101141MD1999999-0041REMSYN070AAXX  15184 83498 32595 71408 10290 20227 30114 40119 83530 333 59004;
0168834980999992008021600004-17733-039250FM-12+000399999V0201401N001012200019N0020001N1+02581+02211101351ADDGF102991021011008001001001KA1240M+03071MA1999999101301MD1999999+0011REMSYN088AAXX  16004 83498 32595 21402 10258 20221 30130 40135 82100 333 10307 29077 55035 58001;
0201834980999992008021612004-17733-039250FM-12+000399999V0200901N003112200019N0020001N1+02821+02201101361ADDAA124004191AY121061AY211061GF104991041021008001001001KA1240N+02201MA1999999101311MD1999999+0001MW1031REMSYN088AAXX  16124 83498 21595 40906 10282 20220 30131 40136 70321 84200 333 20220 58000 60044;
0137834980999992008021618004-17733-039250FM-12+000399999V0200901N003112200019N0020001N1+02911+02371101161ADDGF103991031011008001001001MA1999999101111MD1999999-0031REMSYN070AAXX  16184 83498 32595 30906 10291 20237 30111 40116 83100 333 59003;
0213834980999992008021700004-17733-039250FM-12+000399999V0200901N001012200019N0020001N1+02481+02361101351ADDAA106001091AY121061AY211061GF104991041051008001001001KA1240M+03051MA1999999101301MD1999999+0001MW1031REMSYN100AAXX  17004 83498 21595 40902 10248 20236 30130 40135 70321 84500 333 10305 29082 55085 58000 60011;
0201834980999992008021712004-17733-039250FM-12+000399999V0201801N001512200019N0020001N1+02641+02311101451ADDAA124004191AY161061AY261061GF104991021021008001031001KA1240N+02161MA1999999101401MD1999999+0091MW1211REMSYN088AAXX  17124 83498 21595 41803 10264 20231 30140 40145 72166 82230 333 20216 58009 60044;
0137834980999992008021718004-17733-039250FM-12+000399999V0200901N003112200019N0020001N1+02921+02291101321ADDGF104991031011008001001011MA1999999101271MD1999999+0161REMSYN070AAXX  17184 83498 32595 40906 10292 20229 30127 40132 83101 333 58016;
0168834980999992008021800004-17733-039250FM-12+000399999V0200501N001012200019N0020001N1+02561+02191101451ADDGF101991011011008001001001KA1240M+03081MA1999999101401MD1999999+0101REMSYN088AAXX  18004 83498 32595 10502 10256 20219 30140 40145 81100 333 10308 29078 55044 58010;
0156834980999992008021812004-17733-039250FM-12+000399999V0200501N003110075019N0020001N1+02891+02371101511ADDGF105991051021008001001001KA1240N+02151MA1999999101461MD1999999+0061REMSYN076AAXX  18124 83498 32595 50506 10289 20237 30146 40151 85200 333 20215 58006;
0137834980999992008021818004-17733-039250FM-12+000399999V0200501N003112200019N0020001N1+03051+02281101311ADDGF103991011011008001001021MA1999999101261MD1999999-0011REMSYN070AAXX  18184 83498 32595 30506 10305 20228 30126 40131 81102 333 59001;
0178834980999992008021900004-17733-039250FM-12+000399999V0209999C000012200019N0020001N1+02511+02211101421ADDGA1001+999999999GF100991001001999999001001KA1240M+03111MA1999999101371MD1999999-0031REMSYN082AAXX  19004 83498 32995 00000 10251 20221 30137 40142 333 10311 29076 55085 59003;
0156834980999992008021912004-17733-039250FM-12+000399999V0200501N002610450019N0020001N1+02901+02411101471ADDGF105991031021008001031001KA1240N+02121MA1999999101421MD1999999-0041REMSYN076AAXX  19124 83498 32595 50505 10290 20241 30142 40147 83230 333 20212 59004;
0137834980999992008021918004-17733-039250FM-12+000399999V0200501N002611050019N0020001N1+02961+02421101291ADDGF106991021011008001001021MA1999999101241MD1999999-0021REMSYN070AAXX  19184 83498 32595 60505 10296 20242 30124 40129 82102 333 59002;
0168834980999992008022000004-17733-039250FM-12+000399999V0200501N000511050019N0020001N1+02541+02171101411ADDGF106991021011008001001021KA1240M+03111MA1999999101261MD1999999-0011REMSYN088AAXX  20004 83498 32595 60501 10254 20217 30126 40141 82102 333 10311 29077 55049 59001;
0156834980999992008022012004-17733-039250FM-12+000399999V0203601N001010450019N0020001N1+02931+02341101311ADDGF106991021021008001021001KA1240N+02141MA1999999101261MD1999999-0161REMSYN076AAXX  20124 83498 32595 63602 10293 20234 30126 40131 82220 333 20214 59016;
0156834980999992008022018004-17733-039250FM-12+000399999V0200501N003112200019N0020001N1+03011+02241101011ADDGF103991001001999999001021MA1999999100961MD1999999-0281REMSYN070AAXX  20184 83498 32595 30506 10301 20224 30096 40101 80002 333 59028;EQDQ01+008002SCOLCB
0187834980999992008022100004-17733-039250FM-12+000399999V0209999C000012200019N0020001N1+02511+02231101141ADDGF103991001001999999001021KA1240M+03111MA1999999101091MD1999999-0271REMSYN088AAXX  21004 83498 32595 30000 10251 20223 30109 40114 80002 333 10311 29076 55049 59027;EQDQ01+008002SCOLCB
0201834980999992008022212004-17733-039250FM-12+000399999V0203601N003110450019N0020001N1+02851+02421101401ADDAA124000591AY121061AY211061GF106991021011008001021001KA1240N+02261MA1999999101351MD1999999+0171MW1031REMSYN088AAXX  22124 83498 21595 63606 10285 20242 30135 40140 70321 82120 333 20226 58017 69964;
0137834980999992008022218004-17733-039250FM-12+000399999V0200501N005711050019N0020001N1+02971+02351101061ADDGF106991011011008001001021MA1999999101011MD1999999+0041REMSYN070AAXX  22184 83498 32595 60511 10297 20235 30101 40106 81102 333 58004;
0187834980999992008022300004-17733-039250FM-12+000399999V0203601N002612200019N0020001N1+02611+02421101261ADDGF103991001001999999001021KA1240M+03171MA1999999101211MD1999999-0041REMSYN088AAXX  23004 83498 32595 33605 10261 20242 30121 40126 80002 333 10317 29082 55034 59004;EQDQ01+008002SCOLCB
0156834980999992008022312004-17733-039250FM-12+000399999V0203201N003610450019N0020001N1+02861+02441101401ADDGF106991031011008001031001KA1240N+02231MA1999999101251MD1999999+0001REMSYN076AAXX  23124 83498 32595 63207 10286 20244 30125 40140 83130 333 20223 58000;
0137834980999992008022318004-17733-039250FM-12+000399999V0203601N004112200019N0020001N1+03061+02431101101ADDGF102991021011008001001001MA1999999101051MD1999999+0041REMSYN070AAXX  23184 83498 32595 23608 10306 20243 30105 40110 82100 333 58004;
0168834980999992008022400004-17733-039250FM-12+000399999V0203601N004110450019N0020001N1+02581+02251101131ADDGF107991041051008001031001KA1240M+03231MA1999999101081MD1999999-0131REMSYN088AAXX  24004 83498 32595 73608 10258 20225 30108 40113 84530 333 10323 29078 55064 59013;
0156834980999992008022412004-17733-039250FM-12+000399999V0203601N004112200019N0020001N1+02911+02341101191ADDGF104991011011008001001021KA1240N+02331MA1999999101141MD1999999-0211REMSYN076AAXX  24124 83498 32595 43608 10291 20234 30114 40119 81102 333 20233 59021;
0213834980999992008022500004-17733-039250FM-12+000399999V0201801N003610450019N0020001N1+02361+02291101251ADDAA106003091AY191061AY261061GF108991031071008001021999KA1240M+03381MA1999999101201MD1999999+0121MW1611REMSYN100AAXX  25004 83498 21595 81807 10236 20229 30120 40125 76196 8372/ 333 10338 29083 55077 58012 60031;
0201834980999992008022512004-17733-039250FM-12+000399999V0202701N001510450019N0020001N1+02541+02211101151ADDAA124018091AY161061AY261061GF107991031011008001041001KA1240N+02101MA1999999101101MD1999999-0041MW1211REMSYN088AAXX  25124 83498 21595 72703 10254 20221 30110 40115 72166 83140 333 20210 59004 60184;
0182834980999992008022518004-17733-039250FM-12+000399999V0200901N002110450019N0020001N1+02561+02231100851ADDAA106013091AY191061AY291061GF107991031061008001011001MA1999999100801MD1999999+0111MW1921REMSYN082AAXX  25184 83498 21595 70904 10256 20223 30080 40085 79299 83610 333 58011 60131;
0201834980999992008022612004-17733-039250FM-12+000399999V0202701N001510450019N0020001N1+02341+02271100921ADDAA124027991AY161061AY261061GF108991031071008001021999KA1240N+02181MA1999999100871MD1999999-0231MW1611REMSYN088AAXX  26124 83498 21595 82703 10234 20227 30087 40092 76166 8372/ 333 20218 59023 60284;
0180834980999992008022700004-17733-039250FM-12+000399999V0209999C000010075019N0020001N1+02531+02401100901ADDGF108991051051008001021999KA1240M+02991MA1999999100851MD1999999-0031MW1131REMSYN094AAXX  27004 83498 31595 80000 10253 20240 30085 40090 713// 8552/ 333 10299 29090 55015 59003;
0201834980999992008022712004-17733-039250FM-12+000399999V0201801N004110450019N0020001N1+02641+02311100911ADDAA124000891AY161061AY221061GF108991041061008001011999KA1240N+02221MA1999999100861MD1999999-0011MW1211REMSYN088AAXX  27124 83498 21595 81808 10264 20231 30086 40091 72162 8461/ 333 20222 59001 69984;
0213834980999992008022800004-17733-039250FM-12+000399999V0201801N005110075019N0020001N1+02631+02331101001ADDAA106009991AY161061AY261061GF108991051051008001021999KA1240M+02951MA1999999100951MD1999999+0101MW1211REMSYN100AAXX  28004 83498 21595 81810 10263 20233 30095 40100 72166 8552/ 333 10295 29081 55022 58010 60101;
0201834980999992008022812004-17733-039250FM-12+000399999V0201801N004110450019N0020001N1+02611+02391100911ADDAA124011991AY121061AY211061GF107991041051008001051001KA1240N+02201MA1999999100861MD1999999+0001MW1031REMSYN088AAXX  28124 83498 21595 71808 10261 20239 30086 40091 70321 84550 333 20220 58000 60124;
0137834980999992008022818004-17733-039250FM-12+000399999V0201801N005712200019N0020001N1+02751+02341100831ADDGF104991041021008001001001MA1999999100781MD1999999+0101REMSYN070AAXX  28184 83498 32595 41811 10275 20234 30078 40083 84200 333 58010;
0213834980999992008022900004-17733-039250FM-12+000399999V0201801N004610075019N0020001N1+02481+02341101031ADDAA106001091AY161061AY261061GF108991051051008001021999KA1240M+02871MA1999999100981MD1999999+0031MW1601REMSYN100AAXX  29004 83498 21595 81809 10248 20234 30098 40103 76066 8552/ 333 10287 29088 55046 58003 60011;
0173834980999992008022912004-17733-039250FM-12+000399999V0201801N001510450019N0020001N1+02621+02251101051ADDAA124001091GF108991041061008001021999KA1240N+02171MA1999999101001MD1999999+0141REMSYN082AAXX  29124 83498 22595 81803 10262 20225 30100 40105 8462/ 333 20217 58014 60014;
0182834980999992008022918004-17733-039250FM-12+000399999V0201401N003110450019N0020001N1+02781+02251100811ADDAA106000891AY161061AY221061GF108991031061008001011999MA1999999100761MD1999999-0021MW1211REMSYN082AAXX  29184 83498 21595 81406 10278 20225 30076 40081 72162 8361/ 333 59002 69981;
0168834980999992008030100004-17733-039250FM-12+000399999V0200901N001512200019N0020001N1+02621+02211100941ADDGF103991031021008001001001KA1240M+03071MA1999999100891MD1999999-0091REMSYN088AAXX  01004 83498 32595 30903 10262 20221 30089 40094 83200 333 10307 29077 55009 59009;
0201834980999992008030112004-17733-039250FM-12+000399999V0203601N001510450019N0020001N1+02821+02461100861ADDAA124002091AY121061AY211061GF105991021011008001031001KA1240N+02331MA1999999100811MD1999999-0191MW1031REMSYN088AAXX  01124 83498 21595 53603 10282 20246 30081 40086 70321 82130 333 20233 59019 60024;
0149834980999992008030118004-17733-039250FM-12+000399999V0203201N001010075019N0020001N1+02701+02411100571ADDGF108991051051008001021999MA1999999100521MD1999999-0241MW1171REMSYN076AAXX  01184 83498 31595 83202 10270 20241 30052 40057 717// 8552/ 333 59024;
0168834980999992008030200004-17733-039250FM-12+000399999V0202701N001010075019N0020001N1+02571+02351100901ADDGF108991051051008001021999KA1240M+03111MA1999999100851MD1999999-0041REMSYN088AAXX  02004 83498 32595 82702 10257 20235 30085 40090 8552/ 333 10311 29085 55007 59004;
0201834980999992008030212004-17733-039250FM-12+000399999V0203601N004110450019N0020001N1+02581+02251100961ADDAA124020191AY161061AY221061GF108991041061008001021999KA1240N+02171MA1999999100911MD1999999+0101MW1211REMSYN088AAXX  02124 83498 21595 83608 10258 20225 30091 40096 72162 8462/ 333 20217 58010 60204;
0137834980999992008030218004-17733-039250FM-12+000399999V0203601N004612200019N0020001N1+03081+02471100601ADDGF102991021011008001001001MA1999999100551MD1999999+0031REMSYN070AAXX  02184 83498 32595 23609 10308 20247 30055 40060 82100 333 58003;
0168834980999992008030300004-17733-039250FM-12+000399999V0203601N004110450019N0020001N1+02681+02261100861ADDGF108991041061008001011999KA1240M+03071MA1999999100811MD1999999-0041REMSYN088AAXX  03004 83498 32595 83608 10268 20226 30081 40086 8461/ 333 10307 29077 55035 59004;
0156834980999992008030312004-17733-039250FM-12+000399999V0203601N001510450019N0020001N1+02791+02421100971ADDGF107991021011008001031001KA1240N+02381MA1999999100921MD1999999+0011REMSYN076AAXX  03124 83498 32595 73603 10279 20242 30092 40097 82130 333 20238 58001;
0182834980999992008030318004-17733-039250FM-12+000399999V0203201N002610075019N0020001N1+02351+02271100921ADDAA106046091AY191061AY261061GF108991051071008001021999MA1999999100871MD1999999+0321MW1651REMSYN082AAXX  03184 83498 21595 83205 10235 20227 30087 40092 76596 8572/ 333 58032 60461;
0213834980999992008030400004-17733-039250FM-12+000399999V0203201N001510075019N0020001N1+02391+02261100951ADDAA106003091AY161061AY261061GF108991051051008001021999KA1240M+03381MA1999999100901MD1999999+0091MW1211REMSYN100AAXX  04004 83498 21595 83203 10239 20226 30090 40095 72166 8552/ 333 10338 29091 55007 58009 60031;
0201834980999992008030412004-17733-039250FM-12+000399999V0203201N001510450019N0020001N1+02681+02351101011ADDAA124049091AY161061AY261061GF108991041061008001021999KA1240N+02201MA1999999100961MD1999999+0041MW1211REMSYN088AAXX  04124 83498 21595 83203 10268 20235 30096 40101 72166 8462/ 333 20220 58004 60494;
0137834980999992008030418004-17733-039250FM-12+000399999V0203601N003610450019N0020001N1+03141+02531100631ADDGF106991021011008001031011MA1999999100581MD1999999-0291REMSYN070AAXX  04184 83498 32595 63607 10314 20253 30058 40063 82131 333 59029;
0168834980999992008030500004-17733-039250FM-12+000399999V0202701N001010450019N0020001N1+02681+02311100861ADDGF107991031051008001011001KA1240M+03341MA1999999100811MD1999999-0091REMSYN088AAXX  05004 83498 32595 72702 10268 20231 30081 40086 83510 333 10334 29078 55020 59009;
0156834980999992008030512004-17733-039250FM-12+000399999V0202701N000512200019N0020001N1+02951+02361100901ADDGF104991021041008001001011KA1240N+02331MA1999999100851MD1999999-0111REMSYN076AAXX  05124 83498 32595 42701 10295 20236 30085 40090 82401 333 20233 59011;
0137834980999992008030518004-17733-039250FM-12+000399999V0203601N003110450019N0020001N1+02971+02381100531ADDGF105991031031008001031001MA1999999100481MD1999999-0101REMSYN070AAXX  05184 83498 32595 53606 10297 20238 30048 40053 83330 333 59010;
0178834980999992008030600004-17733-039250FM-12+000399999V0200901N001012200019N0020001N1+02631+02501100861ADDGA1001+999999999GF100991001001999999001001KA1240M+03311MA1999999100811MD1999999+0001REMSYN082AAXX  06004 83498 32995 00902 10263 20250 30081 40086 333 10331 29081 55072 58000;
0156834980999992008030612004-17733-039250FM-12+000399999V0203601N004112200019N0020001N1+02881+02391100951ADDGF103991011011008001001011KA1240N+02381MA1999999100901MD1999999+0051REMSYN076AAXX  06124 83498 32595 33608 10288 20239 30090 40095 81101 333 20238 58005;
0137834980999992008030618004-17733-039250FM-12+000399999V0203601N004612200019N0020001N1+03081+02441100671ADDGF102991021011008001001001MA1999999100621MD1999999+0141REMSYN070AAXX  06184 83498 32595 23609 10308 20244 30062 40067 82100 333 58014;
0168834980999992008030700004-17733-039250FM-12+000399999V0200901N001012200019N0020001N1+02641+02311100911ADDGF101991011011008001001001KA1240M+03211MA1999999100861MD1999999+0051REMSYN088AAXX  07004 83498 32595 10902 10264 20231 30086 40091 81100 333 10321 29077 55066 58005;
0156834980999992008030712004-17733-039250FM-12+000399999V0203601N001512200019N0020001N1+02901+02431101181ADDGF105991041021008001001011KA1240N+02431MA1999999101131MD1999999+0231REMSYN076AAXX  07124 83498 32595 53603 10290 20243 30113 40118 84201 333 20243 58023;
0137834980999992008030718004-17733-039250FM-12+000399999V0200501N003110450019N0020001N1+03041+02431100961ADDGF105991011011008001041001MA1999999100911MD1999999+0291REMSYN070AAXX  07184 83498 32595 50506 10304 20243 30091 40096 81140 333 58029;
0178834980999992008030800004-17733-039250FM-12+000399999V0201401N001012200019N0020001N1+02611+02441101231ADDGA1001+999999999GF100991001001999999001001KA1240M+03131MA1999999101181MD1999999+0321REMSYN082AAXX  08004 83498 32995 01402 10261 20244 30118 40123 333 10313 29082 55052 58032;
0156834980999992008030812004-17733-039250FM-12+000399999V0202701N000510450019N0020001N1+02721+02391101441ADDGF106991031011008001031001KA1240N+02331MA1999999101391MD1999999+0261REMSYN076AAXX  08124 83498 32595 62701 10272 20239 30139 40144 83130 333 20233 58026;
0182834980999992008030818004-17733-039250FM-12+000399999V0200901N003610450019N0020001N1+02881+02461101221ADDAA106001091AY161061AY221061GF108991041061008001011999MA1999999101171MD1999999+0261MW1211REMSYN082AAXX  08184 83498 21595 80907 10288 20246 30117 40122 72162 8461/ 333 58026 60011;
0168834980999992008030900004-17733-039250FM-12+000399999V0200901N000512200019N0020001N1+02561+02231101311ADDGF104991041051008001001001KA1240M+02981MA1999999101261MD1999999+0081REMSYN088AAXX  09004 83498 32595 40901 10256 20223 30126 40131 84500 333 10298 29081 55013 58008;
0173834980999992008030912004-17733-039250FM-12+000399999V0209999C000010450019N0020001N1+02531+02311101461ADDAA124001091GF106991041051008001021001KA1240N+02281MA1999999101411MD1999999+0021REMSYN082AAXX  09124 83498 22595 60000 10253 20231 30141 40146 84520 333 20228 58002 60014;
0149834980999992008030918004-17733-039250FM-12+000399999V0209999C000010075019N0020001N1+02791+02381101181ADDGF107991051051008001021001MA1999999101131MD1999999-0041MW1171REMSYN076AAXX  09184 83498 31595 70000 10279 20238 30113 40118 717// 85520 333 59004;
0178834980999992008031000004-17733-039250FM-12+000399999V0209999C000012200019N0020001N1+02591+02351101301ADDGA1001+999999999GF100991001001999999001001KA1240M+03061MA1999999101251MD1999999-0011REMSYN082AAXX  10004 83498 32995 00000 10259 20235 30125 40130 333 10306 29085 55031 59001;
0201834980999992008031012004-17733-039250FM-12+000399999V0200901N002610075019N0020001N1+02341+02171101391ADDAA124050091AY191061AY261061GF108991081071008001999999KA1240N+02161MA1999999101341MD1999999-0071MW1641REMSYN088AAXX  10124 83498 21595 80905 10234 20217 30134 40139 76496 887// 333 20216 59007 60504;
0178834980999992008031200004-17733-039250FM-12+000399999V0200901N001012200019N0020001N1+02531+02361101231ADDGA1001+999999999GF100991001001999999001001KA1240M+03021MA1999999101181MD1999999-0051REMSYN082AAXX  12004 83498 32995 00902 10253 20236 30118 40123 333 10302 29083 55094 59005;
0156834980999992008031212004-17733-039250FM-12+000399999V0203601N003610075019N0020001N1+02781+02401101341ADDGF105991051021008001001001KA1240N+02181MA1999999101291MD1999999+0021REMSYN076AAXX  12124 83498 32595 53607 10278 20240 30129 40134 85200 333 20218 58002;
0137834980999992008031218004-17733-039250FM-12+000399999V0203601N004112200019N0020001N1+02981+02401101121ADDGF103991031011008001001001MA1999999101071MD1999999+0081REMSYN070AAXX  12184 83498 32595 33608 10298 20240 30107 40112 83100 333 58008;
0178834980999992008031300004-17733-039250FM-12+000399999V0209999C000012200019N0020001N1+02581+02231101301ADDGA1001+999999999GF100991001001999999001001KA1240M+03121MA1999999101251MD1999999+0071REMSYN082AAXX  13004 83498 32995 00000 10258 20223 30125 40130 333 10312 29078 55108 58007;
0156834980999992008031312004-17733-039250FM-12+000399999V0203201N001512200019N0020001N1+02731+02521101311ADDGF105991041021008001001011KA1240N+02331MA1999999101261MD1999999-0031REMSYN076AAXX  13124 83498 32595 53203 10273 20252 30126 40131 84201 333 20233 59003;
0137834980999992008031318004-17733-039250FM-12+000399999V0203601N003612200019N0020001N1+03071+02301100821ADDGF103991011011008001001011MA1999999100771MD1999999-0301REMSYN070AAXX  13184 83498 32595 33607 10307 20230 30077 40082 81101 333 59030;
0178834980999992008031400004-17733-039250FM-12+000399999V0203601N001512200019N0020001N1+02611+02371101011ADDGA1001+999999999GF100991001001999999001001KA1240M+03211MA1999999100961MD1999999-0291REMSYN082AAXX  14004 83498 32995 03603 10261 20237 30096 40101 333 10321 29081 55100 59029;
0156834980999992008031412004-17733-039250FM-12+000399999V0203601N003612200019N0020001N1+02911+02341100981ADDGF103991031011008001001001KA1240N+02311MA1999999100931MD1999999-0331REMSYN076AAXX  14124 83498 32595 33607 10291 20234 30093 40098 83100 333 20231 59033;
0137834980999992008031418004-17733-039250FM-12+000399999V0203601N004612200019N0020001N1+03031+02411100691ADDGF101991011011008001001001MA1999999100641MD1999999-0131REMSYN070AAXX  14184 83498 32595 13609 10303 20241 30064 40069 81100 333 59013;
0178834980999992008031500004-17733-039250FM-12+000399999V0203601N000512200019N0020001N1+02631+02441101001ADDGA1001+999999999GF100991001001999999001001KA1240M+03221MA1999999100951MD1999999-0011REMSYN082AAXX  15004 83498 32995 03601 10263 20244 30095 40100 333 10322 29080 55106 59001;
0201834980999992008031512004-17733-039250FM-12+000399999V0203601N002612200019N0020001N1+02901+02411101251ADDAA124000021AY161061AY211061GF104991041021008001001001KA1240N+02331MA1999999101201MD1999999+0291MW1211REMSYN088AAXX  15124 83498 21595 43605 10290 20241 30120 40125 72161 84200 333 20233 58029 69924;
0156834980999992008031518004-17733-039250FM-12+000399999V0200901N002112200019N0020001N1+03041+02411101091ADDGF103991999011008001001001MA1999999101041MD1999999+0401REMSYN070AAXX  15184 83498 32595 30904 10304 20241 30104 40109 82100 333 58040;EQDQ01+000022SCOTLC
0168834980999992008031600004-17733-039250FM-12+000399999V0200901N001512200019N0020001N1+02641+02271101321ADDGF101991011011008001001001KA1240M+03231MA1999999101271MD1999999+0321REMSYN088AAXX  16004 83498 32595 10903 10264 20227 30127 40132 81100 333 10323 29076 55096 58032;
0201834980999992008031612004-17733-039250FM-12+000399999V0200501N001510450019N0020001N1+02701+02351101501ADDAA124001091AY161061AY221061GF108991041061008001011999KA1240N+02321MA1999999101451MD1999999+0251MW1211REMSYN088AAXX  16124 83498 21595 80503 10270 20235 30145 40150 72162 8461/ 333 20232 58025 60014;
0137834980999992008031618004-17733-039250FM-12+000399999V0200901N003110450019N0020001N1+03081+02401101251ADDGF105991031011008001051001MA1999999101201MD1999999+0161REMSYN070AAXX  16184 83498 32595 50906 10308 20240 30120 40125 83150 333 58016;
0168834980999992008031700004-17733-039250FM-12+000399999V0200901N001512200019N0020001N1+02651+02441101571ADDGF102991021011008001001001KA1240M+03031MA1999999101521MD1999999+0251REMSYN088AAXX  17004 83498 32595 20903 10265 20244 30152 40157 82100 333 10303 29082 55062 58025;
0156834980999992008031712004-17733-039250FM-12+000399999V0200501N001512200019N0020001N1+02941+02331101511ADDGF103991031011008001001001KA1240N+02431MA1999999101461MD1999999+0011REMSYN076AAXX  17124 83498 32595 30503 10294 20233 30146 40151 83100 333 20243 58001;
0137834980999992008031718004-17733-039250FM-12+000399999V0200901N003112200019N0020001N1+02951+02361101261ADDGF103991021011008001041001MA1999999101211MD1999999+0011REMSYN070AAXX  17184 83498 32595 30906 10295 20236 30121 40126 82140 333 58001;
0168834980999992008031800004-17733-039250FM-12+000399999V0200901N001512200019N0020001N1+02651+02331101421ADDGF102991021011008001001001KA1240M+03061MA1999999101371MD1999999-0151REMSYN088AAXX  18004 83498 32595 20903 10265 20233 30137 40142 82100 333 10306 29077 55102 59015;
0201834980999992008031812004-17733-039250FM-12+000399999V0200901N001510450019N0020001N1+02881+02321101551ADDAA124003091AY161061AY221061GF106991021011008001031011KA1240N+02381MA1999999101501MD1999999+0041MW1211REMSYN088AAXX  18124 83498 21595 60903 10288 20232 30150 40155 72162 82131 333 20238 58004 60034;
0137834980999992008031818004-17733-039250FM-12+000399999V0200901N003612200019N0020001N1+03101+02341101351ADDGF103991021011008001001011MA1999999101301MD1999999+0091REMSYN070AAXX  18184 83498 32595 30907 10310 20234 30130 40135 82101 333 58009;
0168834980999992008031900004-17733-039250FM-12+000399999V0200901N001512200019N0020001N1+02541+02171101411ADDGF103991031021008001001001KA1240M+03141MA1999999101361MD1999999-0011REMSYN088AAXX  19004 83498 32595 30903 10254 20217 30136 40141 83200 333 10314 29074 55064 59001;
0201834980999992008031912004-17733-039250FM-12+000399999V0201401N000510450019N0020001N1+02731+02261101471ADDAA124002091AY121061AY211061GF107991041051008001011001KA1240N+02341MA1999999101421MD1999999-0081MW1031REMSYN088AAXX  19124 83498 21595 71401 10273 20226 30142 40147 70321 84510 333 20234 59008 60024;
0182834980999992008031918004-17733-039250FM-12+000399999V0200901N002610450019N0020001N1+02931+02361101281ADDAA106002091AY121061AY211061GF106991021011008001051001MA1999999101231MD1999999-0071MW1031REMSYN082AAXX  19184 83498 21595 60905 10293 20236 30123 40128 70321 82150 333 59007 60021;
0168834980999992008032000004-17733-039250FM-12+000399999V0201401N001512200019N0020001N1+02691+02311101511ADDGF103991031011008001001001KA1240M+03011MA1999999101461MD1999999+0101REMSYN088AAXX  20004 83498 32595 31403 10269 20231 30146 40151 83100 333 10301 29077 55029 58010;
0173834980999992008032012004-17733-039250FM-12+000399999V0200901N001510075019N0020001N1+02841+02351101531ADDAA124002091GF105991051021008001001001KA1240N+02231MA1999999101481MD1999999+0061REMSYN082AAXX  20124 83498 22595 50903 10284 20235 30148 40153 85200 333 20223 58006 60024;
0137834980999992008032018004-17733-039250FM-12+000399999V0200901N003112200019N0020001N1+02981+02351101281ADDGF104991021011008001001011MA1999999101231MD1999999+0001REMSYN070AAXX  20184 83498 32595 40906 10298 20235 30123 40128 82101 333 58000;
0168834980999992008032100004-17733-039250FM-12+000399999V0200901N001012200019N0020001N1+02621+02211101451ADDGF103991031021008001001001KA1240M+03011MA1999999101401MD1999999-0061REMSYN088AAXX  21004 83498 32595 30902 10262 20221 30140 40145 83200 333 10301 29075 55100 59006;
0201834980999992008032112004-17733-039250FM-12+000399999V0200901N003112200019N0020001N1+02851+02331101471ADDAA124001091AY121061AY211061GF102991021011008001001001KA1240N+02251MA1999999101421MD1999999-0061MW1031REMSYN088AAXX  21124 83498 21595 20906 10285 20233 30142 40147 70321 82100 333 20225 59006 60014;
0137834980999992008032118004-17733-039250FM-12+000399999V0200901N002612200019N0020001N1+02911+02271101271ADDGF103991031011008001001001MA1999999101151MD1999999-0081REMSYN070AAXX  21184 83498 32595 30905 10291 20227 30115 40127 83100 333 59008;
0168834980999992008032200004-17733-039250FM-12+000399999V0200901N001512200019N0020001N1+02611+02291101401ADDGF102991021011008001001001KA1240M+03021MA1999999101351MD1999999-0051REMSYN088AAXX  22004 83498 32595 20903 10261 20229 30135 40140 82100 333 10302 29077 55086 59005;
0156834980999992008032212004-17733-039250FM-12+000399999V0201401N001512200019N0020001N1+02761+02341101451ADDGF104991041021008001001001KA1240N+02141MA1999999101401MD1999999-0021REMSYN076AAXX  22124 83498 32595 41403 10276 20234 30140 40145 84200 333 20214 59002;
0137834980999992008032218004-17733-039250FM-12+000399999V0200901N003112200019N0020001N1+02901+02321101251ADDGF103991031011008001001001MA1999999101201MD1999999+0051REMSYN070AAXX  22184 83498 32595 30906 10290 20232 30120 40125 83100 333 58005;
0168834980999992008032300004-17733-039250FM-12+000399999V0200901N001012200019N0020001N1+02621+02251101331ADDGF102991021011008001001001KA1240M+03041MA1999999101281MD1999999-0071REMSYN088AAXX  23004 83498 32595 20902 10262 20225 30128 40133 82100 333 10304 29077 55107 59007;
0156834980999992008032312004-17733-039250FM-12+000399999V0202701N000510450019N0020001N1+02571+02431101371ADDGF107991041051008001011001KA1240N+02191MA1999999101321MD1999999-0081REMSYN076AAXX  23124 83498 32595 72701 10257 20243 30132 40137 84510 333 20219 59008;
0137834980999992008032318004-17733-039250FM-12+000399999V0200501N003112200019N0020001N1+03011+02241101021ADDGF101991011011008001001001MA1999999100971MD1999999-0231REMSYN070AAXX  23184 83498 32595 10506 10301 20224 30097 40102 81100 333 59023;
0156834980999992008032412004-17733-039250FM-12+000399999V0200501N001510450019N0020001N1+02681+02401101361ADDGF106991021011008001041011KA1240N+02091MA1999999101311MD1999999-0011REMSYN076AAXX  24124 83498 32595 60503 10268 20240 30131 40136 82141 333 20209 59001;
0137834980999992008032418004-17733-039250FM-12+000399999V0200501N003111050019N0020001N1+03041+02231101081ADDGF105991031011008001001021MA1999999101031MD1999999+0061REMSYN070AAXX  24184 83498 32595 50506 10304 20223 30103 40108 83102 333 58006;
0168834980999992008032500004-17733-039250FM-12+000399999V0200501N000510450019N0020001N1+02461+02111101371ADDGF106991021011008001051001KA1240M+03191MA1999999101321MD1999999+0121REMSYN088AAXX  25004 83498 32595 60501 10246 20211 30132 40137 82150 333 10319 29075 55071 58012;
0156834980999992008032512004-17733-039250FM-12+000399999V0202301N001011050019N0020001N1+02711+02371101321ADDGF106991041021008001001021KA1240N+02151MA1999999101271MD1999999-0041REMSYN076AAXX  25124 83498 32595 62302 10271 20237 30127 40132 84202 333 20215 59004;
0137834980999992008032518004-17733-039250FM-12+000399999V0200901N003111050019N0020001N1+03051+02261101121ADDGF106991011011008001001021MA1999999101071MD1999999+0041REMSYN070AAXX  25184 83498 32595 60906 10305 20226 30107 40112 81102 333 58004;
0156834980999992008032612004-17733-039250FM-12+000399999V0202301N001010450019N0020001N1+02641+02311101401ADDGF106991041051008001031001KA1240N+02231MA1999999101351MD1999999+0081REMSYN076AAXX  26124 83498 32595 62302 10264 20231 30135 40140 84530 333 20223 58008;
0137834980999992008032618004-17733-039250FM-12+000399999V0200901N002610450019N0020001N1+02981+02301101231ADDGF105991021011008001031001MA1999999101181MD1999999+0111REMSYN070AAXX  26184 83498 32595 50905 10298 20230 30118 40123 82130 333 58011;
0213834980999992008032700004-17733-039250FM-12+000399999V0209999C000012200019N0020001N1+02481+02151101211ADDAA106002091AY191061AY211061GF103991031051008001001001KA1240M+03031MA1999999101161MD1999999-0151MW1211REMSYN100AAXX  27004 83498 21595 30000 10248 20215 30116 40121 72191 83500 333 10303 29078 55000 59015 60021;
0201834980999992008032712004-17733-039250FM-12+000399999V0201801N001510450019N0020001N1+02511+02401101191ADDAA124006191AY161061AY261061GF108991041051008001021999KA1240N+02291MA1999999101141MD1999999-0211MW1211REMSYN088AAXX  27124 83498 21595 81803 10251 20240 30114 40119 72166 8452/ 333 20229 59021 60064;
0137834980999992008032718004-17733-039250FM-12+000399999V0200901N003110450019N0020001N1+02801+02311100831ADDGF105991021021008001041001MA1999999100781MD1999999-0401REMSYN070AAXX  27184 83498 32595 50906 10280 20231 30078 40083 82240 333 59040;
0178834980999992008032800004-17733-039250FM-12+000399999V0209999C000012200019N0020001N1+02361+02221101021ADDGA1001+999999999GF100991001001999999001001KA1240M+02951MA1999999100971MD1999999-0191REMSYN082AAXX  28004 83498 32995 00000 10236 20222 30097 40102 333 10295 29088 55034 59019;
0156834980999992008032812004-17733-039250FM-12+000399999V0202701N003112200019N0020001N1+02781+02361101111ADDGF103991021011008001001011KA1240N+02151MA1999999101061MD1999999-0081REMSYN076AAXX  28124 83498 32595 32706 10278 20236 30106 40111 82101 333 20215 59008;
0137834980999992008032818004-17733-039250FM-12+000399999V0203601N003612200019N0020001N1+02861+02371100831ADDGF102991011011008001031001MA1999999100781MD1999999+0001REMSYN070AAXX  28184 83498 32595 23607 10286 20237 30078 40083 81130 333 58000;
0173834980999992008032912004-17733-039250FM-12+000399999V0203601N001510450019N0020001N1+02771+02321101051ADDAA124000591GF107991041051008001051001KA1240N+02381MA1999999101001MD1999999-0061REMSYN082AAXX  29124 83498 22595 73603 10277 20232 30100 40105 84550 333 20238 59006 69944;
0137834980999992008032918004-17733-039250FM-12+000399999V0203601N003610450019N0020001N1+03031+02311100701ADDGF106991021011008001041001MA1999999100651MD1999999-0131REMSYN070AAXX  29184 83498 32595 63607 10303 20231 30065 40070 82140 333 59013;
0180834980999992008033000004-17733-039250FM-12+000399999V0209999C000012200019N0020001N1+02611+02401100941ADDGF102991021041008001001001KA1240M+03191MA1999999100891MD1999999-0021MW1131REMSYN094AAXX  30004 83498 31595 20000 10261 20240 30089 40094 713// 82400 333 10319 29080 55073 59002;
0201834980999992008033012004-17733-039250FM-12+000399999V0202301N003610450019N0020001N1+02441+02111101231ADDAA124032091AY161061AY221061GF108991041061008001011999KA1240N+02061MA1999999101181MD1999999+0181MW1211REMSYN088AAXX  30124 83498 21595 82307 10244 20211 30118 40123 72162 8461/ 333 20206 58018 60324;
0182834980999992008033018004-17733-039250FM-12+000399999V0201801N004110450019N0020001N1+02761+02301100931ADDAA106002091AY161061AY261061GF108991031061008001021999MA1999999100881MD1999999+0231MW1211REMSYN082AAXX  30184 83498 21595 81808 10276 20230 30088 40093 72166 8362/ 333 58023 60021;
0168834980999992008033100004-17733-039250FM-12+000399999V0201801N003110075019N0020001N1+02661+02221101231ADDGF105991051051008001001001KA1240M+02831MA1999999101181MD1999999+0291REMSYN088AAXX  31004 83498 32595 51806 10266 20222 30118 40123 85500 333 10283 29078 55006 58029;
0201834980999992008033112004-17733-039250FM-12+000399999V0201801N001510450019N0020001N1+02521+02331101241ADDAA124020191AY121061AY211061GF107991041051008001011001KA1240N+02281MA1999999101191MD1999999+0011MW1031REMSYN088AAXX  31124 83498 21595 71803 10252 20233 30119 40124 70321 84510 333 20228 58001 60204;
0182834980999992008033118004-17733-039250FM-12+000399999V0201801N003112200019N0020001N1+02731+01891100951ADDAA106000591AY121061AY211061GF103991031021008001001001MA1999999100901MD1999999+0021MW1011REMSYN082AAXX  31184 83498 21595 31806 10273 20189 30090 40095 70121 83200 333 58002 69941;
0178834980999992008040100004-17733-039250FM-12+000399999V0201801N003110012019N0020001N1+02471+02251101191ADDGA1091+999999999GF109991091999999999999999KA1240M+02891MA1999999101141MD1999999-0041REMSYN082AAXX  01004 83498 32/95 91806 10247 20225 30114 40119 333 10289 29085 55043 59004;
0173834980999992008040112004-17733-039250FM-12+000399999V0201401N003612200019N0020001N1+02661+02091101261ADDAA124000591GF104991021011008001031001KA1240N+02071MA1999999101211MD1999999+0021REMSYN082AAXX  01124 83498 22595 41407 10266 20209 30121 40126 82130 333 20207 58002 69944;
0137834980999992008040118004-17733-039250FM-12+000399999V0201401N004112200019N0020001N1+02781+02231101051ADDGF102991021011008001001001MA1999999101001MD1999999+0101REMSYN070AAXX  01184 83498 32595 21408 10278 20223 30100 40105 82100 333 58010;
0168834980999992008040200004-17733-039250FM-12+000399999V0201401N002112200019N0020001N1+02561+02151101201ADDGF102991021011008001001001KA1240M+02891MA1999999101151MD1999999+0011REMSYN088AAXX  02004 83498 32595 21404 10256 20215 30115 40120 82100 333 10289 29075 55098 58001;
0156834980999992008040212004-17733-039250FM-12+000399999V0201801N001010450019N0020001N1+02691+02311101201ADDGF105991041021008001041001KA1240N+02041MA1999999101151MD1999999-0061REMSYN076AAXX  02124 83498 32595 51802 10269 20231 30115 40120 84240 333 20204 59006;
0137834980999992008040218004-17733-039250FM-12+000399999V0200901N001510450019N0020001N1+02811+02131100911ADDGF106991041021008001041001MA1999999100861MD1999999-0141REMSYN070AAXX  02184 83498 32595 60903 10281 20213 30086 40091 84240 333 59014;
0178834980999992008040300004-17733-039250FM-12+000399999V0200901N000512200019N0020001N1+02461+02191101061ADDGA1001+999999999GF100991001001999999001001KA1240M+02951MA1999999101011MD1999999-0141REMSYN082AAXX  03004 83498 32995 00901 10246 20219 30101 40106 333 10295 29079 55084 59014;
0156834980999992008040312004-17733-039250FM-12+000399999V0202301N001012200019N0020001N1+02621+02291101141ADDGF102991021011008001001011KA1240N+01991MA1999999101091MD1999999-0061REMSYN076AAXX  03124 83498 32595 22302 10262 20229 30109 40114 82101 333 20199 59006;
0137834980999992008040318004-17733-039250FM-12+000399999V0200901N002612200019N0020001N1+02841+02261100911ADDGF104991031011008001001011MA1999999100861MD1999999+0001REMSYN070AAXX  03184 83498 32595 40905 10284 20226 30086 40091 83101 333 58000;
0178834980999992008040400004-17733-039250FM-12+000399999V0209999C000012200019N0020001N1+02421+02071100951ADDGA1001+999999999GF100991001001999999001001KA1240M+03021MA1999999100901MD1999999-0111REMSYN082AAXX  04004 83498 32995 00000 10242 20207 30090 40095 333 10302 29079 55087 59011;
0156834980999992008040412004-17733-039250FM-12+000399999V0203601N002612200019N0020001N1+02851+02441101241ADDGF104991031011008001001011KA1240N+02141MA1999999101191MD1999999+0101REMSYN076AAXX  04124 83498 32595 43605 10285 20244 30119 40124 83101 333 20214 58010;
0137834980999992008040418004-17733-039250FM-12+000399999V0203601N003612200019N0020001N1+03051+02411100711ADDGF103991021011008001001011MA1999999100661MD1999999-0201REMSYN070AAXX  04184 83498 32595 33607 10305 20241 30066 40071 82101 333 59020;
0178834980999992008040500004-17733-039250FM-12+000399999V0200501N000512200019N0020001N1+02571+02401100971ADDGA1001+999999999GF100991001001999999001001KA1240M+03151MA1999999100921MD1999999+0021REMSYN082AAXX  05004 83498 32995 00501 10257 20240 30092 40097 333 10315 29083 55093 58002;
0156834980999992008040512004-17733-039250FM-12+000399999V0203201N002110450019N0020001N1+02861+02521101091ADDGF106991041051008001031001KA1240N+02321MA1999999101041MD1999999+0051REMSYN076AAXX  05124 83498 32595 63204 10286 20252 30104 40109 84530 333 20232 58005;
0137834980999992008040518004-17733-039250FM-12+000399999V0203601N003110450019N0020001N1+03061+02501100801ADDGF105991021011008001041001MA1999999100751MD1999999+0091REMSYN070AAXX  05184 83498 32595 53606 10306 20250 30075 40080 82140 333 58009;
0168834980999992008040600004-17733-039250FM-12+000399999V0200501N001510450019N0020001N1+02641+02311101111ADDGF106991031051008001011001KA1240M+03171MA1999999101061MD1999999+0141REMSYN088AAXX  06004 83498 32595 60503 10264 20231 30106 40111 83510 333 10317 29080 55079 58014;
0178834980999992008040700004-17733-039250FM-12+000399999V0209999C000012200019N0020001N1+02511+02321101131ADDGA1001+999999999GF100991001001999999001001KA1240M+03051MA1999999101081MD1999999+0021REMSYN082AAXX  07004 83498 32995 00000 10251 20232 30108 40113 333 10305 29086 55020 58002;
0201834980999992008040712004-17733-039250FM-12+000399999V0202301N001512200019N0020001N1+02721+02341101291ADDAA124000391AY161061AY221061GF104991031011008001001011KA1240N+02221MA1999999101241MD1999999+0051MW1211REMSYN088AAXX  07124 83498 21595 42303 10272 20234 30124 40129 72162 83101 333 20222 58005 69934;
0137834980999992008040718004-17733-039250FM-12+000399999V0200501N002610450019N0020001N1+02781+02361101051ADDGF105991021011008001031001MA1999999101001MD1999999+0081REMSYN070AAXX  07184 83498 32595 50505 10278 20236 30100 40105 82130 333 58008;
0168834980999992008040800004-17733-039250FM-12+000399999V0200901N000512200019N0020001N1+02521+02151101171ADDGF102991021011008001001001KA1240M+03161MA1999999101121MD1999999+0041REMSYN088AAXX  08004 83498 32595 20901 10252 20215 30112 40117 82100 333 10316 29080 55071 58004;
0156834980999992008040812004-17733-039250FM-12+000399999V0200501N001512200019N0020001N1+02851+02421101441ADDGF104991041021008001001001KA1240N+02281MA1999999101391MD1999999+0151REMSYN076AAXX  08124 83498 32595 40503 10285 20242 30139 40144 84200 333 20228 58015;
0137834980999992008040818004-17733-039250FM-12+000399999V0203601N004112200019N0020001N1+03051+02431101131ADDGF102991021011008001001001MA1999999101081MD1999999+0081REMSYN070AAXX  08184 83498 32595 23608 10305 20243 30108 40113 82100 333 58008;
0178834980999992008040900004-17733-039250FM-12+000399999V0200501N001012200019N0020001N1+02531+02361101371ADDGA1001+999999999GF100991001001999999001001KA1240M+03171MA1999999101321MD1999999+0201REMSYN082AAXX  09004 83498 32995 00502 10253 20236 30132 40137 333 10317 29083 55099 58020;
0156834980999992008040912004-17733-039250FM-12+000399999V0203601N001010450019N0020001N1+02781+02401101401ADDGF106991041021008001031001KA1240N+02181MA1999999101351MD1999999-0041REMSYN076AAXX  09124 83498 32595 63602 10278 20240 30135 40140 84230 333 20218 59004;
0137834980999992008040918004-17733-039250FM-12+000399999V0200501N002612200019N0020001N1+03041+02411101031ADDGF104991021011008001031001MA1999999100981MD1999999-0101REMSYN070AAXX  09184 83498 32595 40505 10304 20241 30098 40103 82130 333 59010;
0178834980999992008041000004-17733-039250FM-12+000399999V0209999C000012200019N0020001N1+02521+02151101351ADDGA1001+999999999GF100991001001999999001001KA1240M+03151MA1999999101301MD1999999-0021REMSYN082AAXX  10004 83498 32995 00000 10252 20215 30130 40135 333 10315 29077 55085 59002;
0156834980999992008041012004-17733-039250FM-12+000399999V0209999C000010450019N0020001N1+02781+02421101241ADDGF106991041021008001041001KA1240N+02221MA1999999101191MD1999999-0161REMSYN076AAXX  10124 83498 32595 60000 10278 20242 30119 40124 84240 333 20222 59016;
0137834980999992008041018004-17733-039250FM-12+000399999V0200901N003112200019N0020001N1+02951+02431100941ADDGF102991021011008001001001MA1999999100891MD1999999-0141REMSYN070AAXX  10184 83498 32595 20906 10295 20243 30089 40094 82100 333 59014;
0178834980999992008041100004-17733-039250FM-12+000399999V0209999C000012200019N0020001N1+02441+02301100991ADDGA1001+999999999GF100991001001999999001001KA1240M+03051MA1999999100941MD1999999-0361REMSYN082AAXX  11004 83498 32995 00000 10244 20230 30094 40099 333 10305 29085 55101 59036;
0156834980999992008041112004-17733-039250FM-12+000399999V0202701N003612200019N0020001N1+02741+02361101031ADDGF106991041021008001001011KA1240N+02161MA1999999100981MD1999999+0041REMSYN076AAXX  11124 83498 32595 62707 10274 20236 30098 40103 84201 333 20216 58004;
0137834980999992008041118004-17733-039250FM-12+000399999V0203601N004110450019N0020001N1+03001+02371100991ADDGF105991021011008001031001MA1999999100941MD1999999+0101REMSYN070AAXX  11184 83498 32595 53608 10300 20237 30094 40099 82130 333 58010;
0168834980999992008041200004-17733-039250FM-12+000399999V0209999C000012200019N0020001N1+02541+02171100851ADDGF103991021011008001001011KA1240M+03191MA1999999100801MD1999999-0141REMSYN088AAXX  12004 83498 32595 30000 10254 20217 30080 40085 82101 333 10319 29077 55068 59014;
0156834980999992008041212004-17733-039250FM-12+000399999V0203601N003112200019N0020001N1+02901+02341100921ADDGF104991011011008001001021KA1240N+02351MA1999999100871MD1999999-0111REMSYN076AAXX  12124 83498 32595 43606 10290 20234 30087 40092 81102 333 20235 59011;
0137834980999992008041218004-17733-039250FM-12+000399999V0200501N003612200019N0020001N1+03111+02411100611ADDGF101991011011008001001001MA1999999100561MD1999999-0381REMSYN070AAXX  12184 83498 32595 10507 10311 20241 30056 40061 81100 333 59038;
0178834980999992008041300004-17733-039250FM-12+000399999V0209999C000012200019N0020001N1+02571+02421100871ADDGA1001+999999999GF100991001001999999001001KA1240M+03251MA1999999100821MD1999999+0021REMSYN082AAXX  13004 83498 32995 00000 10257 20242 30082 40087 333 10325 29080 55095 58002;
0156834980999992008041312004-17733-039250FM-12+000399999V0203601N003612200019N0020001N1+02821+02441101091ADDGF104991041021008001001001KA1240N+02201MA1999999101041MD1999999+0171REMSYN076AAXX  13124 83498 32595 43607 10282 20244 30104 40109 84200 333 20220 58017;
0156834980999992008041318004-17733-039250FM-12+000399999V0200501N004112200019N0020001N1+03101+02411100801ADDGF103991999011008001001001MA1999999100751MD1999999+0191REMSYN070AAXX  13184 83498 32595 30508 10310 20241 30075 40080 82100 333 58019;EQDQ01+000022SCOTLC
0168834980999992008041400004-17733-039250FM-12+000399999V0200501N001512200019N0020001N1+02541+02171100991ADDGF101991011011008001001001KA1240M+03171MA1999999100941MD1999999+0121REMSYN088AAXX  14004 83498 32595 10503 10254 20217 30094 40099 81100 333 10317 29077 55100 58012;
0156834980999992008041412004-17733-039250FM-12+000399999V0203601N002612200019N0020001N1+02951+02431101121ADDGF104991021011008001001011KA1240N+02201MA1999999101071MD1999999+0031REMSYN076AAXX  14124 83498 32595 43605 10295 20243 30107 40112 82101 333 20220 58003;
0137834980999992008041418004-17733-039250FM-12+000399999V0200501N003612200019N0020001N1+03061+02431100701ADDGF103991011011008001001011MA1999999100651MD1999999-0101REMSYN070AAXX  14184 83498 32595 30507 10306 20243 30065 40070 81101 333 59010;
0187834980999992008041500004-17733-039250FM-12+000399999V0200501N001512200019N0020001N1+02611+02441100941ADDGF102991001001999999001011KA1240M+03201MA1999999100891MD1999999-0051REMSYN088AAXX  15004 83498 32595 20503 10261 20244 30089 40094 80001 333 10320 29081 55088 59005;EQDQ01+008002SCOLCB
0156834980999992008041512004-17733-039250FM-12+000399999V0203601N003110450019N0020001N1+02801+02421101161ADDGF108991041021008001031011KA1240N+02301MA1999999101111MD1999999+0041REMSYN076AAXX  15124 83498 32595 83606 10280 20242 30111 40116 84231 333 20230 58004;
0137834980999992008041518004-17733-039250FM-12+000399999V0200501N004110450019N0020001N1+03081+02401100791ADDGF105991021011008001031001MA1999999100741MD1999999+0091REMSYN070AAXX  15184 83498 32595 50508 10308 20240 30074 40079 82130 333 58009;
0168834980999992008041600004-17733-039250FM-12+000399999V0200901N001512200019N0020001N1+02621+02251101191ADDGF103991031011008001001001KA1240M+03251MA1999999101141MD1999999+0251REMSYN088AAXX  16004 83498 32595 30903 10262 20225 30114 40119 83100 333 10325 29077 55017 58025;
0156834980999992008041612004-17733-039250FM-12+000399999V0201801N000510450019N0020001N1+02781+02401101501ADDGF106991041061008001011001KA1240N+02261MA1999999101451MD1999999+0341REMSYN076AAXX  16124 83498 32595 61801 10278 20240 30145 40150 84610 333 20226 58034;
0182834980999992008041618004-17733-039250FM-12+000399999V0200901N002612200019N0020001N1+02981+02371101121ADDAA106000891AY161061AY211061GF104991031011008001031001MA1999999101071MD1999999+0331MW1211REMSYN082AAXX  16184 83498 21595 40905 10298 20237 30107 40112 72161 83130 333 58033 69971;
0173834980999992008041712004-17733-039250FM-12+000399999V0209999C000010450019N0020001N1+02631+02411101641ADDAA124000891GF106991041051008001041001KA1240N+02141MA1999999101591MD1999999+0141REMSYN082AAXX  17124 83498 22595 60000 10263 20241 30159 40164 84540 333 20214 58014 69974;
0137834980999992008041718004-17733-039250FM-12+000399999V0200901N002612200019N0020001N1+03011+02321101311ADDGF101991011011008001001001MA1999999101261MD1999999+0191REMSYN070AAXX  17184 83498 32595 10905 10301 20232 30126 40131 81100 333 58019;
0178834980999992008041800004-17733-039250FM-12+000399999V0209999C000012200019N0020001N1+02501+02341101491ADDGA1001+999999999GF100991001001999999001001KA1240M+03251MA1999999101441MD1999999-0071REMSYN082AAXX  18004 83498 32995 00000 10250 20234 30144 40149 333 10325 29084 55087 59007;
0156834980999992008041812004-17733-039250FM-12+000399999V0202301N000512200019N0020001N1+02851+02401101451ADDGF104991031021008001001011KA1240N+02151MA1999999101401MD1999999-0191REMSYN076AAXX  18124 83498 32595 42301 10285 20240 30140 40145 83201 333 20215 59019;
0137834980999992008041818004-17733-039250FM-12+000399999V0200901N003112200019N0020001N1+03031+02391101091ADDGF101991011011008001001001MA1999999101041MD1999999-0221REMSYN070AAXX  18184 83498 32595 10906 10303 20239 30104 40109 81100 333 59022;
0178834980999992008041900004-17733-039250FM-12+000399999V0209999C000012200019N0020001N1+02421+02281101281ADDGA1001+999999999GF100991001001999999001001KA1240M+03111MA1999999101231MD1999999-0211REMSYN082AAXX  19004 83498 32995 00000 10242 20228 30123 40128 333 10311 29080 55091 59021;
0201834980999992008041912004-17733-039250FM-12+000399999V0201801N003610450019N0020001N1+02561+02271101451ADDAA124003091AY161061AY221061GF106991041051008001011001KA1240N+02201MA1999999101401MD1999999+0001MW1211REMSYN088AAXX  19124 83498 21595 61807 10256 20227 30140 40145 72162 84510 333 20220 58000 60034;
0182834980999992008041918004-17733-039250FM-12+000399999V0201801N004610450019N0020001N1+02841+02291101151ADDAA106000891AY161061AY261061GF105991031011008001031001MA1999999101101MD1999999+0061MW1211REMSYN082AAXX  19184 83498 21595 51809 10284 20229 30110 40115 72166 83130 333 58006 69981;
0137834980999992008042018004-17733-039250FM-12+000399999V0200501N003112200019N0020001N1+02971+02231101131ADDGF101991011011008001001001MA1999999101081MD1999999-0021REMSYN070AAXX  20184 83498 32595 10506 10297 20223 30108 40113 81100 333 59002;
0178834980999992008042100004-17733-039250FM-12+000399999V0209999C000012200019N0020001N1+02301+02131101381ADDGA1001+999999999GF100991001001999999001001KA1240M+03091MA1999999101331MD1999999+0021REMSYN082AAXX  21004 83498 32995 00000 10230 20213 30133 40138 333 10309 29080 55083 58002;
0156834980999992008042112004-17733-039250FM-12+000399999V0203201N001510450019N0020001N1+02641+02311101511ADDGF106991031011008001031001KA1240N+02071MA1999999101461MD1999999+0131REMSYN076AAXX  21124 83498 32595 63203 10264 20231 30146 40151 83130 333 20207 58013;
0137834980999992008042118004-17733-039250FM-12+000399999V0200501N004110450019N0020001N1+02901+02301101291ADDGF105991021011008001031001MA1999999101241MD1999999+0161REMSYN070AAXX  21184 83498 32595 50508 10290 20230 30124 40129 82130 333 58016;
0178834980999992008042200004-17733-039250FM-12+000399999V0209999C000012200019N0020001N1+02341+02001101401ADDGA1001+999999999GF100991001001999999001001KA1240M+03161MA1999999101351MD1999999+0021REMSYN082AAXX  22004 83498 32995 00000 10234 20200 30135 40140 333 10316 29078 55084 58002;
0156834980999992008042212004-17733-039250FM-12+000399999V0201801N001012200019N0020001N1+02811+02291101331ADDGF104991031021008001001011KA1240N+02201MA1999999101281MD1999999-0161REMSYN076AAXX  22124 83498 32595 41802 10281 20229 30128 40133 83201 333 20220 59016;
0137834980999992008042218004-17733-039250FM-12+000399999V0200501N002612200019N0020001N1+03011+02221101061ADDGF103991021011008001001011MA1999999101011MD1999999-0231REMSYN070AAXX  22184 83498 32595 30505 10301 20222 30101 40106 82101 333 59023;
0168834980999992008042300004-17733-039250FM-12+000399999V0209999C000012200019N0020001N1+02531+02251101211ADDGF102991011011008001001011KA1240M+03131MA1999999101161MD1999999-0191REMSYN088AAXX  23004 83498 32595 20000 10253 20225 30116 40121 81101 333 10313 29077 55094 59019;
0156834980999992008042312004-17733-039250FM-12+000399999V0203201N000512200019N0020001N1+02781+02301101281ADDGF104991021011008001001011KA1240N+02021MA1999999101231MD1999999-0051REMSYN076AAXX  23124 83498 32595 43201 10278 20230 30123 40128 82101 333 20202 59005;
0137834980999992008042318004-17733-039250FM-12+000399999V0200501N002612200019N0020001N1+03001+02241101061ADDGF103991031011008001031001MA1999999101011MD1999999+0001REMSYN070AAXX  23184 83498 32595 30505 10300 20224 30101 40106 83130 333 58000;
0168834980999992008042400004-17733-039250FM-12+000399999V0209999C000012200019N0020001N1+02511+02381100961ADDGF102991021001008001031001KA1240M+03231MA1999999100911MD1999999-0251REMSYN088AAXX  24004 83498 32595 20000 10251 20238 30091 40096 82030 333 10323 29081 55085 59025;
0156834980999992008042412004-17733-039250FM-12+000399999V0202301N000512200019N0020001N1+02811+02401101081ADDGF103991011011008001041001KA1240N+02141MA1999999101031MD1999999-0201REMSYN076AAXX  24124 83498 32595 32301 10281 20240 30103 40108 81140 333 20214 59020;
0137834980999992008042418004-17733-039250FM-12+000399999V0200501N002610450019N0020001N1+02811+02421100731ADDGF107991041051008001041001MA1999999100681MD1999999-0331REMSYN070AAXX  24184 83498 32595 70505 10281 20242 30068 40073 84540 333 59033;
0168834980999992008042500004-17733-039250FM-12+000399999V0200501N000510075019N0020001N1+02651+02311100951ADDGF108991051051008001021999KA1240M+03071MA1999999100901MD1999999-0011REMSYN088AAXX  25004 83498 32595 80501 10265 20231 30090 40095 8552/ 333 10307 29086 55046 59001;
0201834980999992008042512004-17733-039250FM-12+000399999V0203601N004110450019N0020001N1+02941+02381101061ADDAA124003091AY161061AY221061GF106991021011008001031011KA1240N+02341MA1999999101011MD1999999-0021MW1211REMSYN088AAXX  25124 83498 21595 63608 10294 20238 30101 40106 72162 82131 333 20234 59002 60034;
0137834980999992008042518004-17733-039250FM-12+000399999V0203601N004612200019N0020001N1+02981+02441100731ADDGF105991031011008001001011MA1999999100681MD1999999+0001REMSYN070AAXX  25184 83498 32595 53609 10298 20244 30068 40073 83101 333 58000;
0168834980999992008042600004-17733-039250FM-12+000399999V0200501N001512200019N0020001N1+02621+02251100931ADDGF101991011011008001001001KA1240M+03251MA1999999100881MD1999999-0021REMSYN088AAXX  26004 83498 32595 10503 10262 20225 30088 40093 81100 333 10325 29076 55078 59002;
0156834980999992008042612004-17733-039250FM-12+000399999V0203601N003612200019N0020001N1+02911+02391101001ADDGF103991031021008001001001KA1240N+02311MA1999999100951MD1999999-0061REMSYN076AAXX  26124 83498 32595 33607 10291 20239 30095 40100 83200 333 20231 59006;
0137834980999992008042618004-17733-039250FM-12+000399999V0200501N003112200019N0020001N1+02991+02371100741ADDGF101991011011008001001001MA1999999100691MD1999999+0011REMSYN070AAXX  26184 83498 32595 10506 10299 20237 30069 40074 81100 333 58001;
0178834980999992008042700004-17733-039250FM-12+000399999V0200501N001012200019N0020001N1+02591+02331100991ADDGA1001+999999999GF100991001001999999001001KA1240M+03181MA1999999100941MD1999999+0061REMSYN082AAXX  27004 83498 32995 00502 10259 20233 30094 40099 333 10318 29079 55096 58006;
0156834980999992008042712004-17733-039250FM-12+000399999V0203601N004110450019N0020001N1+02921+02431101241ADDGF106991041021008001041001KA1240N+02241MA1999999101191MD1999999+0241REMSYN076AAXX  27124 83498 32595 63608 10292 20243 30119 40124 84240 333 20224 58024;
0137834980999992008042718004-17733-039250FM-12+000399999V0200501N004610450019N0020001N1+03021+02461100941ADDGF105991031011008001041001MA1999999100891MD1999999+0201REMSYN070AAXX  27184 83498 32595 50509 10302 20246 30089 40094 83140 333 58020;
0168834980999992008042800004-17733-039250FM-12+000399999V0200501N002110450019N0020001N1+02621+02181101071ADDGF106991021021008001041001KA1240M+03171MA1999999101021MD1999999+0081REMSYN088AAXX  28004 83498 32595 60504 10262 20218 30102 40107 82240 333 10317 29075 55080 58008;
0156834980999992008042812004-17733-039250FM-12+000399999V0203601N003112200019N0020001N1+02941+02451101221ADDGF103991031011008001001001KA1240N+02221MA1999999101171MD1999999-0021REMSYN076AAXX  28124 83498 32595 33606 10294 20245 30117 40122 83100 333 20222 59002;
0137834980999992008042818004-17733-039250FM-12+000399999V0203601N003112200019N0020001N1+03031+02411100891ADDGF102991021011008001001001MA1999999100841MD1999999-0051REMSYN070AAXX  28184 83498 32595 23606 10303 20241 30084 40089 82100 333 59005;
0178834980999992008042900004-17733-039250FM-12+000399999V0203601N002112200019N0020001N1+02631+02331101141ADDGA1001+999999999GF100991001001999999001001KA1240M+03241MA1999999101091MD1999999+0071REMSYN082AAXX  29004 83498 32995 03604 10263 20233 30109 40114 333 10324 29078 55097 58007;
0156834980999992008042912004-17733-039250FM-12+000399999V0203601N004110450019N0020001N1+02781+02361101251ADDGF106991041021008001041001KA1240N+02101MA1999999101201MD1999999+0031REMSYN076AAXX  29124 83498 32595 63608 10278 20236 30120 40125 84240 333 20210 58003;
0137834980999992008042918004-17733-039250FM-12+000399999V0200501N004612200019N0020001N1+03061+02381100881ADDGF104991021011008001031001MA1999999100831MD1999999-0011REMSYN070AAXX  29184 83498 32595 40509 10306 20238 30083 40088 82130 333 59001;
0178834980999992008043000004-17733-039250FM-12+000399999V0209999C000012200019N0020001N1+02461+02091101061ADDGA1001+999999999GF100991001001999999001001KA1240M+03141MA1999999101011MD1999999+0081REMSYN082AAXX  30004 83498 32995 00000 10246 20209 30101 40106 333 10314 29076 55093 58008;
0156834980999992008043012004-17733-039250FM-12+000399999V0203601N002111050019N0020001N1+02831+02361101211ADDGF106991031021008001001021KA1240N+02071MA1999999101161MD1999999-0041REMSYN076AAXX  30124 83498 32595 63604 10283 20236 30116 40121 83202 333 20207 59004;
0137834980999992008043018004-17733-039250FM-12+000399999V0200501N002612200019N0020001N1+03051+02331100781ADDGF101991011011008001001001MA1999999100731MD1999999-0101REMSYN070AAXX  30184 83498 32595 10505 10305 20233 30073 40078 81100 333 59010;
0178834980999992008050100004-17733-039250FM-12+000399999V0200901N000512200019N0020001N1+02551+02381101151ADDGA1001+999999999GF100991001001999999001001KA1240M+03171MA1999999101101MD1999999+0091REMSYN082AAXX  01004 83498 32995 00901 10255 20238 30110 40115 333 10317 29081 55083 58009;
0201834980999992008050112004-17733-039250FM-12+000399999V0201801N002610450019N0020001N1+02441+02111101461ADDAA124007191AY161061AY221061GF108991041071008001021999KA1240N+02191MA1999999101411MD1999999+0251MW1211REMSYN088AAXX  01124 83498 21595 81805 10244 20211 30141 40146 72162 8472/ 333 20219 58025 60074;
0137834980999992008050118004-17733-039250FM-12+000399999V0201401N004610075019N0020001N1+02381+02011101341ADDGF108991051061008001021999MA1999999101291MD1999999+0561REMSYN070AAXX  01184 83498 32595 81409 10238 20201 30129 40134 8562/ 333 58056;
0213834980999992008050200004-17733-039250FM-12+000399999V0201801N005110075019N0020001N1+02501+02131101521ADDAA106001091AY161061AY261061GF108991051071008001021999KA1240M+02631MA1999999101471MD1999999+0371MW1211REMSYN100AAXX  02004 83498 21595 81810 10250 20213 30147 40152 72166 8572/ 333 10263 29080 55000 58037 60011;
0201834980999992008050212004-17733-039250FM-12+000399999V0201801N001510450019N0020001N1+02281+01961101471ADDAA124004191AY161061AY261061GF108991031071008001021999KA1240N+02041MA1999999101421MD1999999+0011MW1621REMSYN088AAXX  02124 83498 21595 81803 10228 20196 30142 40147 76266 8372/ 333 20204 58001 60044;
0182834980999992008050218004-17733-039250FM-12+000399999V0201401N003610450019N0020001N1+02501+02071101241ADDAA106002091AY161061AY261061GF106991031061008001011001MA1999999101191MD1999999+0101MW1211REMSYN082AAXX  02184 83498 21595 61407 10250 20207 30119 40124 72166 83610 333 58010 60021;
0213834980999992008050300004-17733-039250FM-12+000399999V0201801N003110075019N0020001N1+02321+01961101411ADDAA106004191AY161061AY261061GF108991051071008001011999KA1240M+02611MA1999999101361MD1999999-0111MW1621REMSYN100AAXX  03004 83498 21595 81806 10232 20196 30136 40141 76266 8571/ 333 10261 29081 55017 59011 60041;
0173834980999992008050312004-17733-039250FM-12+000399999V0202301N001012200019N0020001N1+02611+02311101371ADDAA124005191GF101991011011008001001001KA1240N+02071MA1999999101321MD1999999-0101REMSYN082AAXX  03124 83498 22595 12302 10261 20231 30132 40137 81100 333 20207 59010 60054;
0137834980999992008050318004-17733-039250FM-12+000399999V0200901N003112200019N0020001N1+02791+02361100921ADDGF101991011011008001001001MA1999999100871MD1999999-0321REMSYN070AAXX  03184 83498 32595 10906 10279 20236 30087 40092 81100 333 59032;
0178834980999992008050400004-17733-039250FM-12+000399999V0209999C000012200019N0020001N1+02391+02221101221ADDGA1001+999999999GF100991001001999999001001KA1240M+02891MA1999999101171MD1999999-0191REMSYN082AAXX  04004 83498 32995 00000 10239 20222 30117 40122 333 10289 29086 55088 59019;
0156834980999992008050412004-17733-039250FM-12+000399999V0203201N002112200019N0020001N1+02891+02331101381ADDGF102991021011008001001001KA1240N+02091MA1999999101331MD1999999+0011REMSYN076AAXX  04124 83498 32595 23204 10289 20233 30133 40138 82100 333 20209 58001;
0137834980999992008050418004-17733-039250FM-12+000399999V0200501N002612200019N0020001N1+03031+02341101101ADDGF101991011011008001001001MA1999999101051MD1999999+0181REMSYN070AAXX  04184 83498 32595 10505 10303 20234 30105 40110 81100 333 58018;
0156834980999992008050512004-17733-039250FM-12+000399999V0202701N001512200019N0020001N1+02721+02281101431ADDGF103991031011008001001001KA1240N+02151MA1999999101381MD1999999+0051REMSYN076AAXX  05124 83498 32595 32703 10272 20228 30138 40143 83100 333 20215 58005;
0137834980999992008050518004-17733-039250FM-12+000399999V0203601N003110450019N0020001N1+02981+02281101081ADDGF105991021011008001031001MA1999999101031MD1999999+0021REMSYN070AAXX  05184 83498 32595 53606 10298 20228 30103 40108 82130 333 58002;
0178834980999992008050600004-17733-039250FM-12+000399999V0209999C000012200019N0020001N1+02461+02031101101ADDGA1001+999999999GF100991001001999999001001KA1240M+03151MA1999999101051MD1999999-0241REMSYN082AAXX  06004 83498 32995 00000 10246 20203 30105 40110 333 10315 29073 55089 59024;
0156834980999992008050612004-17733-039250FM-12+000399999V0203601N003112200019N0020001N1+02901+02321101021ADDGF102991011011008001001011KA1240N+02221MA1999999100971MD1999999-0411REMSYN076AAXX  06124 83498 32595 23606 10290 20232 30097 40102 81101 333 20222 59041;
0137834980999992008050618004-17733-039250FM-12+000399999V0200501N001512200019N0020001N1+03171+02421100681ADDGF102991021011008001001001MA1999999100631MD1999999-0401REMSYN070AAXX  06184 83498 32595 20503 10317 20242 30063 40068 82100 333 59040;
0213834980999992008050700004-17733-039250FM-12+000399999V0201801N004610075019N0020001N1+02651+02331101081ADDAA106000591AY121061AY211061GF108991051051008001021999KA1240M+03451MA1999999101031MD1999999-0021MW1031REMSYN100AAXX  07004 83498 21595 81809 10265 20233 30103 40108 70321 8552/ 333 10345 29076 55080 59002 69951;
0201834980999992008050712004-17733-039250FM-12+000399999V0200901N001510450019N0020001N1+02701+02131101431ADDAA124002091AY161061AY261061GF107991041051008001011001KA1240N+02301MA1999999101381MD1999999-0411MW1211REMSYN088AAXX  07124 83498 21595 70903 10270 20213 30138 40143 72166 84510 333 20230 59041 60024;
0137834980999992008050718004-17733-039250FM-12+000399999V0201401N003610450019N0020001N1+03161+02341101101ADDGF105991031051008001031001MA1999999101051MD1999999+0421REMSYN070AAXX  07184 83498 32595 51407 10316 20234 30105 40110 83530 333 58042;
0168834980999992008050800004-17733-039250FM-12+000399999V0200901N001512200019N0020001N1+02541+02041101271ADDGF104991041021008001001001KA1240M+03191MA1999999101221MD1999999+0191REMSYN088AAXX  08004 83498 32595 40903 10254 20204 30122 40127 84200 333 10319 29070 55013 58019;
0156834980999992008050812004-17733-039250FM-12+000399999V0201801N005110450019N0020001N1+02611+02141101471ADDGF105991041051008001041001KA1240N+02021MA1999999101421MD1999999+0041REMSYN076AAXX  08124 83498 32595 51810 10261 20214 30142 40147 84540 333 20202 58004;
0137834980999992008050818004-17733-039250FM-12+000399999V0201401N003112200019N0020001N1+02601+02141101161ADDGF102991021011008001001001MA1999999101111MD1999999+0061REMSYN070AAXX  08184 83498 32595 21406 10260 20214 30111 40116 82100 333 58006;
0178834980999992008050900004-17733-039250FM-12+000399999V0201401N001512200019N0020001N1+02441+01921101291ADDGA1001+999999999GF100991001001999999001001KA1240M+02711MA1999999101241MD1999999+0021REMSYN082AAXX  09004 83498 32995 01403 10244 20192 30124 40129 333 10271 29076 55046 58002;
0137834980999992008050918004-17733-039250FM-12+000399999V0201401N002612200019N0020001N1+02561+02151101081ADDGF102991021011008001001001MA1999999101031MD1999999-0081REMSYN070AAXX  09184 83498 32595 21405 10256 20215 30103 40108 82100 333 59008;
0192834980999992008051012004-17733-039250FM-12+000399999V0202301N003110450019N0020001N1+02201+02081101541ADDAA124000091GF108991031071008001021999KA1240N+01981MA1999999101491MD1999999+0131REMSYN082AAXX  10124 83498 22595 82306 10220 20208 30149 40154 8372/ 333 20198 58013 69924;EQDQ01  00002PRCP24
0137834980999992008051018004-17733-039250FM-12+000399999V0201801N004610450019N0020001N1+02551+02091101481ADDGF105991031021008001041001MA1999999101431MD1999999+0401REMSYN070AAXX  10184 83498 32595 51809 10255 20209 30143 40148 83240 333 58040;
0168834980999992008051100004-17733-039250FM-12+000399999V0201801N003112200019N0020001N1+02461+02051101701ADDGF103991031011008001001001KA1240M+02701MA1999999101651MD1999999+0321REMSYN088AAXX  11004 83498 32595 31806 10246 20205 30165 40170 83100 333 10270 29081 55028 58032;
0156834980999992008051112004-17733-039250FM-12+000399999V0201801N003612200019N0020001N1+02281+01921101841ADDGF104991021011008001041001KA1240N+01841MA1999999101791MD1999999+0301REMSYN076AAXX  11124 83498 32595 41807 10228 20192 30179 40184 82140 333 20184 58030;
0137834980999992008051118004-17733-039250FM-12+000399999V0201801N004110450019N0020001N1+02561+02151101681ADDGF105991021011008001031001MA1999999101631MD1999999+0201REMSYN070AAXX  11184 83498 32595 51808 10256 20215 30163 40168 82130 333 58020;
0168834980999992008051200004-17733-039250FM-12+000399999V0201801N004610450019N0020001N1+02401+01891101811ADDGF106991031051008001011001KA1240M+02651MA1999999101761MD1999999+0111REMSYN088AAXX  12004 83498 32595 61809 10240 20189 30176 40181 83510 333 10265 29076 55043 58011;
0201834980999992008051212004-17733-039250FM-12+000399999V0201801N001510450019N0020001N1+02261+01901101971ADDAA124001091AY161061AY261061GF107991031071008001011001KA1240N+02021MA1999999101921MD1999999+0131MW1211REMSYN088AAXX  12124 83498 21595 71803 10226 20190 30192 40197 72166 83710 333 20202 58013 69994;
0182834980999992008051218004-17733-039250FM-12+000399999V0201401N003112200019N0020001N1+02561+01901101761ADDAA106000021AY121061AY211061GF103991021021008001041001MA1999999101711MD1999999+0081MW1031REMSYN082AAXX  12184 83498 21595 31406 10256 20190 30171 40176 70321 82240 333 58008 69921;
0168834980999992008051300004-17733-039250FM-12+000399999V0201401N003112200019N0020001N1+02421+01721101931ADDGF103991031031008001001001KA1240M+02591MA1999999101881MD1999999+0121REMSYN088AAXX  13004 83498 32595 31406 10242 20172 30188 40193 83300 333 10259 29070 55037 58012;
0201834980999992008051312004-17733-039250FM-12+000399999V0201801N002110450019N0020001N1+02001+01641102001ADDAA124000591AY161061AY221061GF108991031071008001021999KA1240N+01591MA1999999101951MD1999999+0031MW1611REMSYN088AAXX  13124 83498 21595 81804 10200 20164 30195 40200 76162 8372/ 333 20159 58003 69954;
0182834980999992008051318004-17733-039250FM-12+000399999V0201401N003110450019N0020001N1+02261+01901101751ADDAA106003091AY161061AY261061GF108991031061008001011999MA1999999101701MD1999999-0011MW1621REMSYN082AAXX  13184 83498 21595 81406 10226 20190 30170 40175 76266 8361/ 333 59001 60031;
0213834980999992008051400004-17733-039250FM-12+000399999V0201401N000510450019N0020001N1+02061+01701102091ADDAA106025991AY161061AY261061GF108991041071008001021999KA1240M+02611MA1999999102041MD1999999+0161MW1631REMSYN100AAXX  14004 83498 21595 81401 10206 20170 30204 40209 76366 8472/ 333 10261 29080 55019 58016 60261;
0201834980999992008051412004-17733-039250FM-12+000399999V0202301N001010450019N0020001N1+02121+02071101891ADDAA124034091AY161061AY261061GF108991031071008001021999KA1240N+01921MA1999999101841MD1999999-0111MW1611REMSYN088AAXX  14124 83498 21595 82302 10212 20207 30184 40189 76166 8372/ 333 20192 59011 60344;
0182834980999992008051418004-17733-039250FM-12+000399999V0209999C000010450019N0020001N1+02201+02121101591ADDAA106004191AY161061AY261061GF108991031071008001021999MA1999999101541MD1999999-0161MW1211REMSYN082AAXX  14184 83498 21595 80000 10220 20212 30154 40159 72166 8372/ 333 59016 60041;
0213834980999992008051500004-17733-039250FM-12+000399999V0209999C000010075019N0020001N1+02141+02091101791ADDAA106003091AY161061AY261061GF108991051051008001021999KA1240M+02311MA1999999101741MD1999999-0301MW1211REMSYN100AAXX  15004 83498 21595 80000 10214 20209 30174 40179 72166 8552/ 333 10231 29097 55000 59030 60031;
0173834980999992008051512004-17733-039250FM-12+000399999V0202301N001510450019N0020001N1+02241+01921101871ADDAA124007191GF108991041051008001011999KA1240N+01981MA1999999101821MD1999999-0021REMSYN082AAXX  15124 83498 22595 82303 10224 20192 30182 40187 8451/ 333 20198 59002 60074;
0137834980999992008051518004-17733-039250FM-12+000399999V0201801N002610450019N0020001N1+02401+02111101651ADDGF108991031051008001011999MA1999999101601MD1999999+0061REMSYN070AAXX  15184 83498 32595 81805 10240 20211 30160 40165 8351/ 333 58006;
0178834980999992008051600004-17733-039250FM-12+000399999V0209999C000012200019N0020001N1+02261+01941101681ADDGA1001+999999999GF100991001001999999001001KA1240M+02741MA1999999101631MD1999999-0111REMSYN082AAXX  16004 83498 32995 00000 10226 20194 30163 40168 333 10274 29082 55036 59011;
0156834980999992008051612004-17733-039250FM-12+000399999V0202301N000511050019N0020001N1+02421+02251101761ADDGF105991011011008001001021KA1240N+01921MA1999999101711MD1999999-0111REMSYN076AAXX  16124 83498 32595 52301 10242 20225 30171 40176 81102 333 20192 59011;
0137834980999992008051618004-17733-039250FM-12+000399999V0201401N002611050019N0020001N1+02691+02221101421ADDGF105991021011008001001021MA1999999101371MD1999999-0231REMSYN070AAXX  16184 83498 32595 51405 10269 20222 30137 40142 82102 333 59023;
0187834980999992008051700004-17733-039250FM-12+000399999V0200901N001019999999N0020001N1+02421+02171101701ADDGF105991001001999999001021KA1240M+02801MA1999999101651MD1999999+0021REMSYN088AAXX  17004 83498 32595 50902 10242 20217 30165 40170 80002 333 10280 29089 55061 58002;EQDQ01+008002SCOLCB
0156834980999992008051712004-17733-039250FM-12+000399999V0202301N001510450019N0020001N1+02341+02011101951ADDGF106991021011008001021011KA1240N+01901MA1999999101901MD1999999+0191REMSYN076AAXX  17124 83498 32595 62303 10234 20201 30190 40195 82121 333 20190 58019;
0137834980999992008051718004-17733-039250FM-12+000399999V0201401N002610450019N0020001N1+02721+02151101621ADDGF105991021011008001031001MA1999999101571MD1999999+0201REMSYN070AAXX  17184 83498 32595 51405 10272 20215 30157 40162 82130 333 58020;
0168834980999992008051800004-17733-039250FM-12+000399999V0201401N000512200019N0020001N1+02401+01971101871ADDGF103991021011008001001011KA1240M+02751MA1999999101821MD1999999+0171REMSYN088AAXX  18004 83498 32595 31401 10240 20197 30182 40187 82101 333 10275 29077 55035 58017;
0201834980999992008051812004-17733-039250FM-12+000399999V0202301N001510075019N0020001N1+02461+02231101901ADDAA124002091AY121061AY211061GF107991051051008001011001KA1240N+02051MA1999999101851MD1999999-0051MW1031REMSYN088AAXX  18124 83498 21595 72303 10246 20223 30185 40190 70321 85510 333 20205 59005 60024;
0137834980999992008051818004-17733-039250FM-12+000399999V0201401N003110450019N0020001N1+02571+02131101601ADDGF107991021051008001041021MA1999999101551MD1999999-0021REMSYN070AAXX  18184 83498 32595 71406 10257 20213 30155 40160 82542 333 59002;
0168834980999992008051900004-17733-039250FM-12+000399999V0209999C000012200019N0020001N1+02181+02101101711ADDGF101991011031008001001001KA1240M+02711MA1999999101661MD1999999-0161REMSYN088AAXX  19004 83498 32595 10000 10218 20210 30166 40171 81300 333 10271 29089 55028 59016;
0201834980999992008051912004-17733-039250FM-12+000399999V0202301N001510450019N0020001N1+02221+01901101811ADDAA124003091AY161061AY221061GF106991031051008001031001KA1240N+01901MA1999999101761MD1999999-0091MW1211REMSYN088AAXX  19124 83498 21595 62303 10222 20190 30176 40181 72162 83530 333 20190 59009 60034;
0137834980999992008051918004-17733-039250FM-12+000399999V0201401N003110450019N0020001N1+02561+02151101741ADDGF105991041051008001011001MA1999999101691MD1999999-0141REMSYN070AAXX  19184 83498 32595 51406 10256 20215 30169 40174 84510 333 59014;
0168834980999992008052000004-17733-039250FM-12+000399999V0200901N001012200019N0020001N1+02321+01961101601ADDGF102991011011008001001011KA1240M+02761MA1999999101551MD1999999-0111REMSYN088AAXX  20004 83498 32595 20902 10232 20196 30155 40160 81101 333 10276 29080 55059 59011;
0137834980999992008052018004-17733-039250FM-12+000399999V0201801N002612200019N0020001N1+02611+02031101391ADDGF102991021011008001001001MA1999999101341MD1999999-0351REMSYN070AAXX  20184 83498 32595 21805 10261 20203 30134 40139 82100 333 59035;
0178834980999992008052100004-17733-039250FM-12+000399999V0209999C000012200019N0020001N1+02101+02021101561ADDGA1001+999999999GF100991001001999999001001KA1240M+02731MA1999999101511MD1999999-0041REMSYN082AAXX  21004 83498 32995 00000 10210 20202 30151 40156 333 10273 29086 55086 59004;
0168834980999992008052200004-17733-039250FM-12+000399999V0201401N001012200019N0020001N1+02301+01941101461ADDGF101991011011008001001001KA1240M+02771MA1999999101411MD1999999-0101REMSYN088AAXX  22004 83498 32595 11402 10230 20194 30141 40146 81100 333 10277 29080 55073 59010;
0137834980999992008052218004-17733-039250FM-12+000399999V0201401N002112200019N0020001N1+02651+02161101311ADDGF102991011011008001001011MA1999999101261MD1999999-0181REMSYN070AAXX  22184 83498 32595 21404 10265 20216 30126 40131 81101 333 59018;
0178834980999992008052300004-17733-039250FM-12+000399999V0209999C000012200019N0020001N1+02161+02041101461ADDGA1001+999999999GF100991001001999999001001KA1240M+02731MA1999999101411MD1999999+0001REMSYN082AAXX  23004 83498 32995 00000 10216 20204 30141 40146 333 10273 29095 55052 58000;
0156834980999992008052312004-17733-039250FM-12+000399999V0202301N001010450019N0020001N1+02261+01941101601ADDGF108991041051008001011999KA1240N+01801MA1999999101551MD1999999+0051REMSYN076AAXX  23124 83498 32595 82302 10226 20194 30155 40160 8451/ 333 20180 58005;
0137834980999992008052318004-17733-039250FM-12+000399999V0201401N002110450019N0020001N1+02681+02201101401ADDGF105991021011008001031001MA1999999101351MD1999999+0091REMSYN070AAXX  23184 83498 32595 51404 10268 20220 30135 40140 82130 333 58009;
0168834980999992008052400004-17733-039250FM-12+000399999V0200901N000512200019N0020001N1+02081+01761101401ADDGF101991011011008001001001KA1240M+02791MA1999999101351MD1999999-0061REMSYN088AAXX  24004 83498 32595 10901 10208 20176 30135 40140 81100 333 10279 29080 55039 59006;
0156834980999992008052412004-17733-039250FM-12+000399999V0209999C000012200019N0020001N1+02341+02201101491ADDGF101991011011008001001001KA1240N+01771MA1999999101441MD1999999-0111REMSYN076AAXX  24124 83498 32595 10000 10234 20220 30144 40149 81100 333 20177 59011;
0137834980999992008052418004-17733-039250FM-12+000399999V0200901N002612200019N0020001N1+02671+02041101261ADDGF101991011011008001001001MA1999999101211MD1999999-0141REMSYN070AAXX  24184 83498 32595 10905 10267 20204 30121 40126 81100 333 59014;
0156834980999992008052512004-17733-039250FM-12+000399999V0203201N001510450019N0020001N1+02301+01941101361ADDGF108991041051008001011999KA1240N+01771MA1999999101311MD1999999-0131REMSYN076AAXX  25124 83498 32595 83203 10230 20194 30131 40136 8451/ 333 20177 59013;
0168834980999992008052600004-17733-039250FM-12+000399999V0200901N000510450019N0020001N1+02261+01901101281ADDGF106991031051008001011001KA1240M+02891MA1999999101231MD1999999-0021REMSYN088AAXX  26004 83498 32595 60901 10226 20190 30123 40128 83510 333 10289 29078 55010 59002;
0156834980999992008052612004-17733-039250FM-12+000399999V0203601N002610075019N0020001N1+02601+02271101441ADDGF107991051051008001051001KA1240N+01971MA1999999101391MD1999999+0081REMSYN076AAXX  26124 83498 32595 73605 10260 20227 30139 40144 85550 333 20197 58008;
0137834980999992008052618004-17733-039250FM-12+000399999V0200501N002110450019N0020001N1+02681+02391101191ADDGF107991041051008001051001MA1999999101141MD1999999+0081REMSYN070AAXX  26184 83498 32595 70504 10268 20239 30114 40119 84550 333 58008;
0178834980999992008052700004-17733-039250FM-12+000399999V0209999C000010012019N0020001N1+02361+02221101401ADDGA1091+999999999GF109991091999999999999999KA1240M+02951MA1999999101351MD1999999+0121REMSYN082AAXX  27004 83498 32/95 90000 10236 20222 30135 40140 333 10295 29088 55008 58012;
0156834980999992008052712004-17733-039250FM-12+000399999V0200901N000512200019N0020001N1+02541+02171101541ADDGF102991021011008001001001KA1240N+01971MA1999999101491MD1999999+0101REMSYN076AAXX  27124 83498 32595 20901 10254 20217 30149 40154 82100 333 20197 58010;
0137834980999992008052718004-17733-039250FM-12+000399999V0200901N001510450019N0020001N1+02701+02281101331ADDGF105991021011008001031001MA1999999101281MD1999999+0141REMSYN070AAXX  27184 83498 32595 50903 10270 20228 30128 40133 82130 333 58014;
0178834980999992008052800004-17733-039250FM-12+000399999V0209999C000012200019N0020001N1+02341+01981101551ADDGA1001+999999999GF100991001001999999001001KA1240M+02861MA1999999101501MD1999999+0151REMSYN082AAXX  28004 83498 32995 00000 10234 20198 30150 40155 333 10286 29080 55080 58015;
0156834980999992008052812004-17733-039250FM-12+000399999V0201801N001012200019N0020001N1+02451+02211101621ADDGF104991041021008001001001KA1240N+01871MA1999999101571MD1999999+0081REMSYN076AAXX  28124 83498 32595 41802 10245 20221 30157 40162 84200 333 20187 58008;
0137834980999992008052818004-17733-039250FM-12+000399999V0201401N002612200019N0020001N1+02671+02111101361ADDGF103991031011008001001001MA1999999101311MD1999999+0031REMSYN070AAXX  28184 83498 32595 31405 10267 20211 30131 40136 83100 333 58003;
0168834980999992008052900004-17733-039250FM-12+000399999V0209999C000012200019N0020001N1+02341+02091101521ADDGF102991021011008001001001KA1240M+02811MA1999999101471MD1999999-0031REMSYN088AAXX  29004 83498 32595 20000 10234 20209 30147 40152 82100 333 10281 29083 55066 59003;
0156834980999992008052912004-17733-039250FM-12+000399999V0202301N001012200019N0020001N1+02481+02111101591ADDGF102991021011008001001001KA1240N+01931MA1999999101541MD1999999-0031REMSYN076AAXX  29124 83498 32595 22302 10248 20211 30154 40159 82100 333 20193 59003;
0178834980999992008053000004-17733-039250FM-12+000399999V0209999C000012200019N0020001N1+02321+01961101531ADDGA1001+999999999GF100991001001999999001001KA1240M+02991MA1999999101481MD1999999+0011REMSYN082AAXX  30004 83498 32995 00000 10232 20196 30148 40153 333 10299 29078 55079 58001;
0156834980999992008053012004-17733-039250FM-12+000399999V0200501N001512200019N0020001N1+02611+02291101751ADDGF104991041021008001001001KA1240N+01971MA1999999101701MD1999999+0161REMSYN076AAXX  30124 83498 32595 40503 10261 20229 30170 40175 84200 333 20197 58016;
0137834980999992008053018004-17733-039250FM-12+000399999V0200501N003112200019N0020001N1+02851+02261101381ADDGF102991021011008001001001MA1999999101331MD1999999+0041REMSYN070AAXX  30184 83498 32595 20506 10285 20226 30133 40138 82100 333 58004;
0178834980999992008053100004-17733-039250FM-12+000399999V0209999C000012200019N0020001N1+02241+02141101621ADDGA1001+999999999GF100991001001999999001001KA1240M+02991MA1999999101571MD1999999+0111REMSYN082AAXX  31004 83498 32995 00000 10224 20214 30157 40162 333 10299 29086 55078 58011;
0156834980999992008053112004-17733-039250FM-12+000399999V0201801N004110450019N0020001N1+02441+02111101971ADDGF108991041051008001011999KA1240N+01901MA1999999101921MD1999999+0221REMSYN076AAXX  31124 83498 32595 81808 10244 20211 30192 40197 8451/ 333 20190 58022;
0182834980999992008053118004-17733-039250FM-12+000399999V0201801N004610075019N0020001N1+02761+02211101651ADDAA106000591AY161061AY221061GF108991051061008001011999MA1999999101601MD1999999+0271MW1211REMSYN082AAXX  31184 83498 21595 81809 10276 20221 30160 40165 72162 8561/ 333 58027 69951;
0213834980999992008060100004-17733-039250FM-12+000399999V0201801N007210450019N0020001N1+02221+01901102011ADDAA106016091AY161061AY261061GF108991041071008001021999KA1240M+02561MA1999999101961MD1999999+0371MW1631REMSYN100AAXX  01004 83498 21595 81814 10222 20190 30196 40201 76366 8472/ 333 10256 29080 55010 58037 60161;
0201834980999992008060112004-17733-039250FM-12+000399999V0201801N004110450019N0020001N1+02281+02091101951ADDAA124023191AY161061AY261061GF108991031071008001021999KA1240N+02071MA1999999101901MD1999999-0021MW1211REMSYN088AAXX  01124 83498 21595 81808 10228 20209 30190 40195 72166 8372/ 333 20207 59002 60234;
0182834980999992008060118004-17733-039250FM-12+000399999V0202301N000510450019N0020001N1+02441+02091101671ADDAA106015091AY121061AY211061GF106991041051008001041001MA1999999101621MD1999999+0021MW1031REMSYN082AAXX  01184 83498 21595 62301 10244 20209 30162 40167 70321 84540 333 58002 60151;
0213834980999992008060200004-17733-039250FM-12+000399999V0201801N003110450019N0020001N1+02181+02131101901ADDAA106014091AY161061AY261061GF108991041071008001021999KA1240M+02491MA1999999101851MD1999999-0111MW1611REMSYN100AAXX  02004 83498 21595 81806 10218 20213 30185 40190 76166 8472/ 333 10249 29091 55001 59011 60141;
0201834980999992008060212004-17733-039250FM-12+000399999V0201801N003610450019N0020001N1+02181+01921101971ADDAA124053191AY161061AY261061GF108991041071008001021999KA1240N+02001MA1999999101921MD1999999+0021MW1631REMSYN088AAXX  02124 83498 21595 81807 10218 20192 30192 40197 76366 8472/ 333 20200 58002 60534;
0182834980999992008060218004-17733-039250FM-12+000399999V0201801N004110450019N0020001N1+02581+02171101751ADDAA106013091AY161061AY261061GF106991041071008001021999MA1999999101701MD1999999+0081MW1631REMSYN082AAXX  02184 83498 21595 61808 10258 20217 30170 40175 76366 8472/ 333 58008 60131;
0213834980999992008060300004-17733-039250FM-12+000399999V0201801N004610075019N0020001N1+02321+02091101731ADDAA106030091AY161061AY261061GF108991081071008001999999KA1240M+02431MA1999999101681MD1999999-0171MW1631REMSYN100AAXX  03004 83498 21595 81809 10232 20209 30168 40173 76366 887// 333 10243 29082 55000 59017 60301;
0201834980999992008060312004-17733-039250FM-12+000399999V0200901N003610450019N0020001N1+02171+02111101891ADDAA124065091AY161061AY261061GF108991031071008001021999KA1240N+02001MA1999999101841MD1999999-0081MW1611REMSYN088AAXX  03124 83498 21595 80907 10217 20211 30184 40189 76166 8372/ 333 20200 59008 60654;
0182834980999992008060318004-17733-039250FM-12+000399999V0201401N004610450019N0020001N1+02541+02151101601ADDAA106001091AY121061AY211061GF107991041051008001051001MA1999999101551MD1999999-0151MW1031REMSYN082AAXX  03184 83498 21595 71409 10254 20215 30155 40160 70321 84550 333 59015 60011;
0168834980999992008060400004-17733-039250FM-12+000399999V0201401N002110450019N0020001N1+02401+01971101771ADDGF108991041051008001021999KA1240M+02571MA1999999101721MD1999999+0041REMSYN088AAXX  04004 83498 32595 81404 10240 20197 30172 40177 8452/ 333 10257 29083 55000 58004;
0173834980999992008060412004-17733-039250FM-12+000399999V0202301N001010450019N0020001N1+02261+01901101851ADDAA124001091GF108991031051008001011999KA1240N+01801MA1999999101801MD1999999-0041REMSYN082AAXX  04124 83498 22595 82302 10226 20190 30180 40185 8351/ 333 20180 59004 60014;
0137834980999992008060418004-17733-039250FM-12+000399999V0201401N003110450019N0020001N1+02581+02171101511ADDGF106991021051008001011001MA1999999101461MD1999999-0091REMSYN070AAXX  04184 83498 32595 61406 10258 20217 30146 40151 82510 333 59009;
0168834980999992008060500004-17733-039250FM-12+000399999V0201401N001510450019N0020001N1+02321+01981101761ADDGF108991041061008001021999KA1240M+02651MA1999999101711MD1999999-0011REMSYN088AAXX  05004 83498 32595 81403 10232 20198 30171 40176 8462/ 333 10265 29080 55005 59001;
0156834980999992008060512004-17733-039250FM-12+000399999V0209999C000010450019N0020001N1+02451+02281101881ADDGF108991031071008001021999KA1240N+01991MA1999999101831MD1999999+0031REMSYN076AAXX  05124 83498 32595 80000 10245 20228 30183 40188 8372/ 333 20199 58003;
0182834980999992008060518004-17733-039250FM-12+000399999V0200901N002112200019N0020001N1+02671+02371101641ADDAA106001091AY121061AY211061GF103991021021008001041001MA1999999101591MD1999999+0131MW1011REMSYN082AAXX  05184 83498 21595 30904 10267 20237 30159 40164 70121 82240 333 58013 69991;
0178834980999992008060600004-17733-039250FM-12+000399999V0209999C000012200019N0020001N1+02171+02091101871ADDGA1001+999999999GF100991001001999999001001KA1240M+02751MA1999999101821MD1999999+0111REMSYN082AAXX  06004 83498 32995 00000 10217 20209 30182 40187 333 10275 29092 55051 58011;
0173834980999992008060612004-17733-039250FM-12+000399999V0202301N001012200019N0020001N1+02301+02031101961ADDAA124001091GF102991021011008001001001KA1240N+01841MA1999999101911MD1999999+0081REMSYN082AAXX  06124 83498 22595 22302 10230 20203 30191 40196 82100 333 20184 58008 69994;
0178834980999992008060700004-17733-039250FM-12+000399999V0209999C000012200019N0020001N1+02201+01861101801ADDGA1001+999999999GF100991001001999999001001KA1240M+02771MA1999999101751MD1999999-0041REMSYN082AAXX  07004 83498 32995 00000 10220 20186 30175 40180 333 10277 29081 55085 59004;
0156834980999992008060712004-17733-039250FM-12+000399999V0202301N000512200019N0020001N1+02441+02301101881ADDGF101991011011008001001001KA1240N+01941MA1999999101831MD1999999-0081REMSYN076AAXX  07124 83498 32595 12301 10244 20230 30183 40188 81100 333 20194 59008;
0137834980999992008060718004-17733-039250FM-12+000399999V0200901N002112200019N0020001N1+02671+02291101631ADDGF102991021011008001001001MA1999999101581MD1999999+0001REMSYN070AAXX  07184 83498 32595 20904 10267 20229 30158 40163 82100 333 58000;
0201834980999992008060812004-17733-039250FM-12+000399999V0200901N001012200019N0020001N1+02641+02271101881ADDAA124000591AY161061AY221061GF104991041021008001001001KA1240N+01961MA1999999101831MD1999999+0001MW1211REMSYN088AAXX  08124 83498 21595 40902 10264 20227 30183 40188 72162 84200 333 20196 58000 69954;
0137834980999992008060818004-17733-039250FM-12+000399999V0200901N002110450019N0020001N1+02701+02221101681ADDGF105991021011008001031001MA1999999101631MD1999999+0051REMSYN070AAXX  08184 83498 32595 50904 10270 20222 30163 40168 82130 333 58005;
0213834980999992008060900004-17733-039250FM-12+000399999V0200901N001012200019N0020001N1+02401+01991101791ADDAA106000591AY161061AY211061GF102991021011008001001001KA1240M+02851MA1999999101741MD1999999+0011MW1211REMSYN100AAXX  09004 83498 21595 20902 10240 20199 30174 40179 72161 82100 333 10285 29078 55066 58001 69951;
0173834980999992008060912004-17733-039250FM-12+000399999V0200901N002610450019N0020001N1+02611+02251101871ADDAA124000591GF105991031021008001041001KA1240N+01971MA1999999101821MD1999999-0011REMSYN082AAXX  09124 83498 22595 50905 10261 20225 30182 40187 83240 333 20197 59001 69954;
0182834980999992008060918004-17733-039250FM-12+000399999V0200901N002112200019N0020001N1+02711+02261101581ADDAA106001091AY121061AY211061GF103991031021008001001001MA1999999101531MD1999999-0101MW1031REMSYN082AAXX  09184 83498 21595 30904 10271 20226 30153 40158 70321 83200 333 59010 60011;
0168834980999992008061000004-17733-039250FM-12+000399999V0209999C000012200019N0020001N1+02201+02101101751ADDGF101991011011008001001001KA1240M+02791MA1999999101701MD1999999-0041REMSYN088AAXX  10004 83498 32595 10000 10220 20210 30170 40175 81100 333 10279 29087 55043 59004;
0173834980999992008061012004-17733-039250FM-12+000399999V0202701N001012200019N0020001N1+02521+02211101751ADDAA124001091GF102991021011008001001001KA1240N+01841MA1999999101701MD1999999-0121REMSYN082AAXX  10124 83498 22595 22702 10252 20221 30170 40175 82100 333 20184 59012 60014;
0137834980999992008061018004-17733-039250FM-12+000399999V0200901N003110450019N0020001N1+02701+02281101431ADDGF105991031011008001031001MA1999999101381MD1999999-0151REMSYN070AAXX  10184 83498 32595 50906 10270 20228 30138 40143 83130 333 59015;
0178834980999992008061100004-17733-039250FM-12+000399999V0209999C000012200019N0020001N1+02161+01841101651ADDGA1001+999999999GF100991001001999999001001KA1240M+02891MA1999999101601MD1999999-0101REMSYN082AAXX  11004 83498 32995 00000 10216 20184 30160 40165 333 10289 29081 55087 59010;
0156834980999992008061112004-17733-039250FM-12+000399999V0203201N000512200019N0020001N1+02361+02131101731ADDGF101991011011008001001001KA1240N+01591MA1999999101681MD1999999-0021REMSYN076AAXX  11124 83498 32595 13201 10236 20213 30168 40173 81100 333 20159 59002;
0137834980999992008061118004-17733-039250FM-12+000399999V0200901N002110450019N0020001N1+02681+02081101511ADDGF105991041021008001041001MA1999999101461MD1999999+0081REMSYN070AAXX  11184 83498 32595 50904 10268 20208 30146 40151 84240 333 58008;
0168834980999992008061200004-17733-039250FM-12+000399999V0209999C000019999999N0020001N1+02381+02211101771ADDGF105991051001008001031001KA1240M+02801MA1999999101721MD1999999+0121REMSYN088AAXX  12004 83498 32595 50000 10238 20221 30172 40177 85030 333 10280 29086 55070 58012;
0201834980999992008061212004-17733-039250FM-12+000399999V0200901N001010450019N0020001N1+02501+01981101961ADDAA124000391AY161061AY221061GF108991041051008001011999KA1240N+02071MA1999999101911MD1999999+0231MW1211REMSYN088AAXX  12124 83498 21595 80902 10250 20198 30191 40196 72162 8451/ 333 20207 58023 69934;
0137834980999992008061218004-17733-039250FM-12+000399999V0200901N002610450019N0020001N1+02621+02211101831ADDGF106991031051008001031001MA1999999101781MD1999999+0321REMSYN070AAXX  12184 83498 32595 60905 10262 20221 30178 40183 83530 333 58032;
0178834980999992008061300004-17733-039250FM-12+000399999V0209999C000012200019N0020001N1+02381+02121101911ADDGA1001+999999999GF100991001001999999001001KA1240M+02821MA1999999101861MD1999999+0141REMSYN082AAXX  13004 83498 32995 00000 10238 20212 30186 40191 333 10282 29081 55041 58014;
0201834980999992008061312004-17733-039250FM-12+000399999V0202301N001512200019N0020001N1+02281+02051101821ADDAA124000891AY121061AY211061GF101991011011008001001001KA1240N+01721MA1999999101771MD1999999-0141MW1011REMSYN088AAXX  13124 83498 21595 12303 10228 20205 30177 40182 70121 81100 333 20172 59014 69974;
0137834980999992008061318004-17733-039250FM-12+000399999V0200901N003112200019N0020001N1+02631+02101101481ADDGF102991021011008001001001MA1999999101431MD1999999-0351REMSYN070AAXX  13184 83498 32595 20906 10263 20210 30143 40148 82100 333 59035;
0178834980999992008061400004-17733-039250FM-12+000399999V0200901N000512200019N0020001N1+02081+01911101661ADDGA1001+999999999GF100991001001999999001001KA1240M+02771MA1999999101611MD1999999-0251REMSYN082AAXX  14004 83498 32995 00901 10208 20191 30161 40166 333 10277 29085 55078 59025;
0156834980999992008061412004-17733-039250FM-12+000399999V0203601N001012200019N0020001N1+02481+02051101671ADDGF104991021011008001031001KA1240N+01631MA1999999101621MD1999999-0151REMSYN076AAXX  14124 83498 32595 43602 10248 20205 30162 40167 82130 333 20163 59015;
0137834980999992008061418004-17733-039250FM-12+000399999V0200501N002612200019N0020001N1+02641+02141101361ADDGF103991031011008001001001MA1999999101311MD1999999-0121REMSYN070AAXX  14184 83498 32595 30505 10264 20214 30131 40136 83100 333 59012;
0178834980999992008061500004-17733-039250FM-12+000399999V0209999C000012200019N0020001N1+02061+01661101551ADDGA1001+999999999GF100991001001999999001001KA1240M+02881MA1999999101501MD1999999-0111REMSYN082AAXX  15004 83498 32995 00000 10206 20166 30150 40155 333 10288 29077 55086 59011;
0156834980999992008061512004-17733-039250FM-12+000399999V0203201N001512200019N0020001N1+02481+02031101671ADDGF101991011011008001001001KA1240N+01701MA1999999101621MD1999999+0001REMSYN076AAXX  15124 83498 32595 13203 10248 20203 30162 40167 81100 333 20170 58000;
0137834980999992008061518004-17733-039250FM-12+000399999V0200501N002612200019N0020001N1+02831+01801101371ADDGF101991011011008001001001MA1999999101321MD1999999+0011REMSYN070AAXX  15184 83498 32595 10505 10283 20180 30132 40137 81100 333 58001;
0178834980999992008061600004-17733-039250FM-12+000399999V0209999C000012200019N0020001N1+02061+01851101541ADDGA1001+999999999GF100991001001999999001001KA1240M+03011MA1999999101491MD1999999-0011REMSYN082AAXX  16004 83498 32995 00000 10206 20185 30149 40154 333 10301 29077 55088 59001;
0156834980999992008061612004-17733-039250FM-12+000399999V0203601N003112200019N0020001N1+02421+01991101621ADDGF103991031011008001001001KA1240N+01701MA1999999101571MD1999999-0051REMSYN076AAXX  16124 83498 32595 33606 10242 20199 30157 40162 83100 333 20170 59005;
0137834980999992008061618004-17733-039250FM-12+000399999V0200501N003112200019N0020001N1+02841+02121101281ADDGF104991021011008001031001MA1999999101231MD1999999-0091REMSYN070AAXX  16184 83498 32595 40506 10284 20212 30123 40128 82130 333 59009;
0213834980999992008061700004-17733-039250FM-12+000399999V0201801N005110450019N0020001N1+02261+01901101771ADDAA106000891AY161061AY221061GF108991041061008001021999KA1240M+02951MA1999999101721MD1999999+0231MW1611REMSYN100AAXX  17004 83498 21595 81810 10226 20190 30172 40177 76162 8462/ 333 10295 29076 55082 58023 69981;
0173834980999992008061712004-17733-039250FM-12+000399999V0201401N003610075019N0020001N1+02531+02071101891ADDAA124000891GF107991051051008001051001KA1240N+02101MA1999999101841MD1999999+0271REMSYN082AAXX  17124 83498 22595 71407 10253 20207 30184 40189 85550 333 20210 58027 69984;
0137834980999992008061718004-17733-039250FM-12+000399999V0201401N004110075019N0020001N1+02501+01961101701ADDGF107991051051008001051001MA1999999101651MD1999999+0421REMSYN070AAXX  17184 83498 32595 71408 10250 20196 30165 40170 85550 333 58042;
0168834980999992008061800004-17733-039250FM-12+000399999V0201401N002110075019N0020001N1+02381+01951101841ADDGF107991051051008001051001KA1240M+02631MA1999999101791MD1999999+0071REMSYN088AAXX  18004 83498 32595 71404 10238 20195 30179 40184 85550 333 10263 29076 55001 58007;
0156834980999992008061812004-17733-039250FM-12+000399999V0200901N001512200019N0020001N1+02521+01841101871ADDGF104991041011008001001001KA1240N+01861MA1999999101821MD1999999-0021REMSYN076AAXX  18124 83498 32595 40903 10252 20184 30182 40187 84100 333 20186 59002;
0137834980999992008061818004-17733-039250FM-12+000399999V0200901N003110450019N0020001N1+02641+01851101621ADDGF105991021011008001031001MA1999999101571MD1999999-0081REMSYN070AAXX  18184 83498 32595 50906 10264 20185 30157 40162 82130 333 59008;
0168834980999992008061900004-17733-039250FM-12+000399999V0200901N000512200019N0020001N1+02081+01661101611ADDGF104991041011008001001001KA1240M+02671MA1999999101561MD1999999-0231REMSYN088AAXX  19004 83498 32595 40901 10208 20166 30156 40161 84100 333 10267 29070 55042 59023;
0156834980999992008061912004-17733-039250FM-12+000399999V0202301N001510450019N0020001N1+02401+01861101811ADDGF105991011011008001031001KA1240N+01721MA1999999101761MD1999999-0061REMSYN076AAXX  19124 83498 32595 52303 10240 20186 30176 40181 81130 333 20172 59006;
0137834980999992008061918004-17733-039250FM-12+000399999V0200901N001512200019N0020001N1+02551+02091101541ADDGF105991031021008001001011MA1999999101491MD1999999-0081REMSYN070AAXX  19184 83498 32595 50903 10255 20209 30149 40154 83201 333 59008;
0168834980999992008062000004-17733-039250FM-12+000399999V0209999C000012200019N0020001N1+02001+01811101691ADDGF102991021001008001031001KA1240M+02691MA1999999101641MD1999999+0081REMSYN088AAXX  20004 83498 32595 20000 10200 20181 30164 40169 82030 333 10269 29082 55060 58008;
0156834980999992008062012004-17733-039250FM-12+000399999V0201801N000512200019N0020001N1+02241+01881101711ADDGF102991021011008001001001KA1240N+01671MA1999999101661MD1999999-0101REMSYN076AAXX  20124 83498 32595 21801 10224 20188 30166 40171 82100 333 20167 59010;
0137834980999992008062018004-17733-039250FM-12+000399999V0200901N003112200019N0020001N1+02601+02031101401ADDGF104991021011008001031001MA1999999101351MD1999999-0141REMSYN070AAXX  20184 83498 32595 40906 10260 20203 30135 40140 82130 333 59014;
0178834980999992008062100004-17733-039250FM-12+000399999V0209999C000012200019N0020001N1+02061+01701101551ADDGA1001+999999999GF100991001001999999001001KA1240M+02831MA1999999101501MD1999999-0141REMSYN082AAXX  21004 83498 32995 00000 10206 20170 30150 40155 333 10283 29078 55075 59014;
0156834980999992008062112004-17733-039250FM-12+000399999V0203201N002112200019N0020001N1+02531+02131101501ADDGF102991021011008001001001KA1240N+01671MA1999999101451MD1999999-0221REMSYN076AAXX  21124 83498 32595 23204 10253 20213 30145 40150 82100 333 20167 59022;
0137834980999992008062118004-17733-039250FM-12+000399999V0200501N002612200019N0020001N1+02791+02061101141ADDGF101991011011008001001001MA1999999101091MD1999999-0261REMSYN070AAXX  21184 83498 32595 10505 10279 20206 30109 40114 81100 333 59026;
0178834980999992008062200004-17733-039250FM-12+000399999V0200901N001012200019N0020001N1+02281+02111101371ADDGA1001+999999999GF100991001001999999001001KA1240M+02901MA1999999101321MD1999999-0181REMSYN082AAXX  22004 83498 32995 00902 10228 20211 30132 40137 333 10290 29081 55076 59018;
0156834980999992008062212004-17733-039250FM-12+000399999V0203601N003612200019N0020001N1+02561+02111101461ADDGF104991021011008001041001KA1240N+01901MA1999999101411MD1999999-0041REMSYN076AAXX  22124 83498 32595 43607 10256 20211 30141 40146 82140 333 20190 59004;
0137834980999992008062218004-17733-039250FM-12+000399999V0200501N004110450019N0020001N1+02821+02101101201ADDGF105991031011008001041001MA1999999101151MD1999999+0061REMSYN070AAXX  22184 83498 32595 50508 10282 20210 30115 40120 83140 333 58006;
0168834980999992008062300004-17733-039250FM-12+000399999V0200901N001012200019N0020001N1+02201+01841101531ADDGF101991011011008001001001KA1240M+02971MA1999999101481MD1999999+0161REMSYN088AAXX  23004 83498 32595 10902 10220 20184 30148 40153 81100 333 10297 29075 55039 58016;
0156834980999992008062312004-17733-039250FM-12+000399999V0202301N002112200019N0020001N1+02361+02241101811ADDGF103991031021008001001001KA1240N+01851MA1999999101761MD1999999+0351REMSYN076AAXX  23124 83498 32595 32304 10236 20224 30176 40181 83200 333 20185 58035;
0137834980999992008062318004-17733-039250FM-12+000399999V0201801N003610450019N0020001N1+02321+02151101711ADDGF107991031071008001011001MA1999999101661MD1999999+0511REMSYN070AAXX  23184 83498 32595 71807 10232 20215 30166 40171 83710 333 58051;
0213834980999992008062400004-17733-039250FM-12+000399999V0201801N003110450019N0020001N1+02371+02111101901ADDAA106000391AY121061AY211061GF108991021071008001021999KA1240M+02721MA1999999101851MD1999999+0371MW1031REMSYN100AAXX  24004 83498 21595 81806 10237 20211 30185 40190 70321 8272/ 333 10272 29089 55034 58037 69931;
0201834980999992008062412004-17733-039250FM-12+000399999V0202301N003110450019N0020001N1+02121+01801101971ADDAA124023191AY161061AY261061GF108991041061008001021999KA1240N+01951MA1999999101921MD1999999+0161MW1631REMSYN088AAXX  24124 83498 21595 82306 10212 20180 30192 40197 76366 8462/ 333 20195 58016 60234;
0182834980999992008062418004-17733-039250FM-12+000399999V0201801N003110075019N0020001N1+02361+01991101801ADDAA106009991AY161061AY261061GF108991051071008001021999MA1999999101751MD1999999+0091MW1211REMSYN082AAXX  24184 83498 21595 81806 10236 20199 30175 40180 72166 8572/ 333 58009 60101;
0213834980999992008062500004-17733-039250FM-12+000399999V0203601N001510075019N0020001N1+02161+01841101941ADDAA106003091AY161061AY261061GF108991051071008001021999KA1240M+02471MA1999999101891MD1999999+0041MW1631REMSYN100AAXX  25004 83498 21595 83603 10216 20184 30189 40194 76366 8572/ 333 10247 29082 55000 58004 60031;
0201834980999992008062512004-17733-039250FM-12+000399999V0201801N002610450019N0020001N1+02261+02111101971ADDAA124023191AY121061AY211061GF107991031071008001011001KA1240N+01851MA1999999101921MD1999999+0001MW1031REMSYN088AAXX  25124 83498 21595 71805 10226 20211 30192 40197 70321 83710 333 20185 58000 60234;
0137834980999992008062518004-17733-039250FM-12+000399999V0201401N001510450019N0020001N1+02261+02031101691ADDGF107991041051008001011001MA1999999101641MD1999999-0151REMSYN070AAXX  25184 83498 32595 71403 10226 20203 30164 40169 84510 333 59015;
0168834980999992008062600004-17733-039250FM-12+000399999V0201401N000510075019N0020001N1+02181+02061101851ADDGF108991051051008001021999KA1240M+02391MA1999999101801MD1999999-0091REMSYN088AAXX  26004 83498 32595 81401 10218 20206 30180 40185 8552/ 333 10239 29091 55006 59009;
0201834980999992008062612004-17733-039250FM-12+000399999V0202301N000510450019N0020001N1+02181+01861101951ADDAA124003091AY161061AY221061GF108991041051008001011999KA1240N+01871MA1999999101901MD1999999-0021MW1211REMSYN088AAXX  26124 83498 21595 82301 10218 20186 30190 40195 72162 8451/ 333 20187 59002 60034;
0182834980999992008062618004-17733-039250FM-12+000399999V0201801N003110450019N0020001N1+02281+02011101761ADDAA106001091AY161061AY221061GF108991031061008001021999MA1999999101711MD1999999+0071MW1211REMSYN082AAXX  26184 83498 21595 81806 10228 20201 30171 40176 72162 8362/ 333 58007 60011;
0213834980999992008062700004-17733-039250FM-12+000399999V0200901N003610450019N0020001N1+02201+01741102011ADDAA106002091AY161061AY261061GF106991031051008001011001KA1240M+02431MA1999999101961MD1999999+0161MW1211REMSYN100AAXX  27004 83498 21595 60907 10220 20174 30196 40201 72166 83510 333 10243 29079 55000 58016 60021;
0201834980999992008062712004-17733-039250FM-12+000399999V0201401N003112200019N0020001N1+02481+01801102171ADDAA124004191AY121061AY211061GF103991021011008001041001KA1240N+02001MA1999999102121MD1999999+0221MW1011REMSYN088AAXX  27124 83498 21595 31406 10248 20180 30212 40217 70121 82140 333 20200 58022 60044;
0137834980999992008062718004-17733-039250FM-12+000399999V0200901N001510450019N0020001N1+02361+02031102031ADDGF107991041051008001041001MA1999999101981MD1999999+0271REMSYN070AAXX  27184 83498 32595 70903 10236 20203 30198 40203 84540 333 58027;
0220834980999992008062800004-17733-039250FM-12+000399999V0209999C000010012019N0020001N1+02201+01971102241ADDAA106000091GA1091+999999999GF109991091999999999999999KA1240M+02551MA1999999102191MD1999999+0231REMSYN094AAXX  28004 83498 21/95 90000 10220 20197 30219 40224 7//21 333 10255 29081 55015 58023 69921;EQDQ01  00002PRCP06
0201834980999992008062812004-17733-039250FM-12+000399999V0202301N001510450019N0020001N1+02101+01801102361ADDAA124032091AY161061AY261061GF108991041051008001051999KA1240N+01811MA1999999102311MD1999999+0191MW1211REMSYN088AAXX  28124 83498 21595 82303 10210 20180 30231 40236 72166 8455/ 333 20181 58019 60324;
0137834980999992008062818004-17733-039250FM-12+000399999V0201401N001510450019N0020001N1+02401+01971102111ADDGF106991041051008001041001MA1999999102061MD1999999+0081REMSYN070AAXX  28184 83498 32595 61403 10240 20197 30206 40211 84540 333 58008;
0213834980999992008062900004-17733-039250FM-12+000399999V0200901N001510450019N0020001N1+02261+01821102211ADDAA106000021AY161061AY221061GF108991031051008001011999KA1240M+02581MA1999999102161MD1999999-0031MW1211REMSYN100AAXX  29004 83498 21595 80903 10226 20182 30216 40221 72162 8351/ 333 10258 29078 55021 59003 69921;
0173834980999992008062912004-17733-039250FM-12+000399999V0202301N000512200019N0020001N1+02361+01951102221ADDAA124000021GF102991021021008001001001KA1240N+01671MA1999999102171MD1999999-0141REMSYN082AAXX  29124 83498 22595 22301 10236 20195 30217 40222 82200 333 20167 59014 69924;
0137834980999992008062918004-17733-039250FM-12+000399999V0201401N001510075019N0020001N1+02491+01941101901ADDGF108991051051008001021999MA1999999101851MD1999999-0211REMSYN070AAXX  29184 83498 32595 81403 10249 20194 30185 40190 8552/ 333 59021;
0178834980999992008063000004-17733-039250FM-12+000399999V0209999C000012200019N0020001N1+02111+01951102091ADDGA1001+999999999GF100991001001999999001001KA1240M+02611MA1999999102041MD1999999-0121REMSYN082AAXX  30004 83498 32995 00000 10211 20195 30204 40209 333 10261 29083 55046 59012;
0201834980999992008063012004-17733-039250FM-12+000399999V0201801N000510450019N0020001N1+02121+01801102151ADDAA124014091AY161061AY221061GF108991041061008001021999KA1240N+01871MA1999999102101MD1999999-0071MW1211REMSYN088AAXX  30124 83498 21595 81801 10212 20180 30210 40215 72162 8462/ 333 20187 59007 60144;
0182834980999992008063018004-17733-039250FM-12+000399999V0201801N001510075019N0020001N1+02401+01971101891ADDAA106003091AY161061AY261061GF108991051061008001021999MA1999999101841MD1999999-0011MW1631REMSYN082AAXX  30184 83498 21595 81803 10240 20197 30184 40189 76366 8562/ 333 59001 60031;
0213834980999992008070100004-17733-039250FM-12+000399999V0201801N002610075019N0020001N1+02081+01761102031ADDAA106009991AY161061AY261061GF108991081071008001999999KA1240M+02311MA1999999101981MD1999999-0061MW1631REMSYN100AAXX  01004 83498 21595 81805 10208 20176 30198 40203 76366 887// 333 10231 29081 55000 59006 60101;
0201834980999992008070112004-17733-039250FM-12+000399999V0202301N001010075019N0020001N1+02261+02141102151ADDAA124029091AY121061AY211061GF108991051051008001021999KA1240N+01921MA1999999102101MD1999999+0001MW1031REMSYN088AAXX  01124 83498 21595 82302 10226 20214 30210 40215 70321 8552/ 333 20192 58000 60294;
0137834980999992008070118004-17733-039250FM-12+000399999V0200501N002610450019N0020001N1+02521+02021101871ADDGF107991041051008001011001MA1999999101821MD1999999-0021REMSYN070AAXX  01184 83498 32595 70505 10252 20202 30182 40187 84510 333 59002;
0168834980999992008070200004-17733-039250FM-12+000399999V0209999C000010450019N0020001N1+02121+01951102101ADDGF105991031051008001011001KA1240M+02671MA1999999102051MD1999999+0071REMSYN088AAXX  02004 83498 32595 50000 10212 20195 30205 40210 83510 333 10267 29087 55003 58007;
0156834980999992008070212004-17733-039250FM-12+000399999V0201401N000510450019N0020001N1+02241+01921102171ADDGF106991041051008001011001KA1240N+01781MA1999999102121MD1999999+0021REMSYN076AAXX  02124 83498 32595 61401 10224 20192 30212 40217 84510 333 20178 58002;
0182834980999992008070218004-17733-039250FM-12+000399999V0200901N002610450019N0020001N1+02561+02151101811ADDAA106000891AY161061AY221061GF105991021011008001041001MA1999999101761MD1999999-0061MW1211REMSYN082AAXX  02184 83498 21595 50905 10256 20215 30176 40181 72162 82140 333 59006 69981;
0168834980999992008070300004-17733-039250FM-12+000399999V0200901N001012200019N0020001N1+02121+01761102031ADDGF104991021011008001031001KA1240M+02571MA1999999101981MD1999999-0071REMSYN088AAXX  03004 83498 32595 40902 10212 20176 30198 40203 82130 333 10257 29080 55022 59007;
0173834980999992008070312004-17733-039250FM-12+000399999V0209999C000012200019N0020001N1+02381+02071102021ADDAA124000591GF104991041021008001001001KA1240N+01721MA1999999101971MD1999999-0151REMSYN082AAXX  03124 83498 22595 40000 10238 20207 30197 40202 84200 333 20172 59015 69954;
0137834980999992008070318004-17733-039250FM-12+000399999V0200901N001512200019N0020001N1+02491+02091101701ADDGF104991021021008001041001MA1999999101651MD1999999-0111REMSYN070AAXX  03184 83498 32595 40903 10249 20209 30165 40170 82240 333 59011;
0168834980999992008070400004-17733-039250FM-12+000399999V0209999C000012200019N0020001N1+02021+01941101851ADDGF103991031051008001001001KA1240M+02661MA1999999101801MD1999999-0181REMSYN088AAXX  04004 83498 32595 30000 10202 20194 30180 40185 83500 333 10266 29088 55046 59018;
0156834980999992008070412004-17733-039250FM-12+000399999V0201801N001011050019N0020001N1+02041+01741101831ADDGF105991021011008001041011KA1240N+01701MA1999999101781MD1999999-0191REMSYN076AAXX  04124 83498 32595 51802 10204 20174 30178 40183 82141 333 20170 59019;
0137834980999992008070418004-17733-039250FM-12+000399999V0200901N001512200019N0020001N1+02401+01971101601ADDGF104991021011008001031001MA1999999101551MD1999999-0101REMSYN070AAXX  04184 83498 32595 40903 10240 20197 30155 40160 82130 333 59010;
0178834980999992008070500004-17733-039250FM-12+000399999V0209999C000012200019N0020001N1+02121+01761101711ADDGA1001+999999999GF100991001001999999001001KA1240M+02711MA1999999101661MD1999999-0141REMSYN082AAXX  05004 83498 32995 00000 10212 20176 30166 40171 333 10271 29080 55019 59014;
0201834980999992008070512004-17733-039250FM-12+000399999V0201801N001510450019N0020001N1+02211+02051102011ADDAA124001091AY121061AY211061GF107991041051008001011001KA1240N+01801MA1999999101961MD1999999-0181MW1031REMSYN088AAXX  05124 83498 21595 71803 10221 20205 30196 40201 70321 84510 333 20180 59018 60014;
0137834980999992008070518004-17733-039250FM-12+000399999V0201801N004610450019N0020001N1+02461+01881101811ADDGF105991031021008001041001MA1999999101761MD1999999+0211REMSYN070AAXX  05184 83498 32595 51809 10246 20188 30176 40181 83240 333 58021;
0168834980999992008070600004-17733-039250FM-12+000399999V0201801N002112200019N0020001N1+02301+01831102061ADDGF102991021051008001001001KA1240M+02511MA1999999102011MD1999999+0351REMSYN088AAXX  06004 83498 32595 21804 10230 20183 30201 40206 82500 333 10251 29075 55006 58035;
0156834980999992008070612004-17733-039250FM-12+000399999V0202301N001012200019N0020001N1+02061+01701102231ADDGF104991021011008001031001KA1240N+01581MA1999999102181MD1999999+0221REMSYN076AAXX  06124 83498 32595 42302 10206 20170 30218 40223 82130 333 20158 58022;
0137834980999992008070618004-17733-039250FM-12+000399999V0201801N002610450019N0020001N1+02401+01971101931ADDGF105991031011008001041001MA1999999101881MD1999999+0121REMSYN070AAXX  06184 83498 32595 51805 10240 20197 30188 40193 83140 333 58012;
0168834980999992008070700004-17733-039250FM-12+000399999V0201401N002112200019N0020001N1+02261+01731102101ADDGF101991011011008001001001KA1240M+02571MA1999999102051MD1999999+0041REMSYN088AAXX  07004 83498 32595 11404 10226 20173 30205 40210 81100 333 10257 29075 55061 58004;
0156834980999992008070712004-17733-039250FM-12+000399999V0202701N001512200019N0020001N1+02181+01861102241ADDGF104991041021008001001001KA1240N+01571MA1999999102191MD1999999+0011REMSYN076AAXX  07124 83498 32595 42703 10218 20186 30219 40224 84200 333 20157 58001;
0137834980999992008070718004-17733-039250FM-12+000399999V0201801N003112200019N0020001N1+02421+01881101991ADDGF101991011011008001001001MA1999999101941MD1999999+0061REMSYN070AAXX  07184 83498 32595 11806 10242 20188 30194 40199 81100 333 58006;
0178834980999992008070800004-17733-039250FM-12+000399999V0201801N002112200019N0020001N1+02151+01501102091ADDGA1001+999999999GF100991001001999999001001KA1240M+02491MA1999999102041MD1999999-0011REMSYN082AAXX  08004 83498 32995 01804 10215 20150 30204 40209 333 10249 29072 55075 59001;
0156834980999992008070812004-17733-039250FM-12+000399999V0202301N001012200019N0020001N1+02021+01621102101ADDGF102991021011008001001001KA1240N+01451MA1999999102051MD1999999-0141REMSYN076AAXX  08124 83498 32595 22302 10202 20162 30205 40210 82100 333 20145 59014;
0137834980999992008070818004-17733-039250FM-12+000399999V0201401N002612200019N0020001N1+02441+02011101791ADDGF104991021011008001031001MA1999999101741MD1999999-0201REMSYN070AAXX  08184 83498 32595 41405 10244 20201 30174 40179 82130 333 59020;
0168834980999992008070900004-17733-039250FM-12+000399999V0201801N002110450019N0020001N1+02201+01781101951ADDGF107991041051008001011001KA1240M+02471MA1999999101941MD1999999-0101REMSYN088AAXX  09004 83498 32595 71804 10220 20178 30194 40195 84510 333 10247 29077 55031 59010;
0201834980999992008070912004-17733-039250FM-12+000399999V0202301N001012200019N0020001N1+02201+01941102011ADDAA124000891AY121061AY211061GF104991031051008001041001KA1240N+01741MA1999999101961MD1999999-0091MW1031REMSYN088AAXX  09124 83498 21595 42302 10220 20194 30196 40201 70321 83540 333 20174 59009 69974;
0137834980999992008070918004-17733-039250FM-12+000399999V0200901N001512200019N0020001N1+02501+01961101791ADDGF103991021011008001001011MA1999999101741MD1999999+0001REMSYN070AAXX  09184 83498 32595 30903 10250 20196 30174 40179 82101 333 58000;
0168834980999992008071000004-17733-039250FM-12+000399999V0200901N000512200019N0020001N1+02181+01921102051ADDGF102991021011008001001001KA1240M+02591MA1999999102001MD1999999+0061REMSYN088AAXX  10004 83498 32595 20901 10218 20192 30200 40205 82100 333 10259 29081 55071 58006;
0156834980999992008071012004-17733-039250FM-12+000399999V0202301N000510450019N0020001N1+02101+01801102211ADDGF106991031011008001031001KA1240N+01701MA1999999102161MD1999999+0201REMSYN076AAXX  10124 83498 32595 62301 10210 20180 30216 40221 83130 333 20170 58020;
0137834980999992008071018004-17733-039250FM-12+000399999V0200901N002610450019N0020001N1+02481+02051101971ADDGF105991021011008001031001MA1999999101921MD1999999+0181REMSYN070AAXX  10184 83498 32595 50905 10248 20205 30192 40197 82130 333 58018;
0168834980999992008071100004-17733-039250FM-12+000399999V0201401N001512200019N0020001N1+02281+01881102221ADDGF102991021011008001001001KA1240M+02591MA1999999102171MD1999999+0171REMSYN088AAXX  11004 83498 32595 21403 10228 20188 30217 40222 82100 333 10259 29079 55040 58017;
0156834980999992008071112004-17733-039250FM-12+000399999V0201801N003110450019N0020001N1+02501+02111102341ADDGF105991031051008001041001KA1240N+01771MA1999999102291MD1999999+0131REMSYN076AAXX  11124 83498 32595 51806 10250 20211 30229 40234 83540 333 20177 58013;
0137834980999992008071118004-17733-039250FM-12+000399999V0201801N003112200019N0020001N1+02491+02031102041ADDGF104991031021008001041001MA1999999101991MD1999999+0071REMSYN070AAXX  11184 83498 32595 41806 10249 20203 30199 40204 83240 333 58007;
0178834980999992008071200004-17733-039250FM-12+000399999V0201801N001512200019N0020001N1+02261+01981102251ADDGA1001+999999999GF100991001001999999001001KA1240M+02591MA1999999102201MD1999999+0031REMSYN082AAXX  12004 83498 32995 01803 10226 20198 30220 40225 333 10259 29081 55061 58003;
0156834980999992008071212004-17733-039250FM-12+000399999V0201801N004610450019N0020001N1+02401+01801102221ADDGF105991031051008001031001KA1240N+01771MA1999999102171MD1999999-0121REMSYN076AAXX  12124 83498 32595 51809 10240 20180 30217 40222 83530 333 20177 59012;
0137834980999992008071218004-17733-039250FM-12+000399999V0201801N004112200019N0020001N1+02461+02071101961ADDGF104991021051008001031001MA1999999101911MD1999999-0181REMSYN070AAXX  12184 83498 32595 41808 10246 20207 30191 40196 82530 333 59018;
0168834980999992008071300004-17733-039250FM-12+000399999V0201801N004612200019N0020001N1+02261+01691101981ADDGF103991031011008001001001KA1240M+02511MA1999999101931MD1999999-0271REMSYN088AAXX  13004 83498 32595 31809 10226 20169 30193 40198 83100 333 10251 29072 55048 59027;
0201834980999992008071312004-17733-039250FM-12+000399999V0202301N001510450019N0020001N1+01981+01861102041ADDAA124008991AY161061AY261061GF107991031071008001011001KA1240N+01721MA1999999101991MD1999999-0181MW1611REMSYN088AAXX  13124 83498 21595 72303 10198 20186 30199 40204 76166 83710 333 20172 59018 60094;
0182834980999992008071318004-17733-039250FM-12+000399999V0201801N003110450019N0020001N1+02291+01981101821ADDAA106000591AY121061AY211061GF106991041051008001011001MA1999999101771MD1999999-0141MW1031REMSYN082AAXX  13184 83498 21595 61806 10229 20198 30177 40182 70321 84510 333 59014 69961;
0168834980999992008071400004-17733-039250FM-12+000399999V0201801N002612200019N0020001N1+02301+01941101961ADDGF104991041051008001001001KA1240M+02451MA1999999101911MD1999999-0021REMSYN088AAXX  14004 83498 32595 41805 10230 20194 30191 40196 84500 333 10245 29084 55018 59002;
0201834980999992008071412004-17733-039250FM-12+000399999V0201401N003612200019N0020001N1+02321+01911102051ADDAA124004191AY161061AY221061GF106991021011008001001011KA1240N+01961MA1999999102001MD1999999+0011MW1211REMSYN088AAXX  14124 83498 21595 61407 10232 20191 30200 40205 72162 82101 333 20196 58001 60044;
0182834980999992008071418004-17733-039250FM-12+000399999V0201401N003110450019N0020001N1+02501+02071101881ADDAA106003091AY161061AY261061GF107991031051008001011001MA1999999101831MD1999999+0061MW1211REMSYN082AAXX  14184 83498 21595 71406 10250 20207 30183 40188 72166 83510 333 58006 60031;
0213834980999992008071500004-17733-039250FM-12+000399999V0201401N004110450019N0020001N1+02301+01871102081ADDAA106001091AY161061AY261061GF106991031051008001031001KA1240M+02511MA1999999102031MD1999999+0121MW1211REMSYN100AAXX  15004 83498 21595 61408 10230 20187 30203 40208 72166 83530 333 10251 29077 55044 58012 60011;
0201834980999992008071512004-17733-039250FM-12+000399999V0201401N001510450019N0020001N1+02341+01931102351ADDAA124007191AY121061AY211061GF106991031051008001051001KA1240N+01801MA1999999102281MD1999999+0221MW1031REMSYN088AAXX  15124 83498 21595 61403 10234 20193 30228 40235 70321 83550 333 20180 58022 60074;
0137834980999992008071518004-17733-039250FM-12+000399999V0201401N002610450019N0020001N1+02361+01991102091ADDGF106991041051008001041001MA1999999102041MD1999999+0211REMSYN070AAXX  15184 83498 32595 61405 10236 20199 30204 40209 84540 333 58021;
0213834980999992008071600004-17733-039250FM-12+000399999V0201801N003110450019N0020001N1+02141+01901102271ADDAA106001091AY161061AY261061GF106991041051008001011001KA1240M+02551MA1999999102221MD1999999+0191MW1211REMSYN100AAXX  16004 83498 21595 61806 10214 20190 30222 40227 72166 84510 333 10255 29083 55049 58019 60011;
0201834980999992008071612004-17733-039250FM-12+000399999V0200901N003110075019N0020001N1+02381+01781102351ADDAA124009991AY161061AY261061GF105991051021008001001001KA1240N+01831MA1999999102301MD1999999+0021MW1211REMSYN088AAXX  16124 83498 21595 50906 10238 20178 30230 40235 72166 85200 333 20183 58002 60104;
0137834980999992008071618004-17733-039250FM-12+000399999V0200901N004612200019N0020001N1+02401+01971102001ADDGF104991021011008001041001MA1999999101951MD1999999-0091REMSYN070AAXX  16184 83498 32595 40909 10240 20197 30195 40200 82140 333 59009;
0168834980999992008071700004-17733-039250FM-12+000399999V0201401N000510450019N0020001N1+02201+01801102191ADDGF106991021011008001051001KA1240M+02511MA1999999102141MD1999999-0081REMSYN088AAXX  17004 83498 32595 61401 10220 20180 30214 40219 82150 333 10251 29076 55083 59008;
0156834980999992008071712004-17733-039250FM-12+000399999V0202301N001510450019N0020001N1+01991+01791102091ADDGF106991041051008001041001KA1240N+01491MA1999999102041MD1999999-0261REMSYN076AAXX  17124 83498 32595 62303 10199 20179 30204 40209 84540 333 20149 59026;
0137834980999992008071718004-17733-039250FM-12+000399999V0201401N002612200019N0020001N1+02361+01951101771ADDGF102991021011008001001001MA1999999101721MD1999999-0231REMSYN070AAXX  17184 83498 32595 21405 10236 20195 30172 40177 82100 333 59023;
0168834980999992008071800004-17733-039250FM-12+000399999V0209999C000012200019N0020001N1+01911+01801101921ADDGF101991011011008001001001KA1240M+02531MA1999999101871MD1999999-0271REMSYN088AAXX  18004 83498 32595 10000 10191 20180 30187 40192 81100 333 10253 29089 55058 59027;
0156834980999992008071812004-17733-039250FM-12+000399999V0202701N001512200019N0020001N1+02081+01741101961ADDGF102991021011008001001001KA1240N+01561MA1999999101911MD1999999-0131REMSYN076AAXX  18124 83498 32595 22703 10208 20174 30191 40196 82100 333 20156 59013;
0137834980999992008071818004-17733-039250FM-12+000399999V0201401N002112200019N0020001N1+02401+01971101711ADDGF104991021011008001031001MA1999999101661MD1999999-0061REMSYN070AAXX  18184 83498 32595 41404 10240 20197 30166 40171 82130 333 59006;
0178834980999992008071900004-17733-039250FM-12+000399999V0209999C000012200019N0020001N1+01861+01511101761ADDGA1001+999999999GF100991001001999999001001KA1240M+02671MA1999999101711MD1999999-0171REMSYN082AAXX  19004 83498 32995 00000 10186 20151 30171 40176 333 10267 29080 55089 59017;
0156834980999992008071912004-17733-039250FM-12+000399999V0203601N001512200019N0020001N1+02461+02111101921ADDGF101991011011008001001001KA1240N+01571MA1999999101871MD1999999-0041REMSYN076AAXX  19124 83498 32595 13603 10246 20211 30187 40192 81100 333 20157 59004;
0137834980999992008071918004-17733-039250FM-12+000399999V0200501N002612200019N0020001N1+02511+01841101691ADDGF101991011011008001001001MA1999999101641MD1999999-0021REMSYN070AAXX  19184 83498 32595 10505 10251 20184 30164 40169 81100 333 59002;
0168834980999992008072000004-17733-039250FM-12+000399999V0209999C000012200019N0020001N1+01881+01691101861ADDGF102991021011008001001001KA1240M+02751MA1999999101811MD1999999+0101REMSYN088AAXX  20004 83498 32595 20000 10188 20169 30181 40186 82100 333 10275 29080 55089 58010;
0156834980999992008072012004-17733-039250FM-12+000399999V0203601N001012200019N0020001N1+02221+01781102071ADDGF102991021011008001001001KA1240N+01481MA1999999102021MD1999999+0151REMSYN076AAXX  20124 83498 32595 23602 10222 20178 30202 40207 82100 333 20148 58015;
0137834980999992008072018004-17733-039250FM-12+000399999V0200501N002612200019N0020001N1+02621+01981101881ADDGF104991021011008001031001MA1999999101831MD1999999+0191REMSYN070AAXX  20184 83498 32595 40505 10262 20198 30183 40188 82130 333 58019;
0178834980999992008072100004-17733-039250FM-12+000399999V0209999C000012200019N0020001N1+01901+01491102001ADDGA1001+999999999GF100991001001999999001001KA1240M+02671MA1999999101951MD1999999+0141REMSYN082AAXX  21004 83498 32995 00000 10190 20149 30195 40200 333 10267 29074 55087 58014;
0156834980999992008072112004-17733-039250FM-12+000399999V0202301N000512200019N0020001N1+02241+01941102141ADDGF102991021011008001001001KA1240N+01551MA1999999102091MD1999999+0071REMSYN076AAXX  21124 83498 32595 22301 10224 20194 30209 40214 82100 333 20155 58007;
0137834980999992008072118004-17733-039250FM-12+000399999V0200901N003110450019N0020001N1+02561+01901101871ADDGF106991041021008001041001MA1999999101821MD1999999-0011REMSYN070AAXX  21184 83498 32595 60906 10256 20190 30182 40187 84240 333 59001;
0168834980999992008072200004-17733-039250FM-12+000399999V0200901N001012200019N0020001N1+01901+01711102011ADDGF102991021001008001031001KA1240M+02631MA1999999101961MD1999999+0011REMSYN088AAXX  22004 83498 32595 20902 10190 20171 30196 40201 82030 333 10263 29082 55086 58001;
0201834980999992008072212004-17733-039250FM-12+000399999V0202701N001010450019N0020001N1+02241+01881102121ADDAA124000891AY161061AY221061GF108991041051008001011999KA1240N+01611MA1999999102071MD1999999-0021MW1211REMSYN088AAXX  22124 83498 21595 82702 10224 20188 30207 40212 72162 8451/ 333 20161 59002 69984;
0137834980999992008072218004-17733-039250FM-12+000399999V0201401N002110450019N0020001N1+02401+01971101931ADDGF108991031051008001011999MA1999999101881MD1999999-0061REMSYN070AAXX  22184 83498 32595 81404 10240 20197 30188 40193 8351/ 333 59006;
0168834980999992008072300004-17733-039250FM-12+000399999V0200501N001510075019N0020001N1+02161+01781101931ADDGF105991051021008001001001KA1240M+02681MA1999999101881MD1999999-0081REMSYN088AAXX  23004 83498 32595 50503 10216 20178 30188 40193 85200 333 10268 29079 55025 59008;
0156834980999992008072312004-17733-039250FM-12+000399999V0203601N001512200019N0020001N1+02451+01861101871ADDGF101991011011008001001001KA1240N+01671MA1999999101821MD1999999-0251REMSYN076AAXX  23124 83498 32595 13603 10245 20186 30182 40187 81100 333 20167 59025;
0137834980999992008072318004-17733-039250FM-12+000399999V0200501N003112200019N0020001N1+02631+01931101581ADDGF102991011011008001001011MA1999999101531MD1999999-0351REMSYN070AAXX  23184 83498 32595 20506 10263 20193 30153 40158 81101 333 59035;
0178834980999992008072400004-17733-039250FM-12+000399999V0200501N001012200019N0020001N1+02101+01911101681ADDGA1001+999999999GF100991001001999999001001KA1240M+02711MA1999999101631MD1999999-0251REMSYN082AAXX  24004 83498 32995 00502 10210 20191 30163 40168 333 10271 29079 55086 59025;
0156834980999992008072412004-17733-039250FM-12+000399999V0203201N002112200019N0020001N1+02201+01841101751ADDGF102991021011008001001001KA1240N+01621MA1999999101701MD1999999-0121REMSYN076AAXX  24124 83498 32595 23204 10220 20184 30170 40175 82100 333 20162 59012;
0137834980999992008072418004-17733-039250FM-12+000399999V0200501N003112200019N0020001N1+02521+02151101491ADDGF104991021011008001031001MA1999999101441MD1999999-0091REMSYN070AAXX  24184 83498 32595 40506 10252 20215 30144 40149 82130 333 59009;
0178834980999992008072500004-17733-039250FM-12+000399999V0209999C000012200019N0020001N1+02021+01681101721ADDGA1001+999999999GF100991001001999999001001KA1240M+02751MA1999999101671MD1999999+0041REMSYN082AAXX  25004 83498 32995 00000 10202 20168 30167 40172 333 10275 29080 55085 58004;
0156834980999992008072512004-17733-039250FM-12+000399999V0203201N001512200019N0020001N1+02431+01931101751ADDGF101991011011008001001001KA1240N+01541MA1999999101701MD1999999+0001REMSYN076AAXX  25124 83498 32595 13203 10243 20193 30170 40175 81100 333 20154 58000;
0137834980999992008072518004-17733-039250FM-12+000399999V0200501N001512200019N0020001N1+02601+01891101551ADDGF101991011011008001001001MA1999999101501MD1999999+0061REMSYN070AAXX  25184 83498 32595 10503 10260 20189 30150 40155 81100 333 58006;
0178834980999992008072600004-17733-039250FM-12+000399999V0209999C000012200019N0020001N1+01861+01731101711ADDGA1001+999999999GF100991001001999999001001KA1240M+02711MA1999999101661MD1999999-0011REMSYN082AAXX  26004 83498 32995 00000 10186 20173 30166 40171 333 10271 29081 55089 59001;
0156834980999992008072612004-17733-039250FM-12+000399999V0202301N000510450019N0020001N1+02201+01861102061ADDGF105991021011008001051001KA1240N+01401MA1999999102011MD1999999+0311REMSYN076AAXX  26124 83498 32595 52301 10220 20186 30201 40206 82150 333 20140 58031;
0137834980999992008072618004-17733-039250FM-12+000399999V0200501N002110450019N0020001N1+02541+02111101761ADDGF106991031011008001031001MA1999999101711MD1999999+0211REMSYN070AAXX  26184 83498 32595 60504 10254 20211 30171 40176 83130 333 58021;
0213834980999992008072700004-17733-039250FM-12+000399999V0201801N004110075019N0020001N1+02221+01821102121ADDAA106008991AY161061AY221061GF108991051071008001021999KA1240M+02641MA1999999102071MD1999999+0411MW1631REMSYN100AAXX  27004 83498 21595 81808 10222 20182 30207 40212 76362 8572/ 333 10264 29078 55047 58041 60091;
0201834980999992008072712004-17733-039250FM-12+000399999V0201401N003110075019N0020001N1+02361+01931102241ADDAA124013091AY121061AY211061GF107991051051008001011001KA1240N+01941MA1999999102191MD1999999+0181MW1031REMSYN088AAXX  27124 83498 21595 71406 10236 20193 30219 40224 70321 85510 333 20194 58018 60134;
0137834980999992008072718004-17733-039250FM-12+000399999V0201401N003110075019N0020001N1+02391+01711102071ADDGF107991051051008001011001MA1999999102021MD1999999+0311REMSYN070AAXX  27184 83498 32595 71406 10239 20171 30202 40207 85510 333 58031;
0168834980999992008072800004-17733-039250FM-12+000399999V0201401N002112200019N0020001N1+02181+01741102221ADDGF103991031051008001001001KA1240M+02491MA1999999102171MD1999999+0101REMSYN088AAXX  28004 83498 32595 31404 10218 20174 30217 40222 83500 333 10249 29074 55029 58010;
0156834980999992008072812004-17733-039250FM-12+000399999V0202301N001010450019N0020001N1+02021+01621102331ADDGF106991021011008001041001KA1240N+01351MA1999999102281MD1999999+0091REMSYN076AAXX  28124 83498 32595 62302 10202 20162 30228 40233 82140 333 20135 58009;
0137834980999992008072818004-17733-039250FM-12+000399999V0201401N003110450019N0020001N1+02381+01951102111ADDGF105991031011008001031001MA1999999102061MD1999999+0041REMSYN070AAXX  28184 83498 32595 51406 10238 20195 30206 40211 83130 333 58004;
0178834980999992008072900004-17733-039250FM-12+000399999V0209999C000012200019N0020001N1+01881+01471102141ADDGA1001+999999999GF100991001001999999001001KA1240M+02571MA1999999102091MD1999999-0081REMSYN082AAXX  29004 83498 32995 00000 10188 20147 30209 40214 333 10257 29077 55057 59008;
0156834980999992008072912004-17733-039250FM-12+000399999V0202301N001512200019N0020001N1+02171+01821102161ADDGF101991011011008001001001KA1240N+01371MA1999999102111MD1999999-0171REMSYN076AAXX  29124 83498 32595 12303 10217 20182 30211 40216 81100 333 20137 59017;
0137834980999992008072918004-17733-039250FM-12+000399999V0200901N001512200019N0020001N1+02481+01901101791ADDGF102991021011008001001001MA1999999101741MD1999999-0321REMSYN070AAXX  29184 83498 32595 20903 10248 20190 30174 40179 82100 333 59032;
0178834980999992008073000004-17733-039250FM-12+000399999V0209999C000012200019N0020001N1+01911+01771101911ADDGA1001+999999999GF100991001001999999001001KA1240M+02561MA1999999101861MD1999999-0231REMSYN082AAXX  30004 83498 32995 00000 10191 20177 30186 40191 333 10256 29084 55090 59023;
0156834980999992008073012004-17733-039250FM-12+000399999V0202701N001010450019N0020001N1+02061+01701101911ADDGF106991021011008001051001KA1240N+01571MA1999999101861MD1999999-0251REMSYN076AAXX  30124 83498 32595 62702 10206 20170 30186 40191 82150 333 20157 59025;
0137834980999992008073018004-17733-039250FM-12+000399999V0201401N002110450019N0020001N1+02461+02031101631ADDGF105991021011008001031001MA1999999101581MD1999999-0161REMSYN070AAXX  30184 83498 32595 51404 10246 20203 30158 40163 82130 333 59016;
0178834980999992008073100004-17733-039250FM-12+000399999V0209999C000012200019N0020001N1+01981+01611101721ADDGA1001+999999999GF100991001001999999001001KA1240M+02571MA1999999101671MD1999999-0191REMSYN082AAXX  31004 83498 32995 00000 10198 20161 30167 40172 333 10257 29079 55035 59019;
0175834980999992008073112004-17733-039250FM-12+000399999V0203601N001512200019N0020001N1+02231+02021101861ADDGF102991001001999999001011KA1240N+01571MA1999999101811MD1999999-0051REMSYN076AAXX  31124 83498 32595 23603 10223 20202 30181 40186 80001 333 20157 59005;EQDQ01+008002SCOLCB
0137834980999992008073118004-17733-039250FM-12+000399999V0203601N003112200019N0020001N1+02571+01991101601ADDGF105991031021008001001011MA1999999101551MD1999999-0031REMSYN070AAXX  31184 83498 32595 53606 10257 20199 30155 40160 83201 333 59003;
0178834980999992008080100004-17733-039250FM-12+000399999V0200901N000510012019N0020001N1+02181+01921101821ADDGA1091+999999999GF109991091999999999999999KA1240M+02731MA1999999101771MD1999999+0101REMSYN082AAXX  01004 83498 32/95 90901 10218 20192 30177 40182 333 10273 29083 55077 58010;
0201834980999992008080112004-17733-039250FM-12+000399999V0200501N001011050019N0020001N1+02221+01901101891ADDAA124000591AY161061AY221061GF106991021011008001001021KA1240N+01771MA1999999101841MD1999999+0031MW1211REMSYN088AAXX  01124 83498 21595 60502 10222 20190 30184 40189 72162 82102 333 20177 58003 69954;
0137834980999992008080118004-17733-039250FM-12+000399999V0200501N002110450019N0020001N1+02561+02171101531ADDGF105991031011008001041001MA1999999101481MD1999999-0071REMSYN070AAXX  01184 83498 32595 50504 10256 20217 30148 40153 83140 333 59007;
0168834980999992008080200004-17733-039250FM-12+000399999V0200501N001012200019N0020001N1+01901+01511101791ADDGF102991021011008001001001KA1240M+02691MA1999999101741MD1999999-0031REMSYN088AAXX  02004 83498 32595 20502 10190 20151 30174 40179 82100 333 10269 29079 55021 59003;
0156834980999992008080212004-17733-039250FM-12+000399999V0203601N001512200019N0020001N1+02441+02071101711ADDGF104991031021008001041001KA1240N+01571MA1999999101661MD1999999-0181REMSYN076AAXX  02124 83498 32595 43603 10244 20207 30166 40171 83240 333 20157 59018;
0137834980999992008080218004-17733-039250FM-12+000399999V0200501N003110450019N0020001N1+02571+01971101301ADDGF106991041021008001041001MA1999999101251MD1999999-0231REMSYN070AAXX  02184 83498 32595 60506 10257 20197 30125 40130 84240 333 59023;
0178834980999992008080300004-17733-039250FM-12+000399999V0203601N001512200019N0020001N1+02181+02011101471ADDGA1001+999999999GF100991001001999999001001KA1240M+02731MA1999999101421MD1999999-0321REMSYN082AAXX  03004 83498 32995 03603 10218 20201 30142 40147 333 10273 29083 55025 59032;
0156834980999992008080312004-17733-039250FM-12+000399999V0203601N004110450019N0020001N1+02361+01991101441ADDGF107991041021008001041001KA1240N+01871MA1999999101391MD1999999-0261REMSYN076AAXX  03124 83498 32595 73608 10236 20199 30139 40144 84240 333 20187 59026;
0137834980999992008080318004-17733-039250FM-12+000399999V0200501N004110450019N0020001N1+02601+02191101151ADDGF105991021011008001041001MA1999999101101MD1999999-0151REMSYN070AAXX  03184 83498 32595 50508 10260 20219 30110 40115 82140 333 59015;
0168834980999992008080400004-17733-039250FM-12+000399999V0203601N004612200019N0020001N1+02361+01951101181ADDGF101991011011008001001001KA1240M+02871MA1999999101131MD1999999-0291REMSYN088AAXX  04004 83498 32595 13609 10236 20195 30113 40118 81100 333 10287 29078 55082 59029;
0175834980999992008080412004-17733-039250FM-12+000399999V0203601N003112200019N0020001N1+02681+02181101311ADDGF103991001001999999001011KA1240N+02021MA1999999101261MD1999999-0131REMSYN076AAXX  04124 83498 32595 33606 10268 20218 30126 40131 80001 333 20202 59013;EQDQ01+008002SCOLCB
0137834980999992008080418004-17733-039250FM-12+000399999V0201401N002110075019N0020001N1+02531+02191101311ADDGF107991051051008001011001MA1999999101261MD1999999+0161REMSYN070AAXX  04184 83498 32595 71404 10253 20219 30126 40131 85510 333 58016;
0168834980999992008080500004-17733-039250FM-12+000399999V0209999C000010075019N0020001N1+02461+02321101641ADDGF108991051051008001021999KA1240M+02951MA1999999101591MD1999999+0461REMSYN088AAXX  05004 83498 32595 80000 10246 20232 30159 40164 8552/ 333 10295 29085 55058 58046;
0201834980999992008080512004-17733-039250FM-12+000399999V0203601N003610450019N0020001N1+02481+02111101861ADDAA124000021AY161061AY221061GF106991021011008001041011KA1240N+02161MA1999999101811MD1999999+0551MW1211REMSYN088AAXX  05124 83498 21595 63607 10248 20211 30181 40186 72162 82141 333 20216 58055 69924;
0137834980999992008080518004-17733-039250FM-12+000399999V0200501N003112200019N0020001N1+02561+02151101701ADDGF105991031011008001001011MA1999999101651MD1999999+0391REMSYN070AAXX  05184 83498 32595 50506 10256 20215 30165 40170 83101 333 58039;
0168834980999992008080600004-17733-039250FM-12+000399999V0200501N001012200019N0020001N1+02461+02091101791ADDGF102991021011008001001001KA1240M+02831MA1999999101741MD1999999+0151REMSYN088AAXX  06004 83498 32595 20502 10246 20209 30174 40179 82100 333 10283 29080 55070 58015;
0156834980999992008080612004-17733-039250FM-12+000399999V0209999C000010450019N0020001N1+02481+02151101881ADDGF106991041051008001041001KA1240N+01791MA1999999101831MD1999999+0021REMSYN076AAXX  06124 83498 32595 60000 10248 20215 30183 40188 84540 333 20179 58002;
0137834980999992008080618004-17733-039250FM-12+000399999V0200901N003112200019N0020001N1+02611+01941101651ADDGF102991021011008001001001MA1999999101601MD1999999-0051REMSYN070AAXX  06184 83498 32595 20906 10261 20194 30160 40165 82100 333 59005;
0168834980999992008080700004-17733-039250FM-12+000399999V0209999C000012200019N0020001N1+02061+01911101831ADDGF102991021011008001001001KA1240M+02751MA1999999101781MD1999999+0041REMSYN088AAXX  07004 83498 32595 20000 10206 20191 30178 40183 82100 333 10275 29083 55083 58004;
0156834980999992008080712004-17733-039250FM-12+000399999V0200501N001510075019N0020001N1+02001+01441101911ADDGF105991051021008001001001KA1240N+01701MA1999999101861MD1999999+0031REMSYN076AAXX  07124 83498 32595 50503 10200 20144 30186 40191 85200 333 20170 58003;
0137834980999992008080718004-17733-039250FM-12+000399999V0200901N002112200019N0020001N1+02481+02051101651ADDGF104991021011008001041001MA1999999101601MD1999999+0001REMSYN070AAXX  07184 83498 32595 40904 10248 20205 30160 40165 82140 333 58000;
0156834980999992008080812004-17733-039250FM-12+000399999V0202701N001512200019N0020001N1+02481+02071101841ADDGF105991031021008001001011KA1240N+01681MA1999999101791MD1999999-0071REMSYN076AAXX  08124 83498 32595 52703 10248 20207 30179 40184 83201 333 20168 59007;
0137834980999992008080818004-17733-039250FM-12+000399999V0200501N003112200019N0020001N1+02591+02121101491ADDGF102991021011008001001001MA1999999101441MD1999999-0161REMSYN070AAXX  08184 83498 32595 20506 10259 20212 30144 40149 82100 333 59016;
0187834980999992008080900004-17733-039250FM-12+000399999V0209999C000012200019N0020001N1+01941+01821101721ADDGF101991001001999999001011KA1240M+02741MA1999999101671MD1999999+0031REMSYN088AAXX  09004 83498 32595 10000 10194 20182 30167 40172 80001 333 10274 29085 55062 58003;EQDQ01+008002SCOLCB
0156834980999992008080912004-17733-039250FM-12+000399999V0202701N001010450019N0020001N1+02181+01841101951ADDGF105991021011008001041001KA1240N+01601MA1999999101901MD1999999+0111REMSYN076AAXX  09124 83498 32595 52702 10218 20184 30190 40195 82140 333 20160 58011;
0137834980999992008080918004-17733-039250FM-12+000399999V0200501N002612200019N0020001N1+02561+02151101681ADDGF104991031011008001031001MA1999999101631MD1999999+0221REMSYN070AAXX  09184 83498 32595 40505 10256 20215 30163 40168 83130 333 58022;
0178834980999992008081000004-17733-039250FM-12+000399999V0209999C000012200019N0020001N1+02121+01781101831ADDGA1001+999999999GF100991001001999999001001KA1240M+02691MA1999999101781MD1999999+0111REMSYN082AAXX  10004 83498 32995 00000 10212 20178 30178 40183 333 10269 29080 55073 58011;
0156834980999992008081012004-17733-039250FM-12+000399999V0200501N002112200019N0020001N1+02491+01981101841ADDGF104991031021008001001011KA1240N+01621MA1999999101791MD1999999-0111REMSYN076AAXX  10124 83498 32595 40504 10249 20198 30179 40184 83201 333 20162 59011;
0137834980999992008081018004-17733-039250FM-12+000399999V0200501N003112200019N0020001N1+02711+01881101581ADDGF102991011011008001001011MA1999999101531MD1999999-0101REMSYN070AAXX  10184 83498 32595 20506 10271 20188 30153 40158 81101 333 59010;
0178834980999992008081100004-17733-039250FM-12+000399999V0209999C000012200019N0020001N1+02111+01861101811ADDGA1001+999999999GF100991001001999999001001KA1240M+02791MA1999999101761MD1999999-0021REMSYN082AAXX  11004 83498 32995 00000 10211 20186 30176 40181 333 10279 29077 55096 59002;
0156834980999992008081112004-17733-039250FM-12+000399999V0202701N001510450019N0020001N1+02121+01761102011ADDGF105991031021008001041001KA1240N+01721MA1999999101961MD1999999+0171REMSYN076AAXX  11124 83498 32595 52703 10212 20176 30196 40201 83240 333 20172 58017;
0137834980999992008081118004-17733-039250FM-12+000399999V0200501N002612200019N0020001N1+02701+02131101771ADDGF104991021011008001031001MA1999999101721MD1999999+0191REMSYN070AAXX  11184 83498 32595 40505 10270 20213 30172 40177 82130 333 58019;
0168834980999992008081200004-17733-039250FM-12+000399999V0200501N001012200019N0020001N1+02141+01721101851ADDGF101991011011008001001001KA1240M+02691MA1999999101801MD1999999+0041REMSYN088AAXX  12004 83498 32595 10502 10214 20172 30180 40185 81100 333 10269 29076 55092 58004;
0156834980999992008081212004-17733-039250FM-12+000399999V0200901N003112200019N0020001N1+02591+02011101961ADDGF104991031021008001041001KA1240N+01721MA1999999101911MD1999999-0051REMSYN076AAXX  12124 83498 32595 40906 10259 20201 30191 40196 83240 333 20172 59005;
0137834980999992008081218004-17733-039250FM-12+000399999V0200901N003112200019N0020001N1+02641+01931101671ADDGF102991021011008001001001MA1999999101621MD1999999-0101REMSYN070AAXX  12184 83498 32595 20906 10264 20193 30162 40167 82100 333 59010;
0168834980999992008081300004-17733-039250FM-12+000399999V0209999C000012200019N0020001N1+02021+01801102001ADDGF102991021011008001001001KA1240M+02751MA1999999101951MD1999999+0151REMSYN088AAXX  13004 83498 32595 20000 10202 20180 30195 40200 82100 333 10275 29078 55092 58015;
0156834980999992008081312004-17733-039250FM-12+000399999V0202301N000512200019N0020001N1+02221+01861102031ADDGF104991021011008001001011KA1240N+01501MA1999999101981MD1999999+0071REMSYN076AAXX  13124 83498 32595 42301 10222 20186 30198 40203 82101 333 20150 58007;
0137834980999992008081318004-17733-039250FM-12+000399999V0200501N002110450019N0020001N1+02541+02111101671ADDGF105991021011008001041001MA1999999101621MD1999999+0001REMSYN070AAXX  13184 83498 32595 50504 10254 20211 30162 40167 82140 333 58000;
0168834980999992008081400004-17733-039250FM-12+000399999V0200501N001011050019N0020001N1+02121+01721101981ADDGF105991031011008001001021KA1240M+02701MA1999999101931MD1999999-0041REMSYN088AAXX  14004 83498 32595 50502 10212 20172 30193 40198 83102 333 10270 29078 55063 59004;
0201834980999992008081412004-17733-039250FM-12+000399999V0200501N000510075019N0020001N1+02521+02131102181ADDAA124003091AY121061AY211061GF107991051051008001011001KA1240N+01821MA1999999102131MD1999999+0151MW1031REMSYN088AAXX  14124 83498 21595 70501 10252 20213 30213 40218 70321 85510 333 20182 58015 60034;
0137834980999992008081418004-17733-039250FM-12+000399999V0200501N003112200019N0020001N1+02611+02011101921ADDGF102991011011008001001011MA1999999101871MD1999999+0251REMSYN070AAXX  14184 83498 32595 20506 10261 20201 30187 40192 81101 333 58025;
0168834980999992008081500004-17733-039250FM-12+000399999V0200901N001012200019N0020001N1+02321+02001102151ADDGF103991031021008001001001KA1240M+02701MA1999999102101MD1999999+0171REMSYN088AAXX  15004 83498 32595 30902 10232 20200 30210 40215 83200 333 10270 29078 55071 58017;
0201834980999992008081512004-17733-039250FM-12+000399999V0200901N003610450019N0020001N1+02401+01991102231ADDAA124000591AY161061AY221061GF107991021011008001041011KA1240N+01931MA1999999102181MD1999999+0051MW1211REMSYN088AAXX  15124 83498 21595 70907 10240 20199 30218 40223 72162 82141 333 20193 58005 69964;
0182834980999992008081518004-17733-039250FM-12+000399999V0201401N004110450019N0020001N1+02601+02191101871ADDAA106002091AY161061AY261061GF105991031011008001041001MA1999999101821MD1999999-0051MW1211REMSYN082AAXX  15184 83498 21595 51408 10260 20219 30182 40187 72166 83140 333 59005 60021;
0213834980999992008081600004-17733-039250FM-12+000399999V0200501N001512200019N0020001N1+02301+01871101991ADDAA106000021AY101061AY201061GF103991031011008001001001KA1240M+02511MA1999999101941MD1999999-0161MW1311REMSYN100AAXX  16004 83498 21595 30503 10230 20187 30194 40199 73100 83100 333 10251 29087 55008 59016 69921;
0201834980999992008081612004-17733-039250FM-12+000399999V0203601N003110450019N0020001N1+02491+02031102111ADDAA124006191AY121061AY211061GF106991041051008001041001KA1240N+01721MA1999999102061MD1999999-0121MW1031REMSYN088AAXX  16124 83498 21595 63606 10249 20203 30206 40211 70321 84540 333 20172 59012 60064;
0137834980999992008081618004-17733-039250FM-12+000399999V0200501N002612200019N0020001N1+02551+01951101751ADDGF104991021021008001041001MA1999999101471MD1999999-0121REMSYN070AAXX  16184 83498 32595 40505 10255 20195 30147 40175 82240 333 59012;
0213834980999992008081700004-17733-039250FM-12+000399999V0200501N001010450019N0020001N1+02241+01991101921ADDAA106000391AY121061AY211061GF107991041051008001011001KA1240M+02701MA1999999101871MD1999999-0071MW1031REMSYN100AAXX  17004 83498 21595 70502 10224 20199 30187 40192 70321 84510 333 10270 29080 55061 59007 69931;
0201834980999992008081712004-17733-039250FM-12+000399999V0200501N002610450019N0020001N1+02121+01781102091ADDAA124000591AY161061AY261061GF108991041061008001011001KA1240N+01801MA1999999102041MD1999999-0021MW1211REMSYN088AAXX  17124 83498 21595 80505 10212 20178 30204 40209 72166 84610 333 20180 59002 69964;
0182834980999992008081718004-17733-039250FM-12+000399999V0201401N003110450019N0020001N1+02501+02071101801ADDAA106000021AY161061AY261061GF106991031051008001011001MA1999999101751MD1999999+0051MW1211REMSYN082AAXX  17184 83498 21595 61406 10250 20207 30175 40180 72166 83510 333 58005 69921;
0168834980999992008081800004-17733-039250FM-12+000399999V0200901N000512200019N0020001N1+02061+01701101931ADDGF103991021011008001041001KA1240M+02591MA1999999101881MD1999999+0011REMSYN088AAXX  18004 83498 32595 30901 10206 20170 30188 40193 82140 333 10259 29080 55010 58001;
0201834980999992008081812004-17733-039250FM-12+000399999V0200901N003110450019N0020001N1+02481+01961102031ADDAA124000591AY121061AY211061GF106991041051008001041001KA1240N+01691MA1999999101981MD1999999-0061MW1031REMSYN088AAXX  18124 83498 21595 60906 10248 20196 30198 40203 70321 84540 333 20169 59006 69964;
0137834980999992008081818004-17733-039250FM-12+000399999V0200901N003112200019N0020001N1+02611+01941101831ADDGF103991031011008001001001MA1999999101781MD1999999+0031REMSYN070AAXX  18184 83498 32595 30906 10261 20194 30178 40183 83100 333 58003;
0168834980999992008081900004-17733-039250FM-12+000399999V0200901N001510450019N0020001N1+02271+01961101981ADDGF106991031061008001011001KA1240M+02681MA1999999101931MD1999999+0051REMSYN088AAXX  19004 83498 32595 60903 10227 20196 30193 40198 83610 333 10268 29077 55072 58005;
0156834980999992008081912004-17733-039250FM-12+000399999V0200901N004110075019N0020001N1+02481+01901102031ADDGF105991051021008001001001KA1240N+01881MA1999999101981MD1999999+0001REMSYN076AAXX  19124 83498 32595 50908 10248 20190 30198 40203 85200 333 20188 58000;
0137834980999992008081918004-17733-039250FM-12+000399999V0200901N003612200019N0020001N1+02621+02211101801ADDGF104991021011008001041001MA1999999101751MD1999999-0031REMSYN070AAXX  19184 83498 32595 40907 10262 20221 30175 40180 82140 333 59003;
0213834980999992008082000004-17733-039250FM-12+000399999V0203601N003110450019N0020001N1+02141+01781101931ADDAA106002091AY161061AY221061GF108991041061008001011999KA1240M+02841MA1999999101881MD1999999-0051MW1211REMSYN100AAXX  20004 83498 21595 83606 10214 20178 30188 40193 72162 8461/ 333 10284 29078 55077 59005 60021;
0201834980999992008082012004-17733-039250FM-12+000399999V0203601N003110450019N0020001N1+02181+02011101961ADDAA124003091AY121061AY211061GF107991041051008001011001KA1240N+01721MA1999999101911MD1999999-0071MW1031REMSYN088AAXX  20124 83498 21595 73606 10218 20201 30191 40196 70321 84510 333 20172 59007 60034;
0182834980999992008082018004-17733-039250FM-12+000399999V0200901N003110450019N0020001N1+02401+01931101721ADDAA106000891AY121061AY211061GF106991041051008001041001MA1999999101671MD1999999-0081MW1031REMSYN082AAXX  20184 83498 21595 60906 10240 20193 30167 40172 70321 84540 333 59008 69981;
0168834980999992008082100004-17733-039250FM-12+000399999V0200901N001512200019N0020001N1+02281+01811101861ADDGF102991021041008001001001KA1240M+02551MA1999999101811MD1999999-0071REMSYN088AAXX  21004 83498 32595 20903 10228 20181 30181 40186 82400 333 10255 29079 55013 59007;
0173834980999992008082112004-17733-039250FM-12+000399999V0202301N000510450019N0020001N1+02201+01801101941ADDAA124000891GF106991041021008001041001KA1240N+01501MA1999999101891MD1999999-0021REMSYN082AAXX  21124 83498 22595 62301 10220 20180 30189 40194 84240 333 20150 59002 69984;
0137834980999992008082118004-17733-039250FM-12+000399999V0200901N002610450019N0020001N1+02481+02051101751ADDGF105991021011008001041001MA1999999101701MD1999999+0031REMSYN070AAXX  21184 83498 32595 50905 10248 20205 30170 40175 82140 333 58003;
0168834980999992008082200004-17733-039250FM-12+000399999V0200901N001012200019N0020001N1+02161+01781101751ADDGF101991011011008001001001KA1240M+02641MA1999999101701MD1999999-0111REMSYN088AAXX  22004 83498 32595 10902 10216 20178 30170 40175 81100 333 10264 29078 55075 59011;
0156834980999992008082212004-17733-039250FM-12+000399999V0200501N001012200019N0020001N1+02411+02071101821ADDGF104991031021008001001011KA1240N+01671MA1999999101771MD1999999-0121REMSYN076AAXX  22124 83498 32595 40502 10241 20207 30177 40182 83201 333 20167 59012;
0137834980999992008082218004-17733-039250FM-12+000399999V0200501N004112200019N0020001N1+02571+02041101541ADDGF103991031011008001001001MA1999999101491MD1999999-0211REMSYN070AAXX  22184 83498 32595 30508 10257 20204 30149 40154 83100 333 59021;
0168834980999992008082300004-17733-039250FM-12+000399999V0209999C000012200019N0020001N1+02081+01841101801ADDGF102991021011008001001001KA1240M+02731MA1999999101751MD1999999+0051REMSYN088AAXX  23004 83498 32595 20000 10208 20184 30175 40180 82100 333 10273 29081 55084 58005;
0156834980999992008082312004-17733-039250FM-12+000399999V0201801N000512200019N0020001N1+02341+01931102061ADDGF103991031011008001001001KA1240N+01681MA1999999102011MD1999999+0241REMSYN076AAXX  23124 83498 32595 31801 10234 20193 30201 40206 83100 333 20168 58024;
0137834980999992008082318004-17733-039250FM-12+000399999V0200901N001512200019N0020001N1+02581+02171101801ADDGF102991021011008001001001MA1999999101751MD1999999+0251REMSYN070AAXX  23184 83498 32595 20903 10258 20217 30175 40180 82100 333 58025;
0168834980999992008082400004-17733-039250FM-12+000399999V0200901N001512200019N0020001N1+02281+01881101971ADDGF102991021011008001001001KA1240M+02671MA1999999101921MD1999999+0171REMSYN088AAXX  24004 83498 32595 20903 10228 20188 30192 40197 82100 333 10267 29078 55099 58017;
0201834980999992008082412004-17733-039250FM-12+000399999V0200901N003110450019N0020001N1+02161+02021102081ADDAA124002091AY161061AY261061GF108991031071008001021999KA1240N+01721MA1999999102031MD1999999+0021MW1211REMSYN088AAXX  24124 83498 21595 80906 10216 20202 30203 40208 72166 8372/ 333 20172 58002 60024;
0182834980999992008082418004-17733-039250FM-12+000399999V0201401N003110075019N0020001N1+02381+01951101871ADDAA106004191AY161061AY261061GF108991051051008001021999MA1999999101821MD1999999+0071MW1211REMSYN082AAXX  24184 83498 21595 81406 10238 20195 30182 40187 72166 8552/ 333 58007 60041;
0168834980999992008082500004-17733-039250FM-12+000399999V0200901N003610075019N0020001N1+02281+01811102041ADDGF108991051051008001021999KA1240M+02421MA1999999101991MD1999999+0071REMSYN088AAXX  25004 83498 32595 80907 10228 20181 30199 40204 8552/ 333 10242 29080 55000 58007;
0173834980999992008082512004-17733-039250FM-12+000399999V0201401N002110450019N0020001N1+02321+01811102031ADDAA124004191GF106991041051008001011001KA1240N+01921MA1999999101981MD1999999-0051REMSYN082AAXX  25124 83498 22595 61404 10232 20181 30198 40203 84510 333 20192 59005 60044;
0137834980999992008082518004-17733-039250FM-12+000399999V0200901N003110450019N0020001N1+02401+01971101761ADDGF106991031051008001011001MA1999999101711MD1999999-0111REMSYN070AAXX  25184 83498 32595 60906 10240 20197 30171 40176 83510 333 59011;
0168834980999992008082600004-17733-039250FM-12+000399999V0200901N001012200019N0020001N1+02241+01821101891ADDGF101991011011008001001001KA1240M+02491MA1999999101841MD1999999-0151REMSYN088AAXX  26004 83498 32595 10902 10224 20182 30184 40189 81100 333 10249 29076 55005 59015;
0156834980999992008082612004-17733-039250FM-12+000399999V0202301N000512200019N0020001N1+02281+02141101811ADDGF102991021011008001001001KA1240N+01571MA1999999101761MD1999999-0221REMSYN076AAXX  26124 83498 32595 22301 10228 20214 30176 40181 82100 333 20157 59022;
0137834980999992008082618004-17733-039250FM-12+000399999V0201401N003112200019N0020001N1+02511+02091101411ADDGF103991031011008001001001MA1999999101361MD1999999-0451REMSYN070AAXX  26184 83498 32595 31406 10251 20209 30136 40141 83100 333 59045;
0178834980999992008082700004-17733-039250FM-12+000399999V0200501N000512200019N0020001N1+02051+01871101591ADDGA1001+999999999GF100991001001999999001001KA1240M+02641MA1999999101541MD1999999-0301REMSYN082AAXX  27004 83498 32995 00501 10205 20187 30154 40159 333 10264 29088 55094 59030;
0156834980999992008082712004-17733-039250FM-12+000399999V0203201N002110450019N0020001N1+02341+02001101571ADDGF105991031011008001031001KA1240N+01581MA1999999101521MD1999999-0241REMSYN076AAXX  27124 83498 32595 53204 10234 20200 30152 40157 83130 333 20158 59024;
0137834980999992008082718004-17733-039250FM-12+000399999V0200501N003612200019N0020001N1+02481+02051101231ADDGF104991021011008001041001MA1999999101181MD1999999-0181REMSYN070AAXX  27184 83498 32595 40507 10248 20205 30118 40123 82140 333 59018;
0168834980999992008082800004-17733-039250FM-12+000399999V0200501N000512200019N0020001N1+02101+01721101581ADDGF103991031011008001001001KA1240M+02791MA1999999101531MD1999999-0011REMSYN088AAXX  28004 83498 32595 30501 10210 20172 30153 40158 83100 333 10279 29079 55089 59001;
0156834980999992008082812004-17733-039250FM-12+000399999V0209999C000010075019N0020001N1+02141+02061101691ADDGF108991051051008001021999KA1240N+01751MA1999999101641MD1999999+0121REMSYN076AAXX  28124 83498 32595 80000 10214 20206 30164 40169 8552/ 333 20175 58012;
0137834980999992008082818004-17733-039250FM-12+000399999V0200901N003112200019N0020001N1+02571+01991101351ADDGF102991011011008001041001MA1999999101301MD1999999+0121REMSYN070AAXX  28184 83498 32595 20906 10257 20199 30130 40135 81140 333 58012;
0178834980999992008082900004-17733-039250FM-12+000399999V0209999C000012200019N0020001N1+02061+01911101551ADDGA1001+999999999GF100991001001999999001001KA1240M+02711MA1999999101501MD1999999-0031REMSYN082AAXX  29004 83498 32995 00000 10206 20191 30150 40155 333 10271 29087 55029 59003;
0156834980999992008082912004-17733-039250FM-12+000399999V0202701N001512200019N0020001N1+02401+01951101681ADDGF103991031011008001001001KA1240N+01651MA1999999101631MD1999999-0011REMSYN076AAXX  29124 83498 32595 32703 10240 20195 30163 40168 83100 333 20165 59001;
0137834980999992008082918004-17733-039250FM-12+000399999V0200501N002612200019N0020001N1+02601+02191101271ADDGF102991021011008001001001MA1999999101221MD1999999-0081REMSYN070AAXX  29184 83498 32595 20505 10260 20219 30122 40127 82100 333 59008;
0168834980999992008083000004-17733-039250FM-12+000399999V0200501N001012200019N0020001N1+02201+01781101371ADDGF102991021011008001001001KA1240M+02791MA1999999101321MD1999999-0181REMSYN088AAXX  30004 83498 32595 20502 10220 20178 30132 40137 82100 333 10279 29077 55053 59018;
0156834980999992008083012004-17733-039250FM-12+000399999V0203601N001510450019N0020001N1+02541+02091101581ADDGF105991041021008001031001KA1240N+01711MA1999999101531MD1999999-0101REMSYN076AAXX  30124 83498 32595 53603 10254 20209 30153 40158 84230 333 20171 59010;
0137834980999992008083018004-17733-039250FM-12+000399999V0200501N002612200019N0020001N1+02671+02001101271ADDGF103991021011008001001011MA1999999101221MD1999999+0001REMSYN070AAXX  30184 83498 32595 30505 10267 20200 30122 40127 82101 333 58000;
0178834980999992008083100004-17733-039250FM-12+000399999V0209999C000012200019N0020001N1+02081+01891101581ADDGA1001+999999999GF100991001001999999001001KA1240M+02811MA1999999101531MD1999999+0211REMSYN082AAXX  31004 83498 32995 00000 10208 20189 30153 40158 333 10281 29080 55033 58021;
0201834980999992008083112004-17733-039250FM-12+000399999V0200501N003610075019N0020001N1+02341+01871101661ADDAA124006191AY161061AY221061GF105991051021008001001001KA1240N+01781MA1999999101611MD1999999+0081MW1211REMSYN088AAXX  31124 83498 21595 50507 10234 20187 30161 40166 72162 85200 333 20178 58008 60064;
0137834980999992008083118004-17733-039250FM-12+000399999V0200501N004112200019N0020001N1+02601+02191101271ADDGF104991021011008001031001MA1999999101221MD1999999+0001REMSYN070AAXX  31184 83498 32595 40508 10260 20219 30122 40127 82130 333 58000;
0168834980999992008090100004-17733-039250FM-12+000399999V0201801N004612200019N0020001N1+02201+01871101731ADDGF104991041021008001001001KA1240M+02651MA1999999101681MD1999999+0151REMSYN088AAXX  01004 83498 32595 41809 10220 20187 30168 40173 84200 333 10265 29077 55065 58015;
0156834980999992008090112004-17733-039250FM-12+000399999V0201801N005110075019N0020001N1+02401+01821101931ADDGF108991051051008001021999KA1240N+02161MA1999999101881MD1999999+0271REMSYN076AAXX  01124 83498 32595 81810 10240 20182 30188 40193 8552/ 333 20216 58027;
0137834980999992008090118004-17733-039250FM-12+000399999V0201801N005110075019N0020001N1+02361+01831101741ADDGF108991051051008001021999MA1999999101691MD1999999+0471REMSYN070AAXX  01184 83498 32595 81810 10236 20183 30169 40174 8552/ 333 58047;
0168834980999992008090200004-17733-039250FM-12+000399999V0201801N001512200019N0020001N1+02241+01731101871ADDGF104991041051008001001001KA1240M+02511MA1999999101821MD1999999+0141REMSYN088AAXX  02004 83498 32595 41803 10224 20173 30182 40187 84500 333 10251 29072 55000 58014;
0156834980999992008090212004-17733-039250FM-12+000399999V0200901N001012200019N0020001N1+02261+01661101871ADDGF102991021011008001001001KA1240N+01441MA1999999101821MD1999999-0061REMSYN076AAXX  02124 83498 32595 20902 10226 20166 30182 40187 82100 333 20144 59006;
0137834980999992008090218004-17733-039250FM-12+000399999V0200901N002112200019N0020001N1+02401+01911101661ADDGF103991031011008001001001MA1999999101611MD1999999-0081REMSYN070AAXX  02184 83498 32595 30904 10240 20191 30161 40166 83100 333 59008;
0178834980999992008090300004-17733-039250FM-12+000399999V0209999C000012200019N0020001N1+02041+01661101711ADDGA1001+999999999GF100991001001999999001001KA1240M+02611MA1999999101661MD1999999-0161REMSYN082AAXX  03004 83498 32995 00000 10204 20166 30166 40171 333 10261 29075 55100 59016;
0156834980999992008090312004-17733-039250FM-12+000399999V0202301N001012200019N0020001N1+02281+02001101771ADDGF103991031021008001001001KA1240N+01571MA1999999101721MD1999999-0101REMSYN076AAXX  03124 83498 32595 32302 10228 20200 30172 40177 83200 333 20157 59010;
0137834980999992008090318004-17733-039250FM-12+000399999V0200501N004112200019N0020001N1+02551+01951101491ADDGF103991031021008001001001MA1999999101441MD1999999-0171REMSYN070AAXX  03184 83498 32595 30508 10255 20195 30144 40149 83200 333 59017;
0178834980999992008090400004-17733-039250FM-12+000399999V0209999C000012200019N0020001N1+02061+01891101611ADDGA1001+999999999GF100991001001999999001001KA1240M+02731MA1999999101561MD1999999-0101REMSYN082AAXX  04004 83498 32995 00000 10206 20189 30156 40161 333 10273 29084 55063 59010;
0156834980999992008090412004-17733-039250FM-12+000399999V0203601N003110075019N0020001N1+02301+01851101671ADDGF105991051021008001001001KA1240N+01591MA1999999101621MD1999999-0101REMSYN076AAXX  04124 83498 32595 53606 10230 20185 30162 40167 85200 333 20159 59010;
0137834980999992008090418004-17733-039250FM-12+000399999V0200501N003612200019N0020001N1+02501+02071101451ADDGF104991031011008001031001MA1999999101401MD1999999-0041REMSYN070AAXX  04184 83498 32595 40507 10250 20207 30140 40145 83130 333 59004;
0168834980999992008090500004-17733-039250FM-12+000399999V0200501N001512200019N0020001N1+02101+01641101511ADDGF101991011011008001001001KA1240M+02791MA1999999101461MD1999999-0101REMSYN088AAXX  05004 83498 32595 10503 10210 20164 30146 40151 81100 333 10279 29076 55095 59010;
0156834980999992008090512004-17733-039250FM-12+000399999V0203601N004112200019N0020001N1+02531+02111101641ADDGF103991031011008001001001KA1240N+01721MA1999999101591MD1999999-0031REMSYN076AAXX  05124 83498 32595 33608 10253 20211 30159 40164 83100 333 20172 59003;
0137834980999992008090518004-17733-039250FM-12+000399999V0203601N004612200019N0020001N1+02671+02041101371ADDGF102991021011008001001001MA1999999101321MD1999999-0081REMSYN070AAXX  05184 83498 32595 23609 10267 20204 30132 40137 82100 333 59008;
0178834980999992008090600004-17733-039250FM-12+000399999V0200501N001012200019N0020001N1+02211+01801101581ADDGA1001+999999999GF100991001001999999001001KA1240M+02831MA1999999101531MD1999999+0071REMSYN082AAXX  06004 83498 32995 00502 10221 20180 30153 40158 333 10283 29076 55101 58007;
0156834980999992008090612004-17733-039250FM-12+000399999V0203201N003612200019N0020001N1+02501+01721101831ADDGF102991021011008001001001KA1240N+01501MA1999999101781MD1999999+0191REMSYN076AAXX  06124 83498 32595 23207 10250 20172 30178 40183 82100 333 20150 58019;
0137834980999992008090618004-17733-039250FM-12+000399999V0200501N004112200019N0020001N1+02721+01981101631ADDGF104991021011008001031001MA1999999101581MD1999999+0261REMSYN070AAXX  06184 83498 32595 40508 10272 20198 30158 40163 82130 333 58026;
0168834980999992008090700004-17733-039250FM-12+000399999V0203601N004112200019N0020001N1+02321+01851101661ADDGF102991021011008001001001KA1240M+02841MA1999999101611MD1999999+0081REMSYN088AAXX  07004 83498 32595 23608 10232 20185 30161 40166 82100 333 10284 29069 55101 58008;
0156834980999992008090712004-17733-039250FM-12+000399999V0203601N004112200019N0020001N1+02671+02181101881ADDGF102991021011008001001001KA1240N+01901MA1999999101831MD1999999+0051REMSYN076AAXX  07124 83498 32595 23608 10267 20218 30183 40188 82100 333 20190 58005;
0137834980999992008090718004-17733-039250FM-12+000399999V0203601N005110450019N0020001N1+02631+02161101611ADDGF106991041051008001041001MA1999999101561MD1999999-0021REMSYN070AAXX  07184 83498 32595 63610 10263 20216 30156 40161 84540 333 59002;
0168834980999992008090800004-17733-039250FM-12+000399999V0203601N002112200019N0020001N1+02371+02091101841ADDGF103991031021008001001001KA1240M+02811MA1999999101791MD1999999+0181REMSYN088AAXX  08004 83498 32595 33604 10237 20209 30179 40184 83200 333 10281 29080 55080 58018;
0156834980999992008090812004-17733-039250FM-12+000399999V0200501N003112200019N0020001N1+02681+02041101971ADDGF103991031011008001001001KA1240N+02081MA1999999101921MD1999999+0091REMSYN076AAXX  08124 83498 32595 30506 10268 20204 30192 40197 83100 333 20208 58009;
0137834980999992008090818004-17733-039250FM-12+000399999V0200501N004112200019N0020001N1+02721+02121101631ADDGF102991021011008001001001MA1999999101581MD1999999+0021REMSYN070AAXX  08184 83498 32595 20508 10272 20212 30158 40163 82100 333 58002;
0168834980999992008090900004-17733-039250FM-12+000399999V0200501N001512200019N0020001N1+02301+01851101891ADDGF102991021011008001001001KA1240M+02901MA1999999101841MD1999999+0051REMSYN088AAXX  09004 83498 32595 20503 10230 20185 30184 40189 82100 333 10290 29072 55085 58005;
0156834980999992008090912004-17733-039250FM-12+000399999V0200901N002110450019N0020001N1+02551+01881102151ADDGF106991041051008001041001KA1240N+01871MA1999999102101MD1999999+0181REMSYN076AAXX  09124 83498 32595 60904 10255 20188 30210 40215 84540 333 20187 58018;
0137834980999992008090918004-17733-039250FM-12+000399999V0200501N002112200019N0020001N1+02811+01751101781ADDGF101991011011008001001001MA1999999101731MD1999999+0151REMSYN070AAXX  09184 83498 32595 10504 10281 20175 30173 40178 81100 333 58015;
0178834980999992008091000004-17733-039250FM-12+000399999V0200501N001512200019N0020001N1+02281+01831102101ADDGA1001+999999999GF100991001001999999001001KA1240M+02871MA1999999102051MD1999999+0211REMSYN082AAXX  10004 83498 32995 00503 10228 20183 30205 40210 333 10287 29068 55083 58021;
0156834980999992008091012004-17733-039250FM-12+000399999V0200901N003112200019N0020001N1+02541+01781102131ADDGF104991041021008001001001KA1240N+01741MA1999999102081MD1999999-0021REMSYN076AAXX  10124 83498 32595 40906 10254 20178 30208 40213 84200 333 20174 59002;
0137834980999992008091018004-17733-039250FM-12+000399999V0200901N003612200019N0020001N1+02781+01911101731ADDGF104991021011008001031001MA1999999101681MD1999999-0051REMSYN070AAXX  10184 83498 32595 40907 10278 20191 30168 40173 82130 333 59005;
0168834980999992008091100004-17733-039250FM-12+000399999V0200901N001012200019N0020001N1+02301+01851102001ADDGF102991021011008001001001KA1240M+02751MA1999999101951MD1999999-0101REMSYN088AAXX  11004 83498 32595 20902 10230 20185 30195 40200 82100 333 10275 29068 55099 59010;
0156834980999992008091112004-17733-039250FM-12+000399999V0200901N003112200019N0020001N1+02651+01981102151ADDGF102991021011008001001001KA1240N+01771MA1999999102101MD1999999+0031REMSYN076AAXX  11124 83498 32595 20906 10265 20198 30210 40215 82100 333 20177 58003;
0137834980999992008091118004-17733-039250FM-12+000399999V0200901N003112200019N0020001N1+02561+01951101761ADDGF102991021011008001001001MA1999999101711MD1999999+0031REMSYN070AAXX  11184 83498 32595 20906 10256 20195 30171 40176 82100 333 58003;
0168834980999992008091200004-17733-039250FM-12+000399999V0200901N000512200019N0020001N1+02141+01931101911ADDGF102991021011008001001001KA1240M+02731MA1999999101861MD1999999-0091REMSYN088AAXX  12004 83498 32595 20901 10214 20193 30186 40191 82100 333 10273 29078 55101 59009;
0156834980999992008091212004-17733-039250FM-12+000399999V0200501N003610075019N0020001N1+02561+01971101911ADDGF105991051021008001001001KA1240N+01751MA1999999101861MD1999999-0251REMSYN076AAXX  12124 83498 32595 50507 10256 20197 30186 40191 85200 333 20175 59025;
0137834980999992008091218004-17733-039250FM-12+000399999V0200501N004112200019N0020001N1+02641+01981101461ADDGF104991021011008001031001MA1999999101411MD1999999-0301REMSYN070AAXX  12184 83498 32595 40508 10264 20198 30141 40146 82130 333 59030;
0178834980999992008091300004-17733-039250FM-12+000399999V0209999C000012200019N0020001N1+02161+01781101651ADDGA1001+999999999GF100991001001999999001001KA1240M+02851MA1999999101601MD1999999-0261REMSYN082AAXX  13004 83498 32995 00000 10216 20178 30160 40165 333 10285 29074 55094 59026;
0156834980999992008091312004-17733-039250FM-12+000399999V0203601N003112200019N0020001N1+02621+02071101741ADDGF103991031011008001001001KA1240N+02151MA1999999101691MD1999999-0171REMSYN076AAXX  13124 83498 32595 33606 10262 20207 30169 40174 83100 333 20215 59017;
0137834980999992008091318004-17733-039250FM-12+000399999V0200501N004112200019N0020001N1+02771+02071101321ADDGF101991011011008001001001MA1999999101271MD1999999-0171REMSYN070AAXX  13184 83498 32595 10508 10277 20207 30127 40132 81100 333 59017;
0156834980999992008091412004-17733-039250FM-12+000399999V0200501N001510450019N0020001N1+02361+01991101751ADDGF108991041051008001011999KA1240N+02081MA1999999101701MD1999999+0011REMSYN076AAXX  14124 83498 32595 80503 10236 20199 30170 40175 8451/ 333 20208 58001;
0182834980999992008091418004-17733-039250FM-12+000399999V0200501N003610450019N0020001N1+02721+02151101451ADDAA106000591AY161061AY221061GF106991031011008001041001MA1999999101401MD1999999+0131MW1211REMSYN082AAXX  14184 83498 21595 60507 10272 20215 30140 40145 72162 83140 333 58013 69961;
0173834980999992008091512004-17733-039250FM-12+000399999V0203601N003110450019N0020001N1+02631+02051101881ADDAA124000591GF105991021011008001011001KA1240N+02201MA1999999101831MD1999999+0131REMSYN082AAXX  15124 83498 22595 53606 10263 20205 30183 40188 82110 333 20220 58013 69964;
0137834980999992008091518004-17733-039250FM-12+000399999V0203601N004110450019N0020001N1+02651+02161101571ADDGF105991021011008001031001MA1999999101521MD1999999+0121REMSYN070AAXX  15184 83498 32595 53608 10265 20216 30152 40157 82130 333 58012;
0168834980999992008091600004-17733-039250FM-12+000399999V0200501N001519999999N0020001N1+02321+02111101721ADDGF105991051001008001011001KA1240M+02931MA1999999101671MD1999999+0121REMSYN088AAXX  16004 83498 32595 50503 10232 20211 30167 40172 85010 333 10293 29081 55002 58012;
0156834980999992008091612004-17733-039250FM-12+000399999V0203601N003612200019N0020001N1+02601+02141101931ADDGF104991041021008001001001KA1240N+01871MA1999999101881MD1999999+0051REMSYN076AAXX  16124 83498 32595 43607 10260 20214 30188 40193 84200 333 20187 58005;
0137834980999992008091618004-17733-039250FM-12+000399999V0200501N004112200019N0020001N1+02641+02231101561ADDGF103991021011008001041001MA1999999101511MD1999999-0011REMSYN070AAXX  16184 83498 32595 30508 10264 20223 30151 40156 82140 333 59001;
0168834980999992008091700004-17733-039250FM-12+000399999V0200501N000511050019N0020001N1+02241+01841101771ADDGF106991021011008001001021KA1240M+02901MA1999999101721MD1999999+0051REMSYN088AAXX  17004 83498 32595 60501 10224 20184 30172 40177 82102 333 10290 29078 55077 58005;
0156834980999992008091712004-17733-039250FM-12+000399999V0202301N000510450019N0020001N1+02481+02151101771ADDGF107991041051008001011001KA1240N+01901MA1999999101721MD1999999-0161REMSYN076AAXX  17124 83498 32595 72301 10248 20215 30172 40177 84510 333 20190 59016;
0137834980999992008091718004-17733-039250FM-12+000399999V0201401N002610075019N0020001N1+02491+02131101481ADDGF108991051051008001021999MA1999999101431MD1999999-0081REMSYN070AAXX  17184 83498 32595 81405 10249 20213 30143 40148 8552/ 333 59008;
0213834980999992008091800004-17733-039250FM-12+000399999V0201801N001510450019N0020001N1+02241+02161101671ADDAA106002091AY161061AY261061GF108991031071008001021999KA1240M+02691MA1999999101621MD1999999-0101MW1211REMSYN100AAXX  18004 83498 21595 81803 10224 20216 30162 40167 72166 8372/ 333 10269 29088 55000 59010 60021;
0201834980999992008091812004-17733-039250FM-12+000399999V0201801N002610450019N0020001N1+02201+01901101731ADDAA124008991AY161061AY261061GF108991021071008001021999KA1240N+01931MA1999999101681MD1999999-0041MW1211REMSYN088AAXX  18124 83498 21595 81805 10220 20190 30168 40173 72166 8272/ 333 20193 59004 60094;
0182834980999992008091818004-17733-039250FM-12+000399999V0201801N004110075019N0020001N1+02401+01971101501ADDAA106002091AY161061AY261061GF108991051071008001021999MA1999999101451MD1999999+0021MW1211REMSYN082AAXX  18184 83498 21595 81808 10240 20197 30145 40150 72166 8572/ 333 58002 60021;
0213834980999992008091900004-17733-039250FM-12+000399999V0201801N004610075019N0020001N1+02161+01821101801ADDAA106005191AY161061AY261061GF108991081071008001999999KA1240M+02451MA1999999101751MD1999999+0131MW1211REMSYN100AAXX  19004 83498 21595 81809 10216 20182 30175 40180 72166 887// 333 10245 29080 55000 58013 60051;
0201834980999992008091912004-17733-039250FM-12+000399999V0201801N005710075019N0020001N1+02181+01921102051ADDAA124007991AY161061AY261061GF108991051051008001021999KA1240N+01921MA1999999102001MD1999999+0321MW1211REMSYN088AAXX  19124 83498 21595 81811 10218 20192 30200 40205 72166 8552/ 333 20192 58032 60084;
0137834980999992008091918004-17733-039250FM-12+000399999V0201401N003110075019N0020001N1+02301+01771101861ADDGF108991051051008001021999MA1999999101811MD1999999+0361REMSYN070AAXX  19184 83498 32595 81406 10230 20177 30181 40186 8552/ 333 58036;
0168834980999992008092000004-17733-039250FM-12+000399999V0201401N003110075019N0020001N1+02241+01751102101ADDGF108991051051008001021999KA1240M+02331MA1999999102051MD1999999+0301REMSYN088AAXX  20004 83498 32595 81406 10224 20175 30205 40210 8552/ 333 10233 29076 55000 58030;
0156834980999992008092012004-17733-039250FM-12+000399999V0201401N001510450019N0020001N1+02301+01771102071ADDGF108991031051008001011999KA1240N+01971MA1999999102021MD1999999+0021REMSYN076AAXX  20124 83498 32595 81403 10230 20177 30202 40207 8351/ 333 20197 58002;
0137834980999992008092018004-17733-039250FM-12+000399999V0201401N003110450019N0020001N1+02461+01941101741ADDGF108991041051008001011999MA1999999101691MD1999999-0121REMSYN070AAXX  20184 83498 32595 81406 10246 20194 30169 40174 8451/ 333 59012;
0156834980999992008092112004-17733-039250FM-12+000399999V0200501N002110450019N0020001N1+02441+01691101901ADDGF107991041051008001011001KA1240N+01801MA1999999101851MD1999999-0171REMSYN076AAXX  21124 83498 32595 70504 10244 20169 30185 40190 84510 333 20180 59017;
0137834980999992008092118004-17733-039250FM-12+000399999V0203601N004110450019N0020001N1+02481+01851101491ADDGF106991031021008001041001MA1999999101441MD1999999-0251REMSYN070AAXX  21184 83498 32595 63608 10248 20185 30144 40149 83240 333 59025;
0156834980999992008092212004-17733-039250FM-12+000399999V0203601N004610450019N0020001N1+02561+02061101551ADDGF108991031051008001011999KA1240N+01991MA1999999101501MD1999999-0351REMSYN076AAXX  22124 83498 32595 83609 10256 20206 30150 40155 8351/ 333 20199 59035;
0137834980999992008092218004-17733-039250FM-12+000399999V0200501N004110450019N0020001N1+02641+02231101301ADDGF107991021051008001011001MA1999999101251MD1999999-0191REMSYN070AAXX  22184 83498 32595 70508 10264 20223 30125 40130 82510 333 59019;
0168834980999992008092300004-17733-039250FM-12+000399999V0200501N004110450019N0020001N1+02421+02051101301ADDGF107991031021008001041001KA1240M+02751MA1999999101251MD1999999-0291REMSYN088AAXX  23004 83498 32595 70508 10242 20205 30125 40130 83240 333 10275 29078 55007 59029;
0156834980999992008092312004-17733-039250FM-12+000399999V0203601N005710450019N0020001N1+02711+02171101201ADDGF106991041021008001031001KA1240N+02121MA1999999101151MD1999999-0351REMSYN076AAXX  23124 83498 32595 63611 10271 20217 30115 40120 84230 333 20212 59035;
0137834980999992008092318004-17733-039250FM-12+000399999V0203601N005712200019N0020001N1+02751+02021100891ADDGF103991011011008001041001MA1999999100841MD1999999-0411REMSYN070AAXX  23184 83498 32595 33611 10275 20202 30084 40089 81140 333 59041;
0213834980999992008092400004-17733-039250FM-12+000399999V0203601N002110450019N0020001N1+02241+02161101311ADDAA106006191AY191061AY261061GF108991031071008001021999KA1240M+02891MA1999999101261MD1999999+0011MW1211REMSYN100AAXX  24004 83498 21595 83604 10224 20216 30126 40131 72196 8372/ 333 10289 29082 55029 58001 60061;
0201834980999992008092412004-17733-039250FM-12+000399999V0201401N004610075019N0020001N1+02401+01971101681ADDAA124006191AY161061AY261061GF108991061051008001021999KA1240N+01901MA1999999101631MD1999999+0481MW1211REMSYN088AAXX  24124 83498 21595 81409 10240 20197 30163 40168 72166 8652/ 333 20190 58048 60064;
0182834980999992008092418004-17733-039250FM-12+000399999V0201401N004110075019N0020001N1+02481+02051101301ADDAA106000591AY161061AY261061GF108991051051008001021999MA1999999101251MD1999999+0411MW1211REMSYN082AAXX  24184 83498 21595 81408 10248 20205 30125 40130 72166 8552/ 333 58041 69961;
0168834980999992008092500004-17733-039250FM-12+000399999V0201401N003610450019N0020001N1+02201+01821101851ADDGF108991041051008001011999KA1240M+02451MA1999999101801MD1999999+0541REMSYN088AAXX  25004 83498 32595 81407 10220 20182 30180 40185 8451/ 333 10245 29078 55000 58054;
0156834980999992008092512004-17733-039250FM-12+000399999V0201801N003110450019N0020001N1+02481+01901102021ADDGF106991041051008001041001KA1240N+02101MA1999999101971MD1999999+0341REMSYN076AAXX  25124 83498 32595 61806 10248 20190 30197 40202 84540 333 20210 58034;
0137834980999992008092518004-17733-039250FM-12+000399999V0200901N003112200019N0020001N1+02471+01901101721ADDGF104991021031008001041001MA1999999101671MD1999999+0421REMSYN070AAXX  25184 83498 32595 40906 10247 20190 30167 40172 82340 333 58042;
0168834980999992008092600004-17733-039250FM-12+000399999V0201401N002610450019N0020001N1+02311+01811101921ADDGF106991041051008001011001KA1240M+02591MA1999999101871MD1999999+0071REMSYN088AAXX  26004 83498 32595 61405 10231 20181 30187 40192 84510 333 10259 29072 55056 58007;
0156834980999992008092612004-17733-039250FM-12+000399999V0200901N001510450019N0020001N1+02421+01791101991ADDGF108991041051008001011999KA1240N+02041MA1999999101941MD1999999-0031REMSYN076AAXX  26124 83498 32595 80903 10242 20179 30194 40199 8451/ 333 20204 59003;
0137834980999992008092618004-17733-039250FM-12+000399999V0200901N002110450019N0020001N1+02561+02151101651ADDGF106991031051008001041001MA1999999101601MD1999999-0071REMSYN070AAXX  26184 83498 32595 60904 10256 20215 30160 40165 83540 333 59007;
0168834980999992008092700004-17733-039250FM-12+000399999V0200901N000510450019N0020001N1+02201+01631101711ADDGF106991031051008001031001KA1240M+02491MA1999999101661MD1999999-0211REMSYN088AAXX  27004 83498 32595 60901 10220 20163 30166 40171 83530 333 10249 29072 55001 59021;
0201834980999992008092712004-17733-039250FM-12+000399999V0203601N001510075019N0020001N1+02161+01951101661ADDAA124003091AY161061AY261061GF108991051061008001021999KA1240N+01821MA1999999101611MD1999999-0331MW1211REMSYN088AAXX  27124 83498 21595 83603 10216 20195 30161 40166 72166 8562/ 333 20182 59033 60034;
0182834980999992008092718004-17733-039250FM-12+000399999V0203601N001510450019N0020001N1+02171+02061101271ADDAA106000891AY161061AY261061GF108991031071008001021999MA1999999101221MD1999999-0381MW1211REMSYN082AAXX  27184 83498 21595 83603 10217 20206 30122 40127 72166 8372/ 333 59038 69981;
0173834980999992008092812004-17733-039250FM-12+000399999V0202301N001510450019N0020001N1+02261+01881101571ADDAA124001091GF107991031051008001051001KA1240N+01841MA1999999101521MD1999999-0091REMSYN082AAXX  28124 83498 22595 72303 10226 20188 30152 40157 83550 333 20184 59009 60014;
0137834980999992008092818004-17733-039250FM-12+000399999V0201401N002110450019N0020001N1+02361+01911101261ADDGF106991041051008001031001MA1999999101211MD1999999-0011REMSYN070AAXX  28184 83498 32595 61404 10236 20191 30121 40126 84530 333 59001;
0201834980999992008092912004-17733-039250FM-12+000399999V0201801N002610075019N0020001N1+02361+02051101761ADDAA124018091AY121061AY211061GF108991051051008001021999KA1240N+02091MA1999999101711MD1999999+0191MW1031REMSYN088AAXX  29124 83498 21595 81805 10236 20205 30171 40176 70321 8552/ 333 20209 58019 60184;
0137834980999992008092918004-17733-039250FM-12+000399999V0201801N005110075019N0020001N1+02381+01951101601ADDGF108991051051008001021999MA1999999101551MD1999999+0341REMSYN070AAXX  29184 83498 32595 81810 10238 20195 30155 40160 8552/ 333 58034;
0168834980999992008093000004-17733-039250FM-12+000399999V0201401N002610075019N0020001N1+02341+02011101851ADDGF108991051051008001021999KA1240M+02501MA1999999101801MD1999999+0401REMSYN088AAXX  30004 83498 32595 81405 10234 20201 30180 40185 8552/ 333 10250 29081 55005 58040;
0156834980999992008093012004-17733-039250FM-12+000399999V0201401N001510450019N0020001N1+02481+01961101961ADDGF106991041021008001031001KA1240N+02051MA1999999101911MD1999999+0201REMSYN076AAXX  30124 83498 32595 61403 10248 20196 30191 40196 84230 333 20205 58020;
0137834980999992008093018004-17733-039250FM-12+000399999V0200901N002112200019N0020001N1+02601+02031101701ADDGF104991021011008001031001MA1999999101651MD1999999+0101REMSYN070AAXX  30184 83498 32595 40904 10260 20203 30165 40170 82130 333 58010;
0168834980999992008100100004-17733-039250FM-12+000399999V0200901N000512200019N0020001N1+02241+01861101611ADDGF102991021011008001001001KA1240M+02671MA1999999101561MD1999999+0241REMSYN088AAXX  01004 83498 32595 20901 10224 20186 30156 40161 82100 333 10267 29076 55039 58024;
0156834980999992008100112004-17733-039250FM-12+000399999V0203601N003110450019N0020001N1+02671+02181101561ADDGF106991041051008001041001KA1240N+01951MA1999999101511MD1999999-0401REMSYN076AAXX  01124 83498 32595 63606 10267 20218 30151 40156 84540 333 20195 59040;
0137834980999992008100118004-17733-039250FM-12+000399999V0200501N004112200019N0020001N1+02711+02221101161ADDGF103991031011008001001001MA1999999101111MD1999999-0541REMSYN070AAXX  01184 83498 32595 30508 10271 20222 30111 40116 83100 333 59054;
0168834980999992008100200004-17733-039250FM-12+000399999V0200501N002612200019N0020001N1+02461+02271101301ADDGF103991031021008001001001KA1240M+02851MA1999999101251MD1999999-0311REMSYN088AAXX  02004 83498 32595 30505 10246 20227 30125 40130 83200 333 10285 29082 55063 59031;
0156834980999992008100212004-17733-039250FM-12+000399999V0203601N005110450019N0020001N1+02641+02181101491ADDGF106991031021008001031001KA1240N+02131MA1999999101441MD1999999-0071REMSYN076AAXX  02124 83498 32595 63610 10264 20218 30144 40149 83230 333 20213 59007;
0137834980999992008100218004-17733-039250FM-12+000399999V0203601N004610450019N0020001N1+02741+02171101161ADDGF105991021011008001031001MA1999999101111MD1999999+0001REMSYN070AAXX  02184 83498 32595 53609 10274 20217 30111 40116 82130 333 58000;
0168834980999992008100300004-17733-039250FM-12+000399999V0200501N002112200019N0020001N1+02421+02051101301ADDGF102991021011008001001001KA1240M+02871MA1999999101251MD1999999+0001REMSYN088AAXX  03004 83498 32595 20504 10242 20205 30125 40130 82100 333 10287 29077 55063 58000;
0156834980999992008100312004-17733-039250FM-12+000399999V0203601N004610450019N0020001N1+02741+02171101461ADDGF106991041021008001041001KA1240N+02281MA1999999101411MD1999999-0031REMSYN076AAXX  03124 83498 32595 63609 10274 20217 30141 40146 84240 333 20228 59003;
0137834980999992008100318004-17733-039250FM-12+000399999V0203601N005112200019N0020001N1+02771+02231101191ADDGF103991031011008001001001MA1999999101141MD1999999+0031REMSYN070AAXX  03184 83498 32595 33610 10277 20223 30114 40119 83100 333 58003;
0168834980999992008100400004-17733-039250FM-12+000399999V0200501N003112200019N0020001N1+02481+02271101511ADDGF103991031021008001001001KA1240M+02901MA1999999101461MD1999999+0211REMSYN088AAXX  04004 83498 32595 30506 10248 20227 30146 40151 83200 333 10290 29080 55040 58021;
0156834980999992008100412004-17733-039250FM-12+000399999V0203601N005710450019N0020001N1+02681+02241101711ADDGF106991041021008001041001KA1240N+02201MA1999999101661MD1999999+0351REMSYN076AAXX  04124 83498 32595 63611 10268 20224 30166 40171 84240 333 20220 58035;
0156834980999992008100512004-17733-039250FM-12+000399999V0203601N005110450019N0020001N1+02731+02151101521ADDGF106991031051008001051001KA1240N+02101MA1999999101471MD1999999-0191REMSYN076AAXX  05124 83498 32595 63610 10273 20215 30147 40152 83550 333 20210 59019;
0137834980999992008100518004-17733-039250FM-12+000399999V0203601N000512200019N0020001N1+02791+02181101191ADDGF102991021011008001001001MA1999999101141MD1999999-0301REMSYN070AAXX  05184 83498 32595 23601 10279 20218 30114 40119 82100 333 59030;
0156834980999992008100612004-17733-039250FM-12+000399999V0200501N003610075019N0020001N1+02681+02221101671ADDGF106991061021008001001001KA1240N+02041MA1999999101621MD1999999+0151REMSYN076AAXX  06124 83498 32595 60507 10268 20222 30162 40167 86200 333 20204 58015;
0137834980999992008100618004-17733-039250FM-12+000399999V0200501N004110450019N0020001N1+02821+02271101411ADDGF105991031011008001041001MA1999999101361MD1999999+0221REMSYN070AAXX  06184 83498 32595 50508 10282 20227 30136 40141 83140 333 58022;
0168834980999992008100700004-17733-039250FM-12+000399999V0200901N001512200019N0020001N1+02301+01921101881ADDGF103991031011008001001001KA1240M+02881MA1999999101831MD1999999+0491REMSYN088AAXX  07004 83498 32595 30903 10230 20192 30183 40188 83100 333 10288 29076 55030 58049;
0156834980999992008100712004-17733-039250FM-12+000399999V0200501N002612200019N0020001N1+02661+02241102081ADDGF104991041021008001001001KA1240N+01991MA1999999102031MD1999999+0411REMSYN076AAXX  07124 83498 32595 40505 10266 20224 30203 40208 84200 333 20199 58041;
0137834980999992008100718004-17733-039250FM-12+000399999V0200901N004612200019N0020001N1+02711+02081101371ADDGF102991021011008001001001MA1999999101321MD1999999-0041REMSYN070AAXX  07184 83498 32595 20909 10271 20208 30132 40137 82100 333 59004;
0178834980999992008100800004-17733-039250FM-12+000399999V0200901N001512200019N0020001N1+02371+02031101961ADDGA1001+999999999GF100991001001999999001001KA1240M+02821MA1999999101911MD1999999+0081REMSYN082AAXX  08004 83498 32995 00903 10237 20203 30191 40196 333 10282 29078 55071 58008;
0201834980999992008100812004-17733-039250FM-12+000399999V0200901N002110075019N0020001N1+02541+02021101961ADDAA124001091AY161061AY221061GF106991051021008001031001KA1240N+01941MA1999999101911MD1999999-0121MW1211REMSYN088AAXX  08124 83498 21595 60904 10254 20202 30191 40196 72162 85230 333 20194 59012 60014;
0137834980999992008100818004-17733-039250FM-12+000399999V0200901N003610450019N0020001N1+02701+02131101581ADDGF105991021011008001031001MA1999999101531MD1999999-0191REMSYN070AAXX  08184 83498 32595 50907 10270 20213 30153 40158 82130 333 59019;
0168834980999992008100900004-17733-039250FM-12+000399999V0200901N001510450019N0020001N1+02361+01911101881ADDGF106991031011008001051001KA1240M+02771MA1999999101831MD1999999-0081REMSYN088AAXX  09004 83498 32595 60903 10236 20191 30183 40188 83150 333 10277 29074 55049 59008;
0201834980999992008100912004-17733-039250FM-12+000399999V0201401N002610450019N0020001N1+02211+02131102001ADDAA124007191AY161061AY261061GF108991031071008001021999KA1240N+02061MA1999999101951MD1999999+0041MW1611REMSYN088AAXX  09124 83498 21595 81405 10221 20213 30195 40200 76166 8372/ 333 20206 58004 60074;
0182834980999992008100918004-17733-039250FM-12+000399999V0201801N005110450019N0020001N1+02341+02071101721ADDAA106004191AY161061AY261061GF108991031071008001021999MA1999999101671MD1999999+0141MW1211REMSYN082AAXX  09184 83498 21595 81810 10234 20207 30167 40172 72166 8372/ 333 58014 60041;
0213834980999992008101000004-17733-039250FM-12+000399999V0201801N005710450019N0020001N1+02211+01971101971ADDAA106010991AY161061AY261061GF108991031071008001021999KA1240M+02561MA1999999101921MD1999999+0091MW1211REMSYN100AAXX  10004 83498 21595 81811 10221 20197 30192 40197 72166 8372/ 333 10256 29089 55007 58009 60111;
0201834980999992008101012004-17733-039250FM-12+000399999V0201401N005110450019N0020001N1+02381+01931101951ADDAA124017091AY161061AY261061GF108991041071008001021999KA1240N+01951MA1999999101901MD1999999-0051MW1211REMSYN088AAXX  10124 83498 21595 81410 10238 20193 30190 40195 72166 8472/ 333 20195 59005 60174;
0137834980999992008101018004-17733-039250FM-12+000399999V0201401N004610450019N0020001N1+02441+02151101631ADDGF108991031061008001011999MA1999999101581MD1999999-0091REMSYN070AAXX  10184 83498 32595 81409 10244 20215 30158 40163 8361/ 333 59009;
0213834980999992008101100004-17733-039250FM-12+000399999V0201401N004110450019N0020001N1+02321+01871101891ADDAA106001091AY161061AY221061GF108991031061008001021999KA1240M+02451MA1999999101841MD1999999-0081MW1211REMSYN100AAXX  11004 83498 21595 81408 10232 20187 30184 40189 72162 8362/ 333 10245 29078 55000 59008 60011;
0173834980999992008101112004-17733-039250FM-12+000399999V0201401N004610450019N0020001N1+02491+02011101971ADDAA124001091GF106991041051008001041001KA1240N+02001MA1999999101921MD1999999+0021REMSYN082AAXX  11124 83498 22595 61409 10249 20201 30192 40197 84540 333 20200 58002 60014;
0137834980999992008101118004-17733-039250FM-12+000399999V0201401N004110450019N0020001N1+02511+02051101691ADDGF106991021031008001041001MA1999999101641MD1999999+0061REMSYN070AAXX  11184 83498 32595 61408 10251 20205 30164 40169 82340 333 58006;
0213834980999992008101200004-17733-039250FM-12+000399999V0201401N003110450019N0020001N1+02321+02131101931ADDAA106005191AY161061AY261061GF107991031071008001011001KA1240M+02791MA1999999101881MD1999999+0041MW1211REMSYN100AAXX  12004 83498 21595 71406 10232 20213 30188 40193 72166 83710 333 10279 29082 55028 58004 60051;
0201834980999992008101212004-17733-039250FM-12+000399999V0200501N001510450019N0020001N1+02521+02091101871ADDAA124008991AY161061AY261061GF108991031061008001011999KA1240N+01981MA1999999101821MD1999999-0101MW1211REMSYN088AAXX  12124 83498 21595 80503 10252 20209 30182 40187 72166 8361/ 333 20198 59010 60094;
0137834980999992008101218004-17733-039250FM-12+000399999V0200901N002610450019N0020001N1+02641+02141101501ADDGF108991041061008001011999MA1999999101451MD1999999-0191REMSYN070AAXX  12184 83498 32595 80905 10264 20214 30145 40150 8461/ 333 59019;
0168834980999992008101300004-17733-039250FM-12+000399999V0200501N000510075019N0020001N1+02341+01951101951ADDGF105991051021008001001001KA1240M+02711MA1999999101901MD1999999+0021REMSYN088AAXX  13004 83498 32595 50501 10234 20195 30190 40195 85200 333 10271 29077 55007 58002;
0201834980999992008101312004-17733-039250FM-12+000399999V0200901N003110450019N0020001N1+02691+02241101981ADDAA124000021AY121061AY211061GF107991031021008001041001KA1240N+01941MA1999999101931MD1999999+0111MW1031REMSYN088AAXX  13124 83498 21595 70906 10269 20224 30193 40198 70321 83240 333 20194 58011 69924;
0137834980999992008101318004-17733-039250FM-12+000399999V0200901N002112200019N0020001N1+02701+02171101581ADDGF102991021011008001001001MA1999999101531MD1999999+0081REMSYN070AAXX  13184 83498 32595 20904 10270 20217 30153 40158 82100 333 58008;
0168834980999992008101400004-17733-039250FM-12+000399999V0200901N002112200019N0020001N1+02401+02111101851ADDGF103991031021008001001001KA1240M+02831MA1999999101801MD1999999-0101REMSYN088AAXX  14004 83498 32595 30904 10240 20211 30180 40185 83200 333 10283 29080 55049 59010;
0156834980999992008101412004-17733-039250FM-12+000399999V0200501N001510450019N0020001N1+02601+02081101761ADDGF106991041021008001031001KA1240N+01981MA1999999101711MD1999999-0221REMSYN076AAXX  14124 83498 32595 60503 10260 20208 30171 40176 84230 333 20198 59022;
0137834980999992008101418004-17733-039250FM-12+000399999V0200901N002610450019N0020001N1+02741+02121101371ADDGF105991021011008001041001MA1999999101321MD1999999-0211REMSYN070AAXX  14184 83498 32595 50905 10274 20212 30132 40137 82140 333 59021;
0168834980999992008101500004-17733-039250FM-12+000399999V0200901N000512200019N0020001N1+02361+01931101561ADDGF102991021011008001001001KA1240M+02841MA1999999101511MD1999999-0291REMSYN088AAXX  15004 83498 32595 20901 10236 20193 30151 40156 82100 333 10284 29074 55027 59029;
0156834980999992008101512004-17733-039250FM-12+000399999V0203601N004612200019N0020001N1+02771+02091101701ADDGF104991041021008001001001KA1240N+01871MA1999999101651MD1999999-0061REMSYN076AAXX  15124 83498 32595 43609 10277 20209 30165 40170 84200 333 20187 59006;
0156834980999992008101518004-17733-039250FM-12+000399999V0203601N005112200019N0020001N1+02771+02141101351ADDGF102991001001999999001011MA1999999101301MD1999999-0021REMSYN070AAXX  15184 83498 32595 23610 10277 20214 30130 40135 80001 333 59002;EQDQ01+008002SCOLCB
0168834980999992008101600004-17733-039250FM-12+000399999V0203601N001512200019N0020001N1+02331+02091101621ADDGF102991011011008001001011KA1240M+02921MA1999999101571MD1999999+0061REMSYN088AAXX  16004 83498 32595 23603 10233 20209 30157 40162 81101 333 10292 29078 55043 58006;
0156834980999992008101612004-17733-039250FM-12+000399999V0203601N002610075019N0020001N1+02621+02141101601ADDGF106991061021008001001001KA1240N+02021MA1999999101551MD1999999-0101REMSYN076AAXX  16124 83498 32595 63605 10262 20214 30155 40160 86200 333 20202 59010;
0137834980999992008101618004-17733-039250FM-12+000399999V0200501N003610450019N0020001N1+02761+02121101201ADDGF105991031011008001041001MA1999999101151MD1999999-0151REMSYN070AAXX  16184 83498 32595 50507 10276 20212 30115 40120 83140 333 59015;
0168834980999992008101700004-17733-039250FM-12+000399999V0203601N004110075019N0020001N1+02441+02031101391ADDGF105991051021008001001001KA1240M+02971MA1999999101341MD1999999-0231REMSYN088AAXX  17004 83498 32595 53608 10244 20203 30134 40139 85200 333 10297 29075 55056 59023;
0156834980999992008101712004-17733-039250FM-12+000399999V0203601N001512200019N0020001N1+02771+02161101581ADDGF104991041021008001001001KA1240N+02021MA1999999101531MD1999999-0021REMSYN076AAXX  17124 83498 32595 43603 10277 20216 30153 40158 84200 333 20202 59002;
0137834980999992008101718004-17733-039250FM-12+000399999V0200501N002612200019N0020001N1+02871+02191101291ADDGF101991011011008001001001MA1999999101241MD1999999+0091REMSYN070AAXX  17184 83498 32595 10505 10287 20219 30124 40129 81100 333 58009;
0178834980999992008101800004-17733-039250FM-12+000399999V0200501N000512200019N0020001N1+02281+02141101471ADDGA1001+999999999GF100991001001999999001001KA1240M+03031MA1999999101421MD1999999+0081REMSYN082AAXX  18004 83498 32995 00501 10228 20214 30142 40147 333 10303 29080 55074 58008;
0156834980999992008101812004-17733-039250FM-12+000399999V0203601N004110075019N0020001N1+02641+02091101531ADDGF106991061021008001001001KA1240N+01881MA1999999101481MD1999999-0051REMSYN076AAXX  18124 83498 32595 63608 10264 20209 30148 40153 86200 333 20188 59005;
0137834980999992008101818004-17733-039250FM-12+000399999V0200501N003610450019N0020001N1+02861+02141101191ADDGF105991031011008001041001MA1999999101141MD1999999-0101REMSYN070AAXX  18184 83498 32595 50507 10286 20214 30114 40119 83140 333 59010;
0168834980999992008101900004-17733-039250FM-12+000399999V0203601N004112200019N0020001N1+02441+01991101321ADDGF101991011011008001001001KA1240M+02971MA1999999101271MD1999999-0151REMSYN088AAXX  19004 83498 32595 13608 10244 20199 30127 40132 81100 333 10297 29072 55061 59015;
0156834980999992008101912004-17733-039250FM-12+000399999V0203601N004112200019N0020001N1+02871+02281101551ADDGF103991031021008001001001KA1240N+02071MA1999999101501MD1999999+0021REMSYN076AAXX  19124 83498 32595 33608 10287 20228 30150 40155 83200 333 20207 58002;
0137834980999992008101918004-17733-039250FM-12+000399999V0203601N005112200019N0020001N1+02831+02221101261ADDGF101991011011008001001001MA1999999101211MD1999999+0071REMSYN070AAXX  19184 83498 32595 13610 10283 20222 30121 40126 81100 333 58007;
0168834980999992008102000004-17733-039250FM-12+000399999V0200501N001512200019N0020001N1+02461+02271101651ADDGF101991011011008001001001KA1240M+02971MA1999999101601MD1999999+0331REMSYN088AAXX  20004 83498 32595 10503 10246 20227 30160 40165 81100 333 10297 29080 55074 58033;
0156834980999992008102012004-17733-039250FM-12+000399999V0200501N002110450019N0020001N1+02841+02191101931ADDGF105991031011008001041001KA1240N+02081MA1999999101881MD1999999+0381REMSYN076AAXX  20124 83498 32595 50504 10284 20219 30188 40193 83140 333 20208 58038;
0137834980999992008102018004-17733-039250FM-12+000399999V0200501N003112200019N0020001N1+02901+02201101531ADDGF104991021011008001041001MA1999999101481MD1999999+0271REMSYN070AAXX  20184 83498 32595 40506 10290 20220 30148 40153 82140 333 58027;
0168834980999992008102100004-17733-039250FM-12+000399999V0200901N001512200019N0020001N1+02541+02091101931ADDGF103991031011008001001001KA1240M+03031MA1999999101881MD1999999+0281REMSYN088AAXX  21004 83498 32595 30903 10254 20209 30188 40193 83100 333 10303 29072 55052 58028;
0156834980999992008102112004-17733-039250FM-12+000399999V0200901N003112200019N0020001N1+02831+02101101951ADDGF104991041021008001001001KA1240N+02021MA1999999101901MD1999999+0021REMSYN076AAXX  21124 83498 32595 40906 10283 20210 30190 40195 84200 333 20202 58002;
0137834980999992008102118004-17733-039250FM-12+000399999V0200901N003112200019N0020001N1+02811+02081101641ADDGF101991011011008001001001MA1999999101591MD1999999+0111REMSYN070AAXX  21184 83498 32595 10906 10281 20208 30159 40164 81100 333 58011;
0168834980999992008102200004-17733-039250FM-12+000399999V0200901N000512200019N0020001N1+02401+02091101931ADDGF103991031021008001001001KA1240M+02931MA1999999101881MD1999999+0001REMSYN088AAXX  22004 83498 32595 30901 10240 20209 30188 40193 83200 333 10293 29074 55084 58000;
0156834980999992008102212004-17733-039250FM-12+000399999V0200501N002110450019N0020001N1+02541+01951101891ADDGF106991041021008001041001KA1240N+01901MA1999999101841MD1999999-0061REMSYN076AAXX  22124 83498 32595 60504 10254 20195 30184 40189 84240 333 20190 59006;
0137834980999992008102218004-17733-039250FM-12+000399999V0200501N003110450019N0020001N1+02801+02081101541ADDGF105991021011008001041001MA1999999101491MD1999999-0101REMSYN070AAXX  22184 83498 32595 50506 10280 20208 30149 40154 82140 333 59010;
0168834980999992008102300004-17733-039250FM-12+000399999V0200501N000512200019N0020001N1+02341+01891101701ADDGF101991011011008001001001KA1240M+02931MA1999999101651MD1999999-0231REMSYN088AAXX  23004 83498 32595 10501 10234 20189 30165 40170 81100 333 10293 29072 55074 59023;
0156834980999992008102312004-17733-039250FM-12+000399999V0200501N002612200019N0020001N1+02771+02091101821ADDGF104991041021008001001001KA1240N+01951MA1999999101771MD1999999-0071REMSYN076AAXX  23124 83498 32595 40505 10277 20209 30177 40182 84200 333 20195 59007;
0137834980999992008102318004-17733-039250FM-12+000399999V0200501N003112200019N0020001N1+02851+02041101491ADDGF102991021011008001001001MA1999999101441MD1999999-0051REMSYN070AAXX  23184 83498 32595 20506 10285 20204 30144 40149 82100 333 59005;
0178834980999992008102400004-17733-039250FM-12+000399999V0200501N001512200019N0020001N1+02361+02031101751ADDGA1001+999999999GF100991001001999999001001KA1240M+02971MA1999999101701MD1999999+0051REMSYN082AAXX  24004 83498 32995 00503 10236 20203 30170 40175 333 10297 29074 55085 58005;
0156834980999992008102412004-17733-039250FM-12+000399999V0200501N003110450019N0020001N1+02661+02161101911ADDGF108991041051008001011999KA1240N+01971MA1999999101861MD1999999+0091REMSYN076AAXX  24124 83498 32595 80506 10266 20216 30186 40191 8451/ 333 20197 58009;
0182834980999992008102418004-17733-039250FM-12+000399999V0200501N003610450019N0020001N1+02881+02211101651ADDAA106000591AY161061AY221061GF106991031011008001011001MA1999999101601MD1999999+0161MW1211REMSYN082AAXX  24184 83498 21595 60507 10288 20221 30160 40165 72162 83110 333 58016 69941;
0168834980999992008102500004-17733-039250FM-12+000399999V0200501N001512200019N0020001N1+02461+02011101631ADDGF102991021011008001001001KA1240M+02931MA1999999101581MD1999999-0121REMSYN088AAXX  25004 83498 32595 20503 10246 20201 30158 40163 82100 333 10293 29073 55050 59012;
0156834980999992008102512004-17733-039250FM-12+000399999V0203601N004112200019N0020001N1+02851+02171101751ADDGF102991021011008001001001KA1240N+02031MA1999999101701MD1999999-0161REMSYN076AAXX  25124 83498 32595 23608 10285 20217 30170 40175 82100 333 20203 59016;
0137834980999992008102518004-17733-039250FM-12+000399999V0200501N005112200019N0020001N1+02861+02351101271ADDGF102991021011008001001001MA1999999101221MD1999999-0381REMSYN070AAXX  25184 83498 32595 20510 10286 20235 30122 40127 82100 333 59038;
0168834980999992008102600004-17733-039250FM-12+000399999V0200501N002112200019N0020001N1+02481+02151101591ADDGF102991021021008001001001KA1240M+03021MA1999999101541MD1999999-0041REMSYN088AAXX  26004 83498 32595 20504 10248 20215 30154 40159 82200 333 10302 29076 55078 59004;
0156834980999992008102612004-17733-039250FM-12+000399999V0203601N003610075019N0020001N1+02701+02171101591ADDGF106991061021008001001001KA1240N+02061MA1999999101541MD1999999-0161REMSYN076AAXX  26124 83498 32595 63607 10270 20217 30154 40159 86200 333 20206 59016;
0137834980999992008102618004-17733-039250FM-12+000399999V0203601N004110450019N0020001N1+02861+02231101031ADDGF105991021011008001041001MA1999999100981MD1999999-0241REMSYN070AAXX  26184 83498 32595 53608 10286 20223 30098 40103 82140 333 59024;
0187834980999992008102700004-17733-039250FM-12+000399999V0200501N001512200019N0020001N1+02501+02071101501ADDGF102991999011008001001001KA1240M+02971MA1999999101451MD1999999-0091REMSYN088AAXX  27004 83498 32595 20503 10250 20207 30145 40150 81100 333 10297 29072 55070 59009;EQDQ01+000012SCOTLC
0156834980999992008102712004-17733-039250FM-12+000399999V0203601N005712200019N0020001N1+02791+02061101411ADDGF102991021011008001001001KA1240N+02021MA1999999101361MD1999999-0181REMSYN076AAXX  27124 83498 32595 23611 10279 20206 30136 40141 82100 333 20202 59018;
0137834980999992008102718004-17733-039250FM-12+000399999V0200501N006212200019N0020001N1+02811+02131100981ADDGF101991011011008001001001MA1999999100931MD1999999-0051REMSYN070AAXX  27184 83498 32595 10512 10281 20213 30093 40098 81100 333 59005;
0178834980999992008102800004-17733-039250FM-12+000399999V0200501N003112200019N0020001N1+02421+02251101181ADDGA1001+999999999GF100991001001999999001001KA1240M+02981MA1999999101131MD1999999-0321REMSYN082AAXX  28004 83498 32995 00506 10242 20225 30113 40118 333 10298 29078 55080 59032;
0156834980999992008102812004-17733-039250FM-12+000399999V0203601N003612200019N0020001N1+02781+02111101251ADDGF103991031011008001001001KA1240N+02021MA1999999101201MD1999999-0161REMSYN076AAXX  28124 83498 32595 33607 10278 20211 30120 40125 83100 333 20202 59016;
0137834980999992008102818004-17733-039250FM-12+000399999V0200501N004112200019N0020001N1+02861+02161100891ADDGF102991021011008001001001MA1999999100841MD1999999-0091REMSYN070AAXX  28184 83498 32595 20508 10286 20216 30084 40089 82100 333 59009;
0178834980999992008102900004-17733-039250FM-12+000399999V0209999C000012200019N0020001N1+02421+01971101461ADDGA1001+999999999GF100991001001999999001001KA1240M+03031MA1999999101411MD1999999+0281REMSYN082AAXX  29004 83498 32995 00000 10242 20197 30141 40146 333 10303 29071 55078 58028;
0156834980999992008102912004-17733-039250FM-12+000399999V0200901N001510450019N0020001N1+02841+02121101531ADDGF105991031021008001041001KA1240N+02071MA1999999101481MD1999999+0281REMSYN076AAXX  29124 83498 32595 50903 10284 20212 30148 40153 83240 333 20207 58028;
0178834980999992008103000004-17733-039250FM-12+000399999V0200501N001512200019N0020001N1+02401+02171101291ADDGA1001+999999999GF100991001001999999001001KA1240M+03071MA1999999101241MD1999999-0171REMSYN082AAXX  30004 83498 32995 00503 10240 20217 30124 40129 333 10307 29075 55048 59017;
0137834980999992008103018004-17733-039250FM-12+000399999V0200501N004110450019N0020001N1+02881+02211101091ADDGF105991031011008001021001MA1999999101041MD1999999+0011REMSYN070AAXX  30184 83498 32595 50508 10288 20221 30104 40109 83120 333 58001;
0168834980999992008103100004-17733-039250FM-12+000399999V0203601N004612200019N0020001N1+02541+02111101361ADDGF101991011011008001001001KA1240M+03051MA1999999101301MD1999999+0061REMSYN088AAXX  31004 83498 32595 13609 10254 20211 30130 40136 81100 333 10305 29073 55048 58006;
0156834980999992008103112004-17733-039250FM-12+000399999V0203601N003612200019N0020001N1+02851+02331101351ADDGF102991021011008001001001KA1240N+02221MA1999999101301MD1999999-0141REMSYN076AAXX  31124 83498 32595 23607 10285 20233 30130 40135 82100 333 20222 59014;
0156834980999992008103118004-17733-039250FM-12+000399999V0203601N005112200019N0020001N1+02871+02261101191ADDGF102991001001999999001011MA1999999101141MD1999999+0101REMSYN070AAXX  31184 83498 32595 23610 10287 20226 30114 40119 80001 333 58010;EQDQ01+008002SCOLCB
0178834980999992008110100004-17733-039250FM-12+000399999V0209999C000012200019N0020001N1+02441+02191101411ADDGA1001+999999999GF100991001001999999001001KA1240M+03071MA1999999101361MD1999999+0061REMSYN082AAXX  01004 83498 32995 00000 10244 20219 30136 40141 333 10307 29079 55062 58006;
0156834980999992008110112004-17733-039250FM-12+000399999V0202301N001510450019N0020001N1+02501+02131101681ADDGF108991041051008001011999KA1240N+02191MA1999999101631MD1999999+0331REMSYN076AAXX  01124 83498 32595 82303 10250 20213 30163 40168 8451/ 333 20219 58033;
0137834980999992008110118004-17733-039250FM-12+000399999V0201401N004110450019N0020001N1+02761+02211101471ADDGF108991031051008001011999MA1999999101421MD1999999+0121REMSYN070AAXX  01184 83498 32595 81408 10276 20221 30142 40147 8351/ 333 58012;
0168834980999992008110200004-17733-039250FM-12+000399999V0201401N003110075019N0020001N1+02441+02051101651ADDGF108991061071008001011999KA1240M+02751MA1999999101601MD1999999+0241REMSYN088AAXX  02004 83498 32595 81406 10244 20205 30160 40165 8671/ 333 10275 29075 55000 58024;
0156834980999992008110212004-17733-039250FM-12+000399999V0203601N002610450019N0020001N1+02831+02201101741ADDGF105991031021008001041001KA1240N+02221MA1999999101691MD1999999+0061REMSYN076AAXX  02124 83498 32595 53605 10283 20220 30169 40174 83240 333 20222 58006;
0156834980999992008110218004-17733-039250FM-12+000399999V0200501N003612200019N0020001N1+02991+02191101321ADDGF102991001001999999001011MA1999999101271MD1999999-0151REMSYN070AAXX  02184 83498 32595 20507 10299 20219 30127 40132 80001 333 59015;EQDQ01+008002SCOLCB
0178834980999992008110300004-17733-039250FM-12+000399999V0200501N000512200019N0020001N1+02341+02111101561ADDGA1001+999999999GF100991001001999999001001KA1240M+03071MA1999999101511MD1999999-0091REMSYN082AAXX  03004 83498 32995 00501 10234 20211 30151 40156 333 10307 29076 55059 59009;
0175834980999992008110312004-17733-039250FM-12+000399999V0203601N004612200019N0020001N1+02841+02171101551ADDGF102991999011008001001001KA1240N+01961MA1999999101501MD1999999-0191REMSYN076AAXX  03124 83498 32595 23609 10284 20217 30150 40155 83100 333 20196 59019;EQDQ01+000032SCOTLC
0137834980999992008110318004-17733-039250FM-12+000399999V0200501N005112200019N0020001N1+03021+02161101101ADDGF102991021011008001001001MA1999999101051MD1999999-0221REMSYN070AAXX  03184 83498 32595 20510 10302 20216 30105 40110 82100 333 59022;
0168834980999992008110400004-17733-039250FM-12+000399999V0203601N004112200019N0020001N1+02481+02051101231ADDGF101991011011008001001001KA1240M+03051MA1999999101181MD1999999-0331REMSYN088AAXX  04004 83498 32595 13608 10248 20205 30118 40123 81100 333 10305 29070 55081 59033;
0156834980999992008110412004-17733-039250FM-12+000399999V0203601N002612200019N0020001N1+03051+02381101311ADDGF103991031021008001001001KA1240N+02171MA1999999101261MD1999999-0241REMSYN076AAXX  04124 83498 32595 33605 10305 20238 30126 40131 83200 333 20217 59024;
0137834980999992008110418004-17733-039250FM-12+000399999V0203601N004112200019N0020001N1+02911+02271101021ADDGF102991021011008001001001MA1999999100971MD1999999-0081REMSYN070AAXX  04184 83498 32595 23608 10291 20227 30097 40102 82100 333 59008;
0168834980999992008110500004-17733-039250FM-12+000399999V0200501N003112200019N0020001N1+02541+02351101181ADDGF102991021001008001031001KA1240M+03131MA1999999101131MD1999999-0051REMSYN088AAXX  05004 83498 32595 20506 10254 20235 30113 40118 82030 333 10313 29079 55065 59005;
0156834980999992008110512004-17733-039250FM-12+000399999V0203601N004110450019N0020001N1+02761+02301101401ADDGF108991041021008001051999KA1240N+02321MA1999999101351MD1999999+0091REMSYN076AAXX  05124 83498 32595 83608 10276 20230 30135 40140 8425/ 333 20232 58009;
0137834980999992008110518004-17733-039250FM-12+000399999V0200501N004610450019N0020001N1+02981+02301101181ADDGF106991031011008001041001MA1999999101131MD1999999+0161REMSYN070AAXX  05184 83498 32595 60509 10298 20230 30113 40118 83140 333 58016;
0168834980999992008110600004-17733-039250FM-12+000399999V0203601N004112200019N0020001N1+02581+02171101161ADDGF103991031011008001001001KA1240M+03091MA1999999101111MD1999999-0021REMSYN088AAXX  06004 83498 32595 33608 10258 20217 30111 40116 83100 333 10309 29075 55035 59002;
0156834980999992008110612004-17733-039250FM-12+000399999V0203601N005710450019N0020001N1+02841+02261101311ADDGF106991041021008001031001KA1240N+02331MA1999999101261MD1999999-0091REMSYN076AAXX  06124 83498 32595 63611 10284 20226 30126 40131 84230 333 20233 59009;
0156834980999992008110618004-17733-039250FM-12+000399999V0200501N006712200019N0020001N1+02911+02271100891ADDGF102991001001999999001011MA1999999100841MD1999999-0291REMSYN070AAXX  06184 83498 32595 20513 10291 20227 30084 40089 80001 333 59029;EQDQ01+008002SCOLCB
0168834980999992008110700004-17733-039250FM-12+000399999V0200501N005110450019N0020001N1+02571+02191101011ADDGF106991031051008001051001KA1240M+03091MA1999999100961MD1999999-0151REMSYN088AAXX  07004 83498 32595 60510 10257 20219 30096 40101 83550 333 10309 29075 55029 59015;
0156834980999992008110712004-17733-039250FM-12+000399999V0203601N004610450019N0020001N1+02761+02161101201ADDGF108991041021008001041999KA1240N+02251MA1999999101151MD1999999-0111REMSYN076AAXX  07124 83498 32595 83609 10276 20216 30115 40120 8424/ 333 20225 59011;
0137834980999992008110718004-17733-039250FM-12+000399999V0200501N005110450019N0020001N1+02901+02201100851ADDGF106991031011008001041001MA1999999100801MD1999999-0041REMSYN070AAXX  07184 83498 32595 60510 10290 20220 30080 40085 83140 333 59004;
0168834980999992008110800004-17733-039250FM-12+000399999V0203601N004110450019N0020001N1+02561+02151100961ADDGF108991031011008001051001KA1240M+03011MA1999999100911MD1999999-0051REMSYN088AAXX  08004 83498 32595 83608 10256 20215 30091 40096 83150 333 10301 29073 55000 59005;
0156834980999992008110812004-17733-039250FM-12+000399999V0203601N003110450019N0020001N1+02711+02261101191ADDGF107991031051008001011001KA1240N+02281MA1999999101141MD1999999-0011REMSYN076AAXX  08124 83498 32595 73606 10271 20226 30114 40119 83510 333 20228 59001;
0156834980999992008110818004-17733-039250FM-12+000399999V0203601N006212200019N0020001N1+02891+02331100831ADDGF104991001001999999001011MA1999999100781MD1999999-0021REMSYN070AAXX  08184 83498 32595 43612 10289 20233 30078 40083 80001 333 59002;EQDQ01+008002SCOLCB
0168834980999992008110900004-17733-039250FM-12+000399999V0203601N002610450019N0020001N1+02571+02351101091ADDGF106991031051008001011001KA1240M+03091MA1999999101041MD1999999+0131REMSYN088AAXX  09004 83498 32595 63605 10257 20235 30104 40109 83510 333 10309 29080 55000 58013;
0156834980999992008110912004-17733-039250FM-12+000399999V0203601N006210450019N0020001N1+02761+02231101171ADDGF108991041051008001041999KA1240N+02311MA1999999101121MD1999999-0021REMSYN076AAXX  09124 83498 32595 83612 10276 20223 30112 40117 8454/ 333 20231 59002;
0137834980999992008110918004-17733-039250FM-12+000399999V0203601N004110450019N0020001N1+02901+02201100931ADDGF106991031011008001041001MA1999999100881MD1999999-0101REMSYN070AAXX  09184 83498 32595 63608 10290 20220 30088 40093 83140 333 59010;
0168834980999992008111000004-17733-039250FM-12+000399999V0203601N004110450019N0020001N1+02541+02111101001ADDGF106991021011008001051001KA1240M+03031MA1999999100951MD1999999-0091REMSYN088AAXX  10004 83498 32595 63608 10254 20211 30095 40100 82150 333 10303 29073 55018 59009;
0156834980999992008111012004-17733-039250FM-12+000399999V0203601N005710450019N0020001N1+02851+02261101221ADDGF105991031021008001041001KA1240N+02381MA1999999101171MD1999999+0051REMSYN076AAXX  10124 83498 32595 53611 10285 20226 30117 40122 83240 333 20238 58005;
0137834980999992008111018004-17733-039250FM-12+000399999V0203601N006710450019N0020001N1+02791+02251100891ADDGF106991021011008001011001MA1999999100841MD1999999-0041REMSYN070AAXX  10184 83498 32595 63613 10279 20225 30084 40089 82110 333 59004;
0168834980999992008111100004-17733-039250FM-12+000399999V0203601N004610450019N0020001N1+02571+02311101121ADDGF108991031051008001021999KA1240M+03041MA1999999101071MD1999999+0121REMSYN088AAXX  11004 83498 32595 83609 10257 20231 30107 40112 8352/ 333 10304 29079 55001 58012;
0201834980999992008111112004-17733-039250FM-12+000399999V0203201N002610450019N0020001N1+02421+02051101181ADDAA124001091AY161061AY221061GF108991041051008001011999KA1240N+02191MA1999999101131MD1999999-0041MW1211REMSYN088AAXX  11124 83498 21595 83205 10242 20205 30113 40118 72162 8451/ 333 20219 59004 60014;
0182834980999992008111118004-17733-039250FM-12+000399999V0203601N003110450019N0020001N1+02701+02131100831ADDAA106002091AY161061AY261061GF108991031061008001011999MA1999999100781MD1999999-0061MW1211REMSYN082AAXX  11184 83498 21595 83606 10270 20213 30078 40083 72166 8361/ 333 59006 60021;
0168834980999992008111200004-17733-039250FM-12+000399999V0203601N001510450019N0020001N1+02441+02091101111ADDGF108991031051008001041999KA1240M+02631MA1999999101061MD1999999-0011REMSYN088AAXX  12004 83498 32595 83603 10244 20209 30106 40111 8354/ 333 10263 29078 55000 59001;
0173834980999992008111212004-17733-039250FM-12+000399999V0203601N003610075019N0020001N1+02631+02371101131ADDAA124003091GF108991051051008001021999KA1240N+02251MA1999999101081MD1999999-0051REMSYN082AAXX  12124 83498 22595 83607 10263 20237 30108 40113 8552/ 333 20225 59005 60034;
0182834980999992008111218004-17733-039250FM-12+000399999V0200901N001010450019N0020001N1+02301+02221100851ADDAA106004191AY161061AY261061GF108991031071008001021999MA1999999100801MD1999999+0021MW1611REMSYN082AAXX  12184 83498 21595 80902 10230 20222 30080 40085 76166 8372/ 333 58002 60041;
0168834980999992008111300004-17733-039250FM-12+000399999V0200501N001510450019N0020001N1+02441+02251101051ADDGF107991041051008001011001KA1240M+02671MA1999999101001MD1999999-0061REMSYN088AAXX  13004 83498 32595 70503 10244 20225 30100 40105 84510 333 10267 29089 55000 59006;
0179834980999992008111312004-17733-039250FM-12+000399999V0203601N003610450019N0020001N1+02661+02311101131ADDAA124004091GF108991031051008001011999KA1240N+01991MA1999999101081MD1999999+0001REMSYN088AAXX  13124 83498 22595 83607 10266 20231 30108 40113 8351/ 333 20199 58000 60044 10042;
0137834980999992008111318004-17733-039250FM-12+000399999V0200501N004110450019N0020001N1+02761+02341100911ADDGF108991041051008001011999MA1999999100861MD1999999+0061REMSYN070AAXX  13184 83498 32595 80508 10276 20234 30086 40091 8451/ 333 58006;
0168834980999992008111400004-17733-039250FM-12+000399999V0203601N004110450019N0020001N1+02481+02111101031ADDGF106991031011008001011001KA1240M+02831MA1999999100981MD1999999-0021REMSYN088AAXX  14004 83498 32595 63608 10248 20211 30098 40103 83110 333 10283 29080 55000 59002;
0156834980999992008111412004-17733-039250FM-12+000399999V0203601N003110450019N0020001N1+02761+02321101141ADDGF107991041051008001011001KA1240N+02251MA1999999101091MD1999999+0011REMSYN076AAXX  14124 83498 32595 73606 10276 20232 30109 40114 84510 333 20225 58001;
0137834980999992008111418004-17733-039250FM-12+000399999V0203601N006210450019N0020001N1+02771+02321100851ADDGF107991041051008001011001MA1999999100801MD1999999-0061REMSYN070AAXX  14184 83498 32595 73612 10277 20232 30080 40085 84510 333 59006;
0168834980999992008111500004-17733-039250FM-12+000399999V0203601N002611050019N0020001N1+02511+02341100951ADDGF105991011011008001001021KA1240M+02971MA1999999100901MD1999999-0081REMSYN088AAXX  15004 83498 32595 53605 10251 20234 30090 40095 81102 333 10297 29084 55013 59008;
0156834980999992008111512004-17733-039250FM-12+000399999V0203601N006210450019N0020001N1+02741+02281100981ADDGF107991041021008001031001KA1240N+02261MA1999999100931MD1999999-0161REMSYN076AAXX  15124 83498 32595 73612 10274 20228 30093 40098 84230 333 20226 59016;
0137834980999992008111518004-17733-039250FM-12+000399999V0203601N005110450019N0020001N1+02821+02331100651ADDGF106991021011008001031001MA1999999100601MD1999999-0201REMSYN070AAXX  15184 83498 32595 63610 10282 20233 30060 40065 82130 333 59020;
0168834980999992008111600004-17733-039250FM-12+000399999V0203601N003612200019N0020001N1+02521+02091100931ADDGF103991031011008001001001KA1240M+03051MA1999999100881MD1999999-0021REMSYN088AAXX  16004 83498 32595 33607 10252 20209 30088 40093 83100 333 10305 29076 55013 59002;
0156834980999992008111612004-17733-039250FM-12+000399999V0203601N005110450019N0020001N1+02751+02241101021ADDGF107991041051008001011001KA1240N+02311MA1999999100971MD1999999+0041REMSYN076AAXX  16124 83498 32595 73610 10275 20224 30097 40102 84510 333 20231 58004;
0137834980999992008111618004-17733-039250FM-12+000399999V0203601N005712200019N0020001N1+02851+02381100811ADDGF103991011011008001031001MA1999999100761MD1999999+0161REMSYN070AAXX  16184 83498 32595 33611 10285 20238 30076 40081 81130 333 58016;
0168834980999992008111700004-17733-039250FM-12+000399999V0200501N002110075019N0020001N1+02511+02271101061ADDGF108991051051008001021999KA1240M+03031MA1999999101011MD1999999+0131REMSYN088AAXX  17004 83498 32595 80504 10251 20227 30101 40106 8552/ 333 10303 29081 55016 58013;
0156834980999992008111712004-17733-039250FM-12+000399999V0200501N002610450019N0020001N1+02761+02231101331ADDGF106991041021008001031001KA1240N+02171MA1999999101281MD1999999+0311REMSYN076AAXX  17124 83498 32595 60505 10276 20223 30128 40133 84230 333 20217 58031;
0137834980999992008111718004-17733-039250FM-12+000399999V0200501N003110450019N0020001N1+02841+02221101091ADDGF105991021011008001031001MA1999999101041MD1999999+0281REMSYN070AAXX  17184 83498 32595 50506 10284 20222 30104 40109 82130 333 58028;
0168834980999992008111800004-17733-039250FM-12+000399999V0200501N001512200019N0020001N1+02541+02211101231ADDGF103991031011008001001001KA1240M+03021MA1999999101181MD1999999+0171REMSYN088AAXX  18004 83498 32595 30503 10254 20221 30118 40123 83100 333 10302 29076 55038 58017;
0156834980999992008111812004-17733-039250FM-12+000399999V0200501N002110450019N0020001N1+02671+02201101251ADDGF107991041051008001011001KA1240N+02221MA1999999101201MD1999999-0081REMSYN076AAXX  18124 83498 32595 70504 10267 20220 30120 40125 84510 333 20222 59008;
0182834980999992008111818004-17733-039250FM-12+000399999V0200901N001510450019N0020001N1+02571+02271101051ADDAA106000591AY121061AY211061GF108991041051008001021999MA1999999101001MD1999999-0041MW1031REMSYN082AAXX  18184 83498 21595 80903 10257 20227 30100 40105 70321 8452/ 333 59004 69951;
0213834980999992008111900004-17733-039250FM-12+000399999V0209999C000010450019N0020001N1+02351+02221101191ADDAA106000391AY121061AY211061GF106991041051008001011001KA1240M+02711MA1999999101141MD1999999-0041MW1031REMSYN100AAXX  19004 83498 21595 60000 10235 20222 30114 40119 70321 84510 333 10271 29087 55000 59004 69931;
0201834980999992008111912004-17733-039250FM-12+000399999V0200501N001510450019N0020001N1+02401+02051101201ADDAA124003091AY161061AY261061GF108991031061008001011999KA1240N+02131MA1999999101151MD1999999-0051MW1621REMSYN088AAXX  19124 83498 21595 80503 10240 20205 30115 40120 76266 8361/ 333 20213 59005 60034;
0182834980999992008111918004-17733-039250FM-12+000399999V0200501N002610450019N0020001N1+02701+02281100951ADDAA106000021AY161061AY261061GF108991031051008001011999MA1999999100901MD1999999-0101MW1611REMSYN082AAXX  19184 83498 21595 80505 10270 20228 30090 40095 76166 8351/ 333 59010 69921;
0213834980999992008112000004-17733-039250FM-12+000399999V0201401N001510450019N0020001N1+02461+02091101081ADDAA106000891AY161061AY261061GF108991041051008001011999KA1240M+02931MA1999999101031MD1999999-0111MW1211REMSYN100AAXX  20004 83498 21595 81403 10246 20209 30103 40108 72166 8451/ 333 10293 29080 55000 59011 69971;
0201834980999992008112012004-17733-039250FM-12+000399999V0201801N005110450019N0020001N1+02501+02211101371ADDAA124007991AY161061AY261061GF108991041051008001021999KA1240N+02101MA1999999101321MD1999999+0171MW1211REMSYN088AAXX  20124 83498 21595 81810 10250 20221 30132 40137 72166 8452/ 333 20210 58017 60084;
0137834980999992008112018004-17733-039250FM-12+000399999V0201801N004110450019N0020001N1+02481+02171101231ADDGF108991041051008001021999MA1999999101181MD1999999+0281REMSYN070AAXX  20184 83498 32595 81808 10248 20217 30118 40123 8452/ 333 58028;
0213834980999992008112100004-17733-039250FM-12+000399999V0201801N003110450019N0020001N1+02181+02061101481ADDAA106007191AY161061AY261061GF108991031071008001021999KA1240M+02571MA1999999101431MD1999999+0401MW1611REMSYN100AAXX  21004 83498 21595 81806 10218 20206 30143 40148 76166 8372/ 333 10257 29089 55000 58040 60071;
0201834980999992008112112004-17733-039250FM-12+000399999V0201801N002110450019N0020001N1+02301+01981101631ADDAA124025991AY161061AY261061GF108991041071008001021999KA1240N+02001MA1999999101581MD1999999+0261MW1211REMSYN088AAXX  21124 83498 21595 81804 10230 20198 30158 40163 72166 8472/ 333 20200 58026 60264;
0182834980999992008112118004-17733-039250FM-12+000399999V0201801N001510450019N0020001N1+02441+02091101521ADDAA106003091AY161061AY261061GF108991031071008001021999MA1999999101471MD1999999+0291MW1211REMSYN082AAXX  21184 83498 21595 81803 10244 20209 30147 40152 72166 8372/ 333 58029 60031;
0213834980999992008112200004-17733-039250FM-12+000399999V0200501N000510075019N0020001N1+02201+01901101761ADDAA106006191AY161061AY261061GF108991051071008001021999KA1240M+02471MA1999999101711MD1999999+0281MW1621REMSYN100AAXX  22004 83498 21595 80501 10220 20190 30171 40176 76266 8572/ 333 10247 29082 55000 58028 60061;
0201834980999992008112212004-17733-039250FM-12+000399999V0200501N001010450019N0020001N1+02321+02201101731ADDAA124017091AY161061AY261061GF108991041071008001021999KA1240N+02021MA1999999101681MD1999999+0201MW1611REMSYN088AAXX  22124 83498 21595 80502 10232 20220 30168 40173 76166 8472/ 333 20202 58020 60174;
0182834980999992008112218004-17733-039250FM-12+000399999V0200501N001510450019N0020001N1+02361+02191101441ADDAA106001091AY161061AY261061GF108991031071008001021999MA1999999101391MD1999999-0081MW1611REMSYN082AAXX  22184 83498 21595 80503 10236 20219 30139 40144 76166 8372/ 333 59008 60011;
0213834980999992008112300004-17733-039250FM-12+000399999V0200501N001510450019N0020001N1+02141+02001101671ADDAA106008991AY161061AY261061GF108991031071008001021999KA1240M+02481MA1999999101621MD1999999-0091MW1611REMSYN100AAXX  23004 83498 21595 80503 10214 20200 30162 40167 76166 8372/ 333 10248 29092 55000 59009 60091;
0201834980999992008112312004-17733-039250FM-12+000399999V0201401N001010450019N0020001N1+02121+01781101641ADDAA124025991AY161061AY261061GF108991041071008001021999KA1240N+01761MA1999999101591MD1999999-0091MW1611REMSYN088AAXX  23124 83498 21595 81402 10212 20178 30159 40164 76166 8472/ 333 20176 59009 60264;
0182834980999992008112318004-17733-039250FM-12+000399999V0201401N002110450019N0020001N1+02341+01871101331ADDAA106000391AY161061AY261061GF108991031051008001011999MA1999999101281MD1999999-0111MW1211REMSYN082AAXX  23184 83498 21595 81404 10234 20187 30128 40133 72166 8351/ 333 59011 69931;
0213834980999992008112400004-17733-039250FM-12+000399999V0203601N003110075019N0020001N1+02321+01911101541ADDAA106000891AY161061AY261061GF108991051071008001021999KA1240M+02491MA1999999101491MD1999999-0131MW1621REMSYN100AAXX  24004 83498 21595 83606 10232 20191 30149 40154 76266 8572/ 333 10249 29079 55000 59013 69981;
0201834980999992008112412004-17733-039250FM-12+000399999V0200901N002110450019N0020001N1+02571+02311101501ADDAA124017091AY121061AY211061GF106991041051008001011001KA1240N+01971MA1999999101451MD1999999-0141MW1031REMSYN088AAXX  24124 83498 21595 60904 10257 20231 30145 40150 70321 84510 333 20197 59014 60174;
0137834980999992008112418004-17733-039250FM-12+000399999V0200901N003610450019N0020001N1+02571+02111101121ADDGF107991041051008001051001MA1999999101071MD1999999-0211REMSYN070AAXX  24184 83498 32595 70907 10257 20211 30107 40112 84550 333 59021;
0178834980999992008112500004-17733-039250FM-12+000399999V0200901N001010012019N0020001N1+02361+02071101371ADDGA1091+999999999GF109991091999999999999999KA1240M+02651MA1999999101321MD1999999-0171REMSYN082AAXX  25004 83498 32/95 90902 10236 20207 30132 40137 333 10265 29083 55000 59017;
0201834980999992008112512004-17733-039250FM-12+000399999V0201401N002110075019N0020001N1+02421+02051101471ADDAA124022191AY161061AY221061GF108991081071008001999999KA1240N+02091MA1999999101421MD1999999-0031MW1651REMSYN088AAXX  25124 83498 21595 81404 10242 20205 30142 40147 76562 887// 333 20209 59003 60224;
0182834980999992008112518004-17733-039250FM-12+000399999V0200901N003110075019N0020001N1+02641+02141101201ADDAA106006191AY161061AY261061GF108991051071008001021999MA1999999101151MD1999999+0081MW1211REMSYN082AAXX  25184 83498 21595 80906 10264 20214 30115 40120 72166 8572/ 333 58008 60061;
0168834980999992008112600004-17733-039250FM-12+000399999V0200901N001510450019N0020001N1+02301+01941101401ADDGF105991031051008001011001KA1240M+02571MA1999999101351MD1999999+0031REMSYN088AAXX  26004 83498 32595 50903 10230 20194 30135 40140 83510 333 10257 29078 55005 58003;
0201834980999992008112612004-17733-039250FM-12+000399999V0200501N001510450019N0020001N1+02281+02231101531ADDAA124070191AY161061AY261061GF108991041071008001021999KA1240N+02081MA1999999101481MD1999999+0061MW1631REMSYN088AAXX  26124 83498 21595 80503 10228 20223 30148 40153 76366 8472/ 333 20208 58006 60704;
0182834980999992008112618004-17733-039250FM-12+000399999V0200501N003110450019N0020001N1+02711+02221101211ADDAA106002091AY121061AY211061GF106991031051008001041001MA1999999101161MD1999999+0011MW1031REMSYN082AAXX  26184 83498 21595 60506 10271 20222 30116 40121 70321 83540 333 58001 60021;
0213834980999992008112700004-17733-039250FM-12+000399999V0200501N002610450019N0020001N1+02401+02281101471ADDAA106004191AY161061AY261061GF108991031071008001021999KA1240M+02771MA1999999101421MD1999999+0071MW1211REMSYN100AAXX  27004 83498 21595 80505 10240 20228 30142 40147 72166 8372/ 333 10277 29090 55013 58007 60041;
0201834980999992008112712004-17733-039250FM-12+000399999V0203601N001510450019N0020001N1+02361+02011101481ADDAA124008991AY161061AY261061GF108991041071008001021999KA1240N+02121MA1999999101451MD1999999-0031MW1611REMSYN088AAXX  27124 83498 21595 83603 10236 20201 30145 40148 76166 8472/ 333 20212 59003 60094;
0182834980999992008112718004-17733-039250FM-12+000399999V0203601N001510450019N0020001N1+02701+02131101121ADDAA106000891AY161061AY261061GF108991031071008001021999MA1999999101071MD1999999-0091MW1611REMSYN082AAXX  27184 83498 21595 83603 10270 20213 30107 40112 76166 8372/ 333 59009 69981;
0213834980999992008112800004-17733-039250FM-12+000399999V0200501N003610075019N0020001N1+02101+01801101411ADDAA106023991AY161061AY261061GF108991061071008001021999KA1240M+02741MA1999999101361MD1999999-0061MW1631REMSYN100AAXX  28004 83498 21595 80507 10210 20180 30136 40141 76366 8672/ 333 10274 29080 55000 59006 60241;
0201834980999992008112812004-17733-039250FM-12+000399999V0203601N003110450019N0020001N1+02341+02131101341ADDAA124030091AY161061AY261061GF108991031071008001021999KA1240N+01921MA1999999101291MD1999999-0161MW1211REMSYN088AAXX  28124 83498 21595 83606 10234 20213 30129 40134 72166 8372/ 333 20192 59016 60304;
0182834980999992008112818004-17733-039250FM-12+000399999V0200501N002610450019N0020001N1+02311+02181101031ADDAA106017091AY161061AY261061GF108991031071008001021999MA1999999100981MD1999999-0091MW1211REMSYN082AAXX  28184 83498 21595 80505 10231 20218 30098 40103 72166 8372/ 333 59009 60171;
0213834980999992008112900004-17733-039250FM-12+000399999V0200901N002610450019N0020001N1+02281+02231101201ADDAA106005191AY161061AY261061GF108991031071008001021999KA1240M+02371MA1999999101151MD1999999-0211MW1611REMSYN100AAXX  29004 83498 21595 80905 10228 20223 30115 40120 76166 8372/ 333 10237 29094 55000 59021 60051;
0201834980999992008112912004-17733-039250FM-12+000399999V0203601N001510450019N0020001N1+02241+01941101241ADDAA124068191AY161061AY261061GF108991041071008001021999KA1240N+02021MA1999999101191MD1999999-0101MW1611REMSYN088AAXX  29124 83498 21595 83603 10224 20194 30119 40124 76166 8472/ 333 20202 59010 60684;
0182834980999992008112918004-17733-039250FM-12+000399999V0203601N001010075019N0020001N1+02241+01971101031ADDAA106014091AY161061AY261061GF108991051071008001021999MA1999999100981MD1999999+0001MW1611REMSYN082AAXX  29184 83498 21595 83602 10224 20197 30098 40103 76166 8572/ 333 58000 60141;
0213834980999992008113000004-17733-039250FM-12+000399999V0203601N003610075019N0020001N1+02141+01841101211ADDAA106007191AY161061AY261061GF108991051071008001021999KA1240M+02411MA1999999101161MD1999999+0011MW1211REMSYN100AAXX  30004 83498 21595 83607 10214 20184 30116 40121 72166 8572/ 333 10241 29082 55000 58001 60071;
0201834980999992008113012004-17733-039250FM-12+000399999V0203201N004110075019N0020001N1+02491+02211101151ADDAA124018091AY121061AY211061GF108991051051008001021999KA1240N+01871MA1999999101101MD1999999-0091MW1031REMSYN088AAXX  30124 83498 21595 83208 10249 20221 30110 40115 70321 8552/ 333 20187 59009 60184;
0137834980999992008113018004-17733-039250FM-12+000399999V0200501N003610450019N0020001N1+02781+02381100741ADDGF106991041051008001041001MA1999999100691MD1999999-0291REMSYN070AAXX  30184 83498 32595 60507 10278 20238 30069 40074 84540 333 59029;
0213834980999992008120100004-17733-039250FM-12+000399999V0202701N001510450019N0020001N1+02421+02331100971ADDAA106003091AY161061AY261061GF108991041071008001021999KA1240M+03031MA1999999100921MD1999999-0241MW1611REMSYN100AAXX  01004 83498 21595 82703 10242 20233 30092 40097 76166 8472/ 333 10303 29089 55014 59024 60031;
0201834980999992008120112004-17733-039250FM-12+000399999V0203601N002610450019N0020001N1+02521+02211101071ADDAA124019191AY161061AY261061GF108991031071008001021999KA1240N+02121MA1999999101021MD1999999-0081MW1211REMSYN088AAXX  01124 83498 21595 83605 10252 20221 30102 40107 72166 8372/ 333 20212 59008 60194;
0182834980999992008120118004-17733-039250FM-12+000399999V0200901N001010450019N0020001N1+02661+02241100901ADDAA106000391AY161061AY261061GF108991041071008001021999MA1999999100851MD1999999+0261MW1211REMSYN082AAXX  01184 83498 21595 80902 10266 20224 30085 40090 72166 8472/ 333 58026 69931;
0168834980999992008120200004-17733-039250FM-12+000399999V0200901N001010450019N0020001N1+02421+02111101081ADDGF108991031071008001021999KA1240M+02691MA1999999101031MD1999999+0111REMSYN088AAXX  02004 83498 32595 80902 10242 20211 30103 40108 8372/ 333 10269 29082 55000 58011;
0173834980999992008120212004-17733-039250FM-12+000399999V0203601N001510450019N0020001N1+02671+02371100931ADDAA124000391GF108991021071008001021999KA1240N+02211MA1999999100881MD1999999-0141REMSYN082AAXX  02124 83498 22595 83603 10267 20237 30088 40093 8272/ 333 20221 59014 69934;
0137834980999992008120218004-17733-039250FM-12+000399999V0200501N002612200019N0020001N1+02871+02421100401ADDGF104991031021008001041001MA1999999100351MD1999999-0501REMSYN070AAXX  02184 83498 32595 40505 10287 20242 30035 40040 83240 333 59050;
0168834980999992008120300004-17733-039250FM-12+000399999V0203601N003612200019N0020001N1+02591+02401100521ADDGF104991041061008001001001KA1240M+02991MA1999999100471MD1999999-0561REMSYN088AAXX  03004 83498 32595 43607 10259 20240 30047 40052 84600 333 10299 29085 55044 59056;
0201834980999992008120312004-17733-039250FM-12+000399999V0203601N004110450019N0020001N1+02881+02281100331ADDAA124000591AY161061AY261061GF106991021011008001041001KA1240N+02261MA1999999100281MD1999999-0601MW1211REMSYN088AAXX  03124 83498 21595 63608 10288 20228 30028 40033 72166 82140 333 20226 59060 69964;
0137834980999992008120318004-17733-039250FM-12+000399999V0200501N003610450019N0020001N1+02981+02301100151ADDGF105991031011008001031001MA1999999100101MD1999999-0251REMSYN070AAXX  03184 83498 32595 50507 10298 20230 30010 40015 83130 333 59025;
0213834980999992008120400004-17733-039250FM-12+000399999V0203601N006210450019N0020001N1+02581+02231100461ADDAA106000391AY191061AY221061GF108991031061008001021999KA1240M+03131MA1999999100411MD1999999-0061MW1911REMSYN100AAXX  04004 83498 21595 83612 10258 20223 30041 40046 79192 8362/ 333 10313 29075 55004 59006 69931;
0201834980999992008120412004-17733-039250FM-12+000399999V0201801N003110450019N0020001N1+02281+02231100941ADDAA124018091AY161061AY261061GF108991031071008001021999KA1240N+02121MA1999999100891MD1999999+0611MW1611REMSYN088AAXX  04124 83498 21595 81806 10228 20223 30089 40094 76166 8372/ 333 20212 58061 60184;
0182834980999992008120418004-17733-039250FM-12+000399999V0201801N005110450019N0020001N1+02261+02181100881ADDAA106007991AY161061AY261061GF108991041071008001021999MA1999999100831MD1999999+0731MW1611REMSYN082AAXX  04184 83498 21595 81810 10226 20218 30083 40088 76166 8472/ 333 58073 60081;
0213834980999992008120500004-17733-039250FM-12+000399999V0201401N002610450019N0020001N1+02261+02181101201ADDAA106004191AY161061AY261061GF108991041071008001021999KA1240M+02631MA1999999101151MD1999999+0771MW1611REMSYN100AAXX  05004 83498 21595 81405 10226 20218 30115 40120 76166 8472/ 333 10263 29096 55000 58077 60041;
0201834980999992008120512004-17733-039250FM-12+000399999V0201401N003610450019N0020001N1+02441+02091101491ADDAA124018091AY161061AY261061GF108991041061008001011999KA1240N+02021MA1999999101441MD1999999-0551MW1211REMSYN088AAXX  05124 83498 21595 81407 10244 20209 30144 40149 72166 8461/ 333 20202 59055 60184;
0182834980999992008120518004-17733-039250FM-12+000399999V0201401N004110450019N0020001N1+02501+02051101171ADDAA106003091AY161061AY261061GF108991031061008001021999MA1999999101121MD1999999+0291MW1611REMSYN082AAXX  05184 83498 21595 81408 10250 20205 30112 40117 76166 8362/ 333 58029 60031;
0213834980999992008120600004-17733-039250FM-12+000399999V0200901N001510450019N0020001N1+02201+01901101631ADDAA106004191AY161061AY261061GF108991041071008001021999KA1240M+02591MA1999999101581MD1999999+0401MW1211REMSYN100AAXX  06004 83498 21595 80903 10220 20190 30158 40163 72166 8472/ 333 10259 29081 55000 58040 60041;
0173834980999992008120612004-17733-039250FM-12+000399999V0200901N003110450019N0020001N1+02491+02171101681ADDAA124007191GF108991041051008001021999KA1240N+02041MA1999999101631MD1999999+0191REMSYN082AAXX  06124 83498 22595 80906 10249 20217 30163 40168 8452/ 333 20204 58019 60074;
0182834980999992008120618004-17733-039250FM-12+000399999V0200901N002110075019N0020001N1+02591+02171101531ADDAA106001091AY121061AY211061GF108991051051008001021999MA1999999101481MD1999999+0361MW1031REMSYN082AAXX  06184 83498 21595 80904 10259 20217 30148 40153 70321 8552/ 333 58036 60011;
0213834980999992008120700004-17733-039250FM-12+000399999V0201401N002610450019N0020001N1+02451+02051101731ADDAA106000021AY161061AY261061GF108991041051008001021999KA1240M+02591MA1999999101681MD1999999+0101MW1211REMSYN100AAXX  07004 83498 21595 81405 10245 20205 30168 40173 72166 8452/ 333 10259 29080 55000 58010 69921;
0173834980999992008120712004-17733-039250FM-12+000399999V0200901N001510450019N0020001N1+02521+02091101811ADDAA124001091GF108991031051008001011999KA1240N+02191MA1999999101761MD1999999+0131REMSYN082AAXX  07124 83498 22595 80903 10252 20209 30176 40181 8351/ 333 20219 58013 60014;
0137834980999992008120718004-17733-039250FM-12+000399999V0200901N003110450019N0020001N1+02641+02161101681ADDGF108991041051008001011999MA1999999101631MD1999999+0151REMSYN070AAXX  07184 83498 32595 80906 10264 20216 30163 40168 8451/ 333 58015;
0213834980999992008120800004-17733-039250FM-12+000399999V0200901N001510450019N0020001N1+02401+02031101831ADDAA106000591AY161061AY221061GF108991021051008001011999KA1240M+02611MA1999999101781MD1999999+0101MW1211REMSYN100AAXX  08004 83498 21595 80903 10240 20203 30178 40183 72162 8251/ 333 10261 29078 55000 58010 69941;
0173834980999992008120812004-17733-039250FM-12+000399999V0200901N003110450019N0020001N1+02631+02161101841ADDAA124000591GF106991041051008001041001KA1240N+02281MA1999999101791MD1999999+0031REMSYN082AAXX  08124 83498 22595 60906 10263 20216 30179 40184 84540 333 20228 58003 69944;
0137834980999992008120818004-17733-039250FM-12+000399999V0201401N003110450019N0020001N1+02571+02191101631ADDGF107991041051008001041001MA1999999101581MD1999999-0051REMSYN070AAXX  08184 83498 32595 71406 10257 20219 30158 40163 84540 333 59005;
0168834980999992008120900004-17733-039250FM-12+000399999V0201401N001010075019N0020001N1+02381+02191101741ADDGF108991061061008001021999KA1240M+02711MA1999999101691MD1999999-0091REMSYN088AAXX  09004 83498 32595 81402 10238 20219 30169 40174 8662/ 333 10271 29084 55002 59009;
0201834980999992008120912004-17733-039250FM-12+000399999V0201401N001510450019N0020001N1+02461+02111101661ADDAA124000021AY161061AY221061GF106991031021008001011001KA1240N+01941MA1999999101611MD1999999-0181MW1211REMSYN088AAXX  09124 83498 21595 61403 10246 20211 30161 40166 72162 83210 333 20194 59018 69924;
0137834980999992008120918004-17733-039250FM-12+000399999V0201401N002610450019N0020001N1+02641+02161101431ADDGF107991031011008001031001MA1999999101381MD1999999-0201REMSYN070AAXX  09184 83498 32595 71405 10264 20216 30138 40143 83130 333 59020;
0168834980999992008121000004-17733-039250FM-12+000399999V0200901N001010450019N0020001N1+02361+01991101441ADDGF105991021011008001031001KA1240M+02751MA1999999101391MD1999999-0301REMSYN088AAXX  10004 83498 32595 50902 10236 20199 30139 40144 82130 333 10275 29079 55043 59030;
0156834980999992008121012004-17733-039250FM-12+000399999V0203601N002610450019N0020001N1+02731+02241101341ADDGF105991031021008001041001KA1240N+01951MA1999999101291MD1999999-0321REMSYN076AAXX  10124 83498 32595 53605 10273 20224 30129 40134 83240 333 20195 59032;
0137834980999992008121018004-17733-039250FM-12+000399999V0200501N003612200019N0020001N1+02811+02271100971ADDGF101991011011008001001001MA1999999100921MD1999999-0461REMSYN070AAXX  10184 83498 32595 10507 10281 20227 30092 40097 81100 333 59046;
0168834980999992008121100004-17733-039250FM-12+000399999V0200501N002112200019N0020001N1+02501+02321101121ADDGF103991031021008001001001KA1240M+02931MA1999999101071MD1999999-0321REMSYN088AAXX  11004 83498 32595 30504 10250 20232 30107 40112 83200 333 10293 29082 55042 59032;
0156834980999992008121112004-17733-039250FM-12+000399999V0203601N004110075019N0020001N1+02741+02281101181ADDGF105991051021008001001001KA1240N+02091MA1999999101131MD1999999-0161REMSYN076AAXX  11124 83498 32595 53608 10274 20228 30113 40118 85200 333 20209 59016;
0137834980999992008121118004-17733-039250FM-12+000399999V0200501N004112200019N0020001N1+02841+02351100851ADDGF104991021011008001031001MA1999999100801MD1999999-0121REMSYN070AAXX  11184 83498 32595 40508 10284 20235 30080 40085 82130 333 59012;
0168834980999992008121200004-17733-039250FM-12+000399999V0203601N003612200019N0020001N1+02561+02191101071ADDGF103991021011008001031001KA1240M+02951MA1999999101021MD1999999-0051REMSYN088AAXX  12004 83498 32595 33607 10256 20219 30102 40107 82130 333 10295 29078 55044 59005;
0156834980999992008121212004-17733-039250FM-12+000399999V0203601N004112200019N0020001N1+02741+02321101231ADDGF106991041021008001001011KA1240N+02181MA1999999101181MD1999999+0051REMSYN076AAXX  12124 83498 32595 63608 10274 20232 30118 40123 84201 333 20218 58005;
0137834980999992008121218004-17733-039250FM-12+000399999V0203601N004610450019N0020001N1+02861+02351100941ADDGF105991021011008001041001MA1999999100891MD1999999+0091REMSYN070AAXX  12184 83498 32595 53609 10286 20235 30089 40094 82140 333 58009;
0168834980999992008121300004-17733-039250FM-12+000399999V0203601N003612200019N0020001N1+02561+02191101031ADDGF102991021011008001001001KA1240M+03041MA1999999100981MD1999999-0041REMSYN088AAXX  13004 83498 32595 23607 10256 20219 30098 40103 82100 333 10304 29078 55032 59004;
0156834980999992008121312004-17733-039250FM-12+000399999V0203601N003110450019N0020001N1+02741+02321101171ADDGF106991031021008001031001KA1240N+02261MA1999999101121MD1999999-0061REMSYN076AAXX  13124 83498 32595 63606 10274 20232 30112 40117 83230 333 20226 59006;
0137834980999992008121318004-17733-039250FM-12+000399999V0203601N003610450019N0020001N1+02801+02381100851ADDGF105991021011008001031001MA1999999100801MD1999999-0091REMSYN070AAXX  13184 83498 32595 53607 10280 20238 30080 40085 82130 333 59009;
0213834980999992008121400004-17733-039250FM-12+000399999V0201401N001510075019N0020001N1+02441+02091101281ADDAA106023191AY161061AY221061GF108991081071008001999999KA1240M+02991MA1999999101231MD1999999+0251MW1631REMSYN100AAXX  14004 83498 21595 81403 10244 20209 30123 40128 76362 887// 333 10299 29080 55000 58025 60231;
0201834980999992008121412004-17733-039250FM-12+000399999V0202301N001510450019N0020001N1+02401+02071101351ADDAA124055991AY161061AY261061GF108991041061008001021999KA1240N+02131MA1999999101301MD1999999+0181MW1621REMSYN088AAXX  14124 83498 21595 82303 10240 20207 30130 40135 76266 8462/ 333 20213 58018 60564;
0182834980999992008121418004-17733-039250FM-12+000399999V0201801N001510450019N0020001N1+02601+02191100991ADDAA106008991AY161061AY261061GF108991031061008001021999MA1999999100941MD1999999+0141MW1621REMSYN082AAXX  14184 83498 21595 81803 10260 20219 30094 40099 76266 8362/ 333 58014 60091;
0168834980999992008121500004-17733-039250FM-12+000399999V0201401N001010450019N0020001N1+02441+02091101221ADDGF108991041061008001011999KA1240M+02631MA1999999101171MD1999999-0061REMSYN088AAXX  15004 83498 32595 81402 10244 20209 30117 40122 8461/ 333 10263 29080 55000 59006;
0201834980999992008121512004-17733-039250FM-12+000399999V0203601N003610450019N0020001N1+02661+02241101051ADDAA124016091AY161061AY221061GF108991041051008001011011KA1240N+02101MA1999999101001MD1999999-0301MW1211REMSYN088AAXX  15124 83498 21595 83607 10266 20224 30100 40105 72162 84511 333 20210 59030 60164;
0137834980999992008121518004-17733-039250FM-12+000399999V0200501N002610450019N0020001N1+02741+02281100701ADDGF106991031051008001031001MA1999999100651MD1999999-0291REMSYN070AAXX  15184 83498 32595 60505 10274 20228 30065 40070 83530 333 59029;
0168834980999992008121600004-17733-039250FM-12+000399999V0203601N003610450019N0020001N1+02541+02171100871ADDGF106991031051008001011001KA1240M+02911MA1999999100821MD1999999-0351REMSYN088AAXX  16004 83498 32595 63607 10254 20217 30082 40087 83510 333 10291 29078 55000 59035;
0201834980999992008121612004-17733-039250FM-12+000399999V0203601N004110450019N0020001N1+02621+02251100901ADDAA124000021AY161061AY221061GF108991041051008001011999KA1240N+02211MA1999999100851MD1999999-0151MW1211REMSYN088AAXX  16124 83498 21595 83608 10262 20225 30085 40090 72162 8451/ 333 20221 59015 69924;
0137834980999992008121618004-17733-039250FM-12+000399999V0203601N004610450019N0020001N1+02741+02261100601ADDGF108991031011008001031001MA1999999100551MD1999999-0101REMSYN070AAXX  16184 83498 32595 83609 10274 20226 30055 40060 83130 333 59010;
0168834980999992008121700004-17733-039250FM-12+000399999V0203601N003612200019N0020001N1+02401+01971100881ADDGF102991021011008001001001KA1240M+02901MA1999999100831MD1999999+0011REMSYN088AAXX  17004 83498 32595 23607 10240 20197 30083 40088 82100 333 10290 29077 55018 58001;
0156834980999992008121712004-17733-039250FM-12+000399999V0203601N003110450019N0020001N1+02821+02291101071ADDGF106991031051008001031001KA1240N+02171MA1999999101021MD1999999+0171REMSYN076AAXX  17124 83498 32595 63606 10282 20229 30102 40107 83530 333 20217 58017;
0137834980999992008121718004-17733-039250FM-12+000399999V0200501N004610450019N0020001N1+02881+02321100851ADDGF105991021011008001031001MA1999999100801MD1999999+0251REMSYN070AAXX  17184 83498 32595 50509 10288 20232 30080 40085 82130 333 58025;
0168834980999992008121800004-17733-039250FM-12+000399999V0200501N002112200019N0020001N1+02561+02171101161ADDGF102991021011008001001001KA1240M+02971MA1999999101111MD1999999+0281REMSYN088AAXX  18004 83498 32595 20504 10256 20217 30111 40116 82100 333 10297 29076 55020 58028;
0156834980999992008121812004-17733-039250FM-12+000399999V0203601N004611050019N0020001N1+02861+02311101321ADDGF106991021011008001001021KA1240N+02331MA1999999101271MD1999999+0251REMSYN076AAXX  18124 83498 32595 63609 10286 20231 30127 40132 82102 333 20233 58025;
0137834980999992008121818004-17733-039250FM-12+000399999V0203601N005110450019N0020001N1+02981+02331101051ADDGF105991031011008001041001MA1999999101001MD1999999+0201REMSYN070AAXX  18184 83498 32595 53610 10298 20233 30100 40105 83140 333 58020;
0168834980999992008121900004-17733-039250FM-12+000399999V0200501N001512200019N0020001N1+02461+02031101281ADDGF102991021011008001001001KA1240M+02951MA1999999101231MD1999999+0121REMSYN088AAXX  19004 83498 32595 20503 10246 20203 30123 40128 82100 333 10295 29074 55037 58012;
0156834980999992008121912004-17733-039250FM-12+000399999V0200901N002110075019N0020001N1+02801+02251101311ADDGF106991061021008001001001KA1240N+02071MA1999999101261MD1999999-0011REMSYN076AAXX  19124 83498 32595 60904 10280 20225 30126 40131 86200 333 20207 59001;
0137834980999992008121918004-17733-039250FM-12+000399999V0200901N002610450019N0020001N1+02901+02321100941ADDGF105991021011008001031001MA1999999100891MD1999999-0111REMSYN070AAXX  19184 83498 32595 50905 10290 20232 30089 40094 82130 333 59011;
0168834980999992008122000004-17733-039250FM-12+000399999V0200901N001012200019N0020001N1+02521+02071101111ADDGF101991011011008001001001KA1240M+02881MA1999999101061MD1999999-0171REMSYN088AAXX  20004 83498 32595 10902 10252 20207 30106 40111 81100 333 10288 29074 55040 59017;
0201834980999992008122012004-17733-039250FM-12+000399999V0201401N001010450019N0020001N1+02401+02031101211ADDAA124014091AY161061AY221061GF108991041051008001011999KA1240N+02121MA1999999101161MD1999999-0101MW1621REMSYN088AAXX  20124 83498 21595 81402 10240 20203 30116 40121 76262 8451/ 333 20212 59010 60144;
0137834980999992008122018004-17733-039250FM-12+000399999V0200901N002110450019N0020001N1+02601+02191100871ADDGF108991031021008001031001MA1999999100821MD1999999-0071REMSYN070AAXX  20184 83498 32595 80904 10260 20219 30082 40087 83230 333 59007;
0168834980999992008122100004-17733-039250FM-12+000399999V0200901N001512200019N0020001N1+02461+02091101041ADDGF102991021011008001001001KA1240M+02791MA1999999100991MD1999999-0071REMSYN088AAXX  21004 83498 32595 20903 10246 20209 30099 40104 82100 333 10279 29080 55030 59007;
0201834980999992008122112004-17733-039250FM-12+000399999V0200901N001510450019N0020001N1+02761+02191101291ADDAA124001091AY161061AY221061GF108991041051008001031999KA1240N+02081MA1999999101241MD1999999+0081MW1211REMSYN088AAXX  21124 83498 21595 80903 10276 20219 30124 40129 72162 8453/ 333 20208 58008 60014;
0137834980999992008122118004-17733-039250FM-12+000399999V0200901N003110450019N0020001N1+02821+02401100991ADDGF108991031011008001031001MA1999999100941MD1999999+0121REMSYN070AAXX  21184 83498 32595 80906 10282 20240 30094 40099 83130 333 58012;
0168834980999992008122200004-17733-039250FM-12+000399999V0200901N001012200019N0020001N1+02521+02091101261ADDGF103991031011008001001001KA1240M+02951MA1999999101211MD1999999+0221REMSYN088AAXX  22004 83498 32595 30902 10252 20209 30121 40126 83100 333 10295 29076 55012 58022;
0201834980999992008122212004-17733-039250FM-12+000399999V0200501N002610450019N0020001N1+02481+02131101371ADDAA124009991AY161061AY221061GF108991041061008001011999KA1240N+02171MA1999999101321MD1999999+0081MW1631REMSYN088AAXX  22124 83498 21595 80505 10248 20213 30132 40137 76362 8461/ 333 20217 58008 60104;
0182834980999992008122218004-17733-039250FM-12+000399999V0200901N003610450019N0020001N1+02741+02281101001ADDAA106001091AY161061AY261061GF105991031051008001031001MA1999999100951MD1999999+0011MW1311REMSYN082AAXX  22184 83498 21595 50907 10274 20228 30095 40100 73166 83530 333 58001 60011;
0213834980999992008122300004-17733-039250FM-12+000399999V0200901N001510450019N0020001N1+02441+02051101421ADDAA106002091AY161061AY261061GF107991031051008001011001KA1240M+02881MA1999999101371MD1999999+0161MW1211REMSYN100AAXX  23004 83498 21595 70903 10244 20205 30137 40142 72166 83510 333 10288 29079 55002 58016 60021;
0201834980999992008122312004-17733-039250FM-12+000399999V0200501N001510450019N0020001N1+02721+02321101441ADDAA124004191AY161061AY261061GF106991041021008001011001KA1240N+02171MA1999999101391MD1999999+0071MW1211REMSYN088AAXX  23124 83498 21595 60503 10272 20232 30139 40144 72166 84210 333 20217 58007 60044;
0137834980999992008122318004-17733-039250FM-12+000399999V0200501N002110450019N0020001N1+02801+02311101001ADDGF105991021011008001031001MA1999999100951MD1999999+0001REMSYN070AAXX  23184 83498 32595 50504 10280 20231 30095 40100 82130 333 58000;
0168834980999992008122400004-17733-039250FM-12+000399999V0200501N001510450019N0020001N1+02461+02071101251ADDGF108991041051008001011999KA1240M+02941MA1999999101201MD1999999-0171REMSYN088AAXX  24004 83498 32595 80503 10246 20207 30120 40125 8451/ 333 10294 29078 55007 59017;
0201834980999992008122412004-17733-039250FM-12+000399999V0203601N002110450019N0020001N1+02561+02211101231ADDAA124018091AY161061AY221061GF108991041061008001021999KA1240N+02141MA1999999101181MD1999999-0211MW1211REMSYN088AAXX  24124 83498 21595 83604 10256 20221 30118 40123 72162 8462/ 333 20214 59021 60184;
0182834980999992008122418004-17733-039250FM-12+000399999V0200501N003110450019N0020001N1+02701+02281101181ADDAA106002091AY161061AY261061GF108991031061008001021999MA1999999101141MD1999999-0191MW1611REMSYN082AAXX  24184 83498 21595 80506 10270 20228 30114 40118 76166 8362/ 333 59019 60021;
0213834980999992008122500004-17733-039250FM-12+000399999V0203601N001010450019N0020001N1+02401+02031101101ADDAA106007191AY161061AY261061GF108991041071008001021999KA1240M+02731MA1999999101051MD1999999-0151MW1611REMSYN100AAXX  25004 83498 21595 83602 10240 20203 30105 40110 76166 8472/ 333 10273 29080 55000 59015 60071;
0173834980999992008122512004-17733-039250FM-12+000399999V0203601N003610450019N0020001N1+02781+02361100931ADDAA124008991GF106991041021008001031001KA1240N+02171MA1999999100881MD1999999-0301REMSYN082AAXX  25124 83498 22595 63607 10278 20236 30088 40093 84230 333 20217 59030 60094;
0137834980999992008122518004-17733-039250FM-12+000399999V0203601N004110450019N0020001N1+02901+02301101001ADDGF105991021011008001041001MA1999999100951MD1999999-0191REMSYN070AAXX  25184 83498 32595 53608 10290 20230 30095 40100 82140 333 59019;
0168834980999992008122600004-17733-039250FM-12+000399999V0203601N004610450019N0020001N1+02601+02191100961ADDGF108991041051008001011999KA1240M+02951MA1999999100911MD1999999-0141REMSYN088AAXX  26004 83498 32595 83609 10260 20219 30091 40096 8451/ 333 10295 29076 55000 59014;
0201834980999992008122612004-17733-039250FM-12+000399999V0203601N005110450019N0020001N1+02761+02281100861ADDAA124000891AY161061AY221061GF108991041051008001031001KA1240N+02271MA1999999100811MD1999999-0071MW1211REMSYN088AAXX  26124 83498 21595 83610 10276 20228 30081 40086 72162 84530 333 20227 59007 69974;
0137834980999992008122618004-17733-039250FM-12+000399999V0203601N004610450019N0020001N1+02861+02311100981ADDGF108991031051008001031001MA1999999100931MD1999999-0021REMSYN070AAXX  26184 83498 32595 83609 10286 20231 30093 40098 83530 333 59002;
0168834980999992008122700004-17733-039250FM-12+000399999V0203601N005110450019N0020001N1+02581+02171100811ADDGF106991031051008001011001KA1240M+03051MA1999999100761MD1999999-0151REMSYN088AAXX  27004 83498 32595 63610 10258 20217 30076 40081 83510 333 10305 29076 55010 59015;
0156834980999992008122712004-17733-039250FM-12+000399999V0203601N007210450019N0020001N1+02821+02361101081ADDGF108991031021008001041021KA1240N+02231MA1999999101031MD1999999+0221REMSYN076AAXX  27124 83498 32595 83614 10282 20236 30103 40108 83242 333 20223 58022;
0137834980999992008122718004-17733-039250FM-12+000399999V0203601N005110450019N0020001N1+02901+02411101281ADDGF108991031011008001041021MA1999999101231MD1999999+0301REMSYN070AAXX  27184 83498 32595 83610 10290 20241 30123 40128 83142 333 58030;
0168834980999992008122800004-17733-039250FM-12+000399999V0203601N003112200019N0020001N1+02561+02151101011ADDGF103991031011008001001001KA1240M+02941MA1999999100961MD1999999+0201REMSYN088AAXX  28004 83498 32595 33606 10256 20215 30096 40101 83100 333 10294 29077 55005 58020;
0156834980999992008122812004-17733-039250FM-12+000399999V0203601N004110450019N0020001N1+02761+02321101231ADDGF106991021011008001041011KA1240N+02251MA1999999101181MD1999999+0151REMSYN076AAXX  28124 83498 32595 63608 10276 20232 30118 40123 82141 333 20225 58015;
0137834980999992008122818004-17733-039250FM-12+000399999V0203601N004610450019N0020001N1+02861+02371101381ADDGF105991031011008001041001MA1999999101331MD1999999+0101REMSYN070AAXX  28184 83498 32595 53609 10286 20237 30133 40138 83140 333 58010;
0168834980999992008122900004-17733-039250FM-12+000399999V0200501N003112200019N0020001N1+02521+02131101141ADDGF102991021011008001001001KA1240M+03031MA1999999101091MD1999999+0131REMSYN088AAXX  29004 83498 32595 20506 10252 20213 30109 40114 82100 333 10303 29078 55010 58013;
0156834980999992008122912004-17733-039250FM-12+000399999V0200501N003110450019N0020001N1+02821+02291101331ADDGF106991041021008001051001KA1240N+02211MA1999999101281MD1999999+0101REMSYN076AAXX  29124 83498 32595 60506 10282 20229 30128 40133 84250 333 20221 58010;
0137834980999992008122918004-17733-039250FM-12+000399999V0200501N004110450019N0020001N1+02901+02341101421ADDGF105991031011008001041001MA1999999101371MD1999999+0041REMSYN070AAXX  29184 83498 32595 50508 10290 20234 30137 40142 83140 333 58004;
0168834980999992008123000004-17733-039250FM-12+000399999V0200501N001512200019N0020001N1+02521+02091101251ADDGF102991021011008001001001KA1240M+03051MA1999999101201MD1999999+0111REMSYN088AAXX  30004 83498 32595 20503 10252 20209 30120 40125 82100 333 10305 29075 55038 58011;
0156834980999992008123012004-17733-039250FM-12+000399999V0203601N002610450019N0020001N1+02761+02211101271ADDGF106991031011008001041011KA1240N+02111MA1999999101221MD1999999-0061REMSYN076AAXX  30124 83498 32595 63605 10276 20221 30122 40127 83141 333 20211 59006;
0137834980999992008123018004-17733-039250FM-12+000399999V0200501N003610450019N0020001N1+02881+02211101311ADDGF105991021011008001041001MA1999999101261MD1999999-0111REMSYN070AAXX  30184 83498 32595 50507 10288 20221 30126 40131 82140 333 59011;
0168834980999992008123100004-17733-039250FM-12+000399999V0200501N001012200019N0020001N1+02501+02071101251ADDGF101991011011008001001001KA1240M+02981MA1999999101201MD1999999+0001REMSYN088AAXX  31004 83498 32595 10502 10250 20207 30120 40125 81100 333 10298 29073 55041 58000;
0156834980999992008123112004-17733-039250FM-12+000399999V0203601N001010450019N0020001N1+02721+02301101361ADDGF105991031021008001041001KA1240N+02161MA1999999101311MD1999999+0091REMSYN076AAXX  31124 83498 32595 53602 10272 20230 30131 40136 83240 333 20216 58009;
0137834980999992008123118004-17733-039250FM-12+000399999V0200501N002112200019N0020001N1+02901+02341101411ADDGF104991021011008001041001MA1999999101361MD1999999+0101REMSYN070AAXX  31184 83498 32595 40504 10290 20234 30136 40141 82140 333 58010;
