0196823920999992001010100004-03690-040340FM-12+008399999V0200501N002612200019N0040001N1+02701+02011101131ADDAA199000091GA1001+999999999GF100991001001999999001001KA1240M+03621MA1999999100111MD1999999+0011REMSYN070AAXX  01004 82392 32996 00505 10270 20201 30011 40113 333 10362 58001;EQDQ01  00002PRCP99
0186823920999992001010112004-03690-040340FM-12+008399999V0200901N001010042019N0500001N1+02781+02091101241ADDAA199000091GF106991051051004501031001KA1240N+02381MA1999999100221MD1999999-0011REMSYN076AAXX  01124 82392 32499 60902 10278 20209 30022 40124 85530 333 20238 59001;EQDQ01  00002PRCP99
0167823920999992001010118004-03690-040340FM-12+008399999V0200901N001510450019N0500001N1+03501+01721100821ADDAA199000091GF106991041021004501031001MA1999999099811MD1999999-0011REMSYN070AAXX  01184 82392 32499 60903 10350 20172 39981 40082 84230 333 59001;EQDQ01  00002PRCP99
0186823920999992001010200004-03690-040340FM-12+008399999V0200501N003110450019N0040001N1+02701+02111101221ADDAA199000091GF105991041041004501031001KA1240M+03601MA1999999100201MD1999999+0091REMSYN076AAXX  02004 82392 32496 50506 10270 20211 30020 40122 84430 333 10360 58009;EQDQ01  00002PRCP99
0202823920999992001010212004-03690-040340FM-12+008399999V0202701N000519999999N0500001N1+02701+02111101331ADDAA199000091GF108991999021004501001001KA1240N+02401MA1999999100311MD1999999+0091REMSYN076AAXX  02124 82392 32499 82701 10270 20211 30031 40133 83200 333 20240 58009;EQDQ01+000032SCOTLCQ02  00002PRCP99
0183823920999992001010218004-03690-040340FM-12+008399999V0200501N002619999999N0500001N1+02741+01951100921ADDAA199000091GF106991999021004501001001MA1999999099901MD1999999+0091REMSYN070AAXX  02184 82392 32499 60505 10274 20195 39990 40092 84200 333 58009;EQDQ01+000042SCOTLCQ02  00002PRCP99
0202823920999992001010300004-03690-040340FM-12+008399999V0200501N001519999999N0040001N1+02641+02231101181ADDAA199000091GF105991999021004501001001KA1240M+03401MA1999999100161MD1999999-0041REMSYN076AAXX  03004 82392 32496 50503 10264 20223 30016 40118 84200 333 10340 59004;EQDQ01+000042SCOTLCQ02  00002PRCP99
0186823920999992001010312004-03690-040340FM-12+008399999V0200901N001010450019N0500001N1+02781+02131101281ADDAA199000091GF107991041051004501031001KA1240N+02421MA1999999100261MD1999999-0051REMSYN076AAXX  03124 82392 32499 70902 10278 20213 30026 40128 84530 333 20242 59005;EQDQ01  00002PRCP99
0167823920999992001010318004-03690-040340FM-12+008399999V0200501N002610450019N0500001N1+03501+01771100811ADDAA199000091GF106991041041004501031001MA1999999099801MD1999999-0101REMSYN070AAXX  03184 82392 32499 60505 10350 20177 39980 40081 84430 333 59010;EQDQ01  00002PRCP99
0186823920999992001010400004-03690-040340FM-12+008399999V0200501N003112200019N0040001N1+02781+02091101121ADDAA199000091GF104991031001008001031011KA1240M+03521MA1999999100101MD1999999-0061REMSYN076AAXX  04004 82392 32596 40506 10278 20209 30010 40112 83031 333 10352 59006;EQDQ01  00002PRCP99
0202823920999992001010412004-03690-040340FM-12+008399999V0200901N001019999999N0500001N1+02741+02191101321ADDAA199000091GF108991999021004501001001KA1240N+02441MA1999999100301MD1999999+0041REMSYN076AAXX  04124 82392 32499 80902 10274 20219 30030 40132 83200 333 20244 58004;EQDQ01+000032SCOTLCQ02  00002PRCP99
0201823920999992001010418004-03690-040340FM-12+008399999V0200501N000519999999N0500001N1+02441+02341101071ADDAA106008991AY121061AY221061GF108991999021004501001001MA1999999100041MD1999999+0241MW1201REMSYN082AAXX  04184 82392 21499 80501 10244 20234 30004 40107 72022 83200 333 58024 60091;EQDQ01+000032SCOTLC
0220823920999992001010500004-03690-040340FM-12+008399999V0203201N000510042019N0040001N1+02401+02311101271ADDAA106000591AY151061AY221061GF108991999021004501001001KA1240M+02941MA1999999100251MD1999999+0151MW1021REMSYN088AAXX  05004 82392 21496 83201 10240 20231 30025 40127 70252 86200 333 10294 58015 69941;EQDQ01+000062SCOTLC
0173823920999992001010512004-03690-040340FM-12+008399999V0201801N000512200019N0500001N1+02781+02131101321ADDAA124009991GF104991041021004501001001KA1240N+02261MA1999999100301MD1999999+0001REMSYN082AAXX  05124 82392 22499 41801 10278 20213 30030 40132 84200 333 20226 58000 60104;
0167823920999992001010518004-03690-040340FM-12+008399999V0201801N001512200019N0500001N1+03521+01601100811ADDAA199000091GF103991021011004501031001MA1999999099801MD1999999-0241REMSYN070AAXX  05184 82392 32499 31803 10352 20160 39980 40081 82130 333 59024;EQDQ01  00002PRCP99
0186823920999992001010600004-03690-040340FM-12+008399999V0203601N002612200019N0040001N1+02681+02091101131ADDAA199000091GF102991011011004501031001KA1240M+03561MA1999999100111MD1999999-0141REMSYN076AAXX  06004 82392 32496 23605 10268 20209 30011 40113 81130 333 10356 59014;EQDQ01  00002PRCP99
0186823920999992001010612004-03690-040340FM-12+008399999V0200901N001010042019N0020001N1+02741+02171101321ADDAA199000091GF107991051051004501031001KA1240N+02201MA1999999100301MD1999999+0001REMSYN076AAXX  06124 82392 32495 70902 10274 20217 30030 40132 85530 333 20220 58000;EQDQ01  00002PRCP99
0183823920999992001010618004-03690-040340FM-12+008399999V0209999C000019999999N0500001N1+02441+02001100761ADDAA199000091GF106991999021004501001001MA1999999099751MD1999999-0051REMSYN070AAXX  06184 82392 32499 60000 10244 20200 39975 40076 84200 333 59005;EQDQ01+000042SCOTLCQ02  00002PRCP99
0202823920999992001010700004-03690-040340FM-12+008399999V0203601N005112200019N0040001N1+02681+02241101081ADDAA199000091GF104991999021008001001001KA1240M+03481MA1999999100061MD1999999-0051REMSYN076AAXX  07004 82392 32596 43610 10268 20224 30006 40108 81200 333 10348 59005;EQDQ01+000012SCOTLCQ02  00002PRCP99
0201823920999992001010712004-03690-040340FM-12+008399999V0203601N001010042019N0500001N1+02741+02341101161ADDAA124000591AY151061AY251061GF106991051051004501031001KA1240N+02431MA1999999100141MD1999999-0161MW1021REMSYN088AAXX  07124 82392 21499 63602 10274 20234 30014 40116 70255 85530 333 20243 59016 69944;
0154823920999992001010718004-03690-040340FM-12+008399999V0200501N004610042019N0500001N1+02941+02081100871ADDAA106003091GF107991051051004501021001MA1999999099851MD1999999+0101REMSYN076AAXX  07184 82392 21499 70509 10294 20208 39985 40087 85520 333 58010 60031;
0186823920999992001010800004-03690-040340FM-12+008399999V0209999C000010450019N0040001N1+02581+02251101121ADDAA199000091GF107991031051004501011001KA1240M+03101MA1999999100101MD1999999+0041REMSYN076AAXX  08004 82392 32496 70000 10258 20225 30010 40112 83510 333 10310 58004;EQDQ01  00002PRCP99
0173823920999992001010812004-03690-040340FM-12+008399999V0200901N001010450019N0500001N1+02721+02121101181ADDAA124003091GF106991041041004501031001KA1240N+02111MA1999999100161MD1999999+0021REMSYN082AAXX  08124 82392 22499 60902 10272 20212 30016 40118 84430 333 20211 58002 60034;
0167823920999992001010818004-03690-040340FM-12+008399999V0200501N003112200019N0500001N1+03541+01761100671ADDAA199000091GF102991011011004501031001MA1999999099661MD1999999-0191REMSYN070AAXX  08184 82392 32499 20506 10354 20176 39966 40067 81130 333 59019;EQDQ01  00002PRCP99
0186823920999992001010912004-03690-040340FM-12+008399999V0200901N001510450019N0500001N1+02781+01981101261ADDAA199000091GF107991031051004501011001KA1240N+02381MA1999999100241MD1999999+0081REMSYN076AAXX  09124 82392 32499 70903 10278 20198 30024 40126 83510 333 20238 58008;EQDQ01  00002PRCP99
0167823920999992001010918004-03690-040340FM-12+008399999V0203601N002610450019N0500001N1+03441+01921100741ADDAA199000091GF106991031021004501011001MA1999999099731MD1999999+0071REMSYN070AAXX  09184 82392 32499 63605 10344 20192 39973 40074 83210 333 58007;EQDQ01  00002PRCP99
0186823920999992001011000004-03690-040340FM-12+008399999V0203601N004112200019N0040001N1+02641+02141101041ADDAA199000091GF104991021011004501011011KA1240M+03441MA1999999100021MD1999999+0021REMSYN076AAXX  10004 82392 32496 43608 10264 20214 30002 40104 82111 333 10344 58002;EQDQ01  00002PRCP99
0186823920999992001011012004-03690-040340FM-12+008399999V0200901N002610450019N0500001N1+02721+02121101171ADDAA199000091GF108991031051004501021011KA1240N+02241MA1999999100151MD1999999-0091REMSYN076AAXX  10124 82392 32499 80905 10272 20212 30015 40117 83521 333 20224 59009;EQDQ01  00002PRCP99
0182823920999992001011018004-03690-040340FM-12+008399999V0200901N001010450019N0500001N1+03301+01841100841ADDAA106000191AY121061AY251061GF107991031051004501011001MA1999999099821MD1999999+0091MW1021REMSYN082AAXX  10184 82392 21499 70902 10330 20184 39982 40084 70225 83510 333 58009 69911;
0186823920999992001011100004-03690-040340FM-12+008399999V0200501N006210042019N0040001N1+02661+02021101111ADDAA199000091GF108991061051004501011999KA1240M+03341MA1999999100091MD1999999+0071REMSYN076AAXX  11004 82392 32496 80512 10266 20202 30009 40111 8651/ 333 10334 58007;EQDQ01  00002PRCP99
0173823920999992001011112004-03690-040340FM-12+008399999V0200501N002610450019N0500001N1+02931+02001101281ADDAA124000191GF107991041041004501031001KA1240N+02381MA1999999100261MD1999999+0111REMSYN082AAXX  11124 82392 22499 70505 10293 20200 30026 40128 84430 333 20238 58011 69914;
0167823920999992001011118004-03690-040340FM-12+008399999V0201401N002610450019N0500001N1+03491+01631100821ADDAA199000091GF106991031021004501011001MA1999999099811MD1999999-0011REMSYN070AAXX  11184 82392 32499 61405 10349 20163 39981 40082 83210 333 59001;EQDQ01  00002PRCP99
0202823920999992001011200004-03690-040340FM-12+008399999V0200901N003119999999N0040001N1+02701+02111101181ADDAA199000091GF106991999021004501001001KA1240M+03581MA1999999100161MD1999999+0071REMSYN076AAXX  12004 82392 32496 60906 10270 20211 30016 40118 84200 333 10358 58007;EQDQ01+000042SCOTLCQ02  00002PRCP99
0201823920999992001011212004-03690-040340FM-12+008399999V0200201N001010450019N0500001N1+02701+02111101271ADDAA124000191AY151061AY221061GF107991041051004501031001KA1240N+02401MA1999999100251MD1999999-0011MW1021REMSYN088AAXX  12124 82392 21499 70202 10270 20211 30025 40127 70252 84530 333 20240 59001 69924;
0182823920999992001011218004-03690-040340FM-12+008399999V0203601N002610042019N0500001N1+02761+02281100911ADDAA106011991AY161061AY261061GF108991061071004501011999MA1999999099891MD1999999+0081MW1021REMSYN082AAXX  12184 82392 21499 83605 10276 20228 39989 40091 70266 8671/ 333 58008 60121;
0201823920999992001011300004-03690-040340FM-12+008399999V0203601N000510450019N0040001N1+02301+02221101231ADDAA106003091AY161061AY261061GF108991031071004501021001KA1240M+03001MA1999999100201MD1999999+0041MW1021REMSYN088AAXX  13004 82392 21496 83601 10230 20222 30020 40123 70266 83720 333 10300 58004 60031;
0201823920999992001011312004-03690-040340FM-12+008399999V0201801N000510042019N0500001N1+02501+02171101291ADDAA124020191AY161061AY251061GF106991051041004501031001KA1240N+02201MA1999999100261MD1999999+0011MW1021REMSYN088AAXX  13124 82392 21499 61801 10250 20217 30026 40129 70265 85430 333 20220 58001 60204;
0167823920999992001011318004-03690-040340FM-12+008399999V0201401N000510450019N0500001N1+03061+02081100921ADDAA199000091GF108991031071004501021999MA1999999099901MD1999999+0011REMSYN070AAXX  13184 82392 32499 81401 10306 20208 39990 40092 8372/ 333 58001;EQDQ01  00002PRCP99
0201823920999992001011400004-03690-040340FM-12+008399999V0209999C000010450019N0040001N1+02401+02301101331ADDAA106002091AY161061AY221061GF108991031061004501021999KA1240M+03181MA1999999100301MD1999999+0101MW1021REMSYN088AAXX  14004 82392 21496 80000 10240 20230 30030 40133 70262 8362/ 333 10318 58010 60021;
0173823920999992001011412004-03690-040340FM-12+008399999V0209999C000010450019N0500001N1+02541+02231101281ADDAA124002091GF106991041021004501031001KA1240N+02241MA1999999100261MD1999999+0001REMSYN082AAXX  14124 82392 22499 60000 10254 20223 30026 40128 84230 333 20224 58000 60024;
0183823920999992001011418004-03690-040340FM-12+008399999V0200901N002619999999N0500001N1+03181+02011100851ADDAA199000091GF106991999021004501001001MA1999999099831MD1999999-0071REMSYN070AAXX  14184 82392 32499 60905 10318 20201 39983 40085 84200 333 59007;EQDQ01+000042SCOTLCQ02  00002PRCP99
0186823920999992001011500004-03690-040340FM-12+008399999V0203601N003610450019N0040001N1+02691+02081101111ADDAA199000091GF106991041051004501021001KA1240M+03261MA1999999100091MD1999999-0211REMSYN076AAXX  15004 82392 32496 63607 10269 20208 30009 40111 84520 333 10326 59021;EQDQ01  00002PRCP99
0186823920999992001011512004-03690-040340FM-12+008399999V0201401N000510450019N0500001N1+02661+02091101251ADDAA199000091GF106991041021004501031001KA1240N+02301MA1999999100231MD1999999-0031REMSYN076AAXX  15124 82392 32499 61401 10266 20209 30023 40125 84230 333 20230 59003;EQDQ01  00002PRCP99
0167823920999992001011518004-03690-040340FM-12+008399999V0201801N000512200019N0500001N1+03421+01511100831ADDAA199000091GF104991041021004501001001MA1999999099821MD1999999-0011REMSYN070AAXX  15184 82392 32499 41801 10342 20151 39982 40083 84200 333 59001;EQDQ01  00002PRCP99
0186823920999992001011600004-03690-040340FM-12+008399999V0203601N002610042019N0040001N1+02731+02121101161ADDAA199000091GF108991061021004501031999KA1240M+03441MA1999999100141MD1999999+0051REMSYN076AAXX  16004 82392 32496 83605 10273 20212 30014 40116 8623/ 333 10344 58005;EQDQ01  00002PRCP99
0186823920999992001011612004-03690-040340FM-12+008399999V0209999C000010450019N0500001N1+02601+02191101221ADDAA199000091GF108991041071004501021999KA1240N+02301MA1999999100201MD1999999-0031REMSYN076AAXX  16124 82392 32499 80000 10260 20219 30020 40122 8472/ 333 20230 59003;EQDQ01  00002PRCP99
0182823920999992001011618004-03690-040340FM-12+008399999V0209999C000010450019N0500001N1+02961+02381100891ADDAA106001091AY161061AY261061GF106991041071004501011001MA1999999099871MD1999999+0051MW1611REMSYN082AAXX  16184 82392 21499 60000 10296 20238 39987 40089 76166 84710 333 58005 60011;
0186823920999992001011700004-03690-040340FM-12+008399999V0200501N001012200019N0040001N1+02631+02071101111ADDAA199000021GF104991999021008001001001KA1240M+03131MA1999999100091MD1999999-0051REMSYN076AAXX  17004 82392 32596 40502 10263 20207 30009 40111 83200 333 10313 59005;EQDQ01+000032SCOTLC
0173823920999992001011712004-03690-040340FM-12+008399999V0200901N000510450019N0500001N1+02721+01881101151ADDAA124002091GF106991041021004501031001KA1240N+02041MA1999999100131MD1999999-0071REMSYN082AAXX  17124 82392 22499 60901 10272 20188 30013 40115 84230 333 20204 59007 60024;
0167823920999992001011718004-03690-040340FM-12+008399999V0200901N000512200019N0500001N1+03481+01471100801ADDAA199000091GF104991041021004501001001MA1999999099781MD1999999-0091REMSYN070AAXX  17184 82392 32499 40901 10348 20147 39978 40080 84200 333 59009;EQDQ01  00002PRCP99
0196823920999992001011800004-03690-040340FM-12+008399999V0203601N004112200019N0040001N1+02621+02071101161ADDAA199000091GA1001+999999999GF100991001001999999001001KA1240M+03461MA1999999100141MD1999999+0051REMSYN070AAXX  18004 82392 32996 03608 10262 20207 30014 40116 333 10346 58005;EQDQ01  00002PRCP99
0186823920999992001011812004-03690-040340FM-12+008399999V0200901N001010450019N0500001N1+02861+01951101271ADDAA199000091GF106991041021004501011001KA1240N+02181MA1999999100251MD1999999+0121REMSYN076AAXX  18124 82392 32499 60902 10286 20195 30025 40127 84210 333 20218 58012;EQDQ01  00002PRCP99
0167823920999992001011818004-03690-040340FM-12+008399999V0200501N001512200019N0500001N1+03561+01591100811ADDAA199000091GF105991031021004501001011MA1999999099801MD1999999+0021REMSYN070AAXX  18184 82392 32499 50503 10356 20159 39980 40081 83201 333 58002;EQDQ01  00002PRCP99
0196823920999992001011900004-03690-040340FM-12+008399999V0203601N001512200019N0040001N1+02761+01911101221ADDAA199000091GA1001+999999999GF100991001001999999001001KA1240M+03581MA1999999100201MD1999999-0061REMSYN070AAXX  19004 82392 32996 03603 10276 20191 30020 40122 333 10358 59006;EQDQ01  00002PRCP99
0186823920999992001011912004-03690-040340FM-12+008399999V0201801N000510450019N0500001N1+02761+02041101381ADDAA199000091GF105991041021004501031001KA1240N+02091MA1999999100361MD1999999+0111REMSYN076AAXX  19124 82392 32499 51801 10276 20204 30036 40138 84230 333 20209 58011;EQDQ01  00002PRCP99
0167823920999992001011918004-03690-040340FM-12+008399999V0200901N001510450019N0500001N1+03491+01581100941ADDAA199000091GF106991041021004501011001MA1999999099931MD1999999+0131REMSYN070AAXX  19184 82392 32499 60903 10349 20158 39993 40094 84210 333 58013;EQDQ01  00002PRCP99
0196823920999992001012000004-03690-040340FM-12+008399999V0203601N001512200019N0040001N1+02741+02051101221ADDAA199000091GA1001+999999999GF100991001001999999001001KA1240M+03581MA1999999100201MD1999999+0001REMSYN070AAXX  20004 82392 32996 03603 10274 20205 30020 40122 333 10358 58000;EQDQ01  00002PRCP99
0202823920999992001012012004-03690-040340FM-12+008399999V0201401N000510042019N0500001N1+02821+02171101421ADDAA199000091GF106991999021004501001001KA1240N+02321MA1999999100401MD1999999+0041REMSYN076AAXX  20124 82392 32499 61401 10282 20217 30040 40142 85200 333 20232 58004;EQDQ01+000052SCOTLCQ02  00002PRCP99
0183823920999992001012018004-03690-040340FM-12+008399999V0200901N000512200019N0500001N1+03571+01601100911ADDAA199000091GF104991999021004501001001MA1999999099901MD1999999-0031REMSYN070AAXX  20184 82392 32499 40901 10357 20160 39990 40091 83200 333 59003;EQDQ01+000032SCOTLCQ02  00002PRCP99
0186823920999992001012100004-03690-040340FM-12+008399999V0203601N003112200019N0040001N1+02661+02141101221ADDAA199000091GF103991031021004501001001KA1240M+03661MA1999999100261MD1999999+0061REMSYN076AAXX  21004 82392 32496 33606 10266 20214 30026 40122 83200 333 10366 58006;EQDQ01  00002PRCP99
0186823920999992001012112004-03690-040340FM-12+008399999V0201801N001010450019N0500001N1+02861+02161101361ADDAA199000091GF106991041021004501031001KA1240N+02421MA1999999100341MD1999999-0061REMSYN076AAXX  21124 82392 32499 61802 10286 20216 30034 40136 84230 333 20242 59006;EQDQ01  00002PRCP99
0182823920999992001012118004-03690-040340FM-12+008399999V0200501N003110450019N0500001N1+02601+02141101091ADDAA106000391AY151061AY221061GF107991031051004501031001MA1999999100061MD1999999+0161MW1021REMSYN082AAXX  21184 82392 21499 70506 10260 20214 30006 40109 70252 83530 333 58016 69931;
0186823920999992001012200004-03690-040340FM-12+008399999V0202301N000512200019N0040001N1+02501+02321101321ADDAA199000091GF103991031001004501031001KA1240M+03301MA1999999100301MD1999999+0041REMSYN076AAXX  22004 82392 32496 32301 10250 20232 30030 40132 83030 333 10330 58004;EQDQ01  00002PRCP99
0173823920999992001012212004-03690-040340FM-12+008399999V0200901N001010450019N0500001N1+02801+02151101381ADDAA124000391GF105991041021004501031001KA1240N+02301MA1999999100361MD1999999+0021REMSYN082AAXX  22124 82392 22499 50902 10280 20215 30036 40138 84230 333 20230 58002 69934;
0182823920999992001012218004-03690-040340FM-12+008399999V0200901N001510450019N0500001N1+02801+02311101041ADDAA106007191AY161061AY221061GF107991041041004501031001MA1999999100021MD1999999-0041MW1031REMSYN082AAXX  22184 82392 21499 70903 10280 20231 30002 40104 70362 84430 333 59004 60071;
0186823920999992001012300004-03690-040340FM-12+008399999V0203601N001512200019N0040001N1+02551+02271101261ADDAA199000091GF102991011021004501011001KA1240M+03431MA1999999100241MD1999999-0061REMSYN076AAXX  23004 82392 32496 23603 10255 20227 30024 40126 81210 333 10343 59006;EQDQ01  00002PRCP99
0173823920999992001012312004-03690-040340FM-12+008399999V0201401N000510450019N0500001N1+02721+02151101321ADDAA124007191GF108991031051004501021999KA1240N+02371MA1999999100301MD1999999-0061REMSYN082AAXX  23124 82392 22499 81401 10272 20215 30030 40132 8352/ 333 20237 59006 60074;
0167823920999992001012318004-03690-040340FM-12+008399999V0201401N000510450019N0500001N1+03371+01791100881ADDAA199000091GF106991041051004501021001MA1999999099871MD1999999-0151REMSYN070AAXX  23184 82392 32499 61401 10337 20179 39987 40088 84520 333 59015;EQDQ01  00002PRCP99
0186823920999992001012400004-03690-040340FM-12+008399999V0203601N001012200019N0040001N1+02661+02141101221ADDAA199000091GF103991031051004501001001KA1240M+03461MA1999999100201MD1999999-0041REMSYN076AAXX  24004 82392 32496 33602 10266 20214 30020 40122 83500 333 10346 59004;EQDQ01  00002PRCP99
0186823920999992001012412004-03690-040340FM-12+008399999V0200901N001012200019N0500001N1+02841+01881101421ADDAA199000091GF104991031021017501031001KA1240N+02121MA1999999100401MD1999999+0101REMSYN076AAXX  24124 82392 32799 40902 10284 20188 30040 40142 83230 333 20212 58010;EQDQ01  00002PRCP99
0167823920999992001012418004-03690-040340FM-12+008399999V0201401N000512200019N0500001N1+03341+01631100981ADDAA199000091GF103991031021004501001001MA1999999099961MD1999999+0091REMSYN070AAXX  24184 82392 32499 31401 10334 20163 39996 40098 83200 333 58009;EQDQ01  00002PRCP99
0196823920999992001012500004-03690-040340FM-12+008399999V0203601N002612200019N0040001N1+02641+01981101261ADDAA199000091GA1001+999999999GF100991001001999999001001KA1240M+03481MA1999999100241MD1999999+0041REMSYN070AAXX  25004 82392 32996 03605 10264 20198 30024 40126 333 10348 58004;EQDQ01  00002PRCP99
0186823920999992001012512004-03690-040340FM-12+008399999V0209999C000010042019N0500001N1+02821+02051101391ADDAA199000091GF106991051041004501011001KA1240N+02081MA1999999100371MD1999999-0031REMSYN076AAXX  25124 82392 32499 60000 10282 20205 30037 40139 85410 333 20208 59003;EQDQ01  00002PRCP99
0182823920999992001012518004-03690-040340FM-12+008399999V0203601N000510042019N0500001N1+03211+02081100921ADDAA106000191AY151061AY251061GF106991051041004501011001MA1999999099901MD1999999-0061MW1021REMSYN082AAXX  25184 82392 21499 63601 10321 20208 39990 40092 70255 85410 333 59006 69921;
0220823920999992001012600004-03690-040340FM-12+008399999V0209999C000019999999N0040001N1+02601+02101101271ADDAA106000191AY151061AY251061GF108991999021004501001001KA1240M+03461MA1999999100251MD1999999+0061MW1021REMSYN088AAXX  26004 82392 21496 80000 10260 20210 30025 40127 70255 84200 333 10346 58006 69911;EQDQ01+000042SCOTLC
0173823920999992001012612004-03690-040340FM-12+008399999V0200901N001010042019N0500001N1+02801+02001101381ADDAA124000391GF106991051051004501031001KA1240N+02221MA1999999100361MD1999999-0011REMSYN082AAXX  26124 82392 22499 60902 10280 20200 30036 40138 85530 333 20222 59001 69934;
0167823920999992001012618004-03690-040340FM-12+008399999V0200501N003112200019N0500001N1+03321+01611100921ADDAA199000091GF101991011011004501001001MA1999999099901MD1999999+0001REMSYN070AAXX  26184 82392 32499 10506 10332 20161 39990 40092 81100 333 58000;EQDQ01  00002PRCP99
0196823920999992001012700004-03690-040340FM-12+008399999V0200501N003112200019N0040001N1+02681+02091101181ADDAA199000091GA1001+999999999GF100991001001999999001001KA1240M+03461MA1999999100161MD1999999-0091REMSYN070AAXX  27004 82392 32996 00506 10268 20209 30016 40118 333 10346 59009;EQDQ01  00002PRCP99
0201823920999992001012712004-03690-040340FM-12+008399999V0201401N000510450019N0500001N1+02601+02271101321ADDAA124002091AY121061AY261061GF106991041051004501031001KA1240N+02301MA1999999100301MD1999999-0061MW1021REMSYN088AAXX  27124 82392 21499 61401 10260 20227 30030 40132 70226 84530 333 20230 59006 60024;
0167823920999992001012718004-03690-040340FM-12+008399999V0201401N001010450019N0500001N1+03301+01761100881ADDAA199000091GF108991041071004501021999MA1999999099861MD1999999-0041REMSYN070AAXX  27184 82392 32499 81402 10330 20176 39986 40088 8472/ 333 59004;EQDQ01  00002PRCP99
0195823920999992001012800004-03690-040340FM-12+008399999V0209999C000012200019N0040001N1+02501+02131101221ADDAA106078091AY161061AY261061GF103991999999999999999999KA1240M+03441MA1999999100201MD1999999+0041MW1021REMSYN082AAXX  28004 82392 21996 30000 10250 20213 30020 40122 70266 333 10344 58004 60781;
0173823920999992001012812004-03690-040340FM-12+008399999V0203601N001010042019N0500001N1+02701+02281101311ADDAA124078091GF106991051051004501011001KA1240N+02101MA1999999100291MD1999999-0011REMSYN082AAXX  28124 82392 22499 63602 10270 20228 30029 40131 85510 333 20210 59001 60784;
0183823920999992001012818004-03690-040340FM-12+008399999V0209999C000019999999N0500001N1+03341+01871100851ADDAA199000091GF106991999021008001001001MA1999999099831MD1999999-0031REMSYN070AAXX  28184 82392 32599 60000 10334 20187 39983 40085 84200 333 59003;EQDQ01+000042SCOTLCQ02  00002PRCP99
0220823920999992001012900004-03690-040340FM-12+008399999V0203601N001512200019N0040001N1+02561+02131101191ADDAA106010991AY161061AY261061GF102991999011004501001001KA1240M+03401MA1999999100171MD1999999-0031MW1021REMSYN088AAXX  29004 82392 21496 23603 10256 20213 30017 40119 70266 85100 333 10340 59003 60111;EQDQ01+000052SCOTLC
0173823920999992001012912004-03690-040340FM-12+008399999V0202301N000510450019N0500001N1+02641+02181101221ADDAA124010991GF106991041041004501031001KA1240N+02121MA1999999100201MD1999999-0091REMSYN082AAXX  29124 82392 22499 62301 10264 20218 30020 40122 84430 333 20212 59009 60114;
0167823920999992001012918004-03690-040340FM-12+008399999V0200501N001010450019N0500001N1+03201+01751100761ADDAA199000091GF106991041021004501031001MA1999999099741MD1999999-0091REMSYN070AAXX  29184 82392 32499 60502 10320 20175 39974 40076 84230 333 59009;EQDQ01  00002PRCP99
0186823920999992001013000004-03690-040340FM-12+008399999V0203601N005112200019N0040001N1+02601+02081100991ADDAA199000091GF102991021021004501001001KA1240M+03271MA1999999099971MD1999999-0201REMSYN076AAXX  30004 82392 32496 23610 10260 20208 39997 40099 82200 333 10327 59020;EQDQ01  00002PRCP99
0186823920999992001013012004-03690-040340FM-12+008399999V0200901N000510450019N0500001N1+02741+02021101181ADDAA199000091GF106991041041004501031001KA1240N+02221MA1999999100161MD1999999-0041REMSYN076AAXX  30124 82392 32499 60901 10274 20202 30016 40118 84430 333 20222 59004;EQDQ01  00002PRCP99
0182823920999992001013018004-03690-040340FM-12+008399999V0202701N000510042019N0500001N1+03041+02281100641ADDAA106000391AY121061AY201061GF106991051051004501011001MA1999999099631MD1999999-0111MW1211REMSYN082AAXX  30184 82392 21499 62701 10304 20228 39963 40064 72120 85510 333 59011 69931;
0167823920999992001013100004-03690-040340FM-12+008399999V0203601N001512200019N0040001N1+02601+02191100951ADDAA199000021GF102991021011004501001001KA1240M+03341MA1999999099931MD1999999-0041REMSYN076AAXX  31004 82392 32496 23603 10260 20219 39993 40095 82100 333 10334 59004;
0173823920999992001013112004-03690-040340FM-12+008399999V0201401N001010450019N0500001N1+02701+02111101121ADDAA124000391GF106991041051004501031001KA1240N+02341MA1999999100101MD1999999-0061REMSYN082AAXX  31124 82392 22499 61402 10270 20211 30010 40112 84530 333 20234 59006 69934;
0182823920999992001013118004-03690-040340FM-12+008399999V0203601N000510450019N0500001N1+02501+02231100831ADDAA106000591AY151061AY251061GF108991041061004501021999MA1999999099801MD1999999+0171MW1021REMSYN082AAXX  31184 82392 21499 83601 10250 20223 39980 40083 70255 8462/ 333 58017 69961;
0186823920999992001020100004-03690-040340FM-12+008399999V0200501N000510450019N0040001N1+02561+02281101141ADDAA199000091GF108991041061004501021999KA1240M+03161MA1999999100121MD1999999+0191REMSYN076AAXX  01004 82392 32496 80501 10256 20228 30012 40114 8462/ 333 10316 58019;EQDQ01  00002PRCP99
0201823920999992001020112004-03690-040340FM-12+008399999V0209999C000010042019N0500001N1+02641+02351101101ADDAA124000891AY151061AY251061GF106991051041004501031001KA1240N+02251MA1999999100081MD1999999-0021MW1021REMSYN088AAXX  01124 82392 21499 60000 10264 20235 30008 40110 70255 85430 333 20225 59002 69974;
0167823920999992001020118004-03690-040340FM-12+008399999V0203601N000510450019N0500001N1+02821+02171100781ADDAA199000091GF107991041061004501031001MA1999999099751MD1999999-0051REMSYN070AAXX  01184 82392 32499 73601 10282 20217 39975 40078 84630 333 59005;EQDQ01  00002PRCP99
0186823920999992001020200004-03690-040340FM-12+008399999V0203601N000510450019N0040001N1+02501+02251101001ADDAA199000091GF106991041051004501031001KA1240M+03161MA1999999099981MD1999999-0141REMSYN076AAXX  02004 82392 32496 63601 10250 20225 39998 40100 84530 333 10316 59014;EQDQ01  00002PRCP99
0201823920999992001020212004-03690-040340FM-12+008399999V0203201N000512200019N0500001N1+02561+02291101191ADDAA124007991AY161061AY221061GF103991031021004501001001KA1240N+02221MA1999999100161MD1999999+0081MW1021REMSYN088AAXX  02124 82392 21499 33201 10256 20229 30016 40119 70262 83200 333 20222 58008 60084;
0182823920999992001020218004-03690-040340FM-12+008399999V0203601N000510042019N0200001N1+02401+02301100811ADDAA106053191AY161061AY261061GF107991051061004501011001MA1999999099781MD1999999+0031MW1211REMSYN082AAXX  02184 82392 21498 73601 10240 20230 39978 40081 72166 85610 333 58003 60531;
0167823920999992001020300004-03690-040340FM-12+008399999V0209999C000012200019N0040001N1+02401+02261101081ADDAA199000021GF102991021011008001001001KA1240M+03001MA1999999100051MD1999999+0071REMSYN076AAXX  03004 82392 32596 20000 10240 20226 30005 40108 82100 333 10300 58007;
0201823920999992001020312004-03690-040340FM-12+008399999V0209999C000010450019N0500001N1+02541+02381101231ADDAA124059991AY161061AY261061GF106991031041004501031001KA1240N+02201MA1999999100301MD1999999+0041MW1021REMSYN088AAXX  03124 82392 21499 60000 10254 20238 30030 40123 70266 83430 333 20220 58004 60604;
0167823920999992001020318004-03690-040340FM-12+008399999V0200501N001012200019N0500001N1+03271+02001100731ADDAA199000091GF106991031021004501001011MA1999999099711MD1999999-0071REMSYN070AAXX  03184 82392 32499 60502 10327 20200 39971 40073 83201 333 59007;EQDQ01  00002PRCP99
0186823920999992001020400004-03690-040340FM-12+008399999V0203601N002610450019N0040001N1+02581+02291101081ADDAA199000091GF108991031051004501021999KA1240M+03281MA1999999100061MD1999999+0011REMSYN076AAXX  04004 82392 32496 83605 10258 20229 30006 40108 8352/ 333 10328 58001;EQDQ01  00002PRCP99
0202823920999992001020412004-03690-040340FM-12+008399999V0200501N000519999999N0200001N1+02641+02231101291ADDAA199000091GF105991999011004501001001KA1240N+02311MA1999999101271MD1999999+0071REMSYN076AAXX  04124 82392 32498 50501 10264 20223 30127 40129 82100 333 20231 58007;EQDQ01+000022SCOTLCQ02  00002PRCP99
0199823920999992001020418004-03690-040340FM-12+008399999V0203601N000519999999N0500001N1+03141+02041100871ADDAA199000091GF106991999021004501001001MA1999999099852MD1999999+0151REMSYN070AAXX  04184 82392 32499 63601 10314 20204 39985 40087 84200 333 58015;EQDQ01+000042SCOTLCQ02+099853APOSP Q03  00002PRCP99
0201823920999992001020500004-03690-040340FM-12+008399999V0203201N000510450019N0040001N1+02521+02311101181ADDAA106013091AY161061AY221061GF106991041041004501031001KA1240M+03281MA1999999100161MD1999999+0101MW1021REMSYN088AAXX  05004 82392 21496 63201 10252 20231 30016 40118 70262 84430 333 10328 58010 60131;
0173823920999992001020512004-03690-040340FM-12+008399999V0200901N001012200019N0500001N1+02661+02291101281ADDAA124013091GF103991031021004501001001KA1240N+02201MA1999999100261MD1999999-0011REMSYN082AAXX  05124 82392 22499 30902 10266 20229 30026 40128 83200 333 20220 59001 60134;
0167823920999992001020518004-03690-040340FM-12+008399999V0200901N001512200019N0500001N1+03301+01841100831ADDAA199000091GF103991021011004501031001MA1999999099811MD1999999-0051REMSYN070AAXX  05184 82392 32499 30903 10330 20184 39981 40083 82130 333 59005;EQDQ01  00002PRCP99
0186823920999992001020600004-03690-040340FM-12+008399999V0200301N003112200019N0040001N1+02631+02121101121ADDAA199000091GF101991011001012501001011KA1240M+03361MA1999999100101MD1999999-0061REMSYN076AAXX  06004 82392 32696 10306 10263 20212 30010 40112 81001 333 10336 59006;EQDQ01  00002PRCP99
0186823920999992001020612004-03690-040340FM-12+008399999V0201401N001012200019N0500001N1+02761+02211101341ADDAA199000091GF104991041021004501001001KA1240N+02271MA1999999100321MD1999999+0061REMSYN076AAXX  06124 82392 32499 41402 10276 20221 30032 40134 84200 333 20227 58006;EQDQ01  00002PRCP99
0167823920999992001020618004-03690-040340FM-12+008399999V0201801N000510450019N0500001N1+03361+02171100831ADDAA199000091GF105991031021004501011001MA1999999099821MD1999999+0011REMSYN070AAXX  06184 82392 32499 51801 10336 20217 39982 40083 83210 333 58001;EQDQ01  00002PRCP99
0202823920999992001020700004-03690-040340FM-12+008399999V0200501N001012200019N0040001N1+02571+02231101101ADDAA199000091GF103991999011008001001001KA1240M+03401MA1999999100081MD1999999-0021REMSYN076AAXX  07004 82392 32596 30502 10257 20223 30008 40110 82100 333 10340 59002;EQDQ01+000022SCOTLCQ02  00002PRCP99
0186823920999992001020712004-03690-040340FM-12+008399999V0200501N000512200019N0500001N1+02721+02151101321ADDAA199000091GF103991031021004501001001KA1240N+02221MA1999999100301MD1999999-0021REMSYN076AAXX  07124 82392 32499 30501 10272 20215 30030 40132 83200 333 20222 59002;EQDQ01  00002PRCP99
0167823920999992001020718004-03690-040340FM-12+008399999V0201401N001010450019N0500001N1+03421+01911100771ADDAA199000091GF105991041021004501031001MA1999999099761MD1999999-0061REMSYN070AAXX  07184 82392 32499 51402 10342 20191 39976 40077 84230 333 59006;EQDQ01  00002PRCP99
0186823920999992001020800004-03690-040340FM-12+008399999V0200501N001012200019N0040001N1+02621+02231101021ADDAA199000091GF102991021001008001011001KA1240M+03441MA1999999100001MD1999999-0081REMSYN076AAXX  08004 82392 32596 20502 10262 20223 30000 40102 82010 333 10344 59008;EQDQ01  00002PRCP99
0186823920999992001020812004-03690-040340FM-12+008399999V0200501N000512200019N0500001N1+02821+02311101201ADDAA199000091GF104991041021004501001001KA1240N+02241MA1999999100181MD1999999-0121REMSYN076AAXX  08124 82392 32499 40501 10282 20231 30018 40120 84200 333 20224 59012;EQDQ01  00002PRCP99
0167823920999992001020818004-03690-040340FM-12+008399999V0209999C000010042019N0500001N1+03491+02051100621ADDAA199000091GF106991061021004501001001MA1999999099621MD1999999-0141REMSYN070AAXX  08184 82392 32499 60000 10349 20205 39962 40062 86200 333 59014;EQDQ01  00002PRCP99
0220823920999992001020900004-03690-040340FM-12+008399999V0209999C000019999999N0040001N1+02641+02351101101ADDAA106000891AY151061AY221061GF106991999021004501001001KA1240M+03481MA1999999100081MD1999999+0081MW1021REMSYN088AAXX  09004 82392 21496 60000 10264 20235 30008 40110 70252 84200 333 10348 58008 69981;EQDQ01+000042SCOTLC
0173823920999992001020912004-03690-040340FM-12+008399999V0200901N000510450019N0500001N1+02701+02331101101ADDAA124000891GF107991041051004501011001KA1240N+02341MA1999999100081MD1999999-0101REMSYN082AAXX  09124 82392 22499 70901 10270 20233 30008 40110 84510 333 20234 59010 69984;
0167823920999992001020918004-03690-040340FM-12+008399999V0209999C000010042019N0500001N1+02531+02171100771ADDAA199000091GF107991061051004501031001MA1999999099741MD1999999+0121REMSYN070AAXX  09184 82392 32499 70000 10253 20217 39974 40077 86530 333 58012;EQDQ01  00002PRCP99
0186823920999992001021000004-03690-040340FM-12+008399999V0209999C000010450019N0040001N1+02361+02261101011ADDAA199000091GF108991041071004501021999KA1240M+02901MA1999999099981MD1999999-0101REMSYN076AAXX  10004 82392 32496 80000 10236 20226 39998 40101 8472/ 333 10290 59010;EQDQ01  00002PRCP99
0202823920999992001021012004-03690-040340FM-12+008399999V0202301N000519999999N0500001N1+02701+02331101091ADDAA199000091GF107991999021004501001001KA1240N+02201MA1999999100061MD1999999-0051REMSYN076AAXX  10124 82392 32499 72301 10270 20233 30006 40109 84200 333 20220 59005;EQDQ01+000042SCOTLCQ02  00002PRCP99
0201823920999992001021018004-03690-040340FM-12+008399999V0209999C000019999999N0500001N1+02601+02331100771ADDAA106016091AY161061AY221061GF108991999021004501001001MA1999999099741MD1999999+0001MW1021REMSYN082AAXX  10184 82392 21499 80000 10260 20233 39974 40077 70262 84200 333 58000 60161;EQDQ01+000042SCOTLC
0186823920999992001021100004-03690-040340FM-12+008399999V0203601N000512200019N0020001N1+02481+02231101001ADDAA199000091GF102991021011008001001001KA1240M+02901MA1999999099981MD1999999+0001REMSYN076AAXX  11004 82392 32595 23601 10248 20223 39998 40100 82100 333 10290 58000;EQDQ01  00002PRCP99
0167823920999992001021118004-03690-040340FM-12+008399999V0203601N001010042019N0200001N1+02841+02221100891ADDAA199000091GF107991061071004501031001MA1999999099861MD1999999+0121REMSYN070AAXX  11184 82392 32498 73602 10284 20222 39986 40089 86730 333 58012;EQDQ01  00002PRCP99
0201823920999992001021200004-03690-040340FM-12+008399999V0203601N001012200019N0040001N1+02551+02331101151ADDAA106004191AY161061AY261061GF104991021021004501021001KA1240M+03121MA1999999100131MD1999999+0151MW1021REMSYN088AAXX  12004 82392 21496 43602 10255 20233 30013 40115 70266 82220 333 10312 58015 60041;
0173823920999992001021212004-03690-040340FM-12+008399999V0201401N001012200019N0500001N1+02741+02141101221ADDAA124004191GF104991031021004501031001KA1240N+02291MA1999999100201MD1999999-0041REMSYN082AAXX  12124 82392 22499 41402 10274 20214 30020 40122 83230 333 20229 59004 60044;
0182823920999992001021218004-03690-040340FM-12+008399999V0203201N000510450019N0200001N1+02321+02181100981ADDAA106030091AY121061AY221061GF108991041071004501021999MA1999999099951MD1999999+0091MW1211REMSYN082AAXX  12184 82392 21498 83201 10232 20218 39995 40098 72122 8472/ 333 58009 60301;
0220823920999992001021300004-03690-040340FM-12+008399999V0209999C000019999999N0040001N1+02331+02271101241ADDAA106000391AY151061AY251061GF105991999021004501001001KA1240M+03141MA1999999100211MD1999999+0081MW1021REMSYN088AAXX  13004 82392 21496 50000 10233 20227 30021 40124 70255 83200 333 10314 58008 69931;EQDQ01+000032SCOTLC
0173823920999992001021312004-03690-040340FM-12+008399999V0201401N001012200019N0500001N1+02661+02391101191ADDAA124031091GF104991031041004501031001KA1240N+02291MA1999999100161MD1999999-0041REMSYN082AAXX  13124 82392 22499 41402 10266 20239 30016 40119 83430 333 20229 59004 60314;
0182823920999992001021318004-03690-040340FM-12+008399999V0203601N000510450019N0500001N1+02671+02351100761ADDAA106002091AY161061AY221061GF106991031051004501031021MA1999999099731MD1999999-0221MW1021REMSYN082AAXX  13184 82392 21499 63601 10267 20235 39973 40076 70262 83532 333 59022 60021;
0186823920999992001021400004-03690-040340FM-12+008399999V0203601N002610450019N0040001N1+02551+02311101041ADDAA199000091GF106991031051004501011001KA1240M+03081MA1999999100021MD1999999-0191REMSYN076AAXX  14004 82392 32496 63605 10255 20231 30002 40104 83510 333 10308 59019;EQDQ01  00002PRCP99
0173823920999992001021412004-03690-040340FM-12+008399999V0202301N000510450019N0500001N1+02741+02321101171ADDAA124002091GF106991041041004501031001KA1240N+02381MA1999999100151MD1999999-0011REMSYN082AAXX  14124 82392 22499 62301 10274 20232 30015 40117 84430 333 20238 59001 60024;
0167823920999992001021418004-03690-040340FM-12+008399999V0201401N001012200019N0500001N1+03221+02051100671ADDAA199000091GF104991041021004501001001MA1999999099651MD1999999-0081REMSYN070AAXX  14184 82392 32499 41402 10322 20205 39965 40067 84200 333 59008;EQDQ01  00002PRCP99
0186823920999992001021500004-03690-040340FM-12+008399999V0203601N001012200019N0040001N1+02621+02121100921ADDAA199000091GF103991031021004501001001KA1240M+03341MA1999999099901MD1999999-0121REMSYN076AAXX  15004 82392 32496 33602 10262 20212 39990 40092 83200 333 10334 59012;EQDQ01  00002PRCP99
0186823920999992001021512004-03690-040340FM-12+008399999V0200501N000510450019N0500001N1+02771+02361101221ADDAA199000091GF106991031021004501031011KA1240N+02201MA1999999100201MD1999999+0051REMSYN076AAXX  15124 82392 32499 60501 10277 20236 30020 40122 83231 333 20220 58005;EQDQ01  00002PRCP99
0167823920999992001021518004-03690-040340FM-12+008399999V0209999C000010450019N0500001N1+02421+02131100791ADDAA199000091GF106991041051004501031001MA1999999099771MD1999999+0121REMSYN070AAXX  15184 82392 32499 60000 10242 20213 39977 40079 84530 333 58012;EQDQ01  00002PRCP99
0201823920999992001021600004-03690-040340FM-12+008399999V0202301N000512200019N0040001N1+02521+02231101021ADDAA106000191AY151061AY221061GF103991031001008001031001KA1240M+03321MA1999999100001MD1999999+0101MW1021REMSYN088AAXX  16004 82392 21596 32301 10252 20223 30000 40102 70252 83030 333 10332 58010 69921;
0173823920999992001021612004-03690-040340FM-12+008399999V0201401N001012200019N0500001N1+02741+02221101321ADDAA124000191GF103991031021004501001001KA1240N+02241MA1999999100301MD1999999+0101REMSYN082AAXX  16124 82392 22499 31402 10274 20222 30030 40132 83200 333 20224 58010 69924;
0167823920999992001021618004-03690-040340FM-12+008399999V0209999C000012200019N0500001N1+03391+01931100801ADDAA199000091GF104991031021004501031001MA1999999099781MD1999999+0011REMSYN070AAXX  16184 82392 32499 40000 10339 20193 39978 40080 83230 333 58001;EQDQ01  00002PRCP99
0196823920999992001021700004-03690-040340FM-12+008399999V0203601N002612200019N0040001N1+02621+02271101161ADDAA199000091GA1001+999999999GF100991001001999999001001KA1240M+03421MA1999999100141MD1999999+0141REMSYN070AAXX  17004 82392 32996 03605 10262 20227 30014 40116 333 10342 58014;EQDQ01  00002PRCP99
0202823920999992001021712004-03690-040340FM-12+008399999V0200901N000519999999N0500001N1+02791+02311101301ADDAA199000091GF106991999021004501001001KA1240N+02281MA1999999100281MD1999999-0021REMSYN076AAXX  17124 82392 32499 60901 10279 20231 30028 40130 84200 333 20228 59002;EQDQ01+000042SCOTLCQ02  00002PRCP99
0182823920999992001021718004-03690-040340FM-12+008399999V0209999C000010042019N0500001N1+03021+02341100881ADDAA106000191AY151061AY251061GF107991051071004501031001MA1999999099861MD1999999+0081MW1021REMSYN082AAXX  17184 82392 21499 70000 10302 20234 39986 40088 70255 85730 333 58008 69911;
0202823920999992001021800004-03690-040340FM-12+008399999V0203601N001519999999N0040001N1+02631+02291101191ADDAA199000091GF106991999021008001001001KA1240M+03181MA1999999100171MD1999999+0031REMSYN076AAXX  18004 82392 32596 63603 10263 20229 30017 40119 84200 333 10318 58003;EQDQ01+000042SCOTLCQ02  00002PRCP99
0173823920999992001021812004-03690-040340FM-12+008399999V0203201N000510450019N0500001N1+02721+02341101441ADDAA124000191GF108991031071004501021999KA1240N+02401MA1999999100421MD1999999+0141REMSYN082AAXX  18124 82392 22499 83201 10272 20234 30042 40144 8372/ 333 20240 58014 69914;
0191823920999992001021818004-03690-040340FM-12+008399999V0203201N000510450019N0200001N1+02441+02301999999ADDAA106013091AY161061AY261061GF108991031061004501021999MA1999999100061MD1999999+0201ME1100099MW1021REMSYN082AAXX  18184 82392 21498 83201 10244 20230 30006 41009 70266 8362/ 333 58020 60131;
0186823920999992001021900004-03690-040340FM-12+008399999V0202301N000510450019N0040001N1+02381+02291101281ADDAA199000091GF108991041051004501021999KA1240M+03101MA1999999100261MD1999999+0091REMSYN076AAXX  19004 82392 32496 82301 10238 20229 30026 40128 8452/ 333 10310 58009;EQDQ01  00002PRCP99
0173823920999992001021912004-03690-040340FM-12+008399999V0203201N000512200019N0500001N1+02581+02311101381ADDAA124013091GF104991011011004501031001KA1240N+02201MA1999999100351MD1999999-0071REMSYN082AAXX  19124 82392 22499 43201 10258 20231 30035 40138 81130 333 20220 59007 60134;
0167823920999992001021918004-03690-040340FM-12+008399999V0201801N001010450019N0500001N1+03221+01731100971ADDAA199000091GF106991041041004501031001MA1999999099951MD1999999-0111REMSYN070AAXX  19184 82392 32499 61802 10322 20173 39995 40097 84430 333 59011;EQDQ01  00002PRCP99
0220823920999992001022000004-03690-040340FM-12+008399999V0200501N000510042019N0040001N1+02481+02271101251ADDAA106000191AY151061AY251061GF108991999021004501001001KA1240M+03261MA1999999100221MD1999999-0041MW1021REMSYN088AAXX  20004 82392 21496 80501 10248 20227 30022 40125 70255 85200 333 10326 59004 69911;EQDQ01+000052SCOTLC
0173823920999992001022012004-03690-040340FM-12+008399999V0209999C000010450019N0500001N1+02541+02171101331ADDAA124000191GF108991041061004501021999KA1240N+02241MA1999999100301MD1999999-0051REMSYN082AAXX  20124 82392 22499 80000 10254 20217 30030 40133 8462/ 333 20224 59005 69914;
0182823920999992001022018004-03690-040340FM-12+008399999V0200901N001510042019N0020001N1+02261+02211101001ADDAA106050091AY101061AY221061GF108991081061004501999999MA1999999099971MD1999999+0021MW1651REMSYN082AAXX  20184 82392 21495 80903 10226 20221 39997 40100 76502 886// 333 58002 60501;
0201823920999992001022100004-03690-040340FM-12+008399999V0201801N000510042019N0020001N1+02301+02251100171ADDAA106007191AY161061AY261061GF108991081061004501999999KA1240M+03081MA1999999100141MD1999999+0081MW1021REMSYN088AAXX  21004 82392 21495 81801 10230 20225 30014 40017 70266 886// 333 10308 58008 60071;
0173823920999992001022112004-03690-040340FM-12+008399999V0202301N000510450019N0500001N1+02601+02231101171ADDAA124056991GF106991041051004501031001KA1240N+02201MA1999999100141MD1999999-0161REMSYN082AAXX  21124 82392 22499 62301 10260 20223 30014 40117 84530 333 20220 59016 60574;
0167823920999992001022118004-03690-040340FM-12+008399999V0202301N000512200019N0500001N1+03221+02081100701ADDAA199000091GF104991011011004501031001MA1999999099681MD1999999-0291REMSYN070AAXX  21184 82392 32499 42301 10322 20208 39968 40070 81130 333 59029;EQDQ01  00002PRCP99
0202823920999992001022200004-03690-040340FM-12+008399999V0203601N001019999999N0040001N1+02611+02271100981ADDAA199000091GF108991999021004501001001KA1240M+03301MA1999999099961MD1999999-0181REMSYN076AAXX  22004 82392 32496 83602 10261 20227 39996 40098 84200 333 10330 59018;EQDQ01+000042SCOTLCQ02  00002PRCP99
0186823920999992001022212004-03690-040340FM-12+008399999V0200501N000510450019N0500001N1+02761+02321101171ADDAA199000091GF106991031021004501031001KA1240N+02321MA1999999100151MD1999999+0011REMSYN076AAXX  22124 82392 32499 60501 10276 20232 30015 40117 83230 333 20232 58001;EQDQ01  00002PRCP99
0167823920999992001022218004-03690-040340FM-12+008399999V0203201N000510075019N0500001N1+03201+02331100701ADDAA199000091GF106991061021008001001001MA1999999099681MD1999999+0001REMSYN070AAXX  22184 82392 32599 63201 10320 20233 39968 40070 86200 333 58000;EQDQ01  00002PRCP99
0186823920999992001022300004-03690-040340FM-12+008399999V0203601N001010042019N0040001N1+02661+02181101021ADDAA199000091GF107991051051004501031001KA1240M+03241MA1999999100001MD1999999+0041REMSYN076AAXX  23004 82392 32496 73602 10266 20218 30000 40102 85530 333 10324 58004;EQDQ01  00002PRCP99
0186823920999992001022312004-03690-040340FM-12+008399999V0202301N000510450019N0500001N1+02661+02181101101ADDAA199000091GF108991031071004501021999KA1240N+02401MA1999999100081MD1999999+0071REMSYN076AAXX  23124 82392 32499 82301 10266 20218 30008 40110 8372/ 333 20240 58007;EQDQ01  00002PRCP99
0182823920999992001022318004-03690-040340FM-12+008399999V0202701N000510450019N0500001N1+02841+02561100831ADDAA106000591AY101061AY221061GF107991041051004501011001MA1999999099811MD1999999+0131MW1211REMSYN082AAXX  23184 82392 21499 72701 10284 20256 39981 40083 72102 84510 333 58013 69961;
0201823920999992001022400004-03690-040340FM-12+008399999V0209999C000010450019N0040001N1+02301+02141101081ADDAA106016091AY161061AY261061GF108991031061004501031999KA1240M+02901MA1999999100051MD1999999+0051MW1021REMSYN088AAXX  24004 82392 21496 80000 10230 20214 30005 40108 70266 8363/ 333 10290 58005 60161;
0173823920999992001022412004-03690-040340FM-12+008399999V0202301N000510450019N0500001N1+02621+02351101091ADDAA124017091GF106991041041004501031001KA1240N+02181MA1999999100061MD1999999-0021REMSYN082AAXX  24124 82392 22499 62301 10262 20235 30006 40109 84430 333 20218 59002 60174;
0167823920999992001022418004-03690-040340FM-12+008399999V0201401N001012200019N0500001N1+03201+02061100641ADDAA199000091GF104991041021004501001001MA1999999099631MD1999999-0181REMSYN070AAXX  24184 82392 32499 41402 10320 20206 39963 40064 84200 333 59018;EQDQ01  00002PRCP99
0201823920999992001022500004-03690-040340FM-12+008399999V0203201N000510450019N0040001N1+02301+02161100931ADDAA106014091AY161061AY261061GF108991041071004501021001KA1240M+03301MA1999999099901MD1999999-0151MW1021REMSYN088AAXX  25004 82392 21496 83201 10230 20216 39990 40093 70266 84720 333 10330 59015 60141;
0173823920999992001022512004-03690-040340FM-12+008399999V0202701N000512200019N0500001N1+02681+02331101071ADDAA124014091GF104991021021004501031001KA1240N+02361MA1999999100041MD1999999-0021REMSYN082AAXX  25124 82392 22499 42701 10268 20233 30004 40107 82230 333 20236 59002 60144;
0167823920999992001022518004-03690-040340FM-12+008399999V0209999C000010450019N0500001N1+03181+02391100581ADDAA199000091GF106991021021004501011011MA1999999099571MD1999999-0061REMSYN070AAXX  25184 82392 32499 60000 10318 20239 39957 40058 82211 333 59006;EQDQ01  00002PRCP99
0201823920999992001022600004-03690-040340FM-12+008399999V0203601N002610450019N0040001N1+02581+02381100831ADDAA106001091AY161061AY261061GF106991031051004501031001KA1240M+03221MA1999999099811MD1999999-0091MW1021REMSYN088AAXX  26004 82392 21496 63605 10258 20238 39981 40083 70266 83530 333 10322 59009 60011;
0201823920999992001022612004-03690-040340FM-12+008399999V0209999C000010450019N0100001N1+02321+02181101131ADDAA124010991AY161061AY261061GF108991041061004501021999KA1240N+02081MA1999999100101MD1999999+0061MW1021REMSYN088AAXX  26124 82392 21497 80000 10232 20218 30010 40113 70266 8462/ 333 20208 58006 60114;
0167823920999992001022618004-03690-040340FM-12+008399999V0202301N000510450019N0200001N1+02881+02281100851ADDAA199000091GF108991041071004501021999MA1999999099821MD1999999+0251REMSYN070AAXX  26184 82392 32498 82301 10288 20228 39982 40085 8472/ 333 58025;EQDQ01  00002PRCP99
0202823920999992001022700004-03690-040340FM-12+008399999V0203601N001519999999N0040001N1+02541+02271101021ADDAA199000091GF106991999021004501001001KA1240M+02891MA1999999099991MD1999999+0181REMSYN076AAXX  27004 82392 32496 63603 10254 20227 39999 40102 83200 333 10289 58018;EQDQ01+000032SCOTLCQ02  00002PRCP99
0186823920999992001022712004-03690-040340FM-12+008399999V0201401N000510450019N0500001N1+02721+02341101181ADDAA199000091GF106991041041004501031001KA1240N+02261MA1999999100161MD1999999+0061REMSYN076AAXX  27124 82392 32499 61401 10272 20234 30016 40118 84430 333 20226 58006;EQDQ01  00002PRCP99
0167823920999992001022718004-03690-040340FM-12+008399999V0203601N002610450019N0500001N1+03081+02351100781ADDAA199000091GF106991031051004501031001MA1999999099761MD1999999-0061REMSYN070AAXX  27184 82392 32499 63605 10308 20235 39976 40078 83530 333 59006;EQDQ01  00002PRCP99
0202823920999992001022800004-03690-040340FM-12+008399999V0203601N001019999999N0040001N1+02601+02351101061ADDAA199000091GF106991999021004501001001KA1240M+03241MA1999999100041MD1999999+0051REMSYN076AAXX  28004 82392 32496 63602 10260 20235 30004 40106 83200 333 10324 58005;EQDQ01+000032SCOTLCQ02  00002PRCP99
0186823920999992001022812004-03690-040340FM-12+008399999V0202301N001010450019N0500001N1+02681+02311101221ADDAA199000091GF107991031041004501031001KA1240N+02321MA1999999100201MD1999999+0041REMSYN076AAXX  28124 82392 32499 72302 10268 20231 30020 40122 83430 333 20232 58004;EQDQ01  00002PRCP99
0182823920999992001022818004-03690-040340FM-12+008399999V0203201N000510450019N0200001N1+02341+02201100901ADDAA106027991AY161061AY221061GF108991041071004501021999MA1999999099871MD1999999+0111MW1031REMSYN082AAXX  28184 82392 21498 83201 10234 20220 39987 40090 70362 8472/ 333 58011 60281;
0214823920999992001030100004-03690-040340FM-12+008399999V0200901N000519999999N0040001N1+02441+02321101151ADDAA199000091GF108991999021004501001001KA1240M+02981MA1999999100131MD1999999+0091REMSYN088AAXX  01004 82392 32496 80901 10244 20232 30013 40115 83200 333 10298 29029 55016 58009;EQDQ01+000032SCOTLCQ02  00002PRCP99
0173823920999992001030112004-03690-040340FM-12+008399999V0201401N000510042019N0500001N1+02571+02371101131ADDAA124027991GF107991051051004501031001KA1240N+02221MA1999999100101MD1999999-0101REMSYN082AAXX  01124 82392 22499 71401 10257 20237 30010 40113 85530 333 20222 59010 60284;
0167823920999992001030118004-03690-040340FM-12+008399999V0203601N000510042019N0500001N1+02681+02391100861ADDAA199000091GF106991051051004501031001MA1999999099831MD1999999-0041REMSYN070AAXX  01184 82392 32499 63601 10268 20239 39983 40086 85530 333 59004;EQDQ01  00002PRCP99
0198823920999992001030200004-03690-040340FM-12+008399999V0203201N000510450019N0040001N1+02481+02321101091ADDAA199000091GF107991031051004501011001KA1240M+03161MA1999999100061MD1999999-0071REMSYN088AAXX  02004 82392 32496 73201 10248 20232 30006 40109 83510 333 10316 29088 55049 59007;EQDQ01  00002PRCP99
0186823920999992001030212004-03690-040340FM-12+008399999V0202301N001012200019N0500001N1+02661+02391101251ADDAA199000091GF104991011011004501031001KA1240N+02301MA1999999100231MD1999999+0131REMSYN076AAXX  02124 82392 32499 42302 10266 20239 30023 40125 81130 333 20230 58013;EQDQ01  00002PRCP99
0167823920999992001030218004-03690-040340FM-12+008399999V0200901N000510450019N0500001N1+03221+02291100941ADDAA199000091GF108991041051004501011999MA1999999099921MD1999999+0091REMSYN070AAXX  02184 82392 32499 80901 10322 20229 39992 40094 8451/ 333 58009;EQDQ01  00002PRCP99
0198823920999992001030300004-03690-040340FM-12+008399999V0202301N000510450019N0040001N1+02601+02231101231ADDAA199000091GF106991041051004501031001KA1240M+03241MA1999999100201MD1999999+0141REMSYN088AAXX  03004 82392 32496 62301 10260 20223 30020 40123 84530 333 10324 29076 55060 58014;EQDQ01  00002PRCP99
0202823920999992001030312004-03690-040340FM-12+008399999V0200501N000519999999N0500001N1+02861+02281101391ADDAA199000091GF106991999021004501001001KA1240N+02161MA1999999100371MD1999999+0141REMSYN076AAXX  03124 82392 32499 60501 10286 20228 30037 40139 84200 333 20216 58014;EQDQ01+000042SCOTLCQ02  00002PRCP99
0183823920999992001030318004-03690-040340FM-12+008399999V0203601N001019999999N0500001N1+02841+02381101011ADDAA199000091GF106991999021004501001001MA1999999099991MD1999999+0071REMSYN070AAXX  03184 82392 32499 63602 10284 20238 39999 40101 83200 333 58007;EQDQ01+000032SCOTLCQ02  00002PRCP99
0198823920999992001030400004-03690-040340FM-12+008399999V0203601N001012200019N0040001N1+02581+02251101141ADDAA199000091GF102991011011004501001011KA1240M+03201MA1999999100121MD1999999-0081REMSYN088AAXX  04004 82392 32496 23602 10258 20225 30012 40114 81101 333 10320 29076 55082 59008;EQDQ01  00002PRCP99
0186823920999992001030412004-03690-040340FM-12+008399999V0200501N003112200019N0500001N1+02801+02201101341ADDAA199000091GF101991011011004501001001KA1240N+02321MA1999999100321MD1999999-0051REMSYN076AAXX  04124 82392 32499 10506 10280 20220 30032 40134 81100 333 20232 59005;EQDQ01  00002PRCP99
0167823920999992001030418004-03690-040340FM-12+008399999V0201401N001012200019N0500001N1+03421+01941100811ADDAA199000091GF102991021021004501001001MA1999999099801MD1999999-0191REMSYN070AAXX  04184 82392 32499 21402 10342 20194 39980 40081 82200 333 59019;EQDQ01  00002PRCP99
0198823920999992001030500004-03690-040340FM-12+008399999V0200501N003110450019N0040001N1+02701+02131101121ADDAA199000091GF106991041021004501031001KA1240M+03471MA1999999100171MD1999999-0021REMSYN088AAXX  05004 82392 32496 60506 10270 20213 30017 40112 84230 333 10347 29063 55098 59002;EQDQ01  00002PRCP99
0186823920999992001030512004-03690-040340FM-12+008399999V0201401N000512200019N0500001N1+02741+02361101321ADDAA199000091GF104991031041004501031001KA1240N+02401MA1999999100301MD1999999-0021REMSYN076AAXX  05124 82392 32499 41401 10274 20236 30030 40132 83430 333 20240 59002;EQDQ01  00002PRCP99
0167823920999992001030518004-03690-040340FM-12+008399999V0203201N000512200019N0500001N1+03341+02151100791ADDAA199000091GF104991041021004501001001MA1999999099781MD1999999-0021REMSYN070AAXX  05184 82392 32499 43201 10334 20215 39978 40079 84200 333 59002;EQDQ01  00002PRCP99
0213823920999992001030600004-03690-040340FM-12+008399999V0203601N002610450019N0040001N1+02541+02441101191ADDAA106023191AY161061AY261061GF108991041051004501011999KA1240M+03361MA1999999100171MD1999999+0071MW1021REMSYN100AAXX  06004 82392 21496 83605 10254 20244 30017 40119 70266 8451/ 333 10336 29080 55067 58007 60231;
0173823920999992001030612004-03690-040340FM-12+008399999V0201401N000512200019N0500001N1+02701+02281101351ADDAA124023191GF102991021011004501001001KA1240N+02201MA1999999100331MD1999999-0031REMSYN082AAXX  06124 82392 22499 21401 10270 20228 30033 40135 82100 333 20220 59003 60234;
0182823920999992001030618004-03690-040340FM-12+008399999V0203601N001010450019N0500001N1+03251+02331100871ADDAA106000191AY121061AY201061GF106991021051004501031001MA1999999099851MD1999999+0071MW1511REMSYN082AAXX  06184 82392 21499 63602 10325 20233 39985 40087 75120 82530 333 58007 69911;
0213823920999992001030700004-03690-040340FM-12+008399999V0203601N002612200019N0040001N1+02641+02311101161ADDAA106001091AY161061AY261061GF102991021011004501001001KA1240M+03321MA1999999100141MD1999999-0061MW1021REMSYN100AAXX  07004 82392 21496 23605 10264 20231 30014 40116 70266 82100 333 10332 29075 55089 59006 60011;
0173823920999992001030712004-03690-040340FM-12+008399999V0202301N000510450019N0200001N1+02701+02331101531ADDAA124001091GF108991041071004501021999KA1240N+02301MA1999999100501MD1999999+0171REMSYN082AAXX  07124 82392 22498 82301 10270 20233 30050 40153 8472/ 333 20230 58017 69994;
0182823920999992001030718004-03690-040340FM-12+008399999V0201401N001010450019N0500001N1+03221+02201101041ADDAA106000191AY151061AY221061GF106991031041004501031001MA1999999100021MD1999999+0171MW1021REMSYN082AAXX  07184 82392 21499 61402 10322 20220 30002 40104 70252 83430 333 58017 69911;
0198823920999992001030800004-03690-040340FM-12+008399999V0203601N000519999999N0040001N1+02541+02151101311ADDAA199000091GF105991021001008001031071KA1240M+03311MA1999999100291MD1999999+0151REMSYN088AAXX  08004 82392 32596 53601 10254 20215 30029 40131 82037 333 10331 29073 55044 58015;EQDQ01  00002PRCP99
0173823920999992001030812004-03690-040340FM-12+008399999V0209999C000010450019N0500001N1+02731+02301101421ADDAA124000191GF106991021021004501031021KA1240N+02231MA1999999100401MD1999999-0101REMSYN082AAXX  08124 82392 22499 60000 10273 20230 30040 40142 82232 333 20223 59010 69914;
0182823920999992001030818004-03690-040340FM-12+008399999V0202301N000510450019N0500001N1+02471+02431101081ADDAA106003091AY161061AY261061GF107991041051004501021001MA1999999100051MD1999999+0031MW1021REMSYN082AAXX  08184 82392 21499 72301 10247 20243 30005 40108 70266 84520 333 58003 60031;
0214823920999992001030900004-03690-040340FM-12+008399999V0202301N000519999999N0040001N1+02461+02301101241ADDAA199000091GF108991999021004501001001KA1240M+03101MA1999999100221MD1999999-0071REMSYN088AAXX  09004 82392 32496 82301 10246 20230 30022 40124 83200 333 10310 29089 55039 59007;EQDQ01+000032SCOTLCQ02  00002PRCP99
0201823920999992001030912004-03690-040340FM-12+008399999V0202301N000510450019N0500001N1+02701+02331101361ADDAA124005191AY161061AY251061GF106991041041004501031001KA1240N+02311MA1999999100341MD1999999-0061MW1021REMSYN088AAXX  09124 82392 21499 62301 10270 20233 30034 40136 70265 84430 333 20231 59006 60054;
0167823920999992001030918004-03690-040340FM-12+008399999V0203601N001510450019N0500001N1+02861+02441100911ADDAA199000091GF106991041051004501031011MA1999999099891MD1999999-0161REMSYN070AAXX  09184 82392 32499 63603 10286 20244 39989 40091 84531 333 59016;EQDQ01  00002PRCP99
0213823920999992001031000004-03690-040340FM-12+008399999V0202301N000510450019N0040001N1+02461+02321101191ADDAA106000591AY151061AY251061GF108991041071004501021999KA1240M+02981MA1999999100171MD1999999-0051MW1021REMSYN100AAXX  10004 82392 21496 82301 10246 20232 30017 40119 70255 8472/ 333 10298 29083 55038 59005 69961;
0192823920999992001031012004-03690-040340FM-12+008399999V0203601N000519999999N0500001N1+02621+02351101191ADDAA124000591GF108991999021004501001001KA1240N+02301MA1999999100161MD1999999-0181REMSYN082AAXX  10124 82392 22499 83601 10262 20235 30016 40119 83200 333 20230 59018 69964;EQDQ01+000032SCOTLC
0183823920999992001031018004-03690-040340FM-12+008399999V0203601N001519999999N0500001N1+03061+02191100821ADDAA199000091GF108991999021004501001001MA1999999099801MD1999999-0091REMSYN070AAXX  10184 82392 32499 83603 10306 20219 39980 40082 84200 333 59009;EQDQ01+000042SCOTLCQ02  00002PRCP99
0202823920999992001031100004-03690-040340FM-12+008399999V0209999C000012200019N0040001N1+02381+02241101131ADDAY161061AY261061GF104991999021004501001001KA1240M+03161KA2999N+00821MA1999999100101MW1021REMSYN082AAXX  11004 82392 21496 40000 10238 20224 30010 40113 70266 83200 333 10316 29082;EQDQ01+000032SCOTLC
0173823920999992001031112004-03690-040340FM-12+008399999V0209999C000010450019N0500001N1+02661+02351101251ADDAA124004191GF106991041041004501011001KA1240N+02201MA1999999100221MD1999999+0061REMSYN082AAXX  11124 82392 22499 60000 10266 20235 30022 40125 84410 333 20220 58006 60044;
0167823920999992001031118004-03690-040340FM-12+008399999V0200501N002610042019N0200001N1+02731+02451100861ADDAA199000091GF107991051051004501011001MA1999999099831MD1999999+0031REMSYN070AAXX  11184 82392 32498 70505 10273 20245 39983 40086 85510 333 58003;EQDQ01  00002PRCP99
0213823920999992001031200004-03690-040340FM-12+008399999V0203601N000510042019N0040001N1+02501+02361101251ADDAA106006191AY161061AY261061GF108991061051004501011999KA1240M+03021MA1999999100231MD1999999+0131MW1021REMSYN100AAXX  12004 82392 21496 83601 10250 20236 30023 40125 70266 8651/ 333 10302 29088 55002 58013 60061;
0173823920999992001031212004-03690-040340FM-12+008399999V0200501N000510450019N0500001N1+02641+02271101361ADDAA124006191GF108991041061004501021999KA1240N+02341MA1999999100341MD1999999+0121REMSYN082AAXX  12124 82392 22499 80501 10264 20227 30034 40136 8462/ 333 20234 58012 60064;
0182823920999992001031218004-03690-040340FM-12+008399999V0209999C000010450019N0200001N1+02481+02341101051ADDAA106014091AY161061AY261061GF108991041061004501021999MA1999999100021MD1999999+0191MW1511REMSYN082AAXX  12184 82392 21498 80000 10248 20234 30002 40105 75166 8462/ 333 58019 60141;
0232823920999992001031300004-03690-040340FM-12+008399999V0202301N000519999999N0040001N1+02381+02331101281ADDAA106021191AY161061AY261061GF108991999021004501001001KA1240M+02881MA1999999100251MD1999999+0011MW1021REMSYN100AAXX  13004 82392 21496 82301 10238 20233 30025 40128 70266 84200 333 10288 29092 55014 58001 60211;EQDQ01+000042SCOTLC
0173823920999992001031312004-03690-040340FM-12+008399999V0202301N000510450019N0200001N1+02381+02091101411ADDAA124035191GF108991031071004501021999KA1240N+02301MA1999999100381MD1999999+0041REMSYN082AAXX  13124 82392 22498 82301 10238 20209 30038 40141 8372/ 333 20230 58004 60354;
0167823920999992001031318004-03690-040340FM-12+008399999V0202301N001010450019N0500001N1+03111+02331100871ADDAA199000091GF106991021071004501031011MA1999999099851MD1999999-0171REMSYN070AAXX  13184 82392 32499 62302 10311 20233 39985 40087 82731 333 59017;EQDQ01  00002PRCP99
0213823920999992001031400004-03690-040340FM-12+008399999V0209999C000010042019N0040001N1+02441+02391101211ADDAA106000591AY151061AY251061GF108991051051004501021999KA1240M+03121MA1999999100181MD1999999-0071MW1511REMSYN100AAXX  14004 82392 21496 80000 10244 20239 30018 40121 75155 8552/ 333 10312 29085 55054 59007 69961;
0201823920999992001031412004-03690-040340FM-12+008399999V0203201N000510450019N0500001N1+02601+02331101181ADDAA124001091AY151061AY251061GF108991041061004501021999KA1240N+02321MA1999999100151MD1999999-0231MW1021REMSYN088AAXX  14124 82392 21499 83201 10260 20233 30015 40118 70255 8462/ 333 20232 59023 60014;
0167823920999992001031418004-03690-040340FM-12+008399999V0201401N001010042019N0500001N1+02921+02361100821ADDAA199000091GF107991051051004501031001MA1999999099801MD1999999-0051REMSYN070AAXX  14184 82392 32499 71402 10292 20236 39980 40082 85530 333 59005;EQDQ01  00002PRCP99
0232823920999992001031500004-03690-040340FM-12+008399999V0209999C000019999999N0040001N1+02261+02211101221ADDAA106006191AY161061AY261061GF108991999021008001001001KA1240M+03031MA1999999100191MD1999999+0011MW1021REMSYN100AAXX  15004 82392 21596 80000 10226 20221 30019 40122 70266 83200 333 10303 29088 55021 58001 60061;EQDQ01+000032SCOTLC
0173823920999992001031512004-03690-040340FM-12+008399999V0202301N000512200019N0500001N1+02541+02271101281ADDAA124006191GF104991021021004501031001KA1240N+02261MA1999999100251MD1999999+0151REMSYN082AAXX  15124 82392 22499 42301 10254 20227 30025 40128 82230 333 20226 58015 60064;
0182823920999992001031518004-03690-040340FM-12+008399999V0200501N001010450019N0500001N1+02491+02381100901ADDAA106000391AY121061AY201061GF106991031051004501031001MA1999999099871MD1999999+0081MW1201REMSYN082AAXX  15184 82392 21499 60502 10249 20238 39987 40090 72020 83530 333 58008 69931;
0213823920999992001031600004-03690-040340FM-12+008399999V0203201N000510450019N0040001N1+02361+02221101151ADDAA106000591AY151061AY251061GF105991041041004501031001KA1240M+03141MA1999999100121MD1999999-0071MW1021REMSYN100AAXX  16004 82392 21496 53201 10236 20222 30012 40115 70255 84430 333 10314 29065 55090 59007 69951;
0173823920999992001031612004-03690-040340FM-12+008399999V0200501N001010450019N0500001N1+02681+02311101351ADDAA124000891GF106991041041004501031001KA1240N+02241MA1999999100321MD1999999+0071REMSYN082AAXX  16124 82392 22499 60502 10268 20231 30032 40135 84430 333 20224 58007 69984;
0167823920999992001031618004-03690-040340FM-12+008399999V0200501N001010450019N0500001N1+03211+02051100931ADDAA199000091GF106991031041004501031001MA1999999099911MD1999999+0041REMSYN070AAXX  16184 82392 32499 60502 10321 20205 39991 40093 83430 333 58004;EQDQ01  00002PRCP99
0232823920999992001031700004-03690-040340FM-12+008399999V0203201N000519999999N0040001N1+02461+02281101221ADDAA106011991AY161061AY261061GF108991999021008001001001KA1240M+03221MA1999999100201MD1999999+0081MW1021REMSYN100AAXX  17004 82392 21596 83201 10246 20228 30020 40122 70266 83200 333 10322 29078 55076 58008 60121;EQDQ01+000032SCOTLC
0192823920999992001031712004-03690-040340FM-12+008399999V0209999C000019999999N0500001N1+02761+02241101241ADDAA124011991GF106991999021004501001001KA1240N+02201MA1999999100241MD1999999-0081REMSYN082AAXX  17124 82392 22499 60000 10276 20224 30024 40124 83200 333 20220 59008 60124;EQDQ01+000032SCOTLC
0201823920999992001031718004-03690-040340FM-12+008399999V0209999C000019999999N0500001N1+02561+02311100931ADDAA106007991AY161061AY261061GF106991999021004501001001MA1999999099901MD1999999-0011MW1211REMSYN082AAXX  17184 82392 21499 60000 10256 20231 39990 40093 72166 84200 333 59001 60081;EQDQ01+000042SCOTLC
0198823920999992001031800004-03690-040340FM-12+008399999V0203601N000519999999N0040001N1+02481+02321101131ADDAA199000021GF106991999021008001001001KA1240M+03141MA1999999100111MD1999999-0071REMSYN088AAXX  18004 82392 32596 63601 10248 20232 30011 40113 83200 333 10314 29085 55071 59007;EQDQ01+000032SCOTLC
0173823920999992001031812004-03690-040340FM-12+008399999V0202701N000510450019N0500001N1+02681+02311101181ADDAA124007991GF106991041021004501031001KA1240N+02261MA1999999100161MD1999999-0081REMSYN082AAXX  18124 82392 22499 62701 10268 20231 30016 40118 84230 333 20226 59008 60084;
0167823920999992001031818004-03690-040340FM-12+008399999V0201401N001010450019N0500001N1+03101+02061100721ADDAA199000091GF105991031021004501031001MA1999999099701MD1999999-0201REMSYN070AAXX  18184 82392 32499 51402 10310 20206 39970 40072 83230 333 59020;EQDQ01  00002PRCP99
0198823920999992001031900004-03690-040340FM-12+008399999V0202301N000510450019N0040001N1+02461+02281101081ADDAA199000091GF106991041041004501031001KA1240M+03181MA1999999100061MD1999999-0051REMSYN088AAXX  19004 82392 32496 62301 10246 20228 30006 40108 84430 333 10318 29078 55087 59005;EQDQ01  00002PRCP99
0186823920999992001031912004-03690-040340FM-12+008399999V0201401N001012200019N0500001N1+02741+02141101241ADDAA199000091GF103991021011004501031001KA1240N+02261MA1999999100221MD1999999+0061REMSYN076AAXX  19124 82392 32499 31402 10274 20214 30022 40124 82130 333 20226 58006;EQDQ01  00002PRCP99
0183823920999992001031918004-03690-040340FM-12+008399999V0201401N000512200019N0500001N1+03201+02181100691ADDAA199000091GF102991999011004501001001MA1999999099671MD1999999-0031REMSYN070AAXX  19184 82392 32499 21401 10320 20218 39967 40069 83100 333 59003;EQDQ01+000032SCOTLCQ02  00002PRCP99
0213823920999992001032000004-03690-040340FM-12+008399999V0203601N000510450019N0040001N1+02461+02411101091ADDAA106014091AY161061AY261061GF108991041021004501021999KA1240M+03241MA1999999100071MD1999999+0011MW1021REMSYN100AAXX  20004 82392 21496 83601 10246 20241 30007 40109 70266 8422/ 333 10324 29080 55077 58001 60141;
0173823920999992001032012004-03690-040340FM-12+008399999V0201401N001012200019N0500001N1+02721+02241101371ADDAA124014091GF104991031011004501031001KA1240N+02171MA1999999100351MD1999999+0131REMSYN082AAXX  20124 82392 22499 41402 10272 20224 30035 40137 83130 333 20217 58013 60144;
0167823920999992001032018004-03690-040340FM-12+008399999V0202301N001010450019N0500001N1+03091+02261100981ADDAA199000091GF106991031051004501011001MA1999999099931MD1999999+0291REMSYN070AAXX  20184 82392 32499 62302 10309 20226 39993 40098 83510 333 58029;EQDQ01  00002PRCP99
0214823920999992001032100004-03690-040340FM-12+008399999V0200501N001012200019N0040001N1+02571+02191101251ADDAA199000091GF104991999011008001001001KA1240M+03181MA1999999100231MD1999999+0161REMSYN088AAXX  21004 82392 32596 40502 10257 20219 30023 40125 82100 333 10318 29074 55074 58016;EQDQ01+000022SCOTLCQ02  00002PRCP99
0186823920999992001032112004-03690-040340FM-12+008399999V0200501N001012200019N0500001N1+02741+02241101321ADDAA199000091GF101991011011004501001001KA1240N+02201MA1999999100301MD1999999-0051REMSYN076AAXX  21124 82392 32499 10502 10274 20224 30030 40132 81100 333 20220 59005;EQDQ01  00002PRCP99
0167823920999992001032118004-03690-040340FM-12+008399999V0200501N001012200019N0500001N1+03181+02191100841ADDAA199000091GF103991031021004501001001MA1999999099821MD1999999-0141REMSYN070AAXX  21184 82392 32499 30502 10318 20219 39982 40084 83200 333 59014;EQDQ01  00002PRCP99
0198823920999992001032200004-03690-040340FM-12+008399999V0203601N001012200019N0040001N1+02501+02401101101ADDAA199000091GF102991021021004501001001KA1240M+03261MA1999999100081MD1999999-0151REMSYN088AAXX  22004 82392 32496 23602 10250 20240 30008 40110 82200 333 10326 29080 55083 59015;EQDQ01  00002PRCP99
0201823920999992001032212004-03690-040340FM-12+008399999V0209999C000010450019N0500001N1+02711+02241101121ADDAA124001091AY161061AY261061GF106991021021004501011011KA1240N+02361MA1999999100101MD1999999-0201MW1021REMSYN088AAXX  22124 82392 21499 60000 10271 20224 30010 40112 70266 82211 333 20236 59020 60014;
0182823920999992001032218004-03690-040340FM-12+008399999V0201801N001010042019N0200001N1+02461+02301100801ADDAA106008991AY121061AY201061GF108991061051004501021999MA1999999099771MD1999999-0051MW1651REMSYN082AAXX  22184 82392 21498 81802 10246 20230 39977 40080 76520 8652/ 333 59005 60091;
0179823920999992001032300004-03690-040340FM-12+008399999V0203601N001010450019N0040001N1+02481+02341100981ADDAA199000021GF106991041041004501031001KA1240M+03121MA1999999099961MD1999999-0121REMSYN088AAXX  23004 82392 32496 63602 10248 20234 39996 40098 84430 333 10312 29057 55057 59012;
0173823920999992001032312004-03690-040340FM-12+008399999V0200501N001012200019N0500001N1+02721+02371101081ADDAA124008991GF104991031011004501031001KA1240N+02301MA1999999100061MD1999999-0041REMSYN082AAXX  23124 82392 22499 40502 10272 20237 30006 40108 83130 333 20230 59004 60094;
0167823920999992001032318004-03690-040340FM-12+008399999V0202301N000510042019N0500001N1+02861+02311100591ADDAA199000091GF107991051061004501021001MA1999999099581MD1999999-0191REMSYN070AAXX  23184 82392 32499 72301 10286 20231 39958 40059 85620 333 59019;EQDQ01  00002PRCP99
0213823920999992001032400004-03690-040340FM-12+008399999V0203601N001510450019N0040001N1+02521+02341100941ADDAA106000591AY151061AY251061GF106991041041004501031001KA1240M+03221MA1999999099921MD1999999-0041MW1021REMSYN100AAXX  24004 82392 21496 63603 10252 20234 39992 40094 70255 84430 333 10322 29083 55058 59004 69961;
0192823920999992001032412004-03690-040340FM-12+008399999V0200501N002112200019N0020001N1+02761+02231101081ADDAA124000591GF104991999021004501001001KA1240N+02281MA1999999100061MD1999999+0001REMSYN082AAXX  24124 82392 22495 40504 10276 20223 30006 40108 83200 333 20228 58000 69964;EQDQ01+000032SCOTLC
0167823920999992001032418004-03690-040340FM-12+008399999V0200501N001510450019N0500001N1+03101+02341100821ADDAA199000091GF106991041041004501031001MA1999999099801MD1999999+0221REMSYN070AAXX  24184 82392 32499 60503 10310 20234 39980 40082 84430 333 58022;EQDQ01  00002PRCP99
0213823920999992001032500004-03690-040340FM-12+008399999V0203601N000512200019N0040001N1+02481+02341101171ADDAA106002091AY161061AY221061GF102991021001004501031001KA1240M+03181MA1999999100151MD1999999+0231MW1021REMSYN100AAXX  25004 82392 21496 23601 10248 20234 30015 40117 70262 82030 333 10318 29080 55081 58023 60021;
0173823920999992001032512004-03690-040340FM-12+008399999V0209999C000010042019N0500001N1+02661+02431101261ADDAA124002091GF107991051061004501031001KA1240N+02291MA1999999100241MD1999999+0181REMSYN082AAXX  25124 82392 22499 70000 10266 20243 30024 40126 85630 333 20229 58018 60024;
0167823920999992001032518004-03690-040340FM-12+008399999V0203601N000510042019N0500001N1+02871+02541100941ADDAA199000091GF107991051061004501021001MA1999999099921MD1999999+0121REMSYN070AAXX  25184 82392 32499 73601 10287 20254 39992 40094 85620 333 58012;EQDQ01  00002PRCP99
0198823920999992001032600004-03690-040340FM-12+008399999V0209999C000012200019N0040001N1+02431+02321101201ADDAA199000091GF103991021061004501011001KA1240M+03061MA1999999100181MD1999999+0031REMSYN088AAXX  26004 82392 32496 30000 10243 20232 30018 40120 82610 333 10306 29089 55037 58003;EQDQ01  00002PRCP99
0186823920999992001032612004-03690-040340FM-12+008399999V0200901N001510450019N0500001N1+02781+02361101261ADDAA199000091GF105991041021004501031001KA1240N+02271MA1999999100241MD1999999+0001REMSYN076AAXX  26124 82392 32499 50903 10278 20236 30024 40126 84230 333 20227 58000;EQDQ01  00002PRCP99
0167823920999992001032618004-03690-040340FM-12+008399999V0203201N000510450019N0200001N1+02761+02341100921ADDAA199000091GF108991041061004501021999MA1999999099901MD1999999-0021REMSYN070AAXX  26184 82392 32498 83201 10276 20234 39990 40092 8462/ 333 59002;EQDQ01  00002PRCP99
0167823920999992001032718004-03690-040340FM-12+008399999V0203601N000511050019N0500001N1+03141+02401100761ADDAA199000091GF106991021021004501001021MA1999999099741MD1999999-0161REMSYN070AAXX  27184 82392 32499 63601 10314 20240 39974 40076 82202 333 59016;EQDQ01  00002PRCP99
0198823920999992001032800004-03690-040340FM-12+008399999V0203601N000512200019N0040001N1+02581+02251101071ADDAA199000091GF102991021021004501001001KA1240M+03201MA1999999100051MD1999999-0081REMSYN088AAXX  28004 82392 32496 23601 10258 20225 30005 40107 82200 333 10320 29077 55080 59008;EQDQ01  00002PRCP99
0186823920999992001032812004-03690-040340FM-12+008399999V0202701N000512200019N0500001N1+02781+02271101221ADDAA199000091GF101991011011004501001001KA1240N+02301MA1999999100201MD1999999-0021REMSYN076AAXX  28124 82392 32499 12701 10278 20227 30020 40122 81100 333 20230 59002;EQDQ01  00002PRCP99
0167823920999992001032818004-03690-040340FM-12+008399999V0200501N003110450019N0500001N1+02941+02381100841ADDAA199000091GF106991041051004501031001MA1999999099821MD1999999+0081REMSYN070AAXX  28184 82392 32499 60506 10294 20238 39982 40084 84530 333 58008;EQDQ01  00002PRCP99
0214823920999992001032900004-03690-040340FM-12+008399999V0200501N000519999999N0040001N1+02481+02381101101ADDAA199000091GF108991999021008001001001KA1240M+03221MA1999999100081MD1999999+0031REMSYN088AAXX  29004 82392 32596 80501 10248 20238 30008 40110 83200 333 10322 29084 55065 58003;EQDQ01+000032SCOTLCQ02  00002PRCP99
0186823920999992001032912004-03690-040340FM-12+008399999V0209999C000010450019N0500001N1+02731+02481101351ADDAA199000091GF107991041041004501031001KA1240N+02341MA1999999100331MD1999999+0131REMSYN076AAXX  29124 82392 32499 70000 10273 20248 30033 40135 84430 333 20234 58013;EQDQ01  00002PRCP99
0182823920999992001032918004-03690-040340FM-12+008399999V0201801N000510042019N0200001N1+02481+02381100971ADDAA106004191AY121061AY201061GF107991061051004501011001MA1999999099941MD1999999+0121MW1631REMSYN082AAXX  29184 82392 21498 71801 10248 20238 39994 40097 76320 86510 333 58012 60041;
0213823920999992001033000004-03690-040340FM-12+008399999V0209999C000012200019N0040001N1+02521+02381101271ADDAA106011991AY161061AY261061GF103991031021008001001001KA1240M+03161MA1999999100251MD1999999+0171MW1021REMSYN100AAXX  30004 82392 21596 30000 10252 20238 30025 40127 70266 83200 333 10316 29091 55043 58017 60121;
0173823920999992001033012004-03690-040340FM-12+008399999V0203201N000510450019N0500001N1+02561+02421101331ADDAA124016091GF108991031071004501021999KA1240N+02401MA1999999100301MD1999999-0031REMSYN082AAXX  30124 82392 22499 83201 10256 20242 30030 40133 8372/ 333 20240 59003 60164;
0182823920999992001033018004-03690-040340FM-12+008399999V0202701N000510450019N0500001N1+02551+02491101031ADDAA106010991AY161061AY261061GF108991041071004501021999MA1999999100001MD1999999+0061MW1021REMSYN082AAXX  30184 82392 21499 82701 10255 20249 30000 40103 70266 8472/ 333 58006 60111;
0198823920999992001033100004-03690-040340FM-12+008399999V0202701N000510450019N0040001N1+02421+02331101211ADDAA199000091GF108991031071004501021999KA1240M+02761MA1999999100181MD1999999-0071REMSYN088AAXX  31004 82392 32496 82701 10242 20233 30018 40121 8372/ 333 10276 29094 55000 59007;EQDQ01  00002PRCP99
0192823920999992001033112004-03690-040340FM-12+008399999V0203201N000519999999N0500001N1+02671+02461101211ADDAA124010991GF107991999021004501001001KA1240N+02241MA1999999100191MD1999999-0111REMSYN082AAXX  31124 82392 22499 73201 10267 20246 30019 40121 84200 333 20224 59011 60114;EQDQ01+000042SCOTLC
0183823920999992001033118004-03690-040340FM-12+008399999V0209999C000019999999N0500001N1+03241+02211100761ADDAA199000091GF106991999021008001001001MA1999999099751MD1999999-0261REMSYN070AAXX  31184 82392 32599 60000 10324 20221 39975 40076 83200 333 59026;EQDQ01+000032SCOTLCQ02  00002PRCP99
0214823920999992001040100004-03690-040340FM-12+008399999V0200901N000519999999N0040001N1+02461+02171101161ADDAA199000091GF108991999021008001001001KA1240M+03241MA1999999100141MD1999999-0041REMSYN088AAXX  01004 82392 32596 80901 10246 20217 30014 40116 84200 333 10324 29078 55081 59004;EQDQ01+000042SCOTLCQ02  00002PRCP99
0201823920999992001040112004-03690-040340FM-12+008399999V0202701N000510042019N0500001N1+02521+02311101281ADDAA124003091AY161061AY251061GF107991051041004501031001KA1240N+02261MA1999999100251MD1999999+0061MW1021REMSYN088AAXX  01124 82392 21499 72701 10252 20231 30025 40128 70265 85430 333 20226 58006 60034;
0167823920999992001040118004-03690-040340FM-12+008399999V0201401N003110450019N0500001N1+02841+02241100871ADDAA199000091GF105991031081004501031001MA1999999099841MD1999999+0101REMSYN070AAXX  01184 82392 32499 51406 10284 20224 39984 40087 83830 333 58010;EQDQ01  00002PRCP99
0213823920999992001040200004-03690-040340FM-12+008399999V0209999C000010450019N0040001N1+02501+02361101231ADDAA106003091AY161061AY221061GF108991041061004501021999KA1240M+03241MA1999999100201MD1999999+0061MW1021REMSYN100AAXX  02004 82392 21496 80000 10250 20236 30020 40123 70262 8462/ 333 10324 29086 55063 58006 60031;
0173823920999992001040212004-03690-040340FM-12+008399999V0200501N000512200019N0500001N1+02741+02261101421ADDAA124003091GF103991011011004501031001KA1240N+02331MA1999999100401MD1999999+0151REMSYN082AAXX  02124 82392 22499 30501 10274 20226 30040 40142 81130 333 20233 58015 60034;
0182823920999992001040218004-03690-040340FM-12+008399999V0203201N000510450019N0500001N1+02501+02321100981ADDAA106011991AY161061AY221061GF106991021091004501031001MA1999999099951MD1999999+0111MW1021REMSYN082AAXX  02184 82392 21499 63201 10250 20232 39995 40098 70262 82930 333 58011 60121;
0213823920999992001040300004-03690-040340FM-12+008399999V0202701N000510450019N0040001N1+02381+02331101301ADDAA106004191AY161061AY261061GF108991041041004501021999KA1240M+03101MA1999999100281MD1999999+0081MW1021REMSYN100AAXX  03004 82392 21496 82701 10238 20233 30028 40130 70266 8442/ 333 10310 29090 55061 58008 60041;
0201823920999992001040312004-03690-040340FM-12+008399999V0202701N000510450019N0200001N1+02581+02401101351ADDAA124016091AY161061AY251061GF108991041061004501021999KA1240N+02301MA1999999100321MD1999999-0081MW1021REMSYN088AAXX  03124 82392 21498 82701 10258 20240 30032 40135 70265 8462/ 333 20230 59008 60164;
0182823920999992001040318004-03690-040340FM-12+008399999V0203601N000510450019N0500001N1+02441+02341101061ADDAA106015091AY161061AY261061GF107991041061004501011001MA1999999100031MD1999999+0081MW1021REMSYN082AAXX  03184 82392 21499 73601 10244 20234 30003 40106 70266 84610 333 58008 60151;
0198823920999992001040400004-03690-040340FM-12+008399999V0209999C000010075019N0040001N1+02481+02371101271ADDAA199000091GF108991081051008001999999KA1240M+02681MA1999999100241MD1999999-0041REMSYN088AAXX  04004 82392 32596 80000 10248 20237 30024 40127 885// 333 10268 29095 55007 59004;EQDQ01  00002PRCP99
0173823920999992001040412004-03690-040340FM-12+008399999V0201401N000510450019N0500001N1+02541+02361101281ADDAA124015091GF106991041051004501031001KA1240N+02181MA1999999100251MD1999999-0071REMSYN082AAXX  04124 82392 22499 61401 10254 20236 30025 40128 84530 333 20218 59007 60154;
0182823920999992001040418004-03690-040340FM-12+008399999V0201801N000510450019N0500001N1+02761+02421100851ADDAA106000591AY151061AY221061GF106991041061004501031001MA1999999099821MD1999999-0211MW1021REMSYN082AAXX  04184 82392 21499 61801 10276 20242 39982 40085 70252 84630 333 59021 69951;
0213823920999992001040500004-03690-040340FM-12+008399999V0209999C000010450019N0040001N1+02461+02411101221ADDAA106004191AY161061AY261061GF108991041061004501011999KA1240M+03041MA1999999100191MD1999999-0051MW1031REMSYN100AAXX  05004 82392 21496 80000 10246 20241 30019 40122 70366 8461/ 333 10304 29092 55054 59005 60041;
0220823920999992001040512004-03690-040340FM-12+008399999V0202301N000519999999N0500001N1+02641+02391101241ADDAA124000591AY151061AY251061GF106991999021004501051051KA1240N+02341MA1999999100221MD1999999-0031MW1021REMSYN088AAXX  05124 82392 21499 62301 10264 20239 30022 40124 70255 80255 333 20234 59003 69944;EQDQ01+000002SCOTLC
0167823920999992001040518004-03690-040340FM-12+008399999V0200901N000512200019N0500001N1+03131+02301100821ADDAA199000091GF104991021041004501031001MA1999999099801MD1999999-0021REMSYN070AAXX  05184 82392 32499 40901 10313 20230 39980 40082 82430 333 59002;EQDQ01  00002PRCP99
0198823920999992001040600004-03690-040340FM-12+008399999V0203601N001510075019N0040001N1+02621+02291101171ADDAA199000091GF106991051041008001031001KA1240M+03261MA1999999100151MD1999999-0041REMSYN088AAXX  06004 82392 32596 63603 10262 20229 30015 40117 85430 333 10326 29078 55083 59004;EQDQ01  00002PRCP99
0186823920999992001040612004-03690-040340FM-12+008399999V0201401N001010042019N0500001N1+02701+02331101321ADDAA199000091GF107991051051004501031001KA1240N+02201MA1999999100301MD1999999+0081REMSYN076AAXX  06124 82392 32499 71402 10270 20233 30030 40132 85530 333 20220 58008;EQDQ01  00002PRCP99
0182823920999992001040618004-03690-040340FM-12+008399999V0209999C000010450019N0500001N1+02961+02471100981ADDAA106000591AY161061AY261061GF106991031051004501011001MA1999999099961MD1999999+0161MW1021REMSYN082AAXX  06184 82392 21499 60000 10296 20247 39996 40098 70266 83510 333 58016 69941;
0198823920999992001040700004-03690-040340FM-12+008399999V0203601N001010450019N0040001N1+02461+02321101271ADDAA199000091GF105991031041004501031001KA1240M+03101MA1999999100251MD1999999+0101REMSYN088AAXX  07004 82392 32496 53602 10246 20232 30025 40127 83430 333 10310 29085 55056 58010;EQDQ01  00002PRCP99
0173823920999992001040712004-03690-040340FM-12+008399999V0202301N000510450019N0500001N1+02481+02341101381ADDAA124000591GF108991031071004501021999KA1240N+02201MA1999999100351MD1999999+0051REMSYN082AAXX  07124 82392 22499 82301 10248 20234 30035 40138 8372/ 333 20220 58005 69944;
0182823920999992001040718004-03690-040340FM-12+008399999V0200501N000510450019N0500001N1+02741+02471101021ADDAA106000191AY151061AY221061GF108991031081004501021999MA1999999100001MD1999999+0041MW1021REMSYN082AAXX  07184 82392 21499 80501 10274 20247 30000 40102 70252 8382/ 333 58004 69911;
0198823920999992001040800004-03690-040340FM-12+008399999V0203201N000510450019N0040001N1+02501+02361101231ADDAA199000091GF108991031061004501021999KA1240M+02901MA1999999100201MD1999999-0051REMSYN088AAXX  08004 82392 32496 83201 10250 20236 30020 40123 8362/ 333 10290 29090 55009 59005;EQDQ01  00002PRCP99
0173823920999992001040812004-03690-040340FM-12+008399999V0201401N000510450019N0500001N1+02761+02281101211ADDAA124000191GF105991021021004501031001KA1240N+02231MA1999999100191MD1999999-0161REMSYN082AAXX  08124 82392 22499 51401 10276 20228 30019 40121 82230 333 20223 59016 69914;
0183823920999992001040818004-03690-040340FM-12+008399999V0201401N000519999999N0500001N1+02861+02441100731ADDAA199000091GF107991999021008001001001MA1999999099711MD1999999-0211REMSYN070AAXX  08184 82392 32599 71401 10286 20244 39971 40073 84200 333 59021;EQDQ01+000042SCOTLCQ02  00002PRCP99
0232823920999992001040900004-03690-040340FM-12+008399999V0203601N000519999999N0040001N1+02381+02311101111ADDAA106000191AY161061AY221061GF108991999021008001001001KA1240M+03141MA1999999100091MD1999999-0111MW1021REMSYN100AAXX  09004 82392 21596 83601 10238 20231 30009 40111 70262 83200 333 10314 29087 55062 59011 69911;EQDQ01+000032SCOTLC
0173823920999992001040912004-03690-040340FM-12+008399999V0202301N000510450019N0500001N1+02561+02291101151ADDAA124000591GF108991031061004501021999KA1240N+02341MA1999999100121MD1999999-0071REMSYN082AAXX  09124 82392 22499 82301 10256 20229 30012 40115 8362/ 333 20234 59007 69964;
0182823920999992001040918004-03690-040340FM-12+008399999V0203201N000510450019N0200001N1+02521+02381100781ADDAA106002091AY161061AY221061GF108991031051004501031001MA1999999099751MD1999999+0041MW1611REMSYN082AAXX  09184 82392 21498 83201 10252 20238 39975 40078 76162 83530 333 58004 60021;
0232823920999992001041000004-03690-040340FM-12+008399999V0209999C000010042019N0040001N1+02731+02321101081ADDAA106001091AY161061AY221061GF108991999021004501001001KA1240M+02941MA1999999100051MD1999999-0041MW1021REMSYN100AAXX  10004 82392 21496 80000 10273 20232 30005 40108 70262 85200 333 10294 29091 55018 59004 60011;EQDQ01+000052SCOTLC
0201823920999992001041012004-03690-040340FM-12+008399999V02099999999990450019N0200001N1+02481+02381101191ADDAA124005191AY161061AY261061GF108991031061004501021999KA1240N+02321MA1999999100161MD1999999+0041MW1021REMSYN088AAXX  10124 82392 21498 84701 10248 20238 30016 40119 70266 8362/ 333 20232 58004 60054;
0167823920999992001041018004-03690-040340FM-12+008399999V0203601N001010450019N0500001N1+02801+02441100831ADDAA199000091GF107991041051004501011001MA1999999099811MD1999999+0161REMSYN070AAXX  10184 82392 32499 73602 10280 20244 39981 40083 84510 333 58016;EQDQ01  00002PRCP99
0213823920999992001041100004-03690-040340FM-12+008399999V0200901N001010450019N0040001N1+02381+02331101251ADDAA106001091AY121061AY201061GF108991041051004501021999KA1240M+02921MA1999999100221MD1999999+0171MW1611REMSYN100AAXX  11004 82392 21496 80902 10238 20233 30022 40125 76120 8452/ 333 10292 29092 55010 58017 60011;
0201823920999992001041112004-03690-040340FM-12+008399999V0209999C000010450019N0100001N1+02201+02121101381ADDAA124064091AY161061AY261061GF108991041061004501021999KA1240N+02041MA1999999100351MD1999999+0191MW1511REMSYN088AAXX  11124 82392 21497 80000 10220 20212 30035 40138 75166 8462/ 333 20204 58019 60644;
0182823920999992001041118004-03690-040340FM-12+008399999V0203601N000510450019N0500001N1+02821+02271101071ADDAA106000591AY151061AY251061GF107991031051004501011001MA1999999100041MD1999999+0231MW1021REMSYN082AAXX  11184 82392 21499 73601 10282 20227 30004 40107 70255 83510 333 58023 69941;
0213823920999992001041200004-03690-040340FM-12+008399999V0202301N000510042019N0040001N1+02381+02331101241ADDAA106002091AY161061AY221061GF108991051031004501021001KA1240M+02911MA1999999100211MD1999999-0011MW1511REMSYN100AAXX  12004 82392 21496 82301 10238 20233 30021 40124 75162 85320 333 10291 29090 55012 59001 60021;
0201823920999992001041212004-03690-040340FM-12+008399999V0201801N000510450019N0500001N1+02521+02331101251ADDAA124003091AY151061AY251061GF107991041051004501031001KA1240N+02201MA1999999100221MD1999999-0131MW1021REMSYN088AAXX  12124 82392 21499 71801 10252 20233 30022 40125 70255 84530 333 20220 59013 60034;
0182823920999992001041218004-03690-040340FM-12+008399999V0203601N000510450019N0500001N1+02901+02581100831ADDAA106000191AY121061AY201061GF107991041061004501031011MA1999999099811MD1999999-0231MW1201REMSYN082AAXX  12184 82392 21499 73601 10290 20258 39981 40083 72020 84631 333 59023 69921;
0232823920999992001041300004-03690-040340FM-12+008399999V0209999C000019999999N0040001N1+02301+02201101291ADDAA106027991AY161061AY261061GF108991999021008001001001KA1240M+03161MA1999999100261MD1999999+0051MW1021REMSYN100AAXX  13004 82392 21596 80000 10230 20220 30026 40129 70266 84200 333 10316 29095 55047 58005 60281;EQDQ01+000042SCOTLC
0201823920999992001041312004-03690-040340FM-12+008399999V0203201N000510450019N0500001N1+02541+02251101191ADDAA124036191AY161061AY261061GF105991041041004501031001KA1240N+02281MA1999999100161MD1999999-0061MW1021REMSYN088AAXX  13124 82392 21499 53201 10254 20225 30016 40119 70266 84430 333 20228 59006 60364;
0167823920999992001041318004-03690-040340FM-12+008399999V0200901N001010042019N0500001N1+02861+02441100771ADDAA199000091GF108991061061004501031999MA1999999099751MD1999999-0061REMSYN070AAXX  13184 82392 32499 80902 10286 20244 39975 40077 8663/ 333 59006;EQDQ01  00002PRCP99
0213823920999992001041400004-03690-040340FM-12+008399999V0203201N000510450019N0040001N1+02381+02291101161ADDAA106007191AY161061AY261061GF108991031071004501021999KA1240M+03201MA1999999100131MD1999999-0131MW1021REMSYN100AAXX  14004 82392 21496 83201 10238 20229 30013 40116 70266 8372/ 333 10320 29088 55067 59013 60071;
0173823920999992001041412004-03690-040340FM-12+008399999V0209999C000010450019N0500001N1+02621+02371101171ADDAA124007191GF106991031021004501031001KA1240N+02321MA1999999100141MD1999999-0021REMSYN082AAXX  14124 82392 22499 60000 10262 20237 30014 40117 83230 333 20232 59002 60074;
0182823920999992001041418004-03690-040340FM-12+008399999V0203201N000510042019N0500001N1+02451+02341100851ADDAA106000591AY151061AY251061GF107991051051004501011001MA1999999099821MD1999999+0081MW1021REMSYN082AAXX  14184 82392 21499 73201 10245 20234 39982 40085 70255 85510 333 58008 69941;
0213823920999992001041500004-03690-040340FM-12+008399999V0201801N000510042019N0040001N1+02381+02311101221ADDAA106000191AY121061AY201061GF108991051041004501011999KA1240M+03041MA1999999100191MD1999999+0061MW1201REMSYN100AAXX  15004 82392 21496 81801 10238 20231 30019 40122 72020 8541/ 333 10304 29093 55015 58006 69921;
0201823920999992001041512004-03690-040340FM-12+008399999V0202301N000510075019N0020001N1+02501+02301101471ADDAA124004191AY161061AY221061GF107991051051008001031001KA1240N+02201MA1999999100441MD1999999+0301MW1021REMSYN088AAXX  15124 82392 21595 72301 10250 20230 30044 40147 70262 85530 333 20220 58030 60044;
0167823920999992001041518004-03690-040340FM-12+008399999V0203601N000510450019N0020001N1+02901+02271101041ADDAA199000091GF106991041041008001031001MA1999999100021MD1999999+0201REMSYN070AAXX  15184 82392 32595 63601 10290 20227 30002 40104 84430 333 58020;EQDQ01  00002PRCP99
0198823920999992001041600004-03690-040340FM-12+008399999V0202301N000512200019N0040001N1+02441+02261101371ADDAA199000091GF103991031021004501001001KA1240M+02901MA1999999100341MD1999999+0151REMSYN088AAXX  16004 82392 32496 32301 10244 20226 30034 40137 83200 333 10290 29086 55016 58015;EQDQ01  00002PRCP99
0186823920999992001041612004-03690-040340FM-12+008399999V0201801N000510450019N0500001N1+02581+02311101541ADDAA199000091GF107991041041004501031001KA1240N+02281MA1999999100501MD1999999+0061REMSYN076AAXX  16124 82392 32499 71801 10258 20231 30050 40154 84430 333 20228 58006;EQDQ01  00002PRCP99
0167823920999992001041618004-03690-040340FM-12+008399999V0201801N000510450019N0500001N1+02781+02401101171ADDAA199000091GF107991041051004501031001MA1999999100141MD1999999+0121REMSYN070AAXX  16184 82392 32499 71801 10278 20240 30014 40117 84530 333 58012;EQDQ01  00002PRCP99
0213823920999992001041700004-03690-040340FM-12+008399999V0200501N000512200019N0040001N1+02441+02351101431ADDAA106011991AY161061AY261061GF103991031051004501001001KA1240M+03021MA1999999100401MD1999999+0061MW1021REMSYN100AAXX  17004 82392 21496 30501 10244 20235 30040 40143 70266 83500 333 10302 29089 55039 58006 60121;
0173823920999992001041712004-03690-040340FM-12+008399999V0201401N000510450019N0500001N1+02601+02251101471ADDAA124011991GF106991041051004501031001KA1240N+02301MA1999999100441MD1999999-0061REMSYN082AAXX  17124 82392 22499 61401 10260 20225 30044 40147 84530 333 20230 59006 60124;
0167823920999992001041718004-03690-040340FM-12+008399999V0200501N000510042019N0500001N1+02601+02391101081ADDAA199000091GF107991061051004501001021MA1999999100051MD1999999-0091REMSYN070AAXX  17184 82392 32499 70501 10260 20239 30005 40108 86502 333 59009;EQDQ01  00002PRCP99
0214823920999992001041800004-03690-040340FM-12+008399999V0209999C000019999999N0040001N1+02441+02371101311ADDAA199000091GF105991999021008001001001KA1240M+03061MA1999999100281MD1999999-0121REMSYN088AAXX  18004 82392 32596 50000 10244 20237 30028 40131 84200 333 10306 29090 55062 59012;EQDQ01+000042SCOTLCQ02  00002PRCP99
0186823920999992001041812004-03690-040340FM-12+008399999V0201401N001010450019N0500001N1+02581+02231101251ADDAA199000091GF105991041051004501031001KA1240N+02201MA1999999100221MD1999999-0221REMSYN076AAXX  18124 82392 32499 51402 10258 20223 30022 40125 84530 333 20220 59022;EQDQ01  00002PRCP99
0167823920999992001041818004-03690-040340FM-12+008399999V0202701N000510450019N0500001N1+03041+02331100771ADDAA199000091GF106991041081004501031001MA1999999099751MD1999999-0301REMSYN070AAXX  18184 82392 32499 62701 10304 20233 39975 40077 84830 333 59030;EQDQ01  00002PRCP99
0201823920999992001041912004-03690-040340FM-12+008399999V0200501N000510450019N0500001N1+02561+02331101321ADDAA124068191AY161061AY261061GF106991041041004501011001KA1240N+02211MA1999999100291MD1999999+0071MW1021REMSYN088AAXX  19124 82392 21499 60501 10256 20233 30029 40132 70266 84410 333 20221 58007 60684;
0182823920999992001041918004-03690-040340FM-12+008399999V0209999C000010042019N0500001N1+02491+02471100961ADDAA106016091AY161061AY261061GF107991051051004501011001MA1999999099931MD1999999+0181MW1211REMSYN082AAXX  19184 82392 21499 70000 10249 20247 39993 40096 72166 85510 333 58018 60161;
0198823920999992001042000004-03690-040340FM-12+008399999V0209999C000019999999N0040001N1+02361+02261101251ADDAA199000021GF108991999021004501001001KA1240M+02821MA1999999100221MD1999999+0051REMSYN088AAXX  20004 82392 32496 80000 10236 20226 30022 40125 83200 333 10282 29093 55023 58005;EQDQ01+000032SCOTLC
0205823920999992001042012004-03690-040340FM-12+008399999V0200501N001010450019N0500001N1+02621+02351101391ADDAA124016091AY161061AY251061GF106991041081004501031001KA1240N+02301MD1999999+0071MW1021REMSYN088AAXX  20124 82392 21499 60502 10262 20235 33064 40139 70265 84830 333 20230 58007 60164;EQDQ01+030641APOSP 
0182823920999992001042018004-03690-040340FM-12+008399999V0209999C000010042019N0040001N1+02321+02251101101ADDAA106033091AY161061AY261061GF108991081051004501999999MA1999999100071MD1999999+0141MW1651REMSYN082AAXX  20184 82392 21496 80000 10232 20225 30007 40110 76566 885// 333 58014 60331;
0213823920999992001042100004-03690-040340FM-12+008399999V0209999C000010450019N0040001N1+02301+02221101331ADDAA106007991AY161061AY261061GF108991041071004501021999KA1240M+02981MA1999999100301MD1999999+0081MW1021REMSYN100AAXX  21004 82392 21496 80000 10230 20222 30030 40133 70266 8472/ 333 10298 29093 55048 58008 60081;
0173823920999992001042112004-03690-040340FM-12+008399999V0201401N001010075019N0100001N1+02581+02371101451ADDAA124040991GF107991051041008001031001KA1240N+02201MA1999999100421MD1999999+0061REMSYN082AAXX  21124 82392 22597 71402 10258 20237 30042 40145 85430 333 20220 58006 60414;
0201823920999992001042118004-03690-040340FM-12+008399999V0202701N000519999999N0100001N1+02301+02161101171ADDAA106026991AY161061AY261061GF108991999021004501001001MA1999999100141MD1999999+0071MW1021REMSYN082AAXX  21184 82392 21497 82701 10230 20216 30014 40117 70266 83200 333 58007 60271;EQDQ01+000032SCOTLC
0232823920999992001042200004-03690-040340FM-12+008399999V0209999C000019999999N0040001N1+02281+02201101371ADDAA106000591AY161061AY251061GF108991999011004501001001KA1240M+02861MA1999999100341MD1999999+0041MW1021REMSYN100AAXX  22004 82392 21496 80000 10228 20220 30034 40137 70265 82100 333 10286 29092 55036 58004 69941;EQDQ01+000022SCOTLC
0173823920999992001042212004-03690-040340FM-12+008399999V0200901N000510042019N0500001N1+02621+02351101301ADDAA124026991GF106991051041004501001011KA1240N+02061MA1999999100271MD1999999-0151REMSYN082AAXX  22124 82392 22499 60901 10262 20235 30027 40130 85401 333 20206 59015 60274;
0182823920999992001042218004-03690-040340FM-12+008399999V0200901N000512200019N0500001N1+03051+02351100741ADDAA106000591AY161061AY221061GF104991041021004501001001MA1999999099771MD1999999-0371MW1021REMSYN082AAXX  22184 82392 21499 40901 10305 20235 39977 40074 70262 84200 333 59037 69961;
0198823920999992001042300004-03690-040340FM-12+008399999V0209999C000012200019N0040001N1+02361+02261101041ADDAA199000091GF102991021021004501001001KA1240M+03111MA1999999100011MD1999999-0331REMSYN088AAXX  23004 82392 32496 20000 10236 20226 30001 40104 82200 333 10311 29085 55100 59033;EQDQ01  00002PRCP99
0192823920999992001042312004-03690-040340FM-12+008399999V0201401N001012200019N0500001N1+02641+02141101211ADDAA124000591GF102991999011004501001001KA1240N+02101MA1999999100181MD1999999-0091REMSYN082AAXX  23124 82392 22499 21402 10264 20214 30018 40121 81100 333 20210 59009 69964;EQDQ01+000012SCOTLC
0167823920999992001042318004-03690-040340FM-12+008399999V0201801N001010450019N0500001N1+03081+02211100841ADDAA199000091GF106991041041004501031001MA1999999099821MD1999999+0051REMSYN070AAXX  23184 82392 32499 61802 10308 20221 39982 40084 84430 333 58005;EQDQ01  00002PRCP99
0208823920999992001042400004-03690-040340FM-12+008399999V0201401N000512200019N0040001N1+02511+02341101081ADDAA199000091GA1001+999999999GF100991001001999999001001KA1240M+03121MA1999999100061MD1999999+0011REMSYN082AAXX  24004 82392 32996 01401 10251 20234 30006 40108 333 10312 29077 55075 58001;EQDQ01  00002PRCP99
0186823920999992001042412004-03690-040340FM-12+008399999V0201801N000512200019N0500001N1+02781+02161101221ADDAA199000091GF101991011011004501001001KA1240N+02281MA1999999100201MD1999999+0021REMSYN076AAXX  24124 82392 32499 11801 10278 20216 30020 40122 81100 333 20228 58002;EQDQ01  00002PRCP99
0167823920999992001042418004-03690-040340FM-12+008399999V0209999C000012200019N0500001N1+03051+02251100931ADDAA199000091GF105991041041004501001011MA1999999099911MD1999999+0091REMSYN070AAXX  24184 82392 32499 50000 10305 20225 39991 40093 84401 333 58009;EQDQ01  00002PRCP99
0198823920999992001042500004-03690-040340FM-12+008399999V0209999C000012200019N0040001N1+02511+02311101251ADDAA199000091GF103991021041004501021001KA1240M+03101MA1999999100231MD1999999+0171REMSYN088AAXX  25004 82392 32496 30000 10251 20231 30023 40125 82420 333 10310 29077 55091 58017;EQDQ01  00002PRCP99
0186823920999992001042512004-03690-040340FM-12+008399999V0202301N000510450019N0500001N1+02561+02191101541ADDAA199000091GF108991031071004501021999KA1240N+02241MA1999999100501MD1999999+0301REMSYN076AAXX  25124 82392 32499 82301 10256 20219 30050 40154 8372/ 333 20224 58030;EQDQ01  00002PRCP99
0167823920999992001042518004-03690-040340FM-12+008399999V0202301N000510450019N0500001N1+02861+02231101161ADDAA199000091GF108991041061004501021999MA1999999100141MD1999999+0231REMSYN070AAXX  25184 82392 32499 82301 10286 20223 30014 40116 8462/ 333 58023;EQDQ01  00002PRCP99
0214823920999992001042600004-03690-040340FM-12+008399999V0202701N000519999999N0040001N1+02481+02341101361ADDAA199000091GF108991999021008001001001KA1240M+02901MA1999999100331MD1999999+0101REMSYN088AAXX  26004 82392 32596 82701 10248 20234 30033 40136 83200 333 10290 29083 55003 58010;EQDQ01+000032SCOTLCQ02  00002PRCP99
0167823920999992001042618004-03690-040340FM-12+008399999V0201401N001510450019N0500001N1+03041+02281100991ADDAA199000091GF107991041051004501031001MA1999999099971MD1999999-0171REMSYN070AAXX  26184 82392 32499 71403 10304 20228 39997 40099 84530 333 59017;EQDQ01  00002PRCP99
0208823920999992001042700004-03690-040340FM-12+008399999V0203601N001512200019N0040001N1+02521+02361101221ADDAA199000091GA1001+999999999GF100991001001999999001001KA1240M+03141MA1999999100201MD1999999-0131REMSYN082AAXX  27004 82392 32996 03603 10252 20236 30020 40122 333 10314 29080 55063 59013;EQDQ01  00002PRCP99
0186823920999992001042712004-03690-040340FM-12+008399999V0202301N000510450019N0200001N1+02621+02371101351ADDAA199000091GF108991031061004501021999KA1240N+02281MA1999999100331MD1999999+0001REMSYN076AAXX  27124 82392 32498 82301 10262 20237 30033 40135 8362/ 333 20228 58000;EQDQ01  00002PRCP99
0213823920999992001042800004-03690-040340FM-12+008399999V0202701N000510450019N0040001N1+02461+02321101311ADDAA106005191AY161061AY251061GF106991041051004501031001KA1240M+03061MA1999999100281MD1999999+0081MW1021REMSYN100AAXX  28004 82392 21496 62701 10246 20232 30028 40131 70265 84530 333 10306 29089 55037 58008 60051;
0201823920999992001042812004-03690-040340FM-12+008399999V0203601N001010042019N0500001N1+02561+02401101411ADDAA124007991AY161061AY261061GF107991061051004501031001KA1240N+02281MA1999999100381MD1999999+0051MW1021REMSYN088AAXX  28124 82392 21499 73602 10256 20240 30038 40141 70266 86530 333 20228 58005 60084;
0182823920999992001042818004-03690-040340FM-12+008399999V0202701N000510042019N0500001N1+02641+02481101061ADDAA106016091AY161061AY261061GF107991061051004501031001MA1999999100031MD1999999+0051MW1021REMSYN082AAXX  28184 82392 21499 72701 10264 20248 30003 40106 70266 86530 333 58005 60161;
0213823920999992001042900004-03690-040340FM-12+008399999V0209999C000010042019N0040001N1+02441+02391101331ADDAA106004191AY161061AY261061GF108991061051004501021999KA1240M+02671MA1999999100301MD1999999+0021MW1021REMSYN100AAXX  29004 82392 21496 80000 10244 20239 30030 40133 70266 8652/ 333 10267 29097 55003 58002 60041;
0192823920999992001042912004-03690-040340FM-12+008399999V0201401N001019999999N0500001N1+02681+02311101341ADDAA124020191GF105991999021004501001001KA1240N+02281MA1999999100321MD1999999-0061REMSYN082AAXX  29124 82392 22499 51402 10268 20231 30032 40134 84200 333 20228 59006 60204;EQDQ01+000042SCOTLC
0201823920999992001042918004-03690-040340FM-12+008399999V0201401N000519999999N0020001N1+03021+02311100971ADDAA106001091AY161061AY261061GF106991999021004501001001MA1999999099951MD1999999-0071MW1021REMSYN082AAXX  29184 82392 21495 61401 10302 20231 39995 40097 70266 84200 333 59007 60011;EQDQ01+000042SCOTLC
0232823920999992001043000004-03690-040340FM-12+008399999V0209999C000019999999N0040001N1+02481+02341101251ADDAA106025991AY161061AY261061GF108991999021004501001001KA1240M+03061MA1999999100231MD1999999-0071MW1021REMSYN100AAXX  30004 82392 21496 80000 10248 20234 30023 40125 70266 83200 333 10306 29082 55074 59007 60261;EQDQ01+000032SCOTLC
0173823920999992001043012004-03690-040340FM-12+008399999V0202301N000510450019N0500001N1+02761+02381101221ADDAA124027991GF106991041041004501031001KA1240N+02311MA1999999100201MD1999999-0121REMSYN082AAXX  30124 82392 22499 62301 10276 20238 30020 40122 84430 333 20231 59012 60284;
0167823920999992001043018004-03690-040340FM-12+008399999V0201401N001010450019N0500001N1+03121+02251100741ADDAA199000091GF106991041051004501031001MA1999999099721MD1999999-0241REMSYN070AAXX  30184 82392 32499 61402 10312 20225 39972 40074 84530 333 59024;EQDQ01  00002PRCP99
0198823920999992001050100004-03690-040340FM-12+008399999V0209999C000010450019N0040001N1+02581+02531101111ADDAA199000091GF108991031051004501011999KA1240M+03161MA1999999100091MD1999999-0141REMSYN088AAXX  01004 82392 32496 80000 10258 20253 30009 40111 8351/ 333 10316 29097 55073 59014;EQDQ01  00002PRCP99
0186823920999992001050112004-03690-040340FM-12+008399999V0200501N001010450019N0500001N1+02601+02251101221ADDAA199000091GF106991041051004501031001KA1240N+02301MA1999999100201MD1999999+0001REMSYN076AAXX  01124 82392 32499 60502 10260 20225 30020 40122 84530 333 20230 58000;EQDQ01  00002PRCP99
0167823920999992001050118004-03690-040340FM-12+008399999V0200901N000510450019N0500001N1+02881+02411100881ADDAA199000091GF107991031051004501011001MA1999999099861MD1999999+0141REMSYN070AAXX  01184 82392 32499 70901 10288 20241 39986 40088 83510 333 58014;EQDQ01  00002PRCP99
0198823920999992001050200004-03690-040340FM-12+008399999V0200901N000512200019N0040001N1+02481+02341101171ADDAA199000091GF103991031001008001021001KA1240M+03061MA1999999100151MD1999999+0061REMSYN088AAXX  02004 82392 32596 30901 10248 20234 30015 40117 83020 333 10306 29092 55022 58006;EQDQ01  00002PRCP99
0186823920999992001050212004-03690-040340FM-12+008399999V0201401N001010450019N0500001N1+02601+02231101371ADDAA199000091GF107991041051004501031001KA1240N+02241MA1999999100341MD1999999+0141REMSYN076AAXX  02124 82392 32499 71402 10260 20223 30034 40137 84530 333 20224 58014;EQDQ01  00002PRCP99
0167823920999992001050218004-03690-040340FM-12+008399999V0200501N001510450019N0500001N1+03021+02021101021ADDAA199000091GF105991041021004501031001MA1999999100001MD1999999+0141REMSYN070AAXX  02184 82392 32499 50503 10302 20202 30000 40102 84230 333 58014;EQDQ01  00002PRCP99
0198823920999992001050300004-03690-040340FM-12+008399999V0203601N000510450019N0040001N1+02441+02271101291ADDAA199000091GF106991021051004501011001KA1240M+03081MA1999999100261MD1999999+0111REMSYN088AAXX  03004 82392 32496 63601 10244 20227 30026 40129 82510 333 10308 29079 55090 58011;EQDQ01  00002PRCP99
0186823920999992001050312004-03690-040340FM-12+008399999V0209999C000010042019N0500001N1+02721+02341101321ADDAA199000091GF106991061041004501001001KA1240N+02181MA1999999100301MD1999999-0041REMSYN076AAXX  03124 82392 32499 60000 10272 20234 30030 40132 86400 333 20218 59004;EQDQ01  00002PRCP99
0214823920999992001050400004-03690-040340FM-12+008399999V0203601N001019999999N0040001N1+02521+02341101181ADDAA199000091GF105991999011008001001001KA1240M+03161MA1999999100161MD1999999-0101REMSYN088AAXX  04004 82392 32596 53602 10252 20234 30016 40118 82100 333 10316 29080 55101 59010;EQDQ01+000022SCOTLCQ02  00002PRCP99
0186823920999992001050412004-03690-040340FM-12+008399999V0201401N001010450019N0500001N1+02701+02331101191ADDAA199000091GF105991041021004501031001KA1240N+02211MA1999999100171MD1999999-0131REMSYN076AAXX  04124 82392 32499 51402 10270 20233 30017 40119 84230 333 20221 59013;EQDQ01  00002PRCP99
0167823920999992001050418004-03690-040340FM-12+008399999V0200901N000510450019N0500001N1+02991+02371100831ADDAA199000091GF105991021021004501031001MA1999999099811MD1999999-0101REMSYN070AAXX  04184 82392 32499 50901 10299 20237 39981 40083 82230 333 59010;EQDQ01  00002PRCP99
0198823920999992001050500004-03690-040340FM-12+008399999V0203601N001012200019N0040001N1+02441+02271101151ADDAA199000091GF103991031001004501031001KA1240M+03061MA1999999100131MD1999999-0031REMSYN088AAXX  05004 82392 32496 33602 10244 20227 30013 40115 83030 333 10306 29082 55051 59003;EQDQ01  00002PRCP99
0186823920999992001050512004-03690-040340FM-12+008399999V0201401N000510450019N0500001N1+02811+02461101161ADDAA199000091GF106991031021004501031001KA1240N+02341MA1999999100141MD1999999-0031REMSYN076AAXX  05124 82392 32499 61401 10281 20246 30014 40116 83230 333 20234 59003;EQDQ01  00002PRCP99
0167823920999992001050518004-03690-040340FM-12+008399999V0200901N000510042019N0500001N1+03031+02381100731ADDAA199000091GF106991061051004501001001MA1999999099711MD1999999-0101REMSYN070AAXX  05184 82392 32499 60901 10303 20238 39971 40073 86500 333 59010;EQDQ01  00002PRCP99
0198823920999992001050600004-03690-040340FM-12+008399999V0203601N001511050019N0040001N1+02571+02401101071ADDAA199000091GF105991011021004501011071KA1240M+03161MA1999999100051MD1999999-0081REMSYN088AAXX  06004 82392 32496 53603 10257 20240 30005 40107 81217 333 10316 29082 55073 59008;EQDQ01  00002PRCP99
0202823920999992001050612004-03690-040340FM-12+008399999V0200901N000519999999N0020001N1+02731+02471101281ADDAA199000091GF107991999021008001001001KA1240N+02371MA1999999100221MD1999999+0081REMSYN076AAXX  06124 82392 32595 70901 10273 20247 30022 40128 84200 333 20237 58008;EQDQ01+000042SCOTLCQ02  00002PRCP99
0201823920999992001050618004-03690-040340FM-12+008399999V0203601N001019999999N0020001N1+02531+02441100931ADDAA106000191AY151061AY251061GF108991999021008001001001MA1999999099901MD1999999+0191MW1021REMSYN082AAXX  06184 82392 21595 83602 10253 20244 39990 40093 70255 83200 333 58019 69921;EQDQ01+000032SCOTLC
0213823920999992001050700004-03690-040340FM-12+008399999V0209999C000010450019N0020001N1+02441+02051101271ADDAA106000391AY161061AY261061GF108991031051008001011001KA1240M+03001MA1999999100221MD1999999+0171MW1021REMSYN100AAXX  07004 82392 21595 80000 10244 20205 30022 40127 70266 83510 333 10300 29092 55011 58017 69931;
0173823920999992001050712004-03690-040340FM-12+008399999V0201401N001010450019N0500001N1+02701+02371101271ADDAA124000591GF105991041021004501031001KA1240N+02221MA1999999100251MD1999999+0031REMSYN082AAXX  07124 82392 22499 51402 10270 20237 30025 40127 84230 333 20222 58003 69954;
0167823920999992001050718004-03690-040340FM-12+008399999V0201401N001010450019N0500001N1+03101+02261100871ADDAA199000091GF105991041021004501031001MA1999999099851MD1999999-0051REMSYN070AAXX  07184 82392 32499 51402 10310 20226 39985 40087 84230 333 59005;EQDQ01  00002PRCP99
0214823920999992001050800004-03690-040340FM-12+008399999V0203601N001012200019N0040001N1+02541+02421101171ADDAA199000091GF104991999021004501001001KA1240M+03161MA1999999100151MD1999999-0071REMSYN088AAXX  08004 82392 32496 43602 10254 20242 30015 40117 81200 333 10316 29082 55089 59007;EQDQ01+000012SCOTLCQ02  00002PRCP99
0186823920999992001050812004-03690-040340FM-12+008399999V0201401N000510450019N0500001N1+02701+02281101271ADDAA199000091GF106991041021004501031001KA1240N+02201MA1999999100251MD1999999+0001REMSYN076AAXX  08124 82392 32499 61401 10270 20228 30025 40127 84230 333 20220 58000;EQDQ01  00002PRCP99
0167823920999992001050818004-03690-040340FM-12+008399999V0203601N000511050019N0500001N1+03161+02291100891ADDAA199000091GF105991021021004501031011MA1999999099871MD1999999+0021REMSYN070AAXX  08184 82392 32499 53601 10316 20229 39987 40089 82231 333 58002;EQDQ01  00002PRCP99
0213823920999992001050900004-03690-040340FM-12+008399999V0203601N000512200019N0040001N1+02401+02341101111ADDAA106009991AY161061AY261061GF101991011001004501031001KA1240M+03191MA1999999100091MD1999999-0061MW1021REMSYN100AAXX  09004 82392 21496 13601 10240 20234 30009 40111 70266 81030 333 10319 29082 55091 59006 60101;
0173823920999992001050912004-03690-040340FM-12+008399999V0201801N000512200019N0500001N1+02681+02241101171ADDAA124009991GF102991021011004501001001KA1240N+02051MA1999999100141MD1999999-0111REMSYN082AAXX  09124 82392 22499 21801 10268 20224 30014 40117 82100 333 20205 59011 60104;
0167823920999992001050918004-03690-040340FM-12+008399999V0201801N000510042019N0500001N1+03101+02361100771ADDAA199000091GF106991061041004501001001MA1999999099751MD1999999-0121REMSYN070AAXX  09184 82392 32499 61801 10310 20236 39975 40077 86400 333 59012;EQDQ01  00002PRCP99
0232823920999992001051000004-03690-040340FM-12+008399999V0200501N000512200019N0040001N1+02441+02351101051ADDAA106002091AY161061AY261061GF102991999021008001001001KA1240M+03161MA1999999100031MD1999999-0061MW1021REMSYN100AAXX  10004 82392 21596 20501 10244 20235 30003 40105 70266 81200 333 10316 29083 55078 59006 60021;EQDQ01+000012SCOTLC
0173823920999992001051012004-03690-040340FM-12+008399999V0200501N000510450019N0500001N1+02681+02451101181ADDAA124002091GF106991041051004501031001KA1240N+02381MA1999999100161MD1999999+0021REMSYN082AAXX  10124 82392 22499 60501 10268 20245 30016 40118 84530 333 20238 58002 60024;
0167823920999992001051018004-03690-040340FM-12+008399999V0203601N001010450019N0500001N1+02941+02431100801ADDAA199000091GF106991031051004501031011MA1999999099781MD1999999+0031REMSYN070AAXX  10184 82392 32499 63602 10294 20243 39978 40080 83531 333 58003;EQDQ01  00002PRCP99
0213823920999992001051100004-03690-040340FM-12+008399999V0209999C000010450019N0040001N1+02281+02141101181ADDAA106009991AY161061AY261061GF108991041061004501021999KA1240M+03041MA1999999100151MD1999999+0121MW1021REMSYN100AAXX  11004 82392 21496 80000 10228 20214 30015 40118 70266 8462/ 333 10304 29086 55052 58012 60101;
0173823920999992001051112004-03690-040340FM-12+008399999V0200501N001512200019N0500001N1+02721+02341101291ADDAA124009991GF102991021011004501001001KA1240N+02201MA1999999100261MD1999999+0101REMSYN082AAXX  11124 82392 22499 20503 10272 20234 30026 40129 82100 333 20220 58010 60104;
0167823920999992001051118004-03690-040340FM-12+008399999V0200901N000512200019N0500001N1+03101+02261100921ADDAA199000091GF104991021021004501011011MA1999999099901MD1999999+0121REMSYN070AAXX  11184 82392 32499 40901 10310 20226 39990 40092 82211 333 58012;EQDQ01  00002PRCP99
0208823920999992001051200004-03690-040340FM-12+008399999V0203601N001512200019N0040001N1+02501+02361101221ADDAA199000091GA1001+999999999GF100991001001999999001001KA1240M+03121MA1999999100201MD1999999+0051REMSYN082AAXX  12004 82392 32996 03603 10250 20236 30020 40122 333 10312 29081 55100 58005;EQDQ01  00002PRCP99
0201823920999992001051212004-03690-040340FM-12+008399999V0200901N000510042019N0500001N1+02781+02421101691ADDAA124000191AY151061AY251061GF106991061021004501001001KA1240N+02241MA1999999100371MD1999999+0111MW1021REMSYN088AAXX  12124 82392 21499 60901 10278 20242 30037 40169 70255 86200 333 20224 58011 69914;
0167823920999992001051218004-03690-040340FM-12+008399999V0203601N001012200019N0500001N1+02981+02471101011ADDAA199000091GF105991031021004501001011MA1999999099991MD1999999+0091REMSYN070AAXX  12184 82392 32499 53602 10298 20247 39999 40101 83201 333 58009;EQDQ01  00002PRCP99
0223823920999992001051300004-03690-040340FM-12+008399999V0203601N000512200019N0040001N1+02431+02321101231ADDAA106003091AY161061AY261061GA1001+999999999GF100991001001999999001001KA1240M+03161MA1999999100211MD1999999+0011MW1021REMSYN094AAXX  13004 82392 21996 03601 10243 20232 30021 40123 70266 333 10316 29085 55084 58001 60031;
0173823920999992001051312004-03690-040340FM-12+008399999V0201401N000512200019N0500001N1+02761+02421101461ADDAA124003091GF101991011011004501001001KA1240N+02121MA1999999100441MD1999999+0071REMSYN082AAXX  13124 82392 22499 11401 10276 20242 30044 40146 81100 333 20212 58007 60034;
0167823920999992001051318004-03690-040340FM-12+008399999V0201401N000512200019N0500001N1+03101+02181101061ADDAA199000091GF101991011011004501001001MA1999999100041MD1999999+0051REMSYN070AAXX  13184 82392 32499 11401 10310 20218 30004 40106 81100 333 58005;EQDQ01  00002PRCP99
0208823920999992001051400004-03690-040340FM-12+008399999V0203601N000512200019N0040001N1+02481+02341101241ADDAA199000091GA1001+999999999GF100991001001999999001001KA1240M+03201MA1999999100221MD1999999+0011REMSYN082AAXX  14004 82392 32996 03601 10248 20234 30022 40124 333 10320 29081 55102 58001;EQDQ01  00002PRCP99
0186823920999992001051412004-03690-040340FM-12+008399999V0200501N001512200019N0500001N1+02681+02311101421ADDAA199000091GF102991021011004501001001KA1240N+02201MA1999999100401MD1999999-0041REMSYN076AAXX  14124 82392 32499 20503 10268 20231 30040 40142 82100 333 20220 59004;EQDQ01  00002PRCP99
0167823920999992001051418004-03690-040340FM-12+008399999V0200501N001012200019N0500001N1+03121+02141100981ADDAA199000091GF101991011011004501001001MA1999999099961MD1999999-0081REMSYN070AAXX  14184 82392 32499 10502 10312 20214 39996 40098 81100 333 59008;EQDQ01  00002PRCP99
0208823920999992001051500004-03690-040340FM-12+008399999V0209999C000012200019N0040001N1+02311+02201101141ADDAA199000091GA1001+999999999GF100991001001999999001001KA1240M+03131MA1999999100111MD1999999-0111REMSYN082AAXX  15004 82392 32996 00000 10231 20220 30011 40114 333 10313 29081 55095 59011;EQDQ01  00002PRCP99
0186823920999992001051512004-03690-040340FM-12+008399999V0201401N001012200019N0500001N1+02661+02161101291ADDAA199000091GF101991011011004501001001KA1240N+02021MA1999999100261MD1999999-0141REMSYN076AAXX  15124 82392 32499 11402 10266 20216 30026 40129 81100 333 20202 59014;EQDQ01  00002PRCP99
0208823920999992001051600004-03700-040350FM-12+008399999V0200501N000512200019N0040001N1+02331+02151101111ADDAA199000091GA1001+999999999GF100991001001999999001001KA1240M+03101MA1999999100081MD1999999-0031REMSYN082AAXX  16004 82392 32996 00501 10233 20215 30008 40111 333 10310 29076 55100 59003;EQDQ01  00002PRCP99
0186823920999992001051612004-03700-040350FM-12+008399999V0200901N000512200019N0500001N1+02661+01951101291ADDAA199000091GF101991011011004501001001KA1240N+02001MA1999999100261MD1999999+0001REMSYN076AAXX  16124 82392 32499 10901 10266 20195 30026 40129 81100 333 20200 58000;EQDQ01  00002PRCP99
0208823920999992001051700004-03690-040340FM-12+008399999V0200501N000512200019N0040001N1+02341+02111101211ADDAA199000091GA1001+999999999GF100991001001999999001001KA1240M+03161MA1999999100181MD1999999+0101REMSYN082AAXX  17004 82392 32996 00501 10234 20211 30018 40121 333 10316 29071 55103 58010;EQDQ01  00002PRCP99
0186823920999992001051712004-03690-040340FM-12+008399999V0201401N000512200019N0500001N1+02781+02301101421ADDAA199000091GF103991031021004501001001KA1240N+02011MA1999999100401MD1999999+0141REMSYN076AAXX  17124 82392 32499 31401 10278 20230 30040 40142 83200 333 20201 58014;EQDQ01  00002PRCP99
0167823920999992001051718004-03690-040340FM-12+008399999V0203601N000512200019N0500001N1+03191+02241101091ADDAA199000091GF103991031021004501001001MA1999999100071MD1999999+0121REMSYN070AAXX  17184 82392 32499 33601 10319 20224 30007 40109 83200 333 58012;EQDQ01  00002PRCP99
0208823920999992001051800004-03690-040340FM-12+008399999V0203601N001012200019N0040001N1+02501+02251101461ADDAA199000091GA1001+999999999GF100991001001999999001001KA1240M+03221MA1999999100441MD1999999+0261REMSYN082AAXX  18004 82392 32996 03602 10250 20225 30044 40146 333 10322 29076 55103 58026;EQDQ01  00002PRCP99
0186823920999992001051812004-03690-040340FM-12+008399999V0200901N001012200019N0500001N1+02721+02241101491ADDAA199000091GF101991011011004501001001KA1240N+02101MA1999999100461MD1999999+0061REMSYN076AAXX  18124 82392 32499 10902 10272 20224 30046 40149 81100 333 20210 58006;EQDQ01  00002PRCP99
0167823920999992001051818004-03690-040340FM-12+008399999V0209999C000012200019N0500001N1+03241+02221101101ADDAA199000091GF104991041021004501001001MA1999999100081MD1999999+0011REMSYN070AAXX  18184 82392 32499 40900 10324 20222 30008 40110 84200 333 58001;EQDQ01  00002PRCP99
0198823920999992001051900004-03690-040340FM-12+008399999V0203601N001012200019N0040001N1+02521+02311101441ADDAA199000091GF101991011001008001031001KA1240M+03281MA1999999100421MD1999999-0021REMSYN088AAXX  19004 82392 32596 13602 10252 20231 30042 40144 81030 333 10328 29076 55101 59002;EQDQ01  00002PRCP99
0186823920999992001051912004-03690-040340FM-12+008399999V0200901N001512200019N0020001N1+02721+02241101511ADDAA199000091GF102991021011008001001001KA1240N+02301MA1999999100481MD1999999+0021REMSYN076AAXX  19124 82392 32595 20903 10272 20224 30048 40151 82100 333 20230 58002;EQDQ01  00002PRCP99
0167823920999992001051918004-03690-040340FM-12+008399999V0200901N002112200019N0500001N1+03121+02141101041ADDAA199000091GF102991021021008001001001MA1999999100021MD1999999-0061REMSYN070AAXX  19184 82392 32599 20904 10312 20214 30002 40104 82200 333 59006;EQDQ01  00002PRCP99
0208823920999992001052000004-03690-040340FM-12+008399999V0203601N000512200019N0040001N1+02501+02321101321ADDAA199000091GA1001+999999999GF100991001001999999001001KA1240M+03221MA1999999100301MD1999999-0121REMSYN082AAXX  20004 82392 32996 03601 10250 20232 30030 40132 333 10322 29078 55095 59012;EQDQ01  00002PRCP99
0186823920999992001052012004-03690-040340FM-12+008399999V0200501N000510450019N0500001N1+02721+02321101341ADDAA199000091GF107991041041004501031001KA1240N+02301MA1999999100321MD1999999-0161REMSYN076AAXX  20124 82392 32499 70501 10272 20232 30032 40134 84430 333 20230 59016;EQDQ01  00002PRCP99
0167823920999992001052018004-03690-040340FM-12+008399999V0203601N000512200019N0500001N1+03161+02261100921ADDAA199000091GF103991021021004501031001MA1999999099901MD1999999-0121REMSYN070AAXX  20184 82392 32499 33601 10316 20226 39990 40092 82230 333 59012;EQDQ01  00002PRCP99
0198823920999992001052100004-03690-040340FM-12+008399999V0203601N001012200019N0040001N1+02481+02301101261ADDAA199000091GF102991021021004501001001KA1240M+03201MA1999999100211MD1999999-0091REMSYN088AAXX  21004 82392 32496 23602 10248 20230 30021 40126 82200 333 10320 29080 55001 59009;EQDQ01  00002PRCP99
0186823920999992001052112004-03690-040340FM-12+008399999V0200901N000512200019N0500001N1+02721+02241101331ADDAA199000091GF102991011011004501001011KA1240N+02151MA1999999100311MD1999999-0011REMSYN076AAXX  21124 82392 32499 20901 10272 20224 30031 40133 81101 333 20215 59001;EQDQ01  00002PRCP99
0167823920999992001052118004-03690-040340FM-12+008399999V0201801N000510450019N0500001N1+03141+02131100921ADDAA199000091GF106991041041004501031001MA1999999099901MD1999999+0001REMSYN070AAXX  21184 82392 32499 61801 10314 20213 39990 40092 84430 333 58000;EQDQ01  00002PRCP99
0208823920999992001052200004-03690-040340FM-12+008399999V0203601N000512200019N0040001N1+02481+02271101131ADDAA199000091GA1001+999999999GF100991001001999999001001KA1240M+03221MA1999999100111MD1999999-0101REMSYN082AAXX  22004 82392 32996 03601 10248 20227 30011 40113 333 10322 29077 55077 59010;EQDQ01  00002PRCP99
0186823920999992001052212004-03690-040340FM-12+008399999V0200901N001012200019N0500001N1+02641+02291101301ADDAA199000091GF103991031021004501001001KA1240N+02201MA1999999100281MD1999999-0031REMSYN076AAXX  22124 82392 32499 30902 10264 20229 30028 40130 83200 333 20220 59003;EQDQ01  00002PRCP99
0167823920999992001052218004-03690-040340FM-12+008399999V0200901N000510450019N0500001N1+02821+02291100911ADDAA199000091GF106991021051004501031001MA1999999099891MD1999999-0011REMSYN070AAXX  22184 82392 32499 60901 10282 20229 39989 40091 82530 333 59001;EQDQ01  00002PRCP99
0198823920999992001052300004-03690-040340FM-12+008399999V0203601N001010450019N0040001N1+02541+02331101121ADDAA199000091GF107991041051004501031001KA1240M+03091MA1999999100101MD1999999-0011REMSYN088AAXX  23000 82392 32496 73601 10254 20233 30010 40112 84530 333 10309 29083 55057 59001;EQDQ01  00002PRCP99
0186823920999992001052312004-03690-040340FM-12+008399999V0200901N001512200019N0500001N1+02741+02361101301ADDAA199000091GF103991031021004501001001KA1240N+02201MA1999999100281MD1999999+0001REMSYN076AAXX  23124 82392 32499 30903 10274 20236 30028 40130 83200 333 20220 58000;EQDQ01  00002PRCP99
0167823920999992001052318004-03690-040340FM-12+008399999V0200901N000512200019N0500001N1+03201+01991100911ADDAA199000091GF101991011011004501001001MA1999999099891MD1999999+0001REMSYN070AAXX  23184 82392 32499 10901 10320 20199 39989 40091 81100 333 58000;EQDQ01  00002PRCP99
0213823920999992001052400004-03690-040340FM-12+008399999V0203601N001012200019N0040001N1+02461+02321101211ADDAA106007991AY161061AY261061GF104991021021004501031001KA1240M+03261MA1999999100191MD1999999+0101MW1021REMSYN100AAXX  24004 82392 21496 43602 10246 20232 30019 40121 70266 82230 333 10326 29086 55092 58010 60081;
0173823920999992001052412004-03690-040340FM-12+008399999V0200901N000512200019N0500001N1+02711+02431101451ADDAA124007991GF106991031021004501001011KA1240N+02261MA1999999100431MD1999999+0151REMSYN082AAXX  24124 82392 22499 60901 10271 20243 30043 40145 83201 333 20226 58015 60084;
0167823920999992001052418004-03690-040340FM-12+008399999V0200901N000510450019N0500001N1+03191+02191101041ADDAA199000091GF106991031051004501031001MA1999999100021MD1999999+0131REMSYN070AAXX  24184 82392 32499 60901 10319 20219 30002 40104 83530 333 58013;EQDQ01  00002PRCP99
0223823920999992001052500004-03690-040340FM-12+008399999V0203601N000512200019N0040001N1+02381+02211101321ADDAA106007991AY161061AY221061GA1001+999999999GF100991001001999999001001KA1240M+03201MA1999999100301MD1999999+0111MW1021REMSYN094AAXX  25004 82392 21996 03601 10238 20221 30030 40132 70262 333 10320 29079 55067 58011 60081;
0173823920999992001052512004-03690-040340FM-12+008399999V0200901N001512200019N0500001N1+02661+02291101401ADDAA124007991GF104991031021004501031001KA1240N+02201MA1999999100381MD1999999-0051REMSYN082AAXX  25124 82392 22499 40903 10266 20229 30038 40140 83230 333 20220 59005 60084;
0182823920999992001052518004-03690-040340FM-12+008399999V0200501N001010450019N0500001N1+02661+02371101201ADDAA106001091AY161061AY261061GF106991021051004501031001MA1999999100171MD1999999+0151MW1021REMSYN082AAXX  25184 82392 21499 60502 10266 20237 30017 40120 70266 82530 333 58015 60011;
0198823920999992001052600004-03690-040340FM-12+008399999V0203601N000512200019N0040001N1+02341+02171101331ADDAA199000091GF101991011021008001001001KA1240M+02961MA1999999100301MD1999999+0001REMSYN088AAXX  26004 82392 32596 13601 10234 20217 30030 40133 81200 333 10296 29086 55068 58000;EQDQ01  00002PRCP99
0192823920999992001052612004-03690-040340FM-12+008399999V0209999C000010450019N0500001N1+00601+99999101381ADDAA124001091GF106991041021004501031001KA1240N+99999MA1999999100351MD1999999-0031REMSYN082AAXX  26124 82392 22499 60000 10060 20229 30035 40138 84230 333 20212 59003 60014;EQDQ01 +02122ATMN  
0167823920999992001052618004-03690-040340FM-12+008399999V0201401N000512200019N0500001N1+03032+02181100881ADDAA199000091GF104991021021004501031001MA1999999099861MD1999999-0311REMSYN070AAXX  26184 82392 32499 41401 10303 20218 39986 40088 82230 333 59031;EQDQ01  00002PRCP99
0198823920999992001052700004-03690-040340FM-12+008399999V0203601N000512200019N0040001N1+02481+02271101181ADDAA199000091GF101991011001008001011001KA1240M+03201MA1999999100151MD1999999-0111REMSYN088AAXX  27004 82392 32596 13601 10248 20227 30015 40118 81010 333 10320 29080 55082 59011;EQDQ01  00002PRCP99
0186823920999992001052712004-03690-040340FM-12+008399999V0200901N001012200019N0020001N1+02621+02161101321ADDAA199000091GF101991011011004501001001KA1240N+02001MA1999999100301MD1999999-0051REMSYN076AAXX  27124 82392 32495 10902 10262 20216 30030 40132 81100 333 20200 59005;EQDQ01  00002PRCP99
0167823920999992001052718004-03690-040340FM-12+008399999V0200501N001512200019N0500001N1+03201+01991100921ADDAA199000091GF101991011011004501001001MA1999999099901MD1999999+0041REMSYN070AAXX  27184 82392 32499 10503 10320 20199 39990 40092 81100 333 58004;EQDQ01  00002PRCP99
0214823920999992001052800004-03690-040340FM-12+008399999V0203601N001012200019N0040001N1+02561+02291101251ADDAA199000091GF101991999011008001001001KA1240M+03281MA1999999100231MD1999999+0081REMSYN088AAXX  28004 82392 32596 13602 10256 20229 30023 40125 82100 333 10328 29074 55098 58008;EQDQ01+000022SCOTLCQ02  00002PRCP99
0186823920999992001052812004-03690-040340FM-12+008399999V0200901N001012200019N0500001N1+02781+02271101481ADDAA199000091GF103991031021004501001001KA1240N+02191MA1999999100451MD1999999+0151REMSYN076AAXX  28124 82392 32499 30902 10278 20227 30045 40148 83200 333 20219 58015;EQDQ01  00002PRCP99
0167823920999992001052818004-03690-040340FM-12+008399999V0201401N001512200019N0500001N1+03261+02151100991ADDAA199000091GF103991021011004501031001MA1999999099971MD1999999+0071REMSYN070AAXX  28184 82392 32499 31403 10326 20215 39997 40099 82130 333 58007;EQDQ01  00002PRCP99
0198823920999992001052900004-03690-040340FM-12+008399999V0203601N000512200019N0040001N1+02501+02341101231ADDAA199000091GF101991011001008001031001KA1240M+03311MA1999999100201MD1999999-0031REMSYN088AAXX  29004 82392 32596 13601 10250 20234 30020 40123 81030 333 10331 29077 55098 59003;EQDQ01  00002PRCP99
0186823920999992001052912004-03690-040340FM-12+008399999V0201401N001512200019N0500001N1+02701+02221101421ADDAA199000091GF103991031021004501001001KA1240N+02191MA1999999100401MD1999999-0051REMSYN076AAXX  29124 82392 32499 31403 10270 20222 30040 40142 83200 333 20219 59005;EQDQ01  00002PRCP99
0167823920999992001052918004-03690-040340FM-12+008399999V0200901N000512200019N0500001N1+03211+02081101061ADDAA199000091GF103991031021004501001001MA1999999100041MD1999999+0071REMSYN070AAXX  29184 82392 32499 30901 10321 20208 30004 40106 83200 333 58007;EQDQ01  00002PRCP99
0198823920999992001053000004-03690-040340FM-12+008399999V0203601N000512200019N0040001N1+02461+02271101351ADDAA199000091GF101991011001008001011001KA1240M+03261MA1999999100331MD1999999+0131REMSYN088AAXX  30004 82392 32596 13601 10246 20227 30033 40135 81010 333 10326 29076 55090 58013;EQDQ01  00002PRCP99
0167823920999992001053018004-03690-040340FM-12+008399999V0200901N000512200019N0500001N1+03241+02031101021ADDAA199000091GF101991011011004501001001MA1999999100001MD1999999-0041REMSYN070AAXX  30184 82392 32499 10901 10324 20203 30000 40102 81100 333 59004;EQDQ01  00002PRCP99
0230823920999992001053100004-03690-040340FM-12+008399999V0203601N001012200019N0020001N1+02521+02251101251ADDAA199000091GF101991999011008001001001KA1240M+03291MA1999999101232MD1999999-0101REMSYN088AAXX  31004 82392 32595 13602 10252 20225 30123 40125 82100 333 10329 29074 55090 59010;EQDQ01+000022SCOTLCQ02+101233APOSP Q03  00002PRCP99
0186823920999992001053112004-03690-040340FM-12+008399999V0200901N000510042019N0500001N1+02741+02241101431ADDAA199000091GF106991061021004501001001KA1240N+02101MA1999999100411MD1999999-0041REMSYN076AAXX  31124 82392 32499 60901 10274 20224 30041 40143 86200 333 20210 59004;EQDQ01  00002PRCP99
0182823920999992001053118004-03690-040340FM-12+008399999V0200501N001510450019N0500001N1+02881+02501101011ADDAA106000591AY161061AY261061GF106991041051004501031001MA1999999099991MD1999999-0011MW1021REMSYN082AAXX  31184 82392 21499 60503 10288 20250 39999 40101 70266 84530 333 59001 69941;
0198823920999992001060100004-03690-040340FM-12+008399999V0200501N001512200019N0040001N1+02481+02301101241ADDAA199000091GF102991021011008001001001KA1240M+03101MA1999999100221MD1999999-0011REMSYN088AAXX  01004 82392 32596 20503 10248 20230 30022 40124 82100 333 10310 29083 55084 59001;EQDQ01  00002PRCP99
0186823920999992001060112004-03690-040340FM-12+008399999V0201801N001012200019N0500001N1+02721+02241101301ADDAA199000091GF102991021021004501001001KA1240N+02221MA1999999100281MD1999999-0131REMSYN076AAXX  01124 82392 32499 21802 10272 20224 30028 40130 82200 333 20222 59013;EQDQ01  00002PRCP99
0167823920999992001060118004-03690-040340FM-12+008399999V0203601N001010042019N0500001N1+03061+02431100951ADDAA199000091GF106991051051004501011001MA1999999099931MD1999999-0061REMSYN070AAXX  01184 82392 32499 63602 10306 20243 39993 40095 85510 333 59006;EQDQ01  00002PRCP99
0208823920999992001060200004-03690-040340FM-12+008399999V0203601N000512200019N0040001N1+02481+02301101231ADDAA199000091GA1001+999999999GF100991001001999999001001KA1240M+03241MA1999999100211MD1999999-0011REMSYN082AAXX  02004 82392 32996 03601 10248 20230 30021 40123 333 10324 29079 55081 59001;EQDQ01  00002PRCP99
0186823920999992001060212004-03690-040340FM-12+008399999V0201401N001010450019N0500001N1+02621+02161101321ADDAA199000091GF106991041041008001031001KA1240N+02201MA1999999100301MD1999999+0021REMSYN076AAXX  02124 82392 32599 61402 10262 20216 30030 40132 84430 333 20220 58002;EQDQ01  00002PRCP99
0183823920999992001060218004-03690-040340FM-12+008399999V0200501N001512200019N0500001N1+03041+02031100971ADDAA199000091GF103991999011004501001001MA1999999099951MD1999999+0021REMSYN070AAXX  02184 82392 32499 30503 10304 20203 39995 40097 82100 333 58002;EQDQ01+000022SCOTLCQ02  00002PRCP99
0214823920999992001060300004-03690-040340FM-12+008399999V0203601N000512200019N0040001N1+02521+02271101271ADDAA199000091GF104991999021004501001001KA1240M+03181MA1999999100251MD1999999+0041REMSYN088AAXX  03004 82392 32496 43601 10252 20227 30025 40127 83200 333 10318 29076 55072 58004;EQDQ01+000032SCOTLCQ02  00002PRCP99
0186823920999992001060312004-03690-040340FM-12+008399999V0201401N000510450019N0500001N1+02791+02291101361ADDAA199000091GF105991041041004501031001KA1240N+02201MA1999999100341MD1999999+0041REMSYN076AAXX  03124 82392 32499 51401 10279 20229 30034 40136 84430 333 20220 58004;EQDQ01  00002PRCP99
0167823920999992001060318004-03690-040340FM-12+008399999V0201401N001010450019N0500001N1+03231+01961100951ADDAA199000091GF106991031021004501031011MA1999999099931MD1999999-0021REMSYN070AAXX  03184 82392 32499 61402 10323 20196 39993 40095 83231 333 59002;EQDQ01  00002PRCP99
0198823920999992001060400004-03690-040340FM-12+008399999V0203601N001012200019N0040001N1+02491+02291101241ADDAA199000091GF103991021001008001031011KA1240M+03281MA1999999100221MD1999999-0031REMSYN088AAXX  04004 82392 32596 33602 10249 20229 30022 40124 82031 333 10328 29074 55091 59003;EQDQ01  00002PRCP99
0186823920999992001060412004-03690-040340FM-12+008399999V0201801N000510450019N0500001N1+02561+02131101541ADDAA199000091GF106991041051004501031001KA1240N+02121MA1999999100501MD1999999+0161REMSYN076AAXX  04124 82392 32499 61801 10256 20213 30050 40154 84530 333 20212 58016;EQDQ01  00002PRCP99
0198823920999992001060500004-03690-040340FM-12+008399999V0203601N000512200019N0040001N1+02441+02301101321ADDAA199000091GF104991041021008001001001KA1240M+03231MA1999999100291MD1999999+0071REMSYN088AAXX  05004 82392 32596 43601 10244 20230 30029 40132 84200 333 10323 29077 55047 58007;EQDQ01  00002PRCP99
0186823920999992001060512004-03690-040340FM-12+008399999V0201401N001012200019N0500001N1+02621+02211101431ADDAA199000091GF102991021021004501001001KA1240N+02091MA1999999100401MD1999999-0101REMSYN076AAXX  05124 82392 32499 21402 10262 20221 30040 40143 82200 333 20209 59010;EQDQ01  00002PRCP99
0182823920999992001060518004-03690-040340FM-12+008399999V0203601N000510450019N0500001N1+02661+02371101171ADDAA106019191AY161061AY261061GF107991041051004501031001MA1999999100141MD1999999+0081MW1021REMSYN082AAXX  05184 82392 21499 73601 10266 20237 30014 40117 70266 84530 333 58008 60191;
0213823920999992001060600004-03690-040340FM-12+008399999V0209999C000010042019N0040001N1+02301+02251101391ADDAA106004191AY161061AY261061GF108991051051004501031999KA1240M+02831MA1999999100361MD1999999+0071MW1021REMSYN100AAXX  06004 82392 21496 80000 10230 20225 30036 40139 70266 8553/ 333 10283 29089 55020 58007 60041;
0173823920999992001060612004-03690-040340FM-12+008399999V0201401N000512200019N0500001N1+02641+02181101491ADDAA124023191GF101991011011004501001001KA1240N+02001MA1999999100451MD1999999+0051REMSYN082AAXX  06124 82392 22499 11401 10264 20218 30045 40149 81100 333 20200 58005 60234;
0167823920999992001060618004-03690-040340FM-12+008399999V0200501N001510450019N0500001N1+03041+01881101121ADDAA199000091GF105991041021004501031001MA1999999100101MD1999999-0041REMSYN070AAXX  06184 82392 32499 50503 10304 20188 30010 40112 84230 333 59004;EQDQ01  00002PRCP99
0214823920999992001060700004-03690-040340FM-12+008399999V0203601N001012200019N0040001N1+02481+02271101351ADDAA199000091GF101991999011008001001001KA1240M+03141MA1999999100331MD1999999-0031REMSYN088AAXX  07004 82392 32596 13602 10248 20227 30033 40135 82100 333 10314 29076 55093 59003;EQDQ01+000022SCOTLCQ02  00002PRCP99
0186823920999992001060712004-03690-040340FM-12+008399999V0209999C000012200019N0500001N1+02681+02281101431ADDAA199000091GF104991041021004501001001KA1240N+02101MA1999999100411MD1999999-0041REMSYN076AAXX  07124 82392 32499 40000 10268 20228 30041 40143 84200 333 20210 59004;EQDQ01  00002PRCP99
0182823920999992001060718004-03690-040340FM-12+008399999V0203201N000510450019N0500001N1+02541+02291101101ADDAA106002091AY161061AY261061GF107991041051004501031001MA1999999100071MD1999999-0031MW1021REMSYN082AAXX  07184 82392 21499 73201 10254 20229 30007 40110 70266 84530 333 59003 60021;
0198823920999992001060800004-03690-040340FM-12+008399999V0203601N000510450019N0040001N1+02301+02131101381ADDAA199000091GF108991041061004501021999KA1240M+03161MA1999999100351MD1999999+0021REMSYN088AAXX  08004 82392 32496 83601 10230 20213 30035 40138 8462/ 333 10316 29086 55067 58002;EQDQ01  00002PRCP99
0201823920999992001060812004-03690-040340FM-12+008399999V0202301N000510450019N0500001N1+02421+02251101541ADDAA124004191AY161061AY261061GF108991031071004501021999KA1240N+02101MA1999999100501MD1999999+0091MW1021REMSYN088AAXX  08124 82392 21499 82301 10242 20225 30050 40154 70266 8372/ 333 20210 58009 60044;
0167823920999992001060818004-03690-040340FM-12+008399999V0201401N003112200019N0500001N1+03041+02031101151ADDAA199000091GF104991011021004501031011MA1999999100131MD1999999+0061REMSYN070AAXX  08184 82392 32499 41406 10304 20203 30013 40115 81231 333 58006;EQDQ01  00002PRCP99
0198823920999992001060900004-03690-040340FM-12+008399999V0203601N000512200019N0040001N1+02401+02231101411ADDAA199000091GF102991021011008001001001KA1240M+03161MA1999999100381MD1999999+0031REMSYN088AAXX  09004 82392 32596 23601 10240 20223 30038 40141 82100 333 10316 29081 55069 58003;EQDQ01  00002PRCP99
0202823920999992001060912004-03690-040340FM-12+008399999V0201401N000512200019N0500001N1+02741+02171101501ADDAA199000091GF102991999021004501001001KA1240N+02061MA1999999100471MD1999999-0031REMSYN076AAXX  09124 82392 32499 21401 10274 20217 30047 40150 83200 333 20206 59003;EQDQ01+000032SCOTLCQ02  00002PRCP99
0208823920999992001061000004-03690-040340FM-12+008399999V0200501N000512200019N0040001N1+02381+02171101341ADDAA199000091GA1001+999999999GF100991001001999999001001KA1240M+03181MA1999999100321MD1999999-0061REMSYN082AAXX  10004 82392 32996 00501 10238 20217 30032 40134 333 10318 29076 55091 59006;EQDQ01  00002PRCP99
0166823920999992001061012004-03690-040340FM-12+008399999V0201401N000512200019N0500001N1+02681+02111101471ADDAA199000091GF103991031021004501001001KA1999N+00031MA1999999100441REMSYN070AAXX  10124 82392 32499 31401 10268 20211 30044 40147 83200 333 29003;EQDQ01  00002PRCP99
0167823920999992001061018004-03690-040340FM-12+008399999V0201401N000512200019N0020001N1+03241+01931101081ADDAA199000091GF101991011021008001001001MA1999999100061MD1999999-0081REMSYN070AAXX  10184 82392 32595 11401 10324 20193 30006 40108 81200 333 59008;EQDQ01  00002PRCP99
0213823920999992001061100004-03690-040340FM-12+008399999V0202301N000512200019N0040001N1+02461+02251101321ADDAA106003091AY161061AY261061GF104991041021004501001001KA1240M+03281MA1999999100301MD1999999-0021MW1021REMSYN100AAXX  11004 82392 21496 42301 10246 20225 30030 40132 70266 84200 333 10328 29073 55096 59002 60031;
0173823920999992001061112004-03690-040340FM-12+008399999V0201801N000512200019N0500001N1+02521+02091101381ADDAA124003091GF101991011011004501001001KA1240N+02181MA1999999100351MD1999999-0091REMSYN082AAXX  11124 82392 22499 11801 10252 20209 30035 40138 81100 333 20218 59009 60034;
0167823920999992001061118004-03690-040340FM-12+008399999V0200901N000510450019N0500001N1+03121+01791101061ADDAA199000091GF105991041021004501031001MA1999999100041MD1999999-0021REMSYN070AAXX  11184 82392 32499 50901 10312 20179 30004 40106 84230 333 59002;EQDQ01  00002PRCP99
0208823920999992001061200004-03690-040340FM-12+008399999V0200501N000512200019N0040001N1+02321+01981101291ADDAA199000091GA1001+999999999GF100991001001999999001001KA1240M+03151MA1999999100261MD1999999-0041REMSYN082AAXX  12004 82392 32996 00501 10232 20198 30026 40129 333 10315 29071 55076 59004;EQDQ01  00002PRCP99
0186823920999992001061212004-03690-040340FM-12+008399999V0201801N001012200019N0500001N1+02681+01971101371ADDAA199000091GF101991011011004501001001KA1240N+02181MA1999999100341MD1999999-0011REMSYN076AAXX  12124 82392 32499 11802 10268 20197 30034 40137 81100 333 20218 59001;EQDQ01  00002PRCP99
0183823920999992001061218004-03690-040340FM-12+008399999V0200501N001012200019N0500001N1+03141+01871100971ADDAA199000091GF104991999011004501001001MA1999999099951MD1999999-0091REMSYN070AAXX  12184 82392 32499 40502 10314 20187 39995 40097 83100 333 59009;EQDQ01+000032SCOTLCQ02  00002PRCP99
0208823920999992001061300004-03690-040340FM-12+008399999V0200901N000512200019N0040001N1+02341+01891101241ADDAA199000091GA1001+999999999GF100991001001999999001001KA1240M+03241MA1999999100211MD1999999-0051REMSYN082AAXX  13004 82392 32996 00901 10234 20189 30021 40124 333 10324 29066 55103 59005;EQDQ01  00002PRCP99
0186823920999992001061312004-03690-040340FM-12+008399999V02099999999992200019N0500001N1+02601+02031101371ADDAA199000091GF101991011011004501001001KA1240N+02091MA1999999100341MD1999999+0001REMSYN076AAXX  13124 82392 32499 14402 10260 20203 30034 40137 81100 333 20209 58000;EQDQ01  00002PRCP99
0167823920999992001061318004-03690-040340FM-12+008399999V0201401N001010450019N0500001N1+03001+01841101021ADDAA199000091GF107991031041004501031001MA1999999100001MD1999999+0051REMSYN070AAXX  13184 82392 32499 71402 10300 20184 30000 40102 83430 333 58005;EQDQ01  00002PRCP99
0198823920999992001061400004-03690-040340FM-12+008399999V0203601N000510042019N0040001N1+02541+02251101331ADDAA199000091GF107991051041004501031001KA1240M+03041MA1999999100311MD1999999+0101REMSYN088AAXX  14004 82392 32496 73601 10254 20225 30031 40133 85430 333 10304 29072 55050 58010;EQDQ01  00002PRCP99
0186823920999992001061412004-03690-040340FM-12+008399999V0201401N000510450019N0500001N1+02801+02061101311ADDAA199000091GF105991031021004501031001KA1240N+02241MA1999999100291MD1999999-0051REMSYN076AAXX  14124 82392 32499 51401 10280 20206 30029 40131 83230 333 20224 59005;EQDQ01  00002PRCP99
0167823920999992001061418004-03690-040340FM-12+008399999V0202301N000510450019N0500001N1+03071+02041100881ADDAA199000091GF107991041051004501031001MA1999999099861MD1999999-0141REMSYN070AAXX  14184 82392 32499 72301 10307 20204 39986 40088 84530 333 59014;EQDQ01  00002PRCP99
0214823920999992001061500004-03690-040340FM-12+008399999V0202301N000512200019N0040001N1+02481+02191101221ADDAA199000091GF101991999011008001001001KA1240M+03201MA1999999100201MD1999999-0111REMSYN088AAXX  15004 82392 32596 12301 10248 20219 30020 40122 82100 333 10320 29071 55047 59011;EQDQ01+000022SCOTLCQ02  00002PRCP99
0186823920999992001061512004-03690-040340FM-12+008399999V0201801N001012200019N0500001N1+02681+02111101311ADDAA199000091GF101991011011004501001001KA1240N+02181MA1999999100291MD1999999+0001REMSYN076AAXX  15124 82392 32499 11802 10268 20211 30029 40131 81100 333 20218 58000;EQDQ01  00002PRCP99
0167823920999992001061518004-03690-040340FM-12+008399999V0201401N000511050019N0500001N1+03111+01821100901ADDAA199000091GF105991021021004501001021MA1999999099881MD1999999+0021REMSYN070AAXX  15184 82392 32499 51401 10311 20182 39988 40090 82202 333 58002;EQDQ01  00002PRCP99
0208823920999992001061600004-03690-040340FM-12+008399999V0203601N001012200019N0040001N1+02441+02031101181ADDAA199000091GA1001+999999999GF100991001001999999001001KA1240M+03161MA1999999100161MD1999999-0041REMSYN082AAXX  16004 82392 32996 03602 10244 20203 30016 40118 333 10316 29068 55067 59004;EQDQ01  00002PRCP99
0186823920999992001061612004-03690-040340FM-12+008399999V0201401N001012200019N0500001N1+02621+02031101351ADDAA199000091GF102991021021004501001001KA1240N+02011MA1999999100321MD1999999+0031REMSYN076AAXX  16124 82392 32499 21402 10262 20203 30032 40135 82200 333 20201 58003;EQDQ01  00002PRCP99
0167823920999992001061618004-03690-040340FM-12+008399999V0200901N001512200019N0500001N1+03201+01461100921ADDAA199000091GF101991011001008001001011MA1999999099901MD1999999+0021REMSYN070AAXX  16184 82392 32599 10903 10320 20146 39990 40092 81001 333 58002;EQDQ01  00002PRCP99
0208823920999992001061700004-03690-040340FM-12+008399999V0203601N002112200019N0040001N1+02441+02151101201ADDAA199000091GA1001+999999999GF100991001001999999001001KA1240M+03321MA1999999100181MD1999999+0021REMSYN082AAXX  17004 82392 32996 03604 10244 20215 30018 40120 333 10332 29068 55102 58002;EQDQ01  00002PRCP99
0186823920999992001061712004-03690-040340FM-12+008399999V0200901N001012200019N0500001N1+02721+01981101361ADDAA199000091GF104991041021004501001001KA1240N+02191MA1999999100341MD1999999+0021REMSYN076AAXX  17124 82392 32499 40902 10272 20198 30034 40136 84200 333 20219 58002;EQDQ01  00002PRCP99
0198823920999992001061800004-03690-040340FM-12+008399999V0203601N001010042019N0040001N1+02561+01831101201ADDAA199000091GF105991051041004501001001KA1240M+03311MA1999999100181MD1999999+0001REMSYN088AAXX  18004 82392 32496 53602 10256 20183 30018 40120 85400 333 10331 29065 55104 58000;EQDQ01  00002PRCP99
0186823920999992001061812004-03690-040340FM-12+008399999V0200901N000512200019N0500001N1+02601+02141101321ADDAA199000091GF102991021021004501001001KA1240N+02151MA1999999100301MD1999999-0041REMSYN076AAXX  18124 82392 32499 20901 10260 20214 30030 40132 82200 333 20215 59004;EQDQ01  00002PRCP99
0167823920999992001061818004-03690-040340FM-12+008399999V0200501N001512200019N0500001N1+03421+01651100851ADDAA199000091GF101991011001008001001011MA1999999099831MD1999999-0091REMSYN070AAXX  18184 82392 32599 10503 10342 20165 39983 40085 81001 333 59009;EQDQ01  00002PRCP99
0232823920999992001061900004-03690-040340FM-12+008399999V0203601N000519999999N0040001N1+02531+02381101191ADDAA106001091AY161061AY261061GF105991999021004501001001KA1240M+03481MA1999999100171MD1999999-0011MW1211REMSYN100AAXX  19004 82392 21496 53601 10253 20238 30017 40119 72166 83200 333 10348 29073 55081 59001 60011;EQDQ01+000032SCOTLC
0173823920999992001061912004-03690-040340FM-12+008399999V0200901N001012200019N0500001N1+02701+02121101351ADDAA124001091GF101991011011004501001001KA1240N+02221MA1999999100331MD1999999+0031REMSYN082AAXX  19124 82392 22499 10902 10270 20212 30033 40135 81100 333 20222 58003 60014;
0167823920999992001061918004-03690-040340FM-12+008399999V0201801N000510450019N0500001N1+03361+01461100851ADDAA199000091GF105991021011004501031001MA1999999099831MD1999999+0001REMSYN070AAXX  19184 82392 32499 51801 10336 20146 39983 40085 82130 333 58000;EQDQ01  00002PRCP99
0230823920999992001062000004-03690-040340FM-12+008399999V0201801N000519999999N0020001N1+03361+01461100851ADDAA199000091GF105991999021004501001001KA1240M+99999MA1999999099831MD1999999+0001REMSYN088AAXX  20004 82392 32495 51801 10336 20146 39983 40085 83200 333 10310 29056 55091 58000;EQDQ01+000032SCOTLCQ02  00002PRCP99Q03 +03102ATMX  
0186823920999992001062012004-03690-040340FM-12+008399999V0200901N002110450019N0500001N1+02661+02111101491ADDAA199000091GF106991041041004501031001KA1240N+02081MA1999999100461MD1999999+0131REMSYN076AAXX  20124 82392 32499 60904 10266 20211 30046 40149 84430 333 20208 58013;EQDQ01  00002PRCP99
0167823920999992001062018004-03690-040340FM-12+008399999V0201401N001010042019N0200001N1+03021+01351101201ADDAA199000091GF107991051051004501031001MA1999999100181MD1999999+0351REMSYN070AAXX  20184 82392 32498 71402 10302 20135 30018 40120 85530 333 58035;EQDQ01  00002PRCP99
0214823920999992001062100004-03690-040340FM-12+008399999V0209999C000019999999N0040001N1+02391+02011101471ADDAA199000091GF106991999011008001001001KA1240M+03181MA1999999100441MD1999999+0281REMSYN088AAXX  21004 82392 32596 60000 10239 20201 30044 40147 82100 333 10318 29067 55014 58028;EQDQ01+000022SCOTLCQ02  00002PRCP99
0186823920999992001062112004-03690-040340FM-12+008399999V0201801N000512200019N0500001N1+02721+02051101561ADDAA199000091GF101991011011004501001001KA1240N+01961MA1999999100531MD1999999+0071REMSYN076AAXX  21124 82392 32499 11801 10272 20205 30053 40156 81100 333 20196 58007;EQDQ01  00002PRCP99
0167823920999992001062118004-03690-040340FM-12+008399999V0200901N001010450019N0500001N1+03311+01821101091ADDAA199000091GF105991031021004501031001MA1999999100071MD1999999-0111REMSYN070AAXX  21184 82392 32499 50902 10331 20182 30007 40109 83230 333 59011;EQDQ01  00002PRCP99
0208823920999992001062200004-03690-040340FM-12+008399999V0203601N000512200019N0040001N1+02481+02191101441ADDAA199000091GA1001+999999999GF100991001001999999001001KA1240M+03381MA1999999100421MD1999999-0021REMSYN082AAXX  22004 82392 32996 03601 10248 20219 30042 40144 333 10338 29069 55072 59002;EQDQ01  00002PRCP99
0186823920999992001062212004-03690-040340FM-12+008399999V0201401N000510450019N0500001N1+02761+02041101551ADDAA199000091GF106991041041004501031001KA1240N+02171MA1999999100521MD1999999-0011REMSYN076AAXX  22124 82392 32499 61401 10276 20204 30052 40155 84430 333 20217 59001;EQDQ01  00002PRCP99
0167823920999992001062218004-03690-040340FM-12+008399999V0200901N001010450019N0500001N1+03281+01821101121ADDAA199000091GF106991041051004501031001MA1999999100101MD1999999+0031REMSYN070AAXX  22184 82392 32499 60902 10328 20182 30010 40112 84530 333 58003;EQDQ01  00002PRCP99
0208823920999992001062300004-03690-040340FM-12+008399999V0200501N001512200019N0040001N1+02501+02231101421ADDAA199000091GA1001+999999999GF100991001001999999001001KA1240M+03341MA1999999100401MD1999999-0021REMSYN082AAXX  23004 82392 32996 00503 10250 20223 30040 40142 333 10334 29062 55071 59002;EQDQ01  00002PRCP99
0201823920999992001062312004-03690-040340FM-12+008399999V0209999C000010042019N0500001N1+02521+02231101651ADDAA124002091AY161061AY261061GF107991051041004501031001KA1240N+02231MA1999999100611MD1999999+0091MW1021REMSYN088AAXX  23124 82392 21499 70000 10252 20223 30061 40165 70266 85430 333 20223 58009 60024;
0167823920999992001062318004-03690-040340FM-12+008399999V0200501N000510450019N0500001N1+03181+01841101161ADDAA199000091GF106991031041004501031001MA1999999100141MD1999999+0041REMSYN070AAXX  23184 82392 32499 60501 10318 20184 30014 40116 83430 333 58004;EQDQ01  00002PRCP99
0208823920999992001062400004-03690-040340FM-12+008399999V0203601N000512200019N0040001N1+02441+02071101411ADDAA199000091GA1001+999999999GF100991001001999999001001KA1240M+03241MA1999999100381MD1999999-0021REMSYN082AAXX  24004 82392 32996 03601 10244 20207 30038 40141 333 10324 29072 55056 59002;EQDQ01  00002PRCP99
0186823920999992001062412004-03690-040340FM-12+008399999V0200901N000512200019N0500001N1+02681+01991101571ADDAA199000091GF102991011011004501001011KA1240N+02101MA1999999100541MD1999999-0041REMSYN076AAXX  24124 82392 32499 20901 10268 20199 30054 40157 81101 333 20210 59004;EQDQ01  00002PRCP99
0167823920999992001062418004-03690-040340FM-12+008399999V0200501N001012200019N0020001N1+03401+01501101161ADDAA199000091GF103991031021004501001001MA1999999100141MD1999999+0001REMSYN070AAXX  24184 82392 32495 30502 10340 20150 30014 40116 83200 333 58000;EQDQ01  00002PRCP99
0208823920999992001062500004-03690-040340FM-12+008399999V0200501N001512200019N0020001N1+02521+01981101461ADDAA199000091GA1001+999999999GF100991001001999999001001KA1240M+03421MA1999999100441MD1999999+0061REMSYN082AAXX  25004 82392 32595 00503 10252 20198 30044 40146 333 10342 29060 55083 58006;EQDQ01  00002PRCP99
0186823920999992001062512004-03690-040340FM-12+008399999V0201401N001012200019N0500001N1+02661+02041101651ADDAA199000091GF102991021011004501001001KA1240N+02011MA1999999100621MD1999999+0081REMSYN076AAXX  25124 82392 32499 21402 10266 20204 30062 40165 82100 333 20201 58008;EQDQ01  00002PRCP99
0167823920999992001062518004-03690-040340FM-12+008399999V0201401N001512200019N0500001N1+03421+01471101201ADDAA199000091GF102991021021004501001001MA1999999100181MD1999999+0041REMSYN070AAXX  25184 82392 32499 21403 10342 20147 30018 40120 82200 333 58004;EQDQ01  00002PRCP99
0186823920999992001062612004-03690-040340FM-12+008399999V0200901N000512200019N0500001N1+02761+02041101641ADDAA199000091GF102991021021004501001001KA1240N+02021MA1999999100611MD1999999-0011REMSYN076AAXX  26124 82392 32499 20901 10276 20204 30061 40164 82200 333 20202 59001;EQDQ01  00002PRCP99
0167823920999992001062618004-03690-040340FM-12+008399999V0201801N000510450019N0500001N1+03291+01871101281ADDAA199000091GF105991031021004501031001MA1999999100261MD1999999+0081REMSYN070AAXX  26184 82392 32499 51801 10329 20187 30026 40128 83230 333 58008;EQDQ01  00002PRCP99
0198823920999992001062700004-03690-040340FM-12+008399999V0203601N001012200019N0040001N1+02621+02211101491ADDAA199000091GF102991021011004501001001KA1240M+03401MA1999999100461MD1999999+0041REMSYN088AAXX  27004 82392 32496 23602 10262 20221 30046 40149 82100 333 10340 29067 55077 58004;EQDQ01  00002PRCP99
0186823920999992001062712004-03690-040340FM-12+008399999V0201401N001512200019N0500001N1+02781+01981101681ADDAA199000091GF102991021001004501031001KA1240N+02181MA1999999100651MD1999999+0041REMSYN076AAXX  27124 82392 32499 21403 10278 20198 30065 40168 82030 333 20218 58004;EQDQ01  00002PRCP99
0167823920999992001062718004-03690-040340FM-12+008399999V0200901N000510450019N0500001N1+03201+01751101261ADDAA199000091GF107991041041004501031001MA1999999100241MD1999999-0021REMSYN070AAXX  27184 82392 32499 70901 10320 20175 30024 40126 84430 333 59002;EQDQ01  00002PRCP99
0198823920999992001062800004-03690-040340FM-12+008399999V0203601N001012200019N0040001N1+02521+02271101511ADDAA199000091GF102991021001008001031001KA1240M+03341MA1999999100481MD1999999+0031REMSYN088AAXX  28004 82392 32596 23602 10252 20227 30048 40151 82030 333 10334 29069 55078 58003;EQDQ01  00002PRCP99
0186823920999992001062812004-03690-040340FM-12+008399999V0200901N001510450019N0500001N1+02741+02171101551ADDAA199000091GF107991041041004501031001KA1240N+02241MA1999999100521MD1999999-0131REMSYN076AAXX  28124 82392 32499 70903 10274 20217 30052 40155 84430 333 20224 59013;EQDQ01  00002PRCP99
0182823920999992001062818004-03690-040340FM-12+008399999V0200501N000510450019N0500001N1+03171+01941101121ADDAA106001091AY161061AY261061GF106991041041004501031001MA1999999100101MD1999999-0141MW1021REMSYN082AAXX  28184 82392 21499 60501 10317 20194 30010 40112 70266 84430 333 59014 60011;
0208823920999992001062900004-03690-040340FM-12+008399999V0203601N001012200019N0040001N1+02401+02111101481ADDAA199000091GA1001+999999999GF100991001001999999001001KA1240M+03301MA1999999100451MD1999999-0031REMSYN082AAXX  29004 82392 32596 03602 10240 20211 30045 40148 333 10330 29072 55067 59003;EQDQ01  00002PRCP99
0173823920999992001062912004-03690-040340FM-12+008399999V0201401N000510042019N0500001N1+02601+02031101581ADDAA124000891GF107991051051004501031001KA1240N+02101MA1999999100541MD1999999+0021REMSYN082AAXX  29124 82392 22499 71401 10260 20203 30054 40158 85530 333 20210 58002 69984;
0167823920999992001062918004-03690-040340FM-12+008399999V0200901N000510450019N0500001N1+03321+01651101091ADDAA199000091GF106991021021004501031011MA1999999100071MD1999999-0031REMSYN070AAXX  29184 82392 32499 60901 10332 20165 30007 40109 82231 333 59003;EQDQ01  00002PRCP99
0208823920999992001063000004-03690-040340FM-12+008399999V0203601N001512200019N0040001N1+02461+02011101581ADDAA199000091GA1001+999999999GF100991001001999999001001KA1240M+03421MA1999999100351MD1999999-0101REMSYN082AAXX  30004 82392 32996 03603 10246 20201 30035 40158 333 10342 29065 55073 59010;EQDQ01  00002PRCP99
0186823920999992001063012004-03690-040340FM-12+008399999V0200901N000512200019N0500001N1+02621+01961101471ADDAA199000091GF102991021011004501001001KA1240N+01901MA1999999100441MD1999999-0101REMSYN076AAXX  30124 82392 32499 20901 10262 20196 30044 40147 82100 333 20190 59010;EQDQ01  00002PRCP99
0167823920999992001063018004-03690-040340FM-12+008399999V0201401N001512200019N0500001N1+03301+01591100981ADDAA199000091GF103991031021004501001001MA1999999099961MD1999999-0111REMSYN070AAXX  30184 82392 32499 31403 10330 20159 39996 40098 83200 333 59011;EQDQ01  00002PRCP99
0208823920999992001070100004-03690-040340FM-12+008399999V0203601N000512200019N0040001N1+02521+02171101261ADDAA199000091GA1001+999999999GF100991001001999999001001KA1240M+03361MA1999999100241MD1999999-0111REMSYN082AAXX  01004 82392 32996 03601 10252 20217 30024 40126 333 10336 29066 55088 59011;EQDQ01  00002PRCP99
0186823920999992001070112004-03690-040340FM-12+008399999V0201801N001010450019N0500001N1+02661+02111101401ADDAA199000091GF107991041041004501031001KA1240N+02041MA1999999100381MD1999999-0061REMSYN076AAXX  01124 82392 32499 71802 10266 20211 30038 40140 84430 333 20204 59006;EQDQ01  00002PRCP99
0167823920999992001070118004-03690-040340FM-12+008399999V0200501N000510450019N0500001N1+03181+01731100941ADDAA199000091GF106991031021004501031001MA1999999099921MD1999999-0041REMSYN070AAXX  01184 82392 32499 60501 10318 20173 39992 40094 83230 333 59004;EQDQ01  00002PRCP99
0214823920999992001070200004-03690-040340FM-12+008399999V0203601N000512200019N0040001N1+02521+02021101301ADDAA199000091GF102991999021008001001001KA1240M+03301MA1999999100221MD1999999+0041REMSYN088AAXX  02004 82392 32596 23601 10252 20202 30022 40130 81200 333 10330 29066 55037 58004;EQDQ01+000012SCOTLCQ02  00002PRCP99
0186823920999992001070212004-03690-040340FM-12+008399999V0200901N001010450019N0500001N1+02741+02051101551ADDAA199000091GF106991041021004501031001KA1240N+02001MA1999999100521MD1999999+0141REMSYN076AAXX  02124 82392 32499 60902 10274 20205 30052 40155 84230 333 20200 58014;EQDQ01  00002PRCP99
0167823920999992001070218004-03690-040340FM-12+008399999V0201401N001510042019N0500001N1+03221+01691101081ADDAA199000091GF106991051041004501031001MA1999999100061MD1999999+0141REMSYN070AAXX  02184 82392 32499 61403 10322 20169 30006 40108 85430 333 58014;EQDQ01  00002PRCP99
0198823920999992001070300004-03690-040340FM-12+008399999V0203601N001012200019N0040001N1+02541+02151101291ADDAA199000091GF101991011001008001011001KA1240M+03331MA1999999100271MD1999999-0011REMSYN088AAXX  03004 82392 32596 13602 10254 20215 30027 40129 81010 333 10333 29066 55073 59001;EQDQ01  00002PRCP99
0186823920999992001070312004-03690-040340FM-12+008399999V0201401N001512200019N0500001N1+02801+01841101551ADDAA199000091GF102991021011004501001001KA1240N+02211MA1999999100521MD1999999+0001REMSYN076AAXX  03124 82392 32499 21403 10280 20184 30052 40155 82100 333 20221 58000;EQDQ01  00002PRCP99
0167823920999992001070318004-03690-040340FM-12+008399999V0200501N003612200019N0500001N1+03471+01251101081ADDAA199000091GF102991021011004501001001MA1999999100071MD1999999+0011REMSYN070AAXX  03184 82392 32499 20507 10347 20125 30007 40108 82100 333 58001;EQDQ01  00002PRCP99
0198823920999992001070400004-03690-040340FM-12+008399999V0203601N000512200019N0040001N1+02521+02001101451ADDAA199000091GF101991011001008001011001KA1240M+03531MA1999999100431MD1999999+0161REMSYN088AAXX  04004 82392 32596 13601 10252 20200 30043 40145 81010 333 10353 29057 55106 58016;EQDQ01  00002PRCP99
0186823920999992001070412004-03690-040340FM-12+008399999V0201401N001010450019N0500001N1+02721+02001101611ADDAA199000091GF105991041021004501031001KA1240N+02311MA1999999100581MD1999999+0061REMSYN076AAXX  04124 82392 32499 51402 10272 20200 30058 40161 84230 333 20231 58006;EQDQ01  00002PRCP99
0182823920999992001070418004-03690-040340FM-12+008399999V0200501N002610042019N0500001N1+03141+01841101241ADDAA106000391AY151061AY221061GF106991051041004501031001MA1999999100221MD1999999+0151MW1021REMSYN082AAXX  04184 82392 21499 60505 10314 20184 30022 40124 70252 85430 333 58015 69931;
0208823920999992001070500004-03690-040340FM-12+008399999V0203601N000512200019N0040001N1+02421+02011101461ADDAA199000091GA1001+999999999GF100991001001999999001001KA1240M+03161MA1999999100441MD1999999+0011REMSYN082AAXX  05004 82392 32996 03601 10242 20201 30044 40146 333 10316 29067 55055 58001;EQDQ01  00002PRCP99
0173823920999992001070512004-03690-040340FM-12+008399999V0200501N001012200019N0500001N1+02031+01971101541ADDAA124000391GF103991021021004501001011KA1240N+01961MA1999999100511MD1999999-0071REMSYN082AAXX  05124 82392 22499 30502 10203 20197 30051 40154 82201 333 20196 59007 69934;
0167823920999992001070518004-03690-040340FM-12+008399999V0200901N000512200019N0500001N1+03491+01481101071ADDAA199000091GF103991031021004501001001MA1999999100051MD1999999-0171REMSYN070AAXX  05184 82392 32499 30901 10349 20148 30005 40107 83200 333 59017;EQDQ01  00002PRCP99
0208823920999992001070600004-03690-040340FM-12+008399999V0200501N000512200019N0040001N1+02501+02001101341ADDAA199000091GA1001+999999999GF100991001001999999001001KA1240M+03491MA1999999100321MD1999999-0121REMSYN082AAXX  06004 82392 32996 00501 10250 20200 30032 40134 333 10349 29059 55104 59012;EQDQ01  00002PRCP99
0186823920999992001070612004-03690-040340FM-12+008399999V0200901N000510450019N0500001N1+02761+01971101391ADDAA199000091GF106991041021004501031001KA1240N+02011MA1999999100371MD1999999-0141REMSYN076AAXX  06124 82392 32499 60901 10276 20197 30037 40139 84230 333 20201 59014;EQDQ01  00002PRCP99
0167823920999992001070618004-03690-040340FM-12+008399999V0201401N001510450019N0500001N1+03341+01631100941ADDAA199000091GF106991021021004501031001MA1999999099921MD1999999-0131REMSYN070AAXX  06184 82392 32499 61403 10334 20163 39992 40094 82230 333 59013;EQDQ01  00002PRCP99
0198823920999992001070700004-03690-040340FM-12+008399999V0200501N002110450019N0040001N1+02671+01921101321ADDAA199000091GF108991041041004501021999KA1240M+03381MA1999999100301MD1999999-0021REMSYN088AAXX  07004 82392 32496 80504 10267 20192 30030 40132 8442/ 333 10338 29056 55086 59002;EQDQ01  00002PRCP99
0186823920999992001070712004-03690-040340FM-12+008399999V0200901N003612200019N0500001N1+02841+01701101491ADDAA199000091GF102991021011004501001001KA1240N+02331MA1999999100461MD1999999+0091REMSYN076AAXX  07124 82392 32499 20907 10284 20170 30046 40149 82100 333 20233 58009;EQDQ01  00002PRCP99
0167823920999992001070718004-03690-040340FM-12+008399999V0200901N001512200019N0500001N1+03331+01451101111ADDAA199000091GF102991021011004501001001MA1999999100091MD1999999+0171REMSYN070AAXX  07184 82392 32499 20903 10333 20145 30009 40111 82100 333 58017;EQDQ01  00002PRCP99
0198823920999992001070800004-03690-040340FM-12+008399999V0203601N000512200019N0040001N1+02331+01691101361ADDAA199000091GF101991011001008001011001KA1240M+03341MA1999999100341MD1999999+0041REMSYN088AAXX  08004 82392 32596 13601 10233 20169 30034 40136 81010 333 10334 29054 55108 58004;EQDQ01  00002PRCP99
0186823920999992001070812004-03690-040340FM-12+008399999V0200901N000510450019N0500001N1+02711+01931101561ADDAA199000091GF106991031021004501011001KA1240N+01941MA1999999100521MD1999999+0061REMSYN076AAXX  08124 82392 32499 60901 10271 20193 30052 40156 83210 333 20194 58006;EQDQ01  00002PRCP99
0167823920999992001070818004-03690-040340FM-12+008399999V0200901N002610450019N0500001N1+03411+01511101101ADDAA199000091GF106991031021004501011001MA1999999100081MD1999999-0011REMSYN070AAXX  08184 82392 32499 60905 10341 20151 30008 40110 83210 333 59001;EQDQ01  00002PRCP99
0198823920999992001070900004-03690-040340FM-12+008399999V0203601N000510450019N0040001N1+02601+01921101331ADDAA199000091GF106991021051004501011001KA1240M+03441MA1999999100311MD1999999-0031REMSYN088AAXX  09004 82392 32496 63601 10260 20192 30031 40133 82510 333 10344 29057 55074 59003;EQDQ01  00002PRCP99
0186823920999992001070912004-03690-040340FM-12+008399999V0201401N001510450019N0500001N1+02761+01911101441ADDAA199000091GF106991031041004501011001KA1240N+02141MA1999999100421MD1999999-0101REMSYN076AAXX  09124 82392 32499 61403 10276 20191 30042 40144 83410 333 20214 59010;EQDQ01  00002PRCP99
0167823920999992001070918004-03690-040340FM-12+008399999V0201401N002610450019N0500001N1+03271+01241101111ADDAA199000091GF106991021021004501011021MA1999999100091MD1999999+0011REMSYN070AAXX  09184 82392 32499 61405 10327 20124 30009 40111 82212 333 58001;EQDQ01  00002PRCP99
0198823920999992001071000004-03690-040340FM-12+008399999V0201401N000510450019N0040001N1+02721+01621101311ADDAA199000091GF107991031021004501011021KA1240M+03341MA1999999100291MD1999999-0021REMSYN088AAXX  10004 82392 32496 71401 10272 20162 30029 40131 83212 333 10334 29051 55081 59002;EQDQ01  00002PRCP99
0186823920999992001071012004-03690-040340FM-12+008399999V0200501N002610450019N0500001N1+02801+01981101321ADDAA199000091GF106991021021004501031001KA1240N+02211MA1999999100301MD1999999-0141REMSYN076AAXX  10124 82392 32499 60505 10280 20198 30030 40132 82230 333 20221 59014;EQDQ01  00002PRCP99
0167823920999992001071018004-03690-040340FM-12+008399999V0200901N000510450019N0500001N1+03281+01701100921ADDAA199000091GF106991031021004501031001MA1999999099901MD1999999-0081REMSYN070AAXX  10184 82392 32499 60901 10328 20170 39990 40092 83230 333 59008;EQDQ01  00002PRCP99
0198823920999992001071100004-03690-040340FM-12+008399999V0203601N000512200019N0040001N1+02661+01921101221ADDAA199000091GF101991011001008001031001KA1240M+03361MA1999999100201MD1999999-0091REMSYN088AAXX  11004 82392 32596 13601 10266 20192 30020 40122 81030 333 10336 29057 55072 59009;EQDQ01  00002PRCP99
0186823920999992001071112004-03690-040340FM-12+008399999V0201801N000512200019N0500001N1+02781+01961101411ADDAA199000091GF103991021011004501001011KA1240N+01941MA1999999100391MD1999999+0091REMSYN076AAXX  11124 82392 32499 31801 10278 20196 30039 40141 82101 333 20194 58009;EQDQ01  00002PRCP99
0167823920999992001071118004-03690-040340FM-12+008399999V0200901N000510450019N0500001N1+03431+01671101031ADDAA199000091GF106991041041004501031001MA1999999100021MD1999999+0121REMSYN070AAXX  11184 82392 32499 60901 10343 20167 30002 40103 84430 333 58012;EQDQ01  00002PRCP99
0198823920999992001071200004-03690-040340FM-12+008399999V0203601N000510450019N0040001N1+02741+02021101331ADDAA199000091GF106991031041004501031001KA1240M+03501MA1999999100311MD1999999+0111REMSYN088AAXX  12004 82392 32496 63601 10274 20202 30031 40133 83430 333 10350 29057 55086 58011;EQDQ01  00002PRCP99
0186823920999992001071212004-03690-040340FM-12+008399999V0200901N000510450019N0500001N1+02841+02091101581ADDAA199000091GF106991031021004501031001KA1240N+02141MA1999999100551MD1999999+0161REMSYN076AAXX  12124 82392 32499 60901 10284 20209 30055 40158 83230 333 20214 58016;EQDQ01  00002PRCP99
0167823920999992001071218004-03690-040340FM-12+008399999V0200901N000510450019N0500001N1+03521+01651101091ADDAA199000091GF105991031021004501031001MA1999999100081MD1999999+0061REMSYN070AAXX  12184 82392 32499 50901 10352 20165 30008 40109 83230 333 58006;EQDQ01  00002PRCP99
0208823920999992001071300004-03690-040340FM-12+008399999V0203601N002612200019N0040001N1+02621+02071101361ADDAA199000091GA1001+999999999GF100991001001999999001001KA1240M+03541MA1999999100341MD1999999+0031REMSYN082AAXX  13004 82392 32996 03605 10262 20207 30034 40136 333 10354 29060 55085 58003;EQDQ01  00002PRCP99
0186823920999992001071312004-03690-040340FM-12+008399999V0200901N001010450019N0500001N1+02731+01971101461ADDAA199000091GF106991041041004501031001KA1240N+02101MA1999999100441MD1999999-0151REMSYN076AAXX  13124 82392 32499 60902 10273 20197 30044 40146 84430 333 20210 59015;EQDQ01  00002PRCP99
0167823920999992001071318004-03690-040340FM-12+008399999V0201401N001012200019N0500001N1+03461+01941101001ADDAA199000091GF104991041041004501001001MA1999999099991MD1999999-0091REMSYN070AAXX  13184 82392 32499 41402 10346 20194 39999 40100 84400 333 59009;EQDQ01  00002PRCP99
0201823920999992001071612004-03690-040340FM-12+008399999V0201801N001010450019N0500001N1+02651+02091101521ADDAA124000191AY161061AY261061GF107991041051004501031001KA1240N+02181MA1999999100491MD1999999+0121MW1021REMSYN088AAXX  16124 82392 21499 71802 10265 20209 30049 40152 70266 84530 333 20218 58012 69924;
0167823920999992001071618004-03690-040340FM-12+008399999V0201401N001510042019N0500001N1+03361+01601101061ADDAA199000091GF105991051021004501001001MA1999999100041MD1999999+0171REMSYN070AAXX  16184 82392 32499 51403 10336 20160 30004 40106 85200 333 58017;EQDQ01  00002PRCP99
0208823920999992001071700004-03690-040340FM-12+008399999V0203601N001012200019N0040001N1+02601+01961101351ADDAA199000091GA1001+999999999GF100991001001999999001001KA1240M+03401MA1999999100331MD1999999+0101REMSYN082AAXX  17004 82392 32996 03602 10260 20196 30033 40135 333 10340 29061 55069 58010;EQDQ01  00002PRCP99
0186823920999992001071712004-03690-040340FM-12+008399999V0200901N002610042019N0500001N1+02841+01961101541ADDAA199000091GF105991051021004501001001KA1240N+02081MA1999999100511MD1999999+0021REMSYN076AAXX  17124 82392 32499 50905 10284 20196 30051 40154 85200 333 20208 58002;EQDQ01  00002PRCP99
0167823920999992001071718004-03690-040340FM-12+008399999V0200901N000510450019N0500001N1+03341+01491101091ADDAA199000091GF106991041051004501031001MA1999999100071MD1999999+0031REMSYN070AAXX  17184 82392 32499 60901 10334 20149 30007 40109 84530 333 58003;EQDQ01  00002PRCP99
0198823920999992001071800004-03690-040340FM-12+008399999V0203601N002612200019N0040001N1+02701+01881101461ADDAA199000091GF102991011051004501031001KA1240M+03441MA1999999100441MD1999999+0111REMSYN088AAXX  18004 82392 32496 23605 10270 20188 30044 40146 81530 333 10344 29054 55087 58011;EQDQ01  00002PRCP99
0186823920999992001071812004-03690-040340FM-12+008399999V0200901N000510450019N0500001N1+02781+02111101551ADDAA199000091GF106991031021004501031001KA1240N+02081MA1999999100521MD1999999+0011REMSYN076AAXX  18124 82392 32499 60901 10278 20211 30052 40155 83230 333 20208 58001;EQDQ01  00002PRCP99
0208823920999992001071900004-03690-040340FM-12+008399999V0203601N003612200019N0040001N1+02561+01951101311ADDAA199000091GA1001+999999999GF100991001001999999001001KA1240M+03421MA1999999100321MD1999999-0121REMSYN082AAXX  19004 82392 32996 03607 10256 20195 30032 40131 333 10342 29061 55077 59012;EQDQ01  00002PRCP99
0186823920999992001071912004-03690-040340FM-12+008399999V0201401N000512200019N0500001N1+02751+01941101561ADDAA199000091GF104991041021004501001001KA1240N+02121MA1999999100531MD1999999+0011REMSYN076AAXX  19124 82392 32499 41401 10275 20194 30053 40156 84200 333 20212 58001;EQDQ01  00002PRCP99
0167823920999992001071918004-03690-040340FM-12+008399999V0201401N000510042019N0500001N1+03421+01511100941ADDAA199000091GF105991051021004501001001MA1999999099921MD1999999-0131REMSYN070AAXX  19184 82392 32499 51401 10342 20151 39992 40094 85200 333 59013;EQDQ01  00002PRCP99
0208823920999992001072000004-03690-040340FM-12+008399999V0203601N000512200019N0040001N1+02601+01961101271ADDAA199000091GA1001+999999999GF100991001001999999001001KA1240M+03561MA1999999100251MD1999999-0071REMSYN082AAXX  20004 82392 32996 03601 10260 20196 30025 40127 333 10356 29057 55096 59007;EQDQ01  00002PRCP99
0186823920999992001072012004-03690-040340FM-12+008399999V0201401N000512200019N0500001N1+02881+01891101371ADDAA199000091GF104991021021004501031001KA1240N+02361MA1999999100351MD1999999-0181REMSYN076AAXX  20124 82392 32499 41401 10288 20189 30035 40137 82230 333 20236 59018;EQDQ01  00002PRCP99
0167823920999992001072018004-03690-040340FM-12+008399999V0200901N001510042019N0500001N1+03171+01841100941ADDAA199000091GF107991051051004501031001MA1999999099931MD1999999+0011REMSYN070AAXX  20184 82392 32499 70903 10317 20184 39993 40094 85530 333 58001;EQDQ01  00002PRCP99
0198823920999992001072100004-03690-040340FM-12+008399999V0200501N000510450019N0040001N1+02581+02081101261ADDAA199000091GF106991021051004501031001KA1240M+03361MA1999999100241MD1999999-0011REMSYN088AAXX  21004 82392 32496 60501 10258 20208 30024 40126 82530 333 10336 29062 55056 59001;EQDQ01  00002PRCP99
0186823920999992001072112004-03690-040340FM-12+008399999V0201401N000512200019N0500001N1+02741+02021101401ADDAA199000091GF104991021041004501031001KA1240N+02201MA1999999100381MD1999999+0031REMSYN076AAXX  21124 82392 32499 41401 10274 20202 30038 40140 82430 333 20220 58003;EQDQ01  00002PRCP99
0167823920999992001072118004-03690-040340FM-12+008399999V0201401N000510042019N0500001N1+03271+01701101041ADDAA199000091GF106991051051004501031001MA1999999100021MD1999999+0091REMSYN070AAXX  21184 82392 32499 61401 10327 20170 30002 40104 85530 333 58009;EQDQ01  00002PRCP99
0223823920999992001072200004-03690-040340FM-12+008399999V0203601N001512200019N0040001N1+02441+02131101301ADDAA106000191AY151061AY251061GA1001+999999999GF100991001001999999001001KA1240M+03391MA1999999100281MD1999999+0041MW1021REMSYN094AAXX  22004 82392 21996 03603 10244 20213 30028 40130 70255 333 10339 29068 55054 58004 69921;
0173823920999992001072212004-03690-040340FM-12+008399999V0200501N000512200019N0500001N1+02711+02101101411ADDAA124000191GF104991031021004501031001KA1240N+02011MA1999999100431MD1999999+0051REMSYN082AAXX  22124 82392 22499 40501 10271 20210 30043 40141 83230 333 20201 58005 69924;
0167823920999992001072218004-03690-040340FM-12+008399999V0200901N000512200019N0500001N1+03471+01411100991ADDAA199000091GF104991031021004501001011MA1999999099971MD1999999-0051REMSYN070AAXX  22184 82392 32499 40901 10347 20141 39997 40099 83201 333 59005;EQDQ01  00002PRCP99
0208823920999992001072300004-03690-040340FM-12+008399999V0203601N001512200019N0040001N1+02741+01861101281ADDAA199000091GA1001+999999999GF100991001001999999001001KA1240M+03491MA1999999100261MD1999999-0021REMSYN082AAXX  23004 82392 32996 03603 10274 20186 30026 40128 333 10349 29058 55089 59002;EQDQ01  00002PRCP99
0186823920999992001072312004-03690-040340FM-12+008399999V0200501N000512200019N0500001N1+02741+02001101431ADDAA199000091GF102991021011004501001001KA1240N+01861MA1999999100411MD1999999-0031REMSYN076AAXX  23124 82392 32499 20501 10274 20200 30041 40143 82100 333 20186 59003;EQDQ01  00002PRCP99
0167823920999992001072318004-03690-040340FM-12+008399999V0201401N000510042019N0500001N1+03501+01581100961ADDAA199000091GF106991051021004501001011MA1999999099941MD1999999-0031REMSYN070AAXX  23184 82392 32499 61401 10350 20158 39994 40096 85201 333 59003;EQDQ01  00002PRCP99
0208823920999992001072400004-03690-040340FM-12+008399999V0203601N002612200019N0040001N1+02561+02081101251ADDAA199000091GA1001+999999999GF100991001001999999001001KA1240M+03541MA1999999100231MD1999999-0031REMSYN082AAXX  24004 82392 32996 03605 10256 20208 30023 40125 333 10354 29062 55092 59003;EQDQ01  00002PRCP99
0186823920999992001072412004-03690-040340FM-12+008399999V0202701N000510450019N0500001N1+02701+02131101491ADDAA199000091GF106991041041004501031001KA1240N+02141MA1999999100461MD1999999+0051REMSYN076AAXX  24124 82392 32499 62701 10270 20213 30046 40149 84430 333 20214 58005;EQDQ01  00002PRCP99
0167823920999992001072418004-03690-040340FM-12+008399999V0201401N000510042019N0500001N1+03491+01631101021ADDAA199000091GF105991051021004501001001MA1999999100011MD1999999+0071REMSYN070AAXX  24184 82392 32499 51401 10349 20163 30001 40102 85200 333 58007;EQDQ01  00002PRCP99
0198823920999992001072500004-03690-040340FM-12+008399999V0203601N001012200019N0040001N1+02631+01881101271ADDAA199000091GF101991011001008001031001KA1240M+03611MA1999999100251MD1999999+0021REMSYN088AAXX  25004 82392 32596 13602 10263 20188 30025 40127 81030 333 10361 29058 55087 58002;EQDQ01  00002PRCP99
0186823920999992001072512004-03690-040340FM-12+008399999V0200901N001010450019N0500001N1+02731+01951101411ADDAA199000091GF106991041021004501031001KA1240N+02011MA1999999100391MD1999999-0071REMSYN076AAXX  25124 82392 32499 60902 10273 20195 30039 40141 84230 333 20201 59007;EQDQ01  00002PRCP99
0167823920999992001072518004-03690-040340FM-12+008399999V0201401N000510042019N0500001N1+03501+01581100961ADDAA199000091GF106991051021004501001011MA1999999099941MD1999999-0031REMSYN070AAXX  25184 82392 32499 61401 10350 20158 39994 40096 85201 333 59003;EQDQ01  00002PRCP99
0198823920999992001072600004-03690-040340FM-12+008399999V0200501N000512200019N0040001N1+02561+01901101211ADDAA199000091GF101991011001008001031001KA1240M+03481MA1999999100191MD1999999-0061REMSYN088AAXX  26004 82392 32596 10501 10256 20190 30019 40121 81030 333 10348 29057 55092 59006;EQDQ01  00002PRCP99
0186823920999992001072612004-03690-040340FM-12+008399999V0209999C000012200019N0500001N1+02741+02001101541ADDAA199000091GF105991031021004501001011KA1240N+02101MA1999999100511MD1999999+0121REMSYN076AAXX  26124 82392 32499 50000 10274 20200 30051 40154 83201 333 20210 58012;EQDQ01  00002PRCP99
0167823920999992001072618004-03690-040340FM-12+008399999V0202301N000510450019N0500001N1+03261+01761101071ADDAA199000091GF106991031051004501031001MA1999999100051MD1999999+0061REMSYN070AAXX  26184 82392 32499 62301 10326 20176 30005 40107 83530 333 58006;EQDQ01  00002PRCP99
0198823920999992001072700004-03690-040340FM-12+008399999V0203601N000512200019N0040001N1+02661+02141101281ADDAA199000091GF101991011001008001031001KA1240M+03441MA1999999100261MD1999999+0071REMSYN088AAXX  27004 82392 32596 13601 10266 20214 30026 40128 81030 333 10344 29061 55078 58007;EQDQ01  00002PRCP99
0186823920999992001072712004-03690-040340FM-12+008399999V0201401N001512200019N0500001N1+02831+01671101521ADDAA199000091GF101991011011004501001001KA1240N+01961MA1999999100491MD1999999-0021REMSYN076AAXX  27124 82392 32499 11403 10283 20167 30049 40152 81100 333 20196 59002;EQDQ01  00002PRCP99
0146823920999992001072718004-03690-040340FM-12+008399999V0201401N001512200019N0500001N1+03571+01391101051ADDAA199000091GF102991011011004501001021MD1999999-0021REMSYN064AAXX  27184 82392 32499 21403 10357 20139 40105 81102 333 59002;EQDQ01  00002PRCP99
0198823920999992001072800004-03690-040340FM-12+008399999V0203601N002612200019N0040001N1+02581+01941101421ADDAA199000091GF102991021001008001031001KA1240M+03601MA1999999100401MD1999999+0141REMSYN088AAXX  28004 82392 32596 23605 10258 20194 30040 40142 82030 333 10360 29053 55104 58014;EQDQ01  00002PRCP99
0186823920999992001072812004-03690-040340FM-12+008399999V0200901N000512200019N0500001N1+02811+02021101651ADDAA199000091GF104991041021004501001001KA1240N+02141MA1999999100621MD1999999+0131REMSYN076AAXX  28124 82392 32499 40901 10281 20202 30062 40165 84200 333 20214 58013;EQDQ01  00002PRCP99
0167823920999992001072818004-03690-040340FM-12+008399999V0202301N000512200019N0500001N1+03311+01381101131ADDAA199000091GF104991041021004501001001MA1999999100111MD1999999-0021REMSYN070AAXX  28184 82392 32499 42301 10331 20138 30011 40113 84200 333 59002;EQDQ01  00002PRCP99
0198823920999992001072900004-03690-040340FM-12+008399999V0203601N001512200019N0040001N1+02581+02081101441ADDAA199000091GF101991011001008001031001KA1240M+03531MA1999999100421MD1999999+0021REMSYN088AAXX  29004 82392 32596 13603 10258 20208 30042 40144 81030 333 10353 29060 55097 58002;EQDQ01  00002PRCP99
0186823920999992001072912004-03690-040340FM-12+008399999V0201801N001010042019N0500001N1+02801+01981101531ADDAA199000091GF105991051021004501001001KA1240N+01941MA1999999100501MD1999999-0121REMSYN076AAXX  29124 82392 32499 51802 10280 20198 30050 40153 85200 333 20194 59012;EQDQ01  00002PRCP99
0167823920999992001072918004-03690-040340FM-12+008399999V0200501N000510042019N0500001N1+03491+01581101031ADDAA199000091GF106991051021004501011001MA1999999100011MD1999999-0101REMSYN070AAXX  29184 82392 32499 60501 10349 20158 30001 40103 85210 333 59010;EQDQ01  00002PRCP99
0198823920999992001073000004-03690-040340FM-12+008399999V0203601N003119999999N0040001N1+02591+02101101431ADDAA199000091GF106991061001008001031001KA1240M+03631MA1999999100411MD1999999-0011REMSYN088AAXX  30004 82392 32596 63606 10259 20210 30041 40143 86030 333 10363 29060 55082 59001;EQDQ01  00002PRCP99
0186823920999992001073012004-03690-040340FM-12+008399999V0200901N000512200019N0500001N1+02861+02031101541ADDAA199000091GF104991041021004501001001KA1240N+02161MA1999999100511MD1999999+0011REMSYN076AAXX  30124 82392 32499 40901 10286 20203 30051 40154 84200 333 20216 58001;EQDQ01  00002PRCP99
0167823920999992001073018004-03690-040340FM-12+008399999V0200901N001010042019N0500001N1+03521+01601101031ADDAA199000091GF105991051021004501001001MA1999999100011MD1999999+0001REMSYN070AAXX  30184 82392 32499 50902 10352 20160 30001 40103 85200 333 58000;EQDQ01  00002PRCP99
0198823920999992001073100004-03690-040340FM-12+008399999V0200501N003112200019N0040001N1+02621+01981101461ADDAA199000091GF101991011001008001031001KA1240M+03591MA1999999100411MD1999999+0001REMSYN088AAXX  31004 82392 32596 10506 10262 20198 30041 40146 81030 333 10359 29057 55094 58000;EQDQ01  00002PRCP99
0186823920999992001073112004-03690-040340FM-12+008399999V0201801N000512200019N0500001N1+02821+01941101621ADDAA199000091GF104991041021004501001001KA1240N+02101MA1999999100591MD1999999+0081REMSYN076AAXX  31124 82392 32499 41801 10282 20194 30059 40162 84200 333 20210 58008;EQDQ01  00002PRCP99
0167823920999992001073118004-03690-040340FM-12+008399999V0200501N001012200019N0500001N1+02581+01441101081ADDAA199000091GF104991041021004501001001MA1999999100071MD1999999+0071REMSYN070AAXX  31184 82392 32499 40502 10258 20144 30007 40108 84200 333 58007;EQDQ01  00002PRCP99
0198823920999992001080100004-03690-040340FM-12+008399999V0200501N000512200019N0040001N1+02601+02081101541ADDAA199000091GF101991011001008001031001KA1240M+03611MA1999999100511MD1999999+0101REMSYN088AAXX  01004 82392 32596 10501 10260 20208 30051 40154 81030 333 10361 29058 55097 58010;EQDQ01  00002PRCP99
0186823920999992001080112004-03690-040340FM-12+008399999V0201801N002610450019N0500001N1+02781+01821101741ADDAA199000091GF106991041021004501031001KA1240N+02161MA1999999100711MD1999999+0121REMSYN076AAXX  01124 82392 32499 61805 10278 20182 30071 40174 84230 333 20216 58012;EQDQ01  00002PRCP99
0167823920999992001080118004-03690-040340FM-12+008399999V0200901N000512200019N0500001N1+03371+01571101231ADDAA199000091GF103991031021004501001001MA1999999100211MD1999999+0141REMSYN070AAXX  01184 82392 32499 30901 10337 20157 30021 40123 83200 333 58014;EQDQ01  00002PRCP99
0198823920999992001080200004-03690-040340FM-12+008399999V0200501N001019999999N0040001N1+02601+01961101571ADDAA199000091GF105991051001008001031001KA1240M+03481MA1999999100141MD1999999+0031REMSYN088AAXX  02004 82392 32596 50502 10260 20196 30014 40157 85030 333 10348 29057 55078 58003;EQDQ01  00002PRCP99
0186823920999992001080212004-03690-040340FM-12+008399999V0201401N000512200019N0500001N1+02861+01651101671ADDAA199000091GF101991011011004501001001KA1240N+01991MA1999999100641MD1999999-0071REMSYN076AAXX  02124 82392 32499 11401 10286 20165 30064 40167 81100 333 20199 59007;EQDQ01  00002PRCP99
0167823920999992001080218004-03690-040340FM-12+008399999V0200901N000512200019N0500001N1+03471+01191101191ADDAA199000091GF101991011011004501001001MA1999999100171MD1999999-0041REMSYN070AAXX  02184 82392 32499 10901 10347 20119 30017 40119 81100 333 59004;EQDQ01  00002PRCP99
0198823920999992001080300004-03690-040340FM-12+008399999V0209999C000012200019N0040001N1+02641+01691101461ADDAA199000091GF101991011021008001001001KA1240M+03491MA1999999100441MD1999999-0101REMSYN088AAXX  03004 82392 32596 10000 10264 20169 30044 40146 81200 333 10349 29046 55109 59010;EQDQ01  00002PRCP99
0186823920999992001080312004-03690-040340FM-12+008399999V0200901N003112200019N0500001N1+02881+01891101601ADDAA199000091GF104991041021004501001001KA1240N+01961MA1999999100571MD1999999-0071REMSYN076AAXX  03124 82392 32499 40906 10288 20189 30057 40160 84200 333 20196 59007;EQDQ01  00002PRCP99
0167823920999992001080318004-03690-040340FM-12+008399999V0201401N001010042019N0500001N1+03291+01681101161ADDAA199000091GF107991051051004501031001MA1999999100141MD1999999-0031REMSYN070AAXX  03184 82392 32499 71402 10329 20168 30014 40116 85530 333 59003;EQDQ01  00002PRCP99
0198823920999992001080400004-03690-040340FM-12+008399999V0200901N001510450019N0040001N1+02801+01811101451ADDAA199000091GF106991031051004501031001KA1240M+03411MA1999999100431MD1999999-0011REMSYN088AAXX  04004 82392 32496 60903 10280 20181 30043 40145 83530 333 10341 29051 55060 59001;EQDQ01  00002PRCP99
0186823920999992001080412004-03690-040340FM-12+008399999V0200901N003112200019N0500001N1+02801+01151101551ADDAA199000091GF101991011011004501001001KA1240N+01901MA1999999100521MD1999999-0051REMSYN076AAXX  04124 82392 32499 10906 10280 20115 30052 40155 81100 333 20190 59005;EQDQ01  00002PRCP99
0167823920999992001080418004-03690-040340FM-12+008399999V0200901N001012200019N0500001N1+03421+01041101161ADDAA199000091GF101991011011004501001001MA1999999100151MD1999999+0011REMSYN070AAXX  04184 82392 32499 10902 10342 20104 30015 40116 81100 333 58001;EQDQ01  00002PRCP99
0192823920999992001080500004-03690-040340FM-12+008399999V0203601N001512200019N0040001N1+02641+01931101461ADDAA199000091GF102991999999999999999999KA1240M+03481MA1999999100441MD1999999-0011REMSYN082AAXX  05004 82392 32996 23603 10264 20193 30044 40146 333 10348 29048 55105 59001;EQDQ01  00002PRCP99
0186823920999992001080512004-03690-040340FM-12+008399999V0201801N003112200019N0500001N1+02811+01611101631ADDAA199000091GF101991011011004501001001KA1240N+01941MA1999999100601MD1999999+0081REMSYN076AAXX  05124 82392 32499 11806 10281 20161 30060 40163 81100 333 20194 58008;EQDQ01  00002PRCP99
0167823920999992001080518004-03690-040340FM-12+008399999V0200901N002612200019N0500001N1+03561+01371101141ADDAA199000091GF102991021011004501001001MA1999999100121MD1999999-0031REMSYN070AAXX  05184 82392 32499 20905 10356 20137 30012 40114 82100 333 59003;EQDQ01  00002PRCP99
0198823920999992001080600004-03690-040340FM-12+008399999V0203601N000512200019N0040001N1+02601+01631101451ADDAA199000091GF101991011001008001031001KA1240M+03591MA1999999100431MD1999999-0011REMSYN088AAXX  06004 82392 32596 13601 10260 20163 30043 40145 81030 333 10359 29046 55109 59001;EQDQ01  00002PRCP99
0185823920999992001080612004-03690-040340FM-12+008399999V0200901N004012200019N0500001N1+02821+01861101621ADDAA199000091GF102991021011004501001001KA1999N+01991MA1999999100591MD1999999-0011REMSYN075AAXX  06121 82392 32499 20904 10282 20186 30059 40162 82100 33320199 59001;EQDQ01  00002PRCP99
0167823920999992001080618004-03690-040340FM-12+008399999V0200901N001512200019N0500001N1+03521+01501101151ADDAA199000091GF102991021021004501001001MA1999999100131MD1999999+0011REMSYN070AAXX  06184 82392 32499 20903 10352 20150 30013 40115 82200 333 58001;EQDQ01  00002PRCP99
0214823920999992001080700004-03690-040340FM-12+008399999V0203601N002612200019N0040001N1+02661+01871101451ADDAA199000091GF101991999011008001001001KA1240M+03581MA1999999100431MD1999999+0001REMSYN088AAXX  07004 82392 32596 13605 10266 20187 30043 40145 82100 333 10358 29053 55091 58000;EQDQ01+000022SCOTLCQ02  00002PRCP99
0186823920999992001080712004-03690-040340FM-12+008399999V0200901N001012200019N0500001N1+02801+01811101751ADDAA199000091GF101991011011004501001001KA1240N+01981MA1999999100721MD1999999+0131REMSYN076AAXX  07124 82392 32499 10902 10280 20181 30072 40175 81100 333 20198 58013;EQDQ01  00002PRCP99
0167823920999992001080718004-03690-040340FM-12+008399999V0201401N000512200019N0500001N1+03541+00831101161ADDAA199000091GF101991011011004501001001MA1999999100141MD1999999+0011REMSYN070AAXX  07184 82392 32499 11401 10354 20083 30014 40116 81100 333 58001;EQDQ01  00002PRCP99
0214823920999992001080800004-03690-040340FM-12+008399999V0203601N001519999999N0040001N1+02621+01691101511ADDAA199000091GF106991999021008001001001KA1240M+03611MA1999999100481MD1999999+0051REMSYN088AAXX  08004 82392 32596 63603 10262 20169 30048 40151 83200 333 10361 29051 55108 58005;EQDQ01+000032SCOTLCQ02  00002PRCP99
0186823920999992001080812004-03690-040340FM-12+008399999V0202301N000510450019N0500001N1+02601+02031101711ADDAA199000091GF105991041041004501031001KA1240N+02091MA1999999100681MD1999999-0041REMSYN076AAXX  08124 82392 32499 52301 10260 20203 30068 40171 84430 333 20209 59004;EQDQ01  00002PRCP99
0167823920999992001080818004-03690-040340FM-12+008399999V0201401N001012200019N0500001N1+03281+01741101231ADDAA199000091GF103991031021004501001001MA1999999100211MD1999999+0071REMSYN070AAXX  08184 82392 32499 31402 10328 20174 30021 40123 83200 333 58007;EQDQ01  00002PRCP99
0208823920999992001080900004-03690-040340FM-12+008399999V0201401N000512200019N0020001N1+02561+01901101431ADDAA199000091GA1001+999999999GF100991001001999999001001KA1240M+03421MA1999999100411MD1999999-0071REMSYN082AAXX  09004 82392 32995 01401 10256 20190 30041 40143 333 10342 29064 55078 59007;EQDQ01  00002PRCP99
0186823920999992001080912004-03690-040340FM-12+008399999V0201401N002612200019N0500001N1+02801+01531101691ADDAA199000091GF103991031021004501001001KA1240N+02111MA1999999100661MD1999999-0021REMSYN076AAXX  09124 82392 32499 31405 10280 20153 30066 40169 83200 333 20211 59002;EQDQ01  00002PRCP99
0167823920999992001080918004-03690-040340FM-12+008399999V0201401N000512200019N0500001N1+03371+01481101181ADDAA199000091GF103991031021004501001001MA1999999100161MD1999999-0051REMSYN070AAXX  09184 82392 32499 31401 10337 20148 30016 40118 83200 333 59005;EQDQ01  00002PRCP99
0198823920999992001081000004-03690-040340FM-12+008399999V0203601N001012200019N0040001N1+02561+01991101481ADDAA199000091GF101991011001008001031001KA1240M+03481MA1999999100451MD1999999+0041REMSYN088AAXX  10004 82392 32596 13602 10256 20199 30045 40148 81030 333 10348 29055 55107 58004;EQDQ01  00002PRCP99
0186823920999992001081012004-03690-040340FM-12+008399999V0200901N001512200019N0040001N1+02841+01991101631ADDAA199000091GF101991011011004501001001KA1240N+02081MA1999999100601MD1999999-0061REMSYN076AAXX  10124 82392 32496 10903 10284 20199 30060 40163 81100 333 20208 59006;EQDQ01  00002PRCP99
0167823920999992001081018004-03690-040340FM-12+008399999V0200901N000510042019N0500001N1+03341+01631101231ADDAA199000091GF106991061021004501001001MA1999999100211MD1999999+0051REMSYN070AAXX  10184 82392 32499 60901 10334 20163 30021 40123 86200 333 58005;EQDQ01  00002PRCP99
0198823920999992001081100004-03690-040340FM-12+008399999V0203601N001512200019N0040001N1+02641+02091101531ADDAA199000091GF101991011001004501031001KA1240M+03401MA1999999100501MD1999999+0051REMSYN088AAXX  11004 82392 32496 13603 10264 20209 30050 40153 81030 333 10340 29060 55093 58005;EQDQ01  00002PRCP99
0186823920999992001081112004-03690-040340FM-12+008399999V0201401N000512200019N0500001N1+02751+01971101661ADDAA199000091GF104991041021004501001001KA1240N+01941MA1999999100631MD1999999+0031REMSYN076AAXX  11124 82392 32499 41401 10275 20197 30063 40166 84200 333 20194 58003;EQDQ01  00002PRCP99
0167823920999992001081118004-03690-040340FM-12+008399999V0202301N000512200019N0500001N1+03601+01521101081ADDAA199000091GF103991031011004501001001MA1999999100071MD1999999-0141REMSYN070AAXX  11184 82392 32499 32301 10360 20152 30007 40108 83100 333 59014;EQDQ01  00002PRCP99
0208823920999992001081200004-03690-040340FM-12+008399999V0203601N001512200019N0040001N1+02521+01981101461ADDAA199000091GA1001+999999999GF100991001001999999001001KA1240M+03641MA1999999100441MD1999999-0061REMSYN082AAXX  12004 82392 32996 03603 10252 20198 30044 40146 333 10364 29059 55103 59006;EQDQ01  00002PRCP99
0167823920999992001081218004-03690-040340FM-12+008399999V0200501N001512200019N0500001N1+03601+01351101151ADDAA199000091GF102991021011008001001001MA1999999100141MD1999999+0071REMSYN070AAXX  12184 82392 32599 20503 10360 20135 30014 40115 82100 333 58007;EQDQ01  00002PRCP99
0208823920999992001081300004-03690-040340FM-12+008399999V0203601N001512200019N0040001N1+02561+01951101461ADDAA199000091GA1001+999999999GF100991001001999999001001KA1240M+03611MA1999999100441MD1999999+0001REMSYN082AAXX  13004 82392 32996 03603 10256 20195 30044 40146 333 10361 29057 55103 58000;EQDQ01  00002PRCP99
0201823920999992001081312004-03690-040340FM-12+008399999V0202301N001012200019N0500001N1+02781+01821101631ADDAA124002091AY161061AY221061GF103991031021004501001001KA1240N+02241MA1999999100601MD1999999-0121MW1021REMSYN088AAXX  13124 82392 21499 32302 10278 20182 30060 40163 70262 83200 333 20224 59012 60024;
0167823920999992001081318004-03690-040340FM-12+008399999V0201401N001012200019N0500001N1+03481+01361101071ADDAA199000091GF103991031021004501001001MA1999999100061MD1999999-0081REMSYN070AAXX  13184 82392 32499 31402 10348 20136 30006 40107 83200 333 59008;EQDQ01  00002PRCP99
0208823920999992001081400004-03690-040340FM-12+008399999V0203601N001012200019N0040001N1+02561+01931101381ADDAA199000091GA1001+999999999GF100991001001999999001001KA1240M+03491MA1999999100361MD1999999-0081REMSYN082AAXX  14004 82392 32996 03602 10256 20193 30036 40138 333 10349 29055 55100 59008;EQDQ01  00002PRCP99
0186823920999992001081412004-03690-040340FM-12+008399999V0201401N001012200019N0500001N1+02681+01991101611ADDAA199000091GF102991021021004501001001KA1240N+02011MA1999999100581MD1999999-0021REMSYN076AAXX  14124 82392 32499 21402 10268 20199 30058 40161 82200 333 20201 59002;EQDQ01  00002PRCP99
0167823920999992001081418004-03690-040340FM-12+008399999V0201401N000512200019N0500001N1+03491+01481101061ADDAA199000091GF102991021011004501001001MA1999999100041MD1999999-0021REMSYN070AAXX  14184 82392 32499 21401 10349 20148 30004 40106 82100 333 59002;EQDQ01  00002PRCP99
0208823920999992001081500004-03690-040340FM-12+008399999V0200501N002612200019N0040001N1+02621+01621101411ADDAA199000091GA1001+999999999GF100991001001999999001001KA1240M+03571MA1999999100391MD1999999+0031REMSYN082AAXX  15004 82392 32996 00505 10262 20162 30039 40141 333 10357 29054 55104 58003;EQDQ01  00002PRCP99
0186823920999992001081512004-03690-040340FM-12+008399999V0200901N001512200019N0500001N1+02861+01841101591ADDAA199000091GF101991011011004501001001KA1240N+02001MA1999999100561MD1999999-0021REMSYN076AAXX  15124 82392 32499 10903 10286 20184 30056 40159 81100 333 20200 59002;EQDQ01  00002PRCP99
0167823920999992001081518004-03690-040340FM-12+008399999V0200901N001012200019N0500001N1+03561+01531101141ADDAA199000091GF103991031021004501001001MA1999999100121MD1999999+0081REMSYN070AAXX  15184 82392 32499 30902 10356 20153 30012 40114 83200 333 58008;EQDQ01  00002PRCP99
0208823920999992001081600004-03690-040340FM-12+008399999V0203601N000512200019N0040001N1+02621+01911101541ADDAA199000091GA1001+999999999GF100991001001999999001001KA1240M+03611MA1999999100511MD1999999+0121REMSYN082AAXX  16004 82392 32996 03601 10262 20191 30051 40154 333 10361 29054 55106 58012;EQDQ01  00002PRCP99
0186823920999992001081612004-03690-040340FM-12+008399999V0200901N002612200019N0500001N1+02921+01571101761ADDAA199000091GF102991011011004501031001KA1240N+02261MA1999999100731MD1999999+0171REMSYN076AAXX  16124 82392 32499 20905 10292 20157 30073 40176 81130 333 20226 58017;EQDQ01  00002PRCP99
0167823920999992001081618004-03690-040340FM-12+008399999V0200901N000512200019N0500001N1+03391+01501101181ADDAA199000091GF104991041021004501001001MA1999999100161MD1999999+0041REMSYN070AAXX  16184 82392 32499 40901 10339 20150 30016 40118 84200 333 58004;EQDQ01  00002PRCP99
0208823920999992001081700004-03690-040340FM-12+008399999V0203601N001512200019N0040001N1+02621+02031101531ADDAA199000091GA1001+999999999GF100991001001999999001001KA1240M+03521MA1999999100501MD1999999-0011REMSYN082AAXX  17004 82392 32996 03603 10262 20203 30050 40153 333 10352 29054 55090 59001;EQDQ01  00002PRCP99
0186823920999992001081712004-03690-040340FM-12+008399999V0200901N001012200019N0500001N1+02781+01911100651ADDAA199000091GF102991021021004501001001KA1240N+02141MA1999999100621MD1999999-0111REMSYN076AAXX  17124 82392 32499 20902 10278 20191 30062 40065 82200 333 20214 59011;EQDQ01  00002PRCP99
0167823920999992001081718004-03690-040340FM-12+008399999V0201401N000512200019N0500001N1+03401+01541101051ADDAA199000091GF104991021021004501031001MA1999999100031MD1999999-0131REMSYN070AAXX  17184 82392 32499 41401 10340 20154 30003 40105 82230 333 59013;EQDQ01  00002PRCP99
0208823920999992001081800004-03690-040340FM-12+008399999V0200501N003112200019N0040001N1+02681+01991101361ADDAA199000091GA1001+999999999GF100991001001999999001001KA1240M+03521MA1999999100341MD1999999-0161REMSYN082AAXX  18004 82392 32996 00506 10268 20199 30034 40136 333 10352 29056 55102 59016;EQDQ01  00002PRCP99
0202823920999992001081812004-03690-040340FM-12+008399999V0200901N001012200019N0500001N1+02901+01811101581ADDAA199000091GF101991999011004501001001KA1240N+02141MA1999999100551MD1999999-0071REMSYN076AAXX  18124 82392 32499 10902 10290 20181 30055 40158 82100 333 20214 59007;EQDQ01+000022SCOTLCQ02  00002PRCP99
0183823920999992001081818004-03690-040340FM-12+008399999V0201401N001012200019N0500001N1+03521+01391101071ADDAA199000091GF101991999011004501001001MA1999999100061MD1999999+0031REMSYN070AAXX  18184 82392 32499 11402 10352 20139 30006 40107 82100 333 58003;EQDQ01+000022SCOTLCQ02  00002PRCP99
0208823920999992001081900004-03690-040340FM-12+008399999V0203601N001012200019N0040001N1+02681+01991101421ADDAA199000091GA1001+999999999GF100991001001999999001001KA1240M+03541MA1999999100401MD1999999+0061REMSYN082AAXX  19004 82392 32996 03602 10268 20199 30040 40142 333 10354 29053 55110 58006;EQDQ01  00002PRCP99
0186823920999992001081912004-03690-040340FM-12+008399999V0201401N000512200019N0500001N1+02941+01761101591ADDAA199000091GF103991021011004501031001KA1240N+02081MA1999999100561MD1999999+0011REMSYN076AAXX  19124 82392 32499 31401 10294 20176 30056 40159 82130 333 20208 58001;EQDQ01  00002PRCP99
0167823920999992001081918004-03690-040340FM-12+008399999V0200901N002610042019N0500001N1+03531+01461101071ADDAA199000091GF105991051021004501001001MA1999999100061MD1999999+0001REMSYN070AAXX  19184 82392 32499 50905 10353 20146 30006 40107 85200 333 58000;EQDQ01  00002PRCP99
0208823920999992001082000004-03690-040340FM-12+008399999V0203601N002612200019N0040001N1+02661+01921101411ADDAA199000091GA1001+999999999GF100991001001999999001001KA1240M+03621MA1999999100391MD1999999-0011REMSYN082AAXX  20004 82392 32996 03605 10266 20192 30039 40141 333 10362 29052 55102 59001;EQDQ01  00002PRCP99
0186823920999992001082012004-03690-040340FM-12+008399999V0201401N003112200019N0500001N1+02941+01761101731ADDAA199000091GF101991011011004501001001KA1240N+02191MA1999999100701MD1999999+0141REMSYN076AAXX  20124 82392 32499 11406 10294 20176 30070 40173 81100 333 20219 58014;EQDQ01  00002PRCP99
0167823920999992001082018004-03690-040340FM-12+008399999V0201401N003112200019N0500001N1+03541+01351101191ADDAA199000091GF104991041021004501001001MA1999999100181MD1999999+0121REMSYN070AAXX  20184 82392 32499 41406 10354 20135 30018 40119 84200 333 58012;EQDQ01  00002PRCP99
0208823920999992001082100004-03690-040340FM-12+008399999V0203601N002612200019N0040001N1+02661+02091101491ADDAA199000091GA1001+999999999GF100991001001999999001001KA1240M+03611MA1999999100461MD1999999+0071REMSYN082AAXX  21004 82392 32996 03605 10266 20209 30046 40149 333 10361 29055 55100 58007;EQDQ01  00002PRCP99
0186823920999992001082112004-03690-040340FM-12+008399999V0201401N001512200019N0500001N1+02881+01861101681ADDAA199000091GF101991011011004501001001KA1240N+02101MA1999999100651MD1999999-0051REMSYN076AAXX  21124 82392 32499 11403 10288 20186 30065 40168 81100 333 20210 59005;EQDQ01  00002PRCP99
0167823920999992001082118004-03690-040340FM-12+008399999V0200901N002612200019N0500001N1+03581+01271101131ADDAA199000091GF103991031011004501001001MA1999999100111MD1999999-0071REMSYN070AAXX  21184 82392 32499 30905 10358 20127 30011 40113 83100 333 59007;EQDQ01  00002PRCP99
0208823920999992001082200004-03690-040340FM-12+008399999V0203601N001012200019N0040001N1+02701+01721101421ADDAA199000091GA1001+999999999GF100991001001999999001001KA1240M+03661MA1999999100401MD1999999-0061REMSYN082AAXX  22004 82392 32996 03602 10270 20172 30040 40142 333 10366 29047 55105 59006;EQDQ01  00002PRCP99
0186823920999992001082212004-03690-040340FM-12+008399999V0201401N001012200019N0500001N1+02881+01971101691ADDAA199000091GF101991011011004501001001KA1240N+02131MA1999999100661MD1999999+0011REMSYN076AAXX  22124 82392 32499 11402 10288 20197 30066 40169 81100 333 20213 58001;EQDQ01  00002PRCP99
0167823920999992001082218004-03690-040340FM-12+008399999V0200901N001012200019N0500001N1+03601+01571101161ADDAA199000091GF101991011011004501001001MA1999999100151MD1999999+0041REMSYN070AAXX  22184 82392 32499 10902 10360 20157 30015 40116 81100 333 58004;EQDQ01  00002PRCP99
0208823920999992001082300004-03690-040340FM-12+008399999V0203601N002612200019N0040001N1+02671+01781101451ADDAA199000091GA1001+999999999GF100991001001999999001001KA1240M+03631MA1999999100431MD1999999+0031REMSYN082AAXX  23004 82392 32996 03605 10267 20178 30043 40145 333 10363 29051 55106 58003;EQDQ01  00002PRCP99
0186823920999992001082312004-03690-040340FM-12+008399999V0200901N001010042019N0500001N1+02841+01961101621ADDAA199000091GF106991051041004501031001KA1240N+02341MA1999999100591MD1999999-0071REMSYN076AAXX  23124 82392 32499 60902 10284 20196 30059 40162 85430 333 20234 59007;EQDQ01  00002PRCP99
0167823920999992001082318004-03690-040340FM-12+008399999V0201401N000512200019N0500001N1+03541+01521101091ADDAA199000091GF104991041021004501001001MA1999999100081MD1999999-0071REMSYN070AAXX  23184 82392 32499 41401 10354 20152 30008 40109 84200 333 59007;EQDQ01  00002PRCP99
0198823920999992001082400004-03690-040340FM-12+008399999V0200501N003112200019N0040001N1+02701+01911101421ADDAA199000091GF104991041021004501001001KA1240M+03561MA1999999100401MD1999999-0031REMSYN088AAXX  24004 82392 32496 40506 10270 20191 30040 40142 84200 333 10356 29053 55089 59003;EQDQ01  00002PRCP99
0186823920999992001082412004-03690-040340FM-12+008399999V0201401N001512200019N0500001N1+02861+02011101631ADDAA199000091GF103991031021004501001001KA1240N+02001MA1999999100601MD1999999+0011REMSYN076AAXX  24124 82392 32499 31403 10286 20201 30060 40163 83200 333 20200 58001;EQDQ01  00002PRCP99
0167823920999992001082418004-03690-040340FM-12+008399999V0200901N001012200019N0500001N1+03561+01481100991ADDAA199000091GF101991011011004501001001MA1999999099981MD1999999-0101REMSYN070AAXX  24184 82392 32499 10902 10356 20148 39998 40099 81100 333 59010;EQDQ01  00002PRCP99
0208823920999992001082500004-03690-040340FM-12+008399999V0203601N001512200019N0040001N1+02681+01731101271ADDAA199000091GA1001+999999999GF100991001001999999001001KA1240M+03581MA1999999100251MD1999999-0151REMSYN082AAXX  25004 82392 32996 03603 10268 20173 30025 40127 333 10358 29050 55103 59015;EQDQ01  00002PRCP99
0186823920999992001082512004-03690-040340FM-12+008399999V0200901N001010042019N0500001N1+02911+01951101511ADDAA199000091GF105991051021004501001001KA1240N+02061MA1999999100481MD1999999-0121REMSYN076AAXX  25124 82392 32499 50902 10291 20195 30048 40151 85200 333 20206 59012;EQDQ01  00002PRCP99
0167823920999992001082518004-03690-040340FM-12+008399999V0200901N000512200019N0500001N1+03441+01481101081ADDAA199000091GF104991041021004501001001MA1999999100061MD1999999+0081REMSYN070AAXX  25184 82392 32499 40901 10344 20148 30006 40108 84200 333 58008;EQDQ01  00002PRCP99
0198823920999992001082600004-03690-040340FM-12+008399999V0203601N003112200019N0040001N1+02581+02041101431ADDAA199000091GF101991011001008001031001KA1240M+03571MA1999999100411MD1999999+0161REMSYN088AAXX  26004 82392 32596 13606 10258 20204 30041 40143 81030 333 10357 29058 55106 58016;EQDQ01  00002PRCP99
0186823920999992001082612004-03690-040340FM-12+008399999V0201401N001012200019N0500001N1+02861+01901101591ADDAA199000091GF101991011011004501001001KA1240N+02001MA1999999100561MD1999999+0081REMSYN076AAXX  26124 82392 32499 11402 10286 20190 30056 40159 81100 333 20200 58008;EQDQ01  00002PRCP99
0167823920999992001082618004-03690-040340FM-12+008399999V0200901N001512200019N0500001N1+03521+01601101111ADDAA199000091GF101991011011004501001001MA1999999100101MD1999999+0041REMSYN070AAXX  26184 82392 32499 10903 10352 20160 30010 40111 81100 333 58004;EQDQ01  00002PRCP99
0208823920999992001082700004-03690-040340FM-12+008399999V0203601N001512200019N0020001N1+02661+01821101331ADDAA199000091GA1001+999999999GF100991001001999999001001KA1240M+03521MA1999999100341MD1999999-0101REMSYN082AAXX  27004 82392 32995 03603 10266 20182 30034 40133 333 10352 29052 55107 59010;EQDQ01  00002PRCP99
0186823920999992001082712004-03690-040340FM-12+008399999V0200901N001512200019N0500001N1+02841+01731101611ADDAA199000091GF103991031021004501001001KA1240N+02011MA1999999100581MD1999999+0021REMSYN076AAXX  27124 82392 32499 30903 10284 20173 30058 40161 83200 333 20201 58002;EQDQ01  00002PRCP99
0167823920999992001082718004-03690-040340FM-12+008399999V0201401N001512200019N0500001N1+03561+01251101031ADDAA199000091GF101991011011004501001001MA1999999100011MD1999999-0091REMSYN070AAXX  27184 82392 32499 11403 10356 20125 30001 40103 81100 333 59009;EQDQ01  00002PRCP99
0208823920999992001082800004-03690-040340FM-12+008399999V0203601N001012200019N0020001N1+02701+99999101311ADDAA199000091GA1001+999999999GF100991001001999999001001KA1240M+03591MA1999999100291MD1999999-0021REMSYN082AAXX  28004 82392 32595 03602 10270 20283 30029 40131 333 10359 29049 55107 59002;EQDQ01  00002PRCP99
0186823920999992001082812004-03690-040340FM-12+008399999V0200901N001512200019N0040001N1+02881+02181101561ADDAA199000091GF103991031021004501001001KA1240N+02281MA1999999100531MD1999999-0051REMSYN076AAXX  28124 82392 32496 30903 10288 20218 30053 40156 83200 333 20228 59005;EQDQ01  00002PRCP99
0167823920999992001082818004-03690-040340FM-12+008399999V0200901N000512200019N0500001N1+03531+01621101041ADDAA199000091GF104991041021004501001001MA1999999100031MD1999999+0021REMSYN070AAXX  28184 82392 32499 40901 10353 20162 30003 40104 84200 333 58002;EQDQ01  00002PRCP99
0208823920999992001082900004-03690-040340FM-12+008399999V0203601N000512200019N0040001N1+02641+02071101371ADDAA199000091GA1001+999999999GF100991001001999999001001KA1240M+03621MA1999999100351MD1999999+0061REMSYN082AAXX  29004 82392 32996 03601 10264 20207 30035 40137 333 10362 29060 55099 58006;EQDQ01  00002PRCP99
0186823920999992001082912004-03690-040340FM-12+008399999V0201801N002010450019N0500001N1+02741+02121101481ADDAA199000091GF106991041041004501031001KA1240N+02341MA1999999100451MD1999999-0081REMSYN076AAXX  29120 82392 32499 61802 10274 20212 30045 40148 84430 333 20234 59008;EQDQ01  00002PRCP99
0167823920999992001082918004-03690-040340FM-12+008399999V0201401N001010450019N0500001N1+03421+01871101001ADDAA199000091GF105991041021004501031001MA1999999099991MD1999999-0041REMSYN070AAXX  29184 82392 32499 51402 10342 20187 39999 40100 84230 333 59004;EQDQ01  00002PRCP99
0208823920999992001083000004-03690-040340FM-12+008399999V0203601N001012200019N0040001N1+02631+01931101281ADDAA199000091GA1001+999999999GF100991001001999999001001KA1240M+03531MA1999999100261MD1999999-0091REMSYN082AAXX  30004 82392 32996 03602 10263 20193 30026 40128 333 10353 29060 55066 59009;EQDQ01  00002PRCP99
0186823920999992001083012004-03690-040340FM-12+008399999V0201401N001512200019N0500001N1+02961+01741101511ADDAA199000091GF102991021011004501001001KA1240N+02171MA1999999100481MD1999999+0031REMSYN076AAXX  30124 82392 32499 21403 10296 20174 30048 40151 82100 333 20217 58003;EQDQ01  00002PRCP99
0177823920999992001083018004-03690-040340FM-12+008399999V0200901N001012200019N0500001N1+03671+01291100921ADDAA199000091GA1001+999999999GF100991001001999999001001MA1999999099911MD1999999-0081REMSYN064AAXX  30184 82392 32999 00902 10367 20129 39991 40092 333 59008;EQDQ01  00002PRCP99
0208823920999992001083100004-03690-040340FM-12+008399999V0203601N003112200019N0040001N1+02661+02121101311ADDAA199000091GA1001+999999999GF100991001001999999001001KA1240M+03681MA1999999100291MD1999999+0051REMSYN082AAXX  31004 82392 32996 03606 10266 20212 30029 40131 333 10368 29056 55101 58005;EQDQ01  00002PRCP99
0186823920999992001083112004-03690-040340FM-12+008399999V0200901N001512200019N0500001N1+02901+01751101531ADDAA199000091GF101991011011004501001001KA1240N+02111MA1999999100501MD1999999+0021REMSYN076AAXX  31124 82392 32499 10903 10290 20175 30050 40153 81100 333 20211 58002;EQDQ01  00002PRCP99
0177823920999992001083118004-03690-040340FM-12+008399999V0200901N002612200019N0500001N1+03681+01351100881ADDAA199000091GA1001+999999999GF100991001001999999001001MA1999999099871MD1999999-0041REMSYN064AAXX  31184 82392 32999 00905 10368 20135 39987 40088 333 59004;EQDQ01  00002PRCP99
0208823920999992001090100004-03690-040340FM-12+008399999V0203601N002612200019N0040001N1+02601+02331101271ADDAA199000091GA1001+999999999GF100991001001999999001001KA1240M+03691MA1999999100251MD1999999-0061REMSYN082AAXX  01004 82392 32996 03605 10260 20233 30025 40127 333 10369 29061 55106 59006;EQDQ01  00002PRCP99
0202823920999992001090112004-03690-040340FM-12+008399999V0200901N001012200019N0500001N1+02761+01661101531ADDAA199000091GF101991999011008001001001KA1240N+02201MA1999999100501MD1999999+0001REMSYN076AAXX  01124 82392 32599 10902 10276 20166 30050 40153 82100 333 20220 58000;EQDQ01+000022SCOTLCQ02  00002PRCP99
0183823920999992001090118004-03690-040340FM-12+008399999V0200901N001512200019N0500001N1+03521+01501100941ADDAA199000091GF101991999011008001001001MA1999999099931MD1999999+0061REMSYN070AAXX  01184 82392 32599 10903 10352 20150 39993 40094 82100 333 58006;EQDQ01+000022SCOTLCQ02  00002PRCP99
0208823920999992001090200004-03690-040340FM-12+008399999V0203601N002612200019N0040001N1+02701+01861101221ADDAA199000091GA1001+999999999GF100991001001999999001001KA1240M+03581MA1999999100201MD1999999-0051REMSYN082AAXX  02004 82392 32996 03605 10270 20186 30020 40122 333 10358 29050 55108 59005;EQDQ01  00002PRCP99
0186823920999992001090212004-03690-040340FM-12+008399999V0200901N000510042019N0500001N1+02901+01811101431ADDAA199000091GF106991061021004501001001KA1240N+02261MA1999999100411MD1999999-0091REMSYN076AAXX  02124 82392 32499 60901 10290 20181 30041 40143 86200 333 20226 59009;EQDQ01  00002PRCP99
0167823920999992001090218004-03690-040340FM-12+008399999V0200901N000512200019N0500001N1+03551+01481100891ADDAA199000091GF104991041021004501001001MA1999999099881MD1999999-0051REMSYN070AAXX  02184 82392 32499 40901 10355 20148 39988 40089 84200 333 59005;EQDQ01  00002PRCP99
0208823920999992001090300004-03690-040340FM-12+008399999V0203601N001512200019N0040001N1+02621+01861101181ADDAA199000091GA1001+999999999GF100991001001999999001001KA1240M+03571MA1999999100161MD1999999-0041REMSYN082AAXX  03004 82392 32996 03603 10262 20186 30016 40118 333 10357 29052 55103 59004;EQDQ01  00002PRCP99
0186823920999992001090312004-03690-040340FM-12+008399999V0200901N002610450019N0500001N1+02841+02121101381ADDAA199000091GF105991041021004501031001KA1240N+02281MA1999999100361MD1999999-0051REMSYN076AAXX  03124 82392 32499 50905 10284 20212 30036 40138 84230 333 20228 59005;EQDQ01  00002PRCP99
0167823920999992001090318004-03690-040340FM-12+008399999V0200901N003112200019N0500001N1+03521+01791100881ADDAA199000091GF103991031021004501001001MA1999999099871MD1999999-0011REMSYN070AAXX  03184 82392 32499 30906 10352 20179 39987 40088 83200 333 59001;EQDQ01  00002PRCP99
0208823920999992001090400004-03690-040340FM-12+008399999V0203601N000512200019N0040001N1+02621+01911101211ADDAA199000091GA1001+999999999GF100991001001999999001001KA1240M+03591MA1999999100141MD1999999+0031REMSYN082AAXX  04004 82392 32996 03601 10262 20191 30014 40121 333 10359 29058 55099 58003;EQDQ01  00002PRCP99
0186823920999992001090412004-03690-040340FM-12+008399999V0201401N001010450019N0500001N1+02861+02011101421ADDAA199000091GF105991041041004501031001KA1240N+02001MA1999999100401MD1999999+0041REMSYN076AAXX  04124 82392 32499 51402 10286 20201 30040 40142 84430 333 20200 58004;EQDQ01  00002PRCP99
0167823920999992001090418004-03690-040340FM-12+008399999V0201401N000512200019N0500001N1+03581+01651100811ADDAA199000091GF104991041021004501001001MA1999999099801MD1999999-0071REMSYN070AAXX  04184 82392 32499 41401 10358 20165 39980 40081 84200 333 59007;EQDQ01  00002PRCP99
0208823920999992001090500004-03690-040340FM-12+008399999V0200501N003112200019N0040001N1+02601+02031101161ADDAA199000091GA1001+999999999GF100991001001999999001001KA1240M+03661MA1999999100141MD1999999-0051REMSYN082AAXX  05004 82392 32996 00506 10260 20203 30014 40116 333 10366 29059 55094 59005;EQDQ01  00002PRCP99
0186823920999992001090512004-03690-040340FM-12+008399999V0200501N003110450019N0500001N1+02801+02001101421ADDAA199000091GF107991041041004501031001KA1240N+02281MA1999999100401MD1999999+0001REMSYN076AAXX  05124 82392 32499 70506 10280 20200 30040 40142 84430 333 20228 58000;EQDQ01  00002PRCP99
0131823920999992001090518004-03690-040340FM-12+008399999V0200501N002612200019N0500001N1+03581+01791999999ADDAA199000091GF104991999999004501999999MA1999999099861REMSYN048AAXX  05184 82392 32499 40505 10358 20179 39986;EQDQ01  00002PRCP99
0214823920999992001090600004-03690-040340FM-12+008399999V0203601N004112200019N0040001N1+02561+02081101161ADDAA199000091GF101991999011008001001001KA1240M+03661MA1999999100141MD1999999+0001REMSYN088AAXX  06004 82392 32596 13608 10256 20208 30014 40116 82100 333 10366 29062 55076 58000;EQDQ01+000022SCOTLCQ02  00002PRCP99
0186823920999992001090612004-03690-040340FM-12+008399999V0200901N000510042019N0500001N1+02861+01981100291ADDAA199000091GF107991071041004501001001KA1240N+02301MA1999999100291MD1999999-0111REMSYN076AAXX  06124 82392 32499 70901 10286 20198 30029 40029 87400 333 20230 59011;EQDQ01  00002PRCP99
0167823920999992001090618004-03690-040340FM-12+008399999V0200901N001012200019N0500001N1+03681+01691100721ADDAA199000091GF103991031021004501001001MA1999999099711MD1999999-0151REMSYN070AAXX  06184 82392 32499 30902 10368 20169 39971 40072 83200 333 59015;EQDQ01  00002PRCP99
0208823920999992001090700004-03690-040340FM-12+008399999V0203601N001512200019N0040001N1+02541+02191101071ADDAA199000091GA1001+999999999GF100991001001999999001001KA1240M+03731MA1999999100051MD1999999-0091REMSYN082AAXX  07004 82392 32996 03603 10254 20219 30005 40107 333 10373 29063 55097 59009;EQDQ01  00002PRCP99
0186823920999992001090712004-03690-040340FM-12+008399999V0200501N003112200019N0500001N1+02901+02041101221ADDAA199000091GF102991021021004501001001KA1240N+02421MA1999999100201MD1999999-0091REMSYN076AAXX  07124 82392 32499 20506 10290 20204 30020 40122 82200 333 20242 59009;EQDQ01  00002PRCP99
0167823920999992001090718004-03690-040340FM-12+008399999V0200901N001510450019N0500001N1+03521+01791100701ADDAA199000091GF105991041021004501031001MA1999999099691MD1999999-0021REMSYN070AAXX  07184 82392 32499 50903 10352 20179 39969 40070 84230 333 59002;EQDQ01  00002PRCP99
0208823920999992001090800004-03690-040340FM-12+008399999V0200501N003612200019N0040001N1+02601+01891101041ADDAA199000091GA1001+999999999GF100991001001999999001001KA1240M+03681MA1999999100021MD1999999-0031REMSYN082AAXX  08004 82392 32996 00507 10260 20189 30002 40104 333 10368 29056 55096 59003;EQDQ01  00002PRCP99
0186823920999992001090812004-03690-040340FM-12+008399999V0201401N001012200019N0500001N1+02901+02041101311ADDAA199000091GF103991021011004501031001KA1240N+02241MA1999999100291MD1999999+0091REMSYN076AAXX  08124 82392 32499 31402 10290 20204 30029 40131 82130 333 20224 58009;EQDQ01  00002PRCP99
0167823920999992001090818004-03690-040340FM-12+008399999V0200901N001512200019N0500001N1+03541+01621100731ADDAA199000091GF102991021021004501001001MA1999999099721MD1999999+0031REMSYN070AAXX  08184 82392 32499 20903 10354 20162 39972 40073 82200 333 58003;EQDQ01  00002PRCP99
0208823920999992001090900004-03690-040340FM-12+008399999V0203601N003112200019N0040001N1+02561+02231101121ADDAA199000091GA1001+999999999GF100991001001999999001001KA1240M+03641MA1999999100101MD1999999+0081REMSYN082AAXX  09004 82392 32996 03606 10256 20223 30010 40112 333 10364 29064 55100 58008;EQDQ01  00002PRCP99
0202823920999992001090912004-03690-040340FM-12+008399999V0201801N000519999999N0500001N1+02701+02151101481ADDAA199000091GF106991999011004501001001KA1240N+02151MA1999999100451MD1999999+0161REMSYN076AAXX  09124 82392 32499 61801 10270 20215 30045 40148 82100 333 20215 58016;EQDQ01+000022SCOTLCQ02  00002PRCP99
0183823920999992001090918004-03690-040340FM-12+008399999V0203601N001019999999N0500001N1+03501+01481100861ADDAA199000091GF105991999021004501001001MA1999999099851MD1999999+0131REMSYN070AAXX  09184 82392 32499 53602 10350 20148 39985 40086 84200 333 58013;EQDQ01+000042SCOTLCQ02  00002PRCP99
0208823920999992001091000004-03690-040340FM-12+008399999V0203601N002612200019N0040001N1+02681+02091101251ADDAA199000091GA1001+999999999GF100991001001999999001001KA1240M+03661MA1999999100231MD1999999+0131REMSYN082AAXX  10004 82392 32996 03605 10268 20209 30023 40125 333 10366 29060 55105 58013;EQDQ01  00002PRCP99
0186823920999992001091012004-03690-040340FM-12+008399999V0201401N001010450019N0500001N1+02941+02081101421ADDAA199000091GF105991041021004501031001KA1240N+02281MA1999999100401MD1999999-0051REMSYN076AAXX  10124 82392 32499 51402 10294 20208 30040 40142 84230 333 20228 59005;EQDQ01  00002PRCP99
0167823920999992001091018004-03690-040340FM-12+008399999V0200901N002112200019N0500001N1+03621+01871100871ADDAA199000091GF101991011011004501001001MA1999999099861MD1999999+0011REMSYN070AAXX  10184 82392 32499 10904 10362 20187 39986 40087 81100 333 58001;EQDQ01  00002PRCP99
0208823920999992001091100004-03690-040340FM-12+008399999V0203601N005112200019N0040001N1+02561+02121101301ADDAA199000091GA1001+999999999GF100991001001999999001001KA1240M+03661MA1999999100281MD1999999+0051REMSYN082AAXX  11004 82392 32996 03610 10256 20212 30028 40130 333 10366 29062 55099 58005;EQDQ01  00002PRCP99
0186823920999992001091112004-03690-040340FM-12+008399999V0202301N000510042019N0500001N1+02821+02221101421ADDAA199000091GF107991051051004501031001KA1240N+02481MA1999999100401MD1999999+0001REMSYN076AAXX  11124 82392 32499 72301 10282 20222 30040 40142 85530 333 20248 58000;EQDQ01  00002PRCP99
0167823920999992001091118004-03690-040340FM-12+008399999V0200501N000512200019N0500001N1+03571+01841100811ADDAA199000091GF104991041021004501001001MA1999999099801MD1999999-0061REMSYN070AAXX  11184 82392 32499 40501 10357 20184 39980 40081 84200 333 59006;EQDQ01  00002PRCP99
0208823920999992001091200004-03690-040340FM-12+008399999V0203601N004112200019N0040001N1+02561+02151101151ADDAA199000091GA1001+999999999GF100991001001999999001001KA1240M+03651MA1999999100131MD1999999-0151REMSYN082AAXX  12004 82392 32996 03608 10256 20215 30013 40115 333 10365 29062 55073 59015;EQDQ01  00002PRCP99
0186823920999992001091212004-03690-040340FM-12+008399999V0200901N001512200019N0500001N1+02841+01911101381ADDAA199000091GF103991031021004501001001KA1240N+02301MA1999999100361MD1999999-0041REMSYN076AAXX  12124 82392 32499 30903 10284 20191 30036 40138 83200 333 20230 59004;EQDQ01  00002PRCP99
0167823920999992001091218004-03690-040340FM-12+008399999V0200501N003112200019N0500001N1+03521+01701100851ADDAA199000091GF102991021021004501001001MA1999999099841MD1999999+0041REMSYN070AAXX  12184 82392 32499 20506 10352 20170 39984 40085 82200 333 58004;EQDQ01  00002PRCP99
0208823920999992001091300004-03690-040340FM-12+008399999V0200501N003612200019N0040001N1+02501+01941101221ADDAA199000091GA1001+999999999GF100991001001999999001001KA1240M+03611MA1999999100201MD1999999+0071REMSYN082AAXX  13004 82392 32996 00507 10250 20194 30020 40122 333 10361 29058 55104 58007;EQDQ01  00002PRCP99
0186823920999992001091312004-03690-040340FM-12+008399999V0200901N000510042019N0500001N1+02741+01891101541ADDAA199000091GF106991061021004501001001KA1240N+02101MA1999999100511MD1999999+0151REMSYN076AAXX  13124 82392 32499 60901 10274 20189 30051 40154 86200 333 20210 58015;EQDQ01  00002PRCP99
0167823920999992001091318004-03690-040340FM-12+008399999V0200501N002610450019N0500001N1+03481+01581100951ADDAA199000091GF105991031021004501011011MA1999999099931MD1999999+0091REMSYN070AAXX  13184 82392 32499 50505 10348 20158 39993 40095 83211 333 58009;EQDQ01  00002PRCP99
0208823920999992001091400004-03690-040340FM-12+008399999V0200501N003112200019N0040001N1+02601+01891101371ADDAA199000091GA1001+999999999GF100991001001999999001001KA1240M+03541MA1999999100351MD1999999+0151REMSYN082AAXX  14004 82392 32996 00506 10260 20189 30035 40137 333 10354 29055 55090 58015;EQDQ01  00002PRCP99
0186823920999992001091412004-03690-040340FM-12+008399999V0200901N002110450019N0500001N1+02821+01991101441ADDAA199000091GF106991041041004501031001KA1240N+02101MA1999999100421MD1999999-0091REMSYN076AAXX  14124 82392 32499 60904 10282 20199 30042 40144 84430 333 20210 59009;EQDQ01  00002PRCP99
0167823920999992001091418004-03690-040340FM-12+008399999V0201401N000512200019N0500001N1+03461+01551100841ADDAA199000091GF104991041021004501001001MA1999999099831MD1999999-0101REMSYN070AAXX  14184 82392 32499 41401 10346 20155 39983 40084 84200 333 59010;EQDQ01  00002PRCP99
0208823920999992001091500004-03690-040340FM-12+008399999V0200501N002112200019N0040001N1+02621+01781101161ADDAA199000091GA1001+999999999GF100991001001999999001001KA1240M+03521MA1999999100141MD1999999-0211REMSYN082AAXX  15004 82392 32996 00504 10262 20178 30014 40116 333 10352 29052 55093 59021;EQDQ01  00002PRCP99
0186823920999992001091512004-03690-040340FM-12+008399999V0200901N001012200019N0500001N1+02821+01861101341ADDAA199000091GF101991011011004501001001KA1240N+02041MA1999999100321MD1999999-0101REMSYN076AAXX  15124 82392 32499 10902 10282 20186 30032 40134 81100 333 20204 59010;EQDQ01  00002PRCP99
0183823920999992001091518004-03690-040340FM-12+008399999V0200901N001512200019N0500001N1+03611+01301100711ADDAA199000091GF103991999011004501001001MA1999999099701MD1999999-0131REMSYN070AAXX  15184 82392 32499 30903 10361 20130 39970 40071 82100 333 59013;EQDQ01+000022SCOTLCQ02  00002PRCP99
0208823920999992001091600004-03690-040340FM-12+008399999V0200501N002612200019N0040001N1+02601+02031101141ADDAA199000091GA1001+999999999GF100991001001999999001001KA1240M+03721MA1999999100121MD1999999-0021REMSYN082AAXX  16004 82392 32596 00505 10260 20203 30012 40114 333 10372 29056 55098 59002;EQDQ01  00002PRCP99
0186823920999992001091612004-03690-040340FM-12+008399999V0201801N000510042019N0500001N1+02741+02141101401ADDAA199000091GF107991061041004501031001KA1240N+02361MA1999999100381MD1999999+0061REMSYN076AAXX  16124 82392 32499 71801 10274 20214 30038 40140 86430 333 20236 58006;EQDQ01  00002PRCP99
0208823920999992001091700004-03690-040340FM-12+008399999V0200501N001512200019N0040001N1+02591+02171101271ADDAA199000091GA1001+999999999GF100991001001999999001001KA1240M+03701MA1999999100251MD1999999+0031REMSYN082AAXX  17004 82392 32996 00503 10259 20217 30025 40127 333 10370 29064 55070 58003;EQDQ01  00002PRCP99
0201823920999992001091712004-03690-040340FM-12+008399999V0202701N000510450019N0500001N1+02641+02231101531ADDAA124000391AY121061AY221061GF108991041071004501021999KA1240N+02391MA1999999100501MD1999999+0121MW1511REMSYN088AAXX  17124 82392 21499 82701 10264 20223 30050 40153 75122 8472/ 333 20239 58012 69934;
0148823920999992001091718004-03690-040340FM-12+008399999V0200501N001012200019N0500001N1+03541+01621100921ADDAA199000021GF101991011011004501001001MA1999999099911MD1999999+0141REMSYN070AAXX  17184 82392 32499 10502 10354 20162 39991 40092 81100 333 58014;
0179823920999992001091800004-03690-040340FM-12+008399999V0203601N001012200019N0040001N1+02571+02041101331ADDAA199000021GF101991011001008001031001KA1240M+03641MA1999999100311MD1999999+0061REMSYN088AAXX  18004 82392 32596 13602 10257 20204 30031 40133 81030 333 10364 29064 55078 58006;
0186823920999992001091812004-03690-040340FM-12+008399999V0201801N001010450019N0500001N1+02781+01911101491ADDAA199000091GF106991041041004501031001KA1240N+02311MA1999999100461MD1999999-0041REMSYN076AAXX  18124 82392 32499 61802 10278 20191 30046 40149 84430 333 20231 59004;EQDQ01  00002PRCP99
0167823920999992001091818004-03690-040340FM-12+008399999V0200501N001012200019N0500001N1+03641+01441100811ADDAA199000091GF104991041021004501001001MA1999999099801MD1999999-0111REMSYN070AAXX  18184 82392 32499 40502 10364 20144 39980 40081 84200 333 59011;EQDQ01  00002PRCP99
0208823920999992001091900004-03690-040340FM-12+008399999V0200501N001012200019N0040001N1+02631+02071101141ADDAA199000091GA1001+999999999GF100991001001999999001001KA1240M+03651MA1999999100121MD1999999-0191REMSYN082AAXX  19004 82392 32996 00502 10263 20207 30012 40114 333 10365 29057 55078 59019;EQDQ01  00002PRCP99
0186823920999992001091912004-03690-040340FM-12+008399999V0200901N003112200019N0500001N1+02941+01911101391ADDAA199000091GF104991031021004501031001KA1240N+02381MA1999999100371MD1999999-0091REMSYN076AAXX  19124 82392 32499 40906 10294 20191 30037 40139 83230 333 20238 59009;EQDQ01  00002PRCP99
0167823920999992001091918004-03690-040340FM-12+008399999V0200901N001512200019N0500001N1+03581+01331100911ADDAA199000091GF103991031021004501001001MA1999999099901MD1999999+0101REMSYN070AAXX  19184 82392 32499 30903 10358 20133 39990 40091 83200 333 58010;EQDQ01  00002PRCP99
0208823920999992001092000004-03690-040340FM-12+008399999V0203601N001512200019N0040001N1+02641+01901101171ADDAA199000091GA1001+999999999GF100991001001999999001001KA1240M+03611MA1999999100151MD1999999+0031REMSYN082AAXX  20004 82392 32996 03603 10264 20190 30015 40117 333 10361 29052 55098 58003;EQDQ01  00002PRCP99
0186823920999992001092012004-03690-040340FM-12+008399999V0200901N000512200019N0500001N1+02941+01851101311ADDAA199000091GF104991041021004501001001KA1240N+02261MA1999999100291MD1999999-0081REMSYN076AAXX  20124 82392 32499 40901 10294 20185 30029 40131 84200 333 20226 59008;EQDQ01  00002PRCP99
0167823920999992001092018004-03690-040340FM-12+008399999V0200501N001012200019N0500001N1+03531+01411100781ADDAA199000091GF104991041021004501001001MA1999999099771MD1999999-0131REMSYN070AAXX  20184 82392 32499 40502 10353 20141 39977 40078 84200 333 59013;EQDQ01  00002PRCP99
0208823920999992001092100004-03690-040340FM-12+008399999V0203601N001512200019N0040001N1+02681+01781101141ADDAA199000091GA1001+999999999GF100991001001999999001001KA1240M+03621MA1999999100121MD1999999-0031REMSYN082AAXX  21004 82392 32996 03603 10268 20178 30012 40114 333 10362 29049 55099 59003;EQDQ01  00002PRCP99
0186823920999992001092112004-03690-040340FM-12+008399999V0200901N000512200019N0500001N1+02781+01911101341ADDAA199000091GF104991031021004501031001KA1240N+02061MA1999999100321MD1999999-0031REMSYN076AAXX  21124 82392 32499 40901 10278 20191 30032 40134 83230 333 20206 59003;EQDQ01  00002PRCP99
0168823920999992001092118004-03690-040340FM-12+008399999V0209999C000010450019N0500001N1+03561+01681100791ADDAA199000091GF105991031021004501031001MD1999999+0011REMSYN070AAXX  21184 82392 32499 50900 10356 20168 39878 40079 83230 333 58001;EQDQ01+098783APOSP Q02  00002PRCP99
0208823920999992001092200004-03690-040340FM-12+008399999V0203601N002112200019N0040001N1+02581+01921101221ADDAA199000091GA1001+999999999GF100991001001999999001001KA1240M+03641MA1999999100201MD1999999+0081REMSYN082AAXX  22004 82392 32996 03604 10258 20192 30020 40122 333 10364 29056 55090 58008;EQDQ01  00002PRCP99
0186823920999992001092212004-03690-040340FM-12+008399999V0201801N000512200019N0500001N1+02871+01801101411ADDAA199000091GF102991021021004501001001KA1240N+02081MA1999999100391MD1999999+0071REMSYN076AAXX  22124 82392 32499 21801 10287 20180 30039 40141 82200 333 20208 58007;EQDQ01  00002PRCP99
0167823920999992001092218004-03690-040340FM-12+008399999V0200901N001010042019N0500001N1+03531+01521100851ADDAA199000091GF105991051021004501001001MA1999999099841MD1999999+0061REMSYN070AAXX  22184 82392 32499 50902 10353 20152 39984 40085 85200 333 58006;EQDQ01  00002PRCP99
0198823920999992001092300004-03690-040340FM-12+008399999V0203601N001512200019N0040001N1+02601+01961101171ADDAA199000091GF101991011021004501001001KA1240M+03631MA1999999100151MD1999999-0201REMSYN088AAXX  23004 82392 32496 13603 10260 20196 30015 40117 81200 333 10363 29055 55100 59020;EQDQ01  00002PRCP99
0186823920999992001092312004-03690-040340FM-12+008399999V0201401N001012200019N0500001N1+02901+01961101351ADDAA199000091GF101991011011004501001001KA1240N+02181MA1999999100331MD1999999-0061REMSYN076AAXX  23124 82392 32499 11402 10290 20196 30033 40135 81100 333 20218 59006;EQDQ01  00002PRCP99
0167823920999992001092318004-03690-040340FM-12+008399999V0201401N002112200019N0500001N1+03621+01591100761ADDAA199000091GF101991011011004501001001MA1999999099751MD1999999-0091REMSYN070AAXX  23184 82392 32499 11404 10362 20159 39975 40076 81100 333 59009;EQDQ01  00002PRCP99
0208823920999992001092400004-03690-040340FM-12+008399999V0200501N005712200019N0040001N1+02601+02031101181ADDAA199000091GA1001+999999999GF100991001001999999001001KA1240M+03661MA1999999100161MD1999999+0011REMSYN082AAXX  24004 82392 32996 00511 10260 20203 30016 40118 333 10366 29057 55106 58001;EQDQ01  00002PRCP99
0186823920999992001092412004-03690-040340FM-12+008399999V0201801N001012200019N0500001N1+03001+01841101401ADDAA199000091GF101991011011004501001001KA1240N+02241MA1999999100381MD1999999+0051REMSYN076AAXX  24124 82392 32499 11802 10300 20184 30038 40140 81100 333 20224 58005;EQDQ01  00002PRCP99
0167823920999992001092418004-03690-040340FM-12+008399999V0200501N003112200019N0500001N1+03641+01321100851ADDAA199000091GF101991011011004501001001MA1999999099841MD1999999+0091REMSYN070AAXX  24184 82392 32499 10506 10364 20132 39984 40085 81100 333 58009;EQDQ01  00002PRCP99
0208823920999992001092500004-03690-040340FM-12+008399999V0203601N001012200019N0040001N1+02561+02021101161ADDAA199000091GA1001+999999999GF100991001001999999001001KA1240M+03691MA1999999100141MD1999999-0021REMSYN082AAXX  25004 82392 32996 03602 10256 20202 30014 40116 333 10369 29055 55107 59002;EQDQ01  00002PRCP99
0186823920999992001092512004-03690-040340FM-12+008399999V0201401N001010450019N0500001N1+02821+01941101441ADDAA199000091GF105991041021004501031001KA1240N+02301MA1999999100421MD1999999+0021REMSYN076AAXX  25124 82392 32499 51402 10282 20194 30042 40144 84230 333 20230 58002;EQDQ01  00002PRCP99
0167823920999992001092518004-03690-040340FM-12+008399999V0200901N000510450019N0500001N1+03541+01521100831ADDAA199000091GF106991031021004501011011MA1999999099821MD1999999+0021REMSYN070AAXX  25184 82392 32499 60901 10354 20152 39982 40083 83211 333 58002;EQDQ01  00002PRCP99
0198823920999992001092600004-03690-040340FM-12+008399999V0203601N001512200019N0040001N1+02601+02101101311ADDAA199000091GF101991011021008001001001KA1240M+03591MA1999999100291MD1999999+0151REMSYN088AAXX  26004 82392 32596 13603 10260 20210 30029 40131 81200 333 10359 29059 55100 58015;EQDQ01  00002PRCP99
0186823920999992001092612004-03690-040340FM-12+008399999V0201401N001012200019N0500001N1+02821+01831101511ADDAA199000091GF104991031021004501031001KA1240N+02381MA1999999100481MD1999999+0061REMSYN076AAXX  26124 82392 32499 41402 10282 20183 30048 40151 83230 333 20238 58006;EQDQ01  00002PRCP99
0167823920999992001092618004-03690-040340FM-12+008399999V0200501N002612200019N0500001N1+03621+01531100831ADDAA199000091GF103991031021004501031001MA1999999099821MD1999999+0001REMSYN070AAXX  26184 82392 32499 30505 10362 20153 39982 40083 83230 333 58000;EQDQ01  00002PRCP99
0198823920999992001092700004-03690-040340FM-12+008399999V0203601N003112200019N0040001N1+02561+01951101171ADDAA199000091GF101991011001008001011001KA1240M+03611MA1999999100151MD1999999-0141REMSYN088AAXX  27004 82392 32596 13606 10256 20195 30015 40117 81010 333 10361 29057 55099 59014;EQDQ01  00002PRCP99
0186823920999992001092712004-03690-040340FM-12+008399999V0200901N000510042019N0500001N1+02821+01861101431ADDAA199000091GF106991061041004501001001KA1240N+02121MA1999999100411MD1999999-0071REMSYN076AAXX  27124 82392 32499 60901 10282 20186 30041 40143 86400 333 20212 59007;EQDQ01  00002PRCP99
0167823920999992001092718004-03690-040340FM-12+008399999V0200901N000512200019N0500001N1+03461+01551100871ADDAA199000091GF101991011011004501001001MA1999999099851MD1999999+0031REMSYN070AAXX  27184 82392 32499 10901 10346 20155 39985 40087 81100 333 58003;EQDQ01  00002PRCP99
0208823920999992001092800004-03690-040340FM-12+008399999V0200501N001512200019N0040001N1+02581+02011101251ADDAA199000091GA1001+999999999GF100991001001999999001001KA1240M+03571MA1999999100231MD1999999+0081REMSYN082AAXX  28004 82392 32996 00503 10258 20201 30023 40125 333 10357 29075 55105 58008;EQDQ01  00002PRCP99
0186823920999992001092812004-03690-040340FM-12+008399999V0200901N002110450019N0500001N1+02801+01921101501ADDAA199000091GF105991031021004501031001KA1240N+02001MA1999999100471MD1999999+0061REMSYN076AAXX  28124 82392 32499 50904 10280 20192 30047 40150 83230 333 20200 58006;EQDQ01  00002PRCP99
0167823920999992001092818004-03690-040340FM-12+008399999V0200501N003612200019N0500001N1+02561+01681100901ADDAA199000091GF101991011011004501001001MA1999999099881MD1999999+0031REMSYN070AAXX  28184 82392 32499 10507 10256 20168 39988 40090 81100 333 58003;EQDQ01  00002PRCP99
0208823920999992001092900004-03690-040340FM-12+008399999V0200501N005712200019N0040001N1+02581+02081101301ADDAA199000091GA1001+999999999GF100991001001999999001001KA1240M+03601MA1999999100281MD1999999+0051REMSYN082AAXX  29004 82392 32996 00511 10258 20208 30028 40130 333 10360 29060 55099 58005;EQDQ01  00002PRCP99
0186823920999992001092912004-03690-040340FM-12+008399999V0200901N001510042019N0040001N1+02951+01871101501ADDAA199000091GF106991061021004501001001KA1240N+02241MA1999999100471MD1999999+0001REMSYN076AAXX  29124 82392 32496 60903 10295 20187 30047 40150 86200 333 20224 58000;EQDQ01  00002PRCP99
0167823920999992001092918004-03690-040340FM-12+008399999V0200901N001012200019N0500001N1+03641+01191100901ADDAA199000091GF103991031011004501001001MA1999999099891MD1999999+0011REMSYN070AAXX  29184 82392 32499 30902 10364 20119 39989 40090 83100 333 58001;EQDQ01  00002PRCP99
0214823920999992001093000004-03690-040340FM-12+008399999V0200501N002612200019N0040001N1+02621+02031101341ADDAA199000091GF101991999011008001001001KA1240M+03691MA1999999100321MD1999999+0041REMSYN088AAXX  30004 82392 32596 10505 10262 20203 30032 40134 82100 333 10369 29054 55105 58004;EQDQ01+000022SCOTLCQ02  00002PRCP99
0186823920999992001093012004-03690-040340FM-12+008399999V0201401N002610042019N0500001N1+02961+01781101481ADDAA199000091GF106991061021004501001001KA1240N+02361MA1999999100451MD1999999-0021REMSYN076AAXX  30124 82392 32499 61405 10296 20178 30045 40148 86200 333 20236 59002;EQDQ01  00002PRCP99
0167823920999992001093018004-03690-040340FM-12+008399999V0200501N001012200019N0500001N1+03661+01341100891ADDAA199000091GF104991041021004501001001MA1999999099881MD1999999-0011REMSYN070AAXX  30184 82392 32499 40502 10366 20134 39988 40089 84200 333 59001;EQDQ01  00002PRCP99
0198823920999992001100100004-03690-040340FM-12+008399999V0200501N003112200019N0040001N1+02661+01921101341ADDAA199000091GF101991011001008001031001KA1240M+03681MA1999999100321MD1999999+0001REMSYN088AAXX  01004 82392 32596 10506 10266 20192 30032 40134 81030 333 10368 29051 55105 58000;EQDQ01  00002PRCP99
0186823920999992001100112004-03690-040340FM-12+008399999V0200501N003112200019N0500001N1+02921+01801101531ADDAA199000091GF101991011011004501001001KA1240N+02201MA1999999100501MD1999999+0051REMSYN076AAXX  01124 82392 32499 10506 10292 20180 30050 40153 81100 333 20220 58005;EQDQ01  00002PRCP99
0167823920999992001100118004-03690-040340FM-12+008399999V0200901N002112200019N0500001N1+03701+01111100971ADDAA199000091GF101991011011004501001001MA1999999099961MD1999999+0081REMSYN070AAXX  01184 82392 32499 10904 10370 20111 39996 40097 81100 333 58008;EQDQ01  00002PRCP99
0208823920999992001100200004-03690-040340FM-12+008399999V0203601N001012200019N0040001N1+02621+01911101281ADDAA199000091GA1001+999999999GF100991001001999999001001KA1240M+03721MA1999999100261MD1999999-0061REMSYN082AAXX  02004 82392 32996 03602 10262 20191 30026 40128 333 10372 29051 55107 59006;EQDQ01  00002PRCP99
0186823920999992001100212004-03690-040340FM-12+008399999V0201401N001012200019N0500001N1+02941+01761101631ADDAA199000091GF101991011011004501001001KA1240N+02281MA1999999100601MD1999999+0101REMSYN076AAXX  02124 82392 32499 11402 10294 20176 30060 40163 81100 333 20228 58010;EQDQ01  00002PRCP99
0167823920999992001100218004-03690-040340FM-12+008399999V0200501N003112200019N0500001N1+03601+01351101011ADDAA199000091GF104991041021004501001001MA1999999100001MD1999999+0041REMSYN070AAXX  02184 82392 32499 40506 10360 20135 30000 40101 84200 333 58004;EQDQ01  00002PRCP99
0208823920999992001100300004-03690-040340FM-12+008399999V0203601N002612200019N0040001N1+02611+01931101461ADDAA199000091GA1001+999999999GF100991001001999999001001KA1240M+03691MA1999999100401MD1999999+0141REMSYN082AAXX  03004 82392 32996 03605 10261 20193 30040 40146 333 10369 29052 55109 58014;EQDQ01  00002PRCP99
0186823920999992001100312004-03690-040340FM-12+008399999V0200901N002612200019N0500001N1+02981+01891101671ADDAA199000091GF103991031021004501001001KA1240N+02101MA1999999100641MD1999999+0041REMSYN076AAXX  03124 82392 32499 30905 10298 20189 30064 40167 83200 333 20210 58004;EQDQ01  00002PRCP99
0167823920999992001100318004-03690-040340FM-12+008399999V0200901N002112200019N0500001N1+03581+01271101171ADDAA199000091GF102991021021004501001001MA1999999100161MD1999999+0161REMSYN070AAXX  03184 82392 32499 20904 10358 20127 30016 40117 82200 333 58016;EQDQ01  00002PRCP99
0208823920999992001100400004-03690-040340FM-12+008399999V0203601N000512200019N0040001N1+02671+01891101441ADDAA199000091GA1001+999999999GF100991001001999999001001KA1240M+03631MA1999999100421MD1999999+0021REMSYN082AAXX  04004 82392 32996 03601 10267 20189 30042 40144 333 10363 29050 55105 58002;EQDQ01  00002PRCP99
0186823920999992001100412004-03690-040340FM-12+008399999V0200901N001012200019N0500001N1+02951+02021101501ADDAA199000091GF104991041021004501001001KA1240N+02101MA1999999100471MD1999999-0171REMSYN076AAXX  04124 82392 32499 40902 10295 20202 30047 40150 84200 333 20210 59017;EQDQ01  00002PRCP99
0167823920999992001100418004-03690-040340FM-12+008399999V0200901N003112200019N0500001N1+03671+01531100921ADDAA199000091GF104991041021004501001001MA1999999100911MD1999999-0251REMSYN070AAXX  04184 82392 32499 40906 10367 20153 30091 40092 84200 333 59025;EQDQ01  00002PRCP99
0208823920999992001100500004-03690-040340FM-12+008399999V0200501N002612200019N0040001N1+02681+01891101301ADDAA199000091GA1001+999999999GF100991001001999999001001KA1240M+03721MA1999999100281MD1999999-0141REMSYN082AAXX  05004 82392 32996 00505 10268 20189 30028 40130 333 10372 29052 55103 59014;EQDQ01  00002PRCP99
0186823920999992001100512004-03690-040340FM-12+008399999V0200901N001012200019N0500001N1+02881+01941101591ADDAA199000091GF103991031021004501001001KA1240N+02281MA1999999100561MD1999999+0091REMSYN076AAXX  05124 82392 32499 30902 10288 20194 30056 40159 83200 333 20228 58009;EQDQ01  00002PRCP99
0167823920999992001100518004-03690-040340FM-12+008399999V0200901N001012200019N0500001N1+02711+01321100841ADDAA199000091GF102991011011004501011001MA1999999099831MD1999999-0081REMSYN070AAXX  05184 82392 32499 20902 10271 20132 39983 40084 81110 333 59008;EQDQ01  00002PRCP99
0198823920999992001100600004-03690-040340FM-12+008399999V0200501N005112200019N0040001N1+02681+01891101181ADDAA199000091GF102991021011008001001001KA1240M+03781MA1999999100161MD1999999-0121REMSYN088AAXX  06004 82392 32596 20510 10268 20189 30016 40118 82100 333 10378 29051 55099 59012;EQDQ01  00002PRCP99
0186823920999992001100612004-03690-040340FM-12+008399999V0200901N000510450019N0500001N1+02841+01991101441ADDAA199000091GF106991041021004501031001KA1240N+02261MA1999999100421MD1999999-0141REMSYN076AAXX  06124 82392 32499 60901 10284 20199 30042 40144 84230 333 20226 59014;EQDQ01  00002PRCP99
0167823920999992001100618004-03690-040340FM-12+008399999V0209999C000010042019N0500001N1+03541+01671100911ADDAA199000091GF105991051021004501001001MA1999999099901MD1999999+0071REMSYN070AAXX  06184 82392 32499 50000 10354 20167 39990 40091 85200 333 58007;EQDQ01  00002PRCP99
0202823920999992001100712004-03690-040340FM-12+008399999V0202301N000519999999N0500001N1+02741+02121101321ADDAA199000091GF108991999011004501001001KA1240N+02401MA1999999100301MD1999999-0121REMSYN076AAXX  07124 82392 32499 82301 10274 20212 30030 40132 82100 333 20240 59012;EQDQ01+000022SCOTLCQ02  00002PRCP99
0167823920999992001100718004-03690-040340FM-12+008399999V0201401N002112200019N0500001N1+03541+01711100811ADDAA199000091GF103991031021004501001001MA1999999099801MD1999999-0101REMSYN070AAXX  07184 82392 32499 31404 10354 20171 39980 40081 83200 333 59010;EQDQ01  00002PRCP99
0214823920999992001100800004-03690-040340FM-12+008399999V0203601N003112200019N0040001N1+02621+02121101241ADDAA199000091GF101991999011008001001001KA1240M+03601MA1999999100221MD1999999+0051REMSYN088AAXX  08004 82392 32596 13606 10262 20212 30022 40124 82100 333 10360 29063 55069 58005;EQDQ01+000022SCOTLCQ02  00002PRCP99
0186823920999992001100812004-03690-040340FM-12+008399999V0201401N001012200019N0500001N1+02901+01781101301ADDAA199000091GF103991031021004501001001KA1240N+02271MA1999999100281MD1999999-0021REMSYN076AAXX  08124 82392 32499 31402 10290 20178 30028 40130 83200 333 20227 59002;EQDQ01  00002PRCP99
0167823920999992001100818004-03690-040340FM-12+008399999V0201401N001512200019N0500001N1+03521+01391100811ADDAA199000091GF103991031021004501001001MA1999999099801MD1999999+0001REMSYN070AAXX  08184 82392 32499 31403 10352 20139 39980 40081 83200 333 58000;EQDQ01  00002PRCP99
0208823920999992001100900004-03690-040340FM-12+008399999V0203601N003112200019N0040001N1+02651+02111101161ADDAA199000091GA1001+999999999GF100991001001999999001001KA1240M+03661MA1999999100141MD1999999-0081REMSYN082AAXX  09004 82392 32996 03606 10265 20211 30014 40116 333 10366 29056 55090 59008;EQDQ01  00002PRCP99
0186823920999992001100912004-03690-040340FM-12+008399999V0201801N000510450019N0040001N1+02821+02001101241ADDAA199000091GF107991041041004501031001KA1240N+02311MA1999999100221MD1999999-0061REMSYN076AAXX  09124 82392 32496 71801 10282 20200 30022 40124 84430 333 20231 59006;EQDQ01  00002PRCP99
0167823920999992001100918004-03690-040340FM-12+008399999V0200501N001012200019N0500001N1+03661+01571100641ADDAA199000091GF104991041021004501001001MA1999999099641MD1999999-0161REMSYN070AAXX  09184 82392 32499 40502 10366 20157 39964 40064 84200 333 59016;EQDQ01  00002PRCP99
0208823920999992001101000004-03690-040340FM-12+008399999V0203601N004112200019N0040001N1+02641+01931101061ADDAA199000091GA1001+999999999GF100991001001999999001001KA1240M+03711MA1999999100041MD1999999-0101REMSYN082AAXX  10004 82392 32996 03608 10264 20193 30004 40106 333 10371 29055 55096 59010;EQDQ01  00002PRCP99
0186823920999992001101012004-03690-040340FM-12+008399999V0200901N003112200019N0500001N1+02881+01941101321ADDAA199000091GF104991031021004501031001KA1240N+02301MA1999999100301MD1999999+0081REMSYN076AAXX  10124 82392 32499 40906 10288 20194 30030 40132 83230 333 20230 58008;EQDQ01  00002PRCP99
0167823920999992001101018004-03690-040340FM-12+008399999V0200501N003612200019N0500001N1+03601+01621100771ADDAA199000091GF101991011011004501001001MA1999999099761MD1999999+0121REMSYN070AAXX  10184 82392 32499 10507 10360 20162 39976 40077 81100 333 58012;EQDQ01  00002PRCP99
0208823920999992001101100004-03690-040340FM-12+008399999V0203601N000512200019N0040001N1+02641+01881101101ADDAA199000091GA1001+999999999GF100991001001999999001001KA1240M+03631MA1999999100081MD1999999+0041REMSYN082AAXX  11004 82392 32996 03601 10264 20188 30008 40110 333 10363 29054 55081 58004;EQDQ01  00002PRCP99
0202823920999992001101112004-03690-040340FM-12+008399999V0201401N000519999999N0500001N1+02981+01791101331ADDAA199000091GF105991999021004501001001KA1240N+02241MA1999999100311MD1999999+0011REMSYN076AAXX  11124 82392 32499 51401 10298 20179 30031 40133 82200 333 20224 58001;EQDQ01+000022SCOTLCQ02  00002PRCP99
0167823920999992001101118004-03690-040340FM-12+008399999V0203601N001010042019N0500001N1+02561+01731100761ADDAA199000091GF105991051021004501001001MA1999999099751MD1999999-0011REMSYN070AAXX  11184 82392 32499 53602 10256 20173 39975 40076 85200 333 59001;EQDQ01  00002PRCP99
0208823920999992001101200004-03690-040340FM-12+008399999V0203601N002612200019N0040001N1+02601+02061101121ADDAA199000091GA1001+999999999GF100991001001999999001001KA1240M+03601MA1999999100101MD1999999+0021REMSYN082AAXX  12004 82392 32996 03605 10260 20206 30010 40112 333 10360 29055 55096 58002;EQDQ01  00002PRCP99
0186823920999992001101212004-03690-040340FM-12+008399999V0201801N000510450019N0500001N1+02881+02031101351ADDAA199000091GF107991041051004501031001KA1240N+02201MA1999999100331MD1999999+0201REMSYN076AAXX  12124 82392 32499 71801 10288 20203 30033 40135 84530 333 20220 58020;EQDQ01  00002PRCP99
0167823920999992001101218004-03690-040340FM-12+008399999V0200901N002612200019N0500001N1+03571+01601100811ADDAA199000091GF104991041021004501001001MA1999999099801MD1999999+0051REMSYN070AAXX  12184 82392 32499 40905 10357 20160 39980 40081 84200 333 58005;EQDQ01  00002PRCP99
0208823920999992001101300004-03690-040340FM-12+008399999V0203601N002612200019N0040001N1+02661+01801101221ADDAA199000091GA1001+999999999GF100991001001999999001001KA1240M+03581MA1999999100201MD1999999+0101REMSYN082AAXX  13004 82392 32996 03605 10266 20180 30020 40122 333 10358 29052 55096 58010;EQDQ01  00002PRCP99
0202823920999992001101312004-03690-040340FM-12+008399999V0201401N001012200019N0500001N1+02961+01871101371ADDAA199000091GF101991999011004501001001KA1240N+02181MA1999999100351MD1999999+0021REMSYN076AAXX  13124 82392 32499 11402 10296 20187 30035 40137 82100 333 20218 58002;EQDQ01+000022SCOTLCQ02  00002PRCP99
0167823920999992001101318004-03690-040340FM-12+008399999V0200501N003112200019N0500001N1+03501+01771100811ADDAA199000091GF101991011011004501001001MA1999999099801MD1999999+0001REMSYN070AAXX  13184 82392 32499 10506 10350 20177 39980 40081 81100 333 58000;EQDQ01  00002PRCP99
0208823920999992001101400004-03690-040340FM-12+008399999V0200501N005712200019N0040001N1+02601+02081101101ADDAA199000091GA1001+999999999GF100991001001999999001001KA1240M+03601MA1999999100161MD1999999-0041REMSYN082AAXX  14004 82392 32996 00511 10260 20208 30016 40110 333 10360 29058 55103 59004;EQDQ01  00002PRCP99
0202823920999992001101412004-03690-040340FM-12+008399999V0201401N000512200019N0500001N1+02981+01831101401ADDAA199000091GF103991999011004501001001KA1240N+02241MA1999999100381MD1999999+0031REMSYN076AAXX  14124 82392 32499 31401 10298 20183 30038 40140 84100 333 20224 58003;EQDQ01+000042SCOTLCQ02  00002PRCP99
0167823920999992001101418004-03690-040340FM-12+008399999V0200501N000512200019N0500001N1+03571+01551100811ADDAA199000091GF103991031011004501001001MA1999999099801MD1999999+0001REMSYN070AAXX  14184 82392 32499 30501 10357 20155 39980 40081 83100 333 58000;EQDQ01  00002PRCP99
0208823920999992001101500004-03690-040340FM-12+008399999V0203601N003112200019N0040001N1+02601+01961101151ADDAA199000091GA1001+999999999GF100991001001999999001001KA1240M+03661MA1999999100131MD1999999-0031REMSYN082AAXX  15004 82392 32996 03606 10260 20196 30013 40115 333 10366 29054 55100 59003;EQDQ01  00002PRCP99
0186823920999992001101512004-03690-040340FM-12+008399999V0200501N001012200019N0500001N1+02821+01941101261ADDAA199000091GF103991031021004501001001KA1240N+02211MA1999999100241MD1999999-0141REMSYN076AAXX  15124 82392 32499 30502 10282 20194 30024 40126 83200 333 20221 59014;EQDQ01  00002PRCP99
0167823920999992001101518004-03690-040340FM-12+008399999V0200501N001512200019N0500001N1+03621+01641100751ADDAA199000091GF103991031021004501001001MA1999999099741MD1999999-0061REMSYN070AAXX  15184 82392 32499 30503 10362 20164 39974 40075 83200 333 59006;EQDQ01  00002PRCP99
0208823920999992001101600004-03690-040340FM-12+008399999V0203601N003612200019N0040001N1+02561+02021101091ADDAA199000091GA1001+999999999GF100991001001999999001001KA1240M+03651MA1999999100071MD1999999-0061REMSYN082AAXX  16004 82392 32996 03607 10256 20202 30007 40109 333 10365 29059 55081 59006;EQDQ01  00002PRCP99
0186823920999992001101612004-03690-040340FM-12+008399999V0202301N000510450019N0500001N1+02761+01971101281ADDAA199000091GF108991041041004501021999KA1240N+02381MA1999999100261MD1999999+0021REMSYN076AAXX  16124 82392 32499 82301 10276 20197 30026 40128 8442/ 333 20238 58002;EQDQ01  00002PRCP99
0167823920999992001101618004-03690-040340FM-12+008399999V0200501N000512200019N0500001N1+03541+01521100681ADDAA199000091GF104991041011004501001001MA1999999099671MD1999999-0071REMSYN070AAXX  16184 82392 32499 40501 10354 20152 39967 40068 84100 333 59007;EQDQ01  00002PRCP99
0208823920999992001101700004-03690-040340FM-12+008399999V0203601N002612200019N0040001N1+02631+01801100991ADDAA199000091GA1001+999999999GF100991001001999999001001KA1240M+03611MA1999999099971MD1999999-0101REMSYN082AAXX  17004 82392 32996 03605 10263 20180 39997 40099 333 10361 29053 55061 59010;EQDQ01  00002PRCP99
0186823920999992001101712004-03690-040340FM-12+008399999V0201401N001512200019N0040001N1+02901+01901101161ADDAA199000091GF103991031021004501001001KA1240N+02041MA1999999100141MD1999999-0121REMSYN076AAXX  17124 82392 32496 31403 10290 20190 30014 40116 83200 333 20204 59012;EQDQ01  00002PRCP99
0167823920999992001101718004-03690-040340FM-12+008399999V0200501N001012200019N0500001N1+03561+01481100551ADDAA199000091GF103991031011004501001001MA1999999099551MD1999999-0121REMSYN070AAXX  17184 82392 32499 30502 10356 20148 39955 40055 83100 333 59012;EQDQ01  00002PRCP99
0208823920999992001101800004-03690-040340FM-12+008399999V0203601N003112200019N0040001N1+02681+01741100971ADDAA199000091GA1001+999999999GF100991001001999999001001KA1240M+03711MA1999999099951MD1999999-0021REMSYN082AAXX  18004 82392 32996 03606 10268 20174 39995 40097 333 10371 29050 55108 59002;EQDQ01  00002PRCP99
0186823920999992001101812004-03690-040340FM-12+008399999V0200901N003110042019N0500001N1+03031+01881101091ADDAA199000091GF105991051021004501001001KA1240N+02171MA1999999100081MD1999999-0061REMSYN076AAXX  18124 82392 32499 50906 10303 20188 30008 40109 85200 333 20217 59006;EQDQ01  00002PRCP99
0167823920999992001101818004-03690-040340FM-12+008399999V0200901N001512200019N0500001N1+03521+01601100571ADDAA199000091GF103991031021004501001001MA1999999099571MD1999999+0021REMSYN070AAXX  18184 82392 32499 30903 10352 20160 39957 40057 83200 333 58002;EQDQ01  00002PRCP99
0208823920999992001101900004-03690-040340FM-12+008399999V0203601N005712200019N0040001N1+02701+02011100911ADDAA199000091GA1001+999999999GF100991001001999999001001KA1240M+03661MA1999999099901MD1999999-0051REMSYN082AAXX  19004 82392 32996 03611 10270 20201 39990 40091 333 10366 29053 55101 59005;EQDQ01  00002PRCP99
0186823920999992001101912004-03690-040340FM-12+008399999V0201401N001012200019N0500001N1+02301+02001101121ADDAA199000091GF101991011011004501001001KA1240N+02101MA1999999100111MD1999999+0031REMSYN076AAXX  19124 82392 32499 11402 10230 20200 30011 40112 81100 333 20210 58003;EQDQ01  00002PRCP99
0167823920999992001101918004-03690-040340FM-12+008399999V0200501N001012200019N0500001N1+03681+01351100531ADDAA199000091GF103991031011004501001001MA1999999099531MD1999999-0041REMSYN070AAXX  19184 82392 32499 30502 10368 20135 39953 40053 83100 333 59004;EQDQ01  00002PRCP99
0208823920999992001102000004-03690-040340FM-12+008399999V0203601N003612200019N0040001N1+02741+01841100951ADDAA199000091GA1001+999999999GF100991001001999999001001KA1240M+03741MA1999999099941MD1999999+0041REMSYN082AAXX  20004 82392 32996 03607 10274 20184 39994 40095 333 10374 29049 55108 58004;EQDQ01  00002PRCP99
0186823920999992001102012004-03690-040340FM-12+008399999V0200501N001012200019N0500001N1+03041+01681101171ADDAA199000091GF102991021011004501001001KA1240N+02101MA1999999100161MD1999999+0051REMSYN076AAXX  20124 82392 32499 20502 10304 20168 30016 40117 82100 333 20210 58005;EQDQ01  00002PRCP99
0167823920999992001102018004-03690-040340FM-12+008399999V0200501N002612200019N0500001N1+03681+01411100671ADDAA199000091GF102991021011004501001001MA1999999099661MD1999999+0131REMSYN070AAXX  20184 82392 32499 20505 10368 20141 39966 40067 82100 333 58013;EQDQ01  00002PRCP99
0208823920999992001102100004-03690-040340FM-12+008399999V0203601N003112200019N0040001N1+02661+02001101041ADDAA199000091GA1001+999999999GF100991001001999999001001KA1240M+03711MA1999999100031MD1999999+0091REMSYN082AAXX  21004 82392 32996 03606 10266 20200 30003 40104 333 10371 29051 55109 58009;EQDQ01  00002PRCP99
0186823920999992001102112004-03690-040340FM-12+008399999V0200501N003112200019N0500001N1+02901+01961101261ADDAA199000091GF104991041021004501001001KA1240N+02361MA1999999100241MD1999999+0081REMSYN076AAXX  21124 82392 32499 40506 10290 20196 30024 40126 84200 333 20236 58008;EQDQ01  00002PRCP99
0183823920999992001102118004-03690-040340FM-12+008399999V0200901N002119999999N0500001N1+03541+01521100711ADDAA199000091GF106991999021008001001001MA1999999099701MD1999999+0041REMSYN070AAXX  21184 82392 32599 60904 10354 20152 39970 40071 83200 333 58004;EQDQ01+000032SCOTLCQ02  00002PRCP99
0208823920999992001102200004-03690-040340FM-12+008399999V0200501N003612200019N0040001N1+02661+02111101081ADDAA199000091GA1001+999999999GF100991001001999999001001KA1240M+03701MA1999999100061MD1999999+0031REMSYN082AAXX  22004 82392 32596 00507 10266 20211 30006 40108 333 10370 29058 55102 58003;EQDQ01  00002PRCP99
0186823920999992001102212004-03690-040340FM-12+008399999V0201401N001012200019N0500001N1+02961+02131101221ADDAA199000091GF102991021011004501001001KA1240N+02211MA1999999100201MD1999999-0041REMSYN076AAXX  22124 82392 32499 21402 10296 20213 30020 40122 82100 333 20221 59004;EQDQ01  00002PRCP99
0167823920999992001102218004-03690-040340FM-12+008399999V0200501N001512200019N0500001N1+03781+01561100641ADDAA199000091GF101991011011004501001001MA1999999099641MD1999999-0061REMSYN070AAXX  22184 82392 32499 10503 10378 20156 39964 40064 81100 333 59006;EQDQ01  00002PRCP99
0208823920999992001102300004-03690-040340FM-12+008399999V0203601N002612200019N0040001N1+02651+02091100911ADDAA199000091GA1001+999999999GF100991001001999999001001KA1240M+03791MA1999999099891MD1999999-0171REMSYN082AAXX  23004 82392 32996 03605 10265 20209 39989 40091 333 10379 29058 55110 59017;EQDQ01  00002PRCP99
0186823920999992001102312004-03690-040340FM-12+008399999V0200901N001512200019N0500001N1+03081+01951101151ADDAA199000091GF101991011011004501001001KA1240N+02321MA1999999100141MD1999999-0061REMSYN076AAXX  23124 82392 32499 10903 10308 20195 30014 40115 81100 333 20232 59006;EQDQ01  00002PRCP99
0167823920999992001102318004-03690-040340FM-12+008399999V0200901N002612200019N0500001N1+03601+01571100581ADDAA199000091GF104991041021004501001001MA1999999099581MD1999999-0061REMSYN070AAXX  23184 82392 32499 40905 10360 20157 39958 40058 84200 333 59006;EQDQ01  00002PRCP99
0198823920999992001102400004-03690-040340FM-12+008399999V0203601N001012200019N0040001N1+02741+02071101131ADDAA199000091GF102991021001008001031001KA1240M+03761MA1999999100121MD1999999+0231REMSYN088AAXX  24004 82392 32596 23602 10274 20207 30012 40113 82030 333 10376 29054 55097 58023;EQDQ01  00002PRCP99
0186823920999992001102412004-03690-040340FM-12+008399999V0200901N001012200019N0500001N1+02941+02001101361ADDAA199000091GF103991031021004501001001KA1240N+02401MA1999999100341MD1999999+0201REMSYN076AAXX  24124 82392 32499 30902 10294 20200 30034 40136 83200 333 20240 58020;EQDQ01  00002PRCP99
0208823920999992001102500004-03690-040340FM-12+008399999V0203601N003112200019N0040001N1+02661+02091101241ADDAA199000091GA1001+999999999GF100991001001999999001001KA1240M+03631MA1999999100221MD1999999+0101REMSYN082AAXX  25004 82392 32996 03606 10266 20209 30022 40124 333 10363 29059 55099 58010;EQDQ01  00002PRCP99
0186823920999992001102512004-03690-040340FM-12+008399999V0201401N000510450019N0500001N1+02981+01891101421ADDAA199000091GF105991041021004501011001KA1240N+02281MA1999999100401MD1999999+0061REMSYN076AAXX  25124 82392 32499 51401 10298 20189 30040 40142 84210 333 20228 58006;EQDQ01  00002PRCP99
0167823920999992001102518004-03690-040340FM-12+008399999V0201401N001512200019N0500001N1+03641+01261100791ADDAA199000091GF104991011011004501011011MA1999999099781MD1999999+0041REMSYN070AAXX  25184 82392 32499 41403 10364 20126 39978 40079 81111 333 58004;EQDQ01  00002PRCP99
0208823920999992001102600004-03690-040340FM-12+008399999V0200501N003612200019N0040001N1+02641+01851101221ADDAA199000091GA1001+999999999GF100991001001999999001001KA1240M+03681MA1999999100201MD1999999-0021REMSYN082AAXX  26004 82392 32996 00507 10264 20185 30020 40122 333 10368 29050 55090 59002;EQDQ01  00002PRCP99
0186823920999992001102612004-03690-040340FM-12+008399999V0200901N001010450019N0500001N1+02821+02021101381ADDAA199000091GF105991041041004501031001KA1240N+02161MA1999999100361MD1999999-0041REMSYN076AAXX  26124 82392 32499 50902 10282 20202 30036 40138 84430 333 20216 59004;EQDQ01  00002PRCP99
0167823920999992001102618004-03690-040340FM-12+008399999V0203601N000510450019N0500001N1+03501+01681100791ADDAA199000091GF106991021021004501021001MA1999999099781MD1999999+0001REMSYN070AAXX  26184 82392 32499 63601 10350 20168 39978 40079 82220 333 58000;EQDQ01  00002PRCP99
0198823920999992001102700004-03690-040340FM-12+008399999V0200501N005110450019N0040001N1+02681+02201101221ADDAA199000091GF106991041041004501031001KA1240M+03581MA1999999100201MD1999999+0001REMSYN088AAXX  27004 82392 32496 60510 10268 20220 30020 40122 84430 333 10358 29061 55081 58000;EQDQ01  00002PRCP99
0158823920999992001102712004-03690-040340FM-12+008399999V0202301N000510042019N0500001N1+02821+02101101321ADDAA199000091GF107991051051004501031001MA1999999100301REMSYN075AAXX  27124 82392 32499 72301 10282 20210 30030 40132 85530 333 0240 59006;EQDQ01  00002PRCP99
0167823920999992001102718004-03690-040340FM-12+008399999V0203601N003110450019N0500001N1+03341+01871100871ADDAA199000091GF106991041041004501031001MA1999999099861MD1999999+0081REMSYN070AAXX  27184 82392 32499 63606 10334 20187 39986 40087 84430 333 58008;EQDQ01  00002PRCP99
0198823920999992001102800004-03690-040340FM-12+008399999V0203601N002110450019N0040001N1+02661+02091101161ADDAA199000091GF106991041041004501031001KA1240M+03391MA1999999100141MD1999999-0061REMSYN088AAXX  28004 82392 32496 63604 10266 20209 30014 40116 84430 333 10339 29020 55062 59006;EQDQ01  00002PRCP99
0186823920999992001102812004-03690-040340FM-12+008399999V0200501N000510450019N0500001N1+02931+01971101331ADDAA199000091GF106991041041004501031001KA1240N+02241MA1999999100311MD1999999+0011REMSYN076AAXX  28124 82392 32499 60501 10293 20197 30031 40133 84430 333 20224 58001;EQDQ01  00002PRCP99
0167823920999992001102818004-03690-040340FM-12+008399999V0200501N002610450019N0500001N1+03581+01601100701ADDAA199000091GF106991031041004501051021MA1999999099691MD1999999-0171REMSYN070AAXX  28184 82392 32499 60505 10358 20160 39969 40070 83452 333 59017;EQDQ01  00002PRCP99
0198823920999992001102900004-03690-040340FM-12+008399999V0200501N002612200019N0040001N1+02661+02091101181ADDAA199000091GF104991021021004501001021KA1240M+03671MA1999999100161MD1999999+0021REMSYN088AAXX  29004 82392 32496 40505 10266 20209 30016 40118 82202 333 10367 29057 55083 58002;EQDQ01  00002PRCP99
0202823920999992001102912004-03690-040340FM-12+008399999V0202301N000510042019N0500001N1+02981+02011101361ADDAA199000091GF108991999051004501011999KA1240N+02421MA1999999100341MD1999999+0031REMSYN076AAXX  29124 82392 32499 82301 10298 20201 30034 40136 8851/ 333 20242 58003;EQDQ01+000082SCOTLCQ02  00002PRCP99
0167823920999992001102918004-03690-040340FM-12+008399999V0201401N001010042019N0500001N1+03421+01941100851ADDAA199000091GF107991051051004501031001MA1999999099841MD1999999+0151REMSYN070AAXX  29184 82392 32499 71402 10342 20194 39984 40085 85530 333 58015;EQDQ01  00002PRCP99
0198823920999992001103000004-03690-040340FM-12+008399999V0200501N002610450019N0040001N1+02681+02061101221ADDAA199000091GF106991011011004501011071KA1240M+03461MA1999999100201MD1999999+0041REMSYN088AAXX  30004 82392 32496 60505 10268 20206 30020 40122 81117 333 10346 29060 55027 58004;EQDQ01  00002PRCP99
0186823920999992001103012004-03690-040340FM-12+008399999V0201401N001012200019N0500001N1+03001+02001101421ADDAA199000091GF103991031021004501001001KA1240N+02251MA1999999100401MD1999999+0061REMSYN076AAXX  30124 82392 32499 31402 10300 20200 30040 40142 83200 333 20225 58006;EQDQ01  00002PRCP99
0167823920999992001103018004-03690-040340FM-12+008399999V0200901N001510450019N0040001N1+03431+01531100841ADDAA199000091GF106991021021004501011011MA1999999099831MD1999999-0011REMSYN070AAXX  30184 82392 32496 60903 10343 20153 39983 40084 82211 333 59001;EQDQ01  00002PRCP99
0208823920999992001103100004-03690-040340FM-12+008399999V0203601N001512200019N0040001N1+02661+02041101161ADDAA199000091GA1001+999999999GF100991001001999999001001KA1240M+03531MA1999999100141MD1999999-0061REMSYN082AAXX  31004 82392 32996 03603 10266 20204 30014 40116 333 10353 29056 55065 59006;EQDQ01  00002PRCP99
0186823920999992001103112004-03690-040340FM-12+008399999V0200901N003112200019N0500001N1+02941+02081101221ADDAA199000091GF104991031021004501031001KA1240N+02141MA1999999100201MD1999999-0201REMSYN076AAXX  31124 82392 32499 40906 10294 20208 30020 40122 83230 333 20214 59020;EQDQ01  00002PRCP99
0167823920999992001103118004-03690-040340FM-12+008399999V0200501N003112200019N0500001N1+03781+01571101541ADDAA199000091GF101991011011004501001001MA1999999099541MD1999999-0291REMSYN070AAXX  31184 82392 32499 10506 10378 20157 39954 40154 81100 333 59029;EQDQ01  00002PRCP99
0208823920999992001110100004-03690-040340FM-12+008399999V0200501N003112200019N0040001N1+02631+02011100821ADDAA199000091GA1001+999999999GF100991001001999999001001KA1240M+03791MA1999999099851MD1999999-0291REMSYN082AAXX  01004 82392 32996 00506 10263 20201 39985 40082 333 10379 29057 55104 59029;EQDQ01  00002PRCP99
0186823920999992001110112004-03690-040340FM-12+008399999V0200901N000510042019N0500001N1+02871+02031101061ADDAA199000091GF107991051041004501031001KA1240N+02031MA1999999100041MD1999999-0161REMSYN076AAXX  01124 82392 32499 70901 10287 20203 30004 40106 85430 333 20203 59016;EQDQ01  00002PRCP99
0167823920999992001110118004-03690-040340FM-12+008399999V0201801N001012200019N0500001N1+03611+01641100441ADDAA199000091GF103991031021004501001001MA1999999099441MD1999999-0101REMSYN070AAXX  01184 82392 32499 31802 10361 20164 39944 40044 83200 333 59010;EQDQ01  00002PRCP99
0208823920999992001110200004-03690-040340FM-12+008399999V0203601N003112200019N0040001N1+02701+02061100911ADDAA199000091GA1001+999999999GF100991001001999999001001KA1240M+03821MA1999999099891MD1999999+0041REMSYN082AAXX  02004 82392 32996 03606 10270 20206 39989 40091 333 10382 29057 55079 58004;EQDQ01  00002PRCP99
0186823920999992001110212004-03690-040340FM-12+008399999V0201401N001012200019N0500001N1+03021+02021101051ADDAA199000091GF103991031021004501001001KA1240N+02391MA1999999100031MD1999999-0011REMSYN076AAXX  02124 82392 32499 31402 10302 20202 30003 40105 83200 333 20239 59001;EQDQ01  00002PRCP99
0199823920999992001110218004-03690-040340FM-12+008399999V0200901N001010450019N0500001N1+03561+01731100531ADDAA199000091GF106991031021004501011001MA1999999999999MD1999999-0091REMSYN070AAXX  02184 82392 32499 60902 10356 20173 35553 40053 83210 333 59009;EQDQ01+055533APOSP Q02  00002PRCP99Q03 055533APOSP 
0214823920999992001110300004-03690-040340FM-12+008399999V0203601N002619999999N0040001N1+02681+02311100921ADDAA199000091GF107991999021004501001001KA1240M+03601MA1999999099901MD1999999+0011REMSYN088AAXX  03004 82392 32496 73605 10268 20231 39990 40092 83200 333 10360 29053 55062 58001;EQDQ01+000032SCOTLCQ02  00002PRCP99
0186823920999992001110312004-03690-040340FM-12+008399999V0200901N001010450019N0500001N1+02941+02031101111ADDAA199000091GF106991021021004501031001KA1240N+02501MA1999999100091MD1999999+0061REMSYN076AAXX  03124 82392 32499 60902 10294 20203 30009 40111 82230 333 20250 58006;EQDQ01  00002PRCP99
0167823920999992001110318004-03690-040340FM-12+008399999V0200501N004610450019N0500001N1+03291+01981100671ADDAA199000091GF106991021021004501071001MA1999999099661MD1999999+0131REMSYN070AAXX  03184 82392 32499 60509 10329 20198 39966 40067 82270 333 58013;EQDQ01  00002PRCP99
0214823920999992001110400004-03690-040340FM-12+008399999V0200501N000512200019N0040001N1+02621+02051101111ADDAA199000091GF101991999011008001001001KA1240M+03651MA1999999100091MD1999999+0191REMSYN088AAXX  04004 82392 32596 10501 10262 20205 30009 40111 82100 333 10365 29062 55058 58019;EQDQ01+000022SCOTLCQ02  00002PRCP99
0186823920999992001110412004-03690-040340FM-12+008399999V0201801N000510042019N0020001N1+02781+02061101281ADDAA199000091GF108991051051004501021001KA1240N+02101MA1999999100261MD1999999+0171REMSYN076AAXX  04124 82392 32495 81801 10278 20206 30026 40128 85520 333 20210 58017;EQDQ01  00002PRCP99
0167823920999992001110418004-03690-040340FM-12+008399999V0201401N001012200019N0500001N1+03661+01621100771ADDAA199000091GF104991041021008001001001MA1999999099761MD1999999+0101REMSYN070AAXX  04184 82392 32599 41402 10366 20162 39976 40077 84200 333 58010;EQDQ01  00002PRCP99
0208823920999992001110500004-03690-040340FM-12+008399999V0203601N003112200019N0040001N1+02641+02091101071ADDAA199000091GA1001+999999999GF100991001001999999001001KA1240M+03681MA1999999100051MD1999999-0071REMSYN082AAXX  05004 82392 32596 03606 10264 20209 30005 40107 333 10368 29060 55088 59007;EQDQ01  00002PRCP99
0186823920999992001110512004-03690-040340FM-12+008399999V0200901N000510450019N0500001N1+02721+02101101281ADDAA199000091GF108991041051004501021999KA1240N+02241MA1999999100261MD1999999+0031REMSYN076AAXX  05124 82392 32499 80901 10272 20210 30026 40128 8452/ 333 20224 58003;EQDQ01  00002PRCP99
0167823920999992001110518004-03690-040340FM-12+008399999V0200501N001012200019N0500001N1+03441+01671100761ADDAA199000091GF104991031021004501031001MA1999999099751MD1999999-0011REMSYN070AAXX  05184 82392 32499 40502 10344 20167 39975 40076 83230 333 59001;EQDQ01  00002PRCP99
0208823920999992001110600004-03690-040340FM-12+008399999V0203601N003112200019N0040001N1+02631+02121101131ADDAA199000091GA1001+999999999GF100991001001999999001001KA1240M+03591MA1999999100111MD1999999+0061REMSYN082AAXX  06004 82392 32996 03606 10263 20212 30011 40113 333 10359 29063 55056 58006;EQDQ01  00002PRCP99
0186823920999992001110612004-03690-040340FM-12+008399999V0201801N001010450019N0500001N1+02701+02061101361ADDAA199000091GF107991041051004501031001KA1240N+02301MA1999999100341MD1999999+0081REMSYN076AAXX  06124 82392 32499 71802 10270 20206 30034 40136 84530 333 20230 58008;EQDQ01  00002PRCP99
0167823920999992001110618004-03690-040340FM-12+008399999V0201401N000510450019N0500001N1+03441+01841100781ADDAA199000091GF106991021021004501031001MA1999999099771MD1999999+0021REMSYN070AAXX  06184 82392 32499 61401 10344 20184 39977 40078 82230 333 58002;EQDQ01  00002PRCP99
0208823920999992001110700004-03690-040340FM-12+008399999V0200501N000512200019N0040001N1+02621+02161101101ADDAA199000091GA1001+999999999GF100991001001999999001001KA1240M+03581MA1999999100081MD1999999-0031REMSYN082AAXX  07004 82392 32596 00501 10262 20216 30008 40110 333 10358 29065 55057 59003;EQDQ01  00002PRCP99
0186823920999992001110712004-03690-040340FM-12+008399999V0201401N001010450019N0500001N1+02961+02101101321ADDAA199000091GF107991041041004501031001KA1240N+02421MA1999999100301MD1999999-0041REMSYN076AAXX  07124 82392 32499 71402 10296 20210 30030 40132 84430 333 20242 59004;EQDQ01  00002PRCP99
0167823920999992001110718004-03690-040340FM-12+008399999V0201401N001512200019N0500001N1+03621+01871100811ADDAA199000091GF104991031021004501031001MA1999999099801MD1999999+0031REMSYN070AAXX  07184 82392 32499 41403 10362 20187 39980 40081 83230 333 58003;EQDQ01  00002PRCP99
0208823920999992001110800004-03690-040340FM-12+008399999V0203601N003612200019N0040001N1+02601+02031101231ADDAA199000091GA1001+999999999GF100991001001999999001001KA1240M+03651MA1999999100211MD1999999+0131REMSYN082AAXX  08004 82392 32996 03607 10260 20203 30021 40123 333 10365 29060 55074 58013;EQDQ01  00002PRCP99
0186823920999992001110812004-03690-040340FM-12+008399999V0203601N002610450019N0500001N1+02861+02011101441ADDAA199000091GF106991041041004501031001KA1240N+02201MA1999999100421MD1999999+0121REMSYN076AAXX  08124 82392 32499 63605 10286 20201 30042 40144 84430 333 20220 58012;EQDQ01  00002PRCP99
0167823920999992001110818004-03690-040340FM-12+008399999V0200501N002610042019N0500001N1+03441+01481100911ADDAA199000091GF106991061021004501001001MA1999999099891MD1999999+0091REMSYN070AAXX  08184 82392 32499 60505 10344 20148 39989 40091 86200 333 58009;EQDQ01  00002PRCP99
0208823920999992001110900004-03690-040340FM-12+008399999V0200501N003112200019N0040001N1+02681+01891101261ADDAA199000091GA1001+999999999GF100991001001999999001001KA1240M+03641MA1999999100241MD1999999-0031REMSYN082AAXX  09004 82392 32996 00506 10268 20189 30024 40126 333 10364 29054 55084 59003;EQDQ01  00002PRCP99
0186823920999992001110912004-03690-040340FM-12+008399999V0200901N002110450019N0500001N1+02901+01931101401ADDAA199000091GF105991031021004501031001KA1240N+02091MA1999999100381MD1999999-0041REMSYN076AAXX  09124 82392 32499 50904 10290 20193 30038 40140 83230 333 20209 59004;EQDQ01  00002PRCP99
0167823920999992001110918004-03690-040340FM-12+008399999V0201401N000512200019N0500001N1+03571+01551100851ADDAA199000091GF104991031021004501011001MA1999999099831MD1999999-0061REMSYN070AAXX  09184 82392 32499 41401 10357 20155 39983 40085 83210 333 59006;EQDQ01  00002PRCP99
0208823920999992001111000004-03690-040340FM-12+008399999V0203601N003112200019N0040001N1+02661+01971101251ADDAA199000091GA1001+999999999GF100991001001999999001001KA1240M+03641MA1999999100231MD1999999-0011REMSYN082AAXX  10004 82392 32996 03606 10266 20197 30023 40125 333 10364 29054 55101 59001;EQDQ01  00002PRCP99
0186823920999992001111012004-03690-040340FM-12+008399999V0201401N001512200019N0500001N1+02961+01961101421ADDAA199000091GF102991021011004501001001KA1240N+02101MA1999999100401MD1999999+0021REMSYN076AAXX  10124 82392 32499 21403 10296 20196 30040 40142 82100 333 20210 58002;EQDQ01  00002PRCP99
0167823920999992001111018004-03690-040340FM-12+008399999V0200901N001012200019N0500001N1+03621+01481100811ADDAA199000091GF102991021011004501001001MA1999999099801MD1999999-0031REMSYN070AAXX  10184 82392 32499 20902 10362 20148 39980 40081 82100 333 59003;EQDQ01  00002PRCP99
0208823920999992001111100004-03690-040340FM-12+008399999V0203601N001512200019N0040001N1+02661+02181101201ADDAA199000091GA1001+999999999GF100991001001999999001001KA1240M+03701MA1999999100181MD1999999-0051REMSYN082AAXX  11004 82392 32996 03603 10266 20218 30018 40120 333 10370 29058 55106 59005;EQDQ01  00002PRCP99
0186823920999992001111112004-03690-040340FM-12+008399999V0200901N001010042019N0500001N1+03071+02001101391ADDAA199000091GF106991061021004501001001KA1240N+02241MA1999999100381MD1999999-0021REMSYN076AAXX  11124 82392 32499 60902 10307 20200 30038 40139 86200 333 20224 59002;EQDQ01  00002PRCP99
0167823920999992001111118004-03690-040340FM-12+008399999V0200901N001012200019N0500001N1+03651+01771100791ADDAA199000091GF104991041021004501001001MA1999999099781MD1999999-0021REMSYN070AAXX  11184 82392 32499 40902 10365 20177 39978 40079 84200 333 59002;EQDQ01  00002PRCP99
0208823920999992001111200004-03690-040340FM-12+008399999V0200501N003112200019N0040001N1+02661+02041101231ADDAA199000091GA1001+999999999GF100991001001999999001001KA1240M+03691MA1999999100221MD1999999+0041REMSYN082AAXX  12004 82392 32996 00506 10266 20204 30022 40123 333 10369 29056 55095 58004;EQDQ01  00002PRCP99
0186823920999992001111212004-03690-040340FM-12+008399999V0200901N003110450019N0500001N1+02901+02041101421ADDAA199000091GF108991041051004501031001KA1240N+02431MA1999999100401MD1999999+0021REMSYN076AAXX  12124 82392 32499 80906 10290 20204 30040 40142 84530 333 20243 58002;EQDQ01  00002PRCP99
0167823920999992001111218004-03690-040340FM-12+008399999V0201401N001010450019N0500001N1+03541+01761100891ADDAA199000091GF105991031021004501031001MA1999999099881MD1999999+0101REMSYN070AAXX  12184 82392 32499 51402 10354 20176 39988 40089 83230 333 58010;EQDQ01  00002PRCP99
0208823920999992001111300004-03690-040340FM-12+008399999V0200501N003112200019N0020001N1+02671+01971101241ADDAA199000091GA1001+999999999GF100991001001999999001001KA1240M+03641MA1999999100221MD1999999+0001REMSYN082AAXX  13004 82392 32595 00506 10267 20197 30022 40124 333 10364 29056 55079 58000;EQDQ01  00002PRCP99
0186823920999992001111312004-03690-040340FM-12+008399999V0201801N001010042019N0500001N1+02941+02081101271ADDAA199000091GF106991051041004501031001KA1240N+02411MA1999999100251MD1999999-0151REMSYN076AAXX  13124 82392 32499 61802 10294 20208 30025 40127 85430 333 20241 59015;EQDQ01  00002PRCP99
0167823920999992001111318004-03690-040340FM-12+008399999V0200501N000512200019N0500001N1+03491+01771100711ADDAA199000091GF104991041021004501001001MA1999999099701MD1999999-0181REMSYN070AAXX  13184 82392 32499 40501 10349 20177 39970 40071 84200 333 59018;EQDQ01  00002PRCP99
0208823920999992001111400004-03690-040340FM-12+008399999V0200501N002612200019N0040001N1+02621+02051101111ADDAA199000091GA1001+999999999GF100991001001999999001001KA1240M+03611MA1999999100091MD1999999-0131REMSYN082AAXX  14004 82392 32996 00505 10262 20205 30009 40111 333 10361 29060 55095 59013;EQDQ01  00002PRCP99
0186823920999992001111412004-03690-040340FM-12+008399999V0200901N003110450019N0500001N1+02861+02031101121ADDAA199000091GF106991041041004501031001KA1240N+02181MA1999999100101MD1999999-0151REMSYN076AAXX  14124 82392 32499 60906 10286 20203 30010 40112 84430 333 20218 59015;EQDQ01  00002PRCP99
0208823920999992001111500004-03690-040340FM-12+008399999V0203601N005112200019N0040001N1+02601+01991101011ADDAA199000091GA1001+999999999GF100991001001999999001001KA1240M+03621MA1999999099991MD1999999-0071REMSYN082AAXX  15004 82392 32996 03610 10260 20199 39999 40101 333 10362 29059 55077 59007;EQDQ01  00002PRCP99
0186823920999992001111512004-03690-040340FM-12+008399999V0203601N000510042019N0500001N1+02761+02041101171ADDAA199000091GF107991061051004501031001KA1240N+02201MA1999999100151MD1999999+0051REMSYN076AAXX  15124 82392 32499 73601 10276 20204 30015 40117 86530 333 20220 58005;EQDQ01  00002PRCP99
0167823920999992001111518004-03690-040340FM-12+008399999V0200501N001012200019N0500001N1+03591+01671100621ADDAA199000091GF103991031021004501001001MA1999999099621MD1999999+0061REMSYN070AAXX  15184 82392 32499 30502 10359 20167 39962 40062 83200 333 58006;EQDQ01  00002PRCP99
0208823920999992001111600004-03690-040340FM-12+008399999V0203601N002112200019N0040001N1+02621+02051101071ADDAA199000091GA1001+999999999GF100991001001999999001001KA1240M+03601MA1999999100051MD1999999+0061REMSYN082AAXX  16004 82392 32996 03604 10262 20205 30005 40107 333 10360 29060 55068 58006;EQDQ01  00002PRCP99
0186823920999992001111612004-03690-040340FM-12+008399999V0200901N001010450019N0500001N1+02921+02061101281ADDAA199000091GF106991041041004501031001KA1240N+02021MA1999999100261MD1999999+0111REMSYN076AAXX  16124 82392 32499 60902 10292 20206 30026 40128 84430 333 20202 58011;EQDQ01  00002PRCP99
0167823920999992001111618004-03690-040340FM-12+008399999V0200901N001010450019N0500001N1+03591+01721100801ADDAA199000091GF105991031021004501011011MA1999999099791MD1999999+0171REMSYN070AAXX  16184 82392 32499 50902 10359 20172 39979 40080 83211 333 58017;EQDQ01  00002PRCP99
0208823920999992001111700004-03690-040340FM-12+008399999V0203601N002112200019N0040001N1+02621+02031101141ADDAA199000091GA1001+999999999GF100991001001999999001001KA1240M+03621MA1999999100121MD1999999+0071REMSYN082AAXX  17004 82392 32596 03604 10262 20203 30012 40114 333 10362 29059 55082 58007;EQDQ01  00002PRCP99
0186823920999992001111712004-03690-040340FM-12+008399999V0200501N001012200019N0500001N1+03061+01961101261ADDAA199000091GF103991031021004501001001KA1240N+02301MA1999999100241MD1999999-0021REMSYN076AAXX  17124 82392 32499 30502 10306 20196 30024 40126 83200 333 20230 59002;EQDQ01  00002PRCP99
0167823920999992001111718004-03690-040340FM-12+008399999V0203601N001012200019N0500001N1+03611+01531100721ADDAA199000091GF103991021021004501011001MA1999999099711MD1999999-0081REMSYN070AAXX  17184 82392 32499 33602 10361 20153 39971 40072 82210 333 59008;EQDQ01  00002PRCP99
0208823920999992001111800004-03690-040340FM-12+008399999V0200501N004112200019N0040001N1+02661+02041101151ADDAA199000091GA1001+999999999GF100991001001999999001001KA1240M+03731MA1999999100141MD1999999+0021REMSYN082AAXX  18004 82392 32996 00508 10266 20204 30014 40115 333 10373 29055 55106 58002;EQDQ01  00002PRCP99
0186823920999992001111812004-03690-040340FM-12+008399999V0201401N001012200019N0500001N1+03021+02021101301ADDAA199000091GF102991021011008001001001KA1240N+02261MA1999999100281MD1999999+0041REMSYN076AAXX  18124 82392 32599 21402 10302 20202 30028 40130 82100 333 20226 58004;EQDQ01  00002PRCP99
0183823920999992001111818004-03690-040340FM-12+008399999V0201401N001012200019N0500001N1+03621+01591100711ADDAA199000091GF101991999011004501001001MA1999999099701MD1999999-0011REMSYN070AAXX  18184 82392 32499 11402 10362 20159 39970 40071 82100 333 59001;EQDQ01+000022SCOTLCQ02  00002PRCP99
0208823920999992001111900004-03690-040340FM-12+008399999V0203601N003112200019N0040001N1+02751+01861101071ADDAA199000091GA1001+999999999GF100991001001999999001001KA1240M+03701MA1999999100061MD1999999-0081REMSYN082AAXX  19004 82392 32996 03606 10275 20186 30006 40107 333 10370 29052 55109 59008;EQDQ01  00002PRCP99
0186823920999992001111912004-03690-040340FM-12+008399999V0200901N002612200019N0500001N1+03101+01941101251ADDAA199000091GF104991031021004501031001KA1240N+02141MA1999999100241MD1999999-0041REMSYN076AAXX  19124 82392 32499 40905 10310 20194 30024 40125 83230 333 20214 59004;EQDQ01  00002PRCP99
0167823920999992001111918004-03690-040340FM-12+008399999V0200501N003112200019N0500001N1+03421+02091100811ADDAA199000091GF102991021021004501001001MA1999999099801MD1999999+0101REMSYN070AAXX  19184 82392 32499 20506 10342 20209 39980 40081 82200 333 58010;EQDQ01  00002PRCP99
0223823920999992001112000004-03690-040340FM-12+008399999V0203601N002612200019N0040001N1+02631+02031101121ADDAA106001091AY161061AY261061GA1001+999999999GF100991001001999999001001KA1240M+03671MA1999999100111MD1999999+0051MW1021REMSYN094AAXX  20004 82392 21996 03605 10263 20203 30011 40112 70266 333 10367 29059 55097 58005 60011;
0173823920999992001112012004-03690-040340FM-12+008399999V0201401N001010450019N0500001N1+02941+02081101221ADDAA124001091GF106991041041004501031001KA1240N+02281MA1999999100241MD1999999-0041REMSYN082AAXX  20124 82392 22499 61402 10294 20208 30024 40122 84430 333 20228 59004 60014;
0167823920999992001112018004-03690-040340FM-12+008399999V0200901N002610450019N0500001N1+03481+01791100721ADDAA199000091GF105991031041004501031001MA1999999099711MD1999999-0091REMSYN070AAXX  20184 82392 32499 50905 10348 20179 39971 40072 83430 333 59009;EQDQ01  00002PRCP99
0208823920999992001112100004-03690-040340FM-12+008399999V0203601N003612200019N0040001N1+02661+02091101141ADDAA199000091GA1001+999999999GF100991001001999999001001KA1240M+03561MA1999999100121MD1999999-0011REMSYN082AAXX  21004 82392 32996 03607 10266 20209 30012 40114 333 10356 29060 55080 59001;EQDQ01  00002PRCP99
0186823920999992001112112004-03690-040340FM-12+008399999V0200901N003110450019N0500001N1+02981+01981101271ADDAA199000091GF106991041041004501031001KA1240N+02301MA1999999100251MD1999999+0051REMSYN076AAXX  21124 82392 32499 60906 10298 20198 30025 40127 84430 333 20230 58005;EQDQ01  00002PRCP99
0167823920999992001112118004-03690-040340FM-12+008399999V0200901N002612200019N0500001N1+03621+01691100741ADDAA199000091GF104991041021004501001001MA1999999099731MD1999999+0021REMSYN070AAXX  21184 82392 32499 40905 10362 20169 39973 40074 84200 333 58002;EQDQ01  00002PRCP99
0192823920999992001112200004-03690-040340FM-12+008399999V0200501N003112200019N0040001N1+02661+02091101191ADDAA199000091GF102991999999999999999999KA1240M+03671MA1999999100171MD1999999+0051REMSYN082AAXX  22004 82392 32996 20506 10266 20209 30017 40119 333 10367 29057 55089 58005;EQDQ01  00002PRCP99
0186823920999992001112212004-03690-040340FM-12+008399999V0200901N000510450019N0040001N1+02881+01131101291ADDAA199000091GF106991041041004501031001KA1240N+02281MA1999999100271MD1999999+0021REMSYN076AAXX  22124 82392 32496 60901 10288 20113 30027 40129 84430 333 20228 58002;EQDQ01  00002PRCP99
0167823920999992001112218004-03690-040340FM-12+008399999V0201401N000512200019N0500001N1+03661+01621100771ADDAA199000091GF104991041021004501001001MA1999999099701MD1999999-0031REMSYN070AAXX  22184 82392 32499 41401 10366 20162 39970 40077 84200 333 59003;EQDQ01  00002PRCP99
0208823920999992001112300004-03690-040340FM-12+008399999V0203601N002612200019N0040001N1+02681+02261101021ADDAA199000091GA1001+999999999GF100991001001999999001001KA1240M+03641MA1999999100001MD1999999-0171REMSYN082AAXX  23004 82392 32996 03605 10268 20226 30000 40102 333 10364 29062 55093 59017;EQDQ01  00002PRCP99
0186823920999992001112312004-03690-040340FM-12+008399999V0200901N003110450019N0500001N1+02921+02061100981ADDAA199000091GF106991041041004501031001KA1240N+02301MA1999999099961MD1999999-0311REMSYN076AAXX  23124 82392 32499 60906 10292 20206 39996 40098 84430 333 20230 59031;EQDQ01  00002PRCP99
0167823920999992001112318004-03690-040340FM-12+008399999V0201401N001512200019N0500001N1+03621+01641100501ADDAA199000091GF103991031021004501001001MA1999999099501MD1999999-0201REMSYN070AAXX  23184 82392 32499 31403 10362 20164 39950 40050 83200 333 59020;EQDQ01  00002PRCP99
0208823920999992001112400004-03690-040340FM-12+008399999V0203601N001512200019N0040001N1+02661+02181100831ADDAA199000091GA1001+999999999GF100991001001999999001001KA1240M+03701MA1999999099811MD1999999-0191REMSYN082AAXX  24004 82392 32996 03603 10266 20218 39981 40083 333 10370 29060 55088 59019;EQDQ01  00002PRCP99
0186823920999992001112412004-03690-040340FM-12+008399999V0201801N000510450019N0500001N1+02801+02201100971ADDAA199000091GF107991041051004501031001KA1240N+02401MA1999999099951MD1999999-0011REMSYN076AAXX  24124 82392 32499 71801 10280 20220 39995 40097 84530 333 20240 59001;EQDQ01  00002PRCP99
0167823920999992001112418004-03690-040340FM-12+008399999V0201401N001010042019N0500001N1+03581+01701100451ADDAA199000091GF106991051021004501031001MA1999999099451MD1999999-0051REMSYN070AAXX  24184 82392 32499 61402 10358 20170 39945 40045 85230 333 59005;EQDQ01  00002PRCP99
0198823920999992001112500004-03690-040340FM-12+008399999V0200501N005712200019N0040001N1+02701+01991100871ADDAA199000091GF102991021001004501031001KA1240M+03661MA1999999099851MD1999999+0041REMSYN088AAXX  25004 82392 32496 20511 10270 20199 39985 40087 82030 333 10366 29059 55068 58004;EQDQ01  00002PRCP99
0202823920999992001112512004-03690-040340FM-12+008399999V0200501N001519999999N0500001N1+02871+02051101071ADDAA199000091GF106991999011008001001001KA1240N+02061MA1999999100051MD1999999-0121REMSYN076AAXX  25124 82392 32599 60503 10287 20205 30005 40107 82100 333 20206 59012;EQDQ01+000022SCOTLCQ02  00002PRCP99
0183823920999992001112518004-03690-040340FM-12+008399999V0200901N002619999999N0020001N1+03611+01481100451ADDAA199000091GF106991999021004501001001MA1999999099451MD1999999+0001REMSYN070AAXX  25184 82392 32495 60905 10361 20148 39945 40045 83200 333 58000;EQDQ01+000032SCOTLCQ02  00002PRCP99
0186823920999992001112612004-03690-040340FM-12+008399999V0201401N001510450019N0500001N1+02901+02201101061ADDAA199000091GF106991041021004501031001KA1240N+02491MA1999999100041MD1999999-0011REMSYN076AAXX  26124 82392 32499 61403 10290 20220 30004 40106 84230 333 20249 59001;EQDQ01  00002PRCP99
0167823920999992001112618004-03690-040340FM-12+008399999V0200501N003110450019N0500001N1+03601+01811100501ADDAA199000091GF105991031021004501031001MA1999999099501MD1999999+0051REMSYN070AAXX  26184 82392 32499 50506 10360 20181 39950 40050 83230 333 58005;EQDQ01  00002PRCP99
0214823920999992001112700004-03690-040340FM-12+008399999V0203601N001519999999N0020001N1+02721+02051100951ADDAA199000091GF107991999011004501001001KA1240M+03671MA1999999099931MD1999999+0071REMSYN088AAXX  27004 82392 32495 73603 10272 20205 39993 40095 82100 333 10367 29059 55076 58007;EQDQ01+000022SCOTLCQ02  00002PRCP99
0186823920999992001112712004-03690-040340FM-12+008399999V0200901N003110042019N0500001N1+02941+02241101041ADDAA199000091GF108991051051004501021999KA1240N+02581MA1999999100021MD1999999-0021REMSYN076AAXX  27124 82392 32499 80906 10294 20224 30002 40104 8552/ 333 20258 59002;EQDQ01  00002PRCP99
0167823920999992001112718004-03690-040340FM-12+008399999V0200501N002610450019N0500001N1+03521+01831100541ADDAA199000091GF106991041051004501011001MA1999999099531MD1999999+0031REMSYN070AAXX  27184 82392 32499 60505 10352 20183 39953 40054 84510 333 58003;EQDQ01  00002PRCP99
0198823920999992001112800004-03690-040340FM-12+008399999V0203601N004612200019N0040001N1+02681+02061100901ADDAA199000091GF102991021001008001011001KA1240M+03541MA1999999099881MD1999999-0051REMSYN088AAXX  28004 82392 32596 23609 10268 20206 39988 40090 82010 333 10354 29060 55069 59005;EQDQ01  00002PRCP99
0173823920999992001112812004-03690-040340FM-12+008399999V0201401N000510042019N0500001N1+03001+02171101121ADDAA124001091GF107991051051004501031001KA1240N+02421MA1999999100101MD1999999+0081REMSYN082AAXX  28124 82392 22499 71401 10300 20217 30010 40112 85530 333 20242 58008 60014;
0182823920999992001112818004-03690-040340FM-12+008399999V0201401N002610450019N0500001N1+03401+01891100661ADDAA106000191AY151061AY221061GF106991041041004501031001MA1999999099631MD1999999+0121MW1021REMSYN082AAXX  28184 82392 21499 61405 10340 20189 39963 40066 70252 84430 333 58012 69911;
0214823920999992001112900004-03690-040340FM-12+008399999V0203601N001012200019N0040001N1+02701+02031100981ADDAA199000091GF102991999021008001001001KA1240M+03481MA1999999099971MD1999999+0091REMSYN088AAXX  29004 82392 32596 23602 10270 20203 39997 40098 83200 333 10348 29059 55036 58009;EQDQ01+000032SCOTLCQ02  00002PRCP99
0186823920999992001112912004-03690-040340FM-12+008399999V0200901N001010450019N0500001N1+03061+01991101141ADDAA199000091GF106991041041004501031001KA1240N+02361MA1999999100131MD1999999+0031REMSYN076AAXX  29124 82392 32499 60902 10306 20199 30013 40114 84430 333 20236 58003;EQDQ01  00002PRCP99
0167823920999992001112918004-03690-040340FM-12+008399999V0203601N002610450019N0040001N1+03641+01891100541ADDAA199000091GF106991031041004501011001MA1999999099541MD1999999-0121REMSYN070AAXX  29184 82392 32496 63605 10364 20189 39954 40054 83410 333 59012;EQDQ01  00002PRCP99
0208823920999992001113000004-03690-040340FM-12+008399999V0203601N002612200019N0040001N1+02641+02201100911ADDAA199000091GA1001+999999999GF100991001001999999001001KA1240M+03721MA1999999099901MD1999999-0071REMSYN082AAXX  30004 82392 32996 03605 10264 20220 39990 40091 333 10372 29059 55085 59007;EQDQ01  00002PRCP99
0186823920999992001113012004-03690-040340FM-12+008399999V0201401N001010450019N0500001N1+02941+02081101151ADDAA199000091GF106991041041004501031001KA1240N+02241MA1999999100131MD1999999+0001REMSYN076AAXX  30124 82392 32499 61402 10294 20208 30013 40115 84430 333 20224 58000;EQDQ01  00002PRCP99
0167823920999992001113018004-03690-040340FM-12+008399999V0203601N002610450019N0500001N1+03421+01831100571ADDAA199000091GF106991021051004501011011MA1999999099571MD1999999+0031REMSYN070AAXX  30184 82392 32499 63605 10342 20183 39957 40057 82511 333 58003;EQDQ01  00002PRCP99
0198823920999992001120100004-03690-040340FM-12+008399999V0200501N002612200019N0040001N1+02721+02261101021ADDAA199000091GF104991021011004501031001KA1240M+03561MA1999999100001MD1999999+0101REMSYN088AAXX  01004 82392 32496 40505 10272 20226 30000 40102 82130 333 10356 29063 55072 58010;EQDQ01  00002PRCP99
0186823920999992001120112004-03690-040340FM-12+008399999V0203601N002610450019N0500001N1+02961+02101101091ADDAA199000091GF107991041041004501031001KA1240N+02341MA1999999100071MD1999999-0061REMSYN076AAXX  01124 82392 32499 73605 10296 20210 30007 40109 84430 333 20234 59006;EQDQ01  00002PRCP99
0167823920999992001120118004-03690-040340FM-12+008399999V0200501N001010450019N0500001N1+03441+01801100611ADDAA199000091GF106991031041004501031011MA1999999099611MD1999999+0041REMSYN070AAXX  01184 82392 32499 60502 10344 20180 39961 40061 83431 333 58004;EQDQ01  00002PRCP99
0198823920999992001120200004-03690-040340FM-12+008399999V0200501N000512200019N0040001N1+02731+02171100961ADDAA199000091GF101991011001008001011001KA1240M+03561MA1999999099951MD1999999-0051REMSYN088AAXX  02004 82392 32596 10501 10273 20217 39995 40096 81010 333 10356 29060 55073 59005;EQDQ01  00002PRCP99
0186823920999992001120212004-03690-040340FM-12+008399999V0200901N002610450019N0500001N1+02901+02201101041ADDAA199000091GF106991041041004501031001KA1240N+02301MA1999999100021MD1999999-0051REMSYN076AAXX  02124 82392 32499 60905 10290 20220 30002 40104 84430 333 20230 59005;EQDQ01  00002PRCP99
0167823920999992001120218004-03690-040340FM-12+008399999V0200501N003110042019N0500001N1+03521+01791100501ADDAA199000091GF106991051021004501031001MA1999999099501MD1999999-0111REMSYN070AAXX  02184 82392 32499 60506 10352 20179 39950 40050 85230 333 59011;EQDQ01  00002PRCP99
0198823920999992001120300004-03690-040340FM-12+008399999V0200501N003610042019N0040001N1+02821+02021100891ADDAA199000091GF107991051051004501031001KA1240M+03621MA1999999099881MD1999999-0071REMSYN088AAXX  03004 82392 32496 70507 10282 20202 39988 40089 85530 333 10362 29056 55082 59007;EQDQ01  00002PRCP99
0186823920999992001120312004-03690-040340FM-12+008399999V0203601N001510450019N0500001N1+02901+02071100931ADDAA199000091GF106991041041004501031001KA1240N+02511MA1999999099921MD1999999-0101REMSYN076AAXX  03124 82392 32499 63603 10290 20207 39992 40093 84430 333 20251 59010;EQDQ01  00002PRCP99
0167823920999992001120318004-03690-040340FM-12+008399999V0200501N002612200019N0500001N1+03341+02051100501ADDAA199000091GF104991031021004501031001MA1999999099501MD1999999+0001REMSYN070AAXX  03184 82392 32499 40505 10334 20205 39950 40050 83230 333 58000;EQDQ01  00002PRCP99
0232823920999992001120400004-03690-040340FM-12+008399999V0200501N002612200019N0040001N1+02721+01951100881ADDAA106000591AY161061AY261061GF104991999051004501001001KA1240M+03561MA1999999099861MD1999999-0021MW1021REMSYN100AAXX  04004 82392 21496 40505 10272 20195 39986 40088 70266 82500 333 10356 29059 55065 59002 69961;EQDQ01+000022SCOTLC
0173823920999992001120412004-03690-040340FM-12+008399999V0200901N001510450019N0500001N1+02981+02151101071ADDAA124000591GF105991031021004501031001KA1240N+02401MA1999999100061MD1999999+0141REMSYN082AAXX  04124 82392 22499 50903 10298 20215 30006 40107 83230 333 20240 58014 69964;
0182823920999992001120418004-03690-040340FM-12+008399999V0203601N000510042019N0200001N1+02491+02171100661ADDAA106000591AY101061AY221061GF108991081051004501999999MA1999999099641MD1999999+0141MW1611REMSYN082AAXX  04184 82392 21498 83601 10249 20217 39964 40066 76102 885// 333 58014 69961;
0213823920999992001120500004-03690-040340FM-12+008399999V0203601N001010042019N0040001N1+02721+02191101061ADDAA106000591AY151061AY251061GF108991051051004501021999KA1240M+03481MA1999999100041MD1999999-0181MW1021REMSYN100AAXX  05004 82392 21496 83602 10272 20219 30004 40106 70255 8552/ 333 10348 29072 55043 59018 69951;
0173823920999992001120512004-03690-040340FM-12+008399999V0200901N003610450019N0500001N1+02901+02041101061ADDAA124001091GF106991041041004501031001KA1240N+02301MA1999999100041MD1999999-0021REMSYN082AAXX  05124 82392 22499 60907 10290 20204 30004 40106 84430 333 20230 59002 60014;
0167823920999992001120518004-03690-040340FM-12+008399999V0201401N001510450019N0500001N1+03501+01941100621ADDAA199000091GF105991041021004501031001MA1999999099611MD1999999-0031REMSYN070AAXX  05184 82392 32499 51403 10350 20194 39961 40062 84230 333 59003;EQDQ01  00002PRCP99
0198823920999992001120600004-03690-040340FM-12+008399999V0203601N001510450019N0040001N1+02721+02051100981ADDAA199000091GF106991041051004501011001KA1240M+03621MA1999999099961MD1999999-0101REMSYN088AAXX  06004 82392 32496 63603 10272 20205 39996 40098 84510 333 10362 29058 55071 59010;EQDQ01  00002PRCP99
0186823920999992001120612004-03690-040340FM-12+008399999V0200901N003110042019N0500001N1+03001+02081101051ADDAA199000091GF106991051041004501031001KA1240N+02201MA1999999100041MD1999999+0001REMSYN076AAXX  06124 82392 32499 60906 10300 20208 30004 40105 85430 333 20220 58000;EQDQ01  00002PRCP99
0167823920999992001120618004-03690-040340FM-12+008399999V0200501N002610042019N0500001N1+03201+02031100611ADDAA199000091GF107991051051004501031001MA1999999099601MD1999999-0011REMSYN070AAXX  06184 82392 32499 70505 10320 20203 39960 40061 85530 333 59001;EQDQ01  00002PRCP99
0213823920999992001120700004-03690-040340FM-12+008399999V0200501N005712200019N0040001N1+02801+02201100951ADDAA106000591AY151061AY221061GF103991031021004501001001KA1240M+03621MA1999999099941MD1999999-0021MW1021REMSYN100AAXX  07004 82392 21496 30511 10280 20220 39994 40095 70252 83200 333 10362 29062 55070 59002 69961;
0173823920999992001120712004-03690-040340FM-12+008399999V0200901N001510450019N0500001N1+02941+02161100971ADDAA124000591GF105991031021004501031001KA1240N+02491MA1999999099961MD1999999-0081REMSYN082AAXX  07124 82392 22499 50903 10294 20216 39996 40097 83230 333 20249 59008 69964;
0167823920999992001120718004-03690-040340FM-12+008399999V0201401N001012200019N0500001N1+03601+01861100471ADDAA199000091GF103991031021004501001001MA1999999099471MD1999999-0131REMSYN070AAXX  07184 82392 32499 31402 10360 20186 39947 40047 83200 333 59013;EQDQ01  00002PRCP99
0173823920999992001121012004-03690-040340FM-12+008399999V0201401N001010450019N0500001N1+03081+02101101061ADDAA124002091GF105991041021004501031001KA1240N+02281MA1999999100051MD1999999+0011REMSYN082AAXX  10124 82392 22499 51402 10308 20210 30005 40106 84230 333 20228 58001 60024;
0214823920999992001121100004-03690-040340FM-12+008399999V0203601N001519999999N0040001N1+02761+02141101031ADDAA199000091GF106991999021004501001001KA1240M+03581MA1999999100021MD1999999+0131REMSYN088AAXX  11004 82392 32496 63603 10276 20214 30002 40103 84200 333 10358 29057 55080 58013;EQDQ01+000042SCOTLCQ02  00002PRCP99
0167823920999992001121118004-03690-040340FM-12+008399999V0200501N003112200019N0500001N1+03321+02041100751ADDAA199000091GF104991041021004501001001MA1999999099741MD1999999+0121REMSYN070AAXX  11184 82392 32499 40506 10332 20204 39974 40075 84200 333 58012;EQDQ01  00002PRCP99
0198823920999992001121200004-03690-040340FM-12+008399999V0200501N005112200019N0040001N1+02681+02201101011ADDAA199000091GF102991021001004501031001KA1240M+03441MA1999999100001MD1999999-0021REMSYN088AAXX  12004 82392 32496 20510 10268 20220 30000 40101 82030 333 10344 29063 55061 59002;EQDQ01  00002PRCP99
0186823920999992001121212004-03690-040340FM-12+008399999V0200901N003112200019N0500001N1+02981+02061101101ADDAA199000091GF103991031021004501001001KA1240N+02301MA1999999100081MD1999999-0021REMSYN076AAXX  12124 82392 32499 30906 10298 20206 30008 40110 83200 333 20230 59002;EQDQ01  00002PRCP99
0167823920999992001121218004-03690-040340FM-12+008399999V0200501N005112200019N0500001N1+03521+01871100551ADDAA199000091GF102991021021004501001001MA1999999099551MD1999999-0191REMSYN070AAXX  12184 82392 32499 20510 10352 20187 39955 40055 82200 333 59019;EQDQ01  00002PRCP99
0208823920999992001121300004-03690-040340FM-12+008399999V0203601N002612200019N0040001N1+02681+02161100921ADDAA199000091GA1001+999999999GF100991001001999999001001KA1240M+03551MA1999999099901MD1999999-0101REMSYN082AAXX  13004 82392 32996 03605 10268 20216 39990 40092 333 10355 29060 55082 59010;EQDQ01  00002PRCP99
0186823920999992001121312004-03690-040340FM-12+008399999V0200501N005110450019N0500001N1+03061+01991101011ADDAA199000091GF105991041021004501031001KA1240N+02291MA1999999100001MD1999999-0081REMSYN076AAXX  13124 82392 32499 50510 10306 20199 30000 40101 84230 333 20229 59008;EQDQ01  00002PRCP99
0183823920999992001121318004-03690-040340FM-12+008399999V0200901N001512200019N0500001N1+03541+01411100461ADDAA199000091GF103991999021004501001001MA1999999099461MD1999999-0091REMSYN070AAXX  13184 82392 32499 30903 10354 20141 39946 40046 82200 333 59009;EQDQ01+000022SCOTLCQ02  00002PRCP99
0208823920999992001121400004-03690-040340FM-12+008399999V0200501N005712200019N0040001N1+02781+02061100781ADDAA199000091GA1001+999999999GF100991001001999999001001KA1240M+03661MA1999999099771MD1999999-0131REMSYN082AAXX  14004 82392 32996 00511 10278 20206 39977 40078 333 10366 29053 55105 59013;EQDQ01  00002PRCP99
0186823920999992001121412004-03690-040340FM-12+008399999V0201401N002112200019N0500001N1+02941+02161101011ADDAA199000091GF104991041021004501001001KA1240N+02211MA1999999100001MD1999999+0001REMSYN076AAXX  14124 82392 32499 41404 10294 20216 30000 40101 84200 333 20221 58000;EQDQ01  00002PRCP99
0167823920999992001121418004-03690-040340FM-12+008399999V0201401N003110450019N0500001N1+03481+01921100671ADDAA199000091GF105991041041004501031001MA1999999099651MD1999999+0191REMSYN070AAXX  14184 82392 32499 51406 10348 20192 39965 40067 84430 333 58019;EQDQ01  00002PRCP99
0208823920999992001121500004-03690-040340FM-12+008399999V0200501N004112200019N0020001N1+02781+02231100911ADDAA199000091GA1001+999999999GF100991001001999999001001KA1240M+03541MA1999999099901MD1999999+0131REMSYN082AAXX  15004 82392 32595 00508 10278 20223 39990 40091 333 10354 29062 55079 58013;EQDQ01  00002PRCP99
0186823920999992001121512004-03690-040340FM-12+008399999V0201401N006212200019N0500001N1+03081+02101101061ADDAA199000091GF103991031021004501001001KA1240N+02401MA1999999100051MD1999999+0051REMSYN076AAXX  15124 82392 32499 31412 10308 20210 30005 40106 83200 333 20240 58005;EQDQ01  00002PRCP99
0167823920999992001121518004-03690-040340FM-12+008399999V0200501N003110450019N0500001N1+03521+01961100601ADDAA199000091GF106991041041004501031001MA1999999099601MD1999999-0051REMSYN070AAXX  15184 82392 32499 60506 10352 20196 39960 40060 84430 333 59005;EQDQ01  00002PRCP99
0208823920999992001121600004-03690-040340FM-12+008399999V0200501N005112200019N0040001N1+02821+02221100961ADDAA199000091GA1001+999999999GF100991001001999999001001KA1240M+03621MA1999999099951MD1999999+0051REMSYN082AAXX  16004 82392 32996 00510 10282 20222 39995 40096 333 10362 29059 55091 58005;EQDQ01  00002PRCP99
0202823920999992001121612004-03690-040340FM-12+008399999V0200901N002610042019N0040001N1+02941+02241101131ADDAA199000091GF106991999021004501001001KA1240N+02441MA1999999100121MD1999999+0071REMSYN076AAXX  16124 82392 32496 60905 10294 20224 30012 40113 85200 333 20244 58007;EQDQ01+000052SCOTLCQ02  00002PRCP99
0183823920999992001121618004-03690-040340FM-12+008399999V0200501N003112200019N0500001N1+03501+02161100671ADDAA199000091GF104991999021004501001001MA1999999099661MD1999999+0061REMSYN070AAXX  16184 82392 32499 40506 10350 20216 39966 40067 83200 333 58006;EQDQ01+000032SCOTLCQ02  00002PRCP99
0208823920999992001121700004-03690-040340FM-12+008399999V0200501N005112200019N0040001N1+02781+02181100911ADDAA199000091GA1001+999999999GF100991001001999999001001KA1240M+03521MA1999999099901MD1999999-0051REMSYN082AAXX  17004 82392 32996 00510 10278 20218 39990 40091 333 10352 29063 55069 59005;EQDQ01  00002PRCP99
0186823920999992001121712004-03690-040340FM-12+008399999V0200901N002610042019N0040001N1+02941+02291101061ADDAA199000091GF107991051051004501031001KA1240N+02411MA1999999100051MD1999999-0071REMSYN076AAXX  17124 82392 32496 70905 10294 20229 30005 40106 85530 333 20241 59007;EQDQ01  00002PRCP99
0167823920999992001121718004-03690-040340FM-12+008399999V0200501N003110450019N0500001N1+03421+02091100671ADDAA199000091GF108991041051004501011999MA1999999099661MD1999999+0001REMSYN070AAXX  17184 82392 32499 80506 10342 20209 39966 40067 8451/ 333 58000;EQDQ01  00002PRCP99
0208823920999992001121800004-03690-040340FM-12+008399999V0203601N002612200019N0040001N1+02801+02151100911ADDAA199000091GA1001+999999999GF100991001001999999001001KA1240M+03501MA1999999099901MD1999999+0001REMSYN082AAXX  18004 82392 32996 03605 10280 20215 39990 40091 333 10350 29062 55060 58000;EQDQ01  00002PRCP99
0186823920999992001121812004-03690-040340FM-12+008399999V0201401N003112200019N0500001N1+02901+02201101091ADDAA199000091GF104991041021004501001001KA1240N+02261MA1999999100081MD1999999+0031REMSYN076AAXX  18124 82392 32499 41406 10290 20220 30008 40109 84200 333 20226 58003;EQDQ01  00002PRCP99
0167823920999992001121818004-03690-040340FM-12+008399999V0200901N001510450019N0500001N1+03521+01791100671ADDAA199000091GF105991041021004501031001MA1999999099661MD1999999+0001REMSYN070AAXX  18184 82392 32499 50903 10352 20179 39966 40067 84230 333 58000;EQDQ01  00002PRCP99
0208823920999992001121900004-03690-040340FM-12+008399999V0200501N002612200019N0040001N1+02801+01951101051ADDAA199000091GA1001+999999999GF100991001001999999001001KA1240M+03621MA1999999100041MD1999999+0141REMSYN082AAXX  19004 82392 32496 00505 10280 20195 30004 40105 333 10362 29055 55093 58014;EQDQ01  00002PRCP99
0186823920999992001121912004-03690-040340FM-12+008399999V0200901N001512200019N0500001N1+03001+02171101111ADDAA199000091GF102991021011004501001001KA1240N+02171MA1999999100101MD1999999+0021REMSYN076AAXX  19124 82392 32499 20903 10300 20217 30010 40111 82100 333 20217 58002;EQDQ01  00002PRCP99
0167823920999992001121918004-03690-040340FM-12+008399999V0201401N003112200019N0500001N1+03561+01821100761ADDAA199000091GF102991021021004501001001MA1999999099751MD1999999+0091REMSYN070AAXX  19184 82392 32499 21406 10356 20182 39975 40076 82200 333 58009;EQDQ01  00002PRCP99
0208823920999992001122000004-03690-040340FM-12+008399999V0200501N005712200019N0040001N1+02861+01871101051ADDAA199000091GA1001+999999999GF100991001001999999001001KA1240M+03681MA1999999100041MD1999999+0001REMSYN082AAXX  20004 82392 32996 00511 10286 20187 30004 40105 333 10368 29052 55101 58000;EQDQ01  00002PRCP99
0186823920999992001122012004-03690-040340FM-12+008399999V0201401N001012200019N0500001N1+03041+02121101161ADDAA199000091GF103991031021004501001001KA1240N+02281MA1999999100151MD1999999+0051REMSYN076AAXX  20124 82392 32499 31402 10304 20212 30015 40116 83200 333 20228 58005;EQDQ01  00002PRCP99
0167823920999992001122018004-03690-040340FM-12+008399999V0200901N001012200019N0500001N1+03601+01811100661ADDAA199000091GF103991031021004501001001MA1999999099651MD1999999-0101REMSYN070AAXX  20184 82392 32499 30902 10360 20181 39965 40066 83200 333 59010;EQDQ01  00002PRCP99
0208823920999992001122100004-03690-040340FM-12+008399999V0200501N003112200019N0040001N1+02801+01951101051ADDAA199000091GA1001+999999999GF100991001001999999001001KA1240M+03661MA1999999100041MD1999999+0001REMSYN082AAXX  21004 82392 32996 00506 10280 20195 30004 40105 333 10366 29053 55101 58000;EQDQ01  00002PRCP99
0186823920999992001122112004-03690-040340FM-12+008399999V0201401N002612200019N0500001N1+02941+02081101161ADDAA199000091GF103991031021004501001001KA1240N+02191MA1999999100151MD1999999+0001REMSYN076AAXX  21124 82392 32499 31405 10294 20208 30015 40116 83200 333 20219 58000;EQDQ01  00002PRCP99
0167823920999992001122118004-03690-040340FM-12+008399999V0201401N001512200019N0500001N1+03621+01781100661ADDAA199000091GF103991021011004501031001MA1999999099651MD1999999+0001REMSYN070AAXX  21184 82392 32499 31403 10362 20178 39965 40066 82130 333 58000;EQDQ01  00002PRCP99
0208823920999992001122200004-03690-040340FM-12+008399999V0200501N003612200019N0040001N1+02781+02181101011ADDAA199000091GA1001+999999999GF100991001001999999001001KA1240M+03721MA1999999100001MD1999999-0041REMSYN082AAXX  22004 82392 32996 00507 10278 20218 30000 40101 333 10372 29058 55102 59004;EQDQ01  00002PRCP99
0202823920999992001122212004-03690-040340FM-12+008399999V0200901N002119999999N0500001N1+02961+02211101171ADDAA199000091GF105991999021004501001001KA1240N+02381MA1999999100161MD1999999+0011REMSYN076AAXX  22124 82392 32499 50904 10296 20221 30016 40117 84200 333 20238 58001;EQDQ01+000042SCOTLCQ02  00002PRCP99
0167823920999992001122218004-03690-040340FM-12+008399999V0200501N003112200019N0500001N1+03681+01741100731ADDAA199000091GF102991021011004501001001MA1999999099721MD1999999+0071REMSYN070AAXX  22184 82392 32499 20506 10368 20174 39972 40073 82100 333 58007;EQDQ01  00002PRCP99
0198823920999992001122300004-03690-040340FM-12+008399999V0200501N002612200019N0040001N1+02741+02191101111ADDAA199000091GF102991021011008001001001KA1240M+03741MA1999999100101MD1999999+0101REMSYN088AAXX  23004 82392 32596 20505 10274 20219 30010 40111 82100 333 10374 29060 55097 58010;EQDQ01  00002PRCP99
0186823920999992001122312004-03690-040340FM-12+008399999V0200901N001510450019N0200001N1+02981+02151101261ADDAA199000091GF106991041021004501031001KA1240N+02231MA1999999100251MD1999999+0091REMSYN076AAXX  23124 82392 32498 60903 10298 20215 30025 40126 84230 333 20223 58009;EQDQ01  00002PRCP99
0167823920999992001122318004-03690-040340FM-12+008399999V0200901N001010042019N0500001N1+03601+01671100811ADDAA199000091GF106991051021004501031001MA1999999099801MD1999999+0081REMSYN070AAXX  23184 82392 32499 60902 10360 20167 39980 40081 85230 333 58008;EQDQ01  00002PRCP99
0198823920999992001122400004-03690-040340FM-12+008399999V0200501N003112200019N0040001N1+02781+02061101111ADDAA199000091GF103991031001008001031001KA1240M+03661MA1999999100101MD1999999+0001REMSYN088AAXX  24004 82392 32596 30506 10278 20206 30010 40111 83030 333 10366 29056 55081 58000;EQDQ01  00002PRCP99
0186823920999992001122412004-03690-040340FM-12+008399999V0200901N003110450019N0500001N1+03021+02071101211ADDAA199000091GF106991041041004501031001KA1240N+02291MA1999999100201MD1999999-0051REMSYN076AAXX  24124 82392 32499 60906 10302 20207 30020 40121 84430 333 20229 59005;EQDQ01  00002PRCP99
0167823920999992001122418004-03690-040340FM-12+008399999V0200501N002612200019N0500001N1+03681+01791100761ADDAA199000091GF104991041021004501001001MA1999999099751MD1999999-0051REMSYN070AAXX  24184 82392 32499 40505 10368 20179 39975 40076 84200 333 59005;EQDQ01  00002PRCP99
0214823920999992001122500004-03690-040340FM-12+008399999V0200501N003112200019N0040001N1+02821+02121101111ADDAA199000091GF104991999021004501001001KA1240M+03701MA1999999100101MD1999999+0001REMSYN088AAXX  25004 82392 32496 40506 10282 20212 30010 40111 86200 333 10370 29056 55102 58000;EQDQ01+000062SCOTLCQ02  00002PRCP99
0186823920999992001122512004-03690-040340FM-12+008399999V0200901N001512200019N0500001N1+03081+02191101161ADDAA199000091GF101991011011004501001001KA1240N+02291MA1999999100151MD1999999-0051REMSYN076AAXX  25124 82392 32499 10903 10308 20219 30015 40116 81100 333 20229 59005;EQDQ01  00002PRCP99
0167823920999992001122518004-03690-040340FM-12+008399999V0200501N002112200019N0500001N1+03621+01591100671ADDAA199000091GF103991031021004501001001MA1999999099661MD1999999-0091REMSYN070AAXX  25184 82392 32499 30504 10362 20159 39966 40067 83200 333 59009;EQDQ01  00002PRCP99
0208823920999992001122600004-03690-040340FM-12+008399999V0200501N002612200019N0040001N1+02821+02101101011ADDAA199000091GA1001+999999999GF100991001001999999001001KA1240M+03811MA1999999100001MD1999999-0101REMSYN082AAXX  26004 82392 32996 00505 10282 20210 30000 40101 333 10381 29055 55103 59010;EQDQ01  00002PRCP99
0186823920999992001122612004-03690-040340FM-12+008399999V0200901N002110450019N0500001N1+03081+02071101161ADDAA199000091GF105991041021004501031001KA1240N+02391MA1999999100151MD1999999+0001REMSYN076AAXX  26124 82392 32499 50904 10308 20207 30015 40116 84230 333 20239 58000;EQDQ01  00002PRCP99
0167823920999992001122618004-03690-040340FM-12+008399999V0200501N003110450019N0500001N1+03561+01991100641ADDAA199000091GF106991041021004501031001MA1999999099641MD1999999-0021REMSYN070AAXX  26184 82392 32499 60506 10356 20199 39964 40064 84230 333 59002;EQDQ01  00002PRCP99
0208823920999992001122700004-03690-040340FM-12+008399999V0200501N005712200019N0040001N1+02821+02221100971ADDAA199000091GA1001+999999999GF100991001001999999001001KA1240M+03641MA1999999099961MD1999999-0061REMSYN082AAXX  27004 82392 32996 00511 10282 20222 39996 40097 333 10364 29059 55093 59006;EQDQ01  00002PRCP99
0186823920999992001122712004-03690-040340FM-12+008399999V0201401N002612200019N0500001N1+02961+02311101131ADDAA199000091GF104991031021004501031001KA1240N+02401MA1999999100121MD1999999-0031REMSYN076AAXX  27124 82392 32499 41405 10296 20231 30012 40113 83230 333 20240 59003;EQDQ01  00002PRCP99
0183823920999992001122718004-03690-040340FM-12+008399999V0201401N001019999999N0500001N1+03661+01911100691ADDAA199000091GF105991999021004501001001MA1999999099681MD1999999+0041REMSYN070AAXX  27184 82392 32499 51402 10366 20191 39968 40069 83200 333 58004;EQDQ01+000032SCOTLCQ02  00002PRCP99
0198823920999992001122800004-03690-040340FM-12+008399999V0200501N005112200019N0040001N1+02801+02311101061ADDAA199000091GF102991021001008001031001KA1240M+03701MA1999999100051MD1999999+0091REMSYN088AAXX  28004 82392 32596 20510 10280 20231 30005 40106 82030 333 10370 29064 55082 58009;EQDQ01  00002PRCP99
0186823920999992001122812004-03690-040340FM-12+008399999V0201401N001510450019N0500001N1+03081+02211101281ADDAA199000091GF106991041021004501031001KA1240N+02401MA1999999100271MD1999999+0151REMSYN076AAXX  28124 82392 32499 61403 10308 20221 30027 40128 84230 333 20240 58015;EQDQ01  00002PRCP99
0167823920999992001122818004-03690-040340FM-12+008399999V0200501N005110042019N0500001N1+03521+01961100831ADDAA199000091GF107991051041004501031001MA1999999099821MD1999999+0141REMSYN070AAXX  28184 82392 32499 70510 10352 20196 39982 40083 85430 333 58014;EQDQ01  00002PRCP99
0213823920999992001122900004-03690-040340FM-12+008399999V0200501N003112200019N0040001N1+02801+02341101111ADDAA106002091AY161061AY221061GF103991031021008001001001KA1240M+03621MA1999999100101MD1999999+0051MW1021REMSYN100AAXX  29004 82392 21596 30506 10280 20234 30010 40111 70262 83200 333 10362 29063 55042 58005 60021;
0173823920999992001122912004-03690-040340FM-12+008399999V0201801N000512200019N0500001N1+02881+02281101221ADDAA124002091GF103991021011004501031001KA1240N+02481MA1999999100201MD1999999-0071REMSYN082AAXX  29124 82392 22499 31801 10288 20228 30020 40122 82130 333 20248 59007 60024;
0167823920999992001122918004-03690-040340FM-12+008399999V0200501N003112200019N0500001N1+03521+02031100811ADDAA199000091GF104991031021004501031001MA1999999099801MD1999999-0021REMSYN070AAXX  29184 82392 32499 40506 10352 20203 39980 40081 83230 333 59002;EQDQ01  00002PRCP99
0198823920999992001123000004-03690-040340FM-12+008399999V0200501N002612200019N0040001N1+02721+02341101071ADDAA199000091GF102991021001008001031001KA1240M+03621MA1999999100051MD1999999-0051REMSYN088AAXX  30004 82392 32596 20505 10272 20234 30005 40107 82030 333 10362 29068 55068 59005;EQDQ01  00002PRCP99
0202823920999992001123012004-03690-040340FM-12+008399999V0201401N001012200019N0500001N1+02961+02281101121ADDAA199000091GF104991999021004501001001KA1240N+02471MA1999999100101MD1999999-0101REMSYN076AAXX  30124 82392 32499 41402 10296 20228 30010 40112 83200 333 20247 59010;EQDQ01+000032SCOTLCQ02  00002PRCP99
0167823920999992001123018004-03690-040340FM-12+008399999V0200501N003612200019N0500001N1+03441+01921100641ADDAA199000091GF103991031021004501001001MA1999999099641MD1999999-0161REMSYN070AAXX  30184 82392 32499 30507 10344 20192 39964 40064 83200 333 59016;EQDQ01  00002PRCP99
0214823920999992001123100004-03690-040340FM-12+008399999V0200501N005712200019N0040001N1+02761+02281100961ADDAA199000091GF104991999021004501001001KA1240M+03621MA1999999099951MD1999999-0101REMSYN088AAXX  31004 82392 32496 40511 10276 20228 39995 40096 83200 333 10362 29064 55076 59010;EQDQ01+000032SCOTLCQ02  00002PRCP99
0186823920999992001123112004-03690-040340FM-12+008399999V0201801N000512200019N0500001N1+02901+02301101091ADDAA199000091GF103991031021004501001001KA1240N+02371MA1999999100071MD1999999-0031REMSYN076AAXX  31124 82392 32499 31801 10290 20230 30007 40109 83200 333 20237 59003;EQDQ01  00002PRCP99
0167823920999992001123118004-03690-040340FM-12+008399999V0201401N001010450019N0500001N1+03621+01871100581ADDAA199000091GF106991041021004501031001MA1999999099581MD1999999-0061REMSYN070AAXX  31184 82392 32499 61402 10362 20187 39958 40058 84230 333 59006;EQDQ01  00002PRCP99
